{
  "0000": {
    "postcode": "0010000",
    "prefecture": "北海道",
    "prefecture_kana": "ホッカイドウ",
    "prefecture_code": 1,
    "city": "札幌市北区",
    "city_kana": "サッポロシキタク",
    "town": "",
    "town_kana": "",
    "street": null,
    "office_name": null,
    "office_name_kana": null
  },
  "0010": {
    "postcode": "0010010",
    "prefecture": "北海道",
    "prefecture_kana": "ホッカイドウ",
    "prefecture_code": 1,
    "city": "札幌市北区",
    "city_kana": "サッポロシキタク",
    "town": "北十条西",
    "town_kana": "キタ10ジョウニシ",
    "street": null,
    "office_name": null,
    "office_name_kana": null
  },
  "0011": {
    "postcode": "0010011",
    "prefecture": "北海道",
    "prefecture_kana": "ホッカイドウ",
    "prefecture_code": 1,
    "city": "札幌市北区",
    "city_kana": "サッポロシキタク",
    "town": "北十一条西",
    "town_kana": "キタ11ジョウニシ",
    "street": null,
    "office_name": null,
    "office_name_kana": null
  },
  "0012": {
    "postcode": "0010012",
    "prefecture": "北海道",
    "prefecture_kana": "ホッカイドウ",
    "prefecture_code": 1,
    "city": "札幌市北区",
    "city_kana": "サッポロシキタク",
    "town": "北十二条西",
    "town_kana": "キタ12ジョウニシ",
    "street": null,
    "office_name": null,
    "office_name_kana": null
  },
  "0013": {
    "postcode": "0010013",
    "prefecture": "北海道",
    "prefecture_kana": "ホッカイドウ",
    "prefecture_code": 1,
    "city": "札幌市北区",
    "city_kana": "サッポロシキタク",
    "town": "北十三条西",
    "town_kana": "キタ13ジョウニシ",
    "street": null,
    "office_name": null,
    "office_name_kana": null
  },
  "0014": {
    "postcode": "0010014",
    "prefecture": "北海道",
    "prefecture_kana": "ホッカイドウ",
    "prefecture_code": 1,
    "city": "札幌市北区",
    "city_kana": "サッポロシキタク",
    "town": "北十四条西",
    "town_kana": "キタ14ジョウニシ",
    "street": null,
    "office_name": null,
    "office_name_kana": null
  },
  "0015": {
    "postcode": "0010015",
    "prefecture": "北海道",
    "prefecture_kana": "ホッカイドウ",
    "prefecture_code": 1,
    "city": "札幌市北区",
    "city_kana": "サッポロシキタク",
    "town": "北十五条西",
    "town_kana": "キタ15ジョウニシ",
    "street": null,
    "office_name": null,
    "office_name_kana": null
  },
  "0016": {
    "postcode": "0010016",
    "prefecture": "北海道",
    "prefecture_kana": "ホッカイドウ",
    "prefecture_code": 1,
    "city": "札幌市北区",
    "city_kana": "サッポロシキタク",
    "town": "北十六条西",
    "town_kana": "キタ16ジョウニシ",
    "street": null,
    "office_name": null,
    "office_name_kana": null
  },
  "0017": {
    "postcode": "0010017",
    "prefecture": "北海道",
    "prefecture_kana": "ホッカイドウ",
    "prefecture_code": 1,
    "city": "札幌市北区",
    "city_kana": "サッポロシキタク",
    "town": "北十七条西",
    "town_kana": "キタ17ジョウニシ",
    "street": null,
    "office_name": null,
    "office_name_kana": null
  },
  "0018": {
    "postcode": "0010018",
    "prefecture": "北海道",
    "prefecture_kana": "ホッカイドウ",
    "prefecture_code": 1,
    "city": "札幌市北区",
    "city_kana": "サッポロシキタク",
    "town": "北十八条西",
    "town_kana": "キタ18ジョウニシ",
    "street": null,
    "office_name": null,
    "office_name_kana": null
  },
  "0019": {
    "postcode": "0010019",
    "prefecture": "北海道",
    "prefecture_kana": "ホッカイドウ",
    "prefecture_code": 1,
    "city": "札幌市北区",
    "city_kana": "サッポロシキタク",
    "town": "北十九条西",
    "town_kana": "キタ19ジョウニシ",
    "street": null,
    "office_name": null,
    "office_name_kana": null
  },
  "0020": {
    "postcode": "0010020",
    "prefecture": "北海道",
    "prefecture_kana": "ホッカイドウ",
    "prefecture_code": 1,
    "city": "札幌市北区",
    "city_kana": "サッポロシキタク",
    "town": "北二十条西",
    "town_kana": "キタ20ジョウニシ",
    "street": null,
    "office_name": null,
    "office_name_kana": null
  },
  "0021": {
    "postcode": "0010021",
    "prefecture": "北海道",
    "prefecture_kana": "ホッカイドウ",
    "prefecture_code": 1,
    "city": "札幌市北区",
    "city_kana": "サッポロシキタク",
    "town": "北二十一条西",
    "town_kana": "キタ21ジョウニシ",
    "street": null,
    "office_name": null,
    "office_name_kana": null
  },
  "0022": {
    "postcode": "0010022",
    "prefecture": "北海道",
    "prefecture_kana": "ホッカイドウ",
    "prefecture_code": 1,
    "city": "札幌市北区",
    "city_kana": "サッポロシキタク",
    "town": "北二十二条西",
    "town_kana": "キタ22ジョウニシ",
    "street": null,
    "office_name": null,
    "office_name_kana": null
  },
  "0023": {
    "postcode": "0010023",
    "prefecture": "北海道",
    "prefecture_kana": "ホッカイドウ",
    "prefecture_code": 1,
    "city": "札幌市北区",
    "city_kana": "サッポロシキタク",
    "town": "北二十三条西",
    "town_kana": "キタ23ジョウニシ",
    "street": null,
    "office_name": null,
    "office_name_kana": null
  },
  "0024": {
    "postcode": "0010024",
    "prefecture": "北海道",
    "prefecture_kana": "ホッカイドウ",
    "prefecture_code": 1,
    "city": "札幌市北区",
    "city_kana": "サッポロシキタク",
    "town": "北二十四条西",
    "town_kana": "キタ24ジョウニシ",
    "street": null,
    "office_name": null,
    "office_name_kana": null
  },
  "0025": {
    "postcode": "0010025",
    "prefecture": "北海道",
    "prefecture_kana": "ホッカイドウ",
    "prefecture_code": 1,
    "city": "札幌市北区",
    "city_kana": "サッポロシキタク",
    "town": "北二十五条西",
    "town_kana": "キタ25ジョウニシ",
    "street": null,
    "office_name": null,
    "office_name_kana": null
  },
  "0026": {
    "postcode": "0010026",
    "prefecture": "北海道",
    "prefecture_kana": "ホッカイドウ",
    "prefecture_code": 1,
    "city": "札幌市北区",
    "city_kana": "サッポロシキタク",
    "town": "北二十六条西",
    "town_kana": "キタ26ジョウニシ",
    "street": null,
    "office_name": null,
    "office_name_kana": null
  },
  "0027": {
    "postcode": "0010027",
    "prefecture": "北海道",
    "prefecture_kana": "ホッカイドウ",
    "prefecture_code": 1,
    "city": "札幌市北区",
    "city_kana": "サッポロシキタク",
    "town": "北二十七条西",
    "town_kana": "キタ27ジョウニシ",
    "street": null,
    "office_name": null,
    "office_name_kana": null
  },
  "0028": {
    "postcode": "0010028",
    "prefecture": "北海道",
    "prefecture_kana": "ホッカイドウ",
    "prefecture_code": 1,
    "city": "札幌市北区",
    "city_kana": "サッポロシキタク",
    "town": "北二十八条西",
    "town_kana": "キタ28ジョウニシ",
    "street": null,
    "office_name": null,
    "office_name_kana": null
  },
  "0029": {
    "postcode": "0010029",
    "prefecture": "北海道",
    "prefecture_kana": "ホッカイドウ",
    "prefecture_code": 1,
    "city": "札幌市北区",
    "city_kana": "サッポロシキタク",
    "town": "北二十九条西",
    "town_kana": "キタ29ジョウニシ",
    "street": null,
    "office_name": null,
    "office_name_kana": null
  },
  "0030": {
    "postcode": "0010030",
    "prefecture": "北海道",
    "prefecture_kana": "ホッカイドウ",
    "prefecture_code": 1,
    "city": "札幌市北区",
    "city_kana": "サッポロシキタク",
    "town": "北三十条西",
    "town_kana": "キタ30ジョウニシ",
    "street": null,
    "office_name": null,
    "office_name_kana": null
  },
  "0031": {
    "postcode": "0010031",
    "prefecture": "北海道",
    "prefecture_kana": "ホッカイドウ",
    "prefecture_code": 1,
    "city": "札幌市北区",
    "city_kana": "サッポロシキタク",
    "town": "北三十一条西",
    "town_kana": "キタ31ジョウニシ",
    "street": null,
    "office_name": null,
    "office_name_kana": null
  },
  "0032": {
    "postcode": "0010032",
    "prefecture": "北海道",
    "prefecture_kana": "ホッカイドウ",
    "prefecture_code": 1,
    "city": "札幌市北区",
    "city_kana": "サッポロシキタク",
    "town": "北三十二条西",
    "town_kana": "キタ32ジョウニシ",
    "street": null,
    "office_name": null,
    "office_name_kana": null
  },
  "0033": {
    "postcode": "0010033",
    "prefecture": "北海道",
    "prefecture_kana": "ホッカイドウ",
    "prefecture_code": 1,
    "city": "札幌市北区",
    "city_kana": "サッポロシキタク",
    "town": "北三十三条西",
    "town_kana": "キタ33ジョウニシ",
    "street": null,
    "office_name": null,
    "office_name_kana": null
  },
  "0034": {
    "postcode": "0010034",
    "prefecture": "北海道",
    "prefecture_kana": "ホッカイドウ",
    "prefecture_code": 1,
    "city": "札幌市北区",
    "city_kana": "サッポロシキタク",
    "town": "北三十四条西",
    "town_kana": "キタ34ジョウニシ",
    "street": null,
    "office_name": null,
    "office_name_kana": null
  },
  "0035": {
    "postcode": "0010035",
    "prefecture": "北海道",
    "prefecture_kana": "ホッカイドウ",
    "prefecture_code": 1,
    "city": "札幌市北区",
    "city_kana": "サッポロシキタク",
    "town": "北三十五条西",
    "town_kana": "キタ35ジョウニシ",
    "street": null,
    "office_name": null,
    "office_name_kana": null
  },
  "0036": {
    "postcode": "0010036",
    "prefecture": "北海道",
    "prefecture_kana": "ホッカイドウ",
    "prefecture_code": 1,
    "city": "札幌市北区",
    "city_kana": "サッポロシキタク",
    "town": "北三十六条西",
    "town_kana": "キタ36ジョウニシ",
    "street": null,
    "office_name": null,
    "office_name_kana": null
  },
  "0037": {
    "postcode": "0010037",
    "prefecture": "北海道",
    "prefecture_kana": "ホッカイドウ",
    "prefecture_code": 1,
    "city": "札幌市北区",
    "city_kana": "サッポロシキタク",
    "town": "北三十七条西",
    "town_kana": "キタ37ジョウニシ",
    "street": null,
    "office_name": null,
    "office_name_kana": null
  },
  "0038": {
    "postcode": "0010038",
    "prefecture": "北海道",
    "prefecture_kana": "ホッカイドウ",
    "prefecture_code": 1,
    "city": "札幌市北区",
    "city_kana": "サッポロシキタク",
    "town": "北三十八条西",
    "town_kana": "キタ38ジョウニシ",
    "street": null,
    "office_name": null,
    "office_name_kana": null
  },
  "0039": {
    "postcode": "0010039",
    "prefecture": "北海道",
    "prefecture_kana": "ホッカイドウ",
    "prefecture_code": 1,
    "city": "札幌市北区",
    "city_kana": "サッポロシキタク",
    "town": "北三十九条西",
    "town_kana": "キタ39ジョウニシ",
    "street": null,
    "office_name": null,
    "office_name_kana": null
  },
  "0040": {
    "postcode": "0010040",
    "prefecture": "北海道",
    "prefecture_kana": "ホッカイドウ",
    "prefecture_code": 1,
    "city": "札幌市北区",
    "city_kana": "サッポロシキタク",
    "town": "北四十条西",
    "town_kana": "キタ40ジョウニシ",
    "street": null,
    "office_name": null,
    "office_name_kana": null
  },
  "0045": {
    "postcode": "0010045",
    "prefecture": "北海道",
    "prefecture_kana": "ホッカイドウ",
    "prefecture_code": 1,
    "city": "札幌市北区",
    "city_kana": "サッポロシキタク",
    "town": "麻生町",
    "town_kana": "アサブチョウ",
    "street": null,
    "office_name": null,
    "office_name_kana": null
  },
  "0901": {
    "postcode": "0010901",
    "prefecture": "北海道",
    "prefecture_kana": "ホッカイドウ",
    "prefecture_code": 1,
    "city": "札幌市北区",
    "city_kana": "サッポロシキタク",
    "town": "新琴似一条",
    "town_kana": "シンコトニ1ジョウ",
    "street": null,
    "office_name": null,
    "office_name_kana": null
  },
  "0902": {
    "postcode": "0010902",
    "prefecture": "北海道",
    "prefecture_kana": "ホッカイドウ",
    "prefecture_code": 1,
    "city": "札幌市北区",
    "city_kana": "サッポロシキタク",
    "town": "新琴似二条",
    "town_kana": "シンコトニ2ジョウ",
    "street": null,
    "office_name": null,
    "office_name_kana": null
  },
  "0903": {
    "postcode": "0010903",
    "prefecture": "北海道",
    "prefecture_kana": "ホッカイドウ",
    "prefecture_code": 1,
    "city": "札幌市北区",
    "city_kana": "サッポロシキタク",
    "town": "新琴似三条",
    "town_kana": "シンコトニ3ジョウ",
    "street": null,
    "office_name": null,
    "office_name_kana": null
  },
  "0904": {
    "postcode": "0010904",
    "prefecture": "北海道",
    "prefecture_kana": "ホッカイドウ",
    "prefecture_code": 1,
    "city": "札幌市北区",
    "city_kana": "サッポロシキタク",
    "town": "新琴似四条",
    "town_kana": "シンコトニ4ジョウ",
    "street": null,
    "office_name": null,
    "office_name_kana": null
  },
  "0905": {
    "postcode": "0010905",
    "prefecture": "北海道",
    "prefecture_kana": "ホッカイドウ",
    "prefecture_code": 1,
    "city": "札幌市北区",
    "city_kana": "サッポロシキタク",
    "town": "新琴似五条",
    "town_kana": "シンコトニ5ジョウ",
    "street": null,
    "office_name": null,
    "office_name_kana": null
  },
  "0906": {
    "postcode": "0010906",
    "prefecture": "北海道",
    "prefecture_kana": "ホッカイドウ",
    "prefecture_code": 1,
    "city": "札幌市北区",
    "city_kana": "サッポロシキタク",
    "town": "新琴似六条",
    "town_kana": "シンコトニ6ジョウ",
    "street": null,
    "office_name": null,
    "office_name_kana": null
  },
  "0907": {
    "postcode": "0010907",
    "prefecture": "北海道",
    "prefecture_kana": "ホッカイドウ",
    "prefecture_code": 1,
    "city": "札幌市北区",
    "city_kana": "サッポロシキタク",
    "town": "新琴似七条",
    "town_kana": "シンコトニ7ジョウ",
    "street": null,
    "office_name": null,
    "office_name_kana": null
  },
  "0908": {
    "postcode": "0010908",
    "prefecture": "北海道",
    "prefecture_kana": "ホッカイドウ",
    "prefecture_code": 1,
    "city": "札幌市北区",
    "city_kana": "サッポロシキタク",
    "town": "新琴似八条",
    "town_kana": "シンコトニ8ジョウ",
    "street": null,
    "office_name": null,
    "office_name_kana": null
  },
  "0909": {
    "postcode": "0010909",
    "prefecture": "北海道",
    "prefecture_kana": "ホッカイドウ",
    "prefecture_code": 1,
    "city": "札幌市北区",
    "city_kana": "サッポロシキタク",
    "town": "新琴似九条",
    "town_kana": "シンコトニ9ジョウ",
    "street": null,
    "office_name": null,
    "office_name_kana": null
  },
  "0910": {
    "postcode": "0010910",
    "prefecture": "北海道",
    "prefecture_kana": "ホッカイドウ",
    "prefecture_code": 1,
    "city": "札幌市北区",
    "city_kana": "サッポロシキタク",
    "town": "新琴似十条",
    "town_kana": "シンコトニ10ジョウ",
    "street": null,
    "office_name": null,
    "office_name_kana": null
  },
  "0911": {
    "postcode": "0010911",
    "prefecture": "北海道",
    "prefecture_kana": "ホッカイドウ",
    "prefecture_code": 1,
    "city": "札幌市北区",
    "city_kana": "サッポロシキタク",
    "town": "新琴似十一条",
    "town_kana": "シンコトニ11ジョウ",
    "street": null,
    "office_name": null,
    "office_name_kana": null
  },
  "0912": {
    "postcode": "0010912",
    "prefecture": "北海道",
    "prefecture_kana": "ホッカイドウ",
    "prefecture_code": 1,
    "city": "札幌市北区",
    "city_kana": "サッポロシキタク",
    "town": "新琴似十二条",
    "town_kana": "シンコトニ12ジョウ",
    "street": null,
    "office_name": null,
    "office_name_kana": null
  },
  "0915": {
    "postcode": "0010915",
    "prefecture": "北海道",
    "prefecture_kana": "ホッカイドウ",
    "prefecture_code": 1,
    "city": "札幌市北区",
    "city_kana": "サッポロシキタク",
    "town": "新琴似町",
    "town_kana": "シンコトニチョウ",
    "street": null,
    "office_name": null,
    "office_name_kana": null
  },
  "0921": {
    "postcode": "0010921",
    "prefecture": "北海道",
    "prefecture_kana": "ホッカイドウ",
    "prefecture_code": 1,
    "city": "札幌市北区",
    "city_kana": "サッポロシキタク",
    "town": "新川一条",
    "town_kana": "シンカワ1ジョウ",
    "street": null,
    "office_name": null,
    "office_name_kana": null
  },
  "0922": {
    "postcode": "0010922",
    "prefecture": "北海道",
    "prefecture_kana": "ホッカイドウ",
    "prefecture_code": 1,
    "city": "札幌市北区",
    "city_kana": "サッポロシキタク",
    "town": "新川二条",
    "town_kana": "シンカワ2ジョウ",
    "street": null,
    "office_name": null,
    "office_name_kana": null
  },
  "0923": {
    "postcode": "0010923",
    "prefecture": "北海道",
    "prefecture_kana": "ホッカイドウ",
    "prefecture_code": 1,
    "city": "札幌市北区",
    "city_kana": "サッポロシキタク",
    "town": "新川三条",
    "town_kana": "シンカワ3ジョウ",
    "street": null,
    "office_name": null,
    "office_name_kana": null
  },
  "0924": {
    "postcode": "0010924",
    "prefecture": "北海道",
    "prefecture_kana": "ホッカイドウ",
    "prefecture_code": 1,
    "city": "札幌市北区",
    "city_kana": "サッポロシキタク",
    "town": "新川四条",
    "town_kana": "シンカワ4ジョウ",
    "street": null,
    "office_name": null,
    "office_name_kana": null
  },
  "0925": {
    "postcode": "0010925",
    "prefecture": "北海道",
    "prefecture_kana": "ホッカイドウ",
    "prefecture_code": 1,
    "city": "札幌市北区",
    "city_kana": "サッポロシキタク",
    "town": "新川五条",
    "town_kana": "シンカワ5ジョウ",
    "street": null,
    "office_name": null,
    "office_name_kana": null
  },
  "0926": {
    "postcode": "0010926",
    "prefecture": "北海道",
    "prefecture_kana": "ホッカイドウ",
    "prefecture_code": 1,
    "city": "札幌市北区",
    "city_kana": "サッポロシキタク",
    "town": "新川六条",
    "town_kana": "シンカワ6ジョウ",
    "street": null,
    "office_name": null,
    "office_name_kana": null
  },
  "0927": {
    "postcode": "0010927",
    "prefecture": "北海道",
    "prefecture_kana": "ホッカイドウ",
    "prefecture_code": 1,
    "city": "札幌市北区",
    "city_kana": "サッポロシキタク",
    "town": "新川七条",
    "town_kana": "シンカワ7ジョウ",
    "street": null,
    "office_name": null,
    "office_name_kana": null
  },
  "0928": {
    "postcode": "0010928",
    "prefecture": "北海道",
    "prefecture_kana": "ホッカイドウ",
    "prefecture_code": 1,
    "city": "札幌市北区",
    "city_kana": "サッポロシキタク",
    "town": "新川八条",
    "town_kana": "シンカワ8ジョウ",
    "street": null,
    "office_name": null,
    "office_name_kana": null
  },
  "0930": {
    "postcode": "0010930",
    "prefecture": "北海道",
    "prefecture_kana": "ホッカイドウ",
    "prefecture_code": 1,
    "city": "札幌市北区",
    "city_kana": "サッポロシキタク",
    "town": "新川",
    "town_kana": "シンカワ",
    "street": null,
    "office_name": null,
    "office_name_kana": null
  },
  "0931": {
    "postcode": "0010931",
    "prefecture": "北海道",
    "prefecture_kana": "ホッカイドウ",
    "prefecture_code": 1,
    "city": "札幌市北区",
    "city_kana": "サッポロシキタク",
    "town": "新川西一条",
    "town_kana": "シンカワニシ1ジョウ",
    "street": null,
    "office_name": null,
    "office_name_kana": null
  },
  "0932": {
    "postcode": "0010932",
    "prefecture": "北海道",
    "prefecture_kana": "ホッカイドウ",
    "prefecture_code": 1,
    "city": "札幌市北区",
    "city_kana": "サッポロシキタク",
    "town": "新川西二条",
    "town_kana": "シンカワニシ2ジョウ",
    "street": null,
    "office_name": null,
    "office_name_kana": null
  },
  "0933": {
    "postcode": "0010933",
    "prefecture": "北海道",
    "prefecture_kana": "ホッカイドウ",
    "prefecture_code": 1,
    "city": "札幌市北区",
    "city_kana": "サッポロシキタク",
    "town": "新川西三条",
    "town_kana": "シンカワニシ3ジョウ",
    "street": null,
    "office_name": null,
    "office_name_kana": null
  },
  "0934": {
    "postcode": "0010934",
    "prefecture": "北海道",
    "prefecture_kana": "ホッカイドウ",
    "prefecture_code": 1,
    "city": "札幌市北区",
    "city_kana": "サッポロシキタク",
    "town": "新川西四条",
    "town_kana": "シンカワニシ4ジョウ",
    "street": null,
    "office_name": null,
    "office_name_kana": null
  },
  "0935": {
    "postcode": "0010935",
    "prefecture": "北海道",
    "prefecture_kana": "ホッカイドウ",
    "prefecture_code": 1,
    "city": "札幌市北区",
    "city_kana": "サッポロシキタク",
    "town": "新川西五条",
    "town_kana": "シンカワニシ5ジョウ",
    "street": null,
    "office_name": null,
    "office_name_kana": null
  },
  "8501": {
    "postcode": "0018501",
    "prefecture": "北海道",
    "prefecture_kana": "ホッカイドウ",
    "prefecture_code": 1,
    "city": "札幌市北区",
    "city_kana": "サッポロシキタク",
    "town": "北二十九条西",
    "town_kana": "キタ29ジョウニシ",
    "street": "２丁目１番１号",
    "office_name": "学校法人　創成学園　札幌創成高等学校",
    "office_name_kana": "ガツコウホウジン ソウセイガクエン サツポロソウセイコウトウガツコウ"
  },
  "8511": {
    "postcode": "0018511",
    "prefecture": "北海道",
    "prefecture_kana": "ホッカイドウ",
    "prefecture_code": 1,
    "city": "札幌市北区",
    "city_kana": "サッポロシキタク",
    "town": "北十条西",
    "town_kana": "キタ10ジョウニシ",
    "street": "３丁目２３−１ＴＨＥＰＥＡＫＳＡＰＰＯＲＯ３Ｆ",
    "office_name": "全国健康保険協会北海道支部",
    "office_name_kana": "ゼンコクケンコウホケンキヨウカイホツカイドウシブ"
  },
  "8521": {
    "postcode": "0018521",
    "prefecture": "北海道",
    "prefecture_kana": "ホッカイドウ",
    "prefecture_code": 1,
    "city": "札幌市北区",
    "city_kana": "サッポロシキタク",
    "town": "北十条西",
    "town_kana": "キタ10ジョウニシ",
    "street": "１丁目１２−３創生ビル１Ｆ１０１",
    "office_name": "札幌私書箱センター",
    "office_name_kana": "サツポロシシヨバコセンタ-"
  },
  "8555": {
    "postcode": "0018555",
    "prefecture": "北海道",
    "prefecture_kana": "ホッカイドウ",
    "prefecture_code": 1,
    "city": "札幌市北区",
    "city_kana": "サッポロシキタク",
    "town": "北十五条西",
    "town_kana": "キタ15ジョウニシ",
    "street": "５丁目１番５号",
    "office_name": "北海道ホルスタイン農業協同組合",
    "office_name_kana": "ホツカイドウホルスタインノウギヨウキヨウドウクミアイ"
  },
  "8577": {
    "postcode": "0018577",
    "prefecture": "北海道",
    "prefecture_kana": "ホッカイドウ",
    "prefecture_code": 1,
    "city": "札幌市北区",
    "city_kana": "サッポロシキタク",
    "town": "新琴似７条",
    "town_kana": null,
    "street": "１１丁目５番２８号",
    "office_name": "ダイハツ北海道販売　株式会社",
    "office_name_kana": "ダイハツホツカイドウハンバイ カブシキガイシヤ"
  },
  "8588": {
    "postcode": "0018588",
    "prefecture": "北海道",
    "prefecture_kana": "ホッカイドウ",
    "prefecture_code": 1,
    "city": "札幌市北区",
    "city_kana": "サッポロシキタク",
    "town": "北二十二条西",
    "town_kana": "キタ22ジョウニシ",
    "street": "２丁目１番３０号",
    "office_name": "北海道　札幌道税事務所　自動車税部",
    "office_name_kana": "ホツカイドウ サツポロドウゼイジムシヨ ジドウシヤゼイブ"
  },
  "8612": {
    "postcode": "0018612",
    "prefecture": "北海道",
    "prefecture_kana": "ホッカイドウ",
    "prefecture_code": 1,
    "city": "札幌市北区",
    "city_kana": "サッポロシキタク",
    "town": "北二十四条西",
    "town_kana": "キタ24ジョウニシ",
    "street": "６丁目１番１号",
    "office_name": "札幌市北区役所",
    "office_name_kana": "サツポロシキタクヤクシヨ"
  }
}