{
  "0851": {
    "postcode": "0020851",
    "prefecture": "北海道",
    "prefecture_kana": "ホッカイドウ",
    "prefecture_code": 1,
    "city": "札幌市北区",
    "city_kana": "サッポロシキタク",
    "town": "屯田一条",
    "town_kana": "トンデン1ジョウ",
    "street": null,
    "office_name": null,
    "office_name_kana": null
  },
  "0852": {
    "postcode": "0020852",
    "prefecture": "北海道",
    "prefecture_kana": "ホッカイドウ",
    "prefecture_code": 1,
    "city": "札幌市北区",
    "city_kana": "サッポロシキタク",
    "town": "屯田二条",
    "town_kana": "トンデン2ジョウ",
    "street": null,
    "office_name": null,
    "office_name_kana": null
  },
  "0853": {
    "postcode": "0020853",
    "prefecture": "北海道",
    "prefecture_kana": "ホッカイドウ",
    "prefecture_code": 1,
    "city": "札幌市北区",
    "city_kana": "サッポロシキタク",
    "town": "屯田三条",
    "town_kana": "トンデン3ジョウ",
    "street": null,
    "office_name": null,
    "office_name_kana": null
  },
  "0854": {
    "postcode": "0020854",
    "prefecture": "北海道",
    "prefecture_kana": "ホッカイドウ",
    "prefecture_code": 1,
    "city": "札幌市北区",
    "city_kana": "サッポロシキタク",
    "town": "屯田四条",
    "town_kana": "トンデン4ジョウ",
    "street": null,
    "office_name": null,
    "office_name_kana": null
  },
  "0855": {
    "postcode": "0020855",
    "prefecture": "北海道",
    "prefecture_kana": "ホッカイドウ",
    "prefecture_code": 1,
    "city": "札幌市北区",
    "city_kana": "サッポロシキタク",
    "town": "屯田五条",
    "town_kana": "トンデン5ジョウ",
    "street": null,
    "office_name": null,
    "office_name_kana": null
  },
  "0856": {
    "postcode": "0020856",
    "prefecture": "北海道",
    "prefecture_kana": "ホッカイドウ",
    "prefecture_code": 1,
    "city": "札幌市北区",
    "city_kana": "サッポロシキタク",
    "town": "屯田六条",
    "town_kana": "トンデン6ジョウ",
    "street": null,
    "office_name": null,
    "office_name_kana": null
  },
  "0857": {
    "postcode": "0020857",
    "prefecture": "北海道",
    "prefecture_kana": "ホッカイドウ",
    "prefecture_code": 1,
    "city": "札幌市北区",
    "city_kana": "サッポロシキタク",
    "town": "屯田七条",
    "town_kana": "トンデン7ジョウ",
    "street": null,
    "office_name": null,
    "office_name_kana": null
  },
  "0858": {
    "postcode": "0020858",
    "prefecture": "北海道",
    "prefecture_kana": "ホッカイドウ",
    "prefecture_code": 1,
    "city": "札幌市北区",
    "city_kana": "サッポロシキタク",
    "town": "屯田八条",
    "town_kana": "トンデン8ジョウ",
    "street": null,
    "office_name": null,
    "office_name_kana": null
  },
  "0859": {
    "postcode": "0020859",
    "prefecture": "北海道",
    "prefecture_kana": "ホッカイドウ",
    "prefecture_code": 1,
    "city": "札幌市北区",
    "city_kana": "サッポロシキタク",
    "town": "屯田九条",
    "town_kana": "トンデン9ジョウ",
    "street": null,
    "office_name": null,
    "office_name_kana": null
  },
  "0860": {
    "postcode": "0020860",
    "prefecture": "北海道",
    "prefecture_kana": "ホッカイドウ",
    "prefecture_code": 1,
    "city": "札幌市北区",
    "city_kana": "サッポロシキタク",
    "town": "屯田十条",
    "town_kana": "トンデン10ジョウ",
    "street": null,
    "office_name": null,
    "office_name_kana": null
  },
  "0861": {
    "postcode": "0020861",
    "prefecture": "北海道",
    "prefecture_kana": "ホッカイドウ",
    "prefecture_code": 1,
    "city": "札幌市北区",
    "city_kana": "サッポロシキタク",
    "town": "屯田十一条",
    "town_kana": "トンデン11ジョウ",
    "street": null,
    "office_name": null,
    "office_name_kana": null
  },
  "0865": {
    "postcode": "0020865",
    "prefecture": "北海道",
    "prefecture_kana": "ホッカイドウ",
    "prefecture_code": 1,
    "city": "札幌市北区",
    "city_kana": "サッポロシキタク",
    "town": "屯田町",
    "town_kana": "トンデンチョウ",
    "street": null,
    "office_name": null,
    "office_name_kana": null
  },
  "8001": {
    "postcode": "0028001",
    "prefecture": "北海道",
    "prefecture_kana": "ホッカイドウ",
    "prefecture_code": 1,
    "city": "札幌市北区",
    "city_kana": "サッポロシキタク",
    "town": "太平一条",
    "town_kana": "タイヘイ1ジョウ",
    "street": null,
    "office_name": null,
    "office_name_kana": null
  },
  "8002": {
    "postcode": "0028002",
    "prefecture": "北海道",
    "prefecture_kana": "ホッカイドウ",
    "prefecture_code": 1,
    "city": "札幌市北区",
    "city_kana": "サッポロシキタク",
    "town": "太平二条",
    "town_kana": "タイヘイ2ジョウ",
    "street": null,
    "office_name": null,
    "office_name_kana": null
  },
  "8003": {
    "postcode": "0028003",
    "prefecture": "北海道",
    "prefecture_kana": "ホッカイドウ",
    "prefecture_code": 1,
    "city": "札幌市北区",
    "city_kana": "サッポロシキタク",
    "town": "太平三条",
    "town_kana": "タイヘイ3ジョウ",
    "street": null,
    "office_name": null,
    "office_name_kana": null
  },
  "8004": {
    "postcode": "0028004",
    "prefecture": "北海道",
    "prefecture_kana": "ホッカイドウ",
    "prefecture_code": 1,
    "city": "札幌市北区",
    "city_kana": "サッポロシキタク",
    "town": "太平四条",
    "town_kana": "タイヘイ4ジョウ",
    "street": null,
    "office_name": null,
    "office_name_kana": null
  },
  "8005": {
    "postcode": "0028005",
    "prefecture": "北海道",
    "prefecture_kana": "ホッカイドウ",
    "prefecture_code": 1,
    "city": "札幌市北区",
    "city_kana": "サッポロシキタク",
    "town": "太平五条",
    "town_kana": "タイヘイ5ジョウ",
    "street": null,
    "office_name": null,
    "office_name_kana": null
  },
  "8006": {
    "postcode": "0028006",
    "prefecture": "北海道",
    "prefecture_kana": "ホッカイドウ",
    "prefecture_code": 1,
    "city": "札幌市北区",
    "city_kana": "サッポロシキタク",
    "town": "太平六条",
    "town_kana": "タイヘイ6ジョウ",
    "street": null,
    "office_name": null,
    "office_name_kana": null
  },
  "8007": {
    "postcode": "0028007",
    "prefecture": "北海道",
    "prefecture_kana": "ホッカイドウ",
    "prefecture_code": 1,
    "city": "札幌市北区",
    "city_kana": "サッポロシキタク",
    "town": "太平七条",
    "town_kana": "タイヘイ7ジョウ",
    "street": null,
    "office_name": null,
    "office_name_kana": null
  },
  "8008": {
    "postcode": "0028008",
    "prefecture": "北海道",
    "prefecture_kana": "ホッカイドウ",
    "prefecture_code": 1,
    "city": "札幌市北区",
    "city_kana": "サッポロシキタク",
    "town": "太平八条",
    "town_kana": "タイヘイ8ジョウ",
    "street": null,
    "office_name": null,
    "office_name_kana": null
  },
  "8009": {
    "postcode": "0028009",
    "prefecture": "北海道",
    "prefecture_kana": "ホッカイドウ",
    "prefecture_code": 1,
    "city": "札幌市北区",
    "city_kana": "サッポロシキタク",
    "town": "太平九条",
    "town_kana": "タイヘイ9ジョウ",
    "street": null,
    "office_name": null,
    "office_name_kana": null
  },
  "8010": {
    "postcode": "0028010",
    "prefecture": "北海道",
    "prefecture_kana": "ホッカイドウ",
    "prefecture_code": 1,
    "city": "札幌市北区",
    "city_kana": "サッポロシキタク",
    "town": "太平十条",
    "town_kana": "タイヘイ10ジョウ",
    "street": null,
    "office_name": null,
    "office_name_kana": null
  },
  "8011": {
    "postcode": "0028011",
    "prefecture": "北海道",
    "prefecture_kana": "ホッカイドウ",
    "prefecture_code": 1,
    "city": "札幌市北区",
    "city_kana": "サッポロシキタク",
    "town": "太平十一条",
    "town_kana": "タイヘイ11ジョウ",
    "street": null,
    "office_name": null,
    "office_name_kana": null
  },
  "8012": {
    "postcode": "0028012",
    "prefecture": "北海道",
    "prefecture_kana": "ホッカイドウ",
    "prefecture_code": 1,
    "city": "札幌市北区",
    "city_kana": "サッポロシキタク",
    "town": "太平十二条",
    "town_kana": "タイヘイ12ジョウ",
    "street": null,
    "office_name": null,
    "office_name_kana": null
  },
  "8021": {
    "postcode": "0028021",
    "prefecture": "北海道",
    "prefecture_kana": "ホッカイドウ",
    "prefecture_code": 1,
    "city": "札幌市北区",
    "city_kana": "サッポロシキタク",
    "town": "篠路一条",
    "town_kana": "シノロ1ジョウ",
    "street": null,
    "office_name": null,
    "office_name_kana": null
  },
  "8022": {
    "postcode": "0028022",
    "prefecture": "北海道",
    "prefecture_kana": "ホッカイドウ",
    "prefecture_code": 1,
    "city": "札幌市北区",
    "city_kana": "サッポロシキタク",
    "town": "篠路二条",
    "town_kana": "シノロ2ジョウ",
    "street": null,
    "office_name": null,
    "office_name_kana": null
  },
  "8023": {
    "postcode": "0028023",
    "prefecture": "北海道",
    "prefecture_kana": "ホッカイドウ",
    "prefecture_code": 1,
    "city": "札幌市北区",
    "city_kana": "サッポロシキタク",
    "town": "篠路三条",
    "town_kana": "シノロ3ジョウ",
    "street": null,
    "office_name": null,
    "office_name_kana": null
  },
  "8024": {
    "postcode": "0028024",
    "prefecture": "北海道",
    "prefecture_kana": "ホッカイドウ",
    "prefecture_code": 1,
    "city": "札幌市北区",
    "city_kana": "サッポロシキタク",
    "town": "篠路四条",
    "town_kana": "シノロ4ジョウ",
    "street": null,
    "office_name": null,
    "office_name_kana": null
  },
  "8025": {
    "postcode": "0028025",
    "prefecture": "北海道",
    "prefecture_kana": "ホッカイドウ",
    "prefecture_code": 1,
    "city": "札幌市北区",
    "city_kana": "サッポロシキタク",
    "town": "篠路五条",
    "town_kana": "シノロ5ジョウ",
    "street": null,
    "office_name": null,
    "office_name_kana": null
  },
  "8026": {
    "postcode": "0028026",
    "prefecture": "北海道",
    "prefecture_kana": "ホッカイドウ",
    "prefecture_code": 1,
    "city": "札幌市北区",
    "city_kana": "サッポロシキタク",
    "town": "篠路六条",
    "town_kana": "シノロ6ジョウ",
    "street": null,
    "office_name": null,
    "office_name_kana": null
  },
  "8027": {
    "postcode": "0028027",
    "prefecture": "北海道",
    "prefecture_kana": "ホッカイドウ",
    "prefecture_code": 1,
    "city": "札幌市北区",
    "city_kana": "サッポロシキタク",
    "town": "篠路七条",
    "town_kana": "シノロ7ジョウ",
    "street": null,
    "office_name": null,
    "office_name_kana": null
  },
  "8028": {
    "postcode": "0028028",
    "prefecture": "北海道",
    "prefecture_kana": "ホッカイドウ",
    "prefecture_code": 1,
    "city": "札幌市北区",
    "city_kana": "サッポロシキタク",
    "town": "篠路八条",
    "town_kana": "シノロ8ジョウ",
    "street": null,
    "office_name": null,
    "office_name_kana": null
  },
  "8029": {
    "postcode": "0028029",
    "prefecture": "北海道",
    "prefecture_kana": "ホッカイドウ",
    "prefecture_code": 1,
    "city": "札幌市北区",
    "city_kana": "サッポロシキタク",
    "town": "篠路九条",
    "town_kana": "シノロ9ジョウ",
    "street": null,
    "office_name": null,
    "office_name_kana": null
  },
  "8030": {
    "postcode": "0028030",
    "prefecture": "北海道",
    "prefecture_kana": "ホッカイドウ",
    "prefecture_code": 1,
    "city": "札幌市北区",
    "city_kana": "サッポロシキタク",
    "town": "篠路十条",
    "town_kana": "シノロ10ジョウ",
    "street": null,
    "office_name": null,
    "office_name_kana": null
  },
  "8031": {
    "postcode": "0028031",
    "prefecture": "北海道",
    "prefecture_kana": "ホッカイドウ",
    "prefecture_code": 1,
    "city": "札幌市北区",
    "city_kana": "サッポロシキタク",
    "town": "西茨戸一条",
    "town_kana": "ニシバラト1ジョウ",
    "street": null,
    "office_name": null,
    "office_name_kana": null
  },
  "8032": {
    "postcode": "0028032",
    "prefecture": "北海道",
    "prefecture_kana": "ホッカイドウ",
    "prefecture_code": 1,
    "city": "札幌市北区",
    "city_kana": "サッポロシキタク",
    "town": "西茨戸二条",
    "town_kana": "ニシバラト2ジョウ",
    "street": null,
    "office_name": null,
    "office_name_kana": null
  },
  "8033": {
    "postcode": "0028033",
    "prefecture": "北海道",
    "prefecture_kana": "ホッカイドウ",
    "prefecture_code": 1,
    "city": "札幌市北区",
    "city_kana": "サッポロシキタク",
    "town": "西茨戸三条",
    "town_kana": "ニシバラト3ジョウ",
    "street": null,
    "office_name": null,
    "office_name_kana": null
  },
  "8034": {
    "postcode": "0028034",
    "prefecture": "北海道",
    "prefecture_kana": "ホッカイドウ",
    "prefecture_code": 1,
    "city": "札幌市北区",
    "city_kana": "サッポロシキタク",
    "town": "西茨戸四条",
    "town_kana": "ニシバラト4ジョウ",
    "street": null,
    "office_name": null,
    "office_name_kana": null
  },
  "8035": {
    "postcode": "0028035",
    "prefecture": "北海道",
    "prefecture_kana": "ホッカイドウ",
    "prefecture_code": 1,
    "city": "札幌市北区",
    "city_kana": "サッポロシキタク",
    "town": "西茨戸五条",
    "town_kana": "ニシバラト5ジョウ",
    "street": null,
    "office_name": null,
    "office_name_kana": null
  },
  "8036": {
    "postcode": "0028036",
    "prefecture": "北海道",
    "prefecture_kana": "ホッカイドウ",
    "prefecture_code": 1,
    "city": "札幌市北区",
    "city_kana": "サッポロシキタク",
    "town": "西茨戸六条",
    "town_kana": "ニシバラト6ジョウ",
    "street": null,
    "office_name": null,
    "office_name_kana": null
  },
  "8037": {
    "postcode": "0028037",
    "prefecture": "北海道",
    "prefecture_kana": "ホッカイドウ",
    "prefecture_code": 1,
    "city": "札幌市北区",
    "city_kana": "サッポロシキタク",
    "town": "西茨戸七条",
    "town_kana": "ニシバラト7ジョウ",
    "street": null,
    "office_name": null,
    "office_name_kana": null
  },
  "8038": {
    "postcode": "0028038",
    "prefecture": "北海道",
    "prefecture_kana": "ホッカイドウ",
    "prefecture_code": 1,
    "city": "札幌市北区",
    "city_kana": "サッポロシキタク",
    "town": "西茨戸",
    "town_kana": "ニシバラト",
    "street": null,
    "office_name": null,
    "office_name_kana": null
  },
  "8041": {
    "postcode": "0028041",
    "prefecture": "北海道",
    "prefecture_kana": "ホッカイドウ",
    "prefecture_code": 1,
    "city": "札幌市北区",
    "city_kana": "サッポロシキタク",
    "town": "東茨戸一条",
    "town_kana": "ヒガシバラト1ジョウ",
    "street": null,
    "office_name": null,
    "office_name_kana": null
  },
  "8042": {
    "postcode": "0028042",
    "prefecture": "北海道",
    "prefecture_kana": "ホッカイドウ",
    "prefecture_code": 1,
    "city": "札幌市北区",
    "city_kana": "サッポロシキタク",
    "town": "東茨戸二条",
    "town_kana": "ヒガシバラト2ジョウ",
    "street": null,
    "office_name": null,
    "office_name_kana": null
  },
  "8043": {
    "postcode": "0028043",
    "prefecture": "北海道",
    "prefecture_kana": "ホッカイドウ",
    "prefecture_code": 1,
    "city": "札幌市北区",
    "city_kana": "サッポロシキタク",
    "town": "東茨戸",
    "town_kana": "ヒガシバラト",
    "street": null,
    "office_name": null,
    "office_name_kana": null
  },
  "8044": {
    "postcode": "0028044",
    "prefecture": "北海道",
    "prefecture_kana": "ホッカイドウ",
    "prefecture_code": 1,
    "city": "札幌市北区",
    "city_kana": "サッポロシキタク",
    "town": "東茨戸三条",
    "town_kana": "ヒガシバラト3ジョウ",
    "street": null,
    "office_name": null,
    "office_name_kana": null
  },
  "8045": {
    "postcode": "0028045",
    "prefecture": "北海道",
    "prefecture_kana": "ホッカイドウ",
    "prefecture_code": 1,
    "city": "札幌市北区",
    "city_kana": "サッポロシキタク",
    "town": "東茨戸四条",
    "town_kana": "ヒガシバラト4ジョウ",
    "street": null,
    "office_name": null,
    "office_name_kana": null
  },
  "8051": {
    "postcode": "0028051",
    "prefecture": "北海道",
    "prefecture_kana": "ホッカイドウ",
    "prefecture_code": 1,
    "city": "札幌市北区",
    "city_kana": "サッポロシキタク",
    "town": "篠路町太平",
    "town_kana": "シノロチョウタイヘイ",
    "street": null,
    "office_name": null,
    "office_name_kana": null
  },
  "8052": {
    "postcode": "0028052",
    "prefecture": "北海道",
    "prefecture_kana": "ホッカイドウ",
    "prefecture_code": 1,
    "city": "札幌市北区",
    "city_kana": "サッポロシキタク",
    "town": "篠路町上篠路",
    "town_kana": "シノロチョウカミシノロ",
    "street": null,
    "office_name": null,
    "office_name_kana": null
  },
  "8053": {
    "postcode": "0028053",
    "prefecture": "北海道",
    "prefecture_kana": "ホッカイドウ",
    "prefecture_code": 1,
    "city": "札幌市北区",
    "city_kana": "サッポロシキタク",
    "town": "篠路町篠路",
    "town_kana": "シノロチョウシノロ",
    "street": null,
    "office_name": null,
    "office_name_kana": null
  },
  "8054": {
    "postcode": "0028054",
    "prefecture": "北海道",
    "prefecture_kana": "ホッカイドウ",
    "prefecture_code": 1,
    "city": "札幌市北区",
    "city_kana": "サッポロシキタク",
    "town": "篠路町拓北",
    "town_kana": "シノロチョウタクホク",
    "street": null,
    "office_name": null,
    "office_name_kana": null
  },
  "8055": {
    "postcode": "0028055",
    "prefecture": "北海道",
    "prefecture_kana": "ホッカイドウ",
    "prefecture_code": 1,
    "city": "札幌市北区",
    "city_kana": "サッポロシキタク",
    "town": "篠路町福移",
    "town_kana": "シノロチョウフクイ",
    "street": null,
    "office_name": null,
    "office_name_kana": null
  },
  "8061": {
    "postcode": "0028061",
    "prefecture": "北海道",
    "prefecture_kana": "ホッカイドウ",
    "prefecture_code": 1,
    "city": "札幌市北区",
    "city_kana": "サッポロシキタク",
    "town": "拓北一条",
    "town_kana": "タクホク1ジョウ",
    "street": null,
    "office_name": null,
    "office_name_kana": null
  },
  "8062": {
    "postcode": "0028062",
    "prefecture": "北海道",
    "prefecture_kana": "ホッカイドウ",
    "prefecture_code": 1,
    "city": "札幌市北区",
    "city_kana": "サッポロシキタク",
    "town": "拓北二条",
    "town_kana": "タクホク2ジョウ",
    "street": null,
    "office_name": null,
    "office_name_kana": null
  },
  "8063": {
    "postcode": "0028063",
    "prefecture": "北海道",
    "prefecture_kana": "ホッカイドウ",
    "prefecture_code": 1,
    "city": "札幌市北区",
    "city_kana": "サッポロシキタク",
    "town": "拓北三条",
    "town_kana": "タクホク3ジョウ",
    "street": null,
    "office_name": null,
    "office_name_kana": null
  },
  "8064": {
    "postcode": "0028064",
    "prefecture": "北海道",
    "prefecture_kana": "ホッカイドウ",
    "prefecture_code": 1,
    "city": "札幌市北区",
    "city_kana": "サッポロシキタク",
    "town": "拓北四条",
    "town_kana": "タクホク4ジョウ",
    "street": null,
    "office_name": null,
    "office_name_kana": null
  },
  "8065": {
    "postcode": "0028065",
    "prefecture": "北海道",
    "prefecture_kana": "ホッカイドウ",
    "prefecture_code": 1,
    "city": "札幌市北区",
    "city_kana": "サッポロシキタク",
    "town": "拓北五条",
    "town_kana": "タクホク5ジョウ",
    "street": null,
    "office_name": null,
    "office_name_kana": null
  },
  "8066": {
    "postcode": "0028066",
    "prefecture": "北海道",
    "prefecture_kana": "ホッカイドウ",
    "prefecture_code": 1,
    "city": "札幌市北区",
    "city_kana": "サッポロシキタク",
    "town": "拓北六条",
    "town_kana": "タクホク6ジョウ",
    "street": null,
    "office_name": null,
    "office_name_kana": null
  },
  "8067": {
    "postcode": "0028067",
    "prefecture": "北海道",
    "prefecture_kana": "ホッカイドウ",
    "prefecture_code": 1,
    "city": "札幌市北区",
    "city_kana": "サッポロシキタク",
    "town": "拓北七条",
    "town_kana": "タクホク7ジョウ",
    "street": null,
    "office_name": null,
    "office_name_kana": null
  },
  "8068": {
    "postcode": "0028068",
    "prefecture": "北海道",
    "prefecture_kana": "ホッカイドウ",
    "prefecture_code": 1,
    "city": "札幌市北区",
    "city_kana": "サッポロシキタク",
    "town": "拓北八条",
    "town_kana": "タクホク8ジョウ",
    "street": null,
    "office_name": null,
    "office_name_kana": null
  },
  "8071": {
    "postcode": "0028071",
    "prefecture": "北海道",
    "prefecture_kana": "ホッカイドウ",
    "prefecture_code": 1,
    "city": "札幌市北区",
    "city_kana": "サッポロシキタク",
    "town": "あいの里一条",
    "town_kana": "アイノサト1ジョウ",
    "street": null,
    "office_name": null,
    "office_name_kana": null
  },
  "8072": {
    "postcode": "0028072",
    "prefecture": "北海道",
    "prefecture_kana": "ホッカイドウ",
    "prefecture_code": 1,
    "city": "札幌市北区",
    "city_kana": "サッポロシキタク",
    "town": "あいの里二条",
    "town_kana": "アイノサト2ジョウ",
    "street": null,
    "office_name": null,
    "office_name_kana": null
  },
  "8073": {
    "postcode": "0028073",
    "prefecture": "北海道",
    "prefecture_kana": "ホッカイドウ",
    "prefecture_code": 1,
    "city": "札幌市北区",
    "city_kana": "サッポロシキタク",
    "town": "あいの里三条",
    "town_kana": "アイノサト3ジョウ",
    "street": null,
    "office_name": null,
    "office_name_kana": null
  },
  "8074": {
    "postcode": "0028074",
    "prefecture": "北海道",
    "prefecture_kana": "ホッカイドウ",
    "prefecture_code": 1,
    "city": "札幌市北区",
    "city_kana": "サッポロシキタク",
    "town": "あいの里四条",
    "town_kana": "アイノサト4ジョウ",
    "street": null,
    "office_name": null,
    "office_name_kana": null
  },
  "8075": {
    "postcode": "0028075",
    "prefecture": "北海道",
    "prefecture_kana": "ホッカイドウ",
    "prefecture_code": 1,
    "city": "札幌市北区",
    "city_kana": "サッポロシキタク",
    "town": "あいの里五条",
    "town_kana": "アイノサト5ジョウ",
    "street": null,
    "office_name": null,
    "office_name_kana": null
  },
  "8081": {
    "postcode": "0028081",
    "prefecture": "北海道",
    "prefecture_kana": "ホッカイドウ",
    "prefecture_code": 1,
    "city": "札幌市北区",
    "city_kana": "サッポロシキタク",
    "town": "百合が原",
    "town_kana": "ユリガハラ",
    "street": null,
    "office_name": null,
    "office_name_kana": null
  },
  "8082": {
    "postcode": "0028082",
    "prefecture": "北海道",
    "prefecture_kana": "ホッカイドウ",
    "prefecture_code": 1,
    "city": "札幌市北区",
    "city_kana": "サッポロシキタク",
    "town": "百合が原公園",
    "town_kana": "ユリガハラコウエン",
    "street": null,
    "office_name": null,
    "office_name_kana": null
  },
  "8089": [
    {
      "postcode": "0028089",
      "prefecture": "北海道",
      "prefecture_kana": "ホッカイドウ",
      "prefecture_code": 1,
      "city": "石狩郡当別町",
      "city_kana": "イシカリグントウベツチョウ",
      "town": "ビトエ",
      "town_kana": "ビトエ",
      "street": null,
      "office_name": null,
      "office_name_kana": null
    },
    {
      "postcode": "0028089",
      "prefecture": "北海道",
      "prefecture_kana": "ホッカイドウ",
      "prefecture_code": 1,
      "city": "石狩郡当別町",
      "city_kana": "イシカリグントウベツチョウ",
      "town": "ビトエ中島",
      "town_kana": "ビトエナカジマ",
      "street": null,
      "office_name": null,
      "office_name_kana": null
    }
  ],
  "8091": {
    "postcode": "0028091",
    "prefecture": "北海道",
    "prefecture_kana": "ホッカイドウ",
    "prefecture_code": 1,
    "city": "札幌市北区",
    "city_kana": "サッポロシキタク",
    "town": "南あいの里",
    "town_kana": "ミナミアイノサト",
    "street": null,
    "office_name": null,
    "office_name_kana": null
  },
  "8501": {
    "postcode": "0028501",
    "prefecture": "北海道",
    "prefecture_kana": "ホッカイドウ",
    "prefecture_code": 1,
    "city": "札幌市北区",
    "city_kana": "サッポロシキタク",
    "town": "あいの里五条",
    "town_kana": "アイノサト5ジョウ",
    "street": "３丁目１−３",
    "office_name": "北海道教育大学　本部",
    "office_name_kana": "ホツカイドウキヨウイクダイガク ホンブ"
  },
  "8502": {
    "postcode": "0028502",
    "prefecture": "北海道",
    "prefecture_kana": "ホッカイドウ",
    "prefecture_code": 1,
    "city": "札幌市北区",
    "city_kana": "サッポロシキタク",
    "town": "あいの里五条",
    "town_kana": "アイノサト5ジョウ",
    "street": "３丁目１−５",
    "office_name": "北海道教育大学　札幌校",
    "office_name_kana": "ホツカイドウキヨウイクダイガク サツポロコウ"
  },
  "8503": {
    "postcode": "0028503",
    "prefecture": "北海道",
    "prefecture_kana": "ホッカイドウ",
    "prefecture_code": 1,
    "city": "札幌市北区",
    "city_kana": "サッポロシキタク",
    "town": "あいの里五条",
    "town_kana": "アイノサト5ジョウ",
    "street": "３丁目１−６",
    "office_name": "北海道教育大学　附属図書館",
    "office_name_kana": "ホツカイドウキヨウイクダイガク フゾクトシヨカン"
  },
  "8504": {
    "postcode": "0028504",
    "prefecture": "北海道",
    "prefecture_kana": "ホッカイドウ",
    "prefecture_code": 1,
    "city": "札幌市北区",
    "city_kana": "サッポロシキタク",
    "town": "屯田九条",
    "town_kana": "トンデン9ジョウ",
    "street": "７丁目",
    "office_name": "北海道　有朋高等学校",
    "office_name_kana": "ホツカイドウ ユウホウコウトウガツコウ"
  }
}