{
  "0901": {
    "postcode": "0110901",
    "prefecture": "秋田県",
    "prefecture_kana": "アキタケン",
    "prefecture_code": 5,
    "city": "秋田市",
    "city_kana": "アキタシ",
    "town": "寺内",
    "town_kana": "テラウチ",
    "street": null,
    "office_name": null,
    "office_name_kana": null
  },
  "0902": {
    "postcode": "0110902",
    "prefecture": "秋田県",
    "prefecture_kana": "アキタケン",
    "prefecture_code": 5,
    "city": "秋田市",
    "city_kana": "アキタシ",
    "town": "寺内堂ノ沢",
    "town_kana": "テラウチドウノサワ",
    "street": null,
    "office_name": null,
    "office_name_kana": null
  },
  "0903": {
    "postcode": "0110903",
    "prefecture": "秋田県",
    "prefecture_kana": "アキタケン",
    "prefecture_code": 5,
    "city": "秋田市",
    "city_kana": "アキタシ",
    "town": "寺内油田",
    "town_kana": "テラウチアブラデン",
    "street": null,
    "office_name": null,
    "office_name_kana": null
  },
  "0904": {
    "postcode": "0110904",
    "prefecture": "秋田県",
    "prefecture_kana": "アキタケン",
    "prefecture_code": 5,
    "city": "秋田市",
    "city_kana": "アキタシ",
    "town": "寺内蛭根",
    "town_kana": "テラウチヒルネ",
    "street": null,
    "office_name": null,
    "office_name_kana": null
  },
  "0905": {
    "postcode": "0110905",
    "prefecture": "秋田県",
    "prefecture_kana": "アキタケン",
    "prefecture_code": 5,
    "city": "秋田市",
    "city_kana": "アキタシ",
    "town": "寺内神屋敷",
    "town_kana": "テラウチカミヤシキ",
    "street": null,
    "office_name": null,
    "office_name_kana": null
  },
  "0906": {
    "postcode": "0110906",
    "prefecture": "秋田県",
    "prefecture_kana": "アキタケン",
    "prefecture_code": 5,
    "city": "秋田市",
    "city_kana": "アキタシ",
    "town": "寺内後城",
    "town_kana": "テラウチウシロジョウ",
    "street": null,
    "office_name": null,
    "office_name_kana": null
  },
  "0907": {
    "postcode": "0110907",
    "prefecture": "秋田県",
    "prefecture_kana": "アキタケン",
    "prefecture_code": 5,
    "city": "秋田市",
    "city_kana": "アキタシ",
    "town": "寺内焼山",
    "town_kana": "テラウチヤケヤマ",
    "street": null,
    "office_name": null,
    "office_name_kana": null
  },
  "0908": {
    "postcode": "0110908",
    "prefecture": "秋田県",
    "prefecture_kana": "アキタケン",
    "prefecture_code": 5,
    "city": "秋田市",
    "city_kana": "アキタシ",
    "town": "寺内大小路",
    "town_kana": "テラウチオオコウジ",
    "street": null,
    "office_name": null,
    "office_name_kana": null
  },
  "0909": {
    "postcode": "0110909",
    "prefecture": "秋田県",
    "prefecture_kana": "アキタケン",
    "prefecture_code": 5,
    "city": "秋田市",
    "city_kana": "アキタシ",
    "town": "寺内児桜",
    "town_kana": "テラウチコザクラ",
    "street": null,
    "office_name": null,
    "office_name_kana": null
  },
  "0911": {
    "postcode": "0110911",
    "prefecture": "秋田県",
    "prefecture_kana": "アキタケン",
    "prefecture_code": 5,
    "city": "秋田市",
    "city_kana": "アキタシ",
    "town": "飯島",
    "town_kana": "イイジマ",
    "street": null,
    "office_name": null,
    "office_name_kana": null
  },
  "0912": {
    "postcode": "0110912",
    "prefecture": "秋田県",
    "prefecture_kana": "アキタケン",
    "prefecture_code": 5,
    "city": "秋田市",
    "city_kana": "アキタシ",
    "town": "飯島川端",
    "town_kana": "イイジマカワバタ",
    "street": null,
    "office_name": null,
    "office_name_kana": null
  },
  "0913": {
    "postcode": "0110913",
    "prefecture": "秋田県",
    "prefecture_kana": "アキタケン",
    "prefecture_code": 5,
    "city": "秋田市",
    "city_kana": "アキタシ",
    "town": "飯島鼠田",
    "town_kana": "イイジマネズミタ",
    "street": null,
    "office_name": null,
    "office_name_kana": null
  },
  "0914": {
    "postcode": "0110914",
    "prefecture": "秋田県",
    "prefecture_kana": "アキタケン",
    "prefecture_code": 5,
    "city": "秋田市",
    "city_kana": "アキタシ",
    "town": "飯島美砂町",
    "town_kana": "イイジマミサゴチョウ",
    "street": null,
    "office_name": null,
    "office_name_kana": null
  },
  "0915": {
    "postcode": "0110915",
    "prefecture": "秋田県",
    "prefecture_kana": "アキタケン",
    "prefecture_code": 5,
    "city": "秋田市",
    "city_kana": "アキタシ",
    "town": "飯島緑丘町",
    "town_kana": "イイジマミドリガオカチョウ",
    "street": null,
    "office_name": null,
    "office_name_kana": null
  },
  "0916": {
    "postcode": "0110916",
    "prefecture": "秋田県",
    "prefecture_kana": "アキタケン",
    "prefecture_code": 5,
    "city": "秋田市",
    "city_kana": "アキタシ",
    "town": "飯島穀丁",
    "town_kana": "イイジマコクチョウ",
    "street": null,
    "office_name": null,
    "office_name_kana": null
  },
  "0917": {
    "postcode": "0110917",
    "prefecture": "秋田県",
    "prefecture_kana": "アキタケン",
    "prefecture_code": 5,
    "city": "秋田市",
    "city_kana": "アキタシ",
    "town": "飯島道東",
    "town_kana": "イイジマミチヒガシ",
    "street": null,
    "office_name": null,
    "office_name_kana": null
  },
  "0921": {
    "postcode": "0110921",
    "prefecture": "秋田県",
    "prefecture_kana": "アキタケン",
    "prefecture_code": 5,
    "city": "秋田市",
    "city_kana": "アキタシ",
    "town": "飯島松根西町",
    "town_kana": "イイジママツネニシチョウ",
    "street": null,
    "office_name": null,
    "office_name_kana": null
  },
  "0922": {
    "postcode": "0110922",
    "prefecture": "秋田県",
    "prefecture_kana": "アキタケン",
    "prefecture_code": 5,
    "city": "秋田市",
    "city_kana": "アキタシ",
    "town": "飯島松根東町",
    "town_kana": "イイジママツネヒガシチョウ",
    "street": null,
    "office_name": null,
    "office_name_kana": null
  },
  "0923": {
    "postcode": "0110923",
    "prefecture": "秋田県",
    "prefecture_kana": "アキタケン",
    "prefecture_code": 5,
    "city": "秋田市",
    "city_kana": "アキタシ",
    "town": "飯島文京町",
    "town_kana": "イイジマブンキョウチョウ",
    "street": null,
    "office_name": null,
    "office_name_kana": null
  },
  "0924": {
    "postcode": "0110924",
    "prefecture": "秋田県",
    "prefecture_kana": "アキタケン",
    "prefecture_code": 5,
    "city": "秋田市",
    "city_kana": "アキタシ",
    "town": "飯島長野本町",
    "town_kana": "イイジマナガノホンチョウ",
    "street": null,
    "office_name": null,
    "office_name_kana": null
  },
  "0925": {
    "postcode": "0110925",
    "prefecture": "秋田県",
    "prefecture_kana": "アキタケン",
    "prefecture_code": 5,
    "city": "秋田市",
    "city_kana": "アキタシ",
    "town": "飯島長野中町",
    "town_kana": "イイジマナガノナカチョウ",
    "street": null,
    "office_name": null,
    "office_name_kana": null
  },
  "0926": {
    "postcode": "0110926",
    "prefecture": "秋田県",
    "prefecture_kana": "アキタケン",
    "prefecture_code": 5,
    "city": "秋田市",
    "city_kana": "アキタシ",
    "town": "港北松野町",
    "town_kana": "コウホクマツノチョウ",
    "street": null,
    "office_name": null,
    "office_name_kana": null
  },
  "0927": {
    "postcode": "0110927",
    "prefecture": "秋田県",
    "prefecture_kana": "アキタケン",
    "prefecture_code": 5,
    "city": "秋田市",
    "city_kana": "アキタシ",
    "town": "港北新町",
    "town_kana": "コウホクシンチョウ",
    "street": null,
    "office_name": null,
    "office_name_kana": null
  },
  "0928": {
    "postcode": "0110928",
    "prefecture": "秋田県",
    "prefecture_kana": "アキタケン",
    "prefecture_code": 5,
    "city": "秋田市",
    "city_kana": "アキタシ",
    "town": "飯島長野上町",
    "town_kana": "イイジマナガノカミチョウ",
    "street": null,
    "office_name": null,
    "office_name_kana": null
  },
  "0931": {
    "postcode": "0110931",
    "prefecture": "秋田県",
    "prefecture_kana": "アキタケン",
    "prefecture_code": 5,
    "city": "秋田市",
    "city_kana": "アキタシ",
    "town": "将軍野東",
    "town_kana": "ショウグンノヒガシ",
    "street": null,
    "office_name": null,
    "office_name_kana": null
  },
  "0932": {
    "postcode": "0110932",
    "prefecture": "秋田県",
    "prefecture_kana": "アキタケン",
    "prefecture_code": 5,
    "city": "秋田市",
    "city_kana": "アキタシ",
    "town": "将軍野青山町",
    "town_kana": "ショウグンノアオヤマチョウ",
    "street": null,
    "office_name": null,
    "office_name_kana": null
  },
  "0933": {
    "postcode": "0110933",
    "prefecture": "秋田県",
    "prefecture_kana": "アキタケン",
    "prefecture_code": 5,
    "city": "秋田市",
    "city_kana": "アキタシ",
    "town": "将軍野堰越",
    "town_kana": "ショウグンノセキコシ",
    "street": null,
    "office_name": null,
    "office_name_kana": null
  },
  "0934": {
    "postcode": "0110934",
    "prefecture": "秋田県",
    "prefecture_kana": "アキタケン",
    "prefecture_code": 5,
    "city": "秋田市",
    "city_kana": "アキタシ",
    "town": "将軍野桂町",
    "town_kana": "ショウグンノカツラチョウ",
    "street": null,
    "office_name": null,
    "office_name_kana": null
  },
  "0935": {
    "postcode": "0110935",
    "prefecture": "秋田県",
    "prefecture_kana": "アキタケン",
    "prefecture_code": 5,
    "city": "秋田市",
    "city_kana": "アキタシ",
    "town": "将軍野向山",
    "town_kana": "ショウグンノムカイヤマ",
    "street": null,
    "office_name": null,
    "office_name_kana": null
  },
  "0936": {
    "postcode": "0110936",
    "prefecture": "秋田県",
    "prefecture_kana": "アキタケン",
    "prefecture_code": 5,
    "city": "秋田市",
    "city_kana": "アキタシ",
    "town": "将軍野南",
    "town_kana": "ショウグンノミナミ",
    "street": null,
    "office_name": null,
    "office_name_kana": null
  },
  "0937": {
    "postcode": "0110937",
    "prefecture": "秋田県",
    "prefecture_kana": "アキタケン",
    "prefecture_code": 5,
    "city": "秋田市",
    "city_kana": "アキタシ",
    "town": "寺内高野",
    "town_kana": "テラウチコウヤ",
    "street": null,
    "office_name": null,
    "office_name_kana": null
  },
  "0938": {
    "postcode": "0110938",
    "prefecture": "秋田県",
    "prefecture_kana": "アキタケン",
    "prefecture_code": 5,
    "city": "秋田市",
    "city_kana": "アキタシ",
    "town": "寺内鵜ノ木",
    "town_kana": "テラウチウノキ",
    "street": null,
    "office_name": null,
    "office_name_kana": null
  },
  "0939": {
    "postcode": "0110939",
    "prefecture": "秋田県",
    "prefecture_kana": "アキタケン",
    "prefecture_code": 5,
    "city": "秋田市",
    "city_kana": "アキタシ",
    "town": "寺内大畑",
    "town_kana": "テラウチオオハタ",
    "street": null,
    "office_name": null,
    "office_name_kana": null
  },
  "0941": {
    "postcode": "0110941",
    "prefecture": "秋田県",
    "prefecture_kana": "アキタケン",
    "prefecture_code": 5,
    "city": "秋田市",
    "city_kana": "アキタシ",
    "town": "土崎港北",
    "town_kana": "ツチザキミナトキタ",
    "street": null,
    "office_name": null,
    "office_name_kana": null
  },
  "0942": {
    "postcode": "0110942",
    "prefecture": "秋田県",
    "prefecture_kana": "アキタケン",
    "prefecture_code": 5,
    "city": "秋田市",
    "city_kana": "アキタシ",
    "town": "土崎港東",
    "town_kana": "ツチザキミナトヒガシ",
    "street": null,
    "office_name": null,
    "office_name_kana": null
  },
  "0943": {
    "postcode": "0110943",
    "prefecture": "秋田県",
    "prefecture_kana": "アキタケン",
    "prefecture_code": 5,
    "city": "秋田市",
    "city_kana": "アキタシ",
    "town": "土崎港南",
    "town_kana": "ツチザキミナトミナミ",
    "street": null,
    "office_name": null,
    "office_name_kana": null
  },
  "0944": {
    "postcode": "0110944",
    "prefecture": "秋田県",
    "prefecture_kana": "アキタケン",
    "prefecture_code": 5,
    "city": "秋田市",
    "city_kana": "アキタシ",
    "town": "土崎港穀保町",
    "town_kana": "ツチザキミナトコクボチョウ",
    "street": null,
    "office_name": null,
    "office_name_kana": null
  },
  "0945": {
    "postcode": "0110945",
    "prefecture": "秋田県",
    "prefecture_kana": "アキタケン",
    "prefecture_code": 5,
    "city": "秋田市",
    "city_kana": "アキタシ",
    "town": "土崎港西",
    "town_kana": "ツチザキミナトニシ",
    "street": null,
    "office_name": null,
    "office_name_kana": null
  },
  "0946": {
    "postcode": "0110946",
    "prefecture": "秋田県",
    "prefecture_kana": "アキタケン",
    "prefecture_code": 5,
    "city": "秋田市",
    "city_kana": "アキタシ",
    "town": "土崎港中央",
    "town_kana": "ツチザキミナトチュウオウ",
    "street": null,
    "office_name": null,
    "office_name_kana": null
  },
  "0947": {
    "postcode": "0110947",
    "prefecture": "秋田県",
    "prefecture_kana": "アキタケン",
    "prefecture_code": 5,
    "city": "秋田市",
    "city_kana": "アキタシ",
    "town": "飯島新町",
    "town_kana": "イイジマシンチョウ",
    "street": null,
    "office_name": null,
    "office_name_kana": null
  },
  "0948": {
    "postcode": "0110948",
    "prefecture": "秋田県",
    "prefecture_kana": "アキタケン",
    "prefecture_code": 5,
    "city": "秋田市",
    "city_kana": "アキタシ",
    "town": "飯島西袋",
    "town_kana": "イイジマニシブクロ",
    "street": null,
    "office_name": null,
    "office_name_kana": null
  },
  "0949": {
    "postcode": "0110949",
    "prefecture": "秋田県",
    "prefecture_kana": "アキタケン",
    "prefecture_code": 5,
    "city": "秋田市",
    "city_kana": "アキタシ",
    "town": "飯島飯田",
    "town_kana": "イイジマイイダ",
    "street": null,
    "office_name": null,
    "office_name_kana": null
  },
  "0951": [
    {
      "postcode": "0110951",
      "prefecture": "秋田県",
      "prefecture_kana": "アキタケン",
      "prefecture_code": 5,
      "city": "秋田市",
      "city_kana": "アキタシ",
      "town": "土崎港相染町",
      "town_kana": "ツチザキミナトソウゼンマチ",
      "street": null,
      "office_name": null,
      "office_name_kana": null
    },
    {
      "postcode": "0110951",
      "prefecture": "秋田県",
      "prefecture_kana": "アキタケン",
      "prefecture_code": 5,
      "city": "秋田市",
      "city_kana": "アキタシ",
      "town": "土崎港古川町",
      "town_kana": "ツチザキミナトフルカワマチ",
      "street": null,
      "office_name": null,
      "office_name_kana": null
    }
  ],
  "8501": {
    "postcode": "0118501",
    "prefecture": "秋田県",
    "prefecture_kana": "アキタケン",
    "prefecture_code": 5,
    "city": "秋田市",
    "city_kana": "アキタシ",
    "town": "土崎港中央",
    "town_kana": "ツチザキミナトチュウオウ",
    "street": "１丁目６−３３",
    "office_name": "株式会社　ホテル大和",
    "office_name_kana": "カブシキカイシヤ ホテルダイワ"
  },
  "8510": {
    "postcode": "0118510",
    "prefecture": "秋田県",
    "prefecture_kana": "アキタケン",
    "prefecture_code": 5,
    "city": "秋田市",
    "city_kana": "アキタシ",
    "town": "土崎港相染町",
    "town_kana": "ツチザキミナトソウゼンマチ",
    "street": "字中島下２７−４",
    "office_name": "秋田住友ベーク　株式会社",
    "office_name_kana": "アキタスミトモベ-ク カブシキガイシヤ"
  },
  "8511": {
    "postcode": "0118511",
    "prefecture": "秋田県",
    "prefecture_kana": "アキタケン",
    "prefecture_code": 5,
    "city": "秋田市",
    "city_kana": "アキタシ",
    "town": "飯島文京町",
    "town_kana": "イイジマブンキョウチョウ",
    "street": "１−１",
    "office_name": "秋田工業高等専門学校",
    "office_name_kana": "アキタコウギヨウコウトウセンモンガツコウ"
  },
  "8520": {
    "postcode": "0118520",
    "prefecture": "秋田県",
    "prefecture_kana": "アキタケン",
    "prefecture_code": 5,
    "city": "秋田市",
    "city_kana": "アキタシ",
    "town": "寺内",
    "town_kana": "テラウチ",
    "street": "字イサノ１３４ノ１",
    "office_name": "誠文社",
    "office_name_kana": "セイブンシヤ"
  },
  "8555": {
    "postcode": "0118555",
    "prefecture": "秋田県",
    "prefecture_kana": "アキタケン",
    "prefecture_code": 5,
    "city": "秋田市",
    "city_kana": "アキタシ",
    "town": "飯島",
    "town_kana": "イイジマ",
    "street": "字古道下川端２１７−９",
    "office_name": "秋田製錬　株式会社",
    "office_name_kana": "アキタセイレン カブシキガイシヤ"
  },
  "8577": {
    "postcode": "0118577",
    "prefecture": "秋田県",
    "prefecture_kana": "アキタケン",
    "prefecture_code": 5,
    "city": "秋田市",
    "city_kana": "アキタシ",
    "town": "土崎港中央",
    "town_kana": "ツチザキミナトチュウオウ",
    "street": "６丁目９番地１３号",
    "office_name": "秋田北税務署",
    "office_name_kana": "アキタキタゼイムシヨ"
  },
  "8585": {
    "postcode": "0118585",
    "prefecture": "秋田県",
    "prefecture_kana": "アキタケン",
    "prefecture_code": 5,
    "city": "秋田市",
    "city_kana": "アキタシ",
    "town": "土崎港西",
    "town_kana": "ツチザキミナトニシ",
    "street": "２丁目５−９",
    "office_name": "秋田海陸運送　株式会社",
    "office_name_kana": "アキタカイリクウンソウ カブシキガイシヤ"
  },
  "8605": {
    "postcode": "0118605",
    "prefecture": "秋田県",
    "prefecture_kana": "アキタケン",
    "prefecture_code": 5,
    "city": "秋田市",
    "city_kana": "アキタシ",
    "town": "土崎港中央",
    "town_kana": "ツチザキミナトチュウオウ",
    "street": "１丁目１６−３７（土崎郵便局私書箱第５号）",
    "office_name": "株式会社　北都銀行　土崎支店",
    "office_name_kana": "カブシキガイシヤ ホクトギンコウ ツチザキシテン"
  },
  "8611": {
    "postcode": "0118611",
    "prefecture": "秋田県",
    "prefecture_kana": "アキタケン",
    "prefecture_code": 5,
    "city": "秋田市",
    "city_kana": "アキタシ",
    "town": "寺内",
    "town_kana": "テラウチ",
    "street": "字将軍野１",
    "office_name": "陸上自衛隊　秋田駐屯地",
    "office_name_kana": "リクジヨウジエイタイ アキタチユウトンチ"
  },
  "8686": {
    "postcode": "0118686",
    "prefecture": "秋田県",
    "prefecture_kana": "アキタケン",
    "prefecture_code": 5,
    "city": "秋田市",
    "city_kana": "アキタシ",
    "town": "土崎港中央",
    "town_kana": "ツチザキミナトチュウオウ",
    "street": "３丁目３−１１（土崎郵便局私書箱第１６号）",
    "office_name": "株式会社　秋田銀行　土崎支店",
    "office_name_kana": "カブシキガイシヤ アキタギンコウ ツチザキシテン"
  }
}