{
  "0000": {
    "postcode": "0120000",
    "prefecture": "秋田県",
    "prefecture_kana": "アキタケン",
    "prefecture_code": 5,
    "city": "湯沢市",
    "city_kana": "ユザワシ",
    "town": "",
    "town_kana": "",
    "street": null,
    "office_name": null,
    "office_name_kana": null
  },
  "0001": {
    "postcode": "0120001",
    "prefecture": "秋田県",
    "prefecture_kana": "アキタケン",
    "prefecture_code": 5,
    "city": "湯沢市",
    "city_kana": "ユザワシ",
    "town": "角間",
    "town_kana": "カクマ",
    "street": null,
    "office_name": null,
    "office_name_kana": null
  },
  "0002": {
    "postcode": "0120002",
    "prefecture": "秋田県",
    "prefecture_kana": "アキタケン",
    "prefecture_code": 5,
    "city": "湯沢市",
    "city_kana": "ユザワシ",
    "town": "下二井田",
    "town_kana": "シモニイダ",
    "street": null,
    "office_name": null,
    "office_name_kana": null
  },
  "0003": {
    "postcode": "0120003",
    "prefecture": "秋田県",
    "prefecture_kana": "アキタケン",
    "prefecture_code": 5,
    "city": "湯沢市",
    "city_kana": "ユザワシ",
    "town": "上二井田",
    "town_kana": "カミニイダ",
    "street": null,
    "office_name": null,
    "office_name_kana": null
  },
  "0004": {
    "postcode": "0120004",
    "prefecture": "秋田県",
    "prefecture_kana": "アキタケン",
    "prefecture_code": 5,
    "city": "湯沢市",
    "city_kana": "ユザワシ",
    "town": "二井田",
    "town_kana": "ニイダ",
    "street": null,
    "office_name": null,
    "office_name_kana": null
  },
  "0005": {
    "postcode": "0120005",
    "prefecture": "秋田県",
    "prefecture_kana": "アキタケン",
    "prefecture_code": 5,
    "city": "湯沢市",
    "city_kana": "ユザワシ",
    "town": "金谷",
    "town_kana": "カナヤ",
    "street": null,
    "office_name": null,
    "office_name_kana": null
  },
  "0006": {
    "postcode": "0120006",
    "prefecture": "秋田県",
    "prefecture_kana": "アキタケン",
    "prefecture_code": 5,
    "city": "湯沢市",
    "city_kana": "ユザワシ",
    "town": "柳田",
    "town_kana": "ヤナギダ",
    "street": null,
    "office_name": null,
    "office_name_kana": null
  },
  "0007": {
    "postcode": "0120007",
    "prefecture": "秋田県",
    "prefecture_kana": "アキタケン",
    "prefecture_code": 5,
    "city": "湯沢市",
    "city_kana": "ユザワシ",
    "town": "八幡",
    "town_kana": "ヤワタ",
    "street": null,
    "office_name": null,
    "office_name_kana": null
  },
  "0008": {
    "postcode": "0120008",
    "prefecture": "秋田県",
    "prefecture_kana": "アキタケン",
    "prefecture_code": 5,
    "city": "湯沢市",
    "city_kana": "ユザワシ",
    "town": "高前",
    "town_kana": "タカマエ",
    "street": null,
    "office_name": null,
    "office_name_kana": null
  },
  "0011": {
    "postcode": "0120011",
    "prefecture": "秋田県",
    "prefecture_kana": "アキタケン",
    "prefecture_code": 5,
    "city": "湯沢市",
    "city_kana": "ユザワシ",
    "town": "森",
    "town_kana": "モリ",
    "street": null,
    "office_name": null,
    "office_name_kana": null
  },
  "0012": {
    "postcode": "0120012",
    "prefecture": "秋田県",
    "prefecture_kana": "アキタケン",
    "prefecture_code": 5,
    "city": "湯沢市",
    "city_kana": "ユザワシ",
    "town": "大森",
    "town_kana": "オオモリ",
    "street": null,
    "office_name": null,
    "office_name_kana": null
  },
  "0013": {
    "postcode": "0120013",
    "prefecture": "秋田県",
    "prefecture_kana": "アキタケン",
    "prefecture_code": 5,
    "city": "湯沢市",
    "city_kana": "ユザワシ",
    "town": "栄田",
    "town_kana": "サカエダ",
    "street": null,
    "office_name": null,
    "office_name_kana": null
  },
  "0014": {
    "postcode": "0120014",
    "prefecture": "秋田県",
    "prefecture_kana": "アキタケン",
    "prefecture_code": 5,
    "city": "湯沢市",
    "city_kana": "ユザワシ",
    "town": "大倉谷地",
    "town_kana": "オオクラヤチ",
    "street": null,
    "office_name": null,
    "office_name_kana": null
  },
  "0015": {
    "postcode": "0120015",
    "prefecture": "秋田県",
    "prefecture_kana": "アキタケン",
    "prefecture_code": 5,
    "city": "湯沢市",
    "city_kana": "ユザワシ",
    "town": "倉内",
    "town_kana": "クラウチ",
    "street": null,
    "office_name": null,
    "office_name_kana": null
  },
  "0016": {
    "postcode": "0120016",
    "prefecture": "秋田県",
    "prefecture_kana": "アキタケン",
    "prefecture_code": 5,
    "city": "湯沢市",
    "city_kana": "ユザワシ",
    "town": "千刈",
    "town_kana": "センガリ",
    "street": null,
    "office_name": null,
    "office_name_kana": null
  },
  "0017": {
    "postcode": "0120017",
    "prefecture": "秋田県",
    "prefecture_kana": "アキタケン",
    "prefecture_code": 5,
    "city": "湯沢市",
    "city_kana": "ユザワシ",
    "town": "富士見",
    "town_kana": "フジミ",
    "street": null,
    "office_name": null,
    "office_name_kana": null
  },
  "0021": {
    "postcode": "0120021",
    "prefecture": "秋田県",
    "prefecture_kana": "アキタケン",
    "prefecture_code": 5,
    "city": "湯沢市",
    "city_kana": "ユザワシ",
    "town": "黄金原",
    "town_kana": "コガネハラ",
    "street": null,
    "office_name": null,
    "office_name_kana": null
  },
  "0022": {
    "postcode": "0120022",
    "prefecture": "秋田県",
    "prefecture_kana": "アキタケン",
    "prefecture_code": 5,
    "city": "湯沢市",
    "city_kana": "ユザワシ",
    "town": "祝田",
    "town_kana": "イワイダ",
    "street": null,
    "office_name": null,
    "office_name_kana": null
  },
  "0023": {
    "postcode": "0120023",
    "prefecture": "秋田県",
    "prefecture_kana": "アキタケン",
    "prefecture_code": 5,
    "city": "湯沢市",
    "city_kana": "ユザワシ",
    "town": "沖田",
    "town_kana": "オキタ",
    "street": null,
    "office_name": null,
    "office_name_kana": null
  },
  "0024": {
    "postcode": "0120024",
    "prefecture": "秋田県",
    "prefecture_kana": "アキタケン",
    "prefecture_code": 5,
    "city": "湯沢市",
    "city_kana": "ユザワシ",
    "town": "赤土",
    "town_kana": "アカツチ",
    "street": null,
    "office_name": null,
    "office_name_kana": null
  },
  "0025": {
    "postcode": "0120025",
    "prefecture": "秋田県",
    "prefecture_kana": "アキタケン",
    "prefecture_code": 5,
    "city": "湯沢市",
    "city_kana": "ユザワシ",
    "town": "前島",
    "town_kana": "マエジマ",
    "street": null,
    "office_name": null,
    "office_name_kana": null
  },
  "0026": {
    "postcode": "0120026",
    "prefecture": "秋田県",
    "prefecture_kana": "アキタケン",
    "prefecture_code": 5,
    "city": "湯沢市",
    "city_kana": "ユザワシ",
    "town": "大島",
    "town_kana": "オオシマ",
    "street": null,
    "office_name": null,
    "office_name_kana": null
  },
  "0031": {
    "postcode": "0120031",
    "prefecture": "秋田県",
    "prefecture_kana": "アキタケン",
    "prefecture_code": 5,
    "city": "湯沢市",
    "city_kana": "ユザワシ",
    "town": "鶴館",
    "town_kana": "ツルダテ",
    "street": null,
    "office_name": null,
    "office_name_kana": null
  },
  "0032": {
    "postcode": "0120032",
    "prefecture": "秋田県",
    "prefecture_kana": "アキタケン",
    "prefecture_code": 5,
    "city": "湯沢市",
    "city_kana": "ユザワシ",
    "town": "元清水",
    "town_kana": "モトシミズ",
    "street": null,
    "office_name": null,
    "office_name_kana": null
  },
  "0033": {
    "postcode": "0120033",
    "prefecture": "秋田県",
    "prefecture_kana": "アキタケン",
    "prefecture_code": 5,
    "city": "湯沢市",
    "city_kana": "ユザワシ",
    "town": "清水町",
    "town_kana": "シミズチョウ",
    "street": null,
    "office_name": null,
    "office_name_kana": null
  },
  "0034": {
    "postcode": "0120034",
    "prefecture": "秋田県",
    "prefecture_kana": "アキタケン",
    "prefecture_code": 5,
    "city": "湯沢市",
    "city_kana": "ユザワシ",
    "town": "西新町",
    "town_kana": "ニシシンマチ",
    "street": null,
    "office_name": null,
    "office_name_kana": null
  },
  "0035": {
    "postcode": "0120035",
    "prefecture": "秋田県",
    "prefecture_kana": "アキタケン",
    "prefecture_code": 5,
    "city": "湯沢市",
    "city_kana": "ユザワシ",
    "town": "幸町",
    "town_kana": "サイワイチョウ",
    "street": null,
    "office_name": null,
    "office_name_kana": null
  },
  "0036": {
    "postcode": "0120036",
    "prefecture": "秋田県",
    "prefecture_kana": "アキタケン",
    "prefecture_code": 5,
    "city": "湯沢市",
    "city_kana": "ユザワシ",
    "town": "両神",
    "town_kana": "リョウジン",
    "street": null,
    "office_name": null,
    "office_name_kana": null
  },
  "0037": {
    "postcode": "0120037",
    "prefecture": "秋田県",
    "prefecture_kana": "アキタケン",
    "prefecture_code": 5,
    "city": "湯沢市",
    "city_kana": "ユザワシ",
    "town": "沖鶴",
    "town_kana": "オキツル",
    "street": null,
    "office_name": null,
    "office_name_kana": null
  },
  "0041": {
    "postcode": "0120041",
    "prefecture": "秋田県",
    "prefecture_kana": "アキタケン",
    "prefecture_code": 5,
    "city": "湯沢市",
    "city_kana": "ユザワシ",
    "town": "中野",
    "town_kana": "ナカノ",
    "street": null,
    "office_name": null,
    "office_name_kana": null
  },
  "0042": {
    "postcode": "0120042",
    "prefecture": "秋田県",
    "prefecture_kana": "アキタケン",
    "prefecture_code": 5,
    "city": "湯沢市",
    "city_kana": "ユザワシ",
    "town": "小豆田",
    "town_kana": "アヅキタ",
    "street": null,
    "office_name": null,
    "office_name_kana": null
  },
  "0043": {
    "postcode": "0120043",
    "prefecture": "秋田県",
    "prefecture_kana": "アキタケン",
    "prefecture_code": 5,
    "city": "湯沢市",
    "city_kana": "ユザワシ",
    "town": "万石",
    "town_kana": "マンゴク",
    "street": null,
    "office_name": null,
    "office_name_kana": null
  },
  "0044": {
    "postcode": "0120044",
    "prefecture": "秋田県",
    "prefecture_kana": "アキタケン",
    "prefecture_code": 5,
    "city": "湯沢市",
    "city_kana": "ユザワシ",
    "town": "中野々目",
    "town_kana": "ナカノノメ",
    "street": null,
    "office_name": null,
    "office_name_kana": null
  },
  "0045": {
    "postcode": "0120045",
    "prefecture": "秋田県",
    "prefecture_kana": "アキタケン",
    "prefecture_code": 5,
    "city": "湯沢市",
    "city_kana": "ユザワシ",
    "town": "岡田町",
    "town_kana": "オカダマチ",
    "street": null,
    "office_name": null,
    "office_name_kana": null
  },
  "0051": {
    "postcode": "0120051",
    "prefecture": "秋田県",
    "prefecture_kana": "アキタケン",
    "prefecture_code": 5,
    "city": "湯沢市",
    "city_kana": "ユザワシ",
    "town": "深堀",
    "town_kana": "フカボリ",
    "street": null,
    "office_name": null,
    "office_name_kana": null
  },
  "0052": {
    "postcode": "0120052",
    "prefecture": "秋田県",
    "prefecture_kana": "アキタケン",
    "prefecture_code": 5,
    "city": "湯沢市",
    "city_kana": "ユザワシ",
    "town": "下中川原",
    "town_kana": "シモナカガワラ",
    "street": null,
    "office_name": null,
    "office_name_kana": null
  },
  "0053": {
    "postcode": "0120053",
    "prefecture": "秋田県",
    "prefecture_kana": "アキタケン",
    "prefecture_code": 5,
    "city": "湯沢市",
    "city_kana": "ユザワシ",
    "town": "中川原",
    "town_kana": "ナカガワラ",
    "street": null,
    "office_name": null,
    "office_name_kana": null
  },
  "0054": {
    "postcode": "0120054",
    "prefecture": "秋田県",
    "prefecture_kana": "アキタケン",
    "prefecture_code": 5,
    "city": "湯沢市",
    "city_kana": "ユザワシ",
    "town": "西中川原",
    "town_kana": "ニシナカガワラ",
    "street": null,
    "office_name": null,
    "office_name_kana": null
  },
  "0055": {
    "postcode": "0120055",
    "prefecture": "秋田県",
    "prefecture_kana": "アキタケン",
    "prefecture_code": 5,
    "city": "湯沢市",
    "city_kana": "ユザワシ",
    "town": "山田",
    "town_kana": "ヤマダ",
    "street": null,
    "office_name": null,
    "office_name_kana": null
  },
  "0056": {
    "postcode": "0120056",
    "prefecture": "秋田県",
    "prefecture_kana": "アキタケン",
    "prefecture_code": 5,
    "city": "湯沢市",
    "city_kana": "ユザワシ",
    "town": "藤花",
    "town_kana": "フジハナ",
    "street": null,
    "office_name": null,
    "office_name_kana": null
  },
  "0057": {
    "postcode": "0120057",
    "prefecture": "秋田県",
    "prefecture_kana": "アキタケン",
    "prefecture_code": 5,
    "city": "湯沢市",
    "city_kana": "ユザワシ",
    "town": "雄勝田",
    "town_kana": "オガチタ",
    "street": null,
    "office_name": null,
    "office_name_kana": null
  },
  "0061": {
    "postcode": "0120061",
    "prefecture": "秋田県",
    "prefecture_kana": "アキタケン",
    "prefecture_code": 5,
    "city": "湯沢市",
    "city_kana": "ユザワシ",
    "town": "松岡",
    "town_kana": "マツオカ",
    "street": null,
    "office_name": null,
    "office_name_kana": null
  },
  "0062": {
    "postcode": "0120062",
    "prefecture": "秋田県",
    "prefecture_kana": "アキタケン",
    "prefecture_code": 5,
    "city": "湯沢市",
    "city_kana": "ユザワシ",
    "town": "石塚",
    "town_kana": "イシヅカ",
    "street": null,
    "office_name": null,
    "office_name_kana": null
  },
  "0104": {
    "postcode": "0120104",
    "prefecture": "秋田県",
    "prefecture_kana": "アキタケン",
    "prefecture_code": 5,
    "city": "湯沢市",
    "city_kana": "ユザワシ",
    "town": "駒形町",
    "town_kana": "コマガタチョウ",
    "street": null,
    "office_name": null,
    "office_name_kana": null
  },
  "0105": {
    "postcode": "0120105",
    "prefecture": "秋田県",
    "prefecture_kana": "アキタケン",
    "prefecture_code": 5,
    "city": "湯沢市",
    "city_kana": "ユザワシ",
    "town": "川連町",
    "town_kana": "カワツラチョウ",
    "street": null,
    "office_name": null,
    "office_name_kana": null
  },
  "0106": {
    "postcode": "0120106",
    "prefecture": "秋田県",
    "prefecture_kana": "アキタケン",
    "prefecture_code": 5,
    "city": "湯沢市",
    "city_kana": "ユザワシ",
    "town": "三梨町",
    "town_kana": "ミツナシチョウ",
    "street": null,
    "office_name": null,
    "office_name_kana": null
  },
  "0107": {
    "postcode": "0120107",
    "prefecture": "秋田県",
    "prefecture_kana": "アキタケン",
    "prefecture_code": 5,
    "city": "湯沢市",
    "city_kana": "ユザワシ",
    "town": "稲庭町",
    "town_kana": "イナニワチョウ",
    "street": null,
    "office_name": null,
    "office_name_kana": null
  },
  "0183": {
    "postcode": "0120183",
    "prefecture": "秋田県",
    "prefecture_kana": "アキタケン",
    "prefecture_code": 5,
    "city": "湯沢市",
    "city_kana": "ユザワシ",
    "town": "皆瀬",
    "town_kana": "ミナセ",
    "street": null,
    "office_name": null,
    "office_name_kana": null
  },
  "0801": {
    "postcode": "0120801",
    "prefecture": "秋田県",
    "prefecture_kana": "アキタケン",
    "prefecture_code": 5,
    "city": "湯沢市",
    "city_kana": "ユザワシ",
    "town": "岩崎",
    "town_kana": "イワサキ",
    "street": null,
    "office_name": null,
    "office_name_kana": null
  },
  "0802": {
    "postcode": "0120802",
    "prefecture": "秋田県",
    "prefecture_kana": "アキタケン",
    "prefecture_code": 5,
    "city": "湯沢市",
    "city_kana": "ユザワシ",
    "town": "成沢",
    "town_kana": "ナリサワ",
    "street": null,
    "office_name": null,
    "office_name_kana": null
  },
  "0803": {
    "postcode": "0120803",
    "prefecture": "秋田県",
    "prefecture_kana": "アキタケン",
    "prefecture_code": 5,
    "city": "湯沢市",
    "city_kana": "ユザワシ",
    "town": "杉沢新所",
    "town_kana": "スギサワアラトコロ",
    "street": null,
    "office_name": null,
    "office_name_kana": null
  },
  "0804": {
    "postcode": "0120804",
    "prefecture": "秋田県",
    "prefecture_kana": "アキタケン",
    "prefecture_code": 5,
    "city": "湯沢市",
    "city_kana": "ユザワシ",
    "town": "杉沢",
    "town_kana": "スギサワ",
    "street": null,
    "office_name": null,
    "office_name_kana": null
  },
  "0811": {
    "postcode": "0120811",
    "prefecture": "秋田県",
    "prefecture_kana": "アキタケン",
    "prefecture_code": 5,
    "city": "湯沢市",
    "city_kana": "ユザワシ",
    "town": "桜通り",
    "town_kana": "サクラドオリ",
    "street": null,
    "office_name": null,
    "office_name_kana": null
  },
  "0812": {
    "postcode": "0120812",
    "prefecture": "秋田県",
    "prefecture_kana": "アキタケン",
    "prefecture_code": 5,
    "city": "湯沢市",
    "city_kana": "ユザワシ",
    "town": "東赤土山",
    "town_kana": "ヒガシアカツチヤマ",
    "street": null,
    "office_name": null,
    "office_name_kana": null
  },
  "0813": {
    "postcode": "0120813",
    "prefecture": "秋田県",
    "prefecture_kana": "アキタケン",
    "prefecture_code": 5,
    "city": "湯沢市",
    "city_kana": "ユザワシ",
    "town": "前森",
    "town_kana": "マエモリ",
    "street": null,
    "office_name": null,
    "office_name_kana": null
  },
  "0814": {
    "postcode": "0120814",
    "prefecture": "秋田県",
    "prefecture_kana": "アキタケン",
    "prefecture_code": 5,
    "city": "湯沢市",
    "city_kana": "ユザワシ",
    "town": "大工町",
    "town_kana": "ダイクマチ",
    "street": null,
    "office_name": null,
    "office_name_kana": null
  },
  "0815": {
    "postcode": "0120815",
    "prefecture": "秋田県",
    "prefecture_kana": "アキタケン",
    "prefecture_code": 5,
    "city": "湯沢市",
    "city_kana": "ユザワシ",
    "town": "古館町",
    "town_kana": "フルダテマチ",
    "street": null,
    "office_name": null,
    "office_name_kana": null
  },
  "0821": {
    "postcode": "0120821",
    "prefecture": "秋田県",
    "prefecture_kana": "アキタケン",
    "prefecture_code": 5,
    "city": "湯沢市",
    "city_kana": "ユザワシ",
    "town": "山谷",
    "town_kana": "ヤマヤ",
    "street": null,
    "office_name": null,
    "office_name_kana": null
  },
  "0822": {
    "postcode": "0120822",
    "prefecture": "秋田県",
    "prefecture_kana": "アキタケン",
    "prefecture_code": 5,
    "city": "湯沢市",
    "city_kana": "ユザワシ",
    "town": "下山谷",
    "town_kana": "シモヤマヤ",
    "street": null,
    "office_name": null,
    "office_name_kana": null
  },
  "0823": [
    {
      "postcode": "0120823",
      "prefecture": "秋田県",
      "prefecture_kana": "アキタケン",
      "prefecture_code": 5,
      "city": "湯沢市",
      "city_kana": "ユザワシ",
      "town": "湯ノ上山",
      "town_kana": "ユノカミヤマ",
      "street": null,
      "office_name": null,
      "office_name_kana": null
    },
    {
      "postcode": "0120823",
      "prefecture": "秋田県",
      "prefecture_kana": "アキタケン",
      "prefecture_code": 5,
      "city": "湯沢市",
      "city_kana": "ユザワシ",
      "town": "湯ノ原",
      "town_kana": "ユノハラ",
      "street": null,
      "office_name": null,
      "office_name_kana": null
    }
  ],
  "0824": [
    {
      "postcode": "0120824",
      "prefecture": "秋田県",
      "prefecture_kana": "アキタケン",
      "prefecture_code": 5,
      "city": "湯沢市",
      "city_kana": "ユザワシ",
      "town": "裏門",
      "town_kana": "ウラモン",
      "street": null,
      "office_name": null,
      "office_name_kana": null
    },
    {
      "postcode": "0120824",
      "prefecture": "秋田県",
      "prefecture_kana": "アキタケン",
      "prefecture_code": 5,
      "city": "湯沢市",
      "city_kana": "ユザワシ",
      "town": "佐竹町",
      "town_kana": "サタケチョウ",
      "street": null,
      "office_name": null,
      "office_name_kana": null
    }
  ],
  "0825": {
    "postcode": "0120825",
    "prefecture": "秋田県",
    "prefecture_kana": "アキタケン",
    "prefecture_code": 5,
    "city": "湯沢市",
    "city_kana": "ユザワシ",
    "town": "北荒町",
    "town_kana": "キタアラマチ",
    "street": null,
    "office_name": null,
    "office_name_kana": null
  },
  "0826": {
    "postcode": "0120826",
    "prefecture": "秋田県",
    "prefecture_kana": "アキタケン",
    "prefecture_code": 5,
    "city": "湯沢市",
    "city_kana": "ユザワシ",
    "town": "柳町",
    "town_kana": "ヤナギマチ",
    "street": null,
    "office_name": null,
    "office_name_kana": null
  },
  "0827": {
    "postcode": "0120827",
    "prefecture": "秋田県",
    "prefecture_kana": "アキタケン",
    "prefecture_code": 5,
    "city": "湯沢市",
    "city_kana": "ユザワシ",
    "town": "表町",
    "town_kana": "オモテマチ",
    "street": null,
    "office_name": null,
    "office_name_kana": null
  },
  "0831": {
    "postcode": "0120831",
    "prefecture": "秋田県",
    "prefecture_kana": "アキタケン",
    "prefecture_code": 5,
    "city": "湯沢市",
    "city_kana": "ユザワシ",
    "town": "角間沢",
    "town_kana": "カクマザワ",
    "street": null,
    "office_name": null,
    "office_name_kana": null
  },
  "0832": {
    "postcode": "0120832",
    "prefecture": "秋田県",
    "prefecture_kana": "アキタケン",
    "prefecture_code": 5,
    "city": "湯沢市",
    "city_kana": "ユザワシ",
    "town": "広沢山",
    "town_kana": "ヒロサワヤマ",
    "street": null,
    "office_name": null,
    "office_name_kana": null
  },
  "0833": {
    "postcode": "0120833",
    "prefecture": "秋田県",
    "prefecture_kana": "アキタケン",
    "prefecture_code": 5,
    "city": "湯沢市",
    "city_kana": "ユザワシ",
    "town": "カツクイ沢山",
    "town_kana": "カックイサワヤマ",
    "street": null,
    "office_name": null,
    "office_name_kana": null
  },
  "0834": {
    "postcode": "0120834",
    "prefecture": "秋田県",
    "prefecture_kana": "アキタケン",
    "prefecture_code": 5,
    "city": "湯沢市",
    "city_kana": "ユザワシ",
    "town": "岩ノ沢山",
    "town_kana": "イワノサワヤマ",
    "street": null,
    "office_name": null,
    "office_name_kana": null
  },
  "0835": {
    "postcode": "0120835",
    "prefecture": "秋田県",
    "prefecture_kana": "アキタケン",
    "prefecture_code": 5,
    "city": "湯沢市",
    "city_kana": "ユザワシ",
    "town": "鉦打沢",
    "town_kana": "カネウチザワ",
    "street": null,
    "office_name": null,
    "office_name_kana": null
  },
  "0836": {
    "postcode": "0120836",
    "prefecture": "秋田県",
    "prefecture_kana": "アキタケン",
    "prefecture_code": 5,
    "city": "湯沢市",
    "city_kana": "ユザワシ",
    "town": "金堀沢山",
    "town_kana": "カネホリザワヤマ",
    "street": null,
    "office_name": null,
    "office_name_kana": null
  },
  "0837": {
    "postcode": "0120837",
    "prefecture": "秋田県",
    "prefecture_kana": "アキタケン",
    "prefecture_code": 5,
    "city": "湯沢市",
    "city_kana": "ユザワシ",
    "town": "西金堀沢山",
    "town_kana": "ニシカネホリザワヤマ",
    "street": null,
    "office_name": null,
    "office_name_kana": null
  },
  "0838": {
    "postcode": "0120838",
    "prefecture": "秋田県",
    "prefecture_kana": "アキタケン",
    "prefecture_code": 5,
    "city": "湯沢市",
    "city_kana": "ユザワシ",
    "town": "蛇野",
    "town_kana": "ヘビノ",
    "street": null,
    "office_name": null,
    "office_name_kana": null
  },
  "0841": {
    "postcode": "0120841",
    "prefecture": "秋田県",
    "prefecture_kana": "アキタケン",
    "prefecture_code": 5,
    "city": "湯沢市",
    "city_kana": "ユザワシ",
    "town": "大町",
    "town_kana": "オオマチ",
    "street": null,
    "office_name": null,
    "office_name_kana": null
  },
  "0842": {
    "postcode": "0120842",
    "prefecture": "秋田県",
    "prefecture_kana": "アキタケン",
    "prefecture_code": 5,
    "city": "湯沢市",
    "city_kana": "ユザワシ",
    "town": "内舘町",
    "town_kana": "ウチダテマチ",
    "street": null,
    "office_name": null,
    "office_name_kana": null
  },
  "0843": {
    "postcode": "0120843",
    "prefecture": "秋田県",
    "prefecture_kana": "アキタケン",
    "prefecture_code": 5,
    "city": "湯沢市",
    "city_kana": "ユザワシ",
    "town": "内町",
    "town_kana": "ウチマチ",
    "street": null,
    "office_name": null,
    "office_name_kana": null
  },
  "0844": {
    "postcode": "0120844",
    "prefecture": "秋田県",
    "prefecture_kana": "アキタケン",
    "prefecture_code": 5,
    "city": "湯沢市",
    "city_kana": "ユザワシ",
    "town": "田町",
    "town_kana": "タマチ",
    "street": null,
    "office_name": null,
    "office_name_kana": null
  },
  "0845": {
    "postcode": "0120845",
    "prefecture": "秋田県",
    "prefecture_kana": "アキタケン",
    "prefecture_code": 5,
    "city": "湯沢市",
    "city_kana": "ユザワシ",
    "town": "材木町",
    "town_kana": "ザイモクチョウ",
    "street": null,
    "office_name": null,
    "office_name_kana": null
  },
  "0851": {
    "postcode": "0120851",
    "prefecture": "秋田県",
    "prefecture_kana": "アキタケン",
    "prefecture_code": 5,
    "city": "湯沢市",
    "city_kana": "ユザワシ",
    "town": "吹張",
    "town_kana": "フッパリ",
    "street": null,
    "office_name": null,
    "office_name_kana": null
  },
  "0852": {
    "postcode": "0120852",
    "prefecture": "秋田県",
    "prefecture_kana": "アキタケン",
    "prefecture_code": 5,
    "city": "湯沢市",
    "city_kana": "ユザワシ",
    "town": "荒町",
    "town_kana": "アラマチ",
    "street": null,
    "office_name": null,
    "office_name_kana": null
  },
  "0853": {
    "postcode": "0120853",
    "prefecture": "秋田県",
    "prefecture_kana": "アキタケン",
    "prefecture_code": 5,
    "city": "湯沢市",
    "city_kana": "ユザワシ",
    "town": "新町",
    "town_kana": "シンチョウ",
    "street": null,
    "office_name": null,
    "office_name_kana": null
  },
  "0854": {
    "postcode": "0120854",
    "prefecture": "秋田県",
    "prefecture_kana": "アキタケン",
    "prefecture_code": 5,
    "city": "湯沢市",
    "city_kana": "ユザワシ",
    "town": "鳶ケ沢山",
    "town_kana": "トビガサワヤマ",
    "street": null,
    "office_name": null,
    "office_name_kana": null
  },
  "0855": {
    "postcode": "0120855",
    "prefecture": "秋田県",
    "prefecture_kana": "アキタケン",
    "prefecture_code": 5,
    "city": "湯沢市",
    "city_kana": "ユザワシ",
    "town": "愛宕町",
    "town_kana": "アタゴチョウ",
    "street": null,
    "office_name": null,
    "office_name_kana": null
  },
  "0856": {
    "postcode": "0120856",
    "prefecture": "秋田県",
    "prefecture_kana": "アキタケン",
    "prefecture_code": 5,
    "city": "湯沢市",
    "city_kana": "ユザワシ",
    "town": "御囲地町",
    "town_kana": "オカチマチ",
    "street": null,
    "office_name": null,
    "office_name_kana": null
  },
  "0857": {
    "postcode": "0120857",
    "prefecture": "秋田県",
    "prefecture_kana": "アキタケン",
    "prefecture_code": 5,
    "city": "湯沢市",
    "city_kana": "ユザワシ",
    "town": "千石町",
    "town_kana": "センゴクチョウ",
    "street": null,
    "office_name": null,
    "office_name_kana": null
  },
  "0861": {
    "postcode": "0120861",
    "prefecture": "秋田県",
    "prefecture_kana": "アキタケン",
    "prefecture_code": 5,
    "city": "湯沢市",
    "city_kana": "ユザワシ",
    "town": "東松沢",
    "town_kana": "ヒガシマツザワ",
    "street": null,
    "office_name": null,
    "office_name_kana": null
  },
  "0862": {
    "postcode": "0120862",
    "prefecture": "秋田県",
    "prefecture_kana": "アキタケン",
    "prefecture_code": 5,
    "city": "湯沢市",
    "city_kana": "ユザワシ",
    "town": "関口",
    "town_kana": "セキグチ",
    "street": null,
    "office_name": null,
    "office_name_kana": null
  },
  "0863": {
    "postcode": "0120863",
    "prefecture": "秋田県",
    "prefecture_kana": "アキタケン",
    "prefecture_code": 5,
    "city": "湯沢市",
    "city_kana": "ユザワシ",
    "town": "下関",
    "town_kana": "シモセキ",
    "street": null,
    "office_name": null,
    "office_name_kana": null
  },
  "0864": {
    "postcode": "0120864",
    "prefecture": "秋田県",
    "prefecture_kana": "アキタケン",
    "prefecture_code": 5,
    "city": "湯沢市",
    "city_kana": "ユザワシ",
    "town": "上関",
    "town_kana": "カミセキ",
    "street": null,
    "office_name": null,
    "office_name_kana": null
  },
  "0865": {
    "postcode": "0120865",
    "prefecture": "秋田県",
    "prefecture_kana": "アキタケン",
    "prefecture_code": 5,
    "city": "湯沢市",
    "city_kana": "ユザワシ",
    "town": "沼樋",
    "town_kana": "ヌマドイ",
    "street": null,
    "office_name": null,
    "office_name_kana": null
  },
  "0866": {
    "postcode": "0120866",
    "prefecture": "秋田県",
    "prefecture_kana": "アキタケン",
    "prefecture_code": 5,
    "city": "湯沢市",
    "city_kana": "ユザワシ",
    "town": "西松沢",
    "town_kana": "ニシマツザワ",
    "street": null,
    "office_name": null,
    "office_name_kana": null
  },
  "0867": {
    "postcode": "0120867",
    "prefecture": "秋田県",
    "prefecture_kana": "アキタケン",
    "prefecture_code": 5,
    "city": "湯沢市",
    "city_kana": "ユザワシ",
    "town": "南台",
    "town_kana": "ミナミダイ",
    "street": null,
    "office_name": null,
    "office_name_kana": null
  },
  "0868": {
    "postcode": "0120868",
    "prefecture": "秋田県",
    "prefecture_kana": "アキタケン",
    "prefecture_code": 5,
    "city": "湯沢市",
    "city_kana": "ユザワシ",
    "town": "西愛宕町",
    "town_kana": "ニシアタゴチョウ",
    "street": null,
    "office_name": null,
    "office_name_kana": null
  },
  "0869": {
    "postcode": "0120869",
    "prefecture": "秋田県",
    "prefecture_kana": "アキタケン",
    "prefecture_code": 5,
    "city": "湯沢市",
    "city_kana": "ユザワシ",
    "town": "若葉町",
    "town_kana": "ワカバマチ",
    "street": null,
    "office_name": null,
    "office_name_kana": null
  },
  "1100": {
    "postcode": "0121100",
    "prefecture": "秋田県",
    "prefecture_kana": "アキタケン",
    "prefecture_code": 5,
    "city": "雄勝郡羽後町",
    "city_kana": "オガチグンウゴマチ",
    "town": "",
    "town_kana": "",
    "street": null,
    "office_name": null,
    "office_name_kana": null
  },
  "1101": {
    "postcode": "0121101",
    "prefecture": "秋田県",
    "prefecture_kana": "アキタケン",
    "prefecture_code": 5,
    "city": "雄勝郡羽後町",
    "city_kana": "オガチグンウゴマチ",
    "town": "大沢",
    "town_kana": "オオサワ",
    "street": null,
    "office_name": null,
    "office_name_kana": null
  },
  "1102": {
    "postcode": "0121102",
    "prefecture": "秋田県",
    "prefecture_kana": "アキタケン",
    "prefecture_code": 5,
    "city": "雄勝郡羽後町",
    "city_kana": "オガチグンウゴマチ",
    "town": "新町",
    "town_kana": "シンマチ",
    "street": null,
    "office_name": null,
    "office_name_kana": null
  },
  "1103": {
    "postcode": "0121103",
    "prefecture": "秋田県",
    "prefecture_kana": "アキタケン",
    "prefecture_code": 5,
    "city": "雄勝郡羽後町",
    "city_kana": "オガチグンウゴマチ",
    "town": "林崎",
    "town_kana": "ハヤシザキ",
    "street": null,
    "office_name": null,
    "office_name_kana": null
  },
  "1104": {
    "postcode": "0121104",
    "prefecture": "秋田県",
    "prefecture_kana": "アキタケン",
    "prefecture_code": 5,
    "city": "雄勝郡羽後町",
    "city_kana": "オガチグンウゴマチ",
    "town": "堀内",
    "town_kana": "ホリウチ",
    "street": null,
    "office_name": null,
    "office_name_kana": null
  },
  "1105": {
    "postcode": "0121105",
    "prefecture": "秋田県",
    "prefecture_kana": "アキタケン",
    "prefecture_code": 5,
    "city": "雄勝郡羽後町",
    "city_kana": "オガチグンウゴマチ",
    "town": "水沢",
    "town_kana": "ミズサワ",
    "street": null,
    "office_name": null,
    "office_name_kana": null
  },
  "1106": {
    "postcode": "0121106",
    "prefecture": "秋田県",
    "prefecture_kana": "アキタケン",
    "prefecture_code": 5,
    "city": "雄勝郡羽後町",
    "city_kana": "オガチグンウゴマチ",
    "town": "払体",
    "town_kana": "ホッタイ",
    "street": null,
    "office_name": null,
    "office_name_kana": null
  },
  "1111": {
    "postcode": "0121111",
    "prefecture": "秋田県",
    "prefecture_kana": "アキタケン",
    "prefecture_code": 5,
    "city": "雄勝郡羽後町",
    "city_kana": "オガチグンウゴマチ",
    "town": "嶋田新田",
    "town_kana": "シマダシンデン",
    "street": null,
    "office_name": null,
    "office_name_kana": null
  },
  "1112": {
    "postcode": "0121112",
    "prefecture": "秋田県",
    "prefecture_kana": "アキタケン",
    "prefecture_code": 5,
    "city": "雄勝郡羽後町",
    "city_kana": "オガチグンウゴマチ",
    "town": "睦合",
    "town_kana": "ムツアイ",
    "street": null,
    "office_name": null,
    "office_name_kana": null
  },
  "1113": {
    "postcode": "0121113",
    "prefecture": "秋田県",
    "prefecture_kana": "アキタケン",
    "prefecture_code": 5,
    "city": "雄勝郡羽後町",
    "city_kana": "オガチグンウゴマチ",
    "town": "郡山",
    "town_kana": "コオリヤマ",
    "street": null,
    "office_name": null,
    "office_name_kana": null
  },
  "1114": {
    "postcode": "0121114",
    "prefecture": "秋田県",
    "prefecture_kana": "アキタケン",
    "prefecture_code": 5,
    "city": "雄勝郡羽後町",
    "city_kana": "オガチグンウゴマチ",
    "town": "糠塚",
    "town_kana": "ヌカヅカ",
    "street": null,
    "office_name": null,
    "office_name_kana": null
  },
  "1115": {
    "postcode": "0121115",
    "prefecture": "秋田県",
    "prefecture_kana": "アキタケン",
    "prefecture_code": 5,
    "city": "雄勝郡羽後町",
    "city_kana": "オガチグンウゴマチ",
    "town": "足田",
    "town_kana": "タラダ",
    "street": null,
    "office_name": null,
    "office_name_kana": null
  },
  "1116": {
    "postcode": "0121116",
    "prefecture": "秋田県",
    "prefecture_kana": "アキタケン",
    "prefecture_code": 5,
    "city": "雄勝郡羽後町",
    "city_kana": "オガチグンウゴマチ",
    "town": "高尾田",
    "town_kana": "タコウダ",
    "street": null,
    "office_name": null,
    "office_name_kana": null
  },
  "1121": {
    "postcode": "0121121",
    "prefecture": "秋田県",
    "prefecture_kana": "アキタケン",
    "prefecture_code": 5,
    "city": "雄勝郡羽後町",
    "city_kana": "オガチグンウゴマチ",
    "town": "大久保",
    "town_kana": "オオクボ",
    "street": null,
    "office_name": null,
    "office_name_kana": null
  },
  "1122": {
    "postcode": "0121122",
    "prefecture": "秋田県",
    "prefecture_kana": "アキタケン",
    "prefecture_code": 5,
    "city": "雄勝郡羽後町",
    "city_kana": "オガチグンウゴマチ",
    "town": "柏原",
    "town_kana": "カシワバラ",
    "street": null,
    "office_name": null,
    "office_name_kana": null
  },
  "1123": {
    "postcode": "0121123",
    "prefecture": "秋田県",
    "prefecture_kana": "アキタケン",
    "prefecture_code": 5,
    "city": "雄勝郡羽後町",
    "city_kana": "オガチグンウゴマチ",
    "town": "貝沢",
    "town_kana": "カイザワ",
    "street": null,
    "office_name": null,
    "office_name_kana": null
  },
  "1124": {
    "postcode": "0121124",
    "prefecture": "秋田県",
    "prefecture_kana": "アキタケン",
    "prefecture_code": 5,
    "city": "雄勝郡羽後町",
    "city_kana": "オガチグンウゴマチ",
    "town": "赤袴",
    "town_kana": "アカバカマ",
    "street": null,
    "office_name": null,
    "office_name_kana": null
  },
  "1125": {
    "postcode": "0121125",
    "prefecture": "秋田県",
    "prefecture_kana": "アキタケン",
    "prefecture_code": 5,
    "city": "雄勝郡羽後町",
    "city_kana": "オガチグンウゴマチ",
    "town": "野中",
    "town_kana": "ノナカ",
    "street": null,
    "office_name": null,
    "office_name_kana": null
  },
  "1126": {
    "postcode": "0121126",
    "prefecture": "秋田県",
    "prefecture_kana": "アキタケン",
    "prefecture_code": 5,
    "city": "雄勝郡羽後町",
    "city_kana": "オガチグンウゴマチ",
    "town": "杉宮",
    "town_kana": "スギノミヤ",
    "street": null,
    "office_name": null,
    "office_name_kana": null
  },
  "1131": {
    "postcode": "0121131",
    "prefecture": "秋田県",
    "prefecture_kana": "アキタケン",
    "prefecture_code": 5,
    "city": "雄勝郡羽後町",
    "city_kana": "オガチグンウゴマチ",
    "town": "西馬音内",
    "town_kana": "ニシモナイ",
    "street": null,
    "office_name": null,
    "office_name_kana": null
  },
  "1132": {
    "postcode": "0121132",
    "prefecture": "秋田県",
    "prefecture_kana": "アキタケン",
    "prefecture_code": 5,
    "city": "雄勝郡羽後町",
    "city_kana": "オガチグンウゴマチ",
    "town": "大戸",
    "town_kana": "オオド",
    "street": null,
    "office_name": null,
    "office_name_kana": null
  },
  "1133": {
    "postcode": "0121133",
    "prefecture": "秋田県",
    "prefecture_kana": "アキタケン",
    "prefecture_code": 5,
    "city": "雄勝郡羽後町",
    "city_kana": "オガチグンウゴマチ",
    "town": "床舞",
    "town_kana": "トコマイ",
    "street": null,
    "office_name": null,
    "office_name_kana": null
  },
  "1134": {
    "postcode": "0121134",
    "prefecture": "秋田県",
    "prefecture_kana": "アキタケン",
    "prefecture_code": 5,
    "city": "雄勝郡羽後町",
    "city_kana": "オガチグンウゴマチ",
    "town": "田沢",
    "town_kana": "タザワ",
    "street": null,
    "office_name": null,
    "office_name_kana": null
  },
  "1135": {
    "postcode": "0121135",
    "prefecture": "秋田県",
    "prefecture_kana": "アキタケン",
    "prefecture_code": 5,
    "city": "雄勝郡羽後町",
    "city_kana": "オガチグンウゴマチ",
    "town": "鹿内",
    "town_kana": "シカナイ",
    "street": null,
    "office_name": null,
    "office_name_kana": null
  },
  "1136": {
    "postcode": "0121136",
    "prefecture": "秋田県",
    "prefecture_kana": "アキタケン",
    "prefecture_code": 5,
    "city": "雄勝郡羽後町",
    "city_kana": "オガチグンウゴマチ",
    "town": "飯沢",
    "town_kana": "イイザワ",
    "street": null,
    "office_name": null,
    "office_name_kana": null
  },
  "1137": {
    "postcode": "0121137",
    "prefecture": "秋田県",
    "prefecture_kana": "アキタケン",
    "prefecture_code": 5,
    "city": "雄勝郡羽後町",
    "city_kana": "オガチグンウゴマチ",
    "town": "西馬音内堀回",
    "town_kana": "ニシモナイホリマワリ",
    "street": null,
    "office_name": null,
    "office_name_kana": null
  },
  "1241": {
    "postcode": "0121241",
    "prefecture": "秋田県",
    "prefecture_kana": "アキタケン",
    "prefecture_code": 5,
    "city": "雄勝郡羽後町",
    "city_kana": "オガチグンウゴマチ",
    "town": "田代",
    "town_kana": "タシロ",
    "street": null,
    "office_name": null,
    "office_name_kana": null
  },
  "1242": {
    "postcode": "0121242",
    "prefecture": "秋田県",
    "prefecture_kana": "アキタケン",
    "prefecture_code": 5,
    "city": "雄勝郡羽後町",
    "city_kana": "オガチグンウゴマチ",
    "town": "上到米",
    "town_kana": "カミトウマイ",
    "street": null,
    "office_name": null,
    "office_name_kana": null
  },
  "1243": {
    "postcode": "0121243",
    "prefecture": "秋田県",
    "prefecture_kana": "アキタケン",
    "prefecture_code": 5,
    "city": "雄勝郡羽後町",
    "city_kana": "オガチグンウゴマチ",
    "town": "軽井沢",
    "town_kana": "カルイザワ",
    "street": null,
    "office_name": null,
    "office_name_kana": null
  },
  "1351": {
    "postcode": "0121351",
    "prefecture": "秋田県",
    "prefecture_kana": "アキタケン",
    "prefecture_code": 5,
    "city": "雄勝郡羽後町",
    "city_kana": "オガチグンウゴマチ",
    "town": "下仙道",
    "town_kana": "シモセンドウ",
    "street": null,
    "office_name": null,
    "office_name_kana": null
  },
  "1352": {
    "postcode": "0121352",
    "prefecture": "秋田県",
    "prefecture_kana": "アキタケン",
    "prefecture_code": 5,
    "city": "雄勝郡羽後町",
    "city_kana": "オガチグンウゴマチ",
    "town": "中仙道",
    "town_kana": "ナカセンドウ",
    "street": null,
    "office_name": null,
    "office_name_kana": null
  },
  "1353": {
    "postcode": "0121353",
    "prefecture": "秋田県",
    "prefecture_kana": "アキタケン",
    "prefecture_code": 5,
    "city": "雄勝郡羽後町",
    "city_kana": "オガチグンウゴマチ",
    "town": "上仙道",
    "town_kana": "カミセンドウ",
    "street": null,
    "office_name": null,
    "office_name_kana": null
  },
  "8501": {
    "postcode": "0128501",
    "prefecture": "秋田県",
    "prefecture_kana": "アキタケン",
    "prefecture_code": 5,
    "city": "湯沢市",
    "city_kana": "ユザワシ",
    "town": "佐竹町",
    "town_kana": "サタケチョウ",
    "street": "１−１",
    "office_name": "湯沢市役所",
    "office_name_kana": "ユザワシヤクシヨ"
  },
  "8502": {
    "postcode": "0128502",
    "prefecture": "秋田県",
    "prefecture_kana": "アキタケン",
    "prefecture_code": 5,
    "city": "湯沢市",
    "city_kana": "ユザワシ",
    "town": "大工町",
    "town_kana": "ダイクマチ",
    "street": "２−３２",
    "office_name": "湯沢　税務署",
    "office_name_kana": "ユザワ ゼイムシヨ"
  },
  "8511": {
    "postcode": "0128511",
    "prefecture": "秋田県",
    "prefecture_kana": "アキタケン",
    "prefecture_code": 5,
    "city": "湯沢市",
    "city_kana": "ユザワシ",
    "town": "深堀",
    "town_kana": "フカボリ",
    "street": "字中川原１２０−８",
    "office_name": "秋田県醗酵工業　株式会社",
    "office_name_kana": "アキタケンハツコウコウギヨウ カブシキガイシヤ"
  },
  "8601": {
    "postcode": "0128601",
    "prefecture": "秋田県",
    "prefecture_kana": "アキタケン",
    "prefecture_code": 5,
    "city": "湯沢市",
    "city_kana": "ユザワシ",
    "town": "表町",
    "town_kana": "オモテマチ",
    "street": "２丁目５−２３（湯沢郵便局私書箱第２号）",
    "office_name": "株式会社　皆常商店",
    "office_name_kana": "カブシキガイシヤ ミナツネシヨウテン"
  },
  "8604": {
    "postcode": "0128604",
    "prefecture": "秋田県",
    "prefecture_kana": "アキタケン",
    "prefecture_code": 5,
    "city": "湯沢市",
    "city_kana": "ユザワシ",
    "town": "柳町",
    "town_kana": "ヤナギマチ",
    "street": "２丁目１−４８（湯沢郵便局私書箱第５号）",
    "office_name": "株式会社　秋田銀行　湯沢支店",
    "office_name_kana": "カブシキガイシヤ アキタギンコウ ユザワシテン"
  },
  "8651": {
    "postcode": "0128651",
    "prefecture": "秋田県",
    "prefecture_kana": "アキタケン",
    "prefecture_code": 5,
    "city": "湯沢市",
    "city_kana": "ユザワシ",
    "town": "千石町",
    "town_kana": "センゴクチョウ",
    "street": "４丁目２−５０（湯沢郵便局私書箱第７号）",
    "office_name": "株式会社　丸大工機商会",
    "office_name_kana": "カブシキカイシヤ マルダイコウキシヨウカイ"
  }
}