{
  "0000": {
    "postcode": "0130000",
    "prefecture": "秋田県",
    "prefecture_kana": "アキタケン",
    "prefecture_code": 5,
    "city": "横手市",
    "city_kana": "ヨコテシ",
    "town": "",
    "town_kana": "",
    "street": null,
    "office_name": null,
    "office_name_kana": null
  },
  "0001": {
    "postcode": "0130001",
    "prefecture": "秋田県",
    "prefecture_kana": "アキタケン",
    "prefecture_code": 5,
    "city": "横手市",
    "city_kana": "ヨコテシ",
    "town": "杉沢",
    "town_kana": "スギサワ",
    "street": null,
    "office_name": null,
    "office_name_kana": null
  },
  "0002": {
    "postcode": "0130002",
    "prefecture": "秋田県",
    "prefecture_kana": "アキタケン",
    "prefecture_code": 5,
    "city": "横手市",
    "city_kana": "ヨコテシ",
    "town": "追廻",
    "town_kana": "オイマワシ",
    "street": null,
    "office_name": null,
    "office_name_kana": null
  },
  "0003": {
    "postcode": "0130003",
    "prefecture": "秋田県",
    "prefecture_kana": "アキタケン",
    "prefecture_code": 5,
    "city": "横手市",
    "city_kana": "ヨコテシ",
    "town": "台所町",
    "town_kana": "ダイドコロマチ",
    "street": null,
    "office_name": null,
    "office_name_kana": null
  },
  "0004": {
    "postcode": "0130004",
    "prefecture": "秋田県",
    "prefecture_kana": "アキタケン",
    "prefecture_code": 5,
    "city": "横手市",
    "city_kana": "ヨコテシ",
    "town": "明永町",
    "town_kana": "ミョウエイチョウ",
    "street": null,
    "office_name": null,
    "office_name_kana": null
  },
  "0005": {
    "postcode": "0130005",
    "prefecture": "秋田県",
    "prefecture_kana": "アキタケン",
    "prefecture_code": 5,
    "city": "横手市",
    "city_kana": "ヨコテシ",
    "town": "幸町",
    "town_kana": "サイワイチョウ",
    "street": null,
    "office_name": null,
    "office_name_kana": null
  },
  "0006": {
    "postcode": "0130006",
    "prefecture": "秋田県",
    "prefecture_kana": "アキタケン",
    "prefecture_code": 5,
    "city": "横手市",
    "city_kana": "ヨコテシ",
    "town": "新坂町",
    "town_kana": "シンザカチョウ",
    "street": null,
    "office_name": null,
    "office_name_kana": null
  },
  "0007": {
    "postcode": "0130007",
    "prefecture": "秋田県",
    "prefecture_kana": "アキタケン",
    "prefecture_code": 5,
    "city": "横手市",
    "city_kana": "ヨコテシ",
    "town": "大鳥町",
    "town_kana": "オオトリマチ",
    "street": null,
    "office_name": null,
    "office_name_kana": null
  },
  "0008": {
    "postcode": "0130008",
    "prefecture": "秋田県",
    "prefecture_kana": "アキタケン",
    "prefecture_code": 5,
    "city": "横手市",
    "city_kana": "ヨコテシ",
    "town": "睦成",
    "town_kana": "ムツナリ",
    "street": null,
    "office_name": null,
    "office_name_kana": null
  },
  "0011": {
    "postcode": "0130011",
    "prefecture": "秋田県",
    "prefecture_kana": "アキタケン",
    "prefecture_code": 5,
    "city": "横手市",
    "city_kana": "ヨコテシ",
    "town": "城西町",
    "town_kana": "シロニシマチ",
    "street": null,
    "office_name": null,
    "office_name_kana": null
  },
  "0012": {
    "postcode": "0130012",
    "prefecture": "秋田県",
    "prefecture_kana": "アキタケン",
    "prefecture_code": 5,
    "city": "横手市",
    "city_kana": "ヨコテシ",
    "town": "城山町",
    "town_kana": "シロヤママチ",
    "street": null,
    "office_name": null,
    "office_name_kana": null
  },
  "0013": {
    "postcode": "0130013",
    "prefecture": "秋田県",
    "prefecture_kana": "アキタケン",
    "prefecture_code": 5,
    "city": "横手市",
    "city_kana": "ヨコテシ",
    "town": "城南町",
    "town_kana": "シロミナミマチ",
    "street": null,
    "office_name": null,
    "office_name_kana": null
  },
  "0014": {
    "postcode": "0130014",
    "prefecture": "秋田県",
    "prefecture_kana": "アキタケン",
    "prefecture_code": 5,
    "city": "横手市",
    "city_kana": "ヨコテシ",
    "town": "上内町",
    "town_kana": "カミウチマチ",
    "street": null,
    "office_name": null,
    "office_name_kana": null
  },
  "0015": {
    "postcode": "0130015",
    "prefecture": "秋田県",
    "prefecture_kana": "アキタケン",
    "prefecture_code": 5,
    "city": "横手市",
    "city_kana": "ヨコテシ",
    "town": "羽黒町",
    "town_kana": "ハグロチョウ",
    "street": null,
    "office_name": null,
    "office_name_kana": null
  },
  "0016": {
    "postcode": "0130016",
    "prefecture": "秋田県",
    "prefecture_kana": "アキタケン",
    "prefecture_code": 5,
    "city": "横手市",
    "city_kana": "ヨコテシ",
    "town": "根岸町",
    "town_kana": "ネギシチョウ",
    "street": null,
    "office_name": null,
    "office_name_kana": null
  },
  "0017": {
    "postcode": "0130017",
    "prefecture": "秋田県",
    "prefecture_kana": "アキタケン",
    "prefecture_code": 5,
    "city": "横手市",
    "city_kana": "ヨコテシ",
    "town": "蛇の崎町",
    "town_kana": "ジャノサキマチ",
    "street": null,
    "office_name": null,
    "office_name_kana": null
  },
  "0018": {
    "postcode": "0130018",
    "prefecture": "秋田県",
    "prefecture_kana": "アキタケン",
    "prefecture_code": 5,
    "city": "横手市",
    "city_kana": "ヨコテシ",
    "town": "本町",
    "town_kana": "モトマチ",
    "street": null,
    "office_name": null,
    "office_name_kana": null
  },
  "0019": {
    "postcode": "0130019",
    "prefecture": "秋田県",
    "prefecture_kana": "アキタケン",
    "prefecture_code": 5,
    "city": "横手市",
    "city_kana": "ヨコテシ",
    "town": "二葉町",
    "town_kana": "フタバチョウ",
    "street": null,
    "office_name": null,
    "office_name_kana": null
  },
  "0021": {
    "postcode": "0130021",
    "prefecture": "秋田県",
    "prefecture_kana": "アキタケン",
    "prefecture_code": 5,
    "city": "横手市",
    "city_kana": "ヨコテシ",
    "town": "大町",
    "town_kana": "オオマチ",
    "street": null,
    "office_name": null,
    "office_name_kana": null
  },
  "0022": {
    "postcode": "0130022",
    "prefecture": "秋田県",
    "prefecture_kana": "アキタケン",
    "prefecture_code": 5,
    "city": "横手市",
    "city_kana": "ヨコテシ",
    "town": "四日町",
    "town_kana": "ヨッカマチ",
    "street": null,
    "office_name": null,
    "office_name_kana": null
  },
  "0023": {
    "postcode": "0130023",
    "prefecture": "秋田県",
    "prefecture_kana": "アキタケン",
    "prefecture_code": 5,
    "city": "横手市",
    "city_kana": "ヨコテシ",
    "town": "中央町",
    "town_kana": "チュウオウマチ",
    "street": null,
    "office_name": null,
    "office_name_kana": null
  },
  "0024": {
    "postcode": "0130024",
    "prefecture": "秋田県",
    "prefecture_kana": "アキタケン",
    "prefecture_code": 5,
    "city": "横手市",
    "city_kana": "ヨコテシ",
    "town": "田中町",
    "town_kana": "タナカマチ",
    "street": null,
    "office_name": null,
    "office_name_kana": null
  },
  "0025": {
    "postcode": "0130025",
    "prefecture": "秋田県",
    "prefecture_kana": "アキタケン",
    "prefecture_code": 5,
    "city": "横手市",
    "city_kana": "ヨコテシ",
    "town": "寿町",
    "town_kana": "コトブキチョウ",
    "street": null,
    "office_name": null,
    "office_name_kana": null
  },
  "0026": {
    "postcode": "0130026",
    "prefecture": "秋田県",
    "prefecture_kana": "アキタケン",
    "prefecture_code": 5,
    "city": "横手市",
    "city_kana": "ヨコテシ",
    "town": "大水戸町",
    "town_kana": "オオミドマチ",
    "street": null,
    "office_name": null,
    "office_name_kana": null
  },
  "0027": {
    "postcode": "0130027",
    "prefecture": "秋田県",
    "prefecture_kana": "アキタケン",
    "prefecture_code": 5,
    "city": "横手市",
    "city_kana": "ヨコテシ",
    "town": "平城町",
    "town_kana": "ヒラジョウマチ",
    "street": null,
    "office_name": null,
    "office_name_kana": null
  },
  "0028": {
    "postcode": "0130028",
    "prefecture": "秋田県",
    "prefecture_kana": "アキタケン",
    "prefecture_code": 5,
    "city": "横手市",
    "city_kana": "ヨコテシ",
    "town": "朝倉町",
    "town_kana": "アサクラチョウ",
    "street": null,
    "office_name": null,
    "office_name_kana": null
  },
  "0031": {
    "postcode": "0130031",
    "prefecture": "秋田県",
    "prefecture_kana": "アキタケン",
    "prefecture_code": 5,
    "city": "横手市",
    "city_kana": "ヨコテシ",
    "town": "鍛冶町",
    "town_kana": "カジマチ",
    "street": null,
    "office_name": null,
    "office_name_kana": null
  },
  "0032": {
    "postcode": "0130032",
    "prefecture": "秋田県",
    "prefecture_kana": "アキタケン",
    "prefecture_code": 5,
    "city": "横手市",
    "city_kana": "ヨコテシ",
    "town": "清川町",
    "town_kana": "キヨカワチョウ",
    "street": null,
    "office_name": null,
    "office_name_kana": null
  },
  "0033": {
    "postcode": "0130033",
    "prefecture": "秋田県",
    "prefecture_kana": "アキタケン",
    "prefecture_code": 5,
    "city": "横手市",
    "city_kana": "ヨコテシ",
    "town": "旭川",
    "town_kana": "アサヒカワ",
    "street": null,
    "office_name": null,
    "office_name_kana": null
  },
  "0034": {
    "postcode": "0130034",
    "prefecture": "秋田県",
    "prefecture_kana": "アキタケン",
    "prefecture_code": 5,
    "city": "横手市",
    "city_kana": "ヨコテシ",
    "town": "本郷町",
    "town_kana": "ホンゴウチョウ",
    "street": null,
    "office_name": null,
    "office_name_kana": null
  },
  "0035": {
    "postcode": "0130035",
    "prefecture": "秋田県",
    "prefecture_kana": "アキタケン",
    "prefecture_code": 5,
    "city": "横手市",
    "city_kana": "ヨコテシ",
    "town": "平和町",
    "town_kana": "ヘイワチョウ",
    "street": null,
    "office_name": null,
    "office_name_kana": null
  },
  "0036": {
    "postcode": "0130036",
    "prefecture": "秋田県",
    "prefecture_kana": "アキタケン",
    "prefecture_code": 5,
    "city": "横手市",
    "city_kana": "ヨコテシ",
    "town": "駅前町",
    "town_kana": "エキマエチョウ",
    "street": null,
    "office_name": null,
    "office_name_kana": null
  },
  "0037": {
    "postcode": "0130037",
    "prefecture": "秋田県",
    "prefecture_kana": "アキタケン",
    "prefecture_code": 5,
    "city": "横手市",
    "city_kana": "ヨコテシ",
    "town": "前郷二番町",
    "town_kana": "マエゴウニバンチョウ",
    "street": null,
    "office_name": null,
    "office_name_kana": null
  },
  "0038": {
    "postcode": "0130038",
    "prefecture": "秋田県",
    "prefecture_kana": "アキタケン",
    "prefecture_code": 5,
    "city": "横手市",
    "city_kana": "ヨコテシ",
    "town": "前郷一番町",
    "town_kana": "マエゴウイチバンチョウ",
    "street": null,
    "office_name": null,
    "office_name_kana": null
  },
  "0041": {
    "postcode": "0130041",
    "prefecture": "秋田県",
    "prefecture_kana": "アキタケン",
    "prefecture_code": 5,
    "city": "横手市",
    "city_kana": "ヨコテシ",
    "town": "大沢",
    "town_kana": "オオサワ",
    "street": null,
    "office_name": null,
    "office_name_kana": null
  },
  "0042": {
    "postcode": "0130042",
    "prefecture": "秋田県",
    "prefecture_kana": "アキタケン",
    "prefecture_code": 5,
    "city": "横手市",
    "city_kana": "ヨコテシ",
    "town": "前郷",
    "town_kana": "マエゴウ",
    "street": null,
    "office_name": null,
    "office_name_kana": null
  },
  "0043": {
    "postcode": "0130043",
    "prefecture": "秋田県",
    "prefecture_kana": "アキタケン",
    "prefecture_code": 5,
    "city": "横手市",
    "city_kana": "ヨコテシ",
    "town": "安田",
    "town_kana": "ヤスダ",
    "street": null,
    "office_name": null,
    "office_name_kana": null
  },
  "0044": {
    "postcode": "0130044",
    "prefecture": "秋田県",
    "prefecture_kana": "アキタケン",
    "prefecture_code": 5,
    "city": "横手市",
    "city_kana": "ヨコテシ",
    "town": "横山町",
    "town_kana": "ヨコヤマチョウ",
    "street": null,
    "office_name": null,
    "office_name_kana": null
  },
  "0045": {
    "postcode": "0130045",
    "prefecture": "秋田県",
    "prefecture_kana": "アキタケン",
    "prefecture_code": 5,
    "city": "横手市",
    "city_kana": "ヨコテシ",
    "town": "南町",
    "town_kana": "ミナミマチ",
    "street": null,
    "office_name": null,
    "office_name_kana": null
  },
  "0046": {
    "postcode": "0130046",
    "prefecture": "秋田県",
    "prefecture_kana": "アキタケン",
    "prefecture_code": 5,
    "city": "横手市",
    "city_kana": "ヨコテシ",
    "town": "神明町",
    "town_kana": "シンメイチョウ",
    "street": null,
    "office_name": null,
    "office_name_kana": null
  },
  "0047": {
    "postcode": "0130047",
    "prefecture": "秋田県",
    "prefecture_kana": "アキタケン",
    "prefecture_code": 5,
    "city": "横手市",
    "city_kana": "ヨコテシ",
    "town": "松原町",
    "town_kana": "マツバラマチ",
    "street": null,
    "office_name": null,
    "office_name_kana": null
  },
  "0048": {
    "postcode": "0130048",
    "prefecture": "秋田県",
    "prefecture_kana": "アキタケン",
    "prefecture_code": 5,
    "city": "横手市",
    "city_kana": "ヨコテシ",
    "town": "安田原町",
    "town_kana": "ヤスダハラマチ",
    "street": null,
    "office_name": null,
    "office_name_kana": null
  },
  "0049": {
    "postcode": "0130049",
    "prefecture": "秋田県",
    "prefecture_kana": "アキタケン",
    "prefecture_code": 5,
    "city": "横手市",
    "city_kana": "ヨコテシ",
    "town": "駅西",
    "town_kana": "エキニシ",
    "street": null,
    "office_name": null,
    "office_name_kana": null
  },
  "0051": {
    "postcode": "0130051",
    "prefecture": "秋田県",
    "prefecture_kana": "アキタケン",
    "prefecture_code": 5,
    "city": "横手市",
    "city_kana": "ヨコテシ",
    "town": "大屋新町",
    "town_kana": "オオヤシンマチ",
    "street": null,
    "office_name": null,
    "office_name_kana": null
  },
  "0052": {
    "postcode": "0130052",
    "prefecture": "秋田県",
    "prefecture_kana": "アキタケン",
    "prefecture_code": 5,
    "city": "横手市",
    "city_kana": "ヨコテシ",
    "town": "大屋寺内",
    "town_kana": "オオヤテラウチ",
    "street": null,
    "office_name": null,
    "office_name_kana": null
  },
  "0053": {
    "postcode": "0130053",
    "prefecture": "秋田県",
    "prefecture_kana": "アキタケン",
    "prefecture_code": 5,
    "city": "横手市",
    "city_kana": "ヨコテシ",
    "town": "外目",
    "town_kana": "ソトノメ",
    "street": null,
    "office_name": null,
    "office_name_kana": null
  },
  "0054": {
    "postcode": "0130054",
    "prefecture": "秋田県",
    "prefecture_kana": "アキタケン",
    "prefecture_code": 5,
    "city": "横手市",
    "city_kana": "ヨコテシ",
    "town": "柳田",
    "town_kana": "ヤナギダ",
    "street": null,
    "office_name": null,
    "office_name_kana": null
  },
  "0055": {
    "postcode": "0130055",
    "prefecture": "秋田県",
    "prefecture_kana": "アキタケン",
    "prefecture_code": 5,
    "city": "横手市",
    "city_kana": "ヨコテシ",
    "town": "朝日が丘",
    "town_kana": "アサヒガオカ",
    "street": null,
    "office_name": null,
    "office_name_kana": null
  },
  "0056": {
    "postcode": "0130056",
    "prefecture": "秋田県",
    "prefecture_kana": "アキタケン",
    "prefecture_code": 5,
    "city": "横手市",
    "city_kana": "ヨコテシ",
    "town": "清水町新田",
    "town_kana": "シミズマチシンデン",
    "street": null,
    "office_name": null,
    "office_name_kana": null
  },
  "0060": {
    "postcode": "0130060",
    "prefecture": "秋田県",
    "prefecture_kana": "アキタケン",
    "prefecture_code": 5,
    "city": "横手市",
    "city_kana": "ヨコテシ",
    "town": "条里",
    "town_kana": "ジョウリ",
    "street": null,
    "office_name": null,
    "office_name_kana": null
  },
  "0061": {
    "postcode": "0130061",
    "prefecture": "秋田県",
    "prefecture_kana": "アキタケン",
    "prefecture_code": 5,
    "city": "横手市",
    "city_kana": "ヨコテシ",
    "town": "横手町",
    "town_kana": "ヨコテマチ",
    "street": null,
    "office_name": null,
    "office_name_kana": null
  },
  "0062": {
    "postcode": "0130062",
    "prefecture": "秋田県",
    "prefecture_kana": "アキタケン",
    "prefecture_code": 5,
    "city": "横手市",
    "city_kana": "ヨコテシ",
    "town": "駅南",
    "town_kana": "エキミナミ",
    "street": null,
    "office_name": null,
    "office_name_kana": null
  },
  "0063": {
    "postcode": "0130063",
    "prefecture": "秋田県",
    "prefecture_kana": "アキタケン",
    "prefecture_code": 5,
    "city": "横手市",
    "city_kana": "ヨコテシ",
    "town": "婦気大堤",
    "town_kana": "フケオオヅツミ",
    "street": null,
    "office_name": null,
    "office_name_kana": null
  },
  "0064": {
    "postcode": "0130064",
    "prefecture": "秋田県",
    "prefecture_kana": "アキタケン",
    "prefecture_code": 5,
    "city": "横手市",
    "city_kana": "ヨコテシ",
    "town": "赤坂",
    "town_kana": "アカサカ",
    "street": null,
    "office_name": null,
    "office_name_kana": null
  },
  "0065": {
    "postcode": "0130065",
    "prefecture": "秋田県",
    "prefecture_kana": "アキタケン",
    "prefecture_code": 5,
    "city": "横手市",
    "city_kana": "ヨコテシ",
    "town": "猪岡",
    "town_kana": "イノオカ",
    "street": null,
    "office_name": null,
    "office_name_kana": null
  },
  "0066": {
    "postcode": "0130066",
    "prefecture": "秋田県",
    "prefecture_kana": "アキタケン",
    "prefecture_code": 5,
    "city": "横手市",
    "city_kana": "ヨコテシ",
    "town": "塚堀",
    "town_kana": "ツカボリ",
    "street": null,
    "office_name": null,
    "office_name_kana": null
  },
  "0068": {
    "postcode": "0130068",
    "prefecture": "秋田県",
    "prefecture_kana": "アキタケン",
    "prefecture_code": 5,
    "city": "横手市",
    "city_kana": "ヨコテシ",
    "town": "梅の木町",
    "town_kana": "ウメノキマチ",
    "street": null,
    "office_name": null,
    "office_name_kana": null
  },
  "0069": {
    "postcode": "0130069",
    "prefecture": "秋田県",
    "prefecture_kana": "アキタケン",
    "prefecture_code": 5,
    "city": "横手市",
    "city_kana": "ヨコテシ",
    "town": "三枚橋",
    "town_kana": "サンマイバシ",
    "street": null,
    "office_name": null,
    "office_name_kana": null
  },
  "0071": {
    "postcode": "0130071",
    "prefecture": "秋田県",
    "prefecture_kana": "アキタケン",
    "prefecture_code": 5,
    "city": "横手市",
    "city_kana": "ヨコテシ",
    "town": "八幡",
    "town_kana": "ヤワタ",
    "street": null,
    "office_name": null,
    "office_name_kana": null
  },
  "0072": {
    "postcode": "0130072",
    "prefecture": "秋田県",
    "prefecture_kana": "アキタケン",
    "prefecture_code": 5,
    "city": "横手市",
    "city_kana": "ヨコテシ",
    "town": "卸町",
    "town_kana": "オロシマチ",
    "street": null,
    "office_name": null,
    "office_name_kana": null
  },
  "0073": {
    "postcode": "0130073",
    "prefecture": "秋田県",
    "prefecture_kana": "アキタケン",
    "prefecture_code": 5,
    "city": "横手市",
    "city_kana": "ヨコテシ",
    "town": "赤川",
    "town_kana": "アカガワ",
    "street": null,
    "office_name": null,
    "office_name_kana": null
  },
  "0074": {
    "postcode": "0130074",
    "prefecture": "秋田県",
    "prefecture_kana": "アキタケン",
    "prefecture_code": 5,
    "city": "横手市",
    "city_kana": "ヨコテシ",
    "town": "三本柳",
    "town_kana": "サンボンヤナギ",
    "street": null,
    "office_name": null,
    "office_name_kana": null
  },
  "0075": {
    "postcode": "0130075",
    "prefecture": "秋田県",
    "prefecture_kana": "アキタケン",
    "prefecture_code": 5,
    "city": "横手市",
    "city_kana": "ヨコテシ",
    "town": "静町",
    "town_kana": "シズカマチ",
    "street": null,
    "office_name": null,
    "office_name_kana": null
  },
  "0076": {
    "postcode": "0130076",
    "prefecture": "秋田県",
    "prefecture_kana": "アキタケン",
    "prefecture_code": 5,
    "city": "横手市",
    "city_kana": "ヨコテシ",
    "town": "杉目",
    "town_kana": "スギメ",
    "street": null,
    "office_name": null,
    "office_name_kana": null
  },
  "0101": {
    "postcode": "0130101",
    "prefecture": "秋田県",
    "prefecture_kana": "アキタケン",
    "prefecture_code": 5,
    "city": "横手市",
    "city_kana": "ヨコテシ",
    "town": "平鹿町上吉田",
    "town_kana": "ヒラカマチカミヨシダ",
    "street": null,
    "office_name": null,
    "office_name_kana": null
  },
  "0102": {
    "postcode": "0130102",
    "prefecture": "秋田県",
    "prefecture_kana": "アキタケン",
    "prefecture_code": 5,
    "city": "横手市",
    "city_kana": "ヨコテシ",
    "town": "平鹿町醍醐",
    "town_kana": "ヒラカマチダイゴ",
    "street": null,
    "office_name": null,
    "office_name_kana": null
  },
  "0103": {
    "postcode": "0130103",
    "prefecture": "秋田県",
    "prefecture_kana": "アキタケン",
    "prefecture_code": 5,
    "city": "横手市",
    "city_kana": "ヨコテシ",
    "town": "平鹿町下鍋倉",
    "town_kana": "ヒラカマチシモナベクラ",
    "street": null,
    "office_name": null,
    "office_name_kana": null
  },
  "0104": {
    "postcode": "0130104",
    "prefecture": "秋田県",
    "prefecture_kana": "アキタケン",
    "prefecture_code": 5,
    "city": "横手市",
    "city_kana": "ヨコテシ",
    "town": "平鹿町樽見内",
    "town_kana": "ヒラカマチタルミナイ",
    "street": null,
    "office_name": null,
    "office_name_kana": null
  },
  "0105": {
    "postcode": "0130105",
    "prefecture": "秋田県",
    "prefecture_kana": "アキタケン",
    "prefecture_code": 5,
    "city": "横手市",
    "city_kana": "ヨコテシ",
    "town": "平鹿町浅舞",
    "town_kana": "ヒラカマチアサマイ",
    "street": null,
    "office_name": null,
    "office_name_kana": null
  },
  "0106": {
    "postcode": "0130106",
    "prefecture": "秋田県",
    "prefecture_kana": "アキタケン",
    "prefecture_code": 5,
    "city": "横手市",
    "city_kana": "ヨコテシ",
    "town": "平鹿町中吉田",
    "town_kana": "ヒラカマチナカヨシダ",
    "street": null,
    "office_name": null,
    "office_name_kana": null
  },
  "0107": {
    "postcode": "0130107",
    "prefecture": "秋田県",
    "prefecture_kana": "アキタケン",
    "prefecture_code": 5,
    "city": "横手市",
    "city_kana": "ヨコテシ",
    "town": "平鹿町下吉田",
    "town_kana": "ヒラカマチシモヨシダ",
    "street": null,
    "office_name": null,
    "office_name_kana": null
  },
  "0201": {
    "postcode": "0130201",
    "prefecture": "秋田県",
    "prefecture_kana": "アキタケン",
    "prefecture_code": 5,
    "city": "横手市",
    "city_kana": "ヨコテシ",
    "town": "雄物川町会塚",
    "town_kana": "オモノガワマチアイヅカ",
    "street": null,
    "office_name": null,
    "office_name_kana": null
  },
  "0202": {
    "postcode": "0130202",
    "prefecture": "秋田県",
    "prefecture_kana": "アキタケン",
    "prefecture_code": 5,
    "city": "横手市",
    "city_kana": "ヨコテシ",
    "town": "雄物川町砂子田",
    "town_kana": "オモノガワマチスナゴタ",
    "street": null,
    "office_name": null,
    "office_name_kana": null
  },
  "0203": {
    "postcode": "0130203",
    "prefecture": "秋田県",
    "prefecture_kana": "アキタケン",
    "prefecture_code": 5,
    "city": "横手市",
    "city_kana": "ヨコテシ",
    "town": "雄物川町東里",
    "town_kana": "オモノガワマチトウサト",
    "street": null,
    "office_name": null,
    "office_name_kana": null
  },
  "0204": {
    "postcode": "0130204",
    "prefecture": "秋田県",
    "prefecture_kana": "アキタケン",
    "prefecture_code": 5,
    "city": "横手市",
    "city_kana": "ヨコテシ",
    "town": "雄物川町谷地新田",
    "town_kana": "オモノガワマチヤチシンデン",
    "street": null,
    "office_name": null,
    "office_name_kana": null
  },
  "0205": {
    "postcode": "0130205",
    "prefecture": "秋田県",
    "prefecture_kana": "アキタケン",
    "prefecture_code": 5,
    "city": "横手市",
    "city_kana": "ヨコテシ",
    "town": "雄物川町今宿",
    "town_kana": "オモノガワマチイマシュク",
    "street": null,
    "office_name": null,
    "office_name_kana": null
  },
  "0206": {
    "postcode": "0130206",
    "prefecture": "秋田県",
    "prefecture_kana": "アキタケン",
    "prefecture_code": 5,
    "city": "横手市",
    "city_kana": "ヨコテシ",
    "town": "雄物川町二井山",
    "town_kana": "オモノガワマチニイヤマ",
    "street": null,
    "office_name": null,
    "office_name_kana": null
  },
  "0207": {
    "postcode": "0130207",
    "prefecture": "秋田県",
    "prefecture_kana": "アキタケン",
    "prefecture_code": 5,
    "city": "横手市",
    "city_kana": "ヨコテシ",
    "town": "雄物川町矢神",
    "town_kana": "オモノガワマチヤガミ",
    "street": null,
    "office_name": null,
    "office_name_kana": null
  },
  "0208": {
    "postcode": "0130208",
    "prefecture": "秋田県",
    "prefecture_kana": "アキタケン",
    "prefecture_code": 5,
    "city": "横手市",
    "city_kana": "ヨコテシ",
    "town": "雄物川町沼館",
    "town_kana": "オモノガワマチヌマダテ",
    "street": null,
    "office_name": null,
    "office_name_kana": null
  },
  "0211": {
    "postcode": "0130211",
    "prefecture": "秋田県",
    "prefecture_kana": "アキタケン",
    "prefecture_code": 5,
    "city": "横手市",
    "city_kana": "ヨコテシ",
    "town": "雄物川町深井",
    "town_kana": "オモノガワマチフカイ",
    "street": null,
    "office_name": null,
    "office_name_kana": null
  },
  "0212": {
    "postcode": "0130212",
    "prefecture": "秋田県",
    "prefecture_kana": "アキタケン",
    "prefecture_code": 5,
    "city": "横手市",
    "city_kana": "ヨコテシ",
    "town": "雄物川町造山",
    "town_kana": "オモノガワマチツクリヤマ",
    "street": null,
    "office_name": null,
    "office_name_kana": null
  },
  "0213": {
    "postcode": "0130213",
    "prefecture": "秋田県",
    "prefecture_kana": "アキタケン",
    "prefecture_code": 5,
    "city": "横手市",
    "city_kana": "ヨコテシ",
    "town": "雄物川町南形",
    "town_kana": "オモノガワマチナンカタ",
    "street": null,
    "office_name": null,
    "office_name_kana": null
  },
  "0214": {
    "postcode": "0130214",
    "prefecture": "秋田県",
    "prefecture_kana": "アキタケン",
    "prefecture_code": 5,
    "city": "横手市",
    "city_kana": "ヨコテシ",
    "town": "雄物川町柏木",
    "town_kana": "オモノガワマチカシワギ",
    "street": null,
    "office_name": null,
    "office_name_kana": null
  },
  "0215": {
    "postcode": "0130215",
    "prefecture": "秋田県",
    "prefecture_kana": "アキタケン",
    "prefecture_code": 5,
    "city": "横手市",
    "city_kana": "ヨコテシ",
    "town": "雄物川町常野",
    "town_kana": "オモノガワマチジョウノ",
    "street": null,
    "office_name": null,
    "office_name_kana": null
  },
  "0216": {
    "postcode": "0130216",
    "prefecture": "秋田県",
    "prefecture_kana": "アキタケン",
    "prefecture_code": 5,
    "city": "横手市",
    "city_kana": "ヨコテシ",
    "town": "雄物川町西野",
    "town_kana": "オモノガワマチニシノ",
    "street": null,
    "office_name": null,
    "office_name_kana": null
  },
  "0217": {
    "postcode": "0130217",
    "prefecture": "秋田県",
    "prefecture_kana": "アキタケン",
    "prefecture_code": 5,
    "city": "横手市",
    "city_kana": "ヨコテシ",
    "town": "雄物川町道地",
    "town_kana": "オモノガワマチドウジ",
    "street": null,
    "office_name": null,
    "office_name_kana": null
  },
  "0218": {
    "postcode": "0130218",
    "prefecture": "秋田県",
    "prefecture_kana": "アキタケン",
    "prefecture_code": 5,
    "city": "横手市",
    "city_kana": "ヨコテシ",
    "town": "雄物川町大沢",
    "town_kana": "オモノガワマチオオサワ",
    "street": null,
    "office_name": null,
    "office_name_kana": null
  },
  "0301": {
    "postcode": "0130301",
    "prefecture": "秋田県",
    "prefecture_kana": "アキタケン",
    "prefecture_code": 5,
    "city": "横手市",
    "city_kana": "ヨコテシ",
    "town": "大雄福島",
    "town_kana": "タイユウフクジマ",
    "street": null,
    "office_name": null,
    "office_name_kana": null
  },
  "0302": {
    "postcode": "0130302",
    "prefecture": "秋田県",
    "prefecture_kana": "アキタケン",
    "prefecture_code": 5,
    "city": "横手市",
    "city_kana": "ヨコテシ",
    "town": "大雄新町北",
    "town_kana": "タイユウシンマチキタ",
    "street": null,
    "office_name": null,
    "office_name_kana": null
  },
  "0303": {
    "postcode": "0130303",
    "prefecture": "秋田県",
    "prefecture_kana": "アキタケン",
    "prefecture_code": 5,
    "city": "横手市",
    "city_kana": "ヨコテシ",
    "town": "大雄福島南",
    "town_kana": "タイユウフクジマミナミ",
    "street": null,
    "office_name": null,
    "office_name_kana": null
  },
  "0304": {
    "postcode": "0130304",
    "prefecture": "秋田県",
    "prefecture_kana": "アキタケン",
    "prefecture_code": 5,
    "city": "横手市",
    "city_kana": "ヨコテシ",
    "town": "大雄新町南",
    "town_kana": "タイユウシンマチミナミ",
    "street": null,
    "office_name": null,
    "office_name_kana": null
  },
  "0305": {
    "postcode": "0130305",
    "prefecture": "秋田県",
    "prefecture_kana": "アキタケン",
    "prefecture_code": 5,
    "city": "横手市",
    "city_kana": "ヨコテシ",
    "town": "大雄柏木南",
    "town_kana": "タイユウカシワギミナミ",
    "street": null,
    "office_name": null,
    "office_name_kana": null
  },
  "0306": {
    "postcode": "0130306",
    "prefecture": "秋田県",
    "prefecture_kana": "アキタケン",
    "prefecture_code": 5,
    "city": "横手市",
    "city_kana": "ヨコテシ",
    "town": "大雄田村",
    "town_kana": "タイユウタムラ",
    "street": null,
    "office_name": null,
    "office_name_kana": null
  },
  "0307": {
    "postcode": "0130307",
    "prefecture": "秋田県",
    "prefecture_kana": "アキタケン",
    "prefecture_code": 5,
    "city": "横手市",
    "city_kana": "ヨコテシ",
    "town": "大雄新町東",
    "town_kana": "タイユウシンマチヒガシ",
    "street": null,
    "office_name": null,
    "office_name_kana": null
  },
  "0308": {
    "postcode": "0130308",
    "prefecture": "秋田県",
    "prefecture_kana": "アキタケン",
    "prefecture_code": 5,
    "city": "横手市",
    "city_kana": "ヨコテシ",
    "town": "大雄佐加里",
    "town_kana": "タイユウサガリ",
    "street": null,
    "office_name": null,
    "office_name_kana": null
  },
  "0309": {
    "postcode": "0130309",
    "prefecture": "秋田県",
    "prefecture_kana": "アキタケン",
    "prefecture_code": 5,
    "city": "横手市",
    "city_kana": "ヨコテシ",
    "town": "大雄佐加里南",
    "town_kana": "タイユウサガリミナミ",
    "street": null,
    "office_name": null,
    "office_name_kana": null
  },
  "0311": {
    "postcode": "0130311",
    "prefecture": "秋田県",
    "prefecture_kana": "アキタケン",
    "prefecture_code": 5,
    "city": "横手市",
    "city_kana": "ヨコテシ",
    "town": "大雄中野東",
    "town_kana": "タイユウナカノヒガシ",
    "street": null,
    "office_name": null,
    "office_name_kana": null
  },
  "0312": {
    "postcode": "0130312",
    "prefecture": "秋田県",
    "prefecture_kana": "アキタケン",
    "prefecture_code": 5,
    "city": "横手市",
    "city_kana": "ヨコテシ",
    "town": "大雄中野",
    "town_kana": "タイユウナカノ",
    "street": null,
    "office_name": null,
    "office_name_kana": null
  },
  "0313": {
    "postcode": "0130313",
    "prefecture": "秋田県",
    "prefecture_kana": "アキタケン",
    "prefecture_code": 5,
    "city": "横手市",
    "city_kana": "ヨコテシ",
    "town": "大雄大森道北",
    "town_kana": "タイユウオオモリミチキタ",
    "street": null,
    "office_name": null,
    "office_name_kana": null
  },
  "0314": {
    "postcode": "0130314",
    "prefecture": "秋田県",
    "prefecture_kana": "アキタケン",
    "prefecture_code": 5,
    "city": "横手市",
    "city_kana": "ヨコテシ",
    "town": "大雄傾城塚",
    "town_kana": "タイユウケイセイヅカ",
    "street": null,
    "office_name": null,
    "office_name_kana": null
  },
  "0315": {
    "postcode": "0130315",
    "prefecture": "秋田県",
    "prefecture_kana": "アキタケン",
    "prefecture_code": 5,
    "city": "横手市",
    "city_kana": "ヨコテシ",
    "town": "大雄下根田谷地",
    "town_kana": "タイユウシタコンダヤチ",
    "street": null,
    "office_name": null,
    "office_name_kana": null
  },
  "0316": {
    "postcode": "0130316",
    "prefecture": "秋田県",
    "prefecture_kana": "アキタケン",
    "prefecture_code": 5,
    "city": "横手市",
    "city_kana": "ヨコテシ",
    "town": "大雄潤井谷地",
    "town_kana": "タイユウウルイヤチ",
    "street": null,
    "office_name": null,
    "office_name_kana": null
  },
  "0317": {
    "postcode": "0130317",
    "prefecture": "秋田県",
    "prefecture_kana": "アキタケン",
    "prefecture_code": 5,
    "city": "横手市",
    "city_kana": "ヨコテシ",
    "town": "大雄大戸川端",
    "town_kana": "タイユウオオドカワバタ",
    "street": null,
    "office_name": null,
    "office_name_kana": null
  },
  "0318": {
    "postcode": "0130318",
    "prefecture": "秋田県",
    "prefecture_kana": "アキタケン",
    "prefecture_code": 5,
    "city": "横手市",
    "city_kana": "ヨコテシ",
    "town": "大雄根田谷地南",
    "town_kana": "タイユウコンダヤチミナミ",
    "street": null,
    "office_name": null,
    "office_name_kana": null
  },
  "0319": {
    "postcode": "0130319",
    "prefecture": "秋田県",
    "prefecture_kana": "アキタケン",
    "prefecture_code": 5,
    "city": "横手市",
    "city_kana": "ヨコテシ",
    "town": "大雄四ツ屋東",
    "town_kana": "タイユウヨツヤヒガシ",
    "street": null,
    "office_name": null,
    "office_name_kana": null
  },
  "0321": {
    "postcode": "0130321",
    "prefecture": "秋田県",
    "prefecture_kana": "アキタケン",
    "prefecture_code": 5,
    "city": "横手市",
    "city_kana": "ヨコテシ",
    "town": "大雄根田谷地西",
    "town_kana": "タイユウコンダヤチニシ",
    "street": null,
    "office_name": null,
    "office_name_kana": null
  },
  "0322": {
    "postcode": "0130322",
    "prefecture": "秋田県",
    "prefecture_kana": "アキタケン",
    "prefecture_code": 5,
    "city": "横手市",
    "city_kana": "ヨコテシ",
    "town": "大雄伝蔵村",
    "town_kana": "タイユウデンゾウムラ",
    "street": null,
    "office_name": null,
    "office_name_kana": null
  },
  "0323": {
    "postcode": "0130323",
    "prefecture": "秋田県",
    "prefecture_kana": "アキタケン",
    "prefecture_code": 5,
    "city": "横手市",
    "city_kana": "ヨコテシ",
    "town": "大雄根田谷地東",
    "town_kana": "タイユウコンダヤチヒガシ",
    "street": null,
    "office_name": null,
    "office_name_kana": null
  },
  "0324": {
    "postcode": "0130324",
    "prefecture": "秋田県",
    "prefecture_kana": "アキタケン",
    "prefecture_code": 5,
    "city": "横手市",
    "city_kana": "ヨコテシ",
    "town": "大雄根田谷地",
    "town_kana": "タイユウコンダヤチ",
    "street": null,
    "office_name": null,
    "office_name_kana": null
  },
  "0325": {
    "postcode": "0130325",
    "prefecture": "秋田県",
    "prefecture_kana": "アキタケン",
    "prefecture_code": 5,
    "city": "横手市",
    "city_kana": "ヨコテシ",
    "town": "大雄田根森東",
    "town_kana": "タイユウタネモリヒガシ",
    "street": null,
    "office_name": null,
    "office_name_kana": null
  },
  "0326": {
    "postcode": "0130326",
    "prefecture": "秋田県",
    "prefecture_kana": "アキタケン",
    "prefecture_code": 5,
    "city": "横手市",
    "city_kana": "ヨコテシ",
    "town": "大雄上田村東",
    "town_kana": "タイユウカミタムラヒガシ",
    "street": null,
    "office_name": null,
    "office_name_kana": null
  },
  "0327": {
    "postcode": "0130327",
    "prefecture": "秋田県",
    "prefecture_kana": "アキタケン",
    "prefecture_code": 5,
    "city": "横手市",
    "city_kana": "ヨコテシ",
    "town": "大雄焼野",
    "town_kana": "タイユウヤケノ",
    "street": null,
    "office_name": null,
    "office_name_kana": null
  },
  "0331": {
    "postcode": "0130331",
    "prefecture": "秋田県",
    "prefecture_kana": "アキタケン",
    "prefecture_code": 5,
    "city": "横手市",
    "city_kana": "ヨコテシ",
    "town": "大雄東高津野",
    "town_kana": "タイユウヒガシタカヅノ",
    "street": null,
    "office_name": null,
    "office_name_kana": null
  },
  "0332": {
    "postcode": "0130332",
    "prefecture": "秋田県",
    "prefecture_kana": "アキタケン",
    "prefecture_code": 5,
    "city": "横手市",
    "city_kana": "ヨコテシ",
    "town": "大雄新町西野添",
    "town_kana": "タイユウシンマチニシノゾイ",
    "street": null,
    "office_name": null,
    "office_name_kana": null
  },
  "0333": {
    "postcode": "0130333",
    "prefecture": "秋田県",
    "prefecture_kana": "アキタケン",
    "prefecture_code": 5,
    "city": "横手市",
    "city_kana": "ヨコテシ",
    "town": "大雄新町西",
    "town_kana": "タイユウシンマチニシ",
    "street": null,
    "office_name": null,
    "office_name_kana": null
  },
  "0334": {
    "postcode": "0130334",
    "prefecture": "秋田県",
    "prefecture_kana": "アキタケン",
    "prefecture_code": 5,
    "city": "横手市",
    "city_kana": "ヨコテシ",
    "town": "大雄新町",
    "town_kana": "タイユウシンマチ",
    "street": null,
    "office_name": null,
    "office_name_kana": null
  },
  "0335": {
    "postcode": "0130335",
    "prefecture": "秋田県",
    "prefecture_kana": "アキタケン",
    "prefecture_code": 5,
    "city": "横手市",
    "city_kana": "ヨコテシ",
    "town": "大雄折橋",
    "town_kana": "タイユウオリハシ",
    "street": null,
    "office_name": null,
    "office_name_kana": null
  },
  "0336": {
    "postcode": "0130336",
    "prefecture": "秋田県",
    "prefecture_kana": "アキタケン",
    "prefecture_code": 5,
    "city": "横手市",
    "city_kana": "ヨコテシ",
    "town": "大雄傾城塚南",
    "town_kana": "タイユウケイセイヅカミナミ",
    "street": null,
    "office_name": null,
    "office_name_kana": null
  },
  "0337": {
    "postcode": "0130337",
    "prefecture": "秋田県",
    "prefecture_kana": "アキタケン",
    "prefecture_code": 5,
    "city": "横手市",
    "city_kana": "ヨコテシ",
    "town": "大雄折橋南",
    "town_kana": "タイユウオリハシミナミ",
    "street": null,
    "office_name": null,
    "office_name_kana": null
  },
  "0338": {
    "postcode": "0130338",
    "prefecture": "秋田県",
    "prefecture_kana": "アキタケン",
    "prefecture_code": 5,
    "city": "横手市",
    "city_kana": "ヨコテシ",
    "town": "大雄耳取西",
    "town_kana": "タイユウミミドリニシ",
    "street": null,
    "office_name": null,
    "office_name_kana": null
  },
  "0339": {
    "postcode": "0130339",
    "prefecture": "秋田県",
    "prefecture_kana": "アキタケン",
    "prefecture_code": 5,
    "city": "横手市",
    "city_kana": "ヨコテシ",
    "town": "大雄耳取",
    "town_kana": "タイユウミミドリ",
    "street": null,
    "office_name": null,
    "office_name_kana": null
  },
  "0341": {
    "postcode": "0130341",
    "prefecture": "秋田県",
    "prefecture_kana": "アキタケン",
    "prefecture_code": 5,
    "city": "横手市",
    "city_kana": "ヨコテシ",
    "town": "大雄四ッ屋",
    "town_kana": "タイユウヨツヤ",
    "street": null,
    "office_name": null,
    "office_name_kana": null
  },
  "0342": {
    "postcode": "0130342",
    "prefecture": "秋田県",
    "prefecture_kana": "アキタケン",
    "prefecture_code": 5,
    "city": "横手市",
    "city_kana": "ヨコテシ",
    "town": "大雄精兵村",
    "town_kana": "タイユウセイベイムラ",
    "street": null,
    "office_name": null,
    "office_name_kana": null
  },
  "0343": {
    "postcode": "0130343",
    "prefecture": "秋田県",
    "prefecture_kana": "アキタケン",
    "prefecture_code": 5,
    "city": "横手市",
    "city_kana": "ヨコテシ",
    "town": "大雄田根森西",
    "town_kana": "タイユウタネモリニシ",
    "street": null,
    "office_name": null,
    "office_name_kana": null
  },
  "0344": {
    "postcode": "0130344",
    "prefecture": "秋田県",
    "prefecture_kana": "アキタケン",
    "prefecture_code": 5,
    "city": "横手市",
    "city_kana": "ヨコテシ",
    "town": "大雄精兵西",
    "town_kana": "タイユウセイベイニシ",
    "street": null,
    "office_name": null,
    "office_name_kana": null
  },
  "0345": {
    "postcode": "0130345",
    "prefecture": "秋田県",
    "prefecture_kana": "アキタケン",
    "prefecture_code": 5,
    "city": "横手市",
    "city_kana": "ヨコテシ",
    "town": "大雄本庄道北堰間",
    "town_kana": "タイユウホンジョウミチキタセキマ",
    "street": null,
    "office_name": null,
    "office_name_kana": null
  },
  "0346": {
    "postcode": "0130346",
    "prefecture": "秋田県",
    "prefecture_kana": "アキタケン",
    "prefecture_code": 5,
    "city": "横手市",
    "city_kana": "ヨコテシ",
    "town": "大雄四ツ屋西",
    "town_kana": "タイユウヨツヤニシ",
    "street": null,
    "office_name": null,
    "office_name_kana": null
  },
  "0347": {
    "postcode": "0130347",
    "prefecture": "秋田県",
    "prefecture_kana": "アキタケン",
    "prefecture_code": 5,
    "city": "横手市",
    "city_kana": "ヨコテシ",
    "town": "大雄本庄道南",
    "town_kana": "タイユウホンジョウミチミナミ",
    "street": null,
    "office_name": null,
    "office_name_kana": null
  },
  "0348": {
    "postcode": "0130348",
    "prefecture": "秋田県",
    "prefecture_kana": "アキタケン",
    "prefecture_code": 5,
    "city": "横手市",
    "city_kana": "ヨコテシ",
    "town": "大雄田根森",
    "town_kana": "タイユウタネモリ",
    "street": null,
    "office_name": null,
    "office_name_kana": null
  },
  "0349": {
    "postcode": "0130349",
    "prefecture": "秋田県",
    "prefecture_kana": "アキタケン",
    "prefecture_code": 5,
    "city": "横手市",
    "city_kana": "ヨコテシ",
    "town": "大雄上田村西",
    "town_kana": "タイユウカミタムラニシ",
    "street": null,
    "office_name": null,
    "office_name_kana": null
  },
  "0351": {
    "postcode": "0130351",
    "prefecture": "秋田県",
    "prefecture_kana": "アキタケン",
    "prefecture_code": 5,
    "city": "横手市",
    "city_kana": "ヨコテシ",
    "town": "大雄上田村",
    "town_kana": "タイユウカミタムラ",
    "street": null,
    "office_name": null,
    "office_name_kana": null
  },
  "0352": {
    "postcode": "0130352",
    "prefecture": "秋田県",
    "prefecture_kana": "アキタケン",
    "prefecture_code": 5,
    "city": "横手市",
    "city_kana": "ヨコテシ",
    "town": "大雄一ノ関東",
    "town_kana": "タイユウイチノセキヒガシ",
    "street": null,
    "office_name": null,
    "office_name_kana": null
  },
  "0353": {
    "postcode": "0130353",
    "prefecture": "秋田県",
    "prefecture_kana": "アキタケン",
    "prefecture_code": 5,
    "city": "横手市",
    "city_kana": "ヨコテシ",
    "town": "大雄一ノ関",
    "town_kana": "タイユウイチノセキ",
    "street": null,
    "office_name": null,
    "office_name_kana": null
  },
  "0354": {
    "postcode": "0130354",
    "prefecture": "秋田県",
    "prefecture_kana": "アキタケン",
    "prefecture_code": 5,
    "city": "横手市",
    "city_kana": "ヨコテシ",
    "town": "大雄狐塚",
    "town_kana": "タイユウキツネヅカ",
    "street": null,
    "office_name": null,
    "office_name_kana": null
  },
  "0355": {
    "postcode": "0130355",
    "prefecture": "秋田県",
    "prefecture_kana": "アキタケン",
    "prefecture_code": 5,
    "city": "横手市",
    "city_kana": "ヨコテシ",
    "town": "大雄上桜森",
    "town_kana": "タイユウカミサクラモリ",
    "street": null,
    "office_name": null,
    "office_name_kana": null
  },
  "0356": {
    "postcode": "0130356",
    "prefecture": "秋田県",
    "prefecture_kana": "アキタケン",
    "prefecture_code": 5,
    "city": "横手市",
    "city_kana": "ヨコテシ",
    "town": "大雄一ノ関南",
    "town_kana": "タイユウイチノセキミナミ",
    "street": null,
    "office_name": null,
    "office_name_kana": null
  },
  "0357": {
    "postcode": "0130357",
    "prefecture": "秋田県",
    "prefecture_kana": "アキタケン",
    "prefecture_code": 5,
    "city": "横手市",
    "city_kana": "ヨコテシ",
    "town": "大雄向東",
    "town_kana": "タイユウムカイヒガシ",
    "street": null,
    "office_name": null,
    "office_name_kana": null
  },
  "0358": {
    "postcode": "0130358",
    "prefecture": "秋田県",
    "prefecture_kana": "アキタケン",
    "prefecture_code": 5,
    "city": "横手市",
    "city_kana": "ヨコテシ",
    "town": "大雄向",
    "town_kana": "タイユウムカイ",
    "street": null,
    "office_name": null,
    "office_name_kana": null
  },
  "0359": {
    "postcode": "0130359",
    "prefecture": "秋田県",
    "prefecture_kana": "アキタケン",
    "prefecture_code": 5,
    "city": "横手市",
    "city_kana": "ヨコテシ",
    "town": "大雄柏木",
    "town_kana": "タイユウカシワギ",
    "street": null,
    "office_name": null,
    "office_name_kana": null
  },
  "0361": {
    "postcode": "0130361",
    "prefecture": "秋田県",
    "prefecture_kana": "アキタケン",
    "prefecture_code": 5,
    "city": "横手市",
    "city_kana": "ヨコテシ",
    "town": "大雄柏木西",
    "town_kana": "タイユウカシワギニシ",
    "street": null,
    "office_name": null,
    "office_name_kana": null
  },
  "0362": {
    "postcode": "0130362",
    "prefecture": "秋田県",
    "prefecture_kana": "アキタケン",
    "prefecture_code": 5,
    "city": "横手市",
    "city_kana": "ヨコテシ",
    "town": "大雄柏木下",
    "town_kana": "タイユウカシワギシタ",
    "street": null,
    "office_name": null,
    "office_name_kana": null
  },
  "0363": {
    "postcode": "0130363",
    "prefecture": "秋田県",
    "prefecture_kana": "アキタケン",
    "prefecture_code": 5,
    "city": "横手市",
    "city_kana": "ヨコテシ",
    "town": "大雄桜森西",
    "town_kana": "タイユウサクラモリニシ",
    "street": null,
    "office_name": null,
    "office_name_kana": null
  },
  "0364": {
    "postcode": "0130364",
    "prefecture": "秋田県",
    "prefecture_kana": "アキタケン",
    "prefecture_code": 5,
    "city": "横手市",
    "city_kana": "ヨコテシ",
    "town": "大雄袋谷地",
    "town_kana": "タイユウフクロヤチ",
    "street": null,
    "office_name": null,
    "office_name_kana": null
  },
  "0365": {
    "postcode": "0130365",
    "prefecture": "秋田県",
    "prefecture_kana": "アキタケン",
    "prefecture_code": 5,
    "city": "横手市",
    "city_kana": "ヨコテシ",
    "town": "大雄鍛治村",
    "town_kana": "タイユウカジムラ",
    "street": null,
    "office_name": null,
    "office_name_kana": null
  },
  "0371": {
    "postcode": "0130371",
    "prefecture": "秋田県",
    "prefecture_kana": "アキタケン",
    "prefecture_code": 5,
    "city": "横手市",
    "city_kana": "ヨコテシ",
    "town": "大雄文蔵開",
    "town_kana": "タイユウブンゾウビラキ",
    "street": null,
    "office_name": null,
    "office_name_kana": null
  },
  "0372": {
    "postcode": "0130372",
    "prefecture": "秋田県",
    "prefecture_kana": "アキタケン",
    "prefecture_code": 5,
    "city": "横手市",
    "city_kana": "ヨコテシ",
    "town": "大雄上田村南",
    "town_kana": "タイユウカミタムラミナミ",
    "street": null,
    "office_name": null,
    "office_name_kana": null
  },
  "0373": {
    "postcode": "0130373",
    "prefecture": "秋田県",
    "prefecture_kana": "アキタケン",
    "prefecture_code": 5,
    "city": "横手市",
    "city_kana": "ヨコテシ",
    "town": "大雄八柏谷地",
    "town_kana": "タイユウヤガシワヤチ",
    "street": null,
    "office_name": null,
    "office_name_kana": null
  },
  "0374": {
    "postcode": "0130374",
    "prefecture": "秋田県",
    "prefecture_kana": "アキタケン",
    "prefecture_code": 5,
    "city": "横手市",
    "city_kana": "ヨコテシ",
    "town": "大雄八柏中村東",
    "town_kana": "タイユウヤガシワナカムラヒガシ",
    "street": null,
    "office_name": null,
    "office_name_kana": null
  },
  "0375": {
    "postcode": "0130375",
    "prefecture": "秋田県",
    "prefecture_kana": "アキタケン",
    "prefecture_code": 5,
    "city": "横手市",
    "city_kana": "ヨコテシ",
    "town": "大雄八柏釜蓋",
    "town_kana": "タイユウヤガシワカマブタ",
    "street": null,
    "office_name": null,
    "office_name_kana": null
  },
  "0376": {
    "postcode": "0130376",
    "prefecture": "秋田県",
    "prefecture_kana": "アキタケン",
    "prefecture_code": 5,
    "city": "横手市",
    "city_kana": "ヨコテシ",
    "town": "大雄八柏馬道添",
    "town_kana": "タイユウヤガシワウマミチゾイ",
    "street": null,
    "office_name": null,
    "office_name_kana": null
  },
  "0377": {
    "postcode": "0130377",
    "prefecture": "秋田県",
    "prefecture_kana": "アキタケン",
    "prefecture_code": 5,
    "city": "横手市",
    "city_kana": "ヨコテシ",
    "town": "大雄八柏中村",
    "town_kana": "タイユウヤガシワナカムラ",
    "street": null,
    "office_name": null,
    "office_name_kana": null
  },
  "0378": {
    "postcode": "0130378",
    "prefecture": "秋田県",
    "prefecture_kana": "アキタケン",
    "prefecture_code": 5,
    "city": "横手市",
    "city_kana": "ヨコテシ",
    "town": "大雄八柏街道添",
    "town_kana": "タイユウヤガシワカイドウゾイ",
    "street": null,
    "office_name": null,
    "office_name_kana": null
  },
  "0379": {
    "postcode": "0130379",
    "prefecture": "秋田県",
    "prefecture_kana": "アキタケン",
    "prefecture_code": 5,
    "city": "横手市",
    "city_kana": "ヨコテシ",
    "town": "大雄八柏家間",
    "town_kana": "タイユウヤガシワイエマ",
    "street": null,
    "office_name": null,
    "office_name_kana": null
  },
  "0381": {
    "postcode": "0130381",
    "prefecture": "秋田県",
    "prefecture_kana": "アキタケン",
    "prefecture_code": 5,
    "city": "横手市",
    "city_kana": "ヨコテシ",
    "town": "大雄八柏下村",
    "town_kana": "タイユウヤガシワシモムラ",
    "street": null,
    "office_name": null,
    "office_name_kana": null
  },
  "0382": {
    "postcode": "0130382",
    "prefecture": "秋田県",
    "prefecture_kana": "アキタケン",
    "prefecture_code": 5,
    "city": "横手市",
    "city_kana": "ヨコテシ",
    "town": "大雄上堰東",
    "town_kana": "タイユウウワセキヒガシ",
    "street": null,
    "office_name": null,
    "office_name_kana": null
  },
  "0383": {
    "postcode": "0130383",
    "prefecture": "秋田県",
    "prefecture_kana": "アキタケン",
    "prefecture_code": 5,
    "city": "横手市",
    "city_kana": "ヨコテシ",
    "town": "大雄八柏村西",
    "town_kana": "タイユウヤガシワムラニシ",
    "street": null,
    "office_name": null,
    "office_name_kana": null
  },
  "0384": {
    "postcode": "0130384",
    "prefecture": "秋田県",
    "prefecture_kana": "アキタケン",
    "prefecture_code": 5,
    "city": "横手市",
    "city_kana": "ヨコテシ",
    "town": "大雄八柏村表",
    "town_kana": "タイユウヤガシワムラオモテ",
    "street": null,
    "office_name": null,
    "office_name_kana": null
  },
  "0385": {
    "postcode": "0130385",
    "prefecture": "秋田県",
    "prefecture_kana": "アキタケン",
    "prefecture_code": 5,
    "city": "横手市",
    "city_kana": "ヨコテシ",
    "town": "大雄万貝",
    "town_kana": "タイユウマンカイ",
    "street": null,
    "office_name": null,
    "office_name_kana": null
  },
  "0402": {
    "postcode": "0130402",
    "prefecture": "秋田県",
    "prefecture_kana": "アキタケン",
    "prefecture_code": 5,
    "city": "横手市",
    "city_kana": "ヨコテシ",
    "town": "大雄八柏",
    "town_kana": "タイユウヤガシワ",
    "street": null,
    "office_name": null,
    "office_name_kana": null
  },
  "0404": {
    "postcode": "0130404",
    "prefecture": "秋田県",
    "prefecture_kana": "アキタケン",
    "prefecture_code": 5,
    "city": "横手市",
    "city_kana": "ヨコテシ",
    "town": "大雄上柏木",
    "town_kana": "タイユウカミカシワギ",
    "street": null,
    "office_name": null,
    "office_name_kana": null
  },
  "0405": {
    "postcode": "0130405",
    "prefecture": "秋田県",
    "prefecture_kana": "アキタケン",
    "prefecture_code": 5,
    "city": "横手市",
    "city_kana": "ヨコテシ",
    "town": "大雄南四津屋",
    "town_kana": "タイユウミナミヨツヤ",
    "street": null,
    "office_name": null,
    "office_name_kana": null
  },
  "0406": {
    "postcode": "0130406",
    "prefecture": "秋田県",
    "prefecture_kana": "アキタケン",
    "prefecture_code": 5,
    "city": "横手市",
    "city_kana": "ヨコテシ",
    "town": "大雄西四津屋",
    "town_kana": "タイユウニシヨツヤ",
    "street": null,
    "office_name": null,
    "office_name_kana": null
  },
  "0407": {
    "postcode": "0130407",
    "prefecture": "秋田県",
    "prefecture_kana": "アキタケン",
    "prefecture_code": 5,
    "city": "横手市",
    "city_kana": "ヨコテシ",
    "town": "大雄四津屋下",
    "town_kana": "タイユウヨツヤシタ",
    "street": null,
    "office_name": null,
    "office_name_kana": null
  },
  "0408": {
    "postcode": "0130408",
    "prefecture": "秋田県",
    "prefecture_kana": "アキタケン",
    "prefecture_code": 5,
    "city": "横手市",
    "city_kana": "ヨコテシ",
    "town": "大雄北四津屋",
    "town_kana": "タイユウキタヨツヤ",
    "street": null,
    "office_name": null,
    "office_name_kana": null
  },
  "0409": {
    "postcode": "0130409",
    "prefecture": "秋田県",
    "prefecture_kana": "アキタケン",
    "prefecture_code": 5,
    "city": "横手市",
    "city_kana": "ヨコテシ",
    "town": "大雄東四津屋",
    "town_kana": "タイユウヒガシヨツヤ",
    "street": null,
    "office_name": null,
    "office_name_kana": null
  },
  "0411": {
    "postcode": "0130411",
    "prefecture": "秋田県",
    "prefecture_kana": "アキタケン",
    "prefecture_code": 5,
    "city": "横手市",
    "city_kana": "ヨコテシ",
    "town": "大雄剰水東",
    "town_kana": "タイユウセセナギヒガシ",
    "street": null,
    "office_name": null,
    "office_name_kana": null
  },
  "0412": {
    "postcode": "0130412",
    "prefecture": "秋田県",
    "prefecture_kana": "アキタケン",
    "prefecture_code": 5,
    "city": "横手市",
    "city_kana": "ヨコテシ",
    "town": "大雄剰水",
    "town_kana": "タイユウセセナギ",
    "street": null,
    "office_name": null,
    "office_name_kana": null
  },
  "0413": {
    "postcode": "0130413",
    "prefecture": "秋田県",
    "prefecture_kana": "アキタケン",
    "prefecture_code": 5,
    "city": "横手市",
    "city_kana": "ヨコテシ",
    "town": "大雄宮田",
    "town_kana": "タイユウミヤタ",
    "street": null,
    "office_name": null,
    "office_name_kana": null
  },
  "0414": {
    "postcode": "0130414",
    "prefecture": "秋田県",
    "prefecture_kana": "アキタケン",
    "prefecture_code": 5,
    "city": "横手市",
    "city_kana": "ヨコテシ",
    "town": "大雄藤巻",
    "town_kana": "タイユウフジマキ",
    "street": null,
    "office_name": null,
    "office_name_kana": null
  },
  "0415": {
    "postcode": "0130415",
    "prefecture": "秋田県",
    "prefecture_kana": "アキタケン",
    "prefecture_code": 5,
    "city": "横手市",
    "city_kana": "ヨコテシ",
    "town": "大雄藤巻西",
    "town_kana": "タイユウフジマキニシ",
    "street": null,
    "office_name": null,
    "office_name_kana": null
  },
  "0416": {
    "postcode": "0130416",
    "prefecture": "秋田県",
    "prefecture_kana": "アキタケン",
    "prefecture_code": 5,
    "city": "横手市",
    "city_kana": "ヨコテシ",
    "town": "大雄藤巻中島",
    "town_kana": "タイユウフジマキナカジマ",
    "street": null,
    "office_name": null,
    "office_name_kana": null
  },
  "0417": {
    "postcode": "0130417",
    "prefecture": "秋田県",
    "prefecture_kana": "アキタケン",
    "prefecture_code": 5,
    "city": "横手市",
    "city_kana": "ヨコテシ",
    "town": "大雄六町下",
    "town_kana": "タイユウロクチョウシタ",
    "street": null,
    "office_name": null,
    "office_name_kana": null
  },
  "0418": {
    "postcode": "0130418",
    "prefecture": "秋田県",
    "prefecture_kana": "アキタケン",
    "prefecture_code": 5,
    "city": "横手市",
    "city_kana": "ヨコテシ",
    "town": "大雄六町東",
    "town_kana": "タイユウロクチョウヒガシ",
    "street": null,
    "office_name": null,
    "office_name_kana": null
  },
  "0419": {
    "postcode": "0130419",
    "prefecture": "秋田県",
    "prefecture_kana": "アキタケン",
    "prefecture_code": 5,
    "city": "横手市",
    "city_kana": "ヨコテシ",
    "town": "大雄六町",
    "town_kana": "タイユウロクチョウ",
    "street": null,
    "office_name": null,
    "office_name_kana": null
  },
  "0421": {
    "postcode": "0130421",
    "prefecture": "秋田県",
    "prefecture_kana": "アキタケン",
    "prefecture_code": 5,
    "city": "横手市",
    "city_kana": "ヨコテシ",
    "town": "大雄江原",
    "town_kana": "タイユウエバラ",
    "street": null,
    "office_name": null,
    "office_name_kana": null
  },
  "0422": {
    "postcode": "0130422",
    "prefecture": "秋田県",
    "prefecture_kana": "アキタケン",
    "prefecture_code": 5,
    "city": "横手市",
    "city_kana": "ヨコテシ",
    "town": "大雄南阿気",
    "town_kana": "タイユウミナミアゲ",
    "street": null,
    "office_name": null,
    "office_name_kana": null
  },
  "0423": {
    "postcode": "0130423",
    "prefecture": "秋田県",
    "prefecture_kana": "アキタケン",
    "prefecture_code": 5,
    "city": "横手市",
    "city_kana": "ヨコテシ",
    "town": "大雄土井尻",
    "town_kana": "タイユウドイジリ",
    "street": null,
    "office_name": null,
    "office_name_kana": null
  },
  "0424": {
    "postcode": "0130424",
    "prefecture": "秋田県",
    "prefecture_kana": "アキタケン",
    "prefecture_code": 5,
    "city": "横手市",
    "city_kana": "ヨコテシ",
    "town": "大雄中館合",
    "town_kana": "タイユウナカタテアイ",
    "street": null,
    "office_name": null,
    "office_name_kana": null
  },
  "0425": {
    "postcode": "0130425",
    "prefecture": "秋田県",
    "prefecture_kana": "アキタケン",
    "prefecture_code": 5,
    "city": "横手市",
    "city_kana": "ヨコテシ",
    "town": "大雄西館合",
    "town_kana": "タイユウニシタテアイ",
    "street": null,
    "office_name": null,
    "office_name_kana": null
  },
  "0426": {
    "postcode": "0130426",
    "prefecture": "秋田県",
    "prefecture_kana": "アキタケン",
    "prefecture_code": 5,
    "city": "横手市",
    "city_kana": "ヨコテシ",
    "town": "大雄木戸口",
    "town_kana": "タイユウキドグチ",
    "street": null,
    "office_name": null,
    "office_name_kana": null
  },
  "0427": {
    "postcode": "0130427",
    "prefecture": "秋田県",
    "prefecture_kana": "アキタケン",
    "prefecture_code": 5,
    "city": "横手市",
    "city_kana": "ヨコテシ",
    "town": "大雄阿気",
    "town_kana": "タイユウアゲ",
    "street": null,
    "office_name": null,
    "office_name_kana": null
  },
  "0428": {
    "postcode": "0130428",
    "prefecture": "秋田県",
    "prefecture_kana": "アキタケン",
    "prefecture_code": 5,
    "city": "横手市",
    "city_kana": "ヨコテシ",
    "town": "大雄鶴巻田",
    "town_kana": "タイユウツルマキダ",
    "street": null,
    "office_name": null,
    "office_name_kana": null
  },
  "0429": {
    "postcode": "0130429",
    "prefecture": "秋田県",
    "prefecture_kana": "アキタケン",
    "prefecture_code": 5,
    "city": "横手市",
    "city_kana": "ヨコテシ",
    "town": "大雄宮小路",
    "town_kana": "タイユウミヤコウジ",
    "street": null,
    "office_name": null,
    "office_name_kana": null
  },
  "0431": {
    "postcode": "0130431",
    "prefecture": "秋田県",
    "prefecture_kana": "アキタケン",
    "prefecture_code": 5,
    "city": "横手市",
    "city_kana": "ヨコテシ",
    "town": "大雄牛中島",
    "town_kana": "タイユウウシナカジマ",
    "street": null,
    "office_name": null,
    "office_name_kana": null
  },
  "0432": {
    "postcode": "0130432",
    "prefecture": "秋田県",
    "prefecture_kana": "アキタケン",
    "prefecture_code": 5,
    "city": "横手市",
    "city_kana": "ヨコテシ",
    "town": "大雄東中島",
    "town_kana": "タイユウヒガシナカジマ",
    "street": null,
    "office_name": null,
    "office_name_kana": null
  },
  "0433": {
    "postcode": "0130433",
    "prefecture": "秋田県",
    "prefecture_kana": "アキタケン",
    "prefecture_code": 5,
    "city": "横手市",
    "city_kana": "ヨコテシ",
    "town": "大雄西中島",
    "town_kana": "タイユウニシナカジマ",
    "street": null,
    "office_name": null,
    "office_name_kana": null
  },
  "0434": {
    "postcode": "0130434",
    "prefecture": "秋田県",
    "prefecture_kana": "アキタケン",
    "prefecture_code": 5,
    "city": "横手市",
    "city_kana": "ヨコテシ",
    "town": "大雄山王",
    "town_kana": "タイユウサンノウ",
    "street": null,
    "office_name": null,
    "office_name_kana": null
  },
  "0435": {
    "postcode": "0130435",
    "prefecture": "秋田県",
    "prefecture_kana": "アキタケン",
    "prefecture_code": 5,
    "city": "横手市",
    "city_kana": "ヨコテシ",
    "town": "大雄木戸口西",
    "town_kana": "タイユウキドグチニシ",
    "street": null,
    "office_name": null,
    "office_name_kana": null
  },
  "0436": {
    "postcode": "0130436",
    "prefecture": "秋田県",
    "prefecture_kana": "アキタケン",
    "prefecture_code": 5,
    "city": "横手市",
    "city_kana": "ヨコテシ",
    "town": "大雄小林西",
    "town_kana": "タイユウコバヤシニシ",
    "street": null,
    "office_name": null,
    "office_name_kana": null
  },
  "0437": {
    "postcode": "0130437",
    "prefecture": "秋田県",
    "prefecture_kana": "アキタケン",
    "prefecture_code": 5,
    "city": "横手市",
    "city_kana": "ヨコテシ",
    "town": "大雄小林",
    "town_kana": "タイユウコバヤシ",
    "street": null,
    "office_name": null,
    "office_name_kana": null
  },
  "0438": {
    "postcode": "0130438",
    "prefecture": "秋田県",
    "prefecture_kana": "アキタケン",
    "prefecture_code": 5,
    "city": "横手市",
    "city_kana": "ヨコテシ",
    "town": "大雄木戸口下",
    "town_kana": "タイユウキドグチシタ",
    "street": null,
    "office_name": null,
    "office_name_kana": null
  },
  "0439": {
    "postcode": "0130439",
    "prefecture": "秋田県",
    "prefecture_kana": "アキタケン",
    "prefecture_code": 5,
    "city": "横手市",
    "city_kana": "ヨコテシ",
    "town": "大雄山王西",
    "town_kana": "タイユウサンノウニシ",
    "street": null,
    "office_name": null,
    "office_name_kana": null
  },
  "0441": {
    "postcode": "0130441",
    "prefecture": "秋田県",
    "prefecture_kana": "アキタケン",
    "prefecture_code": 5,
    "city": "横手市",
    "city_kana": "ヨコテシ",
    "town": "大雄野中",
    "town_kana": "タイユウノナカ",
    "street": null,
    "office_name": null,
    "office_name_kana": null
  },
  "0442": {
    "postcode": "0130442",
    "prefecture": "秋田県",
    "prefecture_kana": "アキタケン",
    "prefecture_code": 5,
    "city": "横手市",
    "city_kana": "ヨコテシ",
    "town": "大雄高津野下",
    "town_kana": "タイユウタカヅノシタ",
    "street": null,
    "office_name": null,
    "office_name_kana": null
  },
  "0443": {
    "postcode": "0130443",
    "prefecture": "秋田県",
    "prefecture_kana": "アキタケン",
    "prefecture_code": 5,
    "city": "横手市",
    "city_kana": "ヨコテシ",
    "town": "大雄高津野",
    "town_kana": "タイユウタカヅノ",
    "street": null,
    "office_name": null,
    "office_name_kana": null
  },
  "0444": {
    "postcode": "0130444",
    "prefecture": "秋田県",
    "prefecture_kana": "アキタケン",
    "prefecture_code": 5,
    "city": "横手市",
    "city_kana": "ヨコテシ",
    "town": "大雄向田東",
    "town_kana": "タイユウムカイダヒガシ",
    "street": null,
    "office_name": null,
    "office_name_kana": null
  },
  "0445": {
    "postcode": "0130445",
    "prefecture": "秋田県",
    "prefecture_kana": "アキタケン",
    "prefecture_code": 5,
    "city": "横手市",
    "city_kana": "ヨコテシ",
    "town": "大雄向田",
    "town_kana": "タイユウムカイダ",
    "street": null,
    "office_name": null,
    "office_name_kana": null
  },
  "0446": {
    "postcode": "0130446",
    "prefecture": "秋田県",
    "prefecture_kana": "アキタケン",
    "prefecture_code": 5,
    "city": "横手市",
    "city_kana": "ヨコテシ",
    "town": "大雄乗阿気",
    "town_kana": "タイユウノリアゲ",
    "street": null,
    "office_name": null,
    "office_name_kana": null
  },
  "0447": {
    "postcode": "0130447",
    "prefecture": "秋田県",
    "prefecture_kana": "アキタケン",
    "prefecture_code": 5,
    "city": "横手市",
    "city_kana": "ヨコテシ",
    "town": "大雄阿久戸",
    "town_kana": "タイユウアクド",
    "street": null,
    "office_name": null,
    "office_name_kana": null
  },
  "0448": {
    "postcode": "0130448",
    "prefecture": "秋田県",
    "prefecture_kana": "アキタケン",
    "prefecture_code": 5,
    "city": "横手市",
    "city_kana": "ヨコテシ",
    "town": "大雄乗阿気下",
    "town_kana": "タイユウノリアゲシタ",
    "street": null,
    "office_name": null,
    "office_name_kana": null
  },
  "0451": {
    "postcode": "0130451",
    "prefecture": "秋田県",
    "prefecture_kana": "アキタケン",
    "prefecture_code": 5,
    "city": "横手市",
    "city_kana": "ヨコテシ",
    "town": "大雄折橋西",
    "town_kana": "タイユウオリハシニシ",
    "street": null,
    "office_name": null,
    "office_name_kana": null
  },
  "0452": {
    "postcode": "0130452",
    "prefecture": "秋田県",
    "prefecture_kana": "アキタケン",
    "prefecture_code": 5,
    "city": "横手市",
    "city_kana": "ヨコテシ",
    "town": "大雄大関",
    "town_kana": "タイユウオオゼキ",
    "street": null,
    "office_name": null,
    "office_name_kana": null
  },
  "0453": {
    "postcode": "0130453",
    "prefecture": "秋田県",
    "prefecture_kana": "アキタケン",
    "prefecture_code": 5,
    "city": "横手市",
    "city_kana": "ヨコテシ",
    "town": "大雄三村北",
    "town_kana": "タイユウミムラキタ",
    "street": null,
    "office_name": null,
    "office_name_kana": null
  },
  "0454": {
    "postcode": "0130454",
    "prefecture": "秋田県",
    "prefecture_kana": "アキタケン",
    "prefecture_code": 5,
    "city": "横手市",
    "city_kana": "ヨコテシ",
    "town": "大雄大谷地",
    "town_kana": "タイユウオオヤチ",
    "street": null,
    "office_name": null,
    "office_name_kana": null
  },
  "0455": {
    "postcode": "0130455",
    "prefecture": "秋田県",
    "prefecture_kana": "アキタケン",
    "prefecture_code": 5,
    "city": "横手市",
    "city_kana": "ヨコテシ",
    "town": "大雄大谷地西",
    "town_kana": "タイユウオオヤチニシ",
    "street": null,
    "office_name": null,
    "office_name_kana": null
  },
  "0456": {
    "postcode": "0130456",
    "prefecture": "秋田県",
    "prefecture_kana": "アキタケン",
    "prefecture_code": 5,
    "city": "横手市",
    "city_kana": "ヨコテシ",
    "town": "大雄大慈寺前",
    "town_kana": "タイユウダイジジマエ",
    "street": null,
    "office_name": null,
    "office_name_kana": null
  },
  "0457": {
    "postcode": "0130457",
    "prefecture": "秋田県",
    "prefecture_kana": "アキタケン",
    "prefecture_code": 5,
    "city": "横手市",
    "city_kana": "ヨコテシ",
    "town": "大雄大慈寺東",
    "town_kana": "タイユウダイジジヒガシ",
    "street": null,
    "office_name": null,
    "office_name_kana": null
  },
  "0458": {
    "postcode": "0130458",
    "prefecture": "秋田県",
    "prefecture_kana": "アキタケン",
    "prefecture_code": 5,
    "city": "横手市",
    "city_kana": "ヨコテシ",
    "town": "大雄大慈寺谷地",
    "town_kana": "タイユウダイジジヤチ",
    "street": null,
    "office_name": null,
    "office_name_kana": null
  },
  "0459": {
    "postcode": "0130459",
    "prefecture": "秋田県",
    "prefecture_kana": "アキタケン",
    "prefecture_code": 5,
    "city": "横手市",
    "city_kana": "ヨコテシ",
    "town": "大雄赤沼",
    "town_kana": "タイユウアカヌマ",
    "street": null,
    "office_name": null,
    "office_name_kana": null
  },
  "0461": {
    "postcode": "0130461",
    "prefecture": "秋田県",
    "prefecture_kana": "アキタケン",
    "prefecture_code": 5,
    "city": "横手市",
    "city_kana": "ヨコテシ",
    "town": "大雄三村東",
    "town_kana": "タイユウミムラヒガシ",
    "street": null,
    "office_name": null,
    "office_name_kana": null
  },
  "0462": {
    "postcode": "0130462",
    "prefecture": "秋田県",
    "prefecture_kana": "アキタケン",
    "prefecture_code": 5,
    "city": "横手市",
    "city_kana": "ヨコテシ",
    "town": "大雄樋脇",
    "town_kana": "タイユウトヨワキ",
    "street": null,
    "office_name": null,
    "office_name_kana": null
  },
  "0463": {
    "postcode": "0130463",
    "prefecture": "秋田県",
    "prefecture_kana": "アキタケン",
    "prefecture_code": 5,
    "city": "横手市",
    "city_kana": "ヨコテシ",
    "town": "大雄石持前",
    "town_kana": "タイユウイシモチマエ",
    "street": null,
    "office_name": null,
    "office_name_kana": null
  },
  "0464": {
    "postcode": "0130464",
    "prefecture": "秋田県",
    "prefecture_kana": "アキタケン",
    "prefecture_code": 5,
    "city": "横手市",
    "city_kana": "ヨコテシ",
    "town": "大雄石持",
    "town_kana": "タイユウイシモチ",
    "street": null,
    "office_name": null,
    "office_name_kana": null
  },
  "0465": {
    "postcode": "0130465",
    "prefecture": "秋田県",
    "prefecture_kana": "アキタケン",
    "prefecture_code": 5,
    "city": "横手市",
    "city_kana": "ヨコテシ",
    "town": "大雄石持下",
    "town_kana": "タイユウイシモチシタ",
    "street": null,
    "office_name": null,
    "office_name_kana": null
  },
  "0466": {
    "postcode": "0130466",
    "prefecture": "秋田県",
    "prefecture_kana": "アキタケン",
    "prefecture_code": 5,
    "city": "横手市",
    "city_kana": "ヨコテシ",
    "town": "大雄三村",
    "town_kana": "タイユウミムラ",
    "street": null,
    "office_name": null,
    "office_name_kana": null
  },
  "0467": {
    "postcode": "0130467",
    "prefecture": "秋田県",
    "prefecture_kana": "アキタケン",
    "prefecture_code": 5,
    "city": "横手市",
    "city_kana": "ヨコテシ",
    "town": "大雄三村西",
    "town_kana": "タイユウミムラニシ",
    "street": null,
    "office_name": null,
    "office_name_kana": null
  },
  "0468": {
    "postcode": "0130468",
    "prefecture": "秋田県",
    "prefecture_kana": "アキタケン",
    "prefecture_code": 5,
    "city": "横手市",
    "city_kana": "ヨコテシ",
    "town": "大雄中谷地",
    "town_kana": "タイユウナカヤチ",
    "street": null,
    "office_name": null,
    "office_name_kana": null
  },
  "0471": {
    "postcode": "0130471",
    "prefecture": "秋田県",
    "prefecture_kana": "アキタケン",
    "prefecture_code": 5,
    "city": "横手市",
    "city_kana": "ヨコテシ",
    "town": "大雄板橋堰添",
    "town_kana": "タイユウイタバシセキゾイ",
    "street": null,
    "office_name": null,
    "office_name_kana": null
  },
  "0472": {
    "postcode": "0130472",
    "prefecture": "秋田県",
    "prefecture_kana": "アキタケン",
    "prefecture_code": 5,
    "city": "横手市",
    "city_kana": "ヨコテシ",
    "town": "大雄東阿気",
    "town_kana": "タイユウヒガシアゲ",
    "street": null,
    "office_name": null,
    "office_name_kana": null
  },
  "0473": {
    "postcode": "0130473",
    "prefecture": "秋田県",
    "prefecture_kana": "アキタケン",
    "prefecture_code": 5,
    "city": "横手市",
    "city_kana": "ヨコテシ",
    "town": "大雄東桜森",
    "town_kana": "タイユウヒガシサクラモリ",
    "street": null,
    "office_name": null,
    "office_name_kana": null
  },
  "0474": {
    "postcode": "0130474",
    "prefecture": "秋田県",
    "prefecture_kana": "アキタケン",
    "prefecture_code": 5,
    "city": "横手市",
    "city_kana": "ヨコテシ",
    "town": "大雄桜森",
    "town_kana": "タイユウサクラモリ",
    "street": null,
    "office_name": null,
    "office_name_kana": null
  },
  "0475": {
    "postcode": "0130475",
    "prefecture": "秋田県",
    "prefecture_kana": "アキタケン",
    "prefecture_code": 5,
    "city": "横手市",
    "city_kana": "ヨコテシ",
    "town": "大雄桜森前",
    "town_kana": "タイユウサクラモリマエ",
    "street": null,
    "office_name": null,
    "office_name_kana": null
  },
  "0476": {
    "postcode": "0130476",
    "prefecture": "秋田県",
    "prefecture_kana": "アキタケン",
    "prefecture_code": 5,
    "city": "横手市",
    "city_kana": "ヨコテシ",
    "town": "大雄西桜森",
    "town_kana": "タイユウニシサクラモリ",
    "street": null,
    "office_name": null,
    "office_name_kana": null
  },
  "0477": {
    "postcode": "0130477",
    "prefecture": "秋田県",
    "prefecture_kana": "アキタケン",
    "prefecture_code": 5,
    "city": "横手市",
    "city_kana": "ヨコテシ",
    "town": "大雄桜森東",
    "town_kana": "タイユウサクラモリヒガシ",
    "street": null,
    "office_name": null,
    "office_name_kana": null
  },
  "0481": {
    "postcode": "0130481",
    "prefecture": "秋田県",
    "prefecture_kana": "アキタケン",
    "prefecture_code": 5,
    "city": "横手市",
    "city_kana": "ヨコテシ",
    "town": "雄物川町薄井",
    "town_kana": "オモノガワマチウスイ",
    "street": null,
    "office_name": null,
    "office_name_kana": null
  },
  "0482": {
    "postcode": "0130482",
    "prefecture": "秋田県",
    "prefecture_kana": "アキタケン",
    "prefecture_code": 5,
    "city": "横手市",
    "city_kana": "ヨコテシ",
    "town": "大雄平柳",
    "town_kana": "タイユウヒラヤナギ",
    "street": null,
    "office_name": null,
    "office_name_kana": null
  },
  "0483": {
    "postcode": "0130483",
    "prefecture": "秋田県",
    "prefecture_kana": "アキタケン",
    "prefecture_code": 5,
    "city": "横手市",
    "city_kana": "ヨコテシ",
    "town": "大雄島田",
    "town_kana": "タイユウシマダ",
    "street": null,
    "office_name": null,
    "office_name_kana": null
  },
  "0484": {
    "postcode": "0130484",
    "prefecture": "秋田県",
    "prefecture_kana": "アキタケン",
    "prefecture_code": 5,
    "city": "横手市",
    "city_kana": "ヨコテシ",
    "town": "大雄新処",
    "town_kana": "タイユウアラトコロ",
    "street": null,
    "office_name": null,
    "office_name_kana": null
  },
  "0485": {
    "postcode": "0130485",
    "prefecture": "秋田県",
    "prefecture_kana": "アキタケン",
    "prefecture_code": 5,
    "city": "横手市",
    "city_kana": "ヨコテシ",
    "town": "大雄下新処",
    "town_kana": "タイユウシモアラトコロ",
    "street": null,
    "office_name": null,
    "office_name_kana": null
  },
  "0486": {
    "postcode": "0130486",
    "prefecture": "秋田県",
    "prefecture_kana": "アキタケン",
    "prefecture_code": 5,
    "city": "横手市",
    "city_kana": "ヨコテシ",
    "town": "大雄田町",
    "town_kana": "タイユウタマチ",
    "street": null,
    "office_name": null,
    "office_name_kana": null
  },
  "0487": {
    "postcode": "0130487",
    "prefecture": "秋田県",
    "prefecture_kana": "アキタケン",
    "prefecture_code": 5,
    "city": "横手市",
    "city_kana": "ヨコテシ",
    "town": "大雄下田町",
    "town_kana": "タイユウシモタマチ",
    "street": null,
    "office_name": null,
    "office_name_kana": null
  },
  "0488": {
    "postcode": "0130488",
    "prefecture": "秋田県",
    "prefecture_kana": "アキタケン",
    "prefecture_code": 5,
    "city": "横手市",
    "city_kana": "ヨコテシ",
    "town": "大雄東館合",
    "town_kana": "タイユウヒガシタテアイ",
    "street": null,
    "office_name": null,
    "office_name_kana": null
  },
  "0498": {
    "postcode": "0130498",
    "prefecture": "秋田県",
    "prefecture_kana": "アキタケン",
    "prefecture_code": 5,
    "city": "横手市",
    "city_kana": "ヨコテシ",
    "town": "大雄",
    "town_kana": null,
    "street": "字高津野１７５",
    "office_name": "秋田睦合成　株式会社",
    "office_name_kana": "アキタムツミゴウセイ カブシキガイシヤ"
  },
  "0501": {
    "postcode": "0130501",
    "prefecture": "秋田県",
    "prefecture_kana": "アキタケン",
    "prefecture_code": 5,
    "city": "横手市",
    "city_kana": "ヨコテシ",
    "town": "大森町板井田",
    "town_kana": "オオモリマチイタイダ",
    "street": null,
    "office_name": null,
    "office_name_kana": null
  },
  "0502": {
    "postcode": "0130502",
    "prefecture": "秋田県",
    "prefecture_kana": "アキタケン",
    "prefecture_code": 5,
    "city": "横手市",
    "city_kana": "ヨコテシ",
    "town": "大森町袴形",
    "town_kana": "オオモリマチハカマガタ",
    "street": null,
    "office_name": null,
    "office_name_kana": null
  },
  "0503": {
    "postcode": "0130503",
    "prefecture": "秋田県",
    "prefecture_kana": "アキタケン",
    "prefecture_code": 5,
    "city": "横手市",
    "city_kana": "ヨコテシ",
    "town": "大森町十日町",
    "town_kana": "オオモリマチトオカマチ",
    "street": null,
    "office_name": null,
    "office_name_kana": null
  },
  "0511": {
    "postcode": "0130511",
    "prefecture": "秋田県",
    "prefecture_kana": "アキタケン",
    "prefecture_code": 5,
    "city": "横手市",
    "city_kana": "ヨコテシ",
    "town": "大森町牛中島",
    "town_kana": "オオモリマチウシナカジマ",
    "street": null,
    "office_name": null,
    "office_name_kana": null
  },
  "0512": {
    "postcode": "0130512",
    "prefecture": "秋田県",
    "prefecture_kana": "アキタケン",
    "prefecture_code": 5,
    "city": "横手市",
    "city_kana": "ヨコテシ",
    "town": "大森町湯ノ沢",
    "town_kana": "オオモリマチユノサワ",
    "street": null,
    "office_name": null,
    "office_name_kana": null
  },
  "0513": {
    "postcode": "0130513",
    "prefecture": "秋田県",
    "prefecture_kana": "アキタケン",
    "prefecture_code": 5,
    "city": "横手市",
    "city_kana": "ヨコテシ",
    "town": "大森町湯ノ島",
    "town_kana": "オオモリマチユノシマ",
    "street": null,
    "office_name": null,
    "office_name_kana": null
  },
  "0514": {
    "postcode": "0130514",
    "prefecture": "秋田県",
    "prefecture_kana": "アキタケン",
    "prefecture_code": 5,
    "city": "横手市",
    "city_kana": "ヨコテシ",
    "town": "大森町大中島",
    "town_kana": "オオモリマチオオナカジマ",
    "street": null,
    "office_name": null,
    "office_name_kana": null
  },
  "0515": {
    "postcode": "0130515",
    "prefecture": "秋田県",
    "prefecture_kana": "アキタケン",
    "prefecture_code": 5,
    "city": "横手市",
    "city_kana": "ヨコテシ",
    "town": "大森町西中島",
    "town_kana": "オオモリマチニシナカジマ",
    "street": null,
    "office_name": null,
    "office_name_kana": null
  },
  "0516": {
    "postcode": "0130516",
    "prefecture": "秋田県",
    "prefecture_kana": "アキタケン",
    "prefecture_code": 5,
    "city": "横手市",
    "city_kana": "ヨコテシ",
    "town": "大森町東中島",
    "town_kana": "オオモリマチヒガシナカジマ",
    "street": null,
    "office_name": null,
    "office_name_kana": null
  },
  "0517": {
    "postcode": "0130517",
    "prefecture": "秋田県",
    "prefecture_kana": "アキタケン",
    "prefecture_code": 5,
    "city": "横手市",
    "city_kana": "ヨコテシ",
    "town": "大森町高口下水戸堤",
    "town_kana": "オオモリマチタカクチシタミトツツミ",
    "street": null,
    "office_name": null,
    "office_name_kana": null
  },
  "0518": {
    "postcode": "0130518",
    "prefecture": "秋田県",
    "prefecture_kana": "アキタケン",
    "prefecture_code": 5,
    "city": "横手市",
    "city_kana": "ヨコテシ",
    "town": "大森町文天鏡田",
    "town_kana": "オオモリマチモンテンカガミダ",
    "street": null,
    "office_name": null,
    "office_name_kana": null
  },
  "0519": {
    "postcode": "0130519",
    "prefecture": "秋田県",
    "prefecture_kana": "アキタケン",
    "prefecture_code": 5,
    "city": "横手市",
    "city_kana": "ヨコテシ",
    "town": "大森町持向",
    "town_kana": "オオモリマチモチムカイ",
    "street": null,
    "office_name": null,
    "office_name_kana": null
  },
  "0521": {
    "postcode": "0130521",
    "prefecture": "秋田県",
    "prefecture_kana": "アキタケン",
    "prefecture_code": 5,
    "city": "横手市",
    "city_kana": "ヨコテシ",
    "town": "大森町大森",
    "town_kana": "オオモリマチオオモリ",
    "street": null,
    "office_name": null,
    "office_name_kana": null
  },
  "0522": {
    "postcode": "0130522",
    "prefecture": "秋田県",
    "prefecture_kana": "アキタケン",
    "prefecture_code": 5,
    "city": "横手市",
    "city_kana": "ヨコテシ",
    "town": "大森町町回",
    "town_kana": "オオモリマチマチマワリ",
    "street": null,
    "office_name": null,
    "office_name_kana": null
  },
  "0523": {
    "postcode": "0130523",
    "prefecture": "秋田県",
    "prefecture_kana": "アキタケン",
    "prefecture_code": 5,
    "city": "横手市",
    "city_kana": "ヨコテシ",
    "town": "大森町堂林",
    "town_kana": "オオモリマチドウバヤシ",
    "street": null,
    "office_name": null,
    "office_name_kana": null
  },
  "0524": {
    "postcode": "0130524",
    "prefecture": "秋田県",
    "prefecture_kana": "アキタケン",
    "prefecture_code": 5,
    "city": "横手市",
    "city_kana": "ヨコテシ",
    "town": "大森町清水上",
    "town_kana": "オオモリマチシミズノウエ",
    "street": null,
    "office_name": null,
    "office_name_kana": null
  },
  "0525": {
    "postcode": "0130525",
    "prefecture": "秋田県",
    "prefecture_kana": "アキタケン",
    "prefecture_code": 5,
    "city": "横手市",
    "city_kana": "ヨコテシ",
    "town": "大森町菅生田",
    "town_kana": "オオモリマチスゴウタ",
    "street": null,
    "office_name": null,
    "office_name_kana": null
  },
  "0526": {
    "postcode": "0130526",
    "prefecture": "秋田県",
    "prefecture_kana": "アキタケン",
    "prefecture_code": 5,
    "city": "横手市",
    "city_kana": "ヨコテシ",
    "town": "大森町西野",
    "town_kana": "オオモリマチニシノ",
    "street": null,
    "office_name": null,
    "office_name_kana": null
  },
  "0531": {
    "postcode": "0130531",
    "prefecture": "秋田県",
    "prefecture_kana": "アキタケン",
    "prefecture_code": 5,
    "city": "横手市",
    "city_kana": "ヨコテシ",
    "town": "大森町佐渡",
    "town_kana": "オオモリマチサド",
    "street": null,
    "office_name": null,
    "office_name_kana": null
  },
  "0532": {
    "postcode": "0130532",
    "prefecture": "秋田県",
    "prefecture_kana": "アキタケン",
    "prefecture_code": 5,
    "city": "横手市",
    "city_kana": "ヨコテシ",
    "town": "大森町久保",
    "town_kana": "オオモリマチクボ",
    "street": null,
    "office_name": null,
    "office_name_kana": null
  },
  "0533": {
    "postcode": "0130533",
    "prefecture": "秋田県",
    "prefecture_kana": "アキタケン",
    "prefecture_code": 5,
    "city": "横手市",
    "city_kana": "ヨコテシ",
    "town": "大森町中田",
    "town_kana": "オオモリマチナカタ",
    "street": null,
    "office_name": null,
    "office_name_kana": null
  },
  "0534": {
    "postcode": "0130534",
    "prefecture": "秋田県",
    "prefecture_kana": "アキタケン",
    "prefecture_code": 5,
    "city": "横手市",
    "city_kana": "ヨコテシ",
    "town": "大森町峠町頭",
    "town_kana": "オオモリマチトウゲマチガシラ",
    "street": null,
    "office_name": null,
    "office_name_kana": null
  },
  "0535": {
    "postcode": "0130535",
    "prefecture": "秋田県",
    "prefecture_kana": "アキタケン",
    "prefecture_code": 5,
    "city": "横手市",
    "city_kana": "ヨコテシ",
    "town": "大森町町田",
    "town_kana": "オオモリマチマチダ",
    "street": null,
    "office_name": null,
    "office_name_kana": null
  },
  "0536": {
    "postcode": "0130536",
    "prefecture": "秋田県",
    "prefecture_kana": "アキタケン",
    "prefecture_code": 5,
    "city": "横手市",
    "city_kana": "ヨコテシ",
    "town": "大森町真山",
    "town_kana": "オオモリマチシンザン",
    "street": null,
    "office_name": null,
    "office_name_kana": null
  },
  "0541": {
    "postcode": "0130541",
    "prefecture": "秋田県",
    "prefecture_kana": "アキタケン",
    "prefecture_code": 5,
    "city": "横手市",
    "city_kana": "ヨコテシ",
    "town": "大森町中嶋",
    "town_kana": "オオモリマチナカジマ",
    "street": null,
    "office_name": null,
    "office_name_kana": null
  },
  "0542": {
    "postcode": "0130542",
    "prefecture": "秋田県",
    "prefecture_kana": "アキタケン",
    "prefecture_code": 5,
    "city": "横手市",
    "city_kana": "ヨコテシ",
    "town": "大森町高野中島",
    "town_kana": "オオモリマチタカノナカジマ",
    "street": null,
    "office_name": null,
    "office_name_kana": null
  },
  "0543": {
    "postcode": "0130543",
    "prefecture": "秋田県",
    "prefecture_kana": "アキタケン",
    "prefecture_code": 5,
    "city": "横手市",
    "city_kana": "ヨコテシ",
    "town": "大森町本郷",
    "town_kana": "オオモリマチホンゴウ",
    "street": null,
    "office_name": null,
    "office_name_kana": null
  },
  "0544": {
    "postcode": "0130544",
    "prefecture": "秋田県",
    "prefecture_kana": "アキタケン",
    "prefecture_code": 5,
    "city": "横手市",
    "city_kana": "ヨコテシ",
    "town": "大森町長助巻",
    "town_kana": "オオモリマチチョウスケマキ",
    "street": null,
    "office_name": null,
    "office_name_kana": null
  },
  "0545": {
    "postcode": "0130545",
    "prefecture": "秋田県",
    "prefecture_kana": "アキタケン",
    "prefecture_code": 5,
    "city": "横手市",
    "city_kana": "ヨコテシ",
    "town": "大森町鯲沼",
    "town_kana": "オオモリマチドジョウヌマ",
    "street": null,
    "office_name": null,
    "office_name_kana": null
  },
  "0546": {
    "postcode": "0130546",
    "prefecture": "秋田県",
    "prefecture_kana": "アキタケン",
    "prefecture_code": 5,
    "city": "横手市",
    "city_kana": "ヨコテシ",
    "town": "大森町牛ケ沢",
    "town_kana": "オオモリマチウシガサワ",
    "street": null,
    "office_name": null,
    "office_name_kana": null
  },
  "0551": {
    "postcode": "0130551",
    "prefecture": "秋田県",
    "prefecture_kana": "アキタケン",
    "prefecture_code": 5,
    "city": "横手市",
    "city_kana": "ヨコテシ",
    "town": "大森町猿田",
    "town_kana": "オオモリマチサルタ",
    "street": null,
    "office_name": null,
    "office_name_kana": null
  },
  "0552": {
    "postcode": "0130552",
    "prefecture": "秋田県",
    "prefecture_kana": "アキタケン",
    "prefecture_code": 5,
    "city": "横手市",
    "city_kana": "ヨコテシ",
    "town": "大森町上溝",
    "town_kana": "オオモリマチウワミゾ",
    "street": null,
    "office_name": null,
    "office_name_kana": null
  },
  "0561": {
    "postcode": "0130561",
    "prefecture": "秋田県",
    "prefecture_kana": "アキタケン",
    "prefecture_code": 5,
    "city": "横手市",
    "city_kana": "ヨコテシ",
    "town": "大森町八沢木",
    "town_kana": "オオモリマチヤサワギ",
    "street": null,
    "office_name": null,
    "office_name_kana": null
  },
  "0562": {
    "postcode": "0130562",
    "prefecture": "秋田県",
    "prefecture_kana": "アキタケン",
    "prefecture_code": 5,
    "city": "横手市",
    "city_kana": "ヨコテシ",
    "town": "大森町坂部",
    "town_kana": "オオモリマチサカベ",
    "street": null,
    "office_name": null,
    "office_name_kana": null
  },
  "0811": {
    "postcode": "0130811",
    "prefecture": "秋田県",
    "prefecture_kana": "アキタケン",
    "prefecture_code": 5,
    "city": "横手市",
    "city_kana": "ヨコテシ",
    "town": "安本",
    "town_kana": "ヤスモト",
    "street": null,
    "office_name": null,
    "office_name_kana": null
  },
  "0812": {
    "postcode": "0130812",
    "prefecture": "秋田県",
    "prefecture_kana": "アキタケン",
    "prefecture_code": 5,
    "city": "横手市",
    "city_kana": "ヨコテシ",
    "town": "金沢本町",
    "town_kana": "カネザワモトマチ",
    "street": null,
    "office_name": null,
    "office_name_kana": null
  },
  "0813": {
    "postcode": "0130813",
    "prefecture": "秋田県",
    "prefecture_kana": "アキタケン",
    "prefecture_code": 5,
    "city": "横手市",
    "city_kana": "ヨコテシ",
    "town": "金沢",
    "town_kana": "カネザワ",
    "street": null,
    "office_name": null,
    "office_name_kana": null
  },
  "0814": {
    "postcode": "0130814",
    "prefecture": "秋田県",
    "prefecture_kana": "アキタケン",
    "prefecture_code": 5,
    "city": "横手市",
    "city_kana": "ヨコテシ",
    "town": "金沢中野",
    "town_kana": "カネザワナカノ",
    "street": null,
    "office_name": null,
    "office_name_kana": null
  },
  "0821": {
    "postcode": "0130821",
    "prefecture": "秋田県",
    "prefecture_kana": "アキタケン",
    "prefecture_code": 5,
    "city": "横手市",
    "city_kana": "ヨコテシ",
    "town": "上境",
    "town_kana": "カミザカイ",
    "street": null,
    "office_name": null,
    "office_name_kana": null
  },
  "0822": {
    "postcode": "0130822",
    "prefecture": "秋田県",
    "prefecture_kana": "アキタケン",
    "prefecture_code": 5,
    "city": "横手市",
    "city_kana": "ヨコテシ",
    "town": "上八丁",
    "town_kana": "カミハッチョウ",
    "street": null,
    "office_name": null,
    "office_name_kana": null
  },
  "0823": {
    "postcode": "0130823",
    "prefecture": "秋田県",
    "prefecture_kana": "アキタケン",
    "prefecture_code": 5,
    "city": "横手市",
    "city_kana": "ヨコテシ",
    "town": "下八丁",
    "town_kana": "シモハッチョウ",
    "street": null,
    "office_name": null,
    "office_name_kana": null
  },
  "0824": {
    "postcode": "0130824",
    "prefecture": "秋田県",
    "prefecture_kana": "アキタケン",
    "prefecture_code": 5,
    "city": "横手市",
    "city_kana": "ヨコテシ",
    "town": "下境",
    "town_kana": "シモザカイ",
    "street": null,
    "office_name": null,
    "office_name_kana": null
  },
  "0825": {
    "postcode": "0130825",
    "prefecture": "秋田県",
    "prefecture_kana": "アキタケン",
    "prefecture_code": 5,
    "city": "横手市",
    "city_kana": "ヨコテシ",
    "town": "百万刈",
    "town_kana": "ヒャクマンガリ",
    "street": null,
    "office_name": null,
    "office_name_kana": null
  },
  "0826": {
    "postcode": "0130826",
    "prefecture": "秋田県",
    "prefecture_kana": "アキタケン",
    "prefecture_code": 5,
    "city": "横手市",
    "city_kana": "ヨコテシ",
    "town": "黒川",
    "town_kana": "クロカワ",
    "street": null,
    "office_name": null,
    "office_name_kana": null
  },
  "8501": {
    "postcode": "0138501",
    "prefecture": "秋田県",
    "prefecture_kana": "アキタケン",
    "prefecture_code": 5,
    "city": "横手市",
    "city_kana": "ヨコテシ",
    "town": "大町",
    "town_kana": "オオマチ",
    "street": "６−１６",
    "office_name": "日本電信電話　株式会社　横手支店",
    "office_name_kana": "ニホンデンシンデンワ カブシキガイシヤ ヨコテシテン"
  },
  "8502": {
    "postcode": "0138502",
    "prefecture": "秋田県",
    "prefecture_kana": "アキタケン",
    "prefecture_code": 5,
    "city": "横手市",
    "city_kana": "ヨコテシ",
    "town": "旭川",
    "town_kana": "アサヒカワ",
    "street": "１丁目３番４１号",
    "office_name": "秋田県平鹿地域振興局",
    "office_name_kana": "アキタケンヒラカチイキシンコウキヨク"
  },
  "8503": {
    "postcode": "0138503",
    "prefecture": "秋田県",
    "prefecture_kana": "アキタケン",
    "prefecture_code": 5,
    "city": "横手市",
    "city_kana": "ヨコテシ",
    "town": "旭川",
    "town_kana": "アサヒカワ",
    "street": "１丁目３番４６号",
    "office_name": "秋田県平鹿地域振興局　福祉環境部",
    "office_name_kana": "アキタケンヒラカチイキシンコウキヨク フクシカンキヨウブ"
  },
  "8504": {
    "postcode": "0138504",
    "prefecture": "秋田県",
    "prefecture_kana": "アキタケン",
    "prefecture_code": 5,
    "city": "横手市",
    "city_kana": "ヨコテシ",
    "town": "旭川",
    "town_kana": "アサヒカワ",
    "street": "１丁目５番８号",
    "office_name": "横手税務署",
    "office_name_kana": "ヨコテゼイムシヨ"
  },
  "8592": {
    "postcode": "0138592",
    "prefecture": "秋田県",
    "prefecture_kana": "アキタケン",
    "prefecture_code": 5,
    "city": "横手市",
    "city_kana": "ヨコテシ",
    "town": "安本",
    "town_kana": "ヤスモト",
    "street": "字下御所野１−２",
    "office_name": "ユニシアジェーケーシーステアリングシステム　株式会社　秋田工場",
    "office_name_kana": "ユニシアジエ-ケ-シ-ステアリングシステム カブシキガイシヤ アキタコウジヨウ"
  },
  "8601": {
    "postcode": "0138601",
    "prefecture": "秋田県",
    "prefecture_kana": "アキタケン",
    "prefecture_code": 5,
    "city": "横手市",
    "city_kana": "ヨコテシ",
    "town": "前郷",
    "town_kana": "マエゴウ",
    "street": "字下三枚橋２６９番地（横手郵便局私書箱第１５号）",
    "office_name": "横手市役所",
    "office_name_kana": "ヨコテシヤクシヨ"
  },
  "8602": {
    "postcode": "0138602",
    "prefecture": "秋田県",
    "prefecture_kana": "アキタケン",
    "prefecture_code": 5,
    "city": "横手市",
    "city_kana": "ヨコテシ",
    "town": "根岸町",
    "town_kana": "ネギシチョウ",
    "street": "５番３１号（横手郵便局私書箱第１６号）",
    "office_name": "市立　横手病院",
    "office_name_kana": "シリツ ヨコテビヨウイン"
  },
  "8609": {
    "postcode": "0138609",
    "prefecture": "秋田県",
    "prefecture_kana": "アキタケン",
    "prefecture_code": 5,
    "city": "横手市",
    "city_kana": "ヨコテシ",
    "town": "旭川",
    "town_kana": "アサヒカワ",
    "street": "１丁目２番２６号",
    "office_name": "横手公共職業安定所",
    "office_name_kana": "ヨコテコウキヨウシヨクギヨウアンテイシヨ"
  }
}