{
  "0000": {
    "postcode": "0170000",
    "prefecture": "秋田県",
    "prefecture_kana": "アキタケン",
    "prefecture_code": 5,
    "city": "大館市",
    "city_kana": "オオダテシ",
    "town": "",
    "town_kana": "",
    "street": null,
    "office_name": null,
    "office_name_kana": null
  },
  "0001": {
    "postcode": "0170001",
    "prefecture": "秋田県",
    "prefecture_kana": "アキタケン",
    "prefecture_code": 5,
    "city": "大館市",
    "city_kana": "オオダテシ",
    "town": "長走",
    "town_kana": "ナガバシリ",
    "street": null,
    "office_name": null,
    "office_name_kana": null
  },
  "0002": {
    "postcode": "0170002",
    "prefecture": "秋田県",
    "prefecture_kana": "アキタケン",
    "prefecture_code": 5,
    "city": "大館市",
    "city_kana": "オオダテシ",
    "town": "白沢",
    "town_kana": "シラサワ",
    "street": null,
    "office_name": null,
    "office_name_kana": null
  },
  "0003": {
    "postcode": "0170003",
    "prefecture": "秋田県",
    "prefecture_kana": "アキタケン",
    "prefecture_code": 5,
    "city": "大館市",
    "city_kana": "オオダテシ",
    "town": "橋桁",
    "town_kana": "ハシゲタ",
    "street": null,
    "office_name": null,
    "office_name_kana": null
  },
  "0004": {
    "postcode": "0170004",
    "prefecture": "秋田県",
    "prefecture_kana": "アキタケン",
    "prefecture_code": 5,
    "city": "大館市",
    "city_kana": "オオダテシ",
    "town": "粕田",
    "town_kana": "カスダ",
    "street": null,
    "office_name": null,
    "office_name_kana": null
  },
  "0005": {
    "postcode": "0170005",
    "prefecture": "秋田県",
    "prefecture_kana": "アキタケン",
    "prefecture_code": 5,
    "city": "大館市",
    "city_kana": "オオダテシ",
    "town": "花岡町",
    "town_kana": "ハナオカマチ",
    "street": null,
    "office_name": null,
    "office_name_kana": null
  },
  "0011": {
    "postcode": "0170011",
    "prefecture": "秋田県",
    "prefecture_kana": "アキタケン",
    "prefecture_code": 5,
    "city": "大館市",
    "city_kana": "オオダテシ",
    "town": "商人留",
    "town_kana": "アキヒトドメ",
    "street": null,
    "office_name": null,
    "office_name_kana": null
  },
  "0012": {
    "postcode": "0170012",
    "prefecture": "秋田県",
    "prefecture_kana": "アキタケン",
    "prefecture_code": 5,
    "city": "大館市",
    "city_kana": "オオダテシ",
    "town": "釈迦内",
    "town_kana": "シャカナイ",
    "street": null,
    "office_name": null,
    "office_name_kana": null
  },
  "0014": {
    "postcode": "0170014",
    "prefecture": "秋田県",
    "prefecture_kana": "アキタケン",
    "prefecture_code": 5,
    "city": "大館市",
    "city_kana": "オオダテシ",
    "town": "小釈迦内道上",
    "town_kana": "コシャカナイミチウエ",
    "street": null,
    "office_name": null,
    "office_name_kana": null
  },
  "0015": {
    "postcode": "0170015",
    "prefecture": "秋田県",
    "prefecture_kana": "アキタケン",
    "prefecture_code": 5,
    "city": "大館市",
    "city_kana": "オオダテシ",
    "town": "小釈迦内道下",
    "town_kana": "コシャカナイミチシタ",
    "street": null,
    "office_name": null,
    "office_name_kana": null
  },
  "0021": {
    "postcode": "0170021",
    "prefecture": "秋田県",
    "prefecture_kana": "アキタケン",
    "prefecture_code": 5,
    "city": "大館市",
    "city_kana": "オオダテシ",
    "town": "雪沢",
    "town_kana": "ユキサワ",
    "street": null,
    "office_name": null,
    "office_name_kana": null
  },
  "0022": {
    "postcode": "0170022",
    "prefecture": "秋田県",
    "prefecture_kana": "アキタケン",
    "prefecture_code": 5,
    "city": "大館市",
    "city_kana": "オオダテシ",
    "town": "茂内",
    "town_kana": "シゲナイ",
    "street": null,
    "office_name": null,
    "office_name_kana": null
  },
  "0023": {
    "postcode": "0170023",
    "prefecture": "秋田県",
    "prefecture_kana": "アキタケン",
    "prefecture_code": 5,
    "city": "大館市",
    "city_kana": "オオダテシ",
    "town": "東",
    "town_kana": "アズマ",
    "street": null,
    "office_name": null,
    "office_name_kana": null
  },
  "0024": {
    "postcode": "0170024",
    "prefecture": "秋田県",
    "prefecture_kana": "アキタケン",
    "prefecture_code": 5,
    "city": "大館市",
    "city_kana": "オオダテシ",
    "town": "大茂内",
    "town_kana": "オオシゲナイ",
    "street": null,
    "office_name": null,
    "office_name_kana": null
  },
  "0025": {
    "postcode": "0170025",
    "prefecture": "秋田県",
    "prefecture_kana": "アキタケン",
    "prefecture_code": 5,
    "city": "大館市",
    "city_kana": "オオダテシ",
    "town": "芦田子",
    "town_kana": "アシダコ",
    "street": null,
    "office_name": null,
    "office_name_kana": null
  },
  "0026": {
    "postcode": "0170026",
    "prefecture": "秋田県",
    "prefecture_kana": "アキタケン",
    "prefecture_code": 5,
    "city": "大館市",
    "city_kana": "オオダテシ",
    "town": "二ツ屋境",
    "town_kana": "フタツヤサカイ",
    "street": null,
    "office_name": null,
    "office_name_kana": null
  },
  "0031": {
    "postcode": "0170031",
    "prefecture": "秋田県",
    "prefecture_kana": "アキタケン",
    "prefecture_code": 5,
    "city": "大館市",
    "city_kana": "オオダテシ",
    "town": "上代野",
    "town_kana": "カミダイノ",
    "street": null,
    "office_name": null,
    "office_name_kana": null
  },
  "0032": {
    "postcode": "0170032",
    "prefecture": "秋田県",
    "prefecture_kana": "アキタケン",
    "prefecture_code": 5,
    "city": "大館市",
    "city_kana": "オオダテシ",
    "town": "新綱",
    "town_kana": "ニイヅナ",
    "street": null,
    "office_name": null,
    "office_name_kana": null
  },
  "0033": {
    "postcode": "0170033",
    "prefecture": "秋田県",
    "prefecture_kana": "アキタケン",
    "prefecture_code": 5,
    "city": "大館市",
    "city_kana": "オオダテシ",
    "town": "下綱",
    "town_kana": "シモツナ",
    "street": null,
    "office_name": null,
    "office_name_kana": null
  },
  "0034": {
    "postcode": "0170034",
    "prefecture": "秋田県",
    "prefecture_kana": "アキタケン",
    "prefecture_code": 5,
    "city": "大館市",
    "city_kana": "オオダテシ",
    "town": "下代野",
    "town_kana": "シモダイノ",
    "street": null,
    "office_name": null,
    "office_name_kana": null
  },
  "0035": {
    "postcode": "0170035",
    "prefecture": "秋田県",
    "prefecture_kana": "アキタケン",
    "prefecture_code": 5,
    "city": "大館市",
    "city_kana": "オオダテシ",
    "town": "代野",
    "town_kana": "ダイノ",
    "street": null,
    "office_name": null,
    "office_name_kana": null
  },
  "0036": {
    "postcode": "0170036",
    "prefecture": "秋田県",
    "prefecture_kana": "アキタケン",
    "prefecture_code": 5,
    "city": "大館市",
    "city_kana": "オオダテシ",
    "town": "二本杉後",
    "town_kana": "ニホンスギウシロ",
    "street": null,
    "office_name": null,
    "office_name_kana": null
  },
  "0037": {
    "postcode": "0170037",
    "prefecture": "秋田県",
    "prefecture_kana": "アキタケン",
    "prefecture_code": 5,
    "city": "大館市",
    "city_kana": "オオダテシ",
    "town": "清水堰合",
    "town_kana": "シミズセキアイ",
    "street": null,
    "office_name": null,
    "office_name_kana": null
  },
  "0041": {
    "postcode": "0170041",
    "prefecture": "秋田県",
    "prefecture_kana": "アキタケン",
    "prefecture_code": 5,
    "city": "大館市",
    "city_kana": "オオダテシ",
    "town": "大田面",
    "town_kana": "オオタオモテ",
    "street": null,
    "office_name": null,
    "office_name_kana": null
  },
  "0042": {
    "postcode": "0170042",
    "prefecture": "秋田県",
    "prefecture_kana": "アキタケン",
    "prefecture_code": 5,
    "city": "大館市",
    "city_kana": "オオダテシ",
    "town": "観音堂",
    "town_kana": "カンノンドウ",
    "street": null,
    "office_name": null,
    "office_name_kana": null
  },
  "0043": {
    "postcode": "0170043",
    "prefecture": "秋田県",
    "prefecture_kana": "アキタケン",
    "prefecture_code": 5,
    "city": "大館市",
    "city_kana": "オオダテシ",
    "town": "有浦",
    "town_kana": "アリウラ",
    "street": null,
    "office_name": null,
    "office_name_kana": null
  },
  "0044": {
    "postcode": "0170044",
    "prefecture": "秋田県",
    "prefecture_kana": "アキタケン",
    "prefecture_code": 5,
    "city": "大館市",
    "city_kana": "オオダテシ",
    "town": "御成町",
    "town_kana": "オナリチョウ",
    "street": null,
    "office_name": null,
    "office_name_kana": null
  },
  "0045": {
    "postcode": "0170045",
    "prefecture": "秋田県",
    "prefecture_kana": "アキタケン",
    "prefecture_code": 5,
    "city": "大館市",
    "city_kana": "オオダテシ",
    "town": "中道",
    "town_kana": "ナカミチ",
    "street": null,
    "office_name": null,
    "office_name_kana": null
  },
  "0046": {
    "postcode": "0170046",
    "prefecture": "秋田県",
    "prefecture_kana": "アキタケン",
    "prefecture_code": 5,
    "city": "大館市",
    "city_kana": "オオダテシ",
    "town": "清水",
    "town_kana": "シミズ",
    "street": null,
    "office_name": null,
    "office_name_kana": null
  },
  "0051": {
    "postcode": "0170051",
    "prefecture": "秋田県",
    "prefecture_kana": "アキタケン",
    "prefecture_code": 5,
    "city": "大館市",
    "city_kana": "オオダテシ",
    "town": "松峰",
    "town_kana": "マツミネ",
    "street": null,
    "office_name": null,
    "office_name_kana": null
  },
  "0052": {
    "postcode": "0170052",
    "prefecture": "秋田県",
    "prefecture_kana": "アキタケン",
    "prefecture_code": 5,
    "city": "大館市",
    "city_kana": "オオダテシ",
    "town": "松木",
    "town_kana": "マツキ",
    "street": null,
    "office_name": null,
    "office_name_kana": null
  },
  "0053": {
    "postcode": "0170053",
    "prefecture": "秋田県",
    "prefecture_kana": "アキタケン",
    "prefecture_code": 5,
    "city": "大館市",
    "city_kana": "オオダテシ",
    "town": "板子石境",
    "town_kana": "イタコイシザカイ",
    "street": null,
    "office_name": null,
    "office_name_kana": null
  },
  "0054": {
    "postcode": "0170054",
    "prefecture": "秋田県",
    "prefecture_kana": "アキタケン",
    "prefecture_code": 5,
    "city": "大館市",
    "city_kana": "オオダテシ",
    "town": "松館",
    "town_kana": "マツダテ",
    "street": null,
    "office_name": null,
    "office_name_kana": null
  },
  "0055": {
    "postcode": "0170055",
    "prefecture": "秋田県",
    "prefecture_kana": "アキタケン",
    "prefecture_code": 5,
    "city": "大館市",
    "city_kana": "オオダテシ",
    "town": "沼館道上",
    "town_kana": "ヌマタテミチウエ",
    "street": null,
    "office_name": null,
    "office_name_kana": null
  },
  "0056": {
    "postcode": "0170056",
    "prefecture": "秋田県",
    "prefecture_kana": "アキタケン",
    "prefecture_code": 5,
    "city": "大館市",
    "city_kana": "オオダテシ",
    "town": "沼館道南",
    "town_kana": "ヌマタテミチミナミ",
    "street": null,
    "office_name": null,
    "office_name_kana": null
  },
  "0057": {
    "postcode": "0170057",
    "prefecture": "秋田県",
    "prefecture_kana": "アキタケン",
    "prefecture_code": 5,
    "city": "大館市",
    "city_kana": "オオダテシ",
    "town": "沼館",
    "town_kana": "ヌマダテ",
    "street": null,
    "office_name": null,
    "office_name_kana": null
  },
  "0200": {
    "postcode": "0170200",
    "prefecture": "秋田県",
    "prefecture_kana": "アキタケン",
    "prefecture_code": 5,
    "city": "鹿角郡小坂町",
    "city_kana": "カヅノグンコサカマチ",
    "town": "",
    "town_kana": "",
    "street": null,
    "office_name": null,
    "office_name_kana": null
  },
  "0201": {
    "postcode": "0170201",
    "prefecture": "秋田県",
    "prefecture_kana": "アキタケン",
    "prefecture_code": 5,
    "city": "鹿角郡小坂町",
    "city_kana": "カヅノグンコサカマチ",
    "town": "小坂",
    "town_kana": "コサカ",
    "street": null,
    "office_name": null,
    "office_name_kana": null
  },
  "0202": {
    "postcode": "0170202",
    "prefecture": "秋田県",
    "prefecture_kana": "アキタケン",
    "prefecture_code": 5,
    "city": "鹿角郡小坂町",
    "city_kana": "カヅノグンコサカマチ",
    "town": "小坂鉱山",
    "town_kana": "コサカコウザン",
    "street": null,
    "office_name": null,
    "office_name_kana": null
  },
  "0203": {
    "postcode": "0170203",
    "prefecture": "秋田県",
    "prefecture_kana": "アキタケン",
    "prefecture_code": 5,
    "city": "鹿角郡小坂町",
    "city_kana": "カヅノグンコサカマチ",
    "town": "上向",
    "town_kana": "ウワムキ",
    "street": null,
    "office_name": null,
    "office_name_kana": null
  },
  "0204": {
    "postcode": "0170204",
    "prefecture": "秋田県",
    "prefecture_kana": "アキタケン",
    "prefecture_code": 5,
    "city": "鹿角郡小坂町",
    "city_kana": "カヅノグンコサカマチ",
    "town": "荒谷",
    "town_kana": "アラヤ",
    "street": null,
    "office_name": null,
    "office_name_kana": null
  },
  "0205": {
    "postcode": "0170205",
    "prefecture": "秋田県",
    "prefecture_kana": "アキタケン",
    "prefecture_code": 5,
    "city": "鹿角郡小坂町",
    "city_kana": "カヅノグンコサカマチ",
    "town": "大地",
    "town_kana": "ダイチ",
    "street": null,
    "office_name": null,
    "office_name_kana": null
  },
  "0292": {
    "postcode": "0170292",
    "prefecture": "秋田県",
    "prefecture_kana": "アキタケン",
    "prefecture_code": 5,
    "city": "鹿角郡小坂町",
    "city_kana": "カヅノグンコサカマチ",
    "town": "小坂",
    "town_kana": "コサカ",
    "street": "字尾樽部３７の２",
    "office_name": "小坂町役場",
    "office_name_kana": "コサカマチヤクバ"
  },
  "0293": {
    "postcode": "0170293",
    "prefecture": "秋田県",
    "prefecture_kana": "アキタケン",
    "prefecture_code": 5,
    "city": "鹿角郡小坂町",
    "city_kana": "カヅノグンコサカマチ",
    "town": "小坂",
    "town_kana": "コサカ",
    "street": "字五十刈５−３",
    "office_name": "タナックス　（株）",
    "office_name_kana": "タナツクス カブシキカイシヤ"
  },
  "0801": {
    "postcode": "0170801",
    "prefecture": "秋田県",
    "prefecture_kana": "アキタケン",
    "prefecture_code": 5,
    "city": "大館市",
    "city_kana": "オオダテシ",
    "town": "一本杉",
    "town_kana": "イッポンスギ",
    "street": null,
    "office_name": null,
    "office_name_kana": null
  },
  "0802": {
    "postcode": "0170802",
    "prefecture": "秋田県",
    "prefecture_kana": "アキタケン",
    "prefecture_code": 5,
    "city": "大館市",
    "city_kana": "オオダテシ",
    "town": "長根山下",
    "town_kana": "ナガネヤマシタ",
    "street": null,
    "office_name": null,
    "office_name_kana": null
  },
  "0803": {
    "postcode": "0170803",
    "prefecture": "秋田県",
    "prefecture_kana": "アキタケン",
    "prefecture_code": 5,
    "city": "大館市",
    "city_kana": "オオダテシ",
    "town": "東台",
    "town_kana": "ヒガシダイ",
    "street": null,
    "office_name": null,
    "office_name_kana": null
  },
  "0804": {
    "postcode": "0170804",
    "prefecture": "秋田県",
    "prefecture_kana": "アキタケン",
    "prefecture_code": 5,
    "city": "大館市",
    "city_kana": "オオダテシ",
    "town": "柄沢",
    "town_kana": "カラサワ",
    "street": null,
    "office_name": null,
    "office_name_kana": null
  },
  "0805": {
    "postcode": "0170805",
    "prefecture": "秋田県",
    "prefecture_kana": "アキタケン",
    "prefecture_code": 5,
    "city": "大館市",
    "city_kana": "オオダテシ",
    "town": "扇田道下",
    "town_kana": "オウギダミチシタ",
    "street": null,
    "office_name": null,
    "office_name_kana": null
  },
  "0806": {
    "postcode": "0170806",
    "prefecture": "秋田県",
    "prefecture_kana": "アキタケン",
    "prefecture_code": 5,
    "city": "大館市",
    "city_kana": "オオダテシ",
    "town": "相染沢中岱",
    "town_kana": "アイゾメサワナカタイ",
    "street": null,
    "office_name": null,
    "office_name_kana": null
  },
  "0811": {
    "postcode": "0170811",
    "prefecture": "秋田県",
    "prefecture_kana": "アキタケン",
    "prefecture_code": 5,
    "city": "大館市",
    "city_kana": "オオダテシ",
    "town": "八幡",
    "town_kana": "ハチマン",
    "street": null,
    "office_name": null,
    "office_name_kana": null
  },
  "0812": {
    "postcode": "0170812",
    "prefecture": "秋田県",
    "prefecture_kana": "アキタケン",
    "prefecture_code": 5,
    "city": "大館市",
    "city_kana": "オオダテシ",
    "town": "金坂",
    "town_kana": "カネザカ",
    "street": null,
    "office_name": null,
    "office_name_kana": null
  },
  "0813": {
    "postcode": "0170813",
    "prefecture": "秋田県",
    "prefecture_kana": "アキタケン",
    "prefecture_code": 5,
    "city": "大館市",
    "city_kana": "オオダテシ",
    "town": "金坂後",
    "town_kana": "カネザカウシロ",
    "street": null,
    "office_name": null,
    "office_name_kana": null
  },
  "0814": {
    "postcode": "0170814",
    "prefecture": "秋田県",
    "prefecture_kana": "アキタケン",
    "prefecture_code": 5,
    "city": "大館市",
    "city_kana": "オオダテシ",
    "town": "赤館町",
    "town_kana": "アカダテチョウ",
    "street": null,
    "office_name": null,
    "office_name_kana": null
  },
  "0815": {
    "postcode": "0170815",
    "prefecture": "秋田県",
    "prefecture_kana": "アキタケン",
    "prefecture_code": 5,
    "city": "大館市",
    "city_kana": "オオダテシ",
    "town": "部垂町",
    "town_kana": "ヘダレマチ",
    "street": null,
    "office_name": null,
    "office_name_kana": null
  },
  "0816": {
    "postcode": "0170816",
    "prefecture": "秋田県",
    "prefecture_kana": "アキタケン",
    "prefecture_code": 5,
    "city": "大館市",
    "city_kana": "オオダテシ",
    "town": "赤館",
    "town_kana": "アカダテ",
    "street": null,
    "office_name": null,
    "office_name_kana": null
  },
  "0817": {
    "postcode": "0170817",
    "prefecture": "秋田県",
    "prefecture_kana": "アキタケン",
    "prefecture_code": 5,
    "city": "大館市",
    "city_kana": "オオダテシ",
    "town": "上町",
    "town_kana": "ウワマチ",
    "street": null,
    "office_name": null,
    "office_name_kana": null
  },
  "0821": {
    "postcode": "0170821",
    "prefecture": "秋田県",
    "prefecture_kana": "アキタケン",
    "prefecture_code": 5,
    "city": "大館市",
    "city_kana": "オオダテシ",
    "town": "桜町",
    "town_kana": "サクラチョウ",
    "street": null,
    "office_name": null,
    "office_name_kana": null
  },
  "0822": {
    "postcode": "0170822",
    "prefecture": "秋田県",
    "prefecture_kana": "アキタケン",
    "prefecture_code": 5,
    "city": "大館市",
    "city_kana": "オオダテシ",
    "town": "桜町南",
    "town_kana": "サクラチョウミナミ",
    "street": null,
    "office_name": null,
    "office_name_kana": null
  },
  "0823": {
    "postcode": "0170823",
    "prefecture": "秋田県",
    "prefecture_kana": "アキタケン",
    "prefecture_code": 5,
    "city": "大館市",
    "city_kana": "オオダテシ",
    "town": "八幡沢岱",
    "town_kana": "ハチマンサワタイ",
    "street": null,
    "office_name": null,
    "office_name_kana": null
  },
  "0824": {
    "postcode": "0170824",
    "prefecture": "秋田県",
    "prefecture_kana": "アキタケン",
    "prefecture_code": 5,
    "city": "大館市",
    "city_kana": "オオダテシ",
    "town": "七曲岱",
    "town_kana": "ナナマガリタイ",
    "street": null,
    "office_name": null,
    "office_name_kana": null
  },
  "0825": {
    "postcode": "0170825",
    "prefecture": "秋田県",
    "prefecture_kana": "アキタケン",
    "prefecture_code": 5,
    "city": "大館市",
    "city_kana": "オオダテシ",
    "town": "一心院南",
    "town_kana": "イッシンインミナミ",
    "street": null,
    "office_name": null,
    "office_name_kana": null
  },
  "0826": {
    "postcode": "0170826",
    "prefecture": "秋田県",
    "prefecture_kana": "アキタケン",
    "prefecture_code": 5,
    "city": "大館市",
    "city_kana": "オオダテシ",
    "town": "谷地町後",
    "town_kana": "ヤチマチウシロ",
    "street": null,
    "office_name": null,
    "office_name_kana": null
  },
  "0827": {
    "postcode": "0170827",
    "prefecture": "秋田県",
    "prefecture_kana": "アキタケン",
    "prefecture_code": 5,
    "city": "大館市",
    "city_kana": "オオダテシ",
    "town": "谷地町",
    "town_kana": "ヤチマチ",
    "street": null,
    "office_name": null,
    "office_name_kana": null
  },
  "0828": {
    "postcode": "0170828",
    "prefecture": "秋田県",
    "prefecture_kana": "アキタケン",
    "prefecture_code": 5,
    "city": "大館市",
    "city_kana": "オオダテシ",
    "town": "向町",
    "town_kana": "ムカイマチ",
    "street": null,
    "office_name": null,
    "office_name_kana": null
  },
  "0831": {
    "postcode": "0170831",
    "prefecture": "秋田県",
    "prefecture_kana": "アキタケン",
    "prefecture_code": 5,
    "city": "大館市",
    "city_kana": "オオダテシ",
    "town": "青葉町",
    "town_kana": "アオバチョウ",
    "street": null,
    "office_name": null,
    "office_name_kana": null
  },
  "0832": {
    "postcode": "0170832",
    "prefecture": "秋田県",
    "prefecture_kana": "アキタケン",
    "prefecture_code": 5,
    "city": "大館市",
    "city_kana": "オオダテシ",
    "town": "池内道下",
    "town_kana": "イケナイミチシタ",
    "street": null,
    "office_name": null,
    "office_name_kana": null
  },
  "0833": {
    "postcode": "0170833",
    "prefecture": "秋田県",
    "prefecture_kana": "アキタケン",
    "prefecture_code": 5,
    "city": "大館市",
    "city_kana": "オオダテシ",
    "town": "象ケ鼻",
    "town_kana": "ゾウガハナ",
    "street": null,
    "office_name": null,
    "office_name_kana": null
  },
  "0834": {
    "postcode": "0170834",
    "prefecture": "秋田県",
    "prefecture_kana": "アキタケン",
    "prefecture_code": 5,
    "city": "大館市",
    "city_kana": "オオダテシ",
    "town": "池内道上",
    "town_kana": "イケナイミチウエ",
    "street": null,
    "office_name": null,
    "office_name_kana": null
  },
  "0835": {
    "postcode": "0170835",
    "prefecture": "秋田県",
    "prefecture_kana": "アキタケン",
    "prefecture_code": 5,
    "city": "大館市",
    "city_kana": "オオダテシ",
    "town": "小館花",
    "town_kana": "コダテハナ",
    "street": null,
    "office_name": null,
    "office_name_kana": null
  },
  "0836": {
    "postcode": "0170836",
    "prefecture": "秋田県",
    "prefecture_kana": "アキタケン",
    "prefecture_code": 5,
    "city": "大館市",
    "city_kana": "オオダテシ",
    "town": "池内",
    "town_kana": "イケナイ",
    "street": null,
    "office_name": null,
    "office_name_kana": null
  },
  "0837": {
    "postcode": "0170837",
    "prefecture": "秋田県",
    "prefecture_kana": "アキタケン",
    "prefecture_code": 5,
    "city": "大館市",
    "city_kana": "オオダテシ",
    "town": "餌釣",
    "town_kana": "エツリ",
    "street": null,
    "office_name": null,
    "office_name_kana": null
  },
  "0838": {
    "postcode": "0170838",
    "prefecture": "秋田県",
    "prefecture_kana": "アキタケン",
    "prefecture_code": 5,
    "city": "大館市",
    "city_kana": "オオダテシ",
    "town": "山館",
    "town_kana": "ヤマダテ",
    "street": null,
    "office_name": null,
    "office_name_kana": null
  },
  "0839": {
    "postcode": "0170839",
    "prefecture": "秋田県",
    "prefecture_kana": "アキタケン",
    "prefecture_code": 5,
    "city": "大館市",
    "city_kana": "オオダテシ",
    "town": "中山",
    "town_kana": "ナカヤマ",
    "street": null,
    "office_name": null,
    "office_name_kana": null
  },
  "0841": {
    "postcode": "0170841",
    "prefecture": "秋田県",
    "prefecture_kana": "アキタケン",
    "prefecture_code": 5,
    "city": "大館市",
    "city_kana": "オオダテシ",
    "town": "大町",
    "town_kana": "オオマチ",
    "street": null,
    "office_name": null,
    "office_name_kana": null
  },
  "0842": {
    "postcode": "0170842",
    "prefecture": "秋田県",
    "prefecture_kana": "アキタケン",
    "prefecture_code": 5,
    "city": "大館市",
    "city_kana": "オオダテシ",
    "town": "馬喰町",
    "town_kana": "バクロウマチ",
    "street": null,
    "office_name": null,
    "office_name_kana": null
  },
  "0843": {
    "postcode": "0170843",
    "prefecture": "秋田県",
    "prefecture_kana": "アキタケン",
    "prefecture_code": 5,
    "city": "大館市",
    "city_kana": "オオダテシ",
    "town": "中町",
    "town_kana": "ナカマチ",
    "street": null,
    "office_name": null,
    "office_name_kana": null
  },
  "0844": {
    "postcode": "0170844",
    "prefecture": "秋田県",
    "prefecture_kana": "アキタケン",
    "prefecture_code": 5,
    "city": "大館市",
    "city_kana": "オオダテシ",
    "town": "新町",
    "town_kana": "シンマチ",
    "street": null,
    "office_name": null,
    "office_name_kana": null
  },
  "0845": {
    "postcode": "0170845",
    "prefecture": "秋田県",
    "prefecture_kana": "アキタケン",
    "prefecture_code": 5,
    "city": "大館市",
    "city_kana": "オオダテシ",
    "town": "泉町",
    "town_kana": "イズミチョウ",
    "street": null,
    "office_name": null,
    "office_name_kana": null
  },
  "0846": {
    "postcode": "0170846",
    "prefecture": "秋田県",
    "prefecture_kana": "アキタケン",
    "prefecture_code": 5,
    "city": "大館市",
    "city_kana": "オオダテシ",
    "town": "常盤木町",
    "town_kana": "トキワギチョウ",
    "street": null,
    "office_name": null,
    "office_name_kana": null
  },
  "0847": {
    "postcode": "0170847",
    "prefecture": "秋田県",
    "prefecture_kana": "アキタケン",
    "prefecture_code": 5,
    "city": "大館市",
    "city_kana": "オオダテシ",
    "town": "幸町",
    "town_kana": "サイワイチョウ",
    "street": null,
    "office_name": null,
    "office_name_kana": null
  },
  "0851": {
    "postcode": "0170851",
    "prefecture": "秋田県",
    "prefecture_kana": "アキタケン",
    "prefecture_code": 5,
    "city": "大館市",
    "city_kana": "オオダテシ",
    "town": "大披",
    "town_kana": "オオビラキ",
    "street": null,
    "office_name": null,
    "office_name_kana": null
  },
  "0852": {
    "postcode": "0170852",
    "prefecture": "秋田県",
    "prefecture_kana": "アキタケン",
    "prefecture_code": 5,
    "city": "大館市",
    "city_kana": "オオダテシ",
    "town": "小袴",
    "town_kana": "コハカマ",
    "street": null,
    "office_name": null,
    "office_name_kana": null
  },
  "0853": {
    "postcode": "0170853",
    "prefecture": "秋田県",
    "prefecture_kana": "アキタケン",
    "prefecture_code": 5,
    "city": "大館市",
    "city_kana": "オオダテシ",
    "town": "板沢",
    "town_kana": "イタザワ",
    "street": null,
    "office_name": null,
    "office_name_kana": null
  },
  "0854": {
    "postcode": "0170854",
    "prefecture": "秋田県",
    "prefecture_kana": "アキタケン",
    "prefecture_code": 5,
    "city": "大館市",
    "city_kana": "オオダテシ",
    "town": "赤石",
    "town_kana": "アカイシ",
    "street": null,
    "office_name": null,
    "office_name_kana": null
  },
  "0855": {
    "postcode": "0170855",
    "prefecture": "秋田県",
    "prefecture_kana": "アキタケン",
    "prefecture_code": 5,
    "city": "大館市",
    "city_kana": "オオダテシ",
    "town": "櫃崎",
    "town_kana": "ヒツザキ",
    "street": null,
    "office_name": null,
    "office_name_kana": null
  },
  "0857": {
    "postcode": "0170857",
    "prefecture": "秋田県",
    "prefecture_kana": "アキタケン",
    "prefecture_code": 5,
    "city": "大館市",
    "city_kana": "オオダテシ",
    "town": "出川",
    "town_kana": "イデガワ",
    "street": null,
    "office_name": null,
    "office_name_kana": null
  },
  "0861": {
    "postcode": "0170861",
    "prefecture": "秋田県",
    "prefecture_kana": "アキタケン",
    "prefecture_code": 5,
    "city": "大館市",
    "city_kana": "オオダテシ",
    "town": "小館町",
    "town_kana": "コタテチョウ",
    "street": null,
    "office_name": null,
    "office_name_kana": null
  },
  "0862": {
    "postcode": "0170862",
    "prefecture": "秋田県",
    "prefecture_kana": "アキタケン",
    "prefecture_code": 5,
    "city": "大館市",
    "city_kana": "オオダテシ",
    "town": "根下戸",
    "town_kana": "ネゲト",
    "street": null,
    "office_name": null,
    "office_name_kana": null
  },
  "0863": {
    "postcode": "0170863",
    "prefecture": "秋田県",
    "prefecture_kana": "アキタケン",
    "prefecture_code": 5,
    "city": "大館市",
    "city_kana": "オオダテシ",
    "town": "根下戸町",
    "town_kana": "ネゲトチョウ",
    "street": null,
    "office_name": null,
    "office_name_kana": null
  },
  "0864": {
    "postcode": "0170864",
    "prefecture": "秋田県",
    "prefecture_kana": "アキタケン",
    "prefecture_code": 5,
    "city": "大館市",
    "city_kana": "オオダテシ",
    "town": "根下戸新町",
    "town_kana": "ネゲトシンマチ",
    "street": null,
    "office_name": null,
    "office_name_kana": null
  },
  "0865": {
    "postcode": "0170865",
    "prefecture": "秋田県",
    "prefecture_kana": "アキタケン",
    "prefecture_code": 5,
    "city": "大館市",
    "city_kana": "オオダテシ",
    "town": "城西町",
    "town_kana": "ジョウセイチョウ",
    "street": null,
    "office_name": null,
    "office_name_kana": null
  },
  "0866": {
    "postcode": "0170866",
    "prefecture": "秋田県",
    "prefecture_kana": "アキタケン",
    "prefecture_code": 5,
    "city": "大館市",
    "city_kana": "オオダテシ",
    "town": "北神明町",
    "town_kana": "キタシンメイチョウ",
    "street": null,
    "office_name": null,
    "office_name_kana": null
  },
  "0867": {
    "postcode": "0170867",
    "prefecture": "秋田県",
    "prefecture_kana": "アキタケン",
    "prefecture_code": 5,
    "city": "大館市",
    "city_kana": "オオダテシ",
    "town": "中神明町",
    "town_kana": "ナカシンメイチョウ",
    "street": null,
    "office_name": null,
    "office_name_kana": null
  },
  "0868": {
    "postcode": "0170868",
    "prefecture": "秋田県",
    "prefecture_kana": "アキタケン",
    "prefecture_code": 5,
    "city": "大館市",
    "city_kana": "オオダテシ",
    "town": "南神明町",
    "town_kana": "ミナミシンメイチョウ",
    "street": null,
    "office_name": null,
    "office_name_kana": null
  },
  "0871": {
    "postcode": "0170871",
    "prefecture": "秋田県",
    "prefecture_kana": "アキタケン",
    "prefecture_code": 5,
    "city": "大館市",
    "city_kana": "オオダテシ",
    "town": "片山",
    "town_kana": "カタヤマ",
    "street": null,
    "office_name": null,
    "office_name_kana": null
  },
  "0872": {
    "postcode": "0170872",
    "prefecture": "秋田県",
    "prefecture_kana": "アキタケン",
    "prefecture_code": 5,
    "city": "大館市",
    "city_kana": "オオダテシ",
    "town": "片山町",
    "town_kana": "カタヤマチョウ",
    "street": null,
    "office_name": null,
    "office_name_kana": null
  },
  "0873": {
    "postcode": "0170873",
    "prefecture": "秋田県",
    "prefecture_kana": "アキタケン",
    "prefecture_code": 5,
    "city": "大館市",
    "city_kana": "オオダテシ",
    "town": "御坂",
    "town_kana": "ミサカ",
    "street": null,
    "office_name": null,
    "office_name_kana": null
  },
  "0874": {
    "postcode": "0170874",
    "prefecture": "秋田県",
    "prefecture_kana": "アキタケン",
    "prefecture_code": 5,
    "city": "大館市",
    "city_kana": "オオダテシ",
    "town": "美園町",
    "town_kana": "ミソノチョウ",
    "street": null,
    "office_name": null,
    "office_name_kana": null
  },
  "0875": {
    "postcode": "0170875",
    "prefecture": "秋田県",
    "prefecture_kana": "アキタケン",
    "prefecture_code": 5,
    "city": "大館市",
    "city_kana": "オオダテシ",
    "town": "住吉町",
    "town_kana": "スミヨシチョウ",
    "street": null,
    "office_name": null,
    "office_name_kana": null
  },
  "0876": {
    "postcode": "0170876",
    "prefecture": "秋田県",
    "prefecture_kana": "アキタケン",
    "prefecture_code": 5,
    "city": "大館市",
    "city_kana": "オオダテシ",
    "town": "餅田",
    "town_kana": "モチタ",
    "street": null,
    "office_name": null,
    "office_name_kana": null
  },
  "0877": {
    "postcode": "0170877",
    "prefecture": "秋田県",
    "prefecture_kana": "アキタケン",
    "prefecture_code": 5,
    "city": "大館市",
    "city_kana": "オオダテシ",
    "town": "立花",
    "town_kana": "タテバナ",
    "street": null,
    "office_name": null,
    "office_name_kana": null
  },
  "0878": {
    "postcode": "0170878",
    "prefecture": "秋田県",
    "prefecture_kana": "アキタケン",
    "prefecture_code": 5,
    "city": "大館市",
    "city_kana": "オオダテシ",
    "town": "川口",
    "town_kana": "カワグチ",
    "street": null,
    "office_name": null,
    "office_name_kana": null
  },
  "0881": {
    "postcode": "0170881",
    "prefecture": "秋田県",
    "prefecture_kana": "アキタケン",
    "prefecture_code": 5,
    "city": "大館市",
    "city_kana": "オオダテシ",
    "town": "長木川南",
    "town_kana": "ナガキカワミナミ",
    "street": null,
    "office_name": null,
    "office_name_kana": null
  },
  "0882": {
    "postcode": "0170882",
    "prefecture": "秋田県",
    "prefecture_kana": "アキタケン",
    "prefecture_code": 5,
    "city": "大館市",
    "city_kana": "オオダテシ",
    "town": "鉄砲場",
    "town_kana": "テッポウバ",
    "street": null,
    "office_name": null,
    "office_name_kana": null
  },
  "0883": {
    "postcode": "0170883",
    "prefecture": "秋田県",
    "prefecture_kana": "アキタケン",
    "prefecture_code": 5,
    "city": "大館市",
    "city_kana": "オオダテシ",
    "town": "古川町",
    "town_kana": "フルカワマチ",
    "street": null,
    "office_name": null,
    "office_name_kana": null
  },
  "0884": {
    "postcode": "0170884",
    "prefecture": "秋田県",
    "prefecture_kana": "アキタケン",
    "prefecture_code": 5,
    "city": "大館市",
    "city_kana": "オオダテシ",
    "town": "土飛山下",
    "town_kana": "ドビヤマシタ",
    "street": null,
    "office_name": null,
    "office_name_kana": null
  },
  "0885": {
    "postcode": "0170885",
    "prefecture": "秋田県",
    "prefecture_kana": "アキタケン",
    "prefecture_code": 5,
    "city": "大館市",
    "city_kana": "オオダテシ",
    "town": "豊町",
    "town_kana": "ユタカチョウ",
    "street": null,
    "office_name": null,
    "office_name_kana": null
  },
  "0886": {
    "postcode": "0170886",
    "prefecture": "秋田県",
    "prefecture_kana": "アキタケン",
    "prefecture_code": 5,
    "city": "大館市",
    "city_kana": "オオダテシ",
    "town": "館下",
    "town_kana": "タテシタ",
    "street": null,
    "office_name": null,
    "office_name_kana": null
  },
  "0887": {
    "postcode": "0170887",
    "prefecture": "秋田県",
    "prefecture_kana": "アキタケン",
    "prefecture_code": 5,
    "city": "大館市",
    "city_kana": "オオダテシ",
    "town": "水門町",
    "town_kana": "スイモンチョウ",
    "street": null,
    "office_name": null,
    "office_name_kana": null
  },
  "0888": {
    "postcode": "0170888",
    "prefecture": "秋田県",
    "prefecture_kana": "アキタケン",
    "prefecture_code": 5,
    "city": "大館市",
    "city_kana": "オオダテシ",
    "town": "水門前",
    "town_kana": "スイモンマエ",
    "street": null,
    "office_name": null,
    "office_name_kana": null
  },
  "0891": {
    "postcode": "0170891",
    "prefecture": "秋田県",
    "prefecture_kana": "アキタケン",
    "prefecture_code": 5,
    "city": "大館市",
    "city_kana": "オオダテシ",
    "town": "中城",
    "town_kana": "ナカジョウ",
    "street": null,
    "office_name": null,
    "office_name_kana": null
  },
  "0892": {
    "postcode": "0170892",
    "prefecture": "秋田県",
    "prefecture_kana": "アキタケン",
    "prefecture_code": 5,
    "city": "大館市",
    "city_kana": "オオダテシ",
    "town": "片町",
    "town_kana": "カタマチ",
    "street": null,
    "office_name": null,
    "office_name_kana": null
  },
  "0893": {
    "postcode": "0170893",
    "prefecture": "秋田県",
    "prefecture_kana": "アキタケン",
    "prefecture_code": 5,
    "city": "大館市",
    "city_kana": "オオダテシ",
    "town": "桂城",
    "town_kana": "ケイジョウ",
    "street": null,
    "office_name": null,
    "office_name_kana": null
  },
  "0894": {
    "postcode": "0170894",
    "prefecture": "秋田県",
    "prefecture_kana": "アキタケン",
    "prefecture_code": 5,
    "city": "大館市",
    "city_kana": "オオダテシ",
    "town": "裏町",
    "town_kana": "ウラマチ",
    "street": null,
    "office_name": null,
    "office_name_kana": null
  },
  "0895": {
    "postcode": "0170895",
    "prefecture": "秋田県",
    "prefecture_kana": "アキタケン",
    "prefecture_code": 5,
    "city": "大館市",
    "city_kana": "オオダテシ",
    "town": "長倉",
    "town_kana": "ナガクラ",
    "street": null,
    "office_name": null,
    "office_name_kana": null
  },
  "0896": {
    "postcode": "0170896",
    "prefecture": "秋田県",
    "prefecture_kana": "アキタケン",
    "prefecture_code": 5,
    "city": "大館市",
    "city_kana": "オオダテシ",
    "town": "大館",
    "town_kana": "オオダテ",
    "street": null,
    "office_name": null,
    "office_name_kana": null
  },
  "0897": {
    "postcode": "0170897",
    "prefecture": "秋田県",
    "prefecture_kana": "アキタケン",
    "prefecture_code": 5,
    "city": "大館市",
    "city_kana": "オオダテシ",
    "town": "三ノ丸",
    "town_kana": "サンノマル",
    "street": null,
    "office_name": null,
    "office_name_kana": null
  },
  "8510": {
    "postcode": "0178510",
    "prefecture": "秋田県",
    "prefecture_kana": "アキタケン",
    "prefecture_code": 5,
    "city": "大館市",
    "city_kana": "オオダテシ",
    "town": "御成町",
    "town_kana": "オナリチョウ",
    "street": "３丁目７−５８",
    "office_name": "いとく大館ショッピングセンター",
    "office_name_kana": "イトクオオダテシヨツピングセンタ-"
  },
  "8550": {
    "postcode": "0178550",
    "prefecture": "秋田県",
    "prefecture_kana": "アキタケン",
    "prefecture_code": 5,
    "city": "大館市",
    "city_kana": "オオダテシ",
    "town": "豊町",
    "town_kana": "ユタカチョウ",
    "street": "３−１",
    "office_name": "大館市立総合病院",
    "office_name_kana": "オオダテシリツソウゴウビヨウイン"
  },
  "8555": {
    "postcode": "0178555",
    "prefecture": "秋田県",
    "prefecture_kana": "アキタケン",
    "prefecture_code": 5,
    "city": "大館市",
    "city_kana": "オオダテシ",
    "town": "字中城",
    "town_kana": null,
    "street": "２０",
    "office_name": "大館市役所",
    "office_name_kana": "オオダテシヤクシヨ"
  },
  "8567": {
    "postcode": "0178567",
    "prefecture": "秋田県",
    "prefecture_kana": "アキタケン",
    "prefecture_code": 5,
    "city": "大館市",
    "city_kana": "オオダテシ",
    "town": "御成町",
    "town_kana": "オナリチョウ",
    "street": "２丁目３−３８",
    "office_name": "日本政策金融公庫　大館支店",
    "office_name_kana": "ニツポンセイサクキンユウコウコ オオダテシテン"
  },
  "8585": {
    "postcode": "0178585",
    "prefecture": "秋田県",
    "prefecture_kana": "アキタケン",
    "prefecture_code": 5,
    "city": "大館市",
    "city_kana": "オオダテシ",
    "town": "御成町",
    "town_kana": "オナリチョウ",
    "street": "１丁目１１−２５",
    "office_name": "秋北バス　株式会社",
    "office_name_kana": "シユウホクバス カブシキカイシヤ"
  },
  "8686": {
    "postcode": "0178686",
    "prefecture": "秋田県",
    "prefecture_kana": "アキタケン",
    "prefecture_code": 5,
    "city": "大館市",
    "city_kana": "オオダテシ",
    "town": "赤館町",
    "town_kana": "アカダテチョウ",
    "street": "２−１６",
    "office_name": "大館　税務署",
    "office_name_kana": "オオダテ ゼイムシヨ"
  }
}