{
  "0101": {
    "postcode": "0180101",
    "prefecture": "秋田県",
    "prefecture_kana": "アキタケン",
    "prefecture_code": 5,
    "city": "にかほ市",
    "city_kana": "ニカホシ",
    "town": "象潟町浜山",
    "town_kana": "キサカタマチハマヤマ",
    "street": null,
    "office_name": null,
    "office_name_kana": null
  },
  "0102": {
    "postcode": "0180102",
    "prefecture": "秋田県",
    "prefecture_kana": "アキタケン",
    "prefecture_code": 5,
    "city": "にかほ市",
    "city_kana": "ニカホシ",
    "town": "象潟町木戸口",
    "town_kana": "キサカタマチキドグチ",
    "street": null,
    "office_name": null,
    "office_name_kana": null
  },
  "0103": {
    "postcode": "0180103",
    "prefecture": "秋田県",
    "prefecture_kana": "アキタケン",
    "prefecture_code": 5,
    "city": "にかほ市",
    "city_kana": "ニカホシ",
    "town": "象潟町上狐森",
    "town_kana": "キサカタマチカミキツネモリ",
    "street": null,
    "office_name": null,
    "office_name_kana": null
  },
  "0104": {
    "postcode": "0180104",
    "prefecture": "秋田県",
    "prefecture_kana": "アキタケン",
    "prefecture_code": 5,
    "city": "にかほ市",
    "city_kana": "ニカホシ",
    "town": "象潟町狐森",
    "town_kana": "キサカタマチキツネモリ",
    "street": null,
    "office_name": null,
    "office_name_kana": null
  },
  "0105": {
    "postcode": "0180105",
    "prefecture": "秋田県",
    "prefecture_kana": "アキタケン",
    "prefecture_code": 5,
    "city": "にかほ市",
    "city_kana": "ニカホシ",
    "town": "象潟町荒屋妻",
    "town_kana": "キサカタマチアラヤヅマ",
    "street": null,
    "office_name": null,
    "office_name_kana": null
  },
  "0106": {
    "postcode": "0180106",
    "prefecture": "秋田県",
    "prefecture_kana": "アキタケン",
    "prefecture_code": 5,
    "city": "にかほ市",
    "city_kana": "ニカホシ",
    "town": "象潟町５丁目塩越",
    "town_kana": "キサカタマチ5チョウメシオコシ",
    "street": null,
    "office_name": null,
    "office_name_kana": null
  },
  "0107": {
    "postcode": "0180107",
    "prefecture": "秋田県",
    "prefecture_kana": "アキタケン",
    "prefecture_code": 5,
    "city": "にかほ市",
    "city_kana": "ニカホシ",
    "town": "象潟町荒屋下",
    "town_kana": "キサカタマチアラヤシタ",
    "street": null,
    "office_name": null,
    "office_name_kana": null
  },
  "0108": {
    "postcode": "0180108",
    "prefecture": "秋田県",
    "prefecture_kana": "アキタケン",
    "prefecture_code": 5,
    "city": "にかほ市",
    "city_kana": "ニカホシ",
    "town": "象潟町入湖の澗",
    "town_kana": "キサカタマチイリコノマ",
    "street": null,
    "office_name": null,
    "office_name_kana": null
  },
  "0109": {
    "postcode": "0180109",
    "prefecture": "秋田県",
    "prefecture_kana": "アキタケン",
    "prefecture_code": 5,
    "city": "にかほ市",
    "city_kana": "ニカホシ",
    "town": "象潟町冠石下",
    "town_kana": "キサカタマチカンムリイシシタ",
    "street": null,
    "office_name": null,
    "office_name_kana": null
  },
  "0111": {
    "postcode": "0180111",
    "prefecture": "秋田県",
    "prefecture_kana": "アキタケン",
    "prefecture_code": 5,
    "city": "にかほ市",
    "city_kana": "ニカホシ",
    "town": "象潟町武道島",
    "town_kana": "キサカタマチブドウジマ",
    "street": null,
    "office_name": null,
    "office_name_kana": null
  },
  "0112": {
    "postcode": "0180112",
    "prefecture": "秋田県",
    "prefecture_kana": "アキタケン",
    "prefecture_code": 5,
    "city": "にかほ市",
    "city_kana": "ニカホシ",
    "town": "象潟町家の後",
    "town_kana": "キサカタマチイエノウシロ",
    "street": null,
    "office_name": null,
    "office_name_kana": null
  },
  "0113": {
    "postcode": "0180113",
    "prefecture": "秋田県",
    "prefecture_kana": "アキタケン",
    "prefecture_code": 5,
    "city": "にかほ市",
    "city_kana": "ニカホシ",
    "town": "象潟町浜の田",
    "town_kana": "キサカタマチハマノタ",
    "street": null,
    "office_name": null,
    "office_name_kana": null
  },
  "0114": {
    "postcode": "0180114",
    "prefecture": "秋田県",
    "prefecture_kana": "アキタケン",
    "prefecture_code": 5,
    "city": "にかほ市",
    "city_kana": "ニカホシ",
    "town": "象潟町沖の田",
    "town_kana": "キサカタマチオキノタ",
    "street": null,
    "office_name": null,
    "office_name_kana": null
  },
  "0115": {
    "postcode": "0180115",
    "prefecture": "秋田県",
    "prefecture_kana": "アキタケン",
    "prefecture_code": 5,
    "city": "にかほ市",
    "city_kana": "ニカホシ",
    "town": "象潟町後田",
    "town_kana": "キサカタマチウシロダ",
    "street": null,
    "office_name": null,
    "office_name_kana": null
  },
  "0116": {
    "postcode": "0180116",
    "prefecture": "秋田県",
    "prefecture_kana": "アキタケン",
    "prefecture_code": 5,
    "city": "にかほ市",
    "city_kana": "ニカホシ",
    "town": "象潟町４丁目塩越",
    "town_kana": "キサカタマチ4チョウメシオコシ",
    "street": null,
    "office_name": null,
    "office_name_kana": null
  },
  "0117": {
    "postcode": "0180117",
    "prefecture": "秋田県",
    "prefecture_kana": "アキタケン",
    "prefecture_code": 5,
    "city": "にかほ市",
    "city_kana": "ニカホシ",
    "town": "象潟町浜畑",
    "town_kana": "キサカタマチハマハタ",
    "street": null,
    "office_name": null,
    "office_name_kana": null
  },
  "0118": {
    "postcode": "0180118",
    "prefecture": "秋田県",
    "prefecture_kana": "アキタケン",
    "prefecture_code": 5,
    "city": "にかほ市",
    "city_kana": "ニカホシ",
    "town": "象潟町２丁目塩越",
    "town_kana": "キサカタマチ2チョウメシオコシ",
    "street": null,
    "office_name": null,
    "office_name_kana": null
  },
  "0119": {
    "postcode": "0180119",
    "prefecture": "秋田県",
    "prefecture_kana": "アキタケン",
    "prefecture_code": 5,
    "city": "にかほ市",
    "city_kana": "ニカホシ",
    "town": "象潟町３丁目塩越",
    "town_kana": "キサカタマチ3チョウメシオコシ",
    "street": null,
    "office_name": null,
    "office_name_kana": null
  },
  "0121": {
    "postcode": "0180121",
    "prefecture": "秋田県",
    "prefecture_kana": "アキタケン",
    "prefecture_code": 5,
    "city": "にかほ市",
    "city_kana": "ニカホシ",
    "town": "象潟町大塩越",
    "town_kana": "キサカタマチオオシオコシ",
    "street": null,
    "office_name": null,
    "office_name_kana": null
  },
  "0122": {
    "postcode": "0180122",
    "prefecture": "秋田県",
    "prefecture_kana": "アキタケン",
    "prefecture_code": 5,
    "city": "にかほ市",
    "city_kana": "ニカホシ",
    "town": "象潟町象潟島",
    "town_kana": "キサカタマチキサカタジマ",
    "street": null,
    "office_name": null,
    "office_name_kana": null
  },
  "0123": {
    "postcode": "0180123",
    "prefecture": "秋田県",
    "prefecture_kana": "アキタケン",
    "prefecture_code": 5,
    "city": "にかほ市",
    "city_kana": "ニカホシ",
    "town": "象潟町妙見下",
    "town_kana": "キサカタマチミョウケンシタ",
    "street": null,
    "office_name": null,
    "office_name_kana": null
  },
  "0124": {
    "postcode": "0180124",
    "prefecture": "秋田県",
    "prefecture_kana": "アキタケン",
    "prefecture_code": 5,
    "city": "にかほ市",
    "city_kana": "ニカホシ",
    "town": "象潟町入道島",
    "town_kana": "キサカタマチニュウドウジマ",
    "street": null,
    "office_name": null,
    "office_name_kana": null
  },
  "0125": {
    "postcode": "0180125",
    "prefecture": "秋田県",
    "prefecture_kana": "アキタケン",
    "prefecture_code": 5,
    "city": "にかほ市",
    "city_kana": "ニカホシ",
    "town": "象潟町二の丸",
    "town_kana": "キサカタマチニノマル",
    "street": null,
    "office_name": null,
    "office_name_kana": null
  },
  "0126": {
    "postcode": "0180126",
    "prefecture": "秋田県",
    "prefecture_kana": "アキタケン",
    "prefecture_code": 5,
    "city": "にかほ市",
    "city_kana": "ニカホシ",
    "town": "象潟町１丁目塩越",
    "town_kana": "キサカタマチ1チョウメシオコシ",
    "street": null,
    "office_name": null,
    "office_name_kana": null
  },
  "0127": {
    "postcode": "0180127",
    "prefecture": "秋田県",
    "prefecture_kana": "アキタケン",
    "prefecture_code": 5,
    "city": "にかほ市",
    "city_kana": "ニカホシ",
    "town": "象潟町中橋町",
    "town_kana": "キサカタマチナカバシマチ",
    "street": null,
    "office_name": null,
    "office_name_kana": null
  },
  "0128": {
    "postcode": "0180128",
    "prefecture": "秋田県",
    "prefecture_kana": "アキタケン",
    "prefecture_code": 5,
    "city": "にかほ市",
    "city_kana": "ニカホシ",
    "town": "象潟町太郎島",
    "town_kana": "キサカタマチタロウジマ",
    "street": null,
    "office_name": null,
    "office_name_kana": null
  },
  "0129": {
    "postcode": "0180129",
    "prefecture": "秋田県",
    "prefecture_kana": "アキタケン",
    "prefecture_code": 5,
    "city": "にかほ市",
    "city_kana": "ニカホシ",
    "town": "象潟町才の神",
    "town_kana": "キサカタマチサイノカミ",
    "street": null,
    "office_name": null,
    "office_name_kana": null
  },
  "0131": {
    "postcode": "0180131",
    "prefecture": "秋田県",
    "prefecture_kana": "アキタケン",
    "prefecture_code": 5,
    "city": "にかほ市",
    "city_kana": "ニカホシ",
    "town": "象潟町大谷地",
    "town_kana": "キサカタマチオオヤチ",
    "street": null,
    "office_name": null,
    "office_name_kana": null
  },
  "0132": {
    "postcode": "0180132",
    "prefecture": "秋田県",
    "prefecture_kana": "アキタケン",
    "prefecture_code": 5,
    "city": "にかほ市",
    "city_kana": "ニカホシ",
    "town": "象潟町鳥の海",
    "town_kana": "キサカタマチトリノウミ",
    "street": null,
    "office_name": null,
    "office_name_kana": null
  },
  "0133": {
    "postcode": "0180133",
    "prefecture": "秋田県",
    "prefecture_kana": "アキタケン",
    "prefecture_code": 5,
    "city": "にかほ市",
    "city_kana": "ニカホシ",
    "town": "象潟町関",
    "town_kana": "キサカタマチセキ",
    "street": null,
    "office_name": null,
    "office_name_kana": null
  },
  "0134": {
    "postcode": "0180134",
    "prefecture": "秋田県",
    "prefecture_kana": "アキタケン",
    "prefecture_code": 5,
    "city": "にかほ市",
    "city_kana": "ニカホシ",
    "town": "象潟町西中野沢",
    "town_kana": "キサカタマチニシナカノサワ",
    "street": null,
    "office_name": null,
    "office_name_kana": null
  },
  "0135": {
    "postcode": "0180135",
    "prefecture": "秋田県",
    "prefecture_kana": "アキタケン",
    "prefecture_code": 5,
    "city": "にかほ市",
    "city_kana": "ニカホシ",
    "town": "象潟町洗釜",
    "town_kana": "キサカタマチアライガマ",
    "street": null,
    "office_name": null,
    "office_name_kana": null
  },
  "0136": {
    "postcode": "0180136",
    "prefecture": "秋田県",
    "prefecture_kana": "アキタケン",
    "prefecture_code": 5,
    "city": "にかほ市",
    "city_kana": "ニカホシ",
    "town": "象潟町大砂川",
    "town_kana": "キサカタマチオオサガワ",
    "street": null,
    "office_name": null,
    "office_name_kana": null
  },
  "0141": {
    "postcode": "0180141",
    "prefecture": "秋田県",
    "prefecture_kana": "アキタケン",
    "prefecture_code": 5,
    "city": "にかほ市",
    "city_kana": "ニカホシ",
    "town": "象潟町川袋",
    "town_kana": "キサカタマチカワフクロ",
    "street": null,
    "office_name": null,
    "office_name_kana": null
  },
  "0142": {
    "postcode": "0180142",
    "prefecture": "秋田県",
    "prefecture_kana": "アキタケン",
    "prefecture_code": 5,
    "city": "にかほ市",
    "city_kana": "ニカホシ",
    "town": "象潟町大須郷",
    "town_kana": "キサカタマチオオスゴウ",
    "street": null,
    "office_name": null,
    "office_name_kana": null
  },
  "0143": {
    "postcode": "0180143",
    "prefecture": "秋田県",
    "prefecture_kana": "アキタケン",
    "prefecture_code": 5,
    "city": "にかほ市",
    "city_kana": "ニカホシ",
    "town": "象潟町小砂川",
    "town_kana": "キサカタマチコサガワ",
    "street": null,
    "office_name": null,
    "office_name_kana": null
  },
  "0144": {
    "postcode": "0180144",
    "prefecture": "秋田県",
    "prefecture_kana": "アキタケン",
    "prefecture_code": 5,
    "city": "にかほ市",
    "city_kana": "ニカホシ",
    "town": "象潟町中谷地",
    "town_kana": "キサカタマチナカヤチ",
    "street": null,
    "office_name": null,
    "office_name_kana": null
  },
  "0145": {
    "postcode": "0180145",
    "prefecture": "秋田県",
    "prefecture_kana": "アキタケン",
    "prefecture_code": 5,
    "city": "にかほ市",
    "city_kana": "ニカホシ",
    "town": "象潟町源蔵潟",
    "town_kana": "キサカタマチゲンゾウガタ",
    "street": null,
    "office_name": null,
    "office_name_kana": null
  },
  "0146": {
    "postcode": "0180146",
    "prefecture": "秋田県",
    "prefecture_kana": "アキタケン",
    "prefecture_code": 5,
    "city": "にかほ市",
    "city_kana": "ニカホシ",
    "town": "象潟町蒲谷地",
    "town_kana": "キサカタマチカバヤチ",
    "street": null,
    "office_name": null,
    "office_name_kana": null
  },
  "0147": {
    "postcode": "0180147",
    "prefecture": "秋田県",
    "prefecture_kana": "アキタケン",
    "prefecture_code": 5,
    "city": "にかほ市",
    "city_kana": "ニカホシ",
    "town": "象潟町立石",
    "town_kana": "キサカタマチタテイシ",
    "street": null,
    "office_name": null,
    "office_name_kana": null
  },
  "0148": {
    "postcode": "0180148",
    "prefecture": "秋田県",
    "prefecture_kana": "アキタケン",
    "prefecture_code": 5,
    "city": "にかほ市",
    "city_kana": "ニカホシ",
    "town": "象潟町下浜山",
    "town_kana": "キサカタマチシモハマヤマ",
    "street": null,
    "office_name": null,
    "office_name_kana": null
  },
  "0149": {
    "postcode": "0180149",
    "prefecture": "秋田県",
    "prefecture_kana": "アキタケン",
    "prefecture_code": 5,
    "city": "にかほ市",
    "city_kana": "ニカホシ",
    "town": "象潟町上谷地",
    "town_kana": "キサカタマチカミヤチ",
    "street": null,
    "office_name": null,
    "office_name_kana": null
  },
  "0151": {
    "postcode": "0180151",
    "prefecture": "秋田県",
    "prefecture_kana": "アキタケン",
    "prefecture_code": 5,
    "city": "にかほ市",
    "city_kana": "ニカホシ",
    "town": "象潟町横岡",
    "town_kana": "キサカタマチヨコオカ",
    "street": null,
    "office_name": null,
    "office_name_kana": null
  },
  "0152": {
    "postcode": "0180152",
    "prefecture": "秋田県",
    "prefecture_kana": "アキタケン",
    "prefecture_code": 5,
    "city": "にかほ市",
    "city_kana": "ニカホシ",
    "town": "象潟町本郷",
    "town_kana": "キサカタマチホンゴウ",
    "street": null,
    "office_name": null,
    "office_name_kana": null
  },
  "0153": {
    "postcode": "0180153",
    "prefecture": "秋田県",
    "prefecture_kana": "アキタケン",
    "prefecture_code": 5,
    "city": "にかほ市",
    "city_kana": "ニカホシ",
    "town": "象潟町小滝",
    "town_kana": "キサカタマチコダキ",
    "street": null,
    "office_name": null,
    "office_name_kana": null
  },
  "0154": {
    "postcode": "0180154",
    "prefecture": "秋田県",
    "prefecture_kana": "アキタケン",
    "prefecture_code": 5,
    "city": "にかほ市",
    "city_kana": "ニカホシ",
    "town": "象潟町二階谷地",
    "town_kana": "キサカタマチニカイヤチ",
    "street": null,
    "office_name": null,
    "office_name_kana": null
  },
  "0155": {
    "postcode": "0180155",
    "prefecture": "秋田県",
    "prefecture_kana": "アキタケン",
    "prefecture_code": 5,
    "city": "にかほ市",
    "city_kana": "ニカホシ",
    "town": "象潟町弁天島",
    "town_kana": "キサカタマチベンテンジマ",
    "street": null,
    "office_name": null,
    "office_name_kana": null
  },
  "0156": {
    "postcode": "0180156",
    "prefecture": "秋田県",
    "prefecture_kana": "アキタケン",
    "prefecture_code": 5,
    "city": "にかほ市",
    "city_kana": "ニカホシ",
    "town": "象潟町大門先",
    "town_kana": "キサカタマチダイモンザキ",
    "street": null,
    "office_name": null,
    "office_name_kana": null
  },
  "0157": {
    "postcode": "0180157",
    "prefecture": "秋田県",
    "prefecture_kana": "アキタケン",
    "prefecture_code": 5,
    "city": "にかほ市",
    "city_kana": "ニカホシ",
    "town": "象潟町鷹放",
    "town_kana": "キサカタマチタカハナシ",
    "street": null,
    "office_name": null,
    "office_name_kana": null
  },
  "0158": {
    "postcode": "0180158",
    "prefecture": "秋田県",
    "prefecture_kana": "アキタケン",
    "prefecture_code": 5,
    "city": "にかほ市",
    "city_kana": "ニカホシ",
    "town": "象潟町琴和喜",
    "town_kana": "キサカタマチコトワキ",
    "street": null,
    "office_name": null,
    "office_name_kana": null
  },
  "0161": {
    "postcode": "0180161",
    "prefecture": "秋田県",
    "prefecture_kana": "アキタケン",
    "prefecture_code": 5,
    "city": "にかほ市",
    "city_kana": "ニカホシ",
    "town": "象潟町大飯郷",
    "town_kana": "キサカタマチダイハンゴウ",
    "street": null,
    "office_name": null,
    "office_name_kana": null
  },
  "0162": {
    "postcode": "0180162",
    "prefecture": "秋田県",
    "prefecture_kana": "アキタケン",
    "prefecture_code": 5,
    "city": "にかほ市",
    "city_kana": "ニカホシ",
    "town": "象潟町大森",
    "town_kana": "キサカタマチオオモリ",
    "street": null,
    "office_name": null,
    "office_name_kana": null
  },
  "0163": {
    "postcode": "0180163",
    "prefecture": "秋田県",
    "prefecture_kana": "アキタケン",
    "prefecture_code": 5,
    "city": "にかほ市",
    "city_kana": "ニカホシ",
    "town": "象潟町長岡",
    "town_kana": "キサカタマチナガオカ",
    "street": null,
    "office_name": null,
    "office_name_kana": null
  },
  "0164": {
    "postcode": "0180164",
    "prefecture": "秋田県",
    "prefecture_kana": "アキタケン",
    "prefecture_code": 5,
    "city": "にかほ市",
    "city_kana": "ニカホシ",
    "town": "象潟町丸山",
    "town_kana": "キサカタマチマルヤマ",
    "street": null,
    "office_name": null,
    "office_name_kana": null
  },
  "0165": {
    "postcode": "0180165",
    "prefecture": "秋田県",
    "prefecture_kana": "アキタケン",
    "prefecture_code": 5,
    "city": "にかほ市",
    "city_kana": "ニカホシ",
    "town": "象潟町狸森",
    "town_kana": "キサカタマチタヌキモリ",
    "street": null,
    "office_name": null,
    "office_name_kana": null
  },
  "0166": {
    "postcode": "0180166",
    "prefecture": "秋田県",
    "prefecture_kana": "アキタケン",
    "prefecture_code": 5,
    "city": "にかほ市",
    "city_kana": "ニカホシ",
    "town": "象潟町高田",
    "town_kana": "キサカタマチタカダ",
    "street": null,
    "office_name": null,
    "office_name_kana": null
  },
  "0167": {
    "postcode": "0180167",
    "prefecture": "秋田県",
    "prefecture_kana": "アキタケン",
    "prefecture_code": 5,
    "city": "にかほ市",
    "city_kana": "ニカホシ",
    "town": "象潟町田の神",
    "town_kana": "キサカタマチタノカミ",
    "street": null,
    "office_name": null,
    "office_name_kana": null
  },
  "0171": {
    "postcode": "0180171",
    "prefecture": "秋田県",
    "prefecture_kana": "アキタケン",
    "prefecture_code": 5,
    "city": "にかほ市",
    "city_kana": "ニカホシ",
    "town": "象潟町続島",
    "town_kana": "キサカタマチツヅキジマ",
    "street": null,
    "office_name": null,
    "office_name_kana": null
  },
  "0172": {
    "postcode": "0180172",
    "prefecture": "秋田県",
    "prefecture_kana": "アキタケン",
    "prefecture_code": 5,
    "city": "にかほ市",
    "city_kana": "ニカホシ",
    "town": "象潟町小才の神",
    "town_kana": "キサカタマチコサイノカミ",
    "street": null,
    "office_name": null,
    "office_name_kana": null
  },
  "0173": {
    "postcode": "0180173",
    "prefecture": "秋田県",
    "prefecture_kana": "アキタケン",
    "prefecture_code": 5,
    "city": "にかほ市",
    "city_kana": "ニカホシ",
    "town": "象潟町四隅池",
    "town_kana": "キサカタマチヨスミイケ",
    "street": null,
    "office_name": null,
    "office_name_kana": null
  },
  "0174": {
    "postcode": "0180174",
    "prefecture": "秋田県",
    "prefecture_kana": "アキタケン",
    "prefecture_code": 5,
    "city": "にかほ市",
    "city_kana": "ニカホシ",
    "town": "象潟町林の下",
    "town_kana": "キサカタマチハヤシノシタ",
    "street": null,
    "office_name": null,
    "office_name_kana": null
  },
  "0175": {
    "postcode": "0180175",
    "prefecture": "秋田県",
    "prefecture_kana": "アキタケン",
    "prefecture_code": 5,
    "city": "にかほ市",
    "city_kana": "ニカホシ",
    "town": "象潟町坂の下",
    "town_kana": "キサカタマチサカノシタ",
    "street": null,
    "office_name": null,
    "office_name_kana": null
  },
  "0176": {
    "postcode": "0180176",
    "prefecture": "秋田県",
    "prefecture_kana": "アキタケン",
    "prefecture_code": 5,
    "city": "にかほ市",
    "city_kana": "ニカホシ",
    "town": "象潟町横山",
    "town_kana": "キサカタマチヨコヤマ",
    "street": null,
    "office_name": null,
    "office_name_kana": null
  },
  "0181": {
    "postcode": "0180181",
    "prefecture": "秋田県",
    "prefecture_kana": "アキタケン",
    "prefecture_code": 5,
    "city": "にかほ市",
    "city_kana": "ニカホシ",
    "town": "象潟町白山堂",
    "town_kana": "キサカタマチシラヤマドウ",
    "street": null,
    "office_name": null,
    "office_name_kana": null
  },
  "0182": {
    "postcode": "0180182",
    "prefecture": "秋田県",
    "prefecture_kana": "アキタケン",
    "prefecture_code": 5,
    "city": "にかほ市",
    "city_kana": "ニカホシ",
    "town": "象潟町不動沢",
    "town_kana": "キサカタマチフドウサワ",
    "street": null,
    "office_name": null,
    "office_name_kana": null
  },
  "0183": {
    "postcode": "0180183",
    "prefecture": "秋田県",
    "prefecture_kana": "アキタケン",
    "prefecture_code": 5,
    "city": "にかほ市",
    "city_kana": "ニカホシ",
    "town": "象潟町小坂",
    "town_kana": "キサカタマチコサカ",
    "street": null,
    "office_name": null,
    "office_name_kana": null
  },
  "0184": {
    "postcode": "0180184",
    "prefecture": "秋田県",
    "prefecture_kana": "アキタケン",
    "prefecture_code": 5,
    "city": "にかほ市",
    "city_kana": "ニカホシ",
    "town": "象潟町上小坂",
    "town_kana": "キサカタマチカミコサカ",
    "street": null,
    "office_name": null,
    "office_name_kana": null
  },
  "0185": {
    "postcode": "0180185",
    "prefecture": "秋田県",
    "prefecture_kana": "アキタケン",
    "prefecture_code": 5,
    "city": "にかほ市",
    "city_kana": "ニカホシ",
    "town": "象潟町屋敷田",
    "town_kana": "キサカタマチヤシキダ",
    "street": null,
    "office_name": null,
    "office_name_kana": null
  },
  "0186": {
    "postcode": "0180186",
    "prefecture": "秋田県",
    "prefecture_kana": "アキタケン",
    "prefecture_code": 5,
    "city": "にかほ市",
    "city_kana": "ニカホシ",
    "town": "象潟町能因島",
    "town_kana": "キサカタマチノウインジマ",
    "street": null,
    "office_name": null,
    "office_name_kana": null
  },
  "0187": {
    "postcode": "0180187",
    "prefecture": "秋田県",
    "prefecture_kana": "アキタケン",
    "prefecture_code": 5,
    "city": "にかほ市",
    "city_kana": "ニカホシ",
    "town": "象潟町小烏島",
    "town_kana": "キサカタマチコガラスジマ",
    "street": null,
    "office_name": null,
    "office_name_kana": null
  },
  "0188": {
    "postcode": "0180188",
    "prefecture": "秋田県",
    "prefecture_kana": "アキタケン",
    "prefecture_code": 5,
    "city": "にかほ市",
    "city_kana": "ニカホシ",
    "town": "象潟町烏島",
    "town_kana": "キサカタマチカラスジマ",
    "street": null,
    "office_name": null,
    "office_name_kana": null
  },
  "0192": {
    "postcode": "0180192",
    "prefecture": "秋田県",
    "prefecture_kana": "アキタケン",
    "prefecture_code": 5,
    "city": "にかほ市",
    "city_kana": "ニカホシ",
    "town": "象潟町",
    "town_kana": null,
    "street": "字浜ノ田１",
    "office_name": "にかほ市役所　象潟庁舎",
    "office_name_kana": "ニカホシヤクシヨ キサカタチヨウシヤ"
  },
  "0301": {
    "postcode": "0180301",
    "prefecture": "秋田県",
    "prefecture_kana": "アキタケン",
    "prefecture_code": 5,
    "city": "にかほ市",
    "city_kana": "ニカホシ",
    "town": "飛",
    "town_kana": "トビ",
    "street": null,
    "office_name": null,
    "office_name_kana": null
  },
  "0302": {
    "postcode": "0180302",
    "prefecture": "秋田県",
    "prefecture_kana": "アキタケン",
    "prefecture_code": 5,
    "city": "にかほ市",
    "city_kana": "ニカホシ",
    "town": "黒川",
    "town_kana": "クロカワ",
    "street": null,
    "office_name": null,
    "office_name_kana": null
  },
  "0311": {
    "postcode": "0180311",
    "prefecture": "秋田県",
    "prefecture_kana": "アキタケン",
    "prefecture_code": 5,
    "city": "にかほ市",
    "city_kana": "ニカホシ",
    "town": "金浦",
    "town_kana": "コノウラ",
    "street": null,
    "office_name": null,
    "office_name_kana": null
  },
  "0321": {
    "postcode": "0180321",
    "prefecture": "秋田県",
    "prefecture_kana": "アキタケン",
    "prefecture_code": 5,
    "city": "にかほ市",
    "city_kana": "ニカホシ",
    "town": "前川",
    "town_kana": "マエカワ",
    "street": null,
    "office_name": null,
    "office_name_kana": null
  },
  "0322": {
    "postcode": "0180322",
    "prefecture": "秋田県",
    "prefecture_kana": "アキタケン",
    "prefecture_code": 5,
    "city": "にかほ市",
    "city_kana": "ニカホシ",
    "town": "大竹",
    "town_kana": "オオタケ",
    "street": null,
    "office_name": null,
    "office_name_kana": null
  },
  "0400": {
    "postcode": "0180400",
    "prefecture": "秋田県",
    "prefecture_kana": "アキタケン",
    "prefecture_code": 5,
    "city": "にかほ市",
    "city_kana": "ニカホシ",
    "town": "",
    "town_kana": "",
    "street": null,
    "office_name": null,
    "office_name_kana": null
  },
  "0401": {
    "postcode": "0180401",
    "prefecture": "秋田県",
    "prefecture_kana": "アキタケン",
    "prefecture_code": 5,
    "city": "にかほ市",
    "city_kana": "ニカホシ",
    "town": "両前寺",
    "town_kana": "リョウゼンジ",
    "street": null,
    "office_name": null,
    "office_name_kana": null
  },
  "0402": {
    "postcode": "0180402",
    "prefecture": "秋田県",
    "prefecture_kana": "アキタケン",
    "prefecture_code": 5,
    "city": "にかほ市",
    "city_kana": "ニカホシ",
    "town": "平沢",
    "town_kana": "ヒラサワ",
    "street": null,
    "office_name": null,
    "office_name_kana": null
  },
  "0403": {
    "postcode": "0180403",
    "prefecture": "秋田県",
    "prefecture_kana": "アキタケン",
    "prefecture_code": 5,
    "city": "にかほ市",
    "city_kana": "ニカホシ",
    "town": "三森",
    "town_kana": "ミツモリ",
    "street": null,
    "office_name": null,
    "office_name_kana": null
  },
  "0404": {
    "postcode": "0180404",
    "prefecture": "秋田県",
    "prefecture_kana": "アキタケン",
    "prefecture_code": 5,
    "city": "にかほ市",
    "city_kana": "ニカホシ",
    "town": "芹田",
    "town_kana": "セリダ",
    "street": null,
    "office_name": null,
    "office_name_kana": null
  },
  "0411": {
    "postcode": "0180411",
    "prefecture": "秋田県",
    "prefecture_kana": "アキタケン",
    "prefecture_code": 5,
    "city": "にかほ市",
    "city_kana": "ニカホシ",
    "town": "院内",
    "town_kana": "インナイ",
    "street": null,
    "office_name": null,
    "office_name_kana": null
  },
  "0412": {
    "postcode": "0180412",
    "prefecture": "秋田県",
    "prefecture_kana": "アキタケン",
    "prefecture_code": 5,
    "city": "にかほ市",
    "city_kana": "ニカホシ",
    "town": "小国",
    "town_kana": "オグニ",
    "street": null,
    "office_name": null,
    "office_name_kana": null
  },
  "0413": {
    "postcode": "0180413",
    "prefecture": "秋田県",
    "prefecture_kana": "アキタケン",
    "prefecture_code": 5,
    "city": "にかほ市",
    "city_kana": "ニカホシ",
    "town": "馬場",
    "town_kana": "ババ",
    "street": null,
    "office_name": null,
    "office_name_kana": null
  },
  "0414": {
    "postcode": "0180414",
    "prefecture": "秋田県",
    "prefecture_kana": "アキタケン",
    "prefecture_code": 5,
    "city": "にかほ市",
    "city_kana": "ニカホシ",
    "town": "田抓",
    "town_kana": "タヅカミ",
    "street": null,
    "office_name": null,
    "office_name_kana": null
  },
  "0421": {
    "postcode": "0180421",
    "prefecture": "秋田県",
    "prefecture_kana": "アキタケン",
    "prefecture_code": 5,
    "city": "にかほ市",
    "city_kana": "ニカホシ",
    "town": "釜ケ台",
    "town_kana": "カマガタイ",
    "street": null,
    "office_name": null,
    "office_name_kana": null
  },
  "0422": {
    "postcode": "0180422",
    "prefecture": "秋田県",
    "prefecture_kana": "アキタケン",
    "prefecture_code": 5,
    "city": "にかほ市",
    "city_kana": "ニカホシ",
    "town": "冬師",
    "town_kana": "トウシ",
    "street": null,
    "office_name": null,
    "office_name_kana": null
  },
  "0431": {
    "postcode": "0180431",
    "prefecture": "秋田県",
    "prefecture_kana": "アキタケン",
    "prefecture_code": 5,
    "city": "にかほ市",
    "city_kana": "ニカホシ",
    "town": "伊勢居地",
    "town_kana": "イセイジ",
    "street": null,
    "office_name": null,
    "office_name_kana": null
  },
  "0432": {
    "postcode": "0180432",
    "prefecture": "秋田県",
    "prefecture_kana": "アキタケン",
    "prefecture_code": 5,
    "city": "にかほ市",
    "city_kana": "ニカホシ",
    "town": "水沢",
    "town_kana": "ミズサワ",
    "street": null,
    "office_name": null,
    "office_name_kana": null
  },
  "0433": {
    "postcode": "0180433",
    "prefecture": "秋田県",
    "prefecture_kana": "アキタケン",
    "prefecture_code": 5,
    "city": "にかほ市",
    "city_kana": "ニカホシ",
    "town": "畑",
    "town_kana": "ハタ",
    "street": null,
    "office_name": null,
    "office_name_kana": null
  },
  "0434": {
    "postcode": "0180434",
    "prefecture": "秋田県",
    "prefecture_kana": "アキタケン",
    "prefecture_code": 5,
    "city": "にかほ市",
    "city_kana": "ニカホシ",
    "town": "寺田",
    "town_kana": "テラダ",
    "street": null,
    "office_name": null,
    "office_name_kana": null
  },
  "0435": {
    "postcode": "0180435",
    "prefecture": "秋田県",
    "prefecture_kana": "アキタケン",
    "prefecture_code": 5,
    "city": "にかほ市",
    "city_kana": "ニカホシ",
    "town": "中三地",
    "town_kana": "ナカサンチ",
    "street": null,
    "office_name": null,
    "office_name_kana": null
  },
  "0436": {
    "postcode": "0180436",
    "prefecture": "秋田県",
    "prefecture_kana": "アキタケン",
    "prefecture_code": 5,
    "city": "にかほ市",
    "city_kana": "ニカホシ",
    "town": "樋目野",
    "town_kana": "ヒメノ",
    "street": null,
    "office_name": null,
    "office_name_kana": null
  },
  "0492": {
    "postcode": "0180492",
    "prefecture": "秋田県",
    "prefecture_kana": "アキタケン",
    "prefecture_code": 5,
    "city": "にかほ市",
    "city_kana": "ニカホシ",
    "town": "平沢",
    "town_kana": "ヒラサワ",
    "street": "字鳥ノ子渕２１",
    "office_name": "にかほ市役所　仁賀保庁舎",
    "office_name_kana": "ニカホシヤクシヨ ニカホチヨウシヤ"
  },
  "0493": {
    "postcode": "0180493",
    "prefecture": "秋田県",
    "prefecture_kana": "アキタケン",
    "prefecture_code": 5,
    "city": "にかほ市",
    "city_kana": "ニカホシ",
    "town": "平沢",
    "town_kana": "ヒラサワ",
    "street": "字画書面１５",
    "office_name": "ＴＤＫ　株式会社　秋田地区",
    "office_name_kana": "テイ-デイ-ケイ カブシキガイシヤ アキタチク"
  },
  "0601": {
    "postcode": "0180601",
    "prefecture": "秋田県",
    "prefecture_kana": "アキタケン",
    "prefecture_code": 5,
    "city": "由利本荘市",
    "city_kana": "ユリホンジョウシ",
    "town": "西目町海士剥",
    "town_kana": "ニシメマチアマハギ",
    "street": null,
    "office_name": null,
    "office_name_kana": null
  },
  "0602": {
    "postcode": "0180602",
    "prefecture": "秋田県",
    "prefecture_kana": "アキタケン",
    "prefecture_code": 5,
    "city": "由利本荘市",
    "city_kana": "ユリホンジョウシ",
    "town": "西目町出戸",
    "town_kana": "ニシメマチデト",
    "street": null,
    "office_name": null,
    "office_name_kana": null
  },
  "0603": {
    "postcode": "0180603",
    "prefecture": "秋田県",
    "prefecture_kana": "アキタケン",
    "prefecture_code": 5,
    "city": "由利本荘市",
    "city_kana": "ユリホンジョウシ",
    "town": "西目町西目",
    "town_kana": "ニシメマチニシメ",
    "street": null,
    "office_name": null,
    "office_name_kana": null
  },
  "0604": {
    "postcode": "0180604",
    "prefecture": "秋田県",
    "prefecture_kana": "アキタケン",
    "prefecture_code": 5,
    "city": "由利本荘市",
    "city_kana": "ユリホンジョウシ",
    "town": "西目町沼田",
    "town_kana": "ニシメマチヌマタ",
    "street": null,
    "office_name": null,
    "office_name_kana": null
  },
  "0692": {
    "postcode": "0180692",
    "prefecture": "秋田県",
    "prefecture_kana": "アキタケン",
    "prefecture_code": 5,
    "city": "由利本荘市",
    "city_kana": "ユリホンジョウシ",
    "town": "西目町沼田",
    "town_kana": "ニシメマチヌマタ",
    "street": "字弁天前４０−６１",
    "office_name": "由利本荘市役所　西目総合支所",
    "office_name_kana": "ユリホンジヨウシヤクシヨ ニシメソウゴウシシヨ"
  },
  "0711": {
    "postcode": "0180711",
    "prefecture": "秋田県",
    "prefecture_kana": "アキタケン",
    "prefecture_code": 5,
    "city": "由利本荘市",
    "city_kana": "ユリホンジョウシ",
    "town": "岩谷町",
    "town_kana": "イワヤマチ",
    "street": null,
    "office_name": null,
    "office_name_kana": null
  },
  "0721": {
    "postcode": "0180721",
    "prefecture": "秋田県",
    "prefecture_kana": "アキタケン",
    "prefecture_code": 5,
    "city": "由利本荘市",
    "city_kana": "ユリホンジョウシ",
    "town": "大谷",
    "town_kana": "オオタニ",
    "street": null,
    "office_name": null,
    "office_name_kana": null
  },
  "0722": {
    "postcode": "0180722",
    "prefecture": "秋田県",
    "prefecture_kana": "アキタケン",
    "prefecture_code": 5,
    "city": "由利本荘市",
    "city_kana": "ユリホンジョウシ",
    "town": "中館",
    "town_kana": "ナカダテ",
    "street": null,
    "office_name": null,
    "office_name_kana": null
  },
  "0723": {
    "postcode": "0180723",
    "prefecture": "秋田県",
    "prefecture_kana": "アキタケン",
    "prefecture_code": 5,
    "city": "由利本荘市",
    "city_kana": "ユリホンジョウシ",
    "town": "牛寺",
    "town_kana": "ウシデラ",
    "street": null,
    "office_name": null,
    "office_name_kana": null
  },
  "0724": {
    "postcode": "0180724",
    "prefecture": "秋田県",
    "prefecture_kana": "アキタケン",
    "prefecture_code": 5,
    "city": "由利本荘市",
    "city_kana": "ユリホンジョウシ",
    "town": "深沢",
    "town_kana": "フカサワ",
    "street": null,
    "office_name": null,
    "office_name_kana": null
  },
  "0725": {
    "postcode": "0180725",
    "prefecture": "秋田県",
    "prefecture_kana": "アキタケン",
    "prefecture_code": 5,
    "city": "由利本荘市",
    "city_kana": "ユリホンジョウシ",
    "town": "米坂",
    "town_kana": "ヨネザカ",
    "street": null,
    "office_name": null,
    "office_name_kana": null
  },
  "0726": {
    "postcode": "0180726",
    "prefecture": "秋田県",
    "prefecture_kana": "アキタケン",
    "prefecture_code": 5,
    "city": "由利本荘市",
    "city_kana": "ユリホンジョウシ",
    "town": "岩谷麓",
    "town_kana": "イワヤフモト",
    "street": null,
    "office_name": null,
    "office_name_kana": null
  },
  "0731": {
    "postcode": "0180731",
    "prefecture": "秋田県",
    "prefecture_kana": "アキタケン",
    "prefecture_code": 5,
    "city": "由利本荘市",
    "city_kana": "ユリホンジョウシ",
    "town": "大内三川",
    "town_kana": "オオウチサンカワ",
    "street": null,
    "office_name": null,
    "office_name_kana": null
  },
  "0732": {
    "postcode": "0180732",
    "prefecture": "秋田県",
    "prefecture_kana": "アキタケン",
    "prefecture_code": 5,
    "city": "由利本荘市",
    "city_kana": "ユリホンジョウシ",
    "town": "徳沢",
    "town_kana": "トクサワ",
    "street": null,
    "office_name": null,
    "office_name_kana": null
  },
  "0733": {
    "postcode": "0180733",
    "prefecture": "秋田県",
    "prefecture_kana": "アキタケン",
    "prefecture_code": 5,
    "city": "由利本荘市",
    "city_kana": "ユリホンジョウシ",
    "town": "大倉沢",
    "town_kana": "オオクラザワ",
    "street": null,
    "office_name": null,
    "office_name_kana": null
  },
  "0734": {
    "postcode": "0180734",
    "prefecture": "秋田県",
    "prefecture_kana": "アキタケン",
    "prefecture_code": 5,
    "city": "由利本荘市",
    "city_kana": "ユリホンジョウシ",
    "town": "北福田",
    "town_kana": "キタフクダ",
    "street": null,
    "office_name": null,
    "office_name_kana": null
  },
  "0795": {
    "postcode": "0180795",
    "prefecture": "秋田県",
    "prefecture_kana": "アキタケン",
    "prefecture_code": 5,
    "city": "由利本荘市",
    "city_kana": "ユリホンジョウシ",
    "town": "岩谷町",
    "town_kana": "イワヤマチ",
    "street": "字日渡１００",
    "office_name": "由利本荘市役所　大内総合支所",
    "office_name_kana": "ユリホンジヨウシヤクシヨ オオウチソウゴウシシヨ"
  },
  "0841": {
    "postcode": "0180841",
    "prefecture": "秋田県",
    "prefecture_kana": "アキタケン",
    "prefecture_code": 5,
    "city": "由利本荘市",
    "city_kana": "ユリホンジョウシ",
    "town": "加賀沢",
    "town_kana": "カガサワ",
    "street": null,
    "office_name": null,
    "office_name_kana": null
  },
  "0842": {
    "postcode": "0180842",
    "prefecture": "秋田県",
    "prefecture_kana": "アキタケン",
    "prefecture_code": 5,
    "city": "由利本荘市",
    "city_kana": "ユリホンジョウシ",
    "town": "新沢",
    "town_kana": "シンサワ",
    "street": null,
    "office_name": null,
    "office_name_kana": null
  },
  "0843": {
    "postcode": "0180843",
    "prefecture": "秋田県",
    "prefecture_kana": "アキタケン",
    "prefecture_code": 5,
    "city": "由利本荘市",
    "city_kana": "ユリホンジョウシ",
    "town": "中帳",
    "town_kana": "ナカチョウ",
    "street": null,
    "office_name": null,
    "office_name_kana": null
  },
  "0844": {
    "postcode": "0180844",
    "prefecture": "秋田県",
    "prefecture_kana": "アキタケン",
    "prefecture_code": 5,
    "city": "由利本荘市",
    "city_kana": "ユリホンジョウシ",
    "town": "高尾",
    "town_kana": "タカオ",
    "street": null,
    "office_name": null,
    "office_name_kana": null
  },
  "0845": {
    "postcode": "0180845",
    "prefecture": "秋田県",
    "prefecture_kana": "アキタケン",
    "prefecture_code": 5,
    "city": "由利本荘市",
    "city_kana": "ユリホンジョウシ",
    "town": "中俣",
    "town_kana": "ナカノマタ",
    "street": null,
    "office_name": null,
    "office_name_kana": null
  },
  "0851": {
    "postcode": "0180851",
    "prefecture": "秋田県",
    "prefecture_kana": "アキタケン",
    "prefecture_code": 5,
    "city": "由利本荘市",
    "city_kana": "ユリホンジョウシ",
    "town": "平岫",
    "town_kana": "ヒラグキ",
    "street": null,
    "office_name": null,
    "office_name_kana": null
  },
  "0852": {
    "postcode": "0180852",
    "prefecture": "秋田県",
    "prefecture_kana": "アキタケン",
    "prefecture_code": 5,
    "city": "由利本荘市",
    "city_kana": "ユリホンジョウシ",
    "town": "葛岡",
    "town_kana": "クズオカ",
    "street": null,
    "office_name": null,
    "office_name_kana": null
  },
  "0853": {
    "postcode": "0180853",
    "prefecture": "秋田県",
    "prefecture_kana": "アキタケン",
    "prefecture_code": 5,
    "city": "由利本荘市",
    "city_kana": "ユリホンジョウシ",
    "town": "長坂",
    "town_kana": "ナガサカ",
    "street": null,
    "office_name": null,
    "office_name_kana": null
  },
  "0854": {
    "postcode": "0180854",
    "prefecture": "秋田県",
    "prefecture_kana": "アキタケン",
    "prefecture_code": 5,
    "city": "由利本荘市",
    "city_kana": "ユリホンジョウシ",
    "town": "及位",
    "town_kana": "ノゾキ",
    "street": null,
    "office_name": null,
    "office_name_kana": null
  },
  "0855": {
    "postcode": "0180855",
    "prefecture": "秋田県",
    "prefecture_kana": "アキタケン",
    "prefecture_code": 5,
    "city": "由利本荘市",
    "city_kana": "ユリホンジョウシ",
    "town": "松本",
    "town_kana": "マツモト",
    "street": null,
    "office_name": null,
    "office_name_kana": null
  },
  "0901": {
    "postcode": "0180901",
    "prefecture": "秋田県",
    "prefecture_kana": "アキタケン",
    "prefecture_code": 5,
    "city": "由利本荘市",
    "city_kana": "ユリホンジョウシ",
    "town": "中田代",
    "town_kana": "ナカタシロ",
    "street": null,
    "office_name": null,
    "office_name_kana": null
  },
  "0902": {
    "postcode": "0180902",
    "prefecture": "秋田県",
    "prefecture_kana": "アキタケン",
    "prefecture_code": 5,
    "city": "由利本荘市",
    "city_kana": "ユリホンジョウシ",
    "town": "新田",
    "town_kana": "シンデン",
    "street": null,
    "office_name": null,
    "office_name_kana": null
  },
  "0903": {
    "postcode": "0180903",
    "prefecture": "秋田県",
    "prefecture_kana": "アキタケン",
    "prefecture_code": 5,
    "city": "由利本荘市",
    "city_kana": "ユリホンジョウシ",
    "town": "小栗山",
    "town_kana": "コグリヤマ",
    "street": null,
    "office_name": null,
    "office_name_kana": null
  },
  "0904": {
    "postcode": "0180904",
    "prefecture": "秋田県",
    "prefecture_kana": "アキタケン",
    "prefecture_code": 5,
    "city": "由利本荘市",
    "city_kana": "ユリホンジョウシ",
    "town": "岩野目沢",
    "town_kana": "イワノメザワ",
    "street": null,
    "office_name": null,
    "office_name_kana": null
  },
  "0905": {
    "postcode": "0180905",
    "prefecture": "秋田県",
    "prefecture_kana": "アキタケン",
    "prefecture_code": 5,
    "city": "由利本荘市",
    "city_kana": "ユリホンジョウシ",
    "town": "滝",
    "town_kana": "タキ",
    "street": null,
    "office_name": null,
    "office_name_kana": null
  },
  "0906": {
    "postcode": "0180906",
    "prefecture": "秋田県",
    "prefecture_kana": "アキタケン",
    "prefecture_code": 5,
    "city": "由利本荘市",
    "city_kana": "ユリホンジョウシ",
    "town": "羽広",
    "town_kana": "ハビロ",
    "street": null,
    "office_name": null,
    "office_name_kana": null
  },
  "0907": {
    "postcode": "0180907",
    "prefecture": "秋田県",
    "prefecture_kana": "アキタケン",
    "prefecture_code": 5,
    "city": "由利本荘市",
    "city_kana": "ユリホンジョウシ",
    "town": "坂部",
    "town_kana": "サカベ",
    "street": null,
    "office_name": null,
    "office_name_kana": null
  },
  "1211": {
    "postcode": "0181211",
    "prefecture": "秋田県",
    "prefecture_kana": "アキタケン",
    "prefecture_code": 5,
    "city": "由利本荘市",
    "city_kana": "ユリホンジョウシ",
    "town": "岩城滝俣",
    "town_kana": "イワキタキノマタ",
    "street": null,
    "office_name": null,
    "office_name_kana": null
  },
  "1212": {
    "postcode": "0181212",
    "prefecture": "秋田県",
    "prefecture_kana": "アキタケン",
    "prefecture_code": 5,
    "city": "由利本荘市",
    "city_kana": "ユリホンジョウシ",
    "town": "岩城福俣",
    "town_kana": "イワキフクノマタ",
    "street": null,
    "office_name": null,
    "office_name_kana": null
  },
  "1213": {
    "postcode": "0181213",
    "prefecture": "秋田県",
    "prefecture_kana": "アキタケン",
    "prefecture_code": 5,
    "city": "由利本荘市",
    "city_kana": "ユリホンジョウシ",
    "town": "岩城泉田",
    "town_kana": "イワキイズミタ",
    "street": null,
    "office_name": null,
    "office_name_kana": null
  },
  "1214": {
    "postcode": "0181214",
    "prefecture": "秋田県",
    "prefecture_kana": "アキタケン",
    "prefecture_code": 5,
    "city": "由利本荘市",
    "city_kana": "ユリホンジョウシ",
    "town": "岩城富田",
    "town_kana": "イワキトミタ",
    "street": null,
    "office_name": null,
    "office_name_kana": null
  },
  "1215": {
    "postcode": "0181215",
    "prefecture": "秋田県",
    "prefecture_kana": "アキタケン",
    "prefecture_code": 5,
    "city": "由利本荘市",
    "city_kana": "ユリホンジョウシ",
    "town": "岩城赤平",
    "town_kana": "イワキアカヒラ",
    "street": null,
    "office_name": null,
    "office_name_kana": null
  },
  "1216": {
    "postcode": "0181216",
    "prefecture": "秋田県",
    "prefecture_kana": "アキタケン",
    "prefecture_code": 5,
    "city": "由利本荘市",
    "city_kana": "ユリホンジョウシ",
    "town": "岩城亀田愛宕町",
    "town_kana": "イワキカメダアタゴマチ",
    "street": null,
    "office_name": null,
    "office_name_kana": null
  },
  "1217": {
    "postcode": "0181217",
    "prefecture": "秋田県",
    "prefecture_kana": "アキタケン",
    "prefecture_code": 5,
    "city": "由利本荘市",
    "city_kana": "ユリホンジョウシ",
    "town": "岩城亀田亀田町",
    "town_kana": "イワキカメダカメダマチ",
    "street": null,
    "office_name": null,
    "office_name_kana": null
  },
  "1218": {
    "postcode": "0181218",
    "prefecture": "秋田県",
    "prefecture_kana": "アキタケン",
    "prefecture_code": 5,
    "city": "由利本荘市",
    "city_kana": "ユリホンジョウシ",
    "town": "岩城亀田大町",
    "town_kana": "イワキカメダオオマチ",
    "street": null,
    "office_name": null,
    "office_name_kana": null
  },
  "1221": {
    "postcode": "0181221",
    "prefecture": "秋田県",
    "prefecture_kana": "アキタケン",
    "prefecture_code": 5,
    "city": "由利本荘市",
    "city_kana": "ユリホンジョウシ",
    "town": "岩城亀田最上町",
    "town_kana": "イワキカメダモガミマチ",
    "street": null,
    "office_name": null,
    "office_name_kana": null
  },
  "1222": {
    "postcode": "0181222",
    "prefecture": "秋田県",
    "prefecture_kana": "アキタケン",
    "prefecture_code": 5,
    "city": "由利本荘市",
    "city_kana": "ユリホンジョウシ",
    "town": "岩城上蛇田",
    "town_kana": "イワキカミヘビタ",
    "street": null,
    "office_name": null,
    "office_name_kana": null
  },
  "1223": {
    "postcode": "0181223",
    "prefecture": "秋田県",
    "prefecture_kana": "アキタケン",
    "prefecture_code": 5,
    "city": "由利本荘市",
    "city_kana": "ユリホンジョウシ",
    "town": "岩城下蛇田",
    "town_kana": "イワキシモヘビタ",
    "street": null,
    "office_name": null,
    "office_name_kana": null
  },
  "1224": {
    "postcode": "0181224",
    "prefecture": "秋田県",
    "prefecture_kana": "アキタケン",
    "prefecture_code": 5,
    "city": "由利本荘市",
    "city_kana": "ユリホンジョウシ",
    "town": "岩城六呂田",
    "town_kana": "イワキロクロダ",
    "street": null,
    "office_name": null,
    "office_name_kana": null
  },
  "1225": {
    "postcode": "0181225",
    "prefecture": "秋田県",
    "prefecture_kana": "アキタケン",
    "prefecture_code": 5,
    "city": "由利本荘市",
    "city_kana": "ユリホンジョウシ",
    "town": "岩城上黒川",
    "town_kana": "イワキカミクロカワ",
    "street": null,
    "office_name": null,
    "office_name_kana": null
  },
  "1226": {
    "postcode": "0181226",
    "prefecture": "秋田県",
    "prefecture_kana": "アキタケン",
    "prefecture_code": 5,
    "city": "由利本荘市",
    "city_kana": "ユリホンジョウシ",
    "town": "岩城下黒川",
    "town_kana": "イワキシモクロカワ",
    "street": null,
    "office_name": null,
    "office_name_kana": null
  },
  "1301": {
    "postcode": "0181301",
    "prefecture": "秋田県",
    "prefecture_kana": "アキタケン",
    "prefecture_code": 5,
    "city": "由利本荘市",
    "city_kana": "ユリホンジョウシ",
    "town": "岩城内道川",
    "town_kana": "イワキウチミチカワ",
    "street": null,
    "office_name": null,
    "office_name_kana": null
  },
  "1302": {
    "postcode": "0181302",
    "prefecture": "秋田県",
    "prefecture_kana": "アキタケン",
    "prefecture_code": 5,
    "city": "由利本荘市",
    "city_kana": "ユリホンジョウシ",
    "town": "岩城勝手",
    "town_kana": "イワキカッテ",
    "street": null,
    "office_name": null,
    "office_name_kana": null
  },
  "1303": {
    "postcode": "0181303",
    "prefecture": "秋田県",
    "prefecture_kana": "アキタケン",
    "prefecture_code": 5,
    "city": "由利本荘市",
    "city_kana": "ユリホンジョウシ",
    "town": "岩城君ケ野",
    "town_kana": "イワキキミガノ",
    "street": null,
    "office_name": null,
    "office_name_kana": null
  },
  "1304": {
    "postcode": "0181304",
    "prefecture": "秋田県",
    "prefecture_kana": "アキタケン",
    "prefecture_code": 5,
    "city": "由利本荘市",
    "city_kana": "ユリホンジョウシ",
    "town": "岩城道川",
    "town_kana": "イワキミチカワ",
    "street": null,
    "office_name": null,
    "office_name_kana": null
  },
  "1305": {
    "postcode": "0181305",
    "prefecture": "秋田県",
    "prefecture_kana": "アキタケン",
    "prefecture_code": 5,
    "city": "由利本荘市",
    "city_kana": "ユリホンジョウシ",
    "town": "岩城二古",
    "town_kana": "イワキフタゴ",
    "street": null,
    "office_name": null,
    "office_name_kana": null
  },
  "1392": {
    "postcode": "0181392",
    "prefecture": "秋田県",
    "prefecture_kana": "アキタケン",
    "prefecture_code": 5,
    "city": "由利本荘市",
    "city_kana": "ユリホンジョウシ",
    "town": "岩城内道川",
    "town_kana": "イワキウチミチカワ",
    "street": "字新鶴潟５０",
    "office_name": "由利本荘市　岩城総合支所",
    "office_name_kana": "ユリホンジヨウシ イワキソウゴウシシヨ"
  },
  "1393": {
    "postcode": "0181393",
    "prefecture": "秋田県",
    "prefecture_kana": "アキタケン",
    "prefecture_code": 5,
    "city": "由利本荘市",
    "city_kana": "ユリホンジョウシ",
    "town": "岩城内道川",
    "town_kana": "イワキウチミチカワ",
    "street": "字井戸ノ沢８４番地４０",
    "office_name": "独立行政法人　国立病院機構　あきた病院",
    "office_name_kana": "ドクリツギヨウセイホウジン コクリツビヨウインキコウ アキタビヨウイン"
  },
  "1400": {
    "postcode": "0181400",
    "prefecture": "秋田県",
    "prefecture_kana": "アキタケン",
    "prefecture_code": 5,
    "city": "潟上市",
    "city_kana": "カタガミシ",
    "town": "",
    "town_kana": "",
    "street": null,
    "office_name": null,
    "office_name_kana": null
  },
  "1401": {
    "postcode": "0181401",
    "prefecture": "秋田県",
    "prefecture_kana": "アキタケン",
    "prefecture_code": 5,
    "city": "潟上市",
    "city_kana": "カタガミシ",
    "town": "昭和大久保",
    "town_kana": "ショウワオオクボ",
    "street": null,
    "office_name": null,
    "office_name_kana": null
  },
  "1402": {
    "postcode": "0181402",
    "prefecture": "秋田県",
    "prefecture_kana": "アキタケン",
    "prefecture_code": 5,
    "city": "潟上市",
    "city_kana": "カタガミシ",
    "town": "昭和乱橋",
    "town_kana": "ショウワミダレバシ",
    "street": null,
    "office_name": null,
    "office_name_kana": null
  },
  "1403": {
    "postcode": "0181403",
    "prefecture": "秋田県",
    "prefecture_kana": "アキタケン",
    "prefecture_code": 5,
    "city": "潟上市",
    "city_kana": "カタガミシ",
    "town": "昭和八丁目",
    "town_kana": "ショウワハッチョウメ",
    "street": null,
    "office_name": null,
    "office_name_kana": null
  },
  "1411": {
    "postcode": "0181411",
    "prefecture": "秋田県",
    "prefecture_kana": "アキタケン",
    "prefecture_code": 5,
    "city": "潟上市",
    "city_kana": "カタガミシ",
    "town": "昭和豊川上虻川",
    "town_kana": "ショウワトヨカワカミアブカワ",
    "street": null,
    "office_name": null,
    "office_name_kana": null
  },
  "1412": {
    "postcode": "0181412",
    "prefecture": "秋田県",
    "prefecture_kana": "アキタケン",
    "prefecture_code": 5,
    "city": "潟上市",
    "city_kana": "カタガミシ",
    "town": "昭和豊川岡井戸",
    "town_kana": "ショウワトヨカワオカイド",
    "street": null,
    "office_name": null,
    "office_name_kana": null
  },
  "1413": {
    "postcode": "0181413",
    "prefecture": "秋田県",
    "prefecture_kana": "アキタケン",
    "prefecture_code": 5,
    "city": "潟上市",
    "city_kana": "カタガミシ",
    "town": "昭和豊川船橋",
    "town_kana": "ショウワトヨカワフナバシ",
    "street": null,
    "office_name": null,
    "office_name_kana": null
  },
  "1414": {
    "postcode": "0181414",
    "prefecture": "秋田県",
    "prefecture_kana": "アキタケン",
    "prefecture_code": 5,
    "city": "潟上市",
    "city_kana": "カタガミシ",
    "town": "昭和豊川槻木",
    "town_kana": "ショウワトヨカワツキノキ",
    "street": null,
    "office_name": null,
    "office_name_kana": null
  },
  "1415": {
    "postcode": "0181415",
    "prefecture": "秋田県",
    "prefecture_kana": "アキタケン",
    "prefecture_code": 5,
    "city": "潟上市",
    "city_kana": "カタガミシ",
    "town": "昭和豊川竜毛",
    "town_kana": "ショウワトヨカワリュウゲ",
    "street": null,
    "office_name": null,
    "office_name_kana": null
  },
  "1416": {
    "postcode": "0181416",
    "prefecture": "秋田県",
    "prefecture_kana": "アキタケン",
    "prefecture_code": 5,
    "city": "潟上市",
    "city_kana": "カタガミシ",
    "town": "昭和豊川山田",
    "town_kana": "ショウワトヨカワヤマダ",
    "street": null,
    "office_name": null,
    "office_name_kana": null
  },
  "1500": {
    "postcode": "0181500",
    "prefecture": "秋田県",
    "prefecture_kana": "アキタケン",
    "prefecture_code": 5,
    "city": "南秋田郡井川町",
    "city_kana": "ミナミアキタグンイカワマチ",
    "town": "",
    "town_kana": "",
    "street": null,
    "office_name": null,
    "office_name_kana": null
  },
  "1501": {
    "postcode": "0181501",
    "prefecture": "秋田県",
    "prefecture_kana": "アキタケン",
    "prefecture_code": 5,
    "city": "潟上市",
    "city_kana": "カタガミシ",
    "town": "飯田川金山",
    "town_kana": "イイタガワカネヤマ",
    "street": null,
    "office_name": null,
    "office_name_kana": null
  },
  "1502": {
    "postcode": "0181502",
    "prefecture": "秋田県",
    "prefecture_kana": "アキタケン",
    "prefecture_code": 5,
    "city": "潟上市",
    "city_kana": "カタガミシ",
    "town": "飯田川下虻川",
    "town_kana": "イイタガワシモアブカワ",
    "street": null,
    "office_name": null,
    "office_name_kana": null
  },
  "1503": {
    "postcode": "0181503",
    "prefecture": "秋田県",
    "prefecture_kana": "アキタケン",
    "prefecture_code": 5,
    "city": "潟上市",
    "city_kana": "カタガミシ",
    "town": "飯田川和田妹川",
    "town_kana": "イイタガワワダイモカワ",
    "street": null,
    "office_name": null,
    "office_name_kana": null
  },
  "1504": {
    "postcode": "0181504",
    "prefecture": "秋田県",
    "prefecture_kana": "アキタケン",
    "prefecture_code": 5,
    "city": "潟上市",
    "city_kana": "カタガミシ",
    "town": "飯田川飯塚",
    "town_kana": "イイタガワイイヅカ",
    "street": null,
    "office_name": null,
    "office_name_kana": null
  },
  "1511": {
    "postcode": "0181511",
    "prefecture": "秋田県",
    "prefecture_kana": "アキタケン",
    "prefecture_code": 5,
    "city": "南秋田郡井川町",
    "city_kana": "ミナミアキタグンイカワマチ",
    "town": "今戸",
    "town_kana": "イマド",
    "street": null,
    "office_name": null,
    "office_name_kana": null
  },
  "1512": {
    "postcode": "0181512",
    "prefecture": "秋田県",
    "prefecture_kana": "アキタケン",
    "prefecture_code": 5,
    "city": "南秋田郡井川町",
    "city_kana": "ミナミアキタグンイカワマチ",
    "town": "北川尻",
    "town_kana": "キタカワシリ",
    "street": null,
    "office_name": null,
    "office_name_kana": null
  },
  "1513": {
    "postcode": "0181513",
    "prefecture": "秋田県",
    "prefecture_kana": "アキタケン",
    "prefecture_code": 5,
    "city": "南秋田郡井川町",
    "city_kana": "ミナミアキタグンイカワマチ",
    "town": "黒坪",
    "town_kana": "クロツボ",
    "street": null,
    "office_name": null,
    "office_name_kana": null
  },
  "1514": {
    "postcode": "0181514",
    "prefecture": "秋田県",
    "prefecture_kana": "アキタケン",
    "prefecture_code": 5,
    "city": "南秋田郡井川町",
    "city_kana": "ミナミアキタグンイカワマチ",
    "town": "宇治木",
    "town_kana": "ウジキ",
    "street": null,
    "office_name": null,
    "office_name_kana": null
  },
  "1515": {
    "postcode": "0181515",
    "prefecture": "秋田県",
    "prefecture_kana": "アキタケン",
    "prefecture_code": 5,
    "city": "南秋田郡井川町",
    "city_kana": "ミナミアキタグンイカワマチ",
    "town": "小竹花",
    "town_kana": "コダケハナ",
    "street": null,
    "office_name": null,
    "office_name_kana": null
  },
  "1516": {
    "postcode": "0181516",
    "prefecture": "秋田県",
    "prefecture_kana": "アキタケン",
    "prefecture_code": 5,
    "city": "南秋田郡井川町",
    "city_kana": "ミナミアキタグンイカワマチ",
    "town": "浜井川",
    "town_kana": "ハマイカワ",
    "street": null,
    "office_name": null,
    "office_name_kana": null
  },
  "1521": {
    "postcode": "0181521",
    "prefecture": "秋田県",
    "prefecture_kana": "アキタケン",
    "prefecture_code": 5,
    "city": "南秋田郡井川町",
    "city_kana": "ミナミアキタグンイカワマチ",
    "town": "八田大倉",
    "town_kana": "ハッタオオクラ",
    "street": null,
    "office_name": null,
    "office_name_kana": null
  },
  "1522": {
    "postcode": "0181522",
    "prefecture": "秋田県",
    "prefecture_kana": "アキタケン",
    "prefecture_code": 5,
    "city": "南秋田郡井川町",
    "city_kana": "ミナミアキタグンイカワマチ",
    "town": "保野子",
    "town_kana": "ホノコ",
    "street": null,
    "office_name": null,
    "office_name_kana": null
  },
  "1523": {
    "postcode": "0181523",
    "prefecture": "秋田県",
    "prefecture_kana": "アキタケン",
    "prefecture_code": 5,
    "city": "南秋田郡井川町",
    "city_kana": "ミナミアキタグンイカワマチ",
    "town": "坂本",
    "town_kana": "サカモト",
    "street": null,
    "office_name": null,
    "office_name_kana": null
  },
  "1524": {
    "postcode": "0181524",
    "prefecture": "秋田県",
    "prefecture_kana": "アキタケン",
    "prefecture_code": 5,
    "city": "南秋田郡井川町",
    "city_kana": "ミナミアキタグンイカワマチ",
    "town": "大麦",
    "town_kana": "オオムギ",
    "street": null,
    "office_name": null,
    "office_name_kana": null
  },
  "1525": {
    "postcode": "0181525",
    "prefecture": "秋田県",
    "prefecture_kana": "アキタケン",
    "prefecture_code": 5,
    "city": "南秋田郡井川町",
    "city_kana": "ミナミアキタグンイカワマチ",
    "town": "赤沢",
    "town_kana": "アカサワ",
    "street": null,
    "office_name": null,
    "office_name_kana": null
  },
  "1526": {
    "postcode": "0181526",
    "prefecture": "秋田県",
    "prefecture_kana": "アキタケン",
    "prefecture_code": 5,
    "city": "南秋田郡井川町",
    "city_kana": "ミナミアキタグンイカワマチ",
    "town": "寺沢",
    "town_kana": "テラサワ",
    "street": null,
    "office_name": null,
    "office_name_kana": null
  },
  "1527": {
    "postcode": "0181527",
    "prefecture": "秋田県",
    "prefecture_kana": "アキタケン",
    "prefecture_code": 5,
    "city": "南秋田郡井川町",
    "city_kana": "ミナミアキタグンイカワマチ",
    "town": "井内",
    "town_kana": "イナイ",
    "street": null,
    "office_name": null,
    "office_name_kana": null
  },
  "1528": {
    "postcode": "0181528",
    "prefecture": "秋田県",
    "prefecture_kana": "アキタケン",
    "prefecture_code": 5,
    "city": "南秋田郡井川町",
    "city_kana": "ミナミアキタグンイカワマチ",
    "town": "葹田",
    "town_kana": "ナモミダ",
    "street": null,
    "office_name": null,
    "office_name_kana": null
  },
  "1595": {
    "postcode": "0181595",
    "prefecture": "秋田県",
    "prefecture_kana": "アキタケン",
    "prefecture_code": 5,
    "city": "潟上市",
    "city_kana": "カタガミシ",
    "town": "飯田川下虻川",
    "town_kana": "イイタガワシモアブカワ",
    "street": "字八ツ口７０",
    "office_name": "潟上市役所　飯田川庁舎",
    "office_name_kana": "カタガミシヤクシヨ イイタガワチヨウシヤ"
  },
  "1596": {
    "postcode": "0181596",
    "prefecture": "秋田県",
    "prefecture_kana": "アキタケン",
    "prefecture_code": 5,
    "city": "南秋田郡井川町",
    "city_kana": "ミナミアキタグンイカワマチ",
    "town": "北川尻",
    "town_kana": "キタカワシリ",
    "street": "字海老沢樋ノ口７８−１",
    "office_name": "井川町役場",
    "office_name_kana": "イカワマチヤクバ"
  },
  "1600": {
    "postcode": "0181600",
    "prefecture": "秋田県",
    "prefecture_kana": "アキタケン",
    "prefecture_code": 5,
    "city": "南秋田郡八郎潟町",
    "city_kana": "ミナミアキタグンハチロウガタマチ",
    "town": "",
    "town_kana": "",
    "street": null,
    "office_name": null,
    "office_name_kana": null
  },
  "1601": {
    "postcode": "0181601",
    "prefecture": "秋田県",
    "prefecture_kana": "アキタケン",
    "prefecture_code": 5,
    "city": "南秋田郡八郎潟町",
    "city_kana": "ミナミアキタグンハチロウガタマチ",
    "town": "真坂",
    "town_kana": "マサカ",
    "street": null,
    "office_name": null,
    "office_name_kana": null
  },
  "1602": {
    "postcode": "0181602",
    "prefecture": "秋田県",
    "prefecture_kana": "アキタケン",
    "prefecture_code": 5,
    "city": "南秋田郡八郎潟町",
    "city_kana": "ミナミアキタグンハチロウガタマチ",
    "town": "浦大町",
    "town_kana": "ウラオオマチ",
    "street": null,
    "office_name": null,
    "office_name_kana": null
  },
  "1603": {
    "postcode": "0181603",
    "prefecture": "秋田県",
    "prefecture_kana": "アキタケン",
    "prefecture_code": 5,
    "city": "南秋田郡八郎潟町",
    "city_kana": "ミナミアキタグンハチロウガタマチ",
    "town": "小池",
    "town_kana": "コイケ",
    "street": null,
    "office_name": null,
    "office_name_kana": null
  },
  "1604": {
    "postcode": "0181604",
    "prefecture": "秋田県",
    "prefecture_kana": "アキタケン",
    "prefecture_code": 5,
    "city": "南秋田郡八郎潟町",
    "city_kana": "ミナミアキタグンハチロウガタマチ",
    "town": "野田",
    "town_kana": "ノダ",
    "street": null,
    "office_name": null,
    "office_name_kana": null
  },
  "1605": {
    "postcode": "0181605",
    "prefecture": "秋田県",
    "prefecture_kana": "アキタケン",
    "prefecture_code": 5,
    "city": "南秋田郡八郎潟町",
    "city_kana": "ミナミアキタグンハチロウガタマチ",
    "town": "川崎",
    "town_kana": "カワサキ",
    "street": null,
    "office_name": null,
    "office_name_kana": null
  },
  "1606": {
    "postcode": "0181606",
    "prefecture": "秋田県",
    "prefecture_kana": "アキタケン",
    "prefecture_code": 5,
    "city": "南秋田郡八郎潟町",
    "city_kana": "ミナミアキタグンハチロウガタマチ",
    "town": "夜叉袋",
    "town_kana": "ヤシャフクロ",
    "street": null,
    "office_name": null,
    "office_name_kana": null
  },
  "1611": {
    "postcode": "0181611",
    "prefecture": "秋田県",
    "prefecture_kana": "アキタケン",
    "prefecture_code": 5,
    "city": "南秋田郡八郎潟町",
    "city_kana": "ミナミアキタグンハチロウガタマチ",
    "town": "上沖谷地",
    "town_kana": "カミオキヤチ",
    "street": null,
    "office_name": null,
    "office_name_kana": null
  },
  "1612": {
    "postcode": "0181612",
    "prefecture": "秋田県",
    "prefecture_kana": "アキタケン",
    "prefecture_code": 5,
    "city": "南秋田郡八郎潟町",
    "city_kana": "ミナミアキタグンハチロウガタマチ",
    "town": "昼根下",
    "town_kana": "ヒルネシタ",
    "street": null,
    "office_name": null,
    "office_name_kana": null
  },
  "1613": {
    "postcode": "0181613",
    "prefecture": "秋田県",
    "prefecture_kana": "アキタケン",
    "prefecture_code": 5,
    "city": "南秋田郡八郎潟町",
    "city_kana": "ミナミアキタグンハチロウガタマチ",
    "town": "上昼根",
    "town_kana": "カミヒルネ",
    "street": null,
    "office_name": null,
    "office_name_kana": null
  },
  "1614": {
    "postcode": "0181614",
    "prefecture": "秋田県",
    "prefecture_kana": "アキタケン",
    "prefecture_code": 5,
    "city": "南秋田郡八郎潟町",
    "city_kana": "ミナミアキタグンハチロウガタマチ",
    "town": "中田",
    "town_kana": "ナカダ",
    "street": null,
    "office_name": null,
    "office_name_kana": null
  },
  "1615": {
    "postcode": "0181615",
    "prefecture": "秋田県",
    "prefecture_kana": "アキタケン",
    "prefecture_code": 5,
    "city": "南秋田郡八郎潟町",
    "city_kana": "ミナミアキタグンハチロウガタマチ",
    "town": "蒲沼",
    "town_kana": "ガマヌマ",
    "street": null,
    "office_name": null,
    "office_name_kana": null
  },
  "1616": {
    "postcode": "0181616",
    "prefecture": "秋田県",
    "prefecture_kana": "アキタケン",
    "prefecture_code": 5,
    "city": "南秋田郡八郎潟町",
    "city_kana": "ミナミアキタグンハチロウガタマチ",
    "town": "大道",
    "town_kana": "オオミチ",
    "street": null,
    "office_name": null,
    "office_name_kana": null
  },
  "1617": {
    "postcode": "0181617",
    "prefecture": "秋田県",
    "prefecture_kana": "アキタケン",
    "prefecture_code": 5,
    "city": "南秋田郡八郎潟町",
    "city_kana": "ミナミアキタグンハチロウガタマチ",
    "town": "イカリ",
    "town_kana": "イカリ",
    "street": null,
    "office_name": null,
    "office_name_kana": null
  },
  "1618": {
    "postcode": "0181618",
    "prefecture": "秋田県",
    "prefecture_kana": "アキタケン",
    "prefecture_code": 5,
    "city": "南秋田郡八郎潟町",
    "city_kana": "ミナミアキタグンハチロウガタマチ",
    "town": "川口",
    "town_kana": "カワグチ",
    "street": null,
    "office_name": null,
    "office_name_kana": null
  },
  "1621": {
    "postcode": "0181621",
    "prefecture": "秋田県",
    "prefecture_kana": "アキタケン",
    "prefecture_code": 5,
    "city": "南秋田郡八郎潟町",
    "city_kana": "ミナミアキタグンハチロウガタマチ",
    "town": "家の後",
    "town_kana": "イエノウシロ",
    "street": null,
    "office_name": null,
    "office_name_kana": null
  },
  "1622": {
    "postcode": "0181622",
    "prefecture": "秋田県",
    "prefecture_kana": "アキタケン",
    "prefecture_code": 5,
    "city": "南秋田郡八郎潟町",
    "city_kana": "ミナミアキタグンハチロウガタマチ",
    "town": "一日市",
    "town_kana": "ヒトイチ",
    "street": null,
    "office_name": null,
    "office_name_kana": null
  },
  "1623": {
    "postcode": "0181623",
    "prefecture": "秋田県",
    "prefecture_kana": "アキタケン",
    "prefecture_code": 5,
    "city": "南秋田郡八郎潟町",
    "city_kana": "ミナミアキタグンハチロウガタマチ",
    "town": "下川原",
    "town_kana": "シモカワラ",
    "street": null,
    "office_name": null,
    "office_name_kana": null
  },
  "1624": {
    "postcode": "0181624",
    "prefecture": "秋田県",
    "prefecture_kana": "アキタケン",
    "prefecture_code": 5,
    "city": "南秋田郡八郎潟町",
    "city_kana": "ミナミアキタグンハチロウガタマチ",
    "town": "中久保",
    "town_kana": "ナカクボ",
    "street": null,
    "office_name": null,
    "office_name_kana": null
  },
  "1625": {
    "postcode": "0181625",
    "prefecture": "秋田県",
    "prefecture_kana": "アキタケン",
    "prefecture_code": 5,
    "city": "南秋田郡八郎潟町",
    "city_kana": "ミナミアキタグンハチロウガタマチ",
    "town": "久保見",
    "town_kana": "クボミ",
    "street": null,
    "office_name": null,
    "office_name_kana": null
  },
  "1626": {
    "postcode": "0181626",
    "prefecture": "秋田県",
    "prefecture_kana": "アキタケン",
    "prefecture_code": 5,
    "city": "南秋田郡八郎潟町",
    "city_kana": "ミナミアキタグンハチロウガタマチ",
    "town": "細川",
    "town_kana": "ホソカワ",
    "street": null,
    "office_name": null,
    "office_name_kana": null
  },
  "1627": {
    "postcode": "0181627",
    "prefecture": "秋田県",
    "prefecture_kana": "アキタケン",
    "prefecture_code": 5,
    "city": "南秋田郡八郎潟町",
    "city_kana": "ミナミアキタグンハチロウガタマチ",
    "town": "押切",
    "town_kana": "オシキリ",
    "street": null,
    "office_name": null,
    "office_name_kana": null
  },
  "1628": {
    "postcode": "0181628",
    "prefecture": "秋田県",
    "prefecture_kana": "アキタケン",
    "prefecture_code": 5,
    "city": "南秋田郡八郎潟町",
    "city_kana": "ミナミアキタグンハチロウガタマチ",
    "town": "島ノ内",
    "town_kana": "シマノウチ",
    "street": null,
    "office_name": null,
    "office_name_kana": null
  },
  "1629": {
    "postcode": "0181629",
    "prefecture": "秋田県",
    "prefecture_kana": "アキタケン",
    "prefecture_code": 5,
    "city": "南秋田郡八郎潟町",
    "city_kana": "ミナミアキタグンハチロウガタマチ",
    "town": "中嶋",
    "town_kana": "ナカジマ",
    "street": null,
    "office_name": null,
    "office_name_kana": null
  },
  "1631": {
    "postcode": "0181631",
    "prefecture": "秋田県",
    "prefecture_kana": "アキタケン",
    "prefecture_code": 5,
    "city": "南秋田郡八郎潟町",
    "city_kana": "ミナミアキタグンハチロウガタマチ",
    "town": "八幡沼",
    "town_kana": "ハチマヌマ",
    "street": null,
    "office_name": null,
    "office_name_kana": null
  },
  "1632": {
    "postcode": "0181632",
    "prefecture": "秋田県",
    "prefecture_kana": "アキタケン",
    "prefecture_code": 5,
    "city": "南秋田郡八郎潟町",
    "city_kana": "ミナミアキタグンハチロウガタマチ",
    "town": "長沼",
    "town_kana": "ナガヌマ",
    "street": null,
    "office_name": null,
    "office_name_kana": null
  },
  "1633": {
    "postcode": "0181633",
    "prefecture": "秋田県",
    "prefecture_kana": "アキタケン",
    "prefecture_code": 5,
    "city": "南秋田郡八郎潟町",
    "city_kana": "ミナミアキタグンハチロウガタマチ",
    "town": "中谷地",
    "town_kana": "ナカヤチ",
    "street": null,
    "office_name": null,
    "office_name_kana": null
  },
  "1634": {
    "postcode": "0181634",
    "prefecture": "秋田県",
    "prefecture_kana": "アキタケン",
    "prefecture_code": 5,
    "city": "南秋田郡八郎潟町",
    "city_kana": "ミナミアキタグンハチロウガタマチ",
    "town": "軒嶋",
    "town_kana": "ノキシマ",
    "street": null,
    "office_name": null,
    "office_name_kana": null
  },
  "1635": {
    "postcode": "0181635",
    "prefecture": "秋田県",
    "prefecture_kana": "アキタケン",
    "prefecture_code": 5,
    "city": "南秋田郡八郎潟町",
    "city_kana": "ミナミアキタグンハチロウガタマチ",
    "town": "洲先",
    "town_kana": "スサキ",
    "street": null,
    "office_name": null,
    "office_name_kana": null
  },
  "1692": {
    "postcode": "0181692",
    "prefecture": "秋田県",
    "prefecture_kana": "アキタケン",
    "prefecture_code": 5,
    "city": "南秋田郡八郎潟町",
    "city_kana": "ミナミアキタグンハチロウガタマチ",
    "town": "字大道",
    "town_kana": null,
    "street": "８０",
    "office_name": "八郎潟町役場",
    "office_name_kana": "ハチロウガタマチヤクバ"
  },
  "1700": {
    "postcode": "0181700",
    "prefecture": "秋田県",
    "prefecture_kana": "アキタケン",
    "prefecture_code": 5,
    "city": "南秋田郡五城目町",
    "city_kana": "ミナミアキタグンゴジョウメマチ",
    "town": "",
    "town_kana": "",
    "street": null,
    "office_name": null,
    "office_name_kana": null
  },
  "1701": {
    "postcode": "0181701",
    "prefecture": "秋田県",
    "prefecture_kana": "アキタケン",
    "prefecture_code": 5,
    "city": "南秋田郡五城目町",
    "city_kana": "ミナミアキタグンゴジョウメマチ",
    "town": "兎品沢",
    "town_kana": "トヒンザワ",
    "street": null,
    "office_name": null,
    "office_name_kana": null
  },
  "1702": {
    "postcode": "0181702",
    "prefecture": "秋田県",
    "prefecture_kana": "アキタケン",
    "prefecture_code": 5,
    "city": "南秋田郡五城目町",
    "city_kana": "ミナミアキタグンゴジョウメマチ",
    "town": "杉ケ崎",
    "town_kana": "スギガサキ",
    "street": null,
    "office_name": null,
    "office_name_kana": null
  },
  "1703": {
    "postcode": "0181703",
    "prefecture": "秋田県",
    "prefecture_kana": "アキタケン",
    "prefecture_code": 5,
    "city": "南秋田郡五城目町",
    "city_kana": "ミナミアキタグンゴジョウメマチ",
    "town": "羽黒前",
    "town_kana": "ハグロマエ",
    "street": null,
    "office_name": null,
    "office_name_kana": null
  },
  "1704": {
    "postcode": "0181704",
    "prefecture": "秋田県",
    "prefecture_kana": "アキタケン",
    "prefecture_code": 5,
    "city": "南秋田郡五城目町",
    "city_kana": "ミナミアキタグンゴジョウメマチ",
    "town": "石田六ケ村堰添",
    "town_kana": "イシダロッカソンセキゾイ",
    "street": null,
    "office_name": null,
    "office_name_kana": null
  },
  "1705": {
    "postcode": "0181705",
    "prefecture": "秋田県",
    "prefecture_kana": "アキタケン",
    "prefecture_code": 5,
    "city": "南秋田郡五城目町",
    "city_kana": "ミナミアキタグンゴジョウメマチ",
    "town": "上町",
    "town_kana": "ウワマチ",
    "street": null,
    "office_name": null,
    "office_name_kana": null
  },
  "1706": {
    "postcode": "0181706",
    "prefecture": "秋田県",
    "prefecture_kana": "アキタケン",
    "prefecture_code": 5,
    "city": "南秋田郡五城目町",
    "city_kana": "ミナミアキタグンゴジョウメマチ",
    "town": "下タ町",
    "town_kana": "シタマチ",
    "street": null,
    "office_name": null,
    "office_name_kana": null
  },
  "1711": {
    "postcode": "0181711",
    "prefecture": "秋田県",
    "prefecture_kana": "アキタケン",
    "prefecture_code": 5,
    "city": "南秋田郡五城目町",
    "city_kana": "ミナミアキタグンゴジョウメマチ",
    "town": "高崎",
    "town_kana": "タカサキ",
    "street": null,
    "office_name": null,
    "office_name_kana": null
  },
  "1712": {
    "postcode": "0181712",
    "prefecture": "秋田県",
    "prefecture_kana": "アキタケン",
    "prefecture_code": 5,
    "city": "南秋田郡五城目町",
    "city_kana": "ミナミアキタグンゴジョウメマチ",
    "town": "久保",
    "town_kana": "クボ",
    "street": null,
    "office_name": null,
    "office_name_kana": null
  },
  "1713": {
    "postcode": "0181713",
    "prefecture": "秋田県",
    "prefecture_kana": "アキタケン",
    "prefecture_code": 5,
    "city": "南秋田郡五城目町",
    "city_kana": "ミナミアキタグンゴジョウメマチ",
    "town": "馬場目",
    "town_kana": "ババメ",
    "street": null,
    "office_name": null,
    "office_name_kana": null
  },
  "1714": {
    "postcode": "0181714",
    "prefecture": "秋田県",
    "prefecture_kana": "アキタケン",
    "prefecture_code": 5,
    "city": "南秋田郡五城目町",
    "city_kana": "ミナミアキタグンゴジョウメマチ",
    "town": "舘越",
    "town_kana": "タテゴシ",
    "street": null,
    "office_name": null,
    "office_name_kana": null
  },
  "1721": {
    "postcode": "0181721",
    "prefecture": "秋田県",
    "prefecture_kana": "アキタケン",
    "prefecture_code": 5,
    "city": "南秋田郡五城目町",
    "city_kana": "ミナミアキタグンゴジョウメマチ",
    "town": "七倉",
    "town_kana": "ナナクラ",
    "street": null,
    "office_name": null,
    "office_name_kana": null
  },
  "1722": {
    "postcode": "0181722",
    "prefecture": "秋田県",
    "prefecture_kana": "アキタケン",
    "prefecture_code": 5,
    "city": "南秋田郡五城目町",
    "city_kana": "ミナミアキタグンゴジョウメマチ",
    "town": "鵜ノ木",
    "town_kana": "ウノキ",
    "street": null,
    "office_name": null,
    "office_name_kana": null
  },
  "1723": {
    "postcode": "0181723",
    "prefecture": "秋田県",
    "prefecture_kana": "アキタケン",
    "prefecture_code": 5,
    "city": "南秋田郡五城目町",
    "city_kana": "ミナミアキタグンゴジョウメマチ",
    "town": "上樋口",
    "town_kana": "カミヒグチ",
    "street": null,
    "office_name": null,
    "office_name_kana": null
  },
  "1724": {
    "postcode": "0181724",
    "prefecture": "秋田県",
    "prefecture_kana": "アキタケン",
    "prefecture_code": 5,
    "city": "南秋田郡五城目町",
    "city_kana": "ミナミアキタグンゴジョウメマチ",
    "town": "東磯ノ目",
    "town_kana": "ヒガシイソノメ",
    "street": null,
    "office_name": null,
    "office_name_kana": null
  },
  "1725": {
    "postcode": "0181725",
    "prefecture": "秋田県",
    "prefecture_kana": "アキタケン",
    "prefecture_code": 5,
    "city": "南秋田郡五城目町",
    "city_kana": "ミナミアキタグンゴジョウメマチ",
    "town": "西磯ノ目",
    "town_kana": "ニシイソノメ",
    "street": null,
    "office_name": null,
    "office_name_kana": null
  },
  "1731": {
    "postcode": "0181731",
    "prefecture": "秋田県",
    "prefecture_kana": "アキタケン",
    "prefecture_code": 5,
    "city": "南秋田郡五城目町",
    "city_kana": "ミナミアキタグンゴジョウメマチ",
    "town": "大川石崎",
    "town_kana": "オオカワイシザキ",
    "street": null,
    "office_name": null,
    "office_name_kana": null
  },
  "1732": {
    "postcode": "0181732",
    "prefecture": "秋田県",
    "prefecture_kana": "アキタケン",
    "prefecture_code": 5,
    "city": "南秋田郡五城目町",
    "city_kana": "ミナミアキタグンゴジョウメマチ",
    "town": "大川西野",
    "town_kana": "オオカワニシノ",
    "street": null,
    "office_name": null,
    "office_name_kana": null
  },
  "1733": {
    "postcode": "0181733",
    "prefecture": "秋田県",
    "prefecture_kana": "アキタケン",
    "prefecture_code": 5,
    "city": "南秋田郡五城目町",
    "city_kana": "ミナミアキタグンゴジョウメマチ",
    "town": "大川谷地中",
    "town_kana": "オオカワヤチナカ",
    "street": null,
    "office_name": null,
    "office_name_kana": null
  },
  "1734": {
    "postcode": "0181734",
    "prefecture": "秋田県",
    "prefecture_kana": "アキタケン",
    "prefecture_code": 5,
    "city": "南秋田郡五城目町",
    "city_kana": "ミナミアキタグンゴジョウメマチ",
    "town": "大川大川",
    "town_kana": "オオカワオオカワ",
    "street": null,
    "office_name": null,
    "office_name_kana": null
  },
  "1735": {
    "postcode": "0181735",
    "prefecture": "秋田県",
    "prefecture_kana": "アキタケン",
    "prefecture_code": 5,
    "city": "南秋田郡五城目町",
    "city_kana": "ミナミアキタグンゴジョウメマチ",
    "town": "大川下樋口",
    "town_kana": "オオカワシモトヨグチ",
    "street": null,
    "office_name": null,
    "office_name_kana": null
  },
  "1741": {
    "postcode": "0181741",
    "prefecture": "秋田県",
    "prefecture_kana": "アキタケン",
    "prefecture_code": 5,
    "city": "南秋田郡五城目町",
    "city_kana": "ミナミアキタグンゴジョウメマチ",
    "town": "浦大町",
    "town_kana": "ウラオオマチ",
    "street": null,
    "office_name": null,
    "office_name_kana": null
  },
  "1742": {
    "postcode": "0181742",
    "prefecture": "秋田県",
    "prefecture_kana": "アキタケン",
    "prefecture_code": 5,
    "city": "南秋田郡五城目町",
    "city_kana": "ミナミアキタグンゴジョウメマチ",
    "town": "浦横町",
    "town_kana": "ウラヨコマチ",
    "street": null,
    "office_name": null,
    "office_name_kana": null
  },
  "1743": {
    "postcode": "0181743",
    "prefecture": "秋田県",
    "prefecture_kana": "アキタケン",
    "prefecture_code": 5,
    "city": "南秋田郡五城目町",
    "city_kana": "ミナミアキタグンゴジョウメマチ",
    "town": "稲荷前",
    "town_kana": "イナリマエ",
    "street": null,
    "office_name": null,
    "office_name_kana": null
  },
  "1744": {
    "postcode": "0181744",
    "prefecture": "秋田県",
    "prefecture_kana": "アキタケン",
    "prefecture_code": 5,
    "city": "南秋田郡五城目町",
    "city_kana": "ミナミアキタグンゴジョウメマチ",
    "town": "神明前",
    "town_kana": "シンメイマエ",
    "street": null,
    "office_name": null,
    "office_name_kana": null
  },
  "1745": {
    "postcode": "0181745",
    "prefecture": "秋田県",
    "prefecture_kana": "アキタケン",
    "prefecture_code": 5,
    "city": "南秋田郡五城目町",
    "city_kana": "ミナミアキタグンゴジョウメマチ",
    "town": "川崎",
    "town_kana": "カワサキ",
    "street": null,
    "office_name": null,
    "office_name_kana": null
  },
  "1746": {
    "postcode": "0181746",
    "prefecture": "秋田県",
    "prefecture_kana": "アキタケン",
    "prefecture_code": 5,
    "city": "南秋田郡五城目町",
    "city_kana": "ミナミアキタグンゴジョウメマチ",
    "town": "小池",
    "town_kana": "コイケ",
    "street": null,
    "office_name": null,
    "office_name_kana": null
  },
  "1747": {
    "postcode": "0181747",
    "prefecture": "秋田県",
    "prefecture_kana": "アキタケン",
    "prefecture_code": 5,
    "city": "南秋田郡五城目町",
    "city_kana": "ミナミアキタグンゴジョウメマチ",
    "town": "野田",
    "town_kana": "ノダ",
    "street": null,
    "office_name": null,
    "office_name_kana": null
  },
  "1792": {
    "postcode": "0181792",
    "prefecture": "秋田県",
    "prefecture_kana": "アキタケン",
    "prefecture_code": 5,
    "city": "南秋田郡五城目町",
    "city_kana": "ミナミアキタグンゴジョウメマチ",
    "town": "西磯ノ目",
    "town_kana": "ニシイソノメ",
    "street": "１丁目１−１",
    "office_name": "五城目町役場",
    "office_name_kana": "ゴジヨウメマチヤクバ"
  },
  "1793": {
    "postcode": "0181793",
    "prefecture": "秋田県",
    "prefecture_kana": "アキタケン",
    "prefecture_code": 5,
    "city": "南秋田郡五城目町",
    "city_kana": "ミナミアキタグンゴジョウメマチ",
    "town": "字下タ町",
    "town_kana": null,
    "street": "６４",
    "office_name": "秋田信用金庫　五城目支店",
    "office_name_kana": "アキタシンヨウキンコ ゴジヨウメシテン"
  },
  "1851": {
    "postcode": "0181851",
    "prefecture": "秋田県",
    "prefecture_kana": "アキタケン",
    "prefecture_code": 5,
    "city": "南秋田郡五城目町",
    "city_kana": "ミナミアキタグンゴジョウメマチ",
    "town": "内川浅見内",
    "town_kana": "ウチカワアサミナイ",
    "street": null,
    "office_name": null,
    "office_name_kana": null
  },
  "1852": {
    "postcode": "0181852",
    "prefecture": "秋田県",
    "prefecture_kana": "アキタケン",
    "prefecture_code": 5,
    "city": "南秋田郡五城目町",
    "city_kana": "ミナミアキタグンゴジョウメマチ",
    "town": "内川湯ノ又",
    "town_kana": "ウチカワユノマタ",
    "street": null,
    "office_name": null,
    "office_name_kana": null
  },
  "1853": {
    "postcode": "0181853",
    "prefecture": "秋田県",
    "prefecture_kana": "アキタケン",
    "prefecture_code": 5,
    "city": "南秋田郡五城目町",
    "city_kana": "ミナミアキタグンゴジョウメマチ",
    "town": "富津内中津又",
    "town_kana": "フツナイナカツマタ",
    "street": null,
    "office_name": null,
    "office_name_kana": null
  },
  "1854": {
    "postcode": "0181854",
    "prefecture": "秋田県",
    "prefecture_kana": "アキタケン",
    "prefecture_code": 5,
    "city": "南秋田郡五城目町",
    "city_kana": "ミナミアキタグンゴジョウメマチ",
    "town": "内川黒土",
    "town_kana": "ウチカワクロツチ",
    "street": null,
    "office_name": null,
    "office_name_kana": null
  },
  "1855": {
    "postcode": "0181855",
    "prefecture": "秋田県",
    "prefecture_kana": "アキタケン",
    "prefecture_code": 5,
    "city": "南秋田郡五城目町",
    "city_kana": "ミナミアキタグンゴジョウメマチ",
    "town": "富津内富田",
    "town_kana": "フツナイトミタ",
    "street": null,
    "office_name": null,
    "office_name_kana": null
  },
  "1856": {
    "postcode": "0181856",
    "prefecture": "秋田県",
    "prefecture_kana": "アキタケン",
    "prefecture_code": 5,
    "city": "南秋田郡五城目町",
    "city_kana": "ミナミアキタグンゴジョウメマチ",
    "town": "富津内下山内",
    "town_kana": "フツナイシモサンナイ",
    "street": null,
    "office_name": null,
    "office_name_kana": null
  },
  "1857": {
    "postcode": "0181857",
    "prefecture": "秋田県",
    "prefecture_kana": "アキタケン",
    "prefecture_code": 5,
    "city": "南秋田郡五城目町",
    "city_kana": "ミナミアキタグンゴジョウメマチ",
    "town": "内川小倉",
    "town_kana": "ウチカワオグラ",
    "street": null,
    "office_name": null,
    "office_name_kana": null
  },
  "2101": {
    "postcode": "0182101",
    "prefecture": "秋田県",
    "prefecture_kana": "アキタケン",
    "prefecture_code": 5,
    "city": "山本郡三種町",
    "city_kana": "ヤマモトグンミタネチョウ",
    "town": "上岩川",
    "town_kana": "カミイワカワ",
    "street": null,
    "office_name": null,
    "office_name_kana": null
  },
  "2102": {
    "postcode": "0182102",
    "prefecture": "秋田県",
    "prefecture_kana": "アキタケン",
    "prefecture_code": 5,
    "city": "山本郡三種町",
    "city_kana": "ヤマモトグンミタネチョウ",
    "town": "天瀬川",
    "town_kana": "アマセガワ",
    "street": null,
    "office_name": null,
    "office_name_kana": null
  },
  "2103": {
    "postcode": "0182103",
    "prefecture": "秋田県",
    "prefecture_kana": "アキタケン",
    "prefecture_code": 5,
    "city": "山本郡三種町",
    "city_kana": "ヤマモトグンミタネチョウ",
    "town": "鯉川",
    "town_kana": "コイカワ",
    "street": null,
    "office_name": null,
    "office_name_kana": null
  },
  "2104": {
    "postcode": "0182104",
    "prefecture": "秋田県",
    "prefecture_kana": "アキタケン",
    "prefecture_code": 5,
    "city": "山本郡三種町",
    "city_kana": "ヤマモトグンミタネチョウ",
    "town": "鹿渡",
    "town_kana": "カド",
    "street": null,
    "office_name": null,
    "office_name_kana": null
  },
  "2301": {
    "postcode": "0182301",
    "prefecture": "秋田県",
    "prefecture_kana": "アキタケン",
    "prefecture_code": 5,
    "city": "山本郡三種町",
    "city_kana": "ヤマモトグンミタネチョウ",
    "town": "志戸橋",
    "town_kana": "シトバシ",
    "street": null,
    "office_name": null,
    "office_name_kana": null
  },
  "2302": {
    "postcode": "0182302",
    "prefecture": "秋田県",
    "prefecture_kana": "アキタケン",
    "prefecture_code": 5,
    "city": "山本郡三種町",
    "city_kana": "ヤマモトグンミタネチョウ",
    "town": "下岩川",
    "town_kana": "シモイワカワ",
    "street": null,
    "office_name": null,
    "office_name_kana": null
  },
  "2303": {
    "postcode": "0182303",
    "prefecture": "秋田県",
    "prefecture_kana": "アキタケン",
    "prefecture_code": 5,
    "city": "山本郡三種町",
    "city_kana": "ヤマモトグンミタネチョウ",
    "town": "森岳",
    "town_kana": "モリタケ",
    "street": null,
    "office_name": null,
    "office_name_kana": null
  },
  "2304": {
    "postcode": "0182304",
    "prefecture": "秋田県",
    "prefecture_kana": "アキタケン",
    "prefecture_code": 5,
    "city": "山本郡三種町",
    "city_kana": "ヤマモトグンミタネチョウ",
    "town": "豊岡金田",
    "town_kana": "トヨオカキンデン",
    "street": null,
    "office_name": null,
    "office_name_kana": null
  },
  "2305": {
    "postcode": "0182305",
    "prefecture": "秋田県",
    "prefecture_kana": "アキタケン",
    "prefecture_code": 5,
    "city": "山本郡三種町",
    "city_kana": "ヤマモトグンミタネチョウ",
    "town": "外岡",
    "town_kana": "ソトオカ",
    "street": null,
    "office_name": null,
    "office_name_kana": null
  },
  "2400": {
    "postcode": "0182400",
    "prefecture": "秋田県",
    "prefecture_kana": "アキタケン",
    "prefecture_code": 5,
    "city": "山本郡三種町",
    "city_kana": "ヤマモトグンミタネチョウ",
    "town": "",
    "town_kana": "",
    "street": null,
    "office_name": null,
    "office_name_kana": null
  },
  "2401": {
    "postcode": "0182401",
    "prefecture": "秋田県",
    "prefecture_kana": "アキタケン",
    "prefecture_code": 5,
    "city": "山本郡三種町",
    "city_kana": "ヤマモトグンミタネチョウ",
    "town": "鵜川",
    "town_kana": "ウカワ",
    "street": null,
    "office_name": null,
    "office_name_kana": null
  },
  "2402": {
    "postcode": "0182402",
    "prefecture": "秋田県",
    "prefecture_kana": "アキタケン",
    "prefecture_code": 5,
    "city": "山本郡三種町",
    "city_kana": "ヤマモトグンミタネチョウ",
    "town": "川尻",
    "town_kana": "カワシリ",
    "street": null,
    "office_name": null,
    "office_name_kana": null
  },
  "2403": {
    "postcode": "0182403",
    "prefecture": "秋田県",
    "prefecture_kana": "アキタケン",
    "prefecture_code": 5,
    "city": "山本郡三種町",
    "city_kana": "ヤマモトグンミタネチョウ",
    "town": "久米岡新田",
    "town_kana": "クメオカシンデン",
    "street": null,
    "office_name": null,
    "office_name_kana": null
  },
  "2404": {
    "postcode": "0182404",
    "prefecture": "秋田県",
    "prefecture_kana": "アキタケン",
    "prefecture_code": 5,
    "city": "山本郡三種町",
    "city_kana": "ヤマモトグンミタネチョウ",
    "town": "富岡新田",
    "town_kana": "トミオカシンデン",
    "street": null,
    "office_name": null,
    "office_name_kana": null
  },
  "2405": {
    "postcode": "0182405",
    "prefecture": "秋田県",
    "prefecture_kana": "アキタケン",
    "prefecture_code": 5,
    "city": "山本郡三種町",
    "city_kana": "ヤマモトグンミタネチョウ",
    "town": "芦崎",
    "town_kana": "アシザキ",
    "street": null,
    "office_name": null,
    "office_name_kana": null
  },
  "2406": {
    "postcode": "0182406",
    "prefecture": "秋田県",
    "prefecture_kana": "アキタケン",
    "prefecture_code": 5,
    "city": "山本郡三種町",
    "city_kana": "ヤマモトグンミタネチョウ",
    "town": "大口",
    "town_kana": "オオクチ",
    "street": null,
    "office_name": null,
    "office_name_kana": null
  },
  "2407": {
    "postcode": "0182407",
    "prefecture": "秋田県",
    "prefecture_kana": "アキタケン",
    "prefecture_code": 5,
    "city": "山本郡三種町",
    "city_kana": "ヤマモトグンミタネチョウ",
    "town": "浜田",
    "town_kana": "ハマダ",
    "street": null,
    "office_name": null,
    "office_name_kana": null
  },
  "2498": {
    "postcode": "0182498",
    "prefecture": "秋田県",
    "prefecture_kana": "アキタケン",
    "prefecture_code": 5,
    "city": "山本郡三種町",
    "city_kana": "ヤマモトグンミタネチョウ",
    "town": "鵜川",
    "town_kana": "ウカワ",
    "street": "字岩谷子８",
    "office_name": "三種町役場",
    "office_name_kana": "ミタネチヨウヤクバ"
  },
  "2500": {
    "postcode": "0182500",
    "prefecture": "秋田県",
    "prefecture_kana": "アキタケン",
    "prefecture_code": 5,
    "city": "山本郡八峰町",
    "city_kana": "ヤマモトグンハッポウチョウ",
    "town": "",
    "town_kana": "",
    "street": null,
    "office_name": null,
    "office_name_kana": null
  },
  "2501": {
    "postcode": "0182501",
    "prefecture": "秋田県",
    "prefecture_kana": "アキタケン",
    "prefecture_code": 5,
    "city": "山本郡八峰町",
    "city_kana": "ヤマモトグンハッポウチョウ",
    "town": "峰浜水沢",
    "town_kana": "ミネハマミズサワ",
    "street": null,
    "office_name": null,
    "office_name_kana": null
  },
  "2502": {
    "postcode": "0182502",
    "prefecture": "秋田県",
    "prefecture_kana": "アキタケン",
    "prefecture_code": 5,
    "city": "山本郡八峰町",
    "city_kana": "ヤマモトグンハッポウチョウ",
    "town": "峰浜目名潟",
    "town_kana": "ミネハマメナガタ",
    "street": null,
    "office_name": null,
    "office_name_kana": null
  },
  "2503": {
    "postcode": "0182503",
    "prefecture": "秋田県",
    "prefecture_kana": "アキタケン",
    "prefecture_code": 5,
    "city": "山本郡八峰町",
    "city_kana": "ヤマモトグンハッポウチョウ",
    "town": "峰浜塙",
    "town_kana": "ミネハマハナワ",
    "street": null,
    "office_name": null,
    "office_name_kana": null
  },
  "2504": {
    "postcode": "0182504",
    "prefecture": "秋田県",
    "prefecture_kana": "アキタケン",
    "prefecture_code": 5,
    "city": "山本郡八峰町",
    "city_kana": "ヤマモトグンハッポウチョウ",
    "town": "峰浜石川",
    "town_kana": "ミネハマイシカワ",
    "street": null,
    "office_name": null,
    "office_name_kana": null
  },
  "2505": {
    "postcode": "0182505",
    "prefecture": "秋田県",
    "prefecture_kana": "アキタケン",
    "prefecture_code": 5,
    "city": "山本郡八峰町",
    "city_kana": "ヤマモトグンハッポウチョウ",
    "town": "峰浜内荒巻",
    "town_kana": "ミネハマウチアラマキ",
    "street": null,
    "office_name": null,
    "office_name_kana": null
  },
  "2506": {
    "postcode": "0182506",
    "prefecture": "秋田県",
    "prefecture_kana": "アキタケン",
    "prefecture_code": 5,
    "city": "山本郡八峰町",
    "city_kana": "ヤマモトグンハッポウチョウ",
    "town": "峰浜小手萩",
    "town_kana": "ミネハマコテハギ",
    "street": null,
    "office_name": null,
    "office_name_kana": null
  },
  "2507": {
    "postcode": "0182507",
    "prefecture": "秋田県",
    "prefecture_kana": "アキタケン",
    "prefecture_code": 5,
    "city": "山本郡八峰町",
    "city_kana": "ヤマモトグンハッポウチョウ",
    "town": "峰浜田中",
    "town_kana": "ミネハマタナカ",
    "street": null,
    "office_name": null,
    "office_name_kana": null
  },
  "2508": {
    "postcode": "0182508",
    "prefecture": "秋田県",
    "prefecture_kana": "アキタケン",
    "prefecture_code": 5,
    "city": "山本郡八峰町",
    "city_kana": "ヤマモトグンハッポウチョウ",
    "town": "峰浜坂形",
    "town_kana": "ミネハマサカガタ",
    "street": null,
    "office_name": null,
    "office_name_kana": null
  },
  "2509": {
    "postcode": "0182509",
    "prefecture": "秋田県",
    "prefecture_kana": "アキタケン",
    "prefecture_code": 5,
    "city": "山本郡八峰町",
    "city_kana": "ヤマモトグンハッポウチョウ",
    "town": "峰浜沼田",
    "town_kana": "ミネハマヌマタ",
    "street": null,
    "office_name": null,
    "office_name_kana": null
  },
  "2511": {
    "postcode": "0182511",
    "prefecture": "秋田県",
    "prefecture_kana": "アキタケン",
    "prefecture_code": 5,
    "city": "山本郡八峰町",
    "city_kana": "ヤマモトグンハッポウチョウ",
    "town": "峰浜高野々",
    "town_kana": "ミネハマコウヤノ",
    "street": null,
    "office_name": null,
    "office_name_kana": null
  },
  "2512": {
    "postcode": "0182512",
    "prefecture": "秋田県",
    "prefecture_kana": "アキタケン",
    "prefecture_code": 5,
    "city": "山本郡八峰町",
    "city_kana": "ヤマモトグンハッポウチョウ",
    "town": "峰浜畑谷",
    "town_kana": "ミネハマハタヤ",
    "street": null,
    "office_name": null,
    "office_name_kana": null
  },
  "2601": {
    "postcode": "0182601",
    "prefecture": "秋田県",
    "prefecture_kana": "アキタケン",
    "prefecture_code": 5,
    "city": "山本郡八峰町",
    "city_kana": "ヤマモトグンハッポウチョウ",
    "town": "八森乙の水",
    "town_kana": "ハチモリオトノミズ",
    "street": null,
    "office_name": null,
    "office_name_kana": null
  },
  "2602": {
    "postcode": "0182602",
    "prefecture": "秋田県",
    "prefecture_kana": "アキタケン",
    "prefecture_code": 5,
    "city": "山本郡八峰町",
    "city_kana": "ヤマモトグンハッポウチョウ",
    "town": "八森チゴキ",
    "town_kana": "ハチモリチゴキ",
    "street": null,
    "office_name": null,
    "office_name_kana": null
  },
  "2603": {
    "postcode": "0182603",
    "prefecture": "秋田県",
    "prefecture_kana": "アキタケン",
    "prefecture_code": 5,
    "city": "山本郡八峰町",
    "city_kana": "ヤマモトグンハッポウチョウ",
    "town": "八森物見",
    "town_kana": "ハチモリモノミ",
    "street": null,
    "office_name": null,
    "office_name_kana": null
  },
  "2604": {
    "postcode": "0182604",
    "prefecture": "秋田県",
    "prefecture_kana": "アキタケン",
    "prefecture_code": 5,
    "city": "山本郡八峰町",
    "city_kana": "ヤマモトグンハッポウチョウ",
    "town": "八森和田表",
    "town_kana": "ハチモリワダオモテ",
    "street": null,
    "office_name": null,
    "office_name_kana": null
  },
  "2605": {
    "postcode": "0182605",
    "prefecture": "秋田県",
    "prefecture_kana": "アキタケン",
    "prefecture_code": 5,
    "city": "山本郡八峰町",
    "city_kana": "ヤマモトグンハッポウチョウ",
    "town": "八森岩館塚の台",
    "town_kana": "ハチモリイワダテツカノダイ",
    "street": null,
    "office_name": null,
    "office_name_kana": null
  },
  "2606": {
    "postcode": "0182606",
    "prefecture": "秋田県",
    "prefecture_kana": "アキタケン",
    "prefecture_code": 5,
    "city": "山本郡八峰町",
    "city_kana": "ヤマモトグンハッポウチョウ",
    "town": "八森釜の上",
    "town_kana": "ハチモリカマノウエ",
    "street": null,
    "office_name": null,
    "office_name_kana": null
  },
  "2607": {
    "postcode": "0182607",
    "prefecture": "秋田県",
    "prefecture_kana": "アキタケン",
    "prefecture_code": 5,
    "city": "山本郡八峰町",
    "city_kana": "ヤマモトグンハッポウチョウ",
    "town": "八森林の沢",
    "town_kana": "ハチモリハヤシノサワ",
    "street": null,
    "office_name": null,
    "office_name_kana": null
  },
  "2608": {
    "postcode": "0182608",
    "prefecture": "秋田県",
    "prefecture_kana": "アキタケン",
    "prefecture_code": 5,
    "city": "山本郡八峰町",
    "city_kana": "ヤマモトグンハッポウチョウ",
    "town": "八森岩館向台",
    "town_kana": "ハチモリイワダテムカイダイ",
    "street": null,
    "office_name": null,
    "office_name_kana": null
  },
  "2609": {
    "postcode": "0182609",
    "prefecture": "秋田県",
    "prefecture_kana": "アキタケン",
    "prefecture_code": 5,
    "city": "山本郡八峰町",
    "city_kana": "ヤマモトグンハッポウチョウ",
    "town": "八森門の沢",
    "town_kana": "ハチモリカドノサワ",
    "street": null,
    "office_name": null,
    "office_name_kana": null
  },
  "2611": {
    "postcode": "0182611",
    "prefecture": "秋田県",
    "prefecture_kana": "アキタケン",
    "prefecture_code": 5,
    "city": "山本郡八峰町",
    "city_kana": "ヤマモトグンハッポウチョウ",
    "town": "八森岩館",
    "town_kana": "ハチモリイワダテ",
    "street": null,
    "office_name": null,
    "office_name_kana": null
  },
  "2612": {
    "postcode": "0182612",
    "prefecture": "秋田県",
    "prefecture_kana": "アキタケン",
    "prefecture_code": 5,
    "city": "山本郡八峰町",
    "city_kana": "ヤマモトグンハッポウチョウ",
    "town": "八森ノケソリ",
    "town_kana": "ハチモリノケソリ",
    "street": null,
    "office_name": null,
    "office_name_kana": null
  },
  "2613": {
    "postcode": "0182613",
    "prefecture": "秋田県",
    "prefecture_kana": "アキタケン",
    "prefecture_code": 5,
    "city": "山本郡八峰町",
    "city_kana": "ヤマモトグンハッポウチョウ",
    "town": "八森鉱山",
    "town_kana": "ハチモリコウザン",
    "street": null,
    "office_name": null,
    "office_name_kana": null
  },
  "2614": {
    "postcode": "0182614",
    "prefecture": "秋田県",
    "prefecture_kana": "アキタケン",
    "prefecture_code": 5,
    "city": "山本郡八峰町",
    "city_kana": "ヤマモトグンハッポウチョウ",
    "town": "八森小入川家の上",
    "town_kana": "ハチモリコイリカワイエノカミ",
    "street": null,
    "office_name": null,
    "office_name_kana": null
  },
  "2615": {
    "postcode": "0182615",
    "prefecture": "秋田県",
    "prefecture_kana": "アキタケン",
    "prefecture_code": 5,
    "city": "山本郡八峰町",
    "city_kana": "ヤマモトグンハッポウチョウ",
    "town": "八森伊勢鉢台",
    "town_kana": "ハチモリイセバチダイ",
    "street": null,
    "office_name": null,
    "office_name_kana": null
  },
  "2616": {
    "postcode": "0182616",
    "prefecture": "秋田県",
    "prefecture_kana": "アキタケン",
    "prefecture_code": 5,
    "city": "山本郡八峰町",
    "city_kana": "ヤマモトグンハッポウチョウ",
    "town": "八森三沢",
    "town_kana": "ハチモリミサワ",
    "street": null,
    "office_name": null,
    "office_name_kana": null
  },
  "2617": {
    "postcode": "0182617",
    "prefecture": "秋田県",
    "prefecture_kana": "アキタケン",
    "prefecture_code": 5,
    "city": "山本郡八峰町",
    "city_kana": "ヤマモトグンハッポウチョウ",
    "town": "八森御所の台",
    "town_kana": "ハチモリゴショノダイ",
    "street": null,
    "office_name": null,
    "office_name_kana": null
  },
  "2618": {
    "postcode": "0182618",
    "prefecture": "秋田県",
    "prefecture_kana": "アキタケン",
    "prefecture_code": 5,
    "city": "山本郡八峰町",
    "city_kana": "ヤマモトグンハッポウチョウ",
    "town": "八森木戸の沢",
    "town_kana": "ハチモリキドノサワ",
    "street": null,
    "office_name": null,
    "office_name_kana": null
  },
  "2619": {
    "postcode": "0182619",
    "prefecture": "秋田県",
    "prefecture_kana": "アキタケン",
    "prefecture_code": 5,
    "city": "山本郡八峰町",
    "city_kana": "ヤマモトグンハッポウチョウ",
    "town": "八森長坂",
    "town_kana": "ハチモリナガサカ",
    "street": null,
    "office_name": null,
    "office_name_kana": null
  },
  "2621": {
    "postcode": "0182621",
    "prefecture": "秋田県",
    "prefecture_kana": "アキタケン",
    "prefecture_code": 5,
    "city": "山本郡八峰町",
    "city_kana": "ヤマモトグンハッポウチョウ",
    "town": "八森茶の沢",
    "town_kana": "ハチモリチャノサワ",
    "street": null,
    "office_name": null,
    "office_name_kana": null
  },
  "2622": {
    "postcode": "0182622",
    "prefecture": "秋田県",
    "prefecture_kana": "アキタケン",
    "prefecture_code": 5,
    "city": "山本郡八峰町",
    "city_kana": "ヤマモトグンハッポウチョウ",
    "town": "八森家の向",
    "town_kana": "ハチモリイエノムカイ",
    "street": null,
    "office_name": null,
    "office_name_kana": null
  },
  "2623": {
    "postcode": "0182623",
    "prefecture": "秋田県",
    "prefecture_kana": "アキタケン",
    "prefecture_code": 5,
    "city": "山本郡八峰町",
    "city_kana": "ヤマモトグンハッポウチョウ",
    "town": "八森滝ノ間",
    "town_kana": "ハチモリタキノマ",
    "street": null,
    "office_name": null,
    "office_name_kana": null
  },
  "2624": {
    "postcode": "0182624",
    "prefecture": "秋田県",
    "prefecture_kana": "アキタケン",
    "prefecture_code": 5,
    "city": "山本郡八峰町",
    "city_kana": "ヤマモトグンハッポウチョウ",
    "town": "八森横間台",
    "town_kana": "ハチモリヨコマダイ",
    "street": null,
    "office_name": null,
    "office_name_kana": null
  },
  "2625": {
    "postcode": "0182625",
    "prefecture": "秋田県",
    "prefecture_kana": "アキタケン",
    "prefecture_code": 5,
    "city": "山本郡八峰町",
    "city_kana": "ヤマモトグンハッポウチョウ",
    "town": "八森山内台",
    "town_kana": "ハチモリサンナイダイ",
    "street": null,
    "office_name": null,
    "office_name_kana": null
  },
  "2626": {
    "postcode": "0182626",
    "prefecture": "秋田県",
    "prefecture_kana": "アキタケン",
    "prefecture_code": 5,
    "city": "山本郡八峰町",
    "city_kana": "ヤマモトグンハッポウチョウ",
    "town": "八森横間",
    "town_kana": "ハチモリヨコマ",
    "street": null,
    "office_name": null,
    "office_name_kana": null
  },
  "2627": {
    "postcode": "0182627",
    "prefecture": "秋田県",
    "prefecture_kana": "アキタケン",
    "prefecture_code": 5,
    "city": "山本郡八峰町",
    "city_kana": "ヤマモトグンハッポウチョウ",
    "town": "八森山内",
    "town_kana": "ハチモリサンナイ",
    "street": null,
    "office_name": null,
    "office_name_kana": null
  },
  "2628": {
    "postcode": "0182628",
    "prefecture": "秋田県",
    "prefecture_kana": "アキタケン",
    "prefecture_code": 5,
    "city": "山本郡八峰町",
    "city_kana": "ヤマモトグンハッポウチョウ",
    "town": "八森立石",
    "town_kana": "ハチモリタテイシ",
    "street": null,
    "office_name": null,
    "office_name_kana": null
  },
  "2631": {
    "postcode": "0182631",
    "prefecture": "秋田県",
    "prefecture_kana": "アキタケン",
    "prefecture_code": 5,
    "city": "山本郡八峰町",
    "city_kana": "ヤマモトグンハッポウチョウ",
    "town": "八森五輪台下段",
    "town_kana": "ハチモリゴリンダイゲダン",
    "street": null,
    "office_name": null,
    "office_name_kana": null
  },
  "2632": {
    "postcode": "0182632",
    "prefecture": "秋田県",
    "prefecture_kana": "アキタケン",
    "prefecture_code": 5,
    "city": "山本郡八峰町",
    "city_kana": "ヤマモトグンハッポウチョウ",
    "town": "八森三十釜",
    "town_kana": "ハチモリサンジュウガマ",
    "street": null,
    "office_name": null,
    "office_name_kana": null
  },
  "2633": {
    "postcode": "0182633",
    "prefecture": "秋田県",
    "prefecture_kana": "アキタケン",
    "prefecture_code": 5,
    "city": "山本郡八峰町",
    "city_kana": "ヤマモトグンハッポウチョウ",
    "town": "八森五輪台上段",
    "town_kana": "ハチモリゴリンダイジョウダン",
    "street": null,
    "office_name": null,
    "office_name_kana": null
  },
  "2634": {
    "postcode": "0182634",
    "prefecture": "秋田県",
    "prefecture_kana": "アキタケン",
    "prefecture_code": 5,
    "city": "山本郡八峰町",
    "city_kana": "ヤマモトグンハッポウチョウ",
    "town": "八森滝の上",
    "town_kana": "ハチモリタキノウエ",
    "street": null,
    "office_name": null,
    "office_name_kana": null
  },
  "2635": {
    "postcode": "0182635",
    "prefecture": "秋田県",
    "prefecture_kana": "アキタケン",
    "prefecture_code": 5,
    "city": "山本郡八峰町",
    "city_kana": "ヤマモトグンハッポウチョウ",
    "town": "八森下嘉治助台",
    "town_kana": "ハチモリシモカジスケダイ",
    "street": null,
    "office_name": null,
    "office_name_kana": null
  },
  "2636": {
    "postcode": "0182636",
    "prefecture": "秋田県",
    "prefecture_kana": "アキタケン",
    "prefecture_code": 5,
    "city": "山本郡八峰町",
    "city_kana": "ヤマモトグンハッポウチョウ",
    "town": "八森上嘉治助台",
    "town_kana": "ハチモリカミカジスケダイ",
    "street": null,
    "office_name": null,
    "office_name_kana": null
  },
  "2637": {
    "postcode": "0182637",
    "prefecture": "秋田県",
    "prefecture_kana": "アキタケン",
    "prefecture_code": 5,
    "city": "山本郡八峰町",
    "city_kana": "ヤマモトグンハッポウチョウ",
    "town": "八森家の後",
    "town_kana": "ハチモリイエノウシロ",
    "street": null,
    "office_name": null,
    "office_name_kana": null
  },
  "2638": {
    "postcode": "0182638",
    "prefecture": "秋田県",
    "prefecture_kana": "アキタケン",
    "prefecture_code": 5,
    "city": "山本郡八峰町",
    "city_kana": "ヤマモトグンハッポウチョウ",
    "town": "八森茂浦",
    "town_kana": "ハチモリモウラ",
    "street": null,
    "office_name": null,
    "office_name_kana": null
  },
  "2641": {
    "postcode": "0182641",
    "prefecture": "秋田県",
    "prefecture_kana": "アキタケン",
    "prefecture_code": 5,
    "city": "山本郡八峰町",
    "city_kana": "ヤマモトグンハッポウチョウ",
    "town": "八森中浜",
    "town_kana": "ハチモリナカハマ",
    "street": null,
    "office_name": null,
    "office_name_kana": null
  },
  "2642": {
    "postcode": "0182642",
    "prefecture": "秋田県",
    "prefecture_kana": "アキタケン",
    "prefecture_code": 5,
    "city": "山本郡八峰町",
    "city_kana": "ヤマモトグンハッポウチョウ",
    "town": "八森椿",
    "town_kana": "ハチモリツバキ",
    "street": null,
    "office_name": null,
    "office_name_kana": null
  },
  "2643": {
    "postcode": "0182643",
    "prefecture": "秋田県",
    "prefecture_kana": "アキタケン",
    "prefecture_code": 5,
    "city": "山本郡八峰町",
    "city_kana": "ヤマモトグンハッポウチョウ",
    "town": "八森家の上",
    "town_kana": "ハチモリイエノカミ",
    "street": null,
    "office_name": null,
    "office_name_kana": null
  },
  "2644": {
    "postcode": "0182644",
    "prefecture": "秋田県",
    "prefecture_kana": "アキタケン",
    "prefecture_code": 5,
    "city": "山本郡八峰町",
    "city_kana": "ヤマモトグンハッポウチョウ",
    "town": "八森椿台",
    "town_kana": "ハチモリツバキダイ",
    "street": null,
    "office_name": null,
    "office_name_kana": null
  },
  "2645": {
    "postcode": "0182645",
    "prefecture": "秋田県",
    "prefecture_kana": "アキタケン",
    "prefecture_code": 5,
    "city": "山本郡八峰町",
    "city_kana": "ヤマモトグンハッポウチョウ",
    "town": "八森中嶋",
    "town_kana": "ハチモリナカジマ",
    "street": null,
    "office_name": null,
    "office_name_kana": null
  },
  "2646": {
    "postcode": "0182646",
    "prefecture": "秋田県",
    "prefecture_kana": "アキタケン",
    "prefecture_code": 5,
    "city": "山本郡八峰町",
    "city_kana": "ヤマモトグンハッポウチョウ",
    "town": "八森塚の台",
    "town_kana": "ハチモリツカノダイ",
    "street": null,
    "office_name": null,
    "office_name_kana": null
  },
  "2647": {
    "postcode": "0182647",
    "prefecture": "秋田県",
    "prefecture_kana": "アキタケン",
    "prefecture_code": 5,
    "city": "山本郡八峰町",
    "city_kana": "ヤマモトグンハッポウチョウ",
    "town": "八森鹿の浦",
    "town_kana": "ハチモリカノウラ",
    "street": null,
    "office_name": null,
    "office_name_kana": null
  },
  "2648": {
    "postcode": "0182648",
    "prefecture": "秋田県",
    "prefecture_kana": "アキタケン",
    "prefecture_code": 5,
    "city": "山本郡八峰町",
    "city_kana": "ヤマモトグンハッポウチョウ",
    "town": "八森泊台",
    "town_kana": "ハチモリトマリダイ",
    "street": null,
    "office_name": null,
    "office_name_kana": null
  },
  "2651": {
    "postcode": "0182651",
    "prefecture": "秋田県",
    "prefecture_kana": "アキタケン",
    "prefecture_code": 5,
    "city": "山本郡八峰町",
    "city_kana": "ヤマモトグンハッポウチョウ",
    "town": "八森下館下",
    "town_kana": "ハチモリシモタテシタ",
    "street": null,
    "office_name": null,
    "office_name_kana": null
  },
  "2652": {
    "postcode": "0182652",
    "prefecture": "秋田県",
    "prefecture_kana": "アキタケン",
    "prefecture_code": 5,
    "city": "山本郡八峰町",
    "city_kana": "ヤマモトグンハッポウチョウ",
    "town": "八森本館中台",
    "town_kana": "ハチモリモトダテナカダイ",
    "street": null,
    "office_name": null,
    "office_name_kana": null
  },
  "2653": {
    "postcode": "0182653",
    "prefecture": "秋田県",
    "prefecture_kana": "アキタケン",
    "prefecture_code": 5,
    "city": "山本郡八峰町",
    "city_kana": "ヤマモトグンハッポウチョウ",
    "town": "八森倉の沢",
    "town_kana": "ハチモリクラノサワ",
    "street": null,
    "office_name": null,
    "office_name_kana": null
  },
  "2654": {
    "postcode": "0182654",
    "prefecture": "秋田県",
    "prefecture_kana": "アキタケン",
    "prefecture_code": 5,
    "city": "山本郡八峰町",
    "city_kana": "ヤマモトグンハッポウチョウ",
    "town": "八森諸沢口",
    "town_kana": "ハチモリモロサワグチ",
    "street": null,
    "office_name": null,
    "office_name_kana": null
  },
  "2655": {
    "postcode": "0182655",
    "prefecture": "秋田県",
    "prefecture_kana": "アキタケン",
    "prefecture_code": 5,
    "city": "山本郡八峰町",
    "city_kana": "ヤマモトグンハッポウチョウ",
    "town": "八森本館",
    "town_kana": "ハチモリモトダテ",
    "street": null,
    "office_name": null,
    "office_name_kana": null
  },
  "2656": {
    "postcode": "0182656",
    "prefecture": "秋田県",
    "prefecture_kana": "アキタケン",
    "prefecture_code": 5,
    "city": "山本郡八峰町",
    "city_kana": "ヤマモトグンハッポウチョウ",
    "town": "八森諸沢下脇",
    "town_kana": "ハチモリモロサワシモワキ",
    "street": null,
    "office_name": null,
    "office_name_kana": null
  },
  "2661": {
    "postcode": "0182661",
    "prefecture": "秋田県",
    "prefecture_kana": "アキタケン",
    "prefecture_code": 5,
    "city": "山本郡八峰町",
    "city_kana": "ヤマモトグンハッポウチョウ",
    "town": "八森浜田",
    "town_kana": "ハチモリハマダ",
    "street": null,
    "office_name": null,
    "office_name_kana": null
  },
  "2662": {
    "postcode": "0182662",
    "prefecture": "秋田県",
    "prefecture_kana": "アキタケン",
    "prefecture_code": 5,
    "city": "山本郡八峰町",
    "city_kana": "ヤマモトグンハッポウチョウ",
    "town": "八森新浜田",
    "town_kana": "ハチモリシンハマダ",
    "street": null,
    "office_name": null,
    "office_name_kana": null
  },
  "2663": {
    "postcode": "0182663",
    "prefecture": "秋田県",
    "prefecture_kana": "アキタケン",
    "prefecture_code": 5,
    "city": "山本郡八峰町",
    "city_kana": "ヤマモトグンハッポウチョウ",
    "town": "八森樋長",
    "town_kana": "ハチモリトヨナガ",
    "street": null,
    "office_name": null,
    "office_name_kana": null
  },
  "2664": {
    "postcode": "0182664",
    "prefecture": "秋田県",
    "prefecture_kana": "アキタケン",
    "prefecture_code": 5,
    "city": "山本郡八峰町",
    "city_kana": "ヤマモトグンハッポウチョウ",
    "town": "八森古屋敷",
    "town_kana": "ハチモリフルヤシキ",
    "street": null,
    "office_name": null,
    "office_name_kana": null
  },
  "2665": {
    "postcode": "0182665",
    "prefecture": "秋田県",
    "prefecture_kana": "アキタケン",
    "prefecture_code": 5,
    "city": "山本郡八峰町",
    "city_kana": "ヤマモトグンハッポウチョウ",
    "town": "八森寺の後川向",
    "town_kana": "ハチモリテラノウシロカワムカイ",
    "street": null,
    "office_name": null,
    "office_name_kana": null
  },
  "2666": {
    "postcode": "0182666",
    "prefecture": "秋田県",
    "prefecture_kana": "アキタケン",
    "prefecture_code": 5,
    "city": "山本郡八峰町",
    "city_kana": "ヤマモトグンハッポウチョウ",
    "town": "八森寺の後",
    "town_kana": "ハチモリテラノウシロ",
    "street": null,
    "office_name": null,
    "office_name_kana": null
  },
  "2667": {
    "postcode": "0182667",
    "prefecture": "秋田県",
    "prefecture_kana": "アキタケン",
    "prefecture_code": 5,
    "city": "山本郡八峰町",
    "city_kana": "ヤマモトグンハッポウチョウ",
    "town": "八森八森家後",
    "town_kana": "ハチモリハチモリイエウシロ",
    "street": null,
    "office_name": null,
    "office_name_kana": null
  },
  "2671": {
    "postcode": "0182671",
    "prefecture": "秋田県",
    "prefecture_kana": "アキタケン",
    "prefecture_code": 5,
    "city": "山本郡八峰町",
    "city_kana": "ヤマモトグンハッポウチョウ",
    "town": "八森湯の尻",
    "town_kana": "ハチモリユノシリ",
    "street": null,
    "office_name": null,
    "office_name_kana": null
  },
  "2672": {
    "postcode": "0182672",
    "prefecture": "秋田県",
    "prefecture_kana": "アキタケン",
    "prefecture_code": 5,
    "city": "山本郡八峰町",
    "city_kana": "ヤマモトグンハッポウチョウ",
    "town": "八森下家後",
    "town_kana": "ハチモリシモイエウシロ",
    "street": null,
    "office_name": null,
    "office_name_kana": null
  },
  "2673": {
    "postcode": "0182673",
    "prefecture": "秋田県",
    "prefecture_kana": "アキタケン",
    "prefecture_code": 5,
    "city": "山本郡八峰町",
    "city_kana": "ヤマモトグンハッポウチョウ",
    "town": "八森中家後",
    "town_kana": "ハチモリナカイエウシロ",
    "street": null,
    "office_name": null,
    "office_name_kana": null
  },
  "2674": {
    "postcode": "0182674",
    "prefecture": "秋田県",
    "prefecture_kana": "アキタケン",
    "prefecture_code": 5,
    "city": "山本郡八峰町",
    "city_kana": "ヤマモトグンハッポウチョウ",
    "town": "八森上家後",
    "town_kana": "ハチモリカミイエウシロ",
    "street": null,
    "office_name": null,
    "office_name_kana": null
  },
  "2675": {
    "postcode": "0182675",
    "prefecture": "秋田県",
    "prefecture_kana": "アキタケン",
    "prefecture_code": 5,
    "city": "山本郡八峰町",
    "city_kana": "ヤマモトグンハッポウチョウ",
    "town": "八森篭田",
    "town_kana": "ハチモリカゴタ",
    "street": null,
    "office_name": null,
    "office_name_kana": null
  },
  "2676": {
    "postcode": "0182676",
    "prefecture": "秋田県",
    "prefecture_kana": "アキタケン",
    "prefecture_code": 5,
    "city": "山本郡八峰町",
    "city_kana": "ヤマモトグンハッポウチョウ",
    "town": "八森磯村",
    "town_kana": "ハチモリイソムラ",
    "street": null,
    "office_name": null,
    "office_name_kana": null
  },
  "2677": {
    "postcode": "0182677",
    "prefecture": "秋田県",
    "prefecture_kana": "アキタケン",
    "prefecture_code": 5,
    "city": "山本郡八峰町",
    "city_kana": "ヤマモトグンハッポウチョウ",
    "town": "八森八森後",
    "town_kana": "ハチモリハチモリウシロ",
    "street": null,
    "office_name": null,
    "office_name_kana": null
  },
  "2678": {
    "postcode": "0182678",
    "prefecture": "秋田県",
    "prefecture_kana": "アキタケン",
    "prefecture_code": 5,
    "city": "山本郡八峰町",
    "city_kana": "ヤマモトグンハッポウチョウ",
    "town": "八森八森",
    "town_kana": "ハチモリハチモリ",
    "street": null,
    "office_name": null,
    "office_name_kana": null
  },
  "2801": {
    "postcode": "0182801",
    "prefecture": "秋田県",
    "prefecture_kana": "アキタケン",
    "prefecture_code": 5,
    "city": "能代市",
    "city_kana": "ノシロシ",
    "town": "常盤",
    "town_kana": "トキワ",
    "street": null,
    "office_name": null,
    "office_name_kana": null
  },
  "2802": {
    "postcode": "0182802",
    "prefecture": "秋田県",
    "prefecture_kana": "アキタケン",
    "prefecture_code": 5,
    "city": "能代市",
    "city_kana": "ノシロシ",
    "town": "天内",
    "town_kana": "アマナイ",
    "street": null,
    "office_name": null,
    "office_name_kana": null
  },
  "2803": {
    "postcode": "0182803",
    "prefecture": "秋田県",
    "prefecture_kana": "アキタケン",
    "prefecture_code": 5,
    "city": "能代市",
    "city_kana": "ノシロシ",
    "town": "外割田",
    "town_kana": "トワリダ",
    "street": null,
    "office_name": null,
    "office_name_kana": null
  },
  "2804": {
    "postcode": "0182804",
    "prefecture": "秋田県",
    "prefecture_kana": "アキタケン",
    "prefecture_code": 5,
    "city": "能代市",
    "city_kana": "ノシロシ",
    "town": "槐",
    "town_kana": "サイカチ",
    "street": null,
    "office_name": null,
    "office_name_kana": null
  },
  "2805": {
    "postcode": "0182805",
    "prefecture": "秋田県",
    "prefecture_kana": "アキタケン",
    "prefecture_code": 5,
    "city": "能代市",
    "city_kana": "ノシロシ",
    "town": "轟",
    "town_kana": "トドロキ",
    "street": null,
    "office_name": null,
    "office_name_kana": null
  },
  "2806": {
    "postcode": "0182806",
    "prefecture": "秋田県",
    "prefecture_kana": "アキタケン",
    "prefecture_code": 5,
    "city": "能代市",
    "city_kana": "ノシロシ",
    "town": "久喜沢",
    "town_kana": "クキサワ",
    "street": null,
    "office_name": null,
    "office_name_kana": null
  },
  "2811": {
    "postcode": "0182811",
    "prefecture": "秋田県",
    "prefecture_kana": "アキタケン",
    "prefecture_code": 5,
    "city": "能代市",
    "city_kana": "ノシロシ",
    "town": "産物",
    "town_kana": "サンブツ",
    "street": null,
    "office_name": null,
    "office_name_kana": null
  },
  "2812": {
    "postcode": "0182812",
    "prefecture": "秋田県",
    "prefecture_kana": "アキタケン",
    "prefecture_code": 5,
    "city": "能代市",
    "city_kana": "ノシロシ",
    "town": "大曲",
    "town_kana": "オオマガリ",
    "street": null,
    "office_name": null,
    "office_name_kana": null
  },
  "2813": {
    "postcode": "0182813",
    "prefecture": "秋田県",
    "prefecture_kana": "アキタケン",
    "prefecture_code": 5,
    "city": "能代市",
    "city_kana": "ノシロシ",
    "town": "上悪土",
    "town_kana": "カミアクド",
    "street": null,
    "office_name": null,
    "office_name_kana": null
  },
  "2814": {
    "postcode": "0182814",
    "prefecture": "秋田県",
    "prefecture_kana": "アキタケン",
    "prefecture_code": 5,
    "city": "能代市",
    "city_kana": "ノシロシ",
    "town": "狐森",
    "town_kana": "キツネモリ",
    "street": null,
    "office_name": null,
    "office_name_kana": null
  },
  "2815": {
    "postcode": "0182815",
    "prefecture": "秋田県",
    "prefecture_kana": "アキタケン",
    "prefecture_code": 5,
    "city": "能代市",
    "city_kana": "ノシロシ",
    "town": "東面",
    "town_kana": "トウメン",
    "street": null,
    "office_name": null,
    "office_name_kana": null
  },
  "3101": {
    "postcode": "0183101",
    "prefecture": "秋田県",
    "prefecture_kana": "アキタケン",
    "prefecture_code": 5,
    "city": "能代市",
    "city_kana": "ノシロシ",
    "town": "二ツ井町麻生",
    "town_kana": "フタツイマチアソウ",
    "street": null,
    "office_name": null,
    "office_name_kana": null
  },
  "3102": {
    "postcode": "0183102",
    "prefecture": "秋田県",
    "prefecture_kana": "アキタケン",
    "prefecture_code": 5,
    "city": "能代市",
    "city_kana": "ノシロシ",
    "town": "二ツ井町小繋",
    "town_kana": "フタツイマチコツナギ",
    "street": null,
    "office_name": null,
    "office_name_kana": null
  },
  "3103": {
    "postcode": "0183103",
    "prefecture": "秋田県",
    "prefecture_kana": "アキタケン",
    "prefecture_code": 5,
    "city": "能代市",
    "city_kana": "ノシロシ",
    "town": "二ツ井町荷上場",
    "town_kana": "フタツイマチニアゲバ",
    "street": null,
    "office_name": null,
    "office_name_kana": null
  },
  "3104": {
    "postcode": "0183104",
    "prefecture": "秋田県",
    "prefecture_kana": "アキタケン",
    "prefecture_code": 5,
    "city": "能代市",
    "city_kana": "ノシロシ",
    "town": "二ツ井町沢口",
    "town_kana": "フタツイマチサワグチ",
    "street": null,
    "office_name": null,
    "office_name_kana": null
  },
  "3105": {
    "postcode": "0183105",
    "prefecture": "秋田県",
    "prefecture_kana": "アキタケン",
    "prefecture_code": 5,
    "city": "能代市",
    "city_kana": "ノシロシ",
    "town": "二ツ井町上山崎",
    "town_kana": "フタツイマチカミヤマザキ",
    "street": null,
    "office_name": null,
    "office_name_kana": null
  },
  "3106": {
    "postcode": "0183106",
    "prefecture": "秋田県",
    "prefecture_kana": "アキタケン",
    "prefecture_code": 5,
    "city": "能代市",
    "city_kana": "ノシロシ",
    "town": "二ツ井町濁川",
    "town_kana": "フタツイマチニゴリカワ",
    "street": null,
    "office_name": null,
    "office_name_kana": null
  },
  "3107": {
    "postcode": "0183107",
    "prefecture": "秋田県",
    "prefecture_kana": "アキタケン",
    "prefecture_code": 5,
    "city": "能代市",
    "city_kana": "ノシロシ",
    "town": "二ツ井町苅又石",
    "town_kana": "フタツイマチカリマタイシ",
    "street": null,
    "office_name": null,
    "office_name_kana": null
  },
  "3111": {
    "postcode": "0183111",
    "prefecture": "秋田県",
    "prefecture_kana": "アキタケン",
    "prefecture_code": 5,
    "city": "能代市",
    "city_kana": "ノシロシ",
    "town": "二ツ井町田代",
    "town_kana": "フタツイマチタシロ",
    "street": null,
    "office_name": null,
    "office_name_kana": null
  },
  "3112": {
    "postcode": "0183112",
    "prefecture": "秋田県",
    "prefecture_kana": "アキタケン",
    "prefecture_code": 5,
    "city": "能代市",
    "city_kana": "ノシロシ",
    "town": "二ツ井町小掛",
    "town_kana": "フタツイマチコガケ",
    "street": null,
    "office_name": null,
    "office_name_kana": null
  },
  "3113": {
    "postcode": "0183113",
    "prefecture": "秋田県",
    "prefecture_kana": "アキタケン",
    "prefecture_code": 5,
    "city": "能代市",
    "city_kana": "ノシロシ",
    "town": "二ツ井町仁鮒",
    "town_kana": "フタツイマチニブナ",
    "street": null,
    "office_name": null,
    "office_name_kana": null
  },
  "3114": {
    "postcode": "0183114",
    "prefecture": "秋田県",
    "prefecture_kana": "アキタケン",
    "prefecture_code": 5,
    "city": "能代市",
    "city_kana": "ノシロシ",
    "town": "二ツ井町桜台",
    "town_kana": "フタツイマチサクラダイ",
    "street": null,
    "office_name": null,
    "office_name_kana": null
  },
  "3115": {
    "postcode": "0183115",
    "prefecture": "秋田県",
    "prefecture_kana": "アキタケン",
    "prefecture_code": 5,
    "city": "能代市",
    "city_kana": "ノシロシ",
    "town": "二ツ井町海道上",
    "town_kana": "フタツイマチカイドウウエ",
    "street": null,
    "office_name": null,
    "office_name_kana": null
  },
  "3116": {
    "postcode": "0183116",
    "prefecture": "秋田県",
    "prefecture_kana": "アキタケン",
    "prefecture_code": 5,
    "city": "能代市",
    "city_kana": "ノシロシ",
    "town": "二ツ井町家後",
    "town_kana": "フタツイマチイエウシロ",
    "street": null,
    "office_name": null,
    "office_name_kana": null
  },
  "3117": {
    "postcode": "0183117",
    "prefecture": "秋田県",
    "prefecture_kana": "アキタケン",
    "prefecture_code": 5,
    "city": "能代市",
    "city_kana": "ノシロシ",
    "town": "二ツ井町塚台",
    "town_kana": "フタツイマチツカノダイ",
    "street": null,
    "office_name": null,
    "office_name_kana": null
  },
  "3118": {
    "postcode": "0183118",
    "prefecture": "秋田県",
    "prefecture_kana": "アキタケン",
    "prefecture_code": 5,
    "city": "能代市",
    "city_kana": "ノシロシ",
    "town": "二ツ井町上台",
    "town_kana": "フタツイマチウワダイ",
    "street": null,
    "office_name": null,
    "office_name_kana": null
  },
  "3119": {
    "postcode": "0183119",
    "prefecture": "秋田県",
    "prefecture_kana": "アキタケン",
    "prefecture_code": 5,
    "city": "能代市",
    "city_kana": "ノシロシ",
    "town": "二ツ井町薄井",
    "town_kana": "フタツイマチウスイ",
    "street": null,
    "office_name": null,
    "office_name_kana": null
  },
  "3121": [
    {
      "postcode": "0183121",
      "prefecture": "秋田県",
      "prefecture_kana": "アキタケン",
      "prefecture_code": 5,
      "city": "能代市",
      "city_kana": "ノシロシ",
      "town": "二ツ井町飛根",
      "town_kana": "フタツイマチトブネ",
      "street": null,
      "office_name": null,
      "office_name_kana": null
    },
    {
      "postcode": "0183121",
      "prefecture": "秋田県",
      "prefecture_kana": "アキタケン",
      "prefecture_code": 5,
      "city": "能代市",
      "city_kana": "ノシロシ",
      "town": "二ツ井町飛根富根",
      "town_kana": "フタツイマチトブネトミネ",
      "street": null,
      "office_name": null,
      "office_name_kana": null
    }
  ],
  "3122": {
    "postcode": "0183122",
    "prefecture": "秋田県",
    "prefecture_kana": "アキタケン",
    "prefecture_code": 5,
    "city": "能代市",
    "city_kana": "ノシロシ",
    "town": "二ツ井町飛根",
    "town_kana": "フタツイマチトブネ",
    "street": null,
    "office_name": null,
    "office_name_kana": null
  },
  "3123": {
    "postcode": "0183123",
    "prefecture": "秋田県",
    "prefecture_kana": "アキタケン",
    "prefecture_code": 5,
    "city": "能代市",
    "city_kana": "ノシロシ",
    "town": "二ツ井町駒形",
    "town_kana": "フタツイマチコマガタ",
    "street": null,
    "office_name": null,
    "office_name_kana": null
  },
  "3124": {
    "postcode": "0183124",
    "prefecture": "秋田県",
    "prefecture_kana": "アキタケン",
    "prefecture_code": 5,
    "city": "能代市",
    "city_kana": "ノシロシ",
    "town": "二ツ井町切石",
    "town_kana": "フタツイマチキリイシ",
    "street": null,
    "office_name": null,
    "office_name_kana": null
  },
  "3125": {
    "postcode": "0183125",
    "prefecture": "秋田県",
    "prefecture_kana": "アキタケン",
    "prefecture_code": 5,
    "city": "能代市",
    "city_kana": "ノシロシ",
    "town": "二ツ井町茶屋下",
    "town_kana": "フタツイマチチャヤシタ",
    "street": null,
    "office_name": null,
    "office_name_kana": null
  },
  "3126": {
    "postcode": "0183126",
    "prefecture": "秋田県",
    "prefecture_kana": "アキタケン",
    "prefecture_code": 5,
    "city": "能代市",
    "city_kana": "ノシロシ",
    "town": "二ツ井町狐台",
    "town_kana": "フタツイマチキツネダイ",
    "street": null,
    "office_name": null,
    "office_name_kana": null
  },
  "3127": {
    "postcode": "0183127",
    "prefecture": "秋田県",
    "prefecture_kana": "アキタケン",
    "prefecture_code": 5,
    "city": "能代市",
    "city_kana": "ノシロシ",
    "town": "二ツ井町稗川原",
    "town_kana": "フタツイマチヒエカワハラ",
    "street": null,
    "office_name": null,
    "office_name_kana": null
  },
  "3128": {
    "postcode": "0183128",
    "prefecture": "秋田県",
    "prefecture_kana": "アキタケン",
    "prefecture_code": 5,
    "city": "能代市",
    "city_kana": "ノシロシ",
    "town": "二ツ井町下稗柄",
    "town_kana": "フタツイマチシモヒエガラ",
    "street": null,
    "office_name": null,
    "office_name_kana": null
  },
  "3129": {
    "postcode": "0183129",
    "prefecture": "秋田県",
    "prefecture_kana": "アキタケン",
    "prefecture_code": 5,
    "city": "能代市",
    "city_kana": "ノシロシ",
    "town": "二ツ井町稗柄",
    "town_kana": "フタツイマチヒエガラ",
    "street": null,
    "office_name": null,
    "office_name_kana": null
  },
  "3131": {
    "postcode": "0183131",
    "prefecture": "秋田県",
    "prefecture_kana": "アキタケン",
    "prefecture_code": 5,
    "city": "能代市",
    "city_kana": "ノシロシ",
    "town": "二ツ井町梅内",
    "town_kana": "フタツイマチウメナイ",
    "street": null,
    "office_name": null,
    "office_name_kana": null
  },
  "3132": {
    "postcode": "0183132",
    "prefecture": "秋田県",
    "prefecture_kana": "アキタケン",
    "prefecture_code": 5,
    "city": "能代市",
    "city_kana": "ノシロシ",
    "town": "二ツ井町種",
    "town_kana": "フタツイマチタネ",
    "street": null,
    "office_name": null,
    "office_name_kana": null
  },
  "3133": [
    {
      "postcode": "0183133",
      "prefecture": "秋田県",
      "prefecture_kana": "アキタケン",
      "prefecture_code": 5,
      "city": "能代市",
      "city_kana": "ノシロシ",
      "town": "二ツ井町種",
      "town_kana": "フタツイマチタネ",
      "street": null,
      "office_name": null,
      "office_name_kana": null
    },
    {
      "postcode": "0183133",
      "prefecture": "秋田県",
      "prefecture_kana": "アキタケン",
      "prefecture_code": 5,
      "city": "能代市",
      "city_kana": "ノシロシ",
      "town": "二ツ井町種竹原",
      "town_kana": "フタツイマチタネタケハラ",
      "street": null,
      "office_name": null,
      "office_name_kana": null
    }
  ],
  "3134": {
    "postcode": "0183134",
    "prefecture": "秋田県",
    "prefecture_kana": "アキタケン",
    "prefecture_code": 5,
    "city": "能代市",
    "city_kana": "ノシロシ",
    "town": "二ツ井町高関",
    "town_kana": "フタツイマチタカセキ",
    "street": null,
    "office_name": null,
    "office_name_kana": null
  },
  "3135": {
    "postcode": "0183135",
    "prefecture": "秋田県",
    "prefecture_kana": "アキタケン",
    "prefecture_code": 5,
    "city": "能代市",
    "city_kana": "ノシロシ",
    "town": "二ツ井町山根",
    "town_kana": "フタツイマチヤマネ",
    "street": null,
    "office_name": null,
    "office_name_kana": null
  },
  "3141": {
    "postcode": "0183141",
    "prefecture": "秋田県",
    "prefecture_kana": "アキタケン",
    "prefecture_code": 5,
    "city": "能代市",
    "city_kana": "ノシロシ",
    "town": "二ツ井町五千苅",
    "town_kana": "フタツイマチゴセンガリ",
    "street": null,
    "office_name": null,
    "office_name_kana": null
  },
  "3142": {
    "postcode": "0183142",
    "prefecture": "秋田県",
    "prefecture_kana": "アキタケン",
    "prefecture_code": 5,
    "city": "能代市",
    "city_kana": "ノシロシ",
    "town": "二ツ井町上野",
    "town_kana": "フタツイマチウワノ",
    "street": null,
    "office_name": null,
    "office_name_kana": null
  },
  "3143": {
    "postcode": "0183143",
    "prefecture": "秋田県",
    "prefecture_kana": "アキタケン",
    "prefecture_code": 5,
    "city": "能代市",
    "city_kana": "ノシロシ",
    "town": "二ツ井町太田面",
    "town_kana": "フタツイマチオオタモテ",
    "street": null,
    "office_name": null,
    "office_name_kana": null
  },
  "3144": {
    "postcode": "0183144",
    "prefecture": "秋田県",
    "prefecture_kana": "アキタケン",
    "prefecture_code": 5,
    "city": "能代市",
    "city_kana": "ノシロシ",
    "town": "二ツ井町中坪",
    "town_kana": "フタツイマチナカツボ",
    "street": null,
    "office_name": null,
    "office_name_kana": null
  },
  "3145": {
    "postcode": "0183145",
    "prefecture": "秋田県",
    "prefecture_kana": "アキタケン",
    "prefecture_code": 5,
    "city": "能代市",
    "city_kana": "ノシロシ",
    "town": "二ツ井町道上中坪",
    "town_kana": "フタツイマチミチカミナカツボ",
    "street": null,
    "office_name": null,
    "office_name_kana": null
  },
  "3146": {
    "postcode": "0183146",
    "prefecture": "秋田県",
    "prefecture_kana": "アキタケン",
    "prefecture_code": 5,
    "city": "能代市",
    "city_kana": "ノシロシ",
    "town": "二ツ井町中坪道下",
    "town_kana": "フタツイマチナカツボミチシタ",
    "street": null,
    "office_name": null,
    "office_name_kana": null
  },
  "3147": {
    "postcode": "0183147",
    "prefecture": "秋田県",
    "prefecture_kana": "アキタケン",
    "prefecture_code": 5,
    "city": "能代市",
    "city_kana": "ノシロシ",
    "town": "二ツ井町小槻木",
    "town_kana": "フタツイマチコツキノキ",
    "street": null,
    "office_name": null,
    "office_name_kana": null
  },
  "3148": {
    "postcode": "0183148",
    "prefecture": "秋田県",
    "prefecture_kana": "アキタケン",
    "prefecture_code": 5,
    "city": "能代市",
    "city_kana": "ノシロシ",
    "town": "二ツ井町槻ノ木",
    "town_kana": "フタツイマチツキノキ",
    "street": null,
    "office_name": null,
    "office_name_kana": null
  },
  "3151": {
    "postcode": "0183151",
    "prefecture": "秋田県",
    "prefecture_kana": "アキタケン",
    "prefecture_code": 5,
    "city": "能代市",
    "city_kana": "ノシロシ",
    "town": "二ツ井町三千苅",
    "town_kana": "フタツイマチサンゼンガリ",
    "street": null,
    "office_name": null,
    "office_name_kana": null
  },
  "3152": {
    "postcode": "0183152",
    "prefecture": "秋田県",
    "prefecture_kana": "アキタケン",
    "prefecture_code": 5,
    "city": "能代市",
    "city_kana": "ノシロシ",
    "town": "二ツ井町下野家後",
    "town_kana": "フタツイマチシモノイエウシロ",
    "street": null,
    "office_name": null,
    "office_name_kana": null
  },
  "3153": {
    "postcode": "0183153",
    "prefecture": "秋田県",
    "prefecture_kana": "アキタケン",
    "prefecture_code": 5,
    "city": "能代市",
    "city_kana": "ノシロシ",
    "town": "二ツ井町滑良子川端",
    "town_kana": "フタツイマチナメラコカワバタ",
    "street": null,
    "office_name": null,
    "office_name_kana": null
  },
  "3154": {
    "postcode": "0183154",
    "prefecture": "秋田県",
    "prefecture_kana": "アキタケン",
    "prefecture_code": 5,
    "city": "能代市",
    "city_kana": "ノシロシ",
    "town": "二ツ井町町尻",
    "town_kana": "フタツイマチマチジリ",
    "street": null,
    "office_name": null,
    "office_name_kana": null
  },
  "3155": {
    "postcode": "0183155",
    "prefecture": "秋田県",
    "prefecture_kana": "アキタケン",
    "prefecture_code": 5,
    "city": "能代市",
    "city_kana": "ノシロシ",
    "town": "二ツ井町比井野",
    "town_kana": "フタツイマチヒイノ",
    "street": null,
    "office_name": null,
    "office_name_kana": null
  },
  "3156": {
    "postcode": "0183156",
    "prefecture": "秋田県",
    "prefecture_kana": "アキタケン",
    "prefecture_code": 5,
    "city": "能代市",
    "city_kana": "ノシロシ",
    "town": "二ツ井町下野川端",
    "town_kana": "フタツイマチシモノカワバタ",
    "street": null,
    "office_name": null,
    "office_name_kana": null
  },
  "3157": {
    "postcode": "0183157",
    "prefecture": "秋田県",
    "prefecture_kana": "アキタケン",
    "prefecture_code": 5,
    "city": "能代市",
    "city_kana": "ノシロシ",
    "town": "二ツ井町下野",
    "town_kana": "フタツイマチシモノ",
    "street": null,
    "office_name": null,
    "office_name_kana": null
  },
  "3192": {
    "postcode": "0183192",
    "prefecture": "秋田県",
    "prefecture_kana": "アキタケン",
    "prefecture_code": 5,
    "city": "能代市",
    "city_kana": "ノシロシ",
    "town": "二ツ井町",
    "town_kana": null,
    "street": "字上台１−１",
    "office_name": "能代市役所　二ツ井町庁舎",
    "office_name_kana": "ノシロシヤクシヨ フタツイマチチヨウシヤ"
  },
  "3200": {
    "postcode": "0183200",
    "prefecture": "秋田県",
    "prefecture_kana": "アキタケン",
    "prefecture_code": 5,
    "city": "山本郡藤里町",
    "city_kana": "ヤマモトグンフジサトマチ",
    "town": "",
    "town_kana": "",
    "street": null,
    "office_name": null,
    "office_name_kana": null
  },
  "3201": {
    "postcode": "0183201",
    "prefecture": "秋田県",
    "prefecture_kana": "アキタケン",
    "prefecture_code": 5,
    "city": "山本郡藤里町",
    "city_kana": "ヤマモトグンフジサトマチ",
    "town": "藤琴",
    "town_kana": "フジコト",
    "street": null,
    "office_name": null,
    "office_name_kana": null
  },
  "3202": {
    "postcode": "0183202",
    "prefecture": "秋田県",
    "prefecture_kana": "アキタケン",
    "prefecture_code": 5,
    "city": "山本郡藤里町",
    "city_kana": "ヤマモトグンフジサトマチ",
    "town": "太良",
    "town_kana": "ダイラ",
    "street": null,
    "office_name": null,
    "office_name_kana": null
  },
  "3203": {
    "postcode": "0183203",
    "prefecture": "秋田県",
    "prefecture_kana": "アキタケン",
    "prefecture_code": 5,
    "city": "山本郡藤里町",
    "city_kana": "ヤマモトグンフジサトマチ",
    "town": "大沢",
    "town_kana": "オオサワ",
    "street": null,
    "office_name": null,
    "office_name_kana": null
  },
  "3204": {
    "postcode": "0183204",
    "prefecture": "秋田県",
    "prefecture_kana": "アキタケン",
    "prefecture_code": 5,
    "city": "山本郡藤里町",
    "city_kana": "ヤマモトグンフジサトマチ",
    "town": "矢坂",
    "town_kana": "ヤサカ",
    "street": null,
    "office_name": null,
    "office_name_kana": null
  },
  "3205": {
    "postcode": "0183205",
    "prefecture": "秋田県",
    "prefecture_kana": "アキタケン",
    "prefecture_code": 5,
    "city": "山本郡藤里町",
    "city_kana": "ヤマモトグンフジサトマチ",
    "town": "粕毛",
    "town_kana": "カスゲ",
    "street": null,
    "office_name": null,
    "office_name_kana": null
  },
  "3300": {
    "postcode": "0183300",
    "prefecture": "秋田県",
    "prefecture_kana": "アキタケン",
    "prefecture_code": 5,
    "city": "北秋田市",
    "city_kana": "キタアキタシ",
    "town": "",
    "town_kana": "",
    "street": null,
    "office_name": null,
    "office_name_kana": null
  },
  "3301": {
    "postcode": "0183301",
    "prefecture": "秋田県",
    "prefecture_kana": "アキタケン",
    "prefecture_code": 5,
    "city": "北秋田市",
    "city_kana": "キタアキタシ",
    "town": "綴子",
    "town_kana": "ツヅレコ",
    "street": null,
    "office_name": null,
    "office_name_kana": null
  },
  "3302": {
    "postcode": "0183302",
    "prefecture": "秋田県",
    "prefecture_kana": "アキタケン",
    "prefecture_code": 5,
    "city": "北秋田市",
    "city_kana": "キタアキタシ",
    "town": "栄",
    "town_kana": "サカエ",
    "street": null,
    "office_name": null,
    "office_name_kana": null
  },
  "3311": {
    "postcode": "0183311",
    "prefecture": "秋田県",
    "prefecture_kana": "アキタケン",
    "prefecture_code": 5,
    "city": "北秋田市",
    "city_kana": "キタアキタシ",
    "town": "材木町",
    "town_kana": "ザイモクチョウ",
    "street": null,
    "office_name": null,
    "office_name_kana": null
  },
  "3312": {
    "postcode": "0183312",
    "prefecture": "秋田県",
    "prefecture_kana": "アキタケン",
    "prefecture_code": 5,
    "city": "北秋田市",
    "city_kana": "キタアキタシ",
    "town": "花園町",
    "town_kana": "ハナゾノチョウ",
    "street": null,
    "office_name": null,
    "office_name_kana": null
  },
  "3313": {
    "postcode": "0183313",
    "prefecture": "秋田県",
    "prefecture_kana": "アキタケン",
    "prefecture_code": 5,
    "city": "北秋田市",
    "city_kana": "キタアキタシ",
    "town": "旭町",
    "town_kana": "アサヒチョウ",
    "street": null,
    "office_name": null,
    "office_name_kana": null
  },
  "3314": {
    "postcode": "0183314",
    "prefecture": "秋田県",
    "prefecture_kana": "アキタケン",
    "prefecture_code": 5,
    "city": "北秋田市",
    "city_kana": "キタアキタシ",
    "town": "伊勢町",
    "town_kana": "イセチョウ",
    "street": null,
    "office_name": null,
    "office_name_kana": null
  },
  "3315": {
    "postcode": "0183315",
    "prefecture": "秋田県",
    "prefecture_kana": "アキタケン",
    "prefecture_code": 5,
    "city": "北秋田市",
    "city_kana": "キタアキタシ",
    "town": "宮前町",
    "town_kana": "ミヤマエチョウ",
    "street": null,
    "office_name": null,
    "office_name_kana": null
  },
  "3316": {
    "postcode": "0183316",
    "prefecture": "秋田県",
    "prefecture_kana": "アキタケン",
    "prefecture_code": 5,
    "city": "北秋田市",
    "city_kana": "キタアキタシ",
    "town": "東横町",
    "town_kana": "ヒガシヨコマチ",
    "street": null,
    "office_name": null,
    "office_name_kana": null
  },
  "3321": {
    "postcode": "0183321",
    "prefecture": "秋田県",
    "prefecture_kana": "アキタケン",
    "prefecture_code": 5,
    "city": "北秋田市",
    "city_kana": "キタアキタシ",
    "town": "松葉町",
    "town_kana": "マツバチョウ",
    "street": null,
    "office_name": null,
    "office_name_kana": null
  },
  "3322": {
    "postcode": "0183322",
    "prefecture": "秋田県",
    "prefecture_kana": "アキタケン",
    "prefecture_code": 5,
    "city": "北秋田市",
    "city_kana": "キタアキタシ",
    "town": "住吉町",
    "town_kana": "スミヨシチョウ",
    "street": null,
    "office_name": null,
    "office_name_kana": null
  },
  "3323": {
    "postcode": "0183323",
    "prefecture": "秋田県",
    "prefecture_kana": "アキタケン",
    "prefecture_code": 5,
    "city": "北秋田市",
    "city_kana": "キタアキタシ",
    "town": "米代町",
    "town_kana": "ヨネシロチョウ",
    "street": null,
    "office_name": null,
    "office_name_kana": null
  },
  "3324": {
    "postcode": "0183324",
    "prefecture": "秋田県",
    "prefecture_kana": "アキタケン",
    "prefecture_code": 5,
    "city": "北秋田市",
    "city_kana": "キタアキタシ",
    "town": "大町",
    "town_kana": "オオマチ",
    "street": null,
    "office_name": null,
    "office_name_kana": null
  },
  "3325": {
    "postcode": "0183325",
    "prefecture": "秋田県",
    "prefecture_kana": "アキタケン",
    "prefecture_code": 5,
    "city": "北秋田市",
    "city_kana": "キタアキタシ",
    "town": "元町",
    "town_kana": "モトマチ",
    "street": null,
    "office_name": null,
    "office_name_kana": null
  },
  "3331": {
    "postcode": "0183331",
    "prefecture": "秋田県",
    "prefecture_kana": "アキタケン",
    "prefecture_code": 5,
    "city": "北秋田市",
    "city_kana": "キタアキタシ",
    "town": "鷹巣",
    "town_kana": "タカノス",
    "street": null,
    "office_name": null,
    "office_name_kana": null
  },
  "3332": [
    {
      "postcode": "0183332",
      "prefecture": "秋田県",
      "prefecture_kana": "アキタケン",
      "prefecture_code": 5,
      "city": "北秋田市",
      "city_kana": "キタアキタシ",
      "town": "鷹巣",
      "town_kana": "タカノス",
      "street": null,
      "office_name": null,
      "office_name_kana": null
    },
    {
      "postcode": "0183332",
      "prefecture": "秋田県",
      "prefecture_kana": "アキタケン",
      "prefecture_code": 5,
      "city": "北秋田市",
      "city_kana": "キタアキタシ",
      "town": "鷹巣平崎上岱",
      "town_kana": "タカノスヒラサキカミタイ",
      "street": null,
      "office_name": null,
      "office_name_kana": null
    }
  ],
  "3333": {
    "postcode": "0183333",
    "prefecture": "秋田県",
    "prefecture_kana": "アキタケン",
    "prefecture_code": 5,
    "city": "北秋田市",
    "city_kana": "キタアキタシ",
    "town": "坊沢",
    "town_kana": "ボウザワ",
    "street": null,
    "office_name": null,
    "office_name_kana": null
  },
  "3341": {
    "postcode": "0183341",
    "prefecture": "秋田県",
    "prefecture_kana": "アキタケン",
    "prefecture_code": 5,
    "city": "北秋田市",
    "city_kana": "キタアキタシ",
    "town": "黒沢",
    "town_kana": "クロサワ",
    "street": null,
    "office_name": null,
    "office_name_kana": null
  },
  "3342": {
    "postcode": "0183342",
    "prefecture": "秋田県",
    "prefecture_kana": "アキタケン",
    "prefecture_code": 5,
    "city": "北秋田市",
    "city_kana": "キタアキタシ",
    "town": "前山",
    "town_kana": "マエヤマ",
    "street": null,
    "office_name": null,
    "office_name_kana": null
  },
  "3343": {
    "postcode": "0183343",
    "prefecture": "秋田県",
    "prefecture_kana": "アキタケン",
    "prefecture_code": 5,
    "city": "北秋田市",
    "city_kana": "キタアキタシ",
    "town": "今泉",
    "town_kana": "イマイズミ",
    "street": null,
    "office_name": null,
    "office_name_kana": null
  },
  "3392": {
    "postcode": "0183392",
    "prefecture": "秋田県",
    "prefecture_kana": "アキタケン",
    "prefecture_code": 5,
    "city": "北秋田市",
    "city_kana": "キタアキタシ",
    "town": "花園町",
    "town_kana": "ハナゾノチョウ",
    "street": "１９番１号",
    "office_name": "北秋田市役所",
    "office_name_kana": "キタアキタシヤクシヨ"
  },
  "3393": {
    "postcode": "0183393",
    "prefecture": "秋田県",
    "prefecture_kana": "アキタケン",
    "prefecture_code": 5,
    "city": "北秋田市",
    "city_kana": "キタアキタシ",
    "town": "鷹巣",
    "town_kana": "タカノス",
    "street": "字東中岱７６−１",
    "office_name": "秋田県　北秋田地域振興局",
    "office_name_kana": "アキタケン キタアキタチイキシンコウキヨク"
  },
  "3451": {
    "postcode": "0183451",
    "prefecture": "秋田県",
    "prefecture_kana": "アキタケン",
    "prefecture_code": 5,
    "city": "北秋田市",
    "city_kana": "キタアキタシ",
    "town": "小森",
    "town_kana": "コモリ",
    "street": null,
    "office_name": null,
    "office_name_kana": null
  },
  "3452": {
    "postcode": "0183452",
    "prefecture": "秋田県",
    "prefecture_kana": "アキタケン",
    "prefecture_code": 5,
    "city": "北秋田市",
    "city_kana": "キタアキタシ",
    "town": "七日市",
    "town_kana": "ナヌカイチ",
    "street": null,
    "office_name": null,
    "office_name_kana": null
  },
  "3453": {
    "postcode": "0183453",
    "prefecture": "秋田県",
    "prefecture_kana": "アキタケン",
    "prefecture_code": 5,
    "city": "北秋田市",
    "city_kana": "キタアキタシ",
    "town": "中屋敷",
    "town_kana": "ナカヤシキ",
    "street": null,
    "office_name": null,
    "office_name_kana": null
  },
  "3454": {
    "postcode": "0183454",
    "prefecture": "秋田県",
    "prefecture_kana": "アキタケン",
    "prefecture_code": 5,
    "city": "北秋田市",
    "city_kana": "キタアキタシ",
    "town": "脇神",
    "town_kana": "ワキガミ",
    "street": null,
    "office_name": null,
    "office_name_kana": null
  },
  "3501": {
    "postcode": "0183501",
    "prefecture": "秋田県",
    "prefecture_kana": "アキタケン",
    "prefecture_code": 5,
    "city": "大館市",
    "city_kana": "オオダテシ",
    "town": "岩瀬",
    "town_kana": "イワセ",
    "street": null,
    "office_name": null,
    "office_name_kana": null
  },
  "3502": {
    "postcode": "0183502",
    "prefecture": "秋田県",
    "prefecture_kana": "アキタケン",
    "prefecture_code": 5,
    "city": "大館市",
    "city_kana": "オオダテシ",
    "town": "山田",
    "town_kana": "ヤマダ",
    "street": null,
    "office_name": null,
    "office_name_kana": null
  },
  "3503": {
    "postcode": "0183503",
    "prefecture": "秋田県",
    "prefecture_kana": "アキタケン",
    "prefecture_code": 5,
    "city": "大館市",
    "city_kana": "オオダテシ",
    "town": "外川原",
    "town_kana": "ソトカワラ",
    "street": null,
    "office_name": null,
    "office_name_kana": null
  },
  "3504": {
    "postcode": "0183504",
    "prefecture": "秋田県",
    "prefecture_kana": "アキタケン",
    "prefecture_code": 5,
    "city": "大館市",
    "city_kana": "オオダテシ",
    "town": "長坂",
    "town_kana": "ナガサカ",
    "street": null,
    "office_name": null,
    "office_name_kana": null
  },
  "3505": {
    "postcode": "0183505",
    "prefecture": "秋田県",
    "prefecture_kana": "アキタケン",
    "prefecture_code": 5,
    "city": "大館市",
    "city_kana": "オオダテシ",
    "town": "早口",
    "town_kana": "ハヤグチ",
    "street": null,
    "office_name": null,
    "office_name_kana": null
  },
  "3506": {
    "postcode": "0183506",
    "prefecture": "秋田県",
    "prefecture_kana": "アキタケン",
    "prefecture_code": 5,
    "city": "大館市",
    "city_kana": "オオダテシ",
    "town": "山瀬",
    "town_kana": "ヤマセ",
    "street": null,
    "office_name": null,
    "office_name_kana": null
  },
  "3592": {
    "postcode": "0183592",
    "prefecture": "秋田県",
    "prefecture_kana": "アキタケン",
    "prefecture_code": 5,
    "city": "大館市",
    "city_kana": "オオダテシ",
    "town": "岩瀬",
    "town_kana": "イワセ",
    "street": "字羽貫谷地山下１番地１",
    "office_name": "株式会社　日本オート電子工業",
    "office_name_kana": "カブシキガイシヤ ニホンオ-トデンシコウギヨウ"
  },
  "3593": {
    "postcode": "0183593",
    "prefecture": "秋田県",
    "prefecture_kana": "アキタケン",
    "prefecture_code": 5,
    "city": "大館市",
    "city_kana": "オオダテシ",
    "town": "岩瀬",
    "town_kana": "イワセ",
    "street": "字大柳上野２８番１",
    "office_name": "株式会社　田代製作所",
    "office_name_kana": "カブシキガイシヤ タシロセイサクシヨ"
  },
  "3595": {
    "postcode": "0183595",
    "prefecture": "秋田県",
    "prefecture_kana": "アキタケン",
    "prefecture_code": 5,
    "city": "大館市",
    "city_kana": "オオダテシ",
    "town": "早口",
    "town_kana": "ハヤグチ",
    "street": "字上野４３−１",
    "office_name": "大館市役所　田代総合支所",
    "office_name_kana": "オオダテシヤクシヨ タシロソウゴウシシヨ"
  },
  "3596": {
    "postcode": "0183596",
    "prefecture": "秋田県",
    "prefecture_kana": "アキタケン",
    "prefecture_code": 5,
    "city": "大館市",
    "city_kana": "オオダテシ",
    "town": "岩瀬",
    "town_kana": "イワセ",
    "street": "字上軽石野３８の１",
    "office_name": "東北森永乳業　株式会社　秋田工場",
    "office_name_kana": "トウホクモリナガニユウギヨウ カブシキカイシヤ アキタコウジヨウ"
  },
  "4201": {
    "postcode": "0184201",
    "prefecture": "秋田県",
    "prefecture_kana": "アキタケン",
    "prefecture_code": 5,
    "city": "北秋田市",
    "city_kana": "キタアキタシ",
    "town": "増沢",
    "town_kana": "マスザワ",
    "street": null,
    "office_name": null,
    "office_name_kana": null
  },
  "4202": {
    "postcode": "0184202",
    "prefecture": "秋田県",
    "prefecture_kana": "アキタケン",
    "prefecture_code": 5,
    "city": "北秋田市",
    "city_kana": "キタアキタシ",
    "town": "八幡岱新田",
    "town_kana": "ハチマンタイシンデン",
    "street": null,
    "office_name": null,
    "office_name_kana": null
  },
  "4203": {
    "postcode": "0184203",
    "prefecture": "秋田県",
    "prefecture_kana": "アキタケン",
    "prefecture_code": 5,
    "city": "北秋田市",
    "city_kana": "キタアキタシ",
    "town": "木戸石",
    "town_kana": "キドイシ",
    "street": null,
    "office_name": null,
    "office_name_kana": null
  },
  "4211": {
    "postcode": "0184211",
    "prefecture": "秋田県",
    "prefecture_kana": "アキタケン",
    "prefecture_code": 5,
    "city": "北秋田市",
    "city_kana": "キタアキタシ",
    "town": "川井",
    "town_kana": "カワイ",
    "street": null,
    "office_name": null,
    "office_name_kana": null
  },
  "4221": {
    "postcode": "0184221",
    "prefecture": "秋田県",
    "prefecture_kana": "アキタケン",
    "prefecture_code": 5,
    "city": "北秋田市",
    "city_kana": "キタアキタシ",
    "town": "下杉",
    "town_kana": "シモスギ",
    "street": null,
    "office_name": null,
    "office_name_kana": null
  },
  "4231": {
    "postcode": "0184231",
    "prefecture": "秋田県",
    "prefecture_kana": "アキタケン",
    "prefecture_code": 5,
    "city": "北秋田市",
    "city_kana": "キタアキタシ",
    "town": "上杉",
    "town_kana": "カミスギ",
    "street": null,
    "office_name": null,
    "office_name_kana": null
  },
  "4241": {
    "postcode": "0184241",
    "prefecture": "秋田県",
    "prefecture_kana": "アキタケン",
    "prefecture_code": 5,
    "city": "北秋田市",
    "city_kana": "キタアキタシ",
    "town": "道城",
    "town_kana": "ドウジョウ",
    "street": null,
    "office_name": null,
    "office_name_kana": null
  },
  "4251": {
    "postcode": "0184251",
    "prefecture": "秋田県",
    "prefecture_kana": "アキタケン",
    "prefecture_code": 5,
    "city": "北秋田市",
    "city_kana": "キタアキタシ",
    "town": "鎌沢",
    "town_kana": "カマノサワ",
    "street": null,
    "office_name": null,
    "office_name_kana": null
  },
  "4261": {
    "postcode": "0184261",
    "prefecture": "秋田県",
    "prefecture_kana": "アキタケン",
    "prefecture_code": 5,
    "city": "北秋田市",
    "city_kana": "キタアキタシ",
    "town": "芹沢",
    "town_kana": "セリサワ",
    "street": null,
    "office_name": null,
    "office_name_kana": null
  },
  "4262": {
    "postcode": "0184262",
    "prefecture": "秋田県",
    "prefecture_kana": "アキタケン",
    "prefecture_code": 5,
    "city": "北秋田市",
    "city_kana": "キタアキタシ",
    "town": "三里",
    "town_kana": "ミッサト",
    "street": null,
    "office_name": null,
    "office_name_kana": null
  },
  "4263": {
    "postcode": "0184263",
    "prefecture": "秋田県",
    "prefecture_kana": "アキタケン",
    "prefecture_code": 5,
    "city": "北秋田市",
    "city_kana": "キタアキタシ",
    "town": "三木田",
    "town_kana": "ミツキタ",
    "street": null,
    "office_name": null,
    "office_name_kana": null
  },
  "4271": {
    "postcode": "0184271",
    "prefecture": "秋田県",
    "prefecture_kana": "アキタケン",
    "prefecture_code": 5,
    "city": "北秋田市",
    "city_kana": "キタアキタシ",
    "town": "福田",
    "town_kana": "フクダ",
    "street": null,
    "office_name": null,
    "office_name_kana": null
  },
  "4272": {
    "postcode": "0184272",
    "prefecture": "秋田県",
    "prefecture_kana": "アキタケン",
    "prefecture_code": 5,
    "city": "北秋田市",
    "city_kana": "キタアキタシ",
    "town": "新田目",
    "town_kana": "ニイダメ",
    "street": null,
    "office_name": null,
    "office_name_kana": null
  },
  "4273": {
    "postcode": "0184273",
    "prefecture": "秋田県",
    "prefecture_kana": "アキタケン",
    "prefecture_code": 5,
    "city": "北秋田市",
    "city_kana": "キタアキタシ",
    "town": "根田",
    "town_kana": "コンダ",
    "street": null,
    "office_name": null,
    "office_name_kana": null
  },
  "4281": {
    "postcode": "0184281",
    "prefecture": "秋田県",
    "prefecture_kana": "アキタケン",
    "prefecture_code": 5,
    "city": "北秋田市",
    "city_kana": "キタアキタシ",
    "town": "羽根山",
    "town_kana": "ハネヤマ",
    "street": null,
    "office_name": null,
    "office_name_kana": null
  },
  "4282": {
    "postcode": "0184282",
    "prefecture": "秋田県",
    "prefecture_kana": "アキタケン",
    "prefecture_code": 5,
    "city": "北秋田市",
    "city_kana": "キタアキタシ",
    "town": "李岱",
    "town_kana": "スモモダイ",
    "street": null,
    "office_name": null,
    "office_name_kana": null
  },
  "4301": {
    "postcode": "0184301",
    "prefecture": "秋田県",
    "prefecture_kana": "アキタケン",
    "prefecture_code": 5,
    "city": "北秋田市",
    "city_kana": "キタアキタシ",
    "town": "米内沢",
    "town_kana": "ヨナイザワ",
    "street": null,
    "office_name": null,
    "office_name_kana": null
  },
  "4302": {
    "postcode": "0184302",
    "prefecture": "秋田県",
    "prefecture_kana": "アキタケン",
    "prefecture_code": 5,
    "city": "北秋田市",
    "city_kana": "キタアキタシ",
    "town": "浦田",
    "town_kana": "ウラタ",
    "street": null,
    "office_name": null,
    "office_name_kana": null
  },
  "4303": {
    "postcode": "0184303",
    "prefecture": "秋田県",
    "prefecture_kana": "アキタケン",
    "prefecture_code": 5,
    "city": "北秋田市",
    "city_kana": "キタアキタシ",
    "town": "本城",
    "town_kana": "ホンジョウ",
    "street": null,
    "office_name": null,
    "office_name_kana": null
  },
  "4392": {
    "postcode": "0184392",
    "prefecture": "秋田県",
    "prefecture_kana": "アキタケン",
    "prefecture_code": 5,
    "city": "北秋田市",
    "city_kana": "キタアキタシ",
    "town": "米内沢",
    "town_kana": "ヨナイザワ",
    "street": "字七曲２３",
    "office_name": "北秋田市役所　森吉支所",
    "office_name_kana": "キタアキタシヤクシヨ モリヨシシシヨ"
  },
  "4400": {
    "postcode": "0184400",
    "prefecture": "秋田県",
    "prefecture_kana": "アキタケン",
    "prefecture_code": 5,
    "city": "北秋田郡上小阿仁村",
    "city_kana": "キタアキタグンカミコアニムラ",
    "town": "",
    "town_kana": "",
    "street": null,
    "office_name": null,
    "office_name_kana": null
  },
  "4401": {
    "postcode": "0184401",
    "prefecture": "秋田県",
    "prefecture_kana": "アキタケン",
    "prefecture_code": 5,
    "city": "北秋田郡上小阿仁村",
    "city_kana": "キタアキタグンカミコアニムラ",
    "town": "沖田面",
    "town_kana": "オキタオモテ",
    "street": null,
    "office_name": null,
    "office_name_kana": null
  },
  "4411": {
    "postcode": "0184411",
    "prefecture": "秋田県",
    "prefecture_kana": "アキタケン",
    "prefecture_code": 5,
    "city": "北秋田郡上小阿仁村",
    "city_kana": "キタアキタグンカミコアニムラ",
    "town": "福舘",
    "town_kana": "フクダテ",
    "street": null,
    "office_name": null,
    "office_name_kana": null
  },
  "4412": {
    "postcode": "0184412",
    "prefecture": "秋田県",
    "prefecture_kana": "アキタケン",
    "prefecture_code": 5,
    "city": "北秋田郡上小阿仁村",
    "city_kana": "キタアキタグンカミコアニムラ",
    "town": "五反沢",
    "town_kana": "ゴタンザワ",
    "street": null,
    "office_name": null,
    "office_name_kana": null
  },
  "4413": {
    "postcode": "0184413",
    "prefecture": "秋田県",
    "prefecture_kana": "アキタケン",
    "prefecture_code": 5,
    "city": "北秋田郡上小阿仁村",
    "city_kana": "キタアキタグンカミコアニムラ",
    "town": "杉花",
    "town_kana": "スギハナ",
    "street": null,
    "office_name": null,
    "office_name_kana": null
  },
  "4421": {
    "postcode": "0184421",
    "prefecture": "秋田県",
    "prefecture_kana": "アキタケン",
    "prefecture_code": 5,
    "city": "北秋田郡上小阿仁村",
    "city_kana": "キタアキタグンカミコアニムラ",
    "town": "小沢田",
    "town_kana": "コサワダ",
    "street": null,
    "office_name": null,
    "office_name_kana": null
  },
  "4422": {
    "postcode": "0184422",
    "prefecture": "秋田県",
    "prefecture_kana": "アキタケン",
    "prefecture_code": 5,
    "city": "北秋田郡上小阿仁村",
    "city_kana": "キタアキタグンカミコアニムラ",
    "town": "堂川",
    "town_kana": "ドウガワ",
    "street": null,
    "office_name": null,
    "office_name_kana": null
  },
  "4423": {
    "postcode": "0184423",
    "prefecture": "秋田県",
    "prefecture_kana": "アキタケン",
    "prefecture_code": 5,
    "city": "北秋田郡上小阿仁村",
    "city_kana": "キタアキタグンカミコアニムラ",
    "town": "仏社",
    "town_kana": "ブッシャ",
    "street": null,
    "office_name": null,
    "office_name_kana": null
  },
  "4431": {
    "postcode": "0184431",
    "prefecture": "秋田県",
    "prefecture_kana": "アキタケン",
    "prefecture_code": 5,
    "city": "北秋田郡上小阿仁村",
    "city_kana": "キタアキタグンカミコアニムラ",
    "town": "大林",
    "town_kana": "オオバヤシ",
    "street": null,
    "office_name": null,
    "office_name_kana": null
  },
  "4432": {
    "postcode": "0184432",
    "prefecture": "秋田県",
    "prefecture_kana": "アキタケン",
    "prefecture_code": 5,
    "city": "北秋田郡上小阿仁村",
    "city_kana": "キタアキタグンカミコアニムラ",
    "town": "南沢",
    "town_kana": "ミナミザワ",
    "street": null,
    "office_name": null,
    "office_name_kana": null
  },
  "4494": {
    "postcode": "0184494",
    "prefecture": "秋田県",
    "prefecture_kana": "アキタケン",
    "prefecture_code": 5,
    "city": "北秋田郡上小阿仁村",
    "city_kana": "キタアキタグンカミコアニムラ",
    "town": "小沢田",
    "town_kana": "コサワダ",
    "street": "字向川原１１８",
    "office_name": "上小阿仁村役場",
    "office_name_kana": "カミコアニムラヤクバ"
  },
  "4511": {
    "postcode": "0184511",
    "prefecture": "秋田県",
    "prefecture_kana": "アキタケン",
    "prefecture_code": 5,
    "city": "北秋田市",
    "city_kana": "キタアキタシ",
    "town": "森吉",
    "town_kana": "モリヨシ",
    "street": null,
    "office_name": null,
    "office_name_kana": null
  },
  "4512": {
    "postcode": "0184512",
    "prefecture": "秋田県",
    "prefecture_kana": "アキタケン",
    "prefecture_code": 5,
    "city": "北秋田市",
    "city_kana": "キタアキタシ",
    "town": "根森田",
    "town_kana": "ネモリタ",
    "street": null,
    "office_name": null,
    "office_name_kana": null
  },
  "4513": {
    "postcode": "0184513",
    "prefecture": "秋田県",
    "prefecture_kana": "アキタケン",
    "prefecture_code": 5,
    "city": "北秋田市",
    "city_kana": "キタアキタシ",
    "town": "小又",
    "town_kana": "コマタ",
    "street": null,
    "office_name": null,
    "office_name_kana": null
  },
  "4514": {
    "postcode": "0184514",
    "prefecture": "秋田県",
    "prefecture_kana": "アキタケン",
    "prefecture_code": 5,
    "city": "北秋田市",
    "city_kana": "キタアキタシ",
    "town": "五味堀",
    "town_kana": "ゴミホリ",
    "street": null,
    "office_name": null,
    "office_name_kana": null
  },
  "4515": {
    "postcode": "0184515",
    "prefecture": "秋田県",
    "prefecture_kana": "アキタケン",
    "prefecture_code": 5,
    "city": "北秋田市",
    "city_kana": "キタアキタシ",
    "town": "阿仁前田",
    "town_kana": "アニマエダ",
    "street": null,
    "office_name": null,
    "office_name_kana": null
  },
  "4516": {
    "postcode": "0184516",
    "prefecture": "秋田県",
    "prefecture_kana": "アキタケン",
    "prefecture_code": 5,
    "city": "北秋田市",
    "city_kana": "キタアキタシ",
    "town": "桂瀬",
    "town_kana": "カツラセ",
    "street": null,
    "office_name": null,
    "office_name_kana": null
  },
  "4601": {
    "postcode": "0184601",
    "prefecture": "秋田県",
    "prefecture_kana": "アキタケン",
    "prefecture_code": 5,
    "city": "北秋田市",
    "city_kana": "キタアキタシ",
    "town": "阿仁吉田",
    "town_kana": "アニヨシダ",
    "street": null,
    "office_name": null,
    "office_name_kana": null
  },
  "4602": {
    "postcode": "0184602",
    "prefecture": "秋田県",
    "prefecture_kana": "アキタケン",
    "prefecture_code": 5,
    "city": "北秋田市",
    "city_kana": "キタアキタシ",
    "town": "阿仁小渕",
    "town_kana": "アニコブチ",
    "street": null,
    "office_name": null,
    "office_name_kana": null
  },
  "4603": {
    "postcode": "0184603",
    "prefecture": "秋田県",
    "prefecture_kana": "アキタケン",
    "prefecture_code": 5,
    "city": "北秋田市",
    "city_kana": "キタアキタシ",
    "town": "阿仁小様",
    "town_kana": "アニコザマ",
    "street": null,
    "office_name": null,
    "office_name_kana": null
  },
  "4604": {
    "postcode": "0184604",
    "prefecture": "秋田県",
    "prefecture_kana": "アキタケン",
    "prefecture_code": 5,
    "city": "北秋田市",
    "city_kana": "キタアキタシ",
    "town": "阿仁三枚鉱山",
    "town_kana": "アニサンマイコウザン",
    "street": null,
    "office_name": null,
    "office_name_kana": null
  },
  "4611": {
    "postcode": "0184611",
    "prefecture": "秋田県",
    "prefecture_kana": "アキタケン",
    "prefecture_code": 5,
    "city": "北秋田市",
    "city_kana": "キタアキタシ",
    "town": "阿仁水無",
    "town_kana": "アニミズナシ",
    "street": null,
    "office_name": null,
    "office_name_kana": null
  },
  "4612": {
    "postcode": "0184612",
    "prefecture": "秋田県",
    "prefecture_kana": "アキタケン",
    "prefecture_code": 5,
    "city": "北秋田市",
    "city_kana": "キタアキタシ",
    "town": "阿仁真木沢鉱山",
    "town_kana": "アニマギサワコウザン",
    "street": null,
    "office_name": null,
    "office_name_kana": null
  },
  "4613": {
    "postcode": "0184613",
    "prefecture": "秋田県",
    "prefecture_kana": "アキタケン",
    "prefecture_code": 5,
    "city": "北秋田市",
    "city_kana": "キタアキタシ",
    "town": "阿仁銀山",
    "town_kana": "アニギンザン",
    "street": null,
    "office_name": null,
    "office_name_kana": null
  },
  "4621": {
    "postcode": "0184621",
    "prefecture": "秋田県",
    "prefecture_kana": "アキタケン",
    "prefecture_code": 5,
    "city": "北秋田市",
    "city_kana": "キタアキタシ",
    "town": "阿仁荒瀬",
    "town_kana": "アニアラセ",
    "street": null,
    "office_name": null,
    "office_name_kana": null
  },
  "4622": {
    "postcode": "0184622",
    "prefecture": "秋田県",
    "prefecture_kana": "アキタケン",
    "prefecture_code": 5,
    "city": "北秋田市",
    "city_kana": "キタアキタシ",
    "town": "阿仁小沢鉱山",
    "town_kana": "アニコサワコウザン",
    "street": null,
    "office_name": null,
    "office_name_kana": null
  },
  "4623": {
    "postcode": "0184623",
    "prefecture": "秋田県",
    "prefecture_kana": "アキタケン",
    "prefecture_code": 5,
    "city": "北秋田市",
    "city_kana": "キタアキタシ",
    "town": "阿仁荒瀬川櫃畑",
    "town_kana": "アニアラセガワヒツハタ",
    "street": null,
    "office_name": null,
    "office_name_kana": null
  },
  "4624": {
    "postcode": "0184624",
    "prefecture": "秋田県",
    "prefecture_kana": "アキタケン",
    "prefecture_code": 5,
    "city": "北秋田市",
    "city_kana": "キタアキタシ",
    "town": "阿仁鍵ノ滝",
    "town_kana": "アニカギノタキ",
    "street": null,
    "office_name": null,
    "office_name_kana": null
  },
  "4692": {
    "postcode": "0184692",
    "prefecture": "秋田県",
    "prefecture_kana": "アキタケン",
    "prefecture_code": 5,
    "city": "北秋田市",
    "city_kana": "キタアキタシ",
    "town": "阿仁銀山",
    "town_kana": "アニギンザン",
    "street": "字下新町４１−１",
    "office_name": "北秋田市役所　阿仁支所",
    "office_name_kana": "キタアキタシヤクシヨ アニシシヨ"
  },
  "4693": {
    "postcode": "0184693",
    "prefecture": "秋田県",
    "prefecture_kana": "アキタケン",
    "prefecture_code": 5,
    "city": "北秋田市",
    "city_kana": "キタアキタシ",
    "town": "阿仁高津森",
    "town_kana": null,
    "street": "",
    "office_name": "阿仁スキー場",
    "office_name_kana": "アニスキ-ジヨウ"
  },
  "4731": {
    "postcode": "0184731",
    "prefecture": "秋田県",
    "prefecture_kana": "アキタケン",
    "prefecture_code": 5,
    "city": "北秋田市",
    "city_kana": "キタアキタシ",
    "town": "阿仁打当",
    "town_kana": "アニウットウ",
    "street": null,
    "office_name": null,
    "office_name_kana": null
  },
  "4732": {
    "postcode": "0184732",
    "prefecture": "秋田県",
    "prefecture_kana": "アキタケン",
    "prefecture_code": 5,
    "city": "北秋田市",
    "city_kana": "キタアキタシ",
    "town": "阿仁中村",
    "town_kana": "アニナカムラ",
    "street": null,
    "office_name": null,
    "office_name_kana": null
  },
  "4733": {
    "postcode": "0184733",
    "prefecture": "秋田県",
    "prefecture_kana": "アキタケン",
    "prefecture_code": 5,
    "city": "北秋田市",
    "city_kana": "キタアキタシ",
    "town": "阿仁戸鳥内",
    "town_kana": "アニトトリナイ",
    "street": null,
    "office_name": null,
    "office_name_kana": null
  },
  "4734": {
    "postcode": "0184734",
    "prefecture": "秋田県",
    "prefecture_kana": "アキタケン",
    "prefecture_code": 5,
    "city": "北秋田市",
    "city_kana": "キタアキタシ",
    "town": "阿仁長畑",
    "town_kana": "アニナガハタケ",
    "street": null,
    "office_name": null,
    "office_name_kana": null
  },
  "4735": {
    "postcode": "0184735",
    "prefecture": "秋田県",
    "prefecture_kana": "アキタケン",
    "prefecture_code": 5,
    "city": "北秋田市",
    "city_kana": "キタアキタシ",
    "town": "阿仁比立内",
    "town_kana": "アニヒタチナイ",
    "street": null,
    "office_name": null,
    "office_name_kana": null
  },
  "4741": {
    "postcode": "0184741",
    "prefecture": "秋田県",
    "prefecture_kana": "アキタケン",
    "prefecture_code": 5,
    "city": "北秋田市",
    "city_kana": "キタアキタシ",
    "town": "阿仁幸屋",
    "town_kana": "アニコウヤ",
    "street": null,
    "office_name": null,
    "office_name_kana": null
  },
  "4742": {
    "postcode": "0184742",
    "prefecture": "秋田県",
    "prefecture_kana": "アキタケン",
    "prefecture_code": 5,
    "city": "北秋田市",
    "city_kana": "キタアキタシ",
    "town": "阿仁幸屋渡",
    "town_kana": "アニコウヤワタリ",
    "street": null,
    "office_name": null,
    "office_name_kana": null
  },
  "4743": {
    "postcode": "0184743",
    "prefecture": "秋田県",
    "prefecture_kana": "アキタケン",
    "prefecture_code": 5,
    "city": "北秋田市",
    "city_kana": "キタアキタシ",
    "town": "阿仁笑内",
    "town_kana": "アニオカシナイ",
    "street": null,
    "office_name": null,
    "office_name_kana": null
  },
  "4744": {
    "postcode": "0184744",
    "prefecture": "秋田県",
    "prefecture_kana": "アキタケン",
    "prefecture_code": 5,
    "city": "北秋田市",
    "city_kana": "キタアキタシ",
    "town": "阿仁根子",
    "town_kana": "アニネッコ",
    "street": null,
    "office_name": null,
    "office_name_kana": null
  },
  "4745": {
    "postcode": "0184745",
    "prefecture": "秋田県",
    "prefecture_kana": "アキタケン",
    "prefecture_code": 5,
    "city": "北秋田市",
    "city_kana": "キタアキタシ",
    "town": "阿仁萱草",
    "town_kana": "アニカヤクサ",
    "street": null,
    "office_name": null,
    "office_name_kana": null
  },
  "4746": {
    "postcode": "0184746",
    "prefecture": "秋田県",
    "prefecture_kana": "アキタケン",
    "prefecture_code": 5,
    "city": "北秋田市",
    "city_kana": "キタアキタシ",
    "town": "阿仁伏影",
    "town_kana": "アニフシカゲ",
    "street": null,
    "office_name": null,
    "office_name_kana": null
  },
  "5141": {
    "postcode": "0185141",
    "prefecture": "秋田県",
    "prefecture_kana": "アキタケン",
    "prefecture_code": 5,
    "city": "鹿角市",
    "city_kana": "カヅノシ",
    "town": "八幡平",
    "town_kana": "ハチマンタイ",
    "street": null,
    "office_name": null,
    "office_name_kana": null
  },
  "5200": {
    "postcode": "0185200",
    "prefecture": "秋田県",
    "prefecture_kana": "アキタケン",
    "prefecture_code": 5,
    "city": "鹿角市",
    "city_kana": "カヅノシ",
    "town": "",
    "town_kana": "",
    "street": null,
    "office_name": null,
    "office_name_kana": null
  },
  "5201": {
    "postcode": "0185201",
    "prefecture": "秋田県",
    "prefecture_kana": "アキタケン",
    "prefecture_code": 5,
    "city": "鹿角市",
    "city_kana": "カヅノシ",
    "town": "花輪",
    "town_kana": "ハナワ",
    "street": null,
    "office_name": null,
    "office_name_kana": null
  },
  "5202": {
    "postcode": "0185202",
    "prefecture": "秋田県",
    "prefecture_kana": "アキタケン",
    "prefecture_code": 5,
    "city": "鹿角市",
    "city_kana": "カヅノシ",
    "town": "尾去沢",
    "town_kana": "オサリザワ",
    "street": null,
    "office_name": null,
    "office_name_kana": null
  },
  "5292": {
    "postcode": "0185292",
    "prefecture": "秋田県",
    "prefecture_kana": "アキタケン",
    "prefecture_code": 5,
    "city": "鹿角市",
    "city_kana": "カヅノシ",
    "town": "花輪",
    "town_kana": "ハナワ",
    "street": "字荒田４−１",
    "office_name": "鹿角市役所",
    "office_name_kana": "カヅノシヤクシヨ"
  },
  "5331": {
    "postcode": "0185331",
    "prefecture": "秋田県",
    "prefecture_kana": "アキタケン",
    "prefecture_code": 5,
    "city": "鹿角市",
    "city_kana": "カヅノシ",
    "town": "十和田山根",
    "town_kana": "トワダヤマネ",
    "street": null,
    "office_name": null,
    "office_name_kana": null
  },
  "5332": {
    "postcode": "0185332",
    "prefecture": "秋田県",
    "prefecture_kana": "アキタケン",
    "prefecture_code": 5,
    "city": "鹿角市",
    "city_kana": "カヅノシ",
    "town": "十和田上向",
    "town_kana": "トワダウワムカイ",
    "street": null,
    "office_name": null,
    "office_name_kana": null
  },
  "5333": {
    "postcode": "0185333",
    "prefecture": "秋田県",
    "prefecture_kana": "アキタケン",
    "prefecture_code": 5,
    "city": "鹿角市",
    "city_kana": "カヅノシ",
    "town": "十和田岡田",
    "town_kana": "トワダオカダ",
    "street": null,
    "office_name": null,
    "office_name_kana": null
  },
  "5334": {
    "postcode": "0185334",
    "prefecture": "秋田県",
    "prefecture_kana": "アキタケン",
    "prefecture_code": 5,
    "city": "鹿角市",
    "city_kana": "カヅノシ",
    "town": "十和田毛馬内",
    "town_kana": "トワダケマナイ",
    "street": null,
    "office_name": null,
    "office_name_kana": null
  },
  "5335": {
    "postcode": "0185335",
    "prefecture": "秋田県",
    "prefecture_kana": "アキタケン",
    "prefecture_code": 5,
    "city": "鹿角市",
    "city_kana": "カヅノシ",
    "town": "十和田瀬田石",
    "town_kana": "トワダセタイシ",
    "street": null,
    "office_name": null,
    "office_name_kana": null
  },
  "5336": {
    "postcode": "0185336",
    "prefecture": "秋田県",
    "prefecture_kana": "アキタケン",
    "prefecture_code": 5,
    "city": "鹿角市",
    "city_kana": "カヅノシ",
    "town": "十和田錦木",
    "town_kana": "トワダニシキギ",
    "street": null,
    "office_name": null,
    "office_name_kana": null
  },
  "5337": {
    "postcode": "0185337",
    "prefecture": "秋田県",
    "prefecture_kana": "アキタケン",
    "prefecture_code": 5,
    "city": "鹿角市",
    "city_kana": "カヅノシ",
    "town": "十和田末広",
    "town_kana": "トワダスエヒロ",
    "street": null,
    "office_name": null,
    "office_name_kana": null
  },
  "5421": {
    "postcode": "0185421",
    "prefecture": "秋田県",
    "prefecture_kana": "アキタケン",
    "prefecture_code": 5,
    "city": "鹿角市",
    "city_kana": "カヅノシ",
    "town": "十和田大湯",
    "town_kana": "トワダオオユ",
    "street": null,
    "office_name": null,
    "office_name_kana": null
  },
  "5422": {
    "postcode": "0185422",
    "prefecture": "秋田県",
    "prefecture_kana": "アキタケン",
    "prefecture_code": 5,
    "city": "鹿角市",
    "city_kana": "カヅノシ",
    "town": "十和田草木",
    "town_kana": "トワダクサギ",
    "street": null,
    "office_name": null,
    "office_name_kana": null
  },
  "5501": [
    {
      "postcode": "0185501",
      "prefecture": "青森県",
      "prefecture_kana": "アオモリケン",
      "prefecture_code": 2,
      "city": "十和田市",
      "city_kana": "トワダシ",
      "town": "奥瀬",
      "town_kana": "オクセ",
      "street": null,
      "office_name": null,
      "office_name_kana": null
    },
    {
      "postcode": "0185501",
      "prefecture": "青森県",
      "prefecture_kana": "アオモリケン",
      "prefecture_code": 2,
      "city": "十和田市",
      "city_kana": "トワダシ",
      "town": "奥瀬青撫",
      "town_kana": "オクセアオブナ",
      "street": null,
      "office_name": null,
      "office_name_kana": null
    },
    {
      "postcode": "0185501",
      "prefecture": "青森県",
      "prefecture_kana": "アオモリケン",
      "prefecture_code": 2,
      "city": "十和田市",
      "city_kana": "トワダシ",
      "town": "奥瀬小畳石",
      "town_kana": "オクセコタタミイシ",
      "street": null,
      "office_name": null,
      "office_name_kana": null
    },
    {
      "postcode": "0185501",
      "prefecture": "青森県",
      "prefecture_kana": "アオモリケン",
      "prefecture_code": 2,
      "city": "十和田市",
      "city_kana": "トワダシ",
      "town": "奥瀬十和田",
      "town_kana": "オクセトワダ",
      "street": null,
      "office_name": null,
      "office_name_kana": null
    },
    {
      "postcode": "0185501",
      "prefecture": "青森県",
      "prefecture_kana": "アオモリケン",
      "prefecture_code": 2,
      "city": "十和田市",
      "city_kana": "トワダシ",
      "town": "奥瀬十和田湖畔宇樽部",
      "town_kana": "オクセトワダコハンウタルベ",
      "street": null,
      "office_name": null,
      "office_name_kana": null
    },
    {
      "postcode": "0185501",
      "prefecture": "青森県",
      "prefecture_kana": "アオモリケン",
      "prefecture_code": 2,
      "city": "十和田市",
      "city_kana": "トワダシ",
      "town": "奥瀬十和田湖畔子ノ口",
      "town_kana": "オクセトワダコハンネノクチ",
      "street": null,
      "office_name": null,
      "office_name_kana": null
    },
    {
      "postcode": "0185501",
      "prefecture": "青森県",
      "prefecture_kana": "アオモリケン",
      "prefecture_code": 2,
      "city": "十和田市",
      "city_kana": "トワダシ",
      "town": "奥瀬十和田湖畔休屋",
      "town_kana": "オクセトワダコハンヤスミヤ",
      "street": null,
      "office_name": null,
      "office_name_kana": null
    }
  ],
  "5511": {
    "postcode": "0185511",
    "prefecture": "秋田県",
    "prefecture_kana": "アキタケン",
    "prefecture_code": 5,
    "city": "鹿角郡小坂町",
    "city_kana": "カヅノグンコサカマチ",
    "town": "十和田湖",
    "town_kana": "トワダコ",
    "street": null,
    "office_name": null,
    "office_name_kana": null
  },
  "5601": {
    "postcode": "0185601",
    "prefecture": "秋田県",
    "prefecture_kana": "アキタケン",
    "prefecture_code": 5,
    "city": "大館市",
    "city_kana": "オオダテシ",
    "town": "十二所",
    "town_kana": "ジュウニショ",
    "street": null,
    "office_name": null,
    "office_name_kana": null
  },
  "5602": {
    "postcode": "0185602",
    "prefecture": "秋田県",
    "prefecture_kana": "アキタケン",
    "prefecture_code": 5,
    "city": "大館市",
    "city_kana": "オオダテシ",
    "town": "道目木",
    "town_kana": "ドウメキ",
    "street": null,
    "office_name": null,
    "office_name_kana": null
  },
  "5603": {
    "postcode": "0185603",
    "prefecture": "秋田県",
    "prefecture_kana": "アキタケン",
    "prefecture_code": 5,
    "city": "大館市",
    "city_kana": "オオダテシ",
    "town": "曲田",
    "town_kana": "マガタ",
    "street": null,
    "office_name": null,
    "office_name_kana": null
  },
  "5604": {
    "postcode": "0185604",
    "prefecture": "秋田県",
    "prefecture_kana": "アキタケン",
    "prefecture_code": 5,
    "city": "大館市",
    "city_kana": "オオダテシ",
    "town": "軽井沢",
    "town_kana": "カルイザワ",
    "street": null,
    "office_name": null,
    "office_name_kana": null
  },
  "5605": {
    "postcode": "0185605",
    "prefecture": "秋田県",
    "prefecture_kana": "アキタケン",
    "prefecture_code": 5,
    "city": "大館市",
    "city_kana": "オオダテシ",
    "town": "猿間",
    "town_kana": "サルマ",
    "street": null,
    "office_name": null,
    "office_name_kana": null
  },
  "5606": {
    "postcode": "0185606",
    "prefecture": "秋田県",
    "prefecture_kana": "アキタケン",
    "prefecture_code": 5,
    "city": "大館市",
    "city_kana": "オオダテシ",
    "town": "葛原",
    "town_kana": "クズワラ",
    "street": null,
    "office_name": null,
    "office_name_kana": null
  },
  "5701": {
    "postcode": "0185701",
    "prefecture": "秋田県",
    "prefecture_kana": "アキタケン",
    "prefecture_code": 5,
    "city": "大館市",
    "city_kana": "オオダテシ",
    "town": "比内町扇田",
    "town_kana": "ヒナイマチオウギタ",
    "street": null,
    "office_name": null,
    "office_name_kana": null
  },
  "5711": {
    "postcode": "0185711",
    "prefecture": "秋田県",
    "prefecture_kana": "アキタケン",
    "prefecture_code": 5,
    "city": "大館市",
    "city_kana": "オオダテシ",
    "town": "比内町味噌内",
    "town_kana": "ヒナイマチミソナイ",
    "street": null,
    "office_name": null,
    "office_name_kana": null
  },
  "5712": {
    "postcode": "0185712",
    "prefecture": "秋田県",
    "prefecture_kana": "アキタケン",
    "prefecture_code": 5,
    "city": "大館市",
    "city_kana": "オオダテシ",
    "town": "比内町新館",
    "town_kana": "ヒナイマチニイダテ",
    "street": null,
    "office_name": null,
    "office_name_kana": null
  },
  "5721": {
    "postcode": "0185721",
    "prefecture": "秋田県",
    "prefecture_kana": "アキタケン",
    "prefecture_code": 5,
    "city": "大館市",
    "city_kana": "オオダテシ",
    "town": "比内町独鈷",
    "town_kana": "ヒナイマチトッコ",
    "street": null,
    "office_name": null,
    "office_name_kana": null
  },
  "5722": {
    "postcode": "0185722",
    "prefecture": "秋田県",
    "prefecture_kana": "アキタケン",
    "prefecture_code": 5,
    "city": "大館市",
    "city_kana": "オオダテシ",
    "town": "比内町中野",
    "town_kana": "ヒナイマチナカノ",
    "street": null,
    "office_name": null,
    "office_name_kana": null
  },
  "5731": {
    "postcode": "0185731",
    "prefecture": "秋田県",
    "prefecture_kana": "アキタケン",
    "prefecture_code": 5,
    "city": "大館市",
    "city_kana": "オオダテシ",
    "town": "比内町笹館",
    "town_kana": "ヒナイマチササダテ",
    "street": null,
    "office_name": null,
    "office_name_kana": null
  },
  "5732": {
    "postcode": "0185732",
    "prefecture": "秋田県",
    "prefecture_kana": "アキタケン",
    "prefecture_code": 5,
    "city": "大館市",
    "city_kana": "オオダテシ",
    "town": "比内町谷地中",
    "town_kana": "ヒナイマチヤチナカ",
    "street": null,
    "office_name": null,
    "office_name_kana": null
  },
  "5741": {
    "postcode": "0185741",
    "prefecture": "秋田県",
    "prefecture_kana": "アキタケン",
    "prefecture_code": 5,
    "city": "大館市",
    "city_kana": "オオダテシ",
    "town": "比内町達子",
    "town_kana": "ヒナイマチタッコ",
    "street": null,
    "office_name": null,
    "office_name_kana": null
  },
  "5742": {
    "postcode": "0185742",
    "prefecture": "秋田県",
    "prefecture_kana": "アキタケン",
    "prefecture_code": 5,
    "city": "大館市",
    "city_kana": "オオダテシ",
    "town": "比内町白沢水沢",
    "town_kana": "ヒナイマチシラサワミズサワ",
    "street": null,
    "office_name": null,
    "office_name_kana": null
  },
  "5743": {
    "postcode": "0185743",
    "prefecture": "秋田県",
    "prefecture_kana": "アキタケン",
    "prefecture_code": 5,
    "city": "大館市",
    "city_kana": "オオダテシ",
    "town": "比内町小坪沢",
    "town_kana": "ヒナイマチオツボザワ",
    "street": null,
    "office_name": null,
    "office_name_kana": null
  },
  "5744": {
    "postcode": "0185744",
    "prefecture": "秋田県",
    "prefecture_kana": "アキタケン",
    "prefecture_code": 5,
    "city": "大館市",
    "city_kana": "オオダテシ",
    "town": "比内町八木橋",
    "town_kana": "ヒナイマチヤギハシ",
    "street": null,
    "office_name": null,
    "office_name_kana": null
  },
  "5745": {
    "postcode": "0185745",
    "prefecture": "秋田県",
    "prefecture_kana": "アキタケン",
    "prefecture_code": 5,
    "city": "大館市",
    "city_kana": "オオダテシ",
    "town": "比内町片貝",
    "town_kana": "ヒナイマチカタガイ",
    "street": null,
    "office_name": null,
    "office_name_kana": null
  },
  "5751": {
    "postcode": "0185751",
    "prefecture": "秋田県",
    "prefecture_kana": "アキタケン",
    "prefecture_code": 5,
    "city": "大館市",
    "city_kana": "オオダテシ",
    "town": "二井田",
    "town_kana": "ニイダ",
    "street": null,
    "office_name": null,
    "office_name_kana": null
  },
  "5752": {
    "postcode": "0185752",
    "prefecture": "秋田県",
    "prefecture_kana": "アキタケン",
    "prefecture_code": 5,
    "city": "大館市",
    "city_kana": "オオダテシ",
    "town": "本宮",
    "town_kana": "モトミヤ",
    "street": null,
    "office_name": null,
    "office_name_kana": null
  },
  "5753": {
    "postcode": "0185753",
    "prefecture": "秋田県",
    "prefecture_kana": "アキタケン",
    "prefecture_code": 5,
    "city": "大館市",
    "city_kana": "オオダテシ",
    "town": "比内前田",
    "town_kana": "ヒナイマエダ",
    "street": null,
    "office_name": null,
    "office_name_kana": null
  },
  "5754": {
    "postcode": "0185754",
    "prefecture": "秋田県",
    "prefecture_kana": "アキタケン",
    "prefecture_code": 5,
    "city": "大館市",
    "city_kana": "オオダテシ",
    "town": "大子内",
    "town_kana": "オオシナイ",
    "street": null,
    "office_name": null,
    "office_name_kana": null
  },
  "5755": {
    "postcode": "0185755",
    "prefecture": "秋田県",
    "prefecture_kana": "アキタケン",
    "prefecture_code": 5,
    "city": "大館市",
    "city_kana": "オオダテシ",
    "town": "杉沢",
    "town_kana": "スギサワ",
    "street": null,
    "office_name": null,
    "office_name_kana": null
  },
  "5756": {
    "postcode": "0185756",
    "prefecture": "秋田県",
    "prefecture_kana": "アキタケン",
    "prefecture_code": 5,
    "city": "大館市",
    "city_kana": "オオダテシ",
    "town": "下川原",
    "town_kana": "シタカワラ",
    "street": null,
    "office_name": null,
    "office_name_kana": null
  },
  "5792": {
    "postcode": "0185792",
    "prefecture": "秋田県",
    "prefecture_kana": "アキタケン",
    "prefecture_code": 5,
    "city": "大館市",
    "city_kana": "オオダテシ",
    "town": "比内町扇田",
    "town_kana": "ヒナイマチオウギタ",
    "street": "字新大堤下９３−６",
    "office_name": "大館市役所　比内総合支所",
    "office_name_kana": "オオダテシヤクシヨ ヒナイソウゴウシシヨ"
  },
  "5793": {
    "postcode": "0185793",
    "prefecture": "秋田県",
    "prefecture_kana": "アキタケン",
    "prefecture_code": 5,
    "city": "大館市",
    "city_kana": "オオダテシ",
    "town": "比内町扇田",
    "town_kana": "ヒナイマチオウギタ",
    "street": "字本道端７−１",
    "office_name": "大館市立　扇田病院",
    "office_name_kana": "オオダテシリツ オウギタビヨウイン"
  },
  "5851": {
    "postcode": "0185851",
    "prefecture": "秋田県",
    "prefecture_kana": "アキタケン",
    "prefecture_code": 5,
    "city": "大館市",
    "city_kana": "オオダテシ",
    "town": "比内町大葛",
    "town_kana": "ヒナイマチオオクゾ",
    "street": null,
    "office_name": null,
    "office_name_kana": null
  }
}