{
  "0111": {
    "postcode": "0190111",
    "prefecture": "秋田県",
    "prefecture_kana": "アキタケン",
    "prefecture_code": 5,
    "city": "湯沢市",
    "city_kana": "ユザワシ",
    "town": "上院内",
    "town_kana": "カミインナイ",
    "street": null,
    "office_name": null,
    "office_name_kana": null
  },
  "0112": {
    "postcode": "0190112",
    "prefecture": "秋田県",
    "prefecture_kana": "アキタケン",
    "prefecture_code": 5,
    "city": "湯沢市",
    "city_kana": "ユザワシ",
    "town": "下院内",
    "town_kana": "シモインナイ",
    "street": null,
    "office_name": null,
    "office_name_kana": null
  },
  "0113": {
    "postcode": "0190113",
    "prefecture": "秋田県",
    "prefecture_kana": "アキタケン",
    "prefecture_code": 5,
    "city": "湯沢市",
    "city_kana": "ユザワシ",
    "town": "院内銀山町",
    "town_kana": "インナイギンザンマチ",
    "street": null,
    "office_name": null,
    "office_name_kana": null
  },
  "0201": {
    "postcode": "0190201",
    "prefecture": "秋田県",
    "prefecture_kana": "アキタケン",
    "prefecture_code": 5,
    "city": "湯沢市",
    "city_kana": "ユザワシ",
    "town": "泉沢",
    "town_kana": "イズミサワ",
    "street": null,
    "office_name": null,
    "office_name_kana": null
  },
  "0202": {
    "postcode": "0190202",
    "prefecture": "秋田県",
    "prefecture_kana": "アキタケン",
    "prefecture_code": 5,
    "city": "湯沢市",
    "city_kana": "ユザワシ",
    "town": "桑崎",
    "town_kana": "クワガサキ",
    "street": null,
    "office_name": null,
    "office_name_kana": null
  },
  "0203": {
    "postcode": "0190203",
    "prefecture": "秋田県",
    "prefecture_kana": "アキタケン",
    "prefecture_code": 5,
    "city": "湯沢市",
    "city_kana": "ユザワシ",
    "town": "寺沢",
    "town_kana": "テラサワ",
    "street": null,
    "office_name": null,
    "office_name_kana": null
  },
  "0204": {
    "postcode": "0190204",
    "prefecture": "秋田県",
    "prefecture_kana": "アキタケン",
    "prefecture_code": 5,
    "city": "湯沢市",
    "city_kana": "ユザワシ",
    "town": "横堀",
    "town_kana": "ヨコボリ",
    "street": null,
    "office_name": null,
    "office_name_kana": null
  },
  "0205": {
    "postcode": "0190205",
    "prefecture": "秋田県",
    "prefecture_kana": "アキタケン",
    "prefecture_code": 5,
    "city": "湯沢市",
    "city_kana": "ユザワシ",
    "town": "小野",
    "town_kana": "オノ",
    "street": null,
    "office_name": null,
    "office_name_kana": null
  },
  "0321": {
    "postcode": "0190321",
    "prefecture": "秋田県",
    "prefecture_kana": "アキタケン",
    "prefecture_code": 5,
    "city": "湯沢市",
    "city_kana": "ユザワシ",
    "town": "秋ノ宮",
    "town_kana": "アキノミヤ",
    "street": null,
    "office_name": null,
    "office_name_kana": null
  },
  "0401": {
    "postcode": "0190401",
    "prefecture": "秋田県",
    "prefecture_kana": "アキタケン",
    "prefecture_code": 5,
    "city": "湯沢市",
    "city_kana": "ユザワシ",
    "town": "酒蒔",
    "town_kana": "サカマキ",
    "street": null,
    "office_name": null,
    "office_name_kana": null
  },
  "0402": {
    "postcode": "0190402",
    "prefecture": "秋田県",
    "prefecture_kana": "アキタケン",
    "prefecture_code": 5,
    "city": "湯沢市",
    "city_kana": "ユザワシ",
    "town": "相川",
    "town_kana": "アイカワ",
    "street": null,
    "office_name": null,
    "office_name_kana": null
  },
  "0403": {
    "postcode": "0190403",
    "prefecture": "秋田県",
    "prefecture_kana": "アキタケン",
    "prefecture_code": 5,
    "city": "湯沢市",
    "city_kana": "ユザワシ",
    "town": "宇留院内",
    "town_kana": "ウルインナイ",
    "street": null,
    "office_name": null,
    "office_name_kana": null
  },
  "0404": {
    "postcode": "0190404",
    "prefecture": "秋田県",
    "prefecture_kana": "アキタケン",
    "prefecture_code": 5,
    "city": "湯沢市",
    "city_kana": "ユザワシ",
    "town": "高松",
    "town_kana": "タカマツ",
    "street": null,
    "office_name": null,
    "office_name_kana": null
  },
  "0481": [
    {
      "postcode": "0190481",
      "prefecture": "秋田県",
      "prefecture_kana": "アキタケン",
      "prefecture_code": 5,
      "city": "湯沢市",
      "city_kana": "ユザワシ",
      "town": "皆瀬",
      "town_kana": "ミナセ",
      "street": null,
      "office_name": null,
      "office_name_kana": null
    },
    {
      "postcode": "0190481",
      "prefecture": "秋田県",
      "prefecture_kana": "アキタケン",
      "prefecture_code": 5,
      "city": "湯沢市",
      "city_kana": "ユザワシ",
      "town": "皆瀬水上沢",
      "town_kana": "ミナセミズカミサワ",
      "street": null,
      "office_name": null,
      "office_name_kana": null
    }
  ],
  "0501": {
    "postcode": "0190501",
    "prefecture": "秋田県",
    "prefecture_kana": "アキタケン",
    "prefecture_code": 5,
    "city": "横手市",
    "city_kana": "ヨコテシ",
    "town": "十文字町腕越",
    "town_kana": "ジュウモンジマチウデコシ",
    "street": null,
    "office_name": null,
    "office_name_kana": null
  },
  "0502": {
    "postcode": "0190502",
    "prefecture": "秋田県",
    "prefecture_kana": "アキタケン",
    "prefecture_code": 5,
    "city": "横手市",
    "city_kana": "ヨコテシ",
    "town": "十文字町西原２番町",
    "town_kana": "ジュウモンジマチニシハラ2バンチョウ",
    "street": null,
    "office_name": null,
    "office_name_kana": null
  },
  "0503": {
    "postcode": "0190503",
    "prefecture": "秋田県",
    "prefecture_kana": "アキタケン",
    "prefecture_code": 5,
    "city": "横手市",
    "city_kana": "ヨコテシ",
    "town": "十文字町西原１番町",
    "town_kana": "ジュウモンジマチニシハラ1バンチョウ",
    "street": null,
    "office_name": null,
    "office_name_kana": null
  },
  "0505": {
    "postcode": "0190505",
    "prefecture": "秋田県",
    "prefecture_kana": "アキタケン",
    "prefecture_code": 5,
    "city": "横手市",
    "city_kana": "ヨコテシ",
    "town": "十文字町仁井田",
    "town_kana": "ジュウモンジマチニイダ",
    "street": null,
    "office_name": null,
    "office_name_kana": null
  },
  "0506": {
    "postcode": "0190506",
    "prefecture": "秋田県",
    "prefecture_kana": "アキタケン",
    "prefecture_code": 5,
    "city": "横手市",
    "city_kana": "ヨコテシ",
    "town": "十文字町佐賀会",
    "town_kana": "ジュウモンジマチサガエ",
    "street": null,
    "office_name": null,
    "office_name_kana": null
  },
  "0507": {
    "postcode": "0190507",
    "prefecture": "秋田県",
    "prefecture_kana": "アキタケン",
    "prefecture_code": 5,
    "city": "横手市",
    "city_kana": "ヨコテシ",
    "town": "十文字町上鍋倉",
    "town_kana": "ジュウモンジマチカミナベクラ",
    "street": null,
    "office_name": null,
    "office_name_kana": null
  },
  "0508": {
    "postcode": "0190508",
    "prefecture": "秋田県",
    "prefecture_kana": "アキタケン",
    "prefecture_code": 5,
    "city": "横手市",
    "city_kana": "ヨコテシ",
    "town": "十文字町十五野新田",
    "town_kana": "ジュウモンジマチジュウゴノシンデン",
    "street": null,
    "office_name": null,
    "office_name_kana": null
  },
  "0509": {
    "postcode": "0190509",
    "prefecture": "秋田県",
    "prefecture_kana": "アキタケン",
    "prefecture_code": 5,
    "city": "横手市",
    "city_kana": "ヨコテシ",
    "town": "十文字町梨木",
    "town_kana": "ジュウモンジマチナシノキ",
    "street": null,
    "office_name": null,
    "office_name_kana": null
  },
  "0511": {
    "postcode": "0190511",
    "prefecture": "秋田県",
    "prefecture_kana": "アキタケン",
    "prefecture_code": 5,
    "city": "横手市",
    "city_kana": "ヨコテシ",
    "town": "十文字町鼎",
    "town_kana": "ジュウモンジマチカナエ",
    "street": null,
    "office_name": null,
    "office_name_kana": null
  },
  "0512": {
    "postcode": "0190512",
    "prefecture": "秋田県",
    "prefecture_kana": "アキタケン",
    "prefecture_code": 5,
    "city": "横手市",
    "city_kana": "ヨコテシ",
    "town": "十文字町越前",
    "town_kana": "ジュウモンジマチエツゼン",
    "street": null,
    "office_name": null,
    "office_name_kana": null
  },
  "0513": {
    "postcode": "0190513",
    "prefecture": "秋田県",
    "prefecture_kana": "アキタケン",
    "prefecture_code": 5,
    "city": "横手市",
    "city_kana": "ヨコテシ",
    "town": "十文字町植田",
    "town_kana": "ジュウモンジマチウエダ",
    "street": null,
    "office_name": null,
    "office_name_kana": null
  },
  "0514": {
    "postcode": "0190514",
    "prefecture": "秋田県",
    "prefecture_kana": "アキタケン",
    "prefecture_code": 5,
    "city": "横手市",
    "city_kana": "ヨコテシ",
    "town": "十文字町睦合",
    "town_kana": "ジュウモンジマチムツアイ",
    "street": null,
    "office_name": null,
    "office_name_kana": null
  },
  "0515": {
    "postcode": "0190515",
    "prefecture": "秋田県",
    "prefecture_kana": "アキタケン",
    "prefecture_code": 5,
    "city": "横手市",
    "city_kana": "ヨコテシ",
    "town": "十文字町谷地新田",
    "town_kana": "ジュウモンジマチヤチシンデン",
    "street": null,
    "office_name": null,
    "office_name_kana": null
  },
  "0516": {
    "postcode": "0190516",
    "prefecture": "秋田県",
    "prefecture_kana": "アキタケン",
    "prefecture_code": 5,
    "city": "横手市",
    "city_kana": "ヨコテシ",
    "town": "十文字町源太左馬",
    "town_kana": "ジュウモンジマチゲンダサマ",
    "street": null,
    "office_name": null,
    "office_name_kana": null
  },
  "0517": {
    "postcode": "0190517",
    "prefecture": "秋田県",
    "prefecture_kana": "アキタケン",
    "prefecture_code": 5,
    "city": "横手市",
    "city_kana": "ヨコテシ",
    "town": "十文字町木下",
    "town_kana": "ジュウモンジマチキジタ",
    "street": null,
    "office_name": null,
    "office_name_kana": null
  },
  "0518": {
    "postcode": "0190518",
    "prefecture": "秋田県",
    "prefecture_kana": "アキタケン",
    "prefecture_code": 5,
    "city": "横手市",
    "city_kana": "ヨコテシ",
    "town": "十文字町宝竜",
    "town_kana": "ジュウモンジマチホウリュウ",
    "street": null,
    "office_name": null,
    "office_name_kana": null
  },
  "0521": {
    "postcode": "0190521",
    "prefecture": "秋田県",
    "prefecture_kana": "アキタケン",
    "prefecture_code": 5,
    "city": "横手市",
    "city_kana": "ヨコテシ",
    "town": "十文字町西下",
    "town_kana": "ジュウモンジマチニシシタ",
    "street": null,
    "office_name": null,
    "office_name_kana": null
  },
  "0522": {
    "postcode": "0190522",
    "prefecture": "秋田県",
    "prefecture_kana": "アキタケン",
    "prefecture_code": 5,
    "city": "横手市",
    "city_kana": "ヨコテシ",
    "town": "十文字町西上",
    "town_kana": "ジュウモンジマチニシカミ",
    "street": null,
    "office_name": null,
    "office_name_kana": null
  },
  "0523": {
    "postcode": "0190523",
    "prefecture": "秋田県",
    "prefecture_kana": "アキタケン",
    "prefecture_code": 5,
    "city": "横手市",
    "city_kana": "ヨコテシ",
    "town": "十文字町十文字",
    "town_kana": "ジュウモンジマチジュウモンジ",
    "street": null,
    "office_name": null,
    "office_name_kana": null
  },
  "0524": {
    "postcode": "0190524",
    "prefecture": "秋田県",
    "prefecture_kana": "アキタケン",
    "prefecture_code": 5,
    "city": "横手市",
    "city_kana": "ヨコテシ",
    "town": "十文字町本町",
    "town_kana": "ジュウモンジマチモトマチ",
    "street": null,
    "office_name": null,
    "office_name_kana": null
  },
  "0525": {
    "postcode": "0190525",
    "prefecture": "秋田県",
    "prefecture_kana": "アキタケン",
    "prefecture_code": 5,
    "city": "横手市",
    "city_kana": "ヨコテシ",
    "town": "十文字町曙町",
    "town_kana": "ジュウモンジマチアケボノチョウ",
    "street": null,
    "office_name": null,
    "office_name_kana": null
  },
  "0526": {
    "postcode": "0190526",
    "prefecture": "秋田県",
    "prefecture_kana": "アキタケン",
    "prefecture_code": 5,
    "city": "横手市",
    "city_kana": "ヨコテシ",
    "town": "十文字町通町",
    "town_kana": "ジュウモンジマチトオリマチ",
    "street": null,
    "office_name": null,
    "office_name_kana": null
  },
  "0527": {
    "postcode": "0190527",
    "prefecture": "秋田県",
    "prefecture_kana": "アキタケン",
    "prefecture_code": 5,
    "city": "横手市",
    "city_kana": "ヨコテシ",
    "town": "十文字町大道東",
    "town_kana": "ジュウモンジマチダイドウヒガシ",
    "street": null,
    "office_name": null,
    "office_name_kana": null
  },
  "0528": {
    "postcode": "0190528",
    "prefecture": "秋田県",
    "prefecture_kana": "アキタケン",
    "prefecture_code": 5,
    "city": "横手市",
    "city_kana": "ヨコテシ",
    "town": "十文字町栄町",
    "town_kana": "ジュウモンジマチサカエチョウ",
    "street": null,
    "office_name": null,
    "office_name_kana": null
  },
  "0529": {
    "postcode": "0190529",
    "prefecture": "秋田県",
    "prefecture_kana": "アキタケン",
    "prefecture_code": 5,
    "city": "横手市",
    "city_kana": "ヨコテシ",
    "town": "十文字町海道下",
    "town_kana": "ジュウモンジマチカイドウシタ",
    "street": null,
    "office_name": null,
    "office_name_kana": null
  },
  "0531": {
    "postcode": "0190531",
    "prefecture": "秋田県",
    "prefecture_kana": "アキタケン",
    "prefecture_code": 5,
    "city": "横手市",
    "city_kana": "ヨコテシ",
    "town": "十文字町上佐吉開",
    "town_kana": "ジュウモンジマチカミサキチビラキ",
    "street": null,
    "office_name": null,
    "office_name_kana": null
  },
  "0532": {
    "postcode": "0190532",
    "prefecture": "秋田県",
    "prefecture_kana": "アキタケン",
    "prefecture_code": 5,
    "city": "横手市",
    "city_kana": "ヨコテシ",
    "town": "十文字町麻当",
    "town_kana": "ジュウモンジマチマトウ",
    "street": null,
    "office_name": null,
    "office_name_kana": null
  },
  "0533": {
    "postcode": "0190533",
    "prefecture": "秋田県",
    "prefecture_kana": "アキタケン",
    "prefecture_code": 5,
    "city": "横手市",
    "city_kana": "ヨコテシ",
    "town": "十文字町下佐吉開",
    "town_kana": "ジュウモンジマチシモサキチビラキ",
    "street": null,
    "office_name": null,
    "office_name_kana": null
  },
  "0701": {
    "postcode": "0190701",
    "prefecture": "秋田県",
    "prefecture_kana": "アキタケン",
    "prefecture_code": 5,
    "city": "横手市",
    "city_kana": "ヨコテシ",
    "town": "増田町増田",
    "town_kana": "マスダマチマスダ",
    "street": null,
    "office_name": null,
    "office_name_kana": null
  },
  "0702": {
    "postcode": "0190702",
    "prefecture": "秋田県",
    "prefecture_kana": "アキタケン",
    "prefecture_code": 5,
    "city": "横手市",
    "city_kana": "ヨコテシ",
    "town": "増田町亀田",
    "town_kana": "マスダマチカメダ",
    "street": null,
    "office_name": null,
    "office_name_kana": null
  },
  "0703": {
    "postcode": "0190703",
    "prefecture": "秋田県",
    "prefecture_kana": "アキタケン",
    "prefecture_code": 5,
    "city": "横手市",
    "city_kana": "ヨコテシ",
    "town": "増田町吉野",
    "town_kana": "マスダマチヨシノ",
    "street": null,
    "office_name": null,
    "office_name_kana": null
  },
  "0704": {
    "postcode": "0190704",
    "prefecture": "秋田県",
    "prefecture_kana": "アキタケン",
    "prefecture_code": 5,
    "city": "横手市",
    "city_kana": "ヨコテシ",
    "town": "増田町湯野沢",
    "town_kana": "マスダマチユノサワ",
    "street": null,
    "office_name": null,
    "office_name_kana": null
  },
  "0705": {
    "postcode": "0190705",
    "prefecture": "秋田県",
    "prefecture_kana": "アキタケン",
    "prefecture_code": 5,
    "city": "横手市",
    "city_kana": "ヨコテシ",
    "town": "増田町狙半内",
    "town_kana": "マスダマチサルハンナイ",
    "street": null,
    "office_name": null,
    "office_name_kana": null
  },
  "0711": {
    "postcode": "0190711",
    "prefecture": "秋田県",
    "prefecture_kana": "アキタケン",
    "prefecture_code": 5,
    "city": "横手市",
    "city_kana": "ヨコテシ",
    "town": "増田町荻袋",
    "town_kana": "マスダマチオギノフクロ",
    "street": null,
    "office_name": null,
    "office_name_kana": null
  },
  "0712": {
    "postcode": "0190712",
    "prefecture": "秋田県",
    "prefecture_kana": "アキタケン",
    "prefecture_code": 5,
    "city": "横手市",
    "city_kana": "ヨコテシ",
    "town": "増田町熊渕",
    "town_kana": "マスダマチクマノフチ",
    "street": null,
    "office_name": null,
    "office_name_kana": null
  },
  "0713": {
    "postcode": "0190713",
    "prefecture": "秋田県",
    "prefecture_kana": "アキタケン",
    "prefecture_code": 5,
    "city": "横手市",
    "city_kana": "ヨコテシ",
    "town": "増田町三又",
    "town_kana": "マスダマチミツマタ",
    "street": null,
    "office_name": null,
    "office_name_kana": null
  },
  "0714": {
    "postcode": "0190714",
    "prefecture": "秋田県",
    "prefecture_kana": "アキタケン",
    "prefecture_code": 5,
    "city": "横手市",
    "city_kana": "ヨコテシ",
    "town": "増田町戸波",
    "town_kana": "マスダマチトナミ",
    "street": null,
    "office_name": null,
    "office_name_kana": null
  },
  "0715": {
    "postcode": "0190715",
    "prefecture": "秋田県",
    "prefecture_kana": "アキタケン",
    "prefecture_code": 5,
    "city": "横手市",
    "city_kana": "ヨコテシ",
    "town": "増田町八木",
    "town_kana": "マスダマチヤギ",
    "street": null,
    "office_name": null,
    "office_name_kana": null
  },
  "0792": {
    "postcode": "0190792",
    "prefecture": "秋田県",
    "prefecture_kana": "アキタケン",
    "prefecture_code": 5,
    "city": "横手市",
    "city_kana": "ヨコテシ",
    "town": "増田町増田",
    "town_kana": "マスダマチマスダ",
    "street": "字土肥館１７３",
    "office_name": "横手市役所　増田地域局",
    "office_name_kana": "ヨコテシヤクシヨ マスダチイキキヨク"
  },
  "0793": {
    "postcode": "0190793",
    "prefecture": "秋田県",
    "prefecture_kana": "アキタケン",
    "prefecture_code": 5,
    "city": "横手市",
    "city_kana": "ヨコテシ",
    "town": "増田町増田",
    "town_kana": "マスダマチマスダ",
    "street": "字石神西７０",
    "office_name": "ＪＵＫＩ電子工業　株式会社",
    "office_name_kana": "ジユ-キデンシコウギヨウ カブシキガイシヤ"
  },
  "0800": {
    "postcode": "0190800",
    "prefecture": "秋田県",
    "prefecture_kana": "アキタケン",
    "prefecture_code": 5,
    "city": "雄勝郡東成瀬村",
    "city_kana": "オガチグンヒガシナルセムラ",
    "town": "",
    "town_kana": "",
    "street": null,
    "office_name": null,
    "office_name_kana": null
  },
  "0801": {
    "postcode": "0190801",
    "prefecture": "秋田県",
    "prefecture_kana": "アキタケン",
    "prefecture_code": 5,
    "city": "雄勝郡東成瀬村",
    "city_kana": "オガチグンヒガシナルセムラ",
    "town": "田子内",
    "town_kana": "タゴナイ",
    "street": null,
    "office_name": null,
    "office_name_kana": null
  },
  "0802": {
    "postcode": "0190802",
    "prefecture": "秋田県",
    "prefecture_kana": "アキタケン",
    "prefecture_code": 5,
    "city": "雄勝郡東成瀬村",
    "city_kana": "オガチグンヒガシナルセムラ",
    "town": "岩井川",
    "town_kana": "イワイカワ",
    "street": null,
    "office_name": null,
    "office_name_kana": null
  },
  "0803": {
    "postcode": "0190803",
    "prefecture": "秋田県",
    "prefecture_kana": "アキタケン",
    "prefecture_code": 5,
    "city": "雄勝郡東成瀬村",
    "city_kana": "オガチグンヒガシナルセムラ",
    "town": "椿川",
    "town_kana": "ツバキカワ",
    "street": null,
    "office_name": null,
    "office_name_kana": null
  },
  "1101": {
    "postcode": "0191101",
    "prefecture": "秋田県",
    "prefecture_kana": "アキタケン",
    "prefecture_code": 5,
    "city": "横手市",
    "city_kana": "ヨコテシ",
    "town": "山内大松川",
    "town_kana": "サンナイオオマツカワ",
    "street": null,
    "office_name": null,
    "office_name_kana": null
  },
  "1102": {
    "postcode": "0191102",
    "prefecture": "秋田県",
    "prefecture_kana": "アキタケン",
    "prefecture_code": 5,
    "city": "横手市",
    "city_kana": "ヨコテシ",
    "town": "山内小松川",
    "town_kana": "サンナイコマツカワ",
    "street": null,
    "office_name": null,
    "office_name_kana": null
  },
  "1103": {
    "postcode": "0191103",
    "prefecture": "秋田県",
    "prefecture_kana": "アキタケン",
    "prefecture_code": 5,
    "city": "横手市",
    "city_kana": "ヨコテシ",
    "town": "山内黒沢",
    "town_kana": "サンナイクロサワ",
    "street": null,
    "office_name": null,
    "office_name_kana": null
  },
  "1104": {
    "postcode": "0191104",
    "prefecture": "秋田県",
    "prefecture_kana": "アキタケン",
    "prefecture_code": 5,
    "city": "横手市",
    "city_kana": "ヨコテシ",
    "town": "山内三又",
    "town_kana": "サンナイミツマタ",
    "street": null,
    "office_name": null,
    "office_name_kana": null
  },
  "1105": {
    "postcode": "0191105",
    "prefecture": "秋田県",
    "prefecture_kana": "アキタケン",
    "prefecture_code": 5,
    "city": "横手市",
    "city_kana": "ヨコテシ",
    "town": "山内南郷",
    "town_kana": "サンナイナンゴウ",
    "street": null,
    "office_name": null,
    "office_name_kana": null
  },
  "1106": {
    "postcode": "0191106",
    "prefecture": "秋田県",
    "prefecture_kana": "アキタケン",
    "prefecture_code": 5,
    "city": "横手市",
    "city_kana": "ヨコテシ",
    "town": "山内平野沢",
    "town_kana": "サンナイヒラノサワ",
    "street": null,
    "office_name": null,
    "office_name_kana": null
  },
  "1107": {
    "postcode": "0191107",
    "prefecture": "秋田県",
    "prefecture_kana": "アキタケン",
    "prefecture_code": 5,
    "city": "横手市",
    "city_kana": "ヨコテシ",
    "town": "山内筏",
    "town_kana": "サンナイイカダ",
    "street": null,
    "office_name": null,
    "office_name_kana": null
  },
  "1108": {
    "postcode": "0191108",
    "prefecture": "秋田県",
    "prefecture_kana": "アキタケン",
    "prefecture_code": 5,
    "city": "横手市",
    "city_kana": "ヨコテシ",
    "town": "山内土渕",
    "town_kana": "サンナイツチブチ",
    "street": null,
    "office_name": null,
    "office_name_kana": null
  },
  "1109": {
    "postcode": "0191109",
    "prefecture": "秋田県",
    "prefecture_kana": "アキタケン",
    "prefecture_code": 5,
    "city": "横手市",
    "city_kana": "ヨコテシ",
    "town": "山内大沢",
    "town_kana": "サンナイオオサワ",
    "street": null,
    "office_name": null,
    "office_name_kana": null
  },
  "1231": {
    "postcode": "0191231",
    "prefecture": "秋田県",
    "prefecture_kana": "アキタケン",
    "prefecture_code": 5,
    "city": "仙北郡美郷町",
    "city_kana": "センボクグンミサトチョウ",
    "town": "南町",
    "town_kana": "ミナミマチ",
    "street": null,
    "office_name": null,
    "office_name_kana": null
  },
  "1232": {
    "postcode": "0191232",
    "prefecture": "秋田県",
    "prefecture_kana": "アキタケン",
    "prefecture_code": 5,
    "city": "仙北郡美郷町",
    "city_kana": "センボクグンミサトチョウ",
    "town": "天神堂",
    "town_kana": "テンジンドウ",
    "street": null,
    "office_name": null,
    "office_name_kana": null
  },
  "1233": {
    "postcode": "0191233",
    "prefecture": "秋田県",
    "prefecture_kana": "アキタケン",
    "prefecture_code": 5,
    "city": "仙北郡美郷町",
    "city_kana": "センボクグンミサトチョウ",
    "town": "境田",
    "town_kana": "サカイダ",
    "street": null,
    "office_name": null,
    "office_name_kana": null
  },
  "1234": {
    "postcode": "0191234",
    "prefecture": "秋田県",
    "prefecture_kana": "アキタケン",
    "prefecture_code": 5,
    "city": "仙北郡美郷町",
    "city_kana": "センボクグンミサトチョウ",
    "town": "飯詰",
    "town_kana": "イイヅメ",
    "street": null,
    "office_name": null,
    "office_name_kana": null
  },
  "1235": {
    "postcode": "0191235",
    "prefecture": "秋田県",
    "prefecture_kana": "アキタケン",
    "prefecture_code": 5,
    "city": "仙北郡美郷町",
    "city_kana": "センボクグンミサトチョウ",
    "town": "金沢西根",
    "town_kana": "カネザワニシネ",
    "street": null,
    "office_name": null,
    "office_name_kana": null
  },
  "1236": {
    "postcode": "0191236",
    "prefecture": "秋田県",
    "prefecture_kana": "アキタケン",
    "prefecture_code": 5,
    "city": "仙北郡美郷町",
    "city_kana": "センボクグンミサトチョウ",
    "town": "上深井",
    "town_kana": "カミフカイ",
    "street": null,
    "office_name": null,
    "office_name_kana": null
  },
  "1237": {
    "postcode": "0191237",
    "prefecture": "秋田県",
    "prefecture_kana": "アキタケン",
    "prefecture_code": 5,
    "city": "仙北郡美郷町",
    "city_kana": "センボクグンミサトチョウ",
    "town": "佐野",
    "town_kana": "サノ",
    "street": null,
    "office_name": null,
    "office_name_kana": null
  },
  "1301": {
    "postcode": "0191301",
    "prefecture": "秋田県",
    "prefecture_kana": "アキタケン",
    "prefecture_code": 5,
    "city": "仙北郡美郷町",
    "city_kana": "センボクグンミサトチョウ",
    "town": "野荒町",
    "town_kana": "ノアラマチ",
    "street": null,
    "office_name": null,
    "office_name_kana": null
  },
  "1302": {
    "postcode": "0191302",
    "prefecture": "秋田県",
    "prefecture_kana": "アキタケン",
    "prefecture_code": 5,
    "city": "仙北郡美郷町",
    "city_kana": "センボクグンミサトチョウ",
    "town": "金沢",
    "town_kana": "カネザワ",
    "street": null,
    "office_name": null,
    "office_name_kana": null
  },
  "1397": {
    "postcode": "0191397",
    "prefecture": "秋田県",
    "prefecture_kana": "アキタケン",
    "prefecture_code": 5,
    "city": "仙北郡美郷町",
    "city_kana": "センボクグンミサトチョウ",
    "town": "野荒町",
    "town_kana": "ノアラマチ",
    "street": "字街道ノ上２７９",
    "office_name": "株式会社　ヤマダフーズ",
    "office_name_kana": "カブシキガイシヤ ヤマダフ-ズ"
  },
  "1400": {
    "postcode": "0191400",
    "prefecture": "秋田県",
    "prefecture_kana": "アキタケン",
    "prefecture_code": 5,
    "city": "仙北郡美郷町",
    "city_kana": "センボクグンミサトチョウ",
    "town": "",
    "town_kana": "",
    "street": null,
    "office_name": null,
    "office_name_kana": null
  },
  "1401": {
    "postcode": "0191401",
    "prefecture": "秋田県",
    "prefecture_kana": "アキタケン",
    "prefecture_code": 5,
    "city": "仙北郡美郷町",
    "city_kana": "センボクグンミサトチョウ",
    "town": "鑓田",
    "town_kana": "ヤリダ",
    "street": null,
    "office_name": null,
    "office_name_kana": null
  },
  "1402": {
    "postcode": "0191402",
    "prefecture": "秋田県",
    "prefecture_kana": "アキタケン",
    "prefecture_code": 5,
    "city": "仙北郡美郷町",
    "city_kana": "センボクグンミサトチョウ",
    "town": "野中",
    "town_kana": "ノナカ",
    "street": null,
    "office_name": null,
    "office_name_kana": null
  },
  "1403": {
    "postcode": "0191403",
    "prefecture": "秋田県",
    "prefecture_kana": "アキタケン",
    "prefecture_code": 5,
    "city": "仙北郡美郷町",
    "city_kana": "センボクグンミサトチョウ",
    "town": "六郷東根",
    "town_kana": "ロクゴウヒガシネ",
    "street": null,
    "office_name": null,
    "office_name_kana": null
  },
  "1404": {
    "postcode": "0191404",
    "prefecture": "秋田県",
    "prefecture_kana": "アキタケン",
    "prefecture_code": 5,
    "city": "仙北郡美郷町",
    "city_kana": "センボクグンミサトチョウ",
    "town": "六郷",
    "town_kana": "ロクゴウ",
    "street": null,
    "office_name": null,
    "office_name_kana": null
  },
  "1501": {
    "postcode": "0191501",
    "prefecture": "秋田県",
    "prefecture_kana": "アキタケン",
    "prefecture_code": 5,
    "city": "仙北郡美郷町",
    "city_kana": "センボクグンミサトチョウ",
    "town": "浪花",
    "town_kana": "ナニワ",
    "street": null,
    "office_name": null,
    "office_name_kana": null
  },
  "1502": {
    "postcode": "0191502",
    "prefecture": "秋田県",
    "prefecture_kana": "アキタケン",
    "prefecture_code": 5,
    "city": "仙北郡美郷町",
    "city_kana": "センボクグンミサトチョウ",
    "town": "千屋",
    "town_kana": "センヤ",
    "street": null,
    "office_name": null,
    "office_name_kana": null
  },
  "1511": {
    "postcode": "0191511",
    "prefecture": "秋田県",
    "prefecture_kana": "アキタケン",
    "prefecture_code": 5,
    "city": "仙北郡美郷町",
    "city_kana": "センボクグンミサトチョウ",
    "town": "黒沢",
    "town_kana": "クロサワ",
    "street": null,
    "office_name": null,
    "office_name_kana": null
  },
  "1512": {
    "postcode": "0191512",
    "prefecture": "秋田県",
    "prefecture_kana": "アキタケン",
    "prefecture_code": 5,
    "city": "仙北郡美郷町",
    "city_kana": "センボクグンミサトチョウ",
    "town": "本堂城回",
    "town_kana": "ホンドウシロマワリ",
    "street": null,
    "office_name": null,
    "office_name_kana": null
  },
  "1521": {
    "postcode": "0191521",
    "prefecture": "秋田県",
    "prefecture_kana": "アキタケン",
    "prefecture_code": 5,
    "city": "仙北郡美郷町",
    "city_kana": "センボクグンミサトチョウ",
    "town": "中野",
    "town_kana": "ナカノ",
    "street": null,
    "office_name": null,
    "office_name_kana": null
  },
  "1522": {
    "postcode": "0191522",
    "prefecture": "秋田県",
    "prefecture_kana": "アキタケン",
    "prefecture_code": 5,
    "city": "仙北郡美郷町",
    "city_kana": "センボクグンミサトチョウ",
    "town": "金沢東根",
    "town_kana": "カネザワヒガシネ",
    "street": null,
    "office_name": null,
    "office_name_kana": null
  },
  "1531": {
    "postcode": "0191531",
    "prefecture": "秋田県",
    "prefecture_kana": "アキタケン",
    "prefecture_code": 5,
    "city": "仙北郡美郷町",
    "city_kana": "センボクグンミサトチョウ",
    "town": "畑屋",
    "town_kana": "ハタヤ",
    "street": null,
    "office_name": null,
    "office_name_kana": null
  },
  "1532": {
    "postcode": "0191532",
    "prefecture": "秋田県",
    "prefecture_kana": "アキタケン",
    "prefecture_code": 5,
    "city": "仙北郡美郷町",
    "city_kana": "センボクグンミサトチョウ",
    "town": "羽貫谷地",
    "town_kana": "ハヌキヤチ",
    "street": null,
    "office_name": null,
    "office_name_kana": null
  },
  "1533": {
    "postcode": "0191533",
    "prefecture": "秋田県",
    "prefecture_kana": "アキタケン",
    "prefecture_code": 5,
    "city": "仙北郡美郷町",
    "city_kana": "センボクグンミサトチョウ",
    "town": "安城寺",
    "town_kana": "アンジョウジ",
    "street": null,
    "office_name": null,
    "office_name_kana": null
  },
  "1541": {
    "postcode": "0191541",
    "prefecture": "秋田県",
    "prefecture_kana": "アキタケン",
    "prefecture_code": 5,
    "city": "仙北郡美郷町",
    "city_kana": "センボクグンミサトチョウ",
    "town": "土崎",
    "town_kana": "ツチザキ",
    "street": null,
    "office_name": null,
    "office_name_kana": null
  },
  "1542": {
    "postcode": "0191542",
    "prefecture": "秋田県",
    "prefecture_kana": "アキタケン",
    "prefecture_code": 5,
    "city": "仙北郡美郷町",
    "city_kana": "センボクグンミサトチョウ",
    "town": "小荒川",
    "town_kana": "コアラカワ",
    "street": null,
    "office_name": null,
    "office_name_kana": null
  },
  "1601": {
    "postcode": "0191601",
    "prefecture": "秋田県",
    "prefecture_kana": "アキタケン",
    "prefecture_code": 5,
    "city": "大仙市",
    "city_kana": "ダイセンシ",
    "town": "太田町横沢",
    "town_kana": "オオタチョウヨコサワ",
    "street": null,
    "office_name": null,
    "office_name_kana": null
  },
  "1602": {
    "postcode": "0191602",
    "prefecture": "秋田県",
    "prefecture_kana": "アキタケン",
    "prefecture_code": 5,
    "city": "大仙市",
    "city_kana": "ダイセンシ",
    "town": "太田町三本扇",
    "town_kana": "オオタチョウサンボンオウギ",
    "street": null,
    "office_name": null,
    "office_name_kana": null
  },
  "1603": {
    "postcode": "0191603",
    "prefecture": "秋田県",
    "prefecture_kana": "アキタケン",
    "prefecture_code": 5,
    "city": "大仙市",
    "city_kana": "ダイセンシ",
    "town": "太田町中里",
    "town_kana": "オオタチョウナカサト",
    "street": null,
    "office_name": null,
    "office_name_kana": null
  },
  "1604": {
    "postcode": "0191604",
    "prefecture": "秋田県",
    "prefecture_kana": "アキタケン",
    "prefecture_code": 5,
    "city": "大仙市",
    "city_kana": "ダイセンシ",
    "town": "太田町駒場",
    "town_kana": "オオタチョウコマバ",
    "street": null,
    "office_name": null,
    "office_name_kana": null
  },
  "1605": {
    "postcode": "0191605",
    "prefecture": "秋田県",
    "prefecture_kana": "アキタケン",
    "prefecture_code": 5,
    "city": "大仙市",
    "city_kana": "ダイセンシ",
    "town": "太田町国見",
    "town_kana": "オオタチョウクニミ",
    "street": null,
    "office_name": null,
    "office_name_kana": null
  },
  "1611": {
    "postcode": "0191611",
    "prefecture": "秋田県",
    "prefecture_kana": "アキタケン",
    "prefecture_code": 5,
    "city": "大仙市",
    "city_kana": "ダイセンシ",
    "town": "太田町斉内",
    "town_kana": "オオタチョウサイナイ",
    "street": null,
    "office_name": null,
    "office_name_kana": null
  },
  "1612": {
    "postcode": "0191612",
    "prefecture": "秋田県",
    "prefecture_kana": "アキタケン",
    "prefecture_code": 5,
    "city": "大仙市",
    "city_kana": "ダイセンシ",
    "town": "太田町小神成",
    "town_kana": "オオタチョウコガナリ",
    "street": null,
    "office_name": null,
    "office_name_kana": null
  },
  "1613": {
    "postcode": "0191613",
    "prefecture": "秋田県",
    "prefecture_kana": "アキタケン",
    "prefecture_code": 5,
    "city": "大仙市",
    "city_kana": "ダイセンシ",
    "town": "太田町太田",
    "town_kana": "オオタチョウオオタ",
    "street": null,
    "office_name": null,
    "office_name_kana": null
  },
  "1614": {
    "postcode": "0191614",
    "prefecture": "秋田県",
    "prefecture_kana": "アキタケン",
    "prefecture_code": 5,
    "city": "大仙市",
    "city_kana": "ダイセンシ",
    "town": "太田町東今泉",
    "town_kana": "オオタチョウヒガシイマイズミ",
    "street": null,
    "office_name": null,
    "office_name_kana": null
  },
  "1615": {
    "postcode": "0191615",
    "prefecture": "秋田県",
    "prefecture_kana": "アキタケン",
    "prefecture_code": 5,
    "city": "大仙市",
    "city_kana": "ダイセンシ",
    "town": "太田町川口",
    "town_kana": "オオタチョウカワグチ",
    "street": null,
    "office_name": null,
    "office_name_kana": null
  },
  "1616": {
    "postcode": "0191616",
    "prefecture": "秋田県",
    "prefecture_kana": "アキタケン",
    "prefecture_code": 5,
    "city": "大仙市",
    "city_kana": "ダイセンシ",
    "town": "太田町永代",
    "town_kana": "オオタチョウエイダイ",
    "street": null,
    "office_name": null,
    "office_name_kana": null
  },
  "1692": {
    "postcode": "0191692",
    "prefecture": "秋田県",
    "prefecture_kana": "アキタケン",
    "prefecture_code": 5,
    "city": "大仙市",
    "city_kana": "ダイセンシ",
    "town": "太田町太田",
    "town_kana": "オオタチョウオオタ",
    "street": "字新田田尻３−４",
    "office_name": "大仙市　太田総合支所",
    "office_name_kana": "ダイセンシ オオタソウゴウシシヨ"
  },
  "1701": {
    "postcode": "0191701",
    "prefecture": "秋田県",
    "prefecture_kana": "アキタケン",
    "prefecture_code": 5,
    "city": "大仙市",
    "city_kana": "ダイセンシ",
    "town": "神宮寺",
    "town_kana": "ジングウジ",
    "street": null,
    "office_name": null,
    "office_name_kana": null
  },
  "1702": {
    "postcode": "0191702",
    "prefecture": "秋田県",
    "prefecture_kana": "アキタケン",
    "prefecture_code": 5,
    "city": "大仙市",
    "city_kana": "ダイセンシ",
    "town": "北楢岡",
    "town_kana": "キタナラオカ",
    "street": null,
    "office_name": null,
    "office_name_kana": null
  },
  "1801": {
    "postcode": "0191801",
    "prefecture": "秋田県",
    "prefecture_kana": "アキタケン",
    "prefecture_code": 5,
    "city": "大仙市",
    "city_kana": "ダイセンシ",
    "town": "南外物渡台",
    "town_kana": "ナンガイブツドダイ",
    "street": null,
    "office_name": null,
    "office_name_kana": null
  },
  "1802": {
    "postcode": "0191802",
    "prefecture": "秋田県",
    "prefecture_kana": "アキタケン",
    "prefecture_code": 5,
    "city": "大仙市",
    "city_kana": "ダイセンシ",
    "town": "南外小春木沢",
    "town_kana": "ナンガイコハルキザワ",
    "street": null,
    "office_name": null,
    "office_name_kana": null
  },
  "1803": {
    "postcode": "0191803",
    "prefecture": "秋田県",
    "prefecture_kana": "アキタケン",
    "prefecture_code": 5,
    "city": "大仙市",
    "city_kana": "ダイセンシ",
    "town": "南外坊田石兀ノ下",
    "town_kana": "ナンガイボウダイシハゲノシタ",
    "street": null,
    "office_name": null,
    "office_name_kana": null
  },
  "1804": {
    "postcode": "0191804",
    "prefecture": "秋田県",
    "prefecture_kana": "アキタケン",
    "prefecture_code": 5,
    "city": "大仙市",
    "city_kana": "ダイセンシ",
    "town": "南外西野",
    "town_kana": "ナンガイニシノ",
    "street": null,
    "office_name": null,
    "office_name_kana": null
  },
  "1805": {
    "postcode": "0191805",
    "prefecture": "秋田県",
    "prefecture_kana": "アキタケン",
    "prefecture_code": 5,
    "city": "大仙市",
    "city_kana": "ダイセンシ",
    "town": "南外西板戸",
    "town_kana": "ナンガイニシイタド",
    "street": null,
    "office_name": null,
    "office_name_kana": null
  },
  "1806": {
    "postcode": "0191806",
    "prefecture": "秋田県",
    "prefecture_kana": "アキタケン",
    "prefecture_code": 5,
    "city": "大仙市",
    "city_kana": "ダイセンシ",
    "town": "南外十二袋",
    "town_kana": "ナンガイジュウニフクロ",
    "street": null,
    "office_name": null,
    "office_name_kana": null
  },
  "1807": {
    "postcode": "0191807",
    "prefecture": "秋田県",
    "prefecture_kana": "アキタケン",
    "prefecture_code": 5,
    "city": "大仙市",
    "city_kana": "ダイセンシ",
    "town": "南外川口本町",
    "town_kana": "ナンガイカワグチホンチョウ",
    "street": null,
    "office_name": null,
    "office_name_kana": null
  },
  "1808": {
    "postcode": "0191808",
    "prefecture": "秋田県",
    "prefecture_kana": "アキタケン",
    "prefecture_code": 5,
    "city": "大仙市",
    "city_kana": "ダイセンシ",
    "town": "南外川口",
    "town_kana": "ナンガイカワグチ",
    "street": null,
    "office_name": null,
    "office_name_kana": null
  },
  "1811": {
    "postcode": "0191811",
    "prefecture": "秋田県",
    "prefecture_kana": "アキタケン",
    "prefecture_code": 5,
    "city": "大仙市",
    "city_kana": "ダイセンシ",
    "town": "南外本宿",
    "town_kana": "ナンガイモトシュク",
    "street": null,
    "office_name": null,
    "office_name_kana": null
  },
  "1812": {
    "postcode": "0191812",
    "prefecture": "秋田県",
    "prefecture_kana": "アキタケン",
    "prefecture_code": 5,
    "city": "大仙市",
    "city_kana": "ダイセンシ",
    "town": "南外沖田",
    "town_kana": "ナンガイオキダ",
    "street": null,
    "office_name": null,
    "office_name_kana": null
  },
  "1813": {
    "postcode": "0191813",
    "prefecture": "秋田県",
    "prefecture_kana": "アキタケン",
    "prefecture_code": 5,
    "city": "大仙市",
    "city_kana": "ダイセンシ",
    "town": "南外猿ケ瀬出野",
    "town_kana": "ナンガイサルガセデノ",
    "street": null,
    "office_name": null,
    "office_name_kana": null
  },
  "1814": {
    "postcode": "0191814",
    "prefecture": "秋田県",
    "prefecture_kana": "アキタケン",
    "prefecture_code": 5,
    "city": "大仙市",
    "city_kana": "ダイセンシ",
    "town": "南外下木直",
    "town_kana": "ナンガイシモキジキ",
    "street": null,
    "office_name": null,
    "office_name_kana": null
  },
  "1815": {
    "postcode": "0191815",
    "prefecture": "秋田県",
    "prefecture_kana": "アキタケン",
    "prefecture_code": 5,
    "city": "大仙市",
    "city_kana": "ダイセンシ",
    "town": "南外平形",
    "town_kana": "ナンガイヒラカタ",
    "street": null,
    "office_name": null,
    "office_name_kana": null
  },
  "1816": {
    "postcode": "0191816",
    "prefecture": "秋田県",
    "prefecture_kana": "アキタケン",
    "prefecture_code": 5,
    "city": "大仙市",
    "city_kana": "ダイセンシ",
    "town": "南外上木直",
    "town_kana": "ナンガイカミキジキ",
    "street": null,
    "office_name": null,
    "office_name_kana": null
  },
  "1817": {
    "postcode": "0191817",
    "prefecture": "秋田県",
    "prefecture_kana": "アキタケン",
    "prefecture_code": 5,
    "city": "大仙市",
    "city_kana": "ダイセンシ",
    "town": "南外木直沢",
    "town_kana": "ナンガイキジキザワ",
    "street": null,
    "office_name": null,
    "office_name_kana": null
  },
  "1822": {
    "postcode": "0191822",
    "prefecture": "秋田県",
    "prefecture_kana": "アキタケン",
    "prefecture_code": 5,
    "city": "大仙市",
    "city_kana": "ダイセンシ",
    "town": "南外田屋村",
    "town_kana": "ナンガイタヤムラ",
    "street": null,
    "office_name": null,
    "office_name_kana": null
  },
  "1824": {
    "postcode": "0191824",
    "prefecture": "秋田県",
    "prefecture_kana": "アキタケン",
    "prefecture_code": 5,
    "city": "大仙市",
    "city_kana": "ダイセンシ",
    "town": "南外宮田",
    "town_kana": "ナンガイミヤタ",
    "street": null,
    "office_name": null,
    "office_name_kana": null
  },
  "1825": {
    "postcode": "0191825",
    "prefecture": "秋田県",
    "prefecture_kana": "アキタケン",
    "prefecture_code": 5,
    "city": "大仙市",
    "city_kana": "ダイセンシ",
    "town": "南外坊田",
    "town_kana": "ナンガイボウダ",
    "street": null,
    "office_name": null,
    "office_name_kana": null
  },
  "1826": {
    "postcode": "0191826",
    "prefecture": "秋田県",
    "prefecture_kana": "アキタケン",
    "prefecture_code": 5,
    "city": "大仙市",
    "city_kana": "ダイセンシ",
    "town": "南外田中田",
    "town_kana": "ナンガイタナカタ",
    "street": null,
    "office_name": null,
    "office_name_kana": null
  },
  "1827": {
    "postcode": "0191827",
    "prefecture": "秋田県",
    "prefecture_kana": "アキタケン",
    "prefecture_code": 5,
    "city": "大仙市",
    "city_kana": "ダイセンシ",
    "town": "南外田中田山根",
    "town_kana": "ナンガイタナカタヤマネ",
    "street": null,
    "office_name": null,
    "office_name_kana": null
  },
  "1831": {
    "postcode": "0191831",
    "prefecture": "秋田県",
    "prefecture_kana": "アキタケン",
    "prefecture_code": 5,
    "city": "大仙市",
    "city_kana": "ダイセンシ",
    "town": "南外壇ノ平山",
    "town_kana": "ナンガイダンノヒラヤマ",
    "street": null,
    "office_name": null,
    "office_name_kana": null
  },
  "1832": {
    "postcode": "0191832",
    "prefecture": "秋田県",
    "prefecture_kana": "アキタケン",
    "prefecture_code": 5,
    "city": "大仙市",
    "city_kana": "ダイセンシ",
    "town": "南外北田山田ケ沢",
    "town_kana": "ナンガイキタダヤマダガサワ",
    "street": null,
    "office_name": null,
    "office_name_kana": null
  },
  "1834": [
    {
      "postcode": "0191834",
      "prefecture": "秋田県",
      "prefecture_kana": "アキタケン",
      "prefecture_code": 5,
      "city": "大仙市",
      "city_kana": "ダイセンシ",
      "town": "南外揚土山",
      "town_kana": "ナンガイアゲツチヤマ",
      "street": null,
      "office_name": null,
      "office_name_kana": null
    },
    {
      "postcode": "0191834",
      "prefecture": "秋田県",
      "prefecture_kana": "アキタケン",
      "prefecture_code": 5,
      "city": "大仙市",
      "city_kana": "ダイセンシ",
      "town": "南外北田黒瀬",
      "town_kana": "ナンガイキタダクロセ",
      "street": null,
      "office_name": null,
      "office_name_kana": null
    }
  ],
  "1835": {
    "postcode": "0191835",
    "prefecture": "秋田県",
    "prefecture_kana": "アキタケン",
    "prefecture_code": 5,
    "city": "大仙市",
    "city_kana": "ダイセンシ",
    "town": "南外揚土",
    "town_kana": "ナンガイアゲツチ",
    "street": null,
    "office_name": null,
    "office_name_kana": null
  },
  "1841": {
    "postcode": "0191841",
    "prefecture": "秋田県",
    "prefecture_kana": "アキタケン",
    "prefecture_code": 5,
    "city": "大仙市",
    "city_kana": "ダイセンシ",
    "town": "南外大杉山岸",
    "town_kana": "ナンガイオオスギヤマギシ",
    "street": null,
    "office_name": null,
    "office_name_kana": null
  },
  "1842": {
    "postcode": "0191842",
    "prefecture": "秋田県",
    "prefecture_kana": "アキタケン",
    "prefecture_code": 5,
    "city": "大仙市",
    "city_kana": "ダイセンシ",
    "town": "南外大杉",
    "town_kana": "ナンガイオオスギ",
    "street": null,
    "office_name": null,
    "office_name_kana": null
  },
  "1843": {
    "postcode": "0191843",
    "prefecture": "秋田県",
    "prefecture_kana": "アキタケン",
    "prefecture_code": 5,
    "city": "大仙市",
    "city_kana": "ダイセンシ",
    "town": "南外大杉二タ又杉",
    "town_kana": "ナンガイオオスギフタマタスギ",
    "street": null,
    "office_name": null,
    "office_name_kana": null
  },
  "1846": {
    "postcode": "0191846",
    "prefecture": "秋田県",
    "prefecture_kana": "アキタケン",
    "prefecture_code": 5,
    "city": "大仙市",
    "city_kana": "ダイセンシ",
    "town": "南外梨木田",
    "town_kana": "ナンガイナシキダ",
    "street": null,
    "office_name": null,
    "office_name_kana": null
  },
  "1847": {
    "postcode": "0191847",
    "prefecture": "秋田県",
    "prefecture_kana": "アキタケン",
    "prefecture_code": 5,
    "city": "大仙市",
    "city_kana": "ダイセンシ",
    "town": "南外小出",
    "town_kana": "ナンガイコイデ",
    "street": null,
    "office_name": null,
    "office_name_kana": null
  },
  "1848": {
    "postcode": "0191848",
    "prefecture": "秋田県",
    "prefecture_kana": "アキタケン",
    "prefecture_code": 5,
    "city": "大仙市",
    "city_kana": "ダイセンシ",
    "town": "南外鞦田",
    "town_kana": "ナンガイシリガイダ",
    "street": null,
    "office_name": null,
    "office_name_kana": null
  },
  "1851": {
    "postcode": "0191851",
    "prefecture": "秋田県",
    "prefecture_kana": "アキタケン",
    "prefecture_code": 5,
    "city": "大仙市",
    "city_kana": "ダイセンシ",
    "town": "南外山王台",
    "town_kana": "ナンガイサンオウダイ",
    "street": null,
    "office_name": null,
    "office_name_kana": null
  },
  "1852": {
    "postcode": "0191852",
    "prefecture": "秋田県",
    "prefecture_kana": "アキタケン",
    "prefecture_code": 5,
    "city": "大仙市",
    "city_kana": "ダイセンシ",
    "town": "南外太田",
    "town_kana": "ナンガイオオタ",
    "street": null,
    "office_name": null,
    "office_name_kana": null
  },
  "1853": {
    "postcode": "0191853",
    "prefecture": "秋田県",
    "prefecture_kana": "アキタケン",
    "prefecture_code": 5,
    "city": "大仙市",
    "city_kana": "ダイセンシ",
    "town": "南外坊田黒沢",
    "town_kana": "ナンガイボウダクロサワ",
    "street": null,
    "office_name": null,
    "office_name_kana": null
  },
  "1855": {
    "postcode": "0191855",
    "prefecture": "秋田県",
    "prefecture_kana": "アキタケン",
    "prefecture_code": 5,
    "city": "大仙市",
    "city_kana": "ダイセンシ",
    "town": "南外大畑",
    "town_kana": "ナンガイオオバタ",
    "street": null,
    "office_name": null,
    "office_name_kana": null
  },
  "1856": {
    "postcode": "0191856",
    "prefecture": "秋田県",
    "prefecture_kana": "アキタケン",
    "prefecture_code": 5,
    "city": "大仙市",
    "city_kana": "ダイセンシ",
    "town": "南外大畑深山",
    "town_kana": "ナンガイオオバタミヤマ",
    "street": null,
    "office_name": null,
    "office_name_kana": null
  },
  "1857": {
    "postcode": "0191857",
    "prefecture": "秋田県",
    "prefecture_kana": "アキタケン",
    "prefecture_code": 5,
    "city": "大仙市",
    "city_kana": "ダイセンシ",
    "town": "南外大畑潜沢",
    "town_kana": "ナンガイオオバタクグリサワ",
    "street": null,
    "office_name": null,
    "office_name_kana": null
  },
  "1858": {
    "postcode": "0191858",
    "prefecture": "秋田県",
    "prefecture_kana": "アキタケン",
    "prefecture_code": 5,
    "city": "大仙市",
    "city_kana": "ダイセンシ",
    "town": "南外赤平六郎沢",
    "town_kana": "ナンガイアカヒラロクロウサワ",
    "street": null,
    "office_name": null,
    "office_name_kana": null
  },
  "1861": {
    "postcode": "0191861",
    "prefecture": "秋田県",
    "prefecture_kana": "アキタケン",
    "prefecture_code": 5,
    "city": "大仙市",
    "city_kana": "ダイセンシ",
    "town": "南外寺沢",
    "town_kana": "ナンガイテラサワ",
    "street": null,
    "office_name": null,
    "office_name_kana": null
  },
  "1862": {
    "postcode": "0191862",
    "prefecture": "秋田県",
    "prefecture_kana": "アキタケン",
    "prefecture_code": 5,
    "city": "大仙市",
    "city_kana": "ダイセンシ",
    "town": "南外和合",
    "town_kana": "ナンガイワゴウ",
    "street": null,
    "office_name": null,
    "office_name_kana": null
  },
  "1863": {
    "postcode": "0191863",
    "prefecture": "秋田県",
    "prefecture_kana": "アキタケン",
    "prefecture_code": 5,
    "city": "大仙市",
    "city_kana": "ダイセンシ",
    "town": "南外赤平貝沼",
    "town_kana": "ナンガイアカヒラカイヌマ",
    "street": null,
    "office_name": null,
    "office_name_kana": null
  },
  "1864": {
    "postcode": "0191864",
    "prefecture": "秋田県",
    "prefecture_kana": "アキタケン",
    "prefecture_code": 5,
    "city": "大仙市",
    "city_kana": "ダイセンシ",
    "town": "南外赤平大道東",
    "town_kana": "ナンガイアカヒラダイドウヒガシ",
    "street": null,
    "office_name": null,
    "office_name_kana": null
  },
  "1865": {
    "postcode": "0191865",
    "prefecture": "秋田県",
    "prefecture_kana": "アキタケン",
    "prefecture_code": 5,
    "city": "大仙市",
    "city_kana": "ダイセンシ",
    "town": "南外赤平後野",
    "town_kana": "ナンガイアカヒラウシロノ",
    "street": null,
    "office_name": null,
    "office_name_kana": null
  },
  "1866": {
    "postcode": "0191866",
    "prefecture": "秋田県",
    "prefecture_kana": "アキタケン",
    "prefecture_code": 5,
    "city": "大仙市",
    "city_kana": "ダイセンシ",
    "town": "南外赤平台野",
    "town_kana": "ナンガイアカヒラダイノ",
    "street": null,
    "office_name": null,
    "office_name_kana": null
  },
  "1868": {
    "postcode": "0191868",
    "prefecture": "秋田県",
    "prefecture_kana": "アキタケン",
    "prefecture_code": 5,
    "city": "大仙市",
    "city_kana": "ダイセンシ",
    "town": "南外赤平平家",
    "town_kana": "ナンガイアカヒラヘイケ",
    "street": null,
    "office_name": null,
    "office_name_kana": null
  },
  "1871": {
    "postcode": "0191871",
    "prefecture": "秋田県",
    "prefecture_kana": "アキタケン",
    "prefecture_code": 5,
    "city": "大仙市",
    "city_kana": "ダイセンシ",
    "town": "南外谷地田",
    "town_kana": "ナンガイヤチダ",
    "street": null,
    "office_name": null,
    "office_name_kana": null
  },
  "1872": {
    "postcode": "0191872",
    "prefecture": "秋田県",
    "prefecture_kana": "アキタケン",
    "prefecture_code": 5,
    "city": "大仙市",
    "city_kana": "ダイセンシ",
    "town": "南外上中宿",
    "town_kana": "ナンガイカミナカシュク",
    "street": null,
    "office_name": null,
    "office_name_kana": null
  },
  "1873": {
    "postcode": "0191873",
    "prefecture": "秋田県",
    "prefecture_kana": "アキタケン",
    "prefecture_code": 5,
    "city": "大仙市",
    "city_kana": "ダイセンシ",
    "town": "南外田中",
    "town_kana": "ナンガイタナカ",
    "street": null,
    "office_name": null,
    "office_name_kana": null
  },
  "1874": {
    "postcode": "0191874",
    "prefecture": "秋田県",
    "prefecture_kana": "アキタケン",
    "prefecture_code": 5,
    "city": "大仙市",
    "city_kana": "ダイセンシ",
    "town": "南外中宿",
    "town_kana": "ナンガイナカシュク",
    "street": null,
    "office_name": null,
    "office_name_kana": null
  },
  "1875": {
    "postcode": "0191875",
    "prefecture": "秋田県",
    "prefecture_kana": "アキタケン",
    "prefecture_code": 5,
    "city": "大仙市",
    "city_kana": "ダイセンシ",
    "town": "南外落合",
    "town_kana": "ナンガイオチアイ",
    "street": null,
    "office_name": null,
    "office_name_kana": null
  },
  "1876": {
    "postcode": "0191876",
    "prefecture": "秋田県",
    "prefecture_kana": "アキタケン",
    "prefecture_code": 5,
    "city": "大仙市",
    "city_kana": "ダイセンシ",
    "town": "南外新屋布",
    "town_kana": "ナンガイアラヤシキ",
    "street": null,
    "office_name": null,
    "office_name_kana": null
  },
  "1877": {
    "postcode": "0191877",
    "prefecture": "秋田県",
    "prefecture_kana": "アキタケン",
    "prefecture_code": 5,
    "city": "大仙市",
    "city_kana": "ダイセンシ",
    "town": "南外水沢",
    "town_kana": "ナンガイミズサワ",
    "street": null,
    "office_name": null,
    "office_name_kana": null
  },
  "1878": {
    "postcode": "0191878",
    "prefecture": "秋田県",
    "prefecture_kana": "アキタケン",
    "prefecture_code": 5,
    "city": "大仙市",
    "city_kana": "ダイセンシ",
    "town": "南外及位",
    "town_kana": "ナンガイノゾキ",
    "street": null,
    "office_name": null,
    "office_name_kana": null
  },
  "1881": {
    "postcode": "0191881",
    "prefecture": "秋田県",
    "prefecture_kana": "アキタケン",
    "prefecture_code": 5,
    "city": "大仙市",
    "city_kana": "ダイセンシ",
    "town": "南外葎沢",
    "town_kana": "ナンガイムグラサワ",
    "street": null,
    "office_name": null,
    "office_name_kana": null
  },
  "1882": {
    "postcode": "0191882",
    "prefecture": "秋田県",
    "prefecture_kana": "アキタケン",
    "prefecture_code": 5,
    "city": "大仙市",
    "city_kana": "ダイセンシ",
    "town": "南外大和野",
    "town_kana": "ナンガイオオワノ",
    "street": null,
    "office_name": null,
    "office_name_kana": null
  },
  "1883": {
    "postcode": "0191883",
    "prefecture": "秋田県",
    "prefecture_kana": "アキタケン",
    "prefecture_code": 5,
    "city": "大仙市",
    "city_kana": "ダイセンシ",
    "town": "南外平沢",
    "town_kana": "ナンガイヒラサワ",
    "street": null,
    "office_name": null,
    "office_name_kana": null
  },
  "1884": {
    "postcode": "0191884",
    "prefecture": "秋田県",
    "prefecture_kana": "アキタケン",
    "prefecture_code": 5,
    "city": "大仙市",
    "city_kana": "ダイセンシ",
    "town": "南外林ノ沢",
    "town_kana": "ナンガイハヤシノサワ",
    "street": null,
    "office_name": null,
    "office_name_kana": null
  },
  "1885": {
    "postcode": "0191885",
    "prefecture": "秋田県",
    "prefecture_kana": "アキタケン",
    "prefecture_code": 5,
    "city": "大仙市",
    "city_kana": "ダイセンシ",
    "town": "南外無尻橋",
    "town_kana": "ナンガイムジリバシ",
    "street": null,
    "office_name": null,
    "office_name_kana": null
  },
  "1886": {
    "postcode": "0191886",
    "prefecture": "秋田県",
    "prefecture_kana": "アキタケン",
    "prefecture_code": 5,
    "city": "大仙市",
    "city_kana": "ダイセンシ",
    "town": "南外西ノ又",
    "town_kana": "ナンガイニシノマタ",
    "street": null,
    "office_name": null,
    "office_name_kana": null
  },
  "1887": {
    "postcode": "0191887",
    "prefecture": "秋田県",
    "prefecture_kana": "アキタケン",
    "prefecture_code": 5,
    "city": "大仙市",
    "city_kana": "ダイセンシ",
    "town": "南外中渡",
    "town_kana": "ナンガイナカワタリ",
    "street": null,
    "office_name": null,
    "office_name_kana": null
  },
  "1888": {
    "postcode": "0191888",
    "prefecture": "秋田県",
    "prefecture_kana": "アキタケン",
    "prefecture_code": 5,
    "city": "大仙市",
    "city_kana": "ダイセンシ",
    "town": "南外土場",
    "town_kana": "ナンガイドバ",
    "street": null,
    "office_name": null,
    "office_name_kana": null
  },
  "1901": {
    "postcode": "0191901",
    "prefecture": "秋田県",
    "prefecture_kana": "アキタケン",
    "prefecture_code": 5,
    "city": "大仙市",
    "city_kana": "ダイセンシ",
    "town": "南外悪戸野",
    "town_kana": "ナンガイアクトノ",
    "street": null,
    "office_name": null,
    "office_name_kana": null
  },
  "1902": {
    "postcode": "0191902",
    "prefecture": "秋田県",
    "prefecture_kana": "アキタケン",
    "prefecture_code": 5,
    "city": "大仙市",
    "city_kana": "ダイセンシ",
    "town": "南外下袋",
    "town_kana": "ナンガイシモブクロ",
    "street": null,
    "office_name": null,
    "office_name_kana": null
  },
  "1903": {
    "postcode": "0191903",
    "prefecture": "秋田県",
    "prefecture_kana": "アキタケン",
    "prefecture_code": 5,
    "city": "大仙市",
    "city_kana": "ダイセンシ",
    "town": "南外下鎌田",
    "town_kana": "ナンガイシモカマタ",
    "street": null,
    "office_name": null,
    "office_name_kana": null
  },
  "1904": {
    "postcode": "0191904",
    "prefecture": "秋田県",
    "prefecture_kana": "アキタケン",
    "prefecture_code": 5,
    "city": "大仙市",
    "city_kana": "ダイセンシ",
    "town": "南外中袋",
    "town_kana": "ナンガイナカブクロ",
    "street": null,
    "office_name": null,
    "office_name_kana": null
  },
  "1905": {
    "postcode": "0191905",
    "prefecture": "秋田県",
    "prefecture_kana": "アキタケン",
    "prefecture_code": 5,
    "city": "大仙市",
    "city_kana": "ダイセンシ",
    "town": "南外大向",
    "town_kana": "ナンガイオオムカイ",
    "street": null,
    "office_name": null,
    "office_name_kana": null
  },
  "1906": {
    "postcode": "0191906",
    "prefecture": "秋田県",
    "prefecture_kana": "アキタケン",
    "prefecture_code": 5,
    "city": "大仙市",
    "city_kana": "ダイセンシ",
    "town": "南外金屋",
    "town_kana": "ナンガイカナヤ",
    "street": null,
    "office_name": null,
    "office_name_kana": null
  },
  "1907": {
    "postcode": "0191907",
    "prefecture": "秋田県",
    "prefecture_kana": "アキタケン",
    "prefecture_code": 5,
    "city": "大仙市",
    "city_kana": "ダイセンシ",
    "town": "南外上鎌田",
    "town_kana": "ナンガイカミカマタ",
    "street": null,
    "office_name": null,
    "office_name_kana": null
  },
  "1908": {
    "postcode": "0191908",
    "prefecture": "秋田県",
    "prefecture_kana": "アキタケン",
    "prefecture_code": 5,
    "city": "大仙市",
    "city_kana": "ダイセンシ",
    "town": "南外上野",
    "town_kana": "ナンガイウエノ",
    "street": null,
    "office_name": null,
    "office_name_kana": null
  },
  "1909": {
    "postcode": "0191909",
    "prefecture": "秋田県",
    "prefecture_kana": "アキタケン",
    "prefecture_code": 5,
    "city": "大仙市",
    "city_kana": "ダイセンシ",
    "town": "南外杉橋",
    "town_kana": "ナンガイスギハシ",
    "street": null,
    "office_name": null,
    "office_name_kana": null
  },
  "1911": {
    "postcode": "0191911",
    "prefecture": "秋田県",
    "prefecture_kana": "アキタケン",
    "prefecture_code": 5,
    "city": "大仙市",
    "city_kana": "ダイセンシ",
    "town": "南外坊村",
    "town_kana": "ナンガイボウムラ",
    "street": null,
    "office_name": null,
    "office_name_kana": null
  },
  "1912": {
    "postcode": "0191912",
    "prefecture": "秋田県",
    "prefecture_kana": "アキタケン",
    "prefecture_code": 5,
    "city": "大仙市",
    "city_kana": "ダイセンシ",
    "town": "南外丸木橋",
    "town_kana": "ナンガイマルキバシ",
    "street": null,
    "office_name": null,
    "office_name_kana": null
  },
  "1913": {
    "postcode": "0191913",
    "prefecture": "秋田県",
    "prefecture_kana": "アキタケン",
    "prefecture_code": 5,
    "city": "大仙市",
    "city_kana": "ダイセンシ",
    "town": "南外湯神台",
    "town_kana": "ナンガイユガミダイ",
    "street": null,
    "office_name": null,
    "office_name_kana": null
  },
  "1914": {
    "postcode": "0191914",
    "prefecture": "秋田県",
    "prefecture_kana": "アキタケン",
    "prefecture_code": 5,
    "city": "大仙市",
    "city_kana": "ダイセンシ",
    "town": "南外湯ノ又",
    "town_kana": "ナンガイユノマタ",
    "street": null,
    "office_name": null,
    "office_name_kana": null
  },
  "1915": {
    "postcode": "0191915",
    "prefecture": "秋田県",
    "prefecture_kana": "アキタケン",
    "prefecture_code": 5,
    "city": "大仙市",
    "city_kana": "ダイセンシ",
    "town": "南外下湯ノ又",
    "town_kana": "ナンガイシモユノマタ",
    "street": null,
    "office_name": null,
    "office_name_kana": null
  },
  "1916": {
    "postcode": "0191916",
    "prefecture": "秋田県",
    "prefecture_kana": "アキタケン",
    "prefecture_code": 5,
    "city": "大仙市",
    "city_kana": "ダイセンシ",
    "town": "南外石仏",
    "town_kana": "ナンガイイシボトケ",
    "street": null,
    "office_name": null,
    "office_name_kana": null
  },
  "1917": {
    "postcode": "0191917",
    "prefecture": "秋田県",
    "prefecture_kana": "アキタケン",
    "prefecture_code": 5,
    "city": "大仙市",
    "city_kana": "ダイセンシ",
    "town": "南外薬師堂",
    "town_kana": "ナンガイヤクシドウ",
    "street": null,
    "office_name": null,
    "office_name_kana": null
  },
  "1918": {
    "postcode": "0191918",
    "prefecture": "秋田県",
    "prefecture_kana": "アキタケン",
    "prefecture_code": 5,
    "city": "大仙市",
    "city_kana": "ダイセンシ",
    "town": "南外広表",
    "town_kana": "ナンガイヒロオモテ",
    "street": null,
    "office_name": null,
    "office_name_kana": null
  },
  "1921": {
    "postcode": "0191921",
    "prefecture": "秋田県",
    "prefecture_kana": "アキタケン",
    "prefecture_code": 5,
    "city": "大仙市",
    "city_kana": "ダイセンシ",
    "town": "南外中野",
    "town_kana": "ナンガイナカノ",
    "street": null,
    "office_name": null,
    "office_name_kana": null
  },
  "1922": {
    "postcode": "0191922",
    "prefecture": "秋田県",
    "prefecture_kana": "アキタケン",
    "prefecture_code": 5,
    "city": "大仙市",
    "city_kana": "ダイセンシ",
    "town": "南外上中野",
    "town_kana": "ナンガイカミナカノ",
    "street": null,
    "office_name": null,
    "office_name_kana": null
  },
  "1923": {
    "postcode": "0191923",
    "prefecture": "秋田県",
    "prefecture_kana": "アキタケン",
    "prefecture_code": 5,
    "city": "大仙市",
    "city_kana": "ダイセンシ",
    "town": "南外巣ノ沢",
    "town_kana": "ナンガイスノサワ",
    "street": null,
    "office_name": null,
    "office_name_kana": null
  },
  "1924": {
    "postcode": "0191924",
    "prefecture": "秋田県",
    "prefecture_kana": "アキタケン",
    "prefecture_code": 5,
    "city": "大仙市",
    "city_kana": "ダイセンシ",
    "town": "南外巣ノ沢石切場",
    "town_kana": "ナンガイスノサワイシキリバ",
    "street": null,
    "office_name": null,
    "office_name_kana": null
  },
  "1925": {
    "postcode": "0191925",
    "prefecture": "秋田県",
    "prefecture_kana": "アキタケン",
    "prefecture_code": 5,
    "city": "大仙市",
    "city_kana": "ダイセンシ",
    "town": "南外上巣ノ沢",
    "town_kana": "ナンガイカミスノサワ",
    "street": null,
    "office_name": null,
    "office_name_kana": null
  },
  "1926": {
    "postcode": "0191926",
    "prefecture": "秋田県",
    "prefecture_kana": "アキタケン",
    "prefecture_code": 5,
    "city": "大仙市",
    "city_kana": "ダイセンシ",
    "town": "南外上桑台",
    "town_kana": "ナンガイカミクワダイ",
    "street": null,
    "office_name": null,
    "office_name_kana": null
  },
  "1927": {
    "postcode": "0191927",
    "prefecture": "秋田県",
    "prefecture_kana": "アキタケン",
    "prefecture_code": 5,
    "city": "大仙市",
    "city_kana": "ダイセンシ",
    "town": "南外中桑台",
    "town_kana": "ナンガイナカクワダイ",
    "street": null,
    "office_name": null,
    "office_name_kana": null
  },
  "1928": {
    "postcode": "0191928",
    "prefecture": "秋田県",
    "prefecture_kana": "アキタケン",
    "prefecture_code": 5,
    "city": "大仙市",
    "city_kana": "ダイセンシ",
    "town": "南外滝中田表",
    "town_kana": "ナンガイタキナカタオモテ",
    "street": null,
    "office_name": null,
    "office_name_kana": null
  },
  "1929": {
    "postcode": "0191929",
    "prefecture": "秋田県",
    "prefecture_kana": "アキタケン",
    "prefecture_code": 5,
    "city": "大仙市",
    "city_kana": "ダイセンシ",
    "town": "南外中野山",
    "town_kana": "ナンガイナカノヤマ",
    "street": null,
    "office_name": null,
    "office_name_kana": null
  },
  "1931": {
    "postcode": "0191931",
    "prefecture": "秋田県",
    "prefecture_kana": "アキタケン",
    "prefecture_code": 5,
    "city": "大仙市",
    "city_kana": "ダイセンシ",
    "town": "南外下滝",
    "town_kana": "ナンガイシモタキ",
    "street": null,
    "office_name": null,
    "office_name_kana": null
  },
  "1932": {
    "postcode": "0191932",
    "prefecture": "秋田県",
    "prefecture_kana": "アキタケン",
    "prefecture_code": 5,
    "city": "大仙市",
    "city_kana": "ダイセンシ",
    "town": "南外大黒森",
    "town_kana": "ナンガイオオクロモリ",
    "street": null,
    "office_name": null,
    "office_name_kana": null
  },
  "1933": {
    "postcode": "0191933",
    "prefecture": "秋田県",
    "prefecture_kana": "アキタケン",
    "prefecture_code": 5,
    "city": "大仙市",
    "city_kana": "ダイセンシ",
    "town": "南外滝ノ沢",
    "town_kana": "ナンガイタキノサワ",
    "street": null,
    "office_name": null,
    "office_name_kana": null
  },
  "1934": {
    "postcode": "0191934",
    "prefecture": "秋田県",
    "prefecture_kana": "アキタケン",
    "prefecture_code": 5,
    "city": "大仙市",
    "city_kana": "ダイセンシ",
    "town": "南外田尻",
    "town_kana": "ナンガイタジリ",
    "street": null,
    "office_name": null,
    "office_name_kana": null
  },
  "1935": {
    "postcode": "0191935",
    "prefecture": "秋田県",
    "prefecture_kana": "アキタケン",
    "prefecture_code": 5,
    "city": "大仙市",
    "city_kana": "ダイセンシ",
    "town": "南外大平",
    "town_kana": "ナンガイオオヒラ",
    "street": null,
    "office_name": null,
    "office_name_kana": null
  },
  "1936": {
    "postcode": "0191936",
    "prefecture": "秋田県",
    "prefecture_kana": "アキタケン",
    "prefecture_code": 5,
    "city": "大仙市",
    "city_kana": "ダイセンシ",
    "town": "南外中荒沢",
    "town_kana": "ナンガイナカアラサワ",
    "street": null,
    "office_name": null,
    "office_name_kana": null
  },
  "1937": {
    "postcode": "0191937",
    "prefecture": "秋田県",
    "prefecture_kana": "アキタケン",
    "prefecture_code": 5,
    "city": "大仙市",
    "city_kana": "ダイセンシ",
    "town": "南外小荒沢",
    "town_kana": "ナンガイコアラサワ",
    "street": null,
    "office_name": null,
    "office_name_kana": null
  },
  "1938": {
    "postcode": "0191938",
    "prefecture": "秋田県",
    "prefecture_kana": "アキタケン",
    "prefecture_code": 5,
    "city": "大仙市",
    "city_kana": "ダイセンシ",
    "town": "南外下荒沢",
    "town_kana": "ナンガイシモアラサワ",
    "street": null,
    "office_name": null,
    "office_name_kana": null
  },
  "1939": {
    "postcode": "0191939",
    "prefecture": "秋田県",
    "prefecture_kana": "アキタケン",
    "prefecture_code": 5,
    "city": "大仙市",
    "city_kana": "ダイセンシ",
    "town": "南外水上沢",
    "town_kana": "ナンガイミズカミザワ",
    "street": null,
    "office_name": null,
    "office_name_kana": null
  },
  "1941": {
    "postcode": "0191941",
    "prefecture": "秋田県",
    "prefecture_kana": "アキタケン",
    "prefecture_code": 5,
    "city": "大仙市",
    "city_kana": "ダイセンシ",
    "town": "南外松木田",
    "town_kana": "ナンガイマツキダ",
    "street": null,
    "office_name": null,
    "office_name_kana": null
  },
  "1942": {
    "postcode": "0191942",
    "prefecture": "秋田県",
    "prefecture_kana": "アキタケン",
    "prefecture_code": 5,
    "city": "大仙市",
    "city_kana": "ダイセンシ",
    "town": "南外岩倉",
    "town_kana": "ナンガイイワクラ",
    "street": null,
    "office_name": null,
    "office_name_kana": null
  },
  "1943": {
    "postcode": "0191943",
    "prefecture": "秋田県",
    "prefecture_kana": "アキタケン",
    "prefecture_code": 5,
    "city": "大仙市",
    "city_kana": "ダイセンシ",
    "town": "南外一ト刎",
    "town_kana": "ナンガイヒトハネ",
    "street": null,
    "office_name": null,
    "office_name_kana": null
  },
  "1944": {
    "postcode": "0191944",
    "prefecture": "秋田県",
    "prefecture_kana": "アキタケン",
    "prefecture_code": 5,
    "city": "大仙市",
    "city_kana": "ダイセンシ",
    "town": "南外湯元",
    "town_kana": "ナンガイユモト",
    "street": null,
    "office_name": null,
    "office_name_kana": null
  },
  "1945": {
    "postcode": "0191945",
    "prefecture": "秋田県",
    "prefecture_kana": "アキタケン",
    "prefecture_code": 5,
    "city": "大仙市",
    "city_kana": "ダイセンシ",
    "town": "南外岩瀬",
    "town_kana": "ナンガイイワセ",
    "street": null,
    "office_name": null,
    "office_name_kana": null
  },
  "1946": {
    "postcode": "0191946",
    "prefecture": "秋田県",
    "prefecture_kana": "アキタケン",
    "prefecture_code": 5,
    "city": "大仙市",
    "city_kana": "ダイセンシ",
    "town": "南外十二ノ前",
    "town_kana": "ナンガイジュウニノマエ",
    "street": null,
    "office_name": null,
    "office_name_kana": null
  },
  "1947": {
    "postcode": "0191947",
    "prefecture": "秋田県",
    "prefecture_kana": "アキタケン",
    "prefecture_code": 5,
    "city": "大仙市",
    "city_kana": "ダイセンシ",
    "town": "南外下釜坂",
    "town_kana": "ナンガイシモカマサカ",
    "street": null,
    "office_name": null,
    "office_name_kana": null
  },
  "1948": {
    "postcode": "0191948",
    "prefecture": "秋田県",
    "prefecture_kana": "アキタケン",
    "prefecture_code": 5,
    "city": "大仙市",
    "city_kana": "ダイセンシ",
    "town": "南外上釜坂",
    "town_kana": "ナンガイカミカマサカ",
    "street": null,
    "office_name": null,
    "office_name_kana": null
  },
  "1949": {
    "postcode": "0191949",
    "prefecture": "秋田県",
    "prefecture_kana": "アキタケン",
    "prefecture_code": 5,
    "city": "大仙市",
    "city_kana": "ダイセンシ",
    "town": "南外赤畑",
    "town_kana": "ナンガイアカハタ",
    "street": null,
    "office_name": null,
    "office_name_kana": null
  },
  "1951": {
    "postcode": "0191951",
    "prefecture": "秋田県",
    "prefecture_kana": "アキタケン",
    "prefecture_code": 5,
    "city": "大仙市",
    "city_kana": "ダイセンシ",
    "town": "南外黒滝",
    "town_kana": "ナンガイクロタキ",
    "street": null,
    "office_name": null,
    "office_name_kana": null
  },
  "1952": {
    "postcode": "0191952",
    "prefecture": "秋田県",
    "prefecture_kana": "アキタケン",
    "prefecture_code": 5,
    "city": "大仙市",
    "city_kana": "ダイセンシ",
    "town": "南外下荒又",
    "town_kana": "ナンガイシモアラマタ",
    "street": null,
    "office_name": null,
    "office_name_kana": null
  },
  "1953": {
    "postcode": "0191953",
    "prefecture": "秋田県",
    "prefecture_kana": "アキタケン",
    "prefecture_code": 5,
    "city": "大仙市",
    "city_kana": "ダイセンシ",
    "town": "南外外小友",
    "town_kana": "ナンガイソトオトモ",
    "street": null,
    "office_name": null,
    "office_name_kana": null
  },
  "1954": {
    "postcode": "0191954",
    "prefecture": "秋田県",
    "prefecture_kana": "アキタケン",
    "prefecture_code": 5,
    "city": "大仙市",
    "city_kana": "ダイセンシ",
    "town": "南外中荒又",
    "town_kana": "ナンガイナカアラマタ",
    "street": null,
    "office_name": null,
    "office_name_kana": null
  },
  "1955": {
    "postcode": "0191955",
    "prefecture": "秋田県",
    "prefecture_kana": "アキタケン",
    "prefecture_code": 5,
    "city": "大仙市",
    "city_kana": "ダイセンシ",
    "town": "南外外山",
    "town_kana": "ナンガイソトヤマ",
    "street": null,
    "office_name": null,
    "office_name_kana": null
  },
  "1956": {
    "postcode": "0191956",
    "prefecture": "秋田県",
    "prefecture_kana": "アキタケン",
    "prefecture_code": 5,
    "city": "大仙市",
    "city_kana": "ダイセンシ",
    "town": "南外上荒又",
    "town_kana": "ナンガイカミアラマタ",
    "street": null,
    "office_name": null,
    "office_name_kana": null
  },
  "1957": {
    "postcode": "0191957",
    "prefecture": "秋田県",
    "prefecture_kana": "アキタケン",
    "prefecture_code": 5,
    "city": "大仙市",
    "city_kana": "ダイセンシ",
    "town": "南外小浪滝",
    "town_kana": "ナンガイザンザラ",
    "street": null,
    "office_name": null,
    "office_name_kana": null
  },
  "1958": {
    "postcode": "0191958",
    "prefecture": "秋田県",
    "prefecture_kana": "アキタケン",
    "prefecture_code": 5,
    "city": "大仙市",
    "city_kana": "ダイセンシ",
    "town": "南外向ノ沢",
    "town_kana": "ナンガイムカイノサワ",
    "street": null,
    "office_name": null,
    "office_name_kana": null
  },
  "1961": {
    "postcode": "0191961",
    "prefecture": "秋田県",
    "prefecture_kana": "アキタケン",
    "prefecture_code": 5,
    "city": "大仙市",
    "city_kana": "ダイセンシ",
    "town": "南外大柳",
    "town_kana": "ナンガイオオヤナギ",
    "street": null,
    "office_name": null,
    "office_name_kana": null
  },
  "1962": {
    "postcode": "0191962",
    "prefecture": "秋田県",
    "prefecture_kana": "アキタケン",
    "prefecture_code": 5,
    "city": "大仙市",
    "city_kana": "ダイセンシ",
    "town": "南外若林",
    "town_kana": "ナンガイワカバヤシ",
    "street": null,
    "office_name": null,
    "office_name_kana": null
  },
  "1963": {
    "postcode": "0191963",
    "prefecture": "秋田県",
    "prefecture_kana": "アキタケン",
    "prefecture_code": 5,
    "city": "大仙市",
    "city_kana": "ダイセンシ",
    "town": "南外西ノ又滝ノ沢",
    "town_kana": "ナンガイニシノマタタキノサワ",
    "street": null,
    "office_name": null,
    "office_name_kana": null
  },
  "2103": {
    "postcode": "0192103",
    "prefecture": "秋田県",
    "prefecture_kana": "アキタケン",
    "prefecture_code": 5,
    "city": "大仙市",
    "city_kana": "ダイセンシ",
    "town": "大沢郷寺",
    "town_kana": "オオサワゴウテラ",
    "street": null,
    "office_name": null,
    "office_name_kana": null
  },
  "2111": {
    "postcode": "0192111",
    "prefecture": "秋田県",
    "prefecture_kana": "アキタケン",
    "prefecture_code": 5,
    "city": "大仙市",
    "city_kana": "ダイセンシ",
    "town": "土川",
    "town_kana": "ツチカワ",
    "street": null,
    "office_name": null,
    "office_name_kana": null
  },
  "2112": {
    "postcode": "0192112",
    "prefecture": "秋田県",
    "prefecture_kana": "アキタケン",
    "prefecture_code": 5,
    "city": "大仙市",
    "city_kana": "ダイセンシ",
    "town": "刈和野",
    "town_kana": "カリワノ",
    "street": null,
    "office_name": null,
    "office_name_kana": null
  },
  "2121": {
    "postcode": "0192121",
    "prefecture": "秋田県",
    "prefecture_kana": "アキタケン",
    "prefecture_code": 5,
    "city": "大仙市",
    "city_kana": "ダイセンシ",
    "town": "北野目",
    "town_kana": "キタノメ",
    "street": null,
    "office_name": null,
    "office_name_kana": null
  },
  "2122": {
    "postcode": "0192122",
    "prefecture": "秋田県",
    "prefecture_kana": "アキタケン",
    "prefecture_code": 5,
    "city": "大仙市",
    "city_kana": "ダイセンシ",
    "town": "高城",
    "town_kana": "タカジョウ",
    "street": null,
    "office_name": null,
    "office_name_kana": null
  },
  "2123": {
    "postcode": "0192123",
    "prefecture": "秋田県",
    "prefecture_kana": "アキタケン",
    "prefecture_code": 5,
    "city": "大仙市",
    "city_kana": "ダイセンシ",
    "town": "寺館",
    "town_kana": "テラダテ",
    "street": null,
    "office_name": null,
    "office_name_kana": null
  },
  "2192": {
    "postcode": "0192192",
    "prefecture": "秋田県",
    "prefecture_kana": "アキタケン",
    "prefecture_code": 5,
    "city": "大仙市",
    "city_kana": "ダイセンシ",
    "town": "刈和野",
    "town_kana": "カリワノ",
    "street": "字本町５番地（刈和野郵便局私書箱第３号）",
    "office_name": "大仙市役所　西仙北総合支所",
    "office_name_kana": "ダイセンシヤクシヨ ニシセンボクソウゴウシシヨ"
  },
  "2201": {
    "postcode": "0192201",
    "prefecture": "秋田県",
    "prefecture_kana": "アキタケン",
    "prefecture_code": 5,
    "city": "大仙市",
    "city_kana": "ダイセンシ",
    "town": "円行寺",
    "town_kana": "エンギョウジ",
    "street": null,
    "office_name": null,
    "office_name_kana": null
  },
  "2202": {
    "postcode": "0192202",
    "prefecture": "秋田県",
    "prefecture_kana": "アキタケン",
    "prefecture_code": 5,
    "city": "大仙市",
    "city_kana": "ダイセンシ",
    "town": "大沢郷宿",
    "town_kana": "オオサワゴウシュク",
    "street": null,
    "office_name": null,
    "office_name_kana": null
  },
  "2204": {
    "postcode": "0192204",
    "prefecture": "秋田県",
    "prefecture_kana": "アキタケン",
    "prefecture_code": 5,
    "city": "大仙市",
    "city_kana": "ダイセンシ",
    "town": "正手沢",
    "town_kana": "ショウテザワ",
    "street": null,
    "office_name": null,
    "office_name_kana": null
  },
  "2205": {
    "postcode": "0192205",
    "prefecture": "秋田県",
    "prefecture_kana": "アキタケン",
    "prefecture_code": 5,
    "city": "大仙市",
    "city_kana": "ダイセンシ",
    "town": "杉山田",
    "town_kana": "スギヤマダ",
    "street": null,
    "office_name": null,
    "office_name_kana": null
  },
  "2331": {
    "postcode": "0192331",
    "prefecture": "秋田県",
    "prefecture_kana": "アキタケン",
    "prefecture_code": 5,
    "city": "大仙市",
    "city_kana": "ダイセンシ",
    "town": "大巻",
    "town_kana": "オオマキ",
    "street": null,
    "office_name": null,
    "office_name_kana": null
  },
  "2332": {
    "postcode": "0192332",
    "prefecture": "秋田県",
    "prefecture_kana": "アキタケン",
    "prefecture_code": 5,
    "city": "大仙市",
    "city_kana": "ダイセンシ",
    "town": "九升田",
    "town_kana": "クショウダ",
    "street": null,
    "office_name": null,
    "office_name_kana": null
  },
  "2333": {
    "postcode": "0192333",
    "prefecture": "秋田県",
    "prefecture_kana": "アキタケン",
    "prefecture_code": 5,
    "city": "大仙市",
    "city_kana": "ダイセンシ",
    "town": "金山沢",
    "town_kana": "カネヤマサワ",
    "street": null,
    "office_name": null,
    "office_name_kana": null
  },
  "2334": {
    "postcode": "0192334",
    "prefecture": "秋田県",
    "prefecture_kana": "アキタケン",
    "prefecture_code": 5,
    "city": "大仙市",
    "city_kana": "ダイセンシ",
    "town": "木原田",
    "town_kana": "キハラダ",
    "street": null,
    "office_name": null,
    "office_name_kana": null
  },
  "2335": {
    "postcode": "0192335",
    "prefecture": "秋田県",
    "prefecture_kana": "アキタケン",
    "prefecture_code": 5,
    "city": "大仙市",
    "city_kana": "ダイセンシ",
    "town": "強首",
    "town_kana": "コワクビ",
    "street": null,
    "office_name": null,
    "office_name_kana": null
  },
  "2401": {
    "postcode": "0192401",
    "prefecture": "秋田県",
    "prefecture_kana": "アキタケン",
    "prefecture_code": 5,
    "city": "大仙市",
    "city_kana": "ダイセンシ",
    "town": "協和船岡",
    "town_kana": "キョウワフナオカ",
    "street": null,
    "office_name": null,
    "office_name_kana": null
  },
  "2402": {
    "postcode": "0192402",
    "prefecture": "秋田県",
    "prefecture_kana": "アキタケン",
    "prefecture_code": 5,
    "city": "大仙市",
    "city_kana": "ダイセンシ",
    "town": "協和船沢",
    "town_kana": "キョウワフネサワ",
    "street": null,
    "office_name": null,
    "office_name_kana": null
  },
  "2411": {
    "postcode": "0192411",
    "prefecture": "秋田県",
    "prefecture_kana": "アキタケン",
    "prefecture_code": 5,
    "city": "大仙市",
    "city_kana": "ダイセンシ",
    "town": "協和境",
    "town_kana": "キョウワサカイ",
    "street": null,
    "office_name": null,
    "office_name_kana": null
  },
  "2412": {
    "postcode": "0192412",
    "prefecture": "秋田県",
    "prefecture_kana": "アキタケン",
    "prefecture_code": 5,
    "city": "大仙市",
    "city_kana": "ダイセンシ",
    "town": "協和荒川",
    "town_kana": "キョウワアラカワ",
    "street": null,
    "office_name": null,
    "office_name_kana": null
  },
  "2413": {
    "postcode": "0192413",
    "prefecture": "秋田県",
    "prefecture_kana": "アキタケン",
    "prefecture_code": 5,
    "city": "大仙市",
    "city_kana": "ダイセンシ",
    "town": "協和上淀川",
    "town_kana": "キョウワカミヨドカワ",
    "street": null,
    "office_name": null,
    "office_name_kana": null
  },
  "2431": {
    "postcode": "0192431",
    "prefecture": "秋田県",
    "prefecture_kana": "アキタケン",
    "prefecture_code": 5,
    "city": "大仙市",
    "city_kana": "ダイセンシ",
    "town": "協和峰吉川",
    "town_kana": "キョウワミネヨシカワ",
    "street": null,
    "office_name": null,
    "office_name_kana": null
  },
  "2441": {
    "postcode": "0192441",
    "prefecture": "秋田県",
    "prefecture_kana": "アキタケン",
    "prefecture_code": 5,
    "city": "大仙市",
    "city_kana": "ダイセンシ",
    "town": "協和小種",
    "town_kana": "キョウワコタネ",
    "street": null,
    "office_name": null,
    "office_name_kana": null
  },
  "2442": {
    "postcode": "0192442",
    "prefecture": "秋田県",
    "prefecture_kana": "アキタケン",
    "prefecture_code": 5,
    "city": "大仙市",
    "city_kana": "ダイセンシ",
    "town": "協和下淀川",
    "town_kana": "キョウワシモヨドカワ",
    "street": null,
    "office_name": null,
    "office_name_kana": null
  },
  "2443": {
    "postcode": "0192443",
    "prefecture": "秋田県",
    "prefecture_kana": "アキタケン",
    "prefecture_code": 5,
    "city": "大仙市",
    "city_kana": "ダイセンシ",
    "town": "協和中淀川",
    "town_kana": "キョウワナカヨドカワ",
    "street": null,
    "office_name": null,
    "office_name_kana": null
  },
  "2492": {
    "postcode": "0192492",
    "prefecture": "秋田県",
    "prefecture_kana": "アキタケン",
    "prefecture_code": 5,
    "city": "大仙市",
    "city_kana": "ダイセンシ",
    "town": "協和上淀川",
    "town_kana": "キョウワカミヨドカワ",
    "street": "字五百刈田３５２",
    "office_name": "秋田県立リハビリテーション・精神医療センター",
    "office_name_kana": "アキタケンリツリハビリテ-シヨン・セイシンイリヨウセンタ-"
  },
  "2521": {
    "postcode": "0192521",
    "prefecture": "秋田県",
    "prefecture_kana": "アキタケン",
    "prefecture_code": 5,
    "city": "大仙市",
    "city_kana": "ダイセンシ",
    "town": "協和稲沢",
    "town_kana": "キョウワイナザワ",
    "street": null,
    "office_name": null,
    "office_name_kana": null
  },
  "2601": {
    "postcode": "0192601",
    "prefecture": "秋田県",
    "prefecture_kana": "アキタケン",
    "prefecture_code": 5,
    "city": "秋田市",
    "city_kana": "アキタシ",
    "town": "河辺和田",
    "town_kana": "カワベワダ",
    "street": null,
    "office_name": null,
    "office_name_kana": null
  },
  "2611": {
    "postcode": "0192611",
    "prefecture": "秋田県",
    "prefecture_kana": "アキタケン",
    "prefecture_code": 5,
    "city": "秋田市",
    "city_kana": "アキタシ",
    "town": "河辺戸島",
    "town_kana": "カワベトシマ",
    "street": null,
    "office_name": null,
    "office_name_kana": null
  },
  "2612": {
    "postcode": "0192612",
    "prefecture": "秋田県",
    "prefecture_kana": "アキタケン",
    "prefecture_code": 5,
    "city": "秋田市",
    "city_kana": "アキタシ",
    "town": "河辺畑谷",
    "town_kana": "カワベハタヤ",
    "street": null,
    "office_name": null,
    "office_name_kana": null
  },
  "2613": {
    "postcode": "0192613",
    "prefecture": "秋田県",
    "prefecture_kana": "アキタケン",
    "prefecture_code": 5,
    "city": "秋田市",
    "city_kana": "アキタシ",
    "town": "河辺松渕",
    "town_kana": "カワベマツブチ",
    "street": null,
    "office_name": null,
    "office_name_kana": null
  },
  "2614": {
    "postcode": "0192614",
    "prefecture": "秋田県",
    "prefecture_kana": "アキタケン",
    "prefecture_code": 5,
    "city": "秋田市",
    "city_kana": "アキタシ",
    "town": "河辺豊成",
    "town_kana": "カワベトヨナリ",
    "street": null,
    "office_name": null,
    "office_name_kana": null
  },
  "2621": {
    "postcode": "0192621",
    "prefecture": "秋田県",
    "prefecture_kana": "アキタケン",
    "prefecture_code": 5,
    "city": "秋田市",
    "city_kana": "アキタシ",
    "town": "河辺諸井",
    "town_kana": "カワベモロイ",
    "street": null,
    "office_name": null,
    "office_name_kana": null
  },
  "2622": {
    "postcode": "0192622",
    "prefecture": "秋田県",
    "prefecture_kana": "アキタケン",
    "prefecture_code": 5,
    "city": "秋田市",
    "city_kana": "アキタシ",
    "town": "河辺高岡",
    "town_kana": "カワベタカオカ",
    "street": null,
    "office_name": null,
    "office_name_kana": null
  },
  "2623": {
    "postcode": "0192623",
    "prefecture": "秋田県",
    "prefecture_kana": "アキタケン",
    "prefecture_code": 5,
    "city": "秋田市",
    "city_kana": "アキタシ",
    "town": "河辺赤平",
    "town_kana": "カワベアカヒラ",
    "street": null,
    "office_name": null,
    "office_name_kana": null
  },
  "2624": {
    "postcode": "0192624",
    "prefecture": "秋田県",
    "prefecture_kana": "アキタケン",
    "prefecture_code": 5,
    "city": "秋田市",
    "city_kana": "アキタシ",
    "town": "河辺大沢",
    "town_kana": "カワベオオサワ",
    "street": null,
    "office_name": null,
    "office_name_kana": null
  },
  "2625": {
    "postcode": "0192625",
    "prefecture": "秋田県",
    "prefecture_kana": "アキタケン",
    "prefecture_code": 5,
    "city": "秋田市",
    "city_kana": "アキタシ",
    "town": "河辺北野田高屋",
    "town_kana": "カワベキタノダコウヤ",
    "street": null,
    "office_name": null,
    "office_name_kana": null
  },
  "2631": {
    "postcode": "0192631",
    "prefecture": "秋田県",
    "prefecture_kana": "アキタケン",
    "prefecture_code": 5,
    "city": "秋田市",
    "city_kana": "アキタシ",
    "town": "河辺神内",
    "town_kana": "カワベジンナイ",
    "street": null,
    "office_name": null,
    "office_name_kana": null
  },
  "2632": {
    "postcode": "0192632",
    "prefecture": "秋田県",
    "prefecture_kana": "アキタケン",
    "prefecture_code": 5,
    "city": "秋田市",
    "city_kana": "アキタシ",
    "town": "河辺大張野",
    "town_kana": "カワベオオバリノ",
    "street": null,
    "office_name": null,
    "office_name_kana": null
  },
  "2692": {
    "postcode": "0192692",
    "prefecture": "秋田県",
    "prefecture_kana": "アキタケン",
    "prefecture_code": 5,
    "city": "秋田市",
    "city_kana": "アキタシ",
    "town": "河辺和田",
    "town_kana": "カワベワダ",
    "street": "字北篠ヶ崎３８番地２",
    "office_name": "秋田市河辺市民センター",
    "office_name_kana": "アキタシカワベシミンセンタ-"
  },
  "2741": {
    "postcode": "0192741",
    "prefecture": "秋田県",
    "prefecture_kana": "アキタケン",
    "prefecture_code": 5,
    "city": "秋田市",
    "city_kana": "アキタシ",
    "town": "河辺岩見",
    "town_kana": "カワベイワミ",
    "street": null,
    "office_name": null,
    "office_name_kana": null
  },
  "2742": {
    "postcode": "0192742",
    "prefecture": "秋田県",
    "prefecture_kana": "アキタケン",
    "prefecture_code": 5,
    "city": "秋田市",
    "city_kana": "アキタシ",
    "town": "河辺三内",
    "town_kana": "カワベサンナイ",
    "street": null,
    "office_name": null,
    "office_name_kana": null
  }
}