{
  "0000": {
    "postcode": "0210000",
    "prefecture": "岩手県",
    "prefecture_kana": "イワテケン",
    "prefecture_code": 3,
    "city": "一関市",
    "city_kana": "イチノセキシ",
    "town": "",
    "town_kana": "",
    "street": null,
    "office_name": null,
    "office_name_kana": null
  },
  "0001": {
    "postcode": "0210001",
    "prefecture": "岩手県",
    "prefecture_kana": "イワテケン",
    "prefecture_code": 3,
    "city": "一関市",
    "city_kana": "イチノセキシ",
    "town": "新町",
    "town_kana": "シンマチ",
    "street": null,
    "office_name": null,
    "office_name_kana": null
  },
  "0002": {
    "postcode": "0210002",
    "prefecture": "岩手県",
    "prefecture_kana": "イワテケン",
    "prefecture_code": 3,
    "city": "一関市",
    "city_kana": "イチノセキシ",
    "town": "中里",
    "town_kana": "ナカサト",
    "street": null,
    "office_name": null,
    "office_name_kana": null
  },
  "0003": {
    "postcode": "0210003",
    "prefecture": "岩手県",
    "prefecture_kana": "イワテケン",
    "prefecture_code": 3,
    "city": "一関市",
    "city_kana": "イチノセキシ",
    "town": "東五代",
    "town_kana": "ヒガシゴダイ",
    "street": null,
    "office_name": null,
    "office_name_kana": null
  },
  "0004": {
    "postcode": "0210004",
    "prefecture": "岩手県",
    "prefecture_kana": "イワテケン",
    "prefecture_code": 3,
    "city": "一関市",
    "city_kana": "イチノセキシ",
    "town": "町浦",
    "town_kana": "マチウラ",
    "street": null,
    "office_name": null,
    "office_name_kana": null
  },
  "0005": [
    {
      "postcode": "0210005",
      "prefecture": "岩手県",
      "prefecture_kana": "イワテケン",
      "prefecture_code": 3,
      "city": "一関市",
      "city_kana": "イチノセキシ",
      "town": "中里",
      "town_kana": "ナカサト",
      "street": null,
      "office_name": null,
      "office_name_kana": null
    },
    {
      "postcode": "0210005",
      "prefecture": "岩手県",
      "prefecture_kana": "イワテケン",
      "prefecture_code": 3,
      "city": "一関市",
      "city_kana": "イチノセキシ",
      "town": "中里沢田",
      "town_kana": "ナカサトサワダ",
      "street": null,
      "office_name": null,
      "office_name_kana": null
    }
  ],
  "0006": {
    "postcode": "0210006",
    "prefecture": "岩手県",
    "prefecture_kana": "イワテケン",
    "prefecture_code": 3,
    "city": "一関市",
    "city_kana": "イチノセキシ",
    "town": "上坊",
    "town_kana": "ジョウボウ",
    "street": null,
    "office_name": null,
    "office_name_kana": null
  },
  "0007": {
    "postcode": "0210007",
    "prefecture": "岩手県",
    "prefecture_kana": "イワテケン",
    "prefecture_code": 3,
    "city": "一関市",
    "city_kana": "イチノセキシ",
    "town": "上日照",
    "town_kana": "カミヒデリ",
    "street": null,
    "office_name": null,
    "office_name_kana": null
  },
  "0008": {
    "postcode": "0210008",
    "prefecture": "岩手県",
    "prefecture_kana": "イワテケン",
    "prefecture_code": 3,
    "city": "一関市",
    "city_kana": "イチノセキシ",
    "town": "石畑",
    "town_kana": "イシバタケ",
    "street": null,
    "office_name": null,
    "office_name_kana": null
  },
  "0011": {
    "postcode": "0210011",
    "prefecture": "岩手県",
    "prefecture_kana": "イワテケン",
    "prefecture_code": 3,
    "city": "一関市",
    "city_kana": "イチノセキシ",
    "town": "山目町",
    "town_kana": "ヤマノメマチ",
    "street": null,
    "office_name": null,
    "office_name_kana": null
  },
  "0012": {
    "postcode": "0210012",
    "prefecture": "岩手県",
    "prefecture_kana": "イワテケン",
    "prefecture_code": 3,
    "city": "一関市",
    "city_kana": "イチノセキシ",
    "town": "宮前町",
    "town_kana": "ミヤマエチョウ",
    "street": null,
    "office_name": null,
    "office_name_kana": null
  },
  "0013": {
    "postcode": "0210013",
    "prefecture": "岩手県",
    "prefecture_kana": "イワテケン",
    "prefecture_code": 3,
    "city": "一関市",
    "city_kana": "イチノセキシ",
    "town": "宮下町",
    "town_kana": "ミヤシタチョウ",
    "street": null,
    "office_name": null,
    "office_name_kana": null
  },
  "0014": {
    "postcode": "0210014",
    "prefecture": "岩手県",
    "prefecture_kana": "イワテケン",
    "prefecture_code": 3,
    "city": "一関市",
    "city_kana": "イチノセキシ",
    "town": "蘭梅町",
    "town_kana": "ランバイチョウ",
    "street": null,
    "office_name": null,
    "office_name_kana": null
  },
  "0021": {
    "postcode": "0210021",
    "prefecture": "岩手県",
    "prefecture_kana": "イワテケン",
    "prefecture_code": 3,
    "city": "一関市",
    "city_kana": "イチノセキシ",
    "town": "中央町",
    "town_kana": "チュウオウチョウ",
    "street": null,
    "office_name": null,
    "office_name_kana": null
  },
  "0022": {
    "postcode": "0210022",
    "prefecture": "岩手県",
    "prefecture_kana": "イワテケン",
    "prefecture_code": 3,
    "city": "一関市",
    "city_kana": "イチノセキシ",
    "town": "五代町",
    "town_kana": "ゴダイチョウ",
    "street": null,
    "office_name": null,
    "office_name_kana": null
  },
  "0023": {
    "postcode": "0210023",
    "prefecture": "岩手県",
    "prefecture_kana": "イワテケン",
    "prefecture_code": 3,
    "city": "一関市",
    "city_kana": "イチノセキシ",
    "town": "銅谷町",
    "town_kana": "ドウヤチョウ",
    "street": null,
    "office_name": null,
    "office_name_kana": null
  },
  "0024": {
    "postcode": "0210024",
    "prefecture": "岩手県",
    "prefecture_kana": "イワテケン",
    "prefecture_code": 3,
    "city": "一関市",
    "city_kana": "イチノセキシ",
    "town": "幸町",
    "town_kana": "サイワイチョウ",
    "street": null,
    "office_name": null,
    "office_name_kana": null
  },
  "0025": [
    {
      "postcode": "0210025",
      "prefecture": "岩手県",
      "prefecture_kana": "イワテケン",
      "prefecture_code": 3,
      "city": "一関市",
      "city_kana": "イチノセキシ",
      "town": "山目",
      "town_kana": "ヤマノメ",
      "street": null,
      "office_name": null,
      "office_name_kana": null
    },
    {
      "postcode": "0210025",
      "prefecture": "岩手県",
      "prefecture_kana": "イワテケン",
      "prefecture_code": 3,
      "city": "一関市",
      "city_kana": "イチノセキシ",
      "town": "山目向野",
      "town_kana": "ヤマノメムカイノ",
      "street": null,
      "office_name": null,
      "office_name_kana": null
    }
  ],
  "0026": [
    {
      "postcode": "0210026",
      "prefecture": "岩手県",
      "prefecture_kana": "イワテケン",
      "prefecture_code": 3,
      "city": "一関市",
      "city_kana": "イチノセキシ",
      "town": "山目",
      "town_kana": "ヤマノメ",
      "street": null,
      "office_name": null,
      "office_name_kana": null
    },
    {
      "postcode": "0210026",
      "prefecture": "岩手県",
      "prefecture_kana": "イワテケン",
      "prefecture_code": 3,
      "city": "一関市",
      "city_kana": "イチノセキシ",
      "town": "山目前田",
      "town_kana": "ヤマノメマエダ",
      "street": null,
      "office_name": null,
      "office_name_kana": null
    }
  ],
  "0027": {
    "postcode": "0210027",
    "prefecture": "岩手県",
    "prefecture_kana": "イワテケン",
    "prefecture_code": 3,
    "city": "一関市",
    "city_kana": "イチノセキシ",
    "town": "竹山町",
    "town_kana": "タケヤマチョウ",
    "street": null,
    "office_name": null,
    "office_name_kana": null
  },
  "0031": {
    "postcode": "0210031",
    "prefecture": "岩手県",
    "prefecture_kana": "イワテケン",
    "prefecture_code": 3,
    "city": "一関市",
    "city_kana": "イチノセキシ",
    "town": "青葉",
    "town_kana": "アオバ",
    "street": null,
    "office_name": null,
    "office_name_kana": null
  },
  "0032": {
    "postcode": "0210032",
    "prefecture": "岩手県",
    "prefecture_kana": "イワテケン",
    "prefecture_code": 3,
    "city": "一関市",
    "city_kana": "イチノセキシ",
    "town": "末広",
    "town_kana": "スエヒロ",
    "street": null,
    "office_name": null,
    "office_name_kana": null
  },
  "0033": [
    {
      "postcode": "0210033",
      "prefecture": "岩手県",
      "prefecture_kana": "イワテケン",
      "prefecture_code": 3,
      "city": "一関市",
      "city_kana": "イチノセキシ",
      "town": "山目",
      "town_kana": "ヤマノメ",
      "street": null,
      "office_name": null,
      "office_name_kana": null
    },
    {
      "postcode": "0210033",
      "prefecture": "岩手県",
      "prefecture_kana": "イワテケン",
      "prefecture_code": 3,
      "city": "一関市",
      "city_kana": "イチノセキシ",
      "town": "山目里前",
      "town_kana": "ヤマノメサトマエ",
      "street": null,
      "office_name": null,
      "office_name_kana": null
    }
  ],
  "0034": [
    {
      "postcode": "0210034",
      "prefecture": "岩手県",
      "prefecture_kana": "イワテケン",
      "prefecture_code": 3,
      "city": "一関市",
      "city_kana": "イチノセキシ",
      "town": "山目",
      "town_kana": "ヤマノメ",
      "street": null,
      "office_name": null,
      "office_name_kana": null
    },
    {
      "postcode": "0210034",
      "prefecture": "岩手県",
      "prefecture_kana": "イワテケン",
      "prefecture_code": 3,
      "city": "一関市",
      "city_kana": "イチノセキシ",
      "town": "山目立沢",
      "town_kana": "ヤマノメタチザワ",
      "street": null,
      "office_name": null,
      "office_name_kana": null
    }
  ],
  "0035": [
    {
      "postcode": "0210035",
      "prefecture": "岩手県",
      "prefecture_kana": "イワテケン",
      "prefecture_code": 3,
      "city": "一関市",
      "city_kana": "イチノセキシ",
      "town": "山目",
      "town_kana": "ヤマノメ",
      "street": null,
      "office_name": null,
      "office_name_kana": null
    },
    {
      "postcode": "0210035",
      "prefecture": "岩手県",
      "prefecture_kana": "イワテケン",
      "prefecture_code": 3,
      "city": "一関市",
      "city_kana": "イチノセキシ",
      "town": "山目才天",
      "town_kana": "ヤマノメサイテン",
      "street": null,
      "office_name": null,
      "office_name_kana": null
    }
  ],
  "0036": [
    {
      "postcode": "0210036",
      "prefecture": "岩手県",
      "prefecture_kana": "イワテケン",
      "prefecture_code": 3,
      "city": "一関市",
      "city_kana": "イチノセキシ",
      "town": "山目",
      "town_kana": "ヤマノメ",
      "street": null,
      "office_name": null,
      "office_name_kana": null
    },
    {
      "postcode": "0210036",
      "prefecture": "岩手県",
      "prefecture_kana": "イワテケン",
      "prefecture_code": 3,
      "city": "一関市",
      "city_kana": "イチノセキシ",
      "town": "山目十二神",
      "town_kana": "ヤマノメジュウニジン",
      "street": null,
      "office_name": null,
      "office_name_kana": null
    }
  ],
  "0041": {
    "postcode": "0210041",
    "prefecture": "岩手県",
    "prefecture_kana": "イワテケン",
    "prefecture_code": 3,
    "city": "一関市",
    "city_kana": "イチノセキシ",
    "town": "赤荻",
    "town_kana": "アコオギ",
    "street": null,
    "office_name": null,
    "office_name_kana": null
  },
  "0051": [
    {
      "postcode": "0210051",
      "prefecture": "岩手県",
      "prefecture_kana": "イワテケン",
      "prefecture_code": 3,
      "city": "一関市",
      "city_kana": "イチノセキシ",
      "town": "山目",
      "town_kana": "ヤマノメ",
      "street": null,
      "office_name": null,
      "office_name_kana": null
    },
    {
      "postcode": "0210051",
      "prefecture": "岩手県",
      "prefecture_kana": "イワテケン",
      "prefecture_code": 3,
      "city": "一関市",
      "city_kana": "イチノセキシ",
      "town": "山目三反田",
      "town_kana": "ヤマノメサンタンダ",
      "street": null,
      "office_name": null,
      "office_name_kana": null
    }
  ],
  "0052": {
    "postcode": "0210052",
    "prefecture": "岩手県",
    "prefecture_kana": "イワテケン",
    "prefecture_code": 3,
    "city": "一関市",
    "city_kana": "イチノセキシ",
    "town": "寿町",
    "town_kana": "コトブキチョウ",
    "street": null,
    "office_name": null,
    "office_name_kana": null
  },
  "0053": [
    {
      "postcode": "0210053",
      "prefecture": "岩手県",
      "prefecture_kana": "イワテケン",
      "prefecture_code": 3,
      "city": "一関市",
      "city_kana": "イチノセキシ",
      "town": "山目",
      "town_kana": "ヤマノメ",
      "street": null,
      "office_name": null,
      "office_name_kana": null
    },
    {
      "postcode": "0210053",
      "prefecture": "岩手県",
      "prefecture_kana": "イワテケン",
      "prefecture_code": 3,
      "city": "一関市",
      "city_kana": "イチノセキシ",
      "town": "山目中野",
      "town_kana": "ヤマノメナカノ",
      "street": null,
      "office_name": null,
      "office_name_kana": null
    }
  ],
  "0054": [
    {
      "postcode": "0210054",
      "prefecture": "岩手県",
      "prefecture_kana": "イワテケン",
      "prefecture_code": 3,
      "city": "一関市",
      "city_kana": "イチノセキシ",
      "town": "山目",
      "town_kana": "ヤマノメ",
      "street": null,
      "office_name": null,
      "office_name_kana": null
    },
    {
      "postcode": "0210054",
      "prefecture": "岩手県",
      "prefecture_kana": "イワテケン",
      "prefecture_code": 3,
      "city": "一関市",
      "city_kana": "イチノセキシ",
      "town": "山目境",
      "town_kana": "ヤマノメサカイ",
      "street": null,
      "office_name": null,
      "office_name_kana": null
    }
  ],
  "0055": [
    {
      "postcode": "0210055",
      "prefecture": "岩手県",
      "prefecture_kana": "イワテケン",
      "prefecture_code": 3,
      "city": "一関市",
      "city_kana": "イチノセキシ",
      "town": "山目",
      "town_kana": "ヤマノメ",
      "street": null,
      "office_name": null,
      "office_name_kana": null
    },
    {
      "postcode": "0210055",
      "prefecture": "岩手県",
      "prefecture_kana": "イワテケン",
      "prefecture_code": 3,
      "city": "一関市",
      "city_kana": "イチノセキシ",
      "town": "山目泥田",
      "town_kana": "ヤマノメドロタ",
      "street": null,
      "office_name": null,
      "office_name_kana": null
    }
  ],
  "0056": [
    {
      "postcode": "0210056",
      "prefecture": "岩手県",
      "prefecture_kana": "イワテケン",
      "prefecture_code": 3,
      "city": "一関市",
      "city_kana": "イチノセキシ",
      "town": "山目",
      "town_kana": "ヤマノメ",
      "street": null,
      "office_name": null,
      "office_name_kana": null
    },
    {
      "postcode": "0210056",
      "prefecture": "岩手県",
      "prefecture_kana": "イワテケン",
      "prefecture_code": 3,
      "city": "一関市",
      "city_kana": "イチノセキシ",
      "town": "山目泥田山下",
      "town_kana": "ヤマノメドロタヤマシタ",
      "street": null,
      "office_name": null,
      "office_name_kana": null
    }
  ],
  "0061": [
    {
      "postcode": "0210061",
      "prefecture": "岩手県",
      "prefecture_kana": "イワテケン",
      "prefecture_code": 3,
      "city": "一関市",
      "city_kana": "イチノセキシ",
      "town": "山目",
      "town_kana": "ヤマノメ",
      "street": null,
      "office_name": null,
      "office_name_kana": null
    },
    {
      "postcode": "0210061",
      "prefecture": "岩手県",
      "prefecture_kana": "イワテケン",
      "prefecture_code": 3,
      "city": "一関市",
      "city_kana": "イチノセキシ",
      "town": "山目館",
      "town_kana": "ヤマノメタテ",
      "street": null,
      "office_name": null,
      "office_name_kana": null
    }
  ],
  "0062": [
    {
      "postcode": "0210062",
      "prefecture": "岩手県",
      "prefecture_kana": "イワテケン",
      "prefecture_code": 3,
      "city": "一関市",
      "city_kana": "イチノセキシ",
      "town": "山目",
      "town_kana": "ヤマノメ",
      "street": null,
      "office_name": null,
      "office_name_kana": null
    },
    {
      "postcode": "0210062",
      "prefecture": "岩手県",
      "prefecture_kana": "イワテケン",
      "prefecture_code": 3,
      "city": "一関市",
      "city_kana": "イチノセキシ",
      "town": "山目寺前",
      "town_kana": "ヤマノメテラマエ",
      "street": null,
      "office_name": null,
      "office_name_kana": null
    }
  ],
  "0063": [
    {
      "postcode": "0210063",
      "prefecture": "岩手県",
      "prefecture_kana": "イワテケン",
      "prefecture_code": 3,
      "city": "一関市",
      "city_kana": "イチノセキシ",
      "town": "山目",
      "town_kana": "ヤマノメ",
      "street": null,
      "office_name": null,
      "office_name_kana": null
    },
    {
      "postcode": "0210063",
      "prefecture": "岩手県",
      "prefecture_kana": "イワテケン",
      "prefecture_code": 3,
      "city": "一関市",
      "city_kana": "イチノセキシ",
      "town": "山目大槻",
      "town_kana": "ヤマノメオオツキ",
      "street": null,
      "office_name": null,
      "office_name_kana": null
    }
  ],
  "0064": [
    {
      "postcode": "0210064",
      "prefecture": "岩手県",
      "prefecture_kana": "イワテケン",
      "prefecture_code": 3,
      "city": "一関市",
      "city_kana": "イチノセキシ",
      "town": "山目",
      "town_kana": "ヤマノメ",
      "street": null,
      "office_name": null,
      "office_name_kana": null
    },
    {
      "postcode": "0210064",
      "prefecture": "岩手県",
      "prefecture_kana": "イワテケン",
      "prefecture_code": 3,
      "city": "一関市",
      "city_kana": "イチノセキシ",
      "town": "山目沢内",
      "town_kana": "ヤマノメサワウチ",
      "street": null,
      "office_name": null,
      "office_name_kana": null
    }
  ],
  "0101": {
    "postcode": "0210101",
    "prefecture": "岩手県",
    "prefecture_kana": "イワテケン",
    "prefecture_code": 3,
    "city": "一関市",
    "city_kana": "イチノセキシ",
    "town": "厳美町",
    "town_kana": "ゲンビチョウ",
    "street": null,
    "office_name": null,
    "office_name_kana": null
  },
  "0102": [
    {
      "postcode": "0210102",
      "prefecture": "岩手県",
      "prefecture_kana": "イワテケン",
      "prefecture_code": 3,
      "city": "一関市",
      "city_kana": "イチノセキシ",
      "town": "萩荘",
      "town_kana": "ハギショウ",
      "street": null,
      "office_name": null,
      "office_name_kana": null
    },
    {
      "postcode": "0210102",
      "prefecture": "岩手県",
      "prefecture_kana": "イワテケン",
      "prefecture_code": 3,
      "city": "一関市",
      "city_kana": "イチノセキシ",
      "town": "萩荘赤猪子",
      "town_kana": "ハギショウアカイノコ",
      "street": null,
      "office_name": null,
      "office_name_kana": null
    },
    {
      "postcode": "0210102",
      "prefecture": "岩手県",
      "prefecture_kana": "イワテケン",
      "prefecture_code": 3,
      "city": "一関市",
      "city_kana": "イチノセキシ",
      "town": "萩荘芦ノ口",
      "town_kana": "ハギショウアシノクチ",
      "street": null,
      "office_name": null,
      "office_name_kana": null
    },
    {
      "postcode": "0210102",
      "prefecture": "岩手県",
      "prefecture_kana": "イワテケン",
      "prefecture_code": 3,
      "city": "一関市",
      "city_kana": "イチノセキシ",
      "town": "萩荘甘蕨",
      "town_kana": "ハギショウアマワラビ",
      "street": null,
      "office_name": null,
      "office_name_kana": null
    },
    {
      "postcode": "0210102",
      "prefecture": "岩手県",
      "prefecture_kana": "イワテケン",
      "prefecture_code": 3,
      "city": "一関市",
      "city_kana": "イチノセキシ",
      "town": "萩荘老流",
      "town_kana": "ハギショウオイナガレ",
      "street": null,
      "office_name": null,
      "office_name_kana": null
    },
    {
      "postcode": "0210102",
      "prefecture": "岩手県",
      "prefecture_kana": "イワテケン",
      "prefecture_code": 3,
      "city": "一関市",
      "city_kana": "イチノセキシ",
      "town": "萩荘大沢",
      "town_kana": "ハギショウオオサワ",
      "street": null,
      "office_name": null,
      "office_name_kana": null
    },
    {
      "postcode": "0210102",
      "prefecture": "岩手県",
      "prefecture_kana": "イワテケン",
      "prefecture_code": 3,
      "city": "一関市",
      "city_kana": "イチノセキシ",
      "town": "萩荘上宇津野",
      "town_kana": "ハギショウカミウツノ",
      "street": null,
      "office_name": null,
      "office_name_kana": null
    },
    {
      "postcode": "0210102",
      "prefecture": "岩手県",
      "prefecture_kana": "イワテケン",
      "prefecture_code": 3,
      "city": "一関市",
      "city_kana": "イチノセキシ",
      "town": "萩荘上本郷",
      "town_kana": "ハギショウカミホンゴウ",
      "street": null,
      "office_name": null,
      "office_name_kana": null
    },
    {
      "postcode": "0210102",
      "prefecture": "岩手県",
      "prefecture_kana": "イワテケン",
      "prefecture_code": 3,
      "city": "一関市",
      "city_kana": "イチノセキシ",
      "town": "萩荘上要害",
      "town_kana": "ハギショウカミヨウガイ",
      "street": null,
      "office_name": null,
      "office_name_kana": null
    },
    {
      "postcode": "0210102",
      "prefecture": "岩手県",
      "prefecture_kana": "イワテケン",
      "prefecture_code": 3,
      "city": "一関市",
      "city_kana": "イチノセキシ",
      "town": "萩荘化粧坂",
      "town_kana": "ハギショウケショウザカ",
      "street": null,
      "office_name": null,
      "office_name_kana": null
    },
    {
      "postcode": "0210102",
      "prefecture": "岩手県",
      "prefecture_kana": "イワテケン",
      "prefecture_code": 3,
      "city": "一関市",
      "city_kana": "イチノセキシ",
      "town": "萩荘三月田",
      "town_kana": "ハギショウサンガツダ",
      "street": null,
      "office_name": null,
      "office_name_kana": null
    },
    {
      "postcode": "0210102",
      "prefecture": "岩手県",
      "prefecture_kana": "イワテケン",
      "prefecture_code": 3,
      "city": "一関市",
      "city_kana": "イチノセキシ",
      "town": "萩荘下宇津野",
      "town_kana": "ハギショウシモウツノ",
      "street": null,
      "office_name": null,
      "office_name_kana": null
    },
    {
      "postcode": "0210102",
      "prefecture": "岩手県",
      "prefecture_kana": "イワテケン",
      "prefecture_code": 3,
      "city": "一関市",
      "city_kana": "イチノセキシ",
      "town": "萩荘下本郷",
      "town_kana": "ハギショウシモホンゴウ",
      "street": null,
      "office_name": null,
      "office_name_kana": null
    },
    {
      "postcode": "0210102",
      "prefecture": "岩手県",
      "prefecture_kana": "イワテケン",
      "prefecture_code": 3,
      "city": "一関市",
      "city_kana": "イチノセキシ",
      "town": "萩荘外山",
      "town_kana": "ハギショウソデヤマ",
      "street": null,
      "office_name": null,
      "office_name_kana": null
    },
    {
      "postcode": "0210102",
      "prefecture": "岩手県",
      "prefecture_kana": "イワテケン",
      "prefecture_code": 3,
      "city": "一関市",
      "city_kana": "イチノセキシ",
      "town": "萩荘堂の沢",
      "town_kana": "ハギショウドウノサワ",
      "street": null,
      "office_name": null,
      "office_name_kana": null
    },
    {
      "postcode": "0210102",
      "prefecture": "岩手県",
      "prefecture_kana": "イワテケン",
      "prefecture_code": 3,
      "city": "一関市",
      "city_kana": "イチノセキシ",
      "town": "萩荘栃倉",
      "town_kana": "ハギショウトチクラ",
      "street": null,
      "office_name": null,
      "office_name_kana": null
    },
    {
      "postcode": "0210102",
      "prefecture": "岩手県",
      "prefecture_kana": "イワテケン",
      "prefecture_code": 3,
      "city": "一関市",
      "city_kana": "イチノセキシ",
      "town": "萩荘栃倉南",
      "town_kana": "ハギショウトチクラミナミ",
      "street": null,
      "office_name": null,
      "office_name_kana": null
    },
    {
      "postcode": "0210102",
      "prefecture": "岩手県",
      "prefecture_kana": "イワテケン",
      "prefecture_code": 3,
      "city": "一関市",
      "city_kana": "イチノセキシ",
      "town": "萩荘長倉",
      "town_kana": "ハギショウナガクラ",
      "street": null,
      "office_name": null,
      "office_name_kana": null
    },
    {
      "postcode": "0210102",
      "prefecture": "岩手県",
      "prefecture_kana": "イワテケン",
      "prefecture_code": 3,
      "city": "一関市",
      "city_kana": "イチノセキシ",
      "town": "萩荘中沢",
      "town_kana": "ハギショウナカザワ",
      "street": null,
      "office_name": null,
      "office_name_kana": null
    },
    {
      "postcode": "0210102",
      "prefecture": "岩手県",
      "prefecture_kana": "イワテケン",
      "prefecture_code": 3,
      "city": "一関市",
      "city_kana": "イチノセキシ",
      "town": "萩荘八森",
      "town_kana": "ハギショウハチモリ",
      "street": null,
      "office_name": null,
      "office_name_kana": null
    },
    {
      "postcode": "0210102",
      "prefecture": "岩手県",
      "prefecture_kana": "イワテケン",
      "prefecture_code": 3,
      "city": "一関市",
      "city_kana": "イチノセキシ",
      "town": "萩荘馬場",
      "town_kana": "ハギショウババ",
      "street": null,
      "office_name": null,
      "office_name_kana": null
    },
    {
      "postcode": "0210102",
      "prefecture": "岩手県",
      "prefecture_kana": "イワテケン",
      "prefecture_code": 3,
      "city": "一関市",
      "city_kana": "イチノセキシ",
      "town": "萩荘広面",
      "town_kana": "ハギショウヒロオモテ",
      "street": null,
      "office_name": null,
      "office_name_kana": null
    },
    {
      "postcode": "0210102",
      "prefecture": "岩手県",
      "prefecture_kana": "イワテケン",
      "prefecture_code": 3,
      "city": "一関市",
      "city_kana": "イチノセキシ",
      "town": "萩荘平場",
      "town_kana": "ハギショウヒラバ",
      "street": null,
      "office_name": null,
      "office_name_kana": null
    },
    {
      "postcode": "0210102",
      "prefecture": "岩手県",
      "prefecture_kana": "イワテケン",
      "prefecture_code": 3,
      "city": "一関市",
      "city_kana": "イチノセキシ",
      "town": "萩荘古釜場",
      "town_kana": "ハギショウフルカマバ",
      "street": null,
      "office_name": null,
      "office_name_kana": null
    },
    {
      "postcode": "0210102",
      "prefecture": "岩手県",
      "prefecture_kana": "イワテケン",
      "prefecture_code": 3,
      "city": "一関市",
      "city_kana": "イチノセキシ",
      "town": "萩荘曲淵",
      "town_kana": "ハギショウマガリフチ",
      "street": null,
      "office_name": null,
      "office_name_kana": null
    },
    {
      "postcode": "0210102",
      "prefecture": "岩手県",
      "prefecture_kana": "イワテケン",
      "prefecture_code": 3,
      "city": "一関市",
      "city_kana": "イチノセキシ",
      "town": "萩荘松原",
      "town_kana": "ハギショウマツバラ",
      "street": null,
      "office_name": null,
      "office_name_kana": null
    },
    {
      "postcode": "0210102",
      "prefecture": "岩手県",
      "prefecture_kana": "イワテケン",
      "prefecture_code": 3,
      "city": "一関市",
      "city_kana": "イチノセキシ",
      "town": "萩荘南沢",
      "town_kana": "ハギショウミナミザワ",
      "street": null,
      "office_name": null,
      "office_name_kana": null
    },
    {
      "postcode": "0210102",
      "prefecture": "岩手県",
      "prefecture_kana": "イワテケン",
      "prefecture_code": 3,
      "city": "一関市",
      "city_kana": "イチノセキシ",
      "town": "萩荘谷起",
      "town_kana": "ハギショウヤギ",
      "street": null,
      "office_name": null,
      "office_name_kana": null
    },
    {
      "postcode": "0210102",
      "prefecture": "岩手県",
      "prefecture_kana": "イワテケン",
      "prefecture_code": 3,
      "city": "一関市",
      "city_kana": "イチノセキシ",
      "town": "萩荘焼切",
      "town_kana": "ハギショウヤッキリ",
      "street": null,
      "office_name": null,
      "office_name_kana": null
    },
    {
      "postcode": "0210102",
      "prefecture": "岩手県",
      "prefecture_kana": "イワテケン",
      "prefecture_code": 3,
      "city": "一関市",
      "city_kana": "イチノセキシ",
      "town": "萩荘八瀬",
      "town_kana": "ハギショウヤセ",
      "street": null,
      "office_name": null,
      "office_name_kana": null
    },
    {
      "postcode": "0210102",
      "prefecture": "岩手県",
      "prefecture_kana": "イワテケン",
      "prefecture_code": 3,
      "city": "一関市",
      "city_kana": "イチノセキシ",
      "town": "萩荘八幡",
      "town_kana": "ハギショウヤハタ",
      "street": null,
      "office_name": null,
      "office_name_kana": null
    },
    {
      "postcode": "0210102",
      "prefecture": "岩手県",
      "prefecture_kana": "イワテケン",
      "prefecture_code": 3,
      "city": "一関市",
      "city_kana": "イチノセキシ",
      "town": "萩荘山ノ沢",
      "town_kana": "ハギショウヤマノサワ",
      "street": null,
      "office_name": null,
      "office_name_kana": null
    }
  ],
  "0221": {
    "postcode": "0210221",
    "prefecture": "岩手県",
    "prefecture_kana": "イワテケン",
    "prefecture_code": 3,
    "city": "一関市",
    "city_kana": "イチノセキシ",
    "town": "舞川",
    "town_kana": "マイカワ",
    "street": null,
    "office_name": null,
    "office_name_kana": null
  },
  "0801": {
    "postcode": "0210801",
    "prefecture": "岩手県",
    "prefecture_kana": "イワテケン",
    "prefecture_code": 3,
    "city": "一関市",
    "city_kana": "イチノセキシ",
    "town": "桜街",
    "town_kana": "サクラコウジ",
    "street": null,
    "office_name": null,
    "office_name_kana": null
  },
  "0802": {
    "postcode": "0210802",
    "prefecture": "岩手県",
    "prefecture_kana": "イワテケン",
    "prefecture_code": 3,
    "city": "一関市",
    "city_kana": "イチノセキシ",
    "town": "北十軒街",
    "town_kana": "キタジュッケンコウジ",
    "street": null,
    "office_name": null,
    "office_name_kana": null
  },
  "0803": {
    "postcode": "0210803",
    "prefecture": "岩手県",
    "prefecture_kana": "イワテケン",
    "prefecture_code": 3,
    "city": "一関市",
    "city_kana": "イチノセキシ",
    "town": "南十軒街",
    "town_kana": "ミナミジュッケンコウジ",
    "street": null,
    "office_name": null,
    "office_name_kana": null
  },
  "0804": {
    "postcode": "0210804",
    "prefecture": "岩手県",
    "prefecture_kana": "イワテケン",
    "prefecture_code": 3,
    "city": "一関市",
    "city_kana": "イチノセキシ",
    "town": "五十人町",
    "town_kana": "ゴジュウニンマチ",
    "street": null,
    "office_name": null,
    "office_name_kana": null
  },
  "0805": {
    "postcode": "0210805",
    "prefecture": "岩手県",
    "prefecture_kana": "イワテケン",
    "prefecture_code": 3,
    "city": "一関市",
    "city_kana": "イチノセキシ",
    "town": "豊町",
    "town_kana": "ユタカマチ",
    "street": null,
    "office_name": null,
    "office_name_kana": null
  },
  "0806": {
    "postcode": "0210806",
    "prefecture": "岩手県",
    "prefecture_kana": "イワテケン",
    "prefecture_code": 3,
    "city": "一関市",
    "city_kana": "イチノセキシ",
    "town": "下大槻街",
    "town_kana": "シモオオツキコウジ",
    "street": null,
    "office_name": null,
    "office_name_kana": null
  },
  "0807": {
    "postcode": "0210807",
    "prefecture": "岩手県",
    "prefecture_kana": "イワテケン",
    "prefecture_code": 3,
    "city": "一関市",
    "city_kana": "イチノセキシ",
    "town": "東花王町",
    "town_kana": "ヒガシカオウチョウ",
    "street": null,
    "office_name": null,
    "office_name_kana": null
  },
  "0811": {
    "postcode": "0210811",
    "prefecture": "岩手県",
    "prefecture_kana": "イワテケン",
    "prefecture_code": 3,
    "city": "一関市",
    "city_kana": "イチノセキシ",
    "town": "久保",
    "town_kana": "クボ",
    "street": null,
    "office_name": null,
    "office_name_kana": null
  },
  "0812": {
    "postcode": "0210812",
    "prefecture": "岩手県",
    "prefecture_kana": "イワテケン",
    "prefecture_code": 3,
    "city": "一関市",
    "city_kana": "イチノセキシ",
    "town": "樋渡",
    "town_kana": "ヒワタシ",
    "street": null,
    "office_name": null,
    "office_name_kana": null
  },
  "0813": {
    "postcode": "0210813",
    "prefecture": "岩手県",
    "prefecture_kana": "イワテケン",
    "prefecture_code": 3,
    "city": "一関市",
    "city_kana": "イチノセキシ",
    "town": "南ほうりょう",
    "town_kana": "ミナミホウリョウ",
    "street": null,
    "office_name": null,
    "office_name_kana": null
  },
  "0814": {
    "postcode": "0210814",
    "prefecture": "岩手県",
    "prefecture_kana": "イワテケン",
    "prefecture_code": 3,
    "city": "一関市",
    "city_kana": "イチノセキシ",
    "town": "北ほうりょう",
    "town_kana": "キタホウリョウ",
    "street": null,
    "office_name": null,
    "office_name_kana": null
  },
  "0815": {
    "postcode": "0210815",
    "prefecture": "岩手県",
    "prefecture_kana": "イワテケン",
    "prefecture_code": 3,
    "city": "一関市",
    "city_kana": "イチノセキシ",
    "town": "要害",
    "town_kana": "ヨウガイ",
    "street": null,
    "office_name": null,
    "office_name_kana": null
  },
  "0821": {
    "postcode": "0210821",
    "prefecture": "岩手県",
    "prefecture_kana": "イワテケン",
    "prefecture_code": 3,
    "city": "一関市",
    "city_kana": "イチノセキシ",
    "town": "三関",
    "town_kana": "サンノセキ",
    "street": null,
    "office_name": null,
    "office_name_kana": null
  },
  "0822": {
    "postcode": "0210822",
    "prefecture": "岩手県",
    "prefecture_kana": "イワテケン",
    "prefecture_code": 3,
    "city": "一関市",
    "city_kana": "イチノセキシ",
    "town": "東台",
    "town_kana": "ヒガシダイ",
    "street": null,
    "office_name": null,
    "office_name_kana": null
  },
  "0831": {
    "postcode": "0210831",
    "prefecture": "岩手県",
    "prefecture_kana": "イワテケン",
    "prefecture_code": 3,
    "city": "一関市",
    "city_kana": "イチノセキシ",
    "town": "沼田",
    "town_kana": "ヌマタ",
    "street": null,
    "office_name": null,
    "office_name_kana": null
  },
  "0832": {
    "postcode": "0210832",
    "prefecture": "岩手県",
    "prefecture_kana": "イワテケン",
    "prefecture_code": 3,
    "city": "一関市",
    "city_kana": "イチノセキシ",
    "town": "散田",
    "town_kana": "サンタ",
    "street": null,
    "office_name": null,
    "office_name_kana": null
  },
  "0833": {
    "postcode": "0210833",
    "prefecture": "岩手県",
    "prefecture_kana": "イワテケン",
    "prefecture_code": 3,
    "city": "一関市",
    "city_kana": "イチノセキシ",
    "town": "柄貝",
    "town_kana": "カラカイ",
    "street": null,
    "office_name": null,
    "office_name_kana": null
  },
  "0834": {
    "postcode": "0210834",
    "prefecture": "岩手県",
    "prefecture_kana": "イワテケン",
    "prefecture_code": 3,
    "city": "一関市",
    "city_kana": "イチノセキシ",
    "town": "宇南",
    "town_kana": "ウナン",
    "street": null,
    "office_name": null,
    "office_name_kana": null
  },
  "0835": {
    "postcode": "0210835",
    "prefecture": "岩手県",
    "prefecture_kana": "イワテケン",
    "prefecture_code": 3,
    "city": "一関市",
    "city_kana": "イチノセキシ",
    "town": "二本木",
    "town_kana": "ニホンギ",
    "street": null,
    "office_name": null,
    "office_name_kana": null
  },
  "0836": {
    "postcode": "0210836",
    "prefecture": "岩手県",
    "prefecture_kana": "イワテケン",
    "prefecture_code": 3,
    "city": "一関市",
    "city_kana": "イチノセキシ",
    "town": "鳴神",
    "town_kana": "ナルガミ",
    "street": null,
    "office_name": null,
    "office_name_kana": null
  },
  "0841": {
    "postcode": "0210841",
    "prefecture": "岩手県",
    "prefecture_kana": "イワテケン",
    "prefecture_code": 3,
    "city": "一関市",
    "city_kana": "イチノセキシ",
    "town": "吸川街",
    "town_kana": "スイカワコウジ",
    "street": null,
    "office_name": null,
    "office_name_kana": null
  },
  "0842": {
    "postcode": "0210842",
    "prefecture": "岩手県",
    "prefecture_kana": "イワテケン",
    "prefecture_code": 3,
    "city": "一関市",
    "city_kana": "イチノセキシ",
    "town": "柳町",
    "town_kana": "ヤナギマチ",
    "street": null,
    "office_name": null,
    "office_name_kana": null
  },
  "0843": {
    "postcode": "0210843",
    "prefecture": "岩手県",
    "prefecture_kana": "イワテケン",
    "prefecture_code": 3,
    "city": "一関市",
    "city_kana": "イチノセキシ",
    "town": "深町",
    "town_kana": "フカマチ",
    "street": null,
    "office_name": null,
    "office_name_kana": null
  },
  "0844": {
    "postcode": "0210844",
    "prefecture": "岩手県",
    "prefecture_kana": "イワテケン",
    "prefecture_code": 3,
    "city": "一関市",
    "city_kana": "イチノセキシ",
    "town": "反町",
    "town_kana": "タンマチ",
    "street": null,
    "office_name": null,
    "office_name_kana": null
  },
  "0851": {
    "postcode": "0210851",
    "prefecture": "岩手県",
    "prefecture_kana": "イワテケン",
    "prefecture_code": 3,
    "city": "一関市",
    "city_kana": "イチノセキシ",
    "town": "関が丘",
    "town_kana": "セキガオカ",
    "street": null,
    "office_name": null,
    "office_name_kana": null
  },
  "0852": {
    "postcode": "0210852",
    "prefecture": "岩手県",
    "prefecture_kana": "イワテケン",
    "prefecture_code": 3,
    "city": "一関市",
    "city_kana": "イチノセキシ",
    "town": "沢",
    "town_kana": "サワ",
    "street": null,
    "office_name": null,
    "office_name_kana": null
  },
  "0853": {
    "postcode": "0210853",
    "prefecture": "岩手県",
    "prefecture_kana": "イワテケン",
    "prefecture_code": 3,
    "city": "一関市",
    "city_kana": "イチノセキシ",
    "town": "相去",
    "town_kana": "アイサリ",
    "street": null,
    "office_name": null,
    "office_name_kana": null
  },
  "0854": {
    "postcode": "0210854",
    "prefecture": "岩手県",
    "prefecture_kana": "イワテケン",
    "prefecture_code": 3,
    "city": "一関市",
    "city_kana": "イチノセキシ",
    "town": "西沢",
    "town_kana": "ニシザワ",
    "street": null,
    "office_name": null,
    "office_name_kana": null
  },
  "0861": {
    "postcode": "0210861",
    "prefecture": "岩手県",
    "prefecture_kana": "イワテケン",
    "prefecture_code": 3,
    "city": "一関市",
    "city_kana": "イチノセキシ",
    "town": "機織山",
    "town_kana": "ハタオリヤマ",
    "street": null,
    "office_name": null,
    "office_name_kana": null
  },
  "0862": {
    "postcode": "0210862",
    "prefecture": "岩手県",
    "prefecture_kana": "イワテケン",
    "prefecture_code": 3,
    "city": "一関市",
    "city_kana": "イチノセキシ",
    "town": "千代田町",
    "town_kana": "チヨダチョウ",
    "street": null,
    "office_name": null,
    "office_name_kana": null
  },
  "0863": {
    "postcode": "0210863",
    "prefecture": "岩手県",
    "prefecture_kana": "イワテケン",
    "prefecture_code": 3,
    "city": "一関市",
    "city_kana": "イチノセキシ",
    "town": "南町",
    "town_kana": "ミナミマチ",
    "street": null,
    "office_name": null,
    "office_name_kana": null
  },
  "0864": {
    "postcode": "0210864",
    "prefecture": "岩手県",
    "prefecture_kana": "イワテケン",
    "prefecture_code": 3,
    "city": "一関市",
    "city_kana": "イチノセキシ",
    "town": "旭町",
    "town_kana": "アサヒチョウ",
    "street": null,
    "office_name": null,
    "office_name_kana": null
  },
  "0865": {
    "postcode": "0210865",
    "prefecture": "岩手県",
    "prefecture_kana": "イワテケン",
    "prefecture_code": 3,
    "city": "一関市",
    "city_kana": "イチノセキシ",
    "town": "新山",
    "town_kana": "ニイヤマ",
    "street": null,
    "office_name": null,
    "office_name_kana": null
  },
  "0866": {
    "postcode": "0210866",
    "prefecture": "岩手県",
    "prefecture_kana": "イワテケン",
    "prefecture_code": 3,
    "city": "一関市",
    "city_kana": "イチノセキシ",
    "town": "南新町",
    "town_kana": "ミナミシンマチ",
    "street": null,
    "office_name": null,
    "office_name_kana": null
  },
  "0867": {
    "postcode": "0210867",
    "prefecture": "岩手県",
    "prefecture_kana": "イワテケン",
    "prefecture_code": 3,
    "city": "一関市",
    "city_kana": "イチノセキシ",
    "town": "駅前",
    "town_kana": "エキマエ",
    "street": null,
    "office_name": null,
    "office_name_kana": null
  },
  "0871": {
    "postcode": "0210871",
    "prefecture": "岩手県",
    "prefecture_kana": "イワテケン",
    "prefecture_code": 3,
    "city": "一関市",
    "city_kana": "イチノセキシ",
    "town": "八幡町",
    "town_kana": "ハチマンチョウ",
    "street": null,
    "office_name": null,
    "office_name_kana": null
  },
  "0872": {
    "postcode": "0210872",
    "prefecture": "岩手県",
    "prefecture_kana": "イワテケン",
    "prefecture_code": 3,
    "city": "一関市",
    "city_kana": "イチノセキシ",
    "town": "宮坂町",
    "town_kana": "ミヤサカチョウ",
    "street": null,
    "office_name": null,
    "office_name_kana": null
  },
  "0873": {
    "postcode": "0210873",
    "prefecture": "岩手県",
    "prefecture_kana": "イワテケン",
    "prefecture_code": 3,
    "city": "一関市",
    "city_kana": "イチノセキシ",
    "town": "台町",
    "town_kana": "ダイマチ",
    "street": null,
    "office_name": null,
    "office_name_kana": null
  },
  "0874": {
    "postcode": "0210874",
    "prefecture": "岩手県",
    "prefecture_kana": "イワテケン",
    "prefecture_code": 3,
    "city": "一関市",
    "city_kana": "イチノセキシ",
    "town": "釣山",
    "town_kana": "ツリヤマ",
    "street": null,
    "office_name": null,
    "office_name_kana": null
  },
  "0875": {
    "postcode": "0210875",
    "prefecture": "岩手県",
    "prefecture_kana": "イワテケン",
    "prefecture_code": 3,
    "city": "一関市",
    "city_kana": "イチノセキシ",
    "town": "高崎町",
    "town_kana": "タカサキチョウ",
    "street": null,
    "office_name": null,
    "office_name_kana": null
  },
  "0876": {
    "postcode": "0210876",
    "prefecture": "岩手県",
    "prefecture_kana": "イワテケン",
    "prefecture_code": 3,
    "city": "一関市",
    "city_kana": "イチノセキシ",
    "town": "広街",
    "town_kana": "ヒロコウジ",
    "street": null,
    "office_name": null,
    "office_name_kana": null
  },
  "0877": {
    "postcode": "0210877",
    "prefecture": "岩手県",
    "prefecture_kana": "イワテケン",
    "prefecture_code": 3,
    "city": "一関市",
    "city_kana": "イチノセキシ",
    "town": "城内",
    "town_kana": "ジョウナイ",
    "street": null,
    "office_name": null,
    "office_name_kana": null
  },
  "0881": {
    "postcode": "0210881",
    "prefecture": "岩手県",
    "prefecture_kana": "イワテケン",
    "prefecture_code": 3,
    "city": "一関市",
    "city_kana": "イチノセキシ",
    "town": "大町",
    "town_kana": "オオマチ",
    "street": null,
    "office_name": null,
    "office_name_kana": null
  },
  "0882": {
    "postcode": "0210882",
    "prefecture": "岩手県",
    "prefecture_kana": "イワテケン",
    "prefecture_code": 3,
    "city": "一関市",
    "city_kana": "イチノセキシ",
    "town": "上大槻街",
    "town_kana": "カミオオツキコウジ",
    "street": null,
    "office_name": null,
    "office_name_kana": null
  },
  "0883": {
    "postcode": "0210883",
    "prefecture": "岩手県",
    "prefecture_kana": "イワテケン",
    "prefecture_code": 3,
    "city": "一関市",
    "city_kana": "イチノセキシ",
    "town": "新大町",
    "town_kana": "シンオオマチ",
    "street": null,
    "office_name": null,
    "office_name_kana": null
  },
  "0884": {
    "postcode": "0210884",
    "prefecture": "岩手県",
    "prefecture_kana": "イワテケン",
    "prefecture_code": 3,
    "city": "一関市",
    "city_kana": "イチノセキシ",
    "town": "大手町",
    "town_kana": "オオテマチ",
    "street": null,
    "office_name": null,
    "office_name_kana": null
  },
  "0885": {
    "postcode": "0210885",
    "prefecture": "岩手県",
    "prefecture_kana": "イワテケン",
    "prefecture_code": 3,
    "city": "一関市",
    "city_kana": "イチノセキシ",
    "town": "田村町",
    "town_kana": "タムラチョウ",
    "street": null,
    "office_name": null,
    "office_name_kana": null
  },
  "0891": {
    "postcode": "0210891",
    "prefecture": "岩手県",
    "prefecture_kana": "イワテケン",
    "prefecture_code": 3,
    "city": "一関市",
    "city_kana": "イチノセキシ",
    "town": "桜木町",
    "town_kana": "サクラギチョウ",
    "street": null,
    "office_name": null,
    "office_name_kana": null
  },
  "0892": {
    "postcode": "0210892",
    "prefecture": "岩手県",
    "prefecture_kana": "イワテケン",
    "prefecture_code": 3,
    "city": "一関市",
    "city_kana": "イチノセキシ",
    "town": "東地主町",
    "town_kana": "ヒガシジシュマチ",
    "street": null,
    "office_name": null,
    "office_name_kana": null
  },
  "0893": {
    "postcode": "0210893",
    "prefecture": "岩手県",
    "prefecture_kana": "イワテケン",
    "prefecture_code": 3,
    "city": "一関市",
    "city_kana": "イチノセキシ",
    "town": "地主町",
    "town_kana": "ジシュマチ",
    "street": null,
    "office_name": null,
    "office_name_kana": null
  },
  "0894": {
    "postcode": "0210894",
    "prefecture": "岩手県",
    "prefecture_kana": "イワテケン",
    "prefecture_code": 3,
    "city": "一関市",
    "city_kana": "イチノセキシ",
    "town": "磐井町",
    "town_kana": "イワイチョウ",
    "street": null,
    "office_name": null,
    "office_name_kana": null
  },
  "0901": {
    "postcode": "0210901",
    "prefecture": "岩手県",
    "prefecture_kana": "イワテケン",
    "prefecture_code": 3,
    "city": "一関市",
    "city_kana": "イチノセキシ",
    "town": "真柴",
    "town_kana": "マシバ",
    "street": null,
    "office_name": null,
    "office_name_kana": null
  },
  "0902": {
    "postcode": "0210902",
    "prefecture": "岩手県",
    "prefecture_kana": "イワテケン",
    "prefecture_code": 3,
    "city": "一関市",
    "city_kana": "イチノセキシ",
    "town": "萩荘",
    "town_kana": "ハギショウ",
    "street": null,
    "office_name": null,
    "office_name_kana": null
  },
  "8501": {
    "postcode": "0218501",
    "prefecture": "岩手県",
    "prefecture_kana": "イワテケン",
    "prefecture_code": 3,
    "city": "一関市",
    "city_kana": "イチノセキシ",
    "town": "竹山町",
    "town_kana": "タケヤマチョウ",
    "street": "７−２",
    "office_name": "一関市役所",
    "office_name_kana": "イチノセキシヤクシヨ"
  },
  "8502": {
    "postcode": "0218502",
    "prefecture": "岩手県",
    "prefecture_kana": "イワテケン",
    "prefecture_code": 3,
    "city": "一関市",
    "city_kana": "イチノセキシ",
    "town": "五代町",
    "town_kana": "ゴダイチョウ",
    "street": "８−２３",
    "office_name": "一関社会保険事務所",
    "office_name_kana": "イチノセキシヤカイホケンジムシヨ"
  },
  "8503": {
    "postcode": "0218503",
    "prefecture": "岩手県",
    "prefecture_kana": "イワテケン",
    "prefecture_code": 3,
    "city": "一関市",
    "city_kana": "イチノセキシ",
    "town": "竹山町",
    "town_kana": "タケヤマチョウ",
    "street": "７−５",
    "office_name": "県南広域振興局　一関総合支局",
    "office_name_kana": "ケンナンコウイキシンコウキヨク イチノセキソウゴウシキヨク"
  },
  "8504": {
    "postcode": "0218504",
    "prefecture": "岩手県",
    "prefecture_kana": "イワテケン",
    "prefecture_code": 3,
    "city": "一関市",
    "city_kana": "イチノセキシ",
    "town": "竹山町",
    "town_kana": "タケヤマチョウ",
    "street": "７−５",
    "office_name": "一関教育事務所",
    "office_name_kana": "イチノセキキヨウイクジムシヨ"
  },
  "8506": {
    "postcode": "0218506",
    "prefecture": "岩手県",
    "prefecture_kana": "イワテケン",
    "prefecture_code": 3,
    "city": "一関市",
    "city_kana": "イチノセキシ",
    "town": "竹山町",
    "town_kana": "タケヤマチョウ",
    "street": "７−５",
    "office_name": "一関保健所",
    "office_name_kana": "イチノセキホケンジヨ"
  },
  "8511": {
    "postcode": "0218511",
    "prefecture": "岩手県",
    "prefecture_kana": "イワテケン",
    "prefecture_code": 3,
    "city": "一関市",
    "city_kana": "イチノセキシ",
    "town": "萩荘",
    "town_kana": "ハギショウ",
    "street": "字高梨南方１０２",
    "office_name": "国立一関工業高等専門学校",
    "office_name_kana": "コクリツイチノセキコウギヨウコウトウセンモンガツコウ"
  },
  "8544": {
    "postcode": "0218544",
    "prefecture": "岩手県",
    "prefecture_kana": "イワテケン",
    "prefecture_code": 3,
    "city": "一関市",
    "city_kana": "イチノセキシ",
    "town": "赤荻",
    "town_kana": "アコオギ",
    "street": "字亀田１４３",
    "office_name": "株式会社　佐原",
    "office_name_kana": "カブシキガイシヤ サハラ"
  },
  "8555": {
    "postcode": "0218555",
    "prefecture": "岩手県",
    "prefecture_kana": "イワテケン",
    "prefecture_code": 3,
    "city": "一関市",
    "city_kana": "イチノセキシ",
    "town": "竹山町",
    "town_kana": "タケヤマチョウ",
    "street": "６−４",
    "office_name": "株式会社　平野組",
    "office_name_kana": "カブシキカイシヤ ヒラノグミ"
  },
  "8566": {
    "postcode": "0218566",
    "prefecture": "岩手県",
    "prefecture_kana": "イワテケン",
    "prefecture_code": 3,
    "city": "一関市",
    "city_kana": "イチノセキシ",
    "town": "赤荻",
    "town_kana": "アコオギ",
    "street": "字宮田５５",
    "office_name": "ニデックコンポーネンツ　株式会社　一関事業所",
    "office_name_kana": "ニデツクコンポ-ネンツ カブシキカイシヤ イチノセキジギヨウシヨ"
  },
  "8577": {
    "postcode": "0218577",
    "prefecture": "岩手県",
    "prefecture_kana": "イワテケン",
    "prefecture_code": 3,
    "city": "一関市",
    "city_kana": "イチノセキシ",
    "town": "八幡町",
    "town_kana": "ハチマンチョウ",
    "street": "４−３１",
    "office_name": "おりお　株式会社",
    "office_name_kana": "オリオ カブシキカイシヤ"
  },
  "8604": {
    "postcode": "0218604",
    "prefecture": "岩手県",
    "prefecture_kana": "イワテケン",
    "prefecture_code": 3,
    "city": "一関市",
    "city_kana": "イチノセキシ",
    "town": "田村町",
    "town_kana": "タムラチョウ",
    "street": "７−１７",
    "office_name": "一関税務署",
    "office_name_kana": "イチノセキゼイムシヨ"
  },
  "8611": {
    "postcode": "0218611",
    "prefecture": "岩手県",
    "prefecture_kana": "イワテケン",
    "prefecture_code": 3,
    "city": "一関市",
    "city_kana": "イチノセキシ",
    "town": "字柄貝",
    "town_kana": null,
    "street": "１",
    "office_name": "東北日本電気　株式会社",
    "office_name_kana": "トウホクニホンデンキ カブシキガイシヤ"
  },
  "8633": {
    "postcode": "0218633",
    "prefecture": "岩手県",
    "prefecture_kana": "イワテケン",
    "prefecture_code": 3,
    "city": "一関市",
    "city_kana": "イチノセキシ",
    "town": "山目",
    "town_kana": "ヤマノメ",
    "street": "字中野１４０−５（一関郵便局私書箱第３６号）",
    "office_name": "株式会社　佐々木組",
    "office_name_kana": "カブシキカイシヤ ササキグミ"
  },
  "8687": {
    "postcode": "0218687",
    "prefecture": "岩手県",
    "prefecture_kana": "イワテケン",
    "prefecture_code": 3,
    "city": "一関市",
    "city_kana": "イチノセキシ",
    "town": "東台",
    "town_kana": "ヒガシダイ",
    "street": "１４−３７",
    "office_name": "岩手日日新聞社　東台センター",
    "office_name_kana": "イワテニチニチシンブンシヤ ヒガシダイセンタ-"
  }
}