{
  "0000": {
    "postcode": "0230000",
    "prefecture": "岩手県",
    "prefecture_kana": "イワテケン",
    "prefecture_code": 3,
    "city": "奥州市",
    "city_kana": "オウシュウシ",
    "town": "",
    "town_kana": "",
    "street": null,
    "office_name": null,
    "office_name_kana": null
  },
  "0001": {
    "postcode": "0230001",
    "prefecture": "岩手県",
    "prefecture_kana": "イワテケン",
    "prefecture_code": 3,
    "city": "奥州市",
    "city_kana": "オウシュウシ",
    "town": "水沢卸町",
    "town_kana": "ミズサワオロシマチ",
    "street": null,
    "office_name": null,
    "office_name_kana": null
  },
  "0002": {
    "postcode": "0230002",
    "prefecture": "岩手県",
    "prefecture_kana": "イワテケン",
    "prefecture_code": 3,
    "city": "奥州市",
    "city_kana": "オウシュウシ",
    "town": "水沢工業団地",
    "town_kana": "ミズサワコウギョウダンチ",
    "street": null,
    "office_name": null,
    "office_name_kana": null
  },
  "0003": {
    "postcode": "0230003",
    "prefecture": "岩手県",
    "prefecture_kana": "イワテケン",
    "prefecture_code": 3,
    "city": "奥州市",
    "city_kana": "オウシュウシ",
    "town": "水沢佐倉河",
    "town_kana": "ミズサワサクラカワ",
    "street": null,
    "office_name": null,
    "office_name_kana": null
  },
  "0011": {
    "postcode": "0230011",
    "prefecture": "岩手県",
    "prefecture_kana": "イワテケン",
    "prefecture_code": 3,
    "city": "奥州市",
    "city_kana": "オウシュウシ",
    "town": "水沢稲荷田",
    "town_kana": "ミズサワイナリダ",
    "street": null,
    "office_name": null,
    "office_name_kana": null
  },
  "0012": {
    "postcode": "0230012",
    "prefecture": "岩手県",
    "prefecture_kana": "イワテケン",
    "prefecture_code": 3,
    "city": "奥州市",
    "city_kana": "オウシュウシ",
    "town": "水沢斉勝田",
    "town_kana": "ミズサワサイカツダ",
    "street": null,
    "office_name": null,
    "office_name_kana": null
  },
  "0013": {
    "postcode": "0230013",
    "prefecture": "岩手県",
    "prefecture_kana": "イワテケン",
    "prefecture_code": 3,
    "city": "奥州市",
    "city_kana": "オウシュウシ",
    "town": "水沢一本柳",
    "town_kana": "ミズサワイッポンヤナギ",
    "street": null,
    "office_name": null,
    "office_name_kana": null
  },
  "0014": {
    "postcode": "0230014",
    "prefecture": "岩手県",
    "prefecture_kana": "イワテケン",
    "prefecture_code": 3,
    "city": "奥州市",
    "city_kana": "オウシュウシ",
    "town": "水沢地蔵田",
    "town_kana": "ミズサワジゾウデン",
    "street": null,
    "office_name": null,
    "office_name_kana": null
  },
  "0015": {
    "postcode": "0230015",
    "prefecture": "岩手県",
    "prefecture_kana": "イワテケン",
    "prefecture_code": 3,
    "city": "奥州市",
    "city_kana": "オウシュウシ",
    "town": "水沢五千刈",
    "town_kana": "ミズサワゴセンガリ",
    "street": null,
    "office_name": null,
    "office_name_kana": null
  },
  "0016": {
    "postcode": "0230016",
    "prefecture": "岩手県",
    "prefecture_kana": "イワテケン",
    "prefecture_code": 3,
    "city": "奥州市",
    "city_kana": "オウシュウシ",
    "town": "水沢平沢",
    "town_kana": "ミズサワヒラサワ",
    "street": null,
    "office_name": null,
    "office_name_kana": null
  },
  "0017": {
    "postcode": "0230017",
    "prefecture": "岩手県",
    "prefecture_kana": "イワテケン",
    "prefecture_code": 3,
    "city": "奥州市",
    "city_kana": "オウシュウシ",
    "town": "水沢渋田",
    "town_kana": "ミズサワシブタ",
    "street": null,
    "office_name": null,
    "office_name_kana": null
  },
  "0018": {
    "postcode": "0230018",
    "prefecture": "岩手県",
    "prefecture_kana": "イワテケン",
    "prefecture_code": 3,
    "city": "奥州市",
    "city_kana": "オウシュウシ",
    "town": "水沢小中",
    "town_kana": "ミズサワコナカ",
    "street": null,
    "office_name": null,
    "office_name_kana": null
  },
  "0019": {
    "postcode": "0230019",
    "prefecture": "岩手県",
    "prefecture_kana": "イワテケン",
    "prefecture_code": 3,
    "city": "奥州市",
    "city_kana": "オウシュウシ",
    "town": "水沢築舘",
    "town_kana": "ミズサワツキダテ",
    "street": null,
    "office_name": null,
    "office_name_kana": null
  },
  "0021": {
    "postcode": "0230021",
    "prefecture": "岩手県",
    "prefecture_kana": "イワテケン",
    "prefecture_code": 3,
    "city": "奥州市",
    "city_kana": "オウシュウシ",
    "town": "水沢欠ノ下",
    "town_kana": "ミズサワカケノシタ",
    "street": null,
    "office_name": null,
    "office_name_kana": null
  },
  "0022": {
    "postcode": "0230022",
    "prefecture": "岩手県",
    "prefecture_kana": "イワテケン",
    "prefecture_code": 3,
    "city": "奥州市",
    "city_kana": "オウシュウシ",
    "town": "水沢中城",
    "town_kana": "ミズサワナカシロ",
    "street": null,
    "office_name": null,
    "office_name_kana": null
  },
  "0023": {
    "postcode": "0230023",
    "prefecture": "岩手県",
    "prefecture_kana": "イワテケン",
    "prefecture_code": 3,
    "city": "奥州市",
    "city_kana": "オウシュウシ",
    "town": "水沢八反町",
    "town_kana": "ミズサワハッタンマチ",
    "street": null,
    "office_name": null,
    "office_name_kana": null
  },
  "0024": {
    "postcode": "0230024",
    "prefecture": "岩手県",
    "prefecture_kana": "イワテケン",
    "prefecture_code": 3,
    "city": "奥州市",
    "city_kana": "オウシュウシ",
    "town": "水沢名残",
    "town_kana": "ミズサワナゴリ",
    "street": null,
    "office_name": null,
    "office_name_kana": null
  },
  "0025": {
    "postcode": "0230025",
    "prefecture": "岩手県",
    "prefecture_kana": "イワテケン",
    "prefecture_code": 3,
    "city": "奥州市",
    "city_kana": "オウシュウシ",
    "town": "水沢高網",
    "town_kana": "ミズサワコウアミ",
    "street": null,
    "office_name": null,
    "office_name_kana": null
  },
  "0026": {
    "postcode": "0230026",
    "prefecture": "岩手県",
    "prefecture_kana": "イワテケン",
    "prefecture_code": 3,
    "city": "奥州市",
    "city_kana": "オウシュウシ",
    "town": "水沢里鎗",
    "town_kana": "ミズサワサトヤリ",
    "street": null,
    "office_name": null,
    "office_name_kana": null
  },
  "0027": {
    "postcode": "0230027",
    "prefecture": "岩手県",
    "prefecture_kana": "イワテケン",
    "prefecture_code": 3,
    "city": "奥州市",
    "city_kana": "オウシュウシ",
    "town": "水沢幅下",
    "town_kana": "ミズサワハバシタ",
    "street": null,
    "office_name": null,
    "office_name_kana": null
  },
  "0031": {
    "postcode": "0230031",
    "prefecture": "岩手県",
    "prefecture_kana": "イワテケン",
    "prefecture_code": 3,
    "city": "奥州市",
    "city_kana": "オウシュウシ",
    "town": "水沢北丑沢",
    "town_kana": "ミズサワキタウシザワ",
    "street": null,
    "office_name": null,
    "office_name_kana": null
  },
  "0032": {
    "postcode": "0230032",
    "prefecture": "岩手県",
    "prefecture_kana": "イワテケン",
    "prefecture_code": 3,
    "city": "奥州市",
    "city_kana": "オウシュウシ",
    "town": "水沢多賀",
    "town_kana": "ミズサワタガ",
    "street": null,
    "office_name": null,
    "office_name_kana": null
  },
  "0033": {
    "postcode": "0230033",
    "prefecture": "岩手県",
    "prefecture_kana": "イワテケン",
    "prefecture_code": 3,
    "city": "奥州市",
    "city_kana": "オウシュウシ",
    "town": "水沢不断町",
    "town_kana": "ミズサワフダンチョウ",
    "street": null,
    "office_name": null,
    "office_name_kana": null
  },
  "0034": {
    "postcode": "0230034",
    "prefecture": "岩手県",
    "prefecture_kana": "イワテケン",
    "prefecture_code": 3,
    "city": "奥州市",
    "city_kana": "オウシュウシ",
    "town": "水沢川口町",
    "town_kana": "ミズサワカワグチマチ",
    "street": null,
    "office_name": null,
    "office_name_kana": null
  },
  "0035": {
    "postcode": "0230035",
    "prefecture": "岩手県",
    "prefecture_kana": "イワテケン",
    "prefecture_code": 3,
    "city": "奥州市",
    "city_kana": "オウシュウシ",
    "town": "水沢赤土田",
    "town_kana": "ミズサワアカツチダ",
    "street": null,
    "office_name": null,
    "office_name_kana": null
  },
  "0036": {
    "postcode": "0230036",
    "prefecture": "岩手県",
    "prefecture_kana": "イワテケン",
    "prefecture_code": 3,
    "city": "奥州市",
    "city_kana": "オウシュウシ",
    "town": "水沢北栗林",
    "town_kana": "ミズサワキタクリバヤシ",
    "street": null,
    "office_name": null,
    "office_name_kana": null
  },
  "0037": {
    "postcode": "0230037",
    "prefecture": "岩手県",
    "prefecture_kana": "イワテケン",
    "prefecture_code": 3,
    "city": "奥州市",
    "city_kana": "オウシュウシ",
    "town": "水沢南丑沢",
    "town_kana": "ミズサワミナミウシザワ",
    "street": null,
    "office_name": null,
    "office_name_kana": null
  },
  "0041": {
    "postcode": "0230041",
    "prefecture": "岩手県",
    "prefecture_kana": "イワテケン",
    "prefecture_code": 3,
    "city": "奥州市",
    "city_kana": "オウシュウシ",
    "town": "水沢秋葉町",
    "town_kana": "ミズサワアキバチョウ",
    "street": null,
    "office_name": null,
    "office_name_kana": null
  },
  "0042": {
    "postcode": "0230042",
    "prefecture": "岩手県",
    "prefecture_kana": "イワテケン",
    "prefecture_code": 3,
    "city": "奥州市",
    "city_kana": "オウシュウシ",
    "town": "水沢柳町",
    "town_kana": "ミズサワヤナギマチ",
    "street": null,
    "office_name": null,
    "office_name_kana": null
  },
  "0043": {
    "postcode": "0230043",
    "prefecture": "岩手県",
    "prefecture_kana": "イワテケン",
    "prefecture_code": 3,
    "city": "奥州市",
    "city_kana": "オウシュウシ",
    "town": "水沢道合",
    "town_kana": "ミズサワミチアイ",
    "street": null,
    "office_name": null,
    "office_name_kana": null
  },
  "0044": {
    "postcode": "0230044",
    "prefecture": "岩手県",
    "prefecture_kana": "イワテケン",
    "prefecture_code": 3,
    "city": "奥州市",
    "city_kana": "オウシュウシ",
    "town": "水沢三本木",
    "town_kana": "ミズサワサンボンギ",
    "street": null,
    "office_name": null,
    "office_name_kana": null
  },
  "0045": {
    "postcode": "0230045",
    "prefecture": "岩手県",
    "prefecture_kana": "イワテケン",
    "prefecture_code": 3,
    "city": "奥州市",
    "city_kana": "オウシュウシ",
    "town": "水沢大町",
    "town_kana": "ミズサワオオマチ",
    "street": null,
    "office_name": null,
    "office_name_kana": null
  },
  "0046": {
    "postcode": "0230046",
    "prefecture": "岩手県",
    "prefecture_kana": "イワテケン",
    "prefecture_code": 3,
    "city": "奥州市",
    "city_kana": "オウシュウシ",
    "town": "水沢川原小路",
    "town_kana": "ミズサワカワラコウジ",
    "street": null,
    "office_name": null,
    "office_name_kana": null
  },
  "0047": {
    "postcode": "0230047",
    "prefecture": "岩手県",
    "prefecture_kana": "イワテケン",
    "prefecture_code": 3,
    "city": "奥州市",
    "city_kana": "オウシュウシ",
    "town": "水沢立町",
    "town_kana": "ミズサワタチマチ",
    "street": null,
    "office_name": null,
    "office_name_kana": null
  },
  "0051": {
    "postcode": "0230051",
    "prefecture": "岩手県",
    "prefecture_kana": "イワテケン",
    "prefecture_code": 3,
    "city": "奥州市",
    "city_kana": "オウシュウシ",
    "town": "水沢勝手町",
    "town_kana": "ミズサワカッテチョウ",
    "street": null,
    "office_name": null,
    "office_name_kana": null
  },
  "0052": {
    "postcode": "0230052",
    "prefecture": "岩手県",
    "prefecture_kana": "イワテケン",
    "prefecture_code": 3,
    "city": "奥州市",
    "city_kana": "オウシュウシ",
    "town": "水沢搦手丁",
    "town_kana": "ミズサワカラメテチョウ",
    "street": null,
    "office_name": null,
    "office_name_kana": null
  },
  "0053": {
    "postcode": "0230053",
    "prefecture": "岩手県",
    "prefecture_kana": "イワテケン",
    "prefecture_code": 3,
    "city": "奥州市",
    "city_kana": "オウシュウシ",
    "town": "水沢大手町",
    "town_kana": "ミズサワオオテマチ",
    "street": null,
    "office_name": null,
    "office_name_kana": null
  },
  "0054": {
    "postcode": "0230054",
    "prefecture": "岩手県",
    "prefecture_kana": "イワテケン",
    "prefecture_code": 3,
    "city": "奥州市",
    "city_kana": "オウシュウシ",
    "town": "水沢吉小路",
    "town_kana": "ミズサワキチコウジ",
    "street": null,
    "office_name": null,
    "office_name_kana": null
  },
  "0055": {
    "postcode": "0230055",
    "prefecture": "岩手県",
    "prefecture_kana": "イワテケン",
    "prefecture_code": 3,
    "city": "奥州市",
    "city_kana": "オウシュウシ",
    "town": "水沢虚空蔵小路",
    "town_kana": "ミズサワコクゾウコウジ",
    "street": null,
    "office_name": null,
    "office_name_kana": null
  },
  "0056": {
    "postcode": "0230056",
    "prefecture": "岩手県",
    "prefecture_kana": "イワテケン",
    "prefecture_code": 3,
    "city": "奥州市",
    "city_kana": "オウシュウシ",
    "town": "水沢久田",
    "town_kana": "ミズサワキュウデン",
    "street": null,
    "office_name": null,
    "office_name_kana": null
  },
  "0057": {
    "postcode": "0230057",
    "prefecture": "岩手県",
    "prefecture_kana": "イワテケン",
    "prefecture_code": 3,
    "city": "奥州市",
    "city_kana": "オウシュウシ",
    "town": "水沢上町",
    "town_kana": "ミズサワウワマチ",
    "street": null,
    "office_name": null,
    "office_name_kana": null
  },
  "0058": {
    "postcode": "0230058",
    "prefecture": "岩手県",
    "prefecture_kana": "イワテケン",
    "prefecture_code": 3,
    "city": "奥州市",
    "city_kana": "オウシュウシ",
    "town": "水沢堀ノ内",
    "town_kana": "ミズサワホリノウチ",
    "street": null,
    "office_name": null,
    "office_name_kana": null
  },
  "0061": {
    "postcode": "0230061",
    "prefecture": "岩手県",
    "prefecture_kana": "イワテケン",
    "prefecture_code": 3,
    "city": "奥州市",
    "city_kana": "オウシュウシ",
    "town": "水沢長町",
    "town_kana": "ミズサワナガマチ",
    "street": null,
    "office_name": null,
    "office_name_kana": null
  },
  "0062": {
    "postcode": "0230062",
    "prefecture": "岩手県",
    "prefecture_kana": "イワテケン",
    "prefecture_code": 3,
    "city": "奥州市",
    "city_kana": "オウシュウシ",
    "town": "水沢小石田",
    "town_kana": "ミズサワコイシダ",
    "street": null,
    "office_name": null,
    "office_name_kana": null
  },
  "0063": {
    "postcode": "0230063",
    "prefecture": "岩手県",
    "prefecture_kana": "イワテケン",
    "prefecture_code": 3,
    "city": "奥州市",
    "city_kana": "オウシュウシ",
    "town": "水沢聖天",
    "town_kana": "ミズサワショウテン",
    "street": null,
    "office_name": null,
    "office_name_kana": null
  },
  "0064": {
    "postcode": "0230064",
    "prefecture": "岩手県",
    "prefecture_kana": "イワテケン",
    "prefecture_code": 3,
    "city": "奥州市",
    "city_kana": "オウシュウシ",
    "town": "水沢土器田",
    "town_kana": "ミズサワドキタ",
    "street": null,
    "office_name": null,
    "office_name_kana": null
  },
  "0065": {
    "postcode": "0230065",
    "prefecture": "岩手県",
    "prefecture_kana": "イワテケン",
    "prefecture_code": 3,
    "city": "奥州市",
    "city_kana": "オウシュウシ",
    "town": "水沢水山",
    "town_kana": "ミズサワミズヤマ",
    "street": null,
    "office_name": null,
    "office_name_kana": null
  },
  "0066": {
    "postcode": "0230066",
    "prefecture": "岩手県",
    "prefecture_kana": "イワテケン",
    "prefecture_code": 3,
    "city": "奥州市",
    "city_kana": "オウシュウシ",
    "town": "水沢前田袋",
    "town_kana": "ミズサワマエタブクロ",
    "street": null,
    "office_name": null,
    "office_name_kana": null
  },
  "0067": {
    "postcode": "0230067",
    "prefecture": "岩手県",
    "prefecture_kana": "イワテケン",
    "prefecture_code": 3,
    "city": "奥州市",
    "city_kana": "オウシュウシ",
    "town": "水沢二反田",
    "town_kana": "ミズサワニタンダ",
    "street": null,
    "office_name": null,
    "office_name_kana": null
  },
  "0071": {
    "postcode": "0230071",
    "prefecture": "岩手県",
    "prefecture_kana": "イワテケン",
    "prefecture_code": 3,
    "city": "奥州市",
    "city_kana": "オウシュウシ",
    "town": "水沢黒子",
    "town_kana": "ミズサワクロコ",
    "street": null,
    "office_name": null,
    "office_name_kana": null
  },
  "0072": {
    "postcode": "0230072",
    "prefecture": "岩手県",
    "prefecture_kana": "イワテケン",
    "prefecture_code": 3,
    "city": "奥州市",
    "city_kana": "オウシュウシ",
    "town": "水沢樋渡",
    "town_kana": "ミズサワヒワタシ",
    "street": null,
    "office_name": null,
    "office_name_kana": null
  },
  "0073": {
    "postcode": "0230073",
    "prefecture": "岩手県",
    "prefecture_kana": "イワテケン",
    "prefecture_code": 3,
    "city": "奥州市",
    "city_kana": "オウシュウシ",
    "town": "水沢寺領",
    "town_kana": "ミズサワジリョウ",
    "street": null,
    "office_name": null,
    "office_name_kana": null
  },
  "0074": {
    "postcode": "0230074",
    "prefecture": "岩手県",
    "prefecture_kana": "イワテケン",
    "prefecture_code": 3,
    "city": "奥州市",
    "city_kana": "オウシュウシ",
    "town": "水沢極楽",
    "town_kana": "ミズサワゴクラク",
    "street": null,
    "office_name": null,
    "office_name_kana": null
  },
  "0075": {
    "postcode": "0230075",
    "prefecture": "岩手県",
    "prefecture_kana": "イワテケン",
    "prefecture_code": 3,
    "city": "奥州市",
    "city_kana": "オウシュウシ",
    "town": "水沢水ノ口",
    "town_kana": "ミズサワミノクチ",
    "street": null,
    "office_name": null,
    "office_name_kana": null
  },
  "0076": {
    "postcode": "0230076",
    "prefecture": "岩手県",
    "prefecture_kana": "イワテケン",
    "prefecture_code": 3,
    "city": "奥州市",
    "city_kana": "オウシュウシ",
    "town": "水沢造道",
    "town_kana": "ミズサワツクリミチ",
    "street": null,
    "office_name": null,
    "office_name_kana": null
  },
  "0077": {
    "postcode": "0230077",
    "prefecture": "岩手県",
    "prefecture_kana": "イワテケン",
    "prefecture_code": 3,
    "city": "奥州市",
    "city_kana": "オウシュウシ",
    "town": "水沢桑畑",
    "town_kana": "ミズサワクワバタ",
    "street": null,
    "office_name": null,
    "office_name_kana": null
  },
  "0081": {
    "postcode": "0230081",
    "prefecture": "岩手県",
    "prefecture_kana": "イワテケン",
    "prefecture_code": 3,
    "city": "奥州市",
    "city_kana": "オウシュウシ",
    "town": "水沢橇町",
    "town_kana": "ミズサワソリマチ",
    "street": null,
    "office_name": null,
    "office_name_kana": null
  },
  "0082": {
    "postcode": "0230082",
    "prefecture": "岩手県",
    "prefecture_kana": "イワテケン",
    "prefecture_code": 3,
    "city": "奥州市",
    "city_kana": "オウシュウシ",
    "town": "水沢東半郷",
    "town_kana": "ミズサワヒガシハンゴウ",
    "street": null,
    "office_name": null,
    "office_name_kana": null
  },
  "0083": {
    "postcode": "0230083",
    "prefecture": "岩手県",
    "prefecture_kana": "イワテケン",
    "prefecture_code": 3,
    "city": "奥州市",
    "city_kana": "オウシュウシ",
    "town": "水沢前郷",
    "town_kana": "ミズサワゼンゴウ",
    "street": null,
    "office_name": null,
    "office_name_kana": null
  },
  "0084": {
    "postcode": "0230084",
    "prefecture": "岩手県",
    "prefecture_kana": "イワテケン",
    "prefecture_code": 3,
    "city": "奥州市",
    "city_kana": "オウシュウシ",
    "town": "水沢大上",
    "town_kana": "ミズサワオオガミ",
    "street": null,
    "office_name": null,
    "office_name_kana": null
  },
  "0085": {
    "postcode": "0230085",
    "prefecture": "岩手県",
    "prefecture_kana": "イワテケン",
    "prefecture_code": 3,
    "city": "奥州市",
    "city_kana": "オウシュウシ",
    "town": "水沢踊子",
    "town_kana": "ミズサワオドリコ",
    "street": null,
    "office_name": null,
    "office_name_kana": null
  },
  "0086": {
    "postcode": "0230086",
    "prefecture": "岩手県",
    "prefecture_kana": "イワテケン",
    "prefecture_code": 3,
    "city": "奥州市",
    "city_kana": "オウシュウシ",
    "town": "水沢谷地中",
    "town_kana": "ミズサワヤチナカ",
    "street": null,
    "office_name": null,
    "office_name_kana": null
  },
  "0087": {
    "postcode": "0230087",
    "prefecture": "岩手県",
    "prefecture_kana": "イワテケン",
    "prefecture_code": 3,
    "city": "奥州市",
    "city_kana": "オウシュウシ",
    "town": "水沢高谷宿",
    "town_kana": "ミズサワコウヤシュク",
    "street": null,
    "office_name": null,
    "office_name_kana": null
  },
  "0091": {
    "postcode": "0230091",
    "prefecture": "岩手県",
    "prefecture_kana": "イワテケン",
    "prefecture_code": 3,
    "city": "奥州市",
    "city_kana": "オウシュウシ",
    "town": "水沢高山",
    "town_kana": "ミズサワタカヤマ",
    "street": null,
    "office_name": null,
    "office_name_kana": null
  },
  "0092": {
    "postcode": "0230092",
    "prefecture": "岩手県",
    "prefecture_kana": "イワテケン",
    "prefecture_code": 3,
    "city": "奥州市",
    "city_kana": "オウシュウシ",
    "town": "水沢北半郷",
    "town_kana": "ミズサワキタハンゴウ",
    "street": null,
    "office_name": null,
    "office_name_kana": null
  },
  "0093": {
    "postcode": "0230093",
    "prefecture": "岩手県",
    "prefecture_kana": "イワテケン",
    "prefecture_code": 3,
    "city": "奥州市",
    "city_kana": "オウシュウシ",
    "town": "水沢水神",
    "town_kana": "ミズサワミズガミ",
    "street": null,
    "office_name": null,
    "office_name_kana": null
  },
  "0094": {
    "postcode": "0230094",
    "prefecture": "岩手県",
    "prefecture_kana": "イワテケン",
    "prefecture_code": 3,
    "city": "奥州市",
    "city_kana": "オウシュウシ",
    "town": "水沢五輪",
    "town_kana": "ミズサワゴリン",
    "street": null,
    "office_name": null,
    "office_name_kana": null
  },
  "0095": {
    "postcode": "0230095",
    "prefecture": "岩手県",
    "prefecture_kana": "イワテケン",
    "prefecture_code": 3,
    "city": "奥州市",
    "city_kana": "オウシュウシ",
    "town": "水沢雀田",
    "town_kana": "ミズサワスズメダ",
    "street": null,
    "office_name": null,
    "office_name_kana": null
  },
  "0096": {
    "postcode": "0230096",
    "prefecture": "岩手県",
    "prefecture_kana": "イワテケン",
    "prefecture_code": 3,
    "city": "奥州市",
    "city_kana": "オウシュウシ",
    "town": "水沢向田",
    "town_kana": "ミズサワムカイダ",
    "street": null,
    "office_name": null,
    "office_name_kana": null
  },
  "0101": {
    "postcode": "0230101",
    "prefecture": "岩手県",
    "prefecture_kana": "イワテケン",
    "prefecture_code": 3,
    "city": "奥州市",
    "city_kana": "オウシュウシ",
    "town": "水沢黒石町",
    "town_kana": "ミズサワクロイシチョウ",
    "street": null,
    "office_name": null,
    "office_name_kana": null
  },
  "0102": {
    "postcode": "0230102",
    "prefecture": "岩手県",
    "prefecture_kana": "イワテケン",
    "prefecture_code": 3,
    "city": "奥州市",
    "city_kana": "オウシュウシ",
    "town": "水沢羽田町駅東",
    "town_kana": "ミズサワハダチョウエキヒガシ",
    "street": null,
    "office_name": null,
    "office_name_kana": null
  },
  "0103": {
    "postcode": "0230103",
    "prefecture": "岩手県",
    "prefecture_kana": "イワテケン",
    "prefecture_code": 3,
    "city": "奥州市",
    "city_kana": "オウシュウシ",
    "town": "水沢羽田町駅南",
    "town_kana": "ミズサワハダチョウエキミナミ",
    "street": null,
    "office_name": null,
    "office_name_kana": null
  },
  "0104": {
    "postcode": "0230104",
    "prefecture": "岩手県",
    "prefecture_kana": "イワテケン",
    "prefecture_code": 3,
    "city": "奥州市",
    "city_kana": "オウシュウシ",
    "town": "水沢羽田町駅前",
    "town_kana": "ミズサワハダチョウエキマエ",
    "street": null,
    "office_name": null,
    "office_name_kana": null
  },
  "0105": {
    "postcode": "0230105",
    "prefecture": "岩手県",
    "prefecture_kana": "イワテケン",
    "prefecture_code": 3,
    "city": "奥州市",
    "city_kana": "オウシュウシ",
    "town": "水沢羽田町宝生",
    "town_kana": "ミズサワハダチョウホウショウ",
    "street": null,
    "office_name": null,
    "office_name_kana": null
  },
  "0106": {
    "postcode": "0230106",
    "prefecture": "岩手県",
    "prefecture_kana": "イワテケン",
    "prefecture_code": 3,
    "city": "奥州市",
    "city_kana": "オウシュウシ",
    "town": "水沢羽田町久保",
    "town_kana": "ミズサワハダチョウクボ",
    "street": null,
    "office_name": null,
    "office_name_kana": null
  },
  "0107": {
    "postcode": "0230107",
    "prefecture": "岩手県",
    "prefecture_kana": "イワテケン",
    "prefecture_code": 3,
    "city": "奥州市",
    "city_kana": "オウシュウシ",
    "town": "水沢羽田町宝柳木",
    "town_kana": "ミズサワハダチョウホウリュウギ",
    "street": null,
    "office_name": null,
    "office_name_kana": null
  },
  "0108": {
    "postcode": "0230108",
    "prefecture": "岩手県",
    "prefecture_kana": "イワテケン",
    "prefecture_code": 3,
    "city": "奥州市",
    "city_kana": "オウシュウシ",
    "town": "水沢羽田町向畑",
    "town_kana": "ミズサワハダチョウムカイハタ",
    "street": null,
    "office_name": null,
    "office_name_kana": null
  },
  "0132": {
    "postcode": "0230132",
    "prefecture": "岩手県",
    "prefecture_kana": "イワテケン",
    "prefecture_code": 3,
    "city": "奥州市",
    "city_kana": "オウシュウシ",
    "town": "水沢羽田町",
    "town_kana": "ミズサワハダチョウ",
    "street": null,
    "office_name": null,
    "office_name_kana": null
  },
  "0171": {
    "postcode": "0230171",
    "prefecture": "岩手県",
    "prefecture_kana": "イワテケン",
    "prefecture_code": 3,
    "city": "奥州市",
    "city_kana": "オウシュウシ",
    "town": "江刺田原",
    "town_kana": "エサシタワラ",
    "street": null,
    "office_name": null,
    "office_name_kana": null
  },
  "0401": {
    "postcode": "0230401",
    "prefecture": "岩手県",
    "prefecture_kana": "イワテケン",
    "prefecture_code": 3,
    "city": "奥州市",
    "city_kana": "オウシュウシ",
    "town": "胆沢南都田",
    "town_kana": "イサワナツタ",
    "street": null,
    "office_name": null,
    "office_name_kana": null
  },
  "0402": {
    "postcode": "0230402",
    "prefecture": "岩手県",
    "prefecture_kana": "イワテケン",
    "prefecture_code": 3,
    "city": "奥州市",
    "city_kana": "オウシュウシ",
    "town": "胆沢小山",
    "town_kana": "イサワオヤマ",
    "street": null,
    "office_name": null,
    "office_name_kana": null
  },
  "0403": {
    "postcode": "0230403",
    "prefecture": "岩手県",
    "prefecture_kana": "イワテケン",
    "prefecture_code": 3,
    "city": "奥州市",
    "city_kana": "オウシュウシ",
    "town": "胆沢若柳",
    "town_kana": "イサワワカヤナギ",
    "street": null,
    "office_name": null,
    "office_name_kana": null
  },
  "0492": {
    "postcode": "0230492",
    "prefecture": "岩手県",
    "prefecture_kana": "イワテケン",
    "prefecture_code": 3,
    "city": "奥州市",
    "city_kana": "オウシュウシ",
    "town": "胆沢南都田",
    "town_kana": "イサワナツタ",
    "street": "字加賀谷地２７０",
    "office_name": "奥州市　胆沢総合支所",
    "office_name_kana": "オウシユウシ イサワソウゴウシシヨ"
  },
  "0493": {
    "postcode": "0230493",
    "prefecture": "岩手県",
    "prefecture_kana": "イワテケン",
    "prefecture_code": 3,
    "city": "奥州市",
    "city_kana": "オウシュウシ",
    "town": "胆沢小山",
    "town_kana": "イサワオヤマ",
    "street": "字下野中２−５",
    "office_name": "（株）　小山製麺",
    "office_name_kana": "カブシキカイシヤ オヤマセイメン"
  },
  "0801": {
    "postcode": "0230801",
    "prefecture": "岩手県",
    "prefecture_kana": "イワテケン",
    "prefecture_code": 3,
    "city": "奥州市",
    "city_kana": "オウシュウシ",
    "town": "水沢横町",
    "town_kana": "ミズサワヨコマチ",
    "street": null,
    "office_name": null,
    "office_name_kana": null
  },
  "0802": {
    "postcode": "0230802",
    "prefecture": "岩手県",
    "prefecture_kana": "イワテケン",
    "prefecture_code": 3,
    "city": "奥州市",
    "city_kana": "オウシュウシ",
    "town": "水沢大畑小路",
    "town_kana": "ミズサワオオバタケコウジ",
    "street": null,
    "office_name": null,
    "office_name_kana": null
  },
  "0803": {
    "postcode": "0230803",
    "prefecture": "岩手県",
    "prefecture_kana": "イワテケン",
    "prefecture_code": 3,
    "city": "奥州市",
    "city_kana": "オウシュウシ",
    "town": "水沢田小路",
    "town_kana": "ミズサワタコウジ",
    "street": null,
    "office_name": null,
    "office_name_kana": null
  },
  "0804": {
    "postcode": "0230804",
    "prefecture": "岩手県",
    "prefecture_kana": "イワテケン",
    "prefecture_code": 3,
    "city": "奥州市",
    "city_kana": "オウシュウシ",
    "town": "水沢谷地明円",
    "town_kana": "ミズサワヤチミョウエン",
    "street": null,
    "office_name": null,
    "office_name_kana": null
  },
  "0805": {
    "postcode": "0230805",
    "prefecture": "岩手県",
    "prefecture_kana": "イワテケン",
    "prefecture_code": 3,
    "city": "奥州市",
    "city_kana": "オウシュウシ",
    "town": "水沢斉の神",
    "town_kana": "ミズサワサイノカミ",
    "street": null,
    "office_name": null,
    "office_name_kana": null
  },
  "0806": {
    "postcode": "0230806",
    "prefecture": "岩手県",
    "prefecture_kana": "イワテケン",
    "prefecture_code": 3,
    "city": "奥州市",
    "city_kana": "オウシュウシ",
    "town": "水沢日高西",
    "town_kana": "ミズサワヒタカニシ",
    "street": null,
    "office_name": null,
    "office_name_kana": null
  },
  "0807": {
    "postcode": "0230807",
    "prefecture": "岩手県",
    "prefecture_kana": "イワテケン",
    "prefecture_code": 3,
    "city": "奥州市",
    "city_kana": "オウシュウシ",
    "town": "水沢新小路",
    "town_kana": "ミズサワシンコウジ",
    "street": null,
    "office_name": null,
    "office_name_kana": null
  },
  "0808": {
    "postcode": "0230808",
    "prefecture": "岩手県",
    "prefecture_kana": "イワテケン",
    "prefecture_code": 3,
    "city": "奥州市",
    "city_kana": "オウシュウシ",
    "town": "水沢日高小路",
    "town_kana": "ミズサワヒタカコウジ",
    "street": null,
    "office_name": null,
    "office_name_kana": null
  },
  "0811": {
    "postcode": "0230811",
    "prefecture": "岩手県",
    "prefecture_kana": "イワテケン",
    "prefecture_code": 3,
    "city": "奥州市",
    "city_kana": "オウシュウシ",
    "town": "水沢寺小路",
    "town_kana": "ミズサワテラコウジ",
    "street": null,
    "office_name": null,
    "office_name_kana": null
  },
  "0812": {
    "postcode": "0230812",
    "prefecture": "岩手県",
    "prefecture_kana": "イワテケン",
    "prefecture_code": 3,
    "city": "奥州市",
    "city_kana": "オウシュウシ",
    "town": "水沢寺脇",
    "town_kana": "ミズサワテラワキ",
    "street": null,
    "office_name": null,
    "office_name_kana": null
  },
  "0813": {
    "postcode": "0230813",
    "prefecture": "岩手県",
    "prefecture_kana": "イワテケン",
    "prefecture_code": 3,
    "city": "奥州市",
    "city_kana": "オウシュウシ",
    "town": "水沢中町",
    "town_kana": "ミズサワナカマチ",
    "street": null,
    "office_name": null,
    "office_name_kana": null
  },
  "0814": {
    "postcode": "0230814",
    "prefecture": "岩手県",
    "prefecture_kana": "イワテケン",
    "prefecture_code": 3,
    "city": "奥州市",
    "city_kana": "オウシュウシ",
    "town": "水沢袋町",
    "town_kana": "ミズサワフクロマチ",
    "street": null,
    "office_name": null,
    "office_name_kana": null
  },
  "0815": {
    "postcode": "0230815",
    "prefecture": "岩手県",
    "prefecture_kana": "イワテケン",
    "prefecture_code": 3,
    "city": "奥州市",
    "city_kana": "オウシュウシ",
    "town": "水沢天文台通り",
    "town_kana": "ミズサワテンモンダイドオリ",
    "street": null,
    "office_name": null,
    "office_name_kana": null
  },
  "0816": {
    "postcode": "0230816",
    "prefecture": "岩手県",
    "prefecture_kana": "イワテケン",
    "prefecture_code": 3,
    "city": "奥州市",
    "city_kana": "オウシュウシ",
    "town": "水沢西町",
    "town_kana": "ミズサワニシマチ",
    "street": null,
    "office_name": null,
    "office_name_kana": null
  },
  "0817": {
    "postcode": "0230817",
    "prefecture": "岩手県",
    "prefecture_kana": "イワテケン",
    "prefecture_code": 3,
    "city": "奥州市",
    "city_kana": "オウシュウシ",
    "town": "水沢宮下町",
    "town_kana": "ミズサワミヤシタチョウ",
    "street": null,
    "office_name": null,
    "office_name_kana": null
  },
  "0818": {
    "postcode": "0230818",
    "prefecture": "岩手県",
    "prefecture_kana": "イワテケン",
    "prefecture_code": 3,
    "city": "奥州市",
    "city_kana": "オウシュウシ",
    "town": "水沢東町",
    "town_kana": "ミズサワアズマチョウ",
    "street": null,
    "office_name": null,
    "office_name_kana": null
  },
  "0821": {
    "postcode": "0230821",
    "prefecture": "岩手県",
    "prefecture_kana": "イワテケン",
    "prefecture_code": 3,
    "city": "奥州市",
    "city_kana": "オウシュウシ",
    "town": "水沢神明町",
    "town_kana": "ミズサワシンメイチョウ",
    "street": null,
    "office_name": null,
    "office_name_kana": null
  },
  "0822": {
    "postcode": "0230822",
    "prefecture": "岩手県",
    "prefecture_kana": "イワテケン",
    "prefecture_code": 3,
    "city": "奥州市",
    "city_kana": "オウシュウシ",
    "town": "水沢東中通り",
    "town_kana": "ミズサワヒガシナカドオリ",
    "street": null,
    "office_name": null,
    "office_name_kana": null
  },
  "0823": {
    "postcode": "0230823",
    "prefecture": "岩手県",
    "prefecture_kana": "イワテケン",
    "prefecture_code": 3,
    "city": "奥州市",
    "city_kana": "オウシュウシ",
    "town": "水沢朝日町",
    "town_kana": "ミズサワアサヒチョウ",
    "street": null,
    "office_name": null,
    "office_name_kana": null
  },
  "0824": {
    "postcode": "0230824",
    "prefecture": "岩手県",
    "prefecture_kana": "イワテケン",
    "prefecture_code": 3,
    "city": "奥州市",
    "city_kana": "オウシュウシ",
    "town": "水沢泉町",
    "town_kana": "ミズサワイズミチョウ",
    "street": null,
    "office_name": null,
    "office_name_kana": null
  },
  "0825": {
    "postcode": "0230825",
    "prefecture": "岩手県",
    "prefecture_kana": "イワテケン",
    "prefecture_code": 3,
    "city": "奥州市",
    "city_kana": "オウシュウシ",
    "town": "水沢台町",
    "town_kana": "ミズサワダイマチ",
    "street": null,
    "office_name": null,
    "office_name_kana": null
  },
  "0826": {
    "postcode": "0230826",
    "prefecture": "岩手県",
    "prefecture_kana": "イワテケン",
    "prefecture_code": 3,
    "city": "奥州市",
    "city_kana": "オウシュウシ",
    "town": "水沢中田町",
    "town_kana": "ミズサワナカダチョウ",
    "street": null,
    "office_name": null,
    "office_name_kana": null
  },
  "0827": {
    "postcode": "0230827",
    "prefecture": "岩手県",
    "prefecture_kana": "イワテケン",
    "prefecture_code": 3,
    "city": "奥州市",
    "city_kana": "オウシュウシ",
    "town": "水沢太日通り",
    "town_kana": "ミズサワタイニチドオリ",
    "street": null,
    "office_name": null,
    "office_name_kana": null
  },
  "0828": {
    "postcode": "0230828",
    "prefecture": "岩手県",
    "prefecture_kana": "イワテケン",
    "prefecture_code": 3,
    "city": "奥州市",
    "city_kana": "オウシュウシ",
    "town": "水沢東大通り",
    "town_kana": "ミズサワヒガシオオドオリ",
    "street": null,
    "office_name": null,
    "office_name_kana": null
  },
  "0829": {
    "postcode": "0230829",
    "prefecture": "岩手県",
    "prefecture_kana": "イワテケン",
    "prefecture_code": 3,
    "city": "奥州市",
    "city_kana": "オウシュウシ",
    "town": "水沢花園町",
    "town_kana": "ミズサワハナゾノチョウ",
    "street": null,
    "office_name": null,
    "office_name_kana": null
  },
  "0831": {
    "postcode": "0230831",
    "prefecture": "岩手県",
    "prefecture_kana": "イワテケン",
    "prefecture_code": 3,
    "city": "奥州市",
    "city_kana": "オウシュウシ",
    "town": "水沢姉体町",
    "town_kana": "ミズサワアネタイチョウ",
    "street": null,
    "office_name": null,
    "office_name_kana": null
  },
  "0832": [
    {
      "postcode": "0230832",
      "prefecture": "岩手県",
      "prefecture_kana": "イワテケン",
      "prefecture_code": 3,
      "city": "奥州市",
      "city_kana": "オウシュウシ",
      "town": "水沢羽田町",
      "town_kana": "ミズサワハダチョウ",
      "street": null,
      "office_name": null,
      "office_name_kana": null
    },
    {
      "postcode": "0230832",
      "prefecture": "岩手県",
      "prefecture_kana": "イワテケン",
      "prefecture_code": 3,
      "city": "奥州市",
      "city_kana": "オウシュウシ",
      "town": "水沢羽田町草井沼",
      "town_kana": "ミズサワハダチョウクサイヌマ",
      "street": null,
      "office_name": null,
      "office_name_kana": null
    },
    {
      "postcode": "0230832",
      "prefecture": "岩手県",
      "prefecture_kana": "イワテケン",
      "prefecture_code": 3,
      "city": "奥州市",
      "city_kana": "オウシュウシ",
      "town": "水沢羽田町下沼",
      "town_kana": "ミズサワハダチョウシモヌマ",
      "street": null,
      "office_name": null,
      "office_name_kana": null
    },
    {
      "postcode": "0230832",
      "prefecture": "岩手県",
      "prefecture_kana": "イワテケン",
      "prefecture_code": 3,
      "city": "奥州市",
      "city_kana": "オウシュウシ",
      "town": "水沢羽田町谷木",
      "town_kana": "ミズサワハダチョウヤギ",
      "street": null,
      "office_name": null,
      "office_name_kana": null
    },
    {
      "postcode": "0230832",
      "prefecture": "岩手県",
      "prefecture_kana": "イワテケン",
      "prefecture_code": 3,
      "city": "奥州市",
      "city_kana": "オウシュウシ",
      "town": "水沢羽田町元谷木",
      "town_kana": "ミズサワハダチョウモトヤギ",
      "street": null,
      "office_name": null,
      "office_name_kana": null
    }
  ],
  "0833": {
    "postcode": "0230833",
    "prefecture": "岩手県",
    "prefecture_kana": "イワテケン",
    "prefecture_code": 3,
    "city": "奥州市",
    "city_kana": "オウシュウシ",
    "town": "水沢上姉体",
    "town_kana": "ミズサワカミアネタイ",
    "street": null,
    "office_name": null,
    "office_name_kana": null
  },
  "0841": {
    "postcode": "0230841",
    "prefecture": "岩手県",
    "prefecture_kana": "イワテケン",
    "prefecture_code": 3,
    "city": "奥州市",
    "city_kana": "オウシュウシ",
    "town": "水沢真城",
    "town_kana": "ミズサワシンジョウ",
    "street": null,
    "office_name": null,
    "office_name_kana": null
  },
  "0842": {
    "postcode": "0230842",
    "prefecture": "岩手県",
    "prefecture_kana": "イワテケン",
    "prefecture_code": 3,
    "city": "奥州市",
    "city_kana": "オウシュウシ",
    "town": "水沢真城が丘",
    "town_kana": "ミズサワシンジョウガオカ",
    "street": null,
    "office_name": null,
    "office_name_kana": null
  },
  "0851": {
    "postcode": "0230851",
    "prefecture": "岩手県",
    "prefecture_kana": "イワテケン",
    "prefecture_code": 3,
    "city": "奥州市",
    "city_kana": "オウシュウシ",
    "town": "水沢南町",
    "town_kana": "ミズサワミナミマチ",
    "street": null,
    "office_name": null,
    "office_name_kana": null
  },
  "0852": {
    "postcode": "0230852",
    "prefecture": "岩手県",
    "prefecture_kana": "イワテケン",
    "prefecture_code": 3,
    "city": "奥州市",
    "city_kana": "オウシュウシ",
    "town": "水沢山崎町",
    "town_kana": "ミズサワヤマザキチョウ",
    "street": null,
    "office_name": null,
    "office_name_kana": null
  },
  "0853": {
    "postcode": "0230853",
    "prefecture": "岩手県",
    "prefecture_kana": "イワテケン",
    "prefecture_code": 3,
    "city": "奥州市",
    "city_kana": "オウシュウシ",
    "town": "水沢東上野町",
    "town_kana": "ミズサワヒガシウワノチョウ",
    "street": null,
    "office_name": null,
    "office_name_kana": null
  },
  "0854": {
    "postcode": "0230854",
    "prefecture": "岩手県",
    "prefecture_kana": "イワテケン",
    "prefecture_code": 3,
    "city": "奥州市",
    "city_kana": "オウシュウシ",
    "town": "水沢大鐘町",
    "town_kana": "ミズサワオオガネチョウ",
    "street": null,
    "office_name": null,
    "office_name_kana": null
  },
  "0855": {
    "postcode": "0230855",
    "prefecture": "岩手県",
    "prefecture_kana": "イワテケン",
    "prefecture_code": 3,
    "city": "奥州市",
    "city_kana": "オウシュウシ",
    "town": "水沢南大鐘",
    "town_kana": "ミズサワミナミオオガネ",
    "street": null,
    "office_name": null,
    "office_name_kana": null
  },
  "0856": {
    "postcode": "0230856",
    "prefecture": "岩手県",
    "prefecture_kana": "イワテケン",
    "prefecture_code": 3,
    "city": "奥州市",
    "city_kana": "オウシュウシ",
    "town": "水沢西上野町",
    "town_kana": "ミズサワニシウワノチョウ",
    "street": null,
    "office_name": null,
    "office_name_kana": null
  },
  "0857": {
    "postcode": "0230857",
    "prefecture": "岩手県",
    "prefecture_kana": "イワテケン",
    "prefecture_code": 3,
    "city": "奥州市",
    "city_kana": "オウシュウシ",
    "town": "水沢中上野町",
    "town_kana": "ミズサワナカウワノチョウ",
    "street": null,
    "office_name": null,
    "office_name_kana": null
  },
  "0861": {
    "postcode": "0230861",
    "prefecture": "岩手県",
    "prefecture_kana": "イワテケン",
    "prefecture_code": 3,
    "city": "奥州市",
    "city_kana": "オウシュウシ",
    "town": "水沢星ガ丘町",
    "town_kana": "ミズサワホシガオカチョウ",
    "street": null,
    "office_name": null,
    "office_name_kana": null
  },
  "0862": {
    "postcode": "0230862",
    "prefecture": "岩手県",
    "prefecture_kana": "イワテケン",
    "prefecture_code": 3,
    "city": "奥州市",
    "city_kana": "オウシュウシ",
    "town": "水沢福吉町",
    "town_kana": "ミズサワフクヨシチョウ",
    "street": null,
    "office_name": null,
    "office_name_kana": null
  },
  "0863": {
    "postcode": "0230863",
    "prefecture": "岩手県",
    "prefecture_kana": "イワテケン",
    "prefecture_code": 3,
    "city": "奥州市",
    "city_kana": "オウシュウシ",
    "town": "水沢川端",
    "town_kana": "ミズサワカワバタ",
    "street": null,
    "office_name": null,
    "office_name_kana": null
  },
  "0864": {
    "postcode": "0230864",
    "prefecture": "岩手県",
    "prefecture_kana": "イワテケン",
    "prefecture_code": 3,
    "city": "奥州市",
    "city_kana": "オウシュウシ",
    "town": "水沢龍ヶ馬場",
    "town_kana": "ミズサワリュウガババ",
    "street": null,
    "office_name": null,
    "office_name_kana": null
  },
  "0865": {
    "postcode": "0230865",
    "prefecture": "岩手県",
    "prefecture_kana": "イワテケン",
    "prefecture_code": 3,
    "city": "奥州市",
    "city_kana": "オウシュウシ",
    "town": "水沢桜屋敷",
    "town_kana": "ミズサワサクラヤシキ",
    "street": null,
    "office_name": null,
    "office_name_kana": null
  },
  "0866": {
    "postcode": "0230866",
    "prefecture": "岩手県",
    "prefecture_kana": "イワテケン",
    "prefecture_code": 3,
    "city": "奥州市",
    "city_kana": "オウシュウシ",
    "town": "水沢堰合",
    "town_kana": "ミズサワセキアイ",
    "street": null,
    "office_name": null,
    "office_name_kana": null
  },
  "0867": {
    "postcode": "0230867",
    "prefecture": "岩手県",
    "prefecture_kana": "イワテケン",
    "prefecture_code": 3,
    "city": "奥州市",
    "city_kana": "オウシュウシ",
    "town": "水沢大橋",
    "town_kana": "ミズサワオオハシ",
    "street": null,
    "office_name": null,
    "office_name_kana": null
  },
  "0871": {
    "postcode": "0230871",
    "prefecture": "岩手県",
    "prefecture_kana": "イワテケン",
    "prefecture_code": 3,
    "city": "奥州市",
    "city_kana": "オウシュウシ",
    "town": "水沢外谷地",
    "town_kana": "ミズサワソトヤチ",
    "street": null,
    "office_name": null,
    "office_name_kana": null
  },
  "0872": {
    "postcode": "0230872",
    "prefecture": "岩手県",
    "prefecture_kana": "イワテケン",
    "prefecture_code": 3,
    "city": "奥州市",
    "city_kana": "オウシュウシ",
    "town": "水沢桜屋敷西",
    "town_kana": "ミズサワサクラヤシキニシ",
    "street": null,
    "office_name": null,
    "office_name_kana": null
  },
  "0873": {
    "postcode": "0230873",
    "prefecture": "岩手県",
    "prefecture_kana": "イワテケン",
    "prefecture_code": 3,
    "city": "奥州市",
    "city_kana": "オウシュウシ",
    "town": "水沢笹森谷地",
    "town_kana": "ミズサワササモリヤチ",
    "street": null,
    "office_name": null,
    "office_name_kana": null
  },
  "0874": {
    "postcode": "0230874",
    "prefecture": "岩手県",
    "prefecture_kana": "イワテケン",
    "prefecture_code": 3,
    "city": "奥州市",
    "city_kana": "オウシュウシ",
    "town": "水沢見分森",
    "town_kana": "ミズサワミワケモリ",
    "street": null,
    "office_name": null,
    "office_name_kana": null
  },
  "0875": {
    "postcode": "0230875",
    "prefecture": "岩手県",
    "prefecture_kana": "イワテケン",
    "prefecture_code": 3,
    "city": "奥州市",
    "city_kana": "オウシュウシ",
    "town": "水沢森下",
    "town_kana": "ミズサワモリシタ",
    "street": null,
    "office_name": null,
    "office_name_kana": null
  },
  "0876": {
    "postcode": "0230876",
    "prefecture": "岩手県",
    "prefecture_kana": "イワテケン",
    "prefecture_code": 3,
    "city": "奥州市",
    "city_kana": "オウシュウシ",
    "town": "水沢鶴淵",
    "town_kana": "ミズサワツルブチ",
    "street": null,
    "office_name": null,
    "office_name_kana": null
  },
  "0877": {
    "postcode": "0230877",
    "prefecture": "岩手県",
    "prefecture_kana": "イワテケン",
    "prefecture_code": 3,
    "city": "奥州市",
    "city_kana": "オウシュウシ",
    "town": "水沢袖谷地",
    "town_kana": "ミズサワソデヤチ",
    "street": null,
    "office_name": null,
    "office_name_kana": null
  },
  "0881": {
    "postcode": "0230881",
    "prefecture": "岩手県",
    "prefecture_kana": "イワテケン",
    "prefecture_code": 3,
    "city": "奥州市",
    "city_kana": "オウシュウシ",
    "town": "水沢北田",
    "town_kana": "ミズサワキタダ",
    "street": null,
    "office_name": null,
    "office_name_kana": null
  },
  "0882": {
    "postcode": "0230882",
    "prefecture": "岩手県",
    "prefecture_kana": "イワテケン",
    "prefecture_code": 3,
    "city": "奥州市",
    "city_kana": "オウシュウシ",
    "town": "水沢福原",
    "town_kana": "ミズサワフクワラ",
    "street": null,
    "office_name": null,
    "office_name_kana": null
  },
  "0883": {
    "postcode": "0230883",
    "prefecture": "岩手県",
    "prefecture_kana": "イワテケン",
    "prefecture_code": 3,
    "city": "奥州市",
    "city_kana": "オウシュウシ",
    "town": "水沢町裏",
    "town_kana": "ミズサワマチウラ",
    "street": null,
    "office_name": null,
    "office_name_kana": null
  },
  "0884": {
    "postcode": "0230884",
    "prefecture": "岩手県",
    "prefecture_kana": "イワテケン",
    "prefecture_code": 3,
    "city": "奥州市",
    "city_kana": "オウシュウシ",
    "town": "水沢前谷地",
    "town_kana": "ミズサワマエヤチ",
    "street": null,
    "office_name": null,
    "office_name_kana": null
  },
  "0885": {
    "postcode": "0230885",
    "prefecture": "岩手県",
    "prefecture_kana": "イワテケン",
    "prefecture_code": 3,
    "city": "奥州市",
    "city_kana": "オウシュウシ",
    "town": "水沢西田",
    "town_kana": "ミズサワニシダ",
    "street": null,
    "office_name": null,
    "office_name_kana": null
  },
  "0886": {
    "postcode": "0230886",
    "prefecture": "岩手県",
    "prefecture_kana": "イワテケン",
    "prefecture_code": 3,
    "city": "奥州市",
    "city_kana": "オウシュウシ",
    "town": "水沢南矢中",
    "town_kana": "ミズサワミナミヤナカ",
    "street": null,
    "office_name": null,
    "office_name_kana": null
  },
  "0887": {
    "postcode": "0230887",
    "prefecture": "岩手県",
    "prefecture_kana": "イワテケン",
    "prefecture_code": 3,
    "city": "奥州市",
    "city_kana": "オウシュウシ",
    "town": "水沢矢中",
    "town_kana": "ミズサワヤナカ",
    "street": null,
    "office_name": null,
    "office_name_kana": null
  },
  "0888": {
    "postcode": "0230888",
    "prefecture": "岩手県",
    "prefecture_kana": "イワテケン",
    "prefecture_code": 3,
    "city": "奥州市",
    "city_kana": "オウシュウシ",
    "town": "水沢八反田",
    "town_kana": "ミズサワハッタンダ",
    "street": null,
    "office_name": null,
    "office_name_kana": null
  },
  "0889": {
    "postcode": "0230889",
    "prefecture": "岩手県",
    "prefecture_kana": "イワテケン",
    "prefecture_code": 3,
    "city": "奥州市",
    "city_kana": "オウシュウシ",
    "town": "水沢高屋敷",
    "town_kana": "ミズサワタカヤシキ",
    "street": null,
    "office_name": null,
    "office_name_kana": null
  },
  "0891": {
    "postcode": "0230891",
    "prefecture": "岩手県",
    "prefecture_kana": "イワテケン",
    "prefecture_code": 3,
    "city": "奥州市",
    "city_kana": "オウシュウシ",
    "town": "水沢内匠田",
    "town_kana": "ミズサワタクミダ",
    "street": null,
    "office_name": null,
    "office_name_kana": null
  },
  "0892": {
    "postcode": "0230892",
    "prefecture": "岩手県",
    "prefecture_kana": "イワテケン",
    "prefecture_code": 3,
    "city": "奥州市",
    "city_kana": "オウシュウシ",
    "town": "水沢釜田",
    "town_kana": "ミズサワカマタ",
    "street": null,
    "office_name": null,
    "office_name_kana": null
  },
  "0893": {
    "postcode": "0230893",
    "prefecture": "岩手県",
    "prefecture_kana": "イワテケン",
    "prefecture_code": 3,
    "city": "奥州市",
    "city_kana": "オウシュウシ",
    "town": "水沢蓬田",
    "town_kana": "ミズサワヨモギダ",
    "street": null,
    "office_name": null,
    "office_name_kana": null
  },
  "0894": {
    "postcode": "0230894",
    "prefecture": "岩手県",
    "prefecture_kana": "イワテケン",
    "prefecture_code": 3,
    "city": "奥州市",
    "city_kana": "オウシュウシ",
    "town": "水沢大明神",
    "town_kana": "ミズサワダイミョウジン",
    "street": null,
    "office_name": null,
    "office_name_kana": null
  },
  "0895": {
    "postcode": "0230895",
    "prefecture": "岩手県",
    "prefecture_kana": "イワテケン",
    "prefecture_code": 3,
    "city": "奥州市",
    "city_kana": "オウシュウシ",
    "town": "水沢足袋針",
    "town_kana": "ミズサワタビハリ",
    "street": null,
    "office_name": null,
    "office_name_kana": null
  },
  "0896": {
    "postcode": "0230896",
    "prefecture": "岩手県",
    "prefecture_kana": "イワテケン",
    "prefecture_code": 3,
    "city": "奥州市",
    "city_kana": "オウシュウシ",
    "town": "水沢西光田",
    "town_kana": "ミズサワニシコウデン",
    "street": null,
    "office_name": null,
    "office_name_kana": null
  },
  "0897": {
    "postcode": "0230897",
    "prefecture": "岩手県",
    "prefecture_kana": "イワテケン",
    "prefecture_code": 3,
    "city": "奥州市",
    "city_kana": "オウシュウシ",
    "town": "水沢桜川",
    "town_kana": "ミズサワサクラカワ",
    "street": null,
    "office_name": null,
    "office_name_kana": null
  },
  "0898": {
    "postcode": "0230898",
    "prefecture": "岩手県",
    "prefecture_kana": "イワテケン",
    "prefecture_code": 3,
    "city": "奥州市",
    "city_kana": "オウシュウシ",
    "town": "水沢後田",
    "town_kana": "ミズサワウシロダ",
    "street": null,
    "office_name": null,
    "office_name_kana": null
  },
  "1101": {
    "postcode": "0231101",
    "prefecture": "岩手県",
    "prefecture_kana": "イワテケン",
    "prefecture_code": 3,
    "city": "奥州市",
    "city_kana": "オウシュウシ",
    "town": "江刺岩谷堂",
    "town_kana": "エサシイワヤドウ",
    "street": null,
    "office_name": null,
    "office_name_kana": null
  },
  "1102": {
    "postcode": "0231102",
    "prefecture": "岩手県",
    "prefecture_kana": "イワテケン",
    "prefecture_code": 3,
    "city": "奥州市",
    "city_kana": "オウシュウシ",
    "town": "江刺八日町",
    "town_kana": "エサシヨウカマチ",
    "street": null,
    "office_name": null,
    "office_name_kana": null
  },
  "1103": {
    "postcode": "0231103",
    "prefecture": "岩手県",
    "prefecture_kana": "イワテケン",
    "prefecture_code": 3,
    "city": "奥州市",
    "city_kana": "オウシュウシ",
    "town": "江刺西大通り",
    "town_kana": "エサシニシオオドオリ",
    "street": null,
    "office_name": null,
    "office_name_kana": null
  },
  "1104": {
    "postcode": "0231104",
    "prefecture": "岩手県",
    "prefecture_kana": "イワテケン",
    "prefecture_code": 3,
    "city": "奥州市",
    "city_kana": "オウシュウシ",
    "town": "江刺豊田町",
    "town_kana": "エサシトヨタチョウ",
    "street": null,
    "office_name": null,
    "office_name_kana": null
  },
  "1105": {
    "postcode": "0231105",
    "prefecture": "岩手県",
    "prefecture_kana": "イワテケン",
    "prefecture_code": 3,
    "city": "奥州市",
    "city_kana": "オウシュウシ",
    "town": "江刺杉ノ町",
    "town_kana": "エサシスギノマチ",
    "street": null,
    "office_name": null,
    "office_name_kana": null
  },
  "1111": {
    "postcode": "0231111",
    "prefecture": "岩手県",
    "prefecture_kana": "イワテケン",
    "prefecture_code": 3,
    "city": "奥州市",
    "city_kana": "オウシュウシ",
    "town": "江刺大通り",
    "town_kana": "エサシオオドオリ",
    "street": null,
    "office_name": null,
    "office_name_kana": null
  },
  "1112": {
    "postcode": "0231112",
    "prefecture": "岩手県",
    "prefecture_kana": "イワテケン",
    "prefecture_code": 3,
    "city": "奥州市",
    "city_kana": "オウシュウシ",
    "town": "江刺南大通り",
    "town_kana": "エサシミナミオオドオリ",
    "street": null,
    "office_name": null,
    "office_name_kana": null
  },
  "1113": {
    "postcode": "0231113",
    "prefecture": "岩手県",
    "prefecture_kana": "イワテケン",
    "prefecture_code": 3,
    "city": "奥州市",
    "city_kana": "オウシュウシ",
    "town": "江刺中町",
    "town_kana": "エサシナカマチ",
    "street": null,
    "office_name": null,
    "office_name_kana": null
  },
  "1114": {
    "postcode": "0231114",
    "prefecture": "岩手県",
    "prefecture_kana": "イワテケン",
    "prefecture_code": 3,
    "city": "奥州市",
    "city_kana": "オウシュウシ",
    "town": "江刺川原町",
    "town_kana": "エサシカワラマチ",
    "street": null,
    "office_name": null,
    "office_name_kana": null
  },
  "1115": {
    "postcode": "0231115",
    "prefecture": "岩手県",
    "prefecture_kana": "イワテケン",
    "prefecture_code": 3,
    "city": "奥州市",
    "city_kana": "オウシュウシ",
    "town": "江刺本町",
    "town_kana": "エサシホンチョウ",
    "street": null,
    "office_name": null,
    "office_name_kana": null
  },
  "1116": {
    "postcode": "0231116",
    "prefecture": "岩手県",
    "prefecture_kana": "イワテケン",
    "prefecture_code": 3,
    "city": "奥州市",
    "city_kana": "オウシュウシ",
    "town": "江刺重染寺",
    "town_kana": "エサシチョウゼンジ",
    "street": null,
    "office_name": null,
    "office_name_kana": null
  },
  "1117": {
    "postcode": "0231117",
    "prefecture": "岩手県",
    "prefecture_kana": "イワテケン",
    "prefecture_code": 3,
    "city": "奥州市",
    "city_kana": "オウシュウシ",
    "town": "江刺南町",
    "town_kana": "エサシミナミマチ",
    "street": null,
    "office_name": null,
    "office_name_kana": null
  },
  "1118": {
    "postcode": "0231118",
    "prefecture": "岩手県",
    "prefecture_kana": "イワテケン",
    "prefecture_code": 3,
    "city": "奥州市",
    "city_kana": "オウシュウシ",
    "town": "江刺栄町",
    "town_kana": "エサシサカエチョウ",
    "street": null,
    "office_name": null,
    "office_name_kana": null
  },
  "1121": {
    "postcode": "0231121",
    "prefecture": "岩手県",
    "prefecture_kana": "イワテケン",
    "prefecture_code": 3,
    "city": "奥州市",
    "city_kana": "オウシュウシ",
    "town": "江刺男石",
    "town_kana": "エサシオトコイシ",
    "street": null,
    "office_name": null,
    "office_name_kana": null
  },
  "1122": {
    "postcode": "0231122",
    "prefecture": "岩手県",
    "prefecture_kana": "イワテケン",
    "prefecture_code": 3,
    "city": "奥州市",
    "city_kana": "オウシュウシ",
    "town": "江刺館山",
    "town_kana": "エサシタテヤマ",
    "street": null,
    "office_name": null,
    "office_name_kana": null
  },
  "1123": {
    "postcode": "0231123",
    "prefecture": "岩手県",
    "prefecture_kana": "イワテケン",
    "prefecture_code": 3,
    "city": "奥州市",
    "city_kana": "オウシュウシ",
    "town": "江刺前田町",
    "town_kana": "エサシマエダチョウ",
    "street": null,
    "office_name": null,
    "office_name_kana": null
  },
  "1124": {
    "postcode": "0231124",
    "prefecture": "岩手県",
    "prefecture_kana": "イワテケン",
    "prefecture_code": 3,
    "city": "奥州市",
    "city_kana": "オウシュウシ",
    "town": "江刺六日町",
    "town_kana": "エサシムイカマチ",
    "street": null,
    "office_name": null,
    "office_name_kana": null
  },
  "1125": {
    "postcode": "0231125",
    "prefecture": "岩手県",
    "prefecture_kana": "イワテケン",
    "prefecture_code": 3,
    "city": "奥州市",
    "city_kana": "オウシュウシ",
    "town": "江刺銭町",
    "town_kana": "エサシゼニマチ",
    "street": null,
    "office_name": null,
    "office_name_kana": null
  },
  "1131": {
    "postcode": "0231131",
    "prefecture": "岩手県",
    "prefecture_kana": "イワテケン",
    "prefecture_code": 3,
    "city": "奥州市",
    "city_kana": "オウシュウシ",
    "town": "江刺愛宕",
    "town_kana": "エサシオダキ",
    "street": null,
    "office_name": null,
    "office_name_kana": null
  },
  "1132": {
    "postcode": "0231132",
    "prefecture": "岩手県",
    "prefecture_kana": "イワテケン",
    "prefecture_code": 3,
    "city": "奥州市",
    "city_kana": "オウシュウシ",
    "town": "江刺稲瀬",
    "town_kana": "エサシイナセ",
    "street": null,
    "office_name": null,
    "office_name_kana": null
  },
  "1133": {
    "postcode": "0231133",
    "prefecture": "岩手県",
    "prefecture_kana": "イワテケン",
    "prefecture_code": 3,
    "city": "奥州市",
    "city_kana": "オウシュウシ",
    "town": "江刺広瀬",
    "town_kana": "エサシヒロセ",
    "street": null,
    "office_name": null,
    "office_name_kana": null
  },
  "1134": {
    "postcode": "0231134",
    "prefecture": "岩手県",
    "prefecture_kana": "イワテケン",
    "prefecture_code": 3,
    "city": "奥州市",
    "city_kana": "オウシュウシ",
    "town": "江刺玉里",
    "town_kana": "エサシタマサト",
    "street": null,
    "office_name": null,
    "office_name_kana": null
  },
  "1192": {
    "postcode": "0231192",
    "prefecture": "岩手県",
    "prefecture_kana": "イワテケン",
    "prefecture_code": 3,
    "city": "奥州市",
    "city_kana": "オウシュウシ",
    "town": "江刺大通り",
    "town_kana": "エサシオオドオリ",
    "street": "１−８",
    "office_name": "奥州市　江刺総合支所",
    "office_name_kana": "オウシユウシ エサシソウゴウシシヨ"
  },
  "1341": {
    "postcode": "0231341",
    "prefecture": "岩手県",
    "prefecture_kana": "イワテケン",
    "prefecture_code": 3,
    "city": "奥州市",
    "city_kana": "オウシュウシ",
    "town": "江刺梁川",
    "town_kana": "エサシヤナガワ",
    "street": null,
    "office_name": null,
    "office_name_kana": null
  },
  "1551": {
    "postcode": "0231551",
    "prefecture": "岩手県",
    "prefecture_kana": "イワテケン",
    "prefecture_code": 3,
    "city": "奥州市",
    "city_kana": "オウシュウシ",
    "town": "江刺米里",
    "town_kana": "エサシヨネサト",
    "street": null,
    "office_name": null,
    "office_name_kana": null
  },
  "1761": {
    "postcode": "0231761",
    "prefecture": "岩手県",
    "prefecture_kana": "イワテケン",
    "prefecture_code": 3,
    "city": "奥州市",
    "city_kana": "オウシュウシ",
    "town": "江刺伊手",
    "town_kana": "エサシイデ",
    "street": null,
    "office_name": null,
    "office_name_kana": null
  },
  "1762": {
    "postcode": "0231762",
    "prefecture": "岩手県",
    "prefecture_kana": "イワテケン",
    "prefecture_code": 3,
    "city": "奥州市",
    "city_kana": "オウシュウシ",
    "town": "江刺藤里",
    "town_kana": "エサシフジサト",
    "street": null,
    "office_name": null,
    "office_name_kana": null
  },
  "8501": {
    "postcode": "0238501",
    "prefecture": "岩手県",
    "prefecture_kana": "イワテケン",
    "prefecture_code": 3,
    "city": "奥州市",
    "city_kana": "オウシュウシ",
    "town": "水沢大手町",
    "town_kana": "ミズサワオオテマチ",
    "street": "１丁目１",
    "office_name": "奥州市役所",
    "office_name_kana": "オウシユウシヤクシヨ"
  }
}