{
  "0000": {
    "postcode": "0270000",
    "prefecture": "岩手県",
    "prefecture_kana": "イワテケン",
    "prefecture_code": 3,
    "city": "宮古市",
    "city_kana": "ミヤコシ",
    "town": "",
    "town_kana": "",
    "street": null,
    "office_name": null,
    "office_name_kana": null
  },
  "0001": {
    "postcode": "0270001",
    "prefecture": "岩手県",
    "prefecture_kana": "イワテケン",
    "prefecture_code": 3,
    "city": "宮古市",
    "city_kana": "ミヤコシ",
    "town": "日立浜町",
    "town_kana": "ヒタチハマチョウ",
    "street": null,
    "office_name": null,
    "office_name_kana": null
  },
  "0002": {
    "postcode": "0270002",
    "prefecture": "岩手県",
    "prefecture_kana": "イワテケン",
    "prefecture_code": 3,
    "city": "宮古市",
    "city_kana": "ミヤコシ",
    "town": "山根町",
    "town_kana": "ヤマネチョウ",
    "street": null,
    "office_name": null,
    "office_name_kana": null
  },
  "0003": {
    "postcode": "0270003",
    "prefecture": "岩手県",
    "prefecture_kana": "イワテケン",
    "prefecture_code": 3,
    "city": "宮古市",
    "city_kana": "ミヤコシ",
    "town": "港町",
    "town_kana": "ミナトマチ",
    "street": null,
    "office_name": null,
    "office_name_kana": null
  },
  "0004": {
    "postcode": "0270004",
    "prefecture": "岩手県",
    "prefecture_kana": "イワテケン",
    "prefecture_code": 3,
    "city": "宮古市",
    "city_kana": "ミヤコシ",
    "town": "臨港通",
    "town_kana": "リンコウドオリ",
    "street": null,
    "office_name": null,
    "office_name_kana": null
  },
  "0005": {
    "postcode": "0270005",
    "prefecture": "岩手県",
    "prefecture_kana": "イワテケン",
    "prefecture_code": 3,
    "city": "宮古市",
    "city_kana": "ミヤコシ",
    "town": "光岸地",
    "town_kana": "コウガンジ",
    "street": null,
    "office_name": null,
    "office_name_kana": null
  },
  "0006": {
    "postcode": "0270006",
    "prefecture": "岩手県",
    "prefecture_kana": "イワテケン",
    "prefecture_code": 3,
    "city": "宮古市",
    "city_kana": "ミヤコシ",
    "town": "鍬ケ崎",
    "town_kana": "クワガサキ",
    "street": null,
    "office_name": null,
    "office_name_kana": null
  },
  "0007": {
    "postcode": "0270007",
    "prefecture": "岩手県",
    "prefecture_kana": "イワテケン",
    "prefecture_code": 3,
    "city": "宮古市",
    "city_kana": "ミヤコシ",
    "town": "日影町",
    "town_kana": "ヒカゲチョウ",
    "street": null,
    "office_name": null,
    "office_name_kana": null
  },
  "0008": {
    "postcode": "0270008",
    "prefecture": "岩手県",
    "prefecture_kana": "イワテケン",
    "prefecture_code": 3,
    "city": "宮古市",
    "city_kana": "ミヤコシ",
    "town": "熊野町",
    "town_kana": "クマノチョウ",
    "street": null,
    "office_name": null,
    "office_name_kana": null
  },
  "0009": {
    "postcode": "0270009",
    "prefecture": "岩手県",
    "prefecture_kana": "イワテケン",
    "prefecture_code": 3,
    "city": "宮古市",
    "city_kana": "ミヤコシ",
    "town": "蛸の浜町",
    "town_kana": "タコノハマチョウ",
    "street": null,
    "office_name": null,
    "office_name_kana": null
  },
  "0021": [
    {
      "postcode": "0270021",
      "prefecture": "岩手県",
      "prefecture_kana": "イワテケン",
      "prefecture_code": 3,
      "city": "宮古市",
      "city_kana": "ミヤコシ",
      "town": "藤原",
      "town_kana": "フジワラ",
      "street": null,
      "office_name": null,
      "office_name_kana": null
    },
    {
      "postcode": "0270021",
      "prefecture": "岩手県",
      "prefecture_kana": "イワテケン",
      "prefecture_code": 3,
      "city": "宮古市",
      "city_kana": "ミヤコシ",
      "town": "藤原上町",
      "town_kana": "フジワラカミマチ",
      "street": null,
      "office_name": null,
      "office_name_kana": null
    }
  ],
  "0022": {
    "postcode": "0270022",
    "prefecture": "岩手県",
    "prefecture_kana": "イワテケン",
    "prefecture_code": 3,
    "city": "宮古市",
    "city_kana": "ミヤコシ",
    "town": "磯鶏石崎",
    "town_kana": "ソケイイシザキ",
    "street": null,
    "office_name": null,
    "office_name_kana": null
  },
  "0023": {
    "postcode": "0270023",
    "prefecture": "岩手県",
    "prefecture_kana": "イワテケン",
    "prefecture_code": 3,
    "city": "宮古市",
    "city_kana": "ミヤコシ",
    "town": "磯鶏沖",
    "town_kana": "ソケイオキ",
    "street": null,
    "office_name": null,
    "office_name_kana": null
  },
  "0024": {
    "postcode": "0270024",
    "prefecture": "岩手県",
    "prefecture_kana": "イワテケン",
    "prefecture_code": 3,
    "city": "宮古市",
    "city_kana": "ミヤコシ",
    "town": "磯鶏",
    "town_kana": "ソケイ",
    "street": null,
    "office_name": null,
    "office_name_kana": null
  },
  "0025": {
    "postcode": "0270025",
    "prefecture": "岩手県",
    "prefecture_kana": "イワテケン",
    "prefecture_code": 3,
    "city": "宮古市",
    "city_kana": "ミヤコシ",
    "town": "実田",
    "town_kana": "ミタ",
    "street": null,
    "office_name": null,
    "office_name_kana": null
  },
  "0026": {
    "postcode": "0270026",
    "prefecture": "岩手県",
    "prefecture_kana": "イワテケン",
    "prefecture_code": 3,
    "city": "宮古市",
    "city_kana": "ミヤコシ",
    "town": "上村",
    "town_kana": "ワムラ",
    "street": null,
    "office_name": null,
    "office_name_kana": null
  },
  "0027": {
    "postcode": "0270027",
    "prefecture": "岩手県",
    "prefecture_kana": "イワテケン",
    "prefecture_code": 3,
    "city": "宮古市",
    "city_kana": "ミヤコシ",
    "town": "磯鶏西",
    "town_kana": "ソケイニシ",
    "street": null,
    "office_name": null,
    "office_name_kana": null
  },
  "0028": {
    "postcode": "0270028",
    "prefecture": "岩手県",
    "prefecture_kana": "イワテケン",
    "prefecture_code": 3,
    "city": "宮古市",
    "city_kana": "ミヤコシ",
    "town": "神林",
    "town_kana": "カンバヤシ",
    "street": null,
    "office_name": null,
    "office_name_kana": null
  },
  "0029": {
    "postcode": "0270029",
    "prefecture": "岩手県",
    "prefecture_kana": "イワテケン",
    "prefecture_code": 3,
    "city": "宮古市",
    "city_kana": "ミヤコシ",
    "town": "藤の川",
    "town_kana": "フジノカワ",
    "street": null,
    "office_name": null,
    "office_name_kana": null
  },
  "0031": {
    "postcode": "0270031",
    "prefecture": "岩手県",
    "prefecture_kana": "イワテケン",
    "prefecture_code": 3,
    "city": "宮古市",
    "city_kana": "ミヤコシ",
    "town": "八木沢",
    "town_kana": "ヤギサワ",
    "street": null,
    "office_name": null,
    "office_name_kana": null
  },
  "0032": {
    "postcode": "0270032",
    "prefecture": "岩手県",
    "prefecture_kana": "イワテケン",
    "prefecture_code": 3,
    "city": "宮古市",
    "city_kana": "ミヤコシ",
    "town": "高浜",
    "town_kana": "タカハマ",
    "street": null,
    "office_name": null,
    "office_name_kana": null
  },
  "0033": {
    "postcode": "0270033",
    "prefecture": "岩手県",
    "prefecture_kana": "イワテケン",
    "prefecture_code": 3,
    "city": "宮古市",
    "city_kana": "ミヤコシ",
    "town": "金浜",
    "town_kana": "カネハマ",
    "street": null,
    "office_name": null,
    "office_name_kana": null
  },
  "0034": {
    "postcode": "0270034",
    "prefecture": "岩手県",
    "prefecture_kana": "イワテケン",
    "prefecture_code": 3,
    "city": "宮古市",
    "city_kana": "ミヤコシ",
    "town": "長沢",
    "town_kana": "ナガサワ",
    "street": null,
    "office_name": null,
    "office_name_kana": null
  },
  "0035": {
    "postcode": "0270035",
    "prefecture": "岩手県",
    "prefecture_kana": "イワテケン",
    "prefecture_code": 3,
    "city": "宮古市",
    "city_kana": "ミヤコシ",
    "town": "花輪",
    "town_kana": "ハナワ",
    "street": null,
    "office_name": null,
    "office_name_kana": null
  },
  "0036": {
    "postcode": "0270036",
    "prefecture": "岩手県",
    "prefecture_kana": "イワテケン",
    "prefecture_code": 3,
    "city": "宮古市",
    "city_kana": "ミヤコシ",
    "town": "田鎖",
    "town_kana": "タクサリ",
    "street": null,
    "office_name": null,
    "office_name_kana": null
  },
  "0037": {
    "postcode": "0270037",
    "prefecture": "岩手県",
    "prefecture_kana": "イワテケン",
    "prefecture_code": 3,
    "city": "宮古市",
    "city_kana": "ミヤコシ",
    "town": "松山",
    "town_kana": "マツヤマ",
    "street": null,
    "office_name": null,
    "office_name_kana": null
  },
  "0038": {
    "postcode": "0270038",
    "prefecture": "岩手県",
    "prefecture_kana": "イワテケン",
    "prefecture_code": 3,
    "city": "宮古市",
    "city_kana": "ミヤコシ",
    "town": "小山田",
    "town_kana": "コヤマダ",
    "street": null,
    "office_name": null,
    "office_name_kana": null
  },
  "0039": {
    "postcode": "0270039",
    "prefecture": "岩手県",
    "prefecture_kana": "イワテケン",
    "prefecture_code": 3,
    "city": "宮古市",
    "city_kana": "ミヤコシ",
    "town": "河南",
    "town_kana": "カナン",
    "street": null,
    "office_name": null,
    "office_name_kana": null
  },
  "0041": {
    "postcode": "0270041",
    "prefecture": "岩手県",
    "prefecture_kana": "イワテケン",
    "prefecture_code": 3,
    "city": "宮古市",
    "city_kana": "ミヤコシ",
    "town": "西ケ丘",
    "town_kana": "ニシガオカ",
    "street": null,
    "office_name": null,
    "office_name_kana": null
  },
  "0042": {
    "postcode": "0270042",
    "prefecture": "岩手県",
    "prefecture_kana": "イワテケン",
    "prefecture_code": 3,
    "city": "宮古市",
    "city_kana": "ミヤコシ",
    "town": "神田沢町",
    "town_kana": "カンダザワチョウ",
    "street": null,
    "office_name": null,
    "office_name_kana": null
  },
  "0043": {
    "postcode": "0270043",
    "prefecture": "岩手県",
    "prefecture_kana": "イワテケン",
    "prefecture_code": 3,
    "city": "宮古市",
    "city_kana": "ミヤコシ",
    "town": "千徳町",
    "town_kana": "セントクマチ",
    "street": null,
    "office_name": null,
    "office_name_kana": null
  },
  "0044": {
    "postcode": "0270044",
    "prefecture": "岩手県",
    "prefecture_kana": "イワテケン",
    "prefecture_code": 3,
    "city": "宮古市",
    "city_kana": "ミヤコシ",
    "town": "上鼻",
    "town_kana": "カンパナ",
    "street": null,
    "office_name": null,
    "office_name_kana": null
  },
  "0045": {
    "postcode": "0270045",
    "prefecture": "岩手県",
    "prefecture_kana": "イワテケン",
    "prefecture_code": 3,
    "city": "宮古市",
    "city_kana": "ミヤコシ",
    "town": "老木",
    "town_kana": "ロウキ",
    "street": null,
    "office_name": null,
    "office_name_kana": null
  },
  "0046": {
    "postcode": "0270046",
    "prefecture": "岩手県",
    "prefecture_kana": "イワテケン",
    "prefecture_code": 3,
    "city": "宮古市",
    "city_kana": "ミヤコシ",
    "town": "花原市",
    "town_kana": "ケバライチ",
    "street": null,
    "office_name": null,
    "office_name_kana": null
  },
  "0047": {
    "postcode": "0270047",
    "prefecture": "岩手県",
    "prefecture_kana": "イワテケン",
    "prefecture_code": 3,
    "city": "宮古市",
    "city_kana": "ミヤコシ",
    "town": "根市",
    "town_kana": "ネイチ",
    "street": null,
    "office_name": null,
    "office_name_kana": null
  },
  "0048": {
    "postcode": "0270048",
    "prefecture": "岩手県",
    "prefecture_kana": "イワテケン",
    "prefecture_code": 3,
    "city": "宮古市",
    "city_kana": "ミヤコシ",
    "town": "板屋",
    "town_kana": "イタヤ",
    "street": null,
    "office_name": null,
    "office_name_kana": null
  },
  "0051": {
    "postcode": "0270051",
    "prefecture": "岩手県",
    "prefecture_kana": "イワテケン",
    "prefecture_code": 3,
    "city": "宮古市",
    "city_kana": "ミヤコシ",
    "town": "南町",
    "town_kana": "ミナミマチ",
    "street": null,
    "office_name": null,
    "office_name_kana": null
  },
  "0052": {
    "postcode": "0270052",
    "prefecture": "岩手県",
    "prefecture_kana": "イワテケン",
    "prefecture_code": 3,
    "city": "宮古市",
    "city_kana": "ミヤコシ",
    "town": "宮町",
    "town_kana": "ミヤマチ",
    "street": null,
    "office_name": null,
    "office_name_kana": null
  },
  "0053": {
    "postcode": "0270053",
    "prefecture": "岩手県",
    "prefecture_kana": "イワテケン",
    "prefecture_code": 3,
    "city": "宮古市",
    "city_kana": "ミヤコシ",
    "town": "長町",
    "town_kana": "ナガマチ",
    "street": null,
    "office_name": null,
    "office_name_kana": null
  },
  "0054": {
    "postcode": "0270054",
    "prefecture": "岩手県",
    "prefecture_kana": "イワテケン",
    "prefecture_code": 3,
    "city": "宮古市",
    "city_kana": "ミヤコシ",
    "town": "太田",
    "town_kana": "オオタ",
    "street": null,
    "office_name": null,
    "office_name_kana": null
  },
  "0055": {
    "postcode": "0270055",
    "prefecture": "岩手県",
    "prefecture_kana": "イワテケン",
    "prefecture_code": 3,
    "city": "宮古市",
    "city_kana": "ミヤコシ",
    "town": "長根",
    "town_kana": "ナガネ",
    "street": null,
    "office_name": null,
    "office_name_kana": null
  },
  "0056": {
    "postcode": "0270056",
    "prefecture": "岩手県",
    "prefecture_kana": "イワテケン",
    "prefecture_code": 3,
    "city": "宮古市",
    "city_kana": "ミヤコシ",
    "town": "近内",
    "town_kana": "チカナイ",
    "street": null,
    "office_name": null,
    "office_name_kana": null
  },
  "0058": {
    "postcode": "0270058",
    "prefecture": "岩手県",
    "prefecture_kana": "イワテケン",
    "prefecture_code": 3,
    "city": "宮古市",
    "city_kana": "ミヤコシ",
    "town": "千徳",
    "town_kana": "セントク",
    "street": null,
    "office_name": null,
    "office_name_kana": null
  },
  "0061": {
    "postcode": "0270061",
    "prefecture": "岩手県",
    "prefecture_kana": "イワテケン",
    "prefecture_code": 3,
    "city": "宮古市",
    "city_kana": "ミヤコシ",
    "town": "西町",
    "town_kana": "ニシマチ",
    "street": null,
    "office_name": null,
    "office_name_kana": null
  },
  "0062": {
    "postcode": "0270062",
    "prefecture": "岩手県",
    "prefecture_kana": "イワテケン",
    "prefecture_code": 3,
    "city": "宮古市",
    "city_kana": "ミヤコシ",
    "town": "泉町",
    "town_kana": "イズミチョウ",
    "street": null,
    "office_name": null,
    "office_name_kana": null
  },
  "0063": {
    "postcode": "0270063",
    "prefecture": "岩手県",
    "prefecture_kana": "イワテケン",
    "prefecture_code": 3,
    "city": "宮古市",
    "city_kana": "ミヤコシ",
    "town": "山口",
    "town_kana": "ヤマグチ",
    "street": null,
    "office_name": null,
    "office_name_kana": null
  },
  "0064": {
    "postcode": "0270064",
    "prefecture": "岩手県",
    "prefecture_kana": "イワテケン",
    "prefecture_code": 3,
    "city": "宮古市",
    "city_kana": "ミヤコシ",
    "town": "宮園",
    "town_kana": "ミヤゾノ",
    "street": null,
    "office_name": null,
    "office_name_kana": null
  },
  "0065": {
    "postcode": "0270065",
    "prefecture": "岩手県",
    "prefecture_kana": "イワテケン",
    "prefecture_code": 3,
    "city": "宮古市",
    "city_kana": "ミヤコシ",
    "town": "黒森町",
    "town_kana": "クロモリチョウ",
    "street": null,
    "office_name": null,
    "office_name_kana": null
  },
  "0066": {
    "postcode": "0270066",
    "prefecture": "岩手県",
    "prefecture_kana": "イワテケン",
    "prefecture_code": 3,
    "city": "宮古市",
    "city_kana": "ミヤコシ",
    "town": "田の神",
    "town_kana": "タノカミ",
    "street": null,
    "office_name": null,
    "office_name_kana": null
  },
  "0067": {
    "postcode": "0270067",
    "prefecture": "岩手県",
    "prefecture_kana": "イワテケン",
    "prefecture_code": 3,
    "city": "宮古市",
    "city_kana": "ミヤコシ",
    "town": "田代",
    "town_kana": "タシロ",
    "street": null,
    "office_name": null,
    "office_name_kana": null
  },
  "0071": {
    "postcode": "0270071",
    "prefecture": "岩手県",
    "prefecture_kana": "イワテケン",
    "prefecture_code": 3,
    "city": "宮古市",
    "city_kana": "ミヤコシ",
    "town": "小沢",
    "town_kana": "コザワ",
    "street": null,
    "office_name": null,
    "office_name_kana": null
  },
  "0072": {
    "postcode": "0270072",
    "prefecture": "岩手県",
    "prefecture_kana": "イワテケン",
    "prefecture_code": 3,
    "city": "宮古市",
    "city_kana": "ミヤコシ",
    "town": "五月町",
    "town_kana": "サツキチョウ",
    "street": null,
    "office_name": null,
    "office_name_kana": null
  },
  "0073": {
    "postcode": "0270073",
    "prefecture": "岩手県",
    "prefecture_kana": "イワテケン",
    "prefecture_code": 3,
    "city": "宮古市",
    "city_kana": "ミヤコシ",
    "town": "緑ケ丘",
    "town_kana": "ミドリガオカ",
    "street": null,
    "office_name": null,
    "office_name_kana": null
  },
  "0074": {
    "postcode": "0270074",
    "prefecture": "岩手県",
    "prefecture_kana": "イワテケン",
    "prefecture_code": 3,
    "city": "宮古市",
    "city_kana": "ミヤコシ",
    "town": "保久田",
    "town_kana": "ホクダ",
    "street": null,
    "office_name": null,
    "office_name_kana": null
  },
  "0075": {
    "postcode": "0270075",
    "prefecture": "岩手県",
    "prefecture_kana": "イワテケン",
    "prefecture_code": 3,
    "city": "宮古市",
    "city_kana": "ミヤコシ",
    "town": "和見町",
    "town_kana": "ワミマチ",
    "street": null,
    "office_name": null,
    "office_name_kana": null
  },
  "0076": {
    "postcode": "0270076",
    "prefecture": "岩手県",
    "prefecture_kana": "イワテケン",
    "prefecture_code": 3,
    "city": "宮古市",
    "city_kana": "ミヤコシ",
    "town": "栄町",
    "town_kana": "サカエチョウ",
    "street": null,
    "office_name": null,
    "office_name_kana": null
  },
  "0077": {
    "postcode": "0270077",
    "prefecture": "岩手県",
    "prefecture_kana": "イワテケン",
    "prefecture_code": 3,
    "city": "宮古市",
    "city_kana": "ミヤコシ",
    "town": "舘合町",
    "town_kana": "タテアイチョウ",
    "street": null,
    "office_name": null,
    "office_name_kana": null
  },
  "0078": {
    "postcode": "0270078",
    "prefecture": "岩手県",
    "prefecture_kana": "イワテケン",
    "prefecture_code": 3,
    "city": "宮古市",
    "city_kana": "ミヤコシ",
    "town": "鴨崎町",
    "town_kana": "カモザキチョウ",
    "street": null,
    "office_name": null,
    "office_name_kana": null
  },
  "0081": {
    "postcode": "0270081",
    "prefecture": "岩手県",
    "prefecture_kana": "イワテケン",
    "prefecture_code": 3,
    "city": "宮古市",
    "city_kana": "ミヤコシ",
    "town": "新川町",
    "town_kana": "シンカワチョウ",
    "street": null,
    "office_name": null,
    "office_name_kana": null
  },
  "0082": {
    "postcode": "0270082",
    "prefecture": "岩手県",
    "prefecture_kana": "イワテケン",
    "prefecture_code": 3,
    "city": "宮古市",
    "city_kana": "ミヤコシ",
    "town": "向町",
    "town_kana": "ムカイマチ",
    "street": null,
    "office_name": null,
    "office_name_kana": null
  },
  "0083": {
    "postcode": "0270083",
    "prefecture": "岩手県",
    "prefecture_kana": "イワテケン",
    "prefecture_code": 3,
    "city": "宮古市",
    "city_kana": "ミヤコシ",
    "town": "大通",
    "town_kana": "オオドオリ",
    "street": null,
    "office_name": null,
    "office_name_kana": null
  },
  "0084": {
    "postcode": "0270084",
    "prefecture": "岩手県",
    "prefecture_kana": "イワテケン",
    "prefecture_code": 3,
    "city": "宮古市",
    "city_kana": "ミヤコシ",
    "town": "末広町",
    "town_kana": "スエヒロチョウ",
    "street": null,
    "office_name": null,
    "office_name_kana": null
  },
  "0085": {
    "postcode": "0270085",
    "prefecture": "岩手県",
    "prefecture_kana": "イワテケン",
    "prefecture_code": 3,
    "city": "宮古市",
    "city_kana": "ミヤコシ",
    "town": "黒田町",
    "town_kana": "クロタマチ",
    "street": null,
    "office_name": null,
    "office_name_kana": null
  },
  "0086": {
    "postcode": "0270086",
    "prefecture": "岩手県",
    "prefecture_kana": "イワテケン",
    "prefecture_code": 3,
    "city": "宮古市",
    "city_kana": "ミヤコシ",
    "town": "新町",
    "town_kana": "アラマチ",
    "street": null,
    "office_name": null,
    "office_name_kana": null
  },
  "0087": {
    "postcode": "0270087",
    "prefecture": "岩手県",
    "prefecture_kana": "イワテケン",
    "prefecture_code": 3,
    "city": "宮古市",
    "city_kana": "ミヤコシ",
    "town": "横町",
    "town_kana": "ヨコマチ",
    "street": null,
    "office_name": null,
    "office_name_kana": null
  },
  "0088": {
    "postcode": "0270088",
    "prefecture": "岩手県",
    "prefecture_kana": "イワテケン",
    "prefecture_code": 3,
    "city": "宮古市",
    "city_kana": "ミヤコシ",
    "town": "沢田",
    "town_kana": "サワダ",
    "street": null,
    "office_name": null,
    "office_name_kana": null
  },
  "0089": {
    "postcode": "0270089",
    "prefecture": "岩手県",
    "prefecture_kana": "イワテケン",
    "prefecture_code": 3,
    "city": "宮古市",
    "city_kana": "ミヤコシ",
    "town": "本町",
    "town_kana": "モトマチ",
    "street": null,
    "office_name": null,
    "office_name_kana": null
  },
  "0091": {
    "postcode": "0270091",
    "prefecture": "岩手県",
    "prefecture_kana": "イワテケン",
    "prefecture_code": 3,
    "city": "宮古市",
    "city_kana": "ミヤコシ",
    "town": "築地",
    "town_kana": "ツキジ",
    "street": null,
    "office_name": null,
    "office_name_kana": null
  },
  "0092": {
    "postcode": "0270092",
    "prefecture": "岩手県",
    "prefecture_kana": "イワテケン",
    "prefecture_code": 3,
    "city": "宮古市",
    "city_kana": "ミヤコシ",
    "town": "愛宕",
    "town_kana": "アタゴ",
    "street": null,
    "office_name": null,
    "office_name_kana": null
  },
  "0093": {
    "postcode": "0270093",
    "prefecture": "岩手県",
    "prefecture_kana": "イワテケン",
    "prefecture_code": 3,
    "city": "宮古市",
    "city_kana": "ミヤコシ",
    "town": "中里団地",
    "town_kana": "ナカサトダンチ",
    "street": null,
    "office_name": null,
    "office_name_kana": null
  },
  "0094": {
    "postcode": "0270094",
    "prefecture": "岩手県",
    "prefecture_kana": "イワテケン",
    "prefecture_code": 3,
    "city": "宮古市",
    "city_kana": "ミヤコシ",
    "town": "日の出町",
    "town_kana": "ヒノデチョウ",
    "street": null,
    "office_name": null,
    "office_name_kana": null
  },
  "0095": {
    "postcode": "0270095",
    "prefecture": "岩手県",
    "prefecture_kana": "イワテケン",
    "prefecture_code": 3,
    "city": "宮古市",
    "city_kana": "ミヤコシ",
    "town": "佐原",
    "town_kana": "サバラ",
    "street": null,
    "office_name": null,
    "office_name_kana": null
  },
  "0096": {
    "postcode": "0270096",
    "prefecture": "岩手県",
    "prefecture_kana": "イワテケン",
    "prefecture_code": 3,
    "city": "宮古市",
    "city_kana": "ミヤコシ",
    "town": "崎鍬ケ崎",
    "town_kana": "サキクワガサキ",
    "street": null,
    "office_name": null,
    "office_name_kana": null
  },
  "0097": {
    "postcode": "0270097",
    "prefecture": "岩手県",
    "prefecture_kana": "イワテケン",
    "prefecture_code": 3,
    "city": "宮古市",
    "city_kana": "ミヤコシ",
    "town": "崎山",
    "town_kana": "サキヤマ",
    "street": null,
    "office_name": null,
    "office_name_kana": null
  },
  "0111": {
    "postcode": "0270111",
    "prefecture": "岩手県",
    "prefecture_kana": "イワテケン",
    "prefecture_code": 3,
    "city": "宮古市",
    "city_kana": "ミヤコシ",
    "town": "重茂",
    "town_kana": "オモエ",
    "street": null,
    "office_name": null,
    "office_name_kana": null
  },
  "0112": {
    "postcode": "0270112",
    "prefecture": "岩手県",
    "prefecture_kana": "イワテケン",
    "prefecture_code": 3,
    "city": "宮古市",
    "city_kana": "ミヤコシ",
    "town": "音部",
    "town_kana": "オトベ",
    "street": null,
    "office_name": null,
    "office_name_kana": null
  },
  "0201": {
    "postcode": "0270201",
    "prefecture": "岩手県",
    "prefecture_kana": "イワテケン",
    "prefecture_code": 3,
    "city": "宮古市",
    "city_kana": "ミヤコシ",
    "town": "白浜",
    "town_kana": "シラハマ",
    "street": null,
    "office_name": null,
    "office_name_kana": null
  },
  "0202": {
    "postcode": "0270202",
    "prefecture": "岩手県",
    "prefecture_kana": "イワテケン",
    "prefecture_code": 3,
    "city": "宮古市",
    "city_kana": "ミヤコシ",
    "town": "赤前",
    "town_kana": "アカマエ",
    "street": null,
    "office_name": null,
    "office_name_kana": null
  },
  "0203": {
    "postcode": "0270203",
    "prefecture": "岩手県",
    "prefecture_kana": "イワテケン",
    "prefecture_code": 3,
    "city": "宮古市",
    "city_kana": "ミヤコシ",
    "town": "津軽石",
    "town_kana": "ツガルイシ",
    "street": null,
    "office_name": null,
    "office_name_kana": null
  },
  "0301": {
    "postcode": "0270301",
    "prefecture": "岩手県",
    "prefecture_kana": "イワテケン",
    "prefecture_code": 3,
    "city": "宮古市",
    "city_kana": "ミヤコシ",
    "town": "田老館が森",
    "town_kana": "タロウタテガモリ",
    "street": null,
    "office_name": null,
    "office_name_kana": null
  },
  "0302": {
    "postcode": "0270302",
    "prefecture": "岩手県",
    "prefecture_kana": "イワテケン",
    "prefecture_code": 3,
    "city": "宮古市",
    "city_kana": "ミヤコシ",
    "town": "田老田中",
    "town_kana": "タロウタナカ",
    "street": null,
    "office_name": null,
    "office_name_kana": null
  },
  "0303": {
    "postcode": "0270303",
    "prefecture": "岩手県",
    "prefecture_kana": "イワテケン",
    "prefecture_code": 3,
    "city": "宮古市",
    "city_kana": "ミヤコシ",
    "town": "田老田の沢",
    "town_kana": "タロウタノサワ",
    "street": null,
    "office_name": null,
    "office_name_kana": null
  },
  "0304": {
    "postcode": "0270304",
    "prefecture": "岩手県",
    "prefecture_kana": "イワテケン",
    "prefecture_code": 3,
    "city": "宮古市",
    "city_kana": "ミヤコシ",
    "town": "田老ケラス",
    "town_kana": "タロウケラス",
    "street": null,
    "office_name": null,
    "office_name_kana": null
  },
  "0305": {
    "postcode": "0270305",
    "prefecture": "岩手県",
    "prefecture_kana": "イワテケン",
    "prefecture_code": 3,
    "city": "宮古市",
    "city_kana": "ミヤコシ",
    "town": "田老荒谷",
    "town_kana": "タロウアリヤ",
    "street": null,
    "office_name": null,
    "office_name_kana": null
  },
  "0306": {
    "postcode": "0270306",
    "prefecture": "岩手県",
    "prefecture_kana": "イワテケン",
    "prefecture_code": 3,
    "city": "宮古市",
    "city_kana": "ミヤコシ",
    "town": "田老川向",
    "town_kana": "タロウカワムカイ",
    "street": null,
    "office_name": null,
    "office_name_kana": null
  },
  "0307": {
    "postcode": "0270307",
    "prefecture": "岩手県",
    "prefecture_kana": "イワテケン",
    "prefecture_code": 3,
    "city": "宮古市",
    "city_kana": "ミヤコシ",
    "town": "田老",
    "town_kana": "タロウ",
    "street": null,
    "office_name": null,
    "office_name_kana": null
  },
  "0311": {
    "postcode": "0270311",
    "prefecture": "岩手県",
    "prefecture_kana": "イワテケン",
    "prefecture_code": 3,
    "city": "宮古市",
    "city_kana": "ミヤコシ",
    "town": "田老和野",
    "town_kana": "タロウワノ",
    "street": null,
    "office_name": null,
    "office_name_kana": null
  },
  "0312": {
    "postcode": "0270312",
    "prefecture": "岩手県",
    "prefecture_kana": "イワテケン",
    "prefecture_code": 3,
    "city": "宮古市",
    "city_kana": "ミヤコシ",
    "town": "田老越田",
    "town_kana": "タロウコシダ",
    "street": null,
    "office_name": null,
    "office_name_kana": null
  },
  "0313": {
    "postcode": "0270313",
    "prefecture": "岩手県",
    "prefecture_kana": "イワテケン",
    "prefecture_code": 3,
    "city": "宮古市",
    "city_kana": "ミヤコシ",
    "town": "田老駿達",
    "town_kana": "タロウシュンダツ",
    "street": null,
    "office_name": null,
    "office_name_kana": null
  },
  "0321": {
    "postcode": "0270321",
    "prefecture": "岩手県",
    "prefecture_kana": "イワテケン",
    "prefecture_code": 3,
    "city": "宮古市",
    "city_kana": "ミヤコシ",
    "town": "田老乙部",
    "town_kana": "タロウオトベ",
    "street": null,
    "office_name": null,
    "office_name_kana": null
  },
  "0322": {
    "postcode": "0270322",
    "prefecture": "岩手県",
    "prefecture_kana": "イワテケン",
    "prefecture_code": 3,
    "city": "宮古市",
    "city_kana": "ミヤコシ",
    "town": "田老青砂里",
    "town_kana": "タロウアオザリ",
    "street": null,
    "office_name": null,
    "office_name_kana": null
  },
  "0323": {
    "postcode": "0270323",
    "prefecture": "岩手県",
    "prefecture_kana": "イワテケン",
    "prefecture_code": 3,
    "city": "宮古市",
    "city_kana": "ミヤコシ",
    "town": "田老野原",
    "town_kana": "タロウノハラ",
    "street": null,
    "office_name": null,
    "office_name_kana": null
  },
  "0324": {
    "postcode": "0270324",
    "prefecture": "岩手県",
    "prefecture_kana": "イワテケン",
    "prefecture_code": 3,
    "city": "宮古市",
    "city_kana": "ミヤコシ",
    "town": "田老向山",
    "town_kana": "タロウムカイヤマ",
    "street": null,
    "office_name": null,
    "office_name_kana": null
  },
  "0325": {
    "postcode": "0270325",
    "prefecture": "岩手県",
    "prefecture_kana": "イワテケン",
    "prefecture_code": 3,
    "city": "宮古市",
    "city_kana": "ミヤコシ",
    "town": "田老三王",
    "town_kana": "タロウサンノウ",
    "street": null,
    "office_name": null,
    "office_name_kana": null
  },
  "0331": {
    "postcode": "0270331",
    "prefecture": "岩手県",
    "prefecture_kana": "イワテケン",
    "prefecture_code": 3,
    "city": "宮古市",
    "city_kana": "ミヤコシ",
    "town": "田老西向山",
    "town_kana": "タロウニシムカイヤマ",
    "street": null,
    "office_name": null,
    "office_name_kana": null
  },
  "0332": {
    "postcode": "0270332",
    "prefecture": "岩手県",
    "prefecture_kana": "イワテケン",
    "prefecture_code": 3,
    "city": "宮古市",
    "city_kana": "ミヤコシ",
    "town": "田老樫内",
    "town_kana": "タロウカシナイ",
    "street": null,
    "office_name": null,
    "office_name_kana": null
  },
  "0333": {
    "postcode": "0270333",
    "prefecture": "岩手県",
    "prefecture_kana": "イワテケン",
    "prefecture_code": 3,
    "city": "宮古市",
    "city_kana": "ミヤコシ",
    "town": "田老古田",
    "town_kana": "タロウフルタ",
    "street": null,
    "office_name": null,
    "office_name_kana": null
  },
  "0341": {
    "postcode": "0270341",
    "prefecture": "岩手県",
    "prefecture_kana": "イワテケン",
    "prefecture_code": 3,
    "city": "宮古市",
    "city_kana": "ミヤコシ",
    "town": "田老養呂地",
    "town_kana": "タロウヨウロチ",
    "street": null,
    "office_name": null,
    "office_name_kana": null
  },
  "0342": {
    "postcode": "0270342",
    "prefecture": "岩手県",
    "prefecture_kana": "イワテケン",
    "prefecture_code": 3,
    "city": "宮古市",
    "city_kana": "ミヤコシ",
    "town": "田老小田代",
    "town_kana": "タロウコダシロ",
    "street": null,
    "office_name": null,
    "office_name_kana": null
  },
  "0343": {
    "postcode": "0270343",
    "prefecture": "岩手県",
    "prefecture_kana": "イワテケン",
    "prefecture_code": 3,
    "city": "宮古市",
    "city_kana": "ミヤコシ",
    "town": "田老上小田代",
    "town_kana": "タロウカミコダシロ",
    "street": null,
    "office_name": null,
    "office_name_kana": null
  },
  "0344": {
    "postcode": "0270344",
    "prefecture": "岩手県",
    "prefecture_kana": "イワテケン",
    "prefecture_code": 3,
    "city": "宮古市",
    "city_kana": "ミヤコシ",
    "town": "田老辰の口",
    "town_kana": "タロウタツノクチ",
    "street": null,
    "office_name": null,
    "office_name_kana": null
  },
  "0345": {
    "postcode": "0270345",
    "prefecture": "岩手県",
    "prefecture_kana": "イワテケン",
    "prefecture_code": 3,
    "city": "宮古市",
    "city_kana": "ミヤコシ",
    "town": "田老篠倉",
    "town_kana": "タロウシノクラ",
    "street": null,
    "office_name": null,
    "office_name_kana": null
  },
  "0346": {
    "postcode": "0270346",
    "prefecture": "岩手県",
    "prefecture_kana": "イワテケン",
    "prefecture_code": 3,
    "city": "宮古市",
    "city_kana": "ミヤコシ",
    "town": "田老七滝",
    "town_kana": "タロウナナタキ",
    "street": null,
    "office_name": null,
    "office_name_kana": null
  },
  "0347": {
    "postcode": "0270347",
    "prefecture": "岩手県",
    "prefecture_kana": "イワテケン",
    "prefecture_code": 3,
    "city": "宮古市",
    "city_kana": "ミヤコシ",
    "town": "田老笹見平",
    "town_kana": "タロウササミタイラ",
    "street": null,
    "office_name": null,
    "office_name_kana": null
  },
  "0351": {
    "postcode": "0270351",
    "prefecture": "岩手県",
    "prefecture_kana": "イワテケン",
    "prefecture_code": 3,
    "city": "宮古市",
    "city_kana": "ミヤコシ",
    "town": "田老小林",
    "town_kana": "タロウコバヤシ",
    "street": null,
    "office_name": null,
    "office_name_kana": null
  },
  "0352": {
    "postcode": "0270352",
    "prefecture": "岩手県",
    "prefecture_kana": "イワテケン",
    "prefecture_code": 3,
    "city": "宮古市",
    "city_kana": "ミヤコシ",
    "town": "田老八幡水神",
    "town_kana": "タロウヤハタスイジン",
    "street": null,
    "office_name": null,
    "office_name_kana": null
  },
  "0353": {
    "postcode": "0270353",
    "prefecture": "岩手県",
    "prefecture_kana": "イワテケン",
    "prefecture_code": 3,
    "city": "宮古市",
    "city_kana": "ミヤコシ",
    "town": "田老和蒔",
    "town_kana": "タロウワマキ",
    "street": null,
    "office_name": null,
    "office_name_kana": null
  },
  "0354": {
    "postcode": "0270354",
    "prefecture": "岩手県",
    "prefecture_kana": "イワテケン",
    "prefecture_code": 3,
    "city": "宮古市",
    "city_kana": "ミヤコシ",
    "town": "田老森崎",
    "town_kana": "タロウモリサキ",
    "street": null,
    "office_name": null,
    "office_name_kana": null
  },
  "0355": {
    "postcode": "0270355",
    "prefecture": "岩手県",
    "prefecture_kana": "イワテケン",
    "prefecture_code": 3,
    "city": "宮古市",
    "city_kana": "ミヤコシ",
    "town": "田老末前",
    "town_kana": "タロウスエマエ",
    "street": null,
    "office_name": null,
    "office_name_kana": null
  },
  "0356": {
    "postcode": "0270356",
    "prefecture": "岩手県",
    "prefecture_kana": "イワテケン",
    "prefecture_code": 3,
    "city": "宮古市",
    "city_kana": "ミヤコシ",
    "town": "田老和山",
    "town_kana": "タロウワヤマ",
    "street": null,
    "office_name": null,
    "office_name_kana": null
  },
  "0357": {
    "postcode": "0270357",
    "prefecture": "岩手県",
    "prefecture_kana": "イワテケン",
    "prefecture_code": 3,
    "city": "宮古市",
    "city_kana": "ミヤコシ",
    "town": "田老向桑畑",
    "town_kana": "タロウムカイクワハタ",
    "street": null,
    "office_name": null,
    "office_name_kana": null
  },
  "0358": {
    "postcode": "0270358",
    "prefecture": "岩手県",
    "prefecture_kana": "イワテケン",
    "prefecture_code": 3,
    "city": "宮古市",
    "city_kana": "ミヤコシ",
    "town": "田老立腰",
    "town_kana": "タロウタテコシ",
    "street": null,
    "office_name": null,
    "office_name_kana": null
  },
  "0359": {
    "postcode": "0270359",
    "prefecture": "岩手県",
    "prefecture_kana": "イワテケン",
    "prefecture_code": 3,
    "city": "宮古市",
    "city_kana": "ミヤコシ",
    "town": "田老青倉",
    "town_kana": "タロウアオクラ",
    "street": null,
    "office_name": null,
    "office_name_kana": null
  },
  "0361": {
    "postcode": "0270361",
    "prefecture": "岩手県",
    "prefecture_kana": "イワテケン",
    "prefecture_code": 3,
    "city": "宮古市",
    "city_kana": "ミヤコシ",
    "town": "田老小堀内",
    "town_kana": "タロウコボリナイ",
    "street": null,
    "office_name": null,
    "office_name_kana": null
  },
  "0362": {
    "postcode": "0270362",
    "prefecture": "岩手県",
    "prefecture_kana": "イワテケン",
    "prefecture_code": 3,
    "city": "宮古市",
    "city_kana": "ミヤコシ",
    "town": "田老小堀内南",
    "town_kana": "タロウコボリナイミナミ",
    "street": null,
    "office_name": null,
    "office_name_kana": null
  },
  "0363": {
    "postcode": "0270363",
    "prefecture": "岩手県",
    "prefecture_kana": "イワテケン",
    "prefecture_code": 3,
    "city": "宮古市",
    "city_kana": "ミヤコシ",
    "town": "田老長畑",
    "town_kana": "タロウナガバタケ",
    "street": null,
    "office_name": null,
    "office_name_kana": null
  },
  "0364": {
    "postcode": "0270364",
    "prefecture": "岩手県",
    "prefecture_kana": "イワテケン",
    "prefecture_code": 3,
    "city": "宮古市",
    "city_kana": "ミヤコシ",
    "town": "田老新田",
    "town_kana": "タロウシンデン",
    "street": null,
    "office_name": null,
    "office_name_kana": null
  },
  "0365": {
    "postcode": "0270365",
    "prefecture": "岩手県",
    "prefecture_kana": "イワテケン",
    "prefecture_code": 3,
    "city": "宮古市",
    "city_kana": "ミヤコシ",
    "town": "田老滝の沢",
    "town_kana": "タロウタキノサワ",
    "street": null,
    "office_name": null,
    "office_name_kana": null
  },
  "0366": {
    "postcode": "0270366",
    "prefecture": "岩手県",
    "prefecture_kana": "イワテケン",
    "prefecture_code": 3,
    "city": "宮古市",
    "city_kana": "ミヤコシ",
    "town": "田老新田平",
    "town_kana": "タロウニッタダイラ",
    "street": null,
    "office_name": null,
    "office_name_kana": null
  },
  "0367": {
    "postcode": "0270367",
    "prefecture": "岩手県",
    "prefecture_kana": "イワテケン",
    "prefecture_code": 3,
    "city": "宮古市",
    "city_kana": "ミヤコシ",
    "town": "田老鈴子沢",
    "town_kana": "タロウスズコサワ",
    "street": null,
    "office_name": null,
    "office_name_kana": null
  },
  "0371": {
    "postcode": "0270371",
    "prefecture": "岩手県",
    "prefecture_kana": "イワテケン",
    "prefecture_code": 3,
    "city": "宮古市",
    "city_kana": "ミヤコシ",
    "town": "田老水沢",
    "town_kana": "タロウミズサワ",
    "street": null,
    "office_name": null,
    "office_name_kana": null
  },
  "0372": {
    "postcode": "0270372",
    "prefecture": "岩手県",
    "prefecture_kana": "イワテケン",
    "prefecture_code": 3,
    "city": "宮古市",
    "city_kana": "ミヤコシ",
    "town": "田老水沢南",
    "town_kana": "タロウミズサワミナミ",
    "street": null,
    "office_name": null,
    "office_name_kana": null
  },
  "0373": {
    "postcode": "0270373",
    "prefecture": "岩手県",
    "prefecture_kana": "イワテケン",
    "prefecture_code": 3,
    "city": "宮古市",
    "city_kana": "ミヤコシ",
    "town": "田老向新田",
    "town_kana": "タロウムカイシンデン",
    "street": null,
    "office_name": null,
    "office_name_kana": null
  },
  "0374": {
    "postcode": "0270374",
    "prefecture": "岩手県",
    "prefecture_kana": "イワテケン",
    "prefecture_code": 3,
    "city": "宮古市",
    "city_kana": "ミヤコシ",
    "town": "田老青野滝北",
    "town_kana": "タロウアオノタキキタ",
    "street": null,
    "office_name": null,
    "office_name_kana": null
  },
  "0375": {
    "postcode": "0270375",
    "prefecture": "岩手県",
    "prefecture_kana": "イワテケン",
    "prefecture_code": 3,
    "city": "宮古市",
    "city_kana": "ミヤコシ",
    "town": "田老青野滝",
    "town_kana": "タロウアオノタキ",
    "street": null,
    "office_name": null,
    "office_name_kana": null
  },
  "0376": {
    "postcode": "0270376",
    "prefecture": "岩手県",
    "prefecture_kana": "イワテケン",
    "prefecture_code": 3,
    "city": "宮古市",
    "city_kana": "ミヤコシ",
    "town": "田老青野滝南",
    "town_kana": "タロウアオノタキミナミ",
    "street": null,
    "office_name": null,
    "office_name_kana": null
  },
  "0377": {
    "postcode": "0270377",
    "prefecture": "岩手県",
    "prefecture_kana": "イワテケン",
    "prefecture_code": 3,
    "city": "宮古市",
    "city_kana": "ミヤコシ",
    "town": "田老重津部北",
    "town_kana": "タロウオモツベキタ",
    "street": null,
    "office_name": null,
    "office_name_kana": null
  },
  "0378": {
    "postcode": "0270378",
    "prefecture": "岩手県",
    "prefecture_kana": "イワテケン",
    "prefecture_code": 3,
    "city": "宮古市",
    "city_kana": "ミヤコシ",
    "town": "田老重津部",
    "town_kana": "タロウオモツベ",
    "street": null,
    "office_name": null,
    "office_name_kana": null
  },
  "0379": {
    "postcode": "0270379",
    "prefecture": "岩手県",
    "prefecture_kana": "イワテケン",
    "prefecture_code": 3,
    "city": "宮古市",
    "city_kana": "ミヤコシ",
    "town": "田老乙部野",
    "town_kana": "タロウオトベノ",
    "street": null,
    "office_name": null,
    "office_name_kana": null
  },
  "0381": {
    "postcode": "0270381",
    "prefecture": "岩手県",
    "prefecture_kana": "イワテケン",
    "prefecture_code": 3,
    "city": "宮古市",
    "city_kana": "ミヤコシ",
    "town": "田老星山",
    "town_kana": "タロウホシヤマ",
    "street": null,
    "office_name": null,
    "office_name_kana": null
  },
  "0382": {
    "postcode": "0270382",
    "prefecture": "岩手県",
    "prefecture_kana": "イワテケン",
    "prefecture_code": 3,
    "city": "宮古市",
    "city_kana": "ミヤコシ",
    "town": "田老片巻",
    "town_kana": "タロウカタマキ",
    "street": null,
    "office_name": null,
    "office_name_kana": null
  },
  "0383": {
    "postcode": "0270383",
    "prefecture": "岩手県",
    "prefecture_kana": "イワテケン",
    "prefecture_code": 3,
    "city": "宮古市",
    "city_kana": "ミヤコシ",
    "town": "田老上摂待",
    "town_kana": "タロウカミセッタイ",
    "street": null,
    "office_name": null,
    "office_name_kana": null
  },
  "0384": {
    "postcode": "0270384",
    "prefecture": "岩手県",
    "prefecture_kana": "イワテケン",
    "prefecture_code": 3,
    "city": "宮古市",
    "city_kana": "ミヤコシ",
    "town": "田老摂待",
    "town_kana": "タロウセッタイ",
    "street": null,
    "office_name": null,
    "office_name_kana": null
  },
  "0385": {
    "postcode": "0270385",
    "prefecture": "岩手県",
    "prefecture_kana": "イワテケン",
    "prefecture_code": 3,
    "city": "宮古市",
    "city_kana": "ミヤコシ",
    "town": "田老下摂待",
    "town_kana": "タロウシモセッタイ",
    "street": null,
    "office_name": null,
    "office_name_kana": null
  },
  "0386": {
    "postcode": "0270386",
    "prefecture": "岩手県",
    "prefecture_kana": "イワテケン",
    "prefecture_code": 3,
    "city": "宮古市",
    "city_kana": "ミヤコシ",
    "town": "田老胡桃畑",
    "town_kana": "タロウクルミハタ",
    "street": null,
    "office_name": null,
    "office_name_kana": null
  },
  "0387": {
    "postcode": "0270387",
    "prefecture": "岩手県",
    "prefecture_kana": "イワテケン",
    "prefecture_code": 3,
    "city": "宮古市",
    "city_kana": "ミヤコシ",
    "town": "田老畑",
    "town_kana": "タロウハタ",
    "street": null,
    "office_name": null,
    "office_name_kana": null
  },
  "0388": {
    "postcode": "0270388",
    "prefecture": "岩手県",
    "prefecture_kana": "イワテケン",
    "prefecture_code": 3,
    "city": "宮古市",
    "city_kana": "ミヤコシ",
    "town": "田老上沖",
    "town_kana": "タロウカミオキ",
    "street": null,
    "office_name": null,
    "office_name_kana": null
  },
  "0421": {
    "postcode": "0270421",
    "prefecture": "岩手県",
    "prefecture_kana": "イワテケン",
    "prefecture_code": 3,
    "city": "下閉伊郡岩泉町",
    "city_kana": "シモヘイグンイワイズミチョウ",
    "town": "小本",
    "town_kana": "オモト",
    "street": null,
    "office_name": null,
    "office_name_kana": null
  },
  "0422": {
    "postcode": "0270422",
    "prefecture": "岩手県",
    "prefecture_kana": "イワテケン",
    "prefecture_code": 3,
    "city": "下閉伊郡岩泉町",
    "city_kana": "シモヘイグンイワイズミチョウ",
    "town": "中島",
    "town_kana": "ナカシマ",
    "street": null,
    "office_name": null,
    "office_name_kana": null
  },
  "0423": {
    "postcode": "0270423",
    "prefecture": "岩手県",
    "prefecture_kana": "イワテケン",
    "prefecture_code": 3,
    "city": "下閉伊郡岩泉町",
    "city_kana": "シモヘイグンイワイズミチョウ",
    "town": "中里",
    "town_kana": "ナカサト",
    "street": null,
    "office_name": null,
    "office_name_kana": null
  },
  "0424": {
    "postcode": "0270424",
    "prefecture": "岩手県",
    "prefecture_kana": "イワテケン",
    "prefecture_code": 3,
    "city": "下閉伊郡岩泉町",
    "city_kana": "シモヘイグンイワイズミチョウ",
    "town": "袰野",
    "town_kana": "ホロノ",
    "street": null,
    "office_name": null,
    "office_name_kana": null
  },
  "0500": {
    "postcode": "0270500",
    "prefecture": "岩手県",
    "prefecture_kana": "イワテケン",
    "prefecture_code": 3,
    "city": "下閉伊郡岩泉町",
    "city_kana": "シモヘイグンイワイズミチョウ",
    "town": "",
    "town_kana": "",
    "street": null,
    "office_name": null,
    "office_name_kana": null
  },
  "0501": {
    "postcode": "0270501",
    "prefecture": "岩手県",
    "prefecture_kana": "イワテケン",
    "prefecture_code": 3,
    "city": "下閉伊郡岩泉町",
    "city_kana": "シモヘイグンイワイズミチョウ",
    "town": "岩泉",
    "town_kana": "イワイズミ",
    "street": null,
    "office_name": null,
    "office_name_kana": null
  },
  "0502": {
    "postcode": "0270502",
    "prefecture": "岩手県",
    "prefecture_kana": "イワテケン",
    "prefecture_code": 3,
    "city": "下閉伊郡岩泉町",
    "city_kana": "シモヘイグンイワイズミチョウ",
    "town": "乙茂",
    "town_kana": "オトモ",
    "street": null,
    "office_name": null,
    "office_name_kana": null
  },
  "0503": {
    "postcode": "0270503",
    "prefecture": "岩手県",
    "prefecture_kana": "イワテケン",
    "prefecture_code": 3,
    "city": "下閉伊郡岩泉町",
    "city_kana": "シモヘイグンイワイズミチョウ",
    "town": "猿沢",
    "town_kana": "サルサワ",
    "street": null,
    "office_name": null,
    "office_name_kana": null
  },
  "0504": {
    "postcode": "0270504",
    "prefecture": "岩手県",
    "prefecture_kana": "イワテケン",
    "prefecture_code": 3,
    "city": "下閉伊郡岩泉町",
    "city_kana": "シモヘイグンイワイズミチョウ",
    "town": "下有芸",
    "town_kana": "シモウゲイ",
    "street": null,
    "office_name": null,
    "office_name_kana": null
  },
  "0505": {
    "postcode": "0270505",
    "prefecture": "岩手県",
    "prefecture_kana": "イワテケン",
    "prefecture_code": 3,
    "city": "下閉伊郡岩泉町",
    "city_kana": "シモヘイグンイワイズミチョウ",
    "town": "上有芸",
    "town_kana": "カミウゲイ",
    "street": null,
    "office_name": null,
    "office_name_kana": null
  },
  "0506": {
    "postcode": "0270506",
    "prefecture": "岩手県",
    "prefecture_kana": "イワテケン",
    "prefecture_code": 3,
    "city": "下閉伊郡岩泉町",
    "city_kana": "シモヘイグンイワイズミチョウ",
    "town": "鼠入",
    "town_kana": "ソイリ",
    "street": null,
    "office_name": null,
    "office_name_kana": null
  },
  "0507": {
    "postcode": "0270507",
    "prefecture": "岩手県",
    "prefecture_kana": "イワテケン",
    "prefecture_code": 3,
    "city": "下閉伊郡岩泉町",
    "city_kana": "シモヘイグンイワイズミチョウ",
    "town": "二升石",
    "town_kana": "ニショウイシ",
    "street": null,
    "office_name": null,
    "office_name_kana": null
  },
  "0508": {
    "postcode": "0270508",
    "prefecture": "岩手県",
    "prefecture_kana": "イワテケン",
    "prefecture_code": 3,
    "city": "下閉伊郡岩泉町",
    "city_kana": "シモヘイグンイワイズミチョウ",
    "town": "尼額",
    "town_kana": "アマヒタイ",
    "street": null,
    "office_name": null,
    "office_name_kana": null
  },
  "0595": {
    "postcode": "0270595",
    "prefecture": "岩手県",
    "prefecture_kana": "イワテケン",
    "prefecture_code": 3,
    "city": "下閉伊郡岩泉町",
    "city_kana": "シモヘイグンイワイズミチョウ",
    "town": "岩泉",
    "town_kana": "イワイズミ",
    "street": "字惣畑５９−５",
    "office_name": "岩泉町役場",
    "office_name_kana": "イワイズミチヨウヤクバ"
  },
  "0611": {
    "postcode": "0270611",
    "prefecture": "岩手県",
    "prefecture_kana": "イワテケン",
    "prefecture_code": 3,
    "city": "下閉伊郡岩泉町",
    "city_kana": "シモヘイグンイワイズミチョウ",
    "town": "安家",
    "town_kana": "アッカ",
    "street": null,
    "office_name": null,
    "office_name_kana": null
  },
  "8501": {
    "postcode": "0278501",
    "prefecture": "岩手県",
    "prefecture_kana": "イワテケン",
    "prefecture_code": 3,
    "city": "宮古市",
    "city_kana": "ミヤコシ",
    "town": "宮町",
    "town_kana": "ミヤマチ",
    "street": "１丁目１番３０号",
    "office_name": "宮古市役所",
    "office_name_kana": "ミヤコシヤクシヨ"
  },
  "8502": {
    "postcode": "0278502",
    "prefecture": "岩手県",
    "prefecture_kana": "イワテケン",
    "prefecture_code": 3,
    "city": "宮古市",
    "city_kana": "ミヤコシ",
    "town": "大字崎鍬ケ崎",
    "town_kana": null,
    "street": "第１地割１１−２６",
    "office_name": "岩手県立　宮古病院",
    "office_name_kana": "イワテケンリツ ミヤコビヨウイン"
  },
  "8503": {
    "postcode": "0278503",
    "prefecture": "岩手県",
    "prefecture_kana": "イワテケン",
    "prefecture_code": 3,
    "city": "宮古市",
    "city_kana": "ミヤコシ",
    "town": "太田",
    "town_kana": "オオタ",
    "street": "１丁目７−１２",
    "office_name": "宮古社会保険事務所",
    "office_name_kana": "ミヤコシヤカイホケンジムシヨ"
  }
}