{
  "0131": {
    "postcode": "0290131",
    "prefecture": "岩手県",
    "prefecture_kana": "イワテケン",
    "prefecture_code": 3,
    "city": "一関市",
    "city_kana": "イチノセキシ",
    "town": "狐禅寺",
    "town_kana": "コゼンジ",
    "street": null,
    "office_name": null,
    "office_name_kana": null
  },
  "0132": {
    "postcode": "0290132",
    "prefecture": "岩手県",
    "prefecture_kana": "イワテケン",
    "prefecture_code": 3,
    "city": "一関市",
    "city_kana": "イチノセキシ",
    "town": "滝沢",
    "town_kana": "タキザワ",
    "street": null,
    "office_name": null,
    "office_name_kana": null
  },
  "0192": {
    "postcode": "0290192",
    "prefecture": "岩手県",
    "prefecture_kana": "イワテケン",
    "prefecture_code": 3,
    "city": "一関市",
    "city_kana": "イチノセキシ",
    "town": "狐禅寺",
    "town_kana": "コゼンジ",
    "street": "字大平１７",
    "office_name": "岩手県立　磐井病院",
    "office_name_kana": "イワテケンリツ イワイビヨウイン"
  },
  "0201": {
    "postcode": "0290201",
    "prefecture": "岩手県",
    "prefecture_kana": "イワテケン",
    "prefecture_code": 3,
    "city": "一関市",
    "city_kana": "イチノセキシ",
    "town": "川崎町門崎",
    "town_kana": "カワサキチョウカンザキ",
    "street": null,
    "office_name": null,
    "office_name_kana": null
  },
  "0202": {
    "postcode": "0290202",
    "prefecture": "岩手県",
    "prefecture_kana": "イワテケン",
    "prefecture_code": 3,
    "city": "一関市",
    "city_kana": "イチノセキシ",
    "town": "川崎町薄衣",
    "town_kana": "カワサキチョウウスギヌ",
    "street": null,
    "office_name": null,
    "office_name_kana": null
  },
  "0211": {
    "postcode": "0290211",
    "prefecture": "岩手県",
    "prefecture_kana": "イワテケン",
    "prefecture_code": 3,
    "city": "一関市",
    "city_kana": "イチノセキシ",
    "town": "弥栄",
    "town_kana": "ヤサカエ",
    "street": null,
    "office_name": null,
    "office_name_kana": null
  },
  "0301": {
    "postcode": "0290301",
    "prefecture": "岩手県",
    "prefecture_kana": "イワテケン",
    "prefecture_code": 3,
    "city": "一関市",
    "city_kana": "イチノセキシ",
    "town": "東山町田河津",
    "town_kana": "ヒガシヤマチョウタコウヅ",
    "street": null,
    "office_name": null,
    "office_name_kana": null
  },
  "0302": {
    "postcode": "0290302",
    "prefecture": "岩手県",
    "prefecture_kana": "イワテケン",
    "prefecture_code": 3,
    "city": "一関市",
    "city_kana": "イチノセキシ",
    "town": "東山町長坂",
    "town_kana": "ヒガシヤマチョウナガサカ",
    "street": null,
    "office_name": null,
    "office_name_kana": null
  },
  "0303": {
    "postcode": "0290303",
    "prefecture": "岩手県",
    "prefecture_kana": "イワテケン",
    "prefecture_code": 3,
    "city": "一関市",
    "city_kana": "イチノセキシ",
    "town": "東山町松川",
    "town_kana": "ヒガシヤマチョウマツカワ",
    "street": null,
    "office_name": null,
    "office_name_kana": null
  },
  "0431": {
    "postcode": "0290431",
    "prefecture": "岩手県",
    "prefecture_kana": "イワテケン",
    "prefecture_code": 3,
    "city": "一関市",
    "city_kana": "イチノセキシ",
    "town": "大東町猿沢",
    "town_kana": "ダイトウチョウサルサワ",
    "street": null,
    "office_name": null,
    "office_name_kana": null
  },
  "0521": {
    "postcode": "0290521",
    "prefecture": "岩手県",
    "prefecture_kana": "イワテケン",
    "prefecture_code": 3,
    "city": "一関市",
    "city_kana": "イチノセキシ",
    "town": "大東町渋民",
    "town_kana": "ダイトウチョウシブタミ",
    "street": null,
    "office_name": null,
    "office_name_kana": null
  },
  "0522": {
    "postcode": "0290522",
    "prefecture": "岩手県",
    "prefecture_kana": "イワテケン",
    "prefecture_code": 3,
    "city": "一関市",
    "city_kana": "イチノセキシ",
    "town": "大東町曽慶",
    "town_kana": "ダイトウチョウソゲイ",
    "street": null,
    "office_name": null,
    "office_name_kana": null
  },
  "0523": {
    "postcode": "0290523",
    "prefecture": "岩手県",
    "prefecture_kana": "イワテケン",
    "prefecture_code": 3,
    "city": "一関市",
    "city_kana": "イチノセキシ",
    "town": "大東町摺沢",
    "town_kana": "ダイトウチョウスリサワ",
    "street": null,
    "office_name": null,
    "office_name_kana": null
  },
  "0601": {
    "postcode": "0290601",
    "prefecture": "岩手県",
    "prefecture_kana": "イワテケン",
    "prefecture_code": 3,
    "city": "一関市",
    "city_kana": "イチノセキシ",
    "town": "大東町中川",
    "town_kana": "ダイトウチョウナカガワ",
    "street": null,
    "office_name": null,
    "office_name_kana": null
  },
  "0602": {
    "postcode": "0290602",
    "prefecture": "岩手県",
    "prefecture_kana": "イワテケン",
    "prefecture_code": 3,
    "city": "一関市",
    "city_kana": "イチノセキシ",
    "town": "大東町鳥海",
    "town_kana": "ダイトウチョウトリウミ",
    "street": null,
    "office_name": null,
    "office_name_kana": null
  },
  "0603": {
    "postcode": "0290603",
    "prefecture": "岩手県",
    "prefecture_kana": "イワテケン",
    "prefecture_code": 3,
    "city": "一関市",
    "city_kana": "イチノセキシ",
    "town": "大東町沖田",
    "town_kana": "ダイトウチョウオキタ",
    "street": null,
    "office_name": null,
    "office_name_kana": null
  },
  "0711": {
    "postcode": "0290711",
    "prefecture": "岩手県",
    "prefecture_kana": "イワテケン",
    "prefecture_code": 3,
    "city": "一関市",
    "city_kana": "イチノセキシ",
    "town": "大東町大原",
    "town_kana": "ダイトウチョウオオハラ",
    "street": null,
    "office_name": null,
    "office_name_kana": null
  },
  "0801": {
    "postcode": "0290801",
    "prefecture": "岩手県",
    "prefecture_kana": "イワテケン",
    "prefecture_code": 3,
    "city": "一関市",
    "city_kana": "イチノセキシ",
    "town": "千厩町清田",
    "town_kana": "センマヤチョウキヨタ",
    "street": null,
    "office_name": null,
    "office_name_kana": null
  },
  "0802": {
    "postcode": "0290802",
    "prefecture": "岩手県",
    "prefecture_kana": "イワテケン",
    "prefecture_code": 3,
    "city": "一関市",
    "city_kana": "イチノセキシ",
    "town": "千厩町小梨",
    "town_kana": "センマヤチョウコナシ",
    "street": null,
    "office_name": null,
    "office_name_kana": null
  },
  "0803": {
    "postcode": "0290803",
    "prefecture": "岩手県",
    "prefecture_kana": "イワテケン",
    "prefecture_code": 3,
    "city": "一関市",
    "city_kana": "イチノセキシ",
    "town": "千厩町千厩",
    "town_kana": "センマヤチョウセンマヤ",
    "street": null,
    "office_name": null,
    "office_name_kana": null
  },
  "0804": {
    "postcode": "0290804",
    "prefecture": "岩手県",
    "prefecture_kana": "イワテケン",
    "prefecture_code": 3,
    "city": "一関市",
    "city_kana": "イチノセキシ",
    "town": "千厩町磐清水",
    "town_kana": "センマヤチョウイワシミズ",
    "street": null,
    "office_name": null,
    "office_name_kana": null
  },
  "1111": {
    "postcode": "0291111",
    "prefecture": "岩手県",
    "prefecture_kana": "イワテケン",
    "prefecture_code": 3,
    "city": "一関市",
    "city_kana": "イチノセキシ",
    "town": "千厩町奥玉",
    "town_kana": "センマヤチョウオクタマ",
    "street": null,
    "office_name": null,
    "office_name_kana": null
  },
  "1201": {
    "postcode": "0291201",
    "prefecture": "岩手県",
    "prefecture_kana": "イワテケン",
    "prefecture_code": 3,
    "city": "一関市",
    "city_kana": "イチノセキシ",
    "town": "室根町折壁",
    "town_kana": "ムロネチョウオリカベ",
    "street": null,
    "office_name": null,
    "office_name_kana": null
  },
  "1202": {
    "postcode": "0291202",
    "prefecture": "岩手県",
    "prefecture_kana": "イワテケン",
    "prefecture_code": 3,
    "city": "一関市",
    "city_kana": "イチノセキシ",
    "town": "室根町矢越",
    "town_kana": "ムロネチョウヤゴシ",
    "street": null,
    "office_name": null,
    "office_name_kana": null
  },
  "1211": {
    "postcode": "0291211",
    "prefecture": "岩手県",
    "prefecture_kana": "イワテケン",
    "prefecture_code": 3,
    "city": "一関市",
    "city_kana": "イチノセキシ",
    "town": "室根町津谷川",
    "town_kana": "ムロネチョウツヤガワ",
    "street": null,
    "office_name": null,
    "office_name_kana": null
  },
  "2200": {
    "postcode": "0292200",
    "prefecture": "岩手県",
    "prefecture_kana": "イワテケン",
    "prefecture_code": 3,
    "city": "陸前高田市",
    "city_kana": "リクゼンタカタシ",
    "town": "",
    "town_kana": "",
    "street": null,
    "office_name": null,
    "office_name_kana": null
  },
  "2201": {
    "postcode": "0292201",
    "prefecture": "岩手県",
    "prefecture_kana": "イワテケン",
    "prefecture_code": 3,
    "city": "陸前高田市",
    "city_kana": "リクゼンタカタシ",
    "town": "矢作町",
    "town_kana": "ヤハギチョウ",
    "street": null,
    "office_name": null,
    "office_name_kana": null
  },
  "2202": {
    "postcode": "0292202",
    "prefecture": "岩手県",
    "prefecture_kana": "イワテケン",
    "prefecture_code": 3,
    "city": "陸前高田市",
    "city_kana": "リクゼンタカタシ",
    "town": "横田町",
    "town_kana": "ヨコタチョウ",
    "street": null,
    "office_name": null,
    "office_name_kana": null
  },
  "2203": {
    "postcode": "0292203",
    "prefecture": "岩手県",
    "prefecture_kana": "イワテケン",
    "prefecture_code": 3,
    "city": "陸前高田市",
    "city_kana": "リクゼンタカタシ",
    "town": "竹駒町",
    "town_kana": "タケコマチョウ",
    "street": null,
    "office_name": null,
    "office_name_kana": null
  },
  "2204": {
    "postcode": "0292204",
    "prefecture": "岩手県",
    "prefecture_kana": "イワテケン",
    "prefecture_code": 3,
    "city": "陸前高田市",
    "city_kana": "リクゼンタカタシ",
    "town": "気仙町",
    "town_kana": "ケセンチョウ",
    "street": null,
    "office_name": null,
    "office_name_kana": null
  },
  "2205": {
    "postcode": "0292205",
    "prefecture": "岩手県",
    "prefecture_kana": "イワテケン",
    "prefecture_code": 3,
    "city": "陸前高田市",
    "city_kana": "リクゼンタカタシ",
    "town": "高田町",
    "town_kana": "タカタチョウ",
    "street": null,
    "office_name": null,
    "office_name_kana": null
  },
  "2206": {
    "postcode": "0292206",
    "prefecture": "岩手県",
    "prefecture_kana": "イワテケン",
    "prefecture_code": 3,
    "city": "陸前高田市",
    "city_kana": "リクゼンタカタシ",
    "town": "米崎町",
    "town_kana": "ヨネサキチョウ",
    "street": null,
    "office_name": null,
    "office_name_kana": null
  },
  "2207": {
    "postcode": "0292207",
    "prefecture": "岩手県",
    "prefecture_kana": "イワテケン",
    "prefecture_code": 3,
    "city": "陸前高田市",
    "city_kana": "リクゼンタカタシ",
    "town": "小友町",
    "town_kana": "オトモチョウ",
    "street": null,
    "office_name": null,
    "office_name_kana": null
  },
  "2208": {
    "postcode": "0292208",
    "prefecture": "岩手県",
    "prefecture_kana": "イワテケン",
    "prefecture_code": 3,
    "city": "陸前高田市",
    "city_kana": "リクゼンタカタシ",
    "town": "広田町",
    "town_kana": "ヒロタチョウ",
    "street": null,
    "office_name": null,
    "office_name_kana": null
  },
  "2292": {
    "postcode": "0292292",
    "prefecture": "岩手県",
    "prefecture_kana": "イワテケン",
    "prefecture_code": 3,
    "city": "陸前高田市",
    "city_kana": "リクゼンタカタシ",
    "town": "高田町",
    "town_kana": "タカタチョウ",
    "street": "字下和野１００番地",
    "office_name": "陸前高田市役所",
    "office_name_kana": "リクゼンタカタシヤクシヨ"
  },
  "2293": {
    "postcode": "0292293",
    "prefecture": "岩手県",
    "prefecture_kana": "イワテケン",
    "prefecture_code": 3,
    "city": "陸前高田市",
    "city_kana": "リクゼンタカタシ",
    "town": "高田町",
    "town_kana": "タカタチョウ",
    "street": "字館の沖１８番地（陸前高田郵便局・郵便分室私書箱第１１号）",
    "office_name": "陸前高田市　農業協合組合",
    "office_name_kana": "リクゼンタカダシ ノウギヨウキヨウドウクミアイ"
  },
  "2300": {
    "postcode": "0292300",
    "prefecture": "岩手県",
    "prefecture_kana": "イワテケン",
    "prefecture_code": 3,
    "city": "気仙郡住田町",
    "city_kana": "ケセングンスミタチョウ",
    "town": "",
    "town_kana": "",
    "street": null,
    "office_name": null,
    "office_name_kana": null
  },
  "2311": {
    "postcode": "0292311",
    "prefecture": "岩手県",
    "prefecture_kana": "イワテケン",
    "prefecture_code": 3,
    "city": "気仙郡住田町",
    "city_kana": "ケセングンスミタチョウ",
    "town": "世田米",
    "town_kana": "セタマイ",
    "street": null,
    "office_name": null,
    "office_name_kana": null
  },
  "2396": {
    "postcode": "0292396",
    "prefecture": "岩手県",
    "prefecture_kana": "イワテケン",
    "prefecture_code": 3,
    "city": "気仙郡住田町",
    "city_kana": "ケセングンスミタチョウ",
    "town": "世田米",
    "town_kana": "セタマイ",
    "street": "字川向９６−１",
    "office_name": "住田町役場",
    "office_name_kana": "スミタチヨウヤクバ"
  },
  "2501": {
    "postcode": "0292501",
    "prefecture": "岩手県",
    "prefecture_kana": "イワテケン",
    "prefecture_code": 3,
    "city": "気仙郡住田町",
    "city_kana": "ケセングンスミタチョウ",
    "town": "上有住",
    "town_kana": "カミアリス",
    "street": null,
    "office_name": null,
    "office_name_kana": null
  },
  "2502": {
    "postcode": "0292502",
    "prefecture": "岩手県",
    "prefecture_kana": "イワテケン",
    "prefecture_code": 3,
    "city": "気仙郡住田町",
    "city_kana": "ケセングンスミタチョウ",
    "town": "下有住",
    "town_kana": "シモアリス",
    "street": null,
    "office_name": null,
    "office_name_kana": null
  },
  "3101": {
    "postcode": "0293101",
    "prefecture": "岩手県",
    "prefecture_kana": "イワテケン",
    "prefecture_code": 3,
    "city": "一関市",
    "city_kana": "イチノセキシ",
    "town": "花泉町花泉",
    "town_kana": "ハナイズミチョウハナイズミ",
    "street": null,
    "office_name": null,
    "office_name_kana": null
  },
  "3102": {
    "postcode": "0293102",
    "prefecture": "岩手県",
    "prefecture_kana": "イワテケン",
    "prefecture_code": 3,
    "city": "一関市",
    "city_kana": "イチノセキシ",
    "town": "花泉町金沢",
    "town_kana": "ハナイズミチョウカザワ",
    "street": null,
    "office_name": null,
    "office_name_kana": null
  },
  "3103": {
    "postcode": "0293103",
    "prefecture": "岩手県",
    "prefecture_kana": "イワテケン",
    "prefecture_code": 3,
    "city": "一関市",
    "city_kana": "イチノセキシ",
    "town": "花泉町老松",
    "town_kana": "ハナイズミチョウオイマツ",
    "street": null,
    "office_name": null,
    "office_name_kana": null
  },
  "3104": {
    "postcode": "0293104",
    "prefecture": "岩手県",
    "prefecture_kana": "イワテケン",
    "prefecture_code": 3,
    "city": "一関市",
    "city_kana": "イチノセキシ",
    "town": "花泉町日形",
    "town_kana": "ハナイズミチョウヒカタ",
    "street": null,
    "office_name": null,
    "office_name_kana": null
  },
  "3105": [
    {
      "postcode": "0293105",
      "prefecture": "岩手県",
      "prefecture_kana": "イワテケン",
      "prefecture_code": 3,
      "city": "一関市",
      "city_kana": "イチノセキシ",
      "town": "花泉町涌津",
      "town_kana": "ハナイズミチョウワクツ",
      "street": null,
      "office_name": null,
      "office_name_kana": null
    },
    {
      "postcode": "0293105",
      "prefecture": "岩手県",
      "prefecture_kana": "イワテケン",
      "prefecture_code": 3,
      "city": "一関市",
      "city_kana": "イチノセキシ",
      "town": "花泉町涌津一ノ町",
      "town_kana": "ハナイズミチョウワクツイチノマチ",
      "street": null,
      "office_name": null,
      "office_name_kana": null
    },
    {
      "postcode": "0293105",
      "prefecture": "岩手県",
      "prefecture_kana": "イワテケン",
      "prefecture_code": 3,
      "city": "一関市",
      "city_kana": "イチノセキシ",
      "town": "花泉町涌津二ノ町",
      "town_kana": "ハナイズミチョウワクツニノマチ",
      "street": null,
      "office_name": null,
      "office_name_kana": null
    },
    {
      "postcode": "0293105",
      "prefecture": "岩手県",
      "prefecture_kana": "イワテケン",
      "prefecture_code": 3,
      "city": "一関市",
      "city_kana": "イチノセキシ",
      "town": "花泉町涌津上原",
      "town_kana": "ハナイズミチョウワクツカミハラ",
      "street": null,
      "office_name": null,
      "office_name_kana": null
    },
    {
      "postcode": "0293105",
      "prefecture": "岩手県",
      "prefecture_kana": "イワテケン",
      "prefecture_code": 3,
      "city": "一関市",
      "city_kana": "イチノセキシ",
      "town": "花泉町涌津境",
      "town_kana": "ハナイズミチョウワクツサカイ",
      "street": null,
      "office_name": null,
      "office_name_kana": null
    },
    {
      "postcode": "0293105",
      "prefecture": "岩手県",
      "prefecture_kana": "イワテケン",
      "prefecture_code": 3,
      "city": "一関市",
      "city_kana": "イチノセキシ",
      "town": "花泉町涌津古川",
      "town_kana": "ハナイズミチョウワクツフルカワ",
      "street": null,
      "office_name": null,
      "office_name_kana": null
    },
    {
      "postcode": "0293105",
      "prefecture": "岩手県",
      "prefecture_kana": "イワテケン",
      "prefecture_code": 3,
      "city": "一関市",
      "city_kana": "イチノセキシ",
      "town": "花泉町涌津道下",
      "town_kana": "ハナイズミチョウワクツミチシタ",
      "street": null,
      "office_name": null,
      "office_name_kana": null
    }
  ],
  "3205": {
    "postcode": "0293205",
    "prefecture": "岩手県",
    "prefecture_kana": "イワテケン",
    "prefecture_code": 3,
    "city": "一関市",
    "city_kana": "イチノセキシ",
    "town": "花泉町涌津",
    "town_kana": "ハナイズミチョウワクツ",
    "street": null,
    "office_name": null,
    "office_name_kana": null
  },
  "3206": {
    "postcode": "0293206",
    "prefecture": "岩手県",
    "prefecture_kana": "イワテケン",
    "prefecture_code": 3,
    "city": "一関市",
    "city_kana": "イチノセキシ",
    "town": "花泉町永井",
    "town_kana": "ハナイズミチョウナガイ",
    "street": null,
    "office_name": null,
    "office_name_kana": null
  },
  "3207": {
    "postcode": "0293207",
    "prefecture": "岩手県",
    "prefecture_kana": "イワテケン",
    "prefecture_code": 3,
    "city": "一関市",
    "city_kana": "イチノセキシ",
    "town": "花泉町油島",
    "town_kana": "ハナイズミチョウユシマ",
    "street": null,
    "office_name": null,
    "office_name_kana": null
  },
  "3311": {
    "postcode": "0293311",
    "prefecture": "岩手県",
    "prefecture_kana": "イワテケン",
    "prefecture_code": 3,
    "city": "一関市",
    "city_kana": "イチノセキシ",
    "town": "藤沢町黄海",
    "town_kana": "フジサワチョウキノミ",
    "street": null,
    "office_name": null,
    "office_name_kana": null
  },
  "3401": {
    "postcode": "0293401",
    "prefecture": "岩手県",
    "prefecture_kana": "イワテケン",
    "prefecture_code": 3,
    "city": "一関市",
    "city_kana": "イチノセキシ",
    "town": "藤沢町増沢",
    "town_kana": "フジサワチョウマスザワ",
    "street": null,
    "office_name": null,
    "office_name_kana": null
  },
  "3402": {
    "postcode": "0293402",
    "prefecture": "岩手県",
    "prefecture_kana": "イワテケン",
    "prefecture_code": 3,
    "city": "一関市",
    "city_kana": "イチノセキシ",
    "town": "藤沢町新沼",
    "town_kana": "フジサワチョウニイヌマ",
    "street": null,
    "office_name": null,
    "office_name_kana": null
  },
  "3403": {
    "postcode": "0293403",
    "prefecture": "岩手県",
    "prefecture_kana": "イワテケン",
    "prefecture_code": 3,
    "city": "一関市",
    "city_kana": "イチノセキシ",
    "town": "藤沢町砂子田",
    "town_kana": "フジサワチョウスナゴタ",
    "street": null,
    "office_name": null,
    "office_name_kana": null
  },
  "3404": {
    "postcode": "0293404",
    "prefecture": "岩手県",
    "prefecture_kana": "イワテケン",
    "prefecture_code": 3,
    "city": "一関市",
    "city_kana": "イチノセキシ",
    "town": "藤沢町徳田",
    "town_kana": "フジサワチョウトクダ",
    "street": null,
    "office_name": null,
    "office_name_kana": null
  },
  "3405": {
    "postcode": "0293405",
    "prefecture": "岩手県",
    "prefecture_kana": "イワテケン",
    "prefecture_code": 3,
    "city": "一関市",
    "city_kana": "イチノセキシ",
    "town": "藤沢町藤沢",
    "town_kana": "フジサワチョウフジサワ",
    "street": null,
    "office_name": null,
    "office_name_kana": null
  },
  "3406": {
    "postcode": "0293406",
    "prefecture": "岩手県",
    "prefecture_kana": "イワテケン",
    "prefecture_code": 3,
    "city": "一関市",
    "city_kana": "イチノセキシ",
    "town": "藤沢町西口",
    "town_kana": "フジサワチョウニシグチ",
    "street": null,
    "office_name": null,
    "office_name_kana": null
  },
  "3521": {
    "postcode": "0293521",
    "prefecture": "岩手県",
    "prefecture_kana": "イワテケン",
    "prefecture_code": 3,
    "city": "一関市",
    "city_kana": "イチノセキシ",
    "town": "藤沢町保呂羽",
    "town_kana": "フジサワチョウホロワ",
    "street": null,
    "office_name": null,
    "office_name_kana": null
  },
  "3522": {
    "postcode": "0293522",
    "prefecture": "岩手県",
    "prefecture_kana": "イワテケン",
    "prefecture_code": 3,
    "city": "一関市",
    "city_kana": "イチノセキシ",
    "town": "藤沢町大籠",
    "town_kana": "フジサワチョウオオカゴ",
    "street": null,
    "office_name": null,
    "office_name_kana": null
  },
  "4100": {
    "postcode": "0294100",
    "prefecture": "岩手県",
    "prefecture_kana": "イワテケン",
    "prefecture_code": 3,
    "city": "西磐井郡平泉町",
    "city_kana": "ニシイワイグンヒライズミチョウ",
    "town": "",
    "town_kana": "",
    "street": null,
    "office_name": null,
    "office_name_kana": null
  },
  "4101": {
    "postcode": "0294101",
    "prefecture": "岩手県",
    "prefecture_kana": "イワテケン",
    "prefecture_code": 3,
    "city": "西磐井郡平泉町",
    "city_kana": "ニシイワイグンヒライズミチョウ",
    "town": "長島",
    "town_kana": "ナガシマ",
    "street": null,
    "office_name": null,
    "office_name_kana": null
  },
  "4102": {
    "postcode": "0294102",
    "prefecture": "岩手県",
    "prefecture_kana": "イワテケン",
    "prefecture_code": 3,
    "city": "西磐井郡平泉町",
    "city_kana": "ニシイワイグンヒライズミチョウ",
    "town": "平泉",
    "town_kana": "ヒライズミ",
    "street": null,
    "office_name": null,
    "office_name_kana": null
  },
  "4192": {
    "postcode": "0294192",
    "prefecture": "岩手県",
    "prefecture_kana": "イワテケン",
    "prefecture_code": 3,
    "city": "西磐井郡平泉町",
    "city_kana": "ニシイワイグンヒライズミチョウ",
    "town": "平泉",
    "town_kana": "ヒライズミ",
    "street": "字志羅山４５−２（平泉郵便局私書箱第４号）",
    "office_name": "平泉町役場",
    "office_name_kana": "ヒライズミチヨウヤクバ"
  },
  "4194": {
    "postcode": "0294194",
    "prefecture": "岩手県",
    "prefecture_kana": "イワテケン",
    "prefecture_code": 3,
    "city": "西磐井郡平泉町",
    "city_kana": "ニシイワイグンヒライズミチョウ",
    "town": "平泉",
    "town_kana": "ヒライズミ",
    "street": "字佐野原２１",
    "office_name": "川嶋印刷　株式会社",
    "office_name_kana": "カワシマインサツ カブシキガイシヤ"
  },
  "4195": {
    "postcode": "0294195",
    "prefecture": "岩手県",
    "prefecture_kana": "イワテケン",
    "prefecture_code": 3,
    "city": "西磐井郡平泉町",
    "city_kana": "ニシイワイグンヒライズミチョウ",
    "town": "平泉",
    "town_kana": "ヒライズミ",
    "street": "字衣関２０２",
    "office_name": "中尊寺",
    "office_name_kana": "チユウソンジ"
  },
  "4201": [
    {
      "postcode": "0294201",
      "prefecture": "岩手県",
      "prefecture_kana": "イワテケン",
      "prefecture_code": 3,
      "city": "奥州市",
      "city_kana": "オウシュウシ",
      "town": "前沢阿部舘",
      "town_kana": "マエサワアベタテ",
      "street": null,
      "office_name": null,
      "office_name_kana": null
    },
    {
      "postcode": "0294201",
      "prefecture": "岩手県",
      "prefecture_kana": "イワテケン",
      "prefecture_code": 3,
      "city": "奥州市",
      "city_kana": "オウシュウシ",
      "town": "前沢久田",
      "town_kana": "マエサワキュウデン",
      "street": null,
      "office_name": null,
      "office_name_kana": null
    },
    {
      "postcode": "0294201",
      "prefecture": "岩手県",
      "prefecture_kana": "イワテケン",
      "prefecture_code": 3,
      "city": "奥州市",
      "city_kana": "オウシュウシ",
      "town": "前沢源氏ケ崎",
      "town_kana": "マエサワゲンジガサキ",
      "street": null,
      "office_name": null,
      "office_name_kana": null
    },
    {
      "postcode": "0294201",
      "prefecture": "岩手県",
      "prefecture_kana": "イワテケン",
      "prefecture_code": 3,
      "city": "奥州市",
      "city_kana": "オウシュウシ",
      "town": "前沢古城",
      "town_kana": "マエサワコジョウ",
      "street": null,
      "office_name": null,
      "office_name_kana": null
    }
  ],
  "4202": {
    "postcode": "0294202",
    "prefecture": "岩手県",
    "prefecture_kana": "イワテケン",
    "prefecture_code": 3,
    "city": "奥州市",
    "city_kana": "オウシュウシ",
    "town": "前沢白山",
    "town_kana": "マエサワシラヤマ",
    "street": null,
    "office_name": null,
    "office_name_kana": null
  },
  "4203": [
    {
      "postcode": "0294203",
      "prefecture": "岩手県",
      "prefecture_kana": "イワテケン",
      "prefecture_code": 3,
      "city": "奥州市",
      "city_kana": "オウシュウシ",
      "town": "前沢北久保",
      "town_kana": "マエサワキタクボ",
      "street": null,
      "office_name": null,
      "office_name_kana": null
    },
    {
      "postcode": "0294203",
      "prefecture": "岩手県",
      "prefecture_kana": "イワテケン",
      "prefecture_code": 3,
      "city": "奥州市",
      "city_kana": "オウシュウシ",
      "town": "前沢狐堂",
      "town_kana": "マエサワキツネドウ",
      "street": null,
      "office_name": null,
      "office_name_kana": null
    },
    {
      "postcode": "0294203",
      "prefecture": "岩手県",
      "prefecture_kana": "イワテケン",
      "prefecture_code": 3,
      "city": "奥州市",
      "city_kana": "オウシュウシ",
      "town": "前沢生母",
      "town_kana": "マエサワセイボ",
      "street": null,
      "office_name": null,
      "office_name_kana": null
    }
  ],
  "4204": [
    {
      "postcode": "0294204",
      "prefecture": "岩手県",
      "prefecture_kana": "イワテケン",
      "prefecture_code": 3,
      "city": "奥州市",
      "city_kana": "オウシュウシ",
      "town": "前沢下谷起",
      "town_kana": "マエサワシタヤギ",
      "street": null,
      "office_name": null,
      "office_name_kana": null
    },
    {
      "postcode": "0294204",
      "prefecture": "岩手県",
      "prefecture_kana": "イワテケン",
      "prefecture_code": 3,
      "city": "奥州市",
      "city_kana": "オウシュウシ",
      "town": "前沢島",
      "town_kana": "マエサワシマ",
      "street": null,
      "office_name": null,
      "office_name_kana": null
    },
    {
      "postcode": "0294204",
      "prefecture": "岩手県",
      "prefecture_kana": "イワテケン",
      "prefecture_code": 3,
      "city": "奥州市",
      "city_kana": "オウシュウシ",
      "town": "前沢宿",
      "town_kana": "マエサワシュク",
      "street": null,
      "office_name": null,
      "office_name_kana": null
    },
    {
      "postcode": "0294204",
      "prefecture": "岩手県",
      "prefecture_kana": "イワテケン",
      "prefecture_code": 3,
      "city": "奥州市",
      "city_kana": "オウシュウシ",
      "town": "前沢高畑",
      "town_kana": "マエサワタカハタケ",
      "street": null,
      "office_name": null,
      "office_name_kana": null
    },
    {
      "postcode": "0294204",
      "prefecture": "岩手県",
      "prefecture_kana": "イワテケン",
      "prefecture_code": 3,
      "city": "奥州市",
      "city_kana": "オウシュウシ",
      "town": "前沢田中",
      "town_kana": "マエサワタナカ",
      "street": null,
      "office_name": null,
      "office_name_kana": null
    },
    {
      "postcode": "0294204",
      "prefecture": "岩手県",
      "prefecture_kana": "イワテケン",
      "prefecture_code": 3,
      "city": "奥州市",
      "city_kana": "オウシュウシ",
      "town": "前沢道場",
      "town_kana": "マエサワドウバ",
      "street": null,
      "office_name": null,
      "office_name_kana": null
    },
    {
      "postcode": "0294204",
      "prefecture": "岩手県",
      "prefecture_kana": "イワテケン",
      "prefecture_code": 3,
      "city": "奥州市",
      "city_kana": "オウシュウシ",
      "town": "前沢鳥待小屋",
      "town_kana": "マエサワトリマチゴヤ",
      "street": null,
      "office_name": null,
      "office_name_kana": null
    },
    {
      "postcode": "0294204",
      "prefecture": "岩手県",
      "prefecture_kana": "イワテケン",
      "prefecture_code": 3,
      "city": "奥州市",
      "city_kana": "オウシュウシ",
      "town": "前沢中久保",
      "town_kana": "マエサワナカクボ",
      "street": null,
      "office_name": null,
      "office_name_kana": null
    },
    {
      "postcode": "0294204",
      "prefecture": "岩手県",
      "prefecture_kana": "イワテケン",
      "prefecture_code": 3,
      "city": "奥州市",
      "city_kana": "オウシュウシ",
      "town": "前沢長檀",
      "town_kana": "マエサワナガダン",
      "street": null,
      "office_name": null,
      "office_name_kana": null
    },
    {
      "postcode": "0294204",
      "prefecture": "岩手県",
      "prefecture_kana": "イワテケン",
      "prefecture_code": 3,
      "city": "奥州市",
      "city_kana": "オウシュウシ",
      "town": "前沢中村",
      "town_kana": "マエサワナカムラ",
      "street": null,
      "office_name": null,
      "office_name_kana": null
    },
    {
      "postcode": "0294204",
      "prefecture": "岩手県",
      "prefecture_kana": "イワテケン",
      "prefecture_code": 3,
      "city": "奥州市",
      "city_kana": "オウシュウシ",
      "town": "前沢古川",
      "town_kana": "マエサワフルカワ",
      "street": null,
      "office_name": null,
      "office_name_kana": null
    },
    {
      "postcode": "0294204",
      "prefecture": "岩手県",
      "prefecture_kana": "イワテケン",
      "prefecture_code": 3,
      "city": "奥州市",
      "city_kana": "オウシュウシ",
      "town": "前沢南前沢",
      "town_kana": "マエサワミナミマエサワ",
      "street": null,
      "office_name": null,
      "office_name_kana": null
    },
    {
      "postcode": "0294204",
      "prefecture": "岩手県",
      "prefecture_kana": "イワテケン",
      "prefecture_code": 3,
      "city": "奥州市",
      "city_kana": "オウシュウシ",
      "town": "前沢向田",
      "town_kana": "マエサワムカイダ",
      "street": null,
      "office_name": null,
      "office_name_kana": null
    },
    {
      "postcode": "0294204",
      "prefecture": "岩手県",
      "prefecture_kana": "イワテケン",
      "prefecture_code": 3,
      "city": "奥州市",
      "city_kana": "オウシュウシ",
      "town": "前沢本杉",
      "town_kana": "マエサワモトスギ",
      "street": null,
      "office_name": null,
      "office_name_kana": null
    },
    {
      "postcode": "0294204",
      "prefecture": "岩手県",
      "prefecture_kana": "イワテケン",
      "prefecture_code": 3,
      "city": "奥州市",
      "city_kana": "オウシュウシ",
      "town": "前沢谷地",
      "town_kana": "マエサワヤチ",
      "street": null,
      "office_name": null,
      "office_name_kana": null
    },
    {
      "postcode": "0294204",
      "prefecture": "岩手県",
      "prefecture_kana": "イワテケン",
      "prefecture_code": 3,
      "city": "奥州市",
      "city_kana": "オウシュウシ",
      "town": "前沢八幡",
      "town_kana": "マエサワヤワタ",
      "street": null,
      "office_name": null,
      "office_name_kana": null
    },
    {
      "postcode": "0294204",
      "prefecture": "岩手県",
      "prefecture_kana": "イワテケン",
      "prefecture_code": 3,
      "city": "奥州市",
      "city_kana": "オウシュウシ",
      "town": "前沢八幡前",
      "town_kana": "マエサワヤワタマエ",
      "street": null,
      "office_name": null,
      "office_name_kana": null
    }
  ],
  "4205": [
    {
      "postcode": "0294205",
      "prefecture": "岩手県",
      "prefecture_kana": "イワテケン",
      "prefecture_code": 3,
      "city": "奥州市",
      "city_kana": "オウシュウシ",
      "town": "前沢合ノ沢",
      "town_kana": "マエサワアイノサワ",
      "street": null,
      "office_name": null,
      "office_name_kana": null
    },
    {
      "postcode": "0294205",
      "prefecture": "岩手県",
      "prefecture_kana": "イワテケン",
      "prefecture_code": 3,
      "city": "奥州市",
      "city_kana": "オウシュウシ",
      "town": "前沢安寺沢",
      "town_kana": "マエサワアテラサワ",
      "street": null,
      "office_name": null,
      "office_name_kana": null
    },
    {
      "postcode": "0294205",
      "prefecture": "岩手県",
      "prefecture_kana": "イワテケン",
      "prefecture_code": 3,
      "city": "奥州市",
      "city_kana": "オウシュウシ",
      "town": "前沢石田",
      "town_kana": "マエサワイシダ",
      "street": null,
      "office_name": null,
      "office_name_kana": null
    },
    {
      "postcode": "0294205",
      "prefecture": "岩手県",
      "prefecture_kana": "イワテケン",
      "prefecture_code": 3,
      "city": "奥州市",
      "city_kana": "オウシュウシ",
      "town": "前沢一ノ沢",
      "town_kana": "マエサワイチノサワ",
      "street": null,
      "office_name": null,
      "office_name_kana": null
    },
    {
      "postcode": "0294205",
      "prefecture": "岩手県",
      "prefecture_kana": "イワテケン",
      "prefecture_code": 3,
      "city": "奥州市",
      "city_kana": "オウシュウシ",
      "town": "前沢鵜ノ木",
      "town_kana": "マエサワウノキ",
      "street": null,
      "office_name": null,
      "office_name_kana": null
    },
    {
      "postcode": "0294205",
      "prefecture": "岩手県",
      "prefecture_kana": "イワテケン",
      "prefecture_code": 3,
      "city": "奥州市",
      "city_kana": "オウシュウシ",
      "town": "前沢鵜ノ木田",
      "town_kana": "マエサワウノキダ",
      "street": null,
      "office_name": null,
      "office_name_kana": null
    },
    {
      "postcode": "0294205",
      "prefecture": "岩手県",
      "prefecture_kana": "イワテケン",
      "prefecture_code": 3,
      "city": "奥州市",
      "city_kana": "オウシュウシ",
      "town": "前沢うるし野",
      "town_kana": "マエサワウルシノ",
      "street": null,
      "office_name": null,
      "office_name_kana": null
    },
    {
      "postcode": "0294205",
      "prefecture": "岩手県",
      "prefecture_kana": "イワテケン",
      "prefecture_code": 3,
      "city": "奥州市",
      "city_kana": "オウシュウシ",
      "town": "前沢大袋",
      "town_kana": "マエサワオオブクロ",
      "street": null,
      "office_name": null,
      "office_name_kana": null
    },
    {
      "postcode": "0294205",
      "prefecture": "岩手県",
      "prefecture_kana": "イワテケン",
      "prefecture_code": 3,
      "city": "奥州市",
      "city_kana": "オウシュウシ",
      "town": "前沢沖田",
      "town_kana": "マエサワオキタ",
      "street": null,
      "office_name": null,
      "office_name_kana": null
    },
    {
      "postcode": "0294205",
      "prefecture": "岩手県",
      "prefecture_kana": "イワテケン",
      "prefecture_code": 3,
      "city": "奥州市",
      "city_kana": "オウシュウシ",
      "town": "前沢小沢口",
      "town_kana": "マエサワオサワグチ",
      "street": null,
      "office_name": null,
      "office_name_kana": null
    },
    {
      "postcode": "0294205",
      "prefecture": "岩手県",
      "prefecture_kana": "イワテケン",
      "prefecture_code": 3,
      "city": "奥州市",
      "city_kana": "オウシュウシ",
      "town": "前沢川内",
      "town_kana": "マエサワカワウチ",
      "street": null,
      "office_name": null,
      "office_name_kana": null
    },
    {
      "postcode": "0294205",
      "prefecture": "岩手県",
      "prefecture_kana": "イワテケン",
      "prefecture_code": 3,
      "city": "奥州市",
      "city_kana": "オウシュウシ",
      "town": "前沢衣関",
      "town_kana": "マエサワキヌトメ",
      "street": null,
      "office_name": null,
      "office_name_kana": null
    },
    {
      "postcode": "0294205",
      "prefecture": "岩手県",
      "prefecture_kana": "イワテケン",
      "prefecture_code": 3,
      "city": "奥州市",
      "city_kana": "オウシュウシ",
      "town": "前沢里",
      "town_kana": "マエサワサト",
      "street": null,
      "office_name": null,
      "office_name_kana": null
    },
    {
      "postcode": "0294205",
      "prefecture": "岩手県",
      "prefecture_kana": "イワテケン",
      "prefecture_code": 3,
      "city": "奥州市",
      "city_kana": "オウシュウシ",
      "town": "前沢清水",
      "town_kana": "マエサワシミズ",
      "street": null,
      "office_name": null,
      "office_name_kana": null
    },
    {
      "postcode": "0294205",
      "prefecture": "岩手県",
      "prefecture_kana": "イワテケン",
      "prefecture_code": 3,
      "city": "奥州市",
      "city_kana": "オウシュウシ",
      "town": "前沢蛇ノ鼻",
      "town_kana": "マエサワジャノハナ",
      "street": null,
      "office_name": null,
      "office_name_kana": null
    },
    {
      "postcode": "0294205",
      "prefecture": "岩手県",
      "prefecture_kana": "イワテケン",
      "prefecture_code": 3,
      "city": "奥州市",
      "city_kana": "オウシュウシ",
      "town": "前沢白鳥舘",
      "town_kana": "マエサワシロトリダテ",
      "street": null,
      "office_name": null,
      "office_name_kana": null
    },
    {
      "postcode": "0294205",
      "prefecture": "岩手県",
      "prefecture_kana": "イワテケン",
      "prefecture_code": 3,
      "city": "奥州市",
      "city_kana": "オウシュウシ",
      "town": "前沢新城",
      "town_kana": "マエサワシンジョウ",
      "street": null,
      "office_name": null,
      "office_name_kana": null
    },
    {
      "postcode": "0294205",
      "prefecture": "岩手県",
      "prefecture_kana": "イワテケン",
      "prefecture_code": 3,
      "city": "奥州市",
      "city_kana": "オウシュウシ",
      "town": "前沢堤田",
      "town_kana": "マエサワツツミダ",
      "street": null,
      "office_name": null,
      "office_name_kana": null
    },
    {
      "postcode": "0294205",
      "prefecture": "岩手県",
      "prefecture_kana": "イワテケン",
      "prefecture_code": 3,
      "city": "奥州市",
      "city_kana": "オウシュウシ",
      "town": "前沢照井舘",
      "town_kana": "マエサワテルイダテ",
      "street": null,
      "office_name": null,
      "office_name_kana": null
    },
    {
      "postcode": "0294205",
      "prefecture": "岩手県",
      "prefecture_kana": "イワテケン",
      "prefecture_code": 3,
      "city": "奥州市",
      "city_kana": "オウシュウシ",
      "town": "前沢徳沢",
      "town_kana": "マエサワトクサワ",
      "street": null,
      "office_name": null,
      "office_name_kana": null
    },
    {
      "postcode": "0294205",
      "prefecture": "岩手県",
      "prefecture_kana": "イワテケン",
      "prefecture_code": 3,
      "city": "奥州市",
      "city_kana": "オウシュウシ",
      "town": "前沢永沢",
      "town_kana": "マエサワナガサワ",
      "street": null,
      "office_name": null,
      "office_name_kana": null
    },
    {
      "postcode": "0294205",
      "prefecture": "岩手県",
      "prefecture_kana": "イワテケン",
      "prefecture_code": 3,
      "city": "奥州市",
      "city_kana": "オウシュウシ",
      "town": "前沢長根",
      "town_kana": "マエサワナガネ",
      "street": null,
      "office_name": null,
      "office_name_kana": null
    },
    {
      "postcode": "0294205",
      "prefecture": "岩手県",
      "prefecture_kana": "イワテケン",
      "prefecture_code": 3,
      "city": "奥州市",
      "city_kana": "オウシュウシ",
      "town": "前沢中屋敷",
      "town_kana": "マエサワナカヤシキ",
      "street": null,
      "office_name": null,
      "office_name_kana": null
    },
    {
      "postcode": "0294205",
      "prefecture": "岩手県",
      "prefecture_kana": "イワテケン",
      "prefecture_code": 3,
      "city": "奥州市",
      "city_kana": "オウシュウシ",
      "town": "前沢浪洗",
      "town_kana": "マエサワナミアライ",
      "street": null,
      "office_name": null,
      "office_name_kana": null
    },
    {
      "postcode": "0294205",
      "prefecture": "岩手県",
      "prefecture_kana": "イワテケン",
      "prefecture_code": 3,
      "city": "奥州市",
      "city_kana": "オウシュウシ",
      "town": "前沢二ノ沢",
      "town_kana": "マエサワニノサワ",
      "street": null,
      "office_name": null,
      "office_name_kana": null
    },
    {
      "postcode": "0294205",
      "prefecture": "岩手県",
      "prefecture_kana": "イワテケン",
      "prefecture_code": 3,
      "city": "奥州市",
      "city_kana": "オウシュウシ",
      "town": "前沢沼尻",
      "town_kana": "マエサワヌマジリ",
      "street": null,
      "office_name": null,
      "office_name_kana": null
    },
    {
      "postcode": "0294205",
      "prefecture": "岩手県",
      "prefecture_kana": "イワテケン",
      "prefecture_code": 3,
      "city": "奥州市",
      "city_kana": "オウシュウシ",
      "town": "前沢沼ノ沢",
      "town_kana": "マエサワヌマノサワ",
      "street": null,
      "office_name": null,
      "office_name_kana": null
    },
    {
      "postcode": "0294205",
      "prefecture": "岩手県",
      "prefecture_kana": "イワテケン",
      "prefecture_code": 3,
      "city": "奥州市",
      "city_kana": "オウシュウシ",
      "town": "前沢日向",
      "town_kana": "マエサワヒナタ",
      "street": null,
      "office_name": null,
      "office_name_kana": null
    },
    {
      "postcode": "0294205",
      "prefecture": "岩手県",
      "prefecture_kana": "イワテケン",
      "prefecture_code": 3,
      "city": "奥州市",
      "city_kana": "オウシュウシ",
      "town": "前沢福養",
      "town_kana": "マエサワフクヨウ",
      "street": null,
      "office_name": null,
      "office_name_kana": null
    },
    {
      "postcode": "0294205",
      "prefecture": "岩手県",
      "prefecture_kana": "イワテケン",
      "prefecture_code": 3,
      "city": "奥州市",
      "city_kana": "オウシュウシ",
      "town": "前沢干場",
      "town_kana": "マエサワホシバ",
      "street": null,
      "office_name": null,
      "office_name_kana": null
    },
    {
      "postcode": "0294205",
      "prefecture": "岩手県",
      "prefecture_kana": "イワテケン",
      "prefecture_code": 3,
      "city": "奥州市",
      "city_kana": "オウシュウシ",
      "town": "前沢前野",
      "town_kana": "マエサワマエノ",
      "street": null,
      "office_name": null,
      "office_name_kana": null
    },
    {
      "postcode": "0294205",
      "prefecture": "岩手県",
      "prefecture_kana": "イワテケン",
      "prefecture_code": 3,
      "city": "奥州市",
      "city_kana": "オウシュウシ",
      "town": "前沢南陣場",
      "town_kana": "マエサワミナミジンバ",
      "street": null,
      "office_name": null,
      "office_name_kana": null
    },
    {
      "postcode": "0294205",
      "prefecture": "岩手県",
      "prefecture_kana": "イワテケン",
      "prefecture_code": 3,
      "city": "奥州市",
      "city_kana": "オウシュウシ",
      "town": "前沢南塔ケ崎",
      "town_kana": "マエサワミナミトウガサキ",
      "street": null,
      "office_name": null,
      "office_name_kana": null
    },
    {
      "postcode": "0294205",
      "prefecture": "岩手県",
      "prefecture_kana": "イワテケン",
      "prefecture_code": 3,
      "city": "奥州市",
      "city_kana": "オウシュウシ",
      "town": "前沢南中島",
      "town_kana": "マエサワミナミナカジマ",
      "street": null,
      "office_name": null,
      "office_name_kana": null
    },
    {
      "postcode": "0294205",
      "prefecture": "岩手県",
      "prefecture_kana": "イワテケン",
      "prefecture_code": 3,
      "city": "奥州市",
      "city_kana": "オウシュウシ",
      "town": "前沢箕輪",
      "town_kana": "マエサワミノワ",
      "street": null,
      "office_name": null,
      "office_name_kana": null
    },
    {
      "postcode": "0294205",
      "prefecture": "岩手県",
      "prefecture_kana": "イワテケン",
      "prefecture_code": 3,
      "city": "奥州市",
      "city_kana": "オウシュウシ",
      "town": "前沢両手沢",
      "town_kana": "マエサワモロテザワ",
      "street": null,
      "office_name": null,
      "office_name_kana": null
    },
    {
      "postcode": "0294205",
      "prefecture": "岩手県",
      "prefecture_kana": "イワテケン",
      "prefecture_code": 3,
      "city": "奥州市",
      "city_kana": "オウシュウシ",
      "town": "前沢谷記",
      "town_kana": "マエサワヤギ",
      "street": null,
      "office_name": null,
      "office_name_kana": null
    },
    {
      "postcode": "0294205",
      "prefecture": "岩手県",
      "prefecture_kana": "イワテケン",
      "prefecture_code": 3,
      "city": "奥州市",
      "city_kana": "オウシュウシ",
      "town": "前沢谷起",
      "town_kana": "マエサワヤギ",
      "street": null,
      "office_name": null,
      "office_name_kana": null
    },
    {
      "postcode": "0294205",
      "prefecture": "岩手県",
      "prefecture_kana": "イワテケン",
      "prefecture_code": 3,
      "city": "奥州市",
      "city_kana": "オウシュウシ",
      "town": "前沢谷記田",
      "town_kana": "マエサワヤギタ",
      "street": null,
      "office_name": null,
      "office_name_kana": null
    },
    {
      "postcode": "0294205",
      "prefecture": "岩手県",
      "prefecture_kana": "イワテケン",
      "prefecture_code": 3,
      "city": "奥州市",
      "city_kana": "オウシュウシ",
      "town": "前沢谷起田",
      "town_kana": "マエサワヤギタ",
      "street": null,
      "office_name": null,
      "office_name_kana": null
    },
    {
      "postcode": "0294205",
      "prefecture": "岩手県",
      "prefecture_kana": "イワテケン",
      "prefecture_code": 3,
      "city": "奥州市",
      "city_kana": "オウシュウシ",
      "town": "前沢櫓前",
      "town_kana": "マエサワヤグラマエ",
      "street": null,
      "office_name": null,
      "office_name_kana": null
    },
    {
      "postcode": "0294205",
      "prefecture": "岩手県",
      "prefecture_kana": "イワテケン",
      "prefecture_code": 3,
      "city": "奥州市",
      "city_kana": "オウシュウシ",
      "town": "前沢六本松",
      "town_kana": "マエサワロッポンマツ",
      "street": null,
      "office_name": null,
      "office_name_kana": null
    }
  ],
  "4206": [
    {
      "postcode": "0294206",
      "prefecture": "岩手県",
      "prefecture_kana": "イワテケン",
      "prefecture_code": 3,
      "city": "奥州市",
      "city_kana": "オウシュウシ",
      "town": "前沢赤坂",
      "town_kana": "マエサワアカサカ",
      "street": null,
      "office_name": null,
      "office_name_kana": null
    },
    {
      "postcode": "0294206",
      "prefecture": "岩手県",
      "prefecture_kana": "イワテケン",
      "prefecture_code": 3,
      "city": "奥州市",
      "city_kana": "オウシュウシ",
      "town": "前沢裏新田",
      "town_kana": "マエサワウラシンデン",
      "street": null,
      "office_name": null,
      "office_name_kana": null
    },
    {
      "postcode": "0294206",
      "prefecture": "岩手県",
      "prefecture_kana": "イワテケン",
      "prefecture_code": 3,
      "city": "奥州市",
      "city_kana": "オウシュウシ",
      "town": "前沢狐石",
      "town_kana": "マエサワキツネイシ",
      "street": null,
      "office_name": null,
      "office_name_kana": null
    },
    {
      "postcode": "0294206",
      "prefecture": "岩手県",
      "prefecture_kana": "イワテケン",
      "prefecture_code": 3,
      "city": "奥州市",
      "city_kana": "オウシュウシ",
      "town": "前沢駒水",
      "town_kana": "マエサワコマスイ",
      "street": null,
      "office_name": null,
      "office_name_kana": null
    },
    {
      "postcode": "0294206",
      "prefecture": "岩手県",
      "prefecture_kana": "イワテケン",
      "prefecture_code": 3,
      "city": "奥州市",
      "city_kana": "オウシュウシ",
      "town": "前沢陣場",
      "town_kana": "マエサワジンバ",
      "street": null,
      "office_name": null,
      "office_name_kana": null
    },
    {
      "postcode": "0294206",
      "prefecture": "岩手県",
      "prefecture_kana": "イワテケン",
      "prefecture_code": 3,
      "city": "奥州市",
      "city_kana": "オウシュウシ",
      "town": "前沢太郎ケ沢",
      "town_kana": "マエサワタロウガサワ",
      "street": null,
      "office_name": null,
      "office_name_kana": null
    },
    {
      "postcode": "0294206",
      "prefecture": "岩手県",
      "prefecture_kana": "イワテケン",
      "prefecture_code": 3,
      "city": "奥州市",
      "city_kana": "オウシュウシ",
      "town": "前沢日除松",
      "town_kana": "マエサワヒヨケマツ",
      "street": null,
      "office_name": null,
      "office_name_kana": null
    },
    {
      "postcode": "0294206",
      "prefecture": "岩手県",
      "prefecture_kana": "イワテケン",
      "prefecture_code": 3,
      "city": "奥州市",
      "city_kana": "オウシュウシ",
      "town": "前沢簾森",
      "town_kana": "マエサワミスモリ",
      "street": null,
      "office_name": null,
      "office_name_kana": null
    },
    {
      "postcode": "0294206",
      "prefecture": "岩手県",
      "prefecture_kana": "イワテケン",
      "prefecture_code": 3,
      "city": "奥州市",
      "city_kana": "オウシュウシ",
      "town": "前沢養ケ森",
      "town_kana": "マエサワヨウガモリ",
      "street": null,
      "office_name": null,
      "office_name_kana": null
    }
  ],
  "4207": [
    {
      "postcode": "0294207",
      "prefecture": "岩手県",
      "prefecture_kana": "イワテケン",
      "prefecture_code": 3,
      "city": "奥州市",
      "city_kana": "オウシュウシ",
      "town": "前沢赤面",
      "town_kana": "マエサワアカツラ",
      "street": null,
      "office_name": null,
      "office_name_kana": null
    },
    {
      "postcode": "0294207",
      "prefecture": "岩手県",
      "prefecture_kana": "イワテケン",
      "prefecture_code": 3,
      "city": "奥州市",
      "city_kana": "オウシュウシ",
      "town": "前沢一本杉",
      "town_kana": "マエサワイッポンスギ",
      "street": null,
      "office_name": null,
      "office_name_kana": null
    },
    {
      "postcode": "0294207",
      "prefecture": "岩手県",
      "prefecture_kana": "イワテケン",
      "prefecture_code": 3,
      "city": "奥州市",
      "city_kana": "オウシュウシ",
      "town": "前沢大桜",
      "town_kana": "マエサワオオザクラ",
      "street": null,
      "office_name": null,
      "office_name_kana": null
    },
    {
      "postcode": "0294207",
      "prefecture": "岩手県",
      "prefecture_kana": "イワテケン",
      "prefecture_code": 3,
      "city": "奥州市",
      "city_kana": "オウシュウシ",
      "town": "前沢五十人町",
      "town_kana": "マエサワゴジュウニンマチ",
      "street": null,
      "office_name": null,
      "office_name_kana": null
    },
    {
      "postcode": "0294207",
      "prefecture": "岩手県",
      "prefecture_kana": "イワテケン",
      "prefecture_code": 3,
      "city": "奥州市",
      "city_kana": "オウシュウシ",
      "town": "前沢下小路",
      "town_kana": "マエサワシモコウジ",
      "street": null,
      "office_name": null,
      "office_name_kana": null
    },
    {
      "postcode": "0294207",
      "prefecture": "岩手県",
      "prefecture_kana": "イワテケン",
      "prefecture_code": 3,
      "city": "奥州市",
      "city_kana": "オウシュウシ",
      "town": "前沢平小路",
      "town_kana": "マエサワタイラコウジ",
      "street": null,
      "office_name": null,
      "office_name_kana": null
    },
    {
      "postcode": "0294207",
      "prefecture": "岩手県",
      "prefecture_kana": "イワテケン",
      "prefecture_code": 3,
      "city": "奥州市",
      "city_kana": "オウシュウシ",
      "town": "前沢平前",
      "town_kana": "マエサワタイラマエ",
      "street": null,
      "office_name": null,
      "office_name_kana": null
    },
    {
      "postcode": "0294207",
      "prefecture": "岩手県",
      "prefecture_kana": "イワテケン",
      "prefecture_code": 3,
      "city": "奥州市",
      "city_kana": "オウシュウシ",
      "town": "前沢塔ケ崎",
      "town_kana": "マエサワトウガサキ",
      "street": null,
      "office_name": null,
      "office_name_kana": null
    },
    {
      "postcode": "0294207",
      "prefecture": "岩手県",
      "prefecture_kana": "イワテケン",
      "prefecture_code": 3,
      "city": "奥州市",
      "city_kana": "オウシュウシ",
      "town": "前沢泊ケ崎",
      "town_kana": "マエサワトマリガサキ",
      "street": null,
      "office_name": null,
      "office_name_kana": null
    },
    {
      "postcode": "0294207",
      "prefecture": "岩手県",
      "prefecture_kana": "イワテケン",
      "prefecture_code": 3,
      "city": "奥州市",
      "city_kana": "オウシュウシ",
      "town": "前沢三日町",
      "town_kana": "マエサワミッカマチ",
      "street": null,
      "office_name": null,
      "office_name_kana": null
    },
    {
      "postcode": "0294207",
      "prefecture": "岩手県",
      "prefecture_kana": "イワテケン",
      "prefecture_code": 3,
      "city": "奥州市",
      "city_kana": "オウシュウシ",
      "town": "前沢三日町浦",
      "town_kana": "マエサワミッカマチウラ",
      "street": null,
      "office_name": null,
      "office_name_kana": null
    },
    {
      "postcode": "0294207",
      "prefecture": "岩手県",
      "prefecture_kana": "イワテケン",
      "prefecture_code": 3,
      "city": "奥州市",
      "city_kana": "オウシュウシ",
      "town": "前沢三日町新裏",
      "town_kana": "マエサワミッカマチシンウラ",
      "street": null,
      "office_name": null,
      "office_name_kana": null
    },
    {
      "postcode": "0294207",
      "prefecture": "岩手県",
      "prefecture_kana": "イワテケン",
      "prefecture_code": 3,
      "city": "奥州市",
      "city_kana": "オウシュウシ",
      "town": "前沢屋敷",
      "town_kana": "マエサワヤシキ",
      "street": null,
      "office_name": null,
      "office_name_kana": null
    }
  ],
  "4208": [
    {
      "postcode": "0294208",
      "prefecture": "岩手県",
      "prefecture_kana": "イワテケン",
      "prefecture_code": 3,
      "city": "奥州市",
      "city_kana": "オウシュウシ",
      "town": "前沢粟ケ島",
      "town_kana": "マエサワアワガシマ",
      "street": null,
      "office_name": null,
      "office_name_kana": null
    },
    {
      "postcode": "0294208",
      "prefecture": "岩手県",
      "prefecture_kana": "イワテケン",
      "prefecture_code": 3,
      "city": "奥州市",
      "city_kana": "オウシュウシ",
      "town": "前沢河ノ畑",
      "town_kana": "マエサワカノハタ",
      "street": null,
      "office_name": null,
      "office_name_kana": null
    },
    {
      "postcode": "0294208",
      "prefecture": "岩手県",
      "prefecture_kana": "イワテケン",
      "prefecture_code": 3,
      "city": "奥州市",
      "city_kana": "オウシュウシ",
      "town": "前沢株樹",
      "town_kana": "マエサワカブキ",
      "street": null,
      "office_name": null,
      "office_name_kana": null
    },
    {
      "postcode": "0294208",
      "prefecture": "岩手県",
      "prefecture_kana": "イワテケン",
      "prefecture_code": 3,
      "city": "奥州市",
      "city_kana": "オウシュウシ",
      "town": "前沢五合田",
      "town_kana": "マエサワゴゴウタ",
      "street": null,
      "office_name": null,
      "office_name_kana": null
    },
    {
      "postcode": "0294208",
      "prefecture": "岩手県",
      "prefecture_kana": "イワテケン",
      "prefecture_code": 3,
      "city": "奥州市",
      "city_kana": "オウシュウシ",
      "town": "前沢新町",
      "town_kana": "マエサワシンマチ",
      "street": null,
      "office_name": null,
      "office_name_kana": null
    },
    {
      "postcode": "0294208",
      "prefecture": "岩手県",
      "prefecture_kana": "イワテケン",
      "prefecture_code": 3,
      "city": "奥州市",
      "city_kana": "オウシュウシ",
      "town": "前沢新町裏",
      "town_kana": "マエサワシンマチウラ",
      "street": null,
      "office_name": null,
      "office_name_kana": null
    },
    {
      "postcode": "0294208",
      "prefecture": "岩手県",
      "prefecture_kana": "イワテケン",
      "prefecture_code": 3,
      "city": "奥州市",
      "city_kana": "オウシュウシ",
      "town": "前沢大林寺下",
      "town_kana": "マエサワダイリンジシタ",
      "street": null,
      "office_name": null,
      "office_name_kana": null
    },
    {
      "postcode": "0294208",
      "prefecture": "岩手県",
      "prefecture_kana": "イワテケン",
      "prefecture_code": 3,
      "city": "奥州市",
      "city_kana": "オウシュウシ",
      "town": "前沢竹沢",
      "town_kana": "マエサワタケザワ",
      "street": null,
      "office_name": null,
      "office_name_kana": null
    },
    {
      "postcode": "0294208",
      "prefecture": "岩手県",
      "prefecture_kana": "イワテケン",
      "prefecture_code": 3,
      "city": "奥州市",
      "city_kana": "オウシュウシ",
      "town": "前沢立石",
      "town_kana": "マエサワタテイシ",
      "street": null,
      "office_name": null,
      "office_name_kana": null
    },
    {
      "postcode": "0294208",
      "prefecture": "岩手県",
      "prefecture_kana": "イワテケン",
      "prefecture_code": 3,
      "city": "奥州市",
      "city_kana": "オウシュウシ",
      "town": "前沢田畠",
      "town_kana": "マエサワタバタ",
      "street": null,
      "office_name": null,
      "office_name_kana": null
    },
    {
      "postcode": "0294208",
      "prefecture": "岩手県",
      "prefecture_kana": "イワテケン",
      "prefecture_code": 3,
      "city": "奥州市",
      "city_kana": "オウシュウシ",
      "town": "前沢中田",
      "town_kana": "マエサワナカダ",
      "street": null,
      "office_name": null,
      "office_name_kana": null
    },
    {
      "postcode": "0294208",
      "prefecture": "岩手県",
      "prefecture_kana": "イワテケン",
      "prefecture_code": 3,
      "city": "奥州市",
      "city_kana": "オウシュウシ",
      "town": "前沢七日町",
      "town_kana": "マエサワナノカマチ",
      "street": null,
      "office_name": null,
      "office_name_kana": null
    },
    {
      "postcode": "0294208",
      "prefecture": "岩手県",
      "prefecture_kana": "イワテケン",
      "prefecture_code": 3,
      "city": "奥州市",
      "city_kana": "オウシュウシ",
      "town": "前沢七日町裏",
      "town_kana": "マエサワナノカマチウラ",
      "street": null,
      "office_name": null,
      "office_name_kana": null
    },
    {
      "postcode": "0294208",
      "prefecture": "岩手県",
      "prefecture_kana": "イワテケン",
      "prefecture_code": 3,
      "city": "奥州市",
      "city_kana": "オウシュウシ",
      "town": "前沢二十人町",
      "town_kana": "マエサワニジュウニンマチ",
      "street": null,
      "office_name": null,
      "office_name_kana": null
    },
    {
      "postcode": "0294208",
      "prefecture": "岩手県",
      "prefecture_kana": "イワテケン",
      "prefecture_code": 3,
      "city": "奥州市",
      "city_kana": "オウシュウシ",
      "town": "前沢二十人町裏",
      "town_kana": "マエサワニジュウニンマチウラ",
      "street": null,
      "office_name": null,
      "office_name_kana": null
    },
    {
      "postcode": "0294208",
      "prefecture": "岩手県",
      "prefecture_kana": "イワテケン",
      "prefecture_code": 3,
      "city": "奥州市",
      "city_kana": "オウシュウシ",
      "town": "前沢山下",
      "town_kana": "マエサワヤマシタ",
      "street": null,
      "office_name": null,
      "office_name_kana": null
    }
  ],
  "4209": {
    "postcode": "0294209",
    "prefecture": "岩手県",
    "prefecture_kana": "イワテケン",
    "prefecture_code": 3,
    "city": "奥州市",
    "city_kana": "オウシュウシ",
    "town": "前沢あすか通",
    "town_kana": "マエサワアスカドオリ",
    "street": null,
    "office_name": null,
    "office_name_kana": null
  },
  "4211": {
    "postcode": "0294211",
    "prefecture": "岩手県",
    "prefecture_kana": "イワテケン",
    "prefecture_code": 3,
    "city": "奥州市",
    "city_kana": "オウシュウシ",
    "town": "前沢駅東",
    "town_kana": "マエサワエキヒガシ",
    "street": null,
    "office_name": null,
    "office_name_kana": null
  },
  "4292": {
    "postcode": "0294292",
    "prefecture": "岩手県",
    "prefecture_kana": "イワテケン",
    "prefecture_code": 3,
    "city": "奥州市",
    "city_kana": "オウシュウシ",
    "town": "前沢",
    "town_kana": null,
    "street": "字七日町裏７１",
    "office_name": "奥州市　前沢総合支所",
    "office_name_kana": "オウシユウシ マエサワソウゴウシシヨ"
  },
  "4293": {
    "postcode": "0294293",
    "prefecture": "岩手県",
    "prefecture_kana": "イワテケン",
    "prefecture_code": 3,
    "city": "奥州市",
    "city_kana": "オウシュウシ",
    "town": "前沢向田",
    "town_kana": "マエサワムカイダ",
    "street": "２−８５",
    "office_name": "ジャスコ　株式会社　前沢店",
    "office_name_kana": "ジヤスコ カブシキガイシヤ マエサワテン"
  },
  "4303": {
    "postcode": "0294303",
    "prefecture": "岩手県",
    "prefecture_kana": "イワテケン",
    "prefecture_code": 3,
    "city": "奥州市",
    "city_kana": "オウシュウシ",
    "town": "衣川衣原",
    "town_kana": "コロモガワキヌハラ",
    "street": null,
    "office_name": null,
    "office_name_kana": null
  },
  "4304": {
    "postcode": "0294304",
    "prefecture": "岩手県",
    "prefecture_kana": "イワテケン",
    "prefecture_code": 3,
    "city": "奥州市",
    "city_kana": "オウシュウシ",
    "town": "衣川外の沢",
    "town_kana": "コロモガワソトノサワ",
    "street": null,
    "office_name": null,
    "office_name_kana": null
  },
  "4305": {
    "postcode": "0294305",
    "prefecture": "岩手県",
    "prefecture_kana": "イワテケン",
    "prefecture_code": 3,
    "city": "奥州市",
    "city_kana": "オウシュウシ",
    "town": "衣川長袋",
    "town_kana": "コロモガワナガフクロ",
    "street": null,
    "office_name": null,
    "office_name_kana": null
  },
  "4306": {
    "postcode": "0294306",
    "prefecture": "岩手県",
    "prefecture_kana": "イワテケン",
    "prefecture_code": 3,
    "city": "奥州市",
    "city_kana": "オウシュウシ",
    "town": "衣川小田",
    "town_kana": "コロモガワコダ",
    "street": null,
    "office_name": null,
    "office_name_kana": null
  },
  "4307": {
    "postcode": "0294307",
    "prefecture": "岩手県",
    "prefecture_kana": "イワテケン",
    "prefecture_code": 3,
    "city": "奥州市",
    "city_kana": "オウシュウシ",
    "town": "衣川有浦",
    "town_kana": "コロモガワアリウラ",
    "street": null,
    "office_name": null,
    "office_name_kana": null
  },
  "4308": {
    "postcode": "0294308",
    "prefecture": "岩手県",
    "prefecture_kana": "イワテケン",
    "prefecture_code": 3,
    "city": "奥州市",
    "city_kana": "オウシュウシ",
    "town": "衣川大平",
    "town_kana": "コロモガワオオダイラ",
    "street": null,
    "office_name": null,
    "office_name_kana": null
  },
  "4311": {
    "postcode": "0294311",
    "prefecture": "岩手県",
    "prefecture_kana": "イワテケン",
    "prefecture_code": 3,
    "city": "奥州市",
    "city_kana": "オウシュウシ",
    "town": "衣川古館",
    "town_kana": "コロモガワフルダテ",
    "street": null,
    "office_name": null,
    "office_name_kana": null
  },
  "4312": {
    "postcode": "0294312",
    "prefecture": "岩手県",
    "prefecture_kana": "イワテケン",
    "prefecture_code": 3,
    "city": "奥州市",
    "city_kana": "オウシュウシ",
    "town": "衣川西窪",
    "town_kana": "コロモガワニシクボ",
    "street": null,
    "office_name": null,
    "office_name_kana": null
  },
  "4313": {
    "postcode": "0294313",
    "prefecture": "岩手県",
    "prefecture_kana": "イワテケン",
    "prefecture_code": 3,
    "city": "奥州市",
    "city_kana": "オウシュウシ",
    "town": "衣川石生",
    "town_kana": "コロモガワイシュウ",
    "street": null,
    "office_name": null,
    "office_name_kana": null
  },
  "4314": {
    "postcode": "0294314",
    "prefecture": "岩手県",
    "prefecture_kana": "イワテケン",
    "prefecture_code": 3,
    "city": "奥州市",
    "city_kana": "オウシュウシ",
    "town": "衣川中屋敷",
    "town_kana": "コロモガワナカヤシキ",
    "street": null,
    "office_name": null,
    "office_name_kana": null
  },
  "4315": {
    "postcode": "0294315",
    "prefecture": "岩手県",
    "prefecture_kana": "イワテケン",
    "prefecture_code": 3,
    "city": "奥州市",
    "city_kana": "オウシュウシ",
    "town": "衣川天田",
    "town_kana": "コロモガワアマダ",
    "street": null,
    "office_name": null,
    "office_name_kana": null
  },
  "4316": {
    "postcode": "0294316",
    "prefecture": "岩手県",
    "prefecture_kana": "イワテケン",
    "prefecture_code": 3,
    "city": "奥州市",
    "city_kana": "オウシュウシ",
    "town": "衣川苗代沢",
    "town_kana": "コロモガワナワシロサワ",
    "street": null,
    "office_name": null,
    "office_name_kana": null
  },
  "4317": {
    "postcode": "0294317",
    "prefecture": "岩手県",
    "prefecture_kana": "イワテケン",
    "prefecture_code": 3,
    "city": "奥州市",
    "city_kana": "オウシュウシ",
    "town": "衣川桑畑",
    "town_kana": "コロモガワクワハタ",
    "street": null,
    "office_name": null,
    "office_name_kana": null
  },
  "4321": {
    "postcode": "0294321",
    "prefecture": "岩手県",
    "prefecture_kana": "イワテケン",
    "prefecture_code": 3,
    "city": "奥州市",
    "city_kana": "オウシュウシ",
    "town": "衣川雲南田",
    "town_kana": "コロモガワウンナンダ",
    "street": null,
    "office_name": null,
    "office_name_kana": null
  },
  "4322": {
    "postcode": "0294322",
    "prefecture": "岩手県",
    "prefecture_kana": "イワテケン",
    "prefecture_code": 3,
    "city": "奥州市",
    "city_kana": "オウシュウシ",
    "town": "衣川板倉",
    "town_kana": "コロモガワイタクラ",
    "street": null,
    "office_name": null,
    "office_name_kana": null
  },
  "4323": {
    "postcode": "0294323",
    "prefecture": "岩手県",
    "prefecture_kana": "イワテケン",
    "prefecture_code": 3,
    "city": "奥州市",
    "city_kana": "オウシュウシ",
    "town": "衣川小安代",
    "town_kana": "コロモガワコアンシロ",
    "street": null,
    "office_name": null,
    "office_name_kana": null
  },
  "4324": {
    "postcode": "0294324",
    "prefecture": "岩手県",
    "prefecture_kana": "イワテケン",
    "prefecture_code": 3,
    "city": "奥州市",
    "city_kana": "オウシュウシ",
    "town": "衣川正板",
    "town_kana": "コロモガワマサイタ",
    "street": null,
    "office_name": null,
    "office_name_kana": null
  },
  "4325": {
    "postcode": "0294325",
    "prefecture": "岩手県",
    "prefecture_kana": "イワテケン",
    "prefecture_code": 3,
    "city": "奥州市",
    "city_kana": "オウシュウシ",
    "town": "衣川小正板",
    "town_kana": "コロモガワコマサイタ",
    "street": null,
    "office_name": null,
    "office_name_kana": null
  },
  "4326": {
    "postcode": "0294326",
    "prefecture": "岩手県",
    "prefecture_kana": "イワテケン",
    "prefecture_code": 3,
    "city": "奥州市",
    "city_kana": "オウシュウシ",
    "town": "衣川懸田",
    "town_kana": "コロモガワカケダ",
    "street": null,
    "office_name": null,
    "office_name_kana": null
  },
  "4327": {
    "postcode": "0294327",
    "prefecture": "岩手県",
    "prefecture_kana": "イワテケン",
    "prefecture_code": 3,
    "city": "奥州市",
    "city_kana": "オウシュウシ",
    "town": "衣川馬懸",
    "town_kana": "コロモガワマガケ",
    "street": null,
    "office_name": null,
    "office_name_kana": null
  },
  "4328": {
    "postcode": "0294328",
    "prefecture": "岩手県",
    "prefecture_kana": "イワテケン",
    "prefecture_code": 3,
    "city": "奥州市",
    "city_kana": "オウシュウシ",
    "town": "衣川下寺田",
    "town_kana": "コロモガワシモテラダ",
    "street": null,
    "office_name": null,
    "office_name_kana": null
  },
  "4329": {
    "postcode": "0294329",
    "prefecture": "岩手県",
    "prefecture_kana": "イワテケン",
    "prefecture_code": 3,
    "city": "奥州市",
    "city_kana": "オウシュウシ",
    "town": "衣川上寺田",
    "town_kana": "コロモガワカミテラダ",
    "street": null,
    "office_name": null,
    "office_name_kana": null
  },
  "4331": {
    "postcode": "0294331",
    "prefecture": "岩手県",
    "prefecture_kana": "イワテケン",
    "prefecture_code": 3,
    "city": "奥州市",
    "city_kana": "オウシュウシ",
    "town": "衣川深沢",
    "town_kana": "コロモガワフカサワ",
    "street": null,
    "office_name": null,
    "office_name_kana": null
  },
  "4332": {
    "postcode": "0294332",
    "prefecture": "岩手県",
    "prefecture_kana": "イワテケン",
    "prefecture_code": 3,
    "city": "奥州市",
    "city_kana": "オウシュウシ",
    "town": "衣川古戸",
    "town_kana": "コロモガワフルド",
    "street": null,
    "office_name": null,
    "office_name_kana": null
  },
  "4333": {
    "postcode": "0294333",
    "prefecture": "岩手県",
    "prefecture_kana": "イワテケン",
    "prefecture_code": 3,
    "city": "奥州市",
    "city_kana": "オウシュウシ",
    "town": "衣川駒場",
    "town_kana": "コロモガワコマバ",
    "street": null,
    "office_name": null,
    "office_name_kana": null
  },
  "4334": {
    "postcode": "0294334",
    "prefecture": "岩手県",
    "prefecture_kana": "イワテケン",
    "prefecture_code": 3,
    "city": "奥州市",
    "city_kana": "オウシュウシ",
    "town": "衣川百ヶ袋",
    "town_kana": "コロモガワモガフクロ",
    "street": null,
    "office_name": null,
    "office_name_kana": null
  },
  "4341": {
    "postcode": "0294341",
    "prefecture": "岩手県",
    "prefecture_kana": "イワテケン",
    "prefecture_code": 3,
    "city": "奥州市",
    "city_kana": "オウシュウシ",
    "town": "衣川六道",
    "town_kana": "コロモガワロクドウ",
    "street": null,
    "office_name": null,
    "office_name_kana": null
  },
  "4342": {
    "postcode": "0294342",
    "prefecture": "岩手県",
    "prefecture_kana": "イワテケン",
    "prefecture_code": 3,
    "city": "奥州市",
    "city_kana": "オウシュウシ",
    "town": "衣川高保呂",
    "town_kana": "コロモガワタカホロ",
    "street": null,
    "office_name": null,
    "office_name_kana": null
  },
  "4343": {
    "postcode": "0294343",
    "prefecture": "岩手県",
    "prefecture_kana": "イワテケン",
    "prefecture_code": 3,
    "city": "奥州市",
    "city_kana": "オウシュウシ",
    "town": "衣川能登屋敷",
    "town_kana": "コロモガワノトヤシキ",
    "street": null,
    "office_name": null,
    "office_name_kana": null
  },
  "4344": {
    "postcode": "0294344",
    "prefecture": "岩手県",
    "prefecture_kana": "イワテケン",
    "prefecture_code": 3,
    "city": "奥州市",
    "city_kana": "オウシュウシ",
    "town": "衣川沢田",
    "town_kana": "コロモガワサワダ",
    "street": null,
    "office_name": null,
    "office_name_kana": null
  },
  "4345": {
    "postcode": "0294345",
    "prefecture": "岩手県",
    "prefecture_kana": "イワテケン",
    "prefecture_code": 3,
    "city": "奥州市",
    "city_kana": "オウシュウシ",
    "town": "衣川館城",
    "town_kana": "コロモガワタテシロ",
    "street": null,
    "office_name": null,
    "office_name_kana": null
  },
  "4346": {
    "postcode": "0294346",
    "prefecture": "岩手県",
    "prefecture_kana": "イワテケン",
    "prefecture_code": 3,
    "city": "奥州市",
    "city_kana": "オウシュウシ",
    "town": "衣川豊巻",
    "town_kana": "コロモガワトヨマキ",
    "street": null,
    "office_name": null,
    "office_name_kana": null
  },
  "4347": {
    "postcode": "0294347",
    "prefecture": "岩手県",
    "prefecture_kana": "イワテケン",
    "prefecture_code": 3,
    "city": "奥州市",
    "city_kana": "オウシュウシ",
    "town": "衣川大西",
    "town_kana": "コロモガワオオニシ",
    "street": null,
    "office_name": null,
    "office_name_kana": null
  },
  "4348": {
    "postcode": "0294348",
    "prefecture": "岩手県",
    "prefecture_kana": "イワテケン",
    "prefecture_code": 3,
    "city": "奥州市",
    "city_kana": "オウシュウシ",
    "town": "衣川杉野",
    "town_kana": "コロモガワスギノ",
    "street": null,
    "office_name": null,
    "office_name_kana": null
  },
  "4351": {
    "postcode": "0294351",
    "prefecture": "岩手県",
    "prefecture_kana": "イワテケン",
    "prefecture_code": 3,
    "city": "奥州市",
    "city_kana": "オウシュウシ",
    "town": "衣川夏秋",
    "town_kana": "コロモガワナツアキ",
    "street": null,
    "office_name": null,
    "office_name_kana": null
  },
  "4352": {
    "postcode": "0294352",
    "prefecture": "岩手県",
    "prefecture_kana": "イワテケン",
    "prefecture_code": 3,
    "city": "奥州市",
    "city_kana": "オウシュウシ",
    "town": "衣川岩の上",
    "town_kana": "コロモガワイワノウエ",
    "street": null,
    "office_name": null,
    "office_name_kana": null
  },
  "4353": {
    "postcode": "0294353",
    "prefecture": "岩手県",
    "prefecture_kana": "イワテケン",
    "prefecture_code": 3,
    "city": "奥州市",
    "city_kana": "オウシュウシ",
    "town": "衣川旧殿",
    "town_kana": "コロモガワキュウデン",
    "street": null,
    "office_name": null,
    "office_name_kana": null
  },
  "4354": {
    "postcode": "0294354",
    "prefecture": "岩手県",
    "prefecture_kana": "イワテケン",
    "prefecture_code": 3,
    "city": "奥州市",
    "city_kana": "オウシュウシ",
    "town": "衣川除",
    "town_kana": "コロモガワノゾキ",
    "street": null,
    "office_name": null,
    "office_name_kana": null
  },
  "4355": {
    "postcode": "0294355",
    "prefecture": "岩手県",
    "prefecture_kana": "イワテケン",
    "prefecture_code": 3,
    "city": "奥州市",
    "city_kana": "オウシュウシ",
    "town": "衣川山岸",
    "town_kana": "コロモガワヤマギシ",
    "street": null,
    "office_name": null,
    "office_name_kana": null
  },
  "4361": {
    "postcode": "0294361",
    "prefecture": "岩手県",
    "prefecture_kana": "イワテケン",
    "prefecture_code": 3,
    "city": "奥州市",
    "city_kana": "オウシュウシ",
    "town": "衣川長嚢",
    "town_kana": "コロモガワナガフクロ",
    "street": null,
    "office_name": null,
    "office_name_kana": null
  },
  "4362": {
    "postcode": "0294362",
    "prefecture": "岩手県",
    "prefecture_kana": "イワテケン",
    "prefecture_code": 3,
    "city": "奥州市",
    "city_kana": "オウシュウシ",
    "town": "衣川小林山",
    "town_kana": "コロモガワコバヤシヤマ",
    "street": null,
    "office_name": null,
    "office_name_kana": null
  },
  "4363": {
    "postcode": "0294363",
    "prefecture": "岩手県",
    "prefecture_kana": "イワテケン",
    "prefecture_code": 3,
    "city": "奥州市",
    "city_kana": "オウシュウシ",
    "town": "衣川夏梨",
    "town_kana": "コロモガワナツナシ",
    "street": null,
    "office_name": null,
    "office_name_kana": null
  },
  "4364": {
    "postcode": "0294364",
    "prefecture": "岩手県",
    "prefecture_kana": "イワテケン",
    "prefecture_code": 3,
    "city": "奥州市",
    "city_kana": "オウシュウシ",
    "town": "衣川西風山",
    "town_kana": "コロモガワナレヤマ",
    "street": null,
    "office_name": null,
    "office_name_kana": null
  },
  "4365": {
    "postcode": "0294365",
    "prefecture": "岩手県",
    "prefecture_kana": "イワテケン",
    "prefecture_code": 3,
    "city": "奥州市",
    "city_kana": "オウシュウシ",
    "town": "衣川天土",
    "town_kana": "コロモガワアマツチ",
    "street": null,
    "office_name": null,
    "office_name_kana": null
  },
  "4371": {
    "postcode": "0294371",
    "prefecture": "岩手県",
    "prefecture_kana": "イワテケン",
    "prefecture_code": 3,
    "city": "奥州市",
    "city_kana": "オウシュウシ",
    "town": "衣川桧山沢",
    "town_kana": "コロモガワヒヤマサワ",
    "street": null,
    "office_name": null,
    "office_name_kana": null
  },
  "4372": {
    "postcode": "0294372",
    "prefecture": "岩手県",
    "prefecture_kana": "イワテケン",
    "prefecture_code": 3,
    "city": "奥州市",
    "city_kana": "オウシュウシ",
    "town": "衣川松林",
    "town_kana": "コロモガワマツバヤシ",
    "street": null,
    "office_name": null,
    "office_name_kana": null
  },
  "4373": {
    "postcode": "0294373",
    "prefecture": "岩手県",
    "prefecture_kana": "イワテケン",
    "prefecture_code": 3,
    "city": "奥州市",
    "city_kana": "オウシュウシ",
    "town": "衣川山田",
    "town_kana": "コロモガワヤマダ",
    "street": null,
    "office_name": null,
    "office_name_kana": null
  },
  "4374": {
    "postcode": "0294374",
    "prefecture": "岩手県",
    "prefecture_kana": "イワテケン",
    "prefecture_code": 3,
    "city": "奥州市",
    "city_kana": "オウシュウシ",
    "town": "衣川桧山沢山",
    "town_kana": "コロモガワヒヤマサワヤマ",
    "street": null,
    "office_name": null,
    "office_name_kana": null
  },
  "4375": {
    "postcode": "0294375",
    "prefecture": "岩手県",
    "prefecture_kana": "イワテケン",
    "prefecture_code": 3,
    "city": "奥州市",
    "city_kana": "オウシュウシ",
    "town": "衣川鞍掛",
    "town_kana": "コロモガワクラカケ",
    "street": null,
    "office_name": null,
    "office_name_kana": null
  },
  "4376": {
    "postcode": "0294376",
    "prefecture": "岩手県",
    "prefecture_kana": "イワテケン",
    "prefecture_code": 3,
    "city": "奥州市",
    "city_kana": "オウシュウシ",
    "town": "衣川本巻",
    "town_kana": "コロモガワモトマキ",
    "street": null,
    "office_name": null,
    "office_name_kana": null
  },
  "4377": {
    "postcode": "0294377",
    "prefecture": "岩手県",
    "prefecture_kana": "イワテケン",
    "prefecture_code": 3,
    "city": "奥州市",
    "city_kana": "オウシュウシ",
    "town": "衣川後山",
    "town_kana": "コロモガワウシロヤマ",
    "street": null,
    "office_name": null,
    "office_name_kana": null
  },
  "4378": {
    "postcode": "0294378",
    "prefecture": "岩手県",
    "prefecture_kana": "イワテケン",
    "prefecture_code": 3,
    "city": "奥州市",
    "city_kana": "オウシュウシ",
    "town": "衣川菖蒲平",
    "town_kana": "コロモガワショウブダイラ",
    "street": null,
    "office_name": null,
    "office_name_kana": null
  },
  "4381": {
    "postcode": "0294381",
    "prefecture": "岩手県",
    "prefecture_kana": "イワテケン",
    "prefecture_code": 3,
    "city": "奥州市",
    "city_kana": "オウシュウシ",
    "town": "衣川石ヶ沢",
    "town_kana": "コロモガワイシガサワ",
    "street": null,
    "office_name": null,
    "office_name_kana": null
  },
  "4382": {
    "postcode": "0294382",
    "prefecture": "岩手県",
    "prefecture_kana": "イワテケン",
    "prefecture_code": 3,
    "city": "奥州市",
    "city_kana": "オウシュウシ",
    "town": "衣川関袋",
    "town_kana": "コロモガワセキブクロ",
    "street": null,
    "office_name": null,
    "office_name_kana": null
  },
  "4383": {
    "postcode": "0294383",
    "prefecture": "岩手県",
    "prefecture_kana": "イワテケン",
    "prefecture_code": 3,
    "city": "奥州市",
    "city_kana": "オウシュウシ",
    "town": "衣川沖の野",
    "town_kana": "コロモガワオキノノ",
    "street": null,
    "office_name": null,
    "office_name_kana": null
  },
  "4384": {
    "postcode": "0294384",
    "prefecture": "岩手県",
    "prefecture_kana": "イワテケン",
    "prefecture_code": 3,
    "city": "奥州市",
    "city_kana": "オウシュウシ",
    "town": "衣川石神",
    "town_kana": "コロモガワイシガミ",
    "street": null,
    "office_name": null,
    "office_name_kana": null
  },
  "4385": {
    "postcode": "0294385",
    "prefecture": "岩手県",
    "prefecture_kana": "イワテケン",
    "prefecture_code": 3,
    "city": "奥州市",
    "city_kana": "オウシュウシ",
    "town": "衣川富沢",
    "town_kana": "コロモガワトミサワ",
    "street": null,
    "office_name": null,
    "office_name_kana": null
  },
  "4386": {
    "postcode": "0294386",
    "prefecture": "岩手県",
    "prefecture_kana": "イワテケン",
    "prefecture_code": 3,
    "city": "奥州市",
    "city_kana": "オウシュウシ",
    "town": "衣川女石",
    "town_kana": "コロモガワオンナイシ",
    "street": null,
    "office_name": null,
    "office_name_kana": null
  },
  "4387": {
    "postcode": "0294387",
    "prefecture": "岩手県",
    "prefecture_kana": "イワテケン",
    "prefecture_code": 3,
    "city": "奥州市",
    "city_kana": "オウシュウシ",
    "town": "衣川下大森",
    "town_kana": "コロモガワシモオオモリ",
    "street": null,
    "office_name": null,
    "office_name_kana": null
  },
  "4388": {
    "postcode": "0294388",
    "prefecture": "岩手県",
    "prefecture_kana": "イワテケン",
    "prefecture_code": 3,
    "city": "奥州市",
    "city_kana": "オウシュウシ",
    "town": "衣川上大森",
    "town_kana": "コロモガワカミオオモリ",
    "street": null,
    "office_name": null,
    "office_name_kana": null
  },
  "4389": {
    "postcode": "0294389",
    "prefecture": "岩手県",
    "prefecture_kana": "イワテケン",
    "prefecture_code": 3,
    "city": "奥州市",
    "city_kana": "オウシュウシ",
    "town": "衣川長板沢",
    "town_kana": "コロモガワナガイタサワ",
    "street": null,
    "office_name": null,
    "office_name_kana": null
  },
  "4401": {
    "postcode": "0294401",
    "prefecture": "岩手県",
    "prefecture_kana": "イワテケン",
    "prefecture_code": 3,
    "city": "奥州市",
    "city_kana": "オウシュウシ",
    "town": "衣川張山",
    "town_kana": "コロモガワハリヤマ",
    "street": null,
    "office_name": null,
    "office_name_kana": null
  },
  "4402": {
    "postcode": "0294402",
    "prefecture": "岩手県",
    "prefecture_kana": "イワテケン",
    "prefecture_code": 3,
    "city": "奥州市",
    "city_kana": "オウシュウシ",
    "town": "衣川星屋",
    "town_kana": "コロモガワホシヤ",
    "street": null,
    "office_name": null,
    "office_name_kana": null
  },
  "4403": {
    "postcode": "0294403",
    "prefecture": "岩手県",
    "prefecture_kana": "イワテケン",
    "prefecture_code": 3,
    "city": "奥州市",
    "city_kana": "オウシュウシ",
    "town": "衣川本田原",
    "town_kana": "コロモガワホンダワラ",
    "street": null,
    "office_name": null,
    "office_name_kana": null
  },
  "4404": {
    "postcode": "0294404",
    "prefecture": "岩手県",
    "prefecture_kana": "イワテケン",
    "prefecture_code": 3,
    "city": "奥州市",
    "city_kana": "オウシュウシ",
    "town": "衣川寺袋",
    "town_kana": "コロモガワテラブクロ",
    "street": null,
    "office_name": null,
    "office_name_kana": null
  },
  "4405": {
    "postcode": "0294405",
    "prefecture": "岩手県",
    "prefecture_kana": "イワテケン",
    "prefecture_code": 3,
    "city": "奥州市",
    "city_kana": "オウシュウシ",
    "town": "衣川桑木谷地",
    "town_kana": "コロモガワクワノキヤチ",
    "street": null,
    "office_name": null,
    "office_name_kana": null
  },
  "4406": {
    "postcode": "0294406",
    "prefecture": "岩手県",
    "prefecture_kana": "イワテケン",
    "prefecture_code": 3,
    "city": "奥州市",
    "city_kana": "オウシュウシ",
    "town": "衣川大坂",
    "town_kana": "コロモガワオオザカ",
    "street": null,
    "office_name": null,
    "office_name_kana": null
  },
  "4407": {
    "postcode": "0294407",
    "prefecture": "岩手県",
    "prefecture_kana": "イワテケン",
    "prefecture_code": 3,
    "city": "奥州市",
    "city_kana": "オウシュウシ",
    "town": "衣川金成",
    "town_kana": "コロモガワカンナリ",
    "street": null,
    "office_name": null,
    "office_name_kana": null
  },
  "4408": {
    "postcode": "0294408",
    "prefecture": "岩手県",
    "prefecture_kana": "イワテケン",
    "prefecture_code": 3,
    "city": "奥州市",
    "city_kana": "オウシュウシ",
    "town": "衣川土屋",
    "town_kana": "コロモガワツチヤ",
    "street": null,
    "office_name": null,
    "office_name_kana": null
  },
  "4411": {
    "postcode": "0294411",
    "prefecture": "岩手県",
    "prefecture_kana": "イワテケン",
    "prefecture_code": 3,
    "city": "奥州市",
    "city_kana": "オウシュウシ",
    "town": "衣川上小路",
    "town_kana": "コロモガワカミコウジ",
    "street": null,
    "office_name": null,
    "office_name_kana": null
  },
  "4412": {
    "postcode": "0294412",
    "prefecture": "岩手県",
    "prefecture_kana": "イワテケン",
    "prefecture_code": 3,
    "city": "奥州市",
    "city_kana": "オウシュウシ",
    "town": "衣川富田",
    "town_kana": "コロモガワトミタ",
    "street": null,
    "office_name": null,
    "office_name_kana": null
  },
  "4413": {
    "postcode": "0294413",
    "prefecture": "岩手県",
    "prefecture_kana": "イワテケン",
    "prefecture_code": 3,
    "city": "奥州市",
    "city_kana": "オウシュウシ",
    "town": "衣川堰下",
    "town_kana": "コロモガワセキシタ",
    "street": null,
    "office_name": null,
    "office_name_kana": null
  },
  "4414": {
    "postcode": "0294414",
    "prefecture": "岩手県",
    "prefecture_kana": "イワテケン",
    "prefecture_code": 3,
    "city": "奥州市",
    "city_kana": "オウシュウシ",
    "town": "衣川野田",
    "town_kana": "コロモガワノダ",
    "street": null,
    "office_name": null,
    "office_name_kana": null
  },
  "4415": {
    "postcode": "0294415",
    "prefecture": "岩手県",
    "prefecture_kana": "イワテケン",
    "prefecture_code": 3,
    "city": "奥州市",
    "city_kana": "オウシュウシ",
    "town": "衣川向館谷起",
    "town_kana": "コロモガワムカイダテヤギ",
    "street": null,
    "office_name": null,
    "office_name_kana": null
  },
  "4416": {
    "postcode": "0294416",
    "prefecture": "岩手県",
    "prefecture_kana": "イワテケン",
    "prefecture_code": 3,
    "city": "奥州市",
    "city_kana": "オウシュウシ",
    "town": "衣川向館",
    "town_kana": "コロモガワムカイダテ",
    "street": null,
    "office_name": null,
    "office_name_kana": null
  },
  "4417": {
    "postcode": "0294417",
    "prefecture": "岩手県",
    "prefecture_kana": "イワテケン",
    "prefecture_code": 3,
    "city": "奥州市",
    "city_kana": "オウシュウシ",
    "town": "衣川富田前",
    "town_kana": "コロモガワトミタマエ",
    "street": null,
    "office_name": null,
    "office_name_kana": null
  },
  "4418": {
    "postcode": "0294418",
    "prefecture": "岩手県",
    "prefecture_kana": "イワテケン",
    "prefecture_code": 3,
    "city": "奥州市",
    "city_kana": "オウシュウシ",
    "town": "衣川杉林",
    "town_kana": "コロモガワスギバヤシ",
    "street": null,
    "office_name": null,
    "office_name_kana": null
  },
  "4419": {
    "postcode": "0294419",
    "prefecture": "岩手県",
    "prefecture_kana": "イワテケン",
    "prefecture_code": 3,
    "city": "奥州市",
    "city_kana": "オウシュウシ",
    "town": "衣川大面",
    "town_kana": "コロモガワオオツラ",
    "street": null,
    "office_name": null,
    "office_name_kana": null
  },
  "4421": {
    "postcode": "0294421",
    "prefecture": "岩手県",
    "prefecture_kana": "イワテケン",
    "prefecture_code": 3,
    "city": "奥州市",
    "city_kana": "オウシュウシ",
    "town": "衣川日向",
    "town_kana": "コロモガワヒナタ",
    "street": null,
    "office_name": null,
    "office_name_kana": null
  },
  "4422": {
    "postcode": "0294422",
    "prefecture": "岩手県",
    "prefecture_kana": "イワテケン",
    "prefecture_code": 3,
    "city": "奥州市",
    "city_kana": "オウシュウシ",
    "town": "衣川瀬原",
    "town_kana": "コロモガワセワラ",
    "street": null,
    "office_name": null,
    "office_name_kana": null
  },
  "4423": {
    "postcode": "0294423",
    "prefecture": "岩手県",
    "prefecture_kana": "イワテケン",
    "prefecture_code": 3,
    "city": "奥州市",
    "city_kana": "オウシュウシ",
    "town": "衣川瀬原西浦",
    "town_kana": "コロモガワセワラニシウラ",
    "street": null,
    "office_name": null,
    "office_name_kana": null
  },
  "4424": {
    "postcode": "0294424",
    "prefecture": "岩手県",
    "prefecture_kana": "イワテケン",
    "prefecture_code": 3,
    "city": "奥州市",
    "city_kana": "オウシュウシ",
    "town": "衣川九輪堂",
    "town_kana": "コロモガワクリンドウ",
    "street": null,
    "office_name": null,
    "office_name_kana": null
  },
  "4425": {
    "postcode": "0294425",
    "prefecture": "岩手県",
    "prefecture_kana": "イワテケン",
    "prefecture_code": 3,
    "city": "奥州市",
    "city_kana": "オウシュウシ",
    "town": "衣川采女沢",
    "town_kana": "コロモガワウネメザワ",
    "street": null,
    "office_name": null,
    "office_name_kana": null
  },
  "4426": {
    "postcode": "0294426",
    "prefecture": "岩手県",
    "prefecture_kana": "イワテケン",
    "prefecture_code": 3,
    "city": "奥州市",
    "city_kana": "オウシュウシ",
    "town": "衣川愛宕下",
    "town_kana": "コロモガワアタゴシタ",
    "street": null,
    "office_name": null,
    "office_name_kana": null
  },
  "4427": {
    "postcode": "0294427",
    "prefecture": "岩手県",
    "prefecture_kana": "イワテケン",
    "prefecture_code": 3,
    "city": "奥州市",
    "city_kana": "オウシュウシ",
    "town": "衣川陣場下",
    "town_kana": "コロモガワジンバシタ",
    "street": null,
    "office_name": null,
    "office_name_kana": null
  },
  "4431": {
    "postcode": "0294431",
    "prefecture": "岩手県",
    "prefecture_kana": "イワテケン",
    "prefecture_code": 3,
    "city": "奥州市",
    "city_kana": "オウシュウシ",
    "town": "衣川田中",
    "town_kana": "コロモガワタナカ",
    "street": null,
    "office_name": null,
    "office_name_kana": null
  },
  "4432": {
    "postcode": "0294432",
    "prefecture": "岩手県",
    "prefecture_kana": "イワテケン",
    "prefecture_code": 3,
    "city": "奥州市",
    "city_kana": "オウシュウシ",
    "town": "衣川小林",
    "town_kana": "コロモガワコバヤシ",
    "street": null,
    "office_name": null,
    "office_name_kana": null
  },
  "4433": {
    "postcode": "0294433",
    "prefecture": "岩手県",
    "prefecture_kana": "イワテケン",
    "prefecture_code": 3,
    "city": "奥州市",
    "city_kana": "オウシュウシ",
    "town": "衣川池田西",
    "town_kana": "コロモガワイケダニシ",
    "street": null,
    "office_name": null,
    "office_name_kana": null
  },
  "4434": {
    "postcode": "0294434",
    "prefecture": "岩手県",
    "prefecture_kana": "イワテケン",
    "prefecture_code": 3,
    "city": "奥州市",
    "city_kana": "オウシュウシ",
    "town": "衣川池田",
    "town_kana": "コロモガワイケダ",
    "street": null,
    "office_name": null,
    "office_name_kana": null
  },
  "4435": {
    "postcode": "0294435",
    "prefecture": "岩手県",
    "prefecture_kana": "イワテケン",
    "prefecture_code": 3,
    "city": "奥州市",
    "city_kana": "オウシュウシ",
    "town": "衣川押切",
    "town_kana": "コロモガワオシキリ",
    "street": null,
    "office_name": null,
    "office_name_kana": null
  },
  "4436": {
    "postcode": "0294436",
    "prefecture": "岩手県",
    "prefecture_kana": "イワテケン",
    "prefecture_code": 3,
    "city": "奥州市",
    "city_kana": "オウシュウシ",
    "town": "衣川大石ヶ沢",
    "town_kana": "コロモガワオオイシガサワ",
    "street": null,
    "office_name": null,
    "office_name_kana": null
  },
  "4437": {
    "postcode": "0294437",
    "prefecture": "岩手県",
    "prefecture_kana": "イワテケン",
    "prefecture_code": 3,
    "city": "奥州市",
    "city_kana": "オウシュウシ",
    "town": "衣川唐金",
    "town_kana": "コロモガワカラカネ",
    "street": null,
    "office_name": null,
    "office_name_kana": null
  },
  "4438": {
    "postcode": "0294438",
    "prefecture": "岩手県",
    "prefecture_kana": "イワテケン",
    "prefecture_code": 3,
    "city": "奥州市",
    "city_kana": "オウシュウシ",
    "town": "衣川室の木",
    "town_kana": "コロモガワムロノキ",
    "street": null,
    "office_name": null,
    "office_name_kana": null
  },
  "4439": {
    "postcode": "0294439",
    "prefecture": "岩手県",
    "prefecture_kana": "イワテケン",
    "prefecture_code": 3,
    "city": "奥州市",
    "city_kana": "オウシュウシ",
    "town": "衣川田中西",
    "town_kana": "コロモガワタナカニシ",
    "street": null,
    "office_name": null,
    "office_name_kana": null
  },
  "4441": {
    "postcode": "0294441",
    "prefecture": "岩手県",
    "prefecture_kana": "イワテケン",
    "prefecture_code": 3,
    "city": "奥州市",
    "city_kana": "オウシュウシ",
    "town": "衣川並木前",
    "town_kana": "コロモガワナミキマエ",
    "street": null,
    "office_name": null,
    "office_name_kana": null
  },
  "4442": {
    "postcode": "0294442",
    "prefecture": "岩手県",
    "prefecture_kana": "イワテケン",
    "prefecture_code": 3,
    "city": "奥州市",
    "city_kana": "オウシュウシ",
    "town": "衣川上野",
    "town_kana": "コロモガワウワノ",
    "street": null,
    "office_name": null,
    "office_name_kana": null
  },
  "4443": {
    "postcode": "0294443",
    "prefecture": "岩手県",
    "prefecture_kana": "イワテケン",
    "prefecture_code": 3,
    "city": "奥州市",
    "city_kana": "オウシュウシ",
    "town": "衣川六日市場",
    "town_kana": "コロモガワムイカイチバ",
    "street": null,
    "office_name": null,
    "office_name_kana": null
  },
  "4444": {
    "postcode": "0294444",
    "prefecture": "岩手県",
    "prefecture_kana": "イワテケン",
    "prefecture_code": 3,
    "city": "奥州市",
    "city_kana": "オウシュウシ",
    "town": "衣川清水の上",
    "town_kana": "コロモガワシミズノウエ",
    "street": null,
    "office_name": null,
    "office_name_kana": null
  },
  "4445": {
    "postcode": "0294445",
    "prefecture": "岩手県",
    "prefecture_kana": "イワテケン",
    "prefecture_code": 3,
    "city": "奥州市",
    "city_kana": "オウシュウシ",
    "town": "衣川七日市場",
    "town_kana": "コロモガワナノカイチバ",
    "street": null,
    "office_name": null,
    "office_name_kana": null
  },
  "4446": {
    "postcode": "0294446",
    "prefecture": "岩手県",
    "prefecture_kana": "イワテケン",
    "prefecture_code": 3,
    "city": "奥州市",
    "city_kana": "オウシュウシ",
    "town": "衣川川端",
    "town_kana": "コロモガワカワハタ",
    "street": null,
    "office_name": null,
    "office_name_kana": null
  },
  "4451": {
    "postcode": "0294451",
    "prefecture": "岩手県",
    "prefecture_kana": "イワテケン",
    "prefecture_code": 3,
    "city": "奥州市",
    "city_kana": "オウシュウシ",
    "town": "衣川東裏",
    "town_kana": "コロモガワヒガシウラ",
    "street": null,
    "office_name": null,
    "office_name_kana": null
  },
  "4452": {
    "postcode": "0294452",
    "prefecture": "岩手県",
    "prefecture_kana": "イワテケン",
    "prefecture_code": 3,
    "city": "奥州市",
    "city_kana": "オウシュウシ",
    "town": "衣川月山",
    "town_kana": "コロモガワガッサン",
    "street": null,
    "office_name": null,
    "office_name_kana": null
  },
  "4453": {
    "postcode": "0294453",
    "prefecture": "岩手県",
    "prefecture_kana": "イワテケン",
    "prefecture_code": 3,
    "city": "奥州市",
    "city_kana": "オウシュウシ",
    "town": "衣川山口",
    "town_kana": "コロモガワヤマグチ",
    "street": null,
    "office_name": null,
    "office_name_kana": null
  },
  "4454": {
    "postcode": "0294454",
    "prefecture": "岩手県",
    "prefecture_kana": "イワテケン",
    "prefecture_code": 3,
    "city": "奥州市",
    "city_kana": "オウシュウシ",
    "town": "衣川表",
    "town_kana": "コロモガワオモテ",
    "street": null,
    "office_name": null,
    "office_name_kana": null
  },
  "4455": {
    "postcode": "0294455",
    "prefecture": "岩手県",
    "prefecture_kana": "イワテケン",
    "prefecture_code": 3,
    "city": "奥州市",
    "city_kana": "オウシュウシ",
    "town": "衣川横道下",
    "town_kana": "コロモガワヨコミチシタ",
    "street": null,
    "office_name": null,
    "office_name_kana": null
  },
  "4456": {
    "postcode": "0294456",
    "prefecture": "岩手県",
    "prefecture_kana": "イワテケン",
    "prefecture_code": 3,
    "city": "奥州市",
    "city_kana": "オウシュウシ",
    "town": "衣川西裏",
    "town_kana": "コロモガワニシウラ",
    "street": null,
    "office_name": null,
    "office_name_kana": null
  },
  "4461": {
    "postcode": "0294461",
    "prefecture": "岩手県",
    "prefecture_kana": "イワテケン",
    "prefecture_code": 3,
    "city": "奥州市",
    "city_kana": "オウシュウシ",
    "town": "衣川平",
    "town_kana": "コロモガワヒラ",
    "street": null,
    "office_name": null,
    "office_name_kana": null
  },
  "4462": {
    "postcode": "0294462",
    "prefecture": "岩手県",
    "prefecture_kana": "イワテケン",
    "prefecture_code": 3,
    "city": "奥州市",
    "city_kana": "オウシュウシ",
    "town": "衣川八千",
    "town_kana": "コロモガワハッセン",
    "street": null,
    "office_name": null,
    "office_name_kana": null
  },
  "4463": {
    "postcode": "0294463",
    "prefecture": "岩手県",
    "prefecture_kana": "イワテケン",
    "prefecture_code": 3,
    "city": "奥州市",
    "city_kana": "オウシュウシ",
    "town": "衣川葭ヶ沢",
    "town_kana": "コロモガワヨシガサワ",
    "street": null,
    "office_name": null,
    "office_name_kana": null
  },
  "4464": {
    "postcode": "0294464",
    "prefecture": "岩手県",
    "prefecture_kana": "イワテケン",
    "prefecture_code": 3,
    "city": "奥州市",
    "city_kana": "オウシュウシ",
    "town": "衣川前滝の沢",
    "town_kana": "コロモガワマエタキノサワ",
    "street": null,
    "office_name": null,
    "office_name_kana": null
  },
  "4465": {
    "postcode": "0294465",
    "prefecture": "岩手県",
    "prefecture_kana": "イワテケン",
    "prefecture_code": 3,
    "city": "奥州市",
    "city_kana": "オウシュウシ",
    "town": "衣川後滝の沢",
    "town_kana": "コロモガワウシロタキノサワ",
    "street": null,
    "office_name": null,
    "office_name_kana": null
  },
  "4471": {
    "postcode": "0294471",
    "prefecture": "岩手県",
    "prefecture_kana": "イワテケン",
    "prefecture_code": 3,
    "city": "奥州市",
    "city_kana": "オウシュウシ",
    "town": "衣川下河内",
    "town_kana": "コロモガワシモカワウチ",
    "street": null,
    "office_name": null,
    "office_name_kana": null
  },
  "4472": {
    "postcode": "0294472",
    "prefecture": "岩手県",
    "prefecture_kana": "イワテケン",
    "prefecture_code": 3,
    "city": "奥州市",
    "city_kana": "オウシュウシ",
    "town": "衣川中河内",
    "town_kana": "コロモガワナカカワウチ",
    "street": null,
    "office_name": null,
    "office_name_kana": null
  },
  "4473": {
    "postcode": "0294473",
    "prefecture": "岩手県",
    "prefecture_kana": "イワテケン",
    "prefecture_code": 3,
    "city": "奥州市",
    "city_kana": "オウシュウシ",
    "town": "衣川向",
    "town_kana": "コロモガワムカイ",
    "street": null,
    "office_name": null,
    "office_name_kana": null
  },
  "4474": {
    "postcode": "0294474",
    "prefecture": "岩手県",
    "prefecture_kana": "イワテケン",
    "prefecture_code": 3,
    "city": "奥州市",
    "city_kana": "オウシュウシ",
    "town": "衣川上河内",
    "town_kana": "コロモガワカミカワウチ",
    "street": null,
    "office_name": null,
    "office_name_kana": null
  },
  "4475": {
    "postcode": "0294475",
    "prefecture": "岩手県",
    "prefecture_kana": "イワテケン",
    "prefecture_code": 3,
    "city": "奥州市",
    "city_kana": "オウシュウシ",
    "town": "衣川中山",
    "town_kana": "コロモガワナカヤマ",
    "street": null,
    "office_name": null,
    "office_name_kana": null
  },
  "4481": {
    "postcode": "0294481",
    "prefecture": "岩手県",
    "prefecture_kana": "イワテケン",
    "prefecture_code": 3,
    "city": "奥州市",
    "city_kana": "オウシュウシ",
    "town": "衣川畦畑山",
    "town_kana": "コロモガワウネハタヤマ",
    "street": null,
    "office_name": null,
    "office_name_kana": null
  },
  "4482": {
    "postcode": "0294482",
    "prefecture": "岩手県",
    "prefecture_kana": "イワテケン",
    "prefecture_code": 3,
    "city": "奥州市",
    "city_kana": "オウシュウシ",
    "town": "衣川畦畑",
    "town_kana": "コロモガワウネハタ",
    "street": null,
    "office_name": null,
    "office_name_kana": null
  },
  "4483": {
    "postcode": "0294483",
    "prefecture": "岩手県",
    "prefecture_kana": "イワテケン",
    "prefecture_code": 3,
    "city": "奥州市",
    "city_kana": "オウシュウシ",
    "town": "衣川沼野",
    "town_kana": "コロモガワヌマノ",
    "street": null,
    "office_name": null,
    "office_name_kana": null
  },
  "4484": {
    "postcode": "0294484",
    "prefecture": "岩手県",
    "prefecture_kana": "イワテケン",
    "prefecture_code": 3,
    "city": "奥州市",
    "city_kana": "オウシュウシ",
    "town": "衣川噌味",
    "town_kana": "コロモガワソウミ",
    "street": null,
    "office_name": null,
    "office_name_kana": null
  },
  "4485": {
    "postcode": "0294485",
    "prefecture": "岩手県",
    "prefecture_kana": "イワテケン",
    "prefecture_code": 3,
    "city": "奥州市",
    "city_kana": "オウシュウシ",
    "town": "衣川宝塔谷地",
    "town_kana": "コロモガワホウトウヤチ",
    "street": null,
    "office_name": null,
    "office_name_kana": null
  },
  "4486": {
    "postcode": "0294486",
    "prefecture": "岩手県",
    "prefecture_kana": "イワテケン",
    "prefecture_code": 3,
    "city": "奥州市",
    "city_kana": "オウシュウシ",
    "town": "衣川鷹の巣",
    "town_kana": "コロモガワタカノス",
    "street": null,
    "office_name": null,
    "office_name_kana": null
  },
  "4487": {
    "postcode": "0294487",
    "prefecture": "岩手県",
    "prefecture_kana": "イワテケン",
    "prefecture_code": 3,
    "city": "奥州市",
    "city_kana": "オウシュウシ",
    "town": "衣川大原山",
    "town_kana": "コロモガワオオハラヤマ",
    "street": null,
    "office_name": null,
    "office_name_kana": null
  },
  "4488": {
    "postcode": "0294488",
    "prefecture": "岩手県",
    "prefecture_kana": "イワテケン",
    "prefecture_code": 3,
    "city": "奥州市",
    "city_kana": "オウシュウシ",
    "town": "衣川大原",
    "town_kana": "コロモガワオオハラ",
    "street": null,
    "office_name": null,
    "office_name_kana": null
  },
  "4491": {
    "postcode": "0294491",
    "prefecture": "岩手県",
    "prefecture_kana": "イワテケン",
    "prefecture_code": 3,
    "city": "奥州市",
    "city_kana": "オウシュウシ",
    "town": "衣川上立沢",
    "town_kana": "コロモガワカミタチサワ",
    "street": null,
    "office_name": null,
    "office_name_kana": null
  },
  "4492": {
    "postcode": "0294492",
    "prefecture": "岩手県",
    "prefecture_kana": "イワテケン",
    "prefecture_code": 3,
    "city": "奥州市",
    "city_kana": "オウシュウシ",
    "town": "衣川下立沢",
    "town_kana": "コロモガワシモタチサワ",
    "street": null,
    "office_name": null,
    "office_name_kana": null
  },
  "4493": {
    "postcode": "0294493",
    "prefecture": "岩手県",
    "prefecture_kana": "イワテケン",
    "prefecture_code": 3,
    "city": "奥州市",
    "city_kana": "オウシュウシ",
    "town": "衣川野崎",
    "town_kana": "コロモガワノザキ",
    "street": null,
    "office_name": null,
    "office_name_kana": null
  },
  "4494": {
    "postcode": "0294494",
    "prefecture": "岩手県",
    "prefecture_kana": "イワテケン",
    "prefecture_code": 3,
    "city": "奥州市",
    "city_kana": "オウシュウシ",
    "town": "衣川楢原山",
    "town_kana": "コロモガワナラハラヤマ",
    "street": null,
    "office_name": null,
    "office_name_kana": null
  },
  "4495": {
    "postcode": "0294495",
    "prefecture": "岩手県",
    "prefecture_kana": "イワテケン",
    "prefecture_code": 3,
    "city": "奥州市",
    "city_kana": "オウシュウシ",
    "town": "衣川楢原",
    "town_kana": "コロモガワナラハラ",
    "street": null,
    "office_name": null,
    "office_name_kana": null
  },
  "4496": {
    "postcode": "0294496",
    "prefecture": "岩手県",
    "prefecture_kana": "イワテケン",
    "prefecture_code": 3,
    "city": "奥州市",
    "city_kana": "オウシュウシ",
    "town": "衣川真打",
    "town_kana": "コロモガワマウチ",
    "street": null,
    "office_name": null,
    "office_name_kana": null
  },
  "4497": {
    "postcode": "0294497",
    "prefecture": "岩手県",
    "prefecture_kana": "イワテケン",
    "prefecture_code": 3,
    "city": "奥州市",
    "city_kana": "オウシュウシ",
    "town": "衣川餅転",
    "town_kana": "コロモガワモチコロバシ",
    "street": null,
    "office_name": null,
    "office_name_kana": null
  },
  "4500": {
    "postcode": "0294500",
    "prefecture": "岩手県",
    "prefecture_kana": "イワテケン",
    "prefecture_code": 3,
    "city": "胆沢郡金ケ崎町",
    "city_kana": "イサワグンカネガサキチョウ",
    "town": "",
    "town_kana": "",
    "street": null,
    "office_name": null,
    "office_name_kana": null
  },
  "4501": {
    "postcode": "0294501",
    "prefecture": "岩手県",
    "prefecture_kana": "イワテケン",
    "prefecture_code": 3,
    "city": "胆沢郡金ケ崎町",
    "city_kana": "イサワグンカネガサキチョウ",
    "town": "六原",
    "town_kana": "ロクハラ",
    "street": null,
    "office_name": null,
    "office_name_kana": null
  },
  "4502": {
    "postcode": "0294502",
    "prefecture": "岩手県",
    "prefecture_kana": "イワテケン",
    "prefecture_code": 3,
    "city": "胆沢郡金ケ崎町",
    "city_kana": "イサワグンカネガサキチョウ",
    "town": "三ケ尻",
    "town_kana": "ミカジリ",
    "street": null,
    "office_name": null,
    "office_name_kana": null
  },
  "4503": {
    "postcode": "0294503",
    "prefecture": "岩手県",
    "prefecture_kana": "イワテケン",
    "prefecture_code": 3,
    "city": "胆沢郡金ケ崎町",
    "city_kana": "イサワグンカネガサキチョウ",
    "town": "西根",
    "town_kana": "ニシネ",
    "street": null,
    "office_name": null,
    "office_name_kana": null
  },
  "4504": {
    "postcode": "0294504",
    "prefecture": "岩手県",
    "prefecture_kana": "イワテケン",
    "prefecture_code": 3,
    "city": "胆沢郡金ケ崎町",
    "city_kana": "イサワグンカネガサキチョウ",
    "town": "永沢",
    "town_kana": "ナガサワ",
    "street": null,
    "office_name": null,
    "office_name_kana": null
  },
  "4505": {
    "postcode": "0294505",
    "prefecture": "岩手県",
    "prefecture_kana": "イワテケン",
    "prefecture_code": 3,
    "city": "胆沢郡金ケ崎町",
    "city_kana": "イサワグンカネガサキチョウ",
    "town": "永栄",
    "town_kana": "ナガサカエ",
    "street": null,
    "office_name": null,
    "office_name_kana": null
  },
  "4592": {
    "postcode": "0294592",
    "prefecture": "岩手県",
    "prefecture_kana": "イワテケン",
    "prefecture_code": 3,
    "city": "胆沢郡金ケ崎町",
    "city_kana": "イサワグンカネガサキチョウ",
    "town": "西根",
    "town_kana": "ニシネ",
    "street": "南町２２−１",
    "office_name": "金ケ崎町役場",
    "office_name_kana": "カネガサキチヨウヤクバ"
  },
  "4593": {
    "postcode": "0294593",
    "prefecture": "岩手県",
    "prefecture_kana": "イワテケン",
    "prefecture_code": 3,
    "city": "胆沢郡金ケ崎町",
    "city_kana": "イサワグンカネガサキチョウ",
    "town": "西根",
    "town_kana": "ニシネ",
    "street": "森山４番地２",
    "office_name": "株式会社　デンソー　岩手",
    "office_name_kana": "カブシキガイシヤ デンソ- イワテ"
  },
  "5500": {
    "postcode": "0295500",
    "prefecture": "岩手県",
    "prefecture_kana": "イワテケン",
    "prefecture_code": 3,
    "city": "和賀郡西和賀町",
    "city_kana": "ワガグンニシワガマチ",
    "town": "",
    "town_kana": "",
    "street": null,
    "office_name": null,
    "office_name_kana": null
  },
  "5501": [
    {
      "postcode": "0295501",
      "prefecture": "岩手県",
      "prefecture_kana": "イワテケン",
      "prefecture_code": 3,
      "city": "和賀郡西和賀町",
      "city_kana": "ワガグンニシワガマチ",
      "town": "左草",
      "town_kana": "サソウ",
      "street": null,
      "office_name": null,
      "office_name_kana": null
    },
    {
      "postcode": "0295501",
      "prefecture": "岩手県",
      "prefecture_kana": "イワテケン",
      "prefecture_code": 3,
      "city": "和賀郡西和賀町",
      "city_kana": "ワガグンニシワガマチ",
      "town": "下左草",
      "town_kana": "シモサソウ",
      "street": null,
      "office_name": null,
      "office_name_kana": null
    }
  ],
  "5502": [
    {
      "postcode": "0295502",
      "prefecture": "岩手県",
      "prefecture_kana": "イワテケン",
      "prefecture_code": 3,
      "city": "和賀郡西和賀町",
      "city_kana": "ワガグンニシワガマチ",
      "town": "樺沢",
      "town_kana": "カバサワ",
      "street": null,
      "office_name": null,
      "office_name_kana": null
    },
    {
      "postcode": "0295502",
      "prefecture": "岩手県",
      "prefecture_kana": "イワテケン",
      "prefecture_code": 3,
      "city": "和賀郡西和賀町",
      "city_kana": "ワガグンニシワガマチ",
      "town": "下前",
      "town_kana": "シタマエ",
      "street": null,
      "office_name": null,
      "office_name_kana": null
    },
    {
      "postcode": "0295502",
      "prefecture": "岩手県",
      "prefecture_kana": "イワテケン",
      "prefecture_code": 3,
      "city": "和賀郡西和賀町",
      "city_kana": "ワガグンニシワガマチ",
      "town": "寅沢１５地割",
      "town_kana": "トラサワ15チワリ",
      "street": null,
      "office_name": null,
      "office_name_kana": null
    }
  ],
  "5503": [
    {
      "postcode": "0295503",
      "prefecture": "岩手県",
      "prefecture_kana": "イワテケン",
      "prefecture_code": 3,
      "city": "和賀郡西和賀町",
      "city_kana": "ワガグンニシワガマチ",
      "town": "穴明",
      "town_kana": "アナアケ",
      "street": null,
      "office_name": null,
      "office_name_kana": null
    },
    {
      "postcode": "0295503",
      "prefecture": "岩手県",
      "prefecture_kana": "イワテケン",
      "prefecture_code": 3,
      "city": "和賀郡西和賀町",
      "city_kana": "ワガグンニシワガマチ",
      "town": "清水ケ野１８地割",
      "town_kana": "シミズガノ18チワリ",
      "street": null,
      "office_name": null,
      "office_name_kana": null
    },
    {
      "postcode": "0295503",
      "prefecture": "岩手県",
      "prefecture_kana": "イワテケン",
      "prefecture_code": 3,
      "city": "和賀郡西和賀町",
      "city_kana": "ワガグンニシワガマチ",
      "town": "間木野２４地割",
      "town_kana": "マギノ24チワリ",
      "street": null,
      "office_name": null,
      "office_name_kana": null
    },
    {
      "postcode": "0295503",
      "prefecture": "岩手県",
      "prefecture_kana": "イワテケン",
      "prefecture_code": 3,
      "city": "和賀郡西和賀町",
      "city_kana": "ワガグンニシワガマチ",
      "town": "湯田",
      "town_kana": "ユダ",
      "street": null,
      "office_name": null,
      "office_name_kana": null
    }
  ],
  "5504": {
    "postcode": "0295504",
    "prefecture": "岩手県",
    "prefecture_kana": "イワテケン",
    "prefecture_code": 3,
    "city": "和賀郡西和賀町",
    "city_kana": "ワガグンニシワガマチ",
    "town": "槻沢",
    "town_kana": "ツキザワ",
    "street": null,
    "office_name": null,
    "office_name_kana": null
  },
  "5505": {
    "postcode": "0295505",
    "prefecture": "岩手県",
    "prefecture_kana": "イワテケン",
    "prefecture_code": 3,
    "city": "和賀郡西和賀町",
    "city_kana": "ワガグンニシワガマチ",
    "town": "湯本",
    "town_kana": "ユモト",
    "street": null,
    "office_name": null,
    "office_name_kana": null
  },
  "5506": {
    "postcode": "0295506",
    "prefecture": "岩手県",
    "prefecture_kana": "イワテケン",
    "prefecture_code": 3,
    "city": "和賀郡西和賀町",
    "city_kana": "ワガグンニシワガマチ",
    "town": "湯之沢",
    "town_kana": "ユノサワ",
    "street": null,
    "office_name": null,
    "office_name_kana": null
  },
  "5507": {
    "postcode": "0295507",
    "prefecture": "岩手県",
    "prefecture_kana": "イワテケン",
    "prefecture_code": 3,
    "city": "和賀郡西和賀町",
    "city_kana": "ワガグンニシワガマチ",
    "town": "大沓３６地割",
    "town_kana": "オオクツ36チワリ",
    "street": null,
    "office_name": null,
    "office_name_kana": null
  },
  "5511": {
    "postcode": "0295511",
    "prefecture": "岩手県",
    "prefecture_kana": "イワテケン",
    "prefecture_code": 3,
    "city": "和賀郡西和賀町",
    "city_kana": "ワガグンニシワガマチ",
    "town": "上野々３９地割",
    "town_kana": "ウエノノ39チワリ",
    "street": null,
    "office_name": null,
    "office_name_kana": null
  },
  "5512": {
    "postcode": "0295512",
    "prefecture": "岩手県",
    "prefecture_kana": "イワテケン",
    "prefecture_code": 3,
    "city": "和賀郡西和賀町",
    "city_kana": "ワガグンニシワガマチ",
    "town": "川尻",
    "town_kana": "カワシリ",
    "street": null,
    "office_name": null,
    "office_name_kana": null
  },
  "5513": [
    {
      "postcode": "0295513",
      "prefecture": "岩手県",
      "prefecture_kana": "イワテケン",
      "prefecture_code": 3,
      "city": "和賀郡西和賀町",
      "city_kana": "ワガグンニシワガマチ",
      "town": "甲子５１地割",
      "town_kana": "カッチ51チワリ",
      "street": null,
      "office_name": null,
      "office_name_kana": null
    },
    {
      "postcode": "0295513",
      "prefecture": "岩手県",
      "prefecture_kana": "イワテケン",
      "prefecture_code": 3,
      "city": "和賀郡西和賀町",
      "city_kana": "ワガグンニシワガマチ",
      "town": "草井沢４７地割",
      "town_kana": "クサイザワ47チワリ",
      "street": null,
      "office_name": null,
      "office_name_kana": null
    },
    {
      "postcode": "0295513",
      "prefecture": "岩手県",
      "prefecture_kana": "イワテケン",
      "prefecture_code": 3,
      "city": "和賀郡西和賀町",
      "city_kana": "ワガグンニシワガマチ",
      "town": "杉名畑４４地割",
      "town_kana": "スギナハタ44チワリ",
      "street": null,
      "office_name": null,
      "office_name_kana": null
    },
    {
      "postcode": "0295513",
      "prefecture": "岩手県",
      "prefecture_kana": "イワテケン",
      "prefecture_code": 3,
      "city": "和賀郡西和賀町",
      "city_kana": "ワガグンニシワガマチ",
      "town": "本内４６地割",
      "town_kana": "ホンナイ46チワリ",
      "street": null,
      "office_name": null,
      "office_name_kana": null
    },
    {
      "postcode": "0295513",
      "prefecture": "岩手県",
      "prefecture_kana": "イワテケン",
      "prefecture_code": 3,
      "city": "和賀郡西和賀町",
      "city_kana": "ワガグンニシワガマチ",
      "town": "耳取４９地割",
      "town_kana": "ミミドリ49チワリ",
      "street": null,
      "office_name": null,
      "office_name_kana": null
    },
    {
      "postcode": "0295513",
      "prefecture": "岩手県",
      "prefecture_kana": "イワテケン",
      "prefecture_code": 3,
      "city": "和賀郡西和賀町",
      "city_kana": "ワガグンニシワガマチ",
      "town": "本屋敷４８地割",
      "town_kana": "モトヤシキ48チワリ",
      "street": null,
      "office_name": null,
      "office_name_kana": null
    },
    {
      "postcode": "0295513",
      "prefecture": "岩手県",
      "prefecture_kana": "イワテケン",
      "prefecture_code": 3,
      "city": "和賀郡西和賀町",
      "city_kana": "ワガグンニシワガマチ",
      "town": "鷲之巣５０地割",
      "town_kana": "ワシノス50チワリ",
      "street": null,
      "office_name": null,
      "office_name_kana": null
    }
  ],
  "5514": {
    "postcode": "0295514",
    "prefecture": "岩手県",
    "prefecture_kana": "イワテケン",
    "prefecture_code": 3,
    "city": "和賀郡西和賀町",
    "city_kana": "ワガグンニシワガマチ",
    "town": "湯川",
    "town_kana": "ユガワ",
    "street": null,
    "office_name": null,
    "office_name_kana": null
  },
  "5521": [
    {
      "postcode": "0295521",
      "prefecture": "岩手県",
      "prefecture_kana": "イワテケン",
      "prefecture_code": 3,
      "city": "和賀郡西和賀町",
      "city_kana": "ワガグンニシワガマチ",
      "town": "大渡５７地割",
      "town_kana": "オオワタリ57チワリ",
      "street": null,
      "office_name": null,
      "office_name_kana": null
    },
    {
      "postcode": "0295521",
      "prefecture": "岩手県",
      "prefecture_kana": "イワテケン",
      "prefecture_code": 3,
      "city": "和賀郡西和賀町",
      "city_kana": "ワガグンニシワガマチ",
      "town": "小繋沢",
      "town_kana": "コツナギザワ",
      "street": null,
      "office_name": null,
      "office_name_kana": null
    }
  ],
  "5522": [
    {
      "postcode": "0295522",
      "prefecture": "岩手県",
      "prefecture_kana": "イワテケン",
      "prefecture_code": 3,
      "city": "和賀郡西和賀町",
      "city_kana": "ワガグンニシワガマチ",
      "town": "巣郷６３地割",
      "town_kana": "スゴウ63チワリ",
      "street": null,
      "office_name": null,
      "office_name_kana": null
    },
    {
      "postcode": "0295522",
      "prefecture": "岩手県",
      "prefecture_kana": "イワテケン",
      "prefecture_code": 3,
      "city": "和賀郡西和賀町",
      "city_kana": "ワガグンニシワガマチ",
      "town": "中村",
      "town_kana": "ナカムラ",
      "street": null,
      "office_name": null,
      "office_name_kana": null
    },
    {
      "postcode": "0295522",
      "prefecture": "岩手県",
      "prefecture_kana": "イワテケン",
      "prefecture_code": 3,
      "city": "和賀郡西和賀町",
      "city_kana": "ワガグンニシワガマチ",
      "town": "野々宿",
      "town_kana": "ノノシュク",
      "street": null,
      "office_name": null,
      "office_name_kana": null
    }
  ],
  "5523": [
    {
      "postcode": "0295523",
      "prefecture": "岩手県",
      "prefecture_kana": "イワテケン",
      "prefecture_code": 3,
      "city": "和賀郡西和賀町",
      "city_kana": "ワガグンニシワガマチ",
      "town": "越中畑",
      "town_kana": "エッチュウハタ",
      "street": null,
      "office_name": null,
      "office_name_kana": null
    },
    {
      "postcode": "0295523",
      "prefecture": "岩手県",
      "prefecture_kana": "イワテケン",
      "prefecture_code": 3,
      "city": "和賀郡西和賀町",
      "city_kana": "ワガグンニシワガマチ",
      "town": "桂子沢",
      "town_kana": "カツラゴザワ",
      "street": null,
      "office_name": null,
      "office_name_kana": null
    },
    {
      "postcode": "0295523",
      "prefecture": "岩手県",
      "prefecture_kana": "イワテケン",
      "prefecture_code": 3,
      "city": "和賀郡西和賀町",
      "city_kana": "ワガグンニシワガマチ",
      "town": "沢中",
      "town_kana": "サワナカ",
      "street": null,
      "office_name": null,
      "office_name_kana": null
    },
    {
      "postcode": "0295523",
      "prefecture": "岩手県",
      "prefecture_kana": "イワテケン",
      "prefecture_code": 3,
      "city": "和賀郡西和賀町",
      "city_kana": "ワガグンニシワガマチ",
      "town": "白木野６７地割",
      "town_kana": "シロキノ67チワリ",
      "street": null,
      "office_name": null,
      "office_name_kana": null
    },
    {
      "postcode": "0295523",
      "prefecture": "岩手県",
      "prefecture_kana": "イワテケン",
      "prefecture_code": 3,
      "city": "和賀郡西和賀町",
      "city_kana": "ワガグンニシワガマチ",
      "town": "細内",
      "town_kana": "ホソナイ",
      "street": null,
      "office_name": null,
      "office_name_kana": null
    },
    {
      "postcode": "0295523",
      "prefecture": "岩手県",
      "prefecture_kana": "イワテケン",
      "prefecture_code": 3,
      "city": "和賀郡西和賀町",
      "city_kana": "ワガグンニシワガマチ",
      "town": "柳沢",
      "town_kana": "ヤナギザワ",
      "street": null,
      "office_name": null,
      "office_name_kana": null
    },
    {
      "postcode": "0295523",
      "prefecture": "岩手県",
      "prefecture_kana": "イワテケン",
      "prefecture_code": 3,
      "city": "和賀郡西和賀町",
      "city_kana": "ワガグンニシワガマチ",
      "town": "芦ケ沢７２地割",
      "town_kana": "ヨシガサワ72チワリ",
      "street": null,
      "office_name": null,
      "office_name_kana": null
    }
  ],
  "5611": {
    "postcode": "0295611",
    "prefecture": "岩手県",
    "prefecture_kana": "イワテケン",
    "prefecture_code": 3,
    "city": "和賀郡西和賀町",
    "city_kana": "ワガグンニシワガマチ",
    "town": "沢内新町",
    "town_kana": "サワウチシンマチ",
    "street": null,
    "office_name": null,
    "office_name_kana": null
  },
  "5612": {
    "postcode": "0295612",
    "prefecture": "岩手県",
    "prefecture_kana": "イワテケン",
    "prefecture_code": 3,
    "city": "和賀郡西和賀町",
    "city_kana": "ワガグンニシワガマチ",
    "town": "沢内大野",
    "town_kana": "サワウチオオノ",
    "street": null,
    "office_name": null,
    "office_name_kana": null
  },
  "5613": {
    "postcode": "0295613",
    "prefecture": "岩手県",
    "prefecture_kana": "イワテケン",
    "prefecture_code": 3,
    "city": "和賀郡西和賀町",
    "city_kana": "ワガグンニシワガマチ",
    "town": "沢内前郷",
    "town_kana": "サワウチマエゴウ",
    "street": null,
    "office_name": null,
    "office_name_kana": null
  },
  "5614": {
    "postcode": "0295614",
    "prefecture": "岩手県",
    "prefecture_kana": "イワテケン",
    "prefecture_code": 3,
    "city": "和賀郡西和賀町",
    "city_kana": "ワガグンニシワガマチ",
    "town": "沢内太田",
    "town_kana": "サワウチオオタ",
    "street": null,
    "office_name": null,
    "office_name_kana": null
  },
  "5615": {
    "postcode": "0295615",
    "prefecture": "岩手県",
    "prefecture_kana": "イワテケン",
    "prefecture_code": 3,
    "city": "和賀郡西和賀町",
    "city_kana": "ワガグンニシワガマチ",
    "town": "沢内猿橋",
    "town_kana": "サワウチサルハシ",
    "street": null,
    "office_name": null,
    "office_name_kana": null
  },
  "5616": {
    "postcode": "0295616",
    "prefecture": "岩手県",
    "prefecture_kana": "イワテケン",
    "prefecture_code": 3,
    "city": "和賀郡西和賀町",
    "city_kana": "ワガグンニシワガマチ",
    "town": "沢内泉沢",
    "town_kana": "サワウチイズミザワ",
    "street": null,
    "office_name": null,
    "office_name_kana": null
  },
  "5617": {
    "postcode": "0295617",
    "prefecture": "岩手県",
    "prefecture_kana": "イワテケン",
    "prefecture_code": 3,
    "city": "和賀郡西和賀町",
    "city_kana": "ワガグンニシワガマチ",
    "town": "沢内長瀬野",
    "town_kana": "サワウチナガセノ",
    "street": null,
    "office_name": null,
    "office_name_kana": null
  },
  "5618": {
    "postcode": "0295618",
    "prefecture": "岩手県",
    "prefecture_kana": "イワテケン",
    "prefecture_code": 3,
    "city": "和賀郡西和賀町",
    "city_kana": "ワガグンニシワガマチ",
    "town": "沢内両沢",
    "town_kana": "サワウチリョウザワ",
    "street": null,
    "office_name": null,
    "office_name_kana": null
  },
  "5619": {
    "postcode": "0295619",
    "prefecture": "岩手県",
    "prefecture_kana": "イワテケン",
    "prefecture_code": 3,
    "city": "和賀郡西和賀町",
    "city_kana": "ワガグンニシワガマチ",
    "town": "沢内弁天",
    "town_kana": "サワウチベンテン",
    "street": null,
    "office_name": null,
    "office_name_kana": null
  },
  "5621": {
    "postcode": "0295621",
    "prefecture": "岩手県",
    "prefecture_kana": "イワテケン",
    "prefecture_code": 3,
    "city": "和賀郡西和賀町",
    "city_kana": "ワガグンニシワガマチ",
    "town": "沢内鍵飯",
    "town_kana": "サワウチケンパン",
    "street": null,
    "office_name": null,
    "office_name_kana": null
  },
  "5692": {
    "postcode": "0295692",
    "prefecture": "岩手県",
    "prefecture_kana": "イワテケン",
    "prefecture_code": 3,
    "city": "和賀郡西和賀町",
    "city_kana": "ワガグンニシワガマチ",
    "town": "沢内字太田",
    "town_kana": null,
    "street": "２地割８１−１",
    "office_name": "西和賀町役場　沢内庁舎",
    "office_name_kana": "ニシワガチヨウヤクバ サワウチチヨウシヤ"
  },
  "5701": {
    "postcode": "0295701",
    "prefecture": "岩手県",
    "prefecture_kana": "イワテケン",
    "prefecture_code": 3,
    "city": "和賀郡西和賀町",
    "city_kana": "ワガグンニシワガマチ",
    "town": "沢内川舟",
    "town_kana": "サワウチカワフネ",
    "street": null,
    "office_name": null,
    "office_name_kana": null
  },
  "5702": {
    "postcode": "0295702",
    "prefecture": "岩手県",
    "prefecture_kana": "イワテケン",
    "prefecture_code": 3,
    "city": "和賀郡西和賀町",
    "city_kana": "ワガグンニシワガマチ",
    "town": "沢内若畑",
    "town_kana": "サワウチワカハタ",
    "street": null,
    "office_name": null,
    "office_name_kana": null
  },
  "5703": {
    "postcode": "0295703",
    "prefecture": "岩手県",
    "prefecture_kana": "イワテケン",
    "prefecture_code": 3,
    "city": "和賀郡西和賀町",
    "city_kana": "ワガグンニシワガマチ",
    "town": "沢内貝沢",
    "town_kana": "サワウチカイザワ",
    "street": null,
    "office_name": null,
    "office_name_kana": null
  }
}