{
  "0111": {
    "postcode": "0300111",
    "prefecture": "青森県",
    "prefecture_kana": "アオモリケン",
    "prefecture_code": 2,
    "city": "青森市",
    "city_kana": "アオモリシ",
    "town": "荒川",
    "town_kana": "アラカワ",
    "street": null,
    "office_name": null,
    "office_name_kana": null
  },
  "0112": {
    "postcode": "0300112",
    "prefecture": "青森県",
    "prefecture_kana": "アオモリケン",
    "prefecture_code": 2,
    "city": "青森市",
    "city_kana": "アオモリシ",
    "town": "八ツ役",
    "town_kana": "ヤツヤク",
    "street": null,
    "office_name": null,
    "office_name_kana": null
  },
  "0113": {
    "postcode": "0300113",
    "prefecture": "青森県",
    "prefecture_kana": "アオモリケン",
    "prefecture_code": 2,
    "city": "青森市",
    "city_kana": "アオモリシ",
    "town": "第二問屋町",
    "town_kana": "ダイニトンヤマチ",
    "street": null,
    "office_name": null,
    "office_name_kana": null
  },
  "0121": {
    "postcode": "0300121",
    "prefecture": "青森県",
    "prefecture_kana": "アオモリケン",
    "prefecture_code": 2,
    "city": "青森市",
    "city_kana": "アオモリシ",
    "town": "妙見",
    "town_kana": "ミョウケン",
    "street": null,
    "office_name": null,
    "office_name_kana": null
  },
  "0122": {
    "postcode": "0300122",
    "prefecture": "青森県",
    "prefecture_kana": "アオモリケン",
    "prefecture_code": 2,
    "city": "青森市",
    "city_kana": "アオモリシ",
    "town": "野尻",
    "town_kana": "ノジリ",
    "street": null,
    "office_name": null,
    "office_name_kana": null
  },
  "0123": {
    "postcode": "0300123",
    "prefecture": "青森県",
    "prefecture_kana": "アオモリケン",
    "prefecture_code": 2,
    "city": "青森市",
    "city_kana": "アオモリシ",
    "town": "大矢沢",
    "town_kana": "オオヤサワ",
    "street": null,
    "office_name": null,
    "office_name_kana": null
  },
  "0124": {
    "postcode": "0300124",
    "prefecture": "青森県",
    "prefecture_kana": "アオモリケン",
    "prefecture_code": 2,
    "city": "青森市",
    "city_kana": "アオモリシ",
    "town": "田茂木野",
    "town_kana": "タモギノ",
    "street": null,
    "office_name": null,
    "office_name_kana": null
  },
  "0125": {
    "postcode": "0300125",
    "prefecture": "青森県",
    "prefecture_kana": "アオモリケン",
    "prefecture_code": 2,
    "city": "青森市",
    "city_kana": "アオモリシ",
    "town": "四ツ石",
    "town_kana": "ヨツイシ",
    "street": null,
    "office_name": null,
    "office_name_kana": null
  },
  "0131": {
    "postcode": "0300131",
    "prefecture": "青森県",
    "prefecture_kana": "アオモリケン",
    "prefecture_code": 2,
    "city": "青森市",
    "city_kana": "アオモリシ",
    "town": "問屋町",
    "town_kana": "トンヤマチ",
    "street": null,
    "office_name": null,
    "office_name_kana": null
  },
  "0132": {
    "postcode": "0300132",
    "prefecture": "青森県",
    "prefecture_kana": "アオモリケン",
    "prefecture_code": 2,
    "city": "青森市",
    "city_kana": "アオモリシ",
    "town": "横内",
    "town_kana": "ヨコウチ",
    "street": null,
    "office_name": null,
    "office_name_kana": null
  },
  "0133": {
    "postcode": "0300133",
    "prefecture": "青森県",
    "prefecture_kana": "アオモリケン",
    "prefecture_code": 2,
    "city": "青森市",
    "city_kana": "アオモリシ",
    "town": "雲谷",
    "town_kana": "モヤ",
    "street": null,
    "office_name": null,
    "office_name_kana": null
  },
  "0134": {
    "postcode": "0300134",
    "prefecture": "青森県",
    "prefecture_kana": "アオモリケン",
    "prefecture_code": 2,
    "city": "青森市",
    "city_kana": "アオモリシ",
    "town": "合子沢",
    "town_kana": "ゴウシザワ",
    "street": null,
    "office_name": null,
    "office_name_kana": null
  },
  "0135": {
    "postcode": "0300135",
    "prefecture": "青森県",
    "prefecture_kana": "アオモリケン",
    "prefecture_code": 2,
    "city": "青森市",
    "city_kana": "アオモリシ",
    "town": "新町野",
    "town_kana": "シンマチノ",
    "street": null,
    "office_name": null,
    "office_name_kana": null
  },
  "0136": {
    "postcode": "0300136",
    "prefecture": "青森県",
    "prefecture_kana": "アオモリケン",
    "prefecture_code": 2,
    "city": "青森市",
    "city_kana": "アオモリシ",
    "town": "牛館",
    "town_kana": "ウシタテ",
    "street": null,
    "office_name": null,
    "office_name_kana": null
  },
  "0137": {
    "postcode": "0300137",
    "prefecture": "青森県",
    "prefecture_kana": "アオモリケン",
    "prefecture_code": 2,
    "city": "青森市",
    "city_kana": "アオモリシ",
    "town": "卸町",
    "town_kana": "オロシマチ",
    "street": null,
    "office_name": null,
    "office_name_kana": null
  },
  "0141": {
    "postcode": "0300141",
    "prefecture": "青森県",
    "prefecture_kana": "アオモリケン",
    "prefecture_code": 2,
    "city": "青森市",
    "city_kana": "アオモリシ",
    "town": "上野",
    "town_kana": "ウワノ",
    "street": null,
    "office_name": null,
    "office_name_kana": null
  },
  "0142": {
    "postcode": "0300142",
    "prefecture": "青森県",
    "prefecture_kana": "アオモリケン",
    "prefecture_code": 2,
    "city": "青森市",
    "city_kana": "アオモリシ",
    "town": "野木",
    "town_kana": "ノギ",
    "street": null,
    "office_name": null,
    "office_name_kana": null
  },
  "0143": {
    "postcode": "0300143",
    "prefecture": "青森県",
    "prefecture_kana": "アオモリケン",
    "prefecture_code": 2,
    "city": "青森市",
    "city_kana": "アオモリシ",
    "town": "小畑沢",
    "town_kana": "オバタケザワ",
    "street": null,
    "office_name": null,
    "office_name_kana": null
  },
  "0144": {
    "postcode": "0300144",
    "prefecture": "青森県",
    "prefecture_kana": "アオモリケン",
    "prefecture_code": 2,
    "city": "青森市",
    "city_kana": "アオモリシ",
    "town": "大別内",
    "town_kana": "オオベツナイ",
    "street": null,
    "office_name": null,
    "office_name_kana": null
  },
  "0145": {
    "postcode": "0300145",
    "prefecture": "青森県",
    "prefecture_kana": "アオモリケン",
    "prefecture_code": 2,
    "city": "青森市",
    "city_kana": "アオモリシ",
    "town": "金浜",
    "town_kana": "カネハマ",
    "street": null,
    "office_name": null,
    "office_name_kana": null
  },
  "0151": {
    "postcode": "0300151",
    "prefecture": "青森県",
    "prefecture_kana": "アオモリケン",
    "prefecture_code": 2,
    "city": "青森市",
    "city_kana": "アオモリシ",
    "town": "高田",
    "town_kana": "タカダ",
    "street": null,
    "office_name": null,
    "office_name_kana": null
  },
  "0152": {
    "postcode": "0300152",
    "prefecture": "青森県",
    "prefecture_kana": "アオモリケン",
    "prefecture_code": 2,
    "city": "青森市",
    "city_kana": "アオモリシ",
    "town": "野沢",
    "town_kana": "ノザワ",
    "street": null,
    "office_name": null,
    "office_name_kana": null
  },
  "0153": {
    "postcode": "0300153",
    "prefecture": "青森県",
    "prefecture_kana": "アオモリケン",
    "prefecture_code": 2,
    "city": "青森市",
    "city_kana": "アオモリシ",
    "town": "小館",
    "town_kana": "コダテ",
    "street": null,
    "office_name": null,
    "office_name_kana": null
  },
  "0154": {
    "postcode": "0300154",
    "prefecture": "青森県",
    "prefecture_kana": "アオモリケン",
    "prefecture_code": 2,
    "city": "青森市",
    "city_kana": "アオモリシ",
    "town": "入内",
    "town_kana": "ニュウナイ",
    "street": null,
    "office_name": null,
    "office_name_kana": null
  },
  "0155": {
    "postcode": "0300155",
    "prefecture": "青森県",
    "prefecture_kana": "アオモリケン",
    "prefecture_code": 2,
    "city": "青森市",
    "city_kana": "アオモリシ",
    "town": "大谷",
    "town_kana": "オオタニ",
    "street": null,
    "office_name": null,
    "office_name_kana": null
  },
  "0180": {
    "postcode": "0300180",
    "prefecture": "青森県",
    "prefecture_kana": "アオモリケン",
    "prefecture_code": 2,
    "city": "青森市",
    "city_kana": "アオモリシ",
    "town": "第二問屋町",
    "town_kana": "ダイニトンヤマチ",
    "street": "３丁目１−８９",
    "office_name": "株式会社　東奥日報社",
    "office_name_kana": "カブシキガイシヤ トウオウニツポウシヤ"
  },
  "0181": {
    "postcode": "0300181",
    "prefecture": "青森県",
    "prefecture_kana": "アオモリケン",
    "prefecture_code": 2,
    "city": "青森市",
    "city_kana": "アオモリシ",
    "town": "大字荒川",
    "town_kana": null,
    "street": "字柴田１２５−１",
    "office_name": "青森朝日放送　株式会社",
    "office_name_kana": "アオモリアサヒホウソウ カブシキガイシヤ"
  },
  "0183": {
    "postcode": "0300183",
    "prefecture": "青森県",
    "prefecture_kana": "アオモリケン",
    "prefecture_code": 2,
    "city": "青森市",
    "city_kana": "アオモリシ",
    "town": "卸町",
    "town_kana": "オロシマチ",
    "street": "１−１",
    "office_name": "中水青森中央水産　株式会社",
    "office_name_kana": "チユウスイアオモリチユウオウスイサン カブシキガイシヤ"
  },
  "0184": {
    "postcode": "0300184",
    "prefecture": "青森県",
    "prefecture_kana": "アオモリケン",
    "prefecture_code": 2,
    "city": "青森市",
    "city_kana": "アオモリシ",
    "town": "大字荒川",
    "town_kana": null,
    "street": "字藤戸１１９−７",
    "office_name": "青森県立図書館",
    "office_name_kana": "アオモリケンリツトシヨカン"
  },
  "0185": {
    "postcode": "0300185",
    "prefecture": "青森県",
    "prefecture_kana": "アオモリケン",
    "prefecture_code": 2,
    "city": "青森市",
    "city_kana": "アオモリシ",
    "town": "卸町",
    "town_kana": "オロシマチ",
    "street": "１−１",
    "office_name": "青森魚類　株式会社",
    "office_name_kana": "アオモリギヨルイ カブシキガイシヤ"
  },
  "0186": {
    "postcode": "0300186",
    "prefecture": "青森県",
    "prefecture_kana": "アオモリケン",
    "prefecture_code": 2,
    "city": "青森市",
    "city_kana": "アオモリシ",
    "town": "問屋町",
    "town_kana": "トンヤマチ",
    "street": "２丁目１５−２２",
    "office_name": "丸大堀内　株式会社",
    "office_name_kana": "マルダイホリウチ カブシキガイシヤ"
  },
  "0188": {
    "postcode": "0300188",
    "prefecture": "青森県",
    "prefecture_kana": "アオモリケン",
    "prefecture_code": 2,
    "city": "青森市",
    "city_kana": "アオモリシ",
    "town": "大字荒川",
    "town_kana": null,
    "street": "字寒水沢１−１２",
    "office_name": "八甲田ロープウェー　株式会社",
    "office_name_kana": "ハツコウダロ-プウエ- カブシキガイシヤ"
  },
  "0192": {
    "postcode": "0300192",
    "prefecture": "青森県",
    "prefecture_kana": "アオモリケン",
    "prefecture_code": 2,
    "city": "青森市",
    "city_kana": "アオモリシ",
    "town": "大字野木",
    "town_kana": null,
    "street": "字山口２４５−９",
    "office_name": "富士通　株式会社　青森システムラボラトリ",
    "office_name_kana": "フジツウ カブシキカイシヤ アオモリシステムラボラトリ"
  },
  "0196": {
    "postcode": "0300196",
    "prefecture": "青森県",
    "prefecture_kana": "アオモリケン",
    "prefecture_code": 2,
    "city": "青森市",
    "city_kana": "アオモリシ",
    "town": "大字合子沢",
    "town_kana": null,
    "street": "字山崎１５３−４",
    "office_name": "青森公立大学",
    "office_name_kana": "アオモリコウリツダイガク"
  },
  "0197": {
    "postcode": "0300197",
    "prefecture": "青森県",
    "prefecture_kana": "アオモリケン",
    "prefecture_code": 2,
    "city": "青森市",
    "city_kana": "アオモリシ",
    "town": "荒川",
    "town_kana": "アラカワ",
    "street": "字南荒川山国有林小字酸湯沢５０番地",
    "office_name": "酸ヶ湯温泉",
    "office_name_kana": "スカユオンセン"
  },
  "0198": {
    "postcode": "0300198",
    "prefecture": "青森県",
    "prefecture_kana": "アオモリケン",
    "prefecture_code": 2,
    "city": "青森市",
    "city_kana": "アオモリシ",
    "town": "荒川",
    "town_kana": "アラカワ",
    "street": "字南荒川山１−１",
    "office_name": "八甲田ホテル",
    "office_name_kana": "ハツコウダホテル"
  },
  "0801": {
    "postcode": "0300801",
    "prefecture": "青森県",
    "prefecture_kana": "アオモリケン",
    "prefecture_code": 2,
    "city": "青森市",
    "city_kana": "アオモリシ",
    "town": "新町",
    "town_kana": "シンマチ",
    "street": null,
    "office_name": null,
    "office_name_kana": null
  },
  "0802": {
    "postcode": "0300802",
    "prefecture": "青森県",
    "prefecture_kana": "アオモリケン",
    "prefecture_code": 2,
    "city": "青森市",
    "city_kana": "アオモリシ",
    "town": "本町",
    "town_kana": "ホンチョウ",
    "street": null,
    "office_name": null,
    "office_name_kana": null
  },
  "0803": {
    "postcode": "0300803",
    "prefecture": "青森県",
    "prefecture_kana": "アオモリケン",
    "prefecture_code": 2,
    "city": "青森市",
    "city_kana": "アオモリシ",
    "town": "安方",
    "town_kana": "ヤスカタ",
    "street": null,
    "office_name": null,
    "office_name_kana": null
  },
  "0811": {
    "postcode": "0300811",
    "prefecture": "青森県",
    "prefecture_kana": "アオモリケン",
    "prefecture_code": 2,
    "city": "青森市",
    "city_kana": "アオモリシ",
    "town": "青柳",
    "town_kana": "アオヤギ",
    "street": null,
    "office_name": null,
    "office_name_kana": null
  },
  "0812": {
    "postcode": "0300812",
    "prefecture": "青森県",
    "prefecture_kana": "アオモリケン",
    "prefecture_code": 2,
    "city": "青森市",
    "city_kana": "アオモリシ",
    "town": "堤町",
    "town_kana": "ツツミマチ",
    "street": null,
    "office_name": null,
    "office_name_kana": null
  },
  "0813": {
    "postcode": "0300813",
    "prefecture": "青森県",
    "prefecture_kana": "アオモリケン",
    "prefecture_code": 2,
    "city": "青森市",
    "city_kana": "アオモリシ",
    "town": "松原",
    "town_kana": "マツバラ",
    "street": null,
    "office_name": null,
    "office_name_kana": null
  },
  "0821": {
    "postcode": "0300821",
    "prefecture": "青森県",
    "prefecture_kana": "アオモリケン",
    "prefecture_code": 2,
    "city": "青森市",
    "city_kana": "アオモリシ",
    "town": "勝田",
    "town_kana": "カッタ",
    "street": null,
    "office_name": null,
    "office_name_kana": null
  },
  "0822": {
    "postcode": "0300822",
    "prefecture": "青森県",
    "prefecture_kana": "アオモリケン",
    "prefecture_code": 2,
    "city": "青森市",
    "city_kana": "アオモリシ",
    "town": "中央",
    "town_kana": "チュウオウ",
    "street": null,
    "office_name": null,
    "office_name_kana": null
  },
  "0823": {
    "postcode": "0300823",
    "prefecture": "青森県",
    "prefecture_kana": "アオモリケン",
    "prefecture_code": 2,
    "city": "青森市",
    "city_kana": "アオモリシ",
    "town": "橋本",
    "town_kana": "ハシモト",
    "street": null,
    "office_name": null,
    "office_name_kana": null
  },
  "0841": {
    "postcode": "0300841",
    "prefecture": "青森県",
    "prefecture_kana": "アオモリケン",
    "prefecture_code": 2,
    "city": "青森市",
    "city_kana": "アオモリシ",
    "town": "奥野",
    "town_kana": "オクノ",
    "street": null,
    "office_name": null,
    "office_name_kana": null
  },
  "0842": {
    "postcode": "0300842",
    "prefecture": "青森県",
    "prefecture_kana": "アオモリケン",
    "prefecture_code": 2,
    "city": "青森市",
    "city_kana": "アオモリシ",
    "town": "浦町",
    "town_kana": "ウラマチ",
    "street": null,
    "office_name": null,
    "office_name_kana": null
  },
  "0843": {
    "postcode": "0300843",
    "prefecture": "青森県",
    "prefecture_kana": "アオモリケン",
    "prefecture_code": 2,
    "city": "青森市",
    "city_kana": "アオモリシ",
    "town": "浜田",
    "town_kana": "ハマダ",
    "street": null,
    "office_name": null,
    "office_name_kana": null
  },
  "0844": {
    "postcode": "0300844",
    "prefecture": "青森県",
    "prefecture_kana": "アオモリケン",
    "prefecture_code": 2,
    "city": "青森市",
    "city_kana": "アオモリシ",
    "town": "桂木",
    "town_kana": "カツラギ",
    "street": null,
    "office_name": null,
    "office_name_kana": null
  },
  "0845": {
    "postcode": "0300845",
    "prefecture": "青森県",
    "prefecture_kana": "アオモリケン",
    "prefecture_code": 2,
    "city": "青森市",
    "city_kana": "アオモリシ",
    "town": "緑",
    "town_kana": "ミドリ",
    "street": null,
    "office_name": null,
    "office_name_kana": null
  },
  "0846": {
    "postcode": "0300846",
    "prefecture": "青森県",
    "prefecture_kana": "アオモリケン",
    "prefecture_code": 2,
    "city": "青森市",
    "city_kana": "アオモリシ",
    "town": "青葉",
    "town_kana": "アオバ",
    "street": null,
    "office_name": null,
    "office_name_kana": null
  },
  "0847": {
    "postcode": "0300847",
    "prefecture": "青森県",
    "prefecture_kana": "アオモリケン",
    "prefecture_code": 2,
    "city": "青森市",
    "city_kana": "アオモリシ",
    "town": "東大野",
    "town_kana": "ヒガシオオノ",
    "street": null,
    "office_name": null,
    "office_name_kana": null
  },
  "0851": {
    "postcode": "0300851",
    "prefecture": "青森県",
    "prefecture_kana": "アオモリケン",
    "prefecture_code": 2,
    "city": "青森市",
    "city_kana": "アオモリシ",
    "town": "旭町",
    "town_kana": "アサヒチョウ",
    "street": null,
    "office_name": null,
    "office_name_kana": null
  },
  "0852": {
    "postcode": "0300852",
    "prefecture": "青森県",
    "prefecture_kana": "アオモリケン",
    "prefecture_code": 2,
    "city": "青森市",
    "city_kana": "アオモリシ",
    "town": "大野",
    "town_kana": "オオノ",
    "street": null,
    "office_name": null,
    "office_name_kana": null
  },
  "0853": {
    "postcode": "0300853",
    "prefecture": "青森県",
    "prefecture_kana": "アオモリケン",
    "prefecture_code": 2,
    "city": "青森市",
    "city_kana": "アオモリシ",
    "town": "金沢",
    "town_kana": "カナザワ",
    "street": null,
    "office_name": null,
    "office_name_kana": null
  },
  "0854": {
    "postcode": "0300854",
    "prefecture": "青森県",
    "prefecture_kana": "アオモリケン",
    "prefecture_code": 2,
    "city": "青森市",
    "city_kana": "アオモリシ",
    "town": "千富町",
    "town_kana": "セントミチョウ",
    "street": null,
    "office_name": null,
    "office_name_kana": null
  },
  "0855": {
    "postcode": "0300855",
    "prefecture": "青森県",
    "prefecture_kana": "アオモリケン",
    "prefecture_code": 2,
    "city": "青森市",
    "city_kana": "アオモリシ",
    "town": "北金沢",
    "town_kana": "キタカナザワ",
    "street": null,
    "office_name": null,
    "office_name_kana": null
  },
  "0856": {
    "postcode": "0300856",
    "prefecture": "青森県",
    "prefecture_kana": "アオモリケン",
    "prefecture_code": 2,
    "city": "青森市",
    "city_kana": "アオモリシ",
    "town": "西大野",
    "town_kana": "ニシオオノ",
    "street": null,
    "office_name": null,
    "office_name_kana": null
  },
  "0861": {
    "postcode": "0300861",
    "prefecture": "青森県",
    "prefecture_kana": "アオモリケン",
    "prefecture_code": 2,
    "city": "青森市",
    "city_kana": "アオモリシ",
    "town": "長島",
    "town_kana": "ナガシマ",
    "street": null,
    "office_name": null,
    "office_name_kana": null
  },
  "0862": {
    "postcode": "0300862",
    "prefecture": "青森県",
    "prefecture_kana": "アオモリケン",
    "prefecture_code": 2,
    "city": "青森市",
    "city_kana": "アオモリシ",
    "town": "古川",
    "town_kana": "フルカワ",
    "street": null,
    "office_name": null,
    "office_name_kana": null
  },
  "0901": {
    "postcode": "0300901",
    "prefecture": "青森県",
    "prefecture_kana": "アオモリケン",
    "prefecture_code": 2,
    "city": "青森市",
    "city_kana": "アオモリシ",
    "town": "港町",
    "town_kana": "ミナトマチ",
    "street": null,
    "office_name": null,
    "office_name_kana": null
  },
  "0902": {
    "postcode": "0300902",
    "prefecture": "青森県",
    "prefecture_kana": "アオモリケン",
    "prefecture_code": 2,
    "city": "青森市",
    "city_kana": "アオモリシ",
    "town": "合浦",
    "town_kana": "ガッポ",
    "street": null,
    "office_name": null,
    "office_name_kana": null
  },
  "0903": {
    "postcode": "0300903",
    "prefecture": "青森県",
    "prefecture_kana": "アオモリケン",
    "prefecture_code": 2,
    "city": "青森市",
    "city_kana": "アオモリシ",
    "town": "栄町",
    "town_kana": "サカエマチ",
    "street": null,
    "office_name": null,
    "office_name_kana": null
  },
  "0904": {
    "postcode": "0300904",
    "prefecture": "青森県",
    "prefecture_kana": "アオモリケン",
    "prefecture_code": 2,
    "city": "青森市",
    "city_kana": "アオモリシ",
    "town": "茶屋町",
    "town_kana": "チャヤマチ",
    "street": null,
    "office_name": null,
    "office_name_kana": null
  },
  "0911": {
    "postcode": "0300911",
    "prefecture": "青森県",
    "prefecture_kana": "アオモリケン",
    "prefecture_code": 2,
    "city": "青森市",
    "city_kana": "アオモリシ",
    "town": "造道",
    "town_kana": "ツクリミチ",
    "street": null,
    "office_name": null,
    "office_name_kana": null
  },
  "0912": {
    "postcode": "0300912",
    "prefecture": "青森県",
    "prefecture_kana": "アオモリケン",
    "prefecture_code": 2,
    "city": "青森市",
    "city_kana": "アオモリシ",
    "town": "八重田",
    "town_kana": "ヤエダ",
    "street": null,
    "office_name": null,
    "office_name_kana": null
  },
  "0913": {
    "postcode": "0300913",
    "prefecture": "青森県",
    "prefecture_kana": "アオモリケン",
    "prefecture_code": 2,
    "city": "青森市",
    "city_kana": "アオモリシ",
    "town": "東造道",
    "town_kana": "ヒガシツクリミチ",
    "street": null,
    "office_name": null,
    "office_name_kana": null
  },
  "0914": {
    "postcode": "0300914",
    "prefecture": "青森県",
    "prefecture_kana": "アオモリケン",
    "prefecture_code": 2,
    "city": "青森市",
    "city_kana": "アオモリシ",
    "town": "岡造道",
    "town_kana": "オカツクリミチ",
    "street": null,
    "office_name": null,
    "office_name_kana": null
  },
  "0915": {
    "postcode": "0300915",
    "prefecture": "青森県",
    "prefecture_kana": "アオモリケン",
    "prefecture_code": 2,
    "city": "青森市",
    "city_kana": "アオモリシ",
    "town": "小柳",
    "town_kana": "コヤナギ",
    "street": null,
    "office_name": null,
    "office_name_kana": null
  },
  "0916": {
    "postcode": "0300916",
    "prefecture": "青森県",
    "prefecture_kana": "アオモリケン",
    "prefecture_code": 2,
    "city": "青森市",
    "city_kana": "アオモリシ",
    "town": "田屋敷",
    "town_kana": "タヤシキ",
    "street": null,
    "office_name": null,
    "office_name_kana": null
  },
  "0917": {
    "postcode": "0300917",
    "prefecture": "青森県",
    "prefecture_kana": "アオモリケン",
    "prefecture_code": 2,
    "city": "青森市",
    "city_kana": "アオモリシ",
    "town": "矢作",
    "town_kana": "ヤサク",
    "street": null,
    "office_name": null,
    "office_name_kana": null
  },
  "0918": {
    "postcode": "0300918",
    "prefecture": "青森県",
    "prefecture_kana": "アオモリケン",
    "prefecture_code": 2,
    "city": "青森市",
    "city_kana": "アオモリシ",
    "town": "けやき",
    "town_kana": "ケヤキ",
    "street": null,
    "office_name": null,
    "office_name_kana": null
  },
  "0919": {
    "postcode": "0300919",
    "prefecture": "青森県",
    "prefecture_kana": "アオモリケン",
    "prefecture_code": 2,
    "city": "青森市",
    "city_kana": "アオモリシ",
    "town": "はまなす",
    "town_kana": "ハマナス",
    "street": null,
    "office_name": null,
    "office_name_kana": null
  },
  "0921": {
    "postcode": "0300921",
    "prefecture": "青森県",
    "prefecture_kana": "アオモリケン",
    "prefecture_code": 2,
    "city": "青森市",
    "city_kana": "アオモリシ",
    "town": "原別",
    "town_kana": "ハラベツ",
    "street": null,
    "office_name": null,
    "office_name_kana": null
  },
  "0922": {
    "postcode": "0300922",
    "prefecture": "青森県",
    "prefecture_kana": "アオモリケン",
    "prefecture_code": 2,
    "city": "青森市",
    "city_kana": "アオモリシ",
    "town": "泉野",
    "town_kana": "イズミノ",
    "street": null,
    "office_name": null,
    "office_name_kana": null
  },
  "0923": {
    "postcode": "0300923",
    "prefecture": "青森県",
    "prefecture_kana": "アオモリケン",
    "prefecture_code": 2,
    "city": "青森市",
    "city_kana": "アオモリシ",
    "town": "八幡林",
    "town_kana": "ヤハタバヤシ",
    "street": null,
    "office_name": null,
    "office_name_kana": null
  },
  "0924": {
    "postcode": "0300924",
    "prefecture": "青森県",
    "prefecture_kana": "アオモリケン",
    "prefecture_code": 2,
    "city": "青森市",
    "city_kana": "アオモリシ",
    "town": "滝沢",
    "town_kana": "タキサワ",
    "street": null,
    "office_name": null,
    "office_name_kana": null
  },
  "0925": {
    "postcode": "0300925",
    "prefecture": "青森県",
    "prefecture_kana": "アオモリケン",
    "prefecture_code": 2,
    "city": "青森市",
    "city_kana": "アオモリシ",
    "town": "築木館",
    "town_kana": "ツキノキダテ",
    "street": null,
    "office_name": null,
    "office_name_kana": null
  },
  "0931": {
    "postcode": "0300931",
    "prefecture": "青森県",
    "prefecture_kana": "アオモリケン",
    "prefecture_code": 2,
    "city": "青森市",
    "city_kana": "アオモリシ",
    "town": "平新田",
    "town_kana": "タイラシンデン",
    "street": null,
    "office_name": null,
    "office_name_kana": null
  },
  "0932": {
    "postcode": "0300932",
    "prefecture": "青森県",
    "prefecture_kana": "アオモリケン",
    "prefecture_code": 2,
    "city": "青森市",
    "city_kana": "アオモリシ",
    "town": "後萢",
    "town_kana": "ウシロヤチ",
    "street": null,
    "office_name": null,
    "office_name_kana": null
  },
  "0933": {
    "postcode": "0300933",
    "prefecture": "青森県",
    "prefecture_kana": "アオモリケン",
    "prefecture_code": 2,
    "city": "青森市",
    "city_kana": "アオモリシ",
    "town": "諏訪沢",
    "town_kana": "スワノサワ",
    "street": null,
    "office_name": null,
    "office_name_kana": null
  },
  "0934": {
    "postcode": "0300934",
    "prefecture": "青森県",
    "prefecture_kana": "アオモリケン",
    "prefecture_code": 2,
    "city": "青森市",
    "city_kana": "アオモリシ",
    "town": "戸崎",
    "town_kana": "トザキ",
    "street": null,
    "office_name": null,
    "office_name_kana": null
  },
  "0935": {
    "postcode": "0300935",
    "prefecture": "青森県",
    "prefecture_kana": "アオモリケン",
    "prefecture_code": 2,
    "city": "青森市",
    "city_kana": "アオモリシ",
    "town": "桑原",
    "town_kana": "クワバラ",
    "street": null,
    "office_name": null,
    "office_name_kana": null
  },
  "0936": {
    "postcode": "0300936",
    "prefecture": "青森県",
    "prefecture_kana": "アオモリケン",
    "prefecture_code": 2,
    "city": "青森市",
    "city_kana": "アオモリシ",
    "town": "矢田前",
    "town_kana": "ヤダマエ",
    "street": null,
    "office_name": null,
    "office_name_kana": null
  },
  "0937": {
    "postcode": "0300937",
    "prefecture": "青森県",
    "prefecture_kana": "アオモリケン",
    "prefecture_code": 2,
    "city": "青森市",
    "city_kana": "アオモリシ",
    "town": "本泉",
    "town_kana": "モトイズミ",
    "street": null,
    "office_name": null,
    "office_name_kana": null
  },
  "0941": {
    "postcode": "0300941",
    "prefecture": "青森県",
    "prefecture_kana": "アオモリケン",
    "prefecture_code": 2,
    "city": "青森市",
    "city_kana": "アオモリシ",
    "town": "自由ケ丘",
    "town_kana": "ジユウガオカ",
    "street": null,
    "office_name": null,
    "office_name_kana": null
  },
  "0942": {
    "postcode": "0300942",
    "prefecture": "青森県",
    "prefecture_kana": "アオモリケン",
    "prefecture_code": 2,
    "city": "青森市",
    "city_kana": "アオモリシ",
    "town": "沢山",
    "town_kana": "サワヤマ",
    "street": null,
    "office_name": null,
    "office_name_kana": null
  },
  "0943": {
    "postcode": "0300943",
    "prefecture": "青森県",
    "prefecture_kana": "アオモリケン",
    "prefecture_code": 2,
    "city": "青森市",
    "city_kana": "アオモリシ",
    "town": "幸畑",
    "town_kana": "コウバタ",
    "street": null,
    "office_name": null,
    "office_name_kana": null
  },
  "0944": {
    "postcode": "0300944",
    "prefecture": "青森県",
    "prefecture_kana": "アオモリケン",
    "prefecture_code": 2,
    "city": "青森市",
    "city_kana": "アオモリシ",
    "town": "筒井",
    "town_kana": "ツツイ",
    "street": null,
    "office_name": null,
    "office_name_kana": null
  },
  "0945": {
    "postcode": "0300945",
    "prefecture": "青森県",
    "prefecture_kana": "アオモリケン",
    "prefecture_code": 2,
    "city": "青森市",
    "city_kana": "アオモリシ",
    "town": "桜川",
    "town_kana": "サクラガワ",
    "street": null,
    "office_name": null,
    "office_name_kana": null
  },
  "0946": {
    "postcode": "0300946",
    "prefecture": "青森県",
    "prefecture_kana": "アオモリケン",
    "prefecture_code": 2,
    "city": "青森市",
    "city_kana": "アオモリシ",
    "town": "古館",
    "town_kana": "フルダテ",
    "street": null,
    "office_name": null,
    "office_name_kana": null
  },
  "0947": {
    "postcode": "0300947",
    "prefecture": "青森県",
    "prefecture_kana": "アオモリケン",
    "prefecture_code": 2,
    "city": "青森市",
    "city_kana": "アオモリシ",
    "town": "浜館",
    "town_kana": "ハマダテ",
    "street": null,
    "office_name": null,
    "office_name_kana": null
  },
  "0948": {
    "postcode": "0300948",
    "prefecture": "青森県",
    "prefecture_kana": "アオモリケン",
    "prefecture_code": 2,
    "city": "青森市",
    "city_kana": "アオモリシ",
    "town": "虹ケ丘",
    "town_kana": "ニジガオカ",
    "street": null,
    "office_name": null,
    "office_name_kana": null
  },
  "0951": {
    "postcode": "0300951",
    "prefecture": "青森県",
    "prefecture_kana": "アオモリケン",
    "prefecture_code": 2,
    "city": "青森市",
    "city_kana": "アオモリシ",
    "town": "戸山",
    "town_kana": "トヤマ",
    "street": null,
    "office_name": null,
    "office_name_kana": null
  },
  "0952": [
    {
      "postcode": "0300952",
      "prefecture": "青森県",
      "prefecture_kana": "アオモリケン",
      "prefecture_code": 2,
      "city": "青森市",
      "city_kana": "アオモリシ",
      "town": "戸山",
      "town_kana": "トヤマ",
      "street": null,
      "office_name": null,
      "office_name_kana": null
    },
    {
      "postcode": "0300952",
      "prefecture": "青森県",
      "prefecture_kana": "アオモリケン",
      "prefecture_code": 2,
      "city": "青森市",
      "city_kana": "アオモリシ",
      "town": "戸山赤坂",
      "town_kana": "トヤマアカサカ",
      "street": null,
      "office_name": null,
      "office_name_kana": null
    }
  ],
  "0953": [
    {
      "postcode": "0300953",
      "prefecture": "青森県",
      "prefecture_kana": "アオモリケン",
      "prefecture_code": 2,
      "city": "青森市",
      "city_kana": "アオモリシ",
      "town": "駒込",
      "town_kana": "コマゴメ",
      "street": null,
      "office_name": null,
      "office_name_kana": null
    },
    {
      "postcode": "0300953",
      "prefecture": "青森県",
      "prefecture_kana": "アオモリケン",
      "prefecture_code": 2,
      "city": "青森市",
      "city_kana": "アオモリシ",
      "town": "駒込蛍沢",
      "town_kana": "コマゴメホタルザワ",
      "street": null,
      "office_name": null,
      "office_name_kana": null
    }
  ],
  "0954": [
    {
      "postcode": "0300954",
      "prefecture": "青森県",
      "prefecture_kana": "アオモリケン",
      "prefecture_code": 2,
      "city": "青森市",
      "city_kana": "アオモリシ",
      "town": "駒込",
      "town_kana": "コマゴメ",
      "street": null,
      "office_name": null,
      "office_name_kana": null
    },
    {
      "postcode": "0300954",
      "prefecture": "青森県",
      "prefecture_kana": "アオモリケン",
      "prefecture_code": 2,
      "city": "青森市",
      "city_kana": "アオモリシ",
      "town": "駒込月見野",
      "town_kana": "コマゴメツキミノ",
      "street": null,
      "office_name": null,
      "office_name_kana": null
    }
  ],
  "0955": {
    "postcode": "0300955",
    "prefecture": "青森県",
    "prefecture_kana": "アオモリケン",
    "prefecture_code": 2,
    "city": "青森市",
    "city_kana": "アオモリシ",
    "town": "駒込",
    "town_kana": "コマゴメ",
    "street": null,
    "office_name": null,
    "office_name_kana": null
  },
  "0956": {
    "postcode": "0300956",
    "prefecture": "青森県",
    "prefecture_kana": "アオモリケン",
    "prefecture_code": 2,
    "city": "青森市",
    "city_kana": "アオモリシ",
    "town": "赤坂",
    "town_kana": "アカサカ",
    "street": null,
    "office_name": null,
    "office_name_kana": null
  },
  "0957": {
    "postcode": "0300957",
    "prefecture": "青森県",
    "prefecture_kana": "アオモリケン",
    "prefecture_code": 2,
    "city": "青森市",
    "city_kana": "アオモリシ",
    "town": "蛍沢",
    "town_kana": "ホタルザワ",
    "street": null,
    "office_name": null,
    "office_name_kana": null
  },
  "0958": {
    "postcode": "0300958",
    "prefecture": "青森県",
    "prefecture_kana": "アオモリケン",
    "prefecture_code": 2,
    "city": "青森市",
    "city_kana": "アオモリシ",
    "town": "月見野",
    "town_kana": "ツキミノ",
    "street": null,
    "office_name": null,
    "office_name_kana": null
  },
  "0961": {
    "postcode": "0300961",
    "prefecture": "青森県",
    "prefecture_kana": "アオモリケン",
    "prefecture_code": 2,
    "city": "青森市",
    "city_kana": "アオモリシ",
    "town": "浪打",
    "town_kana": "ナミウチ",
    "street": null,
    "office_name": null,
    "office_name_kana": null
  },
  "0962": {
    "postcode": "0300962",
    "prefecture": "青森県",
    "prefecture_kana": "アオモリケン",
    "prefecture_code": 2,
    "city": "青森市",
    "city_kana": "アオモリシ",
    "town": "佃",
    "town_kana": "ツクダ",
    "street": null,
    "office_name": null,
    "office_name_kana": null
  },
  "0963": {
    "postcode": "0300963",
    "prefecture": "青森県",
    "prefecture_kana": "アオモリケン",
    "prefecture_code": 2,
    "city": "青森市",
    "city_kana": "アオモリシ",
    "town": "中佃",
    "town_kana": "ナカツクダ",
    "street": null,
    "office_name": null,
    "office_name_kana": null
  },
  "0964": {
    "postcode": "0300964",
    "prefecture": "青森県",
    "prefecture_kana": "アオモリケン",
    "prefecture_code": 2,
    "city": "青森市",
    "city_kana": "アオモリシ",
    "town": "南佃",
    "town_kana": "ミナミツクダ",
    "street": null,
    "office_name": null,
    "office_name_kana": null
  },
  "0965": {
    "postcode": "0300965",
    "prefecture": "青森県",
    "prefecture_kana": "アオモリケン",
    "prefecture_code": 2,
    "city": "青森市",
    "city_kana": "アオモリシ",
    "town": "松森",
    "town_kana": "マツモリ",
    "street": null,
    "office_name": null,
    "office_name_kana": null
  },
  "0966": {
    "postcode": "0300966",
    "prefecture": "青森県",
    "prefecture_kana": "アオモリケン",
    "prefecture_code": 2,
    "city": "青森市",
    "city_kana": "アオモリシ",
    "town": "花園",
    "town_kana": "ハナゾノ",
    "street": null,
    "office_name": null,
    "office_name_kana": null
  },
  "1200": {
    "postcode": "0301200",
    "prefecture": "青森県",
    "prefecture_kana": "アオモリケン",
    "prefecture_code": 2,
    "city": "東津軽郡蓬田村",
    "city_kana": "ヒガシツガルグンヨモギタムラ",
    "town": "",
    "town_kana": "",
    "street": null,
    "office_name": null,
    "office_name_kana": null
  },
  "1201": {
    "postcode": "0301201",
    "prefecture": "青森県",
    "prefecture_kana": "アオモリケン",
    "prefecture_code": 2,
    "city": "東津軽郡蓬田村",
    "city_kana": "ヒガシツガルグンヨモギタムラ",
    "town": "広瀬",
    "town_kana": "ヒロセ",
    "street": null,
    "office_name": null,
    "office_name_kana": null
  },
  "1202": {
    "postcode": "0301202",
    "prefecture": "青森県",
    "prefecture_kana": "アオモリケン",
    "prefecture_code": 2,
    "city": "東津軽郡蓬田村",
    "city_kana": "ヒガシツガルグンヨモギタムラ",
    "town": "瀬辺地",
    "town_kana": "セヘジ",
    "street": null,
    "office_name": null,
    "office_name_kana": null
  },
  "1203": {
    "postcode": "0301203",
    "prefecture": "青森県",
    "prefecture_kana": "アオモリケン",
    "prefecture_code": 2,
    "city": "東津軽郡蓬田村",
    "city_kana": "ヒガシツガルグンヨモギタムラ",
    "town": "郷沢",
    "town_kana": "ゴウサワ",
    "street": null,
    "office_name": null,
    "office_name_kana": null
  },
  "1211": {
    "postcode": "0301211",
    "prefecture": "青森県",
    "prefecture_kana": "アオモリケン",
    "prefecture_code": 2,
    "city": "東津軽郡蓬田村",
    "city_kana": "ヒガシツガルグンヨモギタムラ",
    "town": "蓬田",
    "town_kana": "ヨモギダ",
    "street": null,
    "office_name": null,
    "office_name_kana": null
  },
  "1212": {
    "postcode": "0301212",
    "prefecture": "青森県",
    "prefecture_kana": "アオモリケン",
    "prefecture_code": 2,
    "city": "東津軽郡蓬田村",
    "city_kana": "ヒガシツガルグンヨモギタムラ",
    "town": "阿弥陀川",
    "town_kana": "アミダガワ",
    "street": null,
    "office_name": null,
    "office_name_kana": null
  },
  "1213": {
    "postcode": "0301213",
    "prefecture": "青森県",
    "prefecture_kana": "アオモリケン",
    "prefecture_code": 2,
    "city": "東津軽郡蓬田村",
    "city_kana": "ヒガシツガルグンヨモギタムラ",
    "town": "長科",
    "town_kana": "ナガシナ",
    "street": null,
    "office_name": null,
    "office_name_kana": null
  },
  "1214": {
    "postcode": "0301214",
    "prefecture": "青森県",
    "prefecture_kana": "アオモリケン",
    "prefecture_code": 2,
    "city": "東津軽郡蓬田村",
    "city_kana": "ヒガシツガルグンヨモギタムラ",
    "town": "中沢",
    "town_kana": "ナカザワ",
    "street": null,
    "office_name": null,
    "office_name_kana": null
  },
  "1261": {
    "postcode": "0301261",
    "prefecture": "青森県",
    "prefecture_kana": "アオモリケン",
    "prefecture_code": 2,
    "city": "青森市",
    "city_kana": "アオモリシ",
    "town": "四戸橋",
    "town_kana": "シトバシ",
    "street": null,
    "office_name": null,
    "office_name_kana": null
  },
  "1262": {
    "postcode": "0301262",
    "prefecture": "青森県",
    "prefecture_kana": "アオモリケン",
    "prefecture_code": 2,
    "city": "青森市",
    "city_kana": "アオモリシ",
    "town": "後潟",
    "town_kana": "ウシロガタ",
    "street": null,
    "office_name": null,
    "office_name_kana": null
  },
  "1271": {
    "postcode": "0301271",
    "prefecture": "青森県",
    "prefecture_kana": "アオモリケン",
    "prefecture_code": 2,
    "city": "青森市",
    "city_kana": "アオモリシ",
    "town": "六枚橋",
    "town_kana": "ロクマエバシ",
    "street": null,
    "office_name": null,
    "office_name_kana": null
  },
  "1272": {
    "postcode": "0301272",
    "prefecture": "青森県",
    "prefecture_kana": "アオモリケン",
    "prefecture_code": 2,
    "city": "青森市",
    "city_kana": "アオモリシ",
    "town": "小橋",
    "town_kana": "コバシ",
    "street": null,
    "office_name": null,
    "office_name_kana": null
  },
  "1273": {
    "postcode": "0301273",
    "prefecture": "青森県",
    "prefecture_kana": "アオモリケン",
    "prefecture_code": 2,
    "city": "青森市",
    "city_kana": "アオモリシ",
    "town": "左堰",
    "town_kana": "ヒダリゼキ",
    "street": null,
    "office_name": null,
    "office_name_kana": null
  },
  "1301": {
    "postcode": "0301301",
    "prefecture": "青森県",
    "prefecture_kana": "アオモリケン",
    "prefecture_code": 2,
    "city": "東津軽郡外ヶ浜町",
    "city_kana": "ヒガシツガルグンソトガハママチ",
    "town": "蟹田石浜",
    "town_kana": "カニタイシハマ",
    "street": null,
    "office_name": null,
    "office_name_kana": null
  },
  "1302": {
    "postcode": "0301302",
    "prefecture": "青森県",
    "prefecture_kana": "アオモリケン",
    "prefecture_code": 2,
    "city": "東津軽郡外ヶ浜町",
    "city_kana": "ヒガシツガルグンソトガハママチ",
    "town": "蟹田中師",
    "town_kana": "カニタチュウシ",
    "street": null,
    "office_name": null,
    "office_name_kana": null
  },
  "1303": {
    "postcode": "0301303",
    "prefecture": "青森県",
    "prefecture_kana": "アオモリケン",
    "prefecture_code": 2,
    "city": "東津軽郡外ヶ浜町",
    "city_kana": "ヒガシツガルグンソトガハママチ",
    "town": "蟹田",
    "town_kana": "カニタ",
    "street": null,
    "office_name": null,
    "office_name_kana": null
  },
  "1304": {
    "postcode": "0301304",
    "prefecture": "青森県",
    "prefecture_kana": "アオモリケン",
    "prefecture_code": 2,
    "city": "東津軽郡外ヶ浜町",
    "city_kana": "ヒガシツガルグンソトガハママチ",
    "town": "蟹田南沢",
    "town_kana": "カニタミナミザワ",
    "street": null,
    "office_name": null,
    "office_name_kana": null
  },
  "1305": {
    "postcode": "0301305",
    "prefecture": "青森県",
    "prefecture_kana": "アオモリケン",
    "prefecture_code": 2,
    "city": "東津軽郡外ヶ浜町",
    "city_kana": "ヒガシツガルグンソトガハママチ",
    "town": "蟹田小国",
    "town_kana": "カニタオグニ",
    "street": null,
    "office_name": null,
    "office_name_kana": null
  },
  "1306": {
    "postcode": "0301306",
    "prefecture": "青森県",
    "prefecture_kana": "アオモリケン",
    "prefecture_code": 2,
    "city": "東津軽郡外ヶ浜町",
    "city_kana": "ヒガシツガルグンソトガハママチ",
    "town": "蟹田山本",
    "town_kana": "カニタヤマモト",
    "street": null,
    "office_name": null,
    "office_name_kana": null
  },
  "1307": {
    "postcode": "0301307",
    "prefecture": "青森県",
    "prefecture_kana": "アオモリケン",
    "prefecture_code": 2,
    "city": "東津軽郡外ヶ浜町",
    "city_kana": "ヒガシツガルグンソトガハママチ",
    "town": "蟹田大平",
    "town_kana": "カニタオオダイ",
    "street": null,
    "office_name": null,
    "office_name_kana": null
  },
  "1308": {
    "postcode": "0301308",
    "prefecture": "青森県",
    "prefecture_kana": "アオモリケン",
    "prefecture_code": 2,
    "city": "東津軽郡外ヶ浜町",
    "city_kana": "ヒガシツガルグンソトガハママチ",
    "town": "下蟹田",
    "town_kana": "シタカニタ",
    "street": null,
    "office_name": null,
    "office_name_kana": null
  },
  "1309": {
    "postcode": "0301309",
    "prefecture": "青森県",
    "prefecture_kana": "アオモリケン",
    "prefecture_code": 2,
    "city": "東津軽郡外ヶ浜町",
    "city_kana": "ヒガシツガルグンソトガハママチ",
    "town": "上蟹田",
    "town_kana": "ウエカニタ",
    "street": null,
    "office_name": null,
    "office_name_kana": null
  },
  "1311": {
    "postcode": "0301311",
    "prefecture": "青森県",
    "prefecture_kana": "アオモリケン",
    "prefecture_code": 2,
    "city": "東津軽郡外ヶ浜町",
    "city_kana": "ヒガシツガルグンソトガハママチ",
    "town": "蟹田塩越",
    "town_kana": "カニタシオコシ",
    "street": null,
    "office_name": null,
    "office_name_kana": null
  },
  "1393": {
    "postcode": "0301393",
    "prefecture": "青森県",
    "prefecture_kana": "アオモリケン",
    "prefecture_code": 2,
    "city": "東津軽郡外ヶ浜町",
    "city_kana": "ヒガシツガルグンソトガハママチ",
    "town": "字蟹田高銅屋",
    "town_kana": null,
    "street": "４４−２",
    "office_name": "外ヶ浜町役場",
    "office_name_kana": "ソトガハママチヤクバ"
  },
  "1400": {
    "postcode": "0301400",
    "prefecture": "青森県",
    "prefecture_kana": "アオモリケン",
    "prefecture_code": 2,
    "city": "東津軽郡外ヶ浜町",
    "city_kana": "ヒガシツガルグンソトガハママチ",
    "town": "",
    "town_kana": "",
    "street": null,
    "office_name": null,
    "office_name_kana": null
  },
  "1402": {
    "postcode": "0301402",
    "prefecture": "青森県",
    "prefecture_kana": "アオモリケン",
    "prefecture_code": 2,
    "city": "東津軽郡外ヶ浜町",
    "city_kana": "ヒガシツガルグンソトガハママチ",
    "town": "平舘",
    "town_kana": "タイラダテ",
    "street": null,
    "office_name": null,
    "office_name_kana": null
  },
  "1403": {
    "postcode": "0301403",
    "prefecture": "青森県",
    "prefecture_kana": "アオモリケン",
    "prefecture_code": 2,
    "city": "東津軽郡外ヶ浜町",
    "city_kana": "ヒガシツガルグンソトガハママチ",
    "town": "平舘元宇田",
    "town_kana": "タイラダテモトウダ",
    "street": null,
    "office_name": null,
    "office_name_kana": null
  },
  "1404": {
    "postcode": "0301404",
    "prefecture": "青森県",
    "prefecture_kana": "アオモリケン",
    "prefecture_code": 2,
    "city": "東津軽郡外ヶ浜町",
    "city_kana": "ヒガシツガルグンソトガハママチ",
    "town": "平舘弥蔵釜",
    "town_kana": "タイラダテヤゾウカマ",
    "street": null,
    "office_name": null,
    "office_name_kana": null
  },
  "1405": {
    "postcode": "0301405",
    "prefecture": "青森県",
    "prefecture_kana": "アオモリケン",
    "prefecture_code": 2,
    "city": "東津軽郡外ヶ浜町",
    "city_kana": "ヒガシツガルグンソトガハママチ",
    "town": "平舘石崎沢",
    "town_kana": "タイラダテイシザキサワ",
    "street": null,
    "office_name": null,
    "office_name_kana": null
  },
  "1411": {
    "postcode": "0301411",
    "prefecture": "青森県",
    "prefecture_kana": "アオモリケン",
    "prefecture_code": 2,
    "city": "東津軽郡外ヶ浜町",
    "city_kana": "ヒガシツガルグンソトガハママチ",
    "town": "平舘根岸",
    "town_kana": "タイラダテネギシ",
    "street": null,
    "office_name": null,
    "office_name_kana": null
  },
  "1412": {
    "postcode": "0301412",
    "prefecture": "青森県",
    "prefecture_kana": "アオモリケン",
    "prefecture_code": 2,
    "city": "東津軽郡外ヶ浜町",
    "city_kana": "ヒガシツガルグンソトガハママチ",
    "town": "平舘野田",
    "town_kana": "タイラダテノダ",
    "street": null,
    "office_name": null,
    "office_name_kana": null
  },
  "1413": {
    "postcode": "0301413",
    "prefecture": "青森県",
    "prefecture_kana": "アオモリケン",
    "prefecture_code": 2,
    "city": "東津軽郡外ヶ浜町",
    "city_kana": "ヒガシツガルグンソトガハママチ",
    "town": "平舘今津",
    "town_kana": "タイラダテイマヅ",
    "street": null,
    "office_name": null,
    "office_name_kana": null
  },
  "1415": {
    "postcode": "0301415",
    "prefecture": "青森県",
    "prefecture_kana": "アオモリケン",
    "prefecture_code": 2,
    "city": "東津軽郡外ヶ浜町",
    "city_kana": "ヒガシツガルグンソトガハママチ",
    "town": "平舘舟岡",
    "town_kana": "タイラダテフナオカ",
    "street": null,
    "office_name": null,
    "office_name_kana": null
  },
  "1416": {
    "postcode": "0301416",
    "prefecture": "青森県",
    "prefecture_kana": "アオモリケン",
    "prefecture_code": 2,
    "city": "東津軽郡外ヶ浜町",
    "city_kana": "ヒガシツガルグンソトガハママチ",
    "town": "平舘磯山",
    "town_kana": "タイラダテイソヤマ",
    "street": null,
    "office_name": null,
    "office_name_kana": null
  },
  "1492": {
    "postcode": "0301492",
    "prefecture": "青森県",
    "prefecture_kana": "アオモリケン",
    "prefecture_code": 2,
    "city": "東津軽郡外ヶ浜町",
    "city_kana": "ヒガシツガルグンソトガハママチ",
    "town": "字平舘根岸湯の沢",
    "town_kana": null,
    "street": "１９６",
    "office_name": "外ヶ浜町役場　平舘支所",
    "office_name_kana": "ソトガハママチヤクバ タイラダテシシヨ"
  },
  "1496": {
    "postcode": "0301496",
    "prefecture": "青森県",
    "prefecture_kana": "アオモリケン",
    "prefecture_code": 2,
    "city": "東津軽郡外ヶ浜町",
    "city_kana": "ヒガシツガルグンソトガハママチ",
    "town": "字平舘根岸小川",
    "town_kana": null,
    "street": "２０番地１",
    "office_name": "社会福祉法人　平舘福祉会　かもめ苑",
    "office_name_kana": "シヤカイフクシホウジン タイラダテフクシカイ カモメエン"
  },
  "1500": {
    "postcode": "0301500",
    "prefecture": "青森県",
    "prefecture_kana": "アオモリケン",
    "prefecture_code": 2,
    "city": "東津軽郡今別町",
    "city_kana": "ヒガシツガルグンイマベツマチ",
    "town": "",
    "town_kana": "",
    "street": null,
    "office_name": null,
    "office_name_kana": null
  },
  "1501": {
    "postcode": "0301501",
    "prefecture": "青森県",
    "prefecture_kana": "アオモリケン",
    "prefecture_code": 2,
    "city": "東津軽郡今別町",
    "city_kana": "ヒガシツガルグンイマベツマチ",
    "town": "浜名",
    "town_kana": "ハマナ",
    "street": null,
    "office_name": null,
    "office_name_kana": null
  },
  "1502": {
    "postcode": "0301502",
    "prefecture": "青森県",
    "prefecture_kana": "アオモリケン",
    "prefecture_code": 2,
    "city": "東津軽郡今別町",
    "city_kana": "ヒガシツガルグンイマベツマチ",
    "town": "今別",
    "town_kana": "イマベツ",
    "street": null,
    "office_name": null,
    "office_name_kana": null
  },
  "1503": {
    "postcode": "0301503",
    "prefecture": "青森県",
    "prefecture_kana": "アオモリケン",
    "prefecture_code": 2,
    "city": "東津軽郡今別町",
    "city_kana": "ヒガシツガルグンイマベツマチ",
    "town": "村元",
    "town_kana": "ムラモト",
    "street": null,
    "office_name": null,
    "office_name_kana": null
  },
  "1504": {
    "postcode": "0301504",
    "prefecture": "青森県",
    "prefecture_kana": "アオモリケン",
    "prefecture_code": 2,
    "city": "東津軽郡今別町",
    "city_kana": "ヒガシツガルグンイマベツマチ",
    "town": "鍋田",
    "town_kana": "ナベタ",
    "street": null,
    "office_name": null,
    "office_name_kana": null
  },
  "1505": {
    "postcode": "0301505",
    "prefecture": "青森県",
    "prefecture_kana": "アオモリケン",
    "prefecture_code": 2,
    "city": "東津軽郡今別町",
    "city_kana": "ヒガシツガルグンイマベツマチ",
    "town": "大川平",
    "town_kana": "オオカワダイ",
    "street": null,
    "office_name": null,
    "office_name_kana": null
  },
  "1511": {
    "postcode": "0301511",
    "prefecture": "青森県",
    "prefecture_kana": "アオモリケン",
    "prefecture_code": 2,
    "city": "東津軽郡今別町",
    "city_kana": "ヒガシツガルグンイマベツマチ",
    "town": "山崎",
    "town_kana": "ヤマザキ",
    "street": null,
    "office_name": null,
    "office_name_kana": null
  },
  "1512": {
    "postcode": "0301512",
    "prefecture": "青森県",
    "prefecture_kana": "アオモリケン",
    "prefecture_code": 2,
    "city": "東津軽郡今別町",
    "city_kana": "ヒガシツガルグンイマベツマチ",
    "town": "大泊",
    "town_kana": "オオドマリ",
    "street": null,
    "office_name": null,
    "office_name_kana": null
  },
  "1513": {
    "postcode": "0301513",
    "prefecture": "青森県",
    "prefecture_kana": "アオモリケン",
    "prefecture_code": 2,
    "city": "東津軽郡今別町",
    "city_kana": "ヒガシツガルグンイマベツマチ",
    "town": "袰月",
    "town_kana": "ホロヅキ",
    "street": null,
    "office_name": null,
    "office_name_kana": null
  },
  "1514": {
    "postcode": "0301514",
    "prefecture": "青森県",
    "prefecture_kana": "アオモリケン",
    "prefecture_code": 2,
    "city": "東津軽郡今別町",
    "city_kana": "ヒガシツガルグンイマベツマチ",
    "town": "砂ケ森",
    "town_kana": "スナガモリ",
    "street": null,
    "office_name": null,
    "office_name_kana": null
  },
  "1515": {
    "postcode": "0301515",
    "prefecture": "青森県",
    "prefecture_kana": "アオモリケン",
    "prefecture_code": 2,
    "city": "東津軽郡今別町",
    "city_kana": "ヒガシツガルグンイマベツマチ",
    "town": "奥平部",
    "town_kana": "オクタイラヘ",
    "street": null,
    "office_name": null,
    "office_name_kana": null
  },
  "1701": {
    "postcode": "0301701",
    "prefecture": "青森県",
    "prefecture_kana": "アオモリケン",
    "prefecture_code": 2,
    "city": "北津軽郡中泊町",
    "city_kana": "キタツガルグンナカドマリマチ",
    "town": "小泊袰内",
    "town_kana": "コドマリホロナイ",
    "street": null,
    "office_name": null,
    "office_name_kana": null
  },
  "1711": [
    {
      "postcode": "0301711",
      "prefecture": "青森県",
      "prefecture_kana": "アオモリケン",
      "prefecture_code": 2,
      "city": "東津軽郡外ヶ浜町",
      "city_kana": "ヒガシツガルグンソトガハママチ",
      "town": "三厩源兵衛間",
      "town_kana": "ミンマヤゲンベイマ",
      "street": null,
      "office_name": null,
      "office_name_kana": null
    },
    {
      "postcode": "0301711",
      "prefecture": "青森県",
      "prefecture_kana": "アオモリケン",
      "prefecture_code": 2,
      "city": "東津軽郡外ヶ浜町",
      "city_kana": "ヒガシツガルグンソトガハママチ",
      "town": "三厩龍浜",
      "town_kana": "ミンマヤタツハマ",
      "street": null,
      "office_name": null,
      "office_name_kana": null
    }
  ],
  "1712": {
    "postcode": "0301712",
    "prefecture": "青森県",
    "prefecture_kana": "アオモリケン",
    "prefecture_code": 2,
    "city": "東津軽郡外ヶ浜町",
    "city_kana": "ヒガシツガルグンソトガハママチ",
    "town": "三厩木落",
    "town_kana": "ミンマヤキオトシ",
    "street": null,
    "office_name": null,
    "office_name_kana": null
  },
  "1713": {
    "postcode": "0301713",
    "prefecture": "青森県",
    "prefecture_kana": "アオモリケン",
    "prefecture_code": 2,
    "city": "東津軽郡外ヶ浜町",
    "city_kana": "ヒガシツガルグンソトガハママチ",
    "town": "三厩鎧嶋",
    "town_kana": "ミンマヤヨロイジマ",
    "street": null,
    "office_name": null,
    "office_name_kana": null
  },
  "1714": {
    "postcode": "0301714",
    "prefecture": "青森県",
    "prefecture_kana": "アオモリケン",
    "prefecture_code": 2,
    "city": "東津軽郡外ヶ浜町",
    "city_kana": "ヒガシツガルグンソトガハママチ",
    "town": "三厩梹榔",
    "town_kana": "ミンマヤヒョウロウ",
    "street": null,
    "office_name": null,
    "office_name_kana": null
  },
  "1715": {
    "postcode": "0301715",
    "prefecture": "青森県",
    "prefecture_kana": "アオモリケン",
    "prefecture_code": 2,
    "city": "東津軽郡外ヶ浜町",
    "city_kana": "ヒガシツガルグンソトガハママチ",
    "town": "三厩鳴神",
    "town_kana": "ミンマヤナルカミ",
    "street": null,
    "office_name": null,
    "office_name_kana": null
  },
  "1716": {
    "postcode": "0301716",
    "prefecture": "青森県",
    "prefecture_kana": "アオモリケン",
    "prefecture_code": 2,
    "city": "東津軽郡外ヶ浜町",
    "city_kana": "ヒガシツガルグンソトガハママチ",
    "town": "三厩尻神",
    "town_kana": "ミンマヤシリカミ",
    "street": null,
    "office_name": null,
    "office_name_kana": null
  },
  "1717": {
    "postcode": "0301717",
    "prefecture": "青森県",
    "prefecture_kana": "アオモリケン",
    "prefecture_code": 2,
    "city": "東津軽郡外ヶ浜町",
    "city_kana": "ヒガシツガルグンソトガハママチ",
    "town": "三厩川柱",
    "town_kana": "ミンマヤカワシラ",
    "street": null,
    "office_name": null,
    "office_name_kana": null
  },
  "1718": {
    "postcode": "0301718",
    "prefecture": "青森県",
    "prefecture_kana": "アオモリケン",
    "prefecture_code": 2,
    "city": "東津軽郡外ヶ浜町",
    "city_kana": "ヒガシツガルグンソトガハママチ",
    "town": "三厩梨ノ木間",
    "town_kana": "ミンマヤナシノキマ",
    "street": null,
    "office_name": null,
    "office_name_kana": null
  },
  "1719": {
    "postcode": "0301719",
    "prefecture": "青森県",
    "prefecture_kana": "アオモリケン",
    "prefecture_code": 2,
    "city": "東津軽郡外ヶ浜町",
    "city_kana": "ヒガシツガルグンソトガハママチ",
    "town": "三厩宇鉄山",
    "town_kana": "ミンマヤウテツヤマ",
    "street": null,
    "office_name": null,
    "office_name_kana": null
  },
  "1720": {
    "postcode": "0301720",
    "prefecture": "青森県",
    "prefecture_kana": "アオモリケン",
    "prefecture_code": 2,
    "city": "東津軽郡外ヶ浜町",
    "city_kana": "ヒガシツガルグンソトガハママチ",
    "town": "三厩四枚橋",
    "town_kana": "ミンマヤシマイバシ",
    "street": null,
    "office_name": null,
    "office_name_kana": null
  },
  "1721": {
    "postcode": "0301721",
    "prefecture": "青森県",
    "prefecture_kana": "アオモリケン",
    "prefecture_code": 2,
    "city": "東津軽郡外ヶ浜町",
    "city_kana": "ヒガシツガルグンソトガハママチ",
    "town": "三厩鐇泊",
    "town_kana": "ミンマヤマサカリドマリ",
    "street": null,
    "office_name": null,
    "office_name_kana": null
  },
  "1722": {
    "postcode": "0301722",
    "prefecture": "青森県",
    "prefecture_kana": "アオモリケン",
    "prefecture_code": 2,
    "city": "東津軽郡外ヶ浜町",
    "city_kana": "ヒガシツガルグンソトガハママチ",
    "town": "三厩上宇鉄",
    "town_kana": "ミンマヤカミウテツ",
    "street": null,
    "office_name": null,
    "office_name_kana": null
  },
  "1723": {
    "postcode": "0301723",
    "prefecture": "青森県",
    "prefecture_kana": "アオモリケン",
    "prefecture_code": 2,
    "city": "東津軽郡外ヶ浜町",
    "city_kana": "ヒガシツガルグンソトガハママチ",
    "town": "三厩元宇鉄",
    "town_kana": "ミンマヤモトウテツ",
    "street": null,
    "office_name": null,
    "office_name_kana": null
  },
  "1724": {
    "postcode": "0301724",
    "prefecture": "青森県",
    "prefecture_kana": "アオモリケン",
    "prefecture_code": 2,
    "city": "東津軽郡外ヶ浜町",
    "city_kana": "ヒガシツガルグンソトガハママチ",
    "town": "三厩釜野澤",
    "town_kana": "ミンマヤカマノサワ",
    "street": null,
    "office_name": null,
    "office_name_kana": null
  },
  "1725": {
    "postcode": "0301725",
    "prefecture": "青森県",
    "prefecture_kana": "アオモリケン",
    "prefecture_code": 2,
    "city": "東津軽郡外ヶ浜町",
    "city_kana": "ヒガシツガルグンソトガハママチ",
    "town": "三厩藤嶋",
    "town_kana": "ミンマヤフジシマ",
    "street": null,
    "office_name": null,
    "office_name_kana": null
  },
  "1726": {
    "postcode": "0301726",
    "prefecture": "青森県",
    "prefecture_kana": "アオモリケン",
    "prefecture_code": 2,
    "city": "東津軽郡外ヶ浜町",
    "city_kana": "ヒガシツガルグンソトガハママチ",
    "town": "三厩六條間",
    "town_kana": "ミンマヤロクジョウマ",
    "street": null,
    "office_name": null,
    "office_name_kana": null
  },
  "1727": {
    "postcode": "0301727",
    "prefecture": "青森県",
    "prefecture_kana": "アオモリケン",
    "prefecture_code": 2,
    "city": "東津軽郡外ヶ浜町",
    "city_kana": "ヒガシツガルグンソトガハママチ",
    "town": "三厩算用師",
    "town_kana": "ミンマヤサンヨウシ",
    "street": null,
    "office_name": null,
    "office_name_kana": null
  },
  "1728": {
    "postcode": "0301728",
    "prefecture": "青森県",
    "prefecture_kana": "アオモリケン",
    "prefecture_code": 2,
    "city": "東津軽郡外ヶ浜町",
    "city_kana": "ヒガシツガルグンソトガハママチ",
    "town": "三厩中浜",
    "town_kana": "ミンマヤナカハマ",
    "street": null,
    "office_name": null,
    "office_name_kana": null
  },
  "1729": {
    "postcode": "0301729",
    "prefecture": "青森県",
    "prefecture_kana": "アオモリケン",
    "prefecture_code": 2,
    "city": "東津軽郡外ヶ浜町",
    "city_kana": "ヒガシツガルグンソトガハママチ",
    "town": "三厩下平",
    "town_kana": "ミンマヤシモタイラ",
    "street": null,
    "office_name": null,
    "office_name_kana": null
  },
  "1731": {
    "postcode": "0301731",
    "prefecture": "青森県",
    "prefecture_kana": "アオモリケン",
    "prefecture_code": 2,
    "city": "東津軽郡外ヶ浜町",
    "city_kana": "ヒガシツガルグンソトガハママチ",
    "town": "三厩本町",
    "town_kana": "ミンマヤホンチョウ",
    "street": null,
    "office_name": null,
    "office_name_kana": null
  },
  "1732": {
    "postcode": "0301732",
    "prefecture": "青森県",
    "prefecture_kana": "アオモリケン",
    "prefecture_code": 2,
    "city": "東津軽郡外ヶ浜町",
    "city_kana": "ヒガシツガルグンソトガハママチ",
    "town": "三厩家ノ上",
    "town_kana": "ミンマヤイエノウエ",
    "street": null,
    "office_name": null,
    "office_name_kana": null
  },
  "1733": {
    "postcode": "0301733",
    "prefecture": "青森県",
    "prefecture_kana": "アオモリケン",
    "prefecture_code": 2,
    "city": "東津軽郡外ヶ浜町",
    "city_kana": "ヒガシツガルグンソトガハママチ",
    "town": "三厩新町",
    "town_kana": "ミンマヤシンチョウ",
    "street": null,
    "office_name": null,
    "office_name_kana": null
  },
  "1734": {
    "postcode": "0301734",
    "prefecture": "青森県",
    "prefecture_kana": "アオモリケン",
    "prefecture_code": 2,
    "city": "東津軽郡外ヶ浜町",
    "city_kana": "ヒガシツガルグンソトガハママチ",
    "town": "三厩増川",
    "town_kana": "ミンマヤマスカワ",
    "street": null,
    "office_name": null,
    "office_name_kana": null
  },
  "1735": {
    "postcode": "0301735",
    "prefecture": "青森県",
    "prefecture_kana": "アオモリケン",
    "prefecture_code": 2,
    "city": "東津軽郡外ヶ浜町",
    "city_kana": "ヒガシツガルグンソトガハママチ",
    "town": "三厩緑ケ丘",
    "town_kana": "ミンマヤミドリガオカ",
    "street": null,
    "office_name": null,
    "office_name_kana": null
  },
  "1736": {
    "postcode": "0301736",
    "prefecture": "青森県",
    "prefecture_kana": "アオモリケン",
    "prefecture_code": 2,
    "city": "東津軽郡外ヶ浜町",
    "city_kana": "ヒガシツガルグンソトガハママチ",
    "town": "三厩桃ケ丘",
    "town_kana": "ミンマヤモモガオカ",
    "street": null,
    "office_name": null,
    "office_name_kana": null
  },
  "1737": {
    "postcode": "0301737",
    "prefecture": "青森県",
    "prefecture_kana": "アオモリケン",
    "prefecture_code": 2,
    "city": "東津軽郡外ヶ浜町",
    "city_kana": "ヒガシツガルグンソトガハママチ",
    "town": "三厩東町",
    "town_kana": "ミンマヤヒガシマチ",
    "street": null,
    "office_name": null,
    "office_name_kana": null
  },
  "1798": {
    "postcode": "0301798",
    "prefecture": "青森県",
    "prefecture_kana": "アオモリケン",
    "prefecture_code": 2,
    "city": "東津軽郡外ヶ浜町",
    "city_kana": "ヒガシツガルグンソトガハママチ",
    "town": "字三厩本町",
    "town_kana": null,
    "street": "５９",
    "office_name": "外ヶ浜町役場　三厩支所",
    "office_name_kana": "ソトガハママチヤクバ ミンマヤシシヨ"
  },
  "8502": {
    "postcode": "0308502",
    "prefecture": "青森県",
    "prefecture_kana": "アオモリケン",
    "prefecture_code": 2,
    "city": "青森市",
    "city_kana": "アオモリシ",
    "town": "堤町",
    "town_kana": "ツツミマチ",
    "street": "１丁目５−１",
    "office_name": "青森県　社会保険診療報酬支払基金",
    "office_name_kana": "アオモリケン シヤカイホケンシンリヨウホウシユウシハライキキン"
  },
  "8503": {
    "postcode": "0308503",
    "prefecture": "青森県",
    "prefecture_kana": "アオモリケン",
    "prefecture_code": 2,
    "city": "青森市",
    "city_kana": "アオモリシ",
    "town": "新町",
    "town_kana": "シンマチ",
    "street": "１丁目７−１",
    "office_name": "株式会社　中三　本店",
    "office_name_kana": "カブシキガイシヤ ナカサン ホンテン"
  },
  "8505": {
    "postcode": "0308505",
    "prefecture": "青森県",
    "prefecture_kana": "アオモリケン",
    "prefecture_code": 2,
    "city": "青森市",
    "city_kana": "アオモリシ",
    "town": "大字浜館",
    "town_kana": null,
    "street": "字間瀬５８−１",
    "office_name": "青森県立　保健大学",
    "office_name_kana": "アオモリケンリツ ホケンダイガク"
  },
  "8510": {
    "postcode": "0308510",
    "prefecture": "青森県",
    "prefecture_kana": "アオモリケン",
    "prefecture_code": 2,
    "city": "青森市",
    "city_kana": "アオモリシ",
    "town": "長島",
    "town_kana": "ナガシマ",
    "street": "２丁目１８−６",
    "office_name": "協同組合　日専連青森",
    "office_name_kana": "キヨウドウクミアイ ニツセンレンアオモリ"
  },
  "8511": {
    "postcode": "0308511",
    "prefecture": "青森県",
    "prefecture_kana": "アオモリケン",
    "prefecture_code": 2,
    "city": "青森市",
    "city_kana": "アオモリシ",
    "town": "長島",
    "town_kana": "ナガシマ",
    "street": "１丁目３−５",
    "office_name": "青森地方法務局",
    "office_name_kana": "アオモリチホウホウムキヨク"
  },
  "8513": {
    "postcode": "0308513",
    "prefecture": "青森県",
    "prefecture_kana": "アオモリケン",
    "prefecture_code": 2,
    "city": "青森市",
    "city_kana": "アオモリシ",
    "town": "橋本",
    "town_kana": "ハシモト",
    "street": "２丁目１−６",
    "office_name": "東日本電信電話　株式会社　青森支店",
    "office_name_kana": "ヒガシニホンデンシンデンワ カブシキガイシヤ アオモリシテン"
  },
  "8515": {
    "postcode": "0308515",
    "prefecture": "青森県",
    "prefecture_kana": "アオモリケン",
    "prefecture_code": 2,
    "city": "青森市",
    "city_kana": "アオモリシ",
    "town": "新町",
    "town_kana": "シンマチ",
    "street": "一丁目２番１８号",
    "office_name": "青森商工会議所",
    "office_name_kana": "アオモリシヨウコウカイギシヨ"
  },
  "8520": {
    "postcode": "0308520",
    "prefecture": "青森県",
    "prefecture_kana": "アオモリケン",
    "prefecture_code": 2,
    "city": "青森市",
    "city_kana": "アオモリシ",
    "town": "青葉",
    "town_kana": "アオバ",
    "street": "３丁目１３−４０",
    "office_name": "青森山田高等学校",
    "office_name_kana": "アオモリヤマダコウトウガツコウ"
  },
  "8521": {
    "postcode": "0308521",
    "prefecture": "青森県",
    "prefecture_kana": "アオモリケン",
    "prefecture_code": 2,
    "city": "青森市",
    "city_kana": "アオモリシ",
    "town": "浪打",
    "town_kana": "ナミウチ",
    "street": "１丁目１４−３",
    "office_name": "株式会社　奥村工務店",
    "office_name_kana": "カブシキガイシヤ オクムラコウムテン"
  },
  "8522": {
    "postcode": "0308522",
    "prefecture": "青森県",
    "prefecture_kana": "アオモリケン",
    "prefecture_code": 2,
    "city": "青森市",
    "city_kana": "アオモリシ",
    "town": "長島",
    "town_kana": "ナガシマ",
    "street": "１丁目３−２６",
    "office_name": "青森地方裁判所",
    "office_name_kana": "アオモリチホウサイバンシヨ"
  },
  "8523": {
    "postcode": "0308523",
    "prefecture": "青森県",
    "prefecture_kana": "アオモリケン",
    "prefecture_code": 2,
    "city": "青森市",
    "city_kana": "アオモリシ",
    "town": "長島",
    "town_kana": "ナガシマ",
    "street": "１丁目３−２６",
    "office_name": "青森家庭裁判所",
    "office_name_kana": "アオモリカテイサイバンシヨ"
  },
  "8524": {
    "postcode": "0308524",
    "prefecture": "青森県",
    "prefecture_kana": "アオモリケン",
    "prefecture_code": 2,
    "city": "青森市",
    "city_kana": "アオモリシ",
    "town": "長島",
    "town_kana": "ナガシマ",
    "street": "１丁目３−２６",
    "office_name": "青森簡易裁判所",
    "office_name_kana": "アオモリカンイサイバンシヨ"
  },
  "8530": {
    "postcode": "0308530",
    "prefecture": "青森県",
    "prefecture_kana": "アオモリケン",
    "prefecture_code": 2,
    "city": "青森市",
    "city_kana": "アオモリシ",
    "town": "新町",
    "town_kana": "シンマチ",
    "street": "２丁目４−３０",
    "office_name": "青森県税事務所",
    "office_name_kana": "アオモリケンゼイジムシヨ"
  },
  "8533": {
    "postcode": "0308533",
    "prefecture": "青森県",
    "prefecture_kana": "アオモリケン",
    "prefecture_code": 2,
    "city": "青森市",
    "city_kana": "アオモリシ",
    "town": "緑",
    "town_kana": "ミドリ",
    "street": "３丁目９−２",
    "office_name": "協同組合　サンロード青森",
    "office_name_kana": "キヨウドウクミアイ サンロ-ドアオモリ"
  },
  "8540": {
    "postcode": "0308540",
    "prefecture": "青森県",
    "prefecture_kana": "アオモリケン",
    "prefecture_code": 2,
    "city": "青森市",
    "city_kana": "アオモリシ",
    "town": "長島",
    "town_kana": "ナガシマ",
    "street": "一丁目１番１号",
    "office_name": "青森県教育庁",
    "office_name_kana": "アオモリケンキヨウイクチヨウ"
  },
  "8541": {
    "postcode": "0308541",
    "prefecture": "青森県",
    "prefecture_kana": "アオモリケン",
    "prefecture_code": 2,
    "city": "青森市",
    "city_kana": "アオモリシ",
    "town": "新町",
    "town_kana": "シンマチ",
    "street": "２丁目４−１",
    "office_name": "青森県　信用保証協会",
    "office_name_kana": "アオモリケン シンヨウホシヨウキヨウカイ"
  },
  "8543": {
    "postcode": "0308543",
    "prefecture": "青森県",
    "prefecture_kana": "アオモリケン",
    "prefecture_code": 2,
    "city": "青森市",
    "city_kana": "アオモリシ",
    "town": "新町",
    "town_kana": "シンマチ",
    "street": "２丁目５−１",
    "office_name": "株式会社　角弘",
    "office_name_kana": "カブシキカイシヤ カクヒロ"
  },
  "8545": {
    "postcode": "0308545",
    "prefecture": "青森県",
    "prefecture_kana": "アオモリケン",
    "prefecture_code": 2,
    "city": "青森市",
    "city_kana": "アオモリシ",
    "town": "長島",
    "town_kana": "ナガシマ",
    "street": "１丁目３番２５号",
    "office_name": "青森地方検察庁",
    "office_name_kana": "アオモリチホウケンサツチヨウ"
  },
  "8550": {
    "postcode": "0308550",
    "prefecture": "青森県",
    "prefecture_kana": "アオモリケン",
    "prefecture_code": 2,
    "city": "青森市",
    "city_kana": "アオモリシ",
    "town": "新町",
    "town_kana": "シンマチ",
    "street": "２丁目２−４",
    "office_name": "株式会社　オリエントコーポレーション　青森支店",
    "office_name_kana": "カブシキガイシヤ オリエントコ-ポレ-シヨン アオモリシテン"
  },
  "8552": {
    "postcode": "0308552",
    "prefecture": "青森県",
    "prefecture_kana": "アオモリケン",
    "prefecture_code": 2,
    "city": "青森市",
    "city_kana": "アオモリシ",
    "town": "長島",
    "town_kana": "ナガシマ",
    "street": "２丁目２５−３ニッセイ青森センタービル",
    "office_name": "全国健康保険協会　青森支部",
    "office_name_kana": "ゼンコクケンコウホケンキヨウカイ アオモリシブ"
  },
  "8553": {
    "postcode": "0308553",
    "prefecture": "青森県",
    "prefecture_kana": "アオモリケン",
    "prefecture_code": 2,
    "city": "青森市",
    "city_kana": "アオモリシ",
    "town": "東造道",
    "town_kana": "ヒガシツクリミチ",
    "street": "２丁目１−１",
    "office_name": "青森県立　中央病院",
    "office_name_kana": "アオモリケンリツ チユウオウビヨウイン"
  },
  "8554": {
    "postcode": "0308554",
    "prefecture": "青森県",
    "prefecture_kana": "アオモリケン",
    "prefecture_code": 2,
    "city": "青森市",
    "city_kana": "アオモリシ",
    "town": "中央",
    "town_kana": "チュウオウ",
    "street": "１−２２−８青森第一生命ビルディング１〜３階",
    "office_name": "日本年金機構　青森年金事務所",
    "office_name_kana": "ニツポンネンキンキコウ アオモリネンキンジムシヨ"
  },
  "8555": {
    "postcode": "0308555",
    "prefecture": "青森県",
    "prefecture_kana": "アオモリケン",
    "prefecture_code": 2,
    "city": "青森市",
    "city_kana": "アオモリシ",
    "town": "中央",
    "town_kana": "チュウオウ",
    "street": "１丁目２２−５",
    "office_name": "青森市役所",
    "office_name_kana": "アオモリシヤクシヨ"
  },
  "8556": {
    "postcode": "0308556",
    "prefecture": "青森県",
    "prefecture_kana": "アオモリケン",
    "prefecture_code": 2,
    "city": "青森市",
    "city_kana": "アオモリシ",
    "town": "長島",
    "town_kana": "ナガシマ",
    "street": "二丁目２５−３ニッセイ青森センタービル６階",
    "office_name": "日本年金機構　青森事務センター",
    "office_name_kana": "ニツポンネンキンキコウ アオモリジムセンタ-"
  },
  "8557": {
    "postcode": "0308557",
    "prefecture": "青森県",
    "prefecture_kana": "アオモリケン",
    "prefecture_code": 2,
    "city": "青森市",
    "city_kana": "アオモリシ",
    "town": "八重田",
    "town_kana": "ヤエダ",
    "street": "１丁目６−１１",
    "office_name": "株式会社　オカムラ食品工業",
    "office_name_kana": "カブシキガイシヤ オカムラシヨクヒンコウギヨウ"
  },
  "8558": {
    "postcode": "0308558",
    "prefecture": "青森県",
    "prefecture_kana": "アオモリケン",
    "prefecture_code": 2,
    "city": "青森市",
    "city_kana": "アオモリシ",
    "town": "新町",
    "town_kana": "シンマチ",
    "street": "２丁目４−２５",
    "office_name": "青森労働局",
    "office_name_kana": "アオモリロウドウキヨク"
  },
  "8560": {
    "postcode": "0308560",
    "prefecture": "青森県",
    "prefecture_kana": "アオモリケン",
    "prefecture_code": 2,
    "city": "青森市",
    "city_kana": "アオモリシ",
    "town": "港町",
    "town_kana": "ミナトマチ",
    "street": "２丁目１２−１９",
    "office_name": "東北電力　株式会社　青森支店",
    "office_name_kana": "トウホクデンリヨク カブシキガイシヤ アオモリシテン"
  },
  "8561": {
    "postcode": "0308561",
    "prefecture": "青森県",
    "prefecture_kana": "アオモリケン",
    "prefecture_code": 2,
    "city": "青森市",
    "city_kana": "アオモリシ",
    "town": "港町",
    "town_kana": "ミナトマチ",
    "street": "２丁目１２番１９号",
    "office_name": "東北電力ネットワーク　株式会社　青森支社",
    "office_name_kana": "トウホクデンリヨクネツトワ-ク カブシキガイシヤ アオモリシシヤ"
  },
  "8566": {
    "postcode": "0308566",
    "prefecture": "青森県",
    "prefecture_kana": "アオモリケン",
    "prefecture_code": 2,
    "city": "青森市",
    "city_kana": "アオモリシ",
    "town": "東造道",
    "town_kana": "ヒガシツクリミチ",
    "street": "１丁目１−１",
    "office_name": "青森県　環境保健センター",
    "office_name_kana": "アオモリケン カンキヨウホケンセンタ-"
  },
  "8567": {
    "postcode": "0308567",
    "prefecture": "青森県",
    "prefecture_kana": "アオモリケン",
    "prefecture_code": 2,
    "city": "青森市",
    "city_kana": "アオモリシ",
    "town": "本町",
    "town_kana": "ホンチョウ",
    "street": "５丁目１−５",
    "office_name": "青森県　市町村職員共済組合",
    "office_name_kana": "アオモリケン シチヨウソンシヨクイン キヨウサイクミアイ"
  },
  "8570": {
    "postcode": "0308570",
    "prefecture": "青森県",
    "prefecture_kana": "アオモリケン",
    "prefecture_code": 2,
    "city": "青森市",
    "city_kana": "アオモリシ",
    "town": "長島",
    "town_kana": "ナガシマ",
    "street": "１丁目１−１",
    "office_name": "青森県庁",
    "office_name_kana": "アオモリケンチヨウ"
  },
  "8574": {
    "postcode": "0308574",
    "prefecture": "青森県",
    "prefecture_kana": "アオモリケン",
    "prefecture_code": 2,
    "city": "青森市",
    "city_kana": "アオモリシ",
    "town": "新町",
    "town_kana": "シンマチ",
    "street": "１丁目１３−２",
    "office_name": "さくら野東北　株式会社　青森店",
    "office_name_kana": "サクラノトウホク カブシキガイシヤ アオモリテン"
  },
  "8577": {
    "postcode": "0308577",
    "prefecture": "青森県",
    "prefecture_kana": "アオモリケン",
    "prefecture_code": 2,
    "city": "青森市",
    "city_kana": "アオモリシ",
    "town": "新町",
    "town_kana": "シンマチ",
    "street": "２丁目４−２５",
    "office_name": "財務省　東北財務局　青森財務事務所",
    "office_name_kana": "ザイムシヨウ トウホクザイムキヨク アオモリザイムジムシヨ"
  },
  "8580": {
    "postcode": "0308580",
    "prefecture": "青森県",
    "prefecture_kana": "アオモリケン",
    "prefecture_code": 2,
    "city": "青森市",
    "city_kana": "アオモリシ",
    "town": "本町",
    "town_kana": "ホンチョウ",
    "street": "１丁目３番９号",
    "office_name": "東北電力ネットワーク　株式会社　青森電力センター",
    "office_name_kana": "トウホクデンリヨクネツトワ-ク カブシキガイシヤ アオモリデンリヨクセンタ-"
  },
  "8585": {
    "postcode": "0308585",
    "prefecture": "青森県",
    "prefecture_kana": "アオモリケン",
    "prefecture_code": 2,
    "city": "青森市",
    "city_kana": "アオモリシ",
    "town": "橋本",
    "town_kana": "ハシモト",
    "street": "１丁目４番１０号みちのく国道ビル",
    "office_name": "株式会社　みちのく銀行　事務集中室",
    "office_name_kana": "カ) ミチノクギンコウ ジムシユウチユウシツ"
  },
  "8588": {
    "postcode": "0308588",
    "prefecture": "青森県",
    "prefecture_kana": "アオモリケン",
    "prefecture_code": 2,
    "city": "青森市",
    "city_kana": "アオモリシ",
    "town": "新町",
    "town_kana": "シンマチ",
    "street": "１丁目１３−４",
    "office_name": "株式会社　成田本店",
    "office_name_kana": "カブシキガイシヤ ナリタホンテン"
  },
  "8604": {
    "postcode": "0308604",
    "prefecture": "青森県",
    "prefecture_kana": "アオモリケン",
    "prefecture_code": 2,
    "city": "青森市",
    "city_kana": "アオモリシ",
    "town": "長島",
    "town_kana": "ナガシマ",
    "street": "２丁目２５−３（青森中央郵便局私書箱第６号）",
    "office_name": "日本生命保険　相互会社　青森支社",
    "office_name_kana": "ニホンセイメイホケン ソウゴガイシヤ アオモリシシヤ"
  },
  "8610": {
    "postcode": "0308610",
    "prefecture": "青森県",
    "prefecture_kana": "アオモリケン",
    "prefecture_code": 2,
    "city": "青森市",
    "city_kana": "アオモリシ",
    "town": "青葉",
    "town_kana": "アオバ",
    "street": "３丁目９−１２（青森中央郵便局私書箱第２６号）",
    "office_name": "株式会社　みちのく銀行事務センター",
    "office_name_kana": "カブシキガイシヤ ミチノクギンコウジムセンタ-"
  },
  "8611": {
    "postcode": "0308611",
    "prefecture": "青森県",
    "prefecture_kana": "アオモリケン",
    "prefecture_code": 2,
    "city": "青森市",
    "city_kana": "アオモリシ",
    "town": "新町",
    "town_kana": "シンマチ",
    "street": "２丁目５−１３（青森中央郵便局私書箱第４３号）",
    "office_name": "大和證券　株式会社　青森支店",
    "office_name_kana": "ダイワシヨウケン カブシキガイシヤ アオモリシテン"
  },
  "8622": {
    "postcode": "0308622",
    "prefecture": "青森県",
    "prefecture_kana": "アオモリケン",
    "prefecture_code": 2,
    "city": "青森市",
    "city_kana": "アオモリシ",
    "town": "勝田",
    "town_kana": "カッタ",
    "street": "１丁目３−１（青森中央郵便局私書箱第５号）",
    "office_name": "株式会社　みちのく銀行",
    "office_name_kana": "カブシキカイシヤ ミチノクギンコウ"
  },
  "8649": {
    "postcode": "0308649",
    "prefecture": "青森県",
    "prefecture_kana": "アオモリケン",
    "prefecture_code": 2,
    "city": "青森市",
    "city_kana": "アオモリシ",
    "town": "大字浜田",
    "town_kana": null,
    "street": "字玉川２０７−１（青森中央郵便局私書箱第７２号）",
    "office_name": "青森県信用組合",
    "office_name_kana": "アオモリケンシンヨウクミアイ"
  },
  "8655": {
    "postcode": "0308655",
    "prefecture": "青森県",
    "prefecture_kana": "アオモリケン",
    "prefecture_code": 2,
    "city": "青森市",
    "city_kana": "アオモリシ",
    "town": "松森",
    "town_kana": "マツモリ",
    "street": "１丁目８−１（青森中央郵便局私書箱第８８号）",
    "office_name": "青森放送　株式会社",
    "office_name_kana": "アオモリホウソウ カブシキガイシヤ"
  },
  "8667": {
    "postcode": "0308667",
    "prefecture": "青森県",
    "prefecture_kana": "アオモリケン",
    "prefecture_code": 2,
    "city": "青森市",
    "city_kana": "アオモリシ",
    "town": "橋本",
    "town_kana": "ハシモト",
    "street": "１丁目４−５（青森中央郵便局私書箱第４２号）",
    "office_name": "商工組合中央金庫　青森支店",
    "office_name_kana": "シヨウコウクミアイチユウオウキンコ アオモリシテン"
  },
  "8668": {
    "postcode": "0308668",
    "prefecture": "青森県",
    "prefecture_kana": "アオモリケン",
    "prefecture_code": 2,
    "city": "青森市",
    "city_kana": "アオモリシ",
    "town": "橋本",
    "town_kana": "ハシモト",
    "street": "１丁目９−３０（青森中央郵便局私書箱第８号）",
    "office_name": "株式会社　青森銀行",
    "office_name_kana": "カブシキガイシヤ アオモリギンコウ"
  },
  "8677": {
    "postcode": "0308677",
    "prefecture": "青森県",
    "prefecture_kana": "アオモリケン",
    "prefecture_code": 2,
    "city": "青森市",
    "city_kana": "アオモリシ",
    "town": "中央",
    "town_kana": "チュウオウ",
    "street": "１丁目１１−１（青森中央郵便局私書箱第４号）",
    "office_name": "日本銀行　青森支店",
    "office_name_kana": "ニツポンギンコウ アオモリシテン"
  },
  "8686": {
    "postcode": "0308686",
    "prefecture": "青森県",
    "prefecture_kana": "アオモリケン",
    "prefecture_code": 2,
    "city": "青森市",
    "city_kana": "アオモリシ",
    "town": "松森",
    "town_kana": "マツモリ",
    "street": "１丁目４−８（青森中央郵便局私書箱第９３号）",
    "office_name": "株式会社　青森テレビ",
    "office_name_kana": "カブシキガイシヤ アオモリテレビ"
  }
}