{
  "0000": [
    {
      "postcode": "0350000",
      "prefecture": "青森県",
      "prefecture_kana": "アオモリケン",
      "prefecture_code": 2,
      "city": "むつ市",
      "city_kana": "ムツシ",
      "town": "",
      "town_kana": "",
      "street": null,
      "office_name": null,
      "office_name_kana": null
    },
    {
      "postcode": "0350000",
      "prefecture": "青森県",
      "prefecture_kana": "アオモリケン",
      "prefecture_code": 2,
      "city": "下北郡東通村",
      "city_kana": "シモキタグンヒガシドオリムラ",
      "town": "",
      "town_kana": "",
      "street": null,
      "office_name": null,
      "office_name_kana": null
    }
  ],
  "0001": {
    "postcode": "0350001",
    "prefecture": "青森県",
    "prefecture_kana": "アオモリケン",
    "prefecture_code": 2,
    "city": "下北郡東通村",
    "city_kana": "シモキタグンヒガシドオリムラ",
    "town": "大利",
    "town_kana": "オオリ",
    "street": null,
    "office_name": null,
    "office_name_kana": null
  },
  "0002": {
    "postcode": "0350002",
    "prefecture": "青森県",
    "prefecture_kana": "アオモリケン",
    "prefecture_code": 2,
    "city": "下北郡東通村",
    "city_kana": "シモキタグンヒガシドオリムラ",
    "town": "目名",
    "town_kana": "メナ",
    "street": null,
    "office_name": null,
    "office_name_kana": null
  },
  "0003": [
    {
      "postcode": "0350003",
      "prefecture": "青森県",
      "prefecture_kana": "アオモリケン",
      "prefecture_code": 2,
      "city": "下北郡東通村",
      "city_kana": "シモキタグンヒガシドオリムラ",
      "town": "野牛",
      "town_kana": "ノウシ",
      "street": null,
      "office_name": null,
      "office_name_kana": null
    },
    {
      "postcode": "0350003",
      "prefecture": "青森県",
      "prefecture_kana": "アオモリケン",
      "prefecture_code": 2,
      "city": "下北郡東通村",
      "city_kana": "シモキタグンヒガシドオリムラ",
      "town": "野牛トクサ沢",
      "town_kana": "ノウシトクサザワ",
      "street": null,
      "office_name": null,
      "office_name_kana": null
    }
  ],
  "0004": {
    "postcode": "0350004",
    "prefecture": "青森県",
    "prefecture_kana": "アオモリケン",
    "prefecture_code": 2,
    "city": "下北郡東通村",
    "city_kana": "シモキタグンヒガシドオリムラ",
    "town": "蒲野沢",
    "town_kana": "ガマノサワ",
    "street": null,
    "office_name": null,
    "office_name_kana": null
  },
  "0005": {
    "postcode": "0350005",
    "prefecture": "青森県",
    "prefecture_kana": "アオモリケン",
    "prefecture_code": 2,
    "city": "下北郡東通村",
    "city_kana": "シモキタグンヒガシドオリムラ",
    "town": "田屋",
    "town_kana": "タヤ",
    "street": null,
    "office_name": null,
    "office_name_kana": null
  },
  "0011": {
    "postcode": "0350011",
    "prefecture": "青森県",
    "prefecture_kana": "アオモリケン",
    "prefecture_code": 2,
    "city": "むつ市",
    "city_kana": "ムツシ",
    "town": "奥内",
    "town_kana": "オクナイ",
    "street": null,
    "office_name": null,
    "office_name_kana": null
  },
  "0012": {
    "postcode": "0350012",
    "prefecture": "青森県",
    "prefecture_kana": "アオモリケン",
    "prefecture_code": 2,
    "city": "むつ市",
    "city_kana": "ムツシ",
    "town": "中野沢",
    "town_kana": "ナカノサワ",
    "street": null,
    "office_name": null,
    "office_name_kana": null
  },
  "0021": {
    "postcode": "0350021",
    "prefecture": "青森県",
    "prefecture_kana": "アオモリケン",
    "prefecture_code": 2,
    "city": "むつ市",
    "city_kana": "ムツシ",
    "town": "田名部",
    "town_kana": "タナブ",
    "street": null,
    "office_name": null,
    "office_name_kana": null
  },
  "0022": {
    "postcode": "0350022",
    "prefecture": "青森県",
    "prefecture_kana": "アオモリケン",
    "prefecture_code": 2,
    "city": "むつ市",
    "city_kana": "ムツシ",
    "town": "関根",
    "town_kana": "セキネ",
    "street": null,
    "office_name": null,
    "office_name_kana": null
  },
  "0031": {
    "postcode": "0350031",
    "prefecture": "青森県",
    "prefecture_kana": "アオモリケン",
    "prefecture_code": 2,
    "city": "むつ市",
    "city_kana": "ムツシ",
    "town": "柳町",
    "town_kana": "ヤナギマチ",
    "street": null,
    "office_name": null,
    "office_name_kana": null
  },
  "0032": {
    "postcode": "0350032",
    "prefecture": "青森県",
    "prefecture_kana": "アオモリケン",
    "prefecture_code": 2,
    "city": "むつ市",
    "city_kana": "ムツシ",
    "town": "上川町",
    "town_kana": "カミカワチョウ",
    "street": null,
    "office_name": null,
    "office_name_kana": null
  },
  "0033": {
    "postcode": "0350033",
    "prefecture": "青森県",
    "prefecture_kana": "アオモリケン",
    "prefecture_code": 2,
    "city": "むつ市",
    "city_kana": "ムツシ",
    "town": "横迎町",
    "town_kana": "ヨコムカイマチ",
    "street": null,
    "office_name": null,
    "office_name_kana": null
  },
  "0034": {
    "postcode": "0350034",
    "prefecture": "青森県",
    "prefecture_kana": "アオモリケン",
    "prefecture_code": 2,
    "city": "むつ市",
    "city_kana": "ムツシ",
    "town": "田名部町",
    "town_kana": "タナブチョウ",
    "street": null,
    "office_name": null,
    "office_name_kana": null
  },
  "0035": {
    "postcode": "0350035",
    "prefecture": "青森県",
    "prefecture_kana": "アオモリケン",
    "prefecture_code": 2,
    "city": "むつ市",
    "city_kana": "ムツシ",
    "town": "本町",
    "town_kana": "ホンマチ",
    "street": null,
    "office_name": null,
    "office_name_kana": null
  },
  "0036": {
    "postcode": "0350036",
    "prefecture": "青森県",
    "prefecture_kana": "アオモリケン",
    "prefecture_code": 2,
    "city": "むつ市",
    "city_kana": "ムツシ",
    "town": "栗山町",
    "town_kana": "クリヤマチョウ",
    "street": null,
    "office_name": null,
    "office_name_kana": null
  },
  "0041": {
    "postcode": "0350041",
    "prefecture": "青森県",
    "prefecture_kana": "アオモリケン",
    "prefecture_code": 2,
    "city": "むつ市",
    "city_kana": "ムツシ",
    "town": "金曲",
    "town_kana": "カナマガリ",
    "street": null,
    "office_name": null,
    "office_name_kana": null
  },
  "0042": {
    "postcode": "0350042",
    "prefecture": "青森県",
    "prefecture_kana": "アオモリケン",
    "prefecture_code": 2,
    "city": "むつ市",
    "city_kana": "ムツシ",
    "town": "大曲",
    "town_kana": "オオマガリ",
    "street": null,
    "office_name": null,
    "office_name_kana": null
  },
  "0043": {
    "postcode": "0350043",
    "prefecture": "青森県",
    "prefecture_kana": "アオモリケン",
    "prefecture_code": 2,
    "city": "むつ市",
    "city_kana": "ムツシ",
    "town": "南赤川町",
    "town_kana": "ミナミアカガワチョウ",
    "street": null,
    "office_name": null,
    "office_name_kana": null
  },
  "0044": {
    "postcode": "0350044",
    "prefecture": "青森県",
    "prefecture_kana": "アオモリケン",
    "prefecture_code": 2,
    "city": "むつ市",
    "city_kana": "ムツシ",
    "town": "赤川町",
    "town_kana": "アカガワチョウ",
    "street": null,
    "office_name": null,
    "office_name_kana": null
  },
  "0045": {
    "postcode": "0350045",
    "prefecture": "青森県",
    "prefecture_kana": "アオモリケン",
    "prefecture_code": 2,
    "city": "むつ市",
    "city_kana": "ムツシ",
    "town": "松原町",
    "town_kana": "マツバラチョウ",
    "street": null,
    "office_name": null,
    "office_name_kana": null
  },
  "0046": {
    "postcode": "0350046",
    "prefecture": "青森県",
    "prefecture_kana": "アオモリケン",
    "prefecture_code": 2,
    "city": "むつ市",
    "city_kana": "ムツシ",
    "town": "南町",
    "town_kana": "ミナミマチ",
    "street": null,
    "office_name": null,
    "office_name_kana": null
  },
  "0051": {
    "postcode": "0350051",
    "prefecture": "青森県",
    "prefecture_kana": "アオモリケン",
    "prefecture_code": 2,
    "city": "むつ市",
    "city_kana": "ムツシ",
    "town": "新町",
    "town_kana": "シンマチ",
    "street": null,
    "office_name": null,
    "office_name_kana": null
  },
  "0052": {
    "postcode": "0350052",
    "prefecture": "青森県",
    "prefecture_kana": "アオモリケン",
    "prefecture_code": 2,
    "city": "むつ市",
    "city_kana": "ムツシ",
    "town": "昭和町",
    "town_kana": "ショウワチョウ",
    "street": null,
    "office_name": null,
    "office_name_kana": null
  },
  "0053": {
    "postcode": "0350053",
    "prefecture": "青森県",
    "prefecture_kana": "アオモリケン",
    "prefecture_code": 2,
    "city": "むつ市",
    "city_kana": "ムツシ",
    "town": "緑町",
    "town_kana": "ミドリチョウ",
    "street": null,
    "office_name": null,
    "office_name_kana": null
  },
  "0054": {
    "postcode": "0350054",
    "prefecture": "青森県",
    "prefecture_kana": "アオモリケン",
    "prefecture_code": 2,
    "city": "むつ市",
    "city_kana": "ムツシ",
    "town": "海老川町",
    "town_kana": "エビカワチョウ",
    "street": null,
    "office_name": null,
    "office_name_kana": null
  },
  "0055": {
    "postcode": "0350055",
    "prefecture": "青森県",
    "prefecture_kana": "アオモリケン",
    "prefecture_code": 2,
    "city": "むつ市",
    "city_kana": "ムツシ",
    "town": "苫生町",
    "town_kana": "トマブチョウ",
    "street": null,
    "office_name": null,
    "office_name_kana": null
  },
  "0061": {
    "postcode": "0350061",
    "prefecture": "青森県",
    "prefecture_kana": "アオモリケン",
    "prefecture_code": 2,
    "city": "むつ市",
    "city_kana": "ムツシ",
    "town": "下北町",
    "town_kana": "シモキタチョウ",
    "street": null,
    "office_name": null,
    "office_name_kana": null
  },
  "0062": {
    "postcode": "0350062",
    "prefecture": "青森県",
    "prefecture_kana": "アオモリケン",
    "prefecture_code": 2,
    "city": "むつ市",
    "city_kana": "ムツシ",
    "town": "仲町",
    "town_kana": "ナカマチ",
    "street": null,
    "office_name": null,
    "office_name_kana": null
  },
  "0063": {
    "postcode": "0350063",
    "prefecture": "青森県",
    "prefecture_kana": "アオモリケン",
    "prefecture_code": 2,
    "city": "むつ市",
    "city_kana": "ムツシ",
    "town": "若松町",
    "town_kana": "ワカマツチョウ",
    "street": null,
    "office_name": null,
    "office_name_kana": null
  },
  "0064": {
    "postcode": "0350064",
    "prefecture": "青森県",
    "prefecture_kana": "アオモリケン",
    "prefecture_code": 2,
    "city": "むつ市",
    "city_kana": "ムツシ",
    "town": "港町",
    "town_kana": "ミナトマチ",
    "street": null,
    "office_name": null,
    "office_name_kana": null
  },
  "0065": {
    "postcode": "0350065",
    "prefecture": "青森県",
    "prefecture_kana": "アオモリケン",
    "prefecture_code": 2,
    "city": "むつ市",
    "city_kana": "ムツシ",
    "town": "松山町",
    "town_kana": "マツヤマチョウ",
    "street": null,
    "office_name": null,
    "office_name_kana": null
  },
  "0066": {
    "postcode": "0350066",
    "prefecture": "青森県",
    "prefecture_kana": "アオモリケン",
    "prefecture_code": 2,
    "city": "むつ市",
    "city_kana": "ムツシ",
    "town": "緑ヶ丘",
    "town_kana": "ミドリガオカ",
    "street": null,
    "office_name": null,
    "office_name_kana": null
  },
  "0067": {
    "postcode": "0350067",
    "prefecture": "青森県",
    "prefecture_kana": "アオモリケン",
    "prefecture_code": 2,
    "city": "むつ市",
    "city_kana": "ムツシ",
    "town": "十二林",
    "town_kana": "ジュウニバヤシ",
    "street": null,
    "office_name": null,
    "office_name_kana": null
  },
  "0068": {
    "postcode": "0350068",
    "prefecture": "青森県",
    "prefecture_kana": "アオモリケン",
    "prefecture_code": 2,
    "city": "むつ市",
    "city_kana": "ムツシ",
    "town": "美里町",
    "town_kana": "ミサトチョウ",
    "street": null,
    "office_name": null,
    "office_name_kana": null
  },
  "0071": {
    "postcode": "0350071",
    "prefecture": "青森県",
    "prefecture_kana": "アオモリケン",
    "prefecture_code": 2,
    "city": "むつ市",
    "city_kana": "ムツシ",
    "town": "小川町",
    "town_kana": "コガワマチ",
    "street": null,
    "office_name": null,
    "office_name_kana": null
  },
  "0072": {
    "postcode": "0350072",
    "prefecture": "青森県",
    "prefecture_kana": "アオモリケン",
    "prefecture_code": 2,
    "city": "むつ市",
    "city_kana": "ムツシ",
    "town": "金谷",
    "town_kana": "カナヤ",
    "street": null,
    "office_name": null,
    "office_name_kana": null
  },
  "0073": {
    "postcode": "0350073",
    "prefecture": "青森県",
    "prefecture_kana": "アオモリケン",
    "prefecture_code": 2,
    "city": "むつ市",
    "city_kana": "ムツシ",
    "town": "中央",
    "town_kana": "チュウオウ",
    "street": null,
    "office_name": null,
    "office_name_kana": null
  },
  "0074": {
    "postcode": "0350074",
    "prefecture": "青森県",
    "prefecture_kana": "アオモリケン",
    "prefecture_code": 2,
    "city": "むつ市",
    "city_kana": "ムツシ",
    "town": "大平",
    "town_kana": "オオダイラ",
    "street": null,
    "office_name": null,
    "office_name_kana": null
  },
  "0075": {
    "postcode": "0350075",
    "prefecture": "青森県",
    "prefecture_kana": "アオモリケン",
    "prefecture_code": 2,
    "city": "むつ市",
    "city_kana": "ムツシ",
    "town": "真砂町",
    "town_kana": "マサゴチョウ",
    "street": null,
    "office_name": null,
    "office_name_kana": null
  },
  "0076": {
    "postcode": "0350076",
    "prefecture": "青森県",
    "prefecture_kana": "アオモリケン",
    "prefecture_code": 2,
    "city": "むつ市",
    "city_kana": "ムツシ",
    "town": "旭町",
    "town_kana": "アサヒチョウ",
    "street": null,
    "office_name": null,
    "office_name_kana": null
  },
  "0077": {
    "postcode": "0350077",
    "prefecture": "青森県",
    "prefecture_kana": "アオモリケン",
    "prefecture_code": 2,
    "city": "むつ市",
    "city_kana": "ムツシ",
    "town": "山田町",
    "town_kana": "ヤマダチョウ",
    "street": null,
    "office_name": null,
    "office_name_kana": null
  },
  "0078": {
    "postcode": "0350078",
    "prefecture": "青森県",
    "prefecture_kana": "アオモリケン",
    "prefecture_code": 2,
    "city": "むつ市",
    "city_kana": "ムツシ",
    "town": "松森町",
    "town_kana": "マツモリチョウ",
    "street": null,
    "office_name": null,
    "office_name_kana": null
  },
  "0079": {
    "postcode": "0350079",
    "prefecture": "青森県",
    "prefecture_kana": "アオモリケン",
    "prefecture_code": 2,
    "city": "むつ市",
    "city_kana": "ムツシ",
    "town": "荒川町",
    "town_kana": "アラカワチョウ",
    "street": null,
    "office_name": null,
    "office_name_kana": null
  },
  "0081": {
    "postcode": "0350081",
    "prefecture": "青森県",
    "prefecture_kana": "アオモリケン",
    "prefecture_code": 2,
    "city": "むつ市",
    "city_kana": "ムツシ",
    "town": "並川町",
    "town_kana": "ナミカワチョウ",
    "street": null,
    "office_name": null,
    "office_name_kana": null
  },
  "0082": {
    "postcode": "0350082",
    "prefecture": "青森県",
    "prefecture_kana": "アオモリケン",
    "prefecture_code": 2,
    "city": "むつ市",
    "city_kana": "ムツシ",
    "town": "文京町",
    "town_kana": "ブンキョウチョウ",
    "street": null,
    "office_name": null,
    "office_name_kana": null
  },
  "0083": {
    "postcode": "0350083",
    "prefecture": "青森県",
    "prefecture_kana": "アオモリケン",
    "prefecture_code": 2,
    "city": "むつ市",
    "city_kana": "ムツシ",
    "town": "大平町",
    "town_kana": "オオダイラチョウ",
    "street": null,
    "office_name": null,
    "office_name_kana": null
  },
  "0084": {
    "postcode": "0350084",
    "prefecture": "青森県",
    "prefecture_kana": "アオモリケン",
    "prefecture_code": 2,
    "city": "むつ市",
    "city_kana": "ムツシ",
    "town": "大湊新町",
    "town_kana": "オオミナトシンチョウ",
    "street": null,
    "office_name": null,
    "office_name_kana": null
  },
  "0085": {
    "postcode": "0350085",
    "prefecture": "青森県",
    "prefecture_kana": "アオモリケン",
    "prefecture_code": 2,
    "city": "むつ市",
    "city_kana": "ムツシ",
    "town": "大湊浜町",
    "town_kana": "オオミナトハマチョウ",
    "street": null,
    "office_name": null,
    "office_name_kana": null
  },
  "0086": {
    "postcode": "0350086",
    "prefecture": "青森県",
    "prefecture_kana": "アオモリケン",
    "prefecture_code": 2,
    "city": "むつ市",
    "city_kana": "ムツシ",
    "town": "大湊上町",
    "town_kana": "オオミナトカミマチ",
    "street": null,
    "office_name": null,
    "office_name_kana": null
  },
  "0091": {
    "postcode": "0350091",
    "prefecture": "青森県",
    "prefecture_kana": "アオモリケン",
    "prefecture_code": 2,
    "city": "むつ市",
    "city_kana": "ムツシ",
    "town": "川守町",
    "town_kana": "カワモリチョウ",
    "street": null,
    "office_name": null,
    "office_name_kana": null
  },
  "0092": {
    "postcode": "0350092",
    "prefecture": "青森県",
    "prefecture_kana": "アオモリケン",
    "prefecture_code": 2,
    "city": "むつ市",
    "city_kana": "ムツシ",
    "town": "宇田町",
    "town_kana": "ウダチョウ",
    "street": null,
    "office_name": null,
    "office_name_kana": null
  },
  "0093": {
    "postcode": "0350093",
    "prefecture": "青森県",
    "prefecture_kana": "アオモリケン",
    "prefecture_code": 2,
    "city": "むつ市",
    "city_kana": "ムツシ",
    "town": "大湊町",
    "town_kana": "オオミナトチョウ",
    "street": null,
    "office_name": null,
    "office_name_kana": null
  },
  "0094": {
    "postcode": "0350094",
    "prefecture": "青森県",
    "prefecture_kana": "アオモリケン",
    "prefecture_code": 2,
    "city": "むつ市",
    "city_kana": "ムツシ",
    "town": "桜木町",
    "town_kana": "サクラギチョウ",
    "street": null,
    "office_name": null,
    "office_name_kana": null
  },
  "0095": {
    "postcode": "0350095",
    "prefecture": "青森県",
    "prefecture_kana": "アオモリケン",
    "prefecture_code": 2,
    "city": "むつ市",
    "city_kana": "ムツシ",
    "town": "城ケ沢",
    "town_kana": "ジョウガサワ",
    "street": null,
    "office_name": null,
    "office_name_kana": null
  },
  "0096": {
    "postcode": "0350096",
    "prefecture": "青森県",
    "prefecture_kana": "アオモリケン",
    "prefecture_code": 2,
    "city": "むつ市",
    "city_kana": "ムツシ",
    "town": "大湊",
    "town_kana": "オオミナト",
    "street": null,
    "office_name": null,
    "office_name_kana": null
  },
  "0103": {
    "postcode": "0350103",
    "prefecture": "青森県",
    "prefecture_kana": "アオモリケン",
    "prefecture_code": 2,
    "city": "下北郡東通村",
    "city_kana": "シモキタグンヒガシドオリムラ",
    "town": "野牛",
    "town_kana": "ノウシ",
    "street": null,
    "office_name": null,
    "office_name_kana": null
  },
  "0104": [
    {
      "postcode": "0350104",
      "prefecture": "青森県",
      "prefecture_kana": "アオモリケン",
      "prefecture_code": 2,
      "city": "下北郡東通村",
      "city_kana": "シモキタグンヒガシドオリムラ",
      "town": "蒲野沢",
      "town_kana": "ガマノサワ",
      "street": null,
      "office_name": null,
      "office_name_kana": null
    },
    {
      "postcode": "0350104",
      "prefecture": "青森県",
      "prefecture_kana": "アオモリケン",
      "prefecture_code": 2,
      "city": "下北郡東通村",
      "city_kana": "シモキタグンヒガシドオリムラ",
      "town": "蒲野沢稲崎",
      "town_kana": "ガマノサワイナザキ",
      "street": null,
      "office_name": null,
      "office_name_kana": null
    },
    {
      "postcode": "0350104",
      "prefecture": "青森県",
      "prefecture_kana": "アオモリケン",
      "prefecture_code": 2,
      "city": "下北郡東通村",
      "city_kana": "シモキタグンヒガシドオリムラ",
      "town": "蒲野沢浜の平",
      "town_kana": "ガマノサワハマノタイ",
      "street": null,
      "office_name": null,
      "office_name_kana": null
    }
  ],
  "0111": {
    "postcode": "0350111",
    "prefecture": "青森県",
    "prefecture_kana": "アオモリケン",
    "prefecture_code": 2,
    "city": "下北郡東通村",
    "city_kana": "シモキタグンヒガシドオリムラ",
    "town": "尻屋",
    "town_kana": "シリヤ",
    "street": null,
    "office_name": null,
    "office_name_kana": null
  },
  "0112": {
    "postcode": "0350112",
    "prefecture": "青森県",
    "prefecture_kana": "アオモリケン",
    "prefecture_code": 2,
    "city": "下北郡東通村",
    "city_kana": "シモキタグンヒガシドオリムラ",
    "town": "尻労",
    "town_kana": "シツカリ",
    "street": null,
    "office_name": null,
    "office_name_kana": null
  },
  "0113": {
    "postcode": "0350113",
    "prefecture": "青森県",
    "prefecture_kana": "アオモリケン",
    "prefecture_code": 2,
    "city": "下北郡東通村",
    "city_kana": "シモキタグンヒガシドオリムラ",
    "town": "岩屋",
    "town_kana": "イワヤ",
    "street": null,
    "office_name": null,
    "office_name_kana": null
  },
  "8686": {
    "postcode": "0358686",
    "prefecture": "青森県",
    "prefecture_kana": "アオモリケン",
    "prefecture_code": 2,
    "city": "むつ市",
    "city_kana": "ムツシ",
    "town": "中央",
    "town_kana": "チュウオウ",
    "street": "１丁目８番１号（むつ郵便局私書箱第３号）",
    "office_name": "むつ市役所",
    "office_name_kana": "ムツシヤクシヨ"
  }
}