{
  "0000": {
    "postcode": "0430000",
    "prefecture": "北海道",
    "prefecture_kana": "ホッカイドウ",
    "prefecture_code": 1,
    "city": "檜山郡江差町",
    "city_kana": "ヒヤマグンエサシチョウ",
    "town": "",
    "town_kana": "",
    "street": null,
    "office_name": null,
    "office_name_kana": null
  },
  "0011": {
    "postcode": "0430011",
    "prefecture": "北海道",
    "prefecture_kana": "ホッカイドウ",
    "prefecture_code": 1,
    "city": "檜山郡江差町",
    "city_kana": "ヒヤマグンエサシチョウ",
    "town": "五厘沢町",
    "town_kana": "ゴリンザワチョウ",
    "street": null,
    "office_name": null,
    "office_name_kana": null
  },
  "0012": {
    "postcode": "0430012",
    "prefecture": "北海道",
    "prefecture_kana": "ホッカイドウ",
    "prefecture_code": 1,
    "city": "檜山郡江差町",
    "city_kana": "ヒヤマグンエサシチョウ",
    "town": "鰔川町",
    "town_kana": "ウグイカワチョウ",
    "street": null,
    "office_name": null,
    "office_name_kana": null
  },
  "0013": {
    "postcode": "0430013",
    "prefecture": "北海道",
    "prefecture_kana": "ホッカイドウ",
    "prefecture_code": 1,
    "city": "檜山郡江差町",
    "city_kana": "ヒヤマグンエサシチョウ",
    "town": "朝日町",
    "town_kana": "アサヒチョウ",
    "street": null,
    "office_name": null,
    "office_name_kana": null
  },
  "0014": {
    "postcode": "0430014",
    "prefecture": "北海道",
    "prefecture_kana": "ホッカイドウ",
    "prefecture_code": 1,
    "city": "檜山郡江差町",
    "city_kana": "ヒヤマグンエサシチョウ",
    "town": "小黒部町",
    "town_kana": "オグロッペチョウ",
    "street": null,
    "office_name": null,
    "office_name_kana": null
  },
  "0015": {
    "postcode": "0430015",
    "prefecture": "北海道",
    "prefecture_kana": "ホッカイドウ",
    "prefecture_code": 1,
    "city": "檜山郡江差町",
    "city_kana": "ヒヤマグンエサシチョウ",
    "town": "中網町",
    "town_kana": "ナカアミチョウ",
    "street": null,
    "office_name": null,
    "office_name_kana": null
  },
  "0016": {
    "postcode": "0430016",
    "prefecture": "北海道",
    "prefecture_kana": "ホッカイドウ",
    "prefecture_code": 1,
    "city": "檜山郡江差町",
    "city_kana": "ヒヤマグンエサシチョウ",
    "town": "越前町",
    "town_kana": "エチゼンマチ",
    "street": null,
    "office_name": null,
    "office_name_kana": null
  },
  "0017": {
    "postcode": "0430017",
    "prefecture": "北海道",
    "prefecture_kana": "ホッカイドウ",
    "prefecture_code": 1,
    "city": "檜山郡江差町",
    "city_kana": "ヒヤマグンエサシチョウ",
    "town": "水堀町",
    "town_kana": "ミズホリチョウ",
    "street": null,
    "office_name": null,
    "office_name_kana": null
  },
  "0021": {
    "postcode": "0430021",
    "prefecture": "北海道",
    "prefecture_kana": "ホッカイドウ",
    "prefecture_code": 1,
    "city": "檜山郡江差町",
    "city_kana": "ヒヤマグンエサシチョウ",
    "town": "柳崎町",
    "town_kana": "ヤナギザキチョウ",
    "street": null,
    "office_name": null,
    "office_name_kana": null
  },
  "0022": {
    "postcode": "0430022",
    "prefecture": "北海道",
    "prefecture_kana": "ホッカイドウ",
    "prefecture_code": 1,
    "city": "檜山郡江差町",
    "city_kana": "ヒヤマグンエサシチョウ",
    "town": "伏木戸町",
    "town_kana": "フシキドチョウ",
    "street": null,
    "office_name": null,
    "office_name_kana": null
  },
  "0023": {
    "postcode": "0430023",
    "prefecture": "北海道",
    "prefecture_kana": "ホッカイドウ",
    "prefecture_code": 1,
    "city": "檜山郡江差町",
    "city_kana": "ヒヤマグンエサシチョウ",
    "town": "田沢町",
    "town_kana": "タザワチョウ",
    "street": null,
    "office_name": null,
    "office_name_kana": null
  },
  "0024": {
    "postcode": "0430024",
    "prefecture": "北海道",
    "prefecture_kana": "ホッカイドウ",
    "prefecture_code": 1,
    "city": "檜山郡江差町",
    "city_kana": "ヒヤマグンエサシチョウ",
    "town": "尾山町",
    "town_kana": "オヤマチョウ",
    "street": null,
    "office_name": null,
    "office_name_kana": null
  },
  "0025": {
    "postcode": "0430025",
    "prefecture": "北海道",
    "prefecture_kana": "ホッカイドウ",
    "prefecture_code": 1,
    "city": "檜山郡江差町",
    "city_kana": "ヒヤマグンエサシチョウ",
    "town": "泊町",
    "town_kana": "トマリチョウ",
    "street": null,
    "office_name": null,
    "office_name_kana": null
  },
  "0026": {
    "postcode": "0430026",
    "prefecture": "北海道",
    "prefecture_kana": "ホッカイドウ",
    "prefecture_code": 1,
    "city": "檜山郡江差町",
    "city_kana": "ヒヤマグンエサシチョウ",
    "town": "大澗町",
    "town_kana": "オオマチョウ",
    "street": null,
    "office_name": null,
    "office_name_kana": null
  },
  "0031": {
    "postcode": "0430031",
    "prefecture": "北海道",
    "prefecture_kana": "ホッカイドウ",
    "prefecture_code": 1,
    "city": "檜山郡江差町",
    "city_kana": "ヒヤマグンエサシチョウ",
    "town": "愛宕町",
    "town_kana": "アタゴチョウ",
    "street": null,
    "office_name": null,
    "office_name_kana": null
  },
  "0032": {
    "postcode": "0430032",
    "prefecture": "北海道",
    "prefecture_kana": "ホッカイドウ",
    "prefecture_code": 1,
    "city": "檜山郡江差町",
    "city_kana": "ヒヤマグンエサシチョウ",
    "town": "新栄町",
    "town_kana": "シンエイチョウ",
    "street": null,
    "office_name": null,
    "office_name_kana": null
  },
  "0033": {
    "postcode": "0430033",
    "prefecture": "北海道",
    "prefecture_kana": "ホッカイドウ",
    "prefecture_code": 1,
    "city": "檜山郡江差町",
    "city_kana": "ヒヤマグンエサシチョウ",
    "town": "豊川町",
    "town_kana": "トヨカワチョウ",
    "street": null,
    "office_name": null,
    "office_name_kana": null
  },
  "0034": {
    "postcode": "0430034",
    "prefecture": "北海道",
    "prefecture_kana": "ホッカイドウ",
    "prefecture_code": 1,
    "city": "檜山郡江差町",
    "city_kana": "ヒヤマグンエサシチョウ",
    "town": "中歌町",
    "town_kana": "ナカウタチョウ",
    "street": null,
    "office_name": null,
    "office_name_kana": null
  },
  "0035": {
    "postcode": "0430035",
    "prefecture": "北海道",
    "prefecture_kana": "ホッカイドウ",
    "prefecture_code": 1,
    "city": "檜山郡江差町",
    "city_kana": "ヒヤマグンエサシチョウ",
    "town": "桧岱",
    "town_kana": "ヒノキタイ",
    "street": null,
    "office_name": null,
    "office_name_kana": null
  },
  "0036": {
    "postcode": "0430036",
    "prefecture": "北海道",
    "prefecture_kana": "ホッカイドウ",
    "prefecture_code": 1,
    "city": "檜山郡江差町",
    "city_kana": "ヒヤマグンエサシチョウ",
    "town": "東山",
    "town_kana": "ヒガシヤマ",
    "street": null,
    "office_name": null,
    "office_name_kana": null
  },
  "0041": {
    "postcode": "0430041",
    "prefecture": "北海道",
    "prefecture_kana": "ホッカイドウ",
    "prefecture_code": 1,
    "city": "檜山郡江差町",
    "city_kana": "ヒヤマグンエサシチョウ",
    "town": "姥神町",
    "town_kana": "ウバガミチョウ",
    "street": null,
    "office_name": null,
    "office_name_kana": null
  },
  "0042": {
    "postcode": "0430042",
    "prefecture": "北海道",
    "prefecture_kana": "ホッカイドウ",
    "prefecture_code": 1,
    "city": "檜山郡江差町",
    "city_kana": "ヒヤマグンエサシチョウ",
    "town": "上野町",
    "town_kana": "ウエノチョウ",
    "street": null,
    "office_name": null,
    "office_name_kana": null
  },
  "0043": {
    "postcode": "0430043",
    "prefecture": "北海道",
    "prefecture_kana": "ホッカイドウ",
    "prefecture_code": 1,
    "city": "檜山郡江差町",
    "city_kana": "ヒヤマグンエサシチョウ",
    "town": "本町",
    "town_kana": "ホンチョウ",
    "street": null,
    "office_name": null,
    "office_name_kana": null
  },
  "0044": {
    "postcode": "0430044",
    "prefecture": "北海道",
    "prefecture_kana": "ホッカイドウ",
    "prefecture_code": 1,
    "city": "檜山郡江差町",
    "city_kana": "ヒヤマグンエサシチョウ",
    "town": "橋本町",
    "town_kana": "ハシモトチョウ",
    "street": null,
    "office_name": null,
    "office_name_kana": null
  },
  "0045": {
    "postcode": "0430045",
    "prefecture": "北海道",
    "prefecture_kana": "ホッカイドウ",
    "prefecture_code": 1,
    "city": "檜山郡江差町",
    "city_kana": "ヒヤマグンエサシチョウ",
    "town": "鴎島",
    "town_kana": "カモメジマ",
    "street": null,
    "office_name": null,
    "office_name_kana": null
  },
  "0046": {
    "postcode": "0430046",
    "prefecture": "北海道",
    "prefecture_kana": "ホッカイドウ",
    "prefecture_code": 1,
    "city": "檜山郡江差町",
    "city_kana": "ヒヤマグンエサシチョウ",
    "town": "江差港北埠頭",
    "town_kana": "エサシコウキタフトウ",
    "street": null,
    "office_name": null,
    "office_name_kana": null
  },
  "0051": {
    "postcode": "0430051",
    "prefecture": "北海道",
    "prefecture_kana": "ホッカイドウ",
    "prefecture_code": 1,
    "city": "檜山郡江差町",
    "city_kana": "ヒヤマグンエサシチョウ",
    "town": "津花町",
    "town_kana": "ツバナチョウ",
    "street": null,
    "office_name": null,
    "office_name_kana": null
  },
  "0052": {
    "postcode": "0430052",
    "prefecture": "北海道",
    "prefecture_kana": "ホッカイドウ",
    "prefecture_code": 1,
    "city": "檜山郡江差町",
    "city_kana": "ヒヤマグンエサシチョウ",
    "town": "茂尻町",
    "town_kana": "モシリチョウ",
    "street": null,
    "office_name": null,
    "office_name_kana": null
  },
  "0053": {
    "postcode": "0430053",
    "prefecture": "北海道",
    "prefecture_kana": "ホッカイドウ",
    "prefecture_code": 1,
    "city": "檜山郡江差町",
    "city_kana": "ヒヤマグンエサシチョウ",
    "town": "新地町",
    "town_kana": "シンチチョウ",
    "street": null,
    "office_name": null,
    "office_name_kana": null
  },
  "0054": {
    "postcode": "0430054",
    "prefecture": "北海道",
    "prefecture_kana": "ホッカイドウ",
    "prefecture_code": 1,
    "city": "檜山郡江差町",
    "city_kana": "ヒヤマグンエサシチョウ",
    "town": "緑丘",
    "town_kana": "ミドリガオカ",
    "street": null,
    "office_name": null,
    "office_name_kana": null
  },
  "0055": {
    "postcode": "0430055",
    "prefecture": "北海道",
    "prefecture_kana": "ホッカイドウ",
    "prefecture_code": 1,
    "city": "檜山郡江差町",
    "city_kana": "ヒヤマグンエサシチョウ",
    "town": "円山",
    "town_kana": "マルヤマ",
    "street": null,
    "office_name": null,
    "office_name_kana": null
  },
  "0056": {
    "postcode": "0430056",
    "prefecture": "北海道",
    "prefecture_kana": "ホッカイドウ",
    "prefecture_code": 1,
    "city": "檜山郡江差町",
    "city_kana": "ヒヤマグンエサシチョウ",
    "town": "陣屋町",
    "town_kana": "ジンヤチョウ",
    "street": null,
    "office_name": null,
    "office_name_kana": null
  },
  "0057": {
    "postcode": "0430057",
    "prefecture": "北海道",
    "prefecture_kana": "ホッカイドウ",
    "prefecture_code": 1,
    "city": "檜山郡江差町",
    "city_kana": "ヒヤマグンエサシチョウ",
    "town": "海岸町",
    "town_kana": "カイガンチョウ",
    "street": null,
    "office_name": null,
    "office_name_kana": null
  },
  "0061": {
    "postcode": "0430061",
    "prefecture": "北海道",
    "prefecture_kana": "ホッカイドウ",
    "prefecture_code": 1,
    "city": "檜山郡江差町",
    "city_kana": "ヒヤマグンエサシチョウ",
    "town": "南が丘",
    "town_kana": "ミナミガオカ",
    "street": null,
    "office_name": null,
    "office_name_kana": null
  },
  "0062": {
    "postcode": "0430062",
    "prefecture": "北海道",
    "prefecture_kana": "ホッカイドウ",
    "prefecture_code": 1,
    "city": "檜山郡江差町",
    "city_kana": "ヒヤマグンエサシチョウ",
    "town": "萩の岱",
    "town_kana": "ハギノタイ",
    "street": null,
    "office_name": null,
    "office_name_kana": null
  },
  "0063": {
    "postcode": "0430063",
    "prefecture": "北海道",
    "prefecture_kana": "ホッカイドウ",
    "prefecture_code": 1,
    "city": "檜山郡江差町",
    "city_kana": "ヒヤマグンエサシチョウ",
    "town": "南浜町",
    "town_kana": "ミナミハマチョウ",
    "street": null,
    "office_name": null,
    "office_name_kana": null
  },
  "0064": {
    "postcode": "0430064",
    "prefecture": "北海道",
    "prefecture_kana": "ホッカイドウ",
    "prefecture_code": 1,
    "city": "檜山郡江差町",
    "city_kana": "ヒヤマグンエサシチョウ",
    "town": "柏町",
    "town_kana": "カシワチョウ",
    "street": null,
    "office_name": null,
    "office_name_kana": null
  },
  "0065": {
    "postcode": "0430065",
    "prefecture": "北海道",
    "prefecture_kana": "ホッカイドウ",
    "prefecture_code": 1,
    "city": "檜山郡江差町",
    "city_kana": "ヒヤマグンエサシチョウ",
    "town": "砂川",
    "town_kana": "スナガワ",
    "street": null,
    "office_name": null,
    "office_name_kana": null
  },
  "0066": {
    "postcode": "0430066",
    "prefecture": "北海道",
    "prefecture_kana": "ホッカイドウ",
    "prefecture_code": 1,
    "city": "檜山郡江差町",
    "city_kana": "ヒヤマグンエサシチョウ",
    "town": "とど川町",
    "town_kana": "トドガワチョウ",
    "street": null,
    "office_name": null,
    "office_name_kana": null
  },
  "0100": {
    "postcode": "0430100",
    "prefecture": "北海道",
    "prefecture_kana": "ホッカイドウ",
    "prefecture_code": 1,
    "city": "爾志郡乙部町",
    "city_kana": "ニシグンオトベチョウ",
    "town": "",
    "town_kana": "",
    "street": null,
    "office_name": null,
    "office_name_kana": null
  },
  "0101": {
    "postcode": "0430101",
    "prefecture": "北海道",
    "prefecture_kana": "ホッカイドウ",
    "prefecture_code": 1,
    "city": "爾志郡乙部町",
    "city_kana": "ニシグンオトベチョウ",
    "town": "滝瀬",
    "town_kana": "タキセ",
    "street": null,
    "office_name": null,
    "office_name_kana": null
  },
  "0102": {
    "postcode": "0430102",
    "prefecture": "北海道",
    "prefecture_kana": "ホッカイドウ",
    "prefecture_code": 1,
    "city": "爾志郡乙部町",
    "city_kana": "ニシグンオトベチョウ",
    "town": "元町",
    "town_kana": "モトマチ",
    "street": null,
    "office_name": null,
    "office_name_kana": null
  },
  "0103": {
    "postcode": "0430103",
    "prefecture": "北海道",
    "prefecture_kana": "ホッカイドウ",
    "prefecture_code": 1,
    "city": "爾志郡乙部町",
    "city_kana": "ニシグンオトベチョウ",
    "town": "緑町",
    "town_kana": "ミドリマチ",
    "street": null,
    "office_name": null,
    "office_name_kana": null
  },
  "0104": {
    "postcode": "0430104",
    "prefecture": "北海道",
    "prefecture_kana": "ホッカイドウ",
    "prefecture_code": 1,
    "city": "爾志郡乙部町",
    "city_kana": "ニシグンオトベチョウ",
    "town": "館浦",
    "town_kana": "タテウラ",
    "street": null,
    "office_name": null,
    "office_name_kana": null
  },
  "0111": {
    "postcode": "0430111",
    "prefecture": "北海道",
    "prefecture_kana": "ホッカイドウ",
    "prefecture_code": 1,
    "city": "爾志郡乙部町",
    "city_kana": "ニシグンオトベチョウ",
    "town": "鳥山",
    "town_kana": "トリヤマ",
    "street": null,
    "office_name": null,
    "office_name_kana": null
  },
  "0112": {
    "postcode": "0430112",
    "prefecture": "北海道",
    "prefecture_kana": "ホッカイドウ",
    "prefecture_code": 1,
    "city": "爾志郡乙部町",
    "city_kana": "ニシグンオトベチョウ",
    "town": "栄野",
    "town_kana": "サカエノ",
    "street": null,
    "office_name": null,
    "office_name_kana": null
  },
  "0113": {
    "postcode": "0430113",
    "prefecture": "北海道",
    "prefecture_kana": "ホッカイドウ",
    "prefecture_code": 1,
    "city": "爾志郡乙部町",
    "city_kana": "ニシグンオトベチョウ",
    "town": "栄浜",
    "town_kana": "サカエハマ",
    "street": null,
    "office_name": null,
    "office_name_kana": null
  },
  "0114": {
    "postcode": "0430114",
    "prefecture": "北海道",
    "prefecture_kana": "ホッカイドウ",
    "prefecture_code": 1,
    "city": "爾志郡乙部町",
    "city_kana": "ニシグンオトベチョウ",
    "town": "元和",
    "town_kana": "ゲンナ",
    "street": null,
    "office_name": null,
    "office_name_kana": null
  },
  "0115": {
    "postcode": "0430115",
    "prefecture": "北海道",
    "prefecture_kana": "ホッカイドウ",
    "prefecture_code": 1,
    "city": "爾志郡乙部町",
    "city_kana": "ニシグンオトベチョウ",
    "town": "富岡",
    "town_kana": "トミオカ",
    "street": null,
    "office_name": null,
    "office_name_kana": null
  },
  "0116": {
    "postcode": "0430116",
    "prefecture": "北海道",
    "prefecture_kana": "ホッカイドウ",
    "prefecture_code": 1,
    "city": "爾志郡乙部町",
    "city_kana": "ニシグンオトベチョウ",
    "town": "旭岱",
    "town_kana": "アサヒタイ",
    "street": null,
    "office_name": null,
    "office_name_kana": null
  },
  "0117": {
    "postcode": "0430117",
    "prefecture": "北海道",
    "prefecture_kana": "ホッカイドウ",
    "prefecture_code": 1,
    "city": "爾志郡乙部町",
    "city_kana": "ニシグンオトベチョウ",
    "town": "姫川",
    "town_kana": "ヒメカワ",
    "street": null,
    "office_name": null,
    "office_name_kana": null
  },
  "0231": {
    "postcode": "0430231",
    "prefecture": "北海道",
    "prefecture_kana": "ホッカイドウ",
    "prefecture_code": 1,
    "city": "爾志郡乙部町",
    "city_kana": "ニシグンオトベチョウ",
    "town": "豊浜",
    "town_kana": "トヨハマ",
    "street": null,
    "office_name": null,
    "office_name_kana": null
  },
  "0232": {
    "postcode": "0430232",
    "prefecture": "北海道",
    "prefecture_kana": "ホッカイドウ",
    "prefecture_code": 1,
    "city": "爾志郡乙部町",
    "city_kana": "ニシグンオトベチョウ",
    "town": "花磯",
    "town_kana": "ハナイソ",
    "street": null,
    "office_name": null,
    "office_name_kana": null
  },
  "0233": {
    "postcode": "0430233",
    "prefecture": "北海道",
    "prefecture_kana": "ホッカイドウ",
    "prefecture_code": 1,
    "city": "爾志郡乙部町",
    "city_kana": "ニシグンオトベチョウ",
    "town": "潮見",
    "town_kana": "シオミ",
    "street": null,
    "office_name": null,
    "office_name_kana": null
  },
  "0234": {
    "postcode": "0430234",
    "prefecture": "北海道",
    "prefecture_kana": "ホッカイドウ",
    "prefecture_code": 1,
    "city": "爾志郡乙部町",
    "city_kana": "ニシグンオトベチョウ",
    "town": "三ツ谷",
    "town_kana": "ミツヤ",
    "street": null,
    "office_name": null,
    "office_name_kana": null
  },
  "0331": {
    "postcode": "0430331",
    "prefecture": "北海道",
    "prefecture_kana": "ホッカイドウ",
    "prefecture_code": 1,
    "city": "二海郡八雲町",
    "city_kana": "フタミグンヤクモチョウ",
    "town": "熊石折戸町",
    "town_kana": "クマイシオリトチョウ",
    "street": null,
    "office_name": null,
    "office_name_kana": null
  },
  "0332": {
    "postcode": "0430332",
    "prefecture": "北海道",
    "prefecture_kana": "ホッカイドウ",
    "prefecture_code": 1,
    "city": "二海郡八雲町",
    "city_kana": "フタミグンヤクモチョウ",
    "town": "熊石相沼町",
    "town_kana": "クマイシアイヌマチョウ",
    "street": null,
    "office_name": null,
    "office_name_kana": null
  },
  "0333": {
    "postcode": "0430333",
    "prefecture": "北海道",
    "prefecture_kana": "ホッカイドウ",
    "prefecture_code": 1,
    "city": "二海郡八雲町",
    "city_kana": "フタミグンヤクモチョウ",
    "town": "熊石館平町",
    "town_kana": "クマイシタテヒラチョウ",
    "street": null,
    "office_name": null,
    "office_name_kana": null
  },
  "0334": {
    "postcode": "0430334",
    "prefecture": "北海道",
    "prefecture_kana": "ホッカイドウ",
    "prefecture_code": 1,
    "city": "二海郡八雲町",
    "city_kana": "フタミグンヤクモチョウ",
    "town": "熊石泊川町",
    "town_kana": "クマイシトマリカワチョウ",
    "street": null,
    "office_name": null,
    "office_name_kana": null
  },
  "0335": {
    "postcode": "0430335",
    "prefecture": "北海道",
    "prefecture_kana": "ホッカイドウ",
    "prefecture_code": 1,
    "city": "二海郡八雲町",
    "city_kana": "フタミグンヤクモチョウ",
    "town": "熊石黒岩町",
    "town_kana": "クマイシクロイワチョウ",
    "street": null,
    "office_name": null,
    "office_name_kana": null
  },
  "0401": {
    "postcode": "0430401",
    "prefecture": "北海道",
    "prefecture_kana": "ホッカイドウ",
    "prefecture_code": 1,
    "city": "二海郡八雲町",
    "city_kana": "フタミグンヤクモチョウ",
    "town": "熊石見日町",
    "town_kana": "クマイシケンニチチョウ",
    "street": null,
    "office_name": null,
    "office_name_kana": null
  },
  "0402": {
    "postcode": "0430402",
    "prefecture": "北海道",
    "prefecture_kana": "ホッカイドウ",
    "prefecture_code": 1,
    "city": "二海郡八雲町",
    "city_kana": "フタミグンヤクモチョウ",
    "town": "熊石鮎川町",
    "town_kana": "クマイシアユカワチョウ",
    "street": null,
    "office_name": null,
    "office_name_kana": null
  },
  "0403": {
    "postcode": "0430403",
    "prefecture": "北海道",
    "prefecture_kana": "ホッカイドウ",
    "prefecture_code": 1,
    "city": "二海郡八雲町",
    "city_kana": "フタミグンヤクモチョウ",
    "town": "熊石平町",
    "town_kana": "クマイシタイラチョウ",
    "street": null,
    "office_name": null,
    "office_name_kana": null
  },
  "0404": {
    "postcode": "0430404",
    "prefecture": "北海道",
    "prefecture_kana": "ホッカイドウ",
    "prefecture_code": 1,
    "city": "二海郡八雲町",
    "city_kana": "フタミグンヤクモチョウ",
    "town": "熊石畳岩町",
    "town_kana": "クマイシタタミイワチョウ",
    "street": null,
    "office_name": null,
    "office_name_kana": null
  },
  "0405": {
    "postcode": "0430405",
    "prefecture": "北海道",
    "prefecture_kana": "ホッカイドウ",
    "prefecture_code": 1,
    "city": "二海郡八雲町",
    "city_kana": "フタミグンヤクモチョウ",
    "town": "熊石大谷町",
    "town_kana": "クマイシオオタニチョウ",
    "street": null,
    "office_name": null,
    "office_name_kana": null
  },
  "0415": {
    "postcode": "0430415",
    "prefecture": "北海道",
    "prefecture_kana": "ホッカイドウ",
    "prefecture_code": 1,
    "city": "二海郡八雲町",
    "city_kana": "フタミグンヤクモチョウ",
    "town": "熊石根崎町",
    "town_kana": "クマイシネサキチョウ",
    "street": null,
    "office_name": null,
    "office_name_kana": null
  },
  "0416": {
    "postcode": "0430416",
    "prefecture": "北海道",
    "prefecture_kana": "ホッカイドウ",
    "prefecture_code": 1,
    "city": "二海郡八雲町",
    "city_kana": "フタミグンヤクモチョウ",
    "town": "熊石雲石町",
    "town_kana": "クマイシウンセキチョウ",
    "street": null,
    "office_name": null,
    "office_name_kana": null
  },
  "0417": {
    "postcode": "0430417",
    "prefecture": "北海道",
    "prefecture_kana": "ホッカイドウ",
    "prefecture_code": 1,
    "city": "二海郡八雲町",
    "city_kana": "フタミグンヤクモチョウ",
    "town": "熊石鳴神町",
    "town_kana": "クマイシナルカミチョウ",
    "street": null,
    "office_name": null,
    "office_name_kana": null
  },
  "0418": {
    "postcode": "0430418",
    "prefecture": "北海道",
    "prefecture_kana": "ホッカイドウ",
    "prefecture_code": 1,
    "city": "二海郡八雲町",
    "city_kana": "フタミグンヤクモチョウ",
    "town": "熊石関内町",
    "town_kana": "クマイシセキナイチョウ",
    "street": null,
    "office_name": null,
    "office_name_kana": null
  },
  "0419": {
    "postcode": "0430419",
    "prefecture": "北海道",
    "prefecture_kana": "ホッカイドウ",
    "prefecture_code": 1,
    "city": "二海郡八雲町",
    "city_kana": "フタミグンヤクモチョウ",
    "town": "熊石西浜町",
    "town_kana": "クマイシニシハマチョウ",
    "street": null,
    "office_name": null,
    "office_name_kana": null
  },
  "0421": {
    "postcode": "0430421",
    "prefecture": "北海道",
    "prefecture_kana": "ホッカイドウ",
    "prefecture_code": 1,
    "city": "久遠郡せたな町",
    "city_kana": "クドウグンセタナチョウ",
    "town": "大成区長磯",
    "town_kana": "タイセイクナガイソ",
    "street": null,
    "office_name": null,
    "office_name_kana": null
  },
  "0495": {
    "postcode": "0430495",
    "prefecture": "北海道",
    "prefecture_kana": "ホッカイドウ",
    "prefecture_code": 1,
    "city": "二海郡八雲町",
    "city_kana": "フタミグンヤクモチョウ",
    "town": "熊石根崎町",
    "town_kana": "クマイシネサキチョウ",
    "street": "１１６",
    "office_name": "八雲町　熊石総合支所",
    "office_name_kana": "ヤクモチヨウ クマイシソウゴウシシヨ"
  },
  "0501": {
    "postcode": "0430501",
    "prefecture": "北海道",
    "prefecture_kana": "ホッカイドウ",
    "prefecture_code": 1,
    "city": "久遠郡せたな町",
    "city_kana": "クドウグンセタナチョウ",
    "town": "大成区太田",
    "town_kana": "タイセイクオオタ",
    "street": null,
    "office_name": null,
    "office_name_kana": null
  },
  "0502": {
    "postcode": "0430502",
    "prefecture": "北海道",
    "prefecture_kana": "ホッカイドウ",
    "prefecture_code": 1,
    "city": "久遠郡せたな町",
    "city_kana": "クドウグンセタナチョウ",
    "town": "大成区富磯",
    "town_kana": "タイセイクトミイソ",
    "street": null,
    "office_name": null,
    "office_name_kana": null
  },
  "0503": {
    "postcode": "0430503",
    "prefecture": "北海道",
    "prefecture_kana": "ホッカイドウ",
    "prefecture_code": 1,
    "city": "久遠郡せたな町",
    "city_kana": "クドウグンセタナチョウ",
    "town": "大成区上浦",
    "town_kana": "タイセイクカミウラ",
    "street": null,
    "office_name": null,
    "office_name_kana": null
  },
  "0504": {
    "postcode": "0430504",
    "prefecture": "北海道",
    "prefecture_kana": "ホッカイドウ",
    "prefecture_code": 1,
    "city": "久遠郡せたな町",
    "city_kana": "クドウグンセタナチョウ",
    "town": "大成区都",
    "town_kana": "タイセイクミヤコ",
    "street": null,
    "office_name": null,
    "office_name_kana": null
  },
  "0505": {
    "postcode": "0430505",
    "prefecture": "北海道",
    "prefecture_kana": "ホッカイドウ",
    "prefecture_code": 1,
    "city": "久遠郡せたな町",
    "city_kana": "クドウグンセタナチョウ",
    "town": "大成区本陣",
    "town_kana": "タイセイクホンジン",
    "street": null,
    "office_name": null,
    "office_name_kana": null
  },
  "0511": {
    "postcode": "0430511",
    "prefecture": "北海道",
    "prefecture_kana": "ホッカイドウ",
    "prefecture_code": 1,
    "city": "久遠郡せたな町",
    "city_kana": "クドウグンセタナチョウ",
    "town": "大成区久遠",
    "town_kana": "タイセイククドオ",
    "street": null,
    "office_name": null,
    "office_name_kana": null
  },
  "0512": {
    "postcode": "0430512",
    "prefecture": "北海道",
    "prefecture_kana": "ホッカイドウ",
    "prefecture_code": 1,
    "city": "久遠郡せたな町",
    "city_kana": "クドウグンセタナチョウ",
    "town": "大成区花歌",
    "town_kana": "タイセイクハナウタ",
    "street": null,
    "office_name": null,
    "office_name_kana": null
  },
  "0513": {
    "postcode": "0430513",
    "prefecture": "北海道",
    "prefecture_kana": "ホッカイドウ",
    "prefecture_code": 1,
    "city": "久遠郡せたな町",
    "city_kana": "クドウグンセタナチョウ",
    "town": "大成区宮野",
    "town_kana": "タイセイクミヤノ",
    "street": null,
    "office_name": null,
    "office_name_kana": null
  },
  "0514": {
    "postcode": "0430514",
    "prefecture": "北海道",
    "prefecture_kana": "ホッカイドウ",
    "prefecture_code": 1,
    "city": "久遠郡せたな町",
    "city_kana": "クドウグンセタナチョウ",
    "town": "大成区平浜",
    "town_kana": "タイセイクヒラハマ",
    "street": null,
    "office_name": null,
    "office_name_kana": null
  },
  "0515": {
    "postcode": "0430515",
    "prefecture": "北海道",
    "prefecture_kana": "ホッカイドウ",
    "prefecture_code": 1,
    "city": "久遠郡せたな町",
    "city_kana": "クドウグンセタナチョウ",
    "town": "大成区貝取澗",
    "town_kana": "タイセイクカイトリマ",
    "street": null,
    "office_name": null,
    "office_name_kana": null
  },
  "0595": {
    "postcode": "0430595",
    "prefecture": "北海道",
    "prefecture_kana": "ホッカイドウ",
    "prefecture_code": 1,
    "city": "久遠郡せたな町",
    "city_kana": "クドウグンセタナチョウ",
    "town": "大成区都",
    "town_kana": "タイセイクミヤコ",
    "street": "４２７番地",
    "office_name": "せたな町役場　大成支所",
    "office_name_kana": "セタナチヨウヤクバ タイセイシシヨ"
  },
  "1100": {
    "postcode": "0431100",
    "prefecture": "北海道",
    "prefecture_kana": "ホッカイドウ",
    "prefecture_code": 1,
    "city": "檜山郡厚沢部町",
    "city_kana": "ヒヤマグンアッサブチョウ",
    "town": "",
    "town_kana": "",
    "street": null,
    "office_name": null,
    "office_name_kana": null
  },
  "1101": {
    "postcode": "0431101",
    "prefecture": "北海道",
    "prefecture_kana": "ホッカイドウ",
    "prefecture_code": 1,
    "city": "檜山郡厚沢部町",
    "city_kana": "ヒヤマグンアッサブチョウ",
    "town": "清水",
    "town_kana": "シミズ",
    "street": null,
    "office_name": null,
    "office_name_kana": null
  },
  "1102": {
    "postcode": "0431102",
    "prefecture": "北海道",
    "prefecture_kana": "ホッカイドウ",
    "prefecture_code": 1,
    "city": "檜山郡厚沢部町",
    "city_kana": "ヒヤマグンアッサブチョウ",
    "town": "稲見",
    "town_kana": "イナミ",
    "street": null,
    "office_name": null,
    "office_name_kana": null
  },
  "1103": {
    "postcode": "0431103",
    "prefecture": "北海道",
    "prefecture_kana": "ホッカイドウ",
    "prefecture_code": 1,
    "city": "檜山郡厚沢部町",
    "city_kana": "ヒヤマグンアッサブチョウ",
    "town": "滝野",
    "town_kana": "タキノ",
    "street": null,
    "office_name": null,
    "office_name_kana": null
  },
  "1104": {
    "postcode": "0431104",
    "prefecture": "北海道",
    "prefecture_kana": "ホッカイドウ",
    "prefecture_code": 1,
    "city": "檜山郡厚沢部町",
    "city_kana": "ヒヤマグンアッサブチョウ",
    "town": "上里",
    "town_kana": "カミサト",
    "street": null,
    "office_name": null,
    "office_name_kana": null
  },
  "1111": {
    "postcode": "0431111",
    "prefecture": "北海道",
    "prefecture_kana": "ホッカイドウ",
    "prefecture_code": 1,
    "city": "檜山郡厚沢部町",
    "city_kana": "ヒヤマグンアッサブチョウ",
    "town": "赤沼町",
    "town_kana": "アカヌママチ",
    "street": null,
    "office_name": null,
    "office_name_kana": null
  },
  "1112": {
    "postcode": "0431112",
    "prefecture": "北海道",
    "prefecture_kana": "ホッカイドウ",
    "prefecture_code": 1,
    "city": "檜山郡厚沢部町",
    "city_kana": "ヒヤマグンアッサブチョウ",
    "town": "緑町",
    "town_kana": "ミドリマチ",
    "street": null,
    "office_name": null,
    "office_name_kana": null
  },
  "1113": {
    "postcode": "0431113",
    "prefecture": "北海道",
    "prefecture_kana": "ホッカイドウ",
    "prefecture_code": 1,
    "city": "檜山郡厚沢部町",
    "city_kana": "ヒヤマグンアッサブチョウ",
    "town": "新町",
    "town_kana": "シンマチ",
    "street": null,
    "office_name": null,
    "office_name_kana": null
  },
  "1114": {
    "postcode": "0431114",
    "prefecture": "北海道",
    "prefecture_kana": "ホッカイドウ",
    "prefecture_code": 1,
    "city": "檜山郡厚沢部町",
    "city_kana": "ヒヤマグンアッサブチョウ",
    "town": "本町",
    "town_kana": "ホンチョウ",
    "street": null,
    "office_name": null,
    "office_name_kana": null
  },
  "1115": {
    "postcode": "0431115",
    "prefecture": "北海道",
    "prefecture_kana": "ホッカイドウ",
    "prefecture_code": 1,
    "city": "檜山郡厚沢部町",
    "city_kana": "ヒヤマグンアッサブチョウ",
    "town": "松園町",
    "town_kana": "マツゾノマチ",
    "street": null,
    "office_name": null,
    "office_name_kana": null
  },
  "1116": {
    "postcode": "0431116",
    "prefecture": "北海道",
    "prefecture_kana": "ホッカイドウ",
    "prefecture_code": 1,
    "city": "檜山郡厚沢部町",
    "city_kana": "ヒヤマグンアッサブチョウ",
    "town": "上の山",
    "town_kana": "カミノヤマ",
    "street": null,
    "office_name": null,
    "office_name_kana": null
  },
  "1117": {
    "postcode": "0431117",
    "prefecture": "北海道",
    "prefecture_kana": "ホッカイドウ",
    "prefecture_code": 1,
    "city": "檜山郡厚沢部町",
    "city_kana": "ヒヤマグンアッサブチョウ",
    "town": "美和",
    "town_kana": "ミワ",
    "street": null,
    "office_name": null,
    "office_name_kana": null
  },
  "1118": {
    "postcode": "0431118",
    "prefecture": "北海道",
    "prefecture_kana": "ホッカイドウ",
    "prefecture_code": 1,
    "city": "檜山郡厚沢部町",
    "city_kana": "ヒヤマグンアッサブチョウ",
    "town": "富栄",
    "town_kana": "トミエイ",
    "street": null,
    "office_name": null,
    "office_name_kana": null
  },
  "1231": {
    "postcode": "0431231",
    "prefecture": "北海道",
    "prefecture_kana": "ホッカイドウ",
    "prefecture_code": 1,
    "city": "檜山郡厚沢部町",
    "city_kana": "ヒヤマグンアッサブチョウ",
    "town": "共和",
    "town_kana": "キョウワ",
    "street": null,
    "office_name": null,
    "office_name_kana": null
  },
  "1232": {
    "postcode": "0431232",
    "prefecture": "北海道",
    "prefecture_kana": "ホッカイドウ",
    "prefecture_code": 1,
    "city": "檜山郡厚沢部町",
    "city_kana": "ヒヤマグンアッサブチョウ",
    "town": "相生",
    "town_kana": "アイオイ",
    "street": null,
    "office_name": null,
    "office_name_kana": null
  },
  "1233": {
    "postcode": "0431233",
    "prefecture": "北海道",
    "prefecture_kana": "ホッカイドウ",
    "prefecture_code": 1,
    "city": "檜山郡厚沢部町",
    "city_kana": "ヒヤマグンアッサブチョウ",
    "town": "旭丘",
    "town_kana": "アサヒオカ",
    "street": null,
    "office_name": null,
    "office_name_kana": null
  },
  "1234": {
    "postcode": "0431234",
    "prefecture": "北海道",
    "prefecture_kana": "ホッカイドウ",
    "prefecture_code": 1,
    "city": "檜山郡厚沢部町",
    "city_kana": "ヒヤマグンアッサブチョウ",
    "town": "木間内",
    "town_kana": "キマナイ",
    "street": null,
    "office_name": null,
    "office_name_kana": null
  },
  "1235": {
    "postcode": "0431235",
    "prefecture": "北海道",
    "prefecture_kana": "ホッカイドウ",
    "prefecture_code": 1,
    "city": "檜山郡厚沢部町",
    "city_kana": "ヒヤマグンアッサブチョウ",
    "town": "峠下",
    "town_kana": "トウゲシタ",
    "street": null,
    "office_name": null,
    "office_name_kana": null
  },
  "1236": {
    "postcode": "0431236",
    "prefecture": "北海道",
    "prefecture_kana": "ホッカイドウ",
    "prefecture_code": 1,
    "city": "檜山郡厚沢部町",
    "city_kana": "ヒヤマグンアッサブチョウ",
    "town": "社の山",
    "town_kana": "シャノヤマ",
    "street": null,
    "office_name": null,
    "office_name_kana": null
  },
  "1237": {
    "postcode": "0431237",
    "prefecture": "北海道",
    "prefecture_kana": "ホッカイドウ",
    "prefecture_code": 1,
    "city": "檜山郡厚沢部町",
    "city_kana": "ヒヤマグンアッサブチョウ",
    "town": "鶉町",
    "town_kana": "ウズラマチ",
    "street": null,
    "office_name": null,
    "office_name_kana": null
  },
  "1238": {
    "postcode": "0431238",
    "prefecture": "北海道",
    "prefecture_kana": "ホッカイドウ",
    "prefecture_code": 1,
    "city": "檜山郡厚沢部町",
    "city_kana": "ヒヤマグンアッサブチョウ",
    "town": "鶉",
    "town_kana": "ウズラ",
    "street": null,
    "office_name": null,
    "office_name_kana": null
  },
  "1351": {
    "postcode": "0431351",
    "prefecture": "北海道",
    "prefecture_kana": "ホッカイドウ",
    "prefecture_code": 1,
    "city": "檜山郡厚沢部町",
    "city_kana": "ヒヤマグンアッサブチョウ",
    "town": "館町",
    "town_kana": "タテマチ",
    "street": null,
    "office_name": null,
    "office_name_kana": null
  },
  "1361": [
    {
      "postcode": "0431361",
      "prefecture": "北海道",
      "prefecture_kana": "ホッカイドウ",
      "prefecture_code": 1,
      "city": "檜山郡厚沢部町",
      "city_kana": "ヒヤマグンアッサブチョウ",
      "town": "社の山",
      "town_kana": "シャノヤマ",
      "street": null,
      "office_name": null,
      "office_name_kana": null
    },
    {
      "postcode": "0431361",
      "prefecture": "北海道",
      "prefecture_kana": "ホッカイドウ",
      "prefecture_code": 1,
      "city": "檜山郡厚沢部町",
      "city_kana": "ヒヤマグンアッサブチョウ",
      "town": "社の山中の沢",
      "town_kana": "シャノヤマナカノサワ",
      "street": null,
      "office_name": null,
      "office_name_kana": null
    }
  ],
  "1362": {
    "postcode": "0431362",
    "prefecture": "北海道",
    "prefecture_kana": "ホッカイドウ",
    "prefecture_code": 1,
    "city": "檜山郡厚沢部町",
    "city_kana": "ヒヤマグンアッサブチョウ",
    "town": "須賀",
    "town_kana": "スガ",
    "street": null,
    "office_name": null,
    "office_name_kana": null
  },
  "1363": {
    "postcode": "0431363",
    "prefecture": "北海道",
    "prefecture_kana": "ホッカイドウ",
    "prefecture_code": 1,
    "city": "檜山郡厚沢部町",
    "city_kana": "ヒヤマグンアッサブチョウ",
    "town": "富里",
    "town_kana": "トミサト",
    "street": null,
    "office_name": null,
    "office_name_kana": null
  },
  "1364": {
    "postcode": "0431364",
    "prefecture": "北海道",
    "prefecture_kana": "ホッカイドウ",
    "prefecture_code": 1,
    "city": "檜山郡厚沢部町",
    "city_kana": "ヒヤマグンアッサブチョウ",
    "town": "城丘",
    "town_kana": "シロオカ",
    "street": null,
    "office_name": null,
    "office_name_kana": null
  },
  "1365": {
    "postcode": "0431365",
    "prefecture": "北海道",
    "prefecture_kana": "ホッカイドウ",
    "prefecture_code": 1,
    "city": "檜山郡厚沢部町",
    "city_kana": "ヒヤマグンアッサブチョウ",
    "town": "南館町",
    "town_kana": "ミナミタテマチ",
    "street": null,
    "office_name": null,
    "office_name_kana": null
  },
  "1366": {
    "postcode": "0431366",
    "prefecture": "北海道",
    "prefecture_kana": "ホッカイドウ",
    "prefecture_code": 1,
    "city": "檜山郡厚沢部町",
    "city_kana": "ヒヤマグンアッサブチョウ",
    "town": "当路",
    "town_kana": "トウロ",
    "street": null,
    "office_name": null,
    "office_name_kana": null
  },
  "1367": {
    "postcode": "0431367",
    "prefecture": "北海道",
    "prefecture_kana": "ホッカイドウ",
    "prefecture_code": 1,
    "city": "檜山郡厚沢部町",
    "city_kana": "ヒヤマグンアッサブチョウ",
    "town": "新栄",
    "town_kana": "シンエイ",
    "street": null,
    "office_name": null,
    "office_name_kana": null
  },
  "1368": {
    "postcode": "0431368",
    "prefecture": "北海道",
    "prefecture_kana": "ホッカイドウ",
    "prefecture_code": 1,
    "city": "檜山郡厚沢部町",
    "city_kana": "ヒヤマグンアッサブチョウ",
    "town": "中館",
    "town_kana": "ナカタテ",
    "street": null,
    "office_name": null,
    "office_name_kana": null
  },
  "1400": {
    "postcode": "0431400",
    "prefecture": "北海道",
    "prefecture_kana": "ホッカイドウ",
    "prefecture_code": 1,
    "city": "奥尻郡奥尻町",
    "city_kana": "オクシリグンオクシリチョウ",
    "town": "",
    "town_kana": "",
    "street": null,
    "office_name": null,
    "office_name_kana": null
  },
  "1401": {
    "postcode": "0431401",
    "prefecture": "北海道",
    "prefecture_kana": "ホッカイドウ",
    "prefecture_code": 1,
    "city": "奥尻郡奥尻町",
    "city_kana": "オクシリグンオクシリチョウ",
    "town": "奥尻",
    "town_kana": "オクシリ",
    "street": null,
    "office_name": null,
    "office_name_kana": null
  },
  "1402": {
    "postcode": "0431402",
    "prefecture": "北海道",
    "prefecture_kana": "ホッカイドウ",
    "prefecture_code": 1,
    "city": "奥尻郡奥尻町",
    "city_kana": "オクシリグンオクシリチョウ",
    "town": "赤石",
    "town_kana": "アカイシ",
    "street": null,
    "office_name": null,
    "office_name_kana": null
  },
  "1403": {
    "postcode": "0431403",
    "prefecture": "北海道",
    "prefecture_kana": "ホッカイドウ",
    "prefecture_code": 1,
    "city": "奥尻郡奥尻町",
    "city_kana": "オクシリグンオクシリチョウ",
    "town": "球浦",
    "town_kana": "タマウラ",
    "street": null,
    "office_name": null,
    "office_name_kana": null
  },
  "1404": {
    "postcode": "0431404",
    "prefecture": "北海道",
    "prefecture_kana": "ホッカイドウ",
    "prefecture_code": 1,
    "city": "奥尻郡奥尻町",
    "city_kana": "オクシリグンオクシリチョウ",
    "town": "宮津",
    "town_kana": "ミヤツ",
    "street": null,
    "office_name": null,
    "office_name_kana": null
  },
  "1405": {
    "postcode": "0431405",
    "prefecture": "北海道",
    "prefecture_kana": "ホッカイドウ",
    "prefecture_code": 1,
    "city": "奥尻郡奥尻町",
    "city_kana": "オクシリグンオクシリチョウ",
    "town": "稲穂",
    "town_kana": "イナホ",
    "street": null,
    "office_name": null,
    "office_name_kana": null
  },
  "1406": {
    "postcode": "0431406",
    "prefecture": "北海道",
    "prefecture_kana": "ホッカイドウ",
    "prefecture_code": 1,
    "city": "奥尻郡奥尻町",
    "city_kana": "オクシリグンオクシリチョウ",
    "town": "湯浜",
    "town_kana": "ユノハマ",
    "street": null,
    "office_name": null,
    "office_name_kana": null
  },
  "1498": {
    "postcode": "0431498",
    "prefecture": "北海道",
    "prefecture_kana": "ホッカイドウ",
    "prefecture_code": 1,
    "city": "奥尻郡奥尻町",
    "city_kana": "オクシリグンオクシリチョウ",
    "town": "字奥尻",
    "town_kana": null,
    "street": "８０６",
    "office_name": "奥尻町役場",
    "office_name_kana": "オクシリチヨウヤクバ"
  },
  "1521": {
    "postcode": "0431521",
    "prefecture": "北海道",
    "prefecture_kana": "ホッカイドウ",
    "prefecture_code": 1,
    "city": "奥尻郡奥尻町",
    "city_kana": "オクシリグンオクシリチョウ",
    "town": "青苗",
    "town_kana": "アオナエ",
    "street": null,
    "office_name": null,
    "office_name_kana": null
  },
  "1522": {
    "postcode": "0431522",
    "prefecture": "北海道",
    "prefecture_kana": "ホッカイドウ",
    "prefecture_code": 1,
    "city": "奥尻郡奥尻町",
    "city_kana": "オクシリグンオクシリチョウ",
    "town": "富里",
    "town_kana": "トミサト",
    "street": null,
    "office_name": null,
    "office_name_kana": null
  },
  "1523": {
    "postcode": "0431523",
    "prefecture": "北海道",
    "prefecture_kana": "ホッカイドウ",
    "prefecture_code": 1,
    "city": "奥尻郡奥尻町",
    "city_kana": "オクシリグンオクシリチョウ",
    "town": "松江",
    "town_kana": "マツエ",
    "street": null,
    "office_name": null,
    "office_name_kana": null
  },
  "1524": {
    "postcode": "0431524",
    "prefecture": "北海道",
    "prefecture_kana": "ホッカイドウ",
    "prefecture_code": 1,
    "city": "奥尻郡奥尻町",
    "city_kana": "オクシリグンオクシリチョウ",
    "town": "米岡",
    "town_kana": "ヨネオカ",
    "street": null,
    "office_name": null,
    "office_name_kana": null
  },
  "1525": [
    {
      "postcode": "0431525",
      "prefecture": "北海道",
      "prefecture_kana": "ホッカイドウ",
      "prefecture_code": 1,
      "city": "奥尻郡奥尻町",
      "city_kana": "オクシリグンオクシリチョウ",
      "town": "湯浜",
      "town_kana": "ユノハマ",
      "street": null,
      "office_name": null,
      "office_name_kana": null
    },
    {
      "postcode": "0431525",
      "prefecture": "北海道",
      "prefecture_kana": "ホッカイドウ",
      "prefecture_code": 1,
      "city": "奥尻郡奥尻町",
      "city_kana": "オクシリグンオクシリチョウ",
      "town": "湯浜神威脇",
      "town_kana": "ユノハマカムイワキ",
      "street": null,
      "office_name": null,
      "office_name_kana": null
    },
    {
      "postcode": "0431525",
      "prefecture": "北海道",
      "prefecture_kana": "ホッカイドウ",
      "prefecture_code": 1,
      "city": "奥尻郡奥尻町",
      "city_kana": "オクシリグンオクシリチョウ",
      "town": "湯浜幌内",
      "town_kana": "ユノハマホロナイ",
      "street": null,
      "office_name": null,
      "office_name_kana": null
    }
  ],
  "8558": {
    "postcode": "0438558",
    "prefecture": "北海道",
    "prefecture_kana": "ホッカイドウ",
    "prefecture_code": 1,
    "city": "檜山郡江差町",
    "city_kana": "ヒヤマグンエサシチョウ",
    "town": "字陣屋町",
    "town_kana": null,
    "street": "３３６−３",
    "office_name": "北海道　桧山支庁",
    "office_name_kana": "ホツカイドウ ヒヤマシチヨウ"
  },
  "8560": {
    "postcode": "0438560",
    "prefecture": "北海道",
    "prefecture_kana": "ホッカイドウ",
    "prefecture_code": 1,
    "city": "檜山郡江差町",
    "city_kana": "ヒヤマグンエサシチョウ",
    "town": "字中歌町",
    "town_kana": null,
    "street": "１９３−１（江差郵便局私書箱第８号）",
    "office_name": "江差町役場",
    "office_name_kana": "エサシチヨウヤクバ"
  },
  "8609": {
    "postcode": "0438609",
    "prefecture": "北海道",
    "prefecture_kana": "ホッカイドウ",
    "prefecture_code": 1,
    "city": "檜山郡江差町",
    "city_kana": "ヒヤマグンエサシチョウ",
    "town": "字姥神町",
    "town_kana": null,
    "street": "１６７",
    "office_name": "函館公共職業安定所　江差出張所",
    "office_name_kana": "ハコダテコウキヨウシヨクギヨウアンテイシヨ エサシシユツチヨウシヨ"
  },
  "8651": {
    "postcode": "0438651",
    "prefecture": "北海道",
    "prefecture_kana": "ホッカイドウ",
    "prefecture_code": 1,
    "city": "檜山郡江差町",
    "city_kana": "ヒヤマグンエサシチョウ",
    "town": "字本町",
    "town_kana": null,
    "street": "１３２（江差郵便局私書箱第１号）",
    "office_name": "江差信用金庫",
    "office_name_kana": "エサシシンヨウキンコ"
  }
}