{
  "0000": {
    "postcode": "0440000",
    "prefecture": "北海道",
    "prefecture_kana": "ホッカイドウ",
    "prefecture_code": 1,
    "city": "虻田郡倶知安町",
    "city_kana": "アブタグンクッチャンチョウ",
    "town": "",
    "town_kana": "",
    "street": null,
    "office_name": null,
    "office_name_kana": null
  },
  "0001": {
    "postcode": "0440001",
    "prefecture": "北海道",
    "prefecture_kana": "ホッカイドウ",
    "prefecture_code": 1,
    "city": "虻田郡倶知安町",
    "city_kana": "アブタグンクッチャンチョウ",
    "town": "北一条東",
    "town_kana": "キタ1ジョウヒガシ",
    "street": null,
    "office_name": null,
    "office_name_kana": null
  },
  "0002": {
    "postcode": "0440002",
    "prefecture": "北海道",
    "prefecture_kana": "ホッカイドウ",
    "prefecture_code": 1,
    "city": "虻田郡倶知安町",
    "city_kana": "アブタグンクッチャンチョウ",
    "town": "北二条東",
    "town_kana": "キタ2ジョウヒガシ",
    "street": null,
    "office_name": null,
    "office_name_kana": null
  },
  "0003": {
    "postcode": "0440003",
    "prefecture": "北海道",
    "prefecture_kana": "ホッカイドウ",
    "prefecture_code": 1,
    "city": "虻田郡倶知安町",
    "city_kana": "アブタグンクッチャンチョウ",
    "town": "北三条東",
    "town_kana": "キタ3ジョウヒガシ",
    "street": null,
    "office_name": null,
    "office_name_kana": null
  },
  "0004": {
    "postcode": "0440004",
    "prefecture": "北海道",
    "prefecture_kana": "ホッカイドウ",
    "prefecture_code": 1,
    "city": "虻田郡倶知安町",
    "city_kana": "アブタグンクッチャンチョウ",
    "town": "北四条東",
    "town_kana": "キタ4ジョウヒガシ",
    "street": null,
    "office_name": null,
    "office_name_kana": null
  },
  "0005": {
    "postcode": "0440005",
    "prefecture": "北海道",
    "prefecture_kana": "ホッカイドウ",
    "prefecture_code": 1,
    "city": "虻田郡倶知安町",
    "city_kana": "アブタグンクッチャンチョウ",
    "town": "北五条東",
    "town_kana": "キタ5ジョウヒガシ",
    "street": null,
    "office_name": null,
    "office_name_kana": null
  },
  "0006": {
    "postcode": "0440006",
    "prefecture": "北海道",
    "prefecture_kana": "ホッカイドウ",
    "prefecture_code": 1,
    "city": "虻田郡倶知安町",
    "city_kana": "アブタグンクッチャンチョウ",
    "town": "北六条東",
    "town_kana": "キタ6ジョウヒガシ",
    "street": null,
    "office_name": null,
    "office_name_kana": null
  },
  "0007": {
    "postcode": "0440007",
    "prefecture": "北海道",
    "prefecture_kana": "ホッカイドウ",
    "prefecture_code": 1,
    "city": "虻田郡倶知安町",
    "city_kana": "アブタグンクッチャンチョウ",
    "town": "北七条東",
    "town_kana": "キタ7ジョウヒガシ",
    "street": null,
    "office_name": null,
    "office_name_kana": null
  },
  "0011": {
    "postcode": "0440011",
    "prefecture": "北海道",
    "prefecture_kana": "ホッカイドウ",
    "prefecture_code": 1,
    "city": "虻田郡倶知安町",
    "city_kana": "アブタグンクッチャンチョウ",
    "town": "南一条東",
    "town_kana": "ミナミ1ジョウヒガシ",
    "street": null,
    "office_name": null,
    "office_name_kana": null
  },
  "0012": {
    "postcode": "0440012",
    "prefecture": "北海道",
    "prefecture_kana": "ホッカイドウ",
    "prefecture_code": 1,
    "city": "虻田郡倶知安町",
    "city_kana": "アブタグンクッチャンチョウ",
    "town": "南二条東",
    "town_kana": "ミナミ2ジョウヒガシ",
    "street": null,
    "office_name": null,
    "office_name_kana": null
  },
  "0013": {
    "postcode": "0440013",
    "prefecture": "北海道",
    "prefecture_kana": "ホッカイドウ",
    "prefecture_code": 1,
    "city": "虻田郡倶知安町",
    "city_kana": "アブタグンクッチャンチョウ",
    "town": "南三条東",
    "town_kana": "ミナミ3ジョウヒガシ",
    "street": null,
    "office_name": null,
    "office_name_kana": null
  },
  "0014": {
    "postcode": "0440014",
    "prefecture": "北海道",
    "prefecture_kana": "ホッカイドウ",
    "prefecture_code": 1,
    "city": "虻田郡倶知安町",
    "city_kana": "アブタグンクッチャンチョウ",
    "town": "南四条東",
    "town_kana": "ミナミ4ジョウヒガシ",
    "street": null,
    "office_name": null,
    "office_name_kana": null
  },
  "0015": {
    "postcode": "0440015",
    "prefecture": "北海道",
    "prefecture_kana": "ホッカイドウ",
    "prefecture_code": 1,
    "city": "虻田郡倶知安町",
    "city_kana": "アブタグンクッチャンチョウ",
    "town": "南五条東",
    "town_kana": "ミナミ5ジョウヒガシ",
    "street": null,
    "office_name": null,
    "office_name_kana": null
  },
  "0016": {
    "postcode": "0440016",
    "prefecture": "北海道",
    "prefecture_kana": "ホッカイドウ",
    "prefecture_code": 1,
    "city": "虻田郡倶知安町",
    "city_kana": "アブタグンクッチャンチョウ",
    "town": "南六条東",
    "town_kana": "ミナミ6ジョウヒガシ",
    "street": null,
    "office_name": null,
    "office_name_kana": null
  },
  "0021": {
    "postcode": "0440021",
    "prefecture": "北海道",
    "prefecture_kana": "ホッカイドウ",
    "prefecture_code": 1,
    "city": "虻田郡倶知安町",
    "city_kana": "アブタグンクッチャンチョウ",
    "town": "南七条東",
    "town_kana": "ミナミ7ジョウヒガシ",
    "street": null,
    "office_name": null,
    "office_name_kana": null
  },
  "0022": {
    "postcode": "0440022",
    "prefecture": "北海道",
    "prefecture_kana": "ホッカイドウ",
    "prefecture_code": 1,
    "city": "虻田郡倶知安町",
    "city_kana": "アブタグンクッチャンチョウ",
    "town": "南八条東",
    "town_kana": "ミナミ8ジョウヒガシ",
    "street": null,
    "office_name": null,
    "office_name_kana": null
  },
  "0023": {
    "postcode": "0440023",
    "prefecture": "北海道",
    "prefecture_kana": "ホッカイドウ",
    "prefecture_code": 1,
    "city": "虻田郡倶知安町",
    "city_kana": "アブタグンクッチャンチョウ",
    "town": "南九条東",
    "town_kana": "ミナミ9ジョウヒガシ",
    "street": null,
    "office_name": null,
    "office_name_kana": null
  },
  "0024": {
    "postcode": "0440024",
    "prefecture": "北海道",
    "prefecture_kana": "ホッカイドウ",
    "prefecture_code": 1,
    "city": "虻田郡倶知安町",
    "city_kana": "アブタグンクッチャンチョウ",
    "town": "南十条東",
    "town_kana": "ミナミ10ジョウヒガシ",
    "street": null,
    "office_name": null,
    "office_name_kana": null
  },
  "0025": {
    "postcode": "0440025",
    "prefecture": "北海道",
    "prefecture_kana": "ホッカイドウ",
    "prefecture_code": 1,
    "city": "虻田郡倶知安町",
    "city_kana": "アブタグンクッチャンチョウ",
    "town": "南十一条東",
    "town_kana": "ミナミ11ジョウヒガシ",
    "street": null,
    "office_name": null,
    "office_name_kana": null
  },
  "0031": {
    "postcode": "0440031",
    "prefecture": "北海道",
    "prefecture_kana": "ホッカイドウ",
    "prefecture_code": 1,
    "city": "虻田郡倶知安町",
    "city_kana": "アブタグンクッチャンチョウ",
    "town": "南一条西",
    "town_kana": "ミナミ1ジョウニシ",
    "street": null,
    "office_name": null,
    "office_name_kana": null
  },
  "0032": {
    "postcode": "0440032",
    "prefecture": "北海道",
    "prefecture_kana": "ホッカイドウ",
    "prefecture_code": 1,
    "city": "虻田郡倶知安町",
    "city_kana": "アブタグンクッチャンチョウ",
    "town": "南二条西",
    "town_kana": "ミナミ2ジョウニシ",
    "street": null,
    "office_name": null,
    "office_name_kana": null
  },
  "0033": {
    "postcode": "0440033",
    "prefecture": "北海道",
    "prefecture_kana": "ホッカイドウ",
    "prefecture_code": 1,
    "city": "虻田郡倶知安町",
    "city_kana": "アブタグンクッチャンチョウ",
    "town": "南三条西",
    "town_kana": "ミナミ3ジョウニシ",
    "street": null,
    "office_name": null,
    "office_name_kana": null
  },
  "0034": {
    "postcode": "0440034",
    "prefecture": "北海道",
    "prefecture_kana": "ホッカイドウ",
    "prefecture_code": 1,
    "city": "虻田郡倶知安町",
    "city_kana": "アブタグンクッチャンチョウ",
    "town": "南四条西",
    "town_kana": "ミナミ4ジョウニシ",
    "street": null,
    "office_name": null,
    "office_name_kana": null
  },
  "0035": {
    "postcode": "0440035",
    "prefecture": "北海道",
    "prefecture_kana": "ホッカイドウ",
    "prefecture_code": 1,
    "city": "虻田郡倶知安町",
    "city_kana": "アブタグンクッチャンチョウ",
    "town": "南五条西",
    "town_kana": "ミナミ5ジョウニシ",
    "street": null,
    "office_name": null,
    "office_name_kana": null
  },
  "0036": {
    "postcode": "0440036",
    "prefecture": "北海道",
    "prefecture_kana": "ホッカイドウ",
    "prefecture_code": 1,
    "city": "虻田郡倶知安町",
    "city_kana": "アブタグンクッチャンチョウ",
    "town": "南六条西",
    "town_kana": "ミナミ6ジョウニシ",
    "street": null,
    "office_name": null,
    "office_name_kana": null
  },
  "0041": {
    "postcode": "0440041",
    "prefecture": "北海道",
    "prefecture_kana": "ホッカイドウ",
    "prefecture_code": 1,
    "city": "虻田郡倶知安町",
    "city_kana": "アブタグンクッチャンチョウ",
    "town": "南七条西",
    "town_kana": "ミナミ7ジョウニシ",
    "street": null,
    "office_name": null,
    "office_name_kana": null
  },
  "0042": {
    "postcode": "0440042",
    "prefecture": "北海道",
    "prefecture_kana": "ホッカイドウ",
    "prefecture_code": 1,
    "city": "虻田郡倶知安町",
    "city_kana": "アブタグンクッチャンチョウ",
    "town": "南八条西",
    "town_kana": "ミナミ8ジョウニシ",
    "street": null,
    "office_name": null,
    "office_name_kana": null
  },
  "0043": {
    "postcode": "0440043",
    "prefecture": "北海道",
    "prefecture_kana": "ホッカイドウ",
    "prefecture_code": 1,
    "city": "虻田郡倶知安町",
    "city_kana": "アブタグンクッチャンチョウ",
    "town": "南九条西",
    "town_kana": "ミナミ9ジョウニシ",
    "street": null,
    "office_name": null,
    "office_name_kana": null
  },
  "0044": {
    "postcode": "0440044",
    "prefecture": "北海道",
    "prefecture_kana": "ホッカイドウ",
    "prefecture_code": 1,
    "city": "虻田郡倶知安町",
    "city_kana": "アブタグンクッチャンチョウ",
    "town": "南十条西",
    "town_kana": "ミナミ10ジョウニシ",
    "street": null,
    "office_name": null,
    "office_name_kana": null
  },
  "0045": {
    "postcode": "0440045",
    "prefecture": "北海道",
    "prefecture_kana": "ホッカイドウ",
    "prefecture_code": 1,
    "city": "虻田郡倶知安町",
    "city_kana": "アブタグンクッチャンチョウ",
    "town": "南十一条西",
    "town_kana": "ミナミ11ジョウニシ",
    "street": null,
    "office_name": null,
    "office_name_kana": null
  },
  "0051": {
    "postcode": "0440051",
    "prefecture": "北海道",
    "prefecture_kana": "ホッカイドウ",
    "prefecture_code": 1,
    "city": "虻田郡倶知安町",
    "city_kana": "アブタグンクッチャンチョウ",
    "town": "北一条西",
    "town_kana": "キタ1ジョウニシ",
    "street": null,
    "office_name": null,
    "office_name_kana": null
  },
  "0052": {
    "postcode": "0440052",
    "prefecture": "北海道",
    "prefecture_kana": "ホッカイドウ",
    "prefecture_code": 1,
    "city": "虻田郡倶知安町",
    "city_kana": "アブタグンクッチャンチョウ",
    "town": "北二条西",
    "town_kana": "キタ2ジョウニシ",
    "street": null,
    "office_name": null,
    "office_name_kana": null
  },
  "0053": {
    "postcode": "0440053",
    "prefecture": "北海道",
    "prefecture_kana": "ホッカイドウ",
    "prefecture_code": 1,
    "city": "虻田郡倶知安町",
    "city_kana": "アブタグンクッチャンチョウ",
    "town": "北三条西",
    "town_kana": "キタ3ジョウニシ",
    "street": null,
    "office_name": null,
    "office_name_kana": null
  },
  "0054": {
    "postcode": "0440054",
    "prefecture": "北海道",
    "prefecture_kana": "ホッカイドウ",
    "prefecture_code": 1,
    "city": "虻田郡倶知安町",
    "city_kana": "アブタグンクッチャンチョウ",
    "town": "北四条西",
    "town_kana": "キタ4ジョウニシ",
    "street": null,
    "office_name": null,
    "office_name_kana": null
  },
  "0055": {
    "postcode": "0440055",
    "prefecture": "北海道",
    "prefecture_kana": "ホッカイドウ",
    "prefecture_code": 1,
    "city": "虻田郡倶知安町",
    "city_kana": "アブタグンクッチャンチョウ",
    "town": "北五条西",
    "town_kana": "キタ5ジョウニシ",
    "street": null,
    "office_name": null,
    "office_name_kana": null
  },
  "0056": {
    "postcode": "0440056",
    "prefecture": "北海道",
    "prefecture_kana": "ホッカイドウ",
    "prefecture_code": 1,
    "city": "虻田郡倶知安町",
    "city_kana": "アブタグンクッチャンチョウ",
    "town": "北六条西",
    "town_kana": "キタ6ジョウニシ",
    "street": null,
    "office_name": null,
    "office_name_kana": null
  },
  "0057": {
    "postcode": "0440057",
    "prefecture": "北海道",
    "prefecture_kana": "ホッカイドウ",
    "prefecture_code": 1,
    "city": "虻田郡倶知安町",
    "city_kana": "アブタグンクッチャンチョウ",
    "town": "北七条西",
    "town_kana": "キタ7ジョウニシ",
    "street": null,
    "office_name": null,
    "office_name_kana": null
  },
  "0061": {
    "postcode": "0440061",
    "prefecture": "北海道",
    "prefecture_kana": "ホッカイドウ",
    "prefecture_code": 1,
    "city": "虻田郡倶知安町",
    "city_kana": "アブタグンクッチャンチョウ",
    "town": "大和",
    "town_kana": "ヤマト",
    "street": null,
    "office_name": null,
    "office_name_kana": null
  },
  "0062": {
    "postcode": "0440062",
    "prefecture": "北海道",
    "prefecture_kana": "ホッカイドウ",
    "prefecture_code": 1,
    "city": "虻田郡倶知安町",
    "city_kana": "アブタグンクッチャンチョウ",
    "town": "扶桑",
    "town_kana": "フソウ",
    "street": null,
    "office_name": null,
    "office_name_kana": null
  },
  "0063": {
    "postcode": "0440063",
    "prefecture": "北海道",
    "prefecture_kana": "ホッカイドウ",
    "prefecture_code": 1,
    "city": "虻田郡倶知安町",
    "city_kana": "アブタグンクッチャンチョウ",
    "town": "末広",
    "town_kana": "スエヒロ",
    "street": null,
    "office_name": null,
    "office_name_kana": null
  },
  "0064": {
    "postcode": "0440064",
    "prefecture": "北海道",
    "prefecture_kana": "ホッカイドウ",
    "prefecture_code": 1,
    "city": "虻田郡倶知安町",
    "city_kana": "アブタグンクッチャンチョウ",
    "town": "出雲",
    "town_kana": "イズモ",
    "street": null,
    "office_name": null,
    "office_name_kana": null
  },
  "0065": {
    "postcode": "0440065",
    "prefecture": "北海道",
    "prefecture_kana": "ホッカイドウ",
    "prefecture_code": 1,
    "city": "虻田郡倶知安町",
    "city_kana": "アブタグンクッチャンチョウ",
    "town": "高見",
    "town_kana": "タカミ",
    "street": null,
    "office_name": null,
    "office_name_kana": null
  },
  "0066": {
    "postcode": "0440066",
    "prefecture": "北海道",
    "prefecture_kana": "ホッカイドウ",
    "prefecture_code": 1,
    "city": "虻田郡倶知安町",
    "city_kana": "アブタグンクッチャンチョウ",
    "town": "琴平",
    "town_kana": "コトヒラ",
    "street": null,
    "office_name": null,
    "office_name_kana": null
  },
  "0067": {
    "postcode": "0440067",
    "prefecture": "北海道",
    "prefecture_kana": "ホッカイドウ",
    "prefecture_code": 1,
    "city": "虻田郡倶知安町",
    "city_kana": "アブタグンクッチャンチョウ",
    "town": "瑞穂",
    "town_kana": "ミズホ",
    "street": null,
    "office_name": null,
    "office_name_kana": null
  },
  "0068": {
    "postcode": "0440068",
    "prefecture": "北海道",
    "prefecture_kana": "ホッカイドウ",
    "prefecture_code": 1,
    "city": "虻田郡倶知安町",
    "city_kana": "アブタグンクッチャンチョウ",
    "town": "緑",
    "town_kana": "ミドリ",
    "street": null,
    "office_name": null,
    "office_name_kana": null
  },
  "0071": {
    "postcode": "0440071",
    "prefecture": "北海道",
    "prefecture_kana": "ホッカイドウ",
    "prefecture_code": 1,
    "city": "虻田郡倶知安町",
    "city_kana": "アブタグンクッチャンチョウ",
    "town": "寒別",
    "town_kana": "カンベツ",
    "street": null,
    "office_name": null,
    "office_name_kana": null
  },
  "0072": {
    "postcode": "0440072",
    "prefecture": "北海道",
    "prefecture_kana": "ホッカイドウ",
    "prefecture_code": 1,
    "city": "虻田郡倶知安町",
    "city_kana": "アブタグンクッチャンチョウ",
    "town": "八幡",
    "town_kana": "ヤハタ",
    "street": null,
    "office_name": null,
    "office_name_kana": null
  },
  "0073": {
    "postcode": "0440073",
    "prefecture": "北海道",
    "prefecture_kana": "ホッカイドウ",
    "prefecture_code": 1,
    "city": "虻田郡倶知安町",
    "city_kana": "アブタグンクッチャンチョウ",
    "town": "豊岡",
    "town_kana": "トヨオカ",
    "street": null,
    "office_name": null,
    "office_name_kana": null
  },
  "0074": {
    "postcode": "0440074",
    "prefecture": "北海道",
    "prefecture_kana": "ホッカイドウ",
    "prefecture_code": 1,
    "city": "虻田郡倶知安町",
    "city_kana": "アブタグンクッチャンチョウ",
    "town": "巽",
    "town_kana": "タツミ",
    "street": null,
    "office_name": null,
    "office_name_kana": null
  },
  "0075": {
    "postcode": "0440075",
    "prefecture": "北海道",
    "prefecture_kana": "ホッカイドウ",
    "prefecture_code": 1,
    "city": "虻田郡倶知安町",
    "city_kana": "アブタグンクッチャンチョウ",
    "town": "富士見",
    "town_kana": "フジミ",
    "street": null,
    "office_name": null,
    "office_name_kana": null
  },
  "0076": {
    "postcode": "0440076",
    "prefecture": "北海道",
    "prefecture_kana": "ホッカイドウ",
    "prefecture_code": 1,
    "city": "虻田郡倶知安町",
    "city_kana": "アブタグンクッチャンチョウ",
    "town": "高砂",
    "town_kana": "タカサゴ",
    "street": null,
    "office_name": null,
    "office_name_kana": null
  },
  "0077": {
    "postcode": "0440077",
    "prefecture": "北海道",
    "prefecture_kana": "ホッカイドウ",
    "prefecture_code": 1,
    "city": "虻田郡倶知安町",
    "city_kana": "アブタグンクッチャンチョウ",
    "town": "比羅夫",
    "town_kana": "ヒラフ",
    "street": null,
    "office_name": null,
    "office_name_kana": null
  },
  "0078": {
    "postcode": "0440078",
    "prefecture": "北海道",
    "prefecture_kana": "ホッカイドウ",
    "prefecture_code": 1,
    "city": "虻田郡倶知安町",
    "city_kana": "アブタグンクッチャンチョウ",
    "town": "樺山",
    "town_kana": "カバヤマ",
    "street": null,
    "office_name": null,
    "office_name_kana": null
  },
  "0080": {
    "postcode": "0440080",
    "prefecture": "北海道",
    "prefecture_kana": "ホッカイドウ",
    "prefecture_code": 1,
    "city": "虻田郡倶知安町",
    "city_kana": "アブタグンクッチャンチョウ",
    "town": "ニセコひらふ一条",
    "town_kana": "ニセコヒラフ1ジョウ",
    "street": null,
    "office_name": null,
    "office_name_kana": null
  },
  "0081": {
    "postcode": "0440081",
    "prefecture": "北海道",
    "prefecture_kana": "ホッカイドウ",
    "prefecture_code": 1,
    "city": "虻田郡倶知安町",
    "city_kana": "アブタグンクッチャンチョウ",
    "town": "山田",
    "town_kana": "ヤマダ",
    "street": null,
    "office_name": null,
    "office_name_kana": null
  },
  "0082": {
    "postcode": "0440082",
    "prefecture": "北海道",
    "prefecture_kana": "ホッカイドウ",
    "prefecture_code": 1,
    "city": "虻田郡倶知安町",
    "city_kana": "アブタグンクッチャンチョウ",
    "town": "岩尾別",
    "town_kana": "イワオベツ",
    "street": null,
    "office_name": null,
    "office_name_kana": null
  },
  "0083": {
    "postcode": "0440083",
    "prefecture": "北海道",
    "prefecture_kana": "ホッカイドウ",
    "prefecture_code": 1,
    "city": "虻田郡倶知安町",
    "city_kana": "アブタグンクッチャンチョウ",
    "town": "旭",
    "town_kana": "アサヒ",
    "street": null,
    "office_name": null,
    "office_name_kana": null
  },
  "0084": {
    "postcode": "0440084",
    "prefecture": "北海道",
    "prefecture_kana": "ホッカイドウ",
    "prefecture_code": 1,
    "city": "虻田郡倶知安町",
    "city_kana": "アブタグンクッチャンチョウ",
    "town": "花園",
    "town_kana": "ハナゾノ",
    "street": null,
    "office_name": null,
    "office_name_kana": null
  },
  "0085": {
    "postcode": "0440085",
    "prefecture": "北海道",
    "prefecture_kana": "ホッカイドウ",
    "prefecture_code": 1,
    "city": "虻田郡倶知安町",
    "city_kana": "アブタグンクッチャンチョウ",
    "town": "峠下",
    "town_kana": "トウゲシタ",
    "street": null,
    "office_name": null,
    "office_name_kana": null
  },
  "0086": {
    "postcode": "0440086",
    "prefecture": "北海道",
    "prefecture_kana": "ホッカイドウ",
    "prefecture_code": 1,
    "city": "虻田郡倶知安町",
    "city_kana": "アブタグンクッチャンチョウ",
    "town": "ニセコひらふ五条",
    "town_kana": "ニセコヒラフ5ジョウ",
    "street": null,
    "office_name": null,
    "office_name_kana": null
  },
  "0087": {
    "postcode": "0440087",
    "prefecture": "北海道",
    "prefecture_kana": "ホッカイドウ",
    "prefecture_code": 1,
    "city": "虻田郡倶知安町",
    "city_kana": "アブタグンクッチャンチョウ",
    "town": "ニセコひらふ四条",
    "town_kana": "ニセコヒラフ4ジョウ",
    "street": null,
    "office_name": null,
    "office_name_kana": null
  },
  "0088": {
    "postcode": "0440088",
    "prefecture": "北海道",
    "prefecture_kana": "ホッカイドウ",
    "prefecture_code": 1,
    "city": "虻田郡倶知安町",
    "city_kana": "アブタグンクッチャンチョウ",
    "town": "ニセコひらふ三条",
    "town_kana": "ニセコヒラフ3ジョウ",
    "street": null,
    "office_name": null,
    "office_name_kana": null
  },
  "0089": {
    "postcode": "0440089",
    "prefecture": "北海道",
    "prefecture_kana": "ホッカイドウ",
    "prefecture_code": 1,
    "city": "虻田郡倶知安町",
    "city_kana": "アブタグンクッチャンチョウ",
    "town": "ニセコひらふ二条",
    "town_kana": "ニセコヒラフ2ジョウ",
    "street": null,
    "office_name": null,
    "office_name_kana": null
  },
  "0100": {
    "postcode": "0440100",
    "prefecture": "北海道",
    "prefecture_kana": "ホッカイドウ",
    "prefecture_code": 1,
    "city": "虻田郡京極町",
    "city_kana": "アブタグンキョウゴクチョウ",
    "town": "",
    "town_kana": "",
    "street": null,
    "office_name": null,
    "office_name_kana": null
  },
  "0101": {
    "postcode": "0440101",
    "prefecture": "北海道",
    "prefecture_kana": "ホッカイドウ",
    "prefecture_code": 1,
    "city": "虻田郡京極町",
    "city_kana": "アブタグンキョウゴクチョウ",
    "town": "京極",
    "town_kana": "キョウゴク",
    "street": null,
    "office_name": null,
    "office_name_kana": null
  },
  "0111": {
    "postcode": "0440111",
    "prefecture": "北海道",
    "prefecture_kana": "ホッカイドウ",
    "prefecture_code": 1,
    "city": "虻田郡京極町",
    "city_kana": "アブタグンキョウゴクチョウ",
    "town": "北岡",
    "town_kana": "キタオカ",
    "street": null,
    "office_name": null,
    "office_name_kana": null
  },
  "0112": {
    "postcode": "0440112",
    "prefecture": "北海道",
    "prefecture_kana": "ホッカイドウ",
    "prefecture_code": 1,
    "city": "虻田郡京極町",
    "city_kana": "アブタグンキョウゴクチョウ",
    "town": "春日",
    "town_kana": "カスガ",
    "street": null,
    "office_name": null,
    "office_name_kana": null
  },
  "0113": {
    "postcode": "0440113",
    "prefecture": "北海道",
    "prefecture_kana": "ホッカイドウ",
    "prefecture_code": 1,
    "city": "虻田郡京極町",
    "city_kana": "アブタグンキョウゴクチョウ",
    "town": "松川",
    "town_kana": "マツカワ",
    "street": null,
    "office_name": null,
    "office_name_kana": null
  },
  "0121": {
    "postcode": "0440121",
    "prefecture": "北海道",
    "prefecture_kana": "ホッカイドウ",
    "prefecture_code": 1,
    "city": "虻田郡京極町",
    "city_kana": "アブタグンキョウゴクチョウ",
    "town": "三崎",
    "town_kana": "ミサキ",
    "street": null,
    "office_name": null,
    "office_name_kana": null
  },
  "0122": {
    "postcode": "0440122",
    "prefecture": "北海道",
    "prefecture_kana": "ホッカイドウ",
    "prefecture_code": 1,
    "city": "虻田郡京極町",
    "city_kana": "アブタグンキョウゴクチョウ",
    "town": "大富",
    "town_kana": "オオトミ",
    "street": null,
    "office_name": null,
    "office_name_kana": null
  },
  "0123": {
    "postcode": "0440123",
    "prefecture": "北海道",
    "prefecture_kana": "ホッカイドウ",
    "prefecture_code": 1,
    "city": "虻田郡京極町",
    "city_kana": "アブタグンキョウゴクチョウ",
    "town": "脇方",
    "town_kana": "ワキカタ",
    "street": null,
    "office_name": null,
    "office_name_kana": null
  },
  "0124": {
    "postcode": "0440124",
    "prefecture": "北海道",
    "prefecture_kana": "ホッカイドウ",
    "prefecture_code": 1,
    "city": "虻田郡京極町",
    "city_kana": "アブタグンキョウゴクチョウ",
    "town": "錦",
    "town_kana": "ニシキ",
    "street": null,
    "office_name": null,
    "office_name_kana": null
  },
  "0125": {
    "postcode": "0440125",
    "prefecture": "北海道",
    "prefecture_kana": "ホッカイドウ",
    "prefecture_code": 1,
    "city": "虻田郡京極町",
    "city_kana": "アブタグンキョウゴクチョウ",
    "town": "東花",
    "town_kana": "トウカ",
    "street": null,
    "office_name": null,
    "office_name_kana": null
  },
  "0131": {
    "postcode": "0440131",
    "prefecture": "北海道",
    "prefecture_kana": "ホッカイドウ",
    "prefecture_code": 1,
    "city": "虻田郡京極町",
    "city_kana": "アブタグンキョウゴクチョウ",
    "town": "川西",
    "town_kana": "カワニシ",
    "street": null,
    "office_name": null,
    "office_name_kana": null
  },
  "0132": {
    "postcode": "0440132",
    "prefecture": "北海道",
    "prefecture_kana": "ホッカイドウ",
    "prefecture_code": 1,
    "city": "虻田郡京極町",
    "city_kana": "アブタグンキョウゴクチョウ",
    "town": "更進",
    "town_kana": "コウシン",
    "street": null,
    "office_name": null,
    "office_name_kana": null
  },
  "0200": {
    "postcode": "0440200",
    "prefecture": "北海道",
    "prefecture_kana": "ホッカイドウ",
    "prefecture_code": 1,
    "city": "虻田郡喜茂別町",
    "city_kana": "アブタグンキモベツチョウ",
    "town": "",
    "town_kana": "",
    "street": null,
    "office_name": null,
    "office_name_kana": null
  },
  "0201": [
    {
      "postcode": "0440201",
      "prefecture": "北海道",
      "prefecture_kana": "ホッカイドウ",
      "prefecture_code": 1,
      "city": "虻田郡喜茂別町",
      "city_kana": "アブタグンキモベツチョウ",
      "town": "旭町",
      "town_kana": "アサヒチョウ",
      "street": null,
      "office_name": null,
      "office_name_kana": null
    },
    {
      "postcode": "0440201",
      "prefecture": "北海道",
      "prefecture_kana": "ホッカイドウ",
      "prefecture_code": 1,
      "city": "虻田郡喜茂別町",
      "city_kana": "アブタグンキモベツチョウ",
      "town": "大町",
      "town_kana": "オオマチ",
      "street": null,
      "office_name": null,
      "office_name_kana": null
    },
    {
      "postcode": "0440201",
      "prefecture": "北海道",
      "prefecture_kana": "ホッカイドウ",
      "prefecture_code": 1,
      "city": "虻田郡喜茂別町",
      "city_kana": "アブタグンキモベツチョウ",
      "town": "喜茂別",
      "town_kana": "キモベツ",
      "street": null,
      "office_name": null,
      "office_name_kana": null
    },
    {
      "postcode": "0440201",
      "prefecture": "北海道",
      "prefecture_kana": "ホッカイドウ",
      "prefecture_code": 1,
      "city": "虻田郡喜茂別町",
      "city_kana": "アブタグンキモベツチョウ",
      "town": "幸町",
      "town_kana": "サイワイチョウ",
      "street": null,
      "office_name": null,
      "office_name_kana": null
    },
    {
      "postcode": "0440201",
      "prefecture": "北海道",
      "prefecture_kana": "ホッカイドウ",
      "prefecture_code": 1,
      "city": "虻田郡喜茂別町",
      "city_kana": "アブタグンキモベツチョウ",
      "town": "末広町",
      "town_kana": "スエヒロチョウ",
      "street": null,
      "office_name": null,
      "office_name_kana": null
    },
    {
      "postcode": "0440201",
      "prefecture": "北海道",
      "prefecture_kana": "ホッカイドウ",
      "prefecture_code": 1,
      "city": "虻田郡喜茂別町",
      "city_kana": "アブタグンキモベツチョウ",
      "town": "本町",
      "town_kana": "ホンチョウ",
      "street": null,
      "office_name": null,
      "office_name_kana": null
    },
    {
      "postcode": "0440201",
      "prefecture": "北海道",
      "prefecture_kana": "ホッカイドウ",
      "prefecture_code": 1,
      "city": "虻田郡喜茂別町",
      "city_kana": "アブタグンキモベツチョウ",
      "town": "緑町",
      "town_kana": "ミドリチョウ",
      "street": null,
      "office_name": null,
      "office_name_kana": null
    }
  ],
  "0211": {
    "postcode": "0440211",
    "prefecture": "北海道",
    "prefecture_kana": "ホッカイドウ",
    "prefecture_code": 1,
    "city": "虻田郡喜茂別町",
    "city_kana": "アブタグンキモベツチョウ",
    "town": "富士見台",
    "town_kana": "フジミダイ",
    "street": null,
    "office_name": null,
    "office_name_kana": null
  },
  "0212": {
    "postcode": "0440212",
    "prefecture": "北海道",
    "prefecture_kana": "ホッカイドウ",
    "prefecture_code": 1,
    "city": "虻田郡喜茂別町",
    "city_kana": "アブタグンキモベツチョウ",
    "town": "留産",
    "town_kana": "ルサン",
    "street": null,
    "office_name": null,
    "office_name_kana": null
  },
  "0213": {
    "postcode": "0440213",
    "prefecture": "北海道",
    "prefecture_kana": "ホッカイドウ",
    "prefecture_code": 1,
    "city": "虻田郡喜茂別町",
    "city_kana": "アブタグンキモベツチョウ",
    "town": "比羅岡",
    "town_kana": "ヒラオカ",
    "street": null,
    "office_name": null,
    "office_name_kana": null
  },
  "0214": {
    "postcode": "0440214",
    "prefecture": "北海道",
    "prefecture_kana": "ホッカイドウ",
    "prefecture_code": 1,
    "city": "虻田郡喜茂別町",
    "city_kana": "アブタグンキモベツチョウ",
    "town": "尻別",
    "town_kana": "シリベツ",
    "street": null,
    "office_name": null,
    "office_name_kana": null
  },
  "0215": {
    "postcode": "0440215",
    "prefecture": "北海道",
    "prefecture_kana": "ホッカイドウ",
    "prefecture_code": 1,
    "city": "虻田郡喜茂別町",
    "city_kana": "アブタグンキモベツチョウ",
    "town": "相川",
    "town_kana": "アイカワ",
    "street": null,
    "office_name": null,
    "office_name_kana": null
  },
  "0221": {
    "postcode": "0440221",
    "prefecture": "北海道",
    "prefecture_kana": "ホッカイドウ",
    "prefecture_code": 1,
    "city": "虻田郡喜茂別町",
    "city_kana": "アブタグンキモベツチョウ",
    "town": "伏見",
    "town_kana": "フシミ",
    "street": null,
    "office_name": null,
    "office_name_kana": null
  },
  "0222": {
    "postcode": "0440222",
    "prefecture": "北海道",
    "prefecture_kana": "ホッカイドウ",
    "prefecture_code": 1,
    "city": "虻田郡喜茂別町",
    "city_kana": "アブタグンキモベツチョウ",
    "town": "栄",
    "town_kana": "サカエ",
    "street": null,
    "office_name": null,
    "office_name_kana": null
  },
  "0223": {
    "postcode": "0440223",
    "prefecture": "北海道",
    "prefecture_kana": "ホッカイドウ",
    "prefecture_code": 1,
    "city": "虻田郡喜茂別町",
    "city_kana": "アブタグンキモベツチョウ",
    "town": "川上",
    "town_kana": "カワカミ",
    "street": null,
    "office_name": null,
    "office_name_kana": null
  },
  "0224": {
    "postcode": "0440224",
    "prefecture": "北海道",
    "prefecture_kana": "ホッカイドウ",
    "prefecture_code": 1,
    "city": "虻田郡喜茂別町",
    "city_kana": "アブタグンキモベツチョウ",
    "town": "知来別",
    "town_kana": "チライベツ",
    "street": null,
    "office_name": null,
    "office_name_kana": null
  },
  "0225": {
    "postcode": "0440225",
    "prefecture": "北海道",
    "prefecture_kana": "ホッカイドウ",
    "prefecture_code": 1,
    "city": "虻田郡喜茂別町",
    "city_kana": "アブタグンキモベツチョウ",
    "town": "福島",
    "town_kana": "フクシマ",
    "street": null,
    "office_name": null,
    "office_name_kana": null
  },
  "0292": {
    "postcode": "0440292",
    "prefecture": "北海道",
    "prefecture_kana": "ホッカイドウ",
    "prefecture_code": 1,
    "city": "虻田郡喜茂別町",
    "city_kana": "アブタグンキモベツチョウ",
    "town": "字喜茂別",
    "town_kana": null,
    "street": "１２３（喜茂別郵便局私書箱第４号）",
    "office_name": "喜茂別町役場",
    "office_name_kana": "キモベツチヨウヤクバ"
  },
  "0295": {
    "postcode": "0440295",
    "prefecture": "北海道",
    "prefecture_kana": "ホッカイドウ",
    "prefecture_code": 1,
    "city": "虻田郡喜茂別町",
    "city_kana": "アブタグンキモベツチョウ",
    "town": "字喜茂別",
    "town_kana": null,
    "street": "８３（喜茂別郵便局私書箱第１号）",
    "office_name": "クレードル興農　株式会社　喜茂別工場",
    "office_name_kana": "クレ-ドルコウノウ カブシキガイシヤ キモベツコウジヨウ"
  },
  "0296": {
    "postcode": "0440296",
    "prefecture": "北海道",
    "prefecture_kana": "ホッカイドウ",
    "prefecture_code": 1,
    "city": "虻田郡喜茂別町",
    "city_kana": "アブタグンキモベツチョウ",
    "town": "字喜茂別",
    "town_kana": null,
    "street": "２９３−１（喜茂別郵便局私書箱第８号）",
    "office_name": "喜茂別町商工会",
    "office_name_kana": "キモベツチヨウシヨウコウカイ"
  },
  "0441": {
    "postcode": "0440441",
    "prefecture": "北海道",
    "prefecture_kana": "ホッカイドウ",
    "prefecture_code": 1,
    "city": "伊達市",
    "city_kana": "ダテシ",
    "town": "大滝区愛地町",
    "town_kana": "オオタキクアイチチョウ",
    "street": null,
    "office_name": null,
    "office_name_kana": null
  },
  "0442": {
    "postcode": "0440442",
    "prefecture": "北海道",
    "prefecture_kana": "ホッカイドウ",
    "prefecture_code": 1,
    "city": "伊達市",
    "city_kana": "ダテシ",
    "town": "大滝区宮城町",
    "town_kana": "オオタキクミヤギチョウ",
    "street": null,
    "office_name": null,
    "office_name_kana": null
  },
  "0443": {
    "postcode": "0440443",
    "prefecture": "北海道",
    "prefecture_kana": "ホッカイドウ",
    "prefecture_code": 1,
    "city": "伊達市",
    "city_kana": "ダテシ",
    "town": "大滝区清原町",
    "town_kana": "オオタキクキヨハラチョウ",
    "street": null,
    "office_name": null,
    "office_name_kana": null
  },
  "0444": {
    "postcode": "0440444",
    "prefecture": "北海道",
    "prefecture_kana": "ホッカイドウ",
    "prefecture_code": 1,
    "city": "伊達市",
    "city_kana": "ダテシ",
    "town": "大滝区豊里町",
    "town_kana": "オオタキクトヨサトチョウ",
    "street": null,
    "office_name": null,
    "office_name_kana": null
  },
  "0451": [
    {
      "postcode": "0440451",
      "prefecture": "北海道",
      "prefecture_kana": "ホッカイドウ",
      "prefecture_code": 1,
      "city": "虻田郡喜茂別町",
      "city_kana": "アブタグンキモベツチョウ",
      "town": "上尻別",
      "town_kana": "カミシリベツ",
      "street": null,
      "office_name": null,
      "office_name_kana": null
    },
    {
      "postcode": "0440451",
      "prefecture": "北海道",
      "prefecture_kana": "ホッカイドウ",
      "prefecture_code": 1,
      "city": "虻田郡喜茂別町",
      "city_kana": "アブタグンキモベツチョウ",
      "town": "鈴川",
      "town_kana": "スズカワ",
      "street": null,
      "office_name": null,
      "office_name_kana": null
    }
  ],
  "0452": {
    "postcode": "0440452",
    "prefecture": "北海道",
    "prefecture_kana": "ホッカイドウ",
    "prefecture_code": 1,
    "city": "虻田郡喜茂別町",
    "city_kana": "アブタグンキモベツチョウ",
    "town": "福丘",
    "town_kana": "フクオカ",
    "street": null,
    "office_name": null,
    "office_name_kana": null
  },
  "0453": [
    {
      "postcode": "0440453",
      "prefecture": "北海道",
      "prefecture_kana": "ホッカイドウ",
      "prefecture_code": 1,
      "city": "虻田郡喜茂別町",
      "city_kana": "アブタグンキモベツチョウ",
      "town": "共栄",
      "town_kana": "キョウサカエ",
      "street": null,
      "office_name": null,
      "office_name_kana": null
    },
    {
      "postcode": "0440453",
      "prefecture": "北海道",
      "prefecture_kana": "ホッカイドウ",
      "prefecture_code": 1,
      "city": "虻田郡喜茂別町",
      "city_kana": "アブタグンキモベツチョウ",
      "town": "御園",
      "town_kana": "ミソノ",
      "street": null,
      "office_name": null,
      "office_name_kana": null
    }
  ],
  "0454": {
    "postcode": "0440454",
    "prefecture": "北海道",
    "prefecture_kana": "ホッカイドウ",
    "prefecture_code": 1,
    "city": "虻田郡喜茂別町",
    "city_kana": "アブタグンキモベツチョウ",
    "town": "金山",
    "town_kana": "カナヤマ",
    "street": null,
    "office_name": null,
    "office_name_kana": null
  },
  "0461": [
    {
      "postcode": "0440461",
      "prefecture": "北海道",
      "prefecture_kana": "ホッカイドウ",
      "prefecture_code": 1,
      "city": "虻田郡喜茂別町",
      "city_kana": "アブタグンキモベツチョウ",
      "town": "中里",
      "town_kana": "ナカサト",
      "street": null,
      "office_name": null,
      "office_name_kana": null
    },
    {
      "postcode": "0440461",
      "prefecture": "北海道",
      "prefecture_kana": "ホッカイドウ",
      "prefecture_code": 1,
      "city": "虻田郡喜茂別町",
      "city_kana": "アブタグンキモベツチョウ",
      "town": "福里",
      "town_kana": "フクサト",
      "street": null,
      "office_name": null,
      "office_name_kana": null
    }
  ],
  "0462": {
    "postcode": "0440462",
    "prefecture": "北海道",
    "prefecture_kana": "ホッカイドウ",
    "prefecture_code": 1,
    "city": "虻田郡喜茂別町",
    "city_kana": "アブタグンキモベツチョウ",
    "town": "花丘",
    "town_kana": "ハナオカ",
    "street": null,
    "office_name": null,
    "office_name_kana": null
  },
  "0463": {
    "postcode": "0440463",
    "prefecture": "北海道",
    "prefecture_kana": "ホッカイドウ",
    "prefecture_code": 1,
    "city": "虻田郡喜茂別町",
    "city_kana": "アブタグンキモベツチョウ",
    "town": "双葉",
    "town_kana": "フタバ",
    "street": null,
    "office_name": null,
    "office_name_kana": null
  },
  "8544": {
    "postcode": "0448544",
    "prefecture": "北海道",
    "prefecture_kana": "ホッカイドウ",
    "prefecture_code": 1,
    "city": "虻田郡倶知安町",
    "city_kana": "アブタグンクッチャンチョウ",
    "town": "北一条東",
    "town_kana": "キタ1ジョウヒガシ",
    "street": "２丁目",
    "office_name": "北海道教育庁　後志教育局",
    "office_name_kana": "ホツカイドウキヨウイクチヨウ シリベシキヨウイクキヨク"
  },
  "8588": {
    "postcode": "0448588",
    "prefecture": "北海道",
    "prefecture_kana": "ホッカイドウ",
    "prefecture_code": 1,
    "city": "虻田郡倶知安町",
    "city_kana": "アブタグンクッチャンチョウ",
    "town": "北一条東",
    "town_kana": "キタ1ジョウヒガシ",
    "street": "２丁目",
    "office_name": "北海道　後志支庁",
    "office_name_kana": "ホツカイドウ シリベシシチヨウ"
  }
}