{
  "0000": {
    "postcode": "0460000",
    "prefecture": "北海道",
    "prefecture_kana": "ホッカイドウ",
    "prefecture_code": 1,
    "city": "余市郡余市町",
    "city_kana": "ヨイチグンヨイチチョウ",
    "town": "",
    "town_kana": "",
    "street": null,
    "office_name": null,
    "office_name_kana": null
  },
  "0001": {
    "postcode": "0460001",
    "prefecture": "北海道",
    "prefecture_kana": "ホッカイドウ",
    "prefecture_code": 1,
    "city": "余市郡余市町",
    "city_kana": "ヨイチグンヨイチチョウ",
    "town": "栄町",
    "town_kana": "サカエマチ",
    "street": null,
    "office_name": null,
    "office_name_kana": null
  },
  "0002": {
    "postcode": "0460002",
    "prefecture": "北海道",
    "prefecture_kana": "ホッカイドウ",
    "prefecture_code": 1,
    "city": "余市郡余市町",
    "city_kana": "ヨイチグンヨイチチョウ",
    "town": "登町",
    "town_kana": "ノボリチョウ",
    "street": null,
    "office_name": null,
    "office_name_kana": null
  },
  "0003": {
    "postcode": "0460003",
    "prefecture": "北海道",
    "prefecture_kana": "ホッカイドウ",
    "prefecture_code": 1,
    "city": "余市郡余市町",
    "city_kana": "ヨイチグンヨイチチョウ",
    "town": "黒川町",
    "town_kana": "クロカワチョウ",
    "street": null,
    "office_name": null,
    "office_name_kana": null
  },
  "0004": {
    "postcode": "0460004",
    "prefecture": "北海道",
    "prefecture_kana": "ホッカイドウ",
    "prefecture_code": 1,
    "city": "余市郡余市町",
    "city_kana": "ヨイチグンヨイチチョウ",
    "town": "大川町",
    "town_kana": "オオカワチョウ",
    "street": null,
    "office_name": null,
    "office_name_kana": null
  },
  "0011": {
    "postcode": "0460011",
    "prefecture": "北海道",
    "prefecture_kana": "ホッカイドウ",
    "prefecture_code": 1,
    "city": "余市郡余市町",
    "city_kana": "ヨイチグンヨイチチョウ",
    "town": "入舟町",
    "town_kana": "イリフネチョウ",
    "street": null,
    "office_name": null,
    "office_name_kana": null
  },
  "0012": {
    "postcode": "0460012",
    "prefecture": "北海道",
    "prefecture_kana": "ホッカイドウ",
    "prefecture_code": 1,
    "city": "余市郡余市町",
    "city_kana": "ヨイチグンヨイチチョウ",
    "town": "山田町",
    "town_kana": "ヤマダチョウ",
    "street": null,
    "office_name": null,
    "office_name_kana": null
  },
  "0013": {
    "postcode": "0460013",
    "prefecture": "北海道",
    "prefecture_kana": "ホッカイドウ",
    "prefecture_code": 1,
    "city": "余市郡余市町",
    "city_kana": "ヨイチグンヨイチチョウ",
    "town": "豊丘町",
    "town_kana": "トヨオカチョウ",
    "street": null,
    "office_name": null,
    "office_name_kana": null
  },
  "0014": {
    "postcode": "0460014",
    "prefecture": "北海道",
    "prefecture_kana": "ホッカイドウ",
    "prefecture_code": 1,
    "city": "余市郡余市町",
    "city_kana": "ヨイチグンヨイチチョウ",
    "town": "美園町",
    "town_kana": "ミソノチョウ",
    "street": null,
    "office_name": null,
    "office_name_kana": null
  },
  "0015": {
    "postcode": "0460015",
    "prefecture": "北海道",
    "prefecture_kana": "ホッカイドウ",
    "prefecture_code": 1,
    "city": "余市郡余市町",
    "city_kana": "ヨイチグンヨイチチョウ",
    "town": "朝日町",
    "town_kana": "アサヒチョウ",
    "street": null,
    "office_name": null,
    "office_name_kana": null
  },
  "0021": {
    "postcode": "0460021",
    "prefecture": "北海道",
    "prefecture_kana": "ホッカイドウ",
    "prefecture_code": 1,
    "city": "余市郡余市町",
    "city_kana": "ヨイチグンヨイチチョウ",
    "town": "浜中町",
    "town_kana": "ハマナカチョウ",
    "street": null,
    "office_name": null,
    "office_name_kana": null
  },
  "0022": {
    "postcode": "0460022",
    "prefecture": "北海道",
    "prefecture_kana": "ホッカイドウ",
    "prefecture_code": 1,
    "city": "余市郡余市町",
    "city_kana": "ヨイチグンヨイチチョウ",
    "town": "沢町",
    "town_kana": "サワマチ",
    "street": null,
    "office_name": null,
    "office_name_kana": null
  },
  "0023": {
    "postcode": "0460023",
    "prefecture": "北海道",
    "prefecture_kana": "ホッカイドウ",
    "prefecture_code": 1,
    "city": "余市郡余市町",
    "city_kana": "ヨイチグンヨイチチョウ",
    "town": "梅川町",
    "town_kana": "ウメカワチョウ",
    "street": null,
    "office_name": null,
    "office_name_kana": null
  },
  "0024": {
    "postcode": "0460024",
    "prefecture": "北海道",
    "prefecture_kana": "ホッカイドウ",
    "prefecture_code": 1,
    "city": "余市郡余市町",
    "city_kana": "ヨイチグンヨイチチョウ",
    "town": "港町",
    "town_kana": "ミナトマチ",
    "street": null,
    "office_name": null,
    "office_name_kana": null
  },
  "0025": {
    "postcode": "0460025",
    "prefecture": "北海道",
    "prefecture_kana": "ホッカイドウ",
    "prefecture_code": 1,
    "city": "余市郡余市町",
    "city_kana": "ヨイチグンヨイチチョウ",
    "town": "富沢町",
    "town_kana": "トミサワチョウ",
    "street": null,
    "office_name": null,
    "office_name_kana": null
  },
  "0031": {
    "postcode": "0460031",
    "prefecture": "北海道",
    "prefecture_kana": "ホッカイドウ",
    "prefecture_code": 1,
    "city": "余市郡余市町",
    "city_kana": "ヨイチグンヨイチチョウ",
    "town": "白岩町",
    "town_kana": "シロイワチョウ",
    "street": null,
    "office_name": null,
    "office_name_kana": null
  },
  "0032": {
    "postcode": "0460032",
    "prefecture": "北海道",
    "prefecture_kana": "ホッカイドウ",
    "prefecture_code": 1,
    "city": "余市郡余市町",
    "city_kana": "ヨイチグンヨイチチョウ",
    "town": "豊浜町",
    "town_kana": "トヨハマチョウ",
    "street": null,
    "office_name": null,
    "office_name_kana": null
  },
  "0033": {
    "postcode": "0460033",
    "prefecture": "北海道",
    "prefecture_kana": "ホッカイドウ",
    "prefecture_code": 1,
    "city": "余市郡余市町",
    "city_kana": "ヨイチグンヨイチチョウ",
    "town": "潮見町",
    "town_kana": "シオミチョウ",
    "street": null,
    "office_name": null,
    "office_name_kana": null
  },
  "0100": {
    "postcode": "0460100",
    "prefecture": "北海道",
    "prefecture_kana": "ホッカイドウ",
    "prefecture_code": 1,
    "city": "古平郡古平町",
    "city_kana": "フルビラグンフルビラチョウ",
    "town": "",
    "town_kana": "",
    "street": null,
    "office_name": null,
    "office_name_kana": null
  },
  "0101": {
    "postcode": "0460101",
    "prefecture": "北海道",
    "prefecture_kana": "ホッカイドウ",
    "prefecture_code": 1,
    "city": "古平郡古平町",
    "city_kana": "フルビラグンフルビラチョウ",
    "town": "御崎町",
    "town_kana": "ミサキチョウ",
    "street": null,
    "office_name": null,
    "office_name_kana": null
  },
  "0102": {
    "postcode": "0460102",
    "prefecture": "北海道",
    "prefecture_kana": "ホッカイドウ",
    "prefecture_code": 1,
    "city": "古平郡古平町",
    "city_kana": "フルビラグンフルビラチョウ",
    "town": "丸山町",
    "town_kana": "マルヤマチョウ",
    "street": null,
    "office_name": null,
    "office_name_kana": null
  },
  "0103": {
    "postcode": "0460103",
    "prefecture": "北海道",
    "prefecture_kana": "ホッカイドウ",
    "prefecture_code": 1,
    "city": "古平郡古平町",
    "city_kana": "フルビラグンフルビラチョウ",
    "town": "本町",
    "town_kana": "ホンチョウ",
    "street": null,
    "office_name": null,
    "office_name_kana": null
  },
  "0104": {
    "postcode": "0460104",
    "prefecture": "北海道",
    "prefecture_kana": "ホッカイドウ",
    "prefecture_code": 1,
    "city": "古平郡古平町",
    "city_kana": "フルビラグンフルビラチョウ",
    "town": "入船町",
    "town_kana": "イリフネチョウ",
    "street": null,
    "office_name": null,
    "office_name_kana": null
  },
  "0111": {
    "postcode": "0460111",
    "prefecture": "北海道",
    "prefecture_kana": "ホッカイドウ",
    "prefecture_code": 1,
    "city": "古平郡古平町",
    "city_kana": "フルビラグンフルビラチョウ",
    "town": "群来町",
    "town_kana": "クキチョウ",
    "street": null,
    "office_name": null,
    "office_name_kana": null
  },
  "0112": {
    "postcode": "0460112",
    "prefecture": "北海道",
    "prefecture_kana": "ホッカイドウ",
    "prefecture_code": 1,
    "city": "古平郡古平町",
    "city_kana": "フルビラグンフルビラチョウ",
    "town": "新地町",
    "town_kana": "シンチチョウ",
    "street": null,
    "office_name": null,
    "office_name_kana": null
  },
  "0113": {
    "postcode": "0460113",
    "prefecture": "北海道",
    "prefecture_kana": "ホッカイドウ",
    "prefecture_code": 1,
    "city": "古平郡古平町",
    "city_kana": "フルビラグンフルビラチョウ",
    "town": "港町",
    "town_kana": "ミナトマチ",
    "street": null,
    "office_name": null,
    "office_name_kana": null
  },
  "0121": {
    "postcode": "0460121",
    "prefecture": "北海道",
    "prefecture_kana": "ホッカイドウ",
    "prefecture_code": 1,
    "city": "古平郡古平町",
    "city_kana": "フルビラグンフルビラチョウ",
    "town": "浜町",
    "town_kana": "ハマチョウ",
    "street": null,
    "office_name": null,
    "office_name_kana": null
  },
  "0131": {
    "postcode": "0460131",
    "prefecture": "北海道",
    "prefecture_kana": "ホッカイドウ",
    "prefecture_code": 1,
    "city": "古平郡古平町",
    "city_kana": "フルビラグンフルビラチョウ",
    "town": "沢江町",
    "town_kana": "サワエチョウ",
    "street": null,
    "office_name": null,
    "office_name_kana": null
  },
  "0132": {
    "postcode": "0460132",
    "prefecture": "北海道",
    "prefecture_kana": "ホッカイドウ",
    "prefecture_code": 1,
    "city": "古平郡古平町",
    "city_kana": "フルビラグンフルビラチョウ",
    "town": "歌棄町",
    "town_kana": "ウタスツチョウ",
    "street": null,
    "office_name": null,
    "office_name_kana": null
  },
  "0133": {
    "postcode": "0460133",
    "prefecture": "北海道",
    "prefecture_kana": "ホッカイドウ",
    "prefecture_code": 1,
    "city": "古平郡古平町",
    "city_kana": "フルビラグンフルビラチョウ",
    "town": "沖町",
    "town_kana": "オキチョウ",
    "street": null,
    "office_name": null,
    "office_name_kana": null
  },
  "0192": {
    "postcode": "0460192",
    "prefecture": "北海道",
    "prefecture_kana": "ホッカイドウ",
    "prefecture_code": 1,
    "city": "古平郡古平町",
    "city_kana": "フルビラグンフルビラチョウ",
    "town": "大字浜町",
    "town_kana": null,
    "street": "４０番地４",
    "office_name": "古平町役場",
    "office_name_kana": "フルビラチヨウヤクバ"
  },
  "0194": {
    "postcode": "0460194",
    "prefecture": "北海道",
    "prefecture_kana": "ホッカイドウ",
    "prefecture_code": 1,
    "city": "古平郡古平町",
    "city_kana": "フルビラグンフルビラチョウ",
    "town": "大字歌棄町",
    "town_kana": null,
    "street": "２０４番地",
    "office_name": "社会福祉法人　古平福祉会",
    "office_name_kana": "シヤカイフクシホウジン フルビラフクシカイ"
  },
  "0200": {
    "postcode": "0460200",
    "prefecture": "北海道",
    "prefecture_kana": "ホッカイドウ",
    "prefecture_code": 1,
    "city": "積丹郡積丹町",
    "city_kana": "シャコタングンシャコタンチョウ",
    "town": "",
    "town_kana": "",
    "street": null,
    "office_name": null,
    "office_name_kana": null
  },
  "0201": {
    "postcode": "0460201",
    "prefecture": "北海道",
    "prefecture_kana": "ホッカイドウ",
    "prefecture_code": 1,
    "city": "積丹郡積丹町",
    "city_kana": "シャコタングンシャコタンチョウ",
    "town": "美国町",
    "town_kana": "ビクニチョウ",
    "street": null,
    "office_name": null,
    "office_name_kana": null
  },
  "0202": {
    "postcode": "0460202",
    "prefecture": "北海道",
    "prefecture_kana": "ホッカイドウ",
    "prefecture_code": 1,
    "city": "積丹郡積丹町",
    "city_kana": "シャコタングンシャコタンチョウ",
    "town": "婦美町",
    "town_kana": "フミチョウ",
    "street": null,
    "office_name": null,
    "office_name_kana": null
  },
  "0292": {
    "postcode": "0460292",
    "prefecture": "北海道",
    "prefecture_kana": "ホッカイドウ",
    "prefecture_code": 1,
    "city": "積丹郡積丹町",
    "city_kana": "シャコタングンシャコタンチョウ",
    "town": "大字美国町",
    "town_kana": null,
    "street": "字船澗４８番地",
    "office_name": "積丹町役場",
    "office_name_kana": "シヤコタンチヨウヤクバ"
  },
  "0321": {
    "postcode": "0460321",
    "prefecture": "北海道",
    "prefecture_kana": "ホッカイドウ",
    "prefecture_code": 1,
    "city": "積丹郡積丹町",
    "city_kana": "シャコタングンシャコタンチョウ",
    "town": "神岬町",
    "town_kana": "コウザキチョウ",
    "street": null,
    "office_name": null,
    "office_name_kana": null
  },
  "0322": {
    "postcode": "0460322",
    "prefecture": "北海道",
    "prefecture_kana": "ホッカイドウ",
    "prefecture_code": 1,
    "city": "積丹郡積丹町",
    "city_kana": "シャコタングンシャコタンチョウ",
    "town": "余別町",
    "town_kana": "ヨベツチョウ",
    "street": null,
    "office_name": null,
    "office_name_kana": null
  },
  "0323": {
    "postcode": "0460323",
    "prefecture": "北海道",
    "prefecture_kana": "ホッカイドウ",
    "prefecture_code": 1,
    "city": "積丹郡積丹町",
    "city_kana": "シャコタングンシャコタンチョウ",
    "town": "来岸町",
    "town_kana": "ライキシチョウ",
    "street": null,
    "office_name": null,
    "office_name_kana": null
  },
  "0324": {
    "postcode": "0460324",
    "prefecture": "北海道",
    "prefecture_kana": "ホッカイドウ",
    "prefecture_code": 1,
    "city": "積丹郡積丹町",
    "city_kana": "シャコタングンシャコタンチョウ",
    "town": "西河町",
    "town_kana": "ニシカワチョウ",
    "street": null,
    "office_name": null,
    "office_name_kana": null
  },
  "0325": {
    "postcode": "0460325",
    "prefecture": "北海道",
    "prefecture_kana": "ホッカイドウ",
    "prefecture_code": 1,
    "city": "積丹郡積丹町",
    "city_kana": "シャコタングンシャコタンチョウ",
    "town": "野塚町",
    "town_kana": "ノヅカチョウ",
    "street": null,
    "office_name": null,
    "office_name_kana": null
  },
  "0326": {
    "postcode": "0460326",
    "prefecture": "北海道",
    "prefecture_kana": "ホッカイドウ",
    "prefecture_code": 1,
    "city": "積丹郡積丹町",
    "city_kana": "シャコタングンシャコタンチョウ",
    "town": "日司町",
    "town_kana": "ヒヅカチョウ",
    "street": null,
    "office_name": null,
    "office_name_kana": null
  },
  "0327": {
    "postcode": "0460327",
    "prefecture": "北海道",
    "prefecture_kana": "ホッカイドウ",
    "prefecture_code": 1,
    "city": "積丹郡積丹町",
    "city_kana": "シャコタングンシャコタンチョウ",
    "town": "入舸町",
    "town_kana": "イリカチョウ",
    "street": null,
    "office_name": null,
    "office_name_kana": null
  },
  "0328": {
    "postcode": "0460328",
    "prefecture": "北海道",
    "prefecture_kana": "ホッカイドウ",
    "prefecture_code": 1,
    "city": "積丹郡積丹町",
    "city_kana": "シャコタングンシャコタンチョウ",
    "town": "幌武意町",
    "town_kana": "ホロムイチョウ",
    "street": null,
    "office_name": null,
    "office_name_kana": null
  },
  "0500": {
    "postcode": "0460500",
    "prefecture": "北海道",
    "prefecture_kana": "ホッカイドウ",
    "prefecture_code": 1,
    "city": "余市郡赤井川村",
    "city_kana": "ヨイチグンアカイガワムラ",
    "town": "",
    "town_kana": "",
    "street": null,
    "office_name": null,
    "office_name_kana": null
  },
  "0501": {
    "postcode": "0460501",
    "prefecture": "北海道",
    "prefecture_kana": "ホッカイドウ",
    "prefecture_code": 1,
    "city": "余市郡赤井川村",
    "city_kana": "ヨイチグンアカイガワムラ",
    "town": "赤井川",
    "town_kana": "アカイガワ",
    "street": null,
    "office_name": null,
    "office_name_kana": null
  },
  "0511": {
    "postcode": "0460511",
    "prefecture": "北海道",
    "prefecture_kana": "ホッカイドウ",
    "prefecture_code": 1,
    "city": "余市郡赤井川村",
    "city_kana": "ヨイチグンアカイガワムラ",
    "town": "日ノ出",
    "town_kana": "ヒノデ",
    "street": null,
    "office_name": null,
    "office_name_kana": null
  },
  "0512": {
    "postcode": "0460512",
    "prefecture": "北海道",
    "prefecture_kana": "ホッカイドウ",
    "prefecture_code": 1,
    "city": "余市郡赤井川村",
    "city_kana": "ヨイチグンアカイガワムラ",
    "town": "山梨",
    "town_kana": "ヤマナシ",
    "street": null,
    "office_name": null,
    "office_name_kana": null
  },
  "0521": {
    "postcode": "0460521",
    "prefecture": "北海道",
    "prefecture_kana": "ホッカイドウ",
    "prefecture_code": 1,
    "city": "余市郡赤井川村",
    "city_kana": "ヨイチグンアカイガワムラ",
    "town": "池田",
    "town_kana": "イケダ",
    "street": null,
    "office_name": null,
    "office_name_kana": null
  },
  "0531": {
    "postcode": "0460531",
    "prefecture": "北海道",
    "prefecture_kana": "ホッカイドウ",
    "prefecture_code": 1,
    "city": "余市郡赤井川村",
    "city_kana": "ヨイチグンアカイガワムラ",
    "town": "旭丘",
    "town_kana": "アサヒオカ",
    "street": null,
    "office_name": null,
    "office_name_kana": null
  },
  "0532": {
    "postcode": "0460532",
    "prefecture": "北海道",
    "prefecture_kana": "ホッカイドウ",
    "prefecture_code": 1,
    "city": "余市郡赤井川村",
    "city_kana": "ヨイチグンアカイガワムラ",
    "town": "富田",
    "town_kana": "トミタ",
    "street": null,
    "office_name": null,
    "office_name_kana": null
  },
  "0541": {
    "postcode": "0460541",
    "prefecture": "北海道",
    "prefecture_kana": "ホッカイドウ",
    "prefecture_code": 1,
    "city": "余市郡赤井川村",
    "city_kana": "ヨイチグンアカイガワムラ",
    "town": "都",
    "town_kana": "ミヤコ",
    "street": null,
    "office_name": null,
    "office_name_kana": null
  },
  "0542": {
    "postcode": "0460542",
    "prefecture": "北海道",
    "prefecture_kana": "ホッカイドウ",
    "prefecture_code": 1,
    "city": "余市郡赤井川村",
    "city_kana": "ヨイチグンアカイガワムラ",
    "town": "曲川",
    "town_kana": "マガリカワ",
    "street": null,
    "office_name": null,
    "office_name_kana": null
  },
  "0551": {
    "postcode": "0460551",
    "prefecture": "北海道",
    "prefecture_kana": "ホッカイドウ",
    "prefecture_code": 1,
    "city": "余市郡赤井川村",
    "city_kana": "ヨイチグンアカイガワムラ",
    "town": "轟",
    "town_kana": "トドロキ",
    "street": null,
    "office_name": null,
    "office_name_kana": null
  },
  "0552": {
    "postcode": "0460552",
    "prefecture": "北海道",
    "prefecture_kana": "ホッカイドウ",
    "prefecture_code": 1,
    "city": "余市郡赤井川村",
    "city_kana": "ヨイチグンアカイガワムラ",
    "town": "明治",
    "town_kana": "メイジ",
    "street": null,
    "office_name": null,
    "office_name_kana": null
  },
  "0561": {
    "postcode": "0460561",
    "prefecture": "北海道",
    "prefecture_kana": "ホッカイドウ",
    "prefecture_code": 1,
    "city": "余市郡赤井川村",
    "city_kana": "ヨイチグンアカイガワムラ",
    "town": "落合",
    "town_kana": "オチアイ",
    "street": null,
    "office_name": null,
    "office_name_kana": null
  },
  "0571": {
    "postcode": "0460571",
    "prefecture": "北海道",
    "prefecture_kana": "ホッカイドウ",
    "prefecture_code": 1,
    "city": "余市郡赤井川村",
    "city_kana": "ヨイチグンアカイガワムラ",
    "town": "常盤",
    "town_kana": "トキワ",
    "street": null,
    "office_name": null,
    "office_name_kana": null
  },
  "0592": {
    "postcode": "0460592",
    "prefecture": "北海道",
    "prefecture_kana": "ホッカイドウ",
    "prefecture_code": 1,
    "city": "余市郡赤井川村",
    "city_kana": "ヨイチグンアカイガワムラ",
    "town": "字赤井川",
    "town_kana": null,
    "street": "７４番地の２",
    "office_name": "赤井川村役場",
    "office_name_kana": "アカイガワムラヤクバ"
  },
  "0593": {
    "postcode": "0460593",
    "prefecture": "北海道",
    "prefecture_kana": "ホッカイドウ",
    "prefecture_code": 1,
    "city": "余市郡赤井川村",
    "city_kana": "ヨイチグンアカイガワムラ",
    "town": "字常盤",
    "town_kana": null,
    "street": "１２８番地１",
    "office_name": "（株）　キロロアソシエイツ",
    "office_name_kana": "(カブ) キロロアソシエイツ"
  },
  "0594": {
    "postcode": "0460594",
    "prefecture": "北海道",
    "prefecture_kana": "ホッカイドウ",
    "prefecture_code": 1,
    "city": "余市郡赤井川村",
    "city_kana": "ヨイチグンアカイガワムラ",
    "town": "字日ノ出",
    "town_kana": null,
    "street": "１４３−２",
    "office_name": "小樽赤井川ゴルフクラブ",
    "office_name_kana": "オタルアカイガワゴルフクラブ"
  },
  "8546": {
    "postcode": "0468546",
    "prefecture": "北海道",
    "prefecture_kana": "ホッカイドウ",
    "prefecture_code": 1,
    "city": "余市郡余市町",
    "city_kana": "ヨイチグンヨイチチョウ",
    "town": "朝日町",
    "town_kana": "アサヒチョウ",
    "street": "２６番地",
    "office_name": "余市町役場",
    "office_name_kana": "ヨイチチヨウヤクバ"
  },
  "8555": {
    "postcode": "0468555",
    "prefecture": "北海道",
    "prefecture_kana": "ホッカイドウ",
    "prefecture_code": 1,
    "city": "余市郡余市町",
    "city_kana": "ヨイチグンヨイチチョウ",
    "town": "浜中町",
    "town_kana": "ハマナカチョウ",
    "street": "２３８番地",
    "office_name": "北海道立　中央水産試験場",
    "office_name_kana": "ホツカイドウリツ チユウオウスイサンシケンジヨウ"
  },
  "8686": {
    "postcode": "0468686",
    "prefecture": "北海道",
    "prefecture_kana": "ホッカイドウ",
    "prefecture_code": 1,
    "city": "余市郡余市町",
    "city_kana": "ヨイチグンヨイチチョウ",
    "town": "黒川町",
    "town_kana": "クロカワチョウ",
    "street": "４丁目５番地（余市郵便局私書箱第３号）",
    "office_name": "北海信用金庫",
    "office_name_kana": "ホツカイシンヨウキンコ"
  }
}