{
  "0000": {
    "postcode": "0470000",
    "prefecture": "北海道",
    "prefecture_kana": "ホッカイドウ",
    "prefecture_code": 1,
    "city": "小樽市",
    "city_kana": "オタルシ",
    "town": "",
    "town_kana": "",
    "street": null,
    "office_name": null,
    "office_name_kana": null
  },
  "0001": {
    "postcode": "0470001",
    "prefecture": "北海道",
    "prefecture_kana": "ホッカイドウ",
    "prefecture_code": 1,
    "city": "小樽市",
    "city_kana": "オタルシ",
    "town": "若竹町",
    "town_kana": "ワカタケチョウ",
    "street": null,
    "office_name": null,
    "office_name_kana": null
  },
  "0002": {
    "postcode": "0470002",
    "prefecture": "北海道",
    "prefecture_kana": "ホッカイドウ",
    "prefecture_code": 1,
    "city": "小樽市",
    "city_kana": "オタルシ",
    "town": "潮見台",
    "town_kana": "シオミダイ",
    "street": null,
    "office_name": null,
    "office_name_kana": null
  },
  "0003": {
    "postcode": "0470003",
    "prefecture": "北海道",
    "prefecture_kana": "ホッカイドウ",
    "prefecture_code": 1,
    "city": "小樽市",
    "city_kana": "オタルシ",
    "town": "真栄",
    "town_kana": "マサカエ",
    "street": null,
    "office_name": null,
    "office_name_kana": null
  },
  "0004": {
    "postcode": "0470004",
    "prefecture": "北海道",
    "prefecture_kana": "ホッカイドウ",
    "prefecture_code": 1,
    "city": "小樽市",
    "city_kana": "オタルシ",
    "town": "新富町",
    "town_kana": "シントミチョウ",
    "street": null,
    "office_name": null,
    "office_name_kana": null
  },
  "0005": {
    "postcode": "0470005",
    "prefecture": "北海道",
    "prefecture_kana": "ホッカイドウ",
    "prefecture_code": 1,
    "city": "小樽市",
    "city_kana": "オタルシ",
    "town": "勝納町",
    "town_kana": "カツナイチョウ",
    "street": null,
    "office_name": null,
    "office_name_kana": null
  },
  "0006": {
    "postcode": "0470006",
    "prefecture": "北海道",
    "prefecture_kana": "ホッカイドウ",
    "prefecture_code": 1,
    "city": "小樽市",
    "city_kana": "オタルシ",
    "town": "有幌町",
    "town_kana": "アリホロチョウ",
    "street": null,
    "office_name": null,
    "office_name_kana": null
  },
  "0007": {
    "postcode": "0470007",
    "prefecture": "北海道",
    "prefecture_kana": "ホッカイドウ",
    "prefecture_code": 1,
    "city": "小樽市",
    "city_kana": "オタルシ",
    "town": "港町",
    "town_kana": "ミナトマチ",
    "street": null,
    "office_name": null,
    "office_name_kana": null
  },
  "0008": {
    "postcode": "0470008",
    "prefecture": "北海道",
    "prefecture_kana": "ホッカイドウ",
    "prefecture_code": 1,
    "city": "小樽市",
    "city_kana": "オタルシ",
    "town": "築港",
    "town_kana": "チッコウ",
    "street": null,
    "office_name": null,
    "office_name_kana": null
  },
  "0011": {
    "postcode": "0470011",
    "prefecture": "北海道",
    "prefecture_kana": "ホッカイドウ",
    "prefecture_code": 1,
    "city": "小樽市",
    "city_kana": "オタルシ",
    "town": "天神",
    "town_kana": "テンジン",
    "street": null,
    "office_name": null,
    "office_name_kana": null
  },
  "0012": {
    "postcode": "0470012",
    "prefecture": "北海道",
    "prefecture_kana": "ホッカイドウ",
    "prefecture_code": 1,
    "city": "小樽市",
    "city_kana": "オタルシ",
    "town": "天狗山",
    "town_kana": "テングヤマ",
    "street": null,
    "office_name": null,
    "office_name_kana": null
  },
  "0013": {
    "postcode": "0470013",
    "prefecture": "北海道",
    "prefecture_kana": "ホッカイドウ",
    "prefecture_code": 1,
    "city": "小樽市",
    "city_kana": "オタルシ",
    "town": "奥沢",
    "town_kana": "オクサワ",
    "street": null,
    "office_name": null,
    "office_name_kana": null
  },
  "0014": {
    "postcode": "0470014",
    "prefecture": "北海道",
    "prefecture_kana": "ホッカイドウ",
    "prefecture_code": 1,
    "city": "小樽市",
    "city_kana": "オタルシ",
    "town": "住ノ江",
    "town_kana": "スミノエ",
    "street": null,
    "office_name": null,
    "office_name_kana": null
  },
  "0015": {
    "postcode": "0470015",
    "prefecture": "北海道",
    "prefecture_kana": "ホッカイドウ",
    "prefecture_code": 1,
    "city": "小樽市",
    "city_kana": "オタルシ",
    "town": "住吉町",
    "town_kana": "スミヨシチョウ",
    "street": null,
    "office_name": null,
    "office_name_kana": null
  },
  "0016": {
    "postcode": "0470016",
    "prefecture": "北海道",
    "prefecture_kana": "ホッカイドウ",
    "prefecture_code": 1,
    "city": "小樽市",
    "city_kana": "オタルシ",
    "town": "信香町",
    "town_kana": "ノブカチョウ",
    "street": null,
    "office_name": null,
    "office_name_kana": null
  },
  "0017": {
    "postcode": "0470017",
    "prefecture": "北海道",
    "prefecture_kana": "ホッカイドウ",
    "prefecture_code": 1,
    "city": "小樽市",
    "city_kana": "オタルシ",
    "town": "若松",
    "town_kana": "ワカマツ",
    "street": null,
    "office_name": null,
    "office_name_kana": null
  },
  "0021": {
    "postcode": "0470021",
    "prefecture": "北海道",
    "prefecture_kana": "ホッカイドウ",
    "prefecture_code": 1,
    "city": "小樽市",
    "city_kana": "オタルシ",
    "town": "入船",
    "town_kana": "イリフネ",
    "street": null,
    "office_name": null,
    "office_name_kana": null
  },
  "0022": {
    "postcode": "0470022",
    "prefecture": "北海道",
    "prefecture_kana": "ホッカイドウ",
    "prefecture_code": 1,
    "city": "小樽市",
    "city_kana": "オタルシ",
    "town": "松ケ枝",
    "town_kana": "マツガエ",
    "street": null,
    "office_name": null,
    "office_name_kana": null
  },
  "0023": {
    "postcode": "0470023",
    "prefecture": "北海道",
    "prefecture_kana": "ホッカイドウ",
    "prefecture_code": 1,
    "city": "小樽市",
    "city_kana": "オタルシ",
    "town": "最上",
    "town_kana": "モガミ",
    "street": null,
    "office_name": null,
    "office_name_kana": null
  },
  "0024": {
    "postcode": "0470024",
    "prefecture": "北海道",
    "prefecture_kana": "ホッカイドウ",
    "prefecture_code": 1,
    "city": "小樽市",
    "city_kana": "オタルシ",
    "town": "花園",
    "town_kana": "ハナゾノ",
    "street": null,
    "office_name": null,
    "office_name_kana": null
  },
  "0025": {
    "postcode": "0470025",
    "prefecture": "北海道",
    "prefecture_kana": "ホッカイドウ",
    "prefecture_code": 1,
    "city": "小樽市",
    "city_kana": "オタルシ",
    "town": "山田町",
    "town_kana": "ヤマダマチ",
    "street": null,
    "office_name": null,
    "office_name_kana": null
  },
  "0026": {
    "postcode": "0470026",
    "prefecture": "北海道",
    "prefecture_kana": "ホッカイドウ",
    "prefecture_code": 1,
    "city": "小樽市",
    "city_kana": "オタルシ",
    "town": "東雲町",
    "town_kana": "シノノメチョウ",
    "street": null,
    "office_name": null,
    "office_name_kana": null
  },
  "0027": {
    "postcode": "0470027",
    "prefecture": "北海道",
    "prefecture_kana": "ホッカイドウ",
    "prefecture_code": 1,
    "city": "小樽市",
    "city_kana": "オタルシ",
    "town": "堺町",
    "town_kana": "サカイマチ",
    "street": null,
    "office_name": null,
    "office_name_kana": null
  },
  "0028": {
    "postcode": "0470028",
    "prefecture": "北海道",
    "prefecture_kana": "ホッカイドウ",
    "prefecture_code": 1,
    "city": "小樽市",
    "city_kana": "オタルシ",
    "town": "相生町",
    "town_kana": "アイオイチョウ",
    "street": null,
    "office_name": null,
    "office_name_kana": null
  },
  "0031": {
    "postcode": "0470031",
    "prefecture": "北海道",
    "prefecture_kana": "ホッカイドウ",
    "prefecture_code": 1,
    "city": "小樽市",
    "city_kana": "オタルシ",
    "town": "色内",
    "town_kana": "イロナイ",
    "street": null,
    "office_name": null,
    "office_name_kana": null
  },
  "0032": {
    "postcode": "0470032",
    "prefecture": "北海道",
    "prefecture_kana": "ホッカイドウ",
    "prefecture_code": 1,
    "city": "小樽市",
    "city_kana": "オタルシ",
    "town": "稲穂",
    "town_kana": "イナホ",
    "street": null,
    "office_name": null,
    "office_name_kana": null
  },
  "0033": {
    "postcode": "0470033",
    "prefecture": "北海道",
    "prefecture_kana": "ホッカイドウ",
    "prefecture_code": 1,
    "city": "小樽市",
    "city_kana": "オタルシ",
    "town": "富岡",
    "town_kana": "トミオカ",
    "street": null,
    "office_name": null,
    "office_name_kana": null
  },
  "0034": {
    "postcode": "0470034",
    "prefecture": "北海道",
    "prefecture_kana": "ホッカイドウ",
    "prefecture_code": 1,
    "city": "小樽市",
    "city_kana": "オタルシ",
    "town": "緑",
    "town_kana": "ミドリ",
    "street": null,
    "office_name": null,
    "office_name_kana": null
  },
  "0035": {
    "postcode": "0470035",
    "prefecture": "北海道",
    "prefecture_kana": "ホッカイドウ",
    "prefecture_code": 1,
    "city": "小樽市",
    "city_kana": "オタルシ",
    "town": "旭町",
    "town_kana": "アサヒマチ",
    "street": null,
    "office_name": null,
    "office_name_kana": null
  },
  "0036": {
    "postcode": "0470036",
    "prefecture": "北海道",
    "prefecture_kana": "ホッカイドウ",
    "prefecture_code": 1,
    "city": "小樽市",
    "city_kana": "オタルシ",
    "town": "長橋",
    "town_kana": "ナガハシ",
    "street": null,
    "office_name": null,
    "office_name_kana": null
  },
  "0037": {
    "postcode": "0470037",
    "prefecture": "北海道",
    "prefecture_kana": "ホッカイドウ",
    "prefecture_code": 1,
    "city": "小樽市",
    "city_kana": "オタルシ",
    "town": "幸",
    "town_kana": "サイワイ",
    "street": null,
    "office_name": null,
    "office_name_kana": null
  },
  "0038": {
    "postcode": "0470038",
    "prefecture": "北海道",
    "prefecture_kana": "ホッカイドウ",
    "prefecture_code": 1,
    "city": "小樽市",
    "city_kana": "オタルシ",
    "town": "石山町",
    "town_kana": "イシヤマチョウ",
    "street": null,
    "office_name": null,
    "office_name_kana": null
  },
  "0039": {
    "postcode": "0470039",
    "prefecture": "北海道",
    "prefecture_kana": "ホッカイドウ",
    "prefecture_code": 1,
    "city": "小樽市",
    "city_kana": "オタルシ",
    "town": "錦町",
    "town_kana": "ニシキマチ",
    "street": null,
    "office_name": null,
    "office_name_kana": null
  },
  "0041": {
    "postcode": "0470041",
    "prefecture": "北海道",
    "prefecture_kana": "ホッカイドウ",
    "prefecture_code": 1,
    "city": "小樽市",
    "city_kana": "オタルシ",
    "town": "手宮",
    "town_kana": "テミヤ",
    "street": null,
    "office_name": null,
    "office_name_kana": null
  },
  "0042": {
    "postcode": "0470042",
    "prefecture": "北海道",
    "prefecture_kana": "ホッカイドウ",
    "prefecture_code": 1,
    "city": "小樽市",
    "city_kana": "オタルシ",
    "town": "末広町",
    "town_kana": "スエヒロチョウ",
    "street": null,
    "office_name": null,
    "office_name_kana": null
  },
  "0043": {
    "postcode": "0470043",
    "prefecture": "北海道",
    "prefecture_kana": "ホッカイドウ",
    "prefecture_code": 1,
    "city": "小樽市",
    "city_kana": "オタルシ",
    "town": "豊川町",
    "town_kana": "トヨカワチョウ",
    "street": null,
    "office_name": null,
    "office_name_kana": null
  },
  "0044": {
    "postcode": "0470044",
    "prefecture": "北海道",
    "prefecture_kana": "ホッカイドウ",
    "prefecture_code": 1,
    "city": "小樽市",
    "city_kana": "オタルシ",
    "town": "梅ケ枝町",
    "town_kana": "ウメガエチョウ",
    "street": null,
    "office_name": null,
    "office_name_kana": null
  },
  "0045": {
    "postcode": "0470045",
    "prefecture": "北海道",
    "prefecture_kana": "ホッカイドウ",
    "prefecture_code": 1,
    "city": "小樽市",
    "city_kana": "オタルシ",
    "town": "清水町",
    "town_kana": "シミズチョウ",
    "street": null,
    "office_name": null,
    "office_name_kana": null
  },
  "0046": {
    "postcode": "0470046",
    "prefecture": "北海道",
    "prefecture_kana": "ホッカイドウ",
    "prefecture_code": 1,
    "city": "小樽市",
    "city_kana": "オタルシ",
    "town": "赤岩",
    "town_kana": "アカイワ",
    "street": null,
    "office_name": null,
    "office_name_kana": null
  },
  "0047": {
    "postcode": "0470047",
    "prefecture": "北海道",
    "prefecture_kana": "ホッカイドウ",
    "prefecture_code": 1,
    "city": "小樽市",
    "city_kana": "オタルシ",
    "town": "祝津",
    "town_kana": "シュクツ",
    "street": null,
    "office_name": null,
    "office_name_kana": null
  },
  "0048": {
    "postcode": "0470048",
    "prefecture": "北海道",
    "prefecture_kana": "ホッカイドウ",
    "prefecture_code": 1,
    "city": "小樽市",
    "city_kana": "オタルシ",
    "town": "高島",
    "town_kana": "タカシマ",
    "street": null,
    "office_name": null,
    "office_name_kana": null
  },
  "0151": {
    "postcode": "0470151",
    "prefecture": "北海道",
    "prefecture_kana": "ホッカイドウ",
    "prefecture_code": 1,
    "city": "小樽市",
    "city_kana": "オタルシ",
    "town": "朝里",
    "town_kana": "アサリ",
    "street": null,
    "office_name": null,
    "office_name_kana": null
  },
  "0152": {
    "postcode": "0470152",
    "prefecture": "北海道",
    "prefecture_kana": "ホッカイドウ",
    "prefecture_code": 1,
    "city": "小樽市",
    "city_kana": "オタルシ",
    "town": "新光",
    "town_kana": "シンコウ",
    "street": null,
    "office_name": null,
    "office_name_kana": null
  },
  "0153": {
    "postcode": "0470153",
    "prefecture": "北海道",
    "prefecture_kana": "ホッカイドウ",
    "prefecture_code": 1,
    "city": "小樽市",
    "city_kana": "オタルシ",
    "town": "新光町",
    "town_kana": "シンコウチョウ",
    "street": null,
    "office_name": null,
    "office_name_kana": null
  },
  "0154": {
    "postcode": "0470154",
    "prefecture": "北海道",
    "prefecture_kana": "ホッカイドウ",
    "prefecture_code": 1,
    "city": "小樽市",
    "city_kana": "オタルシ",
    "town": "朝里川温泉",
    "town_kana": "アサリガワオンセン",
    "street": null,
    "office_name": null,
    "office_name_kana": null
  },
  "0155": {
    "postcode": "0470155",
    "prefecture": "北海道",
    "prefecture_kana": "ホッカイドウ",
    "prefecture_code": 1,
    "city": "小樽市",
    "city_kana": "オタルシ",
    "town": "望洋台",
    "town_kana": "ボウヨウダイ",
    "street": null,
    "office_name": null,
    "office_name_kana": null
  },
  "0156": {
    "postcode": "0470156",
    "prefecture": "北海道",
    "prefecture_kana": "ホッカイドウ",
    "prefecture_code": 1,
    "city": "小樽市",
    "city_kana": "オタルシ",
    "town": "桜",
    "town_kana": "サクラ",
    "street": null,
    "office_name": null,
    "office_name_kana": null
  },
  "0157": {
    "postcode": "0470157",
    "prefecture": "北海道",
    "prefecture_kana": "ホッカイドウ",
    "prefecture_code": 1,
    "city": "小樽市",
    "city_kana": "オタルシ",
    "town": "船浜町",
    "town_kana": "フナハマチョウ",
    "street": null,
    "office_name": null,
    "office_name_kana": null
  },
  "0192": {
    "postcode": "0470192",
    "prefecture": "北海道",
    "prefecture_kana": "ホッカイドウ",
    "prefecture_code": 1,
    "city": "小樽市",
    "city_kana": "オタルシ",
    "town": "朝里川温泉",
    "town_kana": "アサリガワオンセン",
    "street": "２丁目６７０",
    "office_name": "小樽簡易保険加入者ホーム",
    "office_name_kana": "オタルカンイホケンカニユウシヤホ-ム"
  },
  "0261": {
    "postcode": "0470261",
    "prefecture": "北海道",
    "prefecture_kana": "ホッカイドウ",
    "prefecture_code": 1,
    "city": "小樽市",
    "city_kana": "オタルシ",
    "town": "銭函",
    "town_kana": "ゼニバコ",
    "street": null,
    "office_name": null,
    "office_name_kana": null
  },
  "0262": {
    "postcode": "0470262",
    "prefecture": "北海道",
    "prefecture_kana": "ホッカイドウ",
    "prefecture_code": 1,
    "city": "小樽市",
    "city_kana": "オタルシ",
    "town": "星野町",
    "town_kana": "ホシノチョウ",
    "street": null,
    "office_name": null,
    "office_name_kana": null
  },
  "0263": {
    "postcode": "0470263",
    "prefecture": "北海道",
    "prefecture_kana": "ホッカイドウ",
    "prefecture_code": 1,
    "city": "小樽市",
    "city_kana": "オタルシ",
    "town": "見晴町",
    "town_kana": "ミハラシチョウ",
    "street": null,
    "office_name": null,
    "office_name_kana": null
  },
  "0264": {
    "postcode": "0470264",
    "prefecture": "北海道",
    "prefecture_kana": "ホッカイドウ",
    "prefecture_code": 1,
    "city": "小樽市",
    "city_kana": "オタルシ",
    "town": "桂岡町",
    "town_kana": "カツラオカチョウ",
    "street": null,
    "office_name": null,
    "office_name_kana": null
  },
  "0265": {
    "postcode": "0470265",
    "prefecture": "北海道",
    "prefecture_kana": "ホッカイドウ",
    "prefecture_code": 1,
    "city": "小樽市",
    "city_kana": "オタルシ",
    "town": "春香町",
    "town_kana": "ハルカチョウ",
    "street": null,
    "office_name": null,
    "office_name_kana": null
  },
  "0266": {
    "postcode": "0470266",
    "prefecture": "北海道",
    "prefecture_kana": "ホッカイドウ",
    "prefecture_code": 1,
    "city": "小樽市",
    "city_kana": "オタルシ",
    "town": "張碓町",
    "town_kana": "ハリウスチョウ",
    "street": null,
    "office_name": null,
    "office_name_kana": null
  },
  "0292": {
    "postcode": "0470292",
    "prefecture": "北海道",
    "prefecture_kana": "ホッカイドウ",
    "prefecture_code": 1,
    "city": "小樽市",
    "city_kana": "オタルシ",
    "town": "銭函",
    "town_kana": "ゼニバコ",
    "street": "３丁目１９０",
    "office_name": "独立行政法人　雇用・能力開発機構　北海道職業能力開発大学校",
    "office_name_kana": "ドクリツギヨウセイホウジン コヨウ・ノウリヨクカイハツキコウ ホツカイドウシヨクギヨウノウリヨクカイハツダイガツコウ"
  },
  "0298": {
    "postcode": "0470298",
    "prefecture": "北海道",
    "prefecture_kana": "ホッカイドウ",
    "prefecture_code": 1,
    "city": "小樽市",
    "city_kana": "オタルシ",
    "town": "銭函",
    "town_kana": "ゼニバコ",
    "street": "３丁目５０３−９",
    "office_name": "合同化成　株式会社",
    "office_name_kana": "ゴウドウカセイ カブシキガイシヤ"
  },
  "8501": {
    "postcode": "0478501",
    "prefecture": "北海道",
    "prefecture_kana": "ホッカイドウ",
    "prefecture_code": 1,
    "city": "小樽市",
    "city_kana": "オタルシ",
    "town": "緑",
    "town_kana": "ミドリ",
    "street": "３丁目５番２１号",
    "office_name": "小樽商科大学",
    "office_name_kana": "オタルシヨウカダイガク"
  },
  "8502": {
    "postcode": "0478502",
    "prefecture": "北海道",
    "prefecture_kana": "ホッカイドウ",
    "prefecture_code": 1,
    "city": "小樽市",
    "city_kana": "オタルシ",
    "town": "緑",
    "town_kana": "ミドリ",
    "street": "３丁目５番２１号",
    "office_name": "小樽商科大学　附属図書館",
    "office_name_kana": "オタルシヨウカダイガク フゾクトシヨカン"
  },
  "8503": {
    "postcode": "0478503",
    "prefecture": "北海道",
    "prefecture_kana": "ホッカイドウ",
    "prefecture_code": 1,
    "city": "小樽市",
    "city_kana": "オタルシ",
    "town": "緑",
    "town_kana": "ミドリ",
    "street": "３丁目５番２１号",
    "office_name": "小樽商科大学　生活協同組合",
    "office_name_kana": "オタルシヨウカダイガク セイカツキヨウドウクミアイ"
  },
  "8519": {
    "postcode": "0478519",
    "prefecture": "北海道",
    "prefecture_kana": "ホッカイドウ",
    "prefecture_code": 1,
    "city": "小樽市",
    "city_kana": "オタルシ",
    "town": "稲穂",
    "town_kana": "イナホ",
    "street": "２丁目１７番１号",
    "office_name": "ＮＴＴ東日本　小樽支店",
    "office_name_kana": "エヌテイテイヒガシニホン オタルシテン"
  },
  "8520": {
    "postcode": "0478520",
    "prefecture": "北海道",
    "prefecture_kana": "ホッカイドウ",
    "prefecture_code": 1,
    "city": "小樽市",
    "city_kana": "オタルシ",
    "town": "稲穂",
    "town_kana": "イナホ",
    "street": "２丁目２２番１号",
    "office_name": "小樽商工会議所",
    "office_name_kana": "オタルシヨウコウカイギシヨ"
  },
  "8550": {
    "postcode": "0478550",
    "prefecture": "北海道",
    "prefecture_kana": "ホッカイドウ",
    "prefecture_code": 1,
    "city": "小樽市",
    "city_kana": "オタルシ",
    "town": "若松",
    "town_kana": "ワカマツ",
    "street": "１丁目１番１号",
    "office_name": "小樽市立病院",
    "office_name_kana": "オタルシリツビヨウイン"
  },
  "8555": {
    "postcode": "0478555",
    "prefecture": "北海道",
    "prefecture_kana": "ホッカイドウ",
    "prefecture_code": 1,
    "city": "小樽市",
    "city_kana": "オタルシ",
    "town": "潮見台",
    "town_kana": "シオミダイ",
    "street": "１丁目１５−５",
    "office_name": "小樽開発建設部",
    "office_name_kana": "オタルカイハツケンセツブ"
  },
  "8558": {
    "postcode": "0478558",
    "prefecture": "北海道",
    "prefecture_kana": "ホッカイドウ",
    "prefecture_code": 1,
    "city": "小樽市",
    "city_kana": "オタルシ",
    "town": "最上",
    "town_kana": "モガミ",
    "street": "２丁目５番１号",
    "office_name": "学校法人　北照高等学校",
    "office_name_kana": "ガツコウホウジン ホクシヨウコウトウガツコウ"
  },
  "8560": {
    "postcode": "0478560",
    "prefecture": "北海道",
    "prefecture_kana": "ホッカイドウ",
    "prefecture_code": 1,
    "city": "小樽市",
    "city_kana": "オタルシ",
    "town": "港町",
    "town_kana": "ミナトマチ",
    "street": "５番３号",
    "office_name": "第一管区　海上保安本部",
    "office_name_kana": "ダイイチカンク カイジヨウホアンホンブ"
  },
  "8585": {
    "postcode": "0478585",
    "prefecture": "北海道",
    "prefecture_kana": "ホッカイドウ",
    "prefecture_code": 1,
    "city": "小樽市",
    "city_kana": "オタルシ",
    "town": "長橋",
    "town_kana": "ナガハシ",
    "street": "３丁目７番７号",
    "office_name": "医療法人　北仁会　石橋病院",
    "office_name_kana": "イリヨウホウジン ホクジンカイ イシバシビヨウイン"
  },
  "8588": {
    "postcode": "0478588",
    "prefecture": "北海道",
    "prefecture_kana": "ホッカイドウ",
    "prefecture_code": 1,
    "city": "小樽市",
    "city_kana": "オタルシ",
    "town": "港町",
    "town_kana": "ミナトマチ",
    "street": "５番２号小樽地方合同庁舎小樽税務署内",
    "office_name": "申告書等集中処理担当部署",
    "office_name_kana": "シンコクシヨトウシユウチユウシヨリタントウブシヨ"
  },
  "8601": {
    "postcode": "0478601",
    "prefecture": "北海道",
    "prefecture_kana": "ホッカイドウ",
    "prefecture_code": 1,
    "city": "小樽市",
    "city_kana": "オタルシ",
    "town": "色内",
    "town_kana": "イロナイ",
    "street": "１丁目８番６号",
    "office_name": "北海道中央バス　（株）",
    "office_name_kana": "ホツカイドウチユウオウバス カブシキガイシヤ"
  },
  "8609": {
    "postcode": "0478609",
    "prefecture": "北海道",
    "prefecture_kana": "ホッカイドウ",
    "prefecture_code": 1,
    "city": "小樽市",
    "city_kana": "オタルシ",
    "town": "色内",
    "town_kana": "イロナイ",
    "street": "１丁目１０番１５号",
    "office_name": "小樽公共職業安定所",
    "office_name_kana": "オタルコウキヨウシヨクギヨウアンテイシヨ"
  },
  "8660": {
    "postcode": "0478660",
    "prefecture": "北海道",
    "prefecture_kana": "ホッカイドウ",
    "prefecture_code": 1,
    "city": "小樽市",
    "city_kana": "オタルシ",
    "town": "花園",
    "town_kana": "ハナゾノ",
    "street": "２丁目１２番１号（小樽郵便局私書箱第６号）",
    "office_name": "小樽市役所",
    "office_name_kana": "オタルシヤクシヨ"
  },
  "8663": {
    "postcode": "0478663",
    "prefecture": "北海道",
    "prefecture_kana": "ホッカイドウ",
    "prefecture_code": 1,
    "city": "小樽市",
    "city_kana": "オタルシ",
    "town": "稲穂",
    "town_kana": "イナホ",
    "street": "２丁目１−１（小樽郵便局私書箱第６３号）",
    "office_name": "株式会社　新宮商行",
    "office_name_kana": "カブシキガイシヤ シングウシヨウコウ"
  },
  "8666": {
    "postcode": "0478666",
    "prefecture": "北海道",
    "prefecture_kana": "ホッカイドウ",
    "prefecture_code": 1,
    "city": "小樽市",
    "city_kana": "オタルシ",
    "town": "富岡",
    "town_kana": "トミオカ",
    "street": "１丁目９−６",
    "office_name": "日本年金機構　小樽年金事務所",
    "office_name_kana": "ニツポンネンキンキコウ オタルネンキンジムシヨ"
  },
  "8677": {
    "postcode": "0478677",
    "prefecture": "北海道",
    "prefecture_kana": "ホッカイドウ",
    "prefecture_code": 1,
    "city": "小樽市",
    "city_kana": "オタルシ",
    "town": "朝里川温泉",
    "town_kana": "アサリガワオンセン",
    "street": "１丁目１３０番地（小樽郵便局私書箱第３８号）",
    "office_name": "北海道ワイン　（株）",
    "office_name_kana": "ホツカイドウワイン カブシキガイシヤ"
  },
  "8686": {
    "postcode": "0478686",
    "prefecture": "北海道",
    "prefecture_kana": "ホッカイドウ",
    "prefecture_code": 1,
    "city": "小樽市",
    "city_kana": "オタルシ",
    "town": "新光",
    "town_kana": "シンコウ",
    "street": "５−９−６",
    "office_name": "株式会社　光合金製作所",
    "office_name_kana": "カブシキカイシヤ ヒカリゴウキンセイサクシヨ"
  },
  "8794": {
    "postcode": "0478794",
    "prefecture": "北海道",
    "prefecture_kana": "ホッカイドウ",
    "prefecture_code": 1,
    "city": "小樽市",
    "city_kana": "オタルシ",
    "town": "入船",
    "town_kana": "イリフネ",
    "street": "５丁目３番１号",
    "office_name": "小樽貯金事務センター",
    "office_name_kana": "オタルチヨキンジムセンタ-"
  }
}