{
  "0100": {
    "postcode": "0480100",
    "prefecture": "北海道",
    "prefecture_kana": "ホッカイドウ",
    "prefecture_code": 1,
    "city": "寿都郡黒松内町",
    "city_kana": "スッツグンクロマツナイチョウ",
    "town": "",
    "town_kana": "",
    "street": null,
    "office_name": null,
    "office_name_kana": null
  },
  "0101": {
    "postcode": "0480101",
    "prefecture": "北海道",
    "prefecture_kana": "ホッカイドウ",
    "prefecture_code": 1,
    "city": "寿都郡黒松内町",
    "city_kana": "スッツグンクロマツナイチョウ",
    "town": "黒松内",
    "town_kana": "クロマツナイ",
    "street": null,
    "office_name": null,
    "office_name_kana": null
  },
  "0111": {
    "postcode": "0480111",
    "prefecture": "北海道",
    "prefecture_kana": "ホッカイドウ",
    "prefecture_code": 1,
    "city": "寿都郡黒松内町",
    "city_kana": "スッツグンクロマツナイチョウ",
    "town": "中里",
    "town_kana": "ナカサト",
    "street": null,
    "office_name": null,
    "office_name_kana": null
  },
  "0112": {
    "postcode": "0480112",
    "prefecture": "北海道",
    "prefecture_kana": "ホッカイドウ",
    "prefecture_code": 1,
    "city": "寿都郡黒松内町",
    "city_kana": "スッツグンクロマツナイチョウ",
    "town": "貝殻",
    "town_kana": "カイカラ",
    "street": null,
    "office_name": null,
    "office_name_kana": null
  },
  "0113": {
    "postcode": "0480113",
    "prefecture": "北海道",
    "prefecture_kana": "ホッカイドウ",
    "prefecture_code": 1,
    "city": "寿都郡黒松内町",
    "city_kana": "スッツグンクロマツナイチョウ",
    "town": "豊幌",
    "town_kana": "トヨホロ",
    "street": null,
    "office_name": null,
    "office_name_kana": null
  },
  "0114": {
    "postcode": "0480114",
    "prefecture": "北海道",
    "prefecture_kana": "ホッカイドウ",
    "prefecture_code": 1,
    "city": "寿都郡黒松内町",
    "city_kana": "スッツグンクロマツナイチョウ",
    "town": "歌才",
    "town_kana": "ウタサイ",
    "street": null,
    "office_name": null,
    "office_name_kana": null
  },
  "0115": {
    "postcode": "0480115",
    "prefecture": "北海道",
    "prefecture_kana": "ホッカイドウ",
    "prefecture_code": 1,
    "city": "寿都郡黒松内町",
    "city_kana": "スッツグンクロマツナイチョウ",
    "town": "西沢",
    "town_kana": "ニシノサワ",
    "street": null,
    "office_name": null,
    "office_name_kana": null
  },
  "0116": {
    "postcode": "0480116",
    "prefecture": "北海道",
    "prefecture_kana": "ホッカイドウ",
    "prefecture_code": 1,
    "city": "寿都郡黒松内町",
    "city_kana": "スッツグンクロマツナイチョウ",
    "town": "旭野",
    "town_kana": "アサヒノ",
    "street": null,
    "office_name": null,
    "office_name_kana": null
  },
  "0117": {
    "postcode": "0480117",
    "prefecture": "北海道",
    "prefecture_kana": "ホッカイドウ",
    "prefecture_code": 1,
    "city": "寿都郡黒松内町",
    "city_kana": "スッツグンクロマツナイチョウ",
    "town": "添別",
    "town_kana": "ソイベツ",
    "street": null,
    "office_name": null,
    "office_name_kana": null
  },
  "0121": {
    "postcode": "0480121",
    "prefecture": "北海道",
    "prefecture_kana": "ホッカイドウ",
    "prefecture_code": 1,
    "city": "寿都郡黒松内町",
    "city_kana": "スッツグンクロマツナイチョウ",
    "town": "熱郛",
    "town_kana": "ネップ",
    "street": null,
    "office_name": null,
    "office_name_kana": null
  },
  "0122": {
    "postcode": "0480122",
    "prefecture": "北海道",
    "prefecture_kana": "ホッカイドウ",
    "prefecture_code": 1,
    "city": "寿都郡黒松内町",
    "city_kana": "スッツグンクロマツナイチョウ",
    "town": "白炭",
    "town_kana": "シロズミ",
    "street": null,
    "office_name": null,
    "office_name_kana": null
  },
  "0123": {
    "postcode": "0480123",
    "prefecture": "北海道",
    "prefecture_kana": "ホッカイドウ",
    "prefecture_code": 1,
    "city": "寿都郡黒松内町",
    "city_kana": "スッツグンクロマツナイチョウ",
    "town": "中ノ川",
    "town_kana": "ナカノカワ",
    "street": null,
    "office_name": null,
    "office_name_kana": null
  },
  "0124": {
    "postcode": "0480124",
    "prefecture": "北海道",
    "prefecture_kana": "ホッカイドウ",
    "prefecture_code": 1,
    "city": "寿都郡黒松内町",
    "city_kana": "スッツグンクロマツナイチョウ",
    "town": "五十嵐",
    "town_kana": "イガラシ",
    "street": null,
    "office_name": null,
    "office_name_kana": null
  },
  "0125": {
    "postcode": "0480125",
    "prefecture": "北海道",
    "prefecture_kana": "ホッカイドウ",
    "prefecture_code": 1,
    "city": "寿都郡黒松内町",
    "city_kana": "スッツグンクロマツナイチョウ",
    "town": "目名",
    "town_kana": "メナ",
    "street": null,
    "office_name": null,
    "office_name_kana": null
  },
  "0126": {
    "postcode": "0480126",
    "prefecture": "北海道",
    "prefecture_kana": "ホッカイドウ",
    "prefecture_code": 1,
    "city": "寿都郡黒松内町",
    "city_kana": "スッツグンクロマツナイチョウ",
    "town": "北作開",
    "town_kana": "キタサッカイ",
    "street": null,
    "office_name": null,
    "office_name_kana": null
  },
  "0127": {
    "postcode": "0480127",
    "prefecture": "北海道",
    "prefecture_kana": "ホッカイドウ",
    "prefecture_code": 1,
    "city": "寿都郡黒松内町",
    "city_kana": "スッツグンクロマツナイチョウ",
    "town": "南作開",
    "town_kana": "ミナミサッカイ",
    "street": null,
    "office_name": null,
    "office_name_kana": null
  },
  "0131": {
    "postcode": "0480131",
    "prefecture": "北海道",
    "prefecture_kana": "ホッカイドウ",
    "prefecture_code": 1,
    "city": "寿都郡黒松内町",
    "city_kana": "スッツグンクロマツナイチョウ",
    "town": "西熱郛原野",
    "town_kana": "ニシネップゲンヤ",
    "street": null,
    "office_name": null,
    "office_name_kana": null
  },
  "0132": {
    "postcode": "0480132",
    "prefecture": "北海道",
    "prefecture_kana": "ホッカイドウ",
    "prefecture_code": 1,
    "city": "寿都郡黒松内町",
    "city_kana": "スッツグンクロマツナイチョウ",
    "town": "チョポシナイ",
    "town_kana": "チョポシナイ",
    "street": null,
    "office_name": null,
    "office_name_kana": null
  },
  "0133": {
    "postcode": "0480133",
    "prefecture": "北海道",
    "prefecture_kana": "ホッカイドウ",
    "prefecture_code": 1,
    "city": "寿都郡黒松内町",
    "city_kana": "スッツグンクロマツナイチョウ",
    "town": "大谷地",
    "town_kana": "オオヤチ",
    "street": null,
    "office_name": null,
    "office_name_kana": null
  },
  "0134": {
    "postcode": "0480134",
    "prefecture": "北海道",
    "prefecture_kana": "ホッカイドウ",
    "prefecture_code": 1,
    "city": "寿都郡黒松内町",
    "city_kana": "スッツグンクロマツナイチョウ",
    "town": "白井川",
    "town_kana": "シロイカワ",
    "street": null,
    "office_name": null,
    "office_name_kana": null
  },
  "0135": {
    "postcode": "0480135",
    "prefecture": "北海道",
    "prefecture_kana": "ホッカイドウ",
    "prefecture_code": 1,
    "city": "寿都郡黒松内町",
    "city_kana": "スッツグンクロマツナイチョウ",
    "town": "角十",
    "town_kana": "カクジュウ",
    "street": null,
    "office_name": null,
    "office_name_kana": null
  },
  "0136": {
    "postcode": "0480136",
    "prefecture": "北海道",
    "prefecture_kana": "ホッカイドウ",
    "prefecture_code": 1,
    "city": "寿都郡黒松内町",
    "city_kana": "スッツグンクロマツナイチョウ",
    "town": "赤井川",
    "town_kana": "アカイカワ",
    "street": null,
    "office_name": null,
    "office_name_kana": null
  },
  "0137": {
    "postcode": "0480137",
    "prefecture": "北海道",
    "prefecture_kana": "ホッカイドウ",
    "prefecture_code": 1,
    "city": "寿都郡黒松内町",
    "city_kana": "スッツグンクロマツナイチョウ",
    "town": "婆沢",
    "town_kana": "ババサワ",
    "street": null,
    "office_name": null,
    "office_name_kana": null
  },
  "0141": {
    "postcode": "0480141",
    "prefecture": "北海道",
    "prefecture_kana": "ホッカイドウ",
    "prefecture_code": 1,
    "city": "寿都郡黒松内町",
    "city_kana": "スッツグンクロマツナイチョウ",
    "town": "上豊幌",
    "town_kana": "カミトヨホロ",
    "street": null,
    "office_name": null,
    "office_name_kana": null
  },
  "0142": {
    "postcode": "0480142",
    "prefecture": "北海道",
    "prefecture_kana": "ホッカイドウ",
    "prefecture_code": 1,
    "city": "寿都郡黒松内町",
    "city_kana": "スッツグンクロマツナイチョウ",
    "town": "東栄",
    "town_kana": "トウエイ",
    "street": null,
    "office_name": null,
    "office_name_kana": null
  },
  "0143": {
    "postcode": "0480143",
    "prefecture": "北海道",
    "prefecture_kana": "ホッカイドウ",
    "prefecture_code": 1,
    "city": "寿都郡黒松内町",
    "city_kana": "スッツグンクロマツナイチョウ",
    "town": "大成",
    "town_kana": "タイセイ",
    "street": null,
    "office_name": null,
    "office_name_kana": null
  },
  "0144": {
    "postcode": "0480144",
    "prefecture": "北海道",
    "prefecture_kana": "ホッカイドウ",
    "prefecture_code": 1,
    "city": "寿都郡黒松内町",
    "city_kana": "スッツグンクロマツナイチョウ",
    "town": "東川",
    "town_kana": "ヒガシカワ",
    "street": null,
    "office_name": null,
    "office_name_kana": null
  },
  "0145": {
    "postcode": "0480145",
    "prefecture": "北海道",
    "prefecture_kana": "ホッカイドウ",
    "prefecture_code": 1,
    "city": "寿都郡黒松内町",
    "city_kana": "スッツグンクロマツナイチョウ",
    "town": "上大成",
    "town_kana": "カミタイセイ",
    "street": null,
    "office_name": null,
    "office_name_kana": null
  },
  "0192": {
    "postcode": "0480192",
    "prefecture": "北海道",
    "prefecture_kana": "ホッカイドウ",
    "prefecture_code": 1,
    "city": "寿都郡黒松内町",
    "city_kana": "スッツグンクロマツナイチョウ",
    "town": "字黒松内",
    "town_kana": null,
    "street": "３０２−１",
    "office_name": "黒松内町役場",
    "office_name_kana": "クロマツナイチヨウヤクバ"
  },
  "0351": {
    "postcode": "0480351",
    "prefecture": "北海道",
    "prefecture_kana": "ホッカイドウ",
    "prefecture_code": 1,
    "city": "寿都郡寿都町",
    "city_kana": "スッツグンスッツチョウ",
    "town": "磯谷町",
    "town_kana": "イソヤチョウ",
    "street": null,
    "office_name": null,
    "office_name_kana": null
  },
  "0400": {
    "postcode": "0480400",
    "prefecture": "北海道",
    "prefecture_kana": "ホッカイドウ",
    "prefecture_code": 1,
    "city": "寿都郡寿都町",
    "city_kana": "スッツグンスッツチョウ",
    "town": "",
    "town_kana": "",
    "street": null,
    "office_name": null,
    "office_name_kana": null
  },
  "0401": {
    "postcode": "0480401",
    "prefecture": "北海道",
    "prefecture_kana": "ホッカイドウ",
    "prefecture_code": 1,
    "city": "寿都郡寿都町",
    "city_kana": "スッツグンスッツチョウ",
    "town": "新栄町",
    "town_kana": "シンエイチョウ",
    "street": null,
    "office_name": null,
    "office_name_kana": null
  },
  "0402": {
    "postcode": "0480402",
    "prefecture": "北海道",
    "prefecture_kana": "ホッカイドウ",
    "prefecture_code": 1,
    "city": "寿都郡寿都町",
    "city_kana": "スッツグンスッツチョウ",
    "town": "矢追町",
    "town_kana": "ヤオイチョウ",
    "street": null,
    "office_name": null,
    "office_name_kana": null
  },
  "0403": {
    "postcode": "0480403",
    "prefecture": "北海道",
    "prefecture_kana": "ホッカイドウ",
    "prefecture_code": 1,
    "city": "寿都郡寿都町",
    "city_kana": "スッツグンスッツチョウ",
    "town": "政泊町",
    "town_kana": "マサドマリチョウ",
    "street": null,
    "office_name": null,
    "office_name_kana": null
  },
  "0404": {
    "postcode": "0480404",
    "prefecture": "北海道",
    "prefecture_kana": "ホッカイドウ",
    "prefecture_code": 1,
    "city": "寿都郡寿都町",
    "city_kana": "スッツグンスッツチョウ",
    "town": "大磯町",
    "town_kana": "オオイソチョウ",
    "street": null,
    "office_name": null,
    "office_name_kana": null
  },
  "0405": {
    "postcode": "0480405",
    "prefecture": "北海道",
    "prefecture_kana": "ホッカイドウ",
    "prefecture_code": 1,
    "city": "寿都郡寿都町",
    "city_kana": "スッツグンスッツチョウ",
    "town": "開進町",
    "town_kana": "カイシンチョウ",
    "street": null,
    "office_name": null,
    "office_name_kana": null
  },
  "0406": {
    "postcode": "0480406",
    "prefecture": "北海道",
    "prefecture_kana": "ホッカイドウ",
    "prefecture_code": 1,
    "city": "寿都郡寿都町",
    "city_kana": "スッツグンスッツチョウ",
    "town": "渡島町",
    "town_kana": "トシマチョウ",
    "street": null,
    "office_name": null,
    "office_name_kana": null
  },
  "0411": {
    "postcode": "0480411",
    "prefecture": "北海道",
    "prefecture_kana": "ホッカイドウ",
    "prefecture_code": 1,
    "city": "寿都郡寿都町",
    "city_kana": "スッツグンスッツチョウ",
    "town": "六条町",
    "town_kana": "ロクジョウチョウ",
    "street": null,
    "office_name": null,
    "office_name_kana": null
  },
  "0412": {
    "postcode": "0480412",
    "prefecture": "北海道",
    "prefecture_kana": "ホッカイドウ",
    "prefecture_code": 1,
    "city": "寿都郡寿都町",
    "city_kana": "スッツグンスッツチョウ",
    "town": "岩崎町",
    "town_kana": "イワサキチョウ",
    "street": null,
    "office_name": null,
    "office_name_kana": null
  },
  "0413": {
    "postcode": "0480413",
    "prefecture": "北海道",
    "prefecture_kana": "ホッカイドウ",
    "prefecture_code": 1,
    "city": "寿都郡寿都町",
    "city_kana": "スッツグンスッツチョウ",
    "town": "樽岸町",
    "town_kana": "タルキシチョウ",
    "street": null,
    "office_name": null,
    "office_name_kana": null
  },
  "0414": {
    "postcode": "0480414",
    "prefecture": "北海道",
    "prefecture_kana": "ホッカイドウ",
    "prefecture_code": 1,
    "city": "寿都郡寿都町",
    "city_kana": "スッツグンスッツチョウ",
    "town": "湯別町",
    "town_kana": "ユベツチョウ",
    "street": null,
    "office_name": null,
    "office_name_kana": null
  },
  "0415": {
    "postcode": "0480415",
    "prefecture": "北海道",
    "prefecture_kana": "ホッカイドウ",
    "prefecture_code": 1,
    "city": "寿都郡寿都町",
    "city_kana": "スッツグンスッツチョウ",
    "town": "歌棄町",
    "town_kana": "ウタスツチョウ",
    "street": null,
    "office_name": null,
    "office_name_kana": null
  },
  "0600": {
    "postcode": "0480600",
    "prefecture": "北海道",
    "prefecture_kana": "ホッカイドウ",
    "prefecture_code": 1,
    "city": "島牧郡島牧村",
    "city_kana": "シママキグンシママキムラ",
    "town": "",
    "town_kana": "",
    "street": null,
    "office_name": null,
    "office_name_kana": null
  },
  "0601": {
    "postcode": "0480601",
    "prefecture": "北海道",
    "prefecture_kana": "ホッカイドウ",
    "prefecture_code": 1,
    "city": "島牧郡島牧村",
    "city_kana": "シママキグンシママキムラ",
    "town": "富浦",
    "town_kana": "トミウラ",
    "street": null,
    "office_name": null,
    "office_name_kana": null
  },
  "0602": {
    "postcode": "0480602",
    "prefecture": "北海道",
    "prefecture_kana": "ホッカイドウ",
    "prefecture_code": 1,
    "city": "島牧郡島牧村",
    "city_kana": "シママキグンシママキムラ",
    "town": "歌島",
    "town_kana": "ウタシマ",
    "street": null,
    "office_name": null,
    "office_name_kana": null
  },
  "0603": {
    "postcode": "0480603",
    "prefecture": "北海道",
    "prefecture_kana": "ホッカイドウ",
    "prefecture_code": 1,
    "city": "島牧郡島牧村",
    "city_kana": "シママキグンシママキムラ",
    "town": "本目",
    "town_kana": "ホンメ",
    "street": null,
    "office_name": null,
    "office_name_kana": null
  },
  "0604": {
    "postcode": "0480604",
    "prefecture": "北海道",
    "prefecture_kana": "ホッカイドウ",
    "prefecture_code": 1,
    "city": "島牧郡島牧村",
    "city_kana": "シママキグンシママキムラ",
    "town": "港",
    "town_kana": "ミナト",
    "street": null,
    "office_name": null,
    "office_name_kana": null
  },
  "0611": {
    "postcode": "0480611",
    "prefecture": "北海道",
    "prefecture_kana": "ホッカイドウ",
    "prefecture_code": 1,
    "city": "島牧郡島牧村",
    "city_kana": "シママキグンシママキムラ",
    "town": "栄磯",
    "town_kana": "サカエイソ",
    "street": null,
    "office_name": null,
    "office_name_kana": null
  },
  "0612": {
    "postcode": "0480612",
    "prefecture": "北海道",
    "prefecture_kana": "ホッカイドウ",
    "prefecture_code": 1,
    "city": "島牧郡島牧村",
    "city_kana": "シママキグンシママキムラ",
    "town": "豊浜",
    "town_kana": "トヨハマ",
    "street": null,
    "office_name": null,
    "office_name_kana": null
  },
  "0613": {
    "postcode": "0480613",
    "prefecture": "北海道",
    "prefecture_kana": "ホッカイドウ",
    "prefecture_code": 1,
    "city": "島牧郡島牧村",
    "city_kana": "シママキグンシママキムラ",
    "town": "大平",
    "town_kana": "オオビラ",
    "street": null,
    "office_name": null,
    "office_name_kana": null
  },
  "0614": {
    "postcode": "0480614",
    "prefecture": "北海道",
    "prefecture_kana": "ホッカイドウ",
    "prefecture_code": 1,
    "city": "島牧郡島牧村",
    "city_kana": "シママキグンシママキムラ",
    "town": "永豊町",
    "town_kana": "ナガトヨマチ",
    "street": null,
    "office_name": null,
    "office_name_kana": null
  },
  "0621": {
    "postcode": "0480621",
    "prefecture": "北海道",
    "prefecture_kana": "ホッカイドウ",
    "prefecture_code": 1,
    "city": "島牧郡島牧村",
    "city_kana": "シママキグンシママキムラ",
    "town": "泊",
    "town_kana": "トマリ",
    "street": null,
    "office_name": null,
    "office_name_kana": null
  },
  "0622": {
    "postcode": "0480622",
    "prefecture": "北海道",
    "prefecture_kana": "ホッカイドウ",
    "prefecture_code": 1,
    "city": "島牧郡島牧村",
    "city_kana": "シママキグンシママキムラ",
    "town": "豊平",
    "town_kana": "トヨヒラ",
    "street": null,
    "office_name": null,
    "office_name_kana": null
  },
  "0623": {
    "postcode": "0480623",
    "prefecture": "北海道",
    "prefecture_kana": "ホッカイドウ",
    "prefecture_code": 1,
    "city": "島牧郡島牧村",
    "city_kana": "シママキグンシママキムラ",
    "town": "江の島",
    "town_kana": "エノシマ",
    "street": null,
    "office_name": null,
    "office_name_kana": null
  },
  "0631": {
    "postcode": "0480631",
    "prefecture": "北海道",
    "prefecture_kana": "ホッカイドウ",
    "prefecture_code": 1,
    "city": "島牧郡島牧村",
    "city_kana": "シママキグンシママキムラ",
    "town": "千走",
    "town_kana": "チワセ",
    "street": null,
    "office_name": null,
    "office_name_kana": null
  },
  "0632": {
    "postcode": "0480632",
    "prefecture": "北海道",
    "prefecture_kana": "ホッカイドウ",
    "prefecture_code": 1,
    "city": "島牧郡島牧村",
    "city_kana": "シママキグンシママキムラ",
    "town": "元町",
    "town_kana": "モトマチ",
    "street": null,
    "office_name": null,
    "office_name_kana": null
  },
  "0633": {
    "postcode": "0480633",
    "prefecture": "北海道",
    "prefecture_kana": "ホッカイドウ",
    "prefecture_code": 1,
    "city": "島牧郡島牧村",
    "city_kana": "シママキグンシママキムラ",
    "town": "原歌町",
    "town_kana": "ハラウタマチ",
    "street": null,
    "office_name": null,
    "office_name_kana": null
  },
  "0634": {
    "postcode": "0480634",
    "prefecture": "北海道",
    "prefecture_kana": "ホッカイドウ",
    "prefecture_code": 1,
    "city": "島牧郡島牧村",
    "city_kana": "シママキグンシママキムラ",
    "town": "栄浜",
    "town_kana": "サカエハマ",
    "street": null,
    "office_name": null,
    "office_name_kana": null
  },
  "1251": {
    "postcode": "0481251",
    "prefecture": "北海道",
    "prefecture_kana": "ホッカイドウ",
    "prefecture_code": 1,
    "city": "磯谷郡蘭越町",
    "city_kana": "イソヤグンランコシチョウ",
    "town": "相生",
    "town_kana": "アイオイ",
    "street": null,
    "office_name": null,
    "office_name_kana": null
  },
  "1252": {
    "postcode": "0481252",
    "prefecture": "北海道",
    "prefecture_kana": "ホッカイドウ",
    "prefecture_code": 1,
    "city": "磯谷郡蘭越町",
    "city_kana": "イソヤグンランコシチョウ",
    "town": "讃岐",
    "town_kana": "サヌキ",
    "street": null,
    "office_name": null,
    "office_name_kana": null
  },
  "1253": {
    "postcode": "0481253",
    "prefecture": "北海道",
    "prefecture_kana": "ホッカイドウ",
    "prefecture_code": 1,
    "city": "磯谷郡蘭越町",
    "city_kana": "イソヤグンランコシチョウ",
    "town": "田下",
    "town_kana": "タシモ",
    "street": null,
    "office_name": null,
    "office_name_kana": null
  },
  "1254": {
    "postcode": "0481254",
    "prefecture": "北海道",
    "prefecture_kana": "ホッカイドウ",
    "prefecture_code": 1,
    "city": "磯谷郡蘭越町",
    "city_kana": "イソヤグンランコシチョウ",
    "town": "上目名",
    "town_kana": "カミメナ",
    "street": null,
    "office_name": null,
    "office_name_kana": null
  },
  "1261": {
    "postcode": "0481261",
    "prefecture": "北海道",
    "prefecture_kana": "ホッカイドウ",
    "prefecture_code": 1,
    "city": "磯谷郡蘭越町",
    "city_kana": "イソヤグンランコシチョウ",
    "town": "目名町",
    "town_kana": "メナマチ",
    "street": null,
    "office_name": null,
    "office_name_kana": null
  },
  "1262": {
    "postcode": "0481262",
    "prefecture": "北海道",
    "prefecture_kana": "ホッカイドウ",
    "prefecture_code": 1,
    "city": "磯谷郡蘭越町",
    "city_kana": "イソヤグンランコシチョウ",
    "town": "貝川",
    "town_kana": "カイカワ",
    "street": null,
    "office_name": null,
    "office_name_kana": null
  },
  "1263": {
    "postcode": "0481263",
    "prefecture": "北海道",
    "prefecture_kana": "ホッカイドウ",
    "prefecture_code": 1,
    "city": "磯谷郡蘭越町",
    "city_kana": "イソヤグンランコシチョウ",
    "town": "三笠",
    "town_kana": "ミカサ",
    "street": null,
    "office_name": null,
    "office_name_kana": null
  },
  "1264": {
    "postcode": "0481264",
    "prefecture": "北海道",
    "prefecture_kana": "ホッカイドウ",
    "prefecture_code": 1,
    "city": "磯谷郡蘭越町",
    "city_kana": "イソヤグンランコシチョウ",
    "town": "清水",
    "town_kana": "シミズ",
    "street": null,
    "office_name": null,
    "office_name_kana": null
  },
  "1265": {
    "postcode": "0481265",
    "prefecture": "北海道",
    "prefecture_kana": "ホッカイドウ",
    "prefecture_code": 1,
    "city": "磯谷郡蘭越町",
    "city_kana": "イソヤグンランコシチョウ",
    "town": "鮎川",
    "town_kana": "アユカワ",
    "street": null,
    "office_name": null,
    "office_name_kana": null
  },
  "1300": {
    "postcode": "0481300",
    "prefecture": "北海道",
    "prefecture_kana": "ホッカイドウ",
    "prefecture_code": 1,
    "city": "磯谷郡蘭越町",
    "city_kana": "イソヤグンランコシチョウ",
    "town": "",
    "town_kana": "",
    "street": null,
    "office_name": null,
    "office_name_kana": null
  },
  "1301": {
    "postcode": "0481301",
    "prefecture": "北海道",
    "prefecture_kana": "ホッカイドウ",
    "prefecture_code": 1,
    "city": "磯谷郡蘭越町",
    "city_kana": "イソヤグンランコシチョウ",
    "town": "蘭越町",
    "town_kana": "ランコシマチ",
    "street": null,
    "office_name": null,
    "office_name_kana": null
  },
  "1302": {
    "postcode": "0481302",
    "prefecture": "北海道",
    "prefecture_kana": "ホッカイドウ",
    "prefecture_code": 1,
    "city": "磯谷郡蘭越町",
    "city_kana": "イソヤグンランコシチョウ",
    "town": "昆布町",
    "town_kana": "コンブマチ",
    "street": null,
    "office_name": null,
    "office_name_kana": null
  },
  "1303": {
    "postcode": "0481303",
    "prefecture": "北海道",
    "prefecture_kana": "ホッカイドウ",
    "prefecture_code": 1,
    "city": "磯谷郡蘭越町",
    "city_kana": "イソヤグンランコシチョウ",
    "town": "立川",
    "town_kana": "タチカワ",
    "street": null,
    "office_name": null,
    "office_name_kana": null
  },
  "1304": {
    "postcode": "0481304",
    "prefecture": "北海道",
    "prefecture_kana": "ホッカイドウ",
    "prefecture_code": 1,
    "city": "磯谷郡蘭越町",
    "city_kana": "イソヤグンランコシチョウ",
    "town": "水上",
    "town_kana": "ミズカミ",
    "street": null,
    "office_name": null,
    "office_name_kana": null
  },
  "1305": {
    "postcode": "0481305",
    "prefecture": "北海道",
    "prefecture_kana": "ホッカイドウ",
    "prefecture_code": 1,
    "city": "磯谷郡蘭越町",
    "city_kana": "イソヤグンランコシチョウ",
    "town": "大谷",
    "town_kana": "オオタニ",
    "street": null,
    "office_name": null,
    "office_name_kana": null
  },
  "1306": {
    "postcode": "0481306",
    "prefecture": "北海道",
    "prefecture_kana": "ホッカイドウ",
    "prefecture_code": 1,
    "city": "磯谷郡蘭越町",
    "city_kana": "イソヤグンランコシチョウ",
    "town": "淀川",
    "town_kana": "ヨドガワ",
    "street": null,
    "office_name": null,
    "office_name_kana": null
  },
  "1307": [
    {
      "postcode": "0481307",
      "prefecture": "北海道",
      "prefecture_kana": "ホッカイドウ",
      "prefecture_code": 1,
      "city": "磯谷郡蘭越町",
      "city_kana": "イソヤグンランコシチョウ",
      "town": "トンカラ",
      "town_kana": "トンカラ",
      "street": null,
      "office_name": null,
      "office_name_kana": null
    },
    {
      "postcode": "0481307",
      "prefecture": "北海道",
      "prefecture_kana": "ホッカイドウ",
      "prefecture_code": 1,
      "city": "磯谷郡蘭越町",
      "city_kana": "イソヤグンランコシチョウ",
      "town": "名駒町",
      "town_kana": "ナコママチ",
      "street": null,
      "office_name": null,
      "office_name_kana": null
    }
  ],
  "1311": {
    "postcode": "0481311",
    "prefecture": "北海道",
    "prefecture_kana": "ホッカイドウ",
    "prefecture_code": 1,
    "city": "磯谷郡蘭越町",
    "city_kana": "イソヤグンランコシチョウ",
    "town": "吉国",
    "town_kana": "ヨシクニ",
    "street": null,
    "office_name": null,
    "office_name_kana": null
  },
  "1312": [
    {
      "postcode": "0481312",
      "prefecture": "北海道",
      "prefecture_kana": "ホッカイドウ",
      "prefecture_code": 1,
      "city": "磯谷郡蘭越町",
      "city_kana": "イソヤグンランコシチョウ",
      "town": "冷水",
      "town_kana": "ヒヤミズ",
      "street": null,
      "office_name": null,
      "office_name_kana": null
    },
    {
      "postcode": "0481312",
      "prefecture": "北海道",
      "prefecture_kana": "ホッカイドウ",
      "prefecture_code": 1,
      "city": "磯谷郡蘭越町",
      "city_kana": "イソヤグンランコシチョウ",
      "town": "三和",
      "town_kana": "ミツワ",
      "street": null,
      "office_name": null,
      "office_name_kana": null
    }
  ],
  "1313": {
    "postcode": "0481313",
    "prefecture": "北海道",
    "prefecture_kana": "ホッカイドウ",
    "prefecture_code": 1,
    "city": "磯谷郡蘭越町",
    "city_kana": "イソヤグンランコシチョウ",
    "town": "上里",
    "town_kana": "カミサト",
    "street": null,
    "office_name": null,
    "office_name_kana": null
  },
  "1314": {
    "postcode": "0481314",
    "prefecture": "北海道",
    "prefecture_kana": "ホッカイドウ",
    "prefecture_code": 1,
    "city": "磯谷郡蘭越町",
    "city_kana": "イソヤグンランコシチョウ",
    "town": "御成",
    "town_kana": "オナリ",
    "street": null,
    "office_name": null,
    "office_name_kana": null
  },
  "1315": {
    "postcode": "0481315",
    "prefecture": "北海道",
    "prefecture_kana": "ホッカイドウ",
    "prefecture_code": 1,
    "city": "磯谷郡蘭越町",
    "city_kana": "イソヤグンランコシチョウ",
    "town": "共栄",
    "town_kana": "キョウエイ",
    "street": null,
    "office_name": null,
    "office_name_kana": null
  },
  "1316": [
    {
      "postcode": "0481316",
      "prefecture": "北海道",
      "prefecture_kana": "ホッカイドウ",
      "prefecture_code": 1,
      "city": "磯谷郡蘭越町",
      "city_kana": "イソヤグンランコシチョウ",
      "town": "大曲",
      "town_kana": "オオマガリ",
      "street": null,
      "office_name": null,
      "office_name_kana": null
    },
    {
      "postcode": "0481316",
      "prefecture": "北海道",
      "prefecture_kana": "ホッカイドウ",
      "prefecture_code": 1,
      "city": "磯谷郡蘭越町",
      "city_kana": "イソヤグンランコシチョウ",
      "town": "初田",
      "town_kana": "ハツタ",
      "street": null,
      "office_name": null,
      "office_name_kana": null
    }
  ],
  "1321": [
    {
      "postcode": "0481321",
      "prefecture": "北海道",
      "prefecture_kana": "ホッカイドウ",
      "prefecture_code": 1,
      "city": "磯谷郡蘭越町",
      "city_kana": "イソヤグンランコシチョウ",
      "town": "昆布温泉",
      "town_kana": "コンブオンセン",
      "street": null,
      "office_name": null,
      "office_name_kana": null
    },
    {
      "postcode": "0481321",
      "prefecture": "北海道",
      "prefecture_kana": "ホッカイドウ",
      "prefecture_code": 1,
      "city": "磯谷郡蘭越町",
      "city_kana": "イソヤグンランコシチョウ",
      "town": "湯里",
      "town_kana": "ユノサト",
      "street": null,
      "office_name": null,
      "office_name_kana": null
    }
  ],
  "1322": {
    "postcode": "0481322",
    "prefecture": "北海道",
    "prefecture_kana": "ホッカイドウ",
    "prefecture_code": 1,
    "city": "磯谷郡蘭越町",
    "city_kana": "イソヤグンランコシチョウ",
    "town": "日出",
    "town_kana": "ヒノデ",
    "street": null,
    "office_name": null,
    "office_name_kana": null
  },
  "1323": {
    "postcode": "0481323",
    "prefecture": "北海道",
    "prefecture_kana": "ホッカイドウ",
    "prefecture_code": 1,
    "city": "磯谷郡蘭越町",
    "city_kana": "イソヤグンランコシチョウ",
    "town": "黄金",
    "town_kana": "コガネ",
    "street": null,
    "office_name": null,
    "office_name_kana": null
  },
  "1324": {
    "postcode": "0481324",
    "prefecture": "北海道",
    "prefecture_kana": "ホッカイドウ",
    "prefecture_code": 1,
    "city": "磯谷郡蘭越町",
    "city_kana": "イソヤグンランコシチョウ",
    "town": "豊国",
    "town_kana": "トヨクニ",
    "street": null,
    "office_name": null,
    "office_name_kana": null
  },
  "1325": {
    "postcode": "0481325",
    "prefecture": "北海道",
    "prefecture_kana": "ホッカイドウ",
    "prefecture_code": 1,
    "city": "磯谷郡蘭越町",
    "city_kana": "イソヤグンランコシチョウ",
    "town": "栄",
    "town_kana": "サカエ",
    "street": null,
    "office_name": null,
    "office_name_kana": null
  },
  "1326": {
    "postcode": "0481326",
    "prefecture": "北海道",
    "prefecture_kana": "ホッカイドウ",
    "prefecture_code": 1,
    "city": "磯谷郡蘭越町",
    "city_kana": "イソヤグンランコシチョウ",
    "town": "富岡",
    "town_kana": "トミオカ",
    "street": null,
    "office_name": null,
    "office_name_kana": null
  },
  "1327": {
    "postcode": "0481327",
    "prefecture": "北海道",
    "prefecture_kana": "ホッカイドウ",
    "prefecture_code": 1,
    "city": "磯谷郡蘭越町",
    "city_kana": "イソヤグンランコシチョウ",
    "town": "新見",
    "town_kana": "ニイミ",
    "street": null,
    "office_name": null,
    "office_name_kana": null
  },
  "1341": {
    "postcode": "0481341",
    "prefecture": "北海道",
    "prefecture_kana": "ホッカイドウ",
    "prefecture_code": 1,
    "city": "磯谷郡蘭越町",
    "city_kana": "イソヤグンランコシチョウ",
    "town": "港町",
    "town_kana": "ミナトマチ",
    "street": null,
    "office_name": null,
    "office_name_kana": null
  },
  "1392": {
    "postcode": "0481392",
    "prefecture": "北海道",
    "prefecture_kana": "ホッカイドウ",
    "prefecture_code": 1,
    "city": "磯谷郡蘭越町",
    "city_kana": "イソヤグンランコシチョウ",
    "town": "蘭越町",
    "town_kana": "ランコシマチ",
    "street": "２５８番地の５",
    "office_name": "蘭越町役場",
    "office_name_kana": "ランコシチヨウヤクバ"
  },
  "1393": {
    "postcode": "0481393",
    "prefecture": "北海道",
    "prefecture_kana": "ホッカイドウ",
    "prefecture_code": 1,
    "city": "磯谷郡蘭越町",
    "city_kana": "イソヤグンランコシチョウ",
    "town": "蘭越町",
    "town_kana": "ランコシマチ",
    "street": "",
    "office_name": "ようてい農業協同組合　蘭越支所",
    "office_name_kana": "ヨウテイノウギヨウキヨウドウクミアイ ランコシシシヨ"
  },
  "1394": {
    "postcode": "0481394",
    "prefecture": "北海道",
    "prefecture_kana": "ホッカイドウ",
    "prefecture_code": 1,
    "city": "磯谷郡蘭越町",
    "city_kana": "イソヤグンランコシチョウ",
    "town": "蘭越町",
    "town_kana": "ランコシマチ",
    "street": "２２番地（蘭越郵便局私書箱第１８号）",
    "office_name": "（株）　熊谷本店",
    "office_name_kana": "カブシキガイシヤ クマガイホンテン"
  },
  "1395": {
    "postcode": "0481395",
    "prefecture": "北海道",
    "prefecture_kana": "ホッカイドウ",
    "prefecture_code": 1,
    "city": "磯谷郡蘭越町",
    "city_kana": "イソヤグンランコシチョウ",
    "town": "蘭越町",
    "town_kana": "ランコシマチ",
    "street": "１１１番地の６",
    "office_name": "北海信用金庫　蘭越支店",
    "office_name_kana": "ホツカイシンヨウキンコ ランコシシテン"
  },
  "1396": {
    "postcode": "0481396",
    "prefecture": "北海道",
    "prefecture_kana": "ホッカイドウ",
    "prefecture_code": 1,
    "city": "磯谷郡蘭越町",
    "city_kana": "イソヤグンランコシチョウ",
    "town": "蘭越町",
    "town_kana": "ランコシマチ",
    "street": "５１４番地の２（蘭越郵便局私書箱第１９号）",
    "office_name": "室野建設工業　（株）",
    "office_name_kana": "ムロノケンセツコウギヨウ カブシキガイシヤ"
  },
  "1500": {
    "postcode": "0481500",
    "prefecture": "北海道",
    "prefecture_kana": "ホッカイドウ",
    "prefecture_code": 1,
    "city": "虻田郡ニセコ町",
    "city_kana": "アブタグンニセコチョウ",
    "town": "",
    "town_kana": "",
    "street": null,
    "office_name": null,
    "office_name_kana": null
  },
  "1501": {
    "postcode": "0481501",
    "prefecture": "北海道",
    "prefecture_kana": "ホッカイドウ",
    "prefecture_code": 1,
    "city": "虻田郡ニセコ町",
    "city_kana": "アブタグンニセコチョウ",
    "town": "富士見",
    "town_kana": "フジミ",
    "street": null,
    "office_name": null,
    "office_name_kana": null
  },
  "1502": {
    "postcode": "0481502",
    "prefecture": "北海道",
    "prefecture_kana": "ホッカイドウ",
    "prefecture_code": 1,
    "city": "虻田郡ニセコ町",
    "city_kana": "アブタグンニセコチョウ",
    "town": "本通",
    "town_kana": "ホンドオリ",
    "street": null,
    "office_name": null,
    "office_name_kana": null
  },
  "1511": {
    "postcode": "0481511",
    "prefecture": "北海道",
    "prefecture_kana": "ホッカイドウ",
    "prefecture_code": 1,
    "city": "虻田郡ニセコ町",
    "city_kana": "アブタグンニセコチョウ",
    "town": "ニセコ",
    "town_kana": "ニセコ",
    "street": null,
    "office_name": null,
    "office_name_kana": null
  },
  "1512": {
    "postcode": "0481512",
    "prefecture": "北海道",
    "prefecture_kana": "ホッカイドウ",
    "prefecture_code": 1,
    "city": "虻田郡ニセコ町",
    "city_kana": "アブタグンニセコチョウ",
    "town": "中央通",
    "town_kana": "チュウオウドオリ",
    "street": null,
    "office_name": null,
    "office_name_kana": null
  },
  "1521": {
    "postcode": "0481521",
    "prefecture": "北海道",
    "prefecture_kana": "ホッカイドウ",
    "prefecture_code": 1,
    "city": "虻田郡ニセコ町",
    "city_kana": "アブタグンニセコチョウ",
    "town": "東山",
    "town_kana": "ヒガシヤマ",
    "street": null,
    "office_name": null,
    "office_name_kana": null
  },
  "1522": {
    "postcode": "0481522",
    "prefecture": "北海道",
    "prefecture_kana": "ホッカイドウ",
    "prefecture_code": 1,
    "city": "虻田郡ニセコ町",
    "city_kana": "アブタグンニセコチョウ",
    "town": "曽我",
    "town_kana": "ソガ",
    "street": null,
    "office_name": null,
    "office_name_kana": null
  },
  "1531": {
    "postcode": "0481531",
    "prefecture": "北海道",
    "prefecture_kana": "ホッカイドウ",
    "prefecture_code": 1,
    "city": "虻田郡ニセコ町",
    "city_kana": "アブタグンニセコチョウ",
    "town": "有島",
    "town_kana": "アリシマ",
    "street": null,
    "office_name": null,
    "office_name_kana": null
  },
  "1541": {
    "postcode": "0481541",
    "prefecture": "北海道",
    "prefecture_kana": "ホッカイドウ",
    "prefecture_code": 1,
    "city": "虻田郡ニセコ町",
    "city_kana": "アブタグンニセコチョウ",
    "town": "羊蹄",
    "town_kana": "ヨウテイ",
    "street": null,
    "office_name": null,
    "office_name_kana": null
  },
  "1542": {
    "postcode": "0481542",
    "prefecture": "北海道",
    "prefecture_kana": "ホッカイドウ",
    "prefecture_code": 1,
    "city": "虻田郡ニセコ町",
    "city_kana": "アブタグンニセコチョウ",
    "town": "近藤",
    "town_kana": "コンドウ",
    "street": null,
    "office_name": null,
    "office_name_kana": null
  },
  "1543": {
    "postcode": "0481543",
    "prefecture": "北海道",
    "prefecture_kana": "ホッカイドウ",
    "prefecture_code": 1,
    "city": "虻田郡ニセコ町",
    "city_kana": "アブタグンニセコチョウ",
    "town": "豊里",
    "town_kana": "トヨサト",
    "street": null,
    "office_name": null,
    "office_name_kana": null
  },
  "1544": {
    "postcode": "0481544",
    "prefecture": "北海道",
    "prefecture_kana": "ホッカイドウ",
    "prefecture_code": 1,
    "city": "虻田郡ニセコ町",
    "city_kana": "アブタグンニセコチョウ",
    "town": "元町",
    "town_kana": "モトマチ",
    "street": null,
    "office_name": null,
    "office_name_kana": null
  },
  "1551": {
    "postcode": "0481551",
    "prefecture": "北海道",
    "prefecture_kana": "ホッカイドウ",
    "prefecture_code": 1,
    "city": "虻田郡ニセコ町",
    "city_kana": "アブタグンニセコチョウ",
    "town": "里見",
    "town_kana": "サトミ",
    "street": null,
    "office_name": null,
    "office_name_kana": null
  },
  "1552": {
    "postcode": "0481552",
    "prefecture": "北海道",
    "prefecture_kana": "ホッカイドウ",
    "prefecture_code": 1,
    "city": "虻田郡ニセコ町",
    "city_kana": "アブタグンニセコチョウ",
    "town": "宮田",
    "town_kana": "ミヤタ",
    "street": null,
    "office_name": null,
    "office_name_kana": null
  },
  "1553": {
    "postcode": "0481553",
    "prefecture": "北海道",
    "prefecture_kana": "ホッカイドウ",
    "prefecture_code": 1,
    "city": "虻田郡ニセコ町",
    "city_kana": "アブタグンニセコチョウ",
    "town": "黒川",
    "town_kana": "クロカワ",
    "street": null,
    "office_name": null,
    "office_name_kana": null
  },
  "1554": {
    "postcode": "0481554",
    "prefecture": "北海道",
    "prefecture_kana": "ホッカイドウ",
    "prefecture_code": 1,
    "city": "虻田郡ニセコ町",
    "city_kana": "アブタグンニセコチョウ",
    "town": "富川",
    "town_kana": "トミカワ",
    "street": null,
    "office_name": null,
    "office_name_kana": null
  },
  "1561": {
    "postcode": "0481561",
    "prefecture": "北海道",
    "prefecture_kana": "ホッカイドウ",
    "prefecture_code": 1,
    "city": "虻田郡ニセコ町",
    "city_kana": "アブタグンニセコチョウ",
    "town": "福井",
    "town_kana": "フクイ",
    "street": null,
    "office_name": null,
    "office_name_kana": null
  },
  "1562": {
    "postcode": "0481562",
    "prefecture": "北海道",
    "prefecture_kana": "ホッカイドウ",
    "prefecture_code": 1,
    "city": "虻田郡ニセコ町",
    "city_kana": "アブタグンニセコチョウ",
    "town": "桂台",
    "town_kana": "カツラダイ",
    "street": null,
    "office_name": null,
    "office_name_kana": null
  },
  "1563": {
    "postcode": "0481563",
    "prefecture": "北海道",
    "prefecture_kana": "ホッカイドウ",
    "prefecture_code": 1,
    "city": "虻田郡ニセコ町",
    "city_kana": "アブタグンニセコチョウ",
    "town": "西富",
    "town_kana": "ニシトミ",
    "street": null,
    "office_name": null,
    "office_name_kana": null
  },
  "1592": {
    "postcode": "0481592",
    "prefecture": "北海道",
    "prefecture_kana": "ホッカイドウ",
    "prefecture_code": 1,
    "city": "虻田郡ニセコ町",
    "city_kana": "アブタグンニセコチョウ",
    "town": "字東山",
    "town_kana": null,
    "street": "温泉",
    "office_name": "ヒルトンニセコビレッジ",
    "office_name_kana": "ヒルトンニセコビレツジ"
  },
  "1595": {
    "postcode": "0481595",
    "prefecture": "北海道",
    "prefecture_kana": "ホッカイドウ",
    "prefecture_code": 1,
    "city": "虻田郡ニセコ町",
    "city_kana": "アブタグンニセコチョウ",
    "town": "字富士見",
    "town_kana": null,
    "street": "４７番地",
    "office_name": "ニセコ町役場",
    "office_name_kana": "ニセコチヨウヤクバ"
  },
  "1600": {
    "postcode": "0481600",
    "prefecture": "北海道",
    "prefecture_kana": "ホッカイドウ",
    "prefecture_code": 1,
    "city": "虻田郡真狩村",
    "city_kana": "アブタグンマッカリムラ",
    "town": "",
    "town_kana": "",
    "street": null,
    "office_name": null,
    "office_name_kana": null
  },
  "1601": {
    "postcode": "0481601",
    "prefecture": "北海道",
    "prefecture_kana": "ホッカイドウ",
    "prefecture_code": 1,
    "city": "虻田郡真狩村",
    "city_kana": "アブタグンマッカリムラ",
    "town": "美原",
    "town_kana": "ミハラ",
    "street": null,
    "office_name": null,
    "office_name_kana": null
  },
  "1602": {
    "postcode": "0481602",
    "prefecture": "北海道",
    "prefecture_kana": "ホッカイドウ",
    "prefecture_code": 1,
    "city": "虻田郡真狩村",
    "city_kana": "アブタグンマッカリムラ",
    "town": "泉",
    "town_kana": "イズミ",
    "street": null,
    "office_name": null,
    "office_name_kana": null
  },
  "1603": {
    "postcode": "0481603",
    "prefecture": "北海道",
    "prefecture_kana": "ホッカイドウ",
    "prefecture_code": 1,
    "city": "虻田郡真狩村",
    "city_kana": "アブタグンマッカリムラ",
    "town": "共明",
    "town_kana": "キョウメイ",
    "street": null,
    "office_name": null,
    "office_name_kana": null
  },
  "1604": {
    "postcode": "0481604",
    "prefecture": "北海道",
    "prefecture_kana": "ホッカイドウ",
    "prefecture_code": 1,
    "city": "虻田郡真狩村",
    "city_kana": "アブタグンマッカリムラ",
    "town": "富里",
    "town_kana": "トミサト",
    "street": null,
    "office_name": null,
    "office_name_kana": null
  },
  "1605": {
    "postcode": "0481605",
    "prefecture": "北海道",
    "prefecture_kana": "ホッカイドウ",
    "prefecture_code": 1,
    "city": "虻田郡真狩村",
    "city_kana": "アブタグンマッカリムラ",
    "town": "社",
    "town_kana": "ヤシロ",
    "street": null,
    "office_name": null,
    "office_name_kana": null
  },
  "1611": {
    "postcode": "0481611",
    "prefecture": "北海道",
    "prefecture_kana": "ホッカイドウ",
    "prefecture_code": 1,
    "city": "虻田郡真狩村",
    "city_kana": "アブタグンマッカリムラ",
    "town": "光",
    "town_kana": "ヒカリ",
    "street": null,
    "office_name": null,
    "office_name_kana": null
  },
  "1612": {
    "postcode": "0481612",
    "prefecture": "北海道",
    "prefecture_kana": "ホッカイドウ",
    "prefecture_code": 1,
    "city": "虻田郡真狩村",
    "city_kana": "アブタグンマッカリムラ",
    "town": "見晴",
    "town_kana": "ミハラシ",
    "street": null,
    "office_name": null,
    "office_name_kana": null
  },
  "1613": {
    "postcode": "0481613",
    "prefecture": "北海道",
    "prefecture_kana": "ホッカイドウ",
    "prefecture_code": 1,
    "city": "虻田郡真狩村",
    "city_kana": "アブタグンマッカリムラ",
    "town": "南部",
    "town_kana": "ナンブ",
    "street": null,
    "office_name": null,
    "office_name_kana": null
  },
  "1614": {
    "postcode": "0481614",
    "prefecture": "北海道",
    "prefecture_kana": "ホッカイドウ",
    "prefecture_code": 1,
    "city": "虻田郡真狩村",
    "city_kana": "アブタグンマッカリムラ",
    "town": "桜川",
    "town_kana": "サクラガワ",
    "street": null,
    "office_name": null,
    "office_name_kana": null
  },
  "1615": {
    "postcode": "0481615",
    "prefecture": "北海道",
    "prefecture_kana": "ホッカイドウ",
    "prefecture_code": 1,
    "city": "虻田郡真狩村",
    "city_kana": "アブタグンマッカリムラ",
    "town": "緑岡",
    "town_kana": "ミドリオカ",
    "street": null,
    "office_name": null,
    "office_name_kana": null
  },
  "1621": {
    "postcode": "0481621",
    "prefecture": "北海道",
    "prefecture_kana": "ホッカイドウ",
    "prefecture_code": 1,
    "city": "虻田郡真狩村",
    "city_kana": "アブタグンマッカリムラ",
    "town": "豊川",
    "town_kana": "トヨカワ",
    "street": null,
    "office_name": null,
    "office_name_kana": null
  },
  "1622": {
    "postcode": "0481622",
    "prefecture": "北海道",
    "prefecture_kana": "ホッカイドウ",
    "prefecture_code": 1,
    "city": "虻田郡真狩村",
    "city_kana": "アブタグンマッカリムラ",
    "town": "加野",
    "town_kana": "カノ",
    "street": null,
    "office_name": null,
    "office_name_kana": null
  },
  "1623": {
    "postcode": "0481623",
    "prefecture": "北海道",
    "prefecture_kana": "ホッカイドウ",
    "prefecture_code": 1,
    "city": "虻田郡真狩村",
    "city_kana": "アブタグンマッカリムラ",
    "town": "川崎",
    "town_kana": "カワサキ",
    "street": null,
    "office_name": null,
    "office_name_kana": null
  },
  "1624": {
    "postcode": "0481624",
    "prefecture": "北海道",
    "prefecture_kana": "ホッカイドウ",
    "prefecture_code": 1,
    "city": "虻田郡真狩村",
    "city_kana": "アブタグンマッカリムラ",
    "town": "神里",
    "town_kana": "カミサト",
    "street": null,
    "office_name": null,
    "office_name_kana": null
  },
  "1631": {
    "postcode": "0481631",
    "prefecture": "北海道",
    "prefecture_kana": "ホッカイドウ",
    "prefecture_code": 1,
    "city": "虻田郡真狩村",
    "city_kana": "アブタグンマッカリムラ",
    "town": "真狩",
    "town_kana": "マッカリ",
    "street": null,
    "office_name": null,
    "office_name_kana": null
  },
  "1700": {
    "postcode": "0481700",
    "prefecture": "北海道",
    "prefecture_kana": "ホッカイドウ",
    "prefecture_code": 1,
    "city": "虻田郡留寿都村",
    "city_kana": "アブタグンルスツムラ",
    "town": "",
    "town_kana": "",
    "street": null,
    "office_name": null,
    "office_name_kana": null
  },
  "1711": {
    "postcode": "0481711",
    "prefecture": "北海道",
    "prefecture_kana": "ホッカイドウ",
    "prefecture_code": 1,
    "city": "虻田郡留寿都村",
    "city_kana": "アブタグンルスツムラ",
    "town": "泉川",
    "town_kana": "イズミカワ",
    "street": null,
    "office_name": null,
    "office_name_kana": null
  },
  "1712": {
    "postcode": "0481712",
    "prefecture": "北海道",
    "prefecture_kana": "ホッカイドウ",
    "prefecture_code": 1,
    "city": "虻田郡留寿都村",
    "city_kana": "アブタグンルスツムラ",
    "town": "豊岡",
    "town_kana": "トヨオカ",
    "street": null,
    "office_name": null,
    "office_name_kana": null
  },
  "1721": {
    "postcode": "0481721",
    "prefecture": "北海道",
    "prefecture_kana": "ホッカイドウ",
    "prefecture_code": 1,
    "city": "虻田郡留寿都村",
    "city_kana": "アブタグンルスツムラ",
    "town": "向丘",
    "town_kana": "ムカイオカ",
    "street": null,
    "office_name": null,
    "office_name_kana": null
  },
  "1722": {
    "postcode": "0481722",
    "prefecture": "北海道",
    "prefecture_kana": "ホッカイドウ",
    "prefecture_code": 1,
    "city": "虻田郡留寿都村",
    "city_kana": "アブタグンルスツムラ",
    "town": "黒田",
    "town_kana": "クロダ",
    "street": null,
    "office_name": null,
    "office_name_kana": null
  },
  "1723": {
    "postcode": "0481723",
    "prefecture": "北海道",
    "prefecture_kana": "ホッカイドウ",
    "prefecture_code": 1,
    "city": "虻田郡留寿都村",
    "city_kana": "アブタグンルスツムラ",
    "town": "三ノ原",
    "town_kana": "サンノハラ",
    "street": null,
    "office_name": null,
    "office_name_kana": null
  },
  "1724": {
    "postcode": "0481724",
    "prefecture": "北海道",
    "prefecture_kana": "ホッカイドウ",
    "prefecture_code": 1,
    "city": "虻田郡留寿都村",
    "city_kana": "アブタグンルスツムラ",
    "town": "三豊",
    "town_kana": "ミトヨ",
    "street": null,
    "office_name": null,
    "office_name_kana": null
  },
  "1731": {
    "postcode": "0481731",
    "prefecture": "北海道",
    "prefecture_kana": "ホッカイドウ",
    "prefecture_code": 1,
    "city": "虻田郡留寿都村",
    "city_kana": "アブタグンルスツムラ",
    "town": "留寿都",
    "town_kana": "ルスツ",
    "street": null,
    "office_name": null,
    "office_name_kana": null
  },
  "1741": {
    "postcode": "0481741",
    "prefecture": "北海道",
    "prefecture_kana": "ホッカイドウ",
    "prefecture_code": 1,
    "city": "虻田郡留寿都村",
    "city_kana": "アブタグンルスツムラ",
    "town": "西ノ原",
    "town_kana": "ニシノハラ",
    "street": null,
    "office_name": null,
    "office_name_kana": null
  },
  "1751": {
    "postcode": "0481751",
    "prefecture": "北海道",
    "prefecture_kana": "ホッカイドウ",
    "prefecture_code": 1,
    "city": "虻田郡留寿都村",
    "city_kana": "アブタグンルスツムラ",
    "town": "登",
    "town_kana": "ノボリ",
    "street": null,
    "office_name": null,
    "office_name_kana": null
  },
  "1752": {
    "postcode": "0481752",
    "prefecture": "北海道",
    "prefecture_kana": "ホッカイドウ",
    "prefecture_code": 1,
    "city": "虻田郡留寿都村",
    "city_kana": "アブタグンルスツムラ",
    "town": "旭野",
    "town_kana": "アサヒノ",
    "street": null,
    "office_name": null,
    "office_name_kana": null
  },
  "2141": {
    "postcode": "0482141",
    "prefecture": "北海道",
    "prefecture_kana": "ホッカイドウ",
    "prefecture_code": 1,
    "city": "岩内郡共和町",
    "city_kana": "イワナイグンキョウワチョウ",
    "town": "ワイス",
    "town_kana": "ワイス",
    "street": null,
    "office_name": null,
    "office_name_kana": null
  },
  "2142": {
    "postcode": "0482142",
    "prefecture": "北海道",
    "prefecture_kana": "ホッカイドウ",
    "prefecture_code": 1,
    "city": "岩内郡共和町",
    "city_kana": "イワナイグンキョウワチョウ",
    "town": "小沢",
    "town_kana": "コザワ",
    "street": null,
    "office_name": null,
    "office_name_kana": null
  },
  "2143": {
    "postcode": "0482143",
    "prefecture": "北海道",
    "prefecture_kana": "ホッカイドウ",
    "prefecture_code": 1,
    "city": "岩内郡共和町",
    "city_kana": "イワナイグンキョウワチョウ",
    "town": "国富",
    "town_kana": "クニトミ",
    "street": null,
    "office_name": null,
    "office_name_kana": null
  },
  "2200": {
    "postcode": "0482200",
    "prefecture": "北海道",
    "prefecture_kana": "ホッカイドウ",
    "prefecture_code": 1,
    "city": "岩内郡共和町",
    "city_kana": "イワナイグンキョウワチョウ",
    "town": "",
    "town_kana": "",
    "street": null,
    "office_name": null,
    "office_name_kana": null
  },
  "2201": {
    "postcode": "0482201",
    "prefecture": "北海道",
    "prefecture_kana": "ホッカイドウ",
    "prefecture_code": 1,
    "city": "岩内郡共和町",
    "city_kana": "イワナイグンキョウワチョウ",
    "town": "前田",
    "town_kana": "マエダ",
    "street": null,
    "office_name": null,
    "office_name_kana": null
  },
  "2202": {
    "postcode": "0482202",
    "prefecture": "北海道",
    "prefecture_kana": "ホッカイドウ",
    "prefecture_code": 1,
    "city": "岩内郡共和町",
    "city_kana": "イワナイグンキョウワチョウ",
    "town": "南幌似",
    "town_kana": "ミナミホロニ",
    "street": null,
    "office_name": null,
    "office_name_kana": null
  },
  "2292": {
    "postcode": "0482292",
    "prefecture": "北海道",
    "prefecture_kana": "ホッカイドウ",
    "prefecture_code": 1,
    "city": "岩内郡共和町",
    "city_kana": "イワナイグンキョウワチョウ",
    "town": "南幌似",
    "town_kana": "ミナミホロニ",
    "street": "３８番地の２",
    "office_name": "共和町役場",
    "office_name_kana": "キヨウワチヨウヤクバ"
  },
  "2331": {
    "postcode": "0482331",
    "prefecture": "北海道",
    "prefecture_kana": "ホッカイドウ",
    "prefecture_code": 1,
    "city": "余市郡仁木町",
    "city_kana": "ヨイチグンニキチョウ",
    "town": "大江",
    "town_kana": "オオエ",
    "street": null,
    "office_name": null,
    "office_name_kana": null
  },
  "2332": {
    "postcode": "0482332",
    "prefecture": "北海道",
    "prefecture_kana": "ホッカイドウ",
    "prefecture_code": 1,
    "city": "余市郡仁木町",
    "city_kana": "ヨイチグンニキチョウ",
    "town": "長沢西",
    "town_kana": "ナガサワニシ",
    "street": null,
    "office_name": null,
    "office_name_kana": null
  },
  "2333": {
    "postcode": "0482333",
    "prefecture": "北海道",
    "prefecture_kana": "ホッカイドウ",
    "prefecture_code": 1,
    "city": "余市郡仁木町",
    "city_kana": "ヨイチグンニキチョウ",
    "town": "長沢南",
    "town_kana": "ナガサワミナミ",
    "street": null,
    "office_name": null,
    "office_name_kana": null
  },
  "2334": {
    "postcode": "0482334",
    "prefecture": "北海道",
    "prefecture_kana": "ホッカイドウ",
    "prefecture_code": 1,
    "city": "余市郡仁木町",
    "city_kana": "ヨイチグンニキチョウ",
    "town": "尾根内",
    "town_kana": "オネナイ",
    "street": null,
    "office_name": null,
    "office_name_kana": null
  },
  "2335": {
    "postcode": "0482335",
    "prefecture": "北海道",
    "prefecture_kana": "ホッカイドウ",
    "prefecture_code": 1,
    "city": "余市郡仁木町",
    "city_kana": "ヨイチグンニキチョウ",
    "town": "銀山",
    "town_kana": "ギンザン",
    "street": null,
    "office_name": null,
    "office_name_kana": null
  },
  "2400": {
    "postcode": "0482400",
    "prefecture": "北海道",
    "prefecture_kana": "ホッカイドウ",
    "prefecture_code": 1,
    "city": "余市郡仁木町",
    "city_kana": "ヨイチグンニキチョウ",
    "town": "",
    "town_kana": "",
    "street": null,
    "office_name": null,
    "office_name_kana": null
  },
  "2401": {
    "postcode": "0482401",
    "prefecture": "北海道",
    "prefecture_kana": "ホッカイドウ",
    "prefecture_code": 1,
    "city": "余市郡仁木町",
    "city_kana": "ヨイチグンニキチョウ",
    "town": "旭台",
    "town_kana": "アサヒダイ",
    "street": null,
    "office_name": null,
    "office_name_kana": null
  },
  "2402": {
    "postcode": "0482402",
    "prefecture": "北海道",
    "prefecture_kana": "ホッカイドウ",
    "prefecture_code": 1,
    "city": "余市郡仁木町",
    "city_kana": "ヨイチグンニキチョウ",
    "town": "大江",
    "town_kana": "オオエ",
    "street": null,
    "office_name": null,
    "office_name_kana": null
  },
  "2403": {
    "postcode": "0482403",
    "prefecture": "北海道",
    "prefecture_kana": "ホッカイドウ",
    "prefecture_code": 1,
    "city": "余市郡仁木町",
    "city_kana": "ヨイチグンニキチョウ",
    "town": "然別",
    "town_kana": "シカリベツ",
    "street": null,
    "office_name": null,
    "office_name_kana": null
  },
  "2404": {
    "postcode": "0482404",
    "prefecture": "北海道",
    "prefecture_kana": "ホッカイドウ",
    "prefecture_code": 1,
    "city": "余市郡仁木町",
    "city_kana": "ヨイチグンニキチョウ",
    "town": "砥の川",
    "town_kana": "トノカワ",
    "street": null,
    "office_name": null,
    "office_name_kana": null
  },
  "2405": {
    "postcode": "0482405",
    "prefecture": "北海道",
    "prefecture_kana": "ホッカイドウ",
    "prefecture_code": 1,
    "city": "余市郡仁木町",
    "city_kana": "ヨイチグンニキチョウ",
    "town": "北町",
    "town_kana": "キタマチ",
    "street": null,
    "office_name": null,
    "office_name_kana": null
  },
  "2406": {
    "postcode": "0482406",
    "prefecture": "北海道",
    "prefecture_kana": "ホッカイドウ",
    "prefecture_code": 1,
    "city": "余市郡仁木町",
    "city_kana": "ヨイチグンニキチョウ",
    "town": "西町",
    "town_kana": "ニシマチ",
    "street": null,
    "office_name": null,
    "office_name_kana": null
  },
  "2411": {
    "postcode": "0482411",
    "prefecture": "北海道",
    "prefecture_kana": "ホッカイドウ",
    "prefecture_code": 1,
    "city": "余市郡仁木町",
    "city_kana": "ヨイチグンニキチョウ",
    "town": "東町",
    "town_kana": "ヒガシマチ",
    "street": null,
    "office_name": null,
    "office_name_kana": null
  },
  "2412": {
    "postcode": "0482412",
    "prefecture": "北海道",
    "prefecture_kana": "ホッカイドウ",
    "prefecture_code": 1,
    "city": "余市郡仁木町",
    "city_kana": "ヨイチグンニキチョウ",
    "town": "東町緑ケ丘",
    "town_kana": "ヒガシマチミドリガオカ",
    "street": null,
    "office_name": null,
    "office_name_kana": null
  },
  "2413": {
    "postcode": "0482413",
    "prefecture": "北海道",
    "prefecture_kana": "ホッカイドウ",
    "prefecture_code": 1,
    "city": "余市郡仁木町",
    "city_kana": "ヨイチグンニキチョウ",
    "town": "南町",
    "town_kana": "ミナミマチ",
    "street": null,
    "office_name": null,
    "office_name_kana": null
  },
  "2492": {
    "postcode": "0482492",
    "prefecture": "北海道",
    "prefecture_kana": "ホッカイドウ",
    "prefecture_code": 1,
    "city": "余市郡仁木町",
    "city_kana": "ヨイチグンニキチョウ",
    "town": "西町",
    "town_kana": "ニシマチ",
    "street": "１丁目３６番地１",
    "office_name": "仁木町役場",
    "office_name_kana": "ニキチヨウヤクバ"
  },
  "2493": {
    "postcode": "0482493",
    "prefecture": "北海道",
    "prefecture_kana": "ホッカイドウ",
    "prefecture_code": 1,
    "city": "余市郡仁木町",
    "city_kana": "ヨイチグンニキチョウ",
    "town": "北町",
    "town_kana": "キタマチ",
    "street": "３丁目４",
    "office_name": "新おたる農業協同組合",
    "office_name_kana": "シンオタルノウギヨウキヨウドウクミアイ"
  },
  "2561": {
    "postcode": "0482561",
    "prefecture": "北海道",
    "prefecture_kana": "ホッカイドウ",
    "prefecture_code": 1,
    "city": "小樽市",
    "city_kana": "オタルシ",
    "town": "忍路",
    "town_kana": "オショロ",
    "street": null,
    "office_name": null,
    "office_name_kana": null
  },
  "2562": {
    "postcode": "0482562",
    "prefecture": "北海道",
    "prefecture_kana": "ホッカイドウ",
    "prefecture_code": 1,
    "city": "小樽市",
    "city_kana": "オタルシ",
    "town": "蘭島",
    "town_kana": "ランシマ",
    "street": null,
    "office_name": null,
    "office_name_kana": null
  },
  "2671": {
    "postcode": "0482671",
    "prefecture": "北海道",
    "prefecture_kana": "ホッカイドウ",
    "prefecture_code": 1,
    "city": "小樽市",
    "city_kana": "オタルシ",
    "town": "オタモイ",
    "town_kana": "オタモイ",
    "street": null,
    "office_name": null,
    "office_name_kana": null
  },
  "2672": {
    "postcode": "0482672",
    "prefecture": "北海道",
    "prefecture_kana": "ホッカイドウ",
    "prefecture_code": 1,
    "city": "小樽市",
    "city_kana": "オタルシ",
    "town": "塩谷",
    "town_kana": "シオヤ",
    "street": null,
    "office_name": null,
    "office_name_kana": null
  },
  "2673": {
    "postcode": "0482673",
    "prefecture": "北海道",
    "prefecture_kana": "ホッカイドウ",
    "prefecture_code": 1,
    "city": "小樽市",
    "city_kana": "オタルシ",
    "town": "桃内",
    "town_kana": "モモナイ",
    "street": null,
    "office_name": null,
    "office_name_kana": null
  }
}