{
  "0000": {
    "postcode": "0500000",
    "prefecture": "北海道",
    "prefecture_kana": "ホッカイドウ",
    "prefecture_code": 1,
    "city": "室蘭市",
    "city_kana": "ムロランシ",
    "town": "",
    "town_kana": "",
    "street": null,
    "office_name": null,
    "office_name_kana": null
  },
  "0051": {
    "postcode": "0500051",
    "prefecture": "北海道",
    "prefecture_kana": "ホッカイドウ",
    "prefecture_code": 1,
    "city": "室蘭市",
    "city_kana": "ムロランシ",
    "town": "石川町",
    "town_kana": "イシカワチョウ",
    "street": null,
    "office_name": null,
    "office_name_kana": null
  },
  "0052": {
    "postcode": "0500052",
    "prefecture": "北海道",
    "prefecture_kana": "ホッカイドウ",
    "prefecture_code": 1,
    "city": "室蘭市",
    "city_kana": "ムロランシ",
    "town": "香川町",
    "town_kana": "カガワチョウ",
    "street": null,
    "office_name": null,
    "office_name_kana": null
  },
  "0053": {
    "postcode": "0500053",
    "prefecture": "北海道",
    "prefecture_kana": "ホッカイドウ",
    "prefecture_code": 1,
    "city": "室蘭市",
    "city_kana": "ムロランシ",
    "town": "神代町",
    "town_kana": "カミシロチョウ",
    "street": null,
    "office_name": null,
    "office_name_kana": null
  },
  "0054": {
    "postcode": "0500054",
    "prefecture": "北海道",
    "prefecture_kana": "ホッカイドウ",
    "prefecture_code": 1,
    "city": "室蘭市",
    "city_kana": "ムロランシ",
    "town": "白鳥台",
    "town_kana": "ハクチョウダイ",
    "street": null,
    "office_name": null,
    "office_name_kana": null
  },
  "0055": {
    "postcode": "0500055",
    "prefecture": "北海道",
    "prefecture_kana": "ホッカイドウ",
    "prefecture_code": 1,
    "city": "室蘭市",
    "city_kana": "ムロランシ",
    "town": "崎守町",
    "town_kana": "サキモリチョウ",
    "street": null,
    "office_name": null,
    "office_name_kana": null
  },
  "0061": {
    "postcode": "0500061",
    "prefecture": "北海道",
    "prefecture_kana": "ホッカイドウ",
    "prefecture_code": 1,
    "city": "室蘭市",
    "city_kana": "ムロランシ",
    "town": "八丁平",
    "town_kana": "ハッチョウダイラ",
    "street": null,
    "office_name": null,
    "office_name_kana": null
  },
  "0062": {
    "postcode": "0500062",
    "prefecture": "北海道",
    "prefecture_kana": "ホッカイドウ",
    "prefecture_code": 1,
    "city": "室蘭市",
    "city_kana": "ムロランシ",
    "town": "高平町",
    "town_kana": "タカヒラチョウ",
    "street": null,
    "office_name": null,
    "office_name_kana": null
  },
  "0063": {
    "postcode": "0500063",
    "prefecture": "北海道",
    "prefecture_kana": "ホッカイドウ",
    "prefecture_code": 1,
    "city": "室蘭市",
    "city_kana": "ムロランシ",
    "town": "港北町",
    "town_kana": "コウホクチョウ",
    "street": null,
    "office_name": null,
    "office_name_kana": null
  },
  "0064": {
    "postcode": "0500064",
    "prefecture": "北海道",
    "prefecture_kana": "ホッカイドウ",
    "prefecture_code": 1,
    "city": "室蘭市",
    "city_kana": "ムロランシ",
    "town": "柏木町",
    "town_kana": "カシワギチョウ",
    "street": null,
    "office_name": null,
    "office_name_kana": null
  },
  "0065": {
    "postcode": "0500065",
    "prefecture": "北海道",
    "prefecture_kana": "ホッカイドウ",
    "prefecture_code": 1,
    "city": "室蘭市",
    "city_kana": "ムロランシ",
    "town": "本輪西町",
    "town_kana": "モトワニシチョウ",
    "street": null,
    "office_name": null,
    "office_name_kana": null
  },
  "0066": {
    "postcode": "0500066",
    "prefecture": "北海道",
    "prefecture_kana": "ホッカイドウ",
    "prefecture_code": 1,
    "city": "室蘭市",
    "city_kana": "ムロランシ",
    "town": "幌萌町",
    "town_kana": "ホロモエチョウ",
    "street": null,
    "office_name": null,
    "office_name_kana": null
  },
  "0067": {
    "postcode": "0500067",
    "prefecture": "北海道",
    "prefecture_kana": "ホッカイドウ",
    "prefecture_code": 1,
    "city": "室蘭市",
    "city_kana": "ムロランシ",
    "town": "陣屋町",
    "town_kana": "ジンヤマチ",
    "street": null,
    "office_name": null,
    "office_name_kana": null
  },
  "0071": {
    "postcode": "0500071",
    "prefecture": "北海道",
    "prefecture_kana": "ホッカイドウ",
    "prefecture_code": 1,
    "city": "室蘭市",
    "city_kana": "ムロランシ",
    "town": "水元町",
    "town_kana": "ミズモトチョウ",
    "street": null,
    "office_name": null,
    "office_name_kana": null
  },
  "0072": {
    "postcode": "0500072",
    "prefecture": "北海道",
    "prefecture_kana": "ホッカイドウ",
    "prefecture_code": 1,
    "city": "室蘭市",
    "city_kana": "ムロランシ",
    "town": "高砂町",
    "town_kana": "タカサゴチョウ",
    "street": null,
    "office_name": null,
    "office_name_kana": null
  },
  "0073": {
    "postcode": "0500073",
    "prefecture": "北海道",
    "prefecture_kana": "ホッカイドウ",
    "prefecture_code": 1,
    "city": "室蘭市",
    "city_kana": "ムロランシ",
    "town": "宮の森町",
    "town_kana": "ミヤノモリチョウ",
    "street": null,
    "office_name": null,
    "office_name_kana": null
  },
  "0074": {
    "postcode": "0500074",
    "prefecture": "北海道",
    "prefecture_kana": "ホッカイドウ",
    "prefecture_code": 1,
    "city": "室蘭市",
    "city_kana": "ムロランシ",
    "town": "中島町",
    "town_kana": "ナカジマチョウ",
    "street": null,
    "office_name": null,
    "office_name_kana": null
  },
  "0075": {
    "postcode": "0500075",
    "prefecture": "北海道",
    "prefecture_kana": "ホッカイドウ",
    "prefecture_code": 1,
    "city": "室蘭市",
    "city_kana": "ムロランシ",
    "town": "中島本町",
    "town_kana": "ナカジマホンチョウ",
    "street": null,
    "office_name": null,
    "office_name_kana": null
  },
  "0076": {
    "postcode": "0500076",
    "prefecture": "北海道",
    "prefecture_kana": "ホッカイドウ",
    "prefecture_code": 1,
    "city": "室蘭市",
    "city_kana": "ムロランシ",
    "town": "知利別町",
    "town_kana": "チリベツチョウ",
    "street": null,
    "office_name": null,
    "office_name_kana": null
  },
  "0077": {
    "postcode": "0500077",
    "prefecture": "北海道",
    "prefecture_kana": "ホッカイドウ",
    "prefecture_code": 1,
    "city": "室蘭市",
    "city_kana": "ムロランシ",
    "town": "天神町",
    "town_kana": "テンジンチョウ",
    "street": null,
    "office_name": null,
    "office_name_kana": null
  },
  "0081": {
    "postcode": "0500081",
    "prefecture": "北海道",
    "prefecture_kana": "ホッカイドウ",
    "prefecture_code": 1,
    "city": "室蘭市",
    "city_kana": "ムロランシ",
    "town": "日の出町",
    "town_kana": "ヒノデチョウ",
    "street": null,
    "office_name": null,
    "office_name_kana": null
  },
  "0082": {
    "postcode": "0500082",
    "prefecture": "北海道",
    "prefecture_kana": "ホッカイドウ",
    "prefecture_code": 1,
    "city": "室蘭市",
    "city_kana": "ムロランシ",
    "town": "寿町",
    "town_kana": "コトブキチョウ",
    "street": null,
    "office_name": null,
    "office_name_kana": null
  },
  "0083": {
    "postcode": "0500083",
    "prefecture": "北海道",
    "prefecture_kana": "ホッカイドウ",
    "prefecture_code": 1,
    "city": "室蘭市",
    "city_kana": "ムロランシ",
    "town": "東町",
    "town_kana": "ヒガシマチ",
    "street": null,
    "office_name": null,
    "office_name_kana": null
  },
  "0084": {
    "postcode": "0500084",
    "prefecture": "北海道",
    "prefecture_kana": "ホッカイドウ",
    "prefecture_code": 1,
    "city": "室蘭市",
    "city_kana": "ムロランシ",
    "town": "みゆき町",
    "town_kana": "ミユキチョウ",
    "street": null,
    "office_name": null,
    "office_name_kana": null
  },
  "0085": {
    "postcode": "0500085",
    "prefecture": "北海道",
    "prefecture_kana": "ホッカイドウ",
    "prefecture_code": 1,
    "city": "室蘭市",
    "city_kana": "ムロランシ",
    "town": "輪西町",
    "town_kana": "ワニシチョウ",
    "street": null,
    "office_name": null,
    "office_name_kana": null
  },
  "0086": {
    "postcode": "0500086",
    "prefecture": "北海道",
    "prefecture_kana": "ホッカイドウ",
    "prefecture_code": 1,
    "city": "室蘭市",
    "city_kana": "ムロランシ",
    "town": "大沢町",
    "town_kana": "オオサワチョウ",
    "street": null,
    "office_name": null,
    "office_name_kana": null
  },
  "0087": {
    "postcode": "0500087",
    "prefecture": "北海道",
    "prefecture_kana": "ホッカイドウ",
    "prefecture_code": 1,
    "city": "室蘭市",
    "city_kana": "ムロランシ",
    "town": "仲町",
    "town_kana": "ナカマチ",
    "street": null,
    "office_name": null,
    "office_name_kana": null
  },
  "8510": {
    "postcode": "0508510",
    "prefecture": "北海道",
    "prefecture_kana": "ホッカイドウ",
    "prefecture_code": 1,
    "city": "室蘭市",
    "city_kana": "ムロランシ",
    "town": "仲町",
    "town_kana": "ナカマチ",
    "street": "６４",
    "office_name": "日鐵セメント　株式会社",
    "office_name_kana": "ニツテツセメント カブシキガイシヤ"
  },
  "8511": {
    "postcode": "0508511",
    "prefecture": "北海道",
    "prefecture_kana": "ホッカイドウ",
    "prefecture_code": 1,
    "city": "室蘭市",
    "city_kana": "ムロランシ",
    "town": "東町",
    "town_kana": "ヒガシマチ",
    "street": "１丁目１８番６号",
    "office_name": "（株）　ＮＴＴ東日本　北海道　室蘭支店",
    "office_name_kana": "カブシキガイシヤ エヌテイ-テイ-ヒガシニホン ホツカイドウ ムロランシテン"
  },
  "8518": {
    "postcode": "0508518",
    "prefecture": "北海道",
    "prefecture_kana": "ホッカイドウ",
    "prefecture_code": 1,
    "city": "室蘭市",
    "city_kana": "ムロランシ",
    "town": "中島町",
    "town_kana": "ナカジマチョウ",
    "street": "１丁目２２番６号",
    "office_name": "（株）　北洋銀行　中島町支店",
    "office_name_kana": "カブシキガイシヤ ホクヨウギンコウ ナカジマチヨウシテン"
  },
  "8550": {
    "postcode": "0508550",
    "prefecture": "北海道",
    "prefecture_kana": "ホッカイドウ",
    "prefecture_code": 1,
    "city": "室蘭市",
    "city_kana": "ムロランシ",
    "town": "仲町",
    "town_kana": "ナカマチ",
    "street": "１２番地",
    "office_name": "新日本製鉄　（株）　室蘭製鉄所",
    "office_name_kana": "シンニホンセイテツ カブシキガイシヤ ムロランセイテツシヨ"
  },
  "8570": {
    "postcode": "0508570",
    "prefecture": "北海道",
    "prefecture_kana": "ホッカイドウ",
    "prefecture_code": 1,
    "city": "室蘭市",
    "city_kana": "ムロランシ",
    "town": "崎守町",
    "town_kana": "サキモリチョウ",
    "street": "３８５番地",
    "office_name": "株式会社　楢崎製作所",
    "office_name_kana": "カブシキガイシヤ ナラサキセイサクシヨ"
  },
  "8582": {
    "postcode": "0508582",
    "prefecture": "北海道",
    "prefecture_kana": "ホッカイドウ",
    "prefecture_code": 1,
    "city": "室蘭市",
    "city_kana": "ムロランシ",
    "town": "寿町",
    "town_kana": "コトブキチョウ",
    "street": "３丁目２０番１号",
    "office_name": "トヨタカローラ室蘭　（株）",
    "office_name_kana": "トヨタカロ-ラムロラン カブシキカイシヤ"
  },
  "8585": {
    "postcode": "0508585",
    "prefecture": "北海道",
    "prefecture_kana": "ホッカイドウ",
    "prefecture_code": 1,
    "city": "室蘭市",
    "city_kana": "ムロランシ",
    "town": "水元町",
    "town_kana": "ミズモトチョウ",
    "street": "２７番１号",
    "office_name": "室蘭工業大学",
    "office_name_kana": "ムロランコウギヨウダイガク"
  },
  "8588": {
    "postcode": "0508588",
    "prefecture": "北海道",
    "prefecture_kana": "ホッカイドウ",
    "prefecture_code": 1,
    "city": "室蘭市",
    "city_kana": "ムロランシ",
    "town": "日の出町",
    "town_kana": "ヒノデチョウ",
    "street": "２丁目２番１０号",
    "office_name": "株式会社　モロオ　室蘭営業所",
    "office_name_kana": "カブシキガイシヤ モロオ ムロランエイギヨウシヨ"
  },
  "8725": {
    "postcode": "0508725",
    "prefecture": "北海道",
    "prefecture_kana": "ホッカイドウ",
    "prefecture_code": 1,
    "city": "室蘭市",
    "city_kana": "ムロランシ",
    "town": "東町",
    "town_kana": "ヒガシマチ",
    "street": "２丁目２４番１３号（東室蘭郵便局私書箱第１６号）",
    "office_name": "室蘭信用金庫",
    "office_name_kana": "ムロランシンヨウキンコ"
  }
}