{
  "0001": {
    "postcode": "0510001",
    "prefecture": "北海道",
    "prefecture_kana": "ホッカイドウ",
    "prefecture_code": 1,
    "city": "室蘭市",
    "city_kana": "ムロランシ",
    "town": "御崎町",
    "town_kana": "ミサキチョウ",
    "street": null,
    "office_name": null,
    "office_name_kana": null
  },
  "0002": {
    "postcode": "0510002",
    "prefecture": "北海道",
    "prefecture_kana": "ホッカイドウ",
    "prefecture_code": 1,
    "city": "室蘭市",
    "city_kana": "ムロランシ",
    "town": "御前水町",
    "town_kana": "ゴゼンスイチョウ",
    "street": null,
    "office_name": null,
    "office_name_kana": null
  },
  "0003": {
    "postcode": "0510003",
    "prefecture": "北海道",
    "prefecture_kana": "ホッカイドウ",
    "prefecture_code": 1,
    "city": "室蘭市",
    "city_kana": "ムロランシ",
    "town": "母恋南町",
    "town_kana": "ボコイミナミマチ",
    "street": null,
    "office_name": null,
    "office_name_kana": null
  },
  "0004": {
    "postcode": "0510004",
    "prefecture": "北海道",
    "prefecture_kana": "ホッカイドウ",
    "prefecture_code": 1,
    "city": "室蘭市",
    "city_kana": "ムロランシ",
    "town": "母恋北町",
    "town_kana": "ボコイキタマチ",
    "street": null,
    "office_name": null,
    "office_name_kana": null
  },
  "0005": {
    "postcode": "0510005",
    "prefecture": "北海道",
    "prefecture_kana": "ホッカイドウ",
    "prefecture_code": 1,
    "city": "室蘭市",
    "city_kana": "ムロランシ",
    "town": "新富町",
    "town_kana": "シントミチョウ",
    "street": null,
    "office_name": null,
    "office_name_kana": null
  },
  "0006": {
    "postcode": "0510006",
    "prefecture": "北海道",
    "prefecture_kana": "ホッカイドウ",
    "prefecture_code": 1,
    "city": "室蘭市",
    "city_kana": "ムロランシ",
    "town": "茶津町",
    "town_kana": "チャツチョウ",
    "street": null,
    "office_name": null,
    "office_name_kana": null
  },
  "0011": {
    "postcode": "0510011",
    "prefecture": "北海道",
    "prefecture_kana": "ホッカイドウ",
    "prefecture_code": 1,
    "city": "室蘭市",
    "city_kana": "ムロランシ",
    "town": "中央町",
    "town_kana": "チュウオウチョウ",
    "street": null,
    "office_name": null,
    "office_name_kana": null
  },
  "0012": {
    "postcode": "0510012",
    "prefecture": "北海道",
    "prefecture_kana": "ホッカイドウ",
    "prefecture_code": 1,
    "city": "室蘭市",
    "city_kana": "ムロランシ",
    "town": "山手町",
    "town_kana": "ヤマテチョウ",
    "street": null,
    "office_name": null,
    "office_name_kana": null
  },
  "0013": {
    "postcode": "0510013",
    "prefecture": "北海道",
    "prefecture_kana": "ホッカイドウ",
    "prefecture_code": 1,
    "city": "室蘭市",
    "city_kana": "ムロランシ",
    "town": "舟見町",
    "town_kana": "フナミチョウ",
    "street": null,
    "office_name": null,
    "office_name_kana": null
  },
  "0014": {
    "postcode": "0510014",
    "prefecture": "北海道",
    "prefecture_kana": "ホッカイドウ",
    "prefecture_code": 1,
    "city": "室蘭市",
    "city_kana": "ムロランシ",
    "town": "栄町",
    "town_kana": "サカエチョウ",
    "street": null,
    "office_name": null,
    "office_name_kana": null
  },
  "0015": {
    "postcode": "0510015",
    "prefecture": "北海道",
    "prefecture_kana": "ホッカイドウ",
    "prefecture_code": 1,
    "city": "室蘭市",
    "city_kana": "ムロランシ",
    "town": "本町",
    "town_kana": "ホンチョウ",
    "street": null,
    "office_name": null,
    "office_name_kana": null
  },
  "0016": {
    "postcode": "0510016",
    "prefecture": "北海道",
    "prefecture_kana": "ホッカイドウ",
    "prefecture_code": 1,
    "city": "室蘭市",
    "city_kana": "ムロランシ",
    "town": "幸町",
    "town_kana": "サイワイチョウ",
    "street": null,
    "office_name": null,
    "office_name_kana": null
  },
  "0021": {
    "postcode": "0510021",
    "prefecture": "北海道",
    "prefecture_kana": "ホッカイドウ",
    "prefecture_code": 1,
    "city": "室蘭市",
    "city_kana": "ムロランシ",
    "town": "緑町",
    "town_kana": "ミドリチョウ",
    "street": null,
    "office_name": null,
    "office_name_kana": null
  },
  "0022": {
    "postcode": "0510022",
    "prefecture": "北海道",
    "prefecture_kana": "ホッカイドウ",
    "prefecture_code": 1,
    "city": "室蘭市",
    "city_kana": "ムロランシ",
    "town": "海岸町",
    "town_kana": "カイガンチョウ",
    "street": null,
    "office_name": null,
    "office_name_kana": null
  },
  "0023": {
    "postcode": "0510023",
    "prefecture": "北海道",
    "prefecture_kana": "ホッカイドウ",
    "prefecture_code": 1,
    "city": "室蘭市",
    "city_kana": "ムロランシ",
    "town": "入江町",
    "town_kana": "イリエチョウ",
    "street": null,
    "office_name": null,
    "office_name_kana": null
  },
  "0024": {
    "postcode": "0510024",
    "prefecture": "北海道",
    "prefecture_kana": "ホッカイドウ",
    "prefecture_code": 1,
    "city": "室蘭市",
    "city_kana": "ムロランシ",
    "town": "幕西町",
    "town_kana": "マクニシチョウ",
    "street": null,
    "office_name": null,
    "office_name_kana": null
  },
  "0025": {
    "postcode": "0510025",
    "prefecture": "北海道",
    "prefecture_kana": "ホッカイドウ",
    "prefecture_code": 1,
    "city": "室蘭市",
    "city_kana": "ムロランシ",
    "town": "常盤町",
    "town_kana": "トキワチョウ",
    "street": null,
    "office_name": null,
    "office_name_kana": null
  },
  "0026": {
    "postcode": "0510026",
    "prefecture": "北海道",
    "prefecture_kana": "ホッカイドウ",
    "prefecture_code": 1,
    "city": "室蘭市",
    "city_kana": "ムロランシ",
    "town": "清水町",
    "town_kana": "シミズチョウ",
    "street": null,
    "office_name": null,
    "office_name_kana": null
  },
  "0027": {
    "postcode": "0510027",
    "prefecture": "北海道",
    "prefecture_kana": "ホッカイドウ",
    "prefecture_code": 1,
    "city": "室蘭市",
    "city_kana": "ムロランシ",
    "town": "沢町",
    "town_kana": "サワチョウ",
    "street": null,
    "office_name": null,
    "office_name_kana": null
  },
  "0028": {
    "postcode": "0510028",
    "prefecture": "北海道",
    "prefecture_kana": "ホッカイドウ",
    "prefecture_code": 1,
    "city": "室蘭市",
    "city_kana": "ムロランシ",
    "town": "西小路町",
    "town_kana": "ニシコウジチョウ",
    "street": null,
    "office_name": null,
    "office_name_kana": null
  },
  "0031": {
    "postcode": "0510031",
    "prefecture": "北海道",
    "prefecture_kana": "ホッカイドウ",
    "prefecture_code": 1,
    "city": "室蘭市",
    "city_kana": "ムロランシ",
    "town": "築地町",
    "town_kana": "ツキジチョウ",
    "street": null,
    "office_name": null,
    "office_name_kana": null
  },
  "0032": {
    "postcode": "0510032",
    "prefecture": "北海道",
    "prefecture_kana": "ホッカイドウ",
    "prefecture_code": 1,
    "city": "室蘭市",
    "city_kana": "ムロランシ",
    "town": "港南町",
    "town_kana": "コウナンチョウ",
    "street": null,
    "office_name": null,
    "office_name_kana": null
  },
  "0033": {
    "postcode": "0510033",
    "prefecture": "北海道",
    "prefecture_kana": "ホッカイドウ",
    "prefecture_code": 1,
    "city": "室蘭市",
    "city_kana": "ムロランシ",
    "town": "小橋内町",
    "town_kana": "オハシナイチョウ",
    "street": null,
    "office_name": null,
    "office_name_kana": null
  },
  "0034": {
    "postcode": "0510034",
    "prefecture": "北海道",
    "prefecture_kana": "ホッカイドウ",
    "prefecture_code": 1,
    "city": "室蘭市",
    "city_kana": "ムロランシ",
    "town": "増市町",
    "town_kana": "マスイチチョウ",
    "street": null,
    "office_name": null,
    "office_name_kana": null
  },
  "0035": {
    "postcode": "0510035",
    "prefecture": "北海道",
    "prefecture_kana": "ホッカイドウ",
    "prefecture_code": 1,
    "city": "室蘭市",
    "city_kana": "ムロランシ",
    "town": "絵鞆町",
    "town_kana": "エトモチョウ",
    "street": null,
    "office_name": null,
    "office_name_kana": null
  },
  "0036": {
    "postcode": "0510036",
    "prefecture": "北海道",
    "prefecture_kana": "ホッカイドウ",
    "prefecture_code": 1,
    "city": "室蘭市",
    "city_kana": "ムロランシ",
    "town": "祝津町",
    "town_kana": "シュクヅチョウ",
    "street": null,
    "office_name": null,
    "office_name_kana": null
  },
  "8501": {
    "postcode": "0518501",
    "prefecture": "北海道",
    "prefecture_kana": "ホッカイドウ",
    "prefecture_code": 1,
    "city": "室蘭市",
    "city_kana": "ムロランシ",
    "town": "新富町",
    "town_kana": "シントミチョウ",
    "street": "１丁目５番１３号",
    "office_name": "医療法人社団　日鋼記念病院",
    "office_name_kana": "イリヨウホウジンシヤダン ニツコウキネンビヨウイン"
  },
  "8505": {
    "postcode": "0518505",
    "prefecture": "北海道",
    "prefecture_kana": "ホッカイドウ",
    "prefecture_code": 1,
    "city": "室蘭市",
    "city_kana": "ムロランシ",
    "town": "茶津町",
    "town_kana": "チャツチョウ",
    "street": "４番地",
    "office_name": "日本製鋼所Ｍ＆Ｅ　株式会社",
    "office_name_kana": "ニホンセイコウシヨエムアンドイ- カブシキカイシヤ"
  },
  "8511": {
    "postcode": "0518511",
    "prefecture": "北海道",
    "prefecture_kana": "ホッカイドウ",
    "prefecture_code": 1,
    "city": "室蘭市",
    "city_kana": "ムロランシ",
    "town": "幸町",
    "town_kana": "サイワイチョウ",
    "street": "１番２号",
    "office_name": "室蘭市役所",
    "office_name_kana": "ムロランシヤクシヨ"
  },
  "8512": {
    "postcode": "0518512",
    "prefecture": "北海道",
    "prefecture_kana": "ホッカイドウ",
    "prefecture_code": 1,
    "city": "室蘭市",
    "city_kana": "ムロランシ",
    "town": "山手町",
    "town_kana": "ヤマテチョウ",
    "street": "３丁目８番１号",
    "office_name": "市立室蘭総合病院",
    "office_name_kana": "シリツムロランソウゴウビヨウイン"
  },
  "8524": {
    "postcode": "0518524",
    "prefecture": "北海道",
    "prefecture_kana": "ホッカイドウ",
    "prefecture_code": 1,
    "city": "室蘭市",
    "city_kana": "ムロランシ",
    "town": "入江町",
    "town_kana": "イリエチョウ",
    "street": "１番地１４",
    "office_name": "室蘭開発建設部",
    "office_name_kana": "ムロランカイハツケンセツブ"
  },
  "8530": {
    "postcode": "0518530",
    "prefecture": "北海道",
    "prefecture_kana": "ホッカイドウ",
    "prefecture_code": 1,
    "city": "室蘭市",
    "city_kana": "ムロランシ",
    "town": "海岸町",
    "town_kana": "カイガンチョウ",
    "street": "１丁目４番１号むろらん広域センタービル内",
    "office_name": "室蘭市役所　広域センタービル庁舎",
    "office_name_kana": "ムロランシヤクシヨ コウイキセンタ-ビルチヨウシヤ"
  },
  "8546": {
    "postcode": "0518546",
    "prefecture": "北海道",
    "prefecture_kana": "ホッカイドウ",
    "prefecture_code": 1,
    "city": "室蘭市",
    "city_kana": "ムロランシ",
    "town": "茶津町",
    "town_kana": "チャツチョウ",
    "street": "４番地",
    "office_name": "日鋼協力会",
    "office_name_kana": "ニツコウキヨウリヨクカイ"
  },
  "8550": {
    "postcode": "0518550",
    "prefecture": "北海道",
    "prefecture_kana": "ホッカイドウ",
    "prefecture_code": 1,
    "city": "室蘭市",
    "city_kana": "ムロランシ",
    "town": "本町",
    "town_kana": "ホンチョウ",
    "street": "１丁目３番１６号",
    "office_name": "株式会社　室蘭民報社",
    "office_name_kana": "カブシキガイシヤ ムロランミンポウシヤ"
  },
  "8555": {
    "postcode": "0518555",
    "prefecture": "北海道",
    "prefecture_kana": "ホッカイドウ",
    "prefecture_code": 1,
    "city": "室蘭市",
    "city_kana": "ムロランシ",
    "town": "海岸町",
    "town_kana": "カイガンチョウ",
    "street": "１丁目４番１号",
    "office_name": "北海道胆振総合振興局　保健環境部　保健行政室",
    "office_name_kana": "ホツカイドウイブリソウゴウシンコウキヨク ホケンカンキヨウブ ホケンギヨウセイシツ"
  },
  "8558": {
    "postcode": "0518558",
    "prefecture": "北海道",
    "prefecture_kana": "ホッカイドウ",
    "prefecture_code": 1,
    "city": "室蘭市",
    "city_kana": "ムロランシ",
    "town": "海岸町",
    "town_kana": "カイガンチョウ",
    "street": "１丁目４番１号",
    "office_name": "北海道胆振総合振興局",
    "office_name_kana": "ホツカイドウイブリソウゴウシンコウキヨク"
  },
  "8585": {
    "postcode": "0518585",
    "prefecture": "北海道",
    "prefecture_kana": "ホッカイドウ",
    "prefecture_code": 1,
    "city": "室蘭市",
    "city_kana": "ムロランシ",
    "town": "海岸町",
    "town_kana": "カイガンチョウ",
    "street": "１丁目２０番９号",
    "office_name": "室蘭社会保険事務所",
    "office_name_kana": "ムロランシヤカイホケンジムシヨ"
  },
  "8588": {
    "postcode": "0518588",
    "prefecture": "北海道",
    "prefecture_kana": "ホッカイドウ",
    "prefecture_code": 1,
    "city": "室蘭市",
    "city_kana": "ムロランシ",
    "town": "海岸町",
    "town_kana": "カイガンチョウ",
    "street": "３丁目６番９号",
    "office_name": "吉沢商事　（株）",
    "office_name_kana": "ヨシザワシヨウジ カブシキガイシヤ"
  }
}