{
  "0000": {
    "postcode": "0520000",
    "prefecture": "北海道",
    "prefecture_kana": "ホッカイドウ",
    "prefecture_code": 1,
    "city": "伊達市",
    "city_kana": "ダテシ",
    "town": "",
    "town_kana": "",
    "street": null,
    "office_name": null,
    "office_name_kana": null
  },
  "0001": [
    {
      "postcode": "0520001",
      "prefecture": "北海道",
      "prefecture_kana": "ホッカイドウ",
      "prefecture_code": 1,
      "city": "伊達市",
      "city_kana": "ダテシ",
      "town": "喜門別町",
      "town_kana": "キモンベツチョウ",
      "street": null,
      "office_name": null,
      "office_name_kana": null
    },
    {
      "postcode": "0520001",
      "prefecture": "北海道",
      "prefecture_kana": "ホッカイドウ",
      "prefecture_code": 1,
      "city": "伊達市",
      "city_kana": "ダテシ",
      "town": "志門気町",
      "town_kana": "シモンケチョウ",
      "street": null,
      "office_name": null,
      "office_name_kana": null
    }
  ],
  "0002": {
    "postcode": "0520002",
    "prefecture": "北海道",
    "prefecture_kana": "ホッカイドウ",
    "prefecture_code": 1,
    "city": "伊達市",
    "city_kana": "ダテシ",
    "town": "乾町",
    "town_kana": "イヌイチョウ",
    "street": null,
    "office_name": null,
    "office_name_kana": null
  },
  "0003": {
    "postcode": "0520003",
    "prefecture": "北海道",
    "prefecture_kana": "ホッカイドウ",
    "prefecture_code": 1,
    "city": "伊達市",
    "city_kana": "ダテシ",
    "town": "幌美内町",
    "town_kana": "ホロビナイチョウ",
    "street": null,
    "office_name": null,
    "office_name_kana": null
  },
  "0004": {
    "postcode": "0520004",
    "prefecture": "北海道",
    "prefecture_kana": "ホッカイドウ",
    "prefecture_code": 1,
    "city": "伊達市",
    "city_kana": "ダテシ",
    "town": "萩原町",
    "town_kana": "ハギワラチョウ",
    "street": null,
    "office_name": null,
    "office_name_kana": null
  },
  "0005": {
    "postcode": "0520005",
    "prefecture": "北海道",
    "prefecture_kana": "ホッカイドウ",
    "prefecture_code": 1,
    "city": "伊達市",
    "city_kana": "ダテシ",
    "town": "清住町",
    "town_kana": "キヨズミチョウ",
    "street": null,
    "office_name": null,
    "office_name_kana": null
  },
  "0006": {
    "postcode": "0520006",
    "prefecture": "北海道",
    "prefecture_kana": "ホッカイドウ",
    "prefecture_code": 1,
    "city": "伊達市",
    "city_kana": "ダテシ",
    "town": "東関内町",
    "town_kana": "ヒガシセキナイチョウ",
    "street": null,
    "office_name": null,
    "office_name_kana": null
  },
  "0007": {
    "postcode": "0520007",
    "prefecture": "北海道",
    "prefecture_kana": "ホッカイドウ",
    "prefecture_code": 1,
    "city": "伊達市",
    "city_kana": "ダテシ",
    "town": "西関内町",
    "town_kana": "ニシセキナイチョウ",
    "street": null,
    "office_name": null,
    "office_name_kana": null
  },
  "0008": {
    "postcode": "0520008",
    "prefecture": "北海道",
    "prefecture_kana": "ホッカイドウ",
    "prefecture_code": 1,
    "city": "伊達市",
    "city_kana": "ダテシ",
    "town": "上館山町",
    "town_kana": "カミタテヤマチョウ",
    "street": null,
    "office_name": null,
    "office_name_kana": null
  },
  "0011": {
    "postcode": "0520011",
    "prefecture": "北海道",
    "prefecture_kana": "ホッカイドウ",
    "prefecture_code": 1,
    "city": "伊達市",
    "city_kana": "ダテシ",
    "town": "竹原町",
    "town_kana": "タケハラチョウ",
    "street": null,
    "office_name": null,
    "office_name_kana": null
  },
  "0012": {
    "postcode": "0520012",
    "prefecture": "北海道",
    "prefecture_kana": "ホッカイドウ",
    "prefecture_code": 1,
    "city": "伊達市",
    "city_kana": "ダテシ",
    "town": "松ケ枝町",
    "town_kana": "マツガエチョウ",
    "street": null,
    "office_name": null,
    "office_name_kana": null
  },
  "0013": {
    "postcode": "0520013",
    "prefecture": "北海道",
    "prefecture_kana": "ホッカイドウ",
    "prefecture_code": 1,
    "city": "伊達市",
    "city_kana": "ダテシ",
    "town": "弄月町",
    "town_kana": "ロウゲツチョウ",
    "street": null,
    "office_name": null,
    "office_name_kana": null
  },
  "0014": {
    "postcode": "0520014",
    "prefecture": "北海道",
    "prefecture_kana": "ホッカイドウ",
    "prefecture_code": 1,
    "city": "伊達市",
    "city_kana": "ダテシ",
    "town": "舟岡町",
    "town_kana": "フナオカチョウ",
    "street": null,
    "office_name": null,
    "office_name_kana": null
  },
  "0015": {
    "postcode": "0520015",
    "prefecture": "北海道",
    "prefecture_kana": "ホッカイドウ",
    "prefecture_code": 1,
    "city": "伊達市",
    "city_kana": "ダテシ",
    "town": "旭町",
    "town_kana": "アサヒチョウ",
    "street": null,
    "office_name": null,
    "office_name_kana": null
  },
  "0016": {
    "postcode": "0520016",
    "prefecture": "北海道",
    "prefecture_kana": "ホッカイドウ",
    "prefecture_code": 1,
    "city": "伊達市",
    "city_kana": "ダテシ",
    "town": "東浜町",
    "town_kana": "ヒガシハマチョウ",
    "street": null,
    "office_name": null,
    "office_name_kana": null
  },
  "0021": {
    "postcode": "0520021",
    "prefecture": "北海道",
    "prefecture_kana": "ホッカイドウ",
    "prefecture_code": 1,
    "city": "伊達市",
    "city_kana": "ダテシ",
    "town": "末永町",
    "town_kana": "スエナガチョウ",
    "street": null,
    "office_name": null,
    "office_name_kana": null
  },
  "0022": {
    "postcode": "0520022",
    "prefecture": "北海道",
    "prefecture_kana": "ホッカイドウ",
    "prefecture_code": 1,
    "city": "伊達市",
    "city_kana": "ダテシ",
    "town": "梅本町",
    "town_kana": "ウメモトチョウ",
    "street": null,
    "office_name": null,
    "office_name_kana": null
  },
  "0023": {
    "postcode": "0520023",
    "prefecture": "北海道",
    "prefecture_kana": "ホッカイドウ",
    "prefecture_code": 1,
    "city": "伊達市",
    "city_kana": "ダテシ",
    "town": "元町",
    "town_kana": "モトマチ",
    "street": null,
    "office_name": null,
    "office_name_kana": null
  },
  "0024": {
    "postcode": "0520024",
    "prefecture": "北海道",
    "prefecture_kana": "ホッカイドウ",
    "prefecture_code": 1,
    "city": "伊達市",
    "city_kana": "ダテシ",
    "town": "鹿島町",
    "town_kana": "カシマチョウ",
    "street": null,
    "office_name": null,
    "office_name_kana": null
  },
  "0025": {
    "postcode": "0520025",
    "prefecture": "北海道",
    "prefecture_kana": "ホッカイドウ",
    "prefecture_code": 1,
    "city": "伊達市",
    "city_kana": "ダテシ",
    "town": "網代町",
    "town_kana": "アジロチョウ",
    "street": null,
    "office_name": null,
    "office_name_kana": null
  },
  "0026": {
    "postcode": "0520026",
    "prefecture": "北海道",
    "prefecture_kana": "ホッカイドウ",
    "prefecture_code": 1,
    "city": "伊達市",
    "city_kana": "ダテシ",
    "town": "錦町",
    "town_kana": "ニシキチョウ",
    "street": null,
    "office_name": null,
    "office_name_kana": null
  },
  "0027": {
    "postcode": "0520027",
    "prefecture": "北海道",
    "prefecture_kana": "ホッカイドウ",
    "prefecture_code": 1,
    "city": "伊達市",
    "city_kana": "ダテシ",
    "town": "大町",
    "town_kana": "オオマチ",
    "street": null,
    "office_name": null,
    "office_name_kana": null
  },
  "0031": {
    "postcode": "0520031",
    "prefecture": "北海道",
    "prefecture_kana": "ホッカイドウ",
    "prefecture_code": 1,
    "city": "伊達市",
    "city_kana": "ダテシ",
    "town": "館山町",
    "town_kana": "タテヤマチョウ",
    "street": null,
    "office_name": null,
    "office_name_kana": null
  },
  "0032": {
    "postcode": "0520032",
    "prefecture": "北海道",
    "prefecture_kana": "ホッカイドウ",
    "prefecture_code": 1,
    "city": "伊達市",
    "city_kana": "ダテシ",
    "town": "山下町",
    "town_kana": "ヤマシタチョウ",
    "street": null,
    "office_name": null,
    "office_name_kana": null
  },
  "0033": {
    "postcode": "0520033",
    "prefecture": "北海道",
    "prefecture_kana": "ホッカイドウ",
    "prefecture_code": 1,
    "city": "伊達市",
    "city_kana": "ダテシ",
    "town": "西浜町",
    "town_kana": "ニシハマチョウ",
    "street": null,
    "office_name": null,
    "office_name_kana": null
  },
  "0034": {
    "postcode": "0520034",
    "prefecture": "北海道",
    "prefecture_kana": "ホッカイドウ",
    "prefecture_code": 1,
    "city": "伊達市",
    "city_kana": "ダテシ",
    "town": "館山下町",
    "town_kana": "タテヤマシタチョウ",
    "street": null,
    "office_name": null,
    "office_name_kana": null
  },
  "0035": {
    "postcode": "0520035",
    "prefecture": "北海道",
    "prefecture_kana": "ホッカイドウ",
    "prefecture_code": 1,
    "city": "伊達市",
    "city_kana": "ダテシ",
    "town": "長和町",
    "town_kana": "ナガワチョウ",
    "street": null,
    "office_name": null,
    "office_name_kana": null
  },
  "0036": {
    "postcode": "0520036",
    "prefecture": "北海道",
    "prefecture_kana": "ホッカイドウ",
    "prefecture_code": 1,
    "city": "伊達市",
    "city_kana": "ダテシ",
    "town": "上長和町",
    "town_kana": "カミナガワチョウ",
    "street": null,
    "office_name": null,
    "office_name_kana": null
  },
  "0100": {
    "postcode": "0520100",
    "prefecture": "北海道",
    "prefecture_kana": "ホッカイドウ",
    "prefecture_code": 1,
    "city": "有珠郡壮瞥町",
    "city_kana": "ウスグンソウベツチョウ",
    "town": "",
    "town_kana": "",
    "street": null,
    "office_name": null,
    "office_name_kana": null
  },
  "0101": {
    "postcode": "0520101",
    "prefecture": "北海道",
    "prefecture_kana": "ホッカイドウ",
    "prefecture_code": 1,
    "city": "有珠郡壮瞥町",
    "city_kana": "ウスグンソウベツチョウ",
    "town": "滝之町",
    "town_kana": "タキノマチ",
    "street": null,
    "office_name": null,
    "office_name_kana": null
  },
  "0102": {
    "postcode": "0520102",
    "prefecture": "北海道",
    "prefecture_kana": "ホッカイドウ",
    "prefecture_code": 1,
    "city": "有珠郡壮瞥町",
    "city_kana": "ウスグンソウベツチョウ",
    "town": "昭和新山",
    "town_kana": "ショウワシンザン",
    "street": null,
    "office_name": null,
    "office_name_kana": null
  },
  "0103": {
    "postcode": "0520103",
    "prefecture": "北海道",
    "prefecture_kana": "ホッカイドウ",
    "prefecture_code": 1,
    "city": "有珠郡壮瞥町",
    "city_kana": "ウスグンソウベツチョウ",
    "town": "壮瞥温泉",
    "town_kana": "ソウベツオンセン",
    "street": null,
    "office_name": null,
    "office_name_kana": null
  },
  "0104": {
    "postcode": "0520104",
    "prefecture": "北海道",
    "prefecture_kana": "ホッカイドウ",
    "prefecture_code": 1,
    "city": "有珠郡壮瞥町",
    "city_kana": "ウスグンソウベツチョウ",
    "town": "東湖畔",
    "town_kana": "ヒガシコハン",
    "street": null,
    "office_name": null,
    "office_name_kana": null
  },
  "0105": {
    "postcode": "0520105",
    "prefecture": "北海道",
    "prefecture_kana": "ホッカイドウ",
    "prefecture_code": 1,
    "city": "有珠郡壮瞥町",
    "city_kana": "ウスグンソウベツチョウ",
    "town": "仲洞爺",
    "town_kana": "ナカトウヤ",
    "street": null,
    "office_name": null,
    "office_name_kana": null
  },
  "0106": {
    "postcode": "0520106",
    "prefecture": "北海道",
    "prefecture_kana": "ホッカイドウ",
    "prefecture_code": 1,
    "city": "有珠郡壮瞥町",
    "city_kana": "ウスグンソウベツチョウ",
    "town": "立香",
    "town_kana": "タツカ",
    "street": null,
    "office_name": null,
    "office_name_kana": null
  },
  "0107": {
    "postcode": "0520107",
    "prefecture": "北海道",
    "prefecture_kana": "ホッカイドウ",
    "prefecture_code": 1,
    "city": "有珠郡壮瞥町",
    "city_kana": "ウスグンソウベツチョウ",
    "town": "洞爺湖温泉",
    "town_kana": "トウヤコオンセン",
    "street": null,
    "office_name": null,
    "office_name_kana": null
  },
  "0111": {
    "postcode": "0520111",
    "prefecture": "北海道",
    "prefecture_kana": "ホッカイドウ",
    "prefecture_code": 1,
    "city": "有珠郡壮瞥町",
    "city_kana": "ウスグンソウベツチョウ",
    "town": "上久保内",
    "town_kana": "カミクボナイ",
    "street": null,
    "office_name": null,
    "office_name_kana": null
  },
  "0112": {
    "postcode": "0520112",
    "prefecture": "北海道",
    "prefecture_kana": "ホッカイドウ",
    "prefecture_code": 1,
    "city": "有珠郡壮瞥町",
    "city_kana": "ウスグンソウベツチョウ",
    "town": "久保内",
    "town_kana": "クボナイ",
    "street": null,
    "office_name": null,
    "office_name_kana": null
  },
  "0113": {
    "postcode": "0520113",
    "prefecture": "北海道",
    "prefecture_kana": "ホッカイドウ",
    "prefecture_code": 1,
    "city": "有珠郡壮瞥町",
    "city_kana": "ウスグンソウベツチョウ",
    "town": "蟠渓",
    "town_kana": "バンケイ",
    "street": null,
    "office_name": null,
    "office_name_kana": null
  },
  "0114": {
    "postcode": "0520114",
    "prefecture": "北海道",
    "prefecture_kana": "ホッカイドウ",
    "prefecture_code": 1,
    "city": "有珠郡壮瞥町",
    "city_kana": "ウスグンソウベツチョウ",
    "town": "幸内",
    "town_kana": "コウナイ",
    "street": null,
    "office_name": null,
    "office_name_kana": null
  },
  "0115": {
    "postcode": "0520115",
    "prefecture": "北海道",
    "prefecture_kana": "ホッカイドウ",
    "prefecture_code": 1,
    "city": "有珠郡壮瞥町",
    "city_kana": "ウスグンソウベツチョウ",
    "town": "弁景",
    "town_kana": "ベンケイ",
    "street": null,
    "office_name": null,
    "office_name_kana": null
  },
  "0116": {
    "postcode": "0520116",
    "prefecture": "北海道",
    "prefecture_kana": "ホッカイドウ",
    "prefecture_code": 1,
    "city": "有珠郡壮瞥町",
    "city_kana": "ウスグンソウベツチョウ",
    "town": "南久保内",
    "town_kana": "ミナミクボナイ",
    "street": null,
    "office_name": null,
    "office_name_kana": null
  },
  "0301": {
    "postcode": "0520301",
    "prefecture": "北海道",
    "prefecture_kana": "ホッカイドウ",
    "prefecture_code": 1,
    "city": "伊達市",
    "city_kana": "ダテシ",
    "town": "大滝区本町",
    "town_kana": "オオタキクホンチョウ",
    "street": null,
    "office_name": null,
    "office_name_kana": null
  },
  "0302": {
    "postcode": "0520302",
    "prefecture": "北海道",
    "prefecture_kana": "ホッカイドウ",
    "prefecture_code": 1,
    "city": "伊達市",
    "city_kana": "ダテシ",
    "town": "大滝区清陵町",
    "town_kana": "オオタキクセイリョウチョウ",
    "street": null,
    "office_name": null,
    "office_name_kana": null
  },
  "0303": {
    "postcode": "0520303",
    "prefecture": "北海道",
    "prefecture_kana": "ホッカイドウ",
    "prefecture_code": 1,
    "city": "伊達市",
    "city_kana": "ダテシ",
    "town": "大滝区三階滝町",
    "town_kana": "オオタキクサンガイタキチョウ",
    "street": null,
    "office_name": null,
    "office_name_kana": null
  },
  "0311": {
    "postcode": "0520311",
    "prefecture": "北海道",
    "prefecture_kana": "ホッカイドウ",
    "prefecture_code": 1,
    "city": "伊達市",
    "city_kana": "ダテシ",
    "town": "大滝区本郷町",
    "town_kana": "オオタキクホンゴウチョウ",
    "street": null,
    "office_name": null,
    "office_name_kana": null
  },
  "0312": {
    "postcode": "0520312",
    "prefecture": "北海道",
    "prefecture_kana": "ホッカイドウ",
    "prefecture_code": 1,
    "city": "伊達市",
    "city_kana": "ダテシ",
    "town": "大滝区上野町",
    "town_kana": "オオタキクウエノチョウ",
    "street": null,
    "office_name": null,
    "office_name_kana": null
  },
  "0313": {
    "postcode": "0520313",
    "prefecture": "北海道",
    "prefecture_kana": "ホッカイドウ",
    "prefecture_code": 1,
    "city": "伊達市",
    "city_kana": "ダテシ",
    "town": "大滝区大成町",
    "town_kana": "オオタキクタイセイチョウ",
    "street": null,
    "office_name": null,
    "office_name_kana": null
  },
  "0314": {
    "postcode": "0520314",
    "prefecture": "北海道",
    "prefecture_kana": "ホッカイドウ",
    "prefecture_code": 1,
    "city": "伊達市",
    "city_kana": "ダテシ",
    "town": "大滝区円山町",
    "town_kana": "オオタキクマルヤマチョウ",
    "street": null,
    "office_name": null,
    "office_name_kana": null
  },
  "0315": {
    "postcode": "0520315",
    "prefecture": "北海道",
    "prefecture_kana": "ホッカイドウ",
    "prefecture_code": 1,
    "city": "伊達市",
    "city_kana": "ダテシ",
    "town": "大滝区昭園町",
    "town_kana": "オオタキクショウエンチョウ",
    "street": null,
    "office_name": null,
    "office_name_kana": null
  },
  "0316": {
    "postcode": "0520316",
    "prefecture": "北海道",
    "prefecture_kana": "ホッカイドウ",
    "prefecture_code": 1,
    "city": "伊達市",
    "city_kana": "ダテシ",
    "town": "大滝区北湯沢温泉町",
    "town_kana": "オオタキクキタユザワオンセンチョウ",
    "street": null,
    "office_name": null,
    "office_name_kana": null
  },
  "0317": {
    "postcode": "0520317",
    "prefecture": "北海道",
    "prefecture_kana": "ホッカイドウ",
    "prefecture_code": 1,
    "city": "伊達市",
    "city_kana": "ダテシ",
    "town": "大滝区優徳町",
    "town_kana": "オオタキクユウトクチョウ",
    "street": null,
    "office_name": null,
    "office_name_kana": null
  },
  "8511": {
    "postcode": "0528511",
    "prefecture": "北海道",
    "prefecture_kana": "ホッカイドウ",
    "prefecture_code": 1,
    "city": "伊達市",
    "city_kana": "ダテシ",
    "town": "末永町",
    "town_kana": "スエナガチョウ",
    "street": "８１番地",
    "office_name": "総合病院　伊達赤十字病院",
    "office_name_kana": "ソウゴウビヨウイン ダテセキジユウジビヨウイン"
  },
  "8585": {
    "postcode": "0528585",
    "prefecture": "北海道",
    "prefecture_kana": "ホッカイドウ",
    "prefecture_code": 1,
    "city": "伊達市",
    "city_kana": "ダテシ",
    "town": "幌美内町",
    "town_kana": "ホロビナイチョウ",
    "street": "３６番地５８",
    "office_name": "北海道社会福祉事業団　太陽の園",
    "office_name_kana": "ホツカイドウシヤカイフクシジギヨウダン タイヨウノソノ"
  },
  "8586": {
    "postcode": "0528586",
    "prefecture": "北海道",
    "prefecture_kana": "ホッカイドウ",
    "prefecture_code": 1,
    "city": "伊達市",
    "city_kana": "ダテシ",
    "town": "旭町",
    "town_kana": "アサヒチョウ",
    "street": "５０番地６２",
    "office_name": "伊達市立通勤センター事務所",
    "office_name_kana": "ダテシリツツウキンセンタ-ジムシヨ"
  },
  "8650": {
    "postcode": "0528650",
    "prefecture": "北海道",
    "prefecture_kana": "ホッカイドウ",
    "prefecture_code": 1,
    "city": "伊達市",
    "city_kana": "ダテシ",
    "town": "梅本町",
    "town_kana": "ウメモトチョウ",
    "street": "３９番地３０（伊達郵便局私書箱第９号）",
    "office_name": "伊達信用金庫",
    "office_name_kana": "ダテシンヨウキンコ"
  },
  "8666": {
    "postcode": "0528666",
    "prefecture": "北海道",
    "prefecture_kana": "ホッカイドウ",
    "prefecture_code": 1,
    "city": "伊達市",
    "city_kana": "ダテシ",
    "town": "末永町",
    "town_kana": "スエナガチョウ",
    "street": "７４番地（伊達郵便局私書箱第６号）",
    "office_name": "伊達市農業協同組合",
    "office_name_kana": "ダテシノウギヨウキヨウドウクミアイ"
  },
  "8686": {
    "postcode": "0528686",
    "prefecture": "北海道",
    "prefecture_kana": "ホッカイドウ",
    "prefecture_code": 1,
    "city": "伊達市",
    "city_kana": "ダテシ",
    "town": "鹿島町",
    "town_kana": "カシマチョウ",
    "street": "４７番地９（伊達郵便局私書箱第１号）",
    "office_name": "商業協同組合　日専連だて",
    "office_name_kana": "シヨウギヨウキヨウドウクミアイ ニツセンレンダテ"
  }
}