{
  "0000": {
    "postcode": "0540000",
    "prefecture": "北海道",
    "prefecture_kana": "ホッカイドウ",
    "prefecture_code": 1,
    "city": "勇払郡むかわ町",
    "city_kana": "ユウフツグンムカワチョウ",
    "town": "",
    "town_kana": "",
    "street": null,
    "office_name": null,
    "office_name_kana": null
  },
  "0001": {
    "postcode": "0540001",
    "prefecture": "北海道",
    "prefecture_kana": "ホッカイドウ",
    "prefecture_code": 1,
    "city": "勇払郡むかわ町",
    "city_kana": "ユウフツグンムカワチョウ",
    "town": "旭岡",
    "town_kana": "アサヒオカ",
    "street": null,
    "office_name": null,
    "office_name_kana": null
  },
  "0002": {
    "postcode": "0540002",
    "prefecture": "北海道",
    "prefecture_kana": "ホッカイドウ",
    "prefecture_code": 1,
    "city": "勇払郡むかわ町",
    "city_kana": "ユウフツグンムカワチョウ",
    "town": "春日",
    "town_kana": "カスガ",
    "street": null,
    "office_name": null,
    "office_name_kana": null
  },
  "0003": {
    "postcode": "0540003",
    "prefecture": "北海道",
    "prefecture_kana": "ホッカイドウ",
    "prefecture_code": 1,
    "city": "勇払郡むかわ町",
    "city_kana": "ユウフツグンムカワチョウ",
    "town": "豊城",
    "town_kana": "トヨシロ",
    "street": null,
    "office_name": null,
    "office_name_kana": null
  },
  "0004": {
    "postcode": "0540004",
    "prefecture": "北海道",
    "prefecture_kana": "ホッカイドウ",
    "prefecture_code": 1,
    "city": "勇払郡むかわ町",
    "city_kana": "ユウフツグンムカワチョウ",
    "town": "田浦",
    "town_kana": "タウラ",
    "street": null,
    "office_name": null,
    "office_name_kana": null
  },
  "0005": {
    "postcode": "0540005",
    "prefecture": "北海道",
    "prefecture_kana": "ホッカイドウ",
    "prefecture_code": 1,
    "city": "勇払郡むかわ町",
    "city_kana": "ユウフツグンムカワチョウ",
    "town": "二宮",
    "town_kana": "ニノミヤ",
    "street": null,
    "office_name": null,
    "office_name_kana": null
  },
  "0011": {
    "postcode": "0540011",
    "prefecture": "北海道",
    "prefecture_kana": "ホッカイドウ",
    "prefecture_code": 1,
    "city": "勇払郡むかわ町",
    "city_kana": "ユウフツグンムカワチョウ",
    "town": "有明",
    "town_kana": "アリアケ",
    "street": null,
    "office_name": null,
    "office_name_kana": null
  },
  "0012": {
    "postcode": "0540012",
    "prefecture": "北海道",
    "prefecture_kana": "ホッカイドウ",
    "prefecture_code": 1,
    "city": "勇払郡むかわ町",
    "city_kana": "ユウフツグンムカワチョウ",
    "town": "生田",
    "town_kana": "イクタ",
    "street": null,
    "office_name": null,
    "office_name_kana": null
  },
  "0013": {
    "postcode": "0540013",
    "prefecture": "北海道",
    "prefecture_kana": "ホッカイドウ",
    "prefecture_code": 1,
    "city": "勇払郡むかわ町",
    "city_kana": "ユウフツグンムカワチョウ",
    "town": "花岡",
    "town_kana": "ハナオカ",
    "street": null,
    "office_name": null,
    "office_name_kana": null
  },
  "0014": {
    "postcode": "0540014",
    "prefecture": "北海道",
    "prefecture_kana": "ホッカイドウ",
    "prefecture_code": 1,
    "city": "勇払郡むかわ町",
    "city_kana": "ユウフツグンムカワチョウ",
    "town": "米原",
    "town_kana": "ヨネハラ",
    "street": null,
    "office_name": null,
    "office_name_kana": null
  },
  "0015": {
    "postcode": "0540015",
    "prefecture": "北海道",
    "prefecture_kana": "ホッカイドウ",
    "prefecture_code": 1,
    "city": "勇払郡むかわ町",
    "city_kana": "ユウフツグンムカワチョウ",
    "town": "汐見",
    "town_kana": "シオミ",
    "street": null,
    "office_name": null,
    "office_name_kana": null
  },
  "0016": {
    "postcode": "0540016",
    "prefecture": "北海道",
    "prefecture_kana": "ホッカイドウ",
    "prefecture_code": 1,
    "city": "勇払郡むかわ町",
    "city_kana": "ユウフツグンムカワチョウ",
    "town": "宮戸",
    "town_kana": "ミヤト",
    "street": null,
    "office_name": null,
    "office_name_kana": null
  },
  "0021": {
    "postcode": "0540021",
    "prefecture": "北海道",
    "prefecture_kana": "ホッカイドウ",
    "prefecture_code": 1,
    "city": "勇払郡むかわ町",
    "city_kana": "ユウフツグンムカワチョウ",
    "town": "大原",
    "town_kana": "オオハラ",
    "street": null,
    "office_name": null,
    "office_name_kana": null
  },
  "0022": {
    "postcode": "0540022",
    "prefecture": "北海道",
    "prefecture_kana": "ホッカイドウ",
    "prefecture_code": 1,
    "city": "勇払郡むかわ町",
    "city_kana": "ユウフツグンムカワチョウ",
    "town": "花園",
    "town_kana": "ハナゾノ",
    "street": null,
    "office_name": null,
    "office_name_kana": null
  },
  "0023": {
    "postcode": "0540023",
    "prefecture": "北海道",
    "prefecture_kana": "ホッカイドウ",
    "prefecture_code": 1,
    "city": "勇払郡むかわ町",
    "city_kana": "ユウフツグンムカワチョウ",
    "town": "末広",
    "town_kana": "スエヒロ",
    "street": null,
    "office_name": null,
    "office_name_kana": null
  },
  "0031": {
    "postcode": "0540031",
    "prefecture": "北海道",
    "prefecture_kana": "ホッカイドウ",
    "prefecture_code": 1,
    "city": "勇払郡むかわ町",
    "city_kana": "ユウフツグンムカワチョウ",
    "town": "青葉",
    "town_kana": "アオバ",
    "street": null,
    "office_name": null,
    "office_name_kana": null
  },
  "0032": {
    "postcode": "0540032",
    "prefecture": "北海道",
    "prefecture_kana": "ホッカイドウ",
    "prefecture_code": 1,
    "city": "勇払郡むかわ町",
    "city_kana": "ユウフツグンムカワチョウ",
    "town": "福住",
    "town_kana": "フクズミ",
    "street": null,
    "office_name": null,
    "office_name_kana": null
  },
  "0041": {
    "postcode": "0540041",
    "prefecture": "北海道",
    "prefecture_kana": "ホッカイドウ",
    "prefecture_code": 1,
    "city": "勇払郡むかわ町",
    "city_kana": "ユウフツグンムカワチョウ",
    "town": "松風",
    "town_kana": "マツカゼ",
    "street": null,
    "office_name": null,
    "office_name_kana": null
  },
  "0042": {
    "postcode": "0540042",
    "prefecture": "北海道",
    "prefecture_kana": "ホッカイドウ",
    "prefecture_code": 1,
    "city": "勇払郡むかわ町",
    "city_kana": "ユウフツグンムカワチョウ",
    "town": "美幸",
    "town_kana": "ミユキ",
    "street": null,
    "office_name": null,
    "office_name_kana": null
  },
  "0051": {
    "postcode": "0540051",
    "prefecture": "北海道",
    "prefecture_kana": "ホッカイドウ",
    "prefecture_code": 1,
    "city": "勇払郡むかわ町",
    "city_kana": "ユウフツグンムカワチョウ",
    "town": "文京",
    "town_kana": "ブンキョウ",
    "street": null,
    "office_name": null,
    "office_name_kana": null
  },
  "0052": {
    "postcode": "0540052",
    "prefecture": "北海道",
    "prefecture_kana": "ホッカイドウ",
    "prefecture_code": 1,
    "city": "勇払郡むかわ町",
    "city_kana": "ユウフツグンムカワチョウ",
    "town": "大成",
    "town_kana": "タイセイ",
    "street": null,
    "office_name": null,
    "office_name_kana": null
  },
  "0061": {
    "postcode": "0540061",
    "prefecture": "北海道",
    "prefecture_kana": "ホッカイドウ",
    "prefecture_code": 1,
    "city": "勇払郡むかわ町",
    "city_kana": "ユウフツグンムカワチョウ",
    "town": "洋光",
    "town_kana": "ヨウコウ",
    "street": null,
    "office_name": null,
    "office_name_kana": null
  },
  "0062": {
    "postcode": "0540062",
    "prefecture": "北海道",
    "prefecture_kana": "ホッカイドウ",
    "prefecture_code": 1,
    "city": "勇払郡むかわ町",
    "city_kana": "ユウフツグンムカワチョウ",
    "town": "若草",
    "town_kana": "ワカクサ",
    "street": null,
    "office_name": null,
    "office_name_kana": null
  },
  "0063": {
    "postcode": "0540063",
    "prefecture": "北海道",
    "prefecture_kana": "ホッカイドウ",
    "prefecture_code": 1,
    "city": "勇払郡むかわ町",
    "city_kana": "ユウフツグンムカワチョウ",
    "town": "駒場",
    "town_kana": "コマバ",
    "street": null,
    "office_name": null,
    "office_name_kana": null
  },
  "0064": {
    "postcode": "0540064",
    "prefecture": "北海道",
    "prefecture_kana": "ホッカイドウ",
    "prefecture_code": 1,
    "city": "勇払郡むかわ町",
    "city_kana": "ユウフツグンムカワチョウ",
    "town": "晴海",
    "town_kana": "ハルミ",
    "street": null,
    "office_name": null,
    "office_name_kana": null
  },
  "0141": {
    "postcode": "0540141",
    "prefecture": "北海道",
    "prefecture_kana": "ホッカイドウ",
    "prefecture_code": 1,
    "city": "勇払郡むかわ町",
    "city_kana": "ユウフツグンムカワチョウ",
    "town": "穂別栄",
    "town_kana": "ホベツサカエ",
    "street": null,
    "office_name": null,
    "office_name_kana": null
  },
  "0142": {
    "postcode": "0540142",
    "prefecture": "北海道",
    "prefecture_kana": "ホッカイドウ",
    "prefecture_code": 1,
    "city": "勇払郡むかわ町",
    "city_kana": "ユウフツグンムカワチョウ",
    "town": "穂別仁和",
    "town_kana": "ホベツニワ",
    "street": null,
    "office_name": null,
    "office_name_kana": null
  },
  "0143": {
    "postcode": "0540143",
    "prefecture": "北海道",
    "prefecture_kana": "ホッカイドウ",
    "prefecture_code": 1,
    "city": "勇払郡むかわ町",
    "city_kana": "ユウフツグンムカワチョウ",
    "town": "穂別和泉",
    "town_kana": "ホベツイズミ",
    "street": null,
    "office_name": null,
    "office_name_kana": null
  },
  "0144": {
    "postcode": "0540144",
    "prefecture": "北海道",
    "prefecture_kana": "ホッカイドウ",
    "prefecture_code": 1,
    "city": "勇払郡むかわ町",
    "city_kana": "ユウフツグンムカワチョウ",
    "town": "穂別豊田",
    "town_kana": "ホベツトヨタ",
    "street": null,
    "office_name": null,
    "office_name_kana": null
  },
  "0201": {
    "postcode": "0540201",
    "prefecture": "北海道",
    "prefecture_kana": "ホッカイドウ",
    "prefecture_code": 1,
    "city": "勇払郡むかわ町",
    "city_kana": "ユウフツグンムカワチョウ",
    "town": "穂別稲里",
    "town_kana": "ホベツイナサト",
    "street": null,
    "office_name": null,
    "office_name_kana": null
  },
  "0202": {
    "postcode": "0540202",
    "prefecture": "北海道",
    "prefecture_kana": "ホッカイドウ",
    "prefecture_code": 1,
    "city": "勇払郡むかわ町",
    "city_kana": "ユウフツグンムカワチョウ",
    "town": "穂別長和",
    "town_kana": "ホベツオサワ",
    "street": null,
    "office_name": null,
    "office_name_kana": null
  },
  "0203": [
    {
      "postcode": "0540203",
      "prefecture": "北海道",
      "prefecture_kana": "ホッカイドウ",
      "prefecture_code": 1,
      "city": "勇払郡むかわ町",
      "city_kana": "ユウフツグンムカワチョウ",
      "town": "穂別豊田",
      "town_kana": "ホベツトヨタ",
      "street": null,
      "office_name": null,
      "office_name_kana": null
    },
    {
      "postcode": "0540203",
      "prefecture": "北海道",
      "prefecture_kana": "ホッカイドウ",
      "prefecture_code": 1,
      "city": "勇払郡むかわ町",
      "city_kana": "ユウフツグンムカワチョウ",
      "town": "穂別豊田新興",
      "town_kana": "ホベツトヨタシンコウ",
      "street": null,
      "office_name": null,
      "office_name_kana": null
    }
  ],
  "0204": [
    {
      "postcode": "0540204",
      "prefecture": "北海道",
      "prefecture_kana": "ホッカイドウ",
      "prefecture_code": 1,
      "city": "勇払郡むかわ町",
      "city_kana": "ユウフツグンムカワチョウ",
      "town": "穂別平丘",
      "town_kana": "ホベツヒラオカ",
      "street": null,
      "office_name": null,
      "office_name_kana": null
    },
    {
      "postcode": "0540204",
      "prefecture": "北海道",
      "prefecture_kana": "ホッカイドウ",
      "prefecture_code": 1,
      "city": "勇払郡むかわ町",
      "city_kana": "ユウフツグンムカワチョウ",
      "town": "穂別平丘川向",
      "town_kana": "ホベツヒラオカカワムカイ",
      "street": null,
      "office_name": null,
      "office_name_kana": null
    }
  ],
  "0211": {
    "postcode": "0540211",
    "prefecture": "北海道",
    "prefecture_kana": "ホッカイドウ",
    "prefecture_code": 1,
    "city": "勇払郡むかわ町",
    "city_kana": "ユウフツグンムカワチョウ",
    "town": "穂別",
    "town_kana": "ホベツ",
    "street": null,
    "office_name": null,
    "office_name_kana": null
  },
  "0361": {
    "postcode": "0540361",
    "prefecture": "北海道",
    "prefecture_kana": "ホッカイドウ",
    "prefecture_code": 1,
    "city": "勇払郡むかわ町",
    "city_kana": "ユウフツグンムカワチョウ",
    "town": "穂別福山",
    "town_kana": "ホベツフクヤマ",
    "street": null,
    "office_name": null,
    "office_name_kana": null
  },
  "0362": {
    "postcode": "0540362",
    "prefecture": "北海道",
    "prefecture_kana": "ホッカイドウ",
    "prefecture_code": 1,
    "city": "勇払郡むかわ町",
    "city_kana": "ユウフツグンムカワチョウ",
    "town": "穂別安住",
    "town_kana": "ホベツアズミ",
    "street": null,
    "office_name": null,
    "office_name_kana": null
  },
  "0363": {
    "postcode": "0540363",
    "prefecture": "北海道",
    "prefecture_kana": "ホッカイドウ",
    "prefecture_code": 1,
    "city": "勇払郡むかわ町",
    "city_kana": "ユウフツグンムカワチョウ",
    "town": "穂別平丘",
    "town_kana": "ホベツヒラオカ",
    "street": null,
    "office_name": null,
    "office_name_kana": null
  },
  "0364": {
    "postcode": "0540364",
    "prefecture": "北海道",
    "prefecture_kana": "ホッカイドウ",
    "prefecture_code": 1,
    "city": "勇払郡むかわ町",
    "city_kana": "ユウフツグンムカワチョウ",
    "town": "穂別富内",
    "town_kana": "ホベツトミウチ",
    "street": null,
    "office_name": null,
    "office_name_kana": null
  },
  "8660": {
    "postcode": "0548660",
    "prefecture": "北海道",
    "prefecture_kana": "ホッカイドウ",
    "prefecture_code": 1,
    "city": "勇払郡むかわ町",
    "city_kana": "ユウフツグンムカワチョウ",
    "town": "美幸",
    "town_kana": "ミユキ",
    "street": "２丁目８８番地（鵡川郵便局私書箱第５号）",
    "office_name": "むかわ町役場",
    "office_name_kana": "ムカワチヨウヤクバ"
  }
}