{
  "0000": {
    "postcode": "0550000",
    "prefecture": "北海道",
    "prefecture_kana": "ホッカイドウ",
    "prefecture_code": 1,
    "city": "沙流郡日高町",
    "city_kana": "サルグンヒダカチョウ",
    "town": "",
    "town_kana": "",
    "street": null,
    "office_name": null,
    "office_name_kana": null
  },
  "0001": {
    "postcode": "0550001",
    "prefecture": "北海道",
    "prefecture_kana": "ホッカイドウ",
    "prefecture_code": 1,
    "city": "沙流郡日高町",
    "city_kana": "サルグンヒダカチョウ",
    "town": "富川北",
    "town_kana": "トミカワキタ",
    "street": null,
    "office_name": null,
    "office_name_kana": null
  },
  "0002": {
    "postcode": "0550002",
    "prefecture": "北海道",
    "prefecture_kana": "ホッカイドウ",
    "prefecture_code": 1,
    "city": "沙流郡日高町",
    "city_kana": "サルグンヒダカチョウ",
    "town": "平賀",
    "town_kana": "ビラガ",
    "street": null,
    "office_name": null,
    "office_name_kana": null
  },
  "0003": {
    "postcode": "0550003",
    "prefecture": "北海道",
    "prefecture_kana": "ホッカイドウ",
    "prefecture_code": 1,
    "city": "沙流郡日高町",
    "city_kana": "サルグンヒダカチョウ",
    "town": "福満",
    "town_kana": "フクミツ",
    "street": null,
    "office_name": null,
    "office_name_kana": null
  },
  "0004": {
    "postcode": "0550004",
    "prefecture": "北海道",
    "prefecture_kana": "ホッカイドウ",
    "prefecture_code": 1,
    "city": "沙流郡日高町",
    "city_kana": "サルグンヒダカチョウ",
    "town": "富川東",
    "town_kana": "トミカワヒガシ",
    "street": null,
    "office_name": null,
    "office_name_kana": null
  },
  "0005": {
    "postcode": "0550005",
    "prefecture": "北海道",
    "prefecture_kana": "ホッカイドウ",
    "prefecture_code": 1,
    "city": "沙流郡日高町",
    "city_kana": "サルグンヒダカチョウ",
    "town": "富浜",
    "town_kana": "トミハマ",
    "street": null,
    "office_name": null,
    "office_name_kana": null
  },
  "0006": {
    "postcode": "0550006",
    "prefecture": "北海道",
    "prefecture_kana": "ホッカイドウ",
    "prefecture_code": 1,
    "city": "沙流郡日高町",
    "city_kana": "サルグンヒダカチョウ",
    "town": "富川南",
    "town_kana": "トミカワミナミ",
    "street": null,
    "office_name": null,
    "office_name_kana": null
  },
  "0007": {
    "postcode": "0550007",
    "prefecture": "北海道",
    "prefecture_kana": "ホッカイドウ",
    "prefecture_code": 1,
    "city": "沙流郡日高町",
    "city_kana": "サルグンヒダカチョウ",
    "town": "富川西",
    "town_kana": "トミカワニシ",
    "street": null,
    "office_name": null,
    "office_name_kana": null
  },
  "0008": {
    "postcode": "0550008",
    "prefecture": "北海道",
    "prefecture_kana": "ホッカイドウ",
    "prefecture_code": 1,
    "city": "沙流郡日高町",
    "city_kana": "サルグンヒダカチョウ",
    "town": "富川駒丘",
    "town_kana": "トミカワコマオカ",
    "street": null,
    "office_name": null,
    "office_name_kana": null
  },
  "0100": {
    "postcode": "0550100",
    "prefecture": "北海道",
    "prefecture_kana": "ホッカイドウ",
    "prefecture_code": 1,
    "city": "沙流郡平取町",
    "city_kana": "サルグンビラトリチョウ",
    "town": "",
    "town_kana": "",
    "street": null,
    "office_name": null,
    "office_name_kana": null
  },
  "0101": {
    "postcode": "0550101",
    "prefecture": "北海道",
    "prefecture_kana": "ホッカイドウ",
    "prefecture_code": 1,
    "city": "沙流郡平取町",
    "city_kana": "サルグンビラトリチョウ",
    "town": "二風谷",
    "town_kana": "ニブタニ",
    "street": null,
    "office_name": null,
    "office_name_kana": null
  },
  "0102": {
    "postcode": "0550102",
    "prefecture": "北海道",
    "prefecture_kana": "ホッカイドウ",
    "prefecture_code": 1,
    "city": "沙流郡平取町",
    "city_kana": "サルグンビラトリチョウ",
    "town": "小平",
    "town_kana": "コビラ",
    "street": null,
    "office_name": null,
    "office_name_kana": null
  },
  "0103": {
    "postcode": "0550103",
    "prefecture": "北海道",
    "prefecture_kana": "ホッカイドウ",
    "prefecture_code": 1,
    "city": "沙流郡平取町",
    "city_kana": "サルグンビラトリチョウ",
    "town": "川向",
    "town_kana": "カワムカイ",
    "street": null,
    "office_name": null,
    "office_name_kana": null
  },
  "0104": {
    "postcode": "0550104",
    "prefecture": "北海道",
    "prefecture_kana": "ホッカイドウ",
    "prefecture_code": 1,
    "city": "沙流郡平取町",
    "city_kana": "サルグンビラトリチョウ",
    "town": "紫雲古津",
    "town_kana": "シウンコツ",
    "street": null,
    "office_name": null,
    "office_name_kana": null
  },
  "0105": {
    "postcode": "0550105",
    "prefecture": "北海道",
    "prefecture_kana": "ホッカイドウ",
    "prefecture_code": 1,
    "city": "沙流郡平取町",
    "city_kana": "サルグンビラトリチョウ",
    "town": "去場",
    "town_kana": "サルバ",
    "street": null,
    "office_name": null,
    "office_name_kana": null
  },
  "0106": {
    "postcode": "0550106",
    "prefecture": "北海道",
    "prefecture_kana": "ホッカイドウ",
    "prefecture_code": 1,
    "city": "沙流郡平取町",
    "city_kana": "サルグンビラトリチョウ",
    "town": "荷菜",
    "town_kana": "ニナ",
    "street": null,
    "office_name": null,
    "office_name_kana": null
  },
  "0107": {
    "postcode": "0550107",
    "prefecture": "北海道",
    "prefecture_kana": "ホッカイドウ",
    "prefecture_code": 1,
    "city": "沙流郡平取町",
    "city_kana": "サルグンビラトリチョウ",
    "town": "本町",
    "town_kana": "ホンチョウ",
    "street": null,
    "office_name": null,
    "office_name_kana": null
  },
  "0192": {
    "postcode": "0550192",
    "prefecture": "北海道",
    "prefecture_kana": "ホッカイドウ",
    "prefecture_code": 1,
    "city": "沙流郡平取町",
    "city_kana": "サルグンビラトリチョウ",
    "town": "本町",
    "town_kana": "ホンチョウ",
    "street": "２８",
    "office_name": "平取町役場",
    "office_name_kana": "ビラトリチヨウヤクバ"
  },
  "0193": {
    "postcode": "0550193",
    "prefecture": "北海道",
    "prefecture_kana": "ホッカイドウ",
    "prefecture_code": 1,
    "city": "沙流郡平取町",
    "city_kana": "サルグンビラトリチョウ",
    "town": "本町",
    "town_kana": "ホンチョウ",
    "street": "４０−１",
    "office_name": "びらとり農業協同組合",
    "office_name_kana": "ビラトリノウギヨウキヨウドウクミアイ"
  },
  "0195": {
    "postcode": "0550195",
    "prefecture": "北海道",
    "prefecture_kana": "ホッカイドウ",
    "prefecture_code": 1,
    "city": "沙流郡平取町",
    "city_kana": "サルグンビラトリチョウ",
    "town": "本町",
    "town_kana": "ホンチョウ",
    "street": "３５番地１",
    "office_name": "ふれあいセンターびらとり",
    "office_name_kana": "フレアイセンタ-ビラトリ"
  },
  "0321": {
    "postcode": "0550321",
    "prefecture": "北海道",
    "prefecture_kana": "ホッカイドウ",
    "prefecture_code": 1,
    "city": "沙流郡平取町",
    "city_kana": "サルグンビラトリチョウ",
    "town": "貫気別",
    "town_kana": "ヌキベツ",
    "street": null,
    "office_name": null,
    "office_name_kana": null
  },
  "0322": {
    "postcode": "0550322",
    "prefecture": "北海道",
    "prefecture_kana": "ホッカイドウ",
    "prefecture_code": 1,
    "city": "沙流郡平取町",
    "city_kana": "サルグンビラトリチョウ",
    "town": "旭",
    "town_kana": "アサヒ",
    "street": null,
    "office_name": null,
    "office_name_kana": null
  },
  "0323": {
    "postcode": "0550323",
    "prefecture": "北海道",
    "prefecture_kana": "ホッカイドウ",
    "prefecture_code": 1,
    "city": "沙流郡平取町",
    "city_kana": "サルグンビラトリチョウ",
    "town": "芽生",
    "town_kana": "メム",
    "street": null,
    "office_name": null,
    "office_name_kana": null
  },
  "0324": {
    "postcode": "0550324",
    "prefecture": "北海道",
    "prefecture_kana": "ホッカイドウ",
    "prefecture_code": 1,
    "city": "沙流郡平取町",
    "city_kana": "サルグンビラトリチョウ",
    "town": "荷負",
    "town_kana": "ニオイ",
    "street": null,
    "office_name": null,
    "office_name_kana": null
  },
  "0325": {
    "postcode": "0550325",
    "prefecture": "北海道",
    "prefecture_kana": "ホッカイドウ",
    "prefecture_code": 1,
    "city": "沙流郡平取町",
    "city_kana": "サルグンビラトリチョウ",
    "town": "長知内",
    "town_kana": "オサチナイ",
    "street": null,
    "office_name": null,
    "office_name_kana": null
  },
  "0411": {
    "postcode": "0550411",
    "prefecture": "北海道",
    "prefecture_kana": "ホッカイドウ",
    "prefecture_code": 1,
    "city": "沙流郡平取町",
    "city_kana": "サルグンビラトリチョウ",
    "town": "振内町",
    "town_kana": "フレナイチョウ",
    "street": null,
    "office_name": null,
    "office_name_kana": null
  },
  "0412": {
    "postcode": "0550412",
    "prefecture": "北海道",
    "prefecture_kana": "ホッカイドウ",
    "prefecture_code": 1,
    "city": "沙流郡平取町",
    "city_kana": "サルグンビラトリチョウ",
    "town": "幌毛志",
    "town_kana": "ホロケシ",
    "street": null,
    "office_name": null,
    "office_name_kana": null
  },
  "0413": {
    "postcode": "0550413",
    "prefecture": "北海道",
    "prefecture_kana": "ホッカイドウ",
    "prefecture_code": 1,
    "city": "沙流郡平取町",
    "city_kana": "サルグンビラトリチョウ",
    "town": "仁世宇",
    "town_kana": "ニセウ",
    "street": null,
    "office_name": null,
    "office_name_kana": null
  },
  "0414": {
    "postcode": "0550414",
    "prefecture": "北海道",
    "prefecture_kana": "ホッカイドウ",
    "prefecture_code": 1,
    "city": "沙流郡平取町",
    "city_kana": "サルグンビラトリチョウ",
    "town": "岩知志",
    "town_kana": "イワチシ",
    "street": null,
    "office_name": null,
    "office_name_kana": null
  },
  "0415": {
    "postcode": "0550415",
    "prefecture": "北海道",
    "prefecture_kana": "ホッカイドウ",
    "prefecture_code": 1,
    "city": "沙流郡平取町",
    "city_kana": "サルグンビラトリチョウ",
    "town": "豊糠",
    "town_kana": "トヨヌカ",
    "street": null,
    "office_name": null,
    "office_name_kana": null
  },
  "2301": {
    "postcode": "0552301",
    "prefecture": "北海道",
    "prefecture_kana": "ホッカイドウ",
    "prefecture_code": 1,
    "city": "沙流郡日高町",
    "city_kana": "サルグンヒダカチョウ",
    "town": "本町東",
    "town_kana": "ホンチョウヒガシ",
    "street": null,
    "office_name": null,
    "office_name_kana": null
  },
  "2302": {
    "postcode": "0552302",
    "prefecture": "北海道",
    "prefecture_kana": "ホッカイドウ",
    "prefecture_code": 1,
    "city": "沙流郡日高町",
    "city_kana": "サルグンヒダカチョウ",
    "town": "本町西",
    "town_kana": "ホンチョウニシ",
    "street": null,
    "office_name": null,
    "office_name_kana": null
  },
  "2303": {
    "postcode": "0552303",
    "prefecture": "北海道",
    "prefecture_kana": "ホッカイドウ",
    "prefecture_code": 1,
    "city": "沙流郡日高町",
    "city_kana": "サルグンヒダカチョウ",
    "town": "栄町東",
    "town_kana": "サカエマチヒガシ",
    "street": null,
    "office_name": null,
    "office_name_kana": null
  },
  "2304": {
    "postcode": "0552304",
    "prefecture": "北海道",
    "prefecture_kana": "ホッカイドウ",
    "prefecture_code": 1,
    "city": "沙流郡日高町",
    "city_kana": "サルグンヒダカチョウ",
    "town": "栄町西",
    "town_kana": "サカエマチニシ",
    "street": null,
    "office_name": null,
    "office_name_kana": null
  },
  "2305": {
    "postcode": "0552305",
    "prefecture": "北海道",
    "prefecture_kana": "ホッカイドウ",
    "prefecture_code": 1,
    "city": "沙流郡日高町",
    "city_kana": "サルグンヒダカチョウ",
    "town": "新町",
    "town_kana": "シンマチ",
    "street": null,
    "office_name": null,
    "office_name_kana": null
  },
  "2306": {
    "postcode": "0552306",
    "prefecture": "北海道",
    "prefecture_kana": "ホッカイドウ",
    "prefecture_code": 1,
    "city": "沙流郡日高町",
    "city_kana": "サルグンヒダカチョウ",
    "town": "宮下町",
    "town_kana": "ミヤシタチョウ",
    "street": null,
    "office_name": null,
    "office_name_kana": null
  },
  "2307": {
    "postcode": "0552307",
    "prefecture": "北海道",
    "prefecture_kana": "ホッカイドウ",
    "prefecture_code": 1,
    "city": "沙流郡日高町",
    "city_kana": "サルグンヒダカチョウ",
    "town": "松風町",
    "town_kana": "マツカゼチョウ",
    "street": null,
    "office_name": null,
    "office_name_kana": null
  },
  "2308": {
    "postcode": "0552308",
    "prefecture": "北海道",
    "prefecture_kana": "ホッカイドウ",
    "prefecture_code": 1,
    "city": "沙流郡日高町",
    "city_kana": "サルグンヒダカチョウ",
    "town": "山手町",
    "town_kana": "ヤマテチョウ",
    "street": null,
    "office_name": null,
    "office_name_kana": null
  },
  "2309": {
    "postcode": "0552309",
    "prefecture": "北海道",
    "prefecture_kana": "ホッカイドウ",
    "prefecture_code": 1,
    "city": "沙流郡日高町",
    "city_kana": "サルグンヒダカチョウ",
    "town": "若葉町",
    "town_kana": "ワカバチョウ",
    "street": null,
    "office_name": null,
    "office_name_kana": null
  },
  "2311": [
    {
      "postcode": "0552311",
      "prefecture": "北海道",
      "prefecture_kana": "ホッカイドウ",
      "prefecture_code": 1,
      "city": "沙流郡日高町",
      "city_kana": "サルグンヒダカチョウ",
      "town": "日高",
      "town_kana": "ヒダカ",
      "street": null,
      "office_name": null,
      "office_name_kana": null
    },
    {
      "postcode": "0552311",
      "prefecture": "北海道",
      "prefecture_kana": "ホッカイドウ",
      "prefecture_code": 1,
      "city": "沙流郡日高町",
      "city_kana": "サルグンヒダカチョウ",
      "town": "日高１区",
      "town_kana": "ヒダカ1ク",
      "street": null,
      "office_name": null,
      "office_name_kana": null
    }
  ],
  "2312": [
    {
      "postcode": "0552312",
      "prefecture": "北海道",
      "prefecture_kana": "ホッカイドウ",
      "prefecture_code": 1,
      "city": "沙流郡日高町",
      "city_kana": "サルグンヒダカチョウ",
      "town": "日高",
      "town_kana": "ヒダカ",
      "street": null,
      "office_name": null,
      "office_name_kana": null
    },
    {
      "postcode": "0552312",
      "prefecture": "北海道",
      "prefecture_kana": "ホッカイドウ",
      "prefecture_code": 1,
      "city": "沙流郡日高町",
      "city_kana": "サルグンヒダカチョウ",
      "town": "日高２区",
      "town_kana": "ヒダカ2ク",
      "street": null,
      "office_name": null,
      "office_name_kana": null
    }
  ],
  "2313": [
    {
      "postcode": "0552313",
      "prefecture": "北海道",
      "prefecture_kana": "ホッカイドウ",
      "prefecture_code": 1,
      "city": "沙流郡日高町",
      "city_kana": "サルグンヒダカチョウ",
      "town": "日高",
      "town_kana": "ヒダカ",
      "street": null,
      "office_name": null,
      "office_name_kana": null
    },
    {
      "postcode": "0552313",
      "prefecture": "北海道",
      "prefecture_kana": "ホッカイドウ",
      "prefecture_code": 1,
      "city": "沙流郡日高町",
      "city_kana": "サルグンヒダカチョウ",
      "town": "日高３区",
      "town_kana": "ヒダカ3ク",
      "street": null,
      "office_name": null,
      "office_name_kana": null
    }
  ],
  "2314": {
    "postcode": "0552314",
    "prefecture": "北海道",
    "prefecture_kana": "ホッカイドウ",
    "prefecture_code": 1,
    "city": "沙流郡日高町",
    "city_kana": "サルグンヒダカチョウ",
    "town": "千栄",
    "town_kana": "チサカ",
    "street": null,
    "office_name": null,
    "office_name_kana": null
  },
  "2315": {
    "postcode": "0552315",
    "prefecture": "北海道",
    "prefecture_kana": "ホッカイドウ",
    "prefecture_code": 1,
    "city": "沙流郡日高町",
    "city_kana": "サルグンヒダカチョウ",
    "town": "富岡",
    "town_kana": "トミオカ",
    "street": null,
    "office_name": null,
    "office_name_kana": null
  },
  "2316": {
    "postcode": "0552316",
    "prefecture": "北海道",
    "prefecture_kana": "ホッカイドウ",
    "prefecture_code": 1,
    "city": "沙流郡日高町",
    "city_kana": "サルグンヒダカチョウ",
    "town": "三岩",
    "town_kana": "ミツイワ",
    "street": null,
    "office_name": null,
    "office_name_kana": null
  }
}