{
  "0000": {
    "postcode": "0560000",
    "prefecture": "北海道",
    "prefecture_kana": "ホッカイドウ",
    "prefecture_code": 1,
    "city": "日高郡新ひだか町",
    "city_kana": "ヒダカグンシンヒダカチョウ",
    "town": "",
    "town_kana": "",
    "street": null,
    "office_name": null,
    "office_name_kana": null
  },
  "0001": {
    "postcode": "0560001",
    "prefecture": "北海道",
    "prefecture_kana": "ホッカイドウ",
    "prefecture_code": 1,
    "city": "日高郡新ひだか町",
    "city_kana": "ヒダカグンシンヒダカチョウ",
    "town": "静内目名",
    "town_kana": "シズナイメナ",
    "street": null,
    "office_name": null,
    "office_name_kana": null
  },
  "0002": {
    "postcode": "0560002",
    "prefecture": "北海道",
    "prefecture_kana": "ホッカイドウ",
    "prefecture_code": 1,
    "city": "日高郡新ひだか町",
    "city_kana": "ヒダカグンシンヒダカチョウ",
    "town": "静内神森",
    "town_kana": "シズナイカミモリ",
    "street": null,
    "office_name": null,
    "office_name_kana": null
  },
  "0003": {
    "postcode": "0560003",
    "prefecture": "北海道",
    "prefecture_kana": "ホッカイドウ",
    "prefecture_code": 1,
    "city": "日高郡新ひだか町",
    "city_kana": "ヒダカグンシンヒダカチョウ",
    "town": "静内旭町",
    "town_kana": "シズナイアサヒチョウ",
    "street": null,
    "office_name": null,
    "office_name_kana": null
  },
  "0004": {
    "postcode": "0560004",
    "prefecture": "北海道",
    "prefecture_kana": "ホッカイドウ",
    "prefecture_code": 1,
    "city": "日高郡新ひだか町",
    "city_kana": "ヒダカグンシンヒダカチョウ",
    "town": "静内緑町",
    "town_kana": "シズナイミドリチョウ",
    "street": null,
    "office_name": null,
    "office_name_kana": null
  },
  "0005": {
    "postcode": "0560005",
    "prefecture": "北海道",
    "prefecture_kana": "ホッカイドウ",
    "prefecture_code": 1,
    "city": "日高郡新ひだか町",
    "city_kana": "ヒダカグンシンヒダカチョウ",
    "town": "静内こうせい町",
    "town_kana": "シズナイコウセイチョウ",
    "street": null,
    "office_name": null,
    "office_name_kana": null
  },
  "0006": {
    "postcode": "0560006",
    "prefecture": "北海道",
    "prefecture_kana": "ホッカイドウ",
    "prefecture_code": 1,
    "city": "日高郡新ひだか町",
    "city_kana": "ヒダカグンシンヒダカチョウ",
    "town": "静内中野町",
    "town_kana": "シズナイナカノチョウ",
    "street": null,
    "office_name": null,
    "office_name_kana": null
  },
  "0007": {
    "postcode": "0560007",
    "prefecture": "北海道",
    "prefecture_kana": "ホッカイドウ",
    "prefecture_code": 1,
    "city": "日高郡新ひだか町",
    "city_kana": "ヒダカグンシンヒダカチョウ",
    "town": "静内清水丘",
    "town_kana": "シズナイシミズオカ",
    "street": null,
    "office_name": null,
    "office_name_kana": null
  },
  "0011": {
    "postcode": "0560011",
    "prefecture": "北海道",
    "prefecture_kana": "ホッカイドウ",
    "prefecture_code": 1,
    "city": "日高郡新ひだか町",
    "city_kana": "ヒダカグンシンヒダカチョウ",
    "town": "静内真歌",
    "town_kana": "シズナイマウタ",
    "street": null,
    "office_name": null,
    "office_name_kana": null
  },
  "0013": {
    "postcode": "0560013",
    "prefecture": "北海道",
    "prefecture_kana": "ホッカイドウ",
    "prefecture_code": 1,
    "city": "日高郡新ひだか町",
    "city_kana": "ヒダカグンシンヒダカチョウ",
    "town": "静内入船町",
    "town_kana": "シズナイイリフネチョウ",
    "street": null,
    "office_name": null,
    "office_name_kana": null
  },
  "0014": {
    "postcode": "0560014",
    "prefecture": "北海道",
    "prefecture_kana": "ホッカイドウ",
    "prefecture_code": 1,
    "city": "日高郡新ひだか町",
    "city_kana": "ヒダカグンシンヒダカチョウ",
    "town": "静内古川町",
    "town_kana": "シズナイフルカワチョウ",
    "street": null,
    "office_name": null,
    "office_name_kana": null
  },
  "0015": {
    "postcode": "0560015",
    "prefecture": "北海道",
    "prefecture_kana": "ホッカイドウ",
    "prefecture_code": 1,
    "city": "日高郡新ひだか町",
    "city_kana": "ヒダカグンシンヒダカチョウ",
    "town": "静内海岸町",
    "town_kana": "シズナイカイガンチョウ",
    "street": null,
    "office_name": null,
    "office_name_kana": null
  },
  "0016": {
    "postcode": "0560016",
    "prefecture": "北海道",
    "prefecture_kana": "ホッカイドウ",
    "prefecture_code": 1,
    "city": "日高郡新ひだか町",
    "city_kana": "ヒダカグンシンヒダカチョウ",
    "town": "静内本町",
    "town_kana": "シズナイホンチョウ",
    "street": null,
    "office_name": null,
    "office_name_kana": null
  },
  "0017": {
    "postcode": "0560017",
    "prefecture": "北海道",
    "prefecture_kana": "ホッカイドウ",
    "prefecture_code": 1,
    "city": "日高郡新ひだか町",
    "city_kana": "ヒダカグンシンヒダカチョウ",
    "town": "静内御幸町",
    "town_kana": "シズナイミユキチョウ",
    "street": null,
    "office_name": null,
    "office_name_kana": null
  },
  "0018": {
    "postcode": "0560018",
    "prefecture": "北海道",
    "prefecture_kana": "ホッカイドウ",
    "prefecture_code": 1,
    "city": "日高郡新ひだか町",
    "city_kana": "ヒダカグンシンヒダカチョウ",
    "town": "静内吉野町",
    "town_kana": "シズナイヨシノチョウ",
    "street": null,
    "office_name": null,
    "office_name_kana": null
  },
  "0019": {
    "postcode": "0560019",
    "prefecture": "北海道",
    "prefecture_kana": "ホッカイドウ",
    "prefecture_code": 1,
    "city": "日高郡新ひだか町",
    "city_kana": "ヒダカグンシンヒダカチョウ",
    "town": "静内青柳町",
    "town_kana": "シズナイアオヤギチョウ",
    "street": null,
    "office_name": null,
    "office_name_kana": null
  },
  "0021": {
    "postcode": "0560021",
    "prefecture": "北海道",
    "prefecture_kana": "ホッカイドウ",
    "prefecture_code": 1,
    "city": "日高郡新ひだか町",
    "city_kana": "ヒダカグンシンヒダカチョウ",
    "town": "静内花園",
    "town_kana": "シズナイハナゾノ",
    "street": null,
    "office_name": null,
    "office_name_kana": null
  },
  "0022": {
    "postcode": "0560022",
    "prefecture": "北海道",
    "prefecture_kana": "ホッカイドウ",
    "prefecture_code": 1,
    "city": "日高郡新ひだか町",
    "city_kana": "ヒダカグンシンヒダカチョウ",
    "town": "静内高砂町",
    "town_kana": "シズナイタカサゴチョウ",
    "street": null,
    "office_name": null,
    "office_name_kana": null
  },
  "0023": {
    "postcode": "0560023",
    "prefecture": "北海道",
    "prefecture_kana": "ホッカイドウ",
    "prefecture_code": 1,
    "city": "日高郡新ひだか町",
    "city_kana": "ヒダカグンシンヒダカチョウ",
    "town": "静内ときわ町",
    "town_kana": "シズナイトキワチョウ",
    "street": null,
    "office_name": null,
    "office_name_kana": null
  },
  "0024": {
    "postcode": "0560024",
    "prefecture": "北海道",
    "prefecture_kana": "ホッカイドウ",
    "prefecture_code": 1,
    "city": "日高郡新ひだか町",
    "city_kana": "ヒダカグンシンヒダカチョウ",
    "town": "静内山手町",
    "town_kana": "シズナイヤマテチョウ",
    "street": null,
    "office_name": null,
    "office_name_kana": null
  },
  "0025": {
    "postcode": "0560025",
    "prefecture": "北海道",
    "prefecture_kana": "ホッカイドウ",
    "prefecture_code": 1,
    "city": "日高郡新ひだか町",
    "city_kana": "ヒダカグンシンヒダカチョウ",
    "town": "静内木場町",
    "town_kana": "シズナイキバチョウ",
    "street": null,
    "office_name": null,
    "office_name_kana": null
  },
  "0026": {
    "postcode": "0560026",
    "prefecture": "北海道",
    "prefecture_kana": "ホッカイドウ",
    "prefecture_code": 1,
    "city": "日高郡新ひだか町",
    "city_kana": "ヒダカグンシンヒダカチョウ",
    "town": "静内末広町",
    "town_kana": "シズナイスエヒロチョウ",
    "street": null,
    "office_name": null,
    "office_name_kana": null
  },
  "0027": {
    "postcode": "0560027",
    "prefecture": "北海道",
    "prefecture_kana": "ホッカイドウ",
    "prefecture_code": 1,
    "city": "日高郡新ひだか町",
    "city_kana": "ヒダカグンシンヒダカチョウ",
    "town": "静内駒場",
    "town_kana": "シズナイコマバ",
    "street": null,
    "office_name": null,
    "office_name_kana": null
  },
  "0028": {
    "postcode": "0560028",
    "prefecture": "北海道",
    "prefecture_kana": "ホッカイドウ",
    "prefecture_code": 1,
    "city": "日高郡新ひだか町",
    "city_kana": "ヒダカグンシンヒダカチョウ",
    "town": "静内柏台",
    "town_kana": "シズナイカシワダイ",
    "street": null,
    "office_name": null,
    "office_name_kana": null
  },
  "0141": {
    "postcode": "0560141",
    "prefecture": "北海道",
    "prefecture_kana": "ホッカイドウ",
    "prefecture_code": 1,
    "city": "日高郡新ひだか町",
    "city_kana": "ヒダカグンシンヒダカチョウ",
    "town": "静内御園",
    "town_kana": "シズナイミソノ",
    "street": null,
    "office_name": null,
    "office_name_kana": null
  },
  "0142": {
    "postcode": "0560142",
    "prefecture": "北海道",
    "prefecture_kana": "ホッカイドウ",
    "prefecture_code": 1,
    "city": "日高郡新ひだか町",
    "city_kana": "ヒダカグンシンヒダカチョウ",
    "town": "静内農屋",
    "town_kana": "シズナイノヤ",
    "street": null,
    "office_name": null,
    "office_name_kana": null
  },
  "0143": {
    "postcode": "0560143",
    "prefecture": "北海道",
    "prefecture_kana": "ホッカイドウ",
    "prefecture_code": 1,
    "city": "日高郡新ひだか町",
    "city_kana": "ヒダカグンシンヒダカチョウ",
    "town": "静内豊畑",
    "town_kana": "シズナイトヨハタ",
    "street": null,
    "office_name": null,
    "office_name_kana": null
  },
  "0144": {
    "postcode": "0560144",
    "prefecture": "北海道",
    "prefecture_kana": "ホッカイドウ",
    "prefecture_code": 1,
    "city": "日高郡新ひだか町",
    "city_kana": "ヒダカグンシンヒダカチョウ",
    "town": "静内田原",
    "town_kana": "シズナイタハラ",
    "street": null,
    "office_name": null,
    "office_name_kana": null
  },
  "0145": {
    "postcode": "0560145",
    "prefecture": "北海道",
    "prefecture_kana": "ホッカイドウ",
    "prefecture_code": 1,
    "city": "日高郡新ひだか町",
    "city_kana": "ヒダカグンシンヒダカチョウ",
    "town": "静内目名",
    "town_kana": "シズナイメナ",
    "street": null,
    "office_name": null,
    "office_name_kana": null
  },
  "0146": {
    "postcode": "0560146",
    "prefecture": "北海道",
    "prefecture_kana": "ホッカイドウ",
    "prefecture_code": 1,
    "city": "日高郡新ひだか町",
    "city_kana": "ヒダカグンシンヒダカチョウ",
    "town": "静内高見",
    "town_kana": "シズナイタカミ",
    "street": null,
    "office_name": null,
    "office_name_kana": null
  },
  "8650": {
    "postcode": "0568650",
    "prefecture": "北海道",
    "prefecture_kana": "ホッカイドウ",
    "prefecture_code": 1,
    "city": "日高郡新ひだか町",
    "city_kana": "ヒダカグンシンヒダカチョウ",
    "town": "静内御幸町",
    "town_kana": "シズナイミユキチョウ",
    "street": "３丁目２番５０号（静内郵便局私書箱第９号）",
    "office_name": "新ひだか町役場",
    "office_name_kana": "シンヒダカチヨウヤクバ"
  }
}