{
  "0000": {
    "postcode": "0570000",
    "prefecture": "北海道",
    "prefecture_kana": "ホッカイドウ",
    "prefecture_code": 1,
    "city": "浦河郡浦河町",
    "city_kana": "ウラカワグンウラカワチョウ",
    "town": "",
    "town_kana": "",
    "street": null,
    "office_name": null,
    "office_name_kana": null
  },
  "0001": {
    "postcode": "0570001",
    "prefecture": "北海道",
    "prefecture_kana": "ホッカイドウ",
    "prefecture_code": 1,
    "city": "浦河郡浦河町",
    "city_kana": "ウラカワグンウラカワチョウ",
    "town": "東幌別",
    "town_kana": "ヒガシホロベツ",
    "street": null,
    "office_name": null,
    "office_name_kana": null
  },
  "0002": {
    "postcode": "0570002",
    "prefecture": "北海道",
    "prefecture_kana": "ホッカイドウ",
    "prefecture_code": 1,
    "city": "浦河郡浦河町",
    "city_kana": "ウラカワグンウラカワチョウ",
    "town": "西幌別",
    "town_kana": "ニシホロベツ",
    "street": null,
    "office_name": null,
    "office_name_kana": null
  },
  "0003": {
    "postcode": "0570003",
    "prefecture": "北海道",
    "prefecture_kana": "ホッカイドウ",
    "prefecture_code": 1,
    "city": "浦河郡浦河町",
    "city_kana": "ウラカワグンウラカワチョウ",
    "town": "白泉",
    "town_kana": "シロイズミ",
    "street": null,
    "office_name": null,
    "office_name_kana": null
  },
  "0004": {
    "postcode": "0570004",
    "prefecture": "北海道",
    "prefecture_kana": "ホッカイドウ",
    "prefecture_code": 1,
    "city": "浦河郡浦河町",
    "city_kana": "ウラカワグンウラカワチョウ",
    "town": "月寒",
    "town_kana": "ツキサップ",
    "street": null,
    "office_name": null,
    "office_name_kana": null
  },
  "0005": {
    "postcode": "0570005",
    "prefecture": "北海道",
    "prefecture_kana": "ホッカイドウ",
    "prefecture_code": 1,
    "city": "浦河郡浦河町",
    "city_kana": "ウラカワグンウラカワチョウ",
    "town": "東町うしお",
    "town_kana": "ヒガシチョウウシオ",
    "street": null,
    "office_name": null,
    "office_name_kana": null
  },
  "0006": {
    "postcode": "0570006",
    "prefecture": "北海道",
    "prefecture_kana": "ホッカイドウ",
    "prefecture_code": 1,
    "city": "浦河郡浦河町",
    "city_kana": "ウラカワグンウラカワチョウ",
    "town": "東町かしわ",
    "town_kana": "ヒガシチョウカシワ",
    "street": null,
    "office_name": null,
    "office_name_kana": null
  },
  "0007": {
    "postcode": "0570007",
    "prefecture": "北海道",
    "prefecture_kana": "ホッカイドウ",
    "prefecture_code": 1,
    "city": "浦河郡浦河町",
    "city_kana": "ウラカワグンウラカワチョウ",
    "town": "東町ちのみ",
    "town_kana": "ヒガシチョウチノミ",
    "street": null,
    "office_name": null,
    "office_name_kana": null
  },
  "0011": {
    "postcode": "0570011",
    "prefecture": "北海道",
    "prefecture_kana": "ホッカイドウ",
    "prefecture_code": 1,
    "city": "浦河郡浦河町",
    "city_kana": "ウラカワグンウラカワチョウ",
    "town": "旭町",
    "town_kana": "アサヒチョウ",
    "street": null,
    "office_name": null,
    "office_name_kana": null
  },
  "0012": {
    "postcode": "0570012",
    "prefecture": "北海道",
    "prefecture_kana": "ホッカイドウ",
    "prefecture_code": 1,
    "city": "浦河郡浦河町",
    "city_kana": "ウラカワグンウラカワチョウ",
    "town": "常盤町",
    "town_kana": "トキワチョウ",
    "street": null,
    "office_name": null,
    "office_name_kana": null
  },
  "0013": {
    "postcode": "0570013",
    "prefecture": "北海道",
    "prefecture_kana": "ホッカイドウ",
    "prefecture_code": 1,
    "city": "浦河郡浦河町",
    "city_kana": "ウラカワグンウラカワチョウ",
    "town": "大通",
    "town_kana": "オオドオリ",
    "street": null,
    "office_name": null,
    "office_name_kana": null
  },
  "0014": {
    "postcode": "0570014",
    "prefecture": "北海道",
    "prefecture_kana": "ホッカイドウ",
    "prefecture_code": 1,
    "city": "浦河郡浦河町",
    "city_kana": "ウラカワグンウラカワチョウ",
    "town": "入船町",
    "town_kana": "イリフネチョウ",
    "street": null,
    "office_name": null,
    "office_name_kana": null
  },
  "0015": {
    "postcode": "0570015",
    "prefecture": "北海道",
    "prefecture_kana": "ホッカイドウ",
    "prefecture_code": 1,
    "city": "浦河郡浦河町",
    "city_kana": "ウラカワグンウラカワチョウ",
    "town": "浜町",
    "town_kana": "ハマチョウ",
    "street": null,
    "office_name": null,
    "office_name_kana": null
  },
  "0021": {
    "postcode": "0570021",
    "prefecture": "北海道",
    "prefecture_kana": "ホッカイドウ",
    "prefecture_code": 1,
    "city": "浦河郡浦河町",
    "city_kana": "ウラカワグンウラカワチョウ",
    "town": "潮見町",
    "town_kana": "シオミチョウ",
    "street": null,
    "office_name": null,
    "office_name_kana": null
  },
  "0022": {
    "postcode": "0570022",
    "prefecture": "北海道",
    "prefecture_kana": "ホッカイドウ",
    "prefecture_code": 1,
    "city": "浦河郡浦河町",
    "city_kana": "ウラカワグンウラカワチョウ",
    "town": "昌平町",
    "town_kana": "ショウヘイチョウ",
    "street": null,
    "office_name": null,
    "office_name_kana": null
  },
  "0023": {
    "postcode": "0570023",
    "prefecture": "北海道",
    "prefecture_kana": "ホッカイドウ",
    "prefecture_code": 1,
    "city": "浦河郡浦河町",
    "city_kana": "ウラカワグンウラカワチョウ",
    "town": "栄丘",
    "town_kana": "サカエオカ",
    "street": null,
    "office_name": null,
    "office_name_kana": null
  },
  "0024": {
    "postcode": "0570024",
    "prefecture": "北海道",
    "prefecture_kana": "ホッカイドウ",
    "prefecture_code": 1,
    "city": "浦河郡浦河町",
    "city_kana": "ウラカワグンウラカワチョウ",
    "town": "築地",
    "town_kana": "ツキジ",
    "street": null,
    "office_name": null,
    "office_name_kana": null
  },
  "0025": {
    "postcode": "0570025",
    "prefecture": "北海道",
    "prefecture_kana": "ホッカイドウ",
    "prefecture_code": 1,
    "city": "浦河郡浦河町",
    "city_kana": "ウラカワグンウラカワチョウ",
    "town": "緑町",
    "town_kana": "ミドリマチ",
    "street": null,
    "office_name": null,
    "office_name_kana": null
  },
  "0026": {
    "postcode": "0570026",
    "prefecture": "北海道",
    "prefecture_kana": "ホッカイドウ",
    "prefecture_code": 1,
    "city": "浦河郡浦河町",
    "city_kana": "ウラカワグンウラカワチョウ",
    "town": "向別",
    "town_kana": "ムコウベツ",
    "street": null,
    "office_name": null,
    "office_name_kana": null
  },
  "0027": {
    "postcode": "0570027",
    "prefecture": "北海道",
    "prefecture_kana": "ホッカイドウ",
    "prefecture_code": 1,
    "city": "浦河郡浦河町",
    "city_kana": "ウラカワグンウラカワチョウ",
    "town": "上向別",
    "town_kana": "カミムコウベツ",
    "street": null,
    "office_name": null,
    "office_name_kana": null
  },
  "0031": {
    "postcode": "0570031",
    "prefecture": "北海道",
    "prefecture_kana": "ホッカイドウ",
    "prefecture_code": 1,
    "city": "浦河郡浦河町",
    "city_kana": "ウラカワグンウラカワチョウ",
    "town": "向が丘東",
    "town_kana": "ムコウガオカヒガシ",
    "street": null,
    "office_name": null,
    "office_name_kana": null
  },
  "0032": {
    "postcode": "0570032",
    "prefecture": "北海道",
    "prefecture_kana": "ホッカイドウ",
    "prefecture_code": 1,
    "city": "浦河郡浦河町",
    "city_kana": "ウラカワグンウラカワチョウ",
    "town": "向が丘西",
    "town_kana": "ムコウガオカニシ",
    "street": null,
    "office_name": null,
    "office_name_kana": null
  },
  "0033": {
    "postcode": "0570033",
    "prefecture": "北海道",
    "prefecture_kana": "ホッカイドウ",
    "prefecture_code": 1,
    "city": "浦河郡浦河町",
    "city_kana": "ウラカワグンウラカワチョウ",
    "town": "堺町東",
    "town_kana": "サカイマチヒガシ",
    "street": null,
    "office_name": null,
    "office_name_kana": null
  },
  "0034": {
    "postcode": "0570034",
    "prefecture": "北海道",
    "prefecture_kana": "ホッカイドウ",
    "prefecture_code": 1,
    "city": "浦河郡浦河町",
    "city_kana": "ウラカワグンウラカワチョウ",
    "town": "堺町西",
    "town_kana": "サカイマチニシ",
    "street": null,
    "office_name": null,
    "office_name_kana": null
  },
  "0035": {
    "postcode": "0570035",
    "prefecture": "北海道",
    "prefecture_kana": "ホッカイドウ",
    "prefecture_code": 1,
    "city": "浦河郡浦河町",
    "city_kana": "ウラカワグンウラカワチョウ",
    "town": "井寒台",
    "town_kana": "イカンタイ",
    "street": null,
    "office_name": null,
    "office_name_kana": null
  },
  "0036": {
    "postcode": "0570036",
    "prefecture": "北海道",
    "prefecture_kana": "ホッカイドウ",
    "prefecture_code": 1,
    "city": "浦河郡浦河町",
    "city_kana": "ウラカワグンウラカワチョウ",
    "town": "絵笛",
    "town_kana": "エブエ",
    "street": null,
    "office_name": null,
    "office_name_kana": null
  },
  "0171": {
    "postcode": "0570171",
    "prefecture": "北海道",
    "prefecture_kana": "ホッカイドウ",
    "prefecture_code": 1,
    "city": "浦河郡浦河町",
    "city_kana": "ウラカワグンウラカワチョウ",
    "town": "西舎",
    "town_kana": "ニシチャ",
    "street": null,
    "office_name": null,
    "office_name_kana": null
  },
  "0172": {
    "postcode": "0570172",
    "prefecture": "北海道",
    "prefecture_kana": "ホッカイドウ",
    "prefecture_code": 1,
    "city": "浦河郡浦河町",
    "city_kana": "ウラカワグンウラカワチョウ",
    "town": "杵臼",
    "town_kana": "キネウス",
    "street": null,
    "office_name": null,
    "office_name_kana": null
  },
  "0173": {
    "postcode": "0570173",
    "prefecture": "北海道",
    "prefecture_kana": "ホッカイドウ",
    "prefecture_code": 1,
    "city": "浦河郡浦河町",
    "city_kana": "ウラカワグンウラカワチョウ",
    "town": "上杵臼",
    "town_kana": "カミキネウス",
    "street": null,
    "office_name": null,
    "office_name_kana": null
  },
  "0174": {
    "postcode": "0570174",
    "prefecture": "北海道",
    "prefecture_kana": "ホッカイドウ",
    "prefecture_code": 1,
    "city": "浦河郡浦河町",
    "city_kana": "ウラカワグンウラカワチョウ",
    "town": "上西舎",
    "town_kana": "カミニシチャ",
    "street": null,
    "office_name": null,
    "office_name_kana": null
  },
  "8511": {
    "postcode": "0578511",
    "prefecture": "北海道",
    "prefecture_kana": "ホッカイドウ",
    "prefecture_code": 1,
    "city": "浦河郡浦河町",
    "city_kana": "ウラカワグンウラカワチョウ",
    "town": "築地",
    "town_kana": "ツキジ",
    "street": "１丁目３−１",
    "office_name": "浦河町役場",
    "office_name_kana": "ウラカワチヨウヤクバ"
  },
  "8558": {
    "postcode": "0578558",
    "prefecture": "北海道",
    "prefecture_kana": "ホッカイドウ",
    "prefecture_code": 1,
    "city": "浦河郡浦河町",
    "city_kana": "ウラカワグンウラカワチョウ",
    "town": "栄丘東通",
    "town_kana": null,
    "street": "５６号",
    "office_name": "北海道　日高振興局",
    "office_name_kana": "ホツカイドウ ヒダカシンコウキヨク"
  }
}