{
  "0000": {
    "postcode": "0670000",
    "prefecture": "北海道",
    "prefecture_kana": "ホッカイドウ",
    "prefecture_code": 1,
    "city": "江別市",
    "city_kana": "エベツシ",
    "town": "",
    "town_kana": "",
    "street": null,
    "office_name": null,
    "office_name_kana": null
  },
  "0001": {
    "postcode": "0670001",
    "prefecture": "北海道",
    "prefecture_kana": "ホッカイドウ",
    "prefecture_code": 1,
    "city": "江別市",
    "city_kana": "エベツシ",
    "town": "王子",
    "town_kana": "オウジ",
    "street": null,
    "office_name": null,
    "office_name_kana": null
  },
  "0002": {
    "postcode": "0670002",
    "prefecture": "北海道",
    "prefecture_kana": "ホッカイドウ",
    "prefecture_code": 1,
    "city": "江別市",
    "city_kana": "エベツシ",
    "town": "緑町西",
    "town_kana": "ミドリマチニシ",
    "street": null,
    "office_name": null,
    "office_name_kana": null
  },
  "0003": {
    "postcode": "0670003",
    "prefecture": "北海道",
    "prefecture_kana": "ホッカイドウ",
    "prefecture_code": 1,
    "city": "江別市",
    "city_kana": "エベツシ",
    "town": "緑町東",
    "town_kana": "ミドリマチヒガシ",
    "street": null,
    "office_name": null,
    "office_name_kana": null
  },
  "0004": {
    "postcode": "0670004",
    "prefecture": "北海道",
    "prefecture_kana": "ホッカイドウ",
    "prefecture_code": 1,
    "city": "江別市",
    "city_kana": "エベツシ",
    "town": "若草町",
    "town_kana": "ワカクサチョウ",
    "street": null,
    "office_name": null,
    "office_name_kana": null
  },
  "0005": {
    "postcode": "0670005",
    "prefecture": "北海道",
    "prefecture_kana": "ホッカイドウ",
    "prefecture_code": 1,
    "city": "江別市",
    "city_kana": "エベツシ",
    "town": "牧場町",
    "town_kana": "マキバチョウ",
    "street": null,
    "office_name": null,
    "office_name_kana": null
  },
  "0011": {
    "postcode": "0670011",
    "prefecture": "北海道",
    "prefecture_kana": "ホッカイドウ",
    "prefecture_code": 1,
    "city": "江別市",
    "city_kana": "エベツシ",
    "town": "１条",
    "town_kana": "1ジョウ",
    "street": null,
    "office_name": null,
    "office_name_kana": null
  },
  "0012": {
    "postcode": "0670012",
    "prefecture": "北海道",
    "prefecture_kana": "ホッカイドウ",
    "prefecture_code": 1,
    "city": "江別市",
    "city_kana": "エベツシ",
    "town": "２条",
    "town_kana": "2ジョウ",
    "street": null,
    "office_name": null,
    "office_name_kana": null
  },
  "0013": {
    "postcode": "0670013",
    "prefecture": "北海道",
    "prefecture_kana": "ホッカイドウ",
    "prefecture_code": 1,
    "city": "江別市",
    "city_kana": "エベツシ",
    "town": "３条",
    "town_kana": "3ジョウ",
    "street": null,
    "office_name": null,
    "office_name_kana": null
  },
  "0014": {
    "postcode": "0670014",
    "prefecture": "北海道",
    "prefecture_kana": "ホッカイドウ",
    "prefecture_code": 1,
    "city": "江別市",
    "city_kana": "エベツシ",
    "town": "４条",
    "town_kana": "4ジョウ",
    "street": null,
    "office_name": null,
    "office_name_kana": null
  },
  "0015": {
    "postcode": "0670015",
    "prefecture": "北海道",
    "prefecture_kana": "ホッカイドウ",
    "prefecture_code": 1,
    "city": "江別市",
    "city_kana": "エベツシ",
    "town": "５条",
    "town_kana": "5ジョウ",
    "street": null,
    "office_name": null,
    "office_name_kana": null
  },
  "0016": {
    "postcode": "0670016",
    "prefecture": "北海道",
    "prefecture_kana": "ホッカイドウ",
    "prefecture_code": 1,
    "city": "江別市",
    "city_kana": "エベツシ",
    "town": "６条",
    "town_kana": "6ジョウ",
    "street": null,
    "office_name": null,
    "office_name_kana": null
  },
  "0017": {
    "postcode": "0670017",
    "prefecture": "北海道",
    "prefecture_kana": "ホッカイドウ",
    "prefecture_code": 1,
    "city": "江別市",
    "city_kana": "エベツシ",
    "town": "７条",
    "town_kana": "7ジョウ",
    "street": null,
    "office_name": null,
    "office_name_kana": null
  },
  "0018": {
    "postcode": "0670018",
    "prefecture": "北海道",
    "prefecture_kana": "ホッカイドウ",
    "prefecture_code": 1,
    "city": "江別市",
    "city_kana": "エベツシ",
    "town": "８条",
    "town_kana": "8ジョウ",
    "street": null,
    "office_name": null,
    "office_name_kana": null
  },
  "0021": {
    "postcode": "0670021",
    "prefecture": "北海道",
    "prefecture_kana": "ホッカイドウ",
    "prefecture_code": 1,
    "city": "江別市",
    "city_kana": "エベツシ",
    "town": "豊幌",
    "town_kana": "トヨホロ",
    "street": null,
    "office_name": null,
    "office_name_kana": null
  },
  "0022": {
    "postcode": "0670022",
    "prefecture": "北海道",
    "prefecture_kana": "ホッカイドウ",
    "prefecture_code": 1,
    "city": "江別市",
    "city_kana": "エベツシ",
    "town": "江別太",
    "town_kana": "エベツブト",
    "street": null,
    "office_name": null,
    "office_name_kana": null
  },
  "0023": {
    "postcode": "0670023",
    "prefecture": "北海道",
    "prefecture_kana": "ホッカイドウ",
    "prefecture_code": 1,
    "city": "江別市",
    "city_kana": "エベツシ",
    "town": "東光町",
    "town_kana": "トウコウチョウ",
    "street": null,
    "office_name": null,
    "office_name_kana": null
  },
  "0024": {
    "postcode": "0670024",
    "prefecture": "北海道",
    "prefecture_kana": "ホッカイドウ",
    "prefecture_code": 1,
    "city": "江別市",
    "city_kana": "エベツシ",
    "town": "朝日町",
    "town_kana": "アサヒチョウ",
    "street": null,
    "office_name": null,
    "office_name_kana": null
  },
  "0025": {
    "postcode": "0670025",
    "prefecture": "北海道",
    "prefecture_kana": "ホッカイドウ",
    "prefecture_code": 1,
    "city": "江別市",
    "city_kana": "エベツシ",
    "town": "あけぼの町",
    "town_kana": "アケボノチョウ",
    "street": null,
    "office_name": null,
    "office_name_kana": null
  },
  "0026": {
    "postcode": "0670026",
    "prefecture": "北海道",
    "prefecture_kana": "ホッカイドウ",
    "prefecture_code": 1,
    "city": "江別市",
    "city_kana": "エベツシ",
    "town": "豊幌花園町",
    "town_kana": "トヨホロハナゾノチョウ",
    "street": null,
    "office_name": null,
    "office_name_kana": null
  },
  "0027": {
    "postcode": "0670027",
    "prefecture": "北海道",
    "prefecture_kana": "ホッカイドウ",
    "prefecture_code": 1,
    "city": "江別市",
    "city_kana": "エベツシ",
    "town": "豊幌美咲町",
    "town_kana": "トヨホロミサキチョウ",
    "street": null,
    "office_name": null,
    "office_name_kana": null
  },
  "0028": {
    "postcode": "0670028",
    "prefecture": "北海道",
    "prefecture_kana": "ホッカイドウ",
    "prefecture_code": 1,
    "city": "江別市",
    "city_kana": "エベツシ",
    "town": "豊幌はみんぐ町",
    "town_kana": "トヨホロハミングチョウ",
    "street": null,
    "office_name": null,
    "office_name_kana": null
  },
  "0031": {
    "postcode": "0670031",
    "prefecture": "北海道",
    "prefecture_kana": "ホッカイドウ",
    "prefecture_code": 1,
    "city": "江別市",
    "city_kana": "エベツシ",
    "town": "元町",
    "town_kana": "モトマチ",
    "street": null,
    "office_name": null,
    "office_name_kana": null
  },
  "0032": {
    "postcode": "0670032",
    "prefecture": "北海道",
    "prefecture_kana": "ホッカイドウ",
    "prefecture_code": 1,
    "city": "江別市",
    "city_kana": "エベツシ",
    "town": "元江別",
    "town_kana": "モトエベツ",
    "street": null,
    "office_name": null,
    "office_name_kana": null
  },
  "0033": {
    "postcode": "0670033",
    "prefecture": "北海道",
    "prefecture_kana": "ホッカイドウ",
    "prefecture_code": 1,
    "city": "江別市",
    "city_kana": "エベツシ",
    "town": "対雁",
    "town_kana": "ツイシカリ",
    "street": null,
    "office_name": null,
    "office_name_kana": null
  },
  "0034": {
    "postcode": "0670034",
    "prefecture": "北海道",
    "prefecture_kana": "ホッカイドウ",
    "prefecture_code": 1,
    "city": "江別市",
    "city_kana": "エベツシ",
    "town": "いずみ野",
    "town_kana": "イズミノ",
    "street": null,
    "office_name": null,
    "office_name_kana": null
  },
  "0041": {
    "postcode": "0670041",
    "prefecture": "北海道",
    "prefecture_kana": "ホッカイドウ",
    "prefecture_code": 1,
    "city": "江別市",
    "city_kana": "エベツシ",
    "town": "元江別本町",
    "town_kana": "モトエベツホンチョウ",
    "street": null,
    "office_name": null,
    "office_name_kana": null
  },
  "0042": {
    "postcode": "0670042",
    "prefecture": "北海道",
    "prefecture_kana": "ホッカイドウ",
    "prefecture_code": 1,
    "city": "江別市",
    "city_kana": "エベツシ",
    "town": "見晴台",
    "town_kana": "ミハラシダイ",
    "street": null,
    "office_name": null,
    "office_name_kana": null
  },
  "0051": {
    "postcode": "0670051",
    "prefecture": "北海道",
    "prefecture_kana": "ホッカイドウ",
    "prefecture_code": 1,
    "city": "江別市",
    "city_kana": "エベツシ",
    "town": "工栄町",
    "town_kana": "コウエイチョウ",
    "street": null,
    "office_name": null,
    "office_name_kana": null
  },
  "0052": {
    "postcode": "0670052",
    "prefecture": "北海道",
    "prefecture_kana": "ホッカイドウ",
    "prefecture_code": 1,
    "city": "江別市",
    "city_kana": "エベツシ",
    "town": "角山",
    "town_kana": "カクヤマ",
    "street": null,
    "office_name": null,
    "office_name_kana": null
  },
  "0053": {
    "postcode": "0670053",
    "prefecture": "北海道",
    "prefecture_kana": "ホッカイドウ",
    "prefecture_code": 1,
    "city": "江別市",
    "city_kana": "エベツシ",
    "town": "中島",
    "town_kana": "ナカジマ",
    "street": null,
    "office_name": null,
    "office_name_kana": null
  },
  "0054": {
    "postcode": "0670054",
    "prefecture": "北海道",
    "prefecture_kana": "ホッカイドウ",
    "prefecture_code": 1,
    "city": "江別市",
    "city_kana": "エベツシ",
    "town": "八幡",
    "town_kana": "ヤハタ",
    "street": null,
    "office_name": null,
    "office_name_kana": null
  },
  "0055": {
    "postcode": "0670055",
    "prefecture": "北海道",
    "prefecture_kana": "ホッカイドウ",
    "prefecture_code": 1,
    "city": "江別市",
    "city_kana": "エベツシ",
    "town": "篠津",
    "town_kana": "シノツ",
    "street": null,
    "office_name": null,
    "office_name_kana": null
  },
  "0056": {
    "postcode": "0670056",
    "prefecture": "北海道",
    "prefecture_kana": "ホッカイドウ",
    "prefecture_code": 1,
    "city": "江別市",
    "city_kana": "エベツシ",
    "town": "美原",
    "town_kana": "ミハラ",
    "street": null,
    "office_name": null,
    "office_name_kana": null
  },
  "0057": {
    "postcode": "0670057",
    "prefecture": "北海道",
    "prefecture_kana": "ホッカイドウ",
    "prefecture_code": 1,
    "city": "江別市",
    "city_kana": "エベツシ",
    "town": "萌えぎ野東",
    "town_kana": "モエギノヒガシ",
    "street": null,
    "office_name": null,
    "office_name_kana": null
  },
  "0058": {
    "postcode": "0670058",
    "prefecture": "北海道",
    "prefecture_kana": "ホッカイドウ",
    "prefecture_code": 1,
    "city": "江別市",
    "city_kana": "エベツシ",
    "town": "萌えぎ野中央",
    "town_kana": "モエギノチュウオウ",
    "street": null,
    "office_name": null,
    "office_name_kana": null
  },
  "0059": {
    "postcode": "0670059",
    "prefecture": "北海道",
    "prefecture_kana": "ホッカイドウ",
    "prefecture_code": 1,
    "city": "江別市",
    "city_kana": "エベツシ",
    "town": "萌えぎ野西",
    "town_kana": "モエギノニシ",
    "street": null,
    "office_name": null,
    "office_name_kana": null
  },
  "0061": {
    "postcode": "0670061",
    "prefecture": "北海道",
    "prefecture_kana": "ホッカイドウ",
    "prefecture_code": 1,
    "city": "江別市",
    "city_kana": "エベツシ",
    "town": "上江別東町",
    "town_kana": "カミエベツヒガシマチ",
    "street": null,
    "office_name": null,
    "office_name_kana": null
  },
  "0062": {
    "postcode": "0670062",
    "prefecture": "北海道",
    "prefecture_kana": "ホッカイドウ",
    "prefecture_code": 1,
    "city": "江別市",
    "city_kana": "エベツシ",
    "town": "上江別南町",
    "town_kana": "カミエベツミナミマチ",
    "street": null,
    "office_name": null,
    "office_name_kana": null
  },
  "0063": {
    "postcode": "0670063",
    "prefecture": "北海道",
    "prefecture_kana": "ホッカイドウ",
    "prefecture_code": 1,
    "city": "江別市",
    "city_kana": "エベツシ",
    "town": "上江別西町",
    "town_kana": "カミエベツニシマチ",
    "street": null,
    "office_name": null,
    "office_name_kana": null
  },
  "0064": {
    "postcode": "0670064",
    "prefecture": "北海道",
    "prefecture_kana": "ホッカイドウ",
    "prefecture_code": 1,
    "city": "江別市",
    "city_kana": "エベツシ",
    "town": "上江別",
    "town_kana": "カミエベツ",
    "street": null,
    "office_name": null,
    "office_name_kana": null
  },
  "0065": {
    "postcode": "0670065",
    "prefecture": "北海道",
    "prefecture_kana": "ホッカイドウ",
    "prefecture_code": 1,
    "city": "江別市",
    "city_kana": "エベツシ",
    "town": "ゆめみ野東町",
    "town_kana": "ユメミノヒガシマチ",
    "street": null,
    "office_name": null,
    "office_name_kana": null
  },
  "0066": {
    "postcode": "0670066",
    "prefecture": "北海道",
    "prefecture_kana": "ホッカイドウ",
    "prefecture_code": 1,
    "city": "江別市",
    "city_kana": "エベツシ",
    "town": "ゆめみ野南町",
    "town_kana": "ユメミノミナミマチ",
    "street": null,
    "office_name": null,
    "office_name_kana": null
  },
  "0071": {
    "postcode": "0670071",
    "prefecture": "北海道",
    "prefecture_kana": "ホッカイドウ",
    "prefecture_code": 1,
    "city": "江別市",
    "city_kana": "エベツシ",
    "town": "萩ケ岡",
    "town_kana": "ハギガオカ",
    "street": null,
    "office_name": null,
    "office_name_kana": null
  },
  "0072": {
    "postcode": "0670072",
    "prefecture": "北海道",
    "prefecture_kana": "ホッカイドウ",
    "prefecture_code": 1,
    "city": "江別市",
    "city_kana": "エベツシ",
    "town": "一番町",
    "town_kana": "イチバンチョウ",
    "street": null,
    "office_name": null,
    "office_name_kana": null
  },
  "0073": {
    "postcode": "0670073",
    "prefecture": "北海道",
    "prefecture_kana": "ホッカイドウ",
    "prefecture_code": 1,
    "city": "江別市",
    "city_kana": "エベツシ",
    "town": "弥生町",
    "town_kana": "ヤヨイチョウ",
    "street": null,
    "office_name": null,
    "office_name_kana": null
  },
  "0074": {
    "postcode": "0670074",
    "prefecture": "北海道",
    "prefecture_kana": "ホッカイドウ",
    "prefecture_code": 1,
    "city": "江別市",
    "city_kana": "エベツシ",
    "town": "高砂町",
    "town_kana": "タカサゴチョウ",
    "street": null,
    "office_name": null,
    "office_name_kana": null
  },
  "0075": {
    "postcode": "0670075",
    "prefecture": "北海道",
    "prefecture_kana": "ホッカイドウ",
    "prefecture_code": 1,
    "city": "江別市",
    "city_kana": "エベツシ",
    "town": "向ケ丘",
    "town_kana": "ムコウガオカ",
    "street": null,
    "office_name": null,
    "office_name_kana": null
  },
  "8501": {
    "postcode": "0678501",
    "prefecture": "北海道",
    "prefecture_kana": "ホッカイドウ",
    "prefecture_code": 1,
    "city": "江別市",
    "city_kana": "エベツシ",
    "town": "二条",
    "town_kana": "2ジョウ",
    "street": "５丁目９番２号",
    "office_name": "株式会社　ペイロール　北海道ＢＰＯセンター",
    "office_name_kana": "カブシキカイシヤ ペイロ-ル ホツカイドウビ-ピ-オ-センタ-"
  },
  "8547": {
    "postcode": "0678547",
    "prefecture": "北海道",
    "prefecture_kana": "ホッカイドウ",
    "prefecture_code": 1,
    "city": "江別市",
    "city_kana": "エベツシ",
    "town": "四条",
    "town_kana": "4ジョウ",
    "street": "７丁目１",
    "office_name": "江別商工会議所",
    "office_name_kana": "エベツシヨウコウカイギシヨ"
  },
  "8551": {
    "postcode": "0678551",
    "prefecture": "北海道",
    "prefecture_kana": "ホッカイドウ",
    "prefecture_code": 1,
    "city": "江別市",
    "city_kana": "エベツシ",
    "town": "工栄町",
    "town_kana": "コウエイチョウ",
    "street": "１９番地６",
    "office_name": "（株）　菊水",
    "office_name_kana": "カブシキガイシヤ キクスイ"
  },
  "8564": {
    "postcode": "0678564",
    "prefecture": "北海道",
    "prefecture_kana": "ホッカイドウ",
    "prefecture_code": 1,
    "city": "江別市",
    "city_kana": "エベツシ",
    "town": "上江別",
    "town_kana": "カミエベツ",
    "street": "４４４番地１",
    "office_name": "江別高等学校",
    "office_name_kana": "エベツコウトウガツコウ"
  },
  "8565": {
    "postcode": "0678565",
    "prefecture": "北海道",
    "prefecture_kana": "ホッカイドウ",
    "prefecture_code": 1,
    "city": "江別市",
    "city_kana": "エベツシ",
    "town": "上江別",
    "town_kana": "カミエベツ",
    "street": "４４１番地",
    "office_name": "北海鋼機　（株）",
    "office_name_kana": "ホツカイコウキ カブシキガイシヤ"
  },
  "8585": {
    "postcode": "0678585",
    "prefecture": "北海道",
    "prefecture_kana": "ホッカイドウ",
    "prefecture_code": 1,
    "city": "江別市",
    "city_kana": "エベツシ",
    "town": "若草町",
    "town_kana": "ワカクサチョウ",
    "street": "６番地",
    "office_name": "江別市立病院",
    "office_name_kana": "エベツシリツビヨウイン"
  },
  "8674": {
    "postcode": "0678674",
    "prefecture": "北海道",
    "prefecture_kana": "ホッカイドウ",
    "prefecture_code": 1,
    "city": "江別市",
    "city_kana": "エベツシ",
    "town": "高砂町",
    "town_kana": "タカサゴチョウ",
    "street": "６番地（江別郵便局私書箱第７号）",
    "office_name": "江別市役所",
    "office_name_kana": "エベツシヤクシヨ"
  }
}