{
  "0000": {
    "postcode": "0680000",
    "prefecture": "北海道",
    "prefecture_kana": "ホッカイドウ",
    "prefecture_code": 1,
    "city": "岩見沢市",
    "city_kana": "イワミザワシ",
    "town": "",
    "town_kana": "",
    "street": null,
    "office_name": null,
    "office_name_kana": null
  },
  "0001": {
    "postcode": "0680001",
    "prefecture": "北海道",
    "prefecture_kana": "ホッカイドウ",
    "prefecture_code": 1,
    "city": "岩見沢市",
    "city_kana": "イワミザワシ",
    "town": "一条東",
    "town_kana": "1ジョウヒガシ",
    "street": null,
    "office_name": null,
    "office_name_kana": null
  },
  "0002": {
    "postcode": "0680002",
    "prefecture": "北海道",
    "prefecture_kana": "ホッカイドウ",
    "prefecture_code": 1,
    "city": "岩見沢市",
    "city_kana": "イワミザワシ",
    "town": "二条東",
    "town_kana": "2ジョウヒガシ",
    "street": null,
    "office_name": null,
    "office_name_kana": null
  },
  "0003": {
    "postcode": "0680003",
    "prefecture": "北海道",
    "prefecture_kana": "ホッカイドウ",
    "prefecture_code": 1,
    "city": "岩見沢市",
    "city_kana": "イワミザワシ",
    "town": "三条東",
    "town_kana": "3ジョウヒガシ",
    "street": null,
    "office_name": null,
    "office_name_kana": null
  },
  "0004": {
    "postcode": "0680004",
    "prefecture": "北海道",
    "prefecture_kana": "ホッカイドウ",
    "prefecture_code": 1,
    "city": "岩見沢市",
    "city_kana": "イワミザワシ",
    "town": "四条東",
    "town_kana": "4ジョウヒガシ",
    "street": null,
    "office_name": null,
    "office_name_kana": null
  },
  "0005": {
    "postcode": "0680005",
    "prefecture": "北海道",
    "prefecture_kana": "ホッカイドウ",
    "prefecture_code": 1,
    "city": "岩見沢市",
    "city_kana": "イワミザワシ",
    "town": "五条東",
    "town_kana": "5ジョウヒガシ",
    "street": null,
    "office_name": null,
    "office_name_kana": null
  },
  "0006": {
    "postcode": "0680006",
    "prefecture": "北海道",
    "prefecture_kana": "ホッカイドウ",
    "prefecture_code": 1,
    "city": "岩見沢市",
    "city_kana": "イワミザワシ",
    "town": "六条東",
    "town_kana": "6ジョウヒガシ",
    "street": null,
    "office_name": null,
    "office_name_kana": null
  },
  "0007": {
    "postcode": "0680007",
    "prefecture": "北海道",
    "prefecture_kana": "ホッカイドウ",
    "prefecture_code": 1,
    "city": "岩見沢市",
    "city_kana": "イワミザワシ",
    "town": "七条東",
    "town_kana": "7ジョウヒガシ",
    "street": null,
    "office_name": null,
    "office_name_kana": null
  },
  "0008": {
    "postcode": "0680008",
    "prefecture": "北海道",
    "prefecture_kana": "ホッカイドウ",
    "prefecture_code": 1,
    "city": "岩見沢市",
    "city_kana": "イワミザワシ",
    "town": "八条東",
    "town_kana": "8ジョウヒガシ",
    "street": null,
    "office_name": null,
    "office_name_kana": null
  },
  "0009": {
    "postcode": "0680009",
    "prefecture": "北海道",
    "prefecture_kana": "ホッカイドウ",
    "prefecture_code": 1,
    "city": "岩見沢市",
    "city_kana": "イワミザワシ",
    "town": "九条東",
    "town_kana": "9ジョウヒガシ",
    "street": null,
    "office_name": null,
    "office_name_kana": null
  },
  "0010": {
    "postcode": "0680010",
    "prefecture": "北海道",
    "prefecture_kana": "ホッカイドウ",
    "prefecture_code": 1,
    "city": "岩見沢市",
    "city_kana": "イワミザワシ",
    "town": "十条東",
    "town_kana": "10ジョウヒガシ",
    "street": null,
    "office_name": null,
    "office_name_kana": null
  },
  "0011": {
    "postcode": "0680011",
    "prefecture": "北海道",
    "prefecture_kana": "ホッカイドウ",
    "prefecture_code": 1,
    "city": "岩見沢市",
    "city_kana": "イワミザワシ",
    "town": "十一条東",
    "town_kana": "11ジョウヒガシ",
    "street": null,
    "office_name": null,
    "office_name_kana": null
  },
  "0012": {
    "postcode": "0680012",
    "prefecture": "北海道",
    "prefecture_kana": "ホッカイドウ",
    "prefecture_code": 1,
    "city": "岩見沢市",
    "city_kana": "イワミザワシ",
    "town": "十二条東",
    "town_kana": "12ジョウヒガシ",
    "street": null,
    "office_name": null,
    "office_name_kana": null
  },
  "0013": {
    "postcode": "0680013",
    "prefecture": "北海道",
    "prefecture_kana": "ホッカイドウ",
    "prefecture_code": 1,
    "city": "岩見沢市",
    "city_kana": "イワミザワシ",
    "town": "東町一条",
    "town_kana": "ヒガシマチ1ジョウ",
    "street": null,
    "office_name": null,
    "office_name_kana": null
  },
  "0014": {
    "postcode": "0680014",
    "prefecture": "北海道",
    "prefecture_kana": "ホッカイドウ",
    "prefecture_code": 1,
    "city": "岩見沢市",
    "city_kana": "イワミザワシ",
    "town": "東町二条",
    "town_kana": "ヒガシマチ2ジョウ",
    "street": null,
    "office_name": null,
    "office_name_kana": null
  },
  "0015": {
    "postcode": "0680015",
    "prefecture": "北海道",
    "prefecture_kana": "ホッカイドウ",
    "prefecture_code": 1,
    "city": "岩見沢市",
    "city_kana": "イワミザワシ",
    "town": "東町",
    "town_kana": "ヒガシマチ",
    "street": null,
    "office_name": null,
    "office_name_kana": null
  },
  "0016": {
    "postcode": "0680016",
    "prefecture": "北海道",
    "prefecture_kana": "ホッカイドウ",
    "prefecture_code": 1,
    "city": "岩見沢市",
    "city_kana": "イワミザワシ",
    "town": "稔町",
    "town_kana": "ミノリチョウ",
    "street": null,
    "office_name": null,
    "office_name_kana": null
  },
  "0021": {
    "postcode": "0680021",
    "prefecture": "北海道",
    "prefecture_kana": "ホッカイドウ",
    "prefecture_code": 1,
    "city": "岩見沢市",
    "city_kana": "イワミザワシ",
    "town": "一条西",
    "town_kana": "1ジョウニシ",
    "street": null,
    "office_name": null,
    "office_name_kana": null
  },
  "0022": {
    "postcode": "0680022",
    "prefecture": "北海道",
    "prefecture_kana": "ホッカイドウ",
    "prefecture_code": 1,
    "city": "岩見沢市",
    "city_kana": "イワミザワシ",
    "town": "二条西",
    "town_kana": "2ジョウニシ",
    "street": null,
    "office_name": null,
    "office_name_kana": null
  },
  "0023": {
    "postcode": "0680023",
    "prefecture": "北海道",
    "prefecture_kana": "ホッカイドウ",
    "prefecture_code": 1,
    "city": "岩見沢市",
    "city_kana": "イワミザワシ",
    "town": "三条西",
    "town_kana": "3ジョウニシ",
    "street": null,
    "office_name": null,
    "office_name_kana": null
  },
  "0024": {
    "postcode": "0680024",
    "prefecture": "北海道",
    "prefecture_kana": "ホッカイドウ",
    "prefecture_code": 1,
    "city": "岩見沢市",
    "city_kana": "イワミザワシ",
    "town": "四条西",
    "town_kana": "4ジョウニシ",
    "street": null,
    "office_name": null,
    "office_name_kana": null
  },
  "0025": {
    "postcode": "0680025",
    "prefecture": "北海道",
    "prefecture_kana": "ホッカイドウ",
    "prefecture_code": 1,
    "city": "岩見沢市",
    "city_kana": "イワミザワシ",
    "town": "五条西",
    "town_kana": "5ジョウニシ",
    "street": null,
    "office_name": null,
    "office_name_kana": null
  },
  "0026": {
    "postcode": "0680026",
    "prefecture": "北海道",
    "prefecture_kana": "ホッカイドウ",
    "prefecture_code": 1,
    "city": "岩見沢市",
    "city_kana": "イワミザワシ",
    "town": "六条西",
    "town_kana": "6ジョウニシ",
    "street": null,
    "office_name": null,
    "office_name_kana": null
  },
  "0027": {
    "postcode": "0680027",
    "prefecture": "北海道",
    "prefecture_kana": "ホッカイドウ",
    "prefecture_code": 1,
    "city": "岩見沢市",
    "city_kana": "イワミザワシ",
    "town": "七条西",
    "town_kana": "7ジョウニシ",
    "street": null,
    "office_name": null,
    "office_name_kana": null
  },
  "0028": {
    "postcode": "0680028",
    "prefecture": "北海道",
    "prefecture_kana": "ホッカイドウ",
    "prefecture_code": 1,
    "city": "岩見沢市",
    "city_kana": "イワミザワシ",
    "town": "八条西",
    "town_kana": "8ジョウニシ",
    "street": null,
    "office_name": null,
    "office_name_kana": null
  },
  "0029": {
    "postcode": "0680029",
    "prefecture": "北海道",
    "prefecture_kana": "ホッカイドウ",
    "prefecture_code": 1,
    "city": "岩見沢市",
    "city_kana": "イワミザワシ",
    "town": "九条西",
    "town_kana": "9ジョウニシ",
    "street": null,
    "office_name": null,
    "office_name_kana": null
  },
  "0030": {
    "postcode": "0680030",
    "prefecture": "北海道",
    "prefecture_kana": "ホッカイドウ",
    "prefecture_code": 1,
    "city": "岩見沢市",
    "city_kana": "イワミザワシ",
    "town": "十条西",
    "town_kana": "10ジョウニシ",
    "street": null,
    "office_name": null,
    "office_name_kana": null
  },
  "0031": {
    "postcode": "0680031",
    "prefecture": "北海道",
    "prefecture_kana": "ホッカイドウ",
    "prefecture_code": 1,
    "city": "岩見沢市",
    "city_kana": "イワミザワシ",
    "town": "十一条西",
    "town_kana": "11ジョウニシ",
    "street": null,
    "office_name": null,
    "office_name_kana": null
  },
  "0032": {
    "postcode": "0680032",
    "prefecture": "北海道",
    "prefecture_kana": "ホッカイドウ",
    "prefecture_code": 1,
    "city": "岩見沢市",
    "city_kana": "イワミザワシ",
    "town": "十二条西",
    "town_kana": "12ジョウニシ",
    "street": null,
    "office_name": null,
    "office_name_kana": null
  },
  "0033": {
    "postcode": "0680033",
    "prefecture": "北海道",
    "prefecture_kana": "ホッカイドウ",
    "prefecture_code": 1,
    "city": "岩見沢市",
    "city_kana": "イワミザワシ",
    "town": "十三条西",
    "town_kana": "13ジョウニシ",
    "street": null,
    "office_name": null,
    "office_name_kana": null
  },
  "0034": {
    "postcode": "0680034",
    "prefecture": "北海道",
    "prefecture_kana": "ホッカイドウ",
    "prefecture_code": 1,
    "city": "岩見沢市",
    "city_kana": "イワミザワシ",
    "town": "有明町南",
    "town_kana": "アリアケチョウミナミ",
    "street": null,
    "office_name": null,
    "office_name_kana": null
  },
  "0035": {
    "postcode": "0680035",
    "prefecture": "北海道",
    "prefecture_kana": "ホッカイドウ",
    "prefecture_code": 1,
    "city": "岩見沢市",
    "city_kana": "イワミザワシ",
    "town": "有明町中央",
    "town_kana": "アリアケチョウチュウオウ",
    "street": null,
    "office_name": null,
    "office_name_kana": null
  },
  "0041": {
    "postcode": "0680041",
    "prefecture": "北海道",
    "prefecture_kana": "ホッカイドウ",
    "prefecture_code": 1,
    "city": "岩見沢市",
    "city_kana": "イワミザワシ",
    "town": "北一条西",
    "town_kana": "キタ1ジョウニシ",
    "street": null,
    "office_name": null,
    "office_name_kana": null
  },
  "0042": {
    "postcode": "0680042",
    "prefecture": "北海道",
    "prefecture_kana": "ホッカイドウ",
    "prefecture_code": 1,
    "city": "岩見沢市",
    "city_kana": "イワミザワシ",
    "town": "北二条西",
    "town_kana": "キタ2ジョウニシ",
    "street": null,
    "office_name": null,
    "office_name_kana": null
  },
  "0043": {
    "postcode": "0680043",
    "prefecture": "北海道",
    "prefecture_kana": "ホッカイドウ",
    "prefecture_code": 1,
    "city": "岩見沢市",
    "city_kana": "イワミザワシ",
    "town": "北三条西",
    "town_kana": "キタ3ジョウニシ",
    "street": null,
    "office_name": null,
    "office_name_kana": null
  },
  "0044": {
    "postcode": "0680044",
    "prefecture": "北海道",
    "prefecture_kana": "ホッカイドウ",
    "prefecture_code": 1,
    "city": "岩見沢市",
    "city_kana": "イワミザワシ",
    "town": "北四条西",
    "town_kana": "キタ4ジョウニシ",
    "street": null,
    "office_name": null,
    "office_name_kana": null
  },
  "0045": {
    "postcode": "0680045",
    "prefecture": "北海道",
    "prefecture_kana": "ホッカイドウ",
    "prefecture_code": 1,
    "city": "岩見沢市",
    "city_kana": "イワミザワシ",
    "town": "北五条西",
    "town_kana": "キタ5ジョウニシ",
    "street": null,
    "office_name": null,
    "office_name_kana": null
  },
  "0046": {
    "postcode": "0680046",
    "prefecture": "北海道",
    "prefecture_kana": "ホッカイドウ",
    "prefecture_code": 1,
    "city": "岩見沢市",
    "city_kana": "イワミザワシ",
    "town": "緑町",
    "town_kana": "ミドリチョウ",
    "street": null,
    "office_name": null,
    "office_name_kana": null
  },
  "0047": {
    "postcode": "0680047",
    "prefecture": "北海道",
    "prefecture_kana": "ホッカイドウ",
    "prefecture_code": 1,
    "city": "岩見沢市",
    "city_kana": "イワミザワシ",
    "town": "若松町",
    "town_kana": "ワカマツチョウ",
    "street": null,
    "office_name": null,
    "office_name_kana": null
  },
  "0048": {
    "postcode": "0680048",
    "prefecture": "北海道",
    "prefecture_kana": "ホッカイドウ",
    "prefecture_code": 1,
    "city": "岩見沢市",
    "city_kana": "イワミザワシ",
    "town": "西川町",
    "town_kana": "ニシカワチョウ",
    "street": null,
    "office_name": null,
    "office_name_kana": null
  },
  "0051": {
    "postcode": "0680051",
    "prefecture": "北海道",
    "prefecture_kana": "ホッカイドウ",
    "prefecture_code": 1,
    "city": "岩見沢市",
    "city_kana": "イワミザワシ",
    "town": "元町一条西",
    "town_kana": "モトマチ1ジョウニシ",
    "street": null,
    "office_name": null,
    "office_name_kana": null
  },
  "0052": {
    "postcode": "0680052",
    "prefecture": "北海道",
    "prefecture_kana": "ホッカイドウ",
    "prefecture_code": 1,
    "city": "岩見沢市",
    "city_kana": "イワミザワシ",
    "town": "元町二条西",
    "town_kana": "モトマチ2ジョウニシ",
    "street": null,
    "office_name": null,
    "office_name_kana": null
  },
  "0053": {
    "postcode": "0680053",
    "prefecture": "北海道",
    "prefecture_kana": "ホッカイドウ",
    "prefecture_code": 1,
    "city": "岩見沢市",
    "city_kana": "イワミザワシ",
    "town": "北本町西",
    "town_kana": "キタホンチョウニシ",
    "street": null,
    "office_name": null,
    "office_name_kana": null
  },
  "0054": {
    "postcode": "0680054",
    "prefecture": "北海道",
    "prefecture_kana": "ホッカイドウ",
    "prefecture_code": 1,
    "city": "岩見沢市",
    "city_kana": "イワミザワシ",
    "town": "元町一条東",
    "town_kana": "モトマチ1ジョウヒガシ",
    "street": null,
    "office_name": null,
    "office_name_kana": null
  },
  "0055": {
    "postcode": "0680055",
    "prefecture": "北海道",
    "prefecture_kana": "ホッカイドウ",
    "prefecture_code": 1,
    "city": "岩見沢市",
    "city_kana": "イワミザワシ",
    "town": "元町二条東",
    "town_kana": "モトマチ2ジョウヒガシ",
    "street": null,
    "office_name": null,
    "office_name_kana": null
  },
  "0056": {
    "postcode": "0680056",
    "prefecture": "北海道",
    "prefecture_kana": "ホッカイドウ",
    "prefecture_code": 1,
    "city": "岩見沢市",
    "city_kana": "イワミザワシ",
    "town": "元町三条東",
    "town_kana": "モトマチ3ジョウヒガシ",
    "street": null,
    "office_name": null,
    "office_name_kana": null
  },
  "0057": {
    "postcode": "0680057",
    "prefecture": "北海道",
    "prefecture_kana": "ホッカイドウ",
    "prefecture_code": 1,
    "city": "岩見沢市",
    "city_kana": "イワミザワシ",
    "town": "北本町東",
    "town_kana": "キタホンチョウヒガシ",
    "street": null,
    "office_name": null,
    "office_name_kana": null
  },
  "0058": {
    "postcode": "0680058",
    "prefecture": "北海道",
    "prefecture_kana": "ホッカイドウ",
    "prefecture_code": 1,
    "city": "岩見沢市",
    "city_kana": "イワミザワシ",
    "town": "桜木一条",
    "town_kana": "サクラギ1ジョウ",
    "street": null,
    "office_name": null,
    "office_name_kana": null
  },
  "0061": {
    "postcode": "0680061",
    "prefecture": "北海道",
    "prefecture_kana": "ホッカイドウ",
    "prefecture_code": 1,
    "city": "岩見沢市",
    "city_kana": "イワミザワシ",
    "town": "北六条西",
    "town_kana": "キタ6ジョウニシ",
    "street": null,
    "office_name": null,
    "office_name_kana": null
  },
  "0101": {
    "postcode": "0680101",
    "prefecture": "北海道",
    "prefecture_kana": "ホッカイドウ",
    "prefecture_code": 1,
    "city": "岩見沢市",
    "city_kana": "イワミザワシ",
    "town": "栗沢町北斗",
    "town_kana": "クリサワチョウホクト",
    "street": null,
    "office_name": null,
    "office_name_kana": null
  },
  "0102": {
    "postcode": "0680102",
    "prefecture": "北海道",
    "prefecture_kana": "ホッカイドウ",
    "prefecture_code": 1,
    "city": "岩見沢市",
    "city_kana": "イワミザワシ",
    "town": "栗沢町栗部",
    "town_kana": "クリサワチョウクリベ",
    "street": null,
    "office_name": null,
    "office_name_kana": null
  },
  "0103": {
    "postcode": "0680103",
    "prefecture": "北海道",
    "prefecture_kana": "ホッカイドウ",
    "prefecture_code": 1,
    "city": "岩見沢市",
    "city_kana": "イワミザワシ",
    "town": "栗沢町砺波",
    "town_kana": "クリサワチョウトナミ",
    "street": null,
    "office_name": null,
    "office_name_kana": null
  },
  "0104": {
    "postcode": "0680104",
    "prefecture": "北海道",
    "prefecture_kana": "ホッカイドウ",
    "prefecture_code": 1,
    "city": "岩見沢市",
    "city_kana": "イワミザワシ",
    "town": "栗沢町耕成",
    "town_kana": "クリサワチョウコウセイ",
    "street": null,
    "office_name": null,
    "office_name_kana": null
  },
  "0105": {
    "postcode": "0680105",
    "prefecture": "北海道",
    "prefecture_kana": "ホッカイドウ",
    "prefecture_code": 1,
    "city": "岩見沢市",
    "city_kana": "イワミザワシ",
    "town": "栗沢町自協",
    "town_kana": "クリサワチョウジキョウ",
    "street": null,
    "office_name": null,
    "office_name_kana": null
  },
  "0106": {
    "postcode": "0680106",
    "prefecture": "北海道",
    "prefecture_kana": "ホッカイドウ",
    "prefecture_code": 1,
    "city": "岩見沢市",
    "city_kana": "イワミザワシ",
    "town": "栗沢町越前",
    "town_kana": "クリサワチョウエチゼン",
    "street": null,
    "office_name": null,
    "office_name_kana": null
  },
  "0111": {
    "postcode": "0680111",
    "prefecture": "北海道",
    "prefecture_kana": "ホッカイドウ",
    "prefecture_code": 1,
    "city": "岩見沢市",
    "city_kana": "イワミザワシ",
    "town": "栗沢町由良",
    "town_kana": "クリサワチョウユラ",
    "street": null,
    "office_name": null,
    "office_name_kana": null
  },
  "0112": {
    "postcode": "0680112",
    "prefecture": "北海道",
    "prefecture_kana": "ホッカイドウ",
    "prefecture_code": 1,
    "city": "岩見沢市",
    "city_kana": "イワミザワシ",
    "town": "栗沢町上幌",
    "town_kana": "クリサワチョウカミホロ",
    "street": null,
    "office_name": null,
    "office_name_kana": null
  },
  "0113": {
    "postcode": "0680113",
    "prefecture": "北海道",
    "prefecture_kana": "ホッカイドウ",
    "prefecture_code": 1,
    "city": "岩見沢市",
    "city_kana": "イワミザワシ",
    "town": "栗沢町宮村",
    "town_kana": "クリサワチョウミヤムラ",
    "street": null,
    "office_name": null,
    "office_name_kana": null
  },
  "0114": {
    "postcode": "0680114",
    "prefecture": "北海道",
    "prefecture_kana": "ホッカイドウ",
    "prefecture_code": 1,
    "city": "岩見沢市",
    "city_kana": "イワミザワシ",
    "town": "栗沢町茂世丑",
    "town_kana": "クリサワチョウモセウシ",
    "street": null,
    "office_name": null,
    "office_name_kana": null
  },
  "0115": {
    "postcode": "0680115",
    "prefecture": "北海道",
    "prefecture_kana": "ホッカイドウ",
    "prefecture_code": 1,
    "city": "岩見沢市",
    "city_kana": "イワミザワシ",
    "town": "栗沢町最上",
    "town_kana": "クリサワチョウモガミ",
    "street": null,
    "office_name": null,
    "office_name_kana": null
  },
  "0121": {
    "postcode": "0680121",
    "prefecture": "北海道",
    "prefecture_kana": "ホッカイドウ",
    "prefecture_code": 1,
    "city": "岩見沢市",
    "city_kana": "イワミザワシ",
    "town": "栗沢町北本町",
    "town_kana": "クリサワチョウキタホンチョウ",
    "street": null,
    "office_name": null,
    "office_name_kana": null
  },
  "0122": {
    "postcode": "0680122",
    "prefecture": "北海道",
    "prefecture_kana": "ホッカイドウ",
    "prefecture_code": 1,
    "city": "岩見沢市",
    "city_kana": "イワミザワシ",
    "town": "栗沢町北幸穂",
    "town_kana": "クリサワチョウキタサチホ",
    "street": null,
    "office_name": null,
    "office_name_kana": null
  },
  "0123": {
    "postcode": "0680123",
    "prefecture": "北海道",
    "prefecture_kana": "ホッカイドウ",
    "prefecture_code": 1,
    "city": "岩見沢市",
    "city_kana": "イワミザワシ",
    "town": "栗沢町東本町",
    "town_kana": "クリサワチョウヒガシホンチョウ",
    "street": null,
    "office_name": null,
    "office_name_kana": null
  },
  "0124": {
    "postcode": "0680124",
    "prefecture": "北海道",
    "prefecture_kana": "ホッカイドウ",
    "prefecture_code": 1,
    "city": "岩見沢市",
    "city_kana": "イワミザワシ",
    "town": "栗沢町幸穂町",
    "town_kana": "クリサワチョウサチホチョウ",
    "street": null,
    "office_name": null,
    "office_name_kana": null
  },
  "0125": {
    "postcode": "0680125",
    "prefecture": "北海道",
    "prefecture_kana": "ホッカイドウ",
    "prefecture_code": 1,
    "city": "岩見沢市",
    "city_kana": "イワミザワシ",
    "town": "栗沢町南本町",
    "town_kana": "クリサワチョウミナミホンチョウ",
    "street": null,
    "office_name": null,
    "office_name_kana": null
  },
  "0126": {
    "postcode": "0680126",
    "prefecture": "北海道",
    "prefecture_kana": "ホッカイドウ",
    "prefecture_code": 1,
    "city": "岩見沢市",
    "city_kana": "イワミザワシ",
    "town": "栗沢町西本町",
    "town_kana": "クリサワチョウニシホンチョウ",
    "street": null,
    "office_name": null,
    "office_name_kana": null
  },
  "0127": {
    "postcode": "0680127",
    "prefecture": "北海道",
    "prefecture_kana": "ホッカイドウ",
    "prefecture_code": 1,
    "city": "岩見沢市",
    "city_kana": "イワミザワシ",
    "town": "栗沢町本町",
    "town_kana": "クリサワチョウホンチョウ",
    "street": null,
    "office_name": null,
    "office_name_kana": null
  },
  "0131": {
    "postcode": "0680131",
    "prefecture": "北海道",
    "prefecture_kana": "ホッカイドウ",
    "prefecture_code": 1,
    "city": "岩見沢市",
    "city_kana": "イワミザワシ",
    "town": "栗沢町小西",
    "town_kana": "クリサワチョウコニシ",
    "street": null,
    "office_name": null,
    "office_name_kana": null
  },
  "0132": {
    "postcode": "0680132",
    "prefecture": "北海道",
    "prefecture_kana": "ホッカイドウ",
    "prefecture_code": 1,
    "city": "岩見沢市",
    "city_kana": "イワミザワシ",
    "town": "栗沢町南幸穂",
    "town_kana": "クリサワチョウミナミサチホ",
    "street": null,
    "office_name": null,
    "office_name_kana": null
  },
  "0133": {
    "postcode": "0680133",
    "prefecture": "北海道",
    "prefecture_kana": "ホッカイドウ",
    "prefecture_code": 1,
    "city": "岩見沢市",
    "city_kana": "イワミザワシ",
    "town": "栗沢町加茂川",
    "town_kana": "クリサワチョウカモガワ",
    "street": null,
    "office_name": null,
    "office_name_kana": null
  },
  "0134": {
    "postcode": "0680134",
    "prefecture": "北海道",
    "prefecture_kana": "ホッカイドウ",
    "prefecture_code": 1,
    "city": "岩見沢市",
    "city_kana": "イワミザワシ",
    "town": "栗沢町栗丘",
    "town_kana": "クリサワチョウクリオカ",
    "street": null,
    "office_name": null,
    "office_name_kana": null
  },
  "0135": {
    "postcode": "0680135",
    "prefecture": "北海道",
    "prefecture_kana": "ホッカイドウ",
    "prefecture_code": 1,
    "city": "岩見沢市",
    "city_kana": "イワミザワシ",
    "town": "栗沢町岐阜",
    "town_kana": "クリサワチョウギフ",
    "street": null,
    "office_name": null,
    "office_name_kana": null
  },
  "0136": {
    "postcode": "0680136",
    "prefecture": "北海道",
    "prefecture_kana": "ホッカイドウ",
    "prefecture_code": 1,
    "city": "岩見沢市",
    "city_kana": "イワミザワシ",
    "town": "栗沢町必成",
    "town_kana": "クリサワチョウヒッセイ",
    "street": null,
    "office_name": null,
    "office_name_kana": null
  },
  "0194": {
    "postcode": "0680194",
    "prefecture": "北海道",
    "prefecture_kana": "ホッカイドウ",
    "prefecture_code": 1,
    "city": "岩見沢市",
    "city_kana": "イワミザワシ",
    "town": "栗沢町東本町",
    "town_kana": "クリサワチョウヒガシホンチョウ",
    "street": "２１番地",
    "office_name": "岩見市役所　栗沢支所",
    "office_name_kana": "イワミザワシヤクシヨ クリサワシシヨ"
  },
  "0351": {
    "postcode": "0680351",
    "prefecture": "北海道",
    "prefecture_kana": "ホッカイドウ",
    "prefecture_code": 1,
    "city": "夕張郡栗山町",
    "city_kana": "ユウバリグンクリヤマチョウ",
    "town": "阿野呂",
    "town_kana": "アノロ",
    "street": null,
    "office_name": null,
    "office_name_kana": null
  },
  "0352": {
    "postcode": "0680352",
    "prefecture": "北海道",
    "prefecture_kana": "ホッカイドウ",
    "prefecture_code": 1,
    "city": "夕張郡栗山町",
    "city_kana": "ユウバリグンクリヤマチョウ",
    "town": "大井分",
    "town_kana": "オオイワケ",
    "street": null,
    "office_name": null,
    "office_name_kana": null
  },
  "0353": {
    "postcode": "0680353",
    "prefecture": "北海道",
    "prefecture_kana": "ホッカイドウ",
    "prefecture_code": 1,
    "city": "夕張郡栗山町",
    "city_kana": "ユウバリグンクリヤマチョウ",
    "town": "継立",
    "town_kana": "ツギタテ",
    "street": null,
    "office_name": null,
    "office_name_kana": null
  },
  "0354": {
    "postcode": "0680354",
    "prefecture": "北海道",
    "prefecture_kana": "ホッカイドウ",
    "prefecture_code": 1,
    "city": "夕張郡栗山町",
    "city_kana": "ユウバリグンクリヤマチョウ",
    "town": "日出",
    "town_kana": "ヒノデ",
    "street": null,
    "office_name": null,
    "office_name_kana": null
  },
  "0355": {
    "postcode": "0680355",
    "prefecture": "北海道",
    "prefecture_kana": "ホッカイドウ",
    "prefecture_code": 1,
    "city": "夕張郡栗山町",
    "city_kana": "ユウバリグンクリヤマチョウ",
    "town": "御園",
    "town_kana": "ミソノ",
    "street": null,
    "office_name": null,
    "office_name_kana": null
  },
  "0356": {
    "postcode": "0680356",
    "prefecture": "北海道",
    "prefecture_kana": "ホッカイドウ",
    "prefecture_code": 1,
    "city": "夕張郡栗山町",
    "city_kana": "ユウバリグンクリヤマチョウ",
    "town": "南角田",
    "town_kana": "ミナミカクタ",
    "street": null,
    "office_name": null,
    "office_name_kana": null
  },
  "0357": {
    "postcode": "0680357",
    "prefecture": "北海道",
    "prefecture_kana": "ホッカイドウ",
    "prefecture_code": 1,
    "city": "夕張郡栗山町",
    "city_kana": "ユウバリグンクリヤマチョウ",
    "town": "南学田",
    "town_kana": "ミナミガクデン",
    "street": null,
    "office_name": null,
    "office_name_kana": null
  },
  "0358": {
    "postcode": "0680358",
    "prefecture": "北海道",
    "prefecture_kana": "ホッカイドウ",
    "prefecture_code": 1,
    "city": "夕張郡栗山町",
    "city_kana": "ユウバリグンクリヤマチョウ",
    "town": "桜山",
    "town_kana": "サクラヤマ",
    "street": null,
    "office_name": null,
    "office_name_kana": null
  },
  "0361": {
    "postcode": "0680361",
    "prefecture": "北海道",
    "prefecture_kana": "ホッカイドウ",
    "prefecture_code": 1,
    "city": "夕張郡栗山町",
    "city_kana": "ユウバリグンクリヤマチョウ",
    "town": "滝下",
    "town_kana": "タキシタ",
    "street": null,
    "office_name": null,
    "office_name_kana": null
  },
  "0362": {
    "postcode": "0680362",
    "prefecture": "北海道",
    "prefecture_kana": "ホッカイドウ",
    "prefecture_code": 1,
    "city": "夕張郡栗山町",
    "city_kana": "ユウバリグンクリヤマチョウ",
    "town": "円山",
    "town_kana": "マルヤマ",
    "street": null,
    "office_name": null,
    "office_name_kana": null
  },
  "0363": {
    "postcode": "0680363",
    "prefecture": "北海道",
    "prefecture_kana": "ホッカイドウ",
    "prefecture_code": 1,
    "city": "夕張郡栗山町",
    "city_kana": "ユウバリグンクリヤマチョウ",
    "town": "円山東山",
    "town_kana": "マルヤマヒガシヤマ",
    "street": null,
    "office_name": null,
    "office_name_kana": null
  },
  "0400": {
    "postcode": "0680400",
    "prefecture": "北海道",
    "prefecture_kana": "ホッカイドウ",
    "prefecture_code": 1,
    "city": "夕張市",
    "city_kana": "ユウバリシ",
    "town": "",
    "town_kana": "",
    "street": null,
    "office_name": null,
    "office_name_kana": null
  },
  "0401": {
    "postcode": "0680401",
    "prefecture": "北海道",
    "prefecture_kana": "ホッカイドウ",
    "prefecture_code": 1,
    "city": "夕張市",
    "city_kana": "ユウバリシ",
    "town": "高松",
    "town_kana": "タカマツ",
    "street": null,
    "office_name": null,
    "office_name_kana": null
  },
  "0402": {
    "postcode": "0680402",
    "prefecture": "北海道",
    "prefecture_kana": "ホッカイドウ",
    "prefecture_code": 1,
    "city": "夕張市",
    "city_kana": "ユウバリシ",
    "town": "社光",
    "town_kana": "シャコウ",
    "street": null,
    "office_name": null,
    "office_name_kana": null
  },
  "0403": {
    "postcode": "0680403",
    "prefecture": "北海道",
    "prefecture_kana": "ホッカイドウ",
    "prefecture_code": 1,
    "city": "夕張市",
    "city_kana": "ユウバリシ",
    "town": "本町",
    "town_kana": "ホンチョウ",
    "street": null,
    "office_name": null,
    "office_name_kana": null
  },
  "0404": {
    "postcode": "0680404",
    "prefecture": "北海道",
    "prefecture_kana": "ホッカイドウ",
    "prefecture_code": 1,
    "city": "夕張市",
    "city_kana": "ユウバリシ",
    "town": "昭和",
    "town_kana": "ショウワ",
    "street": null,
    "office_name": null,
    "office_name_kana": null
  },
  "0405": {
    "postcode": "0680405",
    "prefecture": "北海道",
    "prefecture_kana": "ホッカイドウ",
    "prefecture_code": 1,
    "city": "夕張市",
    "city_kana": "ユウバリシ",
    "town": "旭町",
    "town_kana": "アサヒマチ",
    "street": null,
    "office_name": null,
    "office_name_kana": null
  },
  "0406": {
    "postcode": "0680406",
    "prefecture": "北海道",
    "prefecture_kana": "ホッカイドウ",
    "prefecture_code": 1,
    "city": "夕張市",
    "city_kana": "ユウバリシ",
    "town": "住初",
    "town_kana": "スミゾメ",
    "street": null,
    "office_name": null,
    "office_name_kana": null
  },
  "0407": {
    "postcode": "0680407",
    "prefecture": "北海道",
    "prefecture_kana": "ホッカイドウ",
    "prefecture_code": 1,
    "city": "夕張市",
    "city_kana": "ユウバリシ",
    "town": "福住",
    "town_kana": "フクズミ",
    "street": null,
    "office_name": null,
    "office_name_kana": null
  },
  "0408": {
    "postcode": "0680408",
    "prefecture": "北海道",
    "prefecture_kana": "ホッカイドウ",
    "prefecture_code": 1,
    "city": "夕張市",
    "city_kana": "ユウバリシ",
    "town": "富岡",
    "town_kana": "トミオカ",
    "street": null,
    "office_name": null,
    "office_name_kana": null
  },
  "0409": {
    "postcode": "0680409",
    "prefecture": "北海道",
    "prefecture_kana": "ホッカイドウ",
    "prefecture_code": 1,
    "city": "夕張市",
    "city_kana": "ユウバリシ",
    "town": "丁未",
    "town_kana": "テイミ",
    "street": null,
    "office_name": null,
    "office_name_kana": null
  },
  "0411": {
    "postcode": "0680411",
    "prefecture": "北海道",
    "prefecture_kana": "ホッカイドウ",
    "prefecture_code": 1,
    "city": "夕張市",
    "city_kana": "ユウバリシ",
    "town": "末広",
    "town_kana": "スエヒロ",
    "street": null,
    "office_name": null,
    "office_name_kana": null
  },
  "0412": {
    "postcode": "0680412",
    "prefecture": "北海道",
    "prefecture_kana": "ホッカイドウ",
    "prefecture_code": 1,
    "city": "夕張市",
    "city_kana": "ユウバリシ",
    "town": "鹿の谷東丘町",
    "town_kana": "シカノタニヒガシオカチョウ",
    "street": null,
    "office_name": null,
    "office_name_kana": null
  },
  "0413": {
    "postcode": "0680413",
    "prefecture": "北海道",
    "prefecture_kana": "ホッカイドウ",
    "prefecture_code": 1,
    "city": "夕張市",
    "city_kana": "ユウバリシ",
    "town": "鹿の谷",
    "town_kana": "シカノタニ",
    "street": null,
    "office_name": null,
    "office_name_kana": null
  },
  "0414": {
    "postcode": "0680414",
    "prefecture": "北海道",
    "prefecture_kana": "ホッカイドウ",
    "prefecture_code": 1,
    "city": "夕張市",
    "city_kana": "ユウバリシ",
    "town": "鹿の谷山手町",
    "town_kana": "シカノタニヤマテチョウ",
    "street": null,
    "office_name": null,
    "office_name_kana": null
  },
  "0421": {
    "postcode": "0680421",
    "prefecture": "北海道",
    "prefecture_kana": "ホッカイドウ",
    "prefecture_code": 1,
    "city": "夕張市",
    "city_kana": "ユウバリシ",
    "town": "常盤",
    "town_kana": "トキワ",
    "street": null,
    "office_name": null,
    "office_name_kana": null
  },
  "0422": {
    "postcode": "0680422",
    "prefecture": "北海道",
    "prefecture_kana": "ホッカイドウ",
    "prefecture_code": 1,
    "city": "夕張市",
    "city_kana": "ユウバリシ",
    "town": "日吉",
    "town_kana": "ヒヨシ",
    "street": null,
    "office_name": null,
    "office_name_kana": null
  },
  "0423": {
    "postcode": "0680423",
    "prefecture": "北海道",
    "prefecture_kana": "ホッカイドウ",
    "prefecture_code": 1,
    "city": "夕張市",
    "city_kana": "ユウバリシ",
    "town": "平和",
    "town_kana": "ヘイワ",
    "street": null,
    "office_name": null,
    "office_name_kana": null
  },
  "0424": {
    "postcode": "0680424",
    "prefecture": "北海道",
    "prefecture_kana": "ホッカイドウ",
    "prefecture_code": 1,
    "city": "夕張市",
    "city_kana": "ユウバリシ",
    "town": "千代田",
    "town_kana": "チヨダ",
    "street": null,
    "office_name": null,
    "office_name_kana": null
  },
  "0425": {
    "postcode": "0680425",
    "prefecture": "北海道",
    "prefecture_kana": "ホッカイドウ",
    "prefecture_code": 1,
    "city": "夕張市",
    "city_kana": "ユウバリシ",
    "town": "若菜",
    "town_kana": "ワカナ",
    "street": null,
    "office_name": null,
    "office_name_kana": null
  },
  "0426": {
    "postcode": "0680426",
    "prefecture": "北海道",
    "prefecture_kana": "ホッカイドウ",
    "prefecture_code": 1,
    "city": "夕張市",
    "city_kana": "ユウバリシ",
    "town": "富野",
    "town_kana": "トミノ",
    "street": null,
    "office_name": null,
    "office_name_kana": null
  },
  "0492": {
    "postcode": "0680492",
    "prefecture": "北海道",
    "prefecture_kana": "ホッカイドウ",
    "prefecture_code": 1,
    "city": "夕張市",
    "city_kana": "ユウバリシ",
    "town": "本町",
    "town_kana": "ホンチョウ",
    "street": "４丁目２番地（夕張郵便局私書箱第３号）",
    "office_name": "夕張市役所",
    "office_name_kana": "ユウバリシヤクシヨ"
  },
  "0531": {
    "postcode": "0680531",
    "prefecture": "北海道",
    "prefecture_kana": "ホッカイドウ",
    "prefecture_code": 1,
    "city": "夕張市",
    "city_kana": "ユウバリシ",
    "town": "清水沢",
    "town_kana": "シミズサワ",
    "street": null,
    "office_name": null,
    "office_name_kana": null
  },
  "0532": {
    "postcode": "0680532",
    "prefecture": "北海道",
    "prefecture_kana": "ホッカイドウ",
    "prefecture_code": 1,
    "city": "夕張市",
    "city_kana": "ユウバリシ",
    "town": "清水沢清栄町",
    "town_kana": "シミズサワセイエイチョウ",
    "street": null,
    "office_name": null,
    "office_name_kana": null
  },
  "0533": {
    "postcode": "0680533",
    "prefecture": "北海道",
    "prefecture_kana": "ホッカイドウ",
    "prefecture_code": 1,
    "city": "夕張市",
    "city_kana": "ユウバリシ",
    "town": "清水沢清湖町",
    "town_kana": "シミズサワセイコチョウ",
    "street": null,
    "office_name": null,
    "office_name_kana": null
  },
  "0534": {
    "postcode": "0680534",
    "prefecture": "北海道",
    "prefecture_kana": "ホッカイドウ",
    "prefecture_code": 1,
    "city": "夕張市",
    "city_kana": "ユウバリシ",
    "town": "清水沢宮前町",
    "town_kana": "シミズサワミヤマエチョウ",
    "street": null,
    "office_name": null,
    "office_name_kana": null
  },
  "0535": {
    "postcode": "0680535",
    "prefecture": "北海道",
    "prefecture_kana": "ホッカイドウ",
    "prefecture_code": 1,
    "city": "夕張市",
    "city_kana": "ユウバリシ",
    "town": "清水沢清陵町",
    "town_kana": "シミズサワセイリョウチョウ",
    "street": null,
    "office_name": null,
    "office_name_kana": null
  },
  "0536": {
    "postcode": "0680536",
    "prefecture": "北海道",
    "prefecture_kana": "ホッカイドウ",
    "prefecture_code": 1,
    "city": "夕張市",
    "city_kana": "ユウバリシ",
    "town": "南清水沢",
    "town_kana": "ミナミシミズサワ",
    "street": null,
    "office_name": null,
    "office_name_kana": null
  },
  "0540": {
    "postcode": "0680540",
    "prefecture": "北海道",
    "prefecture_kana": "ホッカイドウ",
    "prefecture_code": 1,
    "city": "夕張市",
    "city_kana": "ユウバリシ",
    "town": "南部住の江町",
    "town_kana": "ナンブスミノエチョウ",
    "street": null,
    "office_name": null,
    "office_name_kana": null
  },
  "0541": {
    "postcode": "0680541",
    "prefecture": "北海道",
    "prefecture_kana": "ホッカイドウ",
    "prefecture_code": 1,
    "city": "夕張市",
    "city_kana": "ユウバリシ",
    "town": "南部遠幌町",
    "town_kana": "ナンブエンホロチョウ",
    "street": null,
    "office_name": null,
    "office_name_kana": null
  },
  "0542": {
    "postcode": "0680542",
    "prefecture": "北海道",
    "prefecture_kana": "ホッカイドウ",
    "prefecture_code": 1,
    "city": "夕張市",
    "city_kana": "ユウバリシ",
    "town": "南部夕南町",
    "town_kana": "ナンブユウナンチョウ",
    "street": null,
    "office_name": null,
    "office_name_kana": null
  },
  "0543": {
    "postcode": "0680543",
    "prefecture": "北海道",
    "prefecture_kana": "ホッカイドウ",
    "prefecture_code": 1,
    "city": "夕張市",
    "city_kana": "ユウバリシ",
    "town": "南部若美町",
    "town_kana": "ナンブワカミチョウ",
    "street": null,
    "office_name": null,
    "office_name_kana": null
  },
  "0544": {
    "postcode": "0680544",
    "prefecture": "北海道",
    "prefecture_kana": "ホッカイドウ",
    "prefecture_code": 1,
    "city": "夕張市",
    "city_kana": "ユウバリシ",
    "town": "南部大宮町",
    "town_kana": "ナンブオオミヤチョウ",
    "street": null,
    "office_name": null,
    "office_name_kana": null
  },
  "0545": {
    "postcode": "0680545",
    "prefecture": "北海道",
    "prefecture_kana": "ホッカイドウ",
    "prefecture_code": 1,
    "city": "夕張市",
    "city_kana": "ユウバリシ",
    "town": "南部東町",
    "town_kana": "ナンブアズマチョウ",
    "street": null,
    "office_name": null,
    "office_name_kana": null
  },
  "0546": [
    {
      "postcode": "0680546",
      "prefecture": "北海道",
      "prefecture_kana": "ホッカイドウ",
      "prefecture_code": 1,
      "city": "夕張市",
      "city_kana": "ユウバリシ",
      "town": "南部青葉町",
      "town_kana": "ナンブアオバチョウ",
      "street": null,
      "office_name": null,
      "office_name_kana": null
    },
    {
      "postcode": "0680546",
      "prefecture": "北海道",
      "prefecture_kana": "ホッカイドウ",
      "prefecture_code": 1,
      "city": "夕張市",
      "city_kana": "ユウバリシ",
      "town": "南部菊水町",
      "town_kana": "ナンブキクスイチョウ",
      "street": null,
      "office_name": null,
      "office_name_kana": null
    }
  ],
  "0547": {
    "postcode": "0680547",
    "prefecture": "北海道",
    "prefecture_kana": "ホッカイドウ",
    "prefecture_code": 1,
    "city": "夕張市",
    "city_kana": "ユウバリシ",
    "town": "南部新光町",
    "town_kana": "ナンブシンコウチョウ",
    "street": null,
    "office_name": null,
    "office_name_kana": null
  },
  "0548": {
    "postcode": "0680548",
    "prefecture": "北海道",
    "prefecture_kana": "ホッカイドウ",
    "prefecture_code": 1,
    "city": "夕張市",
    "city_kana": "ユウバリシ",
    "town": "南部幌南町",
    "town_kana": "ナンブコウナンチョウ",
    "street": null,
    "office_name": null,
    "office_name_kana": null
  },
  "0549": {
    "postcode": "0680549",
    "prefecture": "北海道",
    "prefecture_kana": "ホッカイドウ",
    "prefecture_code": 1,
    "city": "夕張市",
    "city_kana": "ユウバリシ",
    "town": "南部岳見町",
    "town_kana": "ナンブタケミチョウ",
    "street": null,
    "office_name": null,
    "office_name_kana": null
  },
  "0661": {
    "postcode": "0680661",
    "prefecture": "北海道",
    "prefecture_kana": "ホッカイドウ",
    "prefecture_code": 1,
    "city": "夕張市",
    "city_kana": "ユウバリシ",
    "town": "鹿島白金",
    "town_kana": "カシマシロガネ",
    "street": null,
    "office_name": null,
    "office_name_kana": null
  },
  "0662": {
    "postcode": "0680662",
    "prefecture": "北海道",
    "prefecture_kana": "ホッカイドウ",
    "prefecture_code": 1,
    "city": "夕張市",
    "city_kana": "ユウバリシ",
    "town": "鹿島明石町",
    "town_kana": "カシマアカシチョウ",
    "street": null,
    "office_name": null,
    "office_name_kana": null
  },
  "0663": {
    "postcode": "0680663",
    "prefecture": "北海道",
    "prefecture_kana": "ホッカイドウ",
    "prefecture_code": 1,
    "city": "夕張市",
    "city_kana": "ユウバリシ",
    "town": "鹿島千年町",
    "town_kana": "カシマチトセチョウ",
    "street": null,
    "office_name": null,
    "office_name_kana": null
  },
  "0664": {
    "postcode": "0680664",
    "prefecture": "北海道",
    "prefecture_kana": "ホッカイドウ",
    "prefecture_code": 1,
    "city": "夕張市",
    "city_kana": "ユウバリシ",
    "town": "鹿島錦町",
    "town_kana": "カシマニシキチョウ",
    "street": null,
    "office_name": null,
    "office_name_kana": null
  },
  "0665": {
    "postcode": "0680665",
    "prefecture": "北海道",
    "prefecture_kana": "ホッカイドウ",
    "prefecture_code": 1,
    "city": "夕張市",
    "city_kana": "ユウバリシ",
    "town": "鹿島宝町",
    "town_kana": "カシマタカラチョウ",
    "street": null,
    "office_name": null,
    "office_name_kana": null
  },
  "0671": {
    "postcode": "0680671",
    "prefecture": "北海道",
    "prefecture_kana": "ホッカイドウ",
    "prefecture_code": 1,
    "city": "夕張市",
    "city_kana": "ユウバリシ",
    "town": "鹿島緑町",
    "town_kana": "カシマミドリチョウ",
    "street": null,
    "office_name": null,
    "office_name_kana": null
  },
  "0672": {
    "postcode": "0680672",
    "prefecture": "北海道",
    "prefecture_kana": "ホッカイドウ",
    "prefecture_code": 1,
    "city": "夕張市",
    "city_kana": "ユウバリシ",
    "town": "鹿島富士見町",
    "town_kana": "カシマフジミチョウ",
    "street": null,
    "office_name": null,
    "office_name_kana": null
  },
  "0673": {
    "postcode": "0680673",
    "prefecture": "北海道",
    "prefecture_kana": "ホッカイドウ",
    "prefecture_code": 1,
    "city": "夕張市",
    "city_kana": "ユウバリシ",
    "town": "鹿島栄町",
    "town_kana": "カシマサカエチョウ",
    "street": null,
    "office_name": null,
    "office_name_kana": null
  },
  "0674": {
    "postcode": "0680674",
    "prefecture": "北海道",
    "prefecture_kana": "ホッカイドウ",
    "prefecture_code": 1,
    "city": "夕張市",
    "city_kana": "ユウバリシ",
    "town": "鹿島代々木町",
    "town_kana": "カシマヨヨギチョウ",
    "street": null,
    "office_name": null,
    "office_name_kana": null
  },
  "0675": {
    "postcode": "0680675",
    "prefecture": "北海道",
    "prefecture_kana": "ホッカイドウ",
    "prefecture_code": 1,
    "city": "夕張市",
    "city_kana": "ユウバリシ",
    "town": "鹿島北栄町",
    "town_kana": "カシマホクエイチョウ",
    "street": null,
    "office_name": null,
    "office_name_kana": null
  },
  "0751": {
    "postcode": "0680751",
    "prefecture": "北海道",
    "prefecture_kana": "ホッカイドウ",
    "prefecture_code": 1,
    "city": "夕張市",
    "city_kana": "ユウバリシ",
    "town": "沼ノ沢",
    "town_kana": "ヌマノサワ",
    "street": null,
    "office_name": null,
    "office_name_kana": null
  },
  "0752": {
    "postcode": "0680752",
    "prefecture": "北海道",
    "prefecture_kana": "ホッカイドウ",
    "prefecture_code": 1,
    "city": "夕張市",
    "city_kana": "ユウバリシ",
    "town": "真谷地",
    "town_kana": "マヤチ",
    "street": null,
    "office_name": null,
    "office_name_kana": null
  },
  "0753": {
    "postcode": "0680753",
    "prefecture": "北海道",
    "prefecture_kana": "ホッカイドウ",
    "prefecture_code": 1,
    "city": "夕張市",
    "city_kana": "ユウバリシ",
    "town": "登川",
    "town_kana": "ノボリカワ",
    "street": null,
    "office_name": null,
    "office_name_kana": null
  },
  "0754": {
    "postcode": "0680754",
    "prefecture": "北海道",
    "prefecture_kana": "ホッカイドウ",
    "prefecture_code": 1,
    "city": "夕張市",
    "city_kana": "ユウバリシ",
    "town": "楓",
    "town_kana": "カエデ",
    "street": null,
    "office_name": null,
    "office_name_kana": null
  },
  "0755": {
    "postcode": "0680755",
    "prefecture": "北海道",
    "prefecture_kana": "ホッカイドウ",
    "prefecture_code": 1,
    "city": "夕張市",
    "city_kana": "ユウバリシ",
    "town": "紅葉山",
    "town_kana": "モミジヤマ",
    "street": null,
    "office_name": null,
    "office_name_kana": null
  },
  "0756": {
    "postcode": "0680756",
    "prefecture": "北海道",
    "prefecture_kana": "ホッカイドウ",
    "prefecture_code": 1,
    "city": "夕張市",
    "city_kana": "ユウバリシ",
    "town": "滝ノ上",
    "town_kana": "タキノウエ",
    "street": null,
    "office_name": null,
    "office_name_kana": null
  },
  "0801": {
    "postcode": "0680801",
    "prefecture": "北海道",
    "prefecture_kana": "ホッカイドウ",
    "prefecture_code": 1,
    "city": "岩見沢市",
    "city_kana": "イワミザワシ",
    "town": "南町一条",
    "town_kana": "ミナミマチ1ジョウ",
    "street": null,
    "office_name": null,
    "office_name_kana": null
  },
  "0802": {
    "postcode": "0680802",
    "prefecture": "北海道",
    "prefecture_kana": "ホッカイドウ",
    "prefecture_code": 1,
    "city": "岩見沢市",
    "city_kana": "イワミザワシ",
    "town": "南町二条",
    "town_kana": "ミナミマチ2ジョウ",
    "street": null,
    "office_name": null,
    "office_name_kana": null
  },
  "0803": {
    "postcode": "0680803",
    "prefecture": "北海道",
    "prefecture_kana": "ホッカイドウ",
    "prefecture_code": 1,
    "city": "岩見沢市",
    "city_kana": "イワミザワシ",
    "town": "南町三条",
    "town_kana": "ミナミマチ3ジョウ",
    "street": null,
    "office_name": null,
    "office_name_kana": null
  },
  "0804": {
    "postcode": "0680804",
    "prefecture": "北海道",
    "prefecture_kana": "ホッカイドウ",
    "prefecture_code": 1,
    "city": "岩見沢市",
    "city_kana": "イワミザワシ",
    "town": "南町四条",
    "town_kana": "ミナミマチ4ジョウ",
    "street": null,
    "office_name": null,
    "office_name_kana": null
  },
  "0805": {
    "postcode": "0680805",
    "prefecture": "北海道",
    "prefecture_kana": "ホッカイドウ",
    "prefecture_code": 1,
    "city": "岩見沢市",
    "city_kana": "イワミザワシ",
    "town": "南町五条",
    "town_kana": "ミナミマチ5ジョウ",
    "street": null,
    "office_name": null,
    "office_name_kana": null
  },
  "0806": {
    "postcode": "0680806",
    "prefecture": "北海道",
    "prefecture_kana": "ホッカイドウ",
    "prefecture_code": 1,
    "city": "岩見沢市",
    "city_kana": "イワミザワシ",
    "town": "南町六条",
    "town_kana": "ミナミマチ6ジョウ",
    "street": null,
    "office_name": null,
    "office_name_kana": null
  },
  "0807": {
    "postcode": "0680807",
    "prefecture": "北海道",
    "prefecture_kana": "ホッカイドウ",
    "prefecture_code": 1,
    "city": "岩見沢市",
    "city_kana": "イワミザワシ",
    "town": "南町七条",
    "town_kana": "ミナミマチ7ジョウ",
    "street": null,
    "office_name": null,
    "office_name_kana": null
  },
  "0808": {
    "postcode": "0680808",
    "prefecture": "北海道",
    "prefecture_kana": "ホッカイドウ",
    "prefecture_code": 1,
    "city": "岩見沢市",
    "city_kana": "イワミザワシ",
    "town": "南町八条",
    "town_kana": "ミナミマチ8ジョウ",
    "street": null,
    "office_name": null,
    "office_name_kana": null
  },
  "0809": {
    "postcode": "0680809",
    "prefecture": "北海道",
    "prefecture_kana": "ホッカイドウ",
    "prefecture_code": 1,
    "city": "岩見沢市",
    "city_kana": "イワミザワシ",
    "town": "南町九条",
    "town_kana": "ミナミマチ9ジョウ",
    "street": null,
    "office_name": null,
    "office_name_kana": null
  },
  "0810": {
    "postcode": "0680810",
    "prefecture": "北海道",
    "prefecture_kana": "ホッカイドウ",
    "prefecture_code": 1,
    "city": "岩見沢市",
    "city_kana": "イワミザワシ",
    "town": "南町",
    "town_kana": "ミナミマチ",
    "street": null,
    "office_name": null,
    "office_name_kana": null
  },
  "0811": {
    "postcode": "0680811",
    "prefecture": "北海道",
    "prefecture_kana": "ホッカイドウ",
    "prefecture_code": 1,
    "city": "岩見沢市",
    "city_kana": "イワミザワシ",
    "town": "美園一条",
    "town_kana": "ミソノ1ジョウ",
    "street": null,
    "office_name": null,
    "office_name_kana": null
  },
  "0812": {
    "postcode": "0680812",
    "prefecture": "北海道",
    "prefecture_kana": "ホッカイドウ",
    "prefecture_code": 1,
    "city": "岩見沢市",
    "city_kana": "イワミザワシ",
    "town": "美園二条",
    "town_kana": "ミソノ2ジョウ",
    "street": null,
    "office_name": null,
    "office_name_kana": null
  },
  "0813": {
    "postcode": "0680813",
    "prefecture": "北海道",
    "prefecture_kana": "ホッカイドウ",
    "prefecture_code": 1,
    "city": "岩見沢市",
    "city_kana": "イワミザワシ",
    "town": "美園三条",
    "town_kana": "ミソノ3ジョウ",
    "street": null,
    "office_name": null,
    "office_name_kana": null
  },
  "0814": {
    "postcode": "0680814",
    "prefecture": "北海道",
    "prefecture_kana": "ホッカイドウ",
    "prefecture_code": 1,
    "city": "岩見沢市",
    "city_kana": "イワミザワシ",
    "town": "美園四条",
    "town_kana": "ミソノ4ジョウ",
    "street": null,
    "office_name": null,
    "office_name_kana": null
  },
  "0815": {
    "postcode": "0680815",
    "prefecture": "北海道",
    "prefecture_kana": "ホッカイドウ",
    "prefecture_code": 1,
    "city": "岩見沢市",
    "city_kana": "イワミザワシ",
    "town": "美園五条",
    "town_kana": "ミソノ5ジョウ",
    "street": null,
    "office_name": null,
    "office_name_kana": null
  },
  "0816": {
    "postcode": "0680816",
    "prefecture": "北海道",
    "prefecture_kana": "ホッカイドウ",
    "prefecture_code": 1,
    "city": "岩見沢市",
    "city_kana": "イワミザワシ",
    "town": "美園六条",
    "town_kana": "ミソノ6ジョウ",
    "street": null,
    "office_name": null,
    "office_name_kana": null
  },
  "0817": {
    "postcode": "0680817",
    "prefecture": "北海道",
    "prefecture_kana": "ホッカイドウ",
    "prefecture_code": 1,
    "city": "岩見沢市",
    "city_kana": "イワミザワシ",
    "town": "美園七条",
    "town_kana": "ミソノ7ジョウ",
    "street": null,
    "office_name": null,
    "office_name_kana": null
  },
  "0818": {
    "postcode": "0680818",
    "prefecture": "北海道",
    "prefecture_kana": "ホッカイドウ",
    "prefecture_code": 1,
    "city": "岩見沢市",
    "city_kana": "イワミザワシ",
    "town": "並木町",
    "town_kana": "ナミキチョウ",
    "street": null,
    "office_name": null,
    "office_name_kana": null
  },
  "0820": {
    "postcode": "0680820",
    "prefecture": "北海道",
    "prefecture_kana": "ホッカイドウ",
    "prefecture_code": 1,
    "city": "岩見沢市",
    "city_kana": "イワミザワシ",
    "town": "東山",
    "town_kana": "ヒガシヤマ",
    "street": null,
    "office_name": null,
    "office_name_kana": null
  },
  "0821": {
    "postcode": "0680821",
    "prefecture": "北海道",
    "prefecture_kana": "ホッカイドウ",
    "prefecture_code": 1,
    "city": "岩見沢市",
    "city_kana": "イワミザワシ",
    "town": "栄町",
    "town_kana": "サカエマチ",
    "street": null,
    "office_name": null,
    "office_name_kana": null
  },
  "0822": {
    "postcode": "0680822",
    "prefecture": "北海道",
    "prefecture_kana": "ホッカイドウ",
    "prefecture_code": 1,
    "city": "岩見沢市",
    "city_kana": "イワミザワシ",
    "town": "日の出台",
    "town_kana": "ヒノデダイ",
    "street": null,
    "office_name": null,
    "office_name_kana": null
  },
  "0823": {
    "postcode": "0680823",
    "prefecture": "北海道",
    "prefecture_kana": "ホッカイドウ",
    "prefecture_code": 1,
    "city": "岩見沢市",
    "city_kana": "イワミザワシ",
    "town": "日の出南",
    "town_kana": "ヒノデミナミ",
    "street": null,
    "office_name": null,
    "office_name_kana": null
  },
  "0824": {
    "postcode": "0680824",
    "prefecture": "北海道",
    "prefecture_kana": "ホッカイドウ",
    "prefecture_code": 1,
    "city": "岩見沢市",
    "city_kana": "イワミザワシ",
    "town": "日の出北",
    "town_kana": "ヒノデキタ",
    "street": null,
    "office_name": null,
    "office_name_kana": null
  },
  "0825": {
    "postcode": "0680825",
    "prefecture": "北海道",
    "prefecture_kana": "ホッカイドウ",
    "prefecture_code": 1,
    "city": "岩見沢市",
    "city_kana": "イワミザワシ",
    "town": "日の出町",
    "town_kana": "ヒノデチョウ",
    "street": null,
    "office_name": null,
    "office_name_kana": null
  },
  "0826": {
    "postcode": "0680826",
    "prefecture": "北海道",
    "prefecture_kana": "ホッカイドウ",
    "prefecture_code": 1,
    "city": "岩見沢市",
    "city_kana": "イワミザワシ",
    "town": "東山町",
    "town_kana": "ヒガシヤマチョウ",
    "street": null,
    "office_name": null,
    "office_name_kana": null
  },
  "0827": {
    "postcode": "0680827",
    "prefecture": "北海道",
    "prefecture_kana": "ホッカイドウ",
    "prefecture_code": 1,
    "city": "岩見沢市",
    "city_kana": "イワミザワシ",
    "town": "春日町",
    "town_kana": "カスガチョウ",
    "street": null,
    "office_name": null,
    "office_name_kana": null
  },
  "0828": {
    "postcode": "0680828",
    "prefecture": "北海道",
    "prefecture_kana": "ホッカイドウ",
    "prefecture_code": 1,
    "city": "岩見沢市",
    "city_kana": "イワミザワシ",
    "town": "鳩が丘",
    "town_kana": "ハトガオカ",
    "street": null,
    "office_name": null,
    "office_name_kana": null
  },
  "0829": {
    "postcode": "0680829",
    "prefecture": "北海道",
    "prefecture_kana": "ホッカイドウ",
    "prefecture_code": 1,
    "city": "岩見沢市",
    "city_kana": "イワミザワシ",
    "town": "かえで町",
    "town_kana": "カエデチョウ",
    "street": null,
    "office_name": null,
    "office_name_kana": null
  },
  "0830": {
    "postcode": "0680830",
    "prefecture": "北海道",
    "prefecture_kana": "ホッカイドウ",
    "prefecture_code": 1,
    "city": "岩見沢市",
    "city_kana": "イワミザワシ",
    "town": "若駒",
    "town_kana": "ワカコマ",
    "street": null,
    "office_name": null,
    "office_name_kana": null
  },
  "0831": {
    "postcode": "0680831",
    "prefecture": "北海道",
    "prefecture_kana": "ホッカイドウ",
    "prefecture_code": 1,
    "city": "岩見沢市",
    "city_kana": "イワミザワシ",
    "town": "ふじ町一条",
    "town_kana": "フジチョウ1ジョウ",
    "street": null,
    "office_name": null,
    "office_name_kana": null
  },
  "0832": {
    "postcode": "0680832",
    "prefecture": "北海道",
    "prefecture_kana": "ホッカイドウ",
    "prefecture_code": 1,
    "city": "岩見沢市",
    "city_kana": "イワミザワシ",
    "town": "ふじ町二条",
    "town_kana": "フジチョウ2ジョウ",
    "street": null,
    "office_name": null,
    "office_name_kana": null
  },
  "0833": {
    "postcode": "0680833",
    "prefecture": "北海道",
    "prefecture_kana": "ホッカイドウ",
    "prefecture_code": 1,
    "city": "岩見沢市",
    "city_kana": "イワミザワシ",
    "town": "志文町",
    "town_kana": "シブンチョウ",
    "street": null,
    "office_name": null,
    "office_name_kana": null
  },
  "0834": {
    "postcode": "0680834",
    "prefecture": "北海道",
    "prefecture_kana": "ホッカイドウ",
    "prefecture_code": 1,
    "city": "岩見沢市",
    "city_kana": "イワミザワシ",
    "town": "駒園",
    "town_kana": "コマゾノ",
    "street": null,
    "office_name": null,
    "office_name_kana": null
  },
  "0835": {
    "postcode": "0680835",
    "prefecture": "北海道",
    "prefecture_kana": "ホッカイドウ",
    "prefecture_code": 1,
    "city": "岩見沢市",
    "city_kana": "イワミザワシ",
    "town": "緑が丘",
    "town_kana": "ミドリガオカ",
    "street": null,
    "office_name": null,
    "office_name_kana": null
  },
  "0836": {
    "postcode": "0680836",
    "prefecture": "北海道",
    "prefecture_kana": "ホッカイドウ",
    "prefecture_code": 1,
    "city": "岩見沢市",
    "city_kana": "イワミザワシ",
    "town": "上志文町",
    "town_kana": "カミシブンチョウ",
    "street": null,
    "office_name": null,
    "office_name_kana": null
  },
  "0837": {
    "postcode": "0680837",
    "prefecture": "北海道",
    "prefecture_kana": "ホッカイドウ",
    "prefecture_code": 1,
    "city": "岩見沢市",
    "city_kana": "イワミザワシ",
    "town": "宝水町",
    "town_kana": "ホウスイチョウ",
    "street": null,
    "office_name": null,
    "office_name_kana": null
  },
  "0841": {
    "postcode": "0680841",
    "prefecture": "北海道",
    "prefecture_kana": "ホッカイドウ",
    "prefecture_code": 1,
    "city": "岩見沢市",
    "city_kana": "イワミザワシ",
    "town": "志文本町一条",
    "town_kana": "シブンホンチョウ1ジョウ",
    "street": null,
    "office_name": null,
    "office_name_kana": null
  },
  "0842": {
    "postcode": "0680842",
    "prefecture": "北海道",
    "prefecture_kana": "ホッカイドウ",
    "prefecture_code": 1,
    "city": "岩見沢市",
    "city_kana": "イワミザワシ",
    "town": "志文本町二条",
    "town_kana": "シブンホンチョウ2ジョウ",
    "street": null,
    "office_name": null,
    "office_name_kana": null
  },
  "0843": {
    "postcode": "0680843",
    "prefecture": "北海道",
    "prefecture_kana": "ホッカイドウ",
    "prefecture_code": 1,
    "city": "岩見沢市",
    "city_kana": "イワミザワシ",
    "town": "志文本町三条",
    "town_kana": "シブンホンチョウ3ジョウ",
    "street": null,
    "office_name": null,
    "office_name_kana": null
  },
  "0844": {
    "postcode": "0680844",
    "prefecture": "北海道",
    "prefecture_kana": "ホッカイドウ",
    "prefecture_code": 1,
    "city": "岩見沢市",
    "city_kana": "イワミザワシ",
    "town": "志文本町四条",
    "town_kana": "シブンホンチョウ4ジョウ",
    "street": null,
    "office_name": null,
    "office_name_kana": null
  },
  "0845": {
    "postcode": "0680845",
    "prefecture": "北海道",
    "prefecture_kana": "ホッカイドウ",
    "prefecture_code": 1,
    "city": "岩見沢市",
    "city_kana": "イワミザワシ",
    "town": "志文本町五条",
    "town_kana": "シブンホンチョウ5ジョウ",
    "street": null,
    "office_name": null,
    "office_name_kana": null
  },
  "0846": {
    "postcode": "0680846",
    "prefecture": "北海道",
    "prefecture_kana": "ホッカイドウ",
    "prefecture_code": 1,
    "city": "岩見沢市",
    "city_kana": "イワミザワシ",
    "town": "下志文町",
    "town_kana": "シモシブンチョウ",
    "street": null,
    "office_name": null,
    "office_name_kana": null
  },
  "0847": {
    "postcode": "0680847",
    "prefecture": "北海道",
    "prefecture_kana": "ホッカイドウ",
    "prefecture_code": 1,
    "city": "岩見沢市",
    "city_kana": "イワミザワシ",
    "town": "金子町",
    "town_kana": "カネコチョウ",
    "street": null,
    "office_name": null,
    "office_name_kana": null
  },
  "0851": {
    "postcode": "0680851",
    "prefecture": "北海道",
    "prefecture_kana": "ホッカイドウ",
    "prefecture_code": 1,
    "city": "岩見沢市",
    "city_kana": "イワミザワシ",
    "town": "大和一条",
    "town_kana": "ヤマト1ジョウ",
    "street": null,
    "office_name": null,
    "office_name_kana": null
  },
  "0852": {
    "postcode": "0680852",
    "prefecture": "北海道",
    "prefecture_kana": "ホッカイドウ",
    "prefecture_code": 1,
    "city": "岩見沢市",
    "city_kana": "イワミザワシ",
    "town": "大和二条",
    "town_kana": "ヤマト2ジョウ",
    "street": null,
    "office_name": null,
    "office_name_kana": null
  },
  "0853": {
    "postcode": "0680853",
    "prefecture": "北海道",
    "prefecture_kana": "ホッカイドウ",
    "prefecture_code": 1,
    "city": "岩見沢市",
    "city_kana": "イワミザワシ",
    "town": "大和三条",
    "town_kana": "ヤマト3ジョウ",
    "street": null,
    "office_name": null,
    "office_name_kana": null
  },
  "0854": {
    "postcode": "0680854",
    "prefecture": "北海道",
    "prefecture_kana": "ホッカイドウ",
    "prefecture_code": 1,
    "city": "岩見沢市",
    "city_kana": "イワミザワシ",
    "town": "大和四条",
    "town_kana": "ヤマト4ジョウ",
    "street": null,
    "office_name": null,
    "office_name_kana": null
  },
  "0855": {
    "postcode": "0680855",
    "prefecture": "北海道",
    "prefecture_kana": "ホッカイドウ",
    "prefecture_code": 1,
    "city": "岩見沢市",
    "city_kana": "イワミザワシ",
    "town": "大和町",
    "town_kana": "ヤマトチョウ",
    "street": null,
    "office_name": null,
    "office_name_kana": null
  },
  "1100": {
    "postcode": "0681100",
    "prefecture": "北海道",
    "prefecture_kana": "ホッカイドウ",
    "prefecture_code": 1,
    "city": "石狩郡新篠津村",
    "city_kana": "イシカリグンシンシノツムラ",
    "town": "",
    "town_kana": "",
    "street": null,
    "office_name": null,
    "office_name_kana": null
  },
  "1101": {
    "postcode": "0681101",
    "prefecture": "北海道",
    "prefecture_kana": "ホッカイドウ",
    "prefecture_code": 1,
    "city": "石狩郡新篠津村",
    "city_kana": "イシカリグンシンシノツムラ",
    "town": "萌出",
    "town_kana": "モエデ",
    "street": null,
    "office_name": null,
    "office_name_kana": null
  },
  "1102": {
    "postcode": "0681102",
    "prefecture": "北海道",
    "prefecture_kana": "ホッカイドウ",
    "prefecture_code": 1,
    "city": "石狩郡新篠津村",
    "city_kana": "イシカリグンシンシノツムラ",
    "town": "いなほ",
    "town_kana": "イナホ",
    "street": null,
    "office_name": null,
    "office_name_kana": null
  },
  "1103": {
    "postcode": "0681103",
    "prefecture": "北海道",
    "prefecture_kana": "ホッカイドウ",
    "prefecture_code": 1,
    "city": "石狩郡新篠津村",
    "city_kana": "イシカリグンシンシノツムラ",
    "town": "西の里",
    "town_kana": "ニシノサト",
    "street": null,
    "office_name": null,
    "office_name_kana": null
  },
  "1104": {
    "postcode": "0681104",
    "prefecture": "北海道",
    "prefecture_kana": "ホッカイドウ",
    "prefecture_code": 1,
    "city": "石狩郡新篠津村",
    "city_kana": "イシカリグンシンシノツムラ",
    "town": "かつら",
    "town_kana": "カツラ",
    "street": null,
    "office_name": null,
    "office_name_kana": null
  },
  "1105": {
    "postcode": "0681105",
    "prefecture": "北海道",
    "prefecture_kana": "ホッカイドウ",
    "prefecture_code": 1,
    "city": "石狩郡新篠津村",
    "city_kana": "イシカリグンシンシノツムラ",
    "town": "みのり",
    "town_kana": "ミノリ",
    "street": null,
    "office_name": null,
    "office_name_kana": null
  },
  "1111": {
    "postcode": "0681111",
    "prefecture": "北海道",
    "prefecture_kana": "ホッカイドウ",
    "prefecture_code": 1,
    "city": "石狩郡新篠津村",
    "city_kana": "イシカリグンシンシノツムラ",
    "town": "東明",
    "town_kana": "トウメイ",
    "street": null,
    "office_name": null,
    "office_name_kana": null
  },
  "1112": {
    "postcode": "0681112",
    "prefecture": "北海道",
    "prefecture_kana": "ホッカイドウ",
    "prefecture_code": 1,
    "city": "石狩郡新篠津村",
    "city_kana": "イシカリグンシンシノツムラ",
    "town": "あけぼの",
    "town_kana": "アケボノ",
    "street": null,
    "office_name": null,
    "office_name_kana": null
  },
  "1113": {
    "postcode": "0681113",
    "prefecture": "北海道",
    "prefecture_kana": "ホッカイドウ",
    "prefecture_code": 1,
    "city": "石狩郡新篠津村",
    "city_kana": "イシカリグンシンシノツムラ",
    "town": "ふらわ",
    "town_kana": "フラワ",
    "street": null,
    "office_name": null,
    "office_name_kana": null
  },
  "1114": {
    "postcode": "0681114",
    "prefecture": "北海道",
    "prefecture_kana": "ホッカイドウ",
    "prefecture_code": 1,
    "city": "石狩郡新篠津村",
    "city_kana": "イシカリグンシンシノツムラ",
    "town": "南ケ丘",
    "town_kana": "ミナミガオカ",
    "street": null,
    "office_name": null,
    "office_name_kana": null
  },
  "1115": {
    "postcode": "0681115",
    "prefecture": "北海道",
    "prefecture_kana": "ホッカイドウ",
    "prefecture_code": 1,
    "city": "石狩郡新篠津村",
    "city_kana": "イシカリグンシンシノツムラ",
    "town": "みずほ",
    "town_kana": "ミズホ",
    "street": null,
    "office_name": null,
    "office_name_kana": null
  },
  "1116": {
    "postcode": "0681116",
    "prefecture": "北海道",
    "prefecture_kana": "ホッカイドウ",
    "prefecture_code": 1,
    "city": "石狩郡新篠津村",
    "city_kana": "イシカリグンシンシノツムラ",
    "town": "上達布",
    "town_kana": "カミタップ",
    "street": null,
    "office_name": null,
    "office_name_kana": null
  },
  "1121": {
    "postcode": "0681121",
    "prefecture": "北海道",
    "prefecture_kana": "ホッカイドウ",
    "prefecture_code": 1,
    "city": "石狩郡新篠津村",
    "city_kana": "イシカリグンシンシノツムラ",
    "town": "新湧",
    "town_kana": "シンユウ",
    "street": null,
    "office_name": null,
    "office_name_kana": null
  },
  "1122": {
    "postcode": "0681122",
    "prefecture": "北海道",
    "prefecture_kana": "ホッカイドウ",
    "prefecture_code": 1,
    "city": "石狩郡新篠津村",
    "city_kana": "イシカリグンシンシノツムラ",
    "town": "北新",
    "town_kana": "ホクシン",
    "street": null,
    "office_name": null,
    "office_name_kana": null
  },
  "1123": {
    "postcode": "0681123",
    "prefecture": "北海道",
    "prefecture_kana": "ホッカイドウ",
    "prefecture_code": 1,
    "city": "石狩郡新篠津村",
    "city_kana": "イシカリグンシンシノツムラ",
    "town": "川上",
    "town_kana": "カワカミ",
    "street": null,
    "office_name": null,
    "office_name_kana": null
  },
  "1124": {
    "postcode": "0681124",
    "prefecture": "北海道",
    "prefecture_kana": "ホッカイドウ",
    "prefecture_code": 1,
    "city": "石狩郡新篠津村",
    "city_kana": "イシカリグンシンシノツムラ",
    "town": "高倉",
    "town_kana": "タカクラ",
    "street": null,
    "office_name": null,
    "office_name_kana": null
  },
  "1125": {
    "postcode": "0681125",
    "prefecture": "北海道",
    "prefecture_kana": "ホッカイドウ",
    "prefecture_code": 1,
    "city": "石狩郡新篠津村",
    "city_kana": "イシカリグンシンシノツムラ",
    "town": "上篠津",
    "town_kana": "カミシノツ",
    "street": null,
    "office_name": null,
    "office_name_kana": null
  },
  "1126": {
    "postcode": "0681126",
    "prefecture": "北海道",
    "prefecture_kana": "ホッカイドウ",
    "prefecture_code": 1,
    "city": "石狩郡新篠津村",
    "city_kana": "イシカリグンシンシノツムラ",
    "town": "豊ケ丘",
    "town_kana": "トヨガオカ",
    "street": null,
    "office_name": null,
    "office_name_kana": null
  },
  "1127": {
    "postcode": "0681127",
    "prefecture": "北海道",
    "prefecture_kana": "ホッカイドウ",
    "prefecture_code": 1,
    "city": "石狩郡新篠津村",
    "city_kana": "イシカリグンシンシノツムラ",
    "town": "沼之端",
    "town_kana": "ヌマノハタ",
    "street": null,
    "office_name": null,
    "office_name_kana": null
  },
  "1131": {
    "postcode": "0681131",
    "prefecture": "北海道",
    "prefecture_kana": "ホッカイドウ",
    "prefecture_code": 1,
    "city": "石狩郡新篠津村",
    "city_kana": "イシカリグンシンシノツムラ",
    "town": "基線",
    "town_kana": "キセン",
    "street": null,
    "office_name": null,
    "office_name_kana": null
  },
  "1132": {
    "postcode": "0681132",
    "prefecture": "北海道",
    "prefecture_kana": "ホッカイドウ",
    "prefecture_code": 1,
    "city": "石狩郡新篠津村",
    "city_kana": "イシカリグンシンシノツムラ",
    "town": "豊野",
    "town_kana": "トヨノ",
    "street": null,
    "office_name": null,
    "office_name_kana": null
  },
  "1133": {
    "postcode": "0681133",
    "prefecture": "北海道",
    "prefecture_kana": "ホッカイドウ",
    "prefecture_code": 1,
    "city": "石狩郡新篠津村",
    "city_kana": "イシカリグンシンシノツムラ",
    "town": "平安",
    "town_kana": "ヘイアン",
    "street": null,
    "office_name": null,
    "office_name_kana": null
  },
  "1134": {
    "postcode": "0681134",
    "prefecture": "北海道",
    "prefecture_kana": "ホッカイドウ",
    "prefecture_code": 1,
    "city": "石狩郡新篠津村",
    "city_kana": "イシカリグンシンシノツムラ",
    "town": "宍粟",
    "town_kana": "シソウ",
    "street": null,
    "office_name": null,
    "office_name_kana": null
  },
  "1135": {
    "postcode": "0681135",
    "prefecture": "北海道",
    "prefecture_kana": "ホッカイドウ",
    "prefecture_code": 1,
    "city": "石狩郡新篠津村",
    "city_kana": "イシカリグンシンシノツムラ",
    "town": "袋達布",
    "town_kana": "フクロタップ",
    "street": null,
    "office_name": null,
    "office_name_kana": null
  },
  "1136": {
    "postcode": "0681136",
    "prefecture": "北海道",
    "prefecture_kana": "ホッカイドウ",
    "prefecture_code": 1,
    "city": "石狩郡新篠津村",
    "city_kana": "イシカリグンシンシノツムラ",
    "town": "下達布",
    "town_kana": "シモタップ",
    "street": null,
    "office_name": null,
    "office_name_kana": null
  },
  "1137": {
    "postcode": "0681137",
    "prefecture": "北海道",
    "prefecture_kana": "ホッカイドウ",
    "prefecture_code": 1,
    "city": "石狩郡新篠津村",
    "city_kana": "イシカリグンシンシノツムラ",
    "town": "中篠津",
    "town_kana": "ナカシノツ",
    "street": null,
    "office_name": null,
    "office_name_kana": null
  },
  "1138": {
    "postcode": "0681138",
    "prefecture": "北海道",
    "prefecture_kana": "ホッカイドウ",
    "prefecture_code": 1,
    "city": "石狩郡新篠津村",
    "city_kana": "イシカリグンシンシノツムラ",
    "town": "新西篠津",
    "town_kana": "シンニシシノツ",
    "street": null,
    "office_name": null,
    "office_name_kana": null
  },
  "1141": {
    "postcode": "0681141",
    "prefecture": "北海道",
    "prefecture_kana": "ホッカイドウ",
    "prefecture_code": 1,
    "city": "石狩郡新篠津村",
    "city_kana": "イシカリグンシンシノツムラ",
    "town": "西篠津",
    "town_kana": "ニシシノツ",
    "street": null,
    "office_name": null,
    "office_name_kana": null
  },
  "1142": {
    "postcode": "0681142",
    "prefecture": "北海道",
    "prefecture_kana": "ホッカイドウ",
    "prefecture_code": 1,
    "city": "石狩郡新篠津村",
    "city_kana": "イシカリグンシンシノツムラ",
    "town": "新樺",
    "town_kana": "シンカバ",
    "street": null,
    "office_name": null,
    "office_name_kana": null
  },
  "1143": {
    "postcode": "0681143",
    "prefecture": "北海道",
    "prefecture_kana": "ホッカイドウ",
    "prefecture_code": 1,
    "city": "石狩郡新篠津村",
    "city_kana": "イシカリグンシンシノツムラ",
    "town": "武田",
    "town_kana": "タケダ",
    "street": null,
    "office_name": null,
    "office_name_kana": null
  },
  "1144": {
    "postcode": "0681144",
    "prefecture": "北海道",
    "prefecture_kana": "ホッカイドウ",
    "prefecture_code": 1,
    "city": "石狩郡新篠津村",
    "city_kana": "イシカリグンシンシノツムラ",
    "town": "拓新",
    "town_kana": "タクシン",
    "street": null,
    "office_name": null,
    "office_name_kana": null
  },
  "1145": {
    "postcode": "0681145",
    "prefecture": "北海道",
    "prefecture_kana": "ホッカイドウ",
    "prefecture_code": 1,
    "city": "石狩郡新篠津村",
    "city_kana": "イシカリグンシンシノツムラ",
    "town": "西高倉",
    "town_kana": "ニシタカクラ",
    "street": null,
    "office_name": null,
    "office_name_kana": null
  },
  "1146": {
    "postcode": "0681146",
    "prefecture": "北海道",
    "prefecture_kana": "ホッカイドウ",
    "prefecture_code": 1,
    "city": "石狩郡新篠津村",
    "city_kana": "イシカリグンシンシノツムラ",
    "town": "新高倉",
    "town_kana": "シンタカクラ",
    "street": null,
    "office_name": null,
    "office_name_kana": null
  },
  "1151": {
    "postcode": "0681151",
    "prefecture": "北海道",
    "prefecture_kana": "ホッカイドウ",
    "prefecture_code": 1,
    "city": "石狩郡新篠津村",
    "city_kana": "イシカリグンシンシノツムラ",
    "town": "西原",
    "town_kana": "ニシハラ",
    "street": null,
    "office_name": null,
    "office_name_kana": null
  },
  "1152": {
    "postcode": "0681152",
    "prefecture": "北海道",
    "prefecture_kana": "ホッカイドウ",
    "prefecture_code": 1,
    "city": "石狩郡新篠津村",
    "city_kana": "イシカリグンシンシノツムラ",
    "town": "川下",
    "town_kana": "カワシモ",
    "street": null,
    "office_name": null,
    "office_name_kana": null
  },
  "1153": {
    "postcode": "0681153",
    "prefecture": "北海道",
    "prefecture_kana": "ホッカイドウ",
    "prefecture_code": 1,
    "city": "石狩郡新篠津村",
    "city_kana": "イシカリグンシンシノツムラ",
    "town": "中原",
    "town_kana": "ナカハラ",
    "street": null,
    "office_name": null,
    "office_name_kana": null
  },
  "1161": [
    {
      "postcode": "0681161",
      "prefecture": "北海道",
      "prefecture_kana": "ホッカイドウ",
      "prefecture_code": 1,
      "city": "岩見沢市",
      "city_kana": "イワミザワシ",
      "town": "北村北都",
      "town_kana": "キタムラホクト",
      "street": null,
      "office_name": null,
      "office_name_kana": null
    },
    {
      "postcode": "0681161",
      "prefecture": "北海道",
      "prefecture_kana": "ホッカイドウ",
      "prefecture_code": 1,
      "city": "岩見沢市",
      "city_kana": "イワミザワシ",
      "town": "北村北都新中島",
      "town_kana": "キタムラホクトシンナカジマ",
      "street": null,
      "office_name": null,
      "office_name_kana": null
    }
  ],
  "1192": {
    "postcode": "0681192",
    "prefecture": "北海道",
    "prefecture_kana": "ホッカイドウ",
    "prefecture_code": 1,
    "city": "石狩郡新篠津村",
    "city_kana": "イシカリグンシンシノツムラ",
    "town": "第４７線",
    "town_kana": null,
    "street": "北１３番地",
    "office_name": "新篠津村役場",
    "office_name_kana": "シンシノツムラヤクバ"
  },
  "1193": {
    "postcode": "0681193",
    "prefecture": "北海道",
    "prefecture_kana": "ホッカイドウ",
    "prefecture_code": 1,
    "city": "石狩郡新篠津村",
    "city_kana": "イシカリグンシンシノツムラ",
    "town": "第４７線",
    "town_kana": null,
    "street": "北１３番地",
    "office_name": "新篠津村農業協同組合",
    "office_name_kana": "シンシノツムラノウギヨウキヨウドウクミアイ"
  },
  "1194": {
    "postcode": "0681194",
    "prefecture": "北海道",
    "prefecture_kana": "ホッカイドウ",
    "prefecture_code": 1,
    "city": "石狩郡新篠津村",
    "city_kana": "イシカリグンシンシノツムラ",
    "town": "第４５線",
    "town_kana": null,
    "street": "北１３番地",
    "office_name": "北海道新篠津高等養護学校",
    "office_name_kana": "ホツカイドウシンシノツコウトウヨウゴガツコウ"
  },
  "1195": {
    "postcode": "0681195",
    "prefecture": "北海道",
    "prefecture_kana": "ホッカイドウ",
    "prefecture_code": 1,
    "city": "石狩郡新篠津村",
    "city_kana": "イシカリグンシンシノツムラ",
    "town": "",
    "town_kana": "",
    "street": "８９４番２",
    "office_name": "社会福祉法人　新篠津福祉会",
    "office_name_kana": "シヤカイフクシホウジン シンシノツフクシカイ"
  },
  "1201": {
    "postcode": "0681201",
    "prefecture": "北海道",
    "prefecture_kana": "ホッカイドウ",
    "prefecture_code": 1,
    "city": "岩見沢市",
    "city_kana": "イワミザワシ",
    "town": "北村豊正",
    "town_kana": "キタムラホウセイ",
    "street": null,
    "office_name": null,
    "office_name_kana": null
  },
  "1202": {
    "postcode": "0681202",
    "prefecture": "北海道",
    "prefecture_kana": "ホッカイドウ",
    "prefecture_code": 1,
    "city": "岩見沢市",
    "city_kana": "イワミザワシ",
    "town": "北村中小屋",
    "town_kana": "キタムラナカゴヤ",
    "street": null,
    "office_name": null,
    "office_name_kana": null
  },
  "1203": {
    "postcode": "0681203",
    "prefecture": "北海道",
    "prefecture_kana": "ホッカイドウ",
    "prefecture_code": 1,
    "city": "岩見沢市",
    "city_kana": "イワミザワシ",
    "town": "北村大願",
    "town_kana": "キタムラオオネガイ",
    "street": null,
    "office_name": null,
    "office_name_kana": null
  },
  "1204": {
    "postcode": "0681204",
    "prefecture": "北海道",
    "prefecture_kana": "ホッカイドウ",
    "prefecture_code": 1,
    "city": "岩見沢市",
    "city_kana": "イワミザワシ",
    "town": "北村栄町",
    "town_kana": "キタムラサカエマチ",
    "street": null,
    "office_name": null,
    "office_name_kana": null
  },
  "1205": {
    "postcode": "0681205",
    "prefecture": "北海道",
    "prefecture_kana": "ホッカイドウ",
    "prefecture_code": 1,
    "city": "岩見沢市",
    "city_kana": "イワミザワシ",
    "town": "北村豊里",
    "town_kana": "キタムラトヨサト",
    "street": null,
    "office_name": null,
    "office_name_kana": null
  },
  "1211": {
    "postcode": "0681211",
    "prefecture": "北海道",
    "prefecture_kana": "ホッカイドウ",
    "prefecture_code": 1,
    "city": "岩見沢市",
    "city_kana": "イワミザワシ",
    "town": "北村北都",
    "town_kana": "キタムラホクト",
    "street": null,
    "office_name": null,
    "office_name_kana": null
  },
  "1212": {
    "postcode": "0681212",
    "prefecture": "北海道",
    "prefecture_kana": "ホッカイドウ",
    "prefecture_code": 1,
    "city": "岩見沢市",
    "city_kana": "イワミザワシ",
    "town": "北村中央",
    "town_kana": "キタムラチュウオウ",
    "street": null,
    "office_name": null,
    "office_name_kana": null
  },
  "1213": {
    "postcode": "0681213",
    "prefecture": "北海道",
    "prefecture_kana": "ホッカイドウ",
    "prefecture_code": 1,
    "city": "岩見沢市",
    "city_kana": "イワミザワシ",
    "town": "北村赤川",
    "town_kana": "キタムラアカガワ",
    "street": null,
    "office_name": null,
    "office_name_kana": null
  },
  "1214": {
    "postcode": "0681214",
    "prefecture": "北海道",
    "prefecture_kana": "ホッカイドウ",
    "prefecture_code": 1,
    "city": "岩見沢市",
    "city_kana": "イワミザワシ",
    "town": "北村美唄達布",
    "town_kana": "キタムラビバイタップ",
    "street": null,
    "office_name": null,
    "office_name_kana": null
  },
  "1215": {
    "postcode": "0681215",
    "prefecture": "北海道",
    "prefecture_kana": "ホッカイドウ",
    "prefecture_code": 1,
    "city": "岩見沢市",
    "city_kana": "イワミザワシ",
    "town": "北村幌達布",
    "town_kana": "キタムラホロタップ",
    "street": null,
    "office_name": null,
    "office_name_kana": null
  },
  "1231": {
    "postcode": "0681231",
    "prefecture": "北海道",
    "prefecture_kana": "ホッカイドウ",
    "prefecture_code": 1,
    "city": "樺戸郡月形町",
    "city_kana": "カバトグンツキガタチョウ",
    "town": "雁里",
    "town_kana": "カリサト",
    "street": null,
    "office_name": null,
    "office_name_kana": null
  },
  "1292": {
    "postcode": "0681292",
    "prefecture": "北海道",
    "prefecture_kana": "ホッカイドウ",
    "prefecture_code": 1,
    "city": "岩見沢市",
    "city_kana": "イワミザワシ",
    "town": "北村赤川",
    "town_kana": "キタムラアカガワ",
    "street": "５９３番地１号",
    "office_name": "岩見沢市役所　北村支所",
    "office_name_kana": "イワミザワシヤクシヨ キタムラシシヨ"
  },
  "2100": {
    "postcode": "0682100",
    "prefecture": "北海道",
    "prefecture_kana": "ホッカイドウ",
    "prefecture_code": 1,
    "city": "三笠市",
    "city_kana": "ミカサシ",
    "town": "",
    "town_kana": "",
    "street": null,
    "office_name": null,
    "office_name_kana": null
  },
  "2101": {
    "postcode": "0682101",
    "prefecture": "北海道",
    "prefecture_kana": "ホッカイドウ",
    "prefecture_code": 1,
    "city": "三笠市",
    "city_kana": "ミカサシ",
    "town": "桂沢",
    "town_kana": "カツラザワ",
    "street": null,
    "office_name": null,
    "office_name_kana": null
  },
  "2102": {
    "postcode": "0682102",
    "prefecture": "北海道",
    "prefecture_kana": "ホッカイドウ",
    "prefecture_code": 1,
    "city": "三笠市",
    "city_kana": "ミカサシ",
    "town": "西桂沢",
    "town_kana": "ニシカツラザワ",
    "street": null,
    "office_name": null,
    "office_name_kana": null
  },
  "2103": {
    "postcode": "0682103",
    "prefecture": "北海道",
    "prefecture_kana": "ホッカイドウ",
    "prefecture_code": 1,
    "city": "三笠市",
    "city_kana": "ミカサシ",
    "town": "奔別新町",
    "town_kana": "ポンベツシンマチ",
    "street": null,
    "office_name": null,
    "office_name_kana": null
  },
  "2104": {
    "postcode": "0682104",
    "prefecture": "北海道",
    "prefecture_kana": "ホッカイドウ",
    "prefecture_code": 1,
    "city": "三笠市",
    "city_kana": "ミカサシ",
    "town": "東清住町",
    "town_kana": "ヒガシキヨズミチョウ",
    "street": null,
    "office_name": null,
    "office_name_kana": null
  },
  "2105": {
    "postcode": "0682105",
    "prefecture": "北海道",
    "prefecture_kana": "ホッカイドウ",
    "prefecture_code": 1,
    "city": "三笠市",
    "city_kana": "ミカサシ",
    "town": "清住町",
    "town_kana": "キヨズミチョウ",
    "street": null,
    "office_name": null,
    "office_name_kana": null
  },
  "2106": {
    "postcode": "0682106",
    "prefecture": "北海道",
    "prefecture_kana": "ホッカイドウ",
    "prefecture_code": 1,
    "city": "三笠市",
    "city_kana": "ミカサシ",
    "town": "美園町",
    "town_kana": "ミソノチョウ",
    "street": null,
    "office_name": null,
    "office_name_kana": null
  },
  "2107": {
    "postcode": "0682107",
    "prefecture": "北海道",
    "prefecture_kana": "ホッカイドウ",
    "prefecture_code": 1,
    "city": "三笠市",
    "city_kana": "ミカサシ",
    "town": "若草町",
    "town_kana": "ワカクサチョウ",
    "street": null,
    "office_name": null,
    "office_name_kana": null
  },
  "2108": {
    "postcode": "0682108",
    "prefecture": "北海道",
    "prefecture_kana": "ホッカイドウ",
    "prefecture_code": 1,
    "city": "三笠市",
    "city_kana": "ミカサシ",
    "town": "柏町",
    "town_kana": "カシワチョウ",
    "street": null,
    "office_name": null,
    "office_name_kana": null
  },
  "2111": {
    "postcode": "0682111",
    "prefecture": "北海道",
    "prefecture_kana": "ホッカイドウ",
    "prefecture_code": 1,
    "city": "三笠市",
    "city_kana": "ミカサシ",
    "town": "幾春別錦町",
    "town_kana": "イクシュンベツニシキチョウ",
    "street": null,
    "office_name": null,
    "office_name_kana": null
  },
  "2112": {
    "postcode": "0682112",
    "prefecture": "北海道",
    "prefecture_kana": "ホッカイドウ",
    "prefecture_code": 1,
    "city": "三笠市",
    "city_kana": "ミカサシ",
    "town": "幾春別川向町",
    "town_kana": "イクシュンベツカワムカイチョウ",
    "street": null,
    "office_name": null,
    "office_name_kana": null
  },
  "2113": {
    "postcode": "0682113",
    "prefecture": "北海道",
    "prefecture_kana": "ホッカイドウ",
    "prefecture_code": 1,
    "city": "三笠市",
    "city_kana": "ミカサシ",
    "town": "幾春別山手町",
    "town_kana": "イクシュンベツヤマテチョウ",
    "street": null,
    "office_name": null,
    "office_name_kana": null
  },
  "2114": {
    "postcode": "0682114",
    "prefecture": "北海道",
    "prefecture_kana": "ホッカイドウ",
    "prefecture_code": 1,
    "city": "三笠市",
    "city_kana": "ミカサシ",
    "town": "幾春別栗丘町",
    "town_kana": "イクシュンベツクリオカチョウ",
    "street": null,
    "office_name": null,
    "office_name_kana": null
  },
  "2115": {
    "postcode": "0682115",
    "prefecture": "北海道",
    "prefecture_kana": "ホッカイドウ",
    "prefecture_code": 1,
    "city": "三笠市",
    "city_kana": "ミカサシ",
    "town": "幾春別滝見町",
    "town_kana": "イクシュンベツタキミチョウ",
    "street": null,
    "office_name": null,
    "office_name_kana": null
  },
  "2116": {
    "postcode": "0682116",
    "prefecture": "北海道",
    "prefecture_kana": "ホッカイドウ",
    "prefecture_code": 1,
    "city": "三笠市",
    "city_kana": "ミカサシ",
    "town": "幾春別町",
    "town_kana": "イクシュンベツチョウ",
    "street": null,
    "office_name": null,
    "office_name_kana": null
  },
  "2117": {
    "postcode": "0682117",
    "prefecture": "北海道",
    "prefecture_kana": "ホッカイドウ",
    "prefecture_code": 1,
    "city": "三笠市",
    "city_kana": "ミカサシ",
    "town": "幾春別中島町",
    "town_kana": "イクシュンベツナカジマチョウ",
    "street": null,
    "office_name": null,
    "office_name_kana": null
  },
  "2118": {
    "postcode": "0682118",
    "prefecture": "北海道",
    "prefecture_kana": "ホッカイドウ",
    "prefecture_code": 1,
    "city": "三笠市",
    "city_kana": "ミカサシ",
    "town": "幾春別千住町",
    "town_kana": "イクシュンベツセンジュウチョウ",
    "street": null,
    "office_name": null,
    "office_name_kana": null
  },
  "2121": {
    "postcode": "0682121",
    "prefecture": "北海道",
    "prefecture_kana": "ホッカイドウ",
    "prefecture_code": 1,
    "city": "三笠市",
    "city_kana": "ミカサシ",
    "town": "弥生桜木町",
    "town_kana": "ヤヨイサクラギチョウ",
    "street": null,
    "office_name": null,
    "office_name_kana": null
  },
  "2122": {
    "postcode": "0682122",
    "prefecture": "北海道",
    "prefecture_kana": "ホッカイドウ",
    "prefecture_code": 1,
    "city": "三笠市",
    "city_kana": "ミカサシ",
    "town": "弥生並木町",
    "town_kana": "ヤヨイナミキチョウ",
    "street": null,
    "office_name": null,
    "office_name_kana": null
  },
  "2123": {
    "postcode": "0682123",
    "prefecture": "北海道",
    "prefecture_kana": "ホッカイドウ",
    "prefecture_code": 1,
    "city": "三笠市",
    "city_kana": "ミカサシ",
    "town": "弥生桃山町",
    "town_kana": "ヤヨイモモヤマチョウ",
    "street": null,
    "office_name": null,
    "office_name_kana": null
  },
  "2124": {
    "postcode": "0682124",
    "prefecture": "北海道",
    "prefecture_kana": "ホッカイドウ",
    "prefecture_code": 1,
    "city": "三笠市",
    "city_kana": "ミカサシ",
    "town": "弥生花園町",
    "town_kana": "ヤヨイハナゾノチョウ",
    "street": null,
    "office_name": null,
    "office_name_kana": null
  },
  "2125": {
    "postcode": "0682125",
    "prefecture": "北海道",
    "prefecture_kana": "ホッカイドウ",
    "prefecture_code": 1,
    "city": "三笠市",
    "city_kana": "ミカサシ",
    "town": "弥生橘町",
    "town_kana": "ヤヨイタチバナチョウ",
    "street": null,
    "office_name": null,
    "office_name_kana": null
  },
  "2126": {
    "postcode": "0682126",
    "prefecture": "北海道",
    "prefecture_kana": "ホッカイドウ",
    "prefecture_code": 1,
    "city": "三笠市",
    "city_kana": "ミカサシ",
    "town": "弥生町",
    "town_kana": "ヤヨイチョウ",
    "street": null,
    "office_name": null,
    "office_name_kana": null
  },
  "2127": {
    "postcode": "0682127",
    "prefecture": "北海道",
    "prefecture_kana": "ホッカイドウ",
    "prefecture_code": 1,
    "city": "三笠市",
    "city_kana": "ミカサシ",
    "town": "弥生柳町",
    "town_kana": "ヤヨイヤナギチョウ",
    "street": null,
    "office_name": null,
    "office_name_kana": null
  },
  "2128": {
    "postcode": "0682128",
    "prefecture": "北海道",
    "prefecture_kana": "ホッカイドウ",
    "prefecture_code": 1,
    "city": "三笠市",
    "city_kana": "ミカサシ",
    "town": "弥生藤枝町",
    "town_kana": "ヤヨイフジエチョウ",
    "street": null,
    "office_name": null,
    "office_name_kana": null
  },
  "2131": {
    "postcode": "0682131",
    "prefecture": "北海道",
    "prefecture_kana": "ホッカイドウ",
    "prefecture_code": 1,
    "city": "三笠市",
    "city_kana": "ミカサシ",
    "town": "唐松春光町",
    "town_kana": "トウマツシュンコウチョウ",
    "street": null,
    "office_name": null,
    "office_name_kana": null
  },
  "2132": {
    "postcode": "0682132",
    "prefecture": "北海道",
    "prefecture_kana": "ホッカイドウ",
    "prefecture_code": 1,
    "city": "三笠市",
    "city_kana": "ミカサシ",
    "town": "唐松緑町",
    "town_kana": "トウマツミドリチョウ",
    "street": null,
    "office_name": null,
    "office_name_kana": null
  },
  "2133": {
    "postcode": "0682133",
    "prefecture": "北海道",
    "prefecture_kana": "ホッカイドウ",
    "prefecture_code": 1,
    "city": "三笠市",
    "city_kana": "ミカサシ",
    "town": "唐松常盤町",
    "town_kana": "トウマツトキワチョウ",
    "street": null,
    "office_name": null,
    "office_name_kana": null
  },
  "2134": {
    "postcode": "0682134",
    "prefecture": "北海道",
    "prefecture_kana": "ホッカイドウ",
    "prefecture_code": 1,
    "city": "三笠市",
    "city_kana": "ミカサシ",
    "town": "唐松千代田町",
    "town_kana": "トウマツチヨダチョウ",
    "street": null,
    "office_name": null,
    "office_name_kana": null
  },
  "2135": {
    "postcode": "0682135",
    "prefecture": "北海道",
    "prefecture_kana": "ホッカイドウ",
    "prefecture_code": 1,
    "city": "三笠市",
    "city_kana": "ミカサシ",
    "town": "唐松町",
    "town_kana": "トウマツチョウ",
    "street": null,
    "office_name": null,
    "office_name_kana": null
  },
  "2136": {
    "postcode": "0682136",
    "prefecture": "北海道",
    "prefecture_kana": "ホッカイドウ",
    "prefecture_code": 1,
    "city": "三笠市",
    "city_kana": "ミカサシ",
    "town": "唐松栄町",
    "town_kana": "トウマツサカエチョウ",
    "street": null,
    "office_name": null,
    "office_name_kana": null
  },
  "2137": {
    "postcode": "0682137",
    "prefecture": "北海道",
    "prefecture_kana": "ホッカイドウ",
    "prefecture_code": 1,
    "city": "三笠市",
    "city_kana": "ミカサシ",
    "town": "唐松青山町",
    "town_kana": "トウマツアオヤマチョウ",
    "street": null,
    "office_name": null,
    "office_name_kana": null
  },
  "2141": {
    "postcode": "0682141",
    "prefecture": "北海道",
    "prefecture_kana": "ホッカイドウ",
    "prefecture_code": 1,
    "city": "三笠市",
    "city_kana": "ミカサシ",
    "town": "本町",
    "town_kana": "ホンチョウ",
    "street": null,
    "office_name": null,
    "office_name_kana": null
  },
  "2142": {
    "postcode": "0682142",
    "prefecture": "北海道",
    "prefecture_kana": "ホッカイドウ",
    "prefecture_code": 1,
    "city": "三笠市",
    "city_kana": "ミカサシ",
    "town": "幌内住吉町",
    "town_kana": "ホロナイスミヨシチョウ",
    "street": null,
    "office_name": null,
    "office_name_kana": null
  },
  "2143": {
    "postcode": "0682143",
    "prefecture": "北海道",
    "prefecture_kana": "ホッカイドウ",
    "prefecture_code": 1,
    "city": "三笠市",
    "city_kana": "ミカサシ",
    "town": "幌内北星町",
    "town_kana": "ホロナイホクセイチョウ",
    "street": null,
    "office_name": null,
    "office_name_kana": null
  },
  "2144": {
    "postcode": "0682144",
    "prefecture": "北海道",
    "prefecture_kana": "ホッカイドウ",
    "prefecture_code": 1,
    "city": "三笠市",
    "city_kana": "ミカサシ",
    "town": "幌内金谷町",
    "town_kana": "ホロナイカナヤチョウ",
    "street": null,
    "office_name": null,
    "office_name_kana": null
  },
  "2145": {
    "postcode": "0682145",
    "prefecture": "北海道",
    "prefecture_kana": "ホッカイドウ",
    "prefecture_code": 1,
    "city": "三笠市",
    "city_kana": "ミカサシ",
    "town": "幌内町",
    "town_kana": "ホロナイチョウ",
    "street": null,
    "office_name": null,
    "office_name_kana": null
  },
  "2146": {
    "postcode": "0682146",
    "prefecture": "北海道",
    "prefecture_kana": "ホッカイドウ",
    "prefecture_code": 1,
    "city": "三笠市",
    "city_kana": "ミカサシ",
    "town": "幌内春日町",
    "town_kana": "ホロナイカスガチョウ",
    "street": null,
    "office_name": null,
    "office_name_kana": null
  },
  "2147": {
    "postcode": "0682147",
    "prefecture": "北海道",
    "prefecture_kana": "ホッカイドウ",
    "prefecture_code": 1,
    "city": "三笠市",
    "city_kana": "ミカサシ",
    "town": "幌内新栄町",
    "town_kana": "ホロナイシンエイチョウ",
    "street": null,
    "office_name": null,
    "office_name_kana": null
  },
  "2148": {
    "postcode": "0682148",
    "prefecture": "北海道",
    "prefecture_kana": "ホッカイドウ",
    "prefecture_code": 1,
    "city": "三笠市",
    "city_kana": "ミカサシ",
    "town": "幌内初音町",
    "town_kana": "ホロナイハツネチョウ",
    "street": null,
    "office_name": null,
    "office_name_kana": null
  },
  "2151": {
    "postcode": "0682151",
    "prefecture": "北海道",
    "prefecture_kana": "ホッカイドウ",
    "prefecture_code": 1,
    "city": "三笠市",
    "city_kana": "ミカサシ",
    "town": "有明町",
    "town_kana": "アリアケチョウ",
    "street": null,
    "office_name": null,
    "office_name_kana": null
  },
  "2152": {
    "postcode": "0682152",
    "prefecture": "北海道",
    "prefecture_kana": "ホッカイドウ",
    "prefecture_code": 1,
    "city": "三笠市",
    "city_kana": "ミカサシ",
    "town": "多賀町",
    "town_kana": "タガチョウ",
    "street": null,
    "office_name": null,
    "office_name_kana": null
  },
  "2153": {
    "postcode": "0682153",
    "prefecture": "北海道",
    "prefecture_kana": "ホッカイドウ",
    "prefecture_code": 1,
    "city": "三笠市",
    "city_kana": "ミカサシ",
    "town": "幸町",
    "town_kana": "サイワイチョウ",
    "street": null,
    "office_name": null,
    "office_name_kana": null
  },
  "2154": {
    "postcode": "0682154",
    "prefecture": "北海道",
    "prefecture_kana": "ホッカイドウ",
    "prefecture_code": 1,
    "city": "三笠市",
    "city_kana": "ミカサシ",
    "town": "高美町",
    "town_kana": "タカミチョウ",
    "street": null,
    "office_name": null,
    "office_name_kana": null
  },
  "2155": {
    "postcode": "0682155",
    "prefecture": "北海道",
    "prefecture_kana": "ホッカイドウ",
    "prefecture_code": 1,
    "city": "三笠市",
    "city_kana": "ミカサシ",
    "town": "榊町",
    "town_kana": "サカキチョウ",
    "street": null,
    "office_name": null,
    "office_name_kana": null
  },
  "2156": {
    "postcode": "0682156",
    "prefecture": "北海道",
    "prefecture_kana": "ホッカイドウ",
    "prefecture_code": 1,
    "city": "三笠市",
    "city_kana": "ミカサシ",
    "town": "宮本町",
    "town_kana": "ミヤモトチョウ",
    "street": null,
    "office_name": null,
    "office_name_kana": null
  },
  "2157": {
    "postcode": "0682157",
    "prefecture": "北海道",
    "prefecture_kana": "ホッカイドウ",
    "prefecture_code": 1,
    "city": "三笠市",
    "city_kana": "ミカサシ",
    "town": "若松町",
    "town_kana": "ワカマツチョウ",
    "street": null,
    "office_name": null,
    "office_name_kana": null
  },
  "2158": {
    "postcode": "0682158",
    "prefecture": "北海道",
    "prefecture_kana": "ホッカイドウ",
    "prefecture_code": 1,
    "city": "三笠市",
    "city_kana": "ミカサシ",
    "town": "堤町",
    "town_kana": "ツツミチョウ",
    "street": null,
    "office_name": null,
    "office_name_kana": null
  },
  "2161": {
    "postcode": "0682161",
    "prefecture": "北海道",
    "prefecture_kana": "ホッカイドウ",
    "prefecture_code": 1,
    "city": "三笠市",
    "city_kana": "ミカサシ",
    "town": "本郷町",
    "town_kana": "ホンゴウチョウ",
    "street": null,
    "office_name": null,
    "office_name_kana": null
  },
  "2162": {
    "postcode": "0682162",
    "prefecture": "北海道",
    "prefecture_kana": "ホッカイドウ",
    "prefecture_code": 1,
    "city": "三笠市",
    "city_kana": "ミカサシ",
    "town": "川内",
    "town_kana": "カワナイ",
    "street": null,
    "office_name": null,
    "office_name_kana": null
  },
  "2163": {
    "postcode": "0682163",
    "prefecture": "北海道",
    "prefecture_kana": "ホッカイドウ",
    "prefecture_code": 1,
    "city": "三笠市",
    "city_kana": "ミカサシ",
    "town": "達布",
    "town_kana": "タップ",
    "street": null,
    "office_name": null,
    "office_name_kana": null
  },
  "2164": {
    "postcode": "0682164",
    "prefecture": "北海道",
    "prefecture_kana": "ホッカイドウ",
    "prefecture_code": 1,
    "city": "三笠市",
    "city_kana": "ミカサシ",
    "town": "いちきしり",
    "town_kana": "イチキシリ",
    "street": null,
    "office_name": null,
    "office_name_kana": null
  },
  "2165": {
    "postcode": "0682165",
    "prefecture": "北海道",
    "prefecture_kana": "ホッカイドウ",
    "prefecture_code": 1,
    "city": "三笠市",
    "city_kana": "ミカサシ",
    "town": "岡山",
    "town_kana": "オカヤマ",
    "street": null,
    "office_name": null,
    "office_name_kana": null
  },
  "2166": {
    "postcode": "0682166",
    "prefecture": "北海道",
    "prefecture_kana": "ホッカイドウ",
    "prefecture_code": 1,
    "city": "三笠市",
    "city_kana": "ミカサシ",
    "town": "萱野",
    "town_kana": "カヤノ",
    "street": null,
    "office_name": null,
    "office_name_kana": null
  },
  "2167": {
    "postcode": "0682167",
    "prefecture": "北海道",
    "prefecture_kana": "ホッカイドウ",
    "prefecture_code": 1,
    "city": "三笠市",
    "city_kana": "ミカサシ",
    "town": "大里",
    "town_kana": "オオサト",
    "street": null,
    "office_name": null,
    "office_name_kana": null
  },
  "2168": {
    "postcode": "0682168",
    "prefecture": "北海道",
    "prefecture_kana": "ホッカイドウ",
    "prefecture_code": 1,
    "city": "三笠市",
    "city_kana": "ミカサシ",
    "town": "美和",
    "town_kana": "ミワ",
    "street": null,
    "office_name": null,
    "office_name_kana": null
  },
  "2181": {
    "postcode": "0682181",
    "prefecture": "北海道",
    "prefecture_kana": "ホッカイドウ",
    "prefecture_code": 1,
    "city": "美唄市",
    "city_kana": "ビバイシ",
    "town": "光珠内町南",
    "town_kana": "コウシュナイチョウミナミ",
    "street": null,
    "office_name": null,
    "office_name_kana": null
  },
  "2192": {
    "postcode": "0682192",
    "prefecture": "北海道",
    "prefecture_kana": "ホッカイドウ",
    "prefecture_code": 1,
    "city": "三笠市",
    "city_kana": "ミカサシ",
    "town": "幸町",
    "town_kana": "サイワイチョウ",
    "street": "２番地",
    "office_name": "三笠市役所",
    "office_name_kana": "ミカサシヤクシヨ"
  },
  "2193": {
    "postcode": "0682193",
    "prefecture": "北海道",
    "prefecture_kana": "ホッカイドウ",
    "prefecture_code": 1,
    "city": "三笠市",
    "city_kana": "ミカサシ",
    "town": "若草町",
    "town_kana": "ワカクサチョウ",
    "street": "４０４番地",
    "office_name": "三笠市教育委員会",
    "office_name_kana": "ミカサシキヨウイクイインカイ"
  },
  "2194": {
    "postcode": "0682194",
    "prefecture": "北海道",
    "prefecture_kana": "ホッカイドウ",
    "prefecture_code": 1,
    "city": "三笠市",
    "city_kana": "ミカサシ",
    "town": "宮本町",
    "town_kana": "ミヤモトチョウ",
    "street": "４８９番地１",
    "office_name": "市立三笠総合病院",
    "office_name_kana": "シリツミカサソウゴウビヨウイン"
  },
  "3151": {
    "postcode": "0683151",
    "prefecture": "北海道",
    "prefecture_kana": "ホッカイドウ",
    "prefecture_code": 1,
    "city": "岩見沢市",
    "city_kana": "イワミザワシ",
    "town": "栗沢町万字大平",
    "town_kana": "クリサワチョウマンジオオタイラ",
    "street": null,
    "office_name": null,
    "office_name_kana": null
  },
  "3152": {
    "postcode": "0683152",
    "prefecture": "北海道",
    "prefecture_kana": "ホッカイドウ",
    "prefecture_code": 1,
    "city": "岩見沢市",
    "city_kana": "イワミザワシ",
    "town": "栗沢町万字幸町",
    "town_kana": "クリサワチョウマンジサイワイチョウ",
    "street": null,
    "office_name": null,
    "office_name_kana": null
  },
  "3153": {
    "postcode": "0683153",
    "prefecture": "北海道",
    "prefecture_kana": "ホッカイドウ",
    "prefecture_code": 1,
    "city": "岩見沢市",
    "city_kana": "イワミザワシ",
    "town": "栗沢町万字仲町",
    "town_kana": "クリサワチョウマンジナカマチ",
    "street": null,
    "office_name": null,
    "office_name_kana": null
  },
  "3154": {
    "postcode": "0683154",
    "prefecture": "北海道",
    "prefecture_kana": "ホッカイドウ",
    "prefecture_code": 1,
    "city": "岩見沢市",
    "city_kana": "イワミザワシ",
    "town": "栗沢町万字曙町",
    "town_kana": "クリサワチョウマンジアケボノマチ",
    "street": null,
    "office_name": null,
    "office_name_kana": null
  },
  "3155": {
    "postcode": "0683155",
    "prefecture": "北海道",
    "prefecture_kana": "ホッカイドウ",
    "prefecture_code": 1,
    "city": "岩見沢市",
    "city_kana": "イワミザワシ",
    "town": "栗沢町万字寿町",
    "town_kana": "クリサワチョウマンジコトブキチョウ",
    "street": null,
    "office_name": null,
    "office_name_kana": null
  },
  "3156": {
    "postcode": "0683156",
    "prefecture": "北海道",
    "prefecture_kana": "ホッカイドウ",
    "prefecture_code": 1,
    "city": "岩見沢市",
    "city_kana": "イワミザワシ",
    "town": "栗沢町万字英町",
    "town_kana": "クリサワチョウマンジハナブサチョウ",
    "street": null,
    "office_name": null,
    "office_name_kana": null
  },
  "3157": {
    "postcode": "0683157",
    "prefecture": "北海道",
    "prefecture_kana": "ホッカイドウ",
    "prefecture_code": 1,
    "city": "岩見沢市",
    "city_kana": "イワミザワシ",
    "town": "栗沢町万字睦町",
    "town_kana": "クリサワチョウマンジムツミチョウ",
    "street": null,
    "office_name": null,
    "office_name_kana": null
  },
  "3158": {
    "postcode": "0683158",
    "prefecture": "北海道",
    "prefecture_kana": "ホッカイドウ",
    "prefecture_code": 1,
    "city": "岩見沢市",
    "city_kana": "イワミザワシ",
    "town": "栗沢町万字巴町",
    "town_kana": "クリサワチョウマンジトモエチョウ",
    "street": null,
    "office_name": null,
    "office_name_kana": null
  },
  "3159": {
    "postcode": "0683159",
    "prefecture": "北海道",
    "prefecture_kana": "ホッカイドウ",
    "prefecture_code": 1,
    "city": "岩見沢市",
    "city_kana": "イワミザワシ",
    "town": "栗沢町万字二見町",
    "town_kana": "クリサワチョウマンジフタミチョウ",
    "street": null,
    "office_name": null,
    "office_name_kana": null
  },
  "3161": {
    "postcode": "0683161",
    "prefecture": "北海道",
    "prefecture_kana": "ホッカイドウ",
    "prefecture_code": 1,
    "city": "岩見沢市",
    "city_kana": "イワミザワシ",
    "town": "栗沢町宮村",
    "town_kana": "クリサワチョウミヤムラ",
    "street": null,
    "office_name": null,
    "office_name_kana": null
  },
  "3162": {
    "postcode": "0683162",
    "prefecture": "北海道",
    "prefecture_kana": "ホッカイドウ",
    "prefecture_code": 1,
    "city": "岩見沢市",
    "city_kana": "イワミザワシ",
    "town": "栗沢町万字旭町",
    "town_kana": "クリサワチョウマンジアサヒマチ",
    "street": null,
    "office_name": null,
    "office_name_kana": null
  },
  "3163": {
    "postcode": "0683163",
    "prefecture": "北海道",
    "prefecture_kana": "ホッカイドウ",
    "prefecture_code": 1,
    "city": "岩見沢市",
    "city_kana": "イワミザワシ",
    "town": "栗沢町万字西原町",
    "town_kana": "クリサワチョウマンジニシハラマチ",
    "street": null,
    "office_name": null,
    "office_name_kana": null
  },
  "3164": {
    "postcode": "0683164",
    "prefecture": "北海道",
    "prefecture_kana": "ホッカイドウ",
    "prefecture_code": 1,
    "city": "岩見沢市",
    "city_kana": "イワミザワシ",
    "town": "栗沢町万字錦町",
    "town_kana": "クリサワチョウマンジニシキマチ",
    "street": null,
    "office_name": null,
    "office_name_kana": null
  },
  "3165": {
    "postcode": "0683165",
    "prefecture": "北海道",
    "prefecture_kana": "ホッカイドウ",
    "prefecture_code": 1,
    "city": "岩見沢市",
    "city_kana": "イワミザワシ",
    "town": "栗沢町西万字",
    "town_kana": "クリサワチョウニシマンジ",
    "street": null,
    "office_name": null,
    "office_name_kana": null
  },
  "3171": {
    "postcode": "0683171",
    "prefecture": "北海道",
    "prefecture_kana": "ホッカイドウ",
    "prefecture_code": 1,
    "city": "岩見沢市",
    "city_kana": "イワミザワシ",
    "town": "栗沢町美流渡本町",
    "town_kana": "クリサワチョウミルトホンチョウ",
    "street": null,
    "office_name": null,
    "office_name_kana": null
  },
  "3172": {
    "postcode": "0683172",
    "prefecture": "北海道",
    "prefecture_kana": "ホッカイドウ",
    "prefecture_code": 1,
    "city": "岩見沢市",
    "city_kana": "イワミザワシ",
    "town": "栗沢町美流渡栄町",
    "town_kana": "クリサワチョウミルトサカエチョウ",
    "street": null,
    "office_name": null,
    "office_name_kana": null
  },
  "3173": {
    "postcode": "0683173",
    "prefecture": "北海道",
    "prefecture_kana": "ホッカイドウ",
    "prefecture_code": 1,
    "city": "岩見沢市",
    "city_kana": "イワミザワシ",
    "town": "栗沢町美流渡若葉町",
    "town_kana": "クリサワチョウミルトワカバチョウ",
    "street": null,
    "office_name": null,
    "office_name_kana": null
  },
  "3174": {
    "postcode": "0683174",
    "prefecture": "北海道",
    "prefecture_kana": "ホッカイドウ",
    "prefecture_code": 1,
    "city": "岩見沢市",
    "city_kana": "イワミザワシ",
    "town": "栗沢町美流渡吉野町",
    "town_kana": "クリサワチョウミルトヨシノチョウ",
    "street": null,
    "office_name": null,
    "office_name_kana": null
  },
  "3175": {
    "postcode": "0683175",
    "prefecture": "北海道",
    "prefecture_kana": "ホッカイドウ",
    "prefecture_code": 1,
    "city": "岩見沢市",
    "city_kana": "イワミザワシ",
    "town": "栗沢町美流渡西町",
    "town_kana": "クリサワチョウミルトニシマチ",
    "street": null,
    "office_name": null,
    "office_name_kana": null
  },
  "3176": {
    "postcode": "0683176",
    "prefecture": "北海道",
    "prefecture_kana": "ホッカイドウ",
    "prefecture_code": 1,
    "city": "岩見沢市",
    "city_kana": "イワミザワシ",
    "town": "栗沢町美流渡東栄町",
    "town_kana": "クリサワチョウミルトトウエイチョウ",
    "street": null,
    "office_name": null,
    "office_name_kana": null
  },
  "3177": {
    "postcode": "0683177",
    "prefecture": "北海道",
    "prefecture_kana": "ホッカイドウ",
    "prefecture_code": 1,
    "city": "岩見沢市",
    "city_kana": "イワミザワシ",
    "town": "栗沢町美流渡末広町",
    "town_kana": "クリサワチョウミルトスエヒロチョウ",
    "street": null,
    "office_name": null,
    "office_name_kana": null
  },
  "3178": {
    "postcode": "0683178",
    "prefecture": "北海道",
    "prefecture_kana": "ホッカイドウ",
    "prefecture_code": 1,
    "city": "岩見沢市",
    "city_kana": "イワミザワシ",
    "town": "栗沢町美流渡錦町",
    "town_kana": "クリサワチョウミルトニシキチョウ",
    "street": null,
    "office_name": null,
    "office_name_kana": null
  },
  "3179": {
    "postcode": "0683179",
    "prefecture": "北海道",
    "prefecture_kana": "ホッカイドウ",
    "prefecture_code": 1,
    "city": "岩見沢市",
    "city_kana": "イワミザワシ",
    "town": "栗沢町美流渡桜町",
    "town_kana": "クリサワチョウミルトサクラマチ",
    "street": null,
    "office_name": null,
    "office_name_kana": null
  },
  "3180": {
    "postcode": "0683180",
    "prefecture": "北海道",
    "prefecture_kana": "ホッカイドウ",
    "prefecture_code": 1,
    "city": "岩見沢市",
    "city_kana": "イワミザワシ",
    "town": "栗沢町美流渡東町",
    "town_kana": "クリサワチョウミルトヒガシマチ",
    "street": null,
    "office_name": null,
    "office_name_kana": null
  },
  "3181": {
    "postcode": "0683181",
    "prefecture": "北海道",
    "prefecture_kana": "ホッカイドウ",
    "prefecture_code": 1,
    "city": "岩見沢市",
    "city_kana": "イワミザワシ",
    "town": "栗沢町美流渡南町",
    "town_kana": "クリサワチョウミルトミナミマチ",
    "street": null,
    "office_name": null,
    "office_name_kana": null
  },
  "3182": {
    "postcode": "0683182",
    "prefecture": "北海道",
    "prefecture_kana": "ホッカイドウ",
    "prefecture_code": 1,
    "city": "岩見沢市",
    "city_kana": "イワミザワシ",
    "town": "栗沢町美流渡緑町",
    "town_kana": "クリサワチョウミルトミドリマチ",
    "street": null,
    "office_name": null,
    "office_name_kana": null
  },
  "3183": {
    "postcode": "0683183",
    "prefecture": "北海道",
    "prefecture_kana": "ホッカイドウ",
    "prefecture_code": 1,
    "city": "岩見沢市",
    "city_kana": "イワミザワシ",
    "town": "栗沢町美流渡楓町",
    "town_kana": "クリサワチョウミルトカエデチョウ",
    "street": null,
    "office_name": null,
    "office_name_kana": null
  },
  "3185": {
    "postcode": "0683185",
    "prefecture": "北海道",
    "prefecture_kana": "ホッカイドウ",
    "prefecture_code": 1,
    "city": "岩見沢市",
    "city_kana": "イワミザワシ",
    "town": "朝日町",
    "town_kana": "アサヒチョウ",
    "street": null,
    "office_name": null,
    "office_name_kana": null
  },
  "3186": {
    "postcode": "0683186",
    "prefecture": "北海道",
    "prefecture_kana": "ホッカイドウ",
    "prefecture_code": 1,
    "city": "岩見沢市",
    "city_kana": "イワミザワシ",
    "town": "清水町",
    "town_kana": "シミズチョウ",
    "street": null,
    "office_name": null,
    "office_name_kana": null
  },
  "3187": {
    "postcode": "0683187",
    "prefecture": "北海道",
    "prefecture_kana": "ホッカイドウ",
    "prefecture_code": 1,
    "city": "岩見沢市",
    "city_kana": "イワミザワシ",
    "town": "奈良町",
    "town_kana": "ナラチョウ",
    "street": null,
    "office_name": null,
    "office_name_kana": null
  },
  "3188": {
    "postcode": "0683188",
    "prefecture": "北海道",
    "prefecture_kana": "ホッカイドウ",
    "prefecture_code": 1,
    "city": "岩見沢市",
    "city_kana": "イワミザワシ",
    "town": "毛陽町",
    "town_kana": "モウヨウチョウ",
    "street": null,
    "office_name": null,
    "office_name_kana": null
  },
  "8511": {
    "postcode": "0688511",
    "prefecture": "北海道",
    "prefecture_kana": "ホッカイドウ",
    "prefecture_code": 1,
    "city": "岩見沢市",
    "city_kana": "イワミザワシ",
    "town": "二条東",
    "town_kana": "2ジョウヒガシ",
    "street": "１８丁目１番地",
    "office_name": "及川産業　株式会社",
    "office_name_kana": "オイカワサンギヨウ カブシキカイシヤ"
  },
  "8550": {
    "postcode": "0688550",
    "prefecture": "北海道",
    "prefecture_kana": "ホッカイドウ",
    "prefecture_code": 1,
    "city": "岩見沢市",
    "city_kana": "イワミザワシ",
    "town": "八条西",
    "town_kana": "8ジョウニシ",
    "street": "５丁目",
    "office_name": "北海道　教育庁空知教育局",
    "office_name_kana": "ホツカイドウ キヨウイクチヨウソラチキヨウイクキヨク"
  },
  "8555": {
    "postcode": "0688555",
    "prefecture": "北海道",
    "prefecture_kana": "ホッカイドウ",
    "prefecture_code": 1,
    "city": "岩見沢市",
    "city_kana": "イワミザワシ",
    "town": "九条西",
    "town_kana": "9ジョウニシ",
    "street": "７丁目２番地",
    "office_name": "岩見沢市立総合病院",
    "office_name_kana": "イワミザワシリツソウゴウビヨウイン"
  },
  "8558": {
    "postcode": "0688558",
    "prefecture": "北海道",
    "prefecture_kana": "ホッカイドウ",
    "prefecture_code": 1,
    "city": "岩見沢市",
    "city_kana": "イワミザワシ",
    "town": "八条西",
    "town_kana": "8ジョウニシ",
    "street": "５丁目",
    "office_name": "北海道空知総合振興局",
    "office_name_kana": "ホツカイドウソラチソウゴウシンコウキヨク"
  },
  "8588": {
    "postcode": "0688588",
    "prefecture": "北海道",
    "prefecture_kana": "ホッカイドウ",
    "prefecture_code": 1,
    "city": "岩見沢市",
    "city_kana": "イワミザワシ",
    "town": "大和三条",
    "town_kana": "ヤマト3ジョウ",
    "street": "９丁目１４番地",
    "office_name": "（株）　きたいち",
    "office_name_kana": "カブシキガイシヤ キタイチ"
  },
  "8609": {
    "postcode": "0688609",
    "prefecture": "北海道",
    "prefecture_kana": "ホッカイドウ",
    "prefecture_code": 1,
    "city": "岩見沢市",
    "city_kana": "イワミザワシ",
    "town": "五条東",
    "town_kana": "5ジョウヒガシ",
    "street": "１５丁目",
    "office_name": "岩見沢公共職業安定所",
    "office_name_kana": "イワミザワコウキヨウシヨクギヨウアンテイシヨ"
  },
  "8639": {
    "postcode": "0688639",
    "prefecture": "北海道",
    "prefecture_kana": "ホッカイドウ",
    "prefecture_code": 1,
    "city": "岩見沢市",
    "city_kana": "イワミザワシ",
    "town": "有明町南",
    "town_kana": "アリアケチョウミナミ",
    "street": "１番地２０",
    "office_name": "株式会社　コミュニティエフエムはまなす",
    "office_name_kana": "カブシキガイシヤ コミユニテイエフエムハマナス"
  },
  "8642": {
    "postcode": "0688642",
    "prefecture": "北海道",
    "prefecture_kana": "ホッカイドウ",
    "prefecture_code": 1,
    "city": "岩見沢市",
    "city_kana": "イワミザワシ",
    "town": "緑が丘",
    "town_kana": "ミドリガオカ",
    "street": "２丁目３４番地",
    "office_name": "北海道教育大学　教育学部　岩見沢校",
    "office_name_kana": "ホツカイドウキヨウイクダイガク キヨウイクガクブ イワミザワコウ"
  },
  "8650": {
    "postcode": "0688650",
    "prefecture": "北海道",
    "prefecture_kana": "ホッカイドウ",
    "prefecture_code": 1,
    "city": "岩見沢市",
    "city_kana": "イワミザワシ",
    "town": "五条東",
    "town_kana": "5ジョウヒガシ",
    "street": "１丁目７番地（岩見沢郵便局私書箱第８号）",
    "office_name": "株式会社　いわせき",
    "office_name_kana": "カブシキガイシヤ イワセキ"
  },
  "8660": {
    "postcode": "0688660",
    "prefecture": "北海道",
    "prefecture_kana": "ホッカイドウ",
    "prefecture_code": 1,
    "city": "岩見沢市",
    "city_kana": "イワミザワシ",
    "town": "三条西",
    "town_kana": "3ジョウニシ",
    "street": "６丁目２番地１（岩見沢郵便局私書箱第１０号）",
    "office_name": "空知信用金庫",
    "office_name_kana": "ソラチシンヨウキンコ"
  },
  "8666": {
    "postcode": "0688666",
    "prefecture": "北海道",
    "prefecture_kana": "ホッカイドウ",
    "prefecture_code": 1,
    "city": "岩見沢市",
    "city_kana": "イワミザワシ",
    "town": "八条東",
    "town_kana": "8ジョウヒガシ",
    "street": "１丁目３（岩見沢郵便局私書箱第２５号）",
    "office_name": "北燃商事　株式会社",
    "office_name_kana": "ホクネンシヨウジ カブシキガイシヤ"
  },
  "8668": {
    "postcode": "0688668",
    "prefecture": "北海道",
    "prefecture_kana": "ホッカイドウ",
    "prefecture_code": 1,
    "city": "岩見沢市",
    "city_kana": "イワミザワシ",
    "town": "東町",
    "town_kana": "ヒガシマチ",
    "street": "２３４番地",
    "office_name": "積水化学北海道　株式会社",
    "office_name_kana": "セキスイカガクホツカイドウ カブシキガイシヤ"
  },
  "8686": {
    "postcode": "0688686",
    "prefecture": "北海道",
    "prefecture_kana": "ホッカイドウ",
    "prefecture_code": 1,
    "city": "岩見沢市",
    "city_kana": "イワミザワシ",
    "town": "鳩が丘",
    "town_kana": "ハトガオカ",
    "street": "１丁目１−１（岩見沢郵便局私書箱第２２号）",
    "office_name": "岩見沢市役所",
    "office_name_kana": "イワミザワシヤクシヨ"
  },
  "8688": {
    "postcode": "0688688",
    "prefecture": "北海道",
    "prefecture_kana": "ホッカイドウ",
    "prefecture_code": 1,
    "city": "岩見沢市",
    "city_kana": "イワミザワシ",
    "town": "二条西",
    "town_kana": "2ジョウニシ",
    "street": "１６丁目１番地（岩見沢郵便局私書箱第３４号）",
    "office_name": "岩見沢ガス　（株）",
    "office_name_kana": "イワミザワガス カブシキガイシヤ"
  }
}