{
  "0200": {
    "postcode": "0690200",
    "prefecture": "北海道",
    "prefecture_kana": "ホッカイドウ",
    "prefecture_code": 1,
    "city": "空知郡南幌町",
    "city_kana": "ソラチグンナンポロチョウ",
    "town": "",
    "town_kana": "",
    "street": null,
    "office_name": null,
    "office_name_kana": null
  },
  "0207": {
    "postcode": "0690207",
    "prefecture": "北海道",
    "prefecture_kana": "ホッカイドウ",
    "prefecture_code": 1,
    "city": "空知郡南幌町",
    "city_kana": "ソラチグンナンポロチョウ",
    "town": "南７線西",
    "town_kana": "ミナミ7センニシ",
    "street": null,
    "office_name": null,
    "office_name_kana": null
  },
  "0208": {
    "postcode": "0690208",
    "prefecture": "北海道",
    "prefecture_kana": "ホッカイドウ",
    "prefecture_code": 1,
    "city": "空知郡南幌町",
    "city_kana": "ソラチグンナンポロチョウ",
    "town": "南８線西",
    "town_kana": "ミナミ8センニシ",
    "street": null,
    "office_name": null,
    "office_name_kana": null
  },
  "0209": {
    "postcode": "0690209",
    "prefecture": "北海道",
    "prefecture_kana": "ホッカイドウ",
    "prefecture_code": 1,
    "city": "空知郡南幌町",
    "city_kana": "ソラチグンナンポロチョウ",
    "town": "南９線西",
    "town_kana": "ミナミ9センニシ",
    "street": null,
    "office_name": null,
    "office_name_kana": null
  },
  "0210": {
    "postcode": "0690210",
    "prefecture": "北海道",
    "prefecture_kana": "ホッカイドウ",
    "prefecture_code": 1,
    "city": "空知郡南幌町",
    "city_kana": "ソラチグンナンポロチョウ",
    "town": "南１０線西",
    "town_kana": "ミナミ10センニシ",
    "street": null,
    "office_name": null,
    "office_name_kana": null
  },
  "0211": {
    "postcode": "0690211",
    "prefecture": "北海道",
    "prefecture_kana": "ホッカイドウ",
    "prefecture_code": 1,
    "city": "空知郡南幌町",
    "city_kana": "ソラチグンナンポロチョウ",
    "town": "南１１線西",
    "town_kana": "ミナミ11センニシ",
    "street": null,
    "office_name": null,
    "office_name_kana": null
  },
  "0212": {
    "postcode": "0690212",
    "prefecture": "北海道",
    "prefecture_kana": "ホッカイドウ",
    "prefecture_code": 1,
    "city": "空知郡南幌町",
    "city_kana": "ソラチグンナンポロチョウ",
    "town": "南１２線西",
    "town_kana": "ミナミ12センニシ",
    "street": null,
    "office_name": null,
    "office_name_kana": null
  },
  "0213": {
    "postcode": "0690213",
    "prefecture": "北海道",
    "prefecture_kana": "ホッカイドウ",
    "prefecture_code": 1,
    "city": "空知郡南幌町",
    "city_kana": "ソラチグンナンポロチョウ",
    "town": "南１３線西",
    "town_kana": "ミナミ13センニシ",
    "street": null,
    "office_name": null,
    "office_name_kana": null
  },
  "0214": {
    "postcode": "0690214",
    "prefecture": "北海道",
    "prefecture_kana": "ホッカイドウ",
    "prefecture_code": 1,
    "city": "空知郡南幌町",
    "city_kana": "ソラチグンナンポロチョウ",
    "town": "南１４線西",
    "town_kana": "ミナミ14センニシ",
    "street": null,
    "office_name": null,
    "office_name_kana": null
  },
  "0215": {
    "postcode": "0690215",
    "prefecture": "北海道",
    "prefecture_kana": "ホッカイドウ",
    "prefecture_code": 1,
    "city": "空知郡南幌町",
    "city_kana": "ソラチグンナンポロチョウ",
    "town": "南１５線西",
    "town_kana": "ミナミ15センニシ",
    "street": null,
    "office_name": null,
    "office_name_kana": null
  },
  "0216": {
    "postcode": "0690216",
    "prefecture": "北海道",
    "prefecture_kana": "ホッカイドウ",
    "prefecture_code": 1,
    "city": "空知郡南幌町",
    "city_kana": "ソラチグンナンポロチョウ",
    "town": "南１６線西",
    "town_kana": "ミナミ16センニシ",
    "street": null,
    "office_name": null,
    "office_name_kana": null
  },
  "0217": {
    "postcode": "0690217",
    "prefecture": "北海道",
    "prefecture_kana": "ホッカイドウ",
    "prefecture_code": 1,
    "city": "空知郡南幌町",
    "city_kana": "ソラチグンナンポロチョウ",
    "town": "南１７線西",
    "town_kana": "ミナミ17センニシ",
    "street": null,
    "office_name": null,
    "office_name_kana": null
  },
  "0218": {
    "postcode": "0690218",
    "prefecture": "北海道",
    "prefecture_kana": "ホッカイドウ",
    "prefecture_code": 1,
    "city": "空知郡南幌町",
    "city_kana": "ソラチグンナンポロチョウ",
    "town": "南１８線西",
    "town_kana": "ミナミ18センニシ",
    "street": null,
    "office_name": null,
    "office_name_kana": null
  },
  "0219": {
    "postcode": "0690219",
    "prefecture": "北海道",
    "prefecture_kana": "ホッカイドウ",
    "prefecture_code": 1,
    "city": "空知郡南幌町",
    "city_kana": "ソラチグンナンポロチョウ",
    "town": "南１９線西",
    "town_kana": "ミナミ19センニシ",
    "street": null,
    "office_name": null,
    "office_name_kana": null
  },
  "0220": {
    "postcode": "0690220",
    "prefecture": "北海道",
    "prefecture_kana": "ホッカイドウ",
    "prefecture_code": 1,
    "city": "空知郡南幌町",
    "city_kana": "ソラチグンナンポロチョウ",
    "town": "南２０線西",
    "town_kana": "ミナミ20センニシ",
    "street": null,
    "office_name": null,
    "office_name_kana": null
  },
  "0221": {
    "postcode": "0690221",
    "prefecture": "北海道",
    "prefecture_kana": "ホッカイドウ",
    "prefecture_code": 1,
    "city": "空知郡南幌町",
    "city_kana": "ソラチグンナンポロチョウ",
    "town": "南２１線西",
    "town_kana": "ミナミ21センニシ",
    "street": null,
    "office_name": null,
    "office_name_kana": null
  },
  "0231": {
    "postcode": "0690231",
    "prefecture": "北海道",
    "prefecture_kana": "ホッカイドウ",
    "prefecture_code": 1,
    "city": "空知郡南幌町",
    "city_kana": "ソラチグンナンポロチョウ",
    "town": "北町",
    "town_kana": "キタマチ",
    "street": null,
    "office_name": null,
    "office_name_kana": null
  },
  "0232": {
    "postcode": "0690232",
    "prefecture": "北海道",
    "prefecture_kana": "ホッカイドウ",
    "prefecture_code": 1,
    "city": "空知郡南幌町",
    "city_kana": "ソラチグンナンポロチョウ",
    "town": "緑町",
    "town_kana": "ミドリマチ",
    "street": null,
    "office_name": null,
    "office_name_kana": null
  },
  "0233": {
    "postcode": "0690233",
    "prefecture": "北海道",
    "prefecture_kana": "ホッカイドウ",
    "prefecture_code": 1,
    "city": "空知郡南幌町",
    "city_kana": "ソラチグンナンポロチョウ",
    "town": "東町",
    "town_kana": "ヒガシマチ",
    "street": null,
    "office_name": null,
    "office_name_kana": null
  },
  "0234": {
    "postcode": "0690234",
    "prefecture": "北海道",
    "prefecture_kana": "ホッカイドウ",
    "prefecture_code": 1,
    "city": "空知郡南幌町",
    "city_kana": "ソラチグンナンポロチョウ",
    "town": "美園",
    "town_kana": "ミソノ",
    "street": null,
    "office_name": null,
    "office_name_kana": null
  },
  "0235": {
    "postcode": "0690235",
    "prefecture": "北海道",
    "prefecture_kana": "ホッカイドウ",
    "prefecture_code": 1,
    "city": "空知郡南幌町",
    "city_kana": "ソラチグンナンポロチョウ",
    "town": "中央",
    "town_kana": "チュウオウ",
    "street": null,
    "office_name": null,
    "office_name_kana": null
  },
  "0236": {
    "postcode": "0690236",
    "prefecture": "北海道",
    "prefecture_kana": "ホッカイドウ",
    "prefecture_code": 1,
    "city": "空知郡南幌町",
    "city_kana": "ソラチグンナンポロチョウ",
    "town": "西町",
    "town_kana": "ニシマチ",
    "street": null,
    "office_name": null,
    "office_name_kana": null
  },
  "0237": {
    "postcode": "0690237",
    "prefecture": "北海道",
    "prefecture_kana": "ホッカイドウ",
    "prefecture_code": 1,
    "city": "空知郡南幌町",
    "city_kana": "ソラチグンナンポロチョウ",
    "town": "栄町",
    "town_kana": "サカエマチ",
    "street": null,
    "office_name": null,
    "office_name_kana": null
  },
  "0238": {
    "postcode": "0690238",
    "prefecture": "北海道",
    "prefecture_kana": "ホッカイドウ",
    "prefecture_code": 1,
    "city": "空知郡南幌町",
    "city_kana": "ソラチグンナンポロチョウ",
    "town": "元町",
    "town_kana": "モトマチ",
    "street": null,
    "office_name": null,
    "office_name_kana": null
  },
  "0239": {
    "postcode": "0690239",
    "prefecture": "北海道",
    "prefecture_kana": "ホッカイドウ",
    "prefecture_code": 1,
    "city": "空知郡南幌町",
    "city_kana": "ソラチグンナンポロチョウ",
    "town": "稲穂",
    "town_kana": "イナホ",
    "street": null,
    "office_name": null,
    "office_name_kana": null
  },
  "0292": {
    "postcode": "0690292",
    "prefecture": "北海道",
    "prefecture_kana": "ホッカイドウ",
    "prefecture_code": 1,
    "city": "空知郡南幌町",
    "city_kana": "ソラチグンナンポロチョウ",
    "town": "栄町",
    "town_kana": "サカエマチ",
    "street": "３丁目２−１",
    "office_name": "南幌町役場",
    "office_name_kana": "ナンポロチヨウヤクバ"
  },
  "0293": {
    "postcode": "0690293",
    "prefecture": "北海道",
    "prefecture_kana": "ホッカイドウ",
    "prefecture_code": 1,
    "city": "空知郡南幌町",
    "city_kana": "ソラチグンナンポロチョウ",
    "town": "栄町",
    "town_kana": "サカエマチ",
    "street": "１丁目４−７",
    "office_name": "南幌町農業協同組合",
    "office_name_kana": "ナンポロチヨウノウギヨウキヨウドウクミアイ"
  },
  "0351": {
    "postcode": "0690351",
    "prefecture": "北海道",
    "prefecture_kana": "ホッカイドウ",
    "prefecture_code": 1,
    "city": "岩見沢市",
    "city_kana": "イワミザワシ",
    "town": "北村砂浜",
    "town_kana": "キタムラスナハマ",
    "street": null,
    "office_name": null,
    "office_name_kana": null
  },
  "0361": {
    "postcode": "0690361",
    "prefecture": "北海道",
    "prefecture_kana": "ホッカイドウ",
    "prefecture_code": 1,
    "city": "岩見沢市",
    "city_kana": "イワミザワシ",
    "town": "上幌向北一条",
    "town_kana": "カミホロムイキタ1ジョウ",
    "street": null,
    "office_name": null,
    "office_name_kana": null
  },
  "0362": {
    "postcode": "0690362",
    "prefecture": "北海道",
    "prefecture_kana": "ホッカイドウ",
    "prefecture_code": 1,
    "city": "岩見沢市",
    "city_kana": "イワミザワシ",
    "town": "上幌向南一条",
    "town_kana": "カミホロムイミナミ1ジョウ",
    "street": null,
    "office_name": null,
    "office_name_kana": null
  },
  "0363": {
    "postcode": "0690363",
    "prefecture": "北海道",
    "prefecture_kana": "ホッカイドウ",
    "prefecture_code": 1,
    "city": "岩見沢市",
    "city_kana": "イワミザワシ",
    "town": "上幌向南二条",
    "town_kana": "カミホロムイミナミ2ジョウ",
    "street": null,
    "office_name": null,
    "office_name_kana": null
  },
  "0364": {
    "postcode": "0690364",
    "prefecture": "北海道",
    "prefecture_kana": "ホッカイドウ",
    "prefecture_code": 1,
    "city": "岩見沢市",
    "city_kana": "イワミザワシ",
    "town": "上幌向南三条",
    "town_kana": "カミホロムイミナミ3ジョウ",
    "street": null,
    "office_name": null,
    "office_name_kana": null
  },
  "0365": {
    "postcode": "0690365",
    "prefecture": "北海道",
    "prefecture_kana": "ホッカイドウ",
    "prefecture_code": 1,
    "city": "岩見沢市",
    "city_kana": "イワミザワシ",
    "town": "上幌向町",
    "town_kana": "カミホロムイチョウ",
    "street": null,
    "office_name": null,
    "office_name_kana": null
  },
  "0366": {
    "postcode": "0690366",
    "prefecture": "北海道",
    "prefecture_kana": "ホッカイドウ",
    "prefecture_code": 1,
    "city": "岩見沢市",
    "city_kana": "イワミザワシ",
    "town": "双葉町",
    "town_kana": "フタバチョウ",
    "street": null,
    "office_name": null,
    "office_name_kana": null
  },
  "0371": {
    "postcode": "0690371",
    "prefecture": "北海道",
    "prefecture_kana": "ホッカイドウ",
    "prefecture_code": 1,
    "city": "岩見沢市",
    "city_kana": "イワミザワシ",
    "town": "幌向南一条",
    "town_kana": "ホロムイミナミ1ジョウ",
    "street": null,
    "office_name": null,
    "office_name_kana": null
  },
  "0372": {
    "postcode": "0690372",
    "prefecture": "北海道",
    "prefecture_kana": "ホッカイドウ",
    "prefecture_code": 1,
    "city": "岩見沢市",
    "city_kana": "イワミザワシ",
    "town": "幌向南二条",
    "town_kana": "ホロムイミナミ2ジョウ",
    "street": null,
    "office_name": null,
    "office_name_kana": null
  },
  "0373": {
    "postcode": "0690373",
    "prefecture": "北海道",
    "prefecture_kana": "ホッカイドウ",
    "prefecture_code": 1,
    "city": "岩見沢市",
    "city_kana": "イワミザワシ",
    "town": "幌向南三条",
    "town_kana": "ホロムイミナミ3ジョウ",
    "street": null,
    "office_name": null,
    "office_name_kana": null
  },
  "0374": {
    "postcode": "0690374",
    "prefecture": "北海道",
    "prefecture_kana": "ホッカイドウ",
    "prefecture_code": 1,
    "city": "岩見沢市",
    "city_kana": "イワミザワシ",
    "town": "幌向南四条",
    "town_kana": "ホロムイミナミ4ジョウ",
    "street": null,
    "office_name": null,
    "office_name_kana": null
  },
  "0375": {
    "postcode": "0690375",
    "prefecture": "北海道",
    "prefecture_kana": "ホッカイドウ",
    "prefecture_code": 1,
    "city": "岩見沢市",
    "city_kana": "イワミザワシ",
    "town": "幌向南五条",
    "town_kana": "ホロムイミナミ5ジョウ",
    "street": null,
    "office_name": null,
    "office_name_kana": null
  },
  "0376": {
    "postcode": "0690376",
    "prefecture": "北海道",
    "prefecture_kana": "ホッカイドウ",
    "prefecture_code": 1,
    "city": "岩見沢市",
    "city_kana": "イワミザワシ",
    "town": "中幌向町",
    "town_kana": "ナカホロムイチョウ",
    "street": null,
    "office_name": null,
    "office_name_kana": null
  },
  "0381": {
    "postcode": "0690381",
    "prefecture": "北海道",
    "prefecture_kana": "ホッカイドウ",
    "prefecture_code": 1,
    "city": "岩見沢市",
    "city_kana": "イワミザワシ",
    "town": "幌向北一条",
    "town_kana": "ホロムイキタ1ジョウ",
    "street": null,
    "office_name": null,
    "office_name_kana": null
  },
  "0382": {
    "postcode": "0690382",
    "prefecture": "北海道",
    "prefecture_kana": "ホッカイドウ",
    "prefecture_code": 1,
    "city": "岩見沢市",
    "city_kana": "イワミザワシ",
    "town": "幌向北二条",
    "town_kana": "ホロムイキタ2ジョウ",
    "street": null,
    "office_name": null,
    "office_name_kana": null
  },
  "0383": {
    "postcode": "0690383",
    "prefecture": "北海道",
    "prefecture_kana": "ホッカイドウ",
    "prefecture_code": 1,
    "city": "岩見沢市",
    "city_kana": "イワミザワシ",
    "town": "幌向町",
    "town_kana": "ホロムイチョウ",
    "street": null,
    "office_name": null,
    "office_name_kana": null
  },
  "0384": {
    "postcode": "0690384",
    "prefecture": "北海道",
    "prefecture_kana": "ホッカイドウ",
    "prefecture_code": 1,
    "city": "岩見沢市",
    "city_kana": "イワミザワシ",
    "town": "御茶の水町",
    "town_kana": "オチャノミズチョウ",
    "street": null,
    "office_name": null,
    "office_name_kana": null
  },
  "0801": {
    "postcode": "0690801",
    "prefecture": "北海道",
    "prefecture_kana": "ホッカイドウ",
    "prefecture_code": 1,
    "city": "江別市",
    "city_kana": "エベツシ",
    "town": "中央町",
    "town_kana": "チュウオウチョウ",
    "street": null,
    "office_name": null,
    "office_name_kana": null
  },
  "0802": {
    "postcode": "0690802",
    "prefecture": "北海道",
    "prefecture_kana": "ホッカイドウ",
    "prefecture_code": 1,
    "city": "江別市",
    "city_kana": "エベツシ",
    "town": "野幌寿町",
    "town_kana": "ノッポロコトブキチョウ",
    "street": null,
    "office_name": null,
    "office_name_kana": null
  },
  "0803": {
    "postcode": "0690803",
    "prefecture": "北海道",
    "prefecture_kana": "ホッカイドウ",
    "prefecture_code": 1,
    "city": "江別市",
    "city_kana": "エベツシ",
    "town": "野幌屯田町",
    "town_kana": "ノッポロトンデンチョウ",
    "street": null,
    "office_name": null,
    "office_name_kana": null
  },
  "0804": {
    "postcode": "0690804",
    "prefecture": "北海道",
    "prefecture_kana": "ホッカイドウ",
    "prefecture_code": 1,
    "city": "江別市",
    "city_kana": "エベツシ",
    "town": "野幌美幸町",
    "town_kana": "ノッポロミユキチョウ",
    "street": null,
    "office_name": null,
    "office_name_kana": null
  },
  "0805": {
    "postcode": "0690805",
    "prefecture": "北海道",
    "prefecture_kana": "ホッカイドウ",
    "prefecture_code": 1,
    "city": "江別市",
    "city_kana": "エベツシ",
    "town": "元野幌",
    "town_kana": "モトノッポロ",
    "street": null,
    "office_name": null,
    "office_name_kana": null
  },
  "0806": {
    "postcode": "0690806",
    "prefecture": "北海道",
    "prefecture_kana": "ホッカイドウ",
    "prefecture_code": 1,
    "city": "江別市",
    "city_kana": "エベツシ",
    "town": "新栄台",
    "town_kana": "シンエイダイ",
    "street": null,
    "office_name": null,
    "office_name_kana": null
  },
  "0811": {
    "postcode": "0690811",
    "prefecture": "北海道",
    "prefecture_kana": "ホッカイドウ",
    "prefecture_code": 1,
    "city": "江別市",
    "city_kana": "エベツシ",
    "town": "錦町",
    "town_kana": "ニシキチョウ",
    "street": null,
    "office_name": null,
    "office_name_kana": null
  },
  "0812": {
    "postcode": "0690812",
    "prefecture": "北海道",
    "prefecture_kana": "ホッカイドウ",
    "prefecture_code": 1,
    "city": "江別市",
    "city_kana": "エベツシ",
    "town": "幸町",
    "town_kana": "サイワイチョウ",
    "street": null,
    "office_name": null,
    "office_name_kana": null
  },
  "0813": {
    "postcode": "0690813",
    "prefecture": "北海道",
    "prefecture_kana": "ホッカイドウ",
    "prefecture_code": 1,
    "city": "江別市",
    "city_kana": "エベツシ",
    "town": "野幌町",
    "town_kana": "ノッポロチョウ",
    "street": null,
    "office_name": null,
    "office_name_kana": null
  },
  "0814": {
    "postcode": "0690814",
    "prefecture": "北海道",
    "prefecture_kana": "ホッカイドウ",
    "prefecture_code": 1,
    "city": "江別市",
    "city_kana": "エベツシ",
    "town": "野幌松並町",
    "town_kana": "ノッポロマツナミチョウ",
    "street": null,
    "office_name": null,
    "office_name_kana": null
  },
  "0815": {
    "postcode": "0690815",
    "prefecture": "北海道",
    "prefecture_kana": "ホッカイドウ",
    "prefecture_code": 1,
    "city": "江別市",
    "city_kana": "エベツシ",
    "town": "野幌末広町",
    "town_kana": "ノッポロスエヒロチョウ",
    "street": null,
    "office_name": null,
    "office_name_kana": null
  },
  "0816": {
    "postcode": "0690816",
    "prefecture": "北海道",
    "prefecture_kana": "ホッカイドウ",
    "prefecture_code": 1,
    "city": "江別市",
    "city_kana": "エベツシ",
    "town": "野幌住吉町",
    "town_kana": "ノッポロスミヨシチョウ",
    "street": null,
    "office_name": null,
    "office_name_kana": null
  },
  "0817": {
    "postcode": "0690817",
    "prefecture": "北海道",
    "prefecture_kana": "ホッカイドウ",
    "prefecture_code": 1,
    "city": "江別市",
    "city_kana": "エベツシ",
    "town": "野幌代々木町",
    "town_kana": "ノッポロヨヨギチョウ",
    "street": null,
    "office_name": null,
    "office_name_kana": null
  },
  "0821": {
    "postcode": "0690821",
    "prefecture": "北海道",
    "prefecture_kana": "ホッカイドウ",
    "prefecture_code": 1,
    "city": "江別市",
    "city_kana": "エベツシ",
    "town": "東野幌町",
    "town_kana": "ヒガシノッポロチョウ",
    "street": null,
    "office_name": null,
    "office_name_kana": null
  },
  "0822": {
    "postcode": "0690822",
    "prefecture": "北海道",
    "prefecture_kana": "ホッカイドウ",
    "prefecture_code": 1,
    "city": "江別市",
    "city_kana": "エベツシ",
    "town": "東野幌",
    "town_kana": "ヒガシノッポロ",
    "street": null,
    "office_name": null,
    "office_name_kana": null
  },
  "0823": {
    "postcode": "0690823",
    "prefecture": "北海道",
    "prefecture_kana": "ホッカイドウ",
    "prefecture_code": 1,
    "city": "江別市",
    "city_kana": "エベツシ",
    "town": "緑ケ丘",
    "town_kana": "ミドリガオカ",
    "street": null,
    "office_name": null,
    "office_name_kana": null
  },
  "0824": {
    "postcode": "0690824",
    "prefecture": "北海道",
    "prefecture_kana": "ホッカイドウ",
    "prefecture_code": 1,
    "city": "江別市",
    "city_kana": "エベツシ",
    "town": "東野幌本町",
    "town_kana": "ヒガシノッポロホンチョウ",
    "street": null,
    "office_name": null,
    "office_name_kana": null
  },
  "0825": {
    "postcode": "0690825",
    "prefecture": "北海道",
    "prefecture_kana": "ホッカイドウ",
    "prefecture_code": 1,
    "city": "江別市",
    "city_kana": "エベツシ",
    "town": "野幌東町",
    "town_kana": "ノッポロヒガシマチ",
    "street": null,
    "office_name": null,
    "office_name_kana": null
  },
  "0826": {
    "postcode": "0690826",
    "prefecture": "北海道",
    "prefecture_kana": "ホッカイドウ",
    "prefecture_code": 1,
    "city": "江別市",
    "city_kana": "エベツシ",
    "town": "あさひが丘",
    "town_kana": "アサヒガオカ",
    "street": null,
    "office_name": null,
    "office_name_kana": null
  },
  "0831": {
    "postcode": "0690831",
    "prefecture": "北海道",
    "prefecture_kana": "ホッカイドウ",
    "prefecture_code": 1,
    "city": "江別市",
    "city_kana": "エベツシ",
    "town": "野幌若葉町",
    "town_kana": "ノッポロワカバチョウ",
    "street": null,
    "office_name": null,
    "office_name_kana": null
  },
  "0832": {
    "postcode": "0690832",
    "prefecture": "北海道",
    "prefecture_kana": "ホッカイドウ",
    "prefecture_code": 1,
    "city": "江別市",
    "city_kana": "エベツシ",
    "town": "西野幌",
    "town_kana": "ニシノッポロ",
    "street": null,
    "office_name": null,
    "office_name_kana": null
  },
  "0833": {
    "postcode": "0690833",
    "prefecture": "北海道",
    "prefecture_kana": "ホッカイドウ",
    "prefecture_code": 1,
    "city": "江別市",
    "city_kana": "エベツシ",
    "town": "文京台",
    "town_kana": "ブンキョウダイ",
    "street": null,
    "office_name": null,
    "office_name_kana": null
  },
  "0834": {
    "postcode": "0690834",
    "prefecture": "北海道",
    "prefecture_kana": "ホッカイドウ",
    "prefecture_code": 1,
    "city": "江別市",
    "city_kana": "エベツシ",
    "town": "文京台東町",
    "town_kana": "ブンキョウダイヒガシマチ",
    "street": null,
    "office_name": null,
    "office_name_kana": null
  },
  "0835": {
    "postcode": "0690835",
    "prefecture": "北海道",
    "prefecture_kana": "ホッカイドウ",
    "prefecture_code": 1,
    "city": "江別市",
    "city_kana": "エベツシ",
    "town": "文京台南町",
    "town_kana": "ブンキョウダイミナミマチ",
    "street": null,
    "office_name": null,
    "office_name_kana": null
  },
  "0836": {
    "postcode": "0690836",
    "prefecture": "北海道",
    "prefecture_kana": "ホッカイドウ",
    "prefecture_code": 1,
    "city": "江別市",
    "city_kana": "エベツシ",
    "town": "文京台緑町",
    "town_kana": "ブンキョウダイミドリマチ",
    "street": null,
    "office_name": null,
    "office_name_kana": null
  },
  "0841": {
    "postcode": "0690841",
    "prefecture": "北海道",
    "prefecture_kana": "ホッカイドウ",
    "prefecture_code": 1,
    "city": "江別市",
    "city_kana": "エベツシ",
    "town": "大麻元町",
    "town_kana": "オオアサモトマチ",
    "street": null,
    "office_name": null,
    "office_name_kana": null
  },
  "0842": {
    "postcode": "0690842",
    "prefecture": "北海道",
    "prefecture_kana": "ホッカイドウ",
    "prefecture_code": 1,
    "city": "江別市",
    "city_kana": "エベツシ",
    "town": "大麻沢町",
    "town_kana": "オオアササワマチ",
    "street": null,
    "office_name": null,
    "office_name_kana": null
  },
  "0843": {
    "postcode": "0690843",
    "prefecture": "北海道",
    "prefecture_kana": "ホッカイドウ",
    "prefecture_code": 1,
    "city": "江別市",
    "city_kana": "エベツシ",
    "town": "大麻扇町",
    "town_kana": "オオアサオウギマチ",
    "street": null,
    "office_name": null,
    "office_name_kana": null
  },
  "0844": {
    "postcode": "0690844",
    "prefecture": "北海道",
    "prefecture_kana": "ホッカイドウ",
    "prefecture_code": 1,
    "city": "江別市",
    "city_kana": "エベツシ",
    "town": "大麻西町",
    "town_kana": "オオアサニシマチ",
    "street": null,
    "office_name": null,
    "office_name_kana": null
  },
  "0845": {
    "postcode": "0690845",
    "prefecture": "北海道",
    "prefecture_kana": "ホッカイドウ",
    "prefecture_code": 1,
    "city": "江別市",
    "city_kana": "エベツシ",
    "town": "大麻",
    "town_kana": "オオアサ",
    "street": null,
    "office_name": null,
    "office_name_kana": null
  },
  "0846": {
    "postcode": "0690846",
    "prefecture": "北海道",
    "prefecture_kana": "ホッカイドウ",
    "prefecture_code": 1,
    "city": "江別市",
    "city_kana": "エベツシ",
    "town": "大麻桜木町",
    "town_kana": "オオアササクラギチョウ",
    "street": null,
    "office_name": null,
    "office_name_kana": null
  },
  "0847": {
    "postcode": "0690847",
    "prefecture": "北海道",
    "prefecture_kana": "ホッカイドウ",
    "prefecture_code": 1,
    "city": "江別市",
    "city_kana": "エベツシ",
    "town": "大麻ひかり町",
    "town_kana": "オオアサヒカリマチ",
    "street": null,
    "office_name": null,
    "office_name_kana": null
  },
  "0851": {
    "postcode": "0690851",
    "prefecture": "北海道",
    "prefecture_kana": "ホッカイドウ",
    "prefecture_code": 1,
    "city": "江別市",
    "city_kana": "エベツシ",
    "town": "大麻園町",
    "town_kana": "オオアサソノマチ",
    "street": null,
    "office_name": null,
    "office_name_kana": null
  },
  "0852": {
    "postcode": "0690852",
    "prefecture": "北海道",
    "prefecture_kana": "ホッカイドウ",
    "prefecture_code": 1,
    "city": "江別市",
    "city_kana": "エベツシ",
    "town": "大麻東町",
    "town_kana": "オオアサヒガシマチ",
    "street": null,
    "office_name": null,
    "office_name_kana": null
  },
  "0853": {
    "postcode": "0690853",
    "prefecture": "北海道",
    "prefecture_kana": "ホッカイドウ",
    "prefecture_code": 1,
    "city": "江別市",
    "city_kana": "エベツシ",
    "town": "大麻高町",
    "town_kana": "オオアサタカマチ",
    "street": null,
    "office_name": null,
    "office_name_kana": null
  },
  "0854": {
    "postcode": "0690854",
    "prefecture": "北海道",
    "prefecture_kana": "ホッカイドウ",
    "prefecture_code": 1,
    "city": "江別市",
    "city_kana": "エベツシ",
    "town": "大麻中町",
    "town_kana": "オオアサナカマチ",
    "street": null,
    "office_name": null,
    "office_name_kana": null
  },
  "0855": {
    "postcode": "0690855",
    "prefecture": "北海道",
    "prefecture_kana": "ホッカイドウ",
    "prefecture_code": 1,
    "city": "江別市",
    "city_kana": "エベツシ",
    "town": "大麻宮町",
    "town_kana": "オオアサミヤマチ",
    "street": null,
    "office_name": null,
    "office_name_kana": null
  },
  "0861": {
    "postcode": "0690861",
    "prefecture": "北海道",
    "prefecture_kana": "ホッカイドウ",
    "prefecture_code": 1,
    "city": "江別市",
    "city_kana": "エベツシ",
    "town": "大麻北町",
    "town_kana": "オオアサキタマチ",
    "street": null,
    "office_name": null,
    "office_name_kana": null
  },
  "0862": {
    "postcode": "0690862",
    "prefecture": "北海道",
    "prefecture_kana": "ホッカイドウ",
    "prefecture_code": 1,
    "city": "江別市",
    "city_kana": "エベツシ",
    "town": "大麻栄町",
    "town_kana": "オオアササカエマチ",
    "street": null,
    "office_name": null,
    "office_name_kana": null
  },
  "0863": {
    "postcode": "0690863",
    "prefecture": "北海道",
    "prefecture_kana": "ホッカイドウ",
    "prefecture_code": 1,
    "city": "江別市",
    "city_kana": "エベツシ",
    "town": "大麻新町",
    "town_kana": "オオアサシンマチ",
    "street": null,
    "office_name": null,
    "office_name_kana": null
  },
  "0864": {
    "postcode": "0690864",
    "prefecture": "北海道",
    "prefecture_kana": "ホッカイドウ",
    "prefecture_code": 1,
    "city": "江別市",
    "city_kana": "エベツシ",
    "town": "大麻泉町",
    "town_kana": "オオアサイズミチョウ",
    "street": null,
    "office_name": null,
    "office_name_kana": null
  },
  "0865": {
    "postcode": "0690865",
    "prefecture": "北海道",
    "prefecture_kana": "ホッカイドウ",
    "prefecture_code": 1,
    "city": "江別市",
    "city_kana": "エベツシ",
    "town": "大麻南樹町",
    "town_kana": "オオアサミナキチョウ",
    "street": null,
    "office_name": null,
    "office_name_kana": null
  },
  "0866": {
    "postcode": "0690866",
    "prefecture": "北海道",
    "prefecture_kana": "ホッカイドウ",
    "prefecture_code": 1,
    "city": "江別市",
    "city_kana": "エベツシ",
    "town": "大麻晴美町",
    "town_kana": "オオアサハルミチョウ",
    "street": null,
    "office_name": null,
    "office_name_kana": null
  },
  "0867": {
    "postcode": "0690867",
    "prefecture": "北海道",
    "prefecture_kana": "ホッカイドウ",
    "prefecture_code": 1,
    "city": "江別市",
    "city_kana": "エベツシ",
    "town": "元野幌",
    "town_kana": "モトノッポロ",
    "street": null,
    "office_name": null,
    "office_name_kana": null
  },
  "1131": {
    "postcode": "0691131",
    "prefecture": "北海道",
    "prefecture_kana": "ホッカイドウ",
    "prefecture_code": 1,
    "city": "夕張郡由仁町",
    "city_kana": "ユウバリグンユニチョウ",
    "town": "三川泉町",
    "town_kana": "ミカワイズミマチ",
    "street": null,
    "office_name": null,
    "office_name_kana": null
  },
  "1132": {
    "postcode": "0691132",
    "prefecture": "北海道",
    "prefecture_kana": "ホッカイドウ",
    "prefecture_code": 1,
    "city": "夕張郡由仁町",
    "city_kana": "ユウバリグンユニチョウ",
    "town": "三川錦町",
    "town_kana": "ミカワニシキマチ",
    "street": null,
    "office_name": null,
    "office_name_kana": null
  },
  "1133": {
    "postcode": "0691133",
    "prefecture": "北海道",
    "prefecture_kana": "ホッカイドウ",
    "prefecture_code": 1,
    "city": "夕張郡由仁町",
    "city_kana": "ユウバリグンユニチョウ",
    "town": "三川旭町",
    "town_kana": "ミカワアサヒマチ",
    "street": null,
    "office_name": null,
    "office_name_kana": null
  },
  "1134": {
    "postcode": "0691134",
    "prefecture": "北海道",
    "prefecture_kana": "ホッカイドウ",
    "prefecture_code": 1,
    "city": "夕張郡由仁町",
    "city_kana": "ユウバリグンユニチョウ",
    "town": "三川緑町",
    "town_kana": "ミカワミドリマチ",
    "street": null,
    "office_name": null,
    "office_name_kana": null
  },
  "1135": {
    "postcode": "0691135",
    "prefecture": "北海道",
    "prefecture_kana": "ホッカイドウ",
    "prefecture_code": 1,
    "city": "夕張郡由仁町",
    "city_kana": "ユウバリグンユニチョウ",
    "town": "西三川",
    "town_kana": "ニシミカワ",
    "street": null,
    "office_name": null,
    "office_name_kana": null
  },
  "1136": {
    "postcode": "0691136",
    "prefecture": "北海道",
    "prefecture_kana": "ホッカイドウ",
    "prefecture_code": 1,
    "city": "夕張郡由仁町",
    "city_kana": "ユウバリグンユニチョウ",
    "town": "熊本",
    "town_kana": "クマモト",
    "street": null,
    "office_name": null,
    "office_name_kana": null
  },
  "1141": {
    "postcode": "0691141",
    "prefecture": "北海道",
    "prefecture_kana": "ホッカイドウ",
    "prefecture_code": 1,
    "city": "夕張郡由仁町",
    "city_kana": "ユウバリグンユニチョウ",
    "town": "川端",
    "town_kana": "カワバタ",
    "street": null,
    "office_name": null,
    "office_name_kana": null
  },
  "1142": {
    "postcode": "0691142",
    "prefecture": "北海道",
    "prefecture_kana": "ホッカイドウ",
    "prefecture_code": 1,
    "city": "夕張郡由仁町",
    "city_kana": "ユウバリグンユニチョウ",
    "town": "東三川",
    "town_kana": "ヒガシミカワ",
    "street": null,
    "office_name": null,
    "office_name_kana": null
  },
  "1143": {
    "postcode": "0691143",
    "prefecture": "北海道",
    "prefecture_kana": "ホッカイドウ",
    "prefecture_code": 1,
    "city": "夕張郡由仁町",
    "city_kana": "ユウバリグンユニチョウ",
    "town": "中三川",
    "town_kana": "ナカミカワ",
    "street": null,
    "office_name": null,
    "office_name_kana": null
  },
  "1144": {
    "postcode": "0691144",
    "prefecture": "北海道",
    "prefecture_kana": "ホッカイドウ",
    "prefecture_code": 1,
    "city": "夕張郡由仁町",
    "city_kana": "ユウバリグンユニチョウ",
    "town": "本三川",
    "town_kana": "モトミカワ",
    "street": null,
    "office_name": null,
    "office_name_kana": null
  },
  "1181": {
    "postcode": "0691181",
    "prefecture": "北海道",
    "prefecture_kana": "ホッカイドウ",
    "prefecture_code": 1,
    "city": "千歳市",
    "city_kana": "チトセシ",
    "town": "東丘",
    "town_kana": "ヒガシオカ",
    "street": null,
    "office_name": null,
    "office_name_kana": null
  },
  "1182": {
    "postcode": "0691182",
    "prefecture": "北海道",
    "prefecture_kana": "ホッカイドウ",
    "prefecture_code": 1,
    "city": "千歳市",
    "city_kana": "チトセシ",
    "town": "協和",
    "town_kana": "キョウワ",
    "street": null,
    "office_name": null,
    "office_name_kana": null
  },
  "1183": {
    "postcode": "0691183",
    "prefecture": "北海道",
    "prefecture_kana": "ホッカイドウ",
    "prefecture_code": 1,
    "city": "千歳市",
    "city_kana": "チトセシ",
    "town": "幌加",
    "town_kana": "ホロカ",
    "street": null,
    "office_name": null,
    "office_name_kana": null
  },
  "1184": {
    "postcode": "0691184",
    "prefecture": "北海道",
    "prefecture_kana": "ホッカイドウ",
    "prefecture_code": 1,
    "city": "千歳市",
    "city_kana": "チトセシ",
    "town": "新川",
    "town_kana": "ニイカワ",
    "street": null,
    "office_name": null,
    "office_name_kana": null
  },
  "1200": {
    "postcode": "0691200",
    "prefecture": "北海道",
    "prefecture_kana": "ホッカイドウ",
    "prefecture_code": 1,
    "city": "夕張郡由仁町",
    "city_kana": "ユウバリグンユニチョウ",
    "town": "",
    "town_kana": "",
    "street": null,
    "office_name": null,
    "office_name_kana": null
  },
  "1201": {
    "postcode": "0691201",
    "prefecture": "北海道",
    "prefecture_kana": "ホッカイドウ",
    "prefecture_code": 1,
    "city": "夕張郡由仁町",
    "city_kana": "ユウバリグンユニチョウ",
    "town": "北栄",
    "town_kana": "ホクエイ",
    "street": null,
    "office_name": null,
    "office_name_kana": null
  },
  "1202": {
    "postcode": "0691202",
    "prefecture": "北海道",
    "prefecture_kana": "ホッカイドウ",
    "prefecture_code": 1,
    "city": "夕張郡由仁町",
    "city_kana": "ユウバリグンユニチョウ",
    "town": "古川",
    "town_kana": "フルカワ",
    "street": null,
    "office_name": null,
    "office_name_kana": null
  },
  "1203": {
    "postcode": "0691203",
    "prefecture": "北海道",
    "prefecture_kana": "ホッカイドウ",
    "prefecture_code": 1,
    "city": "夕張郡由仁町",
    "city_kana": "ユウバリグンユニチョウ",
    "town": "東栄",
    "town_kana": "トウエイ",
    "street": null,
    "office_name": null,
    "office_name_kana": null
  },
  "1204": {
    "postcode": "0691204",
    "prefecture": "北海道",
    "prefecture_kana": "ホッカイドウ",
    "prefecture_code": 1,
    "city": "夕張郡由仁町",
    "city_kana": "ユウバリグンユニチョウ",
    "town": "新光",
    "town_kana": "シンコウ",
    "street": null,
    "office_name": null,
    "office_name_kana": null
  },
  "1205": {
    "postcode": "0691205",
    "prefecture": "北海道",
    "prefecture_kana": "ホッカイドウ",
    "prefecture_code": 1,
    "city": "夕張郡由仁町",
    "city_kana": "ユウバリグンユニチョウ",
    "town": "中央",
    "town_kana": "チュウオウ",
    "street": null,
    "office_name": null,
    "office_name_kana": null
  },
  "1206": {
    "postcode": "0691206",
    "prefecture": "北海道",
    "prefecture_kana": "ホッカイドウ",
    "prefecture_code": 1,
    "city": "夕張郡由仁町",
    "city_kana": "ユウバリグンユニチョウ",
    "town": "本町",
    "town_kana": "ホンマチ",
    "street": null,
    "office_name": null,
    "office_name_kana": null
  },
  "1207": {
    "postcode": "0691207",
    "prefecture": "北海道",
    "prefecture_kana": "ホッカイドウ",
    "prefecture_code": 1,
    "city": "夕張郡由仁町",
    "city_kana": "ユウバリグンユニチョウ",
    "town": "馬追",
    "town_kana": "ウマオイ",
    "street": null,
    "office_name": null,
    "office_name_kana": null
  },
  "1208": {
    "postcode": "0691208",
    "prefecture": "北海道",
    "prefecture_kana": "ホッカイドウ",
    "prefecture_code": 1,
    "city": "夕張郡由仁町",
    "city_kana": "ユウバリグンユニチョウ",
    "town": "山形",
    "town_kana": "ヤマガタ",
    "street": null,
    "office_name": null,
    "office_name_kana": null
  },
  "1211": {
    "postcode": "0691211",
    "prefecture": "北海道",
    "prefecture_kana": "ホッカイドウ",
    "prefecture_code": 1,
    "city": "夕張郡由仁町",
    "city_kana": "ユウバリグンユニチョウ",
    "town": "岩内",
    "town_kana": "イワナイ",
    "street": null,
    "office_name": null,
    "office_name_kana": null
  },
  "1212": {
    "postcode": "0691212",
    "prefecture": "北海道",
    "prefecture_kana": "ホッカイドウ",
    "prefecture_code": 1,
    "city": "夕張郡由仁町",
    "city_kana": "ユウバリグンユニチョウ",
    "town": "山桝",
    "town_kana": "ヤママス",
    "street": null,
    "office_name": null,
    "office_name_kana": null
  },
  "1213": {
    "postcode": "0691213",
    "prefecture": "北海道",
    "prefecture_kana": "ホッカイドウ",
    "prefecture_code": 1,
    "city": "夕張郡由仁町",
    "city_kana": "ユウバリグンユニチョウ",
    "town": "本三川",
    "town_kana": "モトミカワ",
    "street": null,
    "office_name": null,
    "office_name_kana": null
  },
  "1214": {
    "postcode": "0691214",
    "prefecture": "北海道",
    "prefecture_kana": "ホッカイドウ",
    "prefecture_code": 1,
    "city": "夕張郡由仁町",
    "city_kana": "ユウバリグンユニチョウ",
    "town": "西三川",
    "town_kana": "ニシミカワ",
    "street": null,
    "office_name": null,
    "office_name_kana": null
  },
  "1215": {
    "postcode": "0691215",
    "prefecture": "北海道",
    "prefecture_kana": "ホッカイドウ",
    "prefecture_code": 1,
    "city": "夕張郡由仁町",
    "city_kana": "ユウバリグンユニチョウ",
    "town": "熊本",
    "town_kana": "クマモト",
    "street": null,
    "office_name": null,
    "office_name_kana": null
  },
  "1216": {
    "postcode": "0691216",
    "prefecture": "北海道",
    "prefecture_kana": "ホッカイドウ",
    "prefecture_code": 1,
    "city": "夕張郡由仁町",
    "city_kana": "ユウバリグンユニチョウ",
    "town": "古山",
    "town_kana": "フルサン",
    "street": null,
    "office_name": null,
    "office_name_kana": null
  },
  "1217": {
    "postcode": "0691217",
    "prefecture": "北海道",
    "prefecture_kana": "ホッカイドウ",
    "prefecture_code": 1,
    "city": "夕張郡由仁町",
    "city_kana": "ユウバリグンユニチョウ",
    "town": "光栄",
    "town_kana": "コウエイ",
    "street": null,
    "office_name": null,
    "office_name_kana": null
  },
  "1218": {
    "postcode": "0691218",
    "prefecture": "北海道",
    "prefecture_kana": "ホッカイドウ",
    "prefecture_code": 1,
    "city": "夕張郡由仁町",
    "city_kana": "ユウバリグンユニチョウ",
    "town": "伏見",
    "town_kana": "フシミ",
    "street": null,
    "office_name": null,
    "office_name_kana": null
  },
  "1219": {
    "postcode": "0691219",
    "prefecture": "北海道",
    "prefecture_kana": "ホッカイドウ",
    "prefecture_code": 1,
    "city": "夕張郡由仁町",
    "city_kana": "ユウバリグンユニチョウ",
    "town": "東光",
    "town_kana": "トウコウ",
    "street": null,
    "office_name": null,
    "office_name_kana": null
  },
  "1292": {
    "postcode": "0691292",
    "prefecture": "北海道",
    "prefecture_kana": "ホッカイドウ",
    "prefecture_code": 1,
    "city": "夕張郡由仁町",
    "city_kana": "ユウバリグンユニチョウ",
    "town": "新光",
    "town_kana": "シンコウ",
    "street": "２００",
    "office_name": "由仁町役場",
    "office_name_kana": "ユニチヨウヤクバ"
  },
  "1293": {
    "postcode": "0691293",
    "prefecture": "北海道",
    "prefecture_kana": "ホッカイドウ",
    "prefecture_code": 1,
    "city": "夕張郡由仁町",
    "city_kana": "ユウバリグンユニチョウ",
    "town": "新光",
    "town_kana": "シンコウ",
    "street": "１６２",
    "office_name": "由仁町立由仁中学校",
    "office_name_kana": "ユニチヨウリツユニチユウガツコウ"
  },
  "1296": {
    "postcode": "0691296",
    "prefecture": "北海道",
    "prefecture_kana": "ホッカイドウ",
    "prefecture_code": 1,
    "city": "夕張郡由仁町",
    "city_kana": "ユウバリグンユニチョウ",
    "town": "本町",
    "town_kana": "ホンマチ",
    "street": "１５１",
    "office_name": "そらち南農業協同組合　由仁支所",
    "office_name_kana": "ソラチミナミノウギヨウキヨウドウクミアイ ユニシシヨ"
  },
  "1297": {
    "postcode": "0691297",
    "prefecture": "北海道",
    "prefecture_kana": "ホッカイドウ",
    "prefecture_code": 1,
    "city": "夕張郡由仁町",
    "city_kana": "ユウバリグンユニチョウ",
    "town": "本町",
    "town_kana": "ホンマチ",
    "street": "１４８番地",
    "office_name": "空知信用金庫　由仁支店",
    "office_name_kana": "ソラチシンヨウキンコ ユニシテン"
  },
  "1298": {
    "postcode": "0691298",
    "prefecture": "北海道",
    "prefecture_kana": "ホッカイドウ",
    "prefecture_code": 1,
    "city": "夕張郡由仁町",
    "city_kana": "ユウバリグンユニチョウ",
    "town": "中央",
    "town_kana": "チュウオウ",
    "street": "２７",
    "office_name": "由仁町商工会",
    "office_name_kana": "ユニチヨウシヨウコウカイ"
  },
  "1300": {
    "postcode": "0691300",
    "prefecture": "北海道",
    "prefecture_kana": "ホッカイドウ",
    "prefecture_code": 1,
    "city": "夕張郡長沼町",
    "city_kana": "ユウバリグンナガヌマチョウ",
    "town": "",
    "town_kana": "",
    "street": null,
    "office_name": null,
    "office_name_kana": null
  },
  "1301": {
    "postcode": "0691301",
    "prefecture": "北海道",
    "prefecture_kana": "ホッカイドウ",
    "prefecture_code": 1,
    "city": "夕張郡長沼町",
    "city_kana": "ユウバリグンナガヌマチョウ",
    "town": "１区",
    "town_kana": "1ク",
    "street": null,
    "office_name": null,
    "office_name_kana": null
  },
  "1302": {
    "postcode": "0691302",
    "prefecture": "北海道",
    "prefecture_kana": "ホッカイドウ",
    "prefecture_code": 1,
    "city": "夕張郡長沼町",
    "city_kana": "ユウバリグンナガヌマチョウ",
    "town": "２区",
    "town_kana": "2ク",
    "street": null,
    "office_name": null,
    "office_name_kana": null
  },
  "1303": {
    "postcode": "0691303",
    "prefecture": "北海道",
    "prefecture_kana": "ホッカイドウ",
    "prefecture_code": 1,
    "city": "夕張郡長沼町",
    "city_kana": "ユウバリグンナガヌマチョウ",
    "town": "３区",
    "town_kana": "3ク",
    "street": null,
    "office_name": null,
    "office_name_kana": null
  },
  "1304": [
    {
      "postcode": "0691304",
      "prefecture": "北海道",
      "prefecture_kana": "ホッカイドウ",
      "prefecture_code": 1,
      "city": "夕張郡長沼町",
      "city_kana": "ユウバリグンナガヌマチョウ",
      "town": "北市区",
      "town_kana": "キタイチク",
      "street": null,
      "office_name": null,
      "office_name_kana": null
    },
    {
      "postcode": "0691304",
      "prefecture": "北海道",
      "prefecture_kana": "ホッカイドウ",
      "prefecture_code": 1,
      "city": "夕張郡長沼町",
      "city_kana": "ユウバリグンナガヌマチョウ",
      "town": "４区",
      "town_kana": "4ク",
      "street": null,
      "office_name": null,
      "office_name_kana": null
    }
  ],
  "1305": {
    "postcode": "0691305",
    "prefecture": "北海道",
    "prefecture_kana": "ホッカイドウ",
    "prefecture_code": 1,
    "city": "夕張郡長沼町",
    "city_kana": "ユウバリグンナガヌマチョウ",
    "town": "５区",
    "town_kana": "5ク",
    "street": null,
    "office_name": null,
    "office_name_kana": null
  },
  "1306": {
    "postcode": "0691306",
    "prefecture": "北海道",
    "prefecture_kana": "ホッカイドウ",
    "prefecture_code": 1,
    "city": "夕張郡長沼町",
    "city_kana": "ユウバリグンナガヌマチョウ",
    "town": "６区",
    "town_kana": "6ク",
    "street": null,
    "office_name": null,
    "office_name_kana": null
  },
  "1307": {
    "postcode": "0691307",
    "prefecture": "北海道",
    "prefecture_kana": "ホッカイドウ",
    "prefecture_code": 1,
    "city": "夕張郡長沼町",
    "city_kana": "ユウバリグンナガヌマチョウ",
    "town": "７区",
    "town_kana": "7ク",
    "street": null,
    "office_name": null,
    "office_name_kana": null
  },
  "1308": {
    "postcode": "0691308",
    "prefecture": "北海道",
    "prefecture_kana": "ホッカイドウ",
    "prefecture_code": 1,
    "city": "夕張郡長沼町",
    "city_kana": "ユウバリグンナガヌマチョウ",
    "town": "８区",
    "town_kana": "8ク",
    "street": null,
    "office_name": null,
    "office_name_kana": null
  },
  "1309": {
    "postcode": "0691309",
    "prefecture": "北海道",
    "prefecture_kana": "ホッカイドウ",
    "prefecture_code": 1,
    "city": "夕張郡長沼町",
    "city_kana": "ユウバリグンナガヌマチョウ",
    "town": "９区",
    "town_kana": "9ク",
    "street": null,
    "office_name": null,
    "office_name_kana": null
  },
  "1310": {
    "postcode": "0691310",
    "prefecture": "北海道",
    "prefecture_kana": "ホッカイドウ",
    "prefecture_code": 1,
    "city": "夕張郡長沼町",
    "city_kana": "ユウバリグンナガヌマチョウ",
    "town": "１０区",
    "town_kana": "10ク",
    "street": null,
    "office_name": null,
    "office_name_kana": null
  },
  "1311": [
    {
      "postcode": "0691311",
      "prefecture": "北海道",
      "prefecture_kana": "ホッカイドウ",
      "prefecture_code": 1,
      "city": "夕張郡長沼町",
      "city_kana": "ユウバリグンナガヌマチョウ",
      "town": "フシコ",
      "town_kana": "フシコ",
      "street": null,
      "office_name": null,
      "office_name_kana": null
    },
    {
      "postcode": "0691311",
      "prefecture": "北海道",
      "prefecture_kana": "ホッカイドウ",
      "prefecture_code": 1,
      "city": "夕張郡長沼町",
      "city_kana": "ユウバリグンナガヌマチョウ",
      "town": "１１区",
      "town_kana": "11ク",
      "street": null,
      "office_name": null,
      "office_name_kana": null
    }
  ],
  "1312": {
    "postcode": "0691312",
    "prefecture": "北海道",
    "prefecture_kana": "ホッカイドウ",
    "prefecture_code": 1,
    "city": "夕張郡長沼町",
    "city_kana": "ユウバリグンナガヌマチョウ",
    "town": "１２区",
    "town_kana": "12ク",
    "street": null,
    "office_name": null,
    "office_name_kana": null
  },
  "1313": {
    "postcode": "0691313",
    "prefecture": "北海道",
    "prefecture_kana": "ホッカイドウ",
    "prefecture_code": 1,
    "city": "夕張郡長沼町",
    "city_kana": "ユウバリグンナガヌマチョウ",
    "town": "１３区",
    "town_kana": "13ク",
    "street": null,
    "office_name": null,
    "office_name_kana": null
  },
  "1314": {
    "postcode": "0691314",
    "prefecture": "北海道",
    "prefecture_kana": "ホッカイドウ",
    "prefecture_code": 1,
    "city": "夕張郡長沼町",
    "city_kana": "ユウバリグンナガヌマチョウ",
    "town": "１４区",
    "town_kana": "14ク",
    "street": null,
    "office_name": null,
    "office_name_kana": null
  },
  "1315": [
    {
      "postcode": "0691315",
      "prefecture": "北海道",
      "prefecture_kana": "ホッカイドウ",
      "prefecture_code": 1,
      "city": "夕張郡長沼町",
      "city_kana": "ユウバリグンナガヌマチョウ",
      "town": "南町",
      "town_kana": "ミナミマチ",
      "street": null,
      "office_name": null,
      "office_name_kana": null
    },
    {
      "postcode": "0691315",
      "prefecture": "北海道",
      "prefecture_kana": "ホッカイドウ",
      "prefecture_code": 1,
      "city": "夕張郡長沼町",
      "city_kana": "ユウバリグンナガヌマチョウ",
      "town": "１５区",
      "town_kana": "15ク",
      "street": null,
      "office_name": null,
      "office_name_kana": null
    }
  ],
  "1316": [
    {
      "postcode": "0691316",
      "prefecture": "北海道",
      "prefecture_kana": "ホッカイドウ",
      "prefecture_code": 1,
      "city": "夕張郡長沼町",
      "city_kana": "ユウバリグンナガヌマチョウ",
      "town": "加賀団体",
      "town_kana": "カガダンタイ",
      "street": null,
      "office_name": null,
      "office_name_kana": null
    },
    {
      "postcode": "0691316",
      "prefecture": "北海道",
      "prefecture_kana": "ホッカイドウ",
      "prefecture_code": 1,
      "city": "夕張郡長沼町",
      "city_kana": "ユウバリグンナガヌマチョウ",
      "town": "１６区",
      "town_kana": "16ク",
      "street": null,
      "office_name": null,
      "office_name_kana": null
    }
  ],
  "1317": [
    {
      "postcode": "0691317",
      "prefecture": "北海道",
      "prefecture_kana": "ホッカイドウ",
      "prefecture_code": 1,
      "city": "夕張郡長沼町",
      "city_kana": "ユウバリグンナガヌマチョウ",
      "town": "東１線北",
      "town_kana": "ヒガシ1センキタ",
      "street": null,
      "office_name": null,
      "office_name_kana": null
    },
    {
      "postcode": "0691317",
      "prefecture": "北海道",
      "prefecture_kana": "ホッカイドウ",
      "prefecture_code": 1,
      "city": "夕張郡長沼町",
      "city_kana": "ユウバリグンナガヌマチョウ",
      "town": "東２線北",
      "town_kana": "ヒガシ2センキタ",
      "street": null,
      "office_name": null,
      "office_name_kana": null
    },
    {
      "postcode": "0691317",
      "prefecture": "北海道",
      "prefecture_kana": "ホッカイドウ",
      "prefecture_code": 1,
      "city": "夕張郡長沼町",
      "city_kana": "ユウバリグンナガヌマチョウ",
      "town": "東３線北",
      "town_kana": "ヒガシ3センキタ",
      "street": null,
      "office_name": null,
      "office_name_kana": null
    },
    {
      "postcode": "0691317",
      "prefecture": "北海道",
      "prefecture_kana": "ホッカイドウ",
      "prefecture_code": 1,
      "city": "夕張郡長沼町",
      "city_kana": "ユウバリグンナガヌマチョウ",
      "town": "東４線北",
      "town_kana": "ヒガシ4センキタ",
      "street": null,
      "office_name": null,
      "office_name_kana": null
    },
    {
      "postcode": "0691317",
      "prefecture": "北海道",
      "prefecture_kana": "ホッカイドウ",
      "prefecture_code": 1,
      "city": "夕張郡長沼町",
      "city_kana": "ユウバリグンナガヌマチョウ",
      "town": "東５線北",
      "town_kana": "ヒガシ5センキタ",
      "street": null,
      "office_name": null,
      "office_name_kana": null
    },
    {
      "postcode": "0691317",
      "prefecture": "北海道",
      "prefecture_kana": "ホッカイドウ",
      "prefecture_code": 1,
      "city": "夕張郡長沼町",
      "city_kana": "ユウバリグンナガヌマチョウ",
      "town": "東６線北",
      "town_kana": "ヒガシ6センキタ",
      "street": null,
      "office_name": null,
      "office_name_kana": null
    },
    {
      "postcode": "0691317",
      "prefecture": "北海道",
      "prefecture_kana": "ホッカイドウ",
      "prefecture_code": 1,
      "city": "夕張郡長沼町",
      "city_kana": "ユウバリグンナガヌマチョウ",
      "town": "東７線北",
      "town_kana": "ヒガシ7センキタ",
      "street": null,
      "office_name": null,
      "office_name_kana": null
    },
    {
      "postcode": "0691317",
      "prefecture": "北海道",
      "prefecture_kana": "ホッカイドウ",
      "prefecture_code": 1,
      "city": "夕張郡長沼町",
      "city_kana": "ユウバリグンナガヌマチョウ",
      "town": "東８線北",
      "town_kana": "ヒガシ8センキタ",
      "street": null,
      "office_name": null,
      "office_name_kana": null
    },
    {
      "postcode": "0691317",
      "prefecture": "北海道",
      "prefecture_kana": "ホッカイドウ",
      "prefecture_code": 1,
      "city": "夕張郡長沼町",
      "city_kana": "ユウバリグンナガヌマチョウ",
      "town": "東９線北",
      "town_kana": "ヒガシ9センキタ",
      "street": null,
      "office_name": null,
      "office_name_kana": null
    },
    {
      "postcode": "0691317",
      "prefecture": "北海道",
      "prefecture_kana": "ホッカイドウ",
      "prefecture_code": 1,
      "city": "夕張郡長沼町",
      "city_kana": "ユウバリグンナガヌマチョウ",
      "town": "東１０線北",
      "town_kana": "ヒガシ10センキタ",
      "street": null,
      "office_name": null,
      "office_name_kana": null
    },
    {
      "postcode": "0691317",
      "prefecture": "北海道",
      "prefecture_kana": "ホッカイドウ",
      "prefecture_code": 1,
      "city": "夕張郡長沼町",
      "city_kana": "ユウバリグンナガヌマチョウ",
      "town": "東１１線北",
      "town_kana": "ヒガシ11センキタ",
      "street": null,
      "office_name": null,
      "office_name_kana": null
    }
  ],
  "1318": [
    {
      "postcode": "0691318",
      "prefecture": "北海道",
      "prefecture_kana": "ホッカイドウ",
      "prefecture_code": 1,
      "city": "夕張郡長沼町",
      "city_kana": "ユウバリグンナガヌマチョウ",
      "town": "西１線北",
      "town_kana": "ニシ1センキタ",
      "street": null,
      "office_name": null,
      "office_name_kana": null
    },
    {
      "postcode": "0691318",
      "prefecture": "北海道",
      "prefecture_kana": "ホッカイドウ",
      "prefecture_code": 1,
      "city": "夕張郡長沼町",
      "city_kana": "ユウバリグンナガヌマチョウ",
      "town": "西２線北",
      "town_kana": "ニシ2センキタ",
      "street": null,
      "office_name": null,
      "office_name_kana": null
    },
    {
      "postcode": "0691318",
      "prefecture": "北海道",
      "prefecture_kana": "ホッカイドウ",
      "prefecture_code": 1,
      "city": "夕張郡長沼町",
      "city_kana": "ユウバリグンナガヌマチョウ",
      "town": "西３線北",
      "town_kana": "ニシ3センキタ",
      "street": null,
      "office_name": null,
      "office_name_kana": null
    },
    {
      "postcode": "0691318",
      "prefecture": "北海道",
      "prefecture_kana": "ホッカイドウ",
      "prefecture_code": 1,
      "city": "夕張郡長沼町",
      "city_kana": "ユウバリグンナガヌマチョウ",
      "town": "西４線北",
      "town_kana": "ニシ4センキタ",
      "street": null,
      "office_name": null,
      "office_name_kana": null
    },
    {
      "postcode": "0691318",
      "prefecture": "北海道",
      "prefecture_kana": "ホッカイドウ",
      "prefecture_code": 1,
      "city": "夕張郡長沼町",
      "city_kana": "ユウバリグンナガヌマチョウ",
      "town": "西５線北",
      "town_kana": "ニシ5センキタ",
      "street": null,
      "office_name": null,
      "office_name_kana": null
    },
    {
      "postcode": "0691318",
      "prefecture": "北海道",
      "prefecture_kana": "ホッカイドウ",
      "prefecture_code": 1,
      "city": "夕張郡長沼町",
      "city_kana": "ユウバリグンナガヌマチョウ",
      "town": "西６線北",
      "town_kana": "ニシ6センキタ",
      "street": null,
      "office_name": null,
      "office_name_kana": null
    },
    {
      "postcode": "0691318",
      "prefecture": "北海道",
      "prefecture_kana": "ホッカイドウ",
      "prefecture_code": 1,
      "city": "夕張郡長沼町",
      "city_kana": "ユウバリグンナガヌマチョウ",
      "town": "西７線北",
      "town_kana": "ニシ7センキタ",
      "street": null,
      "office_name": null,
      "office_name_kana": null
    },
    {
      "postcode": "0691318",
      "prefecture": "北海道",
      "prefecture_kana": "ホッカイドウ",
      "prefecture_code": 1,
      "city": "夕張郡長沼町",
      "city_kana": "ユウバリグンナガヌマチョウ",
      "town": "西８線北",
      "town_kana": "ニシ8センキタ",
      "street": null,
      "office_name": null,
      "office_name_kana": null
    }
  ],
  "1320": {
    "postcode": "0691320",
    "prefecture": "北海道",
    "prefecture_kana": "ホッカイドウ",
    "prefecture_code": 1,
    "city": "夕張郡長沼町",
    "city_kana": "ユウバリグンナガヌマチョウ",
    "town": "市街地",
    "town_kana": "シガイチ",
    "street": null,
    "office_name": null,
    "office_name_kana": null
  },
  "1321": {
    "postcode": "0691321",
    "prefecture": "北海道",
    "prefecture_kana": "ホッカイドウ",
    "prefecture_code": 1,
    "city": "夕張郡長沼町",
    "city_kana": "ユウバリグンナガヌマチョウ",
    "town": "馬追",
    "town_kana": "ウマオイ",
    "street": null,
    "office_name": null,
    "office_name_kana": null
  },
  "1322": {
    "postcode": "0691322",
    "prefecture": "北海道",
    "prefecture_kana": "ホッカイドウ",
    "prefecture_code": 1,
    "city": "夕張郡長沼町",
    "city_kana": "ユウバリグンナガヌマチョウ",
    "town": "馬追原野",
    "town_kana": "ウマオイゲンヤ",
    "street": null,
    "office_name": null,
    "office_name_kana": null
  },
  "1329": [
    {
      "postcode": "0691329",
      "prefecture": "北海道",
      "prefecture_kana": "ホッカイドウ",
      "prefecture_code": 1,
      "city": "夕張郡長沼町",
      "city_kana": "ユウバリグンナガヌマチョウ",
      "town": "木詰",
      "town_kana": "キヅマリ",
      "street": null,
      "office_name": null,
      "office_name_kana": null
    },
    {
      "postcode": "0691329",
      "prefecture": "北海道",
      "prefecture_kana": "ホッカイドウ",
      "prefecture_code": 1,
      "city": "夕張郡長沼町",
      "city_kana": "ユウバリグンナガヌマチョウ",
      "town": "幌向原野",
      "town_kana": "ホロムイゲンヤ",
      "street": null,
      "office_name": null,
      "office_name_kana": null
    },
    {
      "postcode": "0691329",
      "prefecture": "北海道",
      "prefecture_kana": "ホッカイドウ",
      "prefecture_code": 1,
      "city": "夕張郡長沼町",
      "city_kana": "ユウバリグンナガヌマチョウ",
      "town": "２９区",
      "town_kana": "29ク",
      "street": null,
      "office_name": null,
      "office_name_kana": null
    }
  ],
  "1331": {
    "postcode": "0691331",
    "prefecture": "北海道",
    "prefecture_kana": "ホッカイドウ",
    "prefecture_code": 1,
    "city": "夕張郡長沼町",
    "city_kana": "ユウバリグンナガヌマチョウ",
    "town": "銀座",
    "town_kana": "ギンザ",
    "street": null,
    "office_name": null,
    "office_name_kana": null
  },
  "1332": {
    "postcode": "0691332",
    "prefecture": "北海道",
    "prefecture_kana": "ホッカイドウ",
    "prefecture_code": 1,
    "city": "夕張郡長沼町",
    "city_kana": "ユウバリグンナガヌマチョウ",
    "town": "中央",
    "town_kana": "チュウオウ",
    "street": null,
    "office_name": null,
    "office_name_kana": null
  },
  "1333": {
    "postcode": "0691333",
    "prefecture": "北海道",
    "prefecture_kana": "ホッカイドウ",
    "prefecture_code": 1,
    "city": "夕張郡長沼町",
    "city_kana": "ユウバリグンナガヌマチョウ",
    "town": "本町",
    "town_kana": "ホンチョウ",
    "street": null,
    "office_name": null,
    "office_name_kana": null
  },
  "1334": [
    {
      "postcode": "0691334",
      "prefecture": "北海道",
      "prefecture_kana": "ホッカイドウ",
      "prefecture_code": 1,
      "city": "夕張郡長沼町",
      "city_kana": "ユウバリグンナガヌマチョウ",
      "town": "錦町北",
      "town_kana": "ニシキマチキタ",
      "street": null,
      "office_name": null,
      "office_name_kana": null
    },
    {
      "postcode": "0691334",
      "prefecture": "北海道",
      "prefecture_kana": "ホッカイドウ",
      "prefecture_code": 1,
      "city": "夕張郡長沼町",
      "city_kana": "ユウバリグンナガヌマチョウ",
      "town": "錦町南",
      "town_kana": "ニシキマチミナミ",
      "street": null,
      "office_name": null,
      "office_name_kana": null
    }
  ],
  "1335": {
    "postcode": "0691335",
    "prefecture": "北海道",
    "prefecture_kana": "ホッカイドウ",
    "prefecture_code": 1,
    "city": "夕張郡長沼町",
    "city_kana": "ユウバリグンナガヌマチョウ",
    "town": "あかね",
    "town_kana": "アカネ",
    "street": null,
    "office_name": null,
    "office_name_kana": null
  },
  "1336": [
    {
      "postcode": "0691336",
      "prefecture": "北海道",
      "prefecture_kana": "ホッカイドウ",
      "prefecture_code": 1,
      "city": "夕張郡長沼町",
      "city_kana": "ユウバリグンナガヌマチョウ",
      "town": "川沿",
      "town_kana": "カワゾイ",
      "street": null,
      "office_name": null,
      "office_name_kana": null
    },
    {
      "postcode": "0691336",
      "prefecture": "北海道",
      "prefecture_kana": "ホッカイドウ",
      "prefecture_code": 1,
      "city": "夕張郡長沼町",
      "city_kana": "ユウバリグンナガヌマチョウ",
      "town": "栄町",
      "town_kana": "サカエマチ",
      "street": null,
      "office_name": null,
      "office_name_kana": null
    }
  ],
  "1341": {
    "postcode": "0691341",
    "prefecture": "北海道",
    "prefecture_kana": "ホッカイドウ",
    "prefecture_code": 1,
    "city": "夕張郡長沼町",
    "city_kana": "ユウバリグンナガヌマチョウ",
    "town": "宮下",
    "town_kana": "ミヤシタ",
    "street": null,
    "office_name": null,
    "office_name_kana": null
  },
  "1342": {
    "postcode": "0691342",
    "prefecture": "北海道",
    "prefecture_kana": "ホッカイドウ",
    "prefecture_code": 1,
    "city": "夕張郡長沼町",
    "city_kana": "ユウバリグンナガヌマチョウ",
    "town": "東町",
    "town_kana": "ヒガシマチ",
    "street": null,
    "office_name": null,
    "office_name_kana": null
  },
  "1343": {
    "postcode": "0691343",
    "prefecture": "北海道",
    "prefecture_kana": "ホッカイドウ",
    "prefecture_code": 1,
    "city": "夕張郡長沼町",
    "city_kana": "ユウバリグンナガヌマチョウ",
    "town": "旭町",
    "town_kana": "アサヒマチ",
    "street": null,
    "office_name": null,
    "office_name_kana": null
  },
  "1344": {
    "postcode": "0691344",
    "prefecture": "北海道",
    "prefecture_kana": "ホッカイドウ",
    "prefecture_code": 1,
    "city": "夕張郡長沼町",
    "city_kana": "ユウバリグンナガヌマチョウ",
    "town": "曙町",
    "town_kana": "アケボノチョウ",
    "street": null,
    "office_name": null,
    "office_name_kana": null
  },
  "1345": {
    "postcode": "0691345",
    "prefecture": "北海道",
    "prefecture_kana": "ホッカイドウ",
    "prefecture_code": 1,
    "city": "夕張郡長沼町",
    "city_kana": "ユウバリグンナガヌマチョウ",
    "town": "しらかば",
    "town_kana": "シラカバ",
    "street": null,
    "office_name": null,
    "office_name_kana": null
  },
  "1346": {
    "postcode": "0691346",
    "prefecture": "北海道",
    "prefecture_kana": "ホッカイドウ",
    "prefecture_code": 1,
    "city": "夕張郡長沼町",
    "city_kana": "ユウバリグンナガヌマチョウ",
    "town": "西町",
    "town_kana": "ニシマチ",
    "street": null,
    "office_name": null,
    "office_name_kana": null
  },
  "1347": {
    "postcode": "0691347",
    "prefecture": "北海道",
    "prefecture_kana": "ホッカイドウ",
    "prefecture_code": 1,
    "city": "夕張郡長沼町",
    "city_kana": "ユウバリグンナガヌマチョウ",
    "town": "北町",
    "town_kana": "キタマチ",
    "street": null,
    "office_name": null,
    "office_name_kana": null
  },
  "1392": {
    "postcode": "0691392",
    "prefecture": "北海道",
    "prefecture_kana": "ホッカイドウ",
    "prefecture_code": 1,
    "city": "夕張郡長沼町",
    "city_kana": "ユウバリグンナガヌマチョウ",
    "town": "中央北",
    "town_kana": null,
    "street": "１丁目１−１",
    "office_name": "長沼町役場",
    "office_name_kana": "ナガヌマチヨウヤクバ"
  },
  "1393": {
    "postcode": "0691393",
    "prefecture": "北海道",
    "prefecture_kana": "ホッカイドウ",
    "prefecture_code": 1,
    "city": "夕張郡長沼町",
    "city_kana": "ユウバリグンナガヌマチョウ",
    "town": "銀座北",
    "town_kana": null,
    "street": "１丁目５−１９",
    "office_name": "ながぬま農業協同組合",
    "office_name_kana": "ナガヌマノウギヨウキヨウドウクミアイ"
  },
  "1394": {
    "postcode": "0691394",
    "prefecture": "北海道",
    "prefecture_kana": "ホッカイドウ",
    "prefecture_code": 1,
    "city": "夕張郡長沼町",
    "city_kana": "ユウバリグンナガヌマチョウ",
    "town": "",
    "town_kana": "",
    "street": "馬追台（長沼郵便局私書箱第３号）",
    "office_name": "航空自衛隊長沼分屯基地",
    "office_name_kana": "コウクウジエイタイナガヌマブントンキチ"
  },
  "1395": {
    "postcode": "0691395",
    "prefecture": "北海道",
    "prefecture_kana": "ホッカイドウ",
    "prefecture_code": 1,
    "city": "夕張郡長沼町",
    "city_kana": "ユウバリグンナガヌマチョウ",
    "town": "東６線北",
    "town_kana": "ヒガシ6センキタ",
    "street": "１５号",
    "office_name": "地方独立行政法人　北海道立総合研究機構農業研究本部　中央試験場",
    "office_name_kana": "チホウドクリツギヨウセイホウジン ホツカイドウリツソウゴウケンキユウキコウノウギヨウケンキユウホンブ チユウオウシケンジヨウ"
  },
  "1451": {
    "postcode": "0691451",
    "prefecture": "北海道",
    "prefecture_kana": "ホッカイドウ",
    "prefecture_code": 1,
    "city": "夕張郡長沼町",
    "city_kana": "ユウバリグンナガヌマチョウ",
    "town": "東１線南",
    "town_kana": "ヒガシ1センミナミ",
    "street": null,
    "office_name": null,
    "office_name_kana": null
  },
  "1452": {
    "postcode": "0691452",
    "prefecture": "北海道",
    "prefecture_kana": "ホッカイドウ",
    "prefecture_code": 1,
    "city": "夕張郡長沼町",
    "city_kana": "ユウバリグンナガヌマチョウ",
    "town": "東２線南",
    "town_kana": "ヒガシ2センミナミ",
    "street": null,
    "office_name": null,
    "office_name_kana": null
  },
  "1453": {
    "postcode": "0691453",
    "prefecture": "北海道",
    "prefecture_kana": "ホッカイドウ",
    "prefecture_code": 1,
    "city": "夕張郡長沼町",
    "city_kana": "ユウバリグンナガヌマチョウ",
    "town": "東３線南",
    "town_kana": "ヒガシ3センミナミ",
    "street": null,
    "office_name": null,
    "office_name_kana": null
  },
  "1454": {
    "postcode": "0691454",
    "prefecture": "北海道",
    "prefecture_kana": "ホッカイドウ",
    "prefecture_code": 1,
    "city": "夕張郡長沼町",
    "city_kana": "ユウバリグンナガヌマチョウ",
    "town": "東４線南",
    "town_kana": "ヒガシ4センミナミ",
    "street": null,
    "office_name": null,
    "office_name_kana": null
  },
  "1455": {
    "postcode": "0691455",
    "prefecture": "北海道",
    "prefecture_kana": "ホッカイドウ",
    "prefecture_code": 1,
    "city": "夕張郡長沼町",
    "city_kana": "ユウバリグンナガヌマチョウ",
    "town": "東５線南",
    "town_kana": "ヒガシ5センミナミ",
    "street": null,
    "office_name": null,
    "office_name_kana": null
  },
  "1456": {
    "postcode": "0691456",
    "prefecture": "北海道",
    "prefecture_kana": "ホッカイドウ",
    "prefecture_code": 1,
    "city": "夕張郡長沼町",
    "city_kana": "ユウバリグンナガヌマチョウ",
    "town": "東６線南",
    "town_kana": "ヒガシ6センミナミ",
    "street": null,
    "office_name": null,
    "office_name_kana": null
  },
  "1457": {
    "postcode": "0691457",
    "prefecture": "北海道",
    "prefecture_kana": "ホッカイドウ",
    "prefecture_code": 1,
    "city": "夕張郡長沼町",
    "city_kana": "ユウバリグンナガヌマチョウ",
    "town": "東７線南",
    "town_kana": "ヒガシ7センミナミ",
    "street": null,
    "office_name": null,
    "office_name_kana": null
  },
  "1458": {
    "postcode": "0691458",
    "prefecture": "北海道",
    "prefecture_kana": "ホッカイドウ",
    "prefecture_code": 1,
    "city": "夕張郡長沼町",
    "city_kana": "ユウバリグンナガヌマチョウ",
    "town": "東８線南",
    "town_kana": "ヒガシ8センミナミ",
    "street": null,
    "office_name": null,
    "office_name_kana": null
  },
  "1459": {
    "postcode": "0691459",
    "prefecture": "北海道",
    "prefecture_kana": "ホッカイドウ",
    "prefecture_code": 1,
    "city": "夕張郡長沼町",
    "city_kana": "ユウバリグンナガヌマチョウ",
    "town": "東９線南",
    "town_kana": "ヒガシ9センミナミ",
    "street": null,
    "office_name": null,
    "office_name_kana": null
  },
  "1460": {
    "postcode": "0691460",
    "prefecture": "北海道",
    "prefecture_kana": "ホッカイドウ",
    "prefecture_code": 1,
    "city": "夕張郡長沼町",
    "city_kana": "ユウバリグンナガヌマチョウ",
    "town": "東１０線南",
    "town_kana": "ヒガシ10センミナミ",
    "street": null,
    "office_name": null,
    "office_name_kana": null
  },
  "1461": {
    "postcode": "0691461",
    "prefecture": "北海道",
    "prefecture_kana": "ホッカイドウ",
    "prefecture_code": 1,
    "city": "夕張郡長沼町",
    "city_kana": "ユウバリグンナガヌマチョウ",
    "town": "東１１線南",
    "town_kana": "ヒガシ11センミナミ",
    "street": null,
    "office_name": null,
    "office_name_kana": null
  },
  "1462": {
    "postcode": "0691462",
    "prefecture": "北海道",
    "prefecture_kana": "ホッカイドウ",
    "prefecture_code": 1,
    "city": "夕張郡長沼町",
    "city_kana": "ユウバリグンナガヌマチョウ",
    "town": "東１２線南",
    "town_kana": "ヒガシ12センミナミ",
    "street": null,
    "office_name": null,
    "office_name_kana": null
  },
  "1463": {
    "postcode": "0691463",
    "prefecture": "北海道",
    "prefecture_kana": "ホッカイドウ",
    "prefecture_code": 1,
    "city": "夕張郡長沼町",
    "city_kana": "ユウバリグンナガヌマチョウ",
    "town": "東１３線南",
    "town_kana": "ヒガシ13センミナミ",
    "street": null,
    "office_name": null,
    "office_name_kana": null
  },
  "1464": {
    "postcode": "0691464",
    "prefecture": "北海道",
    "prefecture_kana": "ホッカイドウ",
    "prefecture_code": 1,
    "city": "夕張郡長沼町",
    "city_kana": "ユウバリグンナガヌマチョウ",
    "town": "幌内",
    "town_kana": "ホロナイ",
    "street": null,
    "office_name": null,
    "office_name_kana": null
  },
  "1471": {
    "postcode": "0691471",
    "prefecture": "北海道",
    "prefecture_kana": "ホッカイドウ",
    "prefecture_code": 1,
    "city": "夕張郡長沼町",
    "city_kana": "ユウバリグンナガヌマチョウ",
    "town": "西１線南",
    "town_kana": "ニシ1センミナミ",
    "street": null,
    "office_name": null,
    "office_name_kana": null
  },
  "1472": {
    "postcode": "0691472",
    "prefecture": "北海道",
    "prefecture_kana": "ホッカイドウ",
    "prefecture_code": 1,
    "city": "夕張郡長沼町",
    "city_kana": "ユウバリグンナガヌマチョウ",
    "town": "西２線南",
    "town_kana": "ニシ2センミナミ",
    "street": null,
    "office_name": null,
    "office_name_kana": null
  },
  "1473": {
    "postcode": "0691473",
    "prefecture": "北海道",
    "prefecture_kana": "ホッカイドウ",
    "prefecture_code": 1,
    "city": "夕張郡長沼町",
    "city_kana": "ユウバリグンナガヌマチョウ",
    "town": "西３線南",
    "town_kana": "ニシ3センミナミ",
    "street": null,
    "office_name": null,
    "office_name_kana": null
  },
  "1474": {
    "postcode": "0691474",
    "prefecture": "北海道",
    "prefecture_kana": "ホッカイドウ",
    "prefecture_code": 1,
    "city": "夕張郡長沼町",
    "city_kana": "ユウバリグンナガヌマチョウ",
    "town": "西４線南",
    "town_kana": "ニシ4センミナミ",
    "street": null,
    "office_name": null,
    "office_name_kana": null
  },
  "1475": {
    "postcode": "0691475",
    "prefecture": "北海道",
    "prefecture_kana": "ホッカイドウ",
    "prefecture_code": 1,
    "city": "夕張郡長沼町",
    "city_kana": "ユウバリグンナガヌマチョウ",
    "town": "西５線南",
    "town_kana": "ニシ5センミナミ",
    "street": null,
    "office_name": null,
    "office_name_kana": null
  },
  "1476": {
    "postcode": "0691476",
    "prefecture": "北海道",
    "prefecture_kana": "ホッカイドウ",
    "prefecture_code": 1,
    "city": "夕張郡長沼町",
    "city_kana": "ユウバリグンナガヌマチョウ",
    "town": "西６線南",
    "town_kana": "ニシ6センミナミ",
    "street": null,
    "office_name": null,
    "office_name_kana": null
  },
  "1477": {
    "postcode": "0691477",
    "prefecture": "北海道",
    "prefecture_kana": "ホッカイドウ",
    "prefecture_code": 1,
    "city": "夕張郡長沼町",
    "city_kana": "ユウバリグンナガヌマチョウ",
    "town": "西７線南",
    "town_kana": "ニシ7センミナミ",
    "street": null,
    "office_name": null,
    "office_name_kana": null
  },
  "1478": {
    "postcode": "0691478",
    "prefecture": "北海道",
    "prefecture_kana": "ホッカイドウ",
    "prefecture_code": 1,
    "city": "夕張郡長沼町",
    "city_kana": "ユウバリグンナガヌマチョウ",
    "town": "西８線南",
    "town_kana": "ニシ8センミナミ",
    "street": null,
    "office_name": null,
    "office_name_kana": null
  },
  "1479": {
    "postcode": "0691479",
    "prefecture": "北海道",
    "prefecture_kana": "ホッカイドウ",
    "prefecture_code": 1,
    "city": "夕張郡長沼町",
    "city_kana": "ユウバリグンナガヌマチョウ",
    "town": "西９線南",
    "town_kana": "ニシ9センミナミ",
    "street": null,
    "office_name": null,
    "office_name_kana": null
  },
  "1480": {
    "postcode": "0691480",
    "prefecture": "北海道",
    "prefecture_kana": "ホッカイドウ",
    "prefecture_code": 1,
    "city": "夕張郡長沼町",
    "city_kana": "ユウバリグンナガヌマチョウ",
    "town": "西１０線南",
    "town_kana": "ニシ10センミナミ",
    "street": null,
    "office_name": null,
    "office_name_kana": null
  },
  "1481": {
    "postcode": "0691481",
    "prefecture": "北海道",
    "prefecture_kana": "ホッカイドウ",
    "prefecture_code": 1,
    "city": "夕張郡長沼町",
    "city_kana": "ユウバリグンナガヌマチョウ",
    "town": "西１１線南",
    "town_kana": "ニシ11センミナミ",
    "street": null,
    "office_name": null,
    "office_name_kana": null
  },
  "1482": {
    "postcode": "0691482",
    "prefecture": "北海道",
    "prefecture_kana": "ホッカイドウ",
    "prefecture_code": 1,
    "city": "夕張郡長沼町",
    "city_kana": "ユウバリグンナガヌマチョウ",
    "town": "西１２線南",
    "town_kana": "ニシ12センミナミ",
    "street": null,
    "office_name": null,
    "office_name_kana": null
  },
  "1483": {
    "postcode": "0691483",
    "prefecture": "北海道",
    "prefecture_kana": "ホッカイドウ",
    "prefecture_code": 1,
    "city": "夕張郡長沼町",
    "city_kana": "ユウバリグンナガヌマチョウ",
    "town": "西１３線南",
    "town_kana": "ニシ13センミナミ",
    "street": null,
    "office_name": null,
    "office_name_kana": null
  },
  "1484": {
    "postcode": "0691484",
    "prefecture": "北海道",
    "prefecture_kana": "ホッカイドウ",
    "prefecture_code": 1,
    "city": "夕張郡長沼町",
    "city_kana": "ユウバリグンナガヌマチョウ",
    "town": "西１４線南",
    "town_kana": "ニシ14センミナミ",
    "street": null,
    "office_name": null,
    "office_name_kana": null
  },
  "1485": {
    "postcode": "0691485",
    "prefecture": "北海道",
    "prefecture_kana": "ホッカイドウ",
    "prefecture_code": 1,
    "city": "夕張郡長沼町",
    "city_kana": "ユウバリグンナガヌマチョウ",
    "town": "３０区",
    "town_kana": "30ク",
    "street": null,
    "office_name": null,
    "office_name_kana": null
  },
  "1500": {
    "postcode": "0691500",
    "prefecture": "北海道",
    "prefecture_kana": "ホッカイドウ",
    "prefecture_code": 1,
    "city": "夕張郡栗山町",
    "city_kana": "ユウバリグンクリヤマチョウ",
    "town": "",
    "town_kana": "",
    "street": null,
    "office_name": null,
    "office_name_kana": null
  },
  "1501": {
    "postcode": "0691501",
    "prefecture": "北海道",
    "prefecture_kana": "ホッカイドウ",
    "prefecture_code": 1,
    "city": "夕張郡栗山町",
    "city_kana": "ユウバリグンクリヤマチョウ",
    "town": "桜丘",
    "town_kana": "サクラオカ",
    "street": null,
    "office_name": null,
    "office_name_kana": null
  },
  "1502": [
    {
      "postcode": "0691502",
      "prefecture": "北海道",
      "prefecture_kana": "ホッカイドウ",
      "prefecture_code": 1,
      "city": "夕張郡栗山町",
      "city_kana": "ユウバリグンクリヤマチョウ",
      "town": "鳩山",
      "town_kana": "ハトヤマ",
      "street": null,
      "office_name": null,
      "office_name_kana": null
    },
    {
      "postcode": "0691502",
      "prefecture": "北海道",
      "prefecture_kana": "ホッカイドウ",
      "prefecture_code": 1,
      "city": "夕張郡栗山町",
      "city_kana": "ユウバリグンクリヤマチョウ",
      "town": "森",
      "town_kana": "モリ",
      "street": null,
      "office_name": null,
      "office_name_kana": null
    }
  ],
  "1503": [
    {
      "postcode": "0691503",
      "prefecture": "北海道",
      "prefecture_kana": "ホッカイドウ",
      "prefecture_code": 1,
      "city": "夕張郡栗山町",
      "city_kana": "ユウバリグンクリヤマチョウ",
      "town": "雨煙別",
      "town_kana": "ウエンベツ",
      "street": null,
      "office_name": null,
      "office_name_kana": null
    },
    {
      "postcode": "0691503",
      "prefecture": "北海道",
      "prefecture_kana": "ホッカイドウ",
      "prefecture_code": 1,
      "city": "夕張郡栗山町",
      "city_kana": "ユウバリグンクリヤマチョウ",
      "town": "緑丘",
      "town_kana": "ミドリオカ",
      "street": null,
      "office_name": null,
      "office_name_kana": null
    }
  ],
  "1504": {
    "postcode": "0691504",
    "prefecture": "北海道",
    "prefecture_kana": "ホッカイドウ",
    "prefecture_code": 1,
    "city": "夕張郡栗山町",
    "city_kana": "ユウバリグンクリヤマチョウ",
    "town": "北学田",
    "town_kana": "キタガクデン",
    "street": null,
    "office_name": null,
    "office_name_kana": null
  },
  "1505": [
    {
      "postcode": "0691505",
      "prefecture": "北海道",
      "prefecture_kana": "ホッカイドウ",
      "prefecture_code": 1,
      "city": "夕張郡栗山町",
      "city_kana": "ユウバリグンクリヤマチョウ",
      "town": "桜山",
      "town_kana": "サクラヤマ",
      "street": null,
      "office_name": null,
      "office_name_kana": null
    },
    {
      "postcode": "0691505",
      "prefecture": "北海道",
      "prefecture_kana": "ホッカイドウ",
      "prefecture_code": 1,
      "city": "夕張郡栗山町",
      "city_kana": "ユウバリグンクリヤマチョウ",
      "town": "本沢",
      "town_kana": "ホンサワ",
      "street": null,
      "office_name": null,
      "office_name_kana": null
    }
  ],
  "1506": {
    "postcode": "0691506",
    "prefecture": "北海道",
    "prefecture_kana": "ホッカイドウ",
    "prefecture_code": 1,
    "city": "夕張郡栗山町",
    "city_kana": "ユウバリグンクリヤマチョウ",
    "town": "杵臼",
    "town_kana": "キナウス",
    "street": null,
    "office_name": null,
    "office_name_kana": null
  },
  "1507": {
    "postcode": "0691507",
    "prefecture": "北海道",
    "prefecture_kana": "ホッカイドウ",
    "prefecture_code": 1,
    "city": "夕張郡栗山町",
    "city_kana": "ユウバリグンクリヤマチョウ",
    "town": "旭台",
    "town_kana": "アサヒダイ",
    "street": null,
    "office_name": null,
    "office_name_kana": null
  },
  "1508": {
    "postcode": "0691508",
    "prefecture": "北海道",
    "prefecture_kana": "ホッカイドウ",
    "prefecture_code": 1,
    "city": "夕張郡栗山町",
    "city_kana": "ユウバリグンクリヤマチョウ",
    "town": "湯地",
    "town_kana": "ユチ",
    "street": null,
    "office_name": null,
    "office_name_kana": null
  },
  "1511": {
    "postcode": "0691511",
    "prefecture": "北海道",
    "prefecture_kana": "ホッカイドウ",
    "prefecture_code": 1,
    "city": "夕張郡栗山町",
    "city_kana": "ユウバリグンクリヤマチョウ",
    "town": "中央",
    "town_kana": "チュウオウ",
    "street": null,
    "office_name": null,
    "office_name_kana": null
  },
  "1512": {
    "postcode": "0691512",
    "prefecture": "北海道",
    "prefecture_kana": "ホッカイドウ",
    "prefecture_code": 1,
    "city": "夕張郡栗山町",
    "city_kana": "ユウバリグンクリヤマチョウ",
    "town": "松風",
    "town_kana": "マツカゼ",
    "street": null,
    "office_name": null,
    "office_name_kana": null
  },
  "1513": {
    "postcode": "0691513",
    "prefecture": "北海道",
    "prefecture_kana": "ホッカイドウ",
    "prefecture_code": 1,
    "city": "夕張郡栗山町",
    "city_kana": "ユウバリグンクリヤマチョウ",
    "town": "朝日",
    "town_kana": "アサヒ",
    "street": null,
    "office_name": null,
    "office_name_kana": null
  },
  "1521": {
    "postcode": "0691521",
    "prefecture": "北海道",
    "prefecture_kana": "ホッカイドウ",
    "prefecture_code": 1,
    "city": "夕張郡栗山町",
    "city_kana": "ユウバリグンクリヤマチョウ",
    "town": "錦",
    "town_kana": "ニシキ",
    "street": null,
    "office_name": null,
    "office_name_kana": null
  },
  "1522": {
    "postcode": "0691522",
    "prefecture": "北海道",
    "prefecture_kana": "ホッカイドウ",
    "prefecture_code": 1,
    "city": "夕張郡栗山町",
    "city_kana": "ユウバリグンクリヤマチョウ",
    "town": "中里",
    "town_kana": "ナカサト",
    "street": null,
    "office_name": null,
    "office_name_kana": null
  },
  "1523": {
    "postcode": "0691523",
    "prefecture": "北海道",
    "prefecture_kana": "ホッカイドウ",
    "prefecture_code": 1,
    "city": "夕張郡栗山町",
    "city_kana": "ユウバリグンクリヤマチョウ",
    "town": "共和",
    "town_kana": "キョウワ",
    "street": null,
    "office_name": null,
    "office_name_kana": null
  },
  "1524": {
    "postcode": "0691524",
    "prefecture": "北海道",
    "prefecture_kana": "ホッカイドウ",
    "prefecture_code": 1,
    "city": "夕張郡栗山町",
    "city_kana": "ユウバリグンクリヤマチョウ",
    "town": "角田",
    "town_kana": "カクタ",
    "street": null,
    "office_name": null,
    "office_name_kana": null
  },
  "1525": {
    "postcode": "0691525",
    "prefecture": "北海道",
    "prefecture_kana": "ホッカイドウ",
    "prefecture_code": 1,
    "city": "夕張郡栗山町",
    "city_kana": "ユウバリグンクリヤマチョウ",
    "town": "三日月",
    "town_kana": "ミカヅキ",
    "street": null,
    "office_name": null,
    "office_name_kana": null
  },
  "1526": {
    "postcode": "0691526",
    "prefecture": "北海道",
    "prefecture_kana": "ホッカイドウ",
    "prefecture_code": 1,
    "city": "夕張郡栗山町",
    "city_kana": "ユウバリグンクリヤマチョウ",
    "town": "富士",
    "town_kana": "フジ",
    "street": null,
    "office_name": null,
    "office_name_kana": null
  },
  "8501": {
    "postcode": "0698501",
    "prefecture": "北海道",
    "prefecture_kana": "ホッカイドウ",
    "prefecture_code": 1,
    "city": "江別市",
    "city_kana": "エベツシ",
    "town": "文京台緑町",
    "town_kana": "ブンキョウダイミドリマチ",
    "street": "５８２番地２号",
    "office_name": "酪農学園大学",
    "office_name_kana": "ラクノウガクエンダイガク"
  },
  "8511": {
    "postcode": "0698511",
    "prefecture": "北海道",
    "prefecture_kana": "ホッカイドウ",
    "prefecture_code": 1,
    "city": "江別市",
    "city_kana": "エベツシ",
    "town": "文京台",
    "town_kana": "ブンキョウダイ",
    "street": "２３番地",
    "office_name": "北翔大学・北翔大学短期大学部",
    "office_name_kana": "ホクシヨウダイガク・ホクシヨウダイガクタンキダイガクブ"
  },
  "8533": {
    "postcode": "0698533",
    "prefecture": "北海道",
    "prefecture_kana": "ホッカイドウ",
    "prefecture_code": 1,
    "city": "江別市",
    "city_kana": "エベツシ",
    "town": "文京台緑町",
    "town_kana": "ブンキョウダイミドリマチ",
    "street": "５６９番地",
    "office_name": "とわの森三愛高等学校",
    "office_name_kana": "トワノモリサンアイコウトウガツコウ"
  },
  "8555": {
    "postcode": "0698555",
    "prefecture": "北海道",
    "prefecture_kana": "ホッカイドウ",
    "prefecture_code": 1,
    "city": "江別市",
    "city_kana": "エベツシ",
    "town": "文京台",
    "town_kana": "ブンキョウダイ",
    "street": "１１番地",
    "office_name": "札幌学院大学",
    "office_name_kana": "サツポロガクインダイガク"
  },
  "8585": {
    "postcode": "0698585",
    "prefecture": "北海道",
    "prefecture_kana": "ホッカイドウ",
    "prefecture_code": 1,
    "city": "江別市",
    "city_kana": "エベツシ",
    "town": "西野幌",
    "town_kana": "ニシノッポロ",
    "street": "５９番地２号",
    "office_name": "北海道情報大学",
    "office_name_kana": "ホツカイドウジヨウホウダイガク"
  }
}