{
  "0171": {
    "postcode": "0710171",
    "prefecture": "北海道",
    "prefecture_kana": "ホッカイドウ",
    "prefecture_code": 1,
    "city": "旭川市",
    "city_kana": "アサヒカワシ",
    "town": "西神楽南１条",
    "town_kana": "ニシカグラミナミ1ジョウ",
    "street": null,
    "office_name": null,
    "office_name_kana": null
  },
  "0172": {
    "postcode": "0710172",
    "prefecture": "北海道",
    "prefecture_kana": "ホッカイドウ",
    "prefecture_code": 1,
    "city": "旭川市",
    "city_kana": "アサヒカワシ",
    "town": "西神楽南２条",
    "town_kana": "ニシカグラミナミ2ジョウ",
    "street": null,
    "office_name": null,
    "office_name_kana": null
  },
  "0173": {
    "postcode": "0710173",
    "prefecture": "北海道",
    "prefecture_kana": "ホッカイドウ",
    "prefecture_code": 1,
    "city": "旭川市",
    "city_kana": "アサヒカワシ",
    "town": "西神楽北１条",
    "town_kana": "ニシカグラキタ1ジョウ",
    "street": null,
    "office_name": null,
    "office_name_kana": null
  },
  "0174": {
    "postcode": "0710174",
    "prefecture": "北海道",
    "prefecture_kana": "ホッカイドウ",
    "prefecture_code": 1,
    "city": "旭川市",
    "city_kana": "アサヒカワシ",
    "town": "西神楽北２条",
    "town_kana": "ニシカグラキタ2ジョウ",
    "street": null,
    "office_name": null,
    "office_name_kana": null
  },
  "0184": {
    "postcode": "0710184",
    "prefecture": "北海道",
    "prefecture_kana": "ホッカイドウ",
    "prefecture_code": 1,
    "city": "旭川市",
    "city_kana": "アサヒカワシ",
    "town": "西神楽４線",
    "town_kana": "ニシカグラ4セン",
    "street": null,
    "office_name": null,
    "office_name_kana": null
  },
  "0185": {
    "postcode": "0710185",
    "prefecture": "北海道",
    "prefecture_kana": "ホッカイドウ",
    "prefecture_code": 1,
    "city": "旭川市",
    "city_kana": "アサヒカワシ",
    "town": "西神楽５線",
    "town_kana": "ニシカグラ5セン",
    "street": null,
    "office_name": null,
    "office_name_kana": null
  },
  "0186": {
    "postcode": "0710186",
    "prefecture": "北海道",
    "prefecture_kana": "ホッカイドウ",
    "prefecture_code": 1,
    "city": "旭川市",
    "city_kana": "アサヒカワシ",
    "town": "西神楽南",
    "town_kana": "ニシカグラミナミ",
    "street": null,
    "office_name": null,
    "office_name_kana": null
  },
  "0192": {
    "postcode": "0710192",
    "prefecture": "北海道",
    "prefecture_kana": "ホッカイドウ",
    "prefecture_code": 1,
    "city": "旭川市",
    "city_kana": "アサヒカワシ",
    "town": "西神楽南一条",
    "town_kana": "ニシカグラミナミ1ジョウ",
    "street": "２丁目６３９番地",
    "office_name": "東神楽農業協同組合　西神楽支店",
    "office_name_kana": "ヒガシカグラノウギヨウキヨウドウクミアイ ニシカグラシテン"
  },
  "0198": {
    "postcode": "0710198",
    "prefecture": "北海道",
    "prefecture_kana": "ホッカイドウ",
    "prefecture_code": 1,
    "city": "旭川市",
    "city_kana": "アサヒカワシ",
    "town": "西神楽一線",
    "town_kana": "ニシカグラ1セン",
    "street": "１０号",
    "office_name": "北海道立　林産試験場",
    "office_name_kana": "ホツカイドウリツ リンサンシケンジヨウ"
  },
  "0200": {
    "postcode": "0710200",
    "prefecture": "北海道",
    "prefecture_kana": "ホッカイドウ",
    "prefecture_code": 1,
    "city": "上川郡美瑛町",
    "city_kana": "カミカワグンビエイチョウ",
    "town": "",
    "town_kana": "",
    "street": null,
    "office_name": null,
    "office_name_kana": null
  },
  "0201": {
    "postcode": "0710201",
    "prefecture": "北海道",
    "prefecture_kana": "ホッカイドウ",
    "prefecture_code": 1,
    "city": "上川郡美瑛町",
    "city_kana": "カミカワグンビエイチョウ",
    "town": "丸山",
    "town_kana": "マルヤマ",
    "street": null,
    "office_name": null,
    "office_name_kana": null
  },
  "0202": {
    "postcode": "0710202",
    "prefecture": "北海道",
    "prefecture_kana": "ホッカイドウ",
    "prefecture_code": 1,
    "city": "上川郡美瑛町",
    "city_kana": "カミカワグンビエイチョウ",
    "town": "南町",
    "town_kana": "ミナミマチ",
    "street": null,
    "office_name": null,
    "office_name_kana": null
  },
  "0203": {
    "postcode": "0710203",
    "prefecture": "北海道",
    "prefecture_kana": "ホッカイドウ",
    "prefecture_code": 1,
    "city": "上川郡美瑛町",
    "city_kana": "カミカワグンビエイチョウ",
    "town": "西町",
    "town_kana": "ニシマチ",
    "street": null,
    "office_name": null,
    "office_name_kana": null
  },
  "0204": {
    "postcode": "0710204",
    "prefecture": "北海道",
    "prefecture_kana": "ホッカイドウ",
    "prefecture_code": 1,
    "city": "上川郡美瑛町",
    "city_kana": "カミカワグンビエイチョウ",
    "town": "大町",
    "town_kana": "オオマチ",
    "street": null,
    "office_name": null,
    "office_name_kana": null
  },
  "0205": {
    "postcode": "0710205",
    "prefecture": "北海道",
    "prefecture_kana": "ホッカイドウ",
    "prefecture_code": 1,
    "city": "上川郡美瑛町",
    "city_kana": "カミカワグンビエイチョウ",
    "town": "栄町",
    "town_kana": "サカエマチ",
    "street": null,
    "office_name": null,
    "office_name_kana": null
  },
  "0206": {
    "postcode": "0710206",
    "prefecture": "北海道",
    "prefecture_kana": "ホッカイドウ",
    "prefecture_code": 1,
    "city": "上川郡美瑛町",
    "city_kana": "カミカワグンビエイチョウ",
    "town": "北町",
    "town_kana": "キタマチ",
    "street": null,
    "office_name": null,
    "office_name_kana": null
  },
  "0207": {
    "postcode": "0710207",
    "prefecture": "北海道",
    "prefecture_kana": "ホッカイドウ",
    "prefecture_code": 1,
    "city": "上川郡美瑛町",
    "city_kana": "カミカワグンビエイチョウ",
    "town": "中町",
    "town_kana": "ナカマチ",
    "street": null,
    "office_name": null,
    "office_name_kana": null
  },
  "0208": {
    "postcode": "0710208",
    "prefecture": "北海道",
    "prefecture_kana": "ホッカイドウ",
    "prefecture_code": 1,
    "city": "上川郡美瑛町",
    "city_kana": "カミカワグンビエイチョウ",
    "town": "本町",
    "town_kana": "モトマチ",
    "street": null,
    "office_name": null,
    "office_name_kana": null
  },
  "0209": {
    "postcode": "0710209",
    "prefecture": "北海道",
    "prefecture_kana": "ホッカイドウ",
    "prefecture_code": 1,
    "city": "上川郡美瑛町",
    "city_kana": "カミカワグンビエイチョウ",
    "town": "寿町",
    "town_kana": "コトブキチョウ",
    "street": null,
    "office_name": null,
    "office_name_kana": null
  },
  "0211": {
    "postcode": "0710211",
    "prefecture": "北海道",
    "prefecture_kana": "ホッカイドウ",
    "prefecture_code": 1,
    "city": "上川郡美瑛町",
    "city_kana": "カミカワグンビエイチョウ",
    "town": "錦町",
    "town_kana": "ニシキマチ",
    "street": null,
    "office_name": null,
    "office_name_kana": null
  },
  "0212": {
    "postcode": "0710212",
    "prefecture": "北海道",
    "prefecture_kana": "ホッカイドウ",
    "prefecture_code": 1,
    "city": "上川郡美瑛町",
    "city_kana": "カミカワグンビエイチョウ",
    "town": "旭町",
    "town_kana": "アサヒマチ",
    "street": null,
    "office_name": null,
    "office_name_kana": null
  },
  "0213": {
    "postcode": "0710213",
    "prefecture": "北海道",
    "prefecture_kana": "ホッカイドウ",
    "prefecture_code": 1,
    "city": "上川郡美瑛町",
    "city_kana": "カミカワグンビエイチョウ",
    "town": "東町",
    "town_kana": "ヒガシマチ",
    "street": null,
    "office_name": null,
    "office_name_kana": null
  },
  "0214": {
    "postcode": "0710214",
    "prefecture": "北海道",
    "prefecture_kana": "ホッカイドウ",
    "prefecture_code": 1,
    "city": "上川郡美瑛町",
    "city_kana": "カミカワグンビエイチョウ",
    "town": "幸町",
    "town_kana": "サイワイチョウ",
    "street": null,
    "office_name": null,
    "office_name_kana": null
  },
  "0215": {
    "postcode": "0710215",
    "prefecture": "北海道",
    "prefecture_kana": "ホッカイドウ",
    "prefecture_code": 1,
    "city": "上川郡美瑛町",
    "city_kana": "カミカワグンビエイチョウ",
    "town": "扇町",
    "town_kana": "オウギマチ",
    "street": null,
    "office_name": null,
    "office_name_kana": null
  },
  "0216": [
    {
      "postcode": "0710216",
      "prefecture": "北海道",
      "prefecture_kana": "ホッカイドウ",
      "prefecture_code": 1,
      "city": "上川郡美瑛町",
      "city_kana": "カミカワグンビエイチョウ",
      "town": "大村",
      "town_kana": "オオムラ",
      "street": null,
      "office_name": null,
      "office_name_kana": null
    },
    {
      "postcode": "0710216",
      "prefecture": "北海道",
      "prefecture_kana": "ホッカイドウ",
      "prefecture_code": 1,
      "city": "上川郡美瑛町",
      "city_kana": "カミカワグンビエイチョウ",
      "town": "大村大久保",
      "town_kana": "オオムラオオクボ",
      "street": null,
      "office_name": null,
      "office_name_kana": null
    }
  ],
  "0217": [
    {
      "postcode": "0710217",
      "prefecture": "北海道",
      "prefecture_kana": "ホッカイドウ",
      "prefecture_code": 1,
      "city": "上川郡美瑛町",
      "city_kana": "カミカワグンビエイチョウ",
      "town": "大村",
      "town_kana": "オオムラ",
      "street": null,
      "office_name": null,
      "office_name_kana": null
    },
    {
      "postcode": "0710217",
      "prefecture": "北海道",
      "prefecture_kana": "ホッカイドウ",
      "prefecture_code": 1,
      "city": "上川郡美瑛町",
      "city_kana": "カミカワグンビエイチョウ",
      "town": "大村石山",
      "town_kana": "オオムライシヤマ",
      "street": null,
      "office_name": null,
      "office_name_kana": null
    }
  ],
  "0218": [
    {
      "postcode": "0710218",
      "prefecture": "北海道",
      "prefecture_kana": "ホッカイドウ",
      "prefecture_code": 1,
      "city": "上川郡美瑛町",
      "city_kana": "カミカワグンビエイチョウ",
      "town": "大村",
      "town_kana": "オオムラ",
      "street": null,
      "office_name": null,
      "office_name_kana": null
    },
    {
      "postcode": "0710218",
      "prefecture": "北海道",
      "prefecture_kana": "ホッカイドウ",
      "prefecture_code": 1,
      "city": "上川郡美瑛町",
      "city_kana": "カミカワグンビエイチョウ",
      "town": "大村村山",
      "town_kana": "オオムラムラヤマ",
      "street": null,
      "office_name": null,
      "office_name_kana": null
    }
  ],
  "0219": [
    {
      "postcode": "0710219",
      "prefecture": "北海道",
      "prefecture_kana": "ホッカイドウ",
      "prefecture_code": 1,
      "city": "上川郡美瑛町",
      "city_kana": "カミカワグンビエイチョウ",
      "town": "大村",
      "town_kana": "オオムラ",
      "street": null,
      "office_name": null,
      "office_name_kana": null
    },
    {
      "postcode": "0710219",
      "prefecture": "北海道",
      "prefecture_kana": "ホッカイドウ",
      "prefecture_code": 1,
      "city": "上川郡美瑛町",
      "city_kana": "カミカワグンビエイチョウ",
      "town": "大村中本",
      "town_kana": "オオムラナカモト",
      "street": null,
      "office_name": null,
      "office_name_kana": null
    }
  ],
  "0221": [
    {
      "postcode": "0710221",
      "prefecture": "北海道",
      "prefecture_kana": "ホッカイドウ",
      "prefecture_code": 1,
      "city": "上川郡美瑛町",
      "city_kana": "カミカワグンビエイチョウ",
      "town": "美田",
      "town_kana": "ミタ",
      "street": null,
      "office_name": null,
      "office_name_kana": null
    },
    {
      "postcode": "0710221",
      "prefecture": "北海道",
      "prefecture_kana": "ホッカイドウ",
      "prefecture_code": 1,
      "city": "上川郡美瑛町",
      "city_kana": "カミカワグンビエイチョウ",
      "town": "美田夕張",
      "town_kana": "ミタユウバリ",
      "street": null,
      "office_name": null,
      "office_name_kana": null
    }
  ],
  "0222": {
    "postcode": "0710222",
    "prefecture": "北海道",
    "prefecture_kana": "ホッカイドウ",
    "prefecture_code": 1,
    "city": "上川郡美瑛町",
    "city_kana": "カミカワグンビエイチョウ",
    "town": "美田",
    "town_kana": "ミタ",
    "street": null,
    "office_name": null,
    "office_name_kana": null
  },
  "0223": {
    "postcode": "0710223",
    "prefecture": "北海道",
    "prefecture_kana": "ホッカイドウ",
    "prefecture_code": 1,
    "city": "上川郡美瑛町",
    "city_kana": "カミカワグンビエイチョウ",
    "town": "五稜",
    "town_kana": "ゴリョウ",
    "street": null,
    "office_name": null,
    "office_name_kana": null
  },
  "0224": {
    "postcode": "0710224",
    "prefecture": "北海道",
    "prefecture_kana": "ホッカイドウ",
    "prefecture_code": 1,
    "city": "上川郡美瑛町",
    "city_kana": "カミカワグンビエイチョウ",
    "town": "北瑛",
    "town_kana": "ホクエイ",
    "street": null,
    "office_name": null,
    "office_name_kana": null
  },
  "0225": [
    {
      "postcode": "0710225",
      "prefecture": "北海道",
      "prefecture_kana": "ホッカイドウ",
      "prefecture_code": 1,
      "city": "上川郡美瑛町",
      "city_kana": "カミカワグンビエイチョウ",
      "town": "明治",
      "town_kana": "メイジ",
      "street": null,
      "office_name": null,
      "office_name_kana": null
    },
    {
      "postcode": "0710225",
      "prefecture": "北海道",
      "prefecture_kana": "ホッカイドウ",
      "prefecture_code": 1,
      "city": "上川郡美瑛町",
      "city_kana": "カミカワグンビエイチョウ",
      "town": "明治大三",
      "town_kana": "メイジダイサン",
      "street": null,
      "office_name": null,
      "office_name_kana": null
    }
  ],
  "0226": {
    "postcode": "0710226",
    "prefecture": "北海道",
    "prefecture_kana": "ホッカイドウ",
    "prefecture_code": 1,
    "city": "上川郡美瑛町",
    "city_kana": "カミカワグンビエイチョウ",
    "town": "下宇莫別",
    "town_kana": "シモウバクベツ",
    "street": null,
    "office_name": null,
    "office_name_kana": null
  },
  "0227": [
    {
      "postcode": "0710227",
      "prefecture": "北海道",
      "prefecture_kana": "ホッカイドウ",
      "prefecture_code": 1,
      "city": "上川郡美瑛町",
      "city_kana": "カミカワグンビエイチョウ",
      "town": "中宇莫別",
      "town_kana": "ナカウバクベツ",
      "street": null,
      "office_name": null,
      "office_name_kana": null
    },
    {
      "postcode": "0710227",
      "prefecture": "北海道",
      "prefecture_kana": "ホッカイドウ",
      "prefecture_code": 1,
      "city": "上川郡美瑛町",
      "city_kana": "カミカワグンビエイチョウ",
      "town": "中宇莫別赤羽",
      "town_kana": "ナカウバクベツアカバネ",
      "street": null,
      "office_name": null,
      "office_name_kana": null
    }
  ],
  "0228": {
    "postcode": "0710228",
    "prefecture": "北海道",
    "prefecture_kana": "ホッカイドウ",
    "prefecture_code": 1,
    "city": "上川郡美瑛町",
    "city_kana": "カミカワグンビエイチョウ",
    "town": "中宇莫別",
    "town_kana": "ナカウバクベツ",
    "street": null,
    "office_name": null,
    "office_name_kana": null
  },
  "0229": {
    "postcode": "0710229",
    "prefecture": "北海道",
    "prefecture_kana": "ホッカイドウ",
    "prefecture_code": 1,
    "city": "上川郡美瑛町",
    "city_kana": "カミカワグンビエイチョウ",
    "town": "上宇莫別",
    "town_kana": "カミウバクベツ",
    "street": null,
    "office_name": null,
    "office_name_kana": null
  },
  "0231": {
    "postcode": "0710231",
    "prefecture": "北海道",
    "prefecture_kana": "ホッカイドウ",
    "prefecture_code": 1,
    "city": "上川郡美瑛町",
    "city_kana": "カミカワグンビエイチョウ",
    "town": "明治",
    "town_kana": "メイジ",
    "street": null,
    "office_name": null,
    "office_name_kana": null
  },
  "0232": [
    {
      "postcode": "0710232",
      "prefecture": "北海道",
      "prefecture_kana": "ホッカイドウ",
      "prefecture_code": 1,
      "city": "上川郡美瑛町",
      "city_kana": "カミカワグンビエイチョウ",
      "town": "明治",
      "town_kana": "メイジ",
      "street": null,
      "office_name": null,
      "office_name_kana": null
    },
    {
      "postcode": "0710232",
      "prefecture": "北海道",
      "prefecture_kana": "ホッカイドウ",
      "prefecture_code": 1,
      "city": "上川郡美瑛町",
      "city_kana": "カミカワグンビエイチョウ",
      "town": "明治沼崎",
      "town_kana": "メイジヌマザキ",
      "street": null,
      "office_name": null,
      "office_name_kana": null
    }
  ],
  "0233": {
    "postcode": "0710233",
    "prefecture": "北海道",
    "prefecture_kana": "ホッカイドウ",
    "prefecture_code": 1,
    "city": "上川郡美瑛町",
    "city_kana": "カミカワグンビエイチョウ",
    "town": "新区画",
    "town_kana": "シンクカク",
    "street": null,
    "office_name": null,
    "office_name_kana": null
  },
  "0234": {
    "postcode": "0710234",
    "prefecture": "北海道",
    "prefecture_kana": "ホッカイドウ",
    "prefecture_code": 1,
    "city": "上川郡美瑛町",
    "city_kana": "カミカワグンビエイチョウ",
    "town": "置杵牛",
    "town_kana": "オキキネウシ",
    "street": null,
    "office_name": null,
    "office_name_kana": null
  },
  "0235": {
    "postcode": "0710235",
    "prefecture": "北海道",
    "prefecture_kana": "ホッカイドウ",
    "prefecture_code": 1,
    "city": "上川郡美瑛町",
    "city_kana": "カミカワグンビエイチョウ",
    "town": "白金",
    "town_kana": "シロガネ",
    "street": null,
    "office_name": null,
    "office_name_kana": null
  },
  "0236": {
    "postcode": "0710236",
    "prefecture": "北海道",
    "prefecture_kana": "ホッカイドウ",
    "prefecture_code": 1,
    "city": "上川郡美瑛町",
    "city_kana": "カミカワグンビエイチョウ",
    "town": "美沢",
    "town_kana": "ミサワ",
    "street": null,
    "office_name": null,
    "office_name_kana": null
  },
  "0237": [
    {
      "postcode": "0710237",
      "prefecture": "北海道",
      "prefecture_kana": "ホッカイドウ",
      "prefecture_code": 1,
      "city": "上川郡美瑛町",
      "city_kana": "カミカワグンビエイチョウ",
      "town": "福富",
      "town_kana": "フクトミ",
      "street": null,
      "office_name": null,
      "office_name_kana": null
    },
    {
      "postcode": "0710237",
      "prefecture": "北海道",
      "prefecture_kana": "ホッカイドウ",
      "prefecture_code": 1,
      "city": "上川郡美瑛町",
      "city_kana": "カミカワグンビエイチョウ",
      "town": "福富豊栄",
      "town_kana": "フクトミホウエイ",
      "street": null,
      "office_name": null,
      "office_name_kana": null
    }
  ],
  "0238": {
    "postcode": "0710238",
    "prefecture": "北海道",
    "prefecture_kana": "ホッカイドウ",
    "prefecture_code": 1,
    "city": "上川郡美瑛町",
    "city_kana": "カミカワグンビエイチョウ",
    "town": "藤野",
    "town_kana": "フジノ",
    "street": null,
    "office_name": null,
    "office_name_kana": null
  },
  "0239": [
    {
      "postcode": "0710239",
      "prefecture": "北海道",
      "prefecture_kana": "ホッカイドウ",
      "prefecture_code": 1,
      "city": "上川郡美瑛町",
      "city_kana": "カミカワグンビエイチョウ",
      "town": "美瑛原野",
      "town_kana": "ビエイゲンヤ",
      "street": null,
      "office_name": null,
      "office_name_kana": null
    },
    {
      "postcode": "0710239",
      "prefecture": "北海道",
      "prefecture_kana": "ホッカイドウ",
      "prefecture_code": 1,
      "city": "上川郡美瑛町",
      "city_kana": "カミカワグンビエイチョウ",
      "town": "美瑛原野原野",
      "town_kana": "ビエイゲンヤゲンヤ",
      "street": null,
      "office_name": null,
      "office_name_kana": null
    }
  ],
  "0240": [
    {
      "postcode": "0710240",
      "prefecture": "北海道",
      "prefecture_kana": "ホッカイドウ",
      "prefecture_code": 1,
      "city": "上川郡美瑛町",
      "city_kana": "カミカワグンビエイチョウ",
      "town": "三愛",
      "town_kana": "サンアイ",
      "street": null,
      "office_name": null,
      "office_name_kana": null
    },
    {
      "postcode": "0710240",
      "prefecture": "北海道",
      "prefecture_kana": "ホッカイドウ",
      "prefecture_code": 1,
      "city": "上川郡美瑛町",
      "city_kana": "カミカワグンビエイチョウ",
      "town": "三愛緑",
      "town_kana": "サンアイミドリ",
      "street": null,
      "office_name": null,
      "office_name_kana": null
    }
  ],
  "0241": [
    {
      "postcode": "0710241",
      "prefecture": "北海道",
      "prefecture_kana": "ホッカイドウ",
      "prefecture_code": 1,
      "city": "上川郡美瑛町",
      "city_kana": "カミカワグンビエイチョウ",
      "town": "水沢",
      "town_kana": "ミズサワ",
      "street": null,
      "office_name": null,
      "office_name_kana": null
    },
    {
      "postcode": "0710241",
      "prefecture": "北海道",
      "prefecture_kana": "ホッカイドウ",
      "prefecture_code": 1,
      "city": "上川郡美瑛町",
      "city_kana": "カミカワグンビエイチョウ",
      "town": "水沢水上",
      "town_kana": "ミズサワミズカミ",
      "street": null,
      "office_name": null,
      "office_name_kana": null
    }
  ],
  "0242": {
    "postcode": "0710242",
    "prefecture": "北海道",
    "prefecture_kana": "ホッカイドウ",
    "prefecture_code": 1,
    "city": "上川郡美瑛町",
    "city_kana": "カミカワグンビエイチョウ",
    "town": "水沢",
    "town_kana": "ミズサワ",
    "street": null,
    "office_name": null,
    "office_name_kana": null
  },
  "0243": [
    {
      "postcode": "0710243",
      "prefecture": "北海道",
      "prefecture_kana": "ホッカイドウ",
      "prefecture_code": 1,
      "city": "上川郡美瑛町",
      "city_kana": "カミカワグンビエイチョウ",
      "town": "福富",
      "town_kana": "フクトミ",
      "street": null,
      "office_name": null,
      "office_name_kana": null
    },
    {
      "postcode": "0710243",
      "prefecture": "北海道",
      "prefecture_kana": "ホッカイドウ",
      "prefecture_code": 1,
      "city": "上川郡美瑛町",
      "city_kana": "カミカワグンビエイチョウ",
      "town": "福富間宮",
      "town_kana": "フクトミマミヤ",
      "street": null,
      "office_name": null,
      "office_name_kana": null
    }
  ],
  "0244": [
    {
      "postcode": "0710244",
      "prefecture": "北海道",
      "prefecture_kana": "ホッカイドウ",
      "prefecture_code": 1,
      "city": "上川郡美瑛町",
      "city_kana": "カミカワグンビエイチョウ",
      "town": "福富",
      "town_kana": "フクトミ",
      "street": null,
      "office_name": null,
      "office_name_kana": null
    },
    {
      "postcode": "0710244",
      "prefecture": "北海道",
      "prefecture_kana": "ホッカイドウ",
      "prefecture_code": 1,
      "city": "上川郡美瑛町",
      "city_kana": "カミカワグンビエイチョウ",
      "town": "福富福美沢",
      "town_kana": "フクトミフクミザワ",
      "street": null,
      "office_name": null,
      "office_name_kana": null
    }
  ],
  "0245": {
    "postcode": "0710245",
    "prefecture": "北海道",
    "prefecture_kana": "ホッカイドウ",
    "prefecture_code": 1,
    "city": "上川郡美瑛町",
    "city_kana": "カミカワグンビエイチョウ",
    "town": "福富",
    "town_kana": "フクトミ",
    "street": null,
    "office_name": null,
    "office_name_kana": null
  },
  "0246": {
    "postcode": "0710246",
    "prefecture": "北海道",
    "prefecture_kana": "ホッカイドウ",
    "prefecture_code": 1,
    "city": "上川郡美瑛町",
    "city_kana": "カミカワグンビエイチョウ",
    "town": "福富",
    "town_kana": "フクトミ",
    "street": null,
    "office_name": null,
    "office_name_kana": null
  },
  "0247": [
    {
      "postcode": "0710247",
      "prefecture": "北海道",
      "prefecture_kana": "ホッカイドウ",
      "prefecture_code": 1,
      "city": "上川郡美瑛町",
      "city_kana": "カミカワグンビエイチョウ",
      "town": "三愛",
      "town_kana": "サンアイ",
      "street": null,
      "office_name": null,
      "office_name_kana": null
    },
    {
      "postcode": "0710247",
      "prefecture": "北海道",
      "prefecture_kana": "ホッカイドウ",
      "prefecture_code": 1,
      "city": "上川郡美瑛町",
      "city_kana": "カミカワグンビエイチョウ",
      "town": "三愛大曲",
      "town_kana": "サンアイオオマガリ",
      "street": null,
      "office_name": null,
      "office_name_kana": null
    }
  ],
  "0248": {
    "postcode": "0710248",
    "prefecture": "北海道",
    "prefecture_kana": "ホッカイドウ",
    "prefecture_code": 1,
    "city": "上川郡美瑛町",
    "city_kana": "カミカワグンビエイチョウ",
    "town": "花園",
    "town_kana": "ハナゾノ",
    "street": null,
    "office_name": null,
    "office_name_kana": null
  },
  "0249": {
    "postcode": "0710249",
    "prefecture": "北海道",
    "prefecture_kana": "ホッカイドウ",
    "prefecture_code": 1,
    "city": "上川郡美瑛町",
    "city_kana": "カミカワグンビエイチョウ",
    "town": "憩町",
    "town_kana": "イコイチョウ",
    "street": null,
    "office_name": null,
    "office_name_kana": null
  },
  "0251": {
    "postcode": "0710251",
    "prefecture": "北海道",
    "prefecture_kana": "ホッカイドウ",
    "prefecture_code": 1,
    "city": "上川郡美瑛町",
    "city_kana": "カミカワグンビエイチョウ",
    "town": "憩が丘",
    "town_kana": "イコイガオカ",
    "street": null,
    "office_name": null,
    "office_name_kana": null
  },
  "0261": {
    "postcode": "0710261",
    "prefecture": "北海道",
    "prefecture_kana": "ホッカイドウ",
    "prefecture_code": 1,
    "city": "上川郡美瑛町",
    "city_kana": "カミカワグンビエイチョウ",
    "town": "旭",
    "town_kana": "アサヒ",
    "street": null,
    "office_name": null,
    "office_name_kana": null
  },
  "0292": {
    "postcode": "0710292",
    "prefecture": "北海道",
    "prefecture_kana": "ホッカイドウ",
    "prefecture_code": 1,
    "city": "上川郡美瑛町",
    "city_kana": "カミカワグンビエイチョウ",
    "town": "本町",
    "town_kana": "モトマチ",
    "street": "４丁目６−１",
    "office_name": "美瑛町役場",
    "office_name_kana": "ビエイチヨウヤクバ"
  },
  "0298": {
    "postcode": "0710298",
    "prefecture": "北海道",
    "prefecture_kana": "ホッカイドウ",
    "prefecture_code": 1,
    "city": "上川郡美瑛町",
    "city_kana": "カミカワグンビエイチョウ",
    "town": "中町",
    "town_kana": "ナカマチ",
    "street": "２丁目６−３２（美瑛郵便局私書箱第１号）",
    "office_name": "美瑛町農業協同組合",
    "office_name_kana": "ビエイチヨウノウギヨウキヨウドウクミアイ"
  },
  "0351": {
    "postcode": "0710351",
    "prefecture": "北海道",
    "prefecture_kana": "ホッカイドウ",
    "prefecture_code": 1,
    "city": "上川郡美瑛町",
    "city_kana": "カミカワグンビエイチョウ",
    "town": "横牛",
    "town_kana": "ヨコウシ",
    "street": null,
    "office_name": null,
    "office_name_kana": null
  },
  "0352": {
    "postcode": "0710352",
    "prefecture": "北海道",
    "prefecture_kana": "ホッカイドウ",
    "prefecture_code": 1,
    "city": "上川郡美瑛町",
    "city_kana": "カミカワグンビエイチョウ",
    "town": "朗根内",
    "town_kana": "ロウネナイ",
    "street": null,
    "office_name": null,
    "office_name_kana": null
  },
  "0353": {
    "postcode": "0710353",
    "prefecture": "北海道",
    "prefecture_kana": "ホッカイドウ",
    "prefecture_code": 1,
    "city": "上川郡美瑛町",
    "city_kana": "カミカワグンビエイチョウ",
    "town": "俵真布",
    "town_kana": "タワラマップ",
    "street": null,
    "office_name": null,
    "office_name_kana": null
  },
  "0355": {
    "postcode": "0710355",
    "prefecture": "北海道",
    "prefecture_kana": "ホッカイドウ",
    "prefecture_code": 1,
    "city": "上川郡美瑛町",
    "city_kana": "カミカワグンビエイチョウ",
    "town": "天人峡",
    "town_kana": "テンニンキョウ",
    "street": null,
    "office_name": null,
    "office_name_kana": null
  },
  "0461": {
    "postcode": "0710461",
    "prefecture": "北海道",
    "prefecture_kana": "ホッカイドウ",
    "prefecture_code": 1,
    "city": "上川郡美瑛町",
    "city_kana": "カミカワグンビエイチョウ",
    "town": "美馬牛北",
    "town_kana": "ビバウシキタ",
    "street": null,
    "office_name": null,
    "office_name_kana": null
  },
  "0462": {
    "postcode": "0710462",
    "prefecture": "北海道",
    "prefecture_kana": "ホッカイドウ",
    "prefecture_code": 1,
    "city": "上川郡美瑛町",
    "city_kana": "カミカワグンビエイチョウ",
    "town": "美馬牛南",
    "town_kana": "ビバウシミナミ",
    "street": null,
    "office_name": null,
    "office_name_kana": null
  },
  "0471": {
    "postcode": "0710471",
    "prefecture": "北海道",
    "prefecture_kana": "ホッカイドウ",
    "prefecture_code": 1,
    "city": "上川郡美瑛町",
    "city_kana": "カミカワグンビエイチョウ",
    "town": "美馬牛",
    "town_kana": "ビバウシ",
    "street": null,
    "office_name": null,
    "office_name_kana": null
  },
  "0472": {
    "postcode": "0710472",
    "prefecture": "北海道",
    "prefecture_kana": "ホッカイドウ",
    "prefecture_code": 1,
    "city": "上川郡美瑛町",
    "city_kana": "カミカワグンビエイチョウ",
    "town": "美馬牛市街地",
    "town_kana": "ビバウシシガイチ",
    "street": null,
    "office_name": null,
    "office_name_kana": null
  },
  "0473": {
    "postcode": "0710473",
    "prefecture": "北海道",
    "prefecture_kana": "ホッカイドウ",
    "prefecture_code": 1,
    "city": "上川郡美瑛町",
    "city_kana": "カミカワグンビエイチョウ",
    "town": "新星",
    "town_kana": "シンセイ",
    "street": null,
    "office_name": null,
    "office_name_kana": null
  },
  "0474": {
    "postcode": "0710474",
    "prefecture": "北海道",
    "prefecture_kana": "ホッカイドウ",
    "prefecture_code": 1,
    "city": "上川郡美瑛町",
    "city_kana": "カミカワグンビエイチョウ",
    "town": "拓進",
    "town_kana": "タクシン",
    "street": null,
    "office_name": null,
    "office_name_kana": null
  },
  "0475": {
    "postcode": "0710475",
    "prefecture": "北海道",
    "prefecture_kana": "ホッカイドウ",
    "prefecture_code": 1,
    "city": "上川郡美瑛町",
    "city_kana": "カミカワグンビエイチョウ",
    "town": "常盤",
    "town_kana": "トキワ",
    "street": null,
    "office_name": null,
    "office_name_kana": null
  },
  "0476": {
    "postcode": "0710476",
    "prefecture": "北海道",
    "prefecture_kana": "ホッカイドウ",
    "prefecture_code": 1,
    "city": "上川郡美瑛町",
    "city_kana": "カミカワグンビエイチョウ",
    "town": "御牧",
    "town_kana": "ミマキ",
    "street": null,
    "office_name": null,
    "office_name_kana": null
  },
  "0477": {
    "postcode": "0710477",
    "prefecture": "北海道",
    "prefecture_kana": "ホッカイドウ",
    "prefecture_code": 1,
    "city": "上川郡美瑛町",
    "city_kana": "カミカワグンビエイチョウ",
    "town": "二股",
    "town_kana": "フタマタ",
    "street": null,
    "office_name": null,
    "office_name_kana": null
  },
  "0478": {
    "postcode": "0710478",
    "prefecture": "北海道",
    "prefecture_kana": "ホッカイドウ",
    "prefecture_code": 1,
    "city": "上川郡美瑛町",
    "city_kana": "カミカワグンビエイチョウ",
    "town": "瑠辺蘂",
    "town_kana": "ルベシベ",
    "street": null,
    "office_name": null,
    "office_name_kana": null
  },
  "0479": {
    "postcode": "0710479",
    "prefecture": "北海道",
    "prefecture_kana": "ホッカイドウ",
    "prefecture_code": 1,
    "city": "上川郡美瑛町",
    "city_kana": "カミカワグンビエイチョウ",
    "town": "美園",
    "town_kana": "ミソノ",
    "street": null,
    "office_name": null,
    "office_name_kana": null
  },
  "0500": {
    "postcode": "0710500",
    "prefecture": "北海道",
    "prefecture_kana": "ホッカイドウ",
    "prefecture_code": 1,
    "city": "空知郡上富良野町",
    "city_kana": "ソラチグンカミフラノチョウ",
    "town": "",
    "town_kana": "",
    "street": null,
    "office_name": null,
    "office_name_kana": null
  },
  "0501": {
    "postcode": "0710501",
    "prefecture": "北海道",
    "prefecture_kana": "ホッカイドウ",
    "prefecture_code": 1,
    "city": "空知郡上富良野町",
    "city_kana": "ソラチグンカミフラノチョウ",
    "town": "西１線北",
    "town_kana": "ニシ1センキタ",
    "street": null,
    "office_name": null,
    "office_name_kana": null
  },
  "0502": {
    "postcode": "0710502",
    "prefecture": "北海道",
    "prefecture_kana": "ホッカイドウ",
    "prefecture_code": 1,
    "city": "空知郡上富良野町",
    "city_kana": "ソラチグンカミフラノチョウ",
    "town": "西２線北",
    "town_kana": "ニシ2センキタ",
    "street": null,
    "office_name": null,
    "office_name_kana": null
  },
  "0503": {
    "postcode": "0710503",
    "prefecture": "北海道",
    "prefecture_kana": "ホッカイドウ",
    "prefecture_code": 1,
    "city": "空知郡上富良野町",
    "city_kana": "ソラチグンカミフラノチョウ",
    "town": "西３線北",
    "town_kana": "ニシ3センキタ",
    "street": null,
    "office_name": null,
    "office_name_kana": null
  },
  "0504": {
    "postcode": "0710504",
    "prefecture": "北海道",
    "prefecture_kana": "ホッカイドウ",
    "prefecture_code": 1,
    "city": "空知郡上富良野町",
    "city_kana": "ソラチグンカミフラノチョウ",
    "town": "西４線北",
    "town_kana": "ニシ4センキタ",
    "street": null,
    "office_name": null,
    "office_name_kana": null
  },
  "0505": {
    "postcode": "0710505",
    "prefecture": "北海道",
    "prefecture_kana": "ホッカイドウ",
    "prefecture_code": 1,
    "city": "空知郡上富良野町",
    "city_kana": "ソラチグンカミフラノチョウ",
    "town": "西５線北",
    "town_kana": "ニシ5センキタ",
    "street": null,
    "office_name": null,
    "office_name_kana": null
  },
  "0506": {
    "postcode": "0710506",
    "prefecture": "北海道",
    "prefecture_kana": "ホッカイドウ",
    "prefecture_code": 1,
    "city": "空知郡上富良野町",
    "city_kana": "ソラチグンカミフラノチョウ",
    "town": "西６線北",
    "town_kana": "ニシ6センキタ",
    "street": null,
    "office_name": null,
    "office_name_kana": null
  },
  "0507": {
    "postcode": "0710507",
    "prefecture": "北海道",
    "prefecture_kana": "ホッカイドウ",
    "prefecture_code": 1,
    "city": "空知郡上富良野町",
    "city_kana": "ソラチグンカミフラノチョウ",
    "town": "西７線北",
    "town_kana": "ニシ7センキタ",
    "street": null,
    "office_name": null,
    "office_name_kana": null
  },
  "0508": {
    "postcode": "0710508",
    "prefecture": "北海道",
    "prefecture_kana": "ホッカイドウ",
    "prefecture_code": 1,
    "city": "空知郡上富良野町",
    "city_kana": "ソラチグンカミフラノチョウ",
    "town": "西８線北",
    "town_kana": "ニシ8センキタ",
    "street": null,
    "office_name": null,
    "office_name_kana": null
  },
  "0509": {
    "postcode": "0710509",
    "prefecture": "北海道",
    "prefecture_kana": "ホッカイドウ",
    "prefecture_code": 1,
    "city": "空知郡上富良野町",
    "city_kana": "ソラチグンカミフラノチョウ",
    "town": "西９線北",
    "town_kana": "ニシ9センキタ",
    "street": null,
    "office_name": null,
    "office_name_kana": null
  },
  "0510": {
    "postcode": "0710510",
    "prefecture": "北海道",
    "prefecture_kana": "ホッカイドウ",
    "prefecture_code": 1,
    "city": "空知郡上富良野町",
    "city_kana": "ソラチグンカミフラノチョウ",
    "town": "西１０線北",
    "town_kana": "ニシ10センキタ",
    "street": null,
    "office_name": null,
    "office_name_kana": null
  },
  "0511": {
    "postcode": "0710511",
    "prefecture": "北海道",
    "prefecture_kana": "ホッカイドウ",
    "prefecture_code": 1,
    "city": "空知郡上富良野町",
    "city_kana": "ソラチグンカミフラノチョウ",
    "town": "西１１線北",
    "town_kana": "ニシ11センキタ",
    "street": null,
    "office_name": null,
    "office_name_kana": null
  },
  "0512": {
    "postcode": "0710512",
    "prefecture": "北海道",
    "prefecture_kana": "ホッカイドウ",
    "prefecture_code": 1,
    "city": "空知郡上富良野町",
    "city_kana": "ソラチグンカミフラノチョウ",
    "town": "西１２線北",
    "town_kana": "ニシ12センキタ",
    "street": null,
    "office_name": null,
    "office_name_kana": null
  },
  "0513": {
    "postcode": "0710513",
    "prefecture": "北海道",
    "prefecture_kana": "ホッカイドウ",
    "prefecture_code": 1,
    "city": "空知郡上富良野町",
    "city_kana": "ソラチグンカミフラノチョウ",
    "town": "西１３線北",
    "town_kana": "ニシ13センキタ",
    "street": null,
    "office_name": null,
    "office_name_kana": null
  },
  "0514": {
    "postcode": "0710514",
    "prefecture": "北海道",
    "prefecture_kana": "ホッカイドウ",
    "prefecture_code": 1,
    "city": "空知郡上富良野町",
    "city_kana": "ソラチグンカミフラノチョウ",
    "town": "西１４線北",
    "town_kana": "ニシ14センキタ",
    "street": null,
    "office_name": null,
    "office_name_kana": null
  },
  "0515": {
    "postcode": "0710515",
    "prefecture": "北海道",
    "prefecture_kana": "ホッカイドウ",
    "prefecture_code": 1,
    "city": "空知郡上富良野町",
    "city_kana": "ソラチグンカミフラノチョウ",
    "town": "西１５線北",
    "town_kana": "ニシ15センキタ",
    "street": null,
    "office_name": null,
    "office_name_kana": null
  },
  "0516": {
    "postcode": "0710516",
    "prefecture": "北海道",
    "prefecture_kana": "ホッカイドウ",
    "prefecture_code": 1,
    "city": "空知郡上富良野町",
    "city_kana": "ソラチグンカミフラノチョウ",
    "town": "西１６線北",
    "town_kana": "ニシ16センキタ",
    "street": null,
    "office_name": null,
    "office_name_kana": null
  },
  "0517": {
    "postcode": "0710517",
    "prefecture": "北海道",
    "prefecture_kana": "ホッカイドウ",
    "prefecture_code": 1,
    "city": "空知郡上富良野町",
    "city_kana": "ソラチグンカミフラノチョウ",
    "town": "沼崎農場",
    "town_kana": "ヌマザキノウジョウ",
    "street": null,
    "office_name": null,
    "office_name_kana": null
  },
  "0520": {
    "postcode": "0710520",
    "prefecture": "北海道",
    "prefecture_kana": "ホッカイドウ",
    "prefecture_code": 1,
    "city": "空知郡上富良野町",
    "city_kana": "ソラチグンカミフラノチョウ",
    "town": "基線北",
    "town_kana": "キセンキタ",
    "street": null,
    "office_name": null,
    "office_name_kana": null
  },
  "0521": {
    "postcode": "0710521",
    "prefecture": "北海道",
    "prefecture_kana": "ホッカイドウ",
    "prefecture_code": 1,
    "city": "空知郡上富良野町",
    "city_kana": "ソラチグンカミフラノチョウ",
    "town": "東１線北",
    "town_kana": "ヒガシ1センキタ",
    "street": null,
    "office_name": null,
    "office_name_kana": null
  },
  "0522": {
    "postcode": "0710522",
    "prefecture": "北海道",
    "prefecture_kana": "ホッカイドウ",
    "prefecture_code": 1,
    "city": "空知郡上富良野町",
    "city_kana": "ソラチグンカミフラノチョウ",
    "town": "東２線北",
    "town_kana": "ヒガシ2センキタ",
    "street": null,
    "office_name": null,
    "office_name_kana": null
  },
  "0523": {
    "postcode": "0710523",
    "prefecture": "北海道",
    "prefecture_kana": "ホッカイドウ",
    "prefecture_code": 1,
    "city": "空知郡上富良野町",
    "city_kana": "ソラチグンカミフラノチョウ",
    "town": "東３線北",
    "town_kana": "ヒガシ3センキタ",
    "street": null,
    "office_name": null,
    "office_name_kana": null
  },
  "0524": {
    "postcode": "0710524",
    "prefecture": "北海道",
    "prefecture_kana": "ホッカイドウ",
    "prefecture_code": 1,
    "city": "空知郡上富良野町",
    "city_kana": "ソラチグンカミフラノチョウ",
    "town": "東４線北",
    "town_kana": "ヒガシ4センキタ",
    "street": null,
    "office_name": null,
    "office_name_kana": null
  },
  "0525": {
    "postcode": "0710525",
    "prefecture": "北海道",
    "prefecture_kana": "ホッカイドウ",
    "prefecture_code": 1,
    "city": "空知郡上富良野町",
    "city_kana": "ソラチグンカミフラノチョウ",
    "town": "東５線北",
    "town_kana": "ヒガシ5センキタ",
    "street": null,
    "office_name": null,
    "office_name_kana": null
  },
  "0526": {
    "postcode": "0710526",
    "prefecture": "北海道",
    "prefecture_kana": "ホッカイドウ",
    "prefecture_code": 1,
    "city": "空知郡上富良野町",
    "city_kana": "ソラチグンカミフラノチョウ",
    "town": "東６線北",
    "town_kana": "ヒガシ6センキタ",
    "street": null,
    "office_name": null,
    "office_name_kana": null
  },
  "0527": {
    "postcode": "0710527",
    "prefecture": "北海道",
    "prefecture_kana": "ホッカイドウ",
    "prefecture_code": 1,
    "city": "空知郡上富良野町",
    "city_kana": "ソラチグンカミフラノチョウ",
    "town": "東７線北",
    "town_kana": "ヒガシ7センキタ",
    "street": null,
    "office_name": null,
    "office_name_kana": null
  },
  "0528": {
    "postcode": "0710528",
    "prefecture": "北海道",
    "prefecture_kana": "ホッカイドウ",
    "prefecture_code": 1,
    "city": "空知郡上富良野町",
    "city_kana": "ソラチグンカミフラノチョウ",
    "town": "東８線北",
    "town_kana": "ヒガシ8センキタ",
    "street": null,
    "office_name": null,
    "office_name_kana": null
  },
  "0529": {
    "postcode": "0710529",
    "prefecture": "北海道",
    "prefecture_kana": "ホッカイドウ",
    "prefecture_code": 1,
    "city": "空知郡上富良野町",
    "city_kana": "ソラチグンカミフラノチョウ",
    "town": "東９線北",
    "town_kana": "ヒガシ9センキタ",
    "street": null,
    "office_name": null,
    "office_name_kana": null
  },
  "0530": {
    "postcode": "0710530",
    "prefecture": "北海道",
    "prefecture_kana": "ホッカイドウ",
    "prefecture_code": 1,
    "city": "空知郡上富良野町",
    "city_kana": "ソラチグンカミフラノチョウ",
    "town": "東１０線北",
    "town_kana": "ヒガシ10センキタ",
    "street": null,
    "office_name": null,
    "office_name_kana": null
  },
  "0531": {
    "postcode": "0710531",
    "prefecture": "北海道",
    "prefecture_kana": "ホッカイドウ",
    "prefecture_code": 1,
    "city": "空知郡上富良野町",
    "city_kana": "ソラチグンカミフラノチョウ",
    "town": "東１１線北",
    "town_kana": "ヒガシ11センキタ",
    "street": null,
    "office_name": null,
    "office_name_kana": null
  },
  "0532": {
    "postcode": "0710532",
    "prefecture": "北海道",
    "prefecture_kana": "ホッカイドウ",
    "prefecture_code": 1,
    "city": "空知郡上富良野町",
    "city_kana": "ソラチグンカミフラノチョウ",
    "town": "東１２線北",
    "town_kana": "ヒガシ12センキタ",
    "street": null,
    "office_name": null,
    "office_name_kana": null
  },
  "0533": {
    "postcode": "0710533",
    "prefecture": "北海道",
    "prefecture_kana": "ホッカイドウ",
    "prefecture_code": 1,
    "city": "空知郡上富良野町",
    "city_kana": "ソラチグンカミフラノチョウ",
    "town": "倍本農場",
    "town_kana": "バイホンノウジョウ",
    "street": null,
    "office_name": null,
    "office_name_kana": null
  },
  "0534": {
    "postcode": "0710534",
    "prefecture": "北海道",
    "prefecture_kana": "ホッカイドウ",
    "prefecture_code": 1,
    "city": "空知郡上富良野町",
    "city_kana": "ソラチグンカミフラノチョウ",
    "town": "西谷牧場",
    "town_kana": "ニシタニボクジョウ",
    "street": null,
    "office_name": null,
    "office_name_kana": null
  },
  "0541": {
    "postcode": "0710541",
    "prefecture": "北海道",
    "prefecture_kana": "ホッカイドウ",
    "prefecture_code": 1,
    "city": "空知郡上富良野町",
    "city_kana": "ソラチグンカミフラノチョウ",
    "town": "富町",
    "town_kana": "トミマチ",
    "street": null,
    "office_name": null,
    "office_name_kana": null
  },
  "0542": {
    "postcode": "0710542",
    "prefecture": "北海道",
    "prefecture_kana": "ホッカイドウ",
    "prefecture_code": 1,
    "city": "空知郡上富良野町",
    "city_kana": "ソラチグンカミフラノチョウ",
    "town": "錦町",
    "town_kana": "ニシキマチ",
    "street": null,
    "office_name": null,
    "office_name_kana": null
  },
  "0543": {
    "postcode": "0710543",
    "prefecture": "北海道",
    "prefecture_kana": "ホッカイドウ",
    "prefecture_code": 1,
    "city": "空知郡上富良野町",
    "city_kana": "ソラチグンカミフラノチョウ",
    "town": "中町",
    "town_kana": "ナカマチ",
    "street": null,
    "office_name": null,
    "office_name_kana": null
  },
  "0544": {
    "postcode": "0710544",
    "prefecture": "北海道",
    "prefecture_kana": "ホッカイドウ",
    "prefecture_code": 1,
    "city": "空知郡上富良野町",
    "city_kana": "ソラチグンカミフラノチョウ",
    "town": "栄町",
    "town_kana": "サカエマチ",
    "street": null,
    "office_name": null,
    "office_name_kana": null
  },
  "0545": {
    "postcode": "0710545",
    "prefecture": "北海道",
    "prefecture_kana": "ホッカイドウ",
    "prefecture_code": 1,
    "city": "空知郡上富良野町",
    "city_kana": "ソラチグンカミフラノチョウ",
    "town": "光町",
    "town_kana": "ヒカリマチ",
    "street": null,
    "office_name": null,
    "office_name_kana": null
  },
  "0546": {
    "postcode": "0710546",
    "prefecture": "北海道",
    "prefecture_kana": "ホッカイドウ",
    "prefecture_code": 1,
    "city": "空知郡上富良野町",
    "city_kana": "ソラチグンカミフラノチョウ",
    "town": "西町",
    "town_kana": "ニシマチ",
    "street": null,
    "office_name": null,
    "office_name_kana": null
  },
  "0547": {
    "postcode": "0710547",
    "prefecture": "北海道",
    "prefecture_kana": "ホッカイドウ",
    "prefecture_code": 1,
    "city": "空知郡上富良野町",
    "city_kana": "ソラチグンカミフラノチョウ",
    "town": "泉町",
    "town_kana": "イズミマチ",
    "street": null,
    "office_name": null,
    "office_name_kana": null
  },
  "0548": {
    "postcode": "0710548",
    "prefecture": "北海道",
    "prefecture_kana": "ホッカイドウ",
    "prefecture_code": 1,
    "city": "空知郡上富良野町",
    "city_kana": "ソラチグンカミフラノチョウ",
    "town": "扇町",
    "town_kana": "オウギマチ",
    "street": null,
    "office_name": null,
    "office_name_kana": null
  },
  "0549": {
    "postcode": "0710549",
    "prefecture": "北海道",
    "prefecture_kana": "ホッカイドウ",
    "prefecture_code": 1,
    "city": "空知郡上富良野町",
    "city_kana": "ソラチグンカミフラノチョウ",
    "town": "北町",
    "town_kana": "キタマチ",
    "street": null,
    "office_name": null,
    "office_name_kana": null
  },
  "0551": {
    "postcode": "0710551",
    "prefecture": "北海道",
    "prefecture_kana": "ホッカイドウ",
    "prefecture_code": 1,
    "city": "空知郡上富良野町",
    "city_kana": "ソラチグンカミフラノチョウ",
    "town": "本町",
    "town_kana": "モトマチ",
    "street": null,
    "office_name": null,
    "office_name_kana": null
  },
  "0552": {
    "postcode": "0710552",
    "prefecture": "北海道",
    "prefecture_kana": "ホッカイドウ",
    "prefecture_code": 1,
    "city": "空知郡上富良野町",
    "city_kana": "ソラチグンカミフラノチョウ",
    "town": "宮町",
    "town_kana": "ミヤマチ",
    "street": null,
    "office_name": null,
    "office_name_kana": null
  },
  "0553": {
    "postcode": "0710553",
    "prefecture": "北海道",
    "prefecture_kana": "ホッカイドウ",
    "prefecture_code": 1,
    "city": "空知郡上富良野町",
    "city_kana": "ソラチグンカミフラノチョウ",
    "town": "旭町",
    "town_kana": "アサヒマチ",
    "street": null,
    "office_name": null,
    "office_name_kana": null
  },
  "0554": {
    "postcode": "0710554",
    "prefecture": "北海道",
    "prefecture_kana": "ホッカイドウ",
    "prefecture_code": 1,
    "city": "空知郡上富良野町",
    "city_kana": "ソラチグンカミフラノチョウ",
    "town": "新町",
    "town_kana": "シンマチ",
    "street": null,
    "office_name": null,
    "office_name_kana": null
  },
  "0555": {
    "postcode": "0710555",
    "prefecture": "北海道",
    "prefecture_kana": "ホッカイドウ",
    "prefecture_code": 1,
    "city": "空知郡上富良野町",
    "city_kana": "ソラチグンカミフラノチョウ",
    "town": "東町",
    "town_kana": "ヒガシマチ",
    "street": null,
    "office_name": null,
    "office_name_kana": null
  },
  "0561": {
    "postcode": "0710561",
    "prefecture": "北海道",
    "prefecture_kana": "ホッカイドウ",
    "prefecture_code": 1,
    "city": "空知郡上富良野町",
    "city_kana": "ソラチグンカミフラノチョウ",
    "town": "大町",
    "town_kana": "オオマチ",
    "street": null,
    "office_name": null,
    "office_name_kana": null
  },
  "0562": {
    "postcode": "0710562",
    "prefecture": "北海道",
    "prefecture_kana": "ホッカイドウ",
    "prefecture_code": 1,
    "city": "空知郡上富良野町",
    "city_kana": "ソラチグンカミフラノチョウ",
    "town": "南町",
    "town_kana": "ミナミマチ",
    "street": null,
    "office_name": null,
    "office_name_kana": null
  },
  "0563": {
    "postcode": "0710563",
    "prefecture": "北海道",
    "prefecture_kana": "ホッカイドウ",
    "prefecture_code": 1,
    "city": "空知郡上富良野町",
    "city_kana": "ソラチグンカミフラノチョウ",
    "town": "緑町",
    "town_kana": "ミドリマチ",
    "street": null,
    "office_name": null,
    "office_name_kana": null
  },
  "0564": {
    "postcode": "0710564",
    "prefecture": "北海道",
    "prefecture_kana": "ホッカイドウ",
    "prefecture_code": 1,
    "city": "空知郡上富良野町",
    "city_kana": "ソラチグンカミフラノチョウ",
    "town": "桜町",
    "town_kana": "サクラマチ",
    "street": null,
    "office_name": null,
    "office_name_kana": null
  },
  "0565": {
    "postcode": "0710565",
    "prefecture": "北海道",
    "prefecture_kana": "ホッカイドウ",
    "prefecture_code": 1,
    "city": "空知郡上富良野町",
    "city_kana": "ソラチグンカミフラノチョウ",
    "town": "丘町",
    "town_kana": "オカマチ",
    "street": null,
    "office_name": null,
    "office_name_kana": null
  },
  "0566": {
    "postcode": "0710566",
    "prefecture": "北海道",
    "prefecture_kana": "ホッカイドウ",
    "prefecture_code": 1,
    "city": "空知郡上富良野町",
    "city_kana": "ソラチグンカミフラノチョウ",
    "town": "向町",
    "town_kana": "ムカイマチ",
    "street": null,
    "office_name": null,
    "office_name_kana": null
  },
  "0571": {
    "postcode": "0710571",
    "prefecture": "北海道",
    "prefecture_kana": "ホッカイドウ",
    "prefecture_code": 1,
    "city": "空知郡上富良野町",
    "city_kana": "ソラチグンカミフラノチョウ",
    "town": "新井牧場",
    "town_kana": "アライボクジョウ",
    "street": null,
    "office_name": null,
    "office_name_kana": null
  },
  "0572": {
    "postcode": "0710572",
    "prefecture": "北海道",
    "prefecture_kana": "ホッカイドウ",
    "prefecture_code": 1,
    "city": "空知郡上富良野町",
    "city_kana": "ソラチグンカミフラノチョウ",
    "town": "細野農場",
    "town_kana": "ホソノノウジョウ",
    "street": null,
    "office_name": null,
    "office_name_kana": null
  },
  "0573": {
    "postcode": "0710573",
    "prefecture": "北海道",
    "prefecture_kana": "ホッカイドウ",
    "prefecture_code": 1,
    "city": "空知郡上富良野町",
    "city_kana": "ソラチグンカミフラノチョウ",
    "town": "松井牧場",
    "town_kana": "マツイボクジョウ",
    "street": null,
    "office_name": null,
    "office_name_kana": null
  },
  "0574": {
    "postcode": "0710574",
    "prefecture": "北海道",
    "prefecture_kana": "ホッカイドウ",
    "prefecture_code": 1,
    "city": "空知郡上富良野町",
    "city_kana": "ソラチグンカミフラノチョウ",
    "town": "第１安井牧場",
    "town_kana": "ダイ1ヤスイボクジョウ",
    "street": null,
    "office_name": null,
    "office_name_kana": null
  },
  "0575": {
    "postcode": "0710575",
    "prefecture": "北海道",
    "prefecture_kana": "ホッカイドウ",
    "prefecture_code": 1,
    "city": "空知郡上富良野町",
    "city_kana": "ソラチグンカミフラノチョウ",
    "town": "第２安井牧場",
    "town_kana": "ダイ2ヤスイボクジョウ",
    "street": null,
    "office_name": null,
    "office_name_kana": null
  },
  "0576": {
    "postcode": "0710576",
    "prefecture": "北海道",
    "prefecture_kana": "ホッカイドウ",
    "prefecture_code": 1,
    "city": "空知郡上富良野町",
    "city_kana": "ソラチグンカミフラノチョウ",
    "town": "十人牧場",
    "town_kana": "ジュウニンボクジョウ",
    "street": null,
    "office_name": null,
    "office_name_kana": null
  },
  "0577": {
    "postcode": "0710577",
    "prefecture": "北海道",
    "prefecture_kana": "ホッカイドウ",
    "prefecture_code": 1,
    "city": "空知郡上富良野町",
    "city_kana": "ソラチグンカミフラノチョウ",
    "town": "中の沢",
    "town_kana": "ナカノサワ",
    "street": null,
    "office_name": null,
    "office_name_kana": null
  },
  "0578": {
    "postcode": "0710578",
    "prefecture": "北海道",
    "prefecture_kana": "ホッカイドウ",
    "prefecture_code": 1,
    "city": "空知郡上富良野町",
    "city_kana": "ソラチグンカミフラノチョウ",
    "town": "山加農場",
    "town_kana": "ヤマカノウジョウ",
    "street": null,
    "office_name": null,
    "office_name_kana": null
  },
  "0579": {
    "postcode": "0710579",
    "prefecture": "北海道",
    "prefecture_kana": "ホッカイドウ",
    "prefecture_code": 1,
    "city": "空知郡上富良野町",
    "city_kana": "ソラチグンカミフラノチョウ",
    "town": "吹上",
    "town_kana": "フキアゲ",
    "street": null,
    "office_name": null,
    "office_name_kana": null
  },
  "0583": {
    "postcode": "0710583",
    "prefecture": "北海道",
    "prefecture_kana": "ホッカイドウ",
    "prefecture_code": 1,
    "city": "空知郡上富良野町",
    "city_kana": "ソラチグンカミフラノチョウ",
    "town": "津郷農場",
    "town_kana": "ツゴウノウジョウ",
    "street": null,
    "office_name": null,
    "office_name_kana": null
  },
  "0596": {
    "postcode": "0710596",
    "prefecture": "北海道",
    "prefecture_kana": "ホッカイドウ",
    "prefecture_code": 1,
    "city": "空知郡上富良野町",
    "city_kana": "ソラチグンカミフラノチョウ",
    "town": "大町",
    "town_kana": "オオマチ",
    "street": "２丁目２−１１",
    "office_name": "上富良野町役場",
    "office_name_kana": "カミフラノチヨウヤクバ"
  },
  "0597": {
    "postcode": "0710597",
    "prefecture": "北海道",
    "prefecture_kana": "ホッカイドウ",
    "prefecture_code": 1,
    "city": "空知郡上富良野町",
    "city_kana": "ソラチグンカミフラノチョウ",
    "town": "栄町",
    "town_kana": "サカエマチ",
    "street": "２丁目２−４５",
    "office_name": "ふらの農業協同組合　上富良野支所",
    "office_name_kana": "フラノノウギヨウキヨウドウクミアイ カミフラノシシヨ"
  },
  "0700": {
    "postcode": "0710700",
    "prefecture": "北海道",
    "prefecture_kana": "ホッカイドウ",
    "prefecture_code": 1,
    "city": "空知郡中富良野町",
    "city_kana": "ソラチグンナカフラノチョウ",
    "town": "",
    "town_kana": "",
    "street": null,
    "office_name": null,
    "office_name_kana": null
  },
  "0704": {
    "postcode": "0710704",
    "prefecture": "北海道",
    "prefecture_kana": "ホッカイドウ",
    "prefecture_code": 1,
    "city": "空知郡中富良野町",
    "city_kana": "ソラチグンナカフラノチョウ",
    "town": "基線北",
    "town_kana": "キセンキタ",
    "street": null,
    "office_name": null,
    "office_name_kana": null
  },
  "0705": {
    "postcode": "0710705",
    "prefecture": "北海道",
    "prefecture_kana": "ホッカイドウ",
    "prefecture_code": 1,
    "city": "空知郡中富良野町",
    "city_kana": "ソラチグンナカフラノチョウ",
    "town": "西１線北",
    "town_kana": "ニシ1センキタ",
    "street": null,
    "office_name": null,
    "office_name_kana": null
  },
  "0706": {
    "postcode": "0710706",
    "prefecture": "北海道",
    "prefecture_kana": "ホッカイドウ",
    "prefecture_code": 1,
    "city": "空知郡中富良野町",
    "city_kana": "ソラチグンナカフラノチョウ",
    "town": "西２線北",
    "town_kana": "ニシ2センキタ",
    "street": null,
    "office_name": null,
    "office_name_kana": null
  },
  "0707": {
    "postcode": "0710707",
    "prefecture": "北海道",
    "prefecture_kana": "ホッカイドウ",
    "prefecture_code": 1,
    "city": "空知郡中富良野町",
    "city_kana": "ソラチグンナカフラノチョウ",
    "town": "西３線北",
    "town_kana": "ニシ3センキタ",
    "street": null,
    "office_name": null,
    "office_name_kana": null
  },
  "0711": [
    {
      "postcode": "0710711",
      "prefecture": "北海道",
      "prefecture_kana": "ホッカイドウ",
      "prefecture_code": 1,
      "city": "空知郡中富良野町",
      "city_kana": "ソラチグンナカフラノチョウ",
      "town": "ベベルイ",
      "town_kana": "ベベルイ",
      "street": null,
      "office_name": null,
      "office_name_kana": null
    },
    {
      "postcode": "0710711",
      "prefecture": "北海道",
      "prefecture_kana": "ホッカイドウ",
      "prefecture_code": 1,
      "city": "空知郡中富良野町",
      "city_kana": "ソラチグンナカフラノチョウ",
      "town": "ベベルイ本幸",
      "town_kana": "ベベルイホンコウ",
      "street": null,
      "office_name": null,
      "office_name_kana": null
    }
  ],
  "0714": {
    "postcode": "0710714",
    "prefecture": "北海道",
    "prefecture_kana": "ホッカイドウ",
    "prefecture_code": 1,
    "city": "空知郡中富良野町",
    "city_kana": "ソラチグンナカフラノチョウ",
    "town": "宮町",
    "town_kana": "ミヤマチ",
    "street": null,
    "office_name": null,
    "office_name_kana": null
  },
  "0726": {
    "postcode": "0710726",
    "prefecture": "北海道",
    "prefecture_kana": "ホッカイドウ",
    "prefecture_code": 1,
    "city": "空知郡中富良野町",
    "city_kana": "ソラチグンナカフラノチョウ",
    "town": "東町",
    "town_kana": "ヒガシマチ",
    "street": null,
    "office_name": null,
    "office_name_kana": null
  },
  "0731": {
    "postcode": "0710731",
    "prefecture": "北海道",
    "prefecture_kana": "ホッカイドウ",
    "prefecture_code": 1,
    "city": "空知郡中富良野町",
    "city_kana": "ソラチグンナカフラノチョウ",
    "town": "新田中農場",
    "town_kana": "シンタナカノウジョウ",
    "street": null,
    "office_name": null,
    "office_name_kana": null
  },
  "0732": [
    {
      "postcode": "0710732",
      "prefecture": "北海道",
      "prefecture_kana": "ホッカイドウ",
      "prefecture_code": 1,
      "city": "空知郡中富良野町",
      "city_kana": "ソラチグンナカフラノチョウ",
      "town": "田中農場",
      "town_kana": "タナカノウジョウ",
      "street": null,
      "office_name": null,
      "office_name_kana": null
    },
    {
      "postcode": "0710732",
      "prefecture": "北海道",
      "prefecture_kana": "ホッカイドウ",
      "prefecture_code": 1,
      "city": "空知郡中富良野町",
      "city_kana": "ソラチグンナカフラノチョウ",
      "town": "田中農場鈴和",
      "town_kana": "タナカノウジョウレイカ",
      "street": null,
      "office_name": null,
      "office_name_kana": null
    },
    {
      "postcode": "0710732",
      "prefecture": "北海道",
      "prefecture_kana": "ホッカイドウ",
      "prefecture_code": 1,
      "city": "空知郡中富良野町",
      "city_kana": "ソラチグンナカフラノチョウ",
      "town": "田中農場山仁農場",
      "town_kana": "タナカノウジョウヤマニノウジョウ",
      "street": null,
      "office_name": null,
      "office_name_kana": null
    },
    {
      "postcode": "0710732",
      "prefecture": "北海道",
      "prefecture_kana": "ホッカイドウ",
      "prefecture_code": 1,
      "city": "空知郡中富良野町",
      "city_kana": "ソラチグンナカフラノチョウ",
      "town": "田中農場山仁牧場",
      "town_kana": "タナカノウジョウヤマニボクジョウ",
      "street": null,
      "office_name": null,
      "office_name_kana": null
    }
  ],
  "0733": [
    {
      "postcode": "0710733",
      "prefecture": "北海道",
      "prefecture_kana": "ホッカイドウ",
      "prefecture_code": 1,
      "city": "空知郡中富良野町",
      "city_kana": "ソラチグンナカフラノチョウ",
      "town": "伊藤農場",
      "town_kana": "イトウノウジョウ",
      "street": null,
      "office_name": null,
      "office_name_kana": null
    },
    {
      "postcode": "0710733",
      "prefecture": "北海道",
      "prefecture_kana": "ホッカイドウ",
      "prefecture_code": 1,
      "city": "空知郡中富良野町",
      "city_kana": "ソラチグンナカフラノチョウ",
      "town": "伊藤農場渋毛牛",
      "town_kana": "イトウノウジョウシブケウシ",
      "street": null,
      "office_name": null,
      "office_name_kana": null
    }
  ],
  "0734": [
    {
      "postcode": "0710734",
      "prefecture": "北海道",
      "prefecture_kana": "ホッカイドウ",
      "prefecture_code": 1,
      "city": "空知郡中富良野町",
      "city_kana": "ソラチグンナカフラノチョウ",
      "town": "鹿討農場",
      "town_kana": "シカウチノウジョウ",
      "street": null,
      "office_name": null,
      "office_name_kana": null
    },
    {
      "postcode": "0710734",
      "prefecture": "北海道",
      "prefecture_kana": "ホッカイドウ",
      "prefecture_code": 1,
      "city": "空知郡中富良野町",
      "city_kana": "ソラチグンナカフラノチョウ",
      "town": "鹿討農場鹿討",
      "town_kana": "シカウチノウジョウシカウチ",
      "street": null,
      "office_name": null,
      "office_name_kana": null
    }
  ],
  "0735": {
    "postcode": "0710735",
    "prefecture": "北海道",
    "prefecture_kana": "ホッカイドウ",
    "prefecture_code": 1,
    "city": "空知郡中富良野町",
    "city_kana": "ソラチグンナカフラノチョウ",
    "town": "日進",
    "town_kana": "ニッシン",
    "street": null,
    "office_name": null,
    "office_name_kana": null
  },
  "0736": [
    {
      "postcode": "0710736",
      "prefecture": "北海道",
      "prefecture_kana": "ホッカイドウ",
      "prefecture_code": 1,
      "city": "空知郡中富良野町",
      "city_kana": "ソラチグンナカフラノチョウ",
      "town": "吉井農場",
      "town_kana": "ヨシイノウジョウ",
      "street": null,
      "office_name": null,
      "office_name_kana": null
    },
    {
      "postcode": "0710736",
      "prefecture": "北海道",
      "prefecture_kana": "ホッカイドウ",
      "prefecture_code": 1,
      "city": "空知郡中富良野町",
      "city_kana": "ソラチグンナカフラノチョウ",
      "town": "吉井農場吉井",
      "town_kana": "ヨシイノウジョウヨシイ",
      "street": null,
      "office_name": null,
      "office_name_kana": null
    }
  ],
  "0737": {
    "postcode": "0710737",
    "prefecture": "北海道",
    "prefecture_kana": "ホッカイドウ",
    "prefecture_code": 1,
    "city": "空知郡中富良野町",
    "city_kana": "ソラチグンナカフラノチョウ",
    "town": "奈江",
    "town_kana": "ナエ",
    "street": null,
    "office_name": null,
    "office_name_kana": null
  },
  "0742": [
    {
      "postcode": "0710742",
      "prefecture": "北海道",
      "prefecture_kana": "ホッカイドウ",
      "prefecture_code": 1,
      "city": "空知郡中富良野町",
      "city_kana": "ソラチグンナカフラノチョウ",
      "town": "福原農場",
      "town_kana": "フクハラノウジョウ",
      "street": null,
      "office_name": null,
      "office_name_kana": null
    },
    {
      "postcode": "0710742",
      "prefecture": "北海道",
      "prefecture_kana": "ホッカイドウ",
      "prefecture_code": 1,
      "city": "空知郡中富良野町",
      "city_kana": "ソラチグンナカフラノチョウ",
      "town": "福原農場福原",
      "town_kana": "フクハラノウジョウフクハラ",
      "street": null,
      "office_name": null,
      "office_name_kana": null
    }
  ],
  "0751": {
    "postcode": "0710751",
    "prefecture": "北海道",
    "prefecture_kana": "ホッカイドウ",
    "prefecture_code": 1,
    "city": "空知郡中富良野町",
    "city_kana": "ソラチグンナカフラノチョウ",
    "town": "北町",
    "town_kana": "キタマチ",
    "street": null,
    "office_name": null,
    "office_name_kana": null
  },
  "0752": {
    "postcode": "0710752",
    "prefecture": "北海道",
    "prefecture_kana": "ホッカイドウ",
    "prefecture_code": 1,
    "city": "空知郡中富良野町",
    "city_kana": "ソラチグンナカフラノチョウ",
    "town": "本町",
    "town_kana": "モトマチ",
    "street": null,
    "office_name": null,
    "office_name_kana": null
  },
  "0753": {
    "postcode": "0710753",
    "prefecture": "北海道",
    "prefecture_kana": "ホッカイドウ",
    "prefecture_code": 1,
    "city": "空知郡中富良野町",
    "city_kana": "ソラチグンナカフラノチョウ",
    "town": "南町",
    "town_kana": "ミナミマチ",
    "street": null,
    "office_name": null,
    "office_name_kana": null
  },
  "0754": {
    "postcode": "0710754",
    "prefecture": "北海道",
    "prefecture_kana": "ホッカイドウ",
    "prefecture_code": 1,
    "city": "空知郡中富良野町",
    "city_kana": "ソラチグンナカフラノチョウ",
    "town": "新町",
    "town_kana": "シンマチ",
    "street": null,
    "office_name": null,
    "office_name_kana": null
  },
  "0755": {
    "postcode": "0710755",
    "prefecture": "北海道",
    "prefecture_kana": "ホッカイドウ",
    "prefecture_code": 1,
    "city": "空知郡中富良野町",
    "city_kana": "ソラチグンナカフラノチョウ",
    "town": "旭町",
    "town_kana": "アサヒマチ",
    "street": null,
    "office_name": null,
    "office_name_kana": null
  },
  "0761": {
    "postcode": "0710761",
    "prefecture": "北海道",
    "prefecture_kana": "ホッカイドウ",
    "prefecture_code": 1,
    "city": "空知郡中富良野町",
    "city_kana": "ソラチグンナカフラノチョウ",
    "town": "西町",
    "town_kana": "ニシマチ",
    "street": null,
    "office_name": null,
    "office_name_kana": null
  },
  "0762": {
    "postcode": "0710762",
    "prefecture": "北海道",
    "prefecture_kana": "ホッカイドウ",
    "prefecture_code": 1,
    "city": "空知郡中富良野町",
    "city_kana": "ソラチグンナカフラノチョウ",
    "town": "丘町",
    "town_kana": "オカマチ",
    "street": null,
    "office_name": null,
    "office_name_kana": null
  },
  "0770": {
    "postcode": "0710770",
    "prefecture": "北海道",
    "prefecture_kana": "ホッカイドウ",
    "prefecture_code": 1,
    "city": "空知郡中富良野町",
    "city_kana": "ソラチグンナカフラノチョウ",
    "town": "暁町",
    "town_kana": "アカツキマチ",
    "street": null,
    "office_name": null,
    "office_name_kana": null
  },
  "0771": {
    "postcode": "0710771",
    "prefecture": "北海道",
    "prefecture_kana": "ホッカイドウ",
    "prefecture_code": 1,
    "city": "空知郡中富良野町",
    "city_kana": "ソラチグンナカフラノチョウ",
    "town": "東１線北",
    "town_kana": "ヒガシ1センキタ",
    "street": null,
    "office_name": null,
    "office_name_kana": null
  },
  "0772": {
    "postcode": "0710772",
    "prefecture": "北海道",
    "prefecture_kana": "ホッカイドウ",
    "prefecture_code": 1,
    "city": "空知郡中富良野町",
    "city_kana": "ソラチグンナカフラノチョウ",
    "town": "東２線北",
    "town_kana": "ヒガシ2センキタ",
    "street": null,
    "office_name": null,
    "office_name_kana": null
  },
  "0773": {
    "postcode": "0710773",
    "prefecture": "北海道",
    "prefecture_kana": "ホッカイドウ",
    "prefecture_code": 1,
    "city": "空知郡中富良野町",
    "city_kana": "ソラチグンナカフラノチョウ",
    "town": "東３線北",
    "town_kana": "ヒガシ3センキタ",
    "street": null,
    "office_name": null,
    "office_name_kana": null
  },
  "0774": {
    "postcode": "0710774",
    "prefecture": "北海道",
    "prefecture_kana": "ホッカイドウ",
    "prefecture_code": 1,
    "city": "空知郡中富良野町",
    "city_kana": "ソラチグンナカフラノチョウ",
    "town": "東４線北",
    "town_kana": "ヒガシ4センキタ",
    "street": null,
    "office_name": null,
    "office_name_kana": null
  },
  "0775": {
    "postcode": "0710775",
    "prefecture": "北海道",
    "prefecture_kana": "ホッカイドウ",
    "prefecture_code": 1,
    "city": "空知郡中富良野町",
    "city_kana": "ソラチグンナカフラノチョウ",
    "town": "東５線北",
    "town_kana": "ヒガシ5センキタ",
    "street": null,
    "office_name": null,
    "office_name_kana": null
  },
  "0776": {
    "postcode": "0710776",
    "prefecture": "北海道",
    "prefecture_kana": "ホッカイドウ",
    "prefecture_code": 1,
    "city": "空知郡中富良野町",
    "city_kana": "ソラチグンナカフラノチョウ",
    "town": "東６線北",
    "town_kana": "ヒガシ6センキタ",
    "street": null,
    "office_name": null,
    "office_name_kana": null
  },
  "0777": {
    "postcode": "0710777",
    "prefecture": "北海道",
    "prefecture_kana": "ホッカイドウ",
    "prefecture_code": 1,
    "city": "空知郡中富良野町",
    "city_kana": "ソラチグンナカフラノチョウ",
    "town": "東７線北",
    "town_kana": "ヒガシ7センキタ",
    "street": null,
    "office_name": null,
    "office_name_kana": null
  },
  "0778": {
    "postcode": "0710778",
    "prefecture": "北海道",
    "prefecture_kana": "ホッカイドウ",
    "prefecture_code": 1,
    "city": "空知郡中富良野町",
    "city_kana": "ソラチグンナカフラノチョウ",
    "town": "東８線北",
    "town_kana": "ヒガシ8センキタ",
    "street": null,
    "office_name": null,
    "office_name_kana": null
  },
  "0779": {
    "postcode": "0710779",
    "prefecture": "北海道",
    "prefecture_kana": "ホッカイドウ",
    "prefecture_code": 1,
    "city": "空知郡中富良野町",
    "city_kana": "ソラチグンナカフラノチョウ",
    "town": "東９線北",
    "town_kana": "ヒガシ9センキタ",
    "street": null,
    "office_name": null,
    "office_name_kana": null
  },
  "0780": {
    "postcode": "0710780",
    "prefecture": "北海道",
    "prefecture_kana": "ホッカイドウ",
    "prefecture_code": 1,
    "city": "空知郡中富良野町",
    "city_kana": "ソラチグンナカフラノチョウ",
    "town": "東１０線北",
    "town_kana": "ヒガシ10センキタ",
    "street": null,
    "office_name": null,
    "office_name_kana": null
  },
  "0781": {
    "postcode": "0710781",
    "prefecture": "北海道",
    "prefecture_kana": "ホッカイドウ",
    "prefecture_code": 1,
    "city": "空知郡中富良野町",
    "city_kana": "ソラチグンナカフラノチョウ",
    "town": "東１１線北",
    "town_kana": "ヒガシ11センキタ",
    "street": null,
    "office_name": null,
    "office_name_kana": null
  },
  "0795": {
    "postcode": "0710795",
    "prefecture": "北海道",
    "prefecture_kana": "ホッカイドウ",
    "prefecture_code": 1,
    "city": "空知郡中富良野町",
    "city_kana": "ソラチグンナカフラノチョウ",
    "town": "本町",
    "town_kana": "モトマチ",
    "street": "９番１号",
    "office_name": "中富良野町役場",
    "office_name_kana": "ナカフラノチヨウヤクバ"
  },
  "0798": {
    "postcode": "0710798",
    "prefecture": "北海道",
    "prefecture_kana": "ホッカイドウ",
    "prefecture_code": 1,
    "city": "空知郡中富良野町",
    "city_kana": "ソラチグンナカフラノチョウ",
    "town": "字中富良野",
    "town_kana": null,
    "street": "東１線北１７号",
    "office_name": "株式会社　西條スーパーセンターＢＥＳＴＯＭ　中富良野店",
    "office_name_kana": "カブシキガイシヤ サイジヨウス-パ-センタ-ベストム ナカフラノテン"
  },
  "1171": {
    "postcode": "0711171",
    "prefecture": "北海道",
    "prefecture_kana": "ホッカイドウ",
    "prefecture_code": 1,
    "city": "旭川市",
    "city_kana": "アサヒカワシ",
    "town": "江丹別町清水",
    "town_kana": "エタンベツチョウシミズ",
    "street": null,
    "office_name": null,
    "office_name_kana": null
  },
  "1172": {
    "postcode": "0711172",
    "prefecture": "北海道",
    "prefecture_kana": "ホッカイドウ",
    "prefecture_code": 1,
    "city": "旭川市",
    "city_kana": "アサヒカワシ",
    "town": "江丹別町拓北",
    "town_kana": "エタンベツチョウタクホク",
    "street": null,
    "office_name": null,
    "office_name_kana": null
  },
  "1173": {
    "postcode": "0711173",
    "prefecture": "北海道",
    "prefecture_kana": "ホッカイドウ",
    "prefecture_code": 1,
    "city": "旭川市",
    "city_kana": "アサヒカワシ",
    "town": "江丹別町中央",
    "town_kana": "エタンベツチョウチュウオウ",
    "street": null,
    "office_name": null,
    "office_name_kana": null
  },
  "1174": {
    "postcode": "0711174",
    "prefecture": "北海道",
    "prefecture_kana": "ホッカイドウ",
    "prefecture_code": 1,
    "city": "旭川市",
    "city_kana": "アサヒカワシ",
    "town": "江丹別町富原",
    "town_kana": "エタンベツチョウトミハラ",
    "street": null,
    "office_name": null,
    "office_name_kana": null
  },
  "1175": {
    "postcode": "0711175",
    "prefecture": "北海道",
    "prefecture_kana": "ホッカイドウ",
    "prefecture_code": 1,
    "city": "旭川市",
    "city_kana": "アサヒカワシ",
    "town": "江丹別町中園",
    "town_kana": "エタンベツチョウナカゾノ",
    "street": null,
    "office_name": null,
    "office_name_kana": null
  },
  "1176": {
    "postcode": "0711176",
    "prefecture": "北海道",
    "prefecture_kana": "ホッカイドウ",
    "prefecture_code": 1,
    "city": "旭川市",
    "city_kana": "アサヒカワシ",
    "town": "江丹別町西里",
    "town_kana": "エタンベツチョウニシサト",
    "street": null,
    "office_name": null,
    "office_name_kana": null
  },
  "1177": {
    "postcode": "0711177",
    "prefecture": "北海道",
    "prefecture_kana": "ホッカイドウ",
    "prefecture_code": 1,
    "city": "旭川市",
    "city_kana": "アサヒカワシ",
    "town": "江丹別町芳野",
    "town_kana": "エタンベツチョウヨシノ",
    "street": null,
    "office_name": null,
    "office_name_kana": null
  },
  "1200": {
    "postcode": "0711200",
    "prefecture": "北海道",
    "prefecture_kana": "ホッカイドウ",
    "prefecture_code": 1,
    "city": "上川郡鷹栖町",
    "city_kana": "カミカワグンタカスチョウ",
    "town": "",
    "town_kana": "",
    "street": null,
    "office_name": null,
    "office_name_kana": null
  },
  "1201": {
    "postcode": "0711201",
    "prefecture": "北海道",
    "prefecture_kana": "ホッカイドウ",
    "prefecture_code": 1,
    "city": "上川郡鷹栖町",
    "city_kana": "カミカワグンタカスチョウ",
    "town": "南一条",
    "town_kana": "ミナミ1ジョウ",
    "street": null,
    "office_name": null,
    "office_name_kana": null
  },
  "1202": {
    "postcode": "0711202",
    "prefecture": "北海道",
    "prefecture_kana": "ホッカイドウ",
    "prefecture_code": 1,
    "city": "上川郡鷹栖町",
    "city_kana": "カミカワグンタカスチョウ",
    "town": "南二条",
    "town_kana": "ミナミ2ジョウ",
    "street": null,
    "office_name": null,
    "office_name_kana": null
  },
  "1211": {
    "postcode": "0711211",
    "prefecture": "北海道",
    "prefecture_kana": "ホッカイドウ",
    "prefecture_code": 1,
    "city": "上川郡鷹栖町",
    "city_kana": "カミカワグンタカスチョウ",
    "town": "北一条",
    "town_kana": "キタ1ジョウ",
    "street": null,
    "office_name": null,
    "office_name_kana": null
  },
  "1221": {
    "postcode": "0711221",
    "prefecture": "北海道",
    "prefecture_kana": "ホッカイドウ",
    "prefecture_code": 1,
    "city": "上川郡鷹栖町",
    "city_kana": "カミカワグンタカスチョウ",
    "town": "北野東一条",
    "town_kana": "キタノヒガシ1ジョウ",
    "street": null,
    "office_name": null,
    "office_name_kana": null
  },
  "1222": {
    "postcode": "0711222",
    "prefecture": "北海道",
    "prefecture_kana": "ホッカイドウ",
    "prefecture_code": 1,
    "city": "上川郡鷹栖町",
    "city_kana": "カミカワグンタカスチョウ",
    "town": "北野東二条",
    "town_kana": "キタノヒガシ2ジョウ",
    "street": null,
    "office_name": null,
    "office_name_kana": null
  },
  "1223": {
    "postcode": "0711223",
    "prefecture": "北海道",
    "prefecture_kana": "ホッカイドウ",
    "prefecture_code": 1,
    "city": "上川郡鷹栖町",
    "city_kana": "カミカワグンタカスチョウ",
    "town": "北野東三条",
    "town_kana": "キタノヒガシ3ジョウ",
    "street": null,
    "office_name": null,
    "office_name_kana": null
  },
  "1224": {
    "postcode": "0711224",
    "prefecture": "北海道",
    "prefecture_kana": "ホッカイドウ",
    "prefecture_code": 1,
    "city": "上川郡鷹栖町",
    "city_kana": "カミカワグンタカスチョウ",
    "town": "北野東四条",
    "town_kana": "キタノヒガシ4ジョウ",
    "street": null,
    "office_name": null,
    "office_name_kana": null
  },
  "1225": {
    "postcode": "0711225",
    "prefecture": "北海道",
    "prefecture_kana": "ホッカイドウ",
    "prefecture_code": 1,
    "city": "上川郡鷹栖町",
    "city_kana": "カミカワグンタカスチョウ",
    "town": "北野東五条",
    "town_kana": "キタノヒガシ5ジョウ",
    "street": null,
    "office_name": null,
    "office_name_kana": null
  },
  "1231": {
    "postcode": "0711231",
    "prefecture": "北海道",
    "prefecture_kana": "ホッカイドウ",
    "prefecture_code": 1,
    "city": "上川郡鷹栖町",
    "city_kana": "カミカワグンタカスチョウ",
    "town": "北野西一条",
    "town_kana": "キタノニシ1ジョウ",
    "street": null,
    "office_name": null,
    "office_name_kana": null
  },
  "1232": {
    "postcode": "0711232",
    "prefecture": "北海道",
    "prefecture_kana": "ホッカイドウ",
    "prefecture_code": 1,
    "city": "上川郡鷹栖町",
    "city_kana": "カミカワグンタカスチョウ",
    "town": "北野西二条",
    "town_kana": "キタノニシ2ジョウ",
    "street": null,
    "office_name": null,
    "office_name_kana": null
  },
  "1233": {
    "postcode": "0711233",
    "prefecture": "北海道",
    "prefecture_kana": "ホッカイドウ",
    "prefecture_code": 1,
    "city": "上川郡鷹栖町",
    "city_kana": "カミカワグンタカスチョウ",
    "town": "北野西三条",
    "town_kana": "キタノニシ3ジョウ",
    "street": null,
    "office_name": null,
    "office_name_kana": null
  },
  "1234": {
    "postcode": "0711234",
    "prefecture": "北海道",
    "prefecture_kana": "ホッカイドウ",
    "prefecture_code": 1,
    "city": "上川郡鷹栖町",
    "city_kana": "カミカワグンタカスチョウ",
    "town": "北野西四条",
    "town_kana": "キタノニシ4ジョウ",
    "street": null,
    "office_name": null,
    "office_name_kana": null
  },
  "1235": {
    "postcode": "0711235",
    "prefecture": "北海道",
    "prefecture_kana": "ホッカイドウ",
    "prefecture_code": 1,
    "city": "上川郡鷹栖町",
    "city_kana": "カミカワグンタカスチョウ",
    "town": "北野西五条",
    "town_kana": "キタノニシ5ジョウ",
    "street": null,
    "office_name": null,
    "office_name_kana": null
  },
  "1247": {
    "postcode": "0711247",
    "prefecture": "北海道",
    "prefecture_kana": "ホッカイドウ",
    "prefecture_code": 1,
    "city": "上川郡鷹栖町",
    "city_kana": "カミカワグンタカスチョウ",
    "town": "７線",
    "town_kana": "7セン",
    "street": null,
    "office_name": null,
    "office_name_kana": null
  },
  "1248": {
    "postcode": "0711248",
    "prefecture": "北海道",
    "prefecture_kana": "ホッカイドウ",
    "prefecture_code": 1,
    "city": "上川郡鷹栖町",
    "city_kana": "カミカワグンタカスチョウ",
    "town": "８線",
    "town_kana": "8セン",
    "street": null,
    "office_name": null,
    "office_name_kana": null
  },
  "1249": {
    "postcode": "0711249",
    "prefecture": "北海道",
    "prefecture_kana": "ホッカイドウ",
    "prefecture_code": 1,
    "city": "上川郡鷹栖町",
    "city_kana": "カミカワグンタカスチョウ",
    "town": "９線",
    "town_kana": "9セン",
    "street": null,
    "office_name": null,
    "office_name_kana": null
  },
  "1250": {
    "postcode": "0711250",
    "prefecture": "北海道",
    "prefecture_kana": "ホッカイドウ",
    "prefecture_code": 1,
    "city": "上川郡鷹栖町",
    "city_kana": "カミカワグンタカスチョウ",
    "town": "１０線",
    "town_kana": "10セン",
    "street": null,
    "office_name": null,
    "office_name_kana": null
  },
  "1251": {
    "postcode": "0711251",
    "prefecture": "北海道",
    "prefecture_kana": "ホッカイドウ",
    "prefecture_code": 1,
    "city": "上川郡鷹栖町",
    "city_kana": "カミカワグンタカスチョウ",
    "town": "１１線",
    "town_kana": "11セン",
    "street": null,
    "office_name": null,
    "office_name_kana": null
  },
  "1252": {
    "postcode": "0711252",
    "prefecture": "北海道",
    "prefecture_kana": "ホッカイドウ",
    "prefecture_code": 1,
    "city": "上川郡鷹栖町",
    "city_kana": "カミカワグンタカスチョウ",
    "town": "１２線",
    "town_kana": "12セン",
    "street": null,
    "office_name": null,
    "office_name_kana": null
  },
  "1253": {
    "postcode": "0711253",
    "prefecture": "北海道",
    "prefecture_kana": "ホッカイドウ",
    "prefecture_code": 1,
    "city": "上川郡鷹栖町",
    "city_kana": "カミカワグンタカスチョウ",
    "town": "１３線",
    "town_kana": "13セン",
    "street": null,
    "office_name": null,
    "office_name_kana": null
  },
  "1254": {
    "postcode": "0711254",
    "prefecture": "北海道",
    "prefecture_kana": "ホッカイドウ",
    "prefecture_code": 1,
    "city": "上川郡鷹栖町",
    "city_kana": "カミカワグンタカスチョウ",
    "town": "１４線",
    "town_kana": "14セン",
    "street": null,
    "office_name": null,
    "office_name_kana": null
  },
  "1255": {
    "postcode": "0711255",
    "prefecture": "北海道",
    "prefecture_kana": "ホッカイドウ",
    "prefecture_code": 1,
    "city": "上川郡鷹栖町",
    "city_kana": "カミカワグンタカスチョウ",
    "town": "１５線",
    "town_kana": "15セン",
    "street": null,
    "office_name": null,
    "office_name_kana": null
  },
  "1256": {
    "postcode": "0711256",
    "prefecture": "北海道",
    "prefecture_kana": "ホッカイドウ",
    "prefecture_code": 1,
    "city": "上川郡鷹栖町",
    "city_kana": "カミカワグンタカスチョウ",
    "town": "１６線",
    "town_kana": "16セン",
    "street": null,
    "office_name": null,
    "office_name_kana": null
  },
  "1257": {
    "postcode": "0711257",
    "prefecture": "北海道",
    "prefecture_kana": "ホッカイドウ",
    "prefecture_code": 1,
    "city": "上川郡鷹栖町",
    "city_kana": "カミカワグンタカスチョウ",
    "town": "１７線",
    "town_kana": "17セン",
    "street": null,
    "office_name": null,
    "office_name_kana": null
  },
  "1258": {
    "postcode": "0711258",
    "prefecture": "北海道",
    "prefecture_kana": "ホッカイドウ",
    "prefecture_code": 1,
    "city": "上川郡鷹栖町",
    "city_kana": "カミカワグンタカスチョウ",
    "town": "１８線",
    "town_kana": "18セン",
    "street": null,
    "office_name": null,
    "office_name_kana": null
  },
  "1259": {
    "postcode": "0711259",
    "prefecture": "北海道",
    "prefecture_kana": "ホッカイドウ",
    "prefecture_code": 1,
    "city": "上川郡鷹栖町",
    "city_kana": "カミカワグンタカスチョウ",
    "town": "１９線",
    "town_kana": "19セン",
    "street": null,
    "office_name": null,
    "office_name_kana": null
  },
  "1260": {
    "postcode": "0711260",
    "prefecture": "北海道",
    "prefecture_kana": "ホッカイドウ",
    "prefecture_code": 1,
    "city": "上川郡鷹栖町",
    "city_kana": "カミカワグンタカスチョウ",
    "town": "２０線",
    "town_kana": "20セン",
    "street": null,
    "office_name": null,
    "office_name_kana": null
  },
  "1261": {
    "postcode": "0711261",
    "prefecture": "北海道",
    "prefecture_kana": "ホッカイドウ",
    "prefecture_code": 1,
    "city": "上川郡鷹栖町",
    "city_kana": "カミカワグンタカスチョウ",
    "town": "２１線",
    "town_kana": "21セン",
    "street": null,
    "office_name": null,
    "office_name_kana": null
  },
  "1262": {
    "postcode": "0711262",
    "prefecture": "北海道",
    "prefecture_kana": "ホッカイドウ",
    "prefecture_code": 1,
    "city": "上川郡鷹栖町",
    "city_kana": "カミカワグンタカスチョウ",
    "town": "２２線",
    "town_kana": "22セン",
    "street": null,
    "office_name": null,
    "office_name_kana": null
  },
  "1263": {
    "postcode": "0711263",
    "prefecture": "北海道",
    "prefecture_kana": "ホッカイドウ",
    "prefecture_code": 1,
    "city": "上川郡鷹栖町",
    "city_kana": "カミカワグンタカスチョウ",
    "town": "２３線",
    "town_kana": "23セン",
    "street": null,
    "office_name": null,
    "office_name_kana": null
  },
  "1264": {
    "postcode": "0711264",
    "prefecture": "北海道",
    "prefecture_kana": "ホッカイドウ",
    "prefecture_code": 1,
    "city": "上川郡鷹栖町",
    "city_kana": "カミカワグンタカスチョウ",
    "town": "２４線",
    "town_kana": "24セン",
    "street": null,
    "office_name": null,
    "office_name_kana": null
  },
  "1265": {
    "postcode": "0711265",
    "prefecture": "北海道",
    "prefecture_kana": "ホッカイドウ",
    "prefecture_code": 1,
    "city": "上川郡鷹栖町",
    "city_kana": "カミカワグンタカスチョウ",
    "town": "２５線",
    "town_kana": "25セン",
    "street": null,
    "office_name": null,
    "office_name_kana": null
  },
  "1266": {
    "postcode": "0711266",
    "prefecture": "北海道",
    "prefecture_kana": "ホッカイドウ",
    "prefecture_code": 1,
    "city": "上川郡鷹栖町",
    "city_kana": "カミカワグンタカスチョウ",
    "town": "２６線",
    "town_kana": "26セン",
    "street": null,
    "office_name": null,
    "office_name_kana": null
  },
  "1267": {
    "postcode": "0711267",
    "prefecture": "北海道",
    "prefecture_kana": "ホッカイドウ",
    "prefecture_code": 1,
    "city": "上川郡鷹栖町",
    "city_kana": "カミカワグンタカスチョウ",
    "town": "２７線",
    "town_kana": "27セン",
    "street": null,
    "office_name": null,
    "office_name_kana": null
  },
  "1292": {
    "postcode": "0711292",
    "prefecture": "北海道",
    "prefecture_kana": "ホッカイドウ",
    "prefecture_code": 1,
    "city": "上川郡鷹栖町",
    "city_kana": "カミカワグンタカスチョウ",
    "town": "南一条",
    "town_kana": "ミナミ1ジョウ",
    "street": "３丁目５−１",
    "office_name": "鷹栖町役場",
    "office_name_kana": "タカスチヨウヤクバ"
  },
  "1293": {
    "postcode": "0711293",
    "prefecture": "北海道",
    "prefecture_kana": "ホッカイドウ",
    "prefecture_code": 1,
    "city": "上川郡鷹栖町",
    "city_kana": "カミカワグンタカスチョウ",
    "town": "北一条",
    "town_kana": "キタ1ジョウ",
    "street": "２丁目７−１",
    "office_name": "たいせつ農業協同組合　鷹栖支所",
    "office_name_kana": "タイセツノウギヨウキヨウドウクミアイ タカスシシヨ"
  },
  "1295": {
    "postcode": "0711295",
    "prefecture": "北海道",
    "prefecture_kana": "ホッカイドウ",
    "prefecture_code": 1,
    "city": "上川郡鷹栖町",
    "city_kana": "カミカワグンタカスチョウ",
    "town": "８線",
    "town_kana": "8セン",
    "street": "西２号",
    "office_name": "株式会社　ヘルス",
    "office_name_kana": "カブシキガイシヤ ヘルス"
  },
  "1298": {
    "postcode": "0711298",
    "prefecture": "北海道",
    "prefecture_kana": "ホッカイドウ",
    "prefecture_code": 1,
    "city": "上川郡鷹栖町",
    "city_kana": "カミカワグンタカスチョウ",
    "town": "",
    "town_kana": "",
    "street": "２９６２番地３６１",
    "office_name": "株式会社　みらいプリンティング",
    "office_name_kana": "カブシキガイシヤ ミライプリンテイング"
  },
  "1400": {
    "postcode": "0711400",
    "prefecture": "北海道",
    "prefecture_kana": "ホッカイドウ",
    "prefecture_code": 1,
    "city": "上川郡東川町",
    "city_kana": "カミカワグンヒガシカワチョウ",
    "town": "",
    "town_kana": "",
    "street": null,
    "office_name": null,
    "office_name_kana": null
  },
  "1402": {
    "postcode": "0711402",
    "prefecture": "北海道",
    "prefecture_kana": "ホッカイドウ",
    "prefecture_code": 1,
    "city": "上川郡東川町",
    "city_kana": "カミカワグンヒガシカワチョウ",
    "town": "西２号北",
    "town_kana": "ニシ2ゴウキタ",
    "street": null,
    "office_name": null,
    "office_name_kana": null
  },
  "1403": {
    "postcode": "0711403",
    "prefecture": "北海道",
    "prefecture_kana": "ホッカイドウ",
    "prefecture_code": 1,
    "city": "上川郡東川町",
    "city_kana": "カミカワグンヒガシカワチョウ",
    "town": "西３号北",
    "town_kana": "ニシ3ゴウキタ",
    "street": null,
    "office_name": null,
    "office_name_kana": null
  },
  "1404": {
    "postcode": "0711404",
    "prefecture": "北海道",
    "prefecture_kana": "ホッカイドウ",
    "prefecture_code": 1,
    "city": "上川郡東川町",
    "city_kana": "カミカワグンヒガシカワチョウ",
    "town": "西４号北",
    "town_kana": "ニシ4ゴウキタ",
    "street": null,
    "office_name": null,
    "office_name_kana": null
  },
  "1405": {
    "postcode": "0711405",
    "prefecture": "北海道",
    "prefecture_kana": "ホッカイドウ",
    "prefecture_code": 1,
    "city": "上川郡東川町",
    "city_kana": "カミカワグンヒガシカワチョウ",
    "town": "西５号北",
    "town_kana": "ニシ5ゴウキタ",
    "street": null,
    "office_name": null,
    "office_name_kana": null
  },
  "1406": {
    "postcode": "0711406",
    "prefecture": "北海道",
    "prefecture_kana": "ホッカイドウ",
    "prefecture_code": 1,
    "city": "上川郡東川町",
    "city_kana": "カミカワグンヒガシカワチョウ",
    "town": "西６号北",
    "town_kana": "ニシ6ゴウキタ",
    "street": null,
    "office_name": null,
    "office_name_kana": null
  },
  "1407": {
    "postcode": "0711407",
    "prefecture": "北海道",
    "prefecture_kana": "ホッカイドウ",
    "prefecture_code": 1,
    "city": "上川郡東川町",
    "city_kana": "カミカワグンヒガシカワチョウ",
    "town": "西７号北",
    "town_kana": "ニシ7ゴウキタ",
    "street": null,
    "office_name": null,
    "office_name_kana": null
  },
  "1408": {
    "postcode": "0711408",
    "prefecture": "北海道",
    "prefecture_kana": "ホッカイドウ",
    "prefecture_code": 1,
    "city": "上川郡東川町",
    "city_kana": "カミカワグンヒガシカワチョウ",
    "town": "西８号北",
    "town_kana": "ニシ8ゴウキタ",
    "street": null,
    "office_name": null,
    "office_name_kana": null
  },
  "1409": {
    "postcode": "0711409",
    "prefecture": "北海道",
    "prefecture_kana": "ホッカイドウ",
    "prefecture_code": 1,
    "city": "上川郡東川町",
    "city_kana": "カミカワグンヒガシカワチョウ",
    "town": "西９号北",
    "town_kana": "ニシ9ゴウキタ",
    "street": null,
    "office_name": null,
    "office_name_kana": null
  },
  "1410": {
    "postcode": "0711410",
    "prefecture": "北海道",
    "prefecture_kana": "ホッカイドウ",
    "prefecture_code": 1,
    "city": "上川郡東川町",
    "city_kana": "カミカワグンヒガシカワチョウ",
    "town": "西１０号北",
    "town_kana": "ニシ10ゴウキタ",
    "street": null,
    "office_name": null,
    "office_name_kana": null
  },
  "1411": {
    "postcode": "0711411",
    "prefecture": "北海道",
    "prefecture_kana": "ホッカイドウ",
    "prefecture_code": 1,
    "city": "上川郡東川町",
    "city_kana": "カミカワグンヒガシカワチョウ",
    "town": "西１１号北",
    "town_kana": "ニシ11ゴウキタ",
    "street": null,
    "office_name": null,
    "office_name_kana": null
  },
  "1412": {
    "postcode": "0711412",
    "prefecture": "北海道",
    "prefecture_kana": "ホッカイドウ",
    "prefecture_code": 1,
    "city": "上川郡東川町",
    "city_kana": "カミカワグンヒガシカワチョウ",
    "town": "西１２号北",
    "town_kana": "ニシ12ゴウキタ",
    "street": null,
    "office_name": null,
    "office_name_kana": null
  },
  "1413": {
    "postcode": "0711413",
    "prefecture": "北海道",
    "prefecture_kana": "ホッカイドウ",
    "prefecture_code": 1,
    "city": "上川郡東川町",
    "city_kana": "カミカワグンヒガシカワチョウ",
    "town": "新栄東",
    "town_kana": "シンエイヒガシ",
    "street": null,
    "office_name": null,
    "office_name_kana": null
  },
  "1414": {
    "postcode": "0711414",
    "prefecture": "北海道",
    "prefecture_kana": "ホッカイドウ",
    "prefecture_code": 1,
    "city": "上川郡東川町",
    "city_kana": "カミカワグンヒガシカワチョウ",
    "town": "新栄南",
    "town_kana": "シンエイミナミ",
    "street": null,
    "office_name": null,
    "office_name_kana": null
  },
  "1415": {
    "postcode": "0711415",
    "prefecture": "北海道",
    "prefecture_kana": "ホッカイドウ",
    "prefecture_code": 1,
    "city": "上川郡東川町",
    "city_kana": "カミカワグンヒガシカワチョウ",
    "town": "新栄西",
    "town_kana": "シンエイニシ",
    "street": null,
    "office_name": null,
    "office_name_kana": null
  },
  "1416": {
    "postcode": "0711416",
    "prefecture": "北海道",
    "prefecture_kana": "ホッカイドウ",
    "prefecture_code": 1,
    "city": "上川郡東川町",
    "city_kana": "カミカワグンヒガシカワチョウ",
    "town": "新栄北",
    "town_kana": "シンエイキタ",
    "street": null,
    "office_name": null,
    "office_name_kana": null
  },
  "1418": {
    "postcode": "0711418",
    "prefecture": "北海道",
    "prefecture_kana": "ホッカイドウ",
    "prefecture_code": 1,
    "city": "上川郡東川町",
    "city_kana": "カミカワグンヒガシカワチョウ",
    "town": "キトウシ南",
    "town_kana": "キトウシミナミ",
    "street": null,
    "office_name": null,
    "office_name_kana": null
  },
  "1419": {
    "postcode": "0711419",
    "prefecture": "北海道",
    "prefecture_kana": "ホッカイドウ",
    "prefecture_code": 1,
    "city": "上川郡東川町",
    "city_kana": "カミカワグンヒガシカワチョウ",
    "town": "キトウシ西",
    "town_kana": "キトウシニシ",
    "street": null,
    "office_name": null,
    "office_name_kana": null
  },
  "1422": {
    "postcode": "0711422",
    "prefecture": "北海道",
    "prefecture_kana": "ホッカイドウ",
    "prefecture_code": 1,
    "city": "上川郡東川町",
    "city_kana": "カミカワグンヒガシカワチョウ",
    "town": "西２号南",
    "town_kana": "ニシ2ゴウミナミ",
    "street": null,
    "office_name": null,
    "office_name_kana": null
  },
  "1423": {
    "postcode": "0711423",
    "prefecture": "北海道",
    "prefecture_kana": "ホッカイドウ",
    "prefecture_code": 1,
    "city": "上川郡東川町",
    "city_kana": "カミカワグンヒガシカワチョウ",
    "town": "東町",
    "town_kana": "ヒガシマチ",
    "street": null,
    "office_name": null,
    "office_name_kana": null
  },
  "1424": {
    "postcode": "0711424",
    "prefecture": "北海道",
    "prefecture_kana": "ホッカイドウ",
    "prefecture_code": 1,
    "city": "上川郡東川町",
    "city_kana": "カミカワグンヒガシカワチョウ",
    "town": "南町",
    "town_kana": "ミナミマチ",
    "street": null,
    "office_name": null,
    "office_name_kana": null
  },
  "1425": {
    "postcode": "0711425",
    "prefecture": "北海道",
    "prefecture_kana": "ホッカイドウ",
    "prefecture_code": 1,
    "city": "上川郡東川町",
    "city_kana": "カミカワグンヒガシカワチョウ",
    "town": "西町",
    "town_kana": "ニシマチ",
    "street": null,
    "office_name": null,
    "office_name_kana": null
  },
  "1426": {
    "postcode": "0711426",
    "prefecture": "北海道",
    "prefecture_kana": "ホッカイドウ",
    "prefecture_code": 1,
    "city": "上川郡東川町",
    "city_kana": "カミカワグンヒガシカワチョウ",
    "town": "北町",
    "town_kana": "キタマチ",
    "street": null,
    "office_name": null,
    "office_name_kana": null
  },
  "1431": {
    "postcode": "0711431",
    "prefecture": "北海道",
    "prefecture_kana": "ホッカイドウ",
    "prefecture_code": 1,
    "city": "上川郡東川町",
    "city_kana": "カミカワグンヒガシカワチョウ",
    "town": "１号北",
    "town_kana": "1ゴウキタ",
    "street": null,
    "office_name": null,
    "office_name_kana": null
  },
  "1432": {
    "postcode": "0711432",
    "prefecture": "北海道",
    "prefecture_kana": "ホッカイドウ",
    "prefecture_code": 1,
    "city": "上川郡東川町",
    "city_kana": "カミカワグンヒガシカワチョウ",
    "town": "東２号北",
    "town_kana": "ヒガシ2ゴウキタ",
    "street": null,
    "office_name": null,
    "office_name_kana": null
  },
  "1433": {
    "postcode": "0711433",
    "prefecture": "北海道",
    "prefecture_kana": "ホッカイドウ",
    "prefecture_code": 1,
    "city": "上川郡東川町",
    "city_kana": "カミカワグンヒガシカワチョウ",
    "town": "東３号北",
    "town_kana": "ヒガシ3ゴウキタ",
    "street": null,
    "office_name": null,
    "office_name_kana": null
  },
  "1434": {
    "postcode": "0711434",
    "prefecture": "北海道",
    "prefecture_kana": "ホッカイドウ",
    "prefecture_code": 1,
    "city": "上川郡東川町",
    "city_kana": "カミカワグンヒガシカワチョウ",
    "town": "東４号北",
    "town_kana": "ヒガシ4ゴウキタ",
    "street": null,
    "office_name": null,
    "office_name_kana": null
  },
  "1435": {
    "postcode": "0711435",
    "prefecture": "北海道",
    "prefecture_kana": "ホッカイドウ",
    "prefecture_code": 1,
    "city": "上川郡東川町",
    "city_kana": "カミカワグンヒガシカワチョウ",
    "town": "東５号北",
    "town_kana": "ヒガシ5ゴウキタ",
    "street": null,
    "office_name": null,
    "office_name_kana": null
  },
  "1436": {
    "postcode": "0711436",
    "prefecture": "北海道",
    "prefecture_kana": "ホッカイドウ",
    "prefecture_code": 1,
    "city": "上川郡東川町",
    "city_kana": "カミカワグンヒガシカワチョウ",
    "town": "東６号北",
    "town_kana": "ヒガシ6ゴウキタ",
    "street": null,
    "office_name": null,
    "office_name_kana": null
  },
  "1437": {
    "postcode": "0711437",
    "prefecture": "北海道",
    "prefecture_kana": "ホッカイドウ",
    "prefecture_code": 1,
    "city": "上川郡東川町",
    "city_kana": "カミカワグンヒガシカワチョウ",
    "town": "東７号北",
    "town_kana": "ヒガシ7ゴウキタ",
    "street": null,
    "office_name": null,
    "office_name_kana": null
  },
  "1438": {
    "postcode": "0711438",
    "prefecture": "北海道",
    "prefecture_kana": "ホッカイドウ",
    "prefecture_code": 1,
    "city": "上川郡東川町",
    "city_kana": "カミカワグンヒガシカワチョウ",
    "town": "東８号北",
    "town_kana": "ヒガシ8ゴウキタ",
    "street": null,
    "office_name": null,
    "office_name_kana": null
  },
  "1439": {
    "postcode": "0711439",
    "prefecture": "北海道",
    "prefecture_kana": "ホッカイドウ",
    "prefecture_code": 1,
    "city": "上川郡東川町",
    "city_kana": "カミカワグンヒガシカワチョウ",
    "town": "東９号北",
    "town_kana": "ヒガシ9ゴウキタ",
    "street": null,
    "office_name": null,
    "office_name_kana": null
  },
  "1440": {
    "postcode": "0711440",
    "prefecture": "北海道",
    "prefecture_kana": "ホッカイドウ",
    "prefecture_code": 1,
    "city": "上川郡東川町",
    "city_kana": "カミカワグンヒガシカワチョウ",
    "town": "東１０号北",
    "town_kana": "ヒガシ10ゴウキタ",
    "street": null,
    "office_name": null,
    "office_name_kana": null
  },
  "1441": {
    "postcode": "0711441",
    "prefecture": "北海道",
    "prefecture_kana": "ホッカイドウ",
    "prefecture_code": 1,
    "city": "上川郡東川町",
    "city_kana": "カミカワグンヒガシカワチョウ",
    "town": "東１１号北",
    "town_kana": "ヒガシ11ゴウキタ",
    "street": null,
    "office_name": null,
    "office_name_kana": null
  },
  "1442": {
    "postcode": "0711442",
    "prefecture": "北海道",
    "prefecture_kana": "ホッカイドウ",
    "prefecture_code": 1,
    "city": "上川郡東川町",
    "city_kana": "カミカワグンヒガシカワチョウ",
    "town": "東１２号北",
    "town_kana": "ヒガシ12ゴウキタ",
    "street": null,
    "office_name": null,
    "office_name_kana": null
  },
  "1451": {
    "postcode": "0711451",
    "prefecture": "北海道",
    "prefecture_kana": "ホッカイドウ",
    "prefecture_code": 1,
    "city": "上川郡東川町",
    "city_kana": "カミカワグンヒガシカワチョウ",
    "town": "１号南",
    "town_kana": "1ゴウミナミ",
    "street": null,
    "office_name": null,
    "office_name_kana": null
  },
  "1452": {
    "postcode": "0711452",
    "prefecture": "北海道",
    "prefecture_kana": "ホッカイドウ",
    "prefecture_code": 1,
    "city": "上川郡東川町",
    "city_kana": "カミカワグンヒガシカワチョウ",
    "town": "東２号南",
    "town_kana": "ヒガシ2ゴウミナミ",
    "street": null,
    "office_name": null,
    "office_name_kana": null
  },
  "1453": {
    "postcode": "0711453",
    "prefecture": "北海道",
    "prefecture_kana": "ホッカイドウ",
    "prefecture_code": 1,
    "city": "上川郡東川町",
    "city_kana": "カミカワグンヒガシカワチョウ",
    "town": "東３号南",
    "town_kana": "ヒガシ3ゴウミナミ",
    "street": null,
    "office_name": null,
    "office_name_kana": null
  },
  "1454": {
    "postcode": "0711454",
    "prefecture": "北海道",
    "prefecture_kana": "ホッカイドウ",
    "prefecture_code": 1,
    "city": "上川郡東川町",
    "city_kana": "カミカワグンヒガシカワチョウ",
    "town": "東４号南",
    "town_kana": "ヒガシ4ゴウミナミ",
    "street": null,
    "office_name": null,
    "office_name_kana": null
  },
  "1455": {
    "postcode": "0711455",
    "prefecture": "北海道",
    "prefecture_kana": "ホッカイドウ",
    "prefecture_code": 1,
    "city": "上川郡東川町",
    "city_kana": "カミカワグンヒガシカワチョウ",
    "town": "東５号南",
    "town_kana": "ヒガシ5ゴウミナミ",
    "street": null,
    "office_name": null,
    "office_name_kana": null
  },
  "1456": {
    "postcode": "0711456",
    "prefecture": "北海道",
    "prefecture_kana": "ホッカイドウ",
    "prefecture_code": 1,
    "city": "上川郡東川町",
    "city_kana": "カミカワグンヒガシカワチョウ",
    "town": "東６号南",
    "town_kana": "ヒガシ6ゴウミナミ",
    "street": null,
    "office_name": null,
    "office_name_kana": null
  },
  "1457": {
    "postcode": "0711457",
    "prefecture": "北海道",
    "prefecture_kana": "ホッカイドウ",
    "prefecture_code": 1,
    "city": "上川郡東川町",
    "city_kana": "カミカワグンヒガシカワチョウ",
    "town": "東７号南",
    "town_kana": "ヒガシ7ゴウミナミ",
    "street": null,
    "office_name": null,
    "office_name_kana": null
  },
  "1458": {
    "postcode": "0711458",
    "prefecture": "北海道",
    "prefecture_kana": "ホッカイドウ",
    "prefecture_code": 1,
    "city": "上川郡東川町",
    "city_kana": "カミカワグンヒガシカワチョウ",
    "town": "東８号南",
    "town_kana": "ヒガシ8ゴウミナミ",
    "street": null,
    "office_name": null,
    "office_name_kana": null
  },
  "1459": {
    "postcode": "0711459",
    "prefecture": "北海道",
    "prefecture_kana": "ホッカイドウ",
    "prefecture_code": 1,
    "city": "上川郡東川町",
    "city_kana": "カミカワグンヒガシカワチョウ",
    "town": "東９号南",
    "town_kana": "ヒガシ9ゴウミナミ",
    "street": null,
    "office_name": null,
    "office_name_kana": null
  },
  "1460": {
    "postcode": "0711460",
    "prefecture": "北海道",
    "prefecture_kana": "ホッカイドウ",
    "prefecture_code": 1,
    "city": "上川郡東川町",
    "city_kana": "カミカワグンヒガシカワチョウ",
    "town": "東１０号南",
    "town_kana": "ヒガシ10ゴウミナミ",
    "street": null,
    "office_name": null,
    "office_name_kana": null
  },
  "1461": {
    "postcode": "0711461",
    "prefecture": "北海道",
    "prefecture_kana": "ホッカイドウ",
    "prefecture_code": 1,
    "city": "上川郡東川町",
    "city_kana": "カミカワグンヒガシカワチョウ",
    "town": "東１１号南",
    "town_kana": "ヒガシ11ゴウミナミ",
    "street": null,
    "office_name": null,
    "office_name_kana": null
  },
  "1462": {
    "postcode": "0711462",
    "prefecture": "北海道",
    "prefecture_kana": "ホッカイドウ",
    "prefecture_code": 1,
    "city": "上川郡東川町",
    "city_kana": "カミカワグンヒガシカワチョウ",
    "town": "北２線東",
    "town_kana": "キタ2センヒガシ",
    "street": null,
    "office_name": null,
    "office_name_kana": null
  },
  "1463": {
    "postcode": "0711463",
    "prefecture": "北海道",
    "prefecture_kana": "ホッカイドウ",
    "prefecture_code": 1,
    "city": "上川郡東川町",
    "city_kana": "カミカワグンヒガシカワチョウ",
    "town": "北３線東",
    "town_kana": "キタ3センヒガシ",
    "street": null,
    "office_name": null,
    "office_name_kana": null
  },
  "1464": {
    "postcode": "0711464",
    "prefecture": "北海道",
    "prefecture_kana": "ホッカイドウ",
    "prefecture_code": 1,
    "city": "上川郡東川町",
    "city_kana": "カミカワグンヒガシカワチョウ",
    "town": "進化台",
    "town_kana": "シンカダイ",
    "street": null,
    "office_name": null,
    "office_name_kana": null
  },
  "1465": {
    "postcode": "0711465",
    "prefecture": "北海道",
    "prefecture_kana": "ホッカイドウ",
    "prefecture_code": 1,
    "city": "上川郡東川町",
    "city_kana": "カミカワグンヒガシカワチョウ",
    "town": "北５線",
    "town_kana": "キタ5セン",
    "street": null,
    "office_name": null,
    "office_name_kana": null
  },
  "1466": {
    "postcode": "0711466",
    "prefecture": "北海道",
    "prefecture_kana": "ホッカイドウ",
    "prefecture_code": 1,
    "city": "上川郡東川町",
    "city_kana": "カミカワグンヒガシカワチョウ",
    "town": "北７線",
    "town_kana": "キタ7セン",
    "street": null,
    "office_name": null,
    "office_name_kana": null
  },
  "1467": {
    "postcode": "0711467",
    "prefecture": "北海道",
    "prefecture_kana": "ホッカイドウ",
    "prefecture_code": 1,
    "city": "上川郡東川町",
    "city_kana": "カミカワグンヒガシカワチョウ",
    "town": "北７線東",
    "town_kana": "キタ7センヒガシ",
    "street": null,
    "office_name": null,
    "office_name_kana": null
  },
  "1471": {
    "postcode": "0711471",
    "prefecture": "北海道",
    "prefecture_kana": "ホッカイドウ",
    "prefecture_code": 1,
    "city": "上川郡東川町",
    "city_kana": "カミカワグンヒガシカワチョウ",
    "town": "ノカナン",
    "town_kana": "ノカナン",
    "street": null,
    "office_name": null,
    "office_name_kana": null
  },
  "1472": {
    "postcode": "0711472",
    "prefecture": "北海道",
    "prefecture_kana": "ホッカイドウ",
    "prefecture_code": 1,
    "city": "上川郡東川町",
    "city_kana": "カミカワグンヒガシカワチョウ",
    "town": "勇駒別",
    "town_kana": "ユコマンベツ",
    "street": null,
    "office_name": null,
    "office_name_kana": null
  },
  "1473": {
    "postcode": "0711473",
    "prefecture": "北海道",
    "prefecture_kana": "ホッカイドウ",
    "prefecture_code": 1,
    "city": "上川郡東川町",
    "city_kana": "カミカワグンヒガシカワチョウ",
    "town": "松山温泉",
    "town_kana": "マツヤマオンセン",
    "street": null,
    "office_name": null,
    "office_name_kana": null
  },
  "1474": {
    "postcode": "0711474",
    "prefecture": "北海道",
    "prefecture_kana": "ホッカイドウ",
    "prefecture_code": 1,
    "city": "上川郡美瑛町",
    "city_kana": "カミカワグンビエイチョウ",
    "town": "忠別",
    "town_kana": "チュウベツ",
    "street": null,
    "office_name": null,
    "office_name_kana": null
  },
  "1492": {
    "postcode": "0711492",
    "prefecture": "北海道",
    "prefecture_kana": "ホッカイドウ",
    "prefecture_code": 1,
    "city": "上川郡東川町",
    "city_kana": "カミカワグンヒガシカワチョウ",
    "town": "東町",
    "town_kana": "ヒガシマチ",
    "street": "１丁目１６−１",
    "office_name": "東川町役場",
    "office_name_kana": "ヒガシカワチヨウヤクバ"
  },
  "1493": {
    "postcode": "0711493",
    "prefecture": "北海道",
    "prefecture_kana": "ホッカイドウ",
    "prefecture_code": 1,
    "city": "上川郡東川町",
    "city_kana": "カミカワグンヒガシカワチョウ",
    "town": "東町",
    "town_kana": "ヒガシマチ",
    "street": "１丁目１５−３",
    "office_name": "東川町教育委員会",
    "office_name_kana": "ヒガシカワチヨウキヨウイクイインカイ"
  },
  "1494": {
    "postcode": "0711494",
    "prefecture": "北海道",
    "prefecture_kana": "ホッカイドウ",
    "prefecture_code": 1,
    "city": "上川郡東川町",
    "city_kana": "カミカワグンヒガシカワチョウ",
    "town": "松山温泉",
    "town_kana": "マツヤマオンセン",
    "street": "天人峡温泉",
    "office_name": "株式会社　天人閣",
    "office_name_kana": "カブシキガイシヤ テンニンカク"
  },
  "1495": {
    "postcode": "0711495",
    "prefecture": "北海道",
    "prefecture_kana": "ホッカイドウ",
    "prefecture_code": 1,
    "city": "上川郡東川町",
    "city_kana": "カミカワグンヒガシカワチョウ",
    "town": "西町",
    "town_kana": "ニシマチ",
    "street": "１丁目５−１",
    "office_name": "東川町農業協同組合",
    "office_name_kana": "ヒガシカワチヨウノウギヨウキヨウドウクミアイ"
  },
  "1496": {
    "postcode": "0711496",
    "prefecture": "北海道",
    "prefecture_kana": "ホッカイドウ",
    "prefecture_code": 1,
    "city": "上川郡東川町",
    "city_kana": "カミカワグンヒガシカワチョウ",
    "town": "進化台",
    "town_kana": "シンカダイ",
    "street": "",
    "office_name": "北工学園旭川福祉専門学校",
    "office_name_kana": "ホツコウガクエンアサヒカワフクシセンモンガツコウ"
  },
  "1497": {
    "postcode": "0711497",
    "prefecture": "北海道",
    "prefecture_kana": "ホッカイドウ",
    "prefecture_code": 1,
    "city": "上川郡東川町",
    "city_kana": "カミカワグンヒガシカワチョウ",
    "town": "進化台",
    "town_kana": "シンカダイ",
    "street": "",
    "office_name": "北海道理工福祉専門学校",
    "office_name_kana": "ホツカイドウリコウフクシセンモンガツコウ"
  },
  "1500": {
    "postcode": "0711500",
    "prefecture": "北海道",
    "prefecture_kana": "ホッカイドウ",
    "prefecture_code": 1,
    "city": "上川郡東神楽町",
    "city_kana": "カミカワグンヒガシカグラチョウ",
    "town": "",
    "town_kana": "",
    "street": null,
    "office_name": null,
    "office_name_kana": null
  },
  "1501": {
    "postcode": "0711501",
    "prefecture": "北海道",
    "prefecture_kana": "ホッカイドウ",
    "prefecture_code": 1,
    "city": "上川郡東神楽町",
    "city_kana": "カミカワグンヒガシカグラチョウ",
    "town": "南一条西",
    "town_kana": "ミナミ1ジョウニシ",
    "street": null,
    "office_name": null,
    "office_name_kana": null
  },
  "1502": {
    "postcode": "0711502",
    "prefecture": "北海道",
    "prefecture_kana": "ホッカイドウ",
    "prefecture_code": 1,
    "city": "上川郡東神楽町",
    "city_kana": "カミカワグンヒガシカグラチョウ",
    "town": "南一条東",
    "town_kana": "ミナミ1ジョウヒガシ",
    "street": null,
    "office_name": null,
    "office_name_kana": null
  },
  "1503": {
    "postcode": "0711503",
    "prefecture": "北海道",
    "prefecture_kana": "ホッカイドウ",
    "prefecture_code": 1,
    "city": "上川郡東神楽町",
    "city_kana": "カミカワグンヒガシカグラチョウ",
    "town": "南二条西",
    "town_kana": "ミナミ2ジョウニシ",
    "street": null,
    "office_name": null,
    "office_name_kana": null
  },
  "1504": {
    "postcode": "0711504",
    "prefecture": "北海道",
    "prefecture_kana": "ホッカイドウ",
    "prefecture_code": 1,
    "city": "上川郡東神楽町",
    "city_kana": "カミカワグンヒガシカグラチョウ",
    "town": "南二条東",
    "town_kana": "ミナミ2ジョウヒガシ",
    "street": null,
    "office_name": null,
    "office_name_kana": null
  },
  "1505": {
    "postcode": "0711505",
    "prefecture": "北海道",
    "prefecture_kana": "ホッカイドウ",
    "prefecture_code": 1,
    "city": "上川郡東神楽町",
    "city_kana": "カミカワグンヒガシカグラチョウ",
    "town": "南三条東",
    "town_kana": "ミナミ3ジョウヒガシ",
    "street": null,
    "office_name": null,
    "office_name_kana": null
  },
  "1511": {
    "postcode": "0711511",
    "prefecture": "北海道",
    "prefecture_kana": "ホッカイドウ",
    "prefecture_code": 1,
    "city": "上川郡東神楽町",
    "city_kana": "カミカワグンヒガシカグラチョウ",
    "town": "北一条西",
    "town_kana": "キタ1ジョウニシ",
    "street": null,
    "office_name": null,
    "office_name_kana": null
  },
  "1512": {
    "postcode": "0711512",
    "prefecture": "北海道",
    "prefecture_kana": "ホッカイドウ",
    "prefecture_code": 1,
    "city": "上川郡東神楽町",
    "city_kana": "カミカワグンヒガシカグラチョウ",
    "town": "北一条東",
    "town_kana": "キタ1ジョウヒガシ",
    "street": null,
    "office_name": null,
    "office_name_kana": null
  },
  "1513": {
    "postcode": "0711513",
    "prefecture": "北海道",
    "prefecture_kana": "ホッカイドウ",
    "prefecture_code": 1,
    "city": "上川郡東神楽町",
    "city_kana": "カミカワグンヒガシカグラチョウ",
    "town": "北二条西",
    "town_kana": "キタ2ジョウニシ",
    "street": null,
    "office_name": null,
    "office_name_kana": null
  },
  "1514": {
    "postcode": "0711514",
    "prefecture": "北海道",
    "prefecture_kana": "ホッカイドウ",
    "prefecture_code": 1,
    "city": "上川郡東神楽町",
    "city_kana": "カミカワグンヒガシカグラチョウ",
    "town": "北二条東",
    "town_kana": "キタ2ジョウヒガシ",
    "street": null,
    "office_name": null,
    "office_name_kana": null
  },
  "1515": {
    "postcode": "0711515",
    "prefecture": "北海道",
    "prefecture_kana": "ホッカイドウ",
    "prefecture_code": 1,
    "city": "上川郡東神楽町",
    "city_kana": "カミカワグンヒガシカグラチョウ",
    "town": "北三条東",
    "town_kana": "キタ3ジョウヒガシ",
    "street": null,
    "office_name": null,
    "office_name_kana": null
  },
  "1521": {
    "postcode": "0711521",
    "prefecture": "北海道",
    "prefecture_kana": "ホッカイドウ",
    "prefecture_code": 1,
    "city": "上川郡東神楽町",
    "city_kana": "カミカワグンヒガシカグラチョウ",
    "town": "ひじり野北一条",
    "town_kana": "ヒジリノキタ1ジョウ",
    "street": null,
    "office_name": null,
    "office_name_kana": null
  },
  "1522": {
    "postcode": "0711522",
    "prefecture": "北海道",
    "prefecture_kana": "ホッカイドウ",
    "prefecture_code": 1,
    "city": "上川郡東神楽町",
    "city_kana": "カミカワグンヒガシカグラチョウ",
    "town": "ひじり野北二条",
    "town_kana": "ヒジリノキタ2ジョウ",
    "street": null,
    "office_name": null,
    "office_name_kana": null
  },
  "1523": {
    "postcode": "0711523",
    "prefecture": "北海道",
    "prefecture_kana": "ホッカイドウ",
    "prefecture_code": 1,
    "city": "上川郡東神楽町",
    "city_kana": "カミカワグンヒガシカグラチョウ",
    "town": "ひじり野南一条",
    "town_kana": "ヒジリノミナミ1ジョウ",
    "street": null,
    "office_name": null,
    "office_name_kana": null
  },
  "1524": {
    "postcode": "0711524",
    "prefecture": "北海道",
    "prefecture_kana": "ホッカイドウ",
    "prefecture_code": 1,
    "city": "上川郡東神楽町",
    "city_kana": "カミカワグンヒガシカグラチョウ",
    "town": "ひじり野南二条",
    "town_kana": "ヒジリノミナミ2ジョウ",
    "street": null,
    "office_name": null,
    "office_name_kana": null
  },
  "1525": {
    "postcode": "0711525",
    "prefecture": "北海道",
    "prefecture_kana": "ホッカイドウ",
    "prefecture_code": 1,
    "city": "上川郡東神楽町",
    "city_kana": "カミカワグンヒガシカグラチョウ",
    "town": "ひじり野南三条",
    "town_kana": "ヒジリノミナミ3ジョウ",
    "street": null,
    "office_name": null,
    "office_name_kana": null
  },
  "1533": {
    "postcode": "0711533",
    "prefecture": "北海道",
    "prefecture_kana": "ホッカイドウ",
    "prefecture_code": 1,
    "city": "上川郡東神楽町",
    "city_kana": "カミカワグンヒガシカグラチョウ",
    "town": "３号",
    "town_kana": "3ゴウ",
    "street": null,
    "office_name": null,
    "office_name_kana": null
  },
  "1534": {
    "postcode": "0711534",
    "prefecture": "北海道",
    "prefecture_kana": "ホッカイドウ",
    "prefecture_code": 1,
    "city": "上川郡東神楽町",
    "city_kana": "カミカワグンヒガシカグラチョウ",
    "town": "４号",
    "town_kana": "4ゴウ",
    "street": null,
    "office_name": null,
    "office_name_kana": null
  },
  "1535": {
    "postcode": "0711535",
    "prefecture": "北海道",
    "prefecture_kana": "ホッカイドウ",
    "prefecture_code": 1,
    "city": "上川郡東神楽町",
    "city_kana": "カミカワグンヒガシカグラチョウ",
    "town": "５号",
    "town_kana": "5ゴウ",
    "street": null,
    "office_name": null,
    "office_name_kana": null
  },
  "1536": {
    "postcode": "0711536",
    "prefecture": "北海道",
    "prefecture_kana": "ホッカイドウ",
    "prefecture_code": 1,
    "city": "上川郡東神楽町",
    "city_kana": "カミカワグンヒガシカグラチョウ",
    "town": "６号",
    "town_kana": "6ゴウ",
    "street": null,
    "office_name": null,
    "office_name_kana": null
  },
  "1537": {
    "postcode": "0711537",
    "prefecture": "北海道",
    "prefecture_kana": "ホッカイドウ",
    "prefecture_code": 1,
    "city": "上川郡東神楽町",
    "city_kana": "カミカワグンヒガシカグラチョウ",
    "town": "７号",
    "town_kana": "7ゴウ",
    "street": null,
    "office_name": null,
    "office_name_kana": null
  },
  "1538": {
    "postcode": "0711538",
    "prefecture": "北海道",
    "prefecture_kana": "ホッカイドウ",
    "prefecture_code": 1,
    "city": "上川郡東神楽町",
    "city_kana": "カミカワグンヒガシカグラチョウ",
    "town": "８号",
    "town_kana": "8ゴウ",
    "street": null,
    "office_name": null,
    "office_name_kana": null
  },
  "1539": {
    "postcode": "0711539",
    "prefecture": "北海道",
    "prefecture_kana": "ホッカイドウ",
    "prefecture_code": 1,
    "city": "上川郡東神楽町",
    "city_kana": "カミカワグンヒガシカグラチョウ",
    "town": "９号",
    "town_kana": "9ゴウ",
    "street": null,
    "office_name": null,
    "office_name_kana": null
  },
  "1540": {
    "postcode": "0711540",
    "prefecture": "北海道",
    "prefecture_kana": "ホッカイドウ",
    "prefecture_code": 1,
    "city": "上川郡東神楽町",
    "city_kana": "カミカワグンヒガシカグラチョウ",
    "town": "１０号",
    "town_kana": "10ゴウ",
    "street": null,
    "office_name": null,
    "office_name_kana": null
  },
  "1541": {
    "postcode": "0711541",
    "prefecture": "北海道",
    "prefecture_kana": "ホッカイドウ",
    "prefecture_code": 1,
    "city": "上川郡東神楽町",
    "city_kana": "カミカワグンヒガシカグラチョウ",
    "town": "１１号",
    "town_kana": "11ゴウ",
    "street": null,
    "office_name": null,
    "office_name_kana": null
  },
  "1542": {
    "postcode": "0711542",
    "prefecture": "北海道",
    "prefecture_kana": "ホッカイドウ",
    "prefecture_code": 1,
    "city": "上川郡東神楽町",
    "city_kana": "カミカワグンヒガシカグラチョウ",
    "town": "１２号",
    "town_kana": "12ゴウ",
    "street": null,
    "office_name": null,
    "office_name_kana": null
  },
  "1543": {
    "postcode": "0711543",
    "prefecture": "北海道",
    "prefecture_kana": "ホッカイドウ",
    "prefecture_code": 1,
    "city": "上川郡東神楽町",
    "city_kana": "カミカワグンヒガシカグラチョウ",
    "town": "１３号",
    "town_kana": "13ゴウ",
    "street": null,
    "office_name": null,
    "office_name_kana": null
  },
  "1544": {
    "postcode": "0711544",
    "prefecture": "北海道",
    "prefecture_kana": "ホッカイドウ",
    "prefecture_code": 1,
    "city": "上川郡東神楽町",
    "city_kana": "カミカワグンヒガシカグラチョウ",
    "town": "１４号",
    "town_kana": "14ゴウ",
    "street": null,
    "office_name": null,
    "office_name_kana": null
  },
  "1545": {
    "postcode": "0711545",
    "prefecture": "北海道",
    "prefecture_kana": "ホッカイドウ",
    "prefecture_code": 1,
    "city": "上川郡東神楽町",
    "city_kana": "カミカワグンヒガシカグラチョウ",
    "town": "１５号",
    "town_kana": "15ゴウ",
    "street": null,
    "office_name": null,
    "office_name_kana": null
  },
  "1546": {
    "postcode": "0711546",
    "prefecture": "北海道",
    "prefecture_kana": "ホッカイドウ",
    "prefecture_code": 1,
    "city": "上川郡東神楽町",
    "city_kana": "カミカワグンヒガシカグラチョウ",
    "town": "１６号",
    "town_kana": "16ゴウ",
    "street": null,
    "office_name": null,
    "office_name_kana": null
  },
  "1547": {
    "postcode": "0711547",
    "prefecture": "北海道",
    "prefecture_kana": "ホッカイドウ",
    "prefecture_code": 1,
    "city": "上川郡東神楽町",
    "city_kana": "カミカワグンヒガシカグラチョウ",
    "town": "１７号",
    "town_kana": "17ゴウ",
    "street": null,
    "office_name": null,
    "office_name_kana": null
  },
  "1548": {
    "postcode": "0711548",
    "prefecture": "北海道",
    "prefecture_kana": "ホッカイドウ",
    "prefecture_code": 1,
    "city": "上川郡東神楽町",
    "city_kana": "カミカワグンヒガシカグラチョウ",
    "town": "１８号",
    "town_kana": "18ゴウ",
    "street": null,
    "office_name": null,
    "office_name_kana": null
  },
  "1549": {
    "postcode": "0711549",
    "prefecture": "北海道",
    "prefecture_kana": "ホッカイドウ",
    "prefecture_code": 1,
    "city": "上川郡東神楽町",
    "city_kana": "カミカワグンヒガシカグラチョウ",
    "town": "１９号",
    "town_kana": "19ゴウ",
    "street": null,
    "office_name": null,
    "office_name_kana": null
  },
  "1550": {
    "postcode": "0711550",
    "prefecture": "北海道",
    "prefecture_kana": "ホッカイドウ",
    "prefecture_code": 1,
    "city": "上川郡東神楽町",
    "city_kana": "カミカワグンヒガシカグラチョウ",
    "town": "２０号",
    "town_kana": "20ゴウ",
    "street": null,
    "office_name": null,
    "office_name_kana": null
  },
  "1551": {
    "postcode": "0711551",
    "prefecture": "北海道",
    "prefecture_kana": "ホッカイドウ",
    "prefecture_code": 1,
    "city": "上川郡東神楽町",
    "city_kana": "カミカワグンヒガシカグラチョウ",
    "town": "２１号",
    "town_kana": "21ゴウ",
    "street": null,
    "office_name": null,
    "office_name_kana": null
  },
  "1552": {
    "postcode": "0711552",
    "prefecture": "北海道",
    "prefecture_kana": "ホッカイドウ",
    "prefecture_code": 1,
    "city": "上川郡東神楽町",
    "city_kana": "カミカワグンヒガシカグラチョウ",
    "town": "２２号",
    "town_kana": "22ゴウ",
    "street": null,
    "office_name": null,
    "office_name_kana": null
  },
  "1553": {
    "postcode": "0711553",
    "prefecture": "北海道",
    "prefecture_kana": "ホッカイドウ",
    "prefecture_code": 1,
    "city": "上川郡東神楽町",
    "city_kana": "カミカワグンヒガシカグラチョウ",
    "town": "２３号",
    "town_kana": "23ゴウ",
    "street": null,
    "office_name": null,
    "office_name_kana": null
  },
  "1554": {
    "postcode": "0711554",
    "prefecture": "北海道",
    "prefecture_kana": "ホッカイドウ",
    "prefecture_code": 1,
    "city": "上川郡東神楽町",
    "city_kana": "カミカワグンヒガシカグラチョウ",
    "town": "２４号",
    "town_kana": "24ゴウ",
    "street": null,
    "office_name": null,
    "office_name_kana": null
  },
  "1555": {
    "postcode": "0711555",
    "prefecture": "北海道",
    "prefecture_kana": "ホッカイドウ",
    "prefecture_code": 1,
    "city": "上川郡東神楽町",
    "city_kana": "カミカワグンヒガシカグラチョウ",
    "town": "２５号",
    "town_kana": "25ゴウ",
    "street": null,
    "office_name": null,
    "office_name_kana": null
  },
  "1556": {
    "postcode": "0711556",
    "prefecture": "北海道",
    "prefecture_kana": "ホッカイドウ",
    "prefecture_code": 1,
    "city": "上川郡東神楽町",
    "city_kana": "カミカワグンヒガシカグラチョウ",
    "town": "２６号",
    "town_kana": "26ゴウ",
    "street": null,
    "office_name": null,
    "office_name_kana": null
  },
  "1557": {
    "postcode": "0711557",
    "prefecture": "北海道",
    "prefecture_kana": "ホッカイドウ",
    "prefecture_code": 1,
    "city": "上川郡東神楽町",
    "city_kana": "カミカワグンヒガシカグラチョウ",
    "town": "２７号",
    "town_kana": "27ゴウ",
    "street": null,
    "office_name": null,
    "office_name_kana": null
  },
  "1560": {
    "postcode": "0711560",
    "prefecture": "北海道",
    "prefecture_kana": "ホッカイドウ",
    "prefecture_code": 1,
    "city": "上川郡東神楽町",
    "city_kana": "カミカワグンヒガシカグラチョウ",
    "town": "基線",
    "town_kana": "キセン",
    "street": null,
    "office_name": null,
    "office_name_kana": null
  },
  "1561": {
    "postcode": "0711561",
    "prefecture": "北海道",
    "prefecture_kana": "ホッカイドウ",
    "prefecture_code": 1,
    "city": "上川郡東神楽町",
    "city_kana": "カミカワグンヒガシカグラチョウ",
    "town": "東一線",
    "town_kana": "ヒガシ1セン",
    "street": null,
    "office_name": null,
    "office_name_kana": null
  },
  "1562": {
    "postcode": "0711562",
    "prefecture": "北海道",
    "prefecture_kana": "ホッカイドウ",
    "prefecture_code": 1,
    "city": "上川郡東神楽町",
    "city_kana": "カミカワグンヒガシカグラチョウ",
    "town": "東二線",
    "town_kana": "ヒガシ2セン",
    "street": null,
    "office_name": null,
    "office_name_kana": null
  },
  "1563": {
    "postcode": "0711563",
    "prefecture": "北海道",
    "prefecture_kana": "ホッカイドウ",
    "prefecture_code": 1,
    "city": "上川郡東神楽町",
    "city_kana": "カミカワグンヒガシカグラチョウ",
    "town": "東三線",
    "town_kana": "ヒガシ3セン",
    "street": null,
    "office_name": null,
    "office_name_kana": null
  },
  "1564": {
    "postcode": "0711564",
    "prefecture": "北海道",
    "prefecture_kana": "ホッカイドウ",
    "prefecture_code": 1,
    "city": "上川郡東神楽町",
    "city_kana": "カミカワグンヒガシカグラチョウ",
    "town": "東四線",
    "town_kana": "ヒガシ4セン",
    "street": null,
    "office_name": null,
    "office_name_kana": null
  },
  "1565": {
    "postcode": "0711565",
    "prefecture": "北海道",
    "prefecture_kana": "ホッカイドウ",
    "prefecture_code": 1,
    "city": "上川郡東神楽町",
    "city_kana": "カミカワグンヒガシカグラチョウ",
    "town": "東五線",
    "town_kana": "ヒガシ5セン",
    "street": null,
    "office_name": null,
    "office_name_kana": null
  },
  "1570": {
    "postcode": "0711570",
    "prefecture": "北海道",
    "prefecture_kana": "ホッカイドウ",
    "prefecture_code": 1,
    "city": "上川郡東神楽町",
    "city_kana": "カミカワグンヒガシカグラチョウ",
    "town": "南１３号",
    "town_kana": "ミナミ13ゴウ",
    "street": null,
    "office_name": null,
    "office_name_kana": null
  },
  "1571": {
    "postcode": "0711571",
    "prefecture": "北海道",
    "prefecture_kana": "ホッカイドウ",
    "prefecture_code": 1,
    "city": "上川郡東神楽町",
    "city_kana": "カミカワグンヒガシカグラチョウ",
    "town": "南１番通",
    "town_kana": "ミナミ1バンドオリ",
    "street": null,
    "office_name": null,
    "office_name_kana": null
  },
  "1572": {
    "postcode": "0711572",
    "prefecture": "北海道",
    "prefecture_kana": "ホッカイドウ",
    "prefecture_code": 1,
    "city": "上川郡東神楽町",
    "city_kana": "カミカワグンヒガシカグラチョウ",
    "town": "南２線",
    "town_kana": "ミナミ2セン",
    "street": null,
    "office_name": null,
    "office_name_kana": null
  },
  "1573": {
    "postcode": "0711573",
    "prefecture": "北海道",
    "prefecture_kana": "ホッカイドウ",
    "prefecture_code": 1,
    "city": "上川郡東神楽町",
    "city_kana": "カミカワグンヒガシカグラチョウ",
    "town": "南３線",
    "town_kana": "ミナミ3セン",
    "street": null,
    "office_name": null,
    "office_name_kana": null
  },
  "1574": {
    "postcode": "0711574",
    "prefecture": "北海道",
    "prefecture_kana": "ホッカイドウ",
    "prefecture_code": 1,
    "city": "上川郡東神楽町",
    "city_kana": "カミカワグンヒガシカグラチョウ",
    "town": "南４線",
    "town_kana": "ミナミ4セン",
    "street": null,
    "office_name": null,
    "office_name_kana": null
  },
  "1575": {
    "postcode": "0711575",
    "prefecture": "北海道",
    "prefecture_kana": "ホッカイドウ",
    "prefecture_code": 1,
    "city": "上川郡東神楽町",
    "city_kana": "カミカワグンヒガシカグラチョウ",
    "town": "南５線",
    "town_kana": "ミナミ5セン",
    "street": null,
    "office_name": null,
    "office_name_kana": null
  },
  "1577": {
    "postcode": "0711577",
    "prefecture": "北海道",
    "prefecture_kana": "ホッカイドウ",
    "prefecture_code": 1,
    "city": "上川郡東神楽町",
    "city_kana": "カミカワグンヒガシカグラチョウ",
    "town": "八千代ケ岡",
    "town_kana": "ヤチヨガオカ",
    "street": null,
    "office_name": null,
    "office_name_kana": null
  },
  "1581": {
    "postcode": "0711581",
    "prefecture": "北海道",
    "prefecture_kana": "ホッカイドウ",
    "prefecture_code": 1,
    "city": "上川郡東神楽町",
    "city_kana": "カミカワグンヒガシカグラチョウ",
    "town": "栄岡",
    "town_kana": "サカエオカ",
    "street": null,
    "office_name": null,
    "office_name_kana": null
  },
  "1582": {
    "postcode": "0711582",
    "prefecture": "北海道",
    "prefecture_kana": "ホッカイドウ",
    "prefecture_code": 1,
    "city": "上川郡東神楽町",
    "city_kana": "カミカワグンヒガシカグラチョウ",
    "town": "志比内",
    "town_kana": "シビナイ",
    "street": null,
    "office_name": null,
    "office_name_kana": null
  },
  "1592": {
    "postcode": "0711592",
    "prefecture": "北海道",
    "prefecture_kana": "ホッカイドウ",
    "prefecture_code": 1,
    "city": "上川郡東神楽町",
    "city_kana": "カミカワグンヒガシカグラチョウ",
    "town": "南一条西",
    "town_kana": "ミナミ1ジョウニシ",
    "street": "１丁目",
    "office_name": "東神楽町役場",
    "office_name_kana": "ヒガシカグラチヨウヤクバ"
  },
  "1593": {
    "postcode": "0711593",
    "prefecture": "北海道",
    "prefecture_kana": "ホッカイドウ",
    "prefecture_code": 1,
    "city": "上川郡東神楽町",
    "city_kana": "カミカワグンヒガシカグラチョウ",
    "town": "北一条東",
    "town_kana": "キタ1ジョウヒガシ",
    "street": "１丁目",
    "office_name": "東神楽農業協同組合",
    "office_name_kana": "ヒガシカグラノウギヨウキヨウドウクミアイ"
  },
  "1596": {
    "postcode": "0711596",
    "prefecture": "北海道",
    "prefecture_kana": "ホッカイドウ",
    "prefecture_code": 1,
    "city": "上川郡東神楽町",
    "city_kana": "カミカワグンヒガシカグラチョウ",
    "town": "北三条東",
    "town_kana": "キタ3ジョウヒガシ",
    "street": "２丁目",
    "office_name": "株式会社　ヨコマク",
    "office_name_kana": "カブシキガイシヤ ヨコマク"
  },
  "8101": {
    "postcode": "0718101",
    "prefecture": "北海道",
    "prefecture_kana": "ホッカイドウ",
    "prefecture_code": 1,
    "city": "旭川市",
    "city_kana": "アサヒカワシ",
    "town": "東鷹栖１条",
    "town_kana": "ヒガシタカス1ジョウ",
    "street": null,
    "office_name": null,
    "office_name_kana": null
  },
  "8102": {
    "postcode": "0718102",
    "prefecture": "北海道",
    "prefecture_kana": "ホッカイドウ",
    "prefecture_code": 1,
    "city": "旭川市",
    "city_kana": "アサヒカワシ",
    "town": "東鷹栖２条",
    "town_kana": "ヒガシタカス2ジョウ",
    "street": null,
    "office_name": null,
    "office_name_kana": null
  },
  "8103": {
    "postcode": "0718103",
    "prefecture": "北海道",
    "prefecture_kana": "ホッカイドウ",
    "prefecture_code": 1,
    "city": "旭川市",
    "city_kana": "アサヒカワシ",
    "town": "東鷹栖３条",
    "town_kana": "ヒガシタカス3ジョウ",
    "street": null,
    "office_name": null,
    "office_name_kana": null
  },
  "8104": {
    "postcode": "0718104",
    "prefecture": "北海道",
    "prefecture_kana": "ホッカイドウ",
    "prefecture_code": 1,
    "city": "旭川市",
    "city_kana": "アサヒカワシ",
    "town": "東鷹栖４条",
    "town_kana": "ヒガシタカス4ジョウ",
    "street": null,
    "office_name": null,
    "office_name_kana": null
  },
  "8111": {
    "postcode": "0718111",
    "prefecture": "北海道",
    "prefecture_kana": "ホッカイドウ",
    "prefecture_code": 1,
    "city": "旭川市",
    "city_kana": "アサヒカワシ",
    "town": "東鷹栖東１条",
    "town_kana": "ヒガシタカスヒガシ1ジョウ",
    "street": null,
    "office_name": null,
    "office_name_kana": null
  },
  "8112": {
    "postcode": "0718112",
    "prefecture": "北海道",
    "prefecture_kana": "ホッカイドウ",
    "prefecture_code": 1,
    "city": "旭川市",
    "city_kana": "アサヒカワシ",
    "town": "東鷹栖東２条",
    "town_kana": "ヒガシタカスヒガシ2ジョウ",
    "street": null,
    "office_name": null,
    "office_name_kana": null
  },
  "8113": {
    "postcode": "0718113",
    "prefecture": "北海道",
    "prefecture_kana": "ホッカイドウ",
    "prefecture_code": 1,
    "city": "旭川市",
    "city_kana": "アサヒカワシ",
    "town": "東鷹栖東３条",
    "town_kana": "ヒガシタカスヒガシ3ジョウ",
    "street": null,
    "office_name": null,
    "office_name_kana": null
  },
  "8114": {
    "postcode": "0718114",
    "prefecture": "北海道",
    "prefecture_kana": "ホッカイドウ",
    "prefecture_code": 1,
    "city": "旭川市",
    "city_kana": "アサヒカワシ",
    "town": "東鷹栖東１線",
    "town_kana": "ヒガシタカスヒガシ1セン",
    "street": null,
    "office_name": null,
    "office_name_kana": null
  },
  "8121": {
    "postcode": "0718121",
    "prefecture": "北海道",
    "prefecture_kana": "ホッカイドウ",
    "prefecture_code": 1,
    "city": "旭川市",
    "city_kana": "アサヒカワシ",
    "town": "末広東１条",
    "town_kana": "スエヒロヒガシ1ジョウ",
    "street": null,
    "office_name": null,
    "office_name_kana": null
  },
  "8122": {
    "postcode": "0718122",
    "prefecture": "北海道",
    "prefecture_kana": "ホッカイドウ",
    "prefecture_code": 1,
    "city": "旭川市",
    "city_kana": "アサヒカワシ",
    "town": "末広東２条",
    "town_kana": "スエヒロヒガシ2ジョウ",
    "street": null,
    "office_name": null,
    "office_name_kana": null
  },
  "8123": {
    "postcode": "0718123",
    "prefecture": "北海道",
    "prefecture_kana": "ホッカイドウ",
    "prefecture_code": 1,
    "city": "旭川市",
    "city_kana": "アサヒカワシ",
    "town": "末広東３条",
    "town_kana": "スエヒロヒガシ3ジョウ",
    "street": null,
    "office_name": null,
    "office_name_kana": null
  },
  "8130": {
    "postcode": "0718130",
    "prefecture": "北海道",
    "prefecture_kana": "ホッカイドウ",
    "prefecture_code": 1,
    "city": "旭川市",
    "city_kana": "アサヒカワシ",
    "town": "物流団地１条",
    "town_kana": "ブツリュウダンチ1ジョウ",
    "street": null,
    "office_name": null,
    "office_name_kana": null
  },
  "8131": {
    "postcode": "0718131",
    "prefecture": "北海道",
    "prefecture_kana": "ホッカイドウ",
    "prefecture_code": 1,
    "city": "旭川市",
    "city_kana": "アサヒカワシ",
    "town": "末広１条",
    "town_kana": "スエヒロ1ジョウ",
    "street": null,
    "office_name": null,
    "office_name_kana": null
  },
  "8132": {
    "postcode": "0718132",
    "prefecture": "北海道",
    "prefecture_kana": "ホッカイドウ",
    "prefecture_code": 1,
    "city": "旭川市",
    "city_kana": "アサヒカワシ",
    "town": "末広２条",
    "town_kana": "スエヒロ2ジョウ",
    "street": null,
    "office_name": null,
    "office_name_kana": null
  },
  "8133": {
    "postcode": "0718133",
    "prefecture": "北海道",
    "prefecture_kana": "ホッカイドウ",
    "prefecture_code": 1,
    "city": "旭川市",
    "city_kana": "アサヒカワシ",
    "town": "末広３条",
    "town_kana": "スエヒロ3ジョウ",
    "street": null,
    "office_name": null,
    "office_name_kana": null
  },
  "8134": {
    "postcode": "0718134",
    "prefecture": "北海道",
    "prefecture_kana": "ホッカイドウ",
    "prefecture_code": 1,
    "city": "旭川市",
    "city_kana": "アサヒカワシ",
    "town": "末広４条",
    "town_kana": "スエヒロ4ジョウ",
    "street": null,
    "office_name": null,
    "office_name_kana": null
  },
  "8135": {
    "postcode": "0718135",
    "prefecture": "北海道",
    "prefecture_kana": "ホッカイドウ",
    "prefecture_code": 1,
    "city": "旭川市",
    "city_kana": "アサヒカワシ",
    "town": "末広５条",
    "town_kana": "スエヒロ5ジョウ",
    "street": null,
    "office_name": null,
    "office_name_kana": null
  },
  "8136": {
    "postcode": "0718136",
    "prefecture": "北海道",
    "prefecture_kana": "ホッカイドウ",
    "prefecture_code": 1,
    "city": "旭川市",
    "city_kana": "アサヒカワシ",
    "town": "末広６条",
    "town_kana": "スエヒロ6ジョウ",
    "street": null,
    "office_name": null,
    "office_name_kana": null
  },
  "8137": {
    "postcode": "0718137",
    "prefecture": "北海道",
    "prefecture_kana": "ホッカイドウ",
    "prefecture_code": 1,
    "city": "旭川市",
    "city_kana": "アサヒカワシ",
    "town": "末広７条",
    "town_kana": "スエヒロ7ジョウ",
    "street": null,
    "office_name": null,
    "office_name_kana": null
  },
  "8138": {
    "postcode": "0718138",
    "prefecture": "北海道",
    "prefecture_kana": "ホッカイドウ",
    "prefecture_code": 1,
    "city": "旭川市",
    "city_kana": "アサヒカワシ",
    "town": "末広８条",
    "town_kana": "スエヒロ8ジョウ",
    "street": null,
    "office_name": null,
    "office_name_kana": null
  },
  "8139": {
    "postcode": "0718139",
    "prefecture": "北海道",
    "prefecture_kana": "ホッカイドウ",
    "prefecture_code": 1,
    "city": "旭川市",
    "city_kana": "アサヒカワシ",
    "town": "物流団地２条",
    "town_kana": "ブツリュウダンチ2ジョウ",
    "street": null,
    "office_name": null,
    "office_name_kana": null
  },
  "8141": {
    "postcode": "0718141",
    "prefecture": "北海道",
    "prefecture_kana": "ホッカイドウ",
    "prefecture_code": 1,
    "city": "旭川市",
    "city_kana": "アサヒカワシ",
    "town": "春光台１条",
    "town_kana": "シュンコウダイ1ジョウ",
    "street": null,
    "office_name": null,
    "office_name_kana": null
  },
  "8142": {
    "postcode": "0718142",
    "prefecture": "北海道",
    "prefecture_kana": "ホッカイドウ",
    "prefecture_code": 1,
    "city": "旭川市",
    "city_kana": "アサヒカワシ",
    "town": "春光台２条",
    "town_kana": "シュンコウダイ2ジョウ",
    "street": null,
    "office_name": null,
    "office_name_kana": null
  },
  "8143": {
    "postcode": "0718143",
    "prefecture": "北海道",
    "prefecture_kana": "ホッカイドウ",
    "prefecture_code": 1,
    "city": "旭川市",
    "city_kana": "アサヒカワシ",
    "town": "春光台３条",
    "town_kana": "シュンコウダイ3ジョウ",
    "street": null,
    "office_name": null,
    "office_name_kana": null
  },
  "8144": {
    "postcode": "0718144",
    "prefecture": "北海道",
    "prefecture_kana": "ホッカイドウ",
    "prefecture_code": 1,
    "city": "旭川市",
    "city_kana": "アサヒカワシ",
    "town": "春光台４条",
    "town_kana": "シュンコウダイ4ジョウ",
    "street": null,
    "office_name": null,
    "office_name_kana": null
  },
  "8145": {
    "postcode": "0718145",
    "prefecture": "北海道",
    "prefecture_kana": "ホッカイドウ",
    "prefecture_code": 1,
    "city": "旭川市",
    "city_kana": "アサヒカワシ",
    "town": "春光台５条",
    "town_kana": "シュンコウダイ5ジョウ",
    "street": null,
    "office_name": null,
    "office_name_kana": null
  },
  "8151": {
    "postcode": "0718151",
    "prefecture": "北海道",
    "prefecture_kana": "ホッカイドウ",
    "prefecture_code": 1,
    "city": "旭川市",
    "city_kana": "アサヒカワシ",
    "town": "東鷹栖１線",
    "town_kana": "ヒガシタカス1セン",
    "street": null,
    "office_name": null,
    "office_name_kana": null
  },
  "8152": {
    "postcode": "0718152",
    "prefecture": "北海道",
    "prefecture_kana": "ホッカイドウ",
    "prefecture_code": 1,
    "city": "旭川市",
    "city_kana": "アサヒカワシ",
    "town": "東鷹栖２線",
    "town_kana": "ヒガシタカス2セン",
    "street": null,
    "office_name": null,
    "office_name_kana": null
  },
  "8153": {
    "postcode": "0718153",
    "prefecture": "北海道",
    "prefecture_kana": "ホッカイドウ",
    "prefecture_code": 1,
    "city": "旭川市",
    "city_kana": "アサヒカワシ",
    "town": "東鷹栖３線",
    "town_kana": "ヒガシタカス3セン",
    "street": null,
    "office_name": null,
    "office_name_kana": null
  },
  "8154": {
    "postcode": "0718154",
    "prefecture": "北海道",
    "prefecture_kana": "ホッカイドウ",
    "prefecture_code": 1,
    "city": "旭川市",
    "city_kana": "アサヒカワシ",
    "town": "東鷹栖４線",
    "town_kana": "ヒガシタカス4セン",
    "street": null,
    "office_name": null,
    "office_name_kana": null
  },
  "8155": {
    "postcode": "0718155",
    "prefecture": "北海道",
    "prefecture_kana": "ホッカイドウ",
    "prefecture_code": 1,
    "city": "旭川市",
    "city_kana": "アサヒカワシ",
    "town": "東鷹栖５線",
    "town_kana": "ヒガシタカス5セン",
    "street": null,
    "office_name": null,
    "office_name_kana": null
  },
  "8156": {
    "postcode": "0718156",
    "prefecture": "北海道",
    "prefecture_kana": "ホッカイドウ",
    "prefecture_code": 1,
    "city": "旭川市",
    "city_kana": "アサヒカワシ",
    "town": "東鷹栖６線",
    "town_kana": "ヒガシタカス6セン",
    "street": null,
    "office_name": null,
    "office_name_kana": null
  },
  "8157": {
    "postcode": "0718157",
    "prefecture": "北海道",
    "prefecture_kana": "ホッカイドウ",
    "prefecture_code": 1,
    "city": "旭川市",
    "city_kana": "アサヒカワシ",
    "town": "東鷹栖７線",
    "town_kana": "ヒガシタカス7セン",
    "street": null,
    "office_name": null,
    "office_name_kana": null
  },
  "8158": {
    "postcode": "0718158",
    "prefecture": "北海道",
    "prefecture_kana": "ホッカイドウ",
    "prefecture_code": 1,
    "city": "旭川市",
    "city_kana": "アサヒカワシ",
    "town": "東鷹栖８線",
    "town_kana": "ヒガシタカス8セン",
    "street": null,
    "office_name": null,
    "office_name_kana": null
  },
  "8159": {
    "postcode": "0718159",
    "prefecture": "北海道",
    "prefecture_kana": "ホッカイドウ",
    "prefecture_code": 1,
    "city": "旭川市",
    "city_kana": "アサヒカワシ",
    "town": "東鷹栖９線",
    "town_kana": "ヒガシタカス9セン",
    "street": null,
    "office_name": null,
    "office_name_kana": null
  },
  "8160": {
    "postcode": "0718160",
    "prefecture": "北海道",
    "prefecture_kana": "ホッカイドウ",
    "prefecture_code": 1,
    "city": "旭川市",
    "city_kana": "アサヒカワシ",
    "town": "東鷹栖１０線",
    "town_kana": "ヒガシタカス10セン",
    "street": null,
    "office_name": null,
    "office_name_kana": null
  },
  "8161": {
    "postcode": "0718161",
    "prefecture": "北海道",
    "prefecture_kana": "ホッカイドウ",
    "prefecture_code": 1,
    "city": "旭川市",
    "city_kana": "アサヒカワシ",
    "town": "東鷹栖１１線",
    "town_kana": "ヒガシタカス11セン",
    "street": null,
    "office_name": null,
    "office_name_kana": null
  },
  "8162": {
    "postcode": "0718162",
    "prefecture": "北海道",
    "prefecture_kana": "ホッカイドウ",
    "prefecture_code": 1,
    "city": "旭川市",
    "city_kana": "アサヒカワシ",
    "town": "東鷹栖１２線",
    "town_kana": "ヒガシタカス12セン",
    "street": null,
    "office_name": null,
    "office_name_kana": null
  },
  "8163": {
    "postcode": "0718163",
    "prefecture": "北海道",
    "prefecture_kana": "ホッカイドウ",
    "prefecture_code": 1,
    "city": "旭川市",
    "city_kana": "アサヒカワシ",
    "town": "東鷹栖１３線",
    "town_kana": "ヒガシタカス13セン",
    "street": null,
    "office_name": null,
    "office_name_kana": null
  },
  "8164": {
    "postcode": "0718164",
    "prefecture": "北海道",
    "prefecture_kana": "ホッカイドウ",
    "prefecture_code": 1,
    "city": "旭川市",
    "city_kana": "アサヒカワシ",
    "town": "東鷹栖１４線",
    "town_kana": "ヒガシタカス14セン",
    "street": null,
    "office_name": null,
    "office_name_kana": null
  },
  "8165": {
    "postcode": "0718165",
    "prefecture": "北海道",
    "prefecture_kana": "ホッカイドウ",
    "prefecture_code": 1,
    "city": "旭川市",
    "city_kana": "アサヒカワシ",
    "town": "東鷹栖１５線",
    "town_kana": "ヒガシタカス15セン",
    "street": null,
    "office_name": null,
    "office_name_kana": null
  },
  "8166": {
    "postcode": "0718166",
    "prefecture": "北海道",
    "prefecture_kana": "ホッカイドウ",
    "prefecture_code": 1,
    "city": "旭川市",
    "city_kana": "アサヒカワシ",
    "town": "緑台",
    "town_kana": "ミドリダイ",
    "street": null,
    "office_name": null,
    "office_name_kana": null
  },
  "8171": {
    "postcode": "0718171",
    "prefecture": "北海道",
    "prefecture_kana": "ホッカイドウ",
    "prefecture_code": 1,
    "city": "旭川市",
    "city_kana": "アサヒカワシ",
    "town": "東山",
    "town_kana": "ヒガシヤマ",
    "street": null,
    "office_name": null,
    "office_name_kana": null
  }
}