{
  "0000": {
    "postcode": "0720000",
    "prefecture": "北海道",
    "prefecture_kana": "ホッカイドウ",
    "prefecture_code": 1,
    "city": "美唄市",
    "city_kana": "ビバイシ",
    "town": "",
    "town_kana": "",
    "street": null,
    "office_name": null,
    "office_name_kana": null
  },
  "0001": {
    "postcode": "0720001",
    "prefecture": "北海道",
    "prefecture_kana": "ホッカイドウ",
    "prefecture_code": 1,
    "city": "美唄市",
    "city_kana": "ビバイシ",
    "town": "大通東一条北",
    "town_kana": "オオドオリヒガシ1ジョウキタ",
    "street": null,
    "office_name": null,
    "office_name_kana": null
  },
  "0002": {
    "postcode": "0720002",
    "prefecture": "北海道",
    "prefecture_kana": "ホッカイドウ",
    "prefecture_code": 1,
    "city": "美唄市",
    "city_kana": "ビバイシ",
    "town": "東一条北",
    "town_kana": "ヒガシ1ジョウキタ",
    "street": null,
    "office_name": null,
    "office_name_kana": null
  },
  "0003": {
    "postcode": "0720003",
    "prefecture": "北海道",
    "prefecture_kana": "ホッカイドウ",
    "prefecture_code": 1,
    "city": "美唄市",
    "city_kana": "ビバイシ",
    "town": "東二条北",
    "town_kana": "ヒガシ2ジョウキタ",
    "street": null,
    "office_name": null,
    "office_name_kana": null
  },
  "0004": {
    "postcode": "0720004",
    "prefecture": "北海道",
    "prefecture_kana": "ホッカイドウ",
    "prefecture_code": 1,
    "city": "美唄市",
    "city_kana": "ビバイシ",
    "town": "東三条北",
    "town_kana": "ヒガシ3ジョウキタ",
    "street": null,
    "office_name": null,
    "office_name_kana": null
  },
  "0005": {
    "postcode": "0720005",
    "prefecture": "北海道",
    "prefecture_kana": "ホッカイドウ",
    "prefecture_code": 1,
    "city": "美唄市",
    "city_kana": "ビバイシ",
    "town": "東四条北",
    "town_kana": "ヒガシ4ジョウキタ",
    "street": null,
    "office_name": null,
    "office_name_kana": null
  },
  "0006": {
    "postcode": "0720006",
    "prefecture": "北海道",
    "prefecture_kana": "ホッカイドウ",
    "prefecture_code": 1,
    "city": "美唄市",
    "city_kana": "ビバイシ",
    "town": "東五条北",
    "town_kana": "ヒガシ5ジョウキタ",
    "street": null,
    "office_name": null,
    "office_name_kana": null
  },
  "0007": {
    "postcode": "0720007",
    "prefecture": "北海道",
    "prefecture_kana": "ホッカイドウ",
    "prefecture_code": 1,
    "city": "美唄市",
    "city_kana": "ビバイシ",
    "town": "東六条北",
    "town_kana": "ヒガシ6ジョウキタ",
    "street": null,
    "office_name": null,
    "office_name_kana": null
  },
  "0008": {
    "postcode": "0720008",
    "prefecture": "北海道",
    "prefecture_kana": "ホッカイドウ",
    "prefecture_code": 1,
    "city": "美唄市",
    "city_kana": "ビバイシ",
    "town": "癸巳町奔美唄",
    "town_kana": "キシチョウポンビバイ",
    "street": null,
    "office_name": null,
    "office_name_kana": null
  },
  "0009": {
    "postcode": "0720009",
    "prefecture": "北海道",
    "prefecture_kana": "ホッカイドウ",
    "prefecture_code": 1,
    "city": "美唄市",
    "city_kana": "ビバイシ",
    "town": "癸巳町",
    "town_kana": "キシチョウ",
    "street": null,
    "office_name": null,
    "office_name_kana": null
  },
  "0011": {
    "postcode": "0720011",
    "prefecture": "北海道",
    "prefecture_kana": "ホッカイドウ",
    "prefecture_code": 1,
    "city": "美唄市",
    "city_kana": "ビバイシ",
    "town": "大通東一条南",
    "town_kana": "オオドオリヒガシ1ジョウミナミ",
    "street": null,
    "office_name": null,
    "office_name_kana": null
  },
  "0012": {
    "postcode": "0720012",
    "prefecture": "北海道",
    "prefecture_kana": "ホッカイドウ",
    "prefecture_code": 1,
    "city": "美唄市",
    "city_kana": "ビバイシ",
    "town": "東一条南",
    "town_kana": "ヒガシ1ジョウミナミ",
    "street": null,
    "office_name": null,
    "office_name_kana": null
  },
  "0013": {
    "postcode": "0720013",
    "prefecture": "北海道",
    "prefecture_kana": "ホッカイドウ",
    "prefecture_code": 1,
    "city": "美唄市",
    "city_kana": "ビバイシ",
    "town": "東二条南",
    "town_kana": "ヒガシ2ジョウミナミ",
    "street": null,
    "office_name": null,
    "office_name_kana": null
  },
  "0014": {
    "postcode": "0720014",
    "prefecture": "北海道",
    "prefecture_kana": "ホッカイドウ",
    "prefecture_code": 1,
    "city": "美唄市",
    "city_kana": "ビバイシ",
    "town": "東三条南",
    "town_kana": "ヒガシ3ジョウミナミ",
    "street": null,
    "office_name": null,
    "office_name_kana": null
  },
  "0015": {
    "postcode": "0720015",
    "prefecture": "北海道",
    "prefecture_kana": "ホッカイドウ",
    "prefecture_code": 1,
    "city": "美唄市",
    "city_kana": "ビバイシ",
    "town": "東四条南",
    "town_kana": "ヒガシ4ジョウミナミ",
    "street": null,
    "office_name": null,
    "office_name_kana": null
  },
  "0016": {
    "postcode": "0720016",
    "prefecture": "北海道",
    "prefecture_kana": "ホッカイドウ",
    "prefecture_code": 1,
    "city": "美唄市",
    "city_kana": "ビバイシ",
    "town": "東五条南",
    "town_kana": "ヒガシ5ジョウミナミ",
    "street": null,
    "office_name": null,
    "office_name_kana": null
  },
  "0017": {
    "postcode": "0720017",
    "prefecture": "北海道",
    "prefecture_kana": "ホッカイドウ",
    "prefecture_code": 1,
    "city": "美唄市",
    "city_kana": "ビバイシ",
    "town": "東六条南",
    "town_kana": "ヒガシ6ジョウミナミ",
    "street": null,
    "office_name": null,
    "office_name_kana": null
  },
  "0021": {
    "postcode": "0720021",
    "prefecture": "北海道",
    "prefecture_kana": "ホッカイドウ",
    "prefecture_code": 1,
    "city": "美唄市",
    "city_kana": "ビバイシ",
    "town": "大通西一条北",
    "town_kana": "オオドオリニシ1ジョウキタ",
    "street": null,
    "office_name": null,
    "office_name_kana": null
  },
  "0022": {
    "postcode": "0720022",
    "prefecture": "北海道",
    "prefecture_kana": "ホッカイドウ",
    "prefecture_code": 1,
    "city": "美唄市",
    "city_kana": "ビバイシ",
    "town": "西一条北",
    "town_kana": "ニシ1ジョウキタ",
    "street": null,
    "office_name": null,
    "office_name_kana": null
  },
  "0023": {
    "postcode": "0720023",
    "prefecture": "北海道",
    "prefecture_kana": "ホッカイドウ",
    "prefecture_code": 1,
    "city": "美唄市",
    "city_kana": "ビバイシ",
    "town": "大通西一条南",
    "town_kana": "オオドオリニシ1ジョウミナミ",
    "street": null,
    "office_name": null,
    "office_name_kana": null
  },
  "0024": {
    "postcode": "0720024",
    "prefecture": "北海道",
    "prefecture_kana": "ホッカイドウ",
    "prefecture_code": 1,
    "city": "美唄市",
    "city_kana": "ビバイシ",
    "town": "西一条南",
    "town_kana": "ニシ1ジョウミナミ",
    "street": null,
    "office_name": null,
    "office_name_kana": null
  },
  "0025": {
    "postcode": "0720025",
    "prefecture": "北海道",
    "prefecture_kana": "ホッカイドウ",
    "prefecture_code": 1,
    "city": "美唄市",
    "city_kana": "ビバイシ",
    "town": "西二条南",
    "town_kana": "ニシ2ジョウミナミ",
    "street": null,
    "office_name": null,
    "office_name_kana": null
  },
  "0026": {
    "postcode": "0720026",
    "prefecture": "北海道",
    "prefecture_kana": "ホッカイドウ",
    "prefecture_code": 1,
    "city": "美唄市",
    "city_kana": "ビバイシ",
    "town": "西三条南",
    "town_kana": "ニシ3ジョウミナミ",
    "street": null,
    "office_name": null,
    "office_name_kana": null
  },
  "0027": {
    "postcode": "0720027",
    "prefecture": "北海道",
    "prefecture_kana": "ホッカイドウ",
    "prefecture_code": 1,
    "city": "美唄市",
    "city_kana": "ビバイシ",
    "town": "西四条南",
    "town_kana": "ニシ4ジョウミナミ",
    "street": null,
    "office_name": null,
    "office_name_kana": null
  },
  "0028": {
    "postcode": "0720028",
    "prefecture": "北海道",
    "prefecture_kana": "ホッカイドウ",
    "prefecture_code": 1,
    "city": "美唄市",
    "city_kana": "ビバイシ",
    "town": "西五条南",
    "town_kana": "ニシ5ジョウミナミ",
    "street": null,
    "office_name": null,
    "office_name_kana": null
  },
  "0031": {
    "postcode": "0720031",
    "prefecture": "北海道",
    "prefecture_kana": "ホッカイドウ",
    "prefecture_code": 1,
    "city": "美唄市",
    "city_kana": "ビバイシ",
    "town": "西二条北",
    "town_kana": "ニシ2ジョウキタ",
    "street": null,
    "office_name": null,
    "office_name_kana": null
  },
  "0032": {
    "postcode": "0720032",
    "prefecture": "北海道",
    "prefecture_kana": "ホッカイドウ",
    "prefecture_code": 1,
    "city": "美唄市",
    "city_kana": "ビバイシ",
    "town": "西三条北",
    "town_kana": "ニシ3ジョウキタ",
    "street": null,
    "office_name": null,
    "office_name_kana": null
  },
  "0033": {
    "postcode": "0720033",
    "prefecture": "北海道",
    "prefecture_kana": "ホッカイドウ",
    "prefecture_code": 1,
    "city": "美唄市",
    "city_kana": "ビバイシ",
    "town": "西四条北",
    "town_kana": "ニシ4ジョウキタ",
    "street": null,
    "office_name": null,
    "office_name_kana": null
  },
  "0034": {
    "postcode": "0720034",
    "prefecture": "北海道",
    "prefecture_kana": "ホッカイドウ",
    "prefecture_code": 1,
    "city": "美唄市",
    "city_kana": "ビバイシ",
    "town": "西五条北",
    "town_kana": "ニシ5ジョウキタ",
    "street": null,
    "office_name": null,
    "office_name_kana": null
  },
  "0035": {
    "postcode": "0720035",
    "prefecture": "北海道",
    "prefecture_kana": "ホッカイドウ",
    "prefecture_code": 1,
    "city": "美唄市",
    "city_kana": "ビバイシ",
    "town": "沼の内町中央",
    "town_kana": "ヌマノウチチョウチュウオウ",
    "street": null,
    "office_name": null,
    "office_name_kana": null
  },
  "0036": {
    "postcode": "0720036",
    "prefecture": "北海道",
    "prefecture_kana": "ホッカイドウ",
    "prefecture_code": 1,
    "city": "美唄市",
    "city_kana": "ビバイシ",
    "town": "沼の内町南",
    "town_kana": "ヌマノウチチョウミナミ",
    "street": null,
    "office_name": null,
    "office_name_kana": null
  },
  "0037": {
    "postcode": "0720037",
    "prefecture": "北海道",
    "prefecture_kana": "ホッカイドウ",
    "prefecture_code": 1,
    "city": "美唄市",
    "city_kana": "ビバイシ",
    "town": "沼の内町北",
    "town_kana": "ヌマノウチチョウキタ",
    "street": null,
    "office_name": null,
    "office_name_kana": null
  },
  "0038": {
    "postcode": "0720038",
    "prefecture": "北海道",
    "prefecture_kana": "ホッカイドウ",
    "prefecture_code": 1,
    "city": "美唄市",
    "city_kana": "ビバイシ",
    "town": "沼の内町西",
    "town_kana": "ヌマノウチチョウニシ",
    "street": null,
    "office_name": null,
    "office_name_kana": null
  },
  "0041": {
    "postcode": "0720041",
    "prefecture": "北海道",
    "prefecture_kana": "ホッカイドウ",
    "prefecture_code": 1,
    "city": "美唄市",
    "city_kana": "ビバイシ",
    "town": "進徳町東",
    "town_kana": "シントクチョウヒガシ",
    "street": null,
    "office_name": null,
    "office_name_kana": null
  },
  "0042": {
    "postcode": "0720042",
    "prefecture": "北海道",
    "prefecture_kana": "ホッカイドウ",
    "prefecture_code": 1,
    "city": "美唄市",
    "city_kana": "ビバイシ",
    "town": "進徳町",
    "town_kana": "シントクチョウ",
    "street": null,
    "office_name": null,
    "office_name_kana": null
  },
  "0043": {
    "postcode": "0720043",
    "prefecture": "北海道",
    "prefecture_kana": "ホッカイドウ",
    "prefecture_code": 1,
    "city": "美唄市",
    "city_kana": "ビバイシ",
    "town": "進徳町西",
    "town_kana": "シントクチョウニシ",
    "street": null,
    "office_name": null,
    "office_name_kana": null
  },
  "0044": {
    "postcode": "0720044",
    "prefecture": "北海道",
    "prefecture_kana": "ホッカイドウ",
    "prefecture_code": 1,
    "city": "美唄市",
    "city_kana": "ビバイシ",
    "town": "一心町",
    "town_kana": "イッシンチョウ",
    "street": null,
    "office_name": null,
    "office_name_kana": null
  },
  "0045": {
    "postcode": "0720045",
    "prefecture": "北海道",
    "prefecture_kana": "ホッカイドウ",
    "prefecture_code": 1,
    "city": "美唄市",
    "city_kana": "ビバイシ",
    "town": "開発町南",
    "town_kana": "カイハツチョウミナミ",
    "street": null,
    "office_name": null,
    "office_name_kana": null
  },
  "0046": {
    "postcode": "0720046",
    "prefecture": "北海道",
    "prefecture_kana": "ホッカイドウ",
    "prefecture_code": 1,
    "city": "美唄市",
    "city_kana": "ビバイシ",
    "town": "開発町北",
    "town_kana": "カイハツチョウキタ",
    "street": null,
    "office_name": null,
    "office_name_kana": null
  },
  "0047": {
    "postcode": "0720047",
    "prefecture": "北海道",
    "prefecture_kana": "ホッカイドウ",
    "prefecture_code": 1,
    "city": "美唄市",
    "city_kana": "ビバイシ",
    "town": "開発町親和",
    "town_kana": "カイハツチョウシンワ",
    "street": null,
    "office_name": null,
    "office_name_kana": null
  },
  "0051": {
    "postcode": "0720051",
    "prefecture": "北海道",
    "prefecture_kana": "ホッカイドウ",
    "prefecture_code": 1,
    "city": "美唄市",
    "city_kana": "ビバイシ",
    "town": "上美唄町",
    "town_kana": "カミビバイチョウ",
    "street": null,
    "office_name": null,
    "office_name_kana": null
  },
  "0052": {
    "postcode": "0720052",
    "prefecture": "北海道",
    "prefecture_kana": "ホッカイドウ",
    "prefecture_code": 1,
    "city": "美唄市",
    "city_kana": "ビバイシ",
    "town": "上美唄町東",
    "town_kana": "カミビバイチョウヒガシ",
    "street": null,
    "office_name": null,
    "office_name_kana": null
  },
  "0053": {
    "postcode": "0720053",
    "prefecture": "北海道",
    "prefecture_kana": "ホッカイドウ",
    "prefecture_code": 1,
    "city": "美唄市",
    "city_kana": "ビバイシ",
    "town": "上美唄町中央",
    "town_kana": "カミビバイチョウチュウオウ",
    "street": null,
    "office_name": null,
    "office_name_kana": null
  },
  "0054": {
    "postcode": "0720054",
    "prefecture": "北海道",
    "prefecture_kana": "ホッカイドウ",
    "prefecture_code": 1,
    "city": "美唄市",
    "city_kana": "ビバイシ",
    "town": "上美唄町沼の端",
    "town_kana": "カミビバイチョウヌマノハタ",
    "street": null,
    "office_name": null,
    "office_name_kana": null
  },
  "0055": {
    "postcode": "0720055",
    "prefecture": "北海道",
    "prefecture_kana": "ホッカイドウ",
    "prefecture_code": 1,
    "city": "美唄市",
    "city_kana": "ビバイシ",
    "town": "西美唄町元村",
    "town_kana": "ニシビバイチョウモトムラ",
    "street": null,
    "office_name": null,
    "office_name_kana": null
  },
  "0056": {
    "postcode": "0720056",
    "prefecture": "北海道",
    "prefecture_kana": "ホッカイドウ",
    "prefecture_code": 1,
    "city": "美唄市",
    "city_kana": "ビバイシ",
    "town": "西美唄町山形",
    "town_kana": "ニシビバイチョウヤマガタ",
    "street": null,
    "office_name": null,
    "office_name_kana": null
  },
  "0057": {
    "postcode": "0720057",
    "prefecture": "北海道",
    "prefecture_kana": "ホッカイドウ",
    "prefecture_code": 1,
    "city": "美唄市",
    "city_kana": "ビバイシ",
    "town": "西美唄町大曲",
    "town_kana": "ニシビバイチョウオオマガリ",
    "street": null,
    "office_name": null,
    "office_name_kana": null
  },
  "0058": {
    "postcode": "0720058",
    "prefecture": "北海道",
    "prefecture_kana": "ホッカイドウ",
    "prefecture_code": 1,
    "city": "美唄市",
    "city_kana": "ビバイシ",
    "town": "西美唄町富樫",
    "town_kana": "ニシビバイチョウトガシ",
    "street": null,
    "office_name": null,
    "office_name_kana": null
  },
  "0059": {
    "postcode": "0720059",
    "prefecture": "北海道",
    "prefecture_kana": "ホッカイドウ",
    "prefecture_code": 1,
    "city": "美唄市",
    "city_kana": "ビバイシ",
    "town": "西美唄町元村美富",
    "town_kana": "ニシビバイチョウモトムラミトミ",
    "street": null,
    "office_name": null,
    "office_name_kana": null
  },
  "0801": {
    "postcode": "0720801",
    "prefecture": "北海道",
    "prefecture_kana": "ホッカイドウ",
    "prefecture_code": 1,
    "city": "美唄市",
    "city_kana": "ビバイシ",
    "town": "東七条北",
    "town_kana": "ヒガシ7ジョウキタ",
    "street": null,
    "office_name": null,
    "office_name_kana": null
  },
  "0802": {
    "postcode": "0720802",
    "prefecture": "北海道",
    "prefecture_kana": "ホッカイドウ",
    "prefecture_code": 1,
    "city": "美唄市",
    "city_kana": "ビバイシ",
    "town": "東八条北",
    "town_kana": "ヒガシ8ジョウキタ",
    "street": null,
    "office_name": null,
    "office_name_kana": null
  },
  "0803": {
    "postcode": "0720803",
    "prefecture": "北海道",
    "prefecture_kana": "ホッカイドウ",
    "prefecture_code": 1,
    "city": "美唄市",
    "city_kana": "ビバイシ",
    "town": "東明一条",
    "town_kana": "トウメイ1ジョウ",
    "street": null,
    "office_name": null,
    "office_name_kana": null
  },
  "0804": {
    "postcode": "0720804",
    "prefecture": "北海道",
    "prefecture_kana": "ホッカイドウ",
    "prefecture_code": 1,
    "city": "美唄市",
    "city_kana": "ビバイシ",
    "town": "東明二条",
    "town_kana": "トウメイ2ジョウ",
    "street": null,
    "office_name": null,
    "office_name_kana": null
  },
  "0805": {
    "postcode": "0720805",
    "prefecture": "北海道",
    "prefecture_kana": "ホッカイドウ",
    "prefecture_code": 1,
    "city": "美唄市",
    "city_kana": "ビバイシ",
    "town": "東明三条",
    "town_kana": "トウメイ3ジョウ",
    "street": null,
    "office_name": null,
    "office_name_kana": null
  },
  "0806": {
    "postcode": "0720806",
    "prefecture": "北海道",
    "prefecture_kana": "ホッカイドウ",
    "prefecture_code": 1,
    "city": "美唄市",
    "city_kana": "ビバイシ",
    "town": "東明四条",
    "town_kana": "トウメイ4ジョウ",
    "street": null,
    "office_name": null,
    "office_name_kana": null
  },
  "0807": {
    "postcode": "0720807",
    "prefecture": "北海道",
    "prefecture_kana": "ホッカイドウ",
    "prefecture_code": 1,
    "city": "美唄市",
    "city_kana": "ビバイシ",
    "town": "東明五条",
    "town_kana": "トウメイ5ジョウ",
    "street": null,
    "office_name": null,
    "office_name_kana": null
  },
  "0808": {
    "postcode": "0720808",
    "prefecture": "北海道",
    "prefecture_kana": "ホッカイドウ",
    "prefecture_code": 1,
    "city": "美唄市",
    "city_kana": "ビバイシ",
    "town": "東明町",
    "town_kana": "トウメイチョウ",
    "street": null,
    "office_name": null,
    "office_name_kana": null
  },
  "0811": {
    "postcode": "0720811",
    "prefecture": "北海道",
    "prefecture_kana": "ホッカイドウ",
    "prefecture_code": 1,
    "city": "美唄市",
    "city_kana": "ビバイシ",
    "town": "東七条南",
    "town_kana": "ヒガシ7ジョウミナミ",
    "street": null,
    "office_name": null,
    "office_name_kana": null
  },
  "0812": {
    "postcode": "0720812",
    "prefecture": "北海道",
    "prefecture_kana": "ホッカイドウ",
    "prefecture_code": 1,
    "city": "美唄市",
    "city_kana": "ビバイシ",
    "town": "東八条南",
    "town_kana": "ヒガシ8ジョウミナミ",
    "street": null,
    "office_name": null,
    "office_name_kana": null
  },
  "0813": {
    "postcode": "0720813",
    "prefecture": "北海道",
    "prefecture_kana": "ホッカイドウ",
    "prefecture_code": 1,
    "city": "美唄市",
    "city_kana": "ビバイシ",
    "town": "南美唄町旭町",
    "town_kana": "ミナミビバイチョウアサヒマチ",
    "street": null,
    "office_name": null,
    "office_name_kana": null
  },
  "0814": {
    "postcode": "0720814",
    "prefecture": "北海道",
    "prefecture_kana": "ホッカイドウ",
    "prefecture_code": 1,
    "city": "美唄市",
    "city_kana": "ビバイシ",
    "town": "南美唄町山の手",
    "town_kana": "ミナミビバイチョウヤマノテ",
    "street": null,
    "office_name": null,
    "office_name_kana": null
  },
  "0815": {
    "postcode": "0720815",
    "prefecture": "北海道",
    "prefecture_kana": "ホッカイドウ",
    "prefecture_code": 1,
    "city": "美唄市",
    "city_kana": "ビバイシ",
    "town": "南美唄町南町",
    "town_kana": "ミナミビバイチョウミナミマチ",
    "street": null,
    "office_name": null,
    "office_name_kana": null
  },
  "0816": {
    "postcode": "0720816",
    "prefecture": "北海道",
    "prefecture_kana": "ホッカイドウ",
    "prefecture_code": 1,
    "city": "美唄市",
    "city_kana": "ビバイシ",
    "town": "南美唄町仲町",
    "town_kana": "ミナミビバイチョウナカマチ",
    "street": null,
    "office_name": null,
    "office_name_kana": null
  },
  "0817": {
    "postcode": "0720817",
    "prefecture": "北海道",
    "prefecture_kana": "ホッカイドウ",
    "prefecture_code": 1,
    "city": "美唄市",
    "city_kana": "ビバイシ",
    "town": "南美唄町北町",
    "town_kana": "ミナミビバイチョウキタマチ",
    "street": null,
    "office_name": null,
    "office_name_kana": null
  },
  "0818": {
    "postcode": "0720818",
    "prefecture": "北海道",
    "prefecture_kana": "ホッカイドウ",
    "prefecture_code": 1,
    "city": "美唄市",
    "city_kana": "ビバイシ",
    "town": "南美唄町中央通り",
    "town_kana": "ミナミビバイチョウチュウオウドオリ",
    "street": null,
    "office_name": null,
    "office_name_kana": null
  },
  "0819": [
    {
      "postcode": "0720819",
      "prefecture": "北海道",
      "prefecture_kana": "ホッカイドウ",
      "prefecture_code": 1,
      "city": "美唄市",
      "city_kana": "ビバイシ",
      "town": "共練町東",
      "town_kana": "キョウレンチョウヒガシ",
      "street": null,
      "office_name": null,
      "office_name_kana": null
    },
    {
      "postcode": "0720819",
      "prefecture": "北海道",
      "prefecture_kana": "ホッカイドウ",
      "prefecture_code": 1,
      "city": "美唄市",
      "city_kana": "ビバイシ",
      "town": "共練町西",
      "town_kana": "キョウレンチョウニシ",
      "street": null,
      "office_name": null,
      "office_name_kana": null
    }
  ],
  "0821": {
    "postcode": "0720821",
    "prefecture": "北海道",
    "prefecture_kana": "ホッカイドウ",
    "prefecture_code": 1,
    "city": "美唄市",
    "city_kana": "ビバイシ",
    "town": "南美唄町上",
    "town_kana": "ミナミビバイチョウカミ",
    "street": null,
    "office_name": null,
    "office_name_kana": null
  },
  "0822": {
    "postcode": "0720822",
    "prefecture": "北海道",
    "prefecture_kana": "ホッカイドウ",
    "prefecture_code": 1,
    "city": "美唄市",
    "city_kana": "ビバイシ",
    "town": "南美唄町大通り",
    "town_kana": "ミナミビバイチョウオオドオリ",
    "street": null,
    "office_name": null,
    "office_name_kana": null
  },
  "0823": {
    "postcode": "0720823",
    "prefecture": "北海道",
    "prefecture_kana": "ホッカイドウ",
    "prefecture_code": 1,
    "city": "美唄市",
    "city_kana": "ビバイシ",
    "town": "南美唄町下",
    "town_kana": "ミナミビバイチョウシモ",
    "street": null,
    "office_name": null,
    "office_name_kana": null
  },
  "0824": {
    "postcode": "0720824",
    "prefecture": "北海道",
    "prefecture_kana": "ホッカイドウ",
    "prefecture_code": 1,
    "city": "美唄市",
    "city_kana": "ビバイシ",
    "town": "南美唄町新富町",
    "town_kana": "ミナミビバイチョウシントミチョウ",
    "street": null,
    "office_name": null,
    "office_name_kana": null
  },
  "0825": {
    "postcode": "0720825",
    "prefecture": "北海道",
    "prefecture_kana": "ホッカイドウ",
    "prefecture_code": 1,
    "city": "美唄市",
    "city_kana": "ビバイシ",
    "town": "南美唄町桜井町",
    "town_kana": "ミナミビバイチョウサクライチョウ",
    "street": null,
    "office_name": null,
    "office_name_kana": null
  },
  "0826": {
    "postcode": "0720826",
    "prefecture": "北海道",
    "prefecture_kana": "ホッカイドウ",
    "prefecture_code": 1,
    "city": "美唄市",
    "city_kana": "ビバイシ",
    "town": "南美唄町栄町南",
    "town_kana": "ミナミビバイチョウサカエマチミナミ",
    "street": null,
    "office_name": null,
    "office_name_kana": null
  },
  "0827": {
    "postcode": "0720827",
    "prefecture": "北海道",
    "prefecture_kana": "ホッカイドウ",
    "prefecture_code": 1,
    "city": "美唄市",
    "city_kana": "ビバイシ",
    "town": "南美唄町栄町北",
    "town_kana": "ミナミビバイチョウサカエマチキタ",
    "street": null,
    "office_name": null,
    "office_name_kana": null
  },
  "0828": {
    "postcode": "0720828",
    "prefecture": "北海道",
    "prefecture_kana": "ホッカイドウ",
    "prefecture_code": 1,
    "city": "美唄市",
    "city_kana": "ビバイシ",
    "town": "南美唄町西町",
    "town_kana": "ミナミビバイチョウニシマチ",
    "street": null,
    "office_name": null,
    "office_name_kana": null
  },
  "0831": {
    "postcode": "0720831",
    "prefecture": "北海道",
    "prefecture_kana": "ホッカイドウ",
    "prefecture_code": 1,
    "city": "美唄市",
    "city_kana": "ビバイシ",
    "town": "落合町栄町",
    "town_kana": "オチアイチョウサカエマチ",
    "street": null,
    "office_name": null,
    "office_name_kana": null
  },
  "0832": {
    "postcode": "0720832",
    "prefecture": "北海道",
    "prefecture_kana": "ホッカイドウ",
    "prefecture_code": 1,
    "city": "美唄市",
    "city_kana": "ビバイシ",
    "town": "落合町本町",
    "town_kana": "オチアイチョウホンチョウ",
    "street": null,
    "office_name": null,
    "office_name_kana": null
  },
  "0833": {
    "postcode": "0720833",
    "prefecture": "北海道",
    "prefecture_kana": "ホッカイドウ",
    "prefecture_code": 1,
    "city": "美唄市",
    "city_kana": "ビバイシ",
    "town": "落合町緑が丘",
    "town_kana": "オチアイチョウミドリガオカ",
    "street": null,
    "office_name": null,
    "office_name_kana": null
  },
  "0834": {
    "postcode": "0720834",
    "prefecture": "北海道",
    "prefecture_kana": "ホッカイドウ",
    "prefecture_code": 1,
    "city": "美唄市",
    "city_kana": "ビバイシ",
    "town": "落合町住吉",
    "town_kana": "オチアイチョウスミヨシ",
    "street": null,
    "office_name": null,
    "office_name_kana": null
  },
  "0835": {
    "postcode": "0720835",
    "prefecture": "北海道",
    "prefecture_kana": "ホッカイドウ",
    "prefecture_code": 1,
    "city": "美唄市",
    "city_kana": "ビバイシ",
    "town": "落合町入初",
    "town_kana": "オチアイチョウイリソメ",
    "street": null,
    "office_name": null,
    "office_name_kana": null
  },
  "0841": {
    "postcode": "0720841",
    "prefecture": "北海道",
    "prefecture_kana": "ホッカイドウ",
    "prefecture_code": 1,
    "city": "美唄市",
    "city_kana": "ビバイシ",
    "town": "盤の沢町滝の上",
    "town_kana": "バンノサワチョウタキノウエ",
    "street": null,
    "office_name": null,
    "office_name_kana": null
  },
  "0842": {
    "postcode": "0720842",
    "prefecture": "北海道",
    "prefecture_kana": "ホッカイドウ",
    "prefecture_code": 1,
    "city": "美唄市",
    "city_kana": "ビバイシ",
    "town": "盤の沢町本町",
    "town_kana": "バンノサワチョウホンチョウ",
    "street": null,
    "office_name": null,
    "office_name_kana": null
  },
  "0843": {
    "postcode": "0720843",
    "prefecture": "北海道",
    "prefecture_kana": "ホッカイドウ",
    "prefecture_code": 1,
    "city": "美唄市",
    "city_kana": "ビバイシ",
    "town": "盤の沢町高台",
    "town_kana": "バンノサワチョウタカダイ",
    "street": null,
    "office_name": null,
    "office_name_kana": null
  },
  "0844": {
    "postcode": "0720844",
    "prefecture": "北海道",
    "prefecture_kana": "ホッカイドウ",
    "prefecture_code": 1,
    "city": "美唄市",
    "city_kana": "ビバイシ",
    "town": "盤の沢町桜が丘",
    "town_kana": "バンノサワチョウサクラガオカ",
    "street": null,
    "office_name": null,
    "office_name_kana": null
  },
  "0851": {
    "postcode": "0720851",
    "prefecture": "北海道",
    "prefecture_kana": "ホッカイドウ",
    "prefecture_code": 1,
    "city": "美唄市",
    "city_kana": "ビバイシ",
    "town": "我路町一条",
    "town_kana": "ガロチョウ1ジョウ",
    "street": null,
    "office_name": null,
    "office_name_kana": null
  },
  "0852": {
    "postcode": "0720852",
    "prefecture": "北海道",
    "prefecture_kana": "ホッカイドウ",
    "prefecture_code": 1,
    "city": "美唄市",
    "city_kana": "ビバイシ",
    "town": "我路町二条",
    "town_kana": "ガロチョウ2ジョウ",
    "street": null,
    "office_name": null,
    "office_name_kana": null
  },
  "0853": {
    "postcode": "0720853",
    "prefecture": "北海道",
    "prefecture_kana": "ホッカイドウ",
    "prefecture_code": 1,
    "city": "美唄市",
    "city_kana": "ビバイシ",
    "town": "我路町三条",
    "town_kana": "ガロチョウ3ジョウ",
    "street": null,
    "office_name": null,
    "office_name_kana": null
  },
  "0854": {
    "postcode": "0720854",
    "prefecture": "北海道",
    "prefecture_kana": "ホッカイドウ",
    "prefecture_code": 1,
    "city": "美唄市",
    "city_kana": "ビバイシ",
    "town": "我路町四条",
    "town_kana": "ガロチョウ4ジョウ",
    "street": null,
    "office_name": null,
    "office_name_kana": null
  },
  "0855": {
    "postcode": "0720855",
    "prefecture": "北海道",
    "prefecture_kana": "ホッカイドウ",
    "prefecture_code": 1,
    "city": "美唄市",
    "city_kana": "ビバイシ",
    "town": "我路町公園通り",
    "town_kana": "ガロチョウコウエンドオリ",
    "street": null,
    "office_name": null,
    "office_name_kana": null
  },
  "0856": {
    "postcode": "0720856",
    "prefecture": "北海道",
    "prefecture_kana": "ホッカイドウ",
    "prefecture_code": 1,
    "city": "美唄市",
    "city_kana": "ビバイシ",
    "town": "我路町新町",
    "town_kana": "ガロチョウシンマチ",
    "street": null,
    "office_name": null,
    "office_name_kana": null
  },
  "0857": {
    "postcode": "0720857",
    "prefecture": "北海道",
    "prefecture_kana": "ホッカイドウ",
    "prefecture_code": 1,
    "city": "美唄市",
    "city_kana": "ビバイシ",
    "town": "我路町菊水",
    "town_kana": "ガロチョウキクスイ",
    "street": null,
    "office_name": null,
    "office_name_kana": null
  },
  "8660": {
    "postcode": "0728660",
    "prefecture": "北海道",
    "prefecture_kana": "ホッカイドウ",
    "prefecture_code": 1,
    "city": "美唄市",
    "city_kana": "ビバイシ",
    "town": "西三条南",
    "town_kana": "ニシ3ジョウミナミ",
    "street": "１丁目１番１号",
    "office_name": "美唄市役所",
    "office_name_kana": "ビバイシヤクシヨ"
  }
}