{
  "0000": {
    "postcode": "0820000",
    "prefecture": "北海道",
    "prefecture_kana": "ホッカイドウ",
    "prefecture_code": 1,
    "city": "河西郡芽室町",
    "city_kana": "カサイグンメムロチョウ",
    "town": "",
    "town_kana": "",
    "street": null,
    "office_name": null,
    "office_name_kana": null
  },
  "0001": {
    "postcode": "0820001",
    "prefecture": "北海道",
    "prefecture_kana": "ホッカイドウ",
    "prefecture_code": 1,
    "city": "河西郡芽室町",
    "city_kana": "カサイグンメムロチョウ",
    "town": "平和",
    "town_kana": "ヘイワ",
    "street": null,
    "office_name": null,
    "office_name_kana": null
  },
  "0002": [
    {
      "postcode": "0820002",
      "prefecture": "北海道",
      "prefecture_kana": "ホッカイドウ",
      "prefecture_code": 1,
      "city": "河西郡芽室町",
      "city_kana": "カサイグンメムロチョウ",
      "town": "北明",
      "town_kana": "ホクメイ",
      "street": null,
      "office_name": null,
      "office_name_kana": null
    },
    {
      "postcode": "0820002",
      "prefecture": "北海道",
      "prefecture_kana": "ホッカイドウ",
      "prefecture_code": 1,
      "city": "河西郡芽室町",
      "city_kana": "カサイグンメムロチョウ",
      "town": "北明光勇",
      "town_kana": "ホクメイコウユウ",
      "street": null,
      "office_name": null,
      "office_name_kana": null
    }
  ],
  "0003": [
    {
      "postcode": "0820003",
      "prefecture": "北海道",
      "prefecture_kana": "ホッカイドウ",
      "prefecture_code": 1,
      "city": "河西郡芽室町",
      "city_kana": "カサイグンメムロチョウ",
      "town": "西士狩",
      "town_kana": "ニシシカリ",
      "street": null,
      "office_name": null,
      "office_name_kana": null
    },
    {
      "postcode": "0820003",
      "prefecture": "北海道",
      "prefecture_kana": "ホッカイドウ",
      "prefecture_code": 1,
      "city": "河西郡芽室町",
      "city_kana": "カサイグンメムロチョウ",
      "town": "西士狩国見",
      "town_kana": "ニシシカリクニミ",
      "street": null,
      "office_name": null,
      "office_name_kana": null
    }
  ],
  "0004": [
    {
      "postcode": "0820004",
      "prefecture": "北海道",
      "prefecture_kana": "ホッカイドウ",
      "prefecture_code": 1,
      "city": "河西郡芽室町",
      "city_kana": "カサイグンメムロチョウ",
      "town": "東芽室北",
      "town_kana": "ヒガシメムロキタ",
      "street": null,
      "office_name": null,
      "office_name_kana": null
    },
    {
      "postcode": "0820004",
      "prefecture": "北海道",
      "prefecture_kana": "ホッカイドウ",
      "prefecture_code": 1,
      "city": "河西郡芽室町",
      "city_kana": "カサイグンメムロチョウ",
      "town": "東芽室北下美生",
      "town_kana": "ヒガシメムロキタシモビセイ",
      "street": null,
      "office_name": null,
      "office_name_kana": null
    }
  ],
  "0005": [
    {
      "postcode": "0820005",
      "prefecture": "北海道",
      "prefecture_kana": "ホッカイドウ",
      "prefecture_code": 1,
      "city": "河西郡芽室町",
      "city_kana": "カサイグンメムロチョウ",
      "town": "東芽室基線",
      "town_kana": "ヒガシメムロキセン",
      "street": null,
      "office_name": null,
      "office_name_kana": null
    },
    {
      "postcode": "0820005",
      "prefecture": "北海道",
      "prefecture_kana": "ホッカイドウ",
      "prefecture_code": 1,
      "city": "河西郡芽室町",
      "city_kana": "カサイグンメムロチョウ",
      "town": "東芽室基線日甜",
      "town_kana": "ヒガシメムロキセンニッテン",
      "street": null,
      "office_name": null,
      "office_name_kana": null
    }
  ],
  "0006": [
    {
      "postcode": "0820006",
      "prefecture": "北海道",
      "prefecture_kana": "ホッカイドウ",
      "prefecture_code": 1,
      "city": "河西郡芽室町",
      "city_kana": "カサイグンメムロチョウ",
      "town": "東芽室南",
      "town_kana": "ヒガシメムロミナミ",
      "street": null,
      "office_name": null,
      "office_name_kana": null
    },
    {
      "postcode": "0820006",
      "prefecture": "北海道",
      "prefecture_kana": "ホッカイドウ",
      "prefecture_code": 1,
      "city": "河西郡芽室町",
      "city_kana": "カサイグンメムロチョウ",
      "town": "東芽室南大成",
      "town_kana": "ヒガシメムロミナミタイセイ",
      "street": null,
      "office_name": null,
      "office_name_kana": null
    }
  ],
  "0007": [
    {
      "postcode": "0820007",
      "prefecture": "北海道",
      "prefecture_kana": "ホッカイドウ",
      "prefecture_code": 1,
      "city": "河西郡芽室町",
      "city_kana": "カサイグンメムロチョウ",
      "town": "北芽室",
      "town_kana": "キタメムロ",
      "street": null,
      "office_name": null,
      "office_name_kana": null
    },
    {
      "postcode": "0820007",
      "prefecture": "北海道",
      "prefecture_kana": "ホッカイドウ",
      "prefecture_code": 1,
      "city": "河西郡芽室町",
      "city_kana": "カサイグンメムロチョウ",
      "town": "北芽室芽室太",
      "town_kana": "キタメムロメムロブト",
      "street": null,
      "office_name": null,
      "office_name_kana": null
    },
    {
      "postcode": "0820007",
      "prefecture": "北海道",
      "prefecture_kana": "ホッカイドウ",
      "prefecture_code": 1,
      "city": "河西郡芽室町",
      "city_kana": "カサイグンメムロチョウ",
      "town": "北芽室美藁",
      "town_kana": "キタメムロビマン",
      "street": null,
      "office_name": null,
      "office_name_kana": null
    }
  ],
  "0008": {
    "postcode": "0820008",
    "prefecture": "北海道",
    "prefecture_kana": "ホッカイドウ",
    "prefecture_code": 1,
    "city": "河西郡芽室町",
    "city_kana": "カサイグンメムロチョウ",
    "town": "毛根",
    "town_kana": "ケネ",
    "street": null,
    "office_name": null,
    "office_name_kana": null
  },
  "0009": {
    "postcode": "0820009",
    "prefecture": "北海道",
    "prefecture_kana": "ホッカイドウ",
    "prefecture_code": 1,
    "city": "河西郡芽室町",
    "city_kana": "カサイグンメムロチョウ",
    "town": "祥栄西",
    "town_kana": "ショウエイニシ",
    "street": null,
    "office_name": null,
    "office_name_kana": null
  },
  "0010": {
    "postcode": "0820010",
    "prefecture": "北海道",
    "prefecture_kana": "ホッカイドウ",
    "prefecture_code": 1,
    "city": "河西郡芽室町",
    "city_kana": "カサイグンメムロチョウ",
    "town": "祥栄北",
    "town_kana": "ショウエイキタ",
    "street": null,
    "office_name": null,
    "office_name_kana": null
  },
  "0011": {
    "postcode": "0820011",
    "prefecture": "北海道",
    "prefecture_kana": "ホッカイドウ",
    "prefecture_code": 1,
    "city": "河西郡芽室町",
    "city_kana": "カサイグンメムロチョウ",
    "town": "東一条",
    "town_kana": "ヒガシ1ジョウ",
    "street": null,
    "office_name": null,
    "office_name_kana": null
  },
  "0012": {
    "postcode": "0820012",
    "prefecture": "北海道",
    "prefecture_kana": "ホッカイドウ",
    "prefecture_code": 1,
    "city": "河西郡芽室町",
    "city_kana": "カサイグンメムロチョウ",
    "town": "東二条",
    "town_kana": "ヒガシ2ジョウ",
    "street": null,
    "office_name": null,
    "office_name_kana": null
  },
  "0013": {
    "postcode": "0820013",
    "prefecture": "北海道",
    "prefecture_kana": "ホッカイドウ",
    "prefecture_code": 1,
    "city": "河西郡芽室町",
    "city_kana": "カサイグンメムロチョウ",
    "town": "東三条",
    "town_kana": "ヒガシ3ジョウ",
    "street": null,
    "office_name": null,
    "office_name_kana": null
  },
  "0014": {
    "postcode": "0820014",
    "prefecture": "北海道",
    "prefecture_kana": "ホッカイドウ",
    "prefecture_code": 1,
    "city": "河西郡芽室町",
    "city_kana": "カサイグンメムロチョウ",
    "town": "東四条",
    "town_kana": "ヒガシ4ジョウ",
    "street": null,
    "office_name": null,
    "office_name_kana": null
  },
  "0015": {
    "postcode": "0820015",
    "prefecture": "北海道",
    "prefecture_kana": "ホッカイドウ",
    "prefecture_code": 1,
    "city": "河西郡芽室町",
    "city_kana": "カサイグンメムロチョウ",
    "town": "東五条",
    "town_kana": "ヒガシ5ジョウ",
    "street": null,
    "office_name": null,
    "office_name_kana": null
  },
  "0016": {
    "postcode": "0820016",
    "prefecture": "北海道",
    "prefecture_kana": "ホッカイドウ",
    "prefecture_code": 1,
    "city": "河西郡芽室町",
    "city_kana": "カサイグンメムロチョウ",
    "town": "東六条",
    "town_kana": "ヒガシ6ジョウ",
    "street": null,
    "office_name": null,
    "office_name_kana": null
  },
  "0017": {
    "postcode": "0820017",
    "prefecture": "北海道",
    "prefecture_kana": "ホッカイドウ",
    "prefecture_code": 1,
    "city": "河西郡芽室町",
    "city_kana": "カサイグンメムロチョウ",
    "town": "東七条",
    "town_kana": "ヒガシ7ジョウ",
    "street": null,
    "office_name": null,
    "office_name_kana": null
  },
  "0018": {
    "postcode": "0820018",
    "prefecture": "北海道",
    "prefecture_kana": "ホッカイドウ",
    "prefecture_code": 1,
    "city": "河西郡芽室町",
    "city_kana": "カサイグンメムロチョウ",
    "town": "東八条",
    "town_kana": "ヒガシ8ジョウ",
    "street": null,
    "office_name": null,
    "office_name_kana": null
  },
  "0019": {
    "postcode": "0820019",
    "prefecture": "北海道",
    "prefecture_kana": "ホッカイドウ",
    "prefecture_code": 1,
    "city": "河西郡芽室町",
    "city_kana": "カサイグンメムロチョウ",
    "town": "東九条",
    "town_kana": "ヒガシ9ジョウ",
    "street": null,
    "office_name": null,
    "office_name_kana": null
  },
  "0020": {
    "postcode": "0820020",
    "prefecture": "北海道",
    "prefecture_kana": "ホッカイドウ",
    "prefecture_code": 1,
    "city": "河西郡芽室町",
    "city_kana": "カサイグンメムロチョウ",
    "town": "東十条",
    "town_kana": "ヒガシ10ジョウ",
    "street": null,
    "office_name": null,
    "office_name_kana": null
  },
  "0021": {
    "postcode": "0820021",
    "prefecture": "北海道",
    "prefecture_kana": "ホッカイドウ",
    "prefecture_code": 1,
    "city": "河西郡芽室町",
    "city_kana": "カサイグンメムロチョウ",
    "town": "東十一条",
    "town_kana": "ヒガシ11ジョウ",
    "street": null,
    "office_name": null,
    "office_name_kana": null
  },
  "0022": {
    "postcode": "0820022",
    "prefecture": "北海道",
    "prefecture_kana": "ホッカイドウ",
    "prefecture_code": 1,
    "city": "河西郡芽室町",
    "city_kana": "カサイグンメムロチョウ",
    "town": "東十二条",
    "town_kana": "ヒガシ12ジョウ",
    "street": null,
    "office_name": null,
    "office_name_kana": null
  },
  "0030": {
    "postcode": "0820030",
    "prefecture": "北海道",
    "prefecture_kana": "ホッカイドウ",
    "prefecture_code": 1,
    "city": "河西郡芽室町",
    "city_kana": "カサイグンメムロチョウ",
    "town": "本通",
    "town_kana": "ホンドオリ",
    "street": null,
    "office_name": null,
    "office_name_kana": null
  },
  "0031": {
    "postcode": "0820031",
    "prefecture": "北海道",
    "prefecture_kana": "ホッカイドウ",
    "prefecture_code": 1,
    "city": "河西郡芽室町",
    "city_kana": "カサイグンメムロチョウ",
    "town": "西一条",
    "town_kana": "ニシ1ジョウ",
    "street": null,
    "office_name": null,
    "office_name_kana": null
  },
  "0032": {
    "postcode": "0820032",
    "prefecture": "北海道",
    "prefecture_kana": "ホッカイドウ",
    "prefecture_code": 1,
    "city": "河西郡芽室町",
    "city_kana": "カサイグンメムロチョウ",
    "town": "西二条",
    "town_kana": "ニシ2ジョウ",
    "street": null,
    "office_name": null,
    "office_name_kana": null
  },
  "0033": {
    "postcode": "0820033",
    "prefecture": "北海道",
    "prefecture_kana": "ホッカイドウ",
    "prefecture_code": 1,
    "city": "河西郡芽室町",
    "city_kana": "カサイグンメムロチョウ",
    "town": "西三条",
    "town_kana": "ニシ3ジョウ",
    "street": null,
    "office_name": null,
    "office_name_kana": null
  },
  "0034": {
    "postcode": "0820034",
    "prefecture": "北海道",
    "prefecture_kana": "ホッカイドウ",
    "prefecture_code": 1,
    "city": "河西郡芽室町",
    "city_kana": "カサイグンメムロチョウ",
    "town": "西四条",
    "town_kana": "ニシ4ジョウ",
    "street": null,
    "office_name": null,
    "office_name_kana": null
  },
  "0035": {
    "postcode": "0820035",
    "prefecture": "北海道",
    "prefecture_kana": "ホッカイドウ",
    "prefecture_code": 1,
    "city": "河西郡芽室町",
    "city_kana": "カサイグンメムロチョウ",
    "town": "西五条",
    "town_kana": "ニシ5ジョウ",
    "street": null,
    "office_name": null,
    "office_name_kana": null
  },
  "0036": {
    "postcode": "0820036",
    "prefecture": "北海道",
    "prefecture_kana": "ホッカイドウ",
    "prefecture_code": 1,
    "city": "河西郡芽室町",
    "city_kana": "カサイグンメムロチョウ",
    "town": "西六条",
    "town_kana": "ニシ6ジョウ",
    "street": null,
    "office_name": null,
    "office_name_kana": null
  },
  "0037": {
    "postcode": "0820037",
    "prefecture": "北海道",
    "prefecture_kana": "ホッカイドウ",
    "prefecture_code": 1,
    "city": "河西郡芽室町",
    "city_kana": "カサイグンメムロチョウ",
    "town": "西七条",
    "town_kana": "ニシ7ジョウ",
    "street": null,
    "office_name": null,
    "office_name_kana": null
  },
  "0038": {
    "postcode": "0820038",
    "prefecture": "北海道",
    "prefecture_kana": "ホッカイドウ",
    "prefecture_code": 1,
    "city": "河西郡芽室町",
    "city_kana": "カサイグンメムロチョウ",
    "town": "西八条",
    "town_kana": "ニシ8ジョウ",
    "street": null,
    "office_name": null,
    "office_name_kana": null
  },
  "0039": {
    "postcode": "0820039",
    "prefecture": "北海道",
    "prefecture_kana": "ホッカイドウ",
    "prefecture_code": 1,
    "city": "河西郡芽室町",
    "city_kana": "カサイグンメムロチョウ",
    "town": "西九条",
    "town_kana": "ニシ9ジョウ",
    "street": null,
    "office_name": null,
    "office_name_kana": null
  },
  "0040": {
    "postcode": "0820040",
    "prefecture": "北海道",
    "prefecture_kana": "ホッカイドウ",
    "prefecture_code": 1,
    "city": "河西郡芽室町",
    "city_kana": "カサイグンメムロチョウ",
    "town": "西十条",
    "town_kana": "ニシ10ジョウ",
    "street": null,
    "office_name": null,
    "office_name_kana": null
  },
  "0041": {
    "postcode": "0820041",
    "prefecture": "北海道",
    "prefecture_kana": "ホッカイドウ",
    "prefecture_code": 1,
    "city": "河西郡芽室町",
    "city_kana": "カサイグンメムロチョウ",
    "town": "西十一条",
    "town_kana": "ニシ11ジョウ",
    "street": null,
    "office_name": null,
    "office_name_kana": null
  },
  "0042": [
    {
      "postcode": "0820042",
      "prefecture": "北海道",
      "prefecture_kana": "ホッカイドウ",
      "prefecture_code": 1,
      "city": "河西郡芽室町",
      "city_kana": "カサイグンメムロチョウ",
      "town": "芽室北",
      "town_kana": "メムロキタ",
      "street": null,
      "office_name": null,
      "office_name_kana": null
    },
    {
      "postcode": "0820042",
      "prefecture": "北海道",
      "prefecture_kana": "ホッカイドウ",
      "prefecture_code": 1,
      "city": "河西郡芽室町",
      "city_kana": "カサイグンメムロチョウ",
      "town": "芽室北西芽室",
      "town_kana": "メムロキタニシメムロ",
      "street": null,
      "office_name": null,
      "office_name_kana": null
    },
    {
      "postcode": "0820042",
      "prefecture": "北海道",
      "prefecture_kana": "ホッカイドウ",
      "prefecture_code": 1,
      "city": "河西郡芽室町",
      "city_kana": "カサイグンメムロチョウ",
      "town": "芽室北中島",
      "town_kana": "メムロキタナカジマ",
      "street": null,
      "office_name": null,
      "office_name_kana": null
    }
  ],
  "0043": [
    {
      "postcode": "0820043",
      "prefecture": "北海道",
      "prefecture_kana": "ホッカイドウ",
      "prefecture_code": 1,
      "city": "河西郡芽室町",
      "city_kana": "カサイグンメムロチョウ",
      "town": "芽室基線",
      "town_kana": "メムロキセン",
      "street": null,
      "office_name": null,
      "office_name_kana": null
    },
    {
      "postcode": "0820043",
      "prefecture": "北海道",
      "prefecture_kana": "ホッカイドウ",
      "prefecture_code": 1,
      "city": "河西郡芽室町",
      "city_kana": "カサイグンメムロチョウ",
      "town": "芽室基線元町",
      "town_kana": "メムロキセンモトマチ",
      "street": null,
      "office_name": null,
      "office_name_kana": null
    }
  ],
  "0044": [
    {
      "postcode": "0820044",
      "prefecture": "北海道",
      "prefecture_kana": "ホッカイドウ",
      "prefecture_code": 1,
      "city": "河西郡芽室町",
      "city_kana": "カサイグンメムロチョウ",
      "town": "芽室南",
      "town_kana": "メムロミナミ",
      "street": null,
      "office_name": null,
      "office_name_kana": null
    },
    {
      "postcode": "0820044",
      "prefecture": "北海道",
      "prefecture_kana": "ホッカイドウ",
      "prefecture_code": 1,
      "city": "河西郡芽室町",
      "city_kana": "カサイグンメムロチョウ",
      "town": "芽室南南弥生",
      "town_kana": "メムロミナミミナミヤヨイ",
      "street": null,
      "office_name": null,
      "office_name_kana": null
    },
    {
      "postcode": "0820044",
      "prefecture": "北海道",
      "prefecture_kana": "ホッカイドウ",
      "prefecture_code": 1,
      "city": "河西郡芽室町",
      "city_kana": "カサイグンメムロチョウ",
      "town": "芽室南高岩",
      "town_kana": "メムロミナミタカイワ",
      "street": null,
      "office_name": null,
      "office_name_kana": null
    }
  ],
  "0051": {
    "postcode": "0820051",
    "prefecture": "北海道",
    "prefecture_kana": "ホッカイドウ",
    "prefecture_code": 1,
    "city": "河西郡芽室町",
    "city_kana": "カサイグンメムロチョウ",
    "town": "東一条南",
    "town_kana": "ヒガシ1ジョウミナミ",
    "street": null,
    "office_name": null,
    "office_name_kana": null
  },
  "0052": {
    "postcode": "0820052",
    "prefecture": "北海道",
    "prefecture_kana": "ホッカイドウ",
    "prefecture_code": 1,
    "city": "河西郡芽室町",
    "city_kana": "カサイグンメムロチョウ",
    "town": "東二条南",
    "town_kana": "ヒガシ2ジョウミナミ",
    "street": null,
    "office_name": null,
    "office_name_kana": null
  },
  "0053": {
    "postcode": "0820053",
    "prefecture": "北海道",
    "prefecture_kana": "ホッカイドウ",
    "prefecture_code": 1,
    "city": "河西郡芽室町",
    "city_kana": "カサイグンメムロチョウ",
    "town": "東三条南",
    "town_kana": "ヒガシ3ジョウミナミ",
    "street": null,
    "office_name": null,
    "office_name_kana": null
  },
  "0054": {
    "postcode": "0820054",
    "prefecture": "北海道",
    "prefecture_kana": "ホッカイドウ",
    "prefecture_code": 1,
    "city": "河西郡芽室町",
    "city_kana": "カサイグンメムロチョウ",
    "town": "東四条南",
    "town_kana": "ヒガシ4ジョウミナミ",
    "street": null,
    "office_name": null,
    "office_name_kana": null
  },
  "0056": {
    "postcode": "0820056",
    "prefecture": "北海道",
    "prefecture_kana": "ホッカイドウ",
    "prefecture_code": 1,
    "city": "河西郡芽室町",
    "city_kana": "カサイグンメムロチョウ",
    "town": "東六条南",
    "town_kana": "ヒガシ6ジョウミナミ",
    "street": null,
    "office_name": null,
    "office_name_kana": null
  },
  "0057": {
    "postcode": "0820057",
    "prefecture": "北海道",
    "prefecture_kana": "ホッカイドウ",
    "prefecture_code": 1,
    "city": "河西郡芽室町",
    "city_kana": "カサイグンメムロチョウ",
    "town": "東七条南",
    "town_kana": "ヒガシ7ジョウミナミ",
    "street": null,
    "office_name": null,
    "office_name_kana": null
  },
  "0060": {
    "postcode": "0820060",
    "prefecture": "北海道",
    "prefecture_kana": "ホッカイドウ",
    "prefecture_code": 1,
    "city": "河西郡芽室町",
    "city_kana": "カサイグンメムロチョウ",
    "town": "本通南",
    "town_kana": "ホンドオリミナミ",
    "street": null,
    "office_name": null,
    "office_name_kana": null
  },
  "0061": {
    "postcode": "0820061",
    "prefecture": "北海道",
    "prefecture_kana": "ホッカイドウ",
    "prefecture_code": 1,
    "city": "河西郡芽室町",
    "city_kana": "カサイグンメムロチョウ",
    "town": "西一条南",
    "town_kana": "ニシ1ジョウミナミ",
    "street": null,
    "office_name": null,
    "office_name_kana": null
  },
  "0062": {
    "postcode": "0820062",
    "prefecture": "北海道",
    "prefecture_kana": "ホッカイドウ",
    "prefecture_code": 1,
    "city": "河西郡芽室町",
    "city_kana": "カサイグンメムロチョウ",
    "town": "西二条南",
    "town_kana": "ニシ2ジョウミナミ",
    "street": null,
    "office_name": null,
    "office_name_kana": null
  },
  "0063": {
    "postcode": "0820063",
    "prefecture": "北海道",
    "prefecture_kana": "ホッカイドウ",
    "prefecture_code": 1,
    "city": "河西郡芽室町",
    "city_kana": "カサイグンメムロチョウ",
    "town": "西三条南",
    "town_kana": "ニシ3ジョウミナミ",
    "street": null,
    "office_name": null,
    "office_name_kana": null
  },
  "0064": {
    "postcode": "0820064",
    "prefecture": "北海道",
    "prefecture_kana": "ホッカイドウ",
    "prefecture_code": 1,
    "city": "河西郡芽室町",
    "city_kana": "カサイグンメムロチョウ",
    "town": "西四条南",
    "town_kana": "ニシ4ジョウミナミ",
    "street": null,
    "office_name": null,
    "office_name_kana": null
  },
  "0071": {
    "postcode": "0820071",
    "prefecture": "北海道",
    "prefecture_kana": "ホッカイドウ",
    "prefecture_code": 1,
    "city": "河西郡芽室町",
    "city_kana": "カサイグンメムロチョウ",
    "town": "新生",
    "town_kana": "シンセイ",
    "street": null,
    "office_name": null,
    "office_name_kana": null
  },
  "0072": {
    "postcode": "0820072",
    "prefecture": "北海道",
    "prefecture_kana": "ホッカイドウ",
    "prefecture_code": 1,
    "city": "河西郡芽室町",
    "city_kana": "カサイグンメムロチョウ",
    "town": "北伏古南",
    "town_kana": "キタフシコミナミ",
    "street": null,
    "office_name": null,
    "office_name_kana": null
  },
  "0073": {
    "postcode": "0820073",
    "prefecture": "北海道",
    "prefecture_kana": "ホッカイドウ",
    "prefecture_code": 1,
    "city": "河西郡芽室町",
    "city_kana": "カサイグンメムロチョウ",
    "town": "中伏古",
    "town_kana": "ナカフシコ",
    "street": null,
    "office_name": null,
    "office_name_kana": null
  },
  "0074": [
    {
      "postcode": "0820074",
      "prefecture": "北海道",
      "prefecture_kana": "ホッカイドウ",
      "prefecture_code": 1,
      "city": "河西郡芽室町",
      "city_kana": "カサイグンメムロチョウ",
      "town": "栄",
      "town_kana": "サカエ",
      "street": null,
      "office_name": null,
      "office_name_kana": null
    },
    {
      "postcode": "0820074",
      "prefecture": "北海道",
      "prefecture_kana": "ホッカイドウ",
      "prefecture_code": 1,
      "city": "河西郡芽室町",
      "city_kana": "カサイグンメムロチョウ",
      "town": "栄柏友",
      "town_kana": "サカエハクユウ",
      "street": null,
      "office_name": null,
      "office_name_kana": null
    },
    {
      "postcode": "0820074",
      "prefecture": "北海道",
      "prefecture_kana": "ホッカイドウ",
      "prefecture_code": 1,
      "city": "河西郡芽室町",
      "city_kana": "カサイグンメムロチョウ",
      "town": "栄光栄",
      "town_kana": "サカエコウエイ",
      "street": null,
      "office_name": null,
      "office_name_kana": null
    },
    {
      "postcode": "0820074",
      "prefecture": "北海道",
      "prefecture_kana": "ホッカイドウ",
      "prefecture_code": 1,
      "city": "河西郡芽室町",
      "city_kana": "カサイグンメムロチョウ",
      "town": "栄豊来",
      "town_kana": "サカエホウライ",
      "street": null,
      "office_name": null,
      "office_name_kana": null
    },
    {
      "postcode": "0820074",
      "prefecture": "北海道",
      "prefecture_kana": "ホッカイドウ",
      "prefecture_code": 1,
      "city": "河西郡芽室町",
      "city_kana": "カサイグンメムロチョウ",
      "town": "栄常盤",
      "town_kana": "サカエトキワ",
      "street": null,
      "office_name": null,
      "office_name_kana": null
    },
    {
      "postcode": "0820074",
      "prefecture": "北海道",
      "prefecture_kana": "ホッカイドウ",
      "prefecture_code": 1,
      "city": "河西郡芽室町",
      "city_kana": "カサイグンメムロチョウ",
      "town": "栄丸山",
      "town_kana": "サカエマルヤマ",
      "street": null,
      "office_name": null,
      "office_name_kana": null
    }
  ],
  "0075": [
    {
      "postcode": "0820075",
      "prefecture": "北海道",
      "prefecture_kana": "ホッカイドウ",
      "prefecture_code": 1,
      "city": "河西郡芽室町",
      "city_kana": "カサイグンメムロチョウ",
      "town": "坂の上",
      "town_kana": "サカノウエ",
      "street": null,
      "office_name": null,
      "office_name_kana": null
    },
    {
      "postcode": "0820075",
      "prefecture": "北海道",
      "prefecture_kana": "ホッカイドウ",
      "prefecture_code": 1,
      "city": "河西郡芽室町",
      "city_kana": "カサイグンメムロチョウ",
      "town": "坂の上博進",
      "town_kana": "サカノウエハクシン",
      "street": null,
      "office_name": null,
      "office_name_kana": null
    }
  ],
  "0076": {
    "postcode": "0820076",
    "prefecture": "北海道",
    "prefecture_kana": "ホッカイドウ",
    "prefecture_code": 1,
    "city": "河西郡芽室町",
    "city_kana": "カサイグンメムロチョウ",
    "town": "美生",
    "town_kana": "ビセイ",
    "street": null,
    "office_name": null,
    "office_name_kana": null
  },
  "0077": {
    "postcode": "0820077",
    "prefecture": "北海道",
    "prefecture_kana": "ホッカイドウ",
    "prefecture_code": 1,
    "city": "河西郡芽室町",
    "city_kana": "カサイグンメムロチョウ",
    "town": "上芽室南",
    "town_kana": "カミメムロミナミ",
    "street": null,
    "office_name": null,
    "office_name_kana": null
  },
  "0078": {
    "postcode": "0820078",
    "prefecture": "北海道",
    "prefecture_kana": "ホッカイドウ",
    "prefecture_code": 1,
    "city": "河西郡芽室町",
    "city_kana": "カサイグンメムロチョウ",
    "town": "渋山",
    "town_kana": "シブサン",
    "street": null,
    "office_name": null,
    "office_name_kana": null
  },
  "0079": {
    "postcode": "0820079",
    "prefecture": "北海道",
    "prefecture_kana": "ホッカイドウ",
    "prefecture_code": 1,
    "city": "河西郡芽室町",
    "city_kana": "カサイグンメムロチョウ",
    "town": "新朝日",
    "town_kana": "シンアサヒ",
    "street": null,
    "office_name": null,
    "office_name_kana": null
  },
  "0081": {
    "postcode": "0820081",
    "prefecture": "北海道",
    "prefecture_kana": "ホッカイドウ",
    "prefecture_code": 1,
    "city": "河西郡芽室町",
    "city_kana": "カサイグンメムロチョウ",
    "town": "新生南",
    "town_kana": "シンセイミナミ",
    "street": null,
    "office_name": null,
    "office_name_kana": null
  },
  "0082": {
    "postcode": "0820082",
    "prefecture": "北海道",
    "prefecture_kana": "ホッカイドウ",
    "prefecture_code": 1,
    "city": "河西郡芽室町",
    "city_kana": "カサイグンメムロチョウ",
    "town": "北伏古東",
    "town_kana": "キタフシコヒガシ",
    "street": null,
    "office_name": null,
    "office_name_kana": null
  },
  "0083": {
    "postcode": "0820083",
    "prefecture": "北海道",
    "prefecture_kana": "ホッカイドウ",
    "prefecture_code": 1,
    "city": "河西郡芽室町",
    "city_kana": "カサイグンメムロチョウ",
    "town": "中伏古東",
    "town_kana": "ナカフシコヒガシ",
    "street": null,
    "office_name": null,
    "office_name_kana": null
  },
  "0084": {
    "postcode": "0820084",
    "prefecture": "北海道",
    "prefecture_kana": "ホッカイドウ",
    "prefecture_code": 1,
    "city": "河西郡芽室町",
    "city_kana": "カサイグンメムロチョウ",
    "town": "上芽室北",
    "town_kana": "カミメムロキタ",
    "street": null,
    "office_name": null,
    "office_name_kana": null
  },
  "0085": {
    "postcode": "0820085",
    "prefecture": "北海道",
    "prefecture_kana": "ホッカイドウ",
    "prefecture_code": 1,
    "city": "河西郡芽室町",
    "city_kana": "カサイグンメムロチョウ",
    "town": "上芽室基線",
    "town_kana": "カミメムロキセン",
    "street": null,
    "office_name": null,
    "office_name_kana": null
  },
  "0086": {
    "postcode": "0820086",
    "prefecture": "北海道",
    "prefecture_kana": "ホッカイドウ",
    "prefecture_code": 1,
    "city": "河西郡芽室町",
    "city_kana": "カサイグンメムロチョウ",
    "town": "中美生",
    "town_kana": "チュウビセイ",
    "street": null,
    "office_name": null,
    "office_name_kana": null
  },
  "0087": {
    "postcode": "0820087",
    "prefecture": "北海道",
    "prefecture_kana": "ホッカイドウ",
    "prefecture_code": 1,
    "city": "河西郡芽室町",
    "city_kana": "カサイグンメムロチョウ",
    "town": "上芽室東",
    "town_kana": "カミメムロヒガシ",
    "street": null,
    "office_name": null,
    "office_name_kana": null
  },
  "0381": {
    "postcode": "0820381",
    "prefecture": "北海道",
    "prefecture_kana": "ホッカイドウ",
    "prefecture_code": 1,
    "city": "河西郡芽室町",
    "city_kana": "カサイグンメムロチョウ",
    "town": "上伏古",
    "town_kana": "カミフシコ",
    "street": null,
    "office_name": null,
    "office_name_kana": null
  },
  "0382": {
    "postcode": "0820382",
    "prefecture": "北海道",
    "prefecture_kana": "ホッカイドウ",
    "prefecture_code": 1,
    "city": "河西郡芽室町",
    "city_kana": "カサイグンメムロチョウ",
    "town": "雄馬別",
    "town_kana": "オマベツ",
    "street": null,
    "office_name": null,
    "office_name_kana": null
  },
  "0383": {
    "postcode": "0820383",
    "prefecture": "北海道",
    "prefecture_kana": "ホッカイドウ",
    "prefecture_code": 1,
    "city": "河西郡芽室町",
    "city_kana": "カサイグンメムロチョウ",
    "town": "伏美",
    "town_kana": "フシミ",
    "street": null,
    "office_name": null,
    "office_name_kana": null
  },
  "0384": {
    "postcode": "0820384",
    "prefecture": "北海道",
    "prefecture_kana": "ホッカイドウ",
    "prefecture_code": 1,
    "city": "河西郡芽室町",
    "city_kana": "カサイグンメムロチョウ",
    "town": "上美生",
    "town_kana": "カミビセイ",
    "street": null,
    "office_name": null,
    "office_name_kana": null
  },
  "0385": [
    {
      "postcode": "0820385",
      "prefecture": "北海道",
      "prefecture_kana": "ホッカイドウ",
      "prefecture_code": 1,
      "city": "河西郡芽室町",
      "city_kana": "カサイグンメムロチョウ",
      "town": "渋山",
      "town_kana": "シブサン",
      "street": null,
      "office_name": null,
      "office_name_kana": null
    },
    {
      "postcode": "0820385",
      "prefecture": "北海道",
      "prefecture_kana": "ホッカイドウ",
      "prefecture_code": 1,
      "city": "河西郡芽室町",
      "city_kana": "カサイグンメムロチョウ",
      "town": "渋山上渋山",
      "town_kana": "シブサンカミシブサン",
      "street": null,
      "office_name": null,
      "office_name_kana": null
    }
  ],
  "0801": {
    "postcode": "0820801",
    "prefecture": "北海道",
    "prefecture_kana": "ホッカイドウ",
    "prefecture_code": 1,
    "city": "河西郡芽室町",
    "city_kana": "カサイグンメムロチョウ",
    "town": "東めむろ一条北",
    "town_kana": "ヒガシメムロ1ジョウキタ",
    "street": null,
    "office_name": null,
    "office_name_kana": null
  },
  "0802": {
    "postcode": "0820802",
    "prefecture": "北海道",
    "prefecture_kana": "ホッカイドウ",
    "prefecture_code": 1,
    "city": "河西郡芽室町",
    "city_kana": "カサイグンメムロチョウ",
    "town": "東めむろ二条北",
    "town_kana": "ヒガシメムロ2ジョウキタ",
    "street": null,
    "office_name": null,
    "office_name_kana": null
  },
  "0803": {
    "postcode": "0820803",
    "prefecture": "北海道",
    "prefecture_kana": "ホッカイドウ",
    "prefecture_code": 1,
    "city": "河西郡芽室町",
    "city_kana": "カサイグンメムロチョウ",
    "town": "東めむろ三条北",
    "town_kana": "ヒガシメムロ3ジョウキタ",
    "street": null,
    "office_name": null,
    "office_name_kana": null
  },
  "0811": {
    "postcode": "0820811",
    "prefecture": "北海道",
    "prefecture_kana": "ホッカイドウ",
    "prefecture_code": 1,
    "city": "河西郡芽室町",
    "city_kana": "カサイグンメムロチョウ",
    "town": "東めむろ一条南",
    "town_kana": "ヒガシメムロ1ジョウミナミ",
    "street": null,
    "office_name": null,
    "office_name_kana": null
  },
  "0812": {
    "postcode": "0820812",
    "prefecture": "北海道",
    "prefecture_kana": "ホッカイドウ",
    "prefecture_code": 1,
    "city": "河西郡芽室町",
    "city_kana": "カサイグンメムロチョウ",
    "town": "東めむろ二条南",
    "town_kana": "ヒガシメムロ2ジョウミナミ",
    "street": null,
    "office_name": null,
    "office_name_kana": null
  },
  "0813": {
    "postcode": "0820813",
    "prefecture": "北海道",
    "prefecture_kana": "ホッカイドウ",
    "prefecture_code": 1,
    "city": "河西郡芽室町",
    "city_kana": "カサイグンメムロチョウ",
    "town": "東めむろ三条南",
    "town_kana": "ヒガシメムロ3ジョウミナミ",
    "street": null,
    "office_name": null,
    "office_name_kana": null
  },
  "8650": {
    "postcode": "0828650",
    "prefecture": "北海道",
    "prefecture_kana": "ホッカイドウ",
    "prefecture_code": 1,
    "city": "河西郡芽室町",
    "city_kana": "カサイグンメムロチョウ",
    "town": "西四条南",
    "town_kana": "ニシ4ジョウミナミ",
    "street": "１丁目１番地９（芽室郵便局私書箱第５号）",
    "office_name": "芽室町農業協同組合",
    "office_name_kana": "メムロチヨウノウギヨウキヨウドウクミアイ"
  },
  "8651": {
    "postcode": "0828651",
    "prefecture": "北海道",
    "prefecture_kana": "ホッカイドウ",
    "prefecture_code": 1,
    "city": "河西郡芽室町",
    "city_kana": "カサイグンメムロチョウ",
    "town": "東二条",
    "town_kana": "ヒガシ2ジョウ",
    "street": "２丁目１４番地（芽室郵便局私書箱第７号）",
    "office_name": "芽室町役場",
    "office_name_kana": "メムロチヨウヤクバ"
  }
}