{
  "0000": {
    "postcode": "0830000",
    "prefecture": "北海道",
    "prefecture_kana": "ホッカイドウ",
    "prefecture_code": 1,
    "city": "中川郡池田町",
    "city_kana": "ナカガワグンイケダチョウ",
    "town": "",
    "town_kana": "",
    "street": null,
    "office_name": null,
    "office_name_kana": null
  },
  "0001": {
    "postcode": "0830001",
    "prefecture": "北海道",
    "prefecture_kana": "ホッカイドウ",
    "prefecture_code": 1,
    "city": "中川郡池田町",
    "city_kana": "ナカガワグンイケダチョウ",
    "town": "旭町",
    "town_kana": "アサヒマチ",
    "street": null,
    "office_name": null,
    "office_name_kana": null
  },
  "0002": {
    "postcode": "0830002",
    "prefecture": "北海道",
    "prefecture_kana": "ホッカイドウ",
    "prefecture_code": 1,
    "city": "中川郡池田町",
    "city_kana": "ナカガワグンイケダチョウ",
    "town": "清見",
    "town_kana": "キヨミ",
    "street": null,
    "office_name": null,
    "office_name_kana": null
  },
  "0003": {
    "postcode": "0830003",
    "prefecture": "北海道",
    "prefecture_kana": "ホッカイドウ",
    "prefecture_code": 1,
    "city": "中川郡池田町",
    "city_kana": "ナカガワグンイケダチョウ",
    "town": "清見ケ丘",
    "town_kana": "キヨミガオカ",
    "street": null,
    "office_name": null,
    "office_name_kana": null
  },
  "0004": {
    "postcode": "0830004",
    "prefecture": "北海道",
    "prefecture_kana": "ホッカイドウ",
    "prefecture_code": 1,
    "city": "中川郡池田町",
    "city_kana": "ナカガワグンイケダチョウ",
    "town": "様舞",
    "town_kana": "サママイ",
    "street": null,
    "office_name": null,
    "office_name_kana": null
  },
  "0020": {
    "postcode": "0830020",
    "prefecture": "北海道",
    "prefecture_kana": "ホッカイドウ",
    "prefecture_code": 1,
    "city": "中川郡池田町",
    "city_kana": "ナカガワグンイケダチョウ",
    "town": "大通南",
    "town_kana": "オオドオリミナミ",
    "street": null,
    "office_name": null,
    "office_name_kana": null
  },
  "0021": {
    "postcode": "0830021",
    "prefecture": "北海道",
    "prefecture_kana": "ホッカイドウ",
    "prefecture_code": 1,
    "city": "中川郡池田町",
    "city_kana": "ナカガワグンイケダチョウ",
    "town": "西一条",
    "town_kana": "ニシ1ジョウ",
    "street": null,
    "office_name": null,
    "office_name_kana": null
  },
  "0022": {
    "postcode": "0830022",
    "prefecture": "北海道",
    "prefecture_kana": "ホッカイドウ",
    "prefecture_code": 1,
    "city": "中川郡池田町",
    "city_kana": "ナカガワグンイケダチョウ",
    "town": "西二条",
    "town_kana": "ニシ2ジョウ",
    "street": null,
    "office_name": null,
    "office_name_kana": null
  },
  "0023": {
    "postcode": "0830023",
    "prefecture": "北海道",
    "prefecture_kana": "ホッカイドウ",
    "prefecture_code": 1,
    "city": "中川郡池田町",
    "city_kana": "ナカガワグンイケダチョウ",
    "town": "西三条",
    "town_kana": "ニシ3ジョウ",
    "street": null,
    "office_name": null,
    "office_name_kana": null
  },
  "0031": {
    "postcode": "0830031",
    "prefecture": "北海道",
    "prefecture_kana": "ホッカイドウ",
    "prefecture_code": 1,
    "city": "中川郡池田町",
    "city_kana": "ナカガワグンイケダチョウ",
    "town": "利別西町",
    "town_kana": "トシベツニシマチ",
    "street": null,
    "office_name": null,
    "office_name_kana": null
  },
  "0032": {
    "postcode": "0830032",
    "prefecture": "北海道",
    "prefecture_kana": "ホッカイドウ",
    "prefecture_code": 1,
    "city": "中川郡池田町",
    "city_kana": "ナカガワグンイケダチョウ",
    "town": "利別東町",
    "town_kana": "トシベツヒガシマチ",
    "street": null,
    "office_name": null,
    "office_name_kana": null
  },
  "0033": {
    "postcode": "0830033",
    "prefecture": "北海道",
    "prefecture_kana": "ホッカイドウ",
    "prefecture_code": 1,
    "city": "中川郡池田町",
    "city_kana": "ナカガワグンイケダチョウ",
    "town": "利別南町",
    "town_kana": "トシベツミナミマチ",
    "street": null,
    "office_name": null,
    "office_name_kana": null
  },
  "0034": {
    "postcode": "0830034",
    "prefecture": "北海道",
    "prefecture_kana": "ホッカイドウ",
    "prefecture_code": 1,
    "city": "中川郡池田町",
    "city_kana": "ナカガワグンイケダチョウ",
    "town": "利別本町",
    "town_kana": "トシベツモトマチ",
    "street": null,
    "office_name": null,
    "office_name_kana": null
  },
  "0041": {
    "postcode": "0830041",
    "prefecture": "北海道",
    "prefecture_kana": "ホッカイドウ",
    "prefecture_code": 1,
    "city": "中川郡池田町",
    "city_kana": "ナカガワグンイケダチョウ",
    "town": "川合",
    "town_kana": "カワイ",
    "street": null,
    "office_name": null,
    "office_name_kana": null
  },
  "0042": {
    "postcode": "0830042",
    "prefecture": "北海道",
    "prefecture_kana": "ホッカイドウ",
    "prefecture_code": 1,
    "city": "中川郡池田町",
    "city_kana": "ナカガワグンイケダチョウ",
    "town": "千代田",
    "town_kana": "チヨダ",
    "street": null,
    "office_name": null,
    "office_name_kana": null
  },
  "0043": {
    "postcode": "0830043",
    "prefecture": "北海道",
    "prefecture_kana": "ホッカイドウ",
    "prefecture_code": 1,
    "city": "中川郡池田町",
    "city_kana": "ナカガワグンイケダチョウ",
    "town": "豊田",
    "town_kana": "トヨタ",
    "street": null,
    "office_name": null,
    "office_name_kana": null
  },
  "0044": {
    "postcode": "0830044",
    "prefecture": "北海道",
    "prefecture_kana": "ホッカイドウ",
    "prefecture_code": 1,
    "city": "中川郡池田町",
    "city_kana": "ナカガワグンイケダチョウ",
    "town": "青山",
    "town_kana": "アオヤマ",
    "street": null,
    "office_name": null,
    "office_name_kana": null
  },
  "0045": {
    "postcode": "0830045",
    "prefecture": "北海道",
    "prefecture_kana": "ホッカイドウ",
    "prefecture_code": 1,
    "city": "中川郡池田町",
    "city_kana": "ナカガワグンイケダチョウ",
    "town": "富岡",
    "town_kana": "トミオカ",
    "street": null,
    "office_name": null,
    "office_name_kana": null
  },
  "0046": {
    "postcode": "0830046",
    "prefecture": "北海道",
    "prefecture_kana": "ホッカイドウ",
    "prefecture_code": 1,
    "city": "中川郡池田町",
    "city_kana": "ナカガワグンイケダチョウ",
    "town": "東台",
    "town_kana": "トウダイ",
    "street": null,
    "office_name": null,
    "office_name_kana": null
  },
  "0047": {
    "postcode": "0830047",
    "prefecture": "北海道",
    "prefecture_kana": "ホッカイドウ",
    "prefecture_code": 1,
    "city": "中川郡池田町",
    "city_kana": "ナカガワグンイケダチョウ",
    "town": "昭栄",
    "town_kana": "ショウエイ",
    "street": null,
    "office_name": null,
    "office_name_kana": null
  },
  "0090": {
    "postcode": "0830090",
    "prefecture": "北海道",
    "prefecture_kana": "ホッカイドウ",
    "prefecture_code": 1,
    "city": "中川郡池田町",
    "city_kana": "ナカガワグンイケダチョウ",
    "town": "大通",
    "town_kana": "オオドオリ",
    "street": null,
    "office_name": null,
    "office_name_kana": null
  },
  "0091": {
    "postcode": "0830091",
    "prefecture": "北海道",
    "prefecture_kana": "ホッカイドウ",
    "prefecture_code": 1,
    "city": "中川郡池田町",
    "city_kana": "ナカガワグンイケダチョウ",
    "town": "東一条",
    "town_kana": "ヒガシ1ジョウ",
    "street": null,
    "office_name": null,
    "office_name_kana": null
  },
  "0092": {
    "postcode": "0830092",
    "prefecture": "北海道",
    "prefecture_kana": "ホッカイドウ",
    "prefecture_code": 1,
    "city": "中川郡池田町",
    "city_kana": "ナカガワグンイケダチョウ",
    "town": "東二条",
    "town_kana": "ヒガシ2ジョウ",
    "street": null,
    "office_name": null,
    "office_name_kana": null
  },
  "8585": {
    "postcode": "0838585",
    "prefecture": "北海道",
    "prefecture_kana": "ホッカイドウ",
    "prefecture_code": 1,
    "city": "中川郡池田町",
    "city_kana": "ナカガワグンイケダチョウ",
    "town": "字昭栄",
    "town_kana": null,
    "street": "４９番地６",
    "office_name": "（有）　ノース・ドリーム",
    "office_name_kana": "ユウゲンガイシヤ ノ-スドリ-ム"
  },
  "8650": {
    "postcode": "0838650",
    "prefecture": "北海道",
    "prefecture_kana": "ホッカイドウ",
    "prefecture_code": 1,
    "city": "中川郡池田町",
    "city_kana": "ナカガワグンイケダチョウ",
    "town": "字西一条",
    "town_kana": null,
    "street": "７丁目（十勝池田郵便局私書箱第１２号）",
    "office_name": "池田町役場",
    "office_name_kana": "イケダチヨウヤクバ"
  }
}