{
  "0901": {
    "postcode": "0840901",
    "prefecture": "北海道",
    "prefecture_kana": "ホッカイドウ",
    "prefecture_code": 1,
    "city": "釧路市",
    "city_kana": "クシロシ",
    "town": "昭和北",
    "town_kana": "ショウワキタ",
    "street": null,
    "office_name": null,
    "office_name_kana": null
  },
  "0902": {
    "postcode": "0840902",
    "prefecture": "北海道",
    "prefecture_kana": "ホッカイドウ",
    "prefecture_code": 1,
    "city": "釧路市",
    "city_kana": "クシロシ",
    "town": "昭和",
    "town_kana": "ショウワ",
    "street": null,
    "office_name": null,
    "office_name_kana": null
  },
  "0903": {
    "postcode": "0840903",
    "prefecture": "北海道",
    "prefecture_kana": "ホッカイドウ",
    "prefecture_code": 1,
    "city": "釧路市",
    "city_kana": "クシロシ",
    "town": "昭和町",
    "town_kana": "ショウワチョウ",
    "street": null,
    "office_name": null,
    "office_name_kana": null
  },
  "0904": {
    "postcode": "0840904",
    "prefecture": "北海道",
    "prefecture_kana": "ホッカイドウ",
    "prefecture_code": 1,
    "city": "釧路市",
    "city_kana": "クシロシ",
    "town": "新富士町",
    "town_kana": "シンフジチョウ",
    "street": null,
    "office_name": null,
    "office_name_kana": null
  },
  "0905": {
    "postcode": "0840905",
    "prefecture": "北海道",
    "prefecture_kana": "ホッカイドウ",
    "prefecture_code": 1,
    "city": "釧路市",
    "city_kana": "クシロシ",
    "town": "鳥取南",
    "town_kana": "トットリミナミ",
    "street": null,
    "office_name": null,
    "office_name_kana": null
  },
  "0906": {
    "postcode": "0840906",
    "prefecture": "北海道",
    "prefecture_kana": "ホッカイドウ",
    "prefecture_code": 1,
    "city": "釧路市",
    "city_kana": "クシロシ",
    "town": "鳥取大通",
    "town_kana": "トットリオオドオリ",
    "street": null,
    "office_name": null,
    "office_name_kana": null
  },
  "0907": {
    "postcode": "0840907",
    "prefecture": "北海道",
    "prefecture_kana": "ホッカイドウ",
    "prefecture_code": 1,
    "city": "釧路市",
    "city_kana": "クシロシ",
    "town": "鳥取北",
    "town_kana": "トットリキタ",
    "street": null,
    "office_name": null,
    "office_name_kana": null
  },
  "0908": {
    "postcode": "0840908",
    "prefecture": "北海道",
    "prefecture_kana": "ホッカイドウ",
    "prefecture_code": 1,
    "city": "釧路市",
    "city_kana": "クシロシ",
    "town": "北園",
    "town_kana": "キタゾノ",
    "street": null,
    "office_name": null,
    "office_name_kana": null
  },
  "0909": {
    "postcode": "0840909",
    "prefecture": "北海道",
    "prefecture_kana": "ホッカイドウ",
    "prefecture_code": 1,
    "city": "釧路市",
    "city_kana": "クシロシ",
    "town": "昭和南",
    "town_kana": "ショウワミナミ",
    "street": null,
    "office_name": null,
    "office_name_kana": null
  },
  "0910": {
    "postcode": "0840910",
    "prefecture": "北海道",
    "prefecture_kana": "ホッカイドウ",
    "prefecture_code": 1,
    "city": "釧路市",
    "city_kana": "クシロシ",
    "town": "昭和中央",
    "town_kana": "ショウワチュウオウ",
    "street": null,
    "office_name": null,
    "office_name_kana": null
  },
  "0911": {
    "postcode": "0840911",
    "prefecture": "北海道",
    "prefecture_kana": "ホッカイドウ",
    "prefecture_code": 1,
    "city": "釧路市",
    "city_kana": "クシロシ",
    "town": "星が浦北",
    "town_kana": "ホシガウラキタ",
    "street": null,
    "office_name": null,
    "office_name_kana": null
  },
  "0912": {
    "postcode": "0840912",
    "prefecture": "北海道",
    "prefecture_kana": "ホッカイドウ",
    "prefecture_code": 1,
    "city": "釧路市",
    "city_kana": "クシロシ",
    "town": "星が浦大通",
    "town_kana": "ホシガウラオオドオリ",
    "street": null,
    "office_name": null,
    "office_name_kana": null
  },
  "0913": {
    "postcode": "0840913",
    "prefecture": "北海道",
    "prefecture_kana": "ホッカイドウ",
    "prefecture_code": 1,
    "city": "釧路市",
    "city_kana": "クシロシ",
    "town": "星が浦南",
    "town_kana": "ホシガウラミナミ",
    "street": null,
    "office_name": null,
    "office_name_kana": null
  },
  "0914": {
    "postcode": "0840914",
    "prefecture": "北海道",
    "prefecture_kana": "ホッカイドウ",
    "prefecture_code": 1,
    "city": "釧路市",
    "city_kana": "クシロシ",
    "town": "西港",
    "town_kana": "ニシコウ",
    "street": null,
    "office_name": null,
    "office_name_kana": null
  },
  "0915": {
    "postcode": "0840915",
    "prefecture": "北海道",
    "prefecture_kana": "ホッカイドウ",
    "prefecture_code": 1,
    "city": "釧路市",
    "city_kana": "クシロシ",
    "town": "大楽毛南",
    "town_kana": "オタノシケミナミ",
    "street": null,
    "office_name": null,
    "office_name_kana": null
  },
  "0916": {
    "postcode": "0840916",
    "prefecture": "北海道",
    "prefecture_kana": "ホッカイドウ",
    "prefecture_code": 1,
    "city": "釧路市",
    "city_kana": "クシロシ",
    "town": "大楽毛西",
    "town_kana": "オタノシケニシ",
    "street": null,
    "office_name": null,
    "office_name_kana": null
  },
  "0917": {
    "postcode": "0840917",
    "prefecture": "北海道",
    "prefecture_kana": "ホッカイドウ",
    "prefecture_code": 1,
    "city": "釧路市",
    "city_kana": "クシロシ",
    "town": "大楽毛",
    "town_kana": "オタノシケ",
    "street": null,
    "office_name": null,
    "office_name_kana": null
  },
  "0918": {
    "postcode": "0840918",
    "prefecture": "北海道",
    "prefecture_kana": "ホッカイドウ",
    "prefecture_code": 1,
    "city": "釧路市",
    "city_kana": "クシロシ",
    "town": "大楽毛北",
    "town_kana": "オタノシケキタ",
    "street": null,
    "office_name": null,
    "office_name_kana": null
  },
  "0921": {
    "postcode": "0840921",
    "prefecture": "北海道",
    "prefecture_kana": "ホッカイドウ",
    "prefecture_code": 1,
    "city": "釧路市",
    "city_kana": "クシロシ",
    "town": "美濃",
    "town_kana": "ミノウ",
    "street": null,
    "office_name": null,
    "office_name_kana": null
  },
  "0922": {
    "postcode": "0840922",
    "prefecture": "北海道",
    "prefecture_kana": "ホッカイドウ",
    "prefecture_code": 1,
    "city": "釧路市",
    "city_kana": "クシロシ",
    "town": "北斗",
    "town_kana": "ホクト",
    "street": null,
    "office_name": null,
    "office_name_kana": null
  },
  "0923": {
    "postcode": "0840923",
    "prefecture": "北海道",
    "prefecture_kana": "ホッカイドウ",
    "prefecture_code": 1,
    "city": "釧路市",
    "city_kana": "クシロシ",
    "town": "鶴野東",
    "town_kana": "ツルノヒガシ",
    "street": null,
    "office_name": null,
    "office_name_kana": null
  },
  "0924": {
    "postcode": "0840924",
    "prefecture": "北海道",
    "prefecture_kana": "ホッカイドウ",
    "prefecture_code": 1,
    "city": "釧路市",
    "city_kana": "クシロシ",
    "town": "鶴野",
    "town_kana": "ツルノ",
    "street": null,
    "office_name": null,
    "office_name_kana": null
  },
  "0925": {
    "postcode": "0840925",
    "prefecture": "北海道",
    "prefecture_kana": "ホッカイドウ",
    "prefecture_code": 1,
    "city": "釧路市",
    "city_kana": "クシロシ",
    "town": "新野",
    "town_kana": "ニイノ",
    "street": null,
    "office_name": null,
    "office_name_kana": null
  },
  "0926": {
    "postcode": "0840926",
    "prefecture": "北海道",
    "prefecture_kana": "ホッカイドウ",
    "prefecture_code": 1,
    "city": "釧路市",
    "city_kana": "クシロシ",
    "town": "鶴丘",
    "town_kana": "ツルオカ",
    "street": null,
    "office_name": null,
    "office_name_kana": null
  },
  "0927": {
    "postcode": "0840927",
    "prefecture": "北海道",
    "prefecture_kana": "ホッカイドウ",
    "prefecture_code": 1,
    "city": "釧路市",
    "city_kana": "クシロシ",
    "town": "駒牧",
    "town_kana": "コママキ",
    "street": null,
    "office_name": null,
    "office_name_kana": null
  },
  "0928": {
    "postcode": "0840928",
    "prefecture": "北海道",
    "prefecture_kana": "ホッカイドウ",
    "prefecture_code": 1,
    "city": "釧路市",
    "city_kana": "クシロシ",
    "town": "山花",
    "town_kana": "ヤマハナ",
    "street": null,
    "office_name": null,
    "office_name_kana": null
  },
  "0929": {
    "postcode": "0840929",
    "prefecture": "北海道",
    "prefecture_kana": "ホッカイドウ",
    "prefecture_code": 1,
    "city": "釧路市",
    "city_kana": "クシロシ",
    "town": "中鶴野",
    "town_kana": "ナカツルノ",
    "street": null,
    "office_name": null,
    "office_name_kana": null
  },
  "8501": {
    "postcode": "0848501",
    "prefecture": "北海道",
    "prefecture_kana": "ホッカイドウ",
    "prefecture_code": 1,
    "city": "釧路市",
    "city_kana": "クシロシ",
    "town": "新富士町",
    "town_kana": "シンフジチョウ",
    "street": "６丁目２−１３",
    "office_name": "道東国分　株式会社",
    "office_name_kana": "ドウトウコクブ カブシキガイシヤ"
  },
  "8511": {
    "postcode": "0848511",
    "prefecture": "北海道",
    "prefecture_kana": "ホッカイドウ",
    "prefecture_code": 1,
    "city": "釧路市",
    "city_kana": "クシロシ",
    "town": "大楽毛",
    "town_kana": "オタノシケ",
    "street": "１丁目１５−８",
    "office_name": "釧路運転免許試験場",
    "office_name_kana": "クシロウンテンメンキヨシケンジヨウ"
  },
  "8555": {
    "postcode": "0848555",
    "prefecture": "北海道",
    "prefecture_kana": "ホッカイドウ",
    "prefecture_code": 1,
    "city": "釧路市",
    "city_kana": "クシロシ",
    "town": "新富士町",
    "town_kana": "シンフジチョウ",
    "street": "４丁目４−１",
    "office_name": "釧路スバル自動車　株式会社",
    "office_name_kana": "クシロスバルジドウシヤ カブシキガイシヤ"
  },
  "8567": {
    "postcode": "0848567",
    "prefecture": "北海道",
    "prefecture_kana": "ホッカイドウ",
    "prefecture_code": 1,
    "city": "釧路市",
    "city_kana": "クシロシ",
    "town": "星が浦南",
    "town_kana": "ホシガウラミナミ",
    "street": "２丁目７−１４",
    "office_name": "株式会社　スハラ食品　釧路支店",
    "office_name_kana": "カブシキガイシヤ スハラシヨクヒン クシロシテン"
  },
  "8670": {
    "postcode": "0848670",
    "prefecture": "北海道",
    "prefecture_kana": "ホッカイドウ",
    "prefecture_code": 1,
    "city": "釧路市",
    "city_kana": "クシロシ",
    "town": "星が浦大通",
    "town_kana": "ホシガウラオオドオリ",
    "street": "３丁目７−１０（釧路西郵便局私書箱第５号）",
    "office_name": "大丸藤井　株式会社　釧路支店",
    "office_name_kana": "ダイマルフジイ カブシキガイシヤ クシロシテン"
  },
  "8686": {
    "postcode": "0848686",
    "prefecture": "北海道",
    "prefecture_kana": "ホッカイドウ",
    "prefecture_code": 1,
    "city": "釧路市",
    "city_kana": "クシロシ",
    "town": "星が浦大通",
    "town_kana": "ホシガウラオオドオリ",
    "street": "１丁目７−１（釧路西郵便局私書箱第２号）",
    "office_name": "サンエス電気通信　株式会社",
    "office_name_kana": "サンエスデンキツウシン カブシキガイシヤ"
  }
}