{
  "0100": {
    "postcode": "0890100",
    "prefecture": "北海道",
    "prefecture_kana": "ホッカイドウ",
    "prefecture_code": 1,
    "city": "上川郡清水町",
    "city_kana": "カミカワグンシミズチョウ",
    "town": "",
    "town_kana": "",
    "street": null,
    "office_name": null,
    "office_name_kana": null
  },
  "0101": {
    "postcode": "0890101",
    "prefecture": "北海道",
    "prefecture_kana": "ホッカイドウ",
    "prefecture_code": 1,
    "city": "上川郡清水町",
    "city_kana": "カミカワグンシミズチョウ",
    "town": "人舞",
    "town_kana": "ヒトマイ",
    "street": null,
    "office_name": null,
    "office_name_kana": null
  },
  "0102": {
    "postcode": "0890102",
    "prefecture": "北海道",
    "prefecture_kana": "ホッカイドウ",
    "prefecture_code": 1,
    "city": "上川郡清水町",
    "city_kana": "カミカワグンシミズチョウ",
    "town": "下佐幌",
    "town_kana": "シモサホロ",
    "street": null,
    "office_name": null,
    "office_name_kana": null
  },
  "0103": {
    "postcode": "0890103",
    "prefecture": "北海道",
    "prefecture_kana": "ホッカイドウ",
    "prefecture_code": 1,
    "city": "上川郡清水町",
    "city_kana": "カミカワグンシミズチョウ",
    "town": "清水",
    "town_kana": "シミズ",
    "street": null,
    "office_name": null,
    "office_name_kana": null
  },
  "0104": {
    "postcode": "0890104",
    "prefecture": "北海道",
    "prefecture_kana": "ホッカイドウ",
    "prefecture_code": 1,
    "city": "上川郡清水町",
    "city_kana": "カミカワグンシミズチョウ",
    "town": "南三条西",
    "town_kana": "ミナミ3ジョウニシ",
    "street": null,
    "office_name": null,
    "office_name_kana": null
  },
  "0105": {
    "postcode": "0890105",
    "prefecture": "北海道",
    "prefecture_kana": "ホッカイドウ",
    "prefecture_code": 1,
    "city": "上川郡清水町",
    "city_kana": "カミカワグンシミズチョウ",
    "town": "南四条西",
    "town_kana": "ミナミ4ジョウニシ",
    "street": null,
    "office_name": null,
    "office_name_kana": null
  },
  "0106": {
    "postcode": "0890106",
    "prefecture": "北海道",
    "prefecture_kana": "ホッカイドウ",
    "prefecture_code": 1,
    "city": "上川郡清水町",
    "city_kana": "カミカワグンシミズチョウ",
    "town": "南五条西",
    "town_kana": "ミナミ5ジョウニシ",
    "street": null,
    "office_name": null,
    "office_name_kana": null
  },
  "0107": {
    "postcode": "0890107",
    "prefecture": "北海道",
    "prefecture_kana": "ホッカイドウ",
    "prefecture_code": 1,
    "city": "上川郡清水町",
    "city_kana": "カミカワグンシミズチョウ",
    "town": "南六条西",
    "town_kana": "ミナミ6ジョウニシ",
    "street": null,
    "office_name": null,
    "office_name_kana": null
  },
  "0111": {
    "postcode": "0890111",
    "prefecture": "北海道",
    "prefecture_kana": "ホッカイドウ",
    "prefecture_code": 1,
    "city": "上川郡清水町",
    "city_kana": "カミカワグンシミズチョウ",
    "town": "南三条",
    "town_kana": "ミナミ3ジョウ",
    "street": null,
    "office_name": null,
    "office_name_kana": null
  },
  "0112": {
    "postcode": "0890112",
    "prefecture": "北海道",
    "prefecture_kana": "ホッカイドウ",
    "prefecture_code": 1,
    "city": "上川郡清水町",
    "city_kana": "カミカワグンシミズチョウ",
    "town": "南四条",
    "town_kana": "ミナミ4ジョウ",
    "street": null,
    "office_name": null,
    "office_name_kana": null
  },
  "0113": {
    "postcode": "0890113",
    "prefecture": "北海道",
    "prefecture_kana": "ホッカイドウ",
    "prefecture_code": 1,
    "city": "上川郡清水町",
    "city_kana": "カミカワグンシミズチョウ",
    "town": "南五条",
    "town_kana": "ミナミ5ジョウ",
    "street": null,
    "office_name": null,
    "office_name_kana": null
  },
  "0114": {
    "postcode": "0890114",
    "prefecture": "北海道",
    "prefecture_kana": "ホッカイドウ",
    "prefecture_code": 1,
    "city": "上川郡清水町",
    "city_kana": "カミカワグンシミズチョウ",
    "town": "南六条",
    "town_kana": "ミナミ6ジョウ",
    "street": null,
    "office_name": null,
    "office_name_kana": null
  },
  "0115": {
    "postcode": "0890115",
    "prefecture": "北海道",
    "prefecture_kana": "ホッカイドウ",
    "prefecture_code": 1,
    "city": "上川郡清水町",
    "city_kana": "カミカワグンシミズチョウ",
    "town": "南七条",
    "town_kana": "ミナミ7ジョウ",
    "street": null,
    "office_name": null,
    "office_name_kana": null
  },
  "0116": {
    "postcode": "0890116",
    "prefecture": "北海道",
    "prefecture_kana": "ホッカイドウ",
    "prefecture_code": 1,
    "city": "上川郡清水町",
    "city_kana": "カミカワグンシミズチョウ",
    "town": "南八条",
    "town_kana": "ミナミ8ジョウ",
    "street": null,
    "office_name": null,
    "office_name_kana": null
  },
  "0117": {
    "postcode": "0890117",
    "prefecture": "北海道",
    "prefecture_kana": "ホッカイドウ",
    "prefecture_code": 1,
    "city": "上川郡清水町",
    "city_kana": "カミカワグンシミズチョウ",
    "town": "南九条",
    "town_kana": "ミナミ9ジョウ",
    "street": null,
    "office_name": null,
    "office_name_kana": null
  },
  "0118": {
    "postcode": "0890118",
    "prefecture": "北海道",
    "prefecture_kana": "ホッカイドウ",
    "prefecture_code": 1,
    "city": "上川郡清水町",
    "city_kana": "カミカワグンシミズチョウ",
    "town": "南十条",
    "town_kana": "ミナミ10ジョウ",
    "street": null,
    "office_name": null,
    "office_name_kana": null
  },
  "0121": {
    "postcode": "0890121",
    "prefecture": "北海道",
    "prefecture_kana": "ホッカイドウ",
    "prefecture_code": 1,
    "city": "上川郡清水町",
    "city_kana": "カミカワグンシミズチョウ",
    "town": "北四条西",
    "town_kana": "キタ4ジョウニシ",
    "street": null,
    "office_name": null,
    "office_name_kana": null
  },
  "0122": {
    "postcode": "0890122",
    "prefecture": "北海道",
    "prefecture_kana": "ホッカイドウ",
    "prefecture_code": 1,
    "city": "上川郡清水町",
    "city_kana": "カミカワグンシミズチョウ",
    "town": "北三条西",
    "town_kana": "キタ3ジョウニシ",
    "street": null,
    "office_name": null,
    "office_name_kana": null
  },
  "0123": {
    "postcode": "0890123",
    "prefecture": "北海道",
    "prefecture_kana": "ホッカイドウ",
    "prefecture_code": 1,
    "city": "上川郡清水町",
    "city_kana": "カミカワグンシミズチョウ",
    "town": "北二条西",
    "town_kana": "キタ2ジョウニシ",
    "street": null,
    "office_name": null,
    "office_name_kana": null
  },
  "0124": {
    "postcode": "0890124",
    "prefecture": "北海道",
    "prefecture_kana": "ホッカイドウ",
    "prefecture_code": 1,
    "city": "上川郡清水町",
    "city_kana": "カミカワグンシミズチョウ",
    "town": "北一条西",
    "town_kana": "キタ1ジョウニシ",
    "street": null,
    "office_name": null,
    "office_name_kana": null
  },
  "0125": {
    "postcode": "0890125",
    "prefecture": "北海道",
    "prefecture_kana": "ホッカイドウ",
    "prefecture_code": 1,
    "city": "上川郡清水町",
    "city_kana": "カミカワグンシミズチョウ",
    "town": "本通西",
    "town_kana": "ホンドオリニシ",
    "street": null,
    "office_name": null,
    "office_name_kana": null
  },
  "0126": {
    "postcode": "0890126",
    "prefecture": "北海道",
    "prefecture_kana": "ホッカイドウ",
    "prefecture_code": 1,
    "city": "上川郡清水町",
    "city_kana": "カミカワグンシミズチョウ",
    "town": "南一条西",
    "town_kana": "ミナミ1ジョウニシ",
    "street": null,
    "office_name": null,
    "office_name_kana": null
  },
  "0127": {
    "postcode": "0890127",
    "prefecture": "北海道",
    "prefecture_kana": "ホッカイドウ",
    "prefecture_code": 1,
    "city": "上川郡清水町",
    "city_kana": "カミカワグンシミズチョウ",
    "town": "南二条西",
    "town_kana": "ミナミ2ジョウニシ",
    "street": null,
    "office_name": null,
    "office_name_kana": null
  },
  "0131": {
    "postcode": "0890131",
    "prefecture": "北海道",
    "prefecture_kana": "ホッカイドウ",
    "prefecture_code": 1,
    "city": "上川郡清水町",
    "city_kana": "カミカワグンシミズチョウ",
    "town": "北五条",
    "town_kana": "キタ5ジョウ",
    "street": null,
    "office_name": null,
    "office_name_kana": null
  },
  "0132": {
    "postcode": "0890132",
    "prefecture": "北海道",
    "prefecture_kana": "ホッカイドウ",
    "prefecture_code": 1,
    "city": "上川郡清水町",
    "city_kana": "カミカワグンシミズチョウ",
    "town": "北四条",
    "town_kana": "キタ4ジョウ",
    "street": null,
    "office_name": null,
    "office_name_kana": null
  },
  "0133": {
    "postcode": "0890133",
    "prefecture": "北海道",
    "prefecture_kana": "ホッカイドウ",
    "prefecture_code": 1,
    "city": "上川郡清水町",
    "city_kana": "カミカワグンシミズチョウ",
    "town": "北三条",
    "town_kana": "キタ3ジョウ",
    "street": null,
    "office_name": null,
    "office_name_kana": null
  },
  "0134": {
    "postcode": "0890134",
    "prefecture": "北海道",
    "prefecture_kana": "ホッカイドウ",
    "prefecture_code": 1,
    "city": "上川郡清水町",
    "city_kana": "カミカワグンシミズチョウ",
    "town": "北二条",
    "town_kana": "キタ2ジョウ",
    "street": null,
    "office_name": null,
    "office_name_kana": null
  },
  "0135": {
    "postcode": "0890135",
    "prefecture": "北海道",
    "prefecture_kana": "ホッカイドウ",
    "prefecture_code": 1,
    "city": "上川郡清水町",
    "city_kana": "カミカワグンシミズチョウ",
    "town": "北一条",
    "town_kana": "キタ1ジョウ",
    "street": null,
    "office_name": null,
    "office_name_kana": null
  },
  "0136": {
    "postcode": "0890136",
    "prefecture": "北海道",
    "prefecture_kana": "ホッカイドウ",
    "prefecture_code": 1,
    "city": "上川郡清水町",
    "city_kana": "カミカワグンシミズチョウ",
    "town": "本通",
    "town_kana": "ホンドオリ",
    "street": null,
    "office_name": null,
    "office_name_kana": null
  },
  "0137": {
    "postcode": "0890137",
    "prefecture": "北海道",
    "prefecture_kana": "ホッカイドウ",
    "prefecture_code": 1,
    "city": "上川郡清水町",
    "city_kana": "カミカワグンシミズチョウ",
    "town": "南一条",
    "town_kana": "ミナミ1ジョウ",
    "street": null,
    "office_name": null,
    "office_name_kana": null
  },
  "0138": {
    "postcode": "0890138",
    "prefecture": "北海道",
    "prefecture_kana": "ホッカイドウ",
    "prefecture_code": 1,
    "city": "上川郡清水町",
    "city_kana": "カミカワグンシミズチョウ",
    "town": "南二条",
    "town_kana": "ミナミ2ジョウ",
    "street": null,
    "office_name": null,
    "office_name_kana": null
  },
  "0192": {
    "postcode": "0890192",
    "prefecture": "北海道",
    "prefecture_kana": "ホッカイドウ",
    "prefecture_code": 1,
    "city": "上川郡清水町",
    "city_kana": "カミカワグンシミズチョウ",
    "town": "南四条",
    "town_kana": "ミナミ4ジョウ",
    "street": "２丁目２番地",
    "office_name": "清水町役場",
    "office_name_kana": "シミズチヨウヤクバ"
  },
  "0195": {
    "postcode": "0890195",
    "prefecture": "北海道",
    "prefecture_kana": "ホッカイドウ",
    "prefecture_code": 1,
    "city": "上川郡清水町",
    "city_kana": "カミカワグンシミズチョウ",
    "town": "南二条",
    "town_kana": "ミナミ2ジョウ",
    "street": "２丁目",
    "office_name": "清水赤十字病院",
    "office_name_kana": "シミズセキジユウジビヨウイン"
  },
  "0198": {
    "postcode": "0890198",
    "prefecture": "北海道",
    "prefecture_kana": "ホッカイドウ",
    "prefecture_code": 1,
    "city": "上川郡清水町",
    "city_kana": "カミカワグンシミズチョウ",
    "town": "南二条",
    "town_kana": "ミナミ2ジョウ",
    "street": "１丁目８番地",
    "office_name": "十勝清水町農業協同組合",
    "office_name_kana": "トカチシミズチヨウノウギヨウキヨウドウクミアイ"
  },
  "0241": {
    "postcode": "0890241",
    "prefecture": "北海道",
    "prefecture_kana": "ホッカイドウ",
    "prefecture_code": 1,
    "city": "上川郡清水町",
    "city_kana": "カミカワグンシミズチョウ",
    "town": "熊牛",
    "town_kana": "クマウシ",
    "street": null,
    "office_name": null,
    "office_name_kana": null
  },
  "0242": {
    "postcode": "0890242",
    "prefecture": "北海道",
    "prefecture_kana": "ホッカイドウ",
    "prefecture_code": 1,
    "city": "上川郡清水町",
    "city_kana": "カミカワグンシミズチョウ",
    "town": "美蔓",
    "town_kana": "ビマン",
    "street": null,
    "office_name": null,
    "office_name_kana": null
  },
  "0243": {
    "postcode": "0890243",
    "prefecture": "北海道",
    "prefecture_kana": "ホッカイドウ",
    "prefecture_code": 1,
    "city": "上川郡清水町",
    "city_kana": "カミカワグンシミズチョウ",
    "town": "上然別",
    "town_kana": "カミシカリベツ",
    "street": null,
    "office_name": null,
    "office_name_kana": null
  },
  "0351": {
    "postcode": "0890351",
    "prefecture": "北海道",
    "prefecture_kana": "ホッカイドウ",
    "prefecture_code": 1,
    "city": "上川郡清水町",
    "city_kana": "カミカワグンシミズチョウ",
    "town": "御影西一条",
    "town_kana": "ミカゲニシ1ジョウ",
    "street": null,
    "office_name": null,
    "office_name_kana": null
  },
  "0352": {
    "postcode": "0890352",
    "prefecture": "北海道",
    "prefecture_kana": "ホッカイドウ",
    "prefecture_code": 1,
    "city": "上川郡清水町",
    "city_kana": "カミカワグンシミズチョウ",
    "town": "御影西二条",
    "town_kana": "ミカゲニシ2ジョウ",
    "street": null,
    "office_name": null,
    "office_name_kana": null
  },
  "0353": {
    "postcode": "0890353",
    "prefecture": "北海道",
    "prefecture_kana": "ホッカイドウ",
    "prefecture_code": 1,
    "city": "上川郡清水町",
    "city_kana": "カミカワグンシミズチョウ",
    "town": "御影西三条",
    "town_kana": "ミカゲニシ3ジョウ",
    "street": null,
    "office_name": null,
    "office_name_kana": null
  },
  "0354": {
    "postcode": "0890354",
    "prefecture": "北海道",
    "prefecture_kana": "ホッカイドウ",
    "prefecture_code": 1,
    "city": "上川郡清水町",
    "city_kana": "カミカワグンシミズチョウ",
    "town": "御影本通",
    "town_kana": "ミカゲホンドオリ",
    "street": null,
    "office_name": null,
    "office_name_kana": null
  },
  "0355": {
    "postcode": "0890355",
    "prefecture": "北海道",
    "prefecture_kana": "ホッカイドウ",
    "prefecture_code": 1,
    "city": "上川郡清水町",
    "city_kana": "カミカワグンシミズチョウ",
    "town": "旭山",
    "town_kana": "アサヒヤマ",
    "street": null,
    "office_name": null,
    "office_name_kana": null
  },
  "0356": {
    "postcode": "0890356",
    "prefecture": "北海道",
    "prefecture_kana": "ホッカイドウ",
    "prefecture_code": 1,
    "city": "上川郡清水町",
    "city_kana": "カミカワグンシミズチョウ",
    "town": "羽帯",
    "town_kana": "ハオビ",
    "street": null,
    "office_name": null,
    "office_name_kana": null
  },
  "0357": {
    "postcode": "0890357",
    "prefecture": "北海道",
    "prefecture_kana": "ホッカイドウ",
    "prefecture_code": 1,
    "city": "上川郡清水町",
    "city_kana": "カミカワグンシミズチョウ",
    "town": "御影",
    "town_kana": "ミカゲ",
    "street": null,
    "office_name": null,
    "office_name_kana": null
  },
  "0361": {
    "postcode": "0890361",
    "prefecture": "北海道",
    "prefecture_kana": "ホッカイドウ",
    "prefecture_code": 1,
    "city": "上川郡清水町",
    "city_kana": "カミカワグンシミズチョウ",
    "town": "御影東一条南",
    "town_kana": "ミカゲヒガシ1ジョウミナミ",
    "street": null,
    "office_name": null,
    "office_name_kana": null
  },
  "0362": {
    "postcode": "0890362",
    "prefecture": "北海道",
    "prefecture_kana": "ホッカイドウ",
    "prefecture_code": 1,
    "city": "上川郡清水町",
    "city_kana": "カミカワグンシミズチョウ",
    "town": "御影東二条南",
    "town_kana": "ミカゲヒガシ2ジョウミナミ",
    "street": null,
    "office_name": null,
    "office_name_kana": null
  },
  "0363": {
    "postcode": "0890363",
    "prefecture": "北海道",
    "prefecture_kana": "ホッカイドウ",
    "prefecture_code": 1,
    "city": "上川郡清水町",
    "city_kana": "カミカワグンシミズチョウ",
    "town": "御影東三条南",
    "town_kana": "ミカゲヒガシ3ジョウミナミ",
    "street": null,
    "office_name": null,
    "office_name_kana": null
  },
  "0371": {
    "postcode": "0890371",
    "prefecture": "北海道",
    "prefecture_kana": "ホッカイドウ",
    "prefecture_code": 1,
    "city": "上川郡清水町",
    "city_kana": "カミカワグンシミズチョウ",
    "town": "御影東一条",
    "town_kana": "ミカゲヒガシ1ジョウ",
    "street": null,
    "office_name": null,
    "office_name_kana": null
  },
  "0372": {
    "postcode": "0890372",
    "prefecture": "北海道",
    "prefecture_kana": "ホッカイドウ",
    "prefecture_code": 1,
    "city": "上川郡清水町",
    "city_kana": "カミカワグンシミズチョウ",
    "town": "御影東二条",
    "town_kana": "ミカゲヒガシ2ジョウ",
    "street": null,
    "office_name": null,
    "office_name_kana": null
  },
  "0373": {
    "postcode": "0890373",
    "prefecture": "北海道",
    "prefecture_kana": "ホッカイドウ",
    "prefecture_code": 1,
    "city": "上川郡清水町",
    "city_kana": "カミカワグンシミズチョウ",
    "town": "御影東三条",
    "town_kana": "ミカゲヒガシ3ジョウ",
    "street": null,
    "office_name": null,
    "office_name_kana": null
  },
  "0374": {
    "postcode": "0890374",
    "prefecture": "北海道",
    "prefecture_kana": "ホッカイドウ",
    "prefecture_code": 1,
    "city": "上川郡清水町",
    "city_kana": "カミカワグンシミズチョウ",
    "town": "御影東四条",
    "town_kana": "ミカゲヒガシ4ジョウ",
    "street": null,
    "office_name": null,
    "office_name_kana": null
  },
  "0375": {
    "postcode": "0890375",
    "prefecture": "北海道",
    "prefecture_kana": "ホッカイドウ",
    "prefecture_code": 1,
    "city": "上川郡清水町",
    "city_kana": "カミカワグンシミズチョウ",
    "town": "御影東五条",
    "town_kana": "ミカゲヒガシ5ジョウ",
    "street": null,
    "office_name": null,
    "office_name_kana": null
  },
  "0376": {
    "postcode": "0890376",
    "prefecture": "北海道",
    "prefecture_kana": "ホッカイドウ",
    "prefecture_code": 1,
    "city": "上川郡清水町",
    "city_kana": "カミカワグンシミズチョウ",
    "town": "御影東六条",
    "town_kana": "ミカゲヒガシ6ジョウ",
    "street": null,
    "office_name": null,
    "office_name_kana": null
  },
  "0377": {
    "postcode": "0890377",
    "prefecture": "北海道",
    "prefecture_kana": "ホッカイドウ",
    "prefecture_code": 1,
    "city": "上川郡清水町",
    "city_kana": "カミカワグンシミズチョウ",
    "town": "御影東七条",
    "town_kana": "ミカゲヒガシ7ジョウ",
    "street": null,
    "office_name": null,
    "office_name_kana": null
  },
  "0378": {
    "postcode": "0890378",
    "prefecture": "北海道",
    "prefecture_kana": "ホッカイドウ",
    "prefecture_code": 1,
    "city": "上川郡清水町",
    "city_kana": "カミカワグンシミズチョウ",
    "town": "御影東八条",
    "town_kana": "ミカゲヒガシ8ジョウ",
    "street": null,
    "office_name": null,
    "office_name_kana": null
  },
  "0531": {
    "postcode": "0890531",
    "prefecture": "北海道",
    "prefecture_kana": "ホッカイドウ",
    "prefecture_code": 1,
    "city": "中川郡幕別町",
    "city_kana": "ナカガワグンマクベツチョウ",
    "town": "札内暁町",
    "town_kana": "サツナイアカツキマチ",
    "street": null,
    "office_name": null,
    "office_name_kana": null
  },
  "0532": {
    "postcode": "0890532",
    "prefecture": "北海道",
    "prefecture_kana": "ホッカイドウ",
    "prefecture_code": 1,
    "city": "中川郡幕別町",
    "city_kana": "ナカガワグンマクベツチョウ",
    "town": "札内豊町",
    "town_kana": "サツナイユタカマチ",
    "street": null,
    "office_name": null,
    "office_name_kana": null
  },
  "0533": {
    "postcode": "0890533",
    "prefecture": "北海道",
    "prefecture_kana": "ホッカイドウ",
    "prefecture_code": 1,
    "city": "中川郡幕別町",
    "city_kana": "ナカガワグンマクベツチョウ",
    "town": "札内新北町",
    "town_kana": "サツナイシンキタマチ",
    "street": null,
    "office_name": null,
    "office_name_kana": null
  },
  "0534": {
    "postcode": "0890534",
    "prefecture": "北海道",
    "prefecture_kana": "ホッカイドウ",
    "prefecture_code": 1,
    "city": "中川郡幕別町",
    "city_kana": "ナカガワグンマクベツチョウ",
    "town": "札内北町",
    "town_kana": "サツナイキタマチ",
    "street": null,
    "office_name": null,
    "office_name_kana": null
  },
  "0535": {
    "postcode": "0890535",
    "prefecture": "北海道",
    "prefecture_kana": "ホッカイドウ",
    "prefecture_code": 1,
    "city": "中川郡幕別町",
    "city_kana": "ナカガワグンマクベツチョウ",
    "town": "札内桜町",
    "town_kana": "サツナイサクラマチ",
    "street": null,
    "office_name": null,
    "office_name_kana": null
  },
  "0536": {
    "postcode": "0890536",
    "prefecture": "北海道",
    "prefecture_kana": "ホッカイドウ",
    "prefecture_code": 1,
    "city": "中川郡幕別町",
    "city_kana": "ナカガワグンマクベツチョウ",
    "town": "札内西町",
    "town_kana": "サツナイニシマチ",
    "street": null,
    "office_name": null,
    "office_name_kana": null
  },
  "0537": {
    "postcode": "0890537",
    "prefecture": "北海道",
    "prefecture_kana": "ホッカイドウ",
    "prefecture_code": 1,
    "city": "中川郡幕別町",
    "city_kana": "ナカガワグンマクベツチョウ",
    "town": "札内北栄町",
    "town_kana": "サツナイホクエイマチ",
    "street": null,
    "office_name": null,
    "office_name_kana": null
  },
  "0538": {
    "postcode": "0890538",
    "prefecture": "北海道",
    "prefecture_kana": "ホッカイドウ",
    "prefecture_code": 1,
    "city": "中川郡幕別町",
    "city_kana": "ナカガワグンマクベツチョウ",
    "town": "札内共栄町",
    "town_kana": "サツナイキョウエイマチ",
    "street": null,
    "office_name": null,
    "office_name_kana": null
  },
  "0541": {
    "postcode": "0890541",
    "prefecture": "北海道",
    "prefecture_kana": "ホッカイドウ",
    "prefecture_code": 1,
    "city": "中川郡幕別町",
    "city_kana": "ナカガワグンマクベツチョウ",
    "town": "札内青葉町",
    "town_kana": "サツナイアオバマチ",
    "street": null,
    "office_name": null,
    "office_name_kana": null
  },
  "0542": {
    "postcode": "0890542",
    "prefecture": "北海道",
    "prefecture_kana": "ホッカイドウ",
    "prefecture_code": 1,
    "city": "中川郡幕別町",
    "city_kana": "ナカガワグンマクベツチョウ",
    "town": "札内春日町",
    "town_kana": "サツナイカスガマチ",
    "street": null,
    "office_name": null,
    "office_name_kana": null
  },
  "0543": {
    "postcode": "0890543",
    "prefecture": "北海道",
    "prefecture_kana": "ホッカイドウ",
    "prefecture_code": 1,
    "city": "中川郡幕別町",
    "city_kana": "ナカガワグンマクベツチョウ",
    "town": "札内中央町",
    "town_kana": "サツナイチュウオウマチ",
    "street": null,
    "office_name": null,
    "office_name_kana": null
  },
  "0544": {
    "postcode": "0890544",
    "prefecture": "北海道",
    "prefecture_kana": "ホッカイドウ",
    "prefecture_code": 1,
    "city": "中川郡幕別町",
    "city_kana": "ナカガワグンマクベツチョウ",
    "town": "札内若草町",
    "town_kana": "サツナイワカクサマチ",
    "street": null,
    "office_name": null,
    "office_name_kana": null
  },
  "0545": {
    "postcode": "0890545",
    "prefecture": "北海道",
    "prefecture_kana": "ホッカイドウ",
    "prefecture_code": 1,
    "city": "中川郡幕別町",
    "city_kana": "ナカガワグンマクベツチョウ",
    "town": "札内桂町",
    "town_kana": "サツナイカツラマチ",
    "street": null,
    "office_name": null,
    "office_name_kana": null
  },
  "0546": {
    "postcode": "0890546",
    "prefecture": "北海道",
    "prefecture_kana": "ホッカイドウ",
    "prefecture_code": 1,
    "city": "中川郡幕別町",
    "city_kana": "ナカガワグンマクベツチョウ",
    "town": "札内堤町",
    "town_kana": "サツナイツツミマチ",
    "street": null,
    "office_name": null,
    "office_name_kana": null
  },
  "0551": {
    "postcode": "0890551",
    "prefecture": "北海道",
    "prefecture_kana": "ホッカイドウ",
    "prefecture_code": 1,
    "city": "中川郡幕別町",
    "city_kana": "ナカガワグンマクベツチョウ",
    "town": "札内泉町",
    "town_kana": "サツナイイヅミマチ",
    "street": null,
    "office_name": null,
    "office_name_kana": null
  },
  "0552": {
    "postcode": "0890552",
    "prefecture": "北海道",
    "prefecture_kana": "ホッカイドウ",
    "prefecture_code": 1,
    "city": "中川郡幕別町",
    "city_kana": "ナカガワグンマクベツチョウ",
    "town": "札内あかしや町",
    "town_kana": "サツナイアカシヤマチ",
    "street": null,
    "office_name": null,
    "office_name_kana": null
  },
  "0553": {
    "postcode": "0890553",
    "prefecture": "北海道",
    "prefecture_kana": "ホッカイドウ",
    "prefecture_code": 1,
    "city": "中川郡幕別町",
    "city_kana": "ナカガワグンマクベツチョウ",
    "town": "札内文京町",
    "town_kana": "サツナイブンキョウマチ",
    "street": null,
    "office_name": null,
    "office_name_kana": null
  },
  "0554": {
    "postcode": "0890554",
    "prefecture": "北海道",
    "prefecture_kana": "ホッカイドウ",
    "prefecture_code": 1,
    "city": "中川郡幕別町",
    "city_kana": "ナカガワグンマクベツチョウ",
    "town": "札内みずほ町",
    "town_kana": "サツナイミズホマチ",
    "street": null,
    "office_name": null,
    "office_name_kana": null
  },
  "0561": {
    "postcode": "0890561",
    "prefecture": "北海道",
    "prefecture_kana": "ホッカイドウ",
    "prefecture_code": 1,
    "city": "中川郡幕別町",
    "city_kana": "ナカガワグンマクベツチョウ",
    "town": "札内稔町",
    "town_kana": "サツナイミノリマチ",
    "street": null,
    "office_name": null,
    "office_name_kana": null
  },
  "0562": {
    "postcode": "0890562",
    "prefecture": "北海道",
    "prefecture_kana": "ホッカイドウ",
    "prefecture_code": 1,
    "city": "中川郡幕別町",
    "city_kana": "ナカガワグンマクベツチョウ",
    "town": "札内東町",
    "town_kana": "サツナイヒガシマチ",
    "street": null,
    "office_name": null,
    "office_name_kana": null
  },
  "0563": {
    "postcode": "0890563",
    "prefecture": "北海道",
    "prefecture_kana": "ホッカイドウ",
    "prefecture_code": 1,
    "city": "中川郡幕別町",
    "city_kana": "ナカガワグンマクベツチョウ",
    "town": "千住",
    "town_kana": "センジュウ",
    "street": null,
    "office_name": null,
    "office_name_kana": null
  },
  "0564": {
    "postcode": "0890564",
    "prefecture": "北海道",
    "prefecture_kana": "ホッカイドウ",
    "prefecture_code": 1,
    "city": "中川郡幕別町",
    "city_kana": "ナカガワグンマクベツチョウ",
    "town": "稲志別",
    "town_kana": "イナシベツ",
    "street": null,
    "office_name": null,
    "office_name_kana": null
  },
  "0565": {
    "postcode": "0890565",
    "prefecture": "北海道",
    "prefecture_kana": "ホッカイドウ",
    "prefecture_code": 1,
    "city": "中川郡幕別町",
    "city_kana": "ナカガワグンマクベツチョウ",
    "town": "新生",
    "town_kana": "シンセイ",
    "street": null,
    "office_name": null,
    "office_name_kana": null
  },
  "0566": {
    "postcode": "0890566",
    "prefecture": "北海道",
    "prefecture_kana": "ホッカイドウ",
    "prefecture_code": 1,
    "city": "中川郡幕別町",
    "city_kana": "ナカガワグンマクベツチョウ",
    "town": "昭和",
    "town_kana": "ショウワ",
    "street": null,
    "office_name": null,
    "office_name_kana": null
  },
  "0567": {
    "postcode": "0890567",
    "prefecture": "北海道",
    "prefecture_kana": "ホッカイドウ",
    "prefecture_code": 1,
    "city": "中川郡幕別町",
    "city_kana": "ナカガワグンマクベツチョウ",
    "town": "明倫",
    "town_kana": "メイリン",
    "street": null,
    "office_name": null,
    "office_name_kana": null
  },
  "0571": {
    "postcode": "0890571",
    "prefecture": "北海道",
    "prefecture_kana": "ホッカイドウ",
    "prefecture_code": 1,
    "city": "中川郡幕別町",
    "city_kana": "ナカガワグンマクベツチョウ",
    "town": "依田",
    "town_kana": "ヨダ",
    "street": null,
    "office_name": null,
    "office_name_kana": null
  },
  "0572": {
    "postcode": "0890572",
    "prefecture": "北海道",
    "prefecture_kana": "ホッカイドウ",
    "prefecture_code": 1,
    "city": "中川郡幕別町",
    "city_kana": "ナカガワグンマクベツチョウ",
    "town": "西和",
    "town_kana": "セイワ",
    "street": null,
    "office_name": null,
    "office_name_kana": null
  },
  "0573": {
    "postcode": "0890573",
    "prefecture": "北海道",
    "prefecture_kana": "ホッカイドウ",
    "prefecture_code": 1,
    "city": "中川郡幕別町",
    "city_kana": "ナカガワグンマクベツチョウ",
    "town": "途別",
    "town_kana": "トベツ",
    "street": null,
    "office_name": null,
    "office_name_kana": null
  },
  "0574": {
    "postcode": "0890574",
    "prefecture": "北海道",
    "prefecture_kana": "ホッカイドウ",
    "prefecture_code": 1,
    "city": "中川郡幕別町",
    "city_kana": "ナカガワグンマクベツチョウ",
    "town": "日新",
    "town_kana": "ニッシン",
    "street": null,
    "office_name": null,
    "office_name_kana": null
  },
  "0575": {
    "postcode": "0890575",
    "prefecture": "北海道",
    "prefecture_kana": "ホッカイドウ",
    "prefecture_code": 1,
    "city": "中川郡幕別町",
    "city_kana": "ナカガワグンマクベツチョウ",
    "town": "上稲志別",
    "town_kana": "カミイナシベツ",
    "street": null,
    "office_name": null,
    "office_name_kana": null
  },
  "0576": {
    "postcode": "0890576",
    "prefecture": "北海道",
    "prefecture_kana": "ホッカイドウ",
    "prefecture_code": 1,
    "city": "中川郡幕別町",
    "city_kana": "ナカガワグンマクベツチョウ",
    "town": "古舞",
    "town_kana": "フルマイ",
    "street": null,
    "office_name": null,
    "office_name_kana": null
  },
  "0577": {
    "postcode": "0890577",
    "prefecture": "北海道",
    "prefecture_kana": "ホッカイドウ",
    "prefecture_code": 1,
    "city": "中川郡幕別町",
    "city_kana": "ナカガワグンマクベツチョウ",
    "town": "栄",
    "town_kana": "サカエ",
    "street": null,
    "office_name": null,
    "office_name_kana": null
  },
  "0578": {
    "postcode": "0890578",
    "prefecture": "北海道",
    "prefecture_kana": "ホッカイドウ",
    "prefecture_code": 1,
    "city": "中川郡幕別町",
    "city_kana": "ナカガワグンマクベツチョウ",
    "town": "中稲志別",
    "town_kana": "ナカイナシベツ",
    "street": null,
    "office_name": null,
    "office_name_kana": null
  },
  "0592": {
    "postcode": "0890592",
    "prefecture": "北海道",
    "prefecture_kana": "ホッカイドウ",
    "prefecture_code": 1,
    "city": "中川郡幕別町",
    "city_kana": "ナカガワグンマクベツチョウ",
    "town": "札内中央町",
    "town_kana": "サツナイチュウオウマチ",
    "street": "４６７番地",
    "office_name": "札内農業協同組合",
    "office_name_kana": "サツナイノウギヨウキヨウドウクミアイ"
  },
  "0595": {
    "postcode": "0890595",
    "prefecture": "北海道",
    "prefecture_kana": "ホッカイドウ",
    "prefecture_code": 1,
    "city": "中川郡幕別町",
    "city_kana": "ナカガワグンマクベツチョウ",
    "town": "字日新",
    "town_kana": null,
    "street": "１３−５",
    "office_name": "（株）　十勝正直村",
    "office_name_kana": "カブシキガイシヤ トカチシヨウジキムラ"
  },
  "0598": {
    "postcode": "0890598",
    "prefecture": "北海道",
    "prefecture_kana": "ホッカイドウ",
    "prefecture_code": 1,
    "city": "中川郡幕別町",
    "city_kana": "ナカガワグンマクベツチョウ",
    "town": "札内中央町",
    "town_kana": "サツナイチュウオウマチ",
    "street": "３５０番地",
    "office_name": "札内砕石砂利　株式会社",
    "office_name_kana": "サツナイサイセキジヤリ カブシキガイシヤ"
  },
  "0600": {
    "postcode": "0890600",
    "prefecture": "北海道",
    "prefecture_kana": "ホッカイドウ",
    "prefecture_code": 1,
    "city": "中川郡幕別町",
    "city_kana": "ナカガワグンマクベツチョウ",
    "town": "",
    "town_kana": "",
    "street": null,
    "office_name": null,
    "office_name_kana": null
  },
  "0601": {
    "postcode": "0890601",
    "prefecture": "北海道",
    "prefecture_kana": "ホッカイドウ",
    "prefecture_code": 1,
    "city": "中川郡幕別町",
    "city_kana": "ナカガワグンマクベツチョウ",
    "town": "幸町",
    "town_kana": "サイワイマチ",
    "street": null,
    "office_name": null,
    "office_name_kana": null
  },
  "0602": {
    "postcode": "0890602",
    "prefecture": "北海道",
    "prefecture_kana": "ホッカイドウ",
    "prefecture_code": 1,
    "city": "中川郡幕別町",
    "city_kana": "ナカガワグンマクベツチョウ",
    "town": "旭町",
    "town_kana": "アサヒマチ",
    "street": null,
    "office_name": null,
    "office_name_kana": null
  },
  "0603": {
    "postcode": "0890603",
    "prefecture": "北海道",
    "prefecture_kana": "ホッカイドウ",
    "prefecture_code": 1,
    "city": "中川郡幕別町",
    "city_kana": "ナカガワグンマクベツチョウ",
    "town": "本町",
    "town_kana": "モトマチ",
    "street": null,
    "office_name": null,
    "office_name_kana": null
  },
  "0604": {
    "postcode": "0890604",
    "prefecture": "北海道",
    "prefecture_kana": "ホッカイドウ",
    "prefecture_code": 1,
    "city": "中川郡幕別町",
    "city_kana": "ナカガワグンマクベツチョウ",
    "town": "錦町",
    "town_kana": "ニシキマチ",
    "street": null,
    "office_name": null,
    "office_name_kana": null
  },
  "0605": {
    "postcode": "0890605",
    "prefecture": "北海道",
    "prefecture_kana": "ホッカイドウ",
    "prefecture_code": 1,
    "city": "中川郡幕別町",
    "city_kana": "ナカガワグンマクベツチョウ",
    "town": "寿町",
    "town_kana": "コトブキマチ",
    "street": null,
    "office_name": null,
    "office_name_kana": null
  },
  "0611": {
    "postcode": "0890611",
    "prefecture": "北海道",
    "prefecture_kana": "ホッカイドウ",
    "prefecture_code": 1,
    "city": "中川郡幕別町",
    "city_kana": "ナカガワグンマクベツチョウ",
    "town": "新町",
    "town_kana": "シンマチ",
    "street": null,
    "office_name": null,
    "office_name_kana": null
  },
  "0612": {
    "postcode": "0890612",
    "prefecture": "北海道",
    "prefecture_kana": "ホッカイドウ",
    "prefecture_code": 1,
    "city": "中川郡幕別町",
    "city_kana": "ナカガワグンマクベツチョウ",
    "town": "明野",
    "town_kana": "アケノ",
    "street": null,
    "office_name": null,
    "office_name_kana": null
  },
  "0613": {
    "postcode": "0890613",
    "prefecture": "北海道",
    "prefecture_kana": "ホッカイドウ",
    "prefecture_code": 1,
    "city": "中川郡幕別町",
    "city_kana": "ナカガワグンマクベツチョウ",
    "town": "新川",
    "town_kana": "シンカワ",
    "street": null,
    "office_name": null,
    "office_name_kana": null
  },
  "0614": {
    "postcode": "0890614",
    "prefecture": "北海道",
    "prefecture_kana": "ホッカイドウ",
    "prefecture_code": 1,
    "city": "中川郡幕別町",
    "city_kana": "ナカガワグンマクベツチョウ",
    "town": "緑町",
    "town_kana": "ミドリマチ",
    "street": null,
    "office_name": null,
    "office_name_kana": null
  },
  "0615": {
    "postcode": "0890615",
    "prefecture": "北海道",
    "prefecture_kana": "ホッカイドウ",
    "prefecture_code": 1,
    "city": "中川郡幕別町",
    "city_kana": "ナカガワグンマクベツチョウ",
    "town": "南町",
    "town_kana": "ミナミマチ",
    "street": null,
    "office_name": null,
    "office_name_kana": null
  },
  "0616": {
    "postcode": "0890616",
    "prefecture": "北海道",
    "prefecture_kana": "ホッカイドウ",
    "prefecture_code": 1,
    "city": "中川郡幕別町",
    "city_kana": "ナカガワグンマクベツチョウ",
    "town": "宝町",
    "town_kana": "タカラマチ",
    "street": null,
    "office_name": null,
    "office_name_kana": null
  },
  "0621": {
    "postcode": "0890621",
    "prefecture": "北海道",
    "prefecture_kana": "ホッカイドウ",
    "prefecture_code": 1,
    "city": "中川郡幕別町",
    "city_kana": "ナカガワグンマクベツチョウ",
    "town": "相川",
    "town_kana": "アイカワ",
    "street": null,
    "office_name": null,
    "office_name_kana": null
  },
  "0622": {
    "postcode": "0890622",
    "prefecture": "北海道",
    "prefecture_kana": "ホッカイドウ",
    "prefecture_code": 1,
    "city": "中川郡幕別町",
    "city_kana": "ナカガワグンマクベツチョウ",
    "town": "大豊",
    "town_kana": "オオトヨ",
    "street": null,
    "office_name": null,
    "office_name_kana": null
  },
  "0623": {
    "postcode": "0890623",
    "prefecture": "北海道",
    "prefecture_kana": "ホッカイドウ",
    "prefecture_code": 1,
    "city": "中川郡幕別町",
    "city_kana": "ナカガワグンマクベツチョウ",
    "town": "南勢",
    "town_kana": "ナンセイ",
    "street": null,
    "office_name": null,
    "office_name_kana": null
  },
  "0624": {
    "postcode": "0890624",
    "prefecture": "北海道",
    "prefecture_kana": "ホッカイドウ",
    "prefecture_code": 1,
    "city": "中川郡幕別町",
    "city_kana": "ナカガワグンマクベツチョウ",
    "town": "軍岡",
    "town_kana": "イクサオカ",
    "street": null,
    "office_name": null,
    "office_name_kana": null
  },
  "0625": {
    "postcode": "0890625",
    "prefecture": "北海道",
    "prefecture_kana": "ホッカイドウ",
    "prefecture_code": 1,
    "city": "中川郡幕別町",
    "city_kana": "ナカガワグンマクベツチョウ",
    "town": "猿別",
    "town_kana": "サルベツ",
    "street": null,
    "office_name": null,
    "office_name_kana": null
  },
  "0626": {
    "postcode": "0890626",
    "prefecture": "北海道",
    "prefecture_kana": "ホッカイドウ",
    "prefecture_code": 1,
    "city": "中川郡幕別町",
    "city_kana": "ナカガワグンマクベツチョウ",
    "town": "西猿別",
    "town_kana": "ニシサルベツ",
    "street": null,
    "office_name": null,
    "office_name_kana": null
  },
  "0627": {
    "postcode": "0890627",
    "prefecture": "北海道",
    "prefecture_kana": "ホッカイドウ",
    "prefecture_code": 1,
    "city": "中川郡幕別町",
    "city_kana": "ナカガワグンマクベツチョウ",
    "town": "新和",
    "town_kana": "シンワ",
    "street": null,
    "office_name": null,
    "office_name_kana": null
  },
  "0628": {
    "postcode": "0890628",
    "prefecture": "北海道",
    "prefecture_kana": "ホッカイドウ",
    "prefecture_code": 1,
    "city": "中川郡幕別町",
    "city_kana": "ナカガワグンマクベツチョウ",
    "town": "豊岡",
    "town_kana": "トヨオカ",
    "street": null,
    "office_name": null,
    "office_name_kana": null
  },
  "0692": {
    "postcode": "0890692",
    "prefecture": "北海道",
    "prefecture_kana": "ホッカイドウ",
    "prefecture_code": 1,
    "city": "中川郡幕別町",
    "city_kana": "ナカガワグンマクベツチョウ",
    "town": "本町",
    "town_kana": "モトマチ",
    "street": "１３０番地（幕別郵便局私書箱第１号）",
    "office_name": "幕別町役場",
    "office_name_kana": "マクベツチヨウヤクバ"
  },
  "0693": {
    "postcode": "0890693",
    "prefecture": "北海道",
    "prefecture_kana": "ホッカイドウ",
    "prefecture_code": 1,
    "city": "中川郡幕別町",
    "city_kana": "ナカガワグンマクベツチョウ",
    "town": "本町",
    "town_kana": "モトマチ",
    "street": "４５番地（幕別郵便局私書箱第４号）",
    "office_name": "幕別町農業協同組合",
    "office_name_kana": "マクベツチヨウノウギヨウキヨウドウクミアイ"
  },
  "0781": {
    "postcode": "0890781",
    "prefecture": "北海道",
    "prefecture_kana": "ホッカイドウ",
    "prefecture_code": 1,
    "city": "中川郡幕別町",
    "city_kana": "ナカガワグンマクベツチョウ",
    "town": "五位",
    "town_kana": "ゴイ",
    "street": null,
    "office_name": null,
    "office_name_kana": null
  },
  "0782": {
    "postcode": "0890782",
    "prefecture": "北海道",
    "prefecture_kana": "ホッカイドウ",
    "prefecture_code": 1,
    "city": "中川郡幕別町",
    "city_kana": "ナカガワグンマクベツチョウ",
    "town": "中里",
    "town_kana": "ナカサト",
    "street": null,
    "office_name": null,
    "office_name_kana": null
  },
  "0783": {
    "postcode": "0890783",
    "prefecture": "北海道",
    "prefecture_kana": "ホッカイドウ",
    "prefecture_code": 1,
    "city": "中川郡幕別町",
    "city_kana": "ナカガワグンマクベツチョウ",
    "town": "駒畠",
    "town_kana": "コマハタ",
    "street": null,
    "office_name": null,
    "office_name_kana": null
  },
  "0784": {
    "postcode": "0890784",
    "prefecture": "北海道",
    "prefecture_kana": "ホッカイドウ",
    "prefecture_code": 1,
    "city": "中川郡幕別町",
    "city_kana": "ナカガワグンマクベツチョウ",
    "town": "弘和",
    "town_kana": "コウワ",
    "street": null,
    "office_name": null,
    "office_name_kana": null
  },
  "0785": {
    "postcode": "0890785",
    "prefecture": "北海道",
    "prefecture_kana": "ホッカイドウ",
    "prefecture_code": 1,
    "city": "中川郡幕別町",
    "city_kana": "ナカガワグンマクベツチョウ",
    "town": "美川",
    "town_kana": "ミカワ",
    "street": null,
    "office_name": null,
    "office_name_kana": null
  },
  "0786": {
    "postcode": "0890786",
    "prefecture": "北海道",
    "prefecture_kana": "ホッカイドウ",
    "prefecture_code": 1,
    "city": "中川郡幕別町",
    "city_kana": "ナカガワグンマクベツチョウ",
    "town": "糠内",
    "town_kana": "ヌカナイ",
    "street": null,
    "office_name": null,
    "office_name_kana": null
  },
  "0787": {
    "postcode": "0890787",
    "prefecture": "北海道",
    "prefecture_kana": "ホッカイドウ",
    "prefecture_code": 1,
    "city": "中川郡幕別町",
    "city_kana": "ナカガワグンマクベツチョウ",
    "town": "明倫",
    "town_kana": "メイリン",
    "street": null,
    "office_name": null,
    "office_name_kana": null
  },
  "0788": [
    {
      "postcode": "0890788",
      "prefecture": "北海道",
      "prefecture_kana": "ホッカイドウ",
      "prefecture_code": 1,
      "city": "中川郡幕別町",
      "city_kana": "ナカガワグンマクベツチョウ",
      "town": "新和",
      "town_kana": "シンワ",
      "street": null,
      "office_name": null,
      "office_name_kana": null
    },
    {
      "postcode": "0890788",
      "prefecture": "北海道",
      "prefecture_kana": "ホッカイドウ",
      "prefecture_code": 1,
      "city": "中川郡幕別町",
      "city_kana": "ナカガワグンマクベツチョウ",
      "town": "新和新田牧場",
      "town_kana": "シンワニッタボクジョウ",
      "street": null,
      "office_name": null,
      "office_name_kana": null
    }
  ],
  "1181": {
    "postcode": "0891181",
    "prefecture": "北海道",
    "prefecture_kana": "ホッカイドウ",
    "prefecture_code": 1,
    "city": "帯広市",
    "city_kana": "オビヒロシ",
    "town": "愛国町",
    "town_kana": "アイコクチョウ",
    "street": null,
    "office_name": null,
    "office_name_kana": null
  },
  "1182": {
    "postcode": "0891182",
    "prefecture": "北海道",
    "prefecture_kana": "ホッカイドウ",
    "prefecture_code": 1,
    "city": "帯広市",
    "city_kana": "オビヒロシ",
    "town": "川西町",
    "town_kana": "カワニシチョウ",
    "street": null,
    "office_name": null,
    "office_name_kana": null
  },
  "1183": {
    "postcode": "0891183",
    "prefecture": "北海道",
    "prefecture_kana": "ホッカイドウ",
    "prefecture_code": 1,
    "city": "帯広市",
    "city_kana": "オビヒロシ",
    "town": "豊西町",
    "town_kana": "トヨニシチョウ",
    "street": null,
    "office_name": null,
    "office_name_kana": null
  },
  "1184": {
    "postcode": "0891184",
    "prefecture": "北海道",
    "prefecture_kana": "ホッカイドウ",
    "prefecture_code": 1,
    "city": "帯広市",
    "city_kana": "オビヒロシ",
    "town": "別府町",
    "town_kana": "ベップチョウ",
    "street": null,
    "office_name": null,
    "office_name_kana": null
  },
  "1192": {
    "postcode": "0891192",
    "prefecture": "北海道",
    "prefecture_kana": "ホッカイドウ",
    "prefecture_code": 1,
    "city": "帯広市",
    "city_kana": "オビヒロシ",
    "town": "別府町南",
    "town_kana": null,
    "street": "１３線３３番地",
    "office_name": "帯広刑務所",
    "office_name_kana": "オビヒロケイムシヨ"
  },
  "1198": {
    "postcode": "0891198",
    "prefecture": "北海道",
    "prefecture_kana": "ホッカイドウ",
    "prefecture_code": 1,
    "city": "帯広市",
    "city_kana": "オビヒロシ",
    "town": "川西町西",
    "town_kana": null,
    "street": "２線６１−１",
    "office_name": "帯広市川西農業協同組合",
    "office_name_kana": "オビヒロシカワニシノウギヨウキヨウドウクミアイ"
  },
  "1241": {
    "postcode": "0891241",
    "prefecture": "北海道",
    "prefecture_kana": "ホッカイドウ",
    "prefecture_code": 1,
    "city": "帯広市",
    "city_kana": "オビヒロシ",
    "town": "大正本町",
    "town_kana": "タイショウホンチョウ",
    "street": null,
    "office_name": null,
    "office_name_kana": null
  },
  "1242": {
    "postcode": "0891242",
    "prefecture": "北海道",
    "prefecture_kana": "ホッカイドウ",
    "prefecture_code": 1,
    "city": "帯広市",
    "city_kana": "オビヒロシ",
    "town": "大正町",
    "town_kana": "タイショウチョウ",
    "street": null,
    "office_name": null,
    "office_name_kana": null
  },
  "1243": {
    "postcode": "0891243",
    "prefecture": "北海道",
    "prefecture_kana": "ホッカイドウ",
    "prefecture_code": 1,
    "city": "帯広市",
    "city_kana": "オビヒロシ",
    "town": "桜木町",
    "town_kana": "サクラギチョウ",
    "street": null,
    "office_name": null,
    "office_name_kana": null
  },
  "1244": {
    "postcode": "0891244",
    "prefecture": "北海道",
    "prefecture_kana": "ホッカイドウ",
    "prefecture_code": 1,
    "city": "帯広市",
    "city_kana": "オビヒロシ",
    "town": "以平町",
    "town_kana": "イタイラチョウ",
    "street": null,
    "office_name": null,
    "office_name_kana": null
  },
  "1245": {
    "postcode": "0891245",
    "prefecture": "北海道",
    "prefecture_kana": "ホッカイドウ",
    "prefecture_code": 1,
    "city": "帯広市",
    "city_kana": "オビヒロシ",
    "town": "泉町",
    "town_kana": "イズミチョウ",
    "street": null,
    "office_name": null,
    "office_name_kana": null
  },
  "1246": {
    "postcode": "0891246",
    "prefecture": "北海道",
    "prefecture_kana": "ホッカイドウ",
    "prefecture_code": 1,
    "city": "帯広市",
    "city_kana": "オビヒロシ",
    "town": "幸福町",
    "town_kana": "コウフクチョウ",
    "street": null,
    "office_name": null,
    "office_name_kana": null
  },
  "1247": {
    "postcode": "0891247",
    "prefecture": "北海道",
    "prefecture_kana": "ホッカイドウ",
    "prefecture_code": 1,
    "city": "帯広市",
    "city_kana": "オビヒロシ",
    "town": "昭和町",
    "town_kana": "ショウワチョウ",
    "street": null,
    "office_name": null,
    "office_name_kana": null
  },
  "1251": {
    "postcode": "0891251",
    "prefecture": "北海道",
    "prefecture_kana": "ホッカイドウ",
    "prefecture_code": 1,
    "city": "帯広市",
    "city_kana": "オビヒロシ",
    "town": "富士町",
    "town_kana": "フジチョウ",
    "street": null,
    "office_name": null,
    "office_name_kana": null
  },
  "1252": {
    "postcode": "0891252",
    "prefecture": "北海道",
    "prefecture_kana": "ホッカイドウ",
    "prefecture_code": 1,
    "city": "帯広市",
    "city_kana": "オビヒロシ",
    "town": "中島町",
    "town_kana": "ナカジマチョウ",
    "street": null,
    "office_name": null,
    "office_name_kana": null
  },
  "1300": {
    "postcode": "0891300",
    "prefecture": "北海道",
    "prefecture_kana": "ホッカイドウ",
    "prefecture_code": 1,
    "city": "河西郡中札内村",
    "city_kana": "カサイグンナカサツナイムラ",
    "town": "",
    "town_kana": "",
    "street": null,
    "office_name": null,
    "office_name_kana": null
  },
  "1310": {
    "postcode": "0891310",
    "prefecture": "北海道",
    "prefecture_kana": "ホッカイドウ",
    "prefecture_code": 1,
    "city": "河西郡中札内村",
    "city_kana": "カサイグンナカサツナイムラ",
    "town": "大通北",
    "town_kana": "オオドオリキタ",
    "street": null,
    "office_name": null,
    "office_name_kana": null
  },
  "1311": {
    "postcode": "0891311",
    "prefecture": "北海道",
    "prefecture_kana": "ホッカイドウ",
    "prefecture_code": 1,
    "city": "河西郡中札内村",
    "city_kana": "カサイグンナカサツナイムラ",
    "town": "西一条北",
    "town_kana": "ニシ1ジョウキタ",
    "street": null,
    "office_name": null,
    "office_name_kana": null
  },
  "1312": {
    "postcode": "0891312",
    "prefecture": "北海道",
    "prefecture_kana": "ホッカイドウ",
    "prefecture_code": 1,
    "city": "河西郡中札内村",
    "city_kana": "カサイグンナカサツナイムラ",
    "town": "西二条北",
    "town_kana": "ニシ2ジョウキタ",
    "street": null,
    "office_name": null,
    "office_name_kana": null
  },
  "1313": {
    "postcode": "0891313",
    "prefecture": "北海道",
    "prefecture_kana": "ホッカイドウ",
    "prefecture_code": 1,
    "city": "河西郡中札内村",
    "city_kana": "カサイグンナカサツナイムラ",
    "town": "中札内西",
    "town_kana": "ナカサツナイニシ",
    "street": null,
    "office_name": null,
    "office_name_kana": null
  },
  "1321": {
    "postcode": "0891321",
    "prefecture": "北海道",
    "prefecture_kana": "ホッカイドウ",
    "prefecture_code": 1,
    "city": "河西郡中札内村",
    "city_kana": "カサイグンナカサツナイムラ",
    "town": "東一条北",
    "town_kana": "ヒガシ1ジョウキタ",
    "street": null,
    "office_name": null,
    "office_name_kana": null
  },
  "1322": {
    "postcode": "0891322",
    "prefecture": "北海道",
    "prefecture_kana": "ホッカイドウ",
    "prefecture_code": 1,
    "city": "河西郡中札内村",
    "city_kana": "カサイグンナカサツナイムラ",
    "town": "東二条北",
    "town_kana": "ヒガシ2ジョウキタ",
    "street": null,
    "office_name": null,
    "office_name_kana": null
  },
  "1323": {
    "postcode": "0891323",
    "prefecture": "北海道",
    "prefecture_kana": "ホッカイドウ",
    "prefecture_code": 1,
    "city": "河西郡中札内村",
    "city_kana": "カサイグンナカサツナイムラ",
    "town": "東三条北",
    "town_kana": "ヒガシ3ジョウキタ",
    "street": null,
    "office_name": null,
    "office_name_kana": null
  },
  "1324": {
    "postcode": "0891324",
    "prefecture": "北海道",
    "prefecture_kana": "ホッカイドウ",
    "prefecture_code": 1,
    "city": "河西郡中札内村",
    "city_kana": "カサイグンナカサツナイムラ",
    "town": "東四条北",
    "town_kana": "ヒガシ4ジョウキタ",
    "street": null,
    "office_name": null,
    "office_name_kana": null
  },
  "1325": {
    "postcode": "0891325",
    "prefecture": "北海道",
    "prefecture_kana": "ホッカイドウ",
    "prefecture_code": 1,
    "city": "河西郡中札内村",
    "city_kana": "カサイグンナカサツナイムラ",
    "town": "中札内基線",
    "town_kana": "ナカサツナイキセン",
    "street": null,
    "office_name": null,
    "office_name_kana": null
  },
  "1330": {
    "postcode": "0891330",
    "prefecture": "北海道",
    "prefecture_kana": "ホッカイドウ",
    "prefecture_code": 1,
    "city": "河西郡中札内村",
    "city_kana": "カサイグンナカサツナイムラ",
    "town": "大通南",
    "town_kana": "オオドオリミナミ",
    "street": null,
    "office_name": null,
    "office_name_kana": null
  },
  "1331": {
    "postcode": "0891331",
    "prefecture": "北海道",
    "prefecture_kana": "ホッカイドウ",
    "prefecture_code": 1,
    "city": "河西郡中札内村",
    "city_kana": "カサイグンナカサツナイムラ",
    "town": "西一条南",
    "town_kana": "ニシ1ジョウミナミ",
    "street": null,
    "office_name": null,
    "office_name_kana": null
  },
  "1332": {
    "postcode": "0891332",
    "prefecture": "北海道",
    "prefecture_kana": "ホッカイドウ",
    "prefecture_code": 1,
    "city": "河西郡中札内村",
    "city_kana": "カサイグンナカサツナイムラ",
    "town": "西二条南",
    "town_kana": "ニシ2ジョウミナミ",
    "street": null,
    "office_name": null,
    "office_name_kana": null
  },
  "1341": {
    "postcode": "0891341",
    "prefecture": "北海道",
    "prefecture_kana": "ホッカイドウ",
    "prefecture_code": 1,
    "city": "河西郡中札内村",
    "city_kana": "カサイグンナカサツナイムラ",
    "town": "東一条南",
    "town_kana": "ヒガシ1ジョウミナミ",
    "street": null,
    "office_name": null,
    "office_name_kana": null
  },
  "1342": {
    "postcode": "0891342",
    "prefecture": "北海道",
    "prefecture_kana": "ホッカイドウ",
    "prefecture_code": 1,
    "city": "河西郡中札内村",
    "city_kana": "カサイグンナカサツナイムラ",
    "town": "東二条南",
    "town_kana": "ヒガシ2ジョウミナミ",
    "street": null,
    "office_name": null,
    "office_name_kana": null
  },
  "1343": {
    "postcode": "0891343",
    "prefecture": "北海道",
    "prefecture_kana": "ホッカイドウ",
    "prefecture_code": 1,
    "city": "河西郡中札内村",
    "city_kana": "カサイグンナカサツナイムラ",
    "town": "東三条南",
    "town_kana": "ヒガシ3ジョウミナミ",
    "street": null,
    "office_name": null,
    "office_name_kana": null
  },
  "1344": {
    "postcode": "0891344",
    "prefecture": "北海道",
    "prefecture_kana": "ホッカイドウ",
    "prefecture_code": 1,
    "city": "河西郡中札内村",
    "city_kana": "カサイグンナカサツナイムラ",
    "town": "東四条南",
    "town_kana": "ヒガシ4ジョウミナミ",
    "street": null,
    "office_name": null,
    "office_name_kana": null
  },
  "1345": {
    "postcode": "0891345",
    "prefecture": "北海道",
    "prefecture_kana": "ホッカイドウ",
    "prefecture_code": 1,
    "city": "河西郡中札内村",
    "city_kana": "カサイグンナカサツナイムラ",
    "town": "東五条南",
    "town_kana": "ヒガシ5ジョウミナミ",
    "street": null,
    "office_name": null,
    "office_name_kana": null
  },
  "1351": {
    "postcode": "0891351",
    "prefecture": "北海道",
    "prefecture_kana": "ホッカイドウ",
    "prefecture_code": 1,
    "city": "河西郡中札内村",
    "city_kana": "カサイグンナカサツナイムラ",
    "town": "東戸蔦",
    "town_kana": "ヒガシトツタ",
    "street": null,
    "office_name": null,
    "office_name_kana": null
  },
  "1352": {
    "postcode": "0891352",
    "prefecture": "北海道",
    "prefecture_kana": "ホッカイドウ",
    "prefecture_code": 1,
    "city": "河西郡中札内村",
    "city_kana": "カサイグンナカサツナイムラ",
    "town": "中戸蔦",
    "town_kana": "ナカトツタ",
    "street": null,
    "office_name": null,
    "office_name_kana": null
  },
  "1353": {
    "postcode": "0891353",
    "prefecture": "北海道",
    "prefecture_kana": "ホッカイドウ",
    "prefecture_code": 1,
    "city": "河西郡中札内村",
    "city_kana": "カサイグンナカサツナイムラ",
    "town": "西戸蔦",
    "town_kana": "ニシトツタ",
    "street": null,
    "office_name": null,
    "office_name_kana": null
  },
  "1354": {
    "postcode": "0891354",
    "prefecture": "北海道",
    "prefecture_kana": "ホッカイドウ",
    "prefecture_code": 1,
    "city": "河西郡中札内村",
    "city_kana": "カサイグンナカサツナイムラ",
    "town": "新札内",
    "town_kana": "シンサツナイ",
    "street": null,
    "office_name": null,
    "office_name_kana": null
  },
  "1355": {
    "postcode": "0891355",
    "prefecture": "北海道",
    "prefecture_kana": "ホッカイドウ",
    "prefecture_code": 1,
    "city": "河西郡中札内村",
    "city_kana": "カサイグンナカサツナイムラ",
    "town": "新札内南",
    "town_kana": "シンサツナイミナミ",
    "street": null,
    "office_name": null,
    "office_name_kana": null
  },
  "1356": {
    "postcode": "0891356",
    "prefecture": "北海道",
    "prefecture_kana": "ホッカイドウ",
    "prefecture_code": 1,
    "city": "河西郡中札内村",
    "city_kana": "カサイグンナカサツナイムラ",
    "town": "西札内",
    "town_kana": "ニシサツナイ",
    "street": null,
    "office_name": null,
    "office_name_kana": null
  },
  "1361": {
    "postcode": "0891361",
    "prefecture": "北海道",
    "prefecture_kana": "ホッカイドウ",
    "prefecture_code": 1,
    "city": "河西郡中札内村",
    "city_kana": "カサイグンナカサツナイムラ",
    "town": "元大正",
    "town_kana": "モトタイショウ",
    "street": null,
    "office_name": null,
    "office_name_kana": null
  },
  "1362": {
    "postcode": "0891362",
    "prefecture": "北海道",
    "prefecture_kana": "ホッカイドウ",
    "prefecture_code": 1,
    "city": "河西郡中札内村",
    "city_kana": "カサイグンナカサツナイムラ",
    "town": "新生",
    "town_kana": "シンセイ",
    "street": null,
    "office_name": null,
    "office_name_kana": null
  },
  "1363": {
    "postcode": "0891363",
    "prefecture": "北海道",
    "prefecture_kana": "ホッカイドウ",
    "prefecture_code": 1,
    "city": "河西郡中札内村",
    "city_kana": "カサイグンナカサツナイムラ",
    "town": "興和",
    "town_kana": "コウワ",
    "street": null,
    "office_name": null,
    "office_name_kana": null
  },
  "1364": {
    "postcode": "0891364",
    "prefecture": "北海道",
    "prefecture_kana": "ホッカイドウ",
    "prefecture_code": 1,
    "city": "河西郡中札内村",
    "city_kana": "カサイグンナカサツナイムラ",
    "town": "共栄",
    "town_kana": "キョウエイ",
    "street": null,
    "office_name": null,
    "office_name_kana": null
  },
  "1365": {
    "postcode": "0891365",
    "prefecture": "北海道",
    "prefecture_kana": "ホッカイドウ",
    "prefecture_code": 1,
    "city": "河西郡中札内村",
    "city_kana": "カサイグンナカサツナイムラ",
    "town": "協和",
    "town_kana": "キョウワ",
    "street": null,
    "office_name": null,
    "office_name_kana": null
  },
  "1366": {
    "postcode": "0891366",
    "prefecture": "北海道",
    "prefecture_kana": "ホッカイドウ",
    "prefecture_code": 1,
    "city": "河西郡中札内村",
    "city_kana": "カサイグンナカサツナイムラ",
    "town": "栄",
    "town_kana": "サカエ",
    "street": null,
    "office_name": null,
    "office_name_kana": null
  },
  "1367": {
    "postcode": "0891367",
    "prefecture": "北海道",
    "prefecture_kana": "ホッカイドウ",
    "prefecture_code": 1,
    "city": "河西郡中札内村",
    "city_kana": "カサイグンナカサツナイムラ",
    "town": "常盤基線",
    "town_kana": "トキワキセン",
    "street": null,
    "office_name": null,
    "office_name_kana": null
  },
  "1368": {
    "postcode": "0891368",
    "prefecture": "北海道",
    "prefecture_kana": "ホッカイドウ",
    "prefecture_code": 1,
    "city": "河西郡中札内村",
    "city_kana": "カサイグンナカサツナイムラ",
    "town": "南常盤",
    "town_kana": "ミナミトキワ",
    "street": null,
    "office_name": null,
    "office_name_kana": null
  },
  "1371": {
    "postcode": "0891371",
    "prefecture": "北海道",
    "prefecture_kana": "ホッカイドウ",
    "prefecture_code": 1,
    "city": "河西郡中札内村",
    "city_kana": "カサイグンナカサツナイムラ",
    "town": "上札内",
    "town_kana": "カミサツナイ",
    "street": null,
    "office_name": null,
    "office_name_kana": null
  },
  "1372": {
    "postcode": "0891372",
    "prefecture": "北海道",
    "prefecture_kana": "ホッカイドウ",
    "prefecture_code": 1,
    "city": "河西郡中札内村",
    "city_kana": "カサイグンナカサツナイムラ",
    "town": "元札内",
    "town_kana": "モトサツナイ",
    "street": null,
    "office_name": null,
    "office_name_kana": null
  },
  "1373": {
    "postcode": "0891373",
    "prefecture": "北海道",
    "prefecture_kana": "ホッカイドウ",
    "prefecture_code": 1,
    "city": "河西郡中札内村",
    "city_kana": "カサイグンナカサツナイムラ",
    "town": "元更別",
    "town_kana": "モトサラベツ",
    "street": null,
    "office_name": null,
    "office_name_kana": null
  },
  "1374": {
    "postcode": "0891374",
    "prefecture": "北海道",
    "prefecture_kana": "ホッカイドウ",
    "prefecture_code": 1,
    "city": "河西郡中札内村",
    "city_kana": "カサイグンナカサツナイムラ",
    "town": "南札内",
    "town_kana": "ミナミサツナイ",
    "street": null,
    "office_name": null,
    "office_name_kana": null
  },
  "1392": {
    "postcode": "0891392",
    "prefecture": "北海道",
    "prefecture_kana": "ホッカイドウ",
    "prefecture_code": 1,
    "city": "河西郡中札内村",
    "city_kana": "カサイグンナカサツナイムラ",
    "town": "大通南",
    "town_kana": "オオドオリミナミ",
    "street": "２丁目",
    "office_name": "中札内村役場",
    "office_name_kana": "ナカサツナイムラヤクバ"
  },
  "1395": {
    "postcode": "0891395",
    "prefecture": "北海道",
    "prefecture_kana": "ホッカイドウ",
    "prefecture_code": 1,
    "city": "河西郡中札内村",
    "city_kana": "カサイグンナカサツナイムラ",
    "town": "東一条南",
    "town_kana": "ヒガシ1ジョウミナミ",
    "street": "２丁目１４番地",
    "office_name": "中札内村農業協同組合",
    "office_name_kana": "ナカサツナイムラノウギヨウキヨウドウクミアイ"
  },
  "1500": {
    "postcode": "0891500",
    "prefecture": "北海道",
    "prefecture_kana": "ホッカイドウ",
    "prefecture_code": 1,
    "city": "河西郡更別村",
    "city_kana": "カサイグンサラベツムラ",
    "town": "",
    "town_kana": "",
    "street": null,
    "office_name": null,
    "office_name_kana": null
  },
  "1501": {
    "postcode": "0891501",
    "prefecture": "北海道",
    "prefecture_kana": "ホッカイドウ",
    "prefecture_code": 1,
    "city": "河西郡更別村",
    "city_kana": "カサイグンサラベツムラ",
    "town": "新栄町",
    "town_kana": "シンエイチョウ",
    "street": null,
    "office_name": null,
    "office_name_kana": null
  },
  "1502": {
    "postcode": "0891502",
    "prefecture": "北海道",
    "prefecture_kana": "ホッカイドウ",
    "prefecture_code": 1,
    "city": "河西郡更別村",
    "city_kana": "カサイグンサラベツムラ",
    "town": "花園町",
    "town_kana": "ハナゾノチョウ",
    "street": null,
    "office_name": null,
    "office_name_kana": null
  },
  "1511": {
    "postcode": "0891511",
    "prefecture": "北海道",
    "prefecture_kana": "ホッカイドウ",
    "prefecture_code": 1,
    "city": "河西郡更別村",
    "city_kana": "カサイグンサラベツムラ",
    "town": "柏町",
    "town_kana": "カシワマチ",
    "street": null,
    "office_name": null,
    "office_name_kana": null
  },
  "1512": {
    "postcode": "0891512",
    "prefecture": "北海道",
    "prefecture_kana": "ホッカイドウ",
    "prefecture_code": 1,
    "city": "河西郡更別村",
    "city_kana": "カサイグンサラベツムラ",
    "town": "中央町",
    "town_kana": "チュウオウチョウ",
    "street": null,
    "office_name": null,
    "office_name_kana": null
  },
  "1513": {
    "postcode": "0891513",
    "prefecture": "北海道",
    "prefecture_kana": "ホッカイドウ",
    "prefecture_code": 1,
    "city": "河西郡更別村",
    "city_kana": "カサイグンサラベツムラ",
    "town": "本町",
    "town_kana": "ホンチョウ",
    "street": null,
    "office_name": null,
    "office_name_kana": null
  },
  "1521": {
    "postcode": "0891521",
    "prefecture": "北海道",
    "prefecture_kana": "ホッカイドウ",
    "prefecture_code": 1,
    "city": "河西郡更別村",
    "city_kana": "カサイグンサラベツムラ",
    "town": "錦町",
    "town_kana": "ニシキマチ",
    "street": null,
    "office_name": null,
    "office_name_kana": null
  },
  "1522": {
    "postcode": "0891522",
    "prefecture": "北海道",
    "prefecture_kana": "ホッカイドウ",
    "prefecture_code": 1,
    "city": "河西郡更別村",
    "city_kana": "カサイグンサラベツムラ",
    "town": "若葉町",
    "town_kana": "ワカバチョウ",
    "street": null,
    "office_name": null,
    "office_name_kana": null
  },
  "1531": {
    "postcode": "0891531",
    "prefecture": "北海道",
    "prefecture_kana": "ホッカイドウ",
    "prefecture_code": 1,
    "city": "河西郡更別村",
    "city_kana": "カサイグンサラベツムラ",
    "town": "曙町",
    "town_kana": "アケボノチョウ",
    "street": null,
    "office_name": null,
    "office_name_kana": null
  },
  "1532": {
    "postcode": "0891532",
    "prefecture": "北海道",
    "prefecture_kana": "ホッカイドウ",
    "prefecture_code": 1,
    "city": "河西郡更別村",
    "city_kana": "カサイグンサラベツムラ",
    "town": "緑町",
    "town_kana": "ミドリマチ",
    "street": null,
    "office_name": null,
    "office_name_kana": null
  },
  "1541": {
    "postcode": "0891541",
    "prefecture": "北海道",
    "prefecture_kana": "ホッカイドウ",
    "prefecture_code": 1,
    "city": "河西郡更別村",
    "city_kana": "カサイグンサラベツムラ",
    "town": "更南",
    "town_kana": "コウナン",
    "street": null,
    "office_name": null,
    "office_name_kana": null
  },
  "1542": [
    {
      "postcode": "0891542",
      "prefecture": "北海道",
      "prefecture_kana": "ホッカイドウ",
      "prefecture_code": 1,
      "city": "河西郡更別村",
      "city_kana": "カサイグンサラベツムラ",
      "town": "更別",
      "town_kana": "サラベツ",
      "street": null,
      "office_name": null,
      "office_name_kana": null
    },
    {
      "postcode": "0891542",
      "prefecture": "北海道",
      "prefecture_kana": "ホッカイドウ",
      "prefecture_code": 1,
      "city": "河西郡更別村",
      "city_kana": "カサイグンサラベツムラ",
      "town": "更別区",
      "town_kana": "サラベツク",
      "street": null,
      "office_name": null,
      "office_name_kana": null
    }
  ],
  "1543": {
    "postcode": "0891543",
    "prefecture": "北海道",
    "prefecture_kana": "ホッカイドウ",
    "prefecture_code": 1,
    "city": "河西郡更別村",
    "city_kana": "カサイグンサラベツムラ",
    "town": "昭和区",
    "town_kana": "ショウワク",
    "street": null,
    "office_name": null,
    "office_name_kana": null
  },
  "1551": {
    "postcode": "0891551",
    "prefecture": "北海道",
    "prefecture_kana": "ホッカイドウ",
    "prefecture_code": 1,
    "city": "河西郡更別村",
    "city_kana": "カサイグンサラベツムラ",
    "town": "旭区",
    "town_kana": "アサヒク",
    "street": null,
    "office_name": null,
    "office_name_kana": null
  },
  "1552": {
    "postcode": "0891552",
    "prefecture": "北海道",
    "prefecture_kana": "ホッカイドウ",
    "prefecture_code": 1,
    "city": "河西郡更別村",
    "city_kana": "カサイグンサラベツムラ",
    "town": "勢雄",
    "town_kana": "セオ",
    "street": null,
    "office_name": null,
    "office_name_kana": null
  },
  "1553": {
    "postcode": "0891553",
    "prefecture": "北海道",
    "prefecture_kana": "ホッカイドウ",
    "prefecture_code": 1,
    "city": "河西郡更別村",
    "city_kana": "カサイグンサラベツムラ",
    "town": "平和区",
    "town_kana": "ヘイワク",
    "street": null,
    "office_name": null,
    "office_name_kana": null
  },
  "1561": {
    "postcode": "0891561",
    "prefecture": "北海道",
    "prefecture_kana": "ホッカイドウ",
    "prefecture_code": 1,
    "city": "河西郡更別村",
    "city_kana": "カサイグンサラベツムラ",
    "town": "北更別区",
    "town_kana": "キタサラベツク",
    "street": null,
    "office_name": null,
    "office_name_kana": null
  },
  "1562": [
    {
      "postcode": "0891562",
      "prefecture": "北海道",
      "prefecture_kana": "ホッカイドウ",
      "prefecture_code": 1,
      "city": "河西郡更別村",
      "city_kana": "カサイグンサラベツムラ",
      "town": "更別",
      "town_kana": "サラベツ",
      "street": null,
      "office_name": null,
      "office_name_kana": null
    },
    {
      "postcode": "0891562",
      "prefecture": "北海道",
      "prefecture_kana": "ホッカイドウ",
      "prefecture_code": 1,
      "city": "河西郡更別村",
      "city_kana": "カサイグンサラベツムラ",
      "town": "更別東区",
      "town_kana": "サラベツヒガシク",
      "street": null,
      "office_name": null,
      "office_name_kana": null
    }
  ],
  "1563": {
    "postcode": "0891563",
    "prefecture": "北海道",
    "prefecture_kana": "ホッカイドウ",
    "prefecture_code": 1,
    "city": "河西郡更別村",
    "city_kana": "カサイグンサラベツムラ",
    "town": "南更別区",
    "town_kana": "ミナミサラベツク",
    "street": null,
    "office_name": null,
    "office_name_kana": null
  },
  "1571": {
    "postcode": "0891571",
    "prefecture": "北海道",
    "prefecture_kana": "ホッカイドウ",
    "prefecture_code": 1,
    "city": "河西郡更別村",
    "city_kana": "カサイグンサラベツムラ",
    "town": "香川区",
    "town_kana": "カガワク",
    "street": null,
    "office_name": null,
    "office_name_kana": null
  },
  "1572": {
    "postcode": "0891572",
    "prefecture": "北海道",
    "prefecture_kana": "ホッカイドウ",
    "prefecture_code": 1,
    "city": "河西郡更別村",
    "city_kana": "カサイグンサラベツムラ",
    "town": "更生区",
    "town_kana": "コウセイク",
    "street": null,
    "office_name": null,
    "office_name_kana": null
  },
  "1573": [
    {
      "postcode": "0891573",
      "prefecture": "北海道",
      "prefecture_kana": "ホッカイドウ",
      "prefecture_code": 1,
      "city": "河西郡更別村",
      "city_kana": "カサイグンサラベツムラ",
      "town": "弘和",
      "town_kana": "コウワ",
      "street": null,
      "office_name": null,
      "office_name_kana": null
    },
    {
      "postcode": "0891573",
      "prefecture": "北海道",
      "prefecture_kana": "ホッカイドウ",
      "prefecture_code": 1,
      "city": "河西郡更別村",
      "city_kana": "カサイグンサラベツムラ",
      "town": "東栄",
      "town_kana": "トウエイ",
      "street": null,
      "office_name": null,
      "office_name_kana": null
    }
  ],
  "1581": [
    {
      "postcode": "0891581",
      "prefecture": "北海道",
      "prefecture_kana": "ホッカイドウ",
      "prefecture_code": 1,
      "city": "河西郡更別村",
      "city_kana": "カサイグンサラベツムラ",
      "town": "上更別",
      "town_kana": "カミサラベツ",
      "street": null,
      "office_name": null,
      "office_name_kana": null
    },
    {
      "postcode": "0891581",
      "prefecture": "北海道",
      "prefecture_kana": "ホッカイドウ",
      "prefecture_code": 1,
      "city": "河西郡更別村",
      "city_kana": "カサイグンサラベツムラ",
      "town": "上更別南区",
      "town_kana": "カミサラベツミナミク",
      "street": null,
      "office_name": null,
      "office_name_kana": null
    }
  ],
  "1582": {
    "postcode": "0891582",
    "prefecture": "北海道",
    "prefecture_kana": "ホッカイドウ",
    "prefecture_code": 1,
    "city": "河西郡更別村",
    "city_kana": "カサイグンサラベツムラ",
    "town": "協和区",
    "town_kana": "キョウワク",
    "street": null,
    "office_name": null,
    "office_name_kana": null
  },
  "1583": [
    {
      "postcode": "0891583",
      "prefecture": "北海道",
      "prefecture_kana": "ホッカイドウ",
      "prefecture_code": 1,
      "city": "河西郡更別村",
      "city_kana": "カサイグンサラベツムラ",
      "town": "上更別",
      "town_kana": "カミサラベツ",
      "street": null,
      "office_name": null,
      "office_name_kana": null
    },
    {
      "postcode": "0891583",
      "prefecture": "北海道",
      "prefecture_kana": "ホッカイドウ",
      "prefecture_code": 1,
      "city": "河西郡更別村",
      "city_kana": "カサイグンサラベツムラ",
      "town": "上更別１区",
      "town_kana": "カミサラベツ1ク",
      "street": null,
      "office_name": null,
      "office_name_kana": null
    }
  ],
  "1592": {
    "postcode": "0891592",
    "prefecture": "北海道",
    "prefecture_kana": "ホッカイドウ",
    "prefecture_code": 1,
    "city": "河西郡更別村",
    "city_kana": "カサイグンサラベツムラ",
    "town": "錦町",
    "town_kana": "ニシキマチ",
    "street": "（更別郵便局私書箱第３号）",
    "office_name": "更別村農業協同組合",
    "office_name_kana": "サラベツムラノウギヨウキヨウドウクミアイ"
  },
  "1595": {
    "postcode": "0891595",
    "prefecture": "北海道",
    "prefecture_kana": "ホッカイドウ",
    "prefecture_code": 1,
    "city": "河西郡更別村",
    "city_kana": "カサイグンサラベツムラ",
    "town": "柏町",
    "town_kana": "カシワマチ",
    "street": "（更別郵便局私書箱第５号）",
    "office_name": "更別村役場",
    "office_name_kana": "サラベツムラヤクバ"
  },
  "1701": {
    "postcode": "0891701",
    "prefecture": "北海道",
    "prefecture_kana": "ホッカイドウ",
    "prefecture_code": 1,
    "city": "中川郡幕別町",
    "city_kana": "ナカガワグンマクベツチョウ",
    "town": "忠類白銀町",
    "town_kana": "チュウルイシロガネマチ",
    "street": null,
    "office_name": null,
    "office_name_kana": null
  },
  "1703": {
    "postcode": "0891703",
    "prefecture": "北海道",
    "prefecture_kana": "ホッカイドウ",
    "prefecture_code": 1,
    "city": "中川郡幕別町",
    "city_kana": "ナカガワグンマクベツチョウ",
    "town": "忠類栄町",
    "town_kana": "チュウルイサカエマチ",
    "street": null,
    "office_name": null,
    "office_name_kana": null
  },
  "1705": {
    "postcode": "0891705",
    "prefecture": "北海道",
    "prefecture_kana": "ホッカイドウ",
    "prefecture_code": 1,
    "city": "中川郡幕別町",
    "city_kana": "ナカガワグンマクベツチョウ",
    "town": "忠類本町",
    "town_kana": "チュウルイモトマチ",
    "street": null,
    "office_name": null,
    "office_name_kana": null
  },
  "1707": {
    "postcode": "0891707",
    "prefecture": "北海道",
    "prefecture_kana": "ホッカイドウ",
    "prefecture_code": 1,
    "city": "中川郡幕別町",
    "city_kana": "ナカガワグンマクベツチョウ",
    "town": "忠類錦町",
    "town_kana": "チュウルイニシキマチ",
    "street": null,
    "office_name": null,
    "office_name_kana": null
  },
  "1709": {
    "postcode": "0891709",
    "prefecture": "北海道",
    "prefecture_kana": "ホッカイドウ",
    "prefecture_code": 1,
    "city": "中川郡幕別町",
    "city_kana": "ナカガワグンマクベツチョウ",
    "town": "忠類幸町",
    "town_kana": "チュウルイサイワイマチ",
    "street": null,
    "office_name": null,
    "office_name_kana": null
  },
  "1711": {
    "postcode": "0891711",
    "prefecture": "北海道",
    "prefecture_kana": "ホッカイドウ",
    "prefecture_code": 1,
    "city": "中川郡幕別町",
    "city_kana": "ナカガワグンマクベツチョウ",
    "town": "忠類東宝",
    "town_kana": "チュウルイトウホウ",
    "street": null,
    "office_name": null,
    "office_name_kana": null
  },
  "1714": {
    "postcode": "0891714",
    "prefecture": "北海道",
    "prefecture_kana": "ホッカイドウ",
    "prefecture_code": 1,
    "city": "中川郡幕別町",
    "city_kana": "ナカガワグンマクベツチョウ",
    "town": "忠類新生",
    "town_kana": "チュウルイシンセイ",
    "street": null,
    "office_name": null,
    "office_name_kana": null
  },
  "1715": {
    "postcode": "0891715",
    "prefecture": "北海道",
    "prefecture_kana": "ホッカイドウ",
    "prefecture_code": 1,
    "city": "中川郡幕別町",
    "city_kana": "ナカガワグンマクベツチョウ",
    "town": "忠類幌内",
    "town_kana": "チュウルイホロナイ",
    "street": null,
    "office_name": null,
    "office_name_kana": null
  },
  "1716": {
    "postcode": "0891716",
    "prefecture": "北海道",
    "prefecture_kana": "ホッカイドウ",
    "prefecture_code": 1,
    "city": "中川郡幕別町",
    "city_kana": "ナカガワグンマクベツチョウ",
    "town": "忠類元忠類",
    "town_kana": "チュウルイモトチュウルイ",
    "street": null,
    "office_name": null,
    "office_name_kana": null
  },
  "1717": {
    "postcode": "0891717",
    "prefecture": "北海道",
    "prefecture_kana": "ホッカイドウ",
    "prefecture_code": 1,
    "city": "中川郡幕別町",
    "city_kana": "ナカガワグンマクベツチョウ",
    "town": "忠類朝日",
    "town_kana": "チュウルイアサヒ",
    "street": null,
    "office_name": null,
    "office_name_kana": null
  },
  "1721": {
    "postcode": "0891721",
    "prefecture": "北海道",
    "prefecture_kana": "ホッカイドウ",
    "prefecture_code": 1,
    "city": "中川郡幕別町",
    "city_kana": "ナカガワグンマクベツチョウ",
    "town": "忠類西当",
    "town_kana": "チュウルイニシトウ",
    "street": null,
    "office_name": null,
    "office_name_kana": null
  },
  "1724": {
    "postcode": "0891724",
    "prefecture": "北海道",
    "prefecture_kana": "ホッカイドウ",
    "prefecture_code": 1,
    "city": "中川郡幕別町",
    "city_kana": "ナカガワグンマクベツチョウ",
    "town": "忠類明和",
    "town_kana": "チュウルイメイワ",
    "street": null,
    "office_name": null,
    "office_name_kana": null
  },
  "1725": {
    "postcode": "0891725",
    "prefecture": "北海道",
    "prefecture_kana": "ホッカイドウ",
    "prefecture_code": 1,
    "city": "中川郡幕別町",
    "city_kana": "ナカガワグンマクベツチョウ",
    "town": "忠類中当",
    "town_kana": "チュウルイナカトウ",
    "street": null,
    "office_name": null,
    "office_name_kana": null
  },
  "1726": {
    "postcode": "0891726",
    "prefecture": "北海道",
    "prefecture_kana": "ホッカイドウ",
    "prefecture_code": 1,
    "city": "中川郡幕別町",
    "city_kana": "ナカガワグンマクベツチョウ",
    "town": "忠類古里",
    "town_kana": "チュウルイフルサト",
    "street": null,
    "office_name": null,
    "office_name_kana": null
  },
  "1727": {
    "postcode": "0891727",
    "prefecture": "北海道",
    "prefecture_kana": "ホッカイドウ",
    "prefecture_code": 1,
    "city": "中川郡幕別町",
    "city_kana": "ナカガワグンマクベツチョウ",
    "town": "忠類共栄",
    "town_kana": "チュウルイキョウエイ",
    "street": null,
    "office_name": null,
    "office_name_kana": null
  },
  "1728": {
    "postcode": "0891728",
    "prefecture": "北海道",
    "prefecture_kana": "ホッカイドウ",
    "prefecture_code": 1,
    "city": "中川郡幕別町",
    "city_kana": "ナカガワグンマクベツチョウ",
    "town": "忠類協徳",
    "town_kana": "チュウルイキョウトク",
    "street": null,
    "office_name": null,
    "office_name_kana": null
  },
  "1729": {
    "postcode": "0891729",
    "prefecture": "北海道",
    "prefecture_kana": "ホッカイドウ",
    "prefecture_code": 1,
    "city": "中川郡幕別町",
    "city_kana": "ナカガワグンマクベツチョウ",
    "town": "忠類日和",
    "town_kana": "チュウルイヒヨリ",
    "street": null,
    "office_name": null,
    "office_name_kana": null
  },
  "1731": {
    "postcode": "0891731",
    "prefecture": "北海道",
    "prefecture_kana": "ホッカイドウ",
    "prefecture_code": 1,
    "city": "中川郡幕別町",
    "city_kana": "ナカガワグンマクベツチョウ",
    "town": "忠類公親",
    "town_kana": "チュウルイコウシン",
    "street": null,
    "office_name": null,
    "office_name_kana": null
  },
  "1795": {
    "postcode": "0891795",
    "prefecture": "北海道",
    "prefecture_kana": "ホッカイドウ",
    "prefecture_code": 1,
    "city": "中川郡幕別町",
    "city_kana": "ナカガワグンマクベツチョウ",
    "town": "忠類錦町",
    "town_kana": "チュウルイニシキマチ",
    "street": "４３９番地",
    "office_name": "幕別町役場　忠類総合支所",
    "office_name_kana": "マクベツチヨウヤクバ チユウルイソウゴウシシヨ"
  },
  "1871": {
    "postcode": "0891871",
    "prefecture": "北海道",
    "prefecture_kana": "ホッカイドウ",
    "prefecture_code": 1,
    "city": "中川郡幕別町",
    "city_kana": "ナカガワグンマクベツチョウ",
    "town": "忠類晩成",
    "town_kana": "チュウルイバンセイ",
    "street": null,
    "office_name": null,
    "office_name_kana": null
  },
  "1881": {
    "postcode": "0891881",
    "prefecture": "北海道",
    "prefecture_kana": "ホッカイドウ",
    "prefecture_code": 1,
    "city": "広尾郡大樹町",
    "city_kana": "ヒロオグンタイキチョウ",
    "town": "生花",
    "town_kana": "セイカ",
    "street": null,
    "office_name": null,
    "office_name_kana": null
  },
  "1882": {
    "postcode": "0891882",
    "prefecture": "北海道",
    "prefecture_kana": "ホッカイドウ",
    "prefecture_code": 1,
    "city": "広尾郡大樹町",
    "city_kana": "ヒロオグンタイキチョウ",
    "town": "晩成",
    "town_kana": "バンセイ",
    "street": null,
    "office_name": null,
    "office_name_kana": null
  },
  "2100": {
    "postcode": "0892100",
    "prefecture": "北海道",
    "prefecture_kana": "ホッカイドウ",
    "prefecture_code": 1,
    "city": "広尾郡大樹町",
    "city_kana": "ヒロオグンタイキチョウ",
    "town": "",
    "town_kana": "",
    "street": null,
    "office_name": null,
    "office_name_kana": null
  },
  "2101": {
    "postcode": "0892101",
    "prefecture": "北海道",
    "prefecture_kana": "ホッカイドウ",
    "prefecture_code": 1,
    "city": "広尾郡大樹町",
    "city_kana": "ヒロオグンタイキチョウ",
    "town": "東和",
    "town_kana": "トウワ",
    "street": null,
    "office_name": null,
    "office_name_kana": null
  },
  "2102": {
    "postcode": "0892102",
    "prefecture": "北海道",
    "prefecture_kana": "ホッカイドウ",
    "prefecture_code": 1,
    "city": "広尾郡大樹町",
    "city_kana": "ヒロオグンタイキチョウ",
    "town": "大和",
    "town_kana": "ヤマト",
    "street": null,
    "office_name": null,
    "office_name_kana": null
  },
  "2103": {
    "postcode": "0892103",
    "prefecture": "北海道",
    "prefecture_kana": "ホッカイドウ",
    "prefecture_code": 1,
    "city": "広尾郡大樹町",
    "city_kana": "ヒロオグンタイキチョウ",
    "town": "上大樹",
    "town_kana": "カミタイキ",
    "street": null,
    "office_name": null,
    "office_name_kana": null
  },
  "2104": {
    "postcode": "0892104",
    "prefecture": "北海道",
    "prefecture_kana": "ホッカイドウ",
    "prefecture_code": 1,
    "city": "広尾郡大樹町",
    "city_kana": "ヒロオグンタイキチョウ",
    "town": "中大樹",
    "town_kana": "ナカタイキ",
    "street": null,
    "office_name": null,
    "office_name_kana": null
  },
  "2105": {
    "postcode": "0892105",
    "prefecture": "北海道",
    "prefecture_kana": "ホッカイドウ",
    "prefecture_code": 1,
    "city": "広尾郡大樹町",
    "city_kana": "ヒロオグンタイキチョウ",
    "town": "大樹",
    "town_kana": "タイキ",
    "street": null,
    "office_name": null,
    "office_name_kana": null
  },
  "2106": {
    "postcode": "0892106",
    "prefecture": "北海道",
    "prefecture_kana": "ホッカイドウ",
    "prefecture_code": 1,
    "city": "広尾郡大樹町",
    "city_kana": "ヒロオグンタイキチョウ",
    "town": "下大樹",
    "town_kana": "シモタイキ",
    "street": null,
    "office_name": null,
    "office_name_kana": null
  },
  "2107": {
    "postcode": "0892107",
    "prefecture": "北海道",
    "prefecture_kana": "ホッカイドウ",
    "prefecture_code": 1,
    "city": "広尾郡大樹町",
    "city_kana": "ヒロオグンタイキチョウ",
    "town": "松山",
    "town_kana": "マツヤマ",
    "street": null,
    "office_name": null,
    "office_name_kana": null
  },
  "2111": {
    "postcode": "0892111",
    "prefecture": "北海道",
    "prefecture_kana": "ホッカイドウ",
    "prefecture_code": 1,
    "city": "広尾郡大樹町",
    "city_kana": "ヒロオグンタイキチョウ",
    "town": "上萠和",
    "town_kana": "カミモイワ",
    "street": null,
    "office_name": null,
    "office_name_kana": null
  },
  "2112": {
    "postcode": "0892112",
    "prefecture": "北海道",
    "prefecture_kana": "ホッカイドウ",
    "prefecture_code": 1,
    "city": "広尾郡大樹町",
    "city_kana": "ヒロオグンタイキチョウ",
    "town": "萠和",
    "town_kana": "モイワ",
    "street": null,
    "office_name": null,
    "office_name_kana": null
  },
  "2113": {
    "postcode": "0892113",
    "prefecture": "北海道",
    "prefecture_kana": "ホッカイドウ",
    "prefecture_code": 1,
    "city": "広尾郡大樹町",
    "city_kana": "ヒロオグンタイキチョウ",
    "town": "芽武",
    "town_kana": "メム",
    "street": null,
    "office_name": null,
    "office_name_kana": null
  },
  "2114": {
    "postcode": "0892114",
    "prefecture": "北海道",
    "prefecture_kana": "ホッカイドウ",
    "prefecture_code": 1,
    "city": "広尾郡大樹町",
    "city_kana": "ヒロオグンタイキチョウ",
    "town": "下芽武",
    "town_kana": "シモメム",
    "street": null,
    "office_name": null,
    "office_name_kana": null
  },
  "2115": {
    "postcode": "0892115",
    "prefecture": "北海道",
    "prefecture_kana": "ホッカイドウ",
    "prefecture_code": 1,
    "city": "広尾郡大樹町",
    "city_kana": "ヒロオグンタイキチョウ",
    "town": "美成",
    "town_kana": "ビセイ",
    "street": null,
    "office_name": null,
    "office_name_kana": null
  },
  "2116": {
    "postcode": "0892116",
    "prefecture": "北海道",
    "prefecture_kana": "ホッカイドウ",
    "prefecture_code": 1,
    "city": "広尾郡大樹町",
    "city_kana": "ヒロオグンタイキチョウ",
    "town": "浜大樹",
    "town_kana": "ハマタイキ",
    "street": null,
    "office_name": null,
    "office_name_kana": null
  },
  "2117": {
    "postcode": "0892117",
    "prefecture": "北海道",
    "prefecture_kana": "ホッカイドウ",
    "prefecture_code": 1,
    "city": "広尾郡大樹町",
    "city_kana": "ヒロオグンタイキチョウ",
    "town": "更生",
    "town_kana": "コウセイ",
    "street": null,
    "office_name": null,
    "office_name_kana": null
  },
  "2121": {
    "postcode": "0892121",
    "prefecture": "北海道",
    "prefecture_kana": "ホッカイドウ",
    "prefecture_code": 1,
    "city": "広尾郡大樹町",
    "city_kana": "ヒロオグンタイキチョウ",
    "town": "旭浜",
    "town_kana": "アサヒハマ",
    "street": null,
    "office_name": null,
    "office_name_kana": null
  },
  "2122": {
    "postcode": "0892122",
    "prefecture": "北海道",
    "prefecture_kana": "ホッカイドウ",
    "prefecture_code": 1,
    "city": "広尾郡大樹町",
    "city_kana": "ヒロオグンタイキチョウ",
    "town": "中島",
    "town_kana": "ナカジマ",
    "street": null,
    "office_name": null,
    "office_name_kana": null
  },
  "2123": {
    "postcode": "0892123",
    "prefecture": "北海道",
    "prefecture_kana": "ホッカイドウ",
    "prefecture_code": 1,
    "city": "広尾郡大樹町",
    "city_kana": "ヒロオグンタイキチョウ",
    "town": "上中島",
    "town_kana": "カミナカジマ",
    "street": null,
    "office_name": null,
    "office_name_kana": null
  },
  "2124": {
    "postcode": "0892124",
    "prefecture": "北海道",
    "prefecture_kana": "ホッカイドウ",
    "prefecture_code": 1,
    "city": "広尾郡大樹町",
    "city_kana": "ヒロオグンタイキチョウ",
    "town": "日方",
    "town_kana": "ヒカタ",
    "street": null,
    "office_name": null,
    "office_name_kana": null
  },
  "2125": {
    "postcode": "0892125",
    "prefecture": "北海道",
    "prefecture_kana": "ホッカイドウ",
    "prefecture_code": 1,
    "city": "広尾郡大樹町",
    "city_kana": "ヒロオグンタイキチョウ",
    "town": "石坂",
    "town_kana": "イシザカ",
    "street": null,
    "office_name": null,
    "office_name_kana": null
  },
  "2126": {
    "postcode": "0892126",
    "prefecture": "北海道",
    "prefecture_kana": "ホッカイドウ",
    "prefecture_code": 1,
    "city": "広尾郡大樹町",
    "city_kana": "ヒロオグンタイキチョウ",
    "town": "開進",
    "town_kana": "カイシン",
    "street": null,
    "office_name": null,
    "office_name_kana": null
  },
  "2127": {
    "postcode": "0892127",
    "prefecture": "北海道",
    "prefecture_kana": "ホッカイドウ",
    "prefecture_code": 1,
    "city": "広尾郡大樹町",
    "city_kana": "ヒロオグンタイキチョウ",
    "town": "振別",
    "town_kana": "フルベツ",
    "street": null,
    "office_name": null,
    "office_name_kana": null
  },
  "2131": {
    "postcode": "0892131",
    "prefecture": "北海道",
    "prefecture_kana": "ホッカイドウ",
    "prefecture_code": 1,
    "city": "広尾郡大樹町",
    "city_kana": "ヒロオグンタイキチョウ",
    "town": "松山町",
    "town_kana": "マツヤマチョウ",
    "street": null,
    "office_name": null,
    "office_name_kana": null
  },
  "2132": {
    "postcode": "0892132",
    "prefecture": "北海道",
    "prefecture_kana": "ホッカイドウ",
    "prefecture_code": 1,
    "city": "広尾郡大樹町",
    "city_kana": "ヒロオグンタイキチョウ",
    "town": "双葉町",
    "town_kana": "フタバチョウ",
    "street": null,
    "office_name": null,
    "office_name_kana": null
  },
  "2133": {
    "postcode": "0892133",
    "prefecture": "北海道",
    "prefecture_kana": "ホッカイドウ",
    "prefecture_code": 1,
    "city": "広尾郡大樹町",
    "city_kana": "ヒロオグンタイキチョウ",
    "town": "仲通",
    "town_kana": "ナカドオリ",
    "street": null,
    "office_name": null,
    "office_name_kana": null
  },
  "2134": {
    "postcode": "0892134",
    "prefecture": "北海道",
    "prefecture_kana": "ホッカイドウ",
    "prefecture_code": 1,
    "city": "広尾郡大樹町",
    "city_kana": "ヒロオグンタイキチョウ",
    "town": "東本通",
    "town_kana": "ヒガシホンドオリ",
    "street": null,
    "office_name": null,
    "office_name_kana": null
  },
  "2135": {
    "postcode": "0892135",
    "prefecture": "北海道",
    "prefecture_kana": "ホッカイドウ",
    "prefecture_code": 1,
    "city": "広尾郡大樹町",
    "city_kana": "ヒロオグンタイキチョウ",
    "town": "南通",
    "town_kana": "ミナミドオリ",
    "street": null,
    "office_name": null,
    "office_name_kana": null
  },
  "2136": {
    "postcode": "0892136",
    "prefecture": "北海道",
    "prefecture_kana": "ホッカイドウ",
    "prefecture_code": 1,
    "city": "広尾郡大樹町",
    "city_kana": "ヒロオグンタイキチョウ",
    "town": "新通",
    "town_kana": "シンドオリ",
    "street": null,
    "office_name": null,
    "office_name_kana": null
  },
  "2137": {
    "postcode": "0892137",
    "prefecture": "北海道",
    "prefecture_kana": "ホッカイドウ",
    "prefecture_code": 1,
    "city": "広尾郡大樹町",
    "city_kana": "ヒロオグンタイキチョウ",
    "town": "北通",
    "town_kana": "キタドオリ",
    "street": null,
    "office_name": null,
    "office_name_kana": null
  },
  "2138": {
    "postcode": "0892138",
    "prefecture": "北海道",
    "prefecture_kana": "ホッカイドウ",
    "prefecture_code": 1,
    "city": "広尾郡大樹町",
    "city_kana": "ヒロオグンタイキチョウ",
    "town": "柏木町",
    "town_kana": "カシワギチョウ",
    "street": null,
    "office_name": null,
    "office_name_kana": null
  },
  "2140": {
    "postcode": "0892140",
    "prefecture": "北海道",
    "prefecture_kana": "ホッカイドウ",
    "prefecture_code": 1,
    "city": "広尾郡大樹町",
    "city_kana": "ヒロオグンタイキチョウ",
    "town": "栄通",
    "town_kana": "サカエドオリ",
    "street": null,
    "office_name": null,
    "office_name_kana": null
  },
  "2141": {
    "postcode": "0892141",
    "prefecture": "北海道",
    "prefecture_kana": "ホッカイドウ",
    "prefecture_code": 1,
    "city": "広尾郡大樹町",
    "city_kana": "ヒロオグンタイキチョウ",
    "town": "一条通",
    "town_kana": "1ジョウドオリ",
    "street": null,
    "office_name": null,
    "office_name_kana": null
  },
  "2142": {
    "postcode": "0892142",
    "prefecture": "北海道",
    "prefecture_kana": "ホッカイドウ",
    "prefecture_code": 1,
    "city": "広尾郡大樹町",
    "city_kana": "ヒロオグンタイキチョウ",
    "town": "二条通",
    "town_kana": "2ジョウドオリ",
    "street": null,
    "office_name": null,
    "office_name_kana": null
  },
  "2143": {
    "postcode": "0892143",
    "prefecture": "北海道",
    "prefecture_kana": "ホッカイドウ",
    "prefecture_code": 1,
    "city": "広尾郡大樹町",
    "city_kana": "ヒロオグンタイキチョウ",
    "town": "三条通",
    "town_kana": "3ジョウドオリ",
    "street": null,
    "office_name": null,
    "office_name_kana": null
  },
  "2145": {
    "postcode": "0892145",
    "prefecture": "北海道",
    "prefecture_kana": "ホッカイドウ",
    "prefecture_code": 1,
    "city": "広尾郡大樹町",
    "city_kana": "ヒロオグンタイキチョウ",
    "town": "暁町",
    "town_kana": "アカツキチョウ",
    "street": null,
    "office_name": null,
    "office_name_kana": null
  },
  "2146": {
    "postcode": "0892146",
    "prefecture": "北海道",
    "prefecture_kana": "ホッカイドウ",
    "prefecture_code": 1,
    "city": "広尾郡大樹町",
    "city_kana": "ヒロオグンタイキチョウ",
    "town": "寿通",
    "town_kana": "コトブキドオリ",
    "street": null,
    "office_name": null,
    "office_name_kana": null
  },
  "2147": {
    "postcode": "0892147",
    "prefecture": "北海道",
    "prefecture_kana": "ホッカイドウ",
    "prefecture_code": 1,
    "city": "広尾郡大樹町",
    "city_kana": "ヒロオグンタイキチョウ",
    "town": "鏡町",
    "town_kana": "カガミチョウ",
    "street": null,
    "office_name": null,
    "office_name_kana": null
  },
  "2148": {
    "postcode": "0892148",
    "prefecture": "北海道",
    "prefecture_kana": "ホッカイドウ",
    "prefecture_code": 1,
    "city": "広尾郡大樹町",
    "city_kana": "ヒロオグンタイキチョウ",
    "town": "麻友",
    "town_kana": "マユウ",
    "street": null,
    "office_name": null,
    "office_name_kana": null
  },
  "2151": {
    "postcode": "0892151",
    "prefecture": "北海道",
    "prefecture_kana": "ホッカイドウ",
    "prefecture_code": 1,
    "city": "広尾郡大樹町",
    "city_kana": "ヒロオグンタイキチョウ",
    "town": "高校通",
    "town_kana": "コウコウドオリ",
    "street": null,
    "office_name": null,
    "office_name_kana": null
  },
  "2152": {
    "postcode": "0892152",
    "prefecture": "北海道",
    "prefecture_kana": "ホッカイドウ",
    "prefecture_code": 1,
    "city": "広尾郡大樹町",
    "city_kana": "ヒロオグンタイキチョウ",
    "town": "西本通",
    "town_kana": "ニシホンドオリ",
    "street": null,
    "office_name": null,
    "office_name_kana": null
  },
  "2153": {
    "postcode": "0892153",
    "prefecture": "北海道",
    "prefecture_kana": "ホッカイドウ",
    "prefecture_code": 1,
    "city": "広尾郡大樹町",
    "city_kana": "ヒロオグンタイキチョウ",
    "town": "南町",
    "town_kana": "ミナミマチ",
    "street": null,
    "office_name": null,
    "office_name_kana": null
  },
  "2154": {
    "postcode": "0892154",
    "prefecture": "北海道",
    "prefecture_kana": "ホッカイドウ",
    "prefecture_code": 1,
    "city": "広尾郡大樹町",
    "city_kana": "ヒロオグンタイキチョウ",
    "town": "幸町",
    "town_kana": "サイワイチョウ",
    "street": null,
    "office_name": null,
    "office_name_kana": null
  },
  "2155": {
    "postcode": "0892155",
    "prefecture": "北海道",
    "prefecture_kana": "ホッカイドウ",
    "prefecture_code": 1,
    "city": "広尾郡大樹町",
    "city_kana": "ヒロオグンタイキチョウ",
    "town": "緑町",
    "town_kana": "ミドリチョウ",
    "street": null,
    "office_name": null,
    "office_name_kana": null
  },
  "2156": {
    "postcode": "0892156",
    "prefecture": "北海道",
    "prefecture_kana": "ホッカイドウ",
    "prefecture_code": 1,
    "city": "広尾郡大樹町",
    "city_kana": "ヒロオグンタイキチョウ",
    "town": "緑苑",
    "town_kana": "ロクエン",
    "street": null,
    "office_name": null,
    "office_name_kana": null
  },
  "2195": {
    "postcode": "0892195",
    "prefecture": "北海道",
    "prefecture_kana": "ホッカイドウ",
    "prefecture_code": 1,
    "city": "広尾郡大樹町",
    "city_kana": "ヒロオグンタイキチョウ",
    "town": "東本通",
    "town_kana": "ヒガシホンドオリ",
    "street": "３３",
    "office_name": "大樹町役場",
    "office_name_kana": "タイキチヨウヤクバ"
  },
  "2261": [
    {
      "postcode": "0892261",
      "prefecture": "北海道",
      "prefecture_kana": "ホッカイドウ",
      "prefecture_code": 1,
      "city": "広尾郡大樹町",
      "city_kana": "ヒロオグンタイキチョウ",
      "town": "尾田",
      "town_kana": "オダ",
      "street": null,
      "office_name": null,
      "office_name_kana": null
    },
    {
      "postcode": "0892261",
      "prefecture": "北海道",
      "prefecture_kana": "ホッカイドウ",
      "prefecture_code": 1,
      "city": "広尾郡大樹町",
      "city_kana": "ヒロオグンタイキチョウ",
      "town": "拓北",
      "town_kana": "タクホク",
      "street": null,
      "office_name": null,
      "office_name_kana": null
    },
    {
      "postcode": "0892261",
      "prefecture": "北海道",
      "prefecture_kana": "ホッカイドウ",
      "prefecture_code": 1,
      "city": "広尾郡大樹町",
      "city_kana": "ヒロオグンタイキチョウ",
      "town": "豊里",
      "town_kana": "トヨサト",
      "street": null,
      "office_name": null,
      "office_name_kana": null
    }
  ],
  "2262": {
    "postcode": "0892262",
    "prefecture": "北海道",
    "prefecture_kana": "ホッカイドウ",
    "prefecture_code": 1,
    "city": "広尾郡大樹町",
    "city_kana": "ヒロオグンタイキチョウ",
    "town": "相川",
    "town_kana": "アイカワ",
    "street": null,
    "office_name": null,
    "office_name_kana": null
  },
  "2263": {
    "postcode": "0892263",
    "prefecture": "北海道",
    "prefecture_kana": "ホッカイドウ",
    "prefecture_code": 1,
    "city": "広尾郡大樹町",
    "city_kana": "ヒロオグンタイキチョウ",
    "town": "拓進",
    "town_kana": "タクシン",
    "street": null,
    "office_name": null,
    "office_name_kana": null
  },
  "2271": {
    "postcode": "0892271",
    "prefecture": "北海道",
    "prefecture_kana": "ホッカイドウ",
    "prefecture_code": 1,
    "city": "広尾郡大樹町",
    "city_kana": "ヒロオグンタイキチョウ",
    "town": "光地園",
    "town_kana": "コウチエン",
    "street": null,
    "office_name": null,
    "office_name_kana": null
  },
  "2272": [
    {
      "postcode": "0892272",
      "prefecture": "北海道",
      "prefecture_kana": "ホッカイドウ",
      "prefecture_code": 1,
      "city": "広尾郡大樹町",
      "city_kana": "ヒロオグンタイキチョウ",
      "town": "幸徳",
      "town_kana": "コウトク",
      "street": null,
      "office_name": null,
      "office_name_kana": null
    },
    {
      "postcode": "0892272",
      "prefecture": "北海道",
      "prefecture_kana": "ホッカイドウ",
      "prefecture_code": 1,
      "city": "広尾郡大樹町",
      "city_kana": "ヒロオグンタイキチョウ",
      "town": "住吉",
      "town_kana": "スミヨシ",
      "street": null,
      "office_name": null,
      "office_name_kana": null
    }
  ],
  "2273": [
    {
      "postcode": "0892273",
      "prefecture": "北海道",
      "prefecture_kana": "ホッカイドウ",
      "prefecture_code": 1,
      "city": "広尾郡大樹町",
      "city_kana": "ヒロオグンタイキチョウ",
      "town": "大光",
      "town_kana": "タイコウ",
      "street": null,
      "office_name": null,
      "office_name_kana": null
    },
    {
      "postcode": "0892273",
      "prefecture": "北海道",
      "prefecture_kana": "ホッカイドウ",
      "prefecture_code": 1,
      "city": "広尾郡大樹町",
      "city_kana": "ヒロオグンタイキチョウ",
      "town": "大全",
      "town_kana": "タイゼン",
      "street": null,
      "office_name": null,
      "office_name_kana": null
    }
  ],
  "2445": {
    "postcode": "0892445",
    "prefecture": "北海道",
    "prefecture_kana": "ホッカイドウ",
    "prefecture_code": 1,
    "city": "広尾郡広尾町",
    "city_kana": "ヒロオグンヒロオチョウ",
    "town": "カシュウンナイ",
    "town_kana": "カシュウンナイ",
    "street": null,
    "office_name": null,
    "office_name_kana": null
  },
  "2446": {
    "postcode": "0892446",
    "prefecture": "北海道",
    "prefecture_kana": "ホッカイドウ",
    "prefecture_code": 1,
    "city": "広尾郡広尾町",
    "city_kana": "ヒロオグンヒロオチョウ",
    "town": "紋別",
    "town_kana": "モンベツ",
    "street": null,
    "office_name": null,
    "office_name_kana": null
  },
  "2447": [
    {
      "postcode": "0892447",
      "prefecture": "北海道",
      "prefecture_kana": "ホッカイドウ",
      "prefecture_code": 1,
      "city": "広尾郡広尾町",
      "city_kana": "ヒロオグンヒロオチョウ",
      "town": "上豊似",
      "town_kana": "カミトヨニ",
      "street": null,
      "office_name": null,
      "office_name_kana": null
    },
    {
      "postcode": "0892447",
      "prefecture": "北海道",
      "prefecture_kana": "ホッカイドウ",
      "prefecture_code": 1,
      "city": "広尾郡広尾町",
      "city_kana": "ヒロオグンヒロオチョウ",
      "town": "下トヨイ",
      "town_kana": "シモトヨイ",
      "street": null,
      "office_name": null,
      "office_name_kana": null
    },
    {
      "postcode": "0892447",
      "prefecture": "北海道",
      "prefecture_kana": "ホッカイドウ",
      "prefecture_code": 1,
      "city": "広尾郡広尾町",
      "city_kana": "ヒロオグンヒロオチョウ",
      "town": "下豊似",
      "town_kana": "シモトヨニ",
      "street": null,
      "office_name": null,
      "office_name_kana": null
    },
    {
      "postcode": "0892447",
      "prefecture": "北海道",
      "prefecture_kana": "ホッカイドウ",
      "prefecture_code": 1,
      "city": "広尾郡広尾町",
      "city_kana": "ヒロオグンヒロオチョウ",
      "town": "トヨイベツ",
      "town_kana": "トヨイベツ",
      "street": null,
      "office_name": null,
      "office_name_kana": null
    }
  ],
  "2448": {
    "postcode": "0892448",
    "prefecture": "北海道",
    "prefecture_kana": "ホッカイドウ",
    "prefecture_code": 1,
    "city": "広尾郡広尾町",
    "city_kana": "ヒロオグンヒロオチョウ",
    "town": "上トヨイ",
    "town_kana": "カミトヨイ",
    "street": null,
    "office_name": null,
    "office_name_kana": null
  },
  "2455": {
    "postcode": "0892455",
    "prefecture": "北海道",
    "prefecture_kana": "ホッカイドウ",
    "prefecture_code": 1,
    "city": "広尾郡広尾町",
    "city_kana": "ヒロオグンヒロオチョウ",
    "town": "豊似",
    "town_kana": "トヨニ",
    "street": null,
    "office_name": null,
    "office_name_kana": null
  },
  "2492": {
    "postcode": "0892492",
    "prefecture": "北海道",
    "prefecture_kana": "ホッカイドウ",
    "prefecture_code": 1,
    "city": "広尾郡広尾町",
    "city_kana": "ヒロオグンヒロオチョウ",
    "town": "字紋別",
    "town_kana": null,
    "street": "１９線５１−２０",
    "office_name": "広尾町農業協同組合",
    "office_name_kana": "ヒロオチヨウノウギヨウキヨウドウクミアイ"
  },
  "2561": {
    "postcode": "0892561",
    "prefecture": "北海道",
    "prefecture_kana": "ホッカイドウ",
    "prefecture_code": 1,
    "city": "広尾郡広尾町",
    "city_kana": "ヒロオグンヒロオチョウ",
    "town": "野塚",
    "town_kana": "ノヅカ",
    "street": null,
    "office_name": null,
    "office_name_kana": null
  },
  "2562": {
    "postcode": "0892562",
    "prefecture": "北海道",
    "prefecture_kana": "ホッカイドウ",
    "prefecture_code": 1,
    "city": "広尾郡広尾町",
    "city_kana": "ヒロオグンヒロオチョウ",
    "town": "野塚西通",
    "town_kana": "ノヅカニシドオリ",
    "street": null,
    "office_name": null,
    "office_name_kana": null
  },
  "2563": {
    "postcode": "0892563",
    "prefecture": "北海道",
    "prefecture_kana": "ホッカイドウ",
    "prefecture_code": 1,
    "city": "広尾郡広尾町",
    "city_kana": "ヒロオグンヒロオチョウ",
    "town": "野塚東通",
    "town_kana": "ノヅカヒガシドオリ",
    "street": null,
    "office_name": null,
    "office_name_kana": null
  },
  "2564": {
    "postcode": "0892564",
    "prefecture": "北海道",
    "prefecture_kana": "ホッカイドウ",
    "prefecture_code": 1,
    "city": "広尾郡広尾町",
    "city_kana": "ヒロオグンヒロオチョウ",
    "town": "野塚本通",
    "town_kana": "ノヅカホンドオリ",
    "street": null,
    "office_name": null,
    "office_name_kana": null
  },
  "2600": {
    "postcode": "0892600",
    "prefecture": "北海道",
    "prefecture_kana": "ホッカイドウ",
    "prefecture_code": 1,
    "city": "広尾郡広尾町",
    "city_kana": "ヒロオグンヒロオチョウ",
    "town": "",
    "town_kana": "",
    "street": null,
    "office_name": null,
    "office_name_kana": null
  },
  "2601": {
    "postcode": "0892601",
    "prefecture": "北海道",
    "prefecture_kana": "ホッカイドウ",
    "prefecture_code": 1,
    "city": "広尾郡広尾町",
    "city_kana": "ヒロオグンヒロオチョウ",
    "town": "東一条",
    "town_kana": "ヒガシ1ジョウ",
    "street": null,
    "office_name": null,
    "office_name_kana": null
  },
  "2602": {
    "postcode": "0892602",
    "prefecture": "北海道",
    "prefecture_kana": "ホッカイドウ",
    "prefecture_code": 1,
    "city": "広尾郡広尾町",
    "city_kana": "ヒロオグンヒロオチョウ",
    "town": "東二条",
    "town_kana": "ヒガシ2ジョウ",
    "street": null,
    "office_name": null,
    "office_name_kana": null
  },
  "2603": {
    "postcode": "0892603",
    "prefecture": "北海道",
    "prefecture_kana": "ホッカイドウ",
    "prefecture_code": 1,
    "city": "広尾郡広尾町",
    "city_kana": "ヒロオグンヒロオチョウ",
    "town": "東三条",
    "town_kana": "ヒガシ3ジョウ",
    "street": null,
    "office_name": null,
    "office_name_kana": null
  },
  "2604": {
    "postcode": "0892604",
    "prefecture": "北海道",
    "prefecture_kana": "ホッカイドウ",
    "prefecture_code": 1,
    "city": "広尾郡広尾町",
    "city_kana": "ヒロオグンヒロオチョウ",
    "town": "会所通",
    "town_kana": "カイショドオリ",
    "street": null,
    "office_name": null,
    "office_name_kana": null
  },
  "2605": {
    "postcode": "0892605",
    "prefecture": "北海道",
    "prefecture_kana": "ホッカイドウ",
    "prefecture_code": 1,
    "city": "広尾郡広尾町",
    "city_kana": "ヒロオグンヒロオチョウ",
    "town": "会所前",
    "town_kana": "カイショマエ",
    "street": null,
    "office_name": null,
    "office_name_kana": null
  },
  "2611": {
    "postcode": "0892611",
    "prefecture": "北海道",
    "prefecture_kana": "ホッカイドウ",
    "prefecture_code": 1,
    "city": "広尾郡広尾町",
    "city_kana": "ヒロオグンヒロオチョウ",
    "town": "西一条",
    "town_kana": "ニシ1ジョウ",
    "street": null,
    "office_name": null,
    "office_name_kana": null
  },
  "2612": {
    "postcode": "0892612",
    "prefecture": "北海道",
    "prefecture_kana": "ホッカイドウ",
    "prefecture_code": 1,
    "city": "広尾郡広尾町",
    "city_kana": "ヒロオグンヒロオチョウ",
    "town": "西二条",
    "town_kana": "ニシ2ジョウ",
    "street": null,
    "office_name": null,
    "office_name_kana": null
  },
  "2613": {
    "postcode": "0892613",
    "prefecture": "北海道",
    "prefecture_kana": "ホッカイドウ",
    "prefecture_code": 1,
    "city": "広尾郡広尾町",
    "city_kana": "ヒロオグンヒロオチョウ",
    "town": "西三条",
    "town_kana": "ニシ3ジョウ",
    "street": null,
    "office_name": null,
    "office_name_kana": null
  },
  "2614": {
    "postcode": "0892614",
    "prefecture": "北海道",
    "prefecture_kana": "ホッカイドウ",
    "prefecture_code": 1,
    "city": "広尾郡広尾町",
    "city_kana": "ヒロオグンヒロオチョウ",
    "town": "西四条",
    "town_kana": "ニシ4ジョウ",
    "street": null,
    "office_name": null,
    "office_name_kana": null
  },
  "2615": {
    "postcode": "0892615",
    "prefecture": "北海道",
    "prefecture_kana": "ホッカイドウ",
    "prefecture_code": 1,
    "city": "広尾郡広尾町",
    "city_kana": "ヒロオグンヒロオチョウ",
    "town": "本通",
    "town_kana": "ホンドオリ",
    "street": null,
    "office_name": null,
    "office_name_kana": null
  },
  "2616": {
    "postcode": "0892616",
    "prefecture": "北海道",
    "prefecture_kana": "ホッカイドウ",
    "prefecture_code": 1,
    "city": "広尾郡広尾町",
    "city_kana": "ヒロオグンヒロオチョウ",
    "town": "陣屋",
    "town_kana": "ジンヤ",
    "street": null,
    "office_name": null,
    "office_name_kana": null
  },
  "2621": {
    "postcode": "0892621",
    "prefecture": "北海道",
    "prefecture_kana": "ホッカイドウ",
    "prefecture_code": 1,
    "city": "広尾郡広尾町",
    "city_kana": "ヒロオグンヒロオチョウ",
    "town": "公園通北",
    "town_kana": "コウエンドオリキタ",
    "street": null,
    "office_name": null,
    "office_name_kana": null
  },
  "2622": {
    "postcode": "0892622",
    "prefecture": "北海道",
    "prefecture_kana": "ホッカイドウ",
    "prefecture_code": 1,
    "city": "広尾郡広尾町",
    "city_kana": "ヒロオグンヒロオチョウ",
    "town": "公園通南",
    "town_kana": "コウエンドオリミナミ",
    "street": null,
    "office_name": null,
    "office_name_kana": null
  },
  "2623": {
    "postcode": "0892623",
    "prefecture": "北海道",
    "prefecture_kana": "ホッカイドウ",
    "prefecture_code": 1,
    "city": "広尾郡広尾町",
    "city_kana": "ヒロオグンヒロオチョウ",
    "town": "並木通西",
    "town_kana": "ナミキドオリニシ",
    "street": null,
    "office_name": null,
    "office_name_kana": null
  },
  "2624": {
    "postcode": "0892624",
    "prefecture": "北海道",
    "prefecture_kana": "ホッカイドウ",
    "prefecture_code": 1,
    "city": "広尾郡広尾町",
    "city_kana": "ヒロオグンヒロオチョウ",
    "town": "並木通東",
    "town_kana": "ナミキドオリヒガシ",
    "street": null,
    "office_name": null,
    "office_name_kana": null
  },
  "2625": {
    "postcode": "0892625",
    "prefecture": "北海道",
    "prefecture_kana": "ホッカイドウ",
    "prefecture_code": 1,
    "city": "広尾郡広尾町",
    "city_kana": "ヒロオグンヒロオチョウ",
    "town": "錦通北",
    "town_kana": "ニシキドオリキタ",
    "street": null,
    "office_name": null,
    "office_name_kana": null
  },
  "2626": {
    "postcode": "0892626",
    "prefecture": "北海道",
    "prefecture_kana": "ホッカイドウ",
    "prefecture_code": 1,
    "city": "広尾郡広尾町",
    "city_kana": "ヒロオグンヒロオチョウ",
    "town": "錦通南",
    "town_kana": "ニシキドオリミナミ",
    "street": null,
    "office_name": null,
    "office_name_kana": null
  },
  "2627": {
    "postcode": "0892627",
    "prefecture": "北海道",
    "prefecture_kana": "ホッカイドウ",
    "prefecture_code": 1,
    "city": "広尾郡広尾町",
    "city_kana": "ヒロオグンヒロオチョウ",
    "town": "丸山通北",
    "town_kana": "マルヤマドオリキタ",
    "street": null,
    "office_name": null,
    "office_name_kana": null
  },
  "2628": {
    "postcode": "0892628",
    "prefecture": "北海道",
    "prefecture_kana": "ホッカイドウ",
    "prefecture_code": 1,
    "city": "広尾郡広尾町",
    "city_kana": "ヒロオグンヒロオチョウ",
    "town": "丸山通南",
    "town_kana": "マルヤマドオリミナミ",
    "street": null,
    "office_name": null,
    "office_name_kana": null
  },
  "2631": {
    "postcode": "0892631",
    "prefecture": "北海道",
    "prefecture_kana": "ホッカイドウ",
    "prefecture_code": 1,
    "city": "広尾郡広尾町",
    "city_kana": "ヒロオグンヒロオチョウ",
    "town": "白樺通北",
    "town_kana": "シラカバドオリキタ",
    "street": null,
    "office_name": null,
    "office_name_kana": null
  },
  "2632": {
    "postcode": "0892632",
    "prefecture": "北海道",
    "prefecture_kana": "ホッカイドウ",
    "prefecture_code": 1,
    "city": "広尾郡広尾町",
    "city_kana": "ヒロオグンヒロオチョウ",
    "town": "白樺通南",
    "town_kana": "シラカバドオリミナミ",
    "street": null,
    "office_name": null,
    "office_name_kana": null
  },
  "2633": {
    "postcode": "0892633",
    "prefecture": "北海道",
    "prefecture_kana": "ホッカイドウ",
    "prefecture_code": 1,
    "city": "広尾郡広尾町",
    "city_kana": "ヒロオグンヒロオチョウ",
    "town": "美幌",
    "town_kana": "ビホロ",
    "street": null,
    "office_name": null,
    "office_name_kana": null
  },
  "2634": {
    "postcode": "0892634",
    "prefecture": "北海道",
    "prefecture_kana": "ホッカイドウ",
    "prefecture_code": 1,
    "city": "広尾郡広尾町",
    "city_kana": "ヒロオグンヒロオチョウ",
    "town": "フンベ",
    "town_kana": "フンベ",
    "street": null,
    "office_name": null,
    "office_name_kana": null
  },
  "2635": {
    "postcode": "0892635",
    "prefecture": "北海道",
    "prefecture_kana": "ホッカイドウ",
    "prefecture_code": 1,
    "city": "広尾郡広尾町",
    "city_kana": "ヒロオグンヒロオチョウ",
    "town": "紅葉通北",
    "town_kana": "モミジドオリキタ",
    "street": null,
    "office_name": null,
    "office_name_kana": null
  },
  "2636": {
    "postcode": "0892636",
    "prefecture": "北海道",
    "prefecture_kana": "ホッカイドウ",
    "prefecture_code": 1,
    "city": "広尾郡広尾町",
    "city_kana": "ヒロオグンヒロオチョウ",
    "town": "紅葉通南",
    "town_kana": "モミジドオリミナミ",
    "street": null,
    "office_name": null,
    "office_name_kana": null
  },
  "2637": {
    "postcode": "0892637",
    "prefecture": "北海道",
    "prefecture_kana": "ホッカイドウ",
    "prefecture_code": 1,
    "city": "広尾郡広尾町",
    "city_kana": "ヒロオグンヒロオチョウ",
    "town": "茂寄",
    "town_kana": "モヨリ",
    "street": null,
    "office_name": null,
    "office_name_kana": null
  },
  "2638": {
    "postcode": "0892638",
    "prefecture": "北海道",
    "prefecture_kana": "ホッカイドウ",
    "prefecture_code": 1,
    "city": "広尾郡広尾町",
    "city_kana": "ヒロオグンヒロオチョウ",
    "town": "茂寄南",
    "town_kana": "モヨリミナミ",
    "street": null,
    "office_name": null,
    "office_name_kana": null
  },
  "2692": {
    "postcode": "0892692",
    "prefecture": "北海道",
    "prefecture_kana": "ホッカイドウ",
    "prefecture_code": 1,
    "city": "広尾郡広尾町",
    "city_kana": "ヒロオグンヒロオチョウ",
    "town": "西四条",
    "town_kana": "ニシ4ジョウ",
    "street": "７丁目１番地（広尾郵便局私書箱第２号）",
    "office_name": "広尾町",
    "office_name_kana": "ヒロオチヨウ"
  },
  "2693": {
    "postcode": "0892693",
    "prefecture": "北海道",
    "prefecture_kana": "ホッカイドウ",
    "prefecture_code": 1,
    "city": "広尾郡広尾町",
    "city_kana": "ヒロオグンヒロオチョウ",
    "town": "西四条",
    "town_kana": "ニシ4ジョウ",
    "street": "７丁目１番地",
    "office_name": "広尾サンタランド事務局",
    "office_name_kana": "ヒロオサンタランドジムキヨク"
  },
  "2695": {
    "postcode": "0892695",
    "prefecture": "北海道",
    "prefecture_kana": "ホッカイドウ",
    "prefecture_code": 1,
    "city": "広尾郡広尾町",
    "city_kana": "ヒロオグンヒロオチョウ",
    "town": "西一条",
    "town_kana": "ニシ1ジョウ",
    "street": "８丁目（広尾郵便局私書箱第１号）",
    "office_name": "帯広信用金庫　広尾支店",
    "office_name_kana": "オビヒロシンヨウキンコ ヒロオシテン"
  },
  "2696": {
    "postcode": "0892696",
    "prefecture": "北海道",
    "prefecture_kana": "ホッカイドウ",
    "prefecture_code": 1,
    "city": "広尾郡広尾町",
    "city_kana": "ヒロオグンヒロオチョウ",
    "town": "本通",
    "town_kana": "ホンドオリ",
    "street": "７丁目（広尾郵便局私書箱第３号）",
    "office_name": "株式会社　北海道銀行　広尾支店",
    "office_name_kana": "カブシキガイシヤ ホツカイドウギンコウ ヒロオシテン"
  },
  "2697": {
    "postcode": "0892697",
    "prefecture": "北海道",
    "prefecture_kana": "ホッカイドウ",
    "prefecture_code": 1,
    "city": "広尾郡広尾町",
    "city_kana": "ヒロオグンヒロオチョウ",
    "town": "本通",
    "town_kana": "ホンドオリ",
    "street": "８丁目（広尾郵便局私書箱第６号）",
    "office_name": "日高信用金庫　広尾支店",
    "office_name_kana": "ヒダカシンヨウキンコ ヒロオシテン"
  },
  "2771": {
    "postcode": "0892771",
    "prefecture": "北海道",
    "prefecture_kana": "ホッカイドウ",
    "prefecture_code": 1,
    "city": "広尾郡広尾町",
    "city_kana": "ヒロオグンヒロオチョウ",
    "town": "音調津",
    "town_kana": "オシラベツ",
    "street": null,
    "office_name": null,
    "office_name_kana": null
  },
  "2772": {
    "postcode": "0892772",
    "prefecture": "北海道",
    "prefecture_kana": "ホッカイドウ",
    "prefecture_code": 1,
    "city": "広尾郡広尾町",
    "city_kana": "ヒロオグンヒロオチョウ",
    "town": "音調津区画外",
    "town_kana": "オシラベツクカクガイ",
    "street": null,
    "office_name": null,
    "office_name_kana": null
  },
  "2773": {
    "postcode": "0892773",
    "prefecture": "北海道",
    "prefecture_kana": "ホッカイドウ",
    "prefecture_code": 1,
    "city": "広尾郡広尾町",
    "city_kana": "ヒロオグンヒロオチョウ",
    "town": "モエケシ",
    "town_kana": "モエケシ",
    "street": null,
    "office_name": null,
    "office_name_kana": null
  },
  "2774": {
    "postcode": "0892774",
    "prefecture": "北海道",
    "prefecture_kana": "ホッカイドウ",
    "prefecture_code": 1,
    "city": "広尾郡広尾町",
    "city_kana": "ヒロオグンヒロオチョウ",
    "town": "ルベシベツ",
    "town_kana": "ルベシベツ",
    "street": null,
    "office_name": null,
    "office_name_kana": null
  },
  "2775": {
    "postcode": "0892775",
    "prefecture": "北海道",
    "prefecture_kana": "ホッカイドウ",
    "prefecture_code": 1,
    "city": "広尾郡広尾町",
    "city_kana": "ヒロオグンヒロオチョウ",
    "town": "タニイソ",
    "town_kana": "タニイソ",
    "street": null,
    "office_name": null,
    "office_name_kana": null
  },
  "2776": {
    "postcode": "0892776",
    "prefecture": "北海道",
    "prefecture_kana": "ホッカイドウ",
    "prefecture_code": 1,
    "city": "広尾郡広尾町",
    "city_kana": "ヒロオグンヒロオチョウ",
    "town": "ビタタヌンケ",
    "town_kana": "ビタタヌンケ",
    "street": null,
    "office_name": null,
    "office_name_kana": null
  },
  "3151": {
    "postcode": "0893151",
    "prefecture": "北海道",
    "prefecture_kana": "ホッカイドウ",
    "prefecture_code": 1,
    "city": "中川郡池田町",
    "city_kana": "ナカガワグンイケダチョウ",
    "town": "大森",
    "town_kana": "オオモリ",
    "street": null,
    "office_name": null,
    "office_name_kana": null
  },
  "3152": {
    "postcode": "0893152",
    "prefecture": "北海道",
    "prefecture_kana": "ホッカイドウ",
    "prefecture_code": 1,
    "city": "中川郡池田町",
    "city_kana": "ナカガワグンイケダチョウ",
    "town": "高島",
    "town_kana": "タカシマ",
    "street": null,
    "office_name": null,
    "office_name_kana": null
  },
  "3153": {
    "postcode": "0893153",
    "prefecture": "北海道",
    "prefecture_kana": "ホッカイドウ",
    "prefecture_code": 1,
    "city": "中川郡池田町",
    "city_kana": "ナカガワグンイケダチョウ",
    "town": "近牛",
    "town_kana": "チカウシ",
    "street": null,
    "office_name": null,
    "office_name_kana": null
  },
  "3154": {
    "postcode": "0893154",
    "prefecture": "北海道",
    "prefecture_kana": "ホッカイドウ",
    "prefecture_code": 1,
    "city": "中川郡池田町",
    "city_kana": "ナカガワグンイケダチョウ",
    "town": "信取",
    "town_kana": "ノブトリ",
    "street": null,
    "office_name": null,
    "office_name_kana": null
  },
  "3155": {
    "postcode": "0893155",
    "prefecture": "北海道",
    "prefecture_kana": "ホッカイドウ",
    "prefecture_code": 1,
    "city": "中川郡池田町",
    "city_kana": "ナカガワグンイケダチョウ",
    "town": "美加登",
    "town_kana": "ミカド",
    "street": null,
    "office_name": null,
    "office_name_kana": null
  },
  "3156": {
    "postcode": "0893156",
    "prefecture": "北海道",
    "prefecture_kana": "ホッカイドウ",
    "prefecture_code": 1,
    "city": "中川郡池田町",
    "city_kana": "ナカガワグンイケダチョウ",
    "town": "常盤",
    "town_kana": "トキワ",
    "street": null,
    "office_name": null,
    "office_name_kana": null
  },
  "3281": {
    "postcode": "0893281",
    "prefecture": "北海道",
    "prefecture_kana": "ホッカイドウ",
    "prefecture_code": 1,
    "city": "中川郡本別町",
    "city_kana": "ナカガワグンホンベツチョウ",
    "town": "勇足元町",
    "town_kana": "ユウタリモトマチ",
    "street": null,
    "office_name": null,
    "office_name_kana": null
  },
  "3282": {
    "postcode": "0893282",
    "prefecture": "北海道",
    "prefecture_kana": "ホッカイドウ",
    "prefecture_code": 1,
    "city": "中川郡本別町",
    "city_kana": "ナカガワグンホンベツチョウ",
    "town": "勇足",
    "town_kana": "ユウタリ",
    "street": null,
    "office_name": null,
    "office_name_kana": null
  },
  "3283": {
    "postcode": "0893283",
    "prefecture": "北海道",
    "prefecture_kana": "ホッカイドウ",
    "prefecture_code": 1,
    "city": "中川郡本別町",
    "city_kana": "ナカガワグンホンベツチョウ",
    "town": "押帯",
    "town_kana": "オショツプ",
    "street": null,
    "office_name": null,
    "office_name_kana": null
  },
  "3284": {
    "postcode": "0893284",
    "prefecture": "北海道",
    "prefecture_kana": "ホッカイドウ",
    "prefecture_code": 1,
    "city": "中川郡本別町",
    "city_kana": "ナカガワグンホンベツチョウ",
    "town": "美蘭別",
    "town_kana": "ビランベツ",
    "street": null,
    "office_name": null,
    "office_name_kana": null
  },
  "3300": {
    "postcode": "0893300",
    "prefecture": "北海道",
    "prefecture_kana": "ホッカイドウ",
    "prefecture_code": 1,
    "city": "中川郡本別町",
    "city_kana": "ナカガワグンホンベツチョウ",
    "town": "",
    "town_kana": "",
    "street": null,
    "office_name": null,
    "office_name_kana": null
  },
  "3301": {
    "postcode": "0893301",
    "prefecture": "北海道",
    "prefecture_kana": "ホッカイドウ",
    "prefecture_code": 1,
    "city": "中川郡本別町",
    "city_kana": "ナカガワグンホンベツチョウ",
    "town": "東本別",
    "town_kana": "ヒガシホンベツ",
    "street": null,
    "office_name": null,
    "office_name_kana": null
  },
  "3302": {
    "postcode": "0893302",
    "prefecture": "北海道",
    "prefecture_kana": "ホッカイドウ",
    "prefecture_code": 1,
    "city": "中川郡本別町",
    "city_kana": "ナカガワグンホンベツチョウ",
    "town": "東町",
    "town_kana": "ヒガシマチ",
    "street": null,
    "office_name": null,
    "office_name_kana": null
  },
  "3303": {
    "postcode": "0893303",
    "prefecture": "北海道",
    "prefecture_kana": "ホッカイドウ",
    "prefecture_code": 1,
    "city": "中川郡本別町",
    "city_kana": "ナカガワグンホンベツチョウ",
    "town": "向陽町",
    "town_kana": "コウヨウチョウ",
    "street": null,
    "office_name": null,
    "office_name_kana": null
  },
  "3304": {
    "postcode": "0893304",
    "prefecture": "北海道",
    "prefecture_kana": "ホッカイドウ",
    "prefecture_code": 1,
    "city": "中川郡本別町",
    "city_kana": "ナカガワグンホンベツチョウ",
    "town": "坂下町",
    "town_kana": "サカシタマチ",
    "street": null,
    "office_name": null,
    "office_name_kana": null
  },
  "3305": {
    "postcode": "0893305",
    "prefecture": "北海道",
    "prefecture_kana": "ホッカイドウ",
    "prefecture_code": 1,
    "city": "中川郡本別町",
    "city_kana": "ナカガワグンホンベツチョウ",
    "town": "共栄",
    "town_kana": "キョウエイ",
    "street": null,
    "office_name": null,
    "office_name_kana": null
  },
  "3306": {
    "postcode": "0893306",
    "prefecture": "北海道",
    "prefecture_kana": "ホッカイドウ",
    "prefecture_code": 1,
    "city": "中川郡本別町",
    "city_kana": "ナカガワグンホンベツチョウ",
    "town": "チエトイ",
    "town_kana": "チエトイ",
    "street": null,
    "office_name": null,
    "office_name_kana": null
  },
  "3307": {
    "postcode": "0893307",
    "prefecture": "北海道",
    "prefecture_kana": "ホッカイドウ",
    "prefecture_code": 1,
    "city": "中川郡本別町",
    "city_kana": "ナカガワグンホンベツチョウ",
    "town": "負箙",
    "town_kana": "オフイビラ",
    "street": null,
    "office_name": null,
    "office_name_kana": null
  },
  "3308": {
    "postcode": "0893308",
    "prefecture": "北海道",
    "prefecture_kana": "ホッカイドウ",
    "prefecture_code": 1,
    "city": "中川郡本別町",
    "city_kana": "ナカガワグンホンベツチョウ",
    "town": "弥生町",
    "town_kana": "ヤヨイマチ",
    "street": null,
    "office_name": null,
    "office_name_kana": null
  },
  "3311": {
    "postcode": "0893311",
    "prefecture": "北海道",
    "prefecture_kana": "ホッカイドウ",
    "prefecture_code": 1,
    "city": "中川郡本別町",
    "city_kana": "ナカガワグンホンベツチョウ",
    "town": "柏木町",
    "town_kana": "カシワギチョウ",
    "street": null,
    "office_name": null,
    "office_name_kana": null
  },
  "3312": {
    "postcode": "0893312",
    "prefecture": "北海道",
    "prefecture_kana": "ホッカイドウ",
    "prefecture_code": 1,
    "city": "中川郡本別町",
    "city_kana": "ナカガワグンホンベツチョウ",
    "town": "緑町",
    "town_kana": "ミドリマチ",
    "street": null,
    "office_name": null,
    "office_name_kana": null
  },
  "3313": {
    "postcode": "0893313",
    "prefecture": "北海道",
    "prefecture_kana": "ホッカイドウ",
    "prefecture_code": 1,
    "city": "中川郡本別町",
    "city_kana": "ナカガワグンホンベツチョウ",
    "town": "柳町",
    "town_kana": "ヤナギマチ",
    "street": null,
    "office_name": null,
    "office_name_kana": null
  },
  "3314": {
    "postcode": "0893314",
    "prefecture": "北海道",
    "prefecture_kana": "ホッカイドウ",
    "prefecture_code": 1,
    "city": "中川郡本別町",
    "city_kana": "ナカガワグンホンベツチョウ",
    "town": "南",
    "town_kana": "ミナミ",
    "street": null,
    "office_name": null,
    "office_name_kana": null
  },
  "3321": [
    {
      "postcode": "0893321",
      "prefecture": "北海道",
      "prefecture_kana": "ホッカイドウ",
      "prefecture_code": 1,
      "city": "中川郡本別町",
      "city_kana": "ナカガワグンホンベツチョウ",
      "town": "上本別",
      "town_kana": "カミホンベツ",
      "street": null,
      "office_name": null,
      "office_name_kana": null
    },
    {
      "postcode": "0893321",
      "prefecture": "北海道",
      "prefecture_kana": "ホッカイドウ",
      "prefecture_code": 1,
      "city": "中川郡本別町",
      "city_kana": "ナカガワグンホンベツチョウ",
      "town": "上本別フラツナイ",
      "town_kana": "カミホンベツフラツナイ",
      "street": null,
      "office_name": null,
      "office_name_kana": null
    }
  ],
  "3322": {
    "postcode": "0893322",
    "prefecture": "北海道",
    "prefecture_kana": "ホッカイドウ",
    "prefecture_code": 1,
    "city": "中川郡本別町",
    "city_kana": "ナカガワグンホンベツチョウ",
    "town": "栄町",
    "town_kana": "サカエマチ",
    "street": null,
    "office_name": null,
    "office_name_kana": null
  },
  "3323": [
    {
      "postcode": "0893323",
      "prefecture": "北海道",
      "prefecture_kana": "ホッカイドウ",
      "prefecture_code": 1,
      "city": "中川郡本別町",
      "city_kana": "ナカガワグンホンベツチョウ",
      "town": "美里別",
      "town_kana": "ビリベツ",
      "street": null,
      "office_name": null,
      "office_name_kana": null
    },
    {
      "postcode": "0893323",
      "prefecture": "北海道",
      "prefecture_kana": "ホッカイドウ",
      "prefecture_code": 1,
      "city": "中川郡本別町",
      "city_kana": "ナカガワグンホンベツチョウ",
      "town": "美里別東下",
      "town_kana": "ビリベツヒガシシモ",
      "street": null,
      "office_name": null,
      "office_name_kana": null
    }
  ],
  "3324": {
    "postcode": "0893324",
    "prefecture": "北海道",
    "prefecture_kana": "ホッカイドウ",
    "prefecture_code": 1,
    "city": "中川郡本別町",
    "city_kana": "ナカガワグンホンベツチョウ",
    "town": "新町",
    "town_kana": "シンマチ",
    "street": null,
    "office_name": null,
    "office_name_kana": null
  },
  "3325": {
    "postcode": "0893325",
    "prefecture": "北海道",
    "prefecture_kana": "ホッカイドウ",
    "prefecture_code": 1,
    "city": "中川郡本別町",
    "city_kana": "ナカガワグンホンベツチョウ",
    "town": "西美里別",
    "town_kana": "ニシビリベツ",
    "street": null,
    "office_name": null,
    "office_name_kana": null
  },
  "3326": [
    {
      "postcode": "0893326",
      "prefecture": "北海道",
      "prefecture_kana": "ホッカイドウ",
      "prefecture_code": 1,
      "city": "中川郡本別町",
      "city_kana": "ナカガワグンホンベツチョウ",
      "town": "美里別",
      "town_kana": "ビリベツ",
      "street": null,
      "office_name": null,
      "office_name_kana": null
    },
    {
      "postcode": "0893326",
      "prefecture": "北海道",
      "prefecture_kana": "ホッカイドウ",
      "prefecture_code": 1,
      "city": "中川郡本別町",
      "city_kana": "ナカガワグンホンベツチョウ",
      "town": "美里別高東",
      "town_kana": "ビリベツコウトウ",
      "street": null,
      "office_name": null,
      "office_name_kana": null
    }
  ],
  "3327": {
    "postcode": "0893327",
    "prefecture": "北海道",
    "prefecture_kana": "ホッカイドウ",
    "prefecture_code": 1,
    "city": "中川郡本別町",
    "city_kana": "ナカガワグンホンベツチョウ",
    "town": "追名牛",
    "town_kana": "オイナウシ",
    "street": null,
    "office_name": null,
    "office_name_kana": null
  },
  "3331": {
    "postcode": "0893331",
    "prefecture": "北海道",
    "prefecture_kana": "ホッカイドウ",
    "prefecture_code": 1,
    "city": "中川郡本別町",
    "city_kana": "ナカガワグンホンベツチョウ",
    "town": "錦町",
    "town_kana": "ニシキマチ",
    "street": null,
    "office_name": null,
    "office_name_kana": null
  },
  "3332": {
    "postcode": "0893332",
    "prefecture": "北海道",
    "prefecture_kana": "ホッカイドウ",
    "prefecture_code": 1,
    "city": "中川郡本別町",
    "city_kana": "ナカガワグンホンベツチョウ",
    "town": "朝日町",
    "town_kana": "アサヒマチ",
    "street": null,
    "office_name": null,
    "office_name_kana": null
  },
  "3333": {
    "postcode": "0893333",
    "prefecture": "北海道",
    "prefecture_kana": "ホッカイドウ",
    "prefecture_code": 1,
    "city": "中川郡本別町",
    "city_kana": "ナカガワグンホンベツチョウ",
    "town": "山手町",
    "town_kana": "ヤマテマチ",
    "street": null,
    "office_name": null,
    "office_name_kana": null
  },
  "3334": [
    {
      "postcode": "0893334",
      "prefecture": "北海道",
      "prefecture_kana": "ホッカイドウ",
      "prefecture_code": 1,
      "city": "中川郡本別町",
      "city_kana": "ナカガワグンホンベツチョウ",
      "town": "北",
      "town_kana": "キタ",
      "street": null,
      "office_name": null,
      "office_name_kana": null
    },
    {
      "postcode": "0893334",
      "prefecture": "北海道",
      "prefecture_kana": "ホッカイドウ",
      "prefecture_code": 1,
      "city": "中川郡本別町",
      "city_kana": "ナカガワグンホンベツチョウ",
      "town": "清流町",
      "town_kana": "セイリュウチョウ",
      "street": null,
      "office_name": null,
      "office_name_kana": null
    }
  ],
  "3392": {
    "postcode": "0893392",
    "prefecture": "北海道",
    "prefecture_kana": "ホッカイドウ",
    "prefecture_code": 1,
    "city": "中川郡本別町",
    "city_kana": "ナカガワグンホンベツチョウ",
    "town": "北",
    "town_kana": "キタ",
    "street": "２丁目４−１（本別郵便局私書箱第８号）",
    "office_name": "本別町役場",
    "office_name_kana": "ホンベツチヨウヤクバ"
  },
  "3442": [
    {
      "postcode": "0893442",
      "prefecture": "北海道",
      "prefecture_kana": "ホッカイドウ",
      "prefecture_code": 1,
      "city": "中川郡本別町",
      "city_kana": "ナカガワグンホンベツチョウ",
      "town": "美里別",
      "town_kana": "ビリベツ",
      "street": null,
      "office_name": null,
      "office_name_kana": null
    },
    {
      "postcode": "0893442",
      "prefecture": "北海道",
      "prefecture_kana": "ホッカイドウ",
      "prefecture_code": 1,
      "city": "中川郡本別町",
      "city_kana": "ナカガワグンホンベツチョウ",
      "town": "美里別拓農",
      "town_kana": "ビリベツタクノウ",
      "street": null,
      "office_name": null,
      "office_name_kana": null
    },
    {
      "postcode": "0893442",
      "prefecture": "北海道",
      "prefecture_kana": "ホッカイドウ",
      "prefecture_code": 1,
      "city": "中川郡本別町",
      "city_kana": "ナカガワグンホンベツチョウ",
      "town": "美里別東活込",
      "town_kana": "ビリベツヒガシカッコミ",
      "street": null,
      "office_name": null,
      "office_name_kana": null
    },
    {
      "postcode": "0893442",
      "prefecture": "北海道",
      "prefecture_kana": "ホッカイドウ",
      "prefecture_code": 1,
      "city": "中川郡本別町",
      "city_kana": "ナカガワグンホンベツチョウ",
      "town": "美里別東上",
      "town_kana": "ビリベツヒガシカミ",
      "street": null,
      "office_name": null,
      "office_name_kana": null
    },
    {
      "postcode": "0893442",
      "prefecture": "北海道",
      "prefecture_kana": "ホッカイドウ",
      "prefecture_code": 1,
      "city": "中川郡本別町",
      "city_kana": "ナカガワグンホンベツチョウ",
      "town": "美里別東中",
      "town_kana": "ビリベツヒガシナカ",
      "street": null,
      "office_name": null,
      "office_name_kana": null
    }
  ],
  "3443": [
    {
      "postcode": "0893443",
      "prefecture": "北海道",
      "prefecture_kana": "ホッカイドウ",
      "prefecture_code": 1,
      "city": "中川郡本別町",
      "city_kana": "ナカガワグンホンベツチョウ",
      "town": "西美里別",
      "town_kana": "ニシビリベツ",
      "street": null,
      "office_name": null,
      "office_name_kana": null
    },
    {
      "postcode": "0893443",
      "prefecture": "北海道",
      "prefecture_kana": "ホッカイドウ",
      "prefecture_code": 1,
      "city": "中川郡本別町",
      "city_kana": "ナカガワグンホンベツチョウ",
      "town": "西美里別西活込",
      "town_kana": "ニシビリベツニシカッコミ",
      "street": null,
      "office_name": null,
      "office_name_kana": null
    },
    {
      "postcode": "0893443",
      "prefecture": "北海道",
      "prefecture_kana": "ホッカイドウ",
      "prefecture_code": 1,
      "city": "中川郡本別町",
      "city_kana": "ナカガワグンホンベツチョウ",
      "town": "西美里別西上",
      "town_kana": "ニシビリベツニシカミ",
      "street": null,
      "office_name": null,
      "office_name_kana": null
    },
    {
      "postcode": "0893443",
      "prefecture": "北海道",
      "prefecture_kana": "ホッカイドウ",
      "prefecture_code": 1,
      "city": "中川郡本別町",
      "city_kana": "ナカガワグンホンベツチョウ",
      "town": "西美里別西中",
      "town_kana": "ニシビリベツニシナカ",
      "street": null,
      "office_name": null,
      "office_name_kana": null
    }
  ],
  "3571": {
    "postcode": "0893571",
    "prefecture": "北海道",
    "prefecture_kana": "ホッカイドウ",
    "prefecture_code": 1,
    "city": "十勝郡浦幌町",
    "city_kana": "トカチグンウラホロチョウ",
    "town": "恩根内",
    "town_kana": "オンネナイ",
    "street": null,
    "office_name": null,
    "office_name_kana": null
  },
  "3572": {
    "postcode": "0893572",
    "prefecture": "北海道",
    "prefecture_kana": "ホッカイドウ",
    "prefecture_code": 1,
    "city": "十勝郡浦幌町",
    "city_kana": "トカチグンウラホロチョウ",
    "town": "川流布",
    "town_kana": "カワリュウフ",
    "street": null,
    "office_name": null,
    "office_name_kana": null
  },
  "3573": {
    "postcode": "0893573",
    "prefecture": "北海道",
    "prefecture_kana": "ホッカイドウ",
    "prefecture_code": 1,
    "city": "十勝郡浦幌町",
    "city_kana": "トカチグンウラホロチョウ",
    "town": "富川",
    "town_kana": "トミカワ",
    "street": null,
    "office_name": null,
    "office_name_kana": null
  },
  "3574": {
    "postcode": "0893574",
    "prefecture": "北海道",
    "prefecture_kana": "ホッカイドウ",
    "prefecture_code": 1,
    "city": "十勝郡浦幌町",
    "city_kana": "トカチグンウラホロチョウ",
    "town": "活平",
    "town_kana": "カツヒラ",
    "street": null,
    "office_name": null,
    "office_name_kana": null
  },
  "3575": {
    "postcode": "0893575",
    "prefecture": "北海道",
    "prefecture_kana": "ホッカイドウ",
    "prefecture_code": 1,
    "city": "十勝郡浦幌町",
    "city_kana": "トカチグンウラホロチョウ",
    "town": "美園",
    "town_kana": "ミソノ",
    "street": null,
    "office_name": null,
    "office_name_kana": null
  },
  "3576": {
    "postcode": "0893576",
    "prefecture": "北海道",
    "prefecture_kana": "ホッカイドウ",
    "prefecture_code": 1,
    "city": "十勝郡浦幌町",
    "city_kana": "トカチグンウラホロチョウ",
    "town": "相川",
    "town_kana": "アイカワ",
    "street": null,
    "office_name": null,
    "office_name_kana": null
  },
  "3577": {
    "postcode": "0893577",
    "prefecture": "北海道",
    "prefecture_kana": "ホッカイドウ",
    "prefecture_code": 1,
    "city": "十勝郡浦幌町",
    "city_kana": "トカチグンウラホロチョウ",
    "town": "合流",
    "town_kana": "ゴウリュウ",
    "street": null,
    "office_name": null,
    "office_name_kana": null
  },
  "3578": {
    "postcode": "0893578",
    "prefecture": "北海道",
    "prefecture_kana": "ホッカイドウ",
    "prefecture_code": 1,
    "city": "十勝郡浦幌町",
    "city_kana": "トカチグンウラホロチョウ",
    "town": "宝生",
    "town_kana": "ホウセイ",
    "street": null,
    "office_name": null,
    "office_name_kana": null
  },
  "3585": {
    "postcode": "0893585",
    "prefecture": "北海道",
    "prefecture_kana": "ホッカイドウ",
    "prefecture_code": 1,
    "city": "十勝郡浦幌町",
    "city_kana": "トカチグンウラホロチョウ",
    "town": "川上",
    "town_kana": "カワカミ",
    "street": null,
    "office_name": null,
    "office_name_kana": null
  },
  "3586": {
    "postcode": "0893586",
    "prefecture": "北海道",
    "prefecture_kana": "ホッカイドウ",
    "prefecture_code": 1,
    "city": "十勝郡浦幌町",
    "city_kana": "トカチグンウラホロチョウ",
    "town": "栄穂",
    "town_kana": "エイホ",
    "street": null,
    "office_name": null,
    "office_name_kana": null
  },
  "3587": {
    "postcode": "0893587",
    "prefecture": "北海道",
    "prefecture_kana": "ホッカイドウ",
    "prefecture_code": 1,
    "city": "十勝郡浦幌町",
    "city_kana": "トカチグンウラホロチョウ",
    "town": "貴老路",
    "town_kana": "キロロ",
    "street": null,
    "office_name": null,
    "office_name_kana": null
  },
  "3661": {
    "postcode": "0893661",
    "prefecture": "北海道",
    "prefecture_kana": "ホッカイドウ",
    "prefecture_code": 1,
    "city": "中川郡本別町",
    "city_kana": "ナカガワグンホンベツチョウ",
    "town": "美栄",
    "town_kana": "ビエイ",
    "street": null,
    "office_name": null,
    "office_name_kana": null
  },
  "3662": {
    "postcode": "0893662",
    "prefecture": "北海道",
    "prefecture_kana": "ホッカイドウ",
    "prefecture_code": 1,
    "city": "中川郡本別町",
    "city_kana": "ナカガワグンホンベツチョウ",
    "town": "奥仙美里",
    "town_kana": "オクセンビリ",
    "street": null,
    "office_name": null,
    "office_name_kana": null
  },
  "3663": {
    "postcode": "0893663",
    "prefecture": "北海道",
    "prefecture_kana": "ホッカイドウ",
    "prefecture_code": 1,
    "city": "中川郡本別町",
    "city_kana": "ナカガワグンホンベツチョウ",
    "town": "仙美里",
    "town_kana": "センビリ",
    "street": null,
    "office_name": null,
    "office_name_kana": null
  },
  "3664": {
    "postcode": "0893664",
    "prefecture": "北海道",
    "prefecture_kana": "ホッカイドウ",
    "prefecture_code": 1,
    "city": "中川郡本別町",
    "city_kana": "ナカガワグンホンベツチョウ",
    "town": "仙美里元町",
    "town_kana": "センビリモトマチ",
    "street": null,
    "office_name": null,
    "office_name_kana": null
  },
  "3665": {
    "postcode": "0893665",
    "prefecture": "北海道",
    "prefecture_kana": "ホッカイドウ",
    "prefecture_code": 1,
    "city": "中川郡本別町",
    "city_kana": "ナカガワグンホンベツチョウ",
    "town": "清里",
    "town_kana": "キヨサト",
    "street": null,
    "office_name": null,
    "office_name_kana": null
  },
  "3666": {
    "postcode": "0893666",
    "prefecture": "北海道",
    "prefecture_kana": "ホッカイドウ",
    "prefecture_code": 1,
    "city": "中川郡本別町",
    "city_kana": "ナカガワグンホンベツチョウ",
    "town": "上仙美里",
    "town_kana": "カミセンビリ",
    "street": null,
    "office_name": null,
    "office_name_kana": null
  },
  "3671": {
    "postcode": "0893671",
    "prefecture": "北海道",
    "prefecture_kana": "ホッカイドウ",
    "prefecture_code": 1,
    "city": "中川郡本別町",
    "city_kana": "ナカガワグンホンベツチョウ",
    "town": "木札内",
    "town_kana": "ボクサツナイ",
    "street": null,
    "office_name": null,
    "office_name_kana": null
  },
  "3672": {
    "postcode": "0893672",
    "prefecture": "北海道",
    "prefecture_kana": "ホッカイドウ",
    "prefecture_code": 1,
    "city": "中川郡本別町",
    "city_kana": "ナカガワグンホンベツチョウ",
    "town": "追名牛",
    "town_kana": "オイナウシ",
    "street": null,
    "office_name": null,
    "office_name_kana": null
  },
  "3673": {
    "postcode": "0893673",
    "prefecture": "北海道",
    "prefecture_kana": "ホッカイドウ",
    "prefecture_code": 1,
    "city": "中川郡本別町",
    "city_kana": "ナカガワグンホンベツチョウ",
    "town": "東仙美里",
    "town_kana": "ヒガシセンビリ",
    "street": null,
    "office_name": null,
    "office_name_kana": null
  },
  "3674": {
    "postcode": "0893674",
    "prefecture": "北海道",
    "prefecture_kana": "ホッカイドウ",
    "prefecture_code": 1,
    "city": "中川郡本別町",
    "city_kana": "ナカガワグンホンベツチョウ",
    "town": "下仙美里",
    "town_kana": "シモセンビリ",
    "street": null,
    "office_name": null,
    "office_name_kana": null
  },
  "3675": {
    "postcode": "0893675",
    "prefecture": "北海道",
    "prefecture_kana": "ホッカイドウ",
    "prefecture_code": 1,
    "city": "中川郡本別町",
    "city_kana": "ナカガワグンホンベツチョウ",
    "town": "西仙美里",
    "town_kana": "ニシセンビリ",
    "street": null,
    "office_name": null,
    "office_name_kana": null
  },
  "3676": {
    "postcode": "0893676",
    "prefecture": "北海道",
    "prefecture_kana": "ホッカイドウ",
    "prefecture_code": 1,
    "city": "中川郡本別町",
    "city_kana": "ナカガワグンホンベツチョウ",
    "town": "明美",
    "town_kana": "アケミ",
    "street": null,
    "office_name": null,
    "office_name_kana": null
  },
  "3677": {
    "postcode": "0893677",
    "prefecture": "北海道",
    "prefecture_kana": "ホッカイドウ",
    "prefecture_code": 1,
    "city": "中川郡本別町",
    "city_kana": "ナカガワグンホンベツチョウ",
    "town": "美里別",
    "town_kana": "ビリベツ",
    "street": null,
    "office_name": null,
    "office_name_kana": null
  },
  "3700": {
    "postcode": "0893700",
    "prefecture": "北海道",
    "prefecture_kana": "ホッカイドウ",
    "prefecture_code": 1,
    "city": "足寄郡足寄町",
    "city_kana": "アショログンアショロチョウ",
    "town": "",
    "town_kana": "",
    "street": null,
    "office_name": null,
    "office_name_kana": null
  },
  "3701": {
    "postcode": "0893701",
    "prefecture": "北海道",
    "prefecture_kana": "ホッカイドウ",
    "prefecture_code": 1,
    "city": "足寄郡足寄町",
    "city_kana": "アショログンアショロチョウ",
    "town": "北一条",
    "town_kana": "キタ1ジョウ",
    "street": null,
    "office_name": null,
    "office_name_kana": null
  },
  "3702": {
    "postcode": "0893702",
    "prefecture": "北海道",
    "prefecture_kana": "ホッカイドウ",
    "prefecture_code": 1,
    "city": "足寄郡足寄町",
    "city_kana": "アショログンアショロチョウ",
    "town": "北二条",
    "town_kana": "キタ2ジョウ",
    "street": null,
    "office_name": null,
    "office_name_kana": null
  },
  "3703": {
    "postcode": "0893703",
    "prefecture": "北海道",
    "prefecture_kana": "ホッカイドウ",
    "prefecture_code": 1,
    "city": "足寄郡足寄町",
    "city_kana": "アショログンアショロチョウ",
    "town": "北三条",
    "town_kana": "キタ3ジョウ",
    "street": null,
    "office_name": null,
    "office_name_kana": null
  },
  "3704": {
    "postcode": "0893704",
    "prefecture": "北海道",
    "prefecture_kana": "ホッカイドウ",
    "prefecture_code": 1,
    "city": "足寄郡足寄町",
    "city_kana": "アショログンアショロチョウ",
    "town": "北四条",
    "town_kana": "キタ4ジョウ",
    "street": null,
    "office_name": null,
    "office_name_kana": null
  },
  "3705": {
    "postcode": "0893705",
    "prefecture": "北海道",
    "prefecture_kana": "ホッカイドウ",
    "prefecture_code": 1,
    "city": "足寄郡足寄町",
    "city_kana": "アショログンアショロチョウ",
    "town": "北五条",
    "town_kana": "キタ5ジョウ",
    "street": null,
    "office_name": null,
    "office_name_kana": null
  },
  "3706": {
    "postcode": "0893706",
    "prefecture": "北海道",
    "prefecture_kana": "ホッカイドウ",
    "prefecture_code": 1,
    "city": "足寄郡足寄町",
    "city_kana": "アショログンアショロチョウ",
    "town": "北六条",
    "town_kana": "キタ6ジョウ",
    "street": null,
    "office_name": null,
    "office_name_kana": null
  },
  "3707": {
    "postcode": "0893707",
    "prefecture": "北海道",
    "prefecture_kana": "ホッカイドウ",
    "prefecture_code": 1,
    "city": "足寄郡足寄町",
    "city_kana": "アショログンアショロチョウ",
    "town": "下愛冠",
    "town_kana": "シモアイカップ",
    "street": null,
    "office_name": null,
    "office_name_kana": null
  },
  "3708": {
    "postcode": "0893708",
    "prefecture": "北海道",
    "prefecture_kana": "ホッカイドウ",
    "prefecture_code": 1,
    "city": "足寄郡足寄町",
    "city_kana": "アショログンアショロチョウ",
    "town": "愛冠",
    "town_kana": "アイカップ",
    "street": null,
    "office_name": null,
    "office_name_kana": null
  },
  "3711": {
    "postcode": "0893711",
    "prefecture": "北海道",
    "prefecture_kana": "ホッカイドウ",
    "prefecture_code": 1,
    "city": "足寄郡足寄町",
    "city_kana": "アショログンアショロチョウ",
    "town": "南一条",
    "town_kana": "ミナミ1ジョウ",
    "street": null,
    "office_name": null,
    "office_name_kana": null
  },
  "3712": {
    "postcode": "0893712",
    "prefecture": "北海道",
    "prefecture_kana": "ホッカイドウ",
    "prefecture_code": 1,
    "city": "足寄郡足寄町",
    "city_kana": "アショログンアショロチョウ",
    "town": "南二条",
    "town_kana": "ミナミ2ジョウ",
    "street": null,
    "office_name": null,
    "office_name_kana": null
  },
  "3713": {
    "postcode": "0893713",
    "prefecture": "北海道",
    "prefecture_kana": "ホッカイドウ",
    "prefecture_code": 1,
    "city": "足寄郡足寄町",
    "city_kana": "アショログンアショロチョウ",
    "town": "南三条",
    "town_kana": "ミナミ3ジョウ",
    "street": null,
    "office_name": null,
    "office_name_kana": null
  },
  "3714": {
    "postcode": "0893714",
    "prefecture": "北海道",
    "prefecture_kana": "ホッカイドウ",
    "prefecture_code": 1,
    "city": "足寄郡足寄町",
    "city_kana": "アショログンアショロチョウ",
    "town": "南四条",
    "town_kana": "ミナミ4ジョウ",
    "street": null,
    "office_name": null,
    "office_name_kana": null
  },
  "3715": {
    "postcode": "0893715",
    "prefecture": "北海道",
    "prefecture_kana": "ホッカイドウ",
    "prefecture_code": 1,
    "city": "足寄郡足寄町",
    "city_kana": "アショログンアショロチョウ",
    "town": "南五条",
    "town_kana": "ミナミ5ジョウ",
    "street": null,
    "office_name": null,
    "office_name_kana": null
  },
  "3716": {
    "postcode": "0893716",
    "prefecture": "北海道",
    "prefecture_kana": "ホッカイドウ",
    "prefecture_code": 1,
    "city": "足寄郡足寄町",
    "city_kana": "アショログンアショロチョウ",
    "town": "南六条",
    "town_kana": "ミナミ6ジョウ",
    "street": null,
    "office_name": null,
    "office_name_kana": null
  },
  "3717": {
    "postcode": "0893717",
    "prefecture": "北海道",
    "prefecture_kana": "ホッカイドウ",
    "prefecture_code": 1,
    "city": "足寄郡足寄町",
    "city_kana": "アショログンアショロチョウ",
    "town": "南七条",
    "town_kana": "ミナミ7ジョウ",
    "street": null,
    "office_name": null,
    "office_name_kana": null
  },
  "3718": {
    "postcode": "0893718",
    "prefecture": "北海道",
    "prefecture_kana": "ホッカイドウ",
    "prefecture_code": 1,
    "city": "足寄郡足寄町",
    "city_kana": "アショログンアショロチョウ",
    "town": "栄町",
    "town_kana": "サカエマチ",
    "street": null,
    "office_name": null,
    "office_name_kana": null
  },
  "3721": {
    "postcode": "0893721",
    "prefecture": "北海道",
    "prefecture_kana": "ホッカイドウ",
    "prefecture_code": 1,
    "city": "足寄郡足寄町",
    "city_kana": "アショログンアショロチョウ",
    "town": "旭町",
    "town_kana": "アサヒマチ",
    "street": null,
    "office_name": null,
    "office_name_kana": null
  },
  "3722": {
    "postcode": "0893722",
    "prefecture": "北海道",
    "prefecture_kana": "ホッカイドウ",
    "prefecture_code": 1,
    "city": "足寄郡足寄町",
    "city_kana": "アショログンアショロチョウ",
    "town": "新町",
    "town_kana": "シンマチ",
    "street": null,
    "office_name": null,
    "office_name_kana": null
  },
  "3723": {
    "postcode": "0893723",
    "prefecture": "北海道",
    "prefecture_kana": "ホッカイドウ",
    "prefecture_code": 1,
    "city": "足寄郡足寄町",
    "city_kana": "アショログンアショロチョウ",
    "town": "中足寄",
    "town_kana": "ナカアショロ",
    "street": null,
    "office_name": null,
    "office_name_kana": null
  },
  "3724": {
    "postcode": "0893724",
    "prefecture": "北海道",
    "prefecture_kana": "ホッカイドウ",
    "prefecture_code": 1,
    "city": "足寄郡足寄町",
    "city_kana": "アショログンアショロチョウ",
    "town": "稲牛",
    "town_kana": "イナウシ",
    "street": null,
    "office_name": null,
    "office_name_kana": null
  },
  "3725": {
    "postcode": "0893725",
    "prefecture": "北海道",
    "prefecture_kana": "ホッカイドウ",
    "prefecture_code": 1,
    "city": "足寄郡足寄町",
    "city_kana": "アショログンアショロチョウ",
    "town": "平和",
    "town_kana": "ヘイワ",
    "street": null,
    "office_name": null,
    "office_name_kana": null
  },
  "3726": {
    "postcode": "0893726",
    "prefecture": "北海道",
    "prefecture_kana": "ホッカイドウ",
    "prefecture_code": 1,
    "city": "足寄郡足寄町",
    "city_kana": "アショログンアショロチョウ",
    "town": "共栄町",
    "town_kana": "キョウエイマチ",
    "street": null,
    "office_name": null,
    "office_name_kana": null
  },
  "3727": {
    "postcode": "0893727",
    "prefecture": "北海道",
    "prefecture_kana": "ホッカイドウ",
    "prefecture_code": 1,
    "city": "足寄郡足寄町",
    "city_kana": "アショログンアショロチョウ",
    "town": "郊南",
    "town_kana": "コウナン",
    "street": null,
    "office_name": null,
    "office_name_kana": null
  },
  "3731": {
    "postcode": "0893731",
    "prefecture": "北海道",
    "prefecture_kana": "ホッカイドウ",
    "prefecture_code": 1,
    "city": "足寄郡足寄町",
    "city_kana": "アショログンアショロチョウ",
    "town": "中矢",
    "town_kana": "ナカヤ",
    "street": null,
    "office_name": null,
    "office_name_kana": null
  },
  "3732": {
    "postcode": "0893732",
    "prefecture": "北海道",
    "prefecture_kana": "ホッカイドウ",
    "prefecture_code": 1,
    "city": "足寄郡足寄町",
    "city_kana": "アショログンアショロチョウ",
    "town": "里見が丘",
    "town_kana": "サトミガオカ",
    "street": null,
    "office_name": null,
    "office_name_kana": null
  },
  "3733": {
    "postcode": "0893733",
    "prefecture": "北海道",
    "prefecture_kana": "ホッカイドウ",
    "prefecture_code": 1,
    "city": "足寄郡足寄町",
    "city_kana": "アショログンアショロチョウ",
    "town": "西町",
    "town_kana": "ニシマチ",
    "street": null,
    "office_name": null,
    "office_name_kana": null
  },
  "3734": {
    "postcode": "0893734",
    "prefecture": "北海道",
    "prefecture_kana": "ホッカイドウ",
    "prefecture_code": 1,
    "city": "足寄郡足寄町",
    "city_kana": "アショログンアショロチョウ",
    "town": "常盤",
    "town_kana": "トキワ",
    "street": null,
    "office_name": null,
    "office_name_kana": null
  },
  "3735": {
    "postcode": "0893735",
    "prefecture": "北海道",
    "prefecture_kana": "ホッカイドウ",
    "prefecture_code": 1,
    "city": "足寄郡足寄町",
    "city_kana": "アショログンアショロチョウ",
    "town": "美盛",
    "town_kana": "ビセイ",
    "street": null,
    "office_name": null,
    "office_name_kana": null
  },
  "3736": {
    "postcode": "0893736",
    "prefecture": "北海道",
    "prefecture_kana": "ホッカイドウ",
    "prefecture_code": 1,
    "city": "足寄郡足寄町",
    "city_kana": "アショログンアショロチョウ",
    "town": "鷲府",
    "town_kana": "ワシップ",
    "street": null,
    "office_name": null,
    "office_name_kana": null
  },
  "3737": {
    "postcode": "0893737",
    "prefecture": "北海道",
    "prefecture_kana": "ホッカイドウ",
    "prefecture_code": 1,
    "city": "足寄郡足寄町",
    "city_kana": "アショログンアショロチョウ",
    "town": "茂喜登牛",
    "town_kana": "モキトウシ",
    "street": null,
    "office_name": null,
    "office_name_kana": null
  },
  "3797": {
    "postcode": "0893797",
    "prefecture": "北海道",
    "prefecture_kana": "ホッカイドウ",
    "prefecture_code": 1,
    "city": "足寄郡足寄町",
    "city_kana": "アショログンアショロチョウ",
    "town": "北一条",
    "town_kana": "キタ1ジョウ",
    "street": "４丁目４８番地１（足寄郵便局私書箱第３号）",
    "office_name": "足寄町役場",
    "office_name_kana": "アシヨロチヨウヤクバ"
  },
  "3871": {
    "postcode": "0893871",
    "prefecture": "北海道",
    "prefecture_kana": "ホッカイドウ",
    "prefecture_code": 1,
    "city": "足寄郡足寄町",
    "city_kana": "アショログンアショロチョウ",
    "town": "芽登本町",
    "town_kana": "メトウモトマチ",
    "street": null,
    "office_name": null,
    "office_name_kana": null
  },
  "3872": {
    "postcode": "0893872",
    "prefecture": "北海道",
    "prefecture_kana": "ホッカイドウ",
    "prefecture_code": 1,
    "city": "足寄郡足寄町",
    "city_kana": "アショログンアショロチョウ",
    "town": "芽登",
    "town_kana": "メトウ",
    "street": null,
    "office_name": null,
    "office_name_kana": null
  },
  "3873": {
    "postcode": "0893873",
    "prefecture": "北海道",
    "prefecture_kana": "ホッカイドウ",
    "prefecture_code": 1,
    "city": "足寄郡足寄町",
    "city_kana": "アショログンアショロチョウ",
    "town": "中矢",
    "town_kana": "ナカヤ",
    "street": null,
    "office_name": null,
    "office_name_kana": null
  },
  "3874": {
    "postcode": "0893874",
    "prefecture": "北海道",
    "prefecture_kana": "ホッカイドウ",
    "prefecture_code": 1,
    "city": "足寄郡足寄町",
    "city_kana": "アショログンアショロチョウ",
    "town": "喜登牛",
    "town_kana": "キトウシ",
    "street": null,
    "office_name": null,
    "office_name_kana": null
  },
  "3875": {
    "postcode": "0893875",
    "prefecture": "北海道",
    "prefecture_kana": "ホッカイドウ",
    "prefecture_code": 1,
    "city": "足寄郡足寄町",
    "city_kana": "アショログンアショロチョウ",
    "town": "茂喜登牛",
    "town_kana": "モキトウシ",
    "street": null,
    "office_name": null,
    "office_name_kana": null
  },
  "3961": {
    "postcode": "0893961",
    "prefecture": "北海道",
    "prefecture_kana": "ホッカイドウ",
    "prefecture_code": 1,
    "city": "足寄郡足寄町",
    "city_kana": "アショログンアショロチョウ",
    "town": "上足寄",
    "town_kana": "カミアショロ",
    "street": null,
    "office_name": null,
    "office_name_kana": null
  },
  "3962": {
    "postcode": "0893962",
    "prefecture": "北海道",
    "prefecture_kana": "ホッカイドウ",
    "prefecture_code": 1,
    "city": "足寄郡足寄町",
    "city_kana": "アショログンアショロチョウ",
    "town": "上足寄本町",
    "town_kana": "カミアショロモトマチ",
    "street": null,
    "office_name": null,
    "office_name_kana": null
  },
  "3963": {
    "postcode": "0893963",
    "prefecture": "北海道",
    "prefecture_kana": "ホッカイドウ",
    "prefecture_code": 1,
    "city": "足寄郡足寄町",
    "city_kana": "アショログンアショロチョウ",
    "town": "上螺湾",
    "town_kana": "カミラワン",
    "street": null,
    "office_name": null,
    "office_name_kana": null
  },
  "3964": {
    "postcode": "0893964",
    "prefecture": "北海道",
    "prefecture_kana": "ホッカイドウ",
    "prefecture_code": 1,
    "city": "足寄郡足寄町",
    "city_kana": "アショログンアショロチョウ",
    "town": "茂足寄",
    "town_kana": "モアショロ",
    "street": null,
    "office_name": null,
    "office_name_kana": null
  },
  "3965": {
    "postcode": "0893965",
    "prefecture": "北海道",
    "prefecture_kana": "ホッカイドウ",
    "prefecture_code": 1,
    "city": "足寄郡足寄町",
    "city_kana": "アショログンアショロチョウ",
    "town": "螺湾",
    "town_kana": "ラワン",
    "street": null,
    "office_name": null,
    "office_name_kana": null
  },
  "3966": {
    "postcode": "0893966",
    "prefecture": "北海道",
    "prefecture_kana": "ホッカイドウ",
    "prefecture_code": 1,
    "city": "足寄郡足寄町",
    "city_kana": "アショログンアショロチョウ",
    "town": "螺湾本町",
    "town_kana": "ラワンモトマチ",
    "street": null,
    "office_name": null,
    "office_name_kana": null
  },
  "4141": {
    "postcode": "0894141",
    "prefecture": "北海道",
    "prefecture_kana": "ホッカイドウ",
    "prefecture_code": 1,
    "city": "足寄郡足寄町",
    "city_kana": "アショログンアショロチョウ",
    "town": "上利別本町",
    "town_kana": "カミトシベツモトマチ",
    "street": null,
    "office_name": null,
    "office_name_kana": null
  },
  "4142": {
    "postcode": "0894142",
    "prefecture": "北海道",
    "prefecture_kana": "ホッカイドウ",
    "prefecture_code": 1,
    "city": "足寄郡足寄町",
    "city_kana": "アショログンアショロチョウ",
    "town": "上利別",
    "town_kana": "カミトシベツ",
    "street": null,
    "office_name": null,
    "office_name_kana": null
  },
  "4143": {
    "postcode": "0894143",
    "prefecture": "北海道",
    "prefecture_kana": "ホッカイドウ",
    "prefecture_code": 1,
    "city": "足寄郡足寄町",
    "city_kana": "アショログンアショロチョウ",
    "town": "白糸",
    "town_kana": "シライト",
    "street": null,
    "office_name": null,
    "office_name_kana": null
  },
  "4144": {
    "postcode": "0894144",
    "prefecture": "北海道",
    "prefecture_kana": "ホッカイドウ",
    "prefecture_code": 1,
    "city": "足寄郡足寄町",
    "city_kana": "アショログンアショロチョウ",
    "town": "大誉地",
    "town_kana": "オヨチ",
    "street": null,
    "office_name": null,
    "office_name_kana": null
  },
  "4251": {
    "postcode": "0894251",
    "prefecture": "北海道",
    "prefecture_kana": "ホッカイドウ",
    "prefecture_code": 1,
    "city": "足寄郡足寄町",
    "city_kana": "アショログンアショロチョウ",
    "town": "大誉地",
    "town_kana": "オヨチ",
    "street": null,
    "office_name": null,
    "office_name_kana": null
  },
  "4252": {
    "postcode": "0894252",
    "prefecture": "北海道",
    "prefecture_kana": "ホッカイドウ",
    "prefecture_code": 1,
    "city": "足寄郡足寄町",
    "city_kana": "アショログンアショロチョウ",
    "town": "大誉地本町",
    "town_kana": "オヨチモトマチ",
    "street": null,
    "office_name": null,
    "office_name_kana": null
  },
  "4261": {
    "postcode": "0894261",
    "prefecture": "北海道",
    "prefecture_kana": "ホッカイドウ",
    "prefecture_code": 1,
    "city": "足寄郡陸別町",
    "city_kana": "アショログンリクベツチョウ",
    "town": "登良利",
    "town_kana": "トラリ",
    "street": null,
    "office_name": null,
    "office_name_kana": null
  },
  "4262": {
    "postcode": "0894262",
    "prefecture": "北海道",
    "prefecture_kana": "ホッカイドウ",
    "prefecture_code": 1,
    "city": "足寄郡陸別町",
    "city_kana": "アショログンリクベツチョウ",
    "town": "薫別",
    "town_kana": "クンベツ",
    "street": null,
    "office_name": null,
    "office_name_kana": null
  },
  "4300": {
    "postcode": "0894300",
    "prefecture": "北海道",
    "prefecture_kana": "ホッカイドウ",
    "prefecture_code": 1,
    "city": "足寄郡陸別町",
    "city_kana": "アショログンリクベツチョウ",
    "town": "",
    "town_kana": "",
    "street": null,
    "office_name": null,
    "office_name_kana": null
  },
  "4301": {
    "postcode": "0894301",
    "prefecture": "北海道",
    "prefecture_kana": "ホッカイドウ",
    "prefecture_code": 1,
    "city": "足寄郡陸別町",
    "city_kana": "アショログンリクベツチョウ",
    "town": "ウエンベツ",
    "town_kana": "ウエンベツ",
    "street": null,
    "office_name": null,
    "office_name_kana": null
  },
  "4302": {
    "postcode": "0894302",
    "prefecture": "北海道",
    "prefecture_kana": "ホッカイドウ",
    "prefecture_code": 1,
    "city": "足寄郡陸別町",
    "city_kana": "アショログンリクベツチョウ",
    "town": "若葉",
    "town_kana": "ワカバ",
    "street": null,
    "office_name": null,
    "office_name_kana": null
  },
  "4303": {
    "postcode": "0894303",
    "prefecture": "北海道",
    "prefecture_kana": "ホッカイドウ",
    "prefecture_code": 1,
    "city": "足寄郡陸別町",
    "city_kana": "アショログンリクベツチョウ",
    "town": "下陸別",
    "town_kana": "シモリクベツ",
    "street": null,
    "office_name": null,
    "office_name_kana": null
  },
  "4304": {
    "postcode": "0894304",
    "prefecture": "北海道",
    "prefecture_kana": "ホッカイドウ",
    "prefecture_code": 1,
    "city": "足寄郡陸別町",
    "city_kana": "アショログンリクベツチョウ",
    "town": "共和",
    "town_kana": "キョウワ",
    "street": null,
    "office_name": null,
    "office_name_kana": null
  },
  "4305": {
    "postcode": "0894305",
    "prefecture": "北海道",
    "prefecture_kana": "ホッカイドウ",
    "prefecture_code": 1,
    "city": "足寄郡陸別町",
    "city_kana": "アショログンリクベツチョウ",
    "town": "中陸別",
    "town_kana": "ナカリクベツ",
    "street": null,
    "office_name": null,
    "office_name_kana": null
  },
  "4306": {
    "postcode": "0894306",
    "prefecture": "北海道",
    "prefecture_kana": "ホッカイドウ",
    "prefecture_code": 1,
    "city": "足寄郡陸別町",
    "city_kana": "アショログンリクベツチョウ",
    "town": "止若内",
    "town_kana": "ヤムワッカナイ",
    "street": null,
    "office_name": null,
    "office_name_kana": null
  },
  "4307": {
    "postcode": "0894307",
    "prefecture": "北海道",
    "prefecture_kana": "ホッカイドウ",
    "prefecture_code": 1,
    "city": "足寄郡陸別町",
    "city_kana": "アショログンリクベツチョウ",
    "town": "作集",
    "town_kana": "サクシュウ",
    "street": null,
    "office_name": null,
    "office_name_kana": null
  },
  "4308": {
    "postcode": "0894308",
    "prefecture": "北海道",
    "prefecture_kana": "ホッカイドウ",
    "prefecture_code": 1,
    "city": "足寄郡陸別町",
    "city_kana": "アショログンリクベツチョウ",
    "town": "上陸別",
    "town_kana": "カミリクベツ",
    "street": null,
    "office_name": null,
    "office_name_kana": null
  },
  "4311": {
    "postcode": "0894311",
    "prefecture": "北海道",
    "prefecture_kana": "ホッカイドウ",
    "prefecture_code": 1,
    "city": "足寄郡陸別町",
    "city_kana": "アショログンリクベツチョウ",
    "town": "東一条二区",
    "town_kana": "ヒガシ1ジョウ2ク",
    "street": null,
    "office_name": null,
    "office_name_kana": null
  },
  "4312": {
    "postcode": "0894312",
    "prefecture": "北海道",
    "prefecture_kana": "ホッカイドウ",
    "prefecture_code": 1,
    "city": "足寄郡陸別町",
    "city_kana": "アショログンリクベツチョウ",
    "town": "共栄第二",
    "town_kana": "キョウエイダイ2",
    "street": null,
    "office_name": null,
    "office_name_kana": null
  },
  "4313": {
    "postcode": "0894313",
    "prefecture": "北海道",
    "prefecture_kana": "ホッカイドウ",
    "prefecture_code": 1,
    "city": "足寄郡陸別町",
    "city_kana": "アショログンリクベツチョウ",
    "town": "共栄第一",
    "town_kana": "キョウエイダイ1",
    "street": null,
    "office_name": null,
    "office_name_kana": null
  },
  "4314": {
    "postcode": "0894314",
    "prefecture": "北海道",
    "prefecture_kana": "ホッカイドウ",
    "prefecture_code": 1,
    "city": "足寄郡陸別町",
    "city_kana": "アショログンリクベツチョウ",
    "town": "東一条一区",
    "town_kana": "ヒガシ1ジョウ1ク",
    "street": null,
    "office_name": null,
    "office_name_kana": null
  },
  "4315": {
    "postcode": "0894315",
    "prefecture": "北海道",
    "prefecture_kana": "ホッカイドウ",
    "prefecture_code": 1,
    "city": "足寄郡陸別町",
    "city_kana": "アショログンリクベツチョウ",
    "town": "大通",
    "town_kana": "オオドオリ",
    "street": null,
    "office_name": null,
    "office_name_kana": null
  },
  "4316": {
    "postcode": "0894316",
    "prefecture": "北海道",
    "prefecture_kana": "ホッカイドウ",
    "prefecture_code": 1,
    "city": "足寄郡陸別町",
    "city_kana": "アショログンリクベツチョウ",
    "town": "栄町",
    "town_kana": "サカエマチ",
    "street": null,
    "office_name": null,
    "office_name_kana": null
  },
  "4321": {
    "postcode": "0894321",
    "prefecture": "北海道",
    "prefecture_kana": "ホッカイドウ",
    "prefecture_code": 1,
    "city": "足寄郡陸別町",
    "city_kana": "アショログンリクベツチョウ",
    "town": "恩根内",
    "town_kana": "オンネナイ",
    "street": null,
    "office_name": null,
    "office_name_kana": null
  },
  "4322": {
    "postcode": "0894322",
    "prefecture": "北海道",
    "prefecture_kana": "ホッカイドウ",
    "prefecture_code": 1,
    "city": "足寄郡陸別町",
    "city_kana": "アショログンリクベツチョウ",
    "town": "新町一区",
    "town_kana": "シンマチ1ク",
    "street": null,
    "office_name": null,
    "office_name_kana": null
  },
  "4323": {
    "postcode": "0894323",
    "prefecture": "北海道",
    "prefecture_kana": "ホッカイドウ",
    "prefecture_code": 1,
    "city": "足寄郡陸別町",
    "city_kana": "アショログンリクベツチョウ",
    "town": "新町二区",
    "town_kana": "シンマチ2ク",
    "street": null,
    "office_name": null,
    "office_name_kana": null
  },
  "4324": {
    "postcode": "0894324",
    "prefecture": "北海道",
    "prefecture_kana": "ホッカイドウ",
    "prefecture_code": 1,
    "city": "足寄郡陸別町",
    "city_kana": "アショログンリクベツチョウ",
    "town": "旭町",
    "town_kana": "アサヒマチ",
    "street": null,
    "office_name": null,
    "office_name_kana": null
  },
  "4325": {
    "postcode": "0894325",
    "prefecture": "北海道",
    "prefecture_kana": "ホッカイドウ",
    "prefecture_code": 1,
    "city": "足寄郡陸別町",
    "city_kana": "アショログンリクベツチョウ",
    "town": "元町",
    "town_kana": "モトマチ",
    "street": null,
    "office_name": null,
    "office_name_kana": null
  },
  "4326": {
    "postcode": "0894326",
    "prefecture": "北海道",
    "prefecture_kana": "ホッカイドウ",
    "prefecture_code": 1,
    "city": "足寄郡陸別町",
    "city_kana": "アショログンリクベツチョウ",
    "town": "緑町",
    "town_kana": "ミドリマチ",
    "street": null,
    "office_name": null,
    "office_name_kana": null
  },
  "4331": {
    "postcode": "0894331",
    "prefecture": "北海道",
    "prefecture_kana": "ホッカイドウ",
    "prefecture_code": 1,
    "city": "足寄郡陸別町",
    "city_kana": "アショログンリクベツチョウ",
    "town": "川向",
    "town_kana": "カワムカイ",
    "street": null,
    "office_name": null,
    "office_name_kana": null
  },
  "4332": {
    "postcode": "0894332",
    "prefecture": "北海道",
    "prefecture_kana": "ホッカイドウ",
    "prefecture_code": 1,
    "city": "足寄郡陸別町",
    "city_kana": "アショログンリクベツチョウ",
    "town": "関",
    "town_kana": "セキ",
    "street": null,
    "office_name": null,
    "office_name_kana": null
  },
  "4333": {
    "postcode": "0894333",
    "prefecture": "北海道",
    "prefecture_kana": "ホッカイドウ",
    "prefecture_code": 1,
    "city": "足寄郡陸別町",
    "city_kana": "アショログンリクベツチョウ",
    "town": "殖産",
    "town_kana": "ショクサン",
    "street": null,
    "office_name": null,
    "office_name_kana": null
  },
  "4334": {
    "postcode": "0894334",
    "prefecture": "北海道",
    "prefecture_kana": "ホッカイドウ",
    "prefecture_code": 1,
    "city": "足寄郡陸別町",
    "city_kana": "アショログンリクベツチョウ",
    "town": "東斗満",
    "town_kana": "ヒガシトマム",
    "street": null,
    "office_name": null,
    "office_name_kana": null
  },
  "4335": {
    "postcode": "0894335",
    "prefecture": "北海道",
    "prefecture_kana": "ホッカイドウ",
    "prefecture_code": 1,
    "city": "足寄郡陸別町",
    "city_kana": "アショログンリクベツチョウ",
    "town": "中斗満",
    "town_kana": "ナカトマム",
    "street": null,
    "office_name": null,
    "office_name_kana": null
  },
  "4336": {
    "postcode": "0894336",
    "prefecture": "北海道",
    "prefecture_kana": "ホッカイドウ",
    "prefecture_code": 1,
    "city": "足寄郡陸別町",
    "city_kana": "アショログンリクベツチョウ",
    "town": "弥生",
    "town_kana": "ヤヨイ",
    "street": null,
    "office_name": null,
    "office_name_kana": null
  },
  "4337": {
    "postcode": "0894337",
    "prefecture": "北海道",
    "prefecture_kana": "ホッカイドウ",
    "prefecture_code": 1,
    "city": "足寄郡陸別町",
    "city_kana": "アショログンリクベツチョウ",
    "town": "下斗満",
    "town_kana": "シモトマム",
    "street": null,
    "office_name": null,
    "office_name_kana": null
  },
  "4341": {
    "postcode": "0894341",
    "prefecture": "北海道",
    "prefecture_kana": "ホッカイドウ",
    "prefecture_code": 1,
    "city": "足寄郡陸別町",
    "city_kana": "アショログンリクベツチョウ",
    "town": "苫務",
    "town_kana": "トマム",
    "street": null,
    "office_name": null,
    "office_name_kana": null
  },
  "4342": {
    "postcode": "0894342",
    "prefecture": "北海道",
    "prefecture_kana": "ホッカイドウ",
    "prefecture_code": 1,
    "city": "足寄郡陸別町",
    "city_kana": "アショログンリクベツチョウ",
    "town": "上斗満",
    "town_kana": "カミトマム",
    "street": null,
    "office_name": null,
    "office_name_kana": null
  },
  "4343": {
    "postcode": "0894343",
    "prefecture": "北海道",
    "prefecture_kana": "ホッカイドウ",
    "prefecture_code": 1,
    "city": "足寄郡陸別町",
    "city_kana": "アショログンリクベツチョウ",
    "town": "南斗満",
    "town_kana": "ミナミトマム",
    "street": null,
    "office_name": null,
    "office_name_kana": null
  },
  "4344": {
    "postcode": "0894344",
    "prefecture": "北海道",
    "prefecture_kana": "ホッカイドウ",
    "prefecture_code": 1,
    "city": "足寄郡陸別町",
    "city_kana": "アショログンリクベツチョウ",
    "town": "西斗満",
    "town_kana": "ニシトマム",
    "street": null,
    "office_name": null,
    "office_name_kana": null
  },
  "4345": {
    "postcode": "0894345",
    "prefecture": "北海道",
    "prefecture_kana": "ホッカイドウ",
    "prefecture_code": 1,
    "city": "足寄郡陸別町",
    "city_kana": "アショログンリクベツチョウ",
    "town": "北斗満",
    "town_kana": "キタトマム",
    "street": null,
    "office_name": null,
    "office_name_kana": null
  },
  "4346": {
    "postcode": "0894346",
    "prefecture": "北海道",
    "prefecture_kana": "ホッカイドウ",
    "prefecture_code": 1,
    "city": "足寄郡陸別町",
    "city_kana": "アショログンリクベツチョウ",
    "town": "ポントマム",
    "town_kana": "ポントマム",
    "street": null,
    "office_name": null,
    "office_name_kana": null
  },
  "4351": {
    "postcode": "0894351",
    "prefecture": "北海道",
    "prefecture_kana": "ホッカイドウ",
    "prefecture_code": 1,
    "city": "足寄郡陸別町",
    "city_kana": "アショログンリクベツチョウ",
    "town": "勲祢別",
    "town_kana": "クンネベツ",
    "street": null,
    "office_name": null,
    "office_name_kana": null
  },
  "4352": {
    "postcode": "0894352",
    "prefecture": "北海道",
    "prefecture_kana": "ホッカイドウ",
    "prefecture_code": 1,
    "city": "足寄郡陸別町",
    "city_kana": "アショログンリクベツチョウ",
    "town": "分線",
    "town_kana": "ブンセン",
    "street": null,
    "office_name": null,
    "office_name_kana": null
  },
  "4353": {
    "postcode": "0894353",
    "prefecture": "北海道",
    "prefecture_kana": "ホッカイドウ",
    "prefecture_code": 1,
    "city": "足寄郡陸別町",
    "city_kana": "アショログンリクベツチョウ",
    "town": "川上",
    "town_kana": "カワカミ",
    "street": null,
    "office_name": null,
    "office_name_kana": null
  },
  "4354": {
    "postcode": "0894354",
    "prefecture": "北海道",
    "prefecture_kana": "ホッカイドウ",
    "prefecture_code": 1,
    "city": "足寄郡陸別町",
    "city_kana": "アショログンリクベツチョウ",
    "town": "日宗",
    "town_kana": "ニッシュウ",
    "street": null,
    "office_name": null,
    "office_name_kana": null
  },
  "4355": {
    "postcode": "0894355",
    "prefecture": "北海道",
    "prefecture_kana": "ホッカイドウ",
    "prefecture_code": 1,
    "city": "足寄郡陸別町",
    "city_kana": "アショログンリクベツチョウ",
    "town": "小利別",
    "town_kana": "ショウトシベツ",
    "street": null,
    "office_name": null,
    "office_name_kana": null
  },
  "4356": {
    "postcode": "0894356",
    "prefecture": "北海道",
    "prefecture_kana": "ホッカイドウ",
    "prefecture_code": 1,
    "city": "足寄郡陸別町",
    "city_kana": "アショログンリクベツチョウ",
    "town": "林内",
    "town_kana": "リンナイ",
    "street": null,
    "office_name": null,
    "office_name_kana": null
  },
  "4357": {
    "postcode": "0894357",
    "prefecture": "北海道",
    "prefecture_kana": "ホッカイドウ",
    "prefecture_code": 1,
    "city": "足寄郡陸別町",
    "city_kana": "アショログンリクベツチョウ",
    "town": "利上",
    "town_kana": "トシカミ",
    "street": null,
    "office_name": null,
    "office_name_kana": null
  },
  "5231": {
    "postcode": "0895231",
    "prefecture": "北海道",
    "prefecture_kana": "ホッカイドウ",
    "prefecture_code": 1,
    "city": "中川郡豊頃町",
    "city_kana": "ナカガワグントヨコロチョウ",
    "town": "豊頃佐々田町",
    "town_kana": "トヨコロササダマチ",
    "street": null,
    "office_name": null,
    "office_name_kana": null
  },
  "5232": {
    "postcode": "0895232",
    "prefecture": "北海道",
    "prefecture_kana": "ホッカイドウ",
    "prefecture_code": 1,
    "city": "中川郡豊頃町",
    "city_kana": "ナカガワグントヨコロチョウ",
    "town": "豊頃旭町",
    "town_kana": "トヨコロアサヒマチ",
    "street": null,
    "office_name": null,
    "office_name_kana": null
  },
  "5233": {
    "postcode": "0895233",
    "prefecture": "北海道",
    "prefecture_kana": "ホッカイドウ",
    "prefecture_code": 1,
    "city": "中川郡豊頃町",
    "city_kana": "ナカガワグントヨコロチョウ",
    "town": "豊頃南町",
    "town_kana": "トヨコロミナミマチ",
    "street": null,
    "office_name": null,
    "office_name_kana": null
  },
  "5234": {
    "postcode": "0895234",
    "prefecture": "北海道",
    "prefecture_kana": "ホッカイドウ",
    "prefecture_code": 1,
    "city": "中川郡豊頃町",
    "city_kana": "ナカガワグントヨコロチョウ",
    "town": "中央新町",
    "town_kana": "チュウオウシンマチ",
    "street": null,
    "office_name": null,
    "office_name_kana": null
  },
  "5235": {
    "postcode": "0895235",
    "prefecture": "北海道",
    "prefecture_kana": "ホッカイドウ",
    "prefecture_code": 1,
    "city": "中川郡豊頃町",
    "city_kana": "ナカガワグントヨコロチョウ",
    "town": "中央若葉町",
    "town_kana": "チュウオウワカバマチ",
    "street": null,
    "office_name": null,
    "office_name_kana": null
  },
  "5241": {
    "postcode": "0895241",
    "prefecture": "北海道",
    "prefecture_kana": "ホッカイドウ",
    "prefecture_code": 1,
    "city": "中川郡豊頃町",
    "city_kana": "ナカガワグントヨコロチョウ",
    "town": "育素多",
    "town_kana": "イクソタ",
    "street": null,
    "office_name": null,
    "office_name_kana": null
  },
  "5242": {
    "postcode": "0895242",
    "prefecture": "北海道",
    "prefecture_kana": "ホッカイドウ",
    "prefecture_code": 1,
    "city": "中川郡豊頃町",
    "city_kana": "ナカガワグントヨコロチョウ",
    "town": "北栄",
    "town_kana": "ホクエイ",
    "street": null,
    "office_name": null,
    "office_name_kana": null
  },
  "5243": {
    "postcode": "0895243",
    "prefecture": "北海道",
    "prefecture_kana": "ホッカイドウ",
    "prefecture_code": 1,
    "city": "中川郡豊頃町",
    "city_kana": "ナカガワグントヨコロチョウ",
    "town": "十弗宝町",
    "town_kana": "トオフツタカラマチ",
    "street": null,
    "office_name": null,
    "office_name_kana": null
  },
  "5244": {
    "postcode": "0895244",
    "prefecture": "北海道",
    "prefecture_kana": "ホッカイドウ",
    "prefecture_code": 1,
    "city": "中川郡豊頃町",
    "city_kana": "ナカガワグントヨコロチョウ",
    "town": "十弗",
    "town_kana": "トオフツ",
    "street": null,
    "office_name": null,
    "office_name_kana": null
  },
  "5245": {
    "postcode": "0895245",
    "prefecture": "北海道",
    "prefecture_kana": "ホッカイドウ",
    "prefecture_code": 1,
    "city": "中川郡豊頃町",
    "city_kana": "ナカガワグントヨコロチョウ",
    "town": "礼文内",
    "town_kana": "レブンナイ",
    "street": null,
    "office_name": null,
    "office_name_kana": null
  },
  "5246": {
    "postcode": "0895246",
    "prefecture": "北海道",
    "prefecture_kana": "ホッカイドウ",
    "prefecture_code": 1,
    "city": "中川郡豊頃町",
    "city_kana": "ナカガワグントヨコロチョウ",
    "town": "豊頃",
    "town_kana": "トヨコロ",
    "street": null,
    "office_name": null,
    "office_name_kana": null
  },
  "5247": {
    "postcode": "0895247",
    "prefecture": "北海道",
    "prefecture_kana": "ホッカイドウ",
    "prefecture_code": 1,
    "city": "中川郡豊頃町",
    "city_kana": "ナカガワグントヨコロチョウ",
    "town": "幌岡",
    "town_kana": "ホロオカ",
    "street": null,
    "office_name": null,
    "office_name_kana": null
  },
  "5300": {
    "postcode": "0895300",
    "prefecture": "北海道",
    "prefecture_kana": "ホッカイドウ",
    "prefecture_code": 1,
    "city": "中川郡豊頃町",
    "city_kana": "ナカガワグントヨコロチョウ",
    "town": "",
    "town_kana": "",
    "street": null,
    "office_name": null,
    "office_name_kana": null
  },
  "5301": {
    "postcode": "0895301",
    "prefecture": "北海道",
    "prefecture_kana": "ホッカイドウ",
    "prefecture_code": 1,
    "city": "中川郡豊頃町",
    "city_kana": "ナカガワグントヨコロチョウ",
    "town": "統内",
    "town_kana": "トウナイ",
    "street": null,
    "office_name": null,
    "office_name_kana": null
  },
  "5302": {
    "postcode": "0895302",
    "prefecture": "北海道",
    "prefecture_kana": "ホッカイドウ",
    "prefecture_code": 1,
    "city": "中川郡豊頃町",
    "city_kana": "ナカガワグントヨコロチョウ",
    "town": "礼作別",
    "town_kana": "レイサクベツ",
    "street": null,
    "office_name": null,
    "office_name_kana": null
  },
  "5303": {
    "postcode": "0895303",
    "prefecture": "北海道",
    "prefecture_kana": "ホッカイドウ",
    "prefecture_code": 1,
    "city": "中川郡豊頃町",
    "city_kana": "ナカガワグントヨコロチョウ",
    "town": "農野牛",
    "town_kana": "ノヤウシ",
    "street": null,
    "office_name": null,
    "office_name_kana": null
  },
  "5304": {
    "postcode": "0895304",
    "prefecture": "北海道",
    "prefecture_kana": "ホッカイドウ",
    "prefecture_code": 1,
    "city": "中川郡豊頃町",
    "city_kana": "ナカガワグントヨコロチョウ",
    "town": "牛首別",
    "town_kana": "ウシシュベツ",
    "street": null,
    "office_name": null,
    "office_name_kana": null
  },
  "5305": {
    "postcode": "0895305",
    "prefecture": "北海道",
    "prefecture_kana": "ホッカイドウ",
    "prefecture_code": 1,
    "city": "中川郡豊頃町",
    "city_kana": "ナカガワグントヨコロチョウ",
    "town": "背負",
    "town_kana": "セオイ",
    "street": null,
    "office_name": null,
    "office_name_kana": null
  },
  "5306": {
    "postcode": "0895306",
    "prefecture": "北海道",
    "prefecture_kana": "ホッカイドウ",
    "prefecture_code": 1,
    "city": "中川郡豊頃町",
    "city_kana": "ナカガワグントヨコロチョウ",
    "town": "安骨",
    "town_kana": "アンコツ",
    "street": null,
    "office_name": null,
    "office_name_kana": null
  },
  "5307": {
    "postcode": "0895307",
    "prefecture": "北海道",
    "prefecture_kana": "ホッカイドウ",
    "prefecture_code": 1,
    "city": "中川郡豊頃町",
    "city_kana": "ナカガワグントヨコロチョウ",
    "town": "旅来",
    "town_kana": "タビコライ",
    "street": null,
    "office_name": null,
    "office_name_kana": null
  },
  "5308": {
    "postcode": "0895308",
    "prefecture": "北海道",
    "prefecture_kana": "ホッカイドウ",
    "prefecture_code": 1,
    "city": "中川郡豊頃町",
    "city_kana": "ナカガワグントヨコロチョウ",
    "town": "湧洞",
    "town_kana": "ユウドウ",
    "street": null,
    "office_name": null,
    "office_name_kana": null
  },
  "5309": {
    "postcode": "0895309",
    "prefecture": "北海道",
    "prefecture_kana": "ホッカイドウ",
    "prefecture_code": 1,
    "city": "中川郡豊頃町",
    "city_kana": "ナカガワグントヨコロチョウ",
    "town": "二宮",
    "town_kana": "ニノミヤ",
    "street": null,
    "office_name": null,
    "office_name_kana": null
  },
  "5311": {
    "postcode": "0895311",
    "prefecture": "北海道",
    "prefecture_kana": "ホッカイドウ",
    "prefecture_code": 1,
    "city": "中川郡豊頃町",
    "city_kana": "ナカガワグントヨコロチョウ",
    "town": "茂岩新和町",
    "town_kana": "モイワシンワマチ",
    "street": null,
    "office_name": null,
    "office_name_kana": null
  },
  "5312": {
    "postcode": "0895312",
    "prefecture": "北海道",
    "prefecture_kana": "ホッカイドウ",
    "prefecture_code": 1,
    "city": "中川郡豊頃町",
    "city_kana": "ナカガワグントヨコロチョウ",
    "town": "茂岩本町",
    "town_kana": "モイワホンマチ",
    "street": null,
    "office_name": null,
    "office_name_kana": null
  },
  "5313": {
    "postcode": "0895313",
    "prefecture": "北海道",
    "prefecture_kana": "ホッカイドウ",
    "prefecture_code": 1,
    "city": "中川郡豊頃町",
    "city_kana": "ナカガワグントヨコロチョウ",
    "town": "茂岩栄町",
    "town_kana": "モイワサカエマチ",
    "street": null,
    "office_name": null,
    "office_name_kana": null
  },
  "5314": {
    "postcode": "0895314",
    "prefecture": "北海道",
    "prefecture_kana": "ホッカイドウ",
    "prefecture_code": 1,
    "city": "中川郡豊頃町",
    "city_kana": "ナカガワグントヨコロチョウ",
    "town": "茂岩末広町",
    "town_kana": "モイワスエヒロマチ",
    "street": null,
    "office_name": null,
    "office_name_kana": null
  },
  "5315": {
    "postcode": "0895315",
    "prefecture": "北海道",
    "prefecture_kana": "ホッカイドウ",
    "prefecture_code": 1,
    "city": "中川郡豊頃町",
    "city_kana": "ナカガワグントヨコロチョウ",
    "town": "茂岩",
    "town_kana": "モイワ",
    "street": null,
    "office_name": null,
    "office_name_kana": null
  },
  "5392": {
    "postcode": "0895392",
    "prefecture": "北海道",
    "prefecture_kana": "ホッカイドウ",
    "prefecture_code": 1,
    "city": "中川郡豊頃町",
    "city_kana": "ナカガワグントヨコロチョウ",
    "town": "茂岩本町",
    "town_kana": "モイワホンマチ",
    "street": "（豊頃郵便局私書箱第４号）",
    "office_name": "豊頃町役場",
    "office_name_kana": "トヨコロチヨウヤクバ"
  },
  "5393": {
    "postcode": "0895393",
    "prefecture": "北海道",
    "prefecture_kana": "ホッカイドウ",
    "prefecture_code": 1,
    "city": "中川郡豊頃町",
    "city_kana": "ナカガワグントヨコロチョウ",
    "town": "中央若葉町",
    "town_kana": "チュウオウワカバマチ",
    "street": "（豊頃郵便局私書箱第１号）",
    "office_name": "豊頃町農業協同組合",
    "office_name_kana": "トヨコロチヨウノウギヨウキヨウドウクミアイ"
  },
  "5461": {
    "postcode": "0895461",
    "prefecture": "北海道",
    "prefecture_kana": "ホッカイドウ",
    "prefecture_code": 1,
    "city": "中川郡豊頃町",
    "city_kana": "ナカガワグントヨコロチョウ",
    "town": "大津元町",
    "town_kana": "オオツモトマチ",
    "street": null,
    "office_name": null,
    "office_name_kana": null
  },
  "5462": {
    "postcode": "0895462",
    "prefecture": "北海道",
    "prefecture_kana": "ホッカイドウ",
    "prefecture_code": 1,
    "city": "中川郡豊頃町",
    "city_kana": "ナカガワグントヨコロチョウ",
    "town": "大津幸町",
    "town_kana": "オオツサイワイチョウ",
    "street": null,
    "office_name": null,
    "office_name_kana": null
  },
  "5463": {
    "postcode": "0895463",
    "prefecture": "北海道",
    "prefecture_kana": "ホッカイドウ",
    "prefecture_code": 1,
    "city": "中川郡豊頃町",
    "city_kana": "ナカガワグントヨコロチョウ",
    "town": "大津寿町",
    "town_kana": "オオツコトブキマチ",
    "street": null,
    "office_name": null,
    "office_name_kana": null
  },
  "5464": {
    "postcode": "0895464",
    "prefecture": "北海道",
    "prefecture_kana": "ホッカイドウ",
    "prefecture_code": 1,
    "city": "中川郡豊頃町",
    "city_kana": "ナカガワグントヨコロチョウ",
    "town": "大津港町",
    "town_kana": "オオツミナトマチ",
    "street": null,
    "office_name": null,
    "office_name_kana": null
  },
  "5465": {
    "postcode": "0895465",
    "prefecture": "北海道",
    "prefecture_kana": "ホッカイドウ",
    "prefecture_code": 1,
    "city": "中川郡豊頃町",
    "city_kana": "ナカガワグントヨコロチョウ",
    "town": "大津",
    "town_kana": "オオツ",
    "street": null,
    "office_name": null,
    "office_name_kana": null
  },
  "5466": {
    "postcode": "0895466",
    "prefecture": "北海道",
    "prefecture_kana": "ホッカイドウ",
    "prefecture_code": 1,
    "city": "中川郡豊頃町",
    "city_kana": "ナカガワグントヨコロチョウ",
    "town": "長節",
    "town_kana": "チョウブシ",
    "street": null,
    "office_name": null,
    "office_name_kana": null
  },
  "5541": {
    "postcode": "0895541",
    "prefecture": "北海道",
    "prefecture_kana": "ホッカイドウ",
    "prefecture_code": 1,
    "city": "十勝郡浦幌町",
    "city_kana": "トカチグンウラホロチョウ",
    "town": "吉野",
    "town_kana": "ヨシノ",
    "street": null,
    "office_name": null,
    "office_name_kana": null
  },
  "5542": {
    "postcode": "0895542",
    "prefecture": "北海道",
    "prefecture_kana": "ホッカイドウ",
    "prefecture_code": 1,
    "city": "十勝郡浦幌町",
    "city_kana": "トカチグンウラホロチョウ",
    "town": "共栄",
    "town_kana": "キョウエイ",
    "street": null,
    "office_name": null,
    "office_name_kana": null
  },
  "5543": {
    "postcode": "0895543",
    "prefecture": "北海道",
    "prefecture_kana": "ホッカイドウ",
    "prefecture_code": 1,
    "city": "十勝郡浦幌町",
    "city_kana": "トカチグンウラホロチョウ",
    "town": "平和",
    "town_kana": "ヘイワ",
    "street": null,
    "office_name": null,
    "office_name_kana": null
  },
  "5544": {
    "postcode": "0895544",
    "prefecture": "北海道",
    "prefecture_kana": "ホッカイドウ",
    "prefecture_code": 1,
    "city": "十勝郡浦幌町",
    "city_kana": "トカチグンウラホロチョウ",
    "town": "統太",
    "town_kana": "トウフト",
    "street": null,
    "office_name": null,
    "office_name_kana": null
  },
  "5545": {
    "postcode": "0895545",
    "prefecture": "北海道",
    "prefecture_kana": "ホッカイドウ",
    "prefecture_code": 1,
    "city": "十勝郡浦幌町",
    "city_kana": "トカチグンウラホロチョウ",
    "town": "養老",
    "town_kana": "ヨウロウ",
    "street": null,
    "office_name": null,
    "office_name_kana": null
  },
  "5546": {
    "postcode": "0895546",
    "prefecture": "北海道",
    "prefecture_kana": "ホッカイドウ",
    "prefecture_code": 1,
    "city": "十勝郡浦幌町",
    "city_kana": "トカチグンウラホロチョウ",
    "town": "朝日",
    "town_kana": "アサヒ",
    "street": null,
    "office_name": null,
    "office_name_kana": null
  },
  "5547": {
    "postcode": "0895547",
    "prefecture": "北海道",
    "prefecture_kana": "ホッカイドウ",
    "prefecture_code": 1,
    "city": "十勝郡浦幌町",
    "city_kana": "トカチグンウラホロチョウ",
    "town": "生剛",
    "town_kana": "セイゴウ",
    "street": null,
    "office_name": null,
    "office_name_kana": null
  },
  "5548": {
    "postcode": "0895548",
    "prefecture": "北海道",
    "prefecture_kana": "ホッカイドウ",
    "prefecture_code": 1,
    "city": "十勝郡浦幌町",
    "city_kana": "トカチグンウラホロチョウ",
    "town": "十勝太",
    "town_kana": "トカチブト",
    "street": null,
    "office_name": null,
    "office_name_kana": null
  },
  "5551": {
    "postcode": "0895551",
    "prefecture": "北海道",
    "prefecture_kana": "ホッカイドウ",
    "prefecture_code": 1,
    "city": "十勝郡浦幌町",
    "city_kana": "トカチグンウラホロチョウ",
    "town": "愛牛",
    "town_kana": "アイウシ",
    "street": null,
    "office_name": null,
    "office_name_kana": null
  },
  "5552": {
    "postcode": "0895552",
    "prefecture": "北海道",
    "prefecture_kana": "ホッカイドウ",
    "prefecture_code": 1,
    "city": "十勝郡浦幌町",
    "city_kana": "トカチグンウラホロチョウ",
    "town": "豊北",
    "town_kana": "トヨキタ",
    "street": null,
    "office_name": null,
    "office_name_kana": null
  },
  "5553": {
    "postcode": "0895553",
    "prefecture": "北海道",
    "prefecture_kana": "ホッカイドウ",
    "prefecture_code": 1,
    "city": "十勝郡浦幌町",
    "city_kana": "トカチグンウラホロチョウ",
    "town": "打内",
    "town_kana": "ウツナイ",
    "street": null,
    "office_name": null,
    "office_name_kana": null
  },
  "5554": {
    "postcode": "0895554",
    "prefecture": "北海道",
    "prefecture_kana": "ホッカイドウ",
    "prefecture_code": 1,
    "city": "十勝郡浦幌町",
    "city_kana": "トカチグンウラホロチョウ",
    "town": "大平",
    "town_kana": "タイヘイ",
    "street": null,
    "office_name": null,
    "office_name_kana": null
  },
  "5555": {
    "postcode": "0895555",
    "prefecture": "北海道",
    "prefecture_kana": "ホッカイドウ",
    "prefecture_code": 1,
    "city": "十勝郡浦幌町",
    "city_kana": "トカチグンウラホロチョウ",
    "town": "トイトッキ",
    "town_kana": "トイトッキ",
    "street": null,
    "office_name": null,
    "office_name_kana": null
  },
  "5556": {
    "postcode": "0895556",
    "prefecture": "北海道",
    "prefecture_kana": "ホッカイドウ",
    "prefecture_code": 1,
    "city": "十勝郡浦幌町",
    "city_kana": "トカチグンウラホロチョウ",
    "town": "鼈奴",
    "town_kana": "ベッチャロ",
    "street": null,
    "office_name": null,
    "office_name_kana": null
  },
  "5557": {
    "postcode": "0895557",
    "prefecture": "北海道",
    "prefecture_kana": "ホッカイドウ",
    "prefecture_code": 1,
    "city": "十勝郡浦幌町",
    "city_kana": "トカチグンウラホロチョウ",
    "town": "ヌタベット",
    "town_kana": "ヌタベット",
    "street": null,
    "office_name": null,
    "office_name_kana": null
  },
  "5558": {
    "postcode": "0895558",
    "prefecture": "北海道",
    "prefecture_kana": "ホッカイドウ",
    "prefecture_code": 1,
    "city": "十勝郡浦幌町",
    "city_kana": "トカチグンウラホロチョウ",
    "town": "昆布刈石",
    "town_kana": "コブカリイシ",
    "street": null,
    "office_name": null,
    "office_name_kana": null
  },
  "5600": {
    "postcode": "0895600",
    "prefecture": "北海道",
    "prefecture_kana": "ホッカイドウ",
    "prefecture_code": 1,
    "city": "十勝郡浦幌町",
    "city_kana": "トカチグンウラホロチョウ",
    "town": "",
    "town_kana": "",
    "street": null,
    "office_name": null,
    "office_name_kana": null
  },
  "5601": {
    "postcode": "0895601",
    "prefecture": "北海道",
    "prefecture_kana": "ホッカイドウ",
    "prefecture_code": 1,
    "city": "十勝郡浦幌町",
    "city_kana": "トカチグンウラホロチョウ",
    "town": "宝町",
    "town_kana": "タカラマチ",
    "street": null,
    "office_name": null,
    "office_name_kana": null
  },
  "5602": {
    "postcode": "0895602",
    "prefecture": "北海道",
    "prefecture_kana": "ホッカイドウ",
    "prefecture_code": 1,
    "city": "十勝郡浦幌町",
    "city_kana": "トカチグンウラホロチョウ",
    "town": "末広町",
    "town_kana": "スエヒロチョウ",
    "street": null,
    "office_name": null,
    "office_name_kana": null
  },
  "5603": {
    "postcode": "0895603",
    "prefecture": "北海道",
    "prefecture_kana": "ホッカイドウ",
    "prefecture_code": 1,
    "city": "十勝郡浦幌町",
    "city_kana": "トカチグンウラホロチョウ",
    "town": "本町",
    "town_kana": "ホンチョウ",
    "street": null,
    "office_name": null,
    "office_name_kana": null
  },
  "5604": {
    "postcode": "0895604",
    "prefecture": "北海道",
    "prefecture_kana": "ホッカイドウ",
    "prefecture_code": 1,
    "city": "十勝郡浦幌町",
    "city_kana": "トカチグンウラホロチョウ",
    "town": "栄町",
    "town_kana": "サカエマチ",
    "street": null,
    "office_name": null,
    "office_name_kana": null
  },
  "5605": {
    "postcode": "0895605",
    "prefecture": "北海道",
    "prefecture_kana": "ホッカイドウ",
    "prefecture_code": 1,
    "city": "十勝郡浦幌町",
    "city_kana": "トカチグンウラホロチョウ",
    "town": "緑町",
    "town_kana": "ミドリマチ",
    "street": null,
    "office_name": null,
    "office_name_kana": null
  },
  "5606": {
    "postcode": "0895606",
    "prefecture": "北海道",
    "prefecture_kana": "ホッカイドウ",
    "prefecture_code": 1,
    "city": "十勝郡浦幌町",
    "city_kana": "トカチグンウラホロチョウ",
    "town": "住吉町",
    "town_kana": "スミヨシチョウ",
    "street": null,
    "office_name": null,
    "office_name_kana": null
  },
  "5607": {
    "postcode": "0895607",
    "prefecture": "北海道",
    "prefecture_kana": "ホッカイドウ",
    "prefecture_code": 1,
    "city": "十勝郡浦幌町",
    "city_kana": "トカチグンウラホロチョウ",
    "town": "材木町",
    "town_kana": "ザイモクチョウ",
    "street": null,
    "office_name": null,
    "office_name_kana": null
  },
  "5608": {
    "postcode": "0895608",
    "prefecture": "北海道",
    "prefecture_kana": "ホッカイドウ",
    "prefecture_code": 1,
    "city": "十勝郡浦幌町",
    "city_kana": "トカチグンウラホロチョウ",
    "town": "西町",
    "town_kana": "ニシマチ",
    "street": null,
    "office_name": null,
    "office_name_kana": null
  },
  "5611": {
    "postcode": "0895611",
    "prefecture": "北海道",
    "prefecture_kana": "ホッカイドウ",
    "prefecture_code": 1,
    "city": "十勝郡浦幌町",
    "city_kana": "トカチグンウラホロチョウ",
    "town": "寿町",
    "town_kana": "コトブキチョウ",
    "street": null,
    "office_name": null,
    "office_name_kana": null
  },
  "5612": {
    "postcode": "0895612",
    "prefecture": "北海道",
    "prefecture_kana": "ホッカイドウ",
    "prefecture_code": 1,
    "city": "十勝郡浦幌町",
    "city_kana": "トカチグンウラホロチョウ",
    "town": "東山町",
    "town_kana": "ヒガシヤマチョウ",
    "street": null,
    "office_name": null,
    "office_name_kana": null
  },
  "5613": {
    "postcode": "0895613",
    "prefecture": "北海道",
    "prefecture_kana": "ホッカイドウ",
    "prefecture_code": 1,
    "city": "十勝郡浦幌町",
    "city_kana": "トカチグンウラホロチョウ",
    "town": "幸町",
    "town_kana": "サイワイチョウ",
    "street": null,
    "office_name": null,
    "office_name_kana": null
  },
  "5614": {
    "postcode": "0895614",
    "prefecture": "北海道",
    "prefecture_kana": "ホッカイドウ",
    "prefecture_code": 1,
    "city": "十勝郡浦幌町",
    "city_kana": "トカチグンウラホロチョウ",
    "town": "桜町",
    "town_kana": "サクラマチ",
    "street": null,
    "office_name": null,
    "office_name_kana": null
  },
  "5615": {
    "postcode": "0895615",
    "prefecture": "北海道",
    "prefecture_kana": "ホッカイドウ",
    "prefecture_code": 1,
    "city": "十勝郡浦幌町",
    "city_kana": "トカチグンウラホロチョウ",
    "town": "新町",
    "town_kana": "シンマチ",
    "street": null,
    "office_name": null,
    "office_name_kana": null
  },
  "5617": [
    {
      "postcode": "0895617",
      "prefecture": "北海道",
      "prefecture_kana": "ホッカイドウ",
      "prefecture_code": 1,
      "city": "十勝郡浦幌町",
      "city_kana": "トカチグンウラホロチョウ",
      "town": "光南",
      "town_kana": "コウナン",
      "street": null,
      "office_name": null,
      "office_name_kana": null
    },
    {
      "postcode": "0895617",
      "prefecture": "北海道",
      "prefecture_kana": "ホッカイドウ",
      "prefecture_code": 1,
      "city": "十勝郡浦幌町",
      "city_kana": "トカチグンウラホロチョウ",
      "town": "南町",
      "town_kana": "ミナミマチ",
      "street": null,
      "office_name": null,
      "office_name_kana": null
    }
  ],
  "5621": {
    "postcode": "0895621",
    "prefecture": "北海道",
    "prefecture_kana": "ホッカイドウ",
    "prefecture_code": 1,
    "city": "十勝郡浦幌町",
    "city_kana": "トカチグンウラホロチョウ",
    "town": "北町",
    "town_kana": "キタマチ",
    "street": null,
    "office_name": null,
    "office_name_kana": null
  },
  "5622": {
    "postcode": "0895622",
    "prefecture": "北海道",
    "prefecture_kana": "ホッカイドウ",
    "prefecture_code": 1,
    "city": "十勝郡浦幌町",
    "city_kana": "トカチグンウラホロチョウ",
    "town": "北栄",
    "town_kana": "ホクエイ",
    "street": null,
    "office_name": null,
    "office_name_kana": null
  },
  "5631": {
    "postcode": "0895631",
    "prefecture": "北海道",
    "prefecture_kana": "ホッカイドウ",
    "prefecture_code": 1,
    "city": "十勝郡浦幌町",
    "city_kana": "トカチグンウラホロチョウ",
    "town": "瀬多来",
    "town_kana": "セタライ",
    "street": null,
    "office_name": null,
    "office_name_kana": null
  },
  "5632": {
    "postcode": "0895632",
    "prefecture": "北海道",
    "prefecture_kana": "ホッカイドウ",
    "prefecture_code": 1,
    "city": "十勝郡浦幌町",
    "city_kana": "トカチグンウラホロチョウ",
    "town": "留真",
    "town_kana": "ルシン",
    "street": null,
    "office_name": null,
    "office_name_kana": null
  },
  "5633": [
    {
      "postcode": "0895633",
      "prefecture": "北海道",
      "prefecture_kana": "ホッカイドウ",
      "prefecture_code": 1,
      "city": "十勝郡浦幌町",
      "city_kana": "トカチグンウラホロチョウ",
      "town": "常豊",
      "town_kana": "ツネトヨ",
      "street": null,
      "office_name": null,
      "office_name_kana": null
    },
    {
      "postcode": "0895633",
      "prefecture": "北海道",
      "prefecture_kana": "ホッカイドウ",
      "prefecture_code": 1,
      "city": "十勝郡浦幌町",
      "city_kana": "トカチグンウラホロチョウ",
      "town": "常室",
      "town_kana": "トコムロ",
      "street": null,
      "office_name": null,
      "office_name_kana": null
    },
    {
      "postcode": "0895633",
      "prefecture": "北海道",
      "prefecture_kana": "ホッカイドウ",
      "prefecture_code": 1,
      "city": "十勝郡浦幌町",
      "city_kana": "トカチグンウラホロチョウ",
      "town": "福山",
      "town_kana": "フクヤマ",
      "street": null,
      "office_name": null,
      "office_name_kana": null
    },
    {
      "postcode": "0895633",
      "prefecture": "北海道",
      "prefecture_kana": "ホッカイドウ",
      "prefecture_code": 1,
      "city": "十勝郡浦幌町",
      "city_kana": "トカチグンウラホロチョウ",
      "town": "円山",
      "town_kana": "マルヤマ",
      "street": null,
      "office_name": null,
      "office_name_kana": null
    }
  ],
  "5634": [
    {
      "postcode": "0895634",
      "prefecture": "北海道",
      "prefecture_kana": "ホッカイドウ",
      "prefecture_code": 1,
      "city": "十勝郡浦幌町",
      "city_kana": "トカチグンウラホロチョウ",
      "town": "帯富",
      "town_kana": "オビトミ",
      "street": null,
      "office_name": null,
      "office_name_kana": null
    },
    {
      "postcode": "0895634",
      "prefecture": "北海道",
      "prefecture_kana": "ホッカイドウ",
      "prefecture_code": 1,
      "city": "十勝郡浦幌町",
      "city_kana": "トカチグンウラホロチョウ",
      "town": "時和",
      "town_kana": "トキワ",
      "street": null,
      "office_name": null,
      "office_name_kana": null
    }
  ],
  "5635": {
    "postcode": "0895635",
    "prefecture": "北海道",
    "prefecture_kana": "ホッカイドウ",
    "prefecture_code": 1,
    "city": "十勝郡浦幌町",
    "city_kana": "トカチグンウラホロチョウ",
    "town": "静内",
    "town_kana": "シズナイ",
    "street": null,
    "office_name": null,
    "office_name_kana": null
  },
  "5636": [
    {
      "postcode": "0895636",
      "prefecture": "北海道",
      "prefecture_kana": "ホッカイドウ",
      "prefecture_code": 1,
      "city": "十勝郡浦幌町",
      "city_kana": "トカチグンウラホロチョウ",
      "town": "千歳町",
      "town_kana": "チトセチョウ",
      "street": null,
      "office_name": null,
      "office_name_kana": null
    },
    {
      "postcode": "0895636",
      "prefecture": "北海道",
      "prefecture_kana": "ホッカイドウ",
      "prefecture_code": 1,
      "city": "十勝郡浦幌町",
      "city_kana": "トカチグンウラホロチョウ",
      "town": "万年",
      "town_kana": "マンネン",
      "street": null,
      "office_name": null,
      "office_name_kana": null
    }
  ],
  "5637": {
    "postcode": "0895637",
    "prefecture": "北海道",
    "prefecture_kana": "ホッカイドウ",
    "prefecture_code": 1,
    "city": "十勝郡浦幌町",
    "city_kana": "トカチグンウラホロチョウ",
    "town": "稲穂",
    "town_kana": "イナホ",
    "street": null,
    "office_name": null,
    "office_name_kana": null
  },
  "5638": [
    {
      "postcode": "0895638",
      "prefecture": "北海道",
      "prefecture_kana": "ホッカイドウ",
      "prefecture_code": 1,
      "city": "十勝郡浦幌町",
      "city_kana": "トカチグンウラホロチョウ",
      "town": "幾栄",
      "town_kana": "イクエイ",
      "street": null,
      "office_name": null,
      "office_name_kana": null
    },
    {
      "postcode": "0895638",
      "prefecture": "北海道",
      "prefecture_kana": "ホッカイドウ",
      "prefecture_code": 1,
      "city": "十勝郡浦幌町",
      "city_kana": "トカチグンウラホロチョウ",
      "town": "幾千世",
      "town_kana": "イクチセ",
      "street": null,
      "office_name": null,
      "office_name_kana": null
    }
  ],
  "5692": {
    "postcode": "0895692",
    "prefecture": "北海道",
    "prefecture_kana": "ホッカイドウ",
    "prefecture_code": 1,
    "city": "十勝郡浦幌町",
    "city_kana": "トカチグンウラホロチョウ",
    "town": "字桜町",
    "town_kana": null,
    "street": "１５番地（浦幌郵便局私書箱第１８号）",
    "office_name": "浦幌町役場",
    "office_name_kana": "ウラホロチヨウヤクバ"
  },
  "5695": {
    "postcode": "0895695",
    "prefecture": "北海道",
    "prefecture_kana": "ホッカイドウ",
    "prefecture_code": 1,
    "city": "十勝郡浦幌町",
    "city_kana": "トカチグンウラホロチョウ",
    "town": "字新町",
    "town_kana": null,
    "street": "１５番地１号（浦幌郵便局私書箱第２号）",
    "office_name": "浦幌町農業協同組合",
    "office_name_kana": "ウラホロチヨウノウギヨウキヨウドウクミアイ"
  },
  "5865": {
    "postcode": "0895865",
    "prefecture": "北海道",
    "prefecture_kana": "ホッカイドウ",
    "prefecture_code": 1,
    "city": "十勝郡浦幌町",
    "city_kana": "トカチグンウラホロチョウ",
    "town": "厚内",
    "town_kana": "アツナイ",
    "street": null,
    "office_name": null,
    "office_name_kana": null
  },
  "5866": {
    "postcode": "0895866",
    "prefecture": "北海道",
    "prefecture_kana": "ホッカイドウ",
    "prefecture_code": 1,
    "city": "十勝郡浦幌町",
    "city_kana": "トカチグンウラホロチョウ",
    "town": "上厚内",
    "town_kana": "カミアツナイ",
    "street": null,
    "office_name": null,
    "office_name_kana": null
  },
  "5867": {
    "postcode": "0895867",
    "prefecture": "北海道",
    "prefecture_kana": "ホッカイドウ",
    "prefecture_code": 1,
    "city": "十勝郡浦幌町",
    "city_kana": "トカチグンウラホロチョウ",
    "town": "オコッペ",
    "town_kana": "オコッペ",
    "street": null,
    "office_name": null,
    "office_name_kana": null
  },
  "5868": {
    "postcode": "0895868",
    "prefecture": "北海道",
    "prefecture_kana": "ホッカイドウ",
    "prefecture_code": 1,
    "city": "十勝郡浦幌町",
    "city_kana": "トカチグンウラホロチョウ",
    "town": "昆布刈石",
    "town_kana": "コブカリイシ",
    "street": null,
    "office_name": null,
    "office_name_kana": null
  },
  "5869": {
    "postcode": "0895869",
    "prefecture": "北海道",
    "prefecture_kana": "ホッカイドウ",
    "prefecture_code": 1,
    "city": "十勝郡浦幌町",
    "city_kana": "トカチグンウラホロチョウ",
    "town": "チプネオコッペ",
    "town_kana": "チプネオコッペ",
    "street": null,
    "office_name": null,
    "office_name_kana": null
  }
}