{
  "0001": {
    "postcode": "0910001",
    "prefecture": "北海道",
    "prefecture_kana": "ホッカイドウ",
    "prefecture_code": 1,
    "city": "北見市",
    "city_kana": "キタミシ",
    "town": "留辺蘂町元町",
    "town_kana": "ルベシベチョウモトマチ",
    "street": null,
    "office_name": null,
    "office_name_kana": null
  },
  "0002": {
    "postcode": "0910002",
    "prefecture": "北海道",
    "prefecture_kana": "ホッカイドウ",
    "prefecture_code": 1,
    "city": "北見市",
    "city_kana": "キタミシ",
    "town": "留辺蘂町東町",
    "town_kana": "ルベシベチョウアズママチ",
    "street": null,
    "office_name": null,
    "office_name_kana": null
  },
  "0003": {
    "postcode": "0910003",
    "prefecture": "北海道",
    "prefecture_kana": "ホッカイドウ",
    "prefecture_code": 1,
    "city": "北見市",
    "city_kana": "キタミシ",
    "town": "留辺蘂町仲町",
    "town_kana": "ルベシベチョウナカマチ",
    "street": null,
    "office_name": null,
    "office_name_kana": null
  },
  "0004": {
    "postcode": "0910004",
    "prefecture": "北海道",
    "prefecture_kana": "ホッカイドウ",
    "prefecture_code": 1,
    "city": "北見市",
    "city_kana": "キタミシ",
    "town": "留辺蘂町上町",
    "town_kana": "ルベシベチョウカミマチ",
    "street": null,
    "office_name": null,
    "office_name_kana": null
  },
  "0007": {
    "postcode": "0910007",
    "prefecture": "北海道",
    "prefecture_kana": "ホッカイドウ",
    "prefecture_code": 1,
    "city": "北見市",
    "city_kana": "キタミシ",
    "town": "留辺蘂町富岡",
    "town_kana": "ルベシベチョウトミオカ",
    "street": null,
    "office_name": null,
    "office_name_kana": null
  },
  "0008": {
    "postcode": "0910008",
    "prefecture": "北海道",
    "prefecture_kana": "ホッカイドウ",
    "prefecture_code": 1,
    "city": "北見市",
    "city_kana": "キタミシ",
    "town": "留辺蘂町宮下町",
    "town_kana": "ルベシベチョウミヤシタチョウ",
    "street": null,
    "office_name": null,
    "office_name_kana": null
  },
  "0011": {
    "postcode": "0910011",
    "prefecture": "北海道",
    "prefecture_kana": "ホッカイドウ",
    "prefecture_code": 1,
    "city": "北見市",
    "city_kana": "キタミシ",
    "town": "留辺蘂町泉",
    "town_kana": "ルベシベチョウイズミ",
    "street": null,
    "office_name": null,
    "office_name_kana": null
  },
  "0016": {
    "postcode": "0910016",
    "prefecture": "北海道",
    "prefecture_kana": "ホッカイドウ",
    "prefecture_code": 1,
    "city": "北見市",
    "city_kana": "キタミシ",
    "town": "留辺蘂町丸山",
    "town_kana": "ルベシベチョウマルヤマ",
    "street": null,
    "office_name": null,
    "office_name_kana": null
  },
  "0017": {
    "postcode": "0910017",
    "prefecture": "北海道",
    "prefecture_kana": "ホッカイドウ",
    "prefecture_code": 1,
    "city": "北見市",
    "city_kana": "キタミシ",
    "town": "留辺蘂町瑞穂",
    "town_kana": "ルベシベチョウミズホ",
    "street": null,
    "office_name": null,
    "office_name_kana": null
  },
  "0018": {
    "postcode": "0910018",
    "prefecture": "北海道",
    "prefecture_kana": "ホッカイドウ",
    "prefecture_code": 1,
    "city": "北見市",
    "city_kana": "キタミシ",
    "town": "留辺蘂町花園",
    "town_kana": "ルベシベチョウハナゾノ",
    "street": null,
    "office_name": null,
    "office_name_kana": null
  },
  "0021": {
    "postcode": "0910021",
    "prefecture": "北海道",
    "prefecture_kana": "ホッカイドウ",
    "prefecture_code": 1,
    "city": "北見市",
    "city_kana": "キタミシ",
    "town": "留辺蘂町金華",
    "town_kana": "ルベシベチョウカネハナ",
    "street": null,
    "office_name": null,
    "office_name_kana": null
  },
  "0022": {
    "postcode": "0910022",
    "prefecture": "北海道",
    "prefecture_kana": "ホッカイドウ",
    "prefecture_code": 1,
    "city": "北見市",
    "city_kana": "キタミシ",
    "town": "留辺蘂町旭東",
    "town_kana": "ルベシベチョウアサヒヒガシ",
    "street": null,
    "office_name": null,
    "office_name_kana": null
  },
  "0023": {
    "postcode": "0910023",
    "prefecture": "北海道",
    "prefecture_kana": "ホッカイドウ",
    "prefecture_code": 1,
    "city": "北見市",
    "city_kana": "キタミシ",
    "town": "留辺蘂町旭中央",
    "town_kana": "ルベシベチョウアサヒチュウオウ",
    "street": null,
    "office_name": null,
    "office_name_kana": null
  },
  "0024": {
    "postcode": "0910024",
    "prefecture": "北海道",
    "prefecture_kana": "ホッカイドウ",
    "prefecture_code": 1,
    "city": "北見市",
    "city_kana": "キタミシ",
    "town": "留辺蘂町旭南",
    "town_kana": "ルベシベチョウアサヒミナミ",
    "street": null,
    "office_name": null,
    "office_name_kana": null
  },
  "0025": {
    "postcode": "0910025",
    "prefecture": "北海道",
    "prefecture_kana": "ホッカイドウ",
    "prefecture_code": 1,
    "city": "北見市",
    "city_kana": "キタミシ",
    "town": "留辺蘂町旭北",
    "town_kana": "ルベシベチョウアサヒキタ",
    "street": null,
    "office_name": null,
    "office_name_kana": null
  },
  "0026": {
    "postcode": "0910026",
    "prefecture": "北海道",
    "prefecture_kana": "ホッカイドウ",
    "prefecture_code": 1,
    "city": "北見市",
    "city_kana": "キタミシ",
    "town": "留辺蘂町旭公園",
    "town_kana": "ルベシベチョウアサヒコウエン",
    "street": null,
    "office_name": null,
    "office_name_kana": null
  },
  "0027": {
    "postcode": "0910027",
    "prefecture": "北海道",
    "prefecture_kana": "ホッカイドウ",
    "prefecture_code": 1,
    "city": "北見市",
    "city_kana": "キタミシ",
    "town": "留辺蘂町旭西",
    "town_kana": "ルベシベチョウアサヒニシ",
    "street": null,
    "office_name": null,
    "office_name_kana": null
  },
  "0028": {
    "postcode": "0910028",
    "prefecture": "北海道",
    "prefecture_kana": "ホッカイドウ",
    "prefecture_code": 1,
    "city": "北見市",
    "city_kana": "キタミシ",
    "town": "留辺蘂町旭３区",
    "town_kana": "ルベシベチョウアサヒ3ク",
    "street": null,
    "office_name": null,
    "office_name_kana": null
  },
  "0029": {
    "postcode": "0910029",
    "prefecture": "北海道",
    "prefecture_kana": "ホッカイドウ",
    "prefecture_code": 1,
    "city": "北見市",
    "city_kana": "キタミシ",
    "town": "留辺蘂町旭１区",
    "town_kana": "ルベシベチョウアサヒ1ク",
    "street": null,
    "office_name": null,
    "office_name_kana": null
  },
  "0031": {
    "postcode": "0910031",
    "prefecture": "北海道",
    "prefecture_kana": "ホッカイドウ",
    "prefecture_code": 1,
    "city": "北見市",
    "city_kana": "キタミシ",
    "town": "留辺蘂町大富",
    "town_kana": "ルベシベチョウオオトミ",
    "street": null,
    "office_name": null,
    "office_name_kana": null
  },
  "0032": {
    "postcode": "0910032",
    "prefecture": "北海道",
    "prefecture_kana": "ホッカイドウ",
    "prefecture_code": 1,
    "city": "北見市",
    "city_kana": "キタミシ",
    "town": "留辺蘂町豊金",
    "town_kana": "ルベシベチョウトヨガネ",
    "street": null,
    "office_name": null,
    "office_name_kana": null
  },
  "0033": {
    "postcode": "0910033",
    "prefecture": "北海道",
    "prefecture_kana": "ホッカイドウ",
    "prefecture_code": 1,
    "city": "北見市",
    "city_kana": "キタミシ",
    "town": "留辺蘂町栄町",
    "town_kana": "ルベシベチョウサカエマチ",
    "street": null,
    "office_name": null,
    "office_name_kana": null
  },
  "0151": {
    "postcode": "0910151",
    "prefecture": "北海道",
    "prefecture_kana": "ホッカイドウ",
    "prefecture_code": 1,
    "city": "北見市",
    "city_kana": "キタミシ",
    "town": "留辺蘂町昭栄",
    "town_kana": "ルベシベチョウショウエイ",
    "street": null,
    "office_name": null,
    "office_name_kana": null
  },
  "0153": {
    "postcode": "0910153",
    "prefecture": "北海道",
    "prefecture_kana": "ホッカイドウ",
    "prefecture_code": 1,
    "city": "北見市",
    "city_kana": "キタミシ",
    "town": "留辺蘂町松山",
    "town_kana": "ルベシベチョウマツヤマ",
    "street": null,
    "office_name": null,
    "office_name_kana": null
  },
  "0154": {
    "postcode": "0910154",
    "prefecture": "北海道",
    "prefecture_kana": "ホッカイドウ",
    "prefecture_code": 1,
    "city": "北見市",
    "city_kana": "キタミシ",
    "town": "留辺蘂町平里",
    "town_kana": "ルベシベチョウヒラサト",
    "street": null,
    "office_name": null,
    "office_name_kana": null
  },
  "0155": {
    "postcode": "0910155",
    "prefecture": "北海道",
    "prefecture_kana": "ホッカイドウ",
    "prefecture_code": 1,
    "city": "北見市",
    "city_kana": "キタミシ",
    "town": "留辺蘂町大和",
    "town_kana": "ルベシベチョウヤマト",
    "street": null,
    "office_name": null,
    "office_name_kana": null
  },
  "0156": {
    "postcode": "0910156",
    "prefecture": "北海道",
    "prefecture_kana": "ホッカイドウ",
    "prefecture_code": 1,
    "city": "北見市",
    "city_kana": "キタミシ",
    "town": "留辺蘂町川北",
    "town_kana": "ルベシベチョウカワキタ",
    "street": null,
    "office_name": null,
    "office_name_kana": null
  },
  "0157": {
    "postcode": "0910157",
    "prefecture": "北海道",
    "prefecture_kana": "ホッカイドウ",
    "prefecture_code": 1,
    "city": "北見市",
    "city_kana": "キタミシ",
    "town": "留辺蘂町花丘",
    "town_kana": "ルベシベチョウハナオカ",
    "street": null,
    "office_name": null,
    "office_name_kana": null
  },
  "0161": {
    "postcode": "0910161",
    "prefecture": "北海道",
    "prefecture_kana": "ホッカイドウ",
    "prefecture_code": 1,
    "city": "北見市",
    "city_kana": "キタミシ",
    "town": "留辺蘂町厚和",
    "town_kana": "ルベシベチョウコウワ",
    "street": null,
    "office_name": null,
    "office_name_kana": null
  },
  "0162": {
    "postcode": "0910162",
    "prefecture": "北海道",
    "prefecture_kana": "ホッカイドウ",
    "prefecture_code": 1,
    "city": "北見市",
    "city_kana": "キタミシ",
    "town": "留辺蘂町富士見",
    "town_kana": "ルベシベチョウフジミ",
    "street": null,
    "office_name": null,
    "office_name_kana": null
  },
  "0163": {
    "postcode": "0910163",
    "prefecture": "北海道",
    "prefecture_kana": "ホッカイドウ",
    "prefecture_code": 1,
    "city": "北見市",
    "city_kana": "キタミシ",
    "town": "留辺蘂町滝の湯",
    "town_kana": "ルベシベチョウタキノユ",
    "street": null,
    "office_name": null,
    "office_name_kana": null
  },
  "0170": {
    "postcode": "0910170",
    "prefecture": "北海道",
    "prefecture_kana": "ホッカイドウ",
    "prefecture_code": 1,
    "city": "北見市",
    "city_kana": "キタミシ",
    "town": "留辺蘂町温根湯温泉",
    "town_kana": "ルベシベチョウオンネユオンセン",
    "street": null,
    "office_name": null,
    "office_name_kana": null
  },
  "0192": {
    "postcode": "0910192",
    "prefecture": "北海道",
    "prefecture_kana": "ホッカイドウ",
    "prefecture_code": 1,
    "city": "北見市",
    "city_kana": "キタミシ",
    "town": "留辺蘂町温根湯温泉",
    "town_kana": "ルベシベチョウオンネユオンセン",
    "street": "１５７番地",
    "office_name": "きたみらい農業協同組合　温根湯支所",
    "office_name_kana": "キタミライノウギヨウキヨウドウクミアイ オンネユシシヨ"
  },
  "0193": {
    "postcode": "0910193",
    "prefecture": "北海道",
    "prefecture_kana": "ホッカイドウ",
    "prefecture_code": 1,
    "city": "北見市",
    "city_kana": "キタミシ",
    "town": "留辺蘂町温根湯温泉",
    "town_kana": "ルベシベチョウオンネユオンセン",
    "street": "番外地",
    "office_name": "（株）　大江本家",
    "office_name_kana": "カブシキガイシヤ オオエホンケ"
  },
  "0194": {
    "postcode": "0910194",
    "prefecture": "北海道",
    "prefecture_kana": "ホッカイドウ",
    "prefecture_code": 1,
    "city": "北見市",
    "city_kana": "キタミシ",
    "town": "留辺蘂町温根湯温泉",
    "town_kana": "ルベシベチョウオンネユオンセン",
    "street": "４９２番地",
    "office_name": "オホーツク観光　（株）　温根湯ホテル",
    "office_name_kana": "オホ-ツクカンコウ カブシキガイシヤ オンネユホテル"
  },
  "0471": {
    "postcode": "0910471",
    "prefecture": "北海道",
    "prefecture_kana": "ホッカイドウ",
    "prefecture_code": 1,
    "city": "常呂郡佐呂間町",
    "city_kana": "トコログンサロマチョウ",
    "town": "大成",
    "town_kana": "タイセイ",
    "street": null,
    "office_name": null,
    "office_name_kana": null
  },
  "0472": {
    "postcode": "0910472",
    "prefecture": "北海道",
    "prefecture_kana": "ホッカイドウ",
    "prefecture_code": 1,
    "city": "常呂郡佐呂間町",
    "city_kana": "トコログンサロマチョウ",
    "town": "栄",
    "town_kana": "サカエ",
    "street": null,
    "office_name": null,
    "office_name_kana": null
  },
  "0473": {
    "postcode": "0910473",
    "prefecture": "北海道",
    "prefecture_kana": "ホッカイドウ",
    "prefecture_code": 1,
    "city": "常呂郡佐呂間町",
    "city_kana": "トコログンサロマチョウ",
    "town": "共立",
    "town_kana": "キョウリツ",
    "street": null,
    "office_name": null,
    "office_name_kana": null
  },
  "0551": {
    "postcode": "0910551",
    "prefecture": "北海道",
    "prefecture_kana": "ホッカイドウ",
    "prefecture_code": 1,
    "city": "常呂郡佐呂間町",
    "city_kana": "トコログンサロマチョウ",
    "town": "若佐",
    "town_kana": "ワカサ",
    "street": null,
    "office_name": null,
    "office_name_kana": null
  },
  "0552": {
    "postcode": "0910552",
    "prefecture": "北海道",
    "prefecture_kana": "ホッカイドウ",
    "prefecture_code": 1,
    "city": "常呂郡佐呂間町",
    "city_kana": "トコログンサロマチョウ",
    "town": "富丘",
    "town_kana": "トミオカ",
    "street": null,
    "office_name": null,
    "office_name_kana": null
  },
  "0553": {
    "postcode": "0910553",
    "prefecture": "北海道",
    "prefecture_kana": "ホッカイドウ",
    "prefecture_code": 1,
    "city": "常呂郡佐呂間町",
    "city_kana": "トコログンサロマチョウ",
    "town": "朝日",
    "town_kana": "アサヒ",
    "street": null,
    "office_name": null,
    "office_name_kana": null
  },
  "0554": {
    "postcode": "0910554",
    "prefecture": "北海道",
    "prefecture_kana": "ホッカイドウ",
    "prefecture_code": 1,
    "city": "常呂郡佐呂間町",
    "city_kana": "トコログンサロマチョウ",
    "town": "武士",
    "town_kana": "ブシ",
    "street": null,
    "office_name": null,
    "office_name_kana": null
  },
  "0555": {
    "postcode": "0910555",
    "prefecture": "北海道",
    "prefecture_kana": "ホッカイドウ",
    "prefecture_code": 1,
    "city": "常呂郡佐呂間町",
    "city_kana": "トコログンサロマチョウ",
    "town": "中園",
    "town_kana": "ナカゾノ",
    "street": null,
    "office_name": null,
    "office_name_kana": null
  },
  "0556": {
    "postcode": "0910556",
    "prefecture": "北海道",
    "prefecture_kana": "ホッカイドウ",
    "prefecture_code": 1,
    "city": "常呂郡佐呂間町",
    "city_kana": "トコログンサロマチョウ",
    "town": "啓生",
    "town_kana": "ケイセイ",
    "street": null,
    "office_name": null,
    "office_name_kana": null
  },
  "0557": {
    "postcode": "0910557",
    "prefecture": "北海道",
    "prefecture_kana": "ホッカイドウ",
    "prefecture_code": 1,
    "city": "常呂郡佐呂間町",
    "city_kana": "トコログンサロマチョウ",
    "town": "川西",
    "town_kana": "カワニシ",
    "street": null,
    "office_name": null,
    "office_name_kana": null
  },
  "0558": {
    "postcode": "0910558",
    "prefecture": "北海道",
    "prefecture_kana": "ホッカイドウ",
    "prefecture_code": 1,
    "city": "常呂郡佐呂間町",
    "city_kana": "トコログンサロマチョウ",
    "town": "栃木",
    "town_kana": "トチギ",
    "street": null,
    "office_name": null,
    "office_name_kana": null
  },
  "8666": {
    "postcode": "0918666",
    "prefecture": "北海道",
    "prefecture_kana": "ホッカイドウ",
    "prefecture_code": 1,
    "city": "北見市",
    "city_kana": "キタミシ",
    "town": "留辺蘂町上町",
    "town_kana": "ルベシベチョウカミマチ",
    "street": "６１番地（留辺蘂郵便局私書箱第１３号）",
    "office_name": "北見市役所　留辺蘂総合支所",
    "office_name_kana": "キタミシヤクシヨ ルベシベソウゴウシシヨ"
  }
}