{
  "0000": {
    "postcode": "0920000",
    "prefecture": "北海道",
    "prefecture_kana": "ホッカイドウ",
    "prefecture_code": 1,
    "city": "網走郡美幌町",
    "city_kana": "アバシリグンビホロチョウ",
    "town": "",
    "town_kana": "",
    "street": null,
    "office_name": null,
    "office_name_kana": null
  },
  "0001": {
    "postcode": "0920001",
    "prefecture": "北海道",
    "prefecture_kana": "ホッカイドウ",
    "prefecture_code": 1,
    "city": "網走郡美幌町",
    "city_kana": "アバシリグンビホロチョウ",
    "town": "高野",
    "town_kana": "タカノ",
    "street": null,
    "office_name": null,
    "office_name_kana": null
  },
  "0002": {
    "postcode": "0920002",
    "prefecture": "北海道",
    "prefecture_kana": "ホッカイドウ",
    "prefecture_code": 1,
    "city": "網走郡美幌町",
    "city_kana": "アバシリグンビホロチョウ",
    "town": "美禽",
    "town_kana": "ミドリ",
    "street": null,
    "office_name": null,
    "office_name_kana": null
  },
  "0003": {
    "postcode": "0920003",
    "prefecture": "北海道",
    "prefecture_kana": "ホッカイドウ",
    "prefecture_code": 1,
    "city": "網走郡美幌町",
    "city_kana": "アバシリグンビホロチョウ",
    "town": "鳥里",
    "town_kana": "トリサト",
    "street": null,
    "office_name": null,
    "office_name_kana": null
  },
  "0004": {
    "postcode": "0920004",
    "prefecture": "北海道",
    "prefecture_kana": "ホッカイドウ",
    "prefecture_code": 1,
    "city": "網走郡美幌町",
    "city_kana": "アバシリグンビホロチョウ",
    "town": "仲町",
    "town_kana": "ナカマチ",
    "street": null,
    "office_name": null,
    "office_name_kana": null
  },
  "0005": {
    "postcode": "0920005",
    "prefecture": "北海道",
    "prefecture_kana": "ホッカイドウ",
    "prefecture_code": 1,
    "city": "網走郡美幌町",
    "city_kana": "アバシリグンビホロチョウ",
    "town": "野崎",
    "town_kana": "ノザキ",
    "street": null,
    "office_name": null,
    "office_name_kana": null
  },
  "0006": {
    "postcode": "0920006",
    "prefecture": "北海道",
    "prefecture_kana": "ホッカイドウ",
    "prefecture_code": 1,
    "city": "網走郡美幌町",
    "city_kana": "アバシリグンビホロチョウ",
    "town": "昭野",
    "town_kana": "アキノ",
    "street": null,
    "office_name": null,
    "office_name_kana": null
  },
  "0007": {
    "postcode": "0920007",
    "prefecture": "北海道",
    "prefecture_kana": "ホッカイドウ",
    "prefecture_code": 1,
    "city": "網走郡美幌町",
    "city_kana": "アバシリグンビホロチョウ",
    "town": "豊岡",
    "town_kana": "トヨオカ",
    "street": null,
    "office_name": null,
    "office_name_kana": null
  },
  "0011": {
    "postcode": "0920011",
    "prefecture": "北海道",
    "prefecture_kana": "ホッカイドウ",
    "prefecture_code": 1,
    "city": "網走郡美幌町",
    "city_kana": "アバシリグンビホロチョウ",
    "town": "東町",
    "town_kana": "ヒガシマチ",
    "street": null,
    "office_name": null,
    "office_name_kana": null
  },
  "0012": {
    "postcode": "0920012",
    "prefecture": "北海道",
    "prefecture_kana": "ホッカイドウ",
    "prefecture_code": 1,
    "city": "網走郡美幌町",
    "city_kana": "アバシリグンビホロチョウ",
    "town": "栄町",
    "town_kana": "サカエマチ",
    "street": null,
    "office_name": null,
    "office_name_kana": null
  },
  "0013": {
    "postcode": "0920013",
    "prefecture": "北海道",
    "prefecture_kana": "ホッカイドウ",
    "prefecture_code": 1,
    "city": "網走郡美幌町",
    "city_kana": "アバシリグンビホロチョウ",
    "town": "美芳",
    "town_kana": "ミヨシ",
    "street": null,
    "office_name": null,
    "office_name_kana": null
  },
  "0014": {
    "postcode": "0920014",
    "prefecture": "北海道",
    "prefecture_kana": "ホッカイドウ",
    "prefecture_code": 1,
    "city": "網走郡美幌町",
    "city_kana": "アバシリグンビホロチョウ",
    "town": "美里",
    "town_kana": "ミサト",
    "street": null,
    "office_name": null,
    "office_name_kana": null
  },
  "0015": {
    "postcode": "0920015",
    "prefecture": "北海道",
    "prefecture_kana": "ホッカイドウ",
    "prefecture_code": 1,
    "city": "網走郡美幌町",
    "city_kana": "アバシリグンビホロチョウ",
    "town": "新町",
    "town_kana": "シンマチ",
    "street": null,
    "office_name": null,
    "office_name_kana": null
  },
  "0016": {
    "postcode": "0920016",
    "prefecture": "北海道",
    "prefecture_kana": "ホッカイドウ",
    "prefecture_code": 1,
    "city": "網走郡美幌町",
    "city_kana": "アバシリグンビホロチョウ",
    "town": "瑞治",
    "town_kana": "ミズハル",
    "street": null,
    "office_name": null,
    "office_name_kana": null
  },
  "0017": {
    "postcode": "0920017",
    "prefecture": "北海道",
    "prefecture_kana": "ホッカイドウ",
    "prefecture_code": 1,
    "city": "網走郡美幌町",
    "city_kana": "アバシリグンビホロチョウ",
    "town": "報徳",
    "town_kana": "ホウトク",
    "street": null,
    "office_name": null,
    "office_name_kana": null
  },
  "0018": {
    "postcode": "0920018",
    "prefecture": "北海道",
    "prefecture_kana": "ホッカイドウ",
    "prefecture_code": 1,
    "city": "網走郡美幌町",
    "city_kana": "アバシリグンビホロチョウ",
    "town": "田中",
    "town_kana": "タナカ",
    "street": null,
    "office_name": null,
    "office_name_kana": null
  },
  "0021": {
    "postcode": "0920021",
    "prefecture": "北海道",
    "prefecture_kana": "ホッカイドウ",
    "prefecture_code": 1,
    "city": "網走郡美幌町",
    "city_kana": "アバシリグンビホロチョウ",
    "town": "日並",
    "town_kana": "ヒナミ",
    "street": null,
    "office_name": null,
    "office_name_kana": null
  },
  "0022": {
    "postcode": "0920022",
    "prefecture": "北海道",
    "prefecture_kana": "ホッカイドウ",
    "prefecture_code": 1,
    "city": "網走郡美幌町",
    "city_kana": "アバシリグンビホロチョウ",
    "town": "古梅",
    "town_kana": "フルウメ",
    "street": null,
    "office_name": null,
    "office_name_kana": null
  },
  "0023": {
    "postcode": "0920023",
    "prefecture": "北海道",
    "prefecture_kana": "ホッカイドウ",
    "prefecture_code": 1,
    "city": "網走郡美幌町",
    "city_kana": "アバシリグンビホロチョウ",
    "town": "豊富",
    "town_kana": "トヨトミ",
    "street": null,
    "office_name": null,
    "office_name_kana": null
  },
  "0024": {
    "postcode": "0920024",
    "prefecture": "北海道",
    "prefecture_kana": "ホッカイドウ",
    "prefecture_code": 1,
    "city": "網走郡美幌町",
    "city_kana": "アバシリグンビホロチョウ",
    "town": "福住",
    "town_kana": "フクズミ",
    "street": null,
    "office_name": null,
    "office_name_kana": null
  },
  "0025": {
    "postcode": "0920025",
    "prefecture": "北海道",
    "prefecture_kana": "ホッカイドウ",
    "prefecture_code": 1,
    "city": "網走郡美幌町",
    "city_kana": "アバシリグンビホロチョウ",
    "town": "駒生",
    "town_kana": "コマオイ",
    "street": null,
    "office_name": null,
    "office_name_kana": null
  },
  "0026": {
    "postcode": "0920026",
    "prefecture": "北海道",
    "prefecture_kana": "ホッカイドウ",
    "prefecture_code": 1,
    "city": "網走郡美幌町",
    "city_kana": "アバシリグンビホロチョウ",
    "town": "都橋",
    "town_kana": "ミヤコバシ",
    "street": null,
    "office_name": null,
    "office_name_kana": null
  },
  "0027": {
    "postcode": "0920027",
    "prefecture": "北海道",
    "prefecture_kana": "ホッカイドウ",
    "prefecture_code": 1,
    "city": "網走郡美幌町",
    "city_kana": "アバシリグンビホロチョウ",
    "town": "稲美",
    "town_kana": "イナミ",
    "street": null,
    "office_name": null,
    "office_name_kana": null
  },
  "0030": {
    "postcode": "0920030",
    "prefecture": "北海道",
    "prefecture_kana": "ホッカイドウ",
    "prefecture_code": 1,
    "city": "網走郡美幌町",
    "city_kana": "アバシリグンビホロチョウ",
    "town": "美富",
    "town_kana": "ミトミ",
    "street": null,
    "office_name": null,
    "office_name_kana": null
  },
  "0031": {
    "postcode": "0920031",
    "prefecture": "北海道",
    "prefecture_kana": "ホッカイドウ",
    "prefecture_code": 1,
    "city": "網走郡美幌町",
    "city_kana": "アバシリグンビホロチョウ",
    "town": "大通南",
    "town_kana": "オオドオリミナミ",
    "street": null,
    "office_name": null,
    "office_name_kana": null
  },
  "0032": {
    "postcode": "0920032",
    "prefecture": "北海道",
    "prefecture_kana": "ホッカイドウ",
    "prefecture_code": 1,
    "city": "網走郡美幌町",
    "city_kana": "アバシリグンビホロチョウ",
    "town": "西一条南",
    "town_kana": "ニシ1ジョウミナミ",
    "street": null,
    "office_name": null,
    "office_name_kana": null
  },
  "0033": {
    "postcode": "0920033",
    "prefecture": "北海道",
    "prefecture_kana": "ホッカイドウ",
    "prefecture_code": 1,
    "city": "網走郡美幌町",
    "city_kana": "アバシリグンビホロチョウ",
    "town": "西二条南",
    "town_kana": "ニシ2ジョウミナミ",
    "street": null,
    "office_name": null,
    "office_name_kana": null
  },
  "0041": {
    "postcode": "0920041",
    "prefecture": "北海道",
    "prefecture_kana": "ホッカイドウ",
    "prefecture_code": 1,
    "city": "網走郡美幌町",
    "city_kana": "アバシリグンビホロチョウ",
    "town": "東一条南",
    "town_kana": "ヒガシ1ジョウミナミ",
    "street": null,
    "office_name": null,
    "office_name_kana": null
  },
  "0042": {
    "postcode": "0920042",
    "prefecture": "北海道",
    "prefecture_kana": "ホッカイドウ",
    "prefecture_code": 1,
    "city": "網走郡美幌町",
    "city_kana": "アバシリグンビホロチョウ",
    "town": "東二条南",
    "town_kana": "ヒガシ2ジョウミナミ",
    "street": null,
    "office_name": null,
    "office_name_kana": null
  },
  "0043": {
    "postcode": "0920043",
    "prefecture": "北海道",
    "prefecture_kana": "ホッカイドウ",
    "prefecture_code": 1,
    "city": "網走郡美幌町",
    "city_kana": "アバシリグンビホロチョウ",
    "town": "東三条南",
    "town_kana": "ヒガシ3ジョウミナミ",
    "street": null,
    "office_name": null,
    "office_name_kana": null
  },
  "0044": {
    "postcode": "0920044",
    "prefecture": "北海道",
    "prefecture_kana": "ホッカイドウ",
    "prefecture_code": 1,
    "city": "網走郡美幌町",
    "city_kana": "アバシリグンビホロチョウ",
    "town": "東四条南",
    "town_kana": "ヒガシ4ジョウミナミ",
    "street": null,
    "office_name": null,
    "office_name_kana": null
  },
  "0050": {
    "postcode": "0920050",
    "prefecture": "北海道",
    "prefecture_kana": "ホッカイドウ",
    "prefecture_code": 1,
    "city": "網走郡美幌町",
    "city_kana": "アバシリグンビホロチョウ",
    "town": "大通北",
    "town_kana": "オオドオリキタ",
    "street": null,
    "office_name": null,
    "office_name_kana": null
  },
  "0051": {
    "postcode": "0920051",
    "prefecture": "北海道",
    "prefecture_kana": "ホッカイドウ",
    "prefecture_code": 1,
    "city": "網走郡美幌町",
    "city_kana": "アバシリグンビホロチョウ",
    "town": "東一条北",
    "town_kana": "ヒガシ1ジョウキタ",
    "street": null,
    "office_name": null,
    "office_name_kana": null
  },
  "0052": {
    "postcode": "0920052",
    "prefecture": "北海道",
    "prefecture_kana": "ホッカイドウ",
    "prefecture_code": 1,
    "city": "網走郡美幌町",
    "city_kana": "アバシリグンビホロチョウ",
    "town": "東二条北",
    "town_kana": "ヒガシ2ジョウキタ",
    "street": null,
    "office_name": null,
    "office_name_kana": null
  },
  "0053": {
    "postcode": "0920053",
    "prefecture": "北海道",
    "prefecture_kana": "ホッカイドウ",
    "prefecture_code": 1,
    "city": "網走郡美幌町",
    "city_kana": "アバシリグンビホロチョウ",
    "town": "東三条北",
    "town_kana": "ヒガシ3ジョウキタ",
    "street": null,
    "office_name": null,
    "office_name_kana": null
  },
  "0061": {
    "postcode": "0920061",
    "prefecture": "北海道",
    "prefecture_kana": "ホッカイドウ",
    "prefecture_code": 1,
    "city": "網走郡美幌町",
    "city_kana": "アバシリグンビホロチョウ",
    "town": "西一条北",
    "town_kana": "ニシ1ジョウキタ",
    "street": null,
    "office_name": null,
    "office_name_kana": null
  },
  "0062": {
    "postcode": "0920062",
    "prefecture": "北海道",
    "prefecture_kana": "ホッカイドウ",
    "prefecture_code": 1,
    "city": "網走郡美幌町",
    "city_kana": "アバシリグンビホロチョウ",
    "town": "西二条北",
    "town_kana": "ニシ2ジョウキタ",
    "street": null,
    "office_name": null,
    "office_name_kana": null
  },
  "0063": {
    "postcode": "0920063",
    "prefecture": "北海道",
    "prefecture_kana": "ホッカイドウ",
    "prefecture_code": 1,
    "city": "網走郡美幌町",
    "city_kana": "アバシリグンビホロチョウ",
    "town": "元町",
    "town_kana": "モトマチ",
    "street": null,
    "office_name": null,
    "office_name_kana": null
  },
  "0064": {
    "postcode": "0920064",
    "prefecture": "北海道",
    "prefecture_kana": "ホッカイドウ",
    "prefecture_code": 1,
    "city": "網走郡美幌町",
    "city_kana": "アバシリグンビホロチョウ",
    "town": "青葉",
    "town_kana": "アオバ",
    "street": null,
    "office_name": null,
    "office_name_kana": null
  },
  "0065": {
    "postcode": "0920065",
    "prefecture": "北海道",
    "prefecture_kana": "ホッカイドウ",
    "prefecture_code": 1,
    "city": "網走郡美幌町",
    "city_kana": "アバシリグンビホロチョウ",
    "town": "青山南",
    "town_kana": "アオヤマミナミ",
    "street": null,
    "office_name": null,
    "office_name_kana": null
  },
  "0066": {
    "postcode": "0920066",
    "prefecture": "北海道",
    "prefecture_kana": "ホッカイドウ",
    "prefecture_code": 1,
    "city": "網走郡美幌町",
    "city_kana": "アバシリグンビホロチョウ",
    "town": "青山北",
    "town_kana": "アオヤマキタ",
    "street": null,
    "office_name": null,
    "office_name_kana": null
  },
  "0067": {
    "postcode": "0920067",
    "prefecture": "北海道",
    "prefecture_kana": "ホッカイドウ",
    "prefecture_code": 1,
    "city": "網走郡美幌町",
    "city_kana": "アバシリグンビホロチョウ",
    "town": "三橋南",
    "town_kana": "ミツハシミナミ",
    "street": null,
    "office_name": null,
    "office_name_kana": null
  },
  "0068": {
    "postcode": "0920068",
    "prefecture": "北海道",
    "prefecture_kana": "ホッカイドウ",
    "prefecture_code": 1,
    "city": "網走郡美幌町",
    "city_kana": "アバシリグンビホロチョウ",
    "town": "三橋町",
    "town_kana": "ミツハシチョウ",
    "street": null,
    "office_name": null,
    "office_name_kana": null
  },
  "0069": {
    "postcode": "0920069",
    "prefecture": "北海道",
    "prefecture_kana": "ホッカイドウ",
    "prefecture_code": 1,
    "city": "網走郡美幌町",
    "city_kana": "アバシリグンビホロチョウ",
    "town": "日の出",
    "town_kana": "ヒノデ",
    "street": null,
    "office_name": null,
    "office_name_kana": null
  },
  "0171": {
    "postcode": "0920171",
    "prefecture": "北海道",
    "prefecture_kana": "ホッカイドウ",
    "prefecture_code": 1,
    "city": "網走郡美幌町",
    "city_kana": "アバシリグンビホロチョウ",
    "town": "美富",
    "town_kana": "ミトミ",
    "street": null,
    "office_name": null,
    "office_name_kana": null
  },
  "0173": {
    "postcode": "0920173",
    "prefecture": "北海道",
    "prefecture_kana": "ホッカイドウ",
    "prefecture_code": 1,
    "city": "網走郡美幌町",
    "city_kana": "アバシリグンビホロチョウ",
    "town": "美和",
    "town_kana": "ビワ",
    "street": null,
    "office_name": null,
    "office_name_kana": null
  },
  "0174": {
    "postcode": "0920174",
    "prefecture": "北海道",
    "prefecture_kana": "ホッカイドウ",
    "prefecture_code": 1,
    "city": "網走郡美幌町",
    "city_kana": "アバシリグンビホロチョウ",
    "town": "栄森",
    "town_kana": "サカエモリ",
    "street": null,
    "office_name": null,
    "office_name_kana": null
  },
  "0175": {
    "postcode": "0920175",
    "prefecture": "北海道",
    "prefecture_kana": "ホッカイドウ",
    "prefecture_code": 1,
    "city": "網走郡美幌町",
    "city_kana": "アバシリグンビホロチョウ",
    "town": "駒生",
    "town_kana": "コマオイ",
    "street": null,
    "office_name": null,
    "office_name_kana": null
  },
  "0176": {
    "postcode": "0920176",
    "prefecture": "北海道",
    "prefecture_kana": "ホッカイドウ",
    "prefecture_code": 1,
    "city": "網走郡美幌町",
    "city_kana": "アバシリグンビホロチョウ",
    "town": "野崎",
    "town_kana": "ノザキ",
    "street": null,
    "office_name": null,
    "office_name_kana": null
  },
  "0181": {
    "postcode": "0920181",
    "prefecture": "北海道",
    "prefecture_kana": "ホッカイドウ",
    "prefecture_code": 1,
    "city": "網走郡美幌町",
    "city_kana": "アバシリグンビホロチョウ",
    "town": "上町",
    "town_kana": "カミマチ",
    "street": null,
    "office_name": null,
    "office_name_kana": null
  },
  "0183": {
    "postcode": "0920183",
    "prefecture": "北海道",
    "prefecture_kana": "ホッカイドウ",
    "prefecture_code": 1,
    "city": "網走郡美幌町",
    "city_kana": "アバシリグンビホロチョウ",
    "town": "豊幌",
    "town_kana": "トヨホロ",
    "street": null,
    "office_name": null,
    "office_name_kana": null
  },
  "0184": {
    "postcode": "0920184",
    "prefecture": "北海道",
    "prefecture_kana": "ホッカイドウ",
    "prefecture_code": 1,
    "city": "網走郡美幌町",
    "city_kana": "アバシリグンビホロチョウ",
    "town": "登栄",
    "town_kana": "トイエ",
    "street": null,
    "office_name": null,
    "office_name_kana": null
  },
  "0200": {
    "postcode": "0920200",
    "prefecture": "北海道",
    "prefecture_kana": "ホッカイドウ",
    "prefecture_code": 1,
    "city": "網走郡津別町",
    "city_kana": "アバシリグンツベツチョウ",
    "town": "",
    "town_kana": "",
    "street": null,
    "office_name": null,
    "office_name_kana": null
  },
  "0201": {
    "postcode": "0920201",
    "prefecture": "北海道",
    "prefecture_kana": "ホッカイドウ",
    "prefecture_code": 1,
    "city": "網走郡津別町",
    "city_kana": "アバシリグンツベツチョウ",
    "town": "最上",
    "town_kana": "モガミ",
    "street": null,
    "office_name": null,
    "office_name_kana": null
  },
  "0203": {
    "postcode": "0920203",
    "prefecture": "北海道",
    "prefecture_kana": "ホッカイドウ",
    "prefecture_code": 1,
    "city": "網走郡津別町",
    "city_kana": "アバシリグンツベツチョウ",
    "town": "達美",
    "town_kana": "タツミ",
    "street": null,
    "office_name": null,
    "office_name_kana": null
  },
  "0205": {
    "postcode": "0920205",
    "prefecture": "北海道",
    "prefecture_kana": "ホッカイドウ",
    "prefecture_code": 1,
    "city": "網走郡津別町",
    "city_kana": "アバシリグンツベツチョウ",
    "town": "岩富",
    "town_kana": "イワトミ",
    "street": null,
    "office_name": null,
    "office_name_kana": null
  },
  "0206": {
    "postcode": "0920206",
    "prefecture": "北海道",
    "prefecture_kana": "ホッカイドウ",
    "prefecture_code": 1,
    "city": "網走郡津別町",
    "city_kana": "アバシリグンツベツチョウ",
    "town": "活汲",
    "town_kana": "カツクミ",
    "street": null,
    "office_name": null,
    "office_name_kana": null
  },
  "0207": {
    "postcode": "0920207",
    "prefecture": "北海道",
    "prefecture_kana": "ホッカイドウ",
    "prefecture_code": 1,
    "city": "網走郡津別町",
    "city_kana": "アバシリグンツベツチョウ",
    "town": "東岡",
    "town_kana": "ヒガシオカ",
    "street": null,
    "office_name": null,
    "office_name_kana": null
  },
  "0211": {
    "postcode": "0920211",
    "prefecture": "北海道",
    "prefecture_kana": "ホッカイドウ",
    "prefecture_code": 1,
    "city": "網走郡津別町",
    "city_kana": "アバシリグンツベツチョウ",
    "town": "西三条",
    "town_kana": "ニシ3ジョウ",
    "street": null,
    "office_name": null,
    "office_name_kana": null
  },
  "0212": {
    "postcode": "0920212",
    "prefecture": "北海道",
    "prefecture_kana": "ホッカイドウ",
    "prefecture_code": 1,
    "city": "網走郡津別町",
    "city_kana": "アバシリグンツベツチョウ",
    "town": "緑町",
    "town_kana": "ミドリマチ",
    "street": null,
    "office_name": null,
    "office_name_kana": null
  },
  "0213": {
    "postcode": "0920213",
    "prefecture": "北海道",
    "prefecture_kana": "ホッカイドウ",
    "prefecture_code": 1,
    "city": "網走郡津別町",
    "city_kana": "アバシリグンツベツチョウ",
    "town": "西四条",
    "town_kana": "ニシ4ジョウ",
    "street": null,
    "office_name": null,
    "office_name_kana": null
  },
  "0214": {
    "postcode": "0920214",
    "prefecture": "北海道",
    "prefecture_kana": "ホッカイドウ",
    "prefecture_code": 1,
    "city": "網走郡津別町",
    "city_kana": "アバシリグンツベツチョウ",
    "town": "西二条",
    "town_kana": "ニシ2ジョウ",
    "street": null,
    "office_name": null,
    "office_name_kana": null
  },
  "0215": {
    "postcode": "0920215",
    "prefecture": "北海道",
    "prefecture_kana": "ホッカイドウ",
    "prefecture_code": 1,
    "city": "網走郡津別町",
    "city_kana": "アバシリグンツベツチョウ",
    "town": "一条通",
    "town_kana": "1ジョウドオリ",
    "street": null,
    "office_name": null,
    "office_name_kana": null
  },
  "0216": {
    "postcode": "0920216",
    "prefecture": "北海道",
    "prefecture_kana": "ホッカイドウ",
    "prefecture_code": 1,
    "city": "網走郡津別町",
    "city_kana": "アバシリグンツベツチョウ",
    "town": "東二条",
    "town_kana": "ヒガシ2ジョウ",
    "street": null,
    "office_name": null,
    "office_name_kana": null
  },
  "0217": {
    "postcode": "0920217",
    "prefecture": "北海道",
    "prefecture_kana": "ホッカイドウ",
    "prefecture_code": 1,
    "city": "網走郡津別町",
    "city_kana": "アバシリグンツベツチョウ",
    "town": "東三条",
    "town_kana": "ヒガシ3ジョウ",
    "street": null,
    "office_name": null,
    "office_name_kana": null
  },
  "0218": {
    "postcode": "0920218",
    "prefecture": "北海道",
    "prefecture_kana": "ホッカイドウ",
    "prefecture_code": 1,
    "city": "網走郡津別町",
    "city_kana": "アバシリグンツベツチョウ",
    "town": "東四条",
    "town_kana": "ヒガシ4ジョウ",
    "street": null,
    "office_name": null,
    "office_name_kana": null
  },
  "0221": {
    "postcode": "0920221",
    "prefecture": "北海道",
    "prefecture_kana": "ホッカイドウ",
    "prefecture_code": 1,
    "city": "網走郡津別町",
    "city_kana": "アバシリグンツベツチョウ",
    "town": "高台",
    "town_kana": "タカダイ",
    "street": null,
    "office_name": null,
    "office_name_kana": null
  },
  "0222": {
    "postcode": "0920222",
    "prefecture": "北海道",
    "prefecture_kana": "ホッカイドウ",
    "prefecture_code": 1,
    "city": "網走郡津別町",
    "city_kana": "アバシリグンツベツチョウ",
    "town": "上里",
    "town_kana": "カミサト",
    "street": null,
    "office_name": null,
    "office_name_kana": null
  },
  "0223": {
    "postcode": "0920223",
    "prefecture": "北海道",
    "prefecture_kana": "ホッカイドウ",
    "prefecture_code": 1,
    "city": "網走郡津別町",
    "city_kana": "アバシリグンツベツチョウ",
    "town": "美都",
    "town_kana": "ミト",
    "street": null,
    "office_name": null,
    "office_name_kana": null
  },
  "0224": {
    "postcode": "0920224",
    "prefecture": "北海道",
    "prefecture_kana": "ホッカイドウ",
    "prefecture_code": 1,
    "city": "網走郡津別町",
    "city_kana": "アバシリグンツベツチョウ",
    "town": "豊永",
    "town_kana": "トヨナガ",
    "street": null,
    "office_name": null,
    "office_name_kana": null
  },
  "0225": {
    "postcode": "0920225",
    "prefecture": "北海道",
    "prefecture_kana": "ホッカイドウ",
    "prefecture_code": 1,
    "city": "網走郡津別町",
    "city_kana": "アバシリグンツベツチョウ",
    "town": "共和",
    "town_kana": "キョウワ",
    "street": null,
    "office_name": null,
    "office_name_kana": null
  },
  "0231": {
    "postcode": "0920231",
    "prefecture": "北海道",
    "prefecture_kana": "ホッカイドウ",
    "prefecture_code": 1,
    "city": "網走郡津別町",
    "city_kana": "アバシリグンツベツチョウ",
    "town": "大通",
    "town_kana": "オオドオリ",
    "street": null,
    "office_name": null,
    "office_name_kana": null
  },
  "0232": {
    "postcode": "0920232",
    "prefecture": "北海道",
    "prefecture_kana": "ホッカイドウ",
    "prefecture_code": 1,
    "city": "網走郡津別町",
    "city_kana": "アバシリグンツベツチョウ",
    "town": "新町",
    "town_kana": "シンマチ",
    "street": null,
    "office_name": null,
    "office_name_kana": null
  },
  "0233": {
    "postcode": "0920233",
    "prefecture": "北海道",
    "prefecture_kana": "ホッカイドウ",
    "prefecture_code": 1,
    "city": "網走郡津別町",
    "city_kana": "アバシリグンツベツチョウ",
    "town": "柏町",
    "town_kana": "カシワマチ",
    "street": null,
    "office_name": null,
    "office_name_kana": null
  },
  "0234": {
    "postcode": "0920234",
    "prefecture": "北海道",
    "prefecture_kana": "ホッカイドウ",
    "prefecture_code": 1,
    "city": "網走郡津別町",
    "city_kana": "アバシリグンツベツチョウ",
    "town": "旭町",
    "town_kana": "アサヒマチ",
    "street": null,
    "office_name": null,
    "office_name_kana": null
  },
  "0235": {
    "postcode": "0920235",
    "prefecture": "北海道",
    "prefecture_kana": "ホッカイドウ",
    "prefecture_code": 1,
    "city": "網走郡津別町",
    "city_kana": "アバシリグンツベツチョウ",
    "town": "幸町",
    "town_kana": "サイワイマチ",
    "street": null,
    "office_name": null,
    "office_name_kana": null
  },
  "0236": {
    "postcode": "0920236",
    "prefecture": "北海道",
    "prefecture_kana": "ホッカイドウ",
    "prefecture_code": 1,
    "city": "網走郡津別町",
    "city_kana": "アバシリグンツベツチョウ",
    "town": "本町",
    "town_kana": "ホンチョウ",
    "street": null,
    "office_name": null,
    "office_name_kana": null
  },
  "0292": {
    "postcode": "0920292",
    "prefecture": "北海道",
    "prefecture_kana": "ホッカイドウ",
    "prefecture_code": 1,
    "city": "網走郡津別町",
    "city_kana": "アバシリグンツベツチョウ",
    "town": "字幸町",
    "town_kana": null,
    "street": "４１番地",
    "office_name": "津別町役場",
    "office_name_kana": "ツベツチヨウヤクバ"
  },
  "0351": {
    "postcode": "0920351",
    "prefecture": "北海道",
    "prefecture_kana": "ホッカイドウ",
    "prefecture_code": 1,
    "city": "網走郡津別町",
    "city_kana": "アバシリグンツベツチョウ",
    "town": "本岐",
    "town_kana": "ホンキ",
    "street": null,
    "office_name": null,
    "office_name_kana": null
  },
  "0352": {
    "postcode": "0920352",
    "prefecture": "北海道",
    "prefecture_kana": "ホッカイドウ",
    "prefecture_code": 1,
    "city": "網走郡津別町",
    "city_kana": "アバシリグンツベツチョウ",
    "town": "木樋",
    "town_kana": "キトイ",
    "street": null,
    "office_name": null,
    "office_name_kana": null
  },
  "0353": {
    "postcode": "0920353",
    "prefecture": "北海道",
    "prefecture_kana": "ホッカイドウ",
    "prefecture_code": 1,
    "city": "網走郡津別町",
    "city_kana": "アバシリグンツベツチョウ",
    "town": "二又",
    "town_kana": "フタマタ",
    "street": null,
    "office_name": null,
    "office_name_kana": null
  },
  "0354": {
    "postcode": "0920354",
    "prefecture": "北海道",
    "prefecture_kana": "ホッカイドウ",
    "prefecture_code": 1,
    "city": "網走郡津別町",
    "city_kana": "アバシリグンツベツチョウ",
    "town": "双葉",
    "town_kana": "フタバ",
    "street": null,
    "office_name": null,
    "office_name_kana": null
  },
  "0355": {
    "postcode": "0920355",
    "prefecture": "北海道",
    "prefecture_kana": "ホッカイドウ",
    "prefecture_code": 1,
    "city": "網走郡津別町",
    "city_kana": "アバシリグンツベツチョウ",
    "town": "恩根",
    "town_kana": "オンネ",
    "street": null,
    "office_name": null,
    "office_name_kana": null
  },
  "0356": {
    "postcode": "0920356",
    "prefecture": "北海道",
    "prefecture_kana": "ホッカイドウ",
    "prefecture_code": 1,
    "city": "網走郡津別町",
    "city_kana": "アバシリグンツベツチョウ",
    "town": "栄",
    "town_kana": "サカエ",
    "street": null,
    "office_name": null,
    "office_name_kana": null
  },
  "0357": {
    "postcode": "0920357",
    "prefecture": "北海道",
    "prefecture_kana": "ホッカイドウ",
    "prefecture_code": 1,
    "city": "網走郡津別町",
    "city_kana": "アバシリグンツベツチョウ",
    "town": "大昭",
    "town_kana": "タイショウ",
    "street": null,
    "office_name": null,
    "office_name_kana": null
  },
  "0358": {
    "postcode": "0920358",
    "prefecture": "北海道",
    "prefecture_kana": "ホッカイドウ",
    "prefecture_code": 1,
    "city": "網走郡津別町",
    "city_kana": "アバシリグンツベツチョウ",
    "town": "沼沢",
    "town_kana": "ヌマサワ",
    "street": null,
    "office_name": null,
    "office_name_kana": null
  },
  "0361": {
    "postcode": "0920361",
    "prefecture": "北海道",
    "prefecture_kana": "ホッカイドウ",
    "prefecture_code": 1,
    "city": "網走郡津別町",
    "city_kana": "アバシリグンツベツチョウ",
    "town": "相生",
    "town_kana": "アイオイ",
    "street": null,
    "office_name": null,
    "office_name_kana": null
  },
  "0362": {
    "postcode": "0920362",
    "prefecture": "北海道",
    "prefecture_kana": "ホッカイドウ",
    "prefecture_code": 1,
    "city": "網走郡津別町",
    "city_kana": "アバシリグンツベツチョウ",
    "town": "布川",
    "town_kana": "ヌノカワ",
    "street": null,
    "office_name": null,
    "office_name_kana": null
  },
  "8501": {
    "postcode": "0928501",
    "prefecture": "北海道",
    "prefecture_kana": "ホッカイドウ",
    "prefecture_code": 1,
    "city": "網走郡美幌町",
    "city_kana": "アバシリグンビホロチョウ",
    "town": "字田中",
    "town_kana": null,
    "street": "国有地",
    "office_name": "陸上自衛隊　美幌駐屯地",
    "office_name_kana": "リクジヨウジエイタイ ビホロチユウトンチ"
  },
  "8650": {
    "postcode": "0928650",
    "prefecture": "北海道",
    "prefecture_kana": "ホッカイドウ",
    "prefecture_code": 1,
    "city": "網走郡美幌町",
    "city_kana": "アバシリグンビホロチョウ",
    "town": "字東二条北",
    "town_kana": null,
    "street": "２丁目（美幌郵便局私書箱第７号）",
    "office_name": "美幌町役場",
    "office_name_kana": "ビホロチヨウヤクバ"
  },
  "8651": {
    "postcode": "0928651",
    "prefecture": "北海道",
    "prefecture_kana": "ホッカイドウ",
    "prefecture_code": 1,
    "city": "網走郡美幌町",
    "city_kana": "アバシリグンビホロチョウ",
    "town": "字青山南",
    "town_kana": null,
    "street": "３０−１（美幌郵便局私書箱第８号）",
    "office_name": "美幌町農業協同組合",
    "office_name_kana": "ビホロチヨウノウギヨウキヨウドウクミアイ"
  }
}