{
  "0000": {
    "postcode": "0940000",
    "prefecture": "北海道",
    "prefecture_kana": "ホッカイドウ",
    "prefecture_code": 1,
    "city": "紋別市",
    "city_kana": "モンベツシ",
    "town": "",
    "town_kana": "",
    "street": null,
    "office_name": null,
    "office_name_kana": null
  },
  "0001": {
    "postcode": "0940001",
    "prefecture": "北海道",
    "prefecture_kana": "ホッカイドウ",
    "prefecture_code": 1,
    "city": "紋別市",
    "city_kana": "モンベツシ",
    "town": "北浜町",
    "town_kana": "キタハマチョウ",
    "street": null,
    "office_name": null,
    "office_name_kana": null
  },
  "0002": {
    "postcode": "0940002",
    "prefecture": "北海道",
    "prefecture_kana": "ホッカイドウ",
    "prefecture_code": 1,
    "city": "紋別市",
    "city_kana": "モンベツシ",
    "town": "真砂町",
    "town_kana": "マサゴチョウ",
    "street": null,
    "office_name": null,
    "office_name_kana": null
  },
  "0003": {
    "postcode": "0940003",
    "prefecture": "北海道",
    "prefecture_kana": "ホッカイドウ",
    "prefecture_code": 1,
    "city": "紋別市",
    "city_kana": "モンベツシ",
    "town": "弁天町",
    "town_kana": "ベンテンチョウ",
    "street": null,
    "office_name": null,
    "office_name_kana": null
  },
  "0004": {
    "postcode": "0940004",
    "prefecture": "北海道",
    "prefecture_kana": "ホッカイドウ",
    "prefecture_code": 1,
    "city": "紋別市",
    "city_kana": "モンベツシ",
    "town": "本町",
    "town_kana": "ホンチョウ",
    "street": null,
    "office_name": null,
    "office_name_kana": null
  },
  "0005": {
    "postcode": "0940005",
    "prefecture": "北海道",
    "prefecture_kana": "ホッカイドウ",
    "prefecture_code": 1,
    "city": "紋別市",
    "city_kana": "モンベツシ",
    "town": "幸町",
    "town_kana": "サイワイチョウ",
    "street": null,
    "office_name": null,
    "office_name_kana": null
  },
  "0006": {
    "postcode": "0940006",
    "prefecture": "北海道",
    "prefecture_kana": "ホッカイドウ",
    "prefecture_code": 1,
    "city": "紋別市",
    "city_kana": "モンベツシ",
    "town": "潮見町",
    "town_kana": "シオミチョウ",
    "street": null,
    "office_name": null,
    "office_name_kana": null
  },
  "0007": {
    "postcode": "0940007",
    "prefecture": "北海道",
    "prefecture_kana": "ホッカイドウ",
    "prefecture_code": 1,
    "city": "紋別市",
    "city_kana": "モンベツシ",
    "town": "落石町",
    "town_kana": "オチイシチョウ",
    "street": null,
    "office_name": null,
    "office_name_kana": null
  },
  "0011": {
    "postcode": "0940011",
    "prefecture": "北海道",
    "prefecture_kana": "ホッカイドウ",
    "prefecture_code": 1,
    "city": "紋別市",
    "city_kana": "モンベツシ",
    "town": "港町",
    "town_kana": "ミナトチョウ",
    "street": null,
    "office_name": null,
    "office_name_kana": null
  },
  "0012": {
    "postcode": "0940012",
    "prefecture": "北海道",
    "prefecture_kana": "ホッカイドウ",
    "prefecture_code": 1,
    "city": "紋別市",
    "city_kana": "モンベツシ",
    "town": "新港町",
    "town_kana": "シンコウチョウ",
    "street": null,
    "office_name": null,
    "office_name_kana": null
  },
  "0013": {
    "postcode": "0940013",
    "prefecture": "北海道",
    "prefecture_kana": "ホッカイドウ",
    "prefecture_code": 1,
    "city": "紋別市",
    "city_kana": "モンベツシ",
    "town": "南が丘町",
    "town_kana": "ミナミガオカチョウ",
    "street": null,
    "office_name": null,
    "office_name_kana": null
  },
  "0014": {
    "postcode": "0940014",
    "prefecture": "北海道",
    "prefecture_kana": "ホッカイドウ",
    "prefecture_code": 1,
    "city": "紋別市",
    "city_kana": "モンベツシ",
    "town": "緑町",
    "town_kana": "ミドリチョウ",
    "street": null,
    "office_name": null,
    "office_name_kana": null
  },
  "0015": {
    "postcode": "0940015",
    "prefecture": "北海道",
    "prefecture_kana": "ホッカイドウ",
    "prefecture_code": 1,
    "city": "紋別市",
    "city_kana": "モンベツシ",
    "town": "花園町",
    "town_kana": "ハナゾノチョウ",
    "street": null,
    "office_name": null,
    "office_name_kana": null
  },
  "0021": {
    "postcode": "0940021",
    "prefecture": "北海道",
    "prefecture_kana": "ホッカイドウ",
    "prefecture_code": 1,
    "city": "紋別市",
    "city_kana": "モンベツシ",
    "town": "大山町",
    "town_kana": "オオヤマチョウ",
    "street": null,
    "office_name": null,
    "office_name_kana": null
  },
  "0022": {
    "postcode": "0940022",
    "prefecture": "北海道",
    "prefecture_kana": "ホッカイドウ",
    "prefecture_code": 1,
    "city": "紋別市",
    "city_kana": "モンベツシ",
    "town": "新生",
    "town_kana": "シンセイ",
    "street": null,
    "office_name": null,
    "office_name_kana": null
  },
  "0023": {
    "postcode": "0940023",
    "prefecture": "北海道",
    "prefecture_kana": "ホッカイドウ",
    "prefecture_code": 1,
    "city": "紋別市",
    "city_kana": "モンベツシ",
    "town": "元紋別",
    "town_kana": "モトモンベツ",
    "street": null,
    "office_name": null,
    "office_name_kana": null
  },
  "0024": {
    "postcode": "0940024",
    "prefecture": "北海道",
    "prefecture_kana": "ホッカイドウ",
    "prefecture_code": 1,
    "city": "紋別市",
    "city_kana": "モンベツシ",
    "town": "藻別",
    "town_kana": "モベツ",
    "street": null,
    "office_name": null,
    "office_name_kana": null
  },
  "0025": {
    "postcode": "0940025",
    "prefecture": "北海道",
    "prefecture_kana": "ホッカイドウ",
    "prefecture_code": 1,
    "city": "紋別市",
    "city_kana": "モンベツシ",
    "town": "上藻別",
    "town_kana": "カミモベツ",
    "street": null,
    "office_name": null,
    "office_name_kana": null
  },
  "0026": {
    "postcode": "0940026",
    "prefecture": "北海道",
    "prefecture_kana": "ホッカイドウ",
    "prefecture_code": 1,
    "city": "紋別市",
    "city_kana": "モンベツシ",
    "town": "鴻之舞",
    "town_kana": "コウノマイ",
    "street": null,
    "office_name": null,
    "office_name_kana": null
  },
  "0027": {
    "postcode": "0940027",
    "prefecture": "北海道",
    "prefecture_kana": "ホッカイドウ",
    "prefecture_code": 1,
    "city": "紋別市",
    "city_kana": "モンベツシ",
    "town": "上鴻之舞",
    "town_kana": "カミコウノマイ",
    "street": null,
    "office_name": null,
    "office_name_kana": null
  },
  "0031": {
    "postcode": "0940031",
    "prefecture": "北海道",
    "prefecture_kana": "ホッカイドウ",
    "prefecture_code": 1,
    "city": "紋別市",
    "city_kana": "モンベツシ",
    "town": "海洋公園",
    "town_kana": "カイヨウコウエン",
    "street": null,
    "office_name": null,
    "office_name_kana": null
  },
  "8551": {
    "postcode": "0948551",
    "prefecture": "北海道",
    "prefecture_kana": "ホッカイドウ",
    "prefecture_code": 1,
    "city": "紋別市",
    "city_kana": "モンベツシ",
    "town": "幸町",
    "town_kana": "サイワイチョウ",
    "street": "５丁目",
    "office_name": "みゆき観光開発　株式会社",
    "office_name_kana": "ミユキカンコウカイハツ カブシキガイシヤ"
  },
  "8553": {
    "postcode": "0948553",
    "prefecture": "北海道",
    "prefecture_kana": "ホッカイドウ",
    "prefecture_code": 1,
    "city": "紋別市",
    "city_kana": "モンベツシ",
    "town": "元紋別",
    "town_kana": "モトモンベツ",
    "street": "６番地の１",
    "office_name": "北方建設産業　株式会社",
    "office_name_kana": "ホツポウケンセツサンギヨウ カブシキガイシヤ"
  },
  "8554": {
    "postcode": "0948554",
    "prefecture": "北海道",
    "prefecture_kana": "ホッカイドウ",
    "prefecture_code": 1,
    "city": "紋別市",
    "city_kana": "モンベツシ",
    "town": "幸町",
    "town_kana": "サイワイチョウ",
    "street": "６丁目",
    "office_name": "北海道オホーツク総合振興局　紋別道税事務所",
    "office_name_kana": "ホツカイドウオホ-ツクソウゴウシンコウキヨク モンベツドウゼイジムシヨ"
  },
  "8601": {
    "postcode": "0948601",
    "prefecture": "北海道",
    "prefecture_kana": "ホッカイドウ",
    "prefecture_code": 1,
    "city": "紋別市",
    "city_kana": "モンベツシ",
    "town": "港町",
    "town_kana": "ミナトチョウ",
    "street": "６丁目５−２",
    "office_name": "紋別漁業協同組合",
    "office_name_kana": "モンベツギヨギヨウキヨウドウクミアイ"
  },
  "8602": {
    "postcode": "0948602",
    "prefecture": "北海道",
    "prefecture_kana": "ホッカイドウ",
    "prefecture_code": 1,
    "city": "紋別市",
    "city_kana": "モンベツシ",
    "town": "港町",
    "town_kana": "ミナトチョウ",
    "street": "６丁目２−１２",
    "office_name": "北海道信用漁業協同組合連合会　北見支店",
    "office_name_kana": "ホツカイドウシンヨウギヨギヨウキヨウドウクミアイレンゴウカイ キタミシテン"
  },
  "8609": {
    "postcode": "0948609",
    "prefecture": "北海道",
    "prefecture_kana": "ホッカイドウ",
    "prefecture_code": 1,
    "city": "紋別市",
    "city_kana": "モンベツシ",
    "town": "南が丘町",
    "town_kana": "ミナミガオカチョウ",
    "street": "７丁目７２番５号",
    "office_name": "紋別公共職業安定所",
    "office_name_kana": "モンベツコウキヨウシヨクギヨウアンテイシヨ"
  },
  "8641": {
    "postcode": "0948641",
    "prefecture": "北海道",
    "prefecture_kana": "ホッカイドウ",
    "prefecture_code": 1,
    "city": "紋別市",
    "city_kana": "モンベツシ",
    "town": "南が丘町",
    "town_kana": "ミナミガオカチョウ",
    "street": "１丁目５",
    "office_name": "紋別警察署",
    "office_name_kana": "モンベツケイサツシヨ"
  },
  "8642": {
    "postcode": "0948642",
    "prefecture": "北海道",
    "prefecture_kana": "ホッカイドウ",
    "prefecture_code": 1,
    "city": "紋別市",
    "city_kana": "モンベツシ",
    "town": "南が丘町",
    "town_kana": "ミナミガオカチョウ",
    "street": "１丁目６",
    "office_name": "北海道　紋別保健所",
    "office_name_kana": "ホツカイドウ モンベツホケンシヨ"
  },
  "8643": {
    "postcode": "0948643",
    "prefecture": "北海道",
    "prefecture_kana": "ホッカイドウ",
    "prefecture_code": 1,
    "city": "紋別市",
    "city_kana": "モンベツシ",
    "town": "南が丘町",
    "town_kana": "ミナミガオカチョウ",
    "street": "６丁目３−４７",
    "office_name": "北海道紋別高等学校",
    "office_name_kana": "ホツカイドウモンベツコウトウガツコウ"
  },
  "8644": {
    "postcode": "0948644",
    "prefecture": "北海道",
    "prefecture_kana": "ホッカイドウ",
    "prefecture_code": 1,
    "city": "紋別市",
    "city_kana": "モンベツシ",
    "town": "新港町",
    "town_kana": "シンコウチョウ",
    "street": "２丁目１１−７",
    "office_name": "マルカイチ水産　株式会社",
    "office_name_kana": "マルカイチスイサン カブシキガイシヤ"
  },
  "8645": {
    "postcode": "0948645",
    "prefecture": "北海道",
    "prefecture_kana": "ホッカイドウ",
    "prefecture_code": 1,
    "city": "紋別市",
    "city_kana": "モンベツシ",
    "town": "花園町",
    "town_kana": "ハナゾノチョウ",
    "street": "３丁目４−３９",
    "office_name": "イオン北海道　株式会社　紋別店",
    "office_name_kana": "イオンホツカイドウ カブシキガイシヤ モンベツテン"
  },
  "8646": {
    "postcode": "0948646",
    "prefecture": "北海道",
    "prefecture_kana": "ホッカイドウ",
    "prefecture_code": 1,
    "city": "紋別市",
    "city_kana": "モンベツシ",
    "town": "緑町",
    "town_kana": "ミドリチョウ",
    "street": "５丁目６−７",
    "office_name": "北海道立　紋別高等看護学院",
    "office_name_kana": "ホツカイドウリツ モンベツコウトウカンゴガクイン"
  },
  "8701": {
    "postcode": "0948701",
    "prefecture": "北海道",
    "prefecture_kana": "ホッカイドウ",
    "prefecture_code": 1,
    "city": "紋別市",
    "city_kana": "モンベツシ",
    "town": "本町",
    "town_kana": "ホンチョウ",
    "street": "４丁目（紋別郵便局私書箱第２号）",
    "office_name": "紋別商工会議所",
    "office_name_kana": "モンベツシヨウコウカイギシヨ"
  },
  "8702": {
    "postcode": "0948702",
    "prefecture": "北海道",
    "prefecture_kana": "ホッカイドウ",
    "prefecture_code": 1,
    "city": "紋別市",
    "city_kana": "モンベツシ",
    "town": "港町",
    "town_kana": "ミナトチョウ",
    "street": "３丁目１−３（紋別郵便局私書箱第３号）",
    "office_name": "株式会社　丸三　岩倉商店",
    "office_name_kana": "カブシキガイシヤ マルサン イワクラシヨウテン"
  },
  "8703": {
    "postcode": "0948703",
    "prefecture": "北海道",
    "prefecture_kana": "ホッカイドウ",
    "prefecture_code": 1,
    "city": "紋別市",
    "city_kana": "モンベツシ",
    "town": "本町",
    "town_kana": "ホンチョウ",
    "street": "３丁目１−２２（紋別郵便局私書箱第６号）",
    "office_name": "（株）　北洋銀行　紋別中央支店",
    "office_name_kana": "カブシキガイシヤ ホクヨウギンコウ モンベツチユウオウシテン"
  },
  "8704": {
    "postcode": "0948704",
    "prefecture": "北海道",
    "prefecture_kana": "ホッカイドウ",
    "prefecture_code": 1,
    "city": "紋別市",
    "city_kana": "モンベツシ",
    "town": "本町",
    "town_kana": "ホンチョウ",
    "street": "４丁目２−７（紋別郵便局私書箱第７号）",
    "office_name": "大安サービス　株式会社",
    "office_name_kana": "タイアンサ-ビス カブシキガイシヤ"
  },
  "8705": {
    "postcode": "0948705",
    "prefecture": "北海道",
    "prefecture_kana": "ホッカイドウ",
    "prefecture_code": 1,
    "city": "紋別市",
    "city_kana": "モンベツシ",
    "town": "北浜町",
    "town_kana": "キタハマチョウ",
    "street": "１丁目（紋別郵便局私書箱第８号）",
    "office_name": "株式会社　三幸",
    "office_name_kana": "カブシキガイシヤ サンコウ"
  },
  "8706": {
    "postcode": "0948706",
    "prefecture": "北海道",
    "prefecture_kana": "ホッカイドウ",
    "prefecture_code": 1,
    "city": "紋別市",
    "city_kana": "モンベツシ",
    "town": "幸町",
    "town_kana": "サイワイチョウ",
    "street": "４丁目２−１５（紋別郵便局私書箱第１０号）",
    "office_name": "北見信用金庫　紋別支店",
    "office_name_kana": "キタミシンヨウキンコ モンベツシテン"
  },
  "8707": {
    "postcode": "0948707",
    "prefecture": "北海道",
    "prefecture_kana": "ホッカイドウ",
    "prefecture_code": 1,
    "city": "紋別市",
    "city_kana": "モンベツシ",
    "town": "幸町",
    "town_kana": "サイワイチョウ",
    "street": "２丁目１−１８（紋別郵便局私書箱第１２号）",
    "office_name": "紋別市役所",
    "office_name_kana": "モンベツシヤクシヨ"
  },
  "8708": {
    "postcode": "0948708",
    "prefecture": "北海道",
    "prefecture_kana": "ホッカイドウ",
    "prefecture_code": 1,
    "city": "紋別市",
    "city_kana": "モンベツシ",
    "town": "港町",
    "town_kana": "ミナトチョウ",
    "street": "５丁目（紋別郵便局私書箱第１３号）",
    "office_name": "東海倉庫　株式会社",
    "office_name_kana": "トウカイソウコ カブシキガイシヤ"
  },
  "8709": {
    "postcode": "0948709",
    "prefecture": "北海道",
    "prefecture_kana": "ホッカイドウ",
    "prefecture_code": 1,
    "city": "紋別市",
    "city_kana": "モンベツシ",
    "town": "緑町",
    "town_kana": "ミドリチョウ",
    "street": "５丁目６−８（紋別郵便局私書箱第１９号）",
    "office_name": "広域紋別病院企業団",
    "office_name_kana": "コウイキモンベツビヨウインキギヨウダン"
  },
  "8710": {
    "postcode": "0948710",
    "prefecture": "北海道",
    "prefecture_kana": "ホッカイドウ",
    "prefecture_code": 1,
    "city": "紋別市",
    "city_kana": "モンベツシ",
    "town": "落石町",
    "town_kana": "オチイシチョウ",
    "street": "４丁目１３−６（紋別郵便局私書箱第２０号）",
    "office_name": "オホーツクはまなす農協",
    "office_name_kana": "オホ-ツクハマナスノウキヨウ"
  },
  "8712": {
    "postcode": "0948712",
    "prefecture": "北海道",
    "prefecture_kana": "ホッカイドウ",
    "prefecture_code": 1,
    "city": "紋別市",
    "city_kana": "モンベツシ",
    "town": "幸町",
    "town_kana": "サイワイチョウ",
    "street": "４丁目（紋別郵便局私書箱第２４号）",
    "office_name": "株式会社　民友商事",
    "office_name_kana": "カブシキガイシヤ ミンユウシヨウジ"
  },
  "8713": {
    "postcode": "0948713",
    "prefecture": "北海道",
    "prefecture_kana": "ホッカイドウ",
    "prefecture_code": 1,
    "city": "紋別市",
    "city_kana": "モンベツシ",
    "town": "本町",
    "town_kana": "ホンチョウ",
    "street": "５丁目１−５（紋別郵便局私書箱第２７号）",
    "office_name": "株式会社　北海道銀行　紋別支店",
    "office_name_kana": "カブシキガイシヤ ホツカイドウギンコウ モンベツシテン"
  },
  "8714": {
    "postcode": "0948714",
    "prefecture": "北海道",
    "prefecture_kana": "ホッカイドウ",
    "prefecture_code": 1,
    "city": "紋別市",
    "city_kana": "モンベツシ",
    "town": "幸町",
    "town_kana": "サイワイチョウ",
    "street": "４丁目（紋別郵便局私書箱第３３号）",
    "office_name": "大原病院",
    "office_name_kana": "オオハラビヨウイン"
  },
  "8715": {
    "postcode": "0948715",
    "prefecture": "北海道",
    "prefecture_kana": "ホッカイドウ",
    "prefecture_code": 1,
    "city": "紋別市",
    "city_kana": "モンベツシ",
    "town": "港町",
    "town_kana": "ミナトチョウ",
    "street": "１丁目（紋別郵便局私書箱第３５号）",
    "office_name": "株式会社　西村組　紋別支店",
    "office_name_kana": "カブシキガイシヤ ニシムラグミ モンベツシテン"
  },
  "8716": {
    "postcode": "0948716",
    "prefecture": "北海道",
    "prefecture_kana": "ホッカイドウ",
    "prefecture_code": 1,
    "city": "紋別市",
    "city_kana": "モンベツシ",
    "town": "花園町",
    "town_kana": "ハナゾノチョウ",
    "street": "１丁目３−３（紋別郵便局私書箱第３７号）",
    "office_name": "紋別医師会",
    "office_name_kana": "モンベツイシカイ"
  },
  "8717": {
    "postcode": "0948717",
    "prefecture": "北海道",
    "prefecture_kana": "ホッカイドウ",
    "prefecture_code": 1,
    "city": "紋別市",
    "city_kana": "モンベツシ",
    "town": "北浜町",
    "town_kana": "キタハマチョウ",
    "street": "１丁目１１−２２（紋別郵便局私書箱第４７号）",
    "office_name": "株式会社　藤川水産",
    "office_name_kana": "カブシキガイシヤ フジカワスイサン"
  }
}