{
  "0031": {
    "postcode": "1060031",
    "prefecture": "東京都",
    "prefecture_kana": "トウキョウト",
    "prefecture_code": 13,
    "city": "港区",
    "city_kana": "ミナトク",
    "town": "西麻布",
    "town_kana": "ニシアザブ",
    "street": null,
    "office_name": null,
    "office_name_kana": null
  },
  "0032": {
    "postcode": "1060032",
    "prefecture": "東京都",
    "prefecture_kana": "トウキョウト",
    "prefecture_code": 13,
    "city": "港区",
    "city_kana": "ミナトク",
    "town": "六本木",
    "town_kana": "ロッポンギ",
    "street": null,
    "office_name": null,
    "office_name_kana": null
  },
  "0041": {
    "postcode": "1060041",
    "prefecture": "東京都",
    "prefecture_kana": "トウキョウト",
    "prefecture_code": 13,
    "city": "港区",
    "city_kana": "ミナトク",
    "town": "麻布台",
    "town_kana": "アザブダイ",
    "street": null,
    "office_name": null,
    "office_name_kana": null
  },
  "0042": {
    "postcode": "1060042",
    "prefecture": "東京都",
    "prefecture_kana": "トウキョウト",
    "prefecture_code": 13,
    "city": "港区",
    "city_kana": "ミナトク",
    "town": "麻布狸穴町",
    "town_kana": "アザブマミアナチョウ",
    "street": null,
    "office_name": null,
    "office_name_kana": null
  },
  "0043": {
    "postcode": "1060043",
    "prefecture": "東京都",
    "prefecture_kana": "トウキョウト",
    "prefecture_code": 13,
    "city": "港区",
    "city_kana": "ミナトク",
    "town": "麻布永坂町",
    "town_kana": "アザブナガサカチョウ",
    "street": null,
    "office_name": null,
    "office_name_kana": null
  },
  "0044": {
    "postcode": "1060044",
    "prefecture": "東京都",
    "prefecture_kana": "トウキョウト",
    "prefecture_code": 13,
    "city": "港区",
    "city_kana": "ミナトク",
    "town": "東麻布",
    "town_kana": "ヒガシアザブ",
    "street": null,
    "office_name": null,
    "office_name_kana": null
  },
  "0045": {
    "postcode": "1060045",
    "prefecture": "東京都",
    "prefecture_kana": "トウキョウト",
    "prefecture_code": 13,
    "city": "港区",
    "city_kana": "ミナトク",
    "town": "麻布十番",
    "town_kana": "アザブジュウバン",
    "street": null,
    "office_name": null,
    "office_name_kana": null
  },
  "0046": {
    "postcode": "1060046",
    "prefecture": "東京都",
    "prefecture_kana": "トウキョウト",
    "prefecture_code": 13,
    "city": "港区",
    "city_kana": "ミナトク",
    "town": "元麻布",
    "town_kana": "モトアザブ",
    "street": null,
    "office_name": null,
    "office_name_kana": null
  },
  "0047": {
    "postcode": "1060047",
    "prefecture": "東京都",
    "prefecture_kana": "トウキョウト",
    "prefecture_code": 13,
    "city": "港区",
    "city_kana": "ミナトク",
    "town": "南麻布",
    "town_kana": "ミナミアザブ",
    "street": null,
    "office_name": null,
    "office_name_kana": null
  },
  "6001": {
    "postcode": "1066001",
    "prefecture": "東京都",
    "prefecture_kana": "トウキョウト",
    "prefecture_code": 13,
    "city": "港区",
    "city_kana": "ミナトク",
    "town": "六本木泉ガーデンタワー　１階",
    "town_kana": "ロッポンギイズミガーデンタワー1カイ",
    "street": null,
    "office_name": null,
    "office_name_kana": null
  },
  "6002": {
    "postcode": "1066002",
    "prefecture": "東京都",
    "prefecture_kana": "トウキョウト",
    "prefecture_code": 13,
    "city": "港区",
    "city_kana": "ミナトク",
    "town": "六本木泉ガーデンタワー　２階",
    "town_kana": "ロッポンギイズミガーデンタワー2カイ",
    "street": null,
    "office_name": null,
    "office_name_kana": null
  },
  "6003": {
    "postcode": "1066003",
    "prefecture": "東京都",
    "prefecture_kana": "トウキョウト",
    "prefecture_code": 13,
    "city": "港区",
    "city_kana": "ミナトク",
    "town": "六本木泉ガーデンタワー　３階",
    "town_kana": "ロッポンギイズミガーデンタワー3カイ",
    "street": null,
    "office_name": null,
    "office_name_kana": null
  },
  "6004": {
    "postcode": "1066004",
    "prefecture": "東京都",
    "prefecture_kana": "トウキョウト",
    "prefecture_code": 13,
    "city": "港区",
    "city_kana": "ミナトク",
    "town": "六本木泉ガーデンタワー　４階",
    "town_kana": "ロッポンギイズミガーデンタワー4カイ",
    "street": null,
    "office_name": null,
    "office_name_kana": null
  },
  "6005": {
    "postcode": "1066005",
    "prefecture": "東京都",
    "prefecture_kana": "トウキョウト",
    "prefecture_code": 13,
    "city": "港区",
    "city_kana": "ミナトク",
    "town": "六本木泉ガーデンタワー　５階",
    "town_kana": "ロッポンギイズミガーデンタワー5カイ",
    "street": null,
    "office_name": null,
    "office_name_kana": null
  },
  "6006": {
    "postcode": "1066006",
    "prefecture": "東京都",
    "prefecture_kana": "トウキョウト",
    "prefecture_code": 13,
    "city": "港区",
    "city_kana": "ミナトク",
    "town": "六本木泉ガーデンタワー　６階",
    "town_kana": "ロッポンギイズミガーデンタワー6カイ",
    "street": null,
    "office_name": null,
    "office_name_kana": null
  },
  "6007": {
    "postcode": "1066007",
    "prefecture": "東京都",
    "prefecture_kana": "トウキョウト",
    "prefecture_code": 13,
    "city": "港区",
    "city_kana": "ミナトク",
    "town": "六本木泉ガーデンタワー　７階",
    "town_kana": "ロッポンギイズミガーデンタワー7カイ",
    "street": null,
    "office_name": null,
    "office_name_kana": null
  },
  "6008": {
    "postcode": "1066008",
    "prefecture": "東京都",
    "prefecture_kana": "トウキョウト",
    "prefecture_code": 13,
    "city": "港区",
    "city_kana": "ミナトク",
    "town": "六本木泉ガーデンタワー　８階",
    "town_kana": "ロッポンギイズミガーデンタワー8カイ",
    "street": null,
    "office_name": null,
    "office_name_kana": null
  },
  "6009": {
    "postcode": "1066009",
    "prefecture": "東京都",
    "prefecture_kana": "トウキョウト",
    "prefecture_code": 13,
    "city": "港区",
    "city_kana": "ミナトク",
    "town": "六本木泉ガーデンタワー　９階",
    "town_kana": "ロッポンギイズミガーデンタワー9カイ",
    "street": null,
    "office_name": null,
    "office_name_kana": null
  },
  "6010": {
    "postcode": "1066010",
    "prefecture": "東京都",
    "prefecture_kana": "トウキョウト",
    "prefecture_code": 13,
    "city": "港区",
    "city_kana": "ミナトク",
    "town": "六本木泉ガーデンタワー　１０階",
    "town_kana": "ロッポンギイズミガーデンタワー10カイ",
    "street": null,
    "office_name": null,
    "office_name_kana": null
  },
  "6011": {
    "postcode": "1066011",
    "prefecture": "東京都",
    "prefecture_kana": "トウキョウト",
    "prefecture_code": 13,
    "city": "港区",
    "city_kana": "ミナトク",
    "town": "六本木泉ガーデンタワー　１１階",
    "town_kana": "ロッポンギイズミガーデンタワー11カイ",
    "street": null,
    "office_name": null,
    "office_name_kana": null
  },
  "6012": {
    "postcode": "1066012",
    "prefecture": "東京都",
    "prefecture_kana": "トウキョウト",
    "prefecture_code": 13,
    "city": "港区",
    "city_kana": "ミナトク",
    "town": "六本木泉ガーデンタワー　１２階",
    "town_kana": "ロッポンギイズミガーデンタワー12カイ",
    "street": null,
    "office_name": null,
    "office_name_kana": null
  },
  "6013": {
    "postcode": "1066013",
    "prefecture": "東京都",
    "prefecture_kana": "トウキョウト",
    "prefecture_code": 13,
    "city": "港区",
    "city_kana": "ミナトク",
    "town": "六本木泉ガーデンタワー　１３階",
    "town_kana": "ロッポンギイズミガーデンタワー13カイ",
    "street": null,
    "office_name": null,
    "office_name_kana": null
  },
  "6014": {
    "postcode": "1066014",
    "prefecture": "東京都",
    "prefecture_kana": "トウキョウト",
    "prefecture_code": 13,
    "city": "港区",
    "city_kana": "ミナトク",
    "town": "六本木泉ガーデンタワー　１４階",
    "town_kana": "ロッポンギイズミガーデンタワー14カイ",
    "street": null,
    "office_name": null,
    "office_name_kana": null
  },
  "6015": {
    "postcode": "1066015",
    "prefecture": "東京都",
    "prefecture_kana": "トウキョウト",
    "prefecture_code": 13,
    "city": "港区",
    "city_kana": "ミナトク",
    "town": "六本木泉ガーデンタワー　１５階",
    "town_kana": "ロッポンギイズミガーデンタワー15カイ",
    "street": null,
    "office_name": null,
    "office_name_kana": null
  },
  "6016": {
    "postcode": "1066016",
    "prefecture": "東京都",
    "prefecture_kana": "トウキョウト",
    "prefecture_code": 13,
    "city": "港区",
    "city_kana": "ミナトク",
    "town": "六本木泉ガーデンタワー　１６階",
    "town_kana": "ロッポンギイズミガーデンタワー16カイ",
    "street": null,
    "office_name": null,
    "office_name_kana": null
  },
  "6017": {
    "postcode": "1066017",
    "prefecture": "東京都",
    "prefecture_kana": "トウキョウト",
    "prefecture_code": 13,
    "city": "港区",
    "city_kana": "ミナトク",
    "town": "六本木泉ガーデンタワー　１７階",
    "town_kana": "ロッポンギイズミガーデンタワー17カイ",
    "street": null,
    "office_name": null,
    "office_name_kana": null
  },
  "6018": {
    "postcode": "1066018",
    "prefecture": "東京都",
    "prefecture_kana": "トウキョウト",
    "prefecture_code": 13,
    "city": "港区",
    "city_kana": "ミナトク",
    "town": "六本木泉ガーデンタワー　１８階",
    "town_kana": "ロッポンギイズミガーデンタワー18カイ",
    "street": null,
    "office_name": null,
    "office_name_kana": null
  },
  "6019": {
    "postcode": "1066019",
    "prefecture": "東京都",
    "prefecture_kana": "トウキョウト",
    "prefecture_code": 13,
    "city": "港区",
    "city_kana": "ミナトク",
    "town": "六本木泉ガーデンタワー　１９階",
    "town_kana": "ロッポンギイズミガーデンタワー19カイ",
    "street": null,
    "office_name": null,
    "office_name_kana": null
  },
  "6020": {
    "postcode": "1066020",
    "prefecture": "東京都",
    "prefecture_kana": "トウキョウト",
    "prefecture_code": 13,
    "city": "港区",
    "city_kana": "ミナトク",
    "town": "六本木泉ガーデンタワー　２０階",
    "town_kana": "ロッポンギイズミガーデンタワー20カイ",
    "street": null,
    "office_name": null,
    "office_name_kana": null
  },
  "6021": {
    "postcode": "1066021",
    "prefecture": "東京都",
    "prefecture_kana": "トウキョウト",
    "prefecture_code": 13,
    "city": "港区",
    "city_kana": "ミナトク",
    "town": "六本木泉ガーデンタワー　２１階",
    "town_kana": "ロッポンギイズミガーデンタワー21カイ",
    "street": null,
    "office_name": null,
    "office_name_kana": null
  },
  "6022": {
    "postcode": "1066022",
    "prefecture": "東京都",
    "prefecture_kana": "トウキョウト",
    "prefecture_code": 13,
    "city": "港区",
    "city_kana": "ミナトク",
    "town": "六本木泉ガーデンタワー　２２階",
    "town_kana": "ロッポンギイズミガーデンタワー22カイ",
    "street": null,
    "office_name": null,
    "office_name_kana": null
  },
  "6023": {
    "postcode": "1066023",
    "prefecture": "東京都",
    "prefecture_kana": "トウキョウト",
    "prefecture_code": 13,
    "city": "港区",
    "city_kana": "ミナトク",
    "town": "六本木泉ガーデンタワー　２３階",
    "town_kana": "ロッポンギイズミガーデンタワー23カイ",
    "street": null,
    "office_name": null,
    "office_name_kana": null
  },
  "6024": {
    "postcode": "1066024",
    "prefecture": "東京都",
    "prefecture_kana": "トウキョウト",
    "prefecture_code": 13,
    "city": "港区",
    "city_kana": "ミナトク",
    "town": "六本木泉ガーデンタワー　２４階",
    "town_kana": "ロッポンギイズミガーデンタワー24カイ",
    "street": null,
    "office_name": null,
    "office_name_kana": null
  },
  "6025": {
    "postcode": "1066025",
    "prefecture": "東京都",
    "prefecture_kana": "トウキョウト",
    "prefecture_code": 13,
    "city": "港区",
    "city_kana": "ミナトク",
    "town": "六本木泉ガーデンタワー　２５階",
    "town_kana": "ロッポンギイズミガーデンタワー25カイ",
    "street": null,
    "office_name": null,
    "office_name_kana": null
  },
  "6026": {
    "postcode": "1066026",
    "prefecture": "東京都",
    "prefecture_kana": "トウキョウト",
    "prefecture_code": 13,
    "city": "港区",
    "city_kana": "ミナトク",
    "town": "六本木泉ガーデンタワー　２６階",
    "town_kana": "ロッポンギイズミガーデンタワー26カイ",
    "street": null,
    "office_name": null,
    "office_name_kana": null
  },
  "6027": {
    "postcode": "1066027",
    "prefecture": "東京都",
    "prefecture_kana": "トウキョウト",
    "prefecture_code": 13,
    "city": "港区",
    "city_kana": "ミナトク",
    "town": "六本木泉ガーデンタワー　２７階",
    "town_kana": "ロッポンギイズミガーデンタワー27カイ",
    "street": null,
    "office_name": null,
    "office_name_kana": null
  },
  "6028": {
    "postcode": "1066028",
    "prefecture": "東京都",
    "prefecture_kana": "トウキョウト",
    "prefecture_code": 13,
    "city": "港区",
    "city_kana": "ミナトク",
    "town": "六本木泉ガーデンタワー　２８階",
    "town_kana": "ロッポンギイズミガーデンタワー28カイ",
    "street": null,
    "office_name": null,
    "office_name_kana": null
  },
  "6029": {
    "postcode": "1066029",
    "prefecture": "東京都",
    "prefecture_kana": "トウキョウト",
    "prefecture_code": 13,
    "city": "港区",
    "city_kana": "ミナトク",
    "town": "六本木泉ガーデンタワー　２９階",
    "town_kana": "ロッポンギイズミガーデンタワー29カイ",
    "street": null,
    "office_name": null,
    "office_name_kana": null
  },
  "6030": {
    "postcode": "1066030",
    "prefecture": "東京都",
    "prefecture_kana": "トウキョウト",
    "prefecture_code": 13,
    "city": "港区",
    "city_kana": "ミナトク",
    "town": "六本木泉ガーデンタワー　３０階",
    "town_kana": "ロッポンギイズミガーデンタワー30カイ",
    "street": null,
    "office_name": null,
    "office_name_kana": null
  },
  "6031": {
    "postcode": "1066031",
    "prefecture": "東京都",
    "prefecture_kana": "トウキョウト",
    "prefecture_code": 13,
    "city": "港区",
    "city_kana": "ミナトク",
    "town": "六本木泉ガーデンタワー　３１階",
    "town_kana": "ロッポンギイズミガーデンタワー31カイ",
    "street": null,
    "office_name": null,
    "office_name_kana": null
  },
  "6032": {
    "postcode": "1066032",
    "prefecture": "東京都",
    "prefecture_kana": "トウキョウト",
    "prefecture_code": 13,
    "city": "港区",
    "city_kana": "ミナトク",
    "town": "六本木泉ガーデンタワー　３２階",
    "town_kana": "ロッポンギイズミガーデンタワー32カイ",
    "street": null,
    "office_name": null,
    "office_name_kana": null
  },
  "6033": {
    "postcode": "1066033",
    "prefecture": "東京都",
    "prefecture_kana": "トウキョウト",
    "prefecture_code": 13,
    "city": "港区",
    "city_kana": "ミナトク",
    "town": "六本木泉ガーデンタワー　３３階",
    "town_kana": "ロッポンギイズミガーデンタワー33カイ",
    "street": null,
    "office_name": null,
    "office_name_kana": null
  },
  "6034": {
    "postcode": "1066034",
    "prefecture": "東京都",
    "prefecture_kana": "トウキョウト",
    "prefecture_code": 13,
    "city": "港区",
    "city_kana": "ミナトク",
    "town": "六本木泉ガーデンタワー　３４階",
    "town_kana": "ロッポンギイズミガーデンタワー34カイ",
    "street": null,
    "office_name": null,
    "office_name_kana": null
  },
  "6035": {
    "postcode": "1066035",
    "prefecture": "東京都",
    "prefecture_kana": "トウキョウト",
    "prefecture_code": 13,
    "city": "港区",
    "city_kana": "ミナトク",
    "town": "六本木泉ガーデンタワー　３５階",
    "town_kana": "ロッポンギイズミガーデンタワー35カイ",
    "street": null,
    "office_name": null,
    "office_name_kana": null
  },
  "6036": {
    "postcode": "1066036",
    "prefecture": "東京都",
    "prefecture_kana": "トウキョウト",
    "prefecture_code": 13,
    "city": "港区",
    "city_kana": "ミナトク",
    "town": "六本木泉ガーデンタワー　３６階",
    "town_kana": "ロッポンギイズミガーデンタワー36カイ",
    "street": null,
    "office_name": null,
    "office_name_kana": null
  },
  "6037": {
    "postcode": "1066037",
    "prefecture": "東京都",
    "prefecture_kana": "トウキョウト",
    "prefecture_code": 13,
    "city": "港区",
    "city_kana": "ミナトク",
    "town": "六本木泉ガーデンタワー　３７階",
    "town_kana": "ロッポンギイズミガーデンタワー37カイ",
    "street": null,
    "office_name": null,
    "office_name_kana": null
  },
  "6038": {
    "postcode": "1066038",
    "prefecture": "東京都",
    "prefecture_kana": "トウキョウト",
    "prefecture_code": 13,
    "city": "港区",
    "city_kana": "ミナトク",
    "town": "六本木泉ガーデンタワー　３８階",
    "town_kana": "ロッポンギイズミガーデンタワー38カイ",
    "street": null,
    "office_name": null,
    "office_name_kana": null
  },
  "6039": {
    "postcode": "1066039",
    "prefecture": "東京都",
    "prefecture_kana": "トウキョウト",
    "prefecture_code": 13,
    "city": "港区",
    "city_kana": "ミナトク",
    "town": "六本木泉ガーデンタワー　３９階",
    "town_kana": "ロッポンギイズミガーデンタワー39カイ",
    "street": null,
    "office_name": null,
    "office_name_kana": null
  },
  "6040": {
    "postcode": "1066040",
    "prefecture": "東京都",
    "prefecture_kana": "トウキョウト",
    "prefecture_code": 13,
    "city": "港区",
    "city_kana": "ミナトク",
    "town": "六本木泉ガーデンタワー　４０階",
    "town_kana": "ロッポンギイズミガーデンタワー40カイ",
    "street": null,
    "office_name": null,
    "office_name_kana": null
  },
  "6041": {
    "postcode": "1066041",
    "prefecture": "東京都",
    "prefecture_kana": "トウキョウト",
    "prefecture_code": 13,
    "city": "港区",
    "city_kana": "ミナトク",
    "town": "六本木泉ガーデンタワー　４１階",
    "town_kana": "ロッポンギイズミガーデンタワー41カイ",
    "street": null,
    "office_name": null,
    "office_name_kana": null
  },
  "6042": {
    "postcode": "1066042",
    "prefecture": "東京都",
    "prefecture_kana": "トウキョウト",
    "prefecture_code": 13,
    "city": "港区",
    "city_kana": "ミナトク",
    "town": "六本木泉ガーデンタワー　４２階",
    "town_kana": "ロッポンギイズミガーデンタワー42カイ",
    "street": null,
    "office_name": null,
    "office_name_kana": null
  },
  "6043": {
    "postcode": "1066043",
    "prefecture": "東京都",
    "prefecture_kana": "トウキョウト",
    "prefecture_code": 13,
    "city": "港区",
    "city_kana": "ミナトク",
    "town": "六本木泉ガーデンタワー　４３階",
    "town_kana": "ロッポンギイズミガーデンタワー43カイ",
    "street": null,
    "office_name": null,
    "office_name_kana": null
  },
  "6044": {
    "postcode": "1066044",
    "prefecture": "東京都",
    "prefecture_kana": "トウキョウト",
    "prefecture_code": 13,
    "city": "港区",
    "city_kana": "ミナトク",
    "town": "六本木泉ガーデンタワー　４４階",
    "town_kana": "ロッポンギイズミガーデンタワー44カイ",
    "street": null,
    "office_name": null,
    "office_name_kana": null
  },
  "6045": {
    "postcode": "1066045",
    "prefecture": "東京都",
    "prefecture_kana": "トウキョウト",
    "prefecture_code": 13,
    "city": "港区",
    "city_kana": "ミナトク",
    "town": "六本木泉ガーデンタワー　４５階",
    "town_kana": "ロッポンギイズミガーデンタワー45カイ",
    "street": null,
    "office_name": null,
    "office_name_kana": null
  },
  "6060": {
    "postcode": "1066060",
    "prefecture": "東京都",
    "prefecture_kana": "トウキョウト",
    "prefecture_code": 13,
    "city": "港区",
    "city_kana": "ミナトク",
    "town": "六本木",
    "town_kana": "ロッポンギ",
    "street": "１丁目６−１泉ガーデンタワー１０Ｆ",
    "office_name": "株式会社　アーキテクト",
    "office_name_kana": "カブシキガイシヤ ア-キテクト"
  },
  "6066": {
    "postcode": "1066066",
    "prefecture": "東京都",
    "prefecture_kana": "トウキョウト",
    "prefecture_code": 13,
    "city": "港区",
    "city_kana": "ミナトク",
    "town": "六本木",
    "town_kana": "ロッポンギ",
    "street": "１丁目６−１泉ガーデンタワー１０Ｆ",
    "office_name": "株式会社　クラップ＆ウォーク",
    "office_name_kana": "カブシキガイシヤ クラツプアンドウオ-ク"
  },
  "6090": {
    "postcode": "1066090",
    "prefecture": "東京都",
    "prefecture_kana": "トウキョウト",
    "prefecture_code": 13,
    "city": "港区",
    "city_kana": "ミナトク",
    "town": "六本木泉ガーデンタワー",
    "town_kana": "ロッポンギイズミガーデンタワー",
    "street": null,
    "office_name": null,
    "office_name_kana": null
  },
  "6101": {
    "postcode": "1066101",
    "prefecture": "東京都",
    "prefecture_kana": "トウキョウト",
    "prefecture_code": 13,
    "city": "港区",
    "city_kana": "ミナトク",
    "town": "六本木六本木ヒルズ森タワー　１階",
    "town_kana": "ロッポンギロッポンギヒルズモリタワー1カイ",
    "street": null,
    "office_name": null,
    "office_name_kana": null
  },
  "6102": {
    "postcode": "1066102",
    "prefecture": "東京都",
    "prefecture_kana": "トウキョウト",
    "prefecture_code": 13,
    "city": "港区",
    "city_kana": "ミナトク",
    "town": "六本木六本木ヒルズ森タワー　２階",
    "town_kana": "ロッポンギロッポンギヒルズモリタワー2カイ",
    "street": null,
    "office_name": null,
    "office_name_kana": null
  },
  "6103": {
    "postcode": "1066103",
    "prefecture": "東京都",
    "prefecture_kana": "トウキョウト",
    "prefecture_code": 13,
    "city": "港区",
    "city_kana": "ミナトク",
    "town": "六本木六本木ヒルズ森タワー　３階",
    "town_kana": "ロッポンギロッポンギヒルズモリタワー3カイ",
    "street": null,
    "office_name": null,
    "office_name_kana": null
  },
  "6104": {
    "postcode": "1066104",
    "prefecture": "東京都",
    "prefecture_kana": "トウキョウト",
    "prefecture_code": 13,
    "city": "港区",
    "city_kana": "ミナトク",
    "town": "六本木六本木ヒルズ森タワー　４階",
    "town_kana": "ロッポンギロッポンギヒルズモリタワー4カイ",
    "street": null,
    "office_name": null,
    "office_name_kana": null
  },
  "6105": {
    "postcode": "1066105",
    "prefecture": "東京都",
    "prefecture_kana": "トウキョウト",
    "prefecture_code": 13,
    "city": "港区",
    "city_kana": "ミナトク",
    "town": "六本木六本木ヒルズ森タワー　５階",
    "town_kana": "ロッポンギロッポンギヒルズモリタワー5カイ",
    "street": null,
    "office_name": null,
    "office_name_kana": null
  },
  "6106": {
    "postcode": "1066106",
    "prefecture": "東京都",
    "prefecture_kana": "トウキョウト",
    "prefecture_code": 13,
    "city": "港区",
    "city_kana": "ミナトク",
    "town": "六本木六本木ヒルズ森タワー　６階",
    "town_kana": "ロッポンギロッポンギヒルズモリタワー6カイ",
    "street": null,
    "office_name": null,
    "office_name_kana": null
  },
  "6107": {
    "postcode": "1066107",
    "prefecture": "東京都",
    "prefecture_kana": "トウキョウト",
    "prefecture_code": 13,
    "city": "港区",
    "city_kana": "ミナトク",
    "town": "六本木六本木ヒルズ森タワー　７階",
    "town_kana": "ロッポンギロッポンギヒルズモリタワー7カイ",
    "street": null,
    "office_name": null,
    "office_name_kana": null
  },
  "6108": {
    "postcode": "1066108",
    "prefecture": "東京都",
    "prefecture_kana": "トウキョウト",
    "prefecture_code": 13,
    "city": "港区",
    "city_kana": "ミナトク",
    "town": "六本木六本木ヒルズ森タワー　８階",
    "town_kana": "ロッポンギロッポンギヒルズモリタワー8カイ",
    "street": null,
    "office_name": null,
    "office_name_kana": null
  },
  "6109": {
    "postcode": "1066109",
    "prefecture": "東京都",
    "prefecture_kana": "トウキョウト",
    "prefecture_code": 13,
    "city": "港区",
    "city_kana": "ミナトク",
    "town": "六本木六本木ヒルズ森タワー　９階",
    "town_kana": "ロッポンギロッポンギヒルズモリタワー9カイ",
    "street": null,
    "office_name": null,
    "office_name_kana": null
  },
  "6110": {
    "postcode": "1066110",
    "prefecture": "東京都",
    "prefecture_kana": "トウキョウト",
    "prefecture_code": 13,
    "city": "港区",
    "city_kana": "ミナトク",
    "town": "六本木六本木ヒルズ森タワー　１０階",
    "town_kana": "ロッポンギロッポンギヒルズモリタワー10カイ",
    "street": null,
    "office_name": null,
    "office_name_kana": null
  },
  "6111": {
    "postcode": "1066111",
    "prefecture": "東京都",
    "prefecture_kana": "トウキョウト",
    "prefecture_code": 13,
    "city": "港区",
    "city_kana": "ミナトク",
    "town": "六本木六本木ヒルズ森タワー　１１階",
    "town_kana": "ロッポンギロッポンギヒルズモリタワー11カイ",
    "street": null,
    "office_name": null,
    "office_name_kana": null
  },
  "6112": {
    "postcode": "1066112",
    "prefecture": "東京都",
    "prefecture_kana": "トウキョウト",
    "prefecture_code": 13,
    "city": "港区",
    "city_kana": "ミナトク",
    "town": "六本木六本木ヒルズ森タワー　１２階",
    "town_kana": "ロッポンギロッポンギヒルズモリタワー12カイ",
    "street": null,
    "office_name": null,
    "office_name_kana": null
  },
  "6113": {
    "postcode": "1066113",
    "prefecture": "東京都",
    "prefecture_kana": "トウキョウト",
    "prefecture_code": 13,
    "city": "港区",
    "city_kana": "ミナトク",
    "town": "六本木六本木ヒルズ森タワー　１３階",
    "town_kana": "ロッポンギロッポンギヒルズモリタワー13カイ",
    "street": null,
    "office_name": null,
    "office_name_kana": null
  },
  "6114": {
    "postcode": "1066114",
    "prefecture": "東京都",
    "prefecture_kana": "トウキョウト",
    "prefecture_code": 13,
    "city": "港区",
    "city_kana": "ミナトク",
    "town": "六本木六本木ヒルズ森タワー　１４階",
    "town_kana": "ロッポンギロッポンギヒルズモリタワー14カイ",
    "street": null,
    "office_name": null,
    "office_name_kana": null
  },
  "6115": {
    "postcode": "1066115",
    "prefecture": "東京都",
    "prefecture_kana": "トウキョウト",
    "prefecture_code": 13,
    "city": "港区",
    "city_kana": "ミナトク",
    "town": "六本木六本木ヒルズ森タワー　１５階",
    "town_kana": "ロッポンギロッポンギヒルズモリタワー15カイ",
    "street": null,
    "office_name": null,
    "office_name_kana": null
  },
  "6116": {
    "postcode": "1066116",
    "prefecture": "東京都",
    "prefecture_kana": "トウキョウト",
    "prefecture_code": 13,
    "city": "港区",
    "city_kana": "ミナトク",
    "town": "六本木六本木ヒルズ森タワー　１６階",
    "town_kana": "ロッポンギロッポンギヒルズモリタワー16カイ",
    "street": null,
    "office_name": null,
    "office_name_kana": null
  },
  "6117": {
    "postcode": "1066117",
    "prefecture": "東京都",
    "prefecture_kana": "トウキョウト",
    "prefecture_code": 13,
    "city": "港区",
    "city_kana": "ミナトク",
    "town": "六本木六本木ヒルズ森タワー　１７階",
    "town_kana": "ロッポンギロッポンギヒルズモリタワー17カイ",
    "street": null,
    "office_name": null,
    "office_name_kana": null
  },
  "6118": {
    "postcode": "1066118",
    "prefecture": "東京都",
    "prefecture_kana": "トウキョウト",
    "prefecture_code": 13,
    "city": "港区",
    "city_kana": "ミナトク",
    "town": "六本木六本木ヒルズ森タワー　１８階",
    "town_kana": "ロッポンギロッポンギヒルズモリタワー18カイ",
    "street": null,
    "office_name": null,
    "office_name_kana": null
  },
  "6119": {
    "postcode": "1066119",
    "prefecture": "東京都",
    "prefecture_kana": "トウキョウト",
    "prefecture_code": 13,
    "city": "港区",
    "city_kana": "ミナトク",
    "town": "六本木六本木ヒルズ森タワー　１９階",
    "town_kana": "ロッポンギロッポンギヒルズモリタワー19カイ",
    "street": null,
    "office_name": null,
    "office_name_kana": null
  },
  "6120": {
    "postcode": "1066120",
    "prefecture": "東京都",
    "prefecture_kana": "トウキョウト",
    "prefecture_code": 13,
    "city": "港区",
    "city_kana": "ミナトク",
    "town": "六本木六本木ヒルズ森タワー　２０階",
    "town_kana": "ロッポンギロッポンギヒルズモリタワー20カイ",
    "street": null,
    "office_name": null,
    "office_name_kana": null
  },
  "6121": {
    "postcode": "1066121",
    "prefecture": "東京都",
    "prefecture_kana": "トウキョウト",
    "prefecture_code": 13,
    "city": "港区",
    "city_kana": "ミナトク",
    "town": "六本木六本木ヒルズ森タワー　２１階",
    "town_kana": "ロッポンギロッポンギヒルズモリタワー21カイ",
    "street": null,
    "office_name": null,
    "office_name_kana": null
  },
  "6122": {
    "postcode": "1066122",
    "prefecture": "東京都",
    "prefecture_kana": "トウキョウト",
    "prefecture_code": 13,
    "city": "港区",
    "city_kana": "ミナトク",
    "town": "六本木六本木ヒルズ森タワー　２２階",
    "town_kana": "ロッポンギロッポンギヒルズモリタワー22カイ",
    "street": null,
    "office_name": null,
    "office_name_kana": null
  },
  "6123": {
    "postcode": "1066123",
    "prefecture": "東京都",
    "prefecture_kana": "トウキョウト",
    "prefecture_code": 13,
    "city": "港区",
    "city_kana": "ミナトク",
    "town": "六本木六本木ヒルズ森タワー　２３階",
    "town_kana": "ロッポンギロッポンギヒルズモリタワー23カイ",
    "street": null,
    "office_name": null,
    "office_name_kana": null
  },
  "6124": {
    "postcode": "1066124",
    "prefecture": "東京都",
    "prefecture_kana": "トウキョウト",
    "prefecture_code": 13,
    "city": "港区",
    "city_kana": "ミナトク",
    "town": "六本木六本木ヒルズ森タワー　２４階",
    "town_kana": "ロッポンギロッポンギヒルズモリタワー24カイ",
    "street": null,
    "office_name": null,
    "office_name_kana": null
  },
  "6125": {
    "postcode": "1066125",
    "prefecture": "東京都",
    "prefecture_kana": "トウキョウト",
    "prefecture_code": 13,
    "city": "港区",
    "city_kana": "ミナトク",
    "town": "六本木六本木ヒルズ森タワー　２５階",
    "town_kana": "ロッポンギロッポンギヒルズモリタワー25カイ",
    "street": null,
    "office_name": null,
    "office_name_kana": null
  },
  "6126": {
    "postcode": "1066126",
    "prefecture": "東京都",
    "prefecture_kana": "トウキョウト",
    "prefecture_code": 13,
    "city": "港区",
    "city_kana": "ミナトク",
    "town": "六本木六本木ヒルズ森タワー　２６階",
    "town_kana": "ロッポンギロッポンギヒルズモリタワー26カイ",
    "street": null,
    "office_name": null,
    "office_name_kana": null
  },
  "6127": {
    "postcode": "1066127",
    "prefecture": "東京都",
    "prefecture_kana": "トウキョウト",
    "prefecture_code": 13,
    "city": "港区",
    "city_kana": "ミナトク",
    "town": "六本木六本木ヒルズ森タワー　２７階",
    "town_kana": "ロッポンギロッポンギヒルズモリタワー27カイ",
    "street": null,
    "office_name": null,
    "office_name_kana": null
  },
  "6128": {
    "postcode": "1066128",
    "prefecture": "東京都",
    "prefecture_kana": "トウキョウト",
    "prefecture_code": 13,
    "city": "港区",
    "city_kana": "ミナトク",
    "town": "六本木六本木ヒルズ森タワー　２８階",
    "town_kana": "ロッポンギロッポンギヒルズモリタワー28カイ",
    "street": null,
    "office_name": null,
    "office_name_kana": null
  },
  "6129": {
    "postcode": "1066129",
    "prefecture": "東京都",
    "prefecture_kana": "トウキョウト",
    "prefecture_code": 13,
    "city": "港区",
    "city_kana": "ミナトク",
    "town": "六本木六本木ヒルズ森タワー　２９階",
    "town_kana": "ロッポンギロッポンギヒルズモリタワー29カイ",
    "street": null,
    "office_name": null,
    "office_name_kana": null
  },
  "6130": {
    "postcode": "1066130",
    "prefecture": "東京都",
    "prefecture_kana": "トウキョウト",
    "prefecture_code": 13,
    "city": "港区",
    "city_kana": "ミナトク",
    "town": "六本木六本木ヒルズ森タワー　３０階",
    "town_kana": "ロッポンギロッポンギヒルズモリタワー30カイ",
    "street": null,
    "office_name": null,
    "office_name_kana": null
  },
  "6131": {
    "postcode": "1066131",
    "prefecture": "東京都",
    "prefecture_kana": "トウキョウト",
    "prefecture_code": 13,
    "city": "港区",
    "city_kana": "ミナトク",
    "town": "六本木六本木ヒルズ森タワー　３１階",
    "town_kana": "ロッポンギロッポンギヒルズモリタワー31カイ",
    "street": null,
    "office_name": null,
    "office_name_kana": null
  },
  "6132": {
    "postcode": "1066132",
    "prefecture": "東京都",
    "prefecture_kana": "トウキョウト",
    "prefecture_code": 13,
    "city": "港区",
    "city_kana": "ミナトク",
    "town": "六本木六本木ヒルズ森タワー　３２階",
    "town_kana": "ロッポンギロッポンギヒルズモリタワー32カイ",
    "street": null,
    "office_name": null,
    "office_name_kana": null
  },
  "6133": {
    "postcode": "1066133",
    "prefecture": "東京都",
    "prefecture_kana": "トウキョウト",
    "prefecture_code": 13,
    "city": "港区",
    "city_kana": "ミナトク",
    "town": "六本木六本木ヒルズ森タワー　３３階",
    "town_kana": "ロッポンギロッポンギヒルズモリタワー33カイ",
    "street": null,
    "office_name": null,
    "office_name_kana": null
  },
  "6134": {
    "postcode": "1066134",
    "prefecture": "東京都",
    "prefecture_kana": "トウキョウト",
    "prefecture_code": 13,
    "city": "港区",
    "city_kana": "ミナトク",
    "town": "六本木六本木ヒルズ森タワー　３４階",
    "town_kana": "ロッポンギロッポンギヒルズモリタワー34カイ",
    "street": null,
    "office_name": null,
    "office_name_kana": null
  },
  "6135": {
    "postcode": "1066135",
    "prefecture": "東京都",
    "prefecture_kana": "トウキョウト",
    "prefecture_code": 13,
    "city": "港区",
    "city_kana": "ミナトク",
    "town": "六本木六本木ヒルズ森タワー　３５階",
    "town_kana": "ロッポンギロッポンギヒルズモリタワー35カイ",
    "street": null,
    "office_name": null,
    "office_name_kana": null
  },
  "6136": {
    "postcode": "1066136",
    "prefecture": "東京都",
    "prefecture_kana": "トウキョウト",
    "prefecture_code": 13,
    "city": "港区",
    "city_kana": "ミナトク",
    "town": "六本木六本木ヒルズ森タワー　３６階",
    "town_kana": "ロッポンギロッポンギヒルズモリタワー36カイ",
    "street": null,
    "office_name": null,
    "office_name_kana": null
  },
  "6137": {
    "postcode": "1066137",
    "prefecture": "東京都",
    "prefecture_kana": "トウキョウト",
    "prefecture_code": 13,
    "city": "港区",
    "city_kana": "ミナトク",
    "town": "六本木六本木ヒルズ森タワー　３７階",
    "town_kana": "ロッポンギロッポンギヒルズモリタワー37カイ",
    "street": null,
    "office_name": null,
    "office_name_kana": null
  },
  "6138": {
    "postcode": "1066138",
    "prefecture": "東京都",
    "prefecture_kana": "トウキョウト",
    "prefecture_code": 13,
    "city": "港区",
    "city_kana": "ミナトク",
    "town": "六本木六本木ヒルズ森タワー　３８階",
    "town_kana": "ロッポンギロッポンギヒルズモリタワー38カイ",
    "street": null,
    "office_name": null,
    "office_name_kana": null
  },
  "6139": {
    "postcode": "1066139",
    "prefecture": "東京都",
    "prefecture_kana": "トウキョウト",
    "prefecture_code": 13,
    "city": "港区",
    "city_kana": "ミナトク",
    "town": "六本木六本木ヒルズ森タワー　３９階",
    "town_kana": "ロッポンギロッポンギヒルズモリタワー39カイ",
    "street": null,
    "office_name": null,
    "office_name_kana": null
  },
  "6140": {
    "postcode": "1066140",
    "prefecture": "東京都",
    "prefecture_kana": "トウキョウト",
    "prefecture_code": 13,
    "city": "港区",
    "city_kana": "ミナトク",
    "town": "六本木六本木ヒルズ森タワー　４０階",
    "town_kana": "ロッポンギロッポンギヒルズモリタワー40カイ",
    "street": null,
    "office_name": null,
    "office_name_kana": null
  },
  "6141": {
    "postcode": "1066141",
    "prefecture": "東京都",
    "prefecture_kana": "トウキョウト",
    "prefecture_code": 13,
    "city": "港区",
    "city_kana": "ミナトク",
    "town": "六本木六本木ヒルズ森タワー　４１階",
    "town_kana": "ロッポンギロッポンギヒルズモリタワー41カイ",
    "street": null,
    "office_name": null,
    "office_name_kana": null
  },
  "6142": {
    "postcode": "1066142",
    "prefecture": "東京都",
    "prefecture_kana": "トウキョウト",
    "prefecture_code": 13,
    "city": "港区",
    "city_kana": "ミナトク",
    "town": "六本木六本木ヒルズ森タワー　４２階",
    "town_kana": "ロッポンギロッポンギヒルズモリタワー42カイ",
    "street": null,
    "office_name": null,
    "office_name_kana": null
  },
  "6143": {
    "postcode": "1066143",
    "prefecture": "東京都",
    "prefecture_kana": "トウキョウト",
    "prefecture_code": 13,
    "city": "港区",
    "city_kana": "ミナトク",
    "town": "六本木六本木ヒルズ森タワー　４３階",
    "town_kana": "ロッポンギロッポンギヒルズモリタワー43カイ",
    "street": null,
    "office_name": null,
    "office_name_kana": null
  },
  "6144": {
    "postcode": "1066144",
    "prefecture": "東京都",
    "prefecture_kana": "トウキョウト",
    "prefecture_code": 13,
    "city": "港区",
    "city_kana": "ミナトク",
    "town": "六本木六本木ヒルズ森タワー　４４階",
    "town_kana": "ロッポンギロッポンギヒルズモリタワー44カイ",
    "street": null,
    "office_name": null,
    "office_name_kana": null
  },
  "6145": {
    "postcode": "1066145",
    "prefecture": "東京都",
    "prefecture_kana": "トウキョウト",
    "prefecture_code": 13,
    "city": "港区",
    "city_kana": "ミナトク",
    "town": "六本木六本木ヒルズ森タワー　４５階",
    "town_kana": "ロッポンギロッポンギヒルズモリタワー45カイ",
    "street": null,
    "office_name": null,
    "office_name_kana": null
  },
  "6146": {
    "postcode": "1066146",
    "prefecture": "東京都",
    "prefecture_kana": "トウキョウト",
    "prefecture_code": 13,
    "city": "港区",
    "city_kana": "ミナトク",
    "town": "六本木六本木ヒルズ森タワー　４６階",
    "town_kana": "ロッポンギロッポンギヒルズモリタワー46カイ",
    "street": null,
    "office_name": null,
    "office_name_kana": null
  },
  "6147": {
    "postcode": "1066147",
    "prefecture": "東京都",
    "prefecture_kana": "トウキョウト",
    "prefecture_code": 13,
    "city": "港区",
    "city_kana": "ミナトク",
    "town": "六本木六本木ヒルズ森タワー　４７階",
    "town_kana": "ロッポンギロッポンギヒルズモリタワー47カイ",
    "street": null,
    "office_name": null,
    "office_name_kana": null
  },
  "6148": {
    "postcode": "1066148",
    "prefecture": "東京都",
    "prefecture_kana": "トウキョウト",
    "prefecture_code": 13,
    "city": "港区",
    "city_kana": "ミナトク",
    "town": "六本木六本木ヒルズ森タワー　４８階",
    "town_kana": "ロッポンギロッポンギヒルズモリタワー48カイ",
    "street": null,
    "office_name": null,
    "office_name_kana": null
  },
  "6149": {
    "postcode": "1066149",
    "prefecture": "東京都",
    "prefecture_kana": "トウキョウト",
    "prefecture_code": 13,
    "city": "港区",
    "city_kana": "ミナトク",
    "town": "六本木六本木ヒルズ森タワー　４９階",
    "town_kana": "ロッポンギロッポンギヒルズモリタワー49カイ",
    "street": null,
    "office_name": null,
    "office_name_kana": null
  },
  "6150": {
    "postcode": "1066150",
    "prefecture": "東京都",
    "prefecture_kana": "トウキョウト",
    "prefecture_code": 13,
    "city": "港区",
    "city_kana": "ミナトク",
    "town": "六本木六本木ヒルズ森タワー　５０階",
    "town_kana": "ロッポンギロッポンギヒルズモリタワー50カイ",
    "street": null,
    "office_name": null,
    "office_name_kana": null
  },
  "6151": {
    "postcode": "1066151",
    "prefecture": "東京都",
    "prefecture_kana": "トウキョウト",
    "prefecture_code": 13,
    "city": "港区",
    "city_kana": "ミナトク",
    "town": "六本木六本木ヒルズ森タワー　５１階",
    "town_kana": "ロッポンギロッポンギヒルズモリタワー51カイ",
    "street": null,
    "office_name": null,
    "office_name_kana": null
  },
  "6152": {
    "postcode": "1066152",
    "prefecture": "東京都",
    "prefecture_kana": "トウキョウト",
    "prefecture_code": 13,
    "city": "港区",
    "city_kana": "ミナトク",
    "town": "六本木六本木ヒルズ森タワー　５２階",
    "town_kana": "ロッポンギロッポンギヒルズモリタワー52カイ",
    "street": null,
    "office_name": null,
    "office_name_kana": null
  },
  "6153": {
    "postcode": "1066153",
    "prefecture": "東京都",
    "prefecture_kana": "トウキョウト",
    "prefecture_code": 13,
    "city": "港区",
    "city_kana": "ミナトク",
    "town": "六本木六本木ヒルズ森タワー　５３階",
    "town_kana": "ロッポンギロッポンギヒルズモリタワー53カイ",
    "street": null,
    "office_name": null,
    "office_name_kana": null
  },
  "6154": {
    "postcode": "1066154",
    "prefecture": "東京都",
    "prefecture_kana": "トウキョウト",
    "prefecture_code": 13,
    "city": "港区",
    "city_kana": "ミナトク",
    "town": "六本木六本木ヒルズ森タワー　５４階",
    "town_kana": "ロッポンギロッポンギヒルズモリタワー54カイ",
    "street": null,
    "office_name": null,
    "office_name_kana": null
  },
  "6161": {
    "postcode": "1066161",
    "prefecture": "東京都",
    "prefecture_kana": "トウキョウト",
    "prefecture_code": 13,
    "city": "港区",
    "city_kana": "ミナトク",
    "town": "六本木",
    "town_kana": "ロッポンギ",
    "street": "６丁目１０−１六本木ヒルズ森タワー２２Ｆ",
    "office_name": "株式会社　サイバード",
    "office_name_kana": "カブシキガイシヤ サイバ-ド"
  },
  "6188": {
    "postcode": "1066188",
    "prefecture": "東京都",
    "prefecture_kana": "トウキョウト",
    "prefecture_code": 13,
    "city": "港区",
    "city_kana": "ミナトク",
    "town": "六本木",
    "town_kana": "ロッポンギ",
    "street": "６丁目１０−１六本木ヒルズ森タワー",
    "office_name": "株式会社　エフエムジャパン",
    "office_name_kana": "カブシキガイシヤ エフエムジヤパン"
  },
  "6190": {
    "postcode": "1066190",
    "prefecture": "東京都",
    "prefecture_kana": "トウキョウト",
    "prefecture_code": 13,
    "city": "港区",
    "city_kana": "ミナトク",
    "town": "六本木六本木ヒルズ森タワー",
    "town_kana": "ロッポンギロッポンギヒルズモリタワー",
    "street": null,
    "office_name": null,
    "office_name_kana": null
  },
  "6201": {
    "postcode": "1066201",
    "prefecture": "東京都",
    "prefecture_kana": "トウキョウト",
    "prefecture_code": 13,
    "city": "港区",
    "city_kana": "ミナトク",
    "town": "六本木住友不動産六本木グランドタワー　１階",
    "town_kana": "ロッポンギスミトモフドウサンロッポンギグランドタワー1カイ",
    "street": null,
    "office_name": null,
    "office_name_kana": null
  },
  "6202": {
    "postcode": "1066202",
    "prefecture": "東京都",
    "prefecture_kana": "トウキョウト",
    "prefecture_code": 13,
    "city": "港区",
    "city_kana": "ミナトク",
    "town": "六本木住友不動産六本木グランドタワー　２階",
    "town_kana": "ロッポンギスミトモフドウサンロッポンギグランドタワー2カイ",
    "street": null,
    "office_name": null,
    "office_name_kana": null
  },
  "6203": {
    "postcode": "1066203",
    "prefecture": "東京都",
    "prefecture_kana": "トウキョウト",
    "prefecture_code": 13,
    "city": "港区",
    "city_kana": "ミナトク",
    "town": "六本木住友不動産六本木グランドタワー　３階",
    "town_kana": "ロッポンギスミトモフドウサンロッポンギグランドタワー3カイ",
    "street": null,
    "office_name": null,
    "office_name_kana": null
  },
  "6204": {
    "postcode": "1066204",
    "prefecture": "東京都",
    "prefecture_kana": "トウキョウト",
    "prefecture_code": 13,
    "city": "港区",
    "city_kana": "ミナトク",
    "town": "六本木住友不動産六本木グランドタワー　４階",
    "town_kana": "ロッポンギスミトモフドウサンロッポンギグランドタワー4カイ",
    "street": null,
    "office_name": null,
    "office_name_kana": null
  },
  "6205": {
    "postcode": "1066205",
    "prefecture": "東京都",
    "prefecture_kana": "トウキョウト",
    "prefecture_code": 13,
    "city": "港区",
    "city_kana": "ミナトク",
    "town": "六本木住友不動産六本木グランドタワー　５階",
    "town_kana": "ロッポンギスミトモフドウサンロッポンギグランドタワー5カイ",
    "street": null,
    "office_name": null,
    "office_name_kana": null
  },
  "6206": {
    "postcode": "1066206",
    "prefecture": "東京都",
    "prefecture_kana": "トウキョウト",
    "prefecture_code": 13,
    "city": "港区",
    "city_kana": "ミナトク",
    "town": "六本木住友不動産六本木グランドタワー　６階",
    "town_kana": "ロッポンギスミトモフドウサンロッポンギグランドタワー6カイ",
    "street": null,
    "office_name": null,
    "office_name_kana": null
  },
  "6207": {
    "postcode": "1066207",
    "prefecture": "東京都",
    "prefecture_kana": "トウキョウト",
    "prefecture_code": 13,
    "city": "港区",
    "city_kana": "ミナトク",
    "town": "六本木住友不動産六本木グランドタワー　７階",
    "town_kana": "ロッポンギスミトモフドウサンロッポンギグランドタワー7カイ",
    "street": null,
    "office_name": null,
    "office_name_kana": null
  },
  "6208": {
    "postcode": "1066208",
    "prefecture": "東京都",
    "prefecture_kana": "トウキョウト",
    "prefecture_code": 13,
    "city": "港区",
    "city_kana": "ミナトク",
    "town": "六本木住友不動産六本木グランドタワー　８階",
    "town_kana": "ロッポンギスミトモフドウサンロッポンギグランドタワー8カイ",
    "street": null,
    "office_name": null,
    "office_name_kana": null
  },
  "6209": {
    "postcode": "1066209",
    "prefecture": "東京都",
    "prefecture_kana": "トウキョウト",
    "prefecture_code": 13,
    "city": "港区",
    "city_kana": "ミナトク",
    "town": "六本木住友不動産六本木グランドタワー　９階",
    "town_kana": "ロッポンギスミトモフドウサンロッポンギグランドタワー9カイ",
    "street": null,
    "office_name": null,
    "office_name_kana": null
  },
  "6210": {
    "postcode": "1066210",
    "prefecture": "東京都",
    "prefecture_kana": "トウキョウト",
    "prefecture_code": 13,
    "city": "港区",
    "city_kana": "ミナトク",
    "town": "六本木住友不動産六本木グランドタワー　１０階",
    "town_kana": "ロッポンギスミトモフドウサンロッポンギグランドタワー10カイ",
    "street": null,
    "office_name": null,
    "office_name_kana": null
  },
  "6211": {
    "postcode": "1066211",
    "prefecture": "東京都",
    "prefecture_kana": "トウキョウト",
    "prefecture_code": 13,
    "city": "港区",
    "city_kana": "ミナトク",
    "town": "六本木住友不動産六本木グランドタワー　１１階",
    "town_kana": "ロッポンギスミトモフドウサンロッポンギグランドタワー11カイ",
    "street": null,
    "office_name": null,
    "office_name_kana": null
  },
  "6212": {
    "postcode": "1066212",
    "prefecture": "東京都",
    "prefecture_kana": "トウキョウト",
    "prefecture_code": 13,
    "city": "港区",
    "city_kana": "ミナトク",
    "town": "六本木住友不動産六本木グランドタワー　１２階",
    "town_kana": "ロッポンギスミトモフドウサンロッポンギグランドタワー12カイ",
    "street": null,
    "office_name": null,
    "office_name_kana": null
  },
  "6213": {
    "postcode": "1066213",
    "prefecture": "東京都",
    "prefecture_kana": "トウキョウト",
    "prefecture_code": 13,
    "city": "港区",
    "city_kana": "ミナトク",
    "town": "六本木住友不動産六本木グランドタワー　１３階",
    "town_kana": "ロッポンギスミトモフドウサンロッポンギグランドタワー13カイ",
    "street": null,
    "office_name": null,
    "office_name_kana": null
  },
  "6214": {
    "postcode": "1066214",
    "prefecture": "東京都",
    "prefecture_kana": "トウキョウト",
    "prefecture_code": 13,
    "city": "港区",
    "city_kana": "ミナトク",
    "town": "六本木住友不動産六本木グランドタワー　１４階",
    "town_kana": "ロッポンギスミトモフドウサンロッポンギグランドタワー14カイ",
    "street": null,
    "office_name": null,
    "office_name_kana": null
  },
  "6215": {
    "postcode": "1066215",
    "prefecture": "東京都",
    "prefecture_kana": "トウキョウト",
    "prefecture_code": 13,
    "city": "港区",
    "city_kana": "ミナトク",
    "town": "六本木住友不動産六本木グランドタワー　１５階",
    "town_kana": "ロッポンギスミトモフドウサンロッポンギグランドタワー15カイ",
    "street": null,
    "office_name": null,
    "office_name_kana": null
  },
  "6216": {
    "postcode": "1066216",
    "prefecture": "東京都",
    "prefecture_kana": "トウキョウト",
    "prefecture_code": 13,
    "city": "港区",
    "city_kana": "ミナトク",
    "town": "六本木住友不動産六本木グランドタワー　１６階",
    "town_kana": "ロッポンギスミトモフドウサンロッポンギグランドタワー16カイ",
    "street": null,
    "office_name": null,
    "office_name_kana": null
  },
  "6217": {
    "postcode": "1066217",
    "prefecture": "東京都",
    "prefecture_kana": "トウキョウト",
    "prefecture_code": 13,
    "city": "港区",
    "city_kana": "ミナトク",
    "town": "六本木住友不動産六本木グランドタワー　１７階",
    "town_kana": "ロッポンギスミトモフドウサンロッポンギグランドタワー17カイ",
    "street": null,
    "office_name": null,
    "office_name_kana": null
  },
  "6218": {
    "postcode": "1066218",
    "prefecture": "東京都",
    "prefecture_kana": "トウキョウト",
    "prefecture_code": 13,
    "city": "港区",
    "city_kana": "ミナトク",
    "town": "六本木住友不動産六本木グランドタワー　１８階",
    "town_kana": "ロッポンギスミトモフドウサンロッポンギグランドタワー18カイ",
    "street": null,
    "office_name": null,
    "office_name_kana": null
  },
  "6219": {
    "postcode": "1066219",
    "prefecture": "東京都",
    "prefecture_kana": "トウキョウト",
    "prefecture_code": 13,
    "city": "港区",
    "city_kana": "ミナトク",
    "town": "六本木住友不動産六本木グランドタワー　１９階",
    "town_kana": "ロッポンギスミトモフドウサンロッポンギグランドタワー19カイ",
    "street": null,
    "office_name": null,
    "office_name_kana": null
  },
  "6220": {
    "postcode": "1066220",
    "prefecture": "東京都",
    "prefecture_kana": "トウキョウト",
    "prefecture_code": 13,
    "city": "港区",
    "city_kana": "ミナトク",
    "town": "六本木住友不動産六本木グランドタワー　２０階",
    "town_kana": "ロッポンギスミトモフドウサンロッポンギグランドタワー20カイ",
    "street": null,
    "office_name": null,
    "office_name_kana": null
  },
  "6221": {
    "postcode": "1066221",
    "prefecture": "東京都",
    "prefecture_kana": "トウキョウト",
    "prefecture_code": 13,
    "city": "港区",
    "city_kana": "ミナトク",
    "town": "六本木住友不動産六本木グランドタワー　２１階",
    "town_kana": "ロッポンギスミトモフドウサンロッポンギグランドタワー21カイ",
    "street": null,
    "office_name": null,
    "office_name_kana": null
  },
  "6222": {
    "postcode": "1066222",
    "prefecture": "東京都",
    "prefecture_kana": "トウキョウト",
    "prefecture_code": 13,
    "city": "港区",
    "city_kana": "ミナトク",
    "town": "六本木住友不動産六本木グランドタワー　２２階",
    "town_kana": "ロッポンギスミトモフドウサンロッポンギグランドタワー22カイ",
    "street": null,
    "office_name": null,
    "office_name_kana": null
  },
  "6223": {
    "postcode": "1066223",
    "prefecture": "東京都",
    "prefecture_kana": "トウキョウト",
    "prefecture_code": 13,
    "city": "港区",
    "city_kana": "ミナトク",
    "town": "六本木住友不動産六本木グランドタワー　２３階",
    "town_kana": "ロッポンギスミトモフドウサンロッポンギグランドタワー23カイ",
    "street": null,
    "office_name": null,
    "office_name_kana": null
  },
  "6224": {
    "postcode": "1066224",
    "prefecture": "東京都",
    "prefecture_kana": "トウキョウト",
    "prefecture_code": 13,
    "city": "港区",
    "city_kana": "ミナトク",
    "town": "六本木住友不動産六本木グランドタワー　２４階",
    "town_kana": "ロッポンギスミトモフドウサンロッポンギグランドタワー24カイ",
    "street": null,
    "office_name": null,
    "office_name_kana": null
  },
  "6225": {
    "postcode": "1066225",
    "prefecture": "東京都",
    "prefecture_kana": "トウキョウト",
    "prefecture_code": 13,
    "city": "港区",
    "city_kana": "ミナトク",
    "town": "六本木住友不動産六本木グランドタワー　２５階",
    "town_kana": "ロッポンギスミトモフドウサンロッポンギグランドタワー25カイ",
    "street": null,
    "office_name": null,
    "office_name_kana": null
  },
  "6226": {
    "postcode": "1066226",
    "prefecture": "東京都",
    "prefecture_kana": "トウキョウト",
    "prefecture_code": 13,
    "city": "港区",
    "city_kana": "ミナトク",
    "town": "六本木住友不動産六本木グランドタワー　２６階",
    "town_kana": "ロッポンギスミトモフドウサンロッポンギグランドタワー26カイ",
    "street": null,
    "office_name": null,
    "office_name_kana": null
  },
  "6227": {
    "postcode": "1066227",
    "prefecture": "東京都",
    "prefecture_kana": "トウキョウト",
    "prefecture_code": 13,
    "city": "港区",
    "city_kana": "ミナトク",
    "town": "六本木住友不動産六本木グランドタワー　２７階",
    "town_kana": "ロッポンギスミトモフドウサンロッポンギグランドタワー27カイ",
    "street": null,
    "office_name": null,
    "office_name_kana": null
  },
  "6228": {
    "postcode": "1066228",
    "prefecture": "東京都",
    "prefecture_kana": "トウキョウト",
    "prefecture_code": 13,
    "city": "港区",
    "city_kana": "ミナトク",
    "town": "六本木住友不動産六本木グランドタワー　２８階",
    "town_kana": "ロッポンギスミトモフドウサンロッポンギグランドタワー28カイ",
    "street": null,
    "office_name": null,
    "office_name_kana": null
  },
  "6229": {
    "postcode": "1066229",
    "prefecture": "東京都",
    "prefecture_kana": "トウキョウト",
    "prefecture_code": 13,
    "city": "港区",
    "city_kana": "ミナトク",
    "town": "六本木住友不動産六本木グランドタワー　２９階",
    "town_kana": "ロッポンギスミトモフドウサンロッポンギグランドタワー29カイ",
    "street": null,
    "office_name": null,
    "office_name_kana": null
  },
  "6230": {
    "postcode": "1066230",
    "prefecture": "東京都",
    "prefecture_kana": "トウキョウト",
    "prefecture_code": 13,
    "city": "港区",
    "city_kana": "ミナトク",
    "town": "六本木住友不動産六本木グランドタワー　３０階",
    "town_kana": "ロッポンギスミトモフドウサンロッポンギグランドタワー30カイ",
    "street": null,
    "office_name": null,
    "office_name_kana": null
  },
  "6231": {
    "postcode": "1066231",
    "prefecture": "東京都",
    "prefecture_kana": "トウキョウト",
    "prefecture_code": 13,
    "city": "港区",
    "city_kana": "ミナトク",
    "town": "六本木住友不動産六本木グランドタワー　３１階",
    "town_kana": "ロッポンギスミトモフドウサンロッポンギグランドタワー31カイ",
    "street": null,
    "office_name": null,
    "office_name_kana": null
  },
  "6232": {
    "postcode": "1066232",
    "prefecture": "東京都",
    "prefecture_kana": "トウキョウト",
    "prefecture_code": 13,
    "city": "港区",
    "city_kana": "ミナトク",
    "town": "六本木住友不動産六本木グランドタワー　３２階",
    "town_kana": "ロッポンギスミトモフドウサンロッポンギグランドタワー32カイ",
    "street": null,
    "office_name": null,
    "office_name_kana": null
  },
  "6233": {
    "postcode": "1066233",
    "prefecture": "東京都",
    "prefecture_kana": "トウキョウト",
    "prefecture_code": 13,
    "city": "港区",
    "city_kana": "ミナトク",
    "town": "六本木住友不動産六本木グランドタワー　３３階",
    "town_kana": "ロッポンギスミトモフドウサンロッポンギグランドタワー33カイ",
    "street": null,
    "office_name": null,
    "office_name_kana": null
  },
  "6234": {
    "postcode": "1066234",
    "prefecture": "東京都",
    "prefecture_kana": "トウキョウト",
    "prefecture_code": 13,
    "city": "港区",
    "city_kana": "ミナトク",
    "town": "六本木住友不動産六本木グランドタワー　３４階",
    "town_kana": "ロッポンギスミトモフドウサンロッポンギグランドタワー34カイ",
    "street": null,
    "office_name": null,
    "office_name_kana": null
  },
  "6235": {
    "postcode": "1066235",
    "prefecture": "東京都",
    "prefecture_kana": "トウキョウト",
    "prefecture_code": 13,
    "city": "港区",
    "city_kana": "ミナトク",
    "town": "六本木住友不動産六本木グランドタワー　３５階",
    "town_kana": "ロッポンギスミトモフドウサンロッポンギグランドタワー35カイ",
    "street": null,
    "office_name": null,
    "office_name_kana": null
  },
  "6236": {
    "postcode": "1066236",
    "prefecture": "東京都",
    "prefecture_kana": "トウキョウト",
    "prefecture_code": 13,
    "city": "港区",
    "city_kana": "ミナトク",
    "town": "六本木住友不動産六本木グランドタワー　３６階",
    "town_kana": "ロッポンギスミトモフドウサンロッポンギグランドタワー36カイ",
    "street": null,
    "office_name": null,
    "office_name_kana": null
  },
  "6237": {
    "postcode": "1066237",
    "prefecture": "東京都",
    "prefecture_kana": "トウキョウト",
    "prefecture_code": 13,
    "city": "港区",
    "city_kana": "ミナトク",
    "town": "六本木住友不動産六本木グランドタワー　３７階",
    "town_kana": "ロッポンギスミトモフドウサンロッポンギグランドタワー37カイ",
    "street": null,
    "office_name": null,
    "office_name_kana": null
  },
  "6238": {
    "postcode": "1066238",
    "prefecture": "東京都",
    "prefecture_kana": "トウキョウト",
    "prefecture_code": 13,
    "city": "港区",
    "city_kana": "ミナトク",
    "town": "六本木住友不動産六本木グランドタワー　３８階",
    "town_kana": "ロッポンギスミトモフドウサンロッポンギグランドタワー38カイ",
    "street": null,
    "office_name": null,
    "office_name_kana": null
  },
  "6239": {
    "postcode": "1066239",
    "prefecture": "東京都",
    "prefecture_kana": "トウキョウト",
    "prefecture_code": 13,
    "city": "港区",
    "city_kana": "ミナトク",
    "town": "六本木住友不動産六本木グランドタワー　３９階",
    "town_kana": "ロッポンギスミトモフドウサンロッポンギグランドタワー39カイ",
    "street": null,
    "office_name": null,
    "office_name_kana": null
  },
  "6240": {
    "postcode": "1066240",
    "prefecture": "東京都",
    "prefecture_kana": "トウキョウト",
    "prefecture_code": 13,
    "city": "港区",
    "city_kana": "ミナトク",
    "town": "六本木住友不動産六本木グランドタワー　４０階",
    "town_kana": "ロッポンギスミトモフドウサンロッポンギグランドタワー40カイ",
    "street": null,
    "office_name": null,
    "office_name_kana": null
  },
  "6241": {
    "postcode": "1066241",
    "prefecture": "東京都",
    "prefecture_kana": "トウキョウト",
    "prefecture_code": 13,
    "city": "港区",
    "city_kana": "ミナトク",
    "town": "六本木住友不動産六本木グランドタワー　４１階",
    "town_kana": "ロッポンギスミトモフドウサンロッポンギグランドタワー41カイ",
    "street": null,
    "office_name": null,
    "office_name_kana": null
  },
  "6242": {
    "postcode": "1066242",
    "prefecture": "東京都",
    "prefecture_kana": "トウキョウト",
    "prefecture_code": 13,
    "city": "港区",
    "city_kana": "ミナトク",
    "town": "六本木住友不動産六本木グランドタワー　４２階",
    "town_kana": "ロッポンギスミトモフドウサンロッポンギグランドタワー42カイ",
    "street": null,
    "office_name": null,
    "office_name_kana": null
  },
  "6243": {
    "postcode": "1066243",
    "prefecture": "東京都",
    "prefecture_kana": "トウキョウト",
    "prefecture_code": 13,
    "city": "港区",
    "city_kana": "ミナトク",
    "town": "六本木住友不動産六本木グランドタワー　４３階",
    "town_kana": "ロッポンギスミトモフドウサンロッポンギグランドタワー43カイ",
    "street": null,
    "office_name": null,
    "office_name_kana": null
  },
  "6290": {
    "postcode": "1066290",
    "prefecture": "東京都",
    "prefecture_kana": "トウキョウト",
    "prefecture_code": 13,
    "city": "港区",
    "city_kana": "ミナトク",
    "town": "六本木住友不動産六本木グランドタワー",
    "town_kana": "ロッポンギスミトモフドウサンロッポンギグランドタワー",
    "street": null,
    "office_name": null,
    "office_name_kana": null
  },
  "8001": {
    "postcode": "1068001",
    "prefecture": "東京都",
    "prefecture_kana": "トウキョウト",
    "prefecture_code": 13,
    "city": "港区",
    "city_kana": "ミナトク",
    "town": "六本木",
    "town_kana": "ロッポンギ",
    "street": "１丁目１−１",
    "office_name": "株式会社　テレビ朝日",
    "office_name_kana": "カブシキガイシヤ テレビアサヒ"
  },
  "8007": {
    "postcode": "1068007",
    "prefecture": "東京都",
    "prefecture_kana": "トウキョウト",
    "prefecture_code": 13,
    "city": "港区",
    "city_kana": "ミナトク",
    "town": "六本木",
    "town_kana": "ロッポンギ",
    "street": "３丁目２番１号",
    "office_name": "株式会社　テレビ東京・株式会社　テレビ東京ホールディングス",
    "office_name_kana": "カブシキガイシヤ テレビトウキヨウ・カブシキガイシヤ テレビトウキヨウホ-ルデイングス"
  },
  "8011": {
    "postcode": "1068011",
    "prefecture": "東京都",
    "prefecture_kana": "トウキョウト",
    "prefecture_code": 13,
    "city": "港区",
    "city_kana": "ミナトク",
    "town": "六本木",
    "town_kana": "ロッポンギ",
    "street": "３丁目１６−３５",
    "office_name": "株式会社　スペースシャワーネットワーク",
    "office_name_kana": "カブシキガイシヤ スペ-スシヤワ-ネツトワ-ク"
  },
  "8039": {
    "postcode": "1068039",
    "prefecture": "東京都",
    "prefecture_kana": "トウキョウト",
    "prefecture_code": 13,
    "city": "港区",
    "city_kana": "ミナトク",
    "town": "麻布台",
    "town_kana": "アザブダイ",
    "street": "２丁目２−１",
    "office_name": "株式会社　アール・エフラジオ日本",
    "office_name_kana": "カブシキガイシヤ ア-ル・エフラジオニツポン"
  },
  "8107": {
    "postcode": "1068107",
    "prefecture": "東京都",
    "prefecture_kana": "トウキョウト",
    "prefecture_code": 13,
    "city": "港区",
    "city_kana": "ミナトク",
    "town": "六本木",
    "town_kana": "ロッポンギ",
    "street": "３丁目２番１号",
    "office_name": "株式会社　ＢＳジャパン",
    "office_name_kana": "カブシキガイシヤ ビ-エスジヤパン"
  },
  "8401": {
    "postcode": "1068401",
    "prefecture": "東京都",
    "prefecture_kana": "トウキョウト",
    "prefecture_code": 13,
    "city": "港区",
    "city_kana": "ミナトク",
    "town": "六本木",
    "town_kana": "ロッポンギ",
    "street": "６丁目１１−１",
    "office_name": "日本中央競馬会　六本木事務所",
    "office_name_kana": "ニホンチユウオウケイバカイ ロツポンギジムシヨ"
  },
  "8487": {
    "postcode": "1068487",
    "prefecture": "東京都",
    "prefecture_kana": "トウキョウト",
    "prefecture_code": 13,
    "city": "港区",
    "city_kana": "ミナトク",
    "town": "六本木",
    "town_kana": "ロッポンギ",
    "street": "１−５−１７",
    "office_name": "株式会社　ポニーキャニオン",
    "office_name_kana": "カブシキガイシヤ ポニ-キヤニオン"
  },
  "8507": {
    "postcode": "1068507",
    "prefecture": "東京都",
    "prefecture_kana": "トウキョウト",
    "prefecture_code": 13,
    "city": "港区",
    "city_kana": "ミナトク",
    "town": "六本木",
    "town_kana": "ロッポンギ",
    "street": "５丁目１４−４０",
    "office_name": "学校法人　東洋英和女学院",
    "office_name_kana": "ガツコウホウジン トウヨウエイワジヨガクイン"
  },
  "8508": {
    "postcode": "1068508",
    "prefecture": "東京都",
    "prefecture_kana": "トウキョウト",
    "prefecture_code": 13,
    "city": "港区",
    "city_kana": "ミナトク",
    "town": "六本木",
    "town_kana": "ロッポンギ",
    "street": "１丁目４−３０",
    "office_name": "日本ルーセントテクノロジー　株式会社",
    "office_name_kana": "ニホンル-セントテクノロジ- カブシキガイシヤ"
  },
  "8514": {
    "postcode": "1068514",
    "prefecture": "東京都",
    "prefecture_kana": "トウキョウト",
    "prefecture_code": 13,
    "city": "港区",
    "city_kana": "ミナトク",
    "town": "南麻布",
    "town_kana": "ミナミアザブ",
    "street": "４丁目１１−４４",
    "office_name": "フランス大使館",
    "office_name_kana": "フランスタイシカン"
  },
  "8515": {
    "postcode": "1068515",
    "prefecture": "東京都",
    "prefecture_kana": "トウキョウト",
    "prefecture_code": 13,
    "city": "港区",
    "city_kana": "ミナトク",
    "town": "六本木",
    "town_kana": "ロッポンギ",
    "street": "５丁目１６−４５",
    "office_name": "港区麻布支所",
    "office_name_kana": "ミナトクアザブシシヨ"
  },
  "8518": {
    "postcode": "1068518",
    "prefecture": "東京都",
    "prefecture_kana": "トウキョウト",
    "prefecture_code": 13,
    "city": "港区",
    "city_kana": "ミナトク",
    "town": "六本木",
    "town_kana": "ロッポンギ",
    "street": "７丁目２−７",
    "office_name": "株式会社　内原",
    "office_name_kana": "カブシキガイシヤ ウチハラ"
  },
  "8521": {
    "postcode": "1068521",
    "prefecture": "東京都",
    "prefecture_kana": "トウキョウト",
    "prefecture_code": 13,
    "city": "港区",
    "city_kana": "ミナトク",
    "town": "六本木",
    "town_kana": "ロッポンギ",
    "street": "５丁目２−１",
    "office_name": "株式会社　ほうらいやビル",
    "office_name_kana": "カブシキガイシヤ ホウライヤビル"
  },
  "8522": {
    "postcode": "1068522",
    "prefecture": "東京都",
    "prefecture_kana": "トウキョウト",
    "prefecture_code": 13,
    "city": "港区",
    "city_kana": "ミナトク",
    "town": "六本木",
    "town_kana": "ロッポンギ",
    "street": "５丁目５−１ロアビル８Ｆ",
    "office_name": "株式会社　ＷＤＩ",
    "office_name_kana": "カブシキガイシヤ ダブリユ-・デイ-・アイ"
  },
  "8531": [
    {
      "postcode": "1068531",
      "prefecture": "東京都",
      "prefecture_kana": "トウキョウト",
      "prefecture_code": 13,
      "city": "港区",
      "city_kana": "ミナトク",
      "town": "六本木",
      "town_kana": "ロッポンギ",
      "street": "３−１６−３３青葉六本木ビル５＆３Ｆ",
      "office_name": "株式会社　エムオン・エンタテインメント",
      "office_name_kana": "カブシキガイシヤ エムオン・エンタテインメント"
    },
    {
      "postcode": "1068531",
      "prefecture": "東京都",
      "prefecture_kana": "トウキョウト",
      "prefecture_code": 13,
      "city": "港区",
      "city_kana": "ミナトク",
      "town": "六本木",
      "town_kana": "ロッポンギ",
      "street": "３−１６−３３青葉六本木ビル５＆３Ｆ",
      "office_name": "株式会社　ｋｉｒａｒａｍｅｄｉａ",
      "office_name_kana": "カブシキガイシヤ キララメデイア"
    }
  ],
  "8537": {
    "postcode": "1068537",
    "prefecture": "東京都",
    "prefecture_kana": "トウキョウト",
    "prefecture_code": 13,
    "city": "港区",
    "city_kana": "ミナトク",
    "town": "六本木",
    "town_kana": "ロッポンギ",
    "street": "５丁目１５−５",
    "office_name": "フィリピン共和国大使館",
    "office_name_kana": "フイリピンキヨウワコクタイシカン"
  },
  "8541": {
    "postcode": "1068541",
    "prefecture": "東京都",
    "prefecture_kana": "トウキョウト",
    "prefecture_code": 13,
    "city": "港区",
    "city_kana": "ミナトク",
    "town": "六本木",
    "town_kana": "ロッポンギ",
    "street": "６丁目７−６",
    "office_name": "ハリウッド美容専門学校",
    "office_name_kana": "ハリウツドビヨウセンモンガツコウ"
  },
  "8544": {
    "postcode": "1068544",
    "prefecture": "東京都",
    "prefecture_kana": "トウキョウト",
    "prefecture_code": 13,
    "city": "港区",
    "city_kana": "ミナトク",
    "town": "六本木",
    "town_kana": "ロッポンギ",
    "street": "７丁目１０−２０",
    "office_name": "株式会社　フリップサイド",
    "office_name_kana": "カブシキガイシヤ フリツプサイド"
  },
  "8545": {
    "postcode": "1068545",
    "prefecture": "東京都",
    "prefecture_kana": "トウキョウト",
    "prefecture_code": 13,
    "city": "港区",
    "city_kana": "ミナトク",
    "town": "六本木",
    "town_kana": "ロッポンギ",
    "street": "７丁目１５−２６",
    "office_name": "全日本海員組合",
    "office_name_kana": "ゼンニホンカイインクミアイ"
  },
  "8550": {
    "postcode": "1068550",
    "prefecture": "東京都",
    "prefecture_kana": "トウキョウト",
    "prefecture_code": 13,
    "city": "港区",
    "city_kana": "ミナトク",
    "town": "六本木",
    "town_kana": "ロッポンギ",
    "street": "６丁目２−３１",
    "office_name": "東芝シリコーン　株式会社",
    "office_name_kana": "トウシバシリコ-ン カブシキガイシヤ"
  },
  "8551": {
    "postcode": "1068551",
    "prefecture": "東京都",
    "prefecture_kana": "トウキョウト",
    "prefecture_code": 13,
    "city": "港区",
    "city_kana": "ミナトク",
    "town": "六本木",
    "town_kana": "ロッポンギ",
    "street": "５丁目１６−２０",
    "office_name": "東通産業　株式会社",
    "office_name_kana": "トウツウサンギヨウ カブシキガイシヤ"
  },
  "8552": {
    "postcode": "1068552",
    "prefecture": "東京都",
    "prefecture_kana": "トウキョウト",
    "prefecture_code": 13,
    "city": "港区",
    "city_kana": "ミナトク",
    "town": "六本木",
    "town_kana": "ロッポンギ",
    "street": "６丁目２−３１六本木ヒルズノースタワー１２階",
    "office_name": "株式会社　テレビ朝日ミュージック",
    "office_name_kana": "カブシキガイシヤ テレビアサヒミユ-ジツク"
  },
  "8555": {
    "postcode": "1068555",
    "prefecture": "東京都",
    "prefecture_kana": "トウキョウト",
    "prefecture_code": 13,
    "city": "港区",
    "city_kana": "ミナトク",
    "town": "六本木",
    "town_kana": "ロッポンギ",
    "street": "７丁目２２−３４",
    "office_name": "日本学術会議",
    "office_name_kana": "ニホンガクジユツカイギ"
  },
  "8556": {
    "postcode": "1068556",
    "prefecture": "東京都",
    "prefecture_kana": "トウキョウト",
    "prefecture_code": 13,
    "city": "港区",
    "city_kana": "ミナトク",
    "town": "六本木",
    "town_kana": "ロッポンギ",
    "street": "７丁目１８−１２",
    "office_name": "株式会社　シーボン",
    "office_name_kana": "カブシキガイシヤ シ-ボン"
  },
  "8558": {
    "postcode": "1068558",
    "prefecture": "東京都",
    "prefecture_kana": "トウキョウト",
    "prefecture_code": 13,
    "city": "港区",
    "city_kana": "ミナトク",
    "town": "六本木",
    "town_kana": "ロッポンギ",
    "street": "７丁目２２−２",
    "office_name": "独立行政法人　国立美術館　国立新美術館",
    "office_name_kana": "ドクリツギヨウセイホウジン コクリツビジユツカン コクリツシンビジユツカン"
  },
  "8559": {
    "postcode": "1068559",
    "prefecture": "東京都",
    "prefecture_kana": "トウキョウト",
    "prefecture_code": 13,
    "city": "港区",
    "city_kana": "ミナトク",
    "town": "六本木",
    "town_kana": "ロッポンギ",
    "street": "３丁目１５−２０",
    "office_name": "ＭＴＶ　ＪＡＰＡＮ",
    "office_name_kana": "エム・テイ-・ヴイ- ジヤパン"
  },
  "8560": {
    "postcode": "1068560",
    "prefecture": "東京都",
    "prefecture_kana": "トウキョウト",
    "prefecture_code": 13,
    "city": "港区",
    "city_kana": "ミナトク",
    "town": "麻布台",
    "town_kana": "アザブダイ",
    "street": "３丁目５−６",
    "office_name": "東京都港都税事務所",
    "office_name_kana": "トウキヨウトミナトトゼイジムシヨ"
  },
  "8561": {
    "postcode": "1068561",
    "prefecture": "東京都",
    "prefecture_kana": "トウキョウト",
    "prefecture_code": 13,
    "city": "港区",
    "city_kana": "ミナトク",
    "town": "南麻布",
    "town_kana": "ミナミアザブ",
    "street": "３丁目５−３９",
    "office_name": "駐日フィンランド大使館",
    "office_name_kana": "チユウニチフインランドタイシカン"
  },
  "8562": {
    "postcode": "1068562",
    "prefecture": "東京都",
    "prefecture_kana": "トウキョウト",
    "prefecture_code": 13,
    "city": "港区",
    "city_kana": "ミナトク",
    "town": "南麻布",
    "town_kana": "ミナミアザブ",
    "street": "３丁目６−３",
    "office_name": "株式会社　エル",
    "office_name_kana": "カブシキガイシヤ エル"
  },
  "8563": {
    "postcode": "1068563",
    "prefecture": "東京都",
    "prefecture_kana": "トウキョウト",
    "prefecture_code": 13,
    "city": "港区",
    "city_kana": "ミナトク",
    "town": "南麻布",
    "town_kana": "ミナミアザブ",
    "street": "５丁目１０−２５",
    "office_name": "社団法人　東亜科学技術協力協会",
    "office_name_kana": "シヤダンホウジン トウアカガクギジユツキヨウリヨクキヨウカイ"
  },
  "8565": {
    "postcode": "1068565",
    "prefecture": "東京都",
    "prefecture_kana": "トウキョウト",
    "prefecture_code": 13,
    "city": "港区",
    "city_kana": "ミナトク",
    "town": "六本木",
    "town_kana": "ロッポンギ",
    "street": "１丁目４−３３六本木２１森ビル",
    "office_name": "コロムビアミュージックエンタテインメント　株式会社",
    "office_name_kana": "コロムビアミユ-ジツクエンタテインメント カブシキガイシヤ"
  },
  "8566": {
    "postcode": "1068566",
    "prefecture": "東京都",
    "prefecture_kana": "トウキョウト",
    "prefecture_code": 13,
    "city": "港区",
    "city_kana": "ミナトク",
    "town": "南麻布",
    "town_kana": "ミナミアザブ",
    "street": "１丁目６−１５",
    "office_name": "エヌ・ティ・ティ　ラーニングシステムズ　株式会社",
    "office_name_kana": "エヌ・テイ・テイ ラ-ニングシステムズ カブシキガイシヤ"
  },
  "8567": {
    "postcode": "1068567",
    "prefecture": "東京都",
    "prefecture_kana": "トウキョウト",
    "prefecture_code": 13,
    "city": "港区",
    "city_kana": "ミナトク",
    "town": "南麻布",
    "town_kana": "ミナミアザブ",
    "street": "１丁目１８−４",
    "office_name": "株式会社　佐藤渡辺",
    "office_name_kana": "カブシキガイシヤ サトウワタナベ"
  },
  "8569": {
    "postcode": "1068569",
    "prefecture": "東京都",
    "prefecture_kana": "トウキョウト",
    "prefecture_code": 13,
    "city": "港区",
    "city_kana": "ミナトク",
    "town": "南麻布",
    "town_kana": "ミナミアザブ",
    "street": "４丁目６−７",
    "office_name": "統計数理研究所",
    "office_name_kana": "トウケイスウリケンキユウシヨ"
  },
  "8571": {
    "postcode": "1068571",
    "prefecture": "東京都",
    "prefecture_kana": "トウキョウト",
    "prefecture_code": 13,
    "city": "港区",
    "city_kana": "ミナトク",
    "town": "南麻布",
    "town_kana": "ミナミアザブ",
    "street": "２丁目７−１",
    "office_name": "株式会社　ディーエイチシー",
    "office_name_kana": "カブシキガイシヤ デイ-エイチシ-"
  },
  "8573": {
    "postcode": "1068573",
    "prefecture": "東京都",
    "prefecture_kana": "トウキョウト",
    "prefecture_code": 13,
    "city": "港区",
    "city_kana": "ミナトク",
    "town": "南麻布",
    "town_kana": "ミナミアザブ",
    "street": "３丁目２０−１",
    "office_name": "日本モトローラ　株式会社",
    "office_name_kana": "ニホンモトロ-ラ カブシキガイシヤ"
  },
  "8575": {
    "postcode": "1068575",
    "prefecture": "東京都",
    "prefecture_kana": "トウキョウト",
    "prefecture_code": 13,
    "city": "港区",
    "city_kana": "ミナトク",
    "town": "南麻布",
    "town_kana": "ミナミアザブ",
    "street": "５丁目７−１３",
    "office_name": "東京都立中央図書館",
    "office_name_kana": "トウキヨウトリツチユウオウトシヨカン"
  },
  "8576": {
    "postcode": "1068576",
    "prefecture": "東京都",
    "prefecture_kana": "トウキョウト",
    "prefecture_code": 13,
    "city": "港区",
    "city_kana": "ミナトク",
    "town": "南麻布",
    "town_kana": "ミナミアザブ",
    "street": "２丁目７−２４",
    "office_name": "マサモト　株式会社",
    "office_name_kana": "マサモト カブシキガイシヤ"
  },
  "8577": {
    "postcode": "1068577",
    "prefecture": "東京都",
    "prefecture_kana": "トウキョウト",
    "prefecture_code": 13,
    "city": "港区",
    "city_kana": "ミナトク",
    "town": "南麻布",
    "town_kana": "ミナミアザブ",
    "street": "１丁目２−５",
    "office_name": "駐日大韓民国大使館",
    "office_name_kana": "チユウニチダイカンミンコクタイシカン"
  },
  "8578": {
    "postcode": "1068578",
    "prefecture": "東京都",
    "prefecture_kana": "トウキョウト",
    "prefecture_code": 13,
    "city": "港区",
    "city_kana": "ミナトク",
    "town": "南麻布",
    "town_kana": "ミナミアザブ",
    "street": "１丁目６−１８",
    "office_name": "象印マホービン　株式会社",
    "office_name_kana": "ゾウジルシマホ-ビン カブシキガイシヤ"
  },
  "8580": {
    "postcode": "1068580",
    "prefecture": "東京都",
    "prefecture_kana": "トウキョウト",
    "prefecture_code": 13,
    "city": "港区",
    "city_kana": "ミナトク",
    "town": "南麻布",
    "town_kana": "ミナミアザブ",
    "street": "５丁目６−８",
    "office_name": "恩賜財団　母子愛育会",
    "office_name_kana": "オンシザイダン ボシアイイクカイ"
  },
  "8581": {
    "postcode": "1068581",
    "prefecture": "東京都",
    "prefecture_kana": "トウキョウト",
    "prefecture_code": 13,
    "city": "港区",
    "city_kana": "ミナトク",
    "town": "南麻布",
    "town_kana": "ミナミアザブ",
    "street": "２丁目１０−２１",
    "office_name": "医療法人財団　厚生会",
    "office_name_kana": "イリヨウホウジンザイダン コウセイカイ"
  },
  "8585": {
    "postcode": "1068585",
    "prefecture": "東京都",
    "prefecture_kana": "トウキョウト",
    "prefecture_code": 13,
    "city": "港区",
    "city_kana": "ミナトク",
    "town": "南麻布",
    "town_kana": "ミナミアザブ",
    "street": "１丁目７−３２",
    "office_name": "在日本大韓民国民団　中央本部",
    "office_name_kana": "ザイニツポンダイカンミンコクミンダン チユウオウホンブ"
  },
  "8587": {
    "postcode": "1068587",
    "prefecture": "東京都",
    "prefecture_kana": "トウキョウト",
    "prefecture_code": 13,
    "city": "港区",
    "city_kana": "ミナトク",
    "town": "南麻布",
    "town_kana": "ミナミアザブ",
    "street": "１丁目６−３０",
    "office_name": "株式会社　日比谷花壇",
    "office_name_kana": "カブシキガイシヤ ヒビヤカダン"
  },
  "8588": {
    "postcode": "1068588",
    "prefecture": "東京都",
    "prefecture_kana": "トウキョウト",
    "prefecture_code": 13,
    "city": "港区",
    "city_kana": "ミナトク",
    "town": "南麻布",
    "town_kana": "ミナミアザブ",
    "street": "２丁目１３−１９",
    "office_name": "株式会社　一徳商会",
    "office_name_kana": "カブシキガイシヤ イチトクシヨウカイ"
  },
  "8589": {
    "postcode": "1068589",
    "prefecture": "東京都",
    "prefecture_kana": "トウキョウト",
    "prefecture_code": 13,
    "city": "港区",
    "city_kana": "ミナトク",
    "town": "南麻布",
    "town_kana": "ミナミアザブ",
    "street": "５丁目９−１２",
    "office_name": "スイス大使館",
    "office_name_kana": "スイスタイシカン"
  },
  "8601": {
    "postcode": "1068601",
    "prefecture": "東京都",
    "prefecture_kana": "トウキョウト",
    "prefecture_code": 13,
    "city": "港区",
    "city_kana": "ミナトク",
    "town": "西麻布",
    "town_kana": "ニシアザブ",
    "street": "３丁目２−６",
    "office_name": "日本シャクリー　株式会社",
    "office_name_kana": "ニホンシヤクリ- カブシキガイシヤ"
  },
  "8608": {
    "postcode": "1068608",
    "prefecture": "東京都",
    "prefecture_kana": "トウキョウト",
    "prefecture_code": 13,
    "city": "港区",
    "city_kana": "ミナトク",
    "town": "西麻布",
    "town_kana": "ニシアザブ",
    "street": "３丁目１９−１８",
    "office_name": "財団法人　書海社",
    "office_name_kana": "ザイダンホウジン シヨカイシヤ"
  },
  "8611": {
    "postcode": "1068611",
    "prefecture": "東京都",
    "prefecture_kana": "トウキョウト",
    "prefecture_code": 13,
    "city": "港区",
    "city_kana": "ミナトク",
    "town": "西麻布",
    "town_kana": "ニシアザブ",
    "street": "２丁目２５−１８麻布パレスビル",
    "office_name": "株式会社　ユース・プランニングセンター",
    "office_name_kana": "カブシキガイシヤ ユ-ス・プランニングセンタ-"
  },
  "8616": {
    "postcode": "1068616",
    "prefecture": "東京都",
    "prefecture_kana": "トウキョウト",
    "prefecture_code": 13,
    "city": "港区",
    "city_kana": "ミナトク",
    "town": "西麻布",
    "town_kana": "ニシアザブ",
    "street": "２丁目２４−１１麻布ウエストビル",
    "office_name": "日本タッパーウェア　株式会社",
    "office_name_kana": "ニホンタツパ-ウエア カブシキガイシヤ"
  },
  "8620": {
    "postcode": "1068620",
    "prefecture": "東京都",
    "prefecture_kana": "トウキョウト",
    "prefecture_code": 13,
    "city": "港区",
    "city_kana": "ミナトク",
    "town": "西麻布",
    "town_kana": "ニシアザブ",
    "street": "２丁目２６−３０",
    "office_name": "富士フイルム　株式会社",
    "office_name_kana": "フジフイルム カブシキガイシヤ"
  },
  "8622": {
    "postcode": "1068622",
    "prefecture": "東京都",
    "prefecture_kana": "トウキョウト",
    "prefecture_code": 13,
    "city": "港区",
    "city_kana": "ミナトク",
    "town": "六本木",
    "town_kana": "ロッポンギ",
    "street": "１−６−１泉ガーデンタワー１５Ｆ",
    "office_name": "ＳＢＩマーケティング　株式会社",
    "office_name_kana": "エスビ-アイマ-ケテイング カブシキガイシヤ"
  },
  "8625": {
    "postcode": "1068625",
    "prefecture": "東京都",
    "prefecture_kana": "トウキョウト",
    "prefecture_code": 13,
    "city": "港区",
    "city_kana": "ミナトク",
    "town": "西麻布",
    "town_kana": "ニシアザブ",
    "street": "４丁目１６−１３",
    "office_name": "財団法人　日本オペラ振興会",
    "office_name_kana": "ザイダンホウジン ニホンオペラシンコウカイ"
  },
  "8626": {
    "postcode": "1068626",
    "prefecture": "東京都",
    "prefecture_kana": "トウキョウト",
    "prefecture_code": 13,
    "city": "港区",
    "city_kana": "ミナトク",
    "town": "西麻布",
    "town_kana": "ニシアザブ",
    "street": "１丁目１４−２疋田ビル３０２号",
    "office_name": "株式会社　ファンキー・ジャム",
    "office_name_kana": "カブシキガイシヤ フアンキ-・ジヤム"
  },
  "8630": {
    "postcode": "1068630",
    "prefecture": "東京都",
    "prefecture_kana": "トウキョウト",
    "prefecture_code": 13,
    "city": "港区",
    "city_kana": "ミナトク",
    "town": "西麻布",
    "town_kana": "ニシアザブ",
    "street": "３丁目３−５",
    "office_name": "麻布税務署",
    "office_name_kana": "アザブゼイムシヨ"
  },
  "8635": {
    "postcode": "1068635",
    "prefecture": "東京都",
    "prefecture_kana": "トウキョウト",
    "prefecture_code": 13,
    "city": "港区",
    "city_kana": "ミナトク",
    "town": "麻布台",
    "town_kana": "アザブダイ",
    "street": "２丁目２−１麻布台ビル",
    "office_name": "独立行政法人　農畜産業振興機構",
    "office_name_kana": "ドクリツギヨウセイホウジン ノウチクサンギヨウシンコウキコウ"
  },
  "8636": {
    "postcode": "1068636",
    "prefecture": "東京都",
    "prefecture_kana": "トウキョウト",
    "prefecture_code": 13,
    "city": "港区",
    "city_kana": "ミナトク",
    "town": "麻布台",
    "town_kana": "アザブダイ",
    "street": "２丁目４−９",
    "office_name": "株式会社　商業界",
    "office_name_kana": "カブシキガイシヤ シヨウギヨウカイ"
  },
  "8639": {
    "postcode": "1068639",
    "prefecture": "東京都",
    "prefecture_kana": "トウキョウト",
    "prefecture_code": 13,
    "city": "港区",
    "city_kana": "ミナトク",
    "town": "六本木",
    "town_kana": "ロッポンギ",
    "street": "１−９−１０",
    "office_name": "地方競馬全国協会",
    "office_name_kana": "チホウケイバゼンコクキヨウカイ"
  },
  "8640": {
    "postcode": "1068640",
    "prefecture": "東京都",
    "prefecture_kana": "トウキョウト",
    "prefecture_code": 13,
    "city": "港区",
    "city_kana": "ミナトク",
    "town": "西麻布",
    "town_kana": "ニシアザブ",
    "street": "１丁目２−７",
    "office_name": "株式会社　ケンコーポレーション",
    "office_name_kana": "カブシキガイシヤ ケンコ-ポレ-シヨン"
  },
  "8641": {
    "postcode": "1068641",
    "prefecture": "東京都",
    "prefecture_kana": "トウキョウト",
    "prefecture_code": 13,
    "city": "港区",
    "city_kana": "ミナトク",
    "town": "麻布台",
    "town_kana": "アザブダイ",
    "street": "２丁目４−７",
    "office_name": "株式会社　マツイ",
    "office_name_kana": "カブシキガイシヤ マツイ"
  },
  "8642": {
    "postcode": "1068642",
    "prefecture": "東京都",
    "prefecture_kana": "トウキョウト",
    "prefecture_code": 13,
    "city": "港区",
    "city_kana": "ミナトク",
    "town": "麻布台",
    "town_kana": "アザブダイ",
    "street": "１丁目１１−９",
    "office_name": "ＮＴＴビジュアル通信　株式会社",
    "office_name_kana": "エヌテイテイビジユアルツウシン カブシキガイシヤ"
  },
  "8644": {
    "postcode": "1068644",
    "prefecture": "東京都",
    "prefecture_kana": "トウキョウト",
    "prefecture_code": 13,
    "city": "港区",
    "city_kana": "ミナトク",
    "town": "麻布台",
    "town_kana": "アザブダイ",
    "street": "１丁目７−８",
    "office_name": "霊友会",
    "office_name_kana": "レイユウカイ"
  },
  "8648": {
    "postcode": "1068648",
    "prefecture": "東京都",
    "prefecture_kana": "トウキョウト",
    "prefecture_code": 13,
    "city": "港区",
    "city_kana": "ミナトク",
    "town": "麻布台",
    "town_kana": "アザブダイ",
    "street": "３丁目５−７",
    "office_name": "ピーネット通信　株式会社",
    "office_name_kana": "ピ-ネツトツウシン カブシキガイシヤ"
  },
  "8649": {
    "postcode": "1068649",
    "prefecture": "東京都",
    "prefecture_kana": "トウキョウト",
    "prefecture_code": 13,
    "city": "港区",
    "city_kana": "ミナトク",
    "town": "麻布台",
    "town_kana": "アザブダイ",
    "street": "２丁目１−２",
    "office_name": "社団法人　東京アメリカンクラブ",
    "office_name_kana": "シヤダンホウジン トウキヨウアメリカンクラブ"
  },
  "8652": {
    "postcode": "1068652",
    "prefecture": "東京都",
    "prefecture_kana": "トウキョウト",
    "prefecture_code": 13,
    "city": "港区",
    "city_kana": "ミナトク",
    "town": "東麻布",
    "town_kana": "ヒガシアザブ",
    "street": "１−１０−１０",
    "office_name": "トヨタモビリティパーツ　株式会社　東京・山梨統括支社",
    "office_name_kana": "トヨタモビリテイパ-ツ カブシキガイシヤ トウキヨウ・ヤマナシトウカツシシヤ"
  },
  "8655": {
    "postcode": "1068655",
    "prefecture": "東京都",
    "prefecture_kana": "トウキョウト",
    "prefecture_code": 13,
    "city": "港区",
    "city_kana": "ミナトク",
    "town": "東麻布",
    "town_kana": "ヒガシアザブ",
    "street": "２丁目３−４",
    "office_name": "株式会社　東機貿",
    "office_name_kana": "カブシキガイシヤ トウキボウ"
  },
  "8665": {
    "postcode": "1068665",
    "prefecture": "東京都",
    "prefecture_kana": "トウキョウト",
    "prefecture_code": 13,
    "city": "港区",
    "city_kana": "ミナトク",
    "town": "元麻布",
    "town_kana": "モトアザブ",
    "street": "２丁目１−２０−２Ｆ",
    "office_name": "有限会社　エリカインターナショナル",
    "office_name_kana": "ユウゲンガイシヤ エリカインタ-ナシヨナル"
  },
  "8668": {
    "postcode": "1068668",
    "prefecture": "東京都",
    "prefecture_kana": "トウキョウト",
    "prefecture_code": 13,
    "city": "港区",
    "city_kana": "ミナトク",
    "town": "西麻布",
    "town_kana": "ニシアザブ",
    "street": "３丁目８−１",
    "office_name": "チューブ・ライダース",
    "office_name_kana": "チユ-ブ・ライダ-ス"
  },
  "8677": {
    "postcode": "1068677",
    "prefecture": "東京都",
    "prefecture_kana": "トウキョウト",
    "prefecture_code": 13,
    "city": "港区",
    "city_kana": "ミナトク",
    "town": "六本木",
    "town_kana": "ロッポンギ",
    "street": "７丁目２２−１",
    "office_name": "政策研究大学院大学",
    "office_name_kana": "セイサクケンキユウダイガクインダイガク"
  },
  "8797": {
    "postcode": "1068797",
    "prefecture": "東京都",
    "prefecture_kana": "トウキョウト",
    "prefecture_code": 13,
    "city": "港区",
    "city_kana": "ミナトク",
    "town": "麻布台",
    "town_kana": "アザブダイ",
    "street": "１丁目６−１９",
    "office_name": "株式会社　かんぽ生命　麻布支店",
    "office_name_kana": "カブシキガイシヤ カンポセイメイ アザブシテン"
  }
}