{
  "0000": {
    "postcode": "1200000",
    "prefecture": "東京都",
    "prefecture_kana": "トウキョウト",
    "prefecture_code": 13,
    "city": "足立区",
    "city_kana": "アダチク",
    "town": "",
    "town_kana": "",
    "street": null,
    "office_name": null,
    "office_name_kana": null
  },
  "0001": {
    "postcode": "1200001",
    "prefecture": "東京都",
    "prefecture_kana": "トウキョウト",
    "prefecture_code": 13,
    "city": "足立区",
    "city_kana": "アダチク",
    "town": "大谷田",
    "town_kana": "オオヤタ",
    "street": null,
    "office_name": null,
    "office_name_kana": null
  },
  "0002": {
    "postcode": "1200002",
    "prefecture": "東京都",
    "prefecture_kana": "トウキョウト",
    "prefecture_code": 13,
    "city": "足立区",
    "city_kana": "アダチク",
    "town": "中川",
    "town_kana": "ナカガワ",
    "street": null,
    "office_name": null,
    "office_name_kana": null
  },
  "0003": {
    "postcode": "1200003",
    "prefecture": "東京都",
    "prefecture_kana": "トウキョウト",
    "prefecture_code": 13,
    "city": "足立区",
    "city_kana": "アダチク",
    "town": "東和",
    "town_kana": "トウワ",
    "street": null,
    "office_name": null,
    "office_name_kana": null
  },
  "0004": {
    "postcode": "1200004",
    "prefecture": "東京都",
    "prefecture_kana": "トウキョウト",
    "prefecture_code": 13,
    "city": "足立区",
    "city_kana": "アダチク",
    "town": "東綾瀬",
    "town_kana": "ヒガシアヤセ",
    "street": null,
    "office_name": null,
    "office_name_kana": null
  },
  "0005": {
    "postcode": "1200005",
    "prefecture": "東京都",
    "prefecture_kana": "トウキョウト",
    "prefecture_code": 13,
    "city": "足立区",
    "city_kana": "アダチク",
    "town": "綾瀬",
    "town_kana": "アヤセ",
    "street": null,
    "office_name": null,
    "office_name_kana": null
  },
  "0006": {
    "postcode": "1200006",
    "prefecture": "東京都",
    "prefecture_kana": "トウキョウト",
    "prefecture_code": 13,
    "city": "足立区",
    "city_kana": "アダチク",
    "town": "谷中",
    "town_kana": "ヤナカ",
    "street": null,
    "office_name": null,
    "office_name_kana": null
  },
  "0011": {
    "postcode": "1200011",
    "prefecture": "東京都",
    "prefecture_kana": "トウキョウト",
    "prefecture_code": 13,
    "city": "足立区",
    "city_kana": "アダチク",
    "town": "中央本町",
    "town_kana": "チュウオウホンチョウ",
    "street": null,
    "office_name": null,
    "office_name_kana": null
  },
  "0012": {
    "postcode": "1200012",
    "prefecture": "東京都",
    "prefecture_kana": "トウキョウト",
    "prefecture_code": 13,
    "city": "足立区",
    "city_kana": "アダチク",
    "town": "青井",
    "town_kana": "アオイ",
    "street": null,
    "office_name": null,
    "office_name_kana": null
  },
  "0013": {
    "postcode": "1200013",
    "prefecture": "東京都",
    "prefecture_kana": "トウキョウト",
    "prefecture_code": 13,
    "city": "足立区",
    "city_kana": "アダチク",
    "town": "弘道",
    "town_kana": "コウドウ",
    "street": null,
    "office_name": null,
    "office_name_kana": null
  },
  "0014": {
    "postcode": "1200014",
    "prefecture": "東京都",
    "prefecture_kana": "トウキョウト",
    "prefecture_code": 13,
    "city": "足立区",
    "city_kana": "アダチク",
    "town": "西綾瀬",
    "town_kana": "ニシアヤセ",
    "street": null,
    "office_name": null,
    "office_name_kana": null
  },
  "0015": {
    "postcode": "1200015",
    "prefecture": "東京都",
    "prefecture_kana": "トウキョウト",
    "prefecture_code": 13,
    "city": "足立区",
    "city_kana": "アダチク",
    "town": "足立",
    "town_kana": "アダチ",
    "street": null,
    "office_name": null,
    "office_name_kana": null
  },
  "0021": {
    "postcode": "1200021",
    "prefecture": "東京都",
    "prefecture_kana": "トウキョウト",
    "prefecture_code": 13,
    "city": "足立区",
    "city_kana": "アダチク",
    "town": "日ノ出町",
    "town_kana": "ヒノデチョウ",
    "street": null,
    "office_name": null,
    "office_name_kana": null
  },
  "0022": {
    "postcode": "1200022",
    "prefecture": "東京都",
    "prefecture_kana": "トウキョウト",
    "prefecture_code": 13,
    "city": "足立区",
    "city_kana": "アダチク",
    "town": "柳原",
    "town_kana": "ヤナギハラ",
    "street": null,
    "office_name": null,
    "office_name_kana": null
  },
  "0023": {
    "postcode": "1200023",
    "prefecture": "東京都",
    "prefecture_kana": "トウキョウト",
    "prefecture_code": 13,
    "city": "足立区",
    "city_kana": "アダチク",
    "town": "千住曙町",
    "town_kana": "センジュアケボノチョウ",
    "street": null,
    "office_name": null,
    "office_name_kana": null
  },
  "0024": {
    "postcode": "1200024",
    "prefecture": "東京都",
    "prefecture_kana": "トウキョウト",
    "prefecture_code": 13,
    "city": "足立区",
    "city_kana": "アダチク",
    "town": "千住関屋町",
    "town_kana": "センジュセキヤチョウ",
    "street": null,
    "office_name": null,
    "office_name_kana": null
  },
  "0025": {
    "postcode": "1200025",
    "prefecture": "東京都",
    "prefecture_kana": "トウキョウト",
    "prefecture_code": 13,
    "city": "足立区",
    "city_kana": "アダチク",
    "town": "千住東",
    "town_kana": "センジュアズマ",
    "street": null,
    "office_name": null,
    "office_name_kana": null
  },
  "0026": {
    "postcode": "1200026",
    "prefecture": "東京都",
    "prefecture_kana": "トウキョウト",
    "prefecture_code": 13,
    "city": "足立区",
    "city_kana": "アダチク",
    "town": "千住旭町",
    "town_kana": "センジュアサヒチョウ",
    "street": null,
    "office_name": null,
    "office_name_kana": null
  },
  "0031": {
    "postcode": "1200031",
    "prefecture": "東京都",
    "prefecture_kana": "トウキョウト",
    "prefecture_code": 13,
    "city": "足立区",
    "city_kana": "アダチク",
    "town": "千住大川町",
    "town_kana": "センジュオオカワチョウ",
    "street": null,
    "office_name": null,
    "office_name_kana": null
  },
  "0032": {
    "postcode": "1200032",
    "prefecture": "東京都",
    "prefecture_kana": "トウキョウト",
    "prefecture_code": 13,
    "city": "足立区",
    "city_kana": "アダチク",
    "town": "千住柳町",
    "town_kana": "センジュヤナギチョウ",
    "street": null,
    "office_name": null,
    "office_name_kana": null
  },
  "0033": {
    "postcode": "1200033",
    "prefecture": "東京都",
    "prefecture_kana": "トウキョウト",
    "prefecture_code": 13,
    "city": "足立区",
    "city_kana": "アダチク",
    "town": "千住寿町",
    "town_kana": "センジュコトブキチョウ",
    "street": null,
    "office_name": null,
    "office_name_kana": null
  },
  "0034": {
    "postcode": "1200034",
    "prefecture": "東京都",
    "prefecture_kana": "トウキョウト",
    "prefecture_code": 13,
    "city": "足立区",
    "city_kana": "アダチク",
    "town": "千住",
    "town_kana": "センジュ",
    "street": null,
    "office_name": null,
    "office_name_kana": null
  },
  "0035": {
    "postcode": "1200035",
    "prefecture": "東京都",
    "prefecture_kana": "トウキョウト",
    "prefecture_code": 13,
    "city": "足立区",
    "city_kana": "アダチク",
    "town": "千住中居町",
    "town_kana": "センジュナカイチョウ",
    "street": null,
    "office_name": null,
    "office_name_kana": null
  },
  "0036": {
    "postcode": "1200036",
    "prefecture": "東京都",
    "prefecture_kana": "トウキョウト",
    "prefecture_code": 13,
    "city": "足立区",
    "city_kana": "アダチク",
    "town": "千住仲町",
    "town_kana": "センジュナカチョウ",
    "street": null,
    "office_name": null,
    "office_name_kana": null
  },
  "0037": {
    "postcode": "1200037",
    "prefecture": "東京都",
    "prefecture_kana": "トウキョウト",
    "prefecture_code": 13,
    "city": "足立区",
    "city_kana": "アダチク",
    "town": "千住河原町",
    "town_kana": "センジュカワラチョウ",
    "street": null,
    "office_name": null,
    "office_name_kana": null
  },
  "0038": {
    "postcode": "1200038",
    "prefecture": "東京都",
    "prefecture_kana": "トウキョウト",
    "prefecture_code": 13,
    "city": "足立区",
    "city_kana": "アダチク",
    "town": "千住橋戸町",
    "town_kana": "センジュハシドチョウ",
    "street": null,
    "office_name": null,
    "office_name_kana": null
  },
  "0041": {
    "postcode": "1200041",
    "prefecture": "東京都",
    "prefecture_kana": "トウキョウト",
    "prefecture_code": 13,
    "city": "足立区",
    "city_kana": "アダチク",
    "town": "千住元町",
    "town_kana": "センジュモトマチ",
    "street": null,
    "office_name": null,
    "office_name_kana": null
  },
  "0042": {
    "postcode": "1200042",
    "prefecture": "東京都",
    "prefecture_kana": "トウキョウト",
    "prefecture_code": 13,
    "city": "足立区",
    "city_kana": "アダチク",
    "town": "千住龍田町",
    "town_kana": "センジュタツタチョウ",
    "street": null,
    "office_name": null,
    "office_name_kana": null
  },
  "0043": {
    "postcode": "1200043",
    "prefecture": "東京都",
    "prefecture_kana": "トウキョウト",
    "prefecture_code": 13,
    "city": "足立区",
    "city_kana": "アダチク",
    "town": "千住宮元町",
    "town_kana": "センジュミヤモトチョウ",
    "street": null,
    "office_name": null,
    "office_name_kana": null
  },
  "0044": {
    "postcode": "1200044",
    "prefecture": "東京都",
    "prefecture_kana": "トウキョウト",
    "prefecture_code": 13,
    "city": "足立区",
    "city_kana": "アダチク",
    "town": "千住緑町",
    "town_kana": "センジュミドリチョウ",
    "street": null,
    "office_name": null,
    "office_name_kana": null
  },
  "0045": {
    "postcode": "1200045",
    "prefecture": "東京都",
    "prefecture_kana": "トウキョウト",
    "prefecture_code": 13,
    "city": "足立区",
    "city_kana": "アダチク",
    "town": "千住桜木",
    "town_kana": "センジュサクラギ",
    "street": null,
    "office_name": null,
    "office_name_kana": null
  },
  "0046": {
    "postcode": "1200046",
    "prefecture": "東京都",
    "prefecture_kana": "トウキョウト",
    "prefecture_code": 13,
    "city": "足立区",
    "city_kana": "アダチク",
    "town": "小台",
    "town_kana": "オダイ",
    "street": null,
    "office_name": null,
    "office_name_kana": null
  },
  "0047": {
    "postcode": "1200047",
    "prefecture": "東京都",
    "prefecture_kana": "トウキョウト",
    "prefecture_code": 13,
    "city": "足立区",
    "city_kana": "アダチク",
    "town": "宮城",
    "town_kana": "ミヤギ",
    "street": null,
    "office_name": null,
    "office_name_kana": null
  },
  "8501": {
    "postcode": "1208501",
    "prefecture": "東京都",
    "prefecture_kana": "トウキョウト",
    "prefecture_code": 13,
    "city": "足立区",
    "city_kana": "アダチク",
    "town": "千住",
    "town_kana": "センジュ",
    "street": "３丁目９２",
    "office_name": "（株）　丸井　北千住店",
    "office_name_kana": "(カブ) マルイ キタセンジユテン"
  },
  "8507": {
    "postcode": "1208507",
    "prefecture": "東京都",
    "prefecture_kana": "トウキョウト",
    "prefecture_code": 13,
    "city": "足立区",
    "city_kana": "アダチク",
    "town": "千住桜木",
    "town_kana": "センジュサクラギ",
    "street": "１丁目１１−９",
    "office_name": "東京電力　株式会社　東京支店上野支社足立営業センター",
    "office_name_kana": "トウキヨウデンリヨク カブシキガイシヤ トウキヨウシテンウエノシシヤアダチエイギヨウセンタ-"
  },
  "8510": {
    "postcode": "1208510",
    "prefecture": "東京都",
    "prefecture_kana": "トウキョウト",
    "prefecture_code": 13,
    "city": "足立区",
    "city_kana": "アダチク",
    "town": "中央本町",
    "town_kana": "チュウオウホンチョウ",
    "street": "１丁目１７−１",
    "office_name": "足立区役所",
    "office_name_kana": "アダチクヤクシヨ"
  },
  "8512": {
    "postcode": "1208512",
    "prefecture": "東京都",
    "prefecture_kana": "トウキョウト",
    "prefecture_code": 13,
    "city": "足立区",
    "city_kana": "アダチク",
    "town": "中央本町",
    "town_kana": "チュウオウホンチョウ",
    "street": "１丁目１７−１",
    "office_name": "足立区役所　区民部　戸籍住民課",
    "office_name_kana": "アダチクヤクシヨ クミンブ コセキジユウミンカ"
  },
  "8520": {
    "postcode": "1208520",
    "prefecture": "東京都",
    "prefecture_kana": "トウキョウト",
    "prefecture_code": 13,
    "city": "足立区",
    "city_kana": "アダチク",
    "town": "千住旭町",
    "town_kana": "センジュアサヒチョウ",
    "street": "４−２１",
    "office_name": "足立税務署",
    "office_name_kana": "アダチゼイムシヨ"
  },
  "8526": {
    "postcode": "1208526",
    "prefecture": "東京都",
    "prefecture_kana": "トウキョウト",
    "prefecture_code": 13,
    "city": "足立区",
    "city_kana": "アダチク",
    "town": "小台",
    "town_kana": "オダイ",
    "street": "１−３−１",
    "office_name": "株式会社　タジマ",
    "office_name_kana": "カブシキガイシヤ タジマ"
  },
  "8528": {
    "postcode": "1208528",
    "prefecture": "東京都",
    "prefecture_kana": "トウキョウト",
    "prefecture_code": 13,
    "city": "足立区",
    "city_kana": "アダチク",
    "town": "小台",
    "town_kana": "オダイ",
    "street": "２丁目１番３１号",
    "office_name": "東京都立小台橋高等学校",
    "office_name_kana": "トウキヨウトリツオダイバシコウトウガツコウ"
  },
  "8530": {
    "postcode": "1208530",
    "prefecture": "東京都",
    "prefecture_kana": "トウキョウト",
    "prefecture_code": 13,
    "city": "足立区",
    "city_kana": "アダチク",
    "town": "千住",
    "town_kana": "センジュ",
    "street": "１−４−１東京芸術センター６〜８階",
    "office_name": "足立公共職業安定所",
    "office_name_kana": "アダチコウキヨウシヨクギヨウアンテイシヨ"
  },
  "8534": {
    "postcode": "1208534",
    "prefecture": "東京都",
    "prefecture_kana": "トウキョウト",
    "prefecture_code": 13,
    "city": "足立区",
    "city_kana": "アダチク",
    "town": "千住東",
    "town_kana": "センジュアズマ",
    "street": "１−３０−１",
    "office_name": "一般財団法人　海外産業人材育成協会",
    "office_name_kana": "イツパンザイダンホウジン カイガイサンギヨウジンザイイクセイキヨウカイ"
  },
  "8536": {
    "postcode": "1208536",
    "prefecture": "東京都",
    "prefecture_kana": "トウキョウト",
    "prefecture_code": 13,
    "city": "足立区",
    "city_kana": "アダチク",
    "town": "千住関屋町",
    "town_kana": "センジュセキヤチョウ",
    "street": "８−１２",
    "office_name": "株式会社　吉安本店",
    "office_name_kana": "カブシキガイシヤ ヨシヤスホンテン"
  },
  "8539": {
    "postcode": "1208539",
    "prefecture": "東京都",
    "prefecture_kana": "トウキョウト",
    "prefecture_code": 13,
    "city": "足立区",
    "city_kana": "アダチク",
    "town": "千住宮元町",
    "town_kana": "センジュミヤモトチョウ",
    "street": "１−１２",
    "office_name": "協和機工　株式会社",
    "office_name_kana": "キヨウワキコウ カブシキガイシヤ"
  },
  "8544": {
    "postcode": "1208544",
    "prefecture": "東京都",
    "prefecture_kana": "トウキョウト",
    "prefecture_code": 13,
    "city": "足立区",
    "city_kana": "アダチク",
    "town": "千住中居町",
    "town_kana": "センジュナカイチョウ",
    "street": "１７番２０号",
    "office_name": "株式会社　丸愛",
    "office_name_kana": "カブシキガイシヤ マルアイ"
  },
  "8550": {
    "postcode": "1208550",
    "prefecture": "東京都",
    "prefecture_kana": "トウキョウト",
    "prefecture_code": 13,
    "city": "足立区",
    "city_kana": "アダチク",
    "town": "千住橋戸町",
    "town_kana": "センジュハシドチョウ",
    "street": "５０",
    "office_name": "東京千住魚市場卸協同組合",
    "office_name_kana": "トウキヨウセンジユウオイチバオロシキヨウドウクミアイ"
  },
  "8551": {
    "postcode": "1208551",
    "prefecture": "東京都",
    "prefecture_kana": "トウキョウト",
    "prefecture_code": 13,
    "city": "足立区",
    "city_kana": "アダチク",
    "town": "千住旭町",
    "town_kana": "センジュアサヒチョウ",
    "street": "５番",
    "office_name": "学校法人　東京電機大学",
    "office_name_kana": "ガツコウホウジン トウキヨウデンキダイガク"
  },
  "8554": {
    "postcode": "1208554",
    "prefecture": "東京都",
    "prefecture_kana": "トウキョウト",
    "prefecture_code": 13,
    "city": "足立区",
    "city_kana": "アダチク",
    "town": "千住旭町",
    "town_kana": "センジュアサヒチョウ",
    "street": "４２番２号",
    "office_name": "株式会社　ルミネ　北千住店",
    "office_name_kana": "カブシキガイシヤ ルミネ キタセンジユテン"
  },
  "8555": {
    "postcode": "1208555",
    "prefecture": "東京都",
    "prefecture_kana": "トウキョウト",
    "prefecture_code": 13,
    "city": "足立区",
    "city_kana": "アダチク",
    "town": "千住橋戸町",
    "town_kana": "センジュハシドチョウ",
    "street": "２３",
    "office_name": "千住金属工業　株式会社",
    "office_name_kana": "センジユキンゾクコウギヨウ カブシキガイシヤ"
  },
  "8556": {
    "postcode": "1208556",
    "prefecture": "東京都",
    "prefecture_kana": "トウキョウト",
    "prefecture_code": 13,
    "city": "足立区",
    "city_kana": "アダチク",
    "town": "千住橋戸町",
    "town_kana": "センジュハシドチョウ",
    "street": "５０",
    "office_name": "大都魚類　株式会社　千住支社",
    "office_name_kana": "ダイトギヨルイ カブシキガイシヤ センジユシシヤ"
  },
  "8558": {
    "postcode": "1208558",
    "prefecture": "東京都",
    "prefecture_kana": "トウキョウト",
    "prefecture_code": 13,
    "city": "足立区",
    "city_kana": "アダチク",
    "town": "千住橋戸町",
    "town_kana": "センジュハシドチョウ",
    "street": "５０",
    "office_name": "東京北魚　株式会社",
    "office_name_kana": "トウキヨウキタウオ カブシキガイシヤ"
  },
  "8570": {
    "postcode": "1208570",
    "prefecture": "東京都",
    "prefecture_kana": "トウキョウト",
    "prefecture_code": 13,
    "city": "足立区",
    "city_kana": "アダチク",
    "town": "千住仲町",
    "town_kana": "センジュナカチョウ",
    "street": "１９−８",
    "office_name": "太陽生命保険　相互会社　千住支社",
    "office_name_kana": "タイヨウセイメイホケン ソウゴガイシヤ センジユシシヤ"
  },
  "8575": {
    "postcode": "1208575",
    "prefecture": "東京都",
    "prefecture_kana": "トウキョウト",
    "prefecture_code": 13,
    "city": "足立区",
    "city_kana": "アダチク",
    "town": "千住",
    "town_kana": "センジュ",
    "street": "１−５−７あだち産業センター２Ｆ",
    "office_name": "公益財団法人　足立区勤労福祉サービスセンター",
    "office_name_kana": "コウエキザイダンホウジン アダチクキンロウフクシサ-ビスセンタ-"
  },
  "8581": {
    "postcode": "1208581",
    "prefecture": "東京都",
    "prefecture_kana": "トウキョウト",
    "prefecture_code": 13,
    "city": "足立区",
    "city_kana": "アダチク",
    "town": "西綾瀬",
    "town_kana": "ニシアヤセ",
    "street": "２丁目２３−２２",
    "office_name": "株式会社　江戸一",
    "office_name_kana": "カブシキガイシヤ エドイチ"
  },
  "8601": {
    "postcode": "1208601",
    "prefecture": "東京都",
    "prefecture_kana": "トウキョウト",
    "prefecture_code": 13,
    "city": "足立区",
    "city_kana": "アダチク",
    "town": "千住緑町",
    "town_kana": "センジュミドリチョウ",
    "street": "１丁目１−１（足立郵便局私書箱第３号）",
    "office_name": "株式会社　ニッピ",
    "office_name_kana": "カブシキガイシヤ ニツピ"
  },
  "8602": {
    "postcode": "1208602",
    "prefecture": "東京都",
    "prefecture_kana": "トウキョウト",
    "prefecture_code": 13,
    "city": "足立区",
    "city_kana": "アダチク",
    "town": "千住緑町",
    "town_kana": "センジュミドリチョウ",
    "street": "１丁目１−１（足立郵便局私書箱第３号）",
    "office_name": "株式会社　ニッピコラーゲン化粧品",
    "office_name_kana": "カブシキガイシヤ ニツピコラ-ゲンケシヨウヒン"
  }
}