{
  "0011": {
    "postcode": "1210011",
    "prefecture": "東京都",
    "prefecture_kana": "トウキョウト",
    "prefecture_code": 13,
    "city": "足立区",
    "city_kana": "アダチク",
    "town": "中央本町",
    "town_kana": "チュウオウホンチョウ",
    "street": null,
    "office_name": null,
    "office_name_kana": null
  },
  "0012": {
    "postcode": "1210012",
    "prefecture": "東京都",
    "prefecture_kana": "トウキョウト",
    "prefecture_code": 13,
    "city": "足立区",
    "city_kana": "アダチク",
    "town": "青井",
    "town_kana": "アオイ",
    "street": null,
    "office_name": null,
    "office_name_kana": null
  },
  "0051": {
    "postcode": "1210051",
    "prefecture": "東京都",
    "prefecture_kana": "トウキョウト",
    "prefecture_code": 13,
    "city": "足立区",
    "city_kana": "アダチク",
    "town": "神明",
    "town_kana": "シンメイ",
    "street": null,
    "office_name": null,
    "office_name_kana": null
  },
  "0052": {
    "postcode": "1210052",
    "prefecture": "東京都",
    "prefecture_kana": "トウキョウト",
    "prefecture_code": 13,
    "city": "足立区",
    "city_kana": "アダチク",
    "town": "六木",
    "town_kana": "ムツギ",
    "street": null,
    "office_name": null,
    "office_name_kana": null
  },
  "0053": {
    "postcode": "1210053",
    "prefecture": "東京都",
    "prefecture_kana": "トウキョウト",
    "prefecture_code": 13,
    "city": "足立区",
    "city_kana": "アダチク",
    "town": "佐野",
    "town_kana": "サノ",
    "street": null,
    "office_name": null,
    "office_name_kana": null
  },
  "0054": {
    "postcode": "1210054",
    "prefecture": "東京都",
    "prefecture_kana": "トウキョウト",
    "prefecture_code": 13,
    "city": "足立区",
    "city_kana": "アダチク",
    "town": "辰沼",
    "town_kana": "タツヌマ",
    "street": null,
    "office_name": null,
    "office_name_kana": null
  },
  "0055": {
    "postcode": "1210055",
    "prefecture": "東京都",
    "prefecture_kana": "トウキョウト",
    "prefecture_code": 13,
    "city": "足立区",
    "city_kana": "アダチク",
    "town": "加平",
    "town_kana": "カヘイ",
    "street": null,
    "office_name": null,
    "office_name_kana": null
  },
  "0056": {
    "postcode": "1210056",
    "prefecture": "東京都",
    "prefecture_kana": "トウキョウト",
    "prefecture_code": 13,
    "city": "足立区",
    "city_kana": "アダチク",
    "town": "北加平町",
    "town_kana": "キタカヘイチョウ",
    "street": null,
    "office_name": null,
    "office_name_kana": null
  },
  "0057": {
    "postcode": "1210057",
    "prefecture": "東京都",
    "prefecture_kana": "トウキョウト",
    "prefecture_code": 13,
    "city": "足立区",
    "city_kana": "アダチク",
    "town": "神明南",
    "town_kana": "シンメイミナミ",
    "street": null,
    "office_name": null,
    "office_name_kana": null
  },
  "0061": {
    "postcode": "1210061",
    "prefecture": "東京都",
    "prefecture_kana": "トウキョウト",
    "prefecture_code": 13,
    "city": "足立区",
    "city_kana": "アダチク",
    "town": "花畑",
    "town_kana": "ハナハタ",
    "street": null,
    "office_name": null,
    "office_name_kana": null
  },
  "0062": {
    "postcode": "1210062",
    "prefecture": "東京都",
    "prefecture_kana": "トウキョウト",
    "prefecture_code": 13,
    "city": "足立区",
    "city_kana": "アダチク",
    "town": "南花畑",
    "town_kana": "ミナミハナハタ",
    "street": null,
    "office_name": null,
    "office_name_kana": null
  },
  "0063": {
    "postcode": "1210063",
    "prefecture": "東京都",
    "prefecture_kana": "トウキョウト",
    "prefecture_code": 13,
    "city": "足立区",
    "city_kana": "アダチク",
    "town": "東保木間",
    "town_kana": "ヒガシホキマ",
    "street": null,
    "office_name": null,
    "office_name_kana": null
  },
  "0064": {
    "postcode": "1210064",
    "prefecture": "東京都",
    "prefecture_kana": "トウキョウト",
    "prefecture_code": 13,
    "city": "足立区",
    "city_kana": "アダチク",
    "town": "保木間",
    "town_kana": "ホキマ",
    "street": null,
    "office_name": null,
    "office_name_kana": null
  },
  "0071": {
    "postcode": "1210071",
    "prefecture": "東京都",
    "prefecture_kana": "トウキョウト",
    "prefecture_code": 13,
    "city": "足立区",
    "city_kana": "アダチク",
    "town": "東六月町",
    "town_kana": "ヒガシロクガツチョウ",
    "street": null,
    "office_name": null,
    "office_name_kana": null
  },
  "0072": {
    "postcode": "1210072",
    "prefecture": "東京都",
    "prefecture_kana": "トウキョウト",
    "prefecture_code": 13,
    "city": "足立区",
    "city_kana": "アダチク",
    "town": "保塚町",
    "town_kana": "ホヅカチョウ",
    "street": null,
    "office_name": null,
    "office_name_kana": null
  },
  "0073": {
    "postcode": "1210073",
    "prefecture": "東京都",
    "prefecture_kana": "トウキョウト",
    "prefecture_code": 13,
    "city": "足立区",
    "city_kana": "アダチク",
    "town": "六町",
    "town_kana": "ロクチョウ",
    "street": null,
    "office_name": null,
    "office_name_kana": null
  },
  "0074": {
    "postcode": "1210074",
    "prefecture": "東京都",
    "prefecture_kana": "トウキョウト",
    "prefecture_code": 13,
    "city": "足立区",
    "city_kana": "アダチク",
    "town": "西加平",
    "town_kana": "ニシカヘイ",
    "street": null,
    "office_name": null,
    "office_name_kana": null
  },
  "0075": {
    "postcode": "1210075",
    "prefecture": "東京都",
    "prefecture_kana": "トウキョウト",
    "prefecture_code": 13,
    "city": "足立区",
    "city_kana": "アダチク",
    "town": "一ツ家",
    "town_kana": "ヒトツヤ",
    "street": null,
    "office_name": null,
    "office_name_kana": null
  },
  "0076": {
    "postcode": "1210076",
    "prefecture": "東京都",
    "prefecture_kana": "トウキョウト",
    "prefecture_code": 13,
    "city": "足立区",
    "city_kana": "アダチク",
    "town": "平野",
    "town_kana": "ヒラノ",
    "street": null,
    "office_name": null,
    "office_name_kana": null
  },
  "0801": {
    "postcode": "1210801",
    "prefecture": "東京都",
    "prefecture_kana": "トウキョウト",
    "prefecture_code": 13,
    "city": "足立区",
    "city_kana": "アダチク",
    "town": "東伊興",
    "town_kana": "ヒガシイコウ",
    "street": null,
    "office_name": null,
    "office_name_kana": null
  },
  "0807": {
    "postcode": "1210807",
    "prefecture": "東京都",
    "prefecture_kana": "トウキョウト",
    "prefecture_code": 13,
    "city": "足立区",
    "city_kana": "アダチク",
    "town": "伊興本町",
    "town_kana": "イコウホンチョウ",
    "street": null,
    "office_name": null,
    "office_name_kana": null
  },
  "0812": {
    "postcode": "1210812",
    "prefecture": "東京都",
    "prefecture_kana": "トウキョウト",
    "prefecture_code": 13,
    "city": "足立区",
    "city_kana": "アダチク",
    "town": "西保木間",
    "town_kana": "ニシホキマ",
    "street": null,
    "office_name": null,
    "office_name_kana": null
  },
  "0813": {
    "postcode": "1210813",
    "prefecture": "東京都",
    "prefecture_kana": "トウキョウト",
    "prefecture_code": 13,
    "city": "足立区",
    "city_kana": "アダチク",
    "town": "竹の塚",
    "town_kana": "タケノツカ",
    "street": null,
    "office_name": null,
    "office_name_kana": null
  },
  "0814": {
    "postcode": "1210814",
    "prefecture": "東京都",
    "prefecture_kana": "トウキョウト",
    "prefecture_code": 13,
    "city": "足立区",
    "city_kana": "アダチク",
    "town": "六月",
    "town_kana": "ロクガツ",
    "street": null,
    "office_name": null,
    "office_name_kana": null
  },
  "0815": {
    "postcode": "1210815",
    "prefecture": "東京都",
    "prefecture_kana": "トウキョウト",
    "prefecture_code": 13,
    "city": "足立区",
    "city_kana": "アダチク",
    "town": "島根",
    "town_kana": "シマネ",
    "street": null,
    "office_name": null,
    "office_name_kana": null
  },
  "0816": {
    "postcode": "1210816",
    "prefecture": "東京都",
    "prefecture_kana": "トウキョウト",
    "prefecture_code": 13,
    "city": "足立区",
    "city_kana": "アダチク",
    "town": "梅島",
    "town_kana": "ウメジマ",
    "street": null,
    "office_name": null,
    "office_name_kana": null
  },
  "0822": {
    "postcode": "1210822",
    "prefecture": "東京都",
    "prefecture_kana": "トウキョウト",
    "prefecture_code": 13,
    "city": "足立区",
    "city_kana": "アダチク",
    "town": "西竹の塚",
    "town_kana": "ニシタケノツカ",
    "street": null,
    "office_name": null,
    "office_name_kana": null
  },
  "0823": {
    "postcode": "1210823",
    "prefecture": "東京都",
    "prefecture_kana": "トウキョウト",
    "prefecture_code": 13,
    "city": "足立区",
    "city_kana": "アダチク",
    "town": "伊興",
    "town_kana": "イコウ",
    "street": null,
    "office_name": null,
    "office_name_kana": null
  },
  "0824": {
    "postcode": "1210824",
    "prefecture": "東京都",
    "prefecture_kana": "トウキョウト",
    "prefecture_code": 13,
    "city": "足立区",
    "city_kana": "アダチク",
    "town": "西伊興",
    "town_kana": "ニシイコウ",
    "street": null,
    "office_name": null,
    "office_name_kana": null
  },
  "0825": {
    "postcode": "1210825",
    "prefecture": "東京都",
    "prefecture_kana": "トウキョウト",
    "prefecture_code": 13,
    "city": "足立区",
    "city_kana": "アダチク",
    "town": "西伊興町",
    "town_kana": "ニシイコウチョウ",
    "street": null,
    "office_name": null,
    "office_name_kana": null
  },
  "0831": {
    "postcode": "1210831",
    "prefecture": "東京都",
    "prefecture_kana": "トウキョウト",
    "prefecture_code": 13,
    "city": "足立区",
    "city_kana": "アダチク",
    "town": "舎人",
    "town_kana": "トネリ",
    "street": null,
    "office_name": null,
    "office_name_kana": null
  },
  "0832": {
    "postcode": "1210832",
    "prefecture": "東京都",
    "prefecture_kana": "トウキョウト",
    "prefecture_code": 13,
    "city": "足立区",
    "city_kana": "アダチク",
    "town": "古千谷本町",
    "town_kana": "コヂヤホンチョウ",
    "street": null,
    "office_name": null,
    "office_name_kana": null
  },
  "0833": {
    "postcode": "1210833",
    "prefecture": "東京都",
    "prefecture_kana": "トウキョウト",
    "prefecture_code": 13,
    "city": "足立区",
    "city_kana": "アダチク",
    "town": "古千谷",
    "town_kana": "コヂヤ",
    "street": null,
    "office_name": null,
    "office_name_kana": null
  },
  "0834": {
    "postcode": "1210834",
    "prefecture": "東京都",
    "prefecture_kana": "トウキョウト",
    "prefecture_code": 13,
    "city": "足立区",
    "city_kana": "アダチク",
    "town": "入谷町",
    "town_kana": "イリヤマチ",
    "street": null,
    "office_name": null,
    "office_name_kana": null
  },
  "0835": {
    "postcode": "1210835",
    "prefecture": "東京都",
    "prefecture_kana": "トウキョウト",
    "prefecture_code": 13,
    "city": "足立区",
    "city_kana": "アダチク",
    "town": "舎人町",
    "town_kana": "トネリマチ",
    "street": null,
    "office_name": null,
    "office_name_kana": null
  },
  "0836": {
    "postcode": "1210836",
    "prefecture": "東京都",
    "prefecture_kana": "トウキョウト",
    "prefecture_code": 13,
    "city": "足立区",
    "city_kana": "アダチク",
    "town": "入谷",
    "town_kana": "イリヤ",
    "street": null,
    "office_name": null,
    "office_name_kana": null
  },
  "0837": {
    "postcode": "1210837",
    "prefecture": "東京都",
    "prefecture_kana": "トウキョウト",
    "prefecture_code": 13,
    "city": "足立区",
    "city_kana": "アダチク",
    "town": "舎人公園",
    "town_kana": "トネリコウエン",
    "street": null,
    "office_name": null,
    "office_name_kana": null
  },
  "8080": {
    "postcode": "1218080",
    "prefecture": "東京都",
    "prefecture_kana": "トウキョウト",
    "prefecture_code": 13,
    "city": "足立区",
    "city_kana": "アダチク",
    "town": "西竹の塚",
    "town_kana": "ニシタケノツカ",
    "street": "１丁目７−５",
    "office_name": "株式会社　トップアート",
    "office_name_kana": "カブシキガイシヤ トツプア-ト"
  },
  "8504": {
    "postcode": "1218504",
    "prefecture": "東京都",
    "prefecture_kana": "トウキョウト",
    "prefecture_code": 13,
    "city": "足立区",
    "city_kana": "アダチク",
    "town": "島根",
    "town_kana": "シマネ",
    "street": "１丁目２番３号杉本グループ本社ビル",
    "office_name": "杉本興業　株式会社",
    "office_name_kana": "スギモトコウギヨウ カブシキガイシヤ"
  },
  "8505": {
    "postcode": "1218505",
    "prefecture": "東京都",
    "prefecture_kana": "トウキョウト",
    "prefecture_code": 13,
    "city": "足立区",
    "city_kana": "アダチク",
    "town": "六木",
    "town_kana": "ムツギ",
    "street": "１丁目１９−１３",
    "office_name": "日東燃料工業　（株）",
    "office_name_kana": "ニツトウネンリヨウコウギヨウ カブシキガイシヤ"
  },
  "8508": {
    "postcode": "1218508",
    "prefecture": "東京都",
    "prefecture_kana": "トウキョウト",
    "prefecture_code": 13,
    "city": "足立区",
    "city_kana": "アダチク",
    "town": "竹の塚",
    "town_kana": "タケノツカ",
    "street": "５−７−３竹の塚ＪＯＹぷらざ４階",
    "office_name": "シチズンカスタマーサービス　株式会社",
    "office_name_kana": "シチズンカスタマ-サ-ビス カブシキカイシヤ"
  },
  "8510": {
    "postcode": "1218510",
    "prefecture": "東京都",
    "prefecture_kana": "トウキョウト",
    "prefecture_code": 13,
    "city": "足立区",
    "city_kana": "アダチク",
    "town": "入谷",
    "town_kana": "イリヤ",
    "street": "６丁目３−１",
    "office_name": "東京北足立市場青果卸売　協同組合",
    "office_name_kana": "トウキヨウキタアダチシジヨウセイカオロシウリ キヨウドウクミアイ"
  },
  "8512": {
    "postcode": "1218512",
    "prefecture": "東京都",
    "prefecture_kana": "トウキョウト",
    "prefecture_code": 13,
    "city": "足立区",
    "city_kana": "アダチク",
    "town": "中央本町",
    "town_kana": "チュウオウホンチョウ",
    "street": "４丁目５番２号",
    "office_name": "足立区足立福祉事務所",
    "office_name_kana": "アダチクアダチフクシジムシヨ"
  },
  "8515": {
    "postcode": "1218515",
    "prefecture": "東京都",
    "prefecture_kana": "トウキョウト",
    "prefecture_code": 13,
    "city": "足立区",
    "city_kana": "アダチク",
    "town": "島根",
    "town_kana": "シマネ",
    "street": "３−２−１",
    "office_name": "医療法人社団　成仁病院",
    "office_name_kana": "イリヨウホウジンシヤダン セイジンビヨウイン"
  },
  "8520": {
    "postcode": "1218520",
    "prefecture": "東京都",
    "prefecture_kana": "トウキョウト",
    "prefecture_code": 13,
    "city": "足立区",
    "city_kana": "アダチク",
    "town": "梅島",
    "town_kana": "ウメジマ",
    "street": "２丁目１４−７",
    "office_name": "イワヤ　（株）",
    "office_name_kana": "イワヤ カブシキガイシヤ"
  },
  "8521": {
    "postcode": "1218521",
    "prefecture": "東京都",
    "prefecture_kana": "トウキョウト",
    "prefecture_code": 13,
    "city": "足立区",
    "city_kana": "アダチク",
    "town": "梅島",
    "town_kana": "ウメジマ",
    "street": "３丁目３２−６",
    "office_name": "株式会社　アローシステム開発",
    "office_name_kana": "カブシキガイシヤ アロ-システムカイハツ"
  },
  "8550": {
    "postcode": "1218550",
    "prefecture": "東京都",
    "prefecture_kana": "トウキョウト",
    "prefecture_code": 13,
    "city": "足立区",
    "city_kana": "アダチク",
    "town": "中央本町",
    "town_kana": "チュウオウホンチョウ",
    "street": "３丁目８−２",
    "office_name": "東京都水道局　足立営業所",
    "office_name_kana": "トウキヨウトスイドウキヨク アダチエイギヨウシヨ"
  },
  "8555": {
    "postcode": "1218555",
    "prefecture": "東京都",
    "prefecture_kana": "トウキョウト",
    "prefecture_code": 13,
    "city": "足立区",
    "city_kana": "アダチク",
    "town": "竹の塚",
    "town_kana": "タケノツカ",
    "street": "２丁目２５−１７",
    "office_name": "足立福祉事務所　北部福祉課",
    "office_name_kana": "アダチフクシジムシヨ ホクブフクシカ"
  },
  "8577": {
    "postcode": "1218577",
    "prefecture": "東京都",
    "prefecture_kana": "トウキョウト",
    "prefecture_code": 13,
    "city": "足立区",
    "city_kana": "アダチク",
    "town": "花畑",
    "town_kana": "ハナハタ",
    "street": "５−６−１",
    "office_name": "文教大学　東京あだちキャンパス",
    "office_name_kana": "ブンキヨウダイガク トウキヨウアダチキヤンパス"
  },
  "8585": {
    "postcode": "1218585",
    "prefecture": "東京都",
    "prefecture_kana": "トウキョウト",
    "prefecture_code": 13,
    "city": "足立区",
    "city_kana": "アダチク",
    "town": "入谷",
    "town_kana": "イリヤ",
    "street": "６丁目２−６",
    "office_name": "東京エコール　総合流通センター",
    "office_name_kana": "トウキヨウエコ-ル ソウゴウリユウツウセンタ-"
  },
  "8588": {
    "postcode": "1218588",
    "prefecture": "東京都",
    "prefecture_kana": "トウキョウト",
    "prefecture_code": 13,
    "city": "足立区",
    "city_kana": "アダチク",
    "town": "入谷",
    "town_kana": "イリヤ",
    "street": "６丁目３−１",
    "office_name": "東京千住青果　株式会社",
    "office_name_kana": "トウキヨウセンジユセイカ カブシキガイシヤ"
  },
  "8610": {
    "postcode": "1218610",
    "prefecture": "東京都",
    "prefecture_kana": "トウキョウト",
    "prefecture_code": 13,
    "city": "足立区",
    "city_kana": "アダチク",
    "town": "保塚町",
    "town_kana": "ホヅカチョウ",
    "street": "１０−８",
    "office_name": "加藤産業　株式会社　足立支店",
    "office_name_kana": "カトウサンギヨウ カブシキガイシヤ アダチシテン"
  },
  "8611": {
    "postcode": "1218611",
    "prefecture": "東京都",
    "prefecture_kana": "トウキョウト",
    "prefecture_code": 13,
    "city": "足立区",
    "city_kana": "アダチク",
    "town": "南花畑",
    "town_kana": "ミナミハナハタ",
    "street": "４丁目１７−１５",
    "office_name": "株式会社　丸井スズキ",
    "office_name_kana": "カブシキガイシヤ マルイスズキ"
  },
  "8633": {
    "postcode": "1218633",
    "prefecture": "東京都",
    "prefecture_kana": "トウキョウト",
    "prefecture_code": 13,
    "city": "足立区",
    "city_kana": "アダチク",
    "town": "加平",
    "town_kana": "カヘイ",
    "street": "３丁目２−１７",
    "office_name": "株式会社　サンエス",
    "office_name_kana": "カブシキガイシヤ サンエス"
  },
  "8639": {
    "postcode": "1218639",
    "prefecture": "東京都",
    "prefecture_kana": "トウキョウト",
    "prefecture_code": 13,
    "city": "足立区",
    "city_kana": "アダチク",
    "town": "一ツ家",
    "town_kana": "ヒトツヤ",
    "street": "１丁目１１−１３",
    "office_name": "（株）　第一エレクトロニクス",
    "office_name_kana": "カブシキガイシヤ ダイイチエレクトロニクス"
  },
  "8682": {
    "postcode": "1218682",
    "prefecture": "東京都",
    "prefecture_kana": "トウキョウト",
    "prefecture_code": 13,
    "city": "足立区",
    "city_kana": "アダチク",
    "town": "辰沼",
    "town_kana": "タツヌマ",
    "street": "２丁目１８−４（足立北郵便局私書箱第７１号）",
    "office_name": "（株）　トップライン",
    "office_name_kana": "カブシキガイシヤ トツプライン"
  },
  "8711": {
    "postcode": "1218711",
    "prefecture": "東京都",
    "prefecture_kana": "トウキョウト",
    "prefecture_code": 13,
    "city": "足立区",
    "city_kana": "アダチク",
    "town": "島根",
    "town_kana": "シマネ",
    "street": "２丁目２５−１７（足立北郵便局私書箱第２２号）",
    "office_name": "マスセット　（株）",
    "office_name_kana": "マスセツト カブシキガイシヤ"
  },
  "8729": {
    "postcode": "1218729",
    "prefecture": "埼玉県",
    "prefecture_kana": "サイタマケン",
    "prefecture_code": 11,
    "city": "川口市",
    "city_kana": "カワグチシ",
    "town": "東本郷",
    "town_kana": "ヒガシホンゴウ",
    "street": "１丁目１−７（足立北郵便局私書箱第３０号）",
    "office_name": "シーエル商事　（株）",
    "office_name_kana": "シ-エルシヨウジ カブシキガイシヤ"
  }
}