{
  "0000": {
    "postcode": "1240000",
    "prefecture": "東京都",
    "prefecture_kana": "トウキョウト",
    "prefecture_code": 13,
    "city": "葛飾区",
    "city_kana": "カツシカク",
    "town": "",
    "town_kana": "",
    "street": null,
    "office_name": null,
    "office_name_kana": null
  },
  "0001": {
    "postcode": "1240001",
    "prefecture": "東京都",
    "prefecture_kana": "トウキョウト",
    "prefecture_code": 13,
    "city": "葛飾区",
    "city_kana": "カツシカク",
    "town": "小菅",
    "town_kana": "コスゲ",
    "street": null,
    "office_name": null,
    "office_name_kana": null
  },
  "0002": {
    "postcode": "1240002",
    "prefecture": "東京都",
    "prefecture_kana": "トウキョウト",
    "prefecture_code": 13,
    "city": "葛飾区",
    "city_kana": "カツシカク",
    "town": "西亀有",
    "town_kana": "ニシカメアリ",
    "street": null,
    "office_name": null,
    "office_name_kana": null
  },
  "0003": {
    "postcode": "1240003",
    "prefecture": "東京都",
    "prefecture_kana": "トウキョウト",
    "prefecture_code": 13,
    "city": "葛飾区",
    "city_kana": "カツシカク",
    "town": "お花茶屋",
    "town_kana": "オハナヂャヤ",
    "street": null,
    "office_name": null,
    "office_name_kana": null
  },
  "0004": {
    "postcode": "1240004",
    "prefecture": "東京都",
    "prefecture_kana": "トウキョウト",
    "prefecture_code": 13,
    "city": "葛飾区",
    "city_kana": "カツシカク",
    "town": "東堀切",
    "town_kana": "ヒガシホリキリ",
    "street": null,
    "office_name": null,
    "office_name_kana": null
  },
  "0005": {
    "postcode": "1240005",
    "prefecture": "東京都",
    "prefecture_kana": "トウキョウト",
    "prefecture_code": 13,
    "city": "葛飾区",
    "city_kana": "カツシカク",
    "town": "宝町",
    "town_kana": "タカラマチ",
    "street": null,
    "office_name": null,
    "office_name_kana": null
  },
  "0006": {
    "postcode": "1240006",
    "prefecture": "東京都",
    "prefecture_kana": "トウキョウト",
    "prefecture_code": 13,
    "city": "葛飾区",
    "city_kana": "カツシカク",
    "town": "堀切",
    "town_kana": "ホリキリ",
    "street": null,
    "office_name": null,
    "office_name_kana": null
  },
  "0011": {
    "postcode": "1240011",
    "prefecture": "東京都",
    "prefecture_kana": "トウキョウト",
    "prefecture_code": 13,
    "city": "葛飾区",
    "city_kana": "カツシカク",
    "town": "四つ木",
    "town_kana": "ヨツギ",
    "street": null,
    "office_name": null,
    "office_name_kana": null
  },
  "0012": {
    "postcode": "1240012",
    "prefecture": "東京都",
    "prefecture_kana": "トウキョウト",
    "prefecture_code": 13,
    "city": "葛飾区",
    "city_kana": "カツシカク",
    "town": "立石",
    "town_kana": "タテイシ",
    "street": null,
    "office_name": null,
    "office_name_kana": null
  },
  "0013": {
    "postcode": "1240013",
    "prefecture": "東京都",
    "prefecture_kana": "トウキョウト",
    "prefecture_code": 13,
    "city": "葛飾区",
    "city_kana": "カツシカク",
    "town": "東立石",
    "town_kana": "ヒガシタテイシ",
    "street": null,
    "office_name": null,
    "office_name_kana": null
  },
  "0014": {
    "postcode": "1240014",
    "prefecture": "東京都",
    "prefecture_kana": "トウキョウト",
    "prefecture_code": 13,
    "city": "葛飾区",
    "city_kana": "カツシカク",
    "town": "東四つ木",
    "town_kana": "ヒガシヨツギ",
    "street": null,
    "office_name": null,
    "office_name_kana": null
  },
  "0021": {
    "postcode": "1240021",
    "prefecture": "東京都",
    "prefecture_kana": "トウキョウト",
    "prefecture_code": 13,
    "city": "葛飾区",
    "city_kana": "カツシカク",
    "town": "細田",
    "town_kana": "ホソダ",
    "street": null,
    "office_name": null,
    "office_name_kana": null
  },
  "0022": {
    "postcode": "1240022",
    "prefecture": "東京都",
    "prefecture_kana": "トウキョウト",
    "prefecture_code": 13,
    "city": "葛飾区",
    "city_kana": "カツシカク",
    "town": "奥戸",
    "town_kana": "オクド",
    "street": null,
    "office_name": null,
    "office_name_kana": null
  },
  "0023": {
    "postcode": "1240023",
    "prefecture": "東京都",
    "prefecture_kana": "トウキョウト",
    "prefecture_code": 13,
    "city": "葛飾区",
    "city_kana": "カツシカク",
    "town": "東新小岩",
    "town_kana": "ヒガシシンコイワ",
    "street": null,
    "office_name": null,
    "office_name_kana": null
  },
  "0024": {
    "postcode": "1240024",
    "prefecture": "東京都",
    "prefecture_kana": "トウキョウト",
    "prefecture_code": 13,
    "city": "葛飾区",
    "city_kana": "カツシカク",
    "town": "新小岩",
    "town_kana": "シンコイワ",
    "street": null,
    "office_name": null,
    "office_name_kana": null
  },
  "0025": {
    "postcode": "1240025",
    "prefecture": "東京都",
    "prefecture_kana": "トウキョウト",
    "prefecture_code": 13,
    "city": "葛飾区",
    "city_kana": "カツシカク",
    "town": "西新小岩",
    "town_kana": "ニシシンコイワ",
    "street": null,
    "office_name": null,
    "office_name_kana": null
  },
  "8501": {
    "postcode": "1248501",
    "prefecture": "東京都",
    "prefecture_kana": "トウキョウト",
    "prefecture_code": 13,
    "city": "葛飾区",
    "city_kana": "カツシカク",
    "town": "新小岩",
    "town_kana": "シンコイワ",
    "street": "１丁目５２−８",
    "office_name": "東栄信用金庫",
    "office_name_kana": "トウエイシンヨウキンコ"
  },
  "8502": {
    "postcode": "1248502",
    "prefecture": "東京都",
    "prefecture_kana": "トウキョウト",
    "prefecture_code": 13,
    "city": "葛飾区",
    "city_kana": "カツシカク",
    "town": "小菅",
    "town_kana": "コスゲ",
    "street": "４丁目２０−２４",
    "office_name": "東京法務局　城北出張所",
    "office_name_kana": "トウキヨウホウムキヨク ジヨウホクシユツチヨウジヨ"
  },
  "8503": {
    "postcode": "1248503",
    "prefecture": "東京都",
    "prefecture_kana": "トウキョウト",
    "prefecture_code": 13,
    "city": "葛飾区",
    "city_kana": "カツシカク",
    "town": "四つ木",
    "town_kana": "ヨツギ",
    "street": "５丁目２５−１２",
    "office_name": "株式会社　国際貿易",
    "office_name_kana": "カブシキガイシヤ コクサイボウエキ"
  },
  "8509": {
    "postcode": "1248509",
    "prefecture": "東京都",
    "prefecture_kana": "トウキョウト",
    "prefecture_code": 13,
    "city": "葛飾区",
    "city_kana": "カツシカク",
    "town": "西新小岩",
    "town_kana": "ニシシンコイワ",
    "street": "４丁目６−７",
    "office_name": "松久　株式会社",
    "office_name_kana": "マツキユウ カブシキガイシヤ"
  },
  "8510": {
    "postcode": "1248510",
    "prefecture": "東京都",
    "prefecture_kana": "トウキョウト",
    "prefecture_code": 13,
    "city": "葛飾区",
    "city_kana": "カツシカク",
    "town": "堀切",
    "town_kana": "ホリキリ",
    "street": "４丁目６６−１",
    "office_name": "ミヨシ油脂　株式会社",
    "office_name_kana": "ミヨシユシ カブシキガイシヤ"
  },
  "8511": {
    "postcode": "1248511",
    "prefecture": "東京都",
    "prefecture_kana": "トウキョウト",
    "prefecture_code": 13,
    "city": "葛飾区",
    "city_kana": "カツシカク",
    "town": "立石",
    "town_kana": "タテイシ",
    "street": "７丁目９−１０",
    "office_name": "株式会社　タカラトミー",
    "office_name_kana": "カブシキガイシヤ タカラトミ-"
  },
  "8520": {
    "postcode": "1248520",
    "prefecture": "東京都",
    "prefecture_kana": "トウキョウト",
    "prefecture_code": 13,
    "city": "葛飾区",
    "city_kana": "カツシカク",
    "town": "立石",
    "town_kana": "タテイシ",
    "street": "５丁目１３−１",
    "office_name": "東京都　葛飾都税事務所",
    "office_name_kana": "トウキヨウト カツシカトゼイジムシヨ"
  },
  "8524": {
    "postcode": "1248524",
    "prefecture": "東京都",
    "prefecture_kana": "トウキョウト",
    "prefecture_code": 13,
    "city": "葛飾区",
    "city_kana": "カツシカク",
    "town": "立石",
    "town_kana": "タテイシ",
    "street": "２丁目４−２",
    "office_name": "葛飾商工信用組合",
    "office_name_kana": "カツシカシヨウコウシンヨウクミアイ"
  },
  "8530": {
    "postcode": "1248530",
    "prefecture": "東京都",
    "prefecture_kana": "トウキョウト",
    "prefecture_code": 13,
    "city": "葛飾区",
    "city_kana": "カツシカク",
    "town": "西新小岩",
    "town_kana": "ニシシンコイワ",
    "street": "１丁目４番６号",
    "office_name": "学校法人　東京聖栄大学",
    "office_name_kana": "ガツコウホウジン トウキヨウセイエイダイガク"
  },
  "8533": {
    "postcode": "1248533",
    "prefecture": "東京都",
    "prefecture_kana": "トウキョウト",
    "prefecture_code": 13,
    "city": "葛飾区",
    "city_kana": "カツシカク",
    "town": "立石",
    "town_kana": "タテイシ",
    "street": "８丁目３３−１",
    "office_name": "鬼怒川パシフィック　株式会社",
    "office_name_kana": "キヌガワパシフイツク カブシキガイシヤ"
  },
  "8535": {
    "postcode": "1248535",
    "prefecture": "東京都",
    "prefecture_kana": "トウキョウト",
    "prefecture_code": 13,
    "city": "葛飾区",
    "city_kana": "カツシカク",
    "town": "西新小岩",
    "town_kana": "ニシシンコイワ",
    "street": "３丁目５−１",
    "office_name": "大成化工　株式会社",
    "office_name_kana": "タイセイカコウ カブシキガイシヤ"
  },
  "8538": {
    "postcode": "1248538",
    "prefecture": "東京都",
    "prefecture_kana": "トウキョウト",
    "prefecture_code": 13,
    "city": "葛飾区",
    "city_kana": "カツシカク",
    "town": "西新小岩",
    "town_kana": "ニシシンコイワ",
    "street": "３丁目８−４",
    "office_name": "辰巳屋興業　株式会社",
    "office_name_kana": "タツミヤコウギヨウ カブシキガイシヤ"
  },
  "8539": {
    "postcode": "1248539",
    "prefecture": "東京都",
    "prefecture_kana": "トウキョウト",
    "prefecture_code": 13,
    "city": "葛飾区",
    "city_kana": "カツシカク",
    "town": "立石",
    "town_kana": "タテイシ",
    "street": "２丁目９−１",
    "office_name": "ＮＴＴ葛飾",
    "office_name_kana": "エヌテイ-テイ-カツシカ"
  },
  "8550": {
    "postcode": "1248550",
    "prefecture": "東京都",
    "prefecture_kana": "トウキョウト",
    "prefecture_code": 13,
    "city": "葛飾区",
    "city_kana": "カツシカク",
    "town": "四つ木",
    "town_kana": "ヨツギ",
    "street": "３丁目１９−１",
    "office_name": "小里機材　株式会社",
    "office_name_kana": "コザトキザイ カブシキガイシヤ"
  },
  "8555": {
    "postcode": "1248555",
    "prefecture": "東京都",
    "prefecture_kana": "トウキョウト",
    "prefecture_code": 13,
    "city": "葛飾区",
    "city_kana": "カツシカク",
    "town": "立石",
    "town_kana": "タテイシ",
    "street": "５丁目１３−１",
    "office_name": "葛飾区役所",
    "office_name_kana": "カツシカクヤクシヨ"
  },
  "8560": {
    "postcode": "1248560",
    "prefecture": "東京都",
    "prefecture_kana": "トウキョウト",
    "prefecture_code": 13,
    "city": "葛飾区",
    "city_kana": "カツシカク",
    "town": "立石",
    "town_kana": "タテイシ",
    "street": "８丁目３１−６",
    "office_name": "葛飾税務署",
    "office_name_kana": "カツシカゼイムシヨ"
  },
  "8577": {
    "postcode": "1248577",
    "prefecture": "東京都",
    "prefecture_kana": "トウキョウト",
    "prefecture_code": 13,
    "city": "葛飾区",
    "city_kana": "カツシカク",
    "town": "奥戸",
    "town_kana": "オクド",
    "street": "１丁目２９−１",
    "office_name": "森永乳業　株式会社　東京工場",
    "office_name_kana": "モリナガニユウギヨウ カブシキガイシヤ トウキヨウコウジヨウ"
  },
  "8585": {
    "postcode": "1248585",
    "prefecture": "東京都",
    "prefecture_kana": "トウキョウト",
    "prefecture_code": 13,
    "city": "葛飾区",
    "city_kana": "カツシカク",
    "town": "東四つ木",
    "town_kana": "ヒガシヨツギ",
    "street": "４丁目４２−５",
    "office_name": "株式会社　バンダイロジパル",
    "office_name_kana": "カブシキガイシヤ バンダイロジパル"
  },
  "8588": {
    "postcode": "1248588",
    "prefecture": "東京都",
    "prefecture_kana": "トウキョウト",
    "prefecture_code": 13,
    "city": "葛飾区",
    "city_kana": "カツシカク",
    "town": "立石",
    "town_kana": "タテイシ",
    "street": "３丁目７−９",
    "office_name": "カール事務器　株式会社",
    "office_name_kana": "カ-ルジムキ カブシキガイシヤ"
  }
}