{
  "0031": {
    "postcode": "1310031",
    "prefecture": "東京都",
    "prefecture_kana": "トウキョウト",
    "prefecture_code": 13,
    "city": "墨田区",
    "city_kana": "スミダク",
    "town": "墨田",
    "town_kana": "スミダ",
    "street": null,
    "office_name": null,
    "office_name_kana": null
  },
  "0032": {
    "postcode": "1310032",
    "prefecture": "東京都",
    "prefecture_kana": "トウキョウト",
    "prefecture_code": 13,
    "city": "墨田区",
    "city_kana": "スミダク",
    "town": "東向島",
    "town_kana": "ヒガシムコウジマ",
    "street": null,
    "office_name": null,
    "office_name_kana": null
  },
  "0033": {
    "postcode": "1310033",
    "prefecture": "東京都",
    "prefecture_kana": "トウキョウト",
    "prefecture_code": 13,
    "city": "墨田区",
    "city_kana": "スミダク",
    "town": "向島",
    "town_kana": "ムコウジマ",
    "street": null,
    "office_name": null,
    "office_name_kana": null
  },
  "0034": {
    "postcode": "1310034",
    "prefecture": "東京都",
    "prefecture_kana": "トウキョウト",
    "prefecture_code": 13,
    "city": "墨田区",
    "city_kana": "スミダク",
    "town": "堤通",
    "town_kana": "ツツミドオリ",
    "street": null,
    "office_name": null,
    "office_name_kana": null
  },
  "0041": {
    "postcode": "1310041",
    "prefecture": "東京都",
    "prefecture_kana": "トウキョウト",
    "prefecture_code": 13,
    "city": "墨田区",
    "city_kana": "スミダク",
    "town": "八広",
    "town_kana": "ヤヒロ",
    "street": null,
    "office_name": null,
    "office_name_kana": null
  },
  "0042": {
    "postcode": "1310042",
    "prefecture": "東京都",
    "prefecture_kana": "トウキョウト",
    "prefecture_code": 13,
    "city": "墨田区",
    "city_kana": "スミダク",
    "town": "東墨田",
    "town_kana": "ヒガシスミダ",
    "street": null,
    "office_name": null,
    "office_name_kana": null
  },
  "0043": {
    "postcode": "1310043",
    "prefecture": "東京都",
    "prefecture_kana": "トウキョウト",
    "prefecture_code": 13,
    "city": "墨田区",
    "city_kana": "スミダク",
    "town": "立花",
    "town_kana": "タチバナ",
    "street": null,
    "office_name": null,
    "office_name_kana": null
  },
  "0044": {
    "postcode": "1310044",
    "prefecture": "東京都",
    "prefecture_kana": "トウキョウト",
    "prefecture_code": 13,
    "city": "墨田区",
    "city_kana": "スミダク",
    "town": "文花",
    "town_kana": "ブンカ",
    "street": null,
    "office_name": null,
    "office_name_kana": null
  },
  "0045": {
    "postcode": "1310045",
    "prefecture": "東京都",
    "prefecture_kana": "トウキョウト",
    "prefecture_code": 13,
    "city": "墨田区",
    "city_kana": "スミダク",
    "town": "押上",
    "town_kana": "オシアゲ",
    "street": null,
    "office_name": null,
    "office_name_kana": null
  },
  "0046": {
    "postcode": "1310046",
    "prefecture": "東京都",
    "prefecture_kana": "トウキョウト",
    "prefecture_code": 13,
    "city": "墨田区",
    "city_kana": "スミダク",
    "town": "京島",
    "town_kana": "キョウジマ",
    "street": null,
    "office_name": null,
    "office_name_kana": null
  },
  "8139": {
    "postcode": "1318139",
    "prefecture": "東京都",
    "prefecture_kana": "トウキョウト",
    "prefecture_code": 13,
    "city": "墨田区",
    "city_kana": "スミダク",
    "town": "押上",
    "town_kana": "オシアゲ",
    "street": "１−１−２東京スカイツリータウン・ソラマチ９階",
    "office_name": "郵政博物館",
    "office_name_kana": "ユウセイハクブツカン"
  },
  "8501": {
    "postcode": "1318501",
    "prefecture": "東京都",
    "prefecture_kana": "トウキョウト",
    "prefecture_code": 13,
    "city": "墨田区",
    "city_kana": "スミダク",
    "town": "文花",
    "town_kana": "ブンカ",
    "street": "２丁目１−３",
    "office_name": "花王　株式会社　すみだ事業所",
    "office_name_kana": "カオウ カブシキガイシヤ スミダジギヨウシヨ"
  },
  "8503": {
    "postcode": "1318503",
    "prefecture": "東京都",
    "prefecture_kana": "トウキョウト",
    "prefecture_code": 13,
    "city": "墨田区",
    "city_kana": "スミダク",
    "town": "向島",
    "town_kana": "ムコウジマ",
    "street": "１丁目３２−３",
    "office_name": "東武商事　株式会社",
    "office_name_kana": "トウブシヨウジ カブシキガイシヤ"
  },
  "8505": {
    "postcode": "1318505",
    "prefecture": "東京都",
    "prefecture_kana": "トウキョウト",
    "prefecture_code": 13,
    "city": "墨田区",
    "city_kana": "スミダク",
    "town": "押上",
    "town_kana": "オシアゲ",
    "street": "２−８−２",
    "office_name": "岡部　株式会社",
    "office_name_kana": "オカベ カブシキガイシヤ"
  },
  "8507": {
    "postcode": "1318507",
    "prefecture": "東京都",
    "prefecture_kana": "トウキョウト",
    "prefecture_code": 13,
    "city": "墨田区",
    "city_kana": "スミダク",
    "town": "向島",
    "town_kana": "ムコウジマ",
    "street": "４丁目２４−２２",
    "office_name": "株式会社　久保商会",
    "office_name_kana": "カブシキガイシヤ クボシヨウカイ"
  },
  "8508": {
    "postcode": "1318508",
    "prefecture": "東京都",
    "prefecture_kana": "トウキョウト",
    "prefecture_code": 13,
    "city": "墨田区",
    "city_kana": "スミダク",
    "town": "押上",
    "town_kana": "オシアゲ",
    "street": "２丁目１８番１２号",
    "office_name": "東武バス　株式会社",
    "office_name_kana": "トウブバス カブシキガイシヤ"
  },
  "8509": {
    "postcode": "1318509",
    "prefecture": "東京都",
    "prefecture_kana": "トウキョウト",
    "prefecture_code": 13,
    "city": "墨田区",
    "city_kana": "スミダク",
    "town": "東向島",
    "town_kana": "ヒガシムコウジマ",
    "street": "２丁目７−１４",
    "office_name": "向島税務署",
    "office_name_kana": "ムコウジマゼイムシヨ"
  },
  "8510": {
    "postcode": "1318510",
    "prefecture": "東京都",
    "prefecture_kana": "トウキョウト",
    "prefecture_code": 13,
    "city": "墨田区",
    "city_kana": "スミダク",
    "town": "堤通",
    "town_kana": "ツツミドオリ",
    "street": "１丁目１９−９",
    "office_name": "株式会社　大林組　東京本社　墨田事務所",
    "office_name_kana": "カブシキガイシヤ オオバヤシグミ トウキヨウホンシヤ スミダジムシヨ"
  },
  "8511": {
    "postcode": "1318511",
    "prefecture": "東京都",
    "prefecture_kana": "トウキョウト",
    "prefecture_code": 13,
    "city": "墨田区",
    "city_kana": "スミダク",
    "town": "墨田",
    "town_kana": "スミダ",
    "street": "４丁目４０−１０",
    "office_name": "株式会社　ハクタ商会",
    "office_name_kana": "カブシキガイシヤ ハクタシヨウカイ"
  },
  "8512": {
    "postcode": "1318512",
    "prefecture": "東京都",
    "prefecture_kana": "トウキョウト",
    "prefecture_code": 13,
    "city": "墨田区",
    "city_kana": "スミダク",
    "town": "墨田",
    "town_kana": "スミダ",
    "street": "５丁目４７−１７",
    "office_name": "山下商事　株式会社",
    "office_name_kana": "ヤマシタシヨウジ カブシキガイシヤ"
  },
  "8513": {
    "postcode": "1318513",
    "prefecture": "東京都",
    "prefecture_kana": "トウキョウト",
    "prefecture_code": 13,
    "city": "墨田区",
    "city_kana": "スミダク",
    "town": "墨田",
    "town_kana": "スミダ",
    "street": "５丁目１７−４",
    "office_name": "カネボウ物流　株式会社　東京支店",
    "office_name_kana": "カネボウブツリユウ カブシキガイシヤ トウキヨウシテン"
  },
  "8518": {
    "postcode": "1318518",
    "prefecture": "東京都",
    "prefecture_kana": "トウキョウト",
    "prefecture_code": 13,
    "city": "墨田区",
    "city_kana": "スミダク",
    "town": "八広",
    "town_kana": "ヤヒロ",
    "street": "１丁目２１−１１",
    "office_name": "杉本商事　株式会社　墨田営業所",
    "office_name_kana": "スギモトシヨウジ カブシキガイシヤ スミダエイギヨウシヨ"
  },
  "8519": {
    "postcode": "1318519",
    "prefecture": "東京都",
    "prefecture_kana": "トウキョウト",
    "prefecture_code": 13,
    "city": "墨田区",
    "city_kana": "スミダク",
    "town": "文花",
    "town_kana": "ブンカ",
    "street": "３丁目２１−１７",
    "office_name": "株式会社　イナゲ",
    "office_name_kana": "カブシキガイシヤ イナゲ"
  },
  "8520": {
    "postcode": "1318520",
    "prefecture": "東京都",
    "prefecture_kana": "トウキョウト",
    "prefecture_code": 13,
    "city": "墨田区",
    "city_kana": "スミダク",
    "town": "墨田",
    "town_kana": "スミダ",
    "street": "２丁目３６−１０",
    "office_name": "ナガセケンコー　株式会社",
    "office_name_kana": "ナガセケンコ- カブシキガイシヤ"
  },
  "8524": {
    "postcode": "1318524",
    "prefecture": "東京都",
    "prefecture_kana": "トウキョウト",
    "prefecture_code": 13,
    "city": "墨田区",
    "city_kana": "スミダク",
    "town": "向島",
    "town_kana": "ムコウジマ",
    "street": "３丁目４４番４号",
    "office_name": "東武谷内田建設　株式会社",
    "office_name_kana": "トウブヤチダケンセツ カブシキガイシヤ"
  },
  "8526": {
    "postcode": "1318526",
    "prefecture": "東京都",
    "prefecture_kana": "トウキョウト",
    "prefecture_code": 13,
    "city": "墨田区",
    "city_kana": "スミダク",
    "town": "立花",
    "town_kana": "タチバナ",
    "street": "２丁目３３−５",
    "office_name": "株式会社　ときわ商会",
    "office_name_kana": "カブシキガイシヤ トキワシヨウカイ"
  },
  "8527": {
    "postcode": "1318527",
    "prefecture": "東京都",
    "prefecture_kana": "トウキョウト",
    "prefecture_code": 13,
    "city": "墨田区",
    "city_kana": "スミダク",
    "town": "立花",
    "town_kana": "タチバナ",
    "street": "４丁目７−８",
    "office_name": "丸源飲料工業　株式会社",
    "office_name_kana": "マルゲンインリヨウコウギヨウ カブシキガイシヤ"
  },
  "8530": {
    "postcode": "1318530",
    "prefecture": "東京都",
    "prefecture_kana": "トウキョウト",
    "prefecture_code": 13,
    "city": "墨田区",
    "city_kana": "スミダク",
    "town": "本所",
    "town_kana": "ホンジョ",
    "street": "４丁目１８−６",
    "office_name": "東京東　信用金庫",
    "office_name_kana": "トウキヨウヒガシ シンヨウキンコ"
  },
  "8533": {
    "postcode": "1318533",
    "prefecture": "東京都",
    "prefecture_kana": "トウキョウト",
    "prefecture_code": 13,
    "city": "墨田区",
    "city_kana": "スミダク",
    "town": "堤通",
    "town_kana": "ツツミドオリ",
    "street": "１丁目１９−９リバーサイド隅田セントラルタワー１階",
    "office_name": "ＮＥＣインフロンティア　株式会社　墨田事業所",
    "office_name_kana": "エヌイ-シ-インフロンテイア カブシキガイシヤ スミダジギヨウシヨ"
  },
  "8550": {
    "postcode": "1318550",
    "prefecture": "東京都",
    "prefecture_kana": "トウキョウト",
    "prefecture_code": 13,
    "city": "墨田区",
    "city_kana": "スミダク",
    "town": "押上",
    "town_kana": "オシアゲ",
    "street": "２丁目１２−７",
    "office_name": "東武ビルマネジメント　株式会社",
    "office_name_kana": "トウブビルマネジメント カブシキガイシヤ"
  },
  "8555": {
    "postcode": "1318555",
    "prefecture": "東京都",
    "prefecture_kana": "トウキョウト",
    "prefecture_code": 13,
    "city": "墨田区",
    "city_kana": "スミダク",
    "town": "押上",
    "town_kana": "オシアゲ",
    "street": "１丁目１０−３",
    "office_name": "京成電鉄　株式会社",
    "office_name_kana": "ケイセイデンテツ カブシキガイシヤ"
  },
  "8558": {
    "postcode": "1318558",
    "prefecture": "東京都",
    "prefecture_kana": "トウキョウト",
    "prefecture_code": 13,
    "city": "墨田区",
    "city_kana": "スミダク",
    "town": "堤通",
    "town_kana": "ツツミドオリ",
    "street": "１−１９−９リバーサイド隅田セントラルタワー",
    "office_name": "メルテック・ビジネス　株式会社",
    "office_name_kana": "メルテツク・ビジネス カブシキガイシヤ"
  },
  "8565": {
    "postcode": "1318565",
    "prefecture": "東京都",
    "prefecture_kana": "トウキョウト",
    "prefecture_code": 13,
    "city": "墨田区",
    "city_kana": "スミダク",
    "town": "堤通",
    "town_kana": "ツツミドオリ",
    "street": "１丁目１９−９リバーサイド隅田セントラルタワー６Ｆ",
    "office_name": "株式会社　日本旅行　東日本営業本部",
    "office_name_kana": "カブシキガイシヤ ニホンリヨコウ ヒガシニホンエイギヨウホンブ"
  },
  "8584": {
    "postcode": "1318584",
    "prefecture": "東京都",
    "prefecture_kana": "トウキョウト",
    "prefecture_code": 13,
    "city": "墨田区",
    "city_kana": "スミダク",
    "town": "堤通",
    "town_kana": "ツツミドオリ",
    "street": "１−１９−９リバーサイド隅田セントラルタワー８階",
    "office_name": "株式会社　ジェイコム東京　すみだ・台東局",
    "office_name_kana": "カブシキガイシヤ ジエイコムトウキヨウ スミダ・タイトウキヨク"
  },
  "8585": {
    "postcode": "1318585",
    "prefecture": "東京都",
    "prefecture_kana": "トウキョウト",
    "prefecture_code": 13,
    "city": "墨田区",
    "city_kana": "スミダク",
    "town": "東向島",
    "town_kana": "ヒガシムコウジマ",
    "street": "２丁目３３−２",
    "office_name": "小管　株式会社",
    "office_name_kana": "コスゲ カブシキガイシヤ"
  },
  "8588": {
    "postcode": "1318588",
    "prefecture": "東京都",
    "prefecture_kana": "トウキョウト",
    "prefecture_code": 13,
    "city": "墨田区",
    "city_kana": "スミダク",
    "town": "墨田",
    "town_kana": "スミダ",
    "street": "２丁目１４−１４",
    "office_name": "株式会社　フタキ商事",
    "office_name_kana": "カブシキガイシヤ ニタキ"
  },
  "8634": {
    "postcode": "1318634",
    "prefecture": "東京都",
    "prefecture_kana": "トウキョウト",
    "prefecture_code": 13,
    "city": "墨田区",
    "city_kana": "スミダク",
    "town": "押上",
    "town_kana": "オシアゲ",
    "street": "１−１−２東京スカイツリーイーストタワー１１Ｆ",
    "office_name": "東武タワースカイツリー　株式会社",
    "office_name_kana": "トウブタワ-スカイツリ- カブシキガイシヤ"
  },
  "8711": {
    "postcode": "1318711",
    "prefecture": "東京都",
    "prefecture_kana": "トウキョウト",
    "prefecture_code": 13,
    "city": "墨田区",
    "city_kana": "スミダク",
    "town": "業平",
    "town_kana": "ナリヒラ",
    "street": "１丁目７−１０（向島郵便局私書箱第３９号）",
    "office_name": "エヌティティテレマーケティング　株式会社",
    "office_name_kana": "エヌテイテイテレマ-ケテイング カブシキガイシヤ"
  }
}