{
  "0001": {
    "postcode": "1430001",
    "prefecture": "東京都",
    "prefecture_kana": "トウキョウト",
    "prefecture_code": 13,
    "city": "大田区",
    "city_kana": "オオタク",
    "town": "東海",
    "town_kana": "トウカイ",
    "street": null,
    "office_name": null,
    "office_name_kana": null
  },
  "0002": {
    "postcode": "1430002",
    "prefecture": "東京都",
    "prefecture_kana": "トウキョウト",
    "prefecture_code": 13,
    "city": "大田区",
    "city_kana": "オオタク",
    "town": "城南島",
    "town_kana": "ジョウナンジマ",
    "street": null,
    "office_name": null,
    "office_name_kana": null
  },
  "0003": {
    "postcode": "1430003",
    "prefecture": "東京都",
    "prefecture_kana": "トウキョウト",
    "prefecture_code": 13,
    "city": "大田区",
    "city_kana": "オオタク",
    "town": "京浜島",
    "town_kana": "ケイヒンジマ",
    "street": null,
    "office_name": null,
    "office_name_kana": null
  },
  "0004": {
    "postcode": "1430004",
    "prefecture": "東京都",
    "prefecture_kana": "トウキョウト",
    "prefecture_code": 13,
    "city": "大田区",
    "city_kana": "オオタク",
    "town": "昭和島",
    "town_kana": "ショウワジマ",
    "street": null,
    "office_name": null,
    "office_name_kana": null
  },
  "0005": {
    "postcode": "1430005",
    "prefecture": "東京都",
    "prefecture_kana": "トウキョウト",
    "prefecture_code": 13,
    "city": "大田区",
    "city_kana": "オオタク",
    "town": "平和の森公園",
    "town_kana": "ヘイワノモリコウエン",
    "street": null,
    "office_name": null,
    "office_name_kana": null
  },
  "0006": {
    "postcode": "1430006",
    "prefecture": "東京都",
    "prefecture_kana": "トウキョウト",
    "prefecture_code": 13,
    "city": "大田区",
    "city_kana": "オオタク",
    "town": "平和島",
    "town_kana": "ヘイワジマ",
    "street": null,
    "office_name": null,
    "office_name_kana": null
  },
  "0007": {
    "postcode": "1430007",
    "prefecture": "東京都",
    "prefecture_kana": "トウキョウト",
    "prefecture_code": 13,
    "city": "大田区",
    "city_kana": "オオタク",
    "town": "ふるさとの浜辺公園",
    "town_kana": "フルサトノハマベコウエン",
    "street": null,
    "office_name": null,
    "office_name_kana": null
  },
  "0011": {
    "postcode": "1430011",
    "prefecture": "東京都",
    "prefecture_kana": "トウキョウト",
    "prefecture_code": 13,
    "city": "大田区",
    "city_kana": "オオタク",
    "town": "大森本町",
    "town_kana": "オオモリホンチョウ",
    "street": null,
    "office_name": null,
    "office_name_kana": null
  },
  "0012": {
    "postcode": "1430012",
    "prefecture": "東京都",
    "prefecture_kana": "トウキョウト",
    "prefecture_code": 13,
    "city": "大田区",
    "city_kana": "オオタク",
    "town": "大森東",
    "town_kana": "オオモリヒガシ",
    "street": null,
    "office_name": null,
    "office_name_kana": null
  },
  "0013": {
    "postcode": "1430013",
    "prefecture": "東京都",
    "prefecture_kana": "トウキョウト",
    "prefecture_code": 13,
    "city": "大田区",
    "city_kana": "オオタク",
    "town": "大森南",
    "town_kana": "オオモリミナミ",
    "street": null,
    "office_name": null,
    "office_name_kana": null
  },
  "0014": {
    "postcode": "1430014",
    "prefecture": "東京都",
    "prefecture_kana": "トウキョウト",
    "prefecture_code": 13,
    "city": "大田区",
    "city_kana": "オオタク",
    "town": "大森中",
    "town_kana": "オオモリナカ",
    "street": null,
    "office_name": null,
    "office_name_kana": null
  },
  "0015": {
    "postcode": "1430015",
    "prefecture": "東京都",
    "prefecture_kana": "トウキョウト",
    "prefecture_code": 13,
    "city": "大田区",
    "city_kana": "オオタク",
    "town": "大森西",
    "town_kana": "オオモリニシ",
    "street": null,
    "office_name": null,
    "office_name_kana": null
  },
  "0016": {
    "postcode": "1430016",
    "prefecture": "東京都",
    "prefecture_kana": "トウキョウト",
    "prefecture_code": 13,
    "city": "大田区",
    "city_kana": "オオタク",
    "town": "大森北",
    "town_kana": "オオモリキタ",
    "street": null,
    "office_name": null,
    "office_name_kana": null
  },
  "0021": {
    "postcode": "1430021",
    "prefecture": "東京都",
    "prefecture_kana": "トウキョウト",
    "prefecture_code": 13,
    "city": "大田区",
    "city_kana": "オオタク",
    "town": "北馬込",
    "town_kana": "キタマゴメ",
    "street": null,
    "office_name": null,
    "office_name_kana": null
  },
  "0022": {
    "postcode": "1430022",
    "prefecture": "東京都",
    "prefecture_kana": "トウキョウト",
    "prefecture_code": 13,
    "city": "大田区",
    "city_kana": "オオタク",
    "town": "東馬込",
    "town_kana": "ヒガシマゴメ",
    "street": null,
    "office_name": null,
    "office_name_kana": null
  },
  "0023": {
    "postcode": "1430023",
    "prefecture": "東京都",
    "prefecture_kana": "トウキョウト",
    "prefecture_code": 13,
    "city": "大田区",
    "city_kana": "オオタク",
    "town": "山王",
    "town_kana": "サンノウ",
    "street": null,
    "office_name": null,
    "office_name_kana": null
  },
  "0024": {
    "postcode": "1430024",
    "prefecture": "東京都",
    "prefecture_kana": "トウキョウト",
    "prefecture_code": 13,
    "city": "大田区",
    "city_kana": "オオタク",
    "town": "中央",
    "town_kana": "チュウオウ",
    "street": null,
    "office_name": null,
    "office_name_kana": null
  },
  "0025": {
    "postcode": "1430025",
    "prefecture": "東京都",
    "prefecture_kana": "トウキョウト",
    "prefecture_code": 13,
    "city": "大田区",
    "city_kana": "オオタク",
    "town": "南馬込",
    "town_kana": "ミナミマゴメ",
    "street": null,
    "office_name": null,
    "office_name_kana": null
  },
  "0026": {
    "postcode": "1430026",
    "prefecture": "東京都",
    "prefecture_kana": "トウキョウト",
    "prefecture_code": 13,
    "city": "大田区",
    "city_kana": "オオタク",
    "town": "西馬込",
    "town_kana": "ニシマゴメ",
    "street": null,
    "office_name": null,
    "office_name_kana": null
  },
  "0027": {
    "postcode": "1430027",
    "prefecture": "東京都",
    "prefecture_kana": "トウキョウト",
    "prefecture_code": 13,
    "city": "大田区",
    "city_kana": "オオタク",
    "town": "中馬込",
    "town_kana": "ナカマゴメ",
    "street": null,
    "office_name": null,
    "office_name_kana": null
  },
  "8502": {
    "postcode": "1438502",
    "prefecture": "東京都",
    "prefecture_kana": "トウキョウト",
    "prefecture_code": 13,
    "city": "大田区",
    "city_kana": "オオタク",
    "town": "大森北",
    "town_kana": "オオモリキタ",
    "street": "１丁目５番１号大森駅東口ビル",
    "office_name": "東京海上日動ファイナンス　株式会社　カード事業部",
    "office_name_kana": "トウキヨウカイジヨウニチドウフアイナンス カブシキガイシヤ カ-ドジギヨウブ"
  },
  "8504": {
    "postcode": "1438504",
    "prefecture": "東京都",
    "prefecture_kana": "トウキョウト",
    "prefecture_code": 13,
    "city": "大田区",
    "city_kana": "オオタク",
    "town": "南馬込",
    "town_kana": "ミナミマゴメ",
    "street": "１丁目１−３",
    "office_name": "株式会社　ヤマダコーポレーション",
    "office_name_kana": "カブシキガイシヤ ヤマダコ-ポレ-シヨン"
  },
  "8505": {
    "postcode": "1438505",
    "prefecture": "東京都",
    "prefecture_kana": "トウキョウト",
    "prefecture_code": 13,
    "city": "大田区",
    "city_kana": "オオタク",
    "town": "大森北",
    "town_kana": "オオモリキタ",
    "street": "１丁目３４−６",
    "office_name": "医療法人財団　仁医会　牧田総合病院",
    "office_name_kana": "イリヨウホウジンザイダン ジンイカイ マキタソウゴウビヨウイン"
  },
  "8507": {
    "postcode": "1438507",
    "prefecture": "東京都",
    "prefecture_kana": "トウキョウト",
    "prefecture_code": 13,
    "city": "大田区",
    "city_kana": "オオタク",
    "town": "南馬込",
    "town_kana": "ミナミマゴメ",
    "street": "１丁目８−１",
    "office_name": "株式会社　ケツト科学研究所",
    "office_name_kana": "カブシキガイシヤ ケツトカガクケンキユウジヨ"
  },
  "8508": {
    "postcode": "1438508",
    "prefecture": "東京都",
    "prefecture_kana": "トウキョウト",
    "prefecture_code": 13,
    "city": "大田区",
    "city_kana": "オオタク",
    "town": "大森西",
    "town_kana": "オオモリニシ",
    "street": "７丁目１−１４",
    "office_name": "株式会社　メリーチョコレートカムパニー",
    "office_name_kana": "カブシキガイシヤ メリ-チヨコレ-トカムパニ-"
  },
  "8509": {
    "postcode": "1438509",
    "prefecture": "東京都",
    "prefecture_kana": "トウキョウト",
    "prefecture_code": 13,
    "city": "大田区",
    "city_kana": "オオタク",
    "town": "平和島",
    "town_kana": "ヘイワジマ",
    "street": "２−１−１京浜トラックターミナル内平和島新７号棟",
    "office_name": "アマゾン大田フルフィルメントセンター",
    "office_name_kana": "アマゾンオオタフルフイルメントセンタ-"
  },
  "8511": {
    "postcode": "1438511",
    "prefecture": "東京都",
    "prefecture_kana": "トウキョウト",
    "prefecture_code": 13,
    "city": "大田区",
    "city_kana": "オオタク",
    "town": "平和島",
    "town_kana": "ヘイワジマ",
    "street": "５丁目５−１３",
    "office_name": "池伝　株式会社",
    "office_name_kana": "イケデン カブシキガイシヤ"
  },
  "8513": {
    "postcode": "1438513",
    "prefecture": "東京都",
    "prefecture_kana": "トウキョウト",
    "prefecture_code": 13,
    "city": "大田区",
    "city_kana": "オオタク",
    "town": "城南島",
    "town_kana": "ジョウナンジマ",
    "street": "７−２−３",
    "office_name": "リコーロジスティクス　株式会社　物流センター城南島",
    "office_name_kana": "リコ-ロジステイクス カブシキガイシヤ ブツリユウセンタ-ジヨウナンジマ"
  },
  "8514": {
    "postcode": "1438514",
    "prefecture": "東京都",
    "prefecture_kana": "トウキョウト",
    "prefecture_code": 13,
    "city": "大田区",
    "city_kana": "オオタク",
    "town": "大森北",
    "town_kana": "オオモリキタ",
    "street": "１丁目５−１大森駅東口ビル５Ｆ",
    "office_name": "東京海上日動ファイナンス　株式会社",
    "office_name_kana": "トウキヨウカイジヨウニチドウフアイナンス カブシキガイシヤ"
  },
  "8515": {
    "postcode": "1438515",
    "prefecture": "東京都",
    "prefecture_kana": "トウキョウト",
    "prefecture_code": 13,
    "city": "大田区",
    "city_kana": "オオタク",
    "town": "中馬込",
    "town_kana": "ナカマゴメ",
    "street": "３丁目２８−７",
    "office_name": "山一電機　株式会社",
    "office_name_kana": "ヤマイチデンキ カブシキガイシヤ"
  },
  "8520": {
    "postcode": "1438520",
    "prefecture": "東京都",
    "prefecture_kana": "トウキョウト",
    "prefecture_code": 13,
    "city": "大田区",
    "city_kana": "オオタク",
    "town": "大森西",
    "town_kana": "オオモリニシ",
    "street": "１丁目１６−５",
    "office_name": "株式会社　ニシベ計器製造所",
    "office_name_kana": "カブシキガイシヤ ニシベケイキセイゾウシヨ"
  },
  "8521": {
    "postcode": "1438521",
    "prefecture": "東京都",
    "prefecture_kana": "トウキョウト",
    "prefecture_code": 13,
    "city": "大田区",
    "city_kana": "オオタク",
    "town": "大森西",
    "town_kana": "オオモリニシ",
    "street": "５丁目２８番６号",
    "office_name": "株式会社　ヴァレオジャパン",
    "office_name_kana": "カブシキガイシヤ ヴアレオジヤパン"
  },
  "8525": {
    "postcode": "1438525",
    "prefecture": "東京都",
    "prefecture_kana": "トウキョウト",
    "prefecture_code": 13,
    "city": "大田区",
    "city_kana": "オオタク",
    "town": "平和島",
    "town_kana": "ヘイワジマ",
    "street": "３−６−１東京団地倉庫Ａ−２棟住友倉庫内",
    "office_name": "ヤマトシステム開発　株式会社　新東京ロジシスセンター",
    "office_name_kana": "ヤマトシステムカイハツ カブシキガイシヤ シントウキヨウロジシスセンタ-"
  },
  "8528": {
    "postcode": "1438528",
    "prefecture": "東京都",
    "prefecture_kana": "トウキョウト",
    "prefecture_code": 13,
    "city": "大田区",
    "city_kana": "オオタク",
    "town": "大森北",
    "town_kana": "オオモリキタ",
    "street": "１丁目１８−２",
    "office_name": "共栄工業　株式会社",
    "office_name_kana": "キヨウエイコウギヨウ カブシキガイシヤ"
  },
  "8530": [
    {
      "postcode": "1438530",
      "prefecture": "東京都",
      "prefecture_kana": "トウキョウト",
      "prefecture_code": 13,
      "city": "大田区",
      "city_kana": "オオタク",
      "town": "平和島",
      "town_kana": "ヘイワジマ",
      "street": "１丁目１番２号",
      "office_name": "株式会社　エヌ・ティ・ティ・ロジスコ",
      "office_name_kana": "カブシキガイシヤ エヌ・テイ・テイ・ロジスコ"
    },
    {
      "postcode": "1438530",
      "prefecture": "東京都",
      "prefecture_kana": "トウキョウト",
      "prefecture_code": 13,
      "city": "大田区",
      "city_kana": "オオタク",
      "town": "平和島",
      "town_kana": "ヘイワジマ",
      "street": "１丁目１番２号",
      "office_name": "株式会社　エヌ・ティ・ティ・ロジスコインフォメーションサービス",
      "office_name_kana": "カブシキガイシヤ エヌ・テイ・テイ・ロジスコインフオメ-シヨンサ-ビス"
    },
    {
      "postcode": "1438530",
      "prefecture": "東京都",
      "prefecture_kana": "トウキョウト",
      "prefecture_code": 13,
      "city": "大田区",
      "city_kana": "オオタク",
      "town": "平和島",
      "town_kana": "ヘイワジマ",
      "street": "１丁目１番２号",
      "office_name": "株式会社　エヌ・ティ・ティ・ロジスコサービス",
      "office_name_kana": "カブシキガイシヤ エヌ・テイ・テイ・ロジスコサ-ビス"
    }
  ],
  "8531": {
    "postcode": "1438531",
    "prefecture": "東京都",
    "prefecture_kana": "トウキョウト",
    "prefecture_code": 13,
    "city": "大田区",
    "city_kana": "オオタク",
    "town": "大森西",
    "town_kana": "オオモリニシ",
    "street": "２丁目３２−７",
    "office_name": "フコク物産　株式会社",
    "office_name_kana": "フコクブツサン カブシキガイシヤ"
  },
  "8533": {
    "postcode": "1438533",
    "prefecture": "東京都",
    "prefecture_kana": "トウキョウト",
    "prefecture_code": 13,
    "city": "大田区",
    "city_kana": "オオタク",
    "town": "大森中",
    "town_kana": "オオモリナカ",
    "street": "１丁目１８−１６",
    "office_name": "株式会社　トミタ",
    "office_name_kana": "カブシキガイシヤ トミタ"
  },
  "8535": {
    "postcode": "1438535",
    "prefecture": "東京都",
    "prefecture_kana": "トウキョウト",
    "prefecture_code": 13,
    "city": "大田区",
    "city_kana": "オオタク",
    "town": "昭和島",
    "town_kana": "ショウワジマ",
    "street": "１丁目６−３１",
    "office_name": "株式会社　増田製作所",
    "office_name_kana": "カブシキガイシヤ マスダセイサクシヨ"
  },
  "8538": {
    "postcode": "1438538",
    "prefecture": "東京都",
    "prefecture_kana": "トウキョウト",
    "prefecture_code": 13,
    "city": "大田区",
    "city_kana": "オオタク",
    "town": "平和島",
    "town_kana": "ヘイワジマ",
    "street": "３丁目１−７",
    "office_name": "株式会社　ジーネット　東京支社",
    "office_name_kana": "カブシキガイシヤ ジ-ネツト トウキヨウシシヤ"
  },
  "8539": {
    "postcode": "1438539",
    "prefecture": "東京都",
    "prefecture_kana": "トウキョウト",
    "prefecture_code": 13,
    "city": "大田区",
    "city_kana": "オオタク",
    "town": "大森西",
    "town_kana": "オオモリニシ",
    "street": "１丁目９−１２",
    "office_name": "テクニカル電子　株式会社",
    "office_name_kana": "テクニカルデンシ カブシキガイシヤ"
  },
  "8540": {
    "postcode": "1438540",
    "prefecture": "東京都",
    "prefecture_kana": "トウキョウト",
    "prefecture_code": 13,
    "city": "大田区",
    "city_kana": "オオタク",
    "town": "大森西",
    "town_kana": "オオモリニシ",
    "street": "５丁目２１−１６",
    "office_name": "学校法人　東邦大学",
    "office_name_kana": "ガツコウホウジン トウホウダイガク"
  },
  "8541": {
    "postcode": "1438541",
    "prefecture": "東京都",
    "prefecture_kana": "トウキョウト",
    "prefecture_code": 13,
    "city": "大田区",
    "city_kana": "オオタク",
    "town": "大森西",
    "town_kana": "オオモリニシ",
    "street": "６丁目１１−１",
    "office_name": "東邦大学　医療センター　大森病院",
    "office_name_kana": "トウホウダイガク イリヨウセンタ- オオモリビヨウイン"
  },
  "8544": {
    "postcode": "1438544",
    "prefecture": "東京都",
    "prefecture_kana": "トウキョウト",
    "prefecture_code": 13,
    "city": "大田区",
    "city_kana": "オオタク",
    "town": "東馬込",
    "town_kana": "ヒガシマゴメ",
    "street": "１丁目３０−４",
    "office_name": "長野計器　株式会社",
    "office_name_kana": "ナガノケイキ カブシキガイシヤ"
  },
  "8550": {
    "postcode": "1438550",
    "prefecture": "東京都",
    "prefecture_kana": "トウキョウト",
    "prefecture_code": 13,
    "city": "大田区",
    "city_kana": "オオタク",
    "town": "大森北",
    "town_kana": "オオモリキタ",
    "street": "１丁目２３−８",
    "office_name": "日外アソシエーツ　株式会社",
    "office_name_kana": "ニチガイアソシエ-ツ カブシキガイシヤ"
  },
  "8552": {
    "postcode": "1438552",
    "prefecture": "東京都",
    "prefecture_kana": "トウキョウト",
    "prefecture_code": 13,
    "city": "大田区",
    "city_kana": "オオタク",
    "town": "平和島",
    "town_kana": "ヘイワジマ",
    "street": "１丁目１−２平和島ベイオフィス７階",
    "office_name": "東京都水道局　大田営業所",
    "office_name_kana": "トウキヨウトスイドウキヨク オオタエイギヨウシヨ"
  },
  "8555": {
    "postcode": "1438555",
    "prefecture": "東京都",
    "prefecture_kana": "トウキョウト",
    "prefecture_code": 13,
    "city": "大田区",
    "city_kana": "オオタク",
    "town": "中馬込",
    "town_kana": "ナカマゴメ",
    "street": "１丁目３−６",
    "office_name": "株式会社　リコー　大森事務所",
    "office_name_kana": "カブシキガイシヤ リコ- オオモリジムシヨ"
  },
  "8557": {
    "postcode": "1438557",
    "prefecture": "東京都",
    "prefecture_kana": "トウキョウト",
    "prefecture_code": 13,
    "city": "大田区",
    "city_kana": "オオタク",
    "town": "西馬込",
    "town_kana": "ニシマゴメ",
    "street": "１−５−１",
    "office_name": "立正大学付属立正中学校・高等学校",
    "office_name_kana": "リツシヨウダイガクフゾクリツシヨウチユウガツコウ・コウトウガツコウ"
  },
  "8558": {
    "postcode": "1438558",
    "prefecture": "東京都",
    "prefecture_kana": "トウキョウト",
    "prefecture_code": 13,
    "city": "大田区",
    "city_kana": "オオタク",
    "town": "大森北",
    "town_kana": "オオモリキタ",
    "street": "１丁目５−１",
    "office_name": "株式会社　電業社機械製作所",
    "office_name_kana": "カブシキガイシヤ デンギヨウシヤキカイセイサクシヨ"
  },
  "8560": {
    "postcode": "1438560",
    "prefecture": "東京都",
    "prefecture_kana": "トウキョウト",
    "prefecture_code": 13,
    "city": "大田区",
    "city_kana": "オオタク",
    "town": "山王",
    "town_kana": "サンノウ",
    "street": "４丁目１４−３",
    "office_name": "サンワテクノス　株式会社",
    "office_name_kana": "サンワテクノス カブシキガイシヤ"
  },
  "8565": {
    "postcode": "1438565",
    "prefecture": "東京都",
    "prefecture_kana": "トウキョウト",
    "prefecture_code": 13,
    "city": "大田区",
    "city_kana": "オオタク",
    "town": "中央",
    "town_kana": "チュウオウ",
    "street": "７丁目４−１８",
    "office_name": "大森税務署",
    "office_name_kana": "オオモリゼイムシヨ"
  },
  "8567": {
    "postcode": "1438567",
    "prefecture": "東京都",
    "prefecture_kana": "トウキョウト",
    "prefecture_code": 13,
    "city": "大田区",
    "city_kana": "オオタク",
    "town": "山王",
    "town_kana": "サンノウ",
    "street": "２丁目５番１３号大森北口ビル",
    "office_name": "株式会社　ベンカン・ジャパン",
    "office_name_kana": "カブシキガイシヤ ベンカン・ジヤパン"
  },
  "8568": {
    "postcode": "1438568",
    "prefecture": "東京都",
    "prefecture_kana": "トウキョウト",
    "prefecture_code": 13,
    "city": "大田区",
    "city_kana": "オオタク",
    "town": "城南島",
    "town_kana": "ジョウナンジマ",
    "street": "２丁目２−２",
    "office_name": "株式会社　ユニックス",
    "office_name_kana": "カブシキガイシヤ ユニツクス"
  },
  "8570": {
    "postcode": "1438570",
    "prefecture": "東京都",
    "prefecture_kana": "トウキョウト",
    "prefecture_code": 13,
    "city": "大田区",
    "city_kana": "オオタク",
    "town": "平和島",
    "town_kana": "ヘイワジマ",
    "street": "５丁目８−２３",
    "office_name": "株式会社　浅井",
    "office_name_kana": "カブシキガイシヤ アサイ"
  },
  "8580": {
    "postcode": "1438580",
    "prefecture": "東京都",
    "prefecture_kana": "トウキョウト",
    "prefecture_code": 13,
    "city": "大田区",
    "city_kana": "オオタク",
    "town": "大森北",
    "town_kana": "オオモリキタ",
    "street": "２丁目１３−１１",
    "office_name": "株式会社　ディスコ　本社",
    "office_name_kana": "カブシキガイシヤ デイスコ ホンシヤ"
  },
  "8585": {
    "postcode": "1438585",
    "prefecture": "東京都",
    "prefecture_kana": "トウキョウト",
    "prefecture_code": 13,
    "city": "大田区",
    "city_kana": "オオタク",
    "town": "大森北",
    "town_kana": "オオモリキタ",
    "street": "１−１８−８ＮＴＴ大森ビル２階",
    "office_name": "株式会社　ＮＴＴ東日本−東京　営業部業務推進部門　公衆電話サービスセンタテレカ充当担当",
    "office_name_kana": "カブシキガイシヤ エヌテイテイヒガシニホン-トウキヨウ エイギヨウブギヨウムスイシンブモン コウシユウデンワサ-ビスセンタテレカジユウトウタントウ"
  }
}