{
  "0061": {
    "postcode": "1570061",
    "prefecture": "東京都",
    "prefecture_kana": "トウキョウト",
    "prefecture_code": 13,
    "city": "世田谷区",
    "city_kana": "セタガヤク",
    "town": "北烏山",
    "town_kana": "キタカラスヤマ",
    "street": null,
    "office_name": null,
    "office_name_kana": null
  },
  "0062": {
    "postcode": "1570062",
    "prefecture": "東京都",
    "prefecture_kana": "トウキョウト",
    "prefecture_code": 13,
    "city": "世田谷区",
    "city_kana": "セタガヤク",
    "town": "南烏山",
    "town_kana": "ミナミカラスヤマ",
    "street": null,
    "office_name": null,
    "office_name_kana": null
  },
  "0063": {
    "postcode": "1570063",
    "prefecture": "東京都",
    "prefecture_kana": "トウキョウト",
    "prefecture_code": 13,
    "city": "世田谷区",
    "city_kana": "セタガヤク",
    "town": "粕谷",
    "town_kana": "カスヤ",
    "street": null,
    "office_name": null,
    "office_name_kana": null
  },
  "0064": {
    "postcode": "1570064",
    "prefecture": "東京都",
    "prefecture_kana": "トウキョウト",
    "prefecture_code": 13,
    "city": "世田谷区",
    "city_kana": "セタガヤク",
    "town": "給田",
    "town_kana": "キュウデン",
    "street": null,
    "office_name": null,
    "office_name_kana": null
  },
  "0065": {
    "postcode": "1570065",
    "prefecture": "東京都",
    "prefecture_kana": "トウキョウト",
    "prefecture_code": 13,
    "city": "世田谷区",
    "city_kana": "セタガヤク",
    "town": "上祖師谷",
    "town_kana": "カミソシガヤ",
    "street": null,
    "office_name": null,
    "office_name_kana": null
  },
  "0066": {
    "postcode": "1570066",
    "prefecture": "東京都",
    "prefecture_kana": "トウキョウト",
    "prefecture_code": 13,
    "city": "世田谷区",
    "city_kana": "セタガヤク",
    "town": "成城",
    "town_kana": "セイジョウ",
    "street": null,
    "office_name": null,
    "office_name_kana": null
  },
  "0067": {
    "postcode": "1570067",
    "prefecture": "東京都",
    "prefecture_kana": "トウキョウト",
    "prefecture_code": 13,
    "city": "世田谷区",
    "city_kana": "セタガヤク",
    "town": "喜多見",
    "town_kana": "キタミ",
    "street": null,
    "office_name": null,
    "office_name_kana": null
  },
  "0068": {
    "postcode": "1570068",
    "prefecture": "東京都",
    "prefecture_kana": "トウキョウト",
    "prefecture_code": 13,
    "city": "世田谷区",
    "city_kana": "セタガヤク",
    "town": "宇奈根",
    "town_kana": "ウナネ",
    "street": null,
    "office_name": null,
    "office_name_kana": null
  },
  "0071": {
    "postcode": "1570071",
    "prefecture": "東京都",
    "prefecture_kana": "トウキョウト",
    "prefecture_code": 13,
    "city": "世田谷区",
    "city_kana": "セタガヤク",
    "town": "千歳台",
    "town_kana": "チトセダイ",
    "street": null,
    "office_name": null,
    "office_name_kana": null
  },
  "0072": {
    "postcode": "1570072",
    "prefecture": "東京都",
    "prefecture_kana": "トウキョウト",
    "prefecture_code": 13,
    "city": "世田谷区",
    "city_kana": "セタガヤク",
    "town": "祖師谷",
    "town_kana": "ソシガヤ",
    "street": null,
    "office_name": null,
    "office_name_kana": null
  },
  "0073": {
    "postcode": "1570073",
    "prefecture": "東京都",
    "prefecture_kana": "トウキョウト",
    "prefecture_code": 13,
    "city": "世田谷区",
    "city_kana": "セタガヤク",
    "town": "砧",
    "town_kana": "キヌタ",
    "street": null,
    "office_name": null,
    "office_name_kana": null
  },
  "0074": {
    "postcode": "1570074",
    "prefecture": "東京都",
    "prefecture_kana": "トウキョウト",
    "prefecture_code": 13,
    "city": "世田谷区",
    "city_kana": "セタガヤク",
    "town": "大蔵",
    "town_kana": "オオクラ",
    "street": null,
    "office_name": null,
    "office_name_kana": null
  },
  "0075": {
    "postcode": "1570075",
    "prefecture": "東京都",
    "prefecture_kana": "トウキョウト",
    "prefecture_code": 13,
    "city": "世田谷区",
    "city_kana": "セタガヤク",
    "town": "砧公園",
    "town_kana": "キヌタコウエン",
    "street": null,
    "office_name": null,
    "office_name_kana": null
  },
  "0076": {
    "postcode": "1570076",
    "prefecture": "東京都",
    "prefecture_kana": "トウキョウト",
    "prefecture_code": 13,
    "city": "世田谷区",
    "city_kana": "セタガヤク",
    "town": "岡本",
    "town_kana": "オカモト",
    "street": null,
    "office_name": null,
    "office_name_kana": null
  },
  "0077": {
    "postcode": "1570077",
    "prefecture": "東京都",
    "prefecture_kana": "トウキョウト",
    "prefecture_code": 13,
    "city": "世田谷区",
    "city_kana": "セタガヤク",
    "town": "鎌田",
    "town_kana": "カマタ",
    "street": null,
    "office_name": null,
    "office_name_kana": null
  },
  "8501": {
    "postcode": "1578501",
    "prefecture": "東京都",
    "prefecture_kana": "トウキョウト",
    "prefecture_code": 13,
    "city": "世田谷区",
    "city_kana": "セタガヤク",
    "town": "成城",
    "town_kana": "セイジョウ",
    "street": "６丁目２−１",
    "office_name": "世田谷区　砧総合支所",
    "office_name_kana": "セタガヤク キヌタソウゴウシシヨ"
  },
  "8508": {
    "postcode": "1578508",
    "prefecture": "東京都",
    "prefecture_kana": "トウキョウト",
    "prefecture_code": 13,
    "city": "世田谷区",
    "city_kana": "セタガヤク",
    "town": "成城",
    "town_kana": "セイジョウ",
    "street": "２−８−２０",
    "office_name": "株式会社　八木橋",
    "office_name_kana": "カブシキカイシヤ ヤギハシ"
  },
  "8510": {
    "postcode": "1578510",
    "prefecture": "東京都",
    "prefecture_kana": "トウキョウト",
    "prefecture_code": 13,
    "city": "世田谷区",
    "city_kana": "セタガヤク",
    "town": "砧",
    "town_kana": "キヌタ",
    "street": "１丁目１０−１１",
    "office_name": "日本放送協会　放送技術研究所",
    "office_name_kana": "ニホンホウソウキヨウカイ ホウソウギジユツケンキユウジヨ"
  },
  "8511": {
    "postcode": "1578511",
    "prefecture": "東京都",
    "prefecture_kana": "トウキョウト",
    "prefecture_code": 13,
    "city": "世田谷区",
    "city_kana": "セタガヤク",
    "town": "成城",
    "town_kana": "セイジョウ",
    "street": "６丁目１−２０",
    "office_name": "学校法人　成城学園",
    "office_name_kana": "ガツコウホウジン セイジヨウガクイン"
  },
  "8520": {
    "postcode": "1578520",
    "prefecture": "東京都",
    "prefecture_kana": "トウキョウト",
    "prefecture_code": 13,
    "city": "世田谷区",
    "city_kana": "セタガヤク",
    "town": "砧",
    "town_kana": "キヌタ",
    "street": "１丁目１０−１１",
    "office_name": "財団法人　ＮＨＫ放送研修センター",
    "office_name_kana": "ザイダンホウジン エヌエイチケ-ホウソウケンシユウセンタ-"
  },
  "8521": {
    "postcode": "1578521",
    "prefecture": "東京都",
    "prefecture_kana": "トウキョウト",
    "prefecture_code": 13,
    "city": "世田谷区",
    "city_kana": "セタガヤク",
    "town": "砧",
    "town_kana": "キヌタ",
    "street": "４丁目８−６",
    "office_name": "日本書学舘",
    "office_name_kana": "ニホンシヨガクカン"
  },
  "8522": {
    "postcode": "1578522",
    "prefecture": "東京都",
    "prefecture_kana": "トウキョウト",
    "prefecture_code": 13,
    "city": "世田谷区",
    "city_kana": "セタガヤク",
    "town": "祖師谷",
    "town_kana": "ソシガヤ",
    "street": "３丁目５２−３８",
    "office_name": "学校法人　成城学園　初等学校",
    "office_name_kana": "ガツコウホウジン セイジヨウガクエン シヨトウガツコウ"
  },
  "8530": {
    "postcode": "1578530",
    "prefecture": "東京都",
    "prefecture_kana": "トウキョウト",
    "prefecture_code": 13,
    "city": "世田谷区",
    "city_kana": "セタガヤク",
    "town": "砧",
    "town_kana": "キヌタ",
    "street": "１−１０−１１",
    "office_name": "ＮＨＫ　東京事務センター",
    "office_name_kana": "エヌエイチケイ トウキヨウジムセンタ-"
  },
  "8535": {
    "postcode": "1578535",
    "prefecture": "東京都",
    "prefecture_kana": "トウキョウト",
    "prefecture_code": 13,
    "city": "世田谷区",
    "city_kana": "セタガヤク",
    "town": "大蔵",
    "town_kana": "オオクラ",
    "street": "２丁目１０−１",
    "office_name": "国立　成育医療センター",
    "office_name_kana": "コクリツ セイイクイリヨウセンタ-"
  },
  "8543": {
    "postcode": "1578543",
    "prefecture": "東京都",
    "prefecture_kana": "トウキョウト",
    "prefecture_code": 13,
    "city": "世田谷区",
    "city_kana": "セタガヤク",
    "town": "成城",
    "town_kana": "セイジョウ",
    "street": "５−１６−２１",
    "office_name": "株式会社　ティ・ヴイクラブ",
    "office_name_kana": "カブシキガイシヤ テイ・ヴイクラブ"
  },
  "8550": {
    "postcode": "1578550",
    "prefecture": "東京都",
    "prefecture_kana": "トウキョウト",
    "prefecture_code": 13,
    "city": "世田谷区",
    "city_kana": "セタガヤク",
    "town": "上祖師谷",
    "town_kana": "カミソシガヤ",
    "street": "５丁目１９−１",
    "office_name": "（社）　至誠会　第二病院",
    "office_name_kana": "シヤダンホウジン イクセイカイ ダイニビヨウイン"
  },
  "8561": {
    "postcode": "1578561",
    "prefecture": "東京都",
    "prefecture_kana": "トウキョウト",
    "prefecture_code": 13,
    "city": "世田谷区",
    "city_kana": "セタガヤク",
    "town": "成城",
    "town_kana": "セイジョウ",
    "street": "１丁目４−１",
    "office_name": "東宝　（株）　東宝スタジオ",
    "office_name_kana": "トウホウ カブシキカイシヤ トウホウスタジオ"
  },
  "8562": {
    "postcode": "1578562",
    "prefecture": "東京都",
    "prefecture_kana": "トウキョウト",
    "prefecture_code": 13,
    "city": "世田谷区",
    "city_kana": "セタガヤク",
    "town": "成城",
    "town_kana": "セイジョウ",
    "street": "１丁目１１−１",
    "office_name": "学校法人　科学技術学園",
    "office_name_kana": "ガツコウホウジン カガクギジユツガクエン"
  },
  "8563": {
    "postcode": "1578563",
    "prefecture": "東京都",
    "prefecture_kana": "トウキョウト",
    "prefecture_code": 13,
    "city": "世田谷区",
    "city_kana": "セタガヤク",
    "town": "粕谷",
    "town_kana": "カスヤ",
    "street": "１丁目１２−１２",
    "office_name": "株式会社　ジャパンハウス",
    "office_name_kana": "カブシキガイシヤ ジヤパンハウス"
  },
  "8565": {
    "postcode": "1578565",
    "prefecture": "東京都",
    "prefecture_kana": "トウキョウト",
    "prefecture_code": 13,
    "city": "世田谷区",
    "city_kana": "セタガヤク",
    "town": "北烏山",
    "town_kana": "キタカラスヤマ",
    "street": "８丁目１９−１",
    "office_name": "学校法人　二階堂学園",
    "office_name_kana": "ガツコウホウジン ニカイドウガクエン"
  },
  "8566": {
    "postcode": "1578566",
    "prefecture": "東京都",
    "prefecture_kana": "トウキョウト",
    "prefecture_code": 13,
    "city": "世田谷区",
    "city_kana": "セタガヤク",
    "town": "成城",
    "town_kana": "セイジョウ",
    "street": "８丁目２２−１",
    "office_name": "サクラビア成城　（株）　プライムステージ",
    "office_name_kana": "サクラビアセイジヨウ カブシキカイシヤ プライムステ-ジ"
  },
  "8567": {
    "postcode": "1578567",
    "prefecture": "東京都",
    "prefecture_kana": "トウキョウト",
    "prefecture_code": 13,
    "city": "世田谷区",
    "city_kana": "セタガヤク",
    "town": "南烏山",
    "town_kana": "ミナミカラスヤマ",
    "street": "１丁目１０−２２",
    "office_name": "（株）　ウテナ",
    "office_name_kana": "カブシキカイシヤ ウテナ"
  },
  "8570": {
    "postcode": "1578570",
    "prefecture": "東京都",
    "prefecture_kana": "トウキョウト",
    "prefecture_code": 13,
    "city": "世田谷区",
    "city_kana": "セタガヤク",
    "town": "砧",
    "town_kana": "キヌタ",
    "street": "５丁目２−１",
    "office_name": "日本大学　商学部",
    "office_name_kana": "ニホンダイガク シヨウガクブ"
  },
  "8573": {
    "postcode": "1578573",
    "prefecture": "東京都",
    "prefecture_kana": "トウキョウト",
    "prefecture_code": 13,
    "city": "世田谷区",
    "city_kana": "セタガヤク",
    "town": "砧",
    "town_kana": "キヌタ",
    "street": "１丁目２１−２５",
    "office_name": "財団法人　日本品質保証機構",
    "office_name_kana": "ザイダンホウジン ニホンヒンシツホシヨウキコウ"
  },
  "8575": {
    "postcode": "1578575",
    "prefecture": "東京都",
    "prefecture_kana": "トウキョウト",
    "prefecture_code": 13,
    "city": "世田谷区",
    "city_kana": "セタガヤク",
    "town": "砧",
    "town_kana": "キヌタ",
    "street": "３丁目９−１１",
    "office_name": "（社）　友愛十字会",
    "office_name_kana": "シヤカイフクシホウジン ユウアイジユウジカイ"
  },
  "8577": {
    "postcode": "1578577",
    "prefecture": "東京都",
    "prefecture_kana": "トウキョウト",
    "prefecture_code": 13,
    "city": "世田谷区",
    "city_kana": "セタガヤク",
    "town": "北烏山",
    "town_kana": "キタカラスヤマ",
    "street": "６−１１−１１",
    "office_name": "昭和大学附属烏山病院",
    "office_name_kana": "シヨウワダイガクフゾクカラスヤマビヨウイン"
  }
}