{
  "0081": {
    "postcode": "1580081",
    "prefecture": "東京都",
    "prefecture_kana": "トウキョウト",
    "prefecture_code": 13,
    "city": "世田谷区",
    "city_kana": "セタガヤク",
    "town": "深沢",
    "town_kana": "フカサワ",
    "street": null,
    "office_name": null,
    "office_name_kana": null
  },
  "0082": {
    "postcode": "1580082",
    "prefecture": "東京都",
    "prefecture_kana": "トウキョウト",
    "prefecture_code": 13,
    "city": "世田谷区",
    "city_kana": "セタガヤク",
    "town": "等々力",
    "town_kana": "トドロキ",
    "street": null,
    "office_name": null,
    "office_name_kana": null
  },
  "0083": {
    "postcode": "1580083",
    "prefecture": "東京都",
    "prefecture_kana": "トウキョウト",
    "prefecture_code": 13,
    "city": "世田谷区",
    "city_kana": "セタガヤク",
    "town": "奥沢",
    "town_kana": "オクサワ",
    "street": null,
    "office_name": null,
    "office_name_kana": null
  },
  "0084": {
    "postcode": "1580084",
    "prefecture": "東京都",
    "prefecture_kana": "トウキョウト",
    "prefecture_code": 13,
    "city": "世田谷区",
    "city_kana": "セタガヤク",
    "town": "東玉川",
    "town_kana": "ヒガシタマガワ",
    "street": null,
    "office_name": null,
    "office_name_kana": null
  },
  "0085": {
    "postcode": "1580085",
    "prefecture": "東京都",
    "prefecture_kana": "トウキョウト",
    "prefecture_code": 13,
    "city": "世田谷区",
    "city_kana": "セタガヤク",
    "town": "玉川田園調布",
    "town_kana": "タマガワデンエンチョウフ",
    "street": null,
    "office_name": null,
    "office_name_kana": null
  },
  "0086": {
    "postcode": "1580086",
    "prefecture": "東京都",
    "prefecture_kana": "トウキョウト",
    "prefecture_code": 13,
    "city": "世田谷区",
    "city_kana": "セタガヤク",
    "town": "尾山台",
    "town_kana": "オヤマダイ",
    "street": null,
    "office_name": null,
    "office_name_kana": null
  },
  "0087": {
    "postcode": "1580087",
    "prefecture": "東京都",
    "prefecture_kana": "トウキョウト",
    "prefecture_code": 13,
    "city": "世田谷区",
    "city_kana": "セタガヤク",
    "town": "玉堤",
    "town_kana": "タマヅツミ",
    "street": null,
    "office_name": null,
    "office_name_kana": null
  },
  "0091": {
    "postcode": "1580091",
    "prefecture": "東京都",
    "prefecture_kana": "トウキョウト",
    "prefecture_code": 13,
    "city": "世田谷区",
    "city_kana": "セタガヤク",
    "town": "中町",
    "town_kana": "ナカマチ",
    "street": null,
    "office_name": null,
    "office_name_kana": null
  },
  "0092": {
    "postcode": "1580092",
    "prefecture": "東京都",
    "prefecture_kana": "トウキョウト",
    "prefecture_code": 13,
    "city": "世田谷区",
    "city_kana": "セタガヤク",
    "town": "野毛",
    "town_kana": "ノゲ",
    "street": null,
    "office_name": null,
    "office_name_kana": null
  },
  "0093": {
    "postcode": "1580093",
    "prefecture": "東京都",
    "prefecture_kana": "トウキョウト",
    "prefecture_code": 13,
    "city": "世田谷区",
    "city_kana": "セタガヤク",
    "town": "上野毛",
    "town_kana": "カミノゲ",
    "street": null,
    "office_name": null,
    "office_name_kana": null
  },
  "0094": {
    "postcode": "1580094",
    "prefecture": "東京都",
    "prefecture_kana": "トウキョウト",
    "prefecture_code": 13,
    "city": "世田谷区",
    "city_kana": "セタガヤク",
    "town": "玉川",
    "town_kana": "タマガワ",
    "street": null,
    "office_name": null,
    "office_name_kana": null
  },
  "0095": {
    "postcode": "1580095",
    "prefecture": "東京都",
    "prefecture_kana": "トウキョウト",
    "prefecture_code": 13,
    "city": "世田谷区",
    "city_kana": "セタガヤク",
    "town": "瀬田",
    "town_kana": "セタ",
    "street": null,
    "office_name": null,
    "office_name_kana": null
  },
  "0096": {
    "postcode": "1580096",
    "prefecture": "東京都",
    "prefecture_kana": "トウキョウト",
    "prefecture_code": 13,
    "city": "世田谷区",
    "city_kana": "セタガヤク",
    "town": "玉川台",
    "town_kana": "タマガワダイ",
    "street": null,
    "office_name": null,
    "office_name_kana": null
  },
  "0097": {
    "postcode": "1580097",
    "prefecture": "東京都",
    "prefecture_kana": "トウキョウト",
    "prefecture_code": 13,
    "city": "世田谷区",
    "city_kana": "セタガヤク",
    "town": "用賀",
    "town_kana": "ヨウガ",
    "street": null,
    "office_name": null,
    "office_name_kana": null
  },
  "0098": {
    "postcode": "1580098",
    "prefecture": "東京都",
    "prefecture_kana": "トウキョウト",
    "prefecture_code": 13,
    "city": "世田谷区",
    "city_kana": "セタガヤク",
    "town": "上用賀",
    "town_kana": "カミヨウガ",
    "street": null,
    "office_name": null,
    "office_name_kana": null
  },
  "8501": {
    "postcode": "1588501",
    "prefecture": "東京都",
    "prefecture_kana": "トウキョウト",
    "prefecture_code": 13,
    "city": "世田谷区",
    "city_kana": "セタガヤク",
    "town": "上用賀",
    "town_kana": "カミヨウガ",
    "street": "１丁目１８−１",
    "office_name": "国立医薬品食品衛生研究所",
    "office_name_kana": "コクリツイヤクヒンシヨクヒンエイセイケンキユウシヨ"
  },
  "8502": {
    "postcode": "1588502",
    "prefecture": "東京都",
    "prefecture_kana": "トウキョウト",
    "prefecture_code": 13,
    "city": "世田谷区",
    "city_kana": "セタガヤク",
    "town": "玉川",
    "town_kana": "タマガワ",
    "street": "３丁目１７−１",
    "office_name": "東神開発　株式会社",
    "office_name_kana": "トウシンカイハツ カブシキガイシヤ"
  },
  "8503": {
    "postcode": "1588503",
    "prefecture": "東京都",
    "prefecture_kana": "トウキョウト",
    "prefecture_code": 13,
    "city": "世田谷区",
    "city_kana": "セタガヤク",
    "town": "等々力",
    "town_kana": "トドロキ",
    "street": "３−４−１",
    "office_name": "玉川総合支所",
    "office_name_kana": "タマガワソウゴウシシヨ"
  },
  "8505": {
    "postcode": "1588505",
    "prefecture": "東京都",
    "prefecture_kana": "トウキョウト",
    "prefecture_code": 13,
    "city": "世田谷区",
    "city_kana": "セタガヤク",
    "town": "尾山台",
    "town_kana": "オヤマダイ",
    "street": "３丁目７−２",
    "office_name": "ジャガージャパン　株式会社",
    "office_name_kana": "ジヤガ-ジヤパン カブシキガイシヤ"
  },
  "8508": {
    "postcode": "1588508",
    "prefecture": "東京都",
    "prefecture_kana": "トウキョウト",
    "prefecture_code": 13,
    "city": "世田谷区",
    "city_kana": "セタガヤク",
    "town": "深沢",
    "town_kana": "フカサワ",
    "street": "７丁目１−１",
    "office_name": "日本体育大学",
    "office_name_kana": "ニホンタイイクダイガク"
  },
  "8509": {
    "postcode": "1588509",
    "prefecture": "東京都",
    "prefecture_kana": "トウキョウト",
    "prefecture_code": 13,
    "city": "世田谷区",
    "city_kana": "セタガヤク",
    "town": "用賀",
    "town_kana": "ヨウガ",
    "street": "４丁目１０−１",
    "office_name": "株式会社　東急コミュニティー",
    "office_name_kana": "カブシキガイシヤ トウキユウコミユニテイ-"
  },
  "8510": {
    "postcode": "1588510",
    "prefecture": "東京都",
    "prefecture_kana": "トウキョウト",
    "prefecture_code": 13,
    "city": "世田谷区",
    "city_kana": "セタガヤク",
    "town": "上野毛",
    "town_kana": "カミノゲ",
    "street": "３丁目９−２５",
    "office_name": "（財）　五島美術館",
    "office_name_kana": "ゴトウビジユツカン"
  },
  "8511": {
    "postcode": "1588511",
    "prefecture": "東京都",
    "prefecture_kana": "トウキョウト",
    "prefecture_code": 13,
    "city": "世田谷区",
    "city_kana": "セタガヤク",
    "town": "玉川田園調布",
    "town_kana": "タマガワデンエンチョウフ",
    "street": "１丁目２０−９",
    "office_name": "学校法人　田園調布雙葉学園",
    "office_name_kana": "ガツコウホウジン デンエンチヨウフフタバガクエン"
  },
  "8512": {
    "postcode": "1588512",
    "prefecture": "東京都",
    "prefecture_kana": "トウキョウト",
    "prefecture_code": 13,
    "city": "世田谷区",
    "city_kana": "セタガヤク",
    "town": "東玉川",
    "town_kana": "ヒガシタマガワ",
    "street": "２丁目２１−８",
    "office_name": "学校法人　調布学園",
    "office_name_kana": "ガツコウホウジン チヨウフガクエン"
  },
  "8513": {
    "postcode": "1588513",
    "prefecture": "東京都",
    "prefecture_kana": "トウキョウト",
    "prefecture_code": 13,
    "city": "世田谷区",
    "city_kana": "セタガヤク",
    "town": "東玉川",
    "town_kana": "ヒガシタマガワ",
    "street": "２丁目６−７",
    "office_name": "昭栄電気工具　株式会社",
    "office_name_kana": "シヨウエイデンキコウグ カブシキガイシヤ"
  },
  "8514": {
    "postcode": "1588514",
    "prefecture": "東京都",
    "prefecture_kana": "トウキョウト",
    "prefecture_code": 13,
    "city": "世田谷区",
    "city_kana": "セタガヤク",
    "town": "用賀",
    "town_kana": "ヨウガ",
    "street": "４丁目５−１６ＴＥビル５Ｆ",
    "office_name": "石橋刷子製造　株式会社",
    "office_name_kana": "イシバシブラシセイゾウ カブシキガイシヤ"
  },
  "8518": {
    "postcode": "1588518",
    "prefecture": "東京都",
    "prefecture_kana": "トウキョウト",
    "prefecture_code": 13,
    "city": "世田谷区",
    "city_kana": "セタガヤク",
    "town": "玉川",
    "town_kana": "タマガワ",
    "street": "３丁目１４−５",
    "office_name": "新日本気象海洋　株式会社",
    "office_name_kana": "シンニホンキシヨウカイヨウ カブシキガイシヤ"
  },
  "8520": {
    "postcode": "1588520",
    "prefecture": "東京都",
    "prefecture_kana": "トウキョウト",
    "prefecture_code": 13,
    "city": "世田谷区",
    "city_kana": "セタガヤク",
    "town": "用賀",
    "town_kana": "ヨウガ",
    "street": "２丁目１９−７",
    "office_name": "株式会社　ジャレコ",
    "office_name_kana": "カブシキガイシヤ ジヤレコ"
  },
  "8522": {
    "postcode": "1588522",
    "prefecture": "東京都",
    "prefecture_kana": "トウキョウト",
    "prefecture_code": 13,
    "city": "世田谷区",
    "city_kana": "セタガヤク",
    "town": "用賀",
    "town_kana": "ヨウガ",
    "street": "２丁目３８−１２",
    "office_name": "株式会社　アサヒ安全業務社",
    "office_name_kana": "カブシキガイシヤ アサヒアンゼンギヨウムシヤ"
  },
  "8523": {
    "postcode": "1588523",
    "prefecture": "東京都",
    "prefecture_kana": "トウキョウト",
    "prefecture_code": 13,
    "city": "世田谷区",
    "city_kana": "セタガヤク",
    "town": "上用賀",
    "town_kana": "カミヨウガ",
    "street": "２丁目１２−１７",
    "office_name": "日本中央競馬会　馬事公苑",
    "office_name_kana": "ニホンチユウオウケイバカイ バジコウエン"
  },
  "8525": {
    "postcode": "1588525",
    "prefecture": "東京都",
    "prefecture_kana": "トウキョウト",
    "prefecture_code": 13,
    "city": "世田谷区",
    "city_kana": "セタガヤク",
    "town": "用賀",
    "town_kana": "ヨウガ",
    "street": "２丁目３２−４",
    "office_name": "明星電気　株式会社",
    "office_name_kana": "メイセイデンキ カブシキガイシヤ"
  },
  "8531": {
    "postcode": "1588531",
    "prefecture": "東京都",
    "prefecture_kana": "トウキョウト",
    "prefecture_code": 13,
    "city": "世田谷区",
    "city_kana": "セタガヤク",
    "town": "上用賀",
    "town_kana": "カミヨウガ",
    "street": "６丁目２５−１",
    "office_name": "公立学校共済組合　関東中央病院",
    "office_name_kana": "コウリツガツコウキヨウサイクミアイ カントウチユウオウビヨウイン"
  },
  "8533": {
    "postcode": "1588533",
    "prefecture": "東京都",
    "prefecture_kana": "トウキョウト",
    "prefecture_code": 13,
    "city": "世田谷区",
    "city_kana": "セタガヤク",
    "town": "上野毛",
    "town_kana": "カミノゲ",
    "street": "１丁目７−１１",
    "office_name": "シンコー　株式会社",
    "office_name_kana": "シンコ- カブシキガイシヤ"
  },
  "8534": {
    "postcode": "1588534",
    "prefecture": "東京都",
    "prefecture_kana": "トウキョウト",
    "prefecture_code": 13,
    "city": "世田谷区",
    "city_kana": "セタガヤク",
    "town": "用賀",
    "town_kana": "ヨウガ",
    "street": "４−１０−１世田谷ビジネススクエアタワー",
    "office_name": "東急カード　株式会社",
    "office_name_kana": "トウキユウカ-ド カブシキガイシヤ"
  },
  "8539": {
    "postcode": "1588539",
    "prefecture": "東京都",
    "prefecture_kana": "トウキョウト",
    "prefecture_code": 13,
    "city": "世田谷区",
    "city_kana": "セタガヤク",
    "town": "用賀",
    "town_kana": "ヨウガ",
    "street": "４−１０−２世田谷ビジネススクエア・ヒルズ１（３階・４階）",
    "office_name": "東急ファシリティサービス　株式会社",
    "office_name_kana": "トウキユウフアシリテイサ-ビス カブシキカイシヤ"
  },
  "8543": {
    "postcode": "1588543",
    "prefecture": "東京都",
    "prefecture_kana": "トウキョウト",
    "prefecture_code": 13,
    "city": "世田谷区",
    "city_kana": "セタガヤク",
    "town": "等々力",
    "town_kana": "トドロキ",
    "street": "６丁目１６−９",
    "office_name": "岡谷電機産業　株式会社",
    "office_name_kana": "オカヤデンキサンギヨウ カブシキガイシヤ"
  },
  "8544": {
    "postcode": "1588544",
    "prefecture": "東京都",
    "prefecture_kana": "トウキョウト",
    "prefecture_code": 13,
    "city": "世田谷区",
    "city_kana": "セタガヤク",
    "town": "中町",
    "town_kana": "ナカマチ",
    "street": "４丁目３５−１５",
    "office_name": "愛国産業　株式会社",
    "office_name_kana": "アイコクサンギヨウ カブシキガイシヤ"
  },
  "8549": {
    "postcode": "1588549",
    "prefecture": "東京都",
    "prefecture_kana": "トウキョウト",
    "prefecture_code": 13,
    "city": "世田谷区",
    "city_kana": "セタガヤク",
    "town": "用賀",
    "town_kana": "ヨウガ",
    "street": "２丁目３１−７イイダアネックス１２Ｆ",
    "office_name": "株式会社　サクラス",
    "office_name_kana": "カブシキガイシヤ サクラス"
  },
  "8550": {
    "postcode": "1588550",
    "prefecture": "東京都",
    "prefecture_kana": "トウキョウト",
    "prefecture_code": 13,
    "city": "世田谷区",
    "city_kana": "セタガヤク",
    "town": "用賀",
    "town_kana": "ヨウガ",
    "street": "４丁目１０−１",
    "office_name": "日本ジョンソン・アンド・ヒギンズ　株式会社",
    "office_name_kana": "ニホンジヨンソン.アンド.ヒギンズ カブシキガイシヤ"
  },
  "8551": {
    "postcode": "1588551",
    "prefecture": "東京都",
    "prefecture_kana": "トウキョウト",
    "prefecture_code": 13,
    "city": "世田谷区",
    "city_kana": "セタガヤク",
    "town": "上野毛",
    "town_kana": "カミノゲ",
    "street": "４丁目３５−１０",
    "office_name": "株式会社　本間ゴルフ",
    "office_name_kana": "カブシキガイシヤ ホンマゴルフ"
  },
  "8552": {
    "postcode": "1588552",
    "prefecture": "東京都",
    "prefecture_kana": "トウキョウト",
    "prefecture_code": 13,
    "city": "世田谷区",
    "city_kana": "セタガヤク",
    "town": "深沢",
    "town_kana": "フカサワ",
    "street": "５丁目１３−１０",
    "office_name": "長谷川病院",
    "office_name_kana": "ハセガワビヨウイン"
  },
  "8557": {
    "postcode": "1588557",
    "prefecture": "東京都",
    "prefecture_kana": "トウキョウト",
    "prefecture_code": 13,
    "city": "世田谷区",
    "city_kana": "セタガヤク",
    "town": "玉堤",
    "town_kana": "タマヅツミ",
    "street": "１丁目２８−１",
    "office_name": "東京都市大学",
    "office_name_kana": "トウキヨウトシダイガク"
  },
  "8558": {
    "postcode": "1588558",
    "prefecture": "東京都",
    "prefecture_kana": "トウキョウト",
    "prefecture_code": 13,
    "city": "世田谷区",
    "city_kana": "セタガヤク",
    "town": "上野毛",
    "town_kana": "カミノゲ",
    "street": "３丁目１５−３４",
    "office_name": "学校法人　多摩美術大学",
    "office_name_kana": "ガツコウホウジン タマビジユツダイガク"
  },
  "8561": {
    "postcode": "1588561",
    "prefecture": "東京都",
    "prefecture_kana": "トウキョウト",
    "prefecture_code": 13,
    "city": "世田谷区",
    "city_kana": "セタガヤク",
    "town": "用賀",
    "town_kana": "ヨウガ",
    "street": "４丁目１０番１号世田谷ビジネススクエア２０階〜２１階",
    "office_name": "世田谷税務署",
    "office_name_kana": "セタガヤゼイムシヨ"
  },
  "8566": {
    "postcode": "1588566",
    "prefecture": "東京都",
    "prefecture_kana": "トウキョウト",
    "prefecture_code": 13,
    "city": "世田谷区",
    "city_kana": "セタガヤク",
    "town": "深沢",
    "town_kana": "フカサワ",
    "street": "５丁目３８−１",
    "office_name": "東京都立園芸高等学校",
    "office_name_kana": "トウキヨウトリツエンゲイコウトウガツコウ"
  },
  "8567": {
    "postcode": "1588567",
    "prefecture": "東京都",
    "prefecture_kana": "トウキョウト",
    "prefecture_code": 13,
    "city": "世田谷区",
    "city_kana": "セタガヤク",
    "town": "用賀",
    "town_kana": "ヨウガ",
    "street": "２丁目２６−４",
    "office_name": "株式会社　レアーズ",
    "office_name_kana": "カブシキガイシヤ レア-ズ"
  },
  "8575": {
    "postcode": "1588575",
    "prefecture": "東京都",
    "prefecture_kana": "トウキョウト",
    "prefecture_code": 13,
    "city": "世田谷区",
    "city_kana": "セタガヤク",
    "town": "玉川",
    "town_kana": "タマガワ",
    "street": "２−２１−１",
    "office_name": "株式会社　サンエー・インターナショナル",
    "office_name_kana": "カブシキガイシヤ サンエ-・インタ-ナシヨナル"
  },
  "8577": {
    "postcode": "1588577",
    "prefecture": "東京都",
    "prefecture_kana": "トウキョウト",
    "prefecture_code": 13,
    "city": "世田谷区",
    "city_kana": "セタガヤク",
    "town": "上用賀",
    "town_kana": "カミヨウガ",
    "street": "１丁目１７−１２",
    "office_name": "学校法人　駒澤大学高等学校",
    "office_name_kana": "ガツコウホウジン コマザワダイガクコウトウガツコウ"
  },
  "8578": {
    "postcode": "1588578",
    "prefecture": "東京都",
    "prefecture_kana": "トウキョウト",
    "prefecture_code": 13,
    "city": "世田谷区",
    "city_kana": "セタガヤク",
    "town": "用賀",
    "town_kana": "ヨウガ",
    "street": "２丁目２８−９",
    "office_name": "株式会社　オリーブ情報システム",
    "office_name_kana": "カブシキガイシヤ オリ-ブジヨウホウシステム"
  },
  "8580": {
    "postcode": "1588580",
    "prefecture": "東京都",
    "prefecture_kana": "トウキョウト",
    "prefecture_code": 13,
    "city": "世田谷区",
    "city_kana": "セタガヤク",
    "town": "用賀",
    "town_kana": "ヨウガ",
    "street": "４丁目５−１６ＴＥビル７Ｆ",
    "office_name": "東京外かく環状道路調査事務所",
    "office_name_kana": "トウキヨウガイカクカンジヨウドウロチヨウサジムシヨ"
  },
  "8585": {
    "postcode": "1588585",
    "prefecture": "東京都",
    "prefecture_kana": "トウキョウト",
    "prefecture_code": 13,
    "city": "世田谷区",
    "city_kana": "セタガヤク",
    "town": "中町",
    "town_kana": "ナカマチ",
    "street": "４丁目２−５",
    "office_name": "医療法人　社団和乃会小倉病院",
    "office_name_kana": "イリヨウホウジン シヤダンワノカイオグラビヨウイン"
  },
  "8586": {
    "postcode": "1588586",
    "prefecture": "東京都",
    "prefecture_kana": "トウキョウト",
    "prefecture_code": 13,
    "city": "世田谷区",
    "city_kana": "セタガヤク",
    "town": "等々力",
    "town_kana": "トドロキ",
    "street": "８丁目９番１８号",
    "office_name": "東京都市大学　等々力キャンパス",
    "office_name_kana": "トウキヨウトシダイガク トドロキキヤンパス"
  },
  "8588": {
    "postcode": "1588588",
    "prefecture": "東京都",
    "prefecture_kana": "トウキョウト",
    "prefecture_code": 13,
    "city": "世田谷区",
    "city_kana": "セタガヤク",
    "town": "尾山台",
    "town_kana": "オヤマダイ",
    "street": "３丁目７−５",
    "office_name": "ファーレン東京　株式会社",
    "office_name_kana": "フア-レントウキヨウ カブシキガイシヤ"
  },
  "8601": {
    "postcode": "1588601",
    "prefecture": "東京都",
    "prefecture_kana": "トウキョウト",
    "prefecture_code": 13,
    "city": "世田谷区",
    "city_kana": "セタガヤク",
    "town": "玉川",
    "town_kana": "タマガワ",
    "street": "２丁目１−７",
    "office_name": "玉川税務署",
    "office_name_kana": "タマガワゼイムシヨ"
  },
  "8602": {
    "postcode": "1588602",
    "prefecture": "東京都",
    "prefecture_kana": "トウキョウト",
    "prefecture_code": 13,
    "city": "世田谷区",
    "city_kana": "セタガヤク",
    "town": "東玉川",
    "town_kana": "ヒガシタマガワ",
    "street": "２丁目３７−１１",
    "office_name": "株式会社　銀座マギー",
    "office_name_kana": "カブシキガイシヤ ギンザマギ-"
  },
  "8610": {
    "postcode": "1588610",
    "prefecture": "東京都",
    "prefecture_kana": "トウキョウト",
    "prefecture_code": 13,
    "city": "世田谷区",
    "city_kana": "セタガヤク",
    "town": "玉川台",
    "town_kana": "タマガワダイ",
    "street": "２丁目１４−９",
    "office_name": "京セラミタ　株式会社　東京Ｒ＆Ｄセンター",
    "office_name_kana": "キヨウセラミタ カブシキガイシヤ トウキヨウア-ルアンドデイ-センタ-"
  },
  "8615": {
    "postcode": "1588615",
    "prefecture": "東京都",
    "prefecture_kana": "トウキョウト",
    "prefecture_code": 13,
    "city": "世田谷区",
    "city_kana": "セタガヤク",
    "town": "用賀",
    "town_kana": "ヨウガ",
    "street": "４丁目１０番２号",
    "office_name": "タイコヘルスケアジャパン　株式会社",
    "office_name_kana": "タイコヘルスケアジヤパン カブシキガイシヤ"
  },
  "8622": {
    "postcode": "1588622",
    "prefecture": "東京都",
    "prefecture_kana": "トウキョウト",
    "prefecture_code": 13,
    "city": "世田谷区",
    "city_kana": "セタガヤク",
    "town": "玉川",
    "town_kana": "タマガワ",
    "street": "１−２０−１",
    "office_name": "東京都世田谷都税事務所",
    "office_name_kana": "トウキヨウトセタガヤトゼイジムシヨ"
  },
  "8628": {
    "postcode": "1588628",
    "prefecture": "東京都",
    "prefecture_kana": "トウキョウト",
    "prefecture_code": 13,
    "city": "世田谷区",
    "city_kana": "セタガヤク",
    "town": "用賀",
    "town_kana": "ヨウガ",
    "street": "４丁目３２−２５",
    "office_name": "株式会社　タカラ　東京本社",
    "office_name_kana": "カブシキガイシヤ タカラ トウキヨウホンシヤ"
  },
  "8630": {
    "postcode": "1588630",
    "prefecture": "東京都",
    "prefecture_kana": "トウキョウト",
    "prefecture_code": 13,
    "city": "世田谷区",
    "city_kana": "セタガヤク",
    "town": "等々力",
    "town_kana": "トドロキ",
    "street": "６丁目３９−１５",
    "office_name": "産業能率大学",
    "office_name_kana": "サンギヨウノウリツダイガク"
  },
  "8631": {
    "postcode": "1588631",
    "prefecture": "東京都",
    "prefecture_kana": "トウキョウト",
    "prefecture_code": 13,
    "city": "世田谷区",
    "city_kana": "セタガヤク",
    "town": "等々力",
    "town_kana": "トドロキ",
    "street": "６丁目３９−１５",
    "office_name": "産業能率大学",
    "office_name_kana": "サンギヨウノウリツダイガク"
  },
  "8632": {
    "postcode": "1588632",
    "prefecture": "東京都",
    "prefecture_kana": "トウキョウト",
    "prefecture_code": 13,
    "city": "世田谷区",
    "city_kana": "セタガヤク",
    "town": "等々力",
    "town_kana": "トドロキ",
    "street": "６丁目３９−１５",
    "office_name": "産業能率大学",
    "office_name_kana": "サンギヨウノウリツダイガク"
  },
  "8633": {
    "postcode": "1588633",
    "prefecture": "東京都",
    "prefecture_kana": "トウキョウト",
    "prefecture_code": 13,
    "city": "世田谷区",
    "city_kana": "セタガヤク",
    "town": "用賀",
    "town_kana": "ヨウガ",
    "street": "４−１０−１ＳＢＳタワー",
    "office_name": "日本オラクル　株式会社",
    "office_name_kana": "ニホンオラクル カブシキガイシヤ"
  },
  "8640": {
    "postcode": "1588640",
    "prefecture": "東京都",
    "prefecture_kana": "トウキョウト",
    "prefecture_code": 13,
    "city": "世田谷区",
    "city_kana": "セタガヤク",
    "town": "上用賀",
    "town_kana": "カミヨウガ",
    "street": "５丁目５−１０",
    "office_name": "エディトリアルクリッパー",
    "office_name_kana": "エデイトリアルクリツパ-"
  },
  "8666": {
    "postcode": "1588666",
    "prefecture": "東京都",
    "prefecture_kana": "トウキョウト",
    "prefecture_code": 13,
    "city": "世田谷区",
    "city_kana": "セタガヤク",
    "town": "玉川台",
    "town_kana": "タマガワダイ",
    "street": "２丁目１８−１",
    "office_name": "株式会社　伸商",
    "office_name_kana": "カブシキガイシヤ シンシヨウ"
  },
  "8701": {
    "postcode": "1588701",
    "prefecture": "東京都",
    "prefecture_kana": "トウキョウト",
    "prefecture_code": 13,
    "city": "世田谷区",
    "city_kana": "セタガヤク",
    "town": "玉川",
    "town_kana": "タマガワ",
    "street": "３丁目１７−１（玉川郵便局私書箱第２９号）",
    "office_name": "（株）　高島屋　玉川店",
    "office_name_kana": "カブシキガイシヤ タカシマヤ タマガワテン"
  },
  "8771": {
    "postcode": "1588771",
    "prefecture": "東京都",
    "prefecture_kana": "トウキョウト",
    "prefecture_code": 13,
    "city": "世田谷区",
    "city_kana": "セタガヤク",
    "town": "玉川",
    "town_kana": "タマガワ",
    "street": "２−２１−１二子玉川ライズ７階",
    "office_name": "株式会社　大正オーディット",
    "office_name_kana": "カブシキガイシヤ タイシヨウオ-デイツト"
  }
}