{
  "0031": {
    "postcode": "1610031",
    "prefecture": "東京都",
    "prefecture_kana": "トウキョウト",
    "prefecture_code": 13,
    "city": "新宿区",
    "city_kana": "シンジュクク",
    "town": "西落合",
    "town_kana": "ニシオチアイ",
    "street": null,
    "office_name": null,
    "office_name_kana": null
  },
  "0032": {
    "postcode": "1610032",
    "prefecture": "東京都",
    "prefecture_kana": "トウキョウト",
    "prefecture_code": 13,
    "city": "新宿区",
    "city_kana": "シンジュクク",
    "town": "中落合",
    "town_kana": "ナカオチアイ",
    "street": null,
    "office_name": null,
    "office_name_kana": null
  },
  "0033": {
    "postcode": "1610033",
    "prefecture": "東京都",
    "prefecture_kana": "トウキョウト",
    "prefecture_code": 13,
    "city": "新宿区",
    "city_kana": "シンジュクク",
    "town": "下落合",
    "town_kana": "シモオチアイ",
    "street": null,
    "office_name": null,
    "office_name_kana": null
  },
  "0034": {
    "postcode": "1610034",
    "prefecture": "東京都",
    "prefecture_kana": "トウキョウト",
    "prefecture_code": 13,
    "city": "新宿区",
    "city_kana": "シンジュクク",
    "town": "上落合",
    "town_kana": "カミオチアイ",
    "street": null,
    "office_name": null,
    "office_name_kana": null
  },
  "0035": {
    "postcode": "1610035",
    "prefecture": "東京都",
    "prefecture_kana": "トウキョウト",
    "prefecture_code": 13,
    "city": "新宿区",
    "city_kana": "シンジュクク",
    "town": "中井",
    "town_kana": "ナカイ",
    "street": null,
    "office_name": null,
    "office_name_kana": null
  },
  "8508": {
    "postcode": "1618508",
    "prefecture": "東京都",
    "prefecture_kana": "トウキョウト",
    "prefecture_code": 13,
    "city": "新宿区",
    "city_kana": "シンジュクク",
    "town": "上落合",
    "town_kana": "カミオチアイ",
    "street": "３丁目１０−８",
    "office_name": "株式会社　オーバル",
    "office_name_kana": "カブシキガイシヤ オ-バル"
  },
  "8511": {
    "postcode": "1618511",
    "prefecture": "東京都",
    "prefecture_kana": "トウキョウト",
    "prefecture_code": 13,
    "city": "新宿区",
    "city_kana": "シンジュクク",
    "town": "上落合",
    "town_kana": "カミオチアイ",
    "street": "２丁目２６−５",
    "office_name": "下田商事　株式会社",
    "office_name_kana": "シモダシヨウジ カブシキカイシヤ"
  },
  "8520": {
    "postcode": "1618520",
    "prefecture": "東京都",
    "prefecture_kana": "トウキョウト",
    "prefecture_code": 13,
    "city": "新宿区",
    "city_kana": "シンジュクク",
    "town": "中落合",
    "town_kana": "ナカオチアイ",
    "street": "１丁目６−１２",
    "office_name": "ライオン企画　株式会社",
    "office_name_kana": "ライオンキカク カブシキガイシヤ"
  },
  "8521": {
    "postcode": "1618521",
    "prefecture": "東京都",
    "prefecture_kana": "トウキョウト",
    "prefecture_code": 13,
    "city": "新宿区",
    "city_kana": "シンジュクク",
    "town": "中落合",
    "town_kana": "ナカオチアイ",
    "street": "２丁目５−１",
    "office_name": "社会福祉法人　聖母会　聖母病院",
    "office_name_kana": "シヤカイフクシホウジン セイボカイ セイボビヨウイン"
  },
  "8522": {
    "postcode": "1618522",
    "prefecture": "東京都",
    "prefecture_kana": "トウキョウト",
    "prefecture_code": 13,
    "city": "新宿区",
    "city_kana": "シンジュクク",
    "town": "中落合",
    "town_kana": "ナカオチアイ",
    "street": "４丁目３１番１号",
    "office_name": "目白研心中学校・高等学校",
    "office_name_kana": "メジロケンシンチユウガツコウ・コウトウガツコウ"
  },
  "8528": {
    "postcode": "1618528",
    "prefecture": "東京都",
    "prefecture_kana": "トウキョウト",
    "prefecture_code": 13,
    "city": "新宿区",
    "city_kana": "シンジュクク",
    "town": "中落合",
    "town_kana": "ナカオチアイ",
    "street": "２丁目７−１",
    "office_name": "ＪＡ全農たまご　株式会社",
    "office_name_kana": "ジエイエ-ゼンノウタマゴ カブシキガイシヤ"
  },
  "8531": {
    "postcode": "1618531",
    "prefecture": "東京都",
    "prefecture_kana": "トウキョウト",
    "prefecture_code": 13,
    "city": "新宿区",
    "city_kana": "シンジュクク",
    "town": "中落合",
    "town_kana": "ナカオチアイ",
    "street": "３丁目１５−１５",
    "office_name": "ウエットマスター　株式会社",
    "office_name_kana": "ウエツトマスタ- カブシキガイシヤ"
  },
  "8539": {
    "postcode": "1618539",
    "prefecture": "東京都",
    "prefecture_kana": "トウキョウト",
    "prefecture_code": 13,
    "city": "新宿区",
    "city_kana": "シンジュクク",
    "town": "中落合",
    "town_kana": "ナカオチアイ",
    "street": "４丁目３１−１",
    "office_name": "目白学園",
    "office_name_kana": "メジロガクエン"
  },
  "8540": {
    "postcode": "1618540",
    "prefecture": "東京都",
    "prefecture_kana": "トウキョウト",
    "prefecture_code": 13,
    "city": "新宿区",
    "city_kana": "シンジュクク",
    "town": "下落合",
    "town_kana": "シモオチアイ",
    "street": "１丁目４−１０",
    "office_name": "エステー　株式会社",
    "office_name_kana": "エステ- カブシキガイシヤ"
  },
  "8541": {
    "postcode": "1618541",
    "prefecture": "東京都",
    "prefecture_kana": "トウキョウト",
    "prefecture_code": 13,
    "city": "新宿区",
    "city_kana": "シンジュクク",
    "town": "下落合",
    "town_kana": "シモオチアイ",
    "street": "２丁目３−１８",
    "office_name": "三宝製薬　株式会社",
    "office_name_kana": "サンポ-セイヤク カブシキカイシヤ"
  },
  "8545": {
    "postcode": "1618545",
    "prefecture": "東京都",
    "prefecture_kana": "トウキョウト",
    "prefecture_code": 13,
    "city": "新宿区",
    "city_kana": "シンジュクク",
    "town": "下落合",
    "town_kana": "シモオチアイ",
    "street": "２丁目３−１８",
    "office_name": "工新建設　株式会社",
    "office_name_kana": "コウシンケンセツ カブシキガイシヤ"
  },
  "8546": {
    "postcode": "1618546",
    "prefecture": "東京都",
    "prefecture_kana": "トウキョウト",
    "prefecture_code": 13,
    "city": "新宿区",
    "city_kana": "シンジュクク",
    "town": "下落合",
    "town_kana": "シモオチアイ",
    "street": "１丁目５−２２アリミノビル２Ｆ",
    "office_name": "アニコム損害保険　株式会社",
    "office_name_kana": "アニコムソンガイホケン カブシキガイシヤ"
  },
  "8552": {
    "postcode": "1618552",
    "prefecture": "東京都",
    "prefecture_kana": "トウキョウト",
    "prefecture_code": 13,
    "city": "新宿区",
    "city_kana": "シンジュクク",
    "town": "下落合",
    "town_kana": "シモオチアイ",
    "street": "１丁目１−１",
    "office_name": "株式会社　誠和",
    "office_name_kana": "カブシキガイシヤ セイワ"
  },
  "8553": {
    "postcode": "1618553",
    "prefecture": "東京都",
    "prefecture_kana": "トウキョウト",
    "prefecture_code": 13,
    "city": "新宿区",
    "city_kana": "シンジュクク",
    "town": "下落合",
    "town_kana": "シモオチアイ",
    "street": "３丁目２２−１５",
    "office_name": "株式会社　日本コンサルタントグループ",
    "office_name_kana": "カブシキガイシヤ ニホンコンサルタントグル-プ"
  },
  "8556": {
    "postcode": "1618556",
    "prefecture": "東京都",
    "prefecture_kana": "トウキョウト",
    "prefecture_code": 13,
    "city": "新宿区",
    "city_kana": "シンジュクク",
    "town": "下落合",
    "town_kana": "シモオチアイ",
    "street": "１丁目７−７",
    "office_name": "学校法人　東京富士大学",
    "office_name_kana": "ガツコウホウジン トウキヨウフジダイガク"
  },
  "8557": {
    "postcode": "1618557",
    "prefecture": "東京都",
    "prefecture_kana": "トウキョウト",
    "prefecture_code": 13,
    "city": "新宿区",
    "city_kana": "シンジュクク",
    "town": "下落合",
    "town_kana": "シモオチアイ",
    "street": "１丁目２−４",
    "office_name": "学校法人　田中芸術学園　東京美容専門学校",
    "office_name_kana": "ガツコウホウジン タナカゲイジユツガクエン トウキヨウセンモンガツコウ"
  },
  "8558": {
    "postcode": "1618558",
    "prefecture": "東京都",
    "prefecture_kana": "トウキョウト",
    "prefecture_code": 13,
    "city": "新宿区",
    "city_kana": "シンジュクク",
    "town": "下落合",
    "town_kana": "シモオチアイ",
    "street": "２丁目６−２２",
    "office_name": "一世印刷　株式会社",
    "office_name_kana": "イツセイインサツ カブシキガイシヤ"
  },
  "8560": {
    "postcode": "1618560",
    "prefecture": "東京都",
    "prefecture_kana": "トウキョウト",
    "prefecture_code": 13,
    "city": "新宿区",
    "city_kana": "シンジュクク",
    "town": "西落合",
    "town_kana": "ニシオチアイ",
    "street": "１丁目３１−４",
    "office_name": "日本光電工業　株式会社",
    "office_name_kana": "ニホンコウデンコウギヨウ カブシキガイシヤ"
  },
  "8565": {
    "postcode": "1618565",
    "prefecture": "東京都",
    "prefecture_kana": "トウキョウト",
    "prefecture_code": 13,
    "city": "新宿区",
    "city_kana": "シンジュクク",
    "town": "西落合",
    "town_kana": "ニシオチアイ",
    "street": "１丁目２０−８",
    "office_name": "相模商工　株式会社",
    "office_name_kana": "サガミシヨウコウ カブシキガイシヤ"
  },
  "8567": {
    "postcode": "1618567",
    "prefecture": "東京都",
    "prefecture_kana": "トウキョウト",
    "prefecture_code": 13,
    "city": "新宿区",
    "city_kana": "シンジュクク",
    "town": "西落合",
    "town_kana": "ニシオチアイ",
    "street": "２丁目１−１２",
    "office_name": "東京日産モーター　株式会社　丸山店",
    "office_name_kana": "トウキヨウニツサンモ-タ- カブシキガイシヤ マルヤマテン"
  },
  "8575": {
    "postcode": "1618575",
    "prefecture": "東京都",
    "prefecture_kana": "トウキョウト",
    "prefecture_code": 13,
    "city": "新宿区",
    "city_kana": "シンジュクク",
    "town": "西落合",
    "town_kana": "ニシオチアイ",
    "street": "２丁目１８−１２",
    "office_name": "八千代エンジニヤリング　株式会社",
    "office_name_kana": "ヤチヨエンジニヤリング カブシキガイシヤ"
  },
  "8710": {
    "postcode": "1618710",
    "prefecture": "東京都",
    "prefecture_kana": "トウキョウト",
    "prefecture_code": 13,
    "city": "文京区",
    "city_kana": "ブンキョウク",
    "town": "音羽",
    "town_kana": "オトワ",
    "street": "２丁目１２−２１（落合郵便局私書箱第７１号）",
    "office_name": "株式会社　講談社",
    "office_name_kana": "カブシキガイシヤ コウダンシヤ"
  }
}