{
  "0061": {
    "postcode": "1680061",
    "prefecture": "東京都",
    "prefecture_kana": "トウキョウト",
    "prefecture_code": 13,
    "city": "杉並区",
    "city_kana": "スギナミク",
    "town": "大宮",
    "town_kana": "オオミヤ",
    "street": null,
    "office_name": null,
    "office_name_kana": null
  },
  "0062": {
    "postcode": "1680062",
    "prefecture": "東京都",
    "prefecture_kana": "トウキョウト",
    "prefecture_code": 13,
    "city": "杉並区",
    "city_kana": "スギナミク",
    "town": "方南",
    "town_kana": "ホウナン",
    "street": null,
    "office_name": null,
    "office_name_kana": null
  },
  "0063": {
    "postcode": "1680063",
    "prefecture": "東京都",
    "prefecture_kana": "トウキョウト",
    "prefecture_code": 13,
    "city": "杉並区",
    "city_kana": "スギナミク",
    "town": "和泉",
    "town_kana": "イズミ",
    "street": null,
    "office_name": null,
    "office_name_kana": null
  },
  "0064": {
    "postcode": "1680064",
    "prefecture": "東京都",
    "prefecture_kana": "トウキョウト",
    "prefecture_code": 13,
    "city": "杉並区",
    "city_kana": "スギナミク",
    "town": "永福",
    "town_kana": "エイフク",
    "street": null,
    "office_name": null,
    "office_name_kana": null
  },
  "0065": {
    "postcode": "1680065",
    "prefecture": "東京都",
    "prefecture_kana": "トウキョウト",
    "prefecture_code": 13,
    "city": "杉並区",
    "city_kana": "スギナミク",
    "town": "浜田山",
    "town_kana": "ハマダヤマ",
    "street": null,
    "office_name": null,
    "office_name_kana": null
  },
  "0071": {
    "postcode": "1680071",
    "prefecture": "東京都",
    "prefecture_kana": "トウキョウト",
    "prefecture_code": 13,
    "city": "杉並区",
    "city_kana": "スギナミク",
    "town": "高井戸西",
    "town_kana": "タカイドニシ",
    "street": null,
    "office_name": null,
    "office_name_kana": null
  },
  "0072": {
    "postcode": "1680072",
    "prefecture": "東京都",
    "prefecture_kana": "トウキョウト",
    "prefecture_code": 13,
    "city": "杉並区",
    "city_kana": "スギナミク",
    "town": "高井戸東",
    "town_kana": "タカイドヒガシ",
    "street": null,
    "office_name": null,
    "office_name_kana": null
  },
  "0073": {
    "postcode": "1680073",
    "prefecture": "東京都",
    "prefecture_kana": "トウキョウト",
    "prefecture_code": 13,
    "city": "杉並区",
    "city_kana": "スギナミク",
    "town": "下高井戸",
    "town_kana": "シモタカイド",
    "street": null,
    "office_name": null,
    "office_name_kana": null
  },
  "0074": {
    "postcode": "1680074",
    "prefecture": "東京都",
    "prefecture_kana": "トウキョウト",
    "prefecture_code": 13,
    "city": "杉並区",
    "city_kana": "スギナミク",
    "town": "上高井戸",
    "town_kana": "カミタカイド",
    "street": null,
    "office_name": null,
    "office_name_kana": null
  },
  "0081": {
    "postcode": "1680081",
    "prefecture": "東京都",
    "prefecture_kana": "トウキョウト",
    "prefecture_code": 13,
    "city": "杉並区",
    "city_kana": "スギナミク",
    "town": "宮前",
    "town_kana": "ミヤマエ",
    "street": null,
    "office_name": null,
    "office_name_kana": null
  },
  "0082": {
    "postcode": "1680082",
    "prefecture": "東京都",
    "prefecture_kana": "トウキョウト",
    "prefecture_code": 13,
    "city": "杉並区",
    "city_kana": "スギナミク",
    "town": "久我山",
    "town_kana": "クガヤマ",
    "street": null,
    "office_name": null,
    "office_name_kana": null
  },
  "8081": {
    "postcode": "1688081",
    "prefecture": "東京都",
    "prefecture_kana": "トウキョウト",
    "prefecture_code": 13,
    "city": "杉並区",
    "city_kana": "スギナミク",
    "town": "上高井戸",
    "town_kana": "カミタカイド",
    "street": "３丁目１−９（杉並南郵便局私書箱第２号）",
    "office_name": "株式会社　郵趣サービス社",
    "office_name_kana": "カブシキガイシヤ ユウシユサ-ビスシヤ"
  },
  "8501": {
    "postcode": "1688501",
    "prefecture": "東京都",
    "prefecture_kana": "トウキョウト",
    "prefecture_code": 13,
    "city": "杉並区",
    "city_kana": "スギナミク",
    "town": "久我山",
    "town_kana": "クガヤマ",
    "street": "１丁目７−４１",
    "office_name": "岩崎通信機　株式会社",
    "office_name_kana": "イワサキツウシンキ カブシキガイシヤ"
  },
  "8503": {
    "postcode": "1688503",
    "prefecture": "東京都",
    "prefecture_kana": "トウキョウト",
    "prefecture_code": 13,
    "city": "杉並区",
    "city_kana": "スギナミク",
    "town": "久我山",
    "town_kana": "クガヤマ",
    "street": "１丁目７−４１",
    "office_name": "株式会社　岩通シャトルシステム",
    "office_name_kana": "カブシキガイシヤ イワツウシヤトルシステム"
  },
  "8504": {
    "postcode": "1688504",
    "prefecture": "東京都",
    "prefecture_kana": "トウキョウト",
    "prefecture_code": 13,
    "city": "杉並区",
    "city_kana": "スギナミク",
    "town": "久我山",
    "town_kana": "クガヤマ",
    "street": "１丁目７−４１",
    "office_name": "岩通アイセック　株式会社",
    "office_name_kana": "イワツウアイセツク カブシキガイシヤ"
  },
  "8506": {
    "postcode": "1688506",
    "prefecture": "東京都",
    "prefecture_kana": "トウキョウト",
    "prefecture_code": 13,
    "city": "杉並区",
    "city_kana": "スギナミク",
    "town": "和泉",
    "town_kana": "イズミ",
    "street": "１丁目２２−１９",
    "office_name": "朝日生命保険　相互会社",
    "office_name_kana": "アサヒセイメイホケン ソウゴカイシヤ"
  },
  "8508": {
    "postcode": "1688508",
    "prefecture": "東京都",
    "prefecture_kana": "トウキョウト",
    "prefecture_code": 13,
    "city": "杉並区",
    "city_kana": "スギナミク",
    "town": "大宮",
    "town_kana": "オオミヤ",
    "street": "２丁目１９−１",
    "office_name": "学校法人　高千穂学園",
    "office_name_kana": "ガツコウホウジン タカチホガクエン"
  },
  "8510": {
    "postcode": "1688510",
    "prefecture": "東京都",
    "prefecture_kana": "トウキョウト",
    "prefecture_code": 13,
    "city": "杉並区",
    "city_kana": "スギナミク",
    "town": "高井戸西",
    "town_kana": "タカイドニシ",
    "street": "１丁目１２−１",
    "office_name": "浴風会",
    "office_name_kana": "ヨクフウカイ"
  },
  "8511": {
    "postcode": "1688511",
    "prefecture": "東京都",
    "prefecture_kana": "トウキョウト",
    "prefecture_code": 13,
    "city": "杉並区",
    "city_kana": "スギナミク",
    "town": "久我山",
    "town_kana": "クガヤマ",
    "street": "１丁目７−４１",
    "office_name": "岩通計測　株式会社",
    "office_name_kana": "イワツウケイソク カブシキガイシヤ"
  },
  "8512": {
    "postcode": "1688512",
    "prefecture": "東京都",
    "prefecture_kana": "トウキョウト",
    "prefecture_code": 13,
    "city": "杉並区",
    "city_kana": "スギナミク",
    "town": "久我山",
    "town_kana": "クガヤマ",
    "street": "１丁目７−４１",
    "office_name": "岩通計測製造　株式会社　久我山工場",
    "office_name_kana": "イワツウケイソクセイゾウ カブシキガイシヤ クガヤマコウジヨウ"
  },
  "8516": {
    "postcode": "1688516",
    "prefecture": "東京都",
    "prefecture_kana": "トウキョウト",
    "prefecture_code": 13,
    "city": "杉並区",
    "city_kana": "スギナミク",
    "town": "和泉",
    "town_kana": "イズミ",
    "street": "１丁目２２番１９号",
    "office_name": "なないろ生命保険　株式会社",
    "office_name_kana": "ナナイロセイメイホケン カブシキガイシヤ"
  },
  "8520": {
    "postcode": "1688520",
    "prefecture": "東京都",
    "prefecture_kana": "トウキョウト",
    "prefecture_code": 13,
    "city": "杉並区",
    "city_kana": "スギナミク",
    "town": "高井戸西",
    "town_kana": "タカイドニシ",
    "street": "１丁目１２−１",
    "office_name": "松風園",
    "office_name_kana": "シヨウフウエン"
  },
  "8525": {
    "postcode": "1688525",
    "prefecture": "東京都",
    "prefecture_kana": "トウキョウト",
    "prefecture_code": 13,
    "city": "杉並区",
    "city_kana": "スギナミク",
    "town": "高井戸西",
    "town_kana": "タカイドニシ",
    "street": "１丁目１２−１",
    "office_name": "浴風会ケアハウス",
    "office_name_kana": "ヨクフウカイケアハウス"
  },
  "8530": {
    "postcode": "1688530",
    "prefecture": "東京都",
    "prefecture_kana": "トウキョウト",
    "prefecture_code": 13,
    "city": "杉並区",
    "city_kana": "スギナミク",
    "town": "高井戸西",
    "town_kana": "タカイドニシ",
    "street": "１丁目１２−１",
    "office_name": "浴風園",
    "office_name_kana": "ヨクフウエン"
  },
  "8533": {
    "postcode": "1688533",
    "prefecture": "東京都",
    "prefecture_kana": "トウキョウト",
    "prefecture_code": 13,
    "city": "杉並区",
    "city_kana": "スギナミク",
    "town": "高井戸東",
    "town_kana": "タカイドヒガシ",
    "street": "２丁目４−５",
    "office_name": "ミサワホーム　株式会社",
    "office_name_kana": "ミサワホ-ム カブシキガイシヤ"
  },
  "8535": {
    "postcode": "1688535",
    "prefecture": "東京都",
    "prefecture_kana": "トウキョウト",
    "prefecture_code": 13,
    "city": "杉並区",
    "city_kana": "スギナミク",
    "town": "高井戸西",
    "town_kana": "タカイドニシ",
    "street": "１丁目１２−１",
    "office_name": "社会福祉法人　浴風会病院",
    "office_name_kana": "シヤカイフクシホウジン ヨクフウカイビヨウイン"
  },
  "8548": {
    "postcode": "1688548",
    "prefecture": "東京都",
    "prefecture_kana": "トウキョウト",
    "prefecture_code": 13,
    "city": "杉並区",
    "city_kana": "スギナミク",
    "town": "高井戸西",
    "town_kana": "タカイドニシ",
    "street": "３−５−２４",
    "office_name": "日本年金機構健康保険組合",
    "office_name_kana": "ニツポンネンキンキコウケンコウホケンクミアイ"
  },
  "8550": {
    "postcode": "1688550",
    "prefecture": "東京都",
    "prefecture_kana": "トウキョウト",
    "prefecture_code": 13,
    "city": "杉並区",
    "city_kana": "スギナミク",
    "town": "高井戸西",
    "town_kana": "タカイドニシ",
    "street": "１丁目１２−１",
    "office_name": "南陽園",
    "office_name_kana": "ナンヨウエン"
  },
  "8555": {
    "postcode": "1688555",
    "prefecture": "東京都",
    "prefecture_kana": "トウキョウト",
    "prefecture_code": 13,
    "city": "杉並区",
    "city_kana": "スギナミク",
    "town": "永福",
    "town_kana": "エイフク",
    "street": "１丁目９−１",
    "office_name": "学校法人　明治大学　和泉校舎",
    "office_name_kana": "ガツコウホウジン メイジダイガク イズミコウシヤ"
  },
  "8558": {
    "postcode": "1688558",
    "prefecture": "東京都",
    "prefecture_kana": "トウキョウト",
    "prefecture_code": 13,
    "city": "杉並区",
    "city_kana": "スギナミク",
    "town": "高井戸西",
    "town_kana": "タカイドニシ",
    "street": "３丁目２−３０",
    "office_name": "山崎製パン　株式会社　杉並工場",
    "office_name_kana": "ヤマザキセイパン カブシキガイシヤ スギナミコウジヨウ"
  },
  "8560": {
    "postcode": "1688560",
    "prefecture": "東京都",
    "prefecture_kana": "トウキョウト",
    "prefecture_code": 13,
    "city": "杉並区",
    "city_kana": "スギナミク",
    "town": "高井戸西",
    "town_kana": "タカイドニシ",
    "street": "１丁目１２−１",
    "office_name": "第二南陽園",
    "office_name_kana": "ダイニナンヨウエン"
  },
  "8570": {
    "postcode": "1688570",
    "prefecture": "東京都",
    "prefecture_kana": "トウキョウト",
    "prefecture_code": 13,
    "city": "杉並区",
    "city_kana": "スギナミク",
    "town": "大宮",
    "town_kana": "オオミヤ",
    "street": "２丁目３−１",
    "office_name": "宗教法人　大宮八幡宮",
    "office_name_kana": "シユウキヨウホウジン オオミヤハチマングウ"
  },
  "8580": {
    "postcode": "1688580",
    "prefecture": "東京都",
    "prefecture_kana": "トウキョウト",
    "prefecture_code": 13,
    "city": "杉並区",
    "city_kana": "スギナミク",
    "town": "和泉",
    "town_kana": "イズミ",
    "street": "１丁目３２番１８号",
    "office_name": "株式会社　スズキ自販東京",
    "office_name_kana": "カブシキガイシヤ スズキジハントウキヨウ"
  },
  "8601": {
    "postcode": "1688601",
    "prefecture": "東京都",
    "prefecture_kana": "トウキョウト",
    "prefecture_code": 13,
    "city": "杉並区",
    "city_kana": "スギナミク",
    "town": "宮前",
    "town_kana": "ミヤマエ",
    "street": "５丁目２６−１２",
    "office_name": "東京水道局　杉並西営業所",
    "office_name_kana": "トウキヨウスイドウキヨク スギナミニシエイギヨウシヨ"
  },
  "8608": {
    "postcode": "1688608",
    "prefecture": "東京都",
    "prefecture_kana": "トウキョウト",
    "prefecture_code": 13,
    "city": "杉並区",
    "city_kana": "スギナミク",
    "town": "和泉",
    "town_kana": "イズミ",
    "street": "１−２２−１９−２Ｆ",
    "office_name": "アイデックスラボラトリーズ　株式会社",
    "office_name_kana": "アイデツクスラボラトリ-ズ カブシキガイシヤ"
  },
  "8611": {
    "postcode": "1688611",
    "prefecture": "東京都",
    "prefecture_kana": "トウキョウト",
    "prefecture_code": 13,
    "city": "杉並区",
    "city_kana": "スギナミク",
    "town": "永福",
    "town_kana": "エイフク",
    "street": "２丁目５４−１２",
    "office_name": "株式会社　アルク",
    "office_name_kana": "カブシキガイシヤ アルク"
  },
  "8616": {
    "postcode": "1688616",
    "prefecture": "東京都",
    "prefecture_kana": "トウキョウト",
    "prefecture_code": 13,
    "city": "杉並区",
    "city_kana": "スギナミク",
    "town": "久我山",
    "town_kana": "クガヤマ",
    "street": "４丁目２９−６０",
    "office_name": "学校法人　立教女学院",
    "office_name_kana": "ガツコウホウジン リツキヨウジヨガクイン"
  },
  "8620": {
    "postcode": "1688620",
    "prefecture": "東京都",
    "prefecture_kana": "トウキョウト",
    "prefecture_code": 13,
    "city": "杉並区",
    "city_kana": "スギナミク",
    "town": "和泉",
    "town_kana": "イズミ",
    "street": "２丁目８番４号",
    "office_name": "日本証券代行　株式会社　代理人部",
    "office_name_kana": "ニホンシヨウケンダイコウ カブシキガイシヤ ダイリニンブ"
  },
  "8626": {
    "postcode": "1688626",
    "prefecture": "東京都",
    "prefecture_kana": "トウキョウト",
    "prefecture_code": 13,
    "city": "杉並区",
    "city_kana": "スギナミク",
    "town": "久我山",
    "town_kana": "クガヤマ",
    "street": "４丁目２９−２３",
    "office_name": "立教女学院短期大学",
    "office_name_kana": "リツキヨウジヨガクインタンキダイガク"
  },
  "8681": {
    "postcode": "1688681",
    "prefecture": "東京都",
    "prefecture_kana": "トウキョウト",
    "prefecture_code": 13,
    "city": "杉並区",
    "city_kana": "スギナミク",
    "town": "永福",
    "town_kana": "エイフク",
    "street": "２丁目５４−１２（杉並南郵便局私書箱第１２号）",
    "office_name": "株式会社　アルク",
    "office_name_kana": "カブシキガイシヤ アルク"
  },
  "8686": {
    "postcode": "1688686",
    "prefecture": "東京都",
    "prefecture_kana": "トウキョウト",
    "prefecture_code": 13,
    "city": "杉並区",
    "city_kana": "スギナミク",
    "town": "永福",
    "town_kana": "エイフク",
    "street": "３丁目５７−１４（杉並郵便局私書箱第２７号）",
    "office_name": "サミット　株式会社",
    "office_name_kana": "サミツト カブシキガイシヤ"
  }
}