{
  "0001": {
    "postcode": "1730001",
    "prefecture": "東京都",
    "prefecture_kana": "トウキョウト",
    "prefecture_code": 13,
    "city": "板橋区",
    "city_kana": "イタバシク",
    "town": "本町",
    "town_kana": "ホンチョウ",
    "street": null,
    "office_name": null,
    "office_name_kana": null
  },
  "0002": {
    "postcode": "1730002",
    "prefecture": "東京都",
    "prefecture_kana": "トウキョウト",
    "prefecture_code": 13,
    "city": "板橋区",
    "city_kana": "イタバシク",
    "town": "稲荷台",
    "town_kana": "イナリダイ",
    "street": null,
    "office_name": null,
    "office_name_kana": null
  },
  "0003": {
    "postcode": "1730003",
    "prefecture": "東京都",
    "prefecture_kana": "トウキョウト",
    "prefecture_code": 13,
    "city": "板橋区",
    "city_kana": "イタバシク",
    "town": "加賀",
    "town_kana": "カガ",
    "street": null,
    "office_name": null,
    "office_name_kana": null
  },
  "0004": {
    "postcode": "1730004",
    "prefecture": "東京都",
    "prefecture_kana": "トウキョウト",
    "prefecture_code": 13,
    "city": "板橋区",
    "city_kana": "イタバシク",
    "town": "板橋",
    "town_kana": "イタバシ",
    "street": null,
    "office_name": null,
    "office_name_kana": null
  },
  "0005": {
    "postcode": "1730005",
    "prefecture": "東京都",
    "prefecture_kana": "トウキョウト",
    "prefecture_code": 13,
    "city": "板橋区",
    "city_kana": "イタバシク",
    "town": "仲宿",
    "town_kana": "ナカジュク",
    "street": null,
    "office_name": null,
    "office_name_kana": null
  },
  "0011": {
    "postcode": "1730011",
    "prefecture": "東京都",
    "prefecture_kana": "トウキョウト",
    "prefecture_code": 13,
    "city": "板橋区",
    "city_kana": "イタバシク",
    "town": "双葉町",
    "town_kana": "フタバチョウ",
    "street": null,
    "office_name": null,
    "office_name_kana": null
  },
  "0012": {
    "postcode": "1730012",
    "prefecture": "東京都",
    "prefecture_kana": "トウキョウト",
    "prefecture_code": 13,
    "city": "板橋区",
    "city_kana": "イタバシク",
    "town": "大和町",
    "town_kana": "ヤマトチョウ",
    "street": null,
    "office_name": null,
    "office_name_kana": null
  },
  "0013": {
    "postcode": "1730013",
    "prefecture": "東京都",
    "prefecture_kana": "トウキョウト",
    "prefecture_code": 13,
    "city": "板橋区",
    "city_kana": "イタバシク",
    "town": "氷川町",
    "town_kana": "ヒカワチョウ",
    "street": null,
    "office_name": null,
    "office_name_kana": null
  },
  "0014": {
    "postcode": "1730014",
    "prefecture": "東京都",
    "prefecture_kana": "トウキョウト",
    "prefecture_code": 13,
    "city": "板橋区",
    "city_kana": "イタバシク",
    "town": "大山東町",
    "town_kana": "オオヤマヒガシチョウ",
    "street": null,
    "office_name": null,
    "office_name_kana": null
  },
  "0015": {
    "postcode": "1730015",
    "prefecture": "東京都",
    "prefecture_kana": "トウキョウト",
    "prefecture_code": 13,
    "city": "板橋区",
    "city_kana": "イタバシク",
    "town": "栄町",
    "town_kana": "サカエチョウ",
    "street": null,
    "office_name": null,
    "office_name_kana": null
  },
  "0016": {
    "postcode": "1730016",
    "prefecture": "東京都",
    "prefecture_kana": "トウキョウト",
    "prefecture_code": 13,
    "city": "板橋区",
    "city_kana": "イタバシク",
    "town": "中板橋",
    "town_kana": "ナカイタバシ",
    "street": null,
    "office_name": null,
    "office_name_kana": null
  },
  "0021": {
    "postcode": "1730021",
    "prefecture": "東京都",
    "prefecture_kana": "トウキョウト",
    "prefecture_code": 13,
    "city": "板橋区",
    "city_kana": "イタバシク",
    "town": "弥生町",
    "town_kana": "ヤヨイチョウ",
    "street": null,
    "office_name": null,
    "office_name_kana": null
  },
  "0022": {
    "postcode": "1730022",
    "prefecture": "東京都",
    "prefecture_kana": "トウキョウト",
    "prefecture_code": 13,
    "city": "板橋区",
    "city_kana": "イタバシク",
    "town": "仲町",
    "town_kana": "ナカチョウ",
    "street": null,
    "office_name": null,
    "office_name_kana": null
  },
  "0023": {
    "postcode": "1730023",
    "prefecture": "東京都",
    "prefecture_kana": "トウキョウト",
    "prefecture_code": 13,
    "city": "板橋区",
    "city_kana": "イタバシク",
    "town": "大山町",
    "town_kana": "オオヤマチョウ",
    "street": null,
    "office_name": null,
    "office_name_kana": null
  },
  "0024": {
    "postcode": "1730024",
    "prefecture": "東京都",
    "prefecture_kana": "トウキョウト",
    "prefecture_code": 13,
    "city": "板橋区",
    "city_kana": "イタバシク",
    "town": "大山金井町",
    "town_kana": "オオヤマカナイチョウ",
    "street": null,
    "office_name": null,
    "office_name_kana": null
  },
  "0025": {
    "postcode": "1730025",
    "prefecture": "東京都",
    "prefecture_kana": "トウキョウト",
    "prefecture_code": 13,
    "city": "板橋区",
    "city_kana": "イタバシク",
    "town": "熊野町",
    "town_kana": "クマノチョウ",
    "street": null,
    "office_name": null,
    "office_name_kana": null
  },
  "0026": {
    "postcode": "1730026",
    "prefecture": "東京都",
    "prefecture_kana": "トウキョウト",
    "prefecture_code": 13,
    "city": "板橋区",
    "city_kana": "イタバシク",
    "town": "中丸町",
    "town_kana": "ナカマルチョウ",
    "street": null,
    "office_name": null,
    "office_name_kana": null
  },
  "0027": {
    "postcode": "1730027",
    "prefecture": "東京都",
    "prefecture_kana": "トウキョウト",
    "prefecture_code": 13,
    "city": "板橋区",
    "city_kana": "イタバシク",
    "town": "南町",
    "town_kana": "ミナミチョウ",
    "street": null,
    "office_name": null,
    "office_name_kana": null
  },
  "0031": {
    "postcode": "1730031",
    "prefecture": "東京都",
    "prefecture_kana": "トウキョウト",
    "prefecture_code": 13,
    "city": "板橋区",
    "city_kana": "イタバシク",
    "town": "大谷口北町",
    "town_kana": "オオヤグチキタチョウ",
    "street": null,
    "office_name": null,
    "office_name_kana": null
  },
  "0032": {
    "postcode": "1730032",
    "prefecture": "東京都",
    "prefecture_kana": "トウキョウト",
    "prefecture_code": 13,
    "city": "板橋区",
    "city_kana": "イタバシク",
    "town": "大谷口上町",
    "town_kana": "オオヤグチカミチョウ",
    "street": null,
    "office_name": null,
    "office_name_kana": null
  },
  "0033": {
    "postcode": "1730033",
    "prefecture": "東京都",
    "prefecture_kana": "トウキョウト",
    "prefecture_code": 13,
    "city": "板橋区",
    "city_kana": "イタバシク",
    "town": "大山西町",
    "town_kana": "オオヤマニシチョウ",
    "street": null,
    "office_name": null,
    "office_name_kana": null
  },
  "0034": {
    "postcode": "1730034",
    "prefecture": "東京都",
    "prefecture_kana": "トウキョウト",
    "prefecture_code": 13,
    "city": "板橋区",
    "city_kana": "イタバシク",
    "town": "幸町",
    "town_kana": "サイワイチョウ",
    "street": null,
    "office_name": null,
    "office_name_kana": null
  },
  "0035": {
    "postcode": "1730035",
    "prefecture": "東京都",
    "prefecture_kana": "トウキョウト",
    "prefecture_code": 13,
    "city": "板橋区",
    "city_kana": "イタバシク",
    "town": "大谷口",
    "town_kana": "オオヤグチ",
    "street": null,
    "office_name": null,
    "office_name_kana": null
  },
  "0036": {
    "postcode": "1730036",
    "prefecture": "東京都",
    "prefecture_kana": "トウキョウト",
    "prefecture_code": 13,
    "city": "板橋区",
    "city_kana": "イタバシク",
    "town": "向原",
    "town_kana": "ムカイハラ",
    "street": null,
    "office_name": null,
    "office_name_kana": null
  },
  "0037": {
    "postcode": "1730037",
    "prefecture": "東京都",
    "prefecture_kana": "トウキョウト",
    "prefecture_code": 13,
    "city": "板橋区",
    "city_kana": "イタバシク",
    "town": "小茂根",
    "town_kana": "コモネ",
    "street": null,
    "office_name": null,
    "office_name_kana": null
  },
  "8501": {
    "postcode": "1738501",
    "prefecture": "東京都",
    "prefecture_kana": "トウキョウト",
    "prefecture_code": 13,
    "city": "板橋区",
    "city_kana": "イタバシク",
    "town": "板橋",
    "town_kana": "イタバシ",
    "street": "２丁目６６−１",
    "office_name": "東京都　板橋区役所",
    "office_name_kana": "トウキヨウト イタバシクヤクシヨ"
  },
  "8510": {
    "postcode": "1738510",
    "prefecture": "東京都",
    "prefecture_kana": "トウキョウト",
    "prefecture_code": 13,
    "city": "板橋区",
    "city_kana": "イタバシク",
    "town": "大山東町",
    "town_kana": "オオヤマヒガシチョウ",
    "street": "４４−８",
    "office_name": "東京都板橋都税事務所",
    "office_name_kana": "トウキヨウトイタバシトゼイジムシヨ"
  },
  "8511": {
    "postcode": "1738511",
    "prefecture": "東京都",
    "prefecture_kana": "トウキョウト",
    "prefecture_code": 13,
    "city": "板橋区",
    "city_kana": "イタバシク",
    "town": "中丸町",
    "town_kana": "ナカマルチョウ",
    "street": "１０−１０",
    "office_name": "株式会社　モトヤ　東京本社",
    "office_name_kana": "カブシキガイシヤ モトヤ トウキヨウホンシヤ"
  },
  "8512": {
    "postcode": "1738512",
    "prefecture": "東京都",
    "prefecture_kana": "トウキョウト",
    "prefecture_code": 13,
    "city": "板橋区",
    "city_kana": "イタバシク",
    "town": "板橋",
    "town_kana": "イタバシ",
    "street": "１丁目４７−５",
    "office_name": "株式会社　ハリカ",
    "office_name_kana": "カブシキガイシヤ ハリカ"
  },
  "8515": {
    "postcode": "1738515",
    "prefecture": "東京都",
    "prefecture_kana": "トウキョウト",
    "prefecture_code": 13,
    "city": "板橋区",
    "city_kana": "イタバシク",
    "town": "加賀",
    "town_kana": "カガ",
    "street": "１丁目９−１０",
    "office_name": "国立極地研究所",
    "office_name_kana": "コクリツキヨクチケンキユウシヨ"
  },
  "8516": {
    "postcode": "1738516",
    "prefecture": "東京都",
    "prefecture_kana": "トウキョウト",
    "prefecture_code": 13,
    "city": "板橋区",
    "city_kana": "イタバシク",
    "town": "大山西町",
    "town_kana": "オオヤマニシチョウ",
    "street": "３−１２",
    "office_name": "（株）　マツダアンフィニ東京",
    "office_name_kana": "カブシキガイシヤ マツダアンフイニトウキヨウ"
  },
  "8517": {
    "postcode": "1738517",
    "prefecture": "東京都",
    "prefecture_kana": "トウキョウト",
    "prefecture_code": 13,
    "city": "板橋区",
    "city_kana": "イタバシク",
    "town": "大山西町",
    "town_kana": "オオヤマニシチョウ",
    "street": "３−１２",
    "office_name": "（株）　マツダアンフィニ南東京",
    "office_name_kana": "カブシキガイシヤ マツダアンフイニミナミトウキヨウ"
  },
  "8518": {
    "postcode": "1738518",
    "prefecture": "東京都",
    "prefecture_kana": "トウキョウト",
    "prefecture_code": 13,
    "city": "板橋区",
    "city_kana": "イタバシク",
    "town": "大山西町",
    "town_kana": "オオヤマニシチョウ",
    "street": "３−１２",
    "office_name": "（株）　マツダアンフィニ西東京",
    "office_name_kana": "カブシキガイシヤ マツダアンフイニニシトウキヨウ"
  },
  "8519": {
    "postcode": "1738519",
    "prefecture": "東京都",
    "prefecture_kana": "トウキョウト",
    "prefecture_code": 13,
    "city": "板橋区",
    "city_kana": "イタバシク",
    "town": "大山西町",
    "town_kana": "オオヤマニシチョウ",
    "street": "３−１２",
    "office_name": "（株）　マツダアンフィニ北東京",
    "office_name_kana": "カブシキガイシヤ マツダアンフイニキタトウキヨウ"
  },
  "8520": {
    "postcode": "1738520",
    "prefecture": "東京都",
    "prefecture_kana": "トウキョウト",
    "prefecture_code": 13,
    "city": "板橋区",
    "city_kana": "イタバシク",
    "town": "大山東町",
    "town_kana": "オオヤマヒガシチョウ",
    "street": "４４−８板橋都税事務所４階",
    "office_name": "東京都主税局徴収部納税推進課",
    "office_name_kana": "トウキヨウトシユゼイキヨクチヨウシユウブノウゼイスイシンカ"
  },
  "8530": {
    "postcode": "1738530",
    "prefecture": "東京都",
    "prefecture_kana": "トウキョウト",
    "prefecture_code": 13,
    "city": "板橋区",
    "city_kana": "イタバシク",
    "town": "大山東町",
    "town_kana": "オオヤマヒガシチョウ",
    "street": "３５−１",
    "office_name": "板橋税務署",
    "office_name_kana": "イタバシゼイムシヨ"
  },
  "8540": {
    "postcode": "1738540",
    "prefecture": "東京都",
    "prefecture_kana": "トウキョウト",
    "prefecture_code": 13,
    "city": "板橋区",
    "city_kana": "イタバシク",
    "town": "板橋",
    "town_kana": "イタバシ",
    "street": "４丁目４番１号",
    "office_name": "エクシオ物流サービス　株式会社",
    "office_name_kana": "エクシオブツリユウサ-ビス カブシキガイシヤ"
  },
  "8543": {
    "postcode": "1738543",
    "prefecture": "東京都",
    "prefecture_kana": "トウキョウト",
    "prefecture_code": 13,
    "city": "板橋区",
    "city_kana": "イタバシク",
    "town": "中丸町",
    "town_kana": "ナカマルチョウ",
    "street": "４５−８",
    "office_name": "松崎商事　株式会社",
    "office_name_kana": "マツザキシヨウジ カブシキガイシヤ"
  },
  "8552": {
    "postcode": "1738552",
    "prefecture": "東京都",
    "prefecture_kana": "トウキョウト",
    "prefecture_code": 13,
    "city": "板橋区",
    "city_kana": "イタバシク",
    "town": "板橋",
    "town_kana": "イタバシ",
    "street": "１丁目５２−１",
    "office_name": "株式会社　イシダ　東京支店",
    "office_name_kana": "カブシキガイシヤ イシダ トウキヨウシテン"
  },
  "8555": {
    "postcode": "1738555",
    "prefecture": "東京都",
    "prefecture_kana": "トウキョウト",
    "prefecture_code": 13,
    "city": "板橋区",
    "city_kana": "イタバシク",
    "town": "稲荷台",
    "town_kana": "イナリダイ",
    "street": "２７−１",
    "office_name": "学校法人　帝京学園　帝京中学校　帝京高等学校",
    "office_name_kana": "ガツコウホウジン テイキヨウガクエン テイキヨウチユウガツコウ テイキヨウコウトウガツコウ"
  },
  "8558": {
    "postcode": "1738558",
    "prefecture": "東京都",
    "prefecture_kana": "トウキョウト",
    "prefecture_code": 13,
    "city": "板橋区",
    "city_kana": "イタバシク",
    "town": "弥生町",
    "town_kana": "ヤヨイチョウ",
    "street": "７７−３",
    "office_name": "株式会社　ムービック",
    "office_name_kana": "カブシキガイシヤ ム-ビツク"
  },
  "8561": {
    "postcode": "1738561",
    "prefecture": "東京都",
    "prefecture_kana": "トウキョウト",
    "prefecture_code": 13,
    "city": "板橋区",
    "city_kana": "イタバシク",
    "town": "弥生町",
    "town_kana": "ヤヨイチョウ",
    "street": "７８番３号",
    "office_name": "株式会社　フロンティアワークス",
    "office_name_kana": "カブシキガイシヤ フロンテイアワ-クス"
  },
  "8580": {
    "postcode": "1738580",
    "prefecture": "東京都",
    "prefecture_kana": "トウキョウト",
    "prefecture_code": 13,
    "city": "板橋区",
    "city_kana": "イタバシク",
    "town": "板橋",
    "town_kana": "イタバシ",
    "street": "１丁目９−３",
    "office_name": "昭産商事　株式会社",
    "office_name_kana": "シヨウサンシヨウジ カブシキガイシヤ"
  },
  "8585": {
    "postcode": "1738585",
    "prefecture": "東京都",
    "prefecture_kana": "トウキョウト",
    "prefecture_code": 13,
    "city": "板橋区",
    "city_kana": "イタバシク",
    "town": "板橋",
    "town_kana": "イタバシ",
    "street": "４丁目４３−２",
    "office_name": "株式会社　コバックス",
    "office_name_kana": "カブシキガイシヤ コバツクス"
  },
  "8588": {
    "postcode": "1738588",
    "prefecture": "東京都",
    "prefecture_kana": "トウキョウト",
    "prefecture_code": 13,
    "city": "板橋区",
    "city_kana": "イタバシク",
    "town": "加賀",
    "town_kana": "カガ",
    "street": "１丁目３−１",
    "office_name": "財団法人　愛世会　愛誠病院",
    "office_name_kana": "ザイダンホウジン アイセイカイ アイセイビヨウイン"
  },
  "8601": {
    "postcode": "1738601",
    "prefecture": "東京都",
    "prefecture_kana": "トウキョウト",
    "prefecture_code": 13,
    "city": "板橋区",
    "city_kana": "イタバシク",
    "town": "仲宿",
    "town_kana": "ナカジュク",
    "street": "６１−１",
    "office_name": "株式会社　ライカ　東京支店",
    "office_name_kana": "カブシキガイシヤ ライカ トウキヨウシテン"
  },
  "8602": {
    "postcode": "1738602",
    "prefecture": "東京都",
    "prefecture_kana": "トウキョウト",
    "prefecture_code": 13,
    "city": "板橋区",
    "city_kana": "イタバシク",
    "town": "加賀",
    "town_kana": "カガ",
    "street": "１丁目１８−１",
    "office_name": "東京家政大学",
    "office_name_kana": "トウキヨウカセイダイガク"
  },
  "8605": {
    "postcode": "1738605",
    "prefecture": "東京都",
    "prefecture_kana": "トウキョウト",
    "prefecture_code": 13,
    "city": "板橋区",
    "city_kana": "イタバシク",
    "town": "加賀",
    "town_kana": "カガ",
    "street": "２丁目１１−１",
    "office_name": "帝京大学",
    "office_name_kana": "テイキヨウダイガク"
  },
  "8606": {
    "postcode": "1738606",
    "prefecture": "東京都",
    "prefecture_kana": "トウキョウト",
    "prefecture_code": 13,
    "city": "板橋区",
    "city_kana": "イタバシク",
    "town": "加賀",
    "town_kana": "カガ",
    "street": "２丁目１１−１",
    "office_name": "帝京大学医学部附属病院",
    "office_name_kana": "テイキヨウダイガクイガクブフゾクビヨウイン"
  },
  "8610": {
    "postcode": "1738610",
    "prefecture": "東京都",
    "prefecture_kana": "トウキョウト",
    "prefecture_code": 13,
    "city": "板橋区",
    "city_kana": "イタバシク",
    "town": "大谷口上町",
    "town_kana": "オオヤグチカミチョウ",
    "street": "３０−１",
    "office_name": "日本大学　医学部",
    "office_name_kana": "ニホンダイガク イガクブ"
  },
  "8611": {
    "postcode": "1738611",
    "prefecture": "東京都",
    "prefecture_kana": "トウキョウト",
    "prefecture_code": 13,
    "city": "板橋区",
    "city_kana": "イタバシク",
    "town": "双葉町",
    "town_kana": "フタバチョウ",
    "street": "３５−１０",
    "office_name": "板橋工業　株式会社",
    "office_name_kana": "イタバシコウギヨウ カブシキガイシヤ"
  },
  "8632": {
    "postcode": "1738632",
    "prefecture": "東京都",
    "prefecture_kana": "トウキョウト",
    "prefecture_code": 13,
    "city": "板橋区",
    "city_kana": "イタバシク",
    "town": "熊野町",
    "town_kana": "クマノチョウ",
    "street": "３２−８",
    "office_name": "株式会社　チノー",
    "office_name_kana": "カブシキガイシヤ チノ-"
  },
  "8639": {
    "postcode": "1738639",
    "prefecture": "東京都",
    "prefecture_kana": "トウキョウト",
    "prefecture_code": 13,
    "city": "板橋区",
    "city_kana": "イタバシク",
    "town": "板橋",
    "town_kana": "イタバシ",
    "street": "１丁目４２−１３大佳板橋ビル５Ｆ",
    "office_name": "カネボウフーズ　株式会社",
    "office_name_kana": "カネボウフ-ズ カブシキガイシヤ"
  },
  "8648": {
    "postcode": "1738648",
    "prefecture": "東京都",
    "prefecture_kana": "トウキョウト",
    "prefecture_code": 13,
    "city": "板橋区",
    "city_kana": "イタバシク",
    "town": "板橋",
    "town_kana": "イタバシ",
    "street": "１丁目５３−２",
    "office_name": "富士テレコム　株式会社",
    "office_name_kana": "フジテレコム カブシキガイシヤ"
  },
  "8710": {
    "postcode": "1738710",
    "prefecture": "東京都",
    "prefecture_kana": "トウキョウト",
    "prefecture_code": 13,
    "city": "板橋区",
    "city_kana": "イタバシク",
    "town": "板橋",
    "town_kana": "イタバシ",
    "street": "１丁目４８−９（板橋郵便局私書箱第１号）",
    "office_name": "株式会社　日刊建設産業新聞社",
    "office_name_kana": "カブシキガイシヤ ニツカンケンセツサンギヨウシンブンシヤ"
  }
}