{
  "0000": {
    "postcode": "1740000",
    "prefecture": "東京都",
    "prefecture_kana": "トウキョウト",
    "prefecture_code": 13,
    "city": "板橋区",
    "city_kana": "イタバシク",
    "town": "",
    "town_kana": "",
    "street": null,
    "office_name": null,
    "office_name_kana": null
  },
  "0041": {
    "postcode": "1740041",
    "prefecture": "東京都",
    "prefecture_kana": "トウキョウト",
    "prefecture_code": 13,
    "city": "板橋区",
    "city_kana": "イタバシク",
    "town": "舟渡",
    "town_kana": "フナド",
    "street": null,
    "office_name": null,
    "office_name_kana": null
  },
  "0042": {
    "postcode": "1740042",
    "prefecture": "東京都",
    "prefecture_kana": "トウキョウト",
    "prefecture_code": 13,
    "city": "板橋区",
    "city_kana": "イタバシク",
    "town": "東坂下",
    "town_kana": "ヒガシサカシタ",
    "street": null,
    "office_name": null,
    "office_name_kana": null
  },
  "0043": {
    "postcode": "1740043",
    "prefecture": "東京都",
    "prefecture_kana": "トウキョウト",
    "prefecture_code": 13,
    "city": "板橋区",
    "city_kana": "イタバシク",
    "town": "坂下",
    "town_kana": "サカシタ",
    "street": null,
    "office_name": null,
    "office_name_kana": null
  },
  "0044": {
    "postcode": "1740044",
    "prefecture": "東京都",
    "prefecture_kana": "トウキョウト",
    "prefecture_code": 13,
    "city": "板橋区",
    "city_kana": "イタバシク",
    "town": "相生町",
    "town_kana": "アイオイチョウ",
    "street": null,
    "office_name": null,
    "office_name_kana": null
  },
  "0045": {
    "postcode": "1740045",
    "prefecture": "東京都",
    "prefecture_kana": "トウキョウト",
    "prefecture_code": 13,
    "city": "板橋区",
    "city_kana": "イタバシク",
    "town": "西台",
    "town_kana": "ニシダイ",
    "street": null,
    "office_name": null,
    "office_name_kana": null
  },
  "0046": {
    "postcode": "1740046",
    "prefecture": "東京都",
    "prefecture_kana": "トウキョウト",
    "prefecture_code": 13,
    "city": "板橋区",
    "city_kana": "イタバシク",
    "town": "蓮根",
    "town_kana": "ハスネ",
    "street": null,
    "office_name": null,
    "office_name_kana": null
  },
  "0051": {
    "postcode": "1740051",
    "prefecture": "東京都",
    "prefecture_kana": "トウキョウト",
    "prefecture_code": 13,
    "city": "板橋区",
    "city_kana": "イタバシク",
    "town": "小豆沢",
    "town_kana": "アズサワ",
    "street": null,
    "office_name": null,
    "office_name_kana": null
  },
  "0052": {
    "postcode": "1740052",
    "prefecture": "東京都",
    "prefecture_kana": "トウキョウト",
    "prefecture_code": 13,
    "city": "板橋区",
    "city_kana": "イタバシク",
    "town": "蓮沼町",
    "town_kana": "ハスヌマチョウ",
    "street": null,
    "office_name": null,
    "office_name_kana": null
  },
  "0053": {
    "postcode": "1740053",
    "prefecture": "東京都",
    "prefecture_kana": "トウキョウト",
    "prefecture_code": 13,
    "city": "板橋区",
    "city_kana": "イタバシク",
    "town": "清水町",
    "town_kana": "シミズチョウ",
    "street": null,
    "office_name": null,
    "office_name_kana": null
  },
  "0054": {
    "postcode": "1740054",
    "prefecture": "東京都",
    "prefecture_kana": "トウキョウト",
    "prefecture_code": 13,
    "city": "板橋区",
    "city_kana": "イタバシク",
    "town": "宮本町",
    "town_kana": "ミヤモトチョウ",
    "street": null,
    "office_name": null,
    "office_name_kana": null
  },
  "0055": {
    "postcode": "1740055",
    "prefecture": "東京都",
    "prefecture_kana": "トウキョウト",
    "prefecture_code": 13,
    "city": "板橋区",
    "city_kana": "イタバシク",
    "town": "泉町",
    "town_kana": "イズミチョウ",
    "street": null,
    "office_name": null,
    "office_name_kana": null
  },
  "0056": {
    "postcode": "1740056",
    "prefecture": "東京都",
    "prefecture_kana": "トウキョウト",
    "prefecture_code": 13,
    "city": "板橋区",
    "city_kana": "イタバシク",
    "town": "志村",
    "town_kana": "シムラ",
    "street": null,
    "office_name": null,
    "office_name_kana": null
  },
  "0061": {
    "postcode": "1740061",
    "prefecture": "東京都",
    "prefecture_kana": "トウキョウト",
    "prefecture_code": 13,
    "city": "板橋区",
    "city_kana": "イタバシク",
    "town": "大原町",
    "town_kana": "オオハラチョウ",
    "street": null,
    "office_name": null,
    "office_name_kana": null
  },
  "0062": {
    "postcode": "1740062",
    "prefecture": "東京都",
    "prefecture_kana": "トウキョウト",
    "prefecture_code": 13,
    "city": "板橋区",
    "city_kana": "イタバシク",
    "town": "富士見町",
    "town_kana": "フジミチョウ",
    "street": null,
    "office_name": null,
    "office_name_kana": null
  },
  "0063": {
    "postcode": "1740063",
    "prefecture": "東京都",
    "prefecture_kana": "トウキョウト",
    "prefecture_code": 13,
    "city": "板橋区",
    "city_kana": "イタバシク",
    "town": "前野町",
    "town_kana": "マエノチョウ",
    "street": null,
    "office_name": null,
    "office_name_kana": null
  },
  "0064": {
    "postcode": "1740064",
    "prefecture": "東京都",
    "prefecture_kana": "トウキョウト",
    "prefecture_code": 13,
    "city": "板橋区",
    "city_kana": "イタバシク",
    "town": "中台",
    "town_kana": "ナカダイ",
    "street": null,
    "office_name": null,
    "office_name_kana": null
  },
  "0065": {
    "postcode": "1740065",
    "prefecture": "東京都",
    "prefecture_kana": "トウキョウト",
    "prefecture_code": 13,
    "city": "板橋区",
    "city_kana": "イタバシク",
    "town": "若木",
    "town_kana": "ワカギ",
    "street": null,
    "office_name": null,
    "office_name_kana": null
  },
  "0071": {
    "postcode": "1740071",
    "prefecture": "東京都",
    "prefecture_kana": "トウキョウト",
    "prefecture_code": 13,
    "city": "板橋区",
    "city_kana": "イタバシク",
    "town": "常盤台",
    "town_kana": "トキワダイ",
    "street": null,
    "office_name": null,
    "office_name_kana": null
  },
  "0072": {
    "postcode": "1740072",
    "prefecture": "東京都",
    "prefecture_kana": "トウキョウト",
    "prefecture_code": 13,
    "city": "板橋区",
    "city_kana": "イタバシク",
    "town": "南常盤台",
    "town_kana": "ミナミトキワダイ",
    "street": null,
    "office_name": null,
    "office_name_kana": null
  },
  "0073": {
    "postcode": "1740073",
    "prefecture": "東京都",
    "prefecture_kana": "トウキョウト",
    "prefecture_code": 13,
    "city": "板橋区",
    "city_kana": "イタバシク",
    "town": "東山町",
    "town_kana": "ヒガシヤマチョウ",
    "street": null,
    "office_name": null,
    "office_name_kana": null
  },
  "0074": {
    "postcode": "1740074",
    "prefecture": "東京都",
    "prefecture_kana": "トウキョウト",
    "prefecture_code": 13,
    "city": "板橋区",
    "city_kana": "イタバシク",
    "town": "東新町",
    "town_kana": "トウシンチョウ",
    "street": null,
    "office_name": null,
    "office_name_kana": null
  },
  "0075": {
    "postcode": "1740075",
    "prefecture": "東京都",
    "prefecture_kana": "トウキョウト",
    "prefecture_code": 13,
    "city": "板橋区",
    "city_kana": "イタバシク",
    "town": "桜川",
    "town_kana": "サクラガワ",
    "street": null,
    "office_name": null,
    "office_name_kana": null
  },
  "0076": {
    "postcode": "1740076",
    "prefecture": "東京都",
    "prefecture_kana": "トウキョウト",
    "prefecture_code": 13,
    "city": "板橋区",
    "city_kana": "イタバシク",
    "town": "上板橋",
    "town_kana": "カミイタバシ",
    "street": null,
    "office_name": null,
    "office_name_kana": null
  },
  "8501": {
    "postcode": "1748501",
    "prefecture": "東京都",
    "prefecture_kana": "トウキョウト",
    "prefecture_code": 13,
    "city": "板橋区",
    "city_kana": "イタバシク",
    "town": "小豆沢",
    "town_kana": "アズサワ",
    "street": "１−１７−１２",
    "office_name": "株式会社　ＴＯＫ",
    "office_name_kana": "カブシキガイシヤ テイ-オ-ケ-"
  },
  "8503": {
    "postcode": "1748503",
    "prefecture": "東京都",
    "prefecture_kana": "トウキョウト",
    "prefecture_code": 13,
    "city": "板橋区",
    "city_kana": "イタバシク",
    "town": "小豆沢",
    "town_kana": "アズサワ",
    "street": "３丁目４番３号",
    "office_name": "株式会社　ＴＪＭデザイン",
    "office_name_kana": "カブシキガイシヤ テイ-ジエイエムデザイン"
  },
  "8505": {
    "postcode": "1748505",
    "prefecture": "東京都",
    "prefecture_kana": "トウキョウト",
    "prefecture_code": 13,
    "city": "板橋区",
    "city_kana": "イタバシク",
    "town": "小豆沢",
    "town_kana": "アズサワ",
    "street": "３丁目６−１０",
    "office_name": "オリエンタル酵母工業　株式会社",
    "office_name_kana": "オリエンタルコウボコウギヨウ カブシキガイシヤ"
  },
  "8510": {
    "postcode": "1748510",
    "prefecture": "東京都",
    "prefecture_kana": "トウキョウト",
    "prefecture_code": 13,
    "city": "板橋区",
    "city_kana": "イタバシク",
    "town": "小豆沢",
    "town_kana": "アズサワ",
    "street": "１丁目１６番５号",
    "office_name": "凸版物流　株式会社",
    "office_name_kana": "トツパンブツリユウ カブシキカイシヤ"
  },
  "8520": {
    "postcode": "1748520",
    "prefecture": "東京都",
    "prefecture_kana": "トウキョウト",
    "prefecture_code": 13,
    "city": "板橋区",
    "city_kana": "イタバシク",
    "town": "坂下",
    "town_kana": "サカシタ",
    "street": "３−３５−５８",
    "office_name": "ＤＩＣグラフィックス　株式会社",
    "office_name_kana": "デイ-アイシ-グラフイツクス カブシキガイシヤ"
  },
  "8521": {
    "postcode": "1748521",
    "prefecture": "東京都",
    "prefecture_kana": "トウキョウト",
    "prefecture_code": 13,
    "city": "板橋区",
    "city_kana": "イタバシク",
    "town": "坂下",
    "town_kana": "サカシタ",
    "street": "１丁目３２−１７",
    "office_name": "東京日野自動車　株式会社",
    "office_name_kana": "トウキヨウヒノジドウシヤ カブシキガイシヤ"
  },
  "8524": {
    "postcode": "1748524",
    "prefecture": "東京都",
    "prefecture_kana": "トウキョウト",
    "prefecture_code": 13,
    "city": "板橋区",
    "city_kana": "イタバシク",
    "town": "坂下",
    "town_kana": "サカシタ",
    "street": "２丁目２−１",
    "office_name": "芝浦工業大学中学高等学校",
    "office_name_kana": "シバウラコウギヨウダイガクチユウガクコウトウガツコウ"
  },
  "8525": {
    "postcode": "1748525",
    "prefecture": "東京都",
    "prefecture_kana": "トウキョウト",
    "prefecture_code": 13,
    "city": "板橋区",
    "city_kana": "イタバシク",
    "town": "坂下",
    "town_kana": "サカシタ",
    "street": "１−１９−１板橋営業所",
    "office_name": "富士フイルムシステムサービス　株式会社",
    "office_name_kana": "フジフイルムシステムサ-ビス カブシキガイシヤ"
  },
  "8526": {
    "postcode": "1748526",
    "prefecture": "東京都",
    "prefecture_kana": "トウキョウト",
    "prefecture_code": 13,
    "city": "板橋区",
    "city_kana": "イタバシク",
    "town": "坂下",
    "town_kana": "サカシタ",
    "street": "１丁目３３−１２",
    "office_name": "電設健保総合健康管理センター",
    "office_name_kana": "デンセツケンポソウゴウケンコウカンリセンタ-"
  },
  "8530": {
    "postcode": "1748530",
    "prefecture": "東京都",
    "prefecture_kana": "トウキョウト",
    "prefecture_code": 13,
    "city": "板橋区",
    "city_kana": "イタバシク",
    "town": "坂下",
    "town_kana": "サカシタ",
    "street": "１−３５−３",
    "office_name": "群峰アクシア　株式会社",
    "office_name_kana": "グンポウアクシア カブシキガイシヤ"
  },
  "8550": {
    "postcode": "1748550",
    "prefecture": "東京都",
    "prefecture_kana": "トウキョウト",
    "prefecture_code": 13,
    "city": "板橋区",
    "city_kana": "イタバシク",
    "town": "志村",
    "town_kana": "シムラ",
    "street": "２丁目１８−１０",
    "office_name": "日本電産コパル　株式会社",
    "office_name_kana": "ニホンデンサンコパル カブシキガイシヤ"
  },
  "8555": {
    "postcode": "1748555",
    "prefecture": "東京都",
    "prefecture_kana": "トウキョウト",
    "prefecture_code": 13,
    "city": "板橋区",
    "city_kana": "イタバシク",
    "town": "志村",
    "town_kana": "シムラ",
    "street": "３−３０−１",
    "office_name": "株式会社　ＬＳＩメディエンス",
    "office_name_kana": "カブシキガイシヤ エルエスアイメデイエンス"
  },
  "8558": {
    "postcode": "1748558",
    "prefecture": "東京都",
    "prefecture_kana": "トウキョウト",
    "prefecture_code": 13,
    "city": "板橋区",
    "city_kana": "イタバシク",
    "town": "志村",
    "town_kana": "シムラ",
    "street": "１丁目１１−１",
    "office_name": "凸版印刷　株式会社　情報コミュニケーション事業本部",
    "office_name_kana": "トツパンインサツ カブシキガイシヤ ジヨウホウコミユニケ-シヨンジギヨウホンブ"
  },
  "8560": {
    "postcode": "1748560",
    "prefecture": "東京都",
    "prefecture_kana": "トウキョウト",
    "prefecture_code": 13,
    "city": "板橋区",
    "city_kana": "イタバシク",
    "town": "舟渡",
    "town_kana": "フナド",
    "street": "４丁目１０−１",
    "office_name": "日本金属　株式会社　板橋工場",
    "office_name_kana": "ニホンキンゾク カブシキガイシヤ イタバシコウジヨウ"
  },
  "8562": {
    "postcode": "1748562",
    "prefecture": "東京都",
    "prefecture_kana": "トウキョウト",
    "prefecture_code": 13,
    "city": "板橋区",
    "city_kana": "イタバシク",
    "town": "舟渡",
    "town_kana": "フナド",
    "street": "４−８−１ランドポート板橋",
    "office_name": "アスクルＤＣＭ　第２物流センター",
    "office_name_kana": "アスクルデイ-シ-エム ダイニブツリユウセンタ-"
  },
  "8567": {
    "postcode": "1748567",
    "prefecture": "東京都",
    "prefecture_kana": "トウキョウト",
    "prefecture_code": 13,
    "city": "板橋区",
    "city_kana": "イタバシク",
    "town": "舟渡",
    "town_kana": "フナド",
    "street": "１丁目１２−１１",
    "office_name": "（株）　鈴木商館",
    "office_name_kana": "カブシキガイシヤ スズキシヨウカン"
  },
  "8580": {
    "postcode": "1748580",
    "prefecture": "東京都",
    "prefecture_kana": "トウキョウト",
    "prefecture_code": 13,
    "city": "板橋区",
    "city_kana": "イタバシク",
    "town": "蓮沼町",
    "town_kana": "ハスヌマチョウ",
    "street": "７５−１",
    "office_name": "株式会社　トプコン",
    "office_name_kana": "カブシキガイシヤ トプコン"
  },
  "8588": {
    "postcode": "1748588",
    "prefecture": "東京都",
    "prefecture_kana": "トウキョウト",
    "prefecture_code": 13,
    "city": "板橋区",
    "city_kana": "イタバシク",
    "town": "前野町",
    "town_kana": "マエノチョウ",
    "street": "５丁目３−７",
    "office_name": "淑徳小学校",
    "office_name_kana": "シユクトクシヨウガツコウ"
  },
  "8601": {
    "postcode": "1748601",
    "prefecture": "東京都",
    "prefecture_kana": "トウキョウト",
    "prefecture_code": 13,
    "city": "板橋区",
    "city_kana": "イタバシク",
    "town": "東坂下",
    "town_kana": "ヒガシサカシタ",
    "street": "２丁目８−１",
    "office_name": "（株）　タニタハウジングウェア",
    "office_name_kana": "カブシキガイシヤ タニタハウジングウエア"
  },
  "8602": {
    "postcode": "1748602",
    "prefecture": "東京都",
    "prefecture_kana": "トウキョウト",
    "prefecture_code": 13,
    "city": "板橋区",
    "city_kana": "イタバシク",
    "town": "東坂下",
    "town_kana": "ヒガシサカシタ",
    "street": "２丁目５番１号",
    "office_name": "ナカバヤシ　株式会社　東京本社",
    "office_name_kana": "ナカバヤシ カブシキガイシヤ トウキヨウホンシヤ"
  },
  "8612": {
    "postcode": "1748612",
    "prefecture": "東京都",
    "prefecture_kana": "トウキョウト",
    "prefecture_code": 13,
    "city": "板橋区",
    "city_kana": "イタバシク",
    "town": "蓮根",
    "town_kana": "ハスネ",
    "street": "３丁目１７−１",
    "office_name": "アステラス製薬　株式会社　総務室",
    "office_name_kana": "アステラスセイヤク カブシキカイシヤ ソウムシツ"
  },
  "8630": {
    "postcode": "1748630",
    "prefecture": "東京都",
    "prefecture_kana": "トウキョウト",
    "prefecture_code": 13,
    "city": "板橋区",
    "city_kana": "イタバシク",
    "town": "前野町",
    "town_kana": "マエノチョウ",
    "street": "１−１４−２",
    "office_name": "株式会社　タニタ",
    "office_name_kana": "カブシキガイシヤ タニタ"
  },
  "8633": {
    "postcode": "1748633",
    "prefecture": "東京都",
    "prefecture_kana": "トウキョウト",
    "prefecture_code": 13,
    "city": "板橋区",
    "city_kana": "イタバシク",
    "town": "前野町",
    "town_kana": "マエノチョウ",
    "street": "１丁目４７−４",
    "office_name": "（株）　ライト製作所",
    "office_name_kana": "カブシキガイシヤ ライトセイサクシヨ"
  },
  "8636": {
    "postcode": "1748636",
    "prefecture": "東京都",
    "prefecture_kana": "トウキョウト",
    "prefecture_code": 13,
    "city": "板橋区",
    "city_kana": "イタバシク",
    "town": "南常盤台",
    "town_kana": "ミナミトキワダイ",
    "street": "１丁目２６番８号",
    "office_name": "千葉金属工業　株式会社",
    "office_name_kana": "チバキンゾクコウギヨウ カブシキガイシヤ"
  },
  "8639": {
    "postcode": "1748639",
    "prefecture": "東京都",
    "prefecture_kana": "トウキョウト",
    "prefecture_code": 13,
    "city": "板橋区",
    "city_kana": "イタバシク",
    "town": "前野町",
    "town_kana": "マエノチョウ",
    "street": "２丁目３６−９",
    "office_name": "ペンタックス　株式会社",
    "office_name_kana": "ペンタツクス カブシキガイシヤ"
  },
  "8646": {
    "postcode": "1748646",
    "prefecture": "東京都",
    "prefecture_kana": "トウキョウト",
    "prefecture_code": 13,
    "city": "板橋区",
    "city_kana": "イタバシク",
    "town": "前野町",
    "town_kana": "マエノチョウ",
    "street": "５丁目５−３",
    "office_name": "淑徳幼児教育専門学校",
    "office_name_kana": "シユクトクヨウジキヨウイクセンモンガツコウ"
  },
  "8651": {
    "postcode": "1748651",
    "prefecture": "東京都",
    "prefecture_kana": "トウキョウト",
    "prefecture_code": 13,
    "city": "板橋区",
    "city_kana": "イタバシク",
    "town": "宮本町",
    "town_kana": "ミヤモトチョウ",
    "street": "３８−８",
    "office_name": "エスビー食品　株式会社　板橋スパイスセンター",
    "office_name_kana": "エスビ-シヨクヒン カブシキガイシヤ イタバシスパイスセンタ-"
  },
  "8680": {
    "postcode": "1748680",
    "prefecture": "東京都",
    "prefecture_kana": "トウキョウト",
    "prefecture_code": 13,
    "city": "板橋区",
    "city_kana": "イタバシク",
    "town": "常盤台",
    "town_kana": "トキワダイ",
    "street": "２丁目３３−１５",
    "office_name": "飯沼病院",
    "office_name_kana": "イイヌマビヨウイン"
  },
  "8686": {
    "postcode": "1748686",
    "prefecture": "東京都",
    "prefecture_kana": "トウキョウト",
    "prefecture_code": 13,
    "city": "板橋区",
    "city_kana": "イタバシク",
    "town": "常盤台",
    "town_kana": "トキワダイ",
    "street": "４丁目３６−９",
    "office_name": "医療法人　慈誠会　上板橋病院",
    "office_name_kana": "イリヨウホウジン ジセイカイ カミイタバシビヨウイン"
  },
  "8688": {
    "postcode": "1748688",
    "prefecture": "東京都",
    "prefecture_kana": "トウキョウト",
    "prefecture_code": 13,
    "city": "板橋区",
    "city_kana": "イタバシク",
    "town": "常盤台",
    "town_kana": "トキワダイ",
    "street": "１丁目３−１",
    "office_name": "日本教育書道連盟、財団法人　日本書道美術館",
    "office_name_kana": "ニホンキヨウイクシヨドウレンメイ.ザイダンホウジン ニホンシヨドウビジユツカン"
  },
  "8701": {
    "postcode": "1748701",
    "prefecture": "東京都",
    "prefecture_kana": "トウキョウト",
    "prefecture_code": 13,
    "city": "板橋区",
    "city_kana": "イタバシク",
    "town": "富士見町",
    "town_kana": "フジミチョウ",
    "street": "５−４",
    "office_name": "株式会社　昭和コーポレーション",
    "office_name_kana": "カブシキガイシヤ シヨウワコ-ポレ-シヨン"
  },
  "8711": {
    "postcode": "1748711",
    "prefecture": "東京都",
    "prefecture_kana": "トウキョウト",
    "prefecture_code": 13,
    "city": "板橋区",
    "city_kana": "イタバシク",
    "town": "東新町",
    "town_kana": "トウシンチョウ",
    "street": "２丁目２８−１",
    "office_name": "城北学園",
    "office_name_kana": "ジヨウホクガクエン"
  },
  "8730": {
    "postcode": "1748730",
    "prefecture": "東京都",
    "prefecture_kana": "トウキョウト",
    "prefecture_code": 13,
    "city": "板橋区",
    "city_kana": "イタバシク",
    "town": "大原町",
    "town_kana": "オオハラチョウ",
    "street": "１３−１",
    "office_name": "金門製作所",
    "office_name_kana": "キンモンセイサクシヨ"
  },
  "8737": {
    "postcode": "1748737",
    "prefecture": "東京都",
    "prefecture_kana": "トウキョウト",
    "prefecture_code": 13,
    "city": "板橋区",
    "city_kana": "イタバシク",
    "town": "東坂下",
    "town_kana": "ヒガシサカシタ",
    "street": "１丁目１８−１５（板橋北郵便局私書箱第６号）",
    "office_name": "株式会社　中央社",
    "office_name_kana": "カブシキガイシヤ チユウオウシヤ"
  },
  "8739": {
    "postcode": "1748739",
    "prefecture": "東京都",
    "prefecture_kana": "トウキョウト",
    "prefecture_code": 13,
    "city": "板橋区",
    "city_kana": "イタバシク",
    "town": "東坂下",
    "town_kana": "ヒガシサカシタ",
    "street": "１丁目３−１（板橋北郵便局私書箱第６０号）",
    "office_name": "栗田出版販売",
    "office_name_kana": "クリタシユツパンハンバイ"
  },
  "8740": {
    "postcode": "1748740",
    "prefecture": "東京都",
    "prefecture_kana": "トウキョウト",
    "prefecture_code": 13,
    "city": "千代田区",
    "city_kana": "チヨダク",
    "town": "神田小川町",
    "town_kana": "カンダオガワマチ",
    "street": "１丁目１１（板橋北郵便局私書箱第３９号）",
    "office_name": "東京セールスプロデュース　（株）",
    "office_name_kana": "トウキヨウセ-ルスプロデユ-ス カブシキカイシヤ"
  },
  "8741": {
    "postcode": "1748741",
    "prefecture": "埼玉県",
    "prefecture_kana": "サイタマケン",
    "prefecture_code": 11,
    "city": "さいたま市桜区",
    "city_kana": "サイタマシサクラク",
    "town": "田島",
    "town_kana": "タジマ",
    "street": "８丁目３−２９（板橋北郵便局私書箱第６１号）",
    "office_name": "（株）　ディーエムエス",
    "office_name_kana": "カブシキガイシヤ デイ-エムエス"
  },
  "8743": {
    "postcode": "1748743",
    "prefecture": "埼玉県",
    "prefecture_kana": "サイタマケン",
    "prefecture_code": 11,
    "city": "さいたま市桜区",
    "city_kana": "サイタマシサクラク",
    "town": "田島",
    "town_kana": "タジマ",
    "street": "８丁目３−２９（板橋北郵便局私書箱第１５号）",
    "office_name": "（株）　ディーエムエス",
    "office_name_kana": "カブシキガイシヤ デイ-エムエス"
  },
  "8744": {
    "postcode": "1748744",
    "prefecture": "東京都",
    "prefecture_kana": "トウキョウト",
    "prefecture_code": 13,
    "city": "板橋区",
    "city_kana": "イタバシク",
    "town": "小豆沢",
    "town_kana": "アズサワ",
    "street": "２丁目７−６（板橋北郵便局私書箱第２５号）",
    "office_name": "理研計器　株式会社",
    "office_name_kana": "リケンケイキ カブシキガイシヤ"
  },
  "8787": {
    "postcode": "1748787",
    "prefecture": "東京都",
    "prefecture_kana": "トウキョウト",
    "prefecture_code": 13,
    "city": "板橋区",
    "city_kana": "イタバシク",
    "town": "小豆沢",
    "town_kana": "アズサワ",
    "street": "一丁目１１番６号",
    "office_name": "警視庁　志村警察署",
    "office_name_kana": "ケイシチヨウ シムラケイサツシヨ"
  },
  "8860": {
    "postcode": "1748860",
    "prefecture": "東京都",
    "prefecture_kana": "トウキョウト",
    "prefecture_code": 13,
    "city": "板橋区",
    "city_kana": "イタバシク",
    "town": "清水町",
    "town_kana": "シミズチョウ",
    "street": "３６−１",
    "office_name": "共立印刷　（株）",
    "office_name_kana": "キヨウリツインサツ カブシキガイシヤ"
  },
  "8903": {
    "postcode": "1748903",
    "prefecture": "東京都",
    "prefecture_kana": "トウキョウト",
    "prefecture_code": 13,
    "city": "板橋区",
    "city_kana": "イタバシク",
    "town": "蓮沼町",
    "town_kana": "ハスヌマチョウ",
    "street": "４−１",
    "office_name": "清水産業　（株）",
    "office_name_kana": "シミズサンギヨウ カブシキガイシヤ"
  }
}