{
  "0045": {
    "postcode": "1750045",
    "prefecture": "東京都",
    "prefecture_kana": "トウキョウト",
    "prefecture_code": 13,
    "city": "板橋区",
    "city_kana": "イタバシク",
    "town": "西台",
    "town_kana": "ニシダイ",
    "street": null,
    "office_name": null,
    "office_name_kana": null
  },
  "0081": {
    "postcode": "1750081",
    "prefecture": "東京都",
    "prefecture_kana": "トウキョウト",
    "prefecture_code": 13,
    "city": "板橋区",
    "city_kana": "イタバシク",
    "town": "新河岸",
    "town_kana": "シンガシ",
    "street": null,
    "office_name": null,
    "office_name_kana": null
  },
  "0082": {
    "postcode": "1750082",
    "prefecture": "東京都",
    "prefecture_kana": "トウキョウト",
    "prefecture_code": 13,
    "city": "板橋区",
    "city_kana": "イタバシク",
    "town": "高島平",
    "town_kana": "タカシマダイラ",
    "street": null,
    "office_name": null,
    "office_name_kana": null
  },
  "0083": {
    "postcode": "1750083",
    "prefecture": "東京都",
    "prefecture_kana": "トウキョウト",
    "prefecture_code": 13,
    "city": "板橋区",
    "city_kana": "イタバシク",
    "town": "徳丸",
    "town_kana": "トクマル",
    "street": null,
    "office_name": null,
    "office_name_kana": null
  },
  "0084": {
    "postcode": "1750084",
    "prefecture": "東京都",
    "prefecture_kana": "トウキョウト",
    "prefecture_code": 13,
    "city": "板橋区",
    "city_kana": "イタバシク",
    "town": "四葉",
    "town_kana": "ヨツバ",
    "street": null,
    "office_name": null,
    "office_name_kana": null
  },
  "0085": {
    "postcode": "1750085",
    "prefecture": "東京都",
    "prefecture_kana": "トウキョウト",
    "prefecture_code": 13,
    "city": "板橋区",
    "city_kana": "イタバシク",
    "town": "大門",
    "town_kana": "ダイモン",
    "street": null,
    "office_name": null,
    "office_name_kana": null
  },
  "0091": {
    "postcode": "1750091",
    "prefecture": "東京都",
    "prefecture_kana": "トウキョウト",
    "prefecture_code": 13,
    "city": "板橋区",
    "city_kana": "イタバシク",
    "town": "三園",
    "town_kana": "ミソノ",
    "street": null,
    "office_name": null,
    "office_name_kana": null
  },
  "0092": {
    "postcode": "1750092",
    "prefecture": "東京都",
    "prefecture_kana": "トウキョウト",
    "prefecture_code": 13,
    "city": "板橋区",
    "city_kana": "イタバシク",
    "town": "赤塚",
    "town_kana": "アカツカ",
    "street": null,
    "office_name": null,
    "office_name_kana": null
  },
  "0093": {
    "postcode": "1750093",
    "prefecture": "東京都",
    "prefecture_kana": "トウキョウト",
    "prefecture_code": 13,
    "city": "板橋区",
    "city_kana": "イタバシク",
    "town": "赤塚新町",
    "town_kana": "アカツカシンマチ",
    "street": null,
    "office_name": null,
    "office_name_kana": null
  },
  "0094": {
    "postcode": "1750094",
    "prefecture": "東京都",
    "prefecture_kana": "トウキョウト",
    "prefecture_code": 13,
    "city": "板橋区",
    "city_kana": "イタバシク",
    "town": "成増",
    "town_kana": "ナリマス",
    "street": null,
    "office_name": null,
    "office_name_kana": null
  },
  "8571": {
    "postcode": "1758571",
    "prefecture": "東京都",
    "prefecture_kana": "トウキョウト",
    "prefecture_code": 13,
    "city": "板橋区",
    "city_kana": "イタバシク",
    "town": "高島平",
    "town_kana": "タカシマダイラ",
    "street": "１丁目９−１",
    "office_name": "学校法人　大東文化学園",
    "office_name_kana": "ガツコウホウジン ダイトウブンカガクエン"
  },
  "8588": {
    "postcode": "1758588",
    "prefecture": "東京都",
    "prefecture_kana": "トウキョウト",
    "prefecture_code": 13,
    "city": "板橋区",
    "city_kana": "イタバシク",
    "town": "徳丸",
    "town_kana": "トクマル",
    "street": "１丁目２４−１８",
    "office_name": "日本電機ヒーター　株式会社",
    "office_name_kana": "ニホンデンキヒ-タ- カブシキガイシヤ"
  }
}