{
  "0000": {
    "postcode": "1760000",
    "prefecture": "東京都",
    "prefecture_kana": "トウキョウト",
    "prefecture_code": 13,
    "city": "練馬区",
    "city_kana": "ネリマク",
    "town": "",
    "town_kana": "",
    "street": null,
    "office_name": null,
    "office_name_kana": null
  },
  "0001": {
    "postcode": "1760001",
    "prefecture": "東京都",
    "prefecture_kana": "トウキョウト",
    "prefecture_code": 13,
    "city": "練馬区",
    "city_kana": "ネリマク",
    "town": "練馬",
    "town_kana": "ネリマ",
    "street": null,
    "office_name": null,
    "office_name_kana": null
  },
  "0002": {
    "postcode": "1760002",
    "prefecture": "東京都",
    "prefecture_kana": "トウキョウト",
    "prefecture_code": 13,
    "city": "練馬区",
    "city_kana": "ネリマク",
    "town": "桜台",
    "town_kana": "サクラダイ",
    "street": null,
    "office_name": null,
    "office_name_kana": null
  },
  "0003": {
    "postcode": "1760003",
    "prefecture": "東京都",
    "prefecture_kana": "トウキョウト",
    "prefecture_code": 13,
    "city": "練馬区",
    "city_kana": "ネリマク",
    "town": "羽沢",
    "town_kana": "ハザワ",
    "street": null,
    "office_name": null,
    "office_name_kana": null
  },
  "0004": {
    "postcode": "1760004",
    "prefecture": "東京都",
    "prefecture_kana": "トウキョウト",
    "prefecture_code": 13,
    "city": "練馬区",
    "city_kana": "ネリマク",
    "town": "小竹町",
    "town_kana": "コタケチョウ",
    "street": null,
    "office_name": null,
    "office_name_kana": null
  },
  "0005": {
    "postcode": "1760005",
    "prefecture": "東京都",
    "prefecture_kana": "トウキョウト",
    "prefecture_code": 13,
    "city": "練馬区",
    "city_kana": "ネリマク",
    "town": "旭丘",
    "town_kana": "アサヒガオカ",
    "street": null,
    "office_name": null,
    "office_name_kana": null
  },
  "0006": {
    "postcode": "1760006",
    "prefecture": "東京都",
    "prefecture_kana": "トウキョウト",
    "prefecture_code": 13,
    "city": "練馬区",
    "city_kana": "ネリマク",
    "town": "栄町",
    "town_kana": "サカエチョウ",
    "street": null,
    "office_name": null,
    "office_name_kana": null
  },
  "0011": {
    "postcode": "1760011",
    "prefecture": "東京都",
    "prefecture_kana": "トウキョウト",
    "prefecture_code": 13,
    "city": "練馬区",
    "city_kana": "ネリマク",
    "town": "豊玉上",
    "town_kana": "トヨタマカミ",
    "street": null,
    "office_name": null,
    "office_name_kana": null
  },
  "0012": {
    "postcode": "1760012",
    "prefecture": "東京都",
    "prefecture_kana": "トウキョウト",
    "prefecture_code": 13,
    "city": "練馬区",
    "city_kana": "ネリマク",
    "town": "豊玉北",
    "town_kana": "トヨタマキタ",
    "street": null,
    "office_name": null,
    "office_name_kana": null
  },
  "0013": {
    "postcode": "1760013",
    "prefecture": "東京都",
    "prefecture_kana": "トウキョウト",
    "prefecture_code": 13,
    "city": "練馬区",
    "city_kana": "ネリマク",
    "town": "豊玉中",
    "town_kana": "トヨタマナカ",
    "street": null,
    "office_name": null,
    "office_name_kana": null
  },
  "0014": {
    "postcode": "1760014",
    "prefecture": "東京都",
    "prefecture_kana": "トウキョウト",
    "prefecture_code": 13,
    "city": "練馬区",
    "city_kana": "ネリマク",
    "town": "豊玉南",
    "town_kana": "トヨタマミナミ",
    "street": null,
    "office_name": null,
    "office_name_kana": null
  },
  "0021": {
    "postcode": "1760021",
    "prefecture": "東京都",
    "prefecture_kana": "トウキョウト",
    "prefecture_code": 13,
    "city": "練馬区",
    "city_kana": "ネリマク",
    "town": "貫井",
    "town_kana": "ヌクイ",
    "street": null,
    "office_name": null,
    "office_name_kana": null
  },
  "0022": {
    "postcode": "1760022",
    "prefecture": "東京都",
    "prefecture_kana": "トウキョウト",
    "prefecture_code": 13,
    "city": "練馬区",
    "city_kana": "ネリマク",
    "town": "向山",
    "town_kana": "コウヤマ",
    "street": null,
    "office_name": null,
    "office_name_kana": null
  },
  "0023": {
    "postcode": "1760023",
    "prefecture": "東京都",
    "prefecture_kana": "トウキョウト",
    "prefecture_code": 13,
    "city": "練馬区",
    "city_kana": "ネリマク",
    "town": "中村北",
    "town_kana": "ナカムラキタ",
    "street": null,
    "office_name": null,
    "office_name_kana": null
  },
  "0024": {
    "postcode": "1760024",
    "prefecture": "東京都",
    "prefecture_kana": "トウキョウト",
    "prefecture_code": 13,
    "city": "練馬区",
    "city_kana": "ネリマク",
    "town": "中村",
    "town_kana": "ナカムラ",
    "street": null,
    "office_name": null,
    "office_name_kana": null
  },
  "0025": {
    "postcode": "1760025",
    "prefecture": "東京都",
    "prefecture_kana": "トウキョウト",
    "prefecture_code": 13,
    "city": "練馬区",
    "city_kana": "ネリマク",
    "town": "中村南",
    "town_kana": "ナカムラミナミ",
    "street": null,
    "office_name": null,
    "office_name_kana": null
  },
  "8501": {
    "postcode": "1768501",
    "prefecture": "東京都",
    "prefecture_kana": "トウキョウト",
    "prefecture_code": 13,
    "city": "練馬区",
    "city_kana": "ネリマク",
    "town": "豊玉北",
    "town_kana": "トヨタマキタ",
    "street": "６丁目１２−１",
    "office_name": "練馬区役所",
    "office_name_kana": "ネリマクヤクシヨ"
  },
  "8502": {
    "postcode": "1768502",
    "prefecture": "東京都",
    "prefecture_kana": "トウキョウト",
    "prefecture_code": 13,
    "city": "練馬区",
    "city_kana": "ネリマク",
    "town": "豊玉南",
    "town_kana": "トヨタマミナミ",
    "street": "３丁目１−１５",
    "office_name": "株式会社　シコクヤ",
    "office_name_kana": "カブシキガイシヤ シコクヤ"
  },
  "8503": {
    "postcode": "1768503",
    "prefecture": "東京都",
    "prefecture_kana": "トウキョウト",
    "prefecture_code": 13,
    "city": "練馬区",
    "city_kana": "ネリマク",
    "town": "栄町",
    "town_kana": "サカエチョウ",
    "street": "２３−７",
    "office_name": "練馬東税務署",
    "office_name_kana": "ネリマヒガシゼイムシヨ"
  },
  "8507": {
    "postcode": "1768507",
    "prefecture": "東京都",
    "prefecture_kana": "トウキョウト",
    "prefecture_code": 13,
    "city": "練馬区",
    "city_kana": "ネリマク",
    "town": "豊玉北",
    "town_kana": "トヨタマキタ",
    "street": "６丁目５−１５",
    "office_name": "アイカ販売　株式会社",
    "office_name_kana": "アイカハンバイ カブシキガイシヤ"
  },
  "8508": {
    "postcode": "1768508",
    "prefecture": "東京都",
    "prefecture_kana": "トウキョウト",
    "prefecture_code": 13,
    "city": "練馬区",
    "city_kana": "ネリマク",
    "town": "羽沢",
    "town_kana": "ハザワ",
    "street": "２丁目７−１",
    "office_name": "太陽インキ製造　株式会社",
    "office_name_kana": "タイヨウインキセイゾウ カブシキガイシヤ"
  },
  "8509": {
    "postcode": "1768509",
    "prefecture": "東京都",
    "prefecture_kana": "トウキョウト",
    "prefecture_code": 13,
    "city": "練馬区",
    "city_kana": "ネリマク",
    "town": "豊玉北",
    "town_kana": "トヨタマキタ",
    "street": "６−１３−１０",
    "office_name": "東京都都税総合事務センター　自動車税課調査班",
    "office_name_kana": "トウキヨウトトゼイソウゴウジムセンタ- ジドウシヤゼイカチヨウサハン"
  },
  "8511": {
    "postcode": "1768511",
    "prefecture": "東京都",
    "prefecture_kana": "トウキョウト",
    "prefecture_code": 13,
    "city": "練馬区",
    "city_kana": "ネリマク",
    "town": "豊玉北",
    "town_kana": "トヨタマキタ",
    "street": "６丁目１３−１０",
    "office_name": "東京都練馬都税事務所",
    "office_name_kana": "トウキヨウトネリマトゼイジムシヨ"
  },
  "8512": {
    "postcode": "1768512",
    "prefecture": "東京都",
    "prefecture_kana": "トウキョウト",
    "prefecture_code": 13,
    "city": "練馬区",
    "city_kana": "ネリマク",
    "town": "小竹町",
    "town_kana": "コタケチョウ",
    "street": "１丁目８−１",
    "office_name": "品川電線　株式会社",
    "office_name_kana": "シナガワデンセン カブシキガイシヤ"
  },
  "8515": {
    "postcode": "1768515",
    "prefecture": "東京都",
    "prefecture_kana": "トウキョウト",
    "prefecture_code": 13,
    "city": "練馬区",
    "city_kana": "ネリマク",
    "town": "中村北",
    "town_kana": "ナカムラキタ",
    "street": "１丁目１２−７",
    "office_name": "東京電力　株式会社　練馬営業センター",
    "office_name_kana": "トウキヨウデンリヨク カブシキガイシヤ ネリマエイギヨウセンタ-"
  },
  "8516": {
    "postcode": "1768516",
    "prefecture": "東京都",
    "prefecture_kana": "トウキョウト",
    "prefecture_code": 13,
    "city": "練馬区",
    "city_kana": "ネリマク",
    "town": "豊玉北",
    "town_kana": "トヨタマキタ",
    "street": "５丁目２９−１サンライトビル",
    "office_name": "三菱電線工業　株式会社",
    "office_name_kana": "ミツビシデンセンコウギヨウ カブシキカイシヤ"
  },
  "8517": {
    "postcode": "1768517",
    "prefecture": "東京都",
    "prefecture_kana": "トウキョウト",
    "prefecture_code": 13,
    "city": "練馬区",
    "city_kana": "ネリマク",
    "town": "豊玉北",
    "town_kana": "トヨタマキタ",
    "street": "６−１３−１０",
    "office_name": "東京都都税総合事務センター　自動車税課課税班",
    "office_name_kana": "トウキヨウトトゼイソウゴウジムセンタ- ジドウシヤゼイカカゼイハン"
  },
  "8518": {
    "postcode": "1768518",
    "prefecture": "東京都",
    "prefecture_kana": "トウキョウト",
    "prefecture_code": 13,
    "city": "練馬区",
    "city_kana": "ネリマク",
    "town": "豊玉上",
    "town_kana": "トヨタマカミ",
    "street": "１丁目７−１４",
    "office_name": "株式会社　永岡書店",
    "office_name_kana": "カブシキガイシヤ ナガオカシヨテン"
  },
  "8521": {
    "postcode": "1768521",
    "prefecture": "東京都",
    "prefecture_kana": "トウキョウト",
    "prefecture_code": 13,
    "city": "練馬区",
    "city_kana": "ネリマク",
    "town": "羽沢",
    "town_kana": "ハザワ",
    "street": "１丁目１３−１",
    "office_name": "学校法人　武蔵野音楽学園",
    "office_name_kana": "ガツコウホウジン ムサシノオンガクガクエン"
  },
  "8522": {
    "postcode": "1768522",
    "prefecture": "東京都",
    "prefecture_kana": "トウキョウト",
    "prefecture_code": 13,
    "city": "練馬区",
    "city_kana": "ネリマク",
    "town": "豊玉北",
    "town_kana": "トヨタマキタ",
    "street": "２丁目１６番１４号",
    "office_name": "野口興産　株式会社",
    "office_name_kana": "ノグチコウサン カブシキガイシヤ"
  },
  "8525": {
    "postcode": "1768525",
    "prefecture": "東京都",
    "prefecture_kana": "トウキョウト",
    "prefecture_code": 13,
    "city": "練馬区",
    "city_kana": "ネリマク",
    "town": "旭丘",
    "town_kana": "アサヒガオカ",
    "street": "２丁目４２−１",
    "office_name": "日本大学　芸術学部",
    "office_name_kana": "ニホンダイガク ゲイジユツガクブ"
  },
  "8526": {
    "postcode": "1768526",
    "prefecture": "東京都",
    "prefecture_kana": "トウキョウト",
    "prefecture_code": 13,
    "city": "練馬区",
    "city_kana": "ネリマク",
    "town": "豊玉北",
    "town_kana": "トヨタマキタ",
    "street": "６−１３−１０",
    "office_name": "東京都都税総合事務センター　還付管理課",
    "office_name_kana": "トウキヨウトトゼイソウゴウジムセンタ- カンプカンリカ"
  },
  "8528": {
    "postcode": "1768528",
    "prefecture": "東京都",
    "prefecture_kana": "トウキョウト",
    "prefecture_code": 13,
    "city": "練馬区",
    "city_kana": "ネリマク",
    "town": "貫井",
    "town_kana": "ヌクイ",
    "street": "１丁目１３−１７",
    "office_name": "アジアカラー　株式会社",
    "office_name_kana": "アジアカラ- カブシキガイシヤ"
  },
  "8530": {
    "postcode": "1768530",
    "prefecture": "東京都",
    "prefecture_kana": "トウキョウト",
    "prefecture_code": 13,
    "city": "練馬区",
    "city_kana": "ネリマク",
    "town": "旭丘",
    "town_kana": "アサヒガオカ",
    "street": "１丁目２４−１",
    "office_name": "練馬総合病院",
    "office_name_kana": "ネリマソウゴウビヨウイン"
  },
  "8531": {
    "postcode": "1768531",
    "prefecture": "東京都",
    "prefecture_kana": "トウキョウト",
    "prefecture_code": 13,
    "city": "練馬区",
    "city_kana": "ネリマク",
    "town": "向山",
    "town_kana": "コウヤマ",
    "street": "３丁目２５−１",
    "office_name": "株式会社　豊島園",
    "office_name_kana": "カブシキガイシヤ トシマエン"
  },
  "8533": {
    "postcode": "1768533",
    "prefecture": "東京都",
    "prefecture_kana": "トウキョウト",
    "prefecture_code": 13,
    "city": "練馬区",
    "city_kana": "ネリマク",
    "town": "豊玉上",
    "town_kana": "トヨタマカミ",
    "street": "１丁目２６番１号",
    "office_name": "学校法人　根津育英会武蔵学園",
    "office_name_kana": "ガツコウホウジン ネヅイクエイカイムサシガクエン"
  },
  "8534": {
    "postcode": "1768534",
    "prefecture": "東京都",
    "prefecture_kana": "トウキョウト",
    "prefecture_code": 13,
    "city": "練馬区",
    "city_kana": "ネリマク",
    "town": "豊玉上",
    "town_kana": "トヨタマカミ",
    "street": "１丁目２６−１",
    "office_name": "武蔵大学",
    "office_name_kana": "ムサシダイガク"
  },
  "8535": {
    "postcode": "1768535",
    "prefecture": "東京都",
    "prefecture_kana": "トウキョウト",
    "prefecture_code": 13,
    "city": "練馬区",
    "city_kana": "ネリマク",
    "town": "豊玉上",
    "town_kana": "トヨタマカミ",
    "street": "１丁目２６−１",
    "office_name": "武蔵高等学校・中学校",
    "office_name_kana": "ムサシコウトウガツコウ・チユウガツコウ"
  },
  "8536": {
    "postcode": "1768536",
    "prefecture": "東京都",
    "prefecture_kana": "トウキョウト",
    "prefecture_code": 13,
    "city": "練馬区",
    "city_kana": "ネリマク",
    "town": "豊玉北",
    "town_kana": "トヨタマキタ",
    "street": "５丁目２４−１５",
    "office_name": "内野建設　株式会社",
    "office_name_kana": "ウチノケンセツ カブシキガイシヤ"
  },
  "8540": {
    "postcode": "1768540",
    "prefecture": "東京都",
    "prefecture_kana": "トウキョウト",
    "prefecture_code": 13,
    "city": "練馬区",
    "city_kana": "ネリマク",
    "town": "中村北",
    "town_kana": "ナカムラキタ",
    "street": "１丁目９−４",
    "office_name": "東京都水道局　練馬営業所",
    "office_name_kana": "トウキヨウトスイドウキヨク ネリマエイギヨウシヨ"
  },
  "8560": {
    "postcode": "1768560",
    "prefecture": "東京都",
    "prefecture_kana": "トウキョウト",
    "prefecture_code": 13,
    "city": "練馬区",
    "city_kana": "ネリマク",
    "town": "豊玉北",
    "town_kana": "トヨタマキタ",
    "street": "２丁目２１−１１",
    "office_name": "（株）　協和",
    "office_name_kana": "カブシキガイシヤ キヨウワ"
  },
  "8585": {
    "postcode": "1768585",
    "prefecture": "東京都",
    "prefecture_kana": "トウキョウト",
    "prefecture_code": 13,
    "city": "練馬区",
    "city_kana": "ネリマク",
    "town": "豊玉北",
    "town_kana": "トヨタマキタ",
    "street": "２丁目３−１",
    "office_name": "三笠製薬　株式会社",
    "office_name_kana": "ミカサセイヤク カブシキガイシヤ"
  }
}