{
  "0031": {
    "postcode": "1770031",
    "prefecture": "東京都",
    "prefecture_kana": "トウキョウト",
    "prefecture_code": 13,
    "city": "練馬区",
    "city_kana": "ネリマク",
    "town": "三原台",
    "town_kana": "ミハラダイ",
    "street": null,
    "office_name": null,
    "office_name_kana": null
  },
  "0032": {
    "postcode": "1770032",
    "prefecture": "東京都",
    "prefecture_kana": "トウキョウト",
    "prefecture_code": 13,
    "city": "練馬区",
    "city_kana": "ネリマク",
    "town": "谷原",
    "town_kana": "ヤハラ",
    "street": null,
    "office_name": null,
    "office_name_kana": null
  },
  "0033": {
    "postcode": "1770033",
    "prefecture": "東京都",
    "prefecture_kana": "トウキョウト",
    "prefecture_code": 13,
    "city": "練馬区",
    "city_kana": "ネリマク",
    "town": "高野台",
    "town_kana": "タカノダイ",
    "street": null,
    "office_name": null,
    "office_name_kana": null
  },
  "0034": {
    "postcode": "1770034",
    "prefecture": "東京都",
    "prefecture_kana": "トウキョウト",
    "prefecture_code": 13,
    "city": "練馬区",
    "city_kana": "ネリマク",
    "town": "富士見台",
    "town_kana": "フジミダイ",
    "street": null,
    "office_name": null,
    "office_name_kana": null
  },
  "0035": {
    "postcode": "1770035",
    "prefecture": "東京都",
    "prefecture_kana": "トウキョウト",
    "prefecture_code": 13,
    "city": "練馬区",
    "city_kana": "ネリマク",
    "town": "南田中",
    "town_kana": "ミナミタナカ",
    "street": null,
    "office_name": null,
    "office_name_kana": null
  },
  "0041": {
    "postcode": "1770041",
    "prefecture": "東京都",
    "prefecture_kana": "トウキョウト",
    "prefecture_code": 13,
    "city": "練馬区",
    "city_kana": "ネリマク",
    "town": "石神井町",
    "town_kana": "シャクジイマチ",
    "street": null,
    "office_name": null,
    "office_name_kana": null
  },
  "0042": {
    "postcode": "1770042",
    "prefecture": "東京都",
    "prefecture_kana": "トウキョウト",
    "prefecture_code": 13,
    "city": "練馬区",
    "city_kana": "ネリマク",
    "town": "下石神井",
    "town_kana": "シモシャクジイ",
    "street": null,
    "office_name": null,
    "office_name_kana": null
  },
  "0043": {
    "postcode": "1770043",
    "prefecture": "東京都",
    "prefecture_kana": "トウキョウト",
    "prefecture_code": 13,
    "city": "練馬区",
    "city_kana": "ネリマク",
    "town": "上石神井南町",
    "town_kana": "カミシャクジイミナミチョウ",
    "street": null,
    "office_name": null,
    "office_name_kana": null
  },
  "0044": {
    "postcode": "1770044",
    "prefecture": "東京都",
    "prefecture_kana": "トウキョウト",
    "prefecture_code": 13,
    "city": "練馬区",
    "city_kana": "ネリマク",
    "town": "上石神井",
    "town_kana": "カミシャクジイ",
    "street": null,
    "office_name": null,
    "office_name_kana": null
  },
  "0045": {
    "postcode": "1770045",
    "prefecture": "東京都",
    "prefecture_kana": "トウキョウト",
    "prefecture_code": 13,
    "city": "練馬区",
    "city_kana": "ネリマク",
    "town": "石神井台",
    "town_kana": "シャクジイダイ",
    "street": null,
    "office_name": null,
    "office_name_kana": null
  },
  "0051": {
    "postcode": "1770051",
    "prefecture": "東京都",
    "prefecture_kana": "トウキョウト",
    "prefecture_code": 13,
    "city": "練馬区",
    "city_kana": "ネリマク",
    "town": "関町北",
    "town_kana": "セキマチキタ",
    "street": null,
    "office_name": null,
    "office_name_kana": null
  },
  "0052": {
    "postcode": "1770052",
    "prefecture": "東京都",
    "prefecture_kana": "トウキョウト",
    "prefecture_code": 13,
    "city": "練馬区",
    "city_kana": "ネリマク",
    "town": "関町東",
    "town_kana": "セキマチヒガシ",
    "street": null,
    "office_name": null,
    "office_name_kana": null
  },
  "0053": {
    "postcode": "1770053",
    "prefecture": "東京都",
    "prefecture_kana": "トウキョウト",
    "prefecture_code": 13,
    "city": "練馬区",
    "city_kana": "ネリマク",
    "town": "関町南",
    "town_kana": "セキマチミナミ",
    "street": null,
    "office_name": null,
    "office_name_kana": null
  },
  "0054": {
    "postcode": "1770054",
    "prefecture": "東京都",
    "prefecture_kana": "トウキョウト",
    "prefecture_code": 13,
    "city": "練馬区",
    "city_kana": "ネリマク",
    "town": "立野町",
    "town_kana": "タテノチョウ",
    "street": null,
    "office_name": null,
    "office_name_kana": null
  },
  "8501": {
    "postcode": "1778501",
    "prefecture": "東京都",
    "prefecture_kana": "トウキョウト",
    "prefecture_code": 13,
    "city": "練馬区",
    "city_kana": "ネリマク",
    "town": "三原台",
    "town_kana": "ミハラダイ",
    "street": "１丁目１５−１７",
    "office_name": "大陽ステンレススプリング　（株）",
    "office_name_kana": "タイヨウステンレススプリング (カブ)"
  },
  "8502": {
    "postcode": "1778502",
    "prefecture": "東京都",
    "prefecture_kana": "トウキョウト",
    "prefecture_code": 13,
    "city": "練馬区",
    "city_kana": "ネリマク",
    "town": "上石神井",
    "town_kana": "カミシャクジイ",
    "street": "４丁目８−２３",
    "office_name": "独立行政法人　労働政策研究・研修機構",
    "office_name_kana": "ドクリツギヨウセイホウジン ロウドウセイサクケンキユウ・ケンシユウキコウ"
  },
  "8503": {
    "postcode": "1778503",
    "prefecture": "東京都",
    "prefecture_kana": "トウキョウト",
    "prefecture_code": 13,
    "city": "練馬区",
    "city_kana": "ネリマク",
    "town": "谷原",
    "town_kana": "ヤハラ",
    "street": "２丁目１−２６",
    "office_name": "株式会社　アートプリントジャパン",
    "office_name_kana": "カブシキガイシヤ ア-トプリントジヤパン"
  },
  "8508": {
    "postcode": "1778508",
    "prefecture": "東京都",
    "prefecture_kana": "トウキョウト",
    "prefecture_code": 13,
    "city": "練馬区",
    "city_kana": "ネリマク",
    "town": "高野台",
    "town_kana": "タカノダイ",
    "street": "２丁目２３−２０",
    "office_name": "社団法人　練馬区医師会",
    "office_name_kana": "シヤダンホウジン ネリマクイシカイ"
  },
  "8509": {
    "postcode": "1778509",
    "prefecture": "東京都",
    "prefecture_kana": "トウキョウト",
    "prefecture_code": 13,
    "city": "練馬区",
    "city_kana": "ネリマク",
    "town": "石神井町",
    "town_kana": "シャクジイマチ",
    "street": "３丁目３０−２６",
    "office_name": "練馬区石神井庁舎",
    "office_name_kana": "ネリマクシヤクジイチヨウシヤ"
  },
  "8521": {
    "postcode": "1778521",
    "prefecture": "東京都",
    "prefecture_kana": "トウキョウト",
    "prefecture_code": 13,
    "city": "練馬区",
    "city_kana": "ネリマク",
    "town": "高野台",
    "town_kana": "タカノダイ",
    "street": "３丁目１−１０",
    "office_name": "順天堂大学医学部附属　練馬病院",
    "office_name_kana": "ジユンテンドウダイガクイガクブフゾク ネリマビヨウイン"
  }
}