{
  "0061": {
    "postcode": "1780061",
    "prefecture": "東京都",
    "prefecture_kana": "トウキョウト",
    "prefecture_code": 13,
    "city": "練馬区",
    "city_kana": "ネリマク",
    "town": "大泉学園町",
    "town_kana": "オオイズミガクエンチョウ",
    "street": null,
    "office_name": null,
    "office_name_kana": null
  },
  "0062": {
    "postcode": "1780062",
    "prefecture": "東京都",
    "prefecture_kana": "トウキョウト",
    "prefecture_code": 13,
    "city": "練馬区",
    "city_kana": "ネリマク",
    "town": "大泉町",
    "town_kana": "オオイズミマチ",
    "street": null,
    "office_name": null,
    "office_name_kana": null
  },
  "0063": {
    "postcode": "1780063",
    "prefecture": "東京都",
    "prefecture_kana": "トウキョウト",
    "prefecture_code": 13,
    "city": "練馬区",
    "city_kana": "ネリマク",
    "town": "東大泉",
    "town_kana": "ヒガシオオイズミ",
    "street": null,
    "office_name": null,
    "office_name_kana": null
  },
  "0064": {
    "postcode": "1780064",
    "prefecture": "東京都",
    "prefecture_kana": "トウキョウト",
    "prefecture_code": 13,
    "city": "練馬区",
    "city_kana": "ネリマク",
    "town": "南大泉",
    "town_kana": "ミナミオオイズミ",
    "street": null,
    "office_name": null,
    "office_name_kana": null
  },
  "0065": {
    "postcode": "1780065",
    "prefecture": "東京都",
    "prefecture_kana": "トウキョウト",
    "prefecture_code": 13,
    "city": "練馬区",
    "city_kana": "ネリマク",
    "town": "西大泉",
    "town_kana": "ニシオオイズミ",
    "street": null,
    "office_name": null,
    "office_name_kana": null
  },
  "0066": {
    "postcode": "1780066",
    "prefecture": "東京都",
    "prefecture_kana": "トウキョウト",
    "prefecture_code": 13,
    "city": "練馬区",
    "city_kana": "ネリマク",
    "town": "西大泉町",
    "town_kana": "ニシオオイズミマチ",
    "street": null,
    "office_name": null,
    "office_name_kana": null
  },
  "8501": {
    "postcode": "1788501",
    "prefecture": "東京都",
    "prefecture_kana": "トウキョウト",
    "prefecture_code": 13,
    "city": "練馬区",
    "city_kana": "ネリマク",
    "town": "",
    "town_kana": "",
    "street": "大泉学園町",
    "office_name": "陸上自衛隊　朝霞駐屯地",
    "office_name_kana": "リクジヨウジエイタイ アサカチユウトンチ"
  },
  "8502": {
    "postcode": "1788502",
    "prefecture": "東京都",
    "prefecture_kana": "トウキョウト",
    "prefecture_code": 13,
    "city": "練馬区",
    "city_kana": "ネリマク",
    "town": "東大泉",
    "town_kana": "ヒガシオオイズミ",
    "street": "２丁目１０−１１",
    "office_name": "株式会社　西友オズ　大泉西武店",
    "office_name_kana": "カブシキガイシヤ セイユウオズ オオイズミセイブテン"
  },
  "8511": {
    "postcode": "1788511",
    "prefecture": "東京都",
    "prefecture_kana": "トウキョウト",
    "prefecture_code": 13,
    "city": "練馬区",
    "city_kana": "ネリマク",
    "town": "東大泉",
    "town_kana": "ヒガシオオイズミ",
    "street": "１丁目１９−４３",
    "office_name": "株式会社　タムラ製作所",
    "office_name_kana": "カブシキガイシヤ タムラセイサクシヨ"
  },
  "8567": {
    "postcode": "1788567",
    "prefecture": "東京都",
    "prefecture_kana": "トウキョウト",
    "prefecture_code": 13,
    "city": "練馬区",
    "city_kana": "ネリマク",
    "town": "東大泉",
    "town_kana": "ヒガシオオイズミ",
    "street": "２丁目１０−５",
    "office_name": "東映アニメーション　株式会社",
    "office_name_kana": "トウエイアニメ-シヨン カブシキガイシヤ"
  },
  "8601": {
    "postcode": "1788601",
    "prefecture": "東京都",
    "prefecture_kana": "トウキョウト",
    "prefecture_code": 13,
    "city": "練馬区",
    "city_kana": "ネリマク",
    "town": "東大泉",
    "town_kana": "ヒガシオオイズミ",
    "street": "１丁目２９−１",
    "office_name": "大泉　総合福祉事務所",
    "office_name_kana": "オオイズミ ソウゴウフクシジムシヨ"
  },
  "8624": {
    "postcode": "1788624",
    "prefecture": "東京都",
    "prefecture_kana": "トウキョウト",
    "prefecture_code": 13,
    "city": "練馬区",
    "city_kana": "ネリマク",
    "town": "東大泉",
    "town_kana": "ヒガシオオイズミ",
    "street": "７丁目３１−３５",
    "office_name": "練馬西　税務署",
    "office_name_kana": "ネリマニシ ゼイムシヨ"
  },
  "8666": {
    "postcode": "1788666",
    "prefecture": "東京都",
    "prefecture_kana": "トウキョウト",
    "prefecture_code": 13,
    "city": "練馬区",
    "city_kana": "ネリマク",
    "town": "東大泉",
    "town_kana": "ヒガシオオイズミ",
    "street": "２丁目３４−５",
    "office_name": "東映　株式会社　東京撮影所",
    "office_name_kana": "トウエイ カブシキガイシヤ トウキヨウサツエイシヨ"
  },
  "8686": {
    "postcode": "1788686",
    "prefecture": "東京都",
    "prefecture_kana": "トウキョウト",
    "prefecture_code": 13,
    "city": "練馬区",
    "city_kana": "ネリマク",
    "town": "大泉学園町",
    "town_kana": "オオイズミガクエンチョウ",
    "street": "７丁目２４−１４",
    "office_name": "株式会社　セコニック",
    "office_name_kana": "カブシキガイシヤ セコニツク"
  }
}