{
  "0071": {
    "postcode": "1790071",
    "prefecture": "東京都",
    "prefecture_kana": "トウキョウト",
    "prefecture_code": 13,
    "city": "練馬区",
    "city_kana": "ネリマク",
    "town": "旭町",
    "town_kana": "アサヒチョウ",
    "street": null,
    "office_name": null,
    "office_name_kana": null
  },
  "0072": {
    "postcode": "1790072",
    "prefecture": "東京都",
    "prefecture_kana": "トウキョウト",
    "prefecture_code": 13,
    "city": "練馬区",
    "city_kana": "ネリマク",
    "town": "光が丘",
    "town_kana": "ヒカリガオカ",
    "street": null,
    "office_name": null,
    "office_name_kana": null
  },
  "0073": {
    "postcode": "1790073",
    "prefecture": "東京都",
    "prefecture_kana": "トウキョウト",
    "prefecture_code": 13,
    "city": "練馬区",
    "city_kana": "ネリマク",
    "town": "田柄",
    "town_kana": "タガラ",
    "street": null,
    "office_name": null,
    "office_name_kana": null
  },
  "0074": {
    "postcode": "1790074",
    "prefecture": "東京都",
    "prefecture_kana": "トウキョウト",
    "prefecture_code": 13,
    "city": "練馬区",
    "city_kana": "ネリマク",
    "town": "春日町",
    "town_kana": "カスガチョウ",
    "street": null,
    "office_name": null,
    "office_name_kana": null
  },
  "0075": {
    "postcode": "1790075",
    "prefecture": "東京都",
    "prefecture_kana": "トウキョウト",
    "prefecture_code": 13,
    "city": "練馬区",
    "city_kana": "ネリマク",
    "town": "高松",
    "town_kana": "タカマツ",
    "street": null,
    "office_name": null,
    "office_name_kana": null
  },
  "0076": {
    "postcode": "1790076",
    "prefecture": "東京都",
    "prefecture_kana": "トウキョウト",
    "prefecture_code": 13,
    "city": "練馬区",
    "city_kana": "ネリマク",
    "town": "土支田",
    "town_kana": "ドシダ",
    "street": null,
    "office_name": null,
    "office_name_kana": null
  },
  "0081": {
    "postcode": "1790081",
    "prefecture": "東京都",
    "prefecture_kana": "トウキョウト",
    "prefecture_code": 13,
    "city": "練馬区",
    "city_kana": "ネリマク",
    "town": "北町",
    "town_kana": "キタマチ",
    "street": null,
    "office_name": null,
    "office_name_kana": null
  },
  "0082": {
    "postcode": "1790082",
    "prefecture": "東京都",
    "prefecture_kana": "トウキョウト",
    "prefecture_code": 13,
    "city": "練馬区",
    "city_kana": "ネリマク",
    "town": "錦",
    "town_kana": "ニシキ",
    "street": null,
    "office_name": null,
    "office_name_kana": null
  },
  "0083": {
    "postcode": "1790083",
    "prefecture": "東京都",
    "prefecture_kana": "トウキョウト",
    "prefecture_code": 13,
    "city": "練馬区",
    "city_kana": "ネリマク",
    "town": "平和台",
    "town_kana": "ヘイワダイ",
    "street": null,
    "office_name": null,
    "office_name_kana": null
  },
  "0084": {
    "postcode": "1790084",
    "prefecture": "東京都",
    "prefecture_kana": "トウキョウト",
    "prefecture_code": 13,
    "city": "練馬区",
    "city_kana": "ネリマク",
    "town": "氷川台",
    "town_kana": "ヒカワダイ",
    "street": null,
    "office_name": null,
    "office_name_kana": null
  },
  "0085": {
    "postcode": "1790085",
    "prefecture": "東京都",
    "prefecture_kana": "トウキョウト",
    "prefecture_code": 13,
    "city": "練馬区",
    "city_kana": "ネリマク",
    "town": "早宮",
    "town_kana": "ハヤミヤ",
    "street": null,
    "office_name": null,
    "office_name_kana": null
  },
  "8501": {
    "postcode": "1798501",
    "prefecture": "東京都",
    "prefecture_kana": "トウキョウト",
    "prefecture_code": 13,
    "city": "練馬区",
    "city_kana": "ネリマク",
    "town": "春日町",
    "town_kana": "カスガチョウ",
    "street": "５丁目３５−３３",
    "office_name": "東京法務局　練馬出張所",
    "office_name_kana": "トウキヨウホウムキヨク ネリマシユツチヨウジヨ"
  },
  "8901": {
    "postcode": "1798901",
    "prefecture": "東京都",
    "prefecture_kana": "トウキョウト",
    "prefecture_code": 13,
    "city": "練馬区",
    "city_kana": "ネリマク",
    "town": "高松",
    "town_kana": "タカマツ",
    "street": "４丁目４−３",
    "office_name": "松下ライフエレクトロニクス　（株）",
    "office_name_kana": "マツシタライフエレクトロニクス"
  },
  "8903": {
    "postcode": "1798903",
    "prefecture": "東京都",
    "prefecture_kana": "トウキョウト",
    "prefecture_code": 13,
    "city": "練馬区",
    "city_kana": "ネリマク",
    "town": "高松",
    "town_kana": "タカマツ",
    "street": "５丁目８−２０",
    "office_name": "前田建設　（株）",
    "office_name_kana": "マエダケンセツ"
  },
  "8904": {
    "postcode": "1798904",
    "prefecture": "東京都",
    "prefecture_kana": "トウキョウト",
    "prefecture_code": 13,
    "city": "練馬区",
    "city_kana": "ネリマク",
    "town": "田柄",
    "town_kana": "タガラ",
    "street": "３丁目３０−１５",
    "office_name": "河端建設　（株）",
    "office_name_kana": "カワバタケンセツ (カブ)"
  },
  "8906": {
    "postcode": "1798906",
    "prefecture": "東京都",
    "prefecture_kana": "トウキョウト",
    "prefecture_code": 13,
    "city": "練馬区",
    "city_kana": "ネリマク",
    "town": "旭町",
    "town_kana": "アサヒチョウ",
    "street": "２丁目９−１３",
    "office_name": "光が丘パークヴィラ",
    "office_name_kana": "ヒカリガオカパ-クヴイラ"
  },
  "8907": {
    "postcode": "1798907",
    "prefecture": "東京都",
    "prefecture_kana": "トウキョウト",
    "prefecture_code": 13,
    "city": "練馬区",
    "city_kana": "ネリマク",
    "town": "旭町",
    "town_kana": "アサヒチョウ",
    "street": "２丁目１−３９",
    "office_name": "光が丘高等学校",
    "office_name_kana": "ヒカリガオカコウトウガツコウ"
  },
  "8909": {
    "postcode": "1798909",
    "prefecture": "東京都",
    "prefecture_kana": "トウキョウト",
    "prefecture_code": 13,
    "city": "練馬区",
    "city_kana": "ネリマク",
    "town": "早宮",
    "town_kana": "ハヤミヤ",
    "street": "２丁目９−１８",
    "office_name": "練馬工業高等学校",
    "office_name_kana": "ネリマコウギヨウコウトウガツコウ"
  },
  "8911": {
    "postcode": "1798911",
    "prefecture": "東京都",
    "prefecture_kana": "トウキョウト",
    "prefecture_code": 13,
    "city": "練馬区",
    "city_kana": "ネリマク",
    "town": "高松",
    "town_kana": "タカマツ",
    "street": "６丁目１２−２０（光が丘郵便局私書箱第２５・２６・２７号）",
    "office_name": "トモダ企画",
    "office_name_kana": "トモダキカク"
  },
  "8914": {
    "postcode": "1798914",
    "prefecture": "東京都",
    "prefecture_kana": "トウキョウト",
    "prefecture_code": 13,
    "city": "練馬区",
    "city_kana": "ネリマク",
    "town": "旭町",
    "town_kana": "アサヒチョウ",
    "street": "１丁目３９−１６",
    "office_name": "前田建設　技術研究所",
    "office_name_kana": "マエダケンセツ ギジユツケンキユウシヨ"
  }
}