{
  "0000": {
    "postcode": "1830000",
    "prefecture": "東京都",
    "prefecture_kana": "トウキョウト",
    "prefecture_code": 13,
    "city": "府中市",
    "city_kana": "フチュウシ",
    "town": "",
    "town_kana": "",
    "street": null,
    "office_name": null,
    "office_name_kana": null
  },
  "0001": {
    "postcode": "1830001",
    "prefecture": "東京都",
    "prefecture_kana": "トウキョウト",
    "prefecture_code": 13,
    "city": "府中市",
    "city_kana": "フチュウシ",
    "town": "浅間町",
    "town_kana": "センゲンチョウ",
    "street": null,
    "office_name": null,
    "office_name_kana": null
  },
  "0002": {
    "postcode": "1830002",
    "prefecture": "東京都",
    "prefecture_kana": "トウキョウト",
    "prefecture_code": 13,
    "city": "府中市",
    "city_kana": "フチュウシ",
    "town": "多磨町",
    "town_kana": "タマチョウ",
    "street": null,
    "office_name": null,
    "office_name_kana": null
  },
  "0003": {
    "postcode": "1830003",
    "prefecture": "東京都",
    "prefecture_kana": "トウキョウト",
    "prefecture_code": 13,
    "city": "府中市",
    "city_kana": "フチュウシ",
    "town": "朝日町",
    "town_kana": "アサヒチョウ",
    "street": null,
    "office_name": null,
    "office_name_kana": null
  },
  "0004": {
    "postcode": "1830004",
    "prefecture": "東京都",
    "prefecture_kana": "トウキョウト",
    "prefecture_code": 13,
    "city": "府中市",
    "city_kana": "フチュウシ",
    "town": "紅葉丘",
    "town_kana": "モミジガオカ",
    "street": null,
    "office_name": null,
    "office_name_kana": null
  },
  "0005": {
    "postcode": "1830005",
    "prefecture": "東京都",
    "prefecture_kana": "トウキョウト",
    "prefecture_code": 13,
    "city": "府中市",
    "city_kana": "フチュウシ",
    "town": "若松町",
    "town_kana": "ワカマツチョウ",
    "street": null,
    "office_name": null,
    "office_name_kana": null
  },
  "0006": {
    "postcode": "1830006",
    "prefecture": "東京都",
    "prefecture_kana": "トウキョウト",
    "prefecture_code": 13,
    "city": "府中市",
    "city_kana": "フチュウシ",
    "town": "緑町",
    "town_kana": "ミドリチョウ",
    "street": null,
    "office_name": null,
    "office_name_kana": null
  },
  "0011": {
    "postcode": "1830011",
    "prefecture": "東京都",
    "prefecture_kana": "トウキョウト",
    "prefecture_code": 13,
    "city": "府中市",
    "city_kana": "フチュウシ",
    "town": "白糸台",
    "town_kana": "シライトダイ",
    "street": null,
    "office_name": null,
    "office_name_kana": null
  },
  "0012": {
    "postcode": "1830012",
    "prefecture": "東京都",
    "prefecture_kana": "トウキョウト",
    "prefecture_code": 13,
    "city": "府中市",
    "city_kana": "フチュウシ",
    "town": "押立町",
    "town_kana": "オシタテチョウ",
    "street": null,
    "office_name": null,
    "office_name_kana": null
  },
  "0013": {
    "postcode": "1830013",
    "prefecture": "東京都",
    "prefecture_kana": "トウキョウト",
    "prefecture_code": 13,
    "city": "府中市",
    "city_kana": "フチュウシ",
    "town": "小柳町",
    "town_kana": "コヤナギチョウ",
    "street": null,
    "office_name": null,
    "office_name_kana": null
  },
  "0014": {
    "postcode": "1830014",
    "prefecture": "東京都",
    "prefecture_kana": "トウキョウト",
    "prefecture_code": 13,
    "city": "府中市",
    "city_kana": "フチュウシ",
    "town": "是政",
    "town_kana": "コレマサ",
    "street": null,
    "office_name": null,
    "office_name_kana": null
  },
  "0015": {
    "postcode": "1830015",
    "prefecture": "東京都",
    "prefecture_kana": "トウキョウト",
    "prefecture_code": 13,
    "city": "府中市",
    "city_kana": "フチュウシ",
    "town": "清水が丘",
    "town_kana": "シミズガオカ",
    "street": null,
    "office_name": null,
    "office_name_kana": null
  },
  "0016": {
    "postcode": "1830016",
    "prefecture": "東京都",
    "prefecture_kana": "トウキョウト",
    "prefecture_code": 13,
    "city": "府中市",
    "city_kana": "フチュウシ",
    "town": "八幡町",
    "town_kana": "ハチマンチョウ",
    "street": null,
    "office_name": null,
    "office_name_kana": null
  },
  "0021": {
    "postcode": "1830021",
    "prefecture": "東京都",
    "prefecture_kana": "トウキョウト",
    "prefecture_code": 13,
    "city": "府中市",
    "city_kana": "フチュウシ",
    "town": "片町",
    "town_kana": "カタマチ",
    "street": null,
    "office_name": null,
    "office_name_kana": null
  },
  "0022": {
    "postcode": "1830022",
    "prefecture": "東京都",
    "prefecture_kana": "トウキョウト",
    "prefecture_code": 13,
    "city": "府中市",
    "city_kana": "フチュウシ",
    "town": "宮西町",
    "town_kana": "ミヤニシチョウ",
    "street": null,
    "office_name": null,
    "office_name_kana": null
  },
  "0023": {
    "postcode": "1830023",
    "prefecture": "東京都",
    "prefecture_kana": "トウキョウト",
    "prefecture_code": 13,
    "city": "府中市",
    "city_kana": "フチュウシ",
    "town": "宮町",
    "town_kana": "ミヤマチ",
    "street": null,
    "office_name": null,
    "office_name_kana": null
  },
  "0024": {
    "postcode": "1830024",
    "prefecture": "東京都",
    "prefecture_kana": "トウキョウト",
    "prefecture_code": 13,
    "city": "府中市",
    "city_kana": "フチュウシ",
    "town": "日吉町",
    "town_kana": "ヒヨシチョウ",
    "street": null,
    "office_name": null,
    "office_name_kana": null
  },
  "0025": {
    "postcode": "1830025",
    "prefecture": "東京都",
    "prefecture_kana": "トウキョウト",
    "prefecture_code": 13,
    "city": "府中市",
    "city_kana": "フチュウシ",
    "town": "矢崎町",
    "town_kana": "ヤザキチョウ",
    "street": null,
    "office_name": null,
    "office_name_kana": null
  },
  "0026": {
    "postcode": "1830026",
    "prefecture": "東京都",
    "prefecture_kana": "トウキョウト",
    "prefecture_code": 13,
    "city": "府中市",
    "city_kana": "フチュウシ",
    "town": "南町",
    "town_kana": "ミナミチョウ",
    "street": null,
    "office_name": null,
    "office_name_kana": null
  },
  "0027": {
    "postcode": "1830027",
    "prefecture": "東京都",
    "prefecture_kana": "トウキョウト",
    "prefecture_code": 13,
    "city": "府中市",
    "city_kana": "フチュウシ",
    "town": "本町",
    "town_kana": "ホンマチ",
    "street": null,
    "office_name": null,
    "office_name_kana": null
  },
  "0031": {
    "postcode": "1830031",
    "prefecture": "東京都",
    "prefecture_kana": "トウキョウト",
    "prefecture_code": 13,
    "city": "府中市",
    "city_kana": "フチュウシ",
    "town": "西府町",
    "town_kana": "ニシフチョウ",
    "street": null,
    "office_name": null,
    "office_name_kana": null
  },
  "0032": {
    "postcode": "1830032",
    "prefecture": "東京都",
    "prefecture_kana": "トウキョウト",
    "prefecture_code": 13,
    "city": "府中市",
    "city_kana": "フチュウシ",
    "town": "本宿町",
    "town_kana": "ホンシュクチョウ",
    "street": null,
    "office_name": null,
    "office_name_kana": null
  },
  "0033": {
    "postcode": "1830033",
    "prefecture": "東京都",
    "prefecture_kana": "トウキョウト",
    "prefecture_code": 13,
    "city": "府中市",
    "city_kana": "フチュウシ",
    "town": "分梅町",
    "town_kana": "ブバイチョウ",
    "street": null,
    "office_name": null,
    "office_name_kana": null
  },
  "0034": {
    "postcode": "1830034",
    "prefecture": "東京都",
    "prefecture_kana": "トウキョウト",
    "prefecture_code": 13,
    "city": "府中市",
    "city_kana": "フチュウシ",
    "town": "住吉町",
    "town_kana": "スミヨシチョウ",
    "street": null,
    "office_name": null,
    "office_name_kana": null
  },
  "0035": {
    "postcode": "1830035",
    "prefecture": "東京都",
    "prefecture_kana": "トウキョウト",
    "prefecture_code": 13,
    "city": "府中市",
    "city_kana": "フチュウシ",
    "town": "四谷",
    "town_kana": "ヨツヤ",
    "street": null,
    "office_name": null,
    "office_name_kana": null
  },
  "0036": {
    "postcode": "1830036",
    "prefecture": "東京都",
    "prefecture_kana": "トウキョウト",
    "prefecture_code": 13,
    "city": "府中市",
    "city_kana": "フチュウシ",
    "town": "日新町",
    "town_kana": "ニッシンチョウ",
    "street": null,
    "office_name": null,
    "office_name_kana": null
  },
  "0041": {
    "postcode": "1830041",
    "prefecture": "東京都",
    "prefecture_kana": "トウキョウト",
    "prefecture_code": 13,
    "city": "府中市",
    "city_kana": "フチュウシ",
    "town": "北山町",
    "town_kana": "キタヤマチョウ",
    "street": null,
    "office_name": null,
    "office_name_kana": null
  },
  "0042": {
    "postcode": "1830042",
    "prefecture": "東京都",
    "prefecture_kana": "トウキョウト",
    "prefecture_code": 13,
    "city": "府中市",
    "city_kana": "フチュウシ",
    "town": "武蔵台",
    "town_kana": "ムサシダイ",
    "street": null,
    "office_name": null,
    "office_name_kana": null
  },
  "0043": {
    "postcode": "1830043",
    "prefecture": "東京都",
    "prefecture_kana": "トウキョウト",
    "prefecture_code": 13,
    "city": "府中市",
    "city_kana": "フチュウシ",
    "town": "東芝町",
    "town_kana": "トウシバチョウ",
    "street": null,
    "office_name": null,
    "office_name_kana": null
  },
  "0044": {
    "postcode": "1830044",
    "prefecture": "東京都",
    "prefecture_kana": "トウキョウト",
    "prefecture_code": 13,
    "city": "府中市",
    "city_kana": "フチュウシ",
    "town": "日鋼町",
    "town_kana": "ニッコウチョウ",
    "street": null,
    "office_name": null,
    "office_name_kana": null
  },
  "0045": {
    "postcode": "1830045",
    "prefecture": "東京都",
    "prefecture_kana": "トウキョウト",
    "prefecture_code": 13,
    "city": "府中市",
    "city_kana": "フチュウシ",
    "town": "美好町",
    "town_kana": "ミヨシチョウ",
    "street": null,
    "office_name": null,
    "office_name_kana": null
  },
  "0046": {
    "postcode": "1830046",
    "prefecture": "東京都",
    "prefecture_kana": "トウキョウト",
    "prefecture_code": 13,
    "city": "府中市",
    "city_kana": "フチュウシ",
    "town": "西原町",
    "town_kana": "ニシハラチョウ",
    "street": null,
    "office_name": null,
    "office_name_kana": null
  },
  "0051": {
    "postcode": "1830051",
    "prefecture": "東京都",
    "prefecture_kana": "トウキョウト",
    "prefecture_code": 13,
    "city": "府中市",
    "city_kana": "フチュウシ",
    "town": "栄町",
    "town_kana": "サカエチョウ",
    "street": null,
    "office_name": null,
    "office_name_kana": null
  },
  "0052": {
    "postcode": "1830052",
    "prefecture": "東京都",
    "prefecture_kana": "トウキョウト",
    "prefecture_code": 13,
    "city": "府中市",
    "city_kana": "フチュウシ",
    "town": "新町",
    "town_kana": "シンマチ",
    "street": null,
    "office_name": null,
    "office_name_kana": null
  },
  "0053": {
    "postcode": "1830053",
    "prefecture": "東京都",
    "prefecture_kana": "トウキョウト",
    "prefecture_code": 13,
    "city": "府中市",
    "city_kana": "フチュウシ",
    "town": "天神町",
    "town_kana": "テンジンチョウ",
    "street": null,
    "office_name": null,
    "office_name_kana": null
  },
  "0054": {
    "postcode": "1830054",
    "prefecture": "東京都",
    "prefecture_kana": "トウキョウト",
    "prefecture_code": 13,
    "city": "府中市",
    "city_kana": "フチュウシ",
    "town": "幸町",
    "town_kana": "サイワイチョウ",
    "street": null,
    "office_name": null,
    "office_name_kana": null
  },
  "0055": {
    "postcode": "1830055",
    "prefecture": "東京都",
    "prefecture_kana": "トウキョウト",
    "prefecture_code": 13,
    "city": "府中市",
    "city_kana": "フチュウシ",
    "town": "府中町",
    "town_kana": "フチュウチョウ",
    "street": null,
    "office_name": null,
    "office_name_kana": null
  },
  "0056": {
    "postcode": "1830056",
    "prefecture": "東京都",
    "prefecture_kana": "トウキョウト",
    "prefecture_code": 13,
    "city": "府中市",
    "city_kana": "フチュウシ",
    "town": "寿町",
    "town_kana": "コトブキチョウ",
    "street": null,
    "office_name": null,
    "office_name_kana": null
  },
  "0057": {
    "postcode": "1830057",
    "prefecture": "東京都",
    "prefecture_kana": "トウキョウト",
    "prefecture_code": 13,
    "city": "府中市",
    "city_kana": "フチュウシ",
    "town": "晴見町",
    "town_kana": "ハルミチョウ",
    "street": null,
    "office_name": null,
    "office_name_kana": null
  },
  "8501": {
    "postcode": "1838501",
    "prefecture": "東京都",
    "prefecture_kana": "トウキョウト",
    "prefecture_code": 13,
    "city": "府中市",
    "city_kana": "フチュウシ",
    "town": "日新町",
    "town_kana": "ニッシンチョウ",
    "street": "１丁目１０",
    "office_name": "日本電気　株式会社　府中事業場",
    "office_name_kana": "ニツポンデンキ カブシキガイシヤ フチユウジギヨウジヨウ"
  },
  "8502": {
    "postcode": "1838502",
    "prefecture": "東京都",
    "prefecture_kana": "トウキョウト",
    "prefecture_code": 13,
    "city": "府中市",
    "city_kana": "フチュウシ",
    "town": "住吉町",
    "town_kana": "スミヨシチョウ",
    "street": "５丁目２２−５",
    "office_name": "ＮＥＣ中河原技術センター",
    "office_name_kana": "エヌイ-シ-ナカガワラギジユツセンタ-"
  },
  "8505": {
    "postcode": "1838505",
    "prefecture": "東京都",
    "prefecture_kana": "トウキョウト",
    "prefecture_code": 13,
    "city": "府中市",
    "city_kana": "フチュウシ",
    "town": "府中町",
    "town_kana": "フチュウチョウ",
    "street": "２丁目１２−２",
    "office_name": "府中社会保険事務所",
    "office_name_kana": "フチユウシヤカイホケンジムシヨ"
  },
  "8506": {
    "postcode": "1838506",
    "prefecture": "東京都",
    "prefecture_kana": "トウキョウト",
    "prefecture_code": 13,
    "city": "府中市",
    "city_kana": "フチュウシ",
    "town": "多磨町",
    "town_kana": "タマチョウ",
    "street": "３丁目１番１号",
    "office_name": "警視庁　府中運転免許試験場",
    "office_name_kana": "ケイシチヨウ フチユウウンテンメンキヨシケンジヨウ"
  },
  "8511": {
    "postcode": "1838511",
    "prefecture": "東京都",
    "prefecture_kana": "トウキョウト",
    "prefecture_code": 13,
    "city": "府中市",
    "city_kana": "フチュウシ",
    "town": "東芝町",
    "town_kana": "トウシバチョウ",
    "street": "１",
    "office_name": "（株）　東芝　府中事業所",
    "office_name_kana": "(カブ) トウシバ フチユウジギヨウシヨ"
  },
  "8512": {
    "postcode": "1838512",
    "prefecture": "東京都",
    "prefecture_kana": "トウキョウト",
    "prefecture_code": 13,
    "city": "府中市",
    "city_kana": "フチュウシ",
    "town": "片町",
    "town_kana": "カタマチ",
    "street": "３丁目２２",
    "office_name": "東芝ソリューション　株式会社　府中ソリューションセンター",
    "office_name_kana": "トウシバソリユ-シヨン カブシキガイシヤ フチユウソリユ-シヨンセンタ-"
  },
  "8513": {
    "postcode": "1838513",
    "prefecture": "東京都",
    "prefecture_kana": "トウキョウト",
    "prefecture_code": 13,
    "city": "府中市",
    "city_kana": "フチュウシ",
    "town": "東芝町",
    "town_kana": "トウシバチョウ",
    "street": "１",
    "office_name": "東芝プラントシステム　株式会社　府中事務所",
    "office_name_kana": "トウシバプラントシステム カブシキガイシヤ フチユウジムシヨ"
  },
  "8514": {
    "postcode": "1838514",
    "prefecture": "東京都",
    "prefecture_kana": "トウキョウト",
    "prefecture_code": 13,
    "city": "府中市",
    "city_kana": "フチュウシ",
    "town": "是政",
    "town_kana": "コレマサ",
    "street": "４丁目１１",
    "office_name": "多摩川競艇場",
    "office_name_kana": "タマガワキヨウテイジヨウ"
  },
  "8516": {
    "postcode": "1838516",
    "prefecture": "東京都",
    "prefecture_kana": "トウキョウト",
    "prefecture_code": 13,
    "city": "府中市",
    "city_kana": "フチュウシ",
    "town": "府中町",
    "town_kana": "フチュウチョウ",
    "street": "１丁目９番地",
    "office_name": "横河ディジタルコンピュータ　株式会社",
    "office_name_kana": "ヨコガワデイジタルコンピユ-タ カブシキガイシヤ"
  },
  "8519": {
    "postcode": "1838519",
    "prefecture": "東京都",
    "prefecture_kana": "トウキョウト",
    "prefecture_code": 13,
    "city": "府中市",
    "city_kana": "フチュウシ",
    "town": "本町",
    "town_kana": "ホンマチ",
    "street": "２−３０",
    "office_name": "株式会社　田原電機製作所",
    "office_name_kana": "カブシキカイシヤ タハラデンキセイサクジヨ"
  },
  "8521": {
    "postcode": "1838521",
    "prefecture": "東京都",
    "prefecture_kana": "トウキョウト",
    "prefecture_code": 13,
    "city": "府中市",
    "city_kana": "フチュウシ",
    "town": "浅間町",
    "town_kana": "センゲンチョウ",
    "street": "１丁目５−５",
    "office_name": "航空自衛隊　府中基地",
    "office_name_kana": "コウクウジエイタイ フチユウキチ"
  },
  "8522": {
    "postcode": "1838522",
    "prefecture": "東京都",
    "prefecture_kana": "トウキョウト",
    "prefecture_code": 13,
    "city": "府中市",
    "city_kana": "フチュウシ",
    "town": "白糸台",
    "town_kana": "シライトダイ",
    "street": "１丁目２９−６",
    "office_name": "株式会社　ドライバースタンド",
    "office_name_kana": "カブシキガイシヤ ドライバ-スタンド"
  },
  "8524": {
    "postcode": "1838524",
    "prefecture": "東京都",
    "prefecture_kana": "トウキョウト",
    "prefecture_code": 13,
    "city": "府中市",
    "city_kana": "フチュウシ",
    "town": "武蔵台",
    "town_kana": "ムサシダイ",
    "street": "２丁目８−２９",
    "office_name": "東京都立　多摩総合医療センター",
    "office_name_kana": "トウキヨウトリツ タマソウゴウイリヨウセンタ-"
  },
  "8525": {
    "postcode": "1838525",
    "prefecture": "東京都",
    "prefecture_kana": "トウキョウト",
    "prefecture_code": 13,
    "city": "府中市",
    "city_kana": "フチュウシ",
    "town": "浅間町",
    "town_kana": "センゲンチョウ",
    "street": "１丁目７",
    "office_name": "府中市生涯学習センター",
    "office_name_kana": "フチユウシシヨウガイガクシユウセンタ-"
  },
  "8526": {
    "postcode": "1838526",
    "prefecture": "東京都",
    "prefecture_kana": "トウキョウト",
    "prefecture_code": 13,
    "city": "府中市",
    "city_kana": "フチュウシ",
    "town": "武蔵台",
    "town_kana": "ムサシダイ",
    "street": "２丁目６",
    "office_name": "財団法人　東京都神経科学総合研究所",
    "office_name_kana": "ザイダンホウジン トウキヨウトシンケイカガクソウゴウケンキユウジヨ"
  },
  "8528": {
    "postcode": "1838528",
    "prefecture": "東京都",
    "prefecture_kana": "トウキョウト",
    "prefecture_code": 13,
    "city": "府中市",
    "city_kana": "フチュウシ",
    "town": "武蔵台",
    "town_kana": "ムサシダイ",
    "street": "１−１−１５",
    "office_name": "東芝ＩＴサービス　株式会社",
    "office_name_kana": "トウシバアイテイ-サ-ビス カブシキガイシヤ"
  },
  "8529": {
    "postcode": "1838529",
    "prefecture": "東京都",
    "prefecture_kana": "トウキョウト",
    "prefecture_code": 13,
    "city": "府中市",
    "city_kana": "フチュウシ",
    "town": "矢崎町",
    "town_kana": "ヤザキチョウ",
    "street": "４丁目１",
    "office_name": "（株）　大東京綜合卸売センター",
    "office_name_kana": "カブシキガイシヤ ダイトウキヨウソウゴウオロシウリセンタ-"
  },
  "8530": {
    "postcode": "1838530",
    "prefecture": "東京都",
    "prefecture_kana": "トウキョウト",
    "prefecture_code": 13,
    "city": "府中市",
    "city_kana": "フチュウシ",
    "town": "矢崎町",
    "town_kana": "ヤザキチョウ",
    "street": "４丁目１６",
    "office_name": "株式会社　五藤光学研究所",
    "office_name_kana": "カブシキガイシヤ ゴトウコウガクケンキユウジヨ"
  },
  "8532": {
    "postcode": "1838532",
    "prefecture": "東京都",
    "prefecture_kana": "トウキョウト",
    "prefecture_code": 13,
    "city": "府中市",
    "city_kana": "フチュウシ",
    "town": "武蔵台",
    "town_kana": "ムサシダイ",
    "street": "１丁目１−１５",
    "office_name": "東芝ソリューション　株式会社　府中エンジニアリングセンター",
    "office_name_kana": "トウシバソリユ-シヨン カブシキガイシヤ フチユウエンジニアリングセンタ-"
  },
  "8534": {
    "postcode": "1838534",
    "prefecture": "東京都",
    "prefecture_kana": "トウキョウト",
    "prefecture_code": 13,
    "city": "府中市",
    "city_kana": "フチュウシ",
    "town": "朝日町",
    "town_kana": "アサヒチョウ",
    "street": "３丁目１１−１",
    "office_name": "東京外国語大学",
    "office_name_kana": "トウキヨウガイコクゴダイガク"
  },
  "8536": {
    "postcode": "1838536",
    "prefecture": "東京都",
    "prefecture_kana": "トウキョウト",
    "prefecture_code": 13,
    "city": "府中市",
    "city_kana": "フチュウシ",
    "town": "晴見町",
    "town_kana": "ハルミチョウ",
    "street": "２−１６−１",
    "office_name": "モランボン　株式会社",
    "office_name_kana": "モランボン カブシキガイシヤ"
  },
  "8539": {
    "postcode": "1838539",
    "prefecture": "東京都",
    "prefecture_kana": "トウキョウト",
    "prefecture_code": 13,
    "city": "府中市",
    "city_kana": "フチュウシ",
    "town": "美好町",
    "town_kana": "ミヨシチョウ",
    "street": "２丁目１２−２",
    "office_name": "株式会社　セイジョー",
    "office_name_kana": "カブシキガイシヤ セイジヨ-"
  },
  "8540": {
    "postcode": "1838540",
    "prefecture": "東京都",
    "prefecture_kana": "トウキョウト",
    "prefecture_code": 13,
    "city": "府中市",
    "city_kana": "フチュウシ",
    "town": "府中町",
    "town_kana": "フチュウチョウ",
    "street": "１丁目９京王府中１丁目ビル",
    "office_name": "株式会社　ワイ・ディ・シー",
    "office_name_kana": "カブシキガイシヤ ワイ・デイ・シ-"
  },
  "8541": {
    "postcode": "1838541",
    "prefecture": "東京都",
    "prefecture_kana": "トウキョウト",
    "prefecture_code": 13,
    "city": "府中市",
    "city_kana": "フチュウシ",
    "town": "宮町",
    "town_kana": "ミヤマチ",
    "street": "１丁目４１−２",
    "office_name": "株式会社　伊勢丹　府中店",
    "office_name_kana": "カブシキガイシヤ イセタン フチユウテン"
  },
  "8548": {
    "postcode": "1838548",
    "prefecture": "東京都",
    "prefecture_kana": "トウキョウト",
    "prefecture_code": 13,
    "city": "府中市",
    "city_kana": "フチュウシ",
    "town": "本町",
    "town_kana": "ホンマチ",
    "street": "４丁目２",
    "office_name": "武蔵府中税務署",
    "office_name_kana": "ムサシフチユウゼイムシヨ"
  },
  "8549": {
    "postcode": "1838549",
    "prefecture": "東京都",
    "prefecture_kana": "トウキョウト",
    "prefecture_code": 13,
    "city": "府中市",
    "city_kana": "フチュウシ",
    "town": "宮西町",
    "town_kana": "ミヤニシチョウ",
    "street": "１−２６−１",
    "office_name": "東京都　府中都税支所",
    "office_name_kana": "トウキヨウト フチユウトゼイシシヨ"
  },
  "8550": {
    "postcode": "1838550",
    "prefecture": "東京都",
    "prefecture_kana": "トウキョウト",
    "prefecture_code": 13,
    "city": "府中市",
    "city_kana": "フチュウシ",
    "town": "日吉町",
    "town_kana": "ヒヨシチョウ",
    "street": "１",
    "office_name": "東京競馬場",
    "office_name_kana": "トウキヨウケイバジヨウ"
  },
  "8551": {
    "postcode": "1838551",
    "prefecture": "東京都",
    "prefecture_kana": "トウキョウト",
    "prefecture_code": 13,
    "city": "府中市",
    "city_kana": "フチュウシ",
    "town": "日新町",
    "town_kana": "ニッシンチョウ",
    "street": "１丁目１０番地",
    "office_name": "ＮＥＣスペーステクノロジー　株式会社",
    "office_name_kana": "エヌイ-シ-スペ-ステクノロジ- カブシキガイシヤ"
  },
  "8553": {
    "postcode": "1838553",
    "prefecture": "東京都",
    "prefecture_kana": "トウキョウト",
    "prefecture_code": 13,
    "city": "府中市",
    "city_kana": "フチュウシ",
    "town": "武蔵台",
    "town_kana": "ムサシダイ",
    "street": "２丁目９−２",
    "office_name": "東京都立　府中療育センター",
    "office_name_kana": "トウキヨウトリツ フチユウリヨウイクセンタ-"
  },
  "8561": {
    "postcode": "1838561",
    "prefecture": "東京都",
    "prefecture_kana": "トウキョウト",
    "prefecture_code": 13,
    "city": "府中市",
    "city_kana": "フチュウシ",
    "town": "武蔵台",
    "town_kana": "ムサシダイ",
    "street": "２丁目８−２９",
    "office_name": "東京都立　小児総合医療センター",
    "office_name_kana": "トウキヨウトリツ シヨウニソウゴウイリヨウセンタ-"
  },
  "8570": {
    "postcode": "1838570",
    "prefecture": "東京都",
    "prefecture_kana": "トウキョウト",
    "prefecture_code": 13,
    "city": "府中市",
    "city_kana": "フチュウシ",
    "town": "四谷",
    "town_kana": "ヨツヤ",
    "street": "５丁目２３−６２",
    "office_name": "アマゾン府中ＦＣ",
    "office_name_kana": "アマゾンフチユウエフシ-"
  },
  "8585": {
    "postcode": "1838585",
    "prefecture": "東京都",
    "prefecture_kana": "トウキョウト",
    "prefecture_code": 13,
    "city": "府中市",
    "city_kana": "フチュウシ",
    "town": "朝日町",
    "town_kana": "アサヒチョウ",
    "street": "３丁目１５番１号",
    "office_name": "警視庁　警察学校",
    "office_name_kana": "ケイシチヨウ ケイサツガツコウ"
  },
  "8701": {
    "postcode": "1838701",
    "prefecture": "東京都",
    "prefecture_kana": "トウキョウト",
    "prefecture_code": 13,
    "city": "府中市",
    "city_kana": "フチュウシ",
    "town": "日鋼町",
    "town_kana": "ニッコウチョウ",
    "street": "１番１０号（武蔵府中郵便局私書箱第１号）",
    "office_name": "三井住友信託銀行　株式会社",
    "office_name_kana": "ミツイスミトモシンタクギンコウ カブシキガイシヤ"
  },
  "8702": {
    "postcode": "1838702",
    "prefecture": "東京都",
    "prefecture_kana": "トウキョウト",
    "prefecture_code": 13,
    "city": "府中市",
    "city_kana": "フチュウシ",
    "town": "日鋼町",
    "town_kana": "ニッコウチョウ",
    "street": "１−１９（武蔵府中郵便局私書箱第５号）",
    "office_name": "日本銀行　府中分館",
    "office_name_kana": "ニツポンギンコウ フチユウブンカン"
  },
  "8703": {
    "postcode": "1838703",
    "prefecture": "東京都",
    "prefecture_kana": "トウキョウト",
    "prefecture_code": 13,
    "city": "府中市",
    "city_kana": "フチュウシ",
    "town": "宮西町",
    "town_kana": "ミヤニシチョウ",
    "street": "２丁目２４（武蔵府中郵便局私書箱第１２号）",
    "office_name": "府中市役所",
    "office_name_kana": "フチユウシヤクシヨ"
  },
  "8705": {
    "postcode": "1838705",
    "prefecture": "東京都",
    "prefecture_kana": "トウキョウト",
    "prefecture_code": 13,
    "city": "府中市",
    "city_kana": "フチュウシ",
    "town": "住吉町",
    "town_kana": "スミヨシチョウ",
    "street": "２丁目３０−７（武蔵府中郵便局私書箱第５２号）",
    "office_name": "東京エレクトロン　株式会社　府中テクノロジーセンター",
    "office_name_kana": "トウキヨウエレクトロン カブシキガイシヤ フチユウテクノロジ-センタ-"
  },
  "8706": {
    "postcode": "1838706",
    "prefecture": "東京都",
    "prefecture_kana": "トウキョウト",
    "prefecture_code": 13,
    "city": "府中市",
    "city_kana": "フチュウシ",
    "town": "多磨町",
    "town_kana": "タマチョウ",
    "street": "３丁目１（武蔵府中郵便局私書箱第２号）",
    "office_name": "自動車安全運転センター　東京都事務所",
    "office_name_kana": "ジドウシヤアンゼンウンテンセンタ- トウキヨウトジムシヨ"
  },
  "8707": {
    "postcode": "1838707",
    "prefecture": "東京都",
    "prefecture_kana": "トウキョウト",
    "prefecture_code": 13,
    "city": "府中市",
    "city_kana": "フチュウシ",
    "town": "寿町",
    "town_kana": "コトブキチョウ",
    "street": "１丁目６−３（武蔵府中郵便局私書箱第５０号）",
    "office_name": "株式会社　スーパーヤマザキ",
    "office_name_kana": "カブシキガイシヤ ス-パ-ヤマザキ"
  }
}