{
  "0001": {
    "postcode": "1880001",
    "prefecture": "東京都",
    "prefecture_kana": "トウキョウト",
    "prefecture_code": 13,
    "city": "西東京市",
    "city_kana": "ニシトウキョウシ",
    "town": "谷戸町",
    "town_kana": "ヤトチョウ",
    "street": null,
    "office_name": null,
    "office_name_kana": null
  },
  "0002": {
    "postcode": "1880002",
    "prefecture": "東京都",
    "prefecture_kana": "トウキョウト",
    "prefecture_code": 13,
    "city": "西東京市",
    "city_kana": "ニシトウキョウシ",
    "town": "緑町",
    "town_kana": "ミドリチョウ",
    "street": null,
    "office_name": null,
    "office_name_kana": null
  },
  "0003": {
    "postcode": "1880003",
    "prefecture": "東京都",
    "prefecture_kana": "トウキョウト",
    "prefecture_code": 13,
    "city": "西東京市",
    "city_kana": "ニシトウキョウシ",
    "town": "北原町",
    "town_kana": "キタハラチョウ",
    "street": null,
    "office_name": null,
    "office_name_kana": null
  },
  "0004": {
    "postcode": "1880004",
    "prefecture": "東京都",
    "prefecture_kana": "トウキョウト",
    "prefecture_code": 13,
    "city": "西東京市",
    "city_kana": "ニシトウキョウシ",
    "town": "西原町",
    "town_kana": "ニシハラチョウ",
    "street": null,
    "office_name": null,
    "office_name_kana": null
  },
  "0011": {
    "postcode": "1880011",
    "prefecture": "東京都",
    "prefecture_kana": "トウキョウト",
    "prefecture_code": 13,
    "city": "西東京市",
    "city_kana": "ニシトウキョウシ",
    "town": "田無町",
    "town_kana": "タナシチョウ",
    "street": null,
    "office_name": null,
    "office_name_kana": null
  },
  "0012": {
    "postcode": "1880012",
    "prefecture": "東京都",
    "prefecture_kana": "トウキョウト",
    "prefecture_code": 13,
    "city": "西東京市",
    "city_kana": "ニシトウキョウシ",
    "town": "南町",
    "town_kana": "ミナミチョウ",
    "street": null,
    "office_name": null,
    "office_name_kana": null
  },
  "0013": {
    "postcode": "1880013",
    "prefecture": "東京都",
    "prefecture_kana": "トウキョウト",
    "prefecture_code": 13,
    "city": "西東京市",
    "city_kana": "ニシトウキョウシ",
    "town": "向台町",
    "town_kana": "ムコウダイチョウ",
    "street": null,
    "office_name": null,
    "office_name_kana": null
  },
  "0014": {
    "postcode": "1880014",
    "prefecture": "東京都",
    "prefecture_kana": "トウキョウト",
    "prefecture_code": 13,
    "city": "西東京市",
    "city_kana": "ニシトウキョウシ",
    "town": "芝久保町",
    "town_kana": "シバクボチョウ",
    "street": null,
    "office_name": null,
    "office_name_kana": null
  },
  "8511": {
    "postcode": "1888511",
    "prefecture": "東京都",
    "prefecture_kana": "トウキョウト",
    "prefecture_code": 13,
    "city": "西東京市",
    "city_kana": "ニシトウキョウシ",
    "town": "田無町",
    "town_kana": "タナシチョウ",
    "street": "６丁目１−１２",
    "office_name": "シチズン時計　株式会社　田無製造所",
    "office_name_kana": "シチズントケイ カブシキガイシヤ タナシセイゾウシヨ"
  },
  "8555": {
    "postcode": "1888555",
    "prefecture": "東京都",
    "prefecture_kana": "トウキョウト",
    "prefecture_code": 13,
    "city": "西東京市",
    "city_kana": "ニシトウキョウシ",
    "town": "向台町",
    "town_kana": "ムコウダイチョウ",
    "street": "３丁目５−１",
    "office_name": "石川島播磨重工業　株式会社",
    "office_name_kana": "イシカワジマハリマジユウコウギヨウ カブシキガイシヤ"
  },
  "8585": {
    "postcode": "1888585",
    "prefecture": "東京都",
    "prefecture_kana": "トウキョウト",
    "prefecture_code": 13,
    "city": "西東京市",
    "city_kana": "ニシトウキョウシ",
    "town": "谷戸町",
    "town_kana": "ヤトチョウ",
    "street": "２丁目１−１",
    "office_name": "住友重機械工業　株式会社　田無製造所",
    "office_name_kana": "スミトモジユウキカイコウギヨウ カブシキガイシヤ タナシセイゾウシヨ"
  },
  "8666": {
    "postcode": "1888666",
    "prefecture": "東京都",
    "prefecture_kana": "トウキョウト",
    "prefecture_code": 13,
    "city": "西東京市",
    "city_kana": "ニシトウキョウシ",
    "town": "南町",
    "town_kana": "ミナミチョウ",
    "street": "５丁目６−１３",
    "office_name": "西東京市役所　田無庁舎",
    "office_name_kana": "ニシトウキヨウシヤクシヨ タナシチヨウシヤ"
  },
  "8680": {
    "postcode": "1888680",
    "prefecture": "東京都",
    "prefecture_kana": "トウキョウト",
    "prefecture_code": 13,
    "city": "西東京市",
    "city_kana": "ニシトウキョウシ",
    "town": "芝久保町",
    "town_kana": "シバクボチョウ",
    "street": "２丁目１４−３８（西東京郵便局私書箱第２１号）",
    "office_name": "株式会社　ロッテ　（（株）　有謝商会）",
    "office_name_kana": "カブシキガイシヤ ロツテ ((カブ) アリサシヨウカイ)"
  },
  "8701": {
    "postcode": "1888701",
    "prefecture": "東京都",
    "prefecture_kana": "トウキョウト",
    "prefecture_code": 13,
    "city": "西東京市",
    "city_kana": "ニシトウキョウシ",
    "town": "谷戸町",
    "town_kana": "ヤトチョウ",
    "street": "２丁目１４−１１（西東京郵便局私書箱第１５号）",
    "office_name": "（株）　インテージ",
    "office_name_kana": "カブシキガイシヤ インテ-ジ"
  }
}