{
  "0000": {
    "postcode": "1890000",
    "prefecture": "東京都",
    "prefecture_kana": "トウキョウト",
    "prefecture_code": 13,
    "city": "東村山市",
    "city_kana": "ヒガシムラヤマシ",
    "town": "",
    "town_kana": "",
    "street": null,
    "office_name": null,
    "office_name_kana": null
  },
  "0001": {
    "postcode": "1890001",
    "prefecture": "東京都",
    "prefecture_kana": "トウキョウト",
    "prefecture_code": 13,
    "city": "東村山市",
    "city_kana": "ヒガシムラヤマシ",
    "town": "秋津町",
    "town_kana": "アキツチョウ",
    "street": null,
    "office_name": null,
    "office_name_kana": null
  },
  "0002": {
    "postcode": "1890002",
    "prefecture": "東京都",
    "prefecture_kana": "トウキョウト",
    "prefecture_code": 13,
    "city": "東村山市",
    "city_kana": "ヒガシムラヤマシ",
    "town": "青葉町",
    "town_kana": "アオバチョウ",
    "street": null,
    "office_name": null,
    "office_name_kana": null
  },
  "0003": {
    "postcode": "1890003",
    "prefecture": "東京都",
    "prefecture_kana": "トウキョウト",
    "prefecture_code": 13,
    "city": "東村山市",
    "city_kana": "ヒガシムラヤマシ",
    "town": "久米川町",
    "town_kana": "クメガワチョウ",
    "street": null,
    "office_name": null,
    "office_name_kana": null
  },
  "0011": {
    "postcode": "1890011",
    "prefecture": "東京都",
    "prefecture_kana": "トウキョウト",
    "prefecture_code": 13,
    "city": "東村山市",
    "city_kana": "ヒガシムラヤマシ",
    "town": "恩多町",
    "town_kana": "オンタチョウ",
    "street": null,
    "office_name": null,
    "office_name_kana": null
  },
  "0012": {
    "postcode": "1890012",
    "prefecture": "東京都",
    "prefecture_kana": "トウキョウト",
    "prefecture_code": 13,
    "city": "東村山市",
    "city_kana": "ヒガシムラヤマシ",
    "town": "萩山町",
    "town_kana": "ハギヤマチョウ",
    "street": null,
    "office_name": null,
    "office_name_kana": null
  },
  "0013": {
    "postcode": "1890013",
    "prefecture": "東京都",
    "prefecture_kana": "トウキョウト",
    "prefecture_code": 13,
    "city": "東村山市",
    "city_kana": "ヒガシムラヤマシ",
    "town": "栄町",
    "town_kana": "サカエチョウ",
    "street": null,
    "office_name": null,
    "office_name_kana": null
  },
  "0014": {
    "postcode": "1890014",
    "prefecture": "東京都",
    "prefecture_kana": "トウキョウト",
    "prefecture_code": 13,
    "city": "東村山市",
    "city_kana": "ヒガシムラヤマシ",
    "town": "本町",
    "town_kana": "ホンチョウ",
    "street": null,
    "office_name": null,
    "office_name_kana": null
  },
  "0021": {
    "postcode": "1890021",
    "prefecture": "東京都",
    "prefecture_kana": "トウキョウト",
    "prefecture_code": 13,
    "city": "東村山市",
    "city_kana": "ヒガシムラヤマシ",
    "town": "諏訪町",
    "town_kana": "スワチョウ",
    "street": null,
    "office_name": null,
    "office_name_kana": null
  },
  "0022": {
    "postcode": "1890022",
    "prefecture": "東京都",
    "prefecture_kana": "トウキョウト",
    "prefecture_code": 13,
    "city": "東村山市",
    "city_kana": "ヒガシムラヤマシ",
    "town": "野口町",
    "town_kana": "ノグチチョウ",
    "street": null,
    "office_name": null,
    "office_name_kana": null
  },
  "0023": {
    "postcode": "1890023",
    "prefecture": "東京都",
    "prefecture_kana": "トウキョウト",
    "prefecture_code": 13,
    "city": "東村山市",
    "city_kana": "ヒガシムラヤマシ",
    "town": "美住町",
    "town_kana": "ミスミチョウ",
    "street": null,
    "office_name": null,
    "office_name_kana": null
  },
  "0024": {
    "postcode": "1890024",
    "prefecture": "東京都",
    "prefecture_kana": "トウキョウト",
    "prefecture_code": 13,
    "city": "東村山市",
    "city_kana": "ヒガシムラヤマシ",
    "town": "富士見町",
    "town_kana": "フジミチョウ",
    "street": null,
    "office_name": null,
    "office_name_kana": null
  },
  "0025": {
    "postcode": "1890025",
    "prefecture": "東京都",
    "prefecture_kana": "トウキョウト",
    "prefecture_code": 13,
    "city": "東村山市",
    "city_kana": "ヒガシムラヤマシ",
    "town": "廻田町",
    "town_kana": "メグリタチョウ",
    "street": null,
    "office_name": null,
    "office_name_kana": null
  },
  "0026": {
    "postcode": "1890026",
    "prefecture": "東京都",
    "prefecture_kana": "トウキョウト",
    "prefecture_code": 13,
    "city": "東村山市",
    "city_kana": "ヒガシムラヤマシ",
    "town": "多摩湖町",
    "town_kana": "タマコチョウ",
    "street": null,
    "office_name": null,
    "office_name_kana": null
  },
  "8501": {
    "postcode": "1898501",
    "prefecture": "東京都",
    "prefecture_kana": "トウキョウト",
    "prefecture_code": 13,
    "city": "東村山市",
    "city_kana": "ヒガシムラヤマシ",
    "town": "本町",
    "town_kana": "ホンチョウ",
    "street": "１丁目２−３",
    "office_name": "東村山市役所",
    "office_name_kana": "ヒガシムラヤマシヤクシヨ"
  },
  "8511": {
    "postcode": "1898511",
    "prefecture": "東京都",
    "prefecture_kana": "トウキョウト",
    "prefecture_code": 13,
    "city": "東村山市",
    "city_kana": "ヒガシムラヤマシ",
    "town": "青葉町",
    "town_kana": "アオバチョウ",
    "street": "１丁目７−１",
    "office_name": "東京都　多摩北部医療センター",
    "office_name_kana": "トウキヨウト タマホクブイリヨウセンタ-"
  },
  "8520": {
    "postcode": "1898520",
    "prefecture": "東京都",
    "prefecture_kana": "トウキョウト",
    "prefecture_code": 13,
    "city": "東村山市",
    "city_kana": "ヒガシムラヤマシ",
    "town": "野口町",
    "town_kana": "ノグチチョウ",
    "street": "２丁目１６−２",
    "office_name": "日機装　株式会社　東村山製作所",
    "office_name_kana": "ニツキソウ カブシキガイシヤ ヒガシムラヤマセイサクジヨ"
  },
  "8550": {
    "postcode": "1898550",
    "prefecture": "東京都",
    "prefecture_kana": "トウキョウト",
    "prefecture_code": 13,
    "city": "東村山市",
    "city_kana": "ヒガシムラヤマシ",
    "town": "青葉町",
    "town_kana": "アオバチョウ",
    "street": "４丁目１−１",
    "office_name": "国立療養所　多磨全生園",
    "office_name_kana": "コクリツリヨウヨウジヨ タマゼンシヨウエン"
  },
  "8555": {
    "postcode": "1898555",
    "prefecture": "東京都",
    "prefecture_kana": "トウキョウト",
    "prefecture_code": 13,
    "city": "東村山市",
    "city_kana": "ヒガシムラヤマシ",
    "town": "本町",
    "town_kana": "ホンチョウ",
    "street": "１丁目２０−２２",
    "office_name": "東村山税務署",
    "office_name_kana": "ヒガシムラヤマゼイムシヨ"
  },
  "8585": {
    "postcode": "1898585",
    "prefecture": "東京都",
    "prefecture_kana": "トウキョウト",
    "prefecture_code": 13,
    "city": "東村山市",
    "city_kana": "ヒガシムラヤマシ",
    "town": "久米川町",
    "town_kana": "クメガワチョウ",
    "street": "１丁目５３−１",
    "office_name": "山崎製パン　（株）　武蔵野第二工場",
    "office_name_kana": "ヤマザキセイパン (カブ) ムサシノダイニコウジヨウ"
  }
}