{
  "0801": {
    "postcode": "1930801",
    "prefecture": "東京都",
    "prefecture_kana": "トウキョウト",
    "prefecture_code": 13,
    "city": "八王子市",
    "city_kana": "ハチオウジシ",
    "town": "川口町",
    "town_kana": "カワグチマチ",
    "street": null,
    "office_name": null,
    "office_name_kana": null
  },
  "0802": {
    "postcode": "1930802",
    "prefecture": "東京都",
    "prefecture_kana": "トウキョウト",
    "prefecture_code": 13,
    "city": "八王子市",
    "city_kana": "ハチオウジシ",
    "town": "犬目町",
    "town_kana": "イヌメマチ",
    "street": null,
    "office_name": null,
    "office_name_kana": null
  },
  "0803": {
    "postcode": "1930803",
    "prefecture": "東京都",
    "prefecture_kana": "トウキョウト",
    "prefecture_code": 13,
    "city": "八王子市",
    "city_kana": "ハチオウジシ",
    "town": "楢原町",
    "town_kana": "ナラハラマチ",
    "street": null,
    "office_name": null,
    "office_name_kana": null
  },
  "0804": {
    "postcode": "1930804",
    "prefecture": "東京都",
    "prefecture_kana": "トウキョウト",
    "prefecture_code": 13,
    "city": "八王子市",
    "city_kana": "ハチオウジシ",
    "town": "清川町",
    "town_kana": "キヨカワチョウ",
    "street": null,
    "office_name": null,
    "office_name_kana": null
  },
  "0811": {
    "postcode": "1930811",
    "prefecture": "東京都",
    "prefecture_kana": "トウキョウト",
    "prefecture_code": 13,
    "city": "八王子市",
    "city_kana": "ハチオウジシ",
    "town": "上壱分方町",
    "town_kana": "カミイチブカタマチ",
    "street": null,
    "office_name": null,
    "office_name_kana": null
  },
  "0812": {
    "postcode": "1930812",
    "prefecture": "東京都",
    "prefecture_kana": "トウキョウト",
    "prefecture_code": 13,
    "city": "八王子市",
    "city_kana": "ハチオウジシ",
    "town": "諏訪町",
    "town_kana": "スワマチ",
    "street": null,
    "office_name": null,
    "office_name_kana": null
  },
  "0813": {
    "postcode": "1930813",
    "prefecture": "東京都",
    "prefecture_kana": "トウキョウト",
    "prefecture_code": 13,
    "city": "八王子市",
    "city_kana": "ハチオウジシ",
    "town": "四谷町",
    "town_kana": "ヨツヤマチ",
    "street": null,
    "office_name": null,
    "office_name_kana": null
  },
  "0814": {
    "postcode": "1930814",
    "prefecture": "東京都",
    "prefecture_kana": "トウキョウト",
    "prefecture_code": 13,
    "city": "八王子市",
    "city_kana": "ハチオウジシ",
    "town": "泉町",
    "town_kana": "イズミチョウ",
    "street": null,
    "office_name": null,
    "office_name_kana": null
  },
  "0815": {
    "postcode": "1930815",
    "prefecture": "東京都",
    "prefecture_kana": "トウキョウト",
    "prefecture_code": 13,
    "city": "八王子市",
    "city_kana": "ハチオウジシ",
    "town": "叶谷町",
    "town_kana": "カノウヤマチ",
    "street": null,
    "office_name": null,
    "office_name_kana": null
  },
  "0816": {
    "postcode": "1930816",
    "prefecture": "東京都",
    "prefecture_kana": "トウキョウト",
    "prefecture_code": 13,
    "city": "八王子市",
    "city_kana": "ハチオウジシ",
    "town": "大楽寺町",
    "town_kana": "ダイラクジマチ",
    "street": null,
    "office_name": null,
    "office_name_kana": null
  },
  "0821": {
    "postcode": "1930821",
    "prefecture": "東京都",
    "prefecture_kana": "トウキョウト",
    "prefecture_code": 13,
    "city": "八王子市",
    "city_kana": "ハチオウジシ",
    "town": "川町",
    "town_kana": "カワマチ",
    "street": null,
    "office_name": null,
    "office_name_kana": null
  },
  "0822": {
    "postcode": "1930822",
    "prefecture": "東京都",
    "prefecture_kana": "トウキョウト",
    "prefecture_code": 13,
    "city": "八王子市",
    "city_kana": "ハチオウジシ",
    "town": "弐分方町",
    "town_kana": "ニブカタマチ",
    "street": null,
    "office_name": null,
    "office_name_kana": null
  },
  "0823": {
    "postcode": "1930823",
    "prefecture": "東京都",
    "prefecture_kana": "トウキョウト",
    "prefecture_code": 13,
    "city": "八王子市",
    "city_kana": "ハチオウジシ",
    "town": "横川町",
    "town_kana": "ヨコカワマチ",
    "street": null,
    "office_name": null,
    "office_name_kana": null
  },
  "0824": {
    "postcode": "1930824",
    "prefecture": "東京都",
    "prefecture_kana": "トウキョウト",
    "prefecture_code": 13,
    "city": "八王子市",
    "city_kana": "ハチオウジシ",
    "town": "長房町",
    "town_kana": "ナガブサマチ",
    "street": null,
    "office_name": null,
    "office_name_kana": null
  },
  "0825": {
    "postcode": "1930825",
    "prefecture": "東京都",
    "prefecture_kana": "トウキョウト",
    "prefecture_code": 13,
    "city": "八王子市",
    "city_kana": "ハチオウジシ",
    "town": "城山手",
    "town_kana": "シロヤマテ",
    "street": null,
    "office_name": null,
    "office_name_kana": null
  },
  "0826": {
    "postcode": "1930826",
    "prefecture": "東京都",
    "prefecture_kana": "トウキョウト",
    "prefecture_code": 13,
    "city": "八王子市",
    "city_kana": "ハチオウジシ",
    "town": "元八王子町",
    "town_kana": "モトハチオウジマチ",
    "street": null,
    "office_name": null,
    "office_name_kana": null
  },
  "0831": {
    "postcode": "1930831",
    "prefecture": "東京都",
    "prefecture_kana": "トウキョウト",
    "prefecture_code": 13,
    "city": "八王子市",
    "city_kana": "ハチオウジシ",
    "town": "並木町",
    "town_kana": "ナミキチョウ",
    "street": null,
    "office_name": null,
    "office_name_kana": null
  },
  "0832": {
    "postcode": "1930832",
    "prefecture": "東京都",
    "prefecture_kana": "トウキョウト",
    "prefecture_code": 13,
    "city": "八王子市",
    "city_kana": "ハチオウジシ",
    "town": "散田町",
    "town_kana": "サンダマチ",
    "street": null,
    "office_name": null,
    "office_name_kana": null
  },
  "0833": {
    "postcode": "1930833",
    "prefecture": "東京都",
    "prefecture_kana": "トウキョウト",
    "prefecture_code": 13,
    "city": "八王子市",
    "city_kana": "ハチオウジシ",
    "town": "めじろ台",
    "town_kana": "メジロダイ",
    "street": null,
    "office_name": null,
    "office_name_kana": null
  },
  "0834": {
    "postcode": "1930834",
    "prefecture": "東京都",
    "prefecture_kana": "トウキョウト",
    "prefecture_code": 13,
    "city": "八王子市",
    "city_kana": "ハチオウジシ",
    "town": "東浅川町",
    "town_kana": "ヒガシアサカワマチ",
    "street": null,
    "office_name": null,
    "office_name_kana": null
  },
  "0835": {
    "postcode": "1930835",
    "prefecture": "東京都",
    "prefecture_kana": "トウキョウト",
    "prefecture_code": 13,
    "city": "八王子市",
    "city_kana": "ハチオウジシ",
    "town": "千人町",
    "town_kana": "センニンチョウ",
    "street": null,
    "office_name": null,
    "office_name_kana": null
  },
  "0836": {
    "postcode": "1930836",
    "prefecture": "東京都",
    "prefecture_kana": "トウキョウト",
    "prefecture_code": 13,
    "city": "八王子市",
    "city_kana": "ハチオウジシ",
    "town": "日吉町",
    "town_kana": "ヒヨシチョウ",
    "street": null,
    "office_name": null,
    "office_name_kana": null
  },
  "0841": {
    "postcode": "1930841",
    "prefecture": "東京都",
    "prefecture_kana": "トウキョウト",
    "prefecture_code": 13,
    "city": "八王子市",
    "city_kana": "ハチオウジシ",
    "town": "裏高尾町",
    "town_kana": "ウラタカオマチ",
    "street": null,
    "office_name": null,
    "office_name_kana": null
  },
  "0842": {
    "postcode": "1930842",
    "prefecture": "東京都",
    "prefecture_kana": "トウキョウト",
    "prefecture_code": 13,
    "city": "八王子市",
    "city_kana": "ハチオウジシ",
    "town": "西浅川町",
    "town_kana": "ニシアサカワマチ",
    "street": null,
    "office_name": null,
    "office_name_kana": null
  },
  "0843": {
    "postcode": "1930843",
    "prefecture": "東京都",
    "prefecture_kana": "トウキョウト",
    "prefecture_code": 13,
    "city": "八王子市",
    "city_kana": "ハチオウジシ",
    "town": "廿里町",
    "town_kana": "トドリマチ",
    "street": null,
    "office_name": null,
    "office_name_kana": null
  },
  "0844": {
    "postcode": "1930844",
    "prefecture": "東京都",
    "prefecture_kana": "トウキョウト",
    "prefecture_code": 13,
    "city": "八王子市",
    "city_kana": "ハチオウジシ",
    "town": "高尾町",
    "town_kana": "タカオマチ",
    "street": null,
    "office_name": null,
    "office_name_kana": null
  },
  "0845": {
    "postcode": "1930845",
    "prefecture": "東京都",
    "prefecture_kana": "トウキョウト",
    "prefecture_code": 13,
    "city": "八王子市",
    "city_kana": "ハチオウジシ",
    "town": "初沢町",
    "town_kana": "ハツザワマチ",
    "street": null,
    "office_name": null,
    "office_name_kana": null
  },
  "0846": {
    "postcode": "1930846",
    "prefecture": "東京都",
    "prefecture_kana": "トウキョウト",
    "prefecture_code": 13,
    "city": "八王子市",
    "city_kana": "ハチオウジシ",
    "town": "南浅川町",
    "town_kana": "ミナミアサカワマチ",
    "street": null,
    "office_name": null,
    "office_name_kana": null
  },
  "0931": {
    "postcode": "1930931",
    "prefecture": "東京都",
    "prefecture_kana": "トウキョウト",
    "prefecture_code": 13,
    "city": "八王子市",
    "city_kana": "ハチオウジシ",
    "town": "台町",
    "town_kana": "ダイマチ",
    "street": null,
    "office_name": null,
    "office_name_kana": null
  },
  "0932": {
    "postcode": "1930932",
    "prefecture": "東京都",
    "prefecture_kana": "トウキョウト",
    "prefecture_code": 13,
    "city": "八王子市",
    "city_kana": "ハチオウジシ",
    "town": "緑町",
    "town_kana": "ミドリチョウ",
    "street": null,
    "office_name": null,
    "office_name_kana": null
  },
  "0933": {
    "postcode": "1930933",
    "prefecture": "東京都",
    "prefecture_kana": "トウキョウト",
    "prefecture_code": 13,
    "city": "八王子市",
    "city_kana": "ハチオウジシ",
    "town": "山田町",
    "town_kana": "ヤマタマチ",
    "street": null,
    "office_name": null,
    "office_name_kana": null
  },
  "0934": {
    "postcode": "1930934",
    "prefecture": "東京都",
    "prefecture_kana": "トウキョウト",
    "prefecture_code": 13,
    "city": "八王子市",
    "city_kana": "ハチオウジシ",
    "town": "小比企町",
    "town_kana": "コビキマチ",
    "street": null,
    "office_name": null,
    "office_name_kana": null
  },
  "0935": {
    "postcode": "1930935",
    "prefecture": "東京都",
    "prefecture_kana": "トウキョウト",
    "prefecture_code": 13,
    "city": "八王子市",
    "city_kana": "ハチオウジシ",
    "town": "大船町",
    "town_kana": "オオフネマチ",
    "street": null,
    "office_name": null,
    "office_name_kana": null
  },
  "0941": {
    "postcode": "1930941",
    "prefecture": "東京都",
    "prefecture_kana": "トウキョウト",
    "prefecture_code": 13,
    "city": "八王子市",
    "city_kana": "ハチオウジシ",
    "town": "狭間町",
    "town_kana": "ハザママチ",
    "street": null,
    "office_name": null,
    "office_name_kana": null
  },
  "0942": {
    "postcode": "1930942",
    "prefecture": "東京都",
    "prefecture_kana": "トウキョウト",
    "prefecture_code": 13,
    "city": "八王子市",
    "city_kana": "ハチオウジシ",
    "town": "椚田町",
    "town_kana": "クヌギダマチ",
    "street": null,
    "office_name": null,
    "office_name_kana": null
  },
  "0943": {
    "postcode": "1930943",
    "prefecture": "東京都",
    "prefecture_kana": "トウキョウト",
    "prefecture_code": 13,
    "city": "八王子市",
    "city_kana": "ハチオウジシ",
    "town": "寺田町",
    "town_kana": "テラダマチ",
    "street": null,
    "office_name": null,
    "office_name_kana": null
  },
  "0944": {
    "postcode": "1930944",
    "prefecture": "東京都",
    "prefecture_kana": "トウキョウト",
    "prefecture_code": 13,
    "city": "八王子市",
    "city_kana": "ハチオウジシ",
    "town": "館町",
    "town_kana": "タテマチ",
    "street": null,
    "office_name": null,
    "office_name_kana": null
  },
  "0985": {
    "postcode": "1930985",
    "prefecture": "東京都",
    "prefecture_kana": "トウキョウト",
    "prefecture_code": 13,
    "city": "八王子市",
    "city_kana": "ハチオウジシ",
    "town": "館町",
    "town_kana": "タテマチ",
    "street": "８１５−１",
    "office_name": "拓殖大学　（八王子キャンパス）",
    "office_name_kana": "タクシヨクダイガク (ハチオウジキヤンパス)"
  },
  "0991": {
    "postcode": "1930991",
    "prefecture": "東京都",
    "prefecture_kana": "トウキョウト",
    "prefecture_code": 13,
    "city": "八王子市",
    "city_kana": "ハチオウジシ",
    "town": "狭間町",
    "town_kana": "ハザママチ",
    "street": "１４６３",
    "office_name": "蛇の目ミシン工業　株式会社",
    "office_name_kana": "ジヤノメミシンコウギヨウ カブシキガイシヤ"
  },
  "0997": {
    "postcode": "1930997",
    "prefecture": "東京都",
    "prefecture_kana": "トウキョウト",
    "prefecture_code": 13,
    "city": "八王子市",
    "city_kana": "ハチオウジシ",
    "town": "椚田町",
    "town_kana": "クヌギダマチ",
    "street": "１２２０−２",
    "office_name": "東京工業高等専門学校",
    "office_name_kana": "トウキヨウコウギヨウコウトウセンモンガツコウ"
  },
  "0998": {
    "postcode": "1930998",
    "prefecture": "東京都",
    "prefecture_kana": "トウキョウト",
    "prefecture_code": 13,
    "city": "八王子市",
    "city_kana": "ハチオウジシ",
    "town": "館町",
    "town_kana": "タテマチ",
    "street": "１１６３",
    "office_name": "東京医科大八王子医療センター",
    "office_name_kana": "トウキヨウイカダイハチオウジイリヨウセンタ-"
  },
  "8501": {
    "postcode": "1938501",
    "prefecture": "東京都",
    "prefecture_kana": "トウキョウト",
    "prefecture_code": 13,
    "city": "八王子市",
    "city_kana": "ハチオウジシ",
    "town": "元八王子町",
    "town_kana": "モトハチオウジマチ",
    "street": "１丁目７１０",
    "office_name": "共立女子大学",
    "office_name_kana": "キヨウリツジヨシダイガク"
  },
  "8505": {
    "postcode": "1938505",
    "prefecture": "東京都",
    "prefecture_kana": "トウキョウト",
    "prefecture_code": 13,
    "city": "八王子市",
    "city_kana": "ハチオウジシ",
    "town": "裏高尾町",
    "town_kana": "ウラタカオマチ",
    "street": "２７３",
    "office_name": "医療法人財団　青渓会　駒木野病院",
    "office_name_kana": "イリヨウホウジンザイダン セイケイカイ コマギノビヨウイン"
  },
  "8510": {
    "postcode": "1938510",
    "prefecture": "東京都",
    "prefecture_kana": "トウキョウト",
    "prefecture_code": 13,
    "city": "八王子市",
    "city_kana": "ハチオウジシ",
    "town": "元八王子町",
    "town_kana": "モトハチオウジマチ",
    "street": "１丁目４２６",
    "office_name": "（株）　育良精機製作所　八王子事業所",
    "office_name_kana": "(カブ) イクラセイキセイサクシヨ ハチオウジジギヨウシヨ"
  },
  "8511": {
    "postcode": "1938511",
    "prefecture": "東京都",
    "prefecture_kana": "トウキョウト",
    "prefecture_code": 13,
    "city": "八王子市",
    "city_kana": "ハチオウジシ",
    "town": "高尾町",
    "town_kana": "タカオマチ",
    "street": "２２０５",
    "office_name": "高尾登山電鉄　株式会社",
    "office_name_kana": "タカオトザンデンテツ カブシキガイシヤ"
  },
  "8520": {
    "postcode": "1938520",
    "prefecture": "東京都",
    "prefecture_kana": "トウキョウト",
    "prefecture_code": 13,
    "city": "八王子市",
    "city_kana": "ハチオウジシ",
    "town": "元八王子町",
    "town_kana": "モトハチオウジマチ",
    "street": "３丁目２８７２−１",
    "office_name": "八王子保健生活協同組合",
    "office_name_kana": "ハチオウジホケンセイカツキヨウドウクミアイ"
  },
  "8525": {
    "postcode": "1938525",
    "prefecture": "東京都",
    "prefecture_kana": "トウキョウト",
    "prefecture_code": 13,
    "city": "八王子市",
    "city_kana": "ハチオウジシ",
    "town": "川口町",
    "town_kana": "カワグチマチ",
    "street": "１３７５",
    "office_name": "ＨＯＹＡ　（株）　八王子工場",
    "office_name_kana": "ホ-ヤ (カブ) ハチオウジコウジヨウ"
  },
  "8550": {
    "postcode": "1938550",
    "prefecture": "東京都",
    "prefecture_kana": "トウキョウト",
    "prefecture_code": 13,
    "city": "八王子市",
    "city_kana": "ハチオウジシ",
    "town": "東浅川町",
    "town_kana": "ヒガシアサカワマチ",
    "street": "５５０−１",
    "office_name": "ＯＫＩセミコンダクタ　株式会社",
    "office_name_kana": "オキセミコンダクタ カブシキガイシヤ"
  },
  "8570": {
    "postcode": "1938570",
    "prefecture": "東京都",
    "prefecture_kana": "トウキョウト",
    "prefecture_code": 13,
    "city": "八王子市",
    "city_kana": "ハチオウジシ",
    "town": "廿里町",
    "town_kana": "トドリマチ",
    "street": "１８３３−９４",
    "office_name": "林野庁　森林技術総合研修所",
    "office_name_kana": "リンヤチヨウ シンリンギジユツソウゴウケンシユウジヨ"
  },
  "8666": {
    "postcode": "1938666",
    "prefecture": "東京都",
    "prefecture_kana": "トウキョウト",
    "prefecture_code": 13,
    "city": "八王子市",
    "city_kana": "ハチオウジシ",
    "town": "元八王子町",
    "town_kana": "モトハチオウジマチ",
    "street": "１丁目７１０番地",
    "office_name": "共立女子第二中学・高等学校",
    "office_name_kana": "キヨウリツジヨシダイニチユウガク・コウトウガツコウ"
  },
  "8686": {
    "postcode": "1938686",
    "prefecture": "東京都",
    "prefecture_kana": "トウキョウト",
    "prefecture_code": 13,
    "city": "八王子市",
    "city_kana": "ハチオウジシ",
    "town": "高尾町",
    "town_kana": "タカオマチ",
    "street": "２１７７",
    "office_name": "宗教法人　薬王院",
    "office_name_kana": "シユウキヨウホウジン ヤクオウイン"
  }
}