{
  "0000": {
    "postcode": "1970000",
    "prefecture": "東京都",
    "prefecture_kana": "トウキョウト",
    "prefecture_code": 13,
    "city": "福生市",
    "city_kana": "フッサシ",
    "town": "",
    "town_kana": "",
    "street": null,
    "office_name": null,
    "office_name_kana": null
  },
  "0001": {
    "postcode": "1970001",
    "prefecture": "東京都",
    "prefecture_kana": "トウキョウト",
    "prefecture_code": 13,
    "city": "福生市",
    "city_kana": "フッサシ",
    "town": "横田基地内",
    "town_kana": "ヨコタキチナイ",
    "street": null,
    "office_name": null,
    "office_name_kana": null
  },
  "0002": {
    "postcode": "1970002",
    "prefecture": "東京都",
    "prefecture_kana": "トウキョウト",
    "prefecture_code": 13,
    "city": "福生市",
    "city_kana": "フッサシ",
    "town": "熊川二宮",
    "town_kana": "クマガワニノミヤ",
    "street": null,
    "office_name": null,
    "office_name_kana": null
  },
  "0003": {
    "postcode": "1970003",
    "prefecture": "東京都",
    "prefecture_kana": "トウキョウト",
    "prefecture_code": 13,
    "city": "福生市",
    "city_kana": "フッサシ",
    "town": "熊川",
    "town_kana": "クマガワ",
    "street": null,
    "office_name": null,
    "office_name_kana": null
  },
  "0004": {
    "postcode": "1970004",
    "prefecture": "東京都",
    "prefecture_kana": "トウキョウト",
    "prefecture_code": 13,
    "city": "福生市",
    "city_kana": "フッサシ",
    "town": "南田園",
    "town_kana": "ミナミデンエン",
    "street": null,
    "office_name": null,
    "office_name_kana": null
  },
  "0005": {
    "postcode": "1970005",
    "prefecture": "東京都",
    "prefecture_kana": "トウキョウト",
    "prefecture_code": 13,
    "city": "福生市",
    "city_kana": "フッサシ",
    "town": "北田園",
    "town_kana": "キタデンエン",
    "street": null,
    "office_name": null,
    "office_name_kana": null
  },
  "0011": {
    "postcode": "1970011",
    "prefecture": "東京都",
    "prefecture_kana": "トウキョウト",
    "prefecture_code": 13,
    "city": "福生市",
    "city_kana": "フッサシ",
    "town": "福生",
    "town_kana": "フッサ",
    "street": null,
    "office_name": null,
    "office_name_kana": null
  },
  "0012": {
    "postcode": "1970012",
    "prefecture": "東京都",
    "prefecture_kana": "トウキョウト",
    "prefecture_code": 13,
    "city": "福生市",
    "city_kana": "フッサシ",
    "town": "加美平",
    "town_kana": "カミダイラ",
    "street": null,
    "office_name": null,
    "office_name_kana": null
  },
  "0013": {
    "postcode": "1970013",
    "prefecture": "東京都",
    "prefecture_kana": "トウキョウト",
    "prefecture_code": 13,
    "city": "福生市",
    "city_kana": "フッサシ",
    "town": "武蔵野台",
    "town_kana": "ムサシノダイ",
    "street": null,
    "office_name": null,
    "office_name_kana": null
  },
  "0014": {
    "postcode": "1970014",
    "prefecture": "東京都",
    "prefecture_kana": "トウキョウト",
    "prefecture_code": 13,
    "city": "福生市",
    "city_kana": "フッサシ",
    "town": "福生二宮",
    "town_kana": "フッサニノミヤ",
    "street": null,
    "office_name": null,
    "office_name_kana": null
  },
  "0021": {
    "postcode": "1970021",
    "prefecture": "東京都",
    "prefecture_kana": "トウキョウト",
    "prefecture_code": 13,
    "city": "福生市",
    "city_kana": "フッサシ",
    "town": "東町",
    "town_kana": "ヒガシチョウ",
    "street": null,
    "office_name": null,
    "office_name_kana": null
  },
  "0022": {
    "postcode": "1970022",
    "prefecture": "東京都",
    "prefecture_kana": "トウキョウト",
    "prefecture_code": 13,
    "city": "福生市",
    "city_kana": "フッサシ",
    "town": "本町",
    "town_kana": "ホンチョウ",
    "street": null,
    "office_name": null,
    "office_name_kana": null
  },
  "0023": {
    "postcode": "1970023",
    "prefecture": "東京都",
    "prefecture_kana": "トウキョウト",
    "prefecture_code": 13,
    "city": "福生市",
    "city_kana": "フッサシ",
    "town": "志茂",
    "town_kana": "シモ",
    "street": null,
    "office_name": null,
    "office_name_kana": null
  },
  "0024": {
    "postcode": "1970024",
    "prefecture": "東京都",
    "prefecture_kana": "トウキョウト",
    "prefecture_code": 13,
    "city": "福生市",
    "city_kana": "フッサシ",
    "town": "牛浜",
    "town_kana": "ウシハマ",
    "street": null,
    "office_name": null,
    "office_name_kana": null
  },
  "0801": {
    "postcode": "1970801",
    "prefecture": "東京都",
    "prefecture_kana": "トウキョウト",
    "prefecture_code": 13,
    "city": "あきる野市",
    "city_kana": "アキルノシ",
    "town": "菅生",
    "town_kana": "スガオ",
    "street": null,
    "office_name": null,
    "office_name_kana": null
  },
  "0802": {
    "postcode": "1970802",
    "prefecture": "東京都",
    "prefecture_kana": "トウキョウト",
    "prefecture_code": 13,
    "city": "あきる野市",
    "city_kana": "アキルノシ",
    "town": "草花",
    "town_kana": "クサバナ",
    "street": null,
    "office_name": null,
    "office_name_kana": null
  },
  "0803": {
    "postcode": "1970803",
    "prefecture": "東京都",
    "prefecture_kana": "トウキョウト",
    "prefecture_code": 13,
    "city": "あきる野市",
    "city_kana": "アキルノシ",
    "town": "瀬戸岡",
    "town_kana": "セドオカ",
    "street": null,
    "office_name": null,
    "office_name_kana": null
  },
  "0804": {
    "postcode": "1970804",
    "prefecture": "東京都",
    "prefecture_kana": "トウキョウト",
    "prefecture_code": 13,
    "city": "あきる野市",
    "city_kana": "アキルノシ",
    "town": "秋川",
    "town_kana": "アキガワ",
    "street": null,
    "office_name": null,
    "office_name_kana": null
  },
  "0811": {
    "postcode": "1970811",
    "prefecture": "東京都",
    "prefecture_kana": "トウキョウト",
    "prefecture_code": 13,
    "city": "あきる野市",
    "city_kana": "アキルノシ",
    "town": "原小宮",
    "town_kana": "ハラコミヤ",
    "street": null,
    "office_name": null,
    "office_name_kana": null
  },
  "0812": {
    "postcode": "1970812",
    "prefecture": "東京都",
    "prefecture_kana": "トウキョウト",
    "prefecture_code": 13,
    "city": "あきる野市",
    "city_kana": "アキルノシ",
    "town": "平沢",
    "town_kana": "ヒラサワ",
    "street": null,
    "office_name": null,
    "office_name_kana": null
  },
  "0813": {
    "postcode": "1970813",
    "prefecture": "東京都",
    "prefecture_kana": "トウキョウト",
    "prefecture_code": 13,
    "city": "あきる野市",
    "city_kana": "アキルノシ",
    "town": "平沢東",
    "town_kana": "ヒラサワヒガシ",
    "street": null,
    "office_name": null,
    "office_name_kana": null
  },
  "0814": {
    "postcode": "1970814",
    "prefecture": "東京都",
    "prefecture_kana": "トウキョウト",
    "prefecture_code": 13,
    "city": "あきる野市",
    "city_kana": "アキルノシ",
    "town": "二宮",
    "town_kana": "ニノミヤ",
    "street": null,
    "office_name": null,
    "office_name_kana": null
  },
  "0815": {
    "postcode": "1970815",
    "prefecture": "東京都",
    "prefecture_kana": "トウキョウト",
    "prefecture_code": 13,
    "city": "あきる野市",
    "city_kana": "アキルノシ",
    "town": "二宮東",
    "town_kana": "ニノミヤヒガシ",
    "street": null,
    "office_name": null,
    "office_name_kana": null
  },
  "0816": {
    "postcode": "1970816",
    "prefecture": "東京都",
    "prefecture_kana": "トウキョウト",
    "prefecture_code": 13,
    "city": "あきる野市",
    "city_kana": "アキルノシ",
    "town": "平沢西",
    "town_kana": "ヒラサワニシ",
    "street": null,
    "office_name": null,
    "office_name_kana": null
  },
  "0821": {
    "postcode": "1970821",
    "prefecture": "東京都",
    "prefecture_kana": "トウキョウト",
    "prefecture_code": 13,
    "city": "あきる野市",
    "city_kana": "アキルノシ",
    "town": "小川",
    "town_kana": "オガワ",
    "street": null,
    "office_name": null,
    "office_name_kana": null
  },
  "0822": {
    "postcode": "1970822",
    "prefecture": "東京都",
    "prefecture_kana": "トウキョウト",
    "prefecture_code": 13,
    "city": "あきる野市",
    "city_kana": "アキルノシ",
    "town": "小川東",
    "town_kana": "オガワヒガシ",
    "street": null,
    "office_name": null,
    "office_name_kana": null
  },
  "0823": {
    "postcode": "1970823",
    "prefecture": "東京都",
    "prefecture_kana": "トウキョウト",
    "prefecture_code": 13,
    "city": "あきる野市",
    "city_kana": "アキルノシ",
    "town": "野辺",
    "town_kana": "ノベ",
    "street": null,
    "office_name": null,
    "office_name_kana": null
  },
  "0824": {
    "postcode": "1970824",
    "prefecture": "東京都",
    "prefecture_kana": "トウキョウト",
    "prefecture_code": 13,
    "city": "あきる野市",
    "city_kana": "アキルノシ",
    "town": "切欠",
    "town_kana": "キッカケ",
    "street": null,
    "office_name": null,
    "office_name_kana": null
  },
  "0825": {
    "postcode": "1970825",
    "prefecture": "東京都",
    "prefecture_kana": "トウキョウト",
    "prefecture_code": 13,
    "city": "あきる野市",
    "city_kana": "アキルノシ",
    "town": "雨間",
    "town_kana": "アメマ",
    "street": null,
    "office_name": null,
    "office_name_kana": null
  },
  "0826": {
    "postcode": "1970826",
    "prefecture": "東京都",
    "prefecture_kana": "トウキョウト",
    "prefecture_code": 13,
    "city": "あきる野市",
    "city_kana": "アキルノシ",
    "town": "牛沼",
    "town_kana": "ウシヌマ",
    "street": null,
    "office_name": null,
    "office_name_kana": null
  },
  "0827": {
    "postcode": "1970827",
    "prefecture": "東京都",
    "prefecture_kana": "トウキョウト",
    "prefecture_code": 13,
    "city": "あきる野市",
    "city_kana": "アキルノシ",
    "town": "油平",
    "town_kana": "アブラダイ",
    "street": null,
    "office_name": null,
    "office_name_kana": null
  },
  "0828": {
    "postcode": "1970828",
    "prefecture": "東京都",
    "prefecture_kana": "トウキョウト",
    "prefecture_code": 13,
    "city": "あきる野市",
    "city_kana": "アキルノシ",
    "town": "秋留",
    "town_kana": "アキル",
    "street": null,
    "office_name": null,
    "office_name_kana": null
  },
  "0831": {
    "postcode": "1970831",
    "prefecture": "東京都",
    "prefecture_kana": "トウキョウト",
    "prefecture_code": 13,
    "city": "あきる野市",
    "city_kana": "アキルノシ",
    "town": "下代継",
    "town_kana": "シモヨツギ",
    "street": null,
    "office_name": null,
    "office_name_kana": null
  },
  "0832": {
    "postcode": "1970832",
    "prefecture": "東京都",
    "prefecture_kana": "トウキョウト",
    "prefecture_code": 13,
    "city": "あきる野市",
    "city_kana": "アキルノシ",
    "town": "上代継",
    "town_kana": "カミヨツギ",
    "street": null,
    "office_name": null,
    "office_name_kana": null
  },
  "0833": {
    "postcode": "1970833",
    "prefecture": "東京都",
    "prefecture_kana": "トウキョウト",
    "prefecture_code": 13,
    "city": "あきる野市",
    "city_kana": "アキルノシ",
    "town": "渕上",
    "town_kana": "フチガミ",
    "street": null,
    "office_name": null,
    "office_name_kana": null
  },
  "0834": {
    "postcode": "1970834",
    "prefecture": "東京都",
    "prefecture_kana": "トウキョウト",
    "prefecture_code": 13,
    "city": "あきる野市",
    "city_kana": "アキルノシ",
    "town": "引田",
    "town_kana": "ヒキダ",
    "street": null,
    "office_name": null,
    "office_name_kana": null
  },
  "8501": {
    "postcode": "1978501",
    "prefecture": "東京都",
    "prefecture_kana": "トウキョウト",
    "prefecture_code": 13,
    "city": "福生市",
    "city_kana": "フッサシ",
    "town": "本町",
    "town_kana": "ホンチョウ",
    "street": "５番地",
    "office_name": "福生市役所",
    "office_name_kana": "フツサシヤクシヨ"
  },
  "8511": {
    "postcode": "1978511",
    "prefecture": "東京都",
    "prefecture_kana": "トウキョウト",
    "prefecture_code": 13,
    "city": "福生市",
    "city_kana": "フッサシ",
    "town": "加美平",
    "town_kana": "カミダイラ",
    "street": "１丁目６番地１",
    "office_name": "福生病院組合",
    "office_name_kana": "フツサビヨウインクミアイ"
  },
  "8555": {
    "postcode": "1978555",
    "prefecture": "東京都",
    "prefecture_kana": "トウキョウト",
    "prefecture_code": 13,
    "city": "福生市",
    "city_kana": "フッサシ",
    "town": "本町",
    "town_kana": "ホンチョウ",
    "street": "１７−１",
    "office_name": "武陽ガス　株式会社",
    "office_name_kana": "ブヨウガス カブシキガイシヤ"
  },
  "8601": {
    "postcode": "1978601",
    "prefecture": "東京都",
    "prefecture_kana": "トウキョウト",
    "prefecture_code": 13,
    "city": "福生市",
    "city_kana": "フッサシ",
    "town": "大字福生",
    "town_kana": null,
    "street": "７８５",
    "office_name": "株式会社　大多摩ハム　小林商会",
    "office_name_kana": "カブシキガイシヤ オオタマハム コバヤシシヨウカイ"
  },
  "8623": {
    "postcode": "1978623",
    "prefecture": "東京都",
    "prefecture_kana": "トウキョウト",
    "prefecture_code": 13,
    "city": "福生市",
    "city_kana": "フッサシ",
    "town": "大字熊川",
    "town_kana": null,
    "street": "１番地",
    "office_name": "石川酒造　株式会社",
    "office_name_kana": "イシカワシユゾウ カブシキガイシヤ"
  }
}