{
  "0000": {
    "postcode": "2020000",
    "prefecture": "東京都",
    "prefecture_kana": "トウキョウト",
    "prefecture_code": 13,
    "city": "西東京市",
    "city_kana": "ニシトウキョウシ",
    "town": "",
    "town_kana": "",
    "street": null,
    "office_name": null,
    "office_name_kana": null
  },
  "0001": {
    "postcode": "2020001",
    "prefecture": "東京都",
    "prefecture_kana": "トウキョウト",
    "prefecture_code": 13,
    "city": "西東京市",
    "city_kana": "ニシトウキョウシ",
    "town": "ひばりが丘",
    "town_kana": "ヒバリガオカ",
    "street": null,
    "office_name": null,
    "office_name_kana": null
  },
  "0002": {
    "postcode": "2020002",
    "prefecture": "東京都",
    "prefecture_kana": "トウキョウト",
    "prefecture_code": 13,
    "city": "西東京市",
    "city_kana": "ニシトウキョウシ",
    "town": "ひばりが丘北",
    "town_kana": "ヒバリガオカキタ",
    "street": null,
    "office_name": null,
    "office_name_kana": null
  },
  "0003": {
    "postcode": "2020003",
    "prefecture": "東京都",
    "prefecture_kana": "トウキョウト",
    "prefecture_code": 13,
    "city": "西東京市",
    "city_kana": "ニシトウキョウシ",
    "town": "北町",
    "town_kana": "キタマチ",
    "street": null,
    "office_name": null,
    "office_name_kana": null
  },
  "0004": {
    "postcode": "2020004",
    "prefecture": "東京都",
    "prefecture_kana": "トウキョウト",
    "prefecture_code": 13,
    "city": "西東京市",
    "city_kana": "ニシトウキョウシ",
    "town": "下保谷",
    "town_kana": "シモホウヤ",
    "street": null,
    "office_name": null,
    "office_name_kana": null
  },
  "0005": {
    "postcode": "2020005",
    "prefecture": "東京都",
    "prefecture_kana": "トウキョウト",
    "prefecture_code": 13,
    "city": "西東京市",
    "city_kana": "ニシトウキョウシ",
    "town": "住吉町",
    "town_kana": "スミヨシチョウ",
    "street": null,
    "office_name": null,
    "office_name_kana": null
  },
  "0006": {
    "postcode": "2020006",
    "prefecture": "東京都",
    "prefecture_kana": "トウキョウト",
    "prefecture_code": 13,
    "city": "西東京市",
    "city_kana": "ニシトウキョウシ",
    "town": "栄町",
    "town_kana": "サカエチョウ",
    "street": null,
    "office_name": null,
    "office_name_kana": null
  },
  "0011": {
    "postcode": "2020011",
    "prefecture": "東京都",
    "prefecture_kana": "トウキョウト",
    "prefecture_code": 13,
    "city": "西東京市",
    "city_kana": "ニシトウキョウシ",
    "town": "泉町",
    "town_kana": "イズミチョウ",
    "street": null,
    "office_name": null,
    "office_name_kana": null
  },
  "0012": {
    "postcode": "2020012",
    "prefecture": "東京都",
    "prefecture_kana": "トウキョウト",
    "prefecture_code": 13,
    "city": "西東京市",
    "city_kana": "ニシトウキョウシ",
    "town": "東町",
    "town_kana": "ヒガシチョウ",
    "street": null,
    "office_name": null,
    "office_name_kana": null
  },
  "0013": {
    "postcode": "2020013",
    "prefecture": "東京都",
    "prefecture_kana": "トウキョウト",
    "prefecture_code": 13,
    "city": "西東京市",
    "city_kana": "ニシトウキョウシ",
    "town": "中町",
    "town_kana": "ナカマチ",
    "street": null,
    "office_name": null,
    "office_name_kana": null
  },
  "0014": {
    "postcode": "2020014",
    "prefecture": "東京都",
    "prefecture_kana": "トウキョウト",
    "prefecture_code": 13,
    "city": "西東京市",
    "city_kana": "ニシトウキョウシ",
    "town": "富士町",
    "town_kana": "フジマチ",
    "street": null,
    "office_name": null,
    "office_name_kana": null
  },
  "0015": {
    "postcode": "2020015",
    "prefecture": "東京都",
    "prefecture_kana": "トウキョウト",
    "prefecture_code": 13,
    "city": "西東京市",
    "city_kana": "ニシトウキョウシ",
    "town": "保谷町",
    "town_kana": "ホウヤチョウ",
    "street": null,
    "office_name": null,
    "office_name_kana": null
  },
  "0021": {
    "postcode": "2020021",
    "prefecture": "東京都",
    "prefecture_kana": "トウキョウト",
    "prefecture_code": 13,
    "city": "西東京市",
    "city_kana": "ニシトウキョウシ",
    "town": "東伏見",
    "town_kana": "ヒガシフシミ",
    "street": null,
    "office_name": null,
    "office_name_kana": null
  },
  "0022": {
    "postcode": "2020022",
    "prefecture": "東京都",
    "prefecture_kana": "トウキョウト",
    "prefecture_code": 13,
    "city": "西東京市",
    "city_kana": "ニシトウキョウシ",
    "town": "柳沢",
    "town_kana": "ヤギサワ",
    "street": null,
    "office_name": null,
    "office_name_kana": null
  },
  "0023": {
    "postcode": "2020023",
    "prefecture": "東京都",
    "prefecture_kana": "トウキョウト",
    "prefecture_code": 13,
    "city": "西東京市",
    "city_kana": "ニシトウキョウシ",
    "town": "新町",
    "town_kana": "シンマチ",
    "street": null,
    "office_name": null,
    "office_name_kana": null
  },
  "8520": {
    "postcode": "2028520",
    "prefecture": "東京都",
    "prefecture_kana": "トウキョウト",
    "prefecture_code": 13,
    "city": "西東京市",
    "city_kana": "ニシトウキョウシ",
    "town": "ひばりが丘",
    "town_kana": "ヒバリガオカ",
    "street": "１丁目１−１",
    "office_name": "株式会社　パルコ　ひばりが丘店",
    "office_name_kana": "カブシキガイシヤ パルコ ヒバリガオカテン"
  },
  "8555": {
    "postcode": "2028555",
    "prefecture": "東京都",
    "prefecture_kana": "トウキョウト",
    "prefecture_code": 13,
    "city": "西東京市",
    "city_kana": "ニシトウキョウシ",
    "town": "中町",
    "town_kana": "ナカマチ",
    "street": "１丁目５−１",
    "office_name": "西東京市役所　保谷庁舎",
    "office_name_kana": "ニシトウキヨウシヤクシヨ ホウヤチヨウシヤ"
  },
  "8558": {
    "postcode": "2028558",
    "prefecture": "東京都",
    "prefecture_kana": "トウキョウト",
    "prefecture_code": 13,
    "city": "西東京市",
    "city_kana": "ニシトウキョウシ",
    "town": "新町",
    "town_kana": "シンマチ",
    "street": "６丁目３−５",
    "office_name": "株式会社　損害保険ジャパン",
    "office_name_kana": "カブシキガイシヤ ソンガイホケンジヤパン"
  },
  "8585": {
    "postcode": "2028585",
    "prefecture": "東京都",
    "prefecture_kana": "トウキョウト",
    "prefecture_code": 13,
    "city": "西東京市",
    "city_kana": "ニシトウキョウシ",
    "town": "新町",
    "town_kana": "シンマチ",
    "street": "１丁目１−２０",
    "office_name": "学校法人　武蔵野大学（武蔵野キャンパス）",
    "office_name_kana": "ガツコウホウジン ムサシノダイガク(ムサシノキヤンパス)"
  }
}