{
  "0000": {
    "postcode": "2030000",
    "prefecture": "東京都",
    "prefecture_kana": "トウキョウト",
    "prefecture_code": 13,
    "city": "東久留米市",
    "city_kana": "ヒガシクルメシ",
    "town": "",
    "town_kana": "",
    "street": null,
    "office_name": null,
    "office_name_kana": null
  },
  "0001": {
    "postcode": "2030001",
    "prefecture": "東京都",
    "prefecture_kana": "トウキョウト",
    "prefecture_code": 13,
    "city": "東久留米市",
    "city_kana": "ヒガシクルメシ",
    "town": "上の原",
    "town_kana": "ウエノハラ",
    "street": null,
    "office_name": null,
    "office_name_kana": null
  },
  "0002": {
    "postcode": "2030002",
    "prefecture": "東京都",
    "prefecture_kana": "トウキョウト",
    "prefecture_code": 13,
    "city": "東久留米市",
    "city_kana": "ヒガシクルメシ",
    "town": "神宝町",
    "town_kana": "シンホウチョウ",
    "street": null,
    "office_name": null,
    "office_name_kana": null
  },
  "0003": {
    "postcode": "2030003",
    "prefecture": "東京都",
    "prefecture_kana": "トウキョウト",
    "prefecture_code": 13,
    "city": "東久留米市",
    "city_kana": "ヒガシクルメシ",
    "town": "金山町",
    "town_kana": "カナヤマチョウ",
    "street": null,
    "office_name": null,
    "office_name_kana": null
  },
  "0004": {
    "postcode": "2030004",
    "prefecture": "東京都",
    "prefecture_kana": "トウキョウト",
    "prefecture_code": 13,
    "city": "東久留米市",
    "city_kana": "ヒガシクルメシ",
    "town": "氷川台",
    "town_kana": "ヒカワダイ",
    "street": null,
    "office_name": null,
    "office_name_kana": null
  },
  "0011": {
    "postcode": "2030011",
    "prefecture": "東京都",
    "prefecture_kana": "トウキョウト",
    "prefecture_code": 13,
    "city": "東久留米市",
    "city_kana": "ヒガシクルメシ",
    "town": "大門町",
    "town_kana": "ダイモンチョウ",
    "street": null,
    "office_name": null,
    "office_name_kana": null
  },
  "0012": {
    "postcode": "2030012",
    "prefecture": "東京都",
    "prefecture_kana": "トウキョウト",
    "prefecture_code": 13,
    "city": "東久留米市",
    "city_kana": "ヒガシクルメシ",
    "town": "浅間町",
    "town_kana": "センゲンチョウ",
    "street": null,
    "office_name": null,
    "office_name_kana": null
  },
  "0013": {
    "postcode": "2030013",
    "prefecture": "東京都",
    "prefecture_kana": "トウキョウト",
    "prefecture_code": 13,
    "city": "東久留米市",
    "city_kana": "ヒガシクルメシ",
    "town": "新川町",
    "town_kana": "シンカワチョウ",
    "street": null,
    "office_name": null,
    "office_name_kana": null
  },
  "0014": {
    "postcode": "2030014",
    "prefecture": "東京都",
    "prefecture_kana": "トウキョウト",
    "prefecture_code": 13,
    "city": "東久留米市",
    "city_kana": "ヒガシクルメシ",
    "town": "東本町",
    "town_kana": "ヒガシホンチョウ",
    "street": null,
    "office_name": null,
    "office_name_kana": null
  },
  "0021": {
    "postcode": "2030021",
    "prefecture": "東京都",
    "prefecture_kana": "トウキョウト",
    "prefecture_code": 13,
    "city": "東久留米市",
    "city_kana": "ヒガシクルメシ",
    "town": "学園町",
    "town_kana": "ガクエンチョウ",
    "street": null,
    "office_name": null,
    "office_name_kana": null
  },
  "0022": {
    "postcode": "2030022",
    "prefecture": "東京都",
    "prefecture_kana": "トウキョウト",
    "prefecture_code": 13,
    "city": "東久留米市",
    "city_kana": "ヒガシクルメシ",
    "town": "ひばりが丘団地",
    "town_kana": "ヒバリガオカダンチ",
    "street": null,
    "office_name": null,
    "office_name_kana": null
  },
  "0023": {
    "postcode": "2030023",
    "prefecture": "東京都",
    "prefecture_kana": "トウキョウト",
    "prefecture_code": 13,
    "city": "東久留米市",
    "city_kana": "ヒガシクルメシ",
    "town": "南沢",
    "town_kana": "ミナミサワ",
    "street": null,
    "office_name": null,
    "office_name_kana": null
  },
  "0031": {
    "postcode": "2030031",
    "prefecture": "東京都",
    "prefecture_kana": "トウキョウト",
    "prefecture_code": 13,
    "city": "東久留米市",
    "city_kana": "ヒガシクルメシ",
    "town": "南町",
    "town_kana": "ミナミチョウ",
    "street": null,
    "office_name": null,
    "office_name_kana": null
  },
  "0032": {
    "postcode": "2030032",
    "prefecture": "東京都",
    "prefecture_kana": "トウキョウト",
    "prefecture_code": 13,
    "city": "東久留米市",
    "city_kana": "ヒガシクルメシ",
    "town": "前沢",
    "town_kana": "マエサワ",
    "street": null,
    "office_name": null,
    "office_name_kana": null
  },
  "0033": {
    "postcode": "2030033",
    "prefecture": "東京都",
    "prefecture_kana": "トウキョウト",
    "prefecture_code": 13,
    "city": "東久留米市",
    "city_kana": "ヒガシクルメシ",
    "town": "滝山",
    "town_kana": "タキヤマ",
    "street": null,
    "office_name": null,
    "office_name_kana": null
  },
  "0034": {
    "postcode": "2030034",
    "prefecture": "東京都",
    "prefecture_kana": "トウキョウト",
    "prefecture_code": 13,
    "city": "東久留米市",
    "city_kana": "ヒガシクルメシ",
    "town": "弥生",
    "town_kana": "ヤヨイ",
    "street": null,
    "office_name": null,
    "office_name_kana": null
  },
  "0041": {
    "postcode": "2030041",
    "prefecture": "東京都",
    "prefecture_kana": "トウキョウト",
    "prefecture_code": 13,
    "city": "東久留米市",
    "city_kana": "ヒガシクルメシ",
    "town": "野火止",
    "town_kana": "ノビドメ",
    "street": null,
    "office_name": null,
    "office_name_kana": null
  },
  "0042": {
    "postcode": "2030042",
    "prefecture": "東京都",
    "prefecture_kana": "トウキョウト",
    "prefecture_code": 13,
    "city": "東久留米市",
    "city_kana": "ヒガシクルメシ",
    "town": "八幡町",
    "town_kana": "ハチマンチョウ",
    "street": null,
    "office_name": null,
    "office_name_kana": null
  },
  "0043": {
    "postcode": "2030043",
    "prefecture": "東京都",
    "prefecture_kana": "トウキョウト",
    "prefecture_code": 13,
    "city": "東久留米市",
    "city_kana": "ヒガシクルメシ",
    "town": "下里",
    "town_kana": "シモサト",
    "street": null,
    "office_name": null,
    "office_name_kana": null
  },
  "0044": {
    "postcode": "2030044",
    "prefecture": "東京都",
    "prefecture_kana": "トウキョウト",
    "prefecture_code": 13,
    "city": "東久留米市",
    "city_kana": "ヒガシクルメシ",
    "town": "柳窪",
    "town_kana": "ヤナギクボ",
    "street": null,
    "office_name": null,
    "office_name_kana": null
  },
  "0051": {
    "postcode": "2030051",
    "prefecture": "東京都",
    "prefecture_kana": "トウキョウト",
    "prefecture_code": 13,
    "city": "東久留米市",
    "city_kana": "ヒガシクルメシ",
    "town": "小山",
    "town_kana": "コヤマ",
    "street": null,
    "office_name": null,
    "office_name_kana": null
  },
  "0052": {
    "postcode": "2030052",
    "prefecture": "東京都",
    "prefecture_kana": "トウキョウト",
    "prefecture_code": 13,
    "city": "東久留米市",
    "city_kana": "ヒガシクルメシ",
    "town": "幸町",
    "town_kana": "サイワイチョウ",
    "street": null,
    "office_name": null,
    "office_name_kana": null
  },
  "0053": {
    "postcode": "2030053",
    "prefecture": "東京都",
    "prefecture_kana": "トウキョウト",
    "prefecture_code": 13,
    "city": "東久留米市",
    "city_kana": "ヒガシクルメシ",
    "town": "本町",
    "town_kana": "ホンチョウ",
    "street": null,
    "office_name": null,
    "office_name_kana": null
  },
  "0054": {
    "postcode": "2030054",
    "prefecture": "東京都",
    "prefecture_kana": "トウキョウト",
    "prefecture_code": 13,
    "city": "東久留米市",
    "city_kana": "ヒガシクルメシ",
    "town": "中央町",
    "town_kana": "チュウオウチョウ",
    "street": null,
    "office_name": null,
    "office_name_kana": null
  },
  "8511": {
    "postcode": "2038511",
    "prefecture": "東京都",
    "prefecture_kana": "トウキョウト",
    "prefecture_code": 13,
    "city": "東久留米市",
    "city_kana": "ヒガシクルメシ",
    "town": "前沢",
    "town_kana": "マエサワ",
    "street": "３丁目１４−１６",
    "office_name": "グローブライド　株式会社",
    "office_name_kana": "グロ-ブライド カブシキガイシヤ"
  },
  "8521": {
    "postcode": "2038521",
    "prefecture": "東京都",
    "prefecture_kana": "トウキョウト",
    "prefecture_code": 13,
    "city": "東久留米市",
    "city_kana": "ヒガシクルメシ",
    "town": "学園町",
    "town_kana": "ガクエンチョウ",
    "street": "１丁目８−１５",
    "office_name": "自由学園（初等部・男子部中等科・女子部中等科・高等科・最高学部）",
    "office_name_kana": "ジユウガクエン(シヨトウブ・ダンシブチユウトウカ・ジヨシブチユウトウカ・コウトウカ・サイコウガクブ)"
  },
  "8555": {
    "postcode": "2038555",
    "prefecture": "東京都",
    "prefecture_kana": "トウキョウト",
    "prefecture_code": 13,
    "city": "東久留米市",
    "city_kana": "ヒガシクルメシ",
    "town": "本町",
    "town_kana": "ホンチョウ",
    "street": "３丁目３−１",
    "office_name": "東久留米市役所",
    "office_name_kana": "ヒガシクルメシヤクシヨ"
  },
  "8585": {
    "postcode": "2038585",
    "prefecture": "東京都",
    "prefecture_kana": "トウキョウト",
    "prefecture_code": 13,
    "city": "東久留米市",
    "city_kana": "ヒガシクルメシ",
    "town": "柳窪",
    "town_kana": "ヤナギクボ",
    "street": "２丁目５−１４",
    "office_name": "山崎製パン　株式会社　武蔵野工場",
    "office_name_kana": "ヤマザキセイパン カブシキガイシヤ ムサシノコウジヨウ"
  },
  "8588": {
    "postcode": "2038588",
    "prefecture": "東京都",
    "prefecture_kana": "トウキョウト",
    "prefecture_code": 13,
    "city": "東久留米市",
    "city_kana": "ヒガシクルメシ",
    "town": "南沢",
    "town_kana": "ミナミサワ",
    "street": "４丁目９番２３号",
    "office_name": "損害保険ジャパン　株式会社",
    "office_name_kana": "ソンガイホケンジヤパン カブシキガイシヤ"
  },
  "8601": {
    "postcode": "2038601",
    "prefecture": "東京都",
    "prefecture_kana": "トウキョウト",
    "prefecture_code": 13,
    "city": "東久留米市",
    "city_kana": "ヒガシクルメシ",
    "town": "本町",
    "town_kana": "ホンチョウ",
    "street": "１丁目４−１（東久留米郵便局私書箱第１２号）",
    "office_name": "株式会社　インテージ",
    "office_name_kana": "カブシキガイシヤ インテ-ジ"
  },
  "8739": {
    "postcode": "2038739",
    "prefecture": "東京都",
    "prefecture_kana": "トウキョウト",
    "prefecture_code": 13,
    "city": "東久留米市",
    "city_kana": "ヒガシクルメシ",
    "town": "本町",
    "town_kana": "ホンチョウ",
    "street": "１丁目４−１（東久留米郵便局私書箱第２０号）",
    "office_name": "株式会社　インテージリサーチ　ＩＦＩセンター",
    "office_name_kana": "カブシキガイシヤ インテ-ジリサ-チ アイエフアイセンタ-"
  }
}