{
  "0000": {
    "postcode": "2040000",
    "prefecture": "東京都",
    "prefecture_kana": "トウキョウト",
    "prefecture_code": 13,
    "city": "清瀬市",
    "city_kana": "キヨセシ",
    "town": "",
    "town_kana": "",
    "street": null,
    "office_name": null,
    "office_name_kana": null
  },
  "0001": {
    "postcode": "2040001",
    "prefecture": "東京都",
    "prefecture_kana": "トウキョウト",
    "prefecture_code": 13,
    "city": "清瀬市",
    "city_kana": "キヨセシ",
    "town": "下宿",
    "town_kana": "シタジュク",
    "street": null,
    "office_name": null,
    "office_name_kana": null
  },
  "0002": {
    "postcode": "2040002",
    "prefecture": "東京都",
    "prefecture_kana": "トウキョウト",
    "prefecture_code": 13,
    "city": "清瀬市",
    "city_kana": "キヨセシ",
    "town": "旭が丘",
    "town_kana": "アサヒガオカ",
    "street": null,
    "office_name": null,
    "office_name_kana": null
  },
  "0003": {
    "postcode": "2040003",
    "prefecture": "東京都",
    "prefecture_kana": "トウキョウト",
    "prefecture_code": 13,
    "city": "清瀬市",
    "city_kana": "キヨセシ",
    "town": "中里",
    "town_kana": "ナカザト",
    "street": null,
    "office_name": null,
    "office_name_kana": null
  },
  "0004": {
    "postcode": "2040004",
    "prefecture": "東京都",
    "prefecture_kana": "トウキョウト",
    "prefecture_code": 13,
    "city": "清瀬市",
    "city_kana": "キヨセシ",
    "town": "野塩",
    "town_kana": "ノシオ",
    "street": null,
    "office_name": null,
    "office_name_kana": null
  },
  "0011": {
    "postcode": "2040011",
    "prefecture": "東京都",
    "prefecture_kana": "トウキョウト",
    "prefecture_code": 13,
    "city": "清瀬市",
    "city_kana": "キヨセシ",
    "town": "下清戸",
    "town_kana": "シモキヨト",
    "street": null,
    "office_name": null,
    "office_name_kana": null
  },
  "0012": {
    "postcode": "2040012",
    "prefecture": "東京都",
    "prefecture_kana": "トウキョウト",
    "prefecture_code": 13,
    "city": "清瀬市",
    "city_kana": "キヨセシ",
    "town": "中清戸",
    "town_kana": "ナカキヨト",
    "street": null,
    "office_name": null,
    "office_name_kana": null
  },
  "0013": {
    "postcode": "2040013",
    "prefecture": "東京都",
    "prefecture_kana": "トウキョウト",
    "prefecture_code": 13,
    "city": "清瀬市",
    "city_kana": "キヨセシ",
    "town": "上清戸",
    "town_kana": "カミキヨト",
    "street": null,
    "office_name": null,
    "office_name_kana": null
  },
  "0021": {
    "postcode": "2040021",
    "prefecture": "東京都",
    "prefecture_kana": "トウキョウト",
    "prefecture_code": 13,
    "city": "清瀬市",
    "city_kana": "キヨセシ",
    "town": "元町",
    "town_kana": "モトマチ",
    "street": null,
    "office_name": null,
    "office_name_kana": null
  },
  "0022": {
    "postcode": "2040022",
    "prefecture": "東京都",
    "prefecture_kana": "トウキョウト",
    "prefecture_code": 13,
    "city": "清瀬市",
    "city_kana": "キヨセシ",
    "town": "松山",
    "town_kana": "マツヤマ",
    "street": null,
    "office_name": null,
    "office_name_kana": null
  },
  "0023": {
    "postcode": "2040023",
    "prefecture": "東京都",
    "prefecture_kana": "トウキョウト",
    "prefecture_code": 13,
    "city": "清瀬市",
    "city_kana": "キヨセシ",
    "town": "竹丘",
    "town_kana": "タケオカ",
    "street": null,
    "office_name": null,
    "office_name_kana": null
  },
  "0024": {
    "postcode": "2040024",
    "prefecture": "東京都",
    "prefecture_kana": "トウキョウト",
    "prefecture_code": 13,
    "city": "清瀬市",
    "city_kana": "キヨセシ",
    "town": "梅園",
    "town_kana": "ウメゾノ",
    "street": null,
    "office_name": null,
    "office_name_kana": null
  },
  "8501": {
    "postcode": "2048501",
    "prefecture": "東京都",
    "prefecture_kana": "トウキョウト",
    "prefecture_code": 13,
    "city": "清瀬市",
    "city_kana": "キヨセシ",
    "town": "中清戸",
    "town_kana": "ナカキヨト",
    "street": "３−２３５",
    "office_name": "東京管区気象台",
    "office_name_kana": "トウキヨウカンクキシヨウダイ"
  },
  "8511": {
    "postcode": "2048511",
    "prefecture": "東京都",
    "prefecture_kana": "トウキョウト",
    "prefecture_code": 13,
    "city": "清瀬市",
    "city_kana": "キヨセシ",
    "town": "中里",
    "town_kana": "ナカザト",
    "street": "５丁目８４２",
    "office_name": "清瀬市役所",
    "office_name_kana": "キヨセシヤクシヨ"
  },
  "8522": {
    "postcode": "2048522",
    "prefecture": "東京都",
    "prefecture_kana": "トウキョウト",
    "prefecture_code": 13,
    "city": "清瀬市",
    "city_kana": "キヨセシ",
    "town": "松山",
    "town_kana": "マツヤマ",
    "street": "３丁目１−２４",
    "office_name": "財団法人　結核予防会　複十字病院",
    "office_name_kana": "ザイダンホウジン ケツカクヨボウカイ フクジユウジビヨウイン"
  },
  "8533": {
    "postcode": "2048533",
    "prefecture": "東京都",
    "prefecture_kana": "トウキョウト",
    "prefecture_code": 13,
    "city": "清瀬市",
    "city_kana": "キヨセシ",
    "town": "松山",
    "town_kana": "マツヤマ",
    "street": "３丁目１−２４",
    "office_name": "財団法人　結核予防会　結核研究所",
    "office_name_kana": "ザイダンホウジン ケツカクヨボウカイ ケツカクケンキユウシヨ"
  },
  "8555": {
    "postcode": "2048555",
    "prefecture": "東京都",
    "prefecture_kana": "トウキョウト",
    "prefecture_code": 13,
    "city": "清瀬市",
    "city_kana": "キヨセシ",
    "town": "竹丘",
    "town_kana": "タケオカ",
    "street": "３丁目１−３０",
    "office_name": "日本社会事業大学",
    "office_name_kana": "ニホンシヤカイジギヨウダイガク"
  },
  "8558": {
    "postcode": "2048558",
    "prefecture": "東京都",
    "prefecture_kana": "トウキョウト",
    "prefecture_code": 13,
    "city": "清瀬市",
    "city_kana": "キヨセシ",
    "town": "下清戸",
    "town_kana": "シモキヨト",
    "street": "４丁目６４０",
    "office_name": "株式会社　大林組　技術研究所",
    "office_name_kana": "カブシキガイシヤ オオバヤシグミ ギジユツケンキユウジヨ"
  },
  "8567": {
    "postcode": "2048567",
    "prefecture": "東京都",
    "prefecture_kana": "トウキョウト",
    "prefecture_code": 13,
    "city": "清瀬市",
    "city_kana": "キヨセシ",
    "town": "梅園",
    "town_kana": "ウメゾノ",
    "street": "１丁目３−１",
    "office_name": "東京都立　清瀬小児病院",
    "office_name_kana": "トウキヨウトリツ キヨセシヨウニビヨウイン"
  },
  "8585": {
    "postcode": "2048585",
    "prefecture": "東京都",
    "prefecture_kana": "トウキョウト",
    "prefecture_code": 13,
    "city": "清瀬市",
    "city_kana": "キヨセシ",
    "town": "竹丘",
    "town_kana": "タケオカ",
    "street": "３丁目１−１",
    "office_name": "独立行政法人　国立病院機構　東京病院",
    "office_name_kana": "ドクリツギヨウセイホウジン コクリツビヨウインキコウ トウキヨウビヨウイン"
  },
  "8588": {
    "postcode": "2048588",
    "prefecture": "東京都",
    "prefecture_kana": "トウキョウト",
    "prefecture_code": 13,
    "city": "清瀬市",
    "city_kana": "キヨセシ",
    "town": "野塩",
    "town_kana": "ノシオ",
    "street": "２丁目５２２−１",
    "office_name": "明治薬科大学",
    "office_name_kana": "メイジヤツカダイガク"
  },
  "8589": {
    "postcode": "2048589",
    "prefecture": "東京都",
    "prefecture_kana": "トウキョウト",
    "prefecture_code": 13,
    "city": "清瀬市",
    "city_kana": "キヨセシ",
    "town": "野塩",
    "town_kana": "ノシオ",
    "street": "２丁目５２２−１",
    "office_name": "明治薬科大学　図書館",
    "office_name_kana": "メイジヤツカダイガク トシヨカン"
  }
}