{
  "0000": {
    "postcode": "2070000",
    "prefecture": "東京都",
    "prefecture_kana": "トウキョウト",
    "prefecture_code": 13,
    "city": "東大和市",
    "city_kana": "ヒガシヤマトシ",
    "town": "",
    "town_kana": "",
    "street": null,
    "office_name": null,
    "office_name_kana": null
  },
  "0001": {
    "postcode": "2070001",
    "prefecture": "東京都",
    "prefecture_kana": "トウキョウト",
    "prefecture_code": 13,
    "city": "東大和市",
    "city_kana": "ヒガシヤマトシ",
    "town": "多摩湖",
    "town_kana": "タマコ",
    "street": null,
    "office_name": null,
    "office_name_kana": null
  },
  "0002": {
    "postcode": "2070002",
    "prefecture": "東京都",
    "prefecture_kana": "トウキョウト",
    "prefecture_code": 13,
    "city": "東大和市",
    "city_kana": "ヒガシヤマトシ",
    "town": "湖畔",
    "town_kana": "コハン",
    "street": null,
    "office_name": null,
    "office_name_kana": null
  },
  "0003": {
    "postcode": "2070003",
    "prefecture": "東京都",
    "prefecture_kana": "トウキョウト",
    "prefecture_code": 13,
    "city": "東大和市",
    "city_kana": "ヒガシヤマトシ",
    "town": "狭山",
    "town_kana": "サヤマ",
    "street": null,
    "office_name": null,
    "office_name_kana": null
  },
  "0004": {
    "postcode": "2070004",
    "prefecture": "東京都",
    "prefecture_kana": "トウキョウト",
    "prefecture_code": 13,
    "city": "東大和市",
    "city_kana": "ヒガシヤマトシ",
    "town": "清水",
    "town_kana": "シミズ",
    "street": null,
    "office_name": null,
    "office_name_kana": null
  },
  "0005": {
    "postcode": "2070005",
    "prefecture": "東京都",
    "prefecture_kana": "トウキョウト",
    "prefecture_code": 13,
    "city": "東大和市",
    "city_kana": "ヒガシヤマトシ",
    "town": "高木",
    "town_kana": "タカギ",
    "street": null,
    "office_name": null,
    "office_name_kana": null
  },
  "0011": {
    "postcode": "2070011",
    "prefecture": "東京都",
    "prefecture_kana": "トウキョウト",
    "prefecture_code": 13,
    "city": "東大和市",
    "city_kana": "ヒガシヤマトシ",
    "town": "清原",
    "town_kana": "キヨハラ",
    "street": null,
    "office_name": null,
    "office_name_kana": null
  },
  "0012": {
    "postcode": "2070012",
    "prefecture": "東京都",
    "prefecture_kana": "トウキョウト",
    "prefecture_code": 13,
    "city": "東大和市",
    "city_kana": "ヒガシヤマトシ",
    "town": "新堀",
    "town_kana": "シンボリ",
    "street": null,
    "office_name": null,
    "office_name_kana": null
  },
  "0013": {
    "postcode": "2070013",
    "prefecture": "東京都",
    "prefecture_kana": "トウキョウト",
    "prefecture_code": 13,
    "city": "東大和市",
    "city_kana": "ヒガシヤマトシ",
    "town": "向原",
    "town_kana": "ムコウハラ",
    "street": null,
    "office_name": null,
    "office_name_kana": null
  },
  "0014": {
    "postcode": "2070014",
    "prefecture": "東京都",
    "prefecture_kana": "トウキョウト",
    "prefecture_code": 13,
    "city": "東大和市",
    "city_kana": "ヒガシヤマトシ",
    "town": "南街",
    "town_kana": "ナンガイ",
    "street": null,
    "office_name": null,
    "office_name_kana": null
  },
  "0015": {
    "postcode": "2070015",
    "prefecture": "東京都",
    "prefecture_kana": "トウキョウト",
    "prefecture_code": 13,
    "city": "東大和市",
    "city_kana": "ヒガシヤマトシ",
    "town": "中央",
    "town_kana": "チュウオウ",
    "street": null,
    "office_name": null,
    "office_name_kana": null
  },
  "0016": {
    "postcode": "2070016",
    "prefecture": "東京都",
    "prefecture_kana": "トウキョウト",
    "prefecture_code": 13,
    "city": "東大和市",
    "city_kana": "ヒガシヤマトシ",
    "town": "仲原",
    "town_kana": "ナカハラ",
    "street": null,
    "office_name": null,
    "office_name_kana": null
  },
  "0021": {
    "postcode": "2070021",
    "prefecture": "東京都",
    "prefecture_kana": "トウキョウト",
    "prefecture_code": 13,
    "city": "東大和市",
    "city_kana": "ヒガシヤマトシ",
    "town": "立野",
    "town_kana": "タテノ",
    "street": null,
    "office_name": null,
    "office_name_kana": null
  },
  "0022": {
    "postcode": "2070022",
    "prefecture": "東京都",
    "prefecture_kana": "トウキョウト",
    "prefecture_code": 13,
    "city": "東大和市",
    "city_kana": "ヒガシヤマトシ",
    "town": "桜が丘",
    "town_kana": "サクラガオカ",
    "street": null,
    "office_name": null,
    "office_name_kana": null
  },
  "0023": {
    "postcode": "2070023",
    "prefecture": "東京都",
    "prefecture_kana": "トウキョウト",
    "prefecture_code": 13,
    "city": "東大和市",
    "city_kana": "ヒガシヤマトシ",
    "town": "上北台",
    "town_kana": "カミキタダイ",
    "street": null,
    "office_name": null,
    "office_name_kana": null
  },
  "0031": {
    "postcode": "2070031",
    "prefecture": "東京都",
    "prefecture_kana": "トウキョウト",
    "prefecture_code": 13,
    "city": "東大和市",
    "city_kana": "ヒガシヤマトシ",
    "town": "奈良橋",
    "town_kana": "ナラハシ",
    "street": null,
    "office_name": null,
    "office_name_kana": null
  },
  "0032": {
    "postcode": "2070032",
    "prefecture": "東京都",
    "prefecture_kana": "トウキョウト",
    "prefecture_code": 13,
    "city": "東大和市",
    "city_kana": "ヒガシヤマトシ",
    "town": "蔵敷",
    "town_kana": "ゾウシキ",
    "street": null,
    "office_name": null,
    "office_name_kana": null
  },
  "0033": {
    "postcode": "2070033",
    "prefecture": "東京都",
    "prefecture_kana": "トウキョウト",
    "prefecture_code": 13,
    "city": "東大和市",
    "city_kana": "ヒガシヤマトシ",
    "town": "芋窪",
    "town_kana": "イモクボ",
    "street": null,
    "office_name": null,
    "office_name_kana": null
  },
  "8501": {
    "postcode": "2078501",
    "prefecture": "東京都",
    "prefecture_kana": "トウキョウト",
    "prefecture_code": 13,
    "city": "東大和市",
    "city_kana": "ヒガシヤマトシ",
    "town": "桜が丘",
    "town_kana": "サクラガオカ",
    "street": "２丁目２２９",
    "office_name": "株式会社　カシオ日立モバイルコミュニケーションズ",
    "office_name_kana": "カブシキカイシヤ カシオヒタチモバイルコミユニケ-シヨンズ"
  },
  "8515": {
    "postcode": "2078515",
    "prefecture": "東京都",
    "prefecture_kana": "トウキョウト",
    "prefecture_code": 13,
    "city": "東大和市",
    "city_kana": "ヒガシヤマトシ",
    "town": "桜が丘",
    "town_kana": "サクラガオカ",
    "street": "２丁目１３７−５",
    "office_name": "独立行政法人　中小企業基盤整備機構　関東支部　中小企業大学校　東京校",
    "office_name_kana": "ドクリツギヨウセイホウジン チユウシヨウキギヨウキバンセイビキコウ カントウシブ チユウシヨウキギヨウダイガツコウ トウキヨウコウ"
  },
  "8585": {
    "postcode": "2078585",
    "prefecture": "東京都",
    "prefecture_kana": "トウキョウト",
    "prefecture_code": 13,
    "city": "東大和市",
    "city_kana": "ヒガシヤマトシ",
    "town": "中央",
    "town_kana": "チュウオウ",
    "street": "３丁目９３０",
    "office_name": "東大和市役所",
    "office_name_kana": "ヒガシヤマトシヤクシヨ"
  }
}