{
  "0000": {
    "postcode": "2080000",
    "prefecture": "東京都",
    "prefecture_kana": "トウキョウト",
    "prefecture_code": 13,
    "city": "武蔵村山市",
    "city_kana": "ムサシムラヤマシ",
    "town": "",
    "town_kana": "",
    "street": null,
    "office_name": null,
    "office_name_kana": null
  },
  "0001": {
    "postcode": "2080001",
    "prefecture": "東京都",
    "prefecture_kana": "トウキョウト",
    "prefecture_code": 13,
    "city": "武蔵村山市",
    "city_kana": "ムサシムラヤマシ",
    "town": "中藤",
    "town_kana": "ナカトウ",
    "street": null,
    "office_name": null,
    "office_name_kana": null
  },
  "0002": {
    "postcode": "2080002",
    "prefecture": "東京都",
    "prefecture_kana": "トウキョウト",
    "prefecture_code": 13,
    "city": "武蔵村山市",
    "city_kana": "ムサシムラヤマシ",
    "town": "神明",
    "town_kana": "シンメイ",
    "street": null,
    "office_name": null,
    "office_name_kana": null
  },
  "0003": {
    "postcode": "2080003",
    "prefecture": "東京都",
    "prefecture_kana": "トウキョウト",
    "prefecture_code": 13,
    "city": "武蔵村山市",
    "city_kana": "ムサシムラヤマシ",
    "town": "中央",
    "town_kana": "チュウオウ",
    "street": null,
    "office_name": null,
    "office_name_kana": null
  },
  "0004": {
    "postcode": "2080004",
    "prefecture": "東京都",
    "prefecture_kana": "トウキョウト",
    "prefecture_code": 13,
    "city": "武蔵村山市",
    "city_kana": "ムサシムラヤマシ",
    "town": "本町",
    "town_kana": "ホンマチ",
    "street": null,
    "office_name": null,
    "office_name_kana": null
  },
  "0011": {
    "postcode": "2080011",
    "prefecture": "東京都",
    "prefecture_kana": "トウキョウト",
    "prefecture_code": 13,
    "city": "武蔵村山市",
    "city_kana": "ムサシムラヤマシ",
    "town": "学園",
    "town_kana": "ガクエン",
    "street": null,
    "office_name": null,
    "office_name_kana": null
  },
  "0012": {
    "postcode": "2080012",
    "prefecture": "東京都",
    "prefecture_kana": "トウキョウト",
    "prefecture_code": 13,
    "city": "武蔵村山市",
    "city_kana": "ムサシムラヤマシ",
    "town": "緑が丘",
    "town_kana": "ミドリガオカ",
    "street": null,
    "office_name": null,
    "office_name_kana": null
  },
  "0013": {
    "postcode": "2080013",
    "prefecture": "東京都",
    "prefecture_kana": "トウキョウト",
    "prefecture_code": 13,
    "city": "武蔵村山市",
    "city_kana": "ムサシムラヤマシ",
    "town": "大南",
    "town_kana": "オオミナミ",
    "street": null,
    "office_name": null,
    "office_name_kana": null
  },
  "0021": {
    "postcode": "2080021",
    "prefecture": "東京都",
    "prefecture_kana": "トウキョウト",
    "prefecture_code": 13,
    "city": "武蔵村山市",
    "city_kana": "ムサシムラヤマシ",
    "town": "三ツ藤",
    "town_kana": "ミツフジ",
    "street": null,
    "office_name": null,
    "office_name_kana": null
  },
  "0022": {
    "postcode": "2080022",
    "prefecture": "東京都",
    "prefecture_kana": "トウキョウト",
    "prefecture_code": 13,
    "city": "武蔵村山市",
    "city_kana": "ムサシムラヤマシ",
    "town": "榎",
    "town_kana": "エノキ",
    "street": null,
    "office_name": null,
    "office_name_kana": null
  },
  "0023": {
    "postcode": "2080023",
    "prefecture": "東京都",
    "prefecture_kana": "トウキョウト",
    "prefecture_code": 13,
    "city": "武蔵村山市",
    "city_kana": "ムサシムラヤマシ",
    "town": "伊奈平",
    "town_kana": "イナダイラ",
    "street": null,
    "office_name": null,
    "office_name_kana": null
  },
  "0031": {
    "postcode": "2080031",
    "prefecture": "東京都",
    "prefecture_kana": "トウキョウト",
    "prefecture_code": 13,
    "city": "武蔵村山市",
    "city_kana": "ムサシムラヤマシ",
    "town": "岸",
    "town_kana": "キシ",
    "street": null,
    "office_name": null,
    "office_name_kana": null
  },
  "0032": {
    "postcode": "2080032",
    "prefecture": "東京都",
    "prefecture_kana": "トウキョウト",
    "prefecture_code": 13,
    "city": "武蔵村山市",
    "city_kana": "ムサシムラヤマシ",
    "town": "三ツ木",
    "town_kana": "ミツギ",
    "street": null,
    "office_name": null,
    "office_name_kana": null
  },
  "0033": [
    {
      "postcode": "2080033",
      "prefecture": "東京都",
      "prefecture_kana": "トウキョウト",
      "prefecture_code": 13,
      "city": "武蔵村山市",
      "city_kana": "ムサシムラヤマシ",
      "town": "三ツ木",
      "town_kana": "ミツギ",
      "street": null,
      "office_name": null,
      "office_name_kana": null
    },
    {
      "postcode": "2080033",
      "prefecture": "東京都",
      "prefecture_kana": "トウキョウト",
      "prefecture_code": 13,
      "city": "武蔵村山市",
      "city_kana": "ムサシムラヤマシ",
      "town": "三ツ木大字",
      "town_kana": "ミツギオオアザ",
      "street": null,
      "office_name": null,
      "office_name_kana": null
    }
  ],
  "0034": {
    "postcode": "2080034",
    "prefecture": "東京都",
    "prefecture_kana": "トウキョウト",
    "prefecture_code": 13,
    "city": "武蔵村山市",
    "city_kana": "ムサシムラヤマシ",
    "town": "残堀",
    "town_kana": "ザンボリ",
    "street": null,
    "office_name": null,
    "office_name_kana": null
  },
  "0035": {
    "postcode": "2080035",
    "prefecture": "東京都",
    "prefecture_kana": "トウキョウト",
    "prefecture_code": 13,
    "city": "武蔵村山市",
    "city_kana": "ムサシムラヤマシ",
    "town": "中原",
    "town_kana": "ナカハラ",
    "street": null,
    "office_name": null,
    "office_name_kana": null
  },
  "8501": {
    "postcode": "2088501",
    "prefecture": "東京都",
    "prefecture_kana": "トウキョウト",
    "prefecture_code": 13,
    "city": "武蔵村山市",
    "city_kana": "ムサシムラヤマシ",
    "town": "本町",
    "town_kana": "ホンマチ",
    "street": "１丁目１−１",
    "office_name": "武蔵村山市役所",
    "office_name_kana": "ムサシムラヤマシヤクシヨ"
  },
  "8502": {
    "postcode": "2088502",
    "prefecture": "東京都",
    "prefecture_kana": "トウキョウト",
    "prefecture_code": 13,
    "city": "武蔵村山市",
    "city_kana": "ムサシムラヤマシ",
    "town": "学園",
    "town_kana": "ガクエン",
    "street": "４丁目５−１",
    "office_name": "武蔵村山市民総合センター",
    "office_name_kana": "ムサシムラヤマシミンソウゴウセンタ-"
  },
  "8503": {
    "postcode": "2088503",
    "prefecture": "東京都",
    "prefecture_kana": "トウキョウト",
    "prefecture_code": 13,
    "city": "武蔵村山市",
    "city_kana": "ムサシムラヤマシ",
    "town": "学園",
    "town_kana": "ガクエン",
    "street": "４丁目５−１",
    "office_name": "武蔵村山市社会福祉協議会",
    "office_name_kana": "ムサシムラヤマシシヤカイフクシキヨウギカイ"
  },
  "8555": {
    "postcode": "2088555",
    "prefecture": "東京都",
    "prefecture_kana": "トウキョウト",
    "prefecture_code": 13,
    "city": "武蔵村山市",
    "city_kana": "ムサシムラヤマシ",
    "town": "伊奈平",
    "town_kana": "イナダイラ",
    "street": "１丁目７０−２",
    "office_name": "株式会社　コトブキ　村山工場",
    "office_name_kana": "カブシキガイシヤ コトブキ ムラヤマコウジヨウ"
  },
  "8585": {
    "postcode": "2088585",
    "prefecture": "東京都",
    "prefecture_kana": "トウキョウト",
    "prefecture_code": 13,
    "city": "武蔵村山市",
    "city_kana": "ムサシムラヤマシ",
    "town": "伊奈平",
    "town_kana": "イナダイラ",
    "street": "２丁目５１−１",
    "office_name": "株式会社　新川",
    "office_name_kana": "カブシキガイシヤ シンカワ"
  }
}