{
  "0000": {
    "postcode": "2300000",
    "prefecture": "神奈川県",
    "prefecture_kana": "カナガワケン",
    "prefecture_code": 14,
    "city": "横浜市鶴見区",
    "city_kana": "ヨコハマシツルミク",
    "town": "",
    "town_kana": "",
    "street": null,
    "office_name": null,
    "office_name_kana": null
  },
  "0001": {
    "postcode": "2300001",
    "prefecture": "神奈川県",
    "prefecture_kana": "カナガワケン",
    "prefecture_code": 14,
    "city": "横浜市鶴見区",
    "city_kana": "ヨコハマシツルミク",
    "town": "矢向",
    "town_kana": "ヤコウ",
    "street": null,
    "office_name": null,
    "office_name_kana": null
  },
  "0002": {
    "postcode": "2300002",
    "prefecture": "神奈川県",
    "prefecture_kana": "カナガワケン",
    "prefecture_code": 14,
    "city": "横浜市鶴見区",
    "city_kana": "ヨコハマシツルミク",
    "town": "江ケ崎町",
    "town_kana": "エガサキチョウ",
    "street": null,
    "office_name": null,
    "office_name_kana": null
  },
  "0003": {
    "postcode": "2300003",
    "prefecture": "神奈川県",
    "prefecture_kana": "カナガワケン",
    "prefecture_code": 14,
    "city": "横浜市鶴見区",
    "city_kana": "ヨコハマシツルミク",
    "town": "尻手",
    "town_kana": "シッテ",
    "street": null,
    "office_name": null,
    "office_name_kana": null
  },
  "0004": {
    "postcode": "2300004",
    "prefecture": "神奈川県",
    "prefecture_kana": "カナガワケン",
    "prefecture_code": 14,
    "city": "横浜市鶴見区",
    "city_kana": "ヨコハマシツルミク",
    "town": "元宮",
    "town_kana": "モトミヤ",
    "street": null,
    "office_name": null,
    "office_name_kana": null
  },
  "0011": {
    "postcode": "2300011",
    "prefecture": "神奈川県",
    "prefecture_kana": "カナガワケン",
    "prefecture_code": 14,
    "city": "横浜市鶴見区",
    "city_kana": "ヨコハマシツルミク",
    "town": "上末吉",
    "town_kana": "カミスエヨシ",
    "street": null,
    "office_name": null,
    "office_name_kana": null
  },
  "0012": {
    "postcode": "2300012",
    "prefecture": "神奈川県",
    "prefecture_kana": "カナガワケン",
    "prefecture_code": 14,
    "city": "横浜市鶴見区",
    "city_kana": "ヨコハマシツルミク",
    "town": "下末吉",
    "town_kana": "シモスエヨシ",
    "street": null,
    "office_name": null,
    "office_name_kana": null
  },
  "0013": {
    "postcode": "2300013",
    "prefecture": "神奈川県",
    "prefecture_kana": "カナガワケン",
    "prefecture_code": 14,
    "city": "横浜市鶴見区",
    "city_kana": "ヨコハマシツルミク",
    "town": "三ツ池公園",
    "town_kana": "ミツイケコウエン",
    "street": null,
    "office_name": null,
    "office_name_kana": null
  },
  "0014": {
    "postcode": "2300014",
    "prefecture": "神奈川県",
    "prefecture_kana": "カナガワケン",
    "prefecture_code": 14,
    "city": "横浜市鶴見区",
    "city_kana": "ヨコハマシツルミク",
    "town": "諏訪坂",
    "town_kana": "スワザカ",
    "street": null,
    "office_name": null,
    "office_name_kana": null
  },
  "0015": {
    "postcode": "2300015",
    "prefecture": "神奈川県",
    "prefecture_kana": "カナガワケン",
    "prefecture_code": 14,
    "city": "横浜市鶴見区",
    "city_kana": "ヨコハマシツルミク",
    "town": "寺谷",
    "town_kana": "テラヤ",
    "street": null,
    "office_name": null,
    "office_name_kana": null
  },
  "0016": {
    "postcode": "2300016",
    "prefecture": "神奈川県",
    "prefecture_kana": "カナガワケン",
    "prefecture_code": 14,
    "city": "横浜市鶴見区",
    "city_kana": "ヨコハマシツルミク",
    "town": "東寺尾北台",
    "town_kana": "ヒガシテラオキタダイ",
    "street": null,
    "office_name": null,
    "office_name_kana": null
  },
  "0017": {
    "postcode": "2300017",
    "prefecture": "神奈川県",
    "prefecture_kana": "カナガワケン",
    "prefecture_code": 14,
    "city": "横浜市鶴見区",
    "city_kana": "ヨコハマシツルミク",
    "town": "東寺尾中台",
    "town_kana": "ヒガシテラオナカダイ",
    "street": null,
    "office_name": null,
    "office_name_kana": null
  },
  "0018": {
    "postcode": "2300018",
    "prefecture": "神奈川県",
    "prefecture_kana": "カナガワケン",
    "prefecture_code": 14,
    "city": "横浜市鶴見区",
    "city_kana": "ヨコハマシツルミク",
    "town": "東寺尾東台",
    "town_kana": "ヒガシテラオヒガシダイ",
    "street": null,
    "office_name": null,
    "office_name_kana": null
  },
  "0021": {
    "postcode": "2300021",
    "prefecture": "神奈川県",
    "prefecture_kana": "カナガワケン",
    "prefecture_code": 14,
    "city": "横浜市鶴見区",
    "city_kana": "ヨコハマシツルミク",
    "town": "市場上町",
    "town_kana": "イチバカミチョウ",
    "street": null,
    "office_name": null,
    "office_name_kana": null
  },
  "0022": {
    "postcode": "2300022",
    "prefecture": "神奈川県",
    "prefecture_kana": "カナガワケン",
    "prefecture_code": 14,
    "city": "横浜市鶴見区",
    "city_kana": "ヨコハマシツルミク",
    "town": "市場東中町",
    "town_kana": "イチバヒガシナカチョウ",
    "street": null,
    "office_name": null,
    "office_name_kana": null
  },
  "0023": {
    "postcode": "2300023",
    "prefecture": "神奈川県",
    "prefecture_kana": "カナガワケン",
    "prefecture_code": 14,
    "city": "横浜市鶴見区",
    "city_kana": "ヨコハマシツルミク",
    "town": "市場西中町",
    "town_kana": "イチバニシナカチョウ",
    "street": null,
    "office_name": null,
    "office_name_kana": null
  },
  "0024": {
    "postcode": "2300024",
    "prefecture": "神奈川県",
    "prefecture_kana": "カナガワケン",
    "prefecture_code": 14,
    "city": "横浜市鶴見区",
    "city_kana": "ヨコハマシツルミク",
    "town": "市場下町",
    "town_kana": "イチバシモチョウ",
    "street": null,
    "office_name": null,
    "office_name_kana": null
  },
  "0025": {
    "postcode": "2300025",
    "prefecture": "神奈川県",
    "prefecture_kana": "カナガワケン",
    "prefecture_code": 14,
    "city": "横浜市鶴見区",
    "city_kana": "ヨコハマシツルミク",
    "town": "市場大和町",
    "town_kana": "イチバヤマトチョウ",
    "street": null,
    "office_name": null,
    "office_name_kana": null
  },
  "0026": {
    "postcode": "2300026",
    "prefecture": "神奈川県",
    "prefecture_kana": "カナガワケン",
    "prefecture_code": 14,
    "city": "横浜市鶴見区",
    "city_kana": "ヨコハマシツルミク",
    "town": "市場富士見町",
    "town_kana": "イチバフジミチョウ",
    "street": null,
    "office_name": null,
    "office_name_kana": null
  },
  "0027": {
    "postcode": "2300027",
    "prefecture": "神奈川県",
    "prefecture_kana": "カナガワケン",
    "prefecture_code": 14,
    "city": "横浜市鶴見区",
    "city_kana": "ヨコハマシツルミク",
    "town": "菅沢町",
    "town_kana": "スガサワチョウ",
    "street": null,
    "office_name": null,
    "office_name_kana": null
  },
  "0031": {
    "postcode": "2300031",
    "prefecture": "神奈川県",
    "prefecture_kana": "カナガワケン",
    "prefecture_code": 14,
    "city": "横浜市鶴見区",
    "city_kana": "ヨコハマシツルミク",
    "town": "平安町",
    "town_kana": "ヘイアンチョウ",
    "street": null,
    "office_name": null,
    "office_name_kana": null
  },
  "0032": {
    "postcode": "2300032",
    "prefecture": "神奈川県",
    "prefecture_kana": "カナガワケン",
    "prefecture_code": 14,
    "city": "横浜市鶴見区",
    "city_kana": "ヨコハマシツルミク",
    "town": "大東町",
    "town_kana": "ダイトウチョウ",
    "street": null,
    "office_name": null,
    "office_name_kana": null
  },
  "0033": {
    "postcode": "2300033",
    "prefecture": "神奈川県",
    "prefecture_kana": "カナガワケン",
    "prefecture_code": 14,
    "city": "横浜市鶴見区",
    "city_kana": "ヨコハマシツルミク",
    "town": "朝日町",
    "town_kana": "アサヒチョウ",
    "street": null,
    "office_name": null,
    "office_name_kana": null
  },
  "0034": {
    "postcode": "2300034",
    "prefecture": "神奈川県",
    "prefecture_kana": "カナガワケン",
    "prefecture_code": 14,
    "city": "横浜市鶴見区",
    "city_kana": "ヨコハマシツルミク",
    "town": "寛政町",
    "town_kana": "カンセイチョウ",
    "street": null,
    "office_name": null,
    "office_name_kana": null
  },
  "0035": {
    "postcode": "2300035",
    "prefecture": "神奈川県",
    "prefecture_kana": "カナガワケン",
    "prefecture_code": 14,
    "city": "横浜市鶴見区",
    "city_kana": "ヨコハマシツルミク",
    "town": "安善町",
    "town_kana": "アンゼンチョウ",
    "street": null,
    "office_name": null,
    "office_name_kana": null
  },
  "0036": {
    "postcode": "2300036",
    "prefecture": "神奈川県",
    "prefecture_kana": "カナガワケン",
    "prefecture_code": 14,
    "city": "横浜市鶴見区",
    "city_kana": "ヨコハマシツルミク",
    "town": "浜町",
    "town_kana": "ハマチョウ",
    "street": null,
    "office_name": null,
    "office_name_kana": null
  },
  "0037": {
    "postcode": "2300037",
    "prefecture": "神奈川県",
    "prefecture_kana": "カナガワケン",
    "prefecture_code": 14,
    "city": "横浜市鶴見区",
    "city_kana": "ヨコハマシツルミク",
    "town": "向井町",
    "town_kana": "ムカイチョウ",
    "street": null,
    "office_name": null,
    "office_name_kana": null
  },
  "0038": {
    "postcode": "2300038",
    "prefecture": "神奈川県",
    "prefecture_kana": "カナガワケン",
    "prefecture_code": 14,
    "city": "横浜市鶴見区",
    "city_kana": "ヨコハマシツルミク",
    "town": "栄町通",
    "town_kana": "サカエチョウドオリ",
    "street": null,
    "office_name": null,
    "office_name_kana": null
  },
  "0041": {
    "postcode": "2300041",
    "prefecture": "神奈川県",
    "prefecture_kana": "カナガワケン",
    "prefecture_code": 14,
    "city": "横浜市鶴見区",
    "city_kana": "ヨコハマシツルミク",
    "town": "潮田町",
    "town_kana": "ウシオダチョウ",
    "street": null,
    "office_name": null,
    "office_name_kana": null
  },
  "0042": {
    "postcode": "2300042",
    "prefecture": "神奈川県",
    "prefecture_kana": "カナガワケン",
    "prefecture_code": 14,
    "city": "横浜市鶴見区",
    "city_kana": "ヨコハマシツルミク",
    "town": "仲通",
    "town_kana": "ナカドオリ",
    "street": null,
    "office_name": null,
    "office_name_kana": null
  },
  "0043": {
    "postcode": "2300043",
    "prefecture": "神奈川県",
    "prefecture_kana": "カナガワケン",
    "prefecture_code": 14,
    "city": "横浜市鶴見区",
    "city_kana": "ヨコハマシツルミク",
    "town": "汐入町",
    "town_kana": "シオイリチョウ",
    "street": null,
    "office_name": null,
    "office_name_kana": null
  },
  "0044": {
    "postcode": "2300044",
    "prefecture": "神奈川県",
    "prefecture_kana": "カナガワケン",
    "prefecture_code": 14,
    "city": "横浜市鶴見区",
    "city_kana": "ヨコハマシツルミク",
    "town": "弁天町",
    "town_kana": "ベンテンチョウ",
    "street": null,
    "office_name": null,
    "office_name_kana": null
  },
  "0045": {
    "postcode": "2300045",
    "prefecture": "神奈川県",
    "prefecture_kana": "カナガワケン",
    "prefecture_code": 14,
    "city": "横浜市鶴見区",
    "city_kana": "ヨコハマシツルミク",
    "town": "末広町",
    "town_kana": "スエヒロチョウ",
    "street": null,
    "office_name": null,
    "office_name_kana": null
  },
  "0046": {
    "postcode": "2300046",
    "prefecture": "神奈川県",
    "prefecture_kana": "カナガワケン",
    "prefecture_code": 14,
    "city": "横浜市鶴見区",
    "city_kana": "ヨコハマシツルミク",
    "town": "小野町",
    "town_kana": "オノチョウ",
    "street": null,
    "office_name": null,
    "office_name_kana": null
  },
  "0047": {
    "postcode": "2300047",
    "prefecture": "神奈川県",
    "prefecture_kana": "カナガワケン",
    "prefecture_code": 14,
    "city": "横浜市鶴見区",
    "city_kana": "ヨコハマシツルミク",
    "town": "下野谷町",
    "town_kana": "シタノヤチョウ",
    "street": null,
    "office_name": null,
    "office_name_kana": null
  },
  "0048": {
    "postcode": "2300048",
    "prefecture": "神奈川県",
    "prefecture_kana": "カナガワケン",
    "prefecture_code": 14,
    "city": "横浜市鶴見区",
    "city_kana": "ヨコハマシツルミク",
    "town": "本町通",
    "town_kana": "ホンチョウドオリ",
    "street": null,
    "office_name": null,
    "office_name_kana": null
  },
  "0051": {
    "postcode": "2300051",
    "prefecture": "神奈川県",
    "prefecture_kana": "カナガワケン",
    "prefecture_code": 14,
    "city": "横浜市鶴見区",
    "city_kana": "ヨコハマシツルミク",
    "town": "鶴見中央",
    "town_kana": "ツルミチュウオウ",
    "street": null,
    "office_name": null,
    "office_name_kana": null
  },
  "0052": {
    "postcode": "2300052",
    "prefecture": "神奈川県",
    "prefecture_kana": "カナガワケン",
    "prefecture_code": 14,
    "city": "横浜市鶴見区",
    "city_kana": "ヨコハマシツルミク",
    "town": "生麦",
    "town_kana": "ナマムギ",
    "street": null,
    "office_name": null,
    "office_name_kana": null
  },
  "0053": {
    "postcode": "2300053",
    "prefecture": "神奈川県",
    "prefecture_kana": "カナガワケン",
    "prefecture_code": 14,
    "city": "横浜市鶴見区",
    "city_kana": "ヨコハマシツルミク",
    "town": "大黒町",
    "town_kana": "ダイコクチョウ",
    "street": null,
    "office_name": null,
    "office_name_kana": null
  },
  "0054": {
    "postcode": "2300054",
    "prefecture": "神奈川県",
    "prefecture_kana": "カナガワケン",
    "prefecture_code": 14,
    "city": "横浜市鶴見区",
    "city_kana": "ヨコハマシツルミク",
    "town": "大黒ふ頭",
    "town_kana": "ダイコクフトウ",
    "street": null,
    "office_name": null,
    "office_name_kana": null
  },
  "0055": {
    "postcode": "2300055",
    "prefecture": "神奈川県",
    "prefecture_kana": "カナガワケン",
    "prefecture_code": 14,
    "city": "横浜市鶴見区",
    "city_kana": "ヨコハマシツルミク",
    "town": "扇島",
    "town_kana": "オウギシマ",
    "street": null,
    "office_name": null,
    "office_name_kana": null
  },
  "0061": {
    "postcode": "2300061",
    "prefecture": "神奈川県",
    "prefecture_kana": "カナガワケン",
    "prefecture_code": 14,
    "city": "横浜市鶴見区",
    "city_kana": "ヨコハマシツルミク",
    "town": "佃野町",
    "town_kana": "ツクノチョウ",
    "street": null,
    "office_name": null,
    "office_name_kana": null
  },
  "0062": {
    "postcode": "2300062",
    "prefecture": "神奈川県",
    "prefecture_kana": "カナガワケン",
    "prefecture_code": 14,
    "city": "横浜市鶴見区",
    "city_kana": "ヨコハマシツルミク",
    "town": "豊岡町",
    "town_kana": "トヨオカチョウ",
    "street": null,
    "office_name": null,
    "office_name_kana": null
  },
  "0063": {
    "postcode": "2300063",
    "prefecture": "神奈川県",
    "prefecture_kana": "カナガワケン",
    "prefecture_code": 14,
    "city": "横浜市鶴見区",
    "city_kana": "ヨコハマシツルミク",
    "town": "鶴見",
    "town_kana": "ツルミ",
    "street": null,
    "office_name": null,
    "office_name_kana": null
  },
  "0071": {
    "postcode": "2300071",
    "prefecture": "神奈川県",
    "prefecture_kana": "カナガワケン",
    "prefecture_code": 14,
    "city": "横浜市鶴見区",
    "city_kana": "ヨコハマシツルミク",
    "town": "駒岡",
    "town_kana": "コマオカ",
    "street": null,
    "office_name": null,
    "office_name_kana": null
  },
  "0072": {
    "postcode": "2300072",
    "prefecture": "神奈川県",
    "prefecture_kana": "カナガワケン",
    "prefecture_code": 14,
    "city": "横浜市鶴見区",
    "city_kana": "ヨコハマシツルミク",
    "town": "梶山",
    "town_kana": "カジヤマ",
    "street": null,
    "office_name": null,
    "office_name_kana": null
  },
  "0073": {
    "postcode": "2300073",
    "prefecture": "神奈川県",
    "prefecture_kana": "カナガワケン",
    "prefecture_code": 14,
    "city": "横浜市鶴見区",
    "city_kana": "ヨコハマシツルミク",
    "town": "獅子ケ谷",
    "town_kana": "シシガヤ",
    "street": null,
    "office_name": null,
    "office_name_kana": null
  },
  "0074": {
    "postcode": "2300074",
    "prefecture": "神奈川県",
    "prefecture_kana": "カナガワケン",
    "prefecture_code": 14,
    "city": "横浜市鶴見区",
    "city_kana": "ヨコハマシツルミク",
    "town": "北寺尾",
    "town_kana": "キタテラオ",
    "street": null,
    "office_name": null,
    "office_name_kana": null
  },
  "0075": {
    "postcode": "2300075",
    "prefecture": "神奈川県",
    "prefecture_kana": "カナガワケン",
    "prefecture_code": 14,
    "city": "横浜市鶴見区",
    "city_kana": "ヨコハマシツルミク",
    "town": "上の宮",
    "town_kana": "カミノミヤ",
    "street": null,
    "office_name": null,
    "office_name_kana": null
  },
  "0076": {
    "postcode": "2300076",
    "prefecture": "神奈川県",
    "prefecture_kana": "カナガワケン",
    "prefecture_code": 14,
    "city": "横浜市鶴見区",
    "city_kana": "ヨコハマシツルミク",
    "town": "馬場",
    "town_kana": "ババ",
    "street": null,
    "office_name": null,
    "office_name_kana": null
  },
  "0077": {
    "postcode": "2300077",
    "prefecture": "神奈川県",
    "prefecture_kana": "カナガワケン",
    "prefecture_code": 14,
    "city": "横浜市鶴見区",
    "city_kana": "ヨコハマシツルミク",
    "town": "東寺尾",
    "town_kana": "ヒガシテラオ",
    "street": null,
    "office_name": null,
    "office_name_kana": null
  },
  "0078": {
    "postcode": "2300078",
    "prefecture": "神奈川県",
    "prefecture_kana": "カナガワケン",
    "prefecture_code": 14,
    "city": "横浜市鶴見区",
    "city_kana": "ヨコハマシツルミク",
    "town": "岸谷",
    "town_kana": "キシヤ",
    "street": null,
    "office_name": null,
    "office_name_kana": null
  },
  "8501": {
    "postcode": "2308501",
    "prefecture": "神奈川県",
    "prefecture_kana": "カナガワケン",
    "prefecture_code": 14,
    "city": "横浜市鶴見区",
    "city_kana": "ヨコハマシツルミク",
    "town": "鶴見",
    "town_kana": "ツルミ",
    "street": "２丁目１−３",
    "office_name": "鶴見大学",
    "office_name_kana": "ツルミダイガク"
  },
  "8504": {
    "postcode": "2308504",
    "prefecture": "神奈川県",
    "prefecture_kana": "カナガワケン",
    "prefecture_code": 14,
    "city": "横浜市鶴見区",
    "city_kana": "ヨコハマシツルミク",
    "town": "下末吉",
    "town_kana": "シモスエヨシ",
    "street": "２丁目１−１",
    "office_name": "森永製菓",
    "office_name_kana": "モリナガセイカ"
  },
  "8511": {
    "postcode": "2308511",
    "prefecture": "神奈川県",
    "prefecture_kana": "カナガワケン",
    "prefecture_code": 14,
    "city": "横浜市鶴見区",
    "city_kana": "ヨコハマシツルミク",
    "town": "鶴見中央",
    "town_kana": "ツルミチュウオウ",
    "street": "２丁目５−５",
    "office_name": "株式会社　エーアンドエーマテリアル",
    "office_name_kana": "カブシキガイシヤ エ-アンドエ-マテリアル"
  },
  "8550": {
    "postcode": "2308550",
    "prefecture": "神奈川県",
    "prefecture_kana": "カナガワケン",
    "prefecture_code": 14,
    "city": "横浜市鶴見区",
    "city_kana": "ヨコハマシツルミク",
    "town": "鶴見中央",
    "town_kana": "ツルミチュウオウ",
    "street": "４丁目３８−３２",
    "office_name": "鶴見　税務署",
    "office_name_kana": "ツルミ ゼイムシヨ"
  },
  "8555": {
    "postcode": "2308555",
    "prefecture": "神奈川県",
    "prefecture_kana": "カナガワケン",
    "prefecture_code": 14,
    "city": "横浜市鶴見区",
    "city_kana": "ヨコハマシツルミク",
    "town": "鶴見中央",
    "town_kana": "ツルミチュウオウ",
    "street": "４丁目４３−４",
    "office_name": "鶴見社会保険事務所",
    "office_name_kana": "ツルミシヤカイホケンジムシヨ"
  },
  "8571": {
    "postcode": "2308571",
    "prefecture": "神奈川県",
    "prefecture_kana": "カナガワケン",
    "prefecture_code": 14,
    "city": "横浜市鶴見区",
    "city_kana": "ヨコハマシツルミク",
    "town": "鶴見中央",
    "town_kana": "ツルミチュウオウ",
    "street": "４丁目３３番１号",
    "office_name": "ナイス　株式会社",
    "office_name_kana": "ナイス カブシキガイシヤ"
  },
  "8577": {
    "postcode": "2308577",
    "prefecture": "神奈川県",
    "prefecture_kana": "カナガワケン",
    "prefecture_code": 14,
    "city": "横浜市鶴見区",
    "city_kana": "ヨコハマシツルミク",
    "town": "東寺尾",
    "town_kana": "ヒガシテラオ",
    "street": "４丁目１１−１",
    "office_name": "横浜商科大学",
    "office_name_kana": "ヨコハマシヨウカダイガク"
  },
  "8611": {
    "postcode": "2308611",
    "prefecture": "神奈川県",
    "prefecture_kana": "カナガワケン",
    "prefecture_code": 14,
    "city": "横浜市鶴見区",
    "city_kana": "ヨコハマシツルミク",
    "town": "末広町",
    "town_kana": "スエヒロチョウ",
    "street": "２丁目１（鶴見郵便局私書箱第２号）",
    "office_name": "ＪＦＥエンジニアリング　株式会社　鶴見事業所",
    "office_name_kana": "ジエイエフイ-エンジニアリング カブシキガイシヤ ツルミジギヨウシヨ"
  },
  "8628": {
    "postcode": "2308628",
    "prefecture": "神奈川県",
    "prefecture_kana": "カナガワケン",
    "prefecture_code": 14,
    "city": "横浜市鶴見区",
    "city_kana": "ヨコハマシツルミク",
    "town": "生麦",
    "town_kana": "ナマムギ",
    "street": "１丁目１７−１",
    "office_name": "キリンビール　横浜工場",
    "office_name_kana": "キリンビ-ル ヨコハマコウジヨウ"
  },
  "8666": {
    "postcode": "2308666",
    "prefecture": "神奈川県",
    "prefecture_kana": "カナガワケン",
    "prefecture_code": 14,
    "city": "横浜市鶴見区",
    "city_kana": "ヨコハマシツルミク",
    "town": "尻手",
    "town_kana": "シッテ",
    "street": "２丁目１−５３（鶴見郵便局私書箱第２０号）",
    "office_name": "日本ファーネス工業",
    "office_name_kana": "ニホンフア-ネスコウギヨウ"
  },
  "8686": {
    "postcode": "2308686",
    "prefecture": "神奈川県",
    "prefecture_kana": "カナガワケン",
    "prefecture_code": 14,
    "city": "横浜市鶴見区",
    "city_kana": "ヨコハマシツルミク",
    "town": "鶴見",
    "town_kana": "ツルミ",
    "street": "２丁目１−１",
    "office_name": "大本山総持寺",
    "office_name_kana": "ダイホンザンソウジジ"
  },
  "8765": {
    "postcode": "2308765",
    "prefecture": "神奈川県",
    "prefecture_kana": "カナガワケン",
    "prefecture_code": 14,
    "city": "横浜市鶴見区",
    "city_kana": "ヨコハマシツルミク",
    "town": "下末吉",
    "town_kana": "シモスエヨシ",
    "street": "３丁目６−１",
    "office_name": "社会福祉法人恩賜財団　済生会　横浜市東部病院",
    "office_name_kana": "シヤカイフクシホウジンオンシザイダン サイセイカイ ヨコハマシトウブビヨウイン"
  }
}