{
  "0000": {
    "postcode": "2320000",
    "prefecture": "神奈川県",
    "prefecture_kana": "カナガワケン",
    "prefecture_code": 14,
    "city": "横浜市南区",
    "city_kana": "ヨコハマシミナミク",
    "town": "",
    "town_kana": "",
    "street": null,
    "office_name": null,
    "office_name_kana": null
  },
  "0001": {
    "postcode": "2320001",
    "prefecture": "神奈川県",
    "prefecture_kana": "カナガワケン",
    "prefecture_code": 14,
    "city": "横浜市南区",
    "city_kana": "ヨコハマシミナミク",
    "town": "伏見町",
    "town_kana": "フシミチョウ",
    "street": null,
    "office_name": null,
    "office_name_kana": null
  },
  "0002": {
    "postcode": "2320002",
    "prefecture": "神奈川県",
    "prefecture_kana": "カナガワケン",
    "prefecture_code": 14,
    "city": "横浜市南区",
    "city_kana": "ヨコハマシミナミク",
    "town": "三春台",
    "town_kana": "ミハルダイ",
    "street": null,
    "office_name": null,
    "office_name_kana": null
  },
  "0003": {
    "postcode": "2320003",
    "prefecture": "神奈川県",
    "prefecture_kana": "カナガワケン",
    "prefecture_code": 14,
    "city": "横浜市南区",
    "city_kana": "ヨコハマシミナミク",
    "town": "西中町",
    "town_kana": "ニシナカチョウ",
    "street": null,
    "office_name": null,
    "office_name_kana": null
  },
  "0004": {
    "postcode": "2320004",
    "prefecture": "神奈川県",
    "prefecture_kana": "カナガワケン",
    "prefecture_code": 14,
    "city": "横浜市南区",
    "city_kana": "ヨコハマシミナミク",
    "town": "前里町",
    "town_kana": "マエサトチョウ",
    "street": null,
    "office_name": null,
    "office_name_kana": null
  },
  "0005": {
    "postcode": "2320005",
    "prefecture": "神奈川県",
    "prefecture_kana": "カナガワケン",
    "prefecture_code": 14,
    "city": "横浜市南区",
    "city_kana": "ヨコハマシミナミク",
    "town": "白金町",
    "town_kana": "シロガネチョウ",
    "street": null,
    "office_name": null,
    "office_name_kana": null
  },
  "0006": {
    "postcode": "2320006",
    "prefecture": "神奈川県",
    "prefecture_kana": "カナガワケン",
    "prefecture_code": 14,
    "city": "横浜市南区",
    "city_kana": "ヨコハマシミナミク",
    "town": "南太田",
    "town_kana": "ミナミオオタ",
    "street": null,
    "office_name": null,
    "office_name_kana": null
  },
  "0007": {
    "postcode": "2320007",
    "prefecture": "神奈川県",
    "prefecture_kana": "カナガワケン",
    "prefecture_code": 14,
    "city": "横浜市南区",
    "city_kana": "ヨコハマシミナミク",
    "town": "清水ケ丘",
    "town_kana": "シミズガオカ",
    "street": null,
    "office_name": null,
    "office_name_kana": null
  },
  "0008": {
    "postcode": "2320008",
    "prefecture": "神奈川県",
    "prefecture_kana": "カナガワケン",
    "prefecture_code": 14,
    "city": "横浜市南区",
    "city_kana": "ヨコハマシミナミク",
    "town": "庚台",
    "town_kana": "カノエダイ",
    "street": null,
    "office_name": null,
    "office_name_kana": null
  },
  "0011": {
    "postcode": "2320011",
    "prefecture": "神奈川県",
    "prefecture_kana": "カナガワケン",
    "prefecture_code": 14,
    "city": "横浜市南区",
    "city_kana": "ヨコハマシミナミク",
    "town": "日枝町",
    "town_kana": "ヒエチョウ",
    "street": null,
    "office_name": null,
    "office_name_kana": null
  },
  "0012": {
    "postcode": "2320012",
    "prefecture": "神奈川県",
    "prefecture_kana": "カナガワケン",
    "prefecture_code": 14,
    "city": "横浜市南区",
    "city_kana": "ヨコハマシミナミク",
    "town": "南吉田町",
    "town_kana": "ミナミヨシダチョウ",
    "street": null,
    "office_name": null,
    "office_name_kana": null
  },
  "0013": {
    "postcode": "2320013",
    "prefecture": "神奈川県",
    "prefecture_kana": "カナガワケン",
    "prefecture_code": 14,
    "city": "横浜市南区",
    "city_kana": "ヨコハマシミナミク",
    "town": "山王町",
    "town_kana": "サンノウチョウ",
    "street": null,
    "office_name": null,
    "office_name_kana": null
  },
  "0014": {
    "postcode": "2320014",
    "prefecture": "神奈川県",
    "prefecture_kana": "カナガワケン",
    "prefecture_code": 14,
    "city": "横浜市南区",
    "city_kana": "ヨコハマシミナミク",
    "town": "吉野町",
    "town_kana": "ヨシノチョウ",
    "street": null,
    "office_name": null,
    "office_name_kana": null
  },
  "0015": {
    "postcode": "2320015",
    "prefecture": "神奈川県",
    "prefecture_kana": "カナガワケン",
    "prefecture_code": 14,
    "city": "横浜市南区",
    "city_kana": "ヨコハマシミナミク",
    "town": "共進町",
    "town_kana": "キョウシンチョウ",
    "street": null,
    "office_name": null,
    "office_name_kana": null
  },
  "0016": {
    "postcode": "2320016",
    "prefecture": "神奈川県",
    "prefecture_kana": "カナガワケン",
    "prefecture_code": 14,
    "city": "横浜市南区",
    "city_kana": "ヨコハマシミナミク",
    "town": "宮元町",
    "town_kana": "ミヤモトチョウ",
    "street": null,
    "office_name": null,
    "office_name_kana": null
  },
  "0017": {
    "postcode": "2320017",
    "prefecture": "神奈川県",
    "prefecture_kana": "カナガワケン",
    "prefecture_code": 14,
    "city": "横浜市南区",
    "city_kana": "ヨコハマシミナミク",
    "town": "宿町",
    "town_kana": "シュクチョウ",
    "street": null,
    "office_name": null,
    "office_name_kana": null
  },
  "0018": {
    "postcode": "2320018",
    "prefecture": "神奈川県",
    "prefecture_kana": "カナガワケン",
    "prefecture_code": 14,
    "city": "横浜市南区",
    "city_kana": "ヨコハマシミナミク",
    "town": "花之木町",
    "town_kana": "ハナノキチョウ",
    "street": null,
    "office_name": null,
    "office_name_kana": null
  },
  "0021": {
    "postcode": "2320021",
    "prefecture": "神奈川県",
    "prefecture_kana": "カナガワケン",
    "prefecture_code": 14,
    "city": "横浜市南区",
    "city_kana": "ヨコハマシミナミク",
    "town": "真金町",
    "town_kana": "マガネチョウ",
    "street": null,
    "office_name": null,
    "office_name_kana": null
  },
  "0022": {
    "postcode": "2320022",
    "prefecture": "神奈川県",
    "prefecture_kana": "カナガワケン",
    "prefecture_code": 14,
    "city": "横浜市南区",
    "city_kana": "ヨコハマシミナミク",
    "town": "高根町",
    "town_kana": "タカネチョウ",
    "street": null,
    "office_name": null,
    "office_name_kana": null
  },
  "0023": {
    "postcode": "2320023",
    "prefecture": "神奈川県",
    "prefecture_kana": "カナガワケン",
    "prefecture_code": 14,
    "city": "横浜市南区",
    "city_kana": "ヨコハマシミナミク",
    "town": "白妙町",
    "town_kana": "シロタエチョウ",
    "street": null,
    "office_name": null,
    "office_name_kana": null
  },
  "0024": {
    "postcode": "2320024",
    "prefecture": "神奈川県",
    "prefecture_kana": "カナガワケン",
    "prefecture_code": 14,
    "city": "横浜市南区",
    "city_kana": "ヨコハマシミナミク",
    "town": "浦舟町",
    "town_kana": "ウラフネチョウ",
    "street": null,
    "office_name": null,
    "office_name_kana": null
  },
  "0025": {
    "postcode": "2320025",
    "prefecture": "神奈川県",
    "prefecture_kana": "カナガワケン",
    "prefecture_code": 14,
    "city": "横浜市南区",
    "city_kana": "ヨコハマシミナミク",
    "town": "高砂町",
    "town_kana": "タカサゴチョウ",
    "street": null,
    "office_name": null,
    "office_name_kana": null
  },
  "0026": {
    "postcode": "2320026",
    "prefecture": "神奈川県",
    "prefecture_kana": "カナガワケン",
    "prefecture_code": 14,
    "city": "横浜市南区",
    "city_kana": "ヨコハマシミナミク",
    "town": "二葉町",
    "town_kana": "フタバチョウ",
    "street": null,
    "office_name": null,
    "office_name_kana": null
  },
  "0027": {
    "postcode": "2320027",
    "prefecture": "神奈川県",
    "prefecture_kana": "カナガワケン",
    "prefecture_code": 14,
    "city": "横浜市南区",
    "city_kana": "ヨコハマシミナミク",
    "town": "新川町",
    "town_kana": "シンカワチョウ",
    "street": null,
    "office_name": null,
    "office_name_kana": null
  },
  "0031": {
    "postcode": "2320031",
    "prefecture": "神奈川県",
    "prefecture_kana": "カナガワケン",
    "prefecture_code": 14,
    "city": "横浜市南区",
    "city_kana": "ヨコハマシミナミク",
    "town": "永楽町",
    "town_kana": "エイラクチョウ",
    "street": null,
    "office_name": null,
    "office_name_kana": null
  },
  "0032": {
    "postcode": "2320032",
    "prefecture": "神奈川県",
    "prefecture_kana": "カナガワケン",
    "prefecture_code": 14,
    "city": "横浜市南区",
    "city_kana": "ヨコハマシミナミク",
    "town": "万世町",
    "town_kana": "マンセイチョウ",
    "street": null,
    "office_name": null,
    "office_name_kana": null
  },
  "0033": {
    "postcode": "2320033",
    "prefecture": "神奈川県",
    "prefecture_kana": "カナガワケン",
    "prefecture_code": 14,
    "city": "横浜市南区",
    "city_kana": "ヨコハマシミナミク",
    "town": "中村町",
    "town_kana": "ナカムラチョウ",
    "street": null,
    "office_name": null,
    "office_name_kana": null
  },
  "0034": {
    "postcode": "2320034",
    "prefecture": "神奈川県",
    "prefecture_kana": "カナガワケン",
    "prefecture_code": 14,
    "city": "横浜市南区",
    "city_kana": "ヨコハマシミナミク",
    "town": "唐沢",
    "town_kana": "カラサワ",
    "street": null,
    "office_name": null,
    "office_name_kana": null
  },
  "0035": {
    "postcode": "2320035",
    "prefecture": "神奈川県",
    "prefecture_kana": "カナガワケン",
    "prefecture_code": 14,
    "city": "横浜市南区",
    "city_kana": "ヨコハマシミナミク",
    "town": "平楽",
    "town_kana": "ヘイラク",
    "street": null,
    "office_name": null,
    "office_name_kana": null
  },
  "0036": {
    "postcode": "2320036",
    "prefecture": "神奈川県",
    "prefecture_kana": "カナガワケン",
    "prefecture_code": 14,
    "city": "横浜市南区",
    "city_kana": "ヨコハマシミナミク",
    "town": "山谷",
    "town_kana": "サンヤ",
    "street": null,
    "office_name": null,
    "office_name_kana": null
  },
  "0037": {
    "postcode": "2320037",
    "prefecture": "神奈川県",
    "prefecture_kana": "カナガワケン",
    "prefecture_code": 14,
    "city": "横浜市南区",
    "city_kana": "ヨコハマシミナミク",
    "town": "八幡町",
    "town_kana": "ハチマンチョウ",
    "street": null,
    "office_name": null,
    "office_name_kana": null
  },
  "0041": {
    "postcode": "2320041",
    "prefecture": "神奈川県",
    "prefecture_kana": "カナガワケン",
    "prefecture_code": 14,
    "city": "横浜市南区",
    "city_kana": "ヨコハマシミナミク",
    "town": "睦町",
    "town_kana": "ムツミチョウ",
    "street": null,
    "office_name": null,
    "office_name_kana": null
  },
  "0042": {
    "postcode": "2320042",
    "prefecture": "神奈川県",
    "prefecture_kana": "カナガワケン",
    "prefecture_code": 14,
    "city": "横浜市南区",
    "city_kana": "ヨコハマシミナミク",
    "town": "堀ノ内町",
    "town_kana": "ホリノウチチョウ",
    "street": null,
    "office_name": null,
    "office_name_kana": null
  },
  "0043": {
    "postcode": "2320043",
    "prefecture": "神奈川県",
    "prefecture_kana": "カナガワケン",
    "prefecture_code": 14,
    "city": "横浜市南区",
    "city_kana": "ヨコハマシミナミク",
    "town": "蒔田町",
    "town_kana": "マイタチョウ",
    "street": null,
    "office_name": null,
    "office_name_kana": null
  },
  "0044": {
    "postcode": "2320044",
    "prefecture": "神奈川県",
    "prefecture_kana": "カナガワケン",
    "prefecture_code": 14,
    "city": "横浜市南区",
    "city_kana": "ヨコハマシミナミク",
    "town": "榎町",
    "town_kana": "エノキチョウ",
    "street": null,
    "office_name": null,
    "office_name_kana": null
  },
  "0045": {
    "postcode": "2320045",
    "prefecture": "神奈川県",
    "prefecture_kana": "カナガワケン",
    "prefecture_code": 14,
    "city": "横浜市南区",
    "city_kana": "ヨコハマシミナミク",
    "town": "東蒔田町",
    "town_kana": "ヒガシマイタマチ",
    "street": null,
    "office_name": null,
    "office_name_kana": null
  },
  "0051": {
    "postcode": "2320051",
    "prefecture": "神奈川県",
    "prefecture_kana": "カナガワケン",
    "prefecture_code": 14,
    "city": "横浜市南区",
    "city_kana": "ヨコハマシミナミク",
    "town": "井土ケ谷上町",
    "town_kana": "イドガヤカミマチ",
    "street": null,
    "office_name": null,
    "office_name_kana": null
  },
  "0052": {
    "postcode": "2320052",
    "prefecture": "神奈川県",
    "prefecture_kana": "カナガワケン",
    "prefecture_code": 14,
    "city": "横浜市南区",
    "city_kana": "ヨコハマシミナミク",
    "town": "井土ケ谷中町",
    "town_kana": "イドガヤナカマチ",
    "street": null,
    "office_name": null,
    "office_name_kana": null
  },
  "0053": {
    "postcode": "2320053",
    "prefecture": "神奈川県",
    "prefecture_kana": "カナガワケン",
    "prefecture_code": 14,
    "city": "横浜市南区",
    "city_kana": "ヨコハマシミナミク",
    "town": "井土ケ谷下町",
    "town_kana": "イドガヤシモマチ",
    "street": null,
    "office_name": null,
    "office_name_kana": null
  },
  "0054": {
    "postcode": "2320054",
    "prefecture": "神奈川県",
    "prefecture_kana": "カナガワケン",
    "prefecture_code": 14,
    "city": "横浜市南区",
    "city_kana": "ヨコハマシミナミク",
    "town": "大橋町",
    "town_kana": "オオハシチョウ",
    "street": null,
    "office_name": null,
    "office_name_kana": null
  },
  "0055": {
    "postcode": "2320055",
    "prefecture": "神奈川県",
    "prefecture_kana": "カナガワケン",
    "prefecture_code": 14,
    "city": "横浜市南区",
    "city_kana": "ヨコハマシミナミク",
    "town": "中島町",
    "town_kana": "ナカジマチョウ",
    "street": null,
    "office_name": null,
    "office_name_kana": null
  },
  "0056": {
    "postcode": "2320056",
    "prefecture": "神奈川県",
    "prefecture_kana": "カナガワケン",
    "prefecture_code": 14,
    "city": "横浜市南区",
    "city_kana": "ヨコハマシミナミク",
    "town": "通町",
    "town_kana": "トオリチョウ",
    "street": null,
    "office_name": null,
    "office_name_kana": null
  },
  "0057": {
    "postcode": "2320057",
    "prefecture": "神奈川県",
    "prefecture_kana": "カナガワケン",
    "prefecture_code": 14,
    "city": "横浜市南区",
    "city_kana": "ヨコハマシミナミク",
    "town": "若宮町",
    "town_kana": "ワカミヤチョウ",
    "street": null,
    "office_name": null,
    "office_name_kana": null
  },
  "0061": {
    "postcode": "2320061",
    "prefecture": "神奈川県",
    "prefecture_kana": "カナガワケン",
    "prefecture_code": 14,
    "city": "横浜市南区",
    "city_kana": "ヨコハマシミナミク",
    "town": "大岡",
    "town_kana": "オオオカ",
    "street": null,
    "office_name": null,
    "office_name_kana": null
  },
  "0062": {
    "postcode": "2320062",
    "prefecture": "神奈川県",
    "prefecture_kana": "カナガワケン",
    "prefecture_code": 14,
    "city": "横浜市南区",
    "city_kana": "ヨコハマシミナミク",
    "town": "中里町",
    "town_kana": "ナカザトチョウ",
    "street": null,
    "office_name": null,
    "office_name_kana": null
  },
  "0063": {
    "postcode": "2320063",
    "prefecture": "神奈川県",
    "prefecture_kana": "カナガワケン",
    "prefecture_code": 14,
    "city": "横浜市南区",
    "city_kana": "ヨコハマシミナミク",
    "town": "中里",
    "town_kana": "ナカザト",
    "street": null,
    "office_name": null,
    "office_name_kana": null
  },
  "0064": {
    "postcode": "2320064",
    "prefecture": "神奈川県",
    "prefecture_kana": "カナガワケン",
    "prefecture_code": 14,
    "city": "横浜市南区",
    "city_kana": "ヨコハマシミナミク",
    "town": "別所",
    "town_kana": "ベッショ",
    "street": null,
    "office_name": null,
    "office_name_kana": null
  },
  "0065": {
    "postcode": "2320065",
    "prefecture": "神奈川県",
    "prefecture_kana": "カナガワケン",
    "prefecture_code": 14,
    "city": "横浜市南区",
    "city_kana": "ヨコハマシミナミク",
    "town": "別所中里台",
    "town_kana": "ベッショナカザトダイ",
    "street": null,
    "office_name": null,
    "office_name_kana": null
  },
  "0066": {
    "postcode": "2320066",
    "prefecture": "神奈川県",
    "prefecture_kana": "カナガワケン",
    "prefecture_code": 14,
    "city": "横浜市南区",
    "city_kana": "ヨコハマシミナミク",
    "town": "六ツ川",
    "town_kana": "ムツカワ",
    "street": null,
    "office_name": null,
    "office_name_kana": null
  },
  "0067": {
    "postcode": "2320067",
    "prefecture": "神奈川県",
    "prefecture_kana": "カナガワケン",
    "prefecture_code": 14,
    "city": "横浜市南区",
    "city_kana": "ヨコハマシミナミク",
    "town": "弘明寺町",
    "town_kana": "グミョウジチョウ",
    "street": null,
    "office_name": null,
    "office_name_kana": null
  },
  "0071": {
    "postcode": "2320071",
    "prefecture": "神奈川県",
    "prefecture_kana": "カナガワケン",
    "prefecture_code": 14,
    "city": "横浜市南区",
    "city_kana": "ヨコハマシミナミク",
    "town": "永田北",
    "town_kana": "ナガタキタ",
    "street": null,
    "office_name": null,
    "office_name_kana": null
  },
  "0072": {
    "postcode": "2320072",
    "prefecture": "神奈川県",
    "prefecture_kana": "カナガワケン",
    "prefecture_code": 14,
    "city": "横浜市南区",
    "city_kana": "ヨコハマシミナミク",
    "town": "永田東",
    "town_kana": "ナガタヒガシ",
    "street": null,
    "office_name": null,
    "office_name_kana": null
  },
  "0073": {
    "postcode": "2320073",
    "prefecture": "神奈川県",
    "prefecture_kana": "カナガワケン",
    "prefecture_code": 14,
    "city": "横浜市南区",
    "city_kana": "ヨコハマシミナミク",
    "town": "永田南",
    "town_kana": "ナガタミナミ",
    "street": null,
    "office_name": null,
    "office_name_kana": null
  },
  "0074": {
    "postcode": "2320074",
    "prefecture": "神奈川県",
    "prefecture_kana": "カナガワケン",
    "prefecture_code": 14,
    "city": "横浜市南区",
    "city_kana": "ヨコハマシミナミク",
    "town": "永田山王台",
    "town_kana": "ナガタサンノウダイ",
    "street": null,
    "office_name": null,
    "office_name_kana": null
  },
  "0075": {
    "postcode": "2320075",
    "prefecture": "神奈川県",
    "prefecture_kana": "カナガワケン",
    "prefecture_code": 14,
    "city": "横浜市南区",
    "city_kana": "ヨコハマシミナミク",
    "town": "永田みなみ台",
    "town_kana": "ナガタミナミダイ",
    "street": null,
    "office_name": null,
    "office_name_kana": null
  },
  "0076": {
    "postcode": "2320076",
    "prefecture": "神奈川県",
    "prefecture_kana": "カナガワケン",
    "prefecture_code": 14,
    "city": "横浜市南区",
    "city_kana": "ヨコハマシミナミク",
    "town": "永田台",
    "town_kana": "ナガタダイ",
    "street": null,
    "office_name": null,
    "office_name_kana": null
  },
  "8510": {
    "postcode": "2328510",
    "prefecture": "神奈川県",
    "prefecture_kana": "カナガワケン",
    "prefecture_code": 14,
    "city": "横浜市南区",
    "city_kana": "ヨコハマシミナミク",
    "town": "大岡",
    "town_kana": "オオオカ",
    "street": "２−３１−１",
    "office_name": "放送大学神奈川学習センター",
    "office_name_kana": "ホウソウダイガクカナガワガクシユウセンタ-"
  },
  "8515": {
    "postcode": "2328515",
    "prefecture": "神奈川県",
    "prefecture_kana": "カナガワケン",
    "prefecture_code": 14,
    "city": "横浜市南区",
    "city_kana": "ヨコハマシミナミク",
    "town": "宮元町",
    "town_kana": "ミヤモトチョウ",
    "street": "４丁目８２",
    "office_name": "宗教法人　大山ねずの命神示教会",
    "office_name_kana": "シユウキヨウホウジン オオヤマネズノミコトシンジキヨウカイ"
  },
  "8531": {
    "postcode": "2328531",
    "prefecture": "神奈川県",
    "prefecture_kana": "カナガワケン",
    "prefecture_code": 14,
    "city": "横浜市南区",
    "city_kana": "ヨコハマシミナミク",
    "town": "永田台",
    "town_kana": "ナガタダイ",
    "street": "１−１２",
    "office_name": "株式会社　ノグチ　横浜支店",
    "office_name_kana": "カブシキガイシヤ ノグチ ヨコハマシテン"
  },
  "8555": {
    "postcode": "2328555",
    "prefecture": "神奈川県",
    "prefecture_kana": "カナガワケン",
    "prefecture_code": 14,
    "city": "横浜市南区",
    "city_kana": "ヨコハマシミナミク",
    "town": "六ツ川",
    "town_kana": "ムツカワ",
    "street": "２丁目１３８−４",
    "office_name": "神奈川県立こども医療センター",
    "office_name_kana": "カナガワケンリツコドモイリヨウセンタ-"
  },
  "8558": {
    "postcode": "2328558",
    "prefecture": "神奈川県",
    "prefecture_kana": "カナガワケン",
    "prefecture_code": 14,
    "city": "横浜市南区",
    "city_kana": "ヨコハマシミナミク",
    "town": "花之木町",
    "town_kana": "ハナノキチョウ",
    "street": "２丁目２６",
    "office_name": "馬淵建設　株式会社",
    "office_name_kana": "マブチケンセツ カブシキガイシヤ"
  },
  "8580": {
    "postcode": "2328580",
    "prefecture": "神奈川県",
    "prefecture_kana": "カナガワケン",
    "prefecture_code": 14,
    "city": "横浜市南区",
    "city_kana": "ヨコハマシミナミク",
    "town": "蒔田町",
    "town_kana": "マイタチョウ",
    "street": "１２４",
    "office_name": "学校法人　横浜英和学院",
    "office_name_kana": "ガツコウホウジン ヨコハマエイワガクイン"
  },
  "8585": {
    "postcode": "2328585",
    "prefecture": "神奈川県",
    "prefecture_kana": "カナガワケン",
    "prefecture_code": 14,
    "city": "横浜市南区",
    "city_kana": "ヨコハマシミナミク",
    "town": "宿町",
    "town_kana": "シュクチョウ",
    "street": "２丁目５１",
    "office_name": "横浜南社会保険事務所",
    "office_name_kana": "ヨコハマミナミシヤカイホケンジムシヨ"
  },
  "8587": {
    "postcode": "2328587",
    "prefecture": "神奈川県",
    "prefecture_kana": "カナガワケン",
    "prefecture_code": 14,
    "city": "横浜市南区",
    "city_kana": "ヨコハマシミナミク",
    "town": "唐沢",
    "town_kana": "カラサワ",
    "street": "１５",
    "office_name": "横浜植木　株式会社",
    "office_name_kana": "ヨコハマウエキ カブシキガイシヤ"
  },
  "8602": {
    "postcode": "2328602",
    "prefecture": "神奈川県",
    "prefecture_kana": "カナガワケン",
    "prefecture_code": 14,
    "city": "横浜市南区",
    "city_kana": "ヨコハマシミナミク",
    "town": "弘明寺町",
    "town_kana": "グミョウジチョウ",
    "street": "３１",
    "office_name": "神奈川県自動車税管理事務所",
    "office_name_kana": "カナガワケンジドウシヤゼイカンリジムシヨ"
  },
  "8688": {
    "postcode": "2328688",
    "prefecture": "神奈川県",
    "prefecture_kana": "カナガワケン",
    "prefecture_code": 14,
    "city": "横浜市南区",
    "city_kana": "ヨコハマシミナミク",
    "town": "中里",
    "town_kana": "ナカザト",
    "street": "１丁目１３−１７",
    "office_name": "株式会社　ヤマリア",
    "office_name_kana": "カブシキガイシヤ ヤマリア"
  }
}