{
  "0000": {
    "postcode": "2350000",
    "prefecture": "神奈川県",
    "prefecture_kana": "カナガワケン",
    "prefecture_code": 14,
    "city": "横浜市磯子区",
    "city_kana": "ヨコハマシイソゴク",
    "town": "",
    "town_kana": "",
    "street": null,
    "office_name": null,
    "office_name_kana": null
  },
  "0001": {
    "postcode": "2350001",
    "prefecture": "神奈川県",
    "prefecture_kana": "カナガワケン",
    "prefecture_code": 14,
    "city": "横浜市磯子区",
    "city_kana": "ヨコハマシイソゴク",
    "town": "上町",
    "town_kana": "カミチョウ",
    "street": null,
    "office_name": null,
    "office_name_kana": null
  },
  "0002": {
    "postcode": "2350002",
    "prefecture": "神奈川県",
    "prefecture_kana": "カナガワケン",
    "prefecture_code": 14,
    "city": "横浜市磯子区",
    "city_kana": "ヨコハマシイソゴク",
    "town": "馬場町",
    "town_kana": "ババチョウ",
    "street": null,
    "office_name": null,
    "office_name_kana": null
  },
  "0003": {
    "postcode": "2350003",
    "prefecture": "神奈川県",
    "prefecture_kana": "カナガワケン",
    "prefecture_code": 14,
    "city": "横浜市磯子区",
    "city_kana": "ヨコハマシイソゴク",
    "town": "坂下町",
    "town_kana": "サカシタチョウ",
    "street": null,
    "office_name": null,
    "office_name_kana": null
  },
  "0004": {
    "postcode": "2350004",
    "prefecture": "神奈川県",
    "prefecture_kana": "カナガワケン",
    "prefecture_code": 14,
    "city": "横浜市磯子区",
    "city_kana": "ヨコハマシイソゴク",
    "town": "下町",
    "town_kana": "シモチョウ",
    "street": null,
    "office_name": null,
    "office_name_kana": null
  },
  "0005": {
    "postcode": "2350005",
    "prefecture": "神奈川県",
    "prefecture_kana": "カナガワケン",
    "prefecture_code": 14,
    "city": "横浜市磯子区",
    "city_kana": "ヨコハマシイソゴク",
    "town": "東町",
    "town_kana": "ヒガシチョウ",
    "street": null,
    "office_name": null,
    "office_name_kana": null
  },
  "0006": {
    "postcode": "2350006",
    "prefecture": "神奈川県",
    "prefecture_kana": "カナガワケン",
    "prefecture_code": 14,
    "city": "横浜市磯子区",
    "city_kana": "ヨコハマシイソゴク",
    "town": "鳳町",
    "town_kana": "オオトリチョウ",
    "street": null,
    "office_name": null,
    "office_name_kana": null
  },
  "0007": {
    "postcode": "2350007",
    "prefecture": "神奈川県",
    "prefecture_kana": "カナガワケン",
    "prefecture_code": 14,
    "city": "横浜市磯子区",
    "city_kana": "ヨコハマシイソゴク",
    "town": "西町",
    "town_kana": "ニシチョウ",
    "street": null,
    "office_name": null,
    "office_name_kana": null
  },
  "0008": {
    "postcode": "2350008",
    "prefecture": "神奈川県",
    "prefecture_kana": "カナガワケン",
    "prefecture_code": 14,
    "city": "横浜市磯子区",
    "city_kana": "ヨコハマシイソゴク",
    "town": "原町",
    "town_kana": "ハラマチ",
    "street": null,
    "office_name": null,
    "office_name_kana": null
  },
  "0011": {
    "postcode": "2350011",
    "prefecture": "神奈川県",
    "prefecture_kana": "カナガワケン",
    "prefecture_code": 14,
    "city": "横浜市磯子区",
    "city_kana": "ヨコハマシイソゴク",
    "town": "丸山",
    "town_kana": "マルヤマ",
    "street": null,
    "office_name": null,
    "office_name_kana": null
  },
  "0012": {
    "postcode": "2350012",
    "prefecture": "神奈川県",
    "prefecture_kana": "カナガワケン",
    "prefecture_code": 14,
    "city": "横浜市磯子区",
    "city_kana": "ヨコハマシイソゴク",
    "town": "滝頭",
    "town_kana": "タキガシラ",
    "street": null,
    "office_name": null,
    "office_name_kana": null
  },
  "0013": {
    "postcode": "2350013",
    "prefecture": "神奈川県",
    "prefecture_kana": "カナガワケン",
    "prefecture_code": 14,
    "city": "横浜市磯子区",
    "city_kana": "ヨコハマシイソゴク",
    "town": "広地町",
    "town_kana": "ヒロチチョウ",
    "street": null,
    "office_name": null,
    "office_name_kana": null
  },
  "0014": {
    "postcode": "2350014",
    "prefecture": "神奈川県",
    "prefecture_kana": "カナガワケン",
    "prefecture_code": 14,
    "city": "横浜市磯子区",
    "city_kana": "ヨコハマシイソゴク",
    "town": "中浜町",
    "town_kana": "ナカハマチョウ",
    "street": null,
    "office_name": null,
    "office_name_kana": null
  },
  "0015": {
    "postcode": "2350015",
    "prefecture": "神奈川県",
    "prefecture_kana": "カナガワケン",
    "prefecture_code": 14,
    "city": "横浜市磯子区",
    "city_kana": "ヨコハマシイソゴク",
    "town": "久木町",
    "town_kana": "ヒサキチョウ",
    "street": null,
    "office_name": null,
    "office_name_kana": null
  },
  "0016": {
    "postcode": "2350016",
    "prefecture": "神奈川県",
    "prefecture_kana": "カナガワケン",
    "prefecture_code": 14,
    "city": "横浜市磯子区",
    "city_kana": "ヨコハマシイソゴク",
    "town": "磯子",
    "town_kana": "イソゴ",
    "street": null,
    "office_name": null,
    "office_name_kana": null
  },
  "0017": {
    "postcode": "2350017",
    "prefecture": "神奈川県",
    "prefecture_kana": "カナガワケン",
    "prefecture_code": 14,
    "city": "横浜市磯子区",
    "city_kana": "ヨコハマシイソゴク",
    "town": "新磯子町",
    "town_kana": "シンイソゴチョウ",
    "street": null,
    "office_name": null,
    "office_name_kana": null
  },
  "0018": {
    "postcode": "2350018",
    "prefecture": "神奈川県",
    "prefecture_kana": "カナガワケン",
    "prefecture_code": 14,
    "city": "横浜市磯子区",
    "city_kana": "ヨコハマシイソゴク",
    "town": "新森町",
    "town_kana": "シンモリチョウ",
    "street": null,
    "office_name": null,
    "office_name_kana": null
  },
  "0019": {
    "postcode": "2350019",
    "prefecture": "神奈川県",
    "prefecture_kana": "カナガワケン",
    "prefecture_code": 14,
    "city": "横浜市磯子区",
    "city_kana": "ヨコハマシイソゴク",
    "town": "磯子台",
    "town_kana": "イソゴダイ",
    "street": null,
    "office_name": null,
    "office_name_kana": null
  },
  "0021": {
    "postcode": "2350021",
    "prefecture": "神奈川県",
    "prefecture_kana": "カナガワケン",
    "prefecture_code": 14,
    "city": "横浜市磯子区",
    "city_kana": "ヨコハマシイソゴク",
    "town": "岡村",
    "town_kana": "オカムラ",
    "street": null,
    "office_name": null,
    "office_name_kana": null
  },
  "0022": {
    "postcode": "2350022",
    "prefecture": "神奈川県",
    "prefecture_kana": "カナガワケン",
    "prefecture_code": 14,
    "city": "横浜市磯子区",
    "city_kana": "ヨコハマシイソゴク",
    "town": "汐見台",
    "town_kana": "シオミダイ",
    "street": null,
    "office_name": null,
    "office_name_kana": null
  },
  "0023": {
    "postcode": "2350023",
    "prefecture": "神奈川県",
    "prefecture_kana": "カナガワケン",
    "prefecture_code": 14,
    "city": "横浜市磯子区",
    "city_kana": "ヨコハマシイソゴク",
    "town": "森",
    "town_kana": "モリ",
    "street": null,
    "office_name": null,
    "office_name_kana": null
  },
  "0024": {
    "postcode": "2350024",
    "prefecture": "神奈川県",
    "prefecture_kana": "カナガワケン",
    "prefecture_code": 14,
    "city": "横浜市磯子区",
    "city_kana": "ヨコハマシイソゴク",
    "town": "森が丘",
    "town_kana": "モリガオカ",
    "street": null,
    "office_name": null,
    "office_name_kana": null
  },
  "0031": {
    "postcode": "2350031",
    "prefecture": "神奈川県",
    "prefecture_kana": "カナガワケン",
    "prefecture_code": 14,
    "city": "横浜市磯子区",
    "city_kana": "ヨコハマシイソゴク",
    "town": "新中原町",
    "town_kana": "シンナカハラチョウ",
    "street": null,
    "office_name": null,
    "office_name_kana": null
  },
  "0032": {
    "postcode": "2350032",
    "prefecture": "神奈川県",
    "prefecture_kana": "カナガワケン",
    "prefecture_code": 14,
    "city": "横浜市磯子区",
    "city_kana": "ヨコハマシイソゴク",
    "town": "新杉田町",
    "town_kana": "シンスギタチョウ",
    "street": null,
    "office_name": null,
    "office_name_kana": null
  },
  "0033": {
    "postcode": "2350033",
    "prefecture": "神奈川県",
    "prefecture_kana": "カナガワケン",
    "prefecture_code": 14,
    "city": "横浜市磯子区",
    "city_kana": "ヨコハマシイソゴク",
    "town": "杉田",
    "town_kana": "スギタ",
    "street": null,
    "office_name": null,
    "office_name_kana": null
  },
  "0034": {
    "postcode": "2350034",
    "prefecture": "神奈川県",
    "prefecture_kana": "カナガワケン",
    "prefecture_code": 14,
    "city": "横浜市磯子区",
    "city_kana": "ヨコハマシイソゴク",
    "town": "杉田坪呑",
    "town_kana": "スギタツボノミ",
    "street": null,
    "office_name": null,
    "office_name_kana": null
  },
  "0035": {
    "postcode": "2350035",
    "prefecture": "神奈川県",
    "prefecture_kana": "カナガワケン",
    "prefecture_code": 14,
    "city": "横浜市磯子区",
    "city_kana": "ヨコハマシイソゴク",
    "town": "田中",
    "town_kana": "タナカ",
    "street": null,
    "office_name": null,
    "office_name_kana": null
  },
  "0036": {
    "postcode": "2350036",
    "prefecture": "神奈川県",
    "prefecture_kana": "カナガワケン",
    "prefecture_code": 14,
    "city": "横浜市磯子区",
    "city_kana": "ヨコハマシイソゴク",
    "town": "中原",
    "town_kana": "ナカハラ",
    "street": null,
    "office_name": null,
    "office_name_kana": null
  },
  "0041": {
    "postcode": "2350041",
    "prefecture": "神奈川県",
    "prefecture_kana": "カナガワケン",
    "prefecture_code": 14,
    "city": "横浜市磯子区",
    "city_kana": "ヨコハマシイソゴク",
    "town": "栗木",
    "town_kana": "クリキ",
    "street": null,
    "office_name": null,
    "office_name_kana": null
  },
  "0042": {
    "postcode": "2350042",
    "prefecture": "神奈川県",
    "prefecture_kana": "カナガワケン",
    "prefecture_code": 14,
    "city": "横浜市磯子区",
    "city_kana": "ヨコハマシイソゴク",
    "town": "上中里町",
    "town_kana": "カミナカザトチョウ",
    "street": null,
    "office_name": null,
    "office_name_kana": null
  },
  "0043": {
    "postcode": "2350043",
    "prefecture": "神奈川県",
    "prefecture_kana": "カナガワケン",
    "prefecture_code": 14,
    "city": "横浜市磯子区",
    "city_kana": "ヨコハマシイソゴク",
    "town": "氷取沢町",
    "town_kana": "ヒトリザワチョウ",
    "street": null,
    "office_name": null,
    "office_name_kana": null
  },
  "0044": {
    "postcode": "2350044",
    "prefecture": "神奈川県",
    "prefecture_kana": "カナガワケン",
    "prefecture_code": 14,
    "city": "横浜市磯子区",
    "city_kana": "ヨコハマシイソゴク",
    "town": "峰町",
    "town_kana": "ミネチョウ",
    "street": null,
    "office_name": null,
    "office_name_kana": null
  },
  "0045": {
    "postcode": "2350045",
    "prefecture": "神奈川県",
    "prefecture_kana": "カナガワケン",
    "prefecture_code": 14,
    "city": "横浜市磯子区",
    "city_kana": "ヨコハマシイソゴク",
    "town": "洋光台",
    "town_kana": "ヨウコウダイ",
    "street": null,
    "office_name": null,
    "office_name_kana": null
  },
  "8501": {
    "postcode": "2358501",
    "prefecture": "神奈川県",
    "prefecture_kana": "カナガワケン",
    "prefecture_code": 14,
    "city": "横浜市磯子区",
    "city_kana": "ヨコハマシイソゴク",
    "town": "新中原町",
    "town_kana": "シンナカハラチョウ",
    "street": "１番地",
    "office_name": "株式会社　ＩＨＩ　横浜事業所",
    "office_name_kana": "カブシキカイシヤ アイエイチアイ ヨコハマジギヨウシヨ"
  },
  "8505": {
    "postcode": "2358505",
    "prefecture": "神奈川県",
    "prefecture_kana": "カナガワケン",
    "prefecture_code": 14,
    "city": "横浜市磯子区",
    "city_kana": "ヨコハマシイソゴク",
    "town": "新磯子町",
    "town_kana": "シンイソゴチョウ",
    "street": "１",
    "office_name": "ＪＦＥ鋼材　株式会社　横浜事業所",
    "office_name_kana": "ジエイエフイ-コウザイ カブシキガイシヤ ヨコハマジギヨウシヨ"
  },
  "8522": {
    "postcode": "2358522",
    "prefecture": "神奈川県",
    "prefecture_kana": "カナガワケン",
    "prefecture_code": 14,
    "city": "横浜市磯子区",
    "city_kana": "ヨコハマシイソゴク",
    "town": "新杉田町",
    "town_kana": "シンスギタチョウ",
    "street": "８",
    "office_name": "株式会社　東芝　横浜事業所",
    "office_name_kana": "カブシキガイシヤ トウシバ ヨコハマジギヨウシヨ"
  },
  "8523": {
    "postcode": "2358523",
    "prefecture": "神奈川県",
    "prefecture_kana": "カナガワケン",
    "prefecture_code": 14,
    "city": "横浜市磯子区",
    "city_kana": "ヨコハマシイソゴク",
    "town": "新杉田町",
    "town_kana": "シンスギタチョウ",
    "street": "８",
    "office_name": "東芝エネルギーシステムズ　株式会社　磯子エンジニアリングセンター",
    "office_name_kana": "トウシバエネルギ-システムズ カブシキガイシヤ イソゴエンジニアリングセンタ-"
  },
  "8558": {
    "postcode": "2358558",
    "prefecture": "神奈川県",
    "prefecture_kana": "カナガワケン",
    "prefecture_code": 14,
    "city": "横浜市磯子区",
    "city_kana": "ヨコハマシイソゴク",
    "town": "新森町",
    "town_kana": "シンモリチョウ",
    "street": "１",
    "office_name": "日清オイリオグループ　株式会社　横浜磯子事業場",
    "office_name_kana": "ニツシンオイリオグル-プ カブシキガイシヤ ヨコハマイソゴジギヨウジヨウ"
  }
}