{
  "0000": {
    "postcode": "2400000",
    "prefecture": "神奈川県",
    "prefecture_kana": "カナガワケン",
    "prefecture_code": 14,
    "city": "横浜市保土ケ谷区",
    "city_kana": "ヨコハマシホドガヤク",
    "town": "",
    "town_kana": "",
    "street": null,
    "office_name": null,
    "office_name_kana": null
  },
  "0001": {
    "postcode": "2400001",
    "prefecture": "神奈川県",
    "prefecture_kana": "カナガワケン",
    "prefecture_code": 14,
    "city": "横浜市保土ケ谷区",
    "city_kana": "ヨコハマシホドガヤク",
    "town": "川辺町",
    "town_kana": "カワベチョウ",
    "street": null,
    "office_name": null,
    "office_name_kana": null
  },
  "0002": {
    "postcode": "2400002",
    "prefecture": "神奈川県",
    "prefecture_kana": "カナガワケン",
    "prefecture_code": 14,
    "city": "横浜市保土ケ谷区",
    "city_kana": "ヨコハマシホドガヤク",
    "town": "宮田町",
    "town_kana": "ミヤタチョウ",
    "street": null,
    "office_name": null,
    "office_name_kana": null
  },
  "0003": {
    "postcode": "2400003",
    "prefecture": "神奈川県",
    "prefecture_kana": "カナガワケン",
    "prefecture_code": 14,
    "city": "横浜市保土ケ谷区",
    "city_kana": "ヨコハマシホドガヤク",
    "town": "天王町",
    "town_kana": "テンノウチョウ",
    "street": null,
    "office_name": null,
    "office_name_kana": null
  },
  "0004": {
    "postcode": "2400004",
    "prefecture": "神奈川県",
    "prefecture_kana": "カナガワケン",
    "prefecture_code": 14,
    "city": "横浜市保土ケ谷区",
    "city_kana": "ヨコハマシホドガヤク",
    "town": "岩間町",
    "town_kana": "イワマチョウ",
    "street": null,
    "office_name": null,
    "office_name_kana": null
  },
  "0005": {
    "postcode": "2400005",
    "prefecture": "神奈川県",
    "prefecture_kana": "カナガワケン",
    "prefecture_code": 14,
    "city": "横浜市保土ケ谷区",
    "city_kana": "ヨコハマシホドガヤク",
    "town": "神戸町",
    "town_kana": "ゴウドチョウ",
    "street": null,
    "office_name": null,
    "office_name_kana": null
  },
  "0006": {
    "postcode": "2400006",
    "prefecture": "神奈川県",
    "prefecture_kana": "カナガワケン",
    "prefecture_code": 14,
    "city": "横浜市保土ケ谷区",
    "city_kana": "ヨコハマシホドガヤク",
    "town": "星川",
    "town_kana": "ホシカワ",
    "street": null,
    "office_name": null,
    "office_name_kana": null
  },
  "0007": {
    "postcode": "2400007",
    "prefecture": "神奈川県",
    "prefecture_kana": "カナガワケン",
    "prefecture_code": 14,
    "city": "横浜市保土ケ谷区",
    "city_kana": "ヨコハマシホドガヤク",
    "town": "明神台",
    "town_kana": "ミョウジンダイ",
    "street": null,
    "office_name": null,
    "office_name_kana": null
  },
  "0011": {
    "postcode": "2400011",
    "prefecture": "神奈川県",
    "prefecture_kana": "カナガワケン",
    "prefecture_code": 14,
    "city": "横浜市保土ケ谷区",
    "city_kana": "ヨコハマシホドガヤク",
    "town": "桜ケ丘",
    "town_kana": "サクラガオカ",
    "street": null,
    "office_name": null,
    "office_name_kana": null
  },
  "0012": {
    "postcode": "2400012",
    "prefecture": "神奈川県",
    "prefecture_kana": "カナガワケン",
    "prefecture_code": 14,
    "city": "横浜市保土ケ谷区",
    "city_kana": "ヨコハマシホドガヤク",
    "town": "月見台",
    "town_kana": "ツキミダイ",
    "street": null,
    "office_name": null,
    "office_name_kana": null
  },
  "0013": {
    "postcode": "2400013",
    "prefecture": "神奈川県",
    "prefecture_kana": "カナガワケン",
    "prefecture_code": 14,
    "city": "横浜市保土ケ谷区",
    "city_kana": "ヨコハマシホドガヤク",
    "town": "帷子町",
    "town_kana": "カタビラチョウ",
    "street": null,
    "office_name": null,
    "office_name_kana": null
  },
  "0014": {
    "postcode": "2400014",
    "prefecture": "神奈川県",
    "prefecture_kana": "カナガワケン",
    "prefecture_code": 14,
    "city": "横浜市保土ケ谷区",
    "city_kana": "ヨコハマシホドガヤク",
    "town": "霞台",
    "town_kana": "カスミダイ",
    "street": null,
    "office_name": null,
    "office_name_kana": null
  },
  "0015": {
    "postcode": "2400015",
    "prefecture": "神奈川県",
    "prefecture_kana": "カナガワケン",
    "prefecture_code": 14,
    "city": "横浜市保土ケ谷区",
    "city_kana": "ヨコハマシホドガヤク",
    "town": "岩崎町",
    "town_kana": "イワサキチョウ",
    "street": null,
    "office_name": null,
    "office_name_kana": null
  },
  "0016": {
    "postcode": "2400016",
    "prefecture": "神奈川県",
    "prefecture_kana": "カナガワケン",
    "prefecture_code": 14,
    "city": "横浜市保土ケ谷区",
    "city_kana": "ヨコハマシホドガヤク",
    "town": "初音ケ丘",
    "town_kana": "ハツネガオカ",
    "street": null,
    "office_name": null,
    "office_name_kana": null
  },
  "0017": {
    "postcode": "2400017",
    "prefecture": "神奈川県",
    "prefecture_kana": "カナガワケン",
    "prefecture_code": 14,
    "city": "横浜市保土ケ谷区",
    "city_kana": "ヨコハマシホドガヤク",
    "town": "花見台",
    "town_kana": "ハナミダイ",
    "street": null,
    "office_name": null,
    "office_name_kana": null
  },
  "0021": {
    "postcode": "2400021",
    "prefecture": "神奈川県",
    "prefecture_kana": "カナガワケン",
    "prefecture_code": 14,
    "city": "横浜市保土ケ谷区",
    "city_kana": "ヨコハマシホドガヤク",
    "town": "保土ケ谷町",
    "town_kana": "ホドガヤチョウ",
    "street": null,
    "office_name": null,
    "office_name_kana": null
  },
  "0022": {
    "postcode": "2400022",
    "prefecture": "神奈川県",
    "prefecture_kana": "カナガワケン",
    "prefecture_code": 14,
    "city": "横浜市保土ケ谷区",
    "city_kana": "ヨコハマシホドガヤク",
    "town": "西久保町",
    "town_kana": "ニシクボチョウ",
    "street": null,
    "office_name": null,
    "office_name_kana": null
  },
  "0023": {
    "postcode": "2400023",
    "prefecture": "神奈川県",
    "prefecture_kana": "カナガワケン",
    "prefecture_code": 14,
    "city": "横浜市保土ケ谷区",
    "city_kana": "ヨコハマシホドガヤク",
    "town": "岩井町",
    "town_kana": "イワイチョウ",
    "street": null,
    "office_name": null,
    "office_name_kana": null
  },
  "0024": {
    "postcode": "2400024",
    "prefecture": "神奈川県",
    "prefecture_kana": "カナガワケン",
    "prefecture_code": 14,
    "city": "横浜市保土ケ谷区",
    "city_kana": "ヨコハマシホドガヤク",
    "town": "瀬戸ケ谷町",
    "town_kana": "セトガヤチョウ",
    "street": null,
    "office_name": null,
    "office_name_kana": null
  },
  "0025": {
    "postcode": "2400025",
    "prefecture": "神奈川県",
    "prefecture_kana": "カナガワケン",
    "prefecture_code": 14,
    "city": "横浜市保土ケ谷区",
    "city_kana": "ヨコハマシホドガヤク",
    "town": "狩場町",
    "town_kana": "カリバチョウ",
    "street": null,
    "office_name": null,
    "office_name_kana": null
  },
  "0026": {
    "postcode": "2400026",
    "prefecture": "神奈川県",
    "prefecture_kana": "カナガワケン",
    "prefecture_code": 14,
    "city": "横浜市保土ケ谷区",
    "city_kana": "ヨコハマシホドガヤク",
    "town": "権太坂",
    "town_kana": "ゴンタザカ",
    "street": null,
    "office_name": null,
    "office_name_kana": null
  },
  "0031": {
    "postcode": "2400031",
    "prefecture": "神奈川県",
    "prefecture_kana": "カナガワケン",
    "prefecture_code": 14,
    "city": "横浜市保土ケ谷区",
    "city_kana": "ヨコハマシホドガヤク",
    "town": "藤塚町",
    "town_kana": "フジツカチョウ",
    "street": null,
    "office_name": null,
    "office_name_kana": null
  },
  "0032": {
    "postcode": "2400032",
    "prefecture": "神奈川県",
    "prefecture_kana": "カナガワケン",
    "prefecture_code": 14,
    "city": "横浜市保土ケ谷区",
    "city_kana": "ヨコハマシホドガヤク",
    "town": "法泉",
    "town_kana": "ホウセン",
    "street": null,
    "office_name": null,
    "office_name_kana": null
  },
  "0033": {
    "postcode": "2400033",
    "prefecture": "神奈川県",
    "prefecture_kana": "カナガワケン",
    "prefecture_code": 14,
    "city": "横浜市保土ケ谷区",
    "city_kana": "ヨコハマシホドガヤク",
    "town": "境木本町",
    "town_kana": "サカイギホンチョウ",
    "street": null,
    "office_name": null,
    "office_name_kana": null
  },
  "0034": {
    "postcode": "2400034",
    "prefecture": "神奈川県",
    "prefecture_kana": "カナガワケン",
    "prefecture_code": 14,
    "city": "横浜市保土ケ谷区",
    "city_kana": "ヨコハマシホドガヤク",
    "town": "境木町",
    "town_kana": "サカイギチョウ",
    "street": null,
    "office_name": null,
    "office_name_kana": null
  },
  "0035": {
    "postcode": "2400035",
    "prefecture": "神奈川県",
    "prefecture_kana": "カナガワケン",
    "prefecture_code": 14,
    "city": "横浜市保土ケ谷区",
    "city_kana": "ヨコハマシホドガヤク",
    "town": "今井町",
    "town_kana": "イマイチョウ",
    "street": null,
    "office_name": null,
    "office_name_kana": null
  },
  "0036": {
    "postcode": "2400036",
    "prefecture": "神奈川県",
    "prefecture_kana": "カナガワケン",
    "prefecture_code": 14,
    "city": "横浜市保土ケ谷区",
    "city_kana": "ヨコハマシホドガヤク",
    "town": "新桜ケ丘",
    "town_kana": "シンサクラガオカ",
    "street": null,
    "office_name": null,
    "office_name_kana": null
  },
  "0041": {
    "postcode": "2400041",
    "prefecture": "神奈川県",
    "prefecture_kana": "カナガワケン",
    "prefecture_code": 14,
    "city": "横浜市保土ケ谷区",
    "city_kana": "ヨコハマシホドガヤク",
    "town": "東川島町",
    "town_kana": "ヒガシカワシマチョウ",
    "street": null,
    "office_name": null,
    "office_name_kana": null
  },
  "0042": {
    "postcode": "2400042",
    "prefecture": "神奈川県",
    "prefecture_kana": "カナガワケン",
    "prefecture_code": 14,
    "city": "横浜市保土ケ谷区",
    "city_kana": "ヨコハマシホドガヤク",
    "town": "上星川",
    "town_kana": "カミホシカワ",
    "street": null,
    "office_name": null,
    "office_name_kana": null
  },
  "0043": {
    "postcode": "2400043",
    "prefecture": "神奈川県",
    "prefecture_kana": "カナガワケン",
    "prefecture_code": 14,
    "city": "横浜市保土ケ谷区",
    "city_kana": "ヨコハマシホドガヤク",
    "town": "坂本町",
    "town_kana": "サカモトチョウ",
    "street": null,
    "office_name": null,
    "office_name_kana": null
  },
  "0044": {
    "postcode": "2400044",
    "prefecture": "神奈川県",
    "prefecture_kana": "カナガワケン",
    "prefecture_code": 14,
    "city": "横浜市保土ケ谷区",
    "city_kana": "ヨコハマシホドガヤク",
    "town": "仏向町",
    "town_kana": "ブッコウチョウ",
    "street": null,
    "office_name": null,
    "office_name_kana": null
  },
  "0045": {
    "postcode": "2400045",
    "prefecture": "神奈川県",
    "prefecture_kana": "カナガワケン",
    "prefecture_code": 14,
    "city": "横浜市保土ケ谷区",
    "city_kana": "ヨコハマシホドガヤク",
    "town": "川島町",
    "town_kana": "カワシマチョウ",
    "street": null,
    "office_name": null,
    "office_name_kana": null
  },
  "0046": {
    "postcode": "2400046",
    "prefecture": "神奈川県",
    "prefecture_kana": "カナガワケン",
    "prefecture_code": 14,
    "city": "横浜市保土ケ谷区",
    "city_kana": "ヨコハマシホドガヤク",
    "town": "仏向西",
    "town_kana": "ブッコウニシ",
    "street": null,
    "office_name": null,
    "office_name_kana": null
  },
  "0051": {
    "postcode": "2400051",
    "prefecture": "神奈川県",
    "prefecture_kana": "カナガワケン",
    "prefecture_code": 14,
    "city": "横浜市保土ケ谷区",
    "city_kana": "ヨコハマシホドガヤク",
    "town": "上菅田町",
    "town_kana": "カミスゲダチョウ",
    "street": null,
    "office_name": null,
    "office_name_kana": null
  },
  "0052": {
    "postcode": "2400052",
    "prefecture": "神奈川県",
    "prefecture_kana": "カナガワケン",
    "prefecture_code": 14,
    "city": "横浜市保土ケ谷区",
    "city_kana": "ヨコハマシホドガヤク",
    "town": "西谷町",
    "town_kana": "ニシヤマチ",
    "street": null,
    "office_name": null,
    "office_name_kana": null
  },
  "0053": {
    "postcode": "2400053",
    "prefecture": "神奈川県",
    "prefecture_kana": "カナガワケン",
    "prefecture_code": 14,
    "city": "横浜市保土ケ谷区",
    "city_kana": "ヨコハマシホドガヤク",
    "town": "新井町",
    "town_kana": "アライチョウ",
    "street": null,
    "office_name": null,
    "office_name_kana": null
  },
  "0054": {
    "postcode": "2400054",
    "prefecture": "神奈川県",
    "prefecture_kana": "カナガワケン",
    "prefecture_code": 14,
    "city": "横浜市保土ケ谷区",
    "city_kana": "ヨコハマシホドガヤク",
    "town": "西谷",
    "town_kana": "ニシヤ",
    "street": null,
    "office_name": null,
    "office_name_kana": null
  },
  "0061": {
    "postcode": "2400061",
    "prefecture": "神奈川県",
    "prefecture_kana": "カナガワケン",
    "prefecture_code": 14,
    "city": "横浜市保土ケ谷区",
    "city_kana": "ヨコハマシホドガヤク",
    "town": "峰沢町",
    "town_kana": "ミネザワチョウ",
    "street": null,
    "office_name": null,
    "office_name_kana": null
  },
  "0062": {
    "postcode": "2400062",
    "prefecture": "神奈川県",
    "prefecture_kana": "カナガワケン",
    "prefecture_code": 14,
    "city": "横浜市保土ケ谷区",
    "city_kana": "ヨコハマシホドガヤク",
    "town": "岡沢町",
    "town_kana": "オカザワチョウ",
    "street": null,
    "office_name": null,
    "office_name_kana": null
  },
  "0063": {
    "postcode": "2400063",
    "prefecture": "神奈川県",
    "prefecture_kana": "カナガワケン",
    "prefecture_code": 14,
    "city": "横浜市保土ケ谷区",
    "city_kana": "ヨコハマシホドガヤク",
    "town": "鎌谷町",
    "town_kana": "カマヤチョウ",
    "street": null,
    "office_name": null,
    "office_name_kana": null
  },
  "0064": {
    "postcode": "2400064",
    "prefecture": "神奈川県",
    "prefecture_kana": "カナガワケン",
    "prefecture_code": 14,
    "city": "横浜市保土ケ谷区",
    "city_kana": "ヨコハマシホドガヤク",
    "town": "峰岡町",
    "town_kana": "ミネオカチョウ",
    "street": null,
    "office_name": null,
    "office_name_kana": null
  },
  "0065": {
    "postcode": "2400065",
    "prefecture": "神奈川県",
    "prefecture_kana": "カナガワケン",
    "prefecture_code": 14,
    "city": "横浜市保土ケ谷区",
    "city_kana": "ヨコハマシホドガヤク",
    "town": "和田",
    "town_kana": "ワダ",
    "street": null,
    "office_name": null,
    "office_name_kana": null
  },
  "0066": {
    "postcode": "2400066",
    "prefecture": "神奈川県",
    "prefecture_kana": "カナガワケン",
    "prefecture_code": 14,
    "city": "横浜市保土ケ谷区",
    "city_kana": "ヨコハマシホドガヤク",
    "town": "釜台町",
    "town_kana": "カマダイチョウ",
    "street": null,
    "office_name": null,
    "office_name_kana": null
  },
  "0067": {
    "postcode": "2400067",
    "prefecture": "神奈川県",
    "prefecture_kana": "カナガワケン",
    "prefecture_code": 14,
    "city": "横浜市保土ケ谷区",
    "city_kana": "ヨコハマシホドガヤク",
    "town": "常盤台",
    "town_kana": "トキワダイ",
    "street": null,
    "office_name": null,
    "office_name_kana": null
  },
  "0100": {
    "postcode": "2400100",
    "prefecture": "神奈川県",
    "prefecture_kana": "カナガワケン",
    "prefecture_code": 14,
    "city": "三浦郡葉山町",
    "city_kana": "ミウラグンハヤママチ",
    "town": "",
    "town_kana": "",
    "street": null,
    "office_name": null,
    "office_name_kana": null
  },
  "0101": {
    "postcode": "2400101",
    "prefecture": "神奈川県",
    "prefecture_kana": "カナガワケン",
    "prefecture_code": 14,
    "city": "横須賀市",
    "city_kana": "ヨコスカシ",
    "town": "長坂",
    "town_kana": "ナガサカ",
    "street": null,
    "office_name": null,
    "office_name_kana": null
  },
  "0102": {
    "postcode": "2400102",
    "prefecture": "神奈川県",
    "prefecture_kana": "カナガワケン",
    "prefecture_code": 14,
    "city": "横須賀市",
    "city_kana": "ヨコスカシ",
    "town": "荻野",
    "town_kana": "オギノ",
    "street": null,
    "office_name": null,
    "office_name_kana": null
  },
  "0103": {
    "postcode": "2400103",
    "prefecture": "神奈川県",
    "prefecture_kana": "カナガワケン",
    "prefecture_code": 14,
    "city": "横須賀市",
    "city_kana": "ヨコスカシ",
    "town": "佐島",
    "town_kana": "サジマ",
    "street": null,
    "office_name": null,
    "office_name_kana": null
  },
  "0104": {
    "postcode": "2400104",
    "prefecture": "神奈川県",
    "prefecture_kana": "カナガワケン",
    "prefecture_code": 14,
    "city": "横須賀市",
    "city_kana": "ヨコスカシ",
    "town": "芦名",
    "town_kana": "アシナ",
    "street": null,
    "office_name": null,
    "office_name_kana": null
  },
  "0105": {
    "postcode": "2400105",
    "prefecture": "神奈川県",
    "prefecture_kana": "カナガワケン",
    "prefecture_code": 14,
    "city": "横須賀市",
    "city_kana": "ヨコスカシ",
    "town": "秋谷",
    "town_kana": "アキヤ",
    "street": null,
    "office_name": null,
    "office_name_kana": null
  },
  "0106": {
    "postcode": "2400106",
    "prefecture": "神奈川県",
    "prefecture_kana": "カナガワケン",
    "prefecture_code": 14,
    "city": "横須賀市",
    "city_kana": "ヨコスカシ",
    "town": "子安",
    "town_kana": "コヤス",
    "street": null,
    "office_name": null,
    "office_name_kana": null
  },
  "0107": {
    "postcode": "2400107",
    "prefecture": "神奈川県",
    "prefecture_kana": "カナガワケン",
    "prefecture_code": 14,
    "city": "横須賀市",
    "city_kana": "ヨコスカシ",
    "town": "湘南国際村",
    "town_kana": "ショウナンコクサイムラ",
    "street": null,
    "office_name": null,
    "office_name_kana": null
  },
  "0108": {
    "postcode": "2400108",
    "prefecture": "神奈川県",
    "prefecture_kana": "カナガワケン",
    "prefecture_code": 14,
    "city": "横須賀市",
    "city_kana": "ヨコスカシ",
    "town": "佐島の丘",
    "town_kana": "サジマノオカ",
    "street": null,
    "office_name": null,
    "office_name_kana": null
  },
  "0111": {
    "postcode": "2400111",
    "prefecture": "神奈川県",
    "prefecture_kana": "カナガワケン",
    "prefecture_code": 14,
    "city": "三浦郡葉山町",
    "city_kana": "ミウラグンハヤママチ",
    "town": "一色",
    "town_kana": "イッシキ",
    "street": null,
    "office_name": null,
    "office_name_kana": null
  },
  "0112": {
    "postcode": "2400112",
    "prefecture": "神奈川県",
    "prefecture_kana": "カナガワケン",
    "prefecture_code": 14,
    "city": "三浦郡葉山町",
    "city_kana": "ミウラグンハヤママチ",
    "town": "堀内",
    "town_kana": "ホリウチ",
    "street": null,
    "office_name": null,
    "office_name_kana": null
  },
  "0113": {
    "postcode": "2400113",
    "prefecture": "神奈川県",
    "prefecture_kana": "カナガワケン",
    "prefecture_code": 14,
    "city": "三浦郡葉山町",
    "city_kana": "ミウラグンハヤママチ",
    "town": "長柄",
    "town_kana": "ナガエ",
    "street": null,
    "office_name": null,
    "office_name_kana": null
  },
  "0114": {
    "postcode": "2400114",
    "prefecture": "神奈川県",
    "prefecture_kana": "カナガワケン",
    "prefecture_code": 14,
    "city": "三浦郡葉山町",
    "city_kana": "ミウラグンハヤママチ",
    "town": "木古庭",
    "town_kana": "キコバ",
    "street": null,
    "office_name": null,
    "office_name_kana": null
  },
  "0115": {
    "postcode": "2400115",
    "prefecture": "神奈川県",
    "prefecture_kana": "カナガワケン",
    "prefecture_code": 14,
    "city": "三浦郡葉山町",
    "city_kana": "ミウラグンハヤママチ",
    "town": "上山口",
    "town_kana": "カミヤマグチ",
    "street": null,
    "office_name": null,
    "office_name_kana": null
  },
  "0116": {
    "postcode": "2400116",
    "prefecture": "神奈川県",
    "prefecture_kana": "カナガワケン",
    "prefecture_code": 14,
    "city": "三浦郡葉山町",
    "city_kana": "ミウラグンハヤママチ",
    "town": "下山口",
    "town_kana": "シモヤマグチ",
    "street": null,
    "office_name": null,
    "office_name_kana": null
  },
  "0192": {
    "postcode": "2400192",
    "prefecture": "神奈川県",
    "prefecture_kana": "カナガワケン",
    "prefecture_code": 14,
    "city": "三浦郡葉山町",
    "city_kana": "ミウラグンハヤママチ",
    "town": "堀内",
    "town_kana": "ホリウチ",
    "street": "２１３５",
    "office_name": "葉山町役場",
    "office_name_kana": "ハヤママチヤクバ"
  },
  "0193": {
    "postcode": "2400193",
    "prefecture": "神奈川県",
    "prefecture_kana": "カナガワケン",
    "prefecture_code": 14,
    "city": "三浦郡葉山町",
    "city_kana": "ミウラグンハヤママチ",
    "town": "上山口",
    "town_kana": "カミヤマグチ",
    "street": "１５６０−３５",
    "office_name": "総合研究大学院大学",
    "office_name_kana": "ソウゴウケンキユウダイガクインダイガク"
  },
  "0195": {
    "postcode": "2400195",
    "prefecture": "神奈川県",
    "prefecture_kana": "カナガワケン",
    "prefecture_code": 14,
    "city": "横須賀市",
    "city_kana": "ヨコスカシ",
    "town": "長坂",
    "town_kana": "ナガサカ",
    "street": "１丁目３−２",
    "office_name": "横須賀市立　市民病院",
    "office_name_kana": "ヨコスカシリツ シミンビヨウイン"
  },
  "0196": {
    "postcode": "2400196",
    "prefecture": "神奈川県",
    "prefecture_kana": "カナガワケン",
    "prefecture_code": 14,
    "city": "横須賀市",
    "city_kana": "ヨコスカシ",
    "town": "長坂",
    "town_kana": "ナガサカ",
    "street": "２丁目６−１",
    "office_name": "財団法人　電力中央研究所　横須賀研究所",
    "office_name_kana": "ザイダンホウジン デンリヨクチユウオウケンキユウジヨ ヨコスカケンキユウジヨ"
  },
  "0197": {
    "postcode": "2400197",
    "prefecture": "神奈川県",
    "prefecture_kana": "カナガワケン",
    "prefecture_code": 14,
    "city": "三浦郡葉山町",
    "city_kana": "ミウラグンハヤママチ",
    "town": "上山口",
    "town_kana": "カミヤマグチ",
    "street": "１５６０−４４",
    "office_name": "社会福祉法人　全国社会福祉協議会　中央福祉学院",
    "office_name_kana": "シヤカイフクシホウジン ゼンコクシヤカイフクシキヨウギカイ チユウオウフクシガクイン"
  },
  "0198": {
    "postcode": "2400198",
    "prefecture": "神奈川県",
    "prefecture_kana": "カナガワケン",
    "prefecture_code": 14,
    "city": "三浦郡葉山町",
    "city_kana": "ミウラグンハヤママチ",
    "town": "上山口",
    "town_kana": "カミヤマグチ",
    "street": "１５６０−３９",
    "office_name": "株式会社　湘南国際村協会",
    "office_name_kana": "カブシキガイシヤ シヨウナンコクサイムラキヨウカイ"
  },
  "8501": {
    "postcode": "2408501",
    "prefecture": "神奈川県",
    "prefecture_kana": "カナガワケン",
    "prefecture_code": 14,
    "city": "横浜市保土ケ谷区",
    "city_kana": "ヨコハマシホドガヤク",
    "town": "常盤台",
    "town_kana": "トキワダイ",
    "street": "７９−１",
    "office_name": "横浜国立大学",
    "office_name_kana": "ヨコハマコクリツダイガク"
  },
  "8521": {
    "postcode": "2408521",
    "prefecture": "神奈川県",
    "prefecture_kana": "カナガワケン",
    "prefecture_code": 14,
    "city": "横浜市保土ケ谷区",
    "city_kana": "ヨコハマシホドガヤク",
    "town": "岩井町",
    "town_kana": "イワイチョウ",
    "street": "２１５",
    "office_name": "聖隷横浜病院",
    "office_name_kana": "セイレイヨコハマビヨウイン"
  },
  "8540": {
    "postcode": "2408540",
    "prefecture": "神奈川県",
    "prefecture_kana": "カナガワケン",
    "prefecture_code": 14,
    "city": "横浜市保土ケ谷区",
    "city_kana": "ヨコハマシホドガヤク",
    "town": "川辺町",
    "town_kana": "カワベチョウ",
    "street": "２−１０",
    "office_name": "ＮＴＴ横浜情報サービスセンター",
    "office_name_kana": "エヌテイ-テイ-ヨコハマジヨウホウサ-ビスセンタ-"
  },
  "8550": {
    "postcode": "2408550",
    "prefecture": "神奈川県",
    "prefecture_kana": "カナガワケン",
    "prefecture_code": 14,
    "city": "横浜市保土ケ谷区",
    "city_kana": "ヨコハマシホドガヤク",
    "town": "帷子町",
    "town_kana": "カタビラチョウ",
    "street": "２丁目６４",
    "office_name": "保土ケ谷税務署",
    "office_name_kana": "ホドガヤゼイムシヨ"
  },
  "8612": {
    "postcode": "2408612",
    "prefecture": "神奈川県",
    "prefecture_kana": "カナガワケン",
    "prefecture_code": 14,
    "city": "横浜市保土ケ谷区",
    "city_kana": "ヨコハマシホドガヤク",
    "town": "岩井町",
    "town_kana": "イワイチョウ",
    "street": "１−７−４Ｆ",
    "office_name": "横浜西労働基準監督署",
    "office_name_kana": "ヨコハマニシロウドウキジユンカントクシヨ"
  }
}