{
  "0000": {
    "postcode": "2440000",
    "prefecture": "神奈川県",
    "prefecture_kana": "カナガワケン",
    "prefecture_code": 14,
    "city": "横浜市戸塚区",
    "city_kana": "ヨコハマシトツカク",
    "town": "",
    "town_kana": "",
    "street": null,
    "office_name": null,
    "office_name_kana": null
  },
  "0001": {
    "postcode": "2440001",
    "prefecture": "神奈川県",
    "prefecture_kana": "カナガワケン",
    "prefecture_code": 14,
    "city": "横浜市戸塚区",
    "city_kana": "ヨコハマシトツカク",
    "town": "鳥が丘",
    "town_kana": "トリガオカ",
    "street": null,
    "office_name": null,
    "office_name_kana": null
  },
  "0002": {
    "postcode": "2440002",
    "prefecture": "神奈川県",
    "prefecture_kana": "カナガワケン",
    "prefecture_code": 14,
    "city": "横浜市戸塚区",
    "city_kana": "ヨコハマシトツカク",
    "town": "矢部町",
    "town_kana": "ヤベチョウ",
    "street": null,
    "office_name": null,
    "office_name_kana": null
  },
  "0003": {
    "postcode": "2440003",
    "prefecture": "神奈川県",
    "prefecture_kana": "カナガワケン",
    "prefecture_code": 14,
    "city": "横浜市戸塚区",
    "city_kana": "ヨコハマシトツカク",
    "town": "戸塚町",
    "town_kana": "トツカチョウ",
    "street": null,
    "office_name": null,
    "office_name_kana": null
  },
  "0004": {
    "postcode": "2440004",
    "prefecture": "神奈川県",
    "prefecture_kana": "カナガワケン",
    "prefecture_code": 14,
    "city": "横浜市戸塚区",
    "city_kana": "ヨコハマシトツカク",
    "town": "小雀町",
    "town_kana": "コスズメチョウ",
    "street": null,
    "office_name": null,
    "office_name_kana": null
  },
  "0801": {
    "postcode": "2440801",
    "prefecture": "神奈川県",
    "prefecture_kana": "カナガワケン",
    "prefecture_code": 14,
    "city": "横浜市戸塚区",
    "city_kana": "ヨコハマシトツカク",
    "town": "品濃町",
    "town_kana": "シナノチョウ",
    "street": null,
    "office_name": null,
    "office_name_kana": null
  },
  "0802": {
    "postcode": "2440802",
    "prefecture": "神奈川県",
    "prefecture_kana": "カナガワケン",
    "prefecture_code": 14,
    "city": "横浜市戸塚区",
    "city_kana": "ヨコハマシトツカク",
    "town": "平戸",
    "town_kana": "ヒラド",
    "street": null,
    "office_name": null,
    "office_name_kana": null
  },
  "0803": {
    "postcode": "2440803",
    "prefecture": "神奈川県",
    "prefecture_kana": "カナガワケン",
    "prefecture_code": 14,
    "city": "横浜市戸塚区",
    "city_kana": "ヨコハマシトツカク",
    "town": "平戸町",
    "town_kana": "ヒラドチョウ",
    "street": null,
    "office_name": null,
    "office_name_kana": null
  },
  "0804": {
    "postcode": "2440804",
    "prefecture": "神奈川県",
    "prefecture_kana": "カナガワケン",
    "prefecture_code": 14,
    "city": "横浜市戸塚区",
    "city_kana": "ヨコハマシトツカク",
    "town": "前田町",
    "town_kana": "マエダチョウ",
    "street": null,
    "office_name": null,
    "office_name_kana": null
  },
  "0805": {
    "postcode": "2440805",
    "prefecture": "神奈川県",
    "prefecture_kana": "カナガワケン",
    "prefecture_code": 14,
    "city": "横浜市戸塚区",
    "city_kana": "ヨコハマシトツカク",
    "town": "川上町",
    "town_kana": "カワカミチョウ",
    "street": null,
    "office_name": null,
    "office_name_kana": null
  },
  "0806": {
    "postcode": "2440806",
    "prefecture": "神奈川県",
    "prefecture_kana": "カナガワケン",
    "prefecture_code": 14,
    "city": "横浜市戸塚区",
    "city_kana": "ヨコハマシトツカク",
    "town": "上品濃",
    "town_kana": "カミシナノ",
    "street": null,
    "office_name": null,
    "office_name_kana": null
  },
  "0811": {
    "postcode": "2440811",
    "prefecture": "神奈川県",
    "prefecture_kana": "カナガワケン",
    "prefecture_code": 14,
    "city": "横浜市戸塚区",
    "city_kana": "ヨコハマシトツカク",
    "town": "上柏尾町",
    "town_kana": "カミカシオチョウ",
    "street": null,
    "office_name": null,
    "office_name_kana": null
  },
  "0812": {
    "postcode": "2440812",
    "prefecture": "神奈川県",
    "prefecture_kana": "カナガワケン",
    "prefecture_code": 14,
    "city": "横浜市戸塚区",
    "city_kana": "ヨコハマシトツカク",
    "town": "柏尾町",
    "town_kana": "カシオチョウ",
    "street": null,
    "office_name": null,
    "office_name_kana": null
  },
  "0813": {
    "postcode": "2440813",
    "prefecture": "神奈川県",
    "prefecture_kana": "カナガワケン",
    "prefecture_code": 14,
    "city": "横浜市戸塚区",
    "city_kana": "ヨコハマシトツカク",
    "town": "舞岡町",
    "town_kana": "マイオカチョウ",
    "street": null,
    "office_name": null,
    "office_name_kana": null
  },
  "0814": {
    "postcode": "2440814",
    "prefecture": "神奈川県",
    "prefecture_kana": "カナガワケン",
    "prefecture_code": 14,
    "city": "横浜市戸塚区",
    "city_kana": "ヨコハマシトツカク",
    "town": "南舞岡",
    "town_kana": "ミナミマイオカ",
    "street": null,
    "office_name": null,
    "office_name_kana": null
  },
  "0815": {
    "postcode": "2440815",
    "prefecture": "神奈川県",
    "prefecture_kana": "カナガワケン",
    "prefecture_code": 14,
    "city": "横浜市戸塚区",
    "city_kana": "ヨコハマシトツカク",
    "town": "下倉田町",
    "town_kana": "シモクラタチョウ",
    "street": null,
    "office_name": null,
    "office_name_kana": null
  },
  "0816": {
    "postcode": "2440816",
    "prefecture": "神奈川県",
    "prefecture_kana": "カナガワケン",
    "prefecture_code": 14,
    "city": "横浜市戸塚区",
    "city_kana": "ヨコハマシトツカク",
    "town": "上倉田町",
    "town_kana": "カミクラタチョウ",
    "street": null,
    "office_name": null,
    "office_name_kana": null
  },
  "0817": {
    "postcode": "2440817",
    "prefecture": "神奈川県",
    "prefecture_kana": "カナガワケン",
    "prefecture_code": 14,
    "city": "横浜市戸塚区",
    "city_kana": "ヨコハマシトツカク",
    "town": "吉田町",
    "town_kana": "ヨシダチョウ",
    "street": null,
    "office_name": null,
    "office_name_kana": null
  },
  "0841": {
    "postcode": "2440841",
    "prefecture": "神奈川県",
    "prefecture_kana": "カナガワケン",
    "prefecture_code": 14,
    "city": "横浜市栄区",
    "city_kana": "ヨコハマシサカエク",
    "town": "長沼町",
    "town_kana": "ナガヌマチョウ",
    "street": null,
    "office_name": null,
    "office_name_kana": null
  },
  "0842": {
    "postcode": "2440842",
    "prefecture": "神奈川県",
    "prefecture_kana": "カナガワケン",
    "prefecture_code": 14,
    "city": "横浜市栄区",
    "city_kana": "ヨコハマシサカエク",
    "town": "飯島町",
    "town_kana": "イイジマチョウ",
    "street": null,
    "office_name": null,
    "office_name_kana": null
  },
  "0843": {
    "postcode": "2440843",
    "prefecture": "神奈川県",
    "prefecture_kana": "カナガワケン",
    "prefecture_code": 14,
    "city": "横浜市栄区",
    "city_kana": "ヨコハマシサカエク",
    "town": "長尾台町",
    "town_kana": "ナガオダイチョウ",
    "street": null,
    "office_name": null,
    "office_name_kana": null
  },
  "0844": {
    "postcode": "2440844",
    "prefecture": "神奈川県",
    "prefecture_kana": "カナガワケン",
    "prefecture_code": 14,
    "city": "横浜市栄区",
    "city_kana": "ヨコハマシサカエク",
    "town": "田谷町",
    "town_kana": "タヤチョウ",
    "street": null,
    "office_name": null,
    "office_name_kana": null
  },
  "0845": {
    "postcode": "2440845",
    "prefecture": "神奈川県",
    "prefecture_kana": "カナガワケン",
    "prefecture_code": 14,
    "city": "横浜市栄区",
    "city_kana": "ヨコハマシサカエク",
    "town": "金井町",
    "town_kana": "カナイチョウ",
    "street": null,
    "office_name": null,
    "office_name_kana": null
  },
  "8501": {
    "postcode": "2448501",
    "prefecture": "神奈川県",
    "prefecture_kana": "カナガワケン",
    "prefecture_code": 14,
    "city": "横浜市栄区",
    "city_kana": "ヨコハマシサカエク",
    "town": "飯島町",
    "town_kana": "イイジマチョウ",
    "street": "２００",
    "office_name": "株式会社　タツノ・メカトロニクス　横浜工場",
    "office_name_kana": "カブシキガイシヤ タツノ・メカトロニクス ヨコハマコウジヨウ"
  },
  "8502": {
    "postcode": "2448502",
    "prefecture": "神奈川県",
    "prefecture_kana": "カナガワケン",
    "prefecture_code": 14,
    "city": "横浜市戸塚区",
    "city_kana": "ヨコハマシトツカク",
    "town": "戸塚町",
    "town_kana": "トツカチョウ",
    "street": "３９３",
    "office_name": "日立ハイブリッドネットワーク　株式会社",
    "office_name_kana": "ヒタチハイブリツドネツトワ-ク カブシキガイシヤ"
  },
  "8503": {
    "postcode": "2448503",
    "prefecture": "神奈川県",
    "prefecture_kana": "カナガワケン",
    "prefecture_code": 14,
    "city": "横浜市戸塚区",
    "city_kana": "ヨコハマシトツカク",
    "town": "品濃町",
    "town_kana": "シナノチョウ",
    "street": "５０３−１０",
    "office_name": "グラフテック　株式会社",
    "office_name_kana": "グラフテツク カブシキガイシヤ"
  },
  "8510": {
    "postcode": "2448510",
    "prefecture": "神奈川県",
    "prefecture_kana": "カナガワケン",
    "prefecture_code": 14,
    "city": "横浜市戸塚区",
    "city_kana": "ヨコハマシトツカク",
    "town": "柏尾町",
    "town_kana": "カシオチョウ",
    "street": "１",
    "office_name": "株式会社　ブリヂストン横浜工場",
    "office_name_kana": "カブシキガイシヤ ブリヂストンヨコハマコウジヨウ"
  },
  "8511": {
    "postcode": "2448511",
    "prefecture": "神奈川県",
    "prefecture_kana": "カナガワケン",
    "prefecture_code": 14,
    "city": "横浜市戸塚区",
    "city_kana": "ヨコハマシトツカク",
    "town": "柏尾町",
    "town_kana": "カシオチョウ",
    "street": "２９４−５",
    "office_name": "ユテクジャパン　株式会社",
    "office_name_kana": "ユテクジヤパン カブシキカイシヤ"
  },
  "8522": {
    "postcode": "2448522",
    "prefecture": "神奈川県",
    "prefecture_kana": "カナガワケン",
    "prefecture_code": 14,
    "city": "横浜市戸塚区",
    "city_kana": "ヨコハマシトツカク",
    "town": "舞岡町",
    "town_kana": "マイオカチョウ",
    "street": "１８４−１",
    "office_name": "株式会社　ニフコ",
    "office_name_kana": "カブシキガイシヤ ニフコ"
  },
  "8528": {
    "postcode": "2448528",
    "prefecture": "神奈川県",
    "prefecture_kana": "カナガワケン",
    "prefecture_code": 14,
    "city": "横浜市戸塚区",
    "city_kana": "ヨコハマシトツカク",
    "town": "品濃町",
    "town_kana": "シナノチョウ",
    "street": "５３５−１",
    "office_name": "ダイエー　東戸塚店",
    "office_name_kana": "ダイエ- ヒガシトツカテン"
  },
  "8530": {
    "postcode": "2448530",
    "prefecture": "神奈川県",
    "prefecture_kana": "カナガワケン",
    "prefecture_code": 14,
    "city": "横浜市戸塚区",
    "city_kana": "ヨコハマシトツカク",
    "town": "品濃町",
    "town_kana": "シナノチョウ",
    "street": "５３７−１",
    "office_name": "株式会社　西武百貨店　東戸塚店",
    "office_name_kana": "カブシキガイシヤ セイブヒヤツカテン ヒガシトツカテン"
  },
  "8533": {
    "postcode": "2448533",
    "prefecture": "神奈川県",
    "prefecture_kana": "カナガワケン",
    "prefecture_code": 14,
    "city": "横浜市栄区",
    "city_kana": "ヨコハマシサカエク",
    "town": "長尾台町",
    "town_kana": "ナガオダイチョウ",
    "street": "４７１",
    "office_name": "株式会社　ニコン　横浜製作所",
    "office_name_kana": "カブシキガイシヤ ニコン ヨコハマセイサクシヨ"
  },
  "8539": {
    "postcode": "2448539",
    "prefecture": "神奈川県",
    "prefecture_kana": "カナガワケン",
    "prefecture_code": 14,
    "city": "横浜市戸塚区",
    "city_kana": "ヨコハマシトツカク",
    "town": "上倉田町",
    "town_kana": "カミクラタチョウ",
    "street": "１５１８",
    "office_name": "明治学院大学　横浜校舎",
    "office_name_kana": "メイジガクインダイガク ヨコハマコウシヤ"
  },
  "8550": {
    "postcode": "2448550",
    "prefecture": "神奈川県",
    "prefecture_kana": "カナガワケン",
    "prefecture_code": 14,
    "city": "横浜市戸塚区",
    "city_kana": "ヨコハマシトツカク",
    "town": "吉田町",
    "town_kana": "ヨシダチョウ",
    "street": "２００１",
    "office_name": "戸塚税務署",
    "office_name_kana": "トツカゼイムシヨ"
  },
  "8555": {
    "postcode": "2448555",
    "prefecture": "神奈川県",
    "prefecture_kana": "カナガワケン",
    "prefecture_code": 14,
    "city": "横浜市戸塚区",
    "city_kana": "ヨコハマシトツカク",
    "town": "戸塚町",
    "town_kana": "トツカチョウ",
    "street": "５０３０",
    "office_name": "（株）　日立製作所ソフトウェア事業部",
    "office_name_kana": "(カブ) ヒタチセイサクシヨソフトウエアジギヨウブ"
  },
  "8558": {
    "postcode": "2448558",
    "prefecture": "神奈川県",
    "prefecture_kana": "カナガワケン",
    "prefecture_code": 14,
    "city": "横浜市戸塚区",
    "city_kana": "ヨコハマシトツカク",
    "town": "戸塚町",
    "town_kana": "トツカチョウ",
    "street": "１５７",
    "office_name": "大洋建設　株式会社",
    "office_name_kana": "タイヨウケンセツ カブシキガイシヤ"
  },
  "8566": {
    "postcode": "2448566",
    "prefecture": "神奈川県",
    "prefecture_kana": "カナガワケン",
    "prefecture_code": 14,
    "city": "横浜市戸塚区",
    "city_kana": "ヨコハマシトツカク",
    "town": "戸塚町",
    "town_kana": "トツカチョウ",
    "street": "４１３０",
    "office_name": "ＪＣＮ神奈川エリア",
    "office_name_kana": "ジエイシ-エヌカナガワエリア"
  },
  "8567": {
    "postcode": "2448567",
    "prefecture": "神奈川県",
    "prefecture_kana": "カナガワケン",
    "prefecture_code": 14,
    "city": "横浜市戸塚区",
    "city_kana": "ヨコハマシトツカク",
    "town": "戸塚町",
    "town_kana": "トツカチョウ",
    "street": "２１６",
    "office_name": "株式会社　日立製作所　通信ネットワーク事業部",
    "office_name_kana": "カブシキカイシヤ ヒタチセイサクシヨ ツウシンネツトワ-クジギヨウブ"
  },
  "8569": {
    "postcode": "2448569",
    "prefecture": "神奈川県",
    "prefecture_kana": "カナガワケン",
    "prefecture_code": 14,
    "city": "横浜市戸塚区",
    "city_kana": "ヨコハマシトツカク",
    "town": "前田町",
    "town_kana": "マエダチョウ",
    "street": "１００番地",
    "office_name": "ＫＩホールディングス　株式会社",
    "office_name_kana": "ケイアイホ-ルデイングス カブシキガイシヤ"
  },
  "8571": {
    "postcode": "2448571",
    "prefecture": "神奈川県",
    "prefecture_kana": "カナガワケン",
    "prefecture_code": 14,
    "city": "横浜市戸塚区",
    "city_kana": "ヨコハマシトツカク",
    "town": "品濃町",
    "town_kana": "シナノチョウ",
    "street": "５０４−２",
    "office_name": "コイト電工　株式会社",
    "office_name_kana": "コイトデンコウ カブシキガイシヤ"
  },
  "8577": {
    "postcode": "2448577",
    "prefecture": "神奈川県",
    "prefecture_kana": "カナガワケン",
    "prefecture_code": 14,
    "city": "横浜市栄区",
    "city_kana": "ヨコハマシサカエク",
    "town": "飯島町",
    "town_kana": "イイジマチョウ",
    "street": "１０９−１",
    "office_name": "株式会社　ファンケル",
    "office_name_kana": "カブシキガイシヤ フアンケル"
  },
  "8585": {
    "postcode": "2448585",
    "prefecture": "神奈川県",
    "prefecture_kana": "カナガワケン",
    "prefecture_code": 14,
    "city": "横浜市戸塚区",
    "city_kana": "ヨコハマシトツカク",
    "town": "品濃町",
    "town_kana": "シナノチョウ",
    "street": "８８１−１６",
    "office_name": "株式会社　有隣堂",
    "office_name_kana": "カブシキガイシヤ ユウリンドウ"
  },
  "8588": {
    "postcode": "2448588",
    "prefecture": "神奈川県",
    "prefecture_kana": "カナガワケン",
    "prefecture_code": 14,
    "city": "横浜市栄区",
    "city_kana": "ヨコハマシサカエク",
    "town": "田谷町",
    "town_kana": "タヤチョウ",
    "street": "１",
    "office_name": "住友電気工業　株式会社　横浜製作所",
    "office_name_kana": "スミトモデンキコウギヨウ カブシキガイシヤ ヨコハマセイサクシヨ"
  },
  "8589": {
    "postcode": "2448589",
    "prefecture": "神奈川県",
    "prefecture_kana": "カナガワケン",
    "prefecture_code": 14,
    "city": "横浜市栄区",
    "city_kana": "ヨコハマシサカエク",
    "town": "田谷町",
    "town_kana": "タヤチョウ",
    "street": "１",
    "office_name": "ＳＥＩオプティフロンティア　株式会社　本社・横浜事業所",
    "office_name_kana": "エスイ-アイオプテイフロンテイア カブシキガイシヤ ホンシヤ・ヨコハマジギヨウシヨ"
  },
  "8601": {
    "postcode": "2448601",
    "prefecture": "神奈川県",
    "prefecture_kana": "カナガワケン",
    "prefecture_code": 14,
    "city": "横浜市戸塚区",
    "city_kana": "ヨコハマシトツカク",
    "town": "戸塚町",
    "town_kana": "トツカチョウ",
    "street": "４１００（戸塚郵便局私書箱第３０号）",
    "office_name": "大和証券　株式会社　戸塚支店",
    "office_name_kana": "ダイワシヨウケン カブシキガイシヤ トツカシテン"
  },
  "8602": {
    "postcode": "2448602",
    "prefecture": "神奈川県",
    "prefecture_kana": "カナガワケン",
    "prefecture_code": 14,
    "city": "横浜市戸塚区",
    "city_kana": "ヨコハマシトツカク",
    "town": "戸塚町",
    "town_kana": "トツカチョウ",
    "street": "２１６",
    "office_name": "中外製薬　株式会社　中外ライフサイエンスパーク横浜",
    "office_name_kana": "チユウガイセイヤク カブシキガイシヤ チユウガイライフサイエンスパ-クヨコハマ"
  }
}