{
  "0000": {
    "postcode": "2460000",
    "prefecture": "神奈川県",
    "prefecture_kana": "カナガワケン",
    "prefecture_code": 14,
    "city": "横浜市瀬谷区",
    "city_kana": "ヨコハマシセヤク",
    "town": "",
    "town_kana": "",
    "street": null,
    "office_name": null,
    "office_name_kana": null
  },
  "0001": {
    "postcode": "2460001",
    "prefecture": "神奈川県",
    "prefecture_kana": "カナガワケン",
    "prefecture_code": 14,
    "city": "横浜市瀬谷区",
    "city_kana": "ヨコハマシセヤク",
    "town": "卸本町",
    "town_kana": "オロシホンチョウ",
    "street": null,
    "office_name": null,
    "office_name_kana": null
  },
  "0002": {
    "postcode": "2460002",
    "prefecture": "神奈川県",
    "prefecture_kana": "カナガワケン",
    "prefecture_code": 14,
    "city": "横浜市瀬谷区",
    "city_kana": "ヨコハマシセヤク",
    "town": "北町",
    "town_kana": "キタマチ",
    "street": null,
    "office_name": null,
    "office_name_kana": null
  },
  "0003": {
    "postcode": "2460003",
    "prefecture": "神奈川県",
    "prefecture_kana": "カナガワケン",
    "prefecture_code": 14,
    "city": "横浜市瀬谷区",
    "city_kana": "ヨコハマシセヤク",
    "town": "瀬谷町",
    "town_kana": "セヤチョウ",
    "street": null,
    "office_name": null,
    "office_name_kana": null
  },
  "0004": {
    "postcode": "2460004",
    "prefecture": "神奈川県",
    "prefecture_kana": "カナガワケン",
    "prefecture_code": 14,
    "city": "横浜市瀬谷区",
    "city_kana": "ヨコハマシセヤク",
    "town": "中屋敷",
    "town_kana": "ナカヤシキ",
    "street": null,
    "office_name": null,
    "office_name_kana": null
  },
  "0005": {
    "postcode": "2460005",
    "prefecture": "神奈川県",
    "prefecture_kana": "カナガワケン",
    "prefecture_code": 14,
    "city": "横浜市瀬谷区",
    "city_kana": "ヨコハマシセヤク",
    "town": "竹村町",
    "town_kana": "タケムラチョウ",
    "street": null,
    "office_name": null,
    "office_name_kana": null
  },
  "0006": {
    "postcode": "2460006",
    "prefecture": "神奈川県",
    "prefecture_kana": "カナガワケン",
    "prefecture_code": 14,
    "city": "横浜市瀬谷区",
    "city_kana": "ヨコハマシセヤク",
    "town": "上瀬谷町",
    "town_kana": "カミセヤチョウ",
    "street": null,
    "office_name": null,
    "office_name_kana": null
  },
  "0007": {
    "postcode": "2460007",
    "prefecture": "神奈川県",
    "prefecture_kana": "カナガワケン",
    "prefecture_code": 14,
    "city": "横浜市瀬谷区",
    "city_kana": "ヨコハマシセヤク",
    "town": "目黒町",
    "town_kana": "メグロチョウ",
    "street": null,
    "office_name": null,
    "office_name_kana": null
  },
  "0008": {
    "postcode": "2460008",
    "prefecture": "神奈川県",
    "prefecture_kana": "カナガワケン",
    "prefecture_code": 14,
    "city": "横浜市瀬谷区",
    "city_kana": "ヨコハマシセヤク",
    "town": "五貫目町",
    "town_kana": "ゴカンメチョウ",
    "street": null,
    "office_name": null,
    "office_name_kana": null
  },
  "0011": {
    "postcode": "2460011",
    "prefecture": "神奈川県",
    "prefecture_kana": "カナガワケン",
    "prefecture_code": 14,
    "city": "横浜市瀬谷区",
    "city_kana": "ヨコハマシセヤク",
    "town": "東野台",
    "town_kana": "アズマノダイ",
    "street": null,
    "office_name": null,
    "office_name_kana": null
  },
  "0012": {
    "postcode": "2460012",
    "prefecture": "神奈川県",
    "prefecture_kana": "カナガワケン",
    "prefecture_code": 14,
    "city": "横浜市瀬谷区",
    "city_kana": "ヨコハマシセヤク",
    "town": "東野",
    "town_kana": "アズマノ",
    "street": null,
    "office_name": null,
    "office_name_kana": null
  },
  "0013": {
    "postcode": "2460013",
    "prefecture": "神奈川県",
    "prefecture_kana": "カナガワケン",
    "prefecture_code": 14,
    "city": "横浜市瀬谷区",
    "city_kana": "ヨコハマシセヤク",
    "town": "相沢",
    "town_kana": "アイザワ",
    "street": null,
    "office_name": null,
    "office_name_kana": null
  },
  "0014": {
    "postcode": "2460014",
    "prefecture": "神奈川県",
    "prefecture_kana": "カナガワケン",
    "prefecture_code": 14,
    "city": "横浜市瀬谷区",
    "city_kana": "ヨコハマシセヤク",
    "town": "中央",
    "town_kana": "チュウオウ",
    "street": null,
    "office_name": null,
    "office_name_kana": null
  },
  "0015": {
    "postcode": "2460015",
    "prefecture": "神奈川県",
    "prefecture_kana": "カナガワケン",
    "prefecture_code": 14,
    "city": "横浜市瀬谷区",
    "city_kana": "ヨコハマシセヤク",
    "town": "本郷",
    "town_kana": "ホンゴウ",
    "street": null,
    "office_name": null,
    "office_name_kana": null
  },
  "0021": {
    "postcode": "2460021",
    "prefecture": "神奈川県",
    "prefecture_kana": "カナガワケン",
    "prefecture_code": 14,
    "city": "横浜市瀬谷区",
    "city_kana": "ヨコハマシセヤク",
    "town": "二ツ橋町",
    "town_kana": "フタツバシチョウ",
    "street": null,
    "office_name": null,
    "office_name_kana": null
  },
  "0022": {
    "postcode": "2460022",
    "prefecture": "神奈川県",
    "prefecture_kana": "カナガワケン",
    "prefecture_code": 14,
    "city": "横浜市瀬谷区",
    "city_kana": "ヨコハマシセヤク",
    "town": "三ツ境",
    "town_kana": "ミツキョウ",
    "street": null,
    "office_name": null,
    "office_name_kana": null
  },
  "0023": {
    "postcode": "2460023",
    "prefecture": "神奈川県",
    "prefecture_kana": "カナガワケン",
    "prefecture_code": 14,
    "city": "横浜市瀬谷区",
    "city_kana": "ヨコハマシセヤク",
    "town": "阿久和東",
    "town_kana": "アクワヒガシ",
    "street": null,
    "office_name": null,
    "office_name_kana": null
  },
  "0025": {
    "postcode": "2460025",
    "prefecture": "神奈川県",
    "prefecture_kana": "カナガワケン",
    "prefecture_code": 14,
    "city": "横浜市瀬谷区",
    "city_kana": "ヨコハマシセヤク",
    "town": "阿久和西",
    "town_kana": "アクワニシ",
    "street": null,
    "office_name": null,
    "office_name_kana": null
  },
  "0026": {
    "postcode": "2460026",
    "prefecture": "神奈川県",
    "prefecture_kana": "カナガワケン",
    "prefecture_code": 14,
    "city": "横浜市瀬谷区",
    "city_kana": "ヨコハマシセヤク",
    "town": "阿久和南",
    "town_kana": "アクワミナミ",
    "street": null,
    "office_name": null,
    "office_name_kana": null
  },
  "0031": {
    "postcode": "2460031",
    "prefecture": "神奈川県",
    "prefecture_kana": "カナガワケン",
    "prefecture_code": 14,
    "city": "横浜市瀬谷区",
    "city_kana": "ヨコハマシセヤク",
    "town": "瀬谷",
    "town_kana": "セヤ",
    "street": null,
    "office_name": null,
    "office_name_kana": null
  },
  "0032": {
    "postcode": "2460032",
    "prefecture": "神奈川県",
    "prefecture_kana": "カナガワケン",
    "prefecture_code": 14,
    "city": "横浜市瀬谷区",
    "city_kana": "ヨコハマシセヤク",
    "town": "南台",
    "town_kana": "ミナミダイ",
    "street": null,
    "office_name": null,
    "office_name_kana": null
  },
  "0034": {
    "postcode": "2460034",
    "prefecture": "神奈川県",
    "prefecture_kana": "カナガワケン",
    "prefecture_code": 14,
    "city": "横浜市瀬谷区",
    "city_kana": "ヨコハマシセヤク",
    "town": "南瀬谷",
    "town_kana": "ミナミセヤ",
    "street": null,
    "office_name": null,
    "office_name_kana": null
  },
  "0035": {
    "postcode": "2460035",
    "prefecture": "神奈川県",
    "prefecture_kana": "カナガワケン",
    "prefecture_code": 14,
    "city": "横浜市瀬谷区",
    "city_kana": "ヨコハマシセヤク",
    "town": "下瀬谷",
    "town_kana": "シモセヤ",
    "street": null,
    "office_name": null,
    "office_name_kana": null
  },
  "0036": {
    "postcode": "2460036",
    "prefecture": "神奈川県",
    "prefecture_kana": "カナガワケン",
    "prefecture_code": 14,
    "city": "横浜市瀬谷区",
    "city_kana": "ヨコハマシセヤク",
    "town": "北新",
    "town_kana": "キタシン",
    "street": null,
    "office_name": null,
    "office_name_kana": null
  },
  "0037": {
    "postcode": "2460037",
    "prefecture": "神奈川県",
    "prefecture_kana": "カナガワケン",
    "prefecture_code": 14,
    "city": "横浜市瀬谷区",
    "city_kana": "ヨコハマシセヤク",
    "town": "橋戸",
    "town_kana": "ハシド",
    "street": null,
    "office_name": null,
    "office_name_kana": null
  },
  "0038": {
    "postcode": "2460038",
    "prefecture": "神奈川県",
    "prefecture_kana": "カナガワケン",
    "prefecture_code": 14,
    "city": "横浜市瀬谷区",
    "city_kana": "ヨコハマシセヤク",
    "town": "宮沢",
    "town_kana": "ミヤザワ",
    "street": null,
    "office_name": null,
    "office_name_kana": null
  },
  "8520": {
    "postcode": "2468520",
    "prefecture": "神奈川県",
    "prefecture_kana": "カナガワケン",
    "prefecture_code": 14,
    "city": "横浜市瀬谷区",
    "city_kana": "ヨコハマシセヤク",
    "town": "橋戸",
    "town_kana": "ハシド",
    "street": "１丁目２２−１２",
    "office_name": "（株）　カナジュウ・コーポレーション",
    "office_name_kana": "(カブ) カナジユウ・コ-ポレ-シヨン"
  },
  "8550": {
    "postcode": "2468550",
    "prefecture": "神奈川県",
    "prefecture_kana": "カナガワケン",
    "prefecture_code": 14,
    "city": "横浜市瀬谷区",
    "city_kana": "ヨコハマシセヤク",
    "town": "北町",
    "town_kana": "キタマチ",
    "street": "２５−９",
    "office_name": "清水建設　株式会社　相模機械センター",
    "office_name_kana": "シミズケンセツ カブシキガイシヤ サガミキカイセンタ-"
  },
  "8556": {
    "postcode": "2468556",
    "prefecture": "神奈川県",
    "prefecture_kana": "カナガワケン",
    "prefecture_code": 14,
    "city": "横浜市瀬谷区",
    "city_kana": "ヨコハマシセヤク",
    "town": "卸本町",
    "town_kana": "オロシホンチョウ",
    "street": "９２７９−６９",
    "office_name": "株式会社　竹虎",
    "office_name_kana": "カブシキガイシヤ タケトラ"
  }
}