{
  "0000": {
    "postcode": "2470000",
    "prefecture": "神奈川県",
    "prefecture_kana": "カナガワケン",
    "prefecture_code": 14,
    "city": "横浜市栄区",
    "city_kana": "ヨコハマシサカエク",
    "town": "",
    "town_kana": "",
    "street": null,
    "office_name": null,
    "office_name_kana": null
  },
  "0001": {
    "postcode": "2470001",
    "prefecture": "神奈川県",
    "prefecture_kana": "カナガワケン",
    "prefecture_code": 14,
    "city": "横浜市栄区",
    "city_kana": "ヨコハマシサカエク",
    "town": "小菅ケ谷町",
    "town_kana": "コスガヤチョウ",
    "street": null,
    "office_name": null,
    "office_name_kana": null
  },
  "0002": {
    "postcode": "2470002",
    "prefecture": "神奈川県",
    "prefecture_kana": "カナガワケン",
    "prefecture_code": 14,
    "city": "横浜市栄区",
    "city_kana": "ヨコハマシサカエク",
    "town": "小山台",
    "town_kana": "コヤマダイ",
    "street": null,
    "office_name": null,
    "office_name_kana": null
  },
  "0003": {
    "postcode": "2470003",
    "prefecture": "神奈川県",
    "prefecture_kana": "カナガワケン",
    "prefecture_code": 14,
    "city": "横浜市栄区",
    "city_kana": "ヨコハマシサカエク",
    "town": "鍛冶ケ谷町",
    "town_kana": "カジガヤチョウ",
    "street": null,
    "office_name": null,
    "office_name_kana": null
  },
  "0004": {
    "postcode": "2470004",
    "prefecture": "神奈川県",
    "prefecture_kana": "カナガワケン",
    "prefecture_code": 14,
    "city": "横浜市栄区",
    "city_kana": "ヨコハマシサカエク",
    "town": "柏陽",
    "town_kana": "ハクヨウ",
    "street": null,
    "office_name": null,
    "office_name_kana": null
  },
  "0005": {
    "postcode": "2470005",
    "prefecture": "神奈川県",
    "prefecture_kana": "カナガワケン",
    "prefecture_code": 14,
    "city": "横浜市栄区",
    "city_kana": "ヨコハマシサカエク",
    "town": "桂町",
    "town_kana": "カツラチョウ",
    "street": null,
    "office_name": null,
    "office_name_kana": null
  },
  "0006": {
    "postcode": "2470006",
    "prefecture": "神奈川県",
    "prefecture_kana": "カナガワケン",
    "prefecture_code": 14,
    "city": "横浜市栄区",
    "city_kana": "ヨコハマシサカエク",
    "town": "笠間",
    "town_kana": "カサマ",
    "street": null,
    "office_name": null,
    "office_name_kana": null
  },
  "0007": {
    "postcode": "2470007",
    "prefecture": "神奈川県",
    "prefecture_kana": "カナガワケン",
    "prefecture_code": 14,
    "city": "横浜市栄区",
    "city_kana": "ヨコハマシサカエク",
    "town": "小菅ケ谷",
    "town_kana": "コスガヤ",
    "street": null,
    "office_name": null,
    "office_name_kana": null
  },
  "0008": {
    "postcode": "2470008",
    "prefecture": "神奈川県",
    "prefecture_kana": "カナガワケン",
    "prefecture_code": 14,
    "city": "横浜市栄区",
    "city_kana": "ヨコハマシサカエク",
    "town": "本郷台",
    "town_kana": "ホンゴウダイ",
    "street": null,
    "office_name": null,
    "office_name_kana": null
  },
  "0009": {
    "postcode": "2470009",
    "prefecture": "神奈川県",
    "prefecture_kana": "カナガワケン",
    "prefecture_code": 14,
    "city": "横浜市栄区",
    "city_kana": "ヨコハマシサカエク",
    "town": "鍛冶ケ谷",
    "town_kana": "カジガヤ",
    "street": null,
    "office_name": null,
    "office_name_kana": null
  },
  "0011": {
    "postcode": "2470011",
    "prefecture": "神奈川県",
    "prefecture_kana": "カナガワケン",
    "prefecture_code": 14,
    "city": "横浜市栄区",
    "city_kana": "ヨコハマシサカエク",
    "town": "元大橋",
    "town_kana": "モトオオハシ",
    "street": null,
    "office_name": null,
    "office_name_kana": null
  },
  "0012": {
    "postcode": "2470012",
    "prefecture": "神奈川県",
    "prefecture_kana": "カナガワケン",
    "prefecture_code": 14,
    "city": "横浜市栄区",
    "city_kana": "ヨコハマシサカエク",
    "town": "若竹町",
    "town_kana": "ワカタケチョウ",
    "street": null,
    "office_name": null,
    "office_name_kana": null
  },
  "0013": {
    "postcode": "2470013",
    "prefecture": "神奈川県",
    "prefecture_kana": "カナガワケン",
    "prefecture_code": 14,
    "city": "横浜市栄区",
    "city_kana": "ヨコハマシサカエク",
    "town": "上郷町",
    "town_kana": "カミゴウチョウ",
    "street": null,
    "office_name": null,
    "office_name_kana": null
  },
  "0014": {
    "postcode": "2470014",
    "prefecture": "神奈川県",
    "prefecture_kana": "カナガワケン",
    "prefecture_code": 14,
    "city": "横浜市栄区",
    "city_kana": "ヨコハマシサカエク",
    "town": "公田町",
    "town_kana": "クデンチョウ",
    "street": null,
    "office_name": null,
    "office_name_kana": null
  },
  "0015": {
    "postcode": "2470015",
    "prefecture": "神奈川県",
    "prefecture_kana": "カナガワケン",
    "prefecture_code": 14,
    "city": "横浜市栄区",
    "city_kana": "ヨコハマシサカエク",
    "town": "中野町",
    "town_kana": "ナカノチョウ",
    "street": null,
    "office_name": null,
    "office_name_kana": null
  },
  "0021": {
    "postcode": "2470021",
    "prefecture": "神奈川県",
    "prefecture_kana": "カナガワケン",
    "prefecture_code": 14,
    "city": "横浜市栄区",
    "city_kana": "ヨコハマシサカエク",
    "town": "東上郷町",
    "town_kana": "ヒガシカミゴウチョウ",
    "street": null,
    "office_name": null,
    "office_name_kana": null
  },
  "0022": {
    "postcode": "2470022",
    "prefecture": "神奈川県",
    "prefecture_kana": "カナガワケン",
    "prefecture_code": 14,
    "city": "横浜市栄区",
    "city_kana": "ヨコハマシサカエク",
    "town": "庄戸",
    "town_kana": "ショウド",
    "street": null,
    "office_name": null,
    "office_name_kana": null
  },
  "0023": {
    "postcode": "2470023",
    "prefecture": "神奈川県",
    "prefecture_kana": "カナガワケン",
    "prefecture_code": 14,
    "city": "横浜市栄区",
    "city_kana": "ヨコハマシサカエク",
    "town": "長倉町",
    "town_kana": "ナガクラチョウ",
    "street": null,
    "office_name": null,
    "office_name_kana": null
  },
  "0024": {
    "postcode": "2470024",
    "prefecture": "神奈川県",
    "prefecture_kana": "カナガワケン",
    "prefecture_code": 14,
    "city": "横浜市栄区",
    "city_kana": "ヨコハマシサカエク",
    "town": "野七里",
    "town_kana": "ノシチリ",
    "street": null,
    "office_name": null,
    "office_name_kana": null
  },
  "0025": {
    "postcode": "2470025",
    "prefecture": "神奈川県",
    "prefecture_kana": "カナガワケン",
    "prefecture_code": 14,
    "city": "横浜市栄区",
    "city_kana": "ヨコハマシサカエク",
    "town": "上之町",
    "town_kana": "カミノチョウ",
    "street": null,
    "office_name": null,
    "office_name_kana": null
  },
  "0026": {
    "postcode": "2470026",
    "prefecture": "神奈川県",
    "prefecture_kana": "カナガワケン",
    "prefecture_code": 14,
    "city": "横浜市栄区",
    "city_kana": "ヨコハマシサカエク",
    "town": "犬山町",
    "town_kana": "イノヤマチョウ",
    "street": null,
    "office_name": null,
    "office_name_kana": null
  },
  "0027": {
    "postcode": "2470027",
    "prefecture": "神奈川県",
    "prefecture_kana": "カナガワケン",
    "prefecture_code": 14,
    "city": "横浜市栄区",
    "city_kana": "ヨコハマシサカエク",
    "town": "尾月",
    "town_kana": "オヅキ",
    "street": null,
    "office_name": null,
    "office_name_kana": null
  },
  "0028": {
    "postcode": "2470028",
    "prefecture": "神奈川県",
    "prefecture_kana": "カナガワケン",
    "prefecture_code": 14,
    "city": "横浜市栄区",
    "city_kana": "ヨコハマシサカエク",
    "town": "亀井町",
    "town_kana": "カメイチョウ",
    "street": null,
    "office_name": null,
    "office_name_kana": null
  },
  "0031": {
    "postcode": "2470031",
    "prefecture": "神奈川県",
    "prefecture_kana": "カナガワケン",
    "prefecture_code": 14,
    "city": "横浜市栄区",
    "city_kana": "ヨコハマシサカエク",
    "town": "桂台北",
    "town_kana": "カツラダイキタ",
    "street": null,
    "office_name": null,
    "office_name_kana": null
  },
  "0032": {
    "postcode": "2470032",
    "prefecture": "神奈川県",
    "prefecture_kana": "カナガワケン",
    "prefecture_code": 14,
    "city": "横浜市栄区",
    "city_kana": "ヨコハマシサカエク",
    "town": "桂台東",
    "town_kana": "カツラダイヒガシ",
    "street": null,
    "office_name": null,
    "office_name_kana": null
  },
  "0033": {
    "postcode": "2470033",
    "prefecture": "神奈川県",
    "prefecture_kana": "カナガワケン",
    "prefecture_code": 14,
    "city": "横浜市栄区",
    "city_kana": "ヨコハマシサカエク",
    "town": "桂台南",
    "town_kana": "カツラダイミナミ",
    "street": null,
    "office_name": null,
    "office_name_kana": null
  },
  "0034": {
    "postcode": "2470034",
    "prefecture": "神奈川県",
    "prefecture_kana": "カナガワケン",
    "prefecture_code": 14,
    "city": "横浜市栄区",
    "city_kana": "ヨコハマシサカエク",
    "town": "桂台中",
    "town_kana": "カツラダイナカ",
    "street": null,
    "office_name": null,
    "office_name_kana": null
  },
  "0035": {
    "postcode": "2470035",
    "prefecture": "神奈川県",
    "prefecture_kana": "カナガワケン",
    "prefecture_code": 14,
    "city": "横浜市栄区",
    "city_kana": "ヨコハマシサカエク",
    "town": "桂台西",
    "town_kana": "カツラダイニシ",
    "street": null,
    "office_name": null,
    "office_name_kana": null
  },
  "0051": {
    "postcode": "2470051",
    "prefecture": "神奈川県",
    "prefecture_kana": "カナガワケン",
    "prefecture_code": 14,
    "city": "鎌倉市",
    "city_kana": "カマクラシ",
    "town": "岩瀬",
    "town_kana": "イワセ",
    "street": null,
    "office_name": null,
    "office_name_kana": null
  },
  "0052": {
    "postcode": "2470052",
    "prefecture": "神奈川県",
    "prefecture_kana": "カナガワケン",
    "prefecture_code": 14,
    "city": "鎌倉市",
    "city_kana": "カマクラシ",
    "town": "今泉",
    "town_kana": "イマイズミ",
    "street": null,
    "office_name": null,
    "office_name_kana": null
  },
  "0053": {
    "postcode": "2470053",
    "prefecture": "神奈川県",
    "prefecture_kana": "カナガワケン",
    "prefecture_code": 14,
    "city": "鎌倉市",
    "city_kana": "カマクラシ",
    "town": "今泉台",
    "town_kana": "イマイズミダイ",
    "street": null,
    "office_name": null,
    "office_name_kana": null
  },
  "0054": {
    "postcode": "2470054",
    "prefecture": "神奈川県",
    "prefecture_kana": "カナガワケン",
    "prefecture_code": 14,
    "city": "鎌倉市",
    "city_kana": "カマクラシ",
    "town": "高野",
    "town_kana": "タカノ",
    "street": null,
    "office_name": null,
    "office_name_kana": null
  },
  "0055": {
    "postcode": "2470055",
    "prefecture": "神奈川県",
    "prefecture_kana": "カナガワケン",
    "prefecture_code": 14,
    "city": "鎌倉市",
    "city_kana": "カマクラシ",
    "town": "小袋谷",
    "town_kana": "コブクロヤ",
    "street": null,
    "office_name": null,
    "office_name_kana": null
  },
  "0056": {
    "postcode": "2470056",
    "prefecture": "神奈川県",
    "prefecture_kana": "カナガワケン",
    "prefecture_code": 14,
    "city": "鎌倉市",
    "city_kana": "カマクラシ",
    "town": "大船",
    "town_kana": "オオフナ",
    "street": null,
    "office_name": null,
    "office_name_kana": null
  },
  "0061": {
    "postcode": "2470061",
    "prefecture": "神奈川県",
    "prefecture_kana": "カナガワケン",
    "prefecture_code": 14,
    "city": "鎌倉市",
    "city_kana": "カマクラシ",
    "town": "台",
    "town_kana": "ダイ",
    "street": null,
    "office_name": null,
    "office_name_kana": null
  },
  "0062": {
    "postcode": "2470062",
    "prefecture": "神奈川県",
    "prefecture_kana": "カナガワケン",
    "prefecture_code": 14,
    "city": "鎌倉市",
    "city_kana": "カマクラシ",
    "town": "山ノ内",
    "town_kana": "ヤマノウチ",
    "street": null,
    "office_name": null,
    "office_name_kana": null
  },
  "0063": {
    "postcode": "2470063",
    "prefecture": "神奈川県",
    "prefecture_kana": "カナガワケン",
    "prefecture_code": 14,
    "city": "鎌倉市",
    "city_kana": "カマクラシ",
    "town": "梶原",
    "town_kana": "カジワラ",
    "street": null,
    "office_name": null,
    "office_name_kana": null
  },
  "0064": {
    "postcode": "2470064",
    "prefecture": "神奈川県",
    "prefecture_kana": "カナガワケン",
    "prefecture_code": 14,
    "city": "鎌倉市",
    "city_kana": "カマクラシ",
    "town": "寺分",
    "town_kana": "テラブン",
    "street": null,
    "office_name": null,
    "office_name_kana": null
  },
  "0065": {
    "postcode": "2470065",
    "prefecture": "神奈川県",
    "prefecture_kana": "カナガワケン",
    "prefecture_code": 14,
    "city": "鎌倉市",
    "city_kana": "カマクラシ",
    "town": "上町屋",
    "town_kana": "カミマチヤ",
    "street": null,
    "office_name": null,
    "office_name_kana": null
  },
  "0066": {
    "postcode": "2470066",
    "prefecture": "神奈川県",
    "prefecture_kana": "カナガワケン",
    "prefecture_code": 14,
    "city": "鎌倉市",
    "city_kana": "カマクラシ",
    "town": "山崎",
    "town_kana": "ヤマサキ",
    "street": null,
    "office_name": null,
    "office_name_kana": null
  },
  "0071": {
    "postcode": "2470071",
    "prefecture": "神奈川県",
    "prefecture_kana": "カナガワケン",
    "prefecture_code": 14,
    "city": "鎌倉市",
    "city_kana": "カマクラシ",
    "town": "玉縄",
    "town_kana": "タマナワ",
    "street": null,
    "office_name": null,
    "office_name_kana": null
  },
  "0072": {
    "postcode": "2470072",
    "prefecture": "神奈川県",
    "prefecture_kana": "カナガワケン",
    "prefecture_code": 14,
    "city": "鎌倉市",
    "city_kana": "カマクラシ",
    "town": "岡本",
    "town_kana": "オカモト",
    "street": null,
    "office_name": null,
    "office_name_kana": null
  },
  "0073": {
    "postcode": "2470073",
    "prefecture": "神奈川県",
    "prefecture_kana": "カナガワケン",
    "prefecture_code": 14,
    "city": "鎌倉市",
    "city_kana": "カマクラシ",
    "town": "植木",
    "town_kana": "ウエキ",
    "street": null,
    "office_name": null,
    "office_name_kana": null
  },
  "0074": {
    "postcode": "2470074",
    "prefecture": "神奈川県",
    "prefecture_kana": "カナガワケン",
    "prefecture_code": 14,
    "city": "鎌倉市",
    "city_kana": "カマクラシ",
    "town": "城廻",
    "town_kana": "シロメグリ",
    "street": null,
    "office_name": null,
    "office_name_kana": null
  },
  "0075": {
    "postcode": "2470075",
    "prefecture": "神奈川県",
    "prefecture_kana": "カナガワケン",
    "prefecture_code": 14,
    "city": "鎌倉市",
    "city_kana": "カマクラシ",
    "town": "関谷",
    "town_kana": "セキヤ",
    "street": null,
    "office_name": null,
    "office_name_kana": null
  },
  "8510": {
    "postcode": "2478510",
    "prefecture": "神奈川県",
    "prefecture_kana": "カナガワケン",
    "prefecture_code": 14,
    "city": "鎌倉市",
    "city_kana": "カマクラシ",
    "town": "台",
    "town_kana": "ダイ",
    "street": "２丁目１３−１",
    "office_name": "電気化学工業　株式会社　大船工場",
    "office_name_kana": "デンキカガクコウギヨウ カブシキガイシヤ オオフナコウジヨウ"
  },
  "8530": {
    "postcode": "2478530",
    "prefecture": "神奈川県",
    "prefecture_kana": "カナガワケン",
    "prefecture_code": 14,
    "city": "鎌倉市",
    "city_kana": "カマクラシ",
    "town": "梶原",
    "town_kana": "カジワラ",
    "street": "２００番地",
    "office_name": "中外製薬　株式会社",
    "office_name_kana": "チユウガイセイヤク カブシキガイシヤ"
  },
  "8533": {
    "postcode": "2478533",
    "prefecture": "神奈川県",
    "prefecture_kana": "カナガワケン",
    "prefecture_code": 14,
    "city": "鎌倉市",
    "city_kana": "カマクラシ",
    "town": "岡本",
    "town_kana": "オカモト",
    "street": "１３７０番１",
    "office_name": "湘南鎌倉総合病院",
    "office_name_kana": "シヨウナンカマクラソウゴウビヨウイン"
  },
  "8538": {
    "postcode": "2478538",
    "prefecture": "神奈川県",
    "prefecture_kana": "カナガワケン",
    "prefecture_code": 14,
    "city": "鎌倉市",
    "city_kana": "カマクラシ",
    "town": "岩瀬",
    "town_kana": "イワセ",
    "street": "１２８５",
    "office_name": "ミハル通信　株式会社",
    "office_name_kana": "ミハルツウシン カブシキガイシヤ"
  },
  "8550": {
    "postcode": "2478550",
    "prefecture": "神奈川県",
    "prefecture_kana": "カナガワケン",
    "prefecture_code": 14,
    "city": "鎌倉市",
    "city_kana": "カマクラシ",
    "town": "台",
    "town_kana": "ダイ",
    "street": "２丁目１９−１２",
    "office_name": "シンロイヒ　（株）",
    "office_name_kana": "シンロイヒ (カブ)"
  },
  "8560": {
    "postcode": "2478560",
    "prefecture": "神奈川県",
    "prefecture_kana": "カナガワケン",
    "prefecture_code": 14,
    "city": "横浜市栄区",
    "city_kana": "ヨコハマシサカエク",
    "town": "笠間",
    "town_kana": "カサマ",
    "street": "２−５−１",
    "office_name": "芝浦メカトロニクス　株式会社　横浜事業所",
    "office_name_kana": "シバウラメカトロニクス カブシキガイシヤ ヨコハマジギヨウシヨ"
  },
  "8570": {
    "postcode": "2478570",
    "prefecture": "神奈川県",
    "prefecture_kana": "カナガワケン",
    "prefecture_code": 14,
    "city": "横浜市栄区",
    "city_kana": "ヨコハマシサカエク",
    "town": "笠間",
    "town_kana": "カサマ",
    "street": "４丁目１番１号",
    "office_name": "株式会社　タツノ　横浜工場",
    "office_name_kana": "カブシキカイシヤ タツノ ヨコハマコウジヨウ"
  },
  "8577": {
    "postcode": "2478577",
    "prefecture": "神奈川県",
    "prefecture_kana": "カナガワケン",
    "prefecture_code": 14,
    "city": "横浜市栄区",
    "city_kana": "ヨコハマシサカエク",
    "town": "飯島町",
    "town_kana": "イイジマチョウ",
    "street": "１０９−１",
    "office_name": "株式会社　ファンケル",
    "office_name_kana": "カブシキガイシヤ フアンケル"
  },
  "8578": {
    "postcode": "2478578",
    "prefecture": "神奈川県",
    "prefecture_kana": "カナガワケン",
    "prefecture_code": 14,
    "city": "横浜市栄区",
    "city_kana": "ヨコハマシサカエク",
    "town": "飯島町",
    "town_kana": "イイジマチョウ",
    "street": "１０９−１（大船郵便局私書箱第２７号）",
    "office_name": "株式会社　ネオエフ",
    "office_name_kana": "カブシキガイシヤ ネオエフ"
  },
  "8585": {
    "postcode": "2478585",
    "prefecture": "神奈川県",
    "prefecture_kana": "カナガワケン",
    "prefecture_code": 14,
    "city": "横浜市栄区",
    "city_kana": "ヨコハマシサカエク",
    "town": "笠間",
    "town_kana": "カサマ",
    "street": "２丁目５番１号",
    "office_name": "キオクシア　株式会社　横浜テクノロジーキャンパス",
    "office_name_kana": "キオクシア カブシキガイシヤ ヨコハマテクノロジ-キヤンパス"
  },
  "8588": {
    "postcode": "2478588",
    "prefecture": "神奈川県",
    "prefecture_kana": "カナガワケン",
    "prefecture_code": 14,
    "city": "横浜市栄区",
    "city_kana": "ヨコハマシサカエク",
    "town": "飯島町",
    "town_kana": "イイジマチョウ",
    "street": "５３",
    "office_name": "株式会社　アテニア",
    "office_name_kana": "カブシキガイシヤ アテニア"
  },
  "8610": {
    "postcode": "2478610",
    "prefecture": "神奈川県",
    "prefecture_kana": "カナガワケン",
    "prefecture_code": 14,
    "city": "横浜市栄区",
    "city_kana": "ヨコハマシサカエク",
    "town": "笠間",
    "town_kana": "カサマ",
    "street": "２−５−１",
    "office_name": "芝浦メカトロニクス　株式会社　本社",
    "office_name_kana": "シバウラメカトロニクス カブシキガイシヤ ホンシヤ"
  },
  "8630": {
    "postcode": "2478630",
    "prefecture": "神奈川県",
    "prefecture_kana": "カナガワケン",
    "prefecture_code": 14,
    "city": "横浜市栄区",
    "city_kana": "ヨコハマシサカエク",
    "town": "飯島町",
    "town_kana": "イイジマチョウ",
    "street": "１０９−１",
    "office_name": "株式会社　いいもの王国",
    "office_name_kana": "カブシキカイシヤ イイモノオウコク"
  },
  "8686": {
    "postcode": "2478686",
    "prefecture": "神奈川県",
    "prefecture_kana": "カナガワケン",
    "prefecture_code": 14,
    "city": "鎌倉市",
    "city_kana": "カマクラシ",
    "town": "大船",
    "town_kana": "オオフナ",
    "street": "６−３−５３",
    "office_name": "株式会社　ジェイコム湘南鎌倉局",
    "office_name_kana": "カブシキカイシヤ ジエイコムシヨウナンカマクラキヨク"
  },
  "8730": {
    "postcode": "2478730",
    "prefecture": "神奈川県",
    "prefecture_kana": "カナガワケン",
    "prefecture_code": 14,
    "city": "横浜市栄区",
    "city_kana": "ヨコハマシサカエク",
    "town": "飯島町",
    "town_kana": "イイジマチョウ",
    "street": "１０９−１（大船郵便局私書箱第３０号）",
    "office_name": "株式会社　いいもの王国",
    "office_name_kana": "カブシキカイシヤ イイモノオウコク"
  }
}