{
  "0000": {
    "postcode": "2490000",
    "prefecture": "神奈川県",
    "prefecture_kana": "カナガワケン",
    "prefecture_code": 14,
    "city": "逗子市",
    "city_kana": "ズシシ",
    "town": "",
    "town_kana": "",
    "street": null,
    "office_name": null,
    "office_name_kana": null
  },
  "0001": {
    "postcode": "2490001",
    "prefecture": "神奈川県",
    "prefecture_kana": "カナガワケン",
    "prefecture_code": 14,
    "city": "逗子市",
    "city_kana": "ズシシ",
    "town": "久木",
    "town_kana": "ヒサギ",
    "street": null,
    "office_name": null,
    "office_name_kana": null
  },
  "0002": {
    "postcode": "2490002",
    "prefecture": "神奈川県",
    "prefecture_kana": "カナガワケン",
    "prefecture_code": 14,
    "city": "逗子市",
    "city_kana": "ズシシ",
    "town": "山の根",
    "town_kana": "ヤマノネ",
    "street": null,
    "office_name": null,
    "office_name_kana": null
  },
  "0003": {
    "postcode": "2490003",
    "prefecture": "神奈川県",
    "prefecture_kana": "カナガワケン",
    "prefecture_code": 14,
    "city": "逗子市",
    "city_kana": "ズシシ",
    "town": "池子",
    "town_kana": "イケゴ",
    "street": null,
    "office_name": null,
    "office_name_kana": null
  },
  "0004": {
    "postcode": "2490004",
    "prefecture": "神奈川県",
    "prefecture_kana": "カナガワケン",
    "prefecture_code": 14,
    "city": "逗子市",
    "city_kana": "ズシシ",
    "town": "沼間",
    "town_kana": "ヌママ",
    "street": null,
    "office_name": null,
    "office_name_kana": null
  },
  "0005": {
    "postcode": "2490005",
    "prefecture": "神奈川県",
    "prefecture_kana": "カナガワケン",
    "prefecture_code": 14,
    "city": "逗子市",
    "city_kana": "ズシシ",
    "town": "桜山",
    "town_kana": "サクラヤマ",
    "street": null,
    "office_name": null,
    "office_name_kana": null
  },
  "0006": {
    "postcode": "2490006",
    "prefecture": "神奈川県",
    "prefecture_kana": "カナガワケン",
    "prefecture_code": 14,
    "city": "逗子市",
    "city_kana": "ズシシ",
    "town": "逗子",
    "town_kana": "ズシ",
    "street": null,
    "office_name": null,
    "office_name_kana": null
  },
  "0007": {
    "postcode": "2490007",
    "prefecture": "神奈川県",
    "prefecture_kana": "カナガワケン",
    "prefecture_code": 14,
    "city": "逗子市",
    "city_kana": "ズシシ",
    "town": "新宿",
    "town_kana": "シンジュク",
    "street": null,
    "office_name": null,
    "office_name_kana": null
  },
  "0008": {
    "postcode": "2490008",
    "prefecture": "神奈川県",
    "prefecture_kana": "カナガワケン",
    "prefecture_code": 14,
    "city": "逗子市",
    "city_kana": "ズシシ",
    "town": "小坪",
    "town_kana": "コツボ",
    "street": null,
    "office_name": null,
    "office_name_kana": null
  },
  "8510": {
    "postcode": "2498510",
    "prefecture": "神奈川県",
    "prefecture_kana": "カナガワケン",
    "prefecture_code": 14,
    "city": "逗子市",
    "city_kana": "ズシシ",
    "town": "新宿",
    "town_kana": "シンジュク",
    "street": "２丁目５−１",
    "office_name": "逗子開成中学・高等学校",
    "office_name_kana": "ズシカイセイチユウガク・コウトウガツコウ"
  },
  "8686": {
    "postcode": "2498686",
    "prefecture": "神奈川県",
    "prefecture_kana": "カナガワケン",
    "prefecture_code": 14,
    "city": "逗子市",
    "city_kana": "ズシシ",
    "town": "逗子",
    "town_kana": "ズシ",
    "street": "５丁目２−１６",
    "office_name": "逗子市役所",
    "office_name_kana": "ズシシヤクシヨ"
  }
}