{
  "0801": {
    "postcode": "2560801",
    "prefecture": "神奈川県",
    "prefecture_kana": "カナガワケン",
    "prefecture_code": 14,
    "city": "小田原市",
    "city_kana": "オダワラシ",
    "town": "沼代",
    "town_kana": "ヌマシロ",
    "street": null,
    "office_name": null,
    "office_name_kana": null
  },
  "0802": {
    "postcode": "2560802",
    "prefecture": "神奈川県",
    "prefecture_kana": "カナガワケン",
    "prefecture_code": 14,
    "city": "小田原市",
    "city_kana": "オダワラシ",
    "town": "小竹",
    "town_kana": "オダケ",
    "street": null,
    "office_name": null,
    "office_name_kana": null
  },
  "0803": {
    "postcode": "2560803",
    "prefecture": "神奈川県",
    "prefecture_kana": "カナガワケン",
    "prefecture_code": 14,
    "city": "小田原市",
    "city_kana": "オダワラシ",
    "town": "中村原",
    "town_kana": "ナカムラハラ",
    "street": null,
    "office_name": null,
    "office_name_kana": null
  },
  "0804": {
    "postcode": "2560804",
    "prefecture": "神奈川県",
    "prefecture_kana": "カナガワケン",
    "prefecture_code": 14,
    "city": "小田原市",
    "city_kana": "オダワラシ",
    "town": "羽根尾",
    "town_kana": "ハネオ",
    "street": null,
    "office_name": null,
    "office_name_kana": null
  },
  "0805": {
    "postcode": "2560805",
    "prefecture": "神奈川県",
    "prefecture_kana": "カナガワケン",
    "prefecture_code": 14,
    "city": "小田原市",
    "city_kana": "オダワラシ",
    "town": "上町",
    "town_kana": "カノマチ",
    "street": null,
    "office_name": null,
    "office_name_kana": null
  },
  "0806": {
    "postcode": "2560806",
    "prefecture": "神奈川県",
    "prefecture_kana": "カナガワケン",
    "prefecture_code": 14,
    "city": "小田原市",
    "city_kana": "オダワラシ",
    "town": "小船",
    "town_kana": "オブネ",
    "street": null,
    "office_name": null,
    "office_name_kana": null
  },
  "0807": {
    "postcode": "2560807",
    "prefecture": "神奈川県",
    "prefecture_kana": "カナガワケン",
    "prefecture_code": 14,
    "city": "小田原市",
    "city_kana": "オダワラシ",
    "town": "山西",
    "town_kana": "ヤマニシ",
    "street": null,
    "office_name": null,
    "office_name_kana": null
  },
  "0808": {
    "postcode": "2560808",
    "prefecture": "神奈川県",
    "prefecture_kana": "カナガワケン",
    "prefecture_code": 14,
    "city": "小田原市",
    "city_kana": "オダワラシ",
    "town": "東ヶ丘",
    "town_kana": "ヒガシガオカ",
    "street": null,
    "office_name": null,
    "office_name_kana": null
  },
  "0811": {
    "postcode": "2560811",
    "prefecture": "神奈川県",
    "prefecture_kana": "カナガワケン",
    "prefecture_code": 14,
    "city": "小田原市",
    "city_kana": "オダワラシ",
    "town": "田島",
    "town_kana": "タジマ",
    "street": null,
    "office_name": null,
    "office_name_kana": null
  },
  "0812": {
    "postcode": "2560812",
    "prefecture": "神奈川県",
    "prefecture_kana": "カナガワケン",
    "prefecture_code": 14,
    "city": "小田原市",
    "city_kana": "オダワラシ",
    "town": "国府津",
    "town_kana": "コウヅ",
    "street": null,
    "office_name": null,
    "office_name_kana": null
  },
  "0813": {
    "postcode": "2560813",
    "prefecture": "神奈川県",
    "prefecture_kana": "カナガワケン",
    "prefecture_code": 14,
    "city": "小田原市",
    "city_kana": "オダワラシ",
    "town": "前川",
    "town_kana": "マエカワ",
    "street": null,
    "office_name": null,
    "office_name_kana": null
  },
  "0814": {
    "postcode": "2560814",
    "prefecture": "神奈川県",
    "prefecture_kana": "カナガワケン",
    "prefecture_code": 14,
    "city": "小田原市",
    "city_kana": "オダワラシ",
    "town": "川匂",
    "town_kana": "カワワ",
    "street": null,
    "office_name": null,
    "office_name_kana": null
  },
  "0815": {
    "postcode": "2560815",
    "prefecture": "神奈川県",
    "prefecture_kana": "カナガワケン",
    "prefecture_code": 14,
    "city": "小田原市",
    "city_kana": "オダワラシ",
    "town": "小八幡",
    "town_kana": "コヤワタ",
    "street": null,
    "office_name": null,
    "office_name_kana": null
  },
  "0816": {
    "postcode": "2560816",
    "prefecture": "神奈川県",
    "prefecture_kana": "カナガワケン",
    "prefecture_code": 14,
    "city": "小田原市",
    "city_kana": "オダワラシ",
    "town": "酒匂",
    "town_kana": "サカワ",
    "street": null,
    "office_name": null,
    "office_name_kana": null
  },
  "0817": {
    "postcode": "2560817",
    "prefecture": "神奈川県",
    "prefecture_kana": "カナガワケン",
    "prefecture_code": 14,
    "city": "小田原市",
    "city_kana": "オダワラシ",
    "town": "西酒匂",
    "town_kana": "ニシサカワ",
    "street": null,
    "office_name": null,
    "office_name_kana": null
  },
  "8510": {
    "postcode": "2568510",
    "prefecture": "神奈川県",
    "prefecture_kana": "カナガワケン",
    "prefecture_code": 14,
    "city": "小田原市",
    "city_kana": "オダワラシ",
    "town": "国府津",
    "town_kana": "コウヅ",
    "street": "２８８０番地",
    "office_name": "株式会社　ＨＧＳＴジャパン",
    "office_name_kana": "カブシキガイシヤ エツチジ-エステイジヤパン"
  }
}