{
  "0000": [
    {
      "postcode": "2580000",
      "prefecture": "神奈川県",
      "prefecture_kana": "カナガワケン",
      "prefecture_code": 14,
      "city": "足柄上郡大井町",
      "city_kana": "アシガラカミグンオオイマチ",
      "town": "",
      "town_kana": "",
      "street": null,
      "office_name": null,
      "office_name_kana": null
    },
    {
      "postcode": "2580000",
      "prefecture": "神奈川県",
      "prefecture_kana": "カナガワケン",
      "prefecture_code": 14,
      "city": "足柄上郡松田町",
      "city_kana": "アシガラカミグンマツダマチ",
      "town": "",
      "town_kana": "",
      "street": null,
      "office_name": null,
      "office_name_kana": null
    },
    {
      "postcode": "2580000",
      "prefecture": "神奈川県",
      "prefecture_kana": "カナガワケン",
      "prefecture_code": 14,
      "city": "足柄上郡開成町",
      "city_kana": "アシガラカミグンカイセイマチ",
      "town": "",
      "town_kana": "",
      "street": null,
      "office_name": null,
      "office_name_kana": null
    }
  ],
  "0001": {
    "postcode": "2580001",
    "prefecture": "神奈川県",
    "prefecture_kana": "カナガワケン",
    "prefecture_code": 14,
    "city": "足柄上郡松田町",
    "city_kana": "アシガラカミグンマツダマチ",
    "town": "寄",
    "town_kana": "ヤドリキ",
    "street": null,
    "office_name": null,
    "office_name_kana": null
  },
  "0002": {
    "postcode": "2580002",
    "prefecture": "神奈川県",
    "prefecture_kana": "カナガワケン",
    "prefecture_code": 14,
    "city": "足柄上郡松田町",
    "city_kana": "アシガラカミグンマツダマチ",
    "town": "神山",
    "town_kana": "コウヤマ",
    "street": null,
    "office_name": null,
    "office_name_kana": null
  },
  "0003": {
    "postcode": "2580003",
    "prefecture": "神奈川県",
    "prefecture_kana": "カナガワケン",
    "prefecture_code": 14,
    "city": "足柄上郡松田町",
    "city_kana": "アシガラカミグンマツダマチ",
    "town": "松田惣領",
    "town_kana": "マツダソウリョウ",
    "street": null,
    "office_name": null,
    "office_name_kana": null
  },
  "0004": {
    "postcode": "2580004",
    "prefecture": "神奈川県",
    "prefecture_kana": "カナガワケン",
    "prefecture_code": 14,
    "city": "足柄上郡松田町",
    "city_kana": "アシガラカミグンマツダマチ",
    "town": "松田庶子",
    "town_kana": "マツダソシ",
    "street": null,
    "office_name": null,
    "office_name_kana": null
  },
  "0010": {
    "postcode": "2580010",
    "prefecture": "神奈川県",
    "prefecture_kana": "カナガワケン",
    "prefecture_code": 14,
    "city": "足柄上郡大井町",
    "city_kana": "アシガラカミグンオオイマチ",
    "town": "大井中央",
    "town_kana": "オオイチュウオウ",
    "street": null,
    "office_name": null,
    "office_name_kana": null
  },
  "0011": {
    "postcode": "2580011",
    "prefecture": "神奈川県",
    "prefecture_kana": "カナガワケン",
    "prefecture_code": 14,
    "city": "足柄上郡大井町",
    "city_kana": "アシガラカミグンオオイマチ",
    "town": "篠窪",
    "town_kana": "シノクボ",
    "street": null,
    "office_name": null,
    "office_name_kana": null
  },
  "0012": {
    "postcode": "2580012",
    "prefecture": "神奈川県",
    "prefecture_kana": "カナガワケン",
    "prefecture_code": 14,
    "city": "足柄上郡大井町",
    "city_kana": "アシガラカミグンオオイマチ",
    "town": "柳",
    "town_kana": "ヤナギ",
    "street": null,
    "office_name": null,
    "office_name_kana": null
  },
  "0013": {
    "postcode": "2580013",
    "prefecture": "神奈川県",
    "prefecture_kana": "カナガワケン",
    "prefecture_code": 14,
    "city": "足柄上郡大井町",
    "city_kana": "アシガラカミグンオオイマチ",
    "town": "高尾",
    "town_kana": "タカオ",
    "street": null,
    "office_name": null,
    "office_name_kana": null
  },
  "0014": {
    "postcode": "2580014",
    "prefecture": "神奈川県",
    "prefecture_kana": "カナガワケン",
    "prefecture_code": 14,
    "city": "足柄上郡大井町",
    "city_kana": "アシガラカミグンオオイマチ",
    "town": "赤田",
    "town_kana": "アカダ",
    "street": null,
    "office_name": null,
    "office_name_kana": null
  },
  "0015": {
    "postcode": "2580015",
    "prefecture": "神奈川県",
    "prefecture_kana": "カナガワケン",
    "prefecture_code": 14,
    "city": "足柄上郡大井町",
    "city_kana": "アシガラカミグンオオイマチ",
    "town": "山田",
    "town_kana": "ヤマダ",
    "street": null,
    "office_name": null,
    "office_name_kana": null
  },
  "0016": {
    "postcode": "2580016",
    "prefecture": "神奈川県",
    "prefecture_kana": "カナガワケン",
    "prefecture_code": 14,
    "city": "足柄上郡大井町",
    "city_kana": "アシガラカミグンオオイマチ",
    "town": "上大井",
    "town_kana": "カミオオイ",
    "street": null,
    "office_name": null,
    "office_name_kana": null
  },
  "0017": {
    "postcode": "2580017",
    "prefecture": "神奈川県",
    "prefecture_kana": "カナガワケン",
    "prefecture_code": 14,
    "city": "足柄上郡大井町",
    "city_kana": "アシガラカミグンオオイマチ",
    "town": "西大井",
    "town_kana": "ニシオオイ",
    "street": null,
    "office_name": null,
    "office_name_kana": null
  },
  "0018": {
    "postcode": "2580018",
    "prefecture": "神奈川県",
    "prefecture_kana": "カナガワケン",
    "prefecture_code": 14,
    "city": "足柄上郡大井町",
    "city_kana": "アシガラカミグンオオイマチ",
    "town": "金手",
    "town_kana": "カナデ",
    "street": null,
    "office_name": null,
    "office_name_kana": null
  },
  "0019": {
    "postcode": "2580019",
    "prefecture": "神奈川県",
    "prefecture_kana": "カナガワケン",
    "prefecture_code": 14,
    "city": "足柄上郡大井町",
    "city_kana": "アシガラカミグンオオイマチ",
    "town": "金子",
    "town_kana": "カネコ",
    "street": null,
    "office_name": null,
    "office_name_kana": null
  },
  "0021": {
    "postcode": "2580021",
    "prefecture": "神奈川県",
    "prefecture_kana": "カナガワケン",
    "prefecture_code": 14,
    "city": "足柄上郡開成町",
    "city_kana": "アシガラカミグンカイセイマチ",
    "town": "吉田島",
    "town_kana": "ヨシダジマ",
    "street": null,
    "office_name": null,
    "office_name_kana": null
  },
  "0022": {
    "postcode": "2580022",
    "prefecture": "神奈川県",
    "prefecture_kana": "カナガワケン",
    "prefecture_code": 14,
    "city": "足柄上郡開成町",
    "city_kana": "アシガラカミグンカイセイマチ",
    "town": "牛島",
    "town_kana": "ウシジマ",
    "street": null,
    "office_name": null,
    "office_name_kana": null
  },
  "0023": {
    "postcode": "2580023",
    "prefecture": "神奈川県",
    "prefecture_kana": "カナガワケン",
    "prefecture_code": 14,
    "city": "足柄上郡開成町",
    "city_kana": "アシガラカミグンカイセイマチ",
    "town": "宮台",
    "town_kana": "ミヤノダイ",
    "street": null,
    "office_name": null,
    "office_name_kana": null
  },
  "0024": {
    "postcode": "2580024",
    "prefecture": "神奈川県",
    "prefecture_kana": "カナガワケン",
    "prefecture_code": 14,
    "city": "足柄上郡開成町",
    "city_kana": "アシガラカミグンカイセイマチ",
    "town": "中之名",
    "town_kana": "ナカノミョウ",
    "street": null,
    "office_name": null,
    "office_name_kana": null
  },
  "0025": {
    "postcode": "2580025",
    "prefecture": "神奈川県",
    "prefecture_kana": "カナガワケン",
    "prefecture_code": 14,
    "city": "足柄上郡開成町",
    "city_kana": "アシガラカミグンカイセイマチ",
    "town": "円通寺",
    "town_kana": "エンツウジ",
    "street": null,
    "office_name": null,
    "office_name_kana": null
  },
  "0026": {
    "postcode": "2580026",
    "prefecture": "神奈川県",
    "prefecture_kana": "カナガワケン",
    "prefecture_code": 14,
    "city": "足柄上郡開成町",
    "city_kana": "アシガラカミグンカイセイマチ",
    "town": "延沢",
    "town_kana": "ノブサワ",
    "street": null,
    "office_name": null,
    "office_name_kana": null
  },
  "0027": {
    "postcode": "2580027",
    "prefecture": "神奈川県",
    "prefecture_kana": "カナガワケン",
    "prefecture_code": 14,
    "city": "足柄上郡開成町",
    "city_kana": "アシガラカミグンカイセイマチ",
    "town": "岡野",
    "town_kana": "オカノ",
    "street": null,
    "office_name": null,
    "office_name_kana": null
  },
  "0028": {
    "postcode": "2580028",
    "prefecture": "神奈川県",
    "prefecture_kana": "カナガワケン",
    "prefecture_code": 14,
    "city": "足柄上郡開成町",
    "city_kana": "アシガラカミグンカイセイマチ",
    "town": "金井島",
    "town_kana": "カナイシマ",
    "street": null,
    "office_name": null,
    "office_name_kana": null
  },
  "0029": {
    "postcode": "2580029",
    "prefecture": "神奈川県",
    "prefecture_kana": "カナガワケン",
    "prefecture_code": 14,
    "city": "足柄上郡開成町",
    "city_kana": "アシガラカミグンカイセイマチ",
    "town": "みなみ",
    "town_kana": "ミナミ",
    "street": null,
    "office_name": null,
    "office_name_kana": null
  },
  "0100": {
    "postcode": "2580100",
    "prefecture": "神奈川県",
    "prefecture_kana": "カナガワケン",
    "prefecture_code": 14,
    "city": "足柄上郡山北町",
    "city_kana": "アシガラカミグンヤマキタマチ",
    "town": "",
    "town_kana": "",
    "street": null,
    "office_name": null,
    "office_name_kana": null
  },
  "0111": {
    "postcode": "2580111",
    "prefecture": "神奈川県",
    "prefecture_kana": "カナガワケン",
    "prefecture_code": 14,
    "city": "足柄上郡山北町",
    "city_kana": "アシガラカミグンヤマキタマチ",
    "town": "向原",
    "town_kana": "ムコウハラ",
    "street": null,
    "office_name": null,
    "office_name_kana": null
  },
  "0112": {
    "postcode": "2580112",
    "prefecture": "神奈川県",
    "prefecture_kana": "カナガワケン",
    "prefecture_code": 14,
    "city": "足柄上郡山北町",
    "city_kana": "アシガラカミグンヤマキタマチ",
    "town": "岸",
    "town_kana": "キシ",
    "street": null,
    "office_name": null,
    "office_name_kana": null
  },
  "0113": {
    "postcode": "2580113",
    "prefecture": "神奈川県",
    "prefecture_kana": "カナガワケン",
    "prefecture_code": 14,
    "city": "足柄上郡山北町",
    "city_kana": "アシガラカミグンヤマキタマチ",
    "town": "山北",
    "town_kana": "ヤマキタ",
    "street": null,
    "office_name": null,
    "office_name_kana": null
  },
  "0114": {
    "postcode": "2580114",
    "prefecture": "神奈川県",
    "prefecture_kana": "カナガワケン",
    "prefecture_code": 14,
    "city": "足柄上郡山北町",
    "city_kana": "アシガラカミグンヤマキタマチ",
    "town": "平山",
    "town_kana": "ヒラヤマ",
    "street": null,
    "office_name": null,
    "office_name_kana": null
  },
  "0115": {
    "postcode": "2580115",
    "prefecture": "神奈川県",
    "prefecture_kana": "カナガワケン",
    "prefecture_code": 14,
    "city": "足柄上郡山北町",
    "city_kana": "アシガラカミグンヤマキタマチ",
    "town": "谷ケ",
    "town_kana": "ヤガ",
    "street": null,
    "office_name": null,
    "office_name_kana": null
  },
  "0121": {
    "postcode": "2580121",
    "prefecture": "神奈川県",
    "prefecture_kana": "カナガワケン",
    "prefecture_code": 14,
    "city": "足柄上郡山北町",
    "city_kana": "アシガラカミグンヤマキタマチ",
    "town": "皆瀬川",
    "town_kana": "ミナセガワ",
    "street": null,
    "office_name": null,
    "office_name_kana": null
  },
  "0122": {
    "postcode": "2580122",
    "prefecture": "神奈川県",
    "prefecture_kana": "カナガワケン",
    "prefecture_code": 14,
    "city": "足柄上郡山北町",
    "city_kana": "アシガラカミグンヤマキタマチ",
    "town": "都夫良野",
    "town_kana": "ツブラノ",
    "street": null,
    "office_name": null,
    "office_name_kana": null
  },
  "0123": {
    "postcode": "2580123",
    "prefecture": "神奈川県",
    "prefecture_kana": "カナガワケン",
    "prefecture_code": 14,
    "city": "足柄上郡山北町",
    "city_kana": "アシガラカミグンヤマキタマチ",
    "town": "湯触",
    "town_kana": "ユブレ",
    "street": null,
    "office_name": null,
    "office_name_kana": null
  },
  "0124": {
    "postcode": "2580124",
    "prefecture": "神奈川県",
    "prefecture_kana": "カナガワケン",
    "prefecture_code": 14,
    "city": "足柄上郡山北町",
    "city_kana": "アシガラカミグンヤマキタマチ",
    "town": "川西",
    "town_kana": "カワニシ",
    "street": null,
    "office_name": null,
    "office_name_kana": null
  },
  "0125": {
    "postcode": "2580125",
    "prefecture": "神奈川県",
    "prefecture_kana": "カナガワケン",
    "prefecture_code": 14,
    "city": "足柄上郡山北町",
    "city_kana": "アシガラカミグンヤマキタマチ",
    "town": "山市場",
    "town_kana": "ヤマイチバ",
    "street": null,
    "office_name": null,
    "office_name_kana": null
  },
  "0126": {
    "postcode": "2580126",
    "prefecture": "神奈川県",
    "prefecture_kana": "カナガワケン",
    "prefecture_code": 14,
    "city": "足柄上郡山北町",
    "city_kana": "アシガラカミグンヤマキタマチ",
    "town": "神縄",
    "town_kana": "カミナワ",
    "street": null,
    "office_name": null,
    "office_name_kana": null
  },
  "0195": {
    "postcode": "2580195",
    "prefecture": "神奈川県",
    "prefecture_kana": "カナガワケン",
    "prefecture_code": 14,
    "city": "足柄上郡山北町",
    "city_kana": "アシガラカミグンヤマキタマチ",
    "town": "山北",
    "town_kana": "ヤマキタ",
    "street": "１３０１−４",
    "office_name": "山北町役場",
    "office_name_kana": "ヤマキタマチヤクバ"
  },
  "0201": {
    "postcode": "2580201",
    "prefecture": "神奈川県",
    "prefecture_kana": "カナガワケン",
    "prefecture_code": 14,
    "city": "足柄上郡山北町",
    "city_kana": "アシガラカミグンヤマキタマチ",
    "town": "中川",
    "town_kana": "ナカガワ",
    "street": null,
    "office_name": null,
    "office_name_kana": null
  },
  "0202": {
    "postcode": "2580202",
    "prefecture": "神奈川県",
    "prefecture_kana": "カナガワケン",
    "prefecture_code": 14,
    "city": "足柄上郡山北町",
    "city_kana": "アシガラカミグンヤマキタマチ",
    "town": "玄倉",
    "town_kana": "クロクラ",
    "street": null,
    "office_name": null,
    "office_name_kana": null
  },
  "0203": {
    "postcode": "2580203",
    "prefecture": "神奈川県",
    "prefecture_kana": "カナガワケン",
    "prefecture_code": 14,
    "city": "足柄上郡山北町",
    "city_kana": "アシガラカミグンヤマキタマチ",
    "town": "神尾田",
    "town_kana": "カミオダ",
    "street": null,
    "office_name": null,
    "office_name_kana": null
  },
  "0204": {
    "postcode": "2580204",
    "prefecture": "神奈川県",
    "prefecture_kana": "カナガワケン",
    "prefecture_code": 14,
    "city": "足柄上郡山北町",
    "city_kana": "アシガラカミグンヤマキタマチ",
    "town": "世附",
    "town_kana": "ヨヅク",
    "street": null,
    "office_name": null,
    "office_name_kana": null
  },
  "8501": {
    "postcode": "2588501",
    "prefecture": "神奈川県",
    "prefecture_kana": "カナガワケン",
    "prefecture_code": 14,
    "city": "足柄上郡大井町",
    "city_kana": "アシガラカミグンオオイマチ",
    "town": "金子",
    "town_kana": "カネコ",
    "street": "１９９５",
    "office_name": "大井町役場",
    "office_name_kana": "オオイマチヤクバ"
  },
  "8506": {
    "postcode": "2588506",
    "prefecture": "神奈川県",
    "prefecture_kana": "カナガワケン",
    "prefecture_code": 14,
    "city": "足柄上郡開成町",
    "city_kana": "アシガラカミグンカイセイマチ",
    "town": "延沢",
    "town_kana": "ノブサワ",
    "street": "１",
    "office_name": "明治ゴム化成　株式会社",
    "office_name_kana": "メイジゴムカセイ カブシキガイシヤ"
  },
  "8511": {
    "postcode": "2588511",
    "prefecture": "神奈川県",
    "prefecture_kana": "カナガワケン",
    "prefecture_code": 14,
    "city": "足柄上郡大井町",
    "city_kana": "アシガラカミグンオオイマチ",
    "town": "上大井",
    "town_kana": "カミオオイ",
    "street": "１３１−１",
    "office_name": "第一生命保険　株式会社　新大井事業所",
    "office_name_kana": "ダイイチセイメイホケン カブシキガイシヤ シンオオイジギヨウシヨ"
  },
  "8533": {
    "postcode": "2588533",
    "prefecture": "神奈川県",
    "prefecture_kana": "カナガワケン",
    "prefecture_code": 14,
    "city": "足柄上郡大井町",
    "city_kana": "アシガラカミグンオオイマチ",
    "town": "西大井",
    "town_kana": "ニシオオイ",
    "street": "６８６−１",
    "office_name": "ＮＥＣ湘南テクニカルセンター",
    "office_name_kana": "エヌイ-シ-シヨウナンテクニカルセンタ-"
  },
  "8538": {
    "postcode": "2588538",
    "prefecture": "神奈川県",
    "prefecture_kana": "カナガワケン",
    "prefecture_code": 14,
    "city": "足柄上郡開成町",
    "city_kana": "アシガラカミグンカイセイマチ",
    "town": "宮台",
    "town_kana": "ミヤノダイ",
    "street": "７９８−１",
    "office_name": "富士写真フイルム　株式会社　宮台技術開発センター",
    "office_name_kana": "フジシヤシンフイルム カブシキガイシヤ ミヤノダイギジユツカイハツセンタ-"
  },
  "8577": {
    "postcode": "2588577",
    "prefecture": "神奈川県",
    "prefecture_kana": "カナガワケン",
    "prefecture_code": 14,
    "city": "足柄上郡開成町",
    "city_kana": "アシガラカミグンカイセイマチ",
    "town": "牛島",
    "town_kana": "ウシジマ",
    "street": "５７７",
    "office_name": "富士フイルム先進研究所",
    "office_name_kana": "フジフイルムセンシンケンキユウジヨ"
  },
  "8585": {
    "postcode": "2588585",
    "prefecture": "神奈川県",
    "prefecture_kana": "カナガワケン",
    "prefecture_code": 14,
    "city": "足柄上郡松田町",
    "city_kana": "アシガラカミグンマツダマチ",
    "town": "松田惣領",
    "town_kana": "マツダソウリョウ",
    "street": "２０３７",
    "office_name": "松田町役場",
    "office_name_kana": "マツダマチヤクバ"
  }
}