{
  "0041": {
    "postcode": "2710041",
    "prefecture": "千葉県",
    "prefecture_kana": "チバケン",
    "prefecture_code": 12,
    "city": "松戸市",
    "city_kana": "マツドシ",
    "town": "七右衛門新田",
    "town_kana": "シチウエモンシンデン",
    "street": null,
    "office_name": null,
    "office_name_kana": null
  },
  "0042": {
    "postcode": "2710042",
    "prefecture": "千葉県",
    "prefecture_kana": "チバケン",
    "prefecture_code": 12,
    "city": "松戸市",
    "city_kana": "マツドシ",
    "town": "主水新田",
    "town_kana": "モントシンデン",
    "street": null,
    "office_name": null,
    "office_name_kana": null
  },
  "0043": {
    "postcode": "2710043",
    "prefecture": "千葉県",
    "prefecture_kana": "チバケン",
    "prefecture_code": 12,
    "city": "松戸市",
    "city_kana": "マツドシ",
    "town": "旭町",
    "town_kana": "アサヒチョウ",
    "street": null,
    "office_name": null,
    "office_name_kana": null
  },
  "0044": {
    "postcode": "2710044",
    "prefecture": "千葉県",
    "prefecture_kana": "チバケン",
    "prefecture_code": 12,
    "city": "松戸市",
    "city_kana": "マツドシ",
    "town": "西馬橋",
    "town_kana": "ニシマバシ",
    "street": null,
    "office_name": null,
    "office_name_kana": null
  },
  "0045": {
    "postcode": "2710045",
    "prefecture": "千葉県",
    "prefecture_kana": "チバケン",
    "prefecture_code": 12,
    "city": "松戸市",
    "city_kana": "マツドシ",
    "town": "西馬橋相川町",
    "town_kana": "ニシマバシアイカワチョウ",
    "street": null,
    "office_name": null,
    "office_name_kana": null
  },
  "0046": {
    "postcode": "2710046",
    "prefecture": "千葉県",
    "prefecture_kana": "チバケン",
    "prefecture_code": 12,
    "city": "松戸市",
    "city_kana": "マツドシ",
    "town": "西馬橋蔵元町",
    "town_kana": "ニシマバシクラモトチョウ",
    "street": null,
    "office_name": null,
    "office_name_kana": null
  },
  "0047": {
    "postcode": "2710047",
    "prefecture": "千葉県",
    "prefecture_kana": "チバケン",
    "prefecture_code": 12,
    "city": "松戸市",
    "city_kana": "マツドシ",
    "town": "西馬橋幸町",
    "town_kana": "ニシマバシサイワイチョウ",
    "street": null,
    "office_name": null,
    "office_name_kana": null
  },
  "0048": {
    "postcode": "2710048",
    "prefecture": "千葉県",
    "prefecture_kana": "チバケン",
    "prefecture_code": 12,
    "city": "松戸市",
    "city_kana": "マツドシ",
    "town": "西馬橋広手町",
    "town_kana": "ニシマバシヒロテチョウ",
    "street": null,
    "office_name": null,
    "office_name_kana": null
  },
  "0051": {
    "postcode": "2710051",
    "prefecture": "千葉県",
    "prefecture_kana": "チバケン",
    "prefecture_code": 12,
    "city": "松戸市",
    "city_kana": "マツドシ",
    "town": "馬橋",
    "town_kana": "マバシ",
    "street": null,
    "office_name": null,
    "office_name_kana": null
  },
  "0052": {
    "postcode": "2710052",
    "prefecture": "千葉県",
    "prefecture_kana": "チバケン",
    "prefecture_code": 12,
    "city": "松戸市",
    "city_kana": "マツドシ",
    "town": "新作",
    "town_kana": "シンザク",
    "street": null,
    "office_name": null,
    "office_name_kana": null
  },
  "0053": {
    "postcode": "2710053",
    "prefecture": "千葉県",
    "prefecture_kana": "チバケン",
    "prefecture_code": 12,
    "city": "松戸市",
    "city_kana": "マツドシ",
    "town": "中根",
    "town_kana": "ナカネ",
    "street": null,
    "office_name": null,
    "office_name_kana": null
  },
  "0054": {
    "postcode": "2710054",
    "prefecture": "千葉県",
    "prefecture_kana": "チバケン",
    "prefecture_code": 12,
    "city": "松戸市",
    "city_kana": "マツドシ",
    "town": "中根長津町",
    "town_kana": "ナカネナガツチョウ",
    "street": null,
    "office_name": null,
    "office_name_kana": null
  },
  "0061": {
    "postcode": "2710061",
    "prefecture": "千葉県",
    "prefecture_kana": "チバケン",
    "prefecture_code": 12,
    "city": "松戸市",
    "city_kana": "マツドシ",
    "town": "栄町西",
    "town_kana": "サカエチョウニシ",
    "street": null,
    "office_name": null,
    "office_name_kana": null
  },
  "0062": {
    "postcode": "2710062",
    "prefecture": "千葉県",
    "prefecture_kana": "チバケン",
    "prefecture_code": 12,
    "city": "松戸市",
    "city_kana": "マツドシ",
    "town": "栄町",
    "town_kana": "サカエチョウ",
    "street": null,
    "office_name": null,
    "office_name_kana": null
  },
  "0063": {
    "postcode": "2710063",
    "prefecture": "千葉県",
    "prefecture_kana": "チバケン",
    "prefecture_code": 12,
    "city": "松戸市",
    "city_kana": "マツドシ",
    "town": "北松戸",
    "town_kana": "キタマツド",
    "street": null,
    "office_name": null,
    "office_name_kana": null
  },
  "0064": {
    "postcode": "2710064",
    "prefecture": "千葉県",
    "prefecture_kana": "チバケン",
    "prefecture_code": 12,
    "city": "松戸市",
    "city_kana": "マツドシ",
    "town": "上本郷",
    "town_kana": "カミホンゴウ",
    "street": null,
    "office_name": null,
    "office_name_kana": null
  },
  "0065": {
    "postcode": "2710065",
    "prefecture": "千葉県",
    "prefecture_kana": "チバケン",
    "prefecture_code": 12,
    "city": "松戸市",
    "city_kana": "マツドシ",
    "town": "南花島",
    "town_kana": "ミナミハナシマ",
    "street": null,
    "office_name": null,
    "office_name_kana": null
  },
  "0066": {
    "postcode": "2710066",
    "prefecture": "千葉県",
    "prefecture_kana": "チバケン",
    "prefecture_code": 12,
    "city": "松戸市",
    "city_kana": "マツドシ",
    "town": "吉井町",
    "town_kana": "ヨシイチョウ",
    "street": null,
    "office_name": null,
    "office_name_kana": null
  },
  "0067": {
    "postcode": "2710067",
    "prefecture": "千葉県",
    "prefecture_kana": "チバケン",
    "prefecture_code": 12,
    "city": "松戸市",
    "city_kana": "マツドシ",
    "town": "樋野口",
    "town_kana": "ヒノクチ",
    "street": null,
    "office_name": null,
    "office_name_kana": null
  },
  "0068": {
    "postcode": "2710068",
    "prefecture": "千葉県",
    "prefecture_kana": "チバケン",
    "prefecture_code": 12,
    "city": "松戸市",
    "city_kana": "マツドシ",
    "town": "古ケ崎",
    "town_kana": "コガサキ",
    "street": null,
    "office_name": null,
    "office_name_kana": null
  },
  "0071": {
    "postcode": "2710071",
    "prefecture": "千葉県",
    "prefecture_kana": "チバケン",
    "prefecture_code": 12,
    "city": "松戸市",
    "city_kana": "マツドシ",
    "town": "竹ケ花西町",
    "town_kana": "タケガハナニシマチ",
    "street": null,
    "office_name": null,
    "office_name_kana": null
  },
  "0072": {
    "postcode": "2710072",
    "prefecture": "千葉県",
    "prefecture_kana": "チバケン",
    "prefecture_code": 12,
    "city": "松戸市",
    "city_kana": "マツドシ",
    "town": "竹ケ花",
    "town_kana": "タケガハナ",
    "street": null,
    "office_name": null,
    "office_name_kana": null
  },
  "0073": {
    "postcode": "2710073",
    "prefecture": "千葉県",
    "prefecture_kana": "チバケン",
    "prefecture_code": 12,
    "city": "松戸市",
    "city_kana": "マツドシ",
    "town": "小根本",
    "town_kana": "コネモト",
    "street": null,
    "office_name": null,
    "office_name_kana": null
  },
  "0074": {
    "postcode": "2710074",
    "prefecture": "千葉県",
    "prefecture_kana": "チバケン",
    "prefecture_code": 12,
    "city": "松戸市",
    "city_kana": "マツドシ",
    "town": "緑ケ丘",
    "town_kana": "ミドリガオカ",
    "street": null,
    "office_name": null,
    "office_name_kana": null
  },
  "0075": {
    "postcode": "2710075",
    "prefecture": "千葉県",
    "prefecture_kana": "チバケン",
    "prefecture_code": 12,
    "city": "松戸市",
    "city_kana": "マツドシ",
    "town": "胡録台",
    "town_kana": "コロクダイ",
    "street": null,
    "office_name": null,
    "office_name_kana": null
  },
  "0076": {
    "postcode": "2710076",
    "prefecture": "千葉県",
    "prefecture_kana": "チバケン",
    "prefecture_code": 12,
    "city": "松戸市",
    "city_kana": "マツドシ",
    "town": "岩瀬",
    "town_kana": "イワセ",
    "street": null,
    "office_name": null,
    "office_name_kana": null
  },
  "0077": {
    "postcode": "2710077",
    "prefecture": "千葉県",
    "prefecture_kana": "チバケン",
    "prefecture_code": 12,
    "city": "松戸市",
    "city_kana": "マツドシ",
    "town": "根本",
    "town_kana": "ネモト",
    "street": null,
    "office_name": null,
    "office_name_kana": null
  },
  "0081": {
    "postcode": "2710081",
    "prefecture": "千葉県",
    "prefecture_kana": "チバケン",
    "prefecture_code": 12,
    "city": "松戸市",
    "city_kana": "マツドシ",
    "town": "二十世紀が丘美野里町",
    "town_kana": "ニジュッセイキガオカミノリチョウ",
    "street": null,
    "office_name": null,
    "office_name_kana": null
  },
  "0082": {
    "postcode": "2710082",
    "prefecture": "千葉県",
    "prefecture_kana": "チバケン",
    "prefecture_code": 12,
    "city": "松戸市",
    "city_kana": "マツドシ",
    "town": "二十世紀が丘戸山町",
    "town_kana": "ニジュッセイキガオカトヤマチョウ",
    "street": null,
    "office_name": null,
    "office_name_kana": null
  },
  "0083": {
    "postcode": "2710083",
    "prefecture": "千葉県",
    "prefecture_kana": "チバケン",
    "prefecture_code": 12,
    "city": "松戸市",
    "city_kana": "マツドシ",
    "town": "二十世紀が丘梨元町",
    "town_kana": "ニジュッセイキガオカナシモトチョウ",
    "street": null,
    "office_name": null,
    "office_name_kana": null
  },
  "0084": {
    "postcode": "2710084",
    "prefecture": "千葉県",
    "prefecture_kana": "チバケン",
    "prefecture_code": 12,
    "city": "松戸市",
    "city_kana": "マツドシ",
    "town": "二十世紀が丘丸山町",
    "town_kana": "ニジュッセイキガオカマルヤマチョウ",
    "street": null,
    "office_name": null,
    "office_name_kana": null
  },
  "0085": {
    "postcode": "2710085",
    "prefecture": "千葉県",
    "prefecture_kana": "チバケン",
    "prefecture_code": 12,
    "city": "松戸市",
    "city_kana": "マツドシ",
    "town": "二十世紀が丘中松町",
    "town_kana": "ニジュッセイキガオカナカマツチョウ",
    "street": null,
    "office_name": null,
    "office_name_kana": null
  },
  "0086": {
    "postcode": "2710086",
    "prefecture": "千葉県",
    "prefecture_kana": "チバケン",
    "prefecture_code": 12,
    "city": "松戸市",
    "city_kana": "マツドシ",
    "town": "二十世紀が丘萩町",
    "town_kana": "ニジュッセイキガオカハギチョウ",
    "street": null,
    "office_name": null,
    "office_name_kana": null
  },
  "0087": {
    "postcode": "2710087",
    "prefecture": "千葉県",
    "prefecture_kana": "チバケン",
    "prefecture_code": 12,
    "city": "松戸市",
    "city_kana": "マツドシ",
    "town": "三矢小台",
    "town_kana": "ミヤコダイ",
    "street": null,
    "office_name": null,
    "office_name_kana": null
  },
  "0088": {
    "postcode": "2710088",
    "prefecture": "千葉県",
    "prefecture_kana": "チバケン",
    "prefecture_code": 12,
    "city": "松戸市",
    "city_kana": "マツドシ",
    "town": "二十世紀が丘柿の木町",
    "town_kana": "ニジュッセイキガオカカキノキチョウ",
    "street": null,
    "office_name": null,
    "office_name_kana": null
  },
  "0091": {
    "postcode": "2710091",
    "prefecture": "千葉県",
    "prefecture_kana": "チバケン",
    "prefecture_code": 12,
    "city": "松戸市",
    "city_kana": "マツドシ",
    "town": "本町",
    "town_kana": "ホンチョウ",
    "street": null,
    "office_name": null,
    "office_name_kana": null
  },
  "0092": {
    "postcode": "2710092",
    "prefecture": "千葉県",
    "prefecture_kana": "チバケン",
    "prefecture_code": 12,
    "city": "松戸市",
    "city_kana": "マツドシ",
    "town": "松戸",
    "town_kana": "マツド",
    "street": null,
    "office_name": null,
    "office_name_kana": null
  },
  "0093": {
    "postcode": "2710093",
    "prefecture": "千葉県",
    "prefecture_kana": "チバケン",
    "prefecture_code": 12,
    "city": "松戸市",
    "city_kana": "マツドシ",
    "town": "小山",
    "town_kana": "コヤマ",
    "street": null,
    "office_name": null,
    "office_name_kana": null
  },
  "0094": {
    "postcode": "2710094",
    "prefecture": "千葉県",
    "prefecture_kana": "チバケン",
    "prefecture_code": 12,
    "city": "松戸市",
    "city_kana": "マツドシ",
    "town": "上矢切",
    "town_kana": "カミヤキリ",
    "street": null,
    "office_name": null,
    "office_name_kana": null
  },
  "0095": {
    "postcode": "2710095",
    "prefecture": "千葉県",
    "prefecture_kana": "チバケン",
    "prefecture_code": 12,
    "city": "松戸市",
    "city_kana": "マツドシ",
    "town": "中矢切",
    "town_kana": "ナカヤキリ",
    "street": null,
    "office_name": null,
    "office_name_kana": null
  },
  "0096": {
    "postcode": "2710096",
    "prefecture": "千葉県",
    "prefecture_kana": "チバケン",
    "prefecture_code": 12,
    "city": "松戸市",
    "city_kana": "マツドシ",
    "town": "下矢切",
    "town_kana": "シモヤキリ",
    "street": null,
    "office_name": null,
    "office_name_kana": null
  },
  "0097": {
    "postcode": "2710097",
    "prefecture": "千葉県",
    "prefecture_kana": "チバケン",
    "prefecture_code": 12,
    "city": "松戸市",
    "city_kana": "マツドシ",
    "town": "栗山",
    "town_kana": "クリヤマ",
    "street": null,
    "office_name": null,
    "office_name_kana": null
  },
  "8501": {
    "postcode": "2718501",
    "prefecture": "千葉県",
    "prefecture_kana": "チバケン",
    "prefecture_code": 12,
    "city": "松戸市",
    "city_kana": "マツドシ",
    "town": "本町",
    "town_kana": "ホンチョウ",
    "street": "１９−１５",
    "office_name": "大和証券　株式会社　松戸支店",
    "office_name_kana": "ダイワシヨウケン カブシキガイシヤ マツドシテン"
  },
  "8510": {
    "postcode": "2718510",
    "prefecture": "千葉県",
    "prefecture_kana": "チバケン",
    "prefecture_code": 12,
    "city": "松戸市",
    "city_kana": "マツドシ",
    "town": "松戸",
    "town_kana": "マツド",
    "street": "６４８",
    "office_name": "千葉大学　園芸学部",
    "office_name_kana": "チバダイガク エンゲイガクブ"
  },
  "8515": {
    "postcode": "2718515",
    "prefecture": "千葉県",
    "prefecture_kana": "チバケン",
    "prefecture_code": 12,
    "city": "松戸市",
    "city_kana": "マツドシ",
    "town": "上本郷",
    "town_kana": "カミホンゴウ",
    "street": "７０１",
    "office_name": "日本リーテック　株式会社　鉄道本部　中央支店",
    "office_name_kana": "ニツポンリ-テツク カブシキガイシヤ テツドウホンブ チユウオウシテン"
  },
  "8518": {
    "postcode": "2718518",
    "prefecture": "千葉県",
    "prefecture_kana": "チバケン",
    "prefecture_code": 12,
    "city": "松戸市",
    "city_kana": "マツドシ",
    "town": "岩瀬",
    "town_kana": "イワセ",
    "street": "４７３番地１８",
    "office_name": "千葉地方法務局　松戸支局",
    "office_name_kana": "チバチホウホウムキヨク マツドシキヨク"
  },
  "8522": {
    "postcode": "2718522",
    "prefecture": "千葉県",
    "prefecture_kana": "チバケン",
    "prefecture_code": 12,
    "city": "松戸市",
    "city_kana": "マツドシ",
    "town": "岩瀬",
    "town_kana": "イワセ",
    "street": "無番地",
    "office_name": "千葉地方裁判所　松戸支部",
    "office_name_kana": "チバチホウサイバンシヨ マツドシブ"
  },
  "8530": {
    "postcode": "2718530",
    "prefecture": "千葉県",
    "prefecture_kana": "チバケン",
    "prefecture_code": 12,
    "city": "松戸市",
    "city_kana": "マツドシ",
    "town": "上本郷",
    "town_kana": "カミホンゴウ",
    "street": "２４１−１",
    "office_name": "トラスコ中山　株式会社　プラネット東関東",
    "office_name_kana": "トラスコナカヤマ カブシキガイシヤ プラネツトヒガシカントウ"
  },
  "8533": {
    "postcode": "2718533",
    "prefecture": "千葉県",
    "prefecture_kana": "チバケン",
    "prefecture_code": 12,
    "city": "松戸市",
    "city_kana": "マツドシ",
    "town": "小根本",
    "town_kana": "コネモト",
    "street": "５３−３",
    "office_name": "松戸税務署",
    "office_name_kana": "マツドゼイムシヨ"
  },
  "8551": {
    "postcode": "2718551",
    "prefecture": "千葉県",
    "prefecture_kana": "チバケン",
    "prefecture_code": 12,
    "city": "松戸市",
    "city_kana": "マツドシ",
    "town": "松戸",
    "town_kana": "マツド",
    "street": "１１６９",
    "office_name": "聖徳大学　（１０号館）",
    "office_name_kana": "セイトクダイガク (10ゴウカン)"
  },
  "8555": {
    "postcode": "2718555",
    "prefecture": "千葉県",
    "prefecture_kana": "チバケン",
    "prefecture_code": 12,
    "city": "松戸市",
    "city_kana": "マツドシ",
    "town": "岩瀬",
    "town_kana": "イワセ",
    "street": "５５０",
    "office_name": "聖徳大学",
    "office_name_kana": "セイトクダイガク"
  },
  "8557": {
    "postcode": "2718557",
    "prefecture": "千葉県",
    "prefecture_kana": "チバケン",
    "prefecture_code": 12,
    "city": "松戸市",
    "city_kana": "マツドシ",
    "town": "松戸",
    "town_kana": "マツド",
    "street": "５５８−２",
    "office_name": "松戸警察署",
    "office_name_kana": "マツドケイサツシヨ"
  },
  "8560": {
    "postcode": "2718560",
    "prefecture": "千葉県",
    "prefecture_kana": "チバケン",
    "prefecture_code": 12,
    "city": "松戸市",
    "city_kana": "マツドシ",
    "town": "小根本",
    "town_kana": "コネモト",
    "street": "７",
    "office_name": "千葉県東葛飾県民センター",
    "office_name_kana": "チバケンヒガシカツシカケンミンセンタ-"
  },
  "8562": {
    "postcode": "2718562",
    "prefecture": "千葉県",
    "prefecture_kana": "チバケン",
    "prefecture_code": 12,
    "city": "松戸市",
    "city_kana": "マツドシ",
    "town": "小根本",
    "town_kana": "コネモト",
    "street": "７",
    "office_name": "松戸健康福祉センター",
    "office_name_kana": "マツドケンコウフクシセンタ-"
  },
  "8563": {
    "postcode": "2718563",
    "prefecture": "千葉県",
    "prefecture_kana": "チバケン",
    "prefecture_code": 12,
    "city": "松戸市",
    "city_kana": "マツドシ",
    "town": "小根本",
    "town_kana": "コネモト",
    "street": "７",
    "office_name": "千葉県教育庁　東葛飾教育事務所",
    "office_name_kana": "チバケンキヨウイクチヨウ ヒガシカツシカキヨウイクジムシヨ"
  },
  "8564": {
    "postcode": "2718564",
    "prefecture": "千葉県",
    "prefecture_kana": "チバケン",
    "prefecture_code": 12,
    "city": "松戸市",
    "city_kana": "マツドシ",
    "town": "小根本",
    "town_kana": "コネモト",
    "street": "７",
    "office_name": "千葉県松戸県税事務所",
    "office_name_kana": "チバケンマツドケンゼイジムシヨ"
  },
  "8580": {
    "postcode": "2718580",
    "prefecture": "千葉県",
    "prefecture_kana": "チバケン",
    "prefecture_code": 12,
    "city": "松戸市",
    "city_kana": "マツドシ",
    "town": "南花島向町",
    "town_kana": null,
    "street": "３１９",
    "office_name": "山崎製パン　株式会社松戸工場",
    "office_name_kana": "ヤマザキセイパン カブシキガイシヤマツドコウジヨウ"
  },
  "8585": {
    "postcode": "2718585",
    "prefecture": "千葉県",
    "prefecture_kana": "チバケン",
    "prefecture_code": 12,
    "city": "松戸市",
    "city_kana": "マツドシ",
    "town": "上本郷",
    "town_kana": "カミホンゴウ",
    "street": "２−３６２１",
    "office_name": "専修大学　松戸高等学校",
    "office_name_kana": "センシユウダイガク マツドコウトウガツコウ"
  },
  "8588": {
    "postcode": "2718588",
    "prefecture": "千葉県",
    "prefecture_kana": "チバケン",
    "prefecture_code": 12,
    "city": "松戸市",
    "city_kana": "マツドシ",
    "town": "根本",
    "town_kana": "ネモト",
    "street": "３８７−５",
    "office_name": "松戸市役所",
    "office_name_kana": "マツドシヤクシヨ"
  },
  "8620": {
    "postcode": "2718620",
    "prefecture": "千葉県",
    "prefecture_kana": "チバケン",
    "prefecture_code": 12,
    "city": "松戸市",
    "city_kana": "マツドシ",
    "town": "上本郷",
    "town_kana": "カミホンゴウ",
    "street": "２２４３−１（松戸郵便局私書箱第１１号）",
    "office_name": "とうかつ中央農業協同組合",
    "office_name_kana": "トウカツチユウオウノウギヨウキヨウドウクミアイ"
  },
  "8625": {
    "postcode": "2718625",
    "prefecture": "千葉県",
    "prefecture_kana": "チバケン",
    "prefecture_code": 12,
    "city": "松戸市",
    "city_kana": "マツドシ",
    "town": "本町",
    "town_kana": "ホンチョウ",
    "street": "２−５",
    "office_name": "ＳＭＢＣ日興証券　株式会社　松戸支店",
    "office_name_kana": "エスエムビ-シ-ニツコウシヨウケン カブシキガイシヤ マツドシテン"
  },
  "8666": {
    "postcode": "2718666",
    "prefecture": "千葉県",
    "prefecture_kana": "チバケン",
    "prefecture_code": 12,
    "city": "松戸市",
    "city_kana": "マツドシ",
    "town": "北松戸",
    "town_kana": "キタマツド",
    "street": "２丁目１−４（松戸郵便局私書箱第１３号）",
    "office_name": "関東つくば銀行　松戸支店",
    "office_name_kana": "カントウツクバギンコウ マツドシテン"
  },
  "8672": {
    "postcode": "2718672",
    "prefecture": "千葉県",
    "prefecture_kana": "チバケン",
    "prefecture_code": 12,
    "city": "松戸市",
    "city_kana": "マツドシ",
    "town": "松戸",
    "town_kana": "マツド",
    "street": "１８４６−２",
    "office_name": "商工組合中央金庫　松戸支店",
    "office_name_kana": "シヨウコウクミアイチユウオウキンコ マツドシテン"
  }
}