{
  "0000": {
    "postcode": "2720000",
    "prefecture": "千葉県",
    "prefecture_kana": "チバケン",
    "prefecture_code": 12,
    "city": "市川市",
    "city_kana": "イチカワシ",
    "town": "",
    "town_kana": "",
    "street": null,
    "office_name": null,
    "office_name_kana": null
  },
  "0001": {
    "postcode": "2720001",
    "prefecture": "千葉県",
    "prefecture_kana": "チバケン",
    "prefecture_code": 12,
    "city": "市川市",
    "city_kana": "イチカワシ",
    "town": "二俣",
    "town_kana": "フタマタ",
    "street": null,
    "office_name": null,
    "office_name_kana": null
  },
  "0002": {
    "postcode": "2720002",
    "prefecture": "千葉県",
    "prefecture_kana": "チバケン",
    "prefecture_code": 12,
    "city": "市川市",
    "city_kana": "イチカワシ",
    "town": "二俣新町",
    "town_kana": "フタマタシンマチ",
    "street": null,
    "office_name": null,
    "office_name_kana": null
  },
  "0003": {
    "postcode": "2720003",
    "prefecture": "千葉県",
    "prefecture_kana": "チバケン",
    "prefecture_code": 12,
    "city": "市川市",
    "city_kana": "イチカワシ",
    "town": "東浜",
    "town_kana": "ヒガシハマ",
    "street": null,
    "office_name": null,
    "office_name_kana": null
  },
  "0004": {
    "postcode": "2720004",
    "prefecture": "千葉県",
    "prefecture_kana": "チバケン",
    "prefecture_code": 12,
    "city": "市川市",
    "city_kana": "イチカワシ",
    "town": "原木",
    "town_kana": "バラキ",
    "street": null,
    "office_name": null,
    "office_name_kana": null
  },
  "0011": {
    "postcode": "2720011",
    "prefecture": "千葉県",
    "prefecture_kana": "チバケン",
    "prefecture_code": 12,
    "city": "市川市",
    "city_kana": "イチカワシ",
    "town": "高谷新町",
    "town_kana": "コウヤシンマチ",
    "street": null,
    "office_name": null,
    "office_name_kana": null
  },
  "0012": {
    "postcode": "2720012",
    "prefecture": "千葉県",
    "prefecture_kana": "チバケン",
    "prefecture_code": 12,
    "city": "市川市",
    "city_kana": "イチカワシ",
    "town": "上妙典",
    "town_kana": "カミミョウデン",
    "street": null,
    "office_name": null,
    "office_name_kana": null
  },
  "0013": {
    "postcode": "2720013",
    "prefecture": "千葉県",
    "prefecture_kana": "チバケン",
    "prefecture_code": 12,
    "city": "市川市",
    "city_kana": "イチカワシ",
    "town": "高谷",
    "town_kana": "コウヤ",
    "street": null,
    "office_name": null,
    "office_name_kana": null
  },
  "0014": {
    "postcode": "2720014",
    "prefecture": "千葉県",
    "prefecture_kana": "チバケン",
    "prefecture_code": 12,
    "city": "市川市",
    "city_kana": "イチカワシ",
    "town": "田尻",
    "town_kana": "タジリ",
    "street": null,
    "office_name": null,
    "office_name_kana": null
  },
  "0015": {
    "postcode": "2720015",
    "prefecture": "千葉県",
    "prefecture_kana": "チバケン",
    "prefecture_code": 12,
    "city": "市川市",
    "city_kana": "イチカワシ",
    "town": "鬼高",
    "town_kana": "オニタカ",
    "street": null,
    "office_name": null,
    "office_name_kana": null
  },
  "0021": {
    "postcode": "2720021",
    "prefecture": "千葉県",
    "prefecture_kana": "チバケン",
    "prefecture_code": 12,
    "city": "市川市",
    "city_kana": "イチカワシ",
    "town": "八幡",
    "town_kana": "ヤワタ",
    "street": null,
    "office_name": null,
    "office_name_kana": null
  },
  "0022": {
    "postcode": "2720022",
    "prefecture": "千葉県",
    "prefecture_kana": "チバケン",
    "prefecture_code": 12,
    "city": "市川市",
    "city_kana": "イチカワシ",
    "town": "鬼越",
    "town_kana": "オニゴエ",
    "street": null,
    "office_name": null,
    "office_name_kana": null
  },
  "0023": {
    "postcode": "2720023",
    "prefecture": "千葉県",
    "prefecture_kana": "チバケン",
    "prefecture_code": 12,
    "city": "市川市",
    "city_kana": "イチカワシ",
    "town": "南八幡",
    "town_kana": "ミナミヤワタ",
    "street": null,
    "office_name": null,
    "office_name_kana": null
  },
  "0024": {
    "postcode": "2720024",
    "prefecture": "千葉県",
    "prefecture_kana": "チバケン",
    "prefecture_code": 12,
    "city": "市川市",
    "city_kana": "イチカワシ",
    "town": "稲荷木",
    "town_kana": "トウカギ",
    "street": null,
    "office_name": null,
    "office_name_kana": null
  },
  "0025": {
    "postcode": "2720025",
    "prefecture": "千葉県",
    "prefecture_kana": "チバケン",
    "prefecture_code": 12,
    "city": "市川市",
    "city_kana": "イチカワシ",
    "town": "大和田",
    "town_kana": "オオワダ",
    "street": null,
    "office_name": null,
    "office_name_kana": null
  },
  "0026": {
    "postcode": "2720026",
    "prefecture": "千葉県",
    "prefecture_kana": "チバケン",
    "prefecture_code": 12,
    "city": "市川市",
    "city_kana": "イチカワシ",
    "town": "東大和田",
    "town_kana": "ヒガシオオワダ",
    "street": null,
    "office_name": null,
    "office_name_kana": null
  },
  "0031": {
    "postcode": "2720031",
    "prefecture": "千葉県",
    "prefecture_kana": "チバケン",
    "prefecture_code": 12,
    "city": "市川市",
    "city_kana": "イチカワシ",
    "town": "平田",
    "town_kana": "ヒラタ",
    "street": null,
    "office_name": null,
    "office_name_kana": null
  },
  "0032": {
    "postcode": "2720032",
    "prefecture": "千葉県",
    "prefecture_kana": "チバケン",
    "prefecture_code": 12,
    "city": "市川市",
    "city_kana": "イチカワシ",
    "town": "大洲",
    "town_kana": "オオス",
    "street": null,
    "office_name": null,
    "office_name_kana": null
  },
  "0033": {
    "postcode": "2720033",
    "prefecture": "千葉県",
    "prefecture_kana": "チバケン",
    "prefecture_code": 12,
    "city": "市川市",
    "city_kana": "イチカワシ",
    "town": "市川南",
    "town_kana": "イチカワミナミ",
    "street": null,
    "office_name": null,
    "office_name_kana": null
  },
  "0034": {
    "postcode": "2720034",
    "prefecture": "千葉県",
    "prefecture_kana": "チバケン",
    "prefecture_code": 12,
    "city": "市川市",
    "city_kana": "イチカワシ",
    "town": "市川",
    "town_kana": "イチカワ",
    "street": null,
    "office_name": null,
    "office_name_kana": null
  },
  "0035": {
    "postcode": "2720035",
    "prefecture": "千葉県",
    "prefecture_kana": "チバケン",
    "prefecture_code": 12,
    "city": "市川市",
    "city_kana": "イチカワシ",
    "town": "新田",
    "town_kana": "シンデン",
    "street": null,
    "office_name": null,
    "office_name_kana": null
  },
  "0101": {
    "postcode": "2720101",
    "prefecture": "千葉県",
    "prefecture_kana": "チバケン",
    "prefecture_code": 12,
    "city": "市川市",
    "city_kana": "イチカワシ",
    "town": "河原",
    "town_kana": "カワラ",
    "street": null,
    "office_name": null,
    "office_name_kana": null
  },
  "0102": {
    "postcode": "2720102",
    "prefecture": "千葉県",
    "prefecture_kana": "チバケン",
    "prefecture_code": 12,
    "city": "市川市",
    "city_kana": "イチカワシ",
    "town": "下新宿",
    "town_kana": "シモシンシュク",
    "street": null,
    "office_name": null,
    "office_name_kana": null
  },
  "0103": {
    "postcode": "2720103",
    "prefecture": "千葉県",
    "prefecture_kana": "チバケン",
    "prefecture_code": 12,
    "city": "市川市",
    "city_kana": "イチカワシ",
    "town": "本行徳",
    "town_kana": "ホンギョウトク",
    "street": null,
    "office_name": null,
    "office_name_kana": null
  },
  "0104": {
    "postcode": "2720104",
    "prefecture": "千葉県",
    "prefecture_kana": "チバケン",
    "prefecture_code": 12,
    "city": "市川市",
    "city_kana": "イチカワシ",
    "town": "本塩",
    "town_kana": "ホンシオ",
    "street": null,
    "office_name": null,
    "office_name_kana": null
  },
  "0105": {
    "postcode": "2720105",
    "prefecture": "千葉県",
    "prefecture_kana": "チバケン",
    "prefecture_code": 12,
    "city": "市川市",
    "city_kana": "イチカワシ",
    "town": "関ケ島",
    "town_kana": "セキガシマ",
    "street": null,
    "office_name": null,
    "office_name_kana": null
  },
  "0106": {
    "postcode": "2720106",
    "prefecture": "千葉県",
    "prefecture_kana": "チバケン",
    "prefecture_code": 12,
    "city": "市川市",
    "city_kana": "イチカワシ",
    "town": "伊勢宿",
    "town_kana": "イセジュク",
    "street": null,
    "office_name": null,
    "office_name_kana": null
  },
  "0107": {
    "postcode": "2720107",
    "prefecture": "千葉県",
    "prefecture_kana": "チバケン",
    "prefecture_code": 12,
    "city": "市川市",
    "city_kana": "イチカワシ",
    "town": "押切",
    "town_kana": "オシキリ",
    "street": null,
    "office_name": null,
    "office_name_kana": null
  },
  "0111": {
    "postcode": "2720111",
    "prefecture": "千葉県",
    "prefecture_kana": "チバケン",
    "prefecture_code": 12,
    "city": "市川市",
    "city_kana": "イチカワシ",
    "town": "妙典",
    "town_kana": "ミョウデン",
    "street": null,
    "office_name": null,
    "office_name_kana": null
  },
  "0112": {
    "postcode": "2720112",
    "prefecture": "千葉県",
    "prefecture_kana": "チバケン",
    "prefecture_code": 12,
    "city": "市川市",
    "city_kana": "イチカワシ",
    "town": "上妙典",
    "town_kana": "カミミョウデン",
    "street": null,
    "office_name": null,
    "office_name_kana": null
  },
  "0113": {
    "postcode": "2720113",
    "prefecture": "千葉県",
    "prefecture_kana": "チバケン",
    "prefecture_code": 12,
    "city": "市川市",
    "city_kana": "イチカワシ",
    "town": "下妙典",
    "town_kana": "シモミョウデン",
    "street": null,
    "office_name": null,
    "office_name_kana": null
  },
  "0114": {
    "postcode": "2720114",
    "prefecture": "千葉県",
    "prefecture_kana": "チバケン",
    "prefecture_code": 12,
    "city": "市川市",
    "city_kana": "イチカワシ",
    "town": "塩焼",
    "town_kana": "シオヤキ",
    "street": null,
    "office_name": null,
    "office_name_kana": null
  },
  "0115": {
    "postcode": "2720115",
    "prefecture": "千葉県",
    "prefecture_kana": "チバケン",
    "prefecture_code": 12,
    "city": "市川市",
    "city_kana": "イチカワシ",
    "town": "富浜",
    "town_kana": "トミハマ",
    "street": null,
    "office_name": null,
    "office_name_kana": null
  },
  "0121": {
    "postcode": "2720121",
    "prefecture": "千葉県",
    "prefecture_kana": "チバケン",
    "prefecture_code": 12,
    "city": "市川市",
    "city_kana": "イチカワシ",
    "town": "末広",
    "town_kana": "スエヒロ",
    "street": null,
    "office_name": null,
    "office_name_kana": null
  },
  "0122": {
    "postcode": "2720122",
    "prefecture": "千葉県",
    "prefecture_kana": "チバケン",
    "prefecture_code": 12,
    "city": "市川市",
    "city_kana": "イチカワシ",
    "town": "宝",
    "town_kana": "タカラ",
    "street": null,
    "office_name": null,
    "office_name_kana": null
  },
  "0123": {
    "postcode": "2720123",
    "prefecture": "千葉県",
    "prefecture_kana": "チバケン",
    "prefecture_code": 12,
    "city": "市川市",
    "city_kana": "イチカワシ",
    "town": "幸",
    "town_kana": "サイワイ",
    "street": null,
    "office_name": null,
    "office_name_kana": null
  },
  "0124": {
    "postcode": "2720124",
    "prefecture": "千葉県",
    "prefecture_kana": "チバケン",
    "prefecture_code": 12,
    "city": "市川市",
    "city_kana": "イチカワシ",
    "town": "加藤新田",
    "town_kana": "カトウシンデン",
    "street": null,
    "office_name": null,
    "office_name_kana": null
  },
  "0125": {
    "postcode": "2720125",
    "prefecture": "千葉県",
    "prefecture_kana": "チバケン",
    "prefecture_code": 12,
    "city": "市川市",
    "city_kana": "イチカワシ",
    "town": "高浜町",
    "town_kana": "タカハママチ",
    "street": null,
    "office_name": null,
    "office_name_kana": null
  },
  "0126": {
    "postcode": "2720126",
    "prefecture": "千葉県",
    "prefecture_kana": "チバケン",
    "prefecture_code": 12,
    "city": "市川市",
    "city_kana": "イチカワシ",
    "town": "千鳥町",
    "town_kana": "チドリチョウ",
    "street": null,
    "office_name": null,
    "office_name_kana": null
  },
  "0127": {
    "postcode": "2720127",
    "prefecture": "千葉県",
    "prefecture_kana": "チバケン",
    "prefecture_code": 12,
    "city": "市川市",
    "city_kana": "イチカワシ",
    "town": "塩浜",
    "town_kana": "シオハマ",
    "street": null,
    "office_name": null,
    "office_name_kana": null
  },
  "0131": {
    "postcode": "2720131",
    "prefecture": "千葉県",
    "prefecture_kana": "チバケン",
    "prefecture_code": 12,
    "city": "市川市",
    "city_kana": "イチカワシ",
    "town": "湊",
    "town_kana": "ミナト",
    "street": null,
    "office_name": null,
    "office_name_kana": null
  },
  "0132": {
    "postcode": "2720132",
    "prefecture": "千葉県",
    "prefecture_kana": "チバケン",
    "prefecture_code": 12,
    "city": "市川市",
    "city_kana": "イチカワシ",
    "town": "湊新田",
    "town_kana": "ミナトシンデン",
    "street": null,
    "office_name": null,
    "office_name_kana": null
  },
  "0133": {
    "postcode": "2720133",
    "prefecture": "千葉県",
    "prefecture_kana": "チバケン",
    "prefecture_code": 12,
    "city": "市川市",
    "city_kana": "イチカワシ",
    "town": "行徳駅前",
    "town_kana": "ギョウトクエキマエ",
    "street": null,
    "office_name": null,
    "office_name_kana": null
  },
  "0134": {
    "postcode": "2720134",
    "prefecture": "千葉県",
    "prefecture_kana": "チバケン",
    "prefecture_code": 12,
    "city": "市川市",
    "city_kana": "イチカワシ",
    "town": "入船",
    "town_kana": "イリフネ",
    "street": null,
    "office_name": null,
    "office_name_kana": null
  },
  "0135": {
    "postcode": "2720135",
    "prefecture": "千葉県",
    "prefecture_kana": "チバケン",
    "prefecture_code": 12,
    "city": "市川市",
    "city_kana": "イチカワシ",
    "town": "日之出",
    "town_kana": "ヒノデ",
    "street": null,
    "office_name": null,
    "office_name_kana": null
  },
  "0136": {
    "postcode": "2720136",
    "prefecture": "千葉県",
    "prefecture_kana": "チバケン",
    "prefecture_code": 12,
    "city": "市川市",
    "city_kana": "イチカワシ",
    "town": "新浜",
    "town_kana": "ニイハマ",
    "street": null,
    "office_name": null,
    "office_name_kana": null
  },
  "0137": {
    "postcode": "2720137",
    "prefecture": "千葉県",
    "prefecture_kana": "チバケン",
    "prefecture_code": 12,
    "city": "市川市",
    "city_kana": "イチカワシ",
    "town": "福栄",
    "town_kana": "フクエイ",
    "street": null,
    "office_name": null,
    "office_name_kana": null
  },
  "0138": {
    "postcode": "2720138",
    "prefecture": "千葉県",
    "prefecture_kana": "チバケン",
    "prefecture_code": 12,
    "city": "市川市",
    "city_kana": "イチカワシ",
    "town": "南行徳",
    "town_kana": "ミナミギョウトク",
    "street": null,
    "office_name": null,
    "office_name_kana": null
  },
  "0141": {
    "postcode": "2720141",
    "prefecture": "千葉県",
    "prefecture_kana": "チバケン",
    "prefecture_code": 12,
    "city": "市川市",
    "city_kana": "イチカワシ",
    "town": "香取",
    "town_kana": "カンドリ",
    "street": null,
    "office_name": null,
    "office_name_kana": null
  },
  "0142": {
    "postcode": "2720142",
    "prefecture": "千葉県",
    "prefecture_kana": "チバケン",
    "prefecture_code": 12,
    "city": "市川市",
    "city_kana": "イチカワシ",
    "town": "欠真間",
    "town_kana": "カケママ",
    "street": null,
    "office_name": null,
    "office_name_kana": null
  },
  "0143": {
    "postcode": "2720143",
    "prefecture": "千葉県",
    "prefecture_kana": "チバケン",
    "prefecture_code": 12,
    "city": "市川市",
    "city_kana": "イチカワシ",
    "town": "相之川",
    "town_kana": "アイノカワ",
    "street": null,
    "office_name": null,
    "office_name_kana": null
  },
  "0144": {
    "postcode": "2720144",
    "prefecture": "千葉県",
    "prefecture_kana": "チバケン",
    "prefecture_code": 12,
    "city": "市川市",
    "city_kana": "イチカワシ",
    "town": "新井",
    "town_kana": "アライ",
    "street": null,
    "office_name": null,
    "office_name_kana": null
  },
  "0145": {
    "postcode": "2720145",
    "prefecture": "千葉県",
    "prefecture_kana": "チバケン",
    "prefecture_code": 12,
    "city": "市川市",
    "city_kana": "イチカワシ",
    "town": "島尻",
    "town_kana": "シマジリ",
    "street": null,
    "office_name": null,
    "office_name_kana": null
  },
  "0146": {
    "postcode": "2720146",
    "prefecture": "千葉県",
    "prefecture_kana": "チバケン",
    "prefecture_code": 12,
    "city": "市川市",
    "city_kana": "イチカワシ",
    "town": "広尾",
    "town_kana": "ヒロオ",
    "street": null,
    "office_name": null,
    "office_name_kana": null
  },
  "0188": {
    "postcode": "2720188",
    "prefecture": "千葉県",
    "prefecture_kana": "チバケン",
    "prefecture_code": 12,
    "city": "市川市",
    "city_kana": "イチカワシ",
    "town": "塩浜",
    "town_kana": "シオハマ",
    "street": "１−１２（三井不動産ロジスティックスパーク市川塩浜Ⅱ内）",
    "office_name": "日本郵便輸送　株式会社　市川営業所",
    "office_name_kana": "ニホンユウビンユソウ カブシキカイシヤ イチカワエイギヨウシヨ"
  },
  "0193": {
    "postcode": "2720193",
    "prefecture": "千葉県",
    "prefecture_kana": "チバケン",
    "prefecture_code": 12,
    "city": "市川市",
    "city_kana": "イチカワシ",
    "town": "塩浜",
    "town_kana": "シオハマ",
    "street": "２−１３−１",
    "office_name": "アマゾン　市川ＦＣ　入庫係",
    "office_name_kana": "アマゾン イチカワエフシ- ニユウコカカリ"
  },
  "0195": {
    "postcode": "2720195",
    "prefecture": "千葉県",
    "prefecture_kana": "チバケン",
    "prefecture_code": 12,
    "city": "市川市",
    "city_kana": "イチカワシ",
    "town": "塩浜",
    "town_kana": "シオハマ",
    "street": "１−６−３ＧＬＰ・ＭＦＬＰ市川塩浜",
    "office_name": "ＪＰ楽天ロジスティクス　株式会社　楽天フルフィルメントセンター市川Ⅱ",
    "office_name_kana": "ジエイピ-ラクテンロジステイクス カブシキガイシヤ ラクテンフルフイルメントセンタ-イチカワトウ-"
  },
  "0801": {
    "postcode": "2720801",
    "prefecture": "千葉県",
    "prefecture_kana": "チバケン",
    "prefecture_code": 12,
    "city": "市川市",
    "city_kana": "イチカワシ",
    "town": "大町",
    "town_kana": "オオマチ",
    "street": null,
    "office_name": null,
    "office_name_kana": null
  },
  "0802": {
    "postcode": "2720802",
    "prefecture": "千葉県",
    "prefecture_kana": "チバケン",
    "prefecture_code": 12,
    "city": "市川市",
    "city_kana": "イチカワシ",
    "town": "柏井町",
    "town_kana": "カシワイマチ",
    "street": null,
    "office_name": null,
    "office_name_kana": null
  },
  "0803": {
    "postcode": "2720803",
    "prefecture": "千葉県",
    "prefecture_kana": "チバケン",
    "prefecture_code": 12,
    "city": "市川市",
    "city_kana": "イチカワシ",
    "town": "奉免町",
    "town_kana": "ホウメマチ",
    "street": null,
    "office_name": null,
    "office_name_kana": null
  },
  "0804": {
    "postcode": "2720804",
    "prefecture": "千葉県",
    "prefecture_kana": "チバケン",
    "prefecture_code": 12,
    "city": "市川市",
    "city_kana": "イチカワシ",
    "town": "南大野",
    "town_kana": "ミナミオオノ",
    "street": null,
    "office_name": null,
    "office_name_kana": null
  },
  "0805": {
    "postcode": "2720805",
    "prefecture": "千葉県",
    "prefecture_kana": "チバケン",
    "prefecture_code": 12,
    "city": "市川市",
    "city_kana": "イチカワシ",
    "town": "大野町",
    "town_kana": "オオノマチ",
    "street": null,
    "office_name": null,
    "office_name_kana": null
  },
  "0811": {
    "postcode": "2720811",
    "prefecture": "千葉県",
    "prefecture_kana": "チバケン",
    "prefecture_code": 12,
    "city": "市川市",
    "city_kana": "イチカワシ",
    "town": "北方町",
    "town_kana": "ボッケマチ",
    "street": null,
    "office_name": null,
    "office_name_kana": null
  },
  "0812": {
    "postcode": "2720812",
    "prefecture": "千葉県",
    "prefecture_kana": "チバケン",
    "prefecture_code": 12,
    "city": "市川市",
    "city_kana": "イチカワシ",
    "town": "若宮",
    "town_kana": "ワカミヤ",
    "street": null,
    "office_name": null,
    "office_name_kana": null
  },
  "0813": {
    "postcode": "2720813",
    "prefecture": "千葉県",
    "prefecture_kana": "チバケン",
    "prefecture_code": 12,
    "city": "市川市",
    "city_kana": "イチカワシ",
    "town": "中山",
    "town_kana": "ナカヤマ",
    "street": null,
    "office_name": null,
    "office_name_kana": null
  },
  "0814": {
    "postcode": "2720814",
    "prefecture": "千葉県",
    "prefecture_kana": "チバケン",
    "prefecture_code": 12,
    "city": "市川市",
    "city_kana": "イチカワシ",
    "town": "高石神",
    "town_kana": "タカイシガミ",
    "street": null,
    "office_name": null,
    "office_name_kana": null
  },
  "0815": {
    "postcode": "2720815",
    "prefecture": "千葉県",
    "prefecture_kana": "チバケン",
    "prefecture_code": 12,
    "city": "市川市",
    "city_kana": "イチカワシ",
    "town": "北方",
    "town_kana": "キタカタ",
    "street": null,
    "office_name": null,
    "office_name_kana": null
  },
  "0816": {
    "postcode": "2720816",
    "prefecture": "千葉県",
    "prefecture_kana": "チバケン",
    "prefecture_code": 12,
    "city": "市川市",
    "city_kana": "イチカワシ",
    "town": "本北方",
    "town_kana": "モトキタカタ",
    "street": null,
    "office_name": null,
    "office_name_kana": null
  },
  "0821": {
    "postcode": "2720821",
    "prefecture": "千葉県",
    "prefecture_kana": "チバケン",
    "prefecture_code": 12,
    "city": "市川市",
    "city_kana": "イチカワシ",
    "town": "下貝塚",
    "town_kana": "シモカイヅカ",
    "street": null,
    "office_name": null,
    "office_name_kana": null
  },
  "0822": {
    "postcode": "2720822",
    "prefecture": "千葉県",
    "prefecture_kana": "チバケン",
    "prefecture_code": 12,
    "city": "市川市",
    "city_kana": "イチカワシ",
    "town": "宮久保",
    "town_kana": "ミヤクボ",
    "street": null,
    "office_name": null,
    "office_name_kana": null
  },
  "0823": {
    "postcode": "2720823",
    "prefecture": "千葉県",
    "prefecture_kana": "チバケン",
    "prefecture_code": 12,
    "city": "市川市",
    "city_kana": "イチカワシ",
    "town": "東菅野",
    "town_kana": "ヒガシスガノ",
    "street": null,
    "office_name": null,
    "office_name_kana": null
  },
  "0824": {
    "postcode": "2720824",
    "prefecture": "千葉県",
    "prefecture_kana": "チバケン",
    "prefecture_code": 12,
    "city": "市川市",
    "city_kana": "イチカワシ",
    "town": "菅野",
    "town_kana": "スガノ",
    "street": null,
    "office_name": null,
    "office_name_kana": null
  },
  "0825": {
    "postcode": "2720825",
    "prefecture": "千葉県",
    "prefecture_kana": "チバケン",
    "prefecture_code": 12,
    "city": "市川市",
    "city_kana": "イチカワシ",
    "town": "須和田",
    "town_kana": "スワダ",
    "street": null,
    "office_name": null,
    "office_name_kana": null
  },
  "0826": {
    "postcode": "2720826",
    "prefecture": "千葉県",
    "prefecture_kana": "チバケン",
    "prefecture_code": 12,
    "city": "市川市",
    "city_kana": "イチカワシ",
    "town": "真間",
    "town_kana": "ママ",
    "street": null,
    "office_name": null,
    "office_name_kana": null
  },
  "0827": {
    "postcode": "2720827",
    "prefecture": "千葉県",
    "prefecture_kana": "チバケン",
    "prefecture_code": 12,
    "city": "市川市",
    "city_kana": "イチカワシ",
    "town": "国府台",
    "town_kana": "コウノダイ",
    "street": null,
    "office_name": null,
    "office_name_kana": null
  },
  "0831": {
    "postcode": "2720831",
    "prefecture": "千葉県",
    "prefecture_kana": "チバケン",
    "prefecture_code": 12,
    "city": "市川市",
    "city_kana": "イチカワシ",
    "town": "稲越",
    "town_kana": "イナゴシ",
    "street": null,
    "office_name": null,
    "office_name_kana": null
  },
  "0832": {
    "postcode": "2720832",
    "prefecture": "千葉県",
    "prefecture_kana": "チバケン",
    "prefecture_code": 12,
    "city": "市川市",
    "city_kana": "イチカワシ",
    "town": "曽谷",
    "town_kana": "ソヤ",
    "street": null,
    "office_name": null,
    "office_name_kana": null
  },
  "0833": {
    "postcode": "2720833",
    "prefecture": "千葉県",
    "prefecture_kana": "チバケン",
    "prefecture_code": 12,
    "city": "市川市",
    "city_kana": "イチカワシ",
    "town": "東国分",
    "town_kana": "ヒガシコクブン",
    "street": null,
    "office_name": null,
    "office_name_kana": null
  },
  "0834": {
    "postcode": "2720834",
    "prefecture": "千葉県",
    "prefecture_kana": "チバケン",
    "prefecture_code": 12,
    "city": "市川市",
    "city_kana": "イチカワシ",
    "town": "国分",
    "town_kana": "コクブン",
    "street": null,
    "office_name": null,
    "office_name_kana": null
  },
  "0835": {
    "postcode": "2720835",
    "prefecture": "千葉県",
    "prefecture_kana": "チバケン",
    "prefecture_code": 12,
    "city": "市川市",
    "city_kana": "イチカワシ",
    "town": "中国分",
    "town_kana": "ナカコクブン",
    "street": null,
    "office_name": null,
    "office_name_kana": null
  },
  "0836": {
    "postcode": "2720836",
    "prefecture": "千葉県",
    "prefecture_kana": "チバケン",
    "prefecture_code": 12,
    "city": "市川市",
    "city_kana": "イチカワシ",
    "town": "北国分",
    "town_kana": "キタコクブン",
    "street": null,
    "office_name": null,
    "office_name_kana": null
  },
  "0837": {
    "postcode": "2720837",
    "prefecture": "千葉県",
    "prefecture_kana": "チバケン",
    "prefecture_code": 12,
    "city": "市川市",
    "city_kana": "イチカワシ",
    "town": "堀之内",
    "town_kana": "ホリノウチ",
    "street": null,
    "office_name": null,
    "office_name_kana": null
  },
  "8501": {
    "postcode": "2728501",
    "prefecture": "千葉県",
    "prefecture_kana": "チバケン",
    "prefecture_code": 12,
    "city": "市川市",
    "city_kana": "イチカワシ",
    "town": "八幡",
    "town_kana": "ヤワタ",
    "street": "１丁目１−１",
    "office_name": "市川市役所",
    "office_name_kana": "イチカワシヤクシヨ"
  },
  "8510": {
    "postcode": "2728510",
    "prefecture": "千葉県",
    "prefecture_kana": "チバケン",
    "prefecture_code": 12,
    "city": "市川市",
    "city_kana": "イチカワシ",
    "town": "八幡",
    "town_kana": "ヤワタ",
    "street": "三丁目３番１号",
    "office_name": "京成電鉄　株式会社",
    "office_name_kana": "ケイセイデンテツ カブシキガイシヤ"
  },
  "8511": {
    "postcode": "2728511",
    "prefecture": "千葉県",
    "prefecture_kana": "チバケン",
    "prefecture_code": 12,
    "city": "市川市",
    "city_kana": "イチカワシ",
    "town": "鬼高",
    "town_kana": "オニタカ",
    "street": "２丁目２０−２０",
    "office_name": "市川簡易裁判所千葉家庭裁判所　市川出張所",
    "office_name_kana": "イチカワカンイサイバンシヨチバカテイサイバンシヨ イチカワシユツチヨウジヨ"
  },
  "8512": {
    "postcode": "2728512",
    "prefecture": "千葉県",
    "prefecture_kana": "チバケン",
    "prefecture_code": 12,
    "city": "市川市",
    "city_kana": "イチカワシ",
    "town": "国府台",
    "town_kana": "コウノダイ",
    "street": "１丁目３−１",
    "office_name": "学校法人　千葉学園",
    "office_name_kana": "ガツコウホウジン チバガクエン"
  },
  "8513": {
    "postcode": "2728513",
    "prefecture": "千葉県",
    "prefecture_kana": "チバケン",
    "prefecture_code": 12,
    "city": "市川市",
    "city_kana": "イチカワシ",
    "town": "菅野",
    "town_kana": "スガノ",
    "street": "５丁目１１−１３",
    "office_name": "東京歯科大学市川総合病院",
    "office_name_kana": "トウキヨウシカダイガクイチカワソウゴウビヨウイン"
  },
  "8514": {
    "postcode": "2728514",
    "prefecture": "千葉県",
    "prefecture_kana": "チバケン",
    "prefecture_code": 12,
    "city": "市川市",
    "city_kana": "イチカワシ",
    "town": "市川",
    "town_kana": "イチカワ",
    "street": "３−３０−１",
    "office_name": "株式会社　京成ストア",
    "office_name_kana": "カブシキガイシヤ ケイセイストア"
  },
  "8516": {
    "postcode": "2728516",
    "prefecture": "千葉県",
    "prefecture_kana": "チバケン",
    "prefecture_code": 12,
    "city": "市川市",
    "city_kana": "イチカワシ",
    "town": "国府台",
    "town_kana": "コウノダイ",
    "street": "１丁目７−１",
    "office_name": "国立国際医療研究センター国府台病院",
    "office_name_kana": "コクリツコクサイイリヨウケンキユウセンタ-コウノダイビヨウイン"
  },
  "8518": {
    "postcode": "2728518",
    "prefecture": "千葉県",
    "prefecture_kana": "チバケン",
    "prefecture_code": 12,
    "city": "市川市",
    "city_kana": "イチカワシ",
    "town": "八幡",
    "town_kana": "ヤワタ",
    "street": "２丁目３−１１",
    "office_name": "株式会社　市進",
    "office_name_kana": "カブシキガイシヤ イチシン"
  },
  "8520": {
    "postcode": "2728520",
    "prefecture": "千葉県",
    "prefecture_kana": "チバケン",
    "prefecture_code": 12,
    "city": "市川市",
    "city_kana": "イチカワシ",
    "town": "平田",
    "town_kana": "ヒラタ",
    "street": "３丁目１０−１０",
    "office_name": "千葉県立市川工業高等学校",
    "office_name_kana": "チバケンリツイチカワコウギヨウコウトウガツコウ"
  },
  "8522": {
    "postcode": "2728522",
    "prefecture": "千葉県",
    "prefecture_kana": "チバケン",
    "prefecture_code": 12,
    "city": "市川市",
    "city_kana": "イチカワシ",
    "town": "南八幡",
    "town_kana": "ミナミヤワタ",
    "street": "２丁目２１−１",
    "office_name": "市川商工会議所",
    "office_name_kana": "イチカワシヨウコウカイギシヨ"
  },
  "8530": {
    "postcode": "2728530",
    "prefecture": "千葉県",
    "prefecture_kana": "チバケン",
    "prefecture_code": 12,
    "city": "市川市",
    "city_kana": "イチカワシ",
    "town": "市川",
    "town_kana": "イチカワ",
    "street": "１丁目９番２号サンプラザ３５ビル",
    "office_name": "山崎製パン　株式会社　デイリーヤマザキ事業統括本部",
    "office_name_kana": "ヤマザキセイパン カブシキガイシヤ デイリ-ヤマザキジギヨウトウカツホンブ"
  },
  "8533": {
    "postcode": "2728533",
    "prefecture": "千葉県",
    "prefecture_kana": "チバケン",
    "prefecture_code": 12,
    "city": "市川市",
    "city_kana": "イチカワシ",
    "town": "国府台",
    "town_kana": "コウノダイ",
    "street": "２丁目３−１",
    "office_name": "和洋学園",
    "office_name_kana": "ワヨウガクエン"
  },
  "8538": {
    "postcode": "2728538",
    "prefecture": "千葉県",
    "prefecture_kana": "チバケン",
    "prefecture_code": 12,
    "city": "市川市",
    "city_kana": "イチカワシ",
    "town": "田尻",
    "town_kana": "タジリ",
    "street": "１丁目１１−５",
    "office_name": "株式会社　スズキ技研",
    "office_name_kana": "カブシキガイシヤ スズキギケン"
  },
  "8540": {
    "postcode": "2728540",
    "prefecture": "千葉県",
    "prefecture_kana": "チバケン",
    "prefecture_code": 12,
    "city": "市川市",
    "city_kana": "イチカワシ",
    "town": "八幡",
    "town_kana": "ヤワタ",
    "street": "３−３−１",
    "office_name": "京成バス　株式会社",
    "office_name_kana": "ケイセイバス カブシキガイシヤ"
  },
  "8543": {
    "postcode": "2728543",
    "prefecture": "千葉県",
    "prefecture_kana": "チバケン",
    "prefecture_code": 12,
    "city": "市川市",
    "city_kana": "イチカワシ",
    "town": "南八幡",
    "town_kana": "ミナミヤワタ",
    "street": "５丁目１１−２１",
    "office_name": "市川公共職業安定所",
    "office_name_kana": "イチカワコウキヨウシヨクギヨウアンテイジヨ"
  },
  "8550": {
    "postcode": "2728550",
    "prefecture": "千葉県",
    "prefecture_kana": "チバケン",
    "prefecture_code": 12,
    "city": "市川市",
    "city_kana": "イチカワシ",
    "town": "新田",
    "town_kana": "シンデン",
    "street": "５丁目６−３",
    "office_name": "ユトー　株式会社",
    "office_name_kana": "ユト- カブシキガイシヤ"
  },
  "8555": {
    "postcode": "2728555",
    "prefecture": "千葉県",
    "prefecture_kana": "チバケン",
    "prefecture_code": 12,
    "city": "市川市",
    "city_kana": "イチカワシ",
    "town": "大和田",
    "town_kana": "オオワダ",
    "street": "１丁目１−５",
    "office_name": "財団法人　市川市文化振興財団",
    "office_name_kana": "ザイダンホウジン イチカワシブンカシンコウザイダン"
  },
  "8558": {
    "postcode": "2728558",
    "prefecture": "千葉県",
    "prefecture_kana": "チバケン",
    "prefecture_code": 12,
    "city": "市川市",
    "city_kana": "イチカワシ",
    "town": "東大和田",
    "town_kana": "ヒガシオオワダ",
    "street": "２丁目１５−７",
    "office_name": "ＴＤＫ　株式会社　テクニカルセンター",
    "office_name_kana": "テイ-デイ-ケイ カブシキガイシヤ テクニカルセンタ-"
  },
  "8560": {
    "postcode": "2728560",
    "prefecture": "千葉県",
    "prefecture_kana": "チバケン",
    "prefecture_code": 12,
    "city": "市川市",
    "city_kana": "イチカワシ",
    "town": "国府台",
    "town_kana": "コウノダイ",
    "street": "２丁目２−１",
    "office_name": "筑波大学付属聴覚特別支援学校",
    "office_name_kana": "ツクバダイガクフゾクチヨウカクトクベツシエンガツコウ"
  },
  "8561": {
    "postcode": "2728561",
    "prefecture": "千葉県",
    "prefecture_kana": "チバケン",
    "prefecture_code": 12,
    "city": "市川市",
    "city_kana": "イチカワシ",
    "town": "八幡",
    "town_kana": "ヤワタ",
    "street": "２丁目１５−１０",
    "office_name": "本八幡ビル　株式会社",
    "office_name_kana": "モトヤワタビル カブシキガイシヤ"
  },
  "8573": {
    "postcode": "2728573",
    "prefecture": "千葉県",
    "prefecture_kana": "チバケン",
    "prefecture_code": 12,
    "city": "市川市",
    "city_kana": "イチカワシ",
    "town": "北方",
    "town_kana": "キタカタ",
    "street": "１丁目１１−１０",
    "office_name": "市川税務署",
    "office_name_kana": "イチカワゼイムシヨ"
  },
  "8580": {
    "postcode": "2728580",
    "prefecture": "千葉県",
    "prefecture_kana": "チバケン",
    "prefecture_code": 12,
    "city": "市川市",
    "city_kana": "イチカワシ",
    "town": "市川南",
    "town_kana": "イチカワミナミ",
    "street": "２丁目８−８",
    "office_name": "京葉瓦斯　株式会社",
    "office_name_kana": "ケイヨウガス カブシキガイシヤ"
  },
  "8581": {
    "postcode": "2728581",
    "prefecture": "千葉県",
    "prefecture_kana": "チバケン",
    "prefecture_code": 12,
    "city": "市川市",
    "city_kana": "イチカワシ",
    "town": "市川",
    "town_kana": "イチカワ",
    "street": "３丁目２３番２７号",
    "office_name": "山崎製パン　株式会社　総合クリエイションセンター",
    "office_name_kana": "ヤマザキセイパン カブシキガイシヤ ソウゴウクリエイシヨンセンタ-"
  },
  "8585": {
    "postcode": "2728585",
    "prefecture": "千葉県",
    "prefecture_kana": "チバケン",
    "prefecture_code": 12,
    "city": "市川市",
    "city_kana": "イチカワシ",
    "town": "市川",
    "town_kana": "イチカワ",
    "street": "２丁目４−９",
    "office_name": "市川よみうり新聞社",
    "office_name_kana": "イチカワヨミウリシンブンシヤ"
  },
  "8588": {
    "postcode": "2728588",
    "prefecture": "千葉県",
    "prefecture_kana": "チバケン",
    "prefecture_code": 12,
    "city": "市川市",
    "city_kana": "イチカワシ",
    "town": "中国分",
    "town_kana": "ナカコクブン",
    "street": "３丁目１８−５",
    "office_name": "住友金属鉱山　株式会社　技術本部中央研究所",
    "office_name_kana": "スミトモキンゾクコウザン カブシキガイシヤ ギジユツホンブチユウオウケンキユウジヨ"
  }
}