{
  "0051": {
    "postcode": "2740051",
    "prefecture": "千葉県",
    "prefecture_kana": "チバケン",
    "prefecture_code": 12,
    "city": "船橋市",
    "city_kana": "フナバシシ",
    "town": "車方町",
    "town_kana": "クルマガタチョウ",
    "street": null,
    "office_name": null,
    "office_name_kana": null
  },
  "0052": {
    "postcode": "2740052",
    "prefecture": "千葉県",
    "prefecture_kana": "チバケン",
    "prefecture_code": 12,
    "city": "船橋市",
    "city_kana": "フナバシシ",
    "town": "鈴身町",
    "town_kana": "スズミチョウ",
    "street": null,
    "office_name": null,
    "office_name_kana": null
  },
  "0053": {
    "postcode": "2740053",
    "prefecture": "千葉県",
    "prefecture_kana": "チバケン",
    "prefecture_code": 12,
    "city": "船橋市",
    "city_kana": "フナバシシ",
    "town": "豊富町",
    "town_kana": "トヨトミチョウ",
    "street": null,
    "office_name": null,
    "office_name_kana": null
  },
  "0054": {
    "postcode": "2740054",
    "prefecture": "千葉県",
    "prefecture_kana": "チバケン",
    "prefecture_code": 12,
    "city": "船橋市",
    "city_kana": "フナバシシ",
    "town": "金堀町",
    "town_kana": "カネホリチョウ",
    "street": null,
    "office_name": null,
    "office_name_kana": null
  },
  "0055": {
    "postcode": "2740055",
    "prefecture": "千葉県",
    "prefecture_kana": "チバケン",
    "prefecture_code": 12,
    "city": "船橋市",
    "city_kana": "フナバシシ",
    "town": "楠が山町",
    "town_kana": "クスガヤマチョウ",
    "street": null,
    "office_name": null,
    "office_name_kana": null
  },
  "0056": {
    "postcode": "2740056",
    "prefecture": "千葉県",
    "prefecture_kana": "チバケン",
    "prefecture_code": 12,
    "city": "船橋市",
    "city_kana": "フナバシシ",
    "town": "神保町",
    "town_kana": "ジンボウチョウ",
    "street": null,
    "office_name": null,
    "office_name_kana": null
  },
  "0060": {
    "postcode": "2740060",
    "prefecture": "千葉県",
    "prefecture_kana": "チバケン",
    "prefecture_code": 12,
    "city": "船橋市",
    "city_kana": "フナバシシ",
    "town": "坪井東",
    "town_kana": "ツボイヒガシ",
    "street": null,
    "office_name": null,
    "office_name_kana": null
  },
  "0061": {
    "postcode": "2740061",
    "prefecture": "千葉県",
    "prefecture_kana": "チバケン",
    "prefecture_code": 12,
    "city": "船橋市",
    "city_kana": "フナバシシ",
    "town": "古和釜町",
    "town_kana": "コワガマチョウ",
    "street": null,
    "office_name": null,
    "office_name_kana": null
  },
  "0062": {
    "postcode": "2740062",
    "prefecture": "千葉県",
    "prefecture_kana": "チバケン",
    "prefecture_code": 12,
    "city": "船橋市",
    "city_kana": "フナバシシ",
    "town": "坪井町",
    "town_kana": "ツボイチョウ",
    "street": null,
    "office_name": null,
    "office_name_kana": null
  },
  "0063": {
    "postcode": "2740063",
    "prefecture": "千葉県",
    "prefecture_kana": "チバケン",
    "prefecture_code": 12,
    "city": "船橋市",
    "city_kana": "フナバシシ",
    "town": "習志野台",
    "town_kana": "ナラシノダイ",
    "street": null,
    "office_name": null,
    "office_name_kana": null
  },
  "0064": {
    "postcode": "2740064",
    "prefecture": "千葉県",
    "prefecture_kana": "チバケン",
    "prefecture_code": 12,
    "city": "船橋市",
    "city_kana": "フナバシシ",
    "town": "松が丘",
    "town_kana": "マツガオカ",
    "street": null,
    "office_name": null,
    "office_name_kana": null
  },
  "0065": {
    "postcode": "2740065",
    "prefecture": "千葉県",
    "prefecture_kana": "チバケン",
    "prefecture_code": 12,
    "city": "船橋市",
    "city_kana": "フナバシシ",
    "town": "高根台",
    "town_kana": "タカネダイ",
    "street": null,
    "office_name": null,
    "office_name_kana": null
  },
  "0066": {
    "postcode": "2740066",
    "prefecture": "千葉県",
    "prefecture_kana": "チバケン",
    "prefecture_code": 12,
    "city": "船橋市",
    "city_kana": "フナバシシ",
    "town": "大穴町",
    "town_kana": "オオアナチョウ",
    "street": null,
    "office_name": null,
    "office_name_kana": null
  },
  "0067": {
    "postcode": "2740067",
    "prefecture": "千葉県",
    "prefecture_kana": "チバケン",
    "prefecture_code": 12,
    "city": "船橋市",
    "city_kana": "フナバシシ",
    "town": "大穴南",
    "town_kana": "オオアナミナミ",
    "street": null,
    "office_name": null,
    "office_name_kana": null
  },
  "0068": {
    "postcode": "2740068",
    "prefecture": "千葉県",
    "prefecture_kana": "チバケン",
    "prefecture_code": 12,
    "city": "船橋市",
    "city_kana": "フナバシシ",
    "town": "大穴北",
    "town_kana": "オオアナキタ",
    "street": null,
    "office_name": null,
    "office_name_kana": null
  },
  "0069": {
    "postcode": "2740069",
    "prefecture": "千葉県",
    "prefecture_kana": "チバケン",
    "prefecture_code": 12,
    "city": "船橋市",
    "city_kana": "フナバシシ",
    "town": "坪井西",
    "town_kana": "ツボイニシ",
    "street": null,
    "office_name": null,
    "office_name_kana": null
  },
  "0071": {
    "postcode": "2740071",
    "prefecture": "千葉県",
    "prefecture_kana": "チバケン",
    "prefecture_code": 12,
    "city": "船橋市",
    "city_kana": "フナバシシ",
    "town": "習志野",
    "town_kana": "ナラシノ",
    "street": null,
    "office_name": null,
    "office_name_kana": null
  },
  "0072": {
    "postcode": "2740072",
    "prefecture": "千葉県",
    "prefecture_kana": "チバケン",
    "prefecture_code": 12,
    "city": "船橋市",
    "city_kana": "フナバシシ",
    "town": "三山",
    "town_kana": "ミヤマ",
    "street": null,
    "office_name": null,
    "office_name_kana": null
  },
  "0073": {
    "postcode": "2740073",
    "prefecture": "千葉県",
    "prefecture_kana": "チバケン",
    "prefecture_code": 12,
    "city": "船橋市",
    "city_kana": "フナバシシ",
    "town": "田喜野井",
    "town_kana": "タキノイ",
    "street": null,
    "office_name": null,
    "office_name_kana": null
  },
  "0074": {
    "postcode": "2740074",
    "prefecture": "千葉県",
    "prefecture_kana": "チバケン",
    "prefecture_code": 12,
    "city": "船橋市",
    "city_kana": "フナバシシ",
    "town": "滝台",
    "town_kana": "タキダイ",
    "street": null,
    "office_name": null,
    "office_name_kana": null
  },
  "0075": {
    "postcode": "2740075",
    "prefecture": "千葉県",
    "prefecture_kana": "チバケン",
    "prefecture_code": 12,
    "city": "船橋市",
    "city_kana": "フナバシシ",
    "town": "滝台町",
    "town_kana": "タキダイチョウ",
    "street": null,
    "office_name": null,
    "office_name_kana": null
  },
  "0076": {
    "postcode": "2740076",
    "prefecture": "千葉県",
    "prefecture_kana": "チバケン",
    "prefecture_code": 12,
    "city": "船橋市",
    "city_kana": "フナバシシ",
    "town": "薬園台町",
    "town_kana": "ヤクエンダイチョウ",
    "street": null,
    "office_name": null,
    "office_name_kana": null
  },
  "0077": {
    "postcode": "2740077",
    "prefecture": "千葉県",
    "prefecture_kana": "チバケン",
    "prefecture_code": 12,
    "city": "船橋市",
    "city_kana": "フナバシシ",
    "town": "薬円台",
    "town_kana": "ヤクエンダイ",
    "street": null,
    "office_name": null,
    "office_name_kana": null
  },
  "0081": {
    "postcode": "2740081",
    "prefecture": "千葉県",
    "prefecture_kana": "チバケン",
    "prefecture_code": 12,
    "city": "船橋市",
    "city_kana": "フナバシシ",
    "town": "小野田町",
    "town_kana": "コノダチョウ",
    "street": null,
    "office_name": null,
    "office_name_kana": null
  },
  "0082": {
    "postcode": "2740082",
    "prefecture": "千葉県",
    "prefecture_kana": "チバケン",
    "prefecture_code": 12,
    "city": "船橋市",
    "city_kana": "フナバシシ",
    "town": "大神保町",
    "town_kana": "オオジンボウチョウ",
    "street": null,
    "office_name": null,
    "office_name_kana": null
  },
  "0801": {
    "postcode": "2740801",
    "prefecture": "千葉県",
    "prefecture_kana": "チバケン",
    "prefecture_code": 12,
    "city": "船橋市",
    "city_kana": "フナバシシ",
    "town": "高野台",
    "town_kana": "コウヤダイ",
    "street": null,
    "office_name": null,
    "office_name_kana": null
  },
  "0802": {
    "postcode": "2740802",
    "prefecture": "千葉県",
    "prefecture_kana": "チバケン",
    "prefecture_code": 12,
    "city": "船橋市",
    "city_kana": "フナバシシ",
    "town": "八木が谷",
    "town_kana": "ヤキガヤ",
    "street": null,
    "office_name": null,
    "office_name_kana": null
  },
  "0803": {
    "postcode": "2740803",
    "prefecture": "千葉県",
    "prefecture_kana": "チバケン",
    "prefecture_code": 12,
    "city": "船橋市",
    "city_kana": "フナバシシ",
    "town": "八木が谷町",
    "town_kana": "ヤキガヤチョウ",
    "street": null,
    "office_name": null,
    "office_name_kana": null
  },
  "0804": {
    "postcode": "2740804",
    "prefecture": "千葉県",
    "prefecture_kana": "チバケン",
    "prefecture_code": 12,
    "city": "船橋市",
    "city_kana": "フナバシシ",
    "town": "みやぎ台",
    "town_kana": "ミヤギダイ",
    "street": null,
    "office_name": null,
    "office_name_kana": null
  },
  "0805": {
    "postcode": "2740805",
    "prefecture": "千葉県",
    "prefecture_kana": "チバケン",
    "prefecture_code": 12,
    "city": "船橋市",
    "city_kana": "フナバシシ",
    "town": "二和東",
    "town_kana": "フタワヒガシ",
    "street": null,
    "office_name": null,
    "office_name_kana": null
  },
  "0806": {
    "postcode": "2740806",
    "prefecture": "千葉県",
    "prefecture_kana": "チバケン",
    "prefecture_code": 12,
    "city": "船橋市",
    "city_kana": "フナバシシ",
    "town": "二和西",
    "town_kana": "フタワニシ",
    "street": null,
    "office_name": null,
    "office_name_kana": null
  },
  "0807": {
    "postcode": "2740807",
    "prefecture": "千葉県",
    "prefecture_kana": "チバケン",
    "prefecture_code": 12,
    "city": "船橋市",
    "city_kana": "フナバシシ",
    "town": "咲が丘",
    "town_kana": "サキガオカ",
    "street": null,
    "office_name": null,
    "office_name_kana": null
  },
  "0811": {
    "postcode": "2740811",
    "prefecture": "千葉県",
    "prefecture_kana": "チバケン",
    "prefecture_code": 12,
    "city": "船橋市",
    "city_kana": "フナバシシ",
    "town": "三咲町",
    "town_kana": "ミサキチョウ",
    "street": null,
    "office_name": null,
    "office_name_kana": null
  },
  "0812": {
    "postcode": "2740812",
    "prefecture": "千葉県",
    "prefecture_kana": "チバケン",
    "prefecture_code": 12,
    "city": "船橋市",
    "city_kana": "フナバシシ",
    "town": "三咲",
    "town_kana": "ミサキ",
    "street": null,
    "office_name": null,
    "office_name_kana": null
  },
  "0813": {
    "postcode": "2740813",
    "prefecture": "千葉県",
    "prefecture_kana": "チバケン",
    "prefecture_code": 12,
    "city": "船橋市",
    "city_kana": "フナバシシ",
    "town": "南三咲",
    "town_kana": "ミナミミサキ",
    "street": null,
    "office_name": null,
    "office_name_kana": null
  },
  "0814": {
    "postcode": "2740814",
    "prefecture": "千葉県",
    "prefecture_kana": "チバケン",
    "prefecture_code": 12,
    "city": "船橋市",
    "city_kana": "フナバシシ",
    "town": "新高根",
    "town_kana": "シンタカネ",
    "street": null,
    "office_name": null,
    "office_name_kana": null
  },
  "0815": {
    "postcode": "2740815",
    "prefecture": "千葉県",
    "prefecture_kana": "チバケン",
    "prefecture_code": 12,
    "city": "船橋市",
    "city_kana": "フナバシシ",
    "town": "西習志野",
    "town_kana": "ニシナラシノ",
    "street": null,
    "office_name": null,
    "office_name_kana": null
  },
  "0816": {
    "postcode": "2740816",
    "prefecture": "千葉県",
    "prefecture_kana": "チバケン",
    "prefecture_code": 12,
    "city": "船橋市",
    "city_kana": "フナバシシ",
    "town": "芝山",
    "town_kana": "シバヤマ",
    "street": null,
    "office_name": null,
    "office_name_kana": null
  },
  "0817": {
    "postcode": "2740817",
    "prefecture": "千葉県",
    "prefecture_kana": "チバケン",
    "prefecture_code": 12,
    "city": "船橋市",
    "city_kana": "フナバシシ",
    "town": "高根町",
    "town_kana": "タカネチョウ",
    "street": null,
    "office_name": null,
    "office_name_kana": null
  },
  "0818": {
    "postcode": "2740818",
    "prefecture": "千葉県",
    "prefecture_kana": "チバケン",
    "prefecture_code": 12,
    "city": "船橋市",
    "city_kana": "フナバシシ",
    "town": "緑台",
    "town_kana": "ミドリダイ",
    "street": null,
    "office_name": null,
    "office_name_kana": null
  },
  "0821": {
    "postcode": "2740821",
    "prefecture": "千葉県",
    "prefecture_kana": "チバケン",
    "prefecture_code": 12,
    "city": "船橋市",
    "city_kana": "フナバシシ",
    "town": "七林町",
    "town_kana": "ナナバヤシチョウ",
    "street": null,
    "office_name": null,
    "office_name_kana": null
  },
  "0822": {
    "postcode": "2740822",
    "prefecture": "千葉県",
    "prefecture_kana": "チバケン",
    "prefecture_code": 12,
    "city": "船橋市",
    "city_kana": "フナバシシ",
    "town": "飯山満町",
    "town_kana": "ハサマチョウ",
    "street": null,
    "office_name": null,
    "office_name_kana": null
  },
  "0823": {
    "postcode": "2740823",
    "prefecture": "千葉県",
    "prefecture_kana": "チバケン",
    "prefecture_code": 12,
    "city": "船橋市",
    "city_kana": "フナバシシ",
    "town": "二宮",
    "town_kana": "ニノミヤ",
    "street": null,
    "office_name": null,
    "office_name_kana": null
  },
  "0824": {
    "postcode": "2740824",
    "prefecture": "千葉県",
    "prefecture_kana": "チバケン",
    "prefecture_code": 12,
    "city": "船橋市",
    "city_kana": "フナバシシ",
    "town": "前原東",
    "town_kana": "マエバラヒガシ",
    "street": null,
    "office_name": null,
    "office_name_kana": null
  },
  "0825": {
    "postcode": "2740825",
    "prefecture": "千葉県",
    "prefecture_kana": "チバケン",
    "prefecture_code": 12,
    "city": "船橋市",
    "city_kana": "フナバシシ",
    "town": "前原西",
    "town_kana": "マエバラニシ",
    "street": null,
    "office_name": null,
    "office_name_kana": null
  },
  "0826": {
    "postcode": "2740826",
    "prefecture": "千葉県",
    "prefecture_kana": "チバケン",
    "prefecture_code": 12,
    "city": "船橋市",
    "city_kana": "フナバシシ",
    "town": "中野木",
    "town_kana": "ナカノキ",
    "street": null,
    "office_name": null,
    "office_name_kana": null
  },
  "8501": {
    "postcode": "2748501",
    "prefecture": "千葉県",
    "prefecture_kana": "チバケン",
    "prefecture_code": 12,
    "city": "船橋市",
    "city_kana": "フナバシシ",
    "town": "習志野台",
    "town_kana": "ナラシノダイ",
    "street": "７丁目２４−１",
    "office_name": "日本大学　理工学部",
    "office_name_kana": "ニホンダイガク リコウガクブ"
  },
  "8503": {
    "postcode": "2748503",
    "prefecture": "千葉県",
    "prefecture_kana": "チバケン",
    "prefecture_code": 12,
    "city": "船橋市",
    "city_kana": "フナバシシ",
    "town": "高根台",
    "town_kana": "タカネダイ",
    "street": "２−１１−１",
    "office_name": "医療法人　沖縄徳洲会　千葉徳洲会病院",
    "office_name_kana": "イリヨウホウジン オキナワトクシユウカイ チバトクシユウカイビヨウイン"
  },
  "8504": {
    "postcode": "2748504",
    "prefecture": "千葉県",
    "prefecture_kana": "チバケン",
    "prefecture_code": 12,
    "city": "船橋市",
    "city_kana": "フナバシシ",
    "town": "習志野台",
    "town_kana": "ナラシノダイ",
    "street": "８丁目３５−１",
    "office_name": "日大習志野高校",
    "office_name_kana": "ニチダイナラシノコウコウ"
  },
  "8505": {
    "postcode": "2748505",
    "prefecture": "千葉県",
    "prefecture_kana": "チバケン",
    "prefecture_code": 12,
    "city": "船橋市",
    "city_kana": "フナバシシ",
    "town": "前原西",
    "town_kana": "マエバラニシ",
    "street": "２丁目１２−７−７階",
    "office_name": "積和不動産　株式会社",
    "office_name_kana": "セキワフドウサン カブシキガイシヤ"
  },
  "8506": {
    "postcode": "2748506",
    "prefecture": "千葉県",
    "prefecture_kana": "チバケン",
    "prefecture_code": 12,
    "city": "船橋市",
    "city_kana": "フナバシシ",
    "town": "二和東",
    "town_kana": "フタワヒガシ",
    "street": "５丁目１−１",
    "office_name": "船橋二和病院",
    "office_name_kana": "フナバシフタワビヨウイン"
  },
  "8507": {
    "postcode": "2748507",
    "prefecture": "千葉県",
    "prefecture_kana": "チバケン",
    "prefecture_code": 12,
    "city": "船橋市",
    "city_kana": "フナバシシ",
    "town": "坪井西",
    "town_kana": "ツボイニシ",
    "street": "２−１０−１",
    "office_name": "日産化学工業　株式会社",
    "office_name_kana": "ニツサンカガクコウギヨウ カブシキガイシヤ"
  },
  "8510": {
    "postcode": "2748510",
    "prefecture": "千葉県",
    "prefecture_kana": "チバケン",
    "prefecture_code": 12,
    "city": "船橋市",
    "city_kana": "フナバシシ",
    "town": "三山",
    "town_kana": "ミヤマ",
    "street": "２丁目２−１",
    "office_name": "学校法人　東邦大学",
    "office_name_kana": "ガツコウホウジン トウホウダイガク"
  },
  "8520": {
    "postcode": "2748520",
    "prefecture": "千葉県",
    "prefecture_kana": "チバケン",
    "prefecture_code": 12,
    "city": "船橋市",
    "city_kana": "フナバシシ",
    "town": "習志野",
    "town_kana": "ナラシノ",
    "street": "４丁目１２番１号",
    "office_name": "株式会社　タキガワ・コーポレーション・ジャパン",
    "office_name_kana": "カブシキガイシヤ タキガワ・コ-ポレ-シヨン・ジヤパン"
  },
  "8530": {
    "postcode": "2748530",
    "prefecture": "千葉県",
    "prefecture_kana": "チバケン",
    "prefecture_code": 12,
    "city": "船橋市",
    "city_kana": "フナバシシ",
    "town": "習志野",
    "town_kana": "ナラシノ",
    "street": "４−１２−２",
    "office_name": "日軽建材工業　株式会社",
    "office_name_kana": "ニツケイケンザイコウギヨウ カブシキガイシヤ"
  },
  "8533": {
    "postcode": "2748533",
    "prefecture": "千葉県",
    "prefecture_kana": "チバケン",
    "prefecture_code": 12,
    "city": "船橋市",
    "city_kana": "フナバシシ",
    "town": "豊富町",
    "town_kana": "トヨトミチョウ",
    "street": "５９９",
    "office_name": "株式会社　高山　船橋営業所",
    "office_name_kana": "カブシキガイシヤ タカヤマ フナバシエイギヨウシヨ"
  },
  "8555": {
    "postcode": "2748555",
    "prefecture": "千葉県",
    "prefecture_kana": "チバケン",
    "prefecture_code": 12,
    "city": "船橋市",
    "city_kana": "フナバシシ",
    "town": "習志野台",
    "town_kana": "ナラシノダイ",
    "street": "７丁目７−１",
    "office_name": "日本大学　薬学部",
    "office_name_kana": "ニホンダイガク ヤクガクブ"
  },
  "8558": {
    "postcode": "2748558",
    "prefecture": "千葉県",
    "prefecture_kana": "チバケン",
    "prefecture_code": 12,
    "city": "船橋市",
    "city_kana": "フナバシシ",
    "town": "習志野台",
    "town_kana": "ナラシノダイ",
    "street": "１丁目１",
    "office_name": "イオン　株式会社　ジャスコ高根木戸店",
    "office_name_kana": "イオン カブシキガイシヤ ジヤスコタカネキドテン"
  },
  "8577": {
    "postcode": "2748577",
    "prefecture": "千葉県",
    "prefecture_kana": "チバケン",
    "prefecture_code": 12,
    "city": "船橋市",
    "city_kana": "フナバシシ",
    "town": "薬円台",
    "town_kana": "ヤクエンダイ",
    "street": "３丁目２０−１",
    "office_name": "陸上自衛隊　習志野駐屯地",
    "office_name_kana": "リクジヨウジエイタイ ナラシノチユウトンチ"
  },
  "8585": {
    "postcode": "2748585",
    "prefecture": "千葉県",
    "prefecture_kana": "チバケン",
    "prefecture_code": 12,
    "city": "船橋市",
    "city_kana": "フナバシシ",
    "town": "習志野",
    "town_kana": "ナラシノ",
    "street": "４丁目７−１",
    "office_name": "日東ベスト　株式会社",
    "office_name_kana": "ニツトウベスト カブシキガイシヤ"
  },
  "8601": {
    "postcode": "2748601",
    "prefecture": "千葉県",
    "prefecture_kana": "チバケン",
    "prefecture_code": 12,
    "city": "船橋市",
    "city_kana": "フナバシシ",
    "town": "豊富町",
    "town_kana": "トヨトミチョウ",
    "street": "５８５",
    "office_name": "住友大阪セメント　株式会社",
    "office_name_kana": "スミトモオオサカセメント カブシキガイシヤ"
  }
}