{
  "0100": {
    "postcode": "2890100",
    "prefecture": "千葉県",
    "prefecture_kana": "チバケン",
    "prefecture_code": 12,
    "city": "香取郡神崎町",
    "city_kana": "カトリグンコウザキマチ",
    "town": "",
    "town_kana": "",
    "street": null,
    "office_name": null,
    "office_name_kana": null
  },
  "0101": {
    "postcode": "2890101",
    "prefecture": "千葉県",
    "prefecture_kana": "チバケン",
    "prefecture_code": 12,
    "city": "成田市",
    "city_kana": "ナリタシ",
    "town": "小浮",
    "town_kana": "コブケ",
    "street": null,
    "office_name": null,
    "office_name_kana": null
  },
  "0102": {
    "postcode": "2890102",
    "prefecture": "千葉県",
    "prefecture_kana": "チバケン",
    "prefecture_code": 12,
    "city": "成田市",
    "city_kana": "ナリタシ",
    "town": "野馬込",
    "town_kana": "ノマゴメ",
    "street": null,
    "office_name": null,
    "office_name_kana": null
  },
  "0103": {
    "postcode": "2890103",
    "prefecture": "千葉県",
    "prefecture_kana": "チバケン",
    "prefecture_code": 12,
    "city": "成田市",
    "city_kana": "ナリタシ",
    "town": "高",
    "town_kana": "タカ",
    "street": null,
    "office_name": null,
    "office_name_kana": null
  },
  "0104": {
    "postcode": "2890104",
    "prefecture": "千葉県",
    "prefecture_kana": "チバケン",
    "prefecture_code": 12,
    "city": "成田市",
    "city_kana": "ナリタシ",
    "town": "冬父",
    "town_kana": "トブ",
    "street": null,
    "office_name": null,
    "office_name_kana": null
  },
  "0105": {
    "postcode": "2890105",
    "prefecture": "千葉県",
    "prefecture_kana": "チバケン",
    "prefecture_code": 12,
    "city": "成田市",
    "city_kana": "ナリタシ",
    "town": "中里",
    "town_kana": "ナカザト",
    "street": null,
    "office_name": null,
    "office_name_kana": null
  },
  "0106": {
    "postcode": "2890106",
    "prefecture": "千葉県",
    "prefecture_kana": "チバケン",
    "prefecture_code": 12,
    "city": "成田市",
    "city_kana": "ナリタシ",
    "town": "小野",
    "town_kana": "オノ",
    "street": null,
    "office_name": null,
    "office_name_kana": null
  },
  "0107": {
    "postcode": "2890107",
    "prefecture": "千葉県",
    "prefecture_kana": "チバケン",
    "prefecture_code": 12,
    "city": "成田市",
    "city_kana": "ナリタシ",
    "town": "猿山",
    "town_kana": "サルヤマ",
    "street": null,
    "office_name": null,
    "office_name_kana": null
  },
  "0108": {
    "postcode": "2890108",
    "prefecture": "千葉県",
    "prefecture_kana": "チバケン",
    "prefecture_code": 12,
    "city": "成田市",
    "city_kana": "ナリタシ",
    "town": "高岡",
    "town_kana": "タカオカ",
    "street": null,
    "office_name": null,
    "office_name_kana": null
  },
  "0109": {
    "postcode": "2890109",
    "prefecture": "千葉県",
    "prefecture_kana": "チバケン",
    "prefecture_code": 12,
    "city": "成田市",
    "city_kana": "ナリタシ",
    "town": "大和田",
    "town_kana": "オオワダ",
    "street": null,
    "office_name": null,
    "office_name_kana": null
  },
  "0111": {
    "postcode": "2890111",
    "prefecture": "千葉県",
    "prefecture_kana": "チバケン",
    "prefecture_code": 12,
    "city": "成田市",
    "city_kana": "ナリタシ",
    "town": "名木",
    "town_kana": "ナギ",
    "street": null,
    "office_name": null,
    "office_name_kana": null
  },
  "0112": {
    "postcode": "2890112",
    "prefecture": "千葉県",
    "prefecture_kana": "チバケン",
    "prefecture_code": 12,
    "city": "成田市",
    "city_kana": "ナリタシ",
    "town": "青山",
    "town_kana": "アオヤマ",
    "street": null,
    "office_name": null,
    "office_name_kana": null
  },
  "0113": {
    "postcode": "2890113",
    "prefecture": "千葉県",
    "prefecture_kana": "チバケン",
    "prefecture_code": 12,
    "city": "成田市",
    "city_kana": "ナリタシ",
    "town": "倉水",
    "town_kana": "クラミズ",
    "street": null,
    "office_name": null,
    "office_name_kana": null
  },
  "0114": {
    "postcode": "2890114",
    "prefecture": "千葉県",
    "prefecture_kana": "チバケン",
    "prefecture_code": 12,
    "city": "成田市",
    "city_kana": "ナリタシ",
    "town": "成井",
    "town_kana": "ナルイ",
    "street": null,
    "office_name": null,
    "office_name_kana": null
  },
  "0115": {
    "postcode": "2890115",
    "prefecture": "千葉県",
    "prefecture_kana": "チバケン",
    "prefecture_code": 12,
    "city": "成田市",
    "city_kana": "ナリタシ",
    "town": "地蔵原新田",
    "town_kana": "ジゾウハラシンデン",
    "street": null,
    "office_name": null,
    "office_name_kana": null
  },
  "0116": {
    "postcode": "2890116",
    "prefecture": "千葉県",
    "prefecture_kana": "チバケン",
    "prefecture_code": 12,
    "city": "成田市",
    "city_kana": "ナリタシ",
    "town": "名古屋",
    "town_kana": "ナゴヤ",
    "street": null,
    "office_name": null,
    "office_name_kana": null
  },
  "0117": {
    "postcode": "2890117",
    "prefecture": "千葉県",
    "prefecture_kana": "チバケン",
    "prefecture_code": 12,
    "city": "成田市",
    "city_kana": "ナリタシ",
    "town": "七沢",
    "town_kana": "ナナサワ",
    "street": null,
    "office_name": null,
    "office_name_kana": null
  },
  "0121": {
    "postcode": "2890121",
    "prefecture": "千葉県",
    "prefecture_kana": "チバケン",
    "prefecture_code": 12,
    "city": "成田市",
    "city_kana": "ナリタシ",
    "town": "大菅",
    "town_kana": "オオスゲ",
    "street": null,
    "office_name": null,
    "office_name_kana": null
  },
  "0122": {
    "postcode": "2890122",
    "prefecture": "千葉県",
    "prefecture_kana": "チバケン",
    "prefecture_code": 12,
    "city": "成田市",
    "city_kana": "ナリタシ",
    "town": "高倉",
    "town_kana": "タカクラ",
    "street": null,
    "office_name": null,
    "office_name_kana": null
  },
  "0123": {
    "postcode": "2890123",
    "prefecture": "千葉県",
    "prefecture_kana": "チバケン",
    "prefecture_code": 12,
    "city": "成田市",
    "city_kana": "ナリタシ",
    "town": "四谷",
    "town_kana": "ヨツヤ",
    "street": null,
    "office_name": null,
    "office_name_kana": null
  },
  "0124": {
    "postcode": "2890124",
    "prefecture": "千葉県",
    "prefecture_kana": "チバケン",
    "prefecture_code": 12,
    "city": "成田市",
    "city_kana": "ナリタシ",
    "town": "西大須賀",
    "town_kana": "ニシオオスカ",
    "street": null,
    "office_name": null,
    "office_name_kana": null
  },
  "0125": {
    "postcode": "2890125",
    "prefecture": "千葉県",
    "prefecture_kana": "チバケン",
    "prefecture_code": 12,
    "city": "成田市",
    "city_kana": "ナリタシ",
    "town": "滑川",
    "town_kana": "ナメガワ",
    "street": null,
    "office_name": null,
    "office_name_kana": null
  },
  "0126": {
    "postcode": "2890126",
    "prefecture": "千葉県",
    "prefecture_kana": "チバケン",
    "prefecture_code": 12,
    "city": "成田市",
    "city_kana": "ナリタシ",
    "town": "新川",
    "town_kana": "シンカワ",
    "street": null,
    "office_name": null,
    "office_name_kana": null
  },
  "0192": {
    "postcode": "2890192",
    "prefecture": "千葉県",
    "prefecture_kana": "チバケン",
    "prefecture_code": 12,
    "city": "成田市",
    "city_kana": "ナリタシ",
    "town": "猿山",
    "town_kana": "サルヤマ",
    "street": "１０８０",
    "office_name": "成田市　下総支所",
    "office_name_kana": "ナリタシ シモフサシシヨ"
  },
  "0201": {
    "postcode": "2890201",
    "prefecture": "千葉県",
    "prefecture_kana": "チバケン",
    "prefecture_code": 12,
    "city": "香取郡神崎町",
    "city_kana": "カトリグンコウザキマチ",
    "town": "高谷",
    "town_kana": "コウヤ",
    "street": null,
    "office_name": null,
    "office_name_kana": null
  },
  "0202": {
    "postcode": "2890202",
    "prefecture": "千葉県",
    "prefecture_kana": "チバケン",
    "prefecture_code": 12,
    "city": "香取郡神崎町",
    "city_kana": "カトリグンコウザキマチ",
    "town": "郡",
    "town_kana": "コオリ",
    "street": null,
    "office_name": null,
    "office_name_kana": null
  },
  "0203": {
    "postcode": "2890203",
    "prefecture": "千葉県",
    "prefecture_kana": "チバケン",
    "prefecture_code": 12,
    "city": "香取郡神崎町",
    "city_kana": "カトリグンコウザキマチ",
    "town": "大貫",
    "town_kana": "オオヌキ",
    "street": null,
    "office_name": null,
    "office_name_kana": null
  },
  "0204": {
    "postcode": "2890204",
    "prefecture": "千葉県",
    "prefecture_kana": "チバケン",
    "prefecture_code": 12,
    "city": "香取郡神崎町",
    "city_kana": "カトリグンコウザキマチ",
    "town": "四季の丘",
    "town_kana": "シキノオカ",
    "street": null,
    "office_name": null,
    "office_name_kana": null
  },
  "0205": {
    "postcode": "2890205",
    "prefecture": "千葉県",
    "prefecture_kana": "チバケン",
    "prefecture_code": 12,
    "city": "香取郡神崎町",
    "city_kana": "カトリグンコウザキマチ",
    "town": "今",
    "town_kana": "イマ",
    "street": null,
    "office_name": null,
    "office_name_kana": null
  },
  "0211": {
    "postcode": "2890211",
    "prefecture": "千葉県",
    "prefecture_kana": "チバケン",
    "prefecture_code": 12,
    "city": "香取郡神崎町",
    "city_kana": "カトリグンコウザキマチ",
    "town": "立野",
    "town_kana": "タチノ",
    "street": null,
    "office_name": null,
    "office_name_kana": null
  },
  "0212": {
    "postcode": "2890212",
    "prefecture": "千葉県",
    "prefecture_kana": "チバケン",
    "prefecture_code": 12,
    "city": "香取郡神崎町",
    "city_kana": "カトリグンコウザキマチ",
    "town": "武田",
    "town_kana": "タケダ",
    "street": null,
    "office_name": null,
    "office_name_kana": null
  },
  "0213": {
    "postcode": "2890213",
    "prefecture": "千葉県",
    "prefecture_kana": "チバケン",
    "prefecture_code": 12,
    "city": "香取郡神崎町",
    "city_kana": "カトリグンコウザキマチ",
    "town": "新",
    "town_kana": "シン",
    "street": null,
    "office_name": null,
    "office_name_kana": null
  },
  "0214": {
    "postcode": "2890214",
    "prefecture": "千葉県",
    "prefecture_kana": "チバケン",
    "prefecture_code": 12,
    "city": "香取郡神崎町",
    "city_kana": "カトリグンコウザキマチ",
    "town": "毛成",
    "town_kana": "ケナリ",
    "street": null,
    "office_name": null,
    "office_name_kana": null
  },
  "0215": {
    "postcode": "2890215",
    "prefecture": "千葉県",
    "prefecture_kana": "チバケン",
    "prefecture_code": 12,
    "city": "香取郡神崎町",
    "city_kana": "カトリグンコウザキマチ",
    "town": "古原",
    "town_kana": "コハラ",
    "street": null,
    "office_name": null,
    "office_name_kana": null
  },
  "0216": {
    "postcode": "2890216",
    "prefecture": "千葉県",
    "prefecture_kana": "チバケン",
    "prefecture_code": 12,
    "city": "香取郡神崎町",
    "city_kana": "カトリグンコウザキマチ",
    "town": "植房",
    "town_kana": "ウエボウ",
    "street": null,
    "office_name": null,
    "office_name_kana": null
  },
  "0217": {
    "postcode": "2890217",
    "prefecture": "千葉県",
    "prefecture_kana": "チバケン",
    "prefecture_code": 12,
    "city": "香取郡神崎町",
    "city_kana": "カトリグンコウザキマチ",
    "town": "藤の台",
    "town_kana": "フジノダイ",
    "street": null,
    "office_name": null,
    "office_name_kana": null
  },
  "0221": {
    "postcode": "2890221",
    "prefecture": "千葉県",
    "prefecture_kana": "チバケン",
    "prefecture_code": 12,
    "city": "香取郡神崎町",
    "city_kana": "カトリグンコウザキマチ",
    "town": "神崎本宿",
    "town_kana": "コウザキホンシュク",
    "street": null,
    "office_name": null,
    "office_name_kana": null
  },
  "0222": {
    "postcode": "2890222",
    "prefecture": "千葉県",
    "prefecture_kana": "チバケン",
    "prefecture_code": 12,
    "city": "香取郡神崎町",
    "city_kana": "カトリグンコウザキマチ",
    "town": "並木",
    "town_kana": "ナミキ",
    "street": null,
    "office_name": null,
    "office_name_kana": null
  },
  "0223": {
    "postcode": "2890223",
    "prefecture": "千葉県",
    "prefecture_kana": "チバケン",
    "prefecture_code": 12,
    "city": "香取郡神崎町",
    "city_kana": "カトリグンコウザキマチ",
    "town": "小松",
    "town_kana": "コマツ",
    "street": null,
    "office_name": null,
    "office_name_kana": null
  },
  "0224": {
    "postcode": "2890224",
    "prefecture": "千葉県",
    "prefecture_kana": "チバケン",
    "prefecture_code": 12,
    "city": "香取郡神崎町",
    "city_kana": "カトリグンコウザキマチ",
    "town": "松崎",
    "town_kana": "マツザキ",
    "street": null,
    "office_name": null,
    "office_name_kana": null
  },
  "0225": {
    "postcode": "2890225",
    "prefecture": "千葉県",
    "prefecture_kana": "チバケン",
    "prefecture_code": 12,
    "city": "香取郡神崎町",
    "city_kana": "カトリグンコウザキマチ",
    "town": "十三間戸",
    "town_kana": "ジュウサンマド",
    "street": null,
    "office_name": null,
    "office_name_kana": null
  },
  "0226": {
    "postcode": "2890226",
    "prefecture": "千葉県",
    "prefecture_kana": "チバケン",
    "prefecture_code": 12,
    "city": "香取郡神崎町",
    "city_kana": "カトリグンコウザキマチ",
    "town": "神崎神宿",
    "town_kana": "コウザキシンシュク",
    "street": null,
    "office_name": null,
    "office_name_kana": null
  },
  "0292": {
    "postcode": "2890292",
    "prefecture": "千葉県",
    "prefecture_kana": "チバケン",
    "prefecture_code": 12,
    "city": "香取郡神崎町",
    "city_kana": "カトリグンコウザキマチ",
    "town": "神崎本宿",
    "town_kana": "コウザキホンシュク",
    "street": "１６３",
    "office_name": "神崎町役場",
    "office_name_kana": "コウザキマチヤクバ"
  },
  "0301": {
    "postcode": "2890301",
    "prefecture": "千葉県",
    "prefecture_kana": "チバケン",
    "prefecture_code": 12,
    "city": "香取市",
    "city_kana": "カトリシ",
    "town": "一ノ分目",
    "town_kana": "イチノワケメ",
    "street": null,
    "office_name": null,
    "office_name_kana": null
  },
  "0302": {
    "postcode": "2890302",
    "prefecture": "千葉県",
    "prefecture_kana": "チバケン",
    "prefecture_code": 12,
    "city": "香取市",
    "city_kana": "カトリシ",
    "town": "三ノ分目",
    "town_kana": "サンノワケメ",
    "street": null,
    "office_name": null,
    "office_name_kana": null
  },
  "0303": {
    "postcode": "2890303",
    "prefecture": "千葉県",
    "prefecture_kana": "チバケン",
    "prefecture_code": 12,
    "city": "香取市",
    "city_kana": "カトリシ",
    "town": "富田",
    "town_kana": "トミタ",
    "street": null,
    "office_name": null,
    "office_name_kana": null
  },
  "0304": {
    "postcode": "2890304",
    "prefecture": "千葉県",
    "prefecture_kana": "チバケン",
    "prefecture_code": 12,
    "city": "香取市",
    "city_kana": "カトリシ",
    "town": "下小堀",
    "town_kana": "シモコボリ",
    "street": null,
    "office_name": null,
    "office_name_kana": null
  },
  "0305": {
    "postcode": "2890305",
    "prefecture": "千葉県",
    "prefecture_kana": "チバケン",
    "prefecture_code": 12,
    "city": "香取市",
    "city_kana": "カトリシ",
    "town": "分郷",
    "town_kana": "ワカレゴウ",
    "street": null,
    "office_name": null,
    "office_name_kana": null
  },
  "0306": {
    "postcode": "2890306",
    "prefecture": "千葉県",
    "prefecture_kana": "チバケン",
    "prefecture_code": 12,
    "city": "香取市",
    "city_kana": "カトリシ",
    "town": "上小堀",
    "town_kana": "カミコボリ",
    "street": null,
    "office_name": null,
    "office_name_kana": null
  },
  "0307": {
    "postcode": "2890307",
    "prefecture": "千葉県",
    "prefecture_kana": "チバケン",
    "prefecture_code": 12,
    "city": "香取市",
    "city_kana": "カトリシ",
    "town": "増田",
    "town_kana": "マシタ",
    "street": null,
    "office_name": null,
    "office_name_kana": null
  },
  "0308": {
    "postcode": "2890308",
    "prefecture": "千葉県",
    "prefecture_kana": "チバケン",
    "prefecture_code": 12,
    "city": "香取市",
    "city_kana": "カトリシ",
    "town": "木内虫幡上小堀入会地大平",
    "town_kana": "キノウチムシハタカミコボリイリアイチオオダイラ",
    "street": null,
    "office_name": null,
    "office_name_kana": null
  },
  "0311": {
    "postcode": "2890311",
    "prefecture": "千葉県",
    "prefecture_kana": "チバケン",
    "prefecture_code": 12,
    "city": "香取市",
    "city_kana": "カトリシ",
    "town": "八日市場",
    "town_kana": "ヨウカイチバ",
    "street": null,
    "office_name": null,
    "office_name_kana": null
  },
  "0312": {
    "postcode": "2890312",
    "prefecture": "千葉県",
    "prefecture_kana": "チバケン",
    "prefecture_code": 12,
    "city": "香取市",
    "city_kana": "カトリシ",
    "town": "本郷",
    "town_kana": "ホンゴウ",
    "street": null,
    "office_name": null,
    "office_name_kana": null
  },
  "0313": {
    "postcode": "2890313",
    "prefecture": "千葉県",
    "prefecture_kana": "チバケン",
    "prefecture_code": 12,
    "city": "香取市",
    "city_kana": "カトリシ",
    "town": "小見川",
    "town_kana": "オミガワ",
    "street": null,
    "office_name": null,
    "office_name_kana": null
  },
  "0314": {
    "postcode": "2890314",
    "prefecture": "千葉県",
    "prefecture_kana": "チバケン",
    "prefecture_code": 12,
    "city": "香取市",
    "city_kana": "カトリシ",
    "town": "野田",
    "town_kana": "ノダ",
    "street": null,
    "office_name": null,
    "office_name_kana": null
  },
  "0321": {
    "postcode": "2890321",
    "prefecture": "千葉県",
    "prefecture_kana": "チバケン",
    "prefecture_code": 12,
    "city": "香取市",
    "city_kana": "カトリシ",
    "town": "阿玉川",
    "town_kana": "アタマガワ",
    "street": null,
    "office_name": null,
    "office_name_kana": null
  },
  "0322": {
    "postcode": "2890322",
    "prefecture": "千葉県",
    "prefecture_kana": "チバケン",
    "prefecture_code": 12,
    "city": "香取市",
    "city_kana": "カトリシ",
    "town": "下飯田",
    "town_kana": "シモイイダ",
    "street": null,
    "office_name": null,
    "office_name_kana": null
  },
  "0323": {
    "postcode": "2890323",
    "prefecture": "千葉県",
    "prefecture_kana": "チバケン",
    "prefecture_code": 12,
    "city": "香取市",
    "city_kana": "カトリシ",
    "town": "岡飯田",
    "town_kana": "オカイイダ",
    "street": null,
    "office_name": null,
    "office_name_kana": null
  },
  "0324": {
    "postcode": "2890324",
    "prefecture": "千葉県",
    "prefecture_kana": "チバケン",
    "prefecture_code": 12,
    "city": "香取市",
    "city_kana": "カトリシ",
    "town": "和泉",
    "town_kana": "イズミ",
    "street": null,
    "office_name": null,
    "office_name_kana": null
  },
  "0325": {
    "postcode": "2890325",
    "prefecture": "千葉県",
    "prefecture_kana": "チバケン",
    "prefecture_code": 12,
    "city": "香取市",
    "city_kana": "カトリシ",
    "town": "貝塚",
    "town_kana": "カイヅカ",
    "street": null,
    "office_name": null,
    "office_name_kana": null
  },
  "0326": {
    "postcode": "2890326",
    "prefecture": "千葉県",
    "prefecture_kana": "チバケン",
    "prefecture_code": 12,
    "city": "香取市",
    "city_kana": "カトリシ",
    "town": "阿玉台",
    "town_kana": "アタマダイ",
    "street": null,
    "office_name": null,
    "office_name_kana": null
  },
  "0327": {
    "postcode": "2890327",
    "prefecture": "千葉県",
    "prefecture_kana": "チバケン",
    "prefecture_code": 12,
    "city": "香取市",
    "city_kana": "カトリシ",
    "town": "久保",
    "town_kana": "クボ",
    "street": null,
    "office_name": null,
    "office_name_kana": null
  },
  "0328": {
    "postcode": "2890328",
    "prefecture": "千葉県",
    "prefecture_kana": "チバケン",
    "prefecture_code": 12,
    "city": "香取市",
    "city_kana": "カトリシ",
    "town": "五郷内",
    "town_kana": "ゴゴウチ",
    "street": null,
    "office_name": null,
    "office_name_kana": null
  },
  "0329": {
    "postcode": "2890329",
    "prefecture": "千葉県",
    "prefecture_kana": "チバケン",
    "prefecture_code": 12,
    "city": "香取市",
    "city_kana": "カトリシ",
    "town": "布野",
    "town_kana": "フノ",
    "street": null,
    "office_name": null,
    "office_name_kana": null
  },
  "0331": {
    "postcode": "2890331",
    "prefecture": "千葉県",
    "prefecture_kana": "チバケン",
    "prefecture_code": 12,
    "city": "香取市",
    "city_kana": "カトリシ",
    "town": "羽根川",
    "town_kana": "ハネガワ",
    "street": null,
    "office_name": null,
    "office_name_kana": null
  },
  "0332": {
    "postcode": "2890332",
    "prefecture": "千葉県",
    "prefecture_kana": "チバケン",
    "prefecture_code": 12,
    "city": "香取市",
    "city_kana": "カトリシ",
    "town": "南原地新田",
    "town_kana": "ミナミハラチシンデン",
    "street": null,
    "office_name": null,
    "office_name_kana": null
  },
  "0333": {
    "postcode": "2890333",
    "prefecture": "千葉県",
    "prefecture_kana": "チバケン",
    "prefecture_code": 12,
    "city": "香取市",
    "city_kana": "カトリシ",
    "town": "入会地",
    "town_kana": "イリアイチ",
    "street": null,
    "office_name": null,
    "office_name_kana": null
  },
  "0334": {
    "postcode": "2890334",
    "prefecture": "千葉県",
    "prefecture_kana": "チバケン",
    "prefecture_code": 12,
    "city": "香取市",
    "city_kana": "カトリシ",
    "town": "川頭",
    "town_kana": "カワガシラ",
    "street": null,
    "office_name": null,
    "office_name_kana": null
  },
  "0335": {
    "postcode": "2890335",
    "prefecture": "千葉県",
    "prefecture_kana": "チバケン",
    "prefecture_code": 12,
    "city": "香取市",
    "city_kana": "カトリシ",
    "town": "北原地新田",
    "town_kana": "キタハラチシンデン",
    "street": null,
    "office_name": null,
    "office_name_kana": null
  },
  "0336": {
    "postcode": "2890336",
    "prefecture": "千葉県",
    "prefecture_kana": "チバケン",
    "prefecture_code": 12,
    "city": "香取市",
    "city_kana": "カトリシ",
    "town": "新々田",
    "town_kana": "シンシンデン",
    "street": null,
    "office_name": null,
    "office_name_kana": null
  },
  "0337": {
    "postcode": "2890337",
    "prefecture": "千葉県",
    "prefecture_kana": "チバケン",
    "prefecture_code": 12,
    "city": "香取市",
    "city_kana": "カトリシ",
    "town": "木内",
    "town_kana": "キノウチ",
    "street": null,
    "office_name": null,
    "office_name_kana": null
  },
  "0338": {
    "postcode": "2890338",
    "prefecture": "千葉県",
    "prefecture_kana": "チバケン",
    "prefecture_code": 12,
    "city": "香取市",
    "city_kana": "カトリシ",
    "town": "下小川",
    "town_kana": "シモオガワ",
    "street": null,
    "office_name": null,
    "office_name_kana": null
  },
  "0341": {
    "postcode": "2890341",
    "prefecture": "千葉県",
    "prefecture_kana": "チバケン",
    "prefecture_code": 12,
    "city": "香取市",
    "city_kana": "カトリシ",
    "town": "虫幡",
    "town_kana": "ムシハタ",
    "street": null,
    "office_name": null,
    "office_name_kana": null
  },
  "0342": {
    "postcode": "2890342",
    "prefecture": "千葉県",
    "prefecture_kana": "チバケン",
    "prefecture_code": 12,
    "city": "香取市",
    "city_kana": "カトリシ",
    "town": "竜谷",
    "town_kana": "リュウザク",
    "street": null,
    "office_name": null,
    "office_name_kana": null
  },
  "0343": {
    "postcode": "2890343",
    "prefecture": "千葉県",
    "prefecture_kana": "チバケン",
    "prefecture_code": 12,
    "city": "香取市",
    "city_kana": "カトリシ",
    "town": "山川",
    "town_kana": "ヤマガワ",
    "street": null,
    "office_name": null,
    "office_name_kana": null
  },
  "0344": {
    "postcode": "2890344",
    "prefecture": "千葉県",
    "prefecture_kana": "チバケン",
    "prefecture_code": 12,
    "city": "香取市",
    "city_kana": "カトリシ",
    "town": "白井",
    "town_kana": "シライ",
    "street": null,
    "office_name": null,
    "office_name_kana": null
  },
  "0345": {
    "postcode": "2890345",
    "prefecture": "千葉県",
    "prefecture_kana": "チバケン",
    "prefecture_code": 12,
    "city": "香取市",
    "city_kana": "カトリシ",
    "town": "八本",
    "town_kana": "ハチホン",
    "street": null,
    "office_name": null,
    "office_name_kana": null
  },
  "0346": {
    "postcode": "2890346",
    "prefecture": "千葉県",
    "prefecture_kana": "チバケン",
    "prefecture_code": 12,
    "city": "香取市",
    "city_kana": "カトリシ",
    "town": "油田",
    "town_kana": "アブラタ",
    "street": null,
    "office_name": null,
    "office_name_kana": null
  },
  "0347": {
    "postcode": "2890347",
    "prefecture": "千葉県",
    "prefecture_kana": "チバケン",
    "prefecture_code": 12,
    "city": "香取市",
    "city_kana": "カトリシ",
    "town": "旗鉾",
    "town_kana": "ハタホコ",
    "street": null,
    "office_name": null,
    "office_name_kana": null
  },
  "0348": {
    "postcode": "2890348",
    "prefecture": "千葉県",
    "prefecture_kana": "チバケン",
    "prefecture_code": 12,
    "city": "香取市",
    "city_kana": "カトリシ",
    "town": "織幡",
    "town_kana": "オリハタ",
    "street": null,
    "office_name": null,
    "office_name_kana": null
  },
  "0349": {
    "postcode": "2890349",
    "prefecture": "千葉県",
    "prefecture_kana": "チバケン",
    "prefecture_code": 12,
    "city": "香取市",
    "city_kana": "カトリシ",
    "town": "内野",
    "town_kana": "ウチノ",
    "street": null,
    "office_name": null,
    "office_name_kana": null
  },
  "0392": {
    "postcode": "2890392",
    "prefecture": "千葉県",
    "prefecture_kana": "チバケン",
    "prefecture_code": 12,
    "city": "香取市",
    "city_kana": "カトリシ",
    "town": "阿玉川",
    "town_kana": "アタマガワ",
    "street": "１１０３",
    "office_name": "アタリヤ農園",
    "office_name_kana": "アタリヤノウエン"
  },
  "0393": {
    "postcode": "2890393",
    "prefecture": "千葉県",
    "prefecture_kana": "チバケン",
    "prefecture_code": 12,
    "city": "香取市",
    "city_kana": "カトリシ",
    "town": "羽根川",
    "town_kana": "ハネガワ",
    "street": "３８",
    "office_name": "香取市役所　小見川支所",
    "office_name_kana": "カトリシヤクシヨ オミガワシシヨ"
  },
  "0401": {
    "postcode": "2890401",
    "prefecture": "千葉県",
    "prefecture_kana": "チバケン",
    "prefecture_code": 12,
    "city": "香取市",
    "city_kana": "カトリシ",
    "town": "米野井",
    "town_kana": "コメノイ",
    "street": null,
    "office_name": null,
    "office_name_kana": null
  },
  "0402": {
    "postcode": "2890402",
    "prefecture": "千葉県",
    "prefecture_kana": "チバケン",
    "prefecture_code": 12,
    "city": "香取市",
    "city_kana": "カトリシ",
    "town": "小見",
    "town_kana": "オミ",
    "street": null,
    "office_name": null,
    "office_name_kana": null
  },
  "0403": {
    "postcode": "2890403",
    "prefecture": "千葉県",
    "prefecture_kana": "チバケン",
    "prefecture_code": 12,
    "city": "香取市",
    "city_kana": "カトリシ",
    "town": "川上",
    "town_kana": "カワカミ",
    "street": null,
    "office_name": null,
    "office_name_kana": null
  },
  "0404": {
    "postcode": "2890404",
    "prefecture": "千葉県",
    "prefecture_kana": "チバケン",
    "prefecture_code": 12,
    "city": "香取市",
    "city_kana": "カトリシ",
    "town": "高野",
    "town_kana": "コウヤ",
    "street": null,
    "office_name": null,
    "office_name_kana": null
  },
  "0405": {
    "postcode": "2890405",
    "prefecture": "千葉県",
    "prefecture_kana": "チバケン",
    "prefecture_code": 12,
    "city": "香取市",
    "city_kana": "カトリシ",
    "town": "竹之内",
    "town_kana": "タケノウチ",
    "street": null,
    "office_name": null,
    "office_name_kana": null
  },
  "0406": {
    "postcode": "2890406",
    "prefecture": "千葉県",
    "prefecture_kana": "チバケン",
    "prefecture_code": 12,
    "city": "香取市",
    "city_kana": "カトリシ",
    "town": "田部",
    "town_kana": "タベ",
    "street": null,
    "office_name": null,
    "office_name_kana": null
  },
  "0407": {
    "postcode": "2890407",
    "prefecture": "千葉県",
    "prefecture_kana": "チバケン",
    "prefecture_code": 12,
    "city": "香取市",
    "city_kana": "カトリシ",
    "town": "仁良",
    "town_kana": "ニラ",
    "street": null,
    "office_name": null,
    "office_name_kana": null
  },
  "0408": {
    "postcode": "2890408",
    "prefecture": "千葉県",
    "prefecture_kana": "チバケン",
    "prefecture_code": 12,
    "city": "香取市",
    "city_kana": "カトリシ",
    "town": "神生",
    "town_kana": "カンノウ",
    "street": null,
    "office_name": null,
    "office_name_kana": null
  },
  "0411": {
    "postcode": "2890411",
    "prefecture": "千葉県",
    "prefecture_kana": "チバケン",
    "prefecture_code": 12,
    "city": "香取市",
    "city_kana": "カトリシ",
    "town": "府馬",
    "town_kana": "フマ",
    "street": null,
    "office_name": null,
    "office_name_kana": null
  },
  "0412": {
    "postcode": "2890412",
    "prefecture": "千葉県",
    "prefecture_kana": "チバケン",
    "prefecture_code": 12,
    "city": "香取市",
    "city_kana": "カトリシ",
    "town": "古内",
    "town_kana": "フルウチ",
    "street": null,
    "office_name": null,
    "office_name_kana": null
  },
  "0413": {
    "postcode": "2890413",
    "prefecture": "千葉県",
    "prefecture_kana": "チバケン",
    "prefecture_code": 12,
    "city": "香取市",
    "city_kana": "カトリシ",
    "town": "志高",
    "town_kana": "シダカ",
    "street": null,
    "office_name": null,
    "office_name_kana": null
  },
  "0414": {
    "postcode": "2890414",
    "prefecture": "千葉県",
    "prefecture_kana": "チバケン",
    "prefecture_code": 12,
    "city": "香取市",
    "city_kana": "カトリシ",
    "town": "長岡",
    "town_kana": "ナガオカ",
    "street": null,
    "office_name": null,
    "office_name_kana": null
  },
  "0421": {
    "postcode": "2890421",
    "prefecture": "千葉県",
    "prefecture_kana": "チバケン",
    "prefecture_code": 12,
    "city": "香取市",
    "city_kana": "カトリシ",
    "town": "鳩山",
    "town_kana": "ハトヤマ",
    "street": null,
    "office_name": null,
    "office_name_kana": null
  },
  "0422": {
    "postcode": "2890422",
    "prefecture": "千葉県",
    "prefecture_kana": "チバケン",
    "prefecture_code": 12,
    "city": "香取市",
    "city_kana": "カトリシ",
    "town": "桐谷",
    "town_kana": "キリザク",
    "street": null,
    "office_name": null,
    "office_name_kana": null
  },
  "0423": {
    "postcode": "2890423",
    "prefecture": "千葉県",
    "prefecture_kana": "チバケン",
    "prefecture_code": 12,
    "city": "香取市",
    "city_kana": "カトリシ",
    "town": "小川",
    "town_kana": "オガワ",
    "street": null,
    "office_name": null,
    "office_name_kana": null
  },
  "0424": {
    "postcode": "2890424",
    "prefecture": "千葉県",
    "prefecture_kana": "チバケン",
    "prefecture_code": 12,
    "city": "香取市",
    "city_kana": "カトリシ",
    "town": "新里",
    "town_kana": "ニッサト",
    "street": null,
    "office_name": null,
    "office_name_kana": null
  },
  "0425": {
    "postcode": "2890425",
    "prefecture": "千葉県",
    "prefecture_kana": "チバケン",
    "prefecture_code": 12,
    "city": "香取市",
    "city_kana": "カトリシ",
    "town": "大角",
    "town_kana": "オオトガリ",
    "street": null,
    "office_name": null,
    "office_name_kana": null
  },
  "0426": {
    "postcode": "2890426",
    "prefecture": "千葉県",
    "prefecture_kana": "チバケン",
    "prefecture_code": 12,
    "city": "香取市",
    "city_kana": "カトリシ",
    "town": "山倉",
    "town_kana": "ヤマクラ",
    "street": null,
    "office_name": null,
    "office_name_kana": null
  },
  "0492": {
    "postcode": "2890492",
    "prefecture": "千葉県",
    "prefecture_kana": "チバケン",
    "prefecture_code": 12,
    "city": "香取市",
    "city_kana": "カトリシ",
    "town": "仁良",
    "town_kana": "ニラ",
    "street": "３００番地１",
    "office_name": "香取市役所　山田支所",
    "office_name_kana": "カトリシヤクシヨ ヤマダシシヨ"
  },
  "0501": {
    "postcode": "2890501",
    "prefecture": "千葉県",
    "prefecture_kana": "チバケン",
    "prefecture_code": 12,
    "city": "旭市",
    "city_kana": "アサヒシ",
    "town": "清和乙",
    "town_kana": "セイワオツ",
    "street": null,
    "office_name": null,
    "office_name_kana": null
  },
  "0502": {
    "postcode": "2890502",
    "prefecture": "千葉県",
    "prefecture_kana": "チバケン",
    "prefecture_code": 12,
    "city": "旭市",
    "city_kana": "アサヒシ",
    "town": "長部",
    "town_kana": "ナガベ",
    "street": null,
    "office_name": null,
    "office_name_kana": null
  },
  "0503": {
    "postcode": "2890503",
    "prefecture": "千葉県",
    "prefecture_kana": "チバケン",
    "prefecture_code": 12,
    "city": "旭市",
    "city_kana": "アサヒシ",
    "town": "溝原",
    "town_kana": "ミゾワラ",
    "street": null,
    "office_name": null,
    "office_name_kana": null
  },
  "0504": {
    "postcode": "2890504",
    "prefecture": "千葉県",
    "prefecture_kana": "チバケン",
    "prefecture_code": 12,
    "city": "旭市",
    "city_kana": "アサヒシ",
    "town": "櫻井",
    "town_kana": "サクライ",
    "street": null,
    "office_name": null,
    "office_name_kana": null
  },
  "0505": {
    "postcode": "2890505",
    "prefecture": "千葉県",
    "prefecture_kana": "チバケン",
    "prefecture_code": 12,
    "city": "旭市",
    "city_kana": "アサヒシ",
    "town": "萬歳",
    "town_kana": "マンザイ",
    "street": null,
    "office_name": null,
    "office_name_kana": null
  },
  "0506": {
    "postcode": "2890506",
    "prefecture": "千葉県",
    "prefecture_kana": "チバケン",
    "prefecture_code": 12,
    "city": "旭市",
    "city_kana": "アサヒシ",
    "town": "さくら台",
    "town_kana": "サクラダイ",
    "street": null,
    "office_name": null,
    "office_name_kana": null
  },
  "0507": {
    "postcode": "2890507",
    "prefecture": "千葉県",
    "prefecture_kana": "チバケン",
    "prefecture_code": 12,
    "city": "旭市",
    "city_kana": "アサヒシ",
    "town": "清和甲",
    "town_kana": "セイワコウ",
    "street": null,
    "office_name": null,
    "office_name_kana": null
  },
  "0511": {
    "postcode": "2890511",
    "prefecture": "千葉県",
    "prefecture_kana": "チバケン",
    "prefecture_code": 12,
    "city": "旭市",
    "city_kana": "アサヒシ",
    "town": "鏑木",
    "town_kana": "カブラキ",
    "street": null,
    "office_name": null,
    "office_name_kana": null
  },
  "0512": {
    "postcode": "2890512",
    "prefecture": "千葉県",
    "prefecture_kana": "チバケン",
    "prefecture_code": 12,
    "city": "旭市",
    "city_kana": "アサヒシ",
    "town": "南堀之内",
    "town_kana": "ミナミホリノウチ",
    "street": null,
    "office_name": null,
    "office_name_kana": null
  },
  "0513": {
    "postcode": "2890513",
    "prefecture": "千葉県",
    "prefecture_kana": "チバケン",
    "prefecture_code": 12,
    "city": "旭市",
    "city_kana": "アサヒシ",
    "town": "舟戸",
    "town_kana": "フナド",
    "street": null,
    "office_name": null,
    "office_name_kana": null
  },
  "0514": {
    "postcode": "2890514",
    "prefecture": "千葉県",
    "prefecture_kana": "チバケン",
    "prefecture_code": 12,
    "city": "旭市",
    "city_kana": "アサヒシ",
    "town": "関戸",
    "town_kana": "セキド",
    "street": null,
    "office_name": null,
    "office_name_kana": null
  },
  "0515": {
    "postcode": "2890515",
    "prefecture": "千葉県",
    "prefecture_kana": "チバケン",
    "prefecture_code": 12,
    "city": "旭市",
    "city_kana": "アサヒシ",
    "town": "入野",
    "town_kana": "イリノ",
    "street": null,
    "office_name": null,
    "office_name_kana": null
  },
  "0516": {
    "postcode": "2890516",
    "prefecture": "千葉県",
    "prefecture_kana": "チバケン",
    "prefecture_code": 12,
    "city": "旭市",
    "city_kana": "アサヒシ",
    "town": "米込",
    "town_kana": "ヨネゴメ",
    "street": null,
    "office_name": null,
    "office_name_kana": null
  },
  "0517": {
    "postcode": "2890517",
    "prefecture": "千葉県",
    "prefecture_kana": "チバケン",
    "prefecture_code": 12,
    "city": "旭市",
    "city_kana": "アサヒシ",
    "town": "萬力",
    "town_kana": "マンリキ",
    "street": null,
    "office_name": null,
    "office_name_kana": null
  },
  "0518": {
    "postcode": "2890518",
    "prefecture": "千葉県",
    "prefecture_kana": "チバケン",
    "prefecture_code": 12,
    "city": "旭市",
    "city_kana": "アサヒシ",
    "town": "秋田",
    "town_kana": "アキタ",
    "street": null,
    "office_name": null,
    "office_name_kana": null
  },
  "0592": {
    "postcode": "2890592",
    "prefecture": "千葉県",
    "prefecture_kana": "チバケン",
    "prefecture_code": 12,
    "city": "旭市",
    "city_kana": "アサヒシ",
    "town": "南堀之内",
    "town_kana": "ミナミホリノウチ",
    "street": "１０",
    "office_name": "旭市　干潟支所",
    "office_name_kana": "アサヒシ ヒカタシシヨ"
  },
  "0600": {
    "postcode": "2890600",
    "prefecture": "千葉県",
    "prefecture_kana": "チバケン",
    "prefecture_code": 12,
    "city": "香取郡東庄町",
    "city_kana": "カトリグントウノショウマチ",
    "town": "",
    "town_kana": "",
    "street": null,
    "office_name": null,
    "office_name_kana": null
  },
  "0601": {
    "postcode": "2890601",
    "prefecture": "千葉県",
    "prefecture_kana": "チバケン",
    "prefecture_code": 12,
    "city": "香取郡東庄町",
    "city_kana": "カトリグントウノショウマチ",
    "town": "笹川い",
    "town_kana": "ササガワイ",
    "street": null,
    "office_name": null,
    "office_name_kana": null
  },
  "0602": {
    "postcode": "2890602",
    "prefecture": "千葉県",
    "prefecture_kana": "チバケン",
    "prefecture_code": 12,
    "city": "香取郡東庄町",
    "city_kana": "カトリグントウノショウマチ",
    "town": "笹川ろ",
    "town_kana": "ササガワロ",
    "street": null,
    "office_name": null,
    "office_name_kana": null
  },
  "0611": {
    "postcode": "2890611",
    "prefecture": "千葉県",
    "prefecture_kana": "チバケン",
    "prefecture_code": 12,
    "city": "香取郡東庄町",
    "city_kana": "カトリグントウノショウマチ",
    "town": "新宿",
    "town_kana": "ニイジュク",
    "street": null,
    "office_name": null,
    "office_name_kana": null
  },
  "0612": {
    "postcode": "2890612",
    "prefecture": "千葉県",
    "prefecture_kana": "チバケン",
    "prefecture_code": 12,
    "city": "香取郡東庄町",
    "city_kana": "カトリグントウノショウマチ",
    "town": "石出",
    "town_kana": "イシデ",
    "street": null,
    "office_name": null,
    "office_name_kana": null
  },
  "0613": {
    "postcode": "2890613",
    "prefecture": "千葉県",
    "prefecture_kana": "チバケン",
    "prefecture_code": 12,
    "city": "香取郡東庄町",
    "city_kana": "カトリグントウノショウマチ",
    "town": "東今泉",
    "town_kana": "ヒガシイマイズミ",
    "street": null,
    "office_name": null,
    "office_name_kana": null
  },
  "0614": {
    "postcode": "2890614",
    "prefecture": "千葉県",
    "prefecture_kana": "チバケン",
    "prefecture_code": 12,
    "city": "香取郡東庄町",
    "city_kana": "カトリグントウノショウマチ",
    "town": "宮本",
    "town_kana": "ミヤモト",
    "street": null,
    "office_name": null,
    "office_name_kana": null
  },
  "0615": {
    "postcode": "2890615",
    "prefecture": "千葉県",
    "prefecture_kana": "チバケン",
    "prefecture_code": 12,
    "city": "香取郡東庄町",
    "city_kana": "カトリグントウノショウマチ",
    "town": "青馬",
    "town_kana": "オオマ",
    "street": null,
    "office_name": null,
    "office_name_kana": null
  },
  "0616": {
    "postcode": "2890616",
    "prefecture": "千葉県",
    "prefecture_kana": "チバケン",
    "prefecture_code": 12,
    "city": "香取郡東庄町",
    "city_kana": "カトリグントウノショウマチ",
    "town": "高部",
    "town_kana": "タカベ",
    "street": null,
    "office_name": null,
    "office_name_kana": null
  },
  "0617": {
    "postcode": "2890617",
    "prefecture": "千葉県",
    "prefecture_kana": "チバケン",
    "prefecture_code": 12,
    "city": "香取郡東庄町",
    "city_kana": "カトリグントウノショウマチ",
    "town": "羽計",
    "town_kana": "ハバカリ",
    "street": null,
    "office_name": null,
    "office_name_kana": null
  },
  "0618": {
    "postcode": "2890618",
    "prefecture": "千葉県",
    "prefecture_kana": "チバケン",
    "prefecture_code": 12,
    "city": "香取郡東庄町",
    "city_kana": "カトリグントウノショウマチ",
    "town": "谷津",
    "town_kana": "ヤヅ",
    "street": null,
    "office_name": null,
    "office_name_kana": null
  },
  "0619": {
    "postcode": "2890619",
    "prefecture": "千葉県",
    "prefecture_kana": "チバケン",
    "prefecture_code": 12,
    "city": "香取郡東庄町",
    "city_kana": "カトリグントウノショウマチ",
    "town": "今郡",
    "town_kana": "イマゴオリ",
    "street": null,
    "office_name": null,
    "office_name_kana": null
  },
  "0621": {
    "postcode": "2890621",
    "prefecture": "千葉県",
    "prefecture_kana": "チバケン",
    "prefecture_code": 12,
    "city": "香取郡東庄町",
    "city_kana": "カトリグントウノショウマチ",
    "town": "大友",
    "town_kana": "オオトモ",
    "street": null,
    "office_name": null,
    "office_name_kana": null
  },
  "0622": {
    "postcode": "2890622",
    "prefecture": "千葉県",
    "prefecture_kana": "チバケン",
    "prefecture_code": 12,
    "city": "香取郡東庄町",
    "city_kana": "カトリグントウノショウマチ",
    "town": "小座",
    "town_kana": "オザ",
    "street": null,
    "office_name": null,
    "office_name_kana": null
  },
  "0623": {
    "postcode": "2890623",
    "prefecture": "千葉県",
    "prefecture_kana": "チバケン",
    "prefecture_code": 12,
    "city": "香取郡東庄町",
    "city_kana": "カトリグントウノショウマチ",
    "town": "宮野台",
    "town_kana": "ミヤノダイ",
    "street": null,
    "office_name": null,
    "office_name_kana": null
  },
  "0624": {
    "postcode": "2890624",
    "prefecture": "千葉県",
    "prefecture_kana": "チバケン",
    "prefecture_code": 12,
    "city": "香取郡東庄町",
    "city_kana": "カトリグントウノショウマチ",
    "town": "小南",
    "town_kana": "コミナミ",
    "street": null,
    "office_name": null,
    "office_name_kana": null
  },
  "0625": {
    "postcode": "2890625",
    "prefecture": "千葉県",
    "prefecture_kana": "チバケン",
    "prefecture_code": 12,
    "city": "香取郡東庄町",
    "city_kana": "カトリグントウノショウマチ",
    "town": "夏目",
    "town_kana": "ナツメ",
    "street": null,
    "office_name": null,
    "office_name_kana": null
  },
  "0626": {
    "postcode": "2890626",
    "prefecture": "千葉県",
    "prefecture_kana": "チバケン",
    "prefecture_code": 12,
    "city": "香取郡東庄町",
    "city_kana": "カトリグントウノショウマチ",
    "town": "八重穂",
    "town_kana": "ヤエボ",
    "street": null,
    "office_name": null,
    "office_name_kana": null
  },
  "0627": {
    "postcode": "2890627",
    "prefecture": "千葉県",
    "prefecture_kana": "チバケン",
    "prefecture_code": 12,
    "city": "香取郡東庄町",
    "city_kana": "カトリグントウノショウマチ",
    "town": "粟野",
    "town_kana": "アワノ",
    "street": null,
    "office_name": null,
    "office_name_kana": null
  },
  "0631": {
    "postcode": "2890631",
    "prefecture": "千葉県",
    "prefecture_kana": "チバケン",
    "prefecture_code": 12,
    "city": "香取郡東庄町",
    "city_kana": "カトリグントウノショウマチ",
    "town": "平山",
    "town_kana": "ヒラヤマ",
    "street": null,
    "office_name": null,
    "office_name_kana": null
  },
  "0632": {
    "postcode": "2890632",
    "prefecture": "千葉県",
    "prefecture_kana": "チバケン",
    "prefecture_code": 12,
    "city": "香取郡東庄町",
    "city_kana": "カトリグントウノショウマチ",
    "town": "窪野谷",
    "town_kana": "クボノヤ",
    "street": null,
    "office_name": null,
    "office_name_kana": null
  },
  "0633": {
    "postcode": "2890633",
    "prefecture": "千葉県",
    "prefecture_kana": "チバケン",
    "prefecture_code": 12,
    "city": "香取郡東庄町",
    "city_kana": "カトリグントウノショウマチ",
    "town": "大久保",
    "town_kana": "オオクボ",
    "street": null,
    "office_name": null,
    "office_name_kana": null
  },
  "0634": {
    "postcode": "2890634",
    "prefecture": "千葉県",
    "prefecture_kana": "チバケン",
    "prefecture_code": 12,
    "city": "香取郡東庄町",
    "city_kana": "カトリグントウノショウマチ",
    "town": "舟戸",
    "town_kana": "フナド",
    "street": null,
    "office_name": null,
    "office_name_kana": null
  },
  "0635": {
    "postcode": "2890635",
    "prefecture": "千葉県",
    "prefecture_kana": "チバケン",
    "prefecture_code": 12,
    "city": "香取郡東庄町",
    "city_kana": "カトリグントウノショウマチ",
    "town": "神田",
    "town_kana": "カンダ",
    "street": null,
    "office_name": null,
    "office_name_kana": null
  },
  "0636": {
    "postcode": "2890636",
    "prefecture": "千葉県",
    "prefecture_kana": "チバケン",
    "prefecture_code": 12,
    "city": "香取郡東庄町",
    "city_kana": "カトリグントウノショウマチ",
    "town": "東和田",
    "town_kana": "トウワダ",
    "street": null,
    "office_name": null,
    "office_name_kana": null
  },
  "0637": {
    "postcode": "2890637",
    "prefecture": "千葉県",
    "prefecture_kana": "チバケン",
    "prefecture_code": 12,
    "city": "香取郡東庄町",
    "city_kana": "カトリグントウノショウマチ",
    "town": "小貝野",
    "town_kana": "コガイノ",
    "street": null,
    "office_name": null,
    "office_name_kana": null
  },
  "0692": {
    "postcode": "2890692",
    "prefecture": "千葉県",
    "prefecture_kana": "チバケン",
    "prefecture_code": 12,
    "city": "香取郡東庄町",
    "city_kana": "カトリグントウノショウマチ",
    "town": "笹川い",
    "town_kana": "ササガワイ",
    "street": "４７１３−１３１",
    "office_name": "東庄町役場",
    "office_name_kana": "トウノシヨウマチヤクバ"
  },
  "1100": {
    "postcode": "2891100",
    "prefecture": "千葉県",
    "prefecture_kana": "チバケン",
    "prefecture_code": 12,
    "city": "八街市",
    "city_kana": "ヤチマタシ",
    "town": "",
    "town_kana": "",
    "street": null,
    "office_name": null,
    "office_name_kana": null
  },
  "1101": {
    "postcode": "2891101",
    "prefecture": "千葉県",
    "prefecture_kana": "チバケン",
    "prefecture_code": 12,
    "city": "八街市",
    "city_kana": "ヤチマタシ",
    "town": "朝日",
    "town_kana": "アサヒ",
    "street": null,
    "office_name": null,
    "office_name_kana": null
  },
  "1102": {
    "postcode": "2891102",
    "prefecture": "千葉県",
    "prefecture_kana": "チバケン",
    "prefecture_code": 12,
    "city": "八街市",
    "city_kana": "ヤチマタシ",
    "town": "沖渡",
    "town_kana": "オキワタシ",
    "street": null,
    "office_name": null,
    "office_name_kana": null
  },
  "1103": {
    "postcode": "2891103",
    "prefecture": "千葉県",
    "prefecture_kana": "チバケン",
    "prefecture_code": 12,
    "city": "八街市",
    "city_kana": "ヤチマタシ",
    "town": "八街に",
    "town_kana": "ヤチマタニ",
    "street": null,
    "office_name": null,
    "office_name_kana": null
  },
  "1104": {
    "postcode": "2891104",
    "prefecture": "千葉県",
    "prefecture_kana": "チバケン",
    "prefecture_code": 12,
    "city": "八街市",
    "city_kana": "ヤチマタシ",
    "town": "文違",
    "town_kana": "ヒジカイ",
    "street": null,
    "office_name": null,
    "office_name_kana": null
  },
  "1105": {
    "postcode": "2891105",
    "prefecture": "千葉県",
    "prefecture_kana": "チバケン",
    "prefecture_code": 12,
    "city": "八街市",
    "city_kana": "ヤチマタシ",
    "town": "泉台",
    "town_kana": "イズミダイ",
    "street": null,
    "office_name": null,
    "office_name_kana": null
  },
  "1106": {
    "postcode": "2891106",
    "prefecture": "千葉県",
    "prefecture_kana": "チバケン",
    "prefecture_code": 12,
    "city": "八街市",
    "city_kana": "ヤチマタシ",
    "town": "榎戸",
    "town_kana": "エノキド",
    "street": null,
    "office_name": null,
    "office_name_kana": null
  },
  "1107": {
    "postcode": "2891107",
    "prefecture": "千葉県",
    "prefecture_kana": "チバケン",
    "prefecture_code": 12,
    "city": "八街市",
    "city_kana": "ヤチマタシ",
    "town": "八街は",
    "town_kana": "ヤチマタハ",
    "street": null,
    "office_name": null,
    "office_name_kana": null
  },
  "1108": {
    "postcode": "2891108",
    "prefecture": "千葉県",
    "prefecture_kana": "チバケン",
    "prefecture_code": 12,
    "city": "八街市",
    "city_kana": "ヤチマタシ",
    "town": "雁丸",
    "town_kana": "ガンマル",
    "street": null,
    "office_name": null,
    "office_name_kana": null
  },
  "1111": {
    "postcode": "2891111",
    "prefecture": "千葉県",
    "prefecture_kana": "チバケン",
    "prefecture_code": 12,
    "city": "八街市",
    "city_kana": "ヤチマタシ",
    "town": "大木",
    "town_kana": "オオギ",
    "street": null,
    "office_name": null,
    "office_name_kana": null
  },
  "1112": {
    "postcode": "2891112",
    "prefecture": "千葉県",
    "prefecture_kana": "チバケン",
    "prefecture_code": 12,
    "city": "八街市",
    "city_kana": "ヤチマタシ",
    "town": "木原",
    "town_kana": "キバラ",
    "street": null,
    "office_name": null,
    "office_name_kana": null
  },
  "1113": {
    "postcode": "2891113",
    "prefecture": "千葉県",
    "prefecture_kana": "チバケン",
    "prefecture_code": 12,
    "city": "八街市",
    "city_kana": "ヤチマタシ",
    "town": "八街へ",
    "town_kana": "ヤチマタヘ",
    "street": null,
    "office_name": null,
    "office_name_kana": null
  },
  "1114": {
    "postcode": "2891114",
    "prefecture": "千葉県",
    "prefecture_kana": "チバケン",
    "prefecture_code": 12,
    "city": "八街市",
    "city_kana": "ヤチマタシ",
    "town": "東吉田",
    "town_kana": "ヒガシヨシダ",
    "street": null,
    "office_name": null,
    "office_name_kana": null
  },
  "1115": {
    "postcode": "2891115",
    "prefecture": "千葉県",
    "prefecture_kana": "チバケン",
    "prefecture_code": 12,
    "city": "八街市",
    "city_kana": "ヤチマタシ",
    "town": "八街ほ",
    "town_kana": "ヤチマタホ",
    "street": null,
    "office_name": null,
    "office_name_kana": null
  },
  "1116": {
    "postcode": "2891116",
    "prefecture": "千葉県",
    "prefecture_kana": "チバケン",
    "prefecture_code": 12,
    "city": "八街市",
    "city_kana": "ヤチマタシ",
    "town": "中央",
    "town_kana": "チュウオウ",
    "street": null,
    "office_name": null,
    "office_name_kana": null
  },
  "1121": {
    "postcode": "2891121",
    "prefecture": "千葉県",
    "prefecture_kana": "チバケン",
    "prefecture_code": 12,
    "city": "八街市",
    "city_kana": "ヤチマタシ",
    "town": "砂",
    "town_kana": "イサゴ",
    "street": null,
    "office_name": null,
    "office_name_kana": null
  },
  "1122": {
    "postcode": "2891122",
    "prefecture": "千葉県",
    "prefecture_kana": "チバケン",
    "prefecture_code": 12,
    "city": "八街市",
    "city_kana": "ヤチマタシ",
    "town": "四木",
    "town_kana": "シモク",
    "street": null,
    "office_name": null,
    "office_name_kana": null
  },
  "1123": {
    "postcode": "2891123",
    "prefecture": "千葉県",
    "prefecture_kana": "チバケン",
    "prefecture_code": 12,
    "city": "八街市",
    "city_kana": "ヤチマタシ",
    "town": "滝台",
    "town_kana": "タキダイ",
    "street": null,
    "office_name": null,
    "office_name_kana": null
  },
  "1124": {
    "postcode": "2891124",
    "prefecture": "千葉県",
    "prefecture_kana": "チバケン",
    "prefecture_code": 12,
    "city": "八街市",
    "city_kana": "ヤチマタシ",
    "town": "山田台",
    "town_kana": "ヤマダダイ",
    "street": null,
    "office_name": null,
    "office_name_kana": null
  },
  "1125": {
    "postcode": "2891125",
    "prefecture": "千葉県",
    "prefecture_kana": "チバケン",
    "prefecture_code": 12,
    "city": "八街市",
    "city_kana": "ヤチマタシ",
    "town": "上砂",
    "town_kana": "カミイサゴ",
    "street": null,
    "office_name": null,
    "office_name_kana": null
  },
  "1126": {
    "postcode": "2891126",
    "prefecture": "千葉県",
    "prefecture_kana": "チバケン",
    "prefecture_code": 12,
    "city": "八街市",
    "city_kana": "ヤチマタシ",
    "town": "沖",
    "town_kana": "オキ",
    "street": null,
    "office_name": null,
    "office_name_kana": null
  },
  "1131": {
    "postcode": "2891131",
    "prefecture": "千葉県",
    "prefecture_kana": "チバケン",
    "prefecture_code": 12,
    "city": "八街市",
    "city_kana": "ヤチマタシ",
    "town": "希望ケ丘",
    "town_kana": "キボウガオカ",
    "street": null,
    "office_name": null,
    "office_name_kana": null
  },
  "1132": {
    "postcode": "2891132",
    "prefecture": "千葉県",
    "prefecture_kana": "チバケン",
    "prefecture_code": 12,
    "city": "八街市",
    "city_kana": "ヤチマタシ",
    "town": "勢田",
    "town_kana": "セタ",
    "street": null,
    "office_name": null,
    "office_name_kana": null
  },
  "1133": {
    "postcode": "2891133",
    "prefecture": "千葉県",
    "prefecture_kana": "チバケン",
    "prefecture_code": 12,
    "city": "八街市",
    "city_kana": "ヤチマタシ",
    "town": "吉倉",
    "town_kana": "ヨシクラ",
    "street": null,
    "office_name": null,
    "office_name_kana": null
  },
  "1134": {
    "postcode": "2891134",
    "prefecture": "千葉県",
    "prefecture_kana": "チバケン",
    "prefecture_code": 12,
    "city": "八街市",
    "city_kana": "ヤチマタシ",
    "town": "大谷流",
    "town_kana": "オオヤル",
    "street": null,
    "office_name": null,
    "office_name_kana": null
  },
  "1135": {
    "postcode": "2891135",
    "prefecture": "千葉県",
    "prefecture_kana": "チバケン",
    "prefecture_code": 12,
    "city": "八街市",
    "city_kana": "ヤチマタシ",
    "town": "小谷流",
    "town_kana": "コヤル",
    "street": null,
    "office_name": null,
    "office_name_kana": null
  },
  "1136": {
    "postcode": "2891136",
    "prefecture": "千葉県",
    "prefecture_kana": "チバケン",
    "prefecture_code": 12,
    "city": "八街市",
    "city_kana": "ヤチマタシ",
    "town": "根古谷",
    "town_kana": "ネゴヤ",
    "street": null,
    "office_name": null,
    "office_name_kana": null
  },
  "1137": {
    "postcode": "2891137",
    "prefecture": "千葉県",
    "prefecture_kana": "チバケン",
    "prefecture_code": 12,
    "city": "八街市",
    "city_kana": "ヤチマタシ",
    "town": "岡田",
    "town_kana": "オカダ",
    "street": null,
    "office_name": null,
    "office_name_kana": null
  },
  "1138": {
    "postcode": "2891138",
    "prefecture": "千葉県",
    "prefecture_kana": "チバケン",
    "prefecture_code": 12,
    "city": "八街市",
    "city_kana": "ヤチマタシ",
    "town": "用草",
    "town_kana": "モチクサ",
    "street": null,
    "office_name": null,
    "office_name_kana": null
  },
  "1141": {
    "postcode": "2891141",
    "prefecture": "千葉県",
    "prefecture_kana": "チバケン",
    "prefecture_code": 12,
    "city": "八街市",
    "city_kana": "ヤチマタシ",
    "town": "富山",
    "town_kana": "トヤマ",
    "street": null,
    "office_name": null,
    "office_name_kana": null
  },
  "1142": {
    "postcode": "2891142",
    "prefecture": "千葉県",
    "prefecture_kana": "チバケン",
    "prefecture_code": 12,
    "city": "八街市",
    "city_kana": "ヤチマタシ",
    "town": "大関",
    "town_kana": "オオセキ",
    "street": null,
    "office_name": null,
    "office_name_kana": null
  },
  "1143": {
    "postcode": "2891143",
    "prefecture": "千葉県",
    "prefecture_kana": "チバケン",
    "prefecture_code": 12,
    "city": "八街市",
    "city_kana": "ヤチマタシ",
    "town": "八街い",
    "town_kana": "ヤチマタイ",
    "street": null,
    "office_name": null,
    "office_name_kana": null
  },
  "1144": {
    "postcode": "2891144",
    "prefecture": "千葉県",
    "prefecture_kana": "チバケン",
    "prefecture_code": 12,
    "city": "八街市",
    "city_kana": "ヤチマタシ",
    "town": "八街ろ",
    "town_kana": "ヤチマタロ",
    "street": null,
    "office_name": null,
    "office_name_kana": null
  },
  "1145": {
    "postcode": "2891145",
    "prefecture": "千葉県",
    "prefecture_kana": "チバケン",
    "prefecture_code": 12,
    "city": "八街市",
    "city_kana": "ヤチマタシ",
    "town": "みどり台",
    "town_kana": "ミドリダイ",
    "street": null,
    "office_name": null,
    "office_name_kana": null
  },
  "1192": {
    "postcode": "2891192",
    "prefecture": "千葉県",
    "prefecture_kana": "チバケン",
    "prefecture_code": 12,
    "city": "八街市",
    "city_kana": "ヤチマタシ",
    "town": "八街",
    "town_kana": null,
    "street": "ほ３５−２９",
    "office_name": "八街市役所",
    "office_name_kana": "ヤチマタシヤクシヨ"
  },
  "1201": {
    "postcode": "2891201",
    "prefecture": "千葉県",
    "prefecture_kana": "チバケン",
    "prefecture_code": 12,
    "city": "山武市",
    "city_kana": "サンムシ",
    "town": "板川",
    "town_kana": "イタガワ",
    "street": null,
    "office_name": null,
    "office_name_kana": null
  },
  "1202": {
    "postcode": "2891202",
    "prefecture": "千葉県",
    "prefecture_kana": "チバケン",
    "prefecture_code": 12,
    "city": "山武市",
    "city_kana": "サンムシ",
    "town": "中津田",
    "town_kana": "ナカツタ",
    "street": null,
    "office_name": null,
    "office_name_kana": null
  },
  "1203": {
    "postcode": "2891203",
    "prefecture": "千葉県",
    "prefecture_kana": "チバケン",
    "prefecture_code": 12,
    "city": "山武市",
    "city_kana": "サンムシ",
    "town": "麻生新田",
    "town_kana": "アソウシンデン",
    "street": null,
    "office_name": null,
    "office_name_kana": null
  },
  "1204": {
    "postcode": "2891204",
    "prefecture": "千葉県",
    "prefecture_kana": "チバケン",
    "prefecture_code": 12,
    "city": "山武市",
    "city_kana": "サンムシ",
    "town": "戸田",
    "town_kana": "トダ",
    "street": null,
    "office_name": null,
    "office_name_kana": null
  },
  "1205": {
    "postcode": "2891205",
    "prefecture": "千葉県",
    "prefecture_kana": "チバケン",
    "prefecture_code": 12,
    "city": "山武市",
    "city_kana": "サンムシ",
    "town": "椎崎",
    "town_kana": "シイザキ",
    "street": null,
    "office_name": null,
    "office_name_kana": null
  },
  "1206": {
    "postcode": "2891206",
    "prefecture": "千葉県",
    "prefecture_kana": "チバケン",
    "prefecture_code": 12,
    "city": "山武市",
    "city_kana": "サンムシ",
    "town": "日向台",
    "town_kana": "ヒュウガダイ",
    "street": null,
    "office_name": null,
    "office_name_kana": null
  },
  "1211": {
    "postcode": "2891211",
    "prefecture": "千葉県",
    "prefecture_kana": "チバケン",
    "prefecture_code": 12,
    "city": "山武市",
    "city_kana": "サンムシ",
    "town": "大木",
    "town_kana": "オオギ",
    "street": null,
    "office_name": null,
    "office_name_kana": null
  },
  "1212": {
    "postcode": "2891212",
    "prefecture": "千葉県",
    "prefecture_kana": "チバケン",
    "prefecture_code": 12,
    "city": "山武市",
    "city_kana": "サンムシ",
    "town": "木原",
    "town_kana": "キバラ",
    "street": null,
    "office_name": null,
    "office_name_kana": null
  },
  "1213": {
    "postcode": "2891213",
    "prefecture": "千葉県",
    "prefecture_kana": "チバケン",
    "prefecture_code": 12,
    "city": "山武市",
    "city_kana": "サンムシ",
    "town": "雨坪",
    "town_kana": "アメツボ",
    "street": null,
    "office_name": null,
    "office_name_kana": null
  },
  "1214": {
    "postcode": "2891214",
    "prefecture": "千葉県",
    "prefecture_kana": "チバケン",
    "prefecture_code": 12,
    "city": "山武市",
    "city_kana": "サンムシ",
    "town": "森",
    "town_kana": "モリ",
    "street": null,
    "office_name": null,
    "office_name_kana": null
  },
  "1215": {
    "postcode": "2891215",
    "prefecture": "千葉県",
    "prefecture_kana": "チバケン",
    "prefecture_code": 12,
    "city": "山武市",
    "city_kana": "サンムシ",
    "town": "矢部",
    "town_kana": "ヤベ",
    "street": null,
    "office_name": null,
    "office_name_kana": null
  },
  "1216": {
    "postcode": "2891216",
    "prefecture": "千葉県",
    "prefecture_kana": "チバケン",
    "prefecture_code": 12,
    "city": "山武市",
    "city_kana": "サンムシ",
    "town": "植草",
    "town_kana": "ウエクサ",
    "street": null,
    "office_name": null,
    "office_name_kana": null
  },
  "1217": {
    "postcode": "2891217",
    "prefecture": "千葉県",
    "prefecture_kana": "チバケン",
    "prefecture_code": 12,
    "city": "山武市",
    "city_kana": "サンムシ",
    "town": "下布田",
    "town_kana": "シモフダ",
    "street": null,
    "office_name": null,
    "office_name_kana": null
  },
  "1218": {
    "postcode": "2891218",
    "prefecture": "千葉県",
    "prefecture_kana": "チバケン",
    "prefecture_code": 12,
    "city": "山武市",
    "city_kana": "サンムシ",
    "town": "武勝",
    "town_kana": "ムショウ",
    "street": null,
    "office_name": null,
    "office_name_kana": null
  },
  "1221": {
    "postcode": "2891221",
    "prefecture": "千葉県",
    "prefecture_kana": "チバケン",
    "prefecture_code": 12,
    "city": "山武市",
    "city_kana": "サンムシ",
    "town": "実門",
    "town_kana": "サネカド",
    "street": null,
    "office_name": null,
    "office_name_kana": null
  },
  "1222": {
    "postcode": "2891222",
    "prefecture": "千葉県",
    "prefecture_kana": "チバケン",
    "prefecture_code": 12,
    "city": "山武市",
    "city_kana": "サンムシ",
    "town": "板中新田",
    "town_kana": "イタナカシンデン",
    "street": null,
    "office_name": null,
    "office_name_kana": null
  },
  "1223": {
    "postcode": "2891223",
    "prefecture": "千葉県",
    "prefecture_kana": "チバケン",
    "prefecture_code": 12,
    "city": "山武市",
    "city_kana": "サンムシ",
    "town": "埴谷",
    "town_kana": "ハニヤ",
    "street": null,
    "office_name": null,
    "office_name_kana": null
  },
  "1224": {
    "postcode": "2891224",
    "prefecture": "千葉県",
    "prefecture_kana": "チバケン",
    "prefecture_code": 12,
    "city": "山武市",
    "city_kana": "サンムシ",
    "town": "美杉野",
    "town_kana": "ミスギノ",
    "street": null,
    "office_name": null,
    "office_name_kana": null
  },
  "1225": {
    "postcode": "2891225",
    "prefecture": "千葉県",
    "prefecture_kana": "チバケン",
    "prefecture_code": 12,
    "city": "山武市",
    "city_kana": "サンムシ",
    "town": "沖渡",
    "town_kana": "オキワタシ",
    "street": null,
    "office_name": null,
    "office_name_kana": null
  },
  "1226": {
    "postcode": "2891226",
    "prefecture": "千葉県",
    "prefecture_kana": "チバケン",
    "prefecture_code": 12,
    "city": "山武市",
    "city_kana": "サンムシ",
    "town": "横田",
    "town_kana": "ヨコタ",
    "street": null,
    "office_name": null,
    "office_name_kana": null
  },
  "1297": {
    "postcode": "2891297",
    "prefecture": "千葉県",
    "prefecture_kana": "チバケン",
    "prefecture_code": 12,
    "city": "山武市",
    "city_kana": "サンムシ",
    "town": "横田",
    "town_kana": "ヨコタ",
    "street": "５１６番地",
    "office_name": "株式会社　アルバック",
    "office_name_kana": "カブシキガイシヤ アルバツク"
  },
  "1298": {
    "postcode": "2891298",
    "prefecture": "千葉県",
    "prefecture_kana": "チバケン",
    "prefecture_code": 12,
    "city": "山武市",
    "city_kana": "サンムシ",
    "town": "埴谷",
    "town_kana": "ハニヤ",
    "street": "１８８４−１",
    "office_name": "山武市　さんぶの森交流センター　あららぎ館",
    "office_name_kana": "サンムシ サンブノモリコウリユウセンタ- アララギカン"
  },
  "1300": {
    "postcode": "2891300",
    "prefecture": "千葉県",
    "prefecture_kana": "チバケン",
    "prefecture_code": 12,
    "city": "山武市",
    "city_kana": "サンムシ",
    "town": "",
    "town_kana": "",
    "street": null,
    "office_name": null,
    "office_name_kana": null
  },
  "1301": {
    "postcode": "2891301",
    "prefecture": "千葉県",
    "prefecture_kana": "チバケン",
    "prefecture_code": 12,
    "city": "山武市",
    "city_kana": "サンムシ",
    "town": "木戸",
    "town_kana": "キド",
    "street": null,
    "office_name": null,
    "office_name_kana": null
  },
  "1302": {
    "postcode": "2891302",
    "prefecture": "千葉県",
    "prefecture_kana": "チバケン",
    "prefecture_code": 12,
    "city": "山武市",
    "city_kana": "サンムシ",
    "town": "小松",
    "town_kana": "コマツ",
    "street": null,
    "office_name": null,
    "office_name_kana": null
  },
  "1303": {
    "postcode": "2891303",
    "prefecture": "千葉県",
    "prefecture_kana": "チバケン",
    "prefecture_code": 12,
    "city": "山武市",
    "city_kana": "サンムシ",
    "town": "松ヶ谷",
    "town_kana": "マツガヤ",
    "street": null,
    "office_name": null,
    "office_name_kana": null
  },
  "1304": {
    "postcode": "2891304",
    "prefecture": "千葉県",
    "prefecture_kana": "チバケン",
    "prefecture_code": 12,
    "city": "山武市",
    "city_kana": "サンムシ",
    "town": "井之内",
    "town_kana": "イノウチ",
    "street": null,
    "office_name": null,
    "office_name_kana": null
  },
  "1305": {
    "postcode": "2891305",
    "prefecture": "千葉県",
    "prefecture_kana": "チバケン",
    "prefecture_code": 12,
    "city": "山武市",
    "city_kana": "サンムシ",
    "town": "本須賀",
    "town_kana": "モトスカ",
    "street": null,
    "office_name": null,
    "office_name_kana": null
  },
  "1306": {
    "postcode": "2891306",
    "prefecture": "千葉県",
    "prefecture_kana": "チバケン",
    "prefecture_code": 12,
    "city": "山武市",
    "city_kana": "サンムシ",
    "town": "白幡",
    "town_kana": "シラハタ",
    "street": null,
    "office_name": null,
    "office_name_kana": null
  },
  "1311": {
    "postcode": "2891311",
    "prefecture": "千葉県",
    "prefecture_kana": "チバケン",
    "prefecture_code": 12,
    "city": "山武市",
    "city_kana": "サンムシ",
    "town": "早船",
    "town_kana": "ハヤフネ",
    "street": null,
    "office_name": null,
    "office_name_kana": null
  },
  "1312": {
    "postcode": "2891312",
    "prefecture": "千葉県",
    "prefecture_kana": "チバケン",
    "prefecture_code": 12,
    "city": "山武市",
    "city_kana": "サンムシ",
    "town": "柴原",
    "town_kana": "シバハラ",
    "street": null,
    "office_name": null,
    "office_name_kana": null
  },
  "1313": {
    "postcode": "2891313",
    "prefecture": "千葉県",
    "prefecture_kana": "チバケン",
    "prefecture_code": 12,
    "city": "山武市",
    "city_kana": "サンムシ",
    "town": "上横地",
    "town_kana": "カミヨコジ",
    "street": null,
    "office_name": null,
    "office_name_kana": null
  },
  "1314": {
    "postcode": "2891314",
    "prefecture": "千葉県",
    "prefecture_kana": "チバケン",
    "prefecture_code": 12,
    "city": "山武市",
    "city_kana": "サンムシ",
    "town": "下横地",
    "town_kana": "シモヨコヂ",
    "street": null,
    "office_name": null,
    "office_name_kana": null
  },
  "1315": {
    "postcode": "2891315",
    "prefecture": "千葉県",
    "prefecture_kana": "チバケン",
    "prefecture_code": 12,
    "city": "山武市",
    "city_kana": "サンムシ",
    "town": "草深",
    "town_kana": "クサブカ",
    "street": null,
    "office_name": null,
    "office_name_kana": null
  },
  "1316": {
    "postcode": "2891316",
    "prefecture": "千葉県",
    "prefecture_kana": "チバケン",
    "prefecture_code": 12,
    "city": "山武市",
    "city_kana": "サンムシ",
    "town": "五木田",
    "town_kana": "ゴキタ",
    "street": null,
    "office_name": null,
    "office_name_kana": null
  },
  "1317": {
    "postcode": "2891317",
    "prefecture": "千葉県",
    "prefecture_kana": "チバケン",
    "prefecture_code": 12,
    "city": "山武市",
    "city_kana": "サンムシ",
    "town": "小泉",
    "town_kana": "コイズミ",
    "street": null,
    "office_name": null,
    "office_name_kana": null
  },
  "1318": {
    "postcode": "2891318",
    "prefecture": "千葉県",
    "prefecture_kana": "チバケン",
    "prefecture_code": 12,
    "city": "山武市",
    "city_kana": "サンムシ",
    "town": "寺崎",
    "town_kana": "テラザキ",
    "street": null,
    "office_name": null,
    "office_name_kana": null
  },
  "1321": {
    "postcode": "2891321",
    "prefecture": "千葉県",
    "prefecture_kana": "チバケン",
    "prefecture_code": 12,
    "city": "山武市",
    "city_kana": "サンムシ",
    "town": "富田",
    "town_kana": "トミダ",
    "street": null,
    "office_name": null,
    "office_name_kana": null
  },
  "1322": {
    "postcode": "2891322",
    "prefecture": "千葉県",
    "prefecture_kana": "チバケン",
    "prefecture_code": 12,
    "city": "山武市",
    "city_kana": "サンムシ",
    "town": "富田幸谷",
    "town_kana": "トミダゴウヤ",
    "street": null,
    "office_name": null,
    "office_name_kana": null
  },
  "1323": {
    "postcode": "2891323",
    "prefecture": "千葉県",
    "prefecture_kana": "チバケン",
    "prefecture_code": 12,
    "city": "山武市",
    "city_kana": "サンムシ",
    "town": "富口",
    "town_kana": "トミグチ",
    "street": null,
    "office_name": null,
    "office_name_kana": null
  },
  "1324": {
    "postcode": "2891324",
    "prefecture": "千葉県",
    "prefecture_kana": "チバケン",
    "prefecture_code": 12,
    "city": "山武市",
    "city_kana": "サンムシ",
    "town": "殿台",
    "town_kana": "トノダイ",
    "street": null,
    "office_name": null,
    "office_name_kana": null
  },
  "1325": {
    "postcode": "2891325",
    "prefecture": "千葉県",
    "prefecture_kana": "チバケン",
    "prefecture_code": 12,
    "city": "山武市",
    "city_kana": "サンムシ",
    "town": "島",
    "town_kana": "シマ",
    "street": null,
    "office_name": null,
    "office_name_kana": null
  },
  "1326": {
    "postcode": "2891326",
    "prefecture": "千葉県",
    "prefecture_kana": "チバケン",
    "prefecture_code": 12,
    "city": "山武市",
    "city_kana": "サンムシ",
    "town": "成東",
    "town_kana": "ナルトウ",
    "street": null,
    "office_name": null,
    "office_name_kana": null
  },
  "1327": {
    "postcode": "2891327",
    "prefecture": "千葉県",
    "prefecture_kana": "チバケン",
    "prefecture_code": 12,
    "city": "山武市",
    "city_kana": "サンムシ",
    "town": "姫島",
    "town_kana": "ヒメシマ",
    "street": null,
    "office_name": null,
    "office_name_kana": null
  },
  "1328": {
    "postcode": "2891328",
    "prefecture": "千葉県",
    "prefecture_kana": "チバケン",
    "prefecture_code": 12,
    "city": "山武市",
    "city_kana": "サンムシ",
    "town": "湯坂",
    "town_kana": "ユサカ",
    "street": null,
    "office_name": null,
    "office_name_kana": null
  },
  "1331": {
    "postcode": "2891331",
    "prefecture": "千葉県",
    "prefecture_kana": "チバケン",
    "prefecture_code": 12,
    "city": "山武市",
    "city_kana": "サンムシ",
    "town": "川崎",
    "town_kana": "カワサキ",
    "street": null,
    "office_name": null,
    "office_name_kana": null
  },
  "1332": {
    "postcode": "2891332",
    "prefecture": "千葉県",
    "prefecture_kana": "チバケン",
    "prefecture_code": 12,
    "city": "山武市",
    "city_kana": "サンムシ",
    "town": "親田",
    "town_kana": "オヤダ",
    "street": null,
    "office_name": null,
    "office_name_kana": null
  },
  "1333": {
    "postcode": "2891333",
    "prefecture": "千葉県",
    "prefecture_kana": "チバケン",
    "prefecture_code": 12,
    "city": "山武市",
    "city_kana": "サンムシ",
    "town": "市場",
    "town_kana": "イチバ",
    "street": null,
    "office_name": null,
    "office_name_kana": null
  },
  "1334": {
    "postcode": "2891334",
    "prefecture": "千葉県",
    "prefecture_kana": "チバケン",
    "prefecture_code": 12,
    "city": "山武市",
    "city_kana": "サンムシ",
    "town": "和田",
    "town_kana": "ワダ",
    "street": null,
    "office_name": null,
    "office_name_kana": null
  },
  "1335": {
    "postcode": "2891335",
    "prefecture": "千葉県",
    "prefecture_kana": "チバケン",
    "prefecture_code": 12,
    "city": "山武市",
    "city_kana": "サンムシ",
    "town": "板附",
    "town_kana": "イタツキ",
    "street": null,
    "office_name": null,
    "office_name_kana": null
  },
  "1341": {
    "postcode": "2891341",
    "prefecture": "千葉県",
    "prefecture_kana": "チバケン",
    "prefecture_code": 12,
    "city": "山武市",
    "city_kana": "サンムシ",
    "town": "野堀",
    "town_kana": "ノボリ",
    "street": null,
    "office_name": null,
    "office_name_kana": null
  },
  "1342": {
    "postcode": "2891342",
    "prefecture": "千葉県",
    "prefecture_kana": "チバケン",
    "prefecture_code": 12,
    "city": "山武市",
    "city_kana": "サンムシ",
    "town": "嶋戸",
    "town_kana": "シマド",
    "street": null,
    "office_name": null,
    "office_name_kana": null
  },
  "1343": {
    "postcode": "2891343",
    "prefecture": "千葉県",
    "prefecture_kana": "チバケン",
    "prefecture_code": 12,
    "city": "山武市",
    "city_kana": "サンムシ",
    "town": "真行寺",
    "town_kana": "シンギョウジ",
    "street": null,
    "office_name": null,
    "office_name_kana": null
  },
  "1344": {
    "postcode": "2891344",
    "prefecture": "千葉県",
    "prefecture_kana": "チバケン",
    "prefecture_code": 12,
    "city": "山武市",
    "city_kana": "サンムシ",
    "town": "新泉",
    "town_kana": "ニイノミ",
    "street": null,
    "office_name": null,
    "office_name_kana": null
  },
  "1345": {
    "postcode": "2891345",
    "prefecture": "千葉県",
    "prefecture_kana": "チバケン",
    "prefecture_code": 12,
    "city": "山武市",
    "city_kana": "サンムシ",
    "town": "津辺",
    "town_kana": "ツベ",
    "street": null,
    "office_name": null,
    "office_name_kana": null
  },
  "1392": {
    "postcode": "2891392",
    "prefecture": "千葉県",
    "prefecture_kana": "チバケン",
    "prefecture_code": 12,
    "city": "山武市",
    "city_kana": "サンムシ",
    "town": "殿台",
    "town_kana": "トノダイ",
    "street": "２９６",
    "office_name": "山武市役所",
    "office_name_kana": "サンムシヤクシヨ"
  },
  "1501": {
    "postcode": "2891501",
    "prefecture": "千葉県",
    "prefecture_kana": "チバケン",
    "prefecture_code": 12,
    "city": "山武市",
    "city_kana": "サンムシ",
    "town": "松尾町山室",
    "town_kana": "マツオマチヤマムロ",
    "street": null,
    "office_name": null,
    "office_name_kana": null
  },
  "1502": {
    "postcode": "2891502",
    "prefecture": "千葉県",
    "prefecture_kana": "チバケン",
    "prefecture_code": 12,
    "city": "山武市",
    "city_kana": "サンムシ",
    "town": "松尾町引越",
    "town_kana": "マツオマチヒッコシ",
    "street": null,
    "office_name": null,
    "office_name_kana": null
  },
  "1503": {
    "postcode": "2891503",
    "prefecture": "千葉県",
    "prefecture_kana": "チバケン",
    "prefecture_code": 12,
    "city": "山武市",
    "city_kana": "サンムシ",
    "town": "松尾町谷津",
    "town_kana": "マツオマチヤツ",
    "street": null,
    "office_name": null,
    "office_name_kana": null
  },
  "1504": {
    "postcode": "2891504",
    "prefecture": "千葉県",
    "prefecture_kana": "チバケン",
    "prefecture_code": 12,
    "city": "山武市",
    "city_kana": "サンムシ",
    "town": "松尾町古和",
    "town_kana": "マツオマチコワ",
    "street": null,
    "office_name": null,
    "office_name_kana": null
  },
  "1505": {
    "postcode": "2891505",
    "prefecture": "千葉県",
    "prefecture_kana": "チバケン",
    "prefecture_code": 12,
    "city": "山武市",
    "city_kana": "サンムシ",
    "town": "松尾町金尾",
    "town_kana": "マツオマチカンノオ",
    "street": null,
    "office_name": null,
    "office_name_kana": null
  },
  "1506": {
    "postcode": "2891506",
    "prefecture": "千葉県",
    "prefecture_kana": "チバケン",
    "prefecture_code": 12,
    "city": "山武市",
    "city_kana": "サンムシ",
    "town": "松尾町上大蔵",
    "town_kana": "マツオマチカミオオクラ",
    "street": null,
    "office_name": null,
    "office_name_kana": null
  },
  "1507": {
    "postcode": "2891507",
    "prefecture": "千葉県",
    "prefecture_kana": "チバケン",
    "prefecture_code": 12,
    "city": "山武市",
    "city_kana": "サンムシ",
    "town": "松尾町小川",
    "town_kana": "マツオマチオガワ",
    "street": null,
    "office_name": null,
    "office_name_kana": null
  },
  "1511": {
    "postcode": "2891511",
    "prefecture": "千葉県",
    "prefecture_kana": "チバケン",
    "prefecture_code": 12,
    "city": "山武市",
    "city_kana": "サンムシ",
    "town": "松尾町蕪木",
    "town_kana": "マツオマチカブラキ",
    "street": null,
    "office_name": null,
    "office_name_kana": null
  },
  "1512": {
    "postcode": "2891512",
    "prefecture": "千葉県",
    "prefecture_kana": "チバケン",
    "prefecture_code": 12,
    "city": "山武市",
    "city_kana": "サンムシ",
    "town": "松尾町八田",
    "town_kana": "マツオマチハッタ",
    "street": null,
    "office_name": null,
    "office_name_kana": null
  },
  "1513": {
    "postcode": "2891513",
    "prefecture": "千葉県",
    "prefecture_kana": "チバケン",
    "prefecture_code": 12,
    "city": "山武市",
    "city_kana": "サンムシ",
    "town": "松尾町猿尾",
    "town_kana": "マツオマチサルオ",
    "street": null,
    "office_name": null,
    "office_name_kana": null
  },
  "1514": {
    "postcode": "2891514",
    "prefecture": "千葉県",
    "prefecture_kana": "チバケン",
    "prefecture_code": 12,
    "city": "山武市",
    "city_kana": "サンムシ",
    "town": "松尾町松尾",
    "town_kana": "マツオマチマツオ",
    "street": null,
    "office_name": null,
    "office_name_kana": null
  },
  "1515": {
    "postcode": "2891515",
    "prefecture": "千葉県",
    "prefecture_kana": "チバケン",
    "prefecture_code": 12,
    "city": "山武市",
    "city_kana": "サンムシ",
    "town": "松尾町富士見台",
    "town_kana": "マツオマチフジミダイ",
    "street": null,
    "office_name": null,
    "office_name_kana": null
  },
  "1516": {
    "postcode": "2891516",
    "prefecture": "千葉県",
    "prefecture_kana": "チバケン",
    "prefecture_code": 12,
    "city": "山武市",
    "city_kana": "サンムシ",
    "town": "松尾町田越",
    "town_kana": "マツオマチタコエ",
    "street": null,
    "office_name": null,
    "office_name_kana": null
  },
  "1517": {
    "postcode": "2891517",
    "prefecture": "千葉県",
    "prefecture_kana": "チバケン",
    "prefecture_code": 12,
    "city": "山武市",
    "city_kana": "サンムシ",
    "town": "松尾町下大蔵",
    "town_kana": "マツオマチシモオオクラ",
    "street": null,
    "office_name": null,
    "office_name_kana": null
  },
  "1521": {
    "postcode": "2891521",
    "prefecture": "千葉県",
    "prefecture_kana": "チバケン",
    "prefecture_code": 12,
    "city": "山武市",
    "city_kana": "サンムシ",
    "town": "松尾町本柏",
    "town_kana": "マツオマチモトガシワ",
    "street": null,
    "office_name": null,
    "office_name_kana": null
  },
  "1522": {
    "postcode": "2891522",
    "prefecture": "千葉県",
    "prefecture_kana": "チバケン",
    "prefecture_code": 12,
    "city": "山武市",
    "city_kana": "サンムシ",
    "town": "松尾町高富",
    "town_kana": "マツオマチタカトミ",
    "street": null,
    "office_name": null,
    "office_name_kana": null
  },
  "1523": {
    "postcode": "2891523",
    "prefecture": "千葉県",
    "prefecture_kana": "チバケン",
    "prefecture_code": 12,
    "city": "山武市",
    "city_kana": "サンムシ",
    "town": "松尾町五反田",
    "town_kana": "マツオマチゴタンダ",
    "street": null,
    "office_name": null,
    "office_name_kana": null
  },
  "1524": {
    "postcode": "2891524",
    "prefecture": "千葉県",
    "prefecture_kana": "チバケン",
    "prefecture_code": 12,
    "city": "山武市",
    "city_kana": "サンムシ",
    "town": "松尾町祝田",
    "town_kana": "マツオマチイワイタ",
    "street": null,
    "office_name": null,
    "office_name_kana": null
  },
  "1525": {
    "postcode": "2891525",
    "prefecture": "千葉県",
    "prefecture_kana": "チバケン",
    "prefecture_code": 12,
    "city": "山武市",
    "city_kana": "サンムシ",
    "town": "松尾町本水深",
    "town_kana": "マツオマチモトミズフカ",
    "street": null,
    "office_name": null,
    "office_name_kana": null
  },
  "1526": {
    "postcode": "2891526",
    "prefecture": "千葉県",
    "prefecture_kana": "チバケン",
    "prefecture_code": 12,
    "city": "山武市",
    "city_kana": "サンムシ",
    "town": "松尾町水深",
    "town_kana": "マツオマチミズフカ",
    "street": null,
    "office_name": null,
    "office_name_kana": null
  },
  "1527": {
    "postcode": "2891527",
    "prefecture": "千葉県",
    "prefecture_kana": "チバケン",
    "prefecture_code": 12,
    "city": "山武市",
    "city_kana": "サンムシ",
    "town": "松尾町大堤",
    "town_kana": "マツオマチオオツツミ",
    "street": null,
    "office_name": null,
    "office_name_kana": null
  },
  "1531": {
    "postcode": "2891531",
    "prefecture": "千葉県",
    "prefecture_kana": "チバケン",
    "prefecture_code": 12,
    "city": "山武市",
    "city_kana": "サンムシ",
    "town": "松尾町木刀",
    "town_kana": "マツオマチキガタナ",
    "street": null,
    "office_name": null,
    "office_name_kana": null
  },
  "1532": {
    "postcode": "2891532",
    "prefecture": "千葉県",
    "prefecture_kana": "チバケン",
    "prefecture_code": 12,
    "city": "山武市",
    "city_kana": "サンムシ",
    "town": "松尾町武野里",
    "town_kana": "マツオマチタケノサト",
    "street": null,
    "office_name": null,
    "office_name_kana": null
  },
  "1533": {
    "postcode": "2891533",
    "prefecture": "千葉県",
    "prefecture_kana": "チバケン",
    "prefecture_code": 12,
    "city": "山武市",
    "city_kana": "サンムシ",
    "town": "松尾町広根",
    "town_kana": "マツオマチヒロネ",
    "street": null,
    "office_name": null,
    "office_name_kana": null
  },
  "1534": {
    "postcode": "2891534",
    "prefecture": "千葉県",
    "prefecture_kana": "チバケン",
    "prefecture_code": 12,
    "city": "山武市",
    "city_kana": "サンムシ",
    "town": "松尾町下野",
    "town_kana": "マツオマチシモノ",
    "street": null,
    "office_name": null,
    "office_name_kana": null
  },
  "1535": {
    "postcode": "2891535",
    "prefecture": "千葉県",
    "prefecture_kana": "チバケン",
    "prefecture_code": 12,
    "city": "山武市",
    "city_kana": "サンムシ",
    "town": "松尾町折戸",
    "town_kana": "マツオマチオリト",
    "street": null,
    "office_name": null,
    "office_name_kana": null
  },
  "1536": {
    "postcode": "2891536",
    "prefecture": "千葉県",
    "prefecture_kana": "チバケン",
    "prefecture_code": 12,
    "city": "山武市",
    "city_kana": "サンムシ",
    "town": "松尾町下之郷",
    "town_kana": "マツオマチシモノゴウ",
    "street": null,
    "office_name": null,
    "office_name_kana": null
  },
  "1537": {
    "postcode": "2891537",
    "prefecture": "千葉県",
    "prefecture_kana": "チバケン",
    "prefecture_code": 12,
    "city": "山武市",
    "city_kana": "サンムシ",
    "town": "松尾町借毛本郷",
    "town_kana": "マツオマチカシケホンゴウ",
    "street": null,
    "office_name": null,
    "office_name_kana": null
  },
  "1592": {
    "postcode": "2891592",
    "prefecture": "千葉県",
    "prefecture_kana": "チバケン",
    "prefecture_code": 12,
    "city": "山武市",
    "city_kana": "サンムシ",
    "town": "松尾町下大蔵",
    "town_kana": "マツオマチシモオオクラ",
    "street": "４５３番地１",
    "office_name": "ＰＤＲファーマ　株式会社　千葉工場",
    "office_name_kana": "ピ-デイ-ア-ルフア-マ カブシキガイシヤ チバコウジヨウ"
  },
  "1593": {
    "postcode": "2891593",
    "prefecture": "千葉県",
    "prefecture_kana": "チバケン",
    "prefecture_code": 12,
    "city": "山武市",
    "city_kana": "サンムシ",
    "town": "松尾町五反田",
    "town_kana": "マツオマチゴタンダ",
    "street": "３０１２",
    "office_name": "山武市　松尾ＩＴ保健福祉センター",
    "office_name_kana": "サンムシ マツオアイテイ-ホケンフクシセンタ-"
  },
  "1594": {
    "postcode": "2891594",
    "prefecture": "千葉県",
    "prefecture_kana": "チバケン",
    "prefecture_code": 12,
    "city": "山武市",
    "city_kana": "サンムシ",
    "town": "松尾町大堤",
    "town_kana": "マツオマチオオツツミ",
    "street": "５４６",
    "office_name": "千葉県立　松尾高等学校",
    "office_name_kana": "チバケンリツ マツオコウトウガツコウ"
  },
  "1600": {
    "postcode": "2891600",
    "prefecture": "千葉県",
    "prefecture_kana": "チバケン",
    "prefecture_code": 12,
    "city": "山武郡芝山町",
    "city_kana": "サンブグンシバヤママチ",
    "town": "",
    "town_kana": "",
    "street": null,
    "office_name": null,
    "office_name_kana": null
  },
  "1601": {
    "postcode": "2891601",
    "prefecture": "千葉県",
    "prefecture_kana": "チバケン",
    "prefecture_code": 12,
    "city": "山武郡芝山町",
    "city_kana": "サンブグンシバヤママチ",
    "town": "香山新田",
    "town_kana": "カヤマシンデン",
    "street": null,
    "office_name": null,
    "office_name_kana": null
  },
  "1602": {
    "postcode": "2891602",
    "prefecture": "千葉県",
    "prefecture_kana": "チバケン",
    "prefecture_code": 12,
    "city": "山武郡芝山町",
    "city_kana": "サンブグンシバヤママチ",
    "town": "菱田",
    "town_kana": "ヒシダ",
    "street": null,
    "office_name": null,
    "office_name_kana": null
  },
  "1603": {
    "postcode": "2891603",
    "prefecture": "千葉県",
    "prefecture_kana": "チバケン",
    "prefecture_code": 12,
    "city": "山武郡芝山町",
    "city_kana": "サンブグンシバヤママチ",
    "town": "大里",
    "town_kana": "オオサト",
    "street": null,
    "office_name": null,
    "office_name_kana": null
  },
  "1604": {
    "postcode": "2891604",
    "prefecture": "千葉県",
    "prefecture_kana": "チバケン",
    "prefecture_code": 12,
    "city": "山武郡芝山町",
    "city_kana": "サンブグンシバヤママチ",
    "town": "飯櫃",
    "town_kana": "イビツ",
    "street": null,
    "office_name": null,
    "office_name_kana": null
  },
  "1605": {
    "postcode": "2891605",
    "prefecture": "千葉県",
    "prefecture_kana": "チバケン",
    "prefecture_code": 12,
    "city": "山武郡芝山町",
    "city_kana": "サンブグンシバヤママチ",
    "town": "大台",
    "town_kana": "オオダイ",
    "street": null,
    "office_name": null,
    "office_name_kana": null
  },
  "1606": {
    "postcode": "2891606",
    "prefecture": "千葉県",
    "prefecture_kana": "チバケン",
    "prefecture_code": 12,
    "city": "山武郡芝山町",
    "city_kana": "サンブグンシバヤママチ",
    "town": "山田",
    "town_kana": "ヤマダ",
    "street": null,
    "office_name": null,
    "office_name_kana": null
  },
  "1607": {
    "postcode": "2891607",
    "prefecture": "千葉県",
    "prefecture_kana": "チバケン",
    "prefecture_code": 12,
    "city": "山武郡芝山町",
    "city_kana": "サンブグンシバヤママチ",
    "town": "朝倉",
    "town_kana": "アサクラ",
    "street": null,
    "office_name": null,
    "office_name_kana": null
  },
  "1608": {
    "postcode": "2891608",
    "prefecture": "千葉県",
    "prefecture_kana": "チバケン",
    "prefecture_code": 12,
    "city": "山武郡芝山町",
    "city_kana": "サンブグンシバヤママチ",
    "town": "岩山",
    "town_kana": "イワヤマ",
    "street": null,
    "office_name": null,
    "office_name_kana": null
  },
  "1611": {
    "postcode": "2891611",
    "prefecture": "千葉県",
    "prefecture_kana": "チバケン",
    "prefecture_code": 12,
    "city": "山武郡芝山町",
    "city_kana": "サンブグンシバヤママチ",
    "town": "小原子",
    "town_kana": "オバラク",
    "street": null,
    "office_name": null,
    "office_name_kana": null
  },
  "1612": {
    "postcode": "2891612",
    "prefecture": "千葉県",
    "prefecture_kana": "チバケン",
    "prefecture_code": 12,
    "city": "山武郡芝山町",
    "city_kana": "サンブグンシバヤママチ",
    "town": "上吹入",
    "town_kana": "カミフキイレ",
    "street": null,
    "office_name": null,
    "office_name_kana": null
  },
  "1613": {
    "postcode": "2891613",
    "prefecture": "千葉県",
    "prefecture_kana": "チバケン",
    "prefecture_code": 12,
    "city": "山武郡芝山町",
    "city_kana": "サンブグンシバヤママチ",
    "town": "下吹入",
    "town_kana": "シモフキイレ",
    "street": null,
    "office_name": null,
    "office_name_kana": null
  },
  "1614": {
    "postcode": "2891614",
    "prefecture": "千葉県",
    "prefecture_kana": "チバケン",
    "prefecture_code": 12,
    "city": "山武郡芝山町",
    "city_kana": "サンブグンシバヤママチ",
    "town": "宮崎",
    "town_kana": "ミヤザキ",
    "street": null,
    "office_name": null,
    "office_name_kana": null
  },
  "1615": {
    "postcode": "2891615",
    "prefecture": "千葉県",
    "prefecture_kana": "チバケン",
    "prefecture_code": 12,
    "city": "山武郡芝山町",
    "city_kana": "サンブグンシバヤママチ",
    "town": "境",
    "town_kana": "サカイ",
    "street": null,
    "office_name": null,
    "office_name_kana": null
  },
  "1616": {
    "postcode": "2891616",
    "prefecture": "千葉県",
    "prefecture_kana": "チバケン",
    "prefecture_code": 12,
    "city": "山武郡芝山町",
    "city_kana": "サンブグンシバヤママチ",
    "town": "高谷",
    "town_kana": "タカヤ",
    "street": null,
    "office_name": null,
    "office_name_kana": null
  },
  "1617": {
    "postcode": "2891617",
    "prefecture": "千葉県",
    "prefecture_kana": "チバケン",
    "prefecture_code": 12,
    "city": "山武郡芝山町",
    "city_kana": "サンブグンシバヤママチ",
    "town": "殿部田",
    "town_kana": "トノベタ",
    "street": null,
    "office_name": null,
    "office_name_kana": null
  },
  "1618": {
    "postcode": "2891618",
    "prefecture": "千葉県",
    "prefecture_kana": "チバケン",
    "prefecture_code": 12,
    "city": "山武郡芝山町",
    "city_kana": "サンブグンシバヤママチ",
    "town": "山中",
    "town_kana": "ヤマナカ",
    "street": null,
    "office_name": null,
    "office_name_kana": null
  },
  "1619": {
    "postcode": "2891619",
    "prefecture": "千葉県",
    "prefecture_kana": "チバケン",
    "prefecture_code": 12,
    "city": "山武郡芝山町",
    "city_kana": "サンブグンシバヤママチ",
    "town": "芝山",
    "town_kana": "シバヤマ",
    "street": null,
    "office_name": null,
    "office_name_kana": null
  },
  "1621": {
    "postcode": "2891621",
    "prefecture": "千葉県",
    "prefecture_kana": "チバケン",
    "prefecture_code": 12,
    "city": "山武郡芝山町",
    "city_kana": "サンブグンシバヤママチ",
    "town": "牧野",
    "town_kana": "マキノ",
    "street": null,
    "office_name": null,
    "office_name_kana": null
  },
  "1622": {
    "postcode": "2891622",
    "prefecture": "千葉県",
    "prefecture_kana": "チバケン",
    "prefecture_code": 12,
    "city": "山武郡芝山町",
    "city_kana": "サンブグンシバヤママチ",
    "town": "宝馬",
    "town_kana": "ホウマ",
    "street": null,
    "office_name": null,
    "office_name_kana": null
  },
  "1623": {
    "postcode": "2891623",
    "prefecture": "千葉県",
    "prefecture_kana": "チバケン",
    "prefecture_code": 12,
    "city": "山武郡芝山町",
    "city_kana": "サンブグンシバヤママチ",
    "town": "高田",
    "town_kana": "タカダ",
    "street": null,
    "office_name": null,
    "office_name_kana": null
  },
  "1624": {
    "postcode": "2891624",
    "prefecture": "千葉県",
    "prefecture_kana": "チバケン",
    "prefecture_code": 12,
    "city": "山武郡芝山町",
    "city_kana": "サンブグンシバヤママチ",
    "town": "小池",
    "town_kana": "コイケ",
    "street": null,
    "office_name": null,
    "office_name_kana": null
  },
  "1625": {
    "postcode": "2891625",
    "prefecture": "千葉県",
    "prefecture_kana": "チバケン",
    "prefecture_code": 12,
    "city": "山武郡芝山町",
    "city_kana": "サンブグンシバヤママチ",
    "town": "新井田",
    "town_kana": "ニイダ",
    "street": null,
    "office_name": null,
    "office_name_kana": null
  },
  "1626": {
    "postcode": "2891626",
    "prefecture": "千葉県",
    "prefecture_kana": "チバケン",
    "prefecture_code": 12,
    "city": "山武郡芝山町",
    "city_kana": "サンブグンシバヤママチ",
    "town": "新井田新田",
    "town_kana": "ニイダシンデン",
    "street": null,
    "office_name": null,
    "office_name_kana": null
  },
  "1692": {
    "postcode": "2891692",
    "prefecture": "千葉県",
    "prefecture_kana": "チバケン",
    "prefecture_code": 12,
    "city": "山武郡芝山町",
    "city_kana": "サンブグンシバヤママチ",
    "town": "小池",
    "town_kana": "コイケ",
    "street": "９９２",
    "office_name": "芝山町役場",
    "office_name_kana": "シバヤママチヤクバ"
  },
  "1693": {
    "postcode": "2891693",
    "prefecture": "千葉県",
    "prefecture_kana": "チバケン",
    "prefecture_code": 12,
    "city": "山武郡芝山町",
    "city_kana": "サンブグンシバヤママチ",
    "town": "小池",
    "town_kana": "コイケ",
    "street": "２７００−１",
    "office_name": "日本オーチス・エレベータ　株式会社",
    "office_name_kana": "ニツポンオ-チス・エレベ-タ カブシキガイシヤ"
  },
  "1700": {
    "postcode": "2891700",
    "prefecture": "千葉県",
    "prefecture_kana": "チバケン",
    "prefecture_code": 12,
    "city": "山武郡横芝光町",
    "city_kana": "サンブグンヨコシバヒカリマチ",
    "town": "",
    "town_kana": "",
    "street": null,
    "office_name": null,
    "office_name_kana": null
  },
  "1701": {
    "postcode": "2891701",
    "prefecture": "千葉県",
    "prefecture_kana": "チバケン",
    "prefecture_code": 12,
    "city": "山武郡横芝光町",
    "city_kana": "サンブグンヨコシバヒカリマチ",
    "town": "篠本",
    "town_kana": "ササモト",
    "street": null,
    "office_name": null,
    "office_name_kana": null
  },
  "1702": {
    "postcode": "2891702",
    "prefecture": "千葉県",
    "prefecture_kana": "チバケン",
    "prefecture_code": 12,
    "city": "山武郡横芝光町",
    "city_kana": "サンブグンヨコシバヒカリマチ",
    "town": "二又",
    "town_kana": "フタマタ",
    "street": null,
    "office_name": null,
    "office_name_kana": null
  },
  "1703": {
    "postcode": "2891703",
    "prefecture": "千葉県",
    "prefecture_kana": "チバケン",
    "prefecture_code": 12,
    "city": "山武郡横芝光町",
    "city_kana": "サンブグンヨコシバヒカリマチ",
    "town": "傍示戸",
    "town_kana": "ホウジド",
    "street": null,
    "office_name": null,
    "office_name_kana": null
  },
  "1704": {
    "postcode": "2891704",
    "prefecture": "千葉県",
    "prefecture_kana": "チバケン",
    "prefecture_code": 12,
    "city": "山武郡横芝光町",
    "city_kana": "サンブグンヨコシバヒカリマチ",
    "town": "富下",
    "town_kana": "トミシタ",
    "street": null,
    "office_name": null,
    "office_name_kana": null
  },
  "1705": {
    "postcode": "2891705",
    "prefecture": "千葉県",
    "prefecture_kana": "チバケン",
    "prefecture_code": 12,
    "city": "山武郡横芝光町",
    "city_kana": "サンブグンヨコシバヒカリマチ",
    "town": "宝米",
    "town_kana": "ホウメ",
    "street": null,
    "office_name": null,
    "office_name_kana": null
  },
  "1706": {
    "postcode": "2891706",
    "prefecture": "千葉県",
    "prefecture_kana": "チバケン",
    "prefecture_code": 12,
    "city": "山武郡横芝光町",
    "city_kana": "サンブグンヨコシバヒカリマチ",
    "town": "市野原",
    "town_kana": "イチノハラ",
    "street": null,
    "office_name": null,
    "office_name_kana": null
  },
  "1707": {
    "postcode": "2891707",
    "prefecture": "千葉県",
    "prefecture_kana": "チバケン",
    "prefecture_code": 12,
    "city": "山武郡横芝光町",
    "city_kana": "サンブグンヨコシバヒカリマチ",
    "town": "新井",
    "town_kana": "アライ",
    "street": null,
    "office_name": null,
    "office_name_kana": null
  },
  "1708": {
    "postcode": "2891708",
    "prefecture": "千葉県",
    "prefecture_kana": "チバケン",
    "prefecture_code": 12,
    "city": "山武郡横芝光町",
    "city_kana": "サンブグンヨコシバヒカリマチ",
    "town": "篠本根切",
    "town_kana": "ササモトネギリ",
    "street": null,
    "office_name": null,
    "office_name_kana": null
  },
  "1711": {
    "postcode": "2891711",
    "prefecture": "千葉県",
    "prefecture_kana": "チバケン",
    "prefecture_code": 12,
    "city": "山武郡横芝光町",
    "city_kana": "サンブグンヨコシバヒカリマチ",
    "town": "小川台",
    "town_kana": "オガワダイ",
    "street": null,
    "office_name": null,
    "office_name_kana": null
  },
  "1712": {
    "postcode": "2891712",
    "prefecture": "千葉県",
    "prefecture_kana": "チバケン",
    "prefecture_code": 12,
    "city": "山武郡横芝光町",
    "city_kana": "サンブグンヨコシバヒカリマチ",
    "town": "台",
    "town_kana": "ダイ",
    "street": null,
    "office_name": null,
    "office_name_kana": null
  },
  "1713": {
    "postcode": "2891713",
    "prefecture": "千葉県",
    "prefecture_kana": "チバケン",
    "prefecture_code": 12,
    "city": "山武郡横芝光町",
    "city_kana": "サンブグンヨコシバヒカリマチ",
    "town": "小田部",
    "town_kana": "コタベ",
    "street": null,
    "office_name": null,
    "office_name_kana": null
  },
  "1714": {
    "postcode": "2891714",
    "prefecture": "千葉県",
    "prefecture_kana": "チバケン",
    "prefecture_code": 12,
    "city": "山武郡横芝光町",
    "city_kana": "サンブグンヨコシバヒカリマチ",
    "town": "母子",
    "town_kana": "ハハコ",
    "street": null,
    "office_name": null,
    "office_name_kana": null
  },
  "1715": {
    "postcode": "2891715",
    "prefecture": "千葉県",
    "prefecture_kana": "チバケン",
    "prefecture_code": 12,
    "city": "山武郡横芝光町",
    "city_kana": "サンブグンヨコシバヒカリマチ",
    "town": "芝崎",
    "town_kana": "シバサキ",
    "street": null,
    "office_name": null,
    "office_name_kana": null
  },
  "1716": {
    "postcode": "2891716",
    "prefecture": "千葉県",
    "prefecture_kana": "チバケン",
    "prefecture_code": 12,
    "city": "山武郡横芝光町",
    "city_kana": "サンブグンヨコシバヒカリマチ",
    "town": "芝崎南",
    "town_kana": "シバサキミナミ",
    "street": null,
    "office_name": null,
    "office_name_kana": null
  },
  "1717": {
    "postcode": "2891717",
    "prefecture": "千葉県",
    "prefecture_kana": "チバケン",
    "prefecture_code": 12,
    "city": "山武郡横芝光町",
    "city_kana": "サンブグンヨコシバヒカリマチ",
    "town": "虫生",
    "town_kana": "ムショウ",
    "street": null,
    "office_name": null,
    "office_name_kana": null
  },
  "1721": {
    "postcode": "2891721",
    "prefecture": "千葉県",
    "prefecture_kana": "チバケン",
    "prefecture_code": 12,
    "city": "山武郡横芝光町",
    "city_kana": "サンブグンヨコシバヒカリマチ",
    "town": "谷中",
    "town_kana": "ヤナカ",
    "street": null,
    "office_name": null,
    "office_name_kana": null
  },
  "1722": {
    "postcode": "2891722",
    "prefecture": "千葉県",
    "prefecture_kana": "チバケン",
    "prefecture_code": 12,
    "city": "山武郡横芝光町",
    "city_kana": "サンブグンヨコシバヒカリマチ",
    "town": "目篠",
    "town_kana": "メジノ",
    "street": null,
    "office_name": null,
    "office_name_kana": null
  },
  "1723": {
    "postcode": "2891723",
    "prefecture": "千葉県",
    "prefecture_kana": "チバケン",
    "prefecture_code": 12,
    "city": "山武郡横芝光町",
    "city_kana": "サンブグンヨコシバヒカリマチ",
    "town": "上原",
    "town_kana": "カンバラ",
    "street": null,
    "office_name": null,
    "office_name_kana": null
  },
  "1724": {
    "postcode": "2891724",
    "prefecture": "千葉県",
    "prefecture_kana": "チバケン",
    "prefecture_code": 12,
    "city": "山武郡横芝光町",
    "city_kana": "サンブグンヨコシバヒカリマチ",
    "town": "原方",
    "town_kana": "ハラカタ",
    "street": null,
    "office_name": null,
    "office_name_kana": null
  },
  "1725": {
    "postcode": "2891725",
    "prefecture": "千葉県",
    "prefecture_kana": "チバケン",
    "prefecture_code": 12,
    "city": "山武郡横芝光町",
    "city_kana": "サンブグンヨコシバヒカリマチ",
    "town": "尾垂",
    "town_kana": "オダレ",
    "street": null,
    "office_name": null,
    "office_name_kana": null
  },
  "1726": {
    "postcode": "2891726",
    "prefecture": "千葉県",
    "prefecture_kana": "チバケン",
    "prefecture_code": 12,
    "city": "山武郡横芝光町",
    "city_kana": "サンブグンヨコシバヒカリマチ",
    "town": "木戸",
    "town_kana": "キド",
    "street": null,
    "office_name": null,
    "office_name_kana": null
  },
  "1727": {
    "postcode": "2891727",
    "prefecture": "千葉県",
    "prefecture_kana": "チバケン",
    "prefecture_code": 12,
    "city": "山武郡横芝光町",
    "city_kana": "サンブグンヨコシバヒカリマチ",
    "town": "宮川",
    "town_kana": "ミヤガワ",
    "street": null,
    "office_name": null,
    "office_name_kana": null
  },
  "1731": {
    "postcode": "2891731",
    "prefecture": "千葉県",
    "prefecture_kana": "チバケン",
    "prefecture_code": 12,
    "city": "山武郡横芝光町",
    "city_kana": "サンブグンヨコシバヒカリマチ",
    "town": "古川",
    "town_kana": "コカワ",
    "street": null,
    "office_name": null,
    "office_name_kana": null
  },
  "1732": {
    "postcode": "2891732",
    "prefecture": "千葉県",
    "prefecture_kana": "チバケン",
    "prefecture_code": 12,
    "city": "山武郡横芝光町",
    "city_kana": "サンブグンヨコシバヒカリマチ",
    "town": "横芝",
    "town_kana": "ヨコシバ",
    "street": null,
    "office_name": null,
    "office_name_kana": null
  },
  "1733": {
    "postcode": "2891733",
    "prefecture": "千葉県",
    "prefecture_kana": "チバケン",
    "prefecture_code": 12,
    "city": "山武郡横芝光町",
    "city_kana": "サンブグンヨコシバヒカリマチ",
    "town": "栗山",
    "town_kana": "クリヤマ",
    "street": null,
    "office_name": null,
    "office_name_kana": null
  },
  "1734": {
    "postcode": "2891734",
    "prefecture": "千葉県",
    "prefecture_kana": "チバケン",
    "prefecture_code": 12,
    "city": "山武郡横芝光町",
    "city_kana": "サンブグンヨコシバヒカリマチ",
    "town": "北清水",
    "town_kana": "キタシミズ",
    "street": null,
    "office_name": null,
    "office_name_kana": null
  },
  "1735": {
    "postcode": "2891735",
    "prefecture": "千葉県",
    "prefecture_kana": "チバケン",
    "prefecture_code": 12,
    "city": "山武郡横芝光町",
    "city_kana": "サンブグンヨコシバヒカリマチ",
    "town": "屋形",
    "town_kana": "ヤカタ",
    "street": null,
    "office_name": null,
    "office_name_kana": null
  },
  "1736": {
    "postcode": "2891736",
    "prefecture": "千葉県",
    "prefecture_kana": "チバケン",
    "prefecture_code": 12,
    "city": "山武郡横芝光町",
    "city_kana": "サンブグンヨコシバヒカリマチ",
    "town": "新島",
    "town_kana": "ニイジマ",
    "street": null,
    "office_name": null,
    "office_name_kana": null
  },
  "1737": {
    "postcode": "2891737",
    "prefecture": "千葉県",
    "prefecture_kana": "チバケン",
    "prefecture_code": 12,
    "city": "山武郡横芝光町",
    "city_kana": "サンブグンヨコシバヒカリマチ",
    "town": "鳥喰下",
    "town_kana": "トリハミシモ",
    "street": null,
    "office_name": null,
    "office_name_kana": null
  },
  "1738": {
    "postcode": "2891738",
    "prefecture": "千葉県",
    "prefecture_kana": "チバケン",
    "prefecture_code": 12,
    "city": "山武郡横芝光町",
    "city_kana": "サンブグンヨコシバヒカリマチ",
    "town": "鳥喰上",
    "town_kana": "トリハミカミ",
    "street": null,
    "office_name": null,
    "office_name_kana": null
  },
  "1739": {
    "postcode": "2891739",
    "prefecture": "千葉県",
    "prefecture_kana": "チバケン",
    "prefecture_code": 12,
    "city": "山武郡横芝光町",
    "city_kana": "サンブグンヨコシバヒカリマチ",
    "town": "鳥喰新田",
    "town_kana": "トリハミシンデン",
    "street": null,
    "office_name": null,
    "office_name_kana": null
  },
  "1741": {
    "postcode": "2891741",
    "prefecture": "千葉県",
    "prefecture_kana": "チバケン",
    "prefecture_code": 12,
    "city": "山武郡横芝光町",
    "city_kana": "サンブグンヨコシバヒカリマチ",
    "town": "中台",
    "town_kana": "ナカダイ",
    "street": null,
    "office_name": null,
    "office_name_kana": null
  },
  "1742": {
    "postcode": "2891742",
    "prefecture": "千葉県",
    "prefecture_kana": "チバケン",
    "prefecture_code": 12,
    "city": "山武郡横芝光町",
    "city_kana": "サンブグンヨコシバヒカリマチ",
    "town": "牛熊",
    "town_kana": "ウシクマ",
    "street": null,
    "office_name": null,
    "office_name_kana": null
  },
  "1743": {
    "postcode": "2891743",
    "prefecture": "千葉県",
    "prefecture_kana": "チバケン",
    "prefecture_code": 12,
    "city": "山武郡横芝光町",
    "city_kana": "サンブグンヨコシバヒカリマチ",
    "town": "谷台",
    "town_kana": "ヤツダイ",
    "street": null,
    "office_name": null,
    "office_name_kana": null
  },
  "1744": {
    "postcode": "2891744",
    "prefecture": "千葉県",
    "prefecture_kana": "チバケン",
    "prefecture_code": 12,
    "city": "山武郡横芝光町",
    "city_kana": "サンブグンヨコシバヒカリマチ",
    "town": "木戸台",
    "town_kana": "キドダイ",
    "street": null,
    "office_name": null,
    "office_name_kana": null
  },
  "1745": {
    "postcode": "2891745",
    "prefecture": "千葉県",
    "prefecture_kana": "チバケン",
    "prefecture_code": 12,
    "city": "山武郡横芝光町",
    "city_kana": "サンブグンヨコシバヒカリマチ",
    "town": "小堤",
    "town_kana": "オンヅミ",
    "street": null,
    "office_name": null,
    "office_name_kana": null
  },
  "1746": {
    "postcode": "2891746",
    "prefecture": "千葉県",
    "prefecture_kana": "チバケン",
    "prefecture_code": 12,
    "city": "山武郡横芝光町",
    "city_kana": "サンブグンヨコシバヒカリマチ",
    "town": "寺方",
    "town_kana": "テラカタ",
    "street": null,
    "office_name": null,
    "office_name_kana": null
  },
  "1747": {
    "postcode": "2891747",
    "prefecture": "千葉県",
    "prefecture_kana": "チバケン",
    "prefecture_code": 12,
    "city": "山武郡横芝光町",
    "city_kana": "サンブグンヨコシバヒカリマチ",
    "town": "曽根合",
    "town_kana": "ソネアイ",
    "street": null,
    "office_name": null,
    "office_name_kana": null
  },
  "1748": {
    "postcode": "2891748",
    "prefecture": "千葉県",
    "prefecture_kana": "チバケン",
    "prefecture_code": 12,
    "city": "山武郡横芝光町",
    "city_kana": "サンブグンヨコシバヒカリマチ",
    "town": "於幾",
    "town_kana": "オキ",
    "street": null,
    "office_name": null,
    "office_name_kana": null
  },
  "1749": {
    "postcode": "2891749",
    "prefecture": "千葉県",
    "prefecture_kana": "チバケン",
    "prefecture_code": 12,
    "city": "山武郡横芝光町",
    "city_kana": "サンブグンヨコシバヒカリマチ",
    "town": "両国新田",
    "town_kana": "リョウゴクシンデン",
    "street": null,
    "office_name": null,
    "office_name_kana": null
  },
  "1751": {
    "postcode": "2891751",
    "prefecture": "千葉県",
    "prefecture_kana": "チバケン",
    "prefecture_code": 12,
    "city": "山武郡横芝光町",
    "city_kana": "サンブグンヨコシバヒカリマチ",
    "town": "長山台",
    "town_kana": "ナガヤマダイ",
    "street": null,
    "office_name": null,
    "office_name_kana": null
  },
  "1752": {
    "postcode": "2891752",
    "prefecture": "千葉県",
    "prefecture_kana": "チバケン",
    "prefecture_code": 12,
    "city": "山武郡横芝光町",
    "city_kana": "サンブグンヨコシバヒカリマチ",
    "town": "姥山",
    "town_kana": "ウバヤマ",
    "street": null,
    "office_name": null,
    "office_name_kana": null
  },
  "1753": {
    "postcode": "2891753",
    "prefecture": "千葉県",
    "prefecture_kana": "チバケン",
    "prefecture_code": 12,
    "city": "山武郡横芝光町",
    "city_kana": "サンブグンヨコシバヒカリマチ",
    "town": "取立",
    "town_kana": "トリタテ",
    "street": null,
    "office_name": null,
    "office_name_kana": null
  },
  "1754": {
    "postcode": "2891754",
    "prefecture": "千葉県",
    "prefecture_kana": "チバケン",
    "prefecture_code": 12,
    "city": "山武郡横芝光町",
    "city_kana": "サンブグンヨコシバヒカリマチ",
    "town": "坂田",
    "town_kana": "サカタ",
    "street": null,
    "office_name": null,
    "office_name_kana": null
  },
  "1755": {
    "postcode": "2891755",
    "prefecture": "千葉県",
    "prefecture_kana": "チバケン",
    "prefecture_code": 12,
    "city": "山武郡横芝光町",
    "city_kana": "サンブグンヨコシバヒカリマチ",
    "town": "坂田池",
    "town_kana": "サカタイケ",
    "street": null,
    "office_name": null,
    "office_name_kana": null
  },
  "1756": {
    "postcode": "2891756",
    "prefecture": "千葉県",
    "prefecture_kana": "チバケン",
    "prefecture_code": 12,
    "city": "山武郡横芝光町",
    "city_kana": "サンブグンヨコシバヒカリマチ",
    "town": "長倉",
    "town_kana": "ナガクラ",
    "street": null,
    "office_name": null,
    "office_name_kana": null
  },
  "1757": {
    "postcode": "2891757",
    "prefecture": "千葉県",
    "prefecture_kana": "チバケン",
    "prefecture_code": 12,
    "city": "山武郡横芝光町",
    "city_kana": "サンブグンヨコシバヒカリマチ",
    "town": "遠山",
    "town_kana": "トオヤマ",
    "street": null,
    "office_name": null,
    "office_name_kana": null
  },
  "1793": {
    "postcode": "2891793",
    "prefecture": "千葉県",
    "prefecture_kana": "チバケン",
    "prefecture_code": 12,
    "city": "山武郡横芝光町",
    "city_kana": "サンブグンヨコシバヒカリマチ",
    "town": "宮川",
    "town_kana": "ミヤガワ",
    "street": "１１９０２",
    "office_name": "横芝光町役場",
    "office_name_kana": "ヨコシバヒカリマチヤクバ"
  },
  "1801": {
    "postcode": "2891801",
    "prefecture": "千葉県",
    "prefecture_kana": "チバケン",
    "prefecture_code": 12,
    "city": "山武市",
    "city_kana": "サンムシ",
    "town": "蓮沼イ",
    "town_kana": "ハスヌマイ",
    "street": null,
    "office_name": null,
    "office_name_kana": null
  },
  "1802": {
    "postcode": "2891802",
    "prefecture": "千葉県",
    "prefecture_kana": "チバケン",
    "prefecture_code": 12,
    "city": "山武市",
    "city_kana": "サンムシ",
    "town": "蓮沼ロ",
    "town_kana": "ハスヌマロ",
    "street": null,
    "office_name": null,
    "office_name_kana": null
  },
  "1803": {
    "postcode": "2891803",
    "prefecture": "千葉県",
    "prefecture_kana": "チバケン",
    "prefecture_code": 12,
    "city": "山武市",
    "city_kana": "サンムシ",
    "town": "蓮沼ホ",
    "town_kana": "ハスヌマホ",
    "street": null,
    "office_name": null,
    "office_name_kana": null
  },
  "1804": {
    "postcode": "2891804",
    "prefecture": "千葉県",
    "prefecture_kana": "チバケン",
    "prefecture_code": 12,
    "city": "山武市",
    "city_kana": "サンムシ",
    "town": "蓮沼平",
    "town_kana": "ハスヌマヒラ",
    "street": null,
    "office_name": null,
    "office_name_kana": null
  },
  "1805": {
    "postcode": "2891805",
    "prefecture": "千葉県",
    "prefecture_kana": "チバケン",
    "prefecture_code": 12,
    "city": "山武市",
    "city_kana": "サンムシ",
    "town": "蓮沼ニ",
    "town_kana": "ハスヌマニ",
    "street": null,
    "office_name": null,
    "office_name_kana": null
  },
  "1806": {
    "postcode": "2891806",
    "prefecture": "千葉県",
    "prefecture_kana": "チバケン",
    "prefecture_code": 12,
    "city": "山武市",
    "city_kana": "サンムシ",
    "town": "蓮沼ハ",
    "town_kana": "ハスヌマハ",
    "street": null,
    "office_name": null,
    "office_name_kana": null
  },
  "1892": {
    "postcode": "2891892",
    "prefecture": "千葉県",
    "prefecture_kana": "チバケン",
    "prefecture_code": 12,
    "city": "山武市",
    "city_kana": "サンムシ",
    "town": "蓮沼ハ",
    "town_kana": "ハスヌマハ",
    "street": "２３３番地",
    "office_name": "山武市　蓮沼出張所",
    "office_name_kana": "サンムシ ハスヌマシユツチヨウジヨ"
  },
  "2100": {
    "postcode": "2892100",
    "prefecture": "千葉県",
    "prefecture_kana": "チバケン",
    "prefecture_code": 12,
    "city": "匝瑳市",
    "city_kana": "ソウサシ",
    "town": "",
    "town_kana": "",
    "street": null,
    "office_name": null,
    "office_name_kana": null
  },
  "2101": {
    "postcode": "2892101",
    "prefecture": "千葉県",
    "prefecture_kana": "チバケン",
    "prefecture_code": 12,
    "city": "匝瑳市",
    "city_kana": "ソウサシ",
    "town": "春海",
    "town_kana": "ハルミ",
    "street": null,
    "office_name": null,
    "office_name_kana": null
  },
  "2102": {
    "postcode": "2892102",
    "prefecture": "千葉県",
    "prefecture_kana": "チバケン",
    "prefecture_code": 12,
    "city": "匝瑳市",
    "city_kana": "ソウサシ",
    "town": "椿",
    "town_kana": "ツバキ",
    "street": null,
    "office_name": null,
    "office_name_kana": null
  },
  "2103": {
    "postcode": "2892103",
    "prefecture": "千葉県",
    "prefecture_kana": "チバケン",
    "prefecture_code": 12,
    "city": "匝瑳市",
    "city_kana": "ソウサシ",
    "town": "宮本",
    "town_kana": "ミヤモト",
    "street": null,
    "office_name": null,
    "office_name_kana": null
  },
  "2104": {
    "postcode": "2892104",
    "prefecture": "千葉県",
    "prefecture_kana": "チバケン",
    "prefecture_code": 12,
    "city": "匝瑳市",
    "city_kana": "ソウサシ",
    "town": "生尾",
    "town_kana": "オイオ",
    "street": null,
    "office_name": null,
    "office_name_kana": null
  },
  "2105": {
    "postcode": "2892105",
    "prefecture": "千葉県",
    "prefecture_kana": "チバケン",
    "prefecture_code": 12,
    "city": "匝瑳市",
    "city_kana": "ソウサシ",
    "town": "山桑",
    "town_kana": "ヤマクワ",
    "street": null,
    "office_name": null,
    "office_name_kana": null
  },
  "2106": {
    "postcode": "2892106",
    "prefecture": "千葉県",
    "prefecture_kana": "チバケン",
    "prefecture_code": 12,
    "city": "匝瑳市",
    "city_kana": "ソウサシ",
    "town": "飯塚",
    "town_kana": "イイヅカ",
    "street": null,
    "office_name": null,
    "office_name_kana": null
  },
  "2107": {
    "postcode": "2892107",
    "prefecture": "千葉県",
    "prefecture_kana": "チバケン",
    "prefecture_code": 12,
    "city": "匝瑳市",
    "city_kana": "ソウサシ",
    "town": "米持",
    "town_kana": "ヨネモチ",
    "street": null,
    "office_name": null,
    "office_name_kana": null
  },
  "2108": {
    "postcode": "2892108",
    "prefecture": "千葉県",
    "prefecture_kana": "チバケン",
    "prefecture_code": 12,
    "city": "匝瑳市",
    "city_kana": "ソウサシ",
    "town": "大寺",
    "town_kana": "オオデラ",
    "street": null,
    "office_name": null,
    "office_name_kana": null
  },
  "2111": {
    "postcode": "2892111",
    "prefecture": "千葉県",
    "prefecture_kana": "チバケン",
    "prefecture_code": 12,
    "city": "匝瑳市",
    "city_kana": "ソウサシ",
    "town": "川向",
    "town_kana": "カワムカイ",
    "street": null,
    "office_name": null,
    "office_name_kana": null
  },
  "2112": {
    "postcode": "2892112",
    "prefecture": "千葉県",
    "prefecture_kana": "チバケン",
    "prefecture_code": 12,
    "city": "匝瑳市",
    "city_kana": "ソウサシ",
    "town": "荻野",
    "town_kana": "オギノ",
    "street": null,
    "office_name": null,
    "office_name_kana": null
  },
  "2113": {
    "postcode": "2892113",
    "prefecture": "千葉県",
    "prefecture_kana": "チバケン",
    "prefecture_code": 12,
    "city": "匝瑳市",
    "city_kana": "ソウサシ",
    "town": "平木",
    "town_kana": "ヒラギ",
    "street": null,
    "office_name": null,
    "office_name_kana": null
  },
  "2114": {
    "postcode": "2892114",
    "prefecture": "千葉県",
    "prefecture_kana": "チバケン",
    "prefecture_code": 12,
    "city": "匝瑳市",
    "city_kana": "ソウサシ",
    "town": "上谷中",
    "town_kana": "ジョウヤナカ",
    "street": null,
    "office_name": null,
    "office_name_kana": null
  },
  "2115": {
    "postcode": "2892115",
    "prefecture": "千葉県",
    "prefecture_kana": "チバケン",
    "prefecture_code": 12,
    "city": "匝瑳市",
    "city_kana": "ソウサシ",
    "town": "東谷",
    "town_kana": "ヒガシヤ",
    "street": null,
    "office_name": null,
    "office_name_kana": null
  },
  "2121": {
    "postcode": "2892121",
    "prefecture": "千葉県",
    "prefecture_kana": "チバケン",
    "prefecture_code": 12,
    "city": "匝瑳市",
    "city_kana": "ソウサシ",
    "town": "東小笹",
    "town_kana": "ヒガシコザサ",
    "street": null,
    "office_name": null,
    "office_name_kana": null
  },
  "2122": {
    "postcode": "2892122",
    "prefecture": "千葉県",
    "prefecture_kana": "チバケン",
    "prefecture_code": 12,
    "city": "匝瑳市",
    "city_kana": "ソウサシ",
    "town": "吉崎",
    "town_kana": "ヨシザキ",
    "street": null,
    "office_name": null,
    "office_name_kana": null
  },
  "2123": {
    "postcode": "2892123",
    "prefecture": "千葉県",
    "prefecture_kana": "チバケン",
    "prefecture_code": 12,
    "city": "匝瑳市",
    "city_kana": "ソウサシ",
    "town": "長谷",
    "town_kana": "ナガヤ",
    "street": null,
    "office_name": null,
    "office_name_kana": null
  },
  "2124": {
    "postcode": "2892124",
    "prefecture": "千葉県",
    "prefecture_kana": "チバケン",
    "prefecture_code": 12,
    "city": "匝瑳市",
    "city_kana": "ソウサシ",
    "town": "登戸",
    "town_kana": "ノブト",
    "street": null,
    "office_name": null,
    "office_name_kana": null
  },
  "2125": {
    "postcode": "2892125",
    "prefecture": "千葉県",
    "prefecture_kana": "チバケン",
    "prefecture_code": 12,
    "city": "匝瑳市",
    "city_kana": "ソウサシ",
    "town": "西小笹",
    "town_kana": "ニシコザサ",
    "street": null,
    "office_name": null,
    "office_name_kana": null
  },
  "2131": {
    "postcode": "2892131",
    "prefecture": "千葉県",
    "prefecture_kana": "チバケン",
    "prefecture_code": 12,
    "city": "匝瑳市",
    "city_kana": "ソウサシ",
    "town": "みどり平",
    "town_kana": "ミドリダイラ",
    "street": null,
    "office_name": null,
    "office_name_kana": null
  },
  "2132": {
    "postcode": "2892132",
    "prefecture": "千葉県",
    "prefecture_kana": "チバケン",
    "prefecture_code": 12,
    "city": "匝瑳市",
    "city_kana": "ソウサシ",
    "town": "高",
    "town_kana": "タカ",
    "street": null,
    "office_name": null,
    "office_name_kana": null
  },
  "2133": {
    "postcode": "2892133",
    "prefecture": "千葉県",
    "prefecture_kana": "チバケン",
    "prefecture_code": 12,
    "city": "匝瑳市",
    "city_kana": "ソウサシ",
    "town": "蕪里",
    "town_kana": "カブザト",
    "street": null,
    "office_name": null,
    "office_name_kana": null
  },
  "2134": {
    "postcode": "2892134",
    "prefecture": "千葉県",
    "prefecture_kana": "チバケン",
    "prefecture_code": 12,
    "city": "匝瑳市",
    "city_kana": "ソウサシ",
    "town": "横須賀",
    "town_kana": "ヨコスカ",
    "street": null,
    "office_name": null,
    "office_name_kana": null
  },
  "2135": {
    "postcode": "2892135",
    "prefecture": "千葉県",
    "prefecture_kana": "チバケン",
    "prefecture_code": 12,
    "city": "匝瑳市",
    "city_kana": "ソウサシ",
    "town": "高野",
    "town_kana": "コウヤ",
    "street": null,
    "office_name": null,
    "office_name_kana": null
  },
  "2136": {
    "postcode": "2892136",
    "prefecture": "千葉県",
    "prefecture_kana": "チバケン",
    "prefecture_code": 12,
    "city": "匝瑳市",
    "city_kana": "ソウサシ",
    "town": "時曽根",
    "town_kana": "トキゾネ",
    "street": null,
    "office_name": null,
    "office_name_kana": null
  },
  "2141": {
    "postcode": "2892141",
    "prefecture": "千葉県",
    "prefecture_kana": "チバケン",
    "prefecture_code": 12,
    "city": "匝瑳市",
    "city_kana": "ソウサシ",
    "town": "八日市場ハ",
    "town_kana": "ヨウカイチバハ",
    "street": null,
    "office_name": null,
    "office_name_kana": null
  },
  "2142": {
    "postcode": "2892142",
    "prefecture": "千葉県",
    "prefecture_kana": "チバケン",
    "prefecture_code": 12,
    "city": "匝瑳市",
    "city_kana": "ソウサシ",
    "town": "八日市場ニ",
    "town_kana": "ヨウカイチバニ",
    "street": null,
    "office_name": null,
    "office_name_kana": null
  },
  "2143": {
    "postcode": "2892143",
    "prefecture": "千葉県",
    "prefecture_kana": "チバケン",
    "prefecture_code": 12,
    "city": "匝瑳市",
    "city_kana": "ソウサシ",
    "town": "八日市場ロ",
    "town_kana": "ヨウカイチバロ",
    "street": null,
    "office_name": null,
    "office_name_kana": null
  },
  "2144": {
    "postcode": "2892144",
    "prefecture": "千葉県",
    "prefecture_kana": "チバケン",
    "prefecture_code": 12,
    "city": "匝瑳市",
    "city_kana": "ソウサシ",
    "town": "八日市場イ",
    "town_kana": "ヨウカイチバイ",
    "street": null,
    "office_name": null,
    "office_name_kana": null
  },
  "2145": {
    "postcode": "2892145",
    "prefecture": "千葉県",
    "prefecture_kana": "チバケン",
    "prefecture_code": 12,
    "city": "匝瑳市",
    "city_kana": "ソウサシ",
    "town": "若潮町",
    "town_kana": "ワカシオチョウ",
    "street": null,
    "office_name": null,
    "office_name_kana": null
  },
  "2146": {
    "postcode": "2892146",
    "prefecture": "千葉県",
    "prefecture_kana": "チバケン",
    "prefecture_code": 12,
    "city": "匝瑳市",
    "city_kana": "ソウサシ",
    "town": "八日市場ホ",
    "town_kana": "ヨウカイチバホ",
    "street": null,
    "office_name": null,
    "office_name_kana": null
  },
  "2147": {
    "postcode": "2892147",
    "prefecture": "千葉県",
    "prefecture_kana": "チバケン",
    "prefecture_code": 12,
    "city": "匝瑳市",
    "city_kana": "ソウサシ",
    "town": "飯倉",
    "town_kana": "イイグラ",
    "street": null,
    "office_name": null,
    "office_name_kana": null
  },
  "2148": {
    "postcode": "2892148",
    "prefecture": "千葉県",
    "prefecture_kana": "チバケン",
    "prefecture_code": 12,
    "city": "匝瑳市",
    "city_kana": "ソウサシ",
    "town": "飯倉台",
    "town_kana": "イイグラダイ",
    "street": null,
    "office_name": null,
    "office_name_kana": null
  },
  "2149": {
    "postcode": "2892149",
    "prefecture": "千葉県",
    "prefecture_kana": "チバケン",
    "prefecture_code": 12,
    "city": "匝瑳市",
    "city_kana": "ソウサシ",
    "town": "貝塚",
    "town_kana": "カイヅカ",
    "street": null,
    "office_name": null,
    "office_name_kana": null
  },
  "2151": {
    "postcode": "2892151",
    "prefecture": "千葉県",
    "prefecture_kana": "チバケン",
    "prefecture_code": 12,
    "city": "匝瑳市",
    "city_kana": "ソウサシ",
    "town": "大浦",
    "town_kana": "オオウラ",
    "street": null,
    "office_name": null,
    "office_name_kana": null
  },
  "2152": {
    "postcode": "2892152",
    "prefecture": "千葉県",
    "prefecture_kana": "チバケン",
    "prefecture_code": 12,
    "city": "匝瑳市",
    "city_kana": "ソウサシ",
    "town": "松山",
    "town_kana": "マツヤマ",
    "street": null,
    "office_name": null,
    "office_name_kana": null
  },
  "2153": {
    "postcode": "2892153",
    "prefecture": "千葉県",
    "prefecture_kana": "チバケン",
    "prefecture_code": 12,
    "city": "匝瑳市",
    "city_kana": "ソウサシ",
    "town": "中台",
    "town_kana": "ナカダイ",
    "street": null,
    "office_name": null,
    "office_name_kana": null
  },
  "2154": {
    "postcode": "2892154",
    "prefecture": "千葉県",
    "prefecture_kana": "チバケン",
    "prefecture_code": 12,
    "city": "匝瑳市",
    "city_kana": "ソウサシ",
    "town": "富岡",
    "town_kana": "トミオカ",
    "street": null,
    "office_name": null,
    "office_name_kana": null
  },
  "2155": {
    "postcode": "2892155",
    "prefecture": "千葉県",
    "prefecture_kana": "チバケン",
    "prefecture_code": 12,
    "city": "匝瑳市",
    "city_kana": "ソウサシ",
    "town": "八辺",
    "town_kana": "ヤッペ",
    "street": null,
    "office_name": null,
    "office_name_kana": null
  },
  "2156": [
    {
      "postcode": "2892156",
      "prefecture": "千葉県",
      "prefecture_kana": "チバケン",
      "prefecture_code": 12,
      "city": "匝瑳市",
      "city_kana": "ソウサシ",
      "town": "長岡",
      "town_kana": "ナガオカ",
      "street": null,
      "office_name": null,
      "office_name_kana": null
    },
    {
      "postcode": "2892156",
      "prefecture": "千葉県",
      "prefecture_kana": "チバケン",
      "prefecture_code": 12,
      "city": "匝瑳市",
      "city_kana": "ソウサシ",
      "town": "長丘",
      "town_kana": "ナガオカ",
      "street": null,
      "office_name": null,
      "office_name_kana": null
    }
  ],
  "2157": {
    "postcode": "2892157",
    "prefecture": "千葉県",
    "prefecture_kana": "チバケン",
    "prefecture_code": 12,
    "city": "匝瑳市",
    "city_kana": "ソウサシ",
    "town": "堀之内",
    "town_kana": "ホリノウチ",
    "street": null,
    "office_name": null,
    "office_name_kana": null
  },
  "2161": {
    "postcode": "2892161",
    "prefecture": "千葉県",
    "prefecture_kana": "チバケン",
    "prefecture_code": 12,
    "city": "匝瑳市",
    "city_kana": "ソウサシ",
    "town": "入山崎",
    "town_kana": "イリヤマザキ",
    "street": null,
    "office_name": null,
    "office_name_kana": null
  },
  "2162": {
    "postcode": "2892162",
    "prefecture": "千葉県",
    "prefecture_kana": "チバケン",
    "prefecture_code": 12,
    "city": "匝瑳市",
    "city_kana": "ソウサシ",
    "town": "南山崎",
    "town_kana": "ミナミヤマザキ",
    "street": null,
    "office_name": null,
    "office_name_kana": null
  },
  "2163": {
    "postcode": "2892163",
    "prefecture": "千葉県",
    "prefecture_kana": "チバケン",
    "prefecture_code": 12,
    "city": "匝瑳市",
    "city_kana": "ソウサシ",
    "town": "南神崎",
    "town_kana": "ミナミカンザキ",
    "street": null,
    "office_name": null,
    "office_name_kana": null
  },
  "2164": {
    "postcode": "2892164",
    "prefecture": "千葉県",
    "prefecture_kana": "チバケン",
    "prefecture_code": 12,
    "city": "匝瑳市",
    "city_kana": "ソウサシ",
    "town": "木積",
    "town_kana": "キズミ",
    "street": null,
    "office_name": null,
    "office_name_kana": null
  },
  "2165": {
    "postcode": "2892165",
    "prefecture": "千葉県",
    "prefecture_kana": "チバケン",
    "prefecture_code": 12,
    "city": "匝瑳市",
    "city_kana": "ソウサシ",
    "town": "田久保",
    "town_kana": "タクボ",
    "street": null,
    "office_name": null,
    "office_name_kana": null
  },
  "2166": {
    "postcode": "2892166",
    "prefecture": "千葉県",
    "prefecture_kana": "チバケン",
    "prefecture_code": 12,
    "city": "匝瑳市",
    "city_kana": "ソウサシ",
    "town": "新",
    "town_kana": "シムラ",
    "street": null,
    "office_name": null,
    "office_name_kana": null
  },
  "2167": {
    "postcode": "2892167",
    "prefecture": "千葉県",
    "prefecture_kana": "チバケン",
    "prefecture_code": 12,
    "city": "匝瑳市",
    "city_kana": "ソウサシ",
    "town": "亀崎",
    "town_kana": "カメザキ",
    "street": null,
    "office_name": null,
    "office_name_kana": null
  },
  "2168": {
    "postcode": "2892168",
    "prefecture": "千葉県",
    "prefecture_kana": "チバケン",
    "prefecture_code": 12,
    "city": "匝瑳市",
    "city_kana": "ソウサシ",
    "town": "久方",
    "town_kana": "ヒサカタ",
    "street": null,
    "office_name": null,
    "office_name_kana": null
  },
  "2169": {
    "postcode": "2892169",
    "prefecture": "千葉県",
    "prefecture_kana": "チバケン",
    "prefecture_code": 12,
    "city": "匝瑳市",
    "city_kana": "ソウサシ",
    "town": "吉田",
    "town_kana": "ヨシダ",
    "street": null,
    "office_name": null,
    "office_name_kana": null
  },
  "2171": {
    "postcode": "2892171",
    "prefecture": "千葉県",
    "prefecture_kana": "チバケン",
    "prefecture_code": 12,
    "city": "匝瑳市",
    "city_kana": "ソウサシ",
    "town": "内山",
    "town_kana": "ウチヤマ",
    "street": null,
    "office_name": null,
    "office_name_kana": null
  },
  "2172": {
    "postcode": "2892172",
    "prefecture": "千葉県",
    "prefecture_kana": "チバケン",
    "prefecture_code": 12,
    "city": "匝瑳市",
    "city_kana": "ソウサシ",
    "town": "城下",
    "town_kana": "ネゴヤ",
    "street": null,
    "office_name": null,
    "office_name_kana": null
  },
  "2173": [
    {
      "postcode": "2892173",
      "prefecture": "千葉県",
      "prefecture_kana": "チバケン",
      "prefecture_code": 12,
      "city": "匝瑳市",
      "city_kana": "ソウサシ",
      "town": "飯多香",
      "town_kana": "イイタカ",
      "street": null,
      "office_name": null,
      "office_name_kana": null
    },
    {
      "postcode": "2892173",
      "prefecture": "千葉県",
      "prefecture_kana": "チバケン",
      "prefecture_code": 12,
      "city": "匝瑳市",
      "city_kana": "ソウサシ",
      "town": "飯高",
      "town_kana": "イイダカ",
      "street": null,
      "office_name": null,
      "office_name_kana": null
    }
  ],
  "2174": {
    "postcode": "2892174",
    "prefecture": "千葉県",
    "prefecture_kana": "チバケン",
    "prefecture_code": 12,
    "city": "匝瑳市",
    "city_kana": "ソウサシ",
    "town": "公崎",
    "town_kana": "コウザキ",
    "street": null,
    "office_name": null,
    "office_name_kana": null
  },
  "2175": [
    {
      "postcode": "2892175",
      "prefecture": "千葉県",
      "prefecture_kana": "チバケン",
      "prefecture_code": 12,
      "city": "匝瑳市",
      "city_kana": "ソウサシ",
      "town": "片子",
      "town_kana": "カタコ",
      "street": null,
      "office_name": null,
      "office_name_kana": null
    },
    {
      "postcode": "2892175",
      "prefecture": "千葉県",
      "prefecture_kana": "チバケン",
      "prefecture_code": 12,
      "city": "匝瑳市",
      "city_kana": "ソウサシ",
      "town": "加多古",
      "town_kana": "カタコ",
      "street": null,
      "office_name": null,
      "office_name_kana": null
    }
  ],
  "2176": [
    {
      "postcode": "2892176",
      "prefecture": "千葉県",
      "prefecture_kana": "チバケン",
      "prefecture_code": 12,
      "city": "匝瑳市",
      "city_kana": "ソウサシ",
      "town": "大堀",
      "town_kana": "オオホリ",
      "street": null,
      "office_name": null,
      "office_name_kana": null
    },
    {
      "postcode": "2892176",
      "prefecture": "千葉県",
      "prefecture_kana": "チバケン",
      "prefecture_code": 12,
      "city": "匝瑳市",
      "city_kana": "ソウサシ",
      "town": "大保里",
      "town_kana": "オオホリ",
      "street": null,
      "office_name": null,
      "office_name_kana": null
    }
  ],
  "2177": {
    "postcode": "2892177",
    "prefecture": "千葉県",
    "prefecture_kana": "チバケン",
    "prefecture_code": 12,
    "city": "匝瑳市",
    "city_kana": "ソウサシ",
    "town": "金原",
    "town_kana": "カナバラ",
    "street": null,
    "office_name": null,
    "office_name_kana": null
  },
  "2178": {
    "postcode": "2892178",
    "prefecture": "千葉県",
    "prefecture_kana": "チバケン",
    "prefecture_code": 12,
    "city": "匝瑳市",
    "city_kana": "ソウサシ",
    "town": "安久山",
    "town_kana": "アグヤマ",
    "street": null,
    "office_name": null,
    "office_name_kana": null
  },
  "2179": {
    "postcode": "2892179",
    "prefecture": "千葉県",
    "prefecture_kana": "チバケン",
    "prefecture_code": 12,
    "city": "匝瑳市",
    "city_kana": "ソウサシ",
    "town": "小高",
    "town_kana": "オダカ",
    "street": null,
    "office_name": null,
    "office_name_kana": null
  },
  "2192": {
    "postcode": "2892192",
    "prefecture": "千葉県",
    "prefecture_kana": "チバケン",
    "prefecture_code": 12,
    "city": "匝瑳市",
    "city_kana": "ソウサシ",
    "town": "今泉",
    "town_kana": "イマイズミ",
    "street": "６４７４",
    "office_name": "匝瑳市役所　野栄総合支所",
    "office_name_kana": "ソウサシヤクシヨ ノサカソウゴウシシヨ"
  },
  "2197": {
    "postcode": "2892197",
    "prefecture": "千葉県",
    "prefecture_kana": "チバケン",
    "prefecture_code": 12,
    "city": "匝瑳市",
    "city_kana": "ソウサシ",
    "town": "八日市場イ",
    "town_kana": "ヨウカイチバイ",
    "street": "２６１４",
    "office_name": "タイヘイ　株式会社",
    "office_name_kana": "タイヘイ カブシキガイシヤ"
  },
  "2198": {
    "postcode": "2892198",
    "prefecture": "千葉県",
    "prefecture_kana": "チバケン",
    "prefecture_code": 12,
    "city": "匝瑳市",
    "city_kana": "ソウサシ",
    "town": "八日市場ハ",
    "town_kana": "ヨウカイチバハ",
    "street": "７９３番地２",
    "office_name": "匝瑳市役所",
    "office_name_kana": "ソウサシヤクシヨ"
  },
  "2200": {
    "postcode": "2892200",
    "prefecture": "千葉県",
    "prefecture_kana": "チバケン",
    "prefecture_code": 12,
    "city": "香取郡多古町",
    "city_kana": "カトリグンタコマチ",
    "town": "",
    "town_kana": "",
    "street": null,
    "office_name": null,
    "office_name_kana": null
  },
  "2231": {
    "postcode": "2892231",
    "prefecture": "千葉県",
    "prefecture_kana": "チバケン",
    "prefecture_code": 12,
    "city": "香取郡多古町",
    "city_kana": "カトリグンタコマチ",
    "town": "飯笹",
    "town_kana": "イイザサ",
    "street": null,
    "office_name": null,
    "office_name_kana": null
  },
  "2232": {
    "postcode": "2892232",
    "prefecture": "千葉県",
    "prefecture_kana": "チバケン",
    "prefecture_code": 12,
    "city": "香取郡多古町",
    "city_kana": "カトリグンタコマチ",
    "town": "喜多",
    "town_kana": "キタ",
    "street": null,
    "office_name": null,
    "office_name_kana": null
  },
  "2233": {
    "postcode": "2892233",
    "prefecture": "千葉県",
    "prefecture_kana": "チバケン",
    "prefecture_code": 12,
    "city": "香取郡多古町",
    "city_kana": "カトリグンタコマチ",
    "town": "林",
    "town_kana": "ハヤシ",
    "street": null,
    "office_name": null,
    "office_name_kana": null
  },
  "2234": {
    "postcode": "2892234",
    "prefecture": "千葉県",
    "prefecture_kana": "チバケン",
    "prefecture_code": 12,
    "city": "香取郡多古町",
    "city_kana": "カトリグンタコマチ",
    "town": "五反田",
    "town_kana": "ゴタンダ",
    "street": null,
    "office_name": null,
    "office_name_kana": null
  },
  "2235": {
    "postcode": "2892235",
    "prefecture": "千葉県",
    "prefecture_kana": "チバケン",
    "prefecture_code": 12,
    "city": "香取郡多古町",
    "city_kana": "カトリグンタコマチ",
    "town": "間倉",
    "town_kana": "マグラ",
    "street": null,
    "office_name": null,
    "office_name_kana": null
  },
  "2236": {
    "postcode": "2892236",
    "prefecture": "千葉県",
    "prefecture_kana": "チバケン",
    "prefecture_code": 12,
    "city": "香取郡多古町",
    "city_kana": "カトリグンタコマチ",
    "town": "一鍬田",
    "town_kana": "ヒトクワダ",
    "street": null,
    "office_name": null,
    "office_name_kana": null
  },
  "2241": {
    "postcode": "2892241",
    "prefecture": "千葉県",
    "prefecture_kana": "チバケン",
    "prefecture_code": 12,
    "city": "香取郡多古町",
    "city_kana": "カトリグンタコマチ",
    "town": "多古",
    "town_kana": "タコ",
    "street": null,
    "office_name": null,
    "office_name_kana": null
  },
  "2242": {
    "postcode": "2892242",
    "prefecture": "千葉県",
    "prefecture_kana": "チバケン",
    "prefecture_code": 12,
    "city": "香取郡多古町",
    "city_kana": "カトリグンタコマチ",
    "town": "染井",
    "town_kana": "ソメイ",
    "street": null,
    "office_name": null,
    "office_name_kana": null
  },
  "2243": {
    "postcode": "2892243",
    "prefecture": "千葉県",
    "prefecture_kana": "チバケン",
    "prefecture_code": 12,
    "city": "香取郡多古町",
    "city_kana": "カトリグンタコマチ",
    "town": "島",
    "town_kana": "シマ",
    "street": null,
    "office_name": null,
    "office_name_kana": null
  },
  "2244": {
    "postcode": "2892244",
    "prefecture": "千葉県",
    "prefecture_kana": "チバケン",
    "prefecture_code": 12,
    "city": "香取郡多古町",
    "city_kana": "カトリグンタコマチ",
    "town": "船越",
    "town_kana": "フナコシ",
    "street": null,
    "office_name": null,
    "office_name_kana": null
  },
  "2245": {
    "postcode": "2892245",
    "prefecture": "千葉県",
    "prefecture_kana": "チバケン",
    "prefecture_code": 12,
    "city": "香取郡多古町",
    "city_kana": "カトリグンタコマチ",
    "town": "牛尾",
    "town_kana": "ウシノオ",
    "street": null,
    "office_name": null,
    "office_name_kana": null
  },
  "2246": {
    "postcode": "2892246",
    "prefecture": "千葉県",
    "prefecture_kana": "チバケン",
    "prefecture_code": 12,
    "city": "香取郡多古町",
    "city_kana": "カトリグンタコマチ",
    "town": "千田",
    "town_kana": "チダ",
    "street": null,
    "office_name": null,
    "office_name_kana": null
  },
  "2247": {
    "postcode": "2892247",
    "prefecture": "千葉県",
    "prefecture_kana": "チバケン",
    "prefecture_code": 12,
    "city": "香取郡多古町",
    "city_kana": "カトリグンタコマチ",
    "town": "水戸",
    "town_kana": "ミト",
    "street": null,
    "office_name": null,
    "office_name_kana": null
  },
  "2251": {
    "postcode": "2892251",
    "prefecture": "千葉県",
    "prefecture_kana": "チバケン",
    "prefecture_code": 12,
    "city": "香取郡多古町",
    "city_kana": "カトリグンタコマチ",
    "town": "北中",
    "town_kana": "キタナカ",
    "street": null,
    "office_name": null,
    "office_name_kana": null
  },
  "2252": {
    "postcode": "2892252",
    "prefecture": "千葉県",
    "prefecture_kana": "チバケン",
    "prefecture_code": 12,
    "city": "香取郡多古町",
    "city_kana": "カトリグンタコマチ",
    "town": "南和田",
    "town_kana": "ミナミワダ",
    "street": null,
    "office_name": null,
    "office_name_kana": null
  },
  "2253": {
    "postcode": "2892253",
    "prefecture": "千葉県",
    "prefecture_kana": "チバケン",
    "prefecture_code": 12,
    "city": "香取郡多古町",
    "city_kana": "カトリグンタコマチ",
    "town": "南借当",
    "town_kana": "ミナミカリアテ",
    "street": null,
    "office_name": null,
    "office_name_kana": null
  },
  "2254": {
    "postcode": "2892254",
    "prefecture": "千葉県",
    "prefecture_kana": "チバケン",
    "prefecture_code": 12,
    "city": "香取郡多古町",
    "city_kana": "カトリグンタコマチ",
    "town": "東輝",
    "town_kana": "トウキ",
    "street": null,
    "office_name": null,
    "office_name_kana": null
  },
  "2255": {
    "postcode": "2892255",
    "prefecture": "千葉県",
    "prefecture_kana": "チバケン",
    "prefecture_code": 12,
    "city": "香取郡多古町",
    "city_kana": "カトリグンタコマチ",
    "town": "南並木",
    "town_kana": "ミナミナミキ",
    "street": null,
    "office_name": null,
    "office_name_kana": null
  },
  "2256": {
    "postcode": "2892256",
    "prefecture": "千葉県",
    "prefecture_kana": "チバケン",
    "prefecture_code": 12,
    "city": "香取郡多古町",
    "city_kana": "カトリグンタコマチ",
    "town": "中村新田",
    "town_kana": "ナカムラシンデン",
    "street": null,
    "office_name": null,
    "office_name_kana": null
  },
  "2257": {
    "postcode": "2892257",
    "prefecture": "千葉県",
    "prefecture_kana": "チバケン",
    "prefecture_code": 12,
    "city": "香取郡多古町",
    "city_kana": "カトリグンタコマチ",
    "town": "南中",
    "town_kana": "ミナミナカ",
    "street": null,
    "office_name": null,
    "office_name_kana": null
  },
  "2292": {
    "postcode": "2892292",
    "prefecture": "千葉県",
    "prefecture_kana": "チバケン",
    "prefecture_code": 12,
    "city": "香取郡多古町",
    "city_kana": "カトリグンタコマチ",
    "town": "多古",
    "town_kana": "タコ",
    "street": "５８４",
    "office_name": "多古町役場",
    "office_name_kana": "タコマチヤクバ"
  },
  "2301": {
    "postcode": "2892301",
    "prefecture": "千葉県",
    "prefecture_kana": "チバケン",
    "prefecture_code": 12,
    "city": "香取郡多古町",
    "city_kana": "カトリグンタコマチ",
    "town": "出沼",
    "town_kana": "イデヌマ",
    "street": null,
    "office_name": null,
    "office_name_kana": null
  },
  "2302": {
    "postcode": "2892302",
    "prefecture": "千葉県",
    "prefecture_kana": "チバケン",
    "prefecture_code": 12,
    "city": "香取郡多古町",
    "city_kana": "カトリグンタコマチ",
    "town": "桧木",
    "town_kana": "ヒノキ",
    "street": null,
    "office_name": null,
    "office_name_kana": null
  },
  "2303": {
    "postcode": "2892303",
    "prefecture": "千葉県",
    "prefecture_kana": "チバケン",
    "prefecture_code": 12,
    "city": "香取郡多古町",
    "city_kana": "カトリグンタコマチ",
    "town": "大門",
    "town_kana": "オオカド",
    "street": null,
    "office_name": null,
    "office_name_kana": null
  },
  "2304": {
    "postcode": "2892304",
    "prefecture": "千葉県",
    "prefecture_kana": "チバケン",
    "prefecture_code": 12,
    "city": "香取郡多古町",
    "city_kana": "カトリグンタコマチ",
    "town": "高津原",
    "town_kana": "タカツハラ",
    "street": null,
    "office_name": null,
    "office_name_kana": null
  },
  "2305": {
    "postcode": "2892305",
    "prefecture": "千葉県",
    "prefecture_kana": "チバケン",
    "prefecture_code": 12,
    "city": "香取郡多古町",
    "city_kana": "カトリグンタコマチ",
    "town": "大高",
    "town_kana": "オオタカ",
    "street": null,
    "office_name": null,
    "office_name_kana": null
  },
  "2306": {
    "postcode": "2892306",
    "prefecture": "千葉県",
    "prefecture_kana": "チバケン",
    "prefecture_code": 12,
    "city": "香取郡多古町",
    "city_kana": "カトリグンタコマチ",
    "town": "十余三",
    "town_kana": "トヨミ",
    "street": null,
    "office_name": null,
    "office_name_kana": null
  },
  "2311": {
    "postcode": "2892311",
    "prefecture": "千葉県",
    "prefecture_kana": "チバケン",
    "prefecture_code": 12,
    "city": "香取郡多古町",
    "city_kana": "カトリグンタコマチ",
    "town": "本三倉",
    "town_kana": "モトミクラ",
    "street": null,
    "office_name": null,
    "office_name_kana": null
  },
  "2312": {
    "postcode": "2892312",
    "prefecture": "千葉県",
    "prefecture_kana": "チバケン",
    "prefecture_code": 12,
    "city": "香取郡多古町",
    "city_kana": "カトリグンタコマチ",
    "town": "谷三倉",
    "town_kana": "サクミクラ",
    "street": null,
    "office_name": null,
    "office_name_kana": null
  },
  "2313": {
    "postcode": "2892313",
    "prefecture": "千葉県",
    "prefecture_kana": "チバケン",
    "prefecture_code": 12,
    "city": "香取郡多古町",
    "city_kana": "カトリグンタコマチ",
    "town": "次浦",
    "town_kana": "ツギウラ",
    "street": null,
    "office_name": null,
    "office_name_kana": null
  },
  "2314": {
    "postcode": "2892314",
    "prefecture": "千葉県",
    "prefecture_kana": "チバケン",
    "prefecture_code": 12,
    "city": "香取郡多古町",
    "city_kana": "カトリグンタコマチ",
    "town": "西古内",
    "town_kana": "ニシフルウチ",
    "street": null,
    "office_name": null,
    "office_name_kana": null
  },
  "2315": {
    "postcode": "2892315",
    "prefecture": "千葉県",
    "prefecture_kana": "チバケン",
    "prefecture_code": 12,
    "city": "香取郡多古町",
    "city_kana": "カトリグンタコマチ",
    "town": "御所台",
    "town_kana": "ゴショダイ",
    "street": null,
    "office_name": null,
    "office_name_kana": null
  },
  "2316": {
    "postcode": "2892316",
    "prefecture": "千葉県",
    "prefecture_kana": "チバケン",
    "prefecture_code": 12,
    "city": "香取郡多古町",
    "city_kana": "カトリグンタコマチ",
    "town": "寺作",
    "town_kana": "テラサク",
    "street": null,
    "office_name": null,
    "office_name_kana": null
  },
  "2317": {
    "postcode": "2892317",
    "prefecture": "千葉県",
    "prefecture_kana": "チバケン",
    "prefecture_code": 12,
    "city": "香取郡多古町",
    "city_kana": "カトリグンタコマチ",
    "town": "井戸山",
    "town_kana": "イドヤマ",
    "street": null,
    "office_name": null,
    "office_name_kana": null
  },
  "2321": {
    "postcode": "2892321",
    "prefecture": "千葉県",
    "prefecture_kana": "チバケン",
    "prefecture_code": 12,
    "city": "香取郡多古町",
    "city_kana": "カトリグンタコマチ",
    "town": "東松崎",
    "town_kana": "ヒガシマツサキ",
    "street": null,
    "office_name": null,
    "office_name_kana": null
  },
  "2322": {
    "postcode": "2892322",
    "prefecture": "千葉県",
    "prefecture_kana": "チバケン",
    "prefecture_code": 12,
    "city": "香取郡多古町",
    "city_kana": "カトリグンタコマチ",
    "town": "坂",
    "town_kana": "サカ",
    "street": null,
    "office_name": null,
    "office_name_kana": null
  },
  "2323": {
    "postcode": "2892323",
    "prefecture": "千葉県",
    "prefecture_kana": "チバケン",
    "prefecture_code": 12,
    "city": "香取郡多古町",
    "city_kana": "カトリグンタコマチ",
    "town": "方田",
    "town_kana": "ホウダ",
    "street": null,
    "office_name": null,
    "office_name_kana": null
  },
  "2324": {
    "postcode": "2892324",
    "prefecture": "千葉県",
    "prefecture_kana": "チバケン",
    "prefecture_code": 12,
    "city": "香取郡多古町",
    "city_kana": "カトリグンタコマチ",
    "town": "川島",
    "town_kana": "カワシマ",
    "street": null,
    "office_name": null,
    "office_name_kana": null
  },
  "2325": {
    "postcode": "2892325",
    "prefecture": "千葉県",
    "prefecture_kana": "チバケン",
    "prefecture_code": 12,
    "city": "香取郡多古町",
    "city_kana": "カトリグンタコマチ",
    "town": "南玉造",
    "town_kana": "ミナミタマツクリ",
    "street": null,
    "office_name": null,
    "office_name_kana": null
  },
  "2500": {
    "postcode": "2892500",
    "prefecture": "千葉県",
    "prefecture_kana": "チバケン",
    "prefecture_code": 12,
    "city": "旭市",
    "city_kana": "アサヒシ",
    "town": "",
    "town_kana": "",
    "street": null,
    "office_name": null,
    "office_name_kana": null
  },
  "2501": {
    "postcode": "2892501",
    "prefecture": "千葉県",
    "prefecture_kana": "チバケン",
    "prefecture_code": 12,
    "city": "旭市",
    "city_kana": "アサヒシ",
    "town": "新町",
    "town_kana": "シンマチ",
    "street": null,
    "office_name": null,
    "office_name_kana": null
  },
  "2502": {
    "postcode": "2892502",
    "prefecture": "千葉県",
    "prefecture_kana": "チバケン",
    "prefecture_code": 12,
    "city": "旭市",
    "city_kana": "アサヒシ",
    "town": "琴田",
    "town_kana": "コトダ",
    "street": null,
    "office_name": null,
    "office_name_kana": null
  },
  "2503": {
    "postcode": "2892503",
    "prefecture": "千葉県",
    "prefecture_kana": "チバケン",
    "prefecture_code": 12,
    "city": "旭市",
    "city_kana": "アサヒシ",
    "town": "江ケ崎",
    "town_kana": "エガサキ",
    "street": null,
    "office_name": null,
    "office_name_kana": null
  },
  "2504": {
    "postcode": "2892504",
    "prefecture": "千葉県",
    "prefecture_kana": "チバケン",
    "prefecture_code": 12,
    "city": "旭市",
    "city_kana": "アサヒシ",
    "town": "ニ",
    "town_kana": "ニ",
    "street": null,
    "office_name": null,
    "office_name_kana": null
  },
  "2505": {
    "postcode": "2892505",
    "prefecture": "千葉県",
    "prefecture_kana": "チバケン",
    "prefecture_code": 12,
    "city": "旭市",
    "city_kana": "アサヒシ",
    "town": "鎌数",
    "town_kana": "カマカズ",
    "street": null,
    "office_name": null,
    "office_name_kana": null
  },
  "2511": {
    "postcode": "2892511",
    "prefecture": "千葉県",
    "prefecture_kana": "チバケン",
    "prefecture_code": 12,
    "city": "旭市",
    "city_kana": "アサヒシ",
    "town": "イ",
    "town_kana": "イ",
    "street": null,
    "office_name": null,
    "office_name_kana": null
  },
  "2512": {
    "postcode": "2892512",
    "prefecture": "千葉県",
    "prefecture_kana": "チバケン",
    "prefecture_code": 12,
    "city": "旭市",
    "city_kana": "アサヒシ",
    "town": "東足洗",
    "town_kana": "ヒガシアシアライ",
    "street": null,
    "office_name": null,
    "office_name_kana": null
  },
  "2513": {
    "postcode": "2892513",
    "prefecture": "千葉県",
    "prefecture_kana": "チバケン",
    "prefecture_code": 12,
    "city": "旭市",
    "city_kana": "アサヒシ",
    "town": "野中",
    "town_kana": "ノナカ",
    "street": null,
    "office_name": null,
    "office_name_kana": null
  },
  "2514": {
    "postcode": "2892514",
    "prefecture": "千葉県",
    "prefecture_kana": "チバケン",
    "prefecture_code": 12,
    "city": "旭市",
    "city_kana": "アサヒシ",
    "town": "椎名内",
    "town_kana": "シイナウチ",
    "street": null,
    "office_name": null,
    "office_name_kana": null
  },
  "2515": {
    "postcode": "2892515",
    "prefecture": "千葉県",
    "prefecture_kana": "チバケン",
    "prefecture_code": 12,
    "city": "旭市",
    "city_kana": "アサヒシ",
    "town": "西足洗",
    "town_kana": "ニシアシアライ",
    "street": null,
    "office_name": null,
    "office_name_kana": null
  },
  "2516": {
    "postcode": "2892516",
    "prefecture": "千葉県",
    "prefecture_kana": "チバケン",
    "prefecture_code": 12,
    "city": "旭市",
    "city_kana": "アサヒシ",
    "town": "ロ",
    "town_kana": "ロ",
    "street": null,
    "office_name": null,
    "office_name_kana": null
  },
  "2521": {
    "postcode": "2892521",
    "prefecture": "千葉県",
    "prefecture_kana": "チバケン",
    "prefecture_code": 12,
    "city": "旭市",
    "city_kana": "アサヒシ",
    "town": "ハ",
    "town_kana": "ハ",
    "street": null,
    "office_name": null,
    "office_name_kana": null
  },
  "2522": {
    "postcode": "2892522",
    "prefecture": "千葉県",
    "prefecture_kana": "チバケン",
    "prefecture_code": 12,
    "city": "旭市",
    "city_kana": "アサヒシ",
    "town": "足川",
    "town_kana": "アシカワ",
    "street": null,
    "office_name": null,
    "office_name_kana": null
  },
  "2523": {
    "postcode": "2892523",
    "prefecture": "千葉県",
    "prefecture_kana": "チバケン",
    "prefecture_code": 12,
    "city": "旭市",
    "city_kana": "アサヒシ",
    "town": "中谷里",
    "town_kana": "ナカヤリ",
    "street": null,
    "office_name": null,
    "office_name_kana": null
  },
  "2524": {
    "postcode": "2892524",
    "prefecture": "千葉県",
    "prefecture_kana": "チバケン",
    "prefecture_code": 12,
    "city": "旭市",
    "city_kana": "アサヒシ",
    "town": "神宮寺",
    "town_kana": "ジングウジ",
    "street": null,
    "office_name": null,
    "office_name_kana": null
  },
  "2525": {
    "postcode": "2892525",
    "prefecture": "千葉県",
    "prefecture_kana": "チバケン",
    "prefecture_code": 12,
    "city": "旭市",
    "city_kana": "アサヒシ",
    "town": "仁玉",
    "town_kana": "ニッタマ",
    "street": null,
    "office_name": null,
    "office_name_kana": null
  },
  "2531": {
    "postcode": "2892531",
    "prefecture": "千葉県",
    "prefecture_kana": "チバケン",
    "prefecture_code": 12,
    "city": "旭市",
    "city_kana": "アサヒシ",
    "town": "井戸野",
    "town_kana": "イドノ",
    "street": null,
    "office_name": null,
    "office_name_kana": null
  },
  "2532": {
    "postcode": "2892532",
    "prefecture": "千葉県",
    "prefecture_kana": "チバケン",
    "prefecture_code": 12,
    "city": "旭市",
    "city_kana": "アサヒシ",
    "town": "駒込",
    "town_kana": "コマゴメ",
    "street": null,
    "office_name": null,
    "office_name_kana": null
  },
  "2533": {
    "postcode": "2892533",
    "prefecture": "千葉県",
    "prefecture_kana": "チバケン",
    "prefecture_code": 12,
    "city": "旭市",
    "city_kana": "アサヒシ",
    "town": "大塚原",
    "town_kana": "オオツカハラ",
    "street": null,
    "office_name": null,
    "office_name_kana": null
  },
  "2534": {
    "postcode": "2892534",
    "prefecture": "千葉県",
    "prefecture_kana": "チバケン",
    "prefecture_code": 12,
    "city": "旭市",
    "city_kana": "アサヒシ",
    "town": "泉川",
    "town_kana": "イズミカワ",
    "street": null,
    "office_name": null,
    "office_name_kana": null
  },
  "2535": {
    "postcode": "2892535",
    "prefecture": "千葉県",
    "prefecture_kana": "チバケン",
    "prefecture_code": 12,
    "city": "旭市",
    "city_kana": "アサヒシ",
    "town": "川口",
    "town_kana": "カワグチ",
    "street": null,
    "office_name": null,
    "office_name_kana": null
  },
  "2595": {
    "postcode": "2892595",
    "prefecture": "千葉県",
    "prefecture_kana": "チバケン",
    "prefecture_code": 12,
    "city": "旭市",
    "city_kana": "アサヒシ",
    "town": "ニ",
    "town_kana": "ニ",
    "street": "の２１３２",
    "office_name": "旭市役所",
    "office_name_kana": "アサヒシヤクシヨ"
  },
  "2601": {
    "postcode": "2892601",
    "prefecture": "千葉県",
    "prefecture_kana": "チバケン",
    "prefecture_code": 12,
    "city": "旭市",
    "city_kana": "アサヒシ",
    "town": "松ケ谷",
    "town_kana": "マツガヤ",
    "street": null,
    "office_name": null,
    "office_name_kana": null
  },
  "2602": {
    "postcode": "2892602",
    "prefecture": "千葉県",
    "prefecture_kana": "チバケン",
    "prefecture_code": 12,
    "city": "旭市",
    "city_kana": "アサヒシ",
    "town": "岩井",
    "town_kana": "イワイ",
    "street": null,
    "office_name": null,
    "office_name_kana": null
  },
  "2603": {
    "postcode": "2892603",
    "prefecture": "千葉県",
    "prefecture_kana": "チバケン",
    "prefecture_code": 12,
    "city": "旭市",
    "city_kana": "アサヒシ",
    "town": "大間手",
    "town_kana": "オオマデ",
    "street": null,
    "office_name": null,
    "office_name_kana": null
  },
  "2604": {
    "postcode": "2892604",
    "prefecture": "千葉県",
    "prefecture_kana": "チバケン",
    "prefecture_code": 12,
    "city": "旭市",
    "city_kana": "アサヒシ",
    "town": "高生",
    "town_kana": "タカオイ",
    "street": null,
    "office_name": null,
    "office_name_kana": null
  },
  "2605": {
    "postcode": "2892605",
    "prefecture": "千葉県",
    "prefecture_kana": "チバケン",
    "prefecture_code": 12,
    "city": "旭市",
    "city_kana": "アサヒシ",
    "town": "琴田",
    "town_kana": "コトダ",
    "street": null,
    "office_name": null,
    "office_name_kana": null
  },
  "2606": {
    "postcode": "2892606",
    "prefecture": "千葉県",
    "prefecture_kana": "チバケン",
    "prefecture_code": 12,
    "city": "旭市",
    "city_kana": "アサヒシ",
    "town": "清滝",
    "town_kana": "キヨタキ",
    "street": null,
    "office_name": null,
    "office_name_kana": null
  },
  "2607": {
    "postcode": "2892607",
    "prefecture": "千葉県",
    "prefecture_kana": "チバケン",
    "prefecture_code": 12,
    "city": "旭市",
    "city_kana": "アサヒシ",
    "town": "幾世",
    "town_kana": "イクヨ",
    "street": null,
    "office_name": null,
    "office_name_kana": null
  },
  "2611": {
    "postcode": "2892611",
    "prefecture": "千葉県",
    "prefecture_kana": "チバケン",
    "prefecture_code": 12,
    "city": "旭市",
    "city_kana": "アサヒシ",
    "town": "倉橋",
    "town_kana": "クラハシ",
    "street": null,
    "office_name": null,
    "office_name_kana": null
  },
  "2612": {
    "postcode": "2892612",
    "prefecture": "千葉県",
    "prefecture_kana": "チバケン",
    "prefecture_code": 12,
    "city": "旭市",
    "city_kana": "アサヒシ",
    "town": "蛇園",
    "town_kana": "ヘビソノ",
    "street": null,
    "office_name": null,
    "office_name_kana": null
  },
  "2613": {
    "postcode": "2892613",
    "prefecture": "千葉県",
    "prefecture_kana": "チバケン",
    "prefecture_code": 12,
    "city": "旭市",
    "city_kana": "アサヒシ",
    "town": "後草",
    "town_kana": "ウシログサ",
    "street": null,
    "office_name": null,
    "office_name_kana": null
  },
  "2614": {
    "postcode": "2892614",
    "prefecture": "千葉県",
    "prefecture_kana": "チバケン",
    "prefecture_code": 12,
    "city": "旭市",
    "city_kana": "アサヒシ",
    "town": "江ケ崎",
    "town_kana": "エガサキ",
    "street": null,
    "office_name": null,
    "office_name_kana": null
  },
  "2615": {
    "postcode": "2892615",
    "prefecture": "千葉県",
    "prefecture_kana": "チバケン",
    "prefecture_code": 12,
    "city": "旭市",
    "city_kana": "アサヒシ",
    "town": "長尾",
    "town_kana": "ナガオ",
    "street": null,
    "office_name": null,
    "office_name_kana": null
  },
  "2616": {
    "postcode": "2892616",
    "prefecture": "千葉県",
    "prefecture_kana": "チバケン",
    "prefecture_code": 12,
    "city": "旭市",
    "city_kana": "アサヒシ",
    "town": "見広",
    "town_kana": "ミヒロ",
    "street": null,
    "office_name": null,
    "office_name_kana": null
  },
  "2701": {
    "postcode": "2892701",
    "prefecture": "千葉県",
    "prefecture_kana": "チバケン",
    "prefecture_code": 12,
    "city": "旭市",
    "city_kana": "アサヒシ",
    "town": "狢野",
    "town_kana": "ムジナノ",
    "street": null,
    "office_name": null,
    "office_name_kana": null
  },
  "2702": {
    "postcode": "2892702",
    "prefecture": "千葉県",
    "prefecture_kana": "チバケン",
    "prefecture_code": 12,
    "city": "旭市",
    "city_kana": "アサヒシ",
    "town": "塙",
    "town_kana": "ハナワ",
    "street": null,
    "office_name": null,
    "office_name_kana": null
  },
  "2703": {
    "postcode": "2892703",
    "prefecture": "千葉県",
    "prefecture_kana": "チバケン",
    "prefecture_code": 12,
    "city": "旭市",
    "city_kana": "アサヒシ",
    "town": "八木",
    "town_kana": "ヤギ",
    "street": null,
    "office_name": null,
    "office_name_kana": null
  },
  "2704": {
    "postcode": "2892704",
    "prefecture": "千葉県",
    "prefecture_kana": "チバケン",
    "prefecture_code": 12,
    "city": "旭市",
    "city_kana": "アサヒシ",
    "town": "上永井",
    "town_kana": "カミナガイ",
    "street": null,
    "office_name": null,
    "office_name_kana": null
  },
  "2705": {
    "postcode": "2892705",
    "prefecture": "千葉県",
    "prefecture_kana": "チバケン",
    "prefecture_code": 12,
    "city": "旭市",
    "city_kana": "アサヒシ",
    "town": "飯岡",
    "town_kana": "イイオカ",
    "street": null,
    "office_name": null,
    "office_name_kana": null
  },
  "2706": {
    "postcode": "2892706",
    "prefecture": "千葉県",
    "prefecture_kana": "チバケン",
    "prefecture_code": 12,
    "city": "旭市",
    "city_kana": "アサヒシ",
    "town": "下永井",
    "town_kana": "シモナガイ",
    "street": null,
    "office_name": null,
    "office_name_kana": null
  },
  "2707": {
    "postcode": "2892707",
    "prefecture": "千葉県",
    "prefecture_kana": "チバケン",
    "prefecture_code": 12,
    "city": "旭市",
    "city_kana": "アサヒシ",
    "town": "行内",
    "town_kana": "ギョウジ",
    "street": null,
    "office_name": null,
    "office_name_kana": null
  },
  "2708": {
    "postcode": "2892708",
    "prefecture": "千葉県",
    "prefecture_kana": "チバケン",
    "prefecture_code": 12,
    "city": "旭市",
    "city_kana": "アサヒシ",
    "town": "平松",
    "town_kana": "ヒラマツ",
    "street": null,
    "office_name": null,
    "office_name_kana": null
  },
  "2711": {
    "postcode": "2892711",
    "prefecture": "千葉県",
    "prefecture_kana": "チバケン",
    "prefecture_code": 12,
    "city": "旭市",
    "city_kana": "アサヒシ",
    "town": "岩崎",
    "town_kana": "イワサキ",
    "street": null,
    "office_name": null,
    "office_name_kana": null
  },
  "2712": {
    "postcode": "2892712",
    "prefecture": "千葉県",
    "prefecture_kana": "チバケン",
    "prefecture_code": 12,
    "city": "旭市",
    "city_kana": "アサヒシ",
    "town": "横根",
    "town_kana": "ヨコネ",
    "street": null,
    "office_name": null,
    "office_name_kana": null
  },
  "2713": {
    "postcode": "2892713",
    "prefecture": "千葉県",
    "prefecture_kana": "チバケン",
    "prefecture_code": 12,
    "city": "旭市",
    "city_kana": "アサヒシ",
    "town": "萩園",
    "town_kana": "ハギゾノ",
    "street": null,
    "office_name": null,
    "office_name_kana": null
  },
  "2714": {
    "postcode": "2892714",
    "prefecture": "千葉県",
    "prefecture_kana": "チバケン",
    "prefecture_code": 12,
    "city": "旭市",
    "city_kana": "アサヒシ",
    "town": "三川",
    "town_kana": "サンガワ",
    "street": null,
    "office_name": null,
    "office_name_kana": null
  },
  "2715": {
    "postcode": "2892715",
    "prefecture": "千葉県",
    "prefecture_kana": "チバケン",
    "prefecture_code": 12,
    "city": "旭市",
    "city_kana": "アサヒシ",
    "town": "権田沼新田",
    "town_kana": "ゴンダヌマシンデン",
    "street": null,
    "office_name": null,
    "office_name_kana": null
  },
  "3181": {
    "postcode": "2893181",
    "prefecture": "千葉県",
    "prefecture_kana": "チバケン",
    "prefecture_code": 12,
    "city": "匝瑳市",
    "city_kana": "ソウサシ",
    "town": "野手",
    "town_kana": "ノデ",
    "street": null,
    "office_name": null,
    "office_name_kana": null
  },
  "3182": {
    "postcode": "2893182",
    "prefecture": "千葉県",
    "prefecture_kana": "チバケン",
    "prefecture_code": 12,
    "city": "匝瑳市",
    "city_kana": "ソウサシ",
    "town": "今泉",
    "town_kana": "イマイズミ",
    "street": null,
    "office_name": null,
    "office_name_kana": null
  },
  "3183": {
    "postcode": "2893183",
    "prefecture": "千葉県",
    "prefecture_kana": "チバケン",
    "prefecture_code": 12,
    "city": "匝瑳市",
    "city_kana": "ソウサシ",
    "town": "新堀",
    "town_kana": "ニイボリ",
    "street": null,
    "office_name": null,
    "office_name_kana": null
  },
  "3184": {
    "postcode": "2893184",
    "prefecture": "千葉県",
    "prefecture_kana": "チバケン",
    "prefecture_code": 12,
    "city": "匝瑳市",
    "city_kana": "ソウサシ",
    "town": "栢田",
    "town_kana": "カヤダ",
    "street": null,
    "office_name": null,
    "office_name_kana": null
  },
  "3185": {
    "postcode": "2893185",
    "prefecture": "千葉県",
    "prefecture_kana": "チバケン",
    "prefecture_code": 12,
    "city": "匝瑳市",
    "city_kana": "ソウサシ",
    "town": "堀川",
    "town_kana": "ホリカワ",
    "street": null,
    "office_name": null,
    "office_name_kana": null
  },
  "3186": {
    "postcode": "2893186",
    "prefecture": "千葉県",
    "prefecture_kana": "チバケン",
    "prefecture_code": 12,
    "city": "匝瑳市",
    "city_kana": "ソウサシ",
    "town": "川辺",
    "town_kana": "カワベ",
    "street": null,
    "office_name": null,
    "office_name_kana": null
  }
}