{
  "0000": {
    "postcode": "2920000",
    "prefecture": "千葉県",
    "prefecture_kana": "チバケン",
    "prefecture_code": 12,
    "city": "木更津市",
    "city_kana": "キサラヅシ",
    "town": "",
    "town_kana": "",
    "street": null,
    "office_name": null,
    "office_name_kana": null
  },
  "0001": {
    "postcode": "2920001",
    "prefecture": "千葉県",
    "prefecture_kana": "チバケン",
    "prefecture_code": 12,
    "city": "木更津市",
    "city_kana": "キサラヅシ",
    "town": "牛込",
    "town_kana": "ウシゴメ",
    "street": null,
    "office_name": null,
    "office_name_kana": null
  },
  "0002": {
    "postcode": "2920002",
    "prefecture": "千葉県",
    "prefecture_kana": "チバケン",
    "prefecture_code": 12,
    "city": "木更津市",
    "city_kana": "キサラヅシ",
    "town": "中野",
    "town_kana": "ナカノ",
    "street": null,
    "office_name": null,
    "office_name_kana": null
  },
  "0003": {
    "postcode": "2920003",
    "prefecture": "千葉県",
    "prefecture_kana": "チバケン",
    "prefecture_code": 12,
    "city": "木更津市",
    "city_kana": "キサラヅシ",
    "town": "万石",
    "town_kana": "マンゴク",
    "street": null,
    "office_name": null,
    "office_name_kana": null
  },
  "0004": {
    "postcode": "2920004",
    "prefecture": "千葉県",
    "prefecture_kana": "チバケン",
    "prefecture_code": 12,
    "city": "木更津市",
    "city_kana": "キサラヅシ",
    "town": "久津間",
    "town_kana": "クヅマ",
    "street": null,
    "office_name": null,
    "office_name_kana": null
  },
  "0005": {
    "postcode": "2920005",
    "prefecture": "千葉県",
    "prefecture_kana": "チバケン",
    "prefecture_code": 12,
    "city": "木更津市",
    "city_kana": "キサラヅシ",
    "town": "畔戸",
    "town_kana": "クロト",
    "street": null,
    "office_name": null,
    "office_name_kana": null
  },
  "0006": {
    "postcode": "2920006",
    "prefecture": "千葉県",
    "prefecture_kana": "チバケン",
    "prefecture_code": 12,
    "city": "木更津市",
    "city_kana": "キサラヅシ",
    "town": "北浜町",
    "town_kana": "キタハマチョウ",
    "street": null,
    "office_name": null,
    "office_name_kana": null
  },
  "0007": {
    "postcode": "2920007",
    "prefecture": "千葉県",
    "prefecture_kana": "チバケン",
    "prefecture_code": 12,
    "city": "木更津市",
    "city_kana": "キサラヅシ",
    "town": "瓜倉",
    "town_kana": "ウリクラ",
    "street": null,
    "office_name": null,
    "office_name_kana": null
  },
  "0008": {
    "postcode": "2920008",
    "prefecture": "千葉県",
    "prefecture_kana": "チバケン",
    "prefecture_code": 12,
    "city": "木更津市",
    "city_kana": "キサラヅシ",
    "town": "中島",
    "town_kana": "ナカジマ",
    "street": null,
    "office_name": null,
    "office_name_kana": null
  },
  "0009": {
    "postcode": "2920009",
    "prefecture": "千葉県",
    "prefecture_kana": "チバケン",
    "prefecture_code": 12,
    "city": "木更津市",
    "city_kana": "キサラヅシ",
    "town": "金田東",
    "town_kana": "カネダヒガシ",
    "street": null,
    "office_name": null,
    "office_name_kana": null
  },
  "0011": {
    "postcode": "2920011",
    "prefecture": "千葉県",
    "prefecture_kana": "チバケン",
    "prefecture_code": 12,
    "city": "木更津市",
    "city_kana": "キサラヅシ",
    "town": "牛袋野",
    "town_kana": "ウシブクロノ",
    "street": null,
    "office_name": null,
    "office_name_kana": null
  },
  "0012": {
    "postcode": "2920012",
    "prefecture": "千葉県",
    "prefecture_kana": "チバケン",
    "prefecture_code": 12,
    "city": "木更津市",
    "city_kana": "キサラヅシ",
    "town": "牛袋",
    "town_kana": "ウシブクロ",
    "street": null,
    "office_name": null,
    "office_name_kana": null
  },
  "0013": {
    "postcode": "2920013",
    "prefecture": "千葉県",
    "prefecture_kana": "チバケン",
    "prefecture_code": 12,
    "city": "木更津市",
    "city_kana": "キサラヅシ",
    "town": "若葉町",
    "town_kana": "ワカバチョウ",
    "street": null,
    "office_name": null,
    "office_name_kana": null
  },
  "0014": {
    "postcode": "2920014",
    "prefecture": "千葉県",
    "prefecture_kana": "チバケン",
    "prefecture_code": 12,
    "city": "木更津市",
    "city_kana": "キサラヅシ",
    "town": "高柳",
    "town_kana": "タカヤナギ",
    "street": null,
    "office_name": null,
    "office_name_kana": null
  },
  "0015": {
    "postcode": "2920015",
    "prefecture": "千葉県",
    "prefecture_kana": "チバケン",
    "prefecture_code": 12,
    "city": "木更津市",
    "city_kana": "キサラヅシ",
    "town": "本郷",
    "town_kana": "ホンゴウ",
    "street": null,
    "office_name": null,
    "office_name_kana": null
  },
  "0016": {
    "postcode": "2920016",
    "prefecture": "千葉県",
    "prefecture_kana": "チバケン",
    "prefecture_code": 12,
    "city": "木更津市",
    "city_kana": "キサラヅシ",
    "town": "高砂",
    "town_kana": "タカサゴ",
    "street": null,
    "office_name": null,
    "office_name_kana": null
  },
  "0021": {
    "postcode": "2920021",
    "prefecture": "千葉県",
    "prefecture_kana": "チバケン",
    "prefecture_code": 12,
    "city": "木更津市",
    "city_kana": "キサラヅシ",
    "town": "有吉",
    "town_kana": "アリヨシ",
    "street": null,
    "office_name": null,
    "office_name_kana": null
  },
  "0022": {
    "postcode": "2920022",
    "prefecture": "千葉県",
    "prefecture_kana": "チバケン",
    "prefecture_code": 12,
    "city": "木更津市",
    "city_kana": "キサラヅシ",
    "town": "上望陀",
    "town_kana": "カミモウダ",
    "street": null,
    "office_name": null,
    "office_name_kana": null
  },
  "0023": {
    "postcode": "2920023",
    "prefecture": "千葉県",
    "prefecture_kana": "チバケン",
    "prefecture_code": 12,
    "city": "木更津市",
    "city_kana": "キサラヅシ",
    "town": "下望陀",
    "town_kana": "シモモウダ",
    "street": null,
    "office_name": null,
    "office_name_kana": null
  },
  "0024": {
    "postcode": "2920024",
    "prefecture": "千葉県",
    "prefecture_kana": "チバケン",
    "prefecture_code": 12,
    "city": "木更津市",
    "city_kana": "キサラヅシ",
    "town": "大寺",
    "town_kana": "オオテラ",
    "street": null,
    "office_name": null,
    "office_name_kana": null
  },
  "0025": {
    "postcode": "2920025",
    "prefecture": "千葉県",
    "prefecture_kana": "チバケン",
    "prefecture_code": 12,
    "city": "木更津市",
    "city_kana": "キサラヅシ",
    "town": "十日市場",
    "town_kana": "トオカイチバ",
    "street": null,
    "office_name": null,
    "office_name_kana": null
  },
  "0026": {
    "postcode": "2920026",
    "prefecture": "千葉県",
    "prefecture_kana": "チバケン",
    "prefecture_code": 12,
    "city": "木更津市",
    "city_kana": "キサラヅシ",
    "town": "井尻",
    "town_kana": "イジリ",
    "street": null,
    "office_name": null,
    "office_name_kana": null
  },
  "0027": {
    "postcode": "2920027",
    "prefecture": "千葉県",
    "prefecture_kana": "チバケン",
    "prefecture_code": 12,
    "city": "木更津市",
    "city_kana": "キサラヅシ",
    "town": "曽根",
    "town_kana": "ソネ",
    "street": null,
    "office_name": null,
    "office_name_kana": null
  },
  "0031": {
    "postcode": "2920031",
    "prefecture": "千葉県",
    "prefecture_kana": "チバケン",
    "prefecture_code": 12,
    "city": "木更津市",
    "city_kana": "キサラヅシ",
    "town": "椿",
    "town_kana": "ツバキ",
    "street": null,
    "office_name": null,
    "office_name_kana": null
  },
  "0032": {
    "postcode": "2920032",
    "prefecture": "千葉県",
    "prefecture_kana": "チバケン",
    "prefecture_code": 12,
    "city": "木更津市",
    "city_kana": "キサラヅシ",
    "town": "笹子",
    "town_kana": "ササゴ",
    "street": null,
    "office_name": null,
    "office_name_kana": null
  },
  "0033": {
    "postcode": "2920033",
    "prefecture": "千葉県",
    "prefecture_kana": "チバケン",
    "prefecture_code": 12,
    "city": "木更津市",
    "city_kana": "キサラヅシ",
    "town": "犬成",
    "town_kana": "インナリ",
    "street": null,
    "office_name": null,
    "office_name_kana": null
  },
  "0034": {
    "postcode": "2920034",
    "prefecture": "千葉県",
    "prefecture_kana": "チバケン",
    "prefecture_code": 12,
    "city": "木更津市",
    "city_kana": "キサラヅシ",
    "town": "伊豆島",
    "town_kana": "イズシマ",
    "street": null,
    "office_name": null,
    "office_name_kana": null
  },
  "0035": {
    "postcode": "2920035",
    "prefecture": "千葉県",
    "prefecture_kana": "チバケン",
    "prefecture_code": 12,
    "city": "木更津市",
    "city_kana": "キサラヅシ",
    "town": "中尾",
    "town_kana": "ナカオ",
    "street": null,
    "office_name": null,
    "office_name_kana": null
  },
  "0036": {
    "postcode": "2920036",
    "prefecture": "千葉県",
    "prefecture_kana": "チバケン",
    "prefecture_code": 12,
    "city": "木更津市",
    "city_kana": "キサラヅシ",
    "town": "菅生",
    "town_kana": "スゴウ",
    "street": null,
    "office_name": null,
    "office_name_kana": null
  },
  "0037": {
    "postcode": "2920037",
    "prefecture": "千葉県",
    "prefecture_kana": "チバケン",
    "prefecture_code": 12,
    "city": "木更津市",
    "city_kana": "キサラヅシ",
    "town": "日の出町",
    "town_kana": "ヒノデチョウ",
    "street": null,
    "office_name": null,
    "office_name_kana": null
  },
  "0038": {
    "postcode": "2920038",
    "prefecture": "千葉県",
    "prefecture_kana": "チバケン",
    "prefecture_code": 12,
    "city": "木更津市",
    "city_kana": "キサラヅシ",
    "town": "ほたる野",
    "town_kana": "ホタルノ",
    "street": null,
    "office_name": null,
    "office_name_kana": null
  },
  "0041": {
    "postcode": "2920041",
    "prefecture": "千葉県",
    "prefecture_kana": "チバケン",
    "prefecture_code": 12,
    "city": "木更津市",
    "city_kana": "キサラヅシ",
    "town": "清見台東",
    "town_kana": "キヨミダイヒガシ",
    "street": null,
    "office_name": null,
    "office_name_kana": null
  },
  "0042": {
    "postcode": "2920042",
    "prefecture": "千葉県",
    "prefecture_kana": "チバケン",
    "prefecture_code": 12,
    "city": "木更津市",
    "city_kana": "キサラヅシ",
    "town": "清見台南",
    "town_kana": "キヨミダイミナミ",
    "street": null,
    "office_name": null,
    "office_name_kana": null
  },
  "0043": {
    "postcode": "2920043",
    "prefecture": "千葉県",
    "prefecture_kana": "チバケン",
    "prefecture_code": 12,
    "city": "木更津市",
    "city_kana": "キサラヅシ",
    "town": "東太田",
    "town_kana": "ヒガシオオダ",
    "street": null,
    "office_name": null,
    "office_name_kana": null
  },
  "0044": {
    "postcode": "2920044",
    "prefecture": "千葉県",
    "prefecture_kana": "チバケン",
    "prefecture_code": 12,
    "city": "木更津市",
    "city_kana": "キサラヅシ",
    "town": "太田",
    "town_kana": "オオダ",
    "street": null,
    "office_name": null,
    "office_name_kana": null
  },
  "0045": {
    "postcode": "2920045",
    "prefecture": "千葉県",
    "prefecture_kana": "チバケン",
    "prefecture_code": 12,
    "city": "木更津市",
    "city_kana": "キサラヅシ",
    "town": "清見台",
    "town_kana": "キヨミダイ",
    "street": null,
    "office_name": null,
    "office_name_kana": null
  },
  "0051": {
    "postcode": "2920051",
    "prefecture": "千葉県",
    "prefecture_kana": "チバケン",
    "prefecture_code": 12,
    "city": "木更津市",
    "city_kana": "キサラヅシ",
    "town": "清川",
    "town_kana": "キヨカワ",
    "street": null,
    "office_name": null,
    "office_name_kana": null
  },
  "0052": {
    "postcode": "2920052",
    "prefecture": "千葉県",
    "prefecture_kana": "チバケン",
    "prefecture_code": 12,
    "city": "木更津市",
    "city_kana": "キサラヅシ",
    "town": "祇園",
    "town_kana": "ギオン",
    "street": null,
    "office_name": null,
    "office_name_kana": null
  },
  "0053": {
    "postcode": "2920053",
    "prefecture": "千葉県",
    "prefecture_kana": "チバケン",
    "prefecture_code": 12,
    "city": "木更津市",
    "city_kana": "キサラヅシ",
    "town": "永井作",
    "town_kana": "ナガイサク",
    "street": null,
    "office_name": null,
    "office_name_kana": null
  },
  "0054": {
    "postcode": "2920054",
    "prefecture": "千葉県",
    "prefecture_kana": "チバケン",
    "prefecture_code": 12,
    "city": "木更津市",
    "city_kana": "キサラヅシ",
    "town": "長須賀",
    "town_kana": "ナガスカ",
    "street": null,
    "office_name": null,
    "office_name_kana": null
  },
  "0055": {
    "postcode": "2920055",
    "prefecture": "千葉県",
    "prefecture_kana": "チバケン",
    "prefecture_code": 12,
    "city": "木更津市",
    "city_kana": "キサラヅシ",
    "town": "朝日",
    "town_kana": "アサヒ",
    "street": null,
    "office_name": null,
    "office_name_kana": null
  },
  "0056": {
    "postcode": "2920056",
    "prefecture": "千葉県",
    "prefecture_kana": "チバケン",
    "prefecture_code": 12,
    "city": "木更津市",
    "city_kana": "キサラヅシ",
    "town": "木更津",
    "town_kana": "キサラヅ",
    "street": null,
    "office_name": null,
    "office_name_kana": null
  },
  "0057": {
    "postcode": "2920057",
    "prefecture": "千葉県",
    "prefecture_kana": "チバケン",
    "prefecture_code": 12,
    "city": "木更津市",
    "city_kana": "キサラヅシ",
    "town": "東中央",
    "town_kana": "ヒガシチュウオウ",
    "street": null,
    "office_name": null,
    "office_name_kana": null
  },
  "0061": {
    "postcode": "2920061",
    "prefecture": "千葉県",
    "prefecture_kana": "チバケン",
    "prefecture_code": 12,
    "city": "木更津市",
    "city_kana": "キサラヅシ",
    "town": "岩根",
    "town_kana": "イワネ",
    "street": null,
    "office_name": null,
    "office_name_kana": null
  },
  "0062": {
    "postcode": "2920062",
    "prefecture": "千葉県",
    "prefecture_kana": "チバケン",
    "prefecture_code": 12,
    "city": "木更津市",
    "city_kana": "キサラヅシ",
    "town": "西岩根",
    "town_kana": "ニシイワネ",
    "street": null,
    "office_name": null,
    "office_name_kana": null
  },
  "0063": {
    "postcode": "2920063",
    "prefecture": "千葉県",
    "prefecture_kana": "チバケン",
    "prefecture_code": 12,
    "city": "木更津市",
    "city_kana": "キサラヅシ",
    "town": "江川",
    "town_kana": "エガワ",
    "street": null,
    "office_name": null,
    "office_name_kana": null
  },
  "0064": {
    "postcode": "2920064",
    "prefecture": "千葉県",
    "prefecture_kana": "チバケン",
    "prefecture_code": 12,
    "city": "木更津市",
    "city_kana": "キサラヅシ",
    "town": "中里",
    "town_kana": "ナカザト",
    "street": null,
    "office_name": null,
    "office_name_kana": null
  },
  "0065": {
    "postcode": "2920065",
    "prefecture": "千葉県",
    "prefecture_kana": "チバケン",
    "prefecture_code": 12,
    "city": "木更津市",
    "city_kana": "キサラヅシ",
    "town": "吾妻",
    "town_kana": "アヅマ",
    "street": null,
    "office_name": null,
    "office_name_kana": null
  },
  "0066": {
    "postcode": "2920066",
    "prefecture": "千葉県",
    "prefecture_kana": "チバケン",
    "prefecture_code": 12,
    "city": "木更津市",
    "city_kana": "キサラヅシ",
    "town": "新宿",
    "town_kana": "シンジュク",
    "street": null,
    "office_name": null,
    "office_name_kana": null
  },
  "0067": {
    "postcode": "2920067",
    "prefecture": "千葉県",
    "prefecture_kana": "チバケン",
    "prefecture_code": 12,
    "city": "木更津市",
    "city_kana": "キサラヅシ",
    "town": "中央",
    "town_kana": "チュウオウ",
    "street": null,
    "office_name": null,
    "office_name_kana": null
  },
  "0071": {
    "postcode": "2920071",
    "prefecture": "千葉県",
    "prefecture_kana": "チバケン",
    "prefecture_code": 12,
    "city": "木更津市",
    "city_kana": "キサラヅシ",
    "town": "中島地先海ほたる",
    "town_kana": "ナカジマチサキウミホタル",
    "street": null,
    "office_name": null,
    "office_name_kana": null
  },
  "0201": {
    "postcode": "2920201",
    "prefecture": "千葉県",
    "prefecture_kana": "チバケン",
    "prefecture_code": 12,
    "city": "木更津市",
    "city_kana": "キサラヅシ",
    "town": "真里谷",
    "town_kana": "マリヤツ",
    "street": null,
    "office_name": null,
    "office_name_kana": null
  },
  "0202": {
    "postcode": "2920202",
    "prefecture": "千葉県",
    "prefecture_kana": "チバケン",
    "prefecture_code": 12,
    "city": "木更津市",
    "city_kana": "キサラヅシ",
    "town": "茅野七曲",
    "town_kana": "カヤノナナマガリ",
    "street": null,
    "office_name": null,
    "office_name_kana": null
  },
  "0203": {
    "postcode": "2920203",
    "prefecture": "千葉県",
    "prefecture_kana": "チバケン",
    "prefecture_code": 12,
    "city": "木更津市",
    "city_kana": "キサラヅシ",
    "town": "山本七曲",
    "town_kana": "ヤマモトナナマガリ",
    "street": null,
    "office_name": null,
    "office_name_kana": null
  },
  "0204": {
    "postcode": "2920204",
    "prefecture": "千葉県",
    "prefecture_kana": "チバケン",
    "prefecture_code": 12,
    "city": "木更津市",
    "city_kana": "キサラヅシ",
    "town": "茅野",
    "town_kana": "カヤノ",
    "street": null,
    "office_name": null,
    "office_name_kana": null
  },
  "0205": {
    "postcode": "2920205",
    "prefecture": "千葉県",
    "prefecture_kana": "チバケン",
    "prefecture_code": 12,
    "city": "木更津市",
    "city_kana": "キサラヅシ",
    "town": "下郡",
    "town_kana": "シモゴオリ",
    "street": null,
    "office_name": null,
    "office_name_kana": null
  },
  "0206": {
    "postcode": "2920206",
    "prefecture": "千葉県",
    "prefecture_kana": "チバケン",
    "prefecture_code": 12,
    "city": "木更津市",
    "city_kana": "キサラヅシ",
    "town": "佐野",
    "town_kana": "サノ",
    "street": null,
    "office_name": null,
    "office_name_kana": null
  },
  "0207": {
    "postcode": "2920207",
    "prefecture": "千葉県",
    "prefecture_kana": "チバケン",
    "prefecture_code": 12,
    "city": "木更津市",
    "city_kana": "キサラヅシ",
    "town": "田川",
    "town_kana": "タガワ",
    "street": null,
    "office_name": null,
    "office_name_kana": null
  },
  "0211": {
    "postcode": "2920211",
    "prefecture": "千葉県",
    "prefecture_kana": "チバケン",
    "prefecture_code": 12,
    "city": "木更津市",
    "city_kana": "キサラヅシ",
    "town": "大稲",
    "town_kana": "オオイネ",
    "street": null,
    "office_name": null,
    "office_name_kana": null
  },
  "0212": {
    "postcode": "2920212",
    "prefecture": "千葉県",
    "prefecture_kana": "チバケン",
    "prefecture_code": 12,
    "city": "木更津市",
    "city_kana": "キサラヅシ",
    "town": "真里",
    "town_kana": "マリ",
    "street": null,
    "office_name": null,
    "office_name_kana": null
  },
  "0213": {
    "postcode": "2920213",
    "prefecture": "千葉県",
    "prefecture_kana": "チバケン",
    "prefecture_code": 12,
    "city": "木更津市",
    "city_kana": "キサラヅシ",
    "town": "下内橋",
    "town_kana": "ゲナイバシ",
    "street": null,
    "office_name": null,
    "office_name_kana": null
  },
  "0214": {
    "postcode": "2920214",
    "prefecture": "千葉県",
    "prefecture_kana": "チバケン",
    "prefecture_code": 12,
    "city": "木更津市",
    "city_kana": "キサラヅシ",
    "town": "戸国",
    "town_kana": "トクニ",
    "street": null,
    "office_name": null,
    "office_name_kana": null
  },
  "0215": {
    "postcode": "2920215",
    "prefecture": "千葉県",
    "prefecture_kana": "チバケン",
    "prefecture_code": 12,
    "city": "木更津市",
    "city_kana": "キサラヅシ",
    "town": "上根岸",
    "town_kana": "カミネギシ",
    "street": null,
    "office_name": null,
    "office_name_kana": null
  },
  "0216": {
    "postcode": "2920216",
    "prefecture": "千葉県",
    "prefecture_kana": "チバケン",
    "prefecture_code": 12,
    "city": "木更津市",
    "city_kana": "キサラヅシ",
    "town": "根岸",
    "town_kana": "ネギシ",
    "street": null,
    "office_name": null,
    "office_name_kana": null
  },
  "0217": {
    "postcode": "2920217",
    "prefecture": "千葉県",
    "prefecture_kana": "チバケン",
    "prefecture_code": 12,
    "city": "木更津市",
    "city_kana": "キサラヅシ",
    "town": "下宮田",
    "town_kana": "シモミヤダ",
    "street": null,
    "office_name": null,
    "office_name_kana": null
  },
  "0401": {
    "postcode": "2920401",
    "prefecture": "千葉県",
    "prefecture_kana": "チバケン",
    "prefecture_code": 12,
    "city": "君津市",
    "city_kana": "キミツシ",
    "town": "山本",
    "town_kana": "ヤマモト",
    "street": null,
    "office_name": null,
    "office_name_kana": null
  },
  "0402": {
    "postcode": "2920402",
    "prefecture": "千葉県",
    "prefecture_kana": "チバケン",
    "prefecture_code": 12,
    "city": "君津市",
    "city_kana": "キミツシ",
    "town": "西原",
    "town_kana": "ニシバラ",
    "street": null,
    "office_name": null,
    "office_name_kana": null
  },
  "0403": {
    "postcode": "2920403",
    "prefecture": "千葉県",
    "prefecture_kana": "チバケン",
    "prefecture_code": 12,
    "city": "君津市",
    "city_kana": "キミツシ",
    "town": "三田",
    "town_kana": "サンダ",
    "street": null,
    "office_name": null,
    "office_name_kana": null
  },
  "0404": {
    "postcode": "2920404",
    "prefecture": "千葉県",
    "prefecture_kana": "チバケン",
    "prefecture_code": 12,
    "city": "君津市",
    "city_kana": "キミツシ",
    "town": "賀恵渕",
    "town_kana": "カエフチ",
    "street": null,
    "office_name": null,
    "office_name_kana": null
  },
  "0411": {
    "postcode": "2920411",
    "prefecture": "千葉県",
    "prefecture_kana": "チバケン",
    "prefecture_code": 12,
    "city": "君津市",
    "city_kana": "キミツシ",
    "town": "長谷川",
    "town_kana": "ハセガワ",
    "street": null,
    "office_name": null,
    "office_name_kana": null
  },
  "0412": {
    "postcode": "2920412",
    "prefecture": "千葉県",
    "prefecture_kana": "チバケン",
    "prefecture_code": 12,
    "city": "君津市",
    "city_kana": "キミツシ",
    "town": "小櫃台",
    "town_kana": "オビツダイ",
    "street": null,
    "office_name": null,
    "office_name_kana": null
  },
  "0413": {
    "postcode": "2920413",
    "prefecture": "千葉県",
    "prefecture_kana": "チバケン",
    "prefecture_code": 12,
    "city": "君津市",
    "city_kana": "キミツシ",
    "town": "吉野",
    "town_kana": "ヨシノ",
    "street": null,
    "office_name": null,
    "office_name_kana": null
  },
  "0414": {
    "postcode": "2920414",
    "prefecture": "千葉県",
    "prefecture_kana": "チバケン",
    "prefecture_code": 12,
    "city": "君津市",
    "city_kana": "キミツシ",
    "town": "久留里大谷",
    "town_kana": "クルリオオヤツ",
    "street": null,
    "office_name": null,
    "office_name_kana": null
  },
  "0415": {
    "postcode": "2920415",
    "prefecture": "千葉県",
    "prefecture_kana": "チバケン",
    "prefecture_code": 12,
    "city": "君津市",
    "city_kana": "キミツシ",
    "town": "川谷",
    "town_kana": "カワヤツ",
    "street": null,
    "office_name": null,
    "office_name_kana": null
  },
  "0416": {
    "postcode": "2920416",
    "prefecture": "千葉県",
    "prefecture_kana": "チバケン",
    "prefecture_code": 12,
    "city": "君津市",
    "city_kana": "キミツシ",
    "town": "小市部",
    "town_kana": "コイチブ",
    "street": null,
    "office_name": null,
    "office_name_kana": null
  },
  "0421": {
    "postcode": "2920421",
    "prefecture": "千葉県",
    "prefecture_kana": "チバケン",
    "prefecture_code": 12,
    "city": "君津市",
    "city_kana": "キミツシ",
    "town": "久留里市場",
    "town_kana": "クルリイチバ",
    "street": null,
    "office_name": null,
    "office_name_kana": null
  },
  "0422": {
    "postcode": "2920422",
    "prefecture": "千葉県",
    "prefecture_kana": "チバケン",
    "prefecture_code": 12,
    "city": "君津市",
    "city_kana": "キミツシ",
    "town": "久留里",
    "town_kana": "クルリ",
    "street": null,
    "office_name": null,
    "office_name_kana": null
  },
  "0423": {
    "postcode": "2920423",
    "prefecture": "千葉県",
    "prefecture_kana": "チバケン",
    "prefecture_code": 12,
    "city": "君津市",
    "city_kana": "キミツシ",
    "town": "久留里大和田",
    "town_kana": "クルリオオワダ",
    "street": null,
    "office_name": null,
    "office_name_kana": null
  },
  "0431": {
    "postcode": "2920431",
    "prefecture": "千葉県",
    "prefecture_kana": "チバケン",
    "prefecture_code": 12,
    "city": "君津市",
    "city_kana": "キミツシ",
    "town": "怒田",
    "town_kana": "ヌダ",
    "street": null,
    "office_name": null,
    "office_name_kana": null
  },
  "0432": {
    "postcode": "2920432",
    "prefecture": "千葉県",
    "prefecture_kana": "チバケン",
    "prefecture_code": 12,
    "city": "君津市",
    "city_kana": "キミツシ",
    "town": "浦田",
    "town_kana": "ウラタ",
    "street": null,
    "office_name": null,
    "office_name_kana": null
  },
  "0433": {
    "postcode": "2920433",
    "prefecture": "千葉県",
    "prefecture_kana": "チバケン",
    "prefecture_code": 12,
    "city": "君津市",
    "city_kana": "キミツシ",
    "town": "芋窪",
    "town_kana": "イモクボ",
    "street": null,
    "office_name": null,
    "office_name_kana": null
  },
  "0434": {
    "postcode": "2920434",
    "prefecture": "千葉県",
    "prefecture_kana": "チバケン",
    "prefecture_code": 12,
    "city": "君津市",
    "city_kana": "キミツシ",
    "town": "向郷",
    "town_kana": "ムカイゴウ",
    "street": null,
    "office_name": null,
    "office_name_kana": null
  },
  "0435": {
    "postcode": "2920435",
    "prefecture": "千葉県",
    "prefecture_kana": "チバケン",
    "prefecture_code": 12,
    "city": "君津市",
    "city_kana": "キミツシ",
    "town": "栗坪",
    "town_kana": "クリツボ",
    "street": null,
    "office_name": null,
    "office_name_kana": null
  },
  "0441": {
    "postcode": "2920441",
    "prefecture": "千葉県",
    "prefecture_kana": "チバケン",
    "prefecture_code": 12,
    "city": "君津市",
    "city_kana": "キミツシ",
    "town": "戸崎",
    "town_kana": "トザキ",
    "street": null,
    "office_name": null,
    "office_name_kana": null
  },
  "0442": {
    "postcode": "2920442",
    "prefecture": "千葉県",
    "prefecture_kana": "チバケン",
    "prefecture_code": 12,
    "city": "君津市",
    "city_kana": "キミツシ",
    "town": "岩出",
    "town_kana": "イワデ",
    "street": null,
    "office_name": null,
    "office_name_kana": null
  },
  "0443": {
    "postcode": "2920443",
    "prefecture": "千葉県",
    "prefecture_kana": "チバケン",
    "prefecture_code": 12,
    "city": "君津市",
    "city_kana": "キミツシ",
    "town": "寺沢",
    "town_kana": "テラザワ",
    "street": null,
    "office_name": null,
    "office_name_kana": null
  },
  "0444": {
    "postcode": "2920444",
    "prefecture": "千葉県",
    "prefecture_kana": "チバケン",
    "prefecture_code": 12,
    "city": "君津市",
    "city_kana": "キミツシ",
    "town": "富田",
    "town_kana": "トミダ",
    "street": null,
    "office_name": null,
    "office_name_kana": null
  },
  "0445": {
    "postcode": "2920445",
    "prefecture": "千葉県",
    "prefecture_kana": "チバケン",
    "prefecture_code": 12,
    "city": "君津市",
    "city_kana": "キミツシ",
    "town": "愛宕",
    "town_kana": "アタゴ",
    "street": null,
    "office_name": null,
    "office_name_kana": null
  },
  "0451": {
    "postcode": "2920451",
    "prefecture": "千葉県",
    "prefecture_kana": "チバケン",
    "prefecture_code": 12,
    "city": "君津市",
    "city_kana": "キミツシ",
    "town": "末吉",
    "town_kana": "スエヨシ",
    "street": null,
    "office_name": null,
    "office_name_kana": null
  },
  "0452": {
    "postcode": "2920452",
    "prefecture": "千葉県",
    "prefecture_kana": "チバケン",
    "prefecture_code": 12,
    "city": "君津市",
    "city_kana": "キミツシ",
    "town": "上新田",
    "town_kana": "カミニッタ",
    "street": null,
    "office_name": null,
    "office_name_kana": null
  },
  "0453": {
    "postcode": "2920453",
    "prefecture": "千葉県",
    "prefecture_kana": "チバケン",
    "prefecture_code": 12,
    "city": "君津市",
    "city_kana": "キミツシ",
    "town": "箕輪",
    "town_kana": "ミノワ",
    "street": null,
    "office_name": null,
    "office_name_kana": null
  },
  "0454": {
    "postcode": "2920454",
    "prefecture": "千葉県",
    "prefecture_kana": "チバケン",
    "prefecture_code": 12,
    "city": "君津市",
    "city_kana": "キミツシ",
    "town": "青柳",
    "town_kana": "アオヤギ",
    "street": null,
    "office_name": null,
    "office_name_kana": null
  },
  "0455": {
    "postcode": "2920455",
    "prefecture": "千葉県",
    "prefecture_kana": "チバケン",
    "prefecture_code": 12,
    "city": "君津市",
    "city_kana": "キミツシ",
    "town": "俵田",
    "town_kana": "タワラダ",
    "street": null,
    "office_name": null,
    "office_name_kana": null
  },
  "0501": {
    "postcode": "2920501",
    "prefecture": "千葉県",
    "prefecture_kana": "チバケン",
    "prefecture_code": 12,
    "city": "君津市",
    "city_kana": "キミツシ",
    "town": "山滝野",
    "town_kana": "ヤマタキノ",
    "street": null,
    "office_name": null,
    "office_name_kana": null
  },
  "0502": {
    "postcode": "2920502",
    "prefecture": "千葉県",
    "prefecture_kana": "チバケン",
    "prefecture_code": 12,
    "city": "君津市",
    "city_kana": "キミツシ",
    "town": "平山",
    "town_kana": "ヒラヤマ",
    "street": null,
    "office_name": null,
    "office_name_kana": null
  },
  "0503": {
    "postcode": "2920503",
    "prefecture": "千葉県",
    "prefecture_kana": "チバケン",
    "prefecture_code": 12,
    "city": "君津市",
    "city_kana": "キミツシ",
    "town": "広岡",
    "town_kana": "ヒロオカ",
    "street": null,
    "office_name": null,
    "office_name_kana": null
  },
  "0511": {
    "postcode": "2920511",
    "prefecture": "千葉県",
    "prefecture_kana": "チバケン",
    "prefecture_code": 12,
    "city": "君津市",
    "city_kana": "キミツシ",
    "town": "大坂",
    "town_kana": "オサカ",
    "street": null,
    "office_name": null,
    "office_name_kana": null
  },
  "0512": {
    "postcode": "2920512",
    "prefecture": "千葉県",
    "prefecture_kana": "チバケン",
    "prefecture_code": 12,
    "city": "君津市",
    "city_kana": "キミツシ",
    "town": "大戸見",
    "town_kana": "オオトミ",
    "street": null,
    "office_name": null,
    "office_name_kana": null
  },
  "0513": {
    "postcode": "2920513",
    "prefecture": "千葉県",
    "prefecture_kana": "チバケン",
    "prefecture_code": 12,
    "city": "君津市",
    "city_kana": "キミツシ",
    "town": "加名盛",
    "town_kana": "カナモリ",
    "street": null,
    "office_name": null,
    "office_name_kana": null
  },
  "0514": {
    "postcode": "2920514",
    "prefecture": "千葉県",
    "prefecture_kana": "チバケン",
    "prefecture_code": 12,
    "city": "君津市",
    "city_kana": "キミツシ",
    "town": "大戸見旧名殿",
    "town_kana": "オオトミキュウナドノ",
    "street": null,
    "office_name": null,
    "office_name_kana": null
  },
  "0515": {
    "postcode": "2920515",
    "prefecture": "千葉県",
    "prefecture_kana": "チバケン",
    "prefecture_code": 12,
    "city": "君津市",
    "city_kana": "キミツシ",
    "town": "柳城",
    "town_kana": "ヤナシロ",
    "street": null,
    "office_name": null,
    "office_name_kana": null
  },
  "0516": {
    "postcode": "2920516",
    "prefecture": "千葉県",
    "prefecture_kana": "チバケン",
    "prefecture_code": 12,
    "city": "君津市",
    "city_kana": "キミツシ",
    "town": "高水",
    "town_kana": "タカミズ",
    "street": null,
    "office_name": null,
    "office_name_kana": null
  },
  "0521": {
    "postcode": "2920521",
    "prefecture": "千葉県",
    "prefecture_kana": "チバケン",
    "prefecture_code": 12,
    "city": "君津市",
    "city_kana": "キミツシ",
    "town": "利根",
    "town_kana": "トネ",
    "street": null,
    "office_name": null,
    "office_name_kana": null
  },
  "0522": {
    "postcode": "2920522",
    "prefecture": "千葉県",
    "prefecture_kana": "チバケン",
    "prefecture_code": 12,
    "city": "君津市",
    "city_kana": "キミツシ",
    "town": "大中",
    "town_kana": "ダイナカ",
    "street": null,
    "office_name": null,
    "office_name_kana": null
  },
  "0523": {
    "postcode": "2920523",
    "prefecture": "千葉県",
    "prefecture_kana": "チバケン",
    "prefecture_code": 12,
    "city": "君津市",
    "city_kana": "キミツシ",
    "town": "豊田",
    "town_kana": "トヨダ",
    "street": null,
    "office_name": null,
    "office_name_kana": null
  },
  "0524": {
    "postcode": "2920524",
    "prefecture": "千葉県",
    "prefecture_kana": "チバケン",
    "prefecture_code": 12,
    "city": "君津市",
    "city_kana": "キミツシ",
    "town": "川俣",
    "town_kana": "カワマタ",
    "street": null,
    "office_name": null,
    "office_name_kana": null
  },
  "0525": {
    "postcode": "2920525",
    "prefecture": "千葉県",
    "prefecture_kana": "チバケン",
    "prefecture_code": 12,
    "city": "君津市",
    "city_kana": "キミツシ",
    "town": "草川原",
    "town_kana": "クサガワラ",
    "street": null,
    "office_name": null,
    "office_name_kana": null
  },
  "0526": {
    "postcode": "2920526",
    "prefecture": "千葉県",
    "prefecture_kana": "チバケン",
    "prefecture_code": 12,
    "city": "君津市",
    "city_kana": "キミツシ",
    "town": "笹",
    "town_kana": "ササ",
    "street": null,
    "office_name": null,
    "office_name_kana": null
  },
  "0527": {
    "postcode": "2920527",
    "prefecture": "千葉県",
    "prefecture_kana": "チバケン",
    "prefecture_code": 12,
    "city": "君津市",
    "city_kana": "キミツシ",
    "town": "香木原",
    "town_kana": "カギハラ",
    "street": null,
    "office_name": null,
    "office_name_kana": null
  },
  "0531": {
    "postcode": "2920531",
    "prefecture": "千葉県",
    "prefecture_kana": "チバケン",
    "prefecture_code": 12,
    "city": "君津市",
    "city_kana": "キミツシ",
    "town": "藤林",
    "town_kana": "フジバヤシ",
    "street": null,
    "office_name": null,
    "office_name_kana": null
  },
  "0532": {
    "postcode": "2920532",
    "prefecture": "千葉県",
    "prefecture_kana": "チバケン",
    "prefecture_code": 12,
    "city": "君津市",
    "city_kana": "キミツシ",
    "town": "坂畑",
    "town_kana": "サカハタ",
    "street": null,
    "office_name": null,
    "office_name_kana": null
  },
  "0533": {
    "postcode": "2920533",
    "prefecture": "千葉県",
    "prefecture_kana": "チバケン",
    "prefecture_code": 12,
    "city": "君津市",
    "city_kana": "キミツシ",
    "town": "折木沢",
    "town_kana": "オリキサワ",
    "street": null,
    "office_name": null,
    "office_name_kana": null
  },
  "0534": {
    "postcode": "2920534",
    "prefecture": "千葉県",
    "prefecture_kana": "チバケン",
    "prefecture_code": 12,
    "city": "君津市",
    "city_kana": "キミツシ",
    "town": "滝原",
    "town_kana": "タキハラ",
    "street": null,
    "office_name": null,
    "office_name_kana": null
  },
  "0535": {
    "postcode": "2920535",
    "prefecture": "千葉県",
    "prefecture_kana": "チバケン",
    "prefecture_code": 12,
    "city": "君津市",
    "city_kana": "キミツシ",
    "town": "釜生",
    "town_kana": "カモウ",
    "street": null,
    "office_name": null,
    "office_name_kana": null
  },
  "0536": {
    "postcode": "2920536",
    "prefecture": "千葉県",
    "prefecture_kana": "チバケン",
    "prefecture_code": 12,
    "city": "君津市",
    "city_kana": "キミツシ",
    "town": "蔵玉",
    "town_kana": "クラダマ",
    "street": null,
    "office_name": null,
    "office_name_kana": null
  },
  "0537": {
    "postcode": "2920537",
    "prefecture": "千葉県",
    "prefecture_kana": "チバケン",
    "prefecture_code": 12,
    "city": "君津市",
    "city_kana": "キミツシ",
    "town": "黄和田畑",
    "town_kana": "キワダハタ",
    "street": null,
    "office_name": null,
    "office_name_kana": null
  },
  "0801": {
    "postcode": "2920801",
    "prefecture": "千葉県",
    "prefecture_kana": "チバケン",
    "prefecture_code": 12,
    "city": "木更津市",
    "city_kana": "キサラヅシ",
    "town": "請西",
    "town_kana": "ジョウザイ",
    "street": null,
    "office_name": null,
    "office_name_kana": null
  },
  "0802": {
    "postcode": "2920802",
    "prefecture": "千葉県",
    "prefecture_kana": "チバケン",
    "prefecture_code": 12,
    "city": "木更津市",
    "city_kana": "キサラヅシ",
    "town": "真舟",
    "town_kana": "マフネ",
    "street": null,
    "office_name": null,
    "office_name_kana": null
  },
  "0803": {
    "postcode": "2920803",
    "prefecture": "千葉県",
    "prefecture_kana": "チバケン",
    "prefecture_code": 12,
    "city": "木更津市",
    "city_kana": "キサラヅシ",
    "town": "幸町",
    "town_kana": "サイワイチョウ",
    "street": null,
    "office_name": null,
    "office_name_kana": null
  },
  "0804": {
    "postcode": "2920804",
    "prefecture": "千葉県",
    "prefecture_kana": "チバケン",
    "prefecture_code": 12,
    "city": "木更津市",
    "city_kana": "キサラヅシ",
    "town": "文京",
    "town_kana": "ブンキョウ",
    "street": null,
    "office_name": null,
    "office_name_kana": null
  },
  "0805": {
    "postcode": "2920805",
    "prefecture": "千葉県",
    "prefecture_kana": "チバケン",
    "prefecture_code": 12,
    "city": "木更津市",
    "city_kana": "キサラヅシ",
    "town": "大和",
    "town_kana": "ヤマト",
    "street": null,
    "office_name": null,
    "office_name_kana": null
  },
  "0806": {
    "postcode": "2920806",
    "prefecture": "千葉県",
    "prefecture_kana": "チバケン",
    "prefecture_code": 12,
    "city": "木更津市",
    "city_kana": "キサラヅシ",
    "town": "請西東",
    "town_kana": "ジョウザイヒガシ",
    "street": null,
    "office_name": null,
    "office_name_kana": null
  },
  "0807": {
    "postcode": "2920807",
    "prefecture": "千葉県",
    "prefecture_kana": "チバケン",
    "prefecture_code": 12,
    "city": "木更津市",
    "city_kana": "キサラヅシ",
    "town": "請西南",
    "town_kana": "ジョウザイミナミ",
    "street": null,
    "office_name": null,
    "office_name_kana": null
  },
  "0808": {
    "postcode": "2920808",
    "prefecture": "千葉県",
    "prefecture_kana": "チバケン",
    "prefecture_code": 12,
    "city": "木更津市",
    "city_kana": "キサラヅシ",
    "town": "千束台",
    "town_kana": "センゾクダイ",
    "street": null,
    "office_name": null,
    "office_name_kana": null
  },
  "0811": {
    "postcode": "2920811",
    "prefecture": "千葉県",
    "prefecture_kana": "チバケン",
    "prefecture_code": 12,
    "city": "木更津市",
    "city_kana": "キサラヅシ",
    "town": "草敷",
    "town_kana": "クサジキ",
    "street": null,
    "office_name": null,
    "office_name_kana": null
  },
  "0812": {
    "postcode": "2920812",
    "prefecture": "千葉県",
    "prefecture_kana": "チバケン",
    "prefecture_code": 12,
    "city": "木更津市",
    "city_kana": "キサラヅシ",
    "town": "矢那",
    "town_kana": "ヤナ",
    "street": null,
    "office_name": null,
    "office_name_kana": null
  },
  "0813": {
    "postcode": "2920813",
    "prefecture": "千葉県",
    "prefecture_kana": "チバケン",
    "prefecture_code": 12,
    "city": "木更津市",
    "city_kana": "キサラヅシ",
    "town": "上烏田",
    "town_kana": "カミカラスダ",
    "street": null,
    "office_name": null,
    "office_name_kana": null
  },
  "0814": {
    "postcode": "2920814",
    "prefecture": "千葉県",
    "prefecture_kana": "チバケン",
    "prefecture_code": 12,
    "city": "木更津市",
    "city_kana": "キサラヅシ",
    "town": "八幡台",
    "town_kana": "ハチマンダイ",
    "street": null,
    "office_name": null,
    "office_name_kana": null
  },
  "0815": {
    "postcode": "2920815",
    "prefecture": "千葉県",
    "prefecture_kana": "チバケン",
    "prefecture_code": 12,
    "city": "木更津市",
    "city_kana": "キサラヅシ",
    "town": "大久保",
    "town_kana": "オオクボ",
    "street": null,
    "office_name": null,
    "office_name_kana": null
  },
  "0816": {
    "postcode": "2920816",
    "prefecture": "千葉県",
    "prefecture_kana": "チバケン",
    "prefecture_code": 12,
    "city": "木更津市",
    "city_kana": "キサラヅシ",
    "town": "下烏田",
    "town_kana": "シモカラスダ",
    "street": null,
    "office_name": null,
    "office_name_kana": null
  },
  "0817": {
    "postcode": "2920817",
    "prefecture": "千葉県",
    "prefecture_kana": "チバケン",
    "prefecture_code": 12,
    "city": "木更津市",
    "city_kana": "キサラヅシ",
    "town": "中烏田",
    "town_kana": "ナカカラスダ",
    "street": null,
    "office_name": null,
    "office_name_kana": null
  },
  "0818": {
    "postcode": "2920818",
    "prefecture": "千葉県",
    "prefecture_kana": "チバケン",
    "prefecture_code": 12,
    "city": "木更津市",
    "city_kana": "キサラヅシ",
    "town": "かずさ鎌足",
    "town_kana": "カズサカマタリ",
    "street": null,
    "office_name": null,
    "office_name_kana": null
  },
  "0819": {
    "postcode": "2920819",
    "prefecture": "千葉県",
    "prefecture_kana": "チバケン",
    "prefecture_code": 12,
    "city": "木更津市",
    "city_kana": "キサラヅシ",
    "town": "羽鳥野",
    "town_kana": "ハトリノ",
    "street": null,
    "office_name": null,
    "office_name_kana": null
  },
  "0821": {
    "postcode": "2920821",
    "prefecture": "千葉県",
    "prefecture_kana": "チバケン",
    "prefecture_code": 12,
    "city": "木更津市",
    "city_kana": "キサラヅシ",
    "town": "桜町",
    "town_kana": "サクラマチ",
    "street": null,
    "office_name": null,
    "office_name_kana": null
  },
  "0822": {
    "postcode": "2920822",
    "prefecture": "千葉県",
    "prefecture_kana": "チバケン",
    "prefecture_code": 12,
    "city": "木更津市",
    "city_kana": "キサラヅシ",
    "town": "桜井",
    "town_kana": "サクライ",
    "street": null,
    "office_name": null,
    "office_name_kana": null
  },
  "0823": {
    "postcode": "2920823",
    "prefecture": "千葉県",
    "prefecture_kana": "チバケン",
    "prefecture_code": 12,
    "city": "木更津市",
    "city_kana": "キサラヅシ",
    "town": "桜井新町",
    "town_kana": "サクライシンマチ",
    "street": null,
    "office_name": null,
    "office_name_kana": null
  },
  "0824": {
    "postcode": "2920824",
    "prefecture": "千葉県",
    "prefecture_kana": "チバケン",
    "prefecture_code": 12,
    "city": "木更津市",
    "city_kana": "キサラヅシ",
    "town": "小浜",
    "town_kana": "コバマ",
    "street": null,
    "office_name": null,
    "office_name_kana": null
  },
  "0825": {
    "postcode": "2920825",
    "prefecture": "千葉県",
    "prefecture_kana": "チバケン",
    "prefecture_code": 12,
    "city": "木更津市",
    "city_kana": "キサラヅシ",
    "town": "畑沢",
    "town_kana": "ハタザワ",
    "street": null,
    "office_name": null,
    "office_name_kana": null
  },
  "0826": {
    "postcode": "2920826",
    "prefecture": "千葉県",
    "prefecture_kana": "チバケン",
    "prefecture_code": 12,
    "city": "木更津市",
    "city_kana": "キサラヅシ",
    "town": "畑沢南",
    "town_kana": "ハタザワミナミ",
    "street": null,
    "office_name": null,
    "office_name_kana": null
  },
  "0827": {
    "postcode": "2920827",
    "prefecture": "千葉県",
    "prefecture_kana": "チバケン",
    "prefecture_code": 12,
    "city": "木更津市",
    "city_kana": "キサラヅシ",
    "town": "港南台",
    "town_kana": "コウナンダイ",
    "street": null,
    "office_name": null,
    "office_name_kana": null
  },
  "0831": {
    "postcode": "2920831",
    "prefecture": "千葉県",
    "prefecture_kana": "チバケン",
    "prefecture_code": 12,
    "city": "木更津市",
    "city_kana": "キサラヅシ",
    "town": "富士見",
    "town_kana": "フジミ",
    "street": null,
    "office_name": null,
    "office_name_kana": null
  },
  "0832": {
    "postcode": "2920832",
    "prefecture": "千葉県",
    "prefecture_kana": "チバケン",
    "prefecture_code": 12,
    "city": "木更津市",
    "city_kana": "キサラヅシ",
    "town": "新田",
    "town_kana": "シンデン",
    "street": null,
    "office_name": null,
    "office_name_kana": null
  },
  "0833": {
    "postcode": "2920833",
    "prefecture": "千葉県",
    "prefecture_kana": "チバケン",
    "prefecture_code": 12,
    "city": "木更津市",
    "city_kana": "キサラヅシ",
    "town": "貝渕",
    "town_kana": "カイフチ",
    "street": null,
    "office_name": null,
    "office_name_kana": null
  },
  "0834": {
    "postcode": "2920834",
    "prefecture": "千葉県",
    "prefecture_kana": "チバケン",
    "prefecture_code": 12,
    "city": "木更津市",
    "city_kana": "キサラヅシ",
    "town": "潮見",
    "town_kana": "シオミ",
    "street": null,
    "office_name": null,
    "office_name_kana": null
  },
  "0835": {
    "postcode": "2920835",
    "prefecture": "千葉県",
    "prefecture_kana": "チバケン",
    "prefecture_code": 12,
    "city": "木更津市",
    "city_kana": "キサラヅシ",
    "town": "築地",
    "town_kana": "ツキジ",
    "street": null,
    "office_name": null,
    "office_name_kana": null
  },
  "0836": {
    "postcode": "2920836",
    "prefecture": "千葉県",
    "prefecture_kana": "チバケン",
    "prefecture_code": 12,
    "city": "木更津市",
    "city_kana": "キサラヅシ",
    "town": "新港",
    "town_kana": "シンミナト",
    "street": null,
    "office_name": null,
    "office_name_kana": null
  },
  "0837": {
    "postcode": "2920837",
    "prefecture": "千葉県",
    "prefecture_kana": "チバケン",
    "prefecture_code": 12,
    "city": "木更津市",
    "city_kana": "キサラヅシ",
    "town": "木材港",
    "town_kana": "モクザイミナト",
    "street": null,
    "office_name": null,
    "office_name_kana": null
  },
  "0838": {
    "postcode": "2920838",
    "prefecture": "千葉県",
    "prefecture_kana": "チバケン",
    "prefecture_code": 12,
    "city": "木更津市",
    "city_kana": "キサラヅシ",
    "town": "潮浜",
    "town_kana": "シオハマ",
    "street": null,
    "office_name": null,
    "office_name_kana": null
  },
  "0839": {
    "postcode": "2920839",
    "prefecture": "千葉県",
    "prefecture_kana": "チバケン",
    "prefecture_code": 12,
    "city": "木更津市",
    "city_kana": "キサラヅシ",
    "town": "中の島",
    "town_kana": "ナカノシマ",
    "street": null,
    "office_name": null,
    "office_name_kana": null
  },
  "1140": {
    "postcode": "2921140",
    "prefecture": "千葉県",
    "prefecture_kana": "チバケン",
    "prefecture_code": 12,
    "city": "君津市",
    "city_kana": "キミツシ",
    "town": "糠田飛地",
    "town_kana": "ヌカタトビチ",
    "street": null,
    "office_name": null,
    "office_name_kana": null
  },
  "1141": {
    "postcode": "2921141",
    "prefecture": "千葉県",
    "prefecture_kana": "チバケン",
    "prefecture_code": 12,
    "city": "君津市",
    "city_kana": "キミツシ",
    "town": "根本",
    "town_kana": "ネモト",
    "street": null,
    "office_name": null,
    "office_name_kana": null
  },
  "1142": {
    "postcode": "2921142",
    "prefecture": "千葉県",
    "prefecture_kana": "チバケン",
    "prefecture_code": 12,
    "city": "君津市",
    "city_kana": "キミツシ",
    "town": "小糸大谷",
    "town_kana": "コイトオオヤツ",
    "street": null,
    "office_name": null,
    "office_name_kana": null
  },
  "1143": {
    "postcode": "2921143",
    "prefecture": "千葉県",
    "prefecture_kana": "チバケン",
    "prefecture_code": 12,
    "city": "君津市",
    "city_kana": "キミツシ",
    "town": "長石",
    "town_kana": "ナガシ",
    "street": null,
    "office_name": null,
    "office_name_kana": null
  },
  "1144": {
    "postcode": "2921144",
    "prefecture": "千葉県",
    "prefecture_kana": "チバケン",
    "prefecture_code": 12,
    "city": "君津市",
    "city_kana": "キミツシ",
    "town": "法木",
    "town_kana": "ホウギ",
    "street": null,
    "office_name": null,
    "office_name_kana": null
  },
  "1145": {
    "postcode": "2921145",
    "prefecture": "千葉県",
    "prefecture_kana": "チバケン",
    "prefecture_code": 12,
    "city": "君津市",
    "city_kana": "キミツシ",
    "town": "糸川",
    "town_kana": "イトガワ",
    "street": null,
    "office_name": null,
    "office_name_kana": null
  },
  "1146": {
    "postcode": "2921146",
    "prefecture": "千葉県",
    "prefecture_kana": "チバケン",
    "prefecture_code": 12,
    "city": "君津市",
    "city_kana": "キミツシ",
    "town": "大井戸",
    "town_kana": "オオイド",
    "street": null,
    "office_name": null,
    "office_name_kana": null
  },
  "1147": {
    "postcode": "2921147",
    "prefecture": "千葉県",
    "prefecture_kana": "チバケン",
    "prefecture_code": 12,
    "city": "君津市",
    "city_kana": "キミツシ",
    "town": "塚原",
    "town_kana": "ツカハラ",
    "street": null,
    "office_name": null,
    "office_name_kana": null
  },
  "1148": {
    "postcode": "2921148",
    "prefecture": "千葉県",
    "prefecture_kana": "チバケン",
    "prefecture_code": 12,
    "city": "君津市",
    "city_kana": "キミツシ",
    "town": "行馬",
    "town_kana": "ギョウマ",
    "street": null,
    "office_name": null,
    "office_name_kana": null
  },
  "1149": {
    "postcode": "2921149",
    "prefecture": "千葉県",
    "prefecture_kana": "チバケン",
    "prefecture_code": 12,
    "city": "君津市",
    "city_kana": "キミツシ",
    "town": "かずさ小糸",
    "town_kana": "カズサコイト",
    "street": null,
    "office_name": null,
    "office_name_kana": null
  },
  "1151": {
    "postcode": "2921151",
    "prefecture": "千葉県",
    "prefecture_kana": "チバケン",
    "prefecture_code": 12,
    "city": "君津市",
    "city_kana": "キミツシ",
    "town": "大野台",
    "town_kana": "オオノダイ",
    "street": null,
    "office_name": null,
    "office_name_kana": null
  },
  "1152": {
    "postcode": "2921152",
    "prefecture": "千葉県",
    "prefecture_kana": "チバケン",
    "prefecture_code": 12,
    "city": "君津市",
    "city_kana": "キミツシ",
    "town": "日渡根",
    "town_kana": "ニットネ",
    "street": null,
    "office_name": null,
    "office_name_kana": null
  },
  "1153": {
    "postcode": "2921153",
    "prefecture": "千葉県",
    "prefecture_kana": "チバケン",
    "prefecture_code": 12,
    "city": "君津市",
    "city_kana": "キミツシ",
    "town": "市宿",
    "town_kana": "イチジュク",
    "street": null,
    "office_name": null,
    "office_name_kana": null
  },
  "1154": {
    "postcode": "2921154",
    "prefecture": "千葉県",
    "prefecture_kana": "チバケン",
    "prefecture_code": 12,
    "city": "君津市",
    "city_kana": "キミツシ",
    "town": "清和市場",
    "town_kana": "セイワイチバ",
    "street": null,
    "office_name": null,
    "office_name_kana": null
  },
  "1155": {
    "postcode": "2921155",
    "prefecture": "千葉県",
    "prefecture_kana": "チバケン",
    "prefecture_code": 12,
    "city": "君津市",
    "city_kana": "キミツシ",
    "town": "鹿野山",
    "town_kana": "カノウザン",
    "street": null,
    "office_name": null,
    "office_name_kana": null
  },
  "1156": {
    "postcode": "2921156",
    "prefecture": "千葉県",
    "prefecture_kana": "チバケン",
    "prefecture_code": 12,
    "city": "君津市",
    "city_kana": "キミツシ",
    "town": "荻作",
    "town_kana": "オギサク",
    "street": null,
    "office_name": null,
    "office_name_kana": null
  },
  "1157": {
    "postcode": "2921157",
    "prefecture": "千葉県",
    "prefecture_kana": "チバケン",
    "prefecture_code": 12,
    "city": "君津市",
    "city_kana": "キミツシ",
    "town": "福岡",
    "town_kana": "フクオカ",
    "street": null,
    "office_name": null,
    "office_name_kana": null
  },
  "1158": {
    "postcode": "2921158",
    "prefecture": "千葉県",
    "prefecture_kana": "チバケン",
    "prefecture_code": 12,
    "city": "君津市",
    "city_kana": "キミツシ",
    "town": "鎌滝",
    "town_kana": "カマダキ",
    "street": null,
    "office_name": null,
    "office_name_kana": null
  },
  "1161": {
    "postcode": "2921161",
    "prefecture": "千葉県",
    "prefecture_kana": "チバケン",
    "prefecture_code": 12,
    "city": "君津市",
    "city_kana": "キミツシ",
    "town": "東猪原",
    "town_kana": "ヒガシイノハラ",
    "street": null,
    "office_name": null,
    "office_name_kana": null
  },
  "1162": {
    "postcode": "2921162",
    "prefecture": "千葉県",
    "prefecture_kana": "チバケン",
    "prefecture_code": 12,
    "city": "君津市",
    "city_kana": "キミツシ",
    "town": "西猪原",
    "town_kana": "ニシイノハラ",
    "street": null,
    "office_name": null,
    "office_name_kana": null
  },
  "1163": {
    "postcode": "2921163",
    "prefecture": "千葉県",
    "prefecture_kana": "チバケン",
    "prefecture_code": 12,
    "city": "君津市",
    "city_kana": "キミツシ",
    "town": "東粟倉",
    "town_kana": "ヒガシアワグラ",
    "street": null,
    "office_name": null,
    "office_name_kana": null
  },
  "1164": {
    "postcode": "2921164",
    "prefecture": "千葉県",
    "prefecture_kana": "チバケン",
    "prefecture_code": 12,
    "city": "君津市",
    "city_kana": "キミツシ",
    "town": "東日笠",
    "town_kana": "ヒガシヒカサ",
    "street": null,
    "office_name": null,
    "office_name_kana": null
  },
  "1165": {
    "postcode": "2921165",
    "prefecture": "千葉県",
    "prefecture_kana": "チバケン",
    "prefecture_code": 12,
    "city": "君津市",
    "city_kana": "キミツシ",
    "town": "西日笠",
    "town_kana": "ニシヒカサ",
    "street": null,
    "office_name": null,
    "office_name_kana": null
  },
  "1166": {
    "postcode": "2921166",
    "prefecture": "千葉県",
    "prefecture_kana": "チバケン",
    "prefecture_code": 12,
    "city": "君津市",
    "city_kana": "キミツシ",
    "town": "植畑",
    "town_kana": "ウエハタ",
    "street": null,
    "office_name": null,
    "office_name_kana": null
  },
  "1167": {
    "postcode": "2921167",
    "prefecture": "千葉県",
    "prefecture_kana": "チバケン",
    "prefecture_code": 12,
    "city": "君津市",
    "city_kana": "キミツシ",
    "town": "平田",
    "town_kana": "ヒラッタ",
    "street": null,
    "office_name": null,
    "office_name_kana": null
  },
  "1168": {
    "postcode": "2921168",
    "prefecture": "千葉県",
    "prefecture_kana": "チバケン",
    "prefecture_code": 12,
    "city": "君津市",
    "city_kana": "キミツシ",
    "town": "西粟倉",
    "town_kana": "ニシアワグラ",
    "street": null,
    "office_name": null,
    "office_name_kana": null
  },
  "1171": {
    "postcode": "2921171",
    "prefecture": "千葉県",
    "prefecture_kana": "チバケン",
    "prefecture_code": 12,
    "city": "君津市",
    "city_kana": "キミツシ",
    "town": "二入",
    "town_kana": "フタイリ",
    "street": null,
    "office_name": null,
    "office_name_kana": null
  },
  "1172": {
    "postcode": "2921172",
    "prefecture": "千葉県",
    "prefecture_kana": "チバケン",
    "prefecture_code": 12,
    "city": "君津市",
    "city_kana": "キミツシ",
    "town": "辻森",
    "town_kana": "ツジモリ",
    "street": null,
    "office_name": null,
    "office_name_kana": null
  },
  "1173": {
    "postcode": "2921173",
    "prefecture": "千葉県",
    "prefecture_kana": "チバケン",
    "prefecture_code": 12,
    "city": "君津市",
    "city_kana": "キミツシ",
    "town": "大岩",
    "town_kana": "オオイワ",
    "street": null,
    "office_name": null,
    "office_name_kana": null
  },
  "1174": {
    "postcode": "2921174",
    "prefecture": "千葉県",
    "prefecture_kana": "チバケン",
    "prefecture_code": 12,
    "city": "君津市",
    "city_kana": "キミツシ",
    "town": "正木",
    "town_kana": "マサキ",
    "street": null,
    "office_name": null,
    "office_name_kana": null
  },
  "1175": {
    "postcode": "2921175",
    "prefecture": "千葉県",
    "prefecture_kana": "チバケン",
    "prefecture_code": 12,
    "city": "君津市",
    "city_kana": "キミツシ",
    "town": "奥米",
    "town_kana": "オクゴメ",
    "street": null,
    "office_name": null,
    "office_name_kana": null
  },
  "1176": {
    "postcode": "2921176",
    "prefecture": "千葉県",
    "prefecture_kana": "チバケン",
    "prefecture_code": 12,
    "city": "君津市",
    "city_kana": "キミツシ",
    "town": "宿原",
    "town_kana": "シュクバラ",
    "street": null,
    "office_name": null,
    "office_name_kana": null
  },
  "1177": {
    "postcode": "2921177",
    "prefecture": "千葉県",
    "prefecture_kana": "チバケン",
    "prefecture_code": 12,
    "city": "君津市",
    "city_kana": "キミツシ",
    "town": "怒田沢",
    "town_kana": "ヌタザワ",
    "street": null,
    "office_name": null,
    "office_name_kana": null
  },
  "1178": {
    "postcode": "2921178",
    "prefecture": "千葉県",
    "prefecture_kana": "チバケン",
    "prefecture_code": 12,
    "city": "君津市",
    "city_kana": "キミツシ",
    "town": "旅名",
    "town_kana": "タビナ",
    "street": null,
    "office_name": null,
    "office_name_kana": null
  },
  "1179": {
    "postcode": "2921179",
    "prefecture": "千葉県",
    "prefecture_kana": "チバケン",
    "prefecture_code": 12,
    "city": "君津市",
    "city_kana": "キミツシ",
    "town": "豊英",
    "town_kana": "トヨフサ",
    "street": null,
    "office_name": null,
    "office_name_kana": null
  },
  "8501": {
    "postcode": "2928501",
    "prefecture": "千葉県",
    "prefecture_kana": "チバケン",
    "prefecture_code": 12,
    "city": "木更津市",
    "city_kana": "キサラヅシ",
    "town": "潮見",
    "town_kana": "シオミ",
    "street": "１丁目１",
    "office_name": "木更津市役所",
    "office_name_kana": "キサラヅシヤクシヨ"
  },
  "8510": {
    "postcode": "2928510",
    "prefecture": "千葉県",
    "prefecture_kana": "チバケン",
    "prefecture_code": 12,
    "city": "木更津市",
    "city_kana": "キサラヅシ",
    "town": "吾妻",
    "town_kana": "アヅマ",
    "street": "地先",
    "office_name": "陸上自衛隊　木更津駐屯地",
    "office_name_kana": "リクジヨウジエイタイ キサラヅチユウトンチ"
  },
  "8511": {
    "postcode": "2928511",
    "prefecture": "千葉県",
    "prefecture_kana": "チバケン",
    "prefecture_code": 12,
    "city": "木更津市",
    "city_kana": "キサラヅシ",
    "town": "東太田",
    "town_kana": "ヒガシオオダ",
    "street": "３丁目４−１",
    "office_name": "学校法人　君津学園",
    "office_name_kana": "ガツコウホウジン キミツガクエン"
  },
  "8520": {
    "postcode": "2928520",
    "prefecture": "千葉県",
    "prefecture_kana": "チバケン",
    "prefecture_code": 12,
    "city": "木更津市",
    "city_kana": "キサラヅシ",
    "town": "貝渕",
    "town_kana": "カイフチ",
    "street": "３丁目１３−３４",
    "office_name": "千葉県南房総県民センター",
    "office_name_kana": "チバケンミナミボウソウケンミンセンタ-"
  },
  "8522": {
    "postcode": "2928522",
    "prefecture": "千葉県",
    "prefecture_kana": "チバケン",
    "prefecture_code": 12,
    "city": "木更津市",
    "city_kana": "キサラヅシ",
    "town": "貝渕",
    "town_kana": "カイフチ",
    "street": "３丁目１３−４０",
    "office_name": "東京電力　（株）　木更津支社",
    "office_name_kana": "トウキヨウデンリヨク カブシキガイシヤ キサラヅシシヤ"
  },
  "8525": {
    "postcode": "2928525",
    "prefecture": "千葉県",
    "prefecture_kana": "チバケン",
    "prefecture_code": 12,
    "city": "木更津市",
    "city_kana": "キサラヅシ",
    "town": "貝渕",
    "town_kana": "カイフチ",
    "street": "３−１３−３４",
    "office_name": "千葉県木更津県税事務所",
    "office_name_kana": "チバケンキサラヅケンゼイジムシヨ"
  },
  "8530": {
    "postcode": "2928530",
    "prefecture": "千葉県",
    "prefecture_kana": "チバケン",
    "prefecture_code": 12,
    "city": "木更津市",
    "city_kana": "キサラヅシ",
    "town": "新田",
    "town_kana": "シンデン",
    "street": "３−４−３１",
    "office_name": "日本年金機構　木更津年金事務所",
    "office_name_kana": "ニツポンネンキンキコウ キサラヅネンキンジムシヨ"
  },
  "8533": {
    "postcode": "2928533",
    "prefecture": "千葉県",
    "prefecture_kana": "チバケン",
    "prefecture_code": 12,
    "city": "木更津市",
    "city_kana": "キサラヅシ",
    "town": "潮見",
    "town_kana": "シオミ",
    "street": "８丁目４",
    "office_name": "ソニーイーエムシーエス　（株）　木更津テック",
    "office_name_kana": "ソニ-イ-エムシ-エス カブシキカイシヤ キサラヅテツク"
  },
  "8535": {
    "postcode": "2928535",
    "prefecture": "千葉県",
    "prefecture_kana": "チバケン",
    "prefecture_code": 12,
    "city": "木更津市",
    "city_kana": "キサラヅシ",
    "town": "桜井",
    "town_kana": "サクライ",
    "street": "１０１０",
    "office_name": "君津中央病院",
    "office_name_kana": "キミツチユウオウビヨウイン"
  },
  "8539": {
    "postcode": "2928539",
    "prefecture": "千葉県",
    "prefecture_kana": "チバケン",
    "prefecture_code": 12,
    "city": "木更津市",
    "city_kana": "キサラヅシ",
    "town": "畑沢",
    "town_kana": "ハタザワ",
    "street": "１丁目１２−１４",
    "office_name": "山九　株式会社　君津支店",
    "office_name_kana": "サンキユウ カブシキガイシヤ キミツシテン"
  },
  "8550": {
    "postcode": "2928550",
    "prefecture": "千葉県",
    "prefecture_kana": "チバケン",
    "prefecture_code": 12,
    "city": "木更津市",
    "city_kana": "キサラヅシ",
    "town": "富士見",
    "town_kana": "フジミ",
    "street": "２丁目７−１８",
    "office_name": "木更津税務署",
    "office_name_kana": "キサラヅゼイムシヨ"
  },
  "8555": {
    "postcode": "2928555",
    "prefecture": "千葉県",
    "prefecture_kana": "チバケン",
    "prefecture_code": 12,
    "city": "木更津市",
    "city_kana": "キサラヅシ",
    "town": "東太田",
    "town_kana": "ヒガシオオダ",
    "street": "３丁目４−５",
    "office_name": "学校法人　君津学園　清和大学",
    "office_name_kana": "ガツコウホウジン キミツガクエン セイワダイガク"
  },
  "8565": {
    "postcode": "2928565",
    "prefecture": "千葉県",
    "prefecture_kana": "チバケン",
    "prefecture_code": 12,
    "city": "木更津市",
    "city_kana": "キサラヅシ",
    "town": "矢那",
    "town_kana": "ヤナ",
    "street": "１０８３",
    "office_name": "学校法人　暁星国際学園",
    "office_name_kana": "ガツコウホウジン ギヨウセイコクサイガクエン"
  },
  "8568": {
    "postcode": "2928568",
    "prefecture": "千葉県",
    "prefecture_kana": "チバケン",
    "prefecture_code": 12,
    "city": "木更津市",
    "city_kana": "キサラヅシ",
    "town": "真舟",
    "town_kana": "マフネ",
    "street": "３丁目２９−１",
    "office_name": "学校法人　紅陵学院、志学館中・高等学校、拓殖大学紅陵高等学校",
    "office_name_kana": "ガツコウホウジン コウリヨウガクイン、シガクカンチユウ・コウトウガツコウ、タクシヨクダイガクコウリヨウコウトウガツコウ"
  },
  "8611": {
    "postcode": "2928611",
    "prefecture": "千葉県",
    "prefecture_kana": "チバケン",
    "prefecture_code": 12,
    "city": "木更津市",
    "city_kana": "キサラヅシ",
    "town": "大和",
    "town_kana": "ヤマト",
    "street": "２丁目３−１",
    "office_name": "千葉信用金庫",
    "office_name_kana": "チバシンヨウキンコ"
  },
  "8686": {
    "postcode": "2928686",
    "prefecture": "千葉県",
    "prefecture_kana": "チバケン",
    "prefecture_code": 12,
    "city": "木更津市",
    "city_kana": "キサラヅシ",
    "town": "江川",
    "town_kana": "エガワ",
    "street": "無番地（木更津郵便局私書箱第８号）",
    "office_name": "海上自衛隊　航空補給処",
    "office_name_kana": "カイジヨウジエイタイ コウクウホキユウシヨ"
  }
}