{
  "0000": {
    "postcode": "2930000",
    "prefecture": "千葉県",
    "prefecture_kana": "チバケン",
    "prefecture_code": 12,
    "city": "富津市",
    "city_kana": "フッツシ",
    "town": "",
    "town_kana": "",
    "street": null,
    "office_name": null,
    "office_name_kana": null
  },
  "0001": {
    "postcode": "2930001",
    "prefecture": "千葉県",
    "prefecture_kana": "チバケン",
    "prefecture_code": 12,
    "city": "富津市",
    "city_kana": "フッツシ",
    "town": "大堀",
    "town_kana": "オオホリ",
    "street": null,
    "office_name": null,
    "office_name_kana": null
  },
  "0002": {
    "postcode": "2930002",
    "prefecture": "千葉県",
    "prefecture_kana": "チバケン",
    "prefecture_code": 12,
    "city": "富津市",
    "city_kana": "フッツシ",
    "town": "二間塚",
    "town_kana": "フタマヅカ",
    "street": null,
    "office_name": null,
    "office_name_kana": null
  },
  "0003": {
    "postcode": "2930003",
    "prefecture": "千葉県",
    "prefecture_kana": "チバケン",
    "prefecture_code": 12,
    "city": "富津市",
    "city_kana": "フッツシ",
    "town": "本郷",
    "town_kana": "ホンゴウ",
    "street": null,
    "office_name": null,
    "office_name_kana": null
  },
  "0004": {
    "postcode": "2930004",
    "prefecture": "千葉県",
    "prefecture_kana": "チバケン",
    "prefecture_code": 12,
    "city": "富津市",
    "city_kana": "フッツシ",
    "town": "前久保",
    "town_kana": "マエクボ",
    "street": null,
    "office_name": null,
    "office_name_kana": null
  },
  "0005": {
    "postcode": "2930005",
    "prefecture": "千葉県",
    "prefecture_kana": "チバケン",
    "prefecture_code": 12,
    "city": "富津市",
    "city_kana": "フッツシ",
    "town": "上飯野",
    "town_kana": "カミイイノ",
    "street": null,
    "office_name": null,
    "office_name_kana": null
  },
  "0006": {
    "postcode": "2930006",
    "prefecture": "千葉県",
    "prefecture_kana": "チバケン",
    "prefecture_code": 12,
    "city": "富津市",
    "city_kana": "フッツシ",
    "town": "下飯野",
    "town_kana": "シモイイノ",
    "street": null,
    "office_name": null,
    "office_name_kana": null
  },
  "0011": {
    "postcode": "2930011",
    "prefecture": "千葉県",
    "prefecture_kana": "チバケン",
    "prefecture_code": 12,
    "city": "富津市",
    "city_kana": "フッツシ",
    "town": "新富",
    "town_kana": "シントミ",
    "street": null,
    "office_name": null,
    "office_name_kana": null
  },
  "0012": {
    "postcode": "2930012",
    "prefecture": "千葉県",
    "prefecture_kana": "チバケン",
    "prefecture_code": 12,
    "city": "富津市",
    "city_kana": "フッツシ",
    "town": "青木",
    "town_kana": "アオキ",
    "street": null,
    "office_name": null,
    "office_name_kana": null
  },
  "0013": {
    "postcode": "2930013",
    "prefecture": "千葉県",
    "prefecture_kana": "チバケン",
    "prefecture_code": 12,
    "city": "富津市",
    "city_kana": "フッツシ",
    "town": "西川",
    "town_kana": "ニシカワ",
    "street": null,
    "office_name": null,
    "office_name_kana": null
  },
  "0021": {
    "postcode": "2930021",
    "prefecture": "千葉県",
    "prefecture_kana": "チバケン",
    "prefecture_code": 12,
    "city": "富津市",
    "city_kana": "フッツシ",
    "town": "富津",
    "town_kana": "フッツ",
    "street": null,
    "office_name": null,
    "office_name_kana": null
  },
  "0022": {
    "postcode": "2930022",
    "prefecture": "千葉県",
    "prefecture_kana": "チバケン",
    "prefecture_code": 12,
    "city": "富津市",
    "city_kana": "フッツシ",
    "town": "新井",
    "town_kana": "アライ",
    "street": null,
    "office_name": null,
    "office_name_kana": null
  },
  "0023": {
    "postcode": "2930023",
    "prefecture": "千葉県",
    "prefecture_kana": "チバケン",
    "prefecture_code": 12,
    "city": "富津市",
    "city_kana": "フッツシ",
    "town": "川名",
    "town_kana": "カワナ",
    "street": null,
    "office_name": null,
    "office_name_kana": null
  },
  "0024": {
    "postcode": "2930024",
    "prefecture": "千葉県",
    "prefecture_kana": "チバケン",
    "prefecture_code": 12,
    "city": "富津市",
    "city_kana": "フッツシ",
    "town": "篠部",
    "town_kana": "シノベ",
    "street": null,
    "office_name": null,
    "office_name_kana": null
  },
  "0031": {
    "postcode": "2930031",
    "prefecture": "千葉県",
    "prefecture_kana": "チバケン",
    "prefecture_code": 12,
    "city": "富津市",
    "city_kana": "フッツシ",
    "town": "相野谷",
    "town_kana": "アイノヤツ",
    "street": null,
    "office_name": null,
    "office_name_kana": null
  },
  "0032": {
    "postcode": "2930032",
    "prefecture": "千葉県",
    "prefecture_kana": "チバケン",
    "prefecture_code": 12,
    "city": "富津市",
    "city_kana": "フッツシ",
    "town": "障子谷",
    "town_kana": "ショウジヤツ",
    "street": null,
    "office_name": null,
    "office_name_kana": null
  },
  "0033": {
    "postcode": "2930033",
    "prefecture": "千葉県",
    "prefecture_kana": "チバケン",
    "prefecture_code": 12,
    "city": "富津市",
    "city_kana": "フッツシ",
    "town": "一色",
    "town_kana": "イッシキ",
    "street": null,
    "office_name": null,
    "office_name_kana": null
  },
  "0034": {
    "postcode": "2930034",
    "prefecture": "千葉県",
    "prefecture_kana": "チバケン",
    "prefecture_code": 12,
    "city": "富津市",
    "city_kana": "フッツシ",
    "town": "絹",
    "town_kana": "キヌ",
    "street": null,
    "office_name": null,
    "office_name_kana": null
  },
  "0035": {
    "postcode": "2930035",
    "prefecture": "千葉県",
    "prefecture_kana": "チバケン",
    "prefecture_code": 12,
    "city": "富津市",
    "city_kana": "フッツシ",
    "town": "西大和田",
    "town_kana": "ニシオオワダ",
    "street": null,
    "office_name": null,
    "office_name_kana": null
  },
  "0036": {
    "postcode": "2930036",
    "prefecture": "千葉県",
    "prefecture_kana": "チバケン",
    "prefecture_code": 12,
    "city": "富津市",
    "city_kana": "フッツシ",
    "town": "千種新田",
    "town_kana": "チグサシンデン",
    "street": null,
    "office_name": null,
    "office_name_kana": null
  },
  "0041": {
    "postcode": "2930041",
    "prefecture": "千葉県",
    "prefecture_kana": "チバケン",
    "prefecture_code": 12,
    "city": "富津市",
    "city_kana": "フッツシ",
    "town": "上",
    "town_kana": "カミ",
    "street": null,
    "office_name": null,
    "office_name_kana": null
  },
  "0042": {
    "postcode": "2930042",
    "prefecture": "千葉県",
    "prefecture_kana": "チバケン",
    "prefecture_code": 12,
    "city": "富津市",
    "city_kana": "フッツシ",
    "town": "小久保",
    "town_kana": "コクボ",
    "street": null,
    "office_name": null,
    "office_name_kana": null
  },
  "0043": {
    "postcode": "2930043",
    "prefecture": "千葉県",
    "prefecture_kana": "チバケン",
    "prefecture_code": 12,
    "city": "富津市",
    "city_kana": "フッツシ",
    "town": "岩瀬",
    "town_kana": "イワセ",
    "street": null,
    "office_name": null,
    "office_name_kana": null
  },
  "0044": {
    "postcode": "2930044",
    "prefecture": "千葉県",
    "prefecture_kana": "チバケン",
    "prefecture_code": 12,
    "city": "富津市",
    "city_kana": "フッツシ",
    "town": "中",
    "town_kana": "ナカ",
    "street": null,
    "office_name": null,
    "office_name_kana": null
  },
  "0045": {
    "postcode": "2930045",
    "prefecture": "千葉県",
    "prefecture_kana": "チバケン",
    "prefecture_code": 12,
    "city": "富津市",
    "city_kana": "フッツシ",
    "town": "八田沼",
    "town_kana": "ヤタヌマ",
    "street": null,
    "office_name": null,
    "office_name_kana": null
  },
  "0046": {
    "postcode": "2930046",
    "prefecture": "千葉県",
    "prefecture_kana": "チバケン",
    "prefecture_code": 12,
    "city": "富津市",
    "city_kana": "フッツシ",
    "town": "近藤",
    "town_kana": "コンドウ",
    "street": null,
    "office_name": null,
    "office_name_kana": null
  },
  "0051": {
    "postcode": "2930051",
    "prefecture": "千葉県",
    "prefecture_kana": "チバケン",
    "prefecture_code": 12,
    "city": "富津市",
    "city_kana": "フッツシ",
    "town": "亀沢",
    "town_kana": "カメザワ",
    "street": null,
    "office_name": null,
    "office_name_kana": null
  },
  "0052": {
    "postcode": "2930052",
    "prefecture": "千葉県",
    "prefecture_kana": "チバケン",
    "prefecture_code": 12,
    "city": "富津市",
    "city_kana": "フッツシ",
    "town": "宝竜寺",
    "town_kana": "ホウリュウジ",
    "street": null,
    "office_name": null,
    "office_name_kana": null
  },
  "0053": {
    "postcode": "2930053",
    "prefecture": "千葉県",
    "prefecture_kana": "チバケン",
    "prefecture_code": 12,
    "city": "富津市",
    "city_kana": "フッツシ",
    "town": "花香谷",
    "town_kana": "ハナガヤツ",
    "street": null,
    "office_name": null,
    "office_name_kana": null
  },
  "0054": {
    "postcode": "2930054",
    "prefecture": "千葉県",
    "prefecture_kana": "チバケン",
    "prefecture_code": 12,
    "city": "富津市",
    "city_kana": "フッツシ",
    "town": "鶴岡",
    "town_kana": "ツルオカ",
    "street": null,
    "office_name": null,
    "office_name_kana": null
  },
  "0055": {
    "postcode": "2930055",
    "prefecture": "千葉県",
    "prefecture_kana": "チバケン",
    "prefecture_code": 12,
    "city": "富津市",
    "city_kana": "フッツシ",
    "town": "笹毛",
    "town_kana": "ササゲ",
    "street": null,
    "office_name": null,
    "office_name_kana": null
  },
  "0056": {
    "postcode": "2930056",
    "prefecture": "千葉県",
    "prefecture_kana": "チバケン",
    "prefecture_code": 12,
    "city": "富津市",
    "city_kana": "フッツシ",
    "town": "八幡",
    "town_kana": "ヤワタ",
    "street": null,
    "office_name": null,
    "office_name_kana": null
  },
  "0057": {
    "postcode": "2930057",
    "prefecture": "千葉県",
    "prefecture_kana": "チバケン",
    "prefecture_code": 12,
    "city": "富津市",
    "city_kana": "フッツシ",
    "town": "亀田",
    "town_kana": "カメダ",
    "street": null,
    "office_name": null,
    "office_name_kana": null
  },
  "0058": {
    "postcode": "2930058",
    "prefecture": "千葉県",
    "prefecture_kana": "チバケン",
    "prefecture_code": 12,
    "city": "富津市",
    "city_kana": "フッツシ",
    "town": "佐貫",
    "town_kana": "サヌキ",
    "street": null,
    "office_name": null,
    "office_name_kana": null
  },
  "8506": {
    "postcode": "2938506",
    "prefecture": "千葉県",
    "prefecture_kana": "チバケン",
    "prefecture_code": 12,
    "city": "富津市",
    "city_kana": "フッツシ",
    "town": "下飯野",
    "town_kana": "シモイイノ",
    "street": "２４４３",
    "office_name": "富津市役所",
    "office_name_kana": "フツツシヤクシヨ"
  },
  "8511": {
    "postcode": "2938511",
    "prefecture": "千葉県",
    "prefecture_kana": "チバケン",
    "prefecture_code": 12,
    "city": "富津市",
    "city_kana": "フッツシ",
    "town": "新富",
    "town_kana": "シントミ",
    "street": "２０−１",
    "office_name": "日本製鉄　株式会社　技術開発本部",
    "office_name_kana": "ニツポンセイテツ カブシキガイシヤ ギジユツカイハツホンブ"
  }
}