{
  "0000": {
    "postcode": "2940000",
    "prefecture": "千葉県",
    "prefecture_kana": "チバケン",
    "prefecture_code": 12,
    "city": "館山市",
    "city_kana": "タテヤマシ",
    "town": "",
    "town_kana": "",
    "street": null,
    "office_name": null,
    "office_name_kana": null
  },
  "0001": {
    "postcode": "2940001",
    "prefecture": "千葉県",
    "prefecture_kana": "チバケン",
    "prefecture_code": 12,
    "city": "館山市",
    "city_kana": "タテヤマシ",
    "town": "竹原",
    "town_kana": "タケワラ",
    "street": null,
    "office_name": null,
    "office_name_kana": null
  },
  "0002": {
    "postcode": "2940002",
    "prefecture": "千葉県",
    "prefecture_kana": "チバケン",
    "prefecture_code": 12,
    "city": "館山市",
    "city_kana": "タテヤマシ",
    "town": "大井",
    "town_kana": "オオイ",
    "street": null,
    "office_name": null,
    "office_name_kana": null
  },
  "0003": {
    "postcode": "2940003",
    "prefecture": "千葉県",
    "prefecture_kana": "チバケン",
    "prefecture_code": 12,
    "city": "館山市",
    "city_kana": "タテヤマシ",
    "town": "水玉",
    "town_kana": "ミズタマ",
    "street": null,
    "office_name": null,
    "office_name_kana": null
  },
  "0004": {
    "postcode": "2940004",
    "prefecture": "千葉県",
    "prefecture_kana": "チバケン",
    "prefecture_code": 12,
    "city": "館山市",
    "city_kana": "タテヤマシ",
    "town": "水岡",
    "town_kana": "ミズオカ",
    "street": null,
    "office_name": null,
    "office_name_kana": null
  },
  "0005": {
    "postcode": "2940005",
    "prefecture": "千葉県",
    "prefecture_kana": "チバケン",
    "prefecture_code": 12,
    "city": "館山市",
    "city_kana": "タテヤマシ",
    "town": "安東",
    "town_kana": "アンドウ",
    "street": null,
    "office_name": null,
    "office_name_kana": null
  },
  "0006": {
    "postcode": "2940006",
    "prefecture": "千葉県",
    "prefecture_kana": "チバケン",
    "prefecture_code": 12,
    "city": "館山市",
    "city_kana": "タテヤマシ",
    "town": "薗",
    "town_kana": "ソノ",
    "street": null,
    "office_name": null,
    "office_name_kana": null
  },
  "0007": {
    "postcode": "2940007",
    "prefecture": "千葉県",
    "prefecture_kana": "チバケン",
    "prefecture_code": 12,
    "city": "館山市",
    "city_kana": "タテヤマシ",
    "town": "腰越",
    "town_kana": "コシゴエ",
    "street": null,
    "office_name": null,
    "office_name_kana": null
  },
  "0008": {
    "postcode": "2940008",
    "prefecture": "千葉県",
    "prefecture_kana": "チバケン",
    "prefecture_code": 12,
    "city": "館山市",
    "city_kana": "タテヤマシ",
    "town": "広瀬",
    "town_kana": "ヒロセ",
    "street": null,
    "office_name": null,
    "office_name_kana": null
  },
  "0009": {
    "postcode": "2940009",
    "prefecture": "千葉県",
    "prefecture_kana": "チバケン",
    "prefecture_code": 12,
    "city": "館山市",
    "city_kana": "タテヤマシ",
    "town": "江田",
    "town_kana": "エダ",
    "street": null,
    "office_name": null,
    "office_name_kana": null
  },
  "0011": {
    "postcode": "2940011",
    "prefecture": "千葉県",
    "prefecture_kana": "チバケン",
    "prefecture_code": 12,
    "city": "館山市",
    "city_kana": "タテヤマシ",
    "town": "二子",
    "town_kana": "フタゴ",
    "street": null,
    "office_name": null,
    "office_name_kana": null
  },
  "0012": {
    "postcode": "2940012",
    "prefecture": "千葉県",
    "prefecture_kana": "チバケン",
    "prefecture_code": 12,
    "city": "館山市",
    "city_kana": "タテヤマシ",
    "town": "稲",
    "town_kana": "イナ",
    "street": null,
    "office_name": null,
    "office_name_kana": null
  },
  "0013": {
    "postcode": "2940013",
    "prefecture": "千葉県",
    "prefecture_kana": "チバケン",
    "prefecture_code": 12,
    "city": "館山市",
    "city_kana": "タテヤマシ",
    "town": "宝貝",
    "town_kana": "ホウガイ",
    "street": null,
    "office_name": null,
    "office_name_kana": null
  },
  "0014": {
    "postcode": "2940014",
    "prefecture": "千葉県",
    "prefecture_kana": "チバケン",
    "prefecture_code": 12,
    "city": "館山市",
    "city_kana": "タテヤマシ",
    "town": "山本",
    "town_kana": "ヤマモト",
    "street": null,
    "office_name": null,
    "office_name_kana": null
  },
  "0015": {
    "postcode": "2940015",
    "prefecture": "千葉県",
    "prefecture_kana": "チバケン",
    "prefecture_code": 12,
    "city": "館山市",
    "city_kana": "タテヤマシ",
    "town": "古茂口",
    "town_kana": "コモグチ",
    "street": null,
    "office_name": null,
    "office_name_kana": null
  },
  "0016": {
    "postcode": "2940016",
    "prefecture": "千葉県",
    "prefecture_kana": "チバケン",
    "prefecture_code": 12,
    "city": "館山市",
    "city_kana": "タテヤマシ",
    "town": "飯沼",
    "town_kana": "イイヌマ",
    "street": null,
    "office_name": null,
    "office_name_kana": null
  },
  "0017": {
    "postcode": "2940017",
    "prefecture": "千葉県",
    "prefecture_kana": "チバケン",
    "prefecture_code": 12,
    "city": "館山市",
    "city_kana": "タテヤマシ",
    "town": "南条",
    "town_kana": "ナンジョウ",
    "street": null,
    "office_name": null,
    "office_name_kana": null
  },
  "0018": {
    "postcode": "2940018",
    "prefecture": "千葉県",
    "prefecture_kana": "チバケン",
    "prefecture_code": 12,
    "city": "館山市",
    "city_kana": "タテヤマシ",
    "town": "国分",
    "town_kana": "コクブ",
    "street": null,
    "office_name": null,
    "office_name_kana": null
  },
  "0021": {
    "postcode": "2940021",
    "prefecture": "千葉県",
    "prefecture_kana": "チバケン",
    "prefecture_code": 12,
    "city": "館山市",
    "city_kana": "タテヤマシ",
    "town": "山荻",
    "town_kana": "ヤモオギ",
    "street": null,
    "office_name": null,
    "office_name_kana": null
  },
  "0022": {
    "postcode": "2940022",
    "prefecture": "千葉県",
    "prefecture_kana": "チバケン",
    "prefecture_code": 12,
    "city": "館山市",
    "city_kana": "タテヤマシ",
    "town": "畑",
    "town_kana": "ハタ",
    "street": null,
    "office_name": null,
    "office_name_kana": null
  },
  "0023": {
    "postcode": "2940023",
    "prefecture": "千葉県",
    "prefecture_kana": "チバケン",
    "prefecture_code": 12,
    "city": "館山市",
    "city_kana": "タテヤマシ",
    "town": "神余",
    "town_kana": "カナマリ",
    "street": null,
    "office_name": null,
    "office_name_kana": null
  },
  "0024": {
    "postcode": "2940024",
    "prefecture": "千葉県",
    "prefecture_kana": "チバケン",
    "prefecture_code": 12,
    "city": "館山市",
    "city_kana": "タテヤマシ",
    "town": "岡田",
    "town_kana": "オカダ",
    "street": null,
    "office_name": null,
    "office_name_kana": null
  },
  "0025": {
    "postcode": "2940025",
    "prefecture": "千葉県",
    "prefecture_kana": "チバケン",
    "prefecture_code": 12,
    "city": "館山市",
    "city_kana": "タテヤマシ",
    "town": "大戸",
    "town_kana": "オオト",
    "street": null,
    "office_name": null,
    "office_name_kana": null
  },
  "0026": {
    "postcode": "2940026",
    "prefecture": "千葉県",
    "prefecture_kana": "チバケン",
    "prefecture_code": 12,
    "city": "館山市",
    "city_kana": "タテヤマシ",
    "town": "出野尾",
    "town_kana": "イデノオ",
    "street": null,
    "office_name": null,
    "office_name_kana": null
  },
  "0027": {
    "postcode": "2940027",
    "prefecture": "千葉県",
    "prefecture_kana": "チバケン",
    "prefecture_code": 12,
    "city": "館山市",
    "city_kana": "タテヤマシ",
    "town": "西長田",
    "town_kana": "ニシナガタ",
    "street": null,
    "office_name": null,
    "office_name_kana": null
  },
  "0028": {
    "postcode": "2940028",
    "prefecture": "千葉県",
    "prefecture_kana": "チバケン",
    "prefecture_code": 12,
    "city": "館山市",
    "city_kana": "タテヤマシ",
    "town": "東長田",
    "town_kana": "ヒガシナガタ",
    "street": null,
    "office_name": null,
    "office_name_kana": null
  },
  "0029": {
    "postcode": "2940029",
    "prefecture": "千葉県",
    "prefecture_kana": "チバケン",
    "prefecture_code": 12,
    "city": "館山市",
    "city_kana": "タテヤマシ",
    "town": "作名",
    "town_kana": "サクナ",
    "street": null,
    "office_name": null,
    "office_name_kana": null
  },
  "0031": {
    "postcode": "2940031",
    "prefecture": "千葉県",
    "prefecture_kana": "チバケン",
    "prefecture_code": 12,
    "city": "館山市",
    "city_kana": "タテヤマシ",
    "town": "大賀",
    "town_kana": "オオカ",
    "street": null,
    "office_name": null,
    "office_name_kana": null
  },
  "0032": {
    "postcode": "2940032",
    "prefecture": "千葉県",
    "prefecture_kana": "チバケン",
    "prefecture_code": 12,
    "city": "館山市",
    "city_kana": "タテヤマシ",
    "town": "笠名",
    "town_kana": "カサナ",
    "street": null,
    "office_name": null,
    "office_name_kana": null
  },
  "0033": {
    "postcode": "2940033",
    "prefecture": "千葉県",
    "prefecture_kana": "チバケン",
    "prefecture_code": 12,
    "city": "館山市",
    "city_kana": "タテヤマシ",
    "town": "宮城",
    "town_kana": "ミヤギ",
    "street": null,
    "office_name": null,
    "office_name_kana": null
  },
  "0034": {
    "postcode": "2940034",
    "prefecture": "千葉県",
    "prefecture_kana": "チバケン",
    "prefecture_code": 12,
    "city": "館山市",
    "city_kana": "タテヤマシ",
    "town": "沼",
    "town_kana": "ヌマ",
    "street": null,
    "office_name": null,
    "office_name_kana": null
  },
  "0035": {
    "postcode": "2940035",
    "prefecture": "千葉県",
    "prefecture_kana": "チバケン",
    "prefecture_code": 12,
    "city": "館山市",
    "city_kana": "タテヤマシ",
    "town": "富士見",
    "town_kana": "フジミ",
    "street": null,
    "office_name": null,
    "office_name_kana": null
  },
  "0036": {
    "postcode": "2940036",
    "prefecture": "千葉県",
    "prefecture_kana": "チバケン",
    "prefecture_code": 12,
    "city": "館山市",
    "city_kana": "タテヤマシ",
    "town": "館山",
    "town_kana": "タテヤマ",
    "street": null,
    "office_name": null,
    "office_name_kana": null
  },
  "0037": {
    "postcode": "2940037",
    "prefecture": "千葉県",
    "prefecture_kana": "チバケン",
    "prefecture_code": 12,
    "city": "館山市",
    "city_kana": "タテヤマシ",
    "town": "長須賀",
    "town_kana": "ナガスカ",
    "street": null,
    "office_name": null,
    "office_name_kana": null
  },
  "0038": {
    "postcode": "2940038",
    "prefecture": "千葉県",
    "prefecture_kana": "チバケン",
    "prefecture_code": 12,
    "city": "館山市",
    "city_kana": "タテヤマシ",
    "town": "上真倉",
    "town_kana": "カミサナグラ",
    "street": null,
    "office_name": null,
    "office_name_kana": null
  },
  "0041": {
    "postcode": "2940041",
    "prefecture": "千葉県",
    "prefecture_kana": "チバケン",
    "prefecture_code": 12,
    "city": "館山市",
    "city_kana": "タテヤマシ",
    "town": "高井",
    "town_kana": "タカイ",
    "street": null,
    "office_name": null,
    "office_name_kana": null
  },
  "0042": {
    "postcode": "2940042",
    "prefecture": "千葉県",
    "prefecture_kana": "チバケン",
    "prefecture_code": 12,
    "city": "館山市",
    "city_kana": "タテヤマシ",
    "town": "上野原",
    "town_kana": "ウエノハラ",
    "street": null,
    "office_name": null,
    "office_name_kana": null
  },
  "0043": {
    "postcode": "2940043",
    "prefecture": "千葉県",
    "prefecture_kana": "チバケン",
    "prefecture_code": 12,
    "city": "館山市",
    "city_kana": "タテヤマシ",
    "town": "安布里",
    "town_kana": "アブリ",
    "street": null,
    "office_name": null,
    "office_name_kana": null
  },
  "0044": {
    "postcode": "2940044",
    "prefecture": "千葉県",
    "prefecture_kana": "チバケン",
    "prefecture_code": 12,
    "city": "館山市",
    "city_kana": "タテヤマシ",
    "town": "大網",
    "town_kana": "オオアミ",
    "street": null,
    "office_name": null,
    "office_name_kana": null
  },
  "0045": {
    "postcode": "2940045",
    "prefecture": "千葉県",
    "prefecture_kana": "チバケン",
    "prefecture_code": 12,
    "city": "館山市",
    "city_kana": "タテヤマシ",
    "town": "北条",
    "town_kana": "ホウジョウ",
    "street": null,
    "office_name": null,
    "office_name_kana": null
  },
  "0046": {
    "postcode": "2940046",
    "prefecture": "千葉県",
    "prefecture_kana": "チバケン",
    "prefecture_code": 12,
    "city": "館山市",
    "city_kana": "タテヤマシ",
    "town": "新宿",
    "town_kana": "シンジュク",
    "street": null,
    "office_name": null,
    "office_name_kana": null
  },
  "0047": {
    "postcode": "2940047",
    "prefecture": "千葉県",
    "prefecture_kana": "チバケン",
    "prefecture_code": 12,
    "city": "館山市",
    "city_kana": "タテヤマシ",
    "town": "八幡",
    "town_kana": "ヤワタ",
    "street": null,
    "office_name": null,
    "office_name_kana": null
  },
  "0048": {
    "postcode": "2940048",
    "prefecture": "千葉県",
    "prefecture_kana": "チバケン",
    "prefecture_code": 12,
    "city": "館山市",
    "city_kana": "タテヤマシ",
    "town": "下真倉",
    "town_kana": "シモサナグラ",
    "street": null,
    "office_name": null,
    "office_name_kana": null
  },
  "0051": {
    "postcode": "2940051",
    "prefecture": "千葉県",
    "prefecture_kana": "チバケン",
    "prefecture_code": 12,
    "city": "館山市",
    "city_kana": "タテヤマシ",
    "town": "正木",
    "town_kana": "マサキ",
    "street": null,
    "office_name": null,
    "office_name_kana": null
  },
  "0052": {
    "postcode": "2940052",
    "prefecture": "千葉県",
    "prefecture_kana": "チバケン",
    "prefecture_code": 12,
    "city": "館山市",
    "city_kana": "タテヤマシ",
    "town": "亀ケ原",
    "town_kana": "カメガハラ",
    "street": null,
    "office_name": null,
    "office_name_kana": null
  },
  "0053": {
    "postcode": "2940053",
    "prefecture": "千葉県",
    "prefecture_kana": "チバケン",
    "prefecture_code": 12,
    "city": "館山市",
    "city_kana": "タテヤマシ",
    "town": "北条正木",
    "town_kana": "ホウジョウマサキ",
    "street": null,
    "office_name": null,
    "office_name_kana": null
  },
  "0054": {
    "postcode": "2940054",
    "prefecture": "千葉県",
    "prefecture_kana": "チバケン",
    "prefecture_code": 12,
    "city": "館山市",
    "city_kana": "タテヤマシ",
    "town": "湊",
    "town_kana": "ミナト",
    "street": null,
    "office_name": null,
    "office_name_kana": null
  },
  "0055": {
    "postcode": "2940055",
    "prefecture": "千葉県",
    "prefecture_kana": "チバケン",
    "prefecture_code": 12,
    "city": "館山市",
    "city_kana": "タテヤマシ",
    "town": "那古",
    "town_kana": "ナゴ",
    "street": null,
    "office_name": null,
    "office_name_kana": null
  },
  "0056": {
    "postcode": "2940056",
    "prefecture": "千葉県",
    "prefecture_kana": "チバケン",
    "prefecture_code": 12,
    "city": "館山市",
    "city_kana": "タテヤマシ",
    "town": "船形",
    "town_kana": "フナカタ",
    "street": null,
    "office_name": null,
    "office_name_kana": null
  },
  "0057": {
    "postcode": "2940057",
    "prefecture": "千葉県",
    "prefecture_kana": "チバケン",
    "prefecture_code": 12,
    "city": "館山市",
    "city_kana": "タテヤマシ",
    "town": "川名",
    "town_kana": "カワナ",
    "street": null,
    "office_name": null,
    "office_name_kana": null
  },
  "0058": {
    "postcode": "2940058",
    "prefecture": "千葉県",
    "prefecture_kana": "チバケン",
    "prefecture_code": 12,
    "city": "館山市",
    "city_kana": "タテヤマシ",
    "town": "小原",
    "town_kana": "コバラ",
    "street": null,
    "office_name": null,
    "office_name_kana": null
  },
  "0221": {
    "postcode": "2940221",
    "prefecture": "千葉県",
    "prefecture_kana": "チバケン",
    "prefecture_code": 12,
    "city": "館山市",
    "city_kana": "タテヤマシ",
    "town": "布沼",
    "town_kana": "メヌマ",
    "street": null,
    "office_name": null,
    "office_name_kana": null
  },
  "0222": {
    "postcode": "2940222",
    "prefecture": "千葉県",
    "prefecture_kana": "チバケン",
    "prefecture_code": 12,
    "city": "館山市",
    "city_kana": "タテヤマシ",
    "town": "茂名",
    "town_kana": "モナ",
    "street": null,
    "office_name": null,
    "office_name_kana": null
  },
  "0223": {
    "postcode": "2940223",
    "prefecture": "千葉県",
    "prefecture_kana": "チバケン",
    "prefecture_code": 12,
    "city": "館山市",
    "city_kana": "タテヤマシ",
    "town": "洲宮",
    "town_kana": "スノミヤ",
    "street": null,
    "office_name": null,
    "office_name_kana": null
  },
  "0224": {
    "postcode": "2940224",
    "prefecture": "千葉県",
    "prefecture_kana": "チバケン",
    "prefecture_code": 12,
    "city": "館山市",
    "city_kana": "タテヤマシ",
    "town": "藤原",
    "town_kana": "フジワラ",
    "street": null,
    "office_name": null,
    "office_name_kana": null
  },
  "0225": {
    "postcode": "2940225",
    "prefecture": "千葉県",
    "prefecture_kana": "チバケン",
    "prefecture_code": 12,
    "city": "館山市",
    "city_kana": "タテヤマシ",
    "town": "佐野",
    "town_kana": "サノ",
    "street": null,
    "office_name": null,
    "office_name_kana": null
  },
  "0226": {
    "postcode": "2940226",
    "prefecture": "千葉県",
    "prefecture_kana": "チバケン",
    "prefecture_code": 12,
    "city": "館山市",
    "city_kana": "タテヤマシ",
    "town": "犬石",
    "town_kana": "イヌイシ",
    "street": null,
    "office_name": null,
    "office_name_kana": null
  },
  "0231": {
    "postcode": "2940231",
    "prefecture": "千葉県",
    "prefecture_kana": "チバケン",
    "prefecture_code": 12,
    "city": "館山市",
    "city_kana": "タテヤマシ",
    "town": "中里",
    "town_kana": "ナカザト",
    "street": null,
    "office_name": null,
    "office_name_kana": null
  },
  "0232": {
    "postcode": "2940232",
    "prefecture": "千葉県",
    "prefecture_kana": "チバケン",
    "prefecture_code": 12,
    "city": "館山市",
    "city_kana": "タテヤマシ",
    "town": "竜岡",
    "town_kana": "リュウオカ",
    "street": null,
    "office_name": null,
    "office_name_kana": null
  },
  "0233": {
    "postcode": "2940233",
    "prefecture": "千葉県",
    "prefecture_kana": "チバケン",
    "prefecture_code": 12,
    "city": "館山市",
    "city_kana": "タテヤマシ",
    "town": "大神宮",
    "town_kana": "ダイジングウ",
    "street": null,
    "office_name": null,
    "office_name_kana": null
  },
  "0234": {
    "postcode": "2940234",
    "prefecture": "千葉県",
    "prefecture_kana": "チバケン",
    "prefecture_code": 12,
    "city": "館山市",
    "city_kana": "タテヤマシ",
    "town": "布良",
    "town_kana": "メラ",
    "street": null,
    "office_name": null,
    "office_name_kana": null
  },
  "0235": {
    "postcode": "2940235",
    "prefecture": "千葉県",
    "prefecture_kana": "チバケン",
    "prefecture_code": 12,
    "city": "館山市",
    "city_kana": "タテヤマシ",
    "town": "相浜",
    "town_kana": "アイハマ",
    "street": null,
    "office_name": null,
    "office_name_kana": null
  },
  "0301": {
    "postcode": "2940301",
    "prefecture": "千葉県",
    "prefecture_kana": "チバケン",
    "prefecture_code": 12,
    "city": "館山市",
    "city_kana": "タテヤマシ",
    "town": "香",
    "town_kana": "コウヤツ",
    "street": null,
    "office_name": null,
    "office_name_kana": null
  },
  "0302": {
    "postcode": "2940302",
    "prefecture": "千葉県",
    "prefecture_kana": "チバケン",
    "prefecture_code": 12,
    "city": "館山市",
    "city_kana": "タテヤマシ",
    "town": "塩見",
    "town_kana": "シオミ",
    "street": null,
    "office_name": null,
    "office_name_kana": null
  },
  "0303": {
    "postcode": "2940303",
    "prefecture": "千葉県",
    "prefecture_kana": "チバケン",
    "prefecture_code": 12,
    "city": "館山市",
    "city_kana": "タテヤマシ",
    "town": "浜田",
    "town_kana": "ハマダ",
    "street": null,
    "office_name": null,
    "office_name_kana": null
  },
  "0304": {
    "postcode": "2940304",
    "prefecture": "千葉県",
    "prefecture_kana": "チバケン",
    "prefecture_code": 12,
    "city": "館山市",
    "city_kana": "タテヤマシ",
    "town": "早物",
    "town_kana": "ハヤブツ",
    "street": null,
    "office_name": null,
    "office_name_kana": null
  },
  "0305": {
    "postcode": "2940305",
    "prefecture": "千葉県",
    "prefecture_kana": "チバケン",
    "prefecture_code": 12,
    "city": "館山市",
    "city_kana": "タテヤマシ",
    "town": "見物",
    "town_kana": "ケンブツ",
    "street": null,
    "office_name": null,
    "office_name_kana": null
  },
  "0306": {
    "postcode": "2940306",
    "prefecture": "千葉県",
    "prefecture_kana": "チバケン",
    "prefecture_code": 12,
    "city": "館山市",
    "city_kana": "タテヤマシ",
    "town": "加賀名",
    "town_kana": "カガナ",
    "street": null,
    "office_name": null,
    "office_name_kana": null
  },
  "0307": {
    "postcode": "2940307",
    "prefecture": "千葉県",
    "prefecture_kana": "チバケン",
    "prefecture_code": 12,
    "city": "館山市",
    "city_kana": "タテヤマシ",
    "town": "波左間",
    "town_kana": "ハサマ",
    "street": null,
    "office_name": null,
    "office_name_kana": null
  },
  "0308": {
    "postcode": "2940308",
    "prefecture": "千葉県",
    "prefecture_kana": "チバケン",
    "prefecture_code": 12,
    "city": "館山市",
    "city_kana": "タテヤマシ",
    "town": "坂田",
    "town_kana": "バンダ",
    "street": null,
    "office_name": null,
    "office_name_kana": null
  },
  "0311": {
    "postcode": "2940311",
    "prefecture": "千葉県",
    "prefecture_kana": "チバケン",
    "prefecture_code": 12,
    "city": "館山市",
    "city_kana": "タテヤマシ",
    "town": "坂井",
    "town_kana": "サカイ",
    "street": null,
    "office_name": null,
    "office_name_kana": null
  },
  "0312": {
    "postcode": "2940312",
    "prefecture": "千葉県",
    "prefecture_kana": "チバケン",
    "prefecture_code": 12,
    "city": "館山市",
    "city_kana": "タテヤマシ",
    "town": "小沼",
    "town_kana": "コヌマ",
    "street": null,
    "office_name": null,
    "office_name_kana": null
  },
  "0313": {
    "postcode": "2940313",
    "prefecture": "千葉県",
    "prefecture_kana": "チバケン",
    "prefecture_code": 12,
    "city": "館山市",
    "city_kana": "タテヤマシ",
    "town": "坂足",
    "town_kana": "サカダル",
    "street": null,
    "office_name": null,
    "office_name_kana": null
  },
  "0314": {
    "postcode": "2940314",
    "prefecture": "千葉県",
    "prefecture_kana": "チバケン",
    "prefecture_code": 12,
    "city": "館山市",
    "city_kana": "タテヤマシ",
    "town": "伊戸",
    "town_kana": "イト",
    "street": null,
    "office_name": null,
    "office_name_kana": null
  },
  "0315": {
    "postcode": "2940315",
    "prefecture": "千葉県",
    "prefecture_kana": "チバケン",
    "prefecture_code": 12,
    "city": "館山市",
    "city_kana": "タテヤマシ",
    "town": "西川名",
    "town_kana": "ニシカワナ",
    "street": null,
    "office_name": null,
    "office_name_kana": null
  },
  "0316": {
    "postcode": "2940316",
    "prefecture": "千葉県",
    "prefecture_kana": "チバケン",
    "prefecture_code": 12,
    "city": "館山市",
    "city_kana": "タテヤマシ",
    "town": "洲崎",
    "town_kana": "スノサキ",
    "street": null,
    "office_name": null,
    "office_name_kana": null
  },
  "0801": {
    "postcode": "2940801",
    "prefecture": "千葉県",
    "prefecture_kana": "チバケン",
    "prefecture_code": 12,
    "city": "南房総市",
    "city_kana": "ミナミボウソウシ",
    "town": "増間",
    "town_kana": "マスマ",
    "street": null,
    "office_name": null,
    "office_name_kana": null
  },
  "0802": {
    "postcode": "2940802",
    "prefecture": "千葉県",
    "prefecture_kana": "チバケン",
    "prefecture_code": 12,
    "city": "南房総市",
    "city_kana": "ミナミボウソウシ",
    "town": "山名",
    "town_kana": "ヤマナ",
    "street": null,
    "office_name": null,
    "office_name_kana": null
  },
  "0803": {
    "postcode": "2940803",
    "prefecture": "千葉県",
    "prefecture_kana": "チバケン",
    "prefecture_code": 12,
    "city": "南房総市",
    "city_kana": "ミナミボウソウシ",
    "town": "御庄",
    "town_kana": "ミショウ",
    "street": null,
    "office_name": null,
    "office_name_kana": null
  },
  "0804": {
    "postcode": "2940804",
    "prefecture": "千葉県",
    "prefecture_kana": "チバケン",
    "prefecture_code": 12,
    "city": "南房総市",
    "city_kana": "ミナミボウソウシ",
    "town": "海老敷",
    "town_kana": "エビシキ",
    "street": null,
    "office_name": null,
    "office_name_kana": null
  },
  "0805": {
    "postcode": "2940805",
    "prefecture": "千葉県",
    "prefecture_kana": "チバケン",
    "prefecture_code": 12,
    "city": "南房総市",
    "city_kana": "ミナミボウソウシ",
    "town": "下滝田",
    "town_kana": "シモタキダ",
    "street": null,
    "office_name": null,
    "office_name_kana": null
  },
  "0806": {
    "postcode": "2940806",
    "prefecture": "千葉県",
    "prefecture_kana": "チバケン",
    "prefecture_code": 12,
    "city": "南房総市",
    "city_kana": "ミナミボウソウシ",
    "town": "上滝田",
    "town_kana": "カミタキダ",
    "street": null,
    "office_name": null,
    "office_name_kana": null
  },
  "0811": {
    "postcode": "2940811",
    "prefecture": "千葉県",
    "prefecture_kana": "チバケン",
    "prefecture_code": 12,
    "city": "南房総市",
    "city_kana": "ミナミボウソウシ",
    "town": "中",
    "town_kana": "ナカ",
    "street": null,
    "office_name": null,
    "office_name_kana": null
  },
  "0812": {
    "postcode": "2940812",
    "prefecture": "千葉県",
    "prefecture_kana": "チバケン",
    "prefecture_code": 12,
    "city": "南房総市",
    "city_kana": "ミナミボウソウシ",
    "town": "池之内",
    "town_kana": "イケノウチ",
    "street": null,
    "office_name": null,
    "office_name_kana": null
  },
  "0813": {
    "postcode": "2940813",
    "prefecture": "千葉県",
    "prefecture_kana": "チバケン",
    "prefecture_code": 12,
    "city": "南房総市",
    "city_kana": "ミナミボウソウシ",
    "town": "谷向",
    "town_kana": "ヤムカイ",
    "street": null,
    "office_name": null,
    "office_name_kana": null
  },
  "0814": {
    "postcode": "2940814",
    "prefecture": "千葉県",
    "prefecture_kana": "チバケン",
    "prefecture_code": 12,
    "city": "南房総市",
    "city_kana": "ミナミボウソウシ",
    "town": "川田",
    "town_kana": "カワタ",
    "street": null,
    "office_name": null,
    "office_name_kana": null
  },
  "0815": {
    "postcode": "2940815",
    "prefecture": "千葉県",
    "prefecture_kana": "チバケン",
    "prefecture_code": 12,
    "city": "南房総市",
    "city_kana": "ミナミボウソウシ",
    "town": "千代",
    "town_kana": "センダイ",
    "street": null,
    "office_name": null,
    "office_name_kana": null
  },
  "0816": {
    "postcode": "2940816",
    "prefecture": "千葉県",
    "prefecture_kana": "チバケン",
    "prefecture_code": 12,
    "city": "南房総市",
    "city_kana": "ミナミボウソウシ",
    "town": "山下",
    "town_kana": "ヤマシタ",
    "street": null,
    "office_name": null,
    "office_name_kana": null
  },
  "0817": {
    "postcode": "2940817",
    "prefecture": "千葉県",
    "prefecture_kana": "チバケン",
    "prefecture_code": 12,
    "city": "南房総市",
    "city_kana": "ミナミボウソウシ",
    "town": "大学口",
    "town_kana": "オオガクチ",
    "street": null,
    "office_name": null,
    "office_name_kana": null
  },
  "0821": {
    "postcode": "2940821",
    "prefecture": "千葉県",
    "prefecture_kana": "チバケン",
    "prefecture_code": 12,
    "city": "南房総市",
    "city_kana": "ミナミボウソウシ",
    "town": "明石",
    "town_kana": "アカシ",
    "street": null,
    "office_name": null,
    "office_name_kana": null
  },
  "0822": {
    "postcode": "2940822",
    "prefecture": "千葉県",
    "prefecture_kana": "チバケン",
    "prefecture_code": 12,
    "city": "南房総市",
    "city_kana": "ミナミボウソウシ",
    "town": "本織",
    "town_kana": "モトオリ",
    "street": null,
    "office_name": null,
    "office_name_kana": null
  },
  "0823": {
    "postcode": "2940823",
    "prefecture": "千葉県",
    "prefecture_kana": "チバケン",
    "prefecture_code": 12,
    "city": "南房総市",
    "city_kana": "ミナミボウソウシ",
    "town": "府中",
    "town_kana": "フチュウ",
    "street": null,
    "office_name": null,
    "office_name_kana": null
  },
  "0824": {
    "postcode": "2940824",
    "prefecture": "千葉県",
    "prefecture_kana": "チバケン",
    "prefecture_code": 12,
    "city": "南房総市",
    "city_kana": "ミナミボウソウシ",
    "town": "下堀",
    "town_kana": "シモホリ",
    "street": null,
    "office_name": null,
    "office_name_kana": null
  },
  "0825": {
    "postcode": "2940825",
    "prefecture": "千葉県",
    "prefecture_kana": "チバケン",
    "prefecture_code": 12,
    "city": "南房総市",
    "city_kana": "ミナミボウソウシ",
    "town": "上堀",
    "town_kana": "カミホリ",
    "street": null,
    "office_name": null,
    "office_name_kana": null
  },
  "0826": {
    "postcode": "2940826",
    "prefecture": "千葉県",
    "prefecture_kana": "チバケン",
    "prefecture_code": 12,
    "city": "南房総市",
    "city_kana": "ミナミボウソウシ",
    "town": "三坂",
    "town_kana": "ミサカ",
    "street": null,
    "office_name": null,
    "office_name_kana": null
  },
  "8501": {
    "postcode": "2948501",
    "prefecture": "千葉県",
    "prefecture_kana": "チバケン",
    "prefecture_code": 12,
    "city": "館山市",
    "city_kana": "タテヤマシ",
    "town": "宮城",
    "town_kana": "ミヤギ",
    "street": "無番地",
    "office_name": "海上自衛隊　館山航空基地",
    "office_name_kana": "カイジヨウジエイタイ タテヤマコウクウキチ"
  },
  "8502": {
    "postcode": "2948502",
    "prefecture": "千葉県",
    "prefecture_kana": "チバケン",
    "prefecture_code": 12,
    "city": "館山市",
    "city_kana": "タテヤマシ",
    "town": "山本",
    "town_kana": "ヤマモト",
    "street": "１５８０番地",
    "office_name": "富士工業　株式会社",
    "office_name_kana": "フジコウギヨウ カブシキガイシヤ"
  },
  "8503": {
    "postcode": "2948503",
    "prefecture": "千葉県",
    "prefecture_kana": "チバケン",
    "prefecture_code": 12,
    "city": "館山市",
    "city_kana": "タテヤマシ",
    "town": "北条",
    "town_kana": "ホウジョウ",
    "street": "１１６４",
    "office_name": "館山税務署",
    "office_name_kana": "タテヤマゼイムシヨ"
  },
  "8601": {
    "postcode": "2948601",
    "prefecture": "千葉県",
    "prefecture_kana": "チバケン",
    "prefecture_code": 12,
    "city": "館山市",
    "city_kana": "タテヤマシ",
    "town": "北条",
    "town_kana": "ホウジョウ",
    "street": "１１４５−１",
    "office_name": "館山市役所",
    "office_name_kana": "タテヤマシヤクシヨ"
  },
  "8701": [
    {
      "postcode": "2948701",
      "prefecture": "千葉県",
      "prefecture_kana": "チバケン",
      "prefecture_code": 12,
      "city": "南房総市",
      "city_kana": "ミナミボウソウシ",
      "town": "谷向",
      "town_kana": "ヤムカイ",
      "street": "１００番地",
      "office_name": "南房総市役所　三芳地域センター",
      "office_name_kana": "ミナミボウソウシヤクシヨ ミヨシチイキセンタ-"
    },
    {
      "postcode": "2948701",
      "prefecture": "千葉県",
      "prefecture_kana": "チバケン",
      "prefecture_code": 12,
      "city": "南房総市",
      "city_kana": "ミナミボウソウシ",
      "town": "谷向",
      "town_kana": "ヤムカイ",
      "street": "１００番地",
      "office_name": "南房総市役所　三芳分庁舎",
      "office_name_kana": "ミナミボウソウシヤクシヨ ミヨシブンチヨウシヤ"
    }
  ]
}