{
  "0000": {
    "postcode": "2960000",
    "prefecture": "千葉県",
    "prefecture_kana": "チバケン",
    "prefecture_code": 12,
    "city": "鴨川市",
    "city_kana": "カモガワシ",
    "town": "",
    "town_kana": "",
    "street": null,
    "office_name": null,
    "office_name_kana": null
  },
  "0001": {
    "postcode": "2960001",
    "prefecture": "千葉県",
    "prefecture_kana": "チバケン",
    "prefecture_code": 12,
    "city": "鴨川市",
    "city_kana": "カモガワシ",
    "town": "横渚",
    "town_kana": "ヨコスカ",
    "street": null,
    "office_name": null,
    "office_name_kana": null
  },
  "0002": {
    "postcode": "2960002",
    "prefecture": "千葉県",
    "prefecture_kana": "チバケン",
    "prefecture_code": 12,
    "city": "鴨川市",
    "city_kana": "カモガワシ",
    "town": "前原",
    "town_kana": "マエバラ",
    "street": null,
    "office_name": null,
    "office_name_kana": null
  },
  "0003": {
    "postcode": "2960003",
    "prefecture": "千葉県",
    "prefecture_kana": "チバケン",
    "prefecture_code": 12,
    "city": "鴨川市",
    "city_kana": "カモガワシ",
    "town": "磯村",
    "town_kana": "イソムラ",
    "street": null,
    "office_name": null,
    "office_name_kana": null
  },
  "0004": {
    "postcode": "2960004",
    "prefecture": "千葉県",
    "prefecture_kana": "チバケン",
    "prefecture_code": 12,
    "city": "鴨川市",
    "city_kana": "カモガワシ",
    "town": "貝渚",
    "town_kana": "カイスカ",
    "street": null,
    "office_name": null,
    "office_name_kana": null
  },
  "0011": {
    "postcode": "2960011",
    "prefecture": "千葉県",
    "prefecture_kana": "チバケン",
    "prefecture_code": 12,
    "city": "鴨川市",
    "city_kana": "カモガワシ",
    "town": "大里",
    "town_kana": "ダイリ",
    "street": null,
    "office_name": null,
    "office_name_kana": null
  },
  "0012": {
    "postcode": "2960012",
    "prefecture": "千葉県",
    "prefecture_kana": "チバケン",
    "prefecture_code": 12,
    "city": "鴨川市",
    "city_kana": "カモガワシ",
    "town": "来秀",
    "town_kana": "ライシュウ",
    "street": null,
    "office_name": null,
    "office_name_kana": null
  },
  "0013": {
    "postcode": "2960013",
    "prefecture": "千葉県",
    "prefecture_kana": "チバケン",
    "prefecture_code": 12,
    "city": "鴨川市",
    "city_kana": "カモガワシ",
    "town": "田原西",
    "town_kana": "タバラニシ",
    "street": null,
    "office_name": null,
    "office_name_kana": null
  },
  "0014": {
    "postcode": "2960014",
    "prefecture": "千葉県",
    "prefecture_kana": "チバケン",
    "prefecture_code": 12,
    "city": "鴨川市",
    "city_kana": "カモガワシ",
    "town": "太尾",
    "town_kana": "フトオ",
    "street": null,
    "office_name": null,
    "office_name_kana": null
  },
  "0015": {
    "postcode": "2960015",
    "prefecture": "千葉県",
    "prefecture_kana": "チバケン",
    "prefecture_code": 12,
    "city": "鴨川市",
    "city_kana": "カモガワシ",
    "town": "川代",
    "town_kana": "カワシロ",
    "street": null,
    "office_name": null,
    "office_name_kana": null
  },
  "0016": {
    "postcode": "2960016",
    "prefecture": "千葉県",
    "prefecture_kana": "チバケン",
    "prefecture_code": 12,
    "city": "鴨川市",
    "city_kana": "カモガワシ",
    "town": "坂東",
    "town_kana": "バンドウ",
    "street": null,
    "office_name": null,
    "office_name_kana": null
  },
  "0021": {
    "postcode": "2960021",
    "prefecture": "千葉県",
    "prefecture_kana": "チバケン",
    "prefecture_code": 12,
    "city": "鴨川市",
    "city_kana": "カモガワシ",
    "town": "竹平",
    "town_kana": "タケヒラ",
    "street": null,
    "office_name": null,
    "office_name_kana": null
  },
  "0022": {
    "postcode": "2960022",
    "prefecture": "千葉県",
    "prefecture_kana": "チバケン",
    "prefecture_code": 12,
    "city": "鴨川市",
    "city_kana": "カモガワシ",
    "town": "京田",
    "town_kana": "キョウデン",
    "street": null,
    "office_name": null,
    "office_name_kana": null
  },
  "0023": {
    "postcode": "2960023",
    "prefecture": "千葉県",
    "prefecture_kana": "チバケン",
    "prefecture_code": 12,
    "city": "鴨川市",
    "city_kana": "カモガワシ",
    "town": "押切",
    "town_kana": "オシキリ",
    "street": null,
    "office_name": null,
    "office_name_kana": null
  },
  "0024": {
    "postcode": "2960024",
    "prefecture": "千葉県",
    "prefecture_kana": "チバケン",
    "prefecture_code": 12,
    "city": "鴨川市",
    "city_kana": "カモガワシ",
    "town": "池田",
    "town_kana": "イケダ",
    "street": null,
    "office_name": null,
    "office_name_kana": null
  },
  "0025": {
    "postcode": "2960025",
    "prefecture": "千葉県",
    "prefecture_kana": "チバケン",
    "prefecture_code": 12,
    "city": "鴨川市",
    "city_kana": "カモガワシ",
    "town": "太田学",
    "town_kana": "オダガク",
    "street": null,
    "office_name": null,
    "office_name_kana": null
  },
  "0031": {
    "postcode": "2960031",
    "prefecture": "千葉県",
    "prefecture_kana": "チバケン",
    "prefecture_code": 12,
    "city": "鴨川市",
    "city_kana": "カモガワシ",
    "town": "粟斗",
    "town_kana": "アワト",
    "street": null,
    "office_name": null,
    "office_name_kana": null
  },
  "0032": {
    "postcode": "2960032",
    "prefecture": "千葉県",
    "prefecture_kana": "チバケン",
    "prefecture_code": 12,
    "city": "鴨川市",
    "city_kana": "カモガワシ",
    "town": "花房",
    "town_kana": "ハナブサ",
    "street": null,
    "office_name": null,
    "office_name_kana": null
  },
  "0033": {
    "postcode": "2960033",
    "prefecture": "千葉県",
    "prefecture_kana": "チバケン",
    "prefecture_code": 12,
    "city": "鴨川市",
    "city_kana": "カモガワシ",
    "town": "八色",
    "town_kana": "ヤイロ",
    "street": null,
    "office_name": null,
    "office_name_kana": null
  },
  "0034": {
    "postcode": "2960034",
    "prefecture": "千葉県",
    "prefecture_kana": "チバケン",
    "prefecture_code": 12,
    "city": "鴨川市",
    "city_kana": "カモガワシ",
    "town": "滑谷",
    "town_kana": "ヌカリヤ",
    "street": null,
    "office_name": null,
    "office_name_kana": null
  },
  "0035": {
    "postcode": "2960035",
    "prefecture": "千葉県",
    "prefecture_kana": "チバケン",
    "prefecture_code": 12,
    "city": "鴨川市",
    "city_kana": "カモガワシ",
    "town": "打墨",
    "town_kana": "ウツツミ",
    "street": null,
    "office_name": null,
    "office_name_kana": null
  },
  "0041": {
    "postcode": "2960041",
    "prefecture": "千葉県",
    "prefecture_kana": "チバケン",
    "prefecture_code": 12,
    "city": "鴨川市",
    "city_kana": "カモガワシ",
    "town": "東町",
    "town_kana": "ヒガシチョウ",
    "street": null,
    "office_name": null,
    "office_name_kana": null
  },
  "0042": {
    "postcode": "2960042",
    "prefecture": "千葉県",
    "prefecture_kana": "チバケン",
    "prefecture_code": 12,
    "city": "鴨川市",
    "city_kana": "カモガワシ",
    "town": "東元浜荻飛地",
    "town_kana": "ヒガシモトハマオギトビチ",
    "street": null,
    "office_name": null,
    "office_name_kana": null
  },
  "0043": {
    "postcode": "2960043",
    "prefecture": "千葉県",
    "prefecture_kana": "チバケン",
    "prefecture_code": 12,
    "city": "鴨川市",
    "city_kana": "カモガワシ",
    "town": "西町",
    "town_kana": "ニシチョウ",
    "street": null,
    "office_name": null,
    "office_name_kana": null
  },
  "0044": {
    "postcode": "2960044",
    "prefecture": "千葉県",
    "prefecture_kana": "チバケン",
    "prefecture_code": 12,
    "city": "鴨川市",
    "city_kana": "カモガワシ",
    "town": "広場",
    "town_kana": "ヒロバ",
    "street": null,
    "office_name": null,
    "office_name_kana": null
  },
  "0045": {
    "postcode": "2960045",
    "prefecture": "千葉県",
    "prefecture_kana": "チバケン",
    "prefecture_code": 12,
    "city": "鴨川市",
    "city_kana": "カモガワシ",
    "town": "和泉",
    "town_kana": "イズミ",
    "street": null,
    "office_name": null,
    "office_name_kana": null
  },
  "0101": {
    "postcode": "2960101",
    "prefecture": "千葉県",
    "prefecture_kana": "チバケン",
    "prefecture_code": 12,
    "city": "鴨川市",
    "city_kana": "カモガワシ",
    "town": "北小町",
    "town_kana": "キタコマチ",
    "street": null,
    "office_name": null,
    "office_name_kana": null
  },
  "0102": {
    "postcode": "2960102",
    "prefecture": "千葉県",
    "prefecture_kana": "チバケン",
    "prefecture_code": 12,
    "city": "鴨川市",
    "city_kana": "カモガワシ",
    "town": "下小原",
    "town_kana": "シモコバラ",
    "street": null,
    "office_name": null,
    "office_name_kana": null
  },
  "0103": {
    "postcode": "2960103",
    "prefecture": "千葉県",
    "prefecture_kana": "チバケン",
    "prefecture_code": 12,
    "city": "鴨川市",
    "city_kana": "カモガワシ",
    "town": "上小原",
    "town_kana": "カミコバラ",
    "street": null,
    "office_name": null,
    "office_name_kana": null
  },
  "0104": {
    "postcode": "2960104",
    "prefecture": "千葉県",
    "prefecture_kana": "チバケン",
    "prefecture_code": 12,
    "city": "鴨川市",
    "city_kana": "カモガワシ",
    "town": "南小町",
    "town_kana": "ミナミコマチ",
    "street": null,
    "office_name": null,
    "office_name_kana": null
  },
  "0105": {
    "postcode": "2960105",
    "prefecture": "千葉県",
    "prefecture_kana": "チバケン",
    "prefecture_code": 12,
    "city": "鴨川市",
    "city_kana": "カモガワシ",
    "town": "成川",
    "town_kana": "ナリガワ",
    "street": null,
    "office_name": null,
    "office_name_kana": null
  },
  "0106": {
    "postcode": "2960106",
    "prefecture": "千葉県",
    "prefecture_kana": "チバケン",
    "prefecture_code": 12,
    "city": "鴨川市",
    "city_kana": "カモガワシ",
    "town": "主基西",
    "town_kana": "スキニシ",
    "street": null,
    "office_name": null,
    "office_name_kana": null
  },
  "0111": {
    "postcode": "2960111",
    "prefecture": "千葉県",
    "prefecture_kana": "チバケン",
    "prefecture_code": 12,
    "city": "鴨川市",
    "city_kana": "カモガワシ",
    "town": "仲",
    "town_kana": "ナカ",
    "street": null,
    "office_name": null,
    "office_name_kana": null
  },
  "0112": {
    "postcode": "2960112",
    "prefecture": "千葉県",
    "prefecture_kana": "チバケン",
    "prefecture_code": 12,
    "city": "鴨川市",
    "city_kana": "カモガワシ",
    "town": "宮山",
    "town_kana": "ミヤヤマ",
    "street": null,
    "office_name": null,
    "office_name_kana": null
  },
  "0113": {
    "postcode": "2960113",
    "prefecture": "千葉県",
    "prefecture_kana": "チバケン",
    "prefecture_code": 12,
    "city": "鴨川市",
    "city_kana": "カモガワシ",
    "town": "吉尾平塚",
    "town_kana": "ヨシオヒラツカ",
    "street": null,
    "office_name": null,
    "office_name_kana": null
  },
  "0114": {
    "postcode": "2960114",
    "prefecture": "千葉県",
    "prefecture_kana": "チバケン",
    "prefecture_code": 12,
    "city": "鴨川市",
    "city_kana": "カモガワシ",
    "town": "細野",
    "town_kana": "ホソノ",
    "street": null,
    "office_name": null,
    "office_name_kana": null
  },
  "0115": {
    "postcode": "2960115",
    "prefecture": "千葉県",
    "prefecture_kana": "チバケン",
    "prefecture_code": 12,
    "city": "鴨川市",
    "city_kana": "カモガワシ",
    "town": "松尾寺",
    "town_kana": "マツオジ",
    "street": null,
    "office_name": null,
    "office_name_kana": null
  },
  "0121": {
    "postcode": "2960121",
    "prefecture": "千葉県",
    "prefecture_kana": "チバケン",
    "prefecture_code": 12,
    "city": "鴨川市",
    "city_kana": "カモガワシ",
    "town": "大川面",
    "town_kana": "オオカワヅラ",
    "street": null,
    "office_name": null,
    "office_name_kana": null
  },
  "0122": {
    "postcode": "2960122",
    "prefecture": "千葉県",
    "prefecture_kana": "チバケン",
    "prefecture_code": 12,
    "city": "鴨川市",
    "city_kana": "カモガワシ",
    "town": "寺門",
    "town_kana": "テラカド",
    "street": null,
    "office_name": null,
    "office_name_kana": null
  },
  "0123": {
    "postcode": "2960123",
    "prefecture": "千葉県",
    "prefecture_kana": "チバケン",
    "prefecture_code": 12,
    "city": "鴨川市",
    "city_kana": "カモガワシ",
    "town": "北風原",
    "town_kana": "ナライハラ",
    "street": null,
    "office_name": null,
    "office_name_kana": null
  },
  "0124": {
    "postcode": "2960124",
    "prefecture": "千葉県",
    "prefecture_kana": "チバケン",
    "prefecture_code": 12,
    "city": "鴨川市",
    "city_kana": "カモガワシ",
    "town": "大幡",
    "town_kana": "オオハタ",
    "street": null,
    "office_name": null,
    "office_name_kana": null
  },
  "0125": {
    "postcode": "2960125",
    "prefecture": "千葉県",
    "prefecture_kana": "チバケン",
    "prefecture_code": 12,
    "city": "鴨川市",
    "city_kana": "カモガワシ",
    "town": "横尾",
    "town_kana": "ヨコオ",
    "street": null,
    "office_name": null,
    "office_name_kana": null
  },
  "0126": {
    "postcode": "2960126",
    "prefecture": "千葉県",
    "prefecture_kana": "チバケン",
    "prefecture_code": 12,
    "city": "鴨川市",
    "city_kana": "カモガワシ",
    "town": "吉尾西",
    "town_kana": "ヨシオニシ",
    "street": null,
    "office_name": null,
    "office_name_kana": null
  },
  "0197": {
    "postcode": "2960197",
    "prefecture": "千葉県",
    "prefecture_kana": "チバケン",
    "prefecture_code": 12,
    "city": "鴨川市",
    "city_kana": "カモガワシ",
    "town": "北風原",
    "town_kana": "ナライハラ",
    "street": "９３８",
    "office_name": "ヤスダファインテ　株式会社",
    "office_name_kana": "ヤスダフアインテ カブシキガイシヤ"
  },
  "0231": {
    "postcode": "2960231",
    "prefecture": "千葉県",
    "prefecture_kana": "チバケン",
    "prefecture_code": 12,
    "city": "鴨川市",
    "city_kana": "カモガワシ",
    "town": "釜沼",
    "town_kana": "カマヌマ",
    "street": null,
    "office_name": null,
    "office_name_kana": null
  },
  "0232": {
    "postcode": "2960232",
    "prefecture": "千葉県",
    "prefecture_kana": "チバケン",
    "prefecture_code": 12,
    "city": "鴨川市",
    "city_kana": "カモガワシ",
    "town": "平塚",
    "town_kana": "ヒラツカ",
    "street": null,
    "office_name": null,
    "office_name_kana": null
  },
  "0233": {
    "postcode": "2960233",
    "prefecture": "千葉県",
    "prefecture_kana": "チバケン",
    "prefecture_code": 12,
    "city": "鴨川市",
    "city_kana": "カモガワシ",
    "town": "金束",
    "town_kana": "コヅカ",
    "street": null,
    "office_name": null,
    "office_name_kana": null
  },
  "0234": {
    "postcode": "2960234",
    "prefecture": "千葉県",
    "prefecture_kana": "チバケン",
    "prefecture_code": 12,
    "city": "鴨川市",
    "city_kana": "カモガワシ",
    "town": "古畑",
    "town_kana": "コバタ",
    "street": null,
    "office_name": null,
    "office_name_kana": null
  },
  "0235": {
    "postcode": "2960235",
    "prefecture": "千葉県",
    "prefecture_kana": "チバケン",
    "prefecture_code": 12,
    "city": "鴨川市",
    "city_kana": "カモガワシ",
    "town": "奈良林",
    "town_kana": "ナラバヤシ",
    "street": null,
    "office_name": null,
    "office_name_kana": null
  },
  "0236": {
    "postcode": "2960236",
    "prefecture": "千葉県",
    "prefecture_kana": "チバケン",
    "prefecture_code": 12,
    "city": "鴨川市",
    "city_kana": "カモガワシ",
    "town": "佐野",
    "town_kana": "サノ",
    "street": null,
    "office_name": null,
    "office_name_kana": null
  },
  "0237": {
    "postcode": "2960237",
    "prefecture": "千葉県",
    "prefecture_kana": "チバケン",
    "prefecture_code": 12,
    "city": "鴨川市",
    "city_kana": "カモガワシ",
    "town": "大山平塚",
    "town_kana": "オオヤマヒラツカ",
    "street": null,
    "office_name": null,
    "office_name_kana": null
  },
  "8601": {
    "postcode": "2968601",
    "prefecture": "千葉県",
    "prefecture_kana": "チバケン",
    "prefecture_code": 12,
    "city": "鴨川市",
    "city_kana": "カモガワシ",
    "town": "横渚",
    "town_kana": "ヨコスカ",
    "street": "１４５０（鴨川郵便局私書箱第７号）",
    "office_name": "鴨川市役所",
    "office_name_kana": "カモガワシヤクシヨ"
  },
  "8602": {
    "postcode": "2968602",
    "prefecture": "千葉県",
    "prefecture_kana": "チバケン",
    "prefecture_code": 12,
    "city": "鴨川市",
    "city_kana": "カモガワシ",
    "town": "東町",
    "town_kana": "ヒガシチョウ",
    "street": "９２９",
    "office_name": "医療法人　鉄蕉会　亀田総合病院",
    "office_name_kana": "イリヨウホウジン テツシヨウカイ カメダソウゴウビヨウイン"
  }
}