{
  "0101": {
    "postcode": "2990101",
    "prefecture": "千葉県",
    "prefecture_kana": "チバケン",
    "prefecture_code": 12,
    "city": "市原市",
    "city_kana": "イチハラシ",
    "town": "青柳北",
    "town_kana": "アオヤギキタ",
    "street": null,
    "office_name": null,
    "office_name_kana": null
  },
  "0102": {
    "postcode": "2990102",
    "prefecture": "千葉県",
    "prefecture_kana": "チバケン",
    "prefecture_code": 12,
    "city": "市原市",
    "city_kana": "イチハラシ",
    "town": "青柳",
    "town_kana": "アオヤギ",
    "street": null,
    "office_name": null,
    "office_name_kana": null
  },
  "0103": {
    "postcode": "2990103",
    "prefecture": "千葉県",
    "prefecture_kana": "チバケン",
    "prefecture_code": 12,
    "city": "市原市",
    "city_kana": "イチハラシ",
    "town": "青柳海岸",
    "town_kana": "アオヤギカイガン",
    "street": null,
    "office_name": null,
    "office_name_kana": null
  },
  "0104": {
    "postcode": "2990104",
    "prefecture": "千葉県",
    "prefecture_kana": "チバケン",
    "prefecture_code": 12,
    "city": "市原市",
    "city_kana": "イチハラシ",
    "town": "白塚",
    "town_kana": "シラツカ",
    "street": null,
    "office_name": null,
    "office_name_kana": null
  },
  "0105": {
    "postcode": "2990105",
    "prefecture": "千葉県",
    "prefecture_kana": "チバケン",
    "prefecture_code": 12,
    "city": "市原市",
    "city_kana": "イチハラシ",
    "town": "柏原",
    "town_kana": "カシワバラ",
    "street": null,
    "office_name": null,
    "office_name_kana": null
  },
  "0106": {
    "postcode": "2990106",
    "prefecture": "千葉県",
    "prefecture_kana": "チバケン",
    "prefecture_code": 12,
    "city": "市原市",
    "city_kana": "イチハラシ",
    "town": "今津朝山",
    "town_kana": "イマヅアサヤマ",
    "street": null,
    "office_name": null,
    "office_name_kana": null
  },
  "0107": {
    "postcode": "2990107",
    "prefecture": "千葉県",
    "prefecture_kana": "チバケン",
    "prefecture_code": 12,
    "city": "市原市",
    "city_kana": "イチハラシ",
    "town": "姉崎海岸",
    "town_kana": "アネサキカイガン",
    "street": null,
    "office_name": null,
    "office_name_kana": null
  },
  "0108": {
    "postcode": "2990108",
    "prefecture": "千葉県",
    "prefecture_kana": "チバケン",
    "prefecture_code": 12,
    "city": "市原市",
    "city_kana": "イチハラシ",
    "town": "千種海岸",
    "town_kana": "チグサカイガン",
    "street": null,
    "office_name": null,
    "office_name_kana": null
  },
  "0109": {
    "postcode": "2990109",
    "prefecture": "千葉県",
    "prefecture_kana": "チバケン",
    "prefecture_code": 12,
    "city": "市原市",
    "city_kana": "イチハラシ",
    "town": "千種",
    "town_kana": "チグサ",
    "street": null,
    "office_name": null,
    "office_name_kana": null
  },
  "0110": {
    "postcode": "2990110",
    "prefecture": "千葉県",
    "prefecture_kana": "チバケン",
    "prefecture_code": 12,
    "city": "市原市",
    "city_kana": "イチハラシ",
    "town": "姉崎東",
    "town_kana": "アネサキヒガシ",
    "street": null,
    "office_name": null,
    "office_name_kana": null
  },
  "0111": {
    "postcode": "2990111",
    "prefecture": "千葉県",
    "prefecture_kana": "チバケン",
    "prefecture_code": 12,
    "city": "市原市",
    "city_kana": "イチハラシ",
    "town": "姉崎",
    "town_kana": "アネサキ",
    "street": null,
    "office_name": null,
    "office_name_kana": null
  },
  "0112": {
    "postcode": "2990112",
    "prefecture": "千葉県",
    "prefecture_kana": "チバケン",
    "prefecture_code": 12,
    "city": "市原市",
    "city_kana": "イチハラシ",
    "town": "畑木",
    "town_kana": "ハタキ",
    "street": null,
    "office_name": null,
    "office_name_kana": null
  },
  "0113": {
    "postcode": "2990113",
    "prefecture": "千葉県",
    "prefecture_kana": "チバケン",
    "prefecture_code": 12,
    "city": "市原市",
    "city_kana": "イチハラシ",
    "town": "片又木",
    "town_kana": "カタマタギ",
    "street": null,
    "office_name": null,
    "office_name_kana": null
  },
  "0114": {
    "postcode": "2990114",
    "prefecture": "千葉県",
    "prefecture_kana": "チバケン",
    "prefecture_code": 12,
    "city": "市原市",
    "city_kana": "イチハラシ",
    "town": "泉台",
    "town_kana": "イズミダイ",
    "street": null,
    "office_name": null,
    "office_name_kana": null
  },
  "0115": {
    "postcode": "2990115",
    "prefecture": "千葉県",
    "prefecture_kana": "チバケン",
    "prefecture_code": 12,
    "city": "市原市",
    "city_kana": "イチハラシ",
    "town": "不入斗",
    "town_kana": "イリヤマズ",
    "street": null,
    "office_name": null,
    "office_name_kana": null
  },
  "0116": {
    "postcode": "2990116",
    "prefecture": "千葉県",
    "prefecture_kana": "チバケン",
    "prefecture_code": 12,
    "city": "市原市",
    "city_kana": "イチハラシ",
    "town": "迎田",
    "town_kana": "ムカエダ",
    "street": null,
    "office_name": null,
    "office_name_kana": null
  },
  "0117": {
    "postcode": "2990117",
    "prefecture": "千葉県",
    "prefecture_kana": "チバケン",
    "prefecture_code": 12,
    "city": "市原市",
    "city_kana": "イチハラシ",
    "town": "青葉台",
    "town_kana": "アオバダイ",
    "street": null,
    "office_name": null,
    "office_name_kana": null
  },
  "0118": {
    "postcode": "2990118",
    "prefecture": "千葉県",
    "prefecture_kana": "チバケン",
    "prefecture_code": 12,
    "city": "市原市",
    "city_kana": "イチハラシ",
    "town": "椎津",
    "town_kana": "シイヅ",
    "street": null,
    "office_name": null,
    "office_name_kana": null
  },
  "0119": {
    "postcode": "2990119",
    "prefecture": "千葉県",
    "prefecture_kana": "チバケン",
    "prefecture_code": 12,
    "city": "市原市",
    "city_kana": "イチハラシ",
    "town": "姉崎西",
    "town_kana": "アネサキニシ",
    "street": null,
    "office_name": null,
    "office_name_kana": null
  },
  "0121": {
    "postcode": "2990121",
    "prefecture": "千葉県",
    "prefecture_kana": "チバケン",
    "prefecture_code": 12,
    "city": "市原市",
    "city_kana": "イチハラシ",
    "town": "立野",
    "town_kana": "タテノ",
    "street": null,
    "office_name": null,
    "office_name_kana": null
  },
  "0122": {
    "postcode": "2990122",
    "prefecture": "千葉県",
    "prefecture_kana": "チバケン",
    "prefecture_code": 12,
    "city": "市原市",
    "city_kana": "イチハラシ",
    "town": "豊成",
    "town_kana": "トヨナリ",
    "street": null,
    "office_name": null,
    "office_name_kana": null
  },
  "0123": {
    "postcode": "2990123",
    "prefecture": "千葉県",
    "prefecture_kana": "チバケン",
    "prefecture_code": 12,
    "city": "市原市",
    "city_kana": "イチハラシ",
    "town": "深城",
    "town_kana": "フカシロ",
    "street": null,
    "office_name": null,
    "office_name_kana": null
  },
  "0124": {
    "postcode": "2990124",
    "prefecture": "千葉県",
    "prefecture_kana": "チバケン",
    "prefecture_code": 12,
    "city": "市原市",
    "city_kana": "イチハラシ",
    "town": "有秋台東",
    "town_kana": "ユウシュウダイヒガシ",
    "street": null,
    "office_name": null,
    "office_name_kana": null
  },
  "0125": {
    "postcode": "2990125",
    "prefecture": "千葉県",
    "prefecture_kana": "チバケン",
    "prefecture_code": 12,
    "city": "市原市",
    "city_kana": "イチハラシ",
    "town": "有秋台西",
    "town_kana": "ユウシュウダイニシ",
    "street": null,
    "office_name": null,
    "office_name_kana": null
  },
  "0126": {
    "postcode": "2990126",
    "prefecture": "千葉県",
    "prefecture_kana": "チバケン",
    "prefecture_code": 12,
    "city": "市原市",
    "city_kana": "イチハラシ",
    "town": "天羽田",
    "town_kana": "アモウダ",
    "street": null,
    "office_name": null,
    "office_name_kana": null
  },
  "0127": {
    "postcode": "2990127",
    "prefecture": "千葉県",
    "prefecture_kana": "チバケン",
    "prefecture_code": 12,
    "city": "市原市",
    "city_kana": "イチハラシ",
    "town": "桜台",
    "town_kana": "サクラダイ",
    "street": null,
    "office_name": null,
    "office_name_kana": null
  },
  "0128": {
    "postcode": "2990128",
    "prefecture": "千葉県",
    "prefecture_kana": "チバケン",
    "prefecture_code": 12,
    "city": "市原市",
    "city_kana": "イチハラシ",
    "town": "椎の木台",
    "town_kana": "シイノキダイ",
    "street": null,
    "office_name": null,
    "office_name_kana": null
  },
  "0192": {
    "postcode": "2990192",
    "prefecture": "千葉県",
    "prefecture_kana": "チバケン",
    "prefecture_code": 12,
    "city": "市原市",
    "city_kana": "イチハラシ",
    "town": "姉崎海岸",
    "town_kana": "アネサキカイガン",
    "street": "２番地１",
    "office_name": "出光興産　株式会社　千葉事業所",
    "office_name_kana": "イデミツコウサン カブシキガイシヤ チバジギヨウシヨ"
  },
  "0194": {
    "postcode": "2990194",
    "prefecture": "千葉県",
    "prefecture_kana": "チバケン",
    "prefecture_code": 12,
    "city": "市原市",
    "city_kana": "イチハラシ",
    "town": "姉崎海岸",
    "town_kana": "アネサキカイガン",
    "street": "２−１",
    "office_name": "出光エンジニアリング　株式会社　千葉事業所",
    "office_name_kana": "イデミツエンジニアリング カブシキガイシヤ チバジギヨウシヨ"
  },
  "0195": {
    "postcode": "2990195",
    "prefecture": "千葉県",
    "prefecture_kana": "チバケン",
    "prefecture_code": 12,
    "city": "市原市",
    "city_kana": "イチハラシ",
    "town": "姉崎海岸",
    "town_kana": "アネサキカイガン",
    "street": "５−１",
    "office_name": "住友化学工業　株式会社　千葉工場",
    "office_name_kana": "スミトモカガクコウギヨウ カブシキガイシヤ チバコウジヨウ"
  },
  "0196": {
    "postcode": "2990196",
    "prefecture": "千葉県",
    "prefecture_kana": "チバケン",
    "prefecture_code": 12,
    "city": "市原市",
    "city_kana": "イチハラシ",
    "town": "千種海岸",
    "town_kana": "チグサカイガン",
    "street": "２の１",
    "office_name": "東レ　株式会社　千葉工場",
    "office_name_kana": "トウレ カブシキガイシヤ チバコウジヨウ"
  },
  "0197": {
    "postcode": "2990197",
    "prefecture": "千葉県",
    "prefecture_kana": "チバケン",
    "prefecture_code": 12,
    "city": "市原市",
    "city_kana": "イチハラシ",
    "town": "姉崎海岸",
    "town_kana": "アネサキカイガン",
    "street": "６",
    "office_name": "日本板硝子　株式会社　千葉工場",
    "office_name_kana": "ニホンイタガラズ カブシキガイシヤ チバコウジヨウ"
  },
  "0198": {
    "postcode": "2990198",
    "prefecture": "千葉県",
    "prefecture_kana": "チバケン",
    "prefecture_code": 12,
    "city": "市原市",
    "city_kana": "イチハラシ",
    "town": "姉崎海岸",
    "town_kana": "アネサキカイガン",
    "street": "１−３",
    "office_name": "出光千葉建設保全協力会センター",
    "office_name_kana": "イデミツチバケンセツホゼンキヨウリヨクカイセンタ-"
  },
  "0200": {
    "postcode": "2990200",
    "prefecture": "千葉県",
    "prefecture_kana": "チバケン",
    "prefecture_code": 12,
    "city": "袖ケ浦市",
    "city_kana": "ソデガウラシ",
    "town": "",
    "town_kana": "",
    "street": null,
    "office_name": null,
    "office_name_kana": null
  },
  "0201": {
    "postcode": "2990201",
    "prefecture": "千葉県",
    "prefecture_kana": "チバケン",
    "prefecture_code": 12,
    "city": "袖ケ浦市",
    "city_kana": "ソデガウラシ",
    "town": "川原井",
    "town_kana": "カワハライ",
    "street": null,
    "office_name": null,
    "office_name_kana": null
  },
  "0202": {
    "postcode": "2990202",
    "prefecture": "千葉県",
    "prefecture_kana": "チバケン",
    "prefecture_code": 12,
    "city": "袖ケ浦市",
    "city_kana": "ソデガウラシ",
    "town": "林",
    "town_kana": "ハヤシ",
    "street": null,
    "office_name": null,
    "office_name_kana": null
  },
  "0203": {
    "postcode": "2990203",
    "prefecture": "千葉県",
    "prefecture_kana": "チバケン",
    "prefecture_code": 12,
    "city": "袖ケ浦市",
    "city_kana": "ソデガウラシ",
    "town": "高谷",
    "town_kana": "タカヤ",
    "street": null,
    "office_name": null,
    "office_name_kana": null
  },
  "0204": {
    "postcode": "2990204",
    "prefecture": "千葉県",
    "prefecture_kana": "チバケン",
    "prefecture_code": 12,
    "city": "袖ケ浦市",
    "city_kana": "ソデガウラシ",
    "town": "永吉",
    "town_kana": "ナガヨシ",
    "street": null,
    "office_name": null,
    "office_name_kana": null
  },
  "0205": {
    "postcode": "2990205",
    "prefecture": "千葉県",
    "prefecture_kana": "チバケン",
    "prefecture_code": 12,
    "city": "袖ケ浦市",
    "city_kana": "ソデガウラシ",
    "town": "上泉",
    "town_kana": "カミイズミ",
    "street": null,
    "office_name": null,
    "office_name_kana": null
  },
  "0211": {
    "postcode": "2990211",
    "prefecture": "千葉県",
    "prefecture_kana": "チバケン",
    "prefecture_code": 12,
    "city": "袖ケ浦市",
    "city_kana": "ソデガウラシ",
    "town": "野里",
    "town_kana": "ノザト",
    "street": null,
    "office_name": null,
    "office_name_kana": null
  },
  "0212": {
    "postcode": "2990212",
    "prefecture": "千葉県",
    "prefecture_kana": "チバケン",
    "prefecture_code": 12,
    "city": "袖ケ浦市",
    "city_kana": "ソデガウラシ",
    "town": "三箇",
    "town_kana": "サンガ",
    "street": null,
    "office_name": null,
    "office_name_kana": null
  },
  "0213": {
    "postcode": "2990213",
    "prefecture": "千葉県",
    "prefecture_kana": "チバケン",
    "prefecture_code": 12,
    "city": "袖ケ浦市",
    "city_kana": "ソデガウラシ",
    "town": "百目木",
    "town_kana": "ドウメキ",
    "street": null,
    "office_name": null,
    "office_name_kana": null
  },
  "0214": {
    "postcode": "2990214",
    "prefecture": "千葉県",
    "prefecture_kana": "チバケン",
    "prefecture_code": 12,
    "city": "袖ケ浦市",
    "city_kana": "ソデガウラシ",
    "town": "下根岸",
    "town_kana": "シモネギシ",
    "street": null,
    "office_name": null,
    "office_name_kana": null
  },
  "0215": {
    "postcode": "2990215",
    "prefecture": "千葉県",
    "prefecture_kana": "チバケン",
    "prefecture_code": 12,
    "city": "袖ケ浦市",
    "city_kana": "ソデガウラシ",
    "town": "堂谷",
    "town_kana": "ドウヤツ",
    "street": null,
    "office_name": null,
    "office_name_kana": null
  },
  "0216": {
    "postcode": "2990216",
    "prefecture": "千葉県",
    "prefecture_kana": "チバケン",
    "prefecture_code": 12,
    "city": "袖ケ浦市",
    "city_kana": "ソデガウラシ",
    "town": "阿部",
    "town_kana": "アベ",
    "street": null,
    "office_name": null,
    "office_name_kana": null
  },
  "0217": {
    "postcode": "2990217",
    "prefecture": "千葉県",
    "prefecture_kana": "チバケン",
    "prefecture_code": 12,
    "city": "袖ケ浦市",
    "city_kana": "ソデガウラシ",
    "town": "打越",
    "town_kana": "ウチコシ",
    "street": null,
    "office_name": null,
    "office_name_kana": null
  },
  "0221": {
    "postcode": "2990221",
    "prefecture": "千葉県",
    "prefecture_kana": "チバケン",
    "prefecture_code": 12,
    "city": "袖ケ浦市",
    "city_kana": "ソデガウラシ",
    "town": "大竹",
    "town_kana": "オオタケ",
    "street": null,
    "office_name": null,
    "office_name_kana": null
  },
  "0222": {
    "postcode": "2990222",
    "prefecture": "千葉県",
    "prefecture_kana": "チバケン",
    "prefecture_code": 12,
    "city": "袖ケ浦市",
    "city_kana": "ソデガウラシ",
    "town": "上宮田",
    "town_kana": "カミミヤダ",
    "street": null,
    "office_name": null,
    "office_name_kana": null
  },
  "0223": {
    "postcode": "2990223",
    "prefecture": "千葉県",
    "prefecture_kana": "チバケン",
    "prefecture_code": 12,
    "city": "袖ケ浦市",
    "city_kana": "ソデガウラシ",
    "town": "下宮田",
    "town_kana": "シモミヤダ",
    "street": null,
    "office_name": null,
    "office_name_kana": null
  },
  "0224": {
    "postcode": "2990224",
    "prefecture": "千葉県",
    "prefecture_kana": "チバケン",
    "prefecture_code": 12,
    "city": "袖ケ浦市",
    "city_kana": "ソデガウラシ",
    "town": "吉野田",
    "town_kana": "ヨシノダ",
    "street": null,
    "office_name": null,
    "office_name_kana": null
  },
  "0225": {
    "postcode": "2990225",
    "prefecture": "千葉県",
    "prefecture_kana": "チバケン",
    "prefecture_code": 12,
    "city": "袖ケ浦市",
    "city_kana": "ソデガウラシ",
    "town": "玉野",
    "town_kana": "タマノ",
    "street": null,
    "office_name": null,
    "office_name_kana": null
  },
  "0226": {
    "postcode": "2990226",
    "prefecture": "千葉県",
    "prefecture_kana": "チバケン",
    "prefecture_code": 12,
    "city": "袖ケ浦市",
    "city_kana": "ソデガウラシ",
    "town": "滝の口",
    "town_kana": "タキノクチ",
    "street": null,
    "office_name": null,
    "office_name_kana": null
  },
  "0231": {
    "postcode": "2990231",
    "prefecture": "千葉県",
    "prefecture_kana": "チバケン",
    "prefecture_code": 12,
    "city": "袖ケ浦市",
    "city_kana": "ソデガウラシ",
    "town": "下泉",
    "town_kana": "シモイズミ",
    "street": null,
    "office_name": null,
    "office_name_kana": null
  },
  "0232": {
    "postcode": "2990232",
    "prefecture": "千葉県",
    "prefecture_kana": "チバケン",
    "prefecture_code": 12,
    "city": "袖ケ浦市",
    "city_kana": "ソデガウラシ",
    "town": "永地",
    "town_kana": "エイチ",
    "street": null,
    "office_name": null,
    "office_name_kana": null
  },
  "0233": {
    "postcode": "2990233",
    "prefecture": "千葉県",
    "prefecture_kana": "チバケン",
    "prefecture_code": 12,
    "city": "袖ケ浦市",
    "city_kana": "ソデガウラシ",
    "town": "岩井",
    "town_kana": "イワイ",
    "street": null,
    "office_name": null,
    "office_name_kana": null
  },
  "0234": {
    "postcode": "2990234",
    "prefecture": "千葉県",
    "prefecture_kana": "チバケン",
    "prefecture_code": 12,
    "city": "袖ケ浦市",
    "city_kana": "ソデガウラシ",
    "town": "谷中",
    "town_kana": "ヤナカ",
    "street": null,
    "office_name": null,
    "office_name_kana": null
  },
  "0235": {
    "postcode": "2990235",
    "prefecture": "千葉県",
    "prefecture_kana": "チバケン",
    "prefecture_code": 12,
    "city": "袖ケ浦市",
    "city_kana": "ソデガウラシ",
    "town": "三黒",
    "town_kana": "ミクロ",
    "street": null,
    "office_name": null,
    "office_name_kana": null
  },
  "0236": {
    "postcode": "2990236",
    "prefecture": "千葉県",
    "prefecture_kana": "チバケン",
    "prefecture_code": 12,
    "city": "袖ケ浦市",
    "city_kana": "ソデガウラシ",
    "town": "横田",
    "town_kana": "ヨコタ",
    "street": null,
    "office_name": null,
    "office_name_kana": null
  },
  "0237": {
    "postcode": "2990237",
    "prefecture": "千葉県",
    "prefecture_kana": "チバケン",
    "prefecture_code": 12,
    "city": "袖ケ浦市",
    "city_kana": "ソデガウラシ",
    "town": "大鳥居",
    "town_kana": "オオドリイ",
    "street": null,
    "office_name": null,
    "office_name_kana": null
  },
  "0241": {
    "postcode": "2990241",
    "prefecture": "千葉県",
    "prefecture_kana": "チバケン",
    "prefecture_code": 12,
    "city": "袖ケ浦市",
    "city_kana": "ソデガウラシ",
    "town": "代宿",
    "town_kana": "ダイジュク",
    "street": null,
    "office_name": null,
    "office_name_kana": null
  },
  "0242": {
    "postcode": "2990242",
    "prefecture": "千葉県",
    "prefecture_kana": "チバケン",
    "prefecture_code": 12,
    "city": "袖ケ浦市",
    "city_kana": "ソデガウラシ",
    "town": "久保田",
    "town_kana": "クボタ",
    "street": null,
    "office_name": null,
    "office_name_kana": null
  },
  "0243": {
    "postcode": "2990243",
    "prefecture": "千葉県",
    "prefecture_kana": "チバケン",
    "prefecture_code": 12,
    "city": "袖ケ浦市",
    "city_kana": "ソデガウラシ",
    "town": "蔵波",
    "town_kana": "クラナミ",
    "street": null,
    "office_name": null,
    "office_name_kana": null
  },
  "0244": {
    "postcode": "2990244",
    "prefecture": "千葉県",
    "prefecture_kana": "チバケン",
    "prefecture_code": 12,
    "city": "袖ケ浦市",
    "city_kana": "ソデガウラシ",
    "town": "野田",
    "town_kana": "ノダ",
    "street": null,
    "office_name": null,
    "office_name_kana": null
  },
  "0245": {
    "postcode": "2990245",
    "prefecture": "千葉県",
    "prefecture_kana": "チバケン",
    "prefecture_code": 12,
    "city": "袖ケ浦市",
    "city_kana": "ソデガウラシ",
    "town": "蔵波台",
    "town_kana": "クラナミダイ",
    "street": null,
    "office_name": null,
    "office_name_kana": null
  },
  "0246": {
    "postcode": "2990246",
    "prefecture": "千葉県",
    "prefecture_kana": "チバケン",
    "prefecture_code": 12,
    "city": "袖ケ浦市",
    "city_kana": "ソデガウラシ",
    "town": "長浦駅前",
    "town_kana": "ナガウラエキマエ",
    "street": null,
    "office_name": null,
    "office_name_kana": null
  },
  "0247": {
    "postcode": "2990247",
    "prefecture": "千葉県",
    "prefecture_kana": "チバケン",
    "prefecture_code": 12,
    "city": "袖ケ浦市",
    "city_kana": "ソデガウラシ",
    "town": "椎の森",
    "town_kana": "シイノモリ",
    "street": null,
    "office_name": null,
    "office_name_kana": null
  },
  "0251": {
    "postcode": "2990251",
    "prefecture": "千葉県",
    "prefecture_kana": "チバケン",
    "prefecture_code": 12,
    "city": "袖ケ浦市",
    "city_kana": "ソデガウラシ",
    "town": "のぞみ野",
    "town_kana": "ノゾミノ",
    "street": null,
    "office_name": null,
    "office_name_kana": null
  },
  "0252": {
    "postcode": "2990252",
    "prefecture": "千葉県",
    "prefecture_kana": "チバケン",
    "prefecture_code": 12,
    "city": "袖ケ浦市",
    "city_kana": "ソデガウラシ",
    "town": "勝",
    "town_kana": "カツ",
    "street": null,
    "office_name": null,
    "office_name_kana": null
  },
  "0253": {
    "postcode": "2990253",
    "prefecture": "千葉県",
    "prefecture_kana": "チバケン",
    "prefecture_code": 12,
    "city": "袖ケ浦市",
    "city_kana": "ソデガウラシ",
    "town": "大曽根",
    "town_kana": "オゾネ",
    "street": null,
    "office_name": null,
    "office_name_kana": null
  },
  "0254": {
    "postcode": "2990254",
    "prefecture": "千葉県",
    "prefecture_kana": "チバケン",
    "prefecture_code": 12,
    "city": "袖ケ浦市",
    "city_kana": "ソデガウラシ",
    "town": "三ツ作",
    "town_kana": "ミツザク",
    "street": null,
    "office_name": null,
    "office_name_kana": null
  },
  "0255": {
    "postcode": "2990255",
    "prefecture": "千葉県",
    "prefecture_kana": "チバケン",
    "prefecture_code": 12,
    "city": "袖ケ浦市",
    "city_kana": "ソデガウラシ",
    "town": "下新田",
    "town_kana": "シモニッタ",
    "street": null,
    "office_name": null,
    "office_name_kana": null
  },
  "0256": {
    "postcode": "2990256",
    "prefecture": "千葉県",
    "prefecture_kana": "チバケン",
    "prefecture_code": 12,
    "city": "袖ケ浦市",
    "city_kana": "ソデガウラシ",
    "town": "飯富",
    "town_kana": "イイトミ",
    "street": null,
    "office_name": null,
    "office_name_kana": null
  },
  "0257": {
    "postcode": "2990257",
    "prefecture": "千葉県",
    "prefecture_kana": "チバケン",
    "prefecture_code": 12,
    "city": "袖ケ浦市",
    "city_kana": "ソデガウラシ",
    "town": "神納",
    "town_kana": "カンノウ",
    "street": null,
    "office_name": null,
    "office_name_kana": null
  },
  "0261": {
    "postcode": "2990261",
    "prefecture": "千葉県",
    "prefecture_kana": "チバケン",
    "prefecture_code": 12,
    "city": "袖ケ浦市",
    "city_kana": "ソデガウラシ",
    "town": "福王台",
    "town_kana": "フクオウダイ",
    "street": null,
    "office_name": null,
    "office_name_kana": null
  },
  "0262": {
    "postcode": "2990262",
    "prefecture": "千葉県",
    "prefecture_kana": "チバケン",
    "prefecture_code": 12,
    "city": "袖ケ浦市",
    "city_kana": "ソデガウラシ",
    "town": "坂戸市場",
    "town_kana": "サカドイチバ",
    "street": null,
    "office_name": null,
    "office_name_kana": null
  },
  "0263": {
    "postcode": "2990263",
    "prefecture": "千葉県",
    "prefecture_kana": "チバケン",
    "prefecture_code": 12,
    "city": "袖ケ浦市",
    "city_kana": "ソデガウラシ",
    "town": "奈良輪",
    "town_kana": "ナラワ",
    "street": null,
    "office_name": null,
    "office_name_kana": null
  },
  "0264": {
    "postcode": "2990264",
    "prefecture": "千葉県",
    "prefecture_kana": "チバケン",
    "prefecture_code": 12,
    "city": "袖ケ浦市",
    "city_kana": "ソデガウラシ",
    "town": "今井",
    "town_kana": "イマイ",
    "street": null,
    "office_name": null,
    "office_name_kana": null
  },
  "0265": {
    "postcode": "2990265",
    "prefecture": "千葉県",
    "prefecture_kana": "チバケン",
    "prefecture_code": 12,
    "city": "袖ケ浦市",
    "city_kana": "ソデガウラシ",
    "town": "長浦",
    "town_kana": "ナガウラ",
    "street": null,
    "office_name": null,
    "office_name_kana": null
  },
  "0266": {
    "postcode": "2990266",
    "prefecture": "千葉県",
    "prefecture_kana": "チバケン",
    "prefecture_code": 12,
    "city": "袖ケ浦市",
    "city_kana": "ソデガウラシ",
    "town": "北袖",
    "town_kana": "キタソデ",
    "street": null,
    "office_name": null,
    "office_name_kana": null
  },
  "0267": {
    "postcode": "2990267",
    "prefecture": "千葉県",
    "prefecture_kana": "チバケン",
    "prefecture_code": 12,
    "city": "袖ケ浦市",
    "city_kana": "ソデガウラシ",
    "town": "中袖",
    "town_kana": "ナカソデ",
    "street": null,
    "office_name": null,
    "office_name_kana": null
  },
  "0268": {
    "postcode": "2990268",
    "prefecture": "千葉県",
    "prefecture_kana": "チバケン",
    "prefecture_code": 12,
    "city": "袖ケ浦市",
    "city_kana": "ソデガウラシ",
    "town": "南袖",
    "town_kana": "ミナミソデ",
    "street": null,
    "office_name": null,
    "office_name_kana": null
  },
  "0269": {
    "postcode": "2990269",
    "prefecture": "千葉県",
    "prefecture_kana": "チバケン",
    "prefecture_code": 12,
    "city": "袖ケ浦市",
    "city_kana": "ソデガウラシ",
    "town": "袖ケ浦駅前",
    "town_kana": "ソデガウラエキマエ",
    "street": null,
    "office_name": null,
    "office_name_kana": null
  },
  "0271": {
    "postcode": "2990271",
    "prefecture": "千葉県",
    "prefecture_kana": "チバケン",
    "prefecture_code": 12,
    "city": "木更津市",
    "city_kana": "キサラヅシ",
    "town": "坂戸市場",
    "town_kana": "サカドイチバ",
    "street": null,
    "office_name": null,
    "office_name_kana": null
  },
  "0292": {
    "postcode": "2990292",
    "prefecture": "千葉県",
    "prefecture_kana": "チバケン",
    "prefecture_code": 12,
    "city": "袖ケ浦市",
    "city_kana": "ソデガウラシ",
    "town": "坂戸市場",
    "town_kana": "サカドイチバ",
    "street": "１−１",
    "office_name": "袖ケ浦市役所",
    "office_name_kana": "ソデガウラシヤクシヨ"
  },
  "0293": {
    "postcode": "2990293",
    "prefecture": "千葉県",
    "prefecture_kana": "チバケン",
    "prefecture_code": 12,
    "city": "袖ケ浦市",
    "city_kana": "ソデガウラシ",
    "town": "上泉",
    "town_kana": "カミイズミ",
    "street": "１２８０",
    "office_name": "出光興産　株式会社　先進技術研究所",
    "office_name_kana": "イデミツコウサン カブシキガイシヤ センシンギジユツケンキユウジヨ"
  },
  "0295": {
    "postcode": "2990295",
    "prefecture": "千葉県",
    "prefecture_kana": "チバケン",
    "prefecture_code": 12,
    "city": "袖ケ浦市",
    "city_kana": "ソデガウラシ",
    "town": "北袖",
    "town_kana": "キタソデ",
    "street": "９−１",
    "office_name": "住友化学　株式会社　千葉工場",
    "office_name_kana": "スミトモカガク カブシキカイシヤ チバコウジヨウ"
  },
  "0296": {
    "postcode": "2990296",
    "prefecture": "千葉県",
    "prefecture_kana": "チバケン",
    "prefecture_code": 12,
    "city": "袖ケ浦市",
    "city_kana": "ソデガウラシ",
    "town": "中袖",
    "town_kana": "ナカソデ",
    "street": "２０−１",
    "office_name": "株式会社　荏原製作所　袖ヶ浦事業所",
    "office_name_kana": "カブシキガイシヤ エバラセイサクシヨ ソデガウラジギヨウシヨ"
  },
  "0297": {
    "postcode": "2990297",
    "prefecture": "千葉県",
    "prefecture_kana": "チバケン",
    "prefecture_code": 12,
    "city": "袖ケ浦市",
    "city_kana": "ソデガウラシ",
    "town": "中袖",
    "town_kana": "ナカソデ",
    "street": "５−１",
    "office_name": "旭化成ケミカルズ　株式会社　川崎製造所　千葉工場",
    "office_name_kana": "アサヒカセイケミカルズ カブシキガイシヤ カワサキセイゾウシヨ チバコウジヨウ"
  },
  "0298": {
    "postcode": "2990298",
    "prefecture": "千葉県",
    "prefecture_kana": "チバケン",
    "prefecture_code": 12,
    "city": "袖ケ浦市",
    "city_kana": "ソデガウラシ",
    "town": "蔵波",
    "town_kana": "クラナミ",
    "street": "３１０８−１",
    "office_name": "社会福祉法人　千葉県社会福祉事業団",
    "office_name_kana": "シヤカイフクシホウジン チバケンシヤカイフクシジギヨウダン"
  },
  "1100": {
    "postcode": "2991100",
    "prefecture": "千葉県",
    "prefecture_kana": "チバケン",
    "prefecture_code": 12,
    "city": "君津市",
    "city_kana": "キミツシ",
    "town": "",
    "town_kana": "",
    "street": null,
    "office_name": null,
    "office_name_kana": null
  },
  "1101": {
    "postcode": "2991101",
    "prefecture": "千葉県",
    "prefecture_kana": "チバケン",
    "prefecture_code": 12,
    "city": "君津市",
    "city_kana": "キミツシ",
    "town": "大鷲新田",
    "town_kana": "オオワシシンデン",
    "street": null,
    "office_name": null,
    "office_name_kana": null
  },
  "1102": {
    "postcode": "2991102",
    "prefecture": "千葉県",
    "prefecture_kana": "チバケン",
    "prefecture_code": 12,
    "city": "君津市",
    "city_kana": "キミツシ",
    "town": "大鷲",
    "town_kana": "オオワシ",
    "street": null,
    "office_name": null,
    "office_name_kana": null
  },
  "1103": {
    "postcode": "2991103",
    "prefecture": "千葉県",
    "prefecture_kana": "チバケン",
    "prefecture_code": 12,
    "city": "君津市",
    "city_kana": "キミツシ",
    "town": "大井",
    "town_kana": "オオイ",
    "street": null,
    "office_name": null,
    "office_name_kana": null
  },
  "1104": {
    "postcode": "2991104",
    "prefecture": "千葉県",
    "prefecture_kana": "チバケン",
    "prefecture_code": 12,
    "city": "君津市",
    "city_kana": "キミツシ",
    "town": "糠田",
    "town_kana": "ヌカタ",
    "street": null,
    "office_name": null,
    "office_name_kana": null
  },
  "1105": {
    "postcode": "2991105",
    "prefecture": "千葉県",
    "prefecture_kana": "チバケン",
    "prefecture_code": 12,
    "city": "君津市",
    "city_kana": "キミツシ",
    "town": "白駒",
    "town_kana": "シロコマ",
    "street": null,
    "office_name": null,
    "office_name_kana": null
  },
  "1106": {
    "postcode": "2991106",
    "prefecture": "千葉県",
    "prefecture_kana": "チバケン",
    "prefecture_code": 12,
    "city": "君津市",
    "city_kana": "キミツシ",
    "town": "中島",
    "town_kana": "ナカジマ",
    "street": null,
    "office_name": null,
    "office_name_kana": null
  },
  "1107": {
    "postcode": "2991107",
    "prefecture": "千葉県",
    "prefecture_kana": "チバケン",
    "prefecture_code": 12,
    "city": "君津市",
    "city_kana": "キミツシ",
    "town": "上",
    "town_kana": "カミ",
    "street": null,
    "office_name": null,
    "office_name_kana": null
  },
  "1108": {
    "postcode": "2991108",
    "prefecture": "千葉県",
    "prefecture_kana": "チバケン",
    "prefecture_code": 12,
    "city": "君津市",
    "city_kana": "キミツシ",
    "town": "練木",
    "town_kana": "ネリキ",
    "street": null,
    "office_name": null,
    "office_name_kana": null
  },
  "1111": {
    "postcode": "2991111",
    "prefecture": "千葉県",
    "prefecture_kana": "チバケン",
    "prefecture_code": 12,
    "city": "君津市",
    "city_kana": "キミツシ",
    "town": "六手",
    "town_kana": "ムテ",
    "street": null,
    "office_name": null,
    "office_name_kana": null
  },
  "1112": {
    "postcode": "2991112",
    "prefecture": "千葉県",
    "prefecture_kana": "チバケン",
    "prefecture_code": 12,
    "city": "君津市",
    "city_kana": "キミツシ",
    "town": "泉",
    "town_kana": "イズミ",
    "street": null,
    "office_name": null,
    "office_name_kana": null
  },
  "1113": {
    "postcode": "2991113",
    "prefecture": "千葉県",
    "prefecture_kana": "チバケン",
    "prefecture_code": 12,
    "city": "君津市",
    "city_kana": "キミツシ",
    "town": "尾車",
    "town_kana": "ビシャ",
    "street": null,
    "office_name": null,
    "office_name_kana": null
  },
  "1114": {
    "postcode": "2991114",
    "prefecture": "千葉県",
    "prefecture_kana": "チバケン",
    "prefecture_code": 12,
    "city": "君津市",
    "city_kana": "キミツシ",
    "town": "草牛",
    "town_kana": "ソウギュウ",
    "street": null,
    "office_name": null,
    "office_name_kana": null
  },
  "1115": {
    "postcode": "2991115",
    "prefecture": "千葉県",
    "prefecture_kana": "チバケン",
    "prefecture_code": 12,
    "city": "君津市",
    "city_kana": "キミツシ",
    "town": "馬登",
    "town_kana": "マノボリ",
    "street": null,
    "office_name": null,
    "office_name_kana": null
  },
  "1116": {
    "postcode": "2991116",
    "prefecture": "千葉県",
    "prefecture_kana": "チバケン",
    "prefecture_code": 12,
    "city": "君津市",
    "city_kana": "キミツシ",
    "town": "皿引",
    "town_kana": "サラヒキ",
    "street": null,
    "office_name": null,
    "office_name_kana": null
  },
  "1117": {
    "postcode": "2991117",
    "prefecture": "千葉県",
    "prefecture_kana": "チバケン",
    "prefecture_code": 12,
    "city": "君津市",
    "city_kana": "キミツシ",
    "town": "宮下",
    "town_kana": "ミヤノシタ",
    "street": null,
    "office_name": null,
    "office_name_kana": null
  },
  "1121": {
    "postcode": "2991121",
    "prefecture": "千葉県",
    "prefecture_kana": "チバケン",
    "prefecture_code": 12,
    "city": "君津市",
    "city_kana": "キミツシ",
    "town": "常代",
    "town_kana": "トコシロ",
    "street": null,
    "office_name": null,
    "office_name_kana": null
  },
  "1122": {
    "postcode": "2991122",
    "prefecture": "千葉県",
    "prefecture_kana": "チバケン",
    "prefecture_code": 12,
    "city": "君津市",
    "city_kana": "キミツシ",
    "town": "浜子",
    "town_kana": "ハマゴ",
    "street": null,
    "office_name": null,
    "office_name_kana": null
  },
  "1123": {
    "postcode": "2991123",
    "prefecture": "千葉県",
    "prefecture_kana": "チバケン",
    "prefecture_code": 12,
    "city": "君津市",
    "city_kana": "キミツシ",
    "town": "大山野",
    "town_kana": "オオヤマノ",
    "street": null,
    "office_name": null,
    "office_name_kana": null
  },
  "1124": {
    "postcode": "2991124",
    "prefecture": "千葉県",
    "prefecture_kana": "チバケン",
    "prefecture_code": 12,
    "city": "君津市",
    "city_kana": "キミツシ",
    "town": "作木",
    "town_kana": "ツクリキ",
    "street": null,
    "office_name": null,
    "office_name_kana": null
  },
  "1125": {
    "postcode": "2991125",
    "prefecture": "千葉県",
    "prefecture_kana": "チバケン",
    "prefecture_code": 12,
    "city": "君津市",
    "city_kana": "キミツシ",
    "town": "山高原",
    "town_kana": "ヤマタカハラ",
    "street": null,
    "office_name": null,
    "office_name_kana": null
  },
  "1126": {
    "postcode": "2991126",
    "prefecture": "千葉県",
    "prefecture_kana": "チバケン",
    "prefecture_code": 12,
    "city": "君津市",
    "city_kana": "キミツシ",
    "town": "小山野",
    "town_kana": "コヤマノ",
    "street": null,
    "office_name": null,
    "office_name_kana": null
  },
  "1127": {
    "postcode": "2991127",
    "prefecture": "千葉県",
    "prefecture_kana": "チバケン",
    "prefecture_code": 12,
    "city": "君津市",
    "city_kana": "キミツシ",
    "town": "郡",
    "town_kana": "コオリ",
    "street": null,
    "office_name": null,
    "office_name_kana": null
  },
  "1131": {
    "postcode": "2991131",
    "prefecture": "千葉県",
    "prefecture_kana": "チバケン",
    "prefecture_code": 12,
    "city": "君津市",
    "city_kana": "キミツシ",
    "town": "下湯江",
    "town_kana": "シモユエ",
    "street": null,
    "office_name": null,
    "office_name_kana": null
  },
  "1132": {
    "postcode": "2991132",
    "prefecture": "千葉県",
    "prefecture_kana": "チバケン",
    "prefecture_code": 12,
    "city": "君津市",
    "city_kana": "キミツシ",
    "town": "中富",
    "town_kana": "ナカトミ",
    "street": null,
    "office_name": null,
    "office_name_kana": null
  },
  "1133": {
    "postcode": "2991133",
    "prefecture": "千葉県",
    "prefecture_kana": "チバケン",
    "prefecture_code": 12,
    "city": "君津市",
    "city_kana": "キミツシ",
    "town": "貞元",
    "town_kana": "サダモト",
    "street": null,
    "office_name": null,
    "office_name_kana": null
  },
  "1134": {
    "postcode": "2991134",
    "prefecture": "千葉県",
    "prefecture_kana": "チバケン",
    "prefecture_code": 12,
    "city": "君津市",
    "city_kana": "キミツシ",
    "town": "八幡",
    "town_kana": "ヤワタ",
    "street": null,
    "office_name": null,
    "office_name_kana": null
  },
  "1135": {
    "postcode": "2991135",
    "prefecture": "千葉県",
    "prefecture_kana": "チバケン",
    "prefecture_code": 12,
    "city": "君津市",
    "city_kana": "キミツシ",
    "town": "杉谷",
    "town_kana": "スギヤツ",
    "street": null,
    "office_name": null,
    "office_name_kana": null
  },
  "1136": {
    "postcode": "2991136",
    "prefecture": "千葉県",
    "prefecture_kana": "チバケン",
    "prefecture_code": 12,
    "city": "君津市",
    "city_kana": "キミツシ",
    "town": "新御堂",
    "town_kana": "シミドウ",
    "street": null,
    "office_name": null,
    "office_name_kana": null
  },
  "1137": {
    "postcode": "2991137",
    "prefecture": "千葉県",
    "prefecture_kana": "チバケン",
    "prefecture_code": 12,
    "city": "君津市",
    "city_kana": "キミツシ",
    "town": "小香",
    "town_kana": "ショウコウ",
    "street": null,
    "office_name": null,
    "office_name_kana": null
  },
  "1138": {
    "postcode": "2991138",
    "prefecture": "千葉県",
    "prefecture_kana": "チバケン",
    "prefecture_code": 12,
    "city": "君津市",
    "city_kana": "キミツシ",
    "town": "上湯江",
    "town_kana": "カミユエ",
    "street": null,
    "office_name": null,
    "office_name_kana": null
  },
  "1141": {
    "postcode": "2991141",
    "prefecture": "千葉県",
    "prefecture_kana": "チバケン",
    "prefecture_code": 12,
    "city": "君津市",
    "city_kana": "キミツシ",
    "town": "君津",
    "town_kana": "キミツ",
    "street": null,
    "office_name": null,
    "office_name_kana": null
  },
  "1142": {
    "postcode": "2991142",
    "prefecture": "千葉県",
    "prefecture_kana": "チバケン",
    "prefecture_code": 12,
    "city": "君津市",
    "city_kana": "キミツシ",
    "town": "坂田",
    "town_kana": "サカダ",
    "street": null,
    "office_name": null,
    "office_name_kana": null
  },
  "1143": {
    "postcode": "2991143",
    "prefecture": "千葉県",
    "prefecture_kana": "チバケン",
    "prefecture_code": 12,
    "city": "君津市",
    "city_kana": "キミツシ",
    "town": "君津台",
    "town_kana": "キミツダイ",
    "street": null,
    "office_name": null,
    "office_name_kana": null
  },
  "1144": {
    "postcode": "2991144",
    "prefecture": "千葉県",
    "prefecture_kana": "チバケン",
    "prefecture_code": 12,
    "city": "君津市",
    "city_kana": "キミツシ",
    "town": "東坂田",
    "town_kana": "ヒガシサカダ",
    "street": null,
    "office_name": null,
    "office_name_kana": null
  },
  "1145": {
    "postcode": "2991145",
    "prefecture": "千葉県",
    "prefecture_kana": "チバケン",
    "prefecture_code": 12,
    "city": "君津市",
    "city_kana": "キミツシ",
    "town": "西坂田",
    "town_kana": "ニシサカダ",
    "street": null,
    "office_name": null,
    "office_name_kana": null
  },
  "1146": {
    "postcode": "2991146",
    "prefecture": "千葉県",
    "prefecture_kana": "チバケン",
    "prefecture_code": 12,
    "city": "君津市",
    "city_kana": "キミツシ",
    "town": "大和田",
    "town_kana": "オオワダ",
    "street": null,
    "office_name": null,
    "office_name_kana": null
  },
  "1147": {
    "postcode": "2991147",
    "prefecture": "千葉県",
    "prefecture_kana": "チバケン",
    "prefecture_code": 12,
    "city": "君津市",
    "city_kana": "キミツシ",
    "town": "人見",
    "town_kana": "ヒトミ",
    "street": null,
    "office_name": null,
    "office_name_kana": null
  },
  "1151": {
    "postcode": "2991151",
    "prefecture": "千葉県",
    "prefecture_kana": "チバケン",
    "prefecture_code": 12,
    "city": "君津市",
    "city_kana": "キミツシ",
    "town": "中野",
    "town_kana": "ナカノ",
    "street": null,
    "office_name": null,
    "office_name_kana": null
  },
  "1152": {
    "postcode": "2991152",
    "prefecture": "千葉県",
    "prefecture_kana": "チバケン",
    "prefecture_code": 12,
    "city": "君津市",
    "city_kana": "キミツシ",
    "town": "久保",
    "town_kana": "クボ",
    "street": null,
    "office_name": null,
    "office_name_kana": null
  },
  "1153": {
    "postcode": "2991153",
    "prefecture": "千葉県",
    "prefecture_kana": "チバケン",
    "prefecture_code": 12,
    "city": "君津市",
    "city_kana": "キミツシ",
    "town": "台",
    "town_kana": "ダイ",
    "street": null,
    "office_name": null,
    "office_name_kana": null
  },
  "1154": {
    "postcode": "2991154",
    "prefecture": "千葉県",
    "prefecture_kana": "チバケン",
    "prefecture_code": 12,
    "city": "君津市",
    "city_kana": "キミツシ",
    "town": "南久保",
    "town_kana": "ミナミクボ",
    "street": null,
    "office_name": null,
    "office_name_kana": null
  },
  "1161": {
    "postcode": "2991161",
    "prefecture": "千葉県",
    "prefecture_kana": "チバケン",
    "prefecture_code": 12,
    "city": "君津市",
    "city_kana": "キミツシ",
    "town": "北子安",
    "town_kana": "キタコヤス",
    "street": null,
    "office_name": null,
    "office_name_kana": null
  },
  "1162": {
    "postcode": "2991162",
    "prefecture": "千葉県",
    "prefecture_kana": "チバケン",
    "prefecture_code": 12,
    "city": "君津市",
    "city_kana": "キミツシ",
    "town": "南子安",
    "town_kana": "ミナミコヤス",
    "street": null,
    "office_name": null,
    "office_name_kana": null
  },
  "1163": {
    "postcode": "2991163",
    "prefecture": "千葉県",
    "prefecture_kana": "チバケン",
    "prefecture_code": 12,
    "city": "君津市",
    "city_kana": "キミツシ",
    "town": "杢師",
    "town_kana": "モクシ",
    "street": null,
    "office_name": null,
    "office_name_kana": null
  },
  "1164": {
    "postcode": "2991164",
    "prefecture": "千葉県",
    "prefecture_kana": "チバケン",
    "prefecture_code": 12,
    "city": "君津市",
    "city_kana": "キミツシ",
    "town": "北久保",
    "town_kana": "キタクボ",
    "street": null,
    "office_name": null,
    "office_name_kana": null
  },
  "1165": {
    "postcode": "2991165",
    "prefecture": "千葉県",
    "prefecture_kana": "チバケン",
    "prefecture_code": 12,
    "city": "君津市",
    "city_kana": "キミツシ",
    "town": "高坂",
    "town_kana": "コウサカ",
    "street": null,
    "office_name": null,
    "office_name_kana": null
  },
  "1166": {
    "postcode": "2991166",
    "prefecture": "千葉県",
    "prefecture_kana": "チバケン",
    "prefecture_code": 12,
    "city": "君津市",
    "city_kana": "キミツシ",
    "town": "陽光台",
    "town_kana": "ヨウコウダイ",
    "street": null,
    "office_name": null,
    "office_name_kana": null
  },
  "1171": {
    "postcode": "2991171",
    "prefecture": "千葉県",
    "prefecture_kana": "チバケン",
    "prefecture_code": 12,
    "city": "君津市",
    "city_kana": "キミツシ",
    "town": "八重原",
    "town_kana": "ヤエハラ",
    "street": null,
    "office_name": null,
    "office_name_kana": null
  },
  "1172": {
    "postcode": "2991172",
    "prefecture": "千葉県",
    "prefecture_kana": "チバケン",
    "prefecture_code": 12,
    "city": "君津市",
    "city_kana": "キミツシ",
    "town": "三直",
    "town_kana": "ミノウ",
    "street": null,
    "office_name": null,
    "office_name_kana": null
  },
  "1173": {
    "postcode": "2991173",
    "prefecture": "千葉県",
    "prefecture_kana": "チバケン",
    "prefecture_code": 12,
    "city": "君津市",
    "city_kana": "キミツシ",
    "town": "外箕輪",
    "town_kana": "ソトミノワ",
    "street": null,
    "office_name": null,
    "office_name_kana": null
  },
  "1174": {
    "postcode": "2991174",
    "prefecture": "千葉県",
    "prefecture_kana": "チバケン",
    "prefecture_code": 12,
    "city": "君津市",
    "city_kana": "キミツシ",
    "town": "法木作",
    "town_kana": "ホウギサク",
    "street": null,
    "office_name": null,
    "office_name_kana": null
  },
  "1175": {
    "postcode": "2991175",
    "prefecture": "千葉県",
    "prefecture_kana": "チバケン",
    "prefecture_code": 12,
    "city": "君津市",
    "city_kana": "キミツシ",
    "town": "内箕輪",
    "town_kana": "ウチミノワ",
    "street": null,
    "office_name": null,
    "office_name_kana": null
  },
  "1176": {
    "postcode": "2991176",
    "prefecture": "千葉県",
    "prefecture_kana": "チバケン",
    "prefecture_code": 12,
    "city": "君津市",
    "city_kana": "キミツシ",
    "town": "内蓑輪",
    "town_kana": "ウチミノワ",
    "street": null,
    "office_name": null,
    "office_name_kana": null
  },
  "1192": {
    "postcode": "2991192",
    "prefecture": "千葉県",
    "prefecture_kana": "チバケン",
    "prefecture_code": 12,
    "city": "君津市",
    "city_kana": "キミツシ",
    "town": "久保",
    "town_kana": "クボ",
    "street": "２丁目１３−１",
    "office_name": "君津市役所",
    "office_name_kana": "キミツシヤクシヨ"
  },
  "1194": {
    "postcode": "2991194",
    "prefecture": "千葉県",
    "prefecture_kana": "チバケン",
    "prefecture_code": 12,
    "city": "君津市",
    "city_kana": "キミツシ",
    "town": "人見",
    "town_kana": "ヒトミ",
    "street": "１４６２−２",
    "office_name": "株式会社　日鉄エレックス　君津支店",
    "office_name_kana": "カブシキガイシヤ ニツテツエレツクス キミツシテン"
  },
  "1195": {
    "postcode": "2991195",
    "prefecture": "千葉県",
    "prefecture_kana": "チバケン",
    "prefecture_code": 12,
    "city": "君津市",
    "city_kana": "キミツシ",
    "town": "人見",
    "town_kana": "ヒトミ",
    "street": "１２１２",
    "office_name": "三島光産　株式会社　鉄鋼事業本部",
    "office_name_kana": "ミシマコウサン カブシキガイシヤ テツコウジギヨウホンブ"
  },
  "1601": {
    "postcode": "2991601",
    "prefecture": "千葉県",
    "prefecture_kana": "チバケン",
    "prefecture_code": 12,
    "city": "富津市",
    "city_kana": "フッツシ",
    "town": "桜井総稱鬼泪山",
    "town_kana": "サクライソウショウキナダヤマ",
    "street": null,
    "office_name": null,
    "office_name_kana": null
  },
  "1602": {
    "postcode": "2991602",
    "prefecture": "千葉県",
    "prefecture_kana": "チバケン",
    "prefecture_code": 12,
    "city": "富津市",
    "city_kana": "フッツシ",
    "town": "桜井",
    "town_kana": "サクライ",
    "street": null,
    "office_name": null,
    "office_name_kana": null
  },
  "1603": {
    "postcode": "2991603",
    "prefecture": "千葉県",
    "prefecture_kana": "チバケン",
    "prefecture_code": 12,
    "city": "富津市",
    "city_kana": "フッツシ",
    "town": "更和",
    "town_kana": "サラワ",
    "street": null,
    "office_name": null,
    "office_name_kana": null
  },
  "1604": {
    "postcode": "2991604",
    "prefecture": "千葉県",
    "prefecture_kana": "チバケン",
    "prefecture_code": 12,
    "city": "富津市",
    "city_kana": "フッツシ",
    "town": "台原",
    "town_kana": "ダイバラ",
    "street": null,
    "office_name": null,
    "office_name_kana": null
  },
  "1605": {
    "postcode": "2991605",
    "prefecture": "千葉県",
    "prefecture_kana": "チバケン",
    "prefecture_code": 12,
    "city": "富津市",
    "city_kana": "フッツシ",
    "town": "望井",
    "town_kana": "モチイ",
    "street": null,
    "office_name": null,
    "office_name_kana": null
  },
  "1606": {
    "postcode": "2991606",
    "prefecture": "千葉県",
    "prefecture_kana": "チバケン",
    "prefecture_code": 12,
    "city": "富津市",
    "city_kana": "フッツシ",
    "town": "数馬",
    "town_kana": "カズマ",
    "street": null,
    "office_name": null,
    "office_name_kana": null
  },
  "1607": {
    "postcode": "2991607",
    "prefecture": "千葉県",
    "prefecture_kana": "チバケン",
    "prefecture_code": 12,
    "city": "富津市",
    "city_kana": "フッツシ",
    "town": "湊",
    "town_kana": "ミナト",
    "street": null,
    "office_name": null,
    "office_name_kana": null
  },
  "1608": {
    "postcode": "2991608",
    "prefecture": "千葉県",
    "prefecture_kana": "チバケン",
    "prefecture_code": 12,
    "city": "富津市",
    "city_kana": "フッツシ",
    "town": "岩坂",
    "town_kana": "イワサカ",
    "street": null,
    "office_name": null,
    "office_name_kana": null
  },
  "1609": {
    "postcode": "2991609",
    "prefecture": "千葉県",
    "prefecture_kana": "チバケン",
    "prefecture_code": 12,
    "city": "富津市",
    "city_kana": "フッツシ",
    "town": "加藤",
    "town_kana": "カトウ",
    "street": null,
    "office_name": null,
    "office_name_kana": null
  },
  "1611": {
    "postcode": "2991611",
    "prefecture": "千葉県",
    "prefecture_kana": "チバケン",
    "prefecture_code": 12,
    "city": "富津市",
    "city_kana": "フッツシ",
    "town": "長崎",
    "town_kana": "ナガサキ",
    "street": null,
    "office_name": null,
    "office_name_kana": null
  },
  "1612": {
    "postcode": "2991612",
    "prefecture": "千葉県",
    "prefecture_kana": "チバケン",
    "prefecture_code": 12,
    "city": "富津市",
    "city_kana": "フッツシ",
    "town": "横山",
    "town_kana": "ヨコヤマ",
    "street": null,
    "office_name": null,
    "office_name_kana": null
  },
  "1613": {
    "postcode": "2991613",
    "prefecture": "千葉県",
    "prefecture_kana": "チバケン",
    "prefecture_code": 12,
    "city": "富津市",
    "city_kana": "フッツシ",
    "town": "不入斗",
    "town_kana": "イリヤマズ",
    "street": null,
    "office_name": null,
    "office_name_kana": null
  },
  "1614": {
    "postcode": "2991614",
    "prefecture": "千葉県",
    "prefecture_kana": "チバケン",
    "prefecture_code": 12,
    "city": "富津市",
    "city_kana": "フッツシ",
    "town": "梨沢",
    "town_kana": "ナシザワ",
    "street": null,
    "office_name": null,
    "office_name_kana": null
  },
  "1615": {
    "postcode": "2991615",
    "prefecture": "千葉県",
    "prefecture_kana": "チバケン",
    "prefecture_code": 12,
    "city": "富津市",
    "city_kana": "フッツシ",
    "town": "相川",
    "town_kana": "アイカワ",
    "street": null,
    "office_name": null,
    "office_name_kana": null
  },
  "1616": {
    "postcode": "2991616",
    "prefecture": "千葉県",
    "prefecture_kana": "チバケン",
    "prefecture_code": 12,
    "city": "富津市",
    "city_kana": "フッツシ",
    "town": "海良",
    "town_kana": "カイラ",
    "street": null,
    "office_name": null,
    "office_name_kana": null
  },
  "1617": {
    "postcode": "2991617",
    "prefecture": "千葉県",
    "prefecture_kana": "チバケン",
    "prefecture_code": 12,
    "city": "富津市",
    "city_kana": "フッツシ",
    "town": "売津",
    "town_kana": "ウルヅ",
    "street": null,
    "office_name": null,
    "office_name_kana": null
  },
  "1618": {
    "postcode": "2991618",
    "prefecture": "千葉県",
    "prefecture_kana": "チバケン",
    "prefecture_code": 12,
    "city": "富津市",
    "city_kana": "フッツシ",
    "town": "花輪",
    "town_kana": "ハナワ",
    "street": null,
    "office_name": null,
    "office_name_kana": null
  },
  "1621": {
    "postcode": "2991621",
    "prefecture": "千葉県",
    "prefecture_kana": "チバケン",
    "prefecture_code": 12,
    "city": "富津市",
    "city_kana": "フッツシ",
    "town": "竹岡",
    "town_kana": "タケオカ",
    "street": null,
    "office_name": null,
    "office_name_kana": null
  },
  "1622": {
    "postcode": "2991622",
    "prefecture": "千葉県",
    "prefecture_kana": "チバケン",
    "prefecture_code": 12,
    "city": "富津市",
    "city_kana": "フッツシ",
    "town": "萩生",
    "town_kana": "ハギウ",
    "street": null,
    "office_name": null,
    "office_name_kana": null
  },
  "1731": {
    "postcode": "2991731",
    "prefecture": "千葉県",
    "prefecture_kana": "チバケン",
    "prefecture_code": 12,
    "city": "富津市",
    "city_kana": "フッツシ",
    "town": "田倉",
    "town_kana": "タグラ",
    "street": null,
    "office_name": null,
    "office_name_kana": null
  },
  "1732": {
    "postcode": "2991732",
    "prefecture": "千葉県",
    "prefecture_kana": "チバケン",
    "prefecture_code": 12,
    "city": "富津市",
    "city_kana": "フッツシ",
    "town": "宇藤原",
    "town_kana": "ウトウバラ",
    "street": null,
    "office_name": null,
    "office_name_kana": null
  },
  "1733": {
    "postcode": "2991733",
    "prefecture": "千葉県",
    "prefecture_kana": "チバケン",
    "prefecture_code": 12,
    "city": "富津市",
    "city_kana": "フッツシ",
    "town": "高溝",
    "town_kana": "タカミゾ",
    "street": null,
    "office_name": null,
    "office_name_kana": null
  },
  "1734": {
    "postcode": "2991734",
    "prefecture": "千葉県",
    "prefecture_kana": "チバケン",
    "prefecture_code": 12,
    "city": "富津市",
    "city_kana": "フッツシ",
    "town": "関",
    "town_kana": "セキ",
    "street": null,
    "office_name": null,
    "office_name_kana": null
  },
  "1735": {
    "postcode": "2991735",
    "prefecture": "千葉県",
    "prefecture_kana": "チバケン",
    "prefecture_code": 12,
    "city": "富津市",
    "city_kana": "フッツシ",
    "town": "大田和",
    "town_kana": "オオタワ",
    "street": null,
    "office_name": null,
    "office_name_kana": null
  },
  "1736": {
    "postcode": "2991736",
    "prefecture": "千葉県",
    "prefecture_kana": "チバケン",
    "prefecture_code": 12,
    "city": "富津市",
    "city_kana": "フッツシ",
    "town": "大川崎",
    "town_kana": "オオガワサキ",
    "street": null,
    "office_name": null,
    "office_name_kana": null
  },
  "1737": {
    "postcode": "2991737",
    "prefecture": "千葉県",
    "prefecture_kana": "チバケン",
    "prefecture_code": 12,
    "city": "富津市",
    "city_kana": "フッツシ",
    "town": "東大和田",
    "town_kana": "ヒガシオオワダ",
    "street": null,
    "office_name": null,
    "office_name_kana": null
  },
  "1741": {
    "postcode": "2991741",
    "prefecture": "千葉県",
    "prefecture_kana": "チバケン",
    "prefecture_code": 12,
    "city": "富津市",
    "city_kana": "フッツシ",
    "town": "御代原",
    "town_kana": "ミヨバラ",
    "street": null,
    "office_name": null,
    "office_name_kana": null
  },
  "1742": {
    "postcode": "2991742",
    "prefecture": "千葉県",
    "prefecture_kana": "チバケン",
    "prefecture_code": 12,
    "city": "富津市",
    "city_kana": "フッツシ",
    "town": "豊岡",
    "town_kana": "トヨオカ",
    "street": null,
    "office_name": null,
    "office_name_kana": null
  },
  "1743": {
    "postcode": "2991743",
    "prefecture": "千葉県",
    "prefecture_kana": "チバケン",
    "prefecture_code": 12,
    "city": "富津市",
    "city_kana": "フッツシ",
    "town": "山中",
    "town_kana": "ヤマナカ",
    "street": null,
    "office_name": null,
    "office_name_kana": null
  },
  "1744": [
    {
      "postcode": "2991744",
      "prefecture": "千葉県",
      "prefecture_kana": "チバケン",
      "prefecture_code": 12,
      "city": "富津市",
      "city_kana": "フッツシ",
      "town": "梨沢",
      "town_kana": "ナシザワ",
      "street": null,
      "office_name": null,
      "office_name_kana": null
    },
    {
      "postcode": "2991744",
      "prefecture": "千葉県",
      "prefecture_kana": "チバケン",
      "prefecture_code": 12,
      "city": "富津市",
      "city_kana": "フッツシ",
      "town": "梨沢東井戸堀",
      "town_kana": "ナシザワヒガシイドボリ",
      "street": null,
      "office_name": null,
      "office_name_kana": null
    }
  ],
  "1745": {
    "postcode": "2991745",
    "prefecture": "千葉県",
    "prefecture_kana": "チバケン",
    "prefecture_code": 12,
    "city": "富津市",
    "city_kana": "フッツシ",
    "town": "志駒",
    "town_kana": "シコマ",
    "street": null,
    "office_name": null,
    "office_name_kana": null
  },
  "1746": {
    "postcode": "2991746",
    "prefecture": "千葉県",
    "prefecture_kana": "チバケン",
    "prefecture_code": 12,
    "city": "富津市",
    "city_kana": "フッツシ",
    "town": "岩本",
    "town_kana": "イワモト",
    "street": null,
    "office_name": null,
    "office_name_kana": null
  },
  "1747": {
    "postcode": "2991747",
    "prefecture": "千葉県",
    "prefecture_kana": "チバケン",
    "prefecture_code": 12,
    "city": "富津市",
    "city_kana": "フッツシ",
    "town": "小志駒",
    "town_kana": "コジコマ",
    "street": null,
    "office_name": null,
    "office_name_kana": null
  },
  "1751": {
    "postcode": "2991751",
    "prefecture": "千葉県",
    "prefecture_kana": "チバケン",
    "prefecture_code": 12,
    "city": "富津市",
    "city_kana": "フッツシ",
    "town": "恩田",
    "town_kana": "オンダ",
    "street": null,
    "office_name": null,
    "office_name_kana": null
  },
  "1752": {
    "postcode": "2991752",
    "prefecture": "千葉県",
    "prefecture_kana": "チバケン",
    "prefecture_code": 12,
    "city": "富津市",
    "city_kana": "フッツシ",
    "town": "関尻",
    "town_kana": "セキジリ",
    "street": null,
    "office_name": null,
    "office_name_kana": null
  },
  "1753": {
    "postcode": "2991753",
    "prefecture": "千葉県",
    "prefecture_kana": "チバケン",
    "prefecture_code": 12,
    "city": "富津市",
    "city_kana": "フッツシ",
    "town": "上後",
    "town_kana": "ウエゴ",
    "street": null,
    "office_name": null,
    "office_name_kana": null
  },
  "1754": {
    "postcode": "2991754",
    "prefecture": "千葉県",
    "prefecture_kana": "チバケン",
    "prefecture_code": 12,
    "city": "富津市",
    "city_kana": "フッツシ",
    "town": "山脇",
    "town_kana": "ヤマワキ",
    "street": null,
    "office_name": null,
    "office_name_kana": null
  },
  "1755": {
    "postcode": "2991755",
    "prefecture": "千葉県",
    "prefecture_kana": "チバケン",
    "prefecture_code": 12,
    "city": "富津市",
    "city_kana": "フッツシ",
    "town": "田原",
    "town_kana": "タバラ",
    "street": null,
    "office_name": null,
    "office_name_kana": null
  },
  "1756": {
    "postcode": "2991756",
    "prefecture": "千葉県",
    "prefecture_kana": "チバケン",
    "prefecture_code": 12,
    "city": "富津市",
    "city_kana": "フッツシ",
    "town": "六野",
    "town_kana": "ムツノ",
    "street": null,
    "office_name": null,
    "office_name_kana": null
  },
  "1757": {
    "postcode": "2991757",
    "prefecture": "千葉県",
    "prefecture_kana": "チバケン",
    "prefecture_code": 12,
    "city": "富津市",
    "city_kana": "フッツシ",
    "town": "押切",
    "town_kana": "オシキリ",
    "street": null,
    "office_name": null,
    "office_name_kana": null
  },
  "1758": {
    "postcode": "2991758",
    "prefecture": "千葉県",
    "prefecture_kana": "チバケン",
    "prefecture_code": 12,
    "city": "富津市",
    "city_kana": "フッツシ",
    "town": "大森",
    "town_kana": "オオモリ",
    "street": null,
    "office_name": null,
    "office_name_kana": null
  },
  "1759": {
    "postcode": "2991759",
    "prefecture": "千葉県",
    "prefecture_kana": "チバケン",
    "prefecture_code": 12,
    "city": "富津市",
    "city_kana": "フッツシ",
    "town": "寺尾",
    "town_kana": "テラオ",
    "street": null,
    "office_name": null,
    "office_name_kana": null
  },
  "1861": {
    "postcode": "2991861",
    "prefecture": "千葉県",
    "prefecture_kana": "チバケン",
    "prefecture_code": 12,
    "city": "富津市",
    "city_kana": "フッツシ",
    "town": "金谷",
    "town_kana": "カナヤ",
    "street": null,
    "office_name": null,
    "office_name_kana": null
  },
  "1901": {
    "postcode": "2991901",
    "prefecture": "千葉県",
    "prefecture_kana": "チバケン",
    "prefecture_code": 12,
    "city": "安房郡鋸南町",
    "city_kana": "アワグンキョナンマチ",
    "town": "元名",
    "town_kana": "モトナ",
    "street": null,
    "office_name": null,
    "office_name_kana": null
  },
  "1902": {
    "postcode": "2991902",
    "prefecture": "千葉県",
    "prefecture_kana": "チバケン",
    "prefecture_code": 12,
    "city": "安房郡鋸南町",
    "city_kana": "アワグンキョナンマチ",
    "town": "保田",
    "town_kana": "ホタ",
    "street": null,
    "office_name": null,
    "office_name_kana": null
  },
  "1903": {
    "postcode": "2991903",
    "prefecture": "千葉県",
    "prefecture_kana": "チバケン",
    "prefecture_code": 12,
    "city": "安房郡鋸南町",
    "city_kana": "アワグンキョナンマチ",
    "town": "大帷子",
    "town_kana": "オオカタビラ",
    "street": null,
    "office_name": null,
    "office_name_kana": null
  },
  "1904": {
    "postcode": "2991904",
    "prefecture": "千葉県",
    "prefecture_kana": "チバケン",
    "prefecture_code": 12,
    "city": "安房郡鋸南町",
    "city_kana": "アワグンキョナンマチ",
    "town": "小保田",
    "town_kana": "コボタ",
    "street": null,
    "office_name": null,
    "office_name_kana": null
  },
  "1905": {
    "postcode": "2991905",
    "prefecture": "千葉県",
    "prefecture_kana": "チバケン",
    "prefecture_code": 12,
    "city": "安房郡鋸南町",
    "city_kana": "アワグンキョナンマチ",
    "town": "市井原",
    "town_kana": "イチイバラ",
    "street": null,
    "office_name": null,
    "office_name_kana": null
  },
  "1906": {
    "postcode": "2991906",
    "prefecture": "千葉県",
    "prefecture_kana": "チバケン",
    "prefecture_code": 12,
    "city": "安房郡鋸南町",
    "city_kana": "アワグンキョナンマチ",
    "town": "横根",
    "town_kana": "ヨコネ",
    "street": null,
    "office_name": null,
    "office_name_kana": null
  },
  "1907": {
    "postcode": "2991907",
    "prefecture": "千葉県",
    "prefecture_kana": "チバケン",
    "prefecture_code": 12,
    "city": "安房郡鋸南町",
    "city_kana": "アワグンキョナンマチ",
    "town": "江月",
    "town_kana": "エヅキ",
    "street": null,
    "office_name": null,
    "office_name_kana": null
  },
  "1908": {
    "postcode": "2991908",
    "prefecture": "千葉県",
    "prefecture_kana": "チバケン",
    "prefecture_code": 12,
    "city": "安房郡鋸南町",
    "city_kana": "アワグンキョナンマチ",
    "town": "吉浜",
    "town_kana": "ヨシハマ",
    "street": null,
    "office_name": null,
    "office_name_kana": null
  },
  "1909": {
    "postcode": "2991909",
    "prefecture": "千葉県",
    "prefecture_kana": "チバケン",
    "prefecture_code": 12,
    "city": "安房郡鋸南町",
    "city_kana": "アワグンキョナンマチ",
    "town": "大六",
    "town_kana": "ダイロク",
    "street": null,
    "office_name": null,
    "office_name_kana": null
  },
  "2100": {
    "postcode": "2992100",
    "prefecture": "千葉県",
    "prefecture_kana": "チバケン",
    "prefecture_code": 12,
    "city": "安房郡鋸南町",
    "city_kana": "アワグンキョナンマチ",
    "town": "",
    "town_kana": "",
    "street": null,
    "office_name": null,
    "office_name_kana": null
  },
  "2111": {
    "postcode": "2992111",
    "prefecture": "千葉県",
    "prefecture_kana": "チバケン",
    "prefecture_code": 12,
    "city": "安房郡鋸南町",
    "city_kana": "アワグンキョナンマチ",
    "town": "大崩",
    "town_kana": "オクズレ",
    "street": null,
    "office_name": null,
    "office_name_kana": null
  },
  "2112": {
    "postcode": "2992112",
    "prefecture": "千葉県",
    "prefecture_kana": "チバケン",
    "prefecture_code": 12,
    "city": "安房郡鋸南町",
    "city_kana": "アワグンキョナンマチ",
    "town": "奥山",
    "town_kana": "オクヤマ",
    "street": null,
    "office_name": null,
    "office_name_kana": null
  },
  "2113": {
    "postcode": "2992113",
    "prefecture": "千葉県",
    "prefecture_kana": "チバケン",
    "prefecture_code": 12,
    "city": "安房郡鋸南町",
    "city_kana": "アワグンキョナンマチ",
    "town": "上佐久間",
    "town_kana": "カミサクマ",
    "street": null,
    "office_name": null,
    "office_name_kana": null
  },
  "2114": {
    "postcode": "2992114",
    "prefecture": "千葉県",
    "prefecture_kana": "チバケン",
    "prefecture_code": 12,
    "city": "安房郡鋸南町",
    "city_kana": "アワグンキョナンマチ",
    "town": "中佐久間",
    "town_kana": "ナカサクマ",
    "street": null,
    "office_name": null,
    "office_name_kana": null
  },
  "2115": {
    "postcode": "2992115",
    "prefecture": "千葉県",
    "prefecture_kana": "チバケン",
    "prefecture_code": 12,
    "city": "安房郡鋸南町",
    "city_kana": "アワグンキョナンマチ",
    "town": "下佐久間",
    "town_kana": "シモサクマ",
    "street": null,
    "office_name": null,
    "office_name_kana": null
  },
  "2116": {
    "postcode": "2992116",
    "prefecture": "千葉県",
    "prefecture_kana": "チバケン",
    "prefecture_code": 12,
    "city": "安房郡鋸南町",
    "city_kana": "アワグンキョナンマチ",
    "town": "岩井袋",
    "town_kana": "イワイフクロ",
    "street": null,
    "office_name": null,
    "office_name_kana": null
  },
  "2117": {
    "postcode": "2992117",
    "prefecture": "千葉県",
    "prefecture_kana": "チバケン",
    "prefecture_code": 12,
    "city": "安房郡鋸南町",
    "city_kana": "アワグンキョナンマチ",
    "town": "勝山",
    "town_kana": "カツヤマ",
    "street": null,
    "office_name": null,
    "office_name_kana": null
  },
  "2118": {
    "postcode": "2992118",
    "prefecture": "千葉県",
    "prefecture_kana": "チバケン",
    "prefecture_code": 12,
    "city": "安房郡鋸南町",
    "city_kana": "アワグンキョナンマチ",
    "town": "竜島",
    "town_kana": "リュウシマ",
    "street": null,
    "office_name": null,
    "office_name_kana": null
  },
  "2192": {
    "postcode": "2992192",
    "prefecture": "千葉県",
    "prefecture_kana": "チバケン",
    "prefecture_code": 12,
    "city": "安房郡鋸南町",
    "city_kana": "アワグンキョナンマチ",
    "town": "下佐久間",
    "town_kana": "シモサクマ",
    "street": "３４５８",
    "office_name": "鋸南町役場",
    "office_name_kana": "キヨナンマチヤクバ"
  },
  "2201": {
    "postcode": "2992201",
    "prefecture": "千葉県",
    "prefecture_kana": "チバケン",
    "prefecture_code": 12,
    "city": "南房総市",
    "city_kana": "ミナミボウソウシ",
    "town": "荒川",
    "town_kana": "アラカワ",
    "street": null,
    "office_name": null,
    "office_name_kana": null
  },
  "2202": {
    "postcode": "2992202",
    "prefecture": "千葉県",
    "prefecture_kana": "チバケン",
    "prefecture_code": 12,
    "city": "南房総市",
    "city_kana": "ミナミボウソウシ",
    "town": "平塚",
    "town_kana": "ヒラツカ",
    "street": null,
    "office_name": null,
    "office_name_kana": null
  },
  "2203": {
    "postcode": "2992203",
    "prefecture": "千葉県",
    "prefecture_kana": "チバケン",
    "prefecture_code": 12,
    "city": "南房総市",
    "city_kana": "ミナミボウソウシ",
    "town": "山田",
    "town_kana": "ヤマダ",
    "street": null,
    "office_name": null,
    "office_name_kana": null
  },
  "2204": {
    "postcode": "2992204",
    "prefecture": "千葉県",
    "prefecture_kana": "チバケン",
    "prefecture_code": 12,
    "city": "南房総市",
    "city_kana": "ミナミボウソウシ",
    "town": "平久里中",
    "town_kana": "ヘグリナカ",
    "street": null,
    "office_name": null,
    "office_name_kana": null
  },
  "2205": {
    "postcode": "2992205",
    "prefecture": "千葉県",
    "prefecture_kana": "チバケン",
    "prefecture_code": 12,
    "city": "南房総市",
    "city_kana": "ミナミボウソウシ",
    "town": "犬掛",
    "town_kana": "イヌカケ",
    "street": null,
    "office_name": null,
    "office_name_kana": null
  },
  "2206": {
    "postcode": "2992206",
    "prefecture": "千葉県",
    "prefecture_kana": "チバケン",
    "prefecture_code": 12,
    "city": "南房総市",
    "city_kana": "ミナミボウソウシ",
    "town": "平久里下",
    "town_kana": "ヘグリシモ",
    "street": null,
    "office_name": null,
    "office_name_kana": null
  },
  "2211": {
    "postcode": "2992211",
    "prefecture": "千葉県",
    "prefecture_kana": "チバケン",
    "prefecture_code": 12,
    "city": "南房総市",
    "city_kana": "ミナミボウソウシ",
    "town": "川上",
    "town_kana": "カワカミ",
    "street": null,
    "office_name": null,
    "office_name_kana": null
  },
  "2212": {
    "postcode": "2992212",
    "prefecture": "千葉県",
    "prefecture_kana": "チバケン",
    "prefecture_code": 12,
    "city": "南房総市",
    "city_kana": "ミナミボウソウシ",
    "town": "井野",
    "town_kana": "イノ",
    "street": null,
    "office_name": null,
    "office_name_kana": null
  },
  "2213": {
    "postcode": "2992213",
    "prefecture": "千葉県",
    "prefecture_kana": "チバケン",
    "prefecture_code": 12,
    "city": "南房総市",
    "city_kana": "ミナミボウソウシ",
    "town": "吉沢",
    "town_kana": "ヨシザワ",
    "street": null,
    "office_name": null,
    "office_name_kana": null
  },
  "2214": {
    "postcode": "2992214",
    "prefecture": "千葉県",
    "prefecture_kana": "チバケン",
    "prefecture_code": 12,
    "city": "南房総市",
    "city_kana": "ミナミボウソウシ",
    "town": "二部",
    "town_kana": "ニブ",
    "street": null,
    "office_name": null,
    "office_name_kana": null
  },
  "2215": {
    "postcode": "2992215",
    "prefecture": "千葉県",
    "prefecture_kana": "チバケン",
    "prefecture_code": 12,
    "city": "南房総市",
    "city_kana": "ミナミボウソウシ",
    "town": "検儀谷",
    "town_kana": "ケギヤ",
    "street": null,
    "office_name": null,
    "office_name_kana": null
  },
  "2216": {
    "postcode": "2992216",
    "prefecture": "千葉県",
    "prefecture_kana": "チバケン",
    "prefecture_code": 12,
    "city": "南房総市",
    "city_kana": "ミナミボウソウシ",
    "town": "久枝",
    "town_kana": "クシ",
    "street": null,
    "office_name": null,
    "office_name_kana": null
  },
  "2221": {
    "postcode": "2992221",
    "prefecture": "千葉県",
    "prefecture_kana": "チバケン",
    "prefecture_code": 12,
    "city": "南房総市",
    "city_kana": "ミナミボウソウシ",
    "town": "合戸",
    "town_kana": "ゴウド",
    "street": null,
    "office_name": null,
    "office_name_kana": null
  },
  "2222": {
    "postcode": "2992222",
    "prefecture": "千葉県",
    "prefecture_kana": "チバケン",
    "prefecture_code": 12,
    "city": "南房総市",
    "city_kana": "ミナミボウソウシ",
    "town": "宮谷",
    "town_kana": "ミヤノヤツ",
    "street": null,
    "office_name": null,
    "office_name_kana": null
  },
  "2223": {
    "postcode": "2992223",
    "prefecture": "千葉県",
    "prefecture_kana": "チバケン",
    "prefecture_code": 12,
    "city": "南房総市",
    "city_kana": "ミナミボウソウシ",
    "town": "高崎",
    "town_kana": "タカサキ",
    "street": null,
    "office_name": null,
    "office_name_kana": null
  },
  "2224": {
    "postcode": "2992224",
    "prefecture": "千葉県",
    "prefecture_kana": "チバケン",
    "prefecture_code": 12,
    "city": "南房総市",
    "city_kana": "ミナミボウソウシ",
    "town": "小浦",
    "town_kana": "コウラ",
    "street": null,
    "office_name": null,
    "office_name_kana": null
  },
  "2225": {
    "postcode": "2992225",
    "prefecture": "千葉県",
    "prefecture_kana": "チバケン",
    "prefecture_code": 12,
    "city": "南房総市",
    "city_kana": "ミナミボウソウシ",
    "town": "竹内",
    "town_kana": "タケノウチ",
    "street": null,
    "office_name": null,
    "office_name_kana": null
  },
  "2226": {
    "postcode": "2992226",
    "prefecture": "千葉県",
    "prefecture_kana": "チバケン",
    "prefecture_code": 12,
    "city": "南房総市",
    "city_kana": "ミナミボウソウシ",
    "town": "市部",
    "town_kana": "イチブ",
    "street": null,
    "office_name": null,
    "office_name_kana": null
  },
  "2292": {
    "postcode": "2992292",
    "prefecture": "千葉県",
    "prefecture_kana": "チバケン",
    "prefecture_code": 12,
    "city": "南房総市",
    "city_kana": "ミナミボウソウシ",
    "town": "久枝",
    "town_kana": "クシ",
    "street": "３２７番地",
    "office_name": "南房総市役所　富山地域センター",
    "office_name_kana": "ミナミボウソウシヤクシヨ トミヤマチイキセンタ-"
  },
  "2400": {
    "postcode": "2992400",
    "prefecture": "千葉県",
    "prefecture_kana": "チバケン",
    "prefecture_code": 12,
    "city": "南房総市",
    "city_kana": "ミナミボウソウシ",
    "town": "",
    "town_kana": "",
    "street": null,
    "office_name": null,
    "office_name_kana": null
  },
  "2401": {
    "postcode": "2992401",
    "prefecture": "千葉県",
    "prefecture_kana": "チバケン",
    "prefecture_code": 12,
    "city": "南房総市",
    "city_kana": "ミナミボウソウシ",
    "town": "富浦町南無谷",
    "town_kana": "トミウラチョウナムヤ",
    "street": null,
    "office_name": null,
    "office_name_kana": null
  },
  "2402": {
    "postcode": "2992402",
    "prefecture": "千葉県",
    "prefecture_kana": "チバケン",
    "prefecture_code": 12,
    "city": "南房総市",
    "city_kana": "ミナミボウソウシ",
    "town": "富浦町豊岡",
    "town_kana": "トミウラチョウトヨオカ",
    "street": null,
    "office_name": null,
    "office_name_kana": null
  },
  "2403": {
    "postcode": "2992403",
    "prefecture": "千葉県",
    "prefecture_kana": "チバケン",
    "prefecture_code": 12,
    "city": "南房総市",
    "city_kana": "ミナミボウソウシ",
    "town": "富浦町原岡",
    "town_kana": "トミウラチョウハラオカ",
    "street": null,
    "office_name": null,
    "office_name_kana": null
  },
  "2404": {
    "postcode": "2992404",
    "prefecture": "千葉県",
    "prefecture_kana": "チバケン",
    "prefecture_code": 12,
    "city": "南房総市",
    "city_kana": "ミナミボウソウシ",
    "town": "富浦町多田良",
    "town_kana": "トミウラチョウタダラ",
    "street": null,
    "office_name": null,
    "office_name_kana": null
  },
  "2411": {
    "postcode": "2992411",
    "prefecture": "千葉県",
    "prefecture_kana": "チバケン",
    "prefecture_code": 12,
    "city": "南房総市",
    "city_kana": "ミナミボウソウシ",
    "town": "富浦町居倉",
    "town_kana": "トミウラチョウイグラ",
    "street": null,
    "office_name": null,
    "office_name_kana": null
  },
  "2412": {
    "postcode": "2992412",
    "prefecture": "千葉県",
    "prefecture_kana": "チバケン",
    "prefecture_code": 12,
    "city": "南房総市",
    "city_kana": "ミナミボウソウシ",
    "town": "富浦町大津",
    "town_kana": "トミウラチョウオオツ",
    "street": null,
    "office_name": null,
    "office_name_kana": null
  },
  "2413": {
    "postcode": "2992413",
    "prefecture": "千葉県",
    "prefecture_kana": "チバケン",
    "prefecture_code": 12,
    "city": "南房総市",
    "city_kana": "ミナミボウソウシ",
    "town": "富浦町宮本",
    "town_kana": "トミウラチョウミヤモト",
    "street": null,
    "office_name": null,
    "office_name_kana": null
  },
  "2414": {
    "postcode": "2992414",
    "prefecture": "千葉県",
    "prefecture_kana": "チバケン",
    "prefecture_code": 12,
    "city": "南房総市",
    "city_kana": "ミナミボウソウシ",
    "town": "富浦町福澤",
    "town_kana": "トミウラチョウフクザワ",
    "street": null,
    "office_name": null,
    "office_name_kana": null
  },
  "2415": {
    "postcode": "2992415",
    "prefecture": "千葉県",
    "prefecture_kana": "チバケン",
    "prefecture_code": 12,
    "city": "南房総市",
    "city_kana": "ミナミボウソウシ",
    "town": "富浦町深名",
    "town_kana": "トミウラチョウフカナ",
    "street": null,
    "office_name": null,
    "office_name_kana": null
  },
  "2416": {
    "postcode": "2992416",
    "prefecture": "千葉県",
    "prefecture_kana": "チバケン",
    "prefecture_code": 12,
    "city": "南房総市",
    "city_kana": "ミナミボウソウシ",
    "town": "富浦町青木",
    "town_kana": "トミウラチョウアオキ",
    "street": null,
    "office_name": null,
    "office_name_kana": null
  },
  "2417": {
    "postcode": "2992417",
    "prefecture": "千葉県",
    "prefecture_kana": "チバケン",
    "prefecture_code": 12,
    "city": "南房総市",
    "city_kana": "ミナミボウソウシ",
    "town": "富浦町丹生",
    "town_kana": "トミウラチョウニュウ",
    "street": null,
    "office_name": null,
    "office_name_kana": null
  },
  "2418": {
    "postcode": "2992418",
    "prefecture": "千葉県",
    "prefecture_kana": "チバケン",
    "prefecture_code": 12,
    "city": "南房総市",
    "city_kana": "ミナミボウソウシ",
    "town": "富浦町手取",
    "town_kana": "トミウラチョウテドリ",
    "street": null,
    "office_name": null,
    "office_name_kana": null
  },
  "2492": {
    "postcode": "2992492",
    "prefecture": "千葉県",
    "prefecture_kana": "チバケン",
    "prefecture_code": 12,
    "city": "南房総市",
    "city_kana": "ミナミボウソウシ",
    "town": "富浦町青木",
    "town_kana": "トミウラチョウアオキ",
    "street": "２８",
    "office_name": "南房総市役所",
    "office_name_kana": "ミナミボウソウシヤクシヨ"
  },
  "2501": {
    "postcode": "2992501",
    "prefecture": "千葉県",
    "prefecture_kana": "チバケン",
    "prefecture_code": 12,
    "city": "南房総市",
    "city_kana": "ミナミボウソウシ",
    "town": "珠師ケ谷",
    "town_kana": "シュシガヤツ",
    "street": null,
    "office_name": null,
    "office_name_kana": null
  },
  "2502": {
    "postcode": "2992502",
    "prefecture": "千葉県",
    "prefecture_kana": "チバケン",
    "prefecture_code": 12,
    "city": "南房総市",
    "city_kana": "ミナミボウソウシ",
    "town": "石堂原",
    "town_kana": "イシドウハラ",
    "street": null,
    "office_name": null,
    "office_name_kana": null
  },
  "2503": {
    "postcode": "2992503",
    "prefecture": "千葉県",
    "prefecture_kana": "チバケン",
    "prefecture_code": 12,
    "city": "南房総市",
    "city_kana": "ミナミボウソウシ",
    "town": "石堂",
    "town_kana": "イシドウ",
    "street": null,
    "office_name": null,
    "office_name_kana": null
  },
  "2504": {
    "postcode": "2992504",
    "prefecture": "千葉県",
    "prefecture_kana": "チバケン",
    "prefecture_code": 12,
    "city": "南房総市",
    "city_kana": "ミナミボウソウシ",
    "town": "川谷",
    "town_kana": "カワヤツ",
    "street": null,
    "office_name": null,
    "office_name_kana": null
  },
  "2505": {
    "postcode": "2992505",
    "prefecture": "千葉県",
    "prefecture_kana": "チバケン",
    "prefecture_code": 12,
    "city": "南房総市",
    "city_kana": "ミナミボウソウシ",
    "town": "宮下",
    "town_kana": "ミヤシタ",
    "street": null,
    "office_name": null,
    "office_name_kana": null
  },
  "2506": {
    "postcode": "2992506",
    "prefecture": "千葉県",
    "prefecture_kana": "チバケン",
    "prefecture_code": 12,
    "city": "南房総市",
    "city_kana": "ミナミボウソウシ",
    "town": "御子神",
    "town_kana": "ミコガミ",
    "street": null,
    "office_name": null,
    "office_name_kana": null
  },
  "2507": {
    "postcode": "2992507",
    "prefecture": "千葉県",
    "prefecture_kana": "チバケン",
    "prefecture_code": 12,
    "city": "南房総市",
    "city_kana": "ミナミボウソウシ",
    "town": "大井",
    "town_kana": "オオイ",
    "street": null,
    "office_name": null,
    "office_name_kana": null
  },
  "2508": {
    "postcode": "2992508",
    "prefecture": "千葉県",
    "prefecture_kana": "チバケン",
    "prefecture_code": 12,
    "city": "南房総市",
    "city_kana": "ミナミボウソウシ",
    "town": "丸山平塚",
    "town_kana": "マルヤマヒラツカ",
    "street": null,
    "office_name": null,
    "office_name_kana": null
  },
  "2511": {
    "postcode": "2992511",
    "prefecture": "千葉県",
    "prefecture_kana": "チバケン",
    "prefecture_code": 12,
    "city": "南房総市",
    "city_kana": "ミナミボウソウシ",
    "town": "小戸",
    "town_kana": "オド",
    "street": null,
    "office_name": null,
    "office_name_kana": null
  },
  "2512": {
    "postcode": "2992512",
    "prefecture": "千葉県",
    "prefecture_kana": "チバケン",
    "prefecture_code": 12,
    "city": "南房総市",
    "city_kana": "ミナミボウソウシ",
    "town": "岩糸",
    "town_kana": "イワイト",
    "street": null,
    "office_name": null,
    "office_name_kana": null
  },
  "2513": {
    "postcode": "2992513",
    "prefecture": "千葉県",
    "prefecture_kana": "チバケン",
    "prefecture_code": 12,
    "city": "南房総市",
    "city_kana": "ミナミボウソウシ",
    "town": "古川",
    "town_kana": "フルカワ",
    "street": null,
    "office_name": null,
    "office_name_kana": null
  },
  "2514": {
    "postcode": "2992514",
    "prefecture": "千葉県",
    "prefecture_kana": "チバケン",
    "prefecture_code": 12,
    "city": "南房総市",
    "city_kana": "ミナミボウソウシ",
    "town": "西原",
    "town_kana": "ニシバラ",
    "street": null,
    "office_name": null,
    "office_name_kana": null
  },
  "2515": {
    "postcode": "2992515",
    "prefecture": "千葉県",
    "prefecture_kana": "チバケン",
    "prefecture_code": 12,
    "city": "南房総市",
    "city_kana": "ミナミボウソウシ",
    "town": "石神",
    "town_kana": "イシガミ",
    "street": null,
    "office_name": null,
    "office_name_kana": null
  },
  "2516": {
    "postcode": "2992516",
    "prefecture": "千葉県",
    "prefecture_kana": "チバケン",
    "prefecture_code": 12,
    "city": "南房総市",
    "city_kana": "ミナミボウソウシ",
    "town": "前田",
    "town_kana": "マエダ",
    "street": null,
    "office_name": null,
    "office_name_kana": null
  },
  "2517": {
    "postcode": "2992517",
    "prefecture": "千葉県",
    "prefecture_kana": "チバケン",
    "prefecture_code": 12,
    "city": "南房総市",
    "city_kana": "ミナミボウソウシ",
    "town": "丸本郷",
    "town_kana": "マルホンゴウ",
    "street": null,
    "office_name": null,
    "office_name_kana": null
  },
  "2521": {
    "postcode": "2992521",
    "prefecture": "千葉県",
    "prefecture_kana": "チバケン",
    "prefecture_code": 12,
    "city": "南房総市",
    "city_kana": "ミナミボウソウシ",
    "town": "白子",
    "town_kana": "シラコ",
    "street": null,
    "office_name": null,
    "office_name_kana": null
  },
  "2522": {
    "postcode": "2992522",
    "prefecture": "千葉県",
    "prefecture_kana": "チバケン",
    "prefecture_code": 12,
    "city": "南房総市",
    "city_kana": "ミナミボウソウシ",
    "town": "安馬谷",
    "town_kana": "アンバヤ",
    "street": null,
    "office_name": null,
    "office_name_kana": null
  },
  "2523": {
    "postcode": "2992523",
    "prefecture": "千葉県",
    "prefecture_kana": "チバケン",
    "prefecture_code": 12,
    "city": "南房総市",
    "city_kana": "ミナミボウソウシ",
    "town": "峰",
    "town_kana": "ミネ",
    "street": null,
    "office_name": null,
    "office_name_kana": null
  },
  "2524": {
    "postcode": "2992524",
    "prefecture": "千葉県",
    "prefecture_kana": "チバケン",
    "prefecture_code": 12,
    "city": "南房総市",
    "city_kana": "ミナミボウソウシ",
    "town": "久保",
    "town_kana": "クボ",
    "street": null,
    "office_name": null,
    "office_name_kana": null
  },
  "2525": {
    "postcode": "2992525",
    "prefecture": "千葉県",
    "prefecture_kana": "チバケン",
    "prefecture_code": 12,
    "city": "南房総市",
    "city_kana": "ミナミボウソウシ",
    "town": "加茂",
    "town_kana": "カモ",
    "street": null,
    "office_name": null,
    "office_name_kana": null
  },
  "2526": {
    "postcode": "2992526",
    "prefecture": "千葉県",
    "prefecture_kana": "チバケン",
    "prefecture_code": 12,
    "city": "南房総市",
    "city_kana": "ミナミボウソウシ",
    "town": "沓見",
    "town_kana": "クツミ",
    "street": null,
    "office_name": null,
    "office_name_kana": null
  },
  "2592": [
    {
      "postcode": "2992592",
      "prefecture": "千葉県",
      "prefecture_kana": "チバケン",
      "prefecture_code": 12,
      "city": "南房総市",
      "city_kana": "ミナミボウソウシ",
      "town": "岩糸",
      "town_kana": "イワイト",
      "street": "２４８９番地",
      "office_name": "南房総市役所　丸山地域センター",
      "office_name_kana": "ミナミボウソウシヤクシヨ マルヤマチイキセンタ-"
    },
    {
      "postcode": "2992592",
      "prefecture": "千葉県",
      "prefecture_kana": "チバケン",
      "prefecture_code": 12,
      "city": "南房総市",
      "city_kana": "ミナミボウソウシ",
      "town": "岩糸",
      "town_kana": "イワイト",
      "street": "２４８９番地",
      "office_name": "南房総市役所　丸山分庁舎",
      "office_name_kana": "ミナミボウソウシヤクシヨ マルヤマブンチヨウシヤ"
    }
  ],
  "2701": {
    "postcode": "2992701",
    "prefecture": "千葉県",
    "prefecture_kana": "チバケン",
    "prefecture_code": 12,
    "city": "南房総市",
    "city_kana": "ミナミボウソウシ",
    "town": "和田町花園",
    "town_kana": "ワダチョウハナソノ",
    "street": null,
    "office_name": null,
    "office_name_kana": null
  },
  "2702": {
    "postcode": "2992702",
    "prefecture": "千葉県",
    "prefecture_kana": "チバケン",
    "prefecture_code": 12,
    "city": "南房総市",
    "city_kana": "ミナミボウソウシ",
    "town": "和田町柴",
    "town_kana": "ワダチョウシバ",
    "street": null,
    "office_name": null,
    "office_name_kana": null
  },
  "2703": {
    "postcode": "2992703",
    "prefecture": "千葉県",
    "prefecture_kana": "チバケン",
    "prefecture_code": 12,
    "city": "南房総市",
    "city_kana": "ミナミボウソウシ",
    "town": "和田町仁我浦",
    "town_kana": "ワダチョウニガウラ",
    "street": null,
    "office_name": null,
    "office_name_kana": null
  },
  "2704": {
    "postcode": "2992704",
    "prefecture": "千葉県",
    "prefecture_kana": "チバケン",
    "prefecture_code": 12,
    "city": "南房総市",
    "city_kana": "ミナミボウソウシ",
    "town": "和田町和田",
    "town_kana": "ワダチョウワダ",
    "street": null,
    "office_name": null,
    "office_name_kana": null
  },
  "2705": {
    "postcode": "2992705",
    "prefecture": "千葉県",
    "prefecture_kana": "チバケン",
    "prefecture_code": 12,
    "city": "南房総市",
    "city_kana": "ミナミボウソウシ",
    "town": "和田町真浦",
    "town_kana": "ワダチョウモウラ",
    "street": null,
    "office_name": null,
    "office_name_kana": null
  },
  "2711": {
    "postcode": "2992711",
    "prefecture": "千葉県",
    "prefecture_kana": "チバケン",
    "prefecture_code": 12,
    "city": "南房総市",
    "city_kana": "ミナミボウソウシ",
    "town": "和田町白渚",
    "town_kana": "ワダチョウシラスカ",
    "street": null,
    "office_name": null,
    "office_name_kana": null
  },
  "2712": {
    "postcode": "2992712",
    "prefecture": "千葉県",
    "prefecture_kana": "チバケン",
    "prefecture_code": 12,
    "city": "南房総市",
    "city_kana": "ミナミボウソウシ",
    "town": "和田町海発",
    "town_kana": "ワダチョウカイホツ",
    "street": null,
    "office_name": null,
    "office_name_kana": null
  },
  "2713": {
    "postcode": "2992713",
    "prefecture": "千葉県",
    "prefecture_kana": "チバケン",
    "prefecture_code": 12,
    "city": "南房総市",
    "city_kana": "ミナミボウソウシ",
    "town": "和田町松田",
    "town_kana": "ワダチョウマツダ",
    "street": null,
    "office_name": null,
    "office_name_kana": null
  },
  "2714": {
    "postcode": "2992714",
    "prefecture": "千葉県",
    "prefecture_kana": "チバケン",
    "prefecture_code": 12,
    "city": "南房総市",
    "city_kana": "ミナミボウソウシ",
    "town": "和田町沼",
    "town_kana": "ワダチョウヌマ",
    "street": null,
    "office_name": null,
    "office_name_kana": null
  },
  "2715": {
    "postcode": "2992715",
    "prefecture": "千葉県",
    "prefecture_kana": "チバケン",
    "prefecture_code": 12,
    "city": "南房総市",
    "city_kana": "ミナミボウソウシ",
    "town": "和田町下三原",
    "town_kana": "ワダチョウシモミハラ",
    "street": null,
    "office_name": null,
    "office_name_kana": null
  },
  "2716": {
    "postcode": "2992716",
    "prefecture": "千葉県",
    "prefecture_kana": "チバケン",
    "prefecture_code": 12,
    "city": "南房総市",
    "city_kana": "ミナミボウソウシ",
    "town": "和田町中三原",
    "town_kana": "ワダチョウナカミハラ",
    "street": null,
    "office_name": null,
    "office_name_kana": null
  },
  "2721": {
    "postcode": "2992721",
    "prefecture": "千葉県",
    "prefecture_kana": "チバケン",
    "prefecture_code": 12,
    "city": "南房総市",
    "city_kana": "ミナミボウソウシ",
    "town": "和田町五十蔵",
    "town_kana": "ワダチョウゴジュウクラ",
    "street": null,
    "office_name": null,
    "office_name_kana": null
  },
  "2722": {
    "postcode": "2992722",
    "prefecture": "千葉県",
    "prefecture_kana": "チバケン",
    "prefecture_code": 12,
    "city": "南房総市",
    "city_kana": "ミナミボウソウシ",
    "town": "和田町磑森",
    "town_kana": "ワダチョウスルスモリ",
    "street": null,
    "office_name": null,
    "office_name_kana": null
  },
  "2723": {
    "postcode": "2992723",
    "prefecture": "千葉県",
    "prefecture_kana": "チバケン",
    "prefecture_code": 12,
    "city": "南房総市",
    "city_kana": "ミナミボウソウシ",
    "town": "和田町布野",
    "town_kana": "ワダチョウフノ",
    "street": null,
    "office_name": null,
    "office_name_kana": null
  },
  "2724": {
    "postcode": "2992724",
    "prefecture": "千葉県",
    "prefecture_kana": "チバケン",
    "prefecture_code": 12,
    "city": "南房総市",
    "city_kana": "ミナミボウソウシ",
    "town": "和田町小向",
    "town_kana": "ワダチョウコムカイ",
    "street": null,
    "office_name": null,
    "office_name_kana": null
  },
  "2725": {
    "postcode": "2992725",
    "prefecture": "千葉県",
    "prefecture_kana": "チバケン",
    "prefecture_code": 12,
    "city": "南房総市",
    "city_kana": "ミナミボウソウシ",
    "town": "和田町黒岩",
    "town_kana": "ワダチョウクロイワ",
    "street": null,
    "office_name": null,
    "office_name_kana": null
  },
  "2726": {
    "postcode": "2992726",
    "prefecture": "千葉県",
    "prefecture_kana": "チバケン",
    "prefecture_code": 12,
    "city": "南房総市",
    "city_kana": "ミナミボウソウシ",
    "town": "和田町小川",
    "town_kana": "ワダチョウオガワ",
    "street": null,
    "office_name": null,
    "office_name_kana": null
  },
  "2727": {
    "postcode": "2992727",
    "prefecture": "千葉県",
    "prefecture_kana": "チバケン",
    "prefecture_code": 12,
    "city": "南房総市",
    "city_kana": "ミナミボウソウシ",
    "town": "和田町上三原",
    "town_kana": "ワダチョウカミミハラ",
    "street": null,
    "office_name": null,
    "office_name_kana": null
  },
  "2728": {
    "postcode": "2992728",
    "prefecture": "千葉県",
    "prefecture_kana": "チバケン",
    "prefecture_code": 12,
    "city": "南房総市",
    "city_kana": "ミナミボウソウシ",
    "town": "和田町石堂",
    "town_kana": "ワダチョウイシドウ",
    "street": null,
    "office_name": null,
    "office_name_kana": null
  },
  "2792": {
    "postcode": "2992792",
    "prefecture": "千葉県",
    "prefecture_kana": "チバケン",
    "prefecture_code": 12,
    "city": "南房総市",
    "city_kana": "ミナミボウソウシ",
    "town": "和田町仁我浦",
    "town_kana": "ワダチョウニガウラ",
    "street": "２０６",
    "office_name": "南房総市役所　和田地域センター",
    "office_name_kana": "ミナミボウソウシヤクシヨ ワダチイキセンタ-"
  },
  "2795": {
    "postcode": "2992795",
    "prefecture": "千葉県",
    "prefecture_kana": "チバケン",
    "prefecture_code": 12,
    "city": "南房総市",
    "city_kana": "ミナミボウソウシ",
    "town": "和田町海発",
    "town_kana": "ワダチョウカイホツ",
    "street": "１６０４",
    "office_name": "千葉県立　安房拓心高等学校",
    "office_name_kana": "チバケンリツ アワタクシンコウトウガツコウ"
  },
  "2841": {
    "postcode": "2992841",
    "prefecture": "千葉県",
    "prefecture_kana": "チバケン",
    "prefecture_code": 12,
    "city": "鴨川市",
    "city_kana": "カモガワシ",
    "town": "西江見",
    "town_kana": "ニシエミ",
    "street": null,
    "office_name": null,
    "office_name_kana": null
  },
  "2842": {
    "postcode": "2992842",
    "prefecture": "千葉県",
    "prefecture_kana": "チバケン",
    "prefecture_code": 12,
    "city": "鴨川市",
    "city_kana": "カモガワシ",
    "town": "江見青木",
    "town_kana": "エミアオキ",
    "street": null,
    "office_name": null,
    "office_name_kana": null
  },
  "2843": {
    "postcode": "2992843",
    "prefecture": "千葉県",
    "prefecture_kana": "チバケン",
    "prefecture_code": 12,
    "city": "鴨川市",
    "city_kana": "カモガワシ",
    "town": "東江見",
    "town_kana": "ヒガシエミ",
    "street": null,
    "office_name": null,
    "office_name_kana": null
  },
  "2844": {
    "postcode": "2992844",
    "prefecture": "千葉県",
    "prefecture_kana": "チバケン",
    "prefecture_code": 12,
    "city": "鴨川市",
    "city_kana": "カモガワシ",
    "town": "江見東真門",
    "town_kana": "エミヒガシマカド",
    "street": null,
    "office_name": null,
    "office_name_kana": null
  },
  "2845": {
    "postcode": "2992845",
    "prefecture": "千葉県",
    "prefecture_kana": "チバケン",
    "prefecture_code": 12,
    "city": "鴨川市",
    "city_kana": "カモガワシ",
    "town": "江見西真門",
    "town_kana": "エミニシマカド",
    "street": null,
    "office_name": null,
    "office_name_kana": null
  },
  "2846": {
    "postcode": "2992846",
    "prefecture": "千葉県",
    "prefecture_kana": "チバケン",
    "prefecture_code": 12,
    "city": "鴨川市",
    "city_kana": "カモガワシ",
    "town": "江見外堀",
    "town_kana": "エミソトボリ",
    "street": null,
    "office_name": null,
    "office_name_kana": null
  },
  "2847": {
    "postcode": "2992847",
    "prefecture": "千葉県",
    "prefecture_kana": "チバケン",
    "prefecture_code": 12,
    "city": "鴨川市",
    "city_kana": "カモガワシ",
    "town": "江見内遠野",
    "town_kana": "エミウトノ",
    "street": null,
    "office_name": null,
    "office_name_kana": null
  },
  "2851": {
    "postcode": "2992851",
    "prefecture": "千葉県",
    "prefecture_kana": "チバケン",
    "prefecture_code": 12,
    "city": "鴨川市",
    "city_kana": "カモガワシ",
    "town": "仲町",
    "town_kana": "ナカチョウ",
    "street": null,
    "office_name": null,
    "office_name_kana": null
  },
  "2852": {
    "postcode": "2992852",
    "prefecture": "千葉県",
    "prefecture_kana": "チバケン",
    "prefecture_code": 12,
    "city": "鴨川市",
    "city_kana": "カモガワシ",
    "town": "二子",
    "town_kana": "フタゴ",
    "street": null,
    "office_name": null,
    "office_name_kana": null
  },
  "2853": {
    "postcode": "2992853",
    "prefecture": "千葉県",
    "prefecture_kana": "チバケン",
    "prefecture_code": 12,
    "city": "鴨川市",
    "city_kana": "カモガワシ",
    "town": "宮",
    "town_kana": "ミヤ",
    "street": null,
    "office_name": null,
    "office_name_kana": null
  },
  "2854": {
    "postcode": "2992854",
    "prefecture": "千葉県",
    "prefecture_kana": "チバケン",
    "prefecture_code": 12,
    "city": "鴨川市",
    "city_kana": "カモガワシ",
    "town": "代",
    "town_kana": "ダイ",
    "street": null,
    "office_name": null,
    "office_name_kana": null
  },
  "2855": {
    "postcode": "2992855",
    "prefecture": "千葉県",
    "prefecture_kana": "チバケン",
    "prefecture_code": 12,
    "city": "鴨川市",
    "city_kana": "カモガワシ",
    "town": "畑",
    "town_kana": "ハタ",
    "street": null,
    "office_name": null,
    "office_name_kana": null
  },
  "2856": {
    "postcode": "2992856",
    "prefecture": "千葉県",
    "prefecture_kana": "チバケン",
    "prefecture_code": 12,
    "city": "鴨川市",
    "city_kana": "カモガワシ",
    "town": "西",
    "town_kana": "ニシ",
    "street": null,
    "office_name": null,
    "office_name_kana": null
  },
  "2857": {
    "postcode": "2992857",
    "prefecture": "千葉県",
    "prefecture_kana": "チバケン",
    "prefecture_code": 12,
    "city": "鴨川市",
    "city_kana": "カモガワシ",
    "town": "東",
    "town_kana": "ヒガシ",
    "street": null,
    "office_name": null,
    "office_name_kana": null
  },
  "2858": {
    "postcode": "2992858",
    "prefecture": "千葉県",
    "prefecture_kana": "チバケン",
    "prefecture_code": 12,
    "city": "鴨川市",
    "city_kana": "カモガワシ",
    "town": "上",
    "town_kana": "カミ",
    "street": null,
    "office_name": null,
    "office_name_kana": null
  },
  "2861": {
    "postcode": "2992861",
    "prefecture": "千葉県",
    "prefecture_kana": "チバケン",
    "prefecture_code": 12,
    "city": "鴨川市",
    "city_kana": "カモガワシ",
    "town": "太海西",
    "town_kana": "フトミニシ",
    "street": null,
    "office_name": null,
    "office_name_kana": null
  },
  "2862": {
    "postcode": "2992862",
    "prefecture": "千葉県",
    "prefecture_kana": "チバケン",
    "prefecture_code": 12,
    "city": "鴨川市",
    "city_kana": "カモガワシ",
    "town": "太海",
    "town_kana": "フトミ",
    "street": null,
    "office_name": null,
    "office_name_kana": null
  },
  "2863": {
    "postcode": "2992863",
    "prefecture": "千葉県",
    "prefecture_kana": "チバケン",
    "prefecture_code": 12,
    "city": "鴨川市",
    "city_kana": "カモガワシ",
    "town": "太海浜",
    "town_kana": "フトミハマ",
    "street": null,
    "office_name": null,
    "office_name_kana": null
  },
  "2864": {
    "postcode": "2992864",
    "prefecture": "千葉県",
    "prefecture_kana": "チバケン",
    "prefecture_code": 12,
    "city": "鴨川市",
    "city_kana": "カモガワシ",
    "town": "天面",
    "town_kana": "アマツラ",
    "street": null,
    "office_name": null,
    "office_name_kana": null
  },
  "2865": {
    "postcode": "2992865",
    "prefecture": "千葉県",
    "prefecture_kana": "チバケン",
    "prefecture_code": 12,
    "city": "鴨川市",
    "city_kana": "カモガワシ",
    "town": "江見太夫崎",
    "town_kana": "エミタユウザキ",
    "street": null,
    "office_name": null,
    "office_name_kana": null
  },
  "2866": {
    "postcode": "2992866",
    "prefecture": "千葉県",
    "prefecture_kana": "チバケン",
    "prefecture_code": 12,
    "city": "鴨川市",
    "city_kana": "カモガワシ",
    "town": "江見吉浦",
    "town_kana": "エミヨシウラ",
    "street": null,
    "office_name": null,
    "office_name_kana": null
  },
  "2867": {
    "postcode": "2992867",
    "prefecture": "千葉県",
    "prefecture_kana": "チバケン",
    "prefecture_code": 12,
    "city": "鴨川市",
    "city_kana": "カモガワシ",
    "town": "西山",
    "town_kana": "ニシヤマ",
    "street": null,
    "office_name": null,
    "office_name_kana": null
  },
  "3200": {
    "postcode": "2993200",
    "prefecture": "千葉県",
    "prefecture_kana": "チバケン",
    "prefecture_code": 12,
    "city": "大網白里市",
    "city_kana": "オオアミシラサトシ",
    "town": "",
    "town_kana": "",
    "street": null,
    "office_name": null,
    "office_name_kana": null
  },
  "3201": {
    "postcode": "2993201",
    "prefecture": "千葉県",
    "prefecture_kana": "チバケン",
    "prefecture_code": 12,
    "city": "大網白里市",
    "city_kana": "オオアミシラサトシ",
    "town": "北今泉",
    "town_kana": "キタイマイズミ",
    "street": null,
    "office_name": null,
    "office_name_kana": null
  },
  "3202": {
    "postcode": "2993202",
    "prefecture": "千葉県",
    "prefecture_kana": "チバケン",
    "prefecture_code": 12,
    "city": "大網白里市",
    "city_kana": "オオアミシラサトシ",
    "town": "南今泉",
    "town_kana": "ミナミイマイズミ",
    "street": null,
    "office_name": null,
    "office_name_kana": null
  },
  "3203": {
    "postcode": "2993203",
    "prefecture": "千葉県",
    "prefecture_kana": "チバケン",
    "prefecture_code": 12,
    "city": "大網白里市",
    "city_kana": "オオアミシラサトシ",
    "town": "四天木",
    "town_kana": "シテンギ",
    "street": null,
    "office_name": null,
    "office_name_kana": null
  },
  "3211": {
    "postcode": "2993211",
    "prefecture": "千葉県",
    "prefecture_kana": "チバケン",
    "prefecture_code": 12,
    "city": "大網白里市",
    "city_kana": "オオアミシラサトシ",
    "town": "細草",
    "town_kana": "ホソクサ",
    "street": null,
    "office_name": null,
    "office_name_kana": null
  },
  "3212": {
    "postcode": "2993212",
    "prefecture": "千葉県",
    "prefecture_kana": "チバケン",
    "prefecture_code": 12,
    "city": "大網白里市",
    "city_kana": "オオアミシラサトシ",
    "town": "清水",
    "town_kana": "シミズ",
    "street": null,
    "office_name": null,
    "office_name_kana": null
  },
  "3213": {
    "postcode": "2993213",
    "prefecture": "千葉県",
    "prefecture_kana": "チバケン",
    "prefecture_code": 12,
    "city": "大網白里市",
    "city_kana": "オオアミシラサトシ",
    "town": "二之袋",
    "town_kana": "ニノフクロ",
    "street": null,
    "office_name": null,
    "office_name_kana": null
  },
  "3214": {
    "postcode": "2993214",
    "prefecture": "千葉県",
    "prefecture_kana": "チバケン",
    "prefecture_code": 12,
    "city": "大網白里市",
    "city_kana": "オオアミシラサトシ",
    "town": "下ヶ傍示",
    "town_kana": "サゲホウジ",
    "street": null,
    "office_name": null,
    "office_name_kana": null
  },
  "3215": {
    "postcode": "2993215",
    "prefecture": "千葉県",
    "prefecture_kana": "チバケン",
    "prefecture_code": 12,
    "city": "大網白里市",
    "city_kana": "オオアミシラサトシ",
    "town": "長国",
    "town_kana": "ナガクニ",
    "street": null,
    "office_name": null,
    "office_name_kana": null
  },
  "3216": {
    "postcode": "2993216",
    "prefecture": "千葉県",
    "prefecture_kana": "チバケン",
    "prefecture_code": 12,
    "city": "大網白里市",
    "city_kana": "オオアミシラサトシ",
    "town": "北吉田",
    "town_kana": "キタヨシダ",
    "street": null,
    "office_name": null,
    "office_name_kana": null
  },
  "3217": {
    "postcode": "2993217",
    "prefecture": "千葉県",
    "prefecture_kana": "チバケン",
    "prefecture_code": 12,
    "city": "大網白里市",
    "city_kana": "オオアミシラサトシ",
    "town": "木崎",
    "town_kana": "キサキ",
    "street": null,
    "office_name": null,
    "office_name_kana": null
  },
  "3218": {
    "postcode": "2993218",
    "prefecture": "千葉県",
    "prefecture_kana": "チバケン",
    "prefecture_code": 12,
    "city": "大網白里市",
    "city_kana": "オオアミシラサトシ",
    "town": "北飯塚",
    "town_kana": "キタイイヅカ",
    "street": null,
    "office_name": null,
    "office_name_kana": null
  },
  "3219": {
    "postcode": "2993219",
    "prefecture": "千葉県",
    "prefecture_kana": "チバケン",
    "prefecture_code": 12,
    "city": "大網白里市",
    "city_kana": "オオアミシラサトシ",
    "town": "南飯塚",
    "town_kana": "ミナミイイヅカ",
    "street": null,
    "office_name": null,
    "office_name_kana": null
  },
  "3221": {
    "postcode": "2993221",
    "prefecture": "千葉県",
    "prefecture_kana": "チバケン",
    "prefecture_code": 12,
    "city": "大網白里市",
    "city_kana": "オオアミシラサトシ",
    "town": "富田",
    "town_kana": "トミダ",
    "street": null,
    "office_name": null,
    "office_name_kana": null
  },
  "3222": {
    "postcode": "2993222",
    "prefecture": "千葉県",
    "prefecture_kana": "チバケン",
    "prefecture_code": 12,
    "city": "大網白里市",
    "city_kana": "オオアミシラサトシ",
    "town": "星谷",
    "town_kana": "ホシヤ",
    "street": null,
    "office_name": null,
    "office_name_kana": null
  },
  "3223": {
    "postcode": "2993223",
    "prefecture": "千葉県",
    "prefecture_kana": "チバケン",
    "prefecture_code": 12,
    "city": "大網白里市",
    "city_kana": "オオアミシラサトシ",
    "town": "南横川",
    "town_kana": "ミナミヨコカワ",
    "street": null,
    "office_name": null,
    "office_name_kana": null
  },
  "3231": {
    "postcode": "2993231",
    "prefecture": "千葉県",
    "prefecture_kana": "チバケン",
    "prefecture_code": 12,
    "city": "大網白里市",
    "city_kana": "オオアミシラサトシ",
    "town": "経田",
    "town_kana": "キョウデン",
    "street": null,
    "office_name": null,
    "office_name_kana": null
  },
  "3232": {
    "postcode": "2993232",
    "prefecture": "千葉県",
    "prefecture_kana": "チバケン",
    "prefecture_code": 12,
    "city": "大網白里市",
    "city_kana": "オオアミシラサトシ",
    "town": "ながた野",
    "town_kana": "ナガタノ",
    "street": null,
    "office_name": null,
    "office_name_kana": null
  },
  "3233": {
    "postcode": "2993233",
    "prefecture": "千葉県",
    "prefecture_kana": "チバケン",
    "prefecture_code": 12,
    "city": "大網白里市",
    "city_kana": "オオアミシラサトシ",
    "town": "永田",
    "town_kana": "ナガタ",
    "street": null,
    "office_name": null,
    "office_name_kana": null
  },
  "3234": {
    "postcode": "2993234",
    "prefecture": "千葉県",
    "prefecture_kana": "チバケン",
    "prefecture_code": 12,
    "city": "大網白里市",
    "city_kana": "オオアミシラサトシ",
    "town": "みずほ台",
    "town_kana": "ミズホダイ",
    "street": null,
    "office_name": null,
    "office_name_kana": null
  },
  "3235": {
    "postcode": "2993235",
    "prefecture": "千葉県",
    "prefecture_kana": "チバケン",
    "prefecture_code": 12,
    "city": "大網白里市",
    "city_kana": "オオアミシラサトシ",
    "town": "駒込",
    "town_kana": "コマゴメ",
    "street": null,
    "office_name": null,
    "office_name_kana": null
  },
  "3236": {
    "postcode": "2993236",
    "prefecture": "千葉県",
    "prefecture_kana": "チバケン",
    "prefecture_code": 12,
    "city": "大網白里市",
    "city_kana": "オオアミシラサトシ",
    "town": "みやこ野",
    "town_kana": "ミヤコノ",
    "street": null,
    "office_name": null,
    "office_name_kana": null
  },
  "3237": {
    "postcode": "2993237",
    "prefecture": "千葉県",
    "prefecture_kana": "チバケン",
    "prefecture_code": 12,
    "city": "大網白里市",
    "city_kana": "オオアミシラサトシ",
    "town": "仏島",
    "town_kana": "ホトケシマ",
    "street": null,
    "office_name": null,
    "office_name_kana": null
  },
  "3238": {
    "postcode": "2993238",
    "prefecture": "千葉県",
    "prefecture_kana": "チバケン",
    "prefecture_code": 12,
    "city": "大網白里市",
    "city_kana": "オオアミシラサトシ",
    "town": "東駒込",
    "town_kana": "ヒガシコマゴメ",
    "street": null,
    "office_name": null,
    "office_name_kana": null
  },
  "3241": {
    "postcode": "2993241",
    "prefecture": "千葉県",
    "prefecture_kana": "チバケン",
    "prefecture_code": 12,
    "city": "大網白里市",
    "city_kana": "オオアミシラサトシ",
    "town": "季美の森南",
    "town_kana": "キミノモリミナミ",
    "street": null,
    "office_name": null,
    "office_name_kana": null
  },
  "3242": {
    "postcode": "2993242",
    "prefecture": "千葉県",
    "prefecture_kana": "チバケン",
    "prefecture_code": 12,
    "city": "大網白里市",
    "city_kana": "オオアミシラサトシ",
    "town": "金谷郷",
    "town_kana": "カナヤゴウ",
    "street": null,
    "office_name": null,
    "office_name_kana": null
  },
  "3243": {
    "postcode": "2993243",
    "prefecture": "千葉県",
    "prefecture_kana": "チバケン",
    "prefecture_code": 12,
    "city": "大網白里市",
    "city_kana": "オオアミシラサトシ",
    "town": "大竹",
    "town_kana": "オオダケ",
    "street": null,
    "office_name": null,
    "office_name_kana": null
  },
  "3244": {
    "postcode": "2993244",
    "prefecture": "千葉県",
    "prefecture_kana": "チバケン",
    "prefecture_code": 12,
    "city": "大網白里市",
    "city_kana": "オオアミシラサトシ",
    "town": "南玉",
    "town_kana": "ミナミダマ",
    "street": null,
    "office_name": null,
    "office_name_kana": null
  },
  "3245": {
    "postcode": "2993245",
    "prefecture": "千葉県",
    "prefecture_kana": "チバケン",
    "prefecture_code": 12,
    "city": "大網白里市",
    "city_kana": "オオアミシラサトシ",
    "town": "池田",
    "town_kana": "イケダ",
    "street": null,
    "office_name": null,
    "office_name_kana": null
  },
  "3246": {
    "postcode": "2993246",
    "prefecture": "千葉県",
    "prefecture_kana": "チバケン",
    "prefecture_code": 12,
    "city": "大網白里市",
    "city_kana": "オオアミシラサトシ",
    "town": "小中",
    "town_kana": "コナカ",
    "street": null,
    "office_name": null,
    "office_name_kana": null
  },
  "3247": {
    "postcode": "2993247",
    "prefecture": "千葉県",
    "prefecture_kana": "チバケン",
    "prefecture_code": 12,
    "city": "大網白里市",
    "city_kana": "オオアミシラサトシ",
    "town": "神房",
    "town_kana": "カンボウ",
    "street": null,
    "office_name": null,
    "office_name_kana": null
  },
  "3248": {
    "postcode": "2993248",
    "prefecture": "千葉県",
    "prefecture_kana": "チバケン",
    "prefecture_code": 12,
    "city": "大網白里市",
    "city_kana": "オオアミシラサトシ",
    "town": "萱野",
    "town_kana": "カヤノ",
    "street": null,
    "office_name": null,
    "office_name_kana": null
  },
  "3249": {
    "postcode": "2993249",
    "prefecture": "千葉県",
    "prefecture_kana": "チバケン",
    "prefecture_code": 12,
    "city": "大網白里市",
    "city_kana": "オオアミシラサトシ",
    "town": "砂田",
    "town_kana": "イサゴダ",
    "street": null,
    "office_name": null,
    "office_name_kana": null
  },
  "3251": {
    "postcode": "2993251",
    "prefecture": "千葉県",
    "prefecture_kana": "チバケン",
    "prefecture_code": 12,
    "city": "大網白里市",
    "city_kana": "オオアミシラサトシ",
    "town": "大網",
    "town_kana": "オオアミ",
    "street": null,
    "office_name": null,
    "office_name_kana": null
  },
  "3252": {
    "postcode": "2993252",
    "prefecture": "千葉県",
    "prefecture_kana": "チバケン",
    "prefecture_code": 12,
    "city": "大網白里市",
    "city_kana": "オオアミシラサトシ",
    "town": "餅木",
    "town_kana": "モチノキ",
    "street": null,
    "office_name": null,
    "office_name_kana": null
  },
  "3253": {
    "postcode": "2993253",
    "prefecture": "千葉県",
    "prefecture_kana": "チバケン",
    "prefecture_code": 12,
    "city": "大網白里市",
    "city_kana": "オオアミシラサトシ",
    "town": "小西",
    "town_kana": "コニシ",
    "street": null,
    "office_name": null,
    "office_name_kana": null
  },
  "3254": {
    "postcode": "2993254",
    "prefecture": "千葉県",
    "prefecture_kana": "チバケン",
    "prefecture_code": 12,
    "city": "大網白里市",
    "city_kana": "オオアミシラサトシ",
    "town": "養安寺",
    "town_kana": "ヨウアンジ",
    "street": null,
    "office_name": null,
    "office_name_kana": null
  },
  "3255": {
    "postcode": "2993255",
    "prefecture": "千葉県",
    "prefecture_kana": "チバケン",
    "prefecture_code": 12,
    "city": "大網白里市",
    "city_kana": "オオアミシラサトシ",
    "town": "みどりが丘",
    "town_kana": "ミドリガオカ",
    "street": null,
    "office_name": null,
    "office_name_kana": null
  },
  "3256": {
    "postcode": "2993256",
    "prefecture": "千葉県",
    "prefecture_kana": "チバケン",
    "prefecture_code": 12,
    "city": "大網白里市",
    "city_kana": "オオアミシラサトシ",
    "town": "山口",
    "town_kana": "ヤマグチ",
    "street": null,
    "office_name": null,
    "office_name_kana": null
  },
  "3261": {
    "postcode": "2993261",
    "prefecture": "千葉県",
    "prefecture_kana": "チバケン",
    "prefecture_code": 12,
    "city": "大網白里市",
    "city_kana": "オオアミシラサトシ",
    "town": "九十根",
    "town_kana": "クジュウネ",
    "street": null,
    "office_name": null,
    "office_name_kana": null
  },
  "3262": {
    "postcode": "2993262",
    "prefecture": "千葉県",
    "prefecture_kana": "チバケン",
    "prefecture_code": 12,
    "city": "大網白里市",
    "city_kana": "オオアミシラサトシ",
    "town": "桂山",
    "town_kana": "カツラヤマ",
    "street": null,
    "office_name": null,
    "office_name_kana": null
  },
  "3263": {
    "postcode": "2993263",
    "prefecture": "千葉県",
    "prefecture_kana": "チバケン",
    "prefecture_code": 12,
    "city": "大網白里市",
    "city_kana": "オオアミシラサトシ",
    "town": "柳橋",
    "town_kana": "ヤナギバシ",
    "street": null,
    "office_name": null,
    "office_name_kana": null
  },
  "3264": {
    "postcode": "2993264",
    "prefecture": "千葉県",
    "prefecture_kana": "チバケン",
    "prefecture_code": 12,
    "city": "大網白里市",
    "city_kana": "オオアミシラサトシ",
    "town": "柿餅",
    "town_kana": "カキモチ",
    "street": null,
    "office_name": null,
    "office_name_kana": null
  },
  "3265": {
    "postcode": "2993265",
    "prefecture": "千葉県",
    "prefecture_kana": "チバケン",
    "prefecture_code": 12,
    "city": "大網白里市",
    "city_kana": "オオアミシラサトシ",
    "town": "上貝塚",
    "town_kana": "カミカイヅカ",
    "street": null,
    "office_name": null,
    "office_name_kana": null
  },
  "3266": {
    "postcode": "2993266",
    "prefecture": "千葉県",
    "prefecture_kana": "チバケン",
    "prefecture_code": 12,
    "city": "大網白里市",
    "city_kana": "オオアミシラサトシ",
    "town": "北横川",
    "town_kana": "キタヨコカワ",
    "street": null,
    "office_name": null,
    "office_name_kana": null
  },
  "3267": {
    "postcode": "2993267",
    "prefecture": "千葉県",
    "prefecture_kana": "チバケン",
    "prefecture_code": 12,
    "city": "大網白里市",
    "city_kana": "オオアミシラサトシ",
    "town": "清名幸谷",
    "town_kana": "セイナゴウヤ",
    "street": null,
    "office_name": null,
    "office_name_kana": null
  },
  "3268": {
    "postcode": "2993268",
    "prefecture": "千葉県",
    "prefecture_kana": "チバケン",
    "prefecture_code": 12,
    "city": "大網白里市",
    "city_kana": "オオアミシラサトシ",
    "town": "上谷新田",
    "town_kana": "ウワヤシンデン",
    "street": null,
    "office_name": null,
    "office_name_kana": null
  },
  "4101": {
    "postcode": "2994101",
    "prefecture": "千葉県",
    "prefecture_kana": "チバケン",
    "prefecture_code": 12,
    "city": "茂原市",
    "city_kana": "モバラシ",
    "town": "清水",
    "town_kana": "シミズ",
    "street": null,
    "office_name": null,
    "office_name_kana": null
  },
  "4102": {
    "postcode": "2994102",
    "prefecture": "千葉県",
    "prefecture_kana": "チバケン",
    "prefecture_code": 12,
    "city": "茂原市",
    "city_kana": "モバラシ",
    "town": "御蔵芝",
    "town_kana": "ミクラシバ",
    "street": null,
    "office_name": null,
    "office_name_kana": null
  },
  "4103": {
    "postcode": "2994103",
    "prefecture": "千葉県",
    "prefecture_kana": "チバケン",
    "prefecture_code": 12,
    "city": "茂原市",
    "city_kana": "モバラシ",
    "town": "千沢",
    "town_kana": "センザワ",
    "street": null,
    "office_name": null,
    "office_name_kana": null
  },
  "4104": {
    "postcode": "2994104",
    "prefecture": "千葉県",
    "prefecture_kana": "チバケン",
    "prefecture_code": 12,
    "city": "茂原市",
    "city_kana": "モバラシ",
    "town": "南吉田",
    "town_kana": "ミナミヨシダ",
    "street": null,
    "office_name": null,
    "office_name_kana": null
  },
  "4105": {
    "postcode": "2994105",
    "prefecture": "千葉県",
    "prefecture_kana": "チバケン",
    "prefecture_code": 12,
    "city": "茂原市",
    "city_kana": "モバラシ",
    "town": "弓渡",
    "town_kana": "ユミワタシ",
    "street": null,
    "office_name": null,
    "office_name_kana": null
  },
  "4106": {
    "postcode": "2994106",
    "prefecture": "千葉県",
    "prefecture_kana": "チバケン",
    "prefecture_code": 12,
    "city": "茂原市",
    "city_kana": "モバラシ",
    "town": "粟生野",
    "town_kana": "アオノ",
    "street": null,
    "office_name": null,
    "office_name_kana": null
  },
  "4111": {
    "postcode": "2994111",
    "prefecture": "千葉県",
    "prefecture_kana": "チバケン",
    "prefecture_code": 12,
    "city": "茂原市",
    "city_kana": "モバラシ",
    "town": "萱場",
    "town_kana": "カヤバ",
    "street": null,
    "office_name": null,
    "office_name_kana": null
  },
  "4112": {
    "postcode": "2994112",
    "prefecture": "千葉県",
    "prefecture_kana": "チバケン",
    "prefecture_code": 12,
    "city": "茂原市",
    "city_kana": "モバラシ",
    "town": "西野",
    "town_kana": "ニシノ",
    "street": null,
    "office_name": null,
    "office_name_kana": null
  },
  "4113": {
    "postcode": "2994113",
    "prefecture": "千葉県",
    "prefecture_kana": "チバケン",
    "prefecture_code": 12,
    "city": "茂原市",
    "city_kana": "モバラシ",
    "town": "法目",
    "town_kana": "ホウメ",
    "street": null,
    "office_name": null,
    "office_name_kana": null
  },
  "4114": {
    "postcode": "2994114",
    "prefecture": "千葉県",
    "prefecture_kana": "チバケン",
    "prefecture_code": 12,
    "city": "茂原市",
    "city_kana": "モバラシ",
    "town": "本納",
    "town_kana": "ホンノウ",
    "street": null,
    "office_name": null,
    "office_name_kana": null
  },
  "4115": {
    "postcode": "2994115",
    "prefecture": "千葉県",
    "prefecture_kana": "チバケン",
    "prefecture_code": 12,
    "city": "茂原市",
    "city_kana": "モバラシ",
    "town": "榎神房",
    "town_kana": "エノキカンボウ",
    "street": null,
    "office_name": null,
    "office_name_kana": null
  },
  "4116": {
    "postcode": "2994116",
    "prefecture": "千葉県",
    "prefecture_kana": "チバケン",
    "prefecture_code": 12,
    "city": "茂原市",
    "city_kana": "モバラシ",
    "town": "高田",
    "town_kana": "タカダ",
    "street": null,
    "office_name": null,
    "office_name_kana": null
  },
  "4117": {
    "postcode": "2994117",
    "prefecture": "千葉県",
    "prefecture_kana": "チバケン",
    "prefecture_code": 12,
    "city": "茂原市",
    "city_kana": "モバラシ",
    "town": "小萱場",
    "town_kana": "コカヤバ",
    "street": null,
    "office_name": null,
    "office_name_kana": null
  },
  "4118": {
    "postcode": "2994118",
    "prefecture": "千葉県",
    "prefecture_kana": "チバケン",
    "prefecture_code": 12,
    "city": "茂原市",
    "city_kana": "モバラシ",
    "town": "榎神房飛地",
    "town_kana": "エノキカンボウトビチ",
    "street": null,
    "office_name": null,
    "office_name_kana": null
  },
  "4121": {
    "postcode": "2994121",
    "prefecture": "千葉県",
    "prefecture_kana": "チバケン",
    "prefecture_code": 12,
    "city": "茂原市",
    "city_kana": "モバラシ",
    "town": "吉井下",
    "town_kana": "ヨシイシモ",
    "street": null,
    "office_name": null,
    "office_name_kana": null
  },
  "4122": {
    "postcode": "2994122",
    "prefecture": "千葉県",
    "prefecture_kana": "チバケン",
    "prefecture_code": 12,
    "city": "茂原市",
    "city_kana": "モバラシ",
    "town": "吉井上",
    "town_kana": "ヨシイカミ",
    "street": null,
    "office_name": null,
    "office_name_kana": null
  },
  "4123": {
    "postcode": "2994123",
    "prefecture": "千葉県",
    "prefecture_kana": "チバケン",
    "prefecture_code": 12,
    "city": "茂原市",
    "city_kana": "モバラシ",
    "town": "下太田",
    "town_kana": "シモオオダ",
    "street": null,
    "office_name": null,
    "office_name_kana": null
  },
  "4124": {
    "postcode": "2994124",
    "prefecture": "千葉県",
    "prefecture_kana": "チバケン",
    "prefecture_code": 12,
    "city": "茂原市",
    "city_kana": "モバラシ",
    "town": "上太田",
    "town_kana": "カミオオダ",
    "street": null,
    "office_name": null,
    "office_name_kana": null
  },
  "4125": {
    "postcode": "2994125",
    "prefecture": "千葉県",
    "prefecture_kana": "チバケン",
    "prefecture_code": 12,
    "city": "茂原市",
    "city_kana": "モバラシ",
    "town": "大沢",
    "town_kana": "オオサワ",
    "street": null,
    "office_name": null,
    "office_name_kana": null
  },
  "4126": {
    "postcode": "2994126",
    "prefecture": "千葉県",
    "prefecture_kana": "チバケン",
    "prefecture_code": 12,
    "city": "茂原市",
    "city_kana": "モバラシ",
    "town": "柴名",
    "town_kana": "シバナ",
    "street": null,
    "office_name": null,
    "office_name_kana": null
  },
  "4127": {
    "postcode": "2994127",
    "prefecture": "千葉県",
    "prefecture_kana": "チバケン",
    "prefecture_code": 12,
    "city": "茂原市",
    "city_kana": "モバラシ",
    "town": "桂",
    "town_kana": "カツラ",
    "street": null,
    "office_name": null,
    "office_name_kana": null
  },
  "4128": {
    "postcode": "2994128",
    "prefecture": "千葉県",
    "prefecture_kana": "チバケン",
    "prefecture_code": 12,
    "city": "茂原市",
    "city_kana": "モバラシ",
    "town": "桂飛地",
    "town_kana": "カツラトビチ",
    "street": null,
    "office_name": null,
    "office_name_kana": null
  },
  "4129": {
    "postcode": "2994129",
    "prefecture": "千葉県",
    "prefecture_kana": "チバケン",
    "prefecture_code": 12,
    "city": "茂原市",
    "city_kana": "モバラシ",
    "town": "にいはる工業団地",
    "town_kana": "ニイハルコウギョウダンチ",
    "street": null,
    "office_name": null,
    "office_name_kana": null
  },
  "4192": {
    "postcode": "2994192",
    "prefecture": "千葉県",
    "prefecture_kana": "チバケン",
    "prefecture_code": 12,
    "city": "茂原市",
    "city_kana": "モバラシ",
    "town": "本納",
    "town_kana": "ホンノウ",
    "street": "２７７７",
    "office_name": "公立長生病院",
    "office_name_kana": "コウリツチヨウセイビヨウイン"
  },
  "4200": {
    "postcode": "2994200",
    "prefecture": "千葉県",
    "prefecture_kana": "チバケン",
    "prefecture_code": 12,
    "city": "長生郡白子町",
    "city_kana": "チョウセイグンシラコマチ",
    "town": "",
    "town_kana": "",
    "street": null,
    "office_name": null,
    "office_name_kana": null
  },
  "4201": {
    "postcode": "2994201",
    "prefecture": "千葉県",
    "prefecture_kana": "チバケン",
    "prefecture_code": 12,
    "city": "長生郡白子町",
    "city_kana": "チョウセイグンシラコマチ",
    "town": "浜宿",
    "town_kana": "ハマシュク",
    "street": null,
    "office_name": null,
    "office_name_kana": null
  },
  "4202": {
    "postcode": "2994202",
    "prefecture": "千葉県",
    "prefecture_kana": "チバケン",
    "prefecture_code": 12,
    "city": "長生郡白子町",
    "city_kana": "チョウセイグンシラコマチ",
    "town": "牛込",
    "town_kana": "ウシゴメ",
    "street": null,
    "office_name": null,
    "office_name_kana": null
  },
  "4203": {
    "postcode": "2994203",
    "prefecture": "千葉県",
    "prefecture_kana": "チバケン",
    "prefecture_code": 12,
    "city": "長生郡白子町",
    "city_kana": "チョウセイグンシラコマチ",
    "town": "剃金",
    "town_kana": "ソリガネ",
    "street": null,
    "office_name": null,
    "office_name_kana": null
  },
  "4204": {
    "postcode": "2994204",
    "prefecture": "千葉県",
    "prefecture_kana": "チバケン",
    "prefecture_code": 12,
    "city": "長生郡白子町",
    "city_kana": "チョウセイグンシラコマチ",
    "town": "福島",
    "town_kana": "フクシマ",
    "street": null,
    "office_name": null,
    "office_name_kana": null
  },
  "4205": {
    "postcode": "2994205",
    "prefecture": "千葉県",
    "prefecture_kana": "チバケン",
    "prefecture_code": 12,
    "city": "長生郡白子町",
    "city_kana": "チョウセイグンシラコマチ",
    "town": "南日当",
    "town_kana": "ミナミヒナタ",
    "street": null,
    "office_name": null,
    "office_name_kana": null
  },
  "4206": {
    "postcode": "2994206",
    "prefecture": "千葉県",
    "prefecture_kana": "チバケン",
    "prefecture_code": 12,
    "city": "長生郡白子町",
    "city_kana": "チョウセイグンシラコマチ",
    "town": "北日当",
    "town_kana": "キタヒナタ",
    "street": null,
    "office_name": null,
    "office_name_kana": null
  },
  "4211": {
    "postcode": "2994211",
    "prefecture": "千葉県",
    "prefecture_kana": "チバケン",
    "prefecture_code": 12,
    "city": "長生郡白子町",
    "city_kana": "チョウセイグンシラコマチ",
    "town": "五井",
    "town_kana": "ゴイ",
    "street": null,
    "office_name": null,
    "office_name_kana": null
  },
  "4212": {
    "postcode": "2994212",
    "prefecture": "千葉県",
    "prefecture_kana": "チバケン",
    "prefecture_code": 12,
    "city": "長生郡白子町",
    "city_kana": "チョウセイグンシラコマチ",
    "town": "古所",
    "town_kana": "フルトコロ",
    "street": null,
    "office_name": null,
    "office_name_kana": null
  },
  "4213": {
    "postcode": "2994213",
    "prefecture": "千葉県",
    "prefecture_kana": "チバケン",
    "prefecture_code": 12,
    "city": "長生郡白子町",
    "city_kana": "チョウセイグンシラコマチ",
    "town": "八斗",
    "town_kana": "ハツト",
    "street": null,
    "office_name": null,
    "office_name_kana": null
  },
  "4214": {
    "postcode": "2994214",
    "prefecture": "千葉県",
    "prefecture_kana": "チバケン",
    "prefecture_code": 12,
    "city": "長生郡白子町",
    "city_kana": "チョウセイグンシラコマチ",
    "town": "驚",
    "town_kana": "オドロキ",
    "street": null,
    "office_name": null,
    "office_name_kana": null
  },
  "4215": {
    "postcode": "2994215",
    "prefecture": "千葉県",
    "prefecture_kana": "チバケン",
    "prefecture_code": 12,
    "city": "長生郡白子町",
    "city_kana": "チョウセイグンシラコマチ",
    "town": "中里",
    "town_kana": "ナカザト",
    "street": null,
    "office_name": null,
    "office_name_kana": null
  },
  "4216": {
    "postcode": "2994216",
    "prefecture": "千葉県",
    "prefecture_kana": "チバケン",
    "prefecture_code": 12,
    "city": "長生郡白子町",
    "city_kana": "チョウセイグンシラコマチ",
    "town": "幸治",
    "town_kana": "コウジ",
    "street": null,
    "office_name": null,
    "office_name_kana": null
  },
  "4217": {
    "postcode": "2994217",
    "prefecture": "千葉県",
    "prefecture_kana": "チバケン",
    "prefecture_code": 12,
    "city": "長生郡白子町",
    "city_kana": "チョウセイグンシラコマチ",
    "town": "北高根",
    "town_kana": "キタダカネ",
    "street": null,
    "office_name": null,
    "office_name_kana": null
  },
  "4218": {
    "postcode": "2994218",
    "prefecture": "千葉県",
    "prefecture_kana": "チバケン",
    "prefecture_code": 12,
    "city": "長生郡白子町",
    "city_kana": "チョウセイグンシラコマチ",
    "town": "関",
    "town_kana": "セキ",
    "street": null,
    "office_name": null,
    "office_name_kana": null
  },
  "4292": {
    "postcode": "2994292",
    "prefecture": "千葉県",
    "prefecture_kana": "チバケン",
    "prefecture_code": 12,
    "city": "長生郡白子町",
    "city_kana": "チョウセイグンシラコマチ",
    "town": "関",
    "town_kana": "セキ",
    "street": "５０７４−２",
    "office_name": "白子町役場",
    "office_name_kana": "シラコマチヤクバ"
  },
  "4300": [
    {
      "postcode": "2994300",
      "prefecture": "千葉県",
      "prefecture_kana": "チバケン",
      "prefecture_code": 12,
      "city": "長生郡一宮町",
      "city_kana": "チョウセイグンイチノミヤマチ",
      "town": "",
      "town_kana": "",
      "street": null,
      "office_name": null,
      "office_name_kana": null
    },
    {
      "postcode": "2994300",
      "prefecture": "千葉県",
      "prefecture_kana": "チバケン",
      "prefecture_code": 12,
      "city": "長生郡長生村",
      "city_kana": "チョウセイグンチョウセイムラ",
      "town": "",
      "town_kana": "",
      "street": null,
      "office_name": null,
      "office_name_kana": null
    }
  ],
  "4301": {
    "postcode": "2994301",
    "prefecture": "千葉県",
    "prefecture_kana": "チバケン",
    "prefecture_code": 12,
    "city": "長生郡一宮町",
    "city_kana": "チョウセイグンイチノミヤマチ",
    "town": "一宮",
    "town_kana": "イチノミヤ",
    "street": null,
    "office_name": null,
    "office_name_kana": null
  },
  "4302": {
    "postcode": "2994302",
    "prefecture": "千葉県",
    "prefecture_kana": "チバケン",
    "prefecture_code": 12,
    "city": "長生郡一宮町",
    "city_kana": "チョウセイグンイチノミヤマチ",
    "town": "田町",
    "town_kana": "タマチ",
    "street": null,
    "office_name": null,
    "office_name_kana": null
  },
  "4303": {
    "postcode": "2994303",
    "prefecture": "千葉県",
    "prefecture_kana": "チバケン",
    "prefecture_code": 12,
    "city": "長生郡一宮町",
    "city_kana": "チョウセイグンイチノミヤマチ",
    "town": "東浪見",
    "town_kana": "トラミ",
    "street": null,
    "office_name": null,
    "office_name_kana": null
  },
  "4304": {
    "postcode": "2994304",
    "prefecture": "千葉県",
    "prefecture_kana": "チバケン",
    "prefecture_code": 12,
    "city": "長生郡一宮町",
    "city_kana": "チョウセイグンイチノミヤマチ",
    "town": "綱田",
    "town_kana": "ツナダ",
    "street": null,
    "office_name": null,
    "office_name_kana": null
  },
  "4305": {
    "postcode": "2994305",
    "prefecture": "千葉県",
    "prefecture_kana": "チバケン",
    "prefecture_code": 12,
    "city": "長生郡一宮町",
    "city_kana": "チョウセイグンイチノミヤマチ",
    "town": "本給",
    "town_kana": "ホンキュウ",
    "street": null,
    "office_name": null,
    "office_name_kana": null
  },
  "4306": {
    "postcode": "2994306",
    "prefecture": "千葉県",
    "prefecture_kana": "チバケン",
    "prefecture_code": 12,
    "city": "長生郡一宮町",
    "city_kana": "チョウセイグンイチノミヤマチ",
    "town": "東野",
    "town_kana": "ヒガシノ",
    "street": null,
    "office_name": null,
    "office_name_kana": null
  },
  "4311": {
    "postcode": "2994311",
    "prefecture": "千葉県",
    "prefecture_kana": "チバケン",
    "prefecture_code": 12,
    "city": "長生郡一宮町",
    "city_kana": "チョウセイグンイチノミヤマチ",
    "town": "白山",
    "town_kana": "ハクサン",
    "street": null,
    "office_name": null,
    "office_name_kana": null
  },
  "4312": {
    "postcode": "2994312",
    "prefecture": "千葉県",
    "prefecture_kana": "チバケン",
    "prefecture_code": 12,
    "city": "長生郡一宮町",
    "city_kana": "チョウセイグンイチノミヤマチ",
    "town": "宮原",
    "town_kana": "ミヤバラ",
    "street": null,
    "office_name": null,
    "office_name_kana": null
  },
  "4313": {
    "postcode": "2994313",
    "prefecture": "千葉県",
    "prefecture_kana": "チバケン",
    "prefecture_code": 12,
    "city": "長生郡一宮町",
    "city_kana": "チョウセイグンイチノミヤマチ",
    "town": "船頭給",
    "town_kana": "センドウキュウ",
    "street": null,
    "office_name": null,
    "office_name_kana": null
  },
  "4314": {
    "postcode": "2994314",
    "prefecture": "千葉県",
    "prefecture_kana": "チバケン",
    "prefecture_code": 12,
    "city": "長生郡一宮町",
    "city_kana": "チョウセイグンイチノミヤマチ",
    "town": "新地",
    "town_kana": "アラチ",
    "street": null,
    "office_name": null,
    "office_name_kana": null
  },
  "4315": {
    "postcode": "2994315",
    "prefecture": "千葉県",
    "prefecture_kana": "チバケン",
    "prefecture_code": 12,
    "city": "長生郡一宮町",
    "city_kana": "チョウセイグンイチノミヤマチ",
    "town": "新地甲",
    "town_kana": "アラチコウ",
    "street": null,
    "office_name": null,
    "office_name_kana": null
  },
  "4316": {
    "postcode": "2994316",
    "prefecture": "千葉県",
    "prefecture_kana": "チバケン",
    "prefecture_code": 12,
    "city": "長生郡一宮町",
    "city_kana": "チョウセイグンイチノミヤマチ",
    "town": "新地丙",
    "town_kana": "アラチヘイ",
    "street": null,
    "office_name": null,
    "office_name_kana": null
  },
  "4321": {
    "postcode": "2994321",
    "prefecture": "千葉県",
    "prefecture_kana": "チバケン",
    "prefecture_code": 12,
    "city": "長生郡長生村",
    "city_kana": "チョウセイグンチョウセイムラ",
    "town": "入山津",
    "town_kana": "イリヤマヅ",
    "street": null,
    "office_name": null,
    "office_name_kana": null
  },
  "4322": {
    "postcode": "2994322",
    "prefecture": "千葉県",
    "prefecture_kana": "チバケン",
    "prefecture_code": 12,
    "city": "長生郡長生村",
    "city_kana": "チョウセイグンチョウセイムラ",
    "town": "驚",
    "town_kana": "オドロキ",
    "street": null,
    "office_name": null,
    "office_name_kana": null
  },
  "4323": {
    "postcode": "2994323",
    "prefecture": "千葉県",
    "prefecture_kana": "チバケン",
    "prefecture_code": 12,
    "city": "長生郡長生村",
    "city_kana": "チョウセイグンチョウセイムラ",
    "town": "一松戊",
    "town_kana": "ヒトツマツボ",
    "street": null,
    "office_name": null,
    "office_name_kana": null
  },
  "4324": {
    "postcode": "2994324",
    "prefecture": "千葉県",
    "prefecture_kana": "チバケン",
    "prefecture_code": 12,
    "city": "長生郡長生村",
    "city_kana": "チョウセイグンチョウセイムラ",
    "town": "一松丁",
    "town_kana": "ヒトツマツテイ",
    "street": null,
    "office_name": null,
    "office_name_kana": null
  },
  "4325": {
    "postcode": "2994325",
    "prefecture": "千葉県",
    "prefecture_kana": "チバケン",
    "prefecture_code": 12,
    "city": "長生郡長生村",
    "city_kana": "チョウセイグンチョウセイムラ",
    "town": "一松丙",
    "town_kana": "ヒトツマツヘイ",
    "street": null,
    "office_name": null,
    "office_name_kana": null
  },
  "4326": {
    "postcode": "2994326",
    "prefecture": "千葉県",
    "prefecture_kana": "チバケン",
    "prefecture_code": 12,
    "city": "長生郡長生村",
    "city_kana": "チョウセイグンチョウセイムラ",
    "town": "一松乙",
    "town_kana": "ヒトツマツオツ",
    "street": null,
    "office_name": null,
    "office_name_kana": null
  },
  "4327": {
    "postcode": "2994327",
    "prefecture": "千葉県",
    "prefecture_kana": "チバケン",
    "prefecture_code": 12,
    "city": "長生郡長生村",
    "city_kana": "チョウセイグンチョウセイムラ",
    "town": "一松",
    "town_kana": "ヒトツマツ",
    "street": null,
    "office_name": null,
    "office_name_kana": null
  },
  "4328": {
    "postcode": "2994328",
    "prefecture": "千葉県",
    "prefecture_kana": "チバケン",
    "prefecture_code": 12,
    "city": "長生郡長生村",
    "city_kana": "チョウセイグンチョウセイムラ",
    "town": "一松甲",
    "town_kana": "ヒトツマツコウ",
    "street": null,
    "office_name": null,
    "office_name_kana": null
  },
  "4331": {
    "postcode": "2994331",
    "prefecture": "千葉県",
    "prefecture_kana": "チバケン",
    "prefecture_code": 12,
    "city": "長生郡長生村",
    "city_kana": "チョウセイグンチョウセイムラ",
    "town": "信友",
    "town_kana": "ノブトモ",
    "street": null,
    "office_name": null,
    "office_name_kana": null
  },
  "4332": {
    "postcode": "2994332",
    "prefecture": "千葉県",
    "prefecture_kana": "チバケン",
    "prefecture_code": 12,
    "city": "長生郡長生村",
    "city_kana": "チョウセイグンチョウセイムラ",
    "town": "金田",
    "town_kana": "カネダ",
    "street": null,
    "office_name": null,
    "office_name_kana": null
  },
  "4333": {
    "postcode": "2994333",
    "prefecture": "千葉県",
    "prefecture_kana": "チバケン",
    "prefecture_code": 12,
    "city": "長生郡長生村",
    "city_kana": "チョウセイグンチョウセイムラ",
    "town": "七井土",
    "town_kana": "ナナイド",
    "street": null,
    "office_name": null,
    "office_name_kana": null
  },
  "4334": {
    "postcode": "2994334",
    "prefecture": "千葉県",
    "prefecture_kana": "チバケン",
    "prefecture_code": 12,
    "city": "長生郡長生村",
    "city_kana": "チョウセイグンチョウセイムラ",
    "town": "薮塚",
    "town_kana": "ヤブツカ",
    "street": null,
    "office_name": null,
    "office_name_kana": null
  },
  "4335": {
    "postcode": "2994335",
    "prefecture": "千葉県",
    "prefecture_kana": "チバケン",
    "prefecture_code": 12,
    "city": "長生郡長生村",
    "city_kana": "チョウセイグンチョウセイムラ",
    "town": "水口",
    "town_kana": "ミヨグチ",
    "street": null,
    "office_name": null,
    "office_name_kana": null
  },
  "4336": {
    "postcode": "2994336",
    "prefecture": "千葉県",
    "prefecture_kana": "チバケン",
    "prefecture_code": 12,
    "city": "長生郡長生村",
    "city_kana": "チョウセイグンチョウセイムラ",
    "town": "岩沼",
    "town_kana": "イワヌマ",
    "street": null,
    "office_name": null,
    "office_name_kana": null
  },
  "4337": {
    "postcode": "2994337",
    "prefecture": "千葉県",
    "prefecture_kana": "チバケン",
    "prefecture_code": 12,
    "city": "長生郡長生村",
    "city_kana": "チョウセイグンチョウセイムラ",
    "town": "北水口",
    "town_kana": "キタミヨグチ",
    "street": null,
    "office_name": null,
    "office_name_kana": null
  },
  "4338": {
    "postcode": "2994338",
    "prefecture": "千葉県",
    "prefecture_kana": "チバケン",
    "prefecture_code": 12,
    "city": "長生郡長生村",
    "city_kana": "チョウセイグンチョウセイムラ",
    "town": "六ツ野飛地",
    "town_kana": "ムツノトビチ",
    "street": null,
    "office_name": null,
    "office_name_kana": null
  },
  "4341": {
    "postcode": "2994341",
    "prefecture": "千葉県",
    "prefecture_kana": "チバケン",
    "prefecture_code": 12,
    "city": "長生郡長生村",
    "city_kana": "チョウセイグンチョウセイムラ",
    "town": "宮成",
    "town_kana": "ミヤナリ",
    "street": null,
    "office_name": null,
    "office_name_kana": null
  },
  "4342": {
    "postcode": "2994342",
    "prefecture": "千葉県",
    "prefecture_kana": "チバケン",
    "prefecture_code": 12,
    "city": "長生郡長生村",
    "city_kana": "チョウセイグンチョウセイムラ",
    "town": "一松飛地甲",
    "town_kana": "ヒトツマツトビチコウ",
    "street": null,
    "office_name": null,
    "office_name_kana": null
  },
  "4343": {
    "postcode": "2994343",
    "prefecture": "千葉県",
    "prefecture_kana": "チバケン",
    "prefecture_code": 12,
    "city": "長生郡長生村",
    "city_kana": "チョウセイグンチョウセイムラ",
    "town": "岩沼飛地",
    "town_kana": "イワヌマトビチ",
    "street": null,
    "office_name": null,
    "office_name_kana": null
  },
  "4344": {
    "postcode": "2994344",
    "prefecture": "千葉県",
    "prefecture_kana": "チバケン",
    "prefecture_code": 12,
    "city": "長生郡長生村",
    "city_kana": "チョウセイグンチョウセイムラ",
    "town": "曽根",
    "town_kana": "ソネ",
    "street": null,
    "office_name": null,
    "office_name_kana": null
  },
  "4345": {
    "postcode": "2994345",
    "prefecture": "千葉県",
    "prefecture_kana": "チバケン",
    "prefecture_code": 12,
    "city": "長生郡長生村",
    "city_kana": "チョウセイグンチョウセイムラ",
    "town": "本郷",
    "town_kana": "ホンゴウ",
    "street": null,
    "office_name": null,
    "office_name_kana": null
  },
  "4346": {
    "postcode": "2994346",
    "prefecture": "千葉県",
    "prefecture_kana": "チバケン",
    "prefecture_code": 12,
    "city": "長生郡長生村",
    "city_kana": "チョウセイグンチョウセイムラ",
    "town": "中之郷",
    "town_kana": "ナカノゴウ",
    "street": null,
    "office_name": null,
    "office_name_kana": null
  },
  "4347": {
    "postcode": "2994347",
    "prefecture": "千葉県",
    "prefecture_kana": "チバケン",
    "prefecture_code": 12,
    "city": "長生郡長生村",
    "city_kana": "チョウセイグンチョウセイムラ",
    "town": "小泉",
    "town_kana": "コイズミ",
    "street": null,
    "office_name": null,
    "office_name_kana": null
  },
  "4392": {
    "postcode": "2994392",
    "prefecture": "千葉県",
    "prefecture_kana": "チバケン",
    "prefecture_code": 12,
    "city": "長生郡一宮町",
    "city_kana": "チョウセイグンイチノミヤマチ",
    "town": "一宮",
    "town_kana": "イチノミヤ",
    "street": "１００００番地",
    "office_name": "ホテル一宮シーサイドオーツカ",
    "office_name_kana": "ホテルイチノミヤシ-サイドオ-ツカ"
  },
  "4394": {
    "postcode": "2994394",
    "prefecture": "千葉県",
    "prefecture_kana": "チバケン",
    "prefecture_code": 12,
    "city": "長生郡長生村",
    "city_kana": "チョウセイグンチョウセイムラ",
    "town": "本郷",
    "town_kana": "ホンゴウ",
    "street": "１−７７",
    "office_name": "長生村役場",
    "office_name_kana": "チヨウセイムラヤクバ"
  },
  "4395": {
    "postcode": "2994395",
    "prefecture": "千葉県",
    "prefecture_kana": "チバケン",
    "prefecture_code": 12,
    "city": "長生郡長生村",
    "city_kana": "チョウセイグンチョウセイムラ",
    "town": "薮塚",
    "town_kana": "ヤブツカ",
    "street": "１０８０",
    "office_name": "双葉電子工業　株式会社",
    "office_name_kana": "フタバデンシコウギヨウ カブシキガイシヤ"
  },
  "4396": {
    "postcode": "2994396",
    "prefecture": "千葉県",
    "prefecture_kana": "チバケン",
    "prefecture_code": 12,
    "city": "長生郡一宮町",
    "city_kana": "チョウセイグンイチノミヤマチ",
    "town": "一宮",
    "town_kana": "イチノミヤ",
    "street": "２４５７",
    "office_name": "一宮町役場",
    "office_name_kana": "イチノミヤマチヤクバ"
  },
  "4397": {
    "postcode": "2994397",
    "prefecture": "千葉県",
    "prefecture_kana": "チバケン",
    "prefecture_code": 12,
    "city": "長生郡一宮町",
    "city_kana": "チョウセイグンイチノミヤマチ",
    "town": "一宮",
    "town_kana": "イチノミヤ",
    "street": "２７９１",
    "office_name": "千葉地方・家庭裁判所一宮支部　千葉一宮簡易裁判所",
    "office_name_kana": "チバチホウ・カテイサイバンシヨイチノミヤシブ チバイチノミヤカンイサイバンシヨ"
  },
  "4400": {
    "postcode": "2994400",
    "prefecture": "千葉県",
    "prefecture_kana": "チバケン",
    "prefecture_code": 12,
    "city": "長生郡睦沢町",
    "city_kana": "チョウセイグンムツザワマチ",
    "town": "",
    "town_kana": "",
    "street": null,
    "office_name": null,
    "office_name_kana": null
  },
  "4401": {
    "postcode": "2994401",
    "prefecture": "千葉県",
    "prefecture_kana": "チバケン",
    "prefecture_code": 12,
    "city": "長生郡睦沢町",
    "city_kana": "チョウセイグンムツザワマチ",
    "town": "寺崎",
    "town_kana": "テラサキ",
    "street": null,
    "office_name": null,
    "office_name_kana": null
  },
  "4402": {
    "postcode": "2994402",
    "prefecture": "千葉県",
    "prefecture_kana": "チバケン",
    "prefecture_code": 12,
    "city": "長生郡睦沢町",
    "city_kana": "チョウセイグンムツザワマチ",
    "town": "川島",
    "town_kana": "カワシマ",
    "street": null,
    "office_name": null,
    "office_name_kana": null
  },
  "4403": {
    "postcode": "2994403",
    "prefecture": "千葉県",
    "prefecture_kana": "チバケン",
    "prefecture_code": 12,
    "city": "長生郡睦沢町",
    "city_kana": "チョウセイグンムツザワマチ",
    "town": "上市場",
    "town_kana": "カミイチバ",
    "street": null,
    "office_name": null,
    "office_name_kana": null
  },
  "4404": {
    "postcode": "2994404",
    "prefecture": "千葉県",
    "prefecture_kana": "チバケン",
    "prefecture_code": 12,
    "city": "長生郡睦沢町",
    "city_kana": "チョウセイグンムツザワマチ",
    "town": "北山田",
    "town_kana": "キタヤマダ",
    "street": null,
    "office_name": null,
    "office_name_kana": null
  },
  "4405": {
    "postcode": "2994405",
    "prefecture": "千葉県",
    "prefecture_kana": "チバケン",
    "prefecture_code": 12,
    "city": "長生郡睦沢町",
    "city_kana": "チョウセイグンムツザワマチ",
    "town": "大谷木",
    "town_kana": "オオヤギ",
    "street": null,
    "office_name": null,
    "office_name_kana": null
  },
  "4406": {
    "postcode": "2994406",
    "prefecture": "千葉県",
    "prefecture_kana": "チバケン",
    "prefecture_code": 12,
    "city": "長生郡睦沢町",
    "city_kana": "チョウセイグンムツザワマチ",
    "town": "北山田寺崎新田",
    "town_kana": "キタヤマダテラサキシンデン",
    "street": null,
    "office_name": null,
    "office_name_kana": null
  },
  "4411": {
    "postcode": "2994411",
    "prefecture": "千葉県",
    "prefecture_kana": "チバケン",
    "prefecture_code": 12,
    "city": "長生郡睦沢町",
    "city_kana": "チョウセイグンムツザワマチ",
    "town": "河須ケ谷",
    "town_kana": "カワスガヤ",
    "street": null,
    "office_name": null,
    "office_name_kana": null
  },
  "4412": {
    "postcode": "2994412",
    "prefecture": "千葉県",
    "prefecture_kana": "チバケン",
    "prefecture_code": 12,
    "city": "長生郡睦沢町",
    "city_kana": "チョウセイグンムツザワマチ",
    "town": "岩井",
    "town_kana": "イワイ",
    "street": null,
    "office_name": null,
    "office_name_kana": null
  },
  "4413": {
    "postcode": "2994413",
    "prefecture": "千葉県",
    "prefecture_kana": "チバケン",
    "prefecture_code": 12,
    "city": "長生郡睦沢町",
    "city_kana": "チョウセイグンムツザワマチ",
    "town": "上之郷",
    "town_kana": "カミノゴウ",
    "street": null,
    "office_name": null,
    "office_name_kana": null
  },
  "4414": {
    "postcode": "2994414",
    "prefecture": "千葉県",
    "prefecture_kana": "チバケン",
    "prefecture_code": 12,
    "city": "長生郡睦沢町",
    "city_kana": "チョウセイグンムツザワマチ",
    "town": "下之郷",
    "town_kana": "シモノゴウ",
    "street": null,
    "office_name": null,
    "office_name_kana": null
  },
  "4415": {
    "postcode": "2994415",
    "prefecture": "千葉県",
    "prefecture_kana": "チバケン",
    "prefecture_code": 12,
    "city": "長生郡睦沢町",
    "city_kana": "チョウセイグンムツザワマチ",
    "town": "小滝",
    "town_kana": "コダキ",
    "street": null,
    "office_name": null,
    "office_name_kana": null
  },
  "4421": {
    "postcode": "2994421",
    "prefecture": "千葉県",
    "prefecture_kana": "チバケン",
    "prefecture_code": 12,
    "city": "長生郡睦沢町",
    "city_kana": "チョウセイグンムツザワマチ",
    "town": "長楽寺",
    "town_kana": "チョウラクジ",
    "street": null,
    "office_name": null,
    "office_name_kana": null
  },
  "4422": {
    "postcode": "2994422",
    "prefecture": "千葉県",
    "prefecture_kana": "チバケン",
    "prefecture_code": 12,
    "city": "長生郡睦沢町",
    "city_kana": "チョウセイグンムツザワマチ",
    "town": "森",
    "town_kana": "モリ",
    "street": null,
    "office_name": null,
    "office_name_kana": null
  },
  "4423": {
    "postcode": "2994423",
    "prefecture": "千葉県",
    "prefecture_kana": "チバケン",
    "prefecture_code": 12,
    "city": "長生郡睦沢町",
    "city_kana": "チョウセイグンムツザワマチ",
    "town": "大上",
    "town_kana": "オオガミ",
    "street": null,
    "office_name": null,
    "office_name_kana": null
  },
  "4424": {
    "postcode": "2994424",
    "prefecture": "千葉県",
    "prefecture_kana": "チバケン",
    "prefecture_code": 12,
    "city": "長生郡睦沢町",
    "city_kana": "チョウセイグンムツザワマチ",
    "town": "妙楽寺",
    "town_kana": "ミョウラクジ",
    "street": null,
    "office_name": null,
    "office_name_kana": null
  },
  "4425": {
    "postcode": "2994425",
    "prefecture": "千葉県",
    "prefecture_kana": "チバケン",
    "prefecture_code": 12,
    "city": "長生郡睦沢町",
    "city_kana": "チョウセイグンムツザワマチ",
    "town": "佐貫",
    "town_kana": "サヌキ",
    "street": null,
    "office_name": null,
    "office_name_kana": null
  },
  "4492": {
    "postcode": "2994492",
    "prefecture": "千葉県",
    "prefecture_kana": "チバケン",
    "prefecture_code": 12,
    "city": "長生郡睦沢町",
    "city_kana": "チョウセイグンムツザワマチ",
    "town": "下之郷",
    "town_kana": "シモノゴウ",
    "street": "１６５０−１",
    "office_name": "睦沢町役場",
    "office_name_kana": "ムツザワマチヤクバ"
  },
  "4493": {
    "postcode": "2994493",
    "prefecture": "千葉県",
    "prefecture_kana": "チバケン",
    "prefecture_code": 12,
    "city": "長生郡睦沢町",
    "city_kana": "チョウセイグンムツザワマチ",
    "town": "妙楽寺",
    "town_kana": "ミョウラクジ",
    "street": "２３００",
    "office_name": "房総カントリークラブ",
    "office_name_kana": "ボウソウカントリ-クラブ"
  },
  "4501": {
    "postcode": "2994501",
    "prefecture": "千葉県",
    "prefecture_kana": "チバケン",
    "prefecture_code": 12,
    "city": "いすみ市",
    "city_kana": "イスミシ",
    "town": "岬町椎木",
    "town_kana": "ミサキチョウシイギ",
    "street": null,
    "office_name": null,
    "office_name_kana": null
  },
  "4502": {
    "postcode": "2994502",
    "prefecture": "千葉県",
    "prefecture_kana": "チバケン",
    "prefecture_code": 12,
    "city": "いすみ市",
    "city_kana": "イスミシ",
    "town": "岬町中原",
    "town_kana": "ミサキチョウナカハラ",
    "street": null,
    "office_name": null,
    "office_name_kana": null
  },
  "4503": {
    "postcode": "2994503",
    "prefecture": "千葉県",
    "prefecture_kana": "チバケン",
    "prefecture_code": 12,
    "city": "いすみ市",
    "city_kana": "イスミシ",
    "town": "岬町和泉",
    "town_kana": "ミサキチョウイズミ",
    "street": null,
    "office_name": null,
    "office_name_kana": null
  },
  "4504": {
    "postcode": "2994504",
    "prefecture": "千葉県",
    "prefecture_kana": "チバケン",
    "prefecture_code": 12,
    "city": "いすみ市",
    "city_kana": "イスミシ",
    "town": "岬町桑田",
    "town_kana": "ミサキチョウクワダ",
    "street": null,
    "office_name": null,
    "office_name_kana": null
  },
  "4505": {
    "postcode": "2994505",
    "prefecture": "千葉県",
    "prefecture_kana": "チバケン",
    "prefecture_code": 12,
    "city": "いすみ市",
    "city_kana": "イスミシ",
    "town": "岬町岩熊",
    "town_kana": "ミサキチョウイワクマ",
    "street": null,
    "office_name": null,
    "office_name_kana": null
  },
  "4506": {
    "postcode": "2994506",
    "prefecture": "千葉県",
    "prefecture_kana": "チバケン",
    "prefecture_code": 12,
    "city": "いすみ市",
    "city_kana": "イスミシ",
    "town": "岬町市野々",
    "town_kana": "ミサキチョウイチノノ",
    "street": null,
    "office_name": null,
    "office_name_kana": null
  },
  "4507": {
    "postcode": "2994507",
    "prefecture": "千葉県",
    "prefecture_kana": "チバケン",
    "prefecture_code": 12,
    "city": "いすみ市",
    "city_kana": "イスミシ",
    "town": "岬町谷上",
    "town_kana": "ミサキチョウヤガミ",
    "street": null,
    "office_name": null,
    "office_name_kana": null
  },
  "4508": {
    "postcode": "2994508",
    "prefecture": "千葉県",
    "prefecture_kana": "チバケン",
    "prefecture_code": 12,
    "city": "いすみ市",
    "city_kana": "イスミシ",
    "town": "岬町榎沢",
    "town_kana": "ミサキチョウエノキサワ",
    "street": null,
    "office_name": null,
    "office_name_kana": null
  },
  "4611": {
    "postcode": "2994611",
    "prefecture": "千葉県",
    "prefecture_kana": "チバケン",
    "prefecture_code": 12,
    "city": "いすみ市",
    "city_kana": "イスミシ",
    "town": "岬町和泉",
    "town_kana": "ミサキチョウイズミ",
    "street": null,
    "office_name": null,
    "office_name_kana": null
  },
  "4612": {
    "postcode": "2994612",
    "prefecture": "千葉県",
    "prefecture_kana": "チバケン",
    "prefecture_code": 12,
    "city": "いすみ市",
    "city_kana": "イスミシ",
    "town": "岬町江場土",
    "town_kana": "ミサキチョウエバド",
    "street": null,
    "office_name": null,
    "office_name_kana": null
  },
  "4613": {
    "postcode": "2994613",
    "prefecture": "千葉県",
    "prefecture_kana": "チバケン",
    "prefecture_code": 12,
    "city": "いすみ市",
    "city_kana": "イスミシ",
    "town": "岬町三門",
    "town_kana": "ミサキチョウミカド",
    "street": null,
    "office_name": null,
    "office_name_kana": null
  },
  "4614": {
    "postcode": "2994614",
    "prefecture": "千葉県",
    "prefecture_kana": "チバケン",
    "prefecture_code": 12,
    "city": "いすみ市",
    "city_kana": "イスミシ",
    "town": "岬町東小高",
    "town_kana": "ミサキチョウヒガシオダカ",
    "street": null,
    "office_name": null,
    "office_name_kana": null
  },
  "4615": {
    "postcode": "2994615",
    "prefecture": "千葉県",
    "prefecture_kana": "チバケン",
    "prefecture_code": 12,
    "city": "いすみ市",
    "city_kana": "イスミシ",
    "town": "岬町井沢",
    "town_kana": "ミサキチョウイザワ",
    "street": null,
    "office_name": null,
    "office_name_kana": null
  },
  "4616": {
    "postcode": "2994616",
    "prefecture": "千葉県",
    "prefecture_kana": "チバケン",
    "prefecture_code": 12,
    "city": "いすみ市",
    "city_kana": "イスミシ",
    "town": "岬町長者",
    "town_kana": "ミサキチョウチョウジャ",
    "street": null,
    "office_name": null,
    "office_name_kana": null
  },
  "4621": {
    "postcode": "2994621",
    "prefecture": "千葉県",
    "prefecture_kana": "チバケン",
    "prefecture_code": 12,
    "city": "いすみ市",
    "city_kana": "イスミシ",
    "town": "岬町東中滝",
    "town_kana": "ミサキチョウヒガシナカタキ",
    "street": null,
    "office_name": null,
    "office_name_kana": null
  },
  "4622": {
    "postcode": "2994622",
    "prefecture": "千葉県",
    "prefecture_kana": "チバケン",
    "prefecture_code": 12,
    "city": "いすみ市",
    "city_kana": "イスミシ",
    "town": "岬町押日",
    "town_kana": "ミサキチョウオシビ",
    "street": null,
    "office_name": null,
    "office_name_kana": null
  },
  "4623": {
    "postcode": "2994623",
    "prefecture": "千葉県",
    "prefecture_kana": "チバケン",
    "prefecture_code": 12,
    "city": "いすみ市",
    "city_kana": "イスミシ",
    "town": "岬町中滝",
    "town_kana": "ミサキチョウナカダキ",
    "street": null,
    "office_name": null,
    "office_name_kana": null
  },
  "4624": {
    "postcode": "2994624",
    "prefecture": "千葉県",
    "prefecture_kana": "チバケン",
    "prefecture_code": 12,
    "city": "いすみ市",
    "city_kana": "イスミシ",
    "town": "岬町鴨根",
    "town_kana": "ミサキチョウカモネ",
    "street": null,
    "office_name": null,
    "office_name_kana": null
  },
  "4625": {
    "postcode": "2994625",
    "prefecture": "千葉県",
    "prefecture_kana": "チバケン",
    "prefecture_code": 12,
    "city": "いすみ市",
    "city_kana": "イスミシ",
    "town": "岬町嘉谷",
    "town_kana": "ミサキチョウカヤ",
    "street": null,
    "office_name": null,
    "office_name_kana": null
  },
  "4692": {
    "postcode": "2994692",
    "prefecture": "千葉県",
    "prefecture_kana": "チバケン",
    "prefecture_code": 12,
    "city": "いすみ市",
    "city_kana": "イスミシ",
    "town": "岬町長者",
    "town_kana": "ミサキチョウチョウジャ",
    "street": "２２番地",
    "office_name": "いすみ市役所　岬庁舎",
    "office_name_kana": "イスミシヤクシヨ ミサキチヨウシヤ"
  },
  "5100": {
    "postcode": "2995100",
    "prefecture": "千葉県",
    "prefecture_kana": "チバケン",
    "prefecture_code": 12,
    "city": "夷隅郡御宿町",
    "city_kana": "イスミグンオンジュクマチ",
    "town": "",
    "town_kana": "",
    "street": null,
    "office_name": null,
    "office_name_kana": null
  },
  "5101": {
    "postcode": "2995101",
    "prefecture": "千葉県",
    "prefecture_kana": "チバケン",
    "prefecture_code": 12,
    "city": "夷隅郡御宿町",
    "city_kana": "イスミグンオンジュクマチ",
    "town": "高山田",
    "town_kana": "タカヤマダ",
    "street": null,
    "office_name": null,
    "office_name_kana": null
  },
  "5102": {
    "postcode": "2995102",
    "prefecture": "千葉県",
    "prefecture_kana": "チバケン",
    "prefecture_code": 12,
    "city": "夷隅郡御宿町",
    "city_kana": "イスミグンオンジュクマチ",
    "town": "久保",
    "town_kana": "クボ",
    "street": null,
    "office_name": null,
    "office_name_kana": null
  },
  "5103": {
    "postcode": "2995103",
    "prefecture": "千葉県",
    "prefecture_kana": "チバケン",
    "prefecture_code": 12,
    "city": "夷隅郡御宿町",
    "city_kana": "イスミグンオンジュクマチ",
    "town": "新町",
    "town_kana": "シンマチ",
    "street": null,
    "office_name": null,
    "office_name_kana": null
  },
  "5104": {
    "postcode": "2995104",
    "prefecture": "千葉県",
    "prefecture_kana": "チバケン",
    "prefecture_code": 12,
    "city": "夷隅郡御宿町",
    "city_kana": "イスミグンオンジュクマチ",
    "town": "六軒町",
    "town_kana": "ロッケンマチ",
    "street": null,
    "office_name": null,
    "office_name_kana": null
  },
  "5105": {
    "postcode": "2995105",
    "prefecture": "千葉県",
    "prefecture_kana": "チバケン",
    "prefecture_code": 12,
    "city": "夷隅郡御宿町",
    "city_kana": "イスミグンオンジュクマチ",
    "town": "岩和田",
    "town_kana": "イワワダ",
    "street": null,
    "office_name": null,
    "office_name_kana": null
  },
  "5106": {
    "postcode": "2995106",
    "prefecture": "千葉県",
    "prefecture_kana": "チバケン",
    "prefecture_code": 12,
    "city": "夷隅郡御宿町",
    "city_kana": "イスミグンオンジュクマチ",
    "town": "須賀",
    "town_kana": "スカ",
    "street": null,
    "office_name": null,
    "office_name_kana": null
  },
  "5107": {
    "postcode": "2995107",
    "prefecture": "千葉県",
    "prefecture_kana": "チバケン",
    "prefecture_code": 12,
    "city": "夷隅郡御宿町",
    "city_kana": "イスミグンオンジュクマチ",
    "town": "浜",
    "town_kana": "ハマ",
    "street": null,
    "office_name": null,
    "office_name_kana": null
  },
  "5111": {
    "postcode": "2995111",
    "prefecture": "千葉県",
    "prefecture_kana": "チバケン",
    "prefecture_code": 12,
    "city": "夷隅郡御宿町",
    "city_kana": "イスミグンオンジュクマチ",
    "town": "上布施",
    "town_kana": "カミフセ",
    "street": null,
    "office_name": null,
    "office_name_kana": null
  },
  "5112": {
    "postcode": "2995112",
    "prefecture": "千葉県",
    "prefecture_kana": "チバケン",
    "prefecture_code": 12,
    "city": "夷隅郡御宿町",
    "city_kana": "イスミグンオンジュクマチ",
    "town": "御宿台",
    "town_kana": "オンジュクダイ",
    "street": null,
    "office_name": null,
    "office_name_kana": null
  },
  "5113": {
    "postcode": "2995113",
    "prefecture": "千葉県",
    "prefecture_kana": "チバケン",
    "prefecture_code": 12,
    "city": "夷隅郡御宿町",
    "city_kana": "イスミグンオンジュクマチ",
    "town": "七本",
    "town_kana": "ナナモト",
    "street": null,
    "office_name": null,
    "office_name_kana": null
  },
  "5114": {
    "postcode": "2995114",
    "prefecture": "千葉県",
    "prefecture_kana": "チバケン",
    "prefecture_code": 12,
    "city": "夷隅郡御宿町",
    "city_kana": "イスミグンオンジュクマチ",
    "town": "実谷",
    "town_kana": "ジッコク",
    "street": null,
    "office_name": null,
    "office_name_kana": null
  },
  "5192": {
    "postcode": "2995192",
    "prefecture": "千葉県",
    "prefecture_kana": "チバケン",
    "prefecture_code": 12,
    "city": "夷隅郡御宿町",
    "city_kana": "イスミグンオンジュクマチ",
    "town": "須賀",
    "town_kana": "スカ",
    "street": "１５２２",
    "office_name": "御宿町役場",
    "office_name_kana": "オンジユクマチヤクバ"
  },
  "5200": {
    "postcode": "2995200",
    "prefecture": "千葉県",
    "prefecture_kana": "チバケン",
    "prefecture_code": 12,
    "city": "勝浦市",
    "city_kana": "カツウラシ",
    "town": "",
    "town_kana": "",
    "street": null,
    "office_name": null,
    "office_name_kana": null
  },
  "5201": {
    "postcode": "2995201",
    "prefecture": "千葉県",
    "prefecture_kana": "チバケン",
    "prefecture_code": 12,
    "city": "勝浦市",
    "city_kana": "カツウラシ",
    "town": "市野郷",
    "town_kana": "イチノゴウ",
    "street": null,
    "office_name": null,
    "office_name_kana": null
  },
  "5202": {
    "postcode": "2995202",
    "prefecture": "千葉県",
    "prefecture_kana": "チバケン",
    "prefecture_code": 12,
    "city": "勝浦市",
    "city_kana": "カツウラシ",
    "town": "市野川",
    "town_kana": "イチノカワ",
    "street": null,
    "office_name": null,
    "office_name_kana": null
  },
  "5203": {
    "postcode": "2995203",
    "prefecture": "千葉県",
    "prefecture_kana": "チバケン",
    "prefecture_code": 12,
    "city": "勝浦市",
    "city_kana": "カツウラシ",
    "town": "花里",
    "town_kana": "ハナザト",
    "street": null,
    "office_name": null,
    "office_name_kana": null
  },
  "5204": {
    "postcode": "2995204",
    "prefecture": "千葉県",
    "prefecture_kana": "チバケン",
    "prefecture_code": 12,
    "city": "勝浦市",
    "city_kana": "カツウラシ",
    "town": "中倉",
    "town_kana": "ナカグラ",
    "street": null,
    "office_name": null,
    "office_name_kana": null
  },
  "5205": {
    "postcode": "2995205",
    "prefecture": "千葉県",
    "prefecture_kana": "チバケン",
    "prefecture_code": 12,
    "city": "勝浦市",
    "city_kana": "カツウラシ",
    "town": "杉戸",
    "town_kana": "スギド",
    "street": null,
    "office_name": null,
    "office_name_kana": null
  },
  "5206": {
    "postcode": "2995206",
    "prefecture": "千葉県",
    "prefecture_kana": "チバケン",
    "prefecture_code": 12,
    "city": "勝浦市",
    "city_kana": "カツウラシ",
    "town": "佐野",
    "town_kana": "サノ",
    "street": null,
    "office_name": null,
    "office_name_kana": null
  },
  "5211": {
    "postcode": "2995211",
    "prefecture": "千葉県",
    "prefecture_kana": "チバケン",
    "prefecture_code": 12,
    "city": "勝浦市",
    "city_kana": "カツウラシ",
    "town": "松野",
    "town_kana": "マツノ",
    "street": null,
    "office_name": null,
    "office_name_kana": null
  },
  "5212": {
    "postcode": "2995212",
    "prefecture": "千葉県",
    "prefecture_kana": "チバケン",
    "prefecture_code": 12,
    "city": "勝浦市",
    "city_kana": "カツウラシ",
    "town": "蟹田",
    "town_kana": "カニタ",
    "street": null,
    "office_name": null,
    "office_name_kana": null
  },
  "5213": {
    "postcode": "2995213",
    "prefecture": "千葉県",
    "prefecture_kana": "チバケン",
    "prefecture_code": 12,
    "city": "勝浦市",
    "city_kana": "カツウラシ",
    "town": "芳賀",
    "town_kana": "ハガ",
    "street": null,
    "office_name": null,
    "office_name_kana": null
  },
  "5214": {
    "postcode": "2995214",
    "prefecture": "千葉県",
    "prefecture_kana": "チバケン",
    "prefecture_code": 12,
    "city": "勝浦市",
    "city_kana": "カツウラシ",
    "town": "白木",
    "town_kana": "シラキ",
    "street": null,
    "office_name": null,
    "office_name_kana": null
  },
  "5215": {
    "postcode": "2995215",
    "prefecture": "千葉県",
    "prefecture_kana": "チバケン",
    "prefecture_code": 12,
    "city": "勝浦市",
    "city_kana": "カツウラシ",
    "town": "白井久保",
    "town_kana": "シライクボ",
    "street": null,
    "office_name": null,
    "office_name_kana": null
  },
  "5216": {
    "postcode": "2995216",
    "prefecture": "千葉県",
    "prefecture_kana": "チバケン",
    "prefecture_code": 12,
    "city": "勝浦市",
    "city_kana": "カツウラシ",
    "town": "宿戸",
    "town_kana": "シュクド",
    "street": null,
    "office_name": null,
    "office_name_kana": null
  },
  "5217": {
    "postcode": "2995217",
    "prefecture": "千葉県",
    "prefecture_kana": "チバケン",
    "prefecture_code": 12,
    "city": "勝浦市",
    "city_kana": "カツウラシ",
    "town": "大楠",
    "town_kana": "オオクス",
    "street": null,
    "office_name": null,
    "office_name_kana": null
  },
  "5218": {
    "postcode": "2995218",
    "prefecture": "千葉県",
    "prefecture_kana": "チバケン",
    "prefecture_code": 12,
    "city": "勝浦市",
    "city_kana": "カツウラシ",
    "town": "小羽戸",
    "town_kana": "コバド",
    "street": null,
    "office_name": null,
    "office_name_kana": null
  },
  "5219": {
    "postcode": "2995219",
    "prefecture": "千葉県",
    "prefecture_kana": "チバケン",
    "prefecture_code": 12,
    "city": "勝浦市",
    "city_kana": "カツウラシ",
    "town": "小松野",
    "town_kana": "コマツノ",
    "street": null,
    "office_name": null,
    "office_name_kana": null
  },
  "5221": {
    "postcode": "2995221",
    "prefecture": "千葉県",
    "prefecture_kana": "チバケン",
    "prefecture_code": 12,
    "city": "勝浦市",
    "city_kana": "カツウラシ",
    "town": "平田",
    "town_kana": "ヒラタ",
    "street": null,
    "office_name": null,
    "office_name_kana": null
  },
  "5222": {
    "postcode": "2995222",
    "prefecture": "千葉県",
    "prefecture_kana": "チバケン",
    "prefecture_code": 12,
    "city": "勝浦市",
    "city_kana": "カツウラシ",
    "town": "関谷",
    "town_kana": "セキヤツ",
    "street": null,
    "office_name": null,
    "office_name_kana": null
  },
  "5223": {
    "postcode": "2995223",
    "prefecture": "千葉県",
    "prefecture_kana": "チバケン",
    "prefecture_code": 12,
    "city": "勝浦市",
    "city_kana": "カツウラシ",
    "town": "部原",
    "town_kana": "ヘバラ",
    "street": null,
    "office_name": null,
    "office_name_kana": null
  },
  "5224": {
    "postcode": "2995224",
    "prefecture": "千葉県",
    "prefecture_kana": "チバケン",
    "prefecture_code": 12,
    "city": "勝浦市",
    "city_kana": "カツウラシ",
    "town": "新官",
    "town_kana": "シンカン",
    "street": null,
    "office_name": null,
    "office_name_kana": null
  },
  "5225": {
    "postcode": "2995225",
    "prefecture": "千葉県",
    "prefecture_kana": "チバケン",
    "prefecture_code": 12,
    "city": "勝浦市",
    "city_kana": "カツウラシ",
    "town": "墨名",
    "town_kana": "トナ",
    "street": null,
    "office_name": null,
    "office_name_kana": null
  },
  "5226": {
    "postcode": "2995226",
    "prefecture": "千葉県",
    "prefecture_kana": "チバケン",
    "prefecture_code": 12,
    "city": "勝浦市",
    "city_kana": "カツウラシ",
    "town": "串浜",
    "town_kana": "クシハマ",
    "street": null,
    "office_name": null,
    "office_name_kana": null
  },
  "5227": {
    "postcode": "2995227",
    "prefecture": "千葉県",
    "prefecture_kana": "チバケン",
    "prefecture_code": 12,
    "city": "勝浦市",
    "city_kana": "カツウラシ",
    "town": "中谷",
    "town_kana": "ナカヤ",
    "street": null,
    "office_name": null,
    "office_name_kana": null
  },
  "5228": {
    "postcode": "2995228",
    "prefecture": "千葉県",
    "prefecture_kana": "チバケン",
    "prefecture_code": 12,
    "city": "勝浦市",
    "city_kana": "カツウラシ",
    "town": "新戸",
    "town_kana": "シンド",
    "street": null,
    "office_name": null,
    "office_name_kana": null
  },
  "5231": {
    "postcode": "2995231",
    "prefecture": "千葉県",
    "prefecture_kana": "チバケン",
    "prefecture_code": 12,
    "city": "勝浦市",
    "city_kana": "カツウラシ",
    "town": "沢倉",
    "town_kana": "サワクラ",
    "street": null,
    "office_name": null,
    "office_name_kana": null
  },
  "5232": {
    "postcode": "2995232",
    "prefecture": "千葉県",
    "prefecture_kana": "チバケン",
    "prefecture_code": 12,
    "city": "勝浦市",
    "city_kana": "カツウラシ",
    "town": "川津",
    "town_kana": "カワヅ",
    "street": null,
    "office_name": null,
    "office_name_kana": null
  },
  "5233": {
    "postcode": "2995233",
    "prefecture": "千葉県",
    "prefecture_kana": "チバケン",
    "prefecture_code": 12,
    "city": "勝浦市",
    "city_kana": "カツウラシ",
    "town": "浜勝浦",
    "town_kana": "ハマカツウラ",
    "street": null,
    "office_name": null,
    "office_name_kana": null
  },
  "5234": {
    "postcode": "2995234",
    "prefecture": "千葉県",
    "prefecture_kana": "チバケン",
    "prefecture_code": 12,
    "city": "勝浦市",
    "city_kana": "カツウラシ",
    "town": "勝浦",
    "town_kana": "カツウラ",
    "street": null,
    "office_name": null,
    "office_name_kana": null
  },
  "5235": {
    "postcode": "2995235",
    "prefecture": "千葉県",
    "prefecture_kana": "チバケン",
    "prefecture_code": 12,
    "city": "勝浦市",
    "city_kana": "カツウラシ",
    "town": "出水",
    "town_kana": "イデミズ",
    "street": null,
    "office_name": null,
    "office_name_kana": null
  },
  "5241": {
    "postcode": "2995241",
    "prefecture": "千葉県",
    "prefecture_kana": "チバケン",
    "prefecture_code": 12,
    "city": "勝浦市",
    "city_kana": "カツウラシ",
    "town": "松部",
    "town_kana": "マツベ",
    "street": null,
    "office_name": null,
    "office_name_kana": null
  },
  "5242": {
    "postcode": "2995242",
    "prefecture": "千葉県",
    "prefecture_kana": "チバケン",
    "prefecture_code": 12,
    "city": "勝浦市",
    "city_kana": "カツウラシ",
    "town": "吉尾",
    "town_kana": "ヨシオ",
    "street": null,
    "office_name": null,
    "office_name_kana": null
  },
  "5243": {
    "postcode": "2995243",
    "prefecture": "千葉県",
    "prefecture_kana": "チバケン",
    "prefecture_code": 12,
    "city": "勝浦市",
    "city_kana": "カツウラシ",
    "town": "鵜原",
    "town_kana": "ウバラ",
    "street": null,
    "office_name": null,
    "office_name_kana": null
  },
  "5244": {
    "postcode": "2995244",
    "prefecture": "千葉県",
    "prefecture_kana": "チバケン",
    "prefecture_code": 12,
    "city": "勝浦市",
    "city_kana": "カツウラシ",
    "town": "守谷",
    "town_kana": "モリヤ",
    "street": null,
    "office_name": null,
    "office_name_kana": null
  },
  "5245": {
    "postcode": "2995245",
    "prefecture": "千葉県",
    "prefecture_kana": "チバケン",
    "prefecture_code": 12,
    "city": "勝浦市",
    "city_kana": "カツウラシ",
    "town": "興津",
    "town_kana": "オキツ",
    "street": null,
    "office_name": null,
    "office_name_kana": null
  },
  "5246": {
    "postcode": "2995246",
    "prefecture": "千葉県",
    "prefecture_kana": "チバケン",
    "prefecture_code": 12,
    "city": "勝浦市",
    "city_kana": "カツウラシ",
    "town": "興津久保山台",
    "town_kana": "オキツクボヤマダイ",
    "street": null,
    "office_name": null,
    "office_name_kana": null
  },
  "5251": {
    "postcode": "2995251",
    "prefecture": "千葉県",
    "prefecture_kana": "チバケン",
    "prefecture_code": 12,
    "city": "勝浦市",
    "city_kana": "カツウラシ",
    "town": "大森上植野入会地",
    "town_kana": "オオモリカミウエノイリアイチ",
    "street": null,
    "office_name": null,
    "office_name_kana": null
  },
  "5252": {
    "postcode": "2995252",
    "prefecture": "千葉県",
    "prefecture_kana": "チバケン",
    "prefecture_code": 12,
    "city": "勝浦市",
    "city_kana": "カツウラシ",
    "town": "上植野",
    "town_kana": "カミウエノ",
    "street": null,
    "office_name": null,
    "office_name_kana": null
  },
  "5253": {
    "postcode": "2995253",
    "prefecture": "千葉県",
    "prefecture_kana": "チバケン",
    "prefecture_code": 12,
    "city": "勝浦市",
    "city_kana": "カツウラシ",
    "town": "名木",
    "town_kana": "ナギ",
    "street": null,
    "office_name": null,
    "office_name_kana": null
  },
  "5254": {
    "postcode": "2995254",
    "prefecture": "千葉県",
    "prefecture_kana": "チバケン",
    "prefecture_code": 12,
    "city": "勝浦市",
    "city_kana": "カツウラシ",
    "town": "台宿",
    "town_kana": "ダイジュク",
    "street": null,
    "office_name": null,
    "office_name_kana": null
  },
  "5255": {
    "postcode": "2995255",
    "prefecture": "千葉県",
    "prefecture_kana": "チバケン",
    "prefecture_code": 12,
    "city": "勝浦市",
    "city_kana": "カツウラシ",
    "town": "浜行川",
    "town_kana": "ハマナメガワ",
    "street": null,
    "office_name": null,
    "office_name_kana": null
  },
  "5256": {
    "postcode": "2995256",
    "prefecture": "千葉県",
    "prefecture_kana": "チバケン",
    "prefecture_code": 12,
    "city": "勝浦市",
    "city_kana": "カツウラシ",
    "town": "大沢",
    "town_kana": "オオサワ",
    "street": null,
    "office_name": null,
    "office_name_kana": null
  },
  "5261": {
    "postcode": "2995261",
    "prefecture": "千葉県",
    "prefecture_kana": "チバケン",
    "prefecture_code": 12,
    "city": "勝浦市",
    "city_kana": "カツウラシ",
    "town": "大森",
    "town_kana": "オオモリ",
    "street": null,
    "office_name": null,
    "office_name_kana": null
  },
  "5262": {
    "postcode": "2995262",
    "prefecture": "千葉県",
    "prefecture_kana": "チバケン",
    "prefecture_code": 12,
    "city": "勝浦市",
    "city_kana": "カツウラシ",
    "town": "中里",
    "town_kana": "ナカザト",
    "street": null,
    "office_name": null,
    "office_name_kana": null
  },
  "5263": {
    "postcode": "2995263",
    "prefecture": "千葉県",
    "prefecture_kana": "チバケン",
    "prefecture_code": 12,
    "city": "勝浦市",
    "city_kana": "カツウラシ",
    "town": "赤羽根",
    "town_kana": "アカバネ",
    "street": null,
    "office_name": null,
    "office_name_kana": null
  },
  "5264": {
    "postcode": "2995264",
    "prefecture": "千葉県",
    "prefecture_kana": "チバケン",
    "prefecture_code": 12,
    "city": "勝浦市",
    "city_kana": "カツウラシ",
    "town": "中島",
    "town_kana": "ナカジマ",
    "street": null,
    "office_name": null,
    "office_name_kana": null
  },
  "5265": {
    "postcode": "2995265",
    "prefecture": "千葉県",
    "prefecture_kana": "チバケン",
    "prefecture_code": 12,
    "city": "勝浦市",
    "city_kana": "カツウラシ",
    "town": "植野",
    "town_kana": "ウエノ",
    "street": null,
    "office_name": null,
    "office_name_kana": null
  },
  "5266": {
    "postcode": "2995266",
    "prefecture": "千葉県",
    "prefecture_kana": "チバケン",
    "prefecture_code": 12,
    "city": "勝浦市",
    "city_kana": "カツウラシ",
    "town": "上野",
    "town_kana": "ウエノ",
    "street": null,
    "office_name": null,
    "office_name_kana": null
  },
  "5267": {
    "postcode": "2995267",
    "prefecture": "千葉県",
    "prefecture_kana": "チバケン",
    "prefecture_code": 12,
    "city": "勝浦市",
    "city_kana": "カツウラシ",
    "town": "植野元宮田",
    "town_kana": "ウエノモトミヤタ",
    "street": null,
    "office_name": null,
    "office_name_kana": null
  },
  "5271": {
    "postcode": "2995271",
    "prefecture": "千葉県",
    "prefecture_kana": "チバケン",
    "prefecture_code": 12,
    "city": "勝浦市",
    "city_kana": "カツウラシ",
    "town": "法花",
    "town_kana": "ホウゲ",
    "street": null,
    "office_name": null,
    "office_name_kana": null
  },
  "5272": {
    "postcode": "2995272",
    "prefecture": "千葉県",
    "prefecture_kana": "チバケン",
    "prefecture_code": 12,
    "city": "勝浦市",
    "city_kana": "カツウラシ",
    "town": "貝掛",
    "town_kana": "カイガケ",
    "street": null,
    "office_name": null,
    "office_name_kana": null
  },
  "5273": {
    "postcode": "2995273",
    "prefecture": "千葉県",
    "prefecture_kana": "チバケン",
    "prefecture_code": 12,
    "city": "勝浦市",
    "city_kana": "カツウラシ",
    "town": "荒川",
    "town_kana": "アラカワ",
    "street": null,
    "office_name": null,
    "office_name_kana": null
  },
  "5274": {
    "postcode": "2995274",
    "prefecture": "千葉県",
    "prefecture_kana": "チバケン",
    "prefecture_code": 12,
    "city": "勝浦市",
    "city_kana": "カツウラシ",
    "town": "南山田",
    "town_kana": "ミナミヤマダ",
    "street": null,
    "office_name": null,
    "office_name_kana": null
  },
  "5292": {
    "postcode": "2995292",
    "prefecture": "千葉県",
    "prefecture_kana": "チバケン",
    "prefecture_code": 12,
    "city": "勝浦市",
    "city_kana": "カツウラシ",
    "town": "新官",
    "town_kana": "シンカン",
    "street": "１３４３−１",
    "office_name": "勝浦市役所",
    "office_name_kana": "カツウラシヤクシヨ"
  },
  "5295": {
    "postcode": "2995295",
    "prefecture": "千葉県",
    "prefecture_kana": "チバケン",
    "prefecture_code": 12,
    "city": "勝浦市",
    "city_kana": "カツウラシ",
    "town": "新官",
    "town_kana": "シンカン",
    "street": "８４１",
    "office_name": "国際武道大学",
    "office_name_kana": "コクサイブドウダイガク"
  },
  "5501": {
    "postcode": "2995501",
    "prefecture": "千葉県",
    "prefecture_kana": "チバケン",
    "prefecture_code": 12,
    "city": "鴨川市",
    "city_kana": "カモガワシ",
    "town": "小湊",
    "town_kana": "コミナト",
    "street": null,
    "office_name": null,
    "office_name_kana": null
  },
  "5502": {
    "postcode": "2995502",
    "prefecture": "千葉県",
    "prefecture_kana": "チバケン",
    "prefecture_code": 12,
    "city": "鴨川市",
    "city_kana": "カモガワシ",
    "town": "内浦",
    "town_kana": "ウチウラ",
    "street": null,
    "office_name": null,
    "office_name_kana": null
  },
  "5503": {
    "postcode": "2995503",
    "prefecture": "千葉県",
    "prefecture_kana": "チバケン",
    "prefecture_code": 12,
    "city": "鴨川市",
    "city_kana": "カモガワシ",
    "town": "天津",
    "town_kana": "アマツ",
    "street": null,
    "office_name": null,
    "office_name_kana": null
  },
  "5504": {
    "postcode": "2995504",
    "prefecture": "千葉県",
    "prefecture_kana": "チバケン",
    "prefecture_code": 12,
    "city": "鴨川市",
    "city_kana": "カモガワシ",
    "town": "浜荻",
    "town_kana": "ハマオギ",
    "street": null,
    "office_name": null,
    "office_name_kana": null
  },
  "5505": {
    "postcode": "2995505",
    "prefecture": "千葉県",
    "prefecture_kana": "チバケン",
    "prefecture_code": 12,
    "city": "鴨川市",
    "city_kana": "カモガワシ",
    "town": "清澄",
    "town_kana": "キヨスミ",
    "street": null,
    "office_name": null,
    "office_name_kana": null
  },
  "5506": {
    "postcode": "2995506",
    "prefecture": "千葉県",
    "prefecture_kana": "チバケン",
    "prefecture_code": 12,
    "city": "鴨川市",
    "city_kana": "カモガワシ",
    "town": "四方木",
    "town_kana": "ヨモギ",
    "street": null,
    "office_name": null,
    "office_name_kana": null
  }
}