{
  "0000": {
    "postcode": "3010000",
    "prefecture": "茨城県",
    "prefecture_kana": "イバラキケン",
    "prefecture_code": 8,
    "city": "龍ケ崎市",
    "city_kana": "リュウガサキシ",
    "town": "",
    "town_kana": "",
    "street": null,
    "office_name": null,
    "office_name_kana": null
  },
  "0001": {
    "postcode": "3010001",
    "prefecture": "茨城県",
    "prefecture_kana": "イバラキケン",
    "prefecture_code": 8,
    "city": "龍ケ崎市",
    "city_kana": "リュウガサキシ",
    "town": "久保台",
    "town_kana": "クボダイ",
    "street": null,
    "office_name": null,
    "office_name_kana": null
  },
  "0002": {
    "postcode": "3010002",
    "prefecture": "茨城県",
    "prefecture_kana": "イバラキケン",
    "prefecture_code": 8,
    "city": "龍ケ崎市",
    "city_kana": "リュウガサキシ",
    "town": "中根台",
    "town_kana": "ナカネダイ",
    "street": null,
    "office_name": null,
    "office_name_kana": null
  },
  "0003": {
    "postcode": "3010003",
    "prefecture": "茨城県",
    "prefecture_kana": "イバラキケン",
    "prefecture_code": 8,
    "city": "龍ケ崎市",
    "city_kana": "リュウガサキシ",
    "town": "平台",
    "town_kana": "ヒラダイ",
    "street": null,
    "office_name": null,
    "office_name_kana": null
  },
  "0004": {
    "postcode": "3010004",
    "prefecture": "茨城県",
    "prefecture_kana": "イバラキケン",
    "prefecture_code": 8,
    "city": "龍ケ崎市",
    "city_kana": "リュウガサキシ",
    "town": "馴馬町",
    "town_kana": "ナレウママチ",
    "street": null,
    "office_name": null,
    "office_name_kana": null
  },
  "0005": {
    "postcode": "3010005",
    "prefecture": "茨城県",
    "prefecture_kana": "イバラキケン",
    "prefecture_code": 8,
    "city": "龍ケ崎市",
    "city_kana": "リュウガサキシ",
    "town": "川原代町",
    "town_kana": "カワラシロマチ",
    "street": null,
    "office_name": null,
    "office_name_kana": null
  },
  "0006": {
    "postcode": "3010006",
    "prefecture": "茨城県",
    "prefecture_kana": "イバラキケン",
    "prefecture_code": 8,
    "city": "龍ケ崎市",
    "city_kana": "リュウガサキシ",
    "town": "門倉新田町",
    "town_kana": "カドクラシンデンマチ",
    "street": null,
    "office_name": null,
    "office_name_kana": null
  },
  "0007": {
    "postcode": "3010007",
    "prefecture": "茨城県",
    "prefecture_kana": "イバラキケン",
    "prefecture_code": 8,
    "city": "龍ケ崎市",
    "city_kana": "リュウガサキシ",
    "town": "馴柴町",
    "town_kana": "ナレシバマチ",
    "street": null,
    "office_name": null,
    "office_name_kana": null
  },
  "0011": {
    "postcode": "3010011",
    "prefecture": "茨城県",
    "prefecture_kana": "イバラキケン",
    "prefecture_code": 8,
    "city": "龍ケ崎市",
    "city_kana": "リュウガサキシ",
    "town": "横町",
    "town_kana": "ヨコマチ",
    "street": null,
    "office_name": null,
    "office_name_kana": null
  },
  "0012": {
    "postcode": "3010012",
    "prefecture": "茨城県",
    "prefecture_kana": "イバラキケン",
    "prefecture_code": 8,
    "city": "龍ケ崎市",
    "city_kana": "リュウガサキシ",
    "town": "上町",
    "town_kana": "カミマチ",
    "street": null,
    "office_name": null,
    "office_name_kana": null
  },
  "0013": {
    "postcode": "3010013",
    "prefecture": "茨城県",
    "prefecture_kana": "イバラキケン",
    "prefecture_code": 8,
    "city": "龍ケ崎市",
    "city_kana": "リュウガサキシ",
    "town": "水門",
    "town_kana": "ミズモン",
    "street": null,
    "office_name": null,
    "office_name_kana": null
  },
  "0014": {
    "postcode": "3010014",
    "prefecture": "茨城県",
    "prefecture_kana": "イバラキケン",
    "prefecture_code": 8,
    "city": "龍ケ崎市",
    "city_kana": "リュウガサキシ",
    "town": "須藤堀町",
    "town_kana": "ストウホリマチ",
    "street": null,
    "office_name": null,
    "office_name_kana": null
  },
  "0015": {
    "postcode": "3010015",
    "prefecture": "茨城県",
    "prefecture_kana": "イバラキケン",
    "prefecture_code": 8,
    "city": "龍ケ崎市",
    "city_kana": "リュウガサキシ",
    "town": "長沖町",
    "town_kana": "ナガオキマチ",
    "street": null,
    "office_name": null,
    "office_name_kana": null
  },
  "0016": {
    "postcode": "3010016",
    "prefecture": "茨城県",
    "prefecture_kana": "イバラキケン",
    "prefecture_code": 8,
    "city": "龍ケ崎市",
    "city_kana": "リュウガサキシ",
    "town": "長沖新田町",
    "town_kana": "ナガオキシンデンマチ",
    "street": null,
    "office_name": null,
    "office_name_kana": null
  },
  "0017": {
    "postcode": "3010017",
    "prefecture": "茨城県",
    "prefecture_kana": "イバラキケン",
    "prefecture_code": 8,
    "city": "龍ケ崎市",
    "city_kana": "リュウガサキシ",
    "town": "姫宮町",
    "town_kana": "ヒメミヤマチ",
    "street": null,
    "office_name": null,
    "office_name_kana": null
  },
  "0018": {
    "postcode": "3010018",
    "prefecture": "茨城県",
    "prefecture_kana": "イバラキケン",
    "prefecture_code": 8,
    "city": "龍ケ崎市",
    "city_kana": "リュウガサキシ",
    "town": "米町",
    "town_kana": "コメマチ",
    "street": null,
    "office_name": null,
    "office_name_kana": null
  },
  "0021": {
    "postcode": "3010021",
    "prefecture": "茨城県",
    "prefecture_kana": "イバラキケン",
    "prefecture_code": 8,
    "city": "龍ケ崎市",
    "city_kana": "リュウガサキシ",
    "town": "北方町",
    "town_kana": "キタカタマチ",
    "street": null,
    "office_name": null,
    "office_name_kana": null
  },
  "0022": {
    "postcode": "3010022",
    "prefecture": "茨城県",
    "prefecture_kana": "イバラキケン",
    "prefecture_code": 8,
    "city": "龍ケ崎市",
    "city_kana": "リュウガサキシ",
    "town": "南が丘",
    "town_kana": "ミナミガオカ",
    "street": null,
    "office_name": null,
    "office_name_kana": null
  },
  "0023": {
    "postcode": "3010023",
    "prefecture": "茨城県",
    "prefecture_kana": "イバラキケン",
    "prefecture_code": 8,
    "city": "龍ケ崎市",
    "city_kana": "リュウガサキシ",
    "town": "羽黒町",
    "town_kana": "ハグロマチ",
    "street": null,
    "office_name": null,
    "office_name_kana": null
  },
  "0024": {
    "postcode": "3010024",
    "prefecture": "茨城県",
    "prefecture_kana": "イバラキケン",
    "prefecture_code": 8,
    "city": "龍ケ崎市",
    "city_kana": "リュウガサキシ",
    "town": "豊田町",
    "town_kana": "トヨダマチ",
    "street": null,
    "office_name": null,
    "office_name_kana": null
  },
  "0025": {
    "postcode": "3010025",
    "prefecture": "茨城県",
    "prefecture_kana": "イバラキケン",
    "prefecture_code": 8,
    "city": "龍ケ崎市",
    "city_kana": "リュウガサキシ",
    "town": "大留町",
    "town_kana": "オオドメマチ",
    "street": null,
    "office_name": null,
    "office_name_kana": null
  },
  "0026": {
    "postcode": "3010026",
    "prefecture": "茨城県",
    "prefecture_kana": "イバラキケン",
    "prefecture_code": 8,
    "city": "龍ケ崎市",
    "city_kana": "リュウガサキシ",
    "town": "高須町",
    "town_kana": "タカスマチ",
    "street": null,
    "office_name": null,
    "office_name_kana": null
  },
  "0031": {
    "postcode": "3010031",
    "prefecture": "茨城県",
    "prefecture_kana": "イバラキケン",
    "prefecture_code": 8,
    "city": "龍ケ崎市",
    "city_kana": "リュウガサキシ",
    "town": "庄兵衛新田町",
    "town_kana": "ショウベエシンデンマチ",
    "street": null,
    "office_name": null,
    "office_name_kana": null
  },
  "0032": {
    "postcode": "3010032",
    "prefecture": "茨城県",
    "prefecture_kana": "イバラキケン",
    "prefecture_code": 8,
    "city": "龍ケ崎市",
    "city_kana": "リュウガサキシ",
    "town": "佐貫",
    "town_kana": "サヌキ",
    "street": null,
    "office_name": null,
    "office_name_kana": null
  },
  "0033": {
    "postcode": "3010033",
    "prefecture": "茨城県",
    "prefecture_kana": "イバラキケン",
    "prefecture_code": 8,
    "city": "龍ケ崎市",
    "city_kana": "リュウガサキシ",
    "town": "佐貫町",
    "town_kana": "サヌキマチ",
    "street": null,
    "office_name": null,
    "office_name_kana": null
  },
  "0034": {
    "postcode": "3010034",
    "prefecture": "茨城県",
    "prefecture_kana": "イバラキケン",
    "prefecture_code": 8,
    "city": "龍ケ崎市",
    "city_kana": "リュウガサキシ",
    "town": "小通幸谷町",
    "town_kana": "コドオリコウヤマチ",
    "street": null,
    "office_name": null,
    "office_name_kana": null
  },
  "0035": {
    "postcode": "3010035",
    "prefecture": "茨城県",
    "prefecture_kana": "イバラキケン",
    "prefecture_code": 8,
    "city": "龍ケ崎市",
    "city_kana": "リュウガサキシ",
    "town": "稗柄町",
    "town_kana": "ヒエガラマチ",
    "street": null,
    "office_name": null,
    "office_name_kana": null
  },
  "0041": {
    "postcode": "3010041",
    "prefecture": "茨城県",
    "prefecture_kana": "イバラキケン",
    "prefecture_code": 8,
    "city": "龍ケ崎市",
    "city_kana": "リュウガサキシ",
    "town": "若柴町",
    "town_kana": "ワカシバマチ",
    "street": null,
    "office_name": null,
    "office_name_kana": null
  },
  "0042": {
    "postcode": "3010042",
    "prefecture": "茨城県",
    "prefecture_kana": "イバラキケン",
    "prefecture_code": 8,
    "city": "龍ケ崎市",
    "city_kana": "リュウガサキシ",
    "town": "長山",
    "town_kana": "ナガヤマ",
    "street": null,
    "office_name": null,
    "office_name_kana": null
  },
  "0043": {
    "postcode": "3010043",
    "prefecture": "茨城県",
    "prefecture_kana": "イバラキケン",
    "prefecture_code": 8,
    "city": "龍ケ崎市",
    "city_kana": "リュウガサキシ",
    "town": "松葉",
    "town_kana": "マツバ",
    "street": null,
    "office_name": null,
    "office_name_kana": null
  },
  "0044": {
    "postcode": "3010044",
    "prefecture": "茨城県",
    "prefecture_kana": "イバラキケン",
    "prefecture_code": 8,
    "city": "龍ケ崎市",
    "city_kana": "リュウガサキシ",
    "town": "小柴",
    "town_kana": "コシバ",
    "street": null,
    "office_name": null,
    "office_name_kana": null
  },
  "0045": {
    "postcode": "3010045",
    "prefecture": "茨城県",
    "prefecture_kana": "イバラキケン",
    "prefecture_code": 8,
    "city": "龍ケ崎市",
    "city_kana": "リュウガサキシ",
    "town": "稲荷新田町",
    "town_kana": "イナリシンデンマチ",
    "street": null,
    "office_name": null,
    "office_name_kana": null
  },
  "0046": {
    "postcode": "3010046",
    "prefecture": "茨城県",
    "prefecture_kana": "イバラキケン",
    "prefecture_code": 8,
    "city": "龍ケ崎市",
    "city_kana": "リュウガサキシ",
    "town": "入地町",
    "town_kana": "イレチマチ",
    "street": null,
    "office_name": null,
    "office_name_kana": null
  },
  "0047": {
    "postcode": "3010047",
    "prefecture": "茨城県",
    "prefecture_kana": "イバラキケン",
    "prefecture_code": 8,
    "city": "龍ケ崎市",
    "city_kana": "リュウガサキシ",
    "town": "南中島町",
    "town_kana": "ミナミナカジママチ",
    "street": null,
    "office_name": null,
    "office_name_kana": null
  },
  "0048": {
    "postcode": "3010048",
    "prefecture": "茨城県",
    "prefecture_kana": "イバラキケン",
    "prefecture_code": 8,
    "city": "龍ケ崎市",
    "city_kana": "リュウガサキシ",
    "town": "川崎町",
    "town_kana": "カワサキマチ",
    "street": null,
    "office_name": null,
    "office_name_kana": null
  },
  "0801": {
    "postcode": "3010801",
    "prefecture": "茨城県",
    "prefecture_kana": "イバラキケン",
    "prefecture_code": 8,
    "city": "龍ケ崎市",
    "city_kana": "リュウガサキシ",
    "town": "板橋町",
    "town_kana": "イタバシマチ",
    "street": null,
    "office_name": null,
    "office_name_kana": null
  },
  "0802": {
    "postcode": "3010802",
    "prefecture": "茨城県",
    "prefecture_kana": "イバラキケン",
    "prefecture_code": 8,
    "city": "龍ケ崎市",
    "city_kana": "リュウガサキシ",
    "town": "高作町",
    "town_kana": "コウサマチ",
    "street": null,
    "office_name": null,
    "office_name_kana": null
  },
  "0803": {
    "postcode": "3010803",
    "prefecture": "茨城県",
    "prefecture_kana": "イバラキケン",
    "prefecture_code": 8,
    "city": "龍ケ崎市",
    "city_kana": "リュウガサキシ",
    "town": "塗戸町",
    "town_kana": "ヌルトマチ",
    "street": null,
    "office_name": null,
    "office_name_kana": null
  },
  "0804": {
    "postcode": "3010804",
    "prefecture": "茨城県",
    "prefecture_kana": "イバラキケン",
    "prefecture_code": 8,
    "city": "龍ケ崎市",
    "city_kana": "リュウガサキシ",
    "town": "長峰町",
    "town_kana": "ナガミネマチ",
    "street": null,
    "office_name": null,
    "office_name_kana": null
  },
  "0805": {
    "postcode": "3010805",
    "prefecture": "茨城県",
    "prefecture_kana": "イバラキケン",
    "prefecture_code": 8,
    "city": "龍ケ崎市",
    "city_kana": "リュウガサキシ",
    "town": "薄倉町",
    "town_kana": "ウスグラマチ",
    "street": null,
    "office_name": null,
    "office_name_kana": null
  },
  "0806": {
    "postcode": "3010806",
    "prefecture": "茨城県",
    "prefecture_kana": "イバラキケン",
    "prefecture_code": 8,
    "city": "龍ケ崎市",
    "city_kana": "リュウガサキシ",
    "town": "半田町",
    "town_kana": "ハンダマチ",
    "street": null,
    "office_name": null,
    "office_name_kana": null
  },
  "0811": {
    "postcode": "3010811",
    "prefecture": "茨城県",
    "prefecture_kana": "イバラキケン",
    "prefecture_code": 8,
    "city": "龍ケ崎市",
    "city_kana": "リュウガサキシ",
    "town": "宮渕町",
    "town_kana": "ミヤブチマチ",
    "street": null,
    "office_name": null,
    "office_name_kana": null
  },
  "0812": {
    "postcode": "3010812",
    "prefecture": "茨城県",
    "prefecture_kana": "イバラキケン",
    "prefecture_code": 8,
    "city": "龍ケ崎市",
    "city_kana": "リュウガサキシ",
    "town": "佐沼町",
    "town_kana": "サヌママチ",
    "street": null,
    "office_name": null,
    "office_name_kana": null
  },
  "0813": {
    "postcode": "3010813",
    "prefecture": "茨城県",
    "prefecture_kana": "イバラキケン",
    "prefecture_code": 8,
    "city": "龍ケ崎市",
    "city_kana": "リュウガサキシ",
    "town": "新町",
    "town_kana": "シンマチ",
    "street": null,
    "office_name": null,
    "office_name_kana": null
  },
  "0814": {
    "postcode": "3010814",
    "prefecture": "茨城県",
    "prefecture_kana": "イバラキケン",
    "prefecture_code": 8,
    "city": "龍ケ崎市",
    "city_kana": "リュウガサキシ",
    "town": "高砂",
    "town_kana": "タカスナ",
    "street": null,
    "office_name": null,
    "office_name_kana": null
  },
  "0815": {
    "postcode": "3010815",
    "prefecture": "茨城県",
    "prefecture_kana": "イバラキケン",
    "prefecture_code": 8,
    "city": "龍ケ崎市",
    "city_kana": "リュウガサキシ",
    "town": "直鮒",
    "town_kana": "スウブナ",
    "street": null,
    "office_name": null,
    "office_name_kana": null
  },
  "0816": {
    "postcode": "3010816",
    "prefecture": "茨城県",
    "prefecture_kana": "イバラキケン",
    "prefecture_code": 8,
    "city": "龍ケ崎市",
    "city_kana": "リュウガサキシ",
    "town": "大徳町",
    "town_kana": "ダイトクマチ",
    "street": null,
    "office_name": null,
    "office_name_kana": null
  },
  "0817": {
    "postcode": "3010817",
    "prefecture": "茨城県",
    "prefecture_kana": "イバラキケン",
    "prefecture_code": 8,
    "city": "龍ケ崎市",
    "city_kana": "リュウガサキシ",
    "town": "上大徳新町",
    "town_kana": "カミダイトクシンマチ",
    "street": null,
    "office_name": null,
    "office_name_kana": null
  },
  "0821": {
    "postcode": "3010821",
    "prefecture": "茨城県",
    "prefecture_kana": "イバラキケン",
    "prefecture_code": 8,
    "city": "龍ケ崎市",
    "city_kana": "リュウガサキシ",
    "town": "東町",
    "town_kana": "アズマチョウ",
    "street": null,
    "office_name": null,
    "office_name_kana": null
  },
  "0822": {
    "postcode": "3010822",
    "prefecture": "茨城県",
    "prefecture_kana": "イバラキケン",
    "prefecture_code": 8,
    "city": "龍ケ崎市",
    "city_kana": "リュウガサキシ",
    "town": "光順田",
    "town_kana": "コウジュンダ",
    "street": null,
    "office_name": null,
    "office_name_kana": null
  },
  "0823": {
    "postcode": "3010823",
    "prefecture": "茨城県",
    "prefecture_kana": "イバラキケン",
    "prefecture_code": 8,
    "city": "龍ケ崎市",
    "city_kana": "リュウガサキシ",
    "town": "砂町",
    "town_kana": "スナマチ",
    "street": null,
    "office_name": null,
    "office_name_kana": null
  },
  "0824": {
    "postcode": "3010824",
    "prefecture": "茨城県",
    "prefecture_kana": "イバラキケン",
    "prefecture_code": 8,
    "city": "龍ケ崎市",
    "city_kana": "リュウガサキシ",
    "town": "下町",
    "town_kana": "シモマチ",
    "street": null,
    "office_name": null,
    "office_name_kana": null
  },
  "0825": {
    "postcode": "3010825",
    "prefecture": "茨城県",
    "prefecture_kana": "イバラキケン",
    "prefecture_code": 8,
    "city": "龍ケ崎市",
    "city_kana": "リュウガサキシ",
    "town": "川余郷",
    "town_kana": "カワヨゴウ",
    "street": null,
    "office_name": null,
    "office_name_kana": null
  },
  "0826": {
    "postcode": "3010826",
    "prefecture": "茨城県",
    "prefecture_kana": "イバラキケン",
    "prefecture_code": 8,
    "city": "龍ケ崎市",
    "city_kana": "リュウガサキシ",
    "town": "栄町",
    "town_kana": "サカエマチ",
    "street": null,
    "office_name": null,
    "office_name_kana": null
  },
  "0831": {
    "postcode": "3010831",
    "prefecture": "茨城県",
    "prefecture_kana": "イバラキケン",
    "prefecture_code": 8,
    "city": "龍ケ崎市",
    "city_kana": "リュウガサキシ",
    "town": "野原町",
    "town_kana": "ヤワラマチ",
    "street": null,
    "office_name": null,
    "office_name_kana": null
  },
  "0832": {
    "postcode": "3010832",
    "prefecture": "茨城県",
    "prefecture_kana": "イバラキケン",
    "prefecture_code": 8,
    "city": "龍ケ崎市",
    "city_kana": "リュウガサキシ",
    "town": "緑町",
    "town_kana": "ミドリチョウ",
    "street": null,
    "office_name": null,
    "office_name_kana": null
  },
  "0833": {
    "postcode": "3010833",
    "prefecture": "茨城県",
    "prefecture_kana": "イバラキケン",
    "prefecture_code": 8,
    "city": "龍ケ崎市",
    "city_kana": "リュウガサキシ",
    "town": "城下",
    "town_kana": "シロシタ",
    "street": null,
    "office_name": null,
    "office_name_kana": null
  },
  "0834": {
    "postcode": "3010834",
    "prefecture": "茨城県",
    "prefecture_kana": "イバラキケン",
    "prefecture_code": 8,
    "city": "龍ケ崎市",
    "city_kana": "リュウガサキシ",
    "town": "古城",
    "town_kana": "コジョウ",
    "street": null,
    "office_name": null,
    "office_name_kana": null
  },
  "0835": {
    "postcode": "3010835",
    "prefecture": "茨城県",
    "prefecture_kana": "イバラキケン",
    "prefecture_code": 8,
    "city": "龍ケ崎市",
    "city_kana": "リュウガサキシ",
    "town": "田町",
    "town_kana": "タマチ",
    "street": null,
    "office_name": null,
    "office_name_kana": null
  },
  "0836": {
    "postcode": "3010836",
    "prefecture": "茨城県",
    "prefecture_kana": "イバラキケン",
    "prefecture_code": 8,
    "city": "龍ケ崎市",
    "city_kana": "リュウガサキシ",
    "town": "寺後",
    "town_kana": "テラゴ",
    "street": null,
    "office_name": null,
    "office_name_kana": null
  },
  "0837": {
    "postcode": "3010837",
    "prefecture": "茨城県",
    "prefecture_kana": "イバラキケン",
    "prefecture_code": 8,
    "city": "龍ケ崎市",
    "city_kana": "リュウガサキシ",
    "town": "根町",
    "town_kana": "ネマチ",
    "street": null,
    "office_name": null,
    "office_name_kana": null
  },
  "0838": {
    "postcode": "3010838",
    "prefecture": "茨城県",
    "prefecture_kana": "イバラキケン",
    "prefecture_code": 8,
    "city": "龍ケ崎市",
    "city_kana": "リュウガサキシ",
    "town": "愛戸町",
    "town_kana": "アタドマチ",
    "street": null,
    "office_name": null,
    "office_name_kana": null
  },
  "0839": {
    "postcode": "3010839",
    "prefecture": "茨城県",
    "prefecture_kana": "イバラキケン",
    "prefecture_code": 8,
    "city": "龍ケ崎市",
    "city_kana": "リュウガサキシ",
    "town": "出し山町",
    "town_kana": "ダシヤママチ",
    "street": null,
    "office_name": null,
    "office_name_kana": null
  },
  "0841": {
    "postcode": "3010841",
    "prefecture": "茨城県",
    "prefecture_kana": "イバラキケン",
    "prefecture_code": 8,
    "city": "龍ケ崎市",
    "city_kana": "リュウガサキシ",
    "town": "白羽",
    "town_kana": "シラハネ",
    "street": null,
    "office_name": null,
    "office_name_kana": null
  },
  "0842": {
    "postcode": "3010842",
    "prefecture": "茨城県",
    "prefecture_kana": "イバラキケン",
    "prefecture_code": 8,
    "city": "龍ケ崎市",
    "city_kana": "リュウガサキシ",
    "town": "八代町",
    "town_kana": "ヤシロマチ",
    "street": null,
    "office_name": null,
    "office_name_kana": null
  },
  "0843": {
    "postcode": "3010843",
    "prefecture": "茨城県",
    "prefecture_kana": "イバラキケン",
    "prefecture_code": 8,
    "city": "龍ケ崎市",
    "city_kana": "リュウガサキシ",
    "town": "羽原町",
    "town_kana": "ハバラマチ",
    "street": null,
    "office_name": null,
    "office_name_kana": null
  },
  "0844": {
    "postcode": "3010844",
    "prefecture": "茨城県",
    "prefecture_kana": "イバラキケン",
    "prefecture_code": 8,
    "city": "龍ケ崎市",
    "city_kana": "リュウガサキシ",
    "town": "平畑",
    "town_kana": "ヒラハタ",
    "street": null,
    "office_name": null,
    "office_name_kana": null
  },
  "0845": {
    "postcode": "3010845",
    "prefecture": "茨城県",
    "prefecture_kana": "イバラキケン",
    "prefecture_code": 8,
    "city": "龍ケ崎市",
    "city_kana": "リュウガサキシ",
    "town": "奈戸岡",
    "town_kana": "ナトオカ",
    "street": null,
    "office_name": null,
    "office_name_kana": null
  },
  "0846": {
    "postcode": "3010846",
    "prefecture": "茨城県",
    "prefecture_kana": "イバラキケン",
    "prefecture_code": 8,
    "city": "龍ケ崎市",
    "city_kana": "リュウガサキシ",
    "town": "別所町",
    "town_kana": "ベッショマチ",
    "street": null,
    "office_name": null,
    "office_name_kana": null
  },
  "0847": {
    "postcode": "3010847",
    "prefecture": "茨城県",
    "prefecture_kana": "イバラキケン",
    "prefecture_code": 8,
    "city": "龍ケ崎市",
    "city_kana": "リュウガサキシ",
    "town": "城ノ内",
    "town_kana": "ジョウノウチ",
    "street": null,
    "office_name": null,
    "office_name_kana": null
  },
  "0851": {
    "postcode": "3010851",
    "prefecture": "茨城県",
    "prefecture_kana": "イバラキケン",
    "prefecture_code": 8,
    "city": "龍ケ崎市",
    "city_kana": "リュウガサキシ",
    "town": "大塚町",
    "town_kana": "オオツカマチ",
    "street": null,
    "office_name": null,
    "office_name_kana": null
  },
  "0852": {
    "postcode": "3010852",
    "prefecture": "茨城県",
    "prefecture_kana": "イバラキケン",
    "prefecture_code": 8,
    "city": "龍ケ崎市",
    "city_kana": "リュウガサキシ",
    "town": "向陽台",
    "town_kana": "コウヨウダイ",
    "street": null,
    "office_name": null,
    "office_name_kana": null
  },
  "0853": {
    "postcode": "3010853",
    "prefecture": "茨城県",
    "prefecture_kana": "イバラキケン",
    "prefecture_code": 8,
    "city": "龍ケ崎市",
    "city_kana": "リュウガサキシ",
    "town": "松ケ丘",
    "town_kana": "マツガオカ",
    "street": null,
    "office_name": null,
    "office_name_kana": null
  },
  "0854": {
    "postcode": "3010854",
    "prefecture": "茨城県",
    "prefecture_kana": "イバラキケン",
    "prefecture_code": 8,
    "city": "龍ケ崎市",
    "city_kana": "リュウガサキシ",
    "town": "中里",
    "town_kana": "ナカザト",
    "street": null,
    "office_name": null,
    "office_name_kana": null
  },
  "0855": {
    "postcode": "3010855",
    "prefecture": "茨城県",
    "prefecture_kana": "イバラキケン",
    "prefecture_code": 8,
    "city": "龍ケ崎市",
    "city_kana": "リュウガサキシ",
    "town": "藤ケ丘",
    "town_kana": "フジガオカ",
    "street": null,
    "office_name": null,
    "office_name_kana": null
  },
  "0856": {
    "postcode": "3010856",
    "prefecture": "茨城県",
    "prefecture_kana": "イバラキケン",
    "prefecture_code": 8,
    "city": "龍ケ崎市",
    "city_kana": "リュウガサキシ",
    "town": "貝原塚町",
    "town_kana": "カイハラツカマチ",
    "street": null,
    "office_name": null,
    "office_name_kana": null
  },
  "0857": {
    "postcode": "3010857",
    "prefecture": "茨城県",
    "prefecture_kana": "イバラキケン",
    "prefecture_code": 8,
    "city": "龍ケ崎市",
    "city_kana": "リュウガサキシ",
    "town": "泉町",
    "town_kana": "イズミマチ",
    "street": null,
    "office_name": null,
    "office_name_kana": null
  },
  "0901": {
    "postcode": "3010901",
    "prefecture": "茨城県",
    "prefecture_kana": "イバラキケン",
    "prefecture_code": 8,
    "city": "稲敷市",
    "city_kana": "イナシキシ",
    "town": "下根本",
    "town_kana": "シモネモト",
    "street": null,
    "office_name": null,
    "office_name_kana": null
  },
  "0902": {
    "postcode": "3010902",
    "prefecture": "茨城県",
    "prefecture_kana": "イバラキケン",
    "prefecture_code": 8,
    "city": "稲敷市",
    "city_kana": "イナシキシ",
    "town": "上根本",
    "town_kana": "カミネモト",
    "street": null,
    "office_name": null,
    "office_name_kana": null
  },
  "8501": {
    "postcode": "3018501",
    "prefecture": "茨城県",
    "prefecture_kana": "イバラキケン",
    "prefecture_code": 8,
    "city": "龍ケ崎市",
    "city_kana": "リュウガサキシ",
    "town": "",
    "town_kana": "",
    "street": "３番地",
    "office_name": "ＴＣＭ　株式会社　竜ヶ崎工場",
    "office_name_kana": "テイ-シ-エム カブシキガイシヤ リユウガサキコウジヨウ"
  },
  "8505": {
    "postcode": "3018505",
    "prefecture": "茨城県",
    "prefecture_kana": "イバラキケン",
    "prefecture_code": 8,
    "city": "龍ケ崎市",
    "city_kana": "リュウガサキシ",
    "town": "馴馬町",
    "town_kana": "ナレウママチ",
    "street": "５１６７−１",
    "office_name": "イセデリカ　（株）",
    "office_name_kana": "イセデリカ カブシキガイシヤ"
  },
  "8555": {
    "postcode": "3018555",
    "prefecture": "茨城県",
    "prefecture_kana": "イバラキケン",
    "prefecture_code": 8,
    "city": "龍ケ崎市",
    "city_kana": "リュウガサキシ",
    "town": "平畑",
    "town_kana": "ヒラハタ",
    "street": "１２０",
    "office_name": "流通経済大学",
    "office_name_kana": "リユウツウケイザイダイガク"
  },
  "8601": {
    "postcode": "3018601",
    "prefecture": "茨城県",
    "prefecture_kana": "イバラキケン",
    "prefecture_code": 8,
    "city": "龍ケ崎市",
    "city_kana": "リュウガサキシ",
    "town": "川原代町",
    "town_kana": "カワラシロマチ",
    "street": "１１８２−５（龍ケ崎郵便局私書箱第１１号）",
    "office_name": "竜ヶ崎税務署",
    "office_name_kana": "リユウガサキゼイムシヨ"
  },
  "8602": {
    "postcode": "3018602",
    "prefecture": "茨城県",
    "prefecture_kana": "イバラキケン",
    "prefecture_code": 8,
    "city": "龍ケ崎市",
    "city_kana": "リュウガサキシ",
    "town": "泉町",
    "town_kana": "イズミマチ",
    "street": "２０８０（龍ケ崎郵便局私書箱第２号）",
    "office_name": "株式会社　龍ケ崎カントリー倶楽部",
    "office_name_kana": "カブシキガイシヤ リユウガサキカントリ-クラブ"
  },
  "8610": {
    "postcode": "3018610",
    "prefecture": "茨城県",
    "prefecture_kana": "イバラキケン",
    "prefecture_code": 8,
    "city": "龍ケ崎市",
    "city_kana": "リュウガサキシ",
    "town": "若柴町",
    "town_kana": "ワカシバマチ",
    "street": "６９",
    "office_name": "日立ライティング　株式会社　竜ケ崎事業所",
    "office_name_kana": "ヒタチライテイング カブシキガイシヤ リユウガサキジギヨウシヨ"
  },
  "8611": {
    "postcode": "3018611",
    "prefecture": "茨城県",
    "prefecture_kana": "イバラキケン",
    "prefecture_code": 8,
    "city": "龍ケ崎市",
    "city_kana": "リュウガサキシ",
    "town": "",
    "town_kana": "",
    "street": "３７１０",
    "office_name": "龍ケ崎市役所",
    "office_name_kana": "リユウガサキシヤクシヨ"
  }
}