{
  "0000": {
    "postcode": "3020000",
    "prefecture": "茨城県",
    "prefecture_kana": "イバラキケン",
    "prefecture_code": 8,
    "city": "取手市",
    "city_kana": "トリデシ",
    "town": "",
    "town_kana": "",
    "street": null,
    "office_name": null,
    "office_name_kana": null
  },
  "0001": {
    "postcode": "3020001",
    "prefecture": "茨城県",
    "prefecture_kana": "イバラキケン",
    "prefecture_code": 8,
    "city": "取手市",
    "city_kana": "トリデシ",
    "town": "小文間",
    "town_kana": "オモンマ",
    "street": null,
    "office_name": null,
    "office_name_kana": null
  },
  "0002": {
    "postcode": "3020002",
    "prefecture": "茨城県",
    "prefecture_kana": "イバラキケン",
    "prefecture_code": 8,
    "city": "取手市",
    "city_kana": "トリデシ",
    "town": "長兵衛新田",
    "town_kana": "チョウベエシンデン",
    "street": null,
    "office_name": null,
    "office_name_kana": null
  },
  "0003": {
    "postcode": "3020003",
    "prefecture": "茨城県",
    "prefecture_kana": "イバラキケン",
    "prefecture_code": 8,
    "city": "取手市",
    "city_kana": "トリデシ",
    "town": "小堀",
    "town_kana": "オオホリ",
    "street": null,
    "office_name": null,
    "office_name_kana": null
  },
  "0004": {
    "postcode": "3020004",
    "prefecture": "茨城県",
    "prefecture_kana": "イバラキケン",
    "prefecture_code": 8,
    "city": "取手市",
    "city_kana": "トリデシ",
    "town": "取手",
    "town_kana": "トリデ",
    "street": null,
    "office_name": null,
    "office_name_kana": null
  },
  "0005": {
    "postcode": "3020005",
    "prefecture": "茨城県",
    "prefecture_kana": "イバラキケン",
    "prefecture_code": 8,
    "city": "取手市",
    "city_kana": "トリデシ",
    "town": "東",
    "town_kana": "ヒガシ",
    "street": null,
    "office_name": null,
    "office_name_kana": null
  },
  "0006": {
    "postcode": "3020006",
    "prefecture": "茨城県",
    "prefecture_kana": "イバラキケン",
    "prefecture_code": 8,
    "city": "取手市",
    "city_kana": "トリデシ",
    "town": "青柳",
    "town_kana": "アオヤナギ",
    "street": null,
    "office_name": null,
    "office_name_kana": null
  },
  "0007": {
    "postcode": "3020007",
    "prefecture": "茨城県",
    "prefecture_kana": "イバラキケン",
    "prefecture_code": 8,
    "city": "取手市",
    "city_kana": "トリデシ",
    "town": "吉田",
    "town_kana": "ヨシダ",
    "street": null,
    "office_name": null,
    "office_name_kana": null
  },
  "0011": {
    "postcode": "3020011",
    "prefecture": "茨城県",
    "prefecture_kana": "イバラキケン",
    "prefecture_code": 8,
    "city": "取手市",
    "city_kana": "トリデシ",
    "town": "井野",
    "town_kana": "イノ",
    "street": null,
    "office_name": null,
    "office_name_kana": null
  },
  "0012": {
    "postcode": "3020012",
    "prefecture": "茨城県",
    "prefecture_kana": "イバラキケン",
    "prefecture_code": 8,
    "city": "取手市",
    "city_kana": "トリデシ",
    "town": "井野団地",
    "town_kana": "イノダンチ",
    "street": null,
    "office_name": null,
    "office_name_kana": null
  },
  "0013": {
    "postcode": "3020013",
    "prefecture": "茨城県",
    "prefecture_kana": "イバラキケン",
    "prefecture_code": 8,
    "city": "取手市",
    "city_kana": "トリデシ",
    "town": "台宿",
    "town_kana": "ダイシュク",
    "street": null,
    "office_name": null,
    "office_name_kana": null
  },
  "0014": {
    "postcode": "3020014",
    "prefecture": "茨城県",
    "prefecture_kana": "イバラキケン",
    "prefecture_code": 8,
    "city": "取手市",
    "city_kana": "トリデシ",
    "town": "中央町",
    "town_kana": "チュウオウチョウ",
    "street": null,
    "office_name": null,
    "office_name_kana": null
  },
  "0015": {
    "postcode": "3020015",
    "prefecture": "茨城県",
    "prefecture_kana": "イバラキケン",
    "prefecture_code": 8,
    "city": "取手市",
    "city_kana": "トリデシ",
    "town": "井野台",
    "town_kana": "イノダイ",
    "street": null,
    "office_name": null,
    "office_name_kana": null
  },
  "0016": {
    "postcode": "3020016",
    "prefecture": "茨城県",
    "prefecture_kana": "イバラキケン",
    "prefecture_code": 8,
    "city": "取手市",
    "city_kana": "トリデシ",
    "town": "中原町",
    "town_kana": "ナカハラチョウ",
    "street": null,
    "office_name": null,
    "office_name_kana": null
  },
  "0017": {
    "postcode": "3020017",
    "prefecture": "茨城県",
    "prefecture_kana": "イバラキケン",
    "prefecture_code": 8,
    "city": "取手市",
    "city_kana": "トリデシ",
    "town": "桑原",
    "town_kana": "クワバラ",
    "street": null,
    "office_name": null,
    "office_name_kana": null
  },
  "0021": {
    "postcode": "3020021",
    "prefecture": "茨城県",
    "prefecture_kana": "イバラキケン",
    "prefecture_code": 8,
    "city": "取手市",
    "city_kana": "トリデシ",
    "town": "寺田",
    "town_kana": "テラダ",
    "street": null,
    "office_name": null,
    "office_name_kana": null
  },
  "0022": {
    "postcode": "3020022",
    "prefecture": "茨城県",
    "prefecture_kana": "イバラキケン",
    "prefecture_code": 8,
    "city": "取手市",
    "city_kana": "トリデシ",
    "town": "本郷",
    "town_kana": "ホンゴウ",
    "street": null,
    "office_name": null,
    "office_name_kana": null
  },
  "0023": {
    "postcode": "3020023",
    "prefecture": "茨城県",
    "prefecture_kana": "イバラキケン",
    "prefecture_code": 8,
    "city": "取手市",
    "city_kana": "トリデシ",
    "town": "白山",
    "town_kana": "ハクサン",
    "street": null,
    "office_name": null,
    "office_name_kana": null
  },
  "0024": {
    "postcode": "3020024",
    "prefecture": "茨城県",
    "prefecture_kana": "イバラキケン",
    "prefecture_code": 8,
    "city": "取手市",
    "city_kana": "トリデシ",
    "town": "新町",
    "town_kana": "シンマチ",
    "street": null,
    "office_name": null,
    "office_name_kana": null
  },
  "0025": {
    "postcode": "3020025",
    "prefecture": "茨城県",
    "prefecture_kana": "イバラキケン",
    "prefecture_code": 8,
    "city": "取手市",
    "city_kana": "トリデシ",
    "town": "西",
    "town_kana": "ニシ",
    "street": null,
    "office_name": null,
    "office_name_kana": null
  },
  "0026": {
    "postcode": "3020026",
    "prefecture": "茨城県",
    "prefecture_kana": "イバラキケン",
    "prefecture_code": 8,
    "city": "取手市",
    "city_kana": "トリデシ",
    "town": "稲",
    "town_kana": "イナ",
    "street": null,
    "office_name": null,
    "office_name_kana": null
  },
  "0027": {
    "postcode": "3020027",
    "prefecture": "茨城県",
    "prefecture_kana": "イバラキケン",
    "prefecture_code": 8,
    "city": "取手市",
    "city_kana": "トリデシ",
    "town": "駒場",
    "town_kana": "コマバ",
    "street": null,
    "office_name": null,
    "office_name_kana": null
  },
  "0031": {
    "postcode": "3020031",
    "prefecture": "茨城県",
    "prefecture_kana": "イバラキケン",
    "prefecture_code": 8,
    "city": "取手市",
    "city_kana": "トリデシ",
    "town": "新取手",
    "town_kana": "シントリデ",
    "street": null,
    "office_name": null,
    "office_name_kana": null
  },
  "0032": {
    "postcode": "3020032",
    "prefecture": "茨城県",
    "prefecture_kana": "イバラキケン",
    "prefecture_code": 8,
    "city": "取手市",
    "city_kana": "トリデシ",
    "town": "野々井",
    "town_kana": "ノノイ",
    "street": null,
    "office_name": null,
    "office_name_kana": null
  },
  "0033": {
    "postcode": "3020033",
    "prefecture": "茨城県",
    "prefecture_kana": "イバラキケン",
    "prefecture_code": 8,
    "city": "取手市",
    "city_kana": "トリデシ",
    "town": "米ノ井",
    "town_kana": "コメノイ",
    "street": null,
    "office_name": null,
    "office_name_kana": null
  },
  "0034": {
    "postcode": "3020034",
    "prefecture": "茨城県",
    "prefecture_kana": "イバラキケン",
    "prefecture_code": 8,
    "city": "取手市",
    "city_kana": "トリデシ",
    "town": "戸頭",
    "town_kana": "トガシラ",
    "street": null,
    "office_name": null,
    "office_name_kana": null
  },
  "0035": {
    "postcode": "3020035",
    "prefecture": "茨城県",
    "prefecture_kana": "イバラキケン",
    "prefecture_code": 8,
    "city": "取手市",
    "city_kana": "トリデシ",
    "town": "上高井",
    "town_kana": "カミタカイ",
    "street": null,
    "office_name": null,
    "office_name_kana": null
  },
  "0036": {
    "postcode": "3020036",
    "prefecture": "茨城県",
    "prefecture_kana": "イバラキケン",
    "prefecture_code": 8,
    "city": "取手市",
    "city_kana": "トリデシ",
    "town": "貝塚",
    "town_kana": "カイヅカ",
    "street": null,
    "office_name": null,
    "office_name_kana": null
  },
  "0037": {
    "postcode": "3020037",
    "prefecture": "茨城県",
    "prefecture_kana": "イバラキケン",
    "prefecture_code": 8,
    "city": "取手市",
    "city_kana": "トリデシ",
    "town": "市之代",
    "town_kana": "イチノダイ",
    "street": null,
    "office_name": null,
    "office_name_kana": null
  },
  "0038": {
    "postcode": "3020038",
    "prefecture": "茨城県",
    "prefecture_kana": "イバラキケン",
    "prefecture_code": 8,
    "city": "取手市",
    "city_kana": "トリデシ",
    "town": "下高井",
    "town_kana": "シモタカイ",
    "street": null,
    "office_name": null,
    "office_name_kana": null
  },
  "0039": {
    "postcode": "3020039",
    "prefecture": "茨城県",
    "prefecture_kana": "イバラキケン",
    "prefecture_code": 8,
    "city": "取手市",
    "city_kana": "トリデシ",
    "town": "ゆめみ野",
    "town_kana": "ユメミノ",
    "street": null,
    "office_name": null,
    "office_name_kana": null
  },
  "0100": {
    "postcode": "3020100",
    "prefecture": "茨城県",
    "prefecture_kana": "イバラキケン",
    "prefecture_code": 8,
    "city": "守谷市",
    "city_kana": "モリヤシ",
    "town": "",
    "town_kana": "",
    "street": null,
    "office_name": null,
    "office_name_kana": null
  },
  "0101": {
    "postcode": "3020101",
    "prefecture": "茨城県",
    "prefecture_kana": "イバラキケン",
    "prefecture_code": 8,
    "city": "守谷市",
    "city_kana": "モリヤシ",
    "town": "板戸井",
    "town_kana": "イタトイ",
    "street": null,
    "office_name": null,
    "office_name_kana": null
  },
  "0102": {
    "postcode": "3020102",
    "prefecture": "茨城県",
    "prefecture_kana": "イバラキケン",
    "prefecture_code": 8,
    "city": "守谷市",
    "city_kana": "モリヤシ",
    "town": "松前台",
    "town_kana": "マツマエダイ",
    "street": null,
    "office_name": null,
    "office_name_kana": null
  },
  "0103": {
    "postcode": "3020103",
    "prefecture": "茨城県",
    "prefecture_kana": "イバラキケン",
    "prefecture_code": 8,
    "city": "守谷市",
    "city_kana": "モリヤシ",
    "town": "大山新田",
    "town_kana": "オオヤマシンデン",
    "street": null,
    "office_name": null,
    "office_name_kana": null
  },
  "0104": {
    "postcode": "3020104",
    "prefecture": "茨城県",
    "prefecture_kana": "イバラキケン",
    "prefecture_code": 8,
    "city": "守谷市",
    "city_kana": "モリヤシ",
    "town": "久保ケ丘",
    "town_kana": "クボガオカ",
    "street": null,
    "office_name": null,
    "office_name_kana": null
  },
  "0105": {
    "postcode": "3020105",
    "prefecture": "茨城県",
    "prefecture_kana": "イバラキケン",
    "prefecture_code": 8,
    "city": "守谷市",
    "city_kana": "モリヤシ",
    "town": "薬師台",
    "town_kana": "ヤクシダイ",
    "street": null,
    "office_name": null,
    "office_name_kana": null
  },
  "0106": {
    "postcode": "3020106",
    "prefecture": "茨城県",
    "prefecture_kana": "イバラキケン",
    "prefecture_code": 8,
    "city": "守谷市",
    "city_kana": "モリヤシ",
    "town": "緑",
    "town_kana": "ミドリ",
    "street": null,
    "office_name": null,
    "office_name_kana": null
  },
  "0107": {
    "postcode": "3020107",
    "prefecture": "茨城県",
    "prefecture_kana": "イバラキケン",
    "prefecture_code": 8,
    "city": "守谷市",
    "city_kana": "モリヤシ",
    "town": "大木",
    "town_kana": "オオキ",
    "street": null,
    "office_name": null,
    "office_name_kana": null
  },
  "0108": {
    "postcode": "3020108",
    "prefecture": "茨城県",
    "prefecture_kana": "イバラキケン",
    "prefecture_code": 8,
    "city": "守谷市",
    "city_kana": "モリヤシ",
    "town": "松並",
    "town_kana": "マツナミ",
    "street": null,
    "office_name": null,
    "office_name_kana": null
  },
  "0109": {
    "postcode": "3020109",
    "prefecture": "茨城県",
    "prefecture_kana": "イバラキケン",
    "prefecture_code": 8,
    "city": "守谷市",
    "city_kana": "モリヤシ",
    "town": "本町",
    "town_kana": "ホンチョウ",
    "street": null,
    "office_name": null,
    "office_name_kana": null
  },
  "0110": {
    "postcode": "3020110",
    "prefecture": "茨城県",
    "prefecture_kana": "イバラキケン",
    "prefecture_code": 8,
    "city": "守谷市",
    "city_kana": "モリヤシ",
    "town": "百合ケ丘",
    "town_kana": "ユリガオカ",
    "street": null,
    "office_name": null,
    "office_name_kana": null
  },
  "0111": {
    "postcode": "3020111",
    "prefecture": "茨城県",
    "prefecture_kana": "イバラキケン",
    "prefecture_code": 8,
    "city": "守谷市",
    "city_kana": "モリヤシ",
    "town": "赤法花",
    "town_kana": "アカボツケ",
    "street": null,
    "office_name": null,
    "office_name_kana": null
  },
  "0112": {
    "postcode": "3020112",
    "prefecture": "茨城県",
    "prefecture_kana": "イバラキケン",
    "prefecture_code": 8,
    "city": "守谷市",
    "city_kana": "モリヤシ",
    "town": "同地",
    "town_kana": "ドウチ",
    "street": null,
    "office_name": null,
    "office_name_kana": null
  },
  "0115": {
    "postcode": "3020115",
    "prefecture": "茨城県",
    "prefecture_kana": "イバラキケン",
    "prefecture_code": 8,
    "city": "守谷市",
    "city_kana": "モリヤシ",
    "town": "中央",
    "town_kana": "チュウオウ",
    "street": null,
    "office_name": null,
    "office_name_kana": null
  },
  "0116": {
    "postcode": "3020116",
    "prefecture": "茨城県",
    "prefecture_kana": "イバラキケン",
    "prefecture_code": 8,
    "city": "守谷市",
    "city_kana": "モリヤシ",
    "town": "大柏",
    "town_kana": "オオガシワ",
    "street": null,
    "office_name": null,
    "office_name_kana": null
  },
  "0117": {
    "postcode": "3020117",
    "prefecture": "茨城県",
    "prefecture_kana": "イバラキケン",
    "prefecture_code": 8,
    "city": "守谷市",
    "city_kana": "モリヤシ",
    "town": "野木崎",
    "town_kana": "ノギサキ",
    "street": null,
    "office_name": null,
    "office_name_kana": null
  },
  "0118": {
    "postcode": "3020118",
    "prefecture": "茨城県",
    "prefecture_kana": "イバラキケン",
    "prefecture_code": 8,
    "city": "守谷市",
    "city_kana": "モリヤシ",
    "town": "立沢",
    "town_kana": "タツザワ",
    "street": null,
    "office_name": null,
    "office_name_kana": null
  },
  "0119": {
    "postcode": "3020119",
    "prefecture": "茨城県",
    "prefecture_kana": "イバラキケン",
    "prefecture_code": 8,
    "city": "守谷市",
    "city_kana": "モリヤシ",
    "town": "御所ケ丘",
    "town_kana": "ゴショガオカ",
    "street": null,
    "office_name": null,
    "office_name_kana": null
  },
  "0121": {
    "postcode": "3020121",
    "prefecture": "茨城県",
    "prefecture_kana": "イバラキケン",
    "prefecture_code": 8,
    "city": "守谷市",
    "city_kana": "モリヤシ",
    "town": "みずき野",
    "town_kana": "ミズキノ",
    "street": null,
    "office_name": null,
    "office_name_kana": null
  },
  "0122": {
    "postcode": "3020122",
    "prefecture": "茨城県",
    "prefecture_kana": "イバラキケン",
    "prefecture_code": 8,
    "city": "守谷市",
    "city_kana": "モリヤシ",
    "town": "小山",
    "town_kana": "コヤマ",
    "street": null,
    "office_name": null,
    "office_name_kana": null
  },
  "0123": {
    "postcode": "3020123",
    "prefecture": "茨城県",
    "prefecture_kana": "イバラキケン",
    "prefecture_code": 8,
    "city": "守谷市",
    "city_kana": "モリヤシ",
    "town": "乙子",
    "town_kana": "オトゴ",
    "street": null,
    "office_name": null,
    "office_name_kana": null
  },
  "0124": {
    "postcode": "3020124",
    "prefecture": "茨城県",
    "prefecture_kana": "イバラキケン",
    "prefecture_code": 8,
    "city": "守谷市",
    "city_kana": "モリヤシ",
    "town": "美園",
    "town_kana": "ミソノ",
    "street": null,
    "office_name": null,
    "office_name_kana": null
  },
  "0125": {
    "postcode": "3020125",
    "prefecture": "茨城県",
    "prefecture_kana": "イバラキケン",
    "prefecture_code": 8,
    "city": "守谷市",
    "city_kana": "モリヤシ",
    "town": "高野",
    "town_kana": "コウヤ",
    "street": null,
    "office_name": null,
    "office_name_kana": null
  },
  "0126": {
    "postcode": "3020126",
    "prefecture": "茨城県",
    "prefecture_kana": "イバラキケン",
    "prefecture_code": 8,
    "city": "守谷市",
    "city_kana": "モリヤシ",
    "town": "鈴塚",
    "town_kana": "スズツカ",
    "street": null,
    "office_name": null,
    "office_name_kana": null
  },
  "0127": {
    "postcode": "3020127",
    "prefecture": "茨城県",
    "prefecture_kana": "イバラキケン",
    "prefecture_code": 8,
    "city": "守谷市",
    "city_kana": "モリヤシ",
    "town": "松ケ丘",
    "town_kana": "マツガオカ",
    "street": null,
    "office_name": null,
    "office_name_kana": null
  },
  "0128": {
    "postcode": "3020128",
    "prefecture": "茨城県",
    "prefecture_kana": "イバラキケン",
    "prefecture_code": 8,
    "city": "守谷市",
    "city_kana": "モリヤシ",
    "town": "けやき台",
    "town_kana": "ケヤキダイ",
    "street": null,
    "office_name": null,
    "office_name_kana": null
  },
  "0131": {
    "postcode": "3020131",
    "prefecture": "茨城県",
    "prefecture_kana": "イバラキケン",
    "prefecture_code": 8,
    "city": "守谷市",
    "city_kana": "モリヤシ",
    "town": "ひがし野",
    "town_kana": "ヒガシノ",
    "street": null,
    "office_name": null,
    "office_name_kana": null
  },
  "0132": {
    "postcode": "3020132",
    "prefecture": "茨城県",
    "prefecture_kana": "イバラキケン",
    "prefecture_code": 8,
    "city": "守谷市",
    "city_kana": "モリヤシ",
    "town": "松並青葉",
    "town_kana": "マツナミアオバ",
    "street": null,
    "office_name": null,
    "office_name_kana": null
  },
  "0198": {
    "postcode": "3020198",
    "prefecture": "茨城県",
    "prefecture_kana": "イバラキケン",
    "prefecture_code": 8,
    "city": "守谷市",
    "city_kana": "モリヤシ",
    "town": "大柏",
    "town_kana": "オオガシワ",
    "street": "９５０−１",
    "office_name": "守谷市役所",
    "office_name_kana": "モリヤシヤクシヨ"
  },
  "8501": {
    "postcode": "3028501",
    "prefecture": "茨城県",
    "prefecture_kana": "イバラキケン",
    "prefecture_code": 8,
    "city": "取手市",
    "city_kana": "トリデシ",
    "town": "白山",
    "town_kana": "ハクサン",
    "street": "７丁目５−１",
    "office_name": "キヤノン　株式会社　取手事業所",
    "office_name_kana": "キヤノン カブシキガイシヤ トリデジギヨウシヨ"
  },
  "8502": {
    "postcode": "3028502",
    "prefecture": "茨城県",
    "prefecture_kana": "イバラキケン",
    "prefecture_code": 8,
    "city": "取手市",
    "city_kana": "トリデシ",
    "town": "桑原",
    "town_kana": "クワバラ",
    "street": "１８８−１",
    "office_name": "キリンビール　株式会社　取手工場",
    "office_name_kana": "キリンビ-ル カブシキガイシヤ トリデコウジヨウ"
  },
  "8585": {
    "postcode": "3028585",
    "prefecture": "茨城県",
    "prefecture_kana": "イバラキケン",
    "prefecture_code": 8,
    "city": "取手市",
    "city_kana": "トリデシ",
    "town": "寺田",
    "town_kana": "テラダ",
    "street": "５１３９",
    "office_name": "取手市役所",
    "office_name_kana": "トリデシヤクシヨ"
  },
  "8586": {
    "postcode": "3028586",
    "prefecture": "茨城県",
    "prefecture_kana": "イバラキケン",
    "prefecture_code": 8,
    "city": "取手市",
    "city_kana": "トリデシ",
    "town": "下高井",
    "town_kana": "シモタカイ",
    "street": "１５９３番地（取手市ゆめみ野３丁目１９街区１画地）",
    "office_name": "伊藤ハム　株式会社　取手工場",
    "office_name_kana": "イトウハム カブシキガイシヤ トリデコウジヨウ"
  }
}