{
  "0000": {
    "postcode": "3030000",
    "prefecture": "茨城県",
    "prefecture_kana": "イバラキケン",
    "prefecture_code": 8,
    "city": "常総市",
    "city_kana": "ジョウソウシ",
    "town": "",
    "town_kana": "",
    "street": null,
    "office_name": null,
    "office_name_kana": null
  },
  "0001": {
    "postcode": "3030001",
    "prefecture": "茨城県",
    "prefecture_kana": "イバラキケン",
    "prefecture_code": 8,
    "city": "常総市",
    "city_kana": "ジョウソウシ",
    "town": "中山町",
    "town_kana": "ナカヤママチ",
    "street": null,
    "office_name": null,
    "office_name_kana": null
  },
  "0002": {
    "postcode": "3030002",
    "prefecture": "茨城県",
    "prefecture_kana": "イバラキケン",
    "prefecture_code": 8,
    "city": "常総市",
    "city_kana": "ジョウソウシ",
    "town": "相野谷町",
    "town_kana": "アイノヤマチ",
    "street": null,
    "office_name": null,
    "office_name_kana": null
  },
  "0003": {
    "postcode": "3030003",
    "prefecture": "茨城県",
    "prefecture_kana": "イバラキケン",
    "prefecture_code": 8,
    "city": "常総市",
    "city_kana": "ジョウソウシ",
    "town": "水海道橋本町",
    "town_kana": "ミツカイドウハシモトチョウ",
    "street": null,
    "office_name": null,
    "office_name_kana": null
  },
  "0004": {
    "postcode": "3030004",
    "prefecture": "茨城県",
    "prefecture_kana": "イバラキケン",
    "prefecture_code": 8,
    "city": "常総市",
    "city_kana": "ジョウソウシ",
    "town": "水海道元町",
    "town_kana": "ミツカイドウモトマチ",
    "street": null,
    "office_name": null,
    "office_name_kana": null
  },
  "0005": {
    "postcode": "3030005",
    "prefecture": "茨城県",
    "prefecture_kana": "イバラキケン",
    "prefecture_code": 8,
    "city": "常総市",
    "city_kana": "ジョウソウシ",
    "town": "水海道森下町",
    "town_kana": "ミツカイドウモリシタマチ",
    "street": null,
    "office_name": null,
    "office_name_kana": null
  },
  "0006": {
    "postcode": "3030006",
    "prefecture": "茨城県",
    "prefecture_kana": "イバラキケン",
    "prefecture_code": 8,
    "city": "常総市",
    "city_kana": "ジョウソウシ",
    "town": "小山戸町",
    "town_kana": "コヤマドマチ",
    "street": null,
    "office_name": null,
    "office_name_kana": null
  },
  "0011": {
    "postcode": "3030011",
    "prefecture": "茨城県",
    "prefecture_kana": "イバラキケン",
    "prefecture_code": 8,
    "city": "常総市",
    "city_kana": "ジョウソウシ",
    "town": "東町",
    "town_kana": "アズマチョウ",
    "street": null,
    "office_name": null,
    "office_name_kana": null
  },
  "0012": {
    "postcode": "3030012",
    "prefecture": "茨城県",
    "prefecture_kana": "イバラキケン",
    "prefecture_code": 8,
    "city": "常総市",
    "city_kana": "ジョウソウシ",
    "town": "大崎町",
    "town_kana": "オオサキマチ",
    "street": null,
    "office_name": null,
    "office_name_kana": null
  },
  "0013": {
    "postcode": "3030013",
    "prefecture": "茨城県",
    "prefecture_kana": "イバラキケン",
    "prefecture_code": 8,
    "city": "常総市",
    "city_kana": "ジョウソウシ",
    "town": "箕輪町",
    "town_kana": "ミノワマチ",
    "street": null,
    "office_name": null,
    "office_name_kana": null
  },
  "0014": {
    "postcode": "3030014",
    "prefecture": "茨城県",
    "prefecture_kana": "イバラキケン",
    "prefecture_code": 8,
    "city": "常総市",
    "city_kana": "ジョウソウシ",
    "town": "兵町",
    "town_kana": "ヒョウマチ",
    "street": null,
    "office_name": null,
    "office_name_kana": null
  },
  "0015": {
    "postcode": "3030015",
    "prefecture": "茨城県",
    "prefecture_kana": "イバラキケン",
    "prefecture_code": 8,
    "city": "常総市",
    "city_kana": "ジョウソウシ",
    "town": "長助町",
    "town_kana": "チョウスケマチ",
    "street": null,
    "office_name": null,
    "office_name_kana": null
  },
  "0016": {
    "postcode": "3030016",
    "prefecture": "茨城県",
    "prefecture_kana": "イバラキケン",
    "prefecture_code": 8,
    "city": "常総市",
    "city_kana": "ジョウソウシ",
    "town": "新井木町",
    "town_kana": "アライギマチ",
    "street": null,
    "office_name": null,
    "office_name_kana": null
  },
  "0017": {
    "postcode": "3030017",
    "prefecture": "茨城県",
    "prefecture_kana": "イバラキケン",
    "prefecture_code": 8,
    "city": "常総市",
    "city_kana": "ジョウソウシ",
    "town": "平町",
    "town_kana": "ヘイマチ",
    "street": null,
    "office_name": null,
    "office_name_kana": null
  },
  "0018": {
    "postcode": "3030018",
    "prefecture": "茨城県",
    "prefecture_kana": "イバラキケン",
    "prefecture_code": 8,
    "city": "常総市",
    "city_kana": "ジョウソウシ",
    "town": "十花町",
    "town_kana": "ジュッカマチ",
    "street": null,
    "office_name": null,
    "office_name_kana": null
  },
  "0021": {
    "postcode": "3030021",
    "prefecture": "茨城県",
    "prefecture_kana": "イバラキケン",
    "prefecture_code": 8,
    "city": "常総市",
    "city_kana": "ジョウソウシ",
    "town": "水海道諏訪町",
    "town_kana": "ミツカイドウスワマチ",
    "street": null,
    "office_name": null,
    "office_name_kana": null
  },
  "0022": {
    "postcode": "3030022",
    "prefecture": "茨城県",
    "prefecture_kana": "イバラキケン",
    "prefecture_code": 8,
    "city": "常総市",
    "city_kana": "ジョウソウシ",
    "town": "水海道淵頭町",
    "town_kana": "ミツカイドウフチガシラマチ",
    "street": null,
    "office_name": null,
    "office_name_kana": null
  },
  "0023": {
    "postcode": "3030023",
    "prefecture": "茨城県",
    "prefecture_kana": "イバラキケン",
    "prefecture_code": 8,
    "city": "常総市",
    "city_kana": "ジョウソウシ",
    "town": "水海道宝町",
    "town_kana": "ミツカイドウタカラマチ",
    "street": null,
    "office_name": null,
    "office_name_kana": null
  },
  "0024": {
    "postcode": "3030024",
    "prefecture": "茨城県",
    "prefecture_kana": "イバラキケン",
    "prefecture_code": 8,
    "city": "常総市",
    "city_kana": "ジョウソウシ",
    "town": "水海道栄町",
    "town_kana": "ミツカイドウサカエチョウ",
    "street": null,
    "office_name": null,
    "office_name_kana": null
  },
  "0025": {
    "postcode": "3030025",
    "prefecture": "茨城県",
    "prefecture_kana": "イバラキケン",
    "prefecture_code": 8,
    "city": "常総市",
    "city_kana": "ジョウソウシ",
    "town": "水海道亀岡町",
    "town_kana": "ミツカイドウカメオカチョウ",
    "street": null,
    "office_name": null,
    "office_name_kana": null
  },
  "0026": {
    "postcode": "3030026",
    "prefecture": "茨城県",
    "prefecture_kana": "イバラキケン",
    "prefecture_code": 8,
    "city": "常総市",
    "city_kana": "ジョウソウシ",
    "town": "水海道本町",
    "town_kana": "ミツカイドウホンチョウ",
    "street": null,
    "office_name": null,
    "office_name_kana": null
  },
  "0031": {
    "postcode": "3030031",
    "prefecture": "茨城県",
    "prefecture_kana": "イバラキケン",
    "prefecture_code": 8,
    "city": "常総市",
    "city_kana": "ジョウソウシ",
    "town": "水海道山田町",
    "town_kana": "ミツカイドウヤマダマチ",
    "street": null,
    "office_name": null,
    "office_name_kana": null
  },
  "0032": {
    "postcode": "3030032",
    "prefecture": "茨城県",
    "prefecture_kana": "イバラキケン",
    "prefecture_code": 8,
    "city": "常総市",
    "city_kana": "ジョウソウシ",
    "town": "水海道川又町",
    "town_kana": "ミツカイドウカワマタチョウ",
    "street": null,
    "office_name": null,
    "office_name_kana": null
  },
  "0033": {
    "postcode": "3030033",
    "prefecture": "茨城県",
    "prefecture_kana": "イバラキケン",
    "prefecture_code": 8,
    "city": "常総市",
    "city_kana": "ジョウソウシ",
    "town": "水海道高野町",
    "town_kana": "ミツカイドウコウヤマチ",
    "street": null,
    "office_name": null,
    "office_name_kana": null
  },
  "0034": {
    "postcode": "3030034",
    "prefecture": "茨城県",
    "prefecture_kana": "イバラキケン",
    "prefecture_code": 8,
    "city": "常総市",
    "city_kana": "ジョウソウシ",
    "town": "水海道天満町",
    "town_kana": "ミツカイドウテンマンチョウ",
    "street": null,
    "office_name": null,
    "office_name_kana": null
  },
  "0041": {
    "postcode": "3030041",
    "prefecture": "茨城県",
    "prefecture_kana": "イバラキケン",
    "prefecture_code": 8,
    "city": "常総市",
    "city_kana": "ジョウソウシ",
    "town": "豊岡町",
    "town_kana": "トヨオカマチ",
    "street": null,
    "office_name": null,
    "office_name_kana": null
  },
  "0042": {
    "postcode": "3030042",
    "prefecture": "茨城県",
    "prefecture_kana": "イバラキケン",
    "prefecture_code": 8,
    "city": "常総市",
    "city_kana": "ジョウソウシ",
    "town": "坂手町",
    "town_kana": "サカテマチ",
    "street": null,
    "office_name": null,
    "office_name_kana": null
  },
  "0043": {
    "postcode": "3030043",
    "prefecture": "茨城県",
    "prefecture_kana": "イバラキケン",
    "prefecture_code": 8,
    "city": "常総市",
    "city_kana": "ジョウソウシ",
    "town": "内守谷町",
    "town_kana": "ウチモリヤマチ",
    "street": null,
    "office_name": null,
    "office_name_kana": null
  },
  "0044": {
    "postcode": "3030044",
    "prefecture": "茨城県",
    "prefecture_kana": "イバラキケン",
    "prefecture_code": 8,
    "city": "常総市",
    "city_kana": "ジョウソウシ",
    "town": "菅生町",
    "town_kana": "スガオマチ",
    "street": null,
    "office_name": null,
    "office_name_kana": null
  },
  "0045": {
    "postcode": "3030045",
    "prefecture": "茨城県",
    "prefecture_kana": "イバラキケン",
    "prefecture_code": 8,
    "city": "常総市",
    "city_kana": "ジョウソウシ",
    "town": "大塚戸町",
    "town_kana": "オオツカドマチ",
    "street": null,
    "office_name": null,
    "office_name_kana": null
  },
  "0046": {
    "postcode": "3030046",
    "prefecture": "茨城県",
    "prefecture_kana": "イバラキケン",
    "prefecture_code": 8,
    "city": "常総市",
    "city_kana": "ジョウソウシ",
    "town": "内守谷町きぬの里",
    "town_kana": "ウチモリヤマチキヌノサト",
    "street": null,
    "office_name": null,
    "office_name_kana": null
  },
  "8501": {
    "postcode": "3038501",
    "prefecture": "茨城県",
    "prefecture_kana": "イバラキケン",
    "prefecture_code": 8,
    "city": "常総市",
    "city_kana": "ジョウソウシ",
    "town": "水海道諏訪町",
    "town_kana": "ミツカイドウスワマチ",
    "street": "３２２２−３",
    "office_name": "常総市役所",
    "office_name_kana": "ジヨウソウシヤクシヨ"
  },
  "8503": {
    "postcode": "3038503",
    "prefecture": "茨城県",
    "prefecture_kana": "イバラキケン",
    "prefecture_code": 8,
    "city": "常総市",
    "city_kana": "ジョウソウシ",
    "town": "坂手町",
    "town_kana": "サカテマチ",
    "street": "５５４０−１１",
    "office_name": "キヤノンファインテックニスカ　株式会社",
    "office_name_kana": "キヤノンフアインテツクニスカ カブシキガイシヤ"
  }
}