{
  "0000": {
    "postcode": "3040000",
    "prefecture": "茨城県",
    "prefecture_kana": "イバラキケン",
    "prefecture_code": 8,
    "city": "下妻市",
    "city_kana": "シモツマシ",
    "town": "",
    "town_kana": "",
    "street": null,
    "office_name": null,
    "office_name_kana": null
  },
  "0001": {
    "postcode": "3040001",
    "prefecture": "茨城県",
    "prefecture_kana": "イバラキケン",
    "prefecture_code": 8,
    "city": "下妻市",
    "city_kana": "シモツマシ",
    "town": "平方",
    "town_kana": "ヒラカタ",
    "street": null,
    "office_name": null,
    "office_name_kana": null
  },
  "0002": {
    "postcode": "3040002",
    "prefecture": "茨城県",
    "prefecture_kana": "イバラキケン",
    "prefecture_code": 8,
    "city": "下妻市",
    "city_kana": "シモツマシ",
    "town": "江",
    "town_kana": "エ",
    "street": null,
    "office_name": null,
    "office_name_kana": null
  },
  "0003": {
    "postcode": "3040003",
    "prefecture": "茨城県",
    "prefecture_kana": "イバラキケン",
    "prefecture_code": 8,
    "city": "下妻市",
    "city_kana": "シモツマシ",
    "town": "関本下",
    "town_kana": "セキモトシタ",
    "street": null,
    "office_name": null,
    "office_name_kana": null
  },
  "0004": {
    "postcode": "3040004",
    "prefecture": "茨城県",
    "prefecture_kana": "イバラキケン",
    "prefecture_code": 8,
    "city": "下妻市",
    "city_kana": "シモツマシ",
    "town": "大木",
    "town_kana": "オオキ",
    "street": null,
    "office_name": null,
    "office_name_kana": null
  },
  "0005": {
    "postcode": "3040005",
    "prefecture": "茨城県",
    "prefecture_kana": "イバラキケン",
    "prefecture_code": 8,
    "city": "下妻市",
    "city_kana": "シモツマシ",
    "town": "半谷",
    "town_kana": "ハンヤ",
    "street": null,
    "office_name": null,
    "office_name_kana": null
  },
  "0006": {
    "postcode": "3040006",
    "prefecture": "茨城県",
    "prefecture_kana": "イバラキケン",
    "prefecture_code": 8,
    "city": "下妻市",
    "city_kana": "シモツマシ",
    "town": "柴",
    "town_kana": "シバ",
    "street": null,
    "office_name": null,
    "office_name_kana": null
  },
  "0007": {
    "postcode": "3040007",
    "prefecture": "茨城県",
    "prefecture_kana": "イバラキケン",
    "prefecture_code": 8,
    "city": "下妻市",
    "city_kana": "シモツマシ",
    "town": "黒駒",
    "town_kana": "クロコマ",
    "street": null,
    "office_name": null,
    "office_name_kana": null
  },
  "0011": {
    "postcode": "3040011",
    "prefecture": "茨城県",
    "prefecture_kana": "イバラキケン",
    "prefecture_code": 8,
    "city": "下妻市",
    "city_kana": "シモツマシ",
    "town": "神明",
    "town_kana": "シンメイ",
    "street": null,
    "office_name": null,
    "office_name_kana": null
  },
  "0012": {
    "postcode": "3040012",
    "prefecture": "茨城県",
    "prefecture_kana": "イバラキケン",
    "prefecture_code": 8,
    "city": "下妻市",
    "city_kana": "シモツマシ",
    "town": "若柳",
    "town_kana": "ワカヤナギ",
    "street": null,
    "office_name": null,
    "office_name_kana": null
  },
  "0013": {
    "postcode": "3040013",
    "prefecture": "茨城県",
    "prefecture_kana": "イバラキケン",
    "prefecture_code": 8,
    "city": "下妻市",
    "city_kana": "シモツマシ",
    "town": "下宮",
    "town_kana": "シタミヤ",
    "street": null,
    "office_name": null,
    "office_name_kana": null
  },
  "0014": {
    "postcode": "3040014",
    "prefecture": "茨城県",
    "prefecture_kana": "イバラキケン",
    "prefecture_code": 8,
    "city": "下妻市",
    "city_kana": "シモツマシ",
    "town": "中郷",
    "town_kana": "ナカゴウ",
    "street": null,
    "office_name": null,
    "office_name_kana": null
  },
  "0015": {
    "postcode": "3040015",
    "prefecture": "茨城県",
    "prefecture_kana": "イバラキケン",
    "prefecture_code": 8,
    "city": "下妻市",
    "city_kana": "シモツマシ",
    "town": "下田",
    "town_kana": "シモダ",
    "street": null,
    "office_name": null,
    "office_name_kana": null
  },
  "0016": {
    "postcode": "3040016",
    "prefecture": "茨城県",
    "prefecture_kana": "イバラキケン",
    "prefecture_code": 8,
    "city": "下妻市",
    "city_kana": "シモツマシ",
    "town": "数須",
    "town_kana": "カズス",
    "street": null,
    "office_name": null,
    "office_name_kana": null
  },
  "0017": {
    "postcode": "3040017",
    "prefecture": "茨城県",
    "prefecture_kana": "イバラキケン",
    "prefecture_code": 8,
    "city": "下妻市",
    "city_kana": "シモツマシ",
    "town": "筑波島",
    "town_kana": "チクワジマ",
    "street": null,
    "office_name": null,
    "office_name_kana": null
  },
  "0018": {
    "postcode": "3040018",
    "prefecture": "茨城県",
    "prefecture_kana": "イバラキケン",
    "prefecture_code": 8,
    "city": "下妻市",
    "city_kana": "シモツマシ",
    "town": "平川戸",
    "town_kana": "ヒラカワド",
    "street": null,
    "office_name": null,
    "office_name_kana": null
  },
  "0021": {
    "postcode": "3040021",
    "prefecture": "茨城県",
    "prefecture_kana": "イバラキケン",
    "prefecture_code": 8,
    "city": "下妻市",
    "city_kana": "シモツマシ",
    "town": "北大宝",
    "town_kana": "キタダイホウ",
    "street": null,
    "office_name": null,
    "office_name_kana": null
  },
  "0022": {
    "postcode": "3040022",
    "prefecture": "茨城県",
    "prefecture_kana": "イバラキケン",
    "prefecture_code": 8,
    "city": "下妻市",
    "city_kana": "シモツマシ",
    "town": "大宝",
    "town_kana": "ダイホウ",
    "street": null,
    "office_name": null,
    "office_name_kana": null
  },
  "0023": {
    "postcode": "3040023",
    "prefecture": "茨城県",
    "prefecture_kana": "イバラキケン",
    "prefecture_code": 8,
    "city": "下妻市",
    "city_kana": "シモツマシ",
    "town": "大串",
    "town_kana": "オオクシ",
    "street": null,
    "office_name": null,
    "office_name_kana": null
  },
  "0024": {
    "postcode": "3040024",
    "prefecture": "茨城県",
    "prefecture_kana": "イバラキケン",
    "prefecture_code": 8,
    "city": "下妻市",
    "city_kana": "シモツマシ",
    "town": "坂本新田",
    "town_kana": "サカモトシンデン",
    "street": null,
    "office_name": null,
    "office_name_kana": null
  },
  "0025": {
    "postcode": "3040025",
    "prefecture": "茨城県",
    "prefecture_kana": "イバラキケン",
    "prefecture_code": 8,
    "city": "下妻市",
    "city_kana": "シモツマシ",
    "town": "大木新田",
    "town_kana": "オオキシンデン",
    "street": null,
    "office_name": null,
    "office_name_kana": null
  },
  "0026": {
    "postcode": "3040026",
    "prefecture": "茨城県",
    "prefecture_kana": "イバラキケン",
    "prefecture_code": 8,
    "city": "下妻市",
    "city_kana": "シモツマシ",
    "town": "平沼",
    "town_kana": "ヒラヌマ",
    "street": null,
    "office_name": null,
    "office_name_kana": null
  },
  "0027": {
    "postcode": "3040027",
    "prefecture": "茨城県",
    "prefecture_kana": "イバラキケン",
    "prefecture_code": 8,
    "city": "下妻市",
    "city_kana": "シモツマシ",
    "town": "福田",
    "town_kana": "フクダ",
    "street": null,
    "office_name": null,
    "office_name_kana": null
  },
  "0028": {
    "postcode": "3040028",
    "prefecture": "茨城県",
    "prefecture_kana": "イバラキケン",
    "prefecture_code": 8,
    "city": "下妻市",
    "city_kana": "シモツマシ",
    "town": "下木戸",
    "town_kana": "シモキド",
    "street": null,
    "office_name": null,
    "office_name_kana": null
  },
  "0031": {
    "postcode": "3040031",
    "prefecture": "茨城県",
    "prefecture_kana": "イバラキケン",
    "prefecture_code": 8,
    "city": "下妻市",
    "city_kana": "シモツマシ",
    "town": "高道祖",
    "town_kana": "タカサイ",
    "street": null,
    "office_name": null,
    "office_name_kana": null
  },
  "0032": {
    "postcode": "3040032",
    "prefecture": "茨城県",
    "prefecture_kana": "イバラキケン",
    "prefecture_code": 8,
    "city": "下妻市",
    "city_kana": "シモツマシ",
    "town": "比毛",
    "town_kana": "ヒケ",
    "street": null,
    "office_name": null,
    "office_name_kana": null
  },
  "0033": {
    "postcode": "3040033",
    "prefecture": "茨城県",
    "prefecture_kana": "イバラキケン",
    "prefecture_code": 8,
    "city": "下妻市",
    "city_kana": "シモツマシ",
    "town": "堀篭",
    "town_kana": "ホリゴメ",
    "street": null,
    "office_name": null,
    "office_name_kana": null
  },
  "0034": {
    "postcode": "3040034",
    "prefecture": "茨城県",
    "prefecture_kana": "イバラキケン",
    "prefecture_code": 8,
    "city": "下妻市",
    "city_kana": "シモツマシ",
    "town": "坂井",
    "town_kana": "サカイ",
    "street": null,
    "office_name": null,
    "office_name_kana": null
  },
  "0035": {
    "postcode": "3040035",
    "prefecture": "茨城県",
    "prefecture_kana": "イバラキケン",
    "prefecture_code": 8,
    "city": "下妻市",
    "city_kana": "シモツマシ",
    "town": "横根",
    "town_kana": "ヨコネ",
    "street": null,
    "office_name": null,
    "office_name_kana": null
  },
  "0041": {
    "postcode": "3040041",
    "prefecture": "茨城県",
    "prefecture_kana": "イバラキケン",
    "prefecture_code": 8,
    "city": "下妻市",
    "city_kana": "シモツマシ",
    "town": "古沢",
    "town_kana": "フルサワ",
    "street": null,
    "office_name": null,
    "office_name_kana": null
  },
  "0042": {
    "postcode": "3040042",
    "prefecture": "茨城県",
    "prefecture_kana": "イバラキケン",
    "prefecture_code": 8,
    "city": "下妻市",
    "city_kana": "シモツマシ",
    "town": "袋畑",
    "town_kana": "フクロハタ",
    "street": null,
    "office_name": null,
    "office_name_kana": null
  },
  "0043": {
    "postcode": "3040043",
    "prefecture": "茨城県",
    "prefecture_kana": "イバラキケン",
    "prefecture_code": 8,
    "city": "下妻市",
    "city_kana": "シモツマシ",
    "town": "谷田部",
    "town_kana": "ヤタベ",
    "street": null,
    "office_name": null,
    "office_name_kana": null
  },
  "0044": {
    "postcode": "3040044",
    "prefecture": "茨城県",
    "prefecture_kana": "イバラキケン",
    "prefecture_code": 8,
    "city": "下妻市",
    "city_kana": "シモツマシ",
    "town": "柳原",
    "town_kana": "ヤギワラ",
    "street": null,
    "office_name": null,
    "office_name_kana": null
  },
  "0045": {
    "postcode": "3040045",
    "prefecture": "茨城県",
    "prefecture_kana": "イバラキケン",
    "prefecture_code": 8,
    "city": "下妻市",
    "city_kana": "シモツマシ",
    "town": "山尻",
    "town_kana": "ヤマジリ",
    "street": null,
    "office_name": null,
    "office_name_kana": null
  },
  "0046": {
    "postcode": "3040046",
    "prefecture": "茨城県",
    "prefecture_kana": "イバラキケン",
    "prefecture_code": 8,
    "city": "下妻市",
    "city_kana": "シモツマシ",
    "town": "樋橋",
    "town_kana": "ヒバシ",
    "street": null,
    "office_name": null,
    "office_name_kana": null
  },
  "0047": {
    "postcode": "3040047",
    "prefecture": "茨城県",
    "prefecture_kana": "イバラキケン",
    "prefecture_code": 8,
    "city": "下妻市",
    "city_kana": "シモツマシ",
    "town": "肘谷",
    "town_kana": "ヒジヤ",
    "street": null,
    "office_name": null,
    "office_name_kana": null
  },
  "0048": {
    "postcode": "3040048",
    "prefecture": "茨城県",
    "prefecture_kana": "イバラキケン",
    "prefecture_code": 8,
    "city": "下妻市",
    "city_kana": "シモツマシ",
    "town": "加養",
    "town_kana": "カヨウ",
    "street": null,
    "office_name": null,
    "office_name_kana": null
  },
  "0049": {
    "postcode": "3040049",
    "prefecture": "茨城県",
    "prefecture_kana": "イバラキケン",
    "prefecture_code": 8,
    "city": "下妻市",
    "city_kana": "シモツマシ",
    "town": "新堀",
    "town_kana": "ニイボリ",
    "street": null,
    "office_name": null,
    "office_name_kana": null
  },
  "0050": {
    "postcode": "3040050",
    "prefecture": "茨城県",
    "prefecture_kana": "イバラキケン",
    "prefecture_code": 8,
    "city": "下妻市",
    "city_kana": "シモツマシ",
    "town": "亀崎",
    "town_kana": "カメザキ",
    "street": null,
    "office_name": null,
    "office_name_kana": null
  },
  "0051": {
    "postcode": "3040051",
    "prefecture": "茨城県",
    "prefecture_kana": "イバラキケン",
    "prefecture_code": 8,
    "city": "下妻市",
    "city_kana": "シモツマシ",
    "town": "小島",
    "town_kana": "オジマ",
    "street": null,
    "office_name": null,
    "office_name_kana": null
  },
  "0052": {
    "postcode": "3040052",
    "prefecture": "茨城県",
    "prefecture_kana": "イバラキケン",
    "prefecture_code": 8,
    "city": "下妻市",
    "city_kana": "シモツマシ",
    "town": "二本紀",
    "town_kana": "ニホンギ",
    "street": null,
    "office_name": null,
    "office_name_kana": null
  },
  "0053": {
    "postcode": "3040053",
    "prefecture": "茨城県",
    "prefecture_kana": "イバラキケン",
    "prefecture_code": 8,
    "city": "下妻市",
    "city_kana": "シモツマシ",
    "town": "今泉",
    "town_kana": "イマイズミ",
    "street": null,
    "office_name": null,
    "office_name_kana": null
  },
  "0054": {
    "postcode": "3040054",
    "prefecture": "茨城県",
    "prefecture_kana": "イバラキケン",
    "prefecture_code": 8,
    "city": "下妻市",
    "city_kana": "シモツマシ",
    "town": "中居指",
    "town_kana": "ナカイザシ",
    "street": null,
    "office_name": null,
    "office_name_kana": null
  },
  "0055": {
    "postcode": "3040055",
    "prefecture": "茨城県",
    "prefecture_kana": "イバラキケン",
    "prefecture_code": 8,
    "city": "下妻市",
    "city_kana": "シモツマシ",
    "town": "砂沼新田",
    "town_kana": "サヌマシンデン",
    "street": null,
    "office_name": null,
    "office_name_kana": null
  },
  "0056": {
    "postcode": "3040056",
    "prefecture": "茨城県",
    "prefecture_kana": "イバラキケン",
    "prefecture_code": 8,
    "city": "下妻市",
    "city_kana": "シモツマシ",
    "town": "長塚",
    "town_kana": "ナガツカ",
    "street": null,
    "office_name": null,
    "office_name_kana": null
  },
  "0057": {
    "postcode": "3040057",
    "prefecture": "茨城県",
    "prefecture_kana": "イバラキケン",
    "prefecture_code": 8,
    "city": "下妻市",
    "city_kana": "シモツマシ",
    "town": "石の宮",
    "town_kana": "イシノミヤ",
    "street": null,
    "office_name": null,
    "office_name_kana": null
  },
  "0061": {
    "postcode": "3040061",
    "prefecture": "茨城県",
    "prefecture_kana": "イバラキケン",
    "prefecture_code": 8,
    "city": "下妻市",
    "city_kana": "シモツマシ",
    "town": "下妻丙",
    "town_kana": "シモツマヘイ",
    "street": null,
    "office_name": null,
    "office_name_kana": null
  },
  "0062": {
    "postcode": "3040062",
    "prefecture": "茨城県",
    "prefecture_kana": "イバラキケン",
    "prefecture_code": 8,
    "city": "下妻市",
    "city_kana": "シモツマシ",
    "town": "下妻戊",
    "town_kana": "シモツマボ",
    "street": null,
    "office_name": null,
    "office_name_kana": null
  },
  "0063": {
    "postcode": "3040063",
    "prefecture": "茨城県",
    "prefecture_kana": "イバラキケン",
    "prefecture_code": 8,
    "city": "下妻市",
    "city_kana": "シモツマシ",
    "town": "小野子町",
    "town_kana": "オノコチョウ",
    "street": null,
    "office_name": null,
    "office_name_kana": null
  },
  "0064": {
    "postcode": "3040064",
    "prefecture": "茨城県",
    "prefecture_kana": "イバラキケン",
    "prefecture_code": 8,
    "city": "下妻市",
    "city_kana": "シモツマシ",
    "town": "本城町",
    "town_kana": "モトシロチョウ",
    "street": null,
    "office_name": null,
    "office_name_kana": null
  },
  "0065": {
    "postcode": "3040065",
    "prefecture": "茨城県",
    "prefecture_kana": "イバラキケン",
    "prefecture_code": 8,
    "city": "下妻市",
    "city_kana": "シモツマシ",
    "town": "本宿町",
    "town_kana": "ホンジュクチョウ",
    "street": null,
    "office_name": null,
    "office_name_kana": null
  },
  "0066": {
    "postcode": "3040066",
    "prefecture": "茨城県",
    "prefecture_kana": "イバラキケン",
    "prefecture_code": 8,
    "city": "下妻市",
    "city_kana": "シモツマシ",
    "town": "下妻甲",
    "town_kana": "シモツマコウ",
    "street": null,
    "office_name": null,
    "office_name_kana": null
  },
  "0067": {
    "postcode": "3040067",
    "prefecture": "茨城県",
    "prefecture_kana": "イバラキケン",
    "prefecture_code": 8,
    "city": "下妻市",
    "city_kana": "シモツマシ",
    "town": "下妻乙",
    "town_kana": "シモツマオツ",
    "street": null,
    "office_name": null,
    "office_name_kana": null
  },
  "0068": {
    "postcode": "3040068",
    "prefecture": "茨城県",
    "prefecture_kana": "イバラキケン",
    "prefecture_code": 8,
    "city": "下妻市",
    "city_kana": "シモツマシ",
    "town": "下妻丁",
    "town_kana": "シモツマテイ",
    "street": null,
    "office_name": null,
    "office_name_kana": null
  },
  "0069": {
    "postcode": "3040069",
    "prefecture": "茨城県",
    "prefecture_kana": "イバラキケン",
    "prefecture_code": 8,
    "city": "下妻市",
    "city_kana": "シモツマシ",
    "town": "田町",
    "town_kana": "タマチ",
    "street": null,
    "office_name": null,
    "office_name_kana": null
  },
  "0071": {
    "postcode": "3040071",
    "prefecture": "茨城県",
    "prefecture_kana": "イバラキケン",
    "prefecture_code": 8,
    "city": "下妻市",
    "city_kana": "シモツマシ",
    "town": "尻手",
    "town_kana": "シッテ",
    "street": null,
    "office_name": null,
    "office_name_kana": null
  },
  "0072": {
    "postcode": "3040072",
    "prefecture": "茨城県",
    "prefecture_kana": "イバラキケン",
    "prefecture_code": 8,
    "city": "下妻市",
    "city_kana": "シモツマシ",
    "town": "渋井",
    "town_kana": "シブイ",
    "street": null,
    "office_name": null,
    "office_name_kana": null
  },
  "0073": {
    "postcode": "3040073",
    "prefecture": "茨城県",
    "prefecture_kana": "イバラキケン",
    "prefecture_code": 8,
    "city": "下妻市",
    "city_kana": "シモツマシ",
    "town": "桐ケ瀬",
    "town_kana": "キリガセ",
    "street": null,
    "office_name": null,
    "office_name_kana": null
  },
  "0074": {
    "postcode": "3040074",
    "prefecture": "茨城県",
    "prefecture_kana": "イバラキケン",
    "prefecture_code": 8,
    "city": "下妻市",
    "city_kana": "シモツマシ",
    "town": "赤須",
    "town_kana": "アカス",
    "street": null,
    "office_name": null,
    "office_name_kana": null
  },
  "0075": {
    "postcode": "3040075",
    "prefecture": "茨城県",
    "prefecture_kana": "イバラキケン",
    "prefecture_code": 8,
    "city": "下妻市",
    "city_kana": "シモツマシ",
    "town": "南原",
    "town_kana": "ミナミハラ",
    "street": null,
    "office_name": null,
    "office_name_kana": null
  },
  "0076": {
    "postcode": "3040076",
    "prefecture": "茨城県",
    "prefecture_kana": "イバラキケン",
    "prefecture_code": 8,
    "city": "下妻市",
    "city_kana": "シモツマシ",
    "town": "前河原",
    "town_kana": "マエガワラ",
    "street": null,
    "office_name": null,
    "office_name_kana": null
  },
  "0801": {
    "postcode": "3040801",
    "prefecture": "茨城県",
    "prefecture_kana": "イバラキケン",
    "prefecture_code": 8,
    "city": "下妻市",
    "city_kana": "シモツマシ",
    "town": "大園木",
    "town_kana": "オオゾノキ",
    "street": null,
    "office_name": null,
    "office_name_kana": null
  },
  "0802": {
    "postcode": "3040802",
    "prefecture": "茨城県",
    "prefecture_kana": "イバラキケン",
    "prefecture_code": 8,
    "city": "下妻市",
    "city_kana": "シモツマシ",
    "town": "鯨",
    "town_kana": "クジラ",
    "street": null,
    "office_name": null,
    "office_name_kana": null
  },
  "0803": {
    "postcode": "3040803",
    "prefecture": "茨城県",
    "prefecture_kana": "イバラキケン",
    "prefecture_code": 8,
    "city": "下妻市",
    "city_kana": "シモツマシ",
    "town": "伊古立",
    "town_kana": "イゴダツ",
    "street": null,
    "office_name": null,
    "office_name_kana": null
  },
  "0804": {
    "postcode": "3040804",
    "prefecture": "茨城県",
    "prefecture_kana": "イバラキケン",
    "prefecture_code": 8,
    "city": "下妻市",
    "city_kana": "シモツマシ",
    "town": "長萱",
    "town_kana": "オサガヤ",
    "street": null,
    "office_name": null,
    "office_name_kana": null
  },
  "0805": {
    "postcode": "3040805",
    "prefecture": "茨城県",
    "prefecture_kana": "イバラキケン",
    "prefecture_code": 8,
    "city": "下妻市",
    "city_kana": "シモツマシ",
    "town": "唐崎",
    "town_kana": "カラサキ",
    "street": null,
    "office_name": null,
    "office_name_kana": null
  },
  "0806": {
    "postcode": "3040806",
    "prefecture": "茨城県",
    "prefecture_kana": "イバラキケン",
    "prefecture_code": 8,
    "city": "下妻市",
    "city_kana": "シモツマシ",
    "town": "見田",
    "town_kana": "ミタ",
    "street": null,
    "office_name": null,
    "office_name_kana": null
  },
  "0811": {
    "postcode": "3040811",
    "prefecture": "茨城県",
    "prefecture_kana": "イバラキケン",
    "prefecture_code": 8,
    "city": "下妻市",
    "city_kana": "シモツマシ",
    "town": "下栗",
    "town_kana": "シモグリ",
    "street": null,
    "office_name": null,
    "office_name_kana": null
  },
  "0812": {
    "postcode": "3040812",
    "prefecture": "茨城県",
    "prefecture_kana": "イバラキケン",
    "prefecture_code": 8,
    "city": "下妻市",
    "city_kana": "シモツマシ",
    "town": "田下",
    "town_kana": "タゲ",
    "street": null,
    "office_name": null,
    "office_name_kana": null
  },
  "0813": {
    "postcode": "3040813",
    "prefecture": "茨城県",
    "prefecture_kana": "イバラキケン",
    "prefecture_code": 8,
    "city": "下妻市",
    "city_kana": "シモツマシ",
    "town": "本宗道",
    "town_kana": "ホンソウドウ",
    "street": null,
    "office_name": null,
    "office_name_kana": null
  },
  "0814": {
    "postcode": "3040814",
    "prefecture": "茨城県",
    "prefecture_kana": "イバラキケン",
    "prefecture_code": 8,
    "city": "下妻市",
    "city_kana": "シモツマシ",
    "town": "宗道",
    "town_kana": "ソウドウ",
    "street": null,
    "office_name": null,
    "office_name_kana": null
  },
  "0815": {
    "postcode": "3040815",
    "prefecture": "茨城県",
    "prefecture_kana": "イバラキケン",
    "prefecture_code": 8,
    "city": "下妻市",
    "city_kana": "シモツマシ",
    "town": "渋田",
    "town_kana": "シブタ",
    "street": null,
    "office_name": null,
    "office_name_kana": null
  },
  "0816": {
    "postcode": "3040816",
    "prefecture": "茨城県",
    "prefecture_kana": "イバラキケン",
    "prefecture_code": 8,
    "city": "下妻市",
    "city_kana": "シモツマシ",
    "town": "原",
    "town_kana": "ハラ",
    "street": null,
    "office_name": null,
    "office_name_kana": null
  },
  "0817": {
    "postcode": "3040817",
    "prefecture": "茨城県",
    "prefecture_kana": "イバラキケン",
    "prefecture_code": 8,
    "city": "下妻市",
    "city_kana": "シモツマシ",
    "town": "羽子",
    "town_kana": "ハネゴ",
    "street": null,
    "office_name": null,
    "office_name_kana": null
  },
  "0818": {
    "postcode": "3040818",
    "prefecture": "茨城県",
    "prefecture_kana": "イバラキケン",
    "prefecture_code": 8,
    "city": "下妻市",
    "city_kana": "シモツマシ",
    "town": "鬼怒",
    "town_kana": "キヌ",
    "street": null,
    "office_name": null,
    "office_name_kana": null
  },
  "0819": {
    "postcode": "3040819",
    "prefecture": "茨城県",
    "prefecture_kana": "イバラキケン",
    "prefecture_code": 8,
    "city": "下妻市",
    "city_kana": "シモツマシ",
    "town": "鎌庭",
    "town_kana": "カマニワ",
    "street": null,
    "office_name": null,
    "office_name_kana": null
  },
  "0821": {
    "postcode": "3040821",
    "prefecture": "茨城県",
    "prefecture_kana": "イバラキケン",
    "prefecture_code": 8,
    "city": "下妻市",
    "city_kana": "シモツマシ",
    "town": "別府",
    "town_kana": "ベップ",
    "street": null,
    "office_name": null,
    "office_name_kana": null
  },
  "0822": {
    "postcode": "3040822",
    "prefecture": "茨城県",
    "prefecture_kana": "イバラキケン",
    "prefecture_code": 8,
    "city": "下妻市",
    "city_kana": "シモツマシ",
    "town": "皆葉",
    "town_kana": "ミナバ",
    "street": null,
    "office_name": null,
    "office_name_kana": null
  },
  "0823": {
    "postcode": "3040823",
    "prefecture": "茨城県",
    "prefecture_kana": "イバラキケン",
    "prefecture_code": 8,
    "city": "下妻市",
    "city_kana": "シモツマシ",
    "town": "五箇",
    "town_kana": "ゴカ",
    "street": null,
    "office_name": null,
    "office_name_kana": null
  },
  "0824": {
    "postcode": "3040824",
    "prefecture": "茨城県",
    "prefecture_kana": "イバラキケン",
    "prefecture_code": 8,
    "city": "下妻市",
    "city_kana": "シモツマシ",
    "town": "村岡",
    "town_kana": "ムラオカ",
    "street": null,
    "office_name": null,
    "office_name_kana": null
  },
  "8501": {
    "postcode": "3048501",
    "prefecture": "茨城県",
    "prefecture_kana": "イバラキケン",
    "prefecture_code": 8,
    "city": "下妻市",
    "city_kana": "シモツマシ",
    "town": "大字本城町",
    "town_kana": null,
    "street": "２丁目２２",
    "office_name": "下妻市役所",
    "office_name_kana": "シモツマシヤクシヨ"
  },
  "8601": {
    "postcode": "3048601",
    "prefecture": "茨城県",
    "prefecture_kana": "イバラキケン",
    "prefecture_code": 8,
    "city": "下妻市",
    "city_kana": "シモツマシ",
    "town": "下妻丁",
    "town_kana": "シモツマテイ",
    "street": "１５６",
    "office_name": "株式会社　筑波銀行　下妻営業部",
    "office_name_kana": "カブシキガイシヤ ツクバギンコウ シモツマエイギヨウブ"
  }
}