{
  "1101": {
    "postcode": "3091101",
    "prefecture": "茨城県",
    "prefecture_kana": "イバラキケン",
    "prefecture_code": 8,
    "city": "筑西市",
    "city_kana": "チクセイシ",
    "town": "小栗",
    "town_kana": "オグリ",
    "street": null,
    "office_name": null,
    "office_name_kana": null
  },
  "1102": {
    "postcode": "3091102",
    "prefecture": "茨城県",
    "prefecture_kana": "イバラキケン",
    "prefecture_code": 8,
    "city": "筑西市",
    "city_kana": "チクセイシ",
    "town": "蓬田",
    "town_kana": "ヨモギタ",
    "street": null,
    "office_name": null,
    "office_name_kana": null
  },
  "1103": {
    "postcode": "3091103",
    "prefecture": "茨城県",
    "prefecture_kana": "イバラキケン",
    "prefecture_code": 8,
    "city": "筑西市",
    "city_kana": "チクセイシ",
    "town": "久地楽",
    "town_kana": "クジラ",
    "street": null,
    "office_name": null,
    "office_name_kana": null
  },
  "1104": {
    "postcode": "3091104",
    "prefecture": "茨城県",
    "prefecture_kana": "イバラキケン",
    "prefecture_code": 8,
    "city": "筑西市",
    "city_kana": "チクセイシ",
    "town": "古郡",
    "town_kana": "フルゴオリ",
    "street": null,
    "office_name": null,
    "office_name_kana": null
  },
  "1105": {
    "postcode": "3091105",
    "prefecture": "茨城県",
    "prefecture_kana": "イバラキケン",
    "prefecture_code": 8,
    "city": "筑西市",
    "city_kana": "チクセイシ",
    "town": "三郷",
    "town_kana": "サンゴウ",
    "street": null,
    "office_name": null,
    "office_name_kana": null
  },
  "1106": {
    "postcode": "3091106",
    "prefecture": "茨城県",
    "prefecture_kana": "イバラキケン",
    "prefecture_code": 8,
    "city": "筑西市",
    "city_kana": "チクセイシ",
    "town": "新治",
    "town_kana": "ニイハリ",
    "street": null,
    "office_name": null,
    "office_name_kana": null
  },
  "1107": {
    "postcode": "3091107",
    "prefecture": "茨城県",
    "prefecture_kana": "イバラキケン",
    "prefecture_code": 8,
    "city": "筑西市",
    "city_kana": "チクセイシ",
    "town": "門井",
    "town_kana": "カドイ",
    "street": null,
    "office_name": null,
    "office_name_kana": null
  },
  "1108": {
    "postcode": "3091108",
    "prefecture": "茨城県",
    "prefecture_kana": "イバラキケン",
    "prefecture_code": 8,
    "city": "筑西市",
    "city_kana": "チクセイシ",
    "town": "井出蛯沢",
    "town_kana": "イデエビサワ",
    "street": null,
    "office_name": null,
    "office_name_kana": null
  },
  "1111": {
    "postcode": "3091111",
    "prefecture": "茨城県",
    "prefecture_kana": "イバラキケン",
    "prefecture_code": 8,
    "city": "筑西市",
    "city_kana": "チクセイシ",
    "town": "上星谷",
    "town_kana": "カミホシヤ",
    "street": null,
    "office_name": null,
    "office_name_kana": null
  },
  "1112": {
    "postcode": "3091112",
    "prefecture": "茨城県",
    "prefecture_kana": "イバラキケン",
    "prefecture_code": 8,
    "city": "筑西市",
    "city_kana": "チクセイシ",
    "town": "八幡",
    "town_kana": "ヤハタ",
    "street": null,
    "office_name": null,
    "office_name_kana": null
  },
  "1113": {
    "postcode": "3091113",
    "prefecture": "茨城県",
    "prefecture_kana": "イバラキケン",
    "prefecture_code": 8,
    "city": "筑西市",
    "city_kana": "チクセイシ",
    "town": "柳",
    "town_kana": "ヤナギ",
    "street": null,
    "office_name": null,
    "office_name_kana": null
  },
  "1114": {
    "postcode": "3091114",
    "prefecture": "茨城県",
    "prefecture_kana": "イバラキケン",
    "prefecture_code": 8,
    "city": "筑西市",
    "city_kana": "チクセイシ",
    "town": "細田",
    "town_kana": "ホソダ",
    "street": null,
    "office_name": null,
    "office_name_kana": null
  },
  "1115": {
    "postcode": "3091115",
    "prefecture": "茨城県",
    "prefecture_kana": "イバラキケン",
    "prefecture_code": 8,
    "city": "筑西市",
    "city_kana": "チクセイシ",
    "town": "蓮沼",
    "town_kana": "ハスヌマ",
    "street": null,
    "office_name": null,
    "office_name_kana": null
  },
  "1116": {
    "postcode": "3091116",
    "prefecture": "茨城県",
    "prefecture_kana": "イバラキケン",
    "prefecture_code": 8,
    "city": "筑西市",
    "city_kana": "チクセイシ",
    "town": "横塚",
    "town_kana": "ヨコツカ",
    "street": null,
    "office_name": null,
    "office_name_kana": null
  },
  "1117": {
    "postcode": "3091117",
    "prefecture": "茨城県",
    "prefecture_kana": "イバラキケン",
    "prefecture_code": 8,
    "city": "筑西市",
    "city_kana": "チクセイシ",
    "town": "向川澄",
    "town_kana": "ムコウカワスミ",
    "street": null,
    "office_name": null,
    "office_name_kana": null
  },
  "1121": {
    "postcode": "3091121",
    "prefecture": "茨城県",
    "prefecture_kana": "イバラキケン",
    "prefecture_code": 8,
    "city": "筑西市",
    "city_kana": "チクセイシ",
    "town": "谷永島",
    "town_kana": "ヤナガシマ",
    "street": null,
    "office_name": null,
    "office_name_kana": null
  },
  "1122": {
    "postcode": "3091122",
    "prefecture": "茨城県",
    "prefecture_kana": "イバラキケン",
    "prefecture_code": 8,
    "city": "筑西市",
    "city_kana": "チクセイシ",
    "town": "下星谷",
    "town_kana": "シモホシヤ",
    "street": null,
    "office_name": null,
    "office_name_kana": null
  },
  "1123": {
    "postcode": "3091123",
    "prefecture": "茨城県",
    "prefecture_kana": "イバラキケン",
    "prefecture_code": 8,
    "city": "筑西市",
    "city_kana": "チクセイシ",
    "town": "下郷谷",
    "town_kana": "シモゴウヤ",
    "street": null,
    "office_name": null,
    "office_name_kana": null
  },
  "1124": {
    "postcode": "3091124",
    "prefecture": "茨城県",
    "prefecture_kana": "イバラキケン",
    "prefecture_code": 8,
    "city": "筑西市",
    "city_kana": "チクセイシ",
    "town": "知行",
    "town_kana": "チギョウ",
    "street": null,
    "office_name": null,
    "office_name_kana": null
  },
  "1125": {
    "postcode": "3091125",
    "prefecture": "茨城県",
    "prefecture_kana": "イバラキケン",
    "prefecture_code": 8,
    "city": "筑西市",
    "city_kana": "チクセイシ",
    "town": "大島",
    "town_kana": "オオシマ",
    "street": null,
    "office_name": null,
    "office_name_kana": null
  },
  "1126": {
    "postcode": "3091126",
    "prefecture": "茨城県",
    "prefecture_kana": "イバラキケン",
    "prefecture_code": 8,
    "city": "筑西市",
    "city_kana": "チクセイシ",
    "town": "清水",
    "town_kana": "シミズ",
    "street": null,
    "office_name": null,
    "office_name_kana": null
  },
  "1127": {
    "postcode": "3091127",
    "prefecture": "茨城県",
    "prefecture_kana": "イバラキケン",
    "prefecture_code": 8,
    "city": "筑西市",
    "city_kana": "チクセイシ",
    "town": "桑山",
    "town_kana": "クワヤマ",
    "street": null,
    "office_name": null,
    "office_name_kana": null
  },
  "1192": {
    "postcode": "3091192",
    "prefecture": "茨城県",
    "prefecture_kana": "イバラキケン",
    "prefecture_code": 8,
    "city": "筑西市",
    "city_kana": "チクセイシ",
    "town": "門井",
    "town_kana": "カドイ",
    "street": "１９６２−２",
    "office_name": "筑西市役所　協和支所",
    "office_name_kana": "チクセイシヤクシヨ キヨウワシシヨ"
  },
  "1195": {
    "postcode": "3091195",
    "prefecture": "茨城県",
    "prefecture_kana": "イバラキケン",
    "prefecture_code": 8,
    "city": "筑西市",
    "city_kana": "チクセイシ",
    "town": "門井",
    "town_kana": "カドイ",
    "street": "１６７６−１",
    "office_name": "協和中央病院",
    "office_name_kana": "キヨウワチユウオウビヨウイン"
  },
  "1200": {
    "postcode": "3091200",
    "prefecture": "茨城県",
    "prefecture_kana": "イバラキケン",
    "prefecture_code": 8,
    "city": "桜川市",
    "city_kana": "サクラガワシ",
    "town": "",
    "town_kana": "",
    "street": null,
    "office_name": null,
    "office_name_kana": null
  },
  "1201": {
    "postcode": "3091201",
    "prefecture": "茨城県",
    "prefecture_kana": "イバラキケン",
    "prefecture_code": 8,
    "city": "桜川市",
    "city_kana": "サクラガワシ",
    "town": "大泉",
    "town_kana": "オオイズミ",
    "street": null,
    "office_name": null,
    "office_name_kana": null
  },
  "1202": {
    "postcode": "3091202",
    "prefecture": "茨城県",
    "prefecture_kana": "イバラキケン",
    "prefecture_code": 8,
    "city": "桜川市",
    "city_kana": "サクラガワシ",
    "town": "飯淵",
    "town_kana": "イイブチ",
    "street": null,
    "office_name": null,
    "office_name_kana": null
  },
  "1203": {
    "postcode": "3091203",
    "prefecture": "茨城県",
    "prefecture_kana": "イバラキケン",
    "prefecture_code": 8,
    "city": "桜川市",
    "city_kana": "サクラガワシ",
    "town": "富岡",
    "town_kana": "トミオカ",
    "street": null,
    "office_name": null,
    "office_name_kana": null
  },
  "1204": {
    "postcode": "3091204",
    "prefecture": "茨城県",
    "prefecture_kana": "イバラキケン",
    "prefecture_code": 8,
    "city": "桜川市",
    "city_kana": "サクラガワシ",
    "town": "久原",
    "town_kana": "クバラ",
    "street": null,
    "office_name": null,
    "office_name_kana": null
  },
  "1205": {
    "postcode": "3091205",
    "prefecture": "茨城県",
    "prefecture_kana": "イバラキケン",
    "prefecture_code": 8,
    "city": "桜川市",
    "city_kana": "サクラガワシ",
    "town": "堤上",
    "town_kana": "ツツミノウエ",
    "street": null,
    "office_name": null,
    "office_name_kana": null
  },
  "1211": {
    "postcode": "3091211",
    "prefecture": "茨城県",
    "prefecture_kana": "イバラキケン",
    "prefecture_code": 8,
    "city": "桜川市",
    "city_kana": "サクラガワシ",
    "town": "岩瀬",
    "town_kana": "イワセ",
    "street": null,
    "office_name": null,
    "office_name_kana": null
  },
  "1212": {
    "postcode": "3091212",
    "prefecture": "茨城県",
    "prefecture_kana": "イバラキケン",
    "prefecture_code": 8,
    "city": "桜川市",
    "city_kana": "サクラガワシ",
    "town": "富士見台",
    "town_kana": "フジミダイ",
    "street": null,
    "office_name": null,
    "office_name_kana": null
  },
  "1213": {
    "postcode": "3091213",
    "prefecture": "茨城県",
    "prefecture_kana": "イバラキケン",
    "prefecture_code": 8,
    "city": "桜川市",
    "city_kana": "サクラガワシ",
    "town": "西桜川",
    "town_kana": "ニシサクラガワ",
    "street": null,
    "office_name": null,
    "office_name_kana": null
  },
  "1214": {
    "postcode": "3091214",
    "prefecture": "茨城県",
    "prefecture_kana": "イバラキケン",
    "prefecture_code": 8,
    "city": "桜川市",
    "city_kana": "サクラガワシ",
    "town": "東桜川",
    "town_kana": "ヒガシサクラガワ",
    "street": null,
    "office_name": null,
    "office_name_kana": null
  },
  "1215": {
    "postcode": "3091215",
    "prefecture": "茨城県",
    "prefecture_kana": "イバラキケン",
    "prefecture_code": 8,
    "city": "桜川市",
    "city_kana": "サクラガワシ",
    "town": "御領",
    "town_kana": "ゴリョウ",
    "street": null,
    "office_name": null,
    "office_name_kana": null
  },
  "1216": {
    "postcode": "3091216",
    "prefecture": "茨城県",
    "prefecture_kana": "イバラキケン",
    "prefecture_code": 8,
    "city": "桜川市",
    "city_kana": "サクラガワシ",
    "town": "明日香",
    "town_kana": "アスカ",
    "street": null,
    "office_name": null,
    "office_name_kana": null
  },
  "1217": {
    "postcode": "3091217",
    "prefecture": "茨城県",
    "prefecture_kana": "イバラキケン",
    "prefecture_code": 8,
    "city": "桜川市",
    "city_kana": "サクラガワシ",
    "town": "犬田",
    "town_kana": "イヌタ",
    "street": null,
    "office_name": null,
    "office_name_kana": null
  },
  "1221": {
    "postcode": "3091221",
    "prefecture": "茨城県",
    "prefecture_kana": "イバラキケン",
    "prefecture_code": 8,
    "city": "桜川市",
    "city_kana": "サクラガワシ",
    "town": "西飯岡",
    "town_kana": "ニシイイオカ",
    "street": null,
    "office_name": null,
    "office_name_kana": null
  },
  "1222": {
    "postcode": "3091222",
    "prefecture": "茨城県",
    "prefecture_kana": "イバラキケン",
    "prefecture_code": 8,
    "city": "桜川市",
    "city_kana": "サクラガワシ",
    "town": "長方",
    "town_kana": "オサカタ",
    "street": null,
    "office_name": null,
    "office_name_kana": null
  },
  "1223": {
    "postcode": "3091223",
    "prefecture": "茨城県",
    "prefecture_kana": "イバラキケン",
    "prefecture_code": 8,
    "city": "桜川市",
    "city_kana": "サクラガワシ",
    "town": "鍬田",
    "town_kana": "クワダ",
    "street": null,
    "office_name": null,
    "office_name_kana": null
  },
  "1224": {
    "postcode": "3091224",
    "prefecture": "茨城県",
    "prefecture_kana": "イバラキケン",
    "prefecture_code": 8,
    "city": "桜川市",
    "city_kana": "サクラガワシ",
    "town": "中泉",
    "town_kana": "ナカイズミ",
    "street": null,
    "office_name": null,
    "office_name_kana": null
  },
  "1225": {
    "postcode": "3091225",
    "prefecture": "茨城県",
    "prefecture_kana": "イバラキケン",
    "prefecture_code": 8,
    "city": "桜川市",
    "city_kana": "サクラガワシ",
    "town": "下泉",
    "town_kana": "シモイズミ",
    "street": null,
    "office_name": null,
    "office_name_kana": null
  },
  "1226": {
    "postcode": "3091226",
    "prefecture": "茨城県",
    "prefecture_kana": "イバラキケン",
    "prefecture_code": 8,
    "city": "桜川市",
    "city_kana": "サクラガワシ",
    "town": "上野原地新田",
    "town_kana": "ウエノハラチシンデン",
    "street": null,
    "office_name": null,
    "office_name_kana": null
  },
  "1227": {
    "postcode": "3091227",
    "prefecture": "茨城県",
    "prefecture_kana": "イバラキケン",
    "prefecture_code": 8,
    "city": "桜川市",
    "city_kana": "サクラガワシ",
    "town": "本郷",
    "town_kana": "ホンゴウ",
    "street": null,
    "office_name": null,
    "office_name_kana": null
  },
  "1231": {
    "postcode": "3091231",
    "prefecture": "茨城県",
    "prefecture_kana": "イバラキケン",
    "prefecture_code": 8,
    "city": "桜川市",
    "city_kana": "サクラガワシ",
    "town": "本木",
    "town_kana": "モトギ",
    "street": null,
    "office_name": null,
    "office_name_kana": null
  },
  "1232": {
    "postcode": "3091232",
    "prefecture": "茨城県",
    "prefecture_kana": "イバラキケン",
    "prefecture_code": 8,
    "city": "桜川市",
    "city_kana": "サクラガワシ",
    "town": "大曽根",
    "town_kana": "オオゾネ",
    "street": null,
    "office_name": null,
    "office_name_kana": null
  },
  "1233": {
    "postcode": "3091233",
    "prefecture": "茨城県",
    "prefecture_kana": "イバラキケン",
    "prefecture_code": 8,
    "city": "桜川市",
    "city_kana": "サクラガワシ",
    "town": "東飯田",
    "town_kana": "ヒガシイイダ",
    "street": null,
    "office_name": null,
    "office_name_kana": null
  },
  "1234": {
    "postcode": "3091234",
    "prefecture": "茨城県",
    "prefecture_kana": "イバラキケン",
    "prefecture_code": 8,
    "city": "桜川市",
    "city_kana": "サクラガワシ",
    "town": "阿部田",
    "town_kana": "アベタ",
    "street": null,
    "office_name": null,
    "office_name_kana": null
  },
  "1241": {
    "postcode": "3091241",
    "prefecture": "茨城県",
    "prefecture_kana": "イバラキケン",
    "prefecture_code": 8,
    "city": "桜川市",
    "city_kana": "サクラガワシ",
    "town": "青木",
    "town_kana": "アオキ",
    "street": null,
    "office_name": null,
    "office_name_kana": null
  },
  "1242": {
    "postcode": "3091242",
    "prefecture": "茨城県",
    "prefecture_kana": "イバラキケン",
    "prefecture_code": 8,
    "city": "桜川市",
    "city_kana": "サクラガワシ",
    "town": "羽田",
    "town_kana": "ハネタ",
    "street": null,
    "office_name": null,
    "office_name_kana": null
  },
  "1243": {
    "postcode": "3091243",
    "prefecture": "茨城県",
    "prefecture_kana": "イバラキケン",
    "prefecture_code": 8,
    "city": "桜川市",
    "city_kana": "サクラガワシ",
    "town": "高久",
    "town_kana": "タカク",
    "street": null,
    "office_name": null,
    "office_name_kana": null
  },
  "1244": {
    "postcode": "3091244",
    "prefecture": "茨城県",
    "prefecture_kana": "イバラキケン",
    "prefecture_code": 8,
    "city": "桜川市",
    "city_kana": "サクラガワシ",
    "town": "大国玉",
    "town_kana": "オオクニタマ",
    "street": null,
    "office_name": null,
    "office_name_kana": null
  },
  "1245": {
    "postcode": "3091245",
    "prefecture": "茨城県",
    "prefecture_kana": "イバラキケン",
    "prefecture_code": 8,
    "city": "桜川市",
    "city_kana": "サクラガワシ",
    "town": "金敷",
    "town_kana": "カナシキ",
    "street": null,
    "office_name": null,
    "office_name_kana": null
  },
  "1246": {
    "postcode": "3091246",
    "prefecture": "茨城県",
    "prefecture_kana": "イバラキケン",
    "prefecture_code": 8,
    "city": "桜川市",
    "city_kana": "サクラガワシ",
    "town": "高森",
    "town_kana": "タカモリ",
    "street": null,
    "office_name": null,
    "office_name_kana": null
  },
  "1292": {
    "postcode": "3091292",
    "prefecture": "茨城県",
    "prefecture_kana": "イバラキケン",
    "prefecture_code": 8,
    "city": "桜川市",
    "city_kana": "サクラガワシ",
    "town": "岩瀬",
    "town_kana": "イワセ",
    "street": "６４−２",
    "office_name": "桜川市役所　岩瀬庁舎",
    "office_name_kana": "サクラガワシヤクシヨ イワセチヨウシヤ"
  },
  "1293": {
    "postcode": "3091293",
    "prefecture": "茨城県",
    "prefecture_kana": "イバラキケン",
    "prefecture_code": 8,
    "city": "桜川市",
    "city_kana": "サクラガワシ",
    "town": "羽田",
    "town_kana": "ハネタ",
    "street": "１０２３",
    "office_name": "桜川市役所",
    "office_name_kana": "サクラガワシヤクシヨ"
  },
  "1294": {
    "postcode": "3091294",
    "prefecture": "茨城県",
    "prefecture_kana": "イバラキケン",
    "prefecture_code": 8,
    "city": "桜川市",
    "city_kana": "サクラガワシ",
    "town": "岩瀬",
    "town_kana": "イワセ",
    "street": "１５１１−１",
    "office_name": "茨城県立　岩瀬高等学校",
    "office_name_kana": "イバラキケンリツ イワセコウトウガツコウ"
  },
  "1295": {
    "postcode": "3091295",
    "prefecture": "茨城県",
    "prefecture_kana": "イバラキケン",
    "prefecture_code": 8,
    "city": "桜川市",
    "city_kana": "サクラガワシ",
    "town": "鍬田",
    "town_kana": "クワダ",
    "street": "６０４",
    "office_name": "県西総合病院",
    "office_name_kana": "ケンセイソウゴウビヨウイン"
  },
  "1296": {
    "postcode": "3091296",
    "prefecture": "茨城県",
    "prefecture_kana": "イバラキケン",
    "prefecture_code": 8,
    "city": "桜川市",
    "city_kana": "サクラガワシ",
    "town": "高森",
    "town_kana": "タカモリ",
    "street": "１１２１−１１",
    "office_name": "岩崎電気　株式会社",
    "office_name_kana": "イワサキデンキ カブシキガイシヤ"
  },
  "1297": {
    "postcode": "3091297",
    "prefecture": "茨城県",
    "prefecture_kana": "イバラキケン",
    "prefecture_code": 8,
    "city": "桜川市",
    "city_kana": "サクラガワシ",
    "town": "高森",
    "town_kana": "タカモリ",
    "street": "１１５８",
    "office_name": "株式会社　スミハツ",
    "office_name_kana": "カブシキガイシヤ スミハツ"
  },
  "1331": {
    "postcode": "3091331",
    "prefecture": "茨城県",
    "prefecture_kana": "イバラキケン",
    "prefecture_code": 8,
    "city": "桜川市",
    "city_kana": "サクラガワシ",
    "town": "平澤",
    "town_kana": "ヒラサワ",
    "street": null,
    "office_name": null,
    "office_name_kana": null
  },
  "1332": {
    "postcode": "3091332",
    "prefecture": "茨城県",
    "prefecture_kana": "イバラキケン",
    "prefecture_code": 8,
    "city": "桜川市",
    "city_kana": "サクラガワシ",
    "town": "池亀",
    "town_kana": "イケガメ",
    "street": null,
    "office_name": null,
    "office_name_kana": null
  },
  "1333": {
    "postcode": "3091333",
    "prefecture": "茨城県",
    "prefecture_kana": "イバラキケン",
    "prefecture_code": 8,
    "city": "桜川市",
    "city_kana": "サクラガワシ",
    "town": "山口",
    "town_kana": "ヤマグチ",
    "street": null,
    "office_name": null,
    "office_name_kana": null
  },
  "1334": {
    "postcode": "3091334",
    "prefecture": "茨城県",
    "prefecture_kana": "イバラキケン",
    "prefecture_code": 8,
    "city": "桜川市",
    "city_kana": "サクラガワシ",
    "town": "坂本",
    "town_kana": "サカモト",
    "street": null,
    "office_name": null,
    "office_name_kana": null
  },
  "1335": {
    "postcode": "3091335",
    "prefecture": "茨城県",
    "prefecture_kana": "イバラキケン",
    "prefecture_code": 8,
    "city": "桜川市",
    "city_kana": "サクラガワシ",
    "town": "大月",
    "town_kana": "オオツキ",
    "street": null,
    "office_name": null,
    "office_name_kana": null
  },
  "1336": {
    "postcode": "3091336",
    "prefecture": "茨城県",
    "prefecture_kana": "イバラキケン",
    "prefecture_code": 8,
    "city": "桜川市",
    "city_kana": "サクラガワシ",
    "town": "小塩",
    "town_kana": "コシオ",
    "street": null,
    "office_name": null,
    "office_name_kana": null
  },
  "1337": {
    "postcode": "3091337",
    "prefecture": "茨城県",
    "prefecture_kana": "イバラキケン",
    "prefecture_code": 8,
    "city": "桜川市",
    "city_kana": "サクラガワシ",
    "town": "福崎",
    "town_kana": "フクザキ",
    "street": null,
    "office_name": null,
    "office_name_kana": null
  },
  "1341": {
    "postcode": "3091341",
    "prefecture": "茨城県",
    "prefecture_kana": "イバラキケン",
    "prefecture_code": 8,
    "city": "桜川市",
    "city_kana": "サクラガワシ",
    "town": "門毛",
    "town_kana": "カドケ",
    "street": null,
    "office_name": null,
    "office_name_kana": null
  },
  "1342": {
    "postcode": "3091342",
    "prefecture": "茨城県",
    "prefecture_kana": "イバラキケン",
    "prefecture_code": 8,
    "city": "桜川市",
    "city_kana": "サクラガワシ",
    "town": "間中",
    "town_kana": "マナカ",
    "street": null,
    "office_name": null,
    "office_name_kana": null
  },
  "1343": {
    "postcode": "3091343",
    "prefecture": "茨城県",
    "prefecture_kana": "イバラキケン",
    "prefecture_code": 8,
    "city": "桜川市",
    "city_kana": "サクラガワシ",
    "town": "亀岡",
    "town_kana": "カメオカ",
    "street": null,
    "office_name": null,
    "office_name_kana": null
  },
  "1344": {
    "postcode": "3091344",
    "prefecture": "茨城県",
    "prefecture_kana": "イバラキケン",
    "prefecture_code": 8,
    "city": "桜川市",
    "city_kana": "サクラガワシ",
    "town": "南飯田",
    "town_kana": "ミナミイイダ",
    "street": null,
    "office_name": null,
    "office_name_kana": null
  },
  "1345": {
    "postcode": "3091345",
    "prefecture": "茨城県",
    "prefecture_kana": "イバラキケン",
    "prefecture_code": 8,
    "city": "桜川市",
    "city_kana": "サクラガワシ",
    "town": "入野",
    "town_kana": "イリノ",
    "street": null,
    "office_name": null,
    "office_name_kana": null
  },
  "1346": {
    "postcode": "3091346",
    "prefecture": "茨城県",
    "prefecture_kana": "イバラキケン",
    "prefecture_code": 8,
    "city": "桜川市",
    "city_kana": "サクラガワシ",
    "town": "中里",
    "town_kana": "ナカザト",
    "street": null,
    "office_name": null,
    "office_name_kana": null
  },
  "1347": {
    "postcode": "3091347",
    "prefecture": "茨城県",
    "prefecture_kana": "イバラキケン",
    "prefecture_code": 8,
    "city": "桜川市",
    "city_kana": "サクラガワシ",
    "town": "富谷",
    "town_kana": "トミヤ",
    "street": null,
    "office_name": null,
    "office_name_kana": null
  },
  "1451": {
    "postcode": "3091451",
    "prefecture": "茨城県",
    "prefecture_kana": "イバラキケン",
    "prefecture_code": 8,
    "city": "桜川市",
    "city_kana": "サクラガワシ",
    "town": "西小塙",
    "town_kana": "ニシコバナワ",
    "street": null,
    "office_name": null,
    "office_name_kana": null
  },
  "1452": {
    "postcode": "3091452",
    "prefecture": "茨城県",
    "prefecture_kana": "イバラキケン",
    "prefecture_code": 8,
    "city": "桜川市",
    "city_kana": "サクラガワシ",
    "town": "加茂部",
    "town_kana": "カモベ",
    "street": null,
    "office_name": null,
    "office_name_kana": null
  },
  "1453": {
    "postcode": "3091453",
    "prefecture": "茨城県",
    "prefecture_kana": "イバラキケン",
    "prefecture_code": 8,
    "city": "桜川市",
    "city_kana": "サクラガワシ",
    "town": "友部",
    "town_kana": "トモベ",
    "street": null,
    "office_name": null,
    "office_name_kana": null
  },
  "1454": {
    "postcode": "3091454",
    "prefecture": "茨城県",
    "prefecture_kana": "イバラキケン",
    "prefecture_code": 8,
    "city": "桜川市",
    "city_kana": "サクラガワシ",
    "town": "上城",
    "town_kana": "カミシロ",
    "street": null,
    "office_name": null,
    "office_name_kana": null
  },
  "1455": {
    "postcode": "3091455",
    "prefecture": "茨城県",
    "prefecture_kana": "イバラキケン",
    "prefecture_code": 8,
    "city": "桜川市",
    "city_kana": "サクラガワシ",
    "town": "水戸",
    "town_kana": "ミト",
    "street": null,
    "office_name": null,
    "office_name_kana": null
  },
  "1456": {
    "postcode": "3091456",
    "prefecture": "茨城県",
    "prefecture_kana": "イバラキケン",
    "prefecture_code": 8,
    "city": "桜川市",
    "city_kana": "サクラガワシ",
    "town": "青柳",
    "town_kana": "アオヤギ",
    "street": null,
    "office_name": null,
    "office_name_kana": null
  },
  "1457": {
    "postcode": "3091457",
    "prefecture": "茨城県",
    "prefecture_kana": "イバラキケン",
    "prefecture_code": 8,
    "city": "桜川市",
    "city_kana": "サクラガワシ",
    "town": "磯部",
    "town_kana": "イソベ",
    "street": null,
    "office_name": null,
    "office_name_kana": null
  },
  "1458": {
    "postcode": "3091458",
    "prefecture": "茨城県",
    "prefecture_kana": "イバラキケン",
    "prefecture_code": 8,
    "city": "桜川市",
    "city_kana": "サクラガワシ",
    "town": "稲",
    "town_kana": "イナ",
    "street": null,
    "office_name": null,
    "office_name_kana": null
  },
  "1461": {
    "postcode": "3091461",
    "prefecture": "茨城県",
    "prefecture_kana": "イバラキケン",
    "prefecture_code": 8,
    "city": "桜川市",
    "city_kana": "サクラガワシ",
    "town": "松田",
    "town_kana": "マツダ",
    "street": null,
    "office_name": null,
    "office_name_kana": null
  },
  "1462": {
    "postcode": "3091462",
    "prefecture": "茨城県",
    "prefecture_kana": "イバラキケン",
    "prefecture_code": 8,
    "city": "桜川市",
    "city_kana": "サクラガワシ",
    "town": "曽根",
    "town_kana": "ソネ",
    "street": null,
    "office_name": null,
    "office_name_kana": null
  },
  "1463": {
    "postcode": "3091463",
    "prefecture": "茨城県",
    "prefecture_kana": "イバラキケン",
    "prefecture_code": 8,
    "city": "桜川市",
    "city_kana": "サクラガワシ",
    "town": "高幡",
    "town_kana": "タカハタ",
    "street": null,
    "office_name": null,
    "office_name_kana": null
  },
  "1464": {
    "postcode": "3091464",
    "prefecture": "茨城県",
    "prefecture_kana": "イバラキケン",
    "prefecture_code": 8,
    "city": "桜川市",
    "city_kana": "サクラガワシ",
    "town": "今泉",
    "town_kana": "イマイズミ",
    "street": null,
    "office_name": null,
    "office_name_kana": null
  },
  "1465": {
    "postcode": "3091465",
    "prefecture": "茨城県",
    "prefecture_kana": "イバラキケン",
    "prefecture_code": 8,
    "city": "桜川市",
    "city_kana": "サクラガワシ",
    "town": "木植",
    "town_kana": "キウエ",
    "street": null,
    "office_name": null,
    "office_name_kana": null
  },
  "1466": {
    "postcode": "3091466",
    "prefecture": "茨城県",
    "prefecture_kana": "イバラキケン",
    "prefecture_code": 8,
    "city": "桜川市",
    "city_kana": "サクラガワシ",
    "town": "猿田",
    "town_kana": "サルダ",
    "street": null,
    "office_name": null,
    "office_name_kana": null
  },
  "1600": {
    "postcode": "3091600",
    "prefecture": "茨城県",
    "prefecture_kana": "イバラキケン",
    "prefecture_code": 8,
    "city": "笠間市",
    "city_kana": "カサマシ",
    "town": "",
    "town_kana": "",
    "street": null,
    "office_name": null,
    "office_name_kana": null
  },
  "1601": {
    "postcode": "3091601",
    "prefecture": "茨城県",
    "prefecture_kana": "イバラキケン",
    "prefecture_code": 8,
    "city": "笠間市",
    "city_kana": "カサマシ",
    "town": "大橋",
    "town_kana": "オオハシ",
    "street": null,
    "office_name": null,
    "office_name_kana": null
  },
  "1602": {
    "postcode": "3091602",
    "prefecture": "茨城県",
    "prefecture_kana": "イバラキケン",
    "prefecture_code": 8,
    "city": "笠間市",
    "city_kana": "カサマシ",
    "town": "池野辺",
    "town_kana": "イケノベ",
    "street": null,
    "office_name": null,
    "office_name_kana": null
  },
  "1603": {
    "postcode": "3091603",
    "prefecture": "茨城県",
    "prefecture_kana": "イバラキケン",
    "prefecture_code": 8,
    "city": "笠間市",
    "city_kana": "カサマシ",
    "town": "福田",
    "town_kana": "フクダ",
    "street": null,
    "office_name": null,
    "office_name_kana": null
  },
  "1604": {
    "postcode": "3091604",
    "prefecture": "茨城県",
    "prefecture_kana": "イバラキケン",
    "prefecture_code": 8,
    "city": "笠間市",
    "city_kana": "カサマシ",
    "town": "大渕",
    "town_kana": "オオブチ",
    "street": null,
    "office_name": null,
    "office_name_kana": null
  },
  "1605": {
    "postcode": "3091605",
    "prefecture": "茨城県",
    "prefecture_kana": "イバラキケン",
    "prefecture_code": 8,
    "city": "笠間市",
    "city_kana": "カサマシ",
    "town": "飯田",
    "town_kana": "イイダ",
    "street": null,
    "office_name": null,
    "office_name_kana": null
  },
  "1606": {
    "postcode": "3091606",
    "prefecture": "茨城県",
    "prefecture_kana": "イバラキケン",
    "prefecture_code": 8,
    "city": "笠間市",
    "city_kana": "カサマシ",
    "town": "日沢",
    "town_kana": "ヒザワ",
    "street": null,
    "office_name": null,
    "office_name_kana": null
  },
  "1607": {
    "postcode": "3091607",
    "prefecture": "茨城県",
    "prefecture_kana": "イバラキケン",
    "prefecture_code": 8,
    "city": "笠間市",
    "city_kana": "カサマシ",
    "town": "石寺",
    "town_kana": "イシデラ",
    "street": null,
    "office_name": null,
    "office_name_kana": null
  },
  "1611": {
    "postcode": "3091611",
    "prefecture": "茨城県",
    "prefecture_kana": "イバラキケン",
    "prefecture_code": 8,
    "city": "笠間市",
    "city_kana": "カサマシ",
    "town": "笠間",
    "town_kana": "カサマ",
    "street": null,
    "office_name": null,
    "office_name_kana": null
  },
  "1612": {
    "postcode": "3091612",
    "prefecture": "茨城県",
    "prefecture_kana": "イバラキケン",
    "prefecture_code": 8,
    "city": "笠間市",
    "city_kana": "カサマシ",
    "town": "日草場",
    "town_kana": "ヒクサバ",
    "street": null,
    "office_name": null,
    "office_name_kana": null
  },
  "1613": {
    "postcode": "3091613",
    "prefecture": "茨城県",
    "prefecture_kana": "イバラキケン",
    "prefecture_code": 8,
    "city": "笠間市",
    "city_kana": "カサマシ",
    "town": "石井",
    "town_kana": "イシイ",
    "street": null,
    "office_name": null,
    "office_name_kana": null
  },
  "1614": {
    "postcode": "3091614",
    "prefecture": "茨城県",
    "prefecture_kana": "イバラキケン",
    "prefecture_code": 8,
    "city": "笠間市",
    "city_kana": "カサマシ",
    "town": "寺崎",
    "town_kana": "テラザキ",
    "street": null,
    "office_name": null,
    "office_name_kana": null
  },
  "1615": {
    "postcode": "3091615",
    "prefecture": "茨城県",
    "prefecture_kana": "イバラキケン",
    "prefecture_code": 8,
    "city": "笠間市",
    "city_kana": "カサマシ",
    "town": "金井",
    "town_kana": "カナイ",
    "street": null,
    "office_name": null,
    "office_name_kana": null
  },
  "1616": {
    "postcode": "3091616",
    "prefecture": "茨城県",
    "prefecture_kana": "イバラキケン",
    "prefecture_code": 8,
    "city": "笠間市",
    "city_kana": "カサマシ",
    "town": "赤坂",
    "town_kana": "アカサカ",
    "street": null,
    "office_name": null,
    "office_name_kana": null
  },
  "1621": {
    "postcode": "3091621",
    "prefecture": "茨城県",
    "prefecture_kana": "イバラキケン",
    "prefecture_code": 8,
    "city": "笠間市",
    "city_kana": "カサマシ",
    "town": "手越",
    "town_kana": "テゴシ",
    "street": null,
    "office_name": null,
    "office_name_kana": null
  },
  "1622": {
    "postcode": "3091622",
    "prefecture": "茨城県",
    "prefecture_kana": "イバラキケン",
    "prefecture_code": 8,
    "city": "笠間市",
    "city_kana": "カサマシ",
    "town": "南吉原",
    "town_kana": "ミナミヨシワラ",
    "street": null,
    "office_name": null,
    "office_name_kana": null
  },
  "1623": {
    "postcode": "3091623",
    "prefecture": "茨城県",
    "prefecture_kana": "イバラキケン",
    "prefecture_code": 8,
    "city": "笠間市",
    "city_kana": "カサマシ",
    "town": "上加賀田",
    "town_kana": "カミカガダ",
    "street": null,
    "office_name": null,
    "office_name_kana": null
  },
  "1624": {
    "postcode": "3091624",
    "prefecture": "茨城県",
    "prefecture_kana": "イバラキケン",
    "prefecture_code": 8,
    "city": "笠間市",
    "city_kana": "カサマシ",
    "town": "北吉原",
    "town_kana": "キタヨシワラ",
    "street": null,
    "office_name": null,
    "office_name_kana": null
  },
  "1625": {
    "postcode": "3091625",
    "prefecture": "茨城県",
    "prefecture_kana": "イバラキケン",
    "prefecture_code": 8,
    "city": "笠間市",
    "city_kana": "カサマシ",
    "town": "来栖",
    "town_kana": "クルス",
    "street": null,
    "office_name": null,
    "office_name_kana": null
  },
  "1626": {
    "postcode": "3091626",
    "prefecture": "茨城県",
    "prefecture_kana": "イバラキケン",
    "prefecture_code": 8,
    "city": "笠間市",
    "city_kana": "カサマシ",
    "town": "下市毛",
    "town_kana": "シモイチゲ",
    "street": null,
    "office_name": null,
    "office_name_kana": null
  },
  "1631": {
    "postcode": "3091631",
    "prefecture": "茨城県",
    "prefecture_kana": "イバラキケン",
    "prefecture_code": 8,
    "city": "笠間市",
    "city_kana": "カサマシ",
    "town": "箱田",
    "town_kana": "ハコダ",
    "street": null,
    "office_name": null,
    "office_name_kana": null
  },
  "1632": {
    "postcode": "3091632",
    "prefecture": "茨城県",
    "prefecture_kana": "イバラキケン",
    "prefecture_code": 8,
    "city": "笠間市",
    "city_kana": "カサマシ",
    "town": "飯合",
    "town_kana": "イイゴウ",
    "street": null,
    "office_name": null,
    "office_name_kana": null
  },
  "1633": {
    "postcode": "3091633",
    "prefecture": "茨城県",
    "prefecture_kana": "イバラキケン",
    "prefecture_code": 8,
    "city": "笠間市",
    "city_kana": "カサマシ",
    "town": "本戸",
    "town_kana": "モトド",
    "street": null,
    "office_name": null,
    "office_name_kana": null
  },
  "1634": {
    "postcode": "3091634",
    "prefecture": "茨城県",
    "prefecture_kana": "イバラキケン",
    "prefecture_code": 8,
    "city": "笠間市",
    "city_kana": "カサマシ",
    "town": "福原",
    "town_kana": "フクハラ",
    "street": null,
    "office_name": null,
    "office_name_kana": null
  },
  "1635": {
    "postcode": "3091635",
    "prefecture": "茨城県",
    "prefecture_kana": "イバラキケン",
    "prefecture_code": 8,
    "city": "笠間市",
    "city_kana": "カサマシ",
    "town": "稲田",
    "town_kana": "イナダ",
    "street": null,
    "office_name": null,
    "office_name_kana": null
  },
  "1636": {
    "postcode": "3091636",
    "prefecture": "茨城県",
    "prefecture_kana": "イバラキケン",
    "prefecture_code": 8,
    "city": "笠間市",
    "city_kana": "カサマシ",
    "town": "大郷戸",
    "town_kana": "オオゴト",
    "street": null,
    "office_name": null,
    "office_name_kana": null
  },
  "1637": {
    "postcode": "3091637",
    "prefecture": "茨城県",
    "prefecture_kana": "イバラキケン",
    "prefecture_code": 8,
    "city": "笠間市",
    "city_kana": "カサマシ",
    "town": "片庭",
    "town_kana": "カタニワ",
    "street": null,
    "office_name": null,
    "office_name_kana": null
  },
  "1698": {
    "postcode": "3091698",
    "prefecture": "茨城県",
    "prefecture_kana": "イバラキケン",
    "prefecture_code": 8,
    "city": "笠間市",
    "city_kana": "カサマシ",
    "town": "笠間",
    "town_kana": "カサマ",
    "street": "１５３２",
    "office_name": "笠間市役所　笠間支所",
    "office_name_kana": "カサマシヤクシヨ カサマシシヨ"
  },
  "1701": {
    "postcode": "3091701",
    "prefecture": "茨城県",
    "prefecture_kana": "イバラキケン",
    "prefecture_code": 8,
    "city": "笠間市",
    "city_kana": "カサマシ",
    "town": "小原",
    "town_kana": "オバラ",
    "street": null,
    "office_name": null,
    "office_name_kana": null
  },
  "1702": {
    "postcode": "3091702",
    "prefecture": "茨城県",
    "prefecture_kana": "イバラキケン",
    "prefecture_code": 8,
    "city": "笠間市",
    "city_kana": "カサマシ",
    "town": "五平",
    "town_kana": "ゴヘイ",
    "street": null,
    "office_name": null,
    "office_name_kana": null
  },
  "1703": {
    "postcode": "3091703",
    "prefecture": "茨城県",
    "prefecture_kana": "イバラキケン",
    "prefecture_code": 8,
    "city": "笠間市",
    "city_kana": "カサマシ",
    "town": "鯉淵",
    "town_kana": "コイブチ",
    "street": null,
    "office_name": null,
    "office_name_kana": null
  },
  "1704": {
    "postcode": "3091704",
    "prefecture": "茨城県",
    "prefecture_kana": "イバラキケン",
    "prefecture_code": 8,
    "city": "笠間市",
    "city_kana": "カサマシ",
    "town": "美原",
    "town_kana": "ミハラ",
    "street": null,
    "office_name": null,
    "office_name_kana": null
  },
  "1705": {
    "postcode": "3091705",
    "prefecture": "茨城県",
    "prefecture_kana": "イバラキケン",
    "prefecture_code": 8,
    "city": "笠間市",
    "city_kana": "カサマシ",
    "town": "東平",
    "town_kana": "ヒガシダイラ",
    "street": null,
    "office_name": null,
    "office_name_kana": null
  },
  "1706": {
    "postcode": "3091706",
    "prefecture": "茨城県",
    "prefecture_kana": "イバラキケン",
    "prefecture_code": 8,
    "city": "笠間市",
    "city_kana": "カサマシ",
    "town": "鴻巣",
    "town_kana": "コウノス",
    "street": null,
    "office_name": null,
    "office_name_kana": null
  },
  "1711": {
    "postcode": "3091711",
    "prefecture": "茨城県",
    "prefecture_kana": "イバラキケン",
    "prefecture_code": 8,
    "city": "笠間市",
    "city_kana": "カサマシ",
    "town": "随分附",
    "town_kana": "ナムサンヅケ",
    "street": null,
    "office_name": null,
    "office_name_kana": null
  },
  "1712": {
    "postcode": "3091712",
    "prefecture": "茨城県",
    "prefecture_kana": "イバラキケン",
    "prefecture_code": 8,
    "city": "笠間市",
    "city_kana": "カサマシ",
    "town": "長兎路",
    "town_kana": "ナガトロ",
    "street": null,
    "office_name": null,
    "office_name_kana": null
  },
  "1713": {
    "postcode": "3091713",
    "prefecture": "茨城県",
    "prefecture_kana": "イバラキケン",
    "prefecture_code": 8,
    "city": "笠間市",
    "city_kana": "カサマシ",
    "town": "柏井",
    "town_kana": "カシワイ",
    "street": null,
    "office_name": null,
    "office_name_kana": null
  },
  "1714": {
    "postcode": "3091714",
    "prefecture": "茨城県",
    "prefecture_kana": "イバラキケン",
    "prefecture_code": 8,
    "city": "笠間市",
    "city_kana": "カサマシ",
    "town": "仁古田",
    "town_kana": "ニコダ",
    "street": null,
    "office_name": null,
    "office_name_kana": null
  },
  "1715": {
    "postcode": "3091715",
    "prefecture": "茨城県",
    "prefecture_kana": "イバラキケン",
    "prefecture_code": 8,
    "city": "笠間市",
    "city_kana": "カサマシ",
    "town": "湯崎",
    "town_kana": "ユザキ",
    "street": null,
    "office_name": null,
    "office_name_kana": null
  },
  "1716": {
    "postcode": "3091716",
    "prefecture": "茨城県",
    "prefecture_kana": "イバラキケン",
    "prefecture_code": 8,
    "city": "笠間市",
    "city_kana": "カサマシ",
    "town": "住吉",
    "town_kana": "スミヨシ",
    "street": null,
    "office_name": null,
    "office_name_kana": null
  },
  "1717": {
    "postcode": "3091717",
    "prefecture": "茨城県",
    "prefecture_kana": "イバラキケン",
    "prefecture_code": 8,
    "city": "笠間市",
    "city_kana": "カサマシ",
    "town": "旭町",
    "town_kana": "アサヒマチ",
    "street": null,
    "office_name": null,
    "office_name_kana": null
  },
  "1721": {
    "postcode": "3091721",
    "prefecture": "茨城県",
    "prefecture_kana": "イバラキケン",
    "prefecture_code": 8,
    "city": "笠間市",
    "city_kana": "カサマシ",
    "town": "橋爪",
    "town_kana": "ハシヅメ",
    "street": null,
    "office_name": null,
    "office_name_kana": null
  },
  "1722": {
    "postcode": "3091722",
    "prefecture": "茨城県",
    "prefecture_kana": "イバラキケン",
    "prefecture_code": 8,
    "city": "笠間市",
    "city_kana": "カサマシ",
    "town": "平町",
    "town_kana": "タイラマチ",
    "street": null,
    "office_name": null,
    "office_name_kana": null
  },
  "1723": {
    "postcode": "3091723",
    "prefecture": "茨城県",
    "prefecture_kana": "イバラキケン",
    "prefecture_code": 8,
    "city": "笠間市",
    "city_kana": "カサマシ",
    "town": "矢野下",
    "town_kana": "ヤノシタ",
    "street": null,
    "office_name": null,
    "office_name_kana": null
  },
  "1724": {
    "postcode": "3091724",
    "prefecture": "茨城県",
    "prefecture_kana": "イバラキケン",
    "prefecture_code": 8,
    "city": "笠間市",
    "city_kana": "カサマシ",
    "town": "大古山",
    "town_kana": "オオゴヤマ",
    "street": null,
    "office_name": null,
    "office_name_kana": null
  },
  "1725": {
    "postcode": "3091725",
    "prefecture": "茨城県",
    "prefecture_kana": "イバラキケン",
    "prefecture_code": 8,
    "city": "笠間市",
    "city_kana": "カサマシ",
    "town": "南小泉",
    "town_kana": "ミナミコイズミ",
    "street": null,
    "office_name": null,
    "office_name_kana": null
  },
  "1726": {
    "postcode": "3091726",
    "prefecture": "茨城県",
    "prefecture_kana": "イバラキケン",
    "prefecture_code": 8,
    "city": "笠間市",
    "city_kana": "カサマシ",
    "town": "下加賀田",
    "town_kana": "シモカガタ",
    "street": null,
    "office_name": null,
    "office_name_kana": null
  },
  "1731": {
    "postcode": "3091731",
    "prefecture": "茨城県",
    "prefecture_kana": "イバラキケン",
    "prefecture_code": 8,
    "city": "笠間市",
    "city_kana": "カサマシ",
    "town": "上市原",
    "town_kana": "カミイチバラ",
    "street": null,
    "office_name": null,
    "office_name_kana": null
  },
  "1732": {
    "postcode": "3091732",
    "prefecture": "茨城県",
    "prefecture_kana": "イバラキケン",
    "prefecture_code": 8,
    "city": "笠間市",
    "city_kana": "カサマシ",
    "town": "中市原",
    "town_kana": "ナカイチバラ",
    "street": null,
    "office_name": null,
    "office_name_kana": null
  },
  "1733": {
    "postcode": "3091733",
    "prefecture": "茨城県",
    "prefecture_kana": "イバラキケン",
    "prefecture_code": 8,
    "city": "笠間市",
    "city_kana": "カサマシ",
    "town": "下市原",
    "town_kana": "シモイチバラ",
    "street": null,
    "office_name": null,
    "office_name_kana": null
  },
  "1734": {
    "postcode": "3091734",
    "prefecture": "茨城県",
    "prefecture_kana": "イバラキケン",
    "prefecture_code": 8,
    "city": "笠間市",
    "city_kana": "カサマシ",
    "town": "南友部",
    "town_kana": "ミナミトモベ",
    "street": null,
    "office_name": null,
    "office_name_kana": null
  },
  "1735": {
    "postcode": "3091735",
    "prefecture": "茨城県",
    "prefecture_kana": "イバラキケン",
    "prefecture_code": 8,
    "city": "笠間市",
    "city_kana": "カサマシ",
    "town": "友部駅前",
    "town_kana": "トモベエキマエ",
    "street": null,
    "office_name": null,
    "office_name_kana": null
  },
  "1736": {
    "postcode": "3091736",
    "prefecture": "茨城県",
    "prefecture_kana": "イバラキケン",
    "prefecture_code": 8,
    "city": "笠間市",
    "city_kana": "カサマシ",
    "town": "八雲",
    "town_kana": "ヤクモ",
    "street": null,
    "office_name": null,
    "office_name_kana": null
  },
  "1737": {
    "postcode": "3091737",
    "prefecture": "茨城県",
    "prefecture_kana": "イバラキケン",
    "prefecture_code": 8,
    "city": "笠間市",
    "city_kana": "カサマシ",
    "town": "中央",
    "town_kana": "チュウオウ",
    "street": null,
    "office_name": null,
    "office_name_kana": null
  },
  "1738": {
    "postcode": "3091738",
    "prefecture": "茨城県",
    "prefecture_kana": "イバラキケン",
    "prefecture_code": 8,
    "city": "笠間市",
    "city_kana": "カサマシ",
    "town": "大田町",
    "town_kana": "オオタマチ",
    "street": null,
    "office_name": null,
    "office_name_kana": null
  },
  "1792": {
    "postcode": "3091792",
    "prefecture": "茨城県",
    "prefecture_kana": "イバラキケン",
    "prefecture_code": 8,
    "city": "笠間市",
    "city_kana": "カサマシ",
    "town": "中央",
    "town_kana": "チュウオウ",
    "street": "３丁目２−１",
    "office_name": "笠間市役所",
    "office_name_kana": "カサマシヤクシヨ"
  },
  "1793": {
    "postcode": "3091793",
    "prefecture": "茨城県",
    "prefecture_kana": "イバラキケン",
    "prefecture_code": 8,
    "city": "笠間市",
    "city_kana": "カサマシ",
    "town": "鯉淵",
    "town_kana": "コイブチ",
    "street": "６５２８",
    "office_name": "茨城県立　中央病院",
    "office_name_kana": "イバラキケンリツ チユウオウビヨウイン"
  },
  "1797": {
    "postcode": "3091797",
    "prefecture": "茨城県",
    "prefecture_kana": "イバラキケン",
    "prefecture_code": 8,
    "city": "笠間市",
    "city_kana": "カサマシ",
    "town": "平町",
    "town_kana": "タイラマチ",
    "street": "１８７７−３",
    "office_name": "株式会社　ＭｏｎｏｔａＲＯ　笠間ディストリビューションセンター",
    "office_name_kana": "カブシキガイシヤ モノタロウ カサマデイストリビユ-シヨンセンタ-"
  }
}