{
  "0000": {
    "postcode": "3120000",
    "prefecture": "茨城県",
    "prefecture_kana": "イバラキケン",
    "prefecture_code": 8,
    "city": "ひたちなか市",
    "city_kana": "ヒタチナカシ",
    "town": "",
    "town_kana": "",
    "street": null,
    "office_name": null,
    "office_name_kana": null
  },
  "0001": {
    "postcode": "3120001",
    "prefecture": "茨城県",
    "prefecture_kana": "イバラキケン",
    "prefecture_code": 8,
    "city": "ひたちなか市",
    "city_kana": "ヒタチナカシ",
    "town": "佐和",
    "town_kana": "サワ",
    "street": null,
    "office_name": null,
    "office_name_kana": null
  },
  "0002": {
    "postcode": "3120002",
    "prefecture": "茨城県",
    "prefecture_kana": "イバラキケン",
    "prefecture_code": 8,
    "city": "ひたちなか市",
    "city_kana": "ヒタチナカシ",
    "town": "高野",
    "town_kana": "コウヤ",
    "street": null,
    "office_name": null,
    "office_name_kana": null
  },
  "0003": {
    "postcode": "3120003",
    "prefecture": "茨城県",
    "prefecture_kana": "イバラキケン",
    "prefecture_code": 8,
    "city": "ひたちなか市",
    "city_kana": "ヒタチナカシ",
    "town": "足崎",
    "town_kana": "タラザキ",
    "street": null,
    "office_name": null,
    "office_name_kana": null
  },
  "0004": {
    "postcode": "3120004",
    "prefecture": "茨城県",
    "prefecture_kana": "イバラキケン",
    "prefecture_code": 8,
    "city": "ひたちなか市",
    "city_kana": "ヒタチナカシ",
    "town": "長砂",
    "town_kana": "ナガスナ",
    "street": null,
    "office_name": null,
    "office_name_kana": null
  },
  "0005": {
    "postcode": "3120005",
    "prefecture": "茨城県",
    "prefecture_kana": "イバラキケン",
    "prefecture_code": 8,
    "city": "ひたちなか市",
    "city_kana": "ヒタチナカシ",
    "town": "新光町",
    "town_kana": "シンコウチョウ",
    "street": null,
    "office_name": null,
    "office_name_kana": null
  },
  "0006": {
    "postcode": "3120006",
    "prefecture": "茨城県",
    "prefecture_kana": "イバラキケン",
    "prefecture_code": 8,
    "city": "ひたちなか市",
    "city_kana": "ヒタチナカシ",
    "town": "前浜",
    "town_kana": "マエハマ",
    "street": null,
    "office_name": null,
    "office_name_kana": null
  },
  "0007": {
    "postcode": "3120007",
    "prefecture": "茨城県",
    "prefecture_kana": "イバラキケン",
    "prefecture_code": 8,
    "city": "ひたちなか市",
    "city_kana": "ヒタチナカシ",
    "town": "小貫山",
    "town_kana": "オヌキヤマ",
    "street": null,
    "office_name": null,
    "office_name_kana": null
  },
  "0011": {
    "postcode": "3120011",
    "prefecture": "茨城県",
    "prefecture_kana": "イバラキケン",
    "prefecture_code": 8,
    "city": "ひたちなか市",
    "city_kana": "ヒタチナカシ",
    "town": "中根",
    "town_kana": "ナカネ",
    "street": null,
    "office_name": null,
    "office_name_kana": null
  },
  "0012": {
    "postcode": "3120012",
    "prefecture": "茨城県",
    "prefecture_kana": "イバラキケン",
    "prefecture_code": 8,
    "city": "ひたちなか市",
    "city_kana": "ヒタチナカシ",
    "town": "馬渡",
    "town_kana": "マワタリ",
    "street": null,
    "office_name": null,
    "office_name_kana": null
  },
  "0013": {
    "postcode": "3120013",
    "prefecture": "茨城県",
    "prefecture_kana": "イバラキケン",
    "prefecture_code": 8,
    "city": "ひたちなか市",
    "city_kana": "ヒタチナカシ",
    "town": "上野",
    "town_kana": "カミノ",
    "street": null,
    "office_name": null,
    "office_name_kana": null
  },
  "0014": {
    "postcode": "3120014",
    "prefecture": "茨城県",
    "prefecture_kana": "イバラキケン",
    "prefecture_code": 8,
    "city": "ひたちなか市",
    "city_kana": "ヒタチナカシ",
    "town": "後野",
    "town_kana": "ウシロノ",
    "street": null,
    "office_name": null,
    "office_name_kana": null
  },
  "0015": {
    "postcode": "3120015",
    "prefecture": "茨城県",
    "prefecture_kana": "イバラキケン",
    "prefecture_code": 8,
    "city": "ひたちなか市",
    "city_kana": "ヒタチナカシ",
    "town": "小砂町",
    "town_kana": "コスナチョウ",
    "street": null,
    "office_name": null,
    "office_name_kana": null
  },
  "0016": {
    "postcode": "3120016",
    "prefecture": "茨城県",
    "prefecture_kana": "イバラキケン",
    "prefecture_code": 8,
    "city": "ひたちなか市",
    "city_kana": "ヒタチナカシ",
    "town": "松戸町",
    "town_kana": "マツドチョウ",
    "street": null,
    "office_name": null,
    "office_name_kana": null
  },
  "0017": {
    "postcode": "3120017",
    "prefecture": "茨城県",
    "prefecture_kana": "イバラキケン",
    "prefecture_code": 8,
    "city": "ひたちなか市",
    "city_kana": "ヒタチナカシ",
    "town": "長堀町",
    "town_kana": "ナガホリチョウ",
    "street": null,
    "office_name": null,
    "office_name_kana": null
  },
  "0018": {
    "postcode": "3120018",
    "prefecture": "茨城県",
    "prefecture_kana": "イバラキケン",
    "prefecture_code": 8,
    "city": "ひたちなか市",
    "city_kana": "ヒタチナカシ",
    "town": "笹野町",
    "town_kana": "ササノチョウ",
    "street": null,
    "office_name": null,
    "office_name_kana": null
  },
  "0021": {
    "postcode": "3120021",
    "prefecture": "茨城県",
    "prefecture_kana": "イバラキケン",
    "prefecture_code": 8,
    "city": "ひたちなか市",
    "city_kana": "ヒタチナカシ",
    "town": "三反田",
    "town_kana": "ミタンダ",
    "street": null,
    "office_name": null,
    "office_name_kana": null
  },
  "0022": {
    "postcode": "3120022",
    "prefecture": "茨城県",
    "prefecture_kana": "イバラキケン",
    "prefecture_code": 8,
    "city": "ひたちなか市",
    "city_kana": "ヒタチナカシ",
    "town": "金上",
    "town_kana": "カネアゲ",
    "street": null,
    "office_name": null,
    "office_name_kana": null
  },
  "0023": {
    "postcode": "3120023",
    "prefecture": "茨城県",
    "prefecture_kana": "イバラキケン",
    "prefecture_code": 8,
    "city": "ひたちなか市",
    "city_kana": "ヒタチナカシ",
    "town": "大平",
    "town_kana": "オオダイラ",
    "street": null,
    "office_name": null,
    "office_name_kana": null
  },
  "0024": {
    "postcode": "3120024",
    "prefecture": "茨城県",
    "prefecture_kana": "イバラキケン",
    "prefecture_code": 8,
    "city": "ひたちなか市",
    "city_kana": "ヒタチナカシ",
    "town": "勝倉",
    "town_kana": "カツクラ",
    "street": null,
    "office_name": null,
    "office_name_kana": null
  },
  "0025": {
    "postcode": "3120025",
    "prefecture": "茨城県",
    "prefecture_kana": "イバラキケン",
    "prefecture_code": 8,
    "city": "ひたちなか市",
    "city_kana": "ヒタチナカシ",
    "town": "武田",
    "town_kana": "タケダ",
    "street": null,
    "office_name": null,
    "office_name_kana": null
  },
  "0026": {
    "postcode": "3120026",
    "prefecture": "茨城県",
    "prefecture_kana": "イバラキケン",
    "prefecture_code": 8,
    "city": "ひたちなか市",
    "city_kana": "ヒタチナカシ",
    "town": "勝田本町",
    "town_kana": "カツタホンチョウ",
    "street": null,
    "office_name": null,
    "office_name_kana": null
  },
  "0027": {
    "postcode": "3120027",
    "prefecture": "茨城県",
    "prefecture_kana": "イバラキケン",
    "prefecture_code": 8,
    "city": "ひたちなか市",
    "city_kana": "ヒタチナカシ",
    "town": "勝田中原町",
    "town_kana": "カツタナカハラチョウ",
    "street": null,
    "office_name": null,
    "office_name_kana": null
  },
  "0031": {
    "postcode": "3120031",
    "prefecture": "茨城県",
    "prefecture_kana": "イバラキケン",
    "prefecture_code": 8,
    "city": "ひたちなか市",
    "city_kana": "ヒタチナカシ",
    "town": "後台",
    "town_kana": "ゴダイ",
    "street": null,
    "office_name": null,
    "office_name_kana": null
  },
  "0032": {
    "postcode": "3120032",
    "prefecture": "茨城県",
    "prefecture_kana": "イバラキケン",
    "prefecture_code": 8,
    "city": "ひたちなか市",
    "city_kana": "ヒタチナカシ",
    "town": "津田",
    "town_kana": "ツダ",
    "street": null,
    "office_name": null,
    "office_name_kana": null
  },
  "0033": {
    "postcode": "3120033",
    "prefecture": "茨城県",
    "prefecture_kana": "イバラキケン",
    "prefecture_code": 8,
    "city": "ひたちなか市",
    "city_kana": "ヒタチナカシ",
    "town": "市毛",
    "town_kana": "イチゲ",
    "street": null,
    "office_name": null,
    "office_name_kana": null
  },
  "0034": {
    "postcode": "3120034",
    "prefecture": "茨城県",
    "prefecture_kana": "イバラキケン",
    "prefecture_code": 8,
    "city": "ひたちなか市",
    "city_kana": "ヒタチナカシ",
    "town": "堀口",
    "town_kana": "ホリグチ",
    "street": null,
    "office_name": null,
    "office_name_kana": null
  },
  "0035": {
    "postcode": "3120035",
    "prefecture": "茨城県",
    "prefecture_kana": "イバラキケン",
    "prefecture_code": 8,
    "city": "ひたちなか市",
    "city_kana": "ヒタチナカシ",
    "town": "枝川",
    "town_kana": "エダカワ",
    "street": null,
    "office_name": null,
    "office_name_kana": null
  },
  "0036": {
    "postcode": "3120036",
    "prefecture": "茨城県",
    "prefecture_kana": "イバラキケン",
    "prefecture_code": 8,
    "city": "ひたちなか市",
    "city_kana": "ヒタチナカシ",
    "town": "津田東",
    "town_kana": "ツダヒガシ",
    "street": null,
    "office_name": null,
    "office_name_kana": null
  },
  "0041": {
    "postcode": "3120041",
    "prefecture": "茨城県",
    "prefecture_kana": "イバラキケン",
    "prefecture_code": 8,
    "city": "ひたちなか市",
    "city_kana": "ヒタチナカシ",
    "town": "西大島",
    "town_kana": "ニシオオシマ",
    "street": null,
    "office_name": null,
    "office_name_kana": null
  },
  "0042": {
    "postcode": "3120042",
    "prefecture": "茨城県",
    "prefecture_kana": "イバラキケン",
    "prefecture_code": 8,
    "city": "ひたちなか市",
    "city_kana": "ヒタチナカシ",
    "town": "東大島",
    "town_kana": "ヒガシオオシマ",
    "street": null,
    "office_name": null,
    "office_name_kana": null
  },
  "0043": {
    "postcode": "3120043",
    "prefecture": "茨城県",
    "prefecture_kana": "イバラキケン",
    "prefecture_code": 8,
    "city": "ひたちなか市",
    "city_kana": "ヒタチナカシ",
    "town": "共栄町",
    "town_kana": "キョウエイチョウ",
    "street": null,
    "office_name": null,
    "office_name_kana": null
  },
  "0044": {
    "postcode": "3120044",
    "prefecture": "茨城県",
    "prefecture_kana": "イバラキケン",
    "prefecture_code": 8,
    "city": "ひたちなか市",
    "city_kana": "ヒタチナカシ",
    "town": "元町",
    "town_kana": "モトマチ",
    "street": null,
    "office_name": null,
    "office_name_kana": null
  },
  "0045": {
    "postcode": "3120045",
    "prefecture": "茨城県",
    "prefecture_kana": "イバラキケン",
    "prefecture_code": 8,
    "city": "ひたちなか市",
    "city_kana": "ヒタチナカシ",
    "town": "勝田中央",
    "town_kana": "カツタチュウオウ",
    "street": null,
    "office_name": null,
    "office_name_kana": null
  },
  "0046": {
    "postcode": "3120046",
    "prefecture": "茨城県",
    "prefecture_kana": "イバラキケン",
    "prefecture_code": 8,
    "city": "ひたちなか市",
    "city_kana": "ヒタチナカシ",
    "town": "勝田泉町",
    "town_kana": "カツタイズミチョウ",
    "street": null,
    "office_name": null,
    "office_name_kana": null
  },
  "0047": {
    "postcode": "3120047",
    "prefecture": "茨城県",
    "prefecture_kana": "イバラキケン",
    "prefecture_code": 8,
    "city": "ひたちなか市",
    "city_kana": "ヒタチナカシ",
    "town": "表町",
    "town_kana": "オモテチョウ",
    "street": null,
    "office_name": null,
    "office_name_kana": null
  },
  "0048": {
    "postcode": "3120048",
    "prefecture": "茨城県",
    "prefecture_kana": "イバラキケン",
    "prefecture_code": 8,
    "city": "ひたちなか市",
    "city_kana": "ヒタチナカシ",
    "town": "春日町",
    "town_kana": "カスガチョウ",
    "street": null,
    "office_name": null,
    "office_name_kana": null
  },
  "0051": {
    "postcode": "3120051",
    "prefecture": "茨城県",
    "prefecture_kana": "イバラキケン",
    "prefecture_code": 8,
    "city": "ひたちなか市",
    "city_kana": "ヒタチナカシ",
    "town": "堂端",
    "town_kana": "ドウハタ",
    "street": null,
    "office_name": null,
    "office_name_kana": null
  },
  "0052": {
    "postcode": "3120052",
    "prefecture": "茨城県",
    "prefecture_kana": "イバラキケン",
    "prefecture_code": 8,
    "city": "ひたちなか市",
    "city_kana": "ヒタチナカシ",
    "town": "東石川",
    "town_kana": "ヒガシイシカワ",
    "street": null,
    "office_name": null,
    "office_name_kana": null
  },
  "0053": {
    "postcode": "3120053",
    "prefecture": "茨城県",
    "prefecture_kana": "イバラキケン",
    "prefecture_code": 8,
    "city": "ひたちなか市",
    "city_kana": "ヒタチナカシ",
    "town": "外野",
    "town_kana": "ソトノ",
    "street": null,
    "office_name": null,
    "office_name_kana": null
  },
  "0054": {
    "postcode": "3120054",
    "prefecture": "茨城県",
    "prefecture_kana": "イバラキケン",
    "prefecture_code": 8,
    "city": "ひたちなか市",
    "city_kana": "ヒタチナカシ",
    "town": "はしかべ",
    "town_kana": "ハシカベ",
    "street": null,
    "office_name": null,
    "office_name_kana": null
  },
  "0055": {
    "postcode": "3120055",
    "prefecture": "茨城県",
    "prefecture_kana": "イバラキケン",
    "prefecture_code": 8,
    "city": "ひたちなか市",
    "city_kana": "ヒタチナカシ",
    "town": "大成町",
    "town_kana": "タイセイチョウ",
    "street": null,
    "office_name": null,
    "office_name_kana": null
  },
  "0056": {
    "postcode": "3120056",
    "prefecture": "茨城県",
    "prefecture_kana": "イバラキケン",
    "prefecture_code": 8,
    "city": "ひたちなか市",
    "city_kana": "ヒタチナカシ",
    "town": "青葉町",
    "town_kana": "アオバチョウ",
    "street": null,
    "office_name": null,
    "office_name_kana": null
  },
  "0057": {
    "postcode": "3120057",
    "prefecture": "茨城県",
    "prefecture_kana": "イバラキケン",
    "prefecture_code": 8,
    "city": "ひたちなか市",
    "city_kana": "ヒタチナカシ",
    "town": "石川町",
    "town_kana": "イシカワチョウ",
    "street": null,
    "office_name": null,
    "office_name_kana": null
  },
  "0058": {
    "postcode": "3120058",
    "prefecture": "茨城県",
    "prefecture_kana": "イバラキケン",
    "prefecture_code": 8,
    "city": "ひたちなか市",
    "city_kana": "ヒタチナカシ",
    "town": "西光地",
    "town_kana": "サイコウチ",
    "street": null,
    "office_name": null,
    "office_name_kana": null
  },
  "0061": {
    "postcode": "3120061",
    "prefecture": "茨城県",
    "prefecture_kana": "イバラキケン",
    "prefecture_code": 8,
    "city": "ひたちなか市",
    "city_kana": "ヒタチナカシ",
    "town": "稲田",
    "town_kana": "イナダ",
    "street": null,
    "office_name": null,
    "office_name_kana": null
  },
  "0062": {
    "postcode": "3120062",
    "prefecture": "茨城県",
    "prefecture_kana": "イバラキケン",
    "prefecture_code": 8,
    "city": "ひたちなか市",
    "city_kana": "ヒタチナカシ",
    "town": "高場",
    "town_kana": "タカバ",
    "street": null,
    "office_name": null,
    "office_name_kana": null
  },
  "0063": {
    "postcode": "3120063",
    "prefecture": "茨城県",
    "prefecture_kana": "イバラキケン",
    "prefecture_code": 8,
    "city": "ひたちなか市",
    "city_kana": "ヒタチナカシ",
    "town": "田彦",
    "town_kana": "タビコ",
    "street": null,
    "office_name": null,
    "office_name_kana": null
  },
  "8501": {
    "postcode": "3128501",
    "prefecture": "茨城県",
    "prefecture_kana": "イバラキケン",
    "prefecture_code": 8,
    "city": "ひたちなか市",
    "city_kana": "ヒタチナカシ",
    "town": "東石川",
    "town_kana": "ヒガシイシカワ",
    "street": "２丁目１０番１号",
    "office_name": "ひたちなか市役所",
    "office_name_kana": "ヒタチナカシヤクシヨ"
  },
  "8502": {
    "postcode": "3128502",
    "prefecture": "茨城県",
    "prefecture_kana": "イバラキケン",
    "prefecture_code": 8,
    "city": "ひたちなか市",
    "city_kana": "ヒタチナカシ",
    "town": "大字武田",
    "town_kana": null,
    "street": "１０６０",
    "office_name": "日立工機　株式会社",
    "office_name_kana": "ヒタチコウキ カブシキガイシヤ"
  },
  "8503": {
    "postcode": "3128503",
    "prefecture": "茨城県",
    "prefecture_kana": "イバラキケン",
    "prefecture_code": 8,
    "city": "ひたちなか市",
    "city_kana": "ヒタチナカシ",
    "town": "大字高場",
    "town_kana": null,
    "street": "２５２０番地",
    "office_name": "日立Ａｓｔｅｍｏ　株式会社",
    "office_name_kana": "ヒタチアステモ カブシキガイシヤ"
  },
  "8504": {
    "postcode": "3128504",
    "prefecture": "茨城県",
    "prefecture_kana": "イバラキケン",
    "prefecture_code": 8,
    "city": "ひたちなか市",
    "city_kana": "ヒタチナカシ",
    "town": "大字市毛",
    "town_kana": null,
    "street": "８８２番地",
    "office_name": "株式会社　日立ハイテクノロジーズ",
    "office_name_kana": "カブシキガイシヤ ヒタチハイテクノロジ-ズ"
  },
  "8505": {
    "postcode": "3128505",
    "prefecture": "茨城県",
    "prefecture_kana": "イバラキケン",
    "prefecture_code": 8,
    "city": "ひたちなか市",
    "city_kana": "ヒタチナカシ",
    "town": "稲田",
    "town_kana": "イナダ",
    "street": "１４１０番地",
    "office_name": "日立ビークルエナジー　株式会社",
    "office_name_kana": "ヒタチビ-クルエナジ- カブシキガイシヤ"
  },
  "8507": {
    "postcode": "3128507",
    "prefecture": "茨城県",
    "prefecture_kana": "イバラキケン",
    "prefecture_code": 8,
    "city": "ひたちなか市",
    "city_kana": "ヒタチナカシ",
    "town": "大字堀口",
    "town_kana": null,
    "street": "８３２番地の２",
    "office_name": "株式会社　日立パワーソリューションズ　勝田事業所",
    "office_name_kana": "カブシキガイシヤ ヒタチパワ-ソリユ-シヨンズ カツタジギヨウシヨ"
  },
  "8508": {
    "postcode": "3128508",
    "prefecture": "茨城県",
    "prefecture_kana": "イバラキケン",
    "prefecture_code": 8,
    "city": "ひたちなか市",
    "city_kana": "ヒタチナカシ",
    "town": "大字中根",
    "town_kana": null,
    "street": "８６６",
    "office_name": "茨城工業高等専門学校",
    "office_name_kana": "イバラキコウギヨウコウトウセンモンガツコウ"
  },
  "8510": {
    "postcode": "3128510",
    "prefecture": "茨城県",
    "prefecture_kana": "イバラキケン",
    "prefecture_code": 8,
    "city": "ひたちなか市",
    "city_kana": "ヒタチナカシ",
    "town": "新光町",
    "town_kana": "シンコウチョウ",
    "street": "３４−１",
    "office_name": "株式会社　ジョイフル本田　ニューポートひたちなか店",
    "office_name_kana": "カブシキガイシヤ ジヨイフルホンダ ニユ-ポ-トヒタチナカテン"
  },
  "8511": {
    "postcode": "3128511",
    "prefecture": "茨城県",
    "prefecture_kana": "イバラキケン",
    "prefecture_code": 8,
    "city": "ひたちなか市",
    "city_kana": "ヒタチナカシ",
    "town": "堀口",
    "town_kana": "ホリグチ",
    "street": "７５１番地",
    "office_name": "ルネサスエレクトロニクス　株式会社　那珂事業所",
    "office_name_kana": "ルネサスエレクトロニクス カブシキガイシヤ ナカジギヨウシヨ"
  }
}