{
  "0000": {
    "postcode": "3170000",
    "prefecture": "茨城県",
    "prefecture_kana": "イバラキケン",
    "prefecture_code": 8,
    "city": "日立市",
    "city_kana": "ヒタチシ",
    "town": "",
    "town_kana": "",
    "street": null,
    "office_name": null,
    "office_name_kana": null
  },
  "0051": {
    "postcode": "3170051",
    "prefecture": "茨城県",
    "prefecture_kana": "イバラキケン",
    "prefecture_code": 8,
    "city": "日立市",
    "city_kana": "ヒタチシ",
    "town": "滑川本町",
    "town_kana": "ナメカワホンチョウ",
    "street": null,
    "office_name": null,
    "office_name_kana": null
  },
  "0052": {
    "postcode": "3170052",
    "prefecture": "茨城県",
    "prefecture_kana": "イバラキケン",
    "prefecture_code": 8,
    "city": "日立市",
    "city_kana": "ヒタチシ",
    "town": "東滑川町",
    "town_kana": "ヒガシナメカワチョウ",
    "street": null,
    "office_name": null,
    "office_name_kana": null
  },
  "0053": {
    "postcode": "3170053",
    "prefecture": "茨城県",
    "prefecture_kana": "イバラキケン",
    "prefecture_code": 8,
    "city": "日立市",
    "city_kana": "ヒタチシ",
    "town": "滑川町",
    "town_kana": "ナメカワチョウ",
    "street": null,
    "office_name": null,
    "office_name_kana": null
  },
  "0054": {
    "postcode": "3170054",
    "prefecture": "茨城県",
    "prefecture_kana": "イバラキケン",
    "prefecture_code": 8,
    "city": "日立市",
    "city_kana": "ヒタチシ",
    "town": "本宮町",
    "town_kana": "モトミヤチョウ",
    "street": null,
    "office_name": null,
    "office_name_kana": null
  },
  "0055": {
    "postcode": "3170055",
    "prefecture": "茨城県",
    "prefecture_kana": "イバラキケン",
    "prefecture_code": 8,
    "city": "日立市",
    "city_kana": "ヒタチシ",
    "town": "宮田町",
    "town_kana": "ミヤタチョウ",
    "street": null,
    "office_name": null,
    "office_name_kana": null
  },
  "0056": {
    "postcode": "3170056",
    "prefecture": "茨城県",
    "prefecture_kana": "イバラキケン",
    "prefecture_code": 8,
    "city": "日立市",
    "city_kana": "ヒタチシ",
    "town": "白銀町",
    "town_kana": "シロガネチョウ",
    "street": null,
    "office_name": null,
    "office_name_kana": null
  },
  "0061": {
    "postcode": "3170061",
    "prefecture": "茨城県",
    "prefecture_kana": "イバラキケン",
    "prefecture_code": 8,
    "city": "日立市",
    "city_kana": "ヒタチシ",
    "town": "東町",
    "town_kana": "ヒガシチョウ",
    "street": null,
    "office_name": null,
    "office_name_kana": null
  },
  "0062": {
    "postcode": "3170062",
    "prefecture": "茨城県",
    "prefecture_kana": "イバラキケン",
    "prefecture_code": 8,
    "city": "日立市",
    "city_kana": "ヒタチシ",
    "town": "平和町",
    "town_kana": "ヘイワチョウ",
    "street": null,
    "office_name": null,
    "office_name_kana": null
  },
  "0063": {
    "postcode": "3170063",
    "prefecture": "茨城県",
    "prefecture_kana": "イバラキケン",
    "prefecture_code": 8,
    "city": "日立市",
    "city_kana": "ヒタチシ",
    "town": "若葉町",
    "town_kana": "ワカバチョウ",
    "street": null,
    "office_name": null,
    "office_name_kana": null
  },
  "0064": {
    "postcode": "3170064",
    "prefecture": "茨城県",
    "prefecture_kana": "イバラキケン",
    "prefecture_code": 8,
    "city": "日立市",
    "city_kana": "ヒタチシ",
    "town": "神峰町",
    "town_kana": "カミネチョウ",
    "street": null,
    "office_name": null,
    "office_name_kana": null
  },
  "0065": {
    "postcode": "3170065",
    "prefecture": "茨城県",
    "prefecture_kana": "イバラキケン",
    "prefecture_code": 8,
    "city": "日立市",
    "city_kana": "ヒタチシ",
    "town": "助川町",
    "town_kana": "スケガワチョウ",
    "street": null,
    "office_name": null,
    "office_name_kana": null
  },
  "0066": {
    "postcode": "3170066",
    "prefecture": "茨城県",
    "prefecture_kana": "イバラキケン",
    "prefecture_code": 8,
    "city": "日立市",
    "city_kana": "ヒタチシ",
    "town": "高鈴町",
    "town_kana": "タカスズチョウ",
    "street": null,
    "office_name": null,
    "office_name_kana": null
  },
  "0071": {
    "postcode": "3170071",
    "prefecture": "茨城県",
    "prefecture_kana": "イバラキケン",
    "prefecture_code": 8,
    "city": "日立市",
    "city_kana": "ヒタチシ",
    "town": "鹿島町",
    "town_kana": "カシマチョウ",
    "street": null,
    "office_name": null,
    "office_name_kana": null
  },
  "0072": {
    "postcode": "3170072",
    "prefecture": "茨城県",
    "prefecture_kana": "イバラキケン",
    "prefecture_code": 8,
    "city": "日立市",
    "city_kana": "ヒタチシ",
    "town": "弁天町",
    "town_kana": "ベンテンチョウ",
    "street": null,
    "office_name": null,
    "office_name_kana": null
  },
  "0073": {
    "postcode": "3170073",
    "prefecture": "茨城県",
    "prefecture_kana": "イバラキケン",
    "prefecture_code": 8,
    "city": "日立市",
    "city_kana": "ヒタチシ",
    "town": "幸町",
    "town_kana": "サイワイチョウ",
    "street": null,
    "office_name": null,
    "office_name_kana": null
  },
  "0074": {
    "postcode": "3170074",
    "prefecture": "茨城県",
    "prefecture_kana": "イバラキケン",
    "prefecture_code": 8,
    "city": "日立市",
    "city_kana": "ヒタチシ",
    "town": "旭町",
    "town_kana": "アサヒチョウ",
    "street": null,
    "office_name": null,
    "office_name_kana": null
  },
  "0075": {
    "postcode": "3170075",
    "prefecture": "茨城県",
    "prefecture_kana": "イバラキケン",
    "prefecture_code": 8,
    "city": "日立市",
    "city_kana": "ヒタチシ",
    "town": "相賀町",
    "town_kana": "アイガチョウ",
    "street": null,
    "office_name": null,
    "office_name_kana": null
  },
  "0076": {
    "postcode": "3170076",
    "prefecture": "茨城県",
    "prefecture_kana": "イバラキケン",
    "prefecture_code": 8,
    "city": "日立市",
    "city_kana": "ヒタチシ",
    "town": "会瀬町",
    "town_kana": "オウセチョウ",
    "street": null,
    "office_name": null,
    "office_name_kana": null
  },
  "0077": {
    "postcode": "3170077",
    "prefecture": "茨城県",
    "prefecture_kana": "イバラキケン",
    "prefecture_code": 8,
    "city": "日立市",
    "city_kana": "ヒタチシ",
    "town": "城南町",
    "town_kana": "ジョウナンチョウ",
    "street": null,
    "office_name": null,
    "office_name_kana": null
  },
  "8511": {
    "postcode": "3178511",
    "prefecture": "茨城県",
    "prefecture_kana": "イバラキケン",
    "prefecture_code": 8,
    "city": "日立市",
    "city_kana": "ヒタチシ",
    "town": "幸町",
    "town_kana": "サイワイチョウ",
    "street": "３丁目１番地１号",
    "office_name": "株式会社　日立製作所　日立事業所",
    "office_name_kana": "カブシキガイシヤ ヒタチセイサクシヨ ヒタチジギヨウシヨ"
  },
  "8555": {
    "postcode": "3178555",
    "prefecture": "茨城県",
    "prefecture_kana": "イバラキケン",
    "prefecture_code": 8,
    "city": "日立市",
    "city_kana": "ヒタチシ",
    "town": "東町",
    "town_kana": "ヒガシチョウ",
    "street": "４丁目１３番地１号",
    "office_name": "日立化成　株式会社　山崎事業所",
    "office_name_kana": "ヒタチカセイ カブシキガイシヤ ヤマザキジギヨウシヨ"
  },
  "8585": {
    "postcode": "3178585",
    "prefecture": "茨城県",
    "prefecture_kana": "イバラキケン",
    "prefecture_code": 8,
    "city": "日立市",
    "city_kana": "ヒタチシ",
    "town": "幸町",
    "town_kana": "サイワイチョウ",
    "street": "三丁目１番１号",
    "office_name": "三菱重工業　株式会社　日立工場",
    "office_name_kana": "ミツビシジユウコウギヨウ カブシキカイシヤ ヒタチコウジヨウ"
  },
  "8601": {
    "postcode": "3178601",
    "prefecture": "茨城県",
    "prefecture_kana": "イバラキケン",
    "prefecture_code": 8,
    "city": "日立市",
    "city_kana": "ヒタチシ",
    "town": "助川町",
    "town_kana": "スケガワチョウ",
    "street": "１丁目１−１（日立郵便局私書箱第４号）",
    "office_name": "日立市役所",
    "office_name_kana": "ヒタチシヤクシヨ"
  },
  "8602": {
    "postcode": "3178602",
    "prefecture": "茨城県",
    "prefecture_kana": "イバラキケン",
    "prefecture_code": 8,
    "city": "日立市",
    "city_kana": "ヒタチシ",
    "town": "若葉町",
    "town_kana": "ワカバチョウ",
    "street": "２丁目１−８（日立郵便局私書箱第１７号）",
    "office_name": "日立　税務署",
    "office_name_kana": "ヒタチ ゼイムシヨ"
  }
}