{
  "0001": {
    "postcode": "3200001",
    "prefecture": "栃木県",
    "prefecture_kana": "トチギケン",
    "prefecture_code": 9,
    "city": "宇都宮市",
    "city_kana": "ウツノミヤシ",
    "town": "横山町",
    "town_kana": "ヨコヤマチョウ",
    "street": null,
    "office_name": null,
    "office_name_kana": null
  },
  "0002": {
    "postcode": "3200002",
    "prefecture": "栃木県",
    "prefecture_kana": "トチギケン",
    "prefecture_code": 9,
    "city": "宇都宮市",
    "city_kana": "ウツノミヤシ",
    "town": "瓦谷町",
    "town_kana": "カワラヤチョウ",
    "street": null,
    "office_name": null,
    "office_name_kana": null
  },
  "0003": {
    "postcode": "3200003",
    "prefecture": "栃木県",
    "prefecture_kana": "トチギケン",
    "prefecture_code": 9,
    "city": "宇都宮市",
    "city_kana": "ウツノミヤシ",
    "town": "豊郷台",
    "town_kana": "トヨサトダイ",
    "street": null,
    "office_name": null,
    "office_name_kana": null
  },
  "0004": {
    "postcode": "3200004",
    "prefecture": "栃木県",
    "prefecture_kana": "トチギケン",
    "prefecture_code": 9,
    "city": "宇都宮市",
    "city_kana": "ウツノミヤシ",
    "town": "長岡町",
    "town_kana": "ナガオカチョウ",
    "street": null,
    "office_name": null,
    "office_name_kana": null
  },
  "0005": {
    "postcode": "3200005",
    "prefecture": "栃木県",
    "prefecture_kana": "トチギケン",
    "prefecture_code": 9,
    "city": "宇都宮市",
    "city_kana": "ウツノミヤシ",
    "town": "横山",
    "town_kana": "ヨコヤマ",
    "street": null,
    "office_name": null,
    "office_name_kana": null
  },
  "0011": {
    "postcode": "3200011",
    "prefecture": "栃木県",
    "prefecture_kana": "トチギケン",
    "prefecture_code": 9,
    "city": "宇都宮市",
    "city_kana": "ウツノミヤシ",
    "town": "富士見が丘",
    "town_kana": "フジミガオカ",
    "street": null,
    "office_name": null,
    "office_name_kana": null
  },
  "0012": {
    "postcode": "3200012",
    "prefecture": "栃木県",
    "prefecture_kana": "トチギケン",
    "prefecture_code": 9,
    "city": "宇都宮市",
    "city_kana": "ウツノミヤシ",
    "town": "山本",
    "town_kana": "ヤマモト",
    "street": null,
    "office_name": null,
    "office_name_kana": null
  },
  "0013": {
    "postcode": "3200013",
    "prefecture": "栃木県",
    "prefecture_kana": "トチギケン",
    "prefecture_code": 9,
    "city": "宇都宮市",
    "city_kana": "ウツノミヤシ",
    "town": "上大曽町",
    "town_kana": "カミオオゾマチ",
    "street": null,
    "office_name": null,
    "office_name_kana": null
  },
  "0014": {
    "postcode": "3200014",
    "prefecture": "栃木県",
    "prefecture_kana": "トチギケン",
    "prefecture_code": 9,
    "city": "宇都宮市",
    "city_kana": "ウツノミヤシ",
    "town": "大曽",
    "town_kana": "オオゾ",
    "street": null,
    "office_name": null,
    "office_name_kana": null
  },
  "0015": {
    "postcode": "3200015",
    "prefecture": "栃木県",
    "prefecture_kana": "トチギケン",
    "prefecture_code": 9,
    "city": "宇都宮市",
    "city_kana": "ウツノミヤシ",
    "town": "八幡台",
    "town_kana": "ハチマンダイ",
    "street": null,
    "office_name": null,
    "office_name_kana": null
  },
  "0016": {
    "postcode": "3200016",
    "prefecture": "栃木県",
    "prefecture_kana": "トチギケン",
    "prefecture_code": 9,
    "city": "宇都宮市",
    "city_kana": "ウツノミヤシ",
    "town": "山本町",
    "town_kana": "ヤマモトマチ",
    "street": null,
    "office_name": null,
    "office_name_kana": null
  },
  "0017": {
    "postcode": "3200017",
    "prefecture": "栃木県",
    "prefecture_kana": "トチギケン",
    "prefecture_code": 9,
    "city": "宇都宮市",
    "city_kana": "ウツノミヤシ",
    "town": "戸祭台",
    "town_kana": "トマツリダイ",
    "street": null,
    "office_name": null,
    "office_name_kana": null
  },
  "0021": {
    "postcode": "3200021",
    "prefecture": "栃木県",
    "prefecture_kana": "トチギケン",
    "prefecture_code": 9,
    "city": "宇都宮市",
    "city_kana": "ウツノミヤシ",
    "town": "東塙田",
    "town_kana": "ヒガシハナワダ",
    "street": null,
    "office_name": null,
    "office_name_kana": null
  },
  "0022": {
    "postcode": "3200022",
    "prefecture": "栃木県",
    "prefecture_kana": "トチギケン",
    "prefecture_code": 9,
    "city": "宇都宮市",
    "city_kana": "ウツノミヤシ",
    "town": "千波町",
    "town_kana": "センナミマチ",
    "street": null,
    "office_name": null,
    "office_name_kana": null
  },
  "0023": {
    "postcode": "3200023",
    "prefecture": "栃木県",
    "prefecture_kana": "トチギケン",
    "prefecture_code": 9,
    "city": "宇都宮市",
    "city_kana": "ウツノミヤシ",
    "town": "仲町",
    "town_kana": "ナカマチ",
    "street": null,
    "office_name": null,
    "office_name_kana": null
  },
  "0024": {
    "postcode": "3200024",
    "prefecture": "栃木県",
    "prefecture_kana": "トチギケン",
    "prefecture_code": 9,
    "city": "宇都宮市",
    "city_kana": "ウツノミヤシ",
    "town": "栄町",
    "town_kana": "サカエチョウ",
    "street": null,
    "office_name": null,
    "office_name_kana": null
  },
  "0025": {
    "postcode": "3200025",
    "prefecture": "栃木県",
    "prefecture_kana": "トチギケン",
    "prefecture_code": 9,
    "city": "宇都宮市",
    "city_kana": "ウツノミヤシ",
    "town": "宮町",
    "town_kana": "ミヤマチ",
    "street": null,
    "office_name": null,
    "office_name_kana": null
  },
  "0026": {
    "postcode": "3200026",
    "prefecture": "栃木県",
    "prefecture_kana": "トチギケン",
    "prefecture_code": 9,
    "city": "宇都宮市",
    "city_kana": "ウツノミヤシ",
    "town": "馬場通り",
    "town_kana": "ババドオリ",
    "street": null,
    "office_name": null,
    "office_name_kana": null
  },
  "0027": {
    "postcode": "3200027",
    "prefecture": "栃木県",
    "prefecture_kana": "トチギケン",
    "prefecture_code": 9,
    "city": "宇都宮市",
    "city_kana": "ウツノミヤシ",
    "town": "塙田",
    "town_kana": "ハナワダ",
    "street": null,
    "office_name": null,
    "office_name_kana": null
  },
  "0031": {
    "postcode": "3200031",
    "prefecture": "栃木県",
    "prefecture_kana": "トチギケン",
    "prefecture_code": 9,
    "city": "宇都宮市",
    "city_kana": "ウツノミヤシ",
    "town": "戸祭元町",
    "town_kana": "トマツリモトチョウ",
    "street": null,
    "office_name": null,
    "office_name_kana": null
  },
  "0032": {
    "postcode": "3200032",
    "prefecture": "栃木県",
    "prefecture_kana": "トチギケン",
    "prefecture_code": 9,
    "city": "宇都宮市",
    "city_kana": "ウツノミヤシ",
    "town": "昭和",
    "town_kana": "ショウワ",
    "street": null,
    "office_name": null,
    "office_name_kana": null
  },
  "0033": {
    "postcode": "3200033",
    "prefecture": "栃木県",
    "prefecture_kana": "トチギケン",
    "prefecture_code": 9,
    "city": "宇都宮市",
    "city_kana": "ウツノミヤシ",
    "town": "本町",
    "town_kana": "ホンチョウ",
    "street": null,
    "office_name": null,
    "office_name_kana": null
  },
  "0034": {
    "postcode": "3200034",
    "prefecture": "栃木県",
    "prefecture_kana": "トチギケン",
    "prefecture_code": 9,
    "city": "宇都宮市",
    "city_kana": "ウツノミヤシ",
    "town": "泉町",
    "town_kana": "イズミチョウ",
    "street": null,
    "office_name": null,
    "office_name_kana": null
  },
  "0035": {
    "postcode": "3200035",
    "prefecture": "栃木県",
    "prefecture_kana": "トチギケン",
    "prefecture_code": 9,
    "city": "宇都宮市",
    "city_kana": "ウツノミヤシ",
    "town": "伝馬町",
    "town_kana": "デンマチョウ",
    "street": null,
    "office_name": null,
    "office_name_kana": null
  },
  "0036": {
    "postcode": "3200036",
    "prefecture": "栃木県",
    "prefecture_kana": "トチギケン",
    "prefecture_code": 9,
    "city": "宇都宮市",
    "city_kana": "ウツノミヤシ",
    "town": "小幡",
    "town_kana": "オバタ",
    "street": null,
    "office_name": null,
    "office_name_kana": null
  },
  "0037": {
    "postcode": "3200037",
    "prefecture": "栃木県",
    "prefecture_kana": "トチギケン",
    "prefecture_code": 9,
    "city": "宇都宮市",
    "city_kana": "ウツノミヤシ",
    "town": "清住",
    "town_kana": "キヨスミ",
    "street": null,
    "office_name": null,
    "office_name_kana": null
  },
  "0038": {
    "postcode": "3200038",
    "prefecture": "栃木県",
    "prefecture_kana": "トチギケン",
    "prefecture_code": 9,
    "city": "宇都宮市",
    "city_kana": "ウツノミヤシ",
    "town": "星が丘",
    "town_kana": "ホシガオカ",
    "street": null,
    "office_name": null,
    "office_name_kana": null
  },
  "0041": {
    "postcode": "3200041",
    "prefecture": "栃木県",
    "prefecture_kana": "トチギケン",
    "prefecture_code": 9,
    "city": "宇都宮市",
    "city_kana": "ウツノミヤシ",
    "town": "松原",
    "town_kana": "マツバラ",
    "street": null,
    "office_name": null,
    "office_name_kana": null
  },
  "0042": {
    "postcode": "3200042",
    "prefecture": "栃木県",
    "prefecture_kana": "トチギケン",
    "prefecture_code": 9,
    "city": "宇都宮市",
    "city_kana": "ウツノミヤシ",
    "town": "材木町",
    "town_kana": "ザイモクチョウ",
    "street": null,
    "office_name": null,
    "office_name_kana": null
  },
  "0043": {
    "postcode": "3200043",
    "prefecture": "栃木県",
    "prefecture_kana": "トチギケン",
    "prefecture_code": 9,
    "city": "宇都宮市",
    "city_kana": "ウツノミヤシ",
    "town": "桜",
    "town_kana": "サクラ",
    "street": null,
    "office_name": null,
    "office_name_kana": null
  },
  "0044": {
    "postcode": "3200044",
    "prefecture": "栃木県",
    "prefecture_kana": "トチギケン",
    "prefecture_code": 9,
    "city": "宇都宮市",
    "city_kana": "ウツノミヤシ",
    "town": "南一の沢町",
    "town_kana": "ミナミイチノサワマチ",
    "street": null,
    "office_name": null,
    "office_name_kana": null
  },
  "0045": {
    "postcode": "3200045",
    "prefecture": "栃木県",
    "prefecture_kana": "トチギケン",
    "prefecture_code": 9,
    "city": "宇都宮市",
    "city_kana": "ウツノミヤシ",
    "town": "中一の沢町",
    "town_kana": "ナカイチノサワマチ",
    "street": null,
    "office_name": null,
    "office_name_kana": null
  },
  "0046": {
    "postcode": "3200046",
    "prefecture": "栃木県",
    "prefecture_kana": "トチギケン",
    "prefecture_code": 9,
    "city": "宇都宮市",
    "city_kana": "ウツノミヤシ",
    "town": "西一の沢町",
    "town_kana": "ニシイチノサワマチ",
    "street": null,
    "office_name": null,
    "office_name_kana": null
  },
  "0047": {
    "postcode": "3200047",
    "prefecture": "栃木県",
    "prefecture_kana": "トチギケン",
    "prefecture_code": 9,
    "city": "宇都宮市",
    "city_kana": "ウツノミヤシ",
    "town": "一の沢",
    "town_kana": "イチノサワ",
    "street": null,
    "office_name": null,
    "office_name_kana": null
  },
  "0048": {
    "postcode": "3200048",
    "prefecture": "栃木県",
    "prefecture_kana": "トチギケン",
    "prefecture_code": 9,
    "city": "宇都宮市",
    "city_kana": "ウツノミヤシ",
    "town": "北一の沢町",
    "town_kana": "キタイチノサワマチ",
    "street": null,
    "office_name": null,
    "office_name_kana": null
  },
  "0049": {
    "postcode": "3200049",
    "prefecture": "栃木県",
    "prefecture_kana": "トチギケン",
    "prefecture_code": 9,
    "city": "宇都宮市",
    "city_kana": "ウツノミヤシ",
    "town": "一ノ沢町",
    "town_kana": "イチノサワマチ",
    "street": null,
    "office_name": null,
    "office_name_kana": null
  },
  "0051": {
    "postcode": "3200051",
    "prefecture": "栃木県",
    "prefecture_kana": "トチギケン",
    "prefecture_code": 9,
    "city": "宇都宮市",
    "city_kana": "ウツノミヤシ",
    "town": "上戸祭町",
    "town_kana": "カミトマツリチョウ",
    "street": null,
    "office_name": null,
    "office_name_kana": null
  },
  "0052": {
    "postcode": "3200052",
    "prefecture": "栃木県",
    "prefecture_kana": "トチギケン",
    "prefecture_code": 9,
    "city": "宇都宮市",
    "city_kana": "ウツノミヤシ",
    "town": "中戸祭町",
    "town_kana": "ナカトマツリチョウ",
    "street": null,
    "office_name": null,
    "office_name_kana": null
  },
  "0053": {
    "postcode": "3200053",
    "prefecture": "栃木県",
    "prefecture_kana": "トチギケン",
    "prefecture_code": 9,
    "city": "宇都宮市",
    "city_kana": "ウツノミヤシ",
    "town": "戸祭町",
    "town_kana": "トマツリチョウ",
    "street": null,
    "office_name": null,
    "office_name_kana": null
  },
  "0054": {
    "postcode": "3200054",
    "prefecture": "栃木県",
    "prefecture_kana": "トチギケン",
    "prefecture_code": 9,
    "city": "宇都宮市",
    "city_kana": "ウツノミヤシ",
    "town": "東戸祭",
    "town_kana": "ヒガシトマツリ",
    "street": null,
    "office_name": null,
    "office_name_kana": null
  },
  "0055": {
    "postcode": "3200055",
    "prefecture": "栃木県",
    "prefecture_kana": "トチギケン",
    "prefecture_code": 9,
    "city": "宇都宮市",
    "city_kana": "ウツノミヤシ",
    "town": "下戸祭",
    "town_kana": "シモトマツリ",
    "street": null,
    "office_name": null,
    "office_name_kana": null
  },
  "0056": {
    "postcode": "3200056",
    "prefecture": "栃木県",
    "prefecture_kana": "トチギケン",
    "prefecture_code": 9,
    "city": "宇都宮市",
    "city_kana": "ウツノミヤシ",
    "town": "戸祭",
    "town_kana": "トマツリ",
    "street": null,
    "office_name": null,
    "office_name_kana": null
  },
  "0057": {
    "postcode": "3200057",
    "prefecture": "栃木県",
    "prefecture_kana": "トチギケン",
    "prefecture_code": 9,
    "city": "宇都宮市",
    "city_kana": "ウツノミヤシ",
    "town": "中戸祭",
    "town_kana": "ナカトマツリ",
    "street": null,
    "office_name": null,
    "office_name_kana": null
  },
  "0058": {
    "postcode": "3200058",
    "prefecture": "栃木県",
    "prefecture_kana": "トチギケン",
    "prefecture_code": 9,
    "city": "宇都宮市",
    "city_kana": "ウツノミヤシ",
    "town": "上戸祭",
    "town_kana": "カミトマツリ",
    "street": null,
    "office_name": null,
    "office_name_kana": null
  },
  "0061": {
    "postcode": "3200061",
    "prefecture": "栃木県",
    "prefecture_kana": "トチギケン",
    "prefecture_code": 9,
    "city": "宇都宮市",
    "city_kana": "ウツノミヤシ",
    "town": "宝木町",
    "town_kana": "タカラギチョウ",
    "street": null,
    "office_name": null,
    "office_name_kana": null
  },
  "0062": {
    "postcode": "3200062",
    "prefecture": "栃木県",
    "prefecture_kana": "トチギケン",
    "prefecture_code": 9,
    "city": "宇都宮市",
    "city_kana": "ウツノミヤシ",
    "town": "東宝木町",
    "town_kana": "ヒガシタカラギチョウ",
    "street": null,
    "office_name": null,
    "office_name_kana": null
  },
  "0063": {
    "postcode": "3200063",
    "prefecture": "栃木県",
    "prefecture_kana": "トチギケン",
    "prefecture_code": 9,
    "city": "宇都宮市",
    "city_kana": "ウツノミヤシ",
    "town": "陽西町",
    "town_kana": "ヨウサイチョウ",
    "street": null,
    "office_name": null,
    "office_name_kana": null
  },
  "0064": {
    "postcode": "3200064",
    "prefecture": "栃木県",
    "prefecture_kana": "トチギケン",
    "prefecture_code": 9,
    "city": "宇都宮市",
    "city_kana": "ウツノミヤシ",
    "town": "西の宮",
    "town_kana": "ニシノミヤ",
    "street": null,
    "office_name": null,
    "office_name_kana": null
  },
  "0065": {
    "postcode": "3200065",
    "prefecture": "栃木県",
    "prefecture_kana": "トチギケン",
    "prefecture_code": 9,
    "city": "宇都宮市",
    "city_kana": "ウツノミヤシ",
    "town": "駒生町",
    "town_kana": "コマニュウマチ",
    "street": null,
    "office_name": null,
    "office_name_kana": null
  },
  "0066": {
    "postcode": "3200066",
    "prefecture": "栃木県",
    "prefecture_kana": "トチギケン",
    "prefecture_code": 9,
    "city": "宇都宮市",
    "city_kana": "ウツノミヤシ",
    "town": "駒生",
    "town_kana": "コマニュウ",
    "street": null,
    "office_name": null,
    "office_name_kana": null
  },
  "0071": {
    "postcode": "3200071",
    "prefecture": "栃木県",
    "prefecture_kana": "トチギケン",
    "prefecture_code": 9,
    "city": "宇都宮市",
    "city_kana": "ウツノミヤシ",
    "town": "野沢町",
    "town_kana": "ノザワマチ",
    "street": null,
    "office_name": null,
    "office_name_kana": null
  },
  "0072": {
    "postcode": "3200072",
    "prefecture": "栃木県",
    "prefecture_kana": "トチギケン",
    "prefecture_code": 9,
    "city": "宇都宮市",
    "city_kana": "ウツノミヤシ",
    "town": "若草",
    "town_kana": "ワカクサ",
    "street": null,
    "office_name": null,
    "office_name_kana": null
  },
  "0073": {
    "postcode": "3200073",
    "prefecture": "栃木県",
    "prefecture_kana": "トチギケン",
    "prefecture_code": 9,
    "city": "宇都宮市",
    "city_kana": "ウツノミヤシ",
    "town": "細谷",
    "town_kana": "ホソヤ",
    "street": null,
    "office_name": null,
    "office_name_kana": null
  },
  "0074": {
    "postcode": "3200074",
    "prefecture": "栃木県",
    "prefecture_kana": "トチギケン",
    "prefecture_code": 9,
    "city": "宇都宮市",
    "city_kana": "ウツノミヤシ",
    "town": "細谷町",
    "town_kana": "ホソヤチョウ",
    "street": null,
    "office_name": null,
    "office_name_kana": null
  },
  "0075": {
    "postcode": "3200075",
    "prefecture": "栃木県",
    "prefecture_kana": "トチギケン",
    "prefecture_code": 9,
    "city": "宇都宮市",
    "city_kana": "ウツノミヤシ",
    "town": "宝木本町",
    "town_kana": "タカラギホンチョウ",
    "street": null,
    "office_name": null,
    "office_name_kana": null
  },
  "0801": {
    "postcode": "3200801",
    "prefecture": "栃木県",
    "prefecture_kana": "トチギケン",
    "prefecture_code": 9,
    "city": "宇都宮市",
    "city_kana": "ウツノミヤシ",
    "town": "池上町",
    "town_kana": "イケガミチョウ",
    "street": null,
    "office_name": null,
    "office_name_kana": null
  },
  "0802": {
    "postcode": "3200802",
    "prefecture": "栃木県",
    "prefecture_kana": "トチギケン",
    "prefecture_code": 9,
    "city": "宇都宮市",
    "city_kana": "ウツノミヤシ",
    "town": "江野町",
    "town_kana": "エノマチ",
    "street": null,
    "office_name": null,
    "office_name_kana": null
  },
  "0803": {
    "postcode": "3200803",
    "prefecture": "栃木県",
    "prefecture_kana": "トチギケン",
    "prefecture_code": 9,
    "city": "宇都宮市",
    "city_kana": "ウツノミヤシ",
    "town": "曲師町",
    "town_kana": "マゲシチョウ",
    "street": null,
    "office_name": null,
    "office_name_kana": null
  },
  "0804": {
    "postcode": "3200804",
    "prefecture": "栃木県",
    "prefecture_kana": "トチギケン",
    "prefecture_code": 9,
    "city": "宇都宮市",
    "city_kana": "ウツノミヤシ",
    "town": "二荒町",
    "town_kana": "フタアラマチ",
    "street": null,
    "office_name": null,
    "office_name_kana": null
  },
  "0805": {
    "postcode": "3200805",
    "prefecture": "栃木県",
    "prefecture_kana": "トチギケン",
    "prefecture_code": 9,
    "city": "宇都宮市",
    "city_kana": "ウツノミヤシ",
    "town": "中央本町",
    "town_kana": "チュウオウホンチョウ",
    "street": null,
    "office_name": null,
    "office_name_kana": null
  },
  "0806": {
    "postcode": "3200806",
    "prefecture": "栃木県",
    "prefecture_kana": "トチギケン",
    "prefecture_code": 9,
    "city": "宇都宮市",
    "city_kana": "ウツノミヤシ",
    "town": "中央",
    "town_kana": "チュウオウ",
    "street": null,
    "office_name": null,
    "office_name_kana": null
  },
  "0807": {
    "postcode": "3200807",
    "prefecture": "栃木県",
    "prefecture_kana": "トチギケン",
    "prefecture_code": 9,
    "city": "宇都宮市",
    "city_kana": "ウツノミヤシ",
    "town": "松が峰",
    "town_kana": "マツガミネ",
    "street": null,
    "office_name": null,
    "office_name_kana": null
  },
  "0808": {
    "postcode": "3200808",
    "prefecture": "栃木県",
    "prefecture_kana": "トチギケン",
    "prefecture_code": 9,
    "city": "宇都宮市",
    "city_kana": "ウツノミヤシ",
    "town": "宮園町",
    "town_kana": "ミヤゾノチョウ",
    "street": null,
    "office_name": null,
    "office_name_kana": null
  },
  "0811": {
    "postcode": "3200811",
    "prefecture": "栃木県",
    "prefecture_kana": "トチギケン",
    "prefecture_code": 9,
    "city": "宇都宮市",
    "city_kana": "ウツノミヤシ",
    "town": "大通り",
    "town_kana": "オオドオリ",
    "street": null,
    "office_name": null,
    "office_name_kana": null
  },
  "0812": {
    "postcode": "3200812",
    "prefecture": "栃木県",
    "prefecture_kana": "トチギケン",
    "prefecture_code": 9,
    "city": "宇都宮市",
    "city_kana": "ウツノミヤシ",
    "town": "一番町",
    "town_kana": "イチバンチョウ",
    "street": null,
    "office_name": null,
    "office_name_kana": null
  },
  "0813": {
    "postcode": "3200813",
    "prefecture": "栃木県",
    "prefecture_kana": "トチギケン",
    "prefecture_code": 9,
    "city": "宇都宮市",
    "city_kana": "ウツノミヤシ",
    "town": "二番町",
    "town_kana": "ニバンチョウ",
    "street": null,
    "office_name": null,
    "office_name_kana": null
  },
  "0814": {
    "postcode": "3200814",
    "prefecture": "栃木県",
    "prefecture_kana": "トチギケン",
    "prefecture_code": 9,
    "city": "宇都宮市",
    "city_kana": "ウツノミヤシ",
    "town": "三番町",
    "town_kana": "サンバンチョウ",
    "street": null,
    "office_name": null,
    "office_name_kana": null
  },
  "0815": {
    "postcode": "3200815",
    "prefecture": "栃木県",
    "prefecture_kana": "トチギケン",
    "prefecture_code": 9,
    "city": "宇都宮市",
    "city_kana": "ウツノミヤシ",
    "town": "中河原町",
    "town_kana": "ナカガワラマチ",
    "street": null,
    "office_name": null,
    "office_name_kana": null
  },
  "0816": {
    "postcode": "3200816",
    "prefecture": "栃木県",
    "prefecture_kana": "トチギケン",
    "prefecture_code": 9,
    "city": "宇都宮市",
    "city_kana": "ウツノミヤシ",
    "town": "天神",
    "town_kana": "テンジン",
    "street": null,
    "office_name": null,
    "office_name_kana": null
  },
  "0817": {
    "postcode": "3200817",
    "prefecture": "栃木県",
    "prefecture_kana": "トチギケン",
    "prefecture_code": 9,
    "city": "宇都宮市",
    "city_kana": "ウツノミヤシ",
    "town": "本丸町",
    "town_kana": "ホンマルチョウ",
    "street": null,
    "office_name": null,
    "office_name_kana": null
  },
  "0818": {
    "postcode": "3200818",
    "prefecture": "栃木県",
    "prefecture_kana": "トチギケン",
    "prefecture_code": 9,
    "city": "宇都宮市",
    "city_kana": "ウツノミヤシ",
    "town": "旭",
    "town_kana": "アサヒ",
    "street": null,
    "office_name": null,
    "office_name_kana": null
  },
  "0821": {
    "postcode": "3200821",
    "prefecture": "栃木県",
    "prefecture_kana": "トチギケン",
    "prefecture_code": 9,
    "city": "宇都宮市",
    "city_kana": "ウツノミヤシ",
    "town": "一条",
    "town_kana": "イチジョウ",
    "street": null,
    "office_name": null,
    "office_name_kana": null
  },
  "0822": {
    "postcode": "3200822",
    "prefecture": "栃木県",
    "prefecture_kana": "トチギケン",
    "prefecture_code": 9,
    "city": "宇都宮市",
    "city_kana": "ウツノミヤシ",
    "town": "河原町",
    "town_kana": "カワラマチ",
    "street": null,
    "office_name": null,
    "office_name_kana": null
  },
  "0823": {
    "postcode": "3200823",
    "prefecture": "栃木県",
    "prefecture_kana": "トチギケン",
    "prefecture_code": 9,
    "city": "宇都宮市",
    "city_kana": "ウツノミヤシ",
    "town": "御蔵町",
    "town_kana": "オクラマチ",
    "street": null,
    "office_name": null,
    "office_name_kana": null
  },
  "0824": {
    "postcode": "3200824",
    "prefecture": "栃木県",
    "prefecture_kana": "トチギケン",
    "prefecture_code": 9,
    "city": "宇都宮市",
    "city_kana": "ウツノミヤシ",
    "town": "下河原",
    "town_kana": "シモガワラ",
    "street": null,
    "office_name": null,
    "office_name_kana": null
  },
  "0825": {
    "postcode": "3200825",
    "prefecture": "栃木県",
    "prefecture_kana": "トチギケン",
    "prefecture_code": 9,
    "city": "宇都宮市",
    "city_kana": "ウツノミヤシ",
    "town": "下河原町",
    "town_kana": "シモガワラマチ",
    "street": null,
    "office_name": null,
    "office_name_kana": null
  },
  "0826": {
    "postcode": "3200826",
    "prefecture": "栃木県",
    "prefecture_kana": "トチギケン",
    "prefecture_code": 9,
    "city": "宇都宮市",
    "city_kana": "ウツノミヤシ",
    "town": "西原町",
    "town_kana": "ニシハラチョウ",
    "street": null,
    "office_name": null,
    "office_name_kana": null
  },
  "0827": {
    "postcode": "3200827",
    "prefecture": "栃木県",
    "prefecture_kana": "トチギケン",
    "prefecture_code": 9,
    "city": "宇都宮市",
    "city_kana": "ウツノミヤシ",
    "town": "花房",
    "town_kana": "ハナブサ",
    "street": null,
    "office_name": null,
    "office_name_kana": null
  },
  "0828": {
    "postcode": "3200828",
    "prefecture": "栃木県",
    "prefecture_kana": "トチギケン",
    "prefecture_code": 9,
    "city": "宇都宮市",
    "city_kana": "ウツノミヤシ",
    "town": "花房本町",
    "town_kana": "ハナブサホンチョウ",
    "street": null,
    "office_name": null,
    "office_name_kana": null
  },
  "0831": {
    "postcode": "3200831",
    "prefecture": "栃木県",
    "prefecture_kana": "トチギケン",
    "prefecture_code": 9,
    "city": "宇都宮市",
    "city_kana": "ウツノミヤシ",
    "town": "新町",
    "town_kana": "シンマチ",
    "street": null,
    "office_name": null,
    "office_name_kana": null
  },
  "0832": {
    "postcode": "3200832",
    "prefecture": "栃木県",
    "prefecture_kana": "トチギケン",
    "prefecture_code": 9,
    "city": "宇都宮市",
    "city_kana": "ウツノミヤシ",
    "town": "日の出",
    "town_kana": "ヒノデ",
    "street": null,
    "office_name": null,
    "office_name_kana": null
  },
  "0833": {
    "postcode": "3200833",
    "prefecture": "栃木県",
    "prefecture_kana": "トチギケン",
    "prefecture_code": 9,
    "city": "宇都宮市",
    "city_kana": "ウツノミヤシ",
    "town": "不動前",
    "town_kana": "フドウマエ",
    "street": null,
    "office_name": null,
    "office_name_kana": null
  },
  "0834": {
    "postcode": "3200834",
    "prefecture": "栃木県",
    "prefecture_kana": "トチギケン",
    "prefecture_code": 9,
    "city": "宇都宮市",
    "city_kana": "ウツノミヤシ",
    "town": "陽南",
    "town_kana": "ヨウナン",
    "street": null,
    "office_name": null,
    "office_name_kana": null
  },
  "0835": {
    "postcode": "3200835",
    "prefecture": "栃木県",
    "prefecture_kana": "トチギケン",
    "prefecture_code": 9,
    "city": "宇都宮市",
    "city_kana": "ウツノミヤシ",
    "town": "宮原",
    "town_kana": "ミヤハラ",
    "street": null,
    "office_name": null,
    "office_name_kana": null
  },
  "0836": {
    "postcode": "3200836",
    "prefecture": "栃木県",
    "prefecture_kana": "トチギケン",
    "prefecture_code": 9,
    "city": "宇都宮市",
    "city_kana": "ウツノミヤシ",
    "town": "大和",
    "town_kana": "ヤマト",
    "street": null,
    "office_name": null,
    "office_name_kana": null
  },
  "0837": {
    "postcode": "3200837",
    "prefecture": "栃木県",
    "prefecture_kana": "トチギケン",
    "prefecture_code": 9,
    "city": "宇都宮市",
    "city_kana": "ウツノミヤシ",
    "town": "弥生",
    "town_kana": "ヤヨイ",
    "street": null,
    "office_name": null,
    "office_name_kana": null
  },
  "0838": {
    "postcode": "3200838",
    "prefecture": "栃木県",
    "prefecture_kana": "トチギケン",
    "prefecture_code": 9,
    "city": "宇都宮市",
    "city_kana": "ウツノミヤシ",
    "town": "吉野",
    "town_kana": "ヨシノ",
    "street": null,
    "office_name": null,
    "office_name_kana": null
  },
  "0841": {
    "postcode": "3200841",
    "prefecture": "栃木県",
    "prefecture_kana": "トチギケン",
    "prefecture_code": 9,
    "city": "宇都宮市",
    "city_kana": "ウツノミヤシ",
    "town": "六道町",
    "town_kana": "ロクドウマチ",
    "street": null,
    "office_name": null,
    "office_name_kana": null
  },
  "0842": {
    "postcode": "3200842",
    "prefecture": "栃木県",
    "prefecture_kana": "トチギケン",
    "prefecture_code": 9,
    "city": "宇都宮市",
    "city_kana": "ウツノミヤシ",
    "town": "京町",
    "town_kana": "キョウマチ",
    "street": null,
    "office_name": null,
    "office_name_kana": null
  },
  "0843": {
    "postcode": "3200843",
    "prefecture": "栃木県",
    "prefecture_kana": "トチギケン",
    "prefecture_code": 9,
    "city": "宇都宮市",
    "city_kana": "ウツノミヤシ",
    "town": "花園町",
    "town_kana": "ハナゾノチョウ",
    "street": null,
    "office_name": null,
    "office_name_kana": null
  },
  "0844": {
    "postcode": "3200844",
    "prefecture": "栃木県",
    "prefecture_kana": "トチギケン",
    "prefecture_code": 9,
    "city": "宇都宮市",
    "city_kana": "ウツノミヤシ",
    "town": "菊水町",
    "town_kana": "キクスイチョウ",
    "street": null,
    "office_name": null,
    "office_name_kana": null
  },
  "0845": {
    "postcode": "3200845",
    "prefecture": "栃木県",
    "prefecture_kana": "トチギケン",
    "prefecture_code": 9,
    "city": "宇都宮市",
    "city_kana": "ウツノミヤシ",
    "town": "明保野町",
    "town_kana": "アケボノチョウ",
    "street": null,
    "office_name": null,
    "office_name_kana": null
  },
  "0846": {
    "postcode": "3200846",
    "prefecture": "栃木県",
    "prefecture_kana": "トチギケン",
    "prefecture_code": 9,
    "city": "宇都宮市",
    "city_kana": "ウツノミヤシ",
    "town": "滝の原",
    "town_kana": "タキノハラ",
    "street": null,
    "office_name": null,
    "office_name_kana": null
  },
  "0847": {
    "postcode": "3200847",
    "prefecture": "栃木県",
    "prefecture_kana": "トチギケン",
    "prefecture_code": 9,
    "city": "宇都宮市",
    "city_kana": "ウツノミヤシ",
    "town": "滝谷町",
    "town_kana": "タキヤチョウ",
    "street": null,
    "office_name": null,
    "office_name_kana": null
  },
  "0848": {
    "postcode": "3200848",
    "prefecture": "栃木県",
    "prefecture_kana": "トチギケン",
    "prefecture_code": 9,
    "city": "宇都宮市",
    "city_kana": "ウツノミヤシ",
    "town": "幸町",
    "town_kana": "サイワイチョウ",
    "street": null,
    "office_name": null,
    "office_name_kana": null
  },
  "0851": {
    "postcode": "3200851",
    "prefecture": "栃木県",
    "prefecture_kana": "トチギケン",
    "prefecture_code": 9,
    "city": "宇都宮市",
    "city_kana": "ウツノミヤシ",
    "town": "鶴田町",
    "town_kana": "ツルタマチ",
    "street": null,
    "office_name": null,
    "office_name_kana": null
  },
  "0852": {
    "postcode": "3200852",
    "prefecture": "栃木県",
    "prefecture_kana": "トチギケン",
    "prefecture_code": 9,
    "city": "宇都宮市",
    "city_kana": "ウツノミヤシ",
    "town": "下砥上町",
    "town_kana": "シモトカミチョウ",
    "street": null,
    "office_name": null,
    "office_name_kana": null
  },
  "0853": {
    "postcode": "3200853",
    "prefecture": "栃木県",
    "prefecture_kana": "トチギケン",
    "prefecture_code": 9,
    "city": "宇都宮市",
    "city_kana": "ウツノミヤシ",
    "town": "下欠町",
    "town_kana": "シモカケマチ",
    "street": null,
    "office_name": null,
    "office_name_kana": null
  },
  "0854": {
    "postcode": "3200854",
    "prefecture": "栃木県",
    "prefecture_kana": "トチギケン",
    "prefecture_code": 9,
    "city": "宇都宮市",
    "city_kana": "ウツノミヤシ",
    "town": "鷺の谷町",
    "town_kana": "サギノヤマチ",
    "street": null,
    "office_name": null,
    "office_name_kana": null
  },
  "0855": {
    "postcode": "3200855",
    "prefecture": "栃木県",
    "prefecture_kana": "トチギケン",
    "prefecture_code": 9,
    "city": "宇都宮市",
    "city_kana": "ウツノミヤシ",
    "town": "上欠町",
    "town_kana": "カミカケマチ",
    "street": null,
    "office_name": null,
    "office_name_kana": null
  },
  "0856": {
    "postcode": "3200856",
    "prefecture": "栃木県",
    "prefecture_kana": "トチギケン",
    "prefecture_code": 9,
    "city": "宇都宮市",
    "city_kana": "ウツノミヤシ",
    "town": "砥上町",
    "town_kana": "トカミチョウ",
    "street": null,
    "office_name": null,
    "office_name_kana": null
  },
  "0857": {
    "postcode": "3200857",
    "prefecture": "栃木県",
    "prefecture_kana": "トチギケン",
    "prefecture_code": 9,
    "city": "宇都宮市",
    "city_kana": "ウツノミヤシ",
    "town": "鶴田",
    "town_kana": "ツルタ",
    "street": null,
    "office_name": null,
    "office_name_kana": null
  },
  "0861": {
    "postcode": "3200861",
    "prefecture": "栃木県",
    "prefecture_kana": "トチギケン",
    "prefecture_code": 9,
    "city": "宇都宮市",
    "city_kana": "ウツノミヤシ",
    "town": "西",
    "town_kana": "ニシ",
    "street": null,
    "office_name": null,
    "office_name_kana": null
  },
  "0862": {
    "postcode": "3200862",
    "prefecture": "栃木県",
    "prefecture_kana": "トチギケン",
    "prefecture_code": 9,
    "city": "宇都宮市",
    "city_kana": "ウツノミヤシ",
    "town": "西原",
    "town_kana": "ニシハラ",
    "street": null,
    "office_name": null,
    "office_name_kana": null
  },
  "0863": {
    "postcode": "3200863",
    "prefecture": "栃木県",
    "prefecture_kana": "トチギケン",
    "prefecture_code": 9,
    "city": "宇都宮市",
    "city_kana": "ウツノミヤシ",
    "town": "操町",
    "town_kana": "ミサオチョウ",
    "street": null,
    "office_name": null,
    "office_name_kana": null
  },
  "0864": {
    "postcode": "3200864",
    "prefecture": "栃木県",
    "prefecture_kana": "トチギケン",
    "prefecture_code": 9,
    "city": "宇都宮市",
    "city_kana": "ウツノミヤシ",
    "town": "住吉町",
    "town_kana": "スミヨシチョウ",
    "street": null,
    "office_name": null,
    "office_name_kana": null
  },
  "0865": {
    "postcode": "3200865",
    "prefecture": "栃木県",
    "prefecture_kana": "トチギケン",
    "prefecture_code": 9,
    "city": "宇都宮市",
    "city_kana": "ウツノミヤシ",
    "town": "睦町",
    "town_kana": "ムツミチョウ",
    "street": null,
    "office_name": null,
    "office_name_kana": null
  },
  "0866": {
    "postcode": "3200866",
    "prefecture": "栃木県",
    "prefecture_kana": "トチギケン",
    "prefecture_code": 9,
    "city": "宇都宮市",
    "city_kana": "ウツノミヤシ",
    "town": "西大寛",
    "town_kana": "ニシダイカン",
    "street": null,
    "office_name": null,
    "office_name_kana": null
  },
  "0867": {
    "postcode": "3200867",
    "prefecture": "栃木県",
    "prefecture_kana": "トチギケン",
    "prefecture_code": 9,
    "city": "宇都宮市",
    "city_kana": "ウツノミヤシ",
    "town": "大寛",
    "town_kana": "ダイカン",
    "street": null,
    "office_name": null,
    "office_name_kana": null
  },
  "8501": {
    "postcode": "3208501",
    "prefecture": "栃木県",
    "prefecture_kana": "トチギケン",
    "prefecture_code": 9,
    "city": "宇都宮市",
    "city_kana": "ウツノミヤシ",
    "town": "塙田",
    "town_kana": "ハナワダ",
    "street": "１丁目１−２０",
    "office_name": "栃木県庁",
    "office_name_kana": "トチギケンチヨウ"
  },
  "8502": {
    "postcode": "3208502",
    "prefecture": "栃木県",
    "prefecture_kana": "トチギケン",
    "prefecture_code": 9,
    "city": "宇都宮市",
    "city_kana": "ウツノミヤシ",
    "town": "中央",
    "town_kana": "チュウオウ",
    "street": "３丁目１−２",
    "office_name": "ＮＨＫ　宇都宮放送局",
    "office_name_kana": "エヌエイチケ- ウツノミヤホウソウキヨク"
  },
  "8503": {
    "postcode": "3208503",
    "prefecture": "栃木県",
    "prefecture_kana": "トチギケン",
    "prefecture_code": 9,
    "city": "宇都宮市",
    "city_kana": "ウツノミヤシ",
    "town": "駒生町",
    "town_kana": "コマニュウマチ",
    "street": "３３３７−１",
    "office_name": "とちぎ健康の森",
    "office_name_kana": "トチギケンコウノモリ"
  },
  "8505": {
    "postcode": "3208505",
    "prefecture": "栃木県",
    "prefecture_kana": "トチギケン",
    "prefecture_code": 9,
    "city": "宇都宮市",
    "city_kana": "ウツノミヤシ",
    "town": "小幡",
    "town_kana": "オバタ",
    "street": "１丁目１−３８",
    "office_name": "宇都宮地方裁判所",
    "office_name_kana": "ウツノミヤチホウサイバンシヨ"
  },
  "8506": {
    "postcode": "3208506",
    "prefecture": "栃木県",
    "prefecture_kana": "トチギケン",
    "prefecture_code": 9,
    "city": "宇都宮市",
    "city_kana": "ウツノミヤシ",
    "town": "京町",
    "town_kana": "キョウマチ",
    "street": "９番３２号",
    "office_name": "栃木県立特別支援学校　宇都宮青葉高等学園",
    "office_name_kana": "トチギケンリツトクベツシエンガツコウ ウツノミヤアオバコウトウガクエン"
  },
  "8507": {
    "postcode": "3208507",
    "prefecture": "栃木県",
    "prefecture_kana": "トチギケン",
    "prefecture_code": 9,
    "city": "宇都宮市",
    "city_kana": "ウツノミヤシ",
    "town": "大通り",
    "town_kana": "オオドオリ",
    "street": "１丁目４−２４",
    "office_name": "住友生命保険　相互会社",
    "office_name_kana": "スミトモセイメイホケン ソウゴガイシヤ"
  },
  "8508": {
    "postcode": "3208508",
    "prefecture": "栃木県",
    "prefecture_kana": "トチギケン",
    "prefecture_code": 9,
    "city": "宇都宮市",
    "city_kana": "ウツノミヤシ",
    "town": "若草",
    "town_kana": "ワカクサ",
    "street": "１丁目１０−６",
    "office_name": "とちぎ福祉プラザ",
    "office_name_kana": "トチギフクシプラザ"
  },
  "8510": {
    "postcode": "3208510",
    "prefecture": "栃木県",
    "prefecture_kana": "トチギケン",
    "prefecture_code": 9,
    "city": "宇都宮市",
    "city_kana": "ウツノミヤシ",
    "town": "塙田",
    "town_kana": "ハナワダ",
    "street": "１丁目１−２０",
    "office_name": "栃木県警察本部",
    "office_name_kana": "トチギケンケイサツホンブ"
  },
  "8511": {
    "postcode": "3208511",
    "prefecture": "栃木県",
    "prefecture_kana": "トチギケン",
    "prefecture_code": 9,
    "city": "宇都宮市",
    "city_kana": "ウツノミヤシ",
    "town": "馬場通り",
    "town_kana": "ババドオリ",
    "street": "４丁目１−１うつのみや表参道スクエア８階",
    "office_name": "東京海上日動火災保険　株式会社　栃木支店",
    "office_name_kana": "トウキヨウカイジヨウニチドウカサイホケン カブシキガイシヤ トチギシテン"
  },
  "8512": {
    "postcode": "3208512",
    "prefecture": "栃木県",
    "prefecture_kana": "トチギケン",
    "prefecture_code": 9,
    "city": "宇都宮市",
    "city_kana": "ウツノミヤシ",
    "town": "昭和",
    "town_kana": "ショウワ",
    "street": "１丁目８−１１",
    "office_name": "株式会社　下野新聞アドセンター",
    "office_name_kana": "カブシキガイシヤ シモツケシンブンアドセンタ-"
  },
  "8514": {
    "postcode": "3208514",
    "prefecture": "栃木県",
    "prefecture_kana": "トチギケン",
    "prefecture_code": 9,
    "city": "宇都宮市",
    "city_kana": "ウツノミヤシ",
    "town": "泉町",
    "town_kana": "イズミチョウ",
    "street": "６−２０宇都宮ＤＩビル７階",
    "office_name": "全国健康保険協会　栃木支部",
    "office_name_kana": "ゼンコクケンコウホケンキヨウカイ トチギシブ"
  },
  "8515": {
    "postcode": "3208515",
    "prefecture": "栃木県",
    "prefecture_kana": "トチギケン",
    "prefecture_code": 9,
    "city": "宇都宮市",
    "city_kana": "ウツノミヤシ",
    "town": "小幡",
    "town_kana": "オバタ",
    "street": "２丁目１−１１",
    "office_name": "宇都宮地方法務局",
    "office_name_kana": "ウツノミヤチホウホウムキヨク"
  },
  "8517": {
    "postcode": "3208517",
    "prefecture": "栃木県",
    "prefecture_kana": "トチギケン",
    "prefecture_code": 9,
    "city": "宇都宮市",
    "city_kana": "ウツノミヤシ",
    "town": "河原町",
    "town_kana": "カワラマチ",
    "street": "１−４読売ビル３Ｆ",
    "office_name": "株式会社　栃木よみうり",
    "office_name_kana": "カブシキガイシヤ トチギヨミウリ"
  },
  "8521": {
    "postcode": "3208521",
    "prefecture": "栃木県",
    "prefecture_kana": "トチギケン",
    "prefecture_code": 9,
    "city": "宇都宮市",
    "city_kana": "ウツノミヤシ",
    "town": "陽南",
    "town_kana": "ヨウナン",
    "street": "４丁目６−３４",
    "office_name": "医療法人　報徳会",
    "office_name_kana": "イリヨウホウジン ホウトクカイ"
  },
  "8522": {
    "postcode": "3208522",
    "prefecture": "栃木県",
    "prefecture_kana": "トチギケン",
    "prefecture_code": 9,
    "city": "宇都宮市",
    "city_kana": "ウツノミヤシ",
    "town": "馬場通り",
    "town_kana": "ババドオリ",
    "street": "２丁目１−１ＮＯＦ宇都宮ビル７階",
    "office_name": "栃木社会保険事務局",
    "office_name_kana": "トチギシヤカイホケンジムキヨク"
  },
  "8523": {
    "postcode": "3208523",
    "prefecture": "栃木県",
    "prefecture_kana": "トチギケン",
    "prefecture_code": 9,
    "city": "宇都宮市",
    "city_kana": "ウツノミヤシ",
    "town": "不動前",
    "town_kana": "フドウマエ",
    "street": "５丁目１−２９",
    "office_name": "栃木日産自動車販売　株式会社",
    "office_name_kana": "トチギニツサンジドウシヤハンバイ カブシキガイシヤ"
  },
  "8525": {
    "postcode": "3208525",
    "prefecture": "栃木県",
    "prefecture_kana": "トチギケン",
    "prefecture_code": 9,
    "city": "宇都宮市",
    "city_kana": "ウツノミヤシ",
    "town": "一の沢",
    "town_kana": "イチノサワ",
    "street": "１丁目１−４１",
    "office_name": "作新学院",
    "office_name_kana": "サクシンガクイン"
  },
  "8528": {
    "postcode": "3208528",
    "prefecture": "栃木県",
    "prefecture_kana": "トチギケン",
    "prefecture_code": 9,
    "city": "宇都宮市",
    "city_kana": "ウツノミヤシ",
    "town": "星が丘",
    "town_kana": "ホシガオカ",
    "street": "２丁目１−８",
    "office_name": "株式会社　コジマ",
    "office_name_kana": "カブシキガイシヤ コジマ"
  },
  "8530": {
    "postcode": "3208530",
    "prefecture": "栃木県",
    "prefecture_kana": "トチギケン",
    "prefecture_code": 9,
    "city": "宇都宮市",
    "city_kana": "ウツノミヤシ",
    "town": "本町",
    "town_kana": "ホンチョウ",
    "street": "１番８号",
    "office_name": "財団法人　とちぎ生涯学習文化財団",
    "office_name_kana": "ザイダンホウジン トチギシヨウガイガクシユウブンカザイダン"
  },
  "8531": {
    "postcode": "3208531",
    "prefecture": "栃木県",
    "prefecture_kana": "トチギケン",
    "prefecture_code": 9,
    "city": "宇都宮市",
    "city_kana": "ウツノミヤシ",
    "town": "昭和",
    "town_kana": "ショウワ",
    "street": "２丁目２−２",
    "office_name": "（株）　とちぎテレビ",
    "office_name_kana": "(カブ) トチギテレビ"
  },
  "8532": {
    "postcode": "3208532",
    "prefecture": "栃木県",
    "prefecture_kana": "トチギケン",
    "prefecture_code": 9,
    "city": "宇都宮市",
    "city_kana": "ウツノミヤシ",
    "town": "桜",
    "town_kana": "サクラ",
    "street": "３丁目１−１０",
    "office_name": "財務省　関東財務局　宇都宮財務事務所",
    "office_name_kana": "ザイムシヨウ カントウザイムキヨク ウツノミヤザイムジムシヨ"
  },
  "8533": {
    "postcode": "3208533",
    "prefecture": "栃木県",
    "prefecture_kana": "トチギケン",
    "prefecture_code": 9,
    "city": "宇都宮市",
    "city_kana": "ウツノミヤシ",
    "town": "大寛",
    "town_kana": "ダイカン",
    "street": "１丁目１",
    "office_name": "宇都宮ビジネス電子専門学校",
    "office_name_kana": "ウツノミヤビジネスデンシセンモンガツコウ"
  },
  "8538": {
    "postcode": "3208538",
    "prefecture": "栃木県",
    "prefecture_kana": "トチギケン",
    "prefecture_code": 9,
    "city": "宇都宮市",
    "city_kana": "ウツノミヤシ",
    "town": "松原",
    "town_kana": "マツバラ",
    "street": "１丁目７−３８",
    "office_name": "宇都宮大学教育学部附属学校",
    "office_name_kana": "ウツノミヤダイガクキヨウイクガクブフゾクガツコウ"
  },
  "8540": {
    "postcode": "3208540",
    "prefecture": "栃木県",
    "prefecture_kana": "トチギケン",
    "prefecture_code": 9,
    "city": "宇都宮市",
    "city_kana": "ウツノミヤシ",
    "town": "旭",
    "town_kana": "アサヒ",
    "street": "１丁目１−５",
    "office_name": "宇都宮市役所",
    "office_name_kana": "ウツノミヤシヤクシヨ"
  },
  "8541": {
    "postcode": "3208541",
    "prefecture": "栃木県",
    "prefecture_kana": "トチギケン",
    "prefecture_code": 9,
    "city": "宇都宮市",
    "city_kana": "ウツノミヤシ",
    "town": "一ノ沢町",
    "town_kana": "イチノサワマチ",
    "street": "２５６番地７",
    "office_name": "トヨタウッドユーホーム　株式会社",
    "office_name_kana": "トヨタウツドユ-ホ-ム カブシキガイシヤ"
  },
  "8543": {
    "postcode": "3208543",
    "prefecture": "栃木県",
    "prefecture_kana": "トチギケン",
    "prefecture_code": 9,
    "city": "宇都宮市",
    "city_kana": "ウツノミヤシ",
    "town": "河原町",
    "town_kana": "カワラマチ",
    "street": "１−４１",
    "office_name": "宇都宮市上下水道局",
    "office_name_kana": "ウツノミヤシジヨウゲスイドウキヨク"
  },
  "8550": {
    "postcode": "3208550",
    "prefecture": "栃木県",
    "prefecture_kana": "トチギケン",
    "prefecture_code": 9,
    "city": "宇都宮市",
    "city_kana": "ウツノミヤシ",
    "town": "中央",
    "town_kana": "チュウオウ",
    "street": "１丁目２−１",
    "office_name": "株式会社　エフエム栃木",
    "office_name_kana": "カブシキガイシヤ エフエムトチギ"
  },
  "8551": {
    "postcode": "3208551",
    "prefecture": "栃木県",
    "prefecture_kana": "トチギケン",
    "prefecture_code": 9,
    "city": "宇都宮市",
    "city_kana": "ウツノミヤシ",
    "town": "豊郷台",
    "town_kana": "トヨサトダイ",
    "street": "１丁目１",
    "office_name": "帝京大学　理工学部",
    "office_name_kana": "テイキヨウダイガク リコウガクブ"
  },
  "8555": {
    "postcode": "3208555",
    "prefecture": "栃木県",
    "prefecture_kana": "トチギケン",
    "prefecture_code": 9,
    "city": "宇都宮市",
    "city_kana": "ウツノミヤシ",
    "town": "下戸祭",
    "town_kana": "シモトマツリ",
    "street": "２丁目１０−２０",
    "office_name": "栃木社会保険事務局　宇都宮西社会保険事務室",
    "office_name_kana": "トチギシヤカイホケンジムキヨク ウツノミヤニシシヤカイホケンジムシツ"
  },
  "8560": {
    "postcode": "3208560",
    "prefecture": "栃木県",
    "prefecture_kana": "トチギケン",
    "prefecture_code": 9,
    "city": "宇都宮市",
    "city_kana": "ウツノミヤシ",
    "town": "宮園町",
    "town_kana": "ミヤゾノチョウ",
    "street": "５−４",
    "office_name": "株式会社　東武宇都宮百貨店",
    "office_name_kana": "カブシキガイシヤ トウブウツノミヤヒヤツカテン"
  },
  "8564": {
    "postcode": "3208564",
    "prefecture": "栃木県",
    "prefecture_kana": "トチギケン",
    "prefecture_code": 9,
    "city": "宇都宮市",
    "city_kana": "ウツノミヤシ",
    "town": "陽南",
    "town_kana": "ヨウナン",
    "street": "１丁目１−１１",
    "office_name": "株式会社　ＳＵＢＡＲＵ　宇都宮製作所",
    "office_name_kana": "カブシキガイシヤ スバル ウツノミヤセイサクシヨ"
  },
  "8566": {
    "postcode": "3208566",
    "prefecture": "栃木県",
    "prefecture_kana": "トチギケン",
    "prefecture_code": 9,
    "city": "宇都宮市",
    "city_kana": "ウツノミヤシ",
    "town": "馬場通り",
    "town_kana": "ババドオリ",
    "street": "３丁目１−１",
    "office_name": "株式会社　パルコ　宇都宮店",
    "office_name_kana": "カブシキガイシヤ パルコ ウツノミヤテン"
  },
  "8570": {
    "postcode": "3208570",
    "prefecture": "栃木県",
    "prefecture_kana": "トチギケン",
    "prefecture_code": 9,
    "city": "宇都宮市",
    "city_kana": "ウツノミヤシ",
    "town": "明保野町",
    "town_kana": "アケボノチョウ",
    "street": "７番６６号",
    "office_name": "（財）　宇都宮市文化会館管理公社",
    "office_name_kana": "(ザイ) ウツノミヤシブンカカイカンカンリコウシヤ"
  },
  "8577": {
    "postcode": "3208577",
    "prefecture": "栃木県",
    "prefecture_kana": "トチギケン",
    "prefecture_code": 9,
    "city": "宇都宮市",
    "city_kana": "ウツノミヤシ",
    "town": "塙田",
    "town_kana": "ハナワダ",
    "street": "１丁目３−１４",
    "office_name": "栃木県社会保険診療報酬支払基金",
    "office_name_kana": "トチギケンシヤカイホケンシンリヨウホウシユウシハライキキン"
  },
  "8580": {
    "postcode": "3208580",
    "prefecture": "栃木県",
    "prefecture_kana": "トチギケン",
    "prefecture_code": 9,
    "city": "宇都宮市",
    "city_kana": "ウツノミヤシ",
    "town": "中戸祭",
    "town_kana": "ナカトマツリ",
    "street": "１丁目１０−３７",
    "office_name": "独立行政法人　国立病院機構　栃木医療センター",
    "office_name_kana": "ドクリツギヨウセイホウジン コクリツビヨウインキコウ トチギイリヨウセンタ-"
  },
  "8585": {
    "postcode": "3208585",
    "prefecture": "栃木県",
    "prefecture_kana": "トチギケン",
    "prefecture_code": 9,
    "city": "宇都宮市",
    "city_kana": "ウツノミヤシ",
    "town": "睦町",
    "town_kana": "ムツミチョウ",
    "street": "１−３５",
    "office_name": "宇都宮短期大学附属高等学校",
    "office_name_kana": "ウツノミヤタンキダイガクフゾクコウトウガツコウ"
  },
  "8588": {
    "postcode": "3208588",
    "prefecture": "栃木県",
    "prefecture_kana": "トチギケン",
    "prefecture_code": 9,
    "city": "宇都宮市",
    "city_kana": "ウツノミヤシ",
    "town": "不動前",
    "town_kana": "フドウマエ",
    "street": "５丁目１−２６",
    "office_name": "栃木トヨペット　株式会社",
    "office_name_kana": "トチギトヨペツト カブシキガイシヤ"
  },
  "8601": {
    "postcode": "3208601",
    "prefecture": "栃木県",
    "prefecture_kana": "トチギケン",
    "prefecture_code": 9,
    "city": "宇都宮市",
    "city_kana": "ウツノミヤシ",
    "town": "本町",
    "town_kana": "ホンチョウ",
    "street": "１２−１１（宇都宮中央郵便局私書箱第６６号）",
    "office_name": "株式会社　栃木放送",
    "office_name_kana": "カブシキガイシヤ トチギホウソウ"
  },
  "8610": {
    "postcode": "3208610",
    "prefecture": "栃木県",
    "prefecture_kana": "トチギケン",
    "prefecture_code": 9,
    "city": "宇都宮市",
    "city_kana": "ウツノミヤシ",
    "town": "桜",
    "town_kana": "サクラ",
    "street": "４丁目１番２５号（宇都宮中央郵便局私書箱第７７号）",
    "office_name": "株式会社　足利銀行",
    "office_name_kana": "カブシキガイシヤ アシカガギンコウ"
  },
  "8611": {
    "postcode": "3208611",
    "prefecture": "栃木県",
    "prefecture_kana": "トチギケン",
    "prefecture_code": 9,
    "city": "宇都宮市",
    "city_kana": "ウツノミヤシ",
    "town": "本町",
    "town_kana": "ホンチョウ",
    "street": "１３−１８（宇都宮中央郵便局私書箱第９２号）",
    "office_name": "大和証券　株式会社　宇都宮支店",
    "office_name_kana": "ダイワシヨウケン カブシキガイシヤ ウツノミヤシテン"
  },
  "8618": {
    "postcode": "3208618",
    "prefecture": "栃木県",
    "prefecture_kana": "トチギケン",
    "prefecture_code": 9,
    "city": "宇都宮市",
    "city_kana": "ウツノミヤシ",
    "town": "中央",
    "town_kana": "チュウオウ",
    "street": "３丁目１番４号（宇都宮中央郵便局私書箱第１８号）",
    "office_name": "栃木県信用保証協会",
    "office_name_kana": "トチギケンシンヨウホシヨウキヨウカイ"
  },
  "8620": {
    "postcode": "3208620",
    "prefecture": "栃木県",
    "prefecture_kana": "トチギケン",
    "prefecture_code": 9,
    "city": "宇都宮市",
    "city_kana": "ウツノミヤシ",
    "town": "大通り",
    "town_kana": "オオドオリ",
    "street": "１丁目４番１６号",
    "office_name": "株式会社　足利銀行　宇都宮中央支店",
    "office_name_kana": "カブシキガイシヤ アシカガギンコウ ウツノミヤチユウオウシテン"
  },
  "8655": {
    "postcode": "3208655",
    "prefecture": "栃木県",
    "prefecture_kana": "トチギケン",
    "prefecture_code": 9,
    "city": "宇都宮市",
    "city_kana": "ウツノミヤシ",
    "town": "昭和",
    "town_kana": "ショウワ",
    "street": "２丁目１−７（宇都宮中央郵便局私書箱第３８号）",
    "office_name": "宇都宮　税務署",
    "office_name_kana": "ウツノミヤ ゼイムシヨ"
  },
  "8668": {
    "postcode": "3208668",
    "prefecture": "栃木県",
    "prefecture_kana": "トチギケン",
    "prefecture_code": 9,
    "city": "宇都宮市",
    "city_kana": "ウツノミヤシ",
    "town": "西",
    "town_kana": "ニシ",
    "street": "１丁目１−１５（宇都宮中央郵便局私書箱第３４号）",
    "office_name": "商工組合　中央金庫　宇都宮支店",
    "office_name_kana": "シヨウコウクミアイ チユウオウキンコ ウツノミヤシテン"
  },
  "8680": {
    "postcode": "3208680",
    "prefecture": "栃木県",
    "prefecture_kana": "トチギケン",
    "prefecture_code": 9,
    "city": "宇都宮市",
    "city_kana": "ウツノミヤシ",
    "town": "西",
    "town_kana": "ニシ",
    "street": "２丁目１番１８号（宇都宮中央郵便局私書箱第３９号）",
    "office_name": "株式会社　栃木銀行",
    "office_name_kana": "カブシキガイシヤ トチギギンコウ"
  },
  "8686": {
    "postcode": "3208686",
    "prefecture": "栃木県",
    "prefecture_kana": "トチギケン",
    "prefecture_code": 9,
    "city": "宇都宮市",
    "city_kana": "ウツノミヤシ",
    "town": "昭和",
    "town_kana": "ショウワ",
    "street": "１丁目８−１１（宇都宮中央郵便局私書箱第３０号）",
    "office_name": "株式会社　下野新聞社",
    "office_name_kana": "カブシキガイシヤ シモツケシンブンシヤ"
  },
  "8688": {
    "postcode": "3208688",
    "prefecture": "栃木県",
    "prefecture_kana": "トチギケン",
    "prefecture_code": 9,
    "city": "宇都宮市",
    "city_kana": "ウツノミヤシ",
    "town": "馬場通り",
    "town_kana": "ババドオリ",
    "street": "１丁目１−２（宇都宮中央郵便局私書箱第１０号）",
    "office_name": "株式会社　足利銀行　宇都宮支店",
    "office_name_kana": "カブシキガイシヤ アシカガギンコウ ウツノミヤシテン"
  }
}