{
  "0000": {
    "postcode": "3220000",
    "prefecture": "栃木県",
    "prefecture_kana": "トチギケン",
    "prefecture_code": 9,
    "city": "鹿沼市",
    "city_kana": "カヌマシ",
    "town": "",
    "town_kana": "",
    "street": null,
    "office_name": null,
    "office_name_kana": null
  },
  "0001": {
    "postcode": "3220001",
    "prefecture": "栃木県",
    "prefecture_kana": "トチギケン",
    "prefecture_code": 9,
    "city": "鹿沼市",
    "city_kana": "カヌマシ",
    "town": "栃窪",
    "town_kana": "トチクボ",
    "street": null,
    "office_name": null,
    "office_name_kana": null
  },
  "0002": {
    "postcode": "3220002",
    "prefecture": "栃木県",
    "prefecture_kana": "トチギケン",
    "prefecture_code": 9,
    "city": "鹿沼市",
    "city_kana": "カヌマシ",
    "town": "千渡",
    "town_kana": "センド",
    "street": null,
    "office_name": null,
    "office_name_kana": null
  },
  "0003": {
    "postcode": "3220003",
    "prefecture": "栃木県",
    "prefecture_kana": "トチギケン",
    "prefecture_code": 9,
    "city": "鹿沼市",
    "city_kana": "カヌマシ",
    "town": "仁神堂町",
    "town_kana": "ニガミドウマチ",
    "street": null,
    "office_name": null,
    "office_name_kana": null
  },
  "0004": {
    "postcode": "3220004",
    "prefecture": "栃木県",
    "prefecture_kana": "トチギケン",
    "prefecture_code": 9,
    "city": "鹿沼市",
    "city_kana": "カヌマシ",
    "town": "下武子町",
    "town_kana": "シモタケシマチ",
    "street": null,
    "office_name": null,
    "office_name_kana": null
  },
  "0005": {
    "postcode": "3220005",
    "prefecture": "栃木県",
    "prefecture_kana": "トチギケン",
    "prefecture_code": 9,
    "city": "鹿沼市",
    "city_kana": "カヌマシ",
    "town": "御成橋町",
    "town_kana": "オナリバシチョウ",
    "street": null,
    "office_name": null,
    "office_name_kana": null
  },
  "0006": {
    "postcode": "3220006",
    "prefecture": "栃木県",
    "prefecture_kana": "トチギケン",
    "prefecture_code": 9,
    "city": "鹿沼市",
    "city_kana": "カヌマシ",
    "town": "富岡",
    "town_kana": "トミオカ",
    "street": null,
    "office_name": null,
    "office_name_kana": null
  },
  "0007": {
    "postcode": "3220007",
    "prefecture": "栃木県",
    "prefecture_kana": "トチギケン",
    "prefecture_code": 9,
    "city": "鹿沼市",
    "city_kana": "カヌマシ",
    "town": "武子",
    "town_kana": "タケシ",
    "street": null,
    "office_name": null,
    "office_name_kana": null
  },
  "0008": {
    "postcode": "3220008",
    "prefecture": "栃木県",
    "prefecture_kana": "トチギケン",
    "prefecture_code": 9,
    "city": "鹿沼市",
    "city_kana": "カヌマシ",
    "town": "古賀志町",
    "town_kana": "コガシマチ",
    "street": null,
    "office_name": null,
    "office_name_kana": null
  },
  "0009": {
    "postcode": "3220009",
    "prefecture": "栃木県",
    "prefecture_kana": "トチギケン",
    "prefecture_code": 9,
    "city": "鹿沼市",
    "city_kana": "カヌマシ",
    "town": "高谷",
    "town_kana": "コウヤ",
    "street": null,
    "office_name": null,
    "office_name_kana": null
  },
  "0011": {
    "postcode": "3220011",
    "prefecture": "栃木県",
    "prefecture_kana": "トチギケン",
    "prefecture_code": 9,
    "city": "鹿沼市",
    "city_kana": "カヌマシ",
    "town": "白桑田",
    "town_kana": "シラクワダ",
    "street": null,
    "office_name": null,
    "office_name_kana": null
  },
  "0012": {
    "postcode": "3220012",
    "prefecture": "栃木県",
    "prefecture_kana": "トチギケン",
    "prefecture_code": 9,
    "city": "鹿沼市",
    "city_kana": "カヌマシ",
    "town": "松原",
    "town_kana": "マツバラ",
    "street": null,
    "office_name": null,
    "office_name_kana": null
  },
  "0013": {
    "postcode": "3220013",
    "prefecture": "栃木県",
    "prefecture_kana": "トチギケン",
    "prefecture_code": 9,
    "city": "鹿沼市",
    "city_kana": "カヌマシ",
    "town": "深津",
    "town_kana": "フカヅ",
    "street": null,
    "office_name": null,
    "office_name_kana": null
  },
  "0014": {
    "postcode": "3220014",
    "prefecture": "栃木県",
    "prefecture_kana": "トチギケン",
    "prefecture_code": 9,
    "city": "鹿沼市",
    "city_kana": "カヌマシ",
    "town": "さつき町",
    "town_kana": "サツキチョウ",
    "street": null,
    "office_name": null,
    "office_name_kana": null
  },
  "0015": {
    "postcode": "3220015",
    "prefecture": "栃木県",
    "prefecture_kana": "トチギケン",
    "prefecture_code": 9,
    "city": "鹿沼市",
    "city_kana": "カヌマシ",
    "town": "上石川",
    "town_kana": "カミイシカワ",
    "street": null,
    "office_name": null,
    "office_name_kana": null
  },
  "0016": {
    "postcode": "3220016",
    "prefecture": "栃木県",
    "prefecture_kana": "トチギケン",
    "prefecture_code": 9,
    "city": "鹿沼市",
    "city_kana": "カヌマシ",
    "town": "流通センター",
    "town_kana": "リュウツウセンター",
    "street": null,
    "office_name": null,
    "office_name_kana": null
  },
  "0017": {
    "postcode": "3220017",
    "prefecture": "栃木県",
    "prefecture_kana": "トチギケン",
    "prefecture_code": 9,
    "city": "鹿沼市",
    "city_kana": "カヌマシ",
    "town": "下石川",
    "town_kana": "シモイシカワ",
    "street": null,
    "office_name": null,
    "office_name_kana": null
  },
  "0018": {
    "postcode": "3220018",
    "prefecture": "栃木県",
    "prefecture_kana": "トチギケン",
    "prefecture_code": 9,
    "city": "鹿沼市",
    "city_kana": "カヌマシ",
    "town": "池ノ森",
    "town_kana": "イケノモリ",
    "street": null,
    "office_name": null,
    "office_name_kana": null
  },
  "0021": {
    "postcode": "3220021",
    "prefecture": "栃木県",
    "prefecture_kana": "トチギケン",
    "prefecture_code": 9,
    "city": "鹿沼市",
    "city_kana": "カヌマシ",
    "town": "上野町",
    "town_kana": "ウワノマチ",
    "street": null,
    "office_name": null,
    "office_name_kana": null
  },
  "0022": {
    "postcode": "3220022",
    "prefecture": "栃木県",
    "prefecture_kana": "トチギケン",
    "prefecture_code": 9,
    "city": "鹿沼市",
    "city_kana": "カヌマシ",
    "town": "東町",
    "town_kana": "アズマチョウ",
    "street": null,
    "office_name": null,
    "office_name_kana": null
  },
  "0023": {
    "postcode": "3220023",
    "prefecture": "栃木県",
    "prefecture_kana": "トチギケン",
    "prefecture_code": 9,
    "city": "鹿沼市",
    "city_kana": "カヌマシ",
    "town": "幸町",
    "town_kana": "サイワイチョウ",
    "street": null,
    "office_name": null,
    "office_name_kana": null
  },
  "0024": {
    "postcode": "3220024",
    "prefecture": "栃木県",
    "prefecture_kana": "トチギケン",
    "prefecture_code": 9,
    "city": "鹿沼市",
    "city_kana": "カヌマシ",
    "town": "晃望台",
    "town_kana": "コウボウダイ",
    "street": null,
    "office_name": null,
    "office_name_kana": null
  },
  "0025": {
    "postcode": "3220025",
    "prefecture": "栃木県",
    "prefecture_kana": "トチギケン",
    "prefecture_code": 9,
    "city": "鹿沼市",
    "city_kana": "カヌマシ",
    "town": "緑町",
    "town_kana": "ミドリチョウ",
    "street": null,
    "office_name": null,
    "office_name_kana": null
  },
  "0026": {
    "postcode": "3220026",
    "prefecture": "栃木県",
    "prefecture_kana": "トチギケン",
    "prefecture_code": 9,
    "city": "鹿沼市",
    "city_kana": "カヌマシ",
    "town": "茂呂",
    "town_kana": "モロ",
    "street": null,
    "office_name": null,
    "office_name_kana": null
  },
  "0027": {
    "postcode": "3220027",
    "prefecture": "栃木県",
    "prefecture_kana": "トチギケン",
    "prefecture_code": 9,
    "city": "鹿沼市",
    "city_kana": "カヌマシ",
    "town": "貝島町",
    "town_kana": "カイジママチ",
    "street": null,
    "office_name": null,
    "office_name_kana": null
  },
  "0028": {
    "postcode": "3220028",
    "prefecture": "栃木県",
    "prefecture_kana": "トチギケン",
    "prefecture_code": 9,
    "city": "鹿沼市",
    "city_kana": "カヌマシ",
    "town": "栄町",
    "town_kana": "サカエチョウ",
    "street": null,
    "office_name": null,
    "office_name_kana": null
  },
  "0029": {
    "postcode": "3220029",
    "prefecture": "栃木県",
    "prefecture_kana": "トチギケン",
    "prefecture_code": 9,
    "city": "鹿沼市",
    "city_kana": "カヌマシ",
    "town": "西茂呂",
    "town_kana": "ニシモロ",
    "street": null,
    "office_name": null,
    "office_name_kana": null
  },
  "0031": {
    "postcode": "3220031",
    "prefecture": "栃木県",
    "prefecture_kana": "トチギケン",
    "prefecture_code": 9,
    "city": "鹿沼市",
    "city_kana": "カヌマシ",
    "town": "睦町",
    "town_kana": "ムツミチョウ",
    "street": null,
    "office_name": null,
    "office_name_kana": null
  },
  "0032": {
    "postcode": "3220032",
    "prefecture": "栃木県",
    "prefecture_kana": "トチギケン",
    "prefecture_code": 9,
    "city": "鹿沼市",
    "city_kana": "カヌマシ",
    "town": "府所本町",
    "town_kana": "フドコロホンチョウ",
    "street": null,
    "office_name": null,
    "office_name_kana": null
  },
  "0033": {
    "postcode": "3220033",
    "prefecture": "栃木県",
    "prefecture_kana": "トチギケン",
    "prefecture_code": 9,
    "city": "鹿沼市",
    "city_kana": "カヌマシ",
    "town": "府所町",
    "town_kana": "フドコロチョウ",
    "street": null,
    "office_name": null,
    "office_name_kana": null
  },
  "0034": {
    "postcode": "3220034",
    "prefecture": "栃木県",
    "prefecture_kana": "トチギケン",
    "prefecture_code": 9,
    "city": "鹿沼市",
    "city_kana": "カヌマシ",
    "town": "府中町",
    "town_kana": "フチュウマチ",
    "street": null,
    "office_name": null,
    "office_name_kana": null
  },
  "0035": {
    "postcode": "3220035",
    "prefecture": "栃木県",
    "prefecture_kana": "トチギケン",
    "prefecture_code": 9,
    "city": "鹿沼市",
    "city_kana": "カヌマシ",
    "town": "朝日町",
    "town_kana": "アサヒチョウ",
    "street": null,
    "office_name": null,
    "office_name_kana": null
  },
  "0036": {
    "postcode": "3220036",
    "prefecture": "栃木県",
    "prefecture_kana": "トチギケン",
    "prefecture_code": 9,
    "city": "鹿沼市",
    "city_kana": "カヌマシ",
    "town": "下田町",
    "town_kana": "シモタマチ",
    "street": null,
    "office_name": null,
    "office_name_kana": null
  },
  "0037": {
    "postcode": "3220037",
    "prefecture": "栃木県",
    "prefecture_kana": "トチギケン",
    "prefecture_code": 9,
    "city": "鹿沼市",
    "city_kana": "カヌマシ",
    "town": "中田町",
    "town_kana": "ナカタマチ",
    "street": null,
    "office_name": null,
    "office_name_kana": null
  },
  "0038": {
    "postcode": "3220038",
    "prefecture": "栃木県",
    "prefecture_kana": "トチギケン",
    "prefecture_code": 9,
    "city": "鹿沼市",
    "city_kana": "カヌマシ",
    "town": "末広町",
    "town_kana": "スエヒロチョウ",
    "street": null,
    "office_name": null,
    "office_name_kana": null
  },
  "0039": {
    "postcode": "3220039",
    "prefecture": "栃木県",
    "prefecture_kana": "トチギケン",
    "prefecture_code": 9,
    "city": "鹿沼市",
    "city_kana": "カヌマシ",
    "town": "東末広町",
    "town_kana": "ヒガシスエヒロチョウ",
    "street": null,
    "office_name": null,
    "office_name_kana": null
  },
  "0041": {
    "postcode": "3220041",
    "prefecture": "栃木県",
    "prefecture_kana": "トチギケン",
    "prefecture_code": 9,
    "city": "鹿沼市",
    "city_kana": "カヌマシ",
    "town": "三幸町",
    "town_kana": "サンコウチョウ",
    "street": null,
    "office_name": null,
    "office_name_kana": null
  },
  "0042": {
    "postcode": "3220042",
    "prefecture": "栃木県",
    "prefecture_kana": "トチギケン",
    "prefecture_code": 9,
    "city": "鹿沼市",
    "city_kana": "カヌマシ",
    "town": "蓬莱町",
    "town_kana": "ホウライチョウ",
    "street": null,
    "office_name": null,
    "office_name_kana": null
  },
  "0043": {
    "postcode": "3220043",
    "prefecture": "栃木県",
    "prefecture_kana": "トチギケン",
    "prefecture_code": 9,
    "city": "鹿沼市",
    "city_kana": "カヌマシ",
    "town": "万町",
    "town_kana": "ヨロズチョウ",
    "street": null,
    "office_name": null,
    "office_name_kana": null
  },
  "0044": {
    "postcode": "3220044",
    "prefecture": "栃木県",
    "prefecture_kana": "トチギケン",
    "prefecture_code": 9,
    "city": "鹿沼市",
    "city_kana": "カヌマシ",
    "town": "鳥居跡町",
    "town_kana": "トリイドチョウ",
    "street": null,
    "office_name": null,
    "office_name_kana": null
  },
  "0045": {
    "postcode": "3220045",
    "prefecture": "栃木県",
    "prefecture_kana": "トチギケン",
    "prefecture_code": 9,
    "city": "鹿沼市",
    "city_kana": "カヌマシ",
    "town": "上殿町",
    "town_kana": "カミドノマチ",
    "street": null,
    "office_name": null,
    "office_name_kana": null
  },
  "0046": {
    "postcode": "3220046",
    "prefecture": "栃木県",
    "prefecture_kana": "トチギケン",
    "prefecture_code": 9,
    "city": "鹿沼市",
    "city_kana": "カヌマシ",
    "town": "樅山町",
    "town_kana": "モミヤママチ",
    "street": null,
    "office_name": null,
    "office_name_kana": null
  },
  "0047": {
    "postcode": "3220047",
    "prefecture": "栃木県",
    "prefecture_kana": "トチギケン",
    "prefecture_code": 9,
    "city": "鹿沼市",
    "city_kana": "カヌマシ",
    "town": "酒野谷",
    "town_kana": "サケノヤ",
    "street": null,
    "office_name": null,
    "office_name_kana": null
  },
  "0048": {
    "postcode": "3220048",
    "prefecture": "栃木県",
    "prefecture_kana": "トチギケン",
    "prefecture_code": 9,
    "city": "鹿沼市",
    "city_kana": "カヌマシ",
    "town": "村井町",
    "town_kana": "ムライマチ",
    "street": null,
    "office_name": null,
    "office_name_kana": null
  },
  "0049": {
    "postcode": "3220049",
    "prefecture": "栃木県",
    "prefecture_kana": "トチギケン",
    "prefecture_code": 9,
    "city": "鹿沼市",
    "city_kana": "カヌマシ",
    "town": "花岡町",
    "town_kana": "ハナオカマチ",
    "street": null,
    "office_name": null,
    "office_name_kana": null
  },
  "0051": {
    "postcode": "3220051",
    "prefecture": "栃木県",
    "prefecture_kana": "トチギケン",
    "prefecture_code": 9,
    "city": "鹿沼市",
    "city_kana": "カヌマシ",
    "town": "久保町",
    "town_kana": "クボチョウ",
    "street": null,
    "office_name": null,
    "office_name_kana": null
  },
  "0052": {
    "postcode": "3220052",
    "prefecture": "栃木県",
    "prefecture_kana": "トチギケン",
    "prefecture_code": 9,
    "city": "鹿沼市",
    "city_kana": "カヌマシ",
    "town": "銀座",
    "town_kana": "ギンザ",
    "street": null,
    "office_name": null,
    "office_name_kana": null
  },
  "0053": {
    "postcode": "3220053",
    "prefecture": "栃木県",
    "prefecture_kana": "トチギケン",
    "prefecture_code": 9,
    "city": "鹿沼市",
    "city_kana": "カヌマシ",
    "town": "仲町",
    "town_kana": "ナカマチ",
    "street": null,
    "office_name": null,
    "office_name_kana": null
  },
  "0054": {
    "postcode": "3220054",
    "prefecture": "栃木県",
    "prefecture_kana": "トチギケン",
    "prefecture_code": 9,
    "city": "鹿沼市",
    "city_kana": "カヌマシ",
    "town": "下横町",
    "town_kana": "シモヨコマチ",
    "street": null,
    "office_name": null,
    "office_name_kana": null
  },
  "0055": {
    "postcode": "3220055",
    "prefecture": "栃木県",
    "prefecture_kana": "トチギケン",
    "prefecture_code": 9,
    "city": "鹿沼市",
    "city_kana": "カヌマシ",
    "town": "石橋町",
    "town_kana": "イシバシチョウ",
    "street": null,
    "office_name": null,
    "office_name_kana": null
  },
  "0056": {
    "postcode": "3220056",
    "prefecture": "栃木県",
    "prefecture_kana": "トチギケン",
    "prefecture_code": 9,
    "city": "鹿沼市",
    "city_kana": "カヌマシ",
    "town": "下材木町",
    "town_kana": "シモザイモクチョウ",
    "street": null,
    "office_name": null,
    "office_name_kana": null
  },
  "0057": {
    "postcode": "3220057",
    "prefecture": "栃木県",
    "prefecture_kana": "トチギケン",
    "prefecture_code": 9,
    "city": "鹿沼市",
    "city_kana": "カヌマシ",
    "town": "寺町",
    "town_kana": "テラマチ",
    "street": null,
    "office_name": null,
    "office_name_kana": null
  },
  "0058": {
    "postcode": "3220058",
    "prefecture": "栃木県",
    "prefecture_kana": "トチギケン",
    "prefecture_code": 9,
    "city": "鹿沼市",
    "city_kana": "カヌマシ",
    "town": "麻苧町",
    "town_kana": "アサウチョウ",
    "street": null,
    "office_name": null,
    "office_name_kana": null
  },
  "0061": {
    "postcode": "3220061",
    "prefecture": "栃木県",
    "prefecture_kana": "トチギケン",
    "prefecture_code": 9,
    "city": "鹿沼市",
    "city_kana": "カヌマシ",
    "town": "千手町",
    "town_kana": "センジュマチ",
    "street": null,
    "office_name": null,
    "office_name_kana": null
  },
  "0062": {
    "postcode": "3220062",
    "prefecture": "栃木県",
    "prefecture_kana": "トチギケン",
    "prefecture_code": 9,
    "city": "鹿沼市",
    "city_kana": "カヌマシ",
    "town": "泉町",
    "town_kana": "イズミチョウ",
    "street": null,
    "office_name": null,
    "office_name_kana": null
  },
  "0063": {
    "postcode": "3220063",
    "prefecture": "栃木県",
    "prefecture_kana": "トチギケン",
    "prefecture_code": 9,
    "city": "鹿沼市",
    "city_kana": "カヌマシ",
    "town": "戸張町",
    "town_kana": "トハリチョウ",
    "street": null,
    "office_name": null,
    "office_name_kana": null
  },
  "0064": {
    "postcode": "3220064",
    "prefecture": "栃木県",
    "prefecture_kana": "トチギケン",
    "prefecture_code": 9,
    "city": "鹿沼市",
    "city_kana": "カヌマシ",
    "town": "文化橋町",
    "town_kana": "ブンカバシチョウ",
    "street": null,
    "office_name": null,
    "office_name_kana": null
  },
  "0065": {
    "postcode": "3220065",
    "prefecture": "栃木県",
    "prefecture_kana": "トチギケン",
    "prefecture_code": 9,
    "city": "鹿沼市",
    "city_kana": "カヌマシ",
    "town": "上材木町",
    "town_kana": "カミザイモクチョウ",
    "street": null,
    "office_name": null,
    "office_name_kana": null
  },
  "0066": {
    "postcode": "3220066",
    "prefecture": "栃木県",
    "prefecture_kana": "トチギケン",
    "prefecture_code": 9,
    "city": "鹿沼市",
    "city_kana": "カヌマシ",
    "town": "上田町",
    "town_kana": "カミタマチ",
    "street": null,
    "office_name": null,
    "office_name_kana": null
  },
  "0067": {
    "postcode": "3220067",
    "prefecture": "栃木県",
    "prefecture_kana": "トチギケン",
    "prefecture_code": 9,
    "city": "鹿沼市",
    "city_kana": "カヌマシ",
    "town": "天神町",
    "town_kana": "テンジンチョウ",
    "street": null,
    "office_name": null,
    "office_name_kana": null
  },
  "0068": {
    "postcode": "3220068",
    "prefecture": "栃木県",
    "prefecture_kana": "トチギケン",
    "prefecture_code": 9,
    "city": "鹿沼市",
    "city_kana": "カヌマシ",
    "town": "今宮町",
    "town_kana": "イマミヤチョウ",
    "street": null,
    "office_name": null,
    "office_name_kana": null
  },
  "0069": {
    "postcode": "3220069",
    "prefecture": "栃木県",
    "prefecture_kana": "トチギケン",
    "prefecture_code": 9,
    "city": "鹿沼市",
    "city_kana": "カヌマシ",
    "town": "坂田山",
    "town_kana": "サカタヤマ",
    "street": null,
    "office_name": null,
    "office_name_kana": null
  },
  "0071": {
    "postcode": "3220071",
    "prefecture": "栃木県",
    "prefecture_kana": "トチギケン",
    "prefecture_code": 9,
    "city": "鹿沼市",
    "city_kana": "カヌマシ",
    "town": "見野",
    "town_kana": "ミノ",
    "street": null,
    "office_name": null,
    "office_name_kana": null
  },
  "0072": {
    "postcode": "3220072",
    "prefecture": "栃木県",
    "prefecture_kana": "トチギケン",
    "prefecture_code": 9,
    "city": "鹿沼市",
    "city_kana": "カヌマシ",
    "town": "玉田町",
    "town_kana": "タマダマチ",
    "street": null,
    "office_name": null,
    "office_name_kana": null
  },
  "0073": {
    "postcode": "3220073",
    "prefecture": "栃木県",
    "prefecture_kana": "トチギケン",
    "prefecture_code": 9,
    "city": "鹿沼市",
    "city_kana": "カヌマシ",
    "town": "西鹿沼町",
    "town_kana": "ニシカヌママチ",
    "street": null,
    "office_name": null,
    "office_name_kana": null
  },
  "0074": {
    "postcode": "3220074",
    "prefecture": "栃木県",
    "prefecture_kana": "トチギケン",
    "prefecture_code": 9,
    "city": "鹿沼市",
    "city_kana": "カヌマシ",
    "town": "日吉町",
    "town_kana": "ヒヨシチョウ",
    "street": null,
    "office_name": null,
    "office_name_kana": null
  },
  "0075": {
    "postcode": "3220075",
    "prefecture": "栃木県",
    "prefecture_kana": "トチギケン",
    "prefecture_code": 9,
    "city": "鹿沼市",
    "city_kana": "カヌマシ",
    "town": "下日向",
    "town_kana": "シモヒナタ",
    "street": null,
    "office_name": null,
    "office_name_kana": null
  },
  "0076": {
    "postcode": "3220076",
    "prefecture": "栃木県",
    "prefecture_kana": "トチギケン",
    "prefecture_code": 9,
    "city": "鹿沼市",
    "city_kana": "カヌマシ",
    "town": "上日向",
    "town_kana": "カミヒナタ",
    "street": null,
    "office_name": null,
    "office_name_kana": null
  },
  "0077": {
    "postcode": "3220077",
    "prefecture": "栃木県",
    "prefecture_kana": "トチギケン",
    "prefecture_code": 9,
    "city": "鹿沼市",
    "city_kana": "カヌマシ",
    "town": "深岩",
    "town_kana": "フカイワ",
    "street": null,
    "office_name": null,
    "office_name_kana": null
  },
  "0078": {
    "postcode": "3220078",
    "prefecture": "栃木県",
    "prefecture_kana": "トチギケン",
    "prefecture_code": 9,
    "city": "鹿沼市",
    "city_kana": "カヌマシ",
    "town": "笹原田",
    "town_kana": "ササハラダ",
    "street": null,
    "office_name": null,
    "office_name_kana": null
  },
  "0079": {
    "postcode": "3220079",
    "prefecture": "栃木県",
    "prefecture_kana": "トチギケン",
    "prefecture_code": 9,
    "city": "鹿沼市",
    "city_kana": "カヌマシ",
    "town": "下遠部",
    "town_kana": "シモトオベ",
    "street": null,
    "office_name": null,
    "office_name_kana": null
  },
  "0101": {
    "postcode": "3220101",
    "prefecture": "栃木県",
    "prefecture_kana": "トチギケン",
    "prefecture_code": 9,
    "city": "鹿沼市",
    "city_kana": "カヌマシ",
    "town": "草久",
    "town_kana": "クサギュウ",
    "street": null,
    "office_name": null,
    "office_name_kana": null
  },
  "0102": {
    "postcode": "3220102",
    "prefecture": "栃木県",
    "prefecture_kana": "トチギケン",
    "prefecture_code": 9,
    "city": "鹿沼市",
    "city_kana": "カヌマシ",
    "town": "上大久保",
    "town_kana": "カミオオクボ",
    "street": null,
    "office_name": null,
    "office_name_kana": null
  },
  "0103": {
    "postcode": "3220103",
    "prefecture": "栃木県",
    "prefecture_kana": "トチギケン",
    "prefecture_code": 9,
    "city": "鹿沼市",
    "city_kana": "カヌマシ",
    "town": "下大久保",
    "town_kana": "シモオオクボ",
    "street": null,
    "office_name": null,
    "office_name_kana": null
  },
  "0251": {
    "postcode": "3220251",
    "prefecture": "栃木県",
    "prefecture_kana": "トチギケン",
    "prefecture_code": 9,
    "city": "鹿沼市",
    "city_kana": "カヌマシ",
    "town": "野尻",
    "town_kana": "ノジリ",
    "street": null,
    "office_name": null,
    "office_name_kana": null
  },
  "0252": {
    "postcode": "3220252",
    "prefecture": "栃木県",
    "prefecture_kana": "トチギケン",
    "prefecture_code": 9,
    "city": "鹿沼市",
    "city_kana": "カヌマシ",
    "town": "加園",
    "town_kana": "カゾノ",
    "street": null,
    "office_name": null,
    "office_name_kana": null
  },
  "0253": {
    "postcode": "3220253",
    "prefecture": "栃木県",
    "prefecture_kana": "トチギケン",
    "prefecture_code": 9,
    "city": "鹿沼市",
    "city_kana": "カヌマシ",
    "town": "下久我",
    "town_kana": "シモクガ",
    "street": null,
    "office_name": null,
    "office_name_kana": null
  },
  "0254": {
    "postcode": "3220254",
    "prefecture": "栃木県",
    "prefecture_kana": "トチギケン",
    "prefecture_code": 9,
    "city": "鹿沼市",
    "city_kana": "カヌマシ",
    "town": "上久我",
    "town_kana": "カミクガ",
    "street": null,
    "office_name": null,
    "office_name_kana": null
  },
  "0255": {
    "postcode": "3220255",
    "prefecture": "栃木県",
    "prefecture_kana": "トチギケン",
    "prefecture_code": 9,
    "city": "鹿沼市",
    "city_kana": "カヌマシ",
    "town": "引田",
    "town_kana": "ヒキダ",
    "street": null,
    "office_name": null,
    "office_name_kana": null
  },
  "0256": {
    "postcode": "3220256",
    "prefecture": "栃木県",
    "prefecture_kana": "トチギケン",
    "prefecture_code": 9,
    "city": "鹿沼市",
    "city_kana": "カヌマシ",
    "town": "下沢",
    "town_kana": "シモザワ",
    "street": null,
    "office_name": null,
    "office_name_kana": null
  },
  "0301": {
    "postcode": "3220301",
    "prefecture": "栃木県",
    "prefecture_kana": "トチギケン",
    "prefecture_code": 9,
    "city": "鹿沼市",
    "city_kana": "カヌマシ",
    "town": "北半田",
    "town_kana": "キタハンダ",
    "street": null,
    "office_name": null,
    "office_name_kana": null
  },
  "0302": {
    "postcode": "3220302",
    "prefecture": "栃木県",
    "prefecture_kana": "トチギケン",
    "prefecture_code": 9,
    "city": "鹿沼市",
    "city_kana": "カヌマシ",
    "town": "深程",
    "town_kana": "フカホド",
    "street": null,
    "office_name": null,
    "office_name_kana": null
  },
  "0303": {
    "postcode": "3220303",
    "prefecture": "栃木県",
    "prefecture_kana": "トチギケン",
    "prefecture_code": 9,
    "city": "鹿沼市",
    "city_kana": "カヌマシ",
    "town": "久野",
    "town_kana": "クノ",
    "street": null,
    "office_name": null,
    "office_name_kana": null
  },
  "0304": {
    "postcode": "3220304",
    "prefecture": "栃木県",
    "prefecture_kana": "トチギケン",
    "prefecture_code": 9,
    "city": "鹿沼市",
    "city_kana": "カヌマシ",
    "town": "柏木",
    "town_kana": "カシワギ",
    "street": null,
    "office_name": null,
    "office_name_kana": null
  },
  "0305": {
    "postcode": "3220305",
    "prefecture": "栃木県",
    "prefecture_kana": "トチギケン",
    "prefecture_code": 9,
    "city": "鹿沼市",
    "city_kana": "カヌマシ",
    "town": "口粟野",
    "town_kana": "クチアワノ",
    "street": null,
    "office_name": null,
    "office_name_kana": null
  },
  "0306": {
    "postcode": "3220306",
    "prefecture": "栃木県",
    "prefecture_kana": "トチギケン",
    "prefecture_code": 9,
    "city": "鹿沼市",
    "city_kana": "カヌマシ",
    "town": "中粟野",
    "town_kana": "ナカアワノ",
    "street": null,
    "office_name": null,
    "office_name_kana": null
  },
  "0307": {
    "postcode": "3220307",
    "prefecture": "栃木県",
    "prefecture_kana": "トチギケン",
    "prefecture_code": 9,
    "city": "鹿沼市",
    "city_kana": "カヌマシ",
    "town": "入粟野",
    "town_kana": "イリアワノ",
    "street": null,
    "office_name": null,
    "office_name_kana": null
  },
  "0341": {
    "postcode": "3220341",
    "prefecture": "栃木県",
    "prefecture_kana": "トチギケン",
    "prefecture_code": 9,
    "city": "鹿沼市",
    "city_kana": "カヌマシ",
    "town": "下南摩町",
    "town_kana": "シモナンママチ",
    "street": null,
    "office_name": null,
    "office_name_kana": null
  },
  "0342": {
    "postcode": "3220342",
    "prefecture": "栃木県",
    "prefecture_kana": "トチギケン",
    "prefecture_code": 9,
    "city": "鹿沼市",
    "city_kana": "カヌマシ",
    "town": "油田町",
    "town_kana": "アブラデンマチ",
    "street": null,
    "office_name": null,
    "office_name_kana": null
  },
  "0343": {
    "postcode": "3220343",
    "prefecture": "栃木県",
    "prefecture_kana": "トチギケン",
    "prefecture_code": 9,
    "city": "鹿沼市",
    "city_kana": "カヌマシ",
    "town": "佐目町",
    "town_kana": "サメマチ",
    "street": null,
    "office_name": null,
    "office_name_kana": null
  },
  "0344": {
    "postcode": "3220344",
    "prefecture": "栃木県",
    "prefecture_kana": "トチギケン",
    "prefecture_code": 9,
    "city": "鹿沼市",
    "city_kana": "カヌマシ",
    "town": "西沢町",
    "town_kana": "ニシザワマチ",
    "street": null,
    "office_name": null,
    "office_name_kana": null
  },
  "0345": {
    "postcode": "3220345",
    "prefecture": "栃木県",
    "prefecture_kana": "トチギケン",
    "prefecture_code": 9,
    "city": "鹿沼市",
    "city_kana": "カヌマシ",
    "town": "旭が丘",
    "town_kana": "アサヒガオカ",
    "street": null,
    "office_name": null,
    "office_name_kana": null
  },
  "0346": {
    "postcode": "3220346",
    "prefecture": "栃木県",
    "prefecture_kana": "トチギケン",
    "prefecture_code": 9,
    "city": "鹿沼市",
    "city_kana": "カヌマシ",
    "town": "上南摩町",
    "town_kana": "カミナンママチ",
    "street": null,
    "office_name": null,
    "office_name_kana": null
  },
  "0393": {
    "postcode": "3220393",
    "prefecture": "栃木県",
    "prefecture_kana": "トチギケン",
    "prefecture_code": 9,
    "city": "鹿沼市",
    "city_kana": "カヌマシ",
    "town": "口粟野",
    "town_kana": "クチアワノ",
    "street": "８３９−２",
    "office_name": "鹿沼市役所　粟野支所",
    "office_name_kana": "カヌマシヤクシヨ アワノシシヨ"
  },
  "0421": {
    "postcode": "3220421",
    "prefecture": "栃木県",
    "prefecture_kana": "トチギケン",
    "prefecture_code": 9,
    "city": "鹿沼市",
    "city_kana": "カヌマシ",
    "town": "下粕尾",
    "town_kana": "シモカスオ",
    "street": null,
    "office_name": null,
    "office_name_kana": null
  },
  "0422": {
    "postcode": "3220422",
    "prefecture": "栃木県",
    "prefecture_kana": "トチギケン",
    "prefecture_code": 9,
    "city": "鹿沼市",
    "city_kana": "カヌマシ",
    "town": "中粕尾",
    "town_kana": "ナカカスオ",
    "street": null,
    "office_name": null,
    "office_name_kana": null
  },
  "0423": {
    "postcode": "3220423",
    "prefecture": "栃木県",
    "prefecture_kana": "トチギケン",
    "prefecture_code": 9,
    "city": "鹿沼市",
    "city_kana": "カヌマシ",
    "town": "上粕尾",
    "town_kana": "カミカスオ",
    "street": null,
    "office_name": null,
    "office_name_kana": null
  },
  "0521": {
    "postcode": "3220521",
    "prefecture": "栃木県",
    "prefecture_kana": "トチギケン",
    "prefecture_code": 9,
    "city": "鹿沼市",
    "city_kana": "カヌマシ",
    "town": "日光奈良部町",
    "town_kana": "ニッコウナラブマチ",
    "street": null,
    "office_name": null,
    "office_name_kana": null
  },
  "0522": {
    "postcode": "3220522",
    "prefecture": "栃木県",
    "prefecture_kana": "トチギケン",
    "prefecture_code": 9,
    "city": "鹿沼市",
    "city_kana": "カヌマシ",
    "town": "上奈良部町",
    "town_kana": "カミナラブマチ",
    "street": null,
    "office_name": null,
    "office_name_kana": null
  },
  "0523": {
    "postcode": "3220523",
    "prefecture": "栃木県",
    "prefecture_kana": "トチギケン",
    "prefecture_code": 9,
    "city": "鹿沼市",
    "city_kana": "カヌマシ",
    "town": "下奈良部町",
    "town_kana": "シモナラブマチ",
    "street": null,
    "office_name": null,
    "office_name_kana": null
  },
  "0524": {
    "postcode": "3220524",
    "prefecture": "栃木県",
    "prefecture_kana": "トチギケン",
    "prefecture_code": 9,
    "city": "鹿沼市",
    "city_kana": "カヌマシ",
    "town": "みなみ町",
    "town_kana": "ミナミチョウ",
    "street": null,
    "office_name": null,
    "office_name_kana": null
  },
  "0525": {
    "postcode": "3220525",
    "prefecture": "栃木県",
    "prefecture_kana": "トチギケン",
    "prefecture_code": 9,
    "city": "鹿沼市",
    "city_kana": "カヌマシ",
    "town": "大和田町",
    "town_kana": "オオワダマチ",
    "street": null,
    "office_name": null,
    "office_name_kana": null
  },
  "0526": {
    "postcode": "3220526",
    "prefecture": "栃木県",
    "prefecture_kana": "トチギケン",
    "prefecture_code": 9,
    "city": "鹿沼市",
    "city_kana": "カヌマシ",
    "town": "楡木町",
    "town_kana": "ニレギマチ",
    "street": null,
    "office_name": null,
    "office_name_kana": null
  },
  "0527": {
    "postcode": "3220527",
    "prefecture": "栃木県",
    "prefecture_kana": "トチギケン",
    "prefecture_code": 9,
    "city": "鹿沼市",
    "city_kana": "カヌマシ",
    "town": "塩山町",
    "town_kana": "シオヤママチ",
    "street": null,
    "office_name": null,
    "office_name_kana": null
  },
  "0528": {
    "postcode": "3220528",
    "prefecture": "栃木県",
    "prefecture_kana": "トチギケン",
    "prefecture_code": 9,
    "city": "鹿沼市",
    "city_kana": "カヌマシ",
    "town": "奈佐原町",
    "town_kana": "ナサハラマチ",
    "street": null,
    "office_name": null,
    "office_name_kana": null
  },
  "0531": {
    "postcode": "3220531",
    "prefecture": "栃木県",
    "prefecture_kana": "トチギケン",
    "prefecture_code": 9,
    "city": "鹿沼市",
    "city_kana": "カヌマシ",
    "town": "南上野町",
    "town_kana": "ミナミウエノマチ",
    "street": null,
    "office_name": null,
    "office_name_kana": null
  },
  "0532": {
    "postcode": "3220532",
    "prefecture": "栃木県",
    "prefecture_kana": "トチギケン",
    "prefecture_code": 9,
    "city": "鹿沼市",
    "city_kana": "カヌマシ",
    "town": "藤江町",
    "town_kana": "フジエマチ",
    "street": null,
    "office_name": null,
    "office_name_kana": null
  },
  "0533": {
    "postcode": "3220533",
    "prefecture": "栃木県",
    "prefecture_kana": "トチギケン",
    "prefecture_code": 9,
    "city": "鹿沼市",
    "city_kana": "カヌマシ",
    "town": "北赤塚町",
    "town_kana": "キタアカヅカマチ",
    "street": null,
    "office_name": null,
    "office_name_kana": null
  },
  "0534": {
    "postcode": "3220534",
    "prefecture": "栃木県",
    "prefecture_kana": "トチギケン",
    "prefecture_code": 9,
    "city": "鹿沼市",
    "city_kana": "カヌマシ",
    "town": "亀和田町",
    "town_kana": "カメワダマチ",
    "street": null,
    "office_name": null,
    "office_name_kana": null
  },
  "0535": {
    "postcode": "3220535",
    "prefecture": "栃木県",
    "prefecture_kana": "トチギケン",
    "prefecture_code": 9,
    "city": "鹿沼市",
    "city_kana": "カヌマシ",
    "town": "野沢町",
    "town_kana": "ノザワマチ",
    "street": null,
    "office_name": null,
    "office_name_kana": null
  },
  "0536": {
    "postcode": "3220536",
    "prefecture": "栃木県",
    "prefecture_kana": "トチギケン",
    "prefecture_code": 9,
    "city": "鹿沼市",
    "city_kana": "カヌマシ",
    "town": "磯町",
    "town_kana": "イソマチ",
    "street": null,
    "office_name": null,
    "office_name_kana": null
  },
  "0601": {
    "postcode": "3220601",
    "prefecture": "栃木県",
    "prefecture_kana": "トチギケン",
    "prefecture_code": 9,
    "city": "栃木市",
    "city_kana": "トチギシ",
    "town": "西方町金崎",
    "town_kana": "ニシカタマチカナサキ",
    "street": null,
    "office_name": null,
    "office_name_kana": null
  },
  "0602": {
    "postcode": "3220602",
    "prefecture": "栃木県",
    "prefecture_kana": "トチギケン",
    "prefecture_code": 9,
    "city": "栃木市",
    "city_kana": "トチギシ",
    "town": "西方町金井",
    "town_kana": "ニシカタマチカナイ",
    "street": null,
    "office_name": null,
    "office_name_kana": null
  },
  "0603": {
    "postcode": "3220603",
    "prefecture": "栃木県",
    "prefecture_kana": "トチギケン",
    "prefecture_code": 9,
    "city": "栃木市",
    "city_kana": "トチギシ",
    "town": "西方町本郷",
    "town_kana": "ニシカタマチホンゴウ",
    "street": null,
    "office_name": null,
    "office_name_kana": null
  },
  "0604": {
    "postcode": "3220604",
    "prefecture": "栃木県",
    "prefecture_kana": "トチギケン",
    "prefecture_code": 9,
    "city": "栃木市",
    "city_kana": "トチギシ",
    "town": "西方町元",
    "town_kana": "ニシカタマチモト",
    "street": null,
    "office_name": null,
    "office_name_kana": null
  },
  "0605": {
    "postcode": "3220605",
    "prefecture": "栃木県",
    "prefecture_kana": "トチギケン",
    "prefecture_code": 9,
    "city": "栃木市",
    "city_kana": "トチギシ",
    "town": "西方町真名子",
    "town_kana": "ニシカタマチマナゴ",
    "street": null,
    "office_name": null,
    "office_name_kana": null
  },
  "0606": {
    "postcode": "3220606",
    "prefecture": "栃木県",
    "prefecture_kana": "トチギケン",
    "prefecture_code": 9,
    "city": "栃木市",
    "city_kana": "トチギシ",
    "town": "西方町本城",
    "town_kana": "ニシカタマチホンジョウ",
    "street": null,
    "office_name": null,
    "office_name_kana": null
  },
  "0692": {
    "postcode": "3220692",
    "prefecture": "栃木県",
    "prefecture_kana": "トチギケン",
    "prefecture_code": 9,
    "city": "栃木市",
    "city_kana": "トチギシ",
    "town": "西方町本城",
    "town_kana": "ニシカタマチホンジョウ",
    "street": "１番地",
    "office_name": "栃木市役所　西方総合支所",
    "office_name_kana": "トチギシヤクシヨ ニシカタソウゴウシシヨ"
  },
  "8501": {
    "postcode": "3228501",
    "prefecture": "栃木県",
    "prefecture_kana": "トチギケン",
    "prefecture_code": 9,
    "city": "鹿沼市",
    "city_kana": "カヌマシ",
    "town": "さつき町",
    "town_kana": "サツキチョウ",
    "street": "１８",
    "office_name": "デクセリアルズ　株式会社　鹿沼事業所　第１工場",
    "office_name_kana": "デクセリアルズ カブシキガイシヤ カヌマジギヨウシヨ ダイイチコウジヨウ"
  },
  "8502": {
    "postcode": "3228502",
    "prefecture": "栃木県",
    "prefecture_kana": "トチギケン",
    "prefecture_code": 9,
    "city": "鹿沼市",
    "city_kana": "カヌマシ",
    "town": "さつき町",
    "town_kana": "サツキチョウ",
    "street": "１２−３",
    "office_name": "デクセリアルズ　株式会社　鹿沼事業所　第２工場",
    "office_name_kana": "デクセリアルズ カブシキガイシヤ カヌマジギヨウシヨ ダイニコウジヨウ"
  },
  "8503": {
    "postcode": "3228503",
    "prefecture": "栃木県",
    "prefecture_kana": "トチギケン",
    "prefecture_code": 9,
    "city": "鹿沼市",
    "city_kana": "カヌマシ",
    "town": "上石川",
    "town_kana": "カミイシカワ",
    "street": "１０７８",
    "office_name": "デクセリアルズ　株式会社　鹿沼事業所　第３工場",
    "office_name_kana": "デクセリアルズ カブシキガイシヤ カヌマジギヨウシヨ ダイサンコウジヨウ"
  },
  "8511": {
    "postcode": "3228511",
    "prefecture": "栃木県",
    "prefecture_kana": "トチギケン",
    "prefecture_code": 9,
    "city": "鹿沼市",
    "city_kana": "カヌマシ",
    "town": "さつき町",
    "town_kana": "サツキチョウ",
    "street": "１７",
    "office_name": "株式会社　ＪＳＰ　鹿沼工場",
    "office_name_kana": "カブシキガイシヤ ジエイエスピ- カヌマコウジヨウ"
  },
  "8550": {
    "postcode": "3228550",
    "prefecture": "栃木県",
    "prefecture_kana": "トチギケン",
    "prefecture_code": 9,
    "city": "鹿沼市",
    "city_kana": "カヌマシ",
    "town": "下田町",
    "town_kana": "シモタマチ",
    "street": "１丁目１０３３",
    "office_name": "上都賀厚生農業協同組合連合会　上都賀病院",
    "office_name_kana": "カミツガコウセイノウギヨウキヨウドウクミアイレンゴウカイ カミツガビヨウイン"
  },
  "8555": {
    "postcode": "3228555",
    "prefecture": "栃木県",
    "prefecture_kana": "トチギケン",
    "prefecture_code": 9,
    "city": "鹿沼市",
    "city_kana": "カヌマシ",
    "town": "流通センター",
    "town_kana": "リュウツウセンター",
    "street": "２７",
    "office_name": "株式会社　東京インテリア家具　本部情報商品センター",
    "office_name_kana": "カブシキガイシヤ トウキヨウインテリアカグ ホンブジヨウホウシヨウヒンセンタ-"
  },
  "8585": {
    "postcode": "3228585",
    "prefecture": "栃木県",
    "prefecture_kana": "トチギケン",
    "prefecture_code": 9,
    "city": "鹿沼市",
    "city_kana": "カヌマシ",
    "town": "さつき町",
    "town_kana": "サツキチョウ",
    "street": "３−３",
    "office_name": "住友電工電子ワイヤー　株式会社",
    "office_name_kana": "スミトモデンコウデンシワイヤ- カブシキガイシヤ"
  },
  "8588": {
    "postcode": "3228588",
    "prefecture": "栃木県",
    "prefecture_kana": "トチギケン",
    "prefecture_code": 9,
    "city": "鹿沼市",
    "city_kana": "カヌマシ",
    "town": "流通センター",
    "town_kana": "リュウツウセンター",
    "street": "５８",
    "office_name": "株式会社　関口",
    "office_name_kana": "カブシキガイシヤ セキグチ"
  },
  "8601": {
    "postcode": "3228601",
    "prefecture": "栃木県",
    "prefecture_kana": "トチギケン",
    "prefecture_code": 9,
    "city": "鹿沼市",
    "city_kana": "カヌマシ",
    "town": "今宮町",
    "town_kana": "イマミヤチョウ",
    "street": "１６８８−１（鹿沼郵便局私書箱第４号）",
    "office_name": "鹿沼市役所",
    "office_name_kana": "カヌマシヤクシヨ"
  },
  "8603": {
    "postcode": "3228603",
    "prefecture": "栃木県",
    "prefecture_kana": "トチギケン",
    "prefecture_code": 9,
    "city": "鹿沼市",
    "city_kana": "カヌマシ",
    "town": "東末広町",
    "town_kana": "ヒガシスエヒロチョウ",
    "street": "１９３４−２４",
    "office_name": "鹿沼　税務署",
    "office_name_kana": "カヌマ ゼイムシヨ"
  },
  "8666": {
    "postcode": "3228666",
    "prefecture": "栃木県",
    "prefecture_kana": "トチギケン",
    "prefecture_code": 9,
    "city": "鹿沼市",
    "city_kana": "カヌマシ",
    "town": "下日向",
    "town_kana": "シモヒナタ",
    "street": "７００",
    "office_name": "株式会社　ナカニシ",
    "office_name_kana": "カブシキガイシヤ ナカニシ"
  },
  "8688": {
    "postcode": "3228688",
    "prefecture": "栃木県",
    "prefecture_kana": "トチギケン",
    "prefecture_code": 9,
    "city": "鹿沼市",
    "city_kana": "カヌマシ",
    "town": "御成橋町",
    "town_kana": "オナリバシチョウ",
    "street": "１丁目２００５−２（鹿沼郵便局私書箱第４５号）",
    "office_name": "株式会社　栃の葉書房",
    "office_name_kana": "カブシキガイシヤ トチノハシヨボウ"
  }
}