{
  "0000": {
    "postcode": "3240000",
    "prefecture": "栃木県",
    "prefecture_kana": "トチギケン",
    "prefecture_code": 9,
    "city": "大田原市",
    "city_kana": "オオタワラシ",
    "town": "",
    "town_kana": "",
    "street": null,
    "office_name": null,
    "office_name_kana": null
  },
  "0001": {
    "postcode": "3240001",
    "prefecture": "栃木県",
    "prefecture_kana": "トチギケン",
    "prefecture_code": 9,
    "city": "大田原市",
    "city_kana": "オオタワラシ",
    "town": "乙連沢",
    "town_kana": "オトレザワ",
    "street": null,
    "office_name": null,
    "office_name_kana": null
  },
  "0002": {
    "postcode": "3240002",
    "prefecture": "栃木県",
    "prefecture_kana": "トチギケン",
    "prefecture_code": 9,
    "city": "大田原市",
    "city_kana": "オオタワラシ",
    "town": "羽田",
    "town_kana": "ハンダ",
    "street": null,
    "office_name": null,
    "office_name_kana": null
  },
  "0003": {
    "postcode": "3240003",
    "prefecture": "栃木県",
    "prefecture_kana": "トチギケン",
    "prefecture_code": 9,
    "city": "大田原市",
    "city_kana": "オオタワラシ",
    "town": "小滝",
    "town_kana": "コダキ",
    "street": null,
    "office_name": null,
    "office_name_kana": null
  },
  "0004": {
    "postcode": "3240004",
    "prefecture": "栃木県",
    "prefecture_kana": "トチギケン",
    "prefecture_code": 9,
    "city": "大田原市",
    "city_kana": "オオタワラシ",
    "town": "富池",
    "town_kana": "トミイケ",
    "street": null,
    "office_name": null,
    "office_name_kana": null
  },
  "0005": {
    "postcode": "3240005",
    "prefecture": "栃木県",
    "prefecture_kana": "トチギケン",
    "prefecture_code": 9,
    "city": "大田原市",
    "city_kana": "オオタワラシ",
    "town": "練貫",
    "town_kana": "ネリヌキ",
    "street": null,
    "office_name": null,
    "office_name_kana": null
  },
  "0006": {
    "postcode": "3240006",
    "prefecture": "栃木県",
    "prefecture_kana": "トチギケン",
    "prefecture_code": 9,
    "city": "大田原市",
    "city_kana": "オオタワラシ",
    "town": "市野沢",
    "town_kana": "イチノサワ",
    "street": null,
    "office_name": null,
    "office_name_kana": null
  },
  "0011": {
    "postcode": "3240011",
    "prefecture": "栃木県",
    "prefecture_kana": "トチギケン",
    "prefecture_code": 9,
    "city": "大田原市",
    "city_kana": "オオタワラシ",
    "town": "北金丸",
    "town_kana": "キタカネマル",
    "street": null,
    "office_name": null,
    "office_name_kana": null
  },
  "0012": {
    "postcode": "3240012",
    "prefecture": "栃木県",
    "prefecture_kana": "トチギケン",
    "prefecture_code": 9,
    "city": "大田原市",
    "city_kana": "オオタワラシ",
    "town": "南金丸",
    "town_kana": "ミナミカネマル",
    "street": null,
    "office_name": null,
    "office_name_kana": null
  },
  "0013": {
    "postcode": "3240013",
    "prefecture": "栃木県",
    "prefecture_kana": "トチギケン",
    "prefecture_code": 9,
    "city": "大田原市",
    "city_kana": "オオタワラシ",
    "town": "鹿畑",
    "town_kana": "カバタ",
    "street": null,
    "office_name": null,
    "office_name_kana": null
  },
  "0014": {
    "postcode": "3240014",
    "prefecture": "栃木県",
    "prefecture_kana": "トチギケン",
    "prefecture_code": 9,
    "city": "大田原市",
    "city_kana": "オオタワラシ",
    "town": "倉骨",
    "town_kana": "クラホネ",
    "street": null,
    "office_name": null,
    "office_name_kana": null
  },
  "0015": {
    "postcode": "3240015",
    "prefecture": "栃木県",
    "prefecture_kana": "トチギケン",
    "prefecture_code": 9,
    "city": "大田原市",
    "city_kana": "オオタワラシ",
    "town": "赤瀬",
    "town_kana": "アカゼ",
    "street": null,
    "office_name": null,
    "office_name_kana": null
  },
  "0016": {
    "postcode": "3240016",
    "prefecture": "栃木県",
    "prefecture_kana": "トチギケン",
    "prefecture_code": 9,
    "city": "大田原市",
    "city_kana": "オオタワラシ",
    "town": "北大和久",
    "town_kana": "キタオオワグ",
    "street": null,
    "office_name": null,
    "office_name_kana": null
  },
  "0017": {
    "postcode": "3240017",
    "prefecture": "栃木県",
    "prefecture_kana": "トチギケン",
    "prefecture_code": 9,
    "city": "大田原市",
    "city_kana": "オオタワラシ",
    "town": "奥沢",
    "town_kana": "オクサワ",
    "street": null,
    "office_name": null,
    "office_name_kana": null
  },
  "0018": {
    "postcode": "3240018",
    "prefecture": "栃木県",
    "prefecture_kana": "トチギケン",
    "prefecture_code": 9,
    "city": "大田原市",
    "city_kana": "オオタワラシ",
    "town": "上奥沢",
    "town_kana": "カミオクサワ",
    "street": null,
    "office_name": null,
    "office_name_kana": null
  },
  "0021": {
    "postcode": "3240021",
    "prefecture": "栃木県",
    "prefecture_kana": "トチギケン",
    "prefecture_code": 9,
    "city": "大田原市",
    "city_kana": "オオタワラシ",
    "town": "若草",
    "town_kana": "ワカクサ",
    "street": null,
    "office_name": null,
    "office_name_kana": null
  },
  "0022": {
    "postcode": "3240022",
    "prefecture": "栃木県",
    "prefecture_kana": "トチギケン",
    "prefecture_code": 9,
    "city": "大田原市",
    "city_kana": "オオタワラシ",
    "town": "宇田川",
    "town_kana": "ウダガワ",
    "street": null,
    "office_name": null,
    "office_name_kana": null
  },
  "0023": {
    "postcode": "3240023",
    "prefecture": "栃木県",
    "prefecture_kana": "トチギケン",
    "prefecture_code": 9,
    "city": "大田原市",
    "city_kana": "オオタワラシ",
    "town": "花園",
    "town_kana": "ハナゾノ",
    "street": null,
    "office_name": null,
    "office_name_kana": null
  },
  "0024": {
    "postcode": "3240024",
    "prefecture": "栃木県",
    "prefecture_kana": "トチギケン",
    "prefecture_code": 9,
    "city": "大田原市",
    "city_kana": "オオタワラシ",
    "town": "福原",
    "town_kana": "フクワラ",
    "street": null,
    "office_name": null,
    "office_name_kana": null
  },
  "0025": {
    "postcode": "3240025",
    "prefecture": "栃木県",
    "prefecture_kana": "トチギケン",
    "prefecture_code": 9,
    "city": "大田原市",
    "city_kana": "オオタワラシ",
    "town": "大神",
    "town_kana": "オオガミ",
    "street": null,
    "office_name": null,
    "office_name_kana": null
  },
  "0026": {
    "postcode": "3240026",
    "prefecture": "栃木県",
    "prefecture_kana": "トチギケン",
    "prefecture_code": 9,
    "city": "大田原市",
    "city_kana": "オオタワラシ",
    "town": "滝岡",
    "town_kana": "タキオカ",
    "street": null,
    "office_name": null,
    "office_name_kana": null
  },
  "0027": {
    "postcode": "3240027",
    "prefecture": "栃木県",
    "prefecture_kana": "トチギケン",
    "prefecture_code": 9,
    "city": "大田原市",
    "city_kana": "オオタワラシ",
    "town": "荻野目",
    "town_kana": "オギノメ",
    "street": null,
    "office_name": null,
    "office_name_kana": null
  },
  "0028": {
    "postcode": "3240028",
    "prefecture": "栃木県",
    "prefecture_kana": "トチギケン",
    "prefecture_code": 9,
    "city": "大田原市",
    "city_kana": "オオタワラシ",
    "town": "富士見",
    "town_kana": "フジミ",
    "street": null,
    "office_name": null,
    "office_name_kana": null
  },
  "0031": {
    "postcode": "3240031",
    "prefecture": "栃木県",
    "prefecture_kana": "トチギケン",
    "prefecture_code": 9,
    "city": "大田原市",
    "city_kana": "オオタワラシ",
    "town": "藤沢",
    "town_kana": "フジサワ",
    "street": null,
    "office_name": null,
    "office_name_kana": null
  },
  "0032": {
    "postcode": "3240032",
    "prefecture": "栃木県",
    "prefecture_kana": "トチギケン",
    "prefecture_code": 9,
    "city": "大田原市",
    "city_kana": "オオタワラシ",
    "town": "佐久山",
    "town_kana": "サクヤマ",
    "street": null,
    "office_name": null,
    "office_name_kana": null
  },
  "0033": {
    "postcode": "3240033",
    "prefecture": "栃木県",
    "prefecture_kana": "トチギケン",
    "prefecture_code": 9,
    "city": "大田原市",
    "city_kana": "オオタワラシ",
    "town": "滝沢",
    "town_kana": "タキザワ",
    "street": null,
    "office_name": null,
    "office_name_kana": null
  },
  "0034": {
    "postcode": "3240034",
    "prefecture": "栃木県",
    "prefecture_kana": "トチギケン",
    "prefecture_code": 9,
    "city": "大田原市",
    "city_kana": "オオタワラシ",
    "town": "平沢",
    "town_kana": "ヒラサワ",
    "street": null,
    "office_name": null,
    "office_name_kana": null
  },
  "0035": {
    "postcode": "3240035",
    "prefecture": "栃木県",
    "prefecture_kana": "トチギケン",
    "prefecture_code": 9,
    "city": "大田原市",
    "city_kana": "オオタワラシ",
    "town": "薄葉",
    "town_kana": "ウスバ",
    "street": null,
    "office_name": null,
    "office_name_kana": null
  },
  "0036": {
    "postcode": "3240036",
    "prefecture": "栃木県",
    "prefecture_kana": "トチギケン",
    "prefecture_code": 9,
    "city": "大田原市",
    "city_kana": "オオタワラシ",
    "town": "下石上",
    "town_kana": "シモイシガミ",
    "street": null,
    "office_name": null,
    "office_name_kana": null
  },
  "0037": {
    "postcode": "3240037",
    "prefecture": "栃木県",
    "prefecture_kana": "トチギケン",
    "prefecture_code": 9,
    "city": "大田原市",
    "city_kana": "オオタワラシ",
    "town": "上石上",
    "town_kana": "カミイシガミ",
    "street": null,
    "office_name": null,
    "office_name_kana": null
  },
  "0038": {
    "postcode": "3240038",
    "prefecture": "栃木県",
    "prefecture_kana": "トチギケン",
    "prefecture_code": 9,
    "city": "大田原市",
    "city_kana": "オオタワラシ",
    "town": "野崎",
    "town_kana": "ノザキ",
    "street": null,
    "office_name": null,
    "office_name_kana": null
  },
  "0041": {
    "postcode": "3240041",
    "prefecture": "栃木県",
    "prefecture_kana": "トチギケン",
    "prefecture_code": 9,
    "city": "大田原市",
    "city_kana": "オオタワラシ",
    "town": "本町",
    "town_kana": "ホンチョウ",
    "street": null,
    "office_name": null,
    "office_name_kana": null
  },
  "0042": {
    "postcode": "3240042",
    "prefecture": "栃木県",
    "prefecture_kana": "トチギケン",
    "prefecture_code": 9,
    "city": "大田原市",
    "city_kana": "オオタワラシ",
    "town": "末広",
    "town_kana": "スエヒロ",
    "street": null,
    "office_name": null,
    "office_name_kana": null
  },
  "0043": {
    "postcode": "3240043",
    "prefecture": "栃木県",
    "prefecture_kana": "トチギケン",
    "prefecture_code": 9,
    "city": "大田原市",
    "city_kana": "オオタワラシ",
    "town": "浅香",
    "town_kana": "アサカ",
    "street": null,
    "office_name": null,
    "office_name_kana": null
  },
  "0044": {
    "postcode": "3240044",
    "prefecture": "栃木県",
    "prefecture_kana": "トチギケン",
    "prefecture_code": 9,
    "city": "大田原市",
    "city_kana": "オオタワラシ",
    "town": "親園",
    "town_kana": "チカソノ",
    "street": null,
    "office_name": null,
    "office_name_kana": null
  },
  "0045": {
    "postcode": "3240045",
    "prefecture": "栃木県",
    "prefecture_kana": "トチギケン",
    "prefecture_code": 9,
    "city": "大田原市",
    "city_kana": "オオタワラシ",
    "town": "実取",
    "town_kana": "ミドリ",
    "street": null,
    "office_name": null,
    "office_name_kana": null
  },
  "0046": {
    "postcode": "3240046",
    "prefecture": "栃木県",
    "prefecture_kana": "トチギケン",
    "prefecture_code": 9,
    "city": "大田原市",
    "city_kana": "オオタワラシ",
    "town": "加治屋",
    "town_kana": "カジヤ",
    "street": null,
    "office_name": null,
    "office_name_kana": null
  },
  "0047": {
    "postcode": "3240047",
    "prefecture": "栃木県",
    "prefecture_kana": "トチギケン",
    "prefecture_code": 9,
    "city": "大田原市",
    "city_kana": "オオタワラシ",
    "town": "美原",
    "town_kana": "ミハラ",
    "street": null,
    "office_name": null,
    "office_name_kana": null
  },
  "0051": {
    "postcode": "3240051",
    "prefecture": "栃木県",
    "prefecture_kana": "トチギケン",
    "prefecture_code": 9,
    "city": "大田原市",
    "city_kana": "オオタワラシ",
    "town": "山の手",
    "town_kana": "ヤマノテ",
    "street": null,
    "office_name": null,
    "office_name_kana": null
  },
  "0052": {
    "postcode": "3240052",
    "prefecture": "栃木県",
    "prefecture_kana": "トチギケン",
    "prefecture_code": 9,
    "city": "大田原市",
    "city_kana": "オオタワラシ",
    "town": "城山",
    "town_kana": "シロヤマ",
    "street": null,
    "office_name": null,
    "office_name_kana": null
  },
  "0053": {
    "postcode": "3240053",
    "prefecture": "栃木県",
    "prefecture_kana": "トチギケン",
    "prefecture_code": 9,
    "city": "大田原市",
    "city_kana": "オオタワラシ",
    "town": "元町",
    "town_kana": "モトマチ",
    "street": null,
    "office_name": null,
    "office_name_kana": null
  },
  "0054": {
    "postcode": "3240054",
    "prefecture": "栃木県",
    "prefecture_kana": "トチギケン",
    "prefecture_code": 9,
    "city": "大田原市",
    "city_kana": "オオタワラシ",
    "town": "若松町",
    "town_kana": "ワカマツチョウ",
    "street": null,
    "office_name": null,
    "office_name_kana": null
  },
  "0055": {
    "postcode": "3240055",
    "prefecture": "栃木県",
    "prefecture_kana": "トチギケン",
    "prefecture_code": 9,
    "city": "大田原市",
    "city_kana": "オオタワラシ",
    "town": "新富町",
    "town_kana": "シントミチョウ",
    "street": null,
    "office_name": null,
    "office_name_kana": null
  },
  "0056": {
    "postcode": "3240056",
    "prefecture": "栃木県",
    "prefecture_kana": "トチギケン",
    "prefecture_code": 9,
    "city": "大田原市",
    "city_kana": "オオタワラシ",
    "town": "中央",
    "town_kana": "チュウオウ",
    "street": null,
    "office_name": null,
    "office_name_kana": null
  },
  "0057": {
    "postcode": "3240057",
    "prefecture": "栃木県",
    "prefecture_kana": "トチギケン",
    "prefecture_code": 9,
    "city": "大田原市",
    "city_kana": "オオタワラシ",
    "town": "住吉町",
    "town_kana": "スミヨシチョウ",
    "street": null,
    "office_name": null,
    "office_name_kana": null
  },
  "0058": {
    "postcode": "3240058",
    "prefecture": "栃木県",
    "prefecture_kana": "トチギケン",
    "prefecture_code": 9,
    "city": "大田原市",
    "city_kana": "オオタワラシ",
    "town": "紫塚",
    "town_kana": "ムラサキヅカ",
    "street": null,
    "office_name": null,
    "office_name_kana": null
  },
  "0061": {
    "postcode": "3240061",
    "prefecture": "栃木県",
    "prefecture_kana": "トチギケン",
    "prefecture_code": 9,
    "city": "大田原市",
    "city_kana": "オオタワラシ",
    "town": "荒井",
    "town_kana": "アライ",
    "street": null,
    "office_name": null,
    "office_name_kana": null
  },
  "0062": {
    "postcode": "3240062",
    "prefecture": "栃木県",
    "prefecture_kana": "トチギケン",
    "prefecture_code": 9,
    "city": "大田原市",
    "city_kana": "オオタワラシ",
    "town": "中田原",
    "town_kana": "ナカダワラ",
    "street": null,
    "office_name": null,
    "office_name_kana": null
  },
  "0063": {
    "postcode": "3240063",
    "prefecture": "栃木県",
    "prefecture_kana": "トチギケン",
    "prefecture_code": 9,
    "city": "大田原市",
    "city_kana": "オオタワラシ",
    "town": "町島",
    "town_kana": "マチジマ",
    "street": null,
    "office_name": null,
    "office_name_kana": null
  },
  "0064": {
    "postcode": "3240064",
    "prefecture": "栃木県",
    "prefecture_kana": "トチギケン",
    "prefecture_code": 9,
    "city": "大田原市",
    "city_kana": "オオタワラシ",
    "town": "今泉",
    "town_kana": "イマイズミ",
    "street": null,
    "office_name": null,
    "office_name_kana": null
  },
  "0065": {
    "postcode": "3240065",
    "prefecture": "栃木県",
    "prefecture_kana": "トチギケン",
    "prefecture_code": 9,
    "city": "大田原市",
    "city_kana": "オオタワラシ",
    "town": "岡",
    "town_kana": "オカ",
    "street": null,
    "office_name": null,
    "office_name_kana": null
  },
  "0066": {
    "postcode": "3240066",
    "prefecture": "栃木県",
    "prefecture_kana": "トチギケン",
    "prefecture_code": 9,
    "city": "大田原市",
    "city_kana": "オオタワラシ",
    "town": "戸野内",
    "town_kana": "トノウチ",
    "street": null,
    "office_name": null,
    "office_name_kana": null
  },
  "0201": {
    "postcode": "3240201",
    "prefecture": "栃木県",
    "prefecture_kana": "トチギケン",
    "prefecture_code": 9,
    "city": "大田原市",
    "city_kana": "オオタワラシ",
    "town": "両郷",
    "town_kana": "リョウゴウ",
    "street": null,
    "office_name": null,
    "office_name_kana": null
  },
  "0202": {
    "postcode": "3240202",
    "prefecture": "栃木県",
    "prefecture_kana": "トチギケン",
    "prefecture_code": 9,
    "city": "大田原市",
    "city_kana": "オオタワラシ",
    "town": "木佐美",
    "town_kana": "キザミ",
    "street": null,
    "office_name": null,
    "office_name_kana": null
  },
  "0203": {
    "postcode": "3240203",
    "prefecture": "栃木県",
    "prefecture_kana": "トチギケン",
    "prefecture_code": 9,
    "city": "大田原市",
    "city_kana": "オオタワラシ",
    "town": "寺宿",
    "town_kana": "テラジュク",
    "street": null,
    "office_name": null,
    "office_name_kana": null
  },
  "0204": {
    "postcode": "3240204",
    "prefecture": "栃木県",
    "prefecture_kana": "トチギケン",
    "prefecture_code": 9,
    "city": "大田原市",
    "city_kana": "オオタワラシ",
    "town": "大久保",
    "town_kana": "オオクボ",
    "street": null,
    "office_name": null,
    "office_name_kana": null
  },
  "0205": {
    "postcode": "3240205",
    "prefecture": "栃木県",
    "prefecture_kana": "トチギケン",
    "prefecture_code": 9,
    "city": "大田原市",
    "city_kana": "オオタワラシ",
    "town": "久野又",
    "town_kana": "クノマタ",
    "street": null,
    "office_name": null,
    "office_name_kana": null
  },
  "0206": {
    "postcode": "3240206",
    "prefecture": "栃木県",
    "prefecture_kana": "トチギケン",
    "prefecture_code": 9,
    "city": "大田原市",
    "city_kana": "オオタワラシ",
    "town": "中野内",
    "town_kana": "ナカノウチ",
    "street": null,
    "office_name": null,
    "office_name_kana": null
  },
  "0207": {
    "postcode": "3240207",
    "prefecture": "栃木県",
    "prefecture_kana": "トチギケン",
    "prefecture_code": 9,
    "city": "大田原市",
    "city_kana": "オオタワラシ",
    "town": "河原",
    "town_kana": "カワラ",
    "street": null,
    "office_name": null,
    "office_name_kana": null
  },
  "0208": {
    "postcode": "3240208",
    "prefecture": "栃木県",
    "prefecture_kana": "トチギケン",
    "prefecture_code": 9,
    "city": "大田原市",
    "city_kana": "オオタワラシ",
    "town": "川田",
    "town_kana": "カワダ",
    "street": null,
    "office_name": null,
    "office_name_kana": null
  },
  "0211": {
    "postcode": "3240211",
    "prefecture": "栃木県",
    "prefecture_kana": "トチギケン",
    "prefecture_code": 9,
    "city": "大田原市",
    "city_kana": "オオタワラシ",
    "town": "須賀川",
    "town_kana": "スカガワ",
    "street": null,
    "office_name": null,
    "office_name_kana": null
  },
  "0212": {
    "postcode": "3240212",
    "prefecture": "栃木県",
    "prefecture_kana": "トチギケン",
    "prefecture_code": 9,
    "city": "大田原市",
    "city_kana": "オオタワラシ",
    "town": "須佐木",
    "town_kana": "スサギ",
    "street": null,
    "office_name": null,
    "office_name_kana": null
  },
  "0213": {
    "postcode": "3240213",
    "prefecture": "栃木県",
    "prefecture_kana": "トチギケン",
    "prefecture_code": 9,
    "city": "大田原市",
    "city_kana": "オオタワラシ",
    "town": "雲岩寺",
    "town_kana": "ウンガンジ",
    "street": null,
    "office_name": null,
    "office_name_kana": null
  },
  "0214": {
    "postcode": "3240214",
    "prefecture": "栃木県",
    "prefecture_kana": "トチギケン",
    "prefecture_code": 9,
    "city": "大田原市",
    "city_kana": "オオタワラシ",
    "town": "川上",
    "town_kana": "カワカミ",
    "street": null,
    "office_name": null,
    "office_name_kana": null
  },
  "0215": {
    "postcode": "3240215",
    "prefecture": "栃木県",
    "prefecture_kana": "トチギケン",
    "prefecture_code": 9,
    "city": "大田原市",
    "city_kana": "オオタワラシ",
    "town": "南方",
    "town_kana": "ナンボウ",
    "street": null,
    "office_name": null,
    "office_name_kana": null
  },
  "0221": {
    "postcode": "3240221",
    "prefecture": "栃木県",
    "prefecture_kana": "トチギケン",
    "prefecture_code": 9,
    "city": "大田原市",
    "city_kana": "オオタワラシ",
    "town": "亀久",
    "town_kana": "カメヒサ",
    "street": null,
    "office_name": null,
    "office_name_kana": null
  },
  "0222": {
    "postcode": "3240222",
    "prefecture": "栃木県",
    "prefecture_kana": "トチギケン",
    "prefecture_code": 9,
    "city": "大田原市",
    "city_kana": "オオタワラシ",
    "town": "矢倉",
    "town_kana": "ヤグラ",
    "street": null,
    "office_name": null,
    "office_name_kana": null
  },
  "0223": {
    "postcode": "3240223",
    "prefecture": "栃木県",
    "prefecture_kana": "トチギケン",
    "prefecture_code": 9,
    "city": "大田原市",
    "city_kana": "オオタワラシ",
    "town": "片田",
    "town_kana": "カタタ",
    "street": null,
    "office_name": null,
    "office_name_kana": null
  },
  "0224": {
    "postcode": "3240224",
    "prefecture": "栃木県",
    "prefecture_kana": "トチギケン",
    "prefecture_code": 9,
    "city": "大田原市",
    "city_kana": "オオタワラシ",
    "town": "北滝",
    "town_kana": "キタタキ",
    "street": null,
    "office_name": null,
    "office_name_kana": null
  },
  "0231": {
    "postcode": "3240231",
    "prefecture": "栃木県",
    "prefecture_kana": "トチギケン",
    "prefecture_code": 9,
    "city": "大田原市",
    "city_kana": "オオタワラシ",
    "town": "北野上",
    "town_kana": "キタノガミ",
    "street": null,
    "office_name": null,
    "office_name_kana": null
  },
  "0232": {
    "postcode": "3240232",
    "prefecture": "栃木県",
    "prefecture_kana": "トチギケン",
    "prefecture_code": 9,
    "city": "大田原市",
    "city_kana": "オオタワラシ",
    "town": "八塩",
    "town_kana": "ヤシオ",
    "street": null,
    "office_name": null,
    "office_name_kana": null
  },
  "0233": {
    "postcode": "3240233",
    "prefecture": "栃木県",
    "prefecture_kana": "トチギケン",
    "prefecture_code": 9,
    "city": "大田原市",
    "city_kana": "オオタワラシ",
    "town": "黒羽田町",
    "town_kana": "クロバネタマチ",
    "street": null,
    "office_name": null,
    "office_name_kana": null
  },
  "0234": {
    "postcode": "3240234",
    "prefecture": "栃木県",
    "prefecture_kana": "トチギケン",
    "prefecture_code": 9,
    "city": "大田原市",
    "city_kana": "オオタワラシ",
    "town": "前田",
    "town_kana": "マエタ",
    "street": null,
    "office_name": null,
    "office_name_kana": null
  },
  "0235": {
    "postcode": "3240235",
    "prefecture": "栃木県",
    "prefecture_kana": "トチギケン",
    "prefecture_code": 9,
    "city": "大田原市",
    "city_kana": "オオタワラシ",
    "town": "堀之内",
    "town_kana": "ホリノウチ",
    "street": null,
    "office_name": null,
    "office_name_kana": null
  },
  "0236": {
    "postcode": "3240236",
    "prefecture": "栃木県",
    "prefecture_kana": "トチギケン",
    "prefecture_code": 9,
    "city": "大田原市",
    "city_kana": "オオタワラシ",
    "town": "大輪",
    "town_kana": "オオワ",
    "street": null,
    "office_name": null,
    "office_name_kana": null
  },
  "0241": {
    "postcode": "3240241",
    "prefecture": "栃木県",
    "prefecture_kana": "トチギケン",
    "prefecture_code": 9,
    "city": "大田原市",
    "city_kana": "オオタワラシ",
    "town": "黒羽向町",
    "town_kana": "クロバネムコウマチ",
    "street": null,
    "office_name": null,
    "office_name_kana": null
  },
  "0242": {
    "postcode": "3240242",
    "prefecture": "栃木県",
    "prefecture_kana": "トチギケン",
    "prefecture_code": 9,
    "city": "大田原市",
    "city_kana": "オオタワラシ",
    "town": "大豆田",
    "town_kana": "オオマメダ",
    "street": null,
    "office_name": null,
    "office_name_kana": null
  },
  "0243": {
    "postcode": "3240243",
    "prefecture": "栃木県",
    "prefecture_kana": "トチギケン",
    "prefecture_code": 9,
    "city": "大田原市",
    "city_kana": "オオタワラシ",
    "town": "余瀬",
    "town_kana": "ヨゼ",
    "street": null,
    "office_name": null,
    "office_name_kana": null
  },
  "0244": {
    "postcode": "3240244",
    "prefecture": "栃木県",
    "prefecture_kana": "トチギケン",
    "prefecture_code": 9,
    "city": "大田原市",
    "city_kana": "オオタワラシ",
    "town": "蜂巣",
    "town_kana": "ハチス",
    "street": null,
    "office_name": null,
    "office_name_kana": null
  },
  "0245": {
    "postcode": "3240245",
    "prefecture": "栃木県",
    "prefecture_kana": "トチギケン",
    "prefecture_code": 9,
    "city": "大田原市",
    "city_kana": "オオタワラシ",
    "town": "桧木沢",
    "town_kana": "ヒノキザワ",
    "street": null,
    "office_name": null,
    "office_name_kana": null
  },
  "0246": {
    "postcode": "3240246",
    "prefecture": "栃木県",
    "prefecture_kana": "トチギケン",
    "prefecture_code": 9,
    "city": "大田原市",
    "city_kana": "オオタワラシ",
    "town": "寒井",
    "town_kana": "サブイ",
    "street": null,
    "office_name": null,
    "office_name_kana": null
  },
  "0292": {
    "postcode": "3240292",
    "prefecture": "栃木県",
    "prefecture_kana": "トチギケン",
    "prefecture_code": 9,
    "city": "大田原市",
    "city_kana": "オオタワラシ",
    "town": "黒羽田町",
    "town_kana": "クロバネタマチ",
    "street": "８４８",
    "office_name": "大田原市役所　黒羽支所",
    "office_name_kana": "オオタワラシヤクシヨ クロバネシシヨ"
  },
  "0293": {
    "postcode": "3240293",
    "prefecture": "栃木県",
    "prefecture_kana": "トチギケン",
    "prefecture_code": 9,
    "city": "大田原市",
    "city_kana": "オオタワラシ",
    "town": "寒井",
    "town_kana": "サブイ",
    "street": "１４６６−２",
    "office_name": "黒羽刑務所",
    "office_name_kana": "クロバネケイムシヨ"
  },
  "0401": {
    "postcode": "3240401",
    "prefecture": "栃木県",
    "prefecture_kana": "トチギケン",
    "prefecture_code": 9,
    "city": "大田原市",
    "city_kana": "オオタワラシ",
    "town": "狭原",
    "town_kana": "セバハラ",
    "street": null,
    "office_name": null,
    "office_name_kana": null
  },
  "0402": {
    "postcode": "3240402",
    "prefecture": "栃木県",
    "prefecture_kana": "トチギケン",
    "prefecture_code": 9,
    "city": "大田原市",
    "city_kana": "オオタワラシ",
    "town": "小船渡",
    "town_kana": "コブナト",
    "street": null,
    "office_name": null,
    "office_name_kana": null
  },
  "0403": {
    "postcode": "3240403",
    "prefecture": "栃木県",
    "prefecture_kana": "トチギケン",
    "prefecture_code": 9,
    "city": "大田原市",
    "city_kana": "オオタワラシ",
    "town": "湯津上",
    "town_kana": "ユヅカミ",
    "street": null,
    "office_name": null,
    "office_name_kana": null
  },
  "0404": {
    "postcode": "3240404",
    "prefecture": "栃木県",
    "prefecture_kana": "トチギケン",
    "prefecture_code": 9,
    "city": "大田原市",
    "city_kana": "オオタワラシ",
    "town": "佐良土",
    "town_kana": "サラド",
    "street": null,
    "office_name": null,
    "office_name_kana": null
  },
  "0405": {
    "postcode": "3240405",
    "prefecture": "栃木県",
    "prefecture_kana": "トチギケン",
    "prefecture_code": 9,
    "city": "大田原市",
    "city_kana": "オオタワラシ",
    "town": "中の原",
    "town_kana": "ナカノハラ",
    "street": null,
    "office_name": null,
    "office_name_kana": null
  },
  "0411": {
    "postcode": "3240411",
    "prefecture": "栃木県",
    "prefecture_kana": "トチギケン",
    "prefecture_code": 9,
    "city": "大田原市",
    "city_kana": "オオタワラシ",
    "town": "蛭畑",
    "town_kana": "ヒルハタ",
    "street": null,
    "office_name": null,
    "office_name_kana": null
  },
  "0412": {
    "postcode": "3240412",
    "prefecture": "栃木県",
    "prefecture_kana": "トチギケン",
    "prefecture_code": 9,
    "city": "大田原市",
    "city_kana": "オオタワラシ",
    "town": "蛭田",
    "town_kana": "ヒルタ",
    "street": null,
    "office_name": null,
    "office_name_kana": null
  },
  "0413": {
    "postcode": "3240413",
    "prefecture": "栃木県",
    "prefecture_kana": "トチギケン",
    "prefecture_code": 9,
    "city": "大田原市",
    "city_kana": "オオタワラシ",
    "town": "新宿",
    "town_kana": "アラジュク",
    "street": null,
    "office_name": null,
    "office_name_kana": null
  },
  "0414": {
    "postcode": "3240414",
    "prefecture": "栃木県",
    "prefecture_kana": "トチギケン",
    "prefecture_code": 9,
    "city": "大田原市",
    "city_kana": "オオタワラシ",
    "town": "片府田",
    "town_kana": "カタフタ",
    "street": null,
    "office_name": null,
    "office_name_kana": null
  },
  "0415": {
    "postcode": "3240415",
    "prefecture": "栃木県",
    "prefecture_kana": "トチギケン",
    "prefecture_code": 9,
    "city": "大田原市",
    "city_kana": "オオタワラシ",
    "town": "品川",
    "town_kana": "シナガワ",
    "street": null,
    "office_name": null,
    "office_name_kana": null
  },
  "0492": {
    "postcode": "3240492",
    "prefecture": "栃木県",
    "prefecture_kana": "トチギケン",
    "prefecture_code": 9,
    "city": "大田原市",
    "city_kana": "オオタワラシ",
    "town": "湯津上",
    "town_kana": "ユヅカミ",
    "street": "５−１０８１",
    "office_name": "大田原市役所　湯津上庁舎",
    "office_name_kana": "オオタワラシヤクシヨ ユヅカミチヨウシヤ"
  },
  "0501": {
    "postcode": "3240501",
    "prefecture": "栃木県",
    "prefecture_kana": "トチギケン",
    "prefecture_code": 9,
    "city": "那須郡那珂川町",
    "city_kana": "ナスグンナカガワマチ",
    "town": "小川",
    "town_kana": "オガワ",
    "street": null,
    "office_name": null,
    "office_name_kana": null
  },
  "0502": {
    "postcode": "3240502",
    "prefecture": "栃木県",
    "prefecture_kana": "トチギケン",
    "prefecture_code": 9,
    "city": "那須郡那珂川町",
    "city_kana": "ナスグンナカガワマチ",
    "town": "三輪",
    "town_kana": "ミワ",
    "street": null,
    "office_name": null,
    "office_name_kana": null
  },
  "0503": {
    "postcode": "3240503",
    "prefecture": "栃木県",
    "prefecture_kana": "トチギケン",
    "prefecture_code": 9,
    "city": "那須郡那珂川町",
    "city_kana": "ナスグンナカガワマチ",
    "town": "恩田",
    "town_kana": "オンダ",
    "street": null,
    "office_name": null,
    "office_name_kana": null
  },
  "0504": {
    "postcode": "3240504",
    "prefecture": "栃木県",
    "prefecture_kana": "トチギケン",
    "prefecture_code": 9,
    "city": "那須郡那珂川町",
    "city_kana": "ナスグンナカガワマチ",
    "town": "薬利",
    "town_kana": "クズリ",
    "street": null,
    "office_name": null,
    "office_name_kana": null
  },
  "0505": {
    "postcode": "3240505",
    "prefecture": "栃木県",
    "prefecture_kana": "トチギケン",
    "prefecture_code": 9,
    "city": "那須郡那珂川町",
    "city_kana": "ナスグンナカガワマチ",
    "town": "芳井",
    "town_kana": "ヨシイ",
    "street": null,
    "office_name": null,
    "office_name_kana": null
  },
  "0506": {
    "postcode": "3240506",
    "prefecture": "栃木県",
    "prefecture_kana": "トチギケン",
    "prefecture_code": 9,
    "city": "那須郡那珂川町",
    "city_kana": "ナスグンナカガワマチ",
    "town": "浄法寺",
    "town_kana": "ジョウホウジ",
    "street": null,
    "office_name": null,
    "office_name_kana": null
  },
  "0511": {
    "postcode": "3240511",
    "prefecture": "栃木県",
    "prefecture_kana": "トチギケン",
    "prefecture_code": 9,
    "city": "那須郡那珂川町",
    "city_kana": "ナスグンナカガワマチ",
    "town": "吉田",
    "town_kana": "ヨシダ",
    "street": null,
    "office_name": null,
    "office_name_kana": null
  },
  "0512": {
    "postcode": "3240512",
    "prefecture": "栃木県",
    "prefecture_kana": "トチギケン",
    "prefecture_code": 9,
    "city": "那須郡那珂川町",
    "city_kana": "ナスグンナカガワマチ",
    "town": "谷田",
    "town_kana": "ヤダ",
    "street": null,
    "office_name": null,
    "office_name_kana": null
  },
  "0513": {
    "postcode": "3240513",
    "prefecture": "栃木県",
    "prefecture_kana": "トチギケン",
    "prefecture_code": 9,
    "city": "那須郡那珂川町",
    "city_kana": "ナスグンナカガワマチ",
    "town": "白久",
    "town_kana": "シラク",
    "street": null,
    "office_name": null,
    "office_name_kana": null
  },
  "0514": {
    "postcode": "3240514",
    "prefecture": "栃木県",
    "prefecture_kana": "トチギケン",
    "prefecture_code": 9,
    "city": "那須郡那珂川町",
    "city_kana": "ナスグンナカガワマチ",
    "town": "高岡",
    "town_kana": "タカオカ",
    "street": null,
    "office_name": null,
    "office_name_kana": null
  },
  "0515": {
    "postcode": "3240515",
    "prefecture": "栃木県",
    "prefecture_kana": "トチギケン",
    "prefecture_code": 9,
    "city": "那須郡那珂川町",
    "city_kana": "ナスグンナカガワマチ",
    "town": "片平",
    "town_kana": "カタヒラ",
    "street": null,
    "office_name": null,
    "office_name_kana": null
  },
  "0516": {
    "postcode": "3240516",
    "prefecture": "栃木県",
    "prefecture_kana": "トチギケン",
    "prefecture_code": 9,
    "city": "那須郡那珂川町",
    "city_kana": "ナスグンナカガワマチ",
    "town": "東戸田",
    "town_kana": "ヒガシトダ",
    "street": null,
    "office_name": null,
    "office_name_kana": null
  },
  "0592": {
    "postcode": "3240592",
    "prefecture": "栃木県",
    "prefecture_kana": "トチギケン",
    "prefecture_code": 9,
    "city": "那須郡那珂川町",
    "city_kana": "ナスグンナカガワマチ",
    "town": "吉田",
    "town_kana": "ヨシダ",
    "street": "２８",
    "office_name": "株式会社　吉野工業所　那須小川工場",
    "office_name_kana": "カブシキガイシヤ ヨシノコウギヨウシヨ ナスオガワコウジヨウ"
  },
  "0593": {
    "postcode": "3240593",
    "prefecture": "栃木県",
    "prefecture_kana": "トチギケン",
    "prefecture_code": 9,
    "city": "那須郡那珂川町",
    "city_kana": "ナスグンナカガワマチ",
    "town": "小川",
    "town_kana": "オガワ",
    "street": "３４１５",
    "office_name": "株式会社　吉野工業所　小川第二工場",
    "office_name_kana": "カブシキガイシヤ ヨシノコウギヨウシヨ オガワダイニコウジヨウ"
  },
  "0594": {
    "postcode": "3240594",
    "prefecture": "栃木県",
    "prefecture_kana": "トチギケン",
    "prefecture_code": 9,
    "city": "那須郡那珂川町",
    "city_kana": "ナスグンナカガワマチ",
    "town": "小川",
    "town_kana": "オガワ",
    "street": "３４１５",
    "office_name": "株式会社　吉野工業所　小川金型工場",
    "office_name_kana": "カブシキガイシヤ ヨシノコウギヨウシヨ オガワカナガタコウジヨウ"
  },
  "0595": {
    "postcode": "3240595",
    "prefecture": "栃木県",
    "prefecture_kana": "トチギケン",
    "prefecture_code": 9,
    "city": "那須郡那珂川町",
    "city_kana": "ナスグンナカガワマチ",
    "town": "小川",
    "town_kana": "オガワ",
    "street": "２８１４−１",
    "office_name": "那珂川町役場　小川支所",
    "office_name_kana": "ナカガワマチヤクバ オガワシシヨ"
  },
  "0596": {
    "postcode": "3240596",
    "prefecture": "栃木県",
    "prefecture_kana": "トチギケン",
    "prefecture_code": 9,
    "city": "那須郡那珂川町",
    "city_kana": "ナスグンナカガワマチ",
    "town": "三輪",
    "town_kana": "ミワ",
    "street": "１２８３",
    "office_name": "那須小川ゴルフクラブ",
    "office_name_kana": "ナスオガワゴルフクラブ"
  },
  "0600": {
    "postcode": "3240600",
    "prefecture": "栃木県",
    "prefecture_kana": "トチギケン",
    "prefecture_code": 9,
    "city": "那須郡那珂川町",
    "city_kana": "ナスグンナカガワマチ",
    "town": "",
    "town_kana": "",
    "street": null,
    "office_name": null,
    "office_name_kana": null
  },
  "0601": {
    "postcode": "3240601",
    "prefecture": "栃木県",
    "prefecture_kana": "トチギケン",
    "prefecture_code": 9,
    "city": "那須郡那珂川町",
    "city_kana": "ナスグンナカガワマチ",
    "town": "大山田上郷",
    "town_kana": "オオヤマダカミゴウ",
    "street": null,
    "office_name": null,
    "office_name_kana": null
  },
  "0602": {
    "postcode": "3240602",
    "prefecture": "栃木県",
    "prefecture_kana": "トチギケン",
    "prefecture_code": 9,
    "city": "那須郡那珂川町",
    "city_kana": "ナスグンナカガワマチ",
    "town": "大山田下郷",
    "town_kana": "オオヤマダシモゴウ",
    "street": null,
    "office_name": null,
    "office_name_kana": null
  },
  "0603": {
    "postcode": "3240603",
    "prefecture": "栃木県",
    "prefecture_kana": "トチギケン",
    "prefecture_code": 9,
    "city": "那須郡那珂川町",
    "city_kana": "ナスグンナカガワマチ",
    "town": "谷川",
    "town_kana": "ヤカワ",
    "street": null,
    "office_name": null,
    "office_name_kana": null
  },
  "0604": {
    "postcode": "3240604",
    "prefecture": "栃木県",
    "prefecture_kana": "トチギケン",
    "prefecture_code": 9,
    "city": "那須郡那珂川町",
    "city_kana": "ナスグンナカガワマチ",
    "town": "盛泉",
    "town_kana": "モリイズミ",
    "street": null,
    "office_name": null,
    "office_name_kana": null
  },
  "0605": {
    "postcode": "3240605",
    "prefecture": "栃木県",
    "prefecture_kana": "トチギケン",
    "prefecture_code": 9,
    "city": "那須郡那珂川町",
    "city_kana": "ナスグンナカガワマチ",
    "town": "大内",
    "town_kana": "オオウチ",
    "street": null,
    "office_name": null,
    "office_name_kana": null
  },
  "0606": {
    "postcode": "3240606",
    "prefecture": "栃木県",
    "prefecture_kana": "トチギケン",
    "prefecture_code": 9,
    "city": "那須郡那珂川町",
    "city_kana": "ナスグンナカガワマチ",
    "town": "大那地",
    "town_kana": "オオナチ",
    "street": null,
    "office_name": null,
    "office_name_kana": null
  },
  "0607": {
    "postcode": "3240607",
    "prefecture": "栃木県",
    "prefecture_kana": "トチギケン",
    "prefecture_code": 9,
    "city": "那須郡那珂川町",
    "city_kana": "ナスグンナカガワマチ",
    "town": "矢又",
    "town_kana": "ヤマタ",
    "street": null,
    "office_name": null,
    "office_name_kana": null
  },
  "0608": {
    "postcode": "3240608",
    "prefecture": "栃木県",
    "prefecture_kana": "トチギケン",
    "prefecture_code": 9,
    "city": "那須郡那珂川町",
    "city_kana": "ナスグンナカガワマチ",
    "town": "健武",
    "town_kana": "タケブ",
    "street": null,
    "office_name": null,
    "office_name_kana": null
  },
  "0611": {
    "postcode": "3240611",
    "prefecture": "栃木県",
    "prefecture_kana": "トチギケン",
    "prefecture_code": 9,
    "city": "那須郡那珂川町",
    "city_kana": "ナスグンナカガワマチ",
    "town": "小砂",
    "town_kana": "コイサゴ",
    "street": null,
    "office_name": null,
    "office_name_kana": null
  },
  "0612": {
    "postcode": "3240612",
    "prefecture": "栃木県",
    "prefecture_kana": "トチギケン",
    "prefecture_code": 9,
    "city": "那須郡那珂川町",
    "city_kana": "ナスグンナカガワマチ",
    "town": "和見",
    "town_kana": "ワミ",
    "street": null,
    "office_name": null,
    "office_name_kana": null
  },
  "0613": {
    "postcode": "3240613",
    "prefecture": "栃木県",
    "prefecture_kana": "トチギケン",
    "prefecture_code": 9,
    "city": "那須郡那珂川町",
    "city_kana": "ナスグンナカガワマチ",
    "town": "馬頭",
    "town_kana": "バトウ",
    "street": null,
    "office_name": null,
    "office_name_kana": null
  },
  "0614": {
    "postcode": "3240614",
    "prefecture": "栃木県",
    "prefecture_kana": "トチギケン",
    "prefecture_code": 9,
    "city": "那須郡那珂川町",
    "city_kana": "ナスグンナカガワマチ",
    "town": "久那瀬",
    "town_kana": "クナセ",
    "street": null,
    "office_name": null,
    "office_name_kana": null
  },
  "0615": {
    "postcode": "3240615",
    "prefecture": "栃木県",
    "prefecture_kana": "トチギケン",
    "prefecture_code": 9,
    "city": "那須郡那珂川町",
    "city_kana": "ナスグンナカガワマチ",
    "town": "松野",
    "town_kana": "マツノ",
    "street": null,
    "office_name": null,
    "office_name_kana": null
  },
  "0616": {
    "postcode": "3240616",
    "prefecture": "栃木県",
    "prefecture_kana": "トチギケン",
    "prefecture_code": 9,
    "city": "那須郡那珂川町",
    "city_kana": "ナスグンナカガワマチ",
    "town": "富山",
    "town_kana": "トミヤマ",
    "street": null,
    "office_name": null,
    "office_name_kana": null
  },
  "0617": {
    "postcode": "3240617",
    "prefecture": "栃木県",
    "prefecture_kana": "トチギケン",
    "prefecture_code": 9,
    "city": "那須郡那珂川町",
    "city_kana": "ナスグンナカガワマチ",
    "town": "北向田",
    "town_kana": "キタムカダ",
    "street": null,
    "office_name": null,
    "office_name_kana": null
  },
  "0618": {
    "postcode": "3240618",
    "prefecture": "栃木県",
    "prefecture_kana": "トチギケン",
    "prefecture_code": 9,
    "city": "那須郡那珂川町",
    "city_kana": "ナスグンナカガワマチ",
    "town": "小口",
    "town_kana": "コグチ",
    "street": null,
    "office_name": null,
    "office_name_kana": null
  },
  "0692": {
    "postcode": "3240692",
    "prefecture": "栃木県",
    "prefecture_kana": "トチギケン",
    "prefecture_code": 9,
    "city": "那須郡那珂川町",
    "city_kana": "ナスグンナカガワマチ",
    "town": "馬頭",
    "town_kana": "バトウ",
    "street": "４０９",
    "office_name": "那珂川町役場",
    "office_name_kana": "ナカガワマチヤクバ"
  },
  "0693": {
    "postcode": "3240693",
    "prefecture": "栃木県",
    "prefecture_kana": "トチギケン",
    "prefecture_code": 9,
    "city": "那須郡那珂川町",
    "city_kana": "ナスグンナカガワマチ",
    "town": "松野",
    "town_kana": "マツノ",
    "street": "９２３番地",
    "office_name": "住友金属鉱山シポレックス　株式会社　栃木工場",
    "office_name_kana": "スミトモキンゾクコウザンシポレツクス カブシキガイシヤ トチギコウジヨウ"
  },
  "8501": {
    "postcode": "3248501",
    "prefecture": "栃木県",
    "prefecture_kana": "トチギケン",
    "prefecture_code": 9,
    "city": "大田原市",
    "city_kana": "オオタワラシ",
    "town": "北金丸",
    "town_kana": "キタカネマル",
    "street": "２６００−１",
    "office_name": "国際医療福祉大学",
    "office_name_kana": "コクサイイリヨウフクシダイガク"
  },
  "8510": {
    "postcode": "3248510",
    "prefecture": "栃木県",
    "prefecture_kana": "トチギケン",
    "prefecture_code": 9,
    "city": "大田原市",
    "city_kana": "オオタワラシ",
    "town": "中田原",
    "town_kana": "ナカダワラ",
    "street": "１０４３",
    "office_name": "富士電機　株式会社　大田原工場",
    "office_name_kana": "フジデンキ カブシキガイシヤ オオタワラコウジヨウ"
  },
  "8516": {
    "postcode": "3248516",
    "prefecture": "栃木県",
    "prefecture_kana": "トチギケン",
    "prefecture_code": 9,
    "city": "大田原市",
    "city_kana": "オオタワラシ",
    "town": "下石上",
    "town_kana": "シモイシガミ",
    "street": "１３８２−１２",
    "office_name": "大日本塗料　株式会社　那須工場",
    "office_name_kana": "ダイニツポントリヨウ カブシキガイシヤ ナスコウジヨウ"
  },
  "8520": {
    "postcode": "3248520",
    "prefecture": "栃木県",
    "prefecture_kana": "トチギケン",
    "prefecture_code": 9,
    "city": "大田原市",
    "city_kana": "オオタワラシ",
    "town": "実取",
    "town_kana": "ミドリ",
    "street": "７６０番地",
    "office_name": "株式会社　栃木ニコンプレシジョン",
    "office_name_kana": "カブシキガイシヤ トチギニコンプレシジヨン"
  },
  "8540": {
    "postcode": "3248540",
    "prefecture": "栃木県",
    "prefecture_kana": "トチギケン",
    "prefecture_code": 9,
    "city": "大田原市",
    "city_kana": "オオタワラシ",
    "town": "本町",
    "town_kana": "ホンチョウ",
    "street": "１丁目２６９５−２２",
    "office_name": "日本年金機構　大田原年金事務所",
    "office_name_kana": "ニツポンネンキンキコウ オオタワラネンキンジムシヨ"
  },
  "8550": [
    {
      "postcode": "3248550",
      "prefecture": "栃木県",
      "prefecture_kana": "トチギケン",
      "prefecture_code": 9,
      "city": "大田原市",
      "city_kana": "オオタワラシ",
      "town": "下石上",
      "town_kana": "シモイシガミ",
      "street": "１３８５番地",
      "office_name": "キヤノン電子管デバイス　株式会社",
      "office_name_kana": "キヤノンデンシカンデバイス カブシキガイシヤ"
    },
    {
      "postcode": "3248550",
      "prefecture": "栃木県",
      "prefecture_kana": "トチギケン",
      "prefecture_code": 9,
      "city": "大田原市",
      "city_kana": "オオタワラシ",
      "town": "下石上",
      "town_kana": "シモイシガミ",
      "street": "１３８５",
      "office_name": "キヤノンメディカルシステムズ　株式会社",
      "office_name_kana": "キヤノンメデイカルシステムズ カブシキガイシヤ"
    }
  ],
  "8551": {
    "postcode": "3248551",
    "prefecture": "栃木県",
    "prefecture_kana": "トチギケン",
    "prefecture_code": 9,
    "city": "大田原市",
    "city_kana": "オオタワラシ",
    "town": "本町",
    "town_kana": "ホンチョウ",
    "street": "２丁目２８２８−４",
    "office_name": "大田原県税事務所",
    "office_name_kana": "オオタワラケンゼイジムシヨ"
  },
  "8555": {
    "postcode": "3248555",
    "prefecture": "栃木県",
    "prefecture_kana": "トチギケン",
    "prefecture_code": 9,
    "city": "大田原市",
    "city_kana": "オオタワラシ",
    "town": "下石上",
    "town_kana": "シモイシガミ",
    "street": "１３８８",
    "office_name": "富士通　株式会社　那須工場",
    "office_name_kana": "フジツウ カブシキガイシヤ ナスコウジヨウ"
  },
  "8585": {
    "postcode": "3248585",
    "prefecture": "栃木県",
    "prefecture_kana": "トチギケン",
    "prefecture_code": 9,
    "city": "大田原市",
    "city_kana": "オオタワラシ",
    "town": "本町",
    "town_kana": "ホンチョウ",
    "street": "２丁目２８２８−４",
    "office_name": "栃木県県北健康福祉センター",
    "office_name_kana": "トチギケンケンポクケンコウフクシセンタ-"
  },
  "8625": {
    "postcode": "3248625",
    "prefecture": "栃木県",
    "prefecture_kana": "トチギケン",
    "prefecture_code": 9,
    "city": "大田原市",
    "city_kana": "オオタワラシ",
    "town": "実取",
    "town_kana": "ミドリ",
    "street": "７７０",
    "office_name": "株式会社　栃木ニコン",
    "office_name_kana": "カブシキガイシヤ トチギニコン"
  },
  "8641": {
    "postcode": "3248641",
    "prefecture": "栃木県",
    "prefecture_kana": "トチギケン",
    "prefecture_code": 9,
    "city": "大田原市",
    "city_kana": "オオタワラシ",
    "town": "本町",
    "town_kana": "ホンチョウ",
    "street": "１丁目４−１",
    "office_name": "大田原市役所",
    "office_name_kana": "オオタワラシヤクシヨ"
  },
  "8642": {
    "postcode": "3248642",
    "prefecture": "栃木県",
    "prefecture_kana": "トチギケン",
    "prefecture_code": 9,
    "city": "大田原市",
    "city_kana": "オオタワラシ",
    "town": "紫塚",
    "town_kana": "ムラサキヅカ",
    "street": "１丁目５−５４（大田原郵便局私書箱第１１号）",
    "office_name": "大田原　税務署",
    "office_name_kana": "オオタワラ ゼイムシヨ"
  },
  "8686": {
    "postcode": "3248686",
    "prefecture": "栃木県",
    "prefecture_kana": "トチギケン",
    "prefecture_code": 9,
    "city": "大田原市",
    "city_kana": "オオタワラシ",
    "town": "中田原",
    "town_kana": "ナカダワラ",
    "street": "１０８１番地４（大田原郵便局私書箱第１５号）",
    "office_name": "那須赤十字病院",
    "office_name_kana": "ナスセキジユウジビヨウイン"
  },
  "8765": {
    "postcode": "3248765",
    "prefecture": "栃木県",
    "prefecture_kana": "トチギケン",
    "prefecture_code": 9,
    "city": "大田原市",
    "city_kana": "オオタワラシ",
    "town": "本町",
    "town_kana": "ホンチョウ",
    "street": "２−２８２８−４",
    "office_name": "大田原土木事務所",
    "office_name_kana": "オオタワラドボクジムシヨ"
  }
}