{
  "0801": {
    "postcode": "3330801",
    "prefecture": "埼玉県",
    "prefecture_kana": "サイタマケン",
    "prefecture_code": 11,
    "city": "川口市",
    "city_kana": "カワグチシ",
    "town": "東川口",
    "town_kana": "ヒガシカワグチ",
    "street": null,
    "office_name": null,
    "office_name_kana": null
  },
  "0802": {
    "postcode": "3330802",
    "prefecture": "埼玉県",
    "prefecture_kana": "サイタマケン",
    "prefecture_code": 11,
    "city": "川口市",
    "city_kana": "カワグチシ",
    "town": "戸塚東",
    "town_kana": "トヅカヒガシ",
    "street": null,
    "office_name": null,
    "office_name_kana": null
  },
  "0803": {
    "postcode": "3330803",
    "prefecture": "埼玉県",
    "prefecture_kana": "サイタマケン",
    "prefecture_code": 11,
    "city": "川口市",
    "city_kana": "カワグチシ",
    "town": "藤兵衛新田",
    "town_kana": "トウベエシンデン",
    "street": null,
    "office_name": null,
    "office_name_kana": null
  },
  "0804": {
    "postcode": "3330804",
    "prefecture": "埼玉県",
    "prefecture_kana": "サイタマケン",
    "prefecture_code": 11,
    "city": "川口市",
    "city_kana": "カワグチシ",
    "town": "久左衛門新田",
    "town_kana": "キュウザエモンシンデン",
    "street": null,
    "office_name": null,
    "office_name_kana": null
  },
  "0805": {
    "postcode": "3330805",
    "prefecture": "埼玉県",
    "prefecture_kana": "サイタマケン",
    "prefecture_code": 11,
    "city": "川口市",
    "city_kana": "カワグチシ",
    "town": "戸塚鋏町",
    "town_kana": "トヅカハサミチョウ",
    "street": null,
    "office_name": null,
    "office_name_kana": null
  },
  "0806": {
    "postcode": "3330806",
    "prefecture": "埼玉県",
    "prefecture_kana": "サイタマケン",
    "prefecture_code": 11,
    "city": "川口市",
    "city_kana": "カワグチシ",
    "town": "戸塚境町",
    "town_kana": "トヅカサカイチョウ",
    "street": null,
    "office_name": null,
    "office_name_kana": null
  },
  "0807": {
    "postcode": "3330807",
    "prefecture": "埼玉県",
    "prefecture_kana": "サイタマケン",
    "prefecture_code": 11,
    "city": "川口市",
    "city_kana": "カワグチシ",
    "town": "長蔵",
    "town_kana": "チョウゾウ",
    "street": null,
    "office_name": null,
    "office_name_kana": null
  },
  "0808": {
    "postcode": "3330808",
    "prefecture": "埼玉県",
    "prefecture_kana": "サイタマケン",
    "prefecture_code": 11,
    "city": "川口市",
    "city_kana": "カワグチシ",
    "town": "長蔵新田",
    "town_kana": "チョウゾウシンデン",
    "street": null,
    "office_name": null,
    "office_name_kana": null
  },
  "0811": {
    "postcode": "3330811",
    "prefecture": "埼玉県",
    "prefecture_kana": "サイタマケン",
    "prefecture_code": 11,
    "city": "川口市",
    "city_kana": "カワグチシ",
    "town": "戸塚",
    "town_kana": "トヅカ",
    "street": null,
    "office_name": null,
    "office_name_kana": null
  },
  "0812": {
    "postcode": "3330812",
    "prefecture": "埼玉県",
    "prefecture_kana": "サイタマケン",
    "prefecture_code": 11,
    "city": "川口市",
    "city_kana": "カワグチシ",
    "town": "安行西立野",
    "town_kana": "アンギョウニシタテノ",
    "street": null,
    "office_name": null,
    "office_name_kana": null
  },
  "0813": {
    "postcode": "3330813",
    "prefecture": "埼玉県",
    "prefecture_kana": "サイタマケン",
    "prefecture_code": 11,
    "city": "川口市",
    "city_kana": "カワグチシ",
    "town": "西立野",
    "town_kana": "ニシタテノ",
    "street": null,
    "office_name": null,
    "office_name_kana": null
  },
  "0814": {
    "postcode": "3330814",
    "prefecture": "埼玉県",
    "prefecture_kana": "サイタマケン",
    "prefecture_code": 11,
    "city": "川口市",
    "city_kana": "カワグチシ",
    "town": "行衛",
    "town_kana": "ギョエ",
    "street": null,
    "office_name": null,
    "office_name_kana": null
  },
  "0815": {
    "postcode": "3330815",
    "prefecture": "埼玉県",
    "prefecture_kana": "サイタマケン",
    "prefecture_code": 11,
    "city": "川口市",
    "city_kana": "カワグチシ",
    "town": "北原台",
    "town_kana": "キタハラダイ",
    "street": null,
    "office_name": null,
    "office_name_kana": null
  },
  "0816": {
    "postcode": "3330816",
    "prefecture": "埼玉県",
    "prefecture_kana": "サイタマケン",
    "prefecture_code": 11,
    "city": "川口市",
    "city_kana": "カワグチシ",
    "town": "差間",
    "town_kana": "サシマ",
    "street": null,
    "office_name": null,
    "office_name_kana": null
  },
  "0817": {
    "postcode": "3330817",
    "prefecture": "埼玉県",
    "prefecture_kana": "サイタマケン",
    "prefecture_code": 11,
    "city": "川口市",
    "city_kana": "カワグチシ",
    "town": "戸塚南",
    "town_kana": "トヅカミナミ",
    "street": null,
    "office_name": null,
    "office_name_kana": null
  },
  "0821": {
    "postcode": "3330821",
    "prefecture": "埼玉県",
    "prefecture_kana": "サイタマケン",
    "prefecture_code": 11,
    "city": "川口市",
    "city_kana": "カワグチシ",
    "town": "東内野",
    "town_kana": "ヒガシウチノ",
    "street": null,
    "office_name": null,
    "office_name_kana": null
  },
  "0822": {
    "postcode": "3330822",
    "prefecture": "埼玉県",
    "prefecture_kana": "サイタマケン",
    "prefecture_code": 11,
    "city": "川口市",
    "city_kana": "カワグチシ",
    "town": "源左衛門新田",
    "town_kana": "ゲンザエモンシンデン",
    "street": null,
    "office_name": null,
    "office_name_kana": null
  },
  "0823": {
    "postcode": "3330823",
    "prefecture": "埼玉県",
    "prefecture_kana": "サイタマケン",
    "prefecture_code": 11,
    "city": "川口市",
    "city_kana": "カワグチシ",
    "town": "石神",
    "town_kana": "イシガミ",
    "street": null,
    "office_name": null,
    "office_name_kana": null
  },
  "0824": {
    "postcode": "3330824",
    "prefecture": "埼玉県",
    "prefecture_kana": "サイタマケン",
    "prefecture_code": 11,
    "city": "川口市",
    "city_kana": "カワグチシ",
    "town": "赤芝新田",
    "town_kana": "アカシバシンデン",
    "street": null,
    "office_name": null,
    "office_name_kana": null
  },
  "0825": {
    "postcode": "3330825",
    "prefecture": "埼玉県",
    "prefecture_kana": "サイタマケン",
    "prefecture_code": 11,
    "city": "川口市",
    "city_kana": "カワグチシ",
    "town": "赤山",
    "town_kana": "アカヤマ",
    "street": null,
    "office_name": null,
    "office_name_kana": null
  },
  "0826": {
    "postcode": "3330826",
    "prefecture": "埼玉県",
    "prefecture_kana": "サイタマケン",
    "prefecture_code": 11,
    "city": "川口市",
    "city_kana": "カワグチシ",
    "town": "新井宿",
    "town_kana": "アライジュク",
    "street": null,
    "office_name": null,
    "office_name_kana": null
  },
  "0831": {
    "postcode": "3330831",
    "prefecture": "埼玉県",
    "prefecture_kana": "サイタマケン",
    "prefecture_code": 11,
    "city": "川口市",
    "city_kana": "カワグチシ",
    "town": "木曽呂",
    "town_kana": "キゾロ",
    "street": null,
    "office_name": null,
    "office_name_kana": null
  },
  "0832": {
    "postcode": "3330832",
    "prefecture": "埼玉県",
    "prefecture_kana": "サイタマケン",
    "prefecture_code": 11,
    "city": "川口市",
    "city_kana": "カワグチシ",
    "town": "神戸",
    "town_kana": "ゴウド",
    "street": null,
    "office_name": null,
    "office_name_kana": null
  },
  "0833": {
    "postcode": "3330833",
    "prefecture": "埼玉県",
    "prefecture_kana": "サイタマケン",
    "prefecture_code": 11,
    "city": "川口市",
    "city_kana": "カワグチシ",
    "town": "西新井宿",
    "town_kana": "ニシアライジュク",
    "street": null,
    "office_name": null,
    "office_name_kana": null
  },
  "0834": {
    "postcode": "3330834",
    "prefecture": "埼玉県",
    "prefecture_kana": "サイタマケン",
    "prefecture_code": 11,
    "city": "川口市",
    "city_kana": "カワグチシ",
    "town": "安行領根岸",
    "town_kana": "アンギョウリョウネギシ",
    "street": null,
    "office_name": null,
    "office_name_kana": null
  },
  "0835": {
    "postcode": "3330835",
    "prefecture": "埼玉県",
    "prefecture_kana": "サイタマケン",
    "prefecture_code": 11,
    "city": "川口市",
    "city_kana": "カワグチシ",
    "town": "道合",
    "town_kana": "ミチアイ",
    "street": null,
    "office_name": null,
    "office_name_kana": null
  },
  "0836": {
    "postcode": "3330836",
    "prefecture": "埼玉県",
    "prefecture_kana": "サイタマケン",
    "prefecture_code": 11,
    "city": "川口市",
    "city_kana": "カワグチシ",
    "town": "安行領在家",
    "town_kana": "アンギョウリョウザイケ",
    "street": null,
    "office_name": null,
    "office_name_kana": null
  },
  "0841": {
    "postcode": "3330841",
    "prefecture": "埼玉県",
    "prefecture_kana": "サイタマケン",
    "prefecture_code": 11,
    "city": "川口市",
    "city_kana": "カワグチシ",
    "town": "前川町",
    "town_kana": "マエカワチョウ",
    "street": null,
    "office_name": null,
    "office_name_kana": null
  },
  "0842": {
    "postcode": "3330842",
    "prefecture": "埼玉県",
    "prefecture_kana": "サイタマケン",
    "prefecture_code": 11,
    "city": "川口市",
    "city_kana": "カワグチシ",
    "town": "前川",
    "town_kana": "マエカワ",
    "street": null,
    "office_name": null,
    "office_name_kana": null
  },
  "0843": {
    "postcode": "3330843",
    "prefecture": "埼玉県",
    "prefecture_kana": "サイタマケン",
    "prefecture_code": 11,
    "city": "川口市",
    "city_kana": "カワグチシ",
    "town": "前上町",
    "town_kana": "マエカミチョウ",
    "street": null,
    "office_name": null,
    "office_name_kana": null
  },
  "0844": {
    "postcode": "3330844",
    "prefecture": "埼玉県",
    "prefecture_kana": "サイタマケン",
    "prefecture_code": 11,
    "city": "川口市",
    "city_kana": "カワグチシ",
    "town": "上青木",
    "town_kana": "カミアオキ",
    "street": null,
    "office_name": null,
    "office_name_kana": null
  },
  "0845": {
    "postcode": "3330845",
    "prefecture": "埼玉県",
    "prefecture_kana": "サイタマケン",
    "prefecture_code": 11,
    "city": "川口市",
    "city_kana": "カワグチシ",
    "town": "上青木西",
    "town_kana": "カミアオキニシ",
    "street": null,
    "office_name": null,
    "office_name_kana": null
  },
  "0846": {
    "postcode": "3330846",
    "prefecture": "埼玉県",
    "prefecture_kana": "サイタマケン",
    "prefecture_code": 11,
    "city": "川口市",
    "city_kana": "カワグチシ",
    "town": "南前川",
    "town_kana": "ミナミマエカワ",
    "street": null,
    "office_name": null,
    "office_name_kana": null
  },
  "0847": {
    "postcode": "3330847",
    "prefecture": "埼玉県",
    "prefecture_kana": "サイタマケン",
    "prefecture_code": 11,
    "city": "川口市",
    "city_kana": "カワグチシ",
    "town": "芝中田",
    "town_kana": "シバナカダ",
    "street": null,
    "office_name": null,
    "office_name_kana": null
  },
  "0848": {
    "postcode": "3330848",
    "prefecture": "埼玉県",
    "prefecture_kana": "サイタマケン",
    "prefecture_code": 11,
    "city": "川口市",
    "city_kana": "カワグチシ",
    "town": "芝下",
    "town_kana": "シバシモ",
    "street": null,
    "office_name": null,
    "office_name_kana": null
  },
  "0849": {
    "postcode": "3330849",
    "prefecture": "埼玉県",
    "prefecture_kana": "サイタマケン",
    "prefecture_code": 11,
    "city": "川口市",
    "city_kana": "カワグチシ",
    "town": "本前川",
    "town_kana": "ホンマエカワ",
    "street": null,
    "office_name": null,
    "office_name_kana": null
  },
  "0851": {
    "postcode": "3330851",
    "prefecture": "埼玉県",
    "prefecture_kana": "サイタマケン",
    "prefecture_code": 11,
    "city": "川口市",
    "city_kana": "カワグチシ",
    "town": "芝新町",
    "town_kana": "シバシンマチ",
    "street": null,
    "office_name": null,
    "office_name_kana": null
  },
  "0852": {
    "postcode": "3330852",
    "prefecture": "埼玉県",
    "prefecture_kana": "サイタマケン",
    "prefecture_code": 11,
    "city": "川口市",
    "city_kana": "カワグチシ",
    "town": "芝樋ノ爪",
    "town_kana": "シバヒノツメ",
    "street": null,
    "office_name": null,
    "office_name_kana": null
  },
  "0853": {
    "postcode": "3330853",
    "prefecture": "埼玉県",
    "prefecture_kana": "サイタマケン",
    "prefecture_code": 11,
    "city": "川口市",
    "city_kana": "カワグチシ",
    "town": "芝園町",
    "town_kana": "シバゾノチョウ",
    "street": null,
    "office_name": null,
    "office_name_kana": null
  },
  "0854": {
    "postcode": "3330854",
    "prefecture": "埼玉県",
    "prefecture_kana": "サイタマケン",
    "prefecture_code": 11,
    "city": "川口市",
    "city_kana": "カワグチシ",
    "town": "芝富士",
    "town_kana": "シバフジ",
    "street": null,
    "office_name": null,
    "office_name_kana": null
  },
  "0855": {
    "postcode": "3330855",
    "prefecture": "埼玉県",
    "prefecture_kana": "サイタマケン",
    "prefecture_code": 11,
    "city": "川口市",
    "city_kana": "カワグチシ",
    "town": "芝西",
    "town_kana": "シバニシ",
    "street": null,
    "office_name": null,
    "office_name_kana": null
  },
  "0856": {
    "postcode": "3330856",
    "prefecture": "埼玉県",
    "prefecture_kana": "サイタマケン",
    "prefecture_code": 11,
    "city": "川口市",
    "city_kana": "カワグチシ",
    "town": "芝塚原",
    "town_kana": "シバツカバラ",
    "street": null,
    "office_name": null,
    "office_name_kana": null
  },
  "0857": {
    "postcode": "3330857",
    "prefecture": "埼玉県",
    "prefecture_kana": "サイタマケン",
    "prefecture_code": 11,
    "city": "川口市",
    "city_kana": "カワグチシ",
    "town": "小谷場",
    "town_kana": "コヤバ",
    "street": null,
    "office_name": null,
    "office_name_kana": null
  },
  "0861": {
    "postcode": "3330861",
    "prefecture": "埼玉県",
    "prefecture_kana": "サイタマケン",
    "prefecture_code": 11,
    "city": "川口市",
    "city_kana": "カワグチシ",
    "town": "柳崎",
    "town_kana": "ヤナギサキ",
    "street": null,
    "office_name": null,
    "office_name_kana": null
  },
  "0862": {
    "postcode": "3330862",
    "prefecture": "埼玉県",
    "prefecture_kana": "サイタマケン",
    "prefecture_code": 11,
    "city": "川口市",
    "city_kana": "カワグチシ",
    "town": "北園町",
    "town_kana": "キタゾノチョウ",
    "street": null,
    "office_name": null,
    "office_name_kana": null
  },
  "0863": {
    "postcode": "3330863",
    "prefecture": "埼玉県",
    "prefecture_kana": "サイタマケン",
    "prefecture_code": 11,
    "city": "川口市",
    "city_kana": "カワグチシ",
    "town": "在家町",
    "town_kana": "ザイケチョウ",
    "street": null,
    "office_name": null,
    "office_name_kana": null
  },
  "0864": {
    "postcode": "3330864",
    "prefecture": "埼玉県",
    "prefecture_kana": "サイタマケン",
    "prefecture_code": 11,
    "city": "川口市",
    "city_kana": "カワグチシ",
    "town": "柳根町",
    "town_kana": "ヤナネチョウ",
    "street": null,
    "office_name": null,
    "office_name_kana": null
  },
  "0865": {
    "postcode": "3330865",
    "prefecture": "埼玉県",
    "prefecture_kana": "サイタマケン",
    "prefecture_code": 11,
    "city": "川口市",
    "city_kana": "カワグチシ",
    "town": "伊刈",
    "town_kana": "イカリ",
    "street": null,
    "office_name": null,
    "office_name_kana": null
  },
  "0866": {
    "postcode": "3330866",
    "prefecture": "埼玉県",
    "prefecture_kana": "サイタマケン",
    "prefecture_code": 11,
    "city": "川口市",
    "city_kana": "カワグチシ",
    "town": "芝",
    "town_kana": "シバ",
    "street": null,
    "office_name": null,
    "office_name_kana": null
  },
  "0867": {
    "postcode": "3330867",
    "prefecture": "埼玉県",
    "prefecture_kana": "サイタマケン",
    "prefecture_code": 11,
    "city": "川口市",
    "city_kana": "カワグチシ",
    "town": "芝東町",
    "town_kana": "シバヒガシチョウ",
    "street": null,
    "office_name": null,
    "office_name_kana": null
  },
  "0868": {
    "postcode": "3330868",
    "prefecture": "埼玉県",
    "prefecture_kana": "サイタマケン",
    "prefecture_code": 11,
    "city": "川口市",
    "city_kana": "カワグチシ",
    "town": "芝高木",
    "town_kana": "シバタカギ",
    "street": null,
    "office_name": null,
    "office_name_kana": null
  },
  "0869": {
    "postcode": "3330869",
    "prefecture": "埼玉県",
    "prefecture_kana": "サイタマケン",
    "prefecture_code": 11,
    "city": "川口市",
    "city_kana": "カワグチシ",
    "town": "芝宮根町",
    "town_kana": "シバミヤネチョウ",
    "street": null,
    "office_name": null,
    "office_name_kana": null
  },
  "8601": {
    "postcode": "3338601",
    "prefecture": "埼玉県",
    "prefecture_kana": "サイタマケン",
    "prefecture_code": 11,
    "city": "川口市",
    "city_kana": "カワグチシ",
    "town": "大字神戸",
    "town_kana": null,
    "street": "１２３（川口北郵便局私書箱第２号）",
    "office_name": "株式会社　改良園",
    "office_name_kana": "カブシキガイシヤ カイリヨウエン"
  },
  "8611": {
    "postcode": "3338611",
    "prefecture": "埼玉県",
    "prefecture_kana": "サイタマケン",
    "prefecture_code": 11,
    "city": "川口市",
    "city_kana": "カワグチシ",
    "town": "大字石神",
    "town_kana": null,
    "street": "１８４（川口北郵便局私書箱第１号）",
    "office_name": "株式会社　日本花卉",
    "office_name_kana": "カブシキガイシヤ ニホンカキ"
  }
}