{
  "0001": {
    "postcode": "3380001",
    "prefecture": "埼玉県",
    "prefecture_kana": "サイタマケン",
    "prefecture_code": 11,
    "city": "さいたま市中央区",
    "city_kana": "サイタマシチュウオウク",
    "town": "上落合",
    "town_kana": "カミオチアイ",
    "street": null,
    "office_name": null,
    "office_name_kana": null
  },
  "0002": {
    "postcode": "3380002",
    "prefecture": "埼玉県",
    "prefecture_kana": "サイタマケン",
    "prefecture_code": 11,
    "city": "さいたま市中央区",
    "city_kana": "サイタマシチュウオウク",
    "town": "下落合",
    "town_kana": "シモオチアイ",
    "street": null,
    "office_name": null,
    "office_name_kana": null
  },
  "0003": {
    "postcode": "3380003",
    "prefecture": "埼玉県",
    "prefecture_kana": "サイタマケン",
    "prefecture_code": 11,
    "city": "さいたま市中央区",
    "city_kana": "サイタマシチュウオウク",
    "town": "本町東",
    "town_kana": "ホンマチヒガシ",
    "street": null,
    "office_name": null,
    "office_name_kana": null
  },
  "0004": {
    "postcode": "3380004",
    "prefecture": "埼玉県",
    "prefecture_kana": "サイタマケン",
    "prefecture_code": 11,
    "city": "さいたま市中央区",
    "city_kana": "サイタマシチュウオウク",
    "town": "本町西",
    "town_kana": "ホンマチニシ",
    "street": null,
    "office_name": null,
    "office_name_kana": null
  },
  "0005": {
    "postcode": "3380005",
    "prefecture": "埼玉県",
    "prefecture_kana": "サイタマケン",
    "prefecture_code": 11,
    "city": "さいたま市中央区",
    "city_kana": "サイタマシチュウオウク",
    "town": "桜丘",
    "town_kana": "サクラオカ",
    "street": null,
    "office_name": null,
    "office_name_kana": null
  },
  "0006": {
    "postcode": "3380006",
    "prefecture": "埼玉県",
    "prefecture_kana": "サイタマケン",
    "prefecture_code": 11,
    "city": "さいたま市中央区",
    "city_kana": "サイタマシチュウオウク",
    "town": "八王子",
    "town_kana": "ハチオウジ",
    "street": null,
    "office_name": null,
    "office_name_kana": null
  },
  "0007": {
    "postcode": "3380007",
    "prefecture": "埼玉県",
    "prefecture_kana": "サイタマケン",
    "prefecture_code": 11,
    "city": "さいたま市中央区",
    "city_kana": "サイタマシチュウオウク",
    "town": "円阿弥",
    "town_kana": "エンナミ",
    "street": null,
    "office_name": null,
    "office_name_kana": null
  },
  "0011": {
    "postcode": "3380011",
    "prefecture": "埼玉県",
    "prefecture_kana": "サイタマケン",
    "prefecture_code": 11,
    "city": "さいたま市中央区",
    "city_kana": "サイタマシチュウオウク",
    "town": "新中里",
    "town_kana": "シンナカザト",
    "street": null,
    "office_name": null,
    "office_name_kana": null
  },
  "0012": {
    "postcode": "3380012",
    "prefecture": "埼玉県",
    "prefecture_kana": "サイタマケン",
    "prefecture_code": 11,
    "city": "さいたま市中央区",
    "city_kana": "サイタマシチュウオウク",
    "town": "大戸",
    "town_kana": "オオト",
    "street": null,
    "office_name": null,
    "office_name_kana": null
  },
  "0013": {
    "postcode": "3380013",
    "prefecture": "埼玉県",
    "prefecture_kana": "サイタマケン",
    "prefecture_code": 11,
    "city": "さいたま市中央区",
    "city_kana": "サイタマシチュウオウク",
    "town": "鈴谷",
    "town_kana": "スズヤ",
    "street": null,
    "office_name": null,
    "office_name_kana": null
  },
  "0014": {
    "postcode": "3380014",
    "prefecture": "埼玉県",
    "prefecture_kana": "サイタマケン",
    "prefecture_code": 11,
    "city": "さいたま市中央区",
    "city_kana": "サイタマシチュウオウク",
    "town": "上峰",
    "town_kana": "ウエミネ",
    "street": null,
    "office_name": null,
    "office_name_kana": null
  },
  "0800": {
    "postcode": "3380800",
    "prefecture": "埼玉県",
    "prefecture_kana": "サイタマケン",
    "prefecture_code": 11,
    "city": "さいたま市桜区",
    "city_kana": "サイタマシサクラク",
    "town": "",
    "town_kana": "",
    "street": null,
    "office_name": null,
    "office_name_kana": null
  },
  "0811": {
    "postcode": "3380811",
    "prefecture": "埼玉県",
    "prefecture_kana": "サイタマケン",
    "prefecture_code": 11,
    "city": "さいたま市桜区",
    "city_kana": "サイタマシサクラク",
    "town": "白鍬",
    "town_kana": "シラクワ",
    "street": null,
    "office_name": null,
    "office_name_kana": null
  },
  "0812": {
    "postcode": "3380812",
    "prefecture": "埼玉県",
    "prefecture_kana": "サイタマケン",
    "prefecture_code": 11,
    "city": "さいたま市桜区",
    "city_kana": "サイタマシサクラク",
    "town": "神田",
    "town_kana": "ジンデ",
    "street": null,
    "office_name": null,
    "office_name_kana": null
  },
  "0813": {
    "postcode": "3380813",
    "prefecture": "埼玉県",
    "prefecture_kana": "サイタマケン",
    "prefecture_code": 11,
    "city": "さいたま市桜区",
    "city_kana": "サイタマシサクラク",
    "town": "在家",
    "town_kana": "ザイケ",
    "street": null,
    "office_name": null,
    "office_name_kana": null
  },
  "0814": {
    "postcode": "3380814",
    "prefecture": "埼玉県",
    "prefecture_kana": "サイタマケン",
    "prefecture_code": 11,
    "city": "さいたま市桜区",
    "city_kana": "サイタマシサクラク",
    "town": "宿",
    "town_kana": "シュク",
    "street": null,
    "office_name": null,
    "office_name_kana": null
  },
  "0815": {
    "postcode": "3380815",
    "prefecture": "埼玉県",
    "prefecture_kana": "サイタマケン",
    "prefecture_code": 11,
    "city": "さいたま市桜区",
    "city_kana": "サイタマシサクラク",
    "town": "五関",
    "town_kana": "ゴセキ",
    "street": null,
    "office_name": null,
    "office_name_kana": null
  },
  "0816": {
    "postcode": "3380816",
    "prefecture": "埼玉県",
    "prefecture_kana": "サイタマケン",
    "prefecture_code": 11,
    "city": "さいたま市桜区",
    "city_kana": "サイタマシサクラク",
    "town": "塚本",
    "town_kana": "ツカモト",
    "street": null,
    "office_name": null,
    "office_name_kana": null
  },
  "0817": {
    "postcode": "3380817",
    "prefecture": "埼玉県",
    "prefecture_kana": "サイタマケン",
    "prefecture_code": 11,
    "city": "さいたま市桜区",
    "city_kana": "サイタマシサクラク",
    "town": "昭和",
    "town_kana": "ショウワ",
    "street": null,
    "office_name": null,
    "office_name_kana": null
  },
  "0821": {
    "postcode": "3380821",
    "prefecture": "埼玉県",
    "prefecture_kana": "サイタマケン",
    "prefecture_code": 11,
    "city": "さいたま市桜区",
    "city_kana": "サイタマシサクラク",
    "town": "山久保",
    "town_kana": "ヤマクボ",
    "street": null,
    "office_name": null,
    "office_name_kana": null
  },
  "0822": {
    "postcode": "3380822",
    "prefecture": "埼玉県",
    "prefecture_kana": "サイタマケン",
    "prefecture_code": 11,
    "city": "さいたま市桜区",
    "city_kana": "サイタマシサクラク",
    "town": "中島",
    "town_kana": "ナカジマ",
    "street": null,
    "office_name": null,
    "office_name_kana": null
  },
  "0823": {
    "postcode": "3380823",
    "prefecture": "埼玉県",
    "prefecture_kana": "サイタマケン",
    "prefecture_code": 11,
    "city": "さいたま市桜区",
    "city_kana": "サイタマシサクラク",
    "town": "栄和",
    "town_kana": "サカワ",
    "street": null,
    "office_name": null,
    "office_name_kana": null
  },
  "0824": {
    "postcode": "3380824",
    "prefecture": "埼玉県",
    "prefecture_kana": "サイタマケン",
    "prefecture_code": 11,
    "city": "さいたま市桜区",
    "city_kana": "サイタマシサクラク",
    "town": "上大久保",
    "town_kana": "カミオオクボ",
    "street": null,
    "office_name": null,
    "office_name_kana": null
  },
  "0825": {
    "postcode": "3380825",
    "prefecture": "埼玉県",
    "prefecture_kana": "サイタマケン",
    "prefecture_code": 11,
    "city": "さいたま市桜区",
    "city_kana": "サイタマシサクラク",
    "town": "下大久保",
    "town_kana": "シモオオクボ",
    "street": null,
    "office_name": null,
    "office_name_kana": null
  },
  "0826": {
    "postcode": "3380826",
    "prefecture": "埼玉県",
    "prefecture_kana": "サイタマケン",
    "prefecture_code": 11,
    "city": "さいたま市桜区",
    "city_kana": "サイタマシサクラク",
    "town": "大久保領家",
    "town_kana": "オオクボリョウケ",
    "street": null,
    "office_name": null,
    "office_name_kana": null
  },
  "0831": {
    "postcode": "3380831",
    "prefecture": "埼玉県",
    "prefecture_kana": "サイタマケン",
    "prefecture_code": 11,
    "city": "さいたま市桜区",
    "city_kana": "サイタマシサクラク",
    "town": "南元宿",
    "town_kana": "ミナミモトジュク",
    "street": null,
    "office_name": null,
    "office_name_kana": null
  },
  "0832": {
    "postcode": "3380832",
    "prefecture": "埼玉県",
    "prefecture_kana": "サイタマケン",
    "prefecture_code": 11,
    "city": "さいたま市桜区",
    "city_kana": "サイタマシサクラク",
    "town": "西堀",
    "town_kana": "ニシボリ",
    "street": null,
    "office_name": null,
    "office_name_kana": null
  },
  "0833": {
    "postcode": "3380833",
    "prefecture": "埼玉県",
    "prefecture_kana": "サイタマケン",
    "prefecture_code": 11,
    "city": "さいたま市桜区",
    "city_kana": "サイタマシサクラク",
    "town": "桜田",
    "town_kana": "サクラダ",
    "street": null,
    "office_name": null,
    "office_name_kana": null
  },
  "0834": {
    "postcode": "3380834",
    "prefecture": "埼玉県",
    "prefecture_kana": "サイタマケン",
    "prefecture_code": 11,
    "city": "さいたま市桜区",
    "city_kana": "サイタマシサクラク",
    "town": "新開",
    "town_kana": "シビラキ",
    "street": null,
    "office_name": null,
    "office_name_kana": null
  },
  "0835": {
    "postcode": "3380835",
    "prefecture": "埼玉県",
    "prefecture_kana": "サイタマケン",
    "prefecture_code": 11,
    "city": "さいたま市桜区",
    "city_kana": "サイタマシサクラク",
    "town": "道場",
    "town_kana": "ドウジョウ",
    "street": null,
    "office_name": null,
    "office_name_kana": null
  },
  "0836": {
    "postcode": "3380836",
    "prefecture": "埼玉県",
    "prefecture_kana": "サイタマケン",
    "prefecture_code": 11,
    "city": "さいたま市桜区",
    "city_kana": "サイタマシサクラク",
    "town": "町谷",
    "town_kana": "マチヤ",
    "street": null,
    "office_name": null,
    "office_name_kana": null
  },
  "0837": {
    "postcode": "3380837",
    "prefecture": "埼玉県",
    "prefecture_kana": "サイタマケン",
    "prefecture_code": 11,
    "city": "さいたま市桜区",
    "city_kana": "サイタマシサクラク",
    "town": "田島",
    "town_kana": "タジマ",
    "street": null,
    "office_name": null,
    "office_name_kana": null
  },
  "8503": {
    "postcode": "3388503",
    "prefecture": "埼玉県",
    "prefecture_kana": "サイタマケン",
    "prefecture_code": 11,
    "city": "さいたま市中央区",
    "city_kana": "サイタマシチュウオウク",
    "town": "本町東",
    "town_kana": "ホンマチヒガシ",
    "street": "５丁目１２−１０",
    "office_name": "日本ピストンリング　株式会社　本社",
    "office_name_kana": "ニツポンピストンリング カブシキガイシヤ ホンシヤ"
  },
  "8504": {
    "postcode": "3388504",
    "prefecture": "埼玉県",
    "prefecture_kana": "サイタマケン",
    "prefecture_code": 11,
    "city": "さいたま市中央区",
    "city_kana": "サイタマシチュウオウク",
    "town": "大字下落合",
    "town_kana": null,
    "street": "１０５０−１",
    "office_name": "全労済　埼玉県本部",
    "office_name_kana": "ゼンロウサイ サイタマケンホンブ"
  },
  "8505": {
    "postcode": "3388505",
    "prefecture": "埼玉県",
    "prefecture_kana": "サイタマケン",
    "prefecture_code": 11,
    "city": "さいたま市中央区",
    "city_kana": "サイタマシチュウオウク",
    "town": "本町西",
    "town_kana": "ホンマチニシ",
    "street": "５−２−６",
    "office_name": "日本ピストンリング　株式会社　Ｒ＆Ｄセンター",
    "office_name_kana": "ニツポンピストンリング カブシキガイシヤ ア-ルアンドデイ-センタ-"
  },
  "8506": {
    "postcode": "3388506",
    "prefecture": "埼玉県",
    "prefecture_kana": "サイタマケン",
    "prefecture_code": 11,
    "city": "さいたま市中央区",
    "city_kana": "サイタマシチュウオウク",
    "town": "上峰",
    "town_kana": "ウエミネ",
    "street": "３丁目１５−１",
    "office_name": "（財）　埼玉県芸術文化振興財団　彩の国さいたま芸術劇場",
    "office_name_kana": "(ザイ) サイタマケンゲイジユツブンカシンコウザイダン サイノクニサイタマゲイジユツゲキジヨウ"
  },
  "8508": {
    "postcode": "3388508",
    "prefecture": "埼玉県",
    "prefecture_kana": "サイタマケン",
    "prefecture_code": 11,
    "city": "さいたま市中央区",
    "city_kana": "サイタマシチュウオウク",
    "town": "上落合",
    "town_kana": "カミオチアイ",
    "street": "２丁目２−１",
    "office_name": "埼玉トヨペット　株式会社",
    "office_name_kana": "サイタマトヨペツト カブシキガイシヤ"
  },
  "8510": {
    "postcode": "3388510",
    "prefecture": "埼玉県",
    "prefecture_kana": "サイタマケン",
    "prefecture_code": 11,
    "city": "さいたま市中央区",
    "city_kana": "サイタマシチュウオウク",
    "town": "円阿弥",
    "town_kana": "エンナミ",
    "street": "７丁目７−８",
    "office_name": "ミサワホーム西関東　（株）",
    "office_name_kana": "ミサワホ-ムニシカントウ (カブ)"
  },
  "8511": {
    "postcode": "3388511",
    "prefecture": "埼玉県",
    "prefecture_kana": "サイタマケン",
    "prefecture_code": 11,
    "city": "さいたま市中央区",
    "city_kana": "サイタマシチュウオウク",
    "town": "上落合",
    "town_kana": "カミオチアイ",
    "street": "８−３−３２",
    "office_name": "株式会社　島忠",
    "office_name_kana": "カブシキガイシヤ シマチユウ"
  },
  "8512": {
    "postcode": "3388512",
    "prefecture": "埼玉県",
    "prefecture_kana": "サイタマケン",
    "prefecture_code": 11,
    "city": "さいたま市中央区",
    "city_kana": "サイタマシチュウオウク",
    "town": "大字下落合",
    "town_kana": null,
    "street": "１０７９−１",
    "office_name": "日本通運　株式会社　埼玉支店",
    "office_name_kana": "ニツポンツウウン カブシキガイシヤ サイタマシテン"
  },
  "8513": {
    "postcode": "3388513",
    "prefecture": "埼玉県",
    "prefecture_kana": "サイタマケン",
    "prefecture_code": 11,
    "city": "さいたま市中央区",
    "city_kana": "サイタマシチュウオウク",
    "town": "下落合",
    "town_kana": "シモオチアイ",
    "street": "五丁目１２番１号",
    "office_name": "さいたま地方法務局",
    "office_name_kana": "サイタマチホウホウムキヨク"
  },
  "8515": {
    "postcode": "3388515",
    "prefecture": "埼玉県",
    "prefecture_kana": "サイタマケン",
    "prefecture_code": 11,
    "city": "さいたま市中央区",
    "city_kana": "サイタマシチュウオウク",
    "town": "上落合",
    "town_kana": "カミオチアイ",
    "street": "８丁目１番１９号",
    "office_name": "株式会社　大塚商会　埼玉営業部",
    "office_name_kana": "カブシキガイシヤ オオツカシヨウカイ サイタマエイギヨウブ"
  },
  "8523": {
    "postcode": "3388523",
    "prefecture": "埼玉県",
    "prefecture_kana": "サイタマケン",
    "prefecture_code": 11,
    "city": "さいたま市中央区",
    "city_kana": "サイタマシチュウオウク",
    "town": "下落合",
    "town_kana": "シモオチアイ",
    "street": "４丁目２４−１５",
    "office_name": "日産プリンス埼玉販売　株式会社",
    "office_name_kana": "ニツサンプリンスサイタマハンバイ カブシキガイシヤ"
  },
  "8524": {
    "postcode": "3388524",
    "prefecture": "埼玉県",
    "prefecture_kana": "サイタマケン",
    "prefecture_code": 11,
    "city": "さいたま市桜区",
    "city_kana": "サイタマシサクラク",
    "town": "西堀",
    "town_kana": "ニシボリ",
    "street": "５丁目３−３５",
    "office_name": "コニシ　株式会社　浦和工場",
    "office_name_kana": "コニシ カブシキガイシヤ ウラワコウジヨウ"
  },
  "8525": {
    "postcode": "3388525",
    "prefecture": "埼玉県",
    "prefecture_kana": "サイタマケン",
    "prefecture_code": 11,
    "city": "さいたま市中央区",
    "city_kana": "サイタマシチュウオウク",
    "town": "上落合",
    "town_kana": "カミオチアイ",
    "street": "９丁目３−６",
    "office_name": "埼玉日産自動車　株式会社",
    "office_name_kana": "サイタマニツサンジドウシヤ カブシキガイシヤ"
  },
  "8531": {
    "postcode": "3388531",
    "prefecture": "埼玉県",
    "prefecture_kana": "サイタマケン",
    "prefecture_code": 11,
    "city": "さいたま市中央区",
    "city_kana": "サイタマシチュウオウク",
    "town": "下落合",
    "town_kana": "シモオチアイ",
    "street": "４丁目１−１",
    "office_name": "社団法人　日本自動車連盟　埼玉支部",
    "office_name_kana": "シヤダンホウジン ニホンジドウシヤレンメイ サイタマシブ"
  },
  "8538": {
    "postcode": "3388538",
    "prefecture": "埼玉県",
    "prefecture_kana": "サイタマケン",
    "prefecture_code": 11,
    "city": "さいたま市中央区",
    "city_kana": "サイタマシチュウオウク",
    "town": "上落合",
    "town_kana": "カミオチアイ",
    "street": "２丁目１−２４",
    "office_name": "株式会社　モリタ　東京製作所",
    "office_name_kana": "カブシキガイシヤ モリタ トウキヨウセイサクジヨ"
  },
  "8540": {
    "postcode": "3388540",
    "prefecture": "埼玉県",
    "prefecture_kana": "サイタマケン",
    "prefecture_code": 11,
    "city": "さいたま市中央区",
    "city_kana": "サイタマシチュウオウク",
    "town": "桜丘",
    "town_kana": "サクラオカ",
    "street": "２丁目８−２０",
    "office_name": "ドイト　株式会社　通販部",
    "office_name_kana": "ドイト カブシキガイシヤ ツウハンブ"
  },
  "8541": {
    "postcode": "3388541",
    "prefecture": "埼玉県",
    "prefecture_kana": "サイタマケン",
    "prefecture_code": 11,
    "city": "さいたま市中央区",
    "city_kana": "サイタマシチュウオウク",
    "town": "新中里",
    "town_kana": "シンナカザト",
    "street": "３丁目２０−３０",
    "office_name": "三輪精機　株式会社",
    "office_name_kana": "サンワセイキ カブシキガイシヤ"
  },
  "8551": {
    "postcode": "3388551",
    "prefecture": "埼玉県",
    "prefecture_kana": "サイタマケン",
    "prefecture_code": 11,
    "city": "さいたま市桜区",
    "city_kana": "サイタマシサクラク",
    "town": "桜田",
    "town_kana": "サクラダ",
    "street": "３丁目３−１",
    "office_name": "浦和中央青果市場　株式会社",
    "office_name_kana": "ウラワチユウセイカシジヨウ カブシキガイシヤ"
  },
  "8555": {
    "postcode": "3388555",
    "prefecture": "埼玉県",
    "prefecture_kana": "サイタマケン",
    "prefecture_code": 11,
    "city": "さいたま市中央区",
    "city_kana": "サイタマシチュウオウク",
    "town": "上落合",
    "town_kana": "カミオチアイ",
    "street": "８丁目４−１１",
    "office_name": "埼玉スバル自動車　株式会社",
    "office_name_kana": "サイタマスバルジドウシヤ カブシキガイシヤ"
  },
  "8557": {
    "postcode": "3388557",
    "prefecture": "埼玉県",
    "prefecture_kana": "サイタマケン",
    "prefecture_code": 11,
    "city": "さいたま市中央区",
    "city_kana": "サイタマシチュウオウク",
    "town": "上落合",
    "town_kana": "カミオチアイ",
    "street": "一丁目１２番１６号",
    "office_name": "あいおいニッセイ同和損害保険　株式会社",
    "office_name_kana": "アイオイニツセイドウワソンガイホケン カブシキガイシヤ"
  },
  "8558": {
    "postcode": "3388558",
    "prefecture": "埼玉県",
    "prefecture_kana": "サイタマケン",
    "prefecture_code": 11,
    "city": "さいたま市中央区",
    "city_kana": "サイタマシチュウオウク",
    "town": "上落合",
    "town_kana": "カミオチアイ",
    "street": "２丁目４−１",
    "office_name": "ＵＦＪニコス　株式会社　北関東管理部",
    "office_name_kana": "ユ-エフジエイニコス カブシキガイシヤ キタカントウカンリブ"
  },
  "8566": {
    "postcode": "3388566",
    "prefecture": "埼玉県",
    "prefecture_kana": "サイタマケン",
    "prefecture_code": 11,
    "city": "さいたま市中央区",
    "city_kana": "サイタマシチュウオウク",
    "town": "桜丘",
    "town_kana": "サクラオカ",
    "street": "２丁目８−２０",
    "office_name": "ドイト　株式会社",
    "office_name_kana": "ドイト カブシキガイシヤ"
  },
  "8567": {
    "postcode": "3388567",
    "prefecture": "埼玉県",
    "prefecture_kana": "サイタマケン",
    "prefecture_code": 11,
    "city": "さいたま市中央区",
    "city_kana": "サイタマシチュウオウク",
    "town": "大字下落合",
    "town_kana": null,
    "street": "１０２７",
    "office_name": "株式会社　与野フードセンター",
    "office_name_kana": "カブシキガイシヤ ヨノフ-ドセンタ-"
  },
  "8570": {
    "postcode": "3388570",
    "prefecture": "埼玉県",
    "prefecture_kana": "サイタマケン",
    "prefecture_code": 11,
    "city": "さいたま市桜区",
    "city_kana": "サイタマシサクラク",
    "town": "大字下大久保",
    "town_kana": null,
    "street": "２５５",
    "office_name": "埼玉大学",
    "office_name_kana": "サイタマダイガク"
  },
  "8575": {
    "postcode": "3388575",
    "prefecture": "埼玉県",
    "prefecture_kana": "サイタマケン",
    "prefecture_code": 11,
    "city": "さいたま市桜区",
    "city_kana": "サイタマシサクラク",
    "town": "桜田",
    "town_kana": "サクラダ",
    "street": "３丁目９−２５",
    "office_name": "株式会社　カバサワ",
    "office_name_kana": "カブシキガイシヤ カバサワ"
  },
  "8577": {
    "postcode": "3388577",
    "prefecture": "埼玉県",
    "prefecture_kana": "サイタマケン",
    "prefecture_code": 11,
    "city": "さいたま市中央区",
    "city_kana": "サイタマシチュウオウク",
    "town": "本町東",
    "town_kana": "ホンマチヒガシ",
    "street": "６丁目１１−１",
    "office_name": "埼玉精神神経センター",
    "office_name_kana": "サイタマセイシンシンケイセンタ-"
  },
  "8580": {
    "postcode": "3388580",
    "prefecture": "埼玉県",
    "prefecture_kana": "サイタマケン",
    "prefecture_code": 11,
    "city": "さいたま市中央区",
    "city_kana": "サイタマシチュウオウク",
    "town": "本町西",
    "town_kana": "ホンマチニシ",
    "street": "４丁目１７−１０",
    "office_name": "東京電力　株式会社　さいたま支社",
    "office_name_kana": "トウキヨウデンリヨク カブシキガイシヤ サイタマシシヤ"
  },
  "8585": {
    "postcode": "3388585",
    "prefecture": "埼玉県",
    "prefecture_kana": "サイタマケン",
    "prefecture_code": 11,
    "city": "さいたま市中央区",
    "city_kana": "サイタマシチュウオウク",
    "town": "円阿弥",
    "town_kana": "エンナミ",
    "street": "３丁目３−２０",
    "office_name": "トヨタカローラ新埼玉　株式会社",
    "office_name_kana": "トヨタカロ-ラシンサイタマ カブシキガイシヤ"
  },
  "8586": {
    "postcode": "3388586",
    "prefecture": "埼玉県",
    "prefecture_kana": "サイタマケン",
    "prefecture_code": 11,
    "city": "さいたま市桜区",
    "city_kana": "サイタマシサクラク",
    "town": "道場",
    "town_kana": "ドウジョウ",
    "street": "４丁目３−１（与野郵便局私書箱第５号）",
    "office_name": "桜区役所",
    "office_name_kana": "サクラクヤクシヨ"
  },
  "8630": {
    "postcode": "3388630",
    "prefecture": "埼玉県",
    "prefecture_kana": "サイタマケン",
    "prefecture_code": 11,
    "city": "さいたま市中央区",
    "city_kana": "サイタマシチュウオウク",
    "town": "下落合",
    "town_kana": "シモオチアイ",
    "street": "５−７−１０",
    "office_name": "さいたま市郵送請求処理センター",
    "office_name_kana": "サイタマシユウソウセイキユウシヨリセンタ-"
  },
  "8686": {
    "postcode": "3388686",
    "prefecture": "埼玉県",
    "prefecture_kana": "サイタマケン",
    "prefecture_code": 11,
    "city": "さいたま市中央区",
    "city_kana": "サイタマシチュウオウク",
    "town": "下落合",
    "town_kana": "シモオチアイ",
    "street": "５丁目７−１０（与野郵便局私書箱第１号）",
    "office_name": "中央区役所",
    "office_name_kana": "チユウオウクヤクシヨ"
  }
}