{
  "0000": {
    "postcode": "3390000",
    "prefecture": "埼玉県",
    "prefecture_kana": "サイタマケン",
    "prefecture_code": 11,
    "city": "さいたま市岩槻区",
    "city_kana": "サイタマシイワツキク",
    "town": "",
    "town_kana": "",
    "street": null,
    "office_name": null,
    "office_name_kana": null
  },
  "0001": {
    "postcode": "3390001",
    "prefecture": "埼玉県",
    "prefecture_kana": "サイタマケン",
    "prefecture_code": 11,
    "city": "さいたま市岩槻区",
    "city_kana": "サイタマシイワツキク",
    "town": "鹿室",
    "town_kana": "カナムロ",
    "street": null,
    "office_name": null,
    "office_name_kana": null
  },
  "0002": {
    "postcode": "3390002",
    "prefecture": "埼玉県",
    "prefecture_kana": "サイタマケン",
    "prefecture_code": 11,
    "city": "さいたま市岩槻区",
    "city_kana": "サイタマシイワツキク",
    "town": "裏慈恩寺",
    "town_kana": "ウラジオンジ",
    "street": null,
    "office_name": null,
    "office_name_kana": null
  },
  "0003": {
    "postcode": "3390003",
    "prefecture": "埼玉県",
    "prefecture_kana": "サイタマケン",
    "prefecture_code": 11,
    "city": "さいたま市岩槻区",
    "city_kana": "サイタマシイワツキク",
    "town": "小溝",
    "town_kana": "コミゾ",
    "street": null,
    "office_name": null,
    "office_name_kana": null
  },
  "0004": {
    "postcode": "3390004",
    "prefecture": "埼玉県",
    "prefecture_kana": "サイタマケン",
    "prefecture_code": 11,
    "city": "さいたま市岩槻区",
    "city_kana": "サイタマシイワツキク",
    "town": "徳力",
    "town_kana": "トクリキ",
    "street": null,
    "office_name": null,
    "office_name_kana": null
  },
  "0005": {
    "postcode": "3390005",
    "prefecture": "埼玉県",
    "prefecture_kana": "サイタマケン",
    "prefecture_code": 11,
    "city": "さいたま市岩槻区",
    "city_kana": "サイタマシイワツキク",
    "town": "東岩槻",
    "town_kana": "ヒガシイワツキ",
    "street": null,
    "office_name": null,
    "office_name_kana": null
  },
  "0006": {
    "postcode": "3390006",
    "prefecture": "埼玉県",
    "prefecture_kana": "サイタマケン",
    "prefecture_code": 11,
    "city": "さいたま市岩槻区",
    "city_kana": "サイタマシイワツキク",
    "town": "上里",
    "town_kana": "カミサト",
    "street": null,
    "office_name": null,
    "office_name_kana": null
  },
  "0007": {
    "postcode": "3390007",
    "prefecture": "埼玉県",
    "prefecture_kana": "サイタマケン",
    "prefecture_code": 11,
    "city": "さいたま市岩槻区",
    "city_kana": "サイタマシイワツキク",
    "town": "諏訪",
    "town_kana": "スワ",
    "street": null,
    "office_name": null,
    "office_name_kana": null
  },
  "0008": {
    "postcode": "3390008",
    "prefecture": "埼玉県",
    "prefecture_kana": "サイタマケン",
    "prefecture_code": 11,
    "city": "さいたま市岩槻区",
    "city_kana": "サイタマシイワツキク",
    "town": "表慈恩寺",
    "town_kana": "オモテジオンジ",
    "street": null,
    "office_name": null,
    "office_name_kana": null
  },
  "0009": {
    "postcode": "3390009",
    "prefecture": "埼玉県",
    "prefecture_kana": "サイタマケン",
    "prefecture_code": 11,
    "city": "さいたま市岩槻区",
    "city_kana": "サイタマシイワツキク",
    "town": "慈恩寺",
    "town_kana": "ジオンジ",
    "street": null,
    "office_name": null,
    "office_name_kana": null
  },
  "0011": {
    "postcode": "3390011",
    "prefecture": "埼玉県",
    "prefecture_kana": "サイタマケン",
    "prefecture_code": 11,
    "city": "さいたま市岩槻区",
    "city_kana": "サイタマシイワツキク",
    "town": "長宮",
    "town_kana": "ナガミヤ",
    "street": null,
    "office_name": null,
    "office_name_kana": null
  },
  "0012": {
    "postcode": "3390012",
    "prefecture": "埼玉県",
    "prefecture_kana": "サイタマケン",
    "prefecture_code": 11,
    "city": "さいたま市岩槻区",
    "city_kana": "サイタマシイワツキク",
    "town": "増長",
    "town_kana": "マシナガ",
    "street": null,
    "office_name": null,
    "office_name_kana": null
  },
  "0013": {
    "postcode": "3390013",
    "prefecture": "埼玉県",
    "prefecture_kana": "サイタマケン",
    "prefecture_code": 11,
    "city": "さいたま市岩槻区",
    "city_kana": "サイタマシイワツキク",
    "town": "大口",
    "town_kana": "オオグチ",
    "street": null,
    "office_name": null,
    "office_name_kana": null
  },
  "0014": {
    "postcode": "3390014",
    "prefecture": "埼玉県",
    "prefecture_kana": "サイタマケン",
    "prefecture_code": 11,
    "city": "さいたま市岩槻区",
    "city_kana": "サイタマシイワツキク",
    "town": "大戸",
    "town_kana": "オオト",
    "street": null,
    "office_name": null,
    "office_name_kana": null
  },
  "0015": {
    "postcode": "3390015",
    "prefecture": "埼玉県",
    "prefecture_kana": "サイタマケン",
    "prefecture_code": 11,
    "city": "さいたま市岩槻区",
    "city_kana": "サイタマシイワツキク",
    "town": "大谷",
    "town_kana": "オオヤ",
    "street": null,
    "office_name": null,
    "office_name_kana": null
  },
  "0016": {
    "postcode": "3390016",
    "prefecture": "埼玉県",
    "prefecture_kana": "サイタマケン",
    "prefecture_code": 11,
    "city": "さいたま市岩槻区",
    "city_kana": "サイタマシイワツキク",
    "town": "新方須賀",
    "town_kana": "ニイガタスカ",
    "street": null,
    "office_name": null,
    "office_name_kana": null
  },
  "0017": {
    "postcode": "3390017",
    "prefecture": "埼玉県",
    "prefecture_kana": "サイタマケン",
    "prefecture_code": 11,
    "city": "さいたま市岩槻区",
    "city_kana": "サイタマシイワツキク",
    "town": "大森",
    "town_kana": "オオモリ",
    "street": null,
    "office_name": null,
    "office_name_kana": null
  },
  "0018": {
    "postcode": "3390018",
    "prefecture": "埼玉県",
    "prefecture_kana": "サイタマケン",
    "prefecture_code": 11,
    "city": "さいたま市岩槻区",
    "city_kana": "サイタマシイワツキク",
    "town": "大野島",
    "town_kana": "オオノジマ",
    "street": null,
    "office_name": null,
    "office_name_kana": null
  },
  "0021": {
    "postcode": "3390021",
    "prefecture": "埼玉県",
    "prefecture_kana": "サイタマケン",
    "prefecture_code": 11,
    "city": "さいたま市岩槻区",
    "city_kana": "サイタマシイワツキク",
    "town": "末田",
    "town_kana": "スエダ",
    "street": null,
    "office_name": null,
    "office_name_kana": null
  },
  "0022": {
    "postcode": "3390022",
    "prefecture": "埼玉県",
    "prefecture_kana": "サイタマケン",
    "prefecture_code": 11,
    "city": "さいたま市岩槻区",
    "city_kana": "サイタマシイワツキク",
    "town": "高曽根",
    "town_kana": "タカソネ",
    "street": null,
    "office_name": null,
    "office_name_kana": null
  },
  "0023": {
    "postcode": "3390023",
    "prefecture": "埼玉県",
    "prefecture_kana": "サイタマケン",
    "prefecture_code": 11,
    "city": "さいたま市岩槻区",
    "city_kana": "サイタマシイワツキク",
    "town": "野孫",
    "town_kana": "ノマゴ",
    "street": null,
    "office_name": null,
    "office_name_kana": null
  },
  "0024": {
    "postcode": "3390024",
    "prefecture": "埼玉県",
    "prefecture_kana": "サイタマケン",
    "prefecture_code": 11,
    "city": "さいたま市岩槻区",
    "city_kana": "サイタマシイワツキク",
    "town": "釣上",
    "town_kana": "カギアゲ",
    "street": null,
    "office_name": null,
    "office_name_kana": null
  },
  "0025": {
    "postcode": "3390025",
    "prefecture": "埼玉県",
    "prefecture_kana": "サイタマケン",
    "prefecture_code": 11,
    "city": "さいたま市岩槻区",
    "city_kana": "サイタマシイワツキク",
    "town": "釣上新田",
    "town_kana": "カギアゲシンデン",
    "street": null,
    "office_name": null,
    "office_name_kana": null
  },
  "0026": {
    "postcode": "3390026",
    "prefecture": "埼玉県",
    "prefecture_kana": "サイタマケン",
    "prefecture_code": 11,
    "city": "さいたま市岩槻区",
    "city_kana": "サイタマシイワツキク",
    "town": "尾ヶ崎新田",
    "town_kana": "オガサキシンデン",
    "street": null,
    "office_name": null,
    "office_name_kana": null
  },
  "0027": {
    "postcode": "3390027",
    "prefecture": "埼玉県",
    "prefecture_kana": "サイタマケン",
    "prefecture_code": 11,
    "city": "さいたま市岩槻区",
    "city_kana": "サイタマシイワツキク",
    "town": "尾ヶ崎",
    "town_kana": "オガサキ",
    "street": null,
    "office_name": null,
    "office_name_kana": null
  },
  "0028": {
    "postcode": "3390028",
    "prefecture": "埼玉県",
    "prefecture_kana": "サイタマケン",
    "prefecture_code": 11,
    "city": "さいたま市岩槻区",
    "city_kana": "サイタマシイワツキク",
    "town": "美園東",
    "town_kana": "ミソノヒガシ",
    "street": null,
    "office_name": null,
    "office_name_kana": null
  },
  "0031": {
    "postcode": "3390031",
    "prefecture": "埼玉県",
    "prefecture_kana": "サイタマケン",
    "prefecture_code": 11,
    "city": "さいたま市岩槻区",
    "city_kana": "サイタマシイワツキク",
    "town": "飯塚",
    "town_kana": "イイヅカ",
    "street": null,
    "office_name": null,
    "office_name_kana": null
  },
  "0032": {
    "postcode": "3390032",
    "prefecture": "埼玉県",
    "prefecture_kana": "サイタマケン",
    "prefecture_code": 11,
    "city": "さいたま市岩槻区",
    "city_kana": "サイタマシイワツキク",
    "town": "南下新井",
    "town_kana": "ミナミシモアライ",
    "street": null,
    "office_name": null,
    "office_name_kana": null
  },
  "0033": {
    "postcode": "3390033",
    "prefecture": "埼玉県",
    "prefecture_kana": "サイタマケン",
    "prefecture_code": 11,
    "city": "さいたま市岩槻区",
    "city_kana": "サイタマシイワツキク",
    "town": "黒谷",
    "town_kana": "クロヤ",
    "street": null,
    "office_name": null,
    "office_name_kana": null
  },
  "0034": {
    "postcode": "3390034",
    "prefecture": "埼玉県",
    "prefecture_kana": "サイタマケン",
    "prefecture_code": 11,
    "city": "さいたま市岩槻区",
    "city_kana": "サイタマシイワツキク",
    "town": "笹久保",
    "town_kana": "ササクボ",
    "street": null,
    "office_name": null,
    "office_name_kana": null
  },
  "0035": {
    "postcode": "3390035",
    "prefecture": "埼玉県",
    "prefecture_kana": "サイタマケン",
    "prefecture_code": 11,
    "city": "さいたま市岩槻区",
    "city_kana": "サイタマシイワツキク",
    "town": "笹久保新田",
    "town_kana": "ササクボシンデン",
    "street": null,
    "office_name": null,
    "office_name_kana": null
  },
  "0036": {
    "postcode": "3390036",
    "prefecture": "埼玉県",
    "prefecture_kana": "サイタマケン",
    "prefecture_code": 11,
    "city": "さいたま市岩槻区",
    "city_kana": "サイタマシイワツキク",
    "town": "横根",
    "town_kana": "ヨコネ",
    "street": null,
    "office_name": null,
    "office_name_kana": null
  },
  "0037": {
    "postcode": "3390037",
    "prefecture": "埼玉県",
    "prefecture_kana": "サイタマケン",
    "prefecture_code": 11,
    "city": "さいたま市岩槻区",
    "city_kana": "サイタマシイワツキク",
    "town": "浮谷",
    "town_kana": "ウキヤ",
    "street": null,
    "office_name": null,
    "office_name_kana": null
  },
  "0041": {
    "postcode": "3390041",
    "prefecture": "埼玉県",
    "prefecture_kana": "サイタマケン",
    "prefecture_code": 11,
    "city": "さいたま市岩槻区",
    "city_kana": "サイタマシイワツキク",
    "town": "村国",
    "town_kana": "ムラクニ",
    "street": null,
    "office_name": null,
    "office_name_kana": null
  },
  "0042": {
    "postcode": "3390042",
    "prefecture": "埼玉県",
    "prefecture_kana": "サイタマケン",
    "prefecture_code": 11,
    "city": "さいたま市岩槻区",
    "city_kana": "サイタマシイワツキク",
    "town": "府内",
    "town_kana": "フナイ",
    "street": null,
    "office_name": null,
    "office_name_kana": null
  },
  "0043": {
    "postcode": "3390043",
    "prefecture": "埼玉県",
    "prefecture_kana": "サイタマケン",
    "prefecture_code": 11,
    "city": "さいたま市岩槻区",
    "city_kana": "サイタマシイワツキク",
    "town": "城南",
    "town_kana": "ジョウナン",
    "street": null,
    "office_name": null,
    "office_name_kana": null
  },
  "0044": {
    "postcode": "3390044",
    "prefecture": "埼玉県",
    "prefecture_kana": "サイタマケン",
    "prefecture_code": 11,
    "city": "さいたま市岩槻区",
    "city_kana": "サイタマシイワツキク",
    "town": "真福寺",
    "town_kana": "シンプクジ",
    "street": null,
    "office_name": null,
    "office_name_kana": null
  },
  "0045": {
    "postcode": "3390045",
    "prefecture": "埼玉県",
    "prefecture_kana": "サイタマケン",
    "prefecture_code": 11,
    "city": "さいたま市岩槻区",
    "city_kana": "サイタマシイワツキク",
    "town": "柏崎",
    "town_kana": "カシワザキ",
    "street": null,
    "office_name": null,
    "office_name_kana": null
  },
  "0046": {
    "postcode": "3390046",
    "prefecture": "埼玉県",
    "prefecture_kana": "サイタマケン",
    "prefecture_code": 11,
    "city": "さいたま市岩槻区",
    "city_kana": "サイタマシイワツキク",
    "town": "谷下",
    "town_kana": "ヤジタ",
    "street": null,
    "office_name": null,
    "office_name_kana": null
  },
  "0047": {
    "postcode": "3390047",
    "prefecture": "埼玉県",
    "prefecture_kana": "サイタマケン",
    "prefecture_code": 11,
    "city": "さいたま市岩槻区",
    "city_kana": "サイタマシイワツキク",
    "town": "原町",
    "town_kana": "ハラマチ",
    "street": null,
    "office_name": null,
    "office_name_kana": null
  },
  "0051": {
    "postcode": "3390051",
    "prefecture": "埼玉県",
    "prefecture_kana": "サイタマケン",
    "prefecture_code": 11,
    "city": "さいたま市岩槻区",
    "city_kana": "サイタマシイワツキク",
    "town": "南平野",
    "town_kana": "ミナミヒラノ",
    "street": null,
    "office_name": null,
    "office_name_kana": null
  },
  "0052": {
    "postcode": "3390052",
    "prefecture": "埼玉県",
    "prefecture_kana": "サイタマケン",
    "prefecture_code": 11,
    "city": "さいたま市岩槻区",
    "city_kana": "サイタマシイワツキク",
    "town": "太田",
    "town_kana": "オオタ",
    "street": null,
    "office_name": null,
    "office_name_kana": null
  },
  "0053": {
    "postcode": "3390053",
    "prefecture": "埼玉県",
    "prefecture_kana": "サイタマケン",
    "prefecture_code": 11,
    "city": "さいたま市岩槻区",
    "city_kana": "サイタマシイワツキク",
    "town": "城町",
    "town_kana": "シロマチ",
    "street": null,
    "office_name": null,
    "office_name_kana": null
  },
  "0054": {
    "postcode": "3390054",
    "prefecture": "埼玉県",
    "prefecture_kana": "サイタマケン",
    "prefecture_code": 11,
    "city": "さいたま市岩槻区",
    "city_kana": "サイタマシイワツキク",
    "town": "仲町",
    "town_kana": "ナカチョウ",
    "street": null,
    "office_name": null,
    "office_name_kana": null
  },
  "0055": {
    "postcode": "3390055",
    "prefecture": "埼玉県",
    "prefecture_kana": "サイタマケン",
    "prefecture_code": 11,
    "city": "さいたま市岩槻区",
    "city_kana": "サイタマシイワツキク",
    "town": "東町",
    "town_kana": "ヒガシチョウ",
    "street": null,
    "office_name": null,
    "office_name_kana": null
  },
  "0056": {
    "postcode": "3390056",
    "prefecture": "埼玉県",
    "prefecture_kana": "サイタマケン",
    "prefecture_code": 11,
    "city": "さいたま市岩槻区",
    "city_kana": "サイタマシイワツキク",
    "town": "加倉",
    "town_kana": "カクラ",
    "street": null,
    "office_name": null,
    "office_name_kana": null
  },
  "0057": {
    "postcode": "3390057",
    "prefecture": "埼玉県",
    "prefecture_kana": "サイタマケン",
    "prefecture_code": 11,
    "city": "さいたま市岩槻区",
    "city_kana": "サイタマシイワツキク",
    "town": "本町",
    "town_kana": "ホンチョウ",
    "street": null,
    "office_name": null,
    "office_name_kana": null
  },
  "0058": {
    "postcode": "3390058",
    "prefecture": "埼玉県",
    "prefecture_kana": "サイタマケン",
    "prefecture_code": 11,
    "city": "さいたま市岩槻区",
    "city_kana": "サイタマシイワツキク",
    "town": "本丸",
    "town_kana": "ホンマル",
    "street": null,
    "office_name": null,
    "office_name_kana": null
  },
  "0061": {
    "postcode": "3390061",
    "prefecture": "埼玉県",
    "prefecture_kana": "サイタマケン",
    "prefecture_code": 11,
    "city": "さいたま市岩槻区",
    "city_kana": "サイタマシイワツキク",
    "town": "岩槻",
    "town_kana": "イワツキ",
    "street": null,
    "office_name": null,
    "office_name_kana": null
  },
  "0062": {
    "postcode": "3390062",
    "prefecture": "埼玉県",
    "prefecture_kana": "サイタマケン",
    "prefecture_code": 11,
    "city": "さいたま市岩槻区",
    "city_kana": "サイタマシイワツキク",
    "town": "南辻",
    "town_kana": "ミナミツジ",
    "street": null,
    "office_name": null,
    "office_name_kana": null
  },
  "0063": {
    "postcode": "3390063",
    "prefecture": "埼玉県",
    "prefecture_kana": "サイタマケン",
    "prefecture_code": 11,
    "city": "さいたま市岩槻区",
    "city_kana": "サイタマシイワツキク",
    "town": "美幸町",
    "town_kana": "ミユキチョウ",
    "street": null,
    "office_name": null,
    "office_name_kana": null
  },
  "0064": {
    "postcode": "3390064",
    "prefecture": "埼玉県",
    "prefecture_kana": "サイタマケン",
    "prefecture_code": 11,
    "city": "さいたま市岩槻区",
    "city_kana": "サイタマシイワツキク",
    "town": "日の出町",
    "town_kana": "ヒノデチョウ",
    "street": null,
    "office_name": null,
    "office_name_kana": null
  },
  "0065": {
    "postcode": "3390065",
    "prefecture": "埼玉県",
    "prefecture_kana": "サイタマケン",
    "prefecture_code": 11,
    "city": "さいたま市岩槻区",
    "city_kana": "サイタマシイワツキク",
    "town": "宮町",
    "town_kana": "ミヤチョウ",
    "street": null,
    "office_name": null,
    "office_name_kana": null
  },
  "0066": {
    "postcode": "3390066",
    "prefecture": "埼玉県",
    "prefecture_kana": "サイタマケン",
    "prefecture_code": 11,
    "city": "さいたま市岩槻区",
    "city_kana": "サイタマシイワツキク",
    "town": "愛宕町",
    "town_kana": "アタゴチョウ",
    "street": null,
    "office_name": null,
    "office_name_kana": null
  },
  "0067": {
    "postcode": "3390067",
    "prefecture": "埼玉県",
    "prefecture_kana": "サイタマケン",
    "prefecture_code": 11,
    "city": "さいたま市岩槻区",
    "city_kana": "サイタマシイワツキク",
    "town": "西町",
    "town_kana": "ニシマチ",
    "street": null,
    "office_name": null,
    "office_name_kana": null
  },
  "0068": {
    "postcode": "3390068",
    "prefecture": "埼玉県",
    "prefecture_kana": "サイタマケン",
    "prefecture_code": 11,
    "city": "さいたま市岩槻区",
    "city_kana": "サイタマシイワツキク",
    "town": "並木",
    "town_kana": "ナミキ",
    "street": null,
    "office_name": null,
    "office_name_kana": null
  },
  "0069": {
    "postcode": "3390069",
    "prefecture": "埼玉県",
    "prefecture_kana": "サイタマケン",
    "prefecture_code": 11,
    "city": "さいたま市岩槻区",
    "city_kana": "サイタマシイワツキク",
    "town": "箕輪",
    "town_kana": "ミノワ",
    "street": null,
    "office_name": null,
    "office_name_kana": null
  },
  "0071": {
    "postcode": "3390071",
    "prefecture": "埼玉県",
    "prefecture_kana": "サイタマケン",
    "prefecture_code": 11,
    "city": "さいたま市岩槻区",
    "city_kana": "サイタマシイワツキク",
    "town": "相野原",
    "town_kana": "アイノハラ",
    "street": null,
    "office_name": null,
    "office_name_kana": null
  },
  "0072": {
    "postcode": "3390072",
    "prefecture": "埼玉県",
    "prefecture_kana": "サイタマケン",
    "prefecture_code": 11,
    "city": "さいたま市岩槻区",
    "city_kana": "サイタマシイワツキク",
    "town": "古ヶ場",
    "town_kana": "コカバ",
    "street": null,
    "office_name": null,
    "office_name_kana": null
  },
  "0073": {
    "postcode": "3390073",
    "prefecture": "埼玉県",
    "prefecture_kana": "サイタマケン",
    "prefecture_code": 11,
    "city": "さいたま市岩槻区",
    "city_kana": "サイタマシイワツキク",
    "town": "上野",
    "town_kana": "ウエノ",
    "street": null,
    "office_name": null,
    "office_name_kana": null
  },
  "0074": {
    "postcode": "3390074",
    "prefecture": "埼玉県",
    "prefecture_kana": "サイタマケン",
    "prefecture_code": 11,
    "city": "さいたま市岩槻区",
    "city_kana": "サイタマシイワツキク",
    "town": "本宿",
    "town_kana": "ホンジュク",
    "street": null,
    "office_name": null,
    "office_name_kana": null
  },
  "0075": {
    "postcode": "3390075",
    "prefecture": "埼玉県",
    "prefecture_kana": "サイタマケン",
    "prefecture_code": 11,
    "city": "さいたま市岩槻区",
    "city_kana": "サイタマシイワツキク",
    "town": "金重",
    "town_kana": "カナシゲ",
    "street": null,
    "office_name": null,
    "office_name_kana": null
  },
  "0076": {
    "postcode": "3390076",
    "prefecture": "埼玉県",
    "prefecture_kana": "サイタマケン",
    "prefecture_code": 11,
    "city": "さいたま市岩槻区",
    "city_kana": "サイタマシイワツキク",
    "town": "平林寺",
    "town_kana": "ヘイリンジ",
    "street": null,
    "office_name": null,
    "office_name_kana": null
  },
  "0077": {
    "postcode": "3390077",
    "prefecture": "埼玉県",
    "prefecture_kana": "サイタマケン",
    "prefecture_code": 11,
    "city": "さいたま市岩槻区",
    "city_kana": "サイタマシイワツキク",
    "town": "馬込",
    "town_kana": "マゴメ",
    "street": null,
    "office_name": null,
    "office_name_kana": null
  },
  "0078": {
    "postcode": "3390078",
    "prefecture": "埼玉県",
    "prefecture_kana": "サイタマケン",
    "prefecture_code": 11,
    "city": "さいたま市岩槻区",
    "city_kana": "サイタマシイワツキク",
    "town": "掛",
    "town_kana": "カケ",
    "street": null,
    "office_name": null,
    "office_name_kana": null
  },
  "0081": {
    "postcode": "3390081",
    "prefecture": "埼玉県",
    "prefecture_kana": "サイタマケン",
    "prefecture_code": 11,
    "city": "さいたま市岩槻区",
    "city_kana": "サイタマシイワツキク",
    "town": "西原",
    "town_kana": "ニシハラ",
    "street": null,
    "office_name": null,
    "office_name_kana": null
  },
  "0082": {
    "postcode": "3390082",
    "prefecture": "埼玉県",
    "prefecture_kana": "サイタマケン",
    "prefecture_code": 11,
    "city": "さいたま市岩槻区",
    "city_kana": "サイタマシイワツキク",
    "town": "西原台",
    "town_kana": "ニシハラダイ",
    "street": null,
    "office_name": null,
    "office_name_kana": null
  },
  "8501": {
    "postcode": "3398501",
    "prefecture": "埼玉県",
    "prefecture_kana": "サイタマケン",
    "prefecture_code": 11,
    "city": "さいたま市岩槻区",
    "city_kana": "サイタマシイワツキク",
    "town": "大字浮谷",
    "town_kana": null,
    "street": "３２０",
    "office_name": "目白大学",
    "office_name_kana": "メジロダイガク"
  },
  "8503": {
    "postcode": "3398503",
    "prefecture": "埼玉県",
    "prefecture_kana": "サイタマケン",
    "prefecture_code": 11,
    "city": "さいたま市岩槻区",
    "city_kana": "サイタマシイワツキク",
    "town": "浮谷",
    "town_kana": "ウキヤ",
    "street": "１５１２−１センコーさいたまＰＤセンター内",
    "office_name": "アマゾンジャパンＴＰＦＩ",
    "office_name_kana": "アマゾンジヤパンテイ-ピ-エフアイ"
  },
  "8510": {
    "postcode": "3398510",
    "prefecture": "埼玉県",
    "prefecture_kana": "サイタマケン",
    "prefecture_code": 11,
    "city": "さいたま市岩槻区",
    "city_kana": "サイタマシイワツキク",
    "town": "上野",
    "town_kana": "ウエノ",
    "street": "６丁目１２−８",
    "office_name": "藤倉ゴム工業　株式会社　岩槻工場",
    "office_name_kana": "フジクラゴムコウギヨウ カブシキカイシヤ イワツキコウジヨウ"
  },
  "8511": {
    "postcode": "3398511",
    "prefecture": "埼玉県",
    "prefecture_kana": "サイタマケン",
    "prefecture_code": 11,
    "city": "さいたま市岩槻区",
    "city_kana": "サイタマシイワツキク",
    "town": "大字鹿室",
    "town_kana": null,
    "street": "７７０−１",
    "office_name": "北海製罐　（株）　岩槻工場",
    "office_name_kana": "ホツカイセイカン (カブ) イワツキコウジヨウ"
  },
  "8521": {
    "postcode": "3398521",
    "prefecture": "埼玉県",
    "prefecture_kana": "サイタマケン",
    "prefecture_code": 11,
    "city": "さいたま市岩槻区",
    "city_kana": "サイタマシイワツキク",
    "town": "本町",
    "town_kana": "ホンチョウ",
    "street": "２丁目１０−５",
    "office_name": "丸山記念総合病院",
    "office_name_kana": "マルヤマキネンソウゴウビヨウイン"
  },
  "8539": {
    "postcode": "3398539",
    "prefecture": "埼玉県",
    "prefecture_kana": "サイタマケン",
    "prefecture_code": 11,
    "city": "さいたま市岩槻区",
    "city_kana": "サイタマシイワツキク",
    "town": "大字馬込",
    "town_kana": null,
    "street": "１２８８",
    "office_name": "人間総合科学大学",
    "office_name_kana": "ニンゲンソウゴウカガクダイガク"
  },
  "8551": {
    "postcode": "3398551",
    "prefecture": "埼玉県",
    "prefecture_kana": "サイタマケン",
    "prefecture_code": 11,
    "city": "さいたま市岩槻区",
    "city_kana": "サイタマシイワツキク",
    "town": "大字馬込",
    "town_kana": null,
    "street": "２１００",
    "office_name": "埼玉県立　小児医療センター",
    "office_name_kana": "サイタマケンリツ シヨウニイリヨウセンタ-"
  },
  "8558": {
    "postcode": "3398558",
    "prefecture": "埼玉県",
    "prefecture_kana": "サイタマケン",
    "prefecture_code": 11,
    "city": "さいたま市岩槻区",
    "city_kana": "サイタマシイワツキク",
    "town": "大字笹久保新田",
    "town_kana": null,
    "street": "５５０",
    "office_name": "株式会社　プラコー",
    "office_name_kana": "カブシキカイシヤ プラコ-"
  },
  "8566": {
    "postcode": "3398566",
    "prefecture": "埼玉県",
    "prefecture_kana": "サイタマケン",
    "prefecture_code": 11,
    "city": "さいたま市岩槻区",
    "city_kana": "サイタマシイワツキク",
    "town": "大字鹿室",
    "town_kana": null,
    "street": "８３９−１",
    "office_name": "株式会社　トーモク岩槻工場",
    "office_name_kana": "カブシキカイシヤ ト-モクイワツキコウジヨウ"
  },
  "8585": {
    "postcode": "3398585",
    "prefecture": "埼玉県",
    "prefecture_kana": "サイタマケン",
    "prefecture_code": 11,
    "city": "さいたま市岩槻区",
    "city_kana": "サイタマシイワツキク",
    "town": "本町",
    "town_kana": "ホンチョウ",
    "street": "３丁目２番５号",
    "office_name": "さいたま市　岩槻区役所",
    "office_name_kana": "サイタマシ イワツキクヤクシヨ"
  },
  "8601": {
    "postcode": "3398601",
    "prefecture": "埼玉県",
    "prefecture_kana": "サイタマケン",
    "prefecture_code": 11,
    "city": "さいたま市岩槻区",
    "city_kana": "サイタマシイワツキク",
    "town": "大字鹿室",
    "town_kana": null,
    "street": "１１９０",
    "office_name": "曙ブレーキ岩槻製造　株式会社",
    "office_name_kana": "アケボノブレ-キイワツキ カブシキカイシヤ"
  },
  "8686": {
    "postcode": "3398686",
    "prefecture": "埼玉県",
    "prefecture_kana": "サイタマケン",
    "prefecture_code": 11,
    "city": "さいたま市岩槻区",
    "city_kana": "サイタマシイワツキク",
    "town": "大字笹久保",
    "town_kana": null,
    "street": "２０５９番地（岩槻郵便局私書箱第５号）",
    "office_name": "花菱縫製　株式会社",
    "office_name_kana": "ハナビシホウセイ カブシキガイシヤ"
  }
}