{
  "0000": {
    "postcode": "3420000",
    "prefecture": "埼玉県",
    "prefecture_kana": "サイタマケン",
    "prefecture_code": 11,
    "city": "吉川市",
    "city_kana": "ヨシカワシ",
    "town": "",
    "town_kana": "",
    "street": null,
    "office_name": null,
    "office_name_kana": null
  },
  "0001": {
    "postcode": "3420001",
    "prefecture": "埼玉県",
    "prefecture_kana": "サイタマケン",
    "prefecture_code": 11,
    "city": "吉川市",
    "city_kana": "ヨシカワシ",
    "town": "上内川",
    "town_kana": "カミウチカワ",
    "street": null,
    "office_name": null,
    "office_name_kana": null
  },
  "0002": {
    "postcode": "3420002",
    "prefecture": "埼玉県",
    "prefecture_kana": "サイタマケン",
    "prefecture_code": 11,
    "city": "吉川市",
    "city_kana": "ヨシカワシ",
    "town": "下内川",
    "town_kana": "シモウチカワ",
    "street": null,
    "office_name": null,
    "office_name_kana": null
  },
  "0003": {
    "postcode": "3420003",
    "prefecture": "埼玉県",
    "prefecture_kana": "サイタマケン",
    "prefecture_code": 11,
    "city": "吉川市",
    "city_kana": "ヨシカワシ",
    "town": "八子新田",
    "town_kana": "ハチコシンデン",
    "street": null,
    "office_name": null,
    "office_name_kana": null
  },
  "0004": {
    "postcode": "3420004",
    "prefecture": "埼玉県",
    "prefecture_kana": "サイタマケン",
    "prefecture_code": 11,
    "city": "吉川市",
    "city_kana": "ヨシカワシ",
    "town": "鍋小路",
    "town_kana": "ナベコウジ",
    "street": null,
    "office_name": null,
    "office_name_kana": null
  },
  "0005": {
    "postcode": "3420005",
    "prefecture": "埼玉県",
    "prefecture_kana": "サイタマケン",
    "prefecture_code": 11,
    "city": "吉川市",
    "city_kana": "ヨシカワシ",
    "town": "川藤",
    "town_kana": "カワフジ",
    "street": null,
    "office_name": null,
    "office_name_kana": null
  },
  "0006": {
    "postcode": "3420006",
    "prefecture": "埼玉県",
    "prefecture_kana": "サイタマケン",
    "prefecture_code": 11,
    "city": "吉川市",
    "city_kana": "ヨシカワシ",
    "town": "南広島",
    "town_kana": "ミナミヒロシマ",
    "street": null,
    "office_name": null,
    "office_name_kana": null
  },
  "0007": {
    "postcode": "3420007",
    "prefecture": "埼玉県",
    "prefecture_kana": "サイタマケン",
    "prefecture_code": 11,
    "city": "吉川市",
    "city_kana": "ヨシカワシ",
    "town": "拾壱軒",
    "town_kana": "ジュウイッケン",
    "street": null,
    "office_name": null,
    "office_name_kana": null
  },
  "0008": {
    "postcode": "3420008",
    "prefecture": "埼玉県",
    "prefecture_kana": "サイタマケン",
    "prefecture_code": 11,
    "city": "吉川市",
    "city_kana": "ヨシカワシ",
    "town": "旭",
    "town_kana": "アサヒ",
    "street": null,
    "office_name": null,
    "office_name_kana": null
  },
  "0011": {
    "postcode": "3420011",
    "prefecture": "埼玉県",
    "prefecture_kana": "サイタマケン",
    "prefecture_code": 11,
    "city": "吉川市",
    "city_kana": "ヨシカワシ",
    "town": "深井新田",
    "town_kana": "フカイシンデン",
    "street": null,
    "office_name": null,
    "office_name_kana": null
  },
  "0012": {
    "postcode": "3420012",
    "prefecture": "埼玉県",
    "prefecture_kana": "サイタマケン",
    "prefecture_code": 11,
    "city": "吉川市",
    "city_kana": "ヨシカワシ",
    "town": "平方新田",
    "town_kana": "ヒラカタシンデン",
    "street": null,
    "office_name": null,
    "office_name_kana": null
  },
  "0013": {
    "postcode": "3420013",
    "prefecture": "埼玉県",
    "prefecture_kana": "サイタマケン",
    "prefecture_code": 11,
    "city": "吉川市",
    "city_kana": "ヨシカワシ",
    "town": "吉屋",
    "town_kana": "ヨシヤ",
    "street": null,
    "office_name": null,
    "office_name_kana": null
  },
  "0014": {
    "postcode": "3420014",
    "prefecture": "埼玉県",
    "prefecture_kana": "サイタマケン",
    "prefecture_code": 11,
    "city": "吉川市",
    "city_kana": "ヨシカワシ",
    "town": "関新田",
    "town_kana": "セキシンデン",
    "street": null,
    "office_name": null,
    "office_name_kana": null
  },
  "0015": {
    "postcode": "3420015",
    "prefecture": "埼玉県",
    "prefecture_kana": "サイタマケン",
    "prefecture_code": 11,
    "city": "吉川市",
    "city_kana": "ヨシカワシ",
    "town": "中井",
    "town_kana": "ナカイ",
    "street": null,
    "office_name": null,
    "office_name_kana": null
  },
  "0016": {
    "postcode": "3420016",
    "prefecture": "埼玉県",
    "prefecture_kana": "サイタマケン",
    "prefecture_code": 11,
    "city": "吉川市",
    "city_kana": "ヨシカワシ",
    "town": "会野谷",
    "town_kana": "アイノヤ",
    "street": null,
    "office_name": null,
    "office_name_kana": null
  },
  "0017": {
    "postcode": "3420017",
    "prefecture": "埼玉県",
    "prefecture_kana": "サイタマケン",
    "prefecture_code": 11,
    "city": "吉川市",
    "city_kana": "ヨシカワシ",
    "town": "上笹塚",
    "town_kana": "カミササヅカ",
    "street": null,
    "office_name": null,
    "office_name_kana": null
  },
  "0021": {
    "postcode": "3420021",
    "prefecture": "埼玉県",
    "prefecture_kana": "サイタマケン",
    "prefecture_code": 11,
    "city": "吉川市",
    "city_kana": "ヨシカワシ",
    "town": "鹿見塚",
    "town_kana": "シシミヅカ",
    "street": null,
    "office_name": null,
    "office_name_kana": null
  },
  "0022": {
    "postcode": "3420022",
    "prefecture": "埼玉県",
    "prefecture_kana": "サイタマケン",
    "prefecture_code": 11,
    "city": "吉川市",
    "city_kana": "ヨシカワシ",
    "town": "加藤",
    "town_kana": "カトウ",
    "street": null,
    "office_name": null,
    "office_name_kana": null
  },
  "0023": {
    "postcode": "3420023",
    "prefecture": "埼玉県",
    "prefecture_kana": "サイタマケン",
    "prefecture_code": 11,
    "city": "吉川市",
    "city_kana": "ヨシカワシ",
    "town": "皿沼",
    "town_kana": "サラヌマ",
    "street": null,
    "office_name": null,
    "office_name_kana": null
  },
  "0024": {
    "postcode": "3420024",
    "prefecture": "埼玉県",
    "prefecture_kana": "サイタマケン",
    "prefecture_code": 11,
    "city": "吉川市",
    "city_kana": "ヨシカワシ",
    "town": "半割",
    "town_kana": "ハンワリ",
    "street": null,
    "office_name": null,
    "office_name_kana": null
  },
  "0025": {
    "postcode": "3420025",
    "prefecture": "埼玉県",
    "prefecture_kana": "サイタマケン",
    "prefecture_code": 11,
    "city": "吉川市",
    "city_kana": "ヨシカワシ",
    "town": "飯島",
    "town_kana": "イイジマ",
    "street": null,
    "office_name": null,
    "office_name_kana": null
  },
  "0026": {
    "postcode": "3420026",
    "prefecture": "埼玉県",
    "prefecture_kana": "サイタマケン",
    "prefecture_code": 11,
    "city": "吉川市",
    "city_kana": "ヨシカワシ",
    "town": "土場",
    "town_kana": "ドジョウ",
    "street": null,
    "office_name": null,
    "office_name_kana": null
  },
  "0027": {
    "postcode": "3420027",
    "prefecture": "埼玉県",
    "prefecture_kana": "サイタマケン",
    "prefecture_code": 11,
    "city": "吉川市",
    "city_kana": "ヨシカワシ",
    "town": "三輪野江",
    "town_kana": "ミワノエ",
    "street": null,
    "office_name": null,
    "office_name_kana": null
  },
  "0031": {
    "postcode": "3420031",
    "prefecture": "埼玉県",
    "prefecture_kana": "サイタマケン",
    "prefecture_code": 11,
    "city": "吉川市",
    "city_kana": "ヨシカワシ",
    "town": "中島",
    "town_kana": "ナカジマ",
    "street": null,
    "office_name": null,
    "office_name_kana": null
  },
  "0032": {
    "postcode": "3420032",
    "prefecture": "埼玉県",
    "prefecture_kana": "サイタマケン",
    "prefecture_code": 11,
    "city": "吉川市",
    "city_kana": "ヨシカワシ",
    "town": "二ツ沼",
    "town_kana": "フタツヌマ",
    "street": null,
    "office_name": null,
    "office_name_kana": null
  },
  "0033": {
    "postcode": "3420033",
    "prefecture": "埼玉県",
    "prefecture_kana": "サイタマケン",
    "prefecture_code": 11,
    "city": "吉川市",
    "city_kana": "ヨシカワシ",
    "town": "中曽根",
    "town_kana": "ナカゾネ",
    "street": null,
    "office_name": null,
    "office_name_kana": null
  },
  "0034": {
    "postcode": "3420034",
    "prefecture": "埼玉県",
    "prefecture_kana": "サイタマケン",
    "prefecture_code": 11,
    "city": "吉川市",
    "city_kana": "ヨシカワシ",
    "town": "道庭",
    "town_kana": "ドウニワ",
    "street": null,
    "office_name": null,
    "office_name_kana": null
  },
  "0035": {
    "postcode": "3420035",
    "prefecture": "埼玉県",
    "prefecture_kana": "サイタマケン",
    "prefecture_code": 11,
    "city": "吉川市",
    "city_kana": "ヨシカワシ",
    "town": "高久",
    "town_kana": "タカヒサ",
    "street": null,
    "office_name": null,
    "office_name_kana": null
  },
  "0036": {
    "postcode": "3420036",
    "prefecture": "埼玉県",
    "prefecture_kana": "サイタマケン",
    "prefecture_code": 11,
    "city": "吉川市",
    "city_kana": "ヨシカワシ",
    "town": "高富",
    "town_kana": "タカドミ",
    "street": null,
    "office_name": null,
    "office_name_kana": null
  },
  "0037": {
    "postcode": "3420037",
    "prefecture": "埼玉県",
    "prefecture_kana": "サイタマケン",
    "prefecture_code": 11,
    "city": "吉川市",
    "city_kana": "ヨシカワシ",
    "town": "富新田",
    "town_kana": "トミシンデン",
    "street": null,
    "office_name": null,
    "office_name_kana": null
  },
  "0038": {
    "postcode": "3420038",
    "prefecture": "埼玉県",
    "prefecture_kana": "サイタマケン",
    "prefecture_code": 11,
    "city": "吉川市",
    "city_kana": "ヨシカワシ",
    "town": "美南",
    "town_kana": "ミナミ",
    "street": null,
    "office_name": null,
    "office_name_kana": null
  },
  "0041": {
    "postcode": "3420041",
    "prefecture": "埼玉県",
    "prefecture_kana": "サイタマケン",
    "prefecture_code": 11,
    "city": "吉川市",
    "city_kana": "ヨシカワシ",
    "town": "保",
    "town_kana": "ホ",
    "street": null,
    "office_name": null,
    "office_name_kana": null
  },
  "0042": {
    "postcode": "3420042",
    "prefecture": "埼玉県",
    "prefecture_kana": "サイタマケン",
    "prefecture_code": 11,
    "city": "吉川市",
    "city_kana": "ヨシカワシ",
    "town": "中野",
    "town_kana": "ナカノ",
    "street": null,
    "office_name": null,
    "office_name_kana": null
  },
  "0043": {
    "postcode": "3420043",
    "prefecture": "埼玉県",
    "prefecture_kana": "サイタマケン",
    "prefecture_code": 11,
    "city": "吉川市",
    "city_kana": "ヨシカワシ",
    "town": "小松川",
    "town_kana": "コマツガワ",
    "street": null,
    "office_name": null,
    "office_name_kana": null
  },
  "0044": {
    "postcode": "3420044",
    "prefecture": "埼玉県",
    "prefecture_kana": "サイタマケン",
    "prefecture_code": 11,
    "city": "吉川市",
    "city_kana": "ヨシカワシ",
    "town": "木売新田",
    "town_kana": "キウリシンデン",
    "street": null,
    "office_name": null,
    "office_name_kana": null
  },
  "0045": {
    "postcode": "3420045",
    "prefecture": "埼玉県",
    "prefecture_kana": "サイタマケン",
    "prefecture_code": 11,
    "city": "吉川市",
    "city_kana": "ヨシカワシ",
    "town": "木売",
    "town_kana": "キウリ",
    "street": null,
    "office_name": null,
    "office_name_kana": null
  },
  "0046": {
    "postcode": "3420046",
    "prefecture": "埼玉県",
    "prefecture_kana": "サイタマケン",
    "prefecture_code": 11,
    "city": "吉川市",
    "city_kana": "ヨシカワシ",
    "town": "共保",
    "town_kana": "キョウホ",
    "street": null,
    "office_name": null,
    "office_name_kana": null
  },
  "0047": {
    "postcode": "3420047",
    "prefecture": "埼玉県",
    "prefecture_kana": "サイタマケン",
    "prefecture_code": 11,
    "city": "吉川市",
    "city_kana": "ヨシカワシ",
    "town": "中川台",
    "town_kana": "ナカガワダイ",
    "street": null,
    "office_name": null,
    "office_name_kana": null
  },
  "0050": {
    "postcode": "3420050",
    "prefecture": "埼玉県",
    "prefecture_kana": "サイタマケン",
    "prefecture_code": 11,
    "city": "吉川市",
    "city_kana": "ヨシカワシ",
    "town": "栄町",
    "town_kana": "サカエチョウ",
    "street": null,
    "office_name": null,
    "office_name_kana": null
  },
  "0051": {
    "postcode": "3420051",
    "prefecture": "埼玉県",
    "prefecture_kana": "サイタマケン",
    "prefecture_code": 11,
    "city": "吉川市",
    "city_kana": "ヨシカワシ",
    "town": "川野",
    "town_kana": "カワノ",
    "street": null,
    "office_name": null,
    "office_name_kana": null
  },
  "0052": {
    "postcode": "3420052",
    "prefecture": "埼玉県",
    "prefecture_kana": "サイタマケン",
    "prefecture_code": 11,
    "city": "吉川市",
    "city_kana": "ヨシカワシ",
    "town": "川富",
    "town_kana": "カワドミ",
    "street": null,
    "office_name": null,
    "office_name_kana": null
  },
  "0053": {
    "postcode": "3420053",
    "prefecture": "埼玉県",
    "prefecture_kana": "サイタマケン",
    "prefecture_code": 11,
    "city": "吉川市",
    "city_kana": "ヨシカワシ",
    "town": "関",
    "town_kana": "セキ",
    "street": null,
    "office_name": null,
    "office_name_kana": null
  },
  "0054": {
    "postcode": "3420054",
    "prefecture": "埼玉県",
    "prefecture_kana": "サイタマケン",
    "prefecture_code": 11,
    "city": "吉川市",
    "city_kana": "ヨシカワシ",
    "town": "吉川団地",
    "town_kana": "ヨシカワダンチ",
    "street": null,
    "office_name": null,
    "office_name_kana": null
  },
  "0055": {
    "postcode": "3420055",
    "prefecture": "埼玉県",
    "prefecture_kana": "サイタマケン",
    "prefecture_code": 11,
    "city": "吉川市",
    "city_kana": "ヨシカワシ",
    "town": "吉川",
    "town_kana": "ヨシカワ",
    "street": null,
    "office_name": null,
    "office_name_kana": null
  },
  "0056": {
    "postcode": "3420056",
    "prefecture": "埼玉県",
    "prefecture_kana": "サイタマケン",
    "prefecture_code": 11,
    "city": "吉川市",
    "city_kana": "ヨシカワシ",
    "town": "平沼",
    "town_kana": "ヒラヌマ",
    "street": null,
    "office_name": null,
    "office_name_kana": null
  },
  "0057": {
    "postcode": "3420057",
    "prefecture": "埼玉県",
    "prefecture_kana": "サイタマケン",
    "prefecture_code": 11,
    "city": "吉川市",
    "city_kana": "ヨシカワシ",
    "town": "須賀",
    "town_kana": "スカ",
    "street": null,
    "office_name": null,
    "office_name_kana": null
  },
  "0058": {
    "postcode": "3420058",
    "prefecture": "埼玉県",
    "prefecture_kana": "サイタマケン",
    "prefecture_code": 11,
    "city": "吉川市",
    "city_kana": "ヨシカワシ",
    "town": "きよみ野",
    "town_kana": "キヨミノ",
    "street": null,
    "office_name": null,
    "office_name_kana": null
  },
  "0059": {
    "postcode": "3420059",
    "prefecture": "埼玉県",
    "prefecture_kana": "サイタマケン",
    "prefecture_code": 11,
    "city": "吉川市",
    "city_kana": "ヨシカワシ",
    "town": "新栄",
    "town_kana": "シンエイ",
    "street": null,
    "office_name": null,
    "office_name_kana": null
  },
  "0061": {
    "postcode": "3420061",
    "prefecture": "埼玉県",
    "prefecture_kana": "サイタマケン",
    "prefecture_code": 11,
    "city": "吉川市",
    "city_kana": "ヨシカワシ",
    "town": "中央",
    "town_kana": "チュウオウ",
    "street": null,
    "office_name": null,
    "office_name_kana": null
  },
  "8501": {
    "postcode": "3428501",
    "prefecture": "埼玉県",
    "prefecture_kana": "サイタマケン",
    "prefecture_code": 11,
    "city": "吉川市",
    "city_kana": "ヨシカワシ",
    "town": "きよみ野",
    "town_kana": "キヨミノ",
    "street": "一丁目１番地",
    "office_name": "吉川市役所",
    "office_name_kana": "ヨシカワシヤクシヨ"
  },
  "8502": {
    "postcode": "3428502",
    "prefecture": "埼玉県",
    "prefecture_kana": "サイタマケン",
    "prefecture_code": 11,
    "city": "吉川市",
    "city_kana": "ヨシカワシ",
    "town": "旭",
    "town_kana": "アサヒ",
    "street": "３−８",
    "office_name": "株式会社　オーム電機",
    "office_name_kana": "カブシキガイシヤ オ-ムデンキ"
  },
  "8505": {
    "postcode": "3428505",
    "prefecture": "埼玉県",
    "prefecture_kana": "サイタマケン",
    "prefecture_code": 11,
    "city": "吉川市",
    "city_kana": "ヨシカワシ",
    "town": "旭",
    "town_kana": "アサヒ",
    "street": "７−１",
    "office_name": "株式会社　丸和運輸機関",
    "office_name_kana": "カブシキガイシヤ マルワウンユキカン"
  },
  "8601": {
    "postcode": "3428601",
    "prefecture": "埼玉県",
    "prefecture_kana": "サイタマケン",
    "prefecture_code": 11,
    "city": "吉川市",
    "city_kana": "ヨシカワシ",
    "town": "高富",
    "town_kana": "タカドミ",
    "street": "１丁目３１番地４",
    "office_name": "株式会社　アサヒ情報",
    "office_name_kana": "カブシキガイシヤ アサヒジヨウホウ"
  }
}