{
  "0000": {
    "postcode": "3430000",
    "prefecture": "埼玉県",
    "prefecture_kana": "サイタマケン",
    "prefecture_code": 11,
    "city": "越谷市",
    "city_kana": "コシガヤシ",
    "town": "",
    "town_kana": "",
    "street": null,
    "office_name": null,
    "office_name_kana": null
  },
  "0001": {
    "postcode": "3430001",
    "prefecture": "埼玉県",
    "prefecture_kana": "サイタマケン",
    "prefecture_code": 11,
    "city": "越谷市",
    "city_kana": "コシガヤシ",
    "town": "平方南町",
    "town_kana": "ヒラカタミナミチョウ",
    "street": null,
    "office_name": null,
    "office_name_kana": null
  },
  "0002": {
    "postcode": "3430002",
    "prefecture": "埼玉県",
    "prefecture_kana": "サイタマケン",
    "prefecture_code": 11,
    "city": "越谷市",
    "city_kana": "コシガヤシ",
    "town": "平方",
    "town_kana": "ヒラカタ",
    "street": null,
    "office_name": null,
    "office_name_kana": null
  },
  "0003": {
    "postcode": "3430003",
    "prefecture": "埼玉県",
    "prefecture_kana": "サイタマケン",
    "prefecture_code": 11,
    "city": "越谷市",
    "city_kana": "コシガヤシ",
    "town": "船渡",
    "town_kana": "フナト",
    "street": null,
    "office_name": null,
    "office_name_kana": null
  },
  "0004": {
    "postcode": "3430004",
    "prefecture": "埼玉県",
    "prefecture_kana": "サイタマケン",
    "prefecture_code": 11,
    "city": "越谷市",
    "city_kana": "コシガヤシ",
    "town": "大松",
    "town_kana": "オオマツ",
    "street": null,
    "office_name": null,
    "office_name_kana": null
  },
  "0005": {
    "postcode": "3430005",
    "prefecture": "埼玉県",
    "prefecture_kana": "サイタマケン",
    "prefecture_code": 11,
    "city": "越谷市",
    "city_kana": "コシガヤシ",
    "town": "大杉",
    "town_kana": "オオスギ",
    "street": null,
    "office_name": null,
    "office_name_kana": null
  },
  "0006": {
    "postcode": "3430006",
    "prefecture": "埼玉県",
    "prefecture_kana": "サイタマケン",
    "prefecture_code": 11,
    "city": "越谷市",
    "city_kana": "コシガヤシ",
    "town": "北川崎",
    "town_kana": "キタカワサキ",
    "street": null,
    "office_name": null,
    "office_name_kana": null
  },
  "0007": {
    "postcode": "3430007",
    "prefecture": "埼玉県",
    "prefecture_kana": "サイタマケン",
    "prefecture_code": 11,
    "city": "越谷市",
    "city_kana": "コシガヤシ",
    "town": "向畑",
    "town_kana": "ムコウバタケ",
    "street": null,
    "office_name": null,
    "office_name_kana": null
  },
  "0008": {
    "postcode": "3430008",
    "prefecture": "埼玉県",
    "prefecture_kana": "サイタマケン",
    "prefecture_code": 11,
    "city": "越谷市",
    "city_kana": "コシガヤシ",
    "town": "大吉",
    "town_kana": "オオヨシ",
    "street": null,
    "office_name": null,
    "office_name_kana": null
  },
  "0011": {
    "postcode": "3430011",
    "prefecture": "埼玉県",
    "prefecture_kana": "サイタマケン",
    "prefecture_code": 11,
    "city": "越谷市",
    "city_kana": "コシガヤシ",
    "town": "増林",
    "town_kana": "マシバヤシ",
    "street": null,
    "office_name": null,
    "office_name_kana": null
  },
  "0012": {
    "postcode": "3430012",
    "prefecture": "埼玉県",
    "prefecture_kana": "サイタマケン",
    "prefecture_code": 11,
    "city": "越谷市",
    "city_kana": "コシガヤシ",
    "town": "増森",
    "town_kana": "マシモリ",
    "street": null,
    "office_name": null,
    "office_name_kana": null
  },
  "0013": {
    "postcode": "3430013",
    "prefecture": "埼玉県",
    "prefecture_kana": "サイタマケン",
    "prefecture_code": 11,
    "city": "越谷市",
    "city_kana": "コシガヤシ",
    "town": "中島",
    "town_kana": "ナカジマ",
    "street": null,
    "office_name": null,
    "office_name_kana": null
  },
  "0014": {
    "postcode": "3430014",
    "prefecture": "埼玉県",
    "prefecture_kana": "サイタマケン",
    "prefecture_code": 11,
    "city": "越谷市",
    "city_kana": "コシガヤシ",
    "town": "宮前",
    "town_kana": "ミヤマエ",
    "street": null,
    "office_name": null,
    "office_name_kana": null
  },
  "0015": {
    "postcode": "3430015",
    "prefecture": "埼玉県",
    "prefecture_kana": "サイタマケン",
    "prefecture_code": 11,
    "city": "越谷市",
    "city_kana": "コシガヤシ",
    "town": "花田",
    "town_kana": "ハナタ",
    "street": null,
    "office_name": null,
    "office_name_kana": null
  },
  "0021": {
    "postcode": "3430021",
    "prefecture": "埼玉県",
    "prefecture_kana": "サイタマケン",
    "prefecture_code": 11,
    "city": "越谷市",
    "city_kana": "コシガヤシ",
    "town": "大林",
    "town_kana": "オオバヤシ",
    "street": null,
    "office_name": null,
    "office_name_kana": null
  },
  "0022": {
    "postcode": "3430022",
    "prefecture": "埼玉県",
    "prefecture_kana": "サイタマケン",
    "prefecture_code": 11,
    "city": "越谷市",
    "city_kana": "コシガヤシ",
    "town": "東大沢",
    "town_kana": "ヒガシオオサワ",
    "street": null,
    "office_name": null,
    "office_name_kana": null
  },
  "0023": {
    "postcode": "3430023",
    "prefecture": "埼玉県",
    "prefecture_kana": "サイタマケン",
    "prefecture_code": 11,
    "city": "越谷市",
    "city_kana": "コシガヤシ",
    "town": "東越谷",
    "town_kana": "ヒガシコシガヤ",
    "street": null,
    "office_name": null,
    "office_name_kana": null
  },
  "0024": {
    "postcode": "3430024",
    "prefecture": "埼玉県",
    "prefecture_kana": "サイタマケン",
    "prefecture_code": 11,
    "city": "越谷市",
    "city_kana": "コシガヤシ",
    "town": "越ケ谷",
    "town_kana": "コシガヤ",
    "street": null,
    "office_name": null,
    "office_name_kana": null
  },
  "0025": {
    "postcode": "3430025",
    "prefecture": "埼玉県",
    "prefecture_kana": "サイタマケン",
    "prefecture_code": 11,
    "city": "越谷市",
    "city_kana": "コシガヤシ",
    "town": "大沢",
    "town_kana": "オオサワ",
    "street": null,
    "office_name": null,
    "office_name_kana": null
  },
  "0026": {
    "postcode": "3430026",
    "prefecture": "埼玉県",
    "prefecture_kana": "サイタマケン",
    "prefecture_code": 11,
    "city": "越谷市",
    "city_kana": "コシガヤシ",
    "town": "北越谷",
    "town_kana": "キタコシガヤ",
    "street": null,
    "office_name": null,
    "office_name_kana": null
  },
  "0027": {
    "postcode": "3430027",
    "prefecture": "埼玉県",
    "prefecture_kana": "サイタマケン",
    "prefecture_code": 11,
    "city": "越谷市",
    "city_kana": "コシガヤシ",
    "town": "大房",
    "town_kana": "オオフサ",
    "street": null,
    "office_name": null,
    "office_name_kana": null
  },
  "0031": {
    "postcode": "3430031",
    "prefecture": "埼玉県",
    "prefecture_kana": "サイタマケン",
    "prefecture_code": 11,
    "city": "越谷市",
    "city_kana": "コシガヤシ",
    "town": "大里",
    "town_kana": "オオザト",
    "street": null,
    "office_name": null,
    "office_name_kana": null
  },
  "0032": {
    "postcode": "3430032",
    "prefecture": "埼玉県",
    "prefecture_kana": "サイタマケン",
    "prefecture_code": 11,
    "city": "越谷市",
    "city_kana": "コシガヤシ",
    "town": "袋山",
    "town_kana": "フクロヤマ",
    "street": null,
    "office_name": null,
    "office_name_kana": null
  },
  "0033": {
    "postcode": "3430033",
    "prefecture": "埼玉県",
    "prefecture_kana": "サイタマケン",
    "prefecture_code": 11,
    "city": "越谷市",
    "city_kana": "コシガヤシ",
    "town": "恩間",
    "town_kana": "オンマ",
    "street": null,
    "office_name": null,
    "office_name_kana": null
  },
  "0034": {
    "postcode": "3430034",
    "prefecture": "埼玉県",
    "prefecture_kana": "サイタマケン",
    "prefecture_code": 11,
    "city": "越谷市",
    "city_kana": "コシガヤシ",
    "town": "大竹",
    "town_kana": "オオタケ",
    "street": null,
    "office_name": null,
    "office_name_kana": null
  },
  "0035": {
    "postcode": "3430035",
    "prefecture": "埼玉県",
    "prefecture_kana": "サイタマケン",
    "prefecture_code": 11,
    "city": "越谷市",
    "city_kana": "コシガヤシ",
    "town": "大道",
    "town_kana": "オオミチ",
    "street": null,
    "office_name": null,
    "office_name_kana": null
  },
  "0036": {
    "postcode": "3430036",
    "prefecture": "埼玉県",
    "prefecture_kana": "サイタマケン",
    "prefecture_code": 11,
    "city": "越谷市",
    "city_kana": "コシガヤシ",
    "town": "三野宮",
    "town_kana": "サンノミヤ",
    "street": null,
    "office_name": null,
    "office_name_kana": null
  },
  "0037": {
    "postcode": "3430037",
    "prefecture": "埼玉県",
    "prefecture_kana": "サイタマケン",
    "prefecture_code": 11,
    "city": "越谷市",
    "city_kana": "コシガヤシ",
    "town": "恩間新田",
    "town_kana": "オンマシンデン",
    "street": null,
    "office_name": null,
    "office_name_kana": null
  },
  "0041": {
    "postcode": "3430041",
    "prefecture": "埼玉県",
    "prefecture_kana": "サイタマケン",
    "prefecture_code": 11,
    "city": "越谷市",
    "city_kana": "コシガヤシ",
    "town": "千間台西",
    "town_kana": "センゲンダイニシ",
    "street": null,
    "office_name": null,
    "office_name_kana": null
  },
  "0042": {
    "postcode": "3430042",
    "prefecture": "埼玉県",
    "prefecture_kana": "サイタマケン",
    "prefecture_code": 11,
    "city": "越谷市",
    "city_kana": "コシガヤシ",
    "town": "千間台東",
    "town_kana": "センゲンダイヒガシ",
    "street": null,
    "office_name": null,
    "office_name_kana": null
  },
  "0043": {
    "postcode": "3430043",
    "prefecture": "埼玉県",
    "prefecture_kana": "サイタマケン",
    "prefecture_code": 11,
    "city": "越谷市",
    "city_kana": "コシガヤシ",
    "town": "上間久里",
    "town_kana": "カミマクリ",
    "street": null,
    "office_name": null,
    "office_name_kana": null
  },
  "0044": {
    "postcode": "3430044",
    "prefecture": "埼玉県",
    "prefecture_kana": "サイタマケン",
    "prefecture_code": 11,
    "city": "越谷市",
    "city_kana": "コシガヤシ",
    "town": "大泊",
    "town_kana": "オオドマリ",
    "street": null,
    "office_name": null,
    "office_name_kana": null
  },
  "0045": {
    "postcode": "3430045",
    "prefecture": "埼玉県",
    "prefecture_kana": "サイタマケン",
    "prefecture_code": 11,
    "city": "越谷市",
    "city_kana": "コシガヤシ",
    "town": "下間久里",
    "town_kana": "シモマクリ",
    "street": null,
    "office_name": null,
    "office_name_kana": null
  },
  "0046": {
    "postcode": "3430046",
    "prefecture": "埼玉県",
    "prefecture_kana": "サイタマケン",
    "prefecture_code": 11,
    "city": "越谷市",
    "city_kana": "コシガヤシ",
    "town": "弥栄町",
    "town_kana": "ヤサカチョウ",
    "street": null,
    "office_name": null,
    "office_name_kana": null
  },
  "0047": {
    "postcode": "3430047",
    "prefecture": "埼玉県",
    "prefecture_kana": "サイタマケン",
    "prefecture_code": 11,
    "city": "越谷市",
    "city_kana": "コシガヤシ",
    "town": "弥十郎",
    "town_kana": "ヤジュウロウ",
    "street": null,
    "office_name": null,
    "office_name_kana": null
  },
  "0100": {
    "postcode": "3430100",
    "prefecture": "埼玉県",
    "prefecture_kana": "サイタマケン",
    "prefecture_code": 11,
    "city": "北葛飾郡松伏町",
    "city_kana": "キタカツシカグンマツブシマチ",
    "town": "",
    "town_kana": "",
    "street": null,
    "office_name": null,
    "office_name_kana": null
  },
  "0101": {
    "postcode": "3430101",
    "prefecture": "埼玉県",
    "prefecture_kana": "サイタマケン",
    "prefecture_code": 11,
    "city": "北葛飾郡松伏町",
    "city_kana": "キタカツシカグンマツブシマチ",
    "town": "魚沼",
    "town_kana": "ウオヌマ",
    "street": null,
    "office_name": null,
    "office_name_kana": null
  },
  "0102": {
    "postcode": "3430102",
    "prefecture": "埼玉県",
    "prefecture_kana": "サイタマケン",
    "prefecture_code": 11,
    "city": "北葛飾郡松伏町",
    "city_kana": "キタカツシカグンマツブシマチ",
    "town": "築比地",
    "town_kana": "ツキヒジ",
    "street": null,
    "office_name": null,
    "office_name_kana": null
  },
  "0103": {
    "postcode": "3430103",
    "prefecture": "埼玉県",
    "prefecture_kana": "サイタマケン",
    "prefecture_code": 11,
    "city": "北葛飾郡松伏町",
    "city_kana": "キタカツシカグンマツブシマチ",
    "town": "金杉",
    "town_kana": "カナスギ",
    "street": null,
    "office_name": null,
    "office_name_kana": null
  },
  "0104": {
    "postcode": "3430104",
    "prefecture": "埼玉県",
    "prefecture_kana": "サイタマケン",
    "prefecture_code": 11,
    "city": "北葛飾郡松伏町",
    "city_kana": "キタカツシカグンマツブシマチ",
    "town": "田島東",
    "town_kana": "タジマヒガシ",
    "street": null,
    "office_name": null,
    "office_name_kana": null
  },
  "0105": {
    "postcode": "3430105",
    "prefecture": "埼玉県",
    "prefecture_kana": "サイタマケン",
    "prefecture_code": 11,
    "city": "北葛飾郡松伏町",
    "city_kana": "キタカツシカグンマツブシマチ",
    "town": "田島",
    "town_kana": "タジマ",
    "street": null,
    "office_name": null,
    "office_name_kana": null
  },
  "0106": {
    "postcode": "3430106",
    "prefecture": "埼玉県",
    "prefecture_kana": "サイタマケン",
    "prefecture_code": 11,
    "city": "北葛飾郡松伏町",
    "city_kana": "キタカツシカグンマツブシマチ",
    "town": "大川戸",
    "town_kana": "オオカワド",
    "street": null,
    "office_name": null,
    "office_name_kana": null
  },
  "0107": {
    "postcode": "3430107",
    "prefecture": "埼玉県",
    "prefecture_kana": "サイタマケン",
    "prefecture_code": 11,
    "city": "北葛飾郡松伏町",
    "city_kana": "キタカツシカグンマツブシマチ",
    "town": "田島南",
    "town_kana": "タジマミナミ",
    "street": null,
    "office_name": null,
    "office_name_kana": null
  },
  "0111": {
    "postcode": "3430111",
    "prefecture": "埼玉県",
    "prefecture_kana": "サイタマケン",
    "prefecture_code": 11,
    "city": "北葛飾郡松伏町",
    "city_kana": "キタカツシカグンマツブシマチ",
    "town": "松伏",
    "town_kana": "マツブシ",
    "street": null,
    "office_name": null,
    "office_name_kana": null
  },
  "0112": {
    "postcode": "3430112",
    "prefecture": "埼玉県",
    "prefecture_kana": "サイタマケン",
    "prefecture_code": 11,
    "city": "北葛飾郡松伏町",
    "city_kana": "キタカツシカグンマツブシマチ",
    "town": "松葉",
    "town_kana": "マツバ",
    "street": null,
    "office_name": null,
    "office_name_kana": null
  },
  "0113": {
    "postcode": "3430113",
    "prefecture": "埼玉県",
    "prefecture_kana": "サイタマケン",
    "prefecture_code": 11,
    "city": "北葛飾郡松伏町",
    "city_kana": "キタカツシカグンマツブシマチ",
    "town": "ゆめみ野",
    "town_kana": "ユメミノ",
    "street": null,
    "office_name": null,
    "office_name_kana": null
  },
  "0114": {
    "postcode": "3430114",
    "prefecture": "埼玉県",
    "prefecture_kana": "サイタマケン",
    "prefecture_code": 11,
    "city": "北葛飾郡松伏町",
    "city_kana": "キタカツシカグンマツブシマチ",
    "town": "ゆめみ野東",
    "town_kana": "ユメミノヒガシ",
    "street": null,
    "office_name": null,
    "office_name_kana": null
  },
  "0115": {
    "postcode": "3430115",
    "prefecture": "埼玉県",
    "prefecture_kana": "サイタマケン",
    "prefecture_code": 11,
    "city": "北葛飾郡松伏町",
    "city_kana": "キタカツシカグンマツブシマチ",
    "town": "上赤岩",
    "town_kana": "カミアカイワ",
    "street": null,
    "office_name": null,
    "office_name_kana": null
  },
  "0116": {
    "postcode": "3430116",
    "prefecture": "埼玉県",
    "prefecture_kana": "サイタマケン",
    "prefecture_code": 11,
    "city": "北葛飾郡松伏町",
    "city_kana": "キタカツシカグンマツブシマチ",
    "town": "下赤岩",
    "town_kana": "シモアカイワ",
    "street": null,
    "office_name": null,
    "office_name_kana": null
  },
  "0117": {
    "postcode": "3430117",
    "prefecture": "埼玉県",
    "prefecture_kana": "サイタマケン",
    "prefecture_code": 11,
    "city": "北葛飾郡松伏町",
    "city_kana": "キタカツシカグンマツブシマチ",
    "town": "田中",
    "town_kana": "タナカ",
    "street": null,
    "office_name": null,
    "office_name_kana": null
  },
  "0192": {
    "postcode": "3430192",
    "prefecture": "埼玉県",
    "prefecture_kana": "サイタマケン",
    "prefecture_code": 11,
    "city": "北葛飾郡松伏町",
    "city_kana": "キタカツシカグンマツブシマチ",
    "town": "大字松伏",
    "town_kana": null,
    "street": "２４２４",
    "office_name": "松伏町役場",
    "office_name_kana": "マツブシマチヤクバ"
  },
  "0193": {
    "postcode": "3430193",
    "prefecture": "埼玉県",
    "prefecture_kana": "サイタマケン",
    "prefecture_code": 11,
    "city": "北葛飾郡松伏町",
    "city_kana": "キタカツシカグンマツブシマチ",
    "town": "大字築比地",
    "town_kana": null,
    "street": "",
    "office_name": "大正大学　埼玉校舎",
    "office_name_kana": "タイシヨウダイガク サイタマコウシヤ"
  },
  "0801": {
    "postcode": "3430801",
    "prefecture": "埼玉県",
    "prefecture_kana": "サイタマケン",
    "prefecture_code": 11,
    "city": "越谷市",
    "city_kana": "コシガヤシ",
    "town": "野島",
    "town_kana": "ノジマ",
    "street": null,
    "office_name": null,
    "office_name_kana": null
  },
  "0802": {
    "postcode": "3430802",
    "prefecture": "埼玉県",
    "prefecture_kana": "サイタマケン",
    "prefecture_code": 11,
    "city": "越谷市",
    "city_kana": "コシガヤシ",
    "town": "小曽川",
    "town_kana": "オソガワ",
    "street": null,
    "office_name": null,
    "office_name_kana": null
  },
  "0803": {
    "postcode": "3430803",
    "prefecture": "埼玉県",
    "prefecture_kana": "サイタマケン",
    "prefecture_code": 11,
    "city": "越谷市",
    "city_kana": "コシガヤシ",
    "town": "砂原",
    "town_kana": "スナハラ",
    "street": null,
    "office_name": null,
    "office_name_kana": null
  },
  "0804": {
    "postcode": "3430804",
    "prefecture": "埼玉県",
    "prefecture_kana": "サイタマケン",
    "prefecture_code": 11,
    "city": "越谷市",
    "city_kana": "コシガヤシ",
    "town": "南荻島",
    "town_kana": "ミナミオギシマ",
    "street": null,
    "office_name": null,
    "office_name_kana": null
  },
  "0805": {
    "postcode": "3430805",
    "prefecture": "埼玉県",
    "prefecture_kana": "サイタマケン",
    "prefecture_code": 11,
    "city": "越谷市",
    "city_kana": "コシガヤシ",
    "town": "神明町",
    "town_kana": "シンメイチョウ",
    "street": null,
    "office_name": null,
    "office_name_kana": null
  },
  "0806": {
    "postcode": "3430806",
    "prefecture": "埼玉県",
    "prefecture_kana": "サイタマケン",
    "prefecture_code": 11,
    "city": "越谷市",
    "city_kana": "コシガヤシ",
    "town": "宮本町",
    "town_kana": "ミヤモトチョウ",
    "street": null,
    "office_name": null,
    "office_name_kana": null
  },
  "0807": {
    "postcode": "3430807",
    "prefecture": "埼玉県",
    "prefecture_kana": "サイタマケン",
    "prefecture_code": 11,
    "city": "越谷市",
    "city_kana": "コシガヤシ",
    "town": "赤山町",
    "town_kana": "アカヤマチョウ",
    "street": null,
    "office_name": null,
    "office_name_kana": null
  },
  "0808": {
    "postcode": "3430808",
    "prefecture": "埼玉県",
    "prefecture_kana": "サイタマケン",
    "prefecture_code": 11,
    "city": "越谷市",
    "city_kana": "コシガヤシ",
    "town": "赤山本町",
    "town_kana": "アカヤマホンチョウ",
    "street": null,
    "office_name": null,
    "office_name_kana": null
  },
  "0811": {
    "postcode": "3430811",
    "prefecture": "埼玉県",
    "prefecture_kana": "サイタマケン",
    "prefecture_code": 11,
    "city": "越谷市",
    "city_kana": "コシガヤシ",
    "town": "御殿町",
    "town_kana": "ゴテンチョウ",
    "street": null,
    "office_name": null,
    "office_name_kana": null
  },
  "0812": {
    "postcode": "3430812",
    "prefecture": "埼玉県",
    "prefecture_kana": "サイタマケン",
    "prefecture_code": 11,
    "city": "越谷市",
    "city_kana": "コシガヤシ",
    "town": "柳町",
    "town_kana": "ヤナギチョウ",
    "street": null,
    "office_name": null,
    "office_name_kana": null
  },
  "0813": {
    "postcode": "3430813",
    "prefecture": "埼玉県",
    "prefecture_kana": "サイタマケン",
    "prefecture_code": 11,
    "city": "越谷市",
    "city_kana": "コシガヤシ",
    "town": "越ケ谷",
    "town_kana": "コシガヤ",
    "street": null,
    "office_name": null,
    "office_name_kana": null
  },
  "0814": {
    "postcode": "3430814",
    "prefecture": "埼玉県",
    "prefecture_kana": "サイタマケン",
    "prefecture_code": 11,
    "city": "越谷市",
    "city_kana": "コシガヤシ",
    "town": "東柳田町",
    "town_kana": "ヒガシヤナギダチョウ",
    "street": null,
    "office_name": null,
    "office_name_kana": null
  },
  "0815": {
    "postcode": "3430815",
    "prefecture": "埼玉県",
    "prefecture_kana": "サイタマケン",
    "prefecture_code": 11,
    "city": "越谷市",
    "city_kana": "コシガヤシ",
    "town": "元柳田町",
    "town_kana": "モトヤナギダチョウ",
    "street": null,
    "office_name": null,
    "office_name_kana": null
  },
  "0816": {
    "postcode": "3430816",
    "prefecture": "埼玉県",
    "prefecture_kana": "サイタマケン",
    "prefecture_code": 11,
    "city": "越谷市",
    "city_kana": "コシガヤシ",
    "town": "弥生町",
    "town_kana": "ヤヨイチョウ",
    "street": null,
    "office_name": null,
    "office_name_kana": null
  },
  "0817": {
    "postcode": "3430817",
    "prefecture": "埼玉県",
    "prefecture_kana": "サイタマケン",
    "prefecture_code": 11,
    "city": "越谷市",
    "city_kana": "コシガヤシ",
    "town": "中町",
    "town_kana": "ナカマチ",
    "street": null,
    "office_name": null,
    "office_name_kana": null
  },
  "0818": {
    "postcode": "3430818",
    "prefecture": "埼玉県",
    "prefecture_kana": "サイタマケン",
    "prefecture_code": 11,
    "city": "越谷市",
    "city_kana": "コシガヤシ",
    "town": "越ケ谷本町",
    "town_kana": "コシガヤホンチョウ",
    "street": null,
    "office_name": null,
    "office_name_kana": null
  },
  "0821": {
    "postcode": "3430821",
    "prefecture": "埼玉県",
    "prefecture_kana": "サイタマケン",
    "prefecture_code": 11,
    "city": "越谷市",
    "city_kana": "コシガヤシ",
    "town": "瓦曽根",
    "town_kana": "カワラゾネ",
    "street": null,
    "office_name": null,
    "office_name_kana": null
  },
  "0822": {
    "postcode": "3430822",
    "prefecture": "埼玉県",
    "prefecture_kana": "サイタマケン",
    "prefecture_code": 11,
    "city": "越谷市",
    "city_kana": "コシガヤシ",
    "town": "西方",
    "town_kana": "ニシカタ",
    "street": null,
    "office_name": null,
    "office_name_kana": null
  },
  "0823": {
    "postcode": "3430823",
    "prefecture": "埼玉県",
    "prefecture_kana": "サイタマケン",
    "prefecture_code": 11,
    "city": "越谷市",
    "city_kana": "コシガヤシ",
    "town": "相模町",
    "town_kana": "サガミチョウ",
    "street": null,
    "office_name": null,
    "office_name_kana": null
  },
  "0824": {
    "postcode": "3430824",
    "prefecture": "埼玉県",
    "prefecture_kana": "サイタマケン",
    "prefecture_code": 11,
    "city": "越谷市",
    "city_kana": "コシガヤシ",
    "town": "流通団地",
    "town_kana": "リュウツウダンチ",
    "street": null,
    "office_name": null,
    "office_name_kana": null
  },
  "0825": {
    "postcode": "3430825",
    "prefecture": "埼玉県",
    "prefecture_kana": "サイタマケン",
    "prefecture_code": 11,
    "city": "越谷市",
    "city_kana": "コシガヤシ",
    "town": "大成町",
    "town_kana": "タイセイチョウ",
    "street": null,
    "office_name": null,
    "office_name_kana": null
  },
  "0826": {
    "postcode": "3430826",
    "prefecture": "埼玉県",
    "prefecture_kana": "サイタマケン",
    "prefecture_code": 11,
    "city": "越谷市",
    "city_kana": "コシガヤシ",
    "town": "東町",
    "town_kana": "アズマチョウ",
    "street": null,
    "office_name": null,
    "office_name_kana": null
  },
  "0827": {
    "postcode": "3430827",
    "prefecture": "埼玉県",
    "prefecture_kana": "サイタマケン",
    "prefecture_code": 11,
    "city": "越谷市",
    "city_kana": "コシガヤシ",
    "town": "川柳町",
    "town_kana": "カワヤナギチョウ",
    "street": null,
    "office_name": null,
    "office_name_kana": null
  },
  "0828": {
    "postcode": "3430828",
    "prefecture": "埼玉県",
    "prefecture_kana": "サイタマケン",
    "prefecture_code": 11,
    "city": "越谷市",
    "city_kana": "コシガヤシ",
    "town": "レイクタウン",
    "town_kana": "レイクタウン",
    "street": null,
    "office_name": null,
    "office_name_kana": null
  },
  "0831": {
    "postcode": "3430831",
    "prefecture": "埼玉県",
    "prefecture_kana": "サイタマケン",
    "prefecture_code": 11,
    "city": "越谷市",
    "city_kana": "コシガヤシ",
    "town": "伊原",
    "town_kana": "イハラ",
    "street": null,
    "office_name": null,
    "office_name_kana": null
  },
  "0832": {
    "postcode": "3430832",
    "prefecture": "埼玉県",
    "prefecture_kana": "サイタマケン",
    "prefecture_code": 11,
    "city": "越谷市",
    "city_kana": "コシガヤシ",
    "town": "南町",
    "town_kana": "ミナミチョウ",
    "street": null,
    "office_name": null,
    "office_name_kana": null
  },
  "0833": {
    "postcode": "3430833",
    "prefecture": "埼玉県",
    "prefecture_kana": "サイタマケン",
    "prefecture_code": 11,
    "city": "越谷市",
    "city_kana": "コシガヤシ",
    "town": "蒲生南町",
    "town_kana": "ガモウミナミチョウ",
    "street": null,
    "office_name": null,
    "office_name_kana": null
  },
  "0834": {
    "postcode": "3430834",
    "prefecture": "埼玉県",
    "prefecture_kana": "サイタマケン",
    "prefecture_code": 11,
    "city": "越谷市",
    "city_kana": "コシガヤシ",
    "town": "蒲生愛宕町",
    "town_kana": "ガモウアタゴチョウ",
    "street": null,
    "office_name": null,
    "office_name_kana": null
  },
  "0835": {
    "postcode": "3430835",
    "prefecture": "埼玉県",
    "prefecture_kana": "サイタマケン",
    "prefecture_code": 11,
    "city": "越谷市",
    "city_kana": "コシガヤシ",
    "town": "蒲生西町",
    "town_kana": "ガモウニシマチ",
    "street": null,
    "office_name": null,
    "office_name_kana": null
  },
  "0836": {
    "postcode": "3430836",
    "prefecture": "埼玉県",
    "prefecture_kana": "サイタマケン",
    "prefecture_code": 11,
    "city": "越谷市",
    "city_kana": "コシガヤシ",
    "town": "蒲生寿町",
    "town_kana": "ガモウコトブキチョウ",
    "street": null,
    "office_name": null,
    "office_name_kana": null
  },
  "0837": {
    "postcode": "3430837",
    "prefecture": "埼玉県",
    "prefecture_kana": "サイタマケン",
    "prefecture_code": 11,
    "city": "越谷市",
    "city_kana": "コシガヤシ",
    "town": "蒲生本町",
    "town_kana": "ガモウホンチョウ",
    "street": null,
    "office_name": null,
    "office_name_kana": null
  },
  "0838": {
    "postcode": "3430838",
    "prefecture": "埼玉県",
    "prefecture_kana": "サイタマケン",
    "prefecture_code": 11,
    "city": "越谷市",
    "city_kana": "コシガヤシ",
    "town": "蒲生",
    "town_kana": "ガモウ",
    "street": null,
    "office_name": null,
    "office_name_kana": null
  },
  "0841": {
    "postcode": "3430841",
    "prefecture": "埼玉県",
    "prefecture_kana": "サイタマケン",
    "prefecture_code": 11,
    "city": "越谷市",
    "city_kana": "コシガヤシ",
    "town": "蒲生東町",
    "town_kana": "ガモウヒガシチョウ",
    "street": null,
    "office_name": null,
    "office_name_kana": null
  },
  "0842": {
    "postcode": "3430842",
    "prefecture": "埼玉県",
    "prefecture_kana": "サイタマケン",
    "prefecture_code": 11,
    "city": "越谷市",
    "city_kana": "コシガヤシ",
    "town": "蒲生旭町",
    "town_kana": "ガモウアサヒチョウ",
    "street": null,
    "office_name": null,
    "office_name_kana": null
  },
  "0843": {
    "postcode": "3430843",
    "prefecture": "埼玉県",
    "prefecture_kana": "サイタマケン",
    "prefecture_code": 11,
    "city": "越谷市",
    "city_kana": "コシガヤシ",
    "town": "蒲生茜町",
    "town_kana": "ガモウアカネチョウ",
    "street": null,
    "office_name": null,
    "office_name_kana": null
  },
  "0844": {
    "postcode": "3430844",
    "prefecture": "埼玉県",
    "prefecture_kana": "サイタマケン",
    "prefecture_code": 11,
    "city": "越谷市",
    "city_kana": "コシガヤシ",
    "town": "大間野町",
    "town_kana": "オオマノチョウ",
    "street": null,
    "office_name": null,
    "office_name_kana": null
  },
  "0845": {
    "postcode": "3430845",
    "prefecture": "埼玉県",
    "prefecture_kana": "サイタマケン",
    "prefecture_code": 11,
    "city": "越谷市",
    "city_kana": "コシガヤシ",
    "town": "南越谷",
    "town_kana": "ミナミコシガヤ",
    "street": null,
    "office_name": null,
    "office_name_kana": null
  },
  "0846": {
    "postcode": "3430846",
    "prefecture": "埼玉県",
    "prefecture_kana": "サイタマケン",
    "prefecture_code": 11,
    "city": "越谷市",
    "city_kana": "コシガヤシ",
    "town": "登戸町",
    "town_kana": "ノボリトチョウ",
    "street": null,
    "office_name": null,
    "office_name_kana": null
  },
  "0851": {
    "postcode": "3430851",
    "prefecture": "埼玉県",
    "prefecture_kana": "サイタマケン",
    "prefecture_code": 11,
    "city": "越谷市",
    "city_kana": "コシガヤシ",
    "town": "七左町",
    "town_kana": "シチザチョウ",
    "street": null,
    "office_name": null,
    "office_name_kana": null
  },
  "0852": {
    "postcode": "3430852",
    "prefecture": "埼玉県",
    "prefecture_kana": "サイタマケン",
    "prefecture_code": 11,
    "city": "越谷市",
    "city_kana": "コシガヤシ",
    "town": "新川町",
    "town_kana": "シンカワチョウ",
    "street": null,
    "office_name": null,
    "office_name_kana": null
  },
  "0853": {
    "postcode": "3430853",
    "prefecture": "埼玉県",
    "prefecture_kana": "サイタマケン",
    "prefecture_code": 11,
    "city": "越谷市",
    "city_kana": "コシガヤシ",
    "town": "長島",
    "town_kana": "ナガシマ",
    "street": null,
    "office_name": null,
    "office_name_kana": null
  },
  "0854": {
    "postcode": "3430854",
    "prefecture": "埼玉県",
    "prefecture_kana": "サイタマケン",
    "prefecture_code": 11,
    "city": "越谷市",
    "city_kana": "コシガヤシ",
    "town": "北後谷",
    "town_kana": "キタウシロヤ",
    "street": null,
    "office_name": null,
    "office_name_kana": null
  },
  "0855": {
    "postcode": "3430855",
    "prefecture": "埼玉県",
    "prefecture_kana": "サイタマケン",
    "prefecture_code": 11,
    "city": "越谷市",
    "city_kana": "コシガヤシ",
    "town": "西新井",
    "town_kana": "ニシアライ",
    "street": null,
    "office_name": null,
    "office_name_kana": null
  },
  "0856": {
    "postcode": "3430856",
    "prefecture": "埼玉県",
    "prefecture_kana": "サイタマケン",
    "prefecture_code": 11,
    "city": "越谷市",
    "city_kana": "コシガヤシ",
    "town": "谷中町",
    "town_kana": "ヤナカチョウ",
    "street": null,
    "office_name": null,
    "office_name_kana": null
  },
  "0857": {
    "postcode": "3430857",
    "prefecture": "埼玉県",
    "prefecture_kana": "サイタマケン",
    "prefecture_code": 11,
    "city": "越谷市",
    "city_kana": "コシガヤシ",
    "town": "新越谷",
    "town_kana": "シンコシガヤ",
    "street": null,
    "office_name": null,
    "office_name_kana": null
  },
  "8501": {
    "postcode": "3438501",
    "prefecture": "埼玉県",
    "prefecture_kana": "サイタマケン",
    "prefecture_code": 11,
    "city": "越谷市",
    "city_kana": "コシガヤシ",
    "town": "越ケ谷",
    "town_kana": "コシガヤ",
    "street": "４丁目２番１号",
    "office_name": "越谷市役所",
    "office_name_kana": "コシガヤシヤクシヨ"
  },
  "8502": {
    "postcode": "3438502",
    "prefecture": "埼玉県",
    "prefecture_kana": "サイタマケン",
    "prefecture_code": 11,
    "city": "越谷市",
    "city_kana": "コシガヤシ",
    "town": "流通団地",
    "town_kana": "リュウツウダンチ",
    "street": "３丁目１−１９",
    "office_name": "林恒　株式会社",
    "office_name_kana": "ハヤシツネ カブシキガイシヤ"
  },
  "8511": {
    "postcode": "3438511",
    "prefecture": "埼玉県",
    "prefecture_kana": "サイタマケン",
    "prefecture_code": 11,
    "city": "越谷市",
    "city_kana": "コシガヤシ",
    "town": "大字南荻島",
    "town_kana": null,
    "street": "３３３７",
    "office_name": "文教大学",
    "office_name_kana": "ブンキヨウダイガク"
  },
  "8520": {
    "postcode": "3438520",
    "prefecture": "埼玉県",
    "prefecture_kana": "サイタマケン",
    "prefecture_code": 11,
    "city": "越谷市",
    "city_kana": "コシガヤシ",
    "town": "流通団地",
    "town_kana": "リュウツウダンチ",
    "street": "１−１−９",
    "office_name": "ホダカ　株式会社",
    "office_name_kana": "ホダカ カブシキガイシヤ"
  },
  "8540": {
    "postcode": "3438540",
    "prefecture": "埼玉県",
    "prefecture_kana": "サイタマケン",
    "prefecture_code": 11,
    "city": "越谷市",
    "city_kana": "コシガヤシ",
    "town": "大字三野宮",
    "town_kana": null,
    "street": "８２０",
    "office_name": "埼玉県立大学",
    "office_name_kana": "サイタマケンリツダイガク"
  },
  "8554": {
    "postcode": "3438554",
    "prefecture": "埼玉県",
    "prefecture_kana": "サイタマケン",
    "prefecture_code": 11,
    "city": "越谷市",
    "city_kana": "コシガヤシ",
    "town": "七左町",
    "town_kana": "シチザチョウ",
    "street": "５丁目６−１",
    "office_name": "株式会社　ウエノ",
    "office_name_kana": "カブシキガイシヤ ウエノ"
  },
  "8555": {
    "postcode": "3438555",
    "prefecture": "埼玉県",
    "prefecture_kana": "サイタマケン",
    "prefecture_code": 11,
    "city": "越谷市",
    "city_kana": "コシガヤシ",
    "town": "南越谷",
    "town_kana": "ミナミコシガヤ",
    "street": "２丁目１−５０",
    "office_name": "独協医科大学　越谷病院",
    "office_name_kana": "ドツキヨウイカダイガク コシガヤビヨウイン"
  },
  "8558": {
    "postcode": "3438558",
    "prefecture": "埼玉県",
    "prefecture_kana": "サイタマケン",
    "prefecture_code": 11,
    "city": "越谷市",
    "city_kana": "コシガヤシ",
    "town": "レイクタウン",
    "town_kana": "レイクタウン",
    "street": "４丁目２番地２",
    "office_name": "イオンレイクタウンｋａｚｅ",
    "office_name_kana": "イオンレイクタウンカゼ"
  },
  "8585": {
    "postcode": "3438585",
    "prefecture": "埼玉県",
    "prefecture_kana": "サイタマケン",
    "prefecture_code": 11,
    "city": "越谷市",
    "city_kana": "コシガヤシ",
    "town": "南越谷",
    "town_kana": "ミナミコシガヤ",
    "street": "１−２８７６−１",
    "office_name": "越谷年金事務所",
    "office_name_kana": "コシガヤネンキンジムシヨ"
  },
  "8601": {
    "postcode": "3438601",
    "prefecture": "埼玉県",
    "prefecture_kana": "サイタマケン",
    "prefecture_code": 11,
    "city": "越谷市",
    "city_kana": "コシガヤシ",
    "town": "赤山町",
    "town_kana": "アカヤマチョウ",
    "street": "５丁目７−４７（越谷郵便局私書箱第４６号）",
    "office_name": "越谷税務署",
    "office_name_kana": "コシガヤゼイムシヨ"
  },
  "8686": {
    "postcode": "3438686",
    "prefecture": "埼玉県",
    "prefecture_kana": "サイタマケン",
    "prefecture_code": 11,
    "city": "三郷市",
    "city_kana": "ミサトシ",
    "town": "新三郷ららシティ",
    "town_kana": "シンミサトララシティ",
    "street": "３−２−１ＧＬＰ三郷２（新越谷郵便局留）",
    "office_name": "ＳＩＧ　Ｓｅｒｖｉｃｅ　株式会社",
    "office_name_kana": "エスアイジ-サ-ビス カブシキガイシヤ"
  }
}