{
  "0000": [
    {
      "postcode": "3450000",
      "prefecture": "埼玉県",
      "prefecture_kana": "サイタマケン",
      "prefecture_code": 11,
      "city": "南埼玉郡宮代町",
      "city_kana": "ミナミサイタマグンミヤシロマチ",
      "town": "",
      "town_kana": "",
      "street": null,
      "office_name": null,
      "office_name_kana": null
    },
    {
      "postcode": "3450000",
      "prefecture": "埼玉県",
      "prefecture_kana": "サイタマケン",
      "prefecture_code": 11,
      "city": "北葛飾郡杉戸町",
      "city_kana": "キタカツシカグンスギトマチ",
      "town": "",
      "town_kana": "",
      "street": null,
      "office_name": null,
      "office_name_kana": null
    }
  ],
  "0001": {
    "postcode": "3450001",
    "prefecture": "埼玉県",
    "prefecture_kana": "サイタマケン",
    "prefecture_code": 11,
    "city": "北葛飾郡杉戸町",
    "city_kana": "キタカツシカグンスギトマチ",
    "town": "木津内",
    "town_kana": "キヅウチ",
    "street": null,
    "office_name": null,
    "office_name_kana": null
  },
  "0002": {
    "postcode": "3450002",
    "prefecture": "埼玉県",
    "prefecture_kana": "サイタマケン",
    "prefecture_code": 11,
    "city": "北葛飾郡杉戸町",
    "city_kana": "キタカツシカグンスギトマチ",
    "town": "鷲巣",
    "town_kana": "ワシノス",
    "street": null,
    "office_name": null,
    "office_name_kana": null
  },
  "0003": {
    "postcode": "3450003",
    "prefecture": "埼玉県",
    "prefecture_kana": "サイタマケン",
    "prefecture_code": 11,
    "city": "北葛飾郡杉戸町",
    "city_kana": "キタカツシカグンスギトマチ",
    "town": "木野川",
    "town_kana": "キノカワ",
    "street": null,
    "office_name": null,
    "office_name_kana": null
  },
  "0004": {
    "postcode": "3450004",
    "prefecture": "埼玉県",
    "prefecture_kana": "サイタマケン",
    "prefecture_code": 11,
    "city": "北葛飾郡杉戸町",
    "city_kana": "キタカツシカグンスギトマチ",
    "town": "宮前",
    "town_kana": "ミヤマエ",
    "street": null,
    "office_name": null,
    "office_name_kana": null
  },
  "0005": {
    "postcode": "3450005",
    "prefecture": "埼玉県",
    "prefecture_kana": "サイタマケン",
    "prefecture_code": 11,
    "city": "北葛飾郡杉戸町",
    "city_kana": "キタカツシカグンスギトマチ",
    "town": "目沼",
    "town_kana": "メヌマ",
    "street": null,
    "office_name": null,
    "office_name_kana": null
  },
  "0011": {
    "postcode": "3450011",
    "prefecture": "埼玉県",
    "prefecture_kana": "サイタマケン",
    "prefecture_code": 11,
    "city": "北葛飾郡杉戸町",
    "city_kana": "キタカツシカグンスギトマチ",
    "town": "屏風",
    "town_kana": "ビョウブ",
    "street": null,
    "office_name": null,
    "office_name_kana": null
  },
  "0012": {
    "postcode": "3450012",
    "prefecture": "埼玉県",
    "prefecture_kana": "サイタマケン",
    "prefecture_code": 11,
    "city": "北葛飾郡杉戸町",
    "city_kana": "キタカツシカグンスギトマチ",
    "town": "深輪",
    "town_kana": "フカワ",
    "street": null,
    "office_name": null,
    "office_name_kana": null
  },
  "0013": {
    "postcode": "3450013",
    "prefecture": "埼玉県",
    "prefecture_kana": "サイタマケン",
    "prefecture_code": 11,
    "city": "北葛飾郡杉戸町",
    "city_kana": "キタカツシカグンスギトマチ",
    "town": "椿",
    "town_kana": "ツバキ",
    "street": null,
    "office_name": null,
    "office_name_kana": null
  },
  "0014": {
    "postcode": "3450014",
    "prefecture": "埼玉県",
    "prefecture_kana": "サイタマケン",
    "prefecture_code": 11,
    "city": "北葛飾郡杉戸町",
    "city_kana": "キタカツシカグンスギトマチ",
    "town": "才羽",
    "town_kana": "サイバ",
    "street": null,
    "office_name": null,
    "office_name_kana": null
  },
  "0015": {
    "postcode": "3450015",
    "prefecture": "埼玉県",
    "prefecture_kana": "サイタマケン",
    "prefecture_code": 11,
    "city": "北葛飾郡杉戸町",
    "city_kana": "キタカツシカグンスギトマチ",
    "town": "並塚",
    "town_kana": "ナラビツカ",
    "street": null,
    "office_name": null,
    "office_name_kana": null
  },
  "0021": {
    "postcode": "3450021",
    "prefecture": "埼玉県",
    "prefecture_kana": "サイタマケン",
    "prefecture_code": 11,
    "city": "北葛飾郡杉戸町",
    "city_kana": "キタカツシカグンスギトマチ",
    "town": "北蓮沼",
    "town_kana": "キタハスヌマ",
    "street": null,
    "office_name": null,
    "office_name_kana": null
  },
  "0022": {
    "postcode": "3450022",
    "prefecture": "埼玉県",
    "prefecture_kana": "サイタマケン",
    "prefecture_code": 11,
    "city": "北葛飾郡杉戸町",
    "city_kana": "キタカツシカグンスギトマチ",
    "town": "大塚",
    "town_kana": "オオツカ",
    "street": null,
    "office_name": null,
    "office_name_kana": null
  },
  "0023": {
    "postcode": "3450023",
    "prefecture": "埼玉県",
    "prefecture_kana": "サイタマケン",
    "prefecture_code": 11,
    "city": "北葛飾郡杉戸町",
    "city_kana": "キタカツシカグンスギトマチ",
    "town": "本郷",
    "town_kana": "ホンゴウ",
    "street": null,
    "office_name": null,
    "office_name_kana": null
  },
  "0024": {
    "postcode": "3450024",
    "prefecture": "埼玉県",
    "prefecture_kana": "サイタマケン",
    "prefecture_code": 11,
    "city": "北葛飾郡杉戸町",
    "city_kana": "キタカツシカグンスギトマチ",
    "town": "堤根",
    "town_kana": "ツツミネ",
    "street": null,
    "office_name": null,
    "office_name_kana": null
  },
  "0025": {
    "postcode": "3450025",
    "prefecture": "埼玉県",
    "prefecture_kana": "サイタマケン",
    "prefecture_code": 11,
    "city": "北葛飾郡杉戸町",
    "city_kana": "キタカツシカグンスギトマチ",
    "town": "清地",
    "town_kana": "セイジ",
    "street": null,
    "office_name": null,
    "office_name_kana": null
  },
  "0031": {
    "postcode": "3450031",
    "prefecture": "埼玉県",
    "prefecture_kana": "サイタマケン",
    "prefecture_code": 11,
    "city": "北葛飾郡杉戸町",
    "city_kana": "キタカツシカグンスギトマチ",
    "town": "遠野",
    "town_kana": "トオノ",
    "street": null,
    "office_name": null,
    "office_name_kana": null
  },
  "0032": {
    "postcode": "3450032",
    "prefecture": "埼玉県",
    "prefecture_kana": "サイタマケン",
    "prefecture_code": 11,
    "city": "北葛飾郡杉戸町",
    "city_kana": "キタカツシカグンスギトマチ",
    "town": "広戸沼",
    "town_kana": "ヒロトヌマ",
    "street": null,
    "office_name": null,
    "office_name_kana": null
  },
  "0033": {
    "postcode": "3450033",
    "prefecture": "埼玉県",
    "prefecture_kana": "サイタマケン",
    "prefecture_code": 11,
    "city": "北葛飾郡杉戸町",
    "city_kana": "キタカツシカグンスギトマチ",
    "town": "佐左エ門",
    "town_kana": "サザエモン",
    "street": null,
    "office_name": null,
    "office_name_kana": null
  },
  "0034": {
    "postcode": "3450034",
    "prefecture": "埼玉県",
    "prefecture_kana": "サイタマケン",
    "prefecture_code": 11,
    "city": "北葛飾郡杉戸町",
    "city_kana": "キタカツシカグンスギトマチ",
    "town": "倉松",
    "town_kana": "クラマツ",
    "street": null,
    "office_name": null,
    "office_name_kana": null
  },
  "0035": {
    "postcode": "3450035",
    "prefecture": "埼玉県",
    "prefecture_kana": "サイタマケン",
    "prefecture_code": 11,
    "city": "北葛飾郡杉戸町",
    "city_kana": "キタカツシカグンスギトマチ",
    "town": "内田",
    "town_kana": "ウチダ",
    "street": null,
    "office_name": null,
    "office_name_kana": null
  },
  "0036": {
    "postcode": "3450036",
    "prefecture": "埼玉県",
    "prefecture_kana": "サイタマケン",
    "prefecture_code": 11,
    "city": "北葛飾郡杉戸町",
    "city_kana": "キタカツシカグンスギトマチ",
    "town": "杉戸",
    "town_kana": "スギト",
    "street": null,
    "office_name": null,
    "office_name_kana": null
  },
  "0037": {
    "postcode": "3450037",
    "prefecture": "埼玉県",
    "prefecture_kana": "サイタマケン",
    "prefecture_code": 11,
    "city": "北葛飾郡杉戸町",
    "city_kana": "キタカツシカグンスギトマチ",
    "town": "本島",
    "town_kana": "モトジマ",
    "street": null,
    "office_name": null,
    "office_name_kana": null
  },
  "0041": {
    "postcode": "3450041",
    "prefecture": "埼玉県",
    "prefecture_kana": "サイタマケン",
    "prefecture_code": 11,
    "city": "北葛飾郡杉戸町",
    "city_kana": "キタカツシカグンスギトマチ",
    "town": "茨島",
    "town_kana": "バラジマ",
    "street": null,
    "office_name": null,
    "office_name_kana": null
  },
  "0042": {
    "postcode": "3450042",
    "prefecture": "埼玉県",
    "prefecture_kana": "サイタマケン",
    "prefecture_code": 11,
    "city": "北葛飾郡杉戸町",
    "city_kana": "キタカツシカグンスギトマチ",
    "town": "大島",
    "town_kana": "オオジマ",
    "street": null,
    "office_name": null,
    "office_name_kana": null
  },
  "0043": {
    "postcode": "3450043",
    "prefecture": "埼玉県",
    "prefecture_kana": "サイタマケン",
    "prefecture_code": 11,
    "city": "北葛飾郡杉戸町",
    "city_kana": "キタカツシカグンスギトマチ",
    "town": "下高野",
    "town_kana": "シモタカノ",
    "street": null,
    "office_name": null,
    "office_name_kana": null
  },
  "0044": {
    "postcode": "3450044",
    "prefecture": "埼玉県",
    "prefecture_kana": "サイタマケン",
    "prefecture_code": 11,
    "city": "北葛飾郡杉戸町",
    "city_kana": "キタカツシカグンスギトマチ",
    "town": "下野",
    "town_kana": "シモノ",
    "street": null,
    "office_name": null,
    "office_name_kana": null
  },
  "0045": {
    "postcode": "3450045",
    "prefecture": "埼玉県",
    "prefecture_kana": "サイタマケン",
    "prefecture_code": 11,
    "city": "北葛飾郡杉戸町",
    "city_kana": "キタカツシカグンスギトマチ",
    "town": "高野台西",
    "town_kana": "タカノダイニシ",
    "street": null,
    "office_name": null,
    "office_name_kana": null
  },
  "0046": {
    "postcode": "3450046",
    "prefecture": "埼玉県",
    "prefecture_kana": "サイタマケン",
    "prefecture_code": 11,
    "city": "北葛飾郡杉戸町",
    "city_kana": "キタカツシカグンスギトマチ",
    "town": "高野台南",
    "town_kana": "タカノダイミナミ",
    "street": null,
    "office_name": null,
    "office_name_kana": null
  },
  "0047": {
    "postcode": "3450047",
    "prefecture": "埼玉県",
    "prefecture_kana": "サイタマケン",
    "prefecture_code": 11,
    "city": "北葛飾郡杉戸町",
    "city_kana": "キタカツシカグンスギトマチ",
    "town": "高野台東",
    "town_kana": "タカノダイヒガシ",
    "street": null,
    "office_name": null,
    "office_name_kana": null
  },
  "0801": {
    "postcode": "3450801",
    "prefecture": "埼玉県",
    "prefecture_kana": "サイタマケン",
    "prefecture_code": 11,
    "city": "南埼玉郡宮代町",
    "city_kana": "ミナミサイタマグンミヤシロマチ",
    "town": "百間",
    "town_kana": "モンマ",
    "street": null,
    "office_name": null,
    "office_name_kana": null
  },
  "0802": {
    "postcode": "3450802",
    "prefecture": "埼玉県",
    "prefecture_kana": "サイタマケン",
    "prefecture_code": 11,
    "city": "南埼玉郡宮代町",
    "city_kana": "ミナミサイタマグンミヤシロマチ",
    "town": "中島",
    "town_kana": "ナカジマ",
    "street": null,
    "office_name": null,
    "office_name_kana": null
  },
  "0803": {
    "postcode": "3450803",
    "prefecture": "埼玉県",
    "prefecture_kana": "サイタマケン",
    "prefecture_code": 11,
    "city": "南埼玉郡宮代町",
    "city_kana": "ミナミサイタマグンミヤシロマチ",
    "town": "宮東",
    "town_kana": "ミヤヒガシ",
    "street": null,
    "office_name": null,
    "office_name_kana": null
  },
  "0804": {
    "postcode": "3450804",
    "prefecture": "埼玉県",
    "prefecture_kana": "サイタマケン",
    "prefecture_code": 11,
    "city": "南埼玉郡宮代町",
    "city_kana": "ミナミサイタマグンミヤシロマチ",
    "town": "川端",
    "town_kana": "カワバタ",
    "street": null,
    "office_name": null,
    "office_name_kana": null
  },
  "0811": {
    "postcode": "3450811",
    "prefecture": "埼玉県",
    "prefecture_kana": "サイタマケン",
    "prefecture_code": 11,
    "city": "南埼玉郡宮代町",
    "city_kana": "ミナミサイタマグンミヤシロマチ",
    "town": "道佛",
    "town_kana": "ドウブツ",
    "street": null,
    "office_name": null,
    "office_name_kana": null
  },
  "0812": {
    "postcode": "3450812",
    "prefecture": "埼玉県",
    "prefecture_kana": "サイタマケン",
    "prefecture_code": 11,
    "city": "南埼玉郡宮代町",
    "city_kana": "ミナミサイタマグンミヤシロマチ",
    "town": "姫宮",
    "town_kana": "ヒメミヤ",
    "street": null,
    "office_name": null,
    "office_name_kana": null
  },
  "0813": {
    "postcode": "3450813",
    "prefecture": "埼玉県",
    "prefecture_kana": "サイタマケン",
    "prefecture_code": 11,
    "city": "南埼玉郡宮代町",
    "city_kana": "ミナミサイタマグンミヤシロマチ",
    "town": "東姫宮",
    "town_kana": "ヒガシヒメミヤ",
    "street": null,
    "office_name": null,
    "office_name_kana": null
  },
  "0814": {
    "postcode": "3450814",
    "prefecture": "埼玉県",
    "prefecture_kana": "サイタマケン",
    "prefecture_code": 11,
    "city": "南埼玉郡宮代町",
    "city_kana": "ミナミサイタマグンミヤシロマチ",
    "town": "東",
    "town_kana": "ヒガシ",
    "street": null,
    "office_name": null,
    "office_name_kana": null
  },
  "0815": {
    "postcode": "3450815",
    "prefecture": "埼玉県",
    "prefecture_kana": "サイタマケン",
    "prefecture_code": 11,
    "city": "南埼玉郡宮代町",
    "city_kana": "ミナミサイタマグンミヤシロマチ",
    "town": "中",
    "town_kana": "ナカ",
    "street": null,
    "office_name": null,
    "office_name_kana": null
  },
  "0816": {
    "postcode": "3450816",
    "prefecture": "埼玉県",
    "prefecture_kana": "サイタマケン",
    "prefecture_code": 11,
    "city": "南埼玉郡宮代町",
    "city_kana": "ミナミサイタマグンミヤシロマチ",
    "town": "金原",
    "town_kana": "カネハラ",
    "street": null,
    "office_name": null,
    "office_name_kana": null
  },
  "0817": {
    "postcode": "3450817",
    "prefecture": "埼玉県",
    "prefecture_kana": "サイタマケン",
    "prefecture_code": 11,
    "city": "南埼玉郡宮代町",
    "city_kana": "ミナミサイタマグンミヤシロマチ",
    "town": "西原",
    "town_kana": "ニシバラ",
    "street": null,
    "office_name": null,
    "office_name_kana": null
  },
  "0821": {
    "postcode": "3450821",
    "prefecture": "埼玉県",
    "prefecture_kana": "サイタマケン",
    "prefecture_code": 11,
    "city": "南埼玉郡宮代町",
    "city_kana": "ミナミサイタマグンミヤシロマチ",
    "town": "中央",
    "town_kana": "チュウオウ",
    "street": null,
    "office_name": null,
    "office_name_kana": null
  },
  "0822": {
    "postcode": "3450822",
    "prefecture": "埼玉県",
    "prefecture_kana": "サイタマケン",
    "prefecture_code": 11,
    "city": "南埼玉郡宮代町",
    "city_kana": "ミナミサイタマグンミヤシロマチ",
    "town": "笠原",
    "town_kana": "カサハラ",
    "street": null,
    "office_name": null,
    "office_name_kana": null
  },
  "0823": {
    "postcode": "3450823",
    "prefecture": "埼玉県",
    "prefecture_kana": "サイタマケン",
    "prefecture_code": 11,
    "city": "南埼玉郡宮代町",
    "city_kana": "ミナミサイタマグンミヤシロマチ",
    "town": "宮代",
    "town_kana": "ミヤシロ",
    "street": null,
    "office_name": null,
    "office_name_kana": null
  },
  "0824": {
    "postcode": "3450824",
    "prefecture": "埼玉県",
    "prefecture_kana": "サイタマケン",
    "prefecture_code": 11,
    "city": "南埼玉郡宮代町",
    "city_kana": "ミナミサイタマグンミヤシロマチ",
    "town": "山崎",
    "town_kana": "ヤマザキ",
    "street": null,
    "office_name": null,
    "office_name_kana": null
  },
  "0825": {
    "postcode": "3450825",
    "prefecture": "埼玉県",
    "prefecture_kana": "サイタマケン",
    "prefecture_code": 11,
    "city": "南埼玉郡宮代町",
    "city_kana": "ミナミサイタマグンミヤシロマチ",
    "town": "逆井",
    "town_kana": "サカサイ",
    "street": null,
    "office_name": null,
    "office_name_kana": null
  },
  "0826": {
    "postcode": "3450826",
    "prefecture": "埼玉県",
    "prefecture_kana": "サイタマケン",
    "prefecture_code": 11,
    "city": "南埼玉郡宮代町",
    "city_kana": "ミナミサイタマグンミヤシロマチ",
    "town": "学園台",
    "town_kana": "ガクエンダイ",
    "street": null,
    "office_name": null,
    "office_name_kana": null
  },
  "0827": {
    "postcode": "3450827",
    "prefecture": "埼玉県",
    "prefecture_kana": "サイタマケン",
    "prefecture_code": 11,
    "city": "南埼玉郡宮代町",
    "city_kana": "ミナミサイタマグンミヤシロマチ",
    "town": "本田",
    "town_kana": "ホンデン",
    "street": null,
    "office_name": null,
    "office_name_kana": null
  },
  "0831": {
    "postcode": "3450831",
    "prefecture": "埼玉県",
    "prefecture_kana": "サイタマケン",
    "prefecture_code": 11,
    "city": "南埼玉郡宮代町",
    "city_kana": "ミナミサイタマグンミヤシロマチ",
    "town": "須賀",
    "town_kana": "スカ",
    "street": null,
    "office_name": null,
    "office_name_kana": null
  },
  "0832": {
    "postcode": "3450832",
    "prefecture": "埼玉県",
    "prefecture_kana": "サイタマケン",
    "prefecture_code": 11,
    "city": "南埼玉郡宮代町",
    "city_kana": "ミナミサイタマグンミヤシロマチ",
    "town": "東粂原",
    "town_kana": "ヒガシクメハラ",
    "street": null,
    "office_name": null,
    "office_name_kana": null
  },
  "0833": {
    "postcode": "3450833",
    "prefecture": "埼玉県",
    "prefecture_kana": "サイタマケン",
    "prefecture_code": 11,
    "city": "南埼玉郡宮代町",
    "city_kana": "ミナミサイタマグンミヤシロマチ",
    "town": "西粂原",
    "town_kana": "ニシクメハラ",
    "street": null,
    "office_name": null,
    "office_name_kana": null
  },
  "0834": {
    "postcode": "3450834",
    "prefecture": "埼玉県",
    "prefecture_kana": "サイタマケン",
    "prefecture_code": 11,
    "city": "南埼玉郡宮代町",
    "city_kana": "ミナミサイタマグンミヤシロマチ",
    "town": "国納",
    "town_kana": "コクノウ",
    "street": null,
    "office_name": null,
    "office_name_kana": null
  },
  "0835": {
    "postcode": "3450835",
    "prefecture": "埼玉県",
    "prefecture_kana": "サイタマケン",
    "prefecture_code": 11,
    "city": "南埼玉郡宮代町",
    "city_kana": "ミナミサイタマグンミヤシロマチ",
    "town": "宮代台",
    "town_kana": "ミヤシロダイ",
    "street": null,
    "office_name": null,
    "office_name_kana": null
  },
  "0836": {
    "postcode": "3450836",
    "prefecture": "埼玉県",
    "prefecture_kana": "サイタマケン",
    "prefecture_code": 11,
    "city": "南埼玉郡宮代町",
    "city_kana": "ミナミサイタマグンミヤシロマチ",
    "town": "和戸",
    "town_kana": "ワド",
    "street": null,
    "office_name": null,
    "office_name_kana": null
  },
  "0837": {
    "postcode": "3450837",
    "prefecture": "埼玉県",
    "prefecture_kana": "サイタマケン",
    "prefecture_code": 11,
    "city": "南埼玉郡宮代町",
    "city_kana": "ミナミサイタマグンミヤシロマチ",
    "town": "和戸横町",
    "town_kana": "ワドヨコマチ",
    "street": null,
    "office_name": null,
    "office_name_kana": null
  },
  "8501": {
    "postcode": "3458501",
    "prefecture": "埼玉県",
    "prefecture_kana": "サイタマケン",
    "prefecture_code": 11,
    "city": "南埼玉郡宮代町",
    "city_kana": "ミナミサイタマグンミヤシロマチ",
    "town": "学園台",
    "town_kana": "ガクエンダイ",
    "street": "４丁目１",
    "office_name": "日本工業大学",
    "office_name_kana": "ニツポンコウギヨウダイガク"
  },
  "8502": {
    "postcode": "3458502",
    "prefecture": "埼玉県",
    "prefecture_kana": "サイタマケン",
    "prefecture_code": 11,
    "city": "北葛飾郡杉戸町",
    "city_kana": "キタカツシカグンスギトマチ",
    "town": "清地",
    "town_kana": "セイジ",
    "street": "２丁目９番２９号",
    "office_name": "杉戸町役場",
    "office_name_kana": "スギトマチヤクバ"
  },
  "8504": {
    "postcode": "3458504",
    "prefecture": "埼玉県",
    "prefecture_kana": "サイタマケン",
    "prefecture_code": 11,
    "city": "南埼玉郡宮代町",
    "city_kana": "ミナミサイタマグンミヤシロマチ",
    "town": "笠原",
    "town_kana": "カサハラ",
    "street": "１丁目４−１",
    "office_name": "宮代町役場",
    "office_name_kana": "ミヤシロマチヤクバ"
  },
  "8508": {
    "postcode": "3458508",
    "prefecture": "埼玉県",
    "prefecture_kana": "サイタマケン",
    "prefecture_code": 11,
    "city": "北葛飾郡杉戸町",
    "city_kana": "キタカツシカグンスギトマチ",
    "town": "高野台南",
    "town_kana": "タカノダイミナミ",
    "street": "４丁目２−３",
    "office_name": "凸版印刷　株式会社",
    "office_name_kana": "トツパンインサツ カブシキカイシヤ"
  }
}