{
  "0000": {
    "postcode": "3530000",
    "prefecture": "埼玉県",
    "prefecture_kana": "サイタマケン",
    "prefecture_code": 11,
    "city": "志木市",
    "city_kana": "シキシ",
    "town": "",
    "town_kana": "",
    "street": null,
    "office_name": null,
    "office_name_kana": null
  },
  "0001": {
    "postcode": "3530001",
    "prefecture": "埼玉県",
    "prefecture_kana": "サイタマケン",
    "prefecture_code": 11,
    "city": "志木市",
    "city_kana": "シキシ",
    "town": "上宗岡",
    "town_kana": "カミムネオカ",
    "street": null,
    "office_name": null,
    "office_name_kana": null
  },
  "0002": {
    "postcode": "3530002",
    "prefecture": "埼玉県",
    "prefecture_kana": "サイタマケン",
    "prefecture_code": 11,
    "city": "志木市",
    "city_kana": "シキシ",
    "town": "中宗岡",
    "town_kana": "ナカムネオカ",
    "street": null,
    "office_name": null,
    "office_name_kana": null
  },
  "0003": {
    "postcode": "3530003",
    "prefecture": "埼玉県",
    "prefecture_kana": "サイタマケン",
    "prefecture_code": 11,
    "city": "志木市",
    "city_kana": "シキシ",
    "town": "下宗岡",
    "town_kana": "シモムネオカ",
    "street": null,
    "office_name": null,
    "office_name_kana": null
  },
  "0004": {
    "postcode": "3530004",
    "prefecture": "埼玉県",
    "prefecture_kana": "サイタマケン",
    "prefecture_code": 11,
    "city": "志木市",
    "city_kana": "シキシ",
    "town": "本町",
    "town_kana": "ホンチョウ",
    "street": null,
    "office_name": null,
    "office_name_kana": null
  },
  "0005": {
    "postcode": "3530005",
    "prefecture": "埼玉県",
    "prefecture_kana": "サイタマケン",
    "prefecture_code": 11,
    "city": "志木市",
    "city_kana": "シキシ",
    "town": "幸町",
    "town_kana": "サイワイチョウ",
    "street": null,
    "office_name": null,
    "office_name_kana": null
  },
  "0006": {
    "postcode": "3530006",
    "prefecture": "埼玉県",
    "prefecture_kana": "サイタマケン",
    "prefecture_code": 11,
    "city": "志木市",
    "city_kana": "シキシ",
    "town": "館",
    "town_kana": "タテ",
    "street": null,
    "office_name": null,
    "office_name_kana": null
  },
  "0007": {
    "postcode": "3530007",
    "prefecture": "埼玉県",
    "prefecture_kana": "サイタマケン",
    "prefecture_code": 11,
    "city": "志木市",
    "city_kana": "シキシ",
    "town": "柏町",
    "town_kana": "カシワチョウ",
    "street": null,
    "office_name": null,
    "office_name_kana": null
  },
  "0008": {
    "postcode": "3530008",
    "prefecture": "埼玉県",
    "prefecture_kana": "サイタマケン",
    "prefecture_code": 11,
    "city": "志木市",
    "city_kana": "シキシ",
    "town": "宗岡",
    "town_kana": "ムネオカ",
    "street": null,
    "office_name": null,
    "office_name_kana": null
  },
  "8501": {
    "postcode": "3538501",
    "prefecture": "埼玉県",
    "prefecture_kana": "サイタマケン",
    "prefecture_code": 11,
    "city": "志木市",
    "city_kana": "シキシ",
    "town": "中宗岡",
    "town_kana": "ナカムネオカ",
    "street": "１丁目１−１",
    "office_name": "志木市役所",
    "office_name_kana": "シキシヤクシヨ"
  },
  "8555": {
    "postcode": "3538555",
    "prefecture": "埼玉県",
    "prefecture_kana": "サイタマケン",
    "prefecture_code": 11,
    "city": "志木市",
    "city_kana": "シキシ",
    "town": "幸町",
    "town_kana": "サイワイチョウ",
    "street": "１丁目８番５０号",
    "office_name": "東京電力　株式会社　埼玉支店　志木支社",
    "office_name_kana": "トウキヨウデンリヨク カブシキガイシヤ サイタマシテン シキシシヤ"
  }
}