{
  "0000": [
    {
      "postcode": "3540000",
      "prefecture": "埼玉県",
      "prefecture_kana": "サイタマケン",
      "prefecture_code": 11,
      "city": "富士見市",
      "city_kana": "フジミシ",
      "town": "",
      "town_kana": "",
      "street": null,
      "office_name": null,
      "office_name_kana": null
    },
    {
      "postcode": "3540000",
      "prefecture": "埼玉県",
      "prefecture_kana": "サイタマケン",
      "prefecture_code": 11,
      "city": "入間郡三芳町",
      "city_kana": "イルマグンミヨシマチ",
      "town": "",
      "town_kana": "",
      "street": null,
      "office_name": null,
      "office_name_kana": null
    }
  ],
  "0001": {
    "postcode": "3540001",
    "prefecture": "埼玉県",
    "prefecture_kana": "サイタマケン",
    "prefecture_code": 11,
    "city": "富士見市",
    "city_kana": "フジミシ",
    "town": "東大久保",
    "town_kana": "ヒガシオオクボ",
    "street": null,
    "office_name": null,
    "office_name_kana": null
  },
  "0002": {
    "postcode": "3540002",
    "prefecture": "埼玉県",
    "prefecture_kana": "サイタマケン",
    "prefecture_code": 11,
    "city": "富士見市",
    "city_kana": "フジミシ",
    "town": "上南畑",
    "town_kana": "カミナンバタ",
    "street": null,
    "office_name": null,
    "office_name_kana": null
  },
  "0003": {
    "postcode": "3540003",
    "prefecture": "埼玉県",
    "prefecture_kana": "サイタマケン",
    "prefecture_code": 11,
    "city": "富士見市",
    "city_kana": "フジミシ",
    "town": "南畑新田",
    "town_kana": "ナンバタシンデン",
    "street": null,
    "office_name": null,
    "office_name_kana": null
  },
  "0004": {
    "postcode": "3540004",
    "prefecture": "埼玉県",
    "prefecture_kana": "サイタマケン",
    "prefecture_code": 11,
    "city": "富士見市",
    "city_kana": "フジミシ",
    "town": "下南畑",
    "town_kana": "シモナンバタ",
    "street": null,
    "office_name": null,
    "office_name_kana": null
  },
  "0005": {
    "postcode": "3540005",
    "prefecture": "埼玉県",
    "prefecture_kana": "サイタマケン",
    "prefecture_code": 11,
    "city": "富士見市",
    "city_kana": "フジミシ",
    "town": "みどり野北",
    "town_kana": "ミドリノキタ",
    "street": null,
    "office_name": null,
    "office_name_kana": null
  },
  "0006": {
    "postcode": "3540006",
    "prefecture": "埼玉県",
    "prefecture_kana": "サイタマケン",
    "prefecture_code": 11,
    "city": "富士見市",
    "city_kana": "フジミシ",
    "town": "みどり野東",
    "town_kana": "ミドリノヒガシ",
    "street": null,
    "office_name": null,
    "office_name_kana": null
  },
  "0007": {
    "postcode": "3540007",
    "prefecture": "埼玉県",
    "prefecture_kana": "サイタマケン",
    "prefecture_code": 11,
    "city": "富士見市",
    "city_kana": "フジミシ",
    "town": "みどり野南",
    "town_kana": "ミドリノミナミ",
    "street": null,
    "office_name": null,
    "office_name_kana": null
  },
  "0008": {
    "postcode": "3540008",
    "prefecture": "埼玉県",
    "prefecture_kana": "サイタマケン",
    "prefecture_code": 11,
    "city": "富士見市",
    "city_kana": "フジミシ",
    "town": "みどり野西",
    "town_kana": "ミドリノニシ",
    "street": null,
    "office_name": null,
    "office_name_kana": null
  },
  "0011": {
    "postcode": "3540011",
    "prefecture": "埼玉県",
    "prefecture_kana": "サイタマケン",
    "prefecture_code": 11,
    "city": "富士見市",
    "city_kana": "フジミシ",
    "town": "水子",
    "town_kana": "ミズコ",
    "street": null,
    "office_name": null,
    "office_name_kana": null
  },
  "0012": {
    "postcode": "3540012",
    "prefecture": "埼玉県",
    "prefecture_kana": "サイタマケン",
    "prefecture_code": 11,
    "city": "富士見市",
    "city_kana": "フジミシ",
    "town": "貝塚",
    "town_kana": "カイヅカ",
    "street": null,
    "office_name": null,
    "office_name_kana": null
  },
  "0013": {
    "postcode": "3540013",
    "prefecture": "埼玉県",
    "prefecture_kana": "サイタマケン",
    "prefecture_code": 11,
    "city": "富士見市",
    "city_kana": "フジミシ",
    "town": "水谷東",
    "town_kana": "ミズタニヒガシ",
    "street": null,
    "office_name": null,
    "office_name_kana": null
  },
  "0014": {
    "postcode": "3540014",
    "prefecture": "埼玉県",
    "prefecture_kana": "サイタマケン",
    "prefecture_code": 11,
    "city": "富士見市",
    "city_kana": "フジミシ",
    "town": "水谷",
    "town_kana": "ミズタニ",
    "street": null,
    "office_name": null,
    "office_name_kana": null
  },
  "0015": {
    "postcode": "3540015",
    "prefecture": "埼玉県",
    "prefecture_kana": "サイタマケン",
    "prefecture_code": 11,
    "city": "富士見市",
    "city_kana": "フジミシ",
    "town": "東みずほ台",
    "town_kana": "ヒガシミズホダイ",
    "street": null,
    "office_name": null,
    "office_name_kana": null
  },
  "0016": {
    "postcode": "3540016",
    "prefecture": "埼玉県",
    "prefecture_kana": "サイタマケン",
    "prefecture_code": 11,
    "city": "富士見市",
    "city_kana": "フジミシ",
    "town": "榎町",
    "town_kana": "エノキチョウ",
    "street": null,
    "office_name": null,
    "office_name_kana": null
  },
  "0017": {
    "postcode": "3540017",
    "prefecture": "埼玉県",
    "prefecture_kana": "サイタマケン",
    "prefecture_code": 11,
    "city": "富士見市",
    "city_kana": "フジミシ",
    "town": "針ケ谷",
    "town_kana": "ハリガヤ",
    "street": null,
    "office_name": null,
    "office_name_kana": null
  },
  "0018": {
    "postcode": "3540018",
    "prefecture": "埼玉県",
    "prefecture_kana": "サイタマケン",
    "prefecture_code": 11,
    "city": "富士見市",
    "city_kana": "フジミシ",
    "town": "西みずほ台",
    "town_kana": "ニシミズホダイ",
    "street": null,
    "office_name": null,
    "office_name_kana": null
  },
  "0021": {
    "postcode": "3540021",
    "prefecture": "埼玉県",
    "prefecture_kana": "サイタマケン",
    "prefecture_code": 11,
    "city": "富士見市",
    "city_kana": "フジミシ",
    "town": "鶴馬",
    "town_kana": "ツルマ",
    "street": null,
    "office_name": null,
    "office_name_kana": null
  },
  "0022": {
    "postcode": "3540022",
    "prefecture": "埼玉県",
    "prefecture_kana": "サイタマケン",
    "prefecture_code": 11,
    "city": "富士見市",
    "city_kana": "フジミシ",
    "town": "山室",
    "town_kana": "ヤマムロ",
    "street": null,
    "office_name": null,
    "office_name_kana": null
  },
  "0023": {
    "postcode": "3540023",
    "prefecture": "埼玉県",
    "prefecture_kana": "サイタマケン",
    "prefecture_code": 11,
    "city": "富士見市",
    "city_kana": "フジミシ",
    "town": "諏訪",
    "town_kana": "スワ",
    "street": null,
    "office_name": null,
    "office_name_kana": null
  },
  "0024": {
    "postcode": "3540024",
    "prefecture": "埼玉県",
    "prefecture_kana": "サイタマケン",
    "prefecture_code": 11,
    "city": "富士見市",
    "city_kana": "フジミシ",
    "town": "鶴瀬東",
    "town_kana": "ツルセヒガシ",
    "street": null,
    "office_name": null,
    "office_name_kana": null
  },
  "0025": {
    "postcode": "3540025",
    "prefecture": "埼玉県",
    "prefecture_kana": "サイタマケン",
    "prefecture_code": 11,
    "city": "富士見市",
    "city_kana": "フジミシ",
    "town": "関沢",
    "town_kana": "セキザワ",
    "street": null,
    "office_name": null,
    "office_name_kana": null
  },
  "0026": {
    "postcode": "3540026",
    "prefecture": "埼玉県",
    "prefecture_kana": "サイタマケン",
    "prefecture_code": 11,
    "city": "富士見市",
    "city_kana": "フジミシ",
    "town": "鶴瀬西",
    "town_kana": "ツルセニシ",
    "street": null,
    "office_name": null,
    "office_name_kana": null
  },
  "0031": {
    "postcode": "3540031",
    "prefecture": "埼玉県",
    "prefecture_kana": "サイタマケン",
    "prefecture_code": 11,
    "city": "富士見市",
    "city_kana": "フジミシ",
    "town": "勝瀬",
    "town_kana": "カツセ",
    "street": null,
    "office_name": null,
    "office_name_kana": null
  },
  "0032": {
    "postcode": "3540032",
    "prefecture": "埼玉県",
    "prefecture_kana": "サイタマケン",
    "prefecture_code": 11,
    "city": "富士見市",
    "city_kana": "フジミシ",
    "town": "渡戸",
    "town_kana": "ワタド",
    "street": null,
    "office_name": null,
    "office_name_kana": null
  },
  "0033": {
    "postcode": "3540033",
    "prefecture": "埼玉県",
    "prefecture_kana": "サイタマケン",
    "prefecture_code": 11,
    "city": "富士見市",
    "city_kana": "フジミシ",
    "town": "羽沢",
    "town_kana": "ハネサワ",
    "street": null,
    "office_name": null,
    "office_name_kana": null
  },
  "0034": {
    "postcode": "3540034",
    "prefecture": "埼玉県",
    "prefecture_kana": "サイタマケン",
    "prefecture_code": 11,
    "city": "富士見市",
    "city_kana": "フジミシ",
    "town": "上沢",
    "town_kana": "カミサワ",
    "street": null,
    "office_name": null,
    "office_name_kana": null
  },
  "0035": {
    "postcode": "3540035",
    "prefecture": "埼玉県",
    "prefecture_kana": "サイタマケン",
    "prefecture_code": 11,
    "city": "富士見市",
    "city_kana": "フジミシ",
    "town": "ふじみ野西",
    "town_kana": "フジミノニシ",
    "street": null,
    "office_name": null,
    "office_name_kana": null
  },
  "0036": {
    "postcode": "3540036",
    "prefecture": "埼玉県",
    "prefecture_kana": "サイタマケン",
    "prefecture_code": 11,
    "city": "富士見市",
    "city_kana": "フジミシ",
    "town": "ふじみ野東",
    "town_kana": "フジミノヒガシ",
    "street": null,
    "office_name": null,
    "office_name_kana": null
  },
  "0041": {
    "postcode": "3540041",
    "prefecture": "埼玉県",
    "prefecture_kana": "サイタマケン",
    "prefecture_code": 11,
    "city": "入間郡三芳町",
    "city_kana": "イルマグンミヨシマチ",
    "town": "藤久保",
    "town_kana": "フジクボ",
    "street": null,
    "office_name": null,
    "office_name_kana": null
  },
  "0042": {
    "postcode": "3540042",
    "prefecture": "埼玉県",
    "prefecture_kana": "サイタマケン",
    "prefecture_code": 11,
    "city": "入間郡三芳町",
    "city_kana": "イルマグンミヨシマチ",
    "town": "みよし台",
    "town_kana": "ミヨシダイ",
    "street": null,
    "office_name": null,
    "office_name_kana": null
  },
  "0043": {
    "postcode": "3540043",
    "prefecture": "埼玉県",
    "prefecture_kana": "サイタマケン",
    "prefecture_code": 11,
    "city": "入間郡三芳町",
    "city_kana": "イルマグンミヨシマチ",
    "town": "竹間沢",
    "town_kana": "チクマザワ",
    "street": null,
    "office_name": null,
    "office_name_kana": null
  },
  "0044": {
    "postcode": "3540044",
    "prefecture": "埼玉県",
    "prefecture_kana": "サイタマケン",
    "prefecture_code": 11,
    "city": "入間郡三芳町",
    "city_kana": "イルマグンミヨシマチ",
    "town": "北永井",
    "town_kana": "キタナガイ",
    "street": null,
    "office_name": null,
    "office_name_kana": null
  },
  "0045": {
    "postcode": "3540045",
    "prefecture": "埼玉県",
    "prefecture_kana": "サイタマケン",
    "prefecture_code": 11,
    "city": "入間郡三芳町",
    "city_kana": "イルマグンミヨシマチ",
    "town": "上富",
    "town_kana": "カミトメ",
    "street": null,
    "office_name": null,
    "office_name_kana": null
  },
  "0046": {
    "postcode": "3540046",
    "prefecture": "埼玉県",
    "prefecture_kana": "サイタマケン",
    "prefecture_code": 11,
    "city": "入間郡三芳町",
    "city_kana": "イルマグンミヨシマチ",
    "town": "竹間沢東",
    "town_kana": "チクマザワヒガシ",
    "street": null,
    "office_name": null,
    "office_name_kana": null
  },
  "8501": {
    "postcode": "3548501",
    "prefecture": "埼玉県",
    "prefecture_kana": "サイタマケン",
    "prefecture_code": 11,
    "city": "入間郡三芳町",
    "city_kana": "イルマグンミヨシマチ",
    "town": "大字藤久保",
    "town_kana": null,
    "street": "１１３１",
    "office_name": "大崎電気　株式会社　埼玉事業所",
    "office_name_kana": "オオサキデンキ カブシキガイシヤ サイタマジギヨウシヨ"
  },
  "8504": {
    "postcode": "3548504",
    "prefecture": "埼玉県",
    "prefecture_kana": "サイタマケン",
    "prefecture_code": 11,
    "city": "入間郡三芳町",
    "city_kana": "イルマグンミヨシマチ",
    "town": "大字上富",
    "town_kana": null,
    "street": "２７９−１",
    "office_name": "（株）　学研ロジスティクス",
    "office_name_kana": "カブシキガイシヤ ガツケンロジステイクス"
  },
  "8505": {
    "postcode": "3548505",
    "prefecture": "埼玉県",
    "prefecture_kana": "サイタマケン",
    "prefecture_code": 11,
    "city": "入間郡三芳町",
    "city_kana": "イルマグンミヨシマチ",
    "town": "みよし台",
    "town_kana": "ミヨシダイ",
    "street": "１３−１０",
    "office_name": "株式会社　主婦の友社",
    "office_name_kana": "カブシキガイシヤ シユフノトモシヤ"
  },
  "8510": {
    "postcode": "3548510",
    "prefecture": "埼玉県",
    "prefecture_kana": "サイタマケン",
    "prefecture_code": 11,
    "city": "入間郡三芳町",
    "city_kana": "イルマグンミヨシマチ",
    "town": "大字藤久保",
    "town_kana": null,
    "street": "１１５０−１",
    "office_name": "淑徳大学　国際コミュニケーション学部",
    "office_name_kana": "シユクトクダイガク コクサイコミユニケ-シヨンガクブ"
  },
  "8511": {
    "postcode": "3548511",
    "prefecture": "埼玉県",
    "prefecture_kana": "サイタマケン",
    "prefecture_code": 11,
    "city": "富士見市",
    "city_kana": "フジミシ",
    "town": "大字鶴馬",
    "town_kana": null,
    "street": "１８００−１",
    "office_name": "富士見市役所",
    "office_name_kana": "フジミシヤクシヨ"
  },
  "8533": {
    "postcode": "3548533",
    "prefecture": "埼玉県",
    "prefecture_kana": "サイタマケン",
    "prefecture_code": 11,
    "city": "入間郡三芳町",
    "city_kana": "イルマグンミヨシマチ",
    "town": "竹間沢東",
    "town_kana": "チクマザワヒガシ",
    "street": "７番地５",
    "office_name": "株式会社主婦の友社　通販事業部",
    "office_name_kana": "カブシキガイシヤシユフノトモシヤ ツウハンジギヨウブ"
  },
  "8555": {
    "postcode": "3548555",
    "prefecture": "埼玉県",
    "prefecture_kana": "サイタマケン",
    "prefecture_code": 11,
    "city": "入間郡三芳町",
    "city_kana": "イルマグンミヨシマチ",
    "town": "大字藤久保",
    "town_kana": null,
    "street": "１１００−１",
    "office_name": "三芳町役場",
    "office_name_kana": "ミヨシマチヤクバ"
  },
  "8558": {
    "postcode": "3548558",
    "prefecture": "埼玉県",
    "prefecture_kana": "サイタマケン",
    "prefecture_code": 11,
    "city": "入間郡三芳町",
    "city_kana": "イルマグンミヨシマチ",
    "town": "大字竹間沢",
    "town_kana": null,
    "street": "３１１",
    "office_name": "大日本印刷　株式会社",
    "office_name_kana": "ダイニツポンインサツ カブシキガイシヤ"
  },
  "8560": {
    "postcode": "3548560",
    "prefecture": "埼玉県",
    "prefecture_kana": "サイタマケン",
    "prefecture_code": 11,
    "city": "富士見市",
    "city_kana": "フジミシ",
    "town": "山室",
    "town_kana": "ヤマムロ",
    "street": "一丁目１３１３番",
    "office_name": "ららぽーと富士見",
    "office_name_kana": "ララポ-トフジミ"
  },
  "8565": {
    "postcode": "3548565",
    "prefecture": "埼玉県",
    "prefecture_kana": "サイタマケン",
    "prefecture_code": 11,
    "city": "入間郡三芳町",
    "city_kana": "イルマグンミヨシマチ",
    "town": "上富",
    "town_kana": "カミトメ",
    "street": "１１６３",
    "office_name": "ＡＳＫＵＬ　Ｌｏｇｉ　ＰＡＲＫ　首都圏",
    "office_name_kana": "アスクル ロジ パ-ク シユトケン"
  },
  "8577": {
    "postcode": "3548577",
    "prefecture": "埼玉県",
    "prefecture_kana": "サイタマケン",
    "prefecture_code": 11,
    "city": "入間郡三芳町",
    "city_kana": "イルマグンミヨシマチ",
    "town": "大字竹間沢",
    "town_kana": null,
    "street": "２８３−１",
    "office_name": "株式会社　Ｔ＆Ｋ　ＴＯＫＡ",
    "office_name_kana": "カブシキガイシヤ テイ-アンドケイトオカ"
  },
  "8580": {
    "postcode": "3548580",
    "prefecture": "埼玉県",
    "prefecture_kana": "サイタマケン",
    "prefecture_code": 11,
    "city": "入間郡三芳町",
    "city_kana": "イルマグンミヨシマチ",
    "town": "大字藤久保",
    "town_kana": null,
    "street": "１１０６",
    "office_name": "日本シイエムケイ　株式会社　ＳＥセンター",
    "office_name_kana": "ニホンシイエムケイ カブシキガイシヤ エスイ-センタ-"
  },
  "8585": {
    "postcode": "3548585",
    "prefecture": "埼玉県",
    "prefecture_kana": "サイタマケン",
    "prefecture_code": 11,
    "city": "入間郡三芳町",
    "city_kana": "イルマグンミヨシマチ",
    "town": "大字竹間沢",
    "town_kana": null,
    "street": "１１",
    "office_name": "日酸ＴＡＮＡＫＡ　株式会社",
    "office_name_kana": "ニツサンタナカ カブシキガイシヤ"
  }
}