{
  "0000": {
    "postcode": "3570000",
    "prefecture": "埼玉県",
    "prefecture_kana": "サイタマケン",
    "prefecture_code": 11,
    "city": "飯能市",
    "city_kana": "ハンノウシ",
    "town": "",
    "town_kana": "",
    "street": null,
    "office_name": null,
    "office_name_kana": null
  },
  "0001": {
    "postcode": "3570001",
    "prefecture": "埼玉県",
    "prefecture_kana": "サイタマケン",
    "prefecture_code": 11,
    "city": "飯能市",
    "city_kana": "ハンノウシ",
    "town": "宮沢",
    "town_kana": "ミヤザワ",
    "street": null,
    "office_name": null,
    "office_name_kana": null
  },
  "0002": {
    "postcode": "3570002",
    "prefecture": "埼玉県",
    "prefecture_kana": "サイタマケン",
    "prefecture_code": 11,
    "city": "飯能市",
    "city_kana": "ハンノウシ",
    "town": "中居",
    "town_kana": "ナカイ",
    "street": null,
    "office_name": null,
    "office_name_kana": null
  },
  "0003": {
    "postcode": "3570003",
    "prefecture": "埼玉県",
    "prefecture_kana": "サイタマケン",
    "prefecture_code": 11,
    "city": "飯能市",
    "city_kana": "ハンノウシ",
    "town": "青木",
    "town_kana": "アオキ",
    "street": null,
    "office_name": null,
    "office_name_kana": null
  },
  "0004": {
    "postcode": "3570004",
    "prefecture": "埼玉県",
    "prefecture_kana": "サイタマケン",
    "prefecture_code": 11,
    "city": "飯能市",
    "city_kana": "ハンノウシ",
    "town": "新町",
    "town_kana": "シンマチ",
    "street": null,
    "office_name": null,
    "office_name_kana": null
  },
  "0005": {
    "postcode": "3570005",
    "prefecture": "埼玉県",
    "prefecture_kana": "サイタマケン",
    "prefecture_code": 11,
    "city": "飯能市",
    "city_kana": "ハンノウシ",
    "town": "原町",
    "town_kana": "ハラマチ",
    "street": null,
    "office_name": null,
    "office_name_kana": null
  },
  "0006": {
    "postcode": "3570006",
    "prefecture": "埼玉県",
    "prefecture_kana": "サイタマケン",
    "prefecture_code": 11,
    "city": "飯能市",
    "city_kana": "ハンノウシ",
    "town": "中山",
    "town_kana": "ナカヤマ",
    "street": null,
    "office_name": null,
    "office_name_kana": null
  },
  "0011": {
    "postcode": "3570011",
    "prefecture": "埼玉県",
    "prefecture_kana": "サイタマケン",
    "prefecture_code": 11,
    "city": "飯能市",
    "city_kana": "ハンノウシ",
    "town": "川崎",
    "town_kana": "カワサキ",
    "street": null,
    "office_name": null,
    "office_name_kana": null
  },
  "0012": {
    "postcode": "3570012",
    "prefecture": "埼玉県",
    "prefecture_kana": "サイタマケン",
    "prefecture_code": 11,
    "city": "飯能市",
    "city_kana": "ハンノウシ",
    "town": "下川崎",
    "town_kana": "シモカワサキ",
    "street": null,
    "office_name": null,
    "office_name_kana": null
  },
  "0013": {
    "postcode": "3570013",
    "prefecture": "埼玉県",
    "prefecture_kana": "サイタマケン",
    "prefecture_code": 11,
    "city": "飯能市",
    "city_kana": "ハンノウシ",
    "town": "芦苅場",
    "town_kana": "アシカリバ",
    "street": null,
    "office_name": null,
    "office_name_kana": null
  },
  "0014": {
    "postcode": "3570014",
    "prefecture": "埼玉県",
    "prefecture_kana": "サイタマケン",
    "prefecture_code": 11,
    "city": "飯能市",
    "city_kana": "ハンノウシ",
    "town": "平松",
    "town_kana": "ヒラマツ",
    "street": null,
    "office_name": null,
    "office_name_kana": null
  },
  "0015": {
    "postcode": "3570015",
    "prefecture": "埼玉県",
    "prefecture_kana": "サイタマケン",
    "prefecture_code": 11,
    "city": "飯能市",
    "city_kana": "ハンノウシ",
    "town": "小久保",
    "town_kana": "コクボ",
    "street": null,
    "office_name": null,
    "office_name_kana": null
  },
  "0016": {
    "postcode": "3570016",
    "prefecture": "埼玉県",
    "prefecture_kana": "サイタマケン",
    "prefecture_code": 11,
    "city": "飯能市",
    "city_kana": "ハンノウシ",
    "town": "下加治",
    "town_kana": "シモカジ",
    "street": null,
    "office_name": null,
    "office_name_kana": null
  },
  "0021": {
    "postcode": "3570021",
    "prefecture": "埼玉県",
    "prefecture_kana": "サイタマケン",
    "prefecture_code": 11,
    "city": "飯能市",
    "city_kana": "ハンノウシ",
    "town": "双柳",
    "town_kana": "ナミヤナギ",
    "street": null,
    "office_name": null,
    "office_name_kana": null
  },
  "0022": {
    "postcode": "3570022",
    "prefecture": "埼玉県",
    "prefecture_kana": "サイタマケン",
    "prefecture_code": 11,
    "city": "飯能市",
    "city_kana": "ハンノウシ",
    "town": "新光",
    "town_kana": "シンコウ",
    "street": null,
    "office_name": null,
    "office_name_kana": null
  },
  "0023": {
    "postcode": "3570023",
    "prefecture": "埼玉県",
    "prefecture_kana": "サイタマケン",
    "prefecture_code": 11,
    "city": "飯能市",
    "city_kana": "ハンノウシ",
    "town": "岩沢",
    "town_kana": "イワサワ",
    "street": null,
    "office_name": null,
    "office_name_kana": null
  },
  "0024": {
    "postcode": "3570024",
    "prefecture": "埼玉県",
    "prefecture_kana": "サイタマケン",
    "prefecture_code": 11,
    "city": "飯能市",
    "city_kana": "ハンノウシ",
    "town": "緑町",
    "town_kana": "ミドリチョウ",
    "street": null,
    "office_name": null,
    "office_name_kana": null
  },
  "0025": {
    "postcode": "3570025",
    "prefecture": "埼玉県",
    "prefecture_kana": "サイタマケン",
    "prefecture_code": 11,
    "city": "飯能市",
    "city_kana": "ハンノウシ",
    "town": "栄町",
    "town_kana": "サカエチョウ",
    "street": null,
    "office_name": null,
    "office_name_kana": null
  },
  "0031": {
    "postcode": "3570031",
    "prefecture": "埼玉県",
    "prefecture_kana": "サイタマケン",
    "prefecture_code": 11,
    "city": "飯能市",
    "city_kana": "ハンノウシ",
    "town": "山手町",
    "town_kana": "ヤマテチョウ",
    "street": null,
    "office_name": null,
    "office_name_kana": null
  },
  "0032": {
    "postcode": "3570032",
    "prefecture": "埼玉県",
    "prefecture_kana": "サイタマケン",
    "prefecture_code": 11,
    "city": "飯能市",
    "city_kana": "ハンノウシ",
    "town": "本町",
    "town_kana": "ホンチョウ",
    "street": null,
    "office_name": null,
    "office_name_kana": null
  },
  "0033": {
    "postcode": "3570033",
    "prefecture": "埼玉県",
    "prefecture_kana": "サイタマケン",
    "prefecture_code": 11,
    "city": "飯能市",
    "city_kana": "ハンノウシ",
    "town": "八幡町",
    "town_kana": "ハチマンチョウ",
    "street": null,
    "office_name": null,
    "office_name_kana": null
  },
  "0034": {
    "postcode": "3570034",
    "prefecture": "埼玉県",
    "prefecture_kana": "サイタマケン",
    "prefecture_code": 11,
    "city": "飯能市",
    "city_kana": "ハンノウシ",
    "town": "東町",
    "town_kana": "アズマチョウ",
    "street": null,
    "office_name": null,
    "office_name_kana": null
  },
  "0035": {
    "postcode": "3570035",
    "prefecture": "埼玉県",
    "prefecture_kana": "サイタマケン",
    "prefecture_code": 11,
    "city": "飯能市",
    "city_kana": "ハンノウシ",
    "town": "柳町",
    "town_kana": "ヤナギチョウ",
    "street": null,
    "office_name": null,
    "office_name_kana": null
  },
  "0036": {
    "postcode": "3570036",
    "prefecture": "埼玉県",
    "prefecture_kana": "サイタマケン",
    "prefecture_code": 11,
    "city": "飯能市",
    "city_kana": "ハンノウシ",
    "town": "南町",
    "town_kana": "ミナミチョウ",
    "street": null,
    "office_name": null,
    "office_name_kana": null
  },
  "0037": {
    "postcode": "3570037",
    "prefecture": "埼玉県",
    "prefecture_kana": "サイタマケン",
    "prefecture_code": 11,
    "city": "飯能市",
    "city_kana": "ハンノウシ",
    "town": "稲荷町",
    "town_kana": "イナリチョウ",
    "street": null,
    "office_name": null,
    "office_name_kana": null
  },
  "0038": {
    "postcode": "3570038",
    "prefecture": "埼玉県",
    "prefecture_kana": "サイタマケン",
    "prefecture_code": 11,
    "city": "飯能市",
    "city_kana": "ハンノウシ",
    "town": "仲町",
    "town_kana": "ナカチョウ",
    "street": null,
    "office_name": null,
    "office_name_kana": null
  },
  "0041": {
    "postcode": "3570041",
    "prefecture": "埼玉県",
    "prefecture_kana": "サイタマケン",
    "prefecture_code": 11,
    "city": "飯能市",
    "city_kana": "ハンノウシ",
    "town": "美杉台",
    "town_kana": "ミスギダイ",
    "street": null,
    "office_name": null,
    "office_name_kana": null
  },
  "0042": {
    "postcode": "3570042",
    "prefecture": "埼玉県",
    "prefecture_kana": "サイタマケン",
    "prefecture_code": 11,
    "city": "飯能市",
    "city_kana": "ハンノウシ",
    "town": "矢颪",
    "town_kana": "ヤオロシ",
    "street": null,
    "office_name": null,
    "office_name_kana": null
  },
  "0043": {
    "postcode": "3570043",
    "prefecture": "埼玉県",
    "prefecture_kana": "サイタマケン",
    "prefecture_code": 11,
    "city": "飯能市",
    "city_kana": "ハンノウシ",
    "town": "前ケ貫",
    "town_kana": "マエガヌキ",
    "street": null,
    "office_name": null,
    "office_name_kana": null
  },
  "0044": {
    "postcode": "3570044",
    "prefecture": "埼玉県",
    "prefecture_kana": "サイタマケン",
    "prefecture_code": 11,
    "city": "飯能市",
    "city_kana": "ハンノウシ",
    "town": "川寺",
    "town_kana": "カワデラ",
    "street": null,
    "office_name": null,
    "office_name_kana": null
  },
  "0045": {
    "postcode": "3570045",
    "prefecture": "埼玉県",
    "prefecture_kana": "サイタマケン",
    "prefecture_code": 11,
    "city": "飯能市",
    "city_kana": "ハンノウシ",
    "town": "笠縫",
    "town_kana": "カサヌイ",
    "street": null,
    "office_name": null,
    "office_name_kana": null
  },
  "0046": {
    "postcode": "3570046",
    "prefecture": "埼玉県",
    "prefecture_kana": "サイタマケン",
    "prefecture_code": 11,
    "city": "飯能市",
    "city_kana": "ハンノウシ",
    "town": "阿須",
    "town_kana": "アズ",
    "street": null,
    "office_name": null,
    "office_name_kana": null
  },
  "0047": {
    "postcode": "3570047",
    "prefecture": "埼玉県",
    "prefecture_kana": "サイタマケン",
    "prefecture_code": 11,
    "city": "飯能市",
    "city_kana": "ハンノウシ",
    "town": "落合",
    "town_kana": "オチアイ",
    "street": null,
    "office_name": null,
    "office_name_kana": null
  },
  "0048": {
    "postcode": "3570048",
    "prefecture": "埼玉県",
    "prefecture_kana": "サイタマケン",
    "prefecture_code": 11,
    "city": "飯能市",
    "city_kana": "ハンノウシ",
    "town": "岩渕",
    "town_kana": "イワブチ",
    "street": null,
    "office_name": null,
    "office_name_kana": null
  },
  "0049": {
    "postcode": "3570049",
    "prefecture": "埼玉県",
    "prefecture_kana": "サイタマケン",
    "prefecture_code": 11,
    "city": "飯能市",
    "city_kana": "ハンノウシ",
    "town": "征矢町",
    "town_kana": "ソヤチョウ",
    "street": null,
    "office_name": null,
    "office_name_kana": null
  },
  "0051": {
    "postcode": "3570051",
    "prefecture": "埼玉県",
    "prefecture_kana": "サイタマケン",
    "prefecture_code": 11,
    "city": "飯能市",
    "city_kana": "ハンノウシ",
    "town": "苅生",
    "town_kana": "カロウ",
    "street": null,
    "office_name": null,
    "office_name_kana": null
  },
  "0052": {
    "postcode": "3570052",
    "prefecture": "埼玉県",
    "prefecture_kana": "サイタマケン",
    "prefecture_code": 11,
    "city": "飯能市",
    "city_kana": "ハンノウシ",
    "town": "下畑",
    "town_kana": "シモハタ",
    "street": null,
    "office_name": null,
    "office_name_kana": null
  },
  "0053": {
    "postcode": "3570053",
    "prefecture": "埼玉県",
    "prefecture_kana": "サイタマケン",
    "prefecture_code": 11,
    "city": "飯能市",
    "city_kana": "ハンノウシ",
    "town": "上畑",
    "town_kana": "カミハタ",
    "street": null,
    "office_name": null,
    "office_name_kana": null
  },
  "0054": {
    "postcode": "3570054",
    "prefecture": "埼玉県",
    "prefecture_kana": "サイタマケン",
    "prefecture_code": 11,
    "city": "飯能市",
    "city_kana": "ハンノウシ",
    "town": "下直竹",
    "town_kana": "シモナオタケ",
    "street": null,
    "office_name": null,
    "office_name_kana": null
  },
  "0055": {
    "postcode": "3570055",
    "prefecture": "埼玉県",
    "prefecture_kana": "サイタマケン",
    "prefecture_code": 11,
    "city": "飯能市",
    "city_kana": "ハンノウシ",
    "town": "上直竹下分",
    "town_kana": "カミナオタケシモブン",
    "street": null,
    "office_name": null,
    "office_name_kana": null
  },
  "0056": {
    "postcode": "3570056",
    "prefecture": "埼玉県",
    "prefecture_kana": "サイタマケン",
    "prefecture_code": 11,
    "city": "飯能市",
    "city_kana": "ハンノウシ",
    "town": "上直竹上分",
    "town_kana": "カミナオタケカミブン",
    "street": null,
    "office_name": null,
    "office_name_kana": null
  },
  "0061": {
    "postcode": "3570061",
    "prefecture": "埼玉県",
    "prefecture_kana": "サイタマケン",
    "prefecture_code": 11,
    "city": "飯能市",
    "city_kana": "ハンノウシ",
    "town": "永田台",
    "town_kana": "ナガタダイ",
    "street": null,
    "office_name": null,
    "office_name_kana": null
  },
  "0062": {
    "postcode": "3570062",
    "prefecture": "埼玉県",
    "prefecture_kana": "サイタマケン",
    "prefecture_code": 11,
    "city": "飯能市",
    "city_kana": "ハンノウシ",
    "town": "永田",
    "town_kana": "ナガタ",
    "street": null,
    "office_name": null,
    "office_name_kana": null
  },
  "0063": {
    "postcode": "3570063",
    "prefecture": "埼玉県",
    "prefecture_kana": "サイタマケン",
    "prefecture_code": 11,
    "city": "飯能市",
    "city_kana": "ハンノウシ",
    "town": "飯能",
    "town_kana": "ハンノウ",
    "street": null,
    "office_name": null,
    "office_name_kana": null
  },
  "0064": {
    "postcode": "3570064",
    "prefecture": "埼玉県",
    "prefecture_kana": "サイタマケン",
    "prefecture_code": 11,
    "city": "飯能市",
    "city_kana": "ハンノウシ",
    "town": "久下",
    "town_kana": "クゲ",
    "street": null,
    "office_name": null,
    "office_name_kana": null
  },
  "0065": {
    "postcode": "3570065",
    "prefecture": "埼玉県",
    "prefecture_kana": "サイタマケン",
    "prefecture_code": 11,
    "city": "飯能市",
    "city_kana": "ハンノウシ",
    "town": "大河原",
    "town_kana": "オオカワラ",
    "street": null,
    "office_name": null,
    "office_name_kana": null
  },
  "0066": {
    "postcode": "3570066",
    "prefecture": "埼玉県",
    "prefecture_kana": "サイタマケン",
    "prefecture_code": 11,
    "city": "飯能市",
    "city_kana": "ハンノウシ",
    "town": "小岩井",
    "town_kana": "コイワイ",
    "street": null,
    "office_name": null,
    "office_name_kana": null
  },
  "0067": {
    "postcode": "3570067",
    "prefecture": "埼玉県",
    "prefecture_kana": "サイタマケン",
    "prefecture_code": 11,
    "city": "飯能市",
    "city_kana": "ハンノウシ",
    "town": "小瀬戸",
    "town_kana": "コセド",
    "street": null,
    "office_name": null,
    "office_name_kana": null
  },
  "0068": {
    "postcode": "3570068",
    "prefecture": "埼玉県",
    "prefecture_kana": "サイタマケン",
    "prefecture_code": 11,
    "city": "飯能市",
    "city_kana": "ハンノウシ",
    "town": "久須美",
    "town_kana": "クスミ",
    "street": null,
    "office_name": null,
    "office_name_kana": null
  },
  "0069": {
    "postcode": "3570069",
    "prefecture": "埼玉県",
    "prefecture_kana": "サイタマケン",
    "prefecture_code": 11,
    "city": "飯能市",
    "city_kana": "ハンノウシ",
    "town": "茜台",
    "town_kana": "アカネダイ",
    "street": null,
    "office_name": null,
    "office_name_kana": null
  },
  "0111": {
    "postcode": "3570111",
    "prefecture": "埼玉県",
    "prefecture_kana": "サイタマケン",
    "prefecture_code": 11,
    "city": "飯能市",
    "city_kana": "ハンノウシ",
    "town": "上名栗",
    "town_kana": "カミナグリ",
    "street": null,
    "office_name": null,
    "office_name_kana": null
  },
  "0112": {
    "postcode": "3570112",
    "prefecture": "埼玉県",
    "prefecture_kana": "サイタマケン",
    "prefecture_code": 11,
    "city": "飯能市",
    "city_kana": "ハンノウシ",
    "town": "下名栗",
    "town_kana": "シモナグリ",
    "street": null,
    "office_name": null,
    "office_name_kana": null
  },
  "0121": {
    "postcode": "3570121",
    "prefecture": "埼玉県",
    "prefecture_kana": "サイタマケン",
    "prefecture_code": 11,
    "city": "飯能市",
    "city_kana": "ハンノウシ",
    "town": "中藤上郷",
    "town_kana": "ナカトウカミゴウ",
    "street": null,
    "office_name": null,
    "office_name_kana": null
  },
  "0122": {
    "postcode": "3570122",
    "prefecture": "埼玉県",
    "prefecture_kana": "サイタマケン",
    "prefecture_code": 11,
    "city": "飯能市",
    "city_kana": "ハンノウシ",
    "town": "中藤中郷",
    "town_kana": "ナカトウナカゴウ",
    "street": null,
    "office_name": null,
    "office_name_kana": null
  },
  "0123": {
    "postcode": "3570123",
    "prefecture": "埼玉県",
    "prefecture_kana": "サイタマケン",
    "prefecture_code": 11,
    "city": "飯能市",
    "city_kana": "ハンノウシ",
    "town": "中藤下郷",
    "town_kana": "ナカトウシモゴウ",
    "street": null,
    "office_name": null,
    "office_name_kana": null
  },
  "0124": {
    "postcode": "3570124",
    "prefecture": "埼玉県",
    "prefecture_kana": "サイタマケン",
    "prefecture_code": 11,
    "city": "飯能市",
    "city_kana": "ハンノウシ",
    "town": "原市場",
    "town_kana": "ハライチバ",
    "street": null,
    "office_name": null,
    "office_name_kana": null
  },
  "0125": {
    "postcode": "3570125",
    "prefecture": "埼玉県",
    "prefecture_kana": "サイタマケン",
    "prefecture_code": 11,
    "city": "飯能市",
    "city_kana": "ハンノウシ",
    "town": "上赤工",
    "town_kana": "カミアカダクミ",
    "street": null,
    "office_name": null,
    "office_name_kana": null
  },
  "0126": {
    "postcode": "3570126",
    "prefecture": "埼玉県",
    "prefecture_kana": "サイタマケン",
    "prefecture_code": 11,
    "city": "飯能市",
    "city_kana": "ハンノウシ",
    "town": "下赤工",
    "town_kana": "シモアカダクミ",
    "street": null,
    "office_name": null,
    "office_name_kana": null
  },
  "0127": {
    "postcode": "3570127",
    "prefecture": "埼玉県",
    "prefecture_kana": "サイタマケン",
    "prefecture_code": 11,
    "city": "飯能市",
    "city_kana": "ハンノウシ",
    "town": "唐竹",
    "town_kana": "カラタケ",
    "street": null,
    "office_name": null,
    "office_name_kana": null
  },
  "0128": {
    "postcode": "3570128",
    "prefecture": "埼玉県",
    "prefecture_kana": "サイタマケン",
    "prefecture_code": 11,
    "city": "飯能市",
    "city_kana": "ハンノウシ",
    "town": "赤沢",
    "town_kana": "アカザワ",
    "street": null,
    "office_name": null,
    "office_name_kana": null
  },
  "0201": {
    "postcode": "3570201",
    "prefecture": "埼玉県",
    "prefecture_kana": "サイタマケン",
    "prefecture_code": 11,
    "city": "飯能市",
    "city_kana": "ハンノウシ",
    "town": "北川",
    "town_kana": "キタガワ",
    "street": null,
    "office_name": null,
    "office_name_kana": null
  },
  "0202": {
    "postcode": "3570202",
    "prefecture": "埼玉県",
    "prefecture_kana": "サイタマケン",
    "prefecture_code": 11,
    "city": "飯能市",
    "city_kana": "ハンノウシ",
    "town": "高山",
    "town_kana": "タカヤマ",
    "street": null,
    "office_name": null,
    "office_name_kana": null
  },
  "0203": {
    "postcode": "3570203",
    "prefecture": "埼玉県",
    "prefecture_kana": "サイタマケン",
    "prefecture_code": 11,
    "city": "飯能市",
    "city_kana": "ハンノウシ",
    "town": "長沢",
    "town_kana": "ナガサワ",
    "street": null,
    "office_name": null,
    "office_name_kana": null
  },
  "0204": {
    "postcode": "3570204",
    "prefecture": "埼玉県",
    "prefecture_kana": "サイタマケン",
    "prefecture_code": 11,
    "city": "飯能市",
    "city_kana": "ハンノウシ",
    "town": "虎秀",
    "town_kana": "コシュウ",
    "street": null,
    "office_name": null,
    "office_name_kana": null
  },
  "0205": {
    "postcode": "3570205",
    "prefecture": "埼玉県",
    "prefecture_kana": "サイタマケン",
    "prefecture_code": 11,
    "city": "飯能市",
    "city_kana": "ハンノウシ",
    "town": "白子",
    "town_kana": "シラコ",
    "street": null,
    "office_name": null,
    "office_name_kana": null
  },
  "0206": {
    "postcode": "3570206",
    "prefecture": "埼玉県",
    "prefecture_kana": "サイタマケン",
    "prefecture_code": 11,
    "city": "飯能市",
    "city_kana": "ハンノウシ",
    "town": "上長沢",
    "town_kana": "カミナガサワ",
    "street": null,
    "office_name": null,
    "office_name_kana": null
  },
  "0211": {
    "postcode": "3570211",
    "prefecture": "埼玉県",
    "prefecture_kana": "サイタマケン",
    "prefecture_code": 11,
    "city": "飯能市",
    "city_kana": "ハンノウシ",
    "town": "平戸",
    "town_kana": "ヒラット",
    "street": null,
    "office_name": null,
    "office_name_kana": null
  },
  "0212": {
    "postcode": "3570212",
    "prefecture": "埼玉県",
    "prefecture_kana": "サイタマケン",
    "prefecture_code": 11,
    "city": "飯能市",
    "city_kana": "ハンノウシ",
    "town": "井上",
    "town_kana": "イノウエ",
    "street": null,
    "office_name": null,
    "office_name_kana": null
  },
  "0213": {
    "postcode": "3570213",
    "prefecture": "埼玉県",
    "prefecture_kana": "サイタマケン",
    "prefecture_code": 11,
    "city": "飯能市",
    "city_kana": "ハンノウシ",
    "town": "坂石町分",
    "town_kana": "サカイシマチブン",
    "street": null,
    "office_name": null,
    "office_name_kana": null
  },
  "0214": {
    "postcode": "3570214",
    "prefecture": "埼玉県",
    "prefecture_kana": "サイタマケン",
    "prefecture_code": 11,
    "city": "飯能市",
    "city_kana": "ハンノウシ",
    "town": "南",
    "town_kana": "ミナミ",
    "street": null,
    "office_name": null,
    "office_name_kana": null
  },
  "0215": {
    "postcode": "3570215",
    "prefecture": "埼玉県",
    "prefecture_kana": "サイタマケン",
    "prefecture_code": 11,
    "city": "飯能市",
    "city_kana": "ハンノウシ",
    "town": "坂石",
    "town_kana": "サカイシ",
    "street": null,
    "office_name": null,
    "office_name_kana": null
  },
  "0216": {
    "postcode": "3570216",
    "prefecture": "埼玉県",
    "prefecture_kana": "サイタマケン",
    "prefecture_code": 11,
    "city": "飯能市",
    "city_kana": "ハンノウシ",
    "town": "吾野",
    "town_kana": "アガノ",
    "street": null,
    "office_name": null,
    "office_name_kana": null
  },
  "0217": {
    "postcode": "3570217",
    "prefecture": "埼玉県",
    "prefecture_kana": "サイタマケン",
    "prefecture_code": 11,
    "city": "飯能市",
    "city_kana": "ハンノウシ",
    "town": "南川",
    "town_kana": "ミナミカワ",
    "street": null,
    "office_name": null,
    "office_name_kana": null
  },
  "0218": {
    "postcode": "3570218",
    "prefecture": "埼玉県",
    "prefecture_kana": "サイタマケン",
    "prefecture_code": 11,
    "city": "飯能市",
    "city_kana": "ハンノウシ",
    "town": "坂元",
    "town_kana": "サカモト",
    "street": null,
    "office_name": null,
    "office_name_kana": null
  },
  "8501": {
    "postcode": "3578501",
    "prefecture": "埼玉県",
    "prefecture_kana": "サイタマケン",
    "prefecture_code": 11,
    "city": "飯能市",
    "city_kana": "ハンノウシ",
    "town": "大字双柳",
    "town_kana": null,
    "street": "１−１",
    "office_name": "飯能市役所",
    "office_name_kana": "ハンノウシヤクシヨ"
  },
  "8510": {
    "postcode": "3578510",
    "prefecture": "埼玉県",
    "prefecture_kana": "サイタマケン",
    "prefecture_code": 11,
    "city": "飯能市",
    "city_kana": "ハンノウシ",
    "town": "大字新光",
    "town_kana": null,
    "street": "２０",
    "office_name": "株式会社　椿本チエイン",
    "office_name_kana": "カブシキガイシヤ ツバキモトチエイン"
  },
  "8527": {
    "postcode": "3578527",
    "prefecture": "埼玉県",
    "prefecture_kana": "サイタマケン",
    "prefecture_code": 11,
    "city": "飯能市",
    "city_kana": "ハンノウシ",
    "town": "美杉台",
    "town_kana": "ミスギダイ",
    "street": "１丁目２７",
    "office_name": "大鵬薬品工業　株式会社",
    "office_name_kana": "タイホウヤクヒンコウギヨウ カブシキガイシヤ"
  },
  "8550": {
    "postcode": "3578550",
    "prefecture": "埼玉県",
    "prefecture_kana": "サイタマケン",
    "prefecture_code": 11,
    "city": "飯能市",
    "city_kana": "ハンノウシ",
    "town": "大字小岩井",
    "town_kana": null,
    "street": "６１３",
    "office_name": "自由の森学園",
    "office_name_kana": "ジユウノモリガクエン"
  },
  "8555": {
    "postcode": "3578555",
    "prefecture": "埼玉県",
    "prefecture_kana": "サイタマケン",
    "prefecture_code": 11,
    "city": "飯能市",
    "city_kana": "ハンノウシ",
    "town": "大字阿須",
    "town_kana": null,
    "street": "６９８",
    "office_name": "駿河台大学",
    "office_name_kana": "スルガダイダイガク"
  },
  "8558": {
    "postcode": "3578558",
    "prefecture": "埼玉県",
    "prefecture_kana": "サイタマケン",
    "prefecture_code": 11,
    "city": "飯能市",
    "city_kana": "ハンノウシ",
    "town": "栄町",
    "town_kana": "サカエチョウ",
    "street": "２４番地９",
    "office_name": "飯能信用金庫",
    "office_name_kana": "ハンノウシンヨウキンコ"
  },
  "8570": {
    "postcode": "3578570",
    "prefecture": "埼玉県",
    "prefecture_kana": "サイタマケン",
    "prefecture_code": 11,
    "city": "飯能市",
    "city_kana": "ハンノウシ",
    "town": "新光",
    "town_kana": "シンコウ",
    "street": "１−１",
    "office_name": "マミヤ・オーピー・ネクオス　株式会社",
    "office_name_kana": "マミヤ・オ-ピ-・ネクオス カブシキガイシヤ"
  },
  "8585": {
    "postcode": "3578585",
    "prefecture": "埼玉県",
    "prefecture_kana": "サイタマケン",
    "prefecture_code": 11,
    "city": "飯能市",
    "city_kana": "ハンノウシ",
    "town": "南町",
    "town_kana": "ミナミチョウ",
    "street": "１０−１３",
    "office_name": "新電元工業　株式会社",
    "office_name_kana": "シンデンゲンコウギヨウ カブシキガイシヤ"
  },
  "8588": {
    "postcode": "3578588",
    "prefecture": "埼玉県",
    "prefecture_kana": "サイタマケン",
    "prefecture_code": 11,
    "city": "飯能市",
    "city_kana": "ハンノウシ",
    "town": "大字小久保",
    "town_kana": null,
    "street": "１９−１",
    "office_name": "飯能ケーブルテレビ　株式会社",
    "office_name_kana": "ハンノウケ-ブルテレビ カブシキガイシヤ"
  }
}