{
  "0000": {
    "postcode": "3590000",
    "prefecture": "埼玉県",
    "prefecture_kana": "サイタマケン",
    "prefecture_code": 11,
    "city": "所沢市",
    "city_kana": "トコロザワシ",
    "town": "",
    "town_kana": "",
    "street": null,
    "office_name": null,
    "office_name_kana": null
  },
  "0001": {
    "postcode": "3590001",
    "prefecture": "埼玉県",
    "prefecture_kana": "サイタマケン",
    "prefecture_code": 11,
    "city": "所沢市",
    "city_kana": "トコロザワシ",
    "town": "下富",
    "town_kana": "シモトミ",
    "street": null,
    "office_name": null,
    "office_name_kana": null
  },
  "0002": {
    "postcode": "3590002",
    "prefecture": "埼玉県",
    "prefecture_kana": "サイタマケン",
    "prefecture_code": 11,
    "city": "所沢市",
    "city_kana": "トコロザワシ",
    "town": "中富",
    "town_kana": "ナカトミ",
    "street": null,
    "office_name": null,
    "office_name_kana": null
  },
  "0003": {
    "postcode": "3590003",
    "prefecture": "埼玉県",
    "prefecture_kana": "サイタマケン",
    "prefecture_code": 11,
    "city": "所沢市",
    "city_kana": "トコロザワシ",
    "town": "中富南",
    "town_kana": "ナカトミミナミ",
    "street": null,
    "office_name": null,
    "office_name_kana": null
  },
  "0004": {
    "postcode": "3590004",
    "prefecture": "埼玉県",
    "prefecture_kana": "サイタマケン",
    "prefecture_code": 11,
    "city": "所沢市",
    "city_kana": "トコロザワシ",
    "town": "北原町",
    "town_kana": "キタハラチョウ",
    "street": null,
    "office_name": null,
    "office_name_kana": null
  },
  "0005": {
    "postcode": "3590005",
    "prefecture": "埼玉県",
    "prefecture_kana": "サイタマケン",
    "prefecture_code": 11,
    "city": "所沢市",
    "city_kana": "トコロザワシ",
    "town": "神米金",
    "town_kana": "カメガネ",
    "street": null,
    "office_name": null,
    "office_name_kana": null
  },
  "0006": {
    "postcode": "3590006",
    "prefecture": "埼玉県",
    "prefecture_kana": "サイタマケン",
    "prefecture_code": 11,
    "city": "所沢市",
    "city_kana": "トコロザワシ",
    "town": "所沢新町",
    "town_kana": "トコロザワシンマチ",
    "street": null,
    "office_name": null,
    "office_name_kana": null
  },
  "0007": {
    "postcode": "3590007",
    "prefecture": "埼玉県",
    "prefecture_kana": "サイタマケン",
    "prefecture_code": 11,
    "city": "所沢市",
    "city_kana": "トコロザワシ",
    "town": "北岩岡",
    "town_kana": "キタイワオカ",
    "street": null,
    "office_name": null,
    "office_name_kana": null
  },
  "0011": {
    "postcode": "3590011",
    "prefecture": "埼玉県",
    "prefecture_kana": "サイタマケン",
    "prefecture_code": 11,
    "city": "所沢市",
    "city_kana": "トコロザワシ",
    "town": "南永井",
    "town_kana": "ミナミナガイ",
    "street": null,
    "office_name": null,
    "office_name_kana": null
  },
  "0012": {
    "postcode": "3590012",
    "prefecture": "埼玉県",
    "prefecture_kana": "サイタマケン",
    "prefecture_code": 11,
    "city": "所沢市",
    "city_kana": "トコロザワシ",
    "town": "坂之下",
    "town_kana": "サカノシタ",
    "street": null,
    "office_name": null,
    "office_name_kana": null
  },
  "0013": {
    "postcode": "3590013",
    "prefecture": "埼玉県",
    "prefecture_kana": "サイタマケン",
    "prefecture_code": 11,
    "city": "所沢市",
    "city_kana": "トコロザワシ",
    "town": "城",
    "town_kana": "シロ",
    "street": null,
    "office_name": null,
    "office_name_kana": null
  },
  "0014": {
    "postcode": "3590014",
    "prefecture": "埼玉県",
    "prefecture_kana": "サイタマケン",
    "prefecture_code": 11,
    "city": "所沢市",
    "city_kana": "トコロザワシ",
    "town": "亀ケ谷",
    "town_kana": "カメガヤ",
    "street": null,
    "office_name": null,
    "office_name_kana": null
  },
  "0015": {
    "postcode": "3590015",
    "prefecture": "埼玉県",
    "prefecture_kana": "サイタマケン",
    "prefecture_code": 11,
    "city": "所沢市",
    "city_kana": "トコロザワシ",
    "town": "日比田",
    "town_kana": "ヒビタ",
    "street": null,
    "office_name": null,
    "office_name_kana": null
  },
  "0016": {
    "postcode": "3590016",
    "prefecture": "埼玉県",
    "prefecture_kana": "サイタマケン",
    "prefecture_code": 11,
    "city": "所沢市",
    "city_kana": "トコロザワシ",
    "town": "新郷",
    "town_kana": "シンゴウ",
    "street": null,
    "office_name": null,
    "office_name_kana": null
  },
  "0021": {
    "postcode": "3590021",
    "prefecture": "埼玉県",
    "prefecture_kana": "サイタマケン",
    "prefecture_code": 11,
    "city": "所沢市",
    "city_kana": "トコロザワシ",
    "town": "東所沢",
    "town_kana": "ヒガシトコロザワ",
    "street": null,
    "office_name": null,
    "office_name_kana": null
  },
  "0022": {
    "postcode": "3590022",
    "prefecture": "埼玉県",
    "prefecture_kana": "サイタマケン",
    "prefecture_code": 11,
    "city": "所沢市",
    "city_kana": "トコロザワシ",
    "town": "本郷",
    "town_kana": "ホンゴウ",
    "street": null,
    "office_name": null,
    "office_name_kana": null
  },
  "0023": {
    "postcode": "3590023",
    "prefecture": "埼玉県",
    "prefecture_kana": "サイタマケン",
    "prefecture_code": 11,
    "city": "所沢市",
    "city_kana": "トコロザワシ",
    "town": "東所沢和田",
    "town_kana": "ヒガシトコロザワワダ",
    "street": null,
    "office_name": null,
    "office_name_kana": null
  },
  "0024": {
    "postcode": "3590024",
    "prefecture": "埼玉県",
    "prefecture_kana": "サイタマケン",
    "prefecture_code": 11,
    "city": "所沢市",
    "city_kana": "トコロザワシ",
    "town": "下安松",
    "town_kana": "シモヤスマツ",
    "street": null,
    "office_name": null,
    "office_name_kana": null
  },
  "0025": {
    "postcode": "3590025",
    "prefecture": "埼玉県",
    "prefecture_kana": "サイタマケン",
    "prefecture_code": 11,
    "city": "所沢市",
    "city_kana": "トコロザワシ",
    "town": "上安松",
    "town_kana": "カミヤスマツ",
    "street": null,
    "office_name": null,
    "office_name_kana": null
  },
  "0026": {
    "postcode": "3590026",
    "prefecture": "埼玉県",
    "prefecture_kana": "サイタマケン",
    "prefecture_code": 11,
    "city": "所沢市",
    "city_kana": "トコロザワシ",
    "town": "牛沼",
    "town_kana": "ウシヌマ",
    "street": null,
    "office_name": null,
    "office_name_kana": null
  },
  "0027": {
    "postcode": "3590027",
    "prefecture": "埼玉県",
    "prefecture_kana": "サイタマケン",
    "prefecture_code": 11,
    "city": "所沢市",
    "city_kana": "トコロザワシ",
    "town": "松郷",
    "town_kana": "マツゴウ",
    "street": null,
    "office_name": null,
    "office_name_kana": null
  },
  "0031": {
    "postcode": "3590031",
    "prefecture": "埼玉県",
    "prefecture_kana": "サイタマケン",
    "prefecture_code": 11,
    "city": "所沢市",
    "city_kana": "トコロザワシ",
    "town": "下新井",
    "town_kana": "シモアライ",
    "street": null,
    "office_name": null,
    "office_name_kana": null
  },
  "0032": {
    "postcode": "3590032",
    "prefecture": "埼玉県",
    "prefecture_kana": "サイタマケン",
    "prefecture_code": 11,
    "city": "所沢市",
    "city_kana": "トコロザワシ",
    "town": "若松町",
    "town_kana": "ワカマツチョウ",
    "street": null,
    "office_name": null,
    "office_name_kana": null
  },
  "0033": {
    "postcode": "3590033",
    "prefecture": "埼玉県",
    "prefecture_kana": "サイタマケン",
    "prefecture_code": 11,
    "city": "所沢市",
    "city_kana": "トコロザワシ",
    "town": "こぶし町",
    "town_kana": "コブシチョウ",
    "street": null,
    "office_name": null,
    "office_name_kana": null
  },
  "0034": {
    "postcode": "3590034",
    "prefecture": "埼玉県",
    "prefecture_kana": "サイタマケン",
    "prefecture_code": 11,
    "city": "所沢市",
    "city_kana": "トコロザワシ",
    "town": "東新井町",
    "town_kana": "ヒガシアライチョウ",
    "street": null,
    "office_name": null,
    "office_name_kana": null
  },
  "0035": {
    "postcode": "3590035",
    "prefecture": "埼玉県",
    "prefecture_kana": "サイタマケン",
    "prefecture_code": 11,
    "city": "所沢市",
    "city_kana": "トコロザワシ",
    "town": "西新井町",
    "town_kana": "ニシアライチョウ",
    "street": null,
    "office_name": null,
    "office_name_kana": null
  },
  "0036": {
    "postcode": "3590036",
    "prefecture": "埼玉県",
    "prefecture_kana": "サイタマケン",
    "prefecture_code": 11,
    "city": "所沢市",
    "city_kana": "トコロザワシ",
    "town": "旭町",
    "town_kana": "アサヒチョウ",
    "street": null,
    "office_name": null,
    "office_name_kana": null
  },
  "0037": {
    "postcode": "3590037",
    "prefecture": "埼玉県",
    "prefecture_kana": "サイタマケン",
    "prefecture_code": 11,
    "city": "所沢市",
    "city_kana": "トコロザワシ",
    "town": "くすのき台",
    "town_kana": "クスノキダイ",
    "street": null,
    "office_name": null,
    "office_name_kana": null
  },
  "0038": {
    "postcode": "3590038",
    "prefecture": "埼玉県",
    "prefecture_kana": "サイタマケン",
    "prefecture_code": 11,
    "city": "所沢市",
    "city_kana": "トコロザワシ",
    "town": "北秋津",
    "town_kana": "キタアキツ",
    "street": null,
    "office_name": null,
    "office_name_kana": null
  },
  "0041": {
    "postcode": "3590041",
    "prefecture": "埼玉県",
    "prefecture_kana": "サイタマケン",
    "prefecture_code": 11,
    "city": "所沢市",
    "city_kana": "トコロザワシ",
    "town": "中新井",
    "town_kana": "ナカアライ",
    "street": null,
    "office_name": null,
    "office_name_kana": null
  },
  "0042": {
    "postcode": "3590042",
    "prefecture": "埼玉県",
    "prefecture_kana": "サイタマケン",
    "prefecture_code": 11,
    "city": "所沢市",
    "city_kana": "トコロザワシ",
    "town": "並木",
    "town_kana": "ナミキ",
    "street": null,
    "office_name": null,
    "office_name_kana": null
  },
  "0043": {
    "postcode": "3590043",
    "prefecture": "埼玉県",
    "prefecture_kana": "サイタマケン",
    "prefecture_code": 11,
    "city": "所沢市",
    "city_kana": "トコロザワシ",
    "town": "弥生町",
    "town_kana": "ヤヨイチョウ",
    "street": null,
    "office_name": null,
    "office_name_kana": null
  },
  "0044": {
    "postcode": "3590044",
    "prefecture": "埼玉県",
    "prefecture_kana": "サイタマケン",
    "prefecture_code": 11,
    "city": "所沢市",
    "city_kana": "トコロザワシ",
    "town": "松葉町",
    "town_kana": "マツバチョウ",
    "street": null,
    "office_name": null,
    "office_name_kana": null
  },
  "0045": {
    "postcode": "3590045",
    "prefecture": "埼玉県",
    "prefecture_kana": "サイタマケン",
    "prefecture_code": 11,
    "city": "所沢市",
    "city_kana": "トコロザワシ",
    "town": "美原町",
    "town_kana": "ミハラチョウ",
    "street": null,
    "office_name": null,
    "office_name_kana": null
  },
  "0046": {
    "postcode": "3590046",
    "prefecture": "埼玉県",
    "prefecture_kana": "サイタマケン",
    "prefecture_code": 11,
    "city": "所沢市",
    "city_kana": "トコロザワシ",
    "town": "北所沢町",
    "town_kana": "キタトコロザワチョウ",
    "street": null,
    "office_name": null,
    "office_name_kana": null
  },
  "0047": {
    "postcode": "3590047",
    "prefecture": "埼玉県",
    "prefecture_kana": "サイタマケン",
    "prefecture_code": 11,
    "city": "所沢市",
    "city_kana": "トコロザワシ",
    "town": "花園",
    "town_kana": "ハナゾノ",
    "street": null,
    "office_name": null,
    "office_name_kana": null
  },
  "1101": {
    "postcode": "3591101",
    "prefecture": "埼玉県",
    "prefecture_kana": "サイタマケン",
    "prefecture_code": 11,
    "city": "所沢市",
    "city_kana": "トコロザワシ",
    "town": "北中",
    "town_kana": "キタナカ",
    "street": null,
    "office_name": null,
    "office_name_kana": null
  },
  "1102": {
    "postcode": "3591102",
    "prefecture": "埼玉県",
    "prefecture_kana": "サイタマケン",
    "prefecture_code": 11,
    "city": "所沢市",
    "city_kana": "トコロザワシ",
    "town": "岩岡町",
    "town_kana": "イワオカチョウ",
    "street": null,
    "office_name": null,
    "office_name_kana": null
  },
  "1103": {
    "postcode": "3591103",
    "prefecture": "埼玉県",
    "prefecture_kana": "サイタマケン",
    "prefecture_code": 11,
    "city": "所沢市",
    "city_kana": "トコロザワシ",
    "town": "向陽町",
    "town_kana": "コウヨウチョウ",
    "street": null,
    "office_name": null,
    "office_name_kana": null
  },
  "1104": {
    "postcode": "3591104",
    "prefecture": "埼玉県",
    "prefecture_kana": "サイタマケン",
    "prefecture_code": 11,
    "city": "所沢市",
    "city_kana": "トコロザワシ",
    "town": "榎町",
    "town_kana": "エノキチョウ",
    "street": null,
    "office_name": null,
    "office_name_kana": null
  },
  "1105": {
    "postcode": "3591105",
    "prefecture": "埼玉県",
    "prefecture_kana": "サイタマケン",
    "prefecture_code": 11,
    "city": "所沢市",
    "city_kana": "トコロザワシ",
    "town": "青葉台",
    "town_kana": "アオバダイ",
    "street": null,
    "office_name": null,
    "office_name_kana": null
  },
  "1106": {
    "postcode": "3591106",
    "prefecture": "埼玉県",
    "prefecture_kana": "サイタマケン",
    "prefecture_code": 11,
    "city": "所沢市",
    "city_kana": "トコロザワシ",
    "town": "東狭山ケ丘",
    "town_kana": "ヒガシサヤマガオカ",
    "street": null,
    "office_name": null,
    "office_name_kana": null
  },
  "1111": {
    "postcode": "3591111",
    "prefecture": "埼玉県",
    "prefecture_kana": "サイタマケン",
    "prefecture_code": 11,
    "city": "所沢市",
    "city_kana": "トコロザワシ",
    "town": "緑町",
    "town_kana": "ミドリチョウ",
    "street": null,
    "office_name": null,
    "office_name_kana": null
  },
  "1112": {
    "postcode": "3591112",
    "prefecture": "埼玉県",
    "prefecture_kana": "サイタマケン",
    "prefecture_code": 11,
    "city": "所沢市",
    "city_kana": "トコロザワシ",
    "town": "泉町",
    "town_kana": "イズミチョウ",
    "street": null,
    "office_name": null,
    "office_name_kana": null
  },
  "1113": {
    "postcode": "3591113",
    "prefecture": "埼玉県",
    "prefecture_kana": "サイタマケン",
    "prefecture_code": 11,
    "city": "所沢市",
    "city_kana": "トコロザワシ",
    "town": "喜多町",
    "town_kana": "キタマチ",
    "street": null,
    "office_name": null,
    "office_name_kana": null
  },
  "1114": {
    "postcode": "3591114",
    "prefecture": "埼玉県",
    "prefecture_kana": "サイタマケン",
    "prefecture_code": 11,
    "city": "所沢市",
    "city_kana": "トコロザワシ",
    "town": "北有楽町",
    "town_kana": "キタユウラクチョウ",
    "street": null,
    "office_name": null,
    "office_name_kana": null
  },
  "1115": {
    "postcode": "3591115",
    "prefecture": "埼玉県",
    "prefecture_kana": "サイタマケン",
    "prefecture_code": 11,
    "city": "所沢市",
    "city_kana": "トコロザワシ",
    "town": "御幸町",
    "town_kana": "ミユキチョウ",
    "street": null,
    "office_name": null,
    "office_name_kana": null
  },
  "1116": {
    "postcode": "3591116",
    "prefecture": "埼玉県",
    "prefecture_kana": "サイタマケン",
    "prefecture_code": 11,
    "city": "所沢市",
    "city_kana": "トコロザワシ",
    "town": "東町",
    "town_kana": "ヒガシチョウ",
    "street": null,
    "office_name": null,
    "office_name_kana": null
  },
  "1117": {
    "postcode": "3591117",
    "prefecture": "埼玉県",
    "prefecture_kana": "サイタマケン",
    "prefecture_code": 11,
    "city": "所沢市",
    "city_kana": "トコロザワシ",
    "town": "有楽町",
    "town_kana": "ユウラクチョウ",
    "street": null,
    "office_name": null,
    "office_name_kana": null
  },
  "1118": {
    "postcode": "3591118",
    "prefecture": "埼玉県",
    "prefecture_kana": "サイタマケン",
    "prefecture_code": 11,
    "city": "所沢市",
    "city_kana": "トコロザワシ",
    "town": "けやき台",
    "town_kana": "ケヤキダイ",
    "street": null,
    "office_name": null,
    "office_name_kana": null
  },
  "1121": {
    "postcode": "3591121",
    "prefecture": "埼玉県",
    "prefecture_kana": "サイタマケン",
    "prefecture_code": 11,
    "city": "所沢市",
    "city_kana": "トコロザワシ",
    "town": "元町",
    "town_kana": "モトマチ",
    "street": null,
    "office_name": null,
    "office_name_kana": null
  },
  "1122": {
    "postcode": "3591122",
    "prefecture": "埼玉県",
    "prefecture_kana": "サイタマケン",
    "prefecture_code": 11,
    "city": "所沢市",
    "city_kana": "トコロザワシ",
    "town": "寿町",
    "town_kana": "コトブキチョウ",
    "street": null,
    "office_name": null,
    "office_name_kana": null
  },
  "1123": {
    "postcode": "3591123",
    "prefecture": "埼玉県",
    "prefecture_kana": "サイタマケン",
    "prefecture_code": 11,
    "city": "所沢市",
    "city_kana": "トコロザワシ",
    "town": "日吉町",
    "town_kana": "ヒヨシチョウ",
    "street": null,
    "office_name": null,
    "office_name_kana": null
  },
  "1124": {
    "postcode": "3591124",
    "prefecture": "埼玉県",
    "prefecture_kana": "サイタマケン",
    "prefecture_code": 11,
    "city": "所沢市",
    "city_kana": "トコロザワシ",
    "town": "東住吉",
    "town_kana": "ヒガシスミヨシ",
    "street": null,
    "office_name": null,
    "office_name_kana": null
  },
  "1125": {
    "postcode": "3591125",
    "prefecture": "埼玉県",
    "prefecture_kana": "サイタマケン",
    "prefecture_code": 11,
    "city": "所沢市",
    "city_kana": "トコロザワシ",
    "town": "南住吉",
    "town_kana": "ミナミスミヨシ",
    "street": null,
    "office_name": null,
    "office_name_kana": null
  },
  "1126": {
    "postcode": "3591126",
    "prefecture": "埼玉県",
    "prefecture_kana": "サイタマケン",
    "prefecture_code": 11,
    "city": "所沢市",
    "city_kana": "トコロザワシ",
    "town": "西住吉",
    "town_kana": "ニシスミヨシ",
    "street": null,
    "office_name": null,
    "office_name_kana": null
  },
  "1127": {
    "postcode": "3591127",
    "prefecture": "埼玉県",
    "prefecture_kana": "サイタマケン",
    "prefecture_code": 11,
    "city": "所沢市",
    "city_kana": "トコロザワシ",
    "town": "星の宮",
    "town_kana": "ホシノミヤ",
    "street": null,
    "office_name": null,
    "office_name_kana": null
  },
  "1128": {
    "postcode": "3591128",
    "prefecture": "埼玉県",
    "prefecture_kana": "サイタマケン",
    "prefecture_code": 11,
    "city": "所沢市",
    "city_kana": "トコロザワシ",
    "town": "金山町",
    "town_kana": "カナヤマチョウ",
    "street": null,
    "office_name": null,
    "office_name_kana": null
  },
  "1131": {
    "postcode": "3591131",
    "prefecture": "埼玉県",
    "prefecture_kana": "サイタマケン",
    "prefecture_code": 11,
    "city": "所沢市",
    "city_kana": "トコロザワシ",
    "town": "久米",
    "town_kana": "クメ",
    "street": null,
    "office_name": null,
    "office_name_kana": null
  },
  "1132": {
    "postcode": "3591132",
    "prefecture": "埼玉県",
    "prefecture_kana": "サイタマケン",
    "prefecture_code": 11,
    "city": "所沢市",
    "city_kana": "トコロザワシ",
    "town": "松が丘",
    "town_kana": "マツガオカ",
    "street": null,
    "office_name": null,
    "office_name_kana": null
  },
  "1133": {
    "postcode": "3591133",
    "prefecture": "埼玉県",
    "prefecture_kana": "サイタマケン",
    "prefecture_code": 11,
    "city": "所沢市",
    "city_kana": "トコロザワシ",
    "town": "荒幡",
    "town_kana": "アラハタ",
    "street": null,
    "office_name": null,
    "office_name_kana": null
  },
  "1141": {
    "postcode": "3591141",
    "prefecture": "埼玉県",
    "prefecture_kana": "サイタマケン",
    "prefecture_code": 11,
    "city": "所沢市",
    "city_kana": "トコロザワシ",
    "town": "小手指町",
    "town_kana": "コテサシチョウ",
    "street": null,
    "office_name": null,
    "office_name_kana": null
  },
  "1142": {
    "postcode": "3591142",
    "prefecture": "埼玉県",
    "prefecture_kana": "サイタマケン",
    "prefecture_code": 11,
    "city": "所沢市",
    "city_kana": "トコロザワシ",
    "town": "上新井",
    "town_kana": "カミアライ",
    "street": null,
    "office_name": null,
    "office_name_kana": null
  },
  "1143": {
    "postcode": "3591143",
    "prefecture": "埼玉県",
    "prefecture_kana": "サイタマケン",
    "prefecture_code": 11,
    "city": "所沢市",
    "city_kana": "トコロザワシ",
    "town": "宮本町",
    "town_kana": "ミヤモトチョウ",
    "street": null,
    "office_name": null,
    "office_name_kana": null
  },
  "1144": {
    "postcode": "3591144",
    "prefecture": "埼玉県",
    "prefecture_kana": "サイタマケン",
    "prefecture_code": 11,
    "city": "所沢市",
    "city_kana": "トコロザワシ",
    "town": "西所沢",
    "town_kana": "ニシトコロザワ",
    "street": null,
    "office_name": null,
    "office_name_kana": null
  },
  "1145": {
    "postcode": "3591145",
    "prefecture": "埼玉県",
    "prefecture_kana": "サイタマケン",
    "prefecture_code": 11,
    "city": "所沢市",
    "city_kana": "トコロザワシ",
    "town": "山口",
    "town_kana": "ヤマグチ",
    "street": null,
    "office_name": null,
    "office_name_kana": null
  },
  "1146": {
    "postcode": "3591146",
    "prefecture": "埼玉県",
    "prefecture_kana": "サイタマケン",
    "prefecture_code": 11,
    "city": "所沢市",
    "city_kana": "トコロザワシ",
    "town": "小手指南",
    "town_kana": "コテサシミナミ",
    "street": null,
    "office_name": null,
    "office_name_kana": null
  },
  "1147": {
    "postcode": "3591147",
    "prefecture": "埼玉県",
    "prefecture_kana": "サイタマケン",
    "prefecture_code": 11,
    "city": "所沢市",
    "city_kana": "トコロザワシ",
    "town": "小手指元町",
    "town_kana": "コテサシモトマチ",
    "street": null,
    "office_name": null,
    "office_name_kana": null
  },
  "1148": {
    "postcode": "3591148",
    "prefecture": "埼玉県",
    "prefecture_kana": "サイタマケン",
    "prefecture_code": 11,
    "city": "所沢市",
    "city_kana": "トコロザワシ",
    "town": "小手指台",
    "town_kana": "コテサシダイ",
    "street": null,
    "office_name": null,
    "office_name_kana": null
  },
  "1151": {
    "postcode": "3591151",
    "prefecture": "埼玉県",
    "prefecture_kana": "サイタマケン",
    "prefecture_code": 11,
    "city": "所沢市",
    "city_kana": "トコロザワシ",
    "town": "若狭",
    "town_kana": "ワカサ",
    "street": null,
    "office_name": null,
    "office_name_kana": null
  },
  "1152": {
    "postcode": "3591152",
    "prefecture": "埼玉県",
    "prefecture_kana": "サイタマケン",
    "prefecture_code": 11,
    "city": "所沢市",
    "city_kana": "トコロザワシ",
    "town": "北野",
    "town_kana": "キタノ",
    "street": null,
    "office_name": null,
    "office_name_kana": null
  },
  "1153": {
    "postcode": "3591153",
    "prefecture": "埼玉県",
    "prefecture_kana": "サイタマケン",
    "prefecture_code": 11,
    "city": "所沢市",
    "city_kana": "トコロザワシ",
    "town": "上山口",
    "town_kana": "カミヤマグチ",
    "street": null,
    "office_name": null,
    "office_name_kana": null
  },
  "1154": {
    "postcode": "3591154",
    "prefecture": "埼玉県",
    "prefecture_kana": "サイタマケン",
    "prefecture_code": 11,
    "city": "所沢市",
    "city_kana": "トコロザワシ",
    "town": "勝楽寺",
    "town_kana": "ショウラクジ",
    "street": null,
    "office_name": null,
    "office_name_kana": null
  },
  "1155": {
    "postcode": "3591155",
    "prefecture": "埼玉県",
    "prefecture_kana": "サイタマケン",
    "prefecture_code": 11,
    "city": "所沢市",
    "city_kana": "トコロザワシ",
    "town": "北野新町",
    "town_kana": "キタノシンマチ",
    "street": null,
    "office_name": null,
    "office_name_kana": null
  },
  "1156": {
    "postcode": "3591156",
    "prefecture": "埼玉県",
    "prefecture_kana": "サイタマケン",
    "prefecture_code": 11,
    "city": "所沢市",
    "city_kana": "トコロザワシ",
    "town": "北野南",
    "town_kana": "キタノミナミ",
    "street": null,
    "office_name": null,
    "office_name_kana": null
  },
  "1161": {
    "postcode": "3591161",
    "prefecture": "埼玉県",
    "prefecture_kana": "サイタマケン",
    "prefecture_code": 11,
    "city": "所沢市",
    "city_kana": "トコロザワシ",
    "town": "狭山ケ丘",
    "town_kana": "サヤマガオカ",
    "street": null,
    "office_name": null,
    "office_name_kana": null
  },
  "1162": {
    "postcode": "3591162",
    "prefecture": "埼玉県",
    "prefecture_kana": "サイタマケン",
    "prefecture_code": 11,
    "city": "所沢市",
    "city_kana": "トコロザワシ",
    "town": "和ケ原",
    "town_kana": "ワガハラ",
    "street": null,
    "office_name": null,
    "office_name_kana": null
  },
  "1163": {
    "postcode": "3591163",
    "prefecture": "埼玉県",
    "prefecture_kana": "サイタマケン",
    "prefecture_code": 11,
    "city": "所沢市",
    "city_kana": "トコロザワシ",
    "town": "西狭山ケ丘",
    "town_kana": "ニシサヤマガオカ",
    "street": null,
    "office_name": null,
    "office_name_kana": null
  },
  "1164": {
    "postcode": "3591164",
    "prefecture": "埼玉県",
    "prefecture_kana": "サイタマケン",
    "prefecture_code": 11,
    "city": "所沢市",
    "city_kana": "トコロザワシ",
    "town": "三ケ島",
    "town_kana": "ミカジマ",
    "street": null,
    "office_name": null,
    "office_name_kana": null
  },
  "1165": {
    "postcode": "3591165",
    "prefecture": "埼玉県",
    "prefecture_kana": "サイタマケン",
    "prefecture_code": 11,
    "city": "所沢市",
    "city_kana": "トコロザワシ",
    "town": "堀之内",
    "town_kana": "ホリノウチ",
    "street": null,
    "office_name": null,
    "office_name_kana": null
  },
  "1166": {
    "postcode": "3591166",
    "prefecture": "埼玉県",
    "prefecture_kana": "サイタマケン",
    "prefecture_code": 11,
    "city": "所沢市",
    "city_kana": "トコロザワシ",
    "town": "糀谷",
    "town_kana": "コウジヤ",
    "street": null,
    "office_name": null,
    "office_name_kana": null
  },
  "1167": {
    "postcode": "3591167",
    "prefecture": "埼玉県",
    "prefecture_kana": "サイタマケン",
    "prefecture_code": 11,
    "city": "所沢市",
    "city_kana": "トコロザワシ",
    "town": "林",
    "town_kana": "ハヤシ",
    "street": null,
    "office_name": null,
    "office_name_kana": null
  },
  "1180": {
    "postcode": "3591180",
    "prefecture": "埼玉県",
    "prefecture_kana": "サイタマケン",
    "prefecture_code": 11,
    "city": "所沢市",
    "city_kana": "トコロザワシ",
    "town": "久米",
    "town_kana": "クメ",
    "street": "５４６−１",
    "office_name": "西武バス　株式会社",
    "office_name_kana": "セイブバス カブシキガイシヤ"
  },
  "1188": {
    "postcode": "3591188",
    "prefecture": "埼玉県",
    "prefecture_kana": "サイタマケン",
    "prefecture_code": 11,
    "city": "所沢市",
    "city_kana": "トコロザワシ",
    "town": "南住吉",
    "town_kana": "ミナミスミヨシ",
    "street": "８番１９号",
    "office_name": "平岩建設　株式会社",
    "office_name_kana": "ヒライワケンセツ カブシキカイシヤ"
  },
  "1189": {
    "postcode": "3591189",
    "prefecture": "埼玉県",
    "prefecture_kana": "サイタマケン",
    "prefecture_code": 11,
    "city": "所沢市",
    "city_kana": "トコロザワシ",
    "town": "大字上山口",
    "town_kana": null,
    "street": "２１３５",
    "office_name": "株式会社　西武ライオンズ",
    "office_name_kana": "カブシキガイシヤ セイブライオンズ"
  },
  "1192": {
    "postcode": "3591192",
    "prefecture": "埼玉県",
    "prefecture_kana": "サイタマケン",
    "prefecture_code": 11,
    "city": "所沢市",
    "city_kana": "トコロザワシ",
    "town": "三ケ島",
    "town_kana": "ミカジマ",
    "street": "２丁目５７９−１５",
    "office_name": "早稲田大学",
    "office_name_kana": "ワセダダイガク"
  },
  "1193": {
    "postcode": "3591193",
    "prefecture": "埼玉県",
    "prefecture_kana": "サイタマケン",
    "prefecture_code": 11,
    "city": "所沢市",
    "city_kana": "トコロザワシ",
    "town": "東町",
    "town_kana": "ヒガシチョウ",
    "street": "１２−１２",
    "office_name": "大和証券　株式会社　所沢支店",
    "office_name_kana": "ダイワシヨウケン カブシキガイシヤ トコロザワシテン"
  },
  "1195": {
    "postcode": "3591195",
    "prefecture": "埼玉県",
    "prefecture_kana": "サイタマケン",
    "prefecture_code": 11,
    "city": "所沢市",
    "city_kana": "トコロザワシ",
    "town": "御幸町",
    "town_kana": "ミユキチョウ",
    "street": "１−１６",
    "office_name": "埼玉りそな銀行　所沢支店",
    "office_name_kana": "サイタマリソナギンコウ トコロザワシテン"
  },
  "1196": {
    "postcode": "3591196",
    "prefecture": "埼玉県",
    "prefecture_kana": "サイタマケン",
    "prefecture_code": 11,
    "city": "所沢市",
    "city_kana": "トコロザワシ",
    "town": "大字上山口",
    "town_kana": null,
    "street": "２１３５",
    "office_name": "西武ライオンズ球場",
    "office_name_kana": "セイブライオンズキユウジヨウ"
  },
  "1198": {
    "postcode": "3591198",
    "prefecture": "埼玉県",
    "prefecture_kana": "サイタマケン",
    "prefecture_code": 11,
    "city": "所沢市",
    "city_kana": "トコロザワシ",
    "town": "日吉町",
    "town_kana": "ヒヨシチョウ",
    "street": "１２−１",
    "office_name": "株式会社　そごう・西武　西武所沢店",
    "office_name_kana": "カブシキガイシヤ ソゴウ・セイブ セイブトコロザワテン"
  },
  "8501": {
    "postcode": "3598501",
    "prefecture": "埼玉県",
    "prefecture_kana": "サイタマケン",
    "prefecture_code": 11,
    "city": "所沢市",
    "city_kana": "トコロザワシ",
    "town": "並木",
    "town_kana": "ナミキ",
    "street": "１丁目１番地の１",
    "office_name": "所沢市役所",
    "office_name_kana": "トコロザワシヤクシヨ"
  },
  "8505": {
    "postcode": "3598505",
    "prefecture": "埼玉県",
    "prefecture_kana": "サイタマケン",
    "prefecture_code": 11,
    "city": "所沢市",
    "city_kana": "トコロザワシ",
    "town": "上安松",
    "town_kana": "カミヤスマツ",
    "street": "１１５２−１",
    "office_name": "所沢年金事務所",
    "office_name_kana": "トコロザワネンキンジムシヨ"
  },
  "8507": {
    "postcode": "3598507",
    "prefecture": "埼玉県",
    "prefecture_kana": "サイタマケン",
    "prefecture_code": 11,
    "city": "所沢市",
    "city_kana": "トコロザワシ",
    "town": "東所沢",
    "town_kana": "ヒガシトコロザワ",
    "street": "１丁目２７−２３",
    "office_name": "株式会社　バンガードシステムズ",
    "office_name_kana": "カブシキガイシヤ バンガ-ドシステムズ"
  },
  "8510": {
    "postcode": "3598510",
    "prefecture": "埼玉県",
    "prefecture_kana": "サイタマケン",
    "prefecture_code": 11,
    "city": "所沢市",
    "city_kana": "トコロザワシ",
    "town": "くすのき台",
    "town_kana": "クスノキダイ",
    "street": "１丁目１１−１",
    "office_name": "（株）　西武ホールディングス",
    "office_name_kana": "(カブ) セイブホ-ルデイングス"
  },
  "8511": {
    "postcode": "3598511",
    "prefecture": "埼玉県",
    "prefecture_kana": "サイタマケン",
    "prefecture_code": 11,
    "city": "所沢市",
    "city_kana": "トコロザワシ",
    "town": "大字下富",
    "town_kana": null,
    "street": "８４０",
    "office_name": "株式会社　シチズン時計",
    "office_name_kana": "カブシキガイシヤ シチズントケイ"
  },
  "8513": {
    "postcode": "3598513",
    "prefecture": "埼玉県",
    "prefecture_kana": "サイタマケン",
    "prefecture_code": 11,
    "city": "所沢市",
    "city_kana": "トコロザワシ",
    "town": "並木",
    "town_kana": "ナミキ",
    "street": "３丁目２",
    "office_name": "防衛医大",
    "office_name_kana": "ボウエイイダイ"
  },
  "8520": {
    "postcode": "3598520",
    "prefecture": "埼玉県",
    "prefecture_kana": "サイタマケン",
    "prefecture_code": 11,
    "city": "所沢市",
    "city_kana": "トコロザワシ",
    "town": "くすのき台",
    "town_kana": "クスノキダイ",
    "street": "１丁目１１−１",
    "office_name": "西武鉄道　株式会社",
    "office_name_kana": "セイブテツドウ カブシキガイシヤ"
  },
  "8533": {
    "postcode": "3598533",
    "prefecture": "埼玉県",
    "prefecture_kana": "サイタマケン",
    "prefecture_code": 11,
    "city": "所沢市",
    "city_kana": "トコロザワシ",
    "town": "並木",
    "town_kana": "ナミキ",
    "street": "１丁目４",
    "office_name": "ＮＴＴ　所沢支店",
    "office_name_kana": "エヌテイ-テイ- トコロザワシテン"
  },
  "8542": {
    "postcode": "3598542",
    "prefecture": "埼玉県",
    "prefecture_kana": "サイタマケン",
    "prefecture_code": 11,
    "city": "所沢市",
    "city_kana": "トコロザワシ",
    "town": "並木",
    "town_kana": "ナミキ",
    "street": "３丁目４",
    "office_name": "東京電力　志木支社　所沢営業所センター",
    "office_name_kana": "トウキヨウデンリヨク シキシシヤ トコロザワエイギヨウセンタ-"
  },
  "8550": {
    "postcode": "3598550",
    "prefecture": "埼玉県",
    "prefecture_kana": "サイタマケン",
    "prefecture_code": 11,
    "city": "所沢市",
    "city_kana": "トコロザワシ",
    "town": "くすのき台",
    "town_kana": "クスノキダイ",
    "street": "１丁目１１−２",
    "office_name": "西武建設　株式会社",
    "office_name_kana": "セイブケンセツ カブシキガイシヤ"
  },
  "8555": {
    "postcode": "3598555",
    "prefecture": "埼玉県",
    "prefecture_kana": "サイタマケン",
    "prefecture_code": 11,
    "city": "所沢市",
    "city_kana": "トコロザワシ",
    "town": "並木",
    "town_kana": "ナミキ",
    "street": "４丁目１番地",
    "office_name": "国立障害者リハビリテーションセンター",
    "office_name_kana": "コクリツシヨウガイシヤリハビリテ-シヨンセンタ-"
  },
  "8558": {
    "postcode": "3598558",
    "prefecture": "埼玉県",
    "prefecture_kana": "サイタマケン",
    "prefecture_code": 11,
    "city": "所沢市",
    "city_kana": "トコロザワシ",
    "town": "東所沢",
    "town_kana": "ヒガシトコロザワ",
    "street": "２丁目１−７",
    "office_name": "読売センター　東所沢",
    "office_name_kana": "ヨミウリセンタ- ヒガシトコロザワ"
  },
  "8560": {
    "postcode": "3598560",
    "prefecture": "埼玉県",
    "prefecture_kana": "サイタマケン",
    "prefecture_code": 11,
    "city": "所沢市",
    "city_kana": "トコロザワシ",
    "town": "くすのき台",
    "town_kana": "クスノキダイ",
    "street": "１丁目１１−２",
    "office_name": "西武運輸　株式会社",
    "office_name_kana": "セイブウンユ カブシキガイシヤ"
  },
  "8570": {
    "postcode": "3598570",
    "prefecture": "埼玉県",
    "prefecture_kana": "サイタマケン",
    "prefecture_code": 11,
    "city": "所沢市",
    "city_kana": "トコロザワシ",
    "town": "くすのき台",
    "town_kana": "クスノキダイ",
    "street": "１丁目１１−２",
    "office_name": "西武バス　株式会社　本社",
    "office_name_kana": "セイブバス カブシキガイシヤ ホンシヤ"
  },
  "8580": {
    "postcode": "3598580",
    "prefecture": "埼玉県",
    "prefecture_kana": "サイタマケン",
    "prefecture_code": 11,
    "city": "所沢市",
    "city_kana": "トコロザワシ",
    "town": "くすのき台",
    "town_kana": "クスノキダイ",
    "street": "１丁目１１−２",
    "office_name": "日本光電工業　株式会社",
    "office_name_kana": "ニホンコウデンコウギヨウ カブシキガイシヤ"
  },
  "8585": {
    "postcode": "3598585",
    "prefecture": "埼玉県",
    "prefecture_kana": "サイタマケン",
    "prefecture_code": 11,
    "city": "所沢市",
    "city_kana": "トコロザワシ",
    "town": "並木",
    "town_kana": "ナミキ",
    "street": "１丁目８−１",
    "office_name": "埼玉県　所沢県税事務所",
    "office_name_kana": "サイタマケン トコロザワケンゼイジムシヨ"
  },
  "8601": {
    "postcode": "3598601",
    "prefecture": "埼玉県",
    "prefecture_kana": "サイタマケン",
    "prefecture_code": 11,
    "city": "所沢市",
    "city_kana": "トコロザワシ",
    "town": "並木",
    "town_kana": "ナミキ",
    "street": "１丁目７",
    "office_name": "所沢税務署",
    "office_name_kana": "トコロザワゼイムシヨ"
  },
  "8648": {
    "postcode": "3598648",
    "prefecture": "埼玉県",
    "prefecture_kana": "サイタマケン",
    "prefecture_code": 11,
    "city": "所沢市",
    "city_kana": "トコロザワシ",
    "town": "松葉町",
    "town_kana": "マツバチョウ",
    "street": "１１−１マルハビル５階",
    "office_name": "（株）　東京新聞ショッパー社",
    "office_name_kana": "カブシキガイシヤ トウキヨウシンブンシヨツパ-シヤ"
  },
  "8686": {
    "postcode": "3598686",
    "prefecture": "埼玉県",
    "prefecture_kana": "サイタマケン",
    "prefecture_code": 11,
    "city": "所沢市",
    "city_kana": "トコロザワシ",
    "town": "大字神米金",
    "town_kana": null,
    "street": "４７６",
    "office_name": "株式会社　タマス　所沢事業所",
    "office_name_kana": "カブシキガイシヤ タマス トコロザワジギヨウシヨ"
  }
}