{
  "0000": {
    "postcode": "3630000",
    "prefecture": "埼玉県",
    "prefecture_kana": "サイタマケン",
    "prefecture_code": 11,
    "city": "桶川市",
    "city_kana": "オケガワシ",
    "town": "",
    "town_kana": "",
    "street": null,
    "office_name": null,
    "office_name_kana": null
  },
  "0001": {
    "postcode": "3630001",
    "prefecture": "埼玉県",
    "prefecture_kana": "サイタマケン",
    "prefecture_code": 11,
    "city": "桶川市",
    "city_kana": "オケガワシ",
    "town": "加納",
    "town_kana": "カノウ",
    "street": null,
    "office_name": null,
    "office_name_kana": null
  },
  "0002": {
    "postcode": "3630002",
    "prefecture": "埼玉県",
    "prefecture_kana": "サイタマケン",
    "prefecture_code": 11,
    "city": "桶川市",
    "city_kana": "オケガワシ",
    "town": "赤堀",
    "town_kana": "アカボリ",
    "street": null,
    "office_name": null,
    "office_name_kana": null
  },
  "0003": {
    "postcode": "3630003",
    "prefecture": "埼玉県",
    "prefecture_kana": "サイタマケン",
    "prefecture_code": 11,
    "city": "桶川市",
    "city_kana": "オケガワシ",
    "town": "篠津",
    "town_kana": "シノヅ",
    "street": null,
    "office_name": null,
    "office_name_kana": null
  },
  "0004": {
    "postcode": "3630004",
    "prefecture": "埼玉県",
    "prefecture_kana": "サイタマケン",
    "prefecture_code": 11,
    "city": "桶川市",
    "city_kana": "オケガワシ",
    "town": "五町台",
    "town_kana": "ゴチョウダイ",
    "street": null,
    "office_name": null,
    "office_name_kana": null
  },
  "0005": {
    "postcode": "3630005",
    "prefecture": "埼玉県",
    "prefecture_kana": "サイタマケン",
    "prefecture_code": 11,
    "city": "桶川市",
    "city_kana": "オケガワシ",
    "town": "舎人新田",
    "town_kana": "トネリシンデン",
    "street": null,
    "office_name": null,
    "office_name_kana": null
  },
  "0006": {
    "postcode": "3630006",
    "prefecture": "埼玉県",
    "prefecture_kana": "サイタマケン",
    "prefecture_code": 11,
    "city": "桶川市",
    "city_kana": "オケガワシ",
    "town": "倉田",
    "town_kana": "クラタ",
    "street": null,
    "office_name": null,
    "office_name_kana": null
  },
  "0007": {
    "postcode": "3630007",
    "prefecture": "埼玉県",
    "prefecture_kana": "サイタマケン",
    "prefecture_code": 11,
    "city": "桶川市",
    "city_kana": "オケガワシ",
    "town": "小針領家",
    "town_kana": "コバリリョウケ",
    "street": null,
    "office_name": null,
    "office_name_kana": null
  },
  "0008": {
    "postcode": "3630008",
    "prefecture": "埼玉県",
    "prefecture_kana": "サイタマケン",
    "prefecture_code": 11,
    "city": "桶川市",
    "city_kana": "オケガワシ",
    "town": "坂田",
    "town_kana": "サカタ",
    "street": null,
    "office_name": null,
    "office_name_kana": null
  },
  "0009": {
    "postcode": "3630009",
    "prefecture": "埼玉県",
    "prefecture_kana": "サイタマケン",
    "prefecture_code": 11,
    "city": "桶川市",
    "city_kana": "オケガワシ",
    "town": "坂田東",
    "town_kana": "サカタヒガシ",
    "street": null,
    "office_name": null,
    "office_name_kana": null
  },
  "0011": {
    "postcode": "3630011",
    "prefecture": "埼玉県",
    "prefecture_kana": "サイタマケン",
    "prefecture_code": 11,
    "city": "桶川市",
    "city_kana": "オケガワシ",
    "town": "北",
    "town_kana": "キタ",
    "street": null,
    "office_name": null,
    "office_name_kana": null
  },
  "0012": {
    "postcode": "3630012",
    "prefecture": "埼玉県",
    "prefecture_kana": "サイタマケン",
    "prefecture_code": 11,
    "city": "桶川市",
    "city_kana": "オケガワシ",
    "town": "末広",
    "town_kana": "スエヒロ",
    "street": null,
    "office_name": null,
    "office_name_kana": null
  },
  "0013": {
    "postcode": "3630013",
    "prefecture": "埼玉県",
    "prefecture_kana": "サイタマケン",
    "prefecture_code": 11,
    "city": "桶川市",
    "city_kana": "オケガワシ",
    "town": "東",
    "town_kana": "ヒガシ",
    "street": null,
    "office_name": null,
    "office_name_kana": null
  },
  "0014": {
    "postcode": "3630014",
    "prefecture": "埼玉県",
    "prefecture_kana": "サイタマケン",
    "prefecture_code": 11,
    "city": "桶川市",
    "city_kana": "オケガワシ",
    "town": "神明",
    "town_kana": "シンメイ",
    "street": null,
    "office_name": null,
    "office_name_kana": null
  },
  "0015": {
    "postcode": "3630015",
    "prefecture": "埼玉県",
    "prefecture_kana": "サイタマケン",
    "prefecture_code": 11,
    "city": "桶川市",
    "city_kana": "オケガワシ",
    "town": "南",
    "town_kana": "ミナミ",
    "street": null,
    "office_name": null,
    "office_name_kana": null
  },
  "0016": {
    "postcode": "3630016",
    "prefecture": "埼玉県",
    "prefecture_kana": "サイタマケン",
    "prefecture_code": 11,
    "city": "桶川市",
    "city_kana": "オケガワシ",
    "town": "寿",
    "town_kana": "コトブキ",
    "street": null,
    "office_name": null,
    "office_name_kana": null
  },
  "0017": {
    "postcode": "3630017",
    "prefecture": "埼玉県",
    "prefecture_kana": "サイタマケン",
    "prefecture_code": 11,
    "city": "桶川市",
    "city_kana": "オケガワシ",
    "town": "西",
    "town_kana": "ニシ",
    "street": null,
    "office_name": null,
    "office_name_kana": null
  },
  "0018": {
    "postcode": "3630018",
    "prefecture": "埼玉県",
    "prefecture_kana": "サイタマケン",
    "prefecture_code": 11,
    "city": "桶川市",
    "city_kana": "オケガワシ",
    "town": "坂田西",
    "town_kana": "サカタニシ",
    "street": null,
    "office_name": null,
    "office_name_kana": null
  },
  "0020": {
    "postcode": "3630020",
    "prefecture": "埼玉県",
    "prefecture_kana": "サイタマケン",
    "prefecture_code": 11,
    "city": "桶川市",
    "city_kana": "オケガワシ",
    "town": "上日出谷南",
    "town_kana": "カミヒデヤミナミ",
    "street": null,
    "office_name": null,
    "office_name_kana": null
  },
  "0021": {
    "postcode": "3630021",
    "prefecture": "埼玉県",
    "prefecture_kana": "サイタマケン",
    "prefecture_code": 11,
    "city": "桶川市",
    "city_kana": "オケガワシ",
    "town": "泉",
    "town_kana": "イズミ",
    "street": null,
    "office_name": null,
    "office_name_kana": null
  },
  "0022": {
    "postcode": "3630022",
    "prefecture": "埼玉県",
    "prefecture_kana": "サイタマケン",
    "prefecture_code": 11,
    "city": "桶川市",
    "city_kana": "オケガワシ",
    "town": "若宮",
    "town_kana": "ワカミヤ",
    "street": null,
    "office_name": null,
    "office_name_kana": null
  },
  "0023": {
    "postcode": "3630023",
    "prefecture": "埼玉県",
    "prefecture_kana": "サイタマケン",
    "prefecture_code": 11,
    "city": "桶川市",
    "city_kana": "オケガワシ",
    "town": "朝日",
    "town_kana": "アサヒ",
    "street": null,
    "office_name": null,
    "office_name_kana": null
  },
  "0024": {
    "postcode": "3630024",
    "prefecture": "埼玉県",
    "prefecture_kana": "サイタマケン",
    "prefecture_code": 11,
    "city": "桶川市",
    "city_kana": "オケガワシ",
    "town": "鴨川",
    "town_kana": "カモガワ",
    "street": null,
    "office_name": null,
    "office_name_kana": null
  },
  "0025": {
    "postcode": "3630025",
    "prefecture": "埼玉県",
    "prefecture_kana": "サイタマケン",
    "prefecture_code": 11,
    "city": "桶川市",
    "city_kana": "オケガワシ",
    "town": "下日出谷",
    "town_kana": "シモヒデヤ",
    "street": null,
    "office_name": null,
    "office_name_kana": null
  },
  "0026": {
    "postcode": "3630026",
    "prefecture": "埼玉県",
    "prefecture_kana": "サイタマケン",
    "prefecture_code": 11,
    "city": "桶川市",
    "city_kana": "オケガワシ",
    "town": "上日出谷",
    "town_kana": "カミヒデヤ",
    "street": null,
    "office_name": null,
    "office_name_kana": null
  },
  "0027": {
    "postcode": "3630027",
    "prefecture": "埼玉県",
    "prefecture_kana": "サイタマケン",
    "prefecture_code": 11,
    "city": "桶川市",
    "city_kana": "オケガワシ",
    "town": "川田谷",
    "town_kana": "カワタヤ",
    "street": null,
    "office_name": null,
    "office_name_kana": null
  },
  "0028": {
    "postcode": "3630028",
    "prefecture": "埼玉県",
    "prefecture_kana": "サイタマケン",
    "prefecture_code": 11,
    "city": "桶川市",
    "city_kana": "オケガワシ",
    "town": "下日出谷西",
    "town_kana": "シモヒデヤニシ",
    "street": null,
    "office_name": null,
    "office_name_kana": null
  },
  "0029": {
    "postcode": "3630029",
    "prefecture": "埼玉県",
    "prefecture_kana": "サイタマケン",
    "prefecture_code": 11,
    "city": "桶川市",
    "city_kana": "オケガワシ",
    "town": "下日出谷東",
    "town_kana": "シモヒデヤヒガシ",
    "street": null,
    "office_name": null,
    "office_name_kana": null
  },
  "8501": {
    "postcode": "3638501",
    "prefecture": "埼玉県",
    "prefecture_kana": "サイタマケン",
    "prefecture_code": 11,
    "city": "桶川市",
    "city_kana": "オケガワシ",
    "town": "泉",
    "town_kana": "イズミ",
    "street": "１丁目３−２８",
    "office_name": "桶川市役所",
    "office_name_kana": "オケガワシヤクシヨ"
  },
  "8505": {
    "postcode": "3638505",
    "prefecture": "埼玉県",
    "prefecture_kana": "サイタマケン",
    "prefecture_code": 11,
    "city": "桶川市",
    "city_kana": "オケガワシ",
    "town": "加納",
    "town_kana": "カノウ",
    "street": "３１０３番地",
    "office_name": "株式会社　シーエックスカーゴ",
    "office_name_kana": "カブシキガイシヤ シ-エツクスカ-ゴ"
  },
  "8509": {
    "postcode": "3638509",
    "prefecture": "埼玉県",
    "prefecture_kana": "サイタマケン",
    "prefecture_code": 11,
    "city": "桶川市",
    "city_kana": "オケガワシ",
    "town": "赤堀",
    "town_kana": "アカボリ",
    "street": "２丁目４",
    "office_name": "マルキュー　株式会社",
    "office_name_kana": "マルキユ- カブシキガイシヤ"
  },
  "8510": {
    "postcode": "3638510",
    "prefecture": "埼玉県",
    "prefecture_kana": "サイタマケン",
    "prefecture_code": 11,
    "city": "桶川市",
    "city_kana": "オケガワシ",
    "town": "上日出谷",
    "town_kana": "カミヒデヤ",
    "street": "１２３０",
    "office_name": "株式会社　プロテリアル　桶川工場",
    "office_name_kana": "カブシキガイシヤ プロテリアル オケガワコウジヨウ"
  },
  "8555": {
    "postcode": "3638555",
    "prefecture": "埼玉県",
    "prefecture_kana": "サイタマケン",
    "prefecture_code": 11,
    "city": "桶川市",
    "city_kana": "オケガワシ",
    "town": "",
    "town_kana": "",
    "street": "桶川都市計画事業下日出谷東特定土地区画整理事業地内４２街区１画地",
    "office_name": "ユニー　株式会社　ベニバナウォーク桶川・アピタ桶川店",
    "office_name_kana": "ユニ- カブシキガイシヤ ベニバナウオ-クオケガワ・アピタオケガワテン"
  },
  "8558": {
    "postcode": "3638558",
    "prefecture": "埼玉県",
    "prefecture_kana": "サイタマケン",
    "prefecture_code": 11,
    "city": "桶川市",
    "city_kana": "オケガワシ",
    "town": "赤堀",
    "town_kana": "アカボリ",
    "street": "２−６",
    "office_name": "ザイロ　株式会社　関東物流センター",
    "office_name_kana": "ザイロ カブシキカイシヤ カントウブツリユウセンタ-"
  },
  "8601": {
    "postcode": "3638601",
    "prefecture": "埼玉県",
    "prefecture_kana": "サイタマケン",
    "prefecture_code": 11,
    "city": "桶川市",
    "city_kana": "オケガワシ",
    "town": "大字加納",
    "town_kana": null,
    "street": "１８０（桶川郵便局私書箱第５号）",
    "office_name": "三国・コカコーラボトリング　株式会社",
    "office_name_kana": "ミクニ・コカコ-ラボトリング カブシキガイシヤ"
  }
}