{
  "0000": {
    "postcode": "3640000",
    "prefecture": "埼玉県",
    "prefecture_kana": "サイタマケン",
    "prefecture_code": 11,
    "city": "北本市",
    "city_kana": "キタモトシ",
    "town": "",
    "town_kana": "",
    "street": null,
    "office_name": null,
    "office_name_kana": null
  },
  "0001": {
    "postcode": "3640001",
    "prefecture": "埼玉県",
    "prefecture_kana": "サイタマケン",
    "prefecture_code": 11,
    "city": "北本市",
    "city_kana": "キタモトシ",
    "town": "深井",
    "town_kana": "フカイ",
    "street": null,
    "office_name": null,
    "office_name_kana": null
  },
  "0002": {
    "postcode": "3640002",
    "prefecture": "埼玉県",
    "prefecture_kana": "サイタマケン",
    "prefecture_code": 11,
    "city": "北本市",
    "city_kana": "キタモトシ",
    "town": "宮内",
    "town_kana": "ミヤウチ",
    "street": null,
    "office_name": null,
    "office_name_kana": null
  },
  "0003": {
    "postcode": "3640003",
    "prefecture": "埼玉県",
    "prefecture_kana": "サイタマケン",
    "prefecture_code": 11,
    "city": "北本市",
    "city_kana": "キタモトシ",
    "town": "古市場",
    "town_kana": "フルイチバ",
    "street": null,
    "office_name": null,
    "office_name_kana": null
  },
  "0004": {
    "postcode": "3640004",
    "prefecture": "埼玉県",
    "prefecture_kana": "サイタマケン",
    "prefecture_code": 11,
    "city": "北本市",
    "city_kana": "キタモトシ",
    "town": "山中",
    "town_kana": "ヤマナカ",
    "street": null,
    "office_name": null,
    "office_name_kana": null
  },
  "0005": {
    "postcode": "3640005",
    "prefecture": "埼玉県",
    "prefecture_kana": "サイタマケン",
    "prefecture_code": 11,
    "city": "北本市",
    "city_kana": "キタモトシ",
    "town": "本宿",
    "town_kana": "モトジュク",
    "street": null,
    "office_name": null,
    "office_name_kana": null
  },
  "0006": {
    "postcode": "3640006",
    "prefecture": "埼玉県",
    "prefecture_kana": "サイタマケン",
    "prefecture_code": 11,
    "city": "北本市",
    "city_kana": "キタモトシ",
    "town": "北本",
    "town_kana": "キタモト",
    "street": null,
    "office_name": null,
    "office_name_kana": null
  },
  "0007": {
    "postcode": "3640007",
    "prefecture": "埼玉県",
    "prefecture_kana": "サイタマケン",
    "prefecture_code": 11,
    "city": "北本市",
    "city_kana": "キタモトシ",
    "town": "東間",
    "town_kana": "アズマ",
    "street": null,
    "office_name": null,
    "office_name_kana": null
  },
  "0011": {
    "postcode": "3640011",
    "prefecture": "埼玉県",
    "prefecture_kana": "サイタマケン",
    "prefecture_code": 11,
    "city": "北本市",
    "city_kana": "キタモトシ",
    "town": "朝日",
    "town_kana": "アサヒ",
    "street": null,
    "office_name": null,
    "office_name_kana": null
  },
  "0012": {
    "postcode": "3640012",
    "prefecture": "埼玉県",
    "prefecture_kana": "サイタマケン",
    "prefecture_code": 11,
    "city": "北本市",
    "city_kana": "キタモトシ",
    "town": "北中丸",
    "town_kana": "キタナカマル",
    "street": null,
    "office_name": null,
    "office_name_kana": null
  },
  "0013": {
    "postcode": "3640013",
    "prefecture": "埼玉県",
    "prefecture_kana": "サイタマケン",
    "prefecture_code": 11,
    "city": "北本市",
    "city_kana": "キタモトシ",
    "town": "中丸",
    "town_kana": "ナカマル",
    "street": null,
    "office_name": null,
    "office_name_kana": null
  },
  "0014": {
    "postcode": "3640014",
    "prefecture": "埼玉県",
    "prefecture_kana": "サイタマケン",
    "prefecture_code": 11,
    "city": "北本市",
    "city_kana": "キタモトシ",
    "town": "二ツ家",
    "town_kana": "フタツヤ",
    "street": null,
    "office_name": null,
    "office_name_kana": null
  },
  "0021": {
    "postcode": "3640021",
    "prefecture": "埼玉県",
    "prefecture_kana": "サイタマケン",
    "prefecture_code": 11,
    "city": "北本市",
    "city_kana": "キタモトシ",
    "town": "北本宿",
    "town_kana": "キタモトジュク",
    "street": null,
    "office_name": null,
    "office_name_kana": null
  },
  "0022": {
    "postcode": "3640022",
    "prefecture": "埼玉県",
    "prefecture_kana": "サイタマケン",
    "prefecture_code": 11,
    "city": "北本市",
    "city_kana": "キタモトシ",
    "town": "下石戸上",
    "town_kana": "シモイシトカミ",
    "street": null,
    "office_name": null,
    "office_name_kana": null
  },
  "0023": {
    "postcode": "3640023",
    "prefecture": "埼玉県",
    "prefecture_kana": "サイタマケン",
    "prefecture_code": 11,
    "city": "北本市",
    "city_kana": "キタモトシ",
    "town": "下石戸下",
    "town_kana": "シモイシトシモ",
    "street": null,
    "office_name": null,
    "office_name_kana": null
  },
  "0024": {
    "postcode": "3640024",
    "prefecture": "埼玉県",
    "prefecture_kana": "サイタマケン",
    "prefecture_code": 11,
    "city": "北本市",
    "city_kana": "キタモトシ",
    "town": "石戸",
    "town_kana": "イシト",
    "street": null,
    "office_name": null,
    "office_name_kana": null
  },
  "0025": {
    "postcode": "3640025",
    "prefecture": "埼玉県",
    "prefecture_kana": "サイタマケン",
    "prefecture_code": 11,
    "city": "北本市",
    "city_kana": "キタモトシ",
    "town": "石戸宿",
    "town_kana": "イシトジュク",
    "street": null,
    "office_name": null,
    "office_name_kana": null
  },
  "0026": {
    "postcode": "3640026",
    "prefecture": "埼玉県",
    "prefecture_kana": "サイタマケン",
    "prefecture_code": 11,
    "city": "北本市",
    "city_kana": "キタモトシ",
    "town": "荒井",
    "town_kana": "アライ",
    "street": null,
    "office_name": null,
    "office_name_kana": null
  },
  "0027": {
    "postcode": "3640027",
    "prefecture": "埼玉県",
    "prefecture_kana": "サイタマケン",
    "prefecture_code": 11,
    "city": "北本市",
    "city_kana": "キタモトシ",
    "town": "栄",
    "town_kana": "サカエ",
    "street": null,
    "office_name": null,
    "office_name_kana": null
  },
  "0028": {
    "postcode": "3640028",
    "prefecture": "埼玉県",
    "prefecture_kana": "サイタマケン",
    "prefecture_code": 11,
    "city": "北本市",
    "city_kana": "キタモトシ",
    "town": "下石戸",
    "town_kana": "シモイシト",
    "street": null,
    "office_name": null,
    "office_name_kana": null
  },
  "0031": {
    "postcode": "3640031",
    "prefecture": "埼玉県",
    "prefecture_kana": "サイタマケン",
    "prefecture_code": 11,
    "city": "北本市",
    "city_kana": "キタモトシ",
    "town": "中央",
    "town_kana": "チュウオウ",
    "street": null,
    "office_name": null,
    "office_name_kana": null
  },
  "0032": {
    "postcode": "3640032",
    "prefecture": "埼玉県",
    "prefecture_kana": "サイタマケン",
    "prefecture_code": 11,
    "city": "北本市",
    "city_kana": "キタモトシ",
    "town": "緑",
    "town_kana": "ミドリ",
    "street": null,
    "office_name": null,
    "office_name_kana": null
  },
  "0033": {
    "postcode": "3640033",
    "prefecture": "埼玉県",
    "prefecture_kana": "サイタマケン",
    "prefecture_code": 11,
    "city": "北本市",
    "city_kana": "キタモトシ",
    "town": "本町",
    "town_kana": "ホンチョウ",
    "street": null,
    "office_name": null,
    "office_name_kana": null
  },
  "0034": {
    "postcode": "3640034",
    "prefecture": "埼玉県",
    "prefecture_kana": "サイタマケン",
    "prefecture_code": 11,
    "city": "北本市",
    "city_kana": "キタモトシ",
    "town": "高尾",
    "town_kana": "タカオ",
    "street": null,
    "office_name": null,
    "office_name_kana": null
  },
  "0035": {
    "postcode": "3640035",
    "prefecture": "埼玉県",
    "prefecture_kana": "サイタマケン",
    "prefecture_code": 11,
    "city": "北本市",
    "city_kana": "キタモトシ",
    "town": "西高尾",
    "town_kana": "ニシタカオ",
    "street": null,
    "office_name": null,
    "office_name_kana": null
  },
  "8501": {
    "postcode": "3648501",
    "prefecture": "埼玉県",
    "prefecture_kana": "サイタマケン",
    "prefecture_code": 11,
    "city": "北本市",
    "city_kana": "キタモトシ",
    "town": "荒井",
    "town_kana": "アライ",
    "street": "６丁目１００",
    "office_name": "北里研究所　メディカルセンター病院",
    "office_name_kana": "キタザトケンキユウジヨ メデイカルセンタ-ビヨウイン"
  },
  "8511": {
    "postcode": "3648511",
    "prefecture": "埼玉県",
    "prefecture_kana": "サイタマケン",
    "prefecture_code": 11,
    "city": "北本市",
    "city_kana": "キタモトシ",
    "town": "朝日",
    "town_kana": "アサヒ",
    "street": "４丁目４１０",
    "office_name": "富士重工業　株式会社　埼玉製作所",
    "office_name_kana": "フジジユウコウギヨウ カブシキガイシヤ サイタマセイサクジヨ"
  },
  "8555": {
    "postcode": "3648555",
    "prefecture": "埼玉県",
    "prefecture_kana": "サイタマケン",
    "prefecture_code": 11,
    "city": "北本市",
    "city_kana": "キタモトシ",
    "town": "宮内",
    "town_kana": "ミヤウチ",
    "street": "６丁目１",
    "office_name": "コマツ埼玉　株式会社",
    "office_name_kana": "コマツサイタマ カブシキガイシヤ"
  },
  "8585": {
    "postcode": "3648585",
    "prefecture": "埼玉県",
    "prefecture_kana": "サイタマケン",
    "prefecture_code": 11,
    "city": "北本市",
    "city_kana": "キタモトシ",
    "town": "朝日",
    "town_kana": "アサヒ",
    "street": "１丁目２４３",
    "office_name": "株式会社　エーアンド・デイ",
    "office_name_kana": "カブシキガイシヤ エ-アンド・デイ"
  },
  "8633": {
    "postcode": "3648633",
    "prefecture": "埼玉県",
    "prefecture_kana": "サイタマケン",
    "prefecture_code": 11,
    "city": "北本市",
    "city_kana": "キタモトシ",
    "town": "本町",
    "town_kana": "ホンチョウ",
    "street": "１丁目１１１（北本郵便局私書箱第１号）",
    "office_name": "北本市役所",
    "office_name_kana": "キタモトシヤクシヨ"
  }
}