{
  "0000": {
    "postcode": "3650000",
    "prefecture": "埼玉県",
    "prefecture_kana": "サイタマケン",
    "prefecture_code": 11,
    "city": "鴻巣市",
    "city_kana": "コウノスシ",
    "town": "",
    "town_kana": "",
    "street": null,
    "office_name": null,
    "office_name_kana": null
  },
  "0001": {
    "postcode": "3650001",
    "prefecture": "埼玉県",
    "prefecture_kana": "サイタマケン",
    "prefecture_code": 11,
    "city": "鴻巣市",
    "city_kana": "コウノスシ",
    "town": "赤城台",
    "town_kana": "アカギダイ",
    "street": null,
    "office_name": null,
    "office_name_kana": null
  },
  "0002": {
    "postcode": "3650002",
    "prefecture": "埼玉県",
    "prefecture_kana": "サイタマケン",
    "prefecture_code": 11,
    "city": "鴻巣市",
    "city_kana": "コウノスシ",
    "town": "赤城",
    "town_kana": "アカギ",
    "street": null,
    "office_name": null,
    "office_name_kana": null
  },
  "0003": {
    "postcode": "3650003",
    "prefecture": "埼玉県",
    "prefecture_kana": "サイタマケン",
    "prefecture_code": 11,
    "city": "鴻巣市",
    "city_kana": "コウノスシ",
    "town": "北根",
    "town_kana": "キタネ",
    "street": null,
    "office_name": null,
    "office_name_kana": null
  },
  "0004": {
    "postcode": "3650004",
    "prefecture": "埼玉県",
    "prefecture_kana": "サイタマケン",
    "prefecture_code": 11,
    "city": "鴻巣市",
    "city_kana": "コウノスシ",
    "town": "関新田",
    "town_kana": "セキシンデン",
    "street": null,
    "office_name": null,
    "office_name_kana": null
  },
  "0005": {
    "postcode": "3650005",
    "prefecture": "埼玉県",
    "prefecture_kana": "サイタマケン",
    "prefecture_code": 11,
    "city": "鴻巣市",
    "city_kana": "コウノスシ",
    "town": "広田",
    "town_kana": "ヒロダ",
    "street": null,
    "office_name": null,
    "office_name_kana": null
  },
  "0011": {
    "postcode": "3650011",
    "prefecture": "埼玉県",
    "prefecture_kana": "サイタマケン",
    "prefecture_code": 11,
    "city": "鴻巣市",
    "city_kana": "コウノスシ",
    "town": "新井",
    "town_kana": "アライ",
    "street": null,
    "office_name": null,
    "office_name_kana": null
  },
  "0012": {
    "postcode": "3650012",
    "prefecture": "埼玉県",
    "prefecture_kana": "サイタマケン",
    "prefecture_code": 11,
    "city": "鴻巣市",
    "city_kana": "コウノスシ",
    "town": "上会下",
    "town_kana": "カミエゲ",
    "street": null,
    "office_name": null,
    "office_name_kana": null
  },
  "0013": {
    "postcode": "3650013",
    "prefecture": "埼玉県",
    "prefecture_kana": "サイタマケン",
    "prefecture_code": 11,
    "city": "鴻巣市",
    "city_kana": "コウノスシ",
    "town": "境",
    "town_kana": "サカイ",
    "street": null,
    "office_name": null,
    "office_name_kana": null
  },
  "0014": {
    "postcode": "3650014",
    "prefecture": "埼玉県",
    "prefecture_kana": "サイタマケン",
    "prefecture_code": 11,
    "city": "鴻巣市",
    "city_kana": "コウノスシ",
    "town": "屈巣",
    "town_kana": "クス",
    "street": null,
    "office_name": null,
    "office_name_kana": null
  },
  "0021": {
    "postcode": "3650021",
    "prefecture": "埼玉県",
    "prefecture_kana": "サイタマケン",
    "prefecture_code": 11,
    "city": "鴻巣市",
    "city_kana": "コウノスシ",
    "town": "安養寺",
    "town_kana": "アンヨウジ",
    "street": null,
    "office_name": null,
    "office_name_kana": null
  },
  "0022": {
    "postcode": "3650022",
    "prefecture": "埼玉県",
    "prefecture_kana": "サイタマケン",
    "prefecture_code": 11,
    "city": "鴻巣市",
    "city_kana": "コウノスシ",
    "town": "郷地",
    "town_kana": "ゴウジ",
    "street": null,
    "office_name": null,
    "office_name_kana": null
  },
  "0023": {
    "postcode": "3650023",
    "prefecture": "埼玉県",
    "prefecture_kana": "サイタマケン",
    "prefecture_code": 11,
    "city": "鴻巣市",
    "city_kana": "コウノスシ",
    "town": "笠原",
    "town_kana": "カサハラ",
    "street": null,
    "office_name": null,
    "office_name_kana": null
  },
  "0024": {
    "postcode": "3650024",
    "prefecture": "埼玉県",
    "prefecture_kana": "サイタマケン",
    "prefecture_code": 11,
    "city": "鴻巣市",
    "city_kana": "コウノスシ",
    "town": "常光",
    "town_kana": "ジョウコウ",
    "street": null,
    "office_name": null,
    "office_name_kana": null
  },
  "0025": {
    "postcode": "3650025",
    "prefecture": "埼玉県",
    "prefecture_kana": "サイタマケン",
    "prefecture_code": 11,
    "city": "鴻巣市",
    "city_kana": "コウノスシ",
    "town": "下谷",
    "town_kana": "シモヤ",
    "street": null,
    "office_name": null,
    "office_name_kana": null
  },
  "0026": {
    "postcode": "3650026",
    "prefecture": "埼玉県",
    "prefecture_kana": "サイタマケン",
    "prefecture_code": 11,
    "city": "鴻巣市",
    "city_kana": "コウノスシ",
    "town": "西中曽根",
    "town_kana": "ニシナカゾネ",
    "street": null,
    "office_name": null,
    "office_name_kana": null
  },
  "0027": {
    "postcode": "3650027",
    "prefecture": "埼玉県",
    "prefecture_kana": "サイタマケン",
    "prefecture_code": 11,
    "city": "鴻巣市",
    "city_kana": "コウノスシ",
    "town": "上谷",
    "town_kana": "カミヤ",
    "street": null,
    "office_name": null,
    "office_name_kana": null
  },
  "0028": {
    "postcode": "3650028",
    "prefecture": "埼玉県",
    "prefecture_kana": "サイタマケン",
    "prefecture_code": 11,
    "city": "鴻巣市",
    "city_kana": "コウノスシ",
    "town": "鴻巣",
    "town_kana": "コウノス",
    "street": null,
    "office_name": null,
    "office_name_kana": null
  },
  "0031": {
    "postcode": "3650031",
    "prefecture": "埼玉県",
    "prefecture_kana": "サイタマケン",
    "prefecture_code": 11,
    "city": "鴻巣市",
    "city_kana": "コウノスシ",
    "town": "ひばり野",
    "town_kana": "ヒバリノ",
    "street": null,
    "office_name": null,
    "office_name_kana": null
  },
  "0032": {
    "postcode": "3650032",
    "prefecture": "埼玉県",
    "prefecture_kana": "サイタマケン",
    "prefecture_code": 11,
    "city": "鴻巣市",
    "city_kana": "コウノスシ",
    "town": "中央",
    "town_kana": "チュウオウ",
    "street": null,
    "office_name": null,
    "office_name_kana": null
  },
  "0033": {
    "postcode": "3650033",
    "prefecture": "埼玉県",
    "prefecture_kana": "サイタマケン",
    "prefecture_code": 11,
    "city": "鴻巣市",
    "city_kana": "コウノスシ",
    "town": "生出塚",
    "town_kana": "オイネヅカ",
    "street": null,
    "office_name": null,
    "office_name_kana": null
  },
  "0034": {
    "postcode": "3650034",
    "prefecture": "埼玉県",
    "prefecture_kana": "サイタマケン",
    "prefecture_code": 11,
    "city": "鴻巣市",
    "city_kana": "コウノスシ",
    "town": "上生出塚",
    "town_kana": "カミオイネヅカ",
    "street": null,
    "office_name": null,
    "office_name_kana": null
  },
  "0035": {
    "postcode": "3650035",
    "prefecture": "埼玉県",
    "prefecture_kana": "サイタマケン",
    "prefecture_code": 11,
    "city": "鴻巣市",
    "city_kana": "コウノスシ",
    "town": "下生出塚",
    "town_kana": "シモオイネヅカ",
    "street": null,
    "office_name": null,
    "office_name_kana": null
  },
  "0036": {
    "postcode": "3650036",
    "prefecture": "埼玉県",
    "prefecture_kana": "サイタマケン",
    "prefecture_code": 11,
    "city": "鴻巣市",
    "city_kana": "コウノスシ",
    "town": "天神",
    "town_kana": "テンジン",
    "street": null,
    "office_name": null,
    "office_name_kana": null
  },
  "0037": {
    "postcode": "3650037",
    "prefecture": "埼玉県",
    "prefecture_kana": "サイタマケン",
    "prefecture_code": 11,
    "city": "鴻巣市",
    "city_kana": "コウノスシ",
    "town": "人形",
    "town_kana": "ニンギョウ",
    "street": null,
    "office_name": null,
    "office_name_kana": null
  },
  "0038": {
    "postcode": "3650038",
    "prefecture": "埼玉県",
    "prefecture_kana": "サイタマケン",
    "prefecture_code": 11,
    "city": "鴻巣市",
    "city_kana": "コウノスシ",
    "town": "本町",
    "town_kana": "ホンチョウ",
    "street": null,
    "office_name": null,
    "office_name_kana": null
  },
  "0039": {
    "postcode": "3650039",
    "prefecture": "埼玉県",
    "prefecture_kana": "サイタマケン",
    "prefecture_code": 11,
    "city": "鴻巣市",
    "city_kana": "コウノスシ",
    "town": "東",
    "town_kana": "ヒガシ",
    "street": null,
    "office_name": null,
    "office_name_kana": null
  },
  "0041": {
    "postcode": "3650041",
    "prefecture": "埼玉県",
    "prefecture_kana": "サイタマケン",
    "prefecture_code": 11,
    "city": "鴻巣市",
    "city_kana": "コウノスシ",
    "town": "小松",
    "town_kana": "コマツ",
    "street": null,
    "office_name": null,
    "office_name_kana": null
  },
  "0042": {
    "postcode": "3650042",
    "prefecture": "埼玉県",
    "prefecture_kana": "サイタマケン",
    "prefecture_code": 11,
    "city": "鴻巣市",
    "city_kana": "コウノスシ",
    "town": "松原",
    "town_kana": "マツバラ",
    "street": null,
    "office_name": null,
    "office_name_kana": null
  },
  "0043": {
    "postcode": "3650043",
    "prefecture": "埼玉県",
    "prefecture_kana": "サイタマケン",
    "prefecture_code": 11,
    "city": "鴻巣市",
    "city_kana": "コウノスシ",
    "town": "原馬室",
    "town_kana": "ハラマムロ",
    "street": null,
    "office_name": null,
    "office_name_kana": null
  },
  "0044": {
    "postcode": "3650044",
    "prefecture": "埼玉県",
    "prefecture_kana": "サイタマケン",
    "prefecture_code": 11,
    "city": "鴻巣市",
    "city_kana": "コウノスシ",
    "town": "滝馬室",
    "town_kana": "タキマムロ",
    "street": null,
    "office_name": null,
    "office_name_kana": null
  },
  "0045": {
    "postcode": "3650045",
    "prefecture": "埼玉県",
    "prefecture_kana": "サイタマケン",
    "prefecture_code": 11,
    "city": "鴻巣市",
    "city_kana": "コウノスシ",
    "town": "氷川町",
    "town_kana": "ヒカワチョウ",
    "street": null,
    "office_name": null,
    "office_name_kana": null
  },
  "0046": {
    "postcode": "3650046",
    "prefecture": "埼玉県",
    "prefecture_kana": "サイタマケン",
    "prefecture_code": 11,
    "city": "鴻巣市",
    "city_kana": "コウノスシ",
    "town": "富士見町",
    "town_kana": "フジミチョウ",
    "street": null,
    "office_name": null,
    "office_name_kana": null
  },
  "0047": {
    "postcode": "3650047",
    "prefecture": "埼玉県",
    "prefecture_kana": "サイタマケン",
    "prefecture_code": 11,
    "city": "鴻巣市",
    "city_kana": "コウノスシ",
    "town": "逆川",
    "town_kana": "サカサガワ",
    "street": null,
    "office_name": null,
    "office_name_kana": null
  },
  "0051": {
    "postcode": "3650051",
    "prefecture": "埼玉県",
    "prefecture_kana": "サイタマケン",
    "prefecture_code": 11,
    "city": "鴻巣市",
    "city_kana": "コウノスシ",
    "town": "宮前",
    "town_kana": "ミヤマエ",
    "street": null,
    "office_name": null,
    "office_name_kana": null
  },
  "0052": {
    "postcode": "3650052",
    "prefecture": "埼玉県",
    "prefecture_kana": "サイタマケン",
    "prefecture_code": 11,
    "city": "鴻巣市",
    "city_kana": "コウノスシ",
    "town": "登戸",
    "town_kana": "ノボリト",
    "street": null,
    "office_name": null,
    "office_name_kana": null
  },
  "0053": {
    "postcode": "3650053",
    "prefecture": "埼玉県",
    "prefecture_kana": "サイタマケン",
    "prefecture_code": 11,
    "city": "鴻巣市",
    "city_kana": "コウノスシ",
    "town": "緑町",
    "town_kana": "ミドリチョウ",
    "street": null,
    "office_name": null,
    "office_name_kana": null
  },
  "0054": {
    "postcode": "3650054",
    "prefecture": "埼玉県",
    "prefecture_kana": "サイタマケン",
    "prefecture_code": 11,
    "city": "鴻巣市",
    "city_kana": "コウノスシ",
    "town": "大間",
    "town_kana": "オオマ",
    "street": null,
    "office_name": null,
    "office_name_kana": null
  },
  "0055": {
    "postcode": "3650055",
    "prefecture": "埼玉県",
    "prefecture_kana": "サイタマケン",
    "prefecture_code": 11,
    "city": "鴻巣市",
    "city_kana": "コウノスシ",
    "town": "栄町",
    "town_kana": "サカエチョウ",
    "street": null,
    "office_name": null,
    "office_name_kana": null
  },
  "0056": {
    "postcode": "3650056",
    "prefecture": "埼玉県",
    "prefecture_kana": "サイタマケン",
    "prefecture_code": 11,
    "city": "鴻巣市",
    "city_kana": "コウノスシ",
    "town": "堤町",
    "town_kana": "ツツミチョウ",
    "street": null,
    "office_name": null,
    "office_name_kana": null
  },
  "0057": {
    "postcode": "3650057",
    "prefecture": "埼玉県",
    "prefecture_kana": "サイタマケン",
    "prefecture_code": 11,
    "city": "鴻巣市",
    "city_kana": "コウノスシ",
    "town": "幸町",
    "town_kana": "サイワイチョウ",
    "street": null,
    "office_name": null,
    "office_name_kana": null
  },
  "0058": {
    "postcode": "3650058",
    "prefecture": "埼玉県",
    "prefecture_kana": "サイタマケン",
    "prefecture_code": 11,
    "city": "鴻巣市",
    "city_kana": "コウノスシ",
    "town": "北中野",
    "town_kana": "キタナカノ",
    "street": null,
    "office_name": null,
    "office_name_kana": null
  },
  "0059": {
    "postcode": "3650059",
    "prefecture": "埼玉県",
    "prefecture_kana": "サイタマケン",
    "prefecture_code": 11,
    "city": "鴻巣市",
    "city_kana": "コウノスシ",
    "town": "糠田",
    "town_kana": "ヌカタ",
    "street": null,
    "office_name": null,
    "office_name_kana": null
  },
  "0061": {
    "postcode": "3650061",
    "prefecture": "埼玉県",
    "prefecture_kana": "サイタマケン",
    "prefecture_code": 11,
    "city": "鴻巣市",
    "city_kana": "コウノスシ",
    "town": "川面",
    "town_kana": "カワヅラ",
    "street": null,
    "office_name": null,
    "office_name_kana": null
  },
  "0062": {
    "postcode": "3650062",
    "prefecture": "埼玉県",
    "prefecture_kana": "サイタマケン",
    "prefecture_code": 11,
    "city": "鴻巣市",
    "city_kana": "コウノスシ",
    "town": "箕田",
    "town_kana": "ミダ",
    "street": null,
    "office_name": null,
    "office_name_kana": null
  },
  "0063": {
    "postcode": "3650063",
    "prefecture": "埼玉県",
    "prefecture_kana": "サイタマケン",
    "prefecture_code": 11,
    "city": "鴻巣市",
    "city_kana": "コウノスシ",
    "town": "稲荷町",
    "town_kana": "イナリチョウ",
    "street": null,
    "office_name": null,
    "office_name_kana": null
  },
  "0064": {
    "postcode": "3650064",
    "prefecture": "埼玉県",
    "prefecture_kana": "サイタマケン",
    "prefecture_code": 11,
    "city": "鴻巣市",
    "city_kana": "コウノスシ",
    "town": "赤見台",
    "town_kana": "アカミダイ",
    "street": null,
    "office_name": null,
    "office_name_kana": null
  },
  "0065": {
    "postcode": "3650065",
    "prefecture": "埼玉県",
    "prefecture_kana": "サイタマケン",
    "prefecture_code": 11,
    "city": "鴻巣市",
    "city_kana": "コウノスシ",
    "town": "中井",
    "town_kana": "ナカイ",
    "street": null,
    "office_name": null,
    "office_name_kana": null
  },
  "0066": {
    "postcode": "3650066",
    "prefecture": "埼玉県",
    "prefecture_kana": "サイタマケン",
    "prefecture_code": 11,
    "city": "鴻巣市",
    "city_kana": "コウノスシ",
    "town": "三ツ木",
    "town_kana": "ミツギ",
    "street": null,
    "office_name": null,
    "office_name_kana": null
  },
  "0067": {
    "postcode": "3650067",
    "prefecture": "埼玉県",
    "prefecture_kana": "サイタマケン",
    "prefecture_code": 11,
    "city": "鴻巣市",
    "city_kana": "コウノスシ",
    "town": "すみれ野",
    "town_kana": "スミレノ",
    "street": null,
    "office_name": null,
    "office_name_kana": null
  },
  "0068": {
    "postcode": "3650068",
    "prefecture": "埼玉県",
    "prefecture_kana": "サイタマケン",
    "prefecture_code": 11,
    "city": "鴻巣市",
    "city_kana": "コウノスシ",
    "town": "愛の町",
    "town_kana": "アイノマチ",
    "street": null,
    "office_name": null,
    "office_name_kana": null
  },
  "0071": {
    "postcode": "3650071",
    "prefecture": "埼玉県",
    "prefecture_kana": "サイタマケン",
    "prefecture_code": 11,
    "city": "鴻巣市",
    "city_kana": "コウノスシ",
    "town": "寺谷",
    "town_kana": "テラヤ",
    "street": null,
    "office_name": null,
    "office_name_kana": null
  },
  "0072": {
    "postcode": "3650072",
    "prefecture": "埼玉県",
    "prefecture_kana": "サイタマケン",
    "prefecture_code": 11,
    "city": "鴻巣市",
    "city_kana": "コウノスシ",
    "town": "市ノ縄",
    "town_kana": "イチノナワ",
    "street": null,
    "office_name": null,
    "office_name_kana": null
  },
  "0073": {
    "postcode": "3650073",
    "prefecture": "埼玉県",
    "prefecture_kana": "サイタマケン",
    "prefecture_code": 11,
    "city": "鴻巣市",
    "city_kana": "コウノスシ",
    "town": "八幡田",
    "town_kana": "ハチマンデン",
    "street": null,
    "office_name": null,
    "office_name_kana": null
  },
  "0074": {
    "postcode": "3650074",
    "prefecture": "埼玉県",
    "prefecture_kana": "サイタマケン",
    "prefecture_code": 11,
    "city": "鴻巣市",
    "city_kana": "コウノスシ",
    "town": "神明",
    "town_kana": "シンメイ",
    "street": null,
    "office_name": null,
    "office_name_kana": null
  },
  "0075": {
    "postcode": "3650075",
    "prefecture": "埼玉県",
    "prefecture_kana": "サイタマケン",
    "prefecture_code": 11,
    "city": "鴻巣市",
    "city_kana": "コウノスシ",
    "town": "宮地",
    "town_kana": "ミヤジ",
    "street": null,
    "office_name": null,
    "office_name_kana": null
  },
  "0076": {
    "postcode": "3650076",
    "prefecture": "埼玉県",
    "prefecture_kana": "サイタマケン",
    "prefecture_code": 11,
    "city": "鴻巣市",
    "city_kana": "コウノスシ",
    "town": "本宮町",
    "town_kana": "ホンミヤチョウ",
    "street": null,
    "office_name": null,
    "office_name_kana": null
  },
  "0077": {
    "postcode": "3650077",
    "prefecture": "埼玉県",
    "prefecture_kana": "サイタマケン",
    "prefecture_code": 11,
    "city": "鴻巣市",
    "city_kana": "コウノスシ",
    "town": "雷電",
    "town_kana": "ライデン",
    "street": null,
    "office_name": null,
    "office_name_kana": null
  },
  "0078": {
    "postcode": "3650078",
    "prefecture": "埼玉県",
    "prefecture_kana": "サイタマケン",
    "prefecture_code": 11,
    "city": "鴻巣市",
    "city_kana": "コウノスシ",
    "town": "加美",
    "town_kana": "カミ",
    "street": null,
    "office_name": null,
    "office_name_kana": null
  },
  "8501": {
    "postcode": "3658501",
    "prefecture": "埼玉県",
    "prefecture_kana": "サイタマケン",
    "prefecture_code": 11,
    "city": "鴻巣市",
    "city_kana": "コウノスシ",
    "town": "大字鴻巣",
    "town_kana": null,
    "street": "４０５−４",
    "office_name": "運転免許センター",
    "office_name_kana": "ウンテンメンキヨセンタ-"
  },
  "8502": {
    "postcode": "3658502",
    "prefecture": "埼玉県",
    "prefecture_kana": "サイタマケン",
    "prefecture_code": 11,
    "city": "鴻巣市",
    "city_kana": "コウノスシ",
    "town": "広田",
    "town_kana": "ヒロダ",
    "street": "３１４１−１",
    "office_name": "鴻巣市　川里支所",
    "office_name_kana": "コウノスシ カワサトシシヨ"
  },
  "8503": {
    "postcode": "3658503",
    "prefecture": "埼玉県",
    "prefecture_kana": "サイタマケン",
    "prefecture_code": 11,
    "city": "鴻巣市",
    "city_kana": "コウノスシ",
    "town": "逆川",
    "town_kana": "サカサガワ",
    "street": "１丁目１−２９",
    "office_name": "（株）　イングコーポレーション",
    "office_name_kana": "(カブ) イングコ-ポレ-シヨン"
  },
  "8505": {
    "postcode": "3658505",
    "prefecture": "埼玉県",
    "prefecture_kana": "サイタマケン",
    "prefecture_code": 11,
    "city": "鴻巣市",
    "city_kana": "コウノスシ",
    "town": "箕田",
    "town_kana": "ミダ",
    "street": "３４４０",
    "office_name": "イセデリカ　株式会社　鴻巣工場",
    "office_name_kana": "イセデリカ カブシキガイシヤ コウノスコウジヨウ"
  },
  "8506": {
    "postcode": "3658506",
    "prefecture": "埼玉県",
    "prefecture_kana": "サイタマケン",
    "prefecture_code": 11,
    "city": "鴻巣市",
    "city_kana": "コウノスシ",
    "town": "箕田",
    "town_kana": "ミダ",
    "street": "３２３０",
    "office_name": "野崎印刷紙業　株式会社　関東工場",
    "office_name_kana": "ノザキインサツシギヨウ カブシキガイシヤ カントウコウジヨウ"
  },
  "8508": {
    "postcode": "3658508",
    "prefecture": "埼玉県",
    "prefecture_kana": "サイタマケン",
    "prefecture_code": 11,
    "city": "鴻巣市",
    "city_kana": "コウノスシ",
    "town": "箕田",
    "town_kana": "ミダ",
    "street": "４０７０",
    "office_name": "アサヒ紙工　株式会社",
    "office_name_kana": "アサヒシコウ カブシキガイシヤ"
  },
  "8512": {
    "postcode": "3658512",
    "prefecture": "埼玉県",
    "prefecture_kana": "サイタマケン",
    "prefecture_code": 11,
    "city": "鴻巣市",
    "city_kana": "コウノスシ",
    "town": "大字八幡田",
    "town_kana": null,
    "street": "８４９",
    "office_name": "済生会鴻巣病院",
    "office_name_kana": "サイセイカイコウノスビヨウイン"
  },
  "8514": {
    "postcode": "3658514",
    "prefecture": "埼玉県",
    "prefecture_kana": "サイタマケン",
    "prefecture_code": 11,
    "city": "鴻巣市",
    "city_kana": "コウノスシ",
    "town": "人形",
    "town_kana": "ニンギョウ",
    "street": "１丁目６−１８",
    "office_name": "（株）　広田屋",
    "office_name_kana": "(カブ) ヒロタヤ"
  },
  "8585": {
    "postcode": "3658585",
    "prefecture": "埼玉県",
    "prefecture_kana": "サイタマケン",
    "prefecture_code": 11,
    "city": "鴻巣市",
    "city_kana": "コウノスシ",
    "town": "天神",
    "town_kana": "テンジン",
    "street": "３−６７３",
    "office_name": "株式会社　保健科学　東日本",
    "office_name_kana": "カブシキガイシヤ ホケンカガク ヒガシニホン"
  },
  "8601": {
    "postcode": "3658601",
    "prefecture": "埼玉県",
    "prefecture_kana": "サイタマケン",
    "prefecture_code": 11,
    "city": "鴻巣市",
    "city_kana": "コウノスシ",
    "town": "中央",
    "town_kana": "チュウオウ",
    "street": "１−１",
    "office_name": "鴻巣市役所",
    "office_name_kana": "コウノスシヤクシヨ"
  },
  "8603": {
    "postcode": "3658603",
    "prefecture": "埼玉県",
    "prefecture_kana": "サイタマケン",
    "prefecture_code": 11,
    "city": "鴻巣市",
    "city_kana": "コウノスシ",
    "town": "宮地",
    "town_kana": "ミヤジ",
    "street": "３丁目５−１（鴻巣郵便局私書箱第１号）",
    "office_name": "中央化学　株式会社",
    "office_name_kana": "チユウオウカガク カブシキガイシヤ"
  }
}