{
  "0000": {
    "postcode": "3750000",
    "prefecture": "群馬県",
    "prefecture_kana": "グンマケン",
    "prefecture_code": 10,
    "city": "藤岡市",
    "city_kana": "フジオカシ",
    "town": "",
    "town_kana": "",
    "street": null,
    "office_name": null,
    "office_name_kana": null
  },
  "0001": {
    "postcode": "3750001",
    "prefecture": "群馬県",
    "prefecture_kana": "グンマケン",
    "prefecture_code": 10,
    "city": "藤岡市",
    "city_kana": "フジオカシ",
    "town": "中島",
    "town_kana": "ナカジマ",
    "street": null,
    "office_name": null,
    "office_name_kana": null
  },
  "0002": {
    "postcode": "3750002",
    "prefecture": "群馬県",
    "prefecture_kana": "グンマケン",
    "prefecture_code": 10,
    "city": "藤岡市",
    "city_kana": "フジオカシ",
    "town": "立石",
    "town_kana": "タツイシ",
    "street": null,
    "office_name": null,
    "office_name_kana": null
  },
  "0003": {
    "postcode": "3750003",
    "prefecture": "群馬県",
    "prefecture_kana": "グンマケン",
    "prefecture_code": 10,
    "city": "藤岡市",
    "city_kana": "フジオカシ",
    "town": "立石新田",
    "town_kana": "タツイシシンデン",
    "street": null,
    "office_name": null,
    "office_name_kana": null
  },
  "0004": {
    "postcode": "3750004",
    "prefecture": "群馬県",
    "prefecture_kana": "グンマケン",
    "prefecture_code": 10,
    "city": "藤岡市",
    "city_kana": "フジオカシ",
    "town": "森",
    "town_kana": "モリ",
    "street": null,
    "office_name": null,
    "office_name_kana": null
  },
  "0005": {
    "postcode": "3750005",
    "prefecture": "群馬県",
    "prefecture_kana": "グンマケン",
    "prefecture_code": 10,
    "city": "藤岡市",
    "city_kana": "フジオカシ",
    "town": "中",
    "town_kana": "ナカ",
    "street": null,
    "office_name": null,
    "office_name_kana": null
  },
  "0006": {
    "postcode": "3750006",
    "prefecture": "群馬県",
    "prefecture_kana": "グンマケン",
    "prefecture_code": 10,
    "city": "藤岡市",
    "city_kana": "フジオカシ",
    "town": "森新田",
    "town_kana": "モリシンデン",
    "street": null,
    "office_name": null,
    "office_name_kana": null
  },
  "0011": {
    "postcode": "3750011",
    "prefecture": "群馬県",
    "prefecture_kana": "グンマケン",
    "prefecture_code": 10,
    "city": "藤岡市",
    "city_kana": "フジオカシ",
    "town": "岡之郷",
    "town_kana": "オカノゴウ",
    "street": null,
    "office_name": null,
    "office_name_kana": null
  },
  "0012": {
    "postcode": "3750012",
    "prefecture": "群馬県",
    "prefecture_kana": "グンマケン",
    "prefecture_code": 10,
    "city": "藤岡市",
    "city_kana": "フジオカシ",
    "town": "下戸塚",
    "town_kana": "シモトヅカ",
    "street": null,
    "office_name": null,
    "office_name_kana": null
  },
  "0013": {
    "postcode": "3750013",
    "prefecture": "群馬県",
    "prefecture_kana": "グンマケン",
    "prefecture_code": 10,
    "city": "藤岡市",
    "city_kana": "フジオカシ",
    "town": "上戸塚",
    "town_kana": "カミトヅカ",
    "street": null,
    "office_name": null,
    "office_name_kana": null
  },
  "0014": {
    "postcode": "3750014",
    "prefecture": "群馬県",
    "prefecture_kana": "グンマケン",
    "prefecture_code": 10,
    "city": "藤岡市",
    "city_kana": "フジオカシ",
    "town": "下栗須",
    "town_kana": "シモクリス",
    "street": null,
    "office_name": null,
    "office_name_kana": null
  },
  "0015": {
    "postcode": "3750015",
    "prefecture": "群馬県",
    "prefecture_kana": "グンマケン",
    "prefecture_code": 10,
    "city": "藤岡市",
    "city_kana": "フジオカシ",
    "town": "中栗須",
    "town_kana": "ナカクリス",
    "street": null,
    "office_name": null,
    "office_name_kana": null
  },
  "0016": {
    "postcode": "3750016",
    "prefecture": "群馬県",
    "prefecture_kana": "グンマケン",
    "prefecture_code": 10,
    "city": "藤岡市",
    "city_kana": "フジオカシ",
    "town": "上栗須",
    "town_kana": "カミクリス",
    "street": null,
    "office_name": null,
    "office_name_kana": null
  },
  "0017": {
    "postcode": "3750017",
    "prefecture": "群馬県",
    "prefecture_kana": "グンマケン",
    "prefecture_code": 10,
    "city": "藤岡市",
    "city_kana": "フジオカシ",
    "town": "篠塚",
    "town_kana": "シノヅカ",
    "street": null,
    "office_name": null,
    "office_name_kana": null
  },
  "0021": {
    "postcode": "3750021",
    "prefecture": "群馬県",
    "prefecture_kana": "グンマケン",
    "prefecture_code": 10,
    "city": "藤岡市",
    "city_kana": "フジオカシ",
    "town": "小林",
    "town_kana": "コバヤシ",
    "street": null,
    "office_name": null,
    "office_name_kana": null
  },
  "0022": {
    "postcode": "3750022",
    "prefecture": "群馬県",
    "prefecture_kana": "グンマケン",
    "prefecture_code": 10,
    "city": "藤岡市",
    "city_kana": "フジオカシ",
    "town": "根岸",
    "town_kana": "ネギシ",
    "street": null,
    "office_name": null,
    "office_name_kana": null
  },
  "0023": {
    "postcode": "3750023",
    "prefecture": "群馬県",
    "prefecture_kana": "グンマケン",
    "prefecture_code": 10,
    "city": "藤岡市",
    "city_kana": "フジオカシ",
    "town": "本郷",
    "town_kana": "ホンゴウ",
    "street": null,
    "office_name": null,
    "office_name_kana": null
  },
  "0024": {
    "postcode": "3750024",
    "prefecture": "群馬県",
    "prefecture_kana": "グンマケン",
    "prefecture_code": 10,
    "city": "藤岡市",
    "city_kana": "フジオカシ",
    "town": "藤岡",
    "town_kana": "フジオカ",
    "street": null,
    "office_name": null,
    "office_name_kana": null
  },
  "0031": {
    "postcode": "3750031",
    "prefecture": "群馬県",
    "prefecture_kana": "グンマケン",
    "prefecture_code": 10,
    "city": "藤岡市",
    "city_kana": "フジオカシ",
    "town": "矢場",
    "town_kana": "ヤバ",
    "street": null,
    "office_name": null,
    "office_name_kana": null
  },
  "0032": {
    "postcode": "3750032",
    "prefecture": "群馬県",
    "prefecture_kana": "グンマケン",
    "prefecture_code": 10,
    "city": "藤岡市",
    "city_kana": "フジオカシ",
    "town": "神田",
    "town_kana": "ジンダ",
    "street": null,
    "office_name": null,
    "office_name_kana": null
  },
  "0033": {
    "postcode": "3750033",
    "prefecture": "群馬県",
    "prefecture_kana": "グンマケン",
    "prefecture_code": 10,
    "city": "藤岡市",
    "city_kana": "フジオカシ",
    "town": "川除",
    "town_kana": "カワヨケ",
    "street": null,
    "office_name": null,
    "office_name_kana": null
  },
  "0034": {
    "postcode": "3750034",
    "prefecture": "群馬県",
    "prefecture_kana": "グンマケン",
    "prefecture_code": 10,
    "city": "藤岡市",
    "city_kana": "フジオカシ",
    "town": "牛田",
    "town_kana": "ウシタ",
    "street": null,
    "office_name": null,
    "office_name_kana": null
  },
  "0035": {
    "postcode": "3750035",
    "prefecture": "群馬県",
    "prefecture_kana": "グンマケン",
    "prefecture_code": 10,
    "city": "藤岡市",
    "city_kana": "フジオカシ",
    "town": "保美",
    "town_kana": "ホミ",
    "street": null,
    "office_name": null,
    "office_name_kana": null
  },
  "0036": {
    "postcode": "3750036",
    "prefecture": "群馬県",
    "prefecture_kana": "グンマケン",
    "prefecture_code": 10,
    "city": "藤岡市",
    "city_kana": "フジオカシ",
    "town": "高山",
    "town_kana": "タカヤマ",
    "street": null,
    "office_name": null,
    "office_name_kana": null
  },
  "0037": {
    "postcode": "3750037",
    "prefecture": "群馬県",
    "prefecture_kana": "グンマケン",
    "prefecture_code": 10,
    "city": "藤岡市",
    "city_kana": "フジオカシ",
    "town": "三本木",
    "town_kana": "サンボギ",
    "street": null,
    "office_name": null,
    "office_name_kana": null
  },
  "0041": {
    "postcode": "3750041",
    "prefecture": "群馬県",
    "prefecture_kana": "グンマケン",
    "prefecture_code": 10,
    "city": "藤岡市",
    "city_kana": "フジオカシ",
    "town": "緑埜",
    "town_kana": "ミドノ",
    "street": null,
    "office_name": null,
    "office_name_kana": null
  },
  "0042": {
    "postcode": "3750042",
    "prefecture": "群馬県",
    "prefecture_kana": "グンマケン",
    "prefecture_code": 10,
    "city": "藤岡市",
    "city_kana": "フジオカシ",
    "town": "鮎川",
    "town_kana": "アユガワ",
    "street": null,
    "office_name": null,
    "office_name_kana": null
  },
  "0043": {
    "postcode": "3750043",
    "prefecture": "群馬県",
    "prefecture_kana": "グンマケン",
    "prefecture_code": 10,
    "city": "藤岡市",
    "city_kana": "フジオカシ",
    "town": "東平井",
    "town_kana": "ヒガシヒライ",
    "street": null,
    "office_name": null,
    "office_name_kana": null
  },
  "0044": {
    "postcode": "3750044",
    "prefecture": "群馬県",
    "prefecture_kana": "グンマケン",
    "prefecture_code": 10,
    "city": "藤岡市",
    "city_kana": "フジオカシ",
    "town": "西平井",
    "town_kana": "ニシヒライ",
    "street": null,
    "office_name": null,
    "office_name_kana": null
  },
  "0045": {
    "postcode": "3750045",
    "prefecture": "群馬県",
    "prefecture_kana": "グンマケン",
    "prefecture_code": 10,
    "city": "藤岡市",
    "city_kana": "フジオカシ",
    "town": "金井",
    "town_kana": "カナイ",
    "street": null,
    "office_name": null,
    "office_name_kana": null
  },
  "0046": {
    "postcode": "3750046",
    "prefecture": "群馬県",
    "prefecture_kana": "グンマケン",
    "prefecture_code": 10,
    "city": "藤岡市",
    "city_kana": "フジオカシ",
    "town": "下日野",
    "town_kana": "シモヒノ",
    "street": null,
    "office_name": null,
    "office_name_kana": null
  },
  "0047": {
    "postcode": "3750047",
    "prefecture": "群馬県",
    "prefecture_kana": "グンマケン",
    "prefecture_code": 10,
    "city": "藤岡市",
    "city_kana": "フジオカシ",
    "town": "上日野",
    "town_kana": "カミヒノ",
    "street": null,
    "office_name": null,
    "office_name_kana": null
  },
  "0051": {
    "postcode": "3750051",
    "prefecture": "群馬県",
    "prefecture_kana": "グンマケン",
    "prefecture_code": 10,
    "city": "藤岡市",
    "city_kana": "フジオカシ",
    "town": "本動堂",
    "town_kana": "モトユルギドウ",
    "street": null,
    "office_name": null,
    "office_name_kana": null
  },
  "0052": {
    "postcode": "3750052",
    "prefecture": "群馬県",
    "prefecture_kana": "グンマケン",
    "prefecture_code": 10,
    "city": "藤岡市",
    "city_kana": "フジオカシ",
    "town": "下大塚",
    "town_kana": "シモオオヅカ",
    "street": null,
    "office_name": null,
    "office_name_kana": null
  },
  "0053": {
    "postcode": "3750053",
    "prefecture": "群馬県",
    "prefecture_kana": "グンマケン",
    "prefecture_code": 10,
    "city": "藤岡市",
    "city_kana": "フジオカシ",
    "town": "中大塚",
    "town_kana": "ナカオオヅカ",
    "street": null,
    "office_name": null,
    "office_name_kana": null
  },
  "0054": {
    "postcode": "3750054",
    "prefecture": "群馬県",
    "prefecture_kana": "グンマケン",
    "prefecture_code": 10,
    "city": "藤岡市",
    "city_kana": "フジオカシ",
    "town": "上大塚",
    "town_kana": "カミオオヅカ",
    "street": null,
    "office_name": null,
    "office_name_kana": null
  },
  "0055": {
    "postcode": "3750055",
    "prefecture": "群馬県",
    "prefecture_kana": "グンマケン",
    "prefecture_code": 10,
    "city": "藤岡市",
    "city_kana": "フジオカシ",
    "town": "白石",
    "town_kana": "シロイシ",
    "street": null,
    "office_name": null,
    "office_name_kana": null
  },
  "0056": {
    "postcode": "3750056",
    "prefecture": "群馬県",
    "prefecture_kana": "グンマケン",
    "prefecture_code": 10,
    "city": "藤岡市",
    "city_kana": "フジオカシ",
    "town": "三ツ木",
    "town_kana": "ミツギ",
    "street": null,
    "office_name": null,
    "office_name_kana": null
  },
  "0057": {
    "postcode": "3750057",
    "prefecture": "群馬県",
    "prefecture_kana": "グンマケン",
    "prefecture_code": 10,
    "city": "藤岡市",
    "city_kana": "フジオカシ",
    "town": "上落合",
    "town_kana": "カミオチアイ",
    "street": null,
    "office_name": null,
    "office_name_kana": null
  },
  "8501": {
    "postcode": "3758501",
    "prefecture": "群馬県",
    "prefecture_kana": "グンマケン",
    "prefecture_code": 10,
    "city": "藤岡市",
    "city_kana": "フジオカシ",
    "town": "立石",
    "town_kana": "タツイシ",
    "street": "１０９１",
    "office_name": "三菱鉛筆　株式会社　群馬工場",
    "office_name_kana": "ミツビシエンピツ カブシキガイシヤ グンマコウジヨウ"
  },
  "8502": {
    "postcode": "3758502",
    "prefecture": "群馬県",
    "prefecture_kana": "グンマケン",
    "prefecture_code": 10,
    "city": "藤岡市",
    "city_kana": "フジオカシ",
    "town": "中栗須",
    "town_kana": "ナカクリス",
    "street": "５０８",
    "office_name": "ヨシモトポール　株式会社",
    "office_name_kana": "ヨシモトポ-ル カブシキガイシヤ"
  },
  "8503": {
    "postcode": "3758503",
    "prefecture": "群馬県",
    "prefecture_kana": "グンマケン",
    "prefecture_code": 10,
    "city": "藤岡市",
    "city_kana": "フジオカシ",
    "town": "中栗須",
    "town_kana": "ナカクリス",
    "street": "８１３番地１",
    "office_name": "公立　藤岡総合病院",
    "office_name_kana": "コウリツ フジオカソウゴウビヨウイン"
  },
  "8504": {
    "postcode": "3758504",
    "prefecture": "群馬県",
    "prefecture_kana": "グンマケン",
    "prefecture_code": 10,
    "city": "藤岡市",
    "city_kana": "フジオカシ",
    "town": "藤岡",
    "town_kana": "フジオカ",
    "street": "１４８５",
    "office_name": "藤岡高校",
    "office_name_kana": "フジオカコウコウ"
  },
  "8505": {
    "postcode": "3758505",
    "prefecture": "群馬県",
    "prefecture_kana": "グンマケン",
    "prefecture_code": 10,
    "city": "藤岡市",
    "city_kana": "フジオカシ",
    "town": "森",
    "town_kana": "モリ",
    "street": "１",
    "office_name": "株式会社　チノー",
    "office_name_kana": "カブシキガイシヤ チノ-"
  },
  "8506": {
    "postcode": "3758506",
    "prefecture": "群馬県",
    "prefecture_kana": "グンマケン",
    "prefecture_code": 10,
    "city": "藤岡市",
    "city_kana": "フジオカシ",
    "town": "藤岡",
    "town_kana": "フジオカ",
    "street": "８５３−１",
    "office_name": "藤岡商工会議所",
    "office_name_kana": "フジオカシヨウコウカイギシヨ"
  },
  "8507": {
    "postcode": "3758507",
    "prefecture": "群馬県",
    "prefecture_kana": "グンマケン",
    "prefecture_code": 10,
    "city": "藤岡市",
    "city_kana": "フジオカシ",
    "town": "藤岡",
    "town_kana": "フジオカ",
    "street": "１３６０",
    "office_name": "美里工業　株式会社",
    "office_name_kana": "ミサトコウギヨウ カブシキカイシヤ"
  },
  "8601": {
    "postcode": "3758601",
    "prefecture": "群馬県",
    "prefecture_kana": "グンマケン",
    "prefecture_code": 10,
    "city": "藤岡市",
    "city_kana": "フジオカシ",
    "town": "中栗須",
    "town_kana": "ナカクリス",
    "street": "３２７（藤岡郵便局私書箱第９号）",
    "office_name": "藤岡市役所",
    "office_name_kana": "フジオカシヤクシヨ"
  },
  "8602": {
    "postcode": "3758602",
    "prefecture": "群馬県",
    "prefecture_kana": "グンマケン",
    "prefecture_code": 10,
    "city": "藤岡市",
    "city_kana": "フジオカシ",
    "town": "藤岡",
    "town_kana": "フジオカ",
    "street": "６６８−１（藤岡郵便局私書箱第５号）",
    "office_name": "藤岡　税務署",
    "office_name_kana": "フジオカ ゼイムシヨ"
  },
  "8603": {
    "postcode": "3758603",
    "prefecture": "群馬県",
    "prefecture_kana": "グンマケン",
    "prefecture_code": 10,
    "city": "藤岡市",
    "city_kana": "フジオカシ",
    "town": "藤岡",
    "town_kana": "フジオカ",
    "street": "３１４（藤岡郵便局私書箱第１０号）",
    "office_name": "多野信用金庫",
    "office_name_kana": "タノシンヨウキンコ"
  },
  "8604": {
    "postcode": "3758604",
    "prefecture": "群馬県",
    "prefecture_kana": "グンマケン",
    "prefecture_code": 10,
    "city": "藤岡市",
    "city_kana": "フジオカシ",
    "town": "藤岡",
    "town_kana": "フジオカ",
    "street": "３９１（藤岡郵便局私書箱第１号）",
    "office_name": "群馬銀行",
    "office_name_kana": "グンマギンコウ"
  }
}