{
  "0000": {
    "postcode": "3780000",
    "prefecture": "群馬県",
    "prefecture_kana": "グンマケン",
    "prefecture_code": 10,
    "city": "沼田市",
    "city_kana": "ヌマタシ",
    "town": "",
    "town_kana": "",
    "street": null,
    "office_name": null,
    "office_name_kana": null
  },
  "0001": {
    "postcode": "3780001",
    "prefecture": "群馬県",
    "prefecture_kana": "グンマケン",
    "prefecture_code": 10,
    "city": "沼田市",
    "city_kana": "ヌマタシ",
    "town": "戸神町",
    "town_kana": "トカミマチ",
    "street": null,
    "office_name": null,
    "office_name_kana": null
  },
  "0002": {
    "postcode": "3780002",
    "prefecture": "群馬県",
    "prefecture_kana": "グンマケン",
    "prefecture_code": 10,
    "city": "沼田市",
    "city_kana": "ヌマタシ",
    "town": "横塚町",
    "town_kana": "ヨコヅカマチ",
    "street": null,
    "office_name": null,
    "office_name_kana": null
  },
  "0003": {
    "postcode": "3780003",
    "prefecture": "群馬県",
    "prefecture_kana": "グンマケン",
    "prefecture_code": 10,
    "city": "沼田市",
    "city_kana": "ヌマタシ",
    "town": "上久屋町",
    "town_kana": "カミクヤマチ",
    "street": null,
    "office_name": null,
    "office_name_kana": null
  },
  "0004": {
    "postcode": "3780004",
    "prefecture": "群馬県",
    "prefecture_kana": "グンマケン",
    "prefecture_code": 10,
    "city": "沼田市",
    "city_kana": "ヌマタシ",
    "town": "下久屋町",
    "town_kana": "シモクヤマチ",
    "street": null,
    "office_name": null,
    "office_name_kana": null
  },
  "0005": {
    "postcode": "3780005",
    "prefecture": "群馬県",
    "prefecture_kana": "グンマケン",
    "prefecture_code": 10,
    "city": "沼田市",
    "city_kana": "ヌマタシ",
    "town": "久屋原町",
    "town_kana": "クヤハラマチ",
    "street": null,
    "office_name": null,
    "office_name_kana": null
  },
  "0011": {
    "postcode": "3780011",
    "prefecture": "群馬県",
    "prefecture_kana": "グンマケン",
    "prefecture_code": 10,
    "city": "沼田市",
    "city_kana": "ヌマタシ",
    "town": "上沼須町",
    "town_kana": "カミヌマスマチ",
    "street": null,
    "office_name": null,
    "office_name_kana": null
  },
  "0012": {
    "postcode": "3780012",
    "prefecture": "群馬県",
    "prefecture_kana": "グンマケン",
    "prefecture_code": 10,
    "city": "沼田市",
    "city_kana": "ヌマタシ",
    "town": "沼須町",
    "town_kana": "ヌマスマチ",
    "street": null,
    "office_name": null,
    "office_name_kana": null
  },
  "0013": {
    "postcode": "3780013",
    "prefecture": "群馬県",
    "prefecture_kana": "グンマケン",
    "prefecture_code": 10,
    "city": "沼田市",
    "city_kana": "ヌマタシ",
    "town": "新町",
    "town_kana": "シンマチ",
    "street": null,
    "office_name": null,
    "office_name_kana": null
  },
  "0014": {
    "postcode": "3780014",
    "prefecture": "群馬県",
    "prefecture_kana": "グンマケン",
    "prefecture_code": 10,
    "city": "沼田市",
    "city_kana": "ヌマタシ",
    "town": "栄町",
    "town_kana": "サカエマチ",
    "street": null,
    "office_name": null,
    "office_name_kana": null
  },
  "0015": {
    "postcode": "3780015",
    "prefecture": "群馬県",
    "prefecture_kana": "グンマケン",
    "prefecture_code": 10,
    "city": "沼田市",
    "city_kana": "ヌマタシ",
    "town": "戸鹿野町",
    "town_kana": "トガノマチ",
    "street": null,
    "office_name": null,
    "office_name_kana": null
  },
  "0016": {
    "postcode": "3780016",
    "prefecture": "群馬県",
    "prefecture_kana": "グンマケン",
    "prefecture_code": 10,
    "city": "沼田市",
    "city_kana": "ヌマタシ",
    "town": "清水町",
    "town_kana": "シミズチョウ",
    "street": null,
    "office_name": null,
    "office_name_kana": null
  },
  "0017": {
    "postcode": "3780017",
    "prefecture": "群馬県",
    "prefecture_kana": "グンマケン",
    "prefecture_code": 10,
    "city": "沼田市",
    "city_kana": "ヌマタシ",
    "town": "坊新田町",
    "town_kana": "ボウシンデンマチ",
    "street": null,
    "office_name": null,
    "office_name_kana": null
  },
  "0018": {
    "postcode": "3780018",
    "prefecture": "群馬県",
    "prefecture_kana": "グンマケン",
    "prefecture_code": 10,
    "city": "沼田市",
    "city_kana": "ヌマタシ",
    "town": "鍛冶町",
    "town_kana": "カジマチ",
    "street": null,
    "office_name": null,
    "office_name_kana": null
  },
  "0021": {
    "postcode": "3780021",
    "prefecture": "群馬県",
    "prefecture_kana": "グンマケン",
    "prefecture_code": 10,
    "city": "沼田市",
    "city_kana": "ヌマタシ",
    "town": "岩本町",
    "town_kana": "イワモトマチ",
    "street": null,
    "office_name": null,
    "office_name_kana": null
  },
  "0022": {
    "postcode": "3780022",
    "prefecture": "群馬県",
    "prefecture_kana": "グンマケン",
    "prefecture_code": 10,
    "city": "沼田市",
    "city_kana": "ヌマタシ",
    "town": "屋形原町",
    "town_kana": "ヤカタバラマチ",
    "street": null,
    "office_name": null,
    "office_name_kana": null
  },
  "0023": {
    "postcode": "3780023",
    "prefecture": "群馬県",
    "prefecture_kana": "グンマケン",
    "prefecture_code": 10,
    "city": "沼田市",
    "city_kana": "ヌマタシ",
    "town": "篠尾町",
    "town_kana": "ササオマチ",
    "street": null,
    "office_name": null,
    "office_name_kana": null
  },
  "0024": {
    "postcode": "3780024",
    "prefecture": "群馬県",
    "prefecture_kana": "グンマケン",
    "prefecture_code": 10,
    "city": "沼田市",
    "city_kana": "ヌマタシ",
    "town": "下川田町",
    "town_kana": "シモカワダマチ",
    "street": null,
    "office_name": null,
    "office_name_kana": null
  },
  "0025": {
    "postcode": "3780025",
    "prefecture": "群馬県",
    "prefecture_kana": "グンマケン",
    "prefecture_code": 10,
    "city": "沼田市",
    "city_kana": "ヌマタシ",
    "town": "今井町",
    "town_kana": "イマイマチ",
    "street": null,
    "office_name": null,
    "office_name_kana": null
  },
  "0026": {
    "postcode": "3780026",
    "prefecture": "群馬県",
    "prefecture_kana": "グンマケン",
    "prefecture_code": 10,
    "city": "沼田市",
    "city_kana": "ヌマタシ",
    "town": "上川田町",
    "town_kana": "カミカワダマチ",
    "street": null,
    "office_name": null,
    "office_name_kana": null
  },
  "0031": {
    "postcode": "3780031",
    "prefecture": "群馬県",
    "prefecture_kana": "グンマケン",
    "prefecture_code": 10,
    "city": "沼田市",
    "city_kana": "ヌマタシ",
    "town": "薄根町",
    "town_kana": "ウスネマチ",
    "street": null,
    "office_name": null,
    "office_name_kana": null
  },
  "0032": {
    "postcode": "3780032",
    "prefecture": "群馬県",
    "prefecture_kana": "グンマケン",
    "prefecture_code": 10,
    "city": "沼田市",
    "city_kana": "ヌマタシ",
    "town": "硯田町",
    "town_kana": "スズリダマチ",
    "street": null,
    "office_name": null,
    "office_name_kana": null
  },
  "0033": {
    "postcode": "3780033",
    "prefecture": "群馬県",
    "prefecture_kana": "グンマケン",
    "prefecture_code": 10,
    "city": "沼田市",
    "city_kana": "ヌマタシ",
    "town": "白岩町",
    "town_kana": "シライワマチ",
    "street": null,
    "office_name": null,
    "office_name_kana": null
  },
  "0034": {
    "postcode": "3780034",
    "prefecture": "群馬県",
    "prefecture_kana": "グンマケン",
    "prefecture_code": 10,
    "city": "沼田市",
    "city_kana": "ヌマタシ",
    "town": "恩田町",
    "town_kana": "オンダマチ",
    "street": null,
    "office_name": null,
    "office_name_kana": null
  },
  "0035": {
    "postcode": "3780035",
    "prefecture": "群馬県",
    "prefecture_kana": "グンマケン",
    "prefecture_code": 10,
    "city": "沼田市",
    "city_kana": "ヌマタシ",
    "town": "井土上町",
    "town_kana": "イドノウエマチ",
    "street": null,
    "office_name": null,
    "office_name_kana": null
  },
  "0041": {
    "postcode": "3780041",
    "prefecture": "群馬県",
    "prefecture_kana": "グンマケン",
    "prefecture_code": 10,
    "city": "沼田市",
    "city_kana": "ヌマタシ",
    "town": "榛名町",
    "town_kana": "ハルナマチ",
    "street": null,
    "office_name": null,
    "office_name_kana": null
  },
  "0042": {
    "postcode": "3780042",
    "prefecture": "群馬県",
    "prefecture_kana": "グンマケン",
    "prefecture_code": 10,
    "city": "沼田市",
    "city_kana": "ヌマタシ",
    "town": "西倉内町",
    "town_kana": "ニシクラウチマチ",
    "street": null,
    "office_name": null,
    "office_name_kana": null
  },
  "0043": {
    "postcode": "3780043",
    "prefecture": "群馬県",
    "prefecture_kana": "グンマケン",
    "prefecture_code": 10,
    "city": "沼田市",
    "city_kana": "ヌマタシ",
    "town": "東倉内町",
    "town_kana": "ヒガシクラウチマチ",
    "street": null,
    "office_name": null,
    "office_name_kana": null
  },
  "0044": {
    "postcode": "3780044",
    "prefecture": "群馬県",
    "prefecture_kana": "グンマケン",
    "prefecture_code": 10,
    "city": "沼田市",
    "city_kana": "ヌマタシ",
    "town": "下之町",
    "town_kana": "シモノチョウ",
    "street": null,
    "office_name": null,
    "office_name_kana": null
  },
  "0045": {
    "postcode": "3780045",
    "prefecture": "群馬県",
    "prefecture_kana": "グンマケン",
    "prefecture_code": 10,
    "city": "沼田市",
    "city_kana": "ヌマタシ",
    "town": "材木町",
    "town_kana": "ザイモクチョウ",
    "street": null,
    "office_name": null,
    "office_name_kana": null
  },
  "0046": {
    "postcode": "3780046",
    "prefecture": "群馬県",
    "prefecture_kana": "グンマケン",
    "prefecture_code": 10,
    "city": "沼田市",
    "city_kana": "ヌマタシ",
    "town": "馬喰町",
    "town_kana": "バクロウマチ",
    "street": null,
    "office_name": null,
    "office_name_kana": null
  },
  "0047": {
    "postcode": "3780047",
    "prefecture": "群馬県",
    "prefecture_kana": "グンマケン",
    "prefecture_code": 10,
    "city": "沼田市",
    "city_kana": "ヌマタシ",
    "town": "上之町",
    "town_kana": "カミノチョウ",
    "street": null,
    "office_name": null,
    "office_name_kana": null
  },
  "0048": {
    "postcode": "3780048",
    "prefecture": "群馬県",
    "prefecture_kana": "グンマケン",
    "prefecture_code": 10,
    "city": "沼田市",
    "city_kana": "ヌマタシ",
    "town": "中町",
    "town_kana": "ナカマチ",
    "street": null,
    "office_name": null,
    "office_name_kana": null
  },
  "0051": {
    "postcode": "3780051",
    "prefecture": "群馬県",
    "prefecture_kana": "グンマケン",
    "prefecture_code": 10,
    "city": "沼田市",
    "city_kana": "ヌマタシ",
    "town": "上原町",
    "town_kana": "カミハラマチ",
    "street": null,
    "office_name": null,
    "office_name_kana": null
  },
  "0052": {
    "postcode": "3780052",
    "prefecture": "群馬県",
    "prefecture_kana": "グンマケン",
    "prefecture_code": 10,
    "city": "沼田市",
    "city_kana": "ヌマタシ",
    "town": "桜町",
    "town_kana": "サクラマチ",
    "street": null,
    "office_name": null,
    "office_name_kana": null
  },
  "0053": {
    "postcode": "3780053",
    "prefecture": "群馬県",
    "prefecture_kana": "グンマケン",
    "prefecture_code": 10,
    "city": "沼田市",
    "city_kana": "ヌマタシ",
    "town": "東原新町",
    "town_kana": "ヒガシハラシンマチ",
    "street": null,
    "office_name": null,
    "office_name_kana": null
  },
  "0054": {
    "postcode": "3780054",
    "prefecture": "群馬県",
    "prefecture_kana": "グンマケン",
    "prefecture_code": 10,
    "city": "沼田市",
    "city_kana": "ヌマタシ",
    "town": "西原新町",
    "town_kana": "ニシハラシンマチ",
    "street": null,
    "office_name": null,
    "office_name_kana": null
  },
  "0055": {
    "postcode": "3780055",
    "prefecture": "群馬県",
    "prefecture_kana": "グンマケン",
    "prefecture_code": 10,
    "city": "沼田市",
    "city_kana": "ヌマタシ",
    "town": "柳町",
    "town_kana": "ヤナギマチ",
    "street": null,
    "office_name": null,
    "office_name_kana": null
  },
  "0056": {
    "postcode": "3780056",
    "prefecture": "群馬県",
    "prefecture_kana": "グンマケン",
    "prefecture_code": 10,
    "city": "沼田市",
    "city_kana": "ヌマタシ",
    "town": "高橋場町",
    "town_kana": "タカハシバマチ",
    "street": null,
    "office_name": null,
    "office_name_kana": null
  },
  "0061": {
    "postcode": "3780061",
    "prefecture": "群馬県",
    "prefecture_kana": "グンマケン",
    "prefecture_code": 10,
    "city": "沼田市",
    "city_kana": "ヌマタシ",
    "town": "岡谷町",
    "town_kana": "オカヤマチ",
    "street": null,
    "office_name": null,
    "office_name_kana": null
  },
  "0062": {
    "postcode": "3780062",
    "prefecture": "群馬県",
    "prefecture_kana": "グンマケン",
    "prefecture_code": 10,
    "city": "沼田市",
    "city_kana": "ヌマタシ",
    "town": "町田町",
    "town_kana": "マチダマチ",
    "street": null,
    "office_name": null,
    "office_name_kana": null
  },
  "0063": {
    "postcode": "3780063",
    "prefecture": "群馬県",
    "prefecture_kana": "グンマケン",
    "prefecture_code": 10,
    "city": "沼田市",
    "city_kana": "ヌマタシ",
    "town": "下沼田町",
    "town_kana": "シモヌマタマチ",
    "street": null,
    "office_name": null,
    "office_name_kana": null
  },
  "0064": {
    "postcode": "3780064",
    "prefecture": "群馬県",
    "prefecture_kana": "グンマケン",
    "prefecture_code": 10,
    "city": "沼田市",
    "city_kana": "ヌマタシ",
    "town": "善桂寺町",
    "town_kana": "ゼンケイジマチ",
    "street": null,
    "office_name": null,
    "office_name_kana": null
  },
  "0065": {
    "postcode": "3780065",
    "prefecture": "群馬県",
    "prefecture_kana": "グンマケン",
    "prefecture_code": 10,
    "city": "沼田市",
    "city_kana": "ヌマタシ",
    "town": "堀廻町",
    "town_kana": "ホリメグリマチ",
    "street": null,
    "office_name": null,
    "office_name_kana": null
  },
  "0066": {
    "postcode": "3780066",
    "prefecture": "群馬県",
    "prefecture_kana": "グンマケン",
    "prefecture_code": 10,
    "city": "沼田市",
    "city_kana": "ヌマタシ",
    "town": "原町",
    "town_kana": "ハラマチ",
    "street": null,
    "office_name": null,
    "office_name_kana": null
  },
  "0067": {
    "postcode": "3780067",
    "prefecture": "群馬県",
    "prefecture_kana": "グンマケン",
    "prefecture_code": 10,
    "city": "沼田市",
    "city_kana": "ヌマタシ",
    "town": "大釜町",
    "town_kana": "オオガママチ",
    "street": null,
    "office_name": null,
    "office_name_kana": null
  },
  "0068": {
    "postcode": "3780068",
    "prefecture": "群馬県",
    "prefecture_kana": "グンマケン",
    "prefecture_code": 10,
    "city": "沼田市",
    "city_kana": "ヌマタシ",
    "town": "宇楚井町",
    "town_kana": "ウソイマチ",
    "street": null,
    "office_name": null,
    "office_name_kana": null
  },
  "0071": {
    "postcode": "3780071",
    "prefecture": "群馬県",
    "prefecture_kana": "グンマケン",
    "prefecture_code": 10,
    "city": "沼田市",
    "city_kana": "ヌマタシ",
    "town": "上発知町",
    "town_kana": "カミホッチマチ",
    "street": null,
    "office_name": null,
    "office_name_kana": null
  },
  "0072": {
    "postcode": "3780072",
    "prefecture": "群馬県",
    "prefecture_kana": "グンマケン",
    "prefecture_code": 10,
    "city": "沼田市",
    "city_kana": "ヌマタシ",
    "town": "中発知町",
    "town_kana": "ナカホッチマチ",
    "street": null,
    "office_name": null,
    "office_name_kana": null
  },
  "0073": {
    "postcode": "3780073",
    "prefecture": "群馬県",
    "prefecture_kana": "グンマケン",
    "prefecture_code": 10,
    "city": "沼田市",
    "city_kana": "ヌマタシ",
    "town": "発知新田町",
    "town_kana": "ホッチシンデンマチ",
    "street": null,
    "office_name": null,
    "office_name_kana": null
  },
  "0074": {
    "postcode": "3780074",
    "prefecture": "群馬県",
    "prefecture_kana": "グンマケン",
    "prefecture_code": 10,
    "city": "沼田市",
    "city_kana": "ヌマタシ",
    "town": "下発知町",
    "town_kana": "シモホッチマチ",
    "street": null,
    "office_name": null,
    "office_name_kana": null
  },
  "0075": {
    "postcode": "3780075",
    "prefecture": "群馬県",
    "prefecture_kana": "グンマケン",
    "prefecture_code": 10,
    "city": "沼田市",
    "city_kana": "ヌマタシ",
    "town": "奈良町",
    "town_kana": "ナラマチ",
    "street": null,
    "office_name": null,
    "office_name_kana": null
  },
  "0076": {
    "postcode": "3780076",
    "prefecture": "群馬県",
    "prefecture_kana": "グンマケン",
    "prefecture_code": 10,
    "city": "沼田市",
    "city_kana": "ヌマタシ",
    "town": "秋塚町",
    "town_kana": "アキヅカマチ",
    "street": null,
    "office_name": null,
    "office_name_kana": null
  },
  "0077": {
    "postcode": "3780077",
    "prefecture": "群馬県",
    "prefecture_kana": "グンマケン",
    "prefecture_code": 10,
    "city": "沼田市",
    "city_kana": "ヌマタシ",
    "town": "石墨町",
    "town_kana": "イシズミマチ",
    "street": null,
    "office_name": null,
    "office_name_kana": null
  },
  "0078": {
    "postcode": "3780078",
    "prefecture": "群馬県",
    "prefecture_kana": "グンマケン",
    "prefecture_code": 10,
    "city": "沼田市",
    "city_kana": "ヌマタシ",
    "town": "佐山町",
    "town_kana": "サヤママチ",
    "street": null,
    "office_name": null,
    "office_name_kana": null
  },
  "0100": {
    "postcode": "3780100",
    "prefecture": "群馬県",
    "prefecture_kana": "グンマケン",
    "prefecture_code": 10,
    "city": "利根郡川場村",
    "city_kana": "トネグンカワバムラ",
    "town": "",
    "town_kana": "",
    "street": null,
    "office_name": null,
    "office_name_kana": null
  },
  "0101": {
    "postcode": "3780101",
    "prefecture": "群馬県",
    "prefecture_kana": "グンマケン",
    "prefecture_code": 10,
    "city": "利根郡川場村",
    "city_kana": "トネグンカワバムラ",
    "town": "谷地",
    "town_kana": "ヤチ",
    "street": null,
    "office_name": null,
    "office_name_kana": null
  },
  "0102": {
    "postcode": "3780102",
    "prefecture": "群馬県",
    "prefecture_kana": "グンマケン",
    "prefecture_code": 10,
    "city": "利根郡川場村",
    "city_kana": "トネグンカワバムラ",
    "town": "川場湯原",
    "town_kana": "カワバユバラ",
    "street": null,
    "office_name": null,
    "office_name_kana": null
  },
  "0103": {
    "postcode": "3780103",
    "prefecture": "群馬県",
    "prefecture_kana": "グンマケン",
    "prefecture_code": 10,
    "city": "利根郡川場村",
    "city_kana": "トネグンカワバムラ",
    "town": "中野",
    "town_kana": "ナカノ",
    "street": null,
    "office_name": null,
    "office_name_kana": null
  },
  "0104": {
    "postcode": "3780104",
    "prefecture": "群馬県",
    "prefecture_kana": "グンマケン",
    "prefecture_code": 10,
    "city": "利根郡川場村",
    "city_kana": "トネグンカワバムラ",
    "town": "太田川",
    "town_kana": "オオタガワ",
    "street": null,
    "office_name": null,
    "office_name_kana": null
  },
  "0105": {
    "postcode": "3780105",
    "prefecture": "群馬県",
    "prefecture_kana": "グンマケン",
    "prefecture_code": 10,
    "city": "利根郡川場村",
    "city_kana": "トネグンカワバムラ",
    "town": "小田川",
    "town_kana": "コタガワ",
    "street": null,
    "office_name": null,
    "office_name_kana": null
  },
  "0111": {
    "postcode": "3780111",
    "prefecture": "群馬県",
    "prefecture_kana": "グンマケン",
    "prefecture_code": 10,
    "city": "利根郡川場村",
    "city_kana": "トネグンカワバムラ",
    "town": "萩室",
    "town_kana": "ハギムロ",
    "street": null,
    "office_name": null,
    "office_name_kana": null
  },
  "0112": {
    "postcode": "3780112",
    "prefecture": "群馬県",
    "prefecture_kana": "グンマケン",
    "prefecture_code": 10,
    "city": "利根郡川場村",
    "city_kana": "トネグンカワバムラ",
    "town": "立岩",
    "town_kana": "タツイワ",
    "street": null,
    "office_name": null,
    "office_name_kana": null
  },
  "0113": {
    "postcode": "3780113",
    "prefecture": "群馬県",
    "prefecture_kana": "グンマケン",
    "prefecture_code": 10,
    "city": "利根郡川場村",
    "city_kana": "トネグンカワバムラ",
    "town": "生品",
    "town_kana": "ナマシナ",
    "street": null,
    "office_name": null,
    "office_name_kana": null
  },
  "0114": {
    "postcode": "3780114",
    "prefecture": "群馬県",
    "prefecture_kana": "グンマケン",
    "prefecture_code": 10,
    "city": "利根郡川場村",
    "city_kana": "トネグンカワバムラ",
    "town": "天神",
    "town_kana": "テンジン",
    "street": null,
    "office_name": null,
    "office_name_kana": null
  },
  "0115": {
    "postcode": "3780115",
    "prefecture": "群馬県",
    "prefecture_kana": "グンマケン",
    "prefecture_code": 10,
    "city": "利根郡川場村",
    "city_kana": "トネグンカワバムラ",
    "town": "門前",
    "town_kana": "モンゼン",
    "street": null,
    "office_name": null,
    "office_name_kana": null
  },
  "0121": {
    "postcode": "3780121",
    "prefecture": "群馬県",
    "prefecture_kana": "グンマケン",
    "prefecture_code": 10,
    "city": "沼田市",
    "city_kana": "ヌマタシ",
    "town": "白沢町高平",
    "town_kana": "シラサワマチタカヒラ",
    "street": null,
    "office_name": null,
    "office_name_kana": null
  },
  "0122": {
    "postcode": "3780122",
    "prefecture": "群馬県",
    "prefecture_kana": "グンマケン",
    "prefecture_code": 10,
    "city": "沼田市",
    "city_kana": "ヌマタシ",
    "town": "白沢町生枝",
    "town_kana": "シラサワマチナマエ",
    "street": null,
    "office_name": null,
    "office_name_kana": null
  },
  "0123": {
    "postcode": "3780123",
    "prefecture": "群馬県",
    "prefecture_kana": "グンマケン",
    "prefecture_code": 10,
    "city": "沼田市",
    "city_kana": "ヌマタシ",
    "town": "白沢町岩室",
    "town_kana": "シラサワマチイワムロ",
    "street": null,
    "office_name": null,
    "office_name_kana": null
  },
  "0124": {
    "postcode": "3780124",
    "prefecture": "群馬県",
    "prefecture_kana": "グンマケン",
    "prefecture_code": 10,
    "city": "沼田市",
    "city_kana": "ヌマタシ",
    "town": "白沢町尾合",
    "town_kana": "シラサワマチオアイ",
    "street": null,
    "office_name": null,
    "office_name_kana": null
  },
  "0125": {
    "postcode": "3780125",
    "prefecture": "群馬県",
    "prefecture_kana": "グンマケン",
    "prefecture_code": 10,
    "city": "沼田市",
    "city_kana": "ヌマタシ",
    "town": "白沢町平出",
    "town_kana": "シラサワマチヒライデ",
    "street": null,
    "office_name": null,
    "office_name_kana": null
  },
  "0126": {
    "postcode": "3780126",
    "prefecture": "群馬県",
    "prefecture_kana": "グンマケン",
    "prefecture_code": 10,
    "city": "沼田市",
    "city_kana": "ヌマタシ",
    "town": "白沢町上古語父",
    "town_kana": "シラサワマチカミココブ",
    "street": null,
    "office_name": null,
    "office_name_kana": null
  },
  "0127": {
    "postcode": "3780127",
    "prefecture": "群馬県",
    "prefecture_kana": "グンマケン",
    "prefecture_code": 10,
    "city": "沼田市",
    "city_kana": "ヌマタシ",
    "town": "白沢町下古語父",
    "town_kana": "シラサワマチシモココブ",
    "street": null,
    "office_name": null,
    "office_name_kana": null
  },
  "0301": {
    "postcode": "3780301",
    "prefecture": "群馬県",
    "prefecture_kana": "グンマケン",
    "prefecture_code": 10,
    "city": "沼田市",
    "city_kana": "ヌマタシ",
    "town": "利根町平川",
    "town_kana": "トネマチヒラガワ",
    "street": null,
    "office_name": null,
    "office_name_kana": null
  },
  "0302": {
    "postcode": "3780302",
    "prefecture": "群馬県",
    "prefecture_kana": "グンマケン",
    "prefecture_code": 10,
    "city": "沼田市",
    "city_kana": "ヌマタシ",
    "town": "利根町千鳥",
    "town_kana": "トネマチチドリ",
    "street": null,
    "office_name": null,
    "office_name_kana": null
  },
  "0303": {
    "postcode": "3780303",
    "prefecture": "群馬県",
    "prefecture_kana": "グンマケン",
    "prefecture_code": 10,
    "city": "沼田市",
    "city_kana": "ヌマタシ",
    "town": "利根町追貝",
    "town_kana": "トネマチオッカイ",
    "street": null,
    "office_name": null,
    "office_name_kana": null
  },
  "0304": {
    "postcode": "3780304",
    "prefecture": "群馬県",
    "prefecture_kana": "グンマケン",
    "prefecture_code": 10,
    "city": "沼田市",
    "city_kana": "ヌマタシ",
    "town": "利根町大楊",
    "town_kana": "トネマチオオヨウ",
    "street": null,
    "office_name": null,
    "office_name_kana": null
  },
  "0305": {
    "postcode": "3780305",
    "prefecture": "群馬県",
    "prefecture_kana": "グンマケン",
    "prefecture_code": 10,
    "city": "沼田市",
    "city_kana": "ヌマタシ",
    "town": "利根町穴原",
    "town_kana": "トネマチアナバラ",
    "street": null,
    "office_name": null,
    "office_name_kana": null
  },
  "0306": {
    "postcode": "3780306",
    "prefecture": "群馬県",
    "prefecture_kana": "グンマケン",
    "prefecture_code": 10,
    "city": "沼田市",
    "city_kana": "ヌマタシ",
    "town": "利根町日向南郷",
    "town_kana": "トネマチヒナタナンゴウ",
    "street": null,
    "office_name": null,
    "office_name_kana": null
  },
  "0307": {
    "postcode": "3780307",
    "prefecture": "群馬県",
    "prefecture_kana": "グンマケン",
    "prefecture_code": 10,
    "city": "沼田市",
    "city_kana": "ヌマタシ",
    "town": "利根町柿平",
    "town_kana": "トネマチカキダイラ",
    "street": null,
    "office_name": null,
    "office_name_kana": null
  },
  "0311": {
    "postcode": "3780311",
    "prefecture": "群馬県",
    "prefecture_kana": "グンマケン",
    "prefecture_code": 10,
    "city": "沼田市",
    "city_kana": "ヌマタシ",
    "town": "利根町小松",
    "town_kana": "トネマチコマツ",
    "street": null,
    "office_name": null,
    "office_name_kana": null
  },
  "0312": {
    "postcode": "3780312",
    "prefecture": "群馬県",
    "prefecture_kana": "グンマケン",
    "prefecture_code": 10,
    "city": "沼田市",
    "city_kana": "ヌマタシ",
    "town": "利根町根利",
    "town_kana": "トネマチネリ",
    "street": null,
    "office_name": null,
    "office_name_kana": null
  },
  "0313": {
    "postcode": "3780313",
    "prefecture": "群馬県",
    "prefecture_kana": "グンマケン",
    "prefecture_code": 10,
    "city": "沼田市",
    "city_kana": "ヌマタシ",
    "town": "利根町日影南郷",
    "town_kana": "トネマチヒカゲナンゴウ",
    "street": null,
    "office_name": null,
    "office_name_kana": null
  },
  "0314": {
    "postcode": "3780314",
    "prefecture": "群馬県",
    "prefecture_kana": "グンマケン",
    "prefecture_code": 10,
    "city": "沼田市",
    "city_kana": "ヌマタシ",
    "town": "利根町青木",
    "town_kana": "トネマチアオキ",
    "street": null,
    "office_name": null,
    "office_name_kana": null
  },
  "0315": {
    "postcode": "3780315",
    "prefecture": "群馬県",
    "prefecture_kana": "グンマケン",
    "prefecture_code": 10,
    "city": "沼田市",
    "city_kana": "ヌマタシ",
    "town": "利根町砂川",
    "town_kana": "トネマチスナガワ",
    "street": null,
    "office_name": null,
    "office_name_kana": null
  },
  "0316": {
    "postcode": "3780316",
    "prefecture": "群馬県",
    "prefecture_kana": "グンマケン",
    "prefecture_code": 10,
    "city": "沼田市",
    "city_kana": "ヌマタシ",
    "town": "利根町二本松",
    "town_kana": "トネマチニホンマツ",
    "street": null,
    "office_name": null,
    "office_name_kana": null
  },
  "0317": {
    "postcode": "3780317",
    "prefecture": "群馬県",
    "prefecture_kana": "グンマケン",
    "prefecture_code": 10,
    "city": "沼田市",
    "city_kana": "ヌマタシ",
    "town": "利根町多那",
    "town_kana": "トネマチタナ",
    "street": null,
    "office_name": null,
    "office_name_kana": null
  },
  "0321": {
    "postcode": "3780321",
    "prefecture": "群馬県",
    "prefecture_kana": "グンマケン",
    "prefecture_code": 10,
    "city": "沼田市",
    "city_kana": "ヌマタシ",
    "town": "利根町高戸谷",
    "town_kana": "トネマチタカトヤ",
    "street": null,
    "office_name": null,
    "office_name_kana": null
  },
  "0322": {
    "postcode": "3780322",
    "prefecture": "群馬県",
    "prefecture_kana": "グンマケン",
    "prefecture_code": 10,
    "city": "沼田市",
    "city_kana": "ヌマタシ",
    "town": "利根町老神",
    "town_kana": "トネマチオイガミ",
    "street": null,
    "office_name": null,
    "office_name_kana": null
  },
  "0323": {
    "postcode": "3780323",
    "prefecture": "群馬県",
    "prefecture_kana": "グンマケン",
    "prefecture_code": 10,
    "city": "沼田市",
    "city_kana": "ヌマタシ",
    "town": "利根町大原",
    "town_kana": "トネマチオオハラ",
    "street": null,
    "office_name": null,
    "office_name_kana": null
  },
  "0324": {
    "postcode": "3780324",
    "prefecture": "群馬県",
    "prefecture_kana": "グンマケン",
    "prefecture_code": 10,
    "city": "沼田市",
    "city_kana": "ヌマタシ",
    "town": "利根町園原",
    "town_kana": "トネマチソノハラ",
    "street": null,
    "office_name": null,
    "office_name_kana": null
  },
  "0325": {
    "postcode": "3780325",
    "prefecture": "群馬県",
    "prefecture_kana": "グンマケン",
    "prefecture_code": 10,
    "city": "沼田市",
    "city_kana": "ヌマタシ",
    "town": "利根町輪組",
    "town_kana": "トネマチワクミ",
    "street": null,
    "office_name": null,
    "office_name_kana": null
  },
  "0326": {
    "postcode": "3780326",
    "prefecture": "群馬県",
    "prefecture_kana": "グンマケン",
    "prefecture_code": 10,
    "city": "沼田市",
    "city_kana": "ヌマタシ",
    "town": "利根町石戸新田",
    "town_kana": "トネマチイシドシンデン",
    "street": null,
    "office_name": null,
    "office_name_kana": null
  },
  "0400": {
    "postcode": "3780400",
    "prefecture": "群馬県",
    "prefecture_kana": "グンマケン",
    "prefecture_code": 10,
    "city": "利根郡片品村",
    "city_kana": "トネグンカタシナムラ",
    "town": "",
    "town_kana": "",
    "street": null,
    "office_name": null,
    "office_name_kana": null
  },
  "0401": {
    "postcode": "3780401",
    "prefecture": "群馬県",
    "prefecture_kana": "グンマケン",
    "prefecture_code": 10,
    "city": "利根郡片品村",
    "city_kana": "トネグンカタシナムラ",
    "town": "須賀川",
    "town_kana": "スカガワ",
    "street": null,
    "office_name": null,
    "office_name_kana": null
  },
  "0402": {
    "postcode": "3780402",
    "prefecture": "群馬県",
    "prefecture_kana": "グンマケン",
    "prefecture_code": 10,
    "city": "利根郡片品村",
    "city_kana": "トネグンカタシナムラ",
    "town": "御座入",
    "town_kana": "ミザノリ",
    "street": null,
    "office_name": null,
    "office_name_kana": null
  },
  "0403": {
    "postcode": "3780403",
    "prefecture": "群馬県",
    "prefecture_kana": "グンマケン",
    "prefecture_code": 10,
    "city": "利根郡片品村",
    "city_kana": "トネグンカタシナムラ",
    "town": "菅沼",
    "town_kana": "スガヌマ",
    "street": null,
    "office_name": null,
    "office_name_kana": null
  },
  "0404": {
    "postcode": "3780404",
    "prefecture": "群馬県",
    "prefecture_kana": "グンマケン",
    "prefecture_code": 10,
    "city": "利根郡片品村",
    "city_kana": "トネグンカタシナムラ",
    "town": "築地",
    "town_kana": "ツイジ",
    "street": null,
    "office_name": null,
    "office_name_kana": null
  },
  "0405": {
    "postcode": "3780405",
    "prefecture": "群馬県",
    "prefecture_kana": "グンマケン",
    "prefecture_code": 10,
    "city": "利根郡片品村",
    "city_kana": "トネグンカタシナムラ",
    "town": "下平",
    "town_kana": "シモダイラ",
    "street": null,
    "office_name": null,
    "office_name_kana": null
  },
  "0406": {
    "postcode": "3780406",
    "prefecture": "群馬県",
    "prefecture_kana": "グンマケン",
    "prefecture_code": 10,
    "city": "利根郡片品村",
    "city_kana": "トネグンカタシナムラ",
    "town": "摺淵",
    "town_kana": "スルブチ",
    "street": null,
    "office_name": null,
    "office_name_kana": null
  },
  "0407": {
    "postcode": "3780407",
    "prefecture": "群馬県",
    "prefecture_kana": "グンマケン",
    "prefecture_code": 10,
    "city": "利根郡片品村",
    "city_kana": "トネグンカタシナムラ",
    "town": "幡谷",
    "town_kana": "ハタヤ",
    "street": null,
    "office_name": null,
    "office_name_kana": null
  },
  "0408": {
    "postcode": "3780408",
    "prefecture": "群馬県",
    "prefecture_kana": "グンマケン",
    "prefecture_code": 10,
    "city": "利根郡片品村",
    "city_kana": "トネグンカタシナムラ",
    "town": "花咲",
    "town_kana": "ハナサク",
    "street": null,
    "office_name": null,
    "office_name_kana": null
  },
  "0409": {
    "postcode": "3780409",
    "prefecture": "群馬県",
    "prefecture_kana": "グンマケン",
    "prefecture_code": 10,
    "city": "利根郡片品村",
    "city_kana": "トネグンカタシナムラ",
    "town": "針山",
    "town_kana": "ハリヤマ",
    "street": null,
    "office_name": null,
    "office_name_kana": null
  },
  "0411": {
    "postcode": "3780411",
    "prefecture": "群馬県",
    "prefecture_kana": "グンマケン",
    "prefecture_code": 10,
    "city": "利根郡片品村",
    "city_kana": "トネグンカタシナムラ",
    "town": "戸倉",
    "town_kana": "トクラ",
    "street": null,
    "office_name": null,
    "office_name_kana": null
  },
  "0412": {
    "postcode": "3780412",
    "prefecture": "群馬県",
    "prefecture_kana": "グンマケン",
    "prefecture_code": 10,
    "city": "利根郡片品村",
    "city_kana": "トネグンカタシナムラ",
    "town": "土出",
    "town_kana": "ツチイデ",
    "street": null,
    "office_name": null,
    "office_name_kana": null
  },
  "0413": {
    "postcode": "3780413",
    "prefecture": "群馬県",
    "prefecture_kana": "グンマケン",
    "prefecture_code": 10,
    "city": "利根郡片品村",
    "city_kana": "トネグンカタシナムラ",
    "town": "越本",
    "town_kana": "コシモト",
    "street": null,
    "office_name": null,
    "office_name_kana": null
  },
  "0414": {
    "postcode": "3780414",
    "prefecture": "群馬県",
    "prefecture_kana": "グンマケン",
    "prefecture_code": 10,
    "city": "利根郡片品村",
    "city_kana": "トネグンカタシナムラ",
    "town": "東小川",
    "town_kana": "ヒガシオガワ",
    "street": null,
    "office_name": null,
    "office_name_kana": null
  },
  "0415": {
    "postcode": "3780415",
    "prefecture": "群馬県",
    "prefecture_kana": "グンマケン",
    "prefecture_code": 10,
    "city": "利根郡片品村",
    "city_kana": "トネグンカタシナムラ",
    "town": "鎌田",
    "town_kana": "カマダ",
    "street": null,
    "office_name": null,
    "office_name_kana": null
  },
  "0498": {
    "postcode": "3780498",
    "prefecture": "群馬県",
    "prefecture_kana": "グンマケン",
    "prefecture_code": 10,
    "city": "利根郡片品村",
    "city_kana": "トネグンカタシナムラ",
    "town": "大字鎌田",
    "town_kana": null,
    "street": "３９６７−３",
    "office_name": "片品村役場",
    "office_name_kana": "カタシナムラヤクバ"
  },
  "8501": {
    "postcode": "3788501",
    "prefecture": "群馬県",
    "prefecture_kana": "グンマケン",
    "prefecture_code": 10,
    "city": "沼田市",
    "city_kana": "ヌマタシ",
    "town": "下之町",
    "town_kana": "シモノチョウ",
    "street": "８８８番地",
    "office_name": "沼田市役所",
    "office_name_kana": "ヌマタシヤクシヨ"
  }
}