{
  "0801": {
    "postcode": "3800801",
    "prefecture": "長野県",
    "prefecture_kana": "ナガノケン",
    "prefecture_code": 20,
    "city": "長野市",
    "city_kana": "ナガノシ",
    "town": "箱清水",
    "town_kana": "ハコシミズ",
    "street": null,
    "office_name": null,
    "office_name_kana": null
  },
  "0802": {
    "postcode": "3800802",
    "prefecture": "長野県",
    "prefecture_kana": "ナガノケン",
    "prefecture_code": 20,
    "city": "長野市",
    "city_kana": "ナガノシ",
    "town": "上松",
    "town_kana": "ウエマツ",
    "street": null,
    "office_name": null,
    "office_name_kana": null
  },
  "0803": {
    "postcode": "3800803",
    "prefecture": "長野県",
    "prefecture_kana": "ナガノケン",
    "prefecture_code": 20,
    "city": "長野市",
    "city_kana": "ナガノシ",
    "town": "三輪",
    "town_kana": "ミワ",
    "street": null,
    "office_name": null,
    "office_name_kana": null
  },
  "0804": {
    "postcode": "3800804",
    "prefecture": "長野県",
    "prefecture_kana": "ナガノケン",
    "prefecture_code": 20,
    "city": "長野市",
    "city_kana": "ナガノシ",
    "town": "荒屋",
    "town_kana": "アラヤ",
    "street": null,
    "office_name": null,
    "office_name_kana": null
  },
  "0805": {
    "postcode": "3800805",
    "prefecture": "長野県",
    "prefecture_kana": "ナガノケン",
    "prefecture_code": 20,
    "city": "長野市",
    "city_kana": "ナガノシ",
    "town": "柳町",
    "town_kana": "ヤナギマチ",
    "street": null,
    "office_name": null,
    "office_name_kana": null
  },
  "0806": {
    "postcode": "3800806",
    "prefecture": "長野県",
    "prefecture_kana": "ナガノケン",
    "prefecture_code": 20,
    "city": "長野市",
    "city_kana": "ナガノシ",
    "town": "淀ケ橋",
    "town_kana": "ヨドガバシ",
    "street": null,
    "office_name": null,
    "office_name_kana": null
  },
  "0807": {
    "postcode": "3800807",
    "prefecture": "長野県",
    "prefecture_kana": "ナガノケン",
    "prefecture_code": 20,
    "city": "長野市",
    "city_kana": "ナガノシ",
    "town": "横山",
    "town_kana": "ヨコヤマ",
    "street": null,
    "office_name": null,
    "office_name_kana": null
  },
  "0811": [
    {
      "postcode": "3800811",
      "prefecture": "長野県",
      "prefecture_kana": "ナガノケン",
      "prefecture_code": 20,
      "city": "長野市",
      "city_kana": "ナガノシ",
      "town": "鶴賀",
      "town_kana": "ツルガ",
      "street": null,
      "office_name": null,
      "office_name_kana": null
    },
    {
      "postcode": "3800811",
      "prefecture": "長野県",
      "prefecture_kana": "ナガノケン",
      "prefecture_code": 20,
      "city": "長野市",
      "city_kana": "ナガノシ",
      "town": "鶴賀東鶴賀町",
      "town_kana": "ツルガヒガシツルガマチ",
      "street": null,
      "office_name": null,
      "office_name_kana": null
    },
    {
      "postcode": "3800811",
      "prefecture": "長野県",
      "prefecture_kana": "ナガノケン",
      "prefecture_code": 20,
      "city": "長野市",
      "city_kana": "ナガノシ",
      "town": "東鶴賀町",
      "town_kana": "ヒガシツルガマチ",
      "street": null,
      "office_name": null,
      "office_name_kana": null
    }
  ],
  "0812": [
    {
      "postcode": "3800812",
      "prefecture": "長野県",
      "prefecture_kana": "ナガノケン",
      "prefecture_code": 20,
      "city": "長野市",
      "city_kana": "ナガノシ",
      "town": "早苗町",
      "town_kana": "サナエチョウ",
      "street": null,
      "office_name": null,
      "office_name_kana": null
    },
    {
      "postcode": "3800812",
      "prefecture": "長野県",
      "prefecture_kana": "ナガノケン",
      "prefecture_code": 20,
      "city": "長野市",
      "city_kana": "ナガノシ",
      "town": "鶴賀",
      "town_kana": "ツルガ",
      "street": null,
      "office_name": null,
      "office_name_kana": null
    },
    {
      "postcode": "3800812",
      "prefecture": "長野県",
      "prefecture_kana": "ナガノケン",
      "prefecture_code": 20,
      "city": "長野市",
      "city_kana": "ナガノシ",
      "town": "鶴賀早苗町",
      "town_kana": "ツルガサナエチョウ",
      "street": null,
      "office_name": null,
      "office_name_kana": null
    }
  ],
  "0813": [
    {
      "postcode": "3800813",
      "prefecture": "長野県",
      "prefecture_kana": "ナガノケン",
      "prefecture_code": 20,
      "city": "長野市",
      "city_kana": "ナガノシ",
      "town": "鶴賀",
      "town_kana": "ツルガ",
      "street": null,
      "office_name": null,
      "office_name_kana": null
    },
    {
      "postcode": "3800813",
      "prefecture": "長野県",
      "prefecture_kana": "ナガノケン",
      "prefecture_code": 20,
      "city": "長野市",
      "city_kana": "ナガノシ",
      "town": "鶴賀緑町",
      "town_kana": "ツルガミドリチョウ",
      "street": null,
      "office_name": null,
      "office_name_kana": null
    },
    {
      "postcode": "3800813",
      "prefecture": "長野県",
      "prefecture_kana": "ナガノケン",
      "prefecture_code": 20,
      "city": "長野市",
      "city_kana": "ナガノシ",
      "town": "緑町",
      "town_kana": "ミドリチョウ",
      "street": null,
      "office_name": null,
      "office_name_kana": null
    }
  ],
  "0814": [
    {
      "postcode": "3800814",
      "prefecture": "長野県",
      "prefecture_kana": "ナガノケン",
      "prefecture_code": 20,
      "city": "長野市",
      "city_kana": "ナガノシ",
      "town": "鶴賀",
      "town_kana": "ツルガ",
      "street": null,
      "office_name": null,
      "office_name_kana": null
    },
    {
      "postcode": "3800814",
      "prefecture": "長野県",
      "prefecture_kana": "ナガノケン",
      "prefecture_code": 20,
      "city": "長野市",
      "city_kana": "ナガノシ",
      "town": "鶴賀西鶴賀町",
      "town_kana": "ツルガニシツルガマチ",
      "street": null,
      "office_name": null,
      "office_name_kana": null
    },
    {
      "postcode": "3800814",
      "prefecture": "長野県",
      "prefecture_kana": "ナガノケン",
      "prefecture_code": 20,
      "city": "長野市",
      "city_kana": "ナガノシ",
      "town": "西鶴賀町",
      "town_kana": "ニシツルガマチ",
      "street": null,
      "office_name": null,
      "office_name_kana": null
    }
  ],
  "0815": [
    {
      "postcode": "3800815",
      "prefecture": "長野県",
      "prefecture_kana": "ナガノケン",
      "prefecture_code": 20,
      "city": "長野市",
      "city_kana": "ナガノシ",
      "town": "田町",
      "town_kana": "タマチ",
      "street": null,
      "office_name": null,
      "office_name_kana": null
    },
    {
      "postcode": "3800815",
      "prefecture": "長野県",
      "prefecture_kana": "ナガノケン",
      "prefecture_code": 20,
      "city": "長野市",
      "city_kana": "ナガノシ",
      "town": "鶴賀",
      "town_kana": "ツルガ",
      "street": null,
      "office_name": null,
      "office_name_kana": null
    },
    {
      "postcode": "3800815",
      "prefecture": "長野県",
      "prefecture_kana": "ナガノケン",
      "prefecture_code": 20,
      "city": "長野市",
      "city_kana": "ナガノシ",
      "town": "鶴賀田町",
      "town_kana": "ツルガタマチ",
      "street": null,
      "office_name": null,
      "office_name_kana": null
    }
  ],
  "0816": {
    "postcode": "3800816",
    "prefecture": "長野県",
    "prefecture_kana": "ナガノケン",
    "prefecture_code": 20,
    "city": "長野市",
    "city_kana": "ナガノシ",
    "town": "三輪田町",
    "town_kana": "ミワタマチ",
    "street": null,
    "office_name": null,
    "office_name_kana": null
  },
  "0821": [
    {
      "postcode": "3800821",
      "prefecture": "長野県",
      "prefecture_kana": "ナガノケン",
      "prefecture_code": 20,
      "city": "長野市",
      "city_kana": "ナガノシ",
      "town": "上千歳町",
      "town_kana": "カミチトセマチ",
      "street": null,
      "office_name": null,
      "office_name_kana": null
    },
    {
      "postcode": "3800821",
      "prefecture": "長野県",
      "prefecture_kana": "ナガノケン",
      "prefecture_code": 20,
      "city": "長野市",
      "city_kana": "ナガノシ",
      "town": "鶴賀",
      "town_kana": "ツルガ",
      "street": null,
      "office_name": null,
      "office_name_kana": null
    },
    {
      "postcode": "3800821",
      "prefecture": "長野県",
      "prefecture_kana": "ナガノケン",
      "prefecture_code": 20,
      "city": "長野市",
      "city_kana": "ナガノシ",
      "town": "鶴賀上千歳町",
      "town_kana": "ツルガカミチトセマチ",
      "street": null,
      "office_name": null,
      "office_name_kana": null
    }
  ],
  "0822": [
    {
      "postcode": "3800822",
      "prefecture": "長野県",
      "prefecture_kana": "ナガノケン",
      "prefecture_code": 20,
      "city": "長野市",
      "city_kana": "ナガノシ",
      "town": "鶴賀",
      "town_kana": "ツルガ",
      "street": null,
      "office_name": null,
      "office_name_kana": null
    },
    {
      "postcode": "3800822",
      "prefecture": "長野県",
      "prefecture_kana": "ナガノケン",
      "prefecture_code": 20,
      "city": "長野市",
      "city_kana": "ナガノシ",
      "town": "鶴賀南千歳町",
      "town_kana": "ツルガミナミチトセマチ",
      "street": null,
      "office_name": null,
      "office_name_kana": null
    },
    {
      "postcode": "3800822",
      "prefecture": "長野県",
      "prefecture_kana": "ナガノケン",
      "prefecture_code": 20,
      "city": "長野市",
      "city_kana": "ナガノシ",
      "town": "南千歳町",
      "town_kana": "ミナミチトセマチ",
      "street": null,
      "office_name": null,
      "office_name_kana": null
    }
  ],
  "0823": {
    "postcode": "3800823",
    "prefecture": "長野県",
    "prefecture_kana": "ナガノケン",
    "prefecture_code": 20,
    "city": "長野市",
    "city_kana": "ナガノシ",
    "town": "南千歳",
    "town_kana": "ミナミチトセ",
    "street": null,
    "office_name": null,
    "office_name_kana": null
  },
  "0824": {
    "postcode": "3800824",
    "prefecture": "長野県",
    "prefecture_kana": "ナガノケン",
    "prefecture_code": 20,
    "city": "長野市",
    "city_kana": "ナガノシ",
    "town": "南石堂町",
    "town_kana": "ミナミイシドウチョウ",
    "street": null,
    "office_name": null,
    "office_name_kana": null
  },
  "0825": {
    "postcode": "3800825",
    "prefecture": "長野県",
    "prefecture_kana": "ナガノケン",
    "prefecture_code": 20,
    "city": "長野市",
    "city_kana": "ナガノシ",
    "town": "末広町",
    "town_kana": "スエヒロチョウ",
    "street": null,
    "office_name": null,
    "office_name_kana": null
  },
  "0826": {
    "postcode": "3800826",
    "prefecture": "長野県",
    "prefecture_kana": "ナガノケン",
    "prefecture_code": 20,
    "city": "長野市",
    "city_kana": "ナガノシ",
    "town": "北石堂町",
    "town_kana": "キタイシドウチョウ",
    "street": null,
    "office_name": null,
    "office_name_kana": null
  },
  "0831": {
    "postcode": "3800831",
    "prefecture": "長野県",
    "prefecture_kana": "ナガノケン",
    "prefecture_code": 20,
    "city": "長野市",
    "city_kana": "ナガノシ",
    "town": "東町",
    "town_kana": "ヒガシマチ",
    "street": null,
    "office_name": null,
    "office_name_kana": null
  },
  "0832": {
    "postcode": "3800832",
    "prefecture": "長野県",
    "prefecture_kana": "ナガノケン",
    "prefecture_code": 20,
    "city": "長野市",
    "city_kana": "ナガノシ",
    "town": "東後町",
    "town_kana": "ヒガシゴチョウ",
    "street": null,
    "office_name": null,
    "office_name_kana": null
  },
  "0833": [
    {
      "postcode": "3800833",
      "prefecture": "長野県",
      "prefecture_kana": "ナガノケン",
      "prefecture_code": 20,
      "city": "長野市",
      "city_kana": "ナガノシ",
      "town": "権堂町",
      "town_kana": "ゴンドウチョウ",
      "street": null,
      "office_name": null,
      "office_name_kana": null
    },
    {
      "postcode": "3800833",
      "prefecture": "長野県",
      "prefecture_kana": "ナガノケン",
      "prefecture_code": 20,
      "city": "長野市",
      "city_kana": "ナガノシ",
      "town": "鶴賀",
      "town_kana": "ツルガ",
      "street": null,
      "office_name": null,
      "office_name_kana": null
    },
    {
      "postcode": "3800833",
      "prefecture": "長野県",
      "prefecture_kana": "ナガノケン",
      "prefecture_code": 20,
      "city": "長野市",
      "city_kana": "ナガノシ",
      "town": "鶴賀権堂町",
      "town_kana": "ツルガゴンドウチョウ",
      "street": null,
      "office_name": null,
      "office_name_kana": null
    }
  ],
  "0834": [
    {
      "postcode": "3800834",
      "prefecture": "長野県",
      "prefecture_kana": "ナガノケン",
      "prefecture_code": 20,
      "city": "長野市",
      "city_kana": "ナガノシ",
      "town": "鶴賀",
      "town_kana": "ツルガ",
      "street": null,
      "office_name": null,
      "office_name_kana": null
    },
    {
      "postcode": "3800834",
      "prefecture": "長野県",
      "prefecture_kana": "ナガノケン",
      "prefecture_code": 20,
      "city": "長野市",
      "city_kana": "ナガノシ",
      "town": "鶴賀問御所町",
      "town_kana": "ツルガトイゴショマチ",
      "street": null,
      "office_name": null,
      "office_name_kana": null
    },
    {
      "postcode": "3800834",
      "prefecture": "長野県",
      "prefecture_kana": "ナガノケン",
      "prefecture_code": 20,
      "city": "長野市",
      "city_kana": "ナガノシ",
      "town": "問御所町",
      "town_kana": "トイゴショマチ",
      "street": null,
      "office_name": null,
      "office_name_kana": null
    }
  ],
  "0835": {
    "postcode": "3800835",
    "prefecture": "長野県",
    "prefecture_kana": "ナガノケン",
    "prefecture_code": 20,
    "city": "長野市",
    "city_kana": "ナガノシ",
    "town": "新田町",
    "town_kana": "シンデンチョウ",
    "street": null,
    "office_name": null,
    "office_name_kana": null
  },
  "0836": {
    "postcode": "3800836",
    "prefecture": "長野県",
    "prefecture_kana": "ナガノケン",
    "prefecture_code": 20,
    "city": "長野市",
    "city_kana": "ナガノシ",
    "town": "南県町",
    "town_kana": "ミナミアガタマチ",
    "street": null,
    "office_name": null,
    "office_name_kana": null
  },
  "0837": [
    {
      "postcode": "3800837",
      "prefecture": "長野県",
      "prefecture_kana": "ナガノケン",
      "prefecture_code": 20,
      "city": "長野市",
      "city_kana": "ナガノシ",
      "town": "南長野",
      "town_kana": "ミナミナガノ",
      "street": null,
      "office_name": null,
      "office_name_kana": null
    },
    {
      "postcode": "3800837",
      "prefecture": "長野県",
      "prefecture_kana": "ナガノケン",
      "prefecture_code": 20,
      "city": "長野市",
      "city_kana": "ナガノシ",
      "town": "南長野幅下",
      "town_kana": "ミナミナガノハバシタ",
      "street": null,
      "office_name": null,
      "office_name_kana": null
    }
  ],
  "0838": {
    "postcode": "3800838",
    "prefecture": "長野県",
    "prefecture_kana": "ナガノケン",
    "prefecture_code": 20,
    "city": "長野市",
    "city_kana": "ナガノシ",
    "town": "県町",
    "town_kana": "アガタマチ",
    "street": null,
    "office_name": null,
    "office_name_kana": null
  },
  "0841": {
    "postcode": "3800841",
    "prefecture": "長野県",
    "prefecture_kana": "ナガノケン",
    "prefecture_code": 20,
    "city": "長野市",
    "city_kana": "ナガノシ",
    "town": "大門町",
    "town_kana": "ダイモンチョウ",
    "street": null,
    "office_name": null,
    "office_name_kana": null
  },
  "0842": {
    "postcode": "3800842",
    "prefecture": "長野県",
    "prefecture_kana": "ナガノケン",
    "prefecture_code": 20,
    "city": "長野市",
    "city_kana": "ナガノシ",
    "town": "西町",
    "town_kana": "ニシマチ",
    "street": null,
    "office_name": null,
    "office_name_kana": null
  },
  "0843": {
    "postcode": "3800843",
    "prefecture": "長野県",
    "prefecture_kana": "ナガノケン",
    "prefecture_code": 20,
    "city": "長野市",
    "city_kana": "ナガノシ",
    "town": "長門町",
    "town_kana": "ナガトチョウ",
    "street": null,
    "office_name": null,
    "office_name_kana": null
  },
  "0844": {
    "postcode": "3800844",
    "prefecture": "長野県",
    "prefecture_kana": "ナガノケン",
    "prefecture_code": 20,
    "city": "長野市",
    "city_kana": "ナガノシ",
    "town": "諏訪町",
    "town_kana": "スワチョウ",
    "street": null,
    "office_name": null,
    "office_name_kana": null
  },
  "0845": {
    "postcode": "3800845",
    "prefecture": "長野県",
    "prefecture_kana": "ナガノケン",
    "prefecture_code": 20,
    "city": "長野市",
    "city_kana": "ナガノシ",
    "town": "西後町",
    "town_kana": "ニシゴチョウ",
    "street": null,
    "office_name": null,
    "office_name_kana": null
  },
  "0846": {
    "postcode": "3800846",
    "prefecture": "長野県",
    "prefecture_kana": "ナガノケン",
    "prefecture_code": 20,
    "city": "長野市",
    "city_kana": "ナガノシ",
    "town": "旭町",
    "town_kana": "アサヒマチ",
    "street": null,
    "office_name": null,
    "office_name_kana": null
  },
  "0847": {
    "postcode": "3800847",
    "prefecture": "長野県",
    "prefecture_kana": "ナガノケン",
    "prefecture_code": 20,
    "city": "長野市",
    "city_kana": "ナガノシ",
    "town": "若松町",
    "town_kana": "ワカマツチョウ",
    "street": null,
    "office_name": null,
    "office_name_kana": null
  },
  "0851": {
    "postcode": "3800851",
    "prefecture": "長野県",
    "prefecture_kana": "ナガノケン",
    "prefecture_code": 20,
    "city": "長野市",
    "city_kana": "ナガノシ",
    "town": "元善町",
    "town_kana": "モトヨシチョウ",
    "street": null,
    "office_name": null,
    "office_name_kana": null
  },
  "0852": {
    "postcode": "3800852",
    "prefecture": "長野県",
    "prefecture_kana": "ナガノケン",
    "prefecture_code": 20,
    "city": "長野市",
    "city_kana": "ナガノシ",
    "town": "東之門町",
    "town_kana": "ヒガシノモンチョウ",
    "street": null,
    "office_name": null,
    "office_name_kana": null
  },
  "0853": {
    "postcode": "3800853",
    "prefecture": "長野県",
    "prefecture_kana": "ナガノケン",
    "prefecture_code": 20,
    "city": "長野市",
    "city_kana": "ナガノシ",
    "town": "新町",
    "town_kana": "シンマチ",
    "street": null,
    "office_name": null,
    "office_name_kana": null
  },
  "0854": {
    "postcode": "3800854",
    "prefecture": "長野県",
    "prefecture_kana": "ナガノケン",
    "prefecture_code": 20,
    "city": "長野市",
    "city_kana": "ナガノシ",
    "town": "伊勢町",
    "town_kana": "イセマチ",
    "street": null,
    "office_name": null,
    "office_name_kana": null
  },
  "0855": {
    "postcode": "3800855",
    "prefecture": "長野県",
    "prefecture_kana": "ナガノケン",
    "prefecture_code": 20,
    "city": "長野市",
    "city_kana": "ナガノシ",
    "town": "岩石町",
    "town_kana": "ガンゼキチョウ",
    "street": null,
    "office_name": null,
    "office_name_kana": null
  },
  "0856": {
    "postcode": "3800856",
    "prefecture": "長野県",
    "prefecture_kana": "ナガノケン",
    "prefecture_code": 20,
    "city": "長野市",
    "city_kana": "ナガノシ",
    "town": "横町",
    "town_kana": "ヨコマチ",
    "street": null,
    "office_name": null,
    "office_name_kana": null
  },
  "0857": {
    "postcode": "3800857",
    "prefecture": "長野県",
    "prefecture_kana": "ナガノケン",
    "prefecture_code": 20,
    "city": "長野市",
    "city_kana": "ナガノシ",
    "town": "西之門町",
    "town_kana": "ニシノモンチョウ",
    "street": null,
    "office_name": null,
    "office_name_kana": null
  },
  "0858": {
    "postcode": "3800858",
    "prefecture": "長野県",
    "prefecture_kana": "ナガノケン",
    "prefecture_code": 20,
    "city": "長野市",
    "city_kana": "ナガノシ",
    "town": "上西之門町",
    "town_kana": "カミニシノモンチョウ",
    "street": null,
    "office_name": null,
    "office_name_kana": null
  },
  "0861": {
    "postcode": "3800861",
    "prefecture": "長野県",
    "prefecture_kana": "ナガノケン",
    "prefecture_code": 20,
    "city": "長野市",
    "city_kana": "ナガノシ",
    "town": "横沢町",
    "town_kana": "ヨコサワチョウ",
    "street": null,
    "office_name": null,
    "office_name_kana": null
  },
  "0862": {
    "postcode": "3800862",
    "prefecture": "長野県",
    "prefecture_kana": "ナガノケン",
    "prefecture_code": 20,
    "city": "長野市",
    "city_kana": "ナガノシ",
    "town": "桜枝町",
    "town_kana": "サクラエチョウ",
    "street": null,
    "office_name": null,
    "office_name_kana": null
  },
  "0863": {
    "postcode": "3800863",
    "prefecture": "長野県",
    "prefecture_kana": "ナガノケン",
    "prefecture_code": 20,
    "city": "長野市",
    "city_kana": "ナガノシ",
    "town": "栄町",
    "town_kana": "サカエチョウ",
    "street": null,
    "office_name": null,
    "office_name_kana": null
  },
  "0864": {
    "postcode": "3800864",
    "prefecture": "長野県",
    "prefecture_kana": "ナガノケン",
    "prefecture_code": 20,
    "city": "長野市",
    "city_kana": "ナガノシ",
    "town": "立町",
    "town_kana": "タツマチ",
    "street": null,
    "office_name": null,
    "office_name_kana": null
  },
  "0865": {
    "postcode": "3800865",
    "prefecture": "長野県",
    "prefecture_kana": "ナガノケン",
    "prefecture_code": 20,
    "city": "長野市",
    "city_kana": "ナガノシ",
    "town": "花咲町",
    "town_kana": "ハナサキチョウ",
    "street": null,
    "office_name": null,
    "office_name_kana": null
  },
  "0866": {
    "postcode": "3800866",
    "prefecture": "長野県",
    "prefecture_kana": "ナガノケン",
    "prefecture_code": 20,
    "city": "長野市",
    "city_kana": "ナガノシ",
    "town": "狐池",
    "town_kana": "キツネイケ",
    "street": null,
    "office_name": null,
    "office_name_kana": null
  },
  "0867": {
    "postcode": "3800867",
    "prefecture": "長野県",
    "prefecture_kana": "ナガノケン",
    "prefecture_code": 20,
    "city": "長野市",
    "city_kana": "ナガノシ",
    "town": "往生地",
    "town_kana": "オウショウジ",
    "street": null,
    "office_name": null,
    "office_name_kana": null
  },
  "0871": {
    "postcode": "3800871",
    "prefecture": "長野県",
    "prefecture_kana": "ナガノケン",
    "prefecture_code": 20,
    "city": "長野市",
    "city_kana": "ナガノシ",
    "town": "西長野",
    "town_kana": "ニシナガノ",
    "street": null,
    "office_name": null,
    "office_name_kana": null
  },
  "0872": {
    "postcode": "3800872",
    "prefecture": "長野県",
    "prefecture_kana": "ナガノケン",
    "prefecture_code": 20,
    "city": "長野市",
    "city_kana": "ナガノシ",
    "town": "妻科",
    "town_kana": "ツマシナ",
    "street": null,
    "office_name": null,
    "office_name_kana": null
  },
  "0873": [
    {
      "postcode": "3800873",
      "prefecture": "長野県",
      "prefecture_kana": "ナガノケン",
      "prefecture_code": 20,
      "city": "長野市",
      "city_kana": "ナガノシ",
      "town": "新諏訪",
      "town_kana": "シンスワ",
      "street": null,
      "office_name": null,
      "office_name_kana": null
    },
    {
      "postcode": "3800873",
      "prefecture": "長野県",
      "prefecture_kana": "ナガノケン",
      "prefecture_code": 20,
      "city": "長野市",
      "city_kana": "ナガノシ",
      "town": "新諏訪町",
      "town_kana": "シンスワチョウ",
      "street": null,
      "office_name": null,
      "office_name_kana": null
    }
  ],
  "0874": {
    "postcode": "3800874",
    "prefecture": "長野県",
    "prefecture_kana": "ナガノケン",
    "prefecture_code": 20,
    "city": "長野市",
    "city_kana": "ナガノシ",
    "town": "茂菅",
    "town_kana": "モスゲ",
    "street": null,
    "office_name": null,
    "office_name_kana": null
  },
  "0875": {
    "postcode": "3800875",
    "prefecture": "長野県",
    "prefecture_kana": "ナガノケン",
    "prefecture_code": 20,
    "city": "長野市",
    "city_kana": "ナガノシ",
    "town": "小鍋",
    "town_kana": "コナベ",
    "street": null,
    "office_name": null,
    "office_name_kana": null
  },
  "0876": {
    "postcode": "3800876",
    "prefecture": "長野県",
    "prefecture_kana": "ナガノケン",
    "prefecture_code": 20,
    "city": "長野市",
    "city_kana": "ナガノシ",
    "town": "山田中",
    "town_kana": "ヤマダナカ",
    "street": null,
    "office_name": null,
    "office_name_kana": null
  },
  "0877": {
    "postcode": "3800877",
    "prefecture": "長野県",
    "prefecture_kana": "ナガノケン",
    "prefecture_code": 20,
    "city": "長野市",
    "city_kana": "ナガノシ",
    "town": "塩生",
    "town_kana": "ショウブ",
    "street": null,
    "office_name": null,
    "office_name_kana": null
  },
  "0881": {
    "postcode": "3800881",
    "prefecture": "長野県",
    "prefecture_kana": "ナガノケン",
    "prefecture_code": 20,
    "city": "長野市",
    "city_kana": "ナガノシ",
    "town": "門沢",
    "town_kana": "カドサワ",
    "street": null,
    "office_name": null,
    "office_name_kana": null
  },
  "0882": {
    "postcode": "3800882",
    "prefecture": "長野県",
    "prefecture_kana": "ナガノケン",
    "prefecture_code": 20,
    "city": "長野市",
    "city_kana": "ナガノシ",
    "town": "富田",
    "town_kana": "トミダ",
    "street": null,
    "office_name": null,
    "office_name_kana": null
  },
  "0883": {
    "postcode": "3800883",
    "prefecture": "長野県",
    "prefecture_kana": "ナガノケン",
    "prefecture_code": 20,
    "city": "長野市",
    "city_kana": "ナガノシ",
    "town": "泉平",
    "town_kana": "イズミダイラ",
    "street": null,
    "office_name": null,
    "office_name_kana": null
  },
  "0884": {
    "postcode": "3800884",
    "prefecture": "長野県",
    "prefecture_kana": "ナガノケン",
    "prefecture_code": 20,
    "city": "長野市",
    "city_kana": "ナガノシ",
    "town": "鑪",
    "town_kana": "タタラ",
    "street": null,
    "office_name": null,
    "office_name_kana": null
  },
  "0885": {
    "postcode": "3800885",
    "prefecture": "長野県",
    "prefecture_kana": "ナガノケン",
    "prefecture_code": 20,
    "city": "長野市",
    "city_kana": "ナガノシ",
    "town": "桜",
    "town_kana": "サクラ",
    "street": null,
    "office_name": null,
    "office_name_kana": null
  },
  "0886": {
    "postcode": "3800886",
    "prefecture": "長野県",
    "prefecture_kana": "ナガノケン",
    "prefecture_code": 20,
    "city": "長野市",
    "city_kana": "ナガノシ",
    "town": "広瀬",
    "town_kana": "ヒロセ",
    "street": null,
    "office_name": null,
    "office_name_kana": null
  },
  "0887": {
    "postcode": "3800887",
    "prefecture": "長野県",
    "prefecture_kana": "ナガノケン",
    "prefecture_code": 20,
    "city": "長野市",
    "city_kana": "ナガノシ",
    "town": "入山",
    "town_kana": "イリヤマ",
    "street": null,
    "office_name": null,
    "office_name_kana": null
  },
  "0888": {
    "postcode": "3800888",
    "prefecture": "長野県",
    "prefecture_kana": "ナガノケン",
    "prefecture_code": 20,
    "city": "長野市",
    "city_kana": "ナガノシ",
    "town": "上ケ屋",
    "town_kana": "アゲヤ",
    "street": null,
    "office_name": null,
    "office_name_kana": null
  },
  "0901": [
    {
      "postcode": "3800901",
      "prefecture": "長野県",
      "prefecture_kana": "ナガノケン",
      "prefecture_code": 20,
      "city": "長野市",
      "city_kana": "ナガノシ",
      "town": "居町",
      "town_kana": "イマチ",
      "street": null,
      "office_name": null,
      "office_name_kana": null
    },
    {
      "postcode": "3800901",
      "prefecture": "長野県",
      "prefecture_kana": "ナガノケン",
      "prefecture_code": 20,
      "city": "長野市",
      "city_kana": "ナガノシ",
      "town": "鶴賀",
      "town_kana": "ツルガ",
      "street": null,
      "office_name": null,
      "office_name_kana": null
    },
    {
      "postcode": "3800901",
      "prefecture": "長野県",
      "prefecture_kana": "ナガノケン",
      "prefecture_code": 20,
      "city": "長野市",
      "city_kana": "ナガノシ",
      "town": "鶴賀居町",
      "town_kana": "ツルガイマチ",
      "street": null,
      "office_name": null,
      "office_name_kana": null
    }
  ],
  "0902": [
    {
      "postcode": "3800902",
      "prefecture": "長野県",
      "prefecture_kana": "ナガノケン",
      "prefecture_code": 20,
      "city": "長野市",
      "city_kana": "ナガノシ",
      "town": "鶴賀",
      "town_kana": "ツルガ",
      "street": null,
      "office_name": null,
      "office_name_kana": null
    },
    {
      "postcode": "3800902",
      "prefecture": "長野県",
      "prefecture_kana": "ナガノケン",
      "prefecture_code": 20,
      "city": "長野市",
      "city_kana": "ナガノシ",
      "town": "鶴賀中堰",
      "town_kana": "ツルガナカゼキ",
      "street": null,
      "office_name": null,
      "office_name_kana": null
    }
  ],
  "0903": [
    {
      "postcode": "3800903",
      "prefecture": "長野県",
      "prefecture_kana": "ナガノケン",
      "prefecture_code": 20,
      "city": "長野市",
      "city_kana": "ナガノシ",
      "town": "鶴賀",
      "town_kana": "ツルガ",
      "street": null,
      "office_name": null,
      "office_name_kana": null
    },
    {
      "postcode": "3800903",
      "prefecture": "長野県",
      "prefecture_kana": "ナガノケン",
      "prefecture_code": 20,
      "city": "長野市",
      "city_kana": "ナガノシ",
      "town": "鶴賀峰村",
      "town_kana": "ツルガミネムラ",
      "street": null,
      "office_name": null,
      "office_name_kana": null
    }
  ],
  "0904": [
    {
      "postcode": "3800904",
      "prefecture": "長野県",
      "prefecture_kana": "ナガノケン",
      "prefecture_code": 20,
      "city": "長野市",
      "city_kana": "ナガノシ",
      "town": "鶴賀",
      "town_kana": "ツルガ",
      "street": null,
      "office_name": null,
      "office_name_kana": null
    },
    {
      "postcode": "3800904",
      "prefecture": "長野県",
      "prefecture_kana": "ナガノケン",
      "prefecture_code": 20,
      "city": "長野市",
      "city_kana": "ナガノシ",
      "town": "鶴賀七瀬中町",
      "town_kana": "ツルガナナセナカマチ",
      "street": null,
      "office_name": null,
      "office_name_kana": null
    },
    {
      "postcode": "3800904",
      "prefecture": "長野県",
      "prefecture_kana": "ナガノケン",
      "prefecture_code": 20,
      "city": "長野市",
      "city_kana": "ナガノシ",
      "town": "七瀬中町",
      "town_kana": "ナナセナカマチ",
      "street": null,
      "office_name": null,
      "office_name_kana": null
    }
  ],
  "0905": [
    {
      "postcode": "3800905",
      "prefecture": "長野県",
      "prefecture_kana": "ナガノケン",
      "prefecture_code": 20,
      "city": "長野市",
      "city_kana": "ナガノシ",
      "town": "鶴賀",
      "town_kana": "ツルガ",
      "street": null,
      "office_name": null,
      "office_name_kana": null
    },
    {
      "postcode": "3800905",
      "prefecture": "長野県",
      "prefecture_kana": "ナガノケン",
      "prefecture_code": 20,
      "city": "長野市",
      "city_kana": "ナガノシ",
      "town": "鶴賀七瀬南部",
      "town_kana": "ツルガナナセナンブ",
      "street": null,
      "office_name": null,
      "office_name_kana": null
    },
    {
      "postcode": "3800905",
      "prefecture": "長野県",
      "prefecture_kana": "ナガノケン",
      "prefecture_code": 20,
      "city": "長野市",
      "city_kana": "ナガノシ",
      "town": "七瀬南部",
      "town_kana": "ナナセナンブ",
      "street": null,
      "office_name": null,
      "office_name_kana": null
    }
  ],
  "0906": [
    {
      "postcode": "3800906",
      "prefecture": "長野県",
      "prefecture_kana": "ナガノケン",
      "prefecture_code": 20,
      "city": "長野市",
      "city_kana": "ナガノシ",
      "town": "鶴賀",
      "town_kana": "ツルガ",
      "street": null,
      "office_name": null,
      "office_name_kana": null
    },
    {
      "postcode": "3800906",
      "prefecture": "長野県",
      "prefecture_kana": "ナガノケン",
      "prefecture_code": 20,
      "city": "長野市",
      "city_kana": "ナガノシ",
      "town": "鶴賀七瀬",
      "town_kana": "ツルガナナセ",
      "street": null,
      "office_name": null,
      "office_name_kana": null
    }
  ],
  "0907": {
    "postcode": "3800907",
    "prefecture": "長野県",
    "prefecture_kana": "ナガノケン",
    "prefecture_code": 20,
    "city": "長野市",
    "city_kana": "ナガノシ",
    "town": "鶴賀",
    "town_kana": "ツルガ",
    "street": null,
    "office_name": null,
    "office_name_kana": null
  },
  "0911": {
    "postcode": "3800911",
    "prefecture": "長野県",
    "prefecture_kana": "ナガノケン",
    "prefecture_code": 20,
    "city": "長野市",
    "city_kana": "ナガノシ",
    "town": "稲葉",
    "town_kana": "イナバ",
    "street": null,
    "office_name": null,
    "office_name_kana": null
  },
  "0912": {
    "postcode": "3800912",
    "prefecture": "長野県",
    "prefecture_kana": "ナガノケン",
    "prefecture_code": 20,
    "city": "長野市",
    "city_kana": "ナガノシ",
    "town": "稲葉日詰",
    "town_kana": "イナバヒヅメ",
    "street": null,
    "office_name": null,
    "office_name_kana": null
  },
  "0913": {
    "postcode": "3800913",
    "prefecture": "長野県",
    "prefecture_kana": "ナガノケン",
    "prefecture_code": 20,
    "city": "長野市",
    "city_kana": "ナガノシ",
    "town": "川合新田",
    "town_kana": "カワイシンデン",
    "street": null,
    "office_name": null,
    "office_name_kana": null
  },
  "0914": {
    "postcode": "3800914",
    "prefecture": "長野県",
    "prefecture_kana": "ナガノケン",
    "prefecture_code": 20,
    "city": "長野市",
    "city_kana": "ナガノシ",
    "town": "稲葉母袋",
    "town_kana": "イナバモタイ",
    "street": null,
    "office_name": null,
    "office_name_kana": null
  },
  "0915": {
    "postcode": "3800915",
    "prefecture": "長野県",
    "prefecture_kana": "ナガノケン",
    "prefecture_code": 20,
    "city": "長野市",
    "city_kana": "ナガノシ",
    "town": "稲葉上千田",
    "town_kana": "イナバカミセンダ",
    "street": null,
    "office_name": null,
    "office_name_kana": null
  },
  "0916": {
    "postcode": "3800916",
    "prefecture": "長野県",
    "prefecture_kana": "ナガノケン",
    "prefecture_code": 20,
    "city": "長野市",
    "city_kana": "ナガノシ",
    "town": "稲葉中千田",
    "town_kana": "イナバナカセンダ",
    "street": null,
    "office_name": null,
    "office_name_kana": null
  },
  "0917": {
    "postcode": "3800917",
    "prefecture": "長野県",
    "prefecture_kana": "ナガノケン",
    "prefecture_code": 20,
    "city": "長野市",
    "city_kana": "ナガノシ",
    "town": "稲葉南俣",
    "town_kana": "イナバミナミマタ",
    "street": null,
    "office_name": null,
    "office_name_kana": null
  },
  "0918": {
    "postcode": "3800918",
    "prefecture": "長野県",
    "prefecture_kana": "ナガノケン",
    "prefecture_code": 20,
    "city": "長野市",
    "city_kana": "ナガノシ",
    "town": "アークス",
    "town_kana": "アークス",
    "street": null,
    "office_name": null,
    "office_name_kana": null
  },
  "0921": {
    "postcode": "3800921",
    "prefecture": "長野県",
    "prefecture_kana": "ナガノケン",
    "prefecture_code": 20,
    "city": "長野市",
    "city_kana": "ナガノシ",
    "town": "栗田",
    "town_kana": "クリタ",
    "street": null,
    "office_name": null,
    "office_name_kana": null
  },
  "0922": {
    "postcode": "3800922",
    "prefecture": "長野県",
    "prefecture_kana": "ナガノケン",
    "prefecture_code": 20,
    "city": "長野市",
    "city_kana": "ナガノシ",
    "town": "七瀬",
    "town_kana": "ナナセ",
    "street": null,
    "office_name": null,
    "office_name_kana": null
  },
  "0927": {
    "postcode": "3800927",
    "prefecture": "長野県",
    "prefecture_kana": "ナガノケン",
    "prefecture_code": 20,
    "city": "長野市",
    "city_kana": "ナガノシ",
    "town": "栗田北中",
    "town_kana": "クリタキタナカ",
    "street": null,
    "office_name": null,
    "office_name_kana": null
  },
  "0928": {
    "postcode": "3800928",
    "prefecture": "長野県",
    "prefecture_kana": "ナガノケン",
    "prefecture_code": 20,
    "city": "長野市",
    "city_kana": "ナガノシ",
    "town": "若里",
    "town_kana": "ワカサト",
    "street": null,
    "office_name": null,
    "office_name_kana": null
  },
  "0934": {
    "postcode": "3800934",
    "prefecture": "長野県",
    "prefecture_kana": "ナガノケン",
    "prefecture_code": 20,
    "city": "長野市",
    "city_kana": "ナガノシ",
    "town": "中御所町",
    "town_kana": "ナカゴショマチ",
    "street": null,
    "office_name": null,
    "office_name_kana": null
  },
  "0935": {
    "postcode": "3800935",
    "prefecture": "長野県",
    "prefecture_kana": "ナガノケン",
    "prefecture_code": 20,
    "city": "長野市",
    "city_kana": "ナガノシ",
    "town": "中御所",
    "town_kana": "ナカゴショ",
    "street": null,
    "office_name": null,
    "office_name_kana": null
  },
  "0936": {
    "postcode": "3800936",
    "prefecture": "長野県",
    "prefecture_kana": "ナガノケン",
    "prefecture_code": 20,
    "city": "長野市",
    "city_kana": "ナガノシ",
    "town": "岡田町",
    "town_kana": "オカダマチ",
    "street": null,
    "office_name": null,
    "office_name_kana": null
  },
  "0941": {
    "postcode": "3800941",
    "prefecture": "長野県",
    "prefecture_kana": "ナガノケン",
    "prefecture_code": 20,
    "city": "長野市",
    "city_kana": "ナガノシ",
    "town": "安茂里",
    "town_kana": "アモリ",
    "street": null,
    "office_name": null,
    "office_name_kana": null
  },
  "0942": {
    "postcode": "3800942",
    "prefecture": "長野県",
    "prefecture_kana": "ナガノケン",
    "prefecture_code": 20,
    "city": "長野市",
    "city_kana": "ナガノシ",
    "town": "小柴見",
    "town_kana": "コシバミ",
    "street": null,
    "office_name": null,
    "office_name_kana": null
  },
  "0943": {
    "postcode": "3800943",
    "prefecture": "長野県",
    "prefecture_kana": "ナガノケン",
    "prefecture_code": 20,
    "city": "長野市",
    "city_kana": "ナガノシ",
    "town": "安茂里差出",
    "town_kana": "アモリサシデ",
    "street": null,
    "office_name": null,
    "office_name_kana": null
  },
  "0944": {
    "postcode": "3800944",
    "prefecture": "長野県",
    "prefecture_kana": "ナガノケン",
    "prefecture_code": 20,
    "city": "長野市",
    "city_kana": "ナガノシ",
    "town": "安茂里米村",
    "town_kana": "アモリコメムラ",
    "street": null,
    "office_name": null,
    "office_name_kana": null
  },
  "0945": {
    "postcode": "3800945",
    "prefecture": "長野県",
    "prefecture_kana": "ナガノケン",
    "prefecture_code": 20,
    "city": "長野市",
    "city_kana": "ナガノシ",
    "town": "安茂里杏花台",
    "town_kana": "アモリキョウカダイ",
    "street": null,
    "office_name": null,
    "office_name_kana": null
  },
  "0946": {
    "postcode": "3800946",
    "prefecture": "長野県",
    "prefecture_kana": "ナガノケン",
    "prefecture_code": 20,
    "city": "長野市",
    "city_kana": "ナガノシ",
    "town": "平柴台",
    "town_kana": "ヒラシバダイ",
    "street": null,
    "office_name": null,
    "office_name_kana": null
  },
  "0947": {
    "postcode": "3800947",
    "prefecture": "長野県",
    "prefecture_kana": "ナガノケン",
    "prefecture_code": 20,
    "city": "長野市",
    "city_kana": "ナガノシ",
    "town": "平柴",
    "town_kana": "ヒラシバ",
    "street": null,
    "office_name": null,
    "office_name_kana": null
  },
  "0948": {
    "postcode": "3800948",
    "prefecture": "長野県",
    "prefecture_kana": "ナガノケン",
    "prefecture_code": 20,
    "city": "長野市",
    "city_kana": "ナガノシ",
    "town": "差出南",
    "town_kana": "サシデミナミ",
    "street": null,
    "office_name": null,
    "office_name_kana": null
  },
  "0952": {
    "postcode": "3800952",
    "prefecture": "長野県",
    "prefecture_kana": "ナガノケン",
    "prefecture_code": 20,
    "city": "長野市",
    "city_kana": "ナガノシ",
    "town": "宮沖",
    "town_kana": "ミヤオキ",
    "street": null,
    "office_name": null,
    "office_name_kana": null
  },
  "0953": {
    "postcode": "3800953",
    "prefecture": "長野県",
    "prefecture_kana": "ナガノケン",
    "prefecture_code": 20,
    "city": "長野市",
    "city_kana": "ナガノシ",
    "town": "安茂里犀北",
    "town_kana": "アモリサイホク",
    "street": null,
    "office_name": null,
    "office_name_kana": null
  },
  "0954": {
    "postcode": "3800954",
    "prefecture": "長野県",
    "prefecture_kana": "ナガノケン",
    "prefecture_code": 20,
    "city": "長野市",
    "city_kana": "ナガノシ",
    "town": "安茂里犀北団地",
    "town_kana": "アモリサイホクダンチ",
    "street": null,
    "office_name": null,
    "office_name_kana": null
  },
  "0955": {
    "postcode": "3800955",
    "prefecture": "長野県",
    "prefecture_kana": "ナガノケン",
    "prefecture_code": 20,
    "city": "長野市",
    "city_kana": "ナガノシ",
    "town": "安茂里西河原",
    "town_kana": "アモリニシガワラ",
    "street": null,
    "office_name": null,
    "office_name_kana": null
  },
  "0956": {
    "postcode": "3800956",
    "prefecture": "長野県",
    "prefecture_kana": "ナガノケン",
    "prefecture_code": 20,
    "city": "長野市",
    "city_kana": "ナガノシ",
    "town": "安茂里小路",
    "town_kana": "アモリコウジ",
    "street": null,
    "office_name": null,
    "office_name_kana": null
  },
  "0957": {
    "postcode": "3800957",
    "prefecture": "長野県",
    "prefecture_kana": "ナガノケン",
    "prefecture_code": 20,
    "city": "長野市",
    "city_kana": "ナガノシ",
    "town": "安茂里大門",
    "town_kana": "アモリダイモン",
    "street": null,
    "office_name": null,
    "office_name_kana": null
  },
  "0958": {
    "postcode": "3800958",
    "prefecture": "長野県",
    "prefecture_kana": "ナガノケン",
    "prefecture_code": 20,
    "city": "長野市",
    "city_kana": "ナガノシ",
    "town": "伊勢宮",
    "town_kana": "イセミヤ",
    "street": null,
    "office_name": null,
    "office_name_kana": null
  },
  "0961": {
    "postcode": "3800961",
    "prefecture": "長野県",
    "prefecture_kana": "ナガノケン",
    "prefecture_code": 20,
    "city": "長野市",
    "city_kana": "ナガノシ",
    "town": "安茂里小市",
    "town_kana": "アモリコイチ",
    "street": null,
    "office_name": null,
    "office_name_kana": null
  },
  "8501": {
    "postcode": "3808501",
    "prefecture": "長野県",
    "prefecture_kana": "ナガノケン",
    "prefecture_code": 20,
    "city": "長野市",
    "city_kana": "ナガノシ",
    "town": "大字長野",
    "town_kana": null,
    "street": "元善町４９２",
    "office_name": "善光寺大勧進",
    "office_name_kana": "ゼンコウジダイカンシン"
  },
  "8502": {
    "postcode": "3808502",
    "prefecture": "長野県",
    "prefecture_kana": "ナガノケン",
    "prefecture_code": 20,
    "city": "長野市",
    "city_kana": "ナガノシ",
    "town": "稲葉",
    "town_kana": "イナバ",
    "street": "２１０−２",
    "office_name": "ＮＨＫ　長野放送局",
    "office_name_kana": "エヌエイチケイ ナガノホウソウキヨク"
  },
  "8503": {
    "postcode": "3808503",
    "prefecture": "長野県",
    "prefecture_kana": "ナガノケン",
    "prefecture_code": 20,
    "city": "長野市",
    "city_kana": "ナガノシ",
    "town": "鶴賀",
    "town_kana": "ツルガ",
    "street": "緑町２２１４",
    "office_name": "株式会社　たちばな",
    "office_name_kana": "カブシキガイシヤ タチバナ"
  },
  "8505": {
    "postcode": "3808505",
    "prefecture": "長野県",
    "prefecture_kana": "ナガノケン",
    "prefecture_code": 20,
    "city": "長野市",
    "city_kana": "ナガノシ",
    "town": "",
    "town_kana": "",
    "street": "荒屋１１８０−１",
    "office_name": "大和ハウス工業　株式会社　長野支店",
    "office_name_kana": "ダイワハウスコウギヨウ カブシキガイシヤ ナガノシテン"
  },
  "8506": {
    "postcode": "3808506",
    "prefecture": "長野県",
    "prefecture_kana": "ナガノケン",
    "prefecture_code": 20,
    "city": "長野市",
    "city_kana": "ナガノシ",
    "town": "大字南長野",
    "town_kana": null,
    "street": "南県町１０４０−１日本生命長野県庁前ビル６階",
    "office_name": "社団法人　長野県雇用開発協会",
    "office_name_kana": "シヤダンホウジン ナガノケンコヨウカイハツキヨウカイ"
  },
  "8507": {
    "postcode": "3808507",
    "prefecture": "長野県",
    "prefecture_kana": "ナガノケン",
    "prefecture_code": 20,
    "city": "長野市",
    "city_kana": "ナガノシ",
    "town": "",
    "town_kana": "",
    "street": "荒屋１１５４",
    "office_name": "昭和電機産業　株式会社",
    "office_name_kana": "シヨウワデンキサンギヨウ カブシキガイシヤ"
  },
  "8508": {
    "postcode": "3808508",
    "prefecture": "長野県",
    "prefecture_kana": "ナガノケン",
    "prefecture_code": 20,
    "city": "長野市",
    "city_kana": "ナガノシ",
    "town": "",
    "town_kana": "",
    "street": "南県町１０８１長野東京海上日動ビル",
    "office_name": "東京海上日動火災保険　株式会社　長野支店",
    "office_name_kana": "トウキヨウカイジヨウニチドウカサイホケン カブシキガイシヤ ナガノシテン"
  },
  "8510": {
    "postcode": "3808510",
    "prefecture": "長野県",
    "prefecture_kana": "ナガノケン",
    "prefecture_code": 20,
    "city": "長野市",
    "city_kana": "ナガノシ",
    "town": "大字南長野",
    "town_kana": null,
    "street": "字巾下６９２−２",
    "office_name": "長野県警察本部",
    "office_name_kana": "ナガノケンケイサツホンブ"
  },
  "8511": {
    "postcode": "3808511",
    "prefecture": "長野県",
    "prefecture_kana": "ナガノケン",
    "prefecture_code": 20,
    "city": "長野市",
    "city_kana": "ナガノシ",
    "town": "",
    "town_kana": "",
    "street": "西後町１５８５−２",
    "office_name": "ＮＴＴ　年金医療保険センター",
    "office_name_kana": "エヌテイテイ ネンキンイリヨウホケンセンタ-"
  },
  "8512": {
    "postcode": "3808512",
    "prefecture": "長野県",
    "prefecture_kana": "ナガノケン",
    "prefecture_code": 20,
    "city": "長野市",
    "city_kana": "ナガノシ",
    "town": "大字鶴賀",
    "town_kana": null,
    "street": "緑町１６１３番地",
    "office_name": "長野市役所",
    "office_name_kana": "ナガノシヤクシヨ"
  },
  "8515": {
    "postcode": "3808515",
    "prefecture": "長野県",
    "prefecture_kana": "ナガノケン",
    "prefecture_code": 20,
    "city": "長野市",
    "city_kana": "ナガノシ",
    "town": "上松",
    "town_kana": "ウエマツ",
    "street": "１丁目１６−１２",
    "office_name": "長野県長野高等学校",
    "office_name_kana": "ナガノケンナガノコウトウガツコウ"
  },
  "8516": {
    "postcode": "3808516",
    "prefecture": "長野県",
    "prefecture_kana": "ナガノケン",
    "prefecture_code": 20,
    "city": "長野市",
    "city_kana": "ナガノシ",
    "town": "大字南長野",
    "town_kana": null,
    "street": "末広町１３５８",
    "office_name": "株式会社　丸乙　小林商店",
    "office_name_kana": "カブシキガイシヤ マルオツ コバヤシシヨウテン"
  },
  "8518": {
    "postcode": "3808518",
    "prefecture": "長野県",
    "prefecture_kana": "ナガノケン",
    "prefecture_code": 20,
    "city": "長野市",
    "city_kana": "ナガノシ",
    "town": "三輪",
    "town_kana": "ミワ",
    "street": "２丁目１−８",
    "office_name": "株式会社　トーエネック長野支店",
    "office_name_kana": "カブシキカイシヤ ト-エネツクナガノシテン"
  },
  "8519": {
    "postcode": "3808519",
    "prefecture": "長野県",
    "prefecture_kana": "ナガノケン",
    "prefecture_code": 20,
    "city": "長野市",
    "city_kana": "ナガノシ",
    "town": "",
    "town_kana": "",
    "street": "新田町１１３７−５",
    "office_name": "ＮＴＴ　長野支店",
    "office_name_kana": "エヌ・テイ・テイ ナガノシテン"
  },
  "8520": {
    "postcode": "3808520",
    "prefecture": "長野県",
    "prefecture_kana": "ナガノケン",
    "prefecture_code": 20,
    "city": "長野市",
    "city_kana": "ナガノシ",
    "town": "",
    "town_kana": "",
    "street": "東町１４２",
    "office_name": "株式会社　林",
    "office_name_kana": "カブシキガイシヤ ハヤシ"
  },
  "8521": {
    "postcode": "3808521",
    "prefecture": "長野県",
    "prefecture_kana": "ナガノケン",
    "prefecture_code": 20,
    "city": "長野市",
    "city_kana": "ナガノシ",
    "town": "",
    "town_kana": "",
    "street": "問御所町１２００",
    "office_name": "信越放送　株式会社",
    "office_name_kana": "シンエツホウソウ カブシキガイシヤ"
  },
  "8524": {
    "postcode": "3808524",
    "prefecture": "長野県",
    "prefecture_kana": "ナガノケン",
    "prefecture_code": 20,
    "city": "長野市",
    "city_kana": "ナガノシ",
    "town": "",
    "town_kana": "",
    "street": "県町５２４番地",
    "office_name": "北野建設　株式会社",
    "office_name_kana": "キタノケンセツ カブシキガイシヤ"
  },
  "8525": {
    "postcode": "3808525",
    "prefecture": "長野県",
    "prefecture_kana": "ナガノケン",
    "prefecture_code": 20,
    "city": "長野市",
    "city_kana": "ナガノシ",
    "town": "三輪",
    "town_kana": "ミワ",
    "street": "８丁目４９番７号",
    "office_name": "公立大学法人　長野県立大学",
    "office_name_kana": "コウリツダイガクホウジン ナガノケンリツダイガク"
  },
  "8526": {
    "postcode": "3808526",
    "prefecture": "長野県",
    "prefecture_kana": "ナガノケン",
    "prefecture_code": 20,
    "city": "長野市",
    "city_kana": "ナガノシ",
    "town": "大字南長野",
    "town_kana": null,
    "street": "北石堂町１４２９−１",
    "office_name": "日東都市開発　株式会社　長野事業所",
    "office_name_kana": "ニツトウトシカイハツ カブシキガイシヤ ナガノジギヨウシヨ"
  },
  "8530": {
    "postcode": "3808530",
    "prefecture": "長野県",
    "prefecture_kana": "ナガノケン",
    "prefecture_code": 20,
    "city": "長野市",
    "city_kana": "ナガノシ",
    "town": "箱清水",
    "town_kana": "ハコシミズ",
    "street": "３丁目８−５",
    "office_name": "長野県長野西高等学校",
    "office_name_kana": "ナガノケンナガノニシコウトウガツコウ"
  },
  "8531": {
    "postcode": "3808531",
    "prefecture": "長野県",
    "prefecture_kana": "ナガノケン",
    "prefecture_code": 20,
    "city": "長野市",
    "city_kana": "ナガノシ",
    "town": "柳町",
    "town_kana": "ヤナギマチ",
    "street": "７２−１",
    "office_name": "丸文商事　株式会社",
    "office_name_kana": "マルブンシヨウジ カブシキカイシヤ"
  },
  "8533": {
    "postcode": "3808533",
    "prefecture": "長野県",
    "prefecture_kana": "ナガノケン",
    "prefecture_code": 20,
    "city": "長野市",
    "city_kana": "ナガノシ",
    "town": "大字鶴賀",
    "town_kana": null,
    "street": "南千歳町８７８",
    "office_name": "株式会社　守谷商会",
    "office_name_kana": "カブシキカイシヤ モリヤシヨウカイ"
  },
  "8534": {
    "postcode": "3808534",
    "prefecture": "長野県",
    "prefecture_kana": "ナガノケン",
    "prefecture_code": 20,
    "city": "長野市",
    "city_kana": "ナガノシ",
    "town": "三輪",
    "town_kana": "ミワ",
    "street": "９丁目４３−２４",
    "office_name": "信州ジャスコ　株式会社　長野店",
    "office_name_kana": "シンシユウジヤスコ カブシキガイシヤ ナガノテン"
  },
  "8535": {
    "postcode": "3808535",
    "prefecture": "長野県",
    "prefecture_kana": "ナガノケン",
    "prefecture_code": 20,
    "city": "長野市",
    "city_kana": "ナガノシ",
    "town": "大字鶴賀",
    "town_kana": null,
    "street": "１４５７番地４４",
    "office_name": "長野県　社会保険診療報酬支払基金",
    "office_name_kana": "ナガノケン シヤカイホケンシンリヨウホウシユウシハライキキン"
  },
  "8536": {
    "postcode": "3808536",
    "prefecture": "長野県",
    "prefecture_kana": "ナガノケン",
    "prefecture_code": 20,
    "city": "長野市",
    "city_kana": "ナガノシ",
    "town": "大字鶴賀",
    "town_kana": null,
    "street": "上千歳町１１１２−１",
    "office_name": "株式会社　ＮＴＴドコモ長野支店",
    "office_name_kana": "カブシキガイシヤ エヌテイテイドコモ ナガノシテン"
  },
  "8537": {
    "postcode": "3808537",
    "prefecture": "長野県",
    "prefecture_kana": "ナガノケン",
    "prefecture_code": 20,
    "city": "長野市",
    "city_kana": "ナガノシ",
    "town": "",
    "town_kana": "",
    "street": "南石堂町１２３０−６",
    "office_name": "東日本建設業保証　株式会社　長野支店",
    "office_name_kana": "ヒガシニツポンケンセツギヨウホシヨウ カブシキガイシヤ ナガノシテン"
  },
  "8538": {
    "postcode": "3808538",
    "prefecture": "長野県",
    "prefecture_kana": "ナガノケン",
    "prefecture_code": 20,
    "city": "長野市",
    "city_kana": "ナガノシ",
    "town": "大字西長野",
    "town_kana": null,
    "street": "１９−２１（合同庁舎前）",
    "office_name": "株式会社　帝国データバンク　長野支店",
    "office_name_kana": "カブシキガイシヤ テイコクデ-タバンク ナガノシテン"
  },
  "8539": {
    "postcode": "3808539",
    "prefecture": "長野県",
    "prefecture_kana": "ナガノケン",
    "prefecture_code": 20,
    "city": "長野市",
    "city_kana": "ナガノシ",
    "town": "南千歳",
    "town_kana": "ミナミチトセ",
    "street": "１丁目１−１",
    "office_name": "株式会社　ながの東急百貨店",
    "office_name_kana": "カブシキカイシヤ ナガノトウキユウヒヤツカテン"
  },
  "8540": {
    "postcode": "3808540",
    "prefecture": "長野県",
    "prefecture_kana": "ナガノケン",
    "prefecture_code": 20,
    "city": "長野市",
    "city_kana": "ナガノシ",
    "town": "大字西長野",
    "town_kana": null,
    "street": "２−４カシヨ情報ビル",
    "office_name": "株式会社　ケイシイシイ",
    "office_name_kana": "カブシキカイシヤ ケイシイシイ"
  },
  "8543": {
    "postcode": "3808543",
    "prefecture": "長野県",
    "prefecture_kana": "ナガノケン",
    "prefecture_code": 20,
    "city": "長野市",
    "city_kana": "ナガノシ",
    "town": "南千歳",
    "town_kana": "ミナミチトセ",
    "street": "１丁目２２−６",
    "office_name": "長野ステーションビル　株式会社",
    "office_name_kana": "ナガノステ-シヨンビル カブシキガイシヤ"
  },
  "8544": {
    "postcode": "3808544",
    "prefecture": "長野県",
    "prefecture_kana": "ナガノケン",
    "prefecture_code": 20,
    "city": "長野市",
    "city_kana": "ナガノシ",
    "town": "大字西長野",
    "town_kana": null,
    "street": "６のロ",
    "office_name": "信州大学　教育学部",
    "office_name_kana": "シンシユウダイガク キヨウイクガクブ"
  },
  "8545": {
    "postcode": "3808545",
    "prefecture": "長野県",
    "prefecture_kana": "ナガノケン",
    "prefecture_code": 20,
    "city": "長野市",
    "city_kana": "ナガノシ",
    "town": "",
    "town_kana": "",
    "street": "県町５３２−３",
    "office_name": "財団法人　長野県労働会館",
    "office_name_kana": "ザイダンホウジン ナガノケンロウドウカイカン"
  },
  "8546": {
    "postcode": "3808546",
    "prefecture": "長野県",
    "prefecture_kana": "ナガノケン",
    "prefecture_code": 20,
    "city": "長野市",
    "city_kana": "ナガノシ",
    "town": "大字南長野",
    "town_kana": null,
    "street": "南県町６５７",
    "office_name": "信濃毎日新聞　株式会社",
    "office_name_kana": "シナノマイニチシンブン カブシキガイシヤ"
  },
  "8550": {
    "postcode": "3808550",
    "prefecture": "長野県",
    "prefecture_kana": "ナガノケン",
    "prefecture_code": 20,
    "city": "長野市",
    "city_kana": "ナガノシ",
    "town": "七瀬",
    "town_kana": "ナナセ",
    "street": "４−５",
    "office_name": "長野朝日放送　株式会社",
    "office_name_kana": "ナガノアサヒホウソウ カブシキガイシヤ"
  },
  "8551": {
    "postcode": "3808551",
    "prefecture": "長野県",
    "prefecture_kana": "ナガノケン",
    "prefecture_code": 20,
    "city": "長野市",
    "city_kana": "ナガノシ",
    "town": "大字稲葉",
    "town_kana": null,
    "street": "日詰１４１４",
    "office_name": "長野県酒類販売　株式会社",
    "office_name_kana": "ナガノケンシユルイハンバイ カブシキガイシヤ"
  },
  "8552": {
    "postcode": "3808552",
    "prefecture": "長野県",
    "prefecture_kana": "ナガノケン",
    "prefecture_code": 20,
    "city": "長野市",
    "city_kana": "ナガノシ",
    "town": "アークス",
    "town_kana": "アークス",
    "street": "１２−１２",
    "office_name": "株式会社　夏目",
    "office_name_kana": "カブシキガイシヤ ナツメ"
  },
  "8553": {
    "postcode": "3808553",
    "prefecture": "長野県",
    "prefecture_kana": "ナガノケン",
    "prefecture_code": 20,
    "city": "長野市",
    "city_kana": "ナガノシ",
    "town": "若里",
    "town_kana": "ワカサト",
    "street": "４−１７−１",
    "office_name": "信州大学　工学部",
    "office_name_kana": "シンシユウダイガク コウガクブ"
  },
  "8555": {
    "postcode": "3808555",
    "prefecture": "長野県",
    "prefecture_kana": "ナガノケン",
    "prefecture_code": 20,
    "city": "長野市",
    "city_kana": "ナガノシ",
    "town": "若里",
    "town_kana": "ワカサト",
    "street": "１丁目１−１",
    "office_name": "株式会社　テレビ信州",
    "office_name_kana": "カブシキガイシヤ テレビシンシユウ"
  },
  "8557": {
    "postcode": "3808557",
    "prefecture": "長野県",
    "prefecture_kana": "ナガノケン",
    "prefecture_code": 20,
    "city": "長野市",
    "city_kana": "ナガノシ",
    "town": "",
    "town_kana": "",
    "street": "岡田町１８０−２",
    "office_name": "住友生命保険　相互会社　長野支社",
    "office_name_kana": "スミトモセイメイホケン ソウゴガイシヤ ナガノシシヤ"
  },
  "8558": {
    "postcode": "3808558",
    "prefecture": "長野県",
    "prefecture_kana": "ナガノケン",
    "prefecture_code": 20,
    "city": "長野市",
    "city_kana": "ナガノシ",
    "town": "大字中御所",
    "town_kana": null,
    "street": "岡田町２１５−１日生ビル７階",
    "office_name": "日本信販　株式会社　長野支店",
    "office_name_kana": "ニツポンシンパン カブシキガイシヤ ナガノシテン"
  },
  "8560": {
    "postcode": "3808560",
    "prefecture": "長野県",
    "prefecture_kana": "ナガノケン",
    "prefecture_code": 20,
    "city": "長野市",
    "city_kana": "ナガノシ",
    "town": "アークス",
    "town_kana": "アークス",
    "street": "１４−１２",
    "office_name": "マルナカ通商　株式会社",
    "office_name_kana": "マルナカツウシヨウ カブシキガイシヤ"
  },
  "8561": {
    "postcode": "3808561",
    "prefecture": "長野県",
    "prefecture_kana": "ナガノケン",
    "prefecture_code": 20,
    "city": "長野市",
    "city_kana": "ナガノシ",
    "town": "アークス",
    "town_kana": "アークス",
    "street": "６−１１",
    "office_name": "（株）　ＹＫＫＡＰ長野",
    "office_name_kana": "カブシキガイシヤ ワイケイケイエイピイナガノ"
  },
  "8565": {
    "postcode": "3808565",
    "prefecture": "長野県",
    "prefecture_kana": "ナガノケン",
    "prefecture_code": 20,
    "city": "長野市",
    "city_kana": "ナガノシ",
    "town": "大字稲葉",
    "town_kana": null,
    "street": "中千田２１４２",
    "office_name": "株式会社　長野ダイハツモータース",
    "office_name_kana": "カブシキカイシヤ ナガノダイハツモ-タ-ス"
  },
  "8566": {
    "postcode": "3808566",
    "prefecture": "長野県",
    "prefecture_kana": "ナガノケン",
    "prefecture_code": 20,
    "city": "長野市",
    "city_kana": "ナガノシ",
    "town": "大字中御所",
    "town_kana": null,
    "street": "岡田町１７６",
    "office_name": "第一法規出版　株式会社",
    "office_name_kana": "ダイイチホウキシユツパン カブシキガイシヤ"
  },
  "8567": {
    "postcode": "3808567",
    "prefecture": "長野県",
    "prefecture_kana": "ナガノケン",
    "prefecture_code": 20,
    "city": "長野市",
    "city_kana": "ナガノシ",
    "town": "大字中御所",
    "town_kana": null,
    "street": "岡田町３０−１６",
    "office_name": "社団法人　長野県林業センター",
    "office_name_kana": "シヤダンホウジン ナガノケンリンギヨウセンタ-"
  },
  "8568": {
    "postcode": "3808568",
    "prefecture": "長野県",
    "prefecture_kana": "ナガノケン",
    "prefecture_code": 20,
    "city": "長野市",
    "city_kana": "ナガノシ",
    "town": "大字中御所",
    "town_kana": null,
    "street": "字岡田１７８番地２",
    "office_name": "株式会社　長野バスターミナル",
    "office_name_kana": "カブシキガイシヤ ナガノバスタ-ミナル"
  },
  "8570": {
    "postcode": "3808570",
    "prefecture": "長野県",
    "prefecture_kana": "ナガノケン",
    "prefecture_code": 20,
    "city": "長野市",
    "city_kana": "ナガノシ",
    "town": "大字南長野",
    "town_kana": null,
    "street": "字巾下６９２−２",
    "office_name": "長野県庁",
    "office_name_kana": "ナガノケンチヨウ"
  },
  "8572": {
    "postcode": "3808572",
    "prefecture": "長野県",
    "prefecture_kana": "ナガノケン",
    "prefecture_code": 20,
    "city": "長野市",
    "city_kana": "ナガノシ",
    "town": "中御所",
    "town_kana": "ナカゴショ",
    "street": "１丁目２２−１",
    "office_name": "長野労働局",
    "office_name_kana": "ナガノロウドウキヨク"
  },
  "8573": {
    "postcode": "3808573",
    "prefecture": "長野県",
    "prefecture_kana": "ナガノケン",
    "prefecture_code": 20,
    "city": "長野市",
    "city_kana": "ナガノシ",
    "town": "中御所",
    "town_kana": "ナカゴショ",
    "street": "１丁目２２−１",
    "office_name": "長野労働基準監督署",
    "office_name_kana": "ナガノロウドウキジユンカントクシヨ"
  },
  "8575": {
    "postcode": "3808575",
    "prefecture": "長野県",
    "prefecture_kana": "ナガノケン",
    "prefecture_code": 20,
    "city": "長野市",
    "city_kana": "ナガノシ",
    "town": "大字栗田",
    "town_kana": null,
    "street": "７１５−５",
    "office_name": "中部森林管理局",
    "office_name_kana": "チユウブシンリンカンリキヨク"
  },
  "8576": {
    "postcode": "3808576",
    "prefecture": "長野県",
    "prefecture_kana": "ナガノケン",
    "prefecture_code": 20,
    "city": "長野市",
    "city_kana": "ナガノシ",
    "town": "大字鶴賀",
    "town_kana": null,
    "street": "七瀬中町１６１−１アーバンネット七瀬ビル６Ｆ",
    "office_name": "株式会社　エヌ・ティ・ティ・テレコムエンジニアリング　信越",
    "office_name_kana": "カブシキガイシヤ エヌ.テイ.テイ.テレコムエンジニアリング シンエツ"
  },
  "8577": {
    "postcode": "3808577",
    "prefecture": "長野県",
    "prefecture_kana": "ナガノケン",
    "prefecture_code": 20,
    "city": "長野市",
    "city_kana": "ナガノシ",
    "town": "大字安茂里",
    "town_kana": null,
    "street": "６７１",
    "office_name": "株式会社　協同測量社",
    "office_name_kana": "カブシキガイシヤ キヨウドウソクリヨウシヤ"
  },
  "8580": {
    "postcode": "3808580",
    "prefecture": "長野県",
    "prefecture_kana": "ナガノケン",
    "prefecture_code": 20,
    "city": "長野市",
    "city_kana": "ナガノシ",
    "town": "大字栗田",
    "town_kana": null,
    "street": "舎利田７４７−１２",
    "office_name": "財団法人　郵政福祉　信越地方本部",
    "office_name_kana": "ザイダンホウジン ユウセイフクシ シンエツチホウホンブ"
  },
  "8581": {
    "postcode": "3808581",
    "prefecture": "長野県",
    "prefecture_kana": "ナガノケン",
    "prefecture_code": 20,
    "city": "長野市",
    "city_kana": "ナガノシ",
    "town": "大字稲葉",
    "town_kana": null,
    "street": "上千田沖３１８番地",
    "office_name": "株式会社　インテージテクノスフィア",
    "office_name_kana": "カブシキガイシヤ インテ-ジテクノスフイア"
  },
  "8582": {
    "postcode": "3808582",
    "prefecture": "長野県",
    "prefecture_kana": "ナガノケン",
    "prefecture_code": 20,
    "city": "長野市",
    "city_kana": "ナガノシ",
    "town": "若里",
    "town_kana": "ワカサト",
    "street": "５丁目２２−１",
    "office_name": "長野赤十字病院",
    "office_name_kana": "ナガノセキジユウジビヨウイン"
  },
  "8583": {
    "postcode": "3808583",
    "prefecture": "長野県",
    "prefecture_kana": "ナガノケン",
    "prefecture_code": 20,
    "city": "長野市",
    "city_kana": "ナガノシ",
    "town": "大字南長野",
    "town_kana": null,
    "street": "西後町１５９７−１長野朝日八十二ビル",
    "office_name": "全国健康保険協会　長野支部",
    "office_name_kana": "ゼンコクケンコウホケンキヨウカイ ナガノシブ"
  },
  "8584": {
    "postcode": "3808584",
    "prefecture": "長野県",
    "prefecture_kana": "ナガノケン",
    "prefecture_code": 20,
    "city": "長野市",
    "city_kana": "ナガノシ",
    "town": "大字鶴賀",
    "town_kana": null,
    "street": "高畑７５２−８",
    "office_name": "メルパルク長野（メルパルクナガノ）",
    "office_name_kana": "メルパルクナガノ(メルパルクナガノ)"
  },
  "8585": {
    "postcode": "3808585",
    "prefecture": "長野県",
    "prefecture_kana": "ナガノケン",
    "prefecture_code": 20,
    "city": "長野市",
    "city_kana": "ナガノシ",
    "town": "若里",
    "town_kana": "ワカサト",
    "street": "７丁目１−５",
    "office_name": "社団法人　長野県地域包括医療協議会",
    "office_name_kana": "シヤダンホウジン ナガノケンチイキホウカツイリヨウキヨウギカイ"
  },
  "8586": {
    "postcode": "3808586",
    "prefecture": "長野県",
    "prefecture_kana": "ナガノケン",
    "prefecture_code": 20,
    "city": "長野市",
    "city_kana": "ナガノシ",
    "town": "権堂町",
    "town_kana": "ゴンドウチョウ",
    "street": "２２０１番地",
    "office_name": "長野県　市町村職員共済組合",
    "office_name_kana": "ナガノケン シチヨウソンシヨクインキヨウサイクミアイ"
  },
  "8588": {
    "postcode": "3808588",
    "prefecture": "長野県",
    "prefecture_kana": "ナガノケン",
    "prefecture_code": 20,
    "city": "長野市",
    "city_kana": "ナガノシ",
    "town": "中御所",
    "town_kana": "ナカゴショ",
    "street": "４丁目８−３",
    "office_name": "株式会社　シューマート",
    "office_name_kana": "カブシキガイシヤ シユ-マ-ト"
  },
  "8589": {
    "postcode": "3808589",
    "prefecture": "長野県",
    "prefecture_kana": "ナガノケン",
    "prefecture_code": 20,
    "city": "長野市",
    "city_kana": "ナガノシ",
    "town": "大字栗田",
    "town_kana": null,
    "street": "８０１番地",
    "office_name": "郵便局ビジネスサポート　株式会社　信越地方運用センター",
    "office_name_kana": "ユウビンキヨクビジネスサポ-ト カブシキガイシヤ シンエツチホウウンヨウセンタ-"
  },
  "8601": {
    "postcode": "3808601",
    "prefecture": "長野県",
    "prefecture_kana": "ナガノケン",
    "prefecture_code": 20,
    "city": "長野市",
    "city_kana": "ナガノシ",
    "town": "新田町",
    "town_kana": "シンデンチョウ",
    "street": "１１３７−５ＮＴＴ新田町ビル",
    "office_name": "テルウェル東日本　株式会社　長野支店",
    "office_name_kana": "テルウエルヒガシニツポン カブシキカイシヤ ナガノシテン"
  },
  "8605": {
    "postcode": "3808605",
    "prefecture": "長野県",
    "prefecture_kana": "ナガノケン",
    "prefecture_code": 20,
    "city": "長野市",
    "city_kana": "ナガノシ",
    "town": "大字稲葉",
    "town_kana": null,
    "street": "中千田２０１９−５",
    "office_name": "丸小商事　株式会社",
    "office_name_kana": "マルコシヨウジ カブシキガイシヤ"
  },
  "8608": {
    "postcode": "3808608",
    "prefecture": "長野県",
    "prefecture_kana": "ナガノケン",
    "prefecture_code": 20,
    "city": "長野市",
    "city_kana": "ナガノシ",
    "town": "アークス",
    "town_kana": "アークス",
    "street": "１５−１７",
    "office_name": "株式会社　越前屋",
    "office_name_kana": "カブシキガイシヤ エチゼンヤ"
  },
  "8610": {
    "postcode": "3808610",
    "prefecture": "長野県",
    "prefecture_kana": "ナガノケン",
    "prefecture_code": 20,
    "city": "長野市",
    "city_kana": "ナガノシ",
    "town": "大字稲葉",
    "town_kana": null,
    "street": "９１７",
    "office_name": "カワイ　株式会社",
    "office_name_kana": "カワイ カブシキガイシヤ"
  },
  "8611": {
    "postcode": "3808611",
    "prefecture": "長野県",
    "prefecture_kana": "ナガノケン",
    "prefecture_code": 20,
    "city": "長野市",
    "city_kana": "ナガノシ",
    "town": "大字南長野",
    "town_kana": null,
    "street": "県町５２３（長野中央郵便局私書箱第９０号）",
    "office_name": "長野県　労働金庫",
    "office_name_kana": "ナガノケン ロウドウキンコ"
  },
  "8612": {
    "postcode": "3808612",
    "prefecture": "長野県",
    "prefecture_kana": "ナガノケン",
    "prefecture_code": 20,
    "city": "長野市",
    "city_kana": "ナガノシ",
    "town": "",
    "town_kana": "",
    "street": "随後町６０８−２（長野中央郵便局私書箱第８号）",
    "office_name": "長野税務署",
    "office_name_kana": "ナガノゼイムシヨ"
  },
  "8614": {
    "postcode": "3808614",
    "prefecture": "長野県",
    "prefecture_kana": "ナガノケン",
    "prefecture_code": 20,
    "city": "長野市",
    "city_kana": "ナガノシ",
    "town": "大字南長野",
    "town_kana": null,
    "street": "北石堂町１１７７−３",
    "office_name": "全国農業協同組合連合会　長野県支部",
    "office_name_kana": "ゼンコクノウギヨウキヨウドウクミアイレンゴウカイ ナガノケンシブ"
  },
  "8622": {
    "postcode": "3808622",
    "prefecture": "長野県",
    "prefecture_kana": "ナガノケン",
    "prefecture_code": 20,
    "city": "長野市",
    "city_kana": "ナガノシ",
    "town": "",
    "town_kana": "",
    "street": "南県町１０４１（長野中央郵便局私書箱第６０号）",
    "office_name": "株式会社　新建新聞社",
    "office_name_kana": "カブシキガイシヤ シンケンシンブンシヤ"
  },
  "8625": {
    "postcode": "3808625",
    "prefecture": "長野県",
    "prefecture_kana": "ナガノケン",
    "prefecture_code": 20,
    "city": "長野市",
    "city_kana": "ナガノシ",
    "town": "東鶴賀町",
    "town_kana": "ヒガシツルガマチ",
    "street": "６０番地（長野中央郵便局私書箱第２５号）",
    "office_name": "株式会社　角藤",
    "office_name_kana": "カブシキカイシヤ カクトウ"
  },
  "8630": {
    "postcode": "3808630",
    "prefecture": "長野県",
    "prefecture_kana": "ナガノケン",
    "prefecture_code": 20,
    "city": "長野市",
    "city_kana": "ナガノシ",
    "town": "大字南長野",
    "town_kana": null,
    "street": "字幅下６９２−２県庁工事事務所内",
    "office_name": "鹿島・北野建設共同企業体　長野県庁本館棟耐震改修建築工事事務所",
    "office_name_kana": "カジマ・キタノケンセツキヨウドウキギヨウタイ ナガノケンチヨウホンカントウタイシンカイシユウケンチクコウジジムシヨ"
  },
  "8633": {
    "postcode": "3808633",
    "prefecture": "長野県",
    "prefecture_kana": "ナガノケン",
    "prefecture_code": 20,
    "city": "長野市",
    "city_kana": "ナガノシ",
    "town": "大字中御所",
    "town_kana": null,
    "street": "岡田町１３１−７（長野中央郵便局私書箱第１２号）",
    "office_name": "株式会社　長野放送",
    "office_name_kana": "カブシキガイシヤ ナガノホウソウ"
  },
  "8639": {
    "postcode": "3808639",
    "prefecture": "長野県",
    "prefecture_kana": "ナガノケン",
    "prefecture_code": 20,
    "city": "長野市",
    "city_kana": "ナガノシ",
    "town": "大字南長野",
    "town_kana": null,
    "street": "北石堂町１１７７−３（長野中央郵便局私書箱第５８号）",
    "office_name": "ＪＡ長野共済連",
    "office_name_kana": "ジエイエイナガノキヨウサイレン"
  },
  "8640": {
    "postcode": "3808640",
    "prefecture": "長野県",
    "prefecture_kana": "ナガノケン",
    "prefecture_code": 20,
    "city": "長野市",
    "city_kana": "ナガノシ",
    "town": "大字南長野",
    "town_kana": null,
    "street": "末広町１３６１（長野中央郵便局私書箱第４９号）",
    "office_name": "野村證券　株式会社　長野支店",
    "office_name_kana": "ノムラシヨウケン カブシキガイシヤ ナガノシテン"
  },
  "8648": {
    "postcode": "3808648",
    "prefecture": "長野県",
    "prefecture_kana": "ナガノケン",
    "prefecture_code": 20,
    "city": "長野市",
    "city_kana": "ナガノシ",
    "town": "大字中御所",
    "town_kana": null,
    "street": "２１９−１（長野中央郵便局私書箱第３８号）",
    "office_name": "第一生命保険　株式会社　長野支社",
    "office_name_kana": "ダイイチセイメイホケン カブシキガイシヤ ナガノシシヤ"
  },
  "8655": {
    "postcode": "3808655",
    "prefecture": "長野県",
    "prefecture_kana": "ナガノケン",
    "prefecture_code": 20,
    "city": "長野市",
    "city_kana": "ナガノシ",
    "town": "大字南長野",
    "town_kana": null,
    "street": "南県町１０４０−１（長野中央郵便局私書箱第８５号）",
    "office_name": "日本生命保険　相互会社　長野支社",
    "office_name_kana": "ニホンセイメイホケン ソウゴガイシヤ ナガノシシヤ"
  },
  "8660": {
    "postcode": "3808660",
    "prefecture": "長野県",
    "prefecture_kana": "ナガノケン",
    "prefecture_code": 20,
    "city": "長野市",
    "city_kana": "ナガノシ",
    "town": "中御所",
    "town_kana": "ナカゴショ",
    "street": "３丁目２−５（長野中央郵便局私書箱第１２２号）",
    "office_name": "ＮＴＴ信越情報システムセンター",
    "office_name_kana": "エヌテイテイシンエツジヨウホウシステムセンタ-"
  },
  "8666": {
    "postcode": "3808666",
    "prefecture": "長野県",
    "prefecture_kana": "ナガノケン",
    "prefecture_code": 20,
    "city": "長野市",
    "city_kana": "ナガノシ",
    "town": "柳町",
    "town_kana": "ヤナギマチ",
    "street": "１８（長野中央郵便局私書箱第４２号）",
    "office_name": "中部電力　株式会社　長野支店",
    "office_name_kana": "チユウブデンリヨク カブシキガイシヤ ナガノシテン"
  },
  "8668": {
    "postcode": "3808668",
    "prefecture": "長野県",
    "prefecture_kana": "ナガノケン",
    "prefecture_code": 20,
    "city": "長野市",
    "city_kana": "ナガノシ",
    "town": "大字南長野",
    "town_kana": null,
    "street": "新田町１１０３−１（長野中央郵便局私書箱第７０号）",
    "office_name": "長野県　信用組合",
    "office_name_kana": "ナガノケン シンヨウクミアイ"
  },
  "8677": {
    "postcode": "3808677",
    "prefecture": "長野県",
    "prefecture_kana": "ナガノケン",
    "prefecture_code": 20,
    "city": "長野市",
    "city_kana": "ナガノシ",
    "town": "岡田町",
    "town_kana": "オカダマチ",
    "street": "１２６−１０（長野中央郵便局私書箱第７７号）",
    "office_name": "日本年金機構　長野南年金事務所",
    "office_name_kana": "ニツポンネンキンキコウ ナガノミナミネンキンジムシヨ"
  },
  "8682": {
    "postcode": "3808682",
    "prefecture": "長野県",
    "prefecture_kana": "ナガノケン",
    "prefecture_code": 20,
    "city": "長野市",
    "city_kana": "ナガノシ",
    "town": "大字中御所",
    "town_kana": null,
    "street": "字岡田１７８−８（長野中央郵便局私書箱第１号）",
    "office_name": "株式会社　八十二銀行",
    "office_name_kana": "カブシキガイシヤ ハチジユウニギンコウ"
  },
  "8686": {
    "postcode": "3808686",
    "prefecture": "長野県",
    "prefecture_kana": "ナガノケン",
    "prefecture_code": 20,
    "city": "長野市",
    "city_kana": "ナガノシ",
    "town": "居町",
    "town_kana": "イマチ",
    "street": "１３３−１（長野中央郵便局私書箱第２４号）",
    "office_name": "長野信用金庫",
    "office_name_kana": "ナガノシンヨウキンコ"
  },
  "8688": {
    "postcode": "3808688",
    "prefecture": "長野県",
    "prefecture_kana": "ナガノケン",
    "prefecture_code": 20,
    "city": "長野市",
    "city_kana": "ナガノシ",
    "town": "大字鶴賀",
    "town_kana": null,
    "street": "南千歳町１００５（長野中央郵便局私書箱第１７号）",
    "office_name": "東京法令出版　株式会社",
    "office_name_kana": "トウキヨウホウレイシユツパン カブシキガイシヤ"
  },
  "8710": {
    "postcode": "3808710",
    "prefecture": "長野県",
    "prefecture_kana": "ナガノケン",
    "prefecture_code": 20,
    "city": "長野市",
    "city_kana": "ナガノシ",
    "town": "立町",
    "town_kana": "タツマチ",
    "street": "９７８−２",
    "office_name": "全労済　長野県本部",
    "office_name_kana": "ゼンロウサイ ナガノケンホンブ"
  },
  "8794": {
    "postcode": "3808794",
    "prefecture": "長野県",
    "prefecture_kana": "ナガノケン",
    "prefecture_code": 20,
    "city": "長野市",
    "city_kana": "ナガノシ",
    "town": "",
    "town_kana": "",
    "street": "緑町１６５７−１",
    "office_name": "長野貯金事務センター",
    "office_name_kana": "ナガノチヨキンジムセンタ-"
  },
  "8795": {
    "postcode": "3808795",
    "prefecture": "長野県",
    "prefecture_kana": "ナガノケン",
    "prefecture_code": 20,
    "city": "長野市",
    "city_kana": "ナガノシ",
    "town": "",
    "town_kana": "",
    "street": "旭町１１０８長野第一合同庁舎",
    "office_name": "信越総合通信局",
    "office_name_kana": "シンエツソウゴウツウシンキヨク"
  },
  "8796": {
    "postcode": "3808796",
    "prefecture": "長野県",
    "prefecture_kana": "ナガノケン",
    "prefecture_code": 20,
    "city": "長野市",
    "city_kana": "ナガノシ",
    "town": "大字栗田",
    "town_kana": null,
    "street": "８０１",
    "office_name": "信越監査室",
    "office_name_kana": "シンエツカンサシツ"
  },
  "8797": [
    {
      "postcode": "3808797",
      "prefecture": "長野県",
      "prefecture_kana": "ナガノケン",
      "prefecture_code": 20,
      "city": "長野市",
      "city_kana": "ナガノシ",
      "town": "大字栗田",
      "town_kana": null,
      "street": "８０１",
      "office_name": "株式会社　ゆうちょ銀行　長野支店",
      "office_name_kana": "カブシキカイシヤ ユウチヨギンコウ ナガノシテン"
    },
    {
      "postcode": "3808797",
      "prefecture": "長野県",
      "prefecture_kana": "ナガノケン",
      "prefecture_code": 20,
      "city": "長野市",
      "city_kana": "ナガノシ",
      "town": "大字栗田",
      "town_kana": null,
      "street": "８０１",
      "office_name": "株式会社　かんぽ生命　長野支店",
      "office_name_kana": "カブシキガイシヤ カンポセイメイ ナガノシテン"
    },
    {
      "postcode": "3808797",
      "prefecture": "長野県",
      "prefecture_kana": "ナガノケン",
      "prefecture_code": 20,
      "city": "長野市",
      "city_kana": "ナガノシ",
      "town": "大字栗田",
      "town_kana": null,
      "street": "８０１",
      "office_name": "日本郵便　株式会社　信越支社",
      "office_name_kana": "ニホンユウビン カブシキガイシヤ シンエツシシヤ"
    }
  ],
  "8798": {
    "postcode": "3808798",
    "prefecture": "長野県",
    "prefecture_kana": "ナガノケン",
    "prefecture_code": 20,
    "city": "長野市",
    "city_kana": "ナガノシ",
    "town": "大字栗田",
    "town_kana": null,
    "street": "７５２−１",
    "office_name": "信越郵政研修センター",
    "office_name_kana": "シンエツユウセイケンシユウセンタ-"
  }
}