{
  "0000": {
    "postcode": "3830000",
    "prefecture": "長野県",
    "prefecture_kana": "ナガノケン",
    "prefecture_code": 20,
    "city": "中野市",
    "city_kana": "ナカノシ",
    "town": "",
    "town_kana": "",
    "street": null,
    "office_name": null,
    "office_name_kana": null
  },
  "0001": {
    "postcode": "3830001",
    "prefecture": "長野県",
    "prefecture_kana": "ナガノケン",
    "prefecture_code": 20,
    "city": "中野市",
    "city_kana": "ナカノシ",
    "town": "岩井",
    "town_kana": "イワイ",
    "street": null,
    "office_name": null,
    "office_name_kana": null
  },
  "0002": {
    "postcode": "3830002",
    "prefecture": "長野県",
    "prefecture_kana": "ナガノケン",
    "prefecture_code": 20,
    "city": "中野市",
    "city_kana": "ナカノシ",
    "town": "田上",
    "town_kana": "タガミ",
    "street": null,
    "office_name": null,
    "office_name_kana": null
  },
  "0003": {
    "postcode": "3830003",
    "prefecture": "長野県",
    "prefecture_kana": "ナガノケン",
    "prefecture_code": 20,
    "city": "中野市",
    "city_kana": "ナカノシ",
    "town": "柳沢",
    "town_kana": "ヤナギサワ",
    "street": null,
    "office_name": null,
    "office_name_kana": null
  },
  "0004": {
    "postcode": "3830004",
    "prefecture": "長野県",
    "prefecture_kana": "ナガノケン",
    "prefecture_code": 20,
    "city": "中野市",
    "city_kana": "ナカノシ",
    "town": "赤岩",
    "town_kana": "アカイワ",
    "street": null,
    "office_name": null,
    "office_name_kana": null
  },
  "0005": {
    "postcode": "3830005",
    "prefecture": "長野県",
    "prefecture_kana": "ナガノケン",
    "prefecture_code": 20,
    "city": "中野市",
    "city_kana": "ナカノシ",
    "town": "越",
    "town_kana": "コシ",
    "street": null,
    "office_name": null,
    "office_name_kana": null
  },
  "0006": {
    "postcode": "3830006",
    "prefecture": "長野県",
    "prefecture_kana": "ナガノケン",
    "prefecture_code": 20,
    "city": "中野市",
    "city_kana": "ナカノシ",
    "town": "深沢",
    "town_kana": "フカサワ",
    "street": null,
    "office_name": null,
    "office_name_kana": null
  },
  "0007": {
    "postcode": "3830007",
    "prefecture": "長野県",
    "prefecture_kana": "ナガノケン",
    "prefecture_code": 20,
    "city": "中野市",
    "city_kana": "ナカノシ",
    "town": "竹原",
    "town_kana": "タケハラ",
    "street": null,
    "office_name": null,
    "office_name_kana": null
  },
  "0008": {
    "postcode": "3830008",
    "prefecture": "長野県",
    "prefecture_kana": "ナガノケン",
    "prefecture_code": 20,
    "city": "中野市",
    "city_kana": "ナカノシ",
    "town": "金井",
    "town_kana": "カナイ",
    "street": null,
    "office_name": null,
    "office_name_kana": null
  },
  "0011": {
    "postcode": "3830011",
    "prefecture": "長野県",
    "prefecture_kana": "ナガノケン",
    "prefecture_code": 20,
    "city": "中野市",
    "city_kana": "ナカノシ",
    "town": "若宮",
    "town_kana": "ワカミヤ",
    "street": null,
    "office_name": null,
    "office_name_kana": null
  },
  "0012": {
    "postcode": "3830012",
    "prefecture": "長野県",
    "prefecture_kana": "ナガノケン",
    "prefecture_code": 20,
    "city": "中野市",
    "city_kana": "ナカノシ",
    "town": "一本木",
    "town_kana": "イッポンギ",
    "street": null,
    "office_name": null,
    "office_name_kana": null
  },
  "0013": {
    "postcode": "3830013",
    "prefecture": "長野県",
    "prefecture_kana": "ナガノケン",
    "prefecture_code": 20,
    "city": "中野市",
    "city_kana": "ナカノシ",
    "town": "中野",
    "town_kana": "ナカノ",
    "street": null,
    "office_name": null,
    "office_name_kana": null
  },
  "0014": {
    "postcode": "3830014",
    "prefecture": "長野県",
    "prefecture_kana": "ナガノケン",
    "prefecture_code": 20,
    "city": "中野市",
    "city_kana": "ナカノシ",
    "town": "諏訪町",
    "town_kana": "スワチョウ",
    "street": null,
    "office_name": null,
    "office_name_kana": null
  },
  "0015": {
    "postcode": "3830015",
    "prefecture": "長野県",
    "prefecture_kana": "ナガノケン",
    "prefecture_code": 20,
    "city": "中野市",
    "city_kana": "ナカノシ",
    "town": "吉田",
    "town_kana": "ヨシダ",
    "street": null,
    "office_name": null,
    "office_name_kana": null
  },
  "0021": {
    "postcode": "3830021",
    "prefecture": "長野県",
    "prefecture_kana": "ナガノケン",
    "prefecture_code": 20,
    "city": "中野市",
    "city_kana": "ナカノシ",
    "town": "西",
    "town_kana": "ニシ",
    "street": null,
    "office_name": null,
    "office_name_kana": null
  },
  "0022": {
    "postcode": "3830022",
    "prefecture": "長野県",
    "prefecture_kana": "ナガノケン",
    "prefecture_code": 20,
    "city": "中野市",
    "city_kana": "ナカノシ",
    "town": "中央",
    "town_kana": "チュウオウ",
    "street": null,
    "office_name": null,
    "office_name_kana": null
  },
  "0023": {
    "postcode": "3830023",
    "prefecture": "長野県",
    "prefecture_kana": "ナガノケン",
    "prefecture_code": 20,
    "city": "中野市",
    "city_kana": "ナカノシ",
    "town": "小舘",
    "town_kana": "オタテ",
    "street": null,
    "office_name": null,
    "office_name_kana": null
  },
  "0024": {
    "postcode": "3830024",
    "prefecture": "長野県",
    "prefecture_kana": "ナガノケン",
    "prefecture_code": 20,
    "city": "中野市",
    "city_kana": "ナカノシ",
    "town": "東山",
    "town_kana": "ヒガシヤマ",
    "street": null,
    "office_name": null,
    "office_name_kana": null
  },
  "0025": {
    "postcode": "3830025",
    "prefecture": "長野県",
    "prefecture_kana": "ナガノケン",
    "prefecture_code": 20,
    "city": "中野市",
    "city_kana": "ナカノシ",
    "town": "三好町",
    "town_kana": "ミヨシチョウ",
    "street": null,
    "office_name": null,
    "office_name_kana": null
  },
  "0031": {
    "postcode": "3830031",
    "prefecture": "長野県",
    "prefecture_kana": "ナガノケン",
    "prefecture_code": 20,
    "city": "中野市",
    "city_kana": "ナカノシ",
    "town": "南宮",
    "town_kana": "ナングウ",
    "street": null,
    "office_name": null,
    "office_name_kana": null
  },
  "0032": {
    "postcode": "3830032",
    "prefecture": "長野県",
    "prefecture_kana": "ナガノケン",
    "prefecture_code": 20,
    "city": "中野市",
    "city_kana": "ナカノシ",
    "town": "更科",
    "town_kana": "サラシナ",
    "street": null,
    "office_name": null,
    "office_name_kana": null
  },
  "0033": {
    "postcode": "3830033",
    "prefecture": "長野県",
    "prefecture_kana": "ナガノケン",
    "prefecture_code": 20,
    "city": "中野市",
    "city_kana": "ナカノシ",
    "town": "間山",
    "town_kana": "マヤマ",
    "street": null,
    "office_name": null,
    "office_name_kana": null
  },
  "0034": {
    "postcode": "3830034",
    "prefecture": "長野県",
    "prefecture_kana": "ナガノケン",
    "prefecture_code": 20,
    "city": "中野市",
    "city_kana": "ナカノシ",
    "town": "新野",
    "town_kana": "シンノ",
    "street": null,
    "office_name": null,
    "office_name_kana": null
  },
  "0035": {
    "postcode": "3830035",
    "prefecture": "長野県",
    "prefecture_kana": "ナガノケン",
    "prefecture_code": 20,
    "city": "中野市",
    "city_kana": "ナカノシ",
    "town": "篠井",
    "town_kana": "シノイ",
    "street": null,
    "office_name": null,
    "office_name_kana": null
  },
  "0036": {
    "postcode": "3830036",
    "prefecture": "長野県",
    "prefecture_kana": "ナガノケン",
    "prefecture_code": 20,
    "city": "中野市",
    "city_kana": "ナカノシ",
    "town": "新保",
    "town_kana": "シンボ",
    "street": null,
    "office_name": null,
    "office_name_kana": null
  },
  "0037": {
    "postcode": "3830037",
    "prefecture": "長野県",
    "prefecture_kana": "ナガノケン",
    "prefecture_code": 20,
    "city": "中野市",
    "city_kana": "ナカノシ",
    "town": "小田中",
    "town_kana": "コダナカ",
    "street": null,
    "office_name": null,
    "office_name_kana": null
  },
  "0041": {
    "postcode": "3830041",
    "prefecture": "長野県",
    "prefecture_kana": "ナガノケン",
    "prefecture_code": 20,
    "city": "中野市",
    "city_kana": "ナカノシ",
    "town": "岩船",
    "town_kana": "イワフネ",
    "street": null,
    "office_name": null,
    "office_name_kana": null
  },
  "0042": {
    "postcode": "3830042",
    "prefecture": "長野県",
    "prefecture_kana": "ナガノケン",
    "prefecture_code": 20,
    "city": "中野市",
    "city_kana": "ナカノシ",
    "town": "西条",
    "town_kana": "ニシジョウ",
    "street": null,
    "office_name": null,
    "office_name_kana": null
  },
  "0043": {
    "postcode": "3830043",
    "prefecture": "長野県",
    "prefecture_kana": "ナガノケン",
    "prefecture_code": 20,
    "city": "中野市",
    "city_kana": "ナカノシ",
    "town": "三ツ和",
    "town_kana": "ミツワ",
    "street": null,
    "office_name": null,
    "office_name_kana": null
  },
  "0044": {
    "postcode": "3830044",
    "prefecture": "長野県",
    "prefecture_kana": "ナガノケン",
    "prefecture_code": 20,
    "city": "中野市",
    "city_kana": "ナカノシ",
    "town": "桜沢",
    "town_kana": "サクラサワ",
    "street": null,
    "office_name": null,
    "office_name_kana": null
  },
  "0045": {
    "postcode": "3830045",
    "prefecture": "長野県",
    "prefecture_kana": "ナガノケン",
    "prefecture_code": 20,
    "city": "中野市",
    "city_kana": "ナカノシ",
    "town": "江部",
    "town_kana": "エベ",
    "street": null,
    "office_name": null,
    "office_name_kana": null
  },
  "0046": {
    "postcode": "3830046",
    "prefecture": "長野県",
    "prefecture_kana": "ナガノケン",
    "prefecture_code": 20,
    "city": "中野市",
    "city_kana": "ナカノシ",
    "town": "片塩",
    "town_kana": "カタシオ",
    "street": null,
    "office_name": null,
    "office_name_kana": null
  },
  "0051": {
    "postcode": "3830051",
    "prefecture": "長野県",
    "prefecture_kana": "ナガノケン",
    "prefecture_code": 20,
    "city": "中野市",
    "city_kana": "ナカノシ",
    "town": "七瀬",
    "town_kana": "ナナセ",
    "street": null,
    "office_name": null,
    "office_name_kana": null
  },
  "0052": {
    "postcode": "3830052",
    "prefecture": "長野県",
    "prefecture_kana": "ナガノケン",
    "prefecture_code": 20,
    "city": "中野市",
    "city_kana": "ナカノシ",
    "town": "安源寺",
    "town_kana": "アンゲンジ",
    "street": null,
    "office_name": null,
    "office_name_kana": null
  },
  "0053": {
    "postcode": "3830053",
    "prefecture": "長野県",
    "prefecture_kana": "ナガノケン",
    "prefecture_code": 20,
    "city": "中野市",
    "city_kana": "ナカノシ",
    "town": "草間",
    "town_kana": "クサマ",
    "street": null,
    "office_name": null,
    "office_name_kana": null
  },
  "0054": {
    "postcode": "3830054",
    "prefecture": "長野県",
    "prefecture_kana": "ナガノケン",
    "prefecture_code": 20,
    "city": "中野市",
    "city_kana": "ナカノシ",
    "town": "立ケ花",
    "town_kana": "タテガハナ",
    "street": null,
    "office_name": null,
    "office_name_kana": null
  },
  "0055": {
    "postcode": "3830055",
    "prefecture": "長野県",
    "prefecture_kana": "ナガノケン",
    "prefecture_code": 20,
    "city": "中野市",
    "city_kana": "ナカノシ",
    "town": "牛出",
    "town_kana": "ウシイデ",
    "street": null,
    "office_name": null,
    "office_name_kana": null
  },
  "0056": {
    "postcode": "3830056",
    "prefecture": "長野県",
    "prefecture_kana": "ナガノケン",
    "prefecture_code": 20,
    "city": "中野市",
    "city_kana": "ナカノシ",
    "town": "栗林",
    "town_kana": "クリバヤシ",
    "street": null,
    "office_name": null,
    "office_name_kana": null
  },
  "0057": {
    "postcode": "3830057",
    "prefecture": "長野県",
    "prefecture_kana": "ナガノケン",
    "prefecture_code": 20,
    "city": "中野市",
    "city_kana": "ナカノシ",
    "town": "大俣",
    "town_kana": "オオマタ",
    "street": null,
    "office_name": null,
    "office_name_kana": null
  },
  "0061": {
    "postcode": "3830061",
    "prefecture": "長野県",
    "prefecture_kana": "ナガノケン",
    "prefecture_code": 20,
    "city": "中野市",
    "city_kana": "ナカノシ",
    "town": "壁田",
    "town_kana": "ヘキダ",
    "street": null,
    "office_name": null,
    "office_name_kana": null
  },
  "0062": {
    "postcode": "3830062",
    "prefecture": "長野県",
    "prefecture_kana": "ナガノケン",
    "prefecture_code": 20,
    "city": "中野市",
    "city_kana": "ナカノシ",
    "town": "笠原",
    "town_kana": "カサハラ",
    "street": null,
    "office_name": null,
    "office_name_kana": null
  },
  "0063": {
    "postcode": "3830063",
    "prefecture": "長野県",
    "prefecture_kana": "ナガノケン",
    "prefecture_code": 20,
    "city": "中野市",
    "city_kana": "ナカノシ",
    "town": "間長瀬",
    "town_kana": "マナガセ",
    "street": null,
    "office_name": null,
    "office_name_kana": null
  },
  "0064": {
    "postcode": "3830064",
    "prefecture": "長野県",
    "prefecture_kana": "ナガノケン",
    "prefecture_code": 20,
    "city": "中野市",
    "city_kana": "ナカノシ",
    "town": "新井",
    "town_kana": "アライ",
    "street": null,
    "office_name": null,
    "office_name_kana": null
  },
  "0065": {
    "postcode": "3830065",
    "prefecture": "長野県",
    "prefecture_kana": "ナガノケン",
    "prefecture_code": 20,
    "city": "中野市",
    "city_kana": "ナカノシ",
    "town": "田麦",
    "town_kana": "タムギ",
    "street": null,
    "office_name": null,
    "office_name_kana": null
  },
  "0066": {
    "postcode": "3830066",
    "prefecture": "長野県",
    "prefecture_kana": "ナガノケン",
    "prefecture_code": 20,
    "city": "中野市",
    "city_kana": "ナカノシ",
    "town": "厚貝",
    "town_kana": "アッカイ",
    "street": null,
    "office_name": null,
    "office_name_kana": null
  },
  "8501": {
    "postcode": "3838501",
    "prefecture": "長野県",
    "prefecture_kana": "ナガノケン",
    "prefecture_code": 20,
    "city": "中野市",
    "city_kana": "ナカノシ",
    "town": "大字栗林",
    "town_kana": null,
    "street": "８３",
    "office_name": "有限会社　小林果樹園",
    "office_name_kana": "ユウゲンガイシヤ コバヤシカジユエン"
  },
  "8505": {
    "postcode": "3838505",
    "prefecture": "長野県",
    "prefecture_kana": "ナガノケン",
    "prefecture_code": 20,
    "city": "中野市",
    "city_kana": "ナカノシ",
    "town": "西",
    "town_kana": "ニシ",
    "street": "１丁目５番６３号",
    "office_name": "ＪＡ　長野厚生連　北信総合病院",
    "office_name_kana": "ジエイエイ ナガノコウセイレン ホクシンソウゴウビヨウイン"
  },
  "8511": {
    "postcode": "3838511",
    "prefecture": "長野県",
    "prefecture_kana": "ナガノケン",
    "prefecture_code": 20,
    "city": "中野市",
    "city_kana": "ナカノシ",
    "town": "大字西条",
    "town_kana": null,
    "street": "５４４−１",
    "office_name": "長野県　中野西高等学校",
    "office_name_kana": "ナガノケン ナカノニシコウトウガツコウ"
  },
  "8515": {
    "postcode": "3838515",
    "prefecture": "長野県",
    "prefecture_kana": "ナガノケン",
    "prefecture_code": 20,
    "city": "中野市",
    "city_kana": "ナカノシ",
    "town": "大字壁田",
    "town_kana": null,
    "street": "９５５",
    "office_name": "長野県　北信合同庁舎",
    "office_name_kana": "ナガノケン ホクシンゴウドウチヨウシヤ"
  },
  "8555": {
    "postcode": "3838555",
    "prefecture": "長野県",
    "prefecture_kana": "ナガノケン",
    "prefecture_code": 20,
    "city": "中野市",
    "city_kana": "ナカノシ",
    "town": "大字吉田",
    "town_kana": null,
    "street": "１０８１",
    "office_name": "株式会社　コシナ",
    "office_name_kana": "カブシキガイシヤ コシナ"
  },
  "8567": {
    "postcode": "3838567",
    "prefecture": "長野県",
    "prefecture_kana": "ナガノケン",
    "prefecture_code": 20,
    "city": "中野市",
    "city_kana": "ナカノシ",
    "town": "三好町",
    "town_kana": "ミヨシチョウ",
    "street": "２丁目１−５３",
    "office_name": "長野県　中野立志館高等学校",
    "office_name_kana": "ナガノケン ナカノリツシカンコウトウガツコウ"
  },
  "8581": {
    "postcode": "3838581",
    "prefecture": "長野県",
    "prefecture_kana": "ナガノケン",
    "prefecture_code": 20,
    "city": "中野市",
    "city_kana": "ナカノシ",
    "town": "大字草間",
    "town_kana": null,
    "street": "１２１６−９",
    "office_name": "新光電気工業　株式会社　高丘工場",
    "office_name_kana": "シンコウデンキコウギヨウ カブシキガイシヤ タカオカコウジヨウ"
  },
  "8585": {
    "postcode": "3838585",
    "prefecture": "長野県",
    "prefecture_kana": "ナガノケン",
    "prefecture_code": 20,
    "city": "中野市",
    "city_kana": "ナカノシ",
    "town": "大字岩船",
    "town_kana": null,
    "street": "３３０−２",
    "office_name": "株式会社　タカギセイコー",
    "office_name_kana": "カブシキガイシヤ タカギセイコ-"
  },
  "8588": {
    "postcode": "3838588",
    "prefecture": "長野県",
    "prefecture_kana": "ナガノケン",
    "prefecture_code": 20,
    "city": "中野市",
    "city_kana": "ナカノシ",
    "town": "三好町",
    "town_kana": "ミヨシチョウ",
    "street": "１丁目２−８",
    "office_name": "中野市農業協同組合",
    "office_name_kana": "ナカノシノウギヨウキヨウドウクミアイ"
  },
  "8614": {
    "postcode": "3838614",
    "prefecture": "長野県",
    "prefecture_kana": "ナガノケン",
    "prefecture_code": 20,
    "city": "中野市",
    "city_kana": "ナカノシ",
    "town": "三好町",
    "town_kana": "ミヨシチョウ",
    "street": "１丁目３−１９（信州中野郵便局私書箱第１４号）",
    "office_name": "中野市役所",
    "office_name_kana": "ナカノシヤクシヨ"
  },
  "8686": {
    "postcode": "3838686",
    "prefecture": "長野県",
    "prefecture_kana": "ナガノケン",
    "prefecture_code": 20,
    "city": "中野市",
    "city_kana": "ナカノシ",
    "town": "中央",
    "town_kana": "チュウオウ",
    "street": "１丁目５−２０（信州中野郵便局私書箱第１０号）",
    "office_name": "信濃中野税務署",
    "office_name_kana": "シナノナカノゼイムシヨ"
  }
}