{
  "0000": {
    "postcode": "3840000",
    "prefecture": "長野県",
    "prefecture_kana": "ナガノケン",
    "prefecture_code": 20,
    "city": "小諸市",
    "city_kana": "コモロシ",
    "town": "",
    "town_kana": "",
    "street": null,
    "office_name": null,
    "office_name_kana": null
  },
  "0001": {
    "postcode": "3840001",
    "prefecture": "長野県",
    "prefecture_kana": "ナガノケン",
    "prefecture_code": 20,
    "city": "小諸市",
    "city_kana": "コモロシ",
    "town": "小原",
    "town_kana": "コバラ",
    "street": null,
    "office_name": null,
    "office_name_kana": null
  },
  "0002": {
    "postcode": "3840002",
    "prefecture": "長野県",
    "prefecture_kana": "ナガノケン",
    "prefecture_code": 20,
    "city": "小諸市",
    "city_kana": "コモロシ",
    "town": "唐松",
    "town_kana": "カラマツ",
    "street": null,
    "office_name": null,
    "office_name_kana": null
  },
  "0003": {
    "postcode": "3840003",
    "prefecture": "長野県",
    "prefecture_kana": "ナガノケン",
    "prefecture_code": 20,
    "city": "小諸市",
    "city_kana": "コモロシ",
    "town": "東山",
    "town_kana": "ヒガシヤマ",
    "street": null,
    "office_name": null,
    "office_name_kana": null
  },
  "0004": {
    "postcode": "3840004",
    "prefecture": "長野県",
    "prefecture_kana": "ナガノケン",
    "prefecture_code": 20,
    "city": "小諸市",
    "city_kana": "コモロシ",
    "town": "乙女",
    "town_kana": "オトメ",
    "street": null,
    "office_name": null,
    "office_name_kana": null
  },
  "0005": {
    "postcode": "3840005",
    "prefecture": "長野県",
    "prefecture_kana": "ナガノケン",
    "prefecture_code": 20,
    "city": "小諸市",
    "city_kana": "コモロシ",
    "town": "御幸町",
    "town_kana": "ミユキチョウ",
    "street": null,
    "office_name": null,
    "office_name_kana": null
  },
  "0006": {
    "postcode": "3840006",
    "prefecture": "長野県",
    "prefecture_kana": "ナガノケン",
    "prefecture_code": 20,
    "city": "小諸市",
    "city_kana": "コモロシ",
    "town": "与良町",
    "town_kana": "ヨラマチ",
    "street": null,
    "office_name": null,
    "office_name_kana": null
  },
  "0007": {
    "postcode": "3840007",
    "prefecture": "長野県",
    "prefecture_kana": "ナガノケン",
    "prefecture_code": 20,
    "city": "小諸市",
    "city_kana": "コモロシ",
    "town": "鶴巻",
    "town_kana": "ツルマキ",
    "street": null,
    "office_name": null,
    "office_name_kana": null
  },
  "0008": {
    "postcode": "3840008",
    "prefecture": "長野県",
    "prefecture_kana": "ナガノケン",
    "prefecture_code": 20,
    "city": "小諸市",
    "city_kana": "コモロシ",
    "town": "東小諸",
    "town_kana": "ヒガシコモロ",
    "street": null,
    "office_name": null,
    "office_name_kana": null
  },
  "0011": {
    "postcode": "3840011",
    "prefecture": "長野県",
    "prefecture_kana": "ナガノケン",
    "prefecture_code": 20,
    "city": "小諸市",
    "city_kana": "コモロシ",
    "town": "赤坂",
    "town_kana": "アカサカ",
    "street": null,
    "office_name": null,
    "office_name_kana": null
  },
  "0012": {
    "postcode": "3840012",
    "prefecture": "長野県",
    "prefecture_kana": "ナガノケン",
    "prefecture_code": 20,
    "city": "小諸市",
    "city_kana": "コモロシ",
    "town": "南町",
    "town_kana": "ミナミチョウ",
    "street": null,
    "office_name": null,
    "office_name_kana": null
  },
  "0013": {
    "postcode": "3840013",
    "prefecture": "長野県",
    "prefecture_kana": "ナガノケン",
    "prefecture_code": 20,
    "city": "小諸市",
    "city_kana": "コモロシ",
    "town": "緑ケ丘",
    "town_kana": "ミドリガオカ",
    "street": null,
    "office_name": null,
    "office_name_kana": null
  },
  "0014": {
    "postcode": "3840014",
    "prefecture": "長野県",
    "prefecture_kana": "ナガノケン",
    "prefecture_code": 20,
    "city": "小諸市",
    "city_kana": "コモロシ",
    "town": "荒町",
    "town_kana": "アラマチ",
    "street": null,
    "office_name": null,
    "office_name_kana": null
  },
  "0015": {
    "postcode": "3840015",
    "prefecture": "長野県",
    "prefecture_kana": "ナガノケン",
    "prefecture_code": 20,
    "city": "小諸市",
    "city_kana": "コモロシ",
    "town": "紺屋町",
    "town_kana": "コンヤマチ",
    "street": null,
    "office_name": null,
    "office_name_kana": null
  },
  "0016": {
    "postcode": "3840016",
    "prefecture": "長野県",
    "prefecture_kana": "ナガノケン",
    "prefecture_code": 20,
    "city": "小諸市",
    "city_kana": "コモロシ",
    "town": "八幡町",
    "town_kana": "ハチマンチョウ",
    "street": null,
    "office_name": null,
    "office_name_kana": null
  },
  "0017": {
    "postcode": "3840017",
    "prefecture": "長野県",
    "prefecture_kana": "ナガノケン",
    "prefecture_code": 20,
    "city": "小諸市",
    "city_kana": "コモロシ",
    "town": "三和",
    "town_kana": "ミツワ",
    "street": null,
    "office_name": null,
    "office_name_kana": null
  },
  "0018": {
    "postcode": "3840018",
    "prefecture": "長野県",
    "prefecture_kana": "ナガノケン",
    "prefecture_code": 20,
    "city": "小諸市",
    "city_kana": "コモロシ",
    "town": "坂ノ上",
    "town_kana": "サカノウエ",
    "street": null,
    "office_name": null,
    "office_name_kana": null
  },
  "0021": {
    "postcode": "3840021",
    "prefecture": "長野県",
    "prefecture_kana": "ナガノケン",
    "prefecture_code": 20,
    "city": "小諸市",
    "city_kana": "コモロシ",
    "town": "天池",
    "town_kana": "アマイケ",
    "street": null,
    "office_name": null,
    "office_name_kana": null
  },
  "0022": {
    "postcode": "3840022",
    "prefecture": "長野県",
    "prefecture_kana": "ナガノケン",
    "prefecture_code": 20,
    "city": "小諸市",
    "city_kana": "コモロシ",
    "town": "松井",
    "town_kana": "マツイ",
    "street": null,
    "office_name": null,
    "office_name_kana": null
  },
  "0023": {
    "postcode": "3840023",
    "prefecture": "長野県",
    "prefecture_kana": "ナガノケン",
    "prefecture_code": 20,
    "city": "小諸市",
    "city_kana": "コモロシ",
    "town": "東雲",
    "town_kana": "シノノメ",
    "street": null,
    "office_name": null,
    "office_name_kana": null
  },
  "0024": {
    "postcode": "3840024",
    "prefecture": "長野県",
    "prefecture_kana": "ナガノケン",
    "prefecture_code": 20,
    "city": "小諸市",
    "city_kana": "コモロシ",
    "town": "熊ノ堂",
    "town_kana": "クマノドウ",
    "street": null,
    "office_name": null,
    "office_name_kana": null
  },
  "0025": {
    "postcode": "3840025",
    "prefecture": "長野県",
    "prefecture_kana": "ナガノケン",
    "prefecture_code": 20,
    "city": "小諸市",
    "city_kana": "コモロシ",
    "town": "相生町",
    "town_kana": "アイオイチョウ",
    "street": null,
    "office_name": null,
    "office_name_kana": null
  },
  "0026": {
    "postcode": "3840026",
    "prefecture": "長野県",
    "prefecture_kana": "ナガノケン",
    "prefecture_code": 20,
    "city": "小諸市",
    "city_kana": "コモロシ",
    "town": "本町",
    "town_kana": "ホンマチ",
    "street": null,
    "office_name": null,
    "office_name_kana": null
  },
  "0027": {
    "postcode": "3840027",
    "prefecture": "長野県",
    "prefecture_kana": "ナガノケン",
    "prefecture_code": 20,
    "city": "小諸市",
    "city_kana": "コモロシ",
    "town": "六供",
    "town_kana": "ロック",
    "street": null,
    "office_name": null,
    "office_name_kana": null
  },
  "0028": {
    "postcode": "3840028",
    "prefecture": "長野県",
    "prefecture_kana": "ナガノケン",
    "prefecture_code": 20,
    "city": "小諸市",
    "city_kana": "コモロシ",
    "town": "田町",
    "town_kana": "タマチ",
    "street": null,
    "office_name": null,
    "office_name_kana": null
  },
  "0031": {
    "postcode": "3840031",
    "prefecture": "長野県",
    "prefecture_kana": "ナガノケン",
    "prefecture_code": 20,
    "city": "小諸市",
    "city_kana": "コモロシ",
    "town": "大手",
    "town_kana": "オオテ",
    "street": null,
    "office_name": null,
    "office_name_kana": null
  },
  "0032": {
    "postcode": "3840032",
    "prefecture": "長野県",
    "prefecture_kana": "ナガノケン",
    "prefecture_code": 20,
    "city": "小諸市",
    "city_kana": "コモロシ",
    "town": "古城",
    "town_kana": "コジョウ",
    "street": null,
    "office_name": null,
    "office_name_kana": null
  },
  "0033": {
    "postcode": "3840033",
    "prefecture": "長野県",
    "prefecture_kana": "ナガノケン",
    "prefecture_code": 20,
    "city": "小諸市",
    "city_kana": "コモロシ",
    "town": "市町",
    "town_kana": "イチマチ",
    "street": null,
    "office_name": null,
    "office_name_kana": null
  },
  "0034": {
    "postcode": "3840034",
    "prefecture": "長野県",
    "prefecture_kana": "ナガノケン",
    "prefecture_code": 20,
    "city": "小諸市",
    "city_kana": "コモロシ",
    "town": "新町",
    "town_kana": "シンマチ",
    "street": null,
    "office_name": null,
    "office_name_kana": null
  },
  "0035": {
    "postcode": "3840035",
    "prefecture": "長野県",
    "prefecture_kana": "ナガノケン",
    "prefecture_code": 20,
    "city": "小諸市",
    "city_kana": "コモロシ",
    "town": "両神",
    "town_kana": "リョウジン",
    "street": null,
    "office_name": null,
    "office_name_kana": null
  },
  "0036": {
    "postcode": "3840036",
    "prefecture": "長野県",
    "prefecture_kana": "ナガノケン",
    "prefecture_code": 20,
    "city": "小諸市",
    "city_kana": "コモロシ",
    "town": "富士見平",
    "town_kana": "フジミダイラ",
    "street": null,
    "office_name": null,
    "office_name_kana": null
  },
  "0037": {
    "postcode": "3840037",
    "prefecture": "長野県",
    "prefecture_kana": "ナガノケン",
    "prefecture_code": 20,
    "city": "小諸市",
    "city_kana": "コモロシ",
    "town": "押出",
    "town_kana": "オシダシ",
    "street": null,
    "office_name": null,
    "office_name_kana": null
  },
  "0038": {
    "postcode": "3840038",
    "prefecture": "長野県",
    "prefecture_kana": "ナガノケン",
    "prefecture_code": 20,
    "city": "小諸市",
    "city_kana": "コモロシ",
    "town": "栃木",
    "town_kana": "トチギ",
    "street": null,
    "office_name": null,
    "office_name_kana": null
  },
  "0041": {
    "postcode": "3840041",
    "prefecture": "長野県",
    "prefecture_kana": "ナガノケン",
    "prefecture_code": 20,
    "city": "小諸市",
    "city_kana": "コモロシ",
    "town": "菱平",
    "town_kana": "ヒシダイラ",
    "street": null,
    "office_name": null,
    "office_name_kana": null
  },
  "0042": {
    "postcode": "3840042",
    "prefecture": "長野県",
    "prefecture_kana": "ナガノケン",
    "prefecture_code": 20,
    "city": "小諸市",
    "city_kana": "コモロシ",
    "town": "後平",
    "town_kana": "ウシロダイラ",
    "street": null,
    "office_name": null,
    "office_name_kana": null
  },
  "0043": {
    "postcode": "3840043",
    "prefecture": "長野県",
    "prefecture_kana": "ナガノケン",
    "prefecture_code": 20,
    "city": "小諸市",
    "city_kana": "コモロシ",
    "town": "諸",
    "town_kana": "モロ",
    "street": null,
    "office_name": null,
    "office_name_kana": null
  },
  "0044": {
    "postcode": "3840044",
    "prefecture": "長野県",
    "prefecture_kana": "ナガノケン",
    "prefecture_code": 20,
    "city": "小諸市",
    "city_kana": "コモロシ",
    "town": "西原",
    "town_kana": "ニシバラ",
    "street": null,
    "office_name": null,
    "office_name_kana": null
  },
  "0045": {
    "postcode": "3840045",
    "prefecture": "長野県",
    "prefecture_kana": "ナガノケン",
    "prefecture_code": 20,
    "city": "小諸市",
    "city_kana": "コモロシ",
    "town": "滝原",
    "town_kana": "タキバラ",
    "street": null,
    "office_name": null,
    "office_name_kana": null
  },
  "0046": {
    "postcode": "3840046",
    "prefecture": "長野県",
    "prefecture_kana": "ナガノケン",
    "prefecture_code": 20,
    "city": "小諸市",
    "city_kana": "コモロシ",
    "town": "芝生田",
    "town_kana": "シボウタ",
    "street": null,
    "office_name": null,
    "office_name_kana": null
  },
  "0047": {
    "postcode": "3840047",
    "prefecture": "長野県",
    "prefecture_kana": "ナガノケン",
    "prefecture_code": 20,
    "city": "小諸市",
    "city_kana": "コモロシ",
    "town": "井子",
    "town_kana": "イコ",
    "street": null,
    "office_name": null,
    "office_name_kana": null
  },
  "0048": {
    "postcode": "3840048",
    "prefecture": "長野県",
    "prefecture_kana": "ナガノケン",
    "prefecture_code": 20,
    "city": "小諸市",
    "city_kana": "コモロシ",
    "town": "糠地",
    "town_kana": "ヌカチ",
    "street": null,
    "office_name": null,
    "office_name_kana": null
  },
  "0051": {
    "postcode": "3840051",
    "prefecture": "長野県",
    "prefecture_kana": "ナガノケン",
    "prefecture_code": 20,
    "city": "小諸市",
    "city_kana": "コモロシ",
    "town": "八満",
    "town_kana": "ハチマン",
    "street": null,
    "office_name": null,
    "office_name_kana": null
  },
  "0052": {
    "postcode": "3840052",
    "prefecture": "長野県",
    "prefecture_kana": "ナガノケン",
    "prefecture_code": 20,
    "city": "小諸市",
    "city_kana": "コモロシ",
    "town": "東区",
    "town_kana": "ヒガシク",
    "street": null,
    "office_name": null,
    "office_name_kana": null
  },
  "0053": {
    "postcode": "3840053",
    "prefecture": "長野県",
    "prefecture_kana": "ナガノケン",
    "prefecture_code": 20,
    "city": "小諸市",
    "city_kana": "コモロシ",
    "town": "藤塚",
    "town_kana": "フジツカ",
    "street": null,
    "office_name": null,
    "office_name_kana": null
  },
  "0054": {
    "postcode": "3840054",
    "prefecture": "長野県",
    "prefecture_kana": "ナガノケン",
    "prefecture_code": 20,
    "city": "小諸市",
    "city_kana": "コモロシ",
    "town": "石峠",
    "town_kana": "イシトウゲ",
    "street": null,
    "office_name": null,
    "office_name_kana": null
  },
  "0055": {
    "postcode": "3840055",
    "prefecture": "長野県",
    "prefecture_kana": "ナガノケン",
    "prefecture_code": 20,
    "city": "小諸市",
    "city_kana": "コモロシ",
    "town": "柏木",
    "town_kana": "カシワギ",
    "street": null,
    "office_name": null,
    "office_name_kana": null
  },
  "0056": {
    "postcode": "3840056",
    "prefecture": "長野県",
    "prefecture_kana": "ナガノケン",
    "prefecture_code": 20,
    "city": "小諸市",
    "city_kana": "コモロシ",
    "town": "四ツ谷",
    "town_kana": "ヨツヤ",
    "street": null,
    "office_name": null,
    "office_name_kana": null
  },
  "0061": {
    "postcode": "3840061",
    "prefecture": "長野県",
    "prefecture_kana": "ナガノケン",
    "prefecture_code": 20,
    "city": "小諸市",
    "city_kana": "コモロシ",
    "town": "加増",
    "town_kana": "カマス",
    "street": null,
    "office_name": null,
    "office_name_kana": null
  },
  "0062": {
    "postcode": "3840062",
    "prefecture": "長野県",
    "prefecture_kana": "ナガノケン",
    "prefecture_code": 20,
    "city": "小諸市",
    "city_kana": "コモロシ",
    "town": "荒堀",
    "town_kana": "アラホリ",
    "street": null,
    "office_name": null,
    "office_name_kana": null
  },
  "0063": {
    "postcode": "3840063",
    "prefecture": "長野県",
    "prefecture_kana": "ナガノケン",
    "prefecture_code": 20,
    "city": "小諸市",
    "city_kana": "コモロシ",
    "town": "南ケ原",
    "town_kana": "ミナミガハラ",
    "street": null,
    "office_name": null,
    "office_name_kana": null
  },
  "0064": {
    "postcode": "3840064",
    "prefecture": "長野県",
    "prefecture_kana": "ナガノケン",
    "prefecture_code": 20,
    "city": "小諸市",
    "city_kana": "コモロシ",
    "town": "乗瀬",
    "town_kana": "ノリセ",
    "street": null,
    "office_name": null,
    "office_name_kana": null
  },
  "0065": {
    "postcode": "3840065",
    "prefecture": "長野県",
    "prefecture_kana": "ナガノケン",
    "prefecture_code": 20,
    "city": "小諸市",
    "city_kana": "コモロシ",
    "town": "ひばりケ丘",
    "town_kana": "ヒバリガオカ",
    "street": null,
    "office_name": null,
    "office_name_kana": null
  },
  "0071": {
    "postcode": "3840071",
    "prefecture": "長野県",
    "prefecture_kana": "ナガノケン",
    "prefecture_code": 20,
    "city": "小諸市",
    "city_kana": "コモロシ",
    "town": "大久保",
    "town_kana": "オオクボ",
    "street": null,
    "office_name": null,
    "office_name_kana": null
  },
  "0072": {
    "postcode": "3840072",
    "prefecture": "長野県",
    "prefecture_kana": "ナガノケン",
    "prefecture_code": 20,
    "city": "小諸市",
    "city_kana": "コモロシ",
    "town": "鴇久保",
    "town_kana": "トキクボ",
    "street": null,
    "office_name": null,
    "office_name_kana": null
  },
  "0074": {
    "postcode": "3840074",
    "prefecture": "長野県",
    "prefecture_kana": "ナガノケン",
    "prefecture_code": 20,
    "city": "小諸市",
    "city_kana": "コモロシ",
    "town": "西浦",
    "town_kana": "ニシウラ",
    "street": null,
    "office_name": null,
    "office_name_kana": null
  },
  "0075": {
    "postcode": "3840075",
    "prefecture": "長野県",
    "prefecture_kana": "ナガノケン",
    "prefecture_code": 20,
    "city": "小諸市",
    "city_kana": "コモロシ",
    "town": "上ノ平",
    "town_kana": "ウエノダイラ",
    "street": null,
    "office_name": null,
    "office_name_kana": null
  },
  "0076": {
    "postcode": "3840076",
    "prefecture": "長野県",
    "prefecture_kana": "ナガノケン",
    "prefecture_code": 20,
    "city": "小諸市",
    "city_kana": "コモロシ",
    "town": "久保",
    "town_kana": "クボ",
    "street": null,
    "office_name": null,
    "office_name_kana": null
  },
  "0077": {
    "postcode": "3840077",
    "prefecture": "長野県",
    "prefecture_kana": "ナガノケン",
    "prefecture_code": 20,
    "city": "小諸市",
    "city_kana": "コモロシ",
    "town": "大杭",
    "town_kana": "オオクイ",
    "street": null,
    "office_name": null,
    "office_name_kana": null
  },
  "0078": {
    "postcode": "3840078",
    "prefecture": "長野県",
    "prefecture_kana": "ナガノケン",
    "prefecture_code": 20,
    "city": "小諸市",
    "city_kana": "コモロシ",
    "town": "宮沢",
    "town_kana": "ミヤザワ",
    "street": null,
    "office_name": null,
    "office_name_kana": null
  },
  "0081": {
    "postcode": "3840081",
    "prefecture": "長野県",
    "prefecture_kana": "ナガノケン",
    "prefecture_code": 20,
    "city": "小諸市",
    "city_kana": "コモロシ",
    "town": "御牧ケ原",
    "town_kana": "ミマキガハラ",
    "street": null,
    "office_name": null,
    "office_name_kana": null
  },
  "0082": {
    "postcode": "3840082",
    "prefecture": "長野県",
    "prefecture_kana": "ナガノケン",
    "prefecture_code": 20,
    "city": "小諸市",
    "city_kana": "コモロシ",
    "town": "諏訪山",
    "town_kana": "スワヤマ",
    "street": null,
    "office_name": null,
    "office_name_kana": null
  },
  "0083": {
    "postcode": "3840083",
    "prefecture": "長野県",
    "prefecture_kana": "ナガノケン",
    "prefecture_code": 20,
    "city": "小諸市",
    "city_kana": "コモロシ",
    "town": "市",
    "town_kana": "イチ",
    "street": null,
    "office_name": null,
    "office_name_kana": null
  },
  "0084": {
    "postcode": "3840084",
    "prefecture": "長野県",
    "prefecture_kana": "ナガノケン",
    "prefecture_code": 20,
    "city": "小諸市",
    "city_kana": "コモロシ",
    "town": "耳取",
    "town_kana": "ミミトリ",
    "street": null,
    "office_name": null,
    "office_name_kana": null
  },
  "0085": {
    "postcode": "3840085",
    "prefecture": "長野県",
    "prefecture_kana": "ナガノケン",
    "prefecture_code": 20,
    "city": "小諸市",
    "city_kana": "コモロシ",
    "town": "森山",
    "town_kana": "モリヤマ",
    "street": null,
    "office_name": null,
    "office_name_kana": null
  },
  "0091": {
    "postcode": "3840091",
    "prefecture": "長野県",
    "prefecture_kana": "ナガノケン",
    "prefecture_code": 20,
    "city": "小諸市",
    "city_kana": "コモロシ",
    "town": "御影",
    "town_kana": "ミカゲ",
    "street": null,
    "office_name": null,
    "office_name_kana": null
  },
  "0092": {
    "postcode": "3840092",
    "prefecture": "長野県",
    "prefecture_kana": "ナガノケン",
    "prefecture_code": 20,
    "city": "小諸市",
    "city_kana": "コモロシ",
    "town": "平原",
    "town_kana": "ヒラハラ",
    "street": null,
    "office_name": null,
    "office_name_kana": null
  },
  "0093": {
    "postcode": "3840093",
    "prefecture": "長野県",
    "prefecture_kana": "ナガノケン",
    "prefecture_code": 20,
    "city": "小諸市",
    "city_kana": "コモロシ",
    "town": "和田",
    "town_kana": "ワダ",
    "street": null,
    "office_name": null,
    "office_name_kana": null
  },
  "0094": {
    "postcode": "3840094",
    "prefecture": "長野県",
    "prefecture_kana": "ナガノケン",
    "prefecture_code": 20,
    "city": "小諸市",
    "city_kana": "コモロシ",
    "town": "一ツ谷",
    "town_kana": "ヒトツヤ",
    "street": null,
    "office_name": null,
    "office_name_kana": null
  },
  "0095": {
    "postcode": "3840095",
    "prefecture": "長野県",
    "prefecture_kana": "ナガノケン",
    "prefecture_code": 20,
    "city": "小諸市",
    "city_kana": "コモロシ",
    "town": "谷地原",
    "town_kana": "ヤチハラ",
    "street": null,
    "office_name": null,
    "office_name_kana": null
  },
  "0096": {
    "postcode": "3840096",
    "prefecture": "長野県",
    "prefecture_kana": "ナガノケン",
    "prefecture_code": 20,
    "city": "小諸市",
    "city_kana": "コモロシ",
    "town": "池ノ前",
    "town_kana": "イケノマエ",
    "street": null,
    "office_name": null,
    "office_name_kana": null
  },
  "0097": [
    {
      "postcode": "3840097",
      "prefecture": "群馬県",
      "prefecture_kana": "グンマケン",
      "prefecture_code": 10,
      "city": "吾妻郡嬬恋村",
      "city_kana": "アガツマグンツマゴイムラ",
      "town": "鎌原",
      "town_kana": "カンバラ",
      "street": null,
      "office_name": null,
      "office_name_kana": null
    },
    {
      "postcode": "3840097",
      "prefecture": "群馬県",
      "prefecture_kana": "グンマケン",
      "prefecture_code": 10,
      "city": "吾妻郡嬬恋村",
      "city_kana": "アガツマグンツマゴイムラ",
      "town": "鎌原高峰高原",
      "town_kana": "カンバラタカミネコウゲン",
      "street": null,
      "office_name": null,
      "office_name_kana": null
    }
  ],
  "0301": {
    "postcode": "3840301",
    "prefecture": "長野県",
    "prefecture_kana": "ナガノケン",
    "prefecture_code": 20,
    "city": "佐久市",
    "city_kana": "サクシ",
    "town": "臼田",
    "town_kana": "ウスダ",
    "street": null,
    "office_name": null,
    "office_name_kana": null
  },
  "0302": {
    "postcode": "3840302",
    "prefecture": "長野県",
    "prefecture_kana": "ナガノケン",
    "prefecture_code": 20,
    "city": "佐久市",
    "city_kana": "サクシ",
    "town": "勝間",
    "town_kana": "カツマ",
    "street": null,
    "office_name": null,
    "office_name_kana": null
  },
  "0303": {
    "postcode": "3840303",
    "prefecture": "長野県",
    "prefecture_kana": "ナガノケン",
    "prefecture_code": 20,
    "city": "佐久市",
    "city_kana": "サクシ",
    "town": "下小田切",
    "town_kana": "シモオタギリ",
    "street": null,
    "office_name": null,
    "office_name_kana": null
  },
  "0304": {
    "postcode": "3840304",
    "prefecture": "長野県",
    "prefecture_kana": "ナガノケン",
    "prefecture_code": 20,
    "city": "佐久市",
    "city_kana": "サクシ",
    "town": "北川",
    "town_kana": "キタガワ",
    "street": null,
    "office_name": null,
    "office_name_kana": null
  },
  "0305": {
    "postcode": "3840305",
    "prefecture": "長野県",
    "prefecture_kana": "ナガノケン",
    "prefecture_code": 20,
    "city": "佐久市",
    "city_kana": "サクシ",
    "town": "中小田切",
    "town_kana": "ナカオタギリ",
    "street": null,
    "office_name": null,
    "office_name_kana": null
  },
  "0306": {
    "postcode": "3840306",
    "prefecture": "長野県",
    "prefecture_kana": "ナガノケン",
    "prefecture_code": 20,
    "city": "佐久市",
    "city_kana": "サクシ",
    "town": "上小田切",
    "town_kana": "カミオタギリ",
    "street": null,
    "office_name": null,
    "office_name_kana": null
  },
  "0307": {
    "postcode": "3840307",
    "prefecture": "長野県",
    "prefecture_kana": "ナガノケン",
    "prefecture_code": 20,
    "city": "佐久市",
    "city_kana": "サクシ",
    "town": "湯原",
    "town_kana": "ユハラ",
    "street": null,
    "office_name": null,
    "office_name_kana": null
  },
  "0393": {
    "postcode": "3840393",
    "prefecture": "長野県",
    "prefecture_kana": "ナガノケン",
    "prefecture_code": 20,
    "city": "佐久市",
    "city_kana": "サクシ",
    "town": "臼田",
    "town_kana": "ウスダ",
    "street": "１９７",
    "office_name": "長野県厚生農業協同組合連合会　佐久総合病院",
    "office_name_kana": "ナガノケンコウセイノウギヨウキヨウドウクミアイレンゴウカイ サクソウゴウビヨウイン"
  },
  "0411": {
    "postcode": "3840411",
    "prefecture": "長野県",
    "prefecture_kana": "ナガノケン",
    "prefecture_code": 20,
    "city": "佐久市",
    "city_kana": "サクシ",
    "town": "清川",
    "town_kana": "キヨカワ",
    "street": null,
    "office_name": null,
    "office_name_kana": null
  },
  "0412": {
    "postcode": "3840412",
    "prefecture": "長野県",
    "prefecture_kana": "ナガノケン",
    "prefecture_code": 20,
    "city": "佐久市",
    "city_kana": "サクシ",
    "town": "田口",
    "town_kana": "タグチ",
    "street": null,
    "office_name": null,
    "office_name_kana": null
  },
  "0413": {
    "postcode": "3840413",
    "prefecture": "長野県",
    "prefecture_kana": "ナガノケン",
    "prefecture_code": 20,
    "city": "佐久市",
    "city_kana": "サクシ",
    "town": "三分",
    "town_kana": "ミブン",
    "street": null,
    "office_name": null,
    "office_name_kana": null
  },
  "0414": {
    "postcode": "3840414",
    "prefecture": "長野県",
    "prefecture_kana": "ナガノケン",
    "prefecture_code": 20,
    "city": "佐久市",
    "city_kana": "サクシ",
    "town": "下越",
    "town_kana": "シモゴエ",
    "street": null,
    "office_name": null,
    "office_name_kana": null
  },
  "0501": {
    "postcode": "3840501",
    "prefecture": "長野県",
    "prefecture_kana": "ナガノケン",
    "prefecture_code": 20,
    "city": "南佐久郡佐久穂町",
    "city_kana": "ミナミサクグンサクホマチ",
    "town": "余地",
    "town_kana": "ヨジ",
    "street": null,
    "office_name": null,
    "office_name_kana": null
  },
  "0502": {
    "postcode": "3840502",
    "prefecture": "長野県",
    "prefecture_kana": "ナガノケン",
    "prefecture_code": 20,
    "city": "南佐久郡佐久穂町",
    "city_kana": "ミナミサクグンサクホマチ",
    "town": "大日向",
    "town_kana": "オオヒナタ",
    "street": null,
    "office_name": null,
    "office_name_kana": null
  },
  "0503": {
    "postcode": "3840503",
    "prefecture": "長野県",
    "prefecture_kana": "ナガノケン",
    "prefecture_code": 20,
    "city": "南佐久郡佐久穂町",
    "city_kana": "ミナミサクグンサクホマチ",
    "town": "海瀬",
    "town_kana": "カイゼ",
    "street": null,
    "office_name": null,
    "office_name_kana": null
  },
  "0600": {
    "postcode": "3840600",
    "prefecture": "長野県",
    "prefecture_kana": "ナガノケン",
    "prefecture_code": 20,
    "city": "南佐久郡佐久穂町",
    "city_kana": "ミナミサクグンサクホマチ",
    "town": "",
    "town_kana": "",
    "street": null,
    "office_name": null,
    "office_name_kana": null
  },
  "0611": {
    "postcode": "3840611",
    "prefecture": "長野県",
    "prefecture_kana": "ナガノケン",
    "prefecture_code": 20,
    "city": "南佐久郡佐久穂町",
    "city_kana": "ミナミサクグンサクホマチ",
    "town": "平林",
    "town_kana": "ヒラバヤシ",
    "street": null,
    "office_name": null,
    "office_name_kana": null
  },
  "0612": {
    "postcode": "3840612",
    "prefecture": "長野県",
    "prefecture_kana": "ナガノケン",
    "prefecture_code": 20,
    "city": "南佐久郡佐久穂町",
    "city_kana": "ミナミサクグンサクホマチ",
    "town": "宿岩",
    "town_kana": "ヤドイワ",
    "street": null,
    "office_name": null,
    "office_name_kana": null
  },
  "0613": {
    "postcode": "3840613",
    "prefecture": "長野県",
    "prefecture_kana": "ナガノケン",
    "prefecture_code": 20,
    "city": "南佐久郡佐久穂町",
    "city_kana": "ミナミサクグンサクホマチ",
    "town": "高野町",
    "town_kana": "タカノマチ",
    "street": null,
    "office_name": null,
    "office_name_kana": null
  },
  "0614": {
    "postcode": "3840614",
    "prefecture": "長野県",
    "prefecture_kana": "ナガノケン",
    "prefecture_code": 20,
    "city": "南佐久郡佐久穂町",
    "city_kana": "ミナミサクグンサクホマチ",
    "town": "上",
    "town_kana": "カミ",
    "street": null,
    "office_name": null,
    "office_name_kana": null
  },
  "0621": {
    "postcode": "3840621",
    "prefecture": "長野県",
    "prefecture_kana": "ナガノケン",
    "prefecture_code": 20,
    "city": "佐久市",
    "city_kana": "サクシ",
    "town": "入澤",
    "town_kana": "イリサワ",
    "street": null,
    "office_name": null,
    "office_name_kana": null
  },
  "0622": {
    "postcode": "3840622",
    "prefecture": "長野県",
    "prefecture_kana": "ナガノケン",
    "prefecture_code": 20,
    "city": "佐久市",
    "city_kana": "サクシ",
    "town": "平林",
    "town_kana": "ヒラバヤシ",
    "street": null,
    "office_name": null,
    "office_name_kana": null
  },
  "0692": {
    "postcode": "3840692",
    "prefecture": "長野県",
    "prefecture_kana": "ナガノケン",
    "prefecture_code": 20,
    "city": "南佐久郡佐久穂町",
    "city_kana": "ミナミサクグンサクホマチ",
    "town": "大字高野町",
    "town_kana": null,
    "street": "５６９（佐久穂町役場内）",
    "office_name": "株式会社　八十二銀行　佐久穂支店",
    "office_name_kana": "カブシキガイシヤ ハチジユウニギンコウ サクホシテン"
  },
  "0695": {
    "postcode": "3840695",
    "prefecture": "長野県",
    "prefecture_kana": "ナガノケン",
    "prefecture_code": 20,
    "city": "南佐久郡佐久穂町",
    "city_kana": "ミナミサクグンサクホマチ",
    "town": "大字高野町",
    "town_kana": null,
    "street": "５３３",
    "office_name": "南佐久農業協同組合",
    "office_name_kana": "ミナミサクノウギヨウキヨウドウクミアイ"
  },
  "0697": {
    "postcode": "3840697",
    "prefecture": "長野県",
    "prefecture_kana": "ナガノケン",
    "prefecture_code": 20,
    "city": "南佐久郡佐久穂町",
    "city_kana": "ミナミサクグンサクホマチ",
    "town": "大字高野町",
    "town_kana": null,
    "street": "５６９",
    "office_name": "佐久穂町役場　佐久庁舎",
    "office_name_kana": "サクホマチヤクバ サクチヨウシヤ"
  },
  "0698": {
    "postcode": "3840698",
    "prefecture": "長野県",
    "prefecture_kana": "ナガノケン",
    "prefecture_code": 20,
    "city": "南佐久郡佐久穂町",
    "city_kana": "ミナミサクグンサクホマチ",
    "town": "大字高野町",
    "town_kana": null,
    "street": "３２８",
    "office_name": "佐久穂町立　千曲病院",
    "office_name_kana": "サクホチヨウリツ チクマビヨウイン"
  },
  "0701": {
    "postcode": "3840701",
    "prefecture": "長野県",
    "prefecture_kana": "ナガノケン",
    "prefecture_code": 20,
    "city": "南佐久郡佐久穂町",
    "city_kana": "ミナミサクグンサクホマチ",
    "town": "畑",
    "town_kana": "ハタ",
    "street": null,
    "office_name": null,
    "office_name_kana": null
  },
  "0702": {
    "postcode": "3840702",
    "prefecture": "長野県",
    "prefecture_kana": "ナガノケン",
    "prefecture_code": 20,
    "city": "南佐久郡佐久穂町",
    "city_kana": "ミナミサクグンサクホマチ",
    "town": "穂積",
    "town_kana": "ホヅミ",
    "street": null,
    "office_name": null,
    "office_name_kana": null
  },
  "0703": {
    "postcode": "3840703",
    "prefecture": "長野県",
    "prefecture_kana": "ナガノケン",
    "prefecture_code": 20,
    "city": "南佐久郡佐久穂町",
    "city_kana": "ミナミサクグンサクホマチ",
    "town": "千代里",
    "town_kana": "チヨサト",
    "street": null,
    "office_name": null,
    "office_name_kana": null
  },
  "0704": {
    "postcode": "3840704",
    "prefecture": "長野県",
    "prefecture_kana": "ナガノケン",
    "prefecture_code": 20,
    "city": "南佐久郡佐久穂町",
    "city_kana": "ミナミサクグンサクホマチ",
    "town": "八郡",
    "town_kana": "ヤコオリ",
    "street": null,
    "office_name": null,
    "office_name_kana": null
  },
  "0798": {
    "postcode": "3840798",
    "prefecture": "長野県",
    "prefecture_kana": "ナガノケン",
    "prefecture_code": 20,
    "city": "南佐久郡佐久穂町",
    "city_kana": "ミナミサクグンサクホマチ",
    "town": "大字畑",
    "town_kana": null,
    "street": "１６４",
    "office_name": "佐久穂町役場　八千穂庁舎",
    "office_name_kana": "サクホマチヤクバ ヤチホチヨウシヤ"
  },
  "0801": {
    "postcode": "3840801",
    "prefecture": "長野県",
    "prefecture_kana": "ナガノケン",
    "prefecture_code": 20,
    "city": "小諸市",
    "city_kana": "コモロシ",
    "town": "甲",
    "town_kana": "コウ",
    "street": null,
    "office_name": null,
    "office_name_kana": null
  },
  "0802": {
    "postcode": "3840802",
    "prefecture": "長野県",
    "prefecture_kana": "ナガノケン",
    "prefecture_code": 20,
    "city": "小諸市",
    "city_kana": "コモロシ",
    "town": "乙",
    "town_kana": "オツ",
    "street": null,
    "office_name": null,
    "office_name_kana": null
  },
  "0803": {
    "postcode": "3840803",
    "prefecture": "長野県",
    "prefecture_kana": "ナガノケン",
    "prefecture_code": 20,
    "city": "小諸市",
    "city_kana": "コモロシ",
    "town": "丙",
    "town_kana": "ヘイ",
    "street": null,
    "office_name": null,
    "office_name_kana": null
  },
  "0804": {
    "postcode": "3840804",
    "prefecture": "長野県",
    "prefecture_kana": "ナガノケン",
    "prefecture_code": 20,
    "city": "小諸市",
    "city_kana": "コモロシ",
    "town": "丁",
    "town_kana": "テイ",
    "street": null,
    "office_name": null,
    "office_name_kana": null
  },
  "0805": {
    "postcode": "3840805",
    "prefecture": "長野県",
    "prefecture_kana": "ナガノケン",
    "prefecture_code": 20,
    "city": "小諸市",
    "city_kana": "コモロシ",
    "town": "己",
    "town_kana": "キ",
    "street": null,
    "office_name": null,
    "office_name_kana": null
  },
  "0806": {
    "postcode": "3840806",
    "prefecture": "長野県",
    "prefecture_kana": "ナガノケン",
    "prefecture_code": 20,
    "city": "小諸市",
    "city_kana": "コモロシ",
    "town": "塩野",
    "town_kana": "シオノ",
    "street": null,
    "office_name": null,
    "office_name_kana": null
  },
  "0807": {
    "postcode": "3840807",
    "prefecture": "長野県",
    "prefecture_kana": "ナガノケン",
    "prefecture_code": 20,
    "city": "小諸市",
    "city_kana": "コモロシ",
    "town": "山浦",
    "town_kana": "ヤマウラ",
    "street": null,
    "office_name": null,
    "office_name_kana": null
  },
  "0808": {
    "postcode": "3840808",
    "prefecture": "長野県",
    "prefecture_kana": "ナガノケン",
    "prefecture_code": 20,
    "city": "小諸市",
    "city_kana": "コモロシ",
    "town": "御影新田",
    "town_kana": "ミカゲシンデン",
    "street": null,
    "office_name": null,
    "office_name_kana": null
  },
  "0809": {
    "postcode": "3840809",
    "prefecture": "長野県",
    "prefecture_kana": "ナガノケン",
    "prefecture_code": 20,
    "city": "小諸市",
    "city_kana": "コモロシ",
    "town": "滋野甲",
    "town_kana": "シゲノコウ",
    "street": null,
    "office_name": null,
    "office_name_kana": null
  },
  "1100": {
    "postcode": "3841100",
    "prefecture": "長野県",
    "prefecture_kana": "ナガノケン",
    "prefecture_code": 20,
    "city": "南佐久郡小海町",
    "city_kana": "ミナミサクグンコウミマチ",
    "town": "",
    "town_kana": "",
    "street": null,
    "office_name": null,
    "office_name_kana": null
  },
  "1101": {
    "postcode": "3841101",
    "prefecture": "長野県",
    "prefecture_kana": "ナガノケン",
    "prefecture_code": 20,
    "city": "南佐久郡小海町",
    "city_kana": "ミナミサクグンコウミマチ",
    "town": "東馬流",
    "town_kana": "ヒガシマナガシ",
    "street": null,
    "office_name": null,
    "office_name_kana": null
  },
  "1102": {
    "postcode": "3841102",
    "prefecture": "長野県",
    "prefecture_kana": "ナガノケン",
    "prefecture_code": 20,
    "city": "南佐久郡小海町",
    "city_kana": "ミナミサクグンコウミマチ",
    "town": "小海",
    "town_kana": "コウミ",
    "street": null,
    "office_name": null,
    "office_name_kana": null
  },
  "1103": {
    "postcode": "3841103",
    "prefecture": "長野県",
    "prefecture_kana": "ナガノケン",
    "prefecture_code": 20,
    "city": "南佐久郡小海町",
    "city_kana": "ミナミサクグンコウミマチ",
    "town": "豊里",
    "town_kana": "トヨサト",
    "street": null,
    "office_name": null,
    "office_name_kana": null
  },
  "1104": {
    "postcode": "3841104",
    "prefecture": "長野県",
    "prefecture_kana": "ナガノケン",
    "prefecture_code": 20,
    "city": "南佐久郡小海町",
    "city_kana": "ミナミサクグンコウミマチ",
    "town": "稲子",
    "town_kana": "イナコ",
    "street": null,
    "office_name": null,
    "office_name_kana": null
  },
  "1105": {
    "postcode": "3841105",
    "prefecture": "長野県",
    "prefecture_kana": "ナガノケン",
    "prefecture_code": 20,
    "city": "南佐久郡小海町",
    "city_kana": "ミナミサクグンコウミマチ",
    "town": "千代里",
    "town_kana": "チヨサト",
    "street": null,
    "office_name": null,
    "office_name_kana": null
  },
  "1192": {
    "postcode": "3841192",
    "prefecture": "長野県",
    "prefecture_kana": "ナガノケン",
    "prefecture_code": 20,
    "city": "南佐久郡小海町",
    "city_kana": "ミナミサクグンコウミマチ",
    "town": "大字豊里",
    "town_kana": null,
    "street": "５７−１",
    "office_name": "小海町役場",
    "office_name_kana": "コウミマチヤクバ"
  },
  "1201": {
    "postcode": "3841201",
    "prefecture": "長野県",
    "prefecture_kana": "ナガノケン",
    "prefecture_code": 20,
    "city": "南佐久郡北相木村",
    "city_kana": "ミナミサクグンキタアイキムラ",
    "town": "",
    "town_kana": "",
    "street": null,
    "office_name": null,
    "office_name_kana": null
  },
  "1211": {
    "postcode": "3841211",
    "prefecture": "長野県",
    "prefecture_kana": "ナガノケン",
    "prefecture_code": 20,
    "city": "南佐久郡南相木村",
    "city_kana": "ミナミサクグンミナミアイキムラ",
    "town": "",
    "town_kana": "",
    "street": null,
    "office_name": null,
    "office_name_kana": null
  },
  "1300": {
    "postcode": "3841300",
    "prefecture": "長野県",
    "prefecture_kana": "ナガノケン",
    "prefecture_code": 20,
    "city": "南佐久郡南牧村",
    "city_kana": "ミナミサクグンミナミマキムラ",
    "town": "",
    "town_kana": "",
    "street": null,
    "office_name": null,
    "office_name_kana": null
  },
  "1301": {
    "postcode": "3841301",
    "prefecture": "長野県",
    "prefecture_kana": "ナガノケン",
    "prefecture_code": 20,
    "city": "南佐久郡南牧村",
    "city_kana": "ミナミサクグンミナミマキムラ",
    "town": "海尻",
    "town_kana": "ウミジリ",
    "street": null,
    "office_name": null,
    "office_name_kana": null
  },
  "1302": {
    "postcode": "3841302",
    "prefecture": "長野県",
    "prefecture_kana": "ナガノケン",
    "prefecture_code": 20,
    "city": "南佐久郡南牧村",
    "city_kana": "ミナミサクグンミナミマキムラ",
    "town": "海ノ口",
    "town_kana": "ウミノクチ",
    "street": null,
    "office_name": null,
    "office_name_kana": null
  },
  "1303": {
    "postcode": "3841303",
    "prefecture": "長野県",
    "prefecture_kana": "ナガノケン",
    "prefecture_code": 20,
    "city": "南佐久郡南牧村",
    "city_kana": "ミナミサクグンミナミマキムラ",
    "town": "広瀬",
    "town_kana": "ヒロセ",
    "street": null,
    "office_name": null,
    "office_name_kana": null
  },
  "1304": {
    "postcode": "3841304",
    "prefecture": "長野県",
    "prefecture_kana": "ナガノケン",
    "prefecture_code": 20,
    "city": "南佐久郡南牧村",
    "city_kana": "ミナミサクグンミナミマキムラ",
    "town": "板橋",
    "town_kana": "イタバシ",
    "street": null,
    "office_name": null,
    "office_name_kana": null
  },
  "1305": {
    "postcode": "3841305",
    "prefecture": "長野県",
    "prefecture_kana": "ナガノケン",
    "prefecture_code": 20,
    "city": "南佐久郡南牧村",
    "city_kana": "ミナミサクグンミナミマキムラ",
    "town": "野辺山",
    "town_kana": "ノベヤマ",
    "street": null,
    "office_name": null,
    "office_name_kana": null
  },
  "1306": {
    "postcode": "3841306",
    "prefecture": "長野県",
    "prefecture_kana": "ナガノケン",
    "prefecture_code": 20,
    "city": "南佐久郡南牧村",
    "city_kana": "ミナミサクグンミナミマキムラ",
    "town": "平沢",
    "town_kana": "ヒラサワ",
    "street": null,
    "office_name": null,
    "office_name_kana": null
  },
  "1400": {
    "postcode": "3841400",
    "prefecture": "長野県",
    "prefecture_kana": "ナガノケン",
    "prefecture_code": 20,
    "city": "南佐久郡川上村",
    "city_kana": "ミナミサクグンカワカミムラ",
    "town": "",
    "town_kana": "",
    "street": null,
    "office_name": null,
    "office_name_kana": null
  },
  "1401": {
    "postcode": "3841401",
    "prefecture": "長野県",
    "prefecture_kana": "ナガノケン",
    "prefecture_code": 20,
    "city": "南佐久郡川上村",
    "city_kana": "ミナミサクグンカワカミムラ",
    "town": "川端下",
    "town_kana": "カワハケ",
    "street": null,
    "office_name": null,
    "office_name_kana": null
  },
  "1402": {
    "postcode": "3841402",
    "prefecture": "長野県",
    "prefecture_kana": "ナガノケン",
    "prefecture_code": 20,
    "city": "南佐久郡川上村",
    "city_kana": "ミナミサクグンカワカミムラ",
    "town": "梓山",
    "town_kana": "アズサヤマ",
    "street": null,
    "office_name": null,
    "office_name_kana": null
  },
  "1403": {
    "postcode": "3841403",
    "prefecture": "長野県",
    "prefecture_kana": "ナガノケン",
    "prefecture_code": 20,
    "city": "南佐久郡川上村",
    "city_kana": "ミナミサクグンカワカミムラ",
    "town": "秋山",
    "town_kana": "アキヤマ",
    "street": null,
    "office_name": null,
    "office_name_kana": null
  },
  "1404": {
    "postcode": "3841404",
    "prefecture": "長野県",
    "prefecture_kana": "ナガノケン",
    "prefecture_code": 20,
    "city": "南佐久郡川上村",
    "city_kana": "ミナミサクグンカワカミムラ",
    "town": "居倉",
    "town_kana": "イグラ",
    "street": null,
    "office_name": null,
    "office_name_kana": null
  },
  "1405": {
    "postcode": "3841405",
    "prefecture": "長野県",
    "prefecture_kana": "ナガノケン",
    "prefecture_code": 20,
    "city": "南佐久郡川上村",
    "city_kana": "ミナミサクグンカワカミムラ",
    "town": "大深山",
    "town_kana": "オオミヤマ",
    "street": null,
    "office_name": null,
    "office_name_kana": null
  },
  "1406": {
    "postcode": "3841406",
    "prefecture": "長野県",
    "prefecture_kana": "ナガノケン",
    "prefecture_code": 20,
    "city": "南佐久郡川上村",
    "city_kana": "ミナミサクグンカワカミムラ",
    "town": "原",
    "town_kana": "ハラ",
    "street": null,
    "office_name": null,
    "office_name_kana": null
  },
  "1407": {
    "postcode": "3841407",
    "prefecture": "長野県",
    "prefecture_kana": "ナガノケン",
    "prefecture_code": 20,
    "city": "南佐久郡川上村",
    "city_kana": "ミナミサクグンカワカミムラ",
    "town": "御所平",
    "town_kana": "ゴショダイラ",
    "street": null,
    "office_name": null,
    "office_name_kana": null
  },
  "1408": {
    "postcode": "3841408",
    "prefecture": "長野県",
    "prefecture_kana": "ナガノケン",
    "prefecture_code": 20,
    "city": "南佐久郡川上村",
    "city_kana": "ミナミサクグンカワカミムラ",
    "town": "樋沢",
    "town_kana": "ヒサワ",
    "street": null,
    "office_name": null,
    "office_name_kana": null
  },
  "2101": {
    "postcode": "3842101",
    "prefecture": "長野県",
    "prefecture_kana": "ナガノケン",
    "prefecture_code": 20,
    "city": "佐久市",
    "city_kana": "サクシ",
    "town": "桑山",
    "town_kana": "クワヤマ",
    "street": null,
    "office_name": null,
    "office_name_kana": null
  },
  "2102": {
    "postcode": "3842102",
    "prefecture": "長野県",
    "prefecture_kana": "ナガノケン",
    "prefecture_code": 20,
    "city": "佐久市",
    "city_kana": "サクシ",
    "town": "塩名田",
    "town_kana": "シオナダ",
    "street": null,
    "office_name": null,
    "office_name_kana": null
  },
  "2103": {
    "postcode": "3842103",
    "prefecture": "長野県",
    "prefecture_kana": "ナガノケン",
    "prefecture_code": 20,
    "city": "佐久市",
    "city_kana": "サクシ",
    "town": "御馬寄",
    "town_kana": "ミマヨセ",
    "street": null,
    "office_name": null,
    "office_name_kana": null
  },
  "2104": {
    "postcode": "3842104",
    "prefecture": "長野県",
    "prefecture_kana": "ナガノケン",
    "prefecture_code": 20,
    "city": "佐久市",
    "city_kana": "サクシ",
    "town": "甲",
    "town_kana": "コウ",
    "street": null,
    "office_name": null,
    "office_name_kana": null
  },
  "2105": {
    "postcode": "3842105",
    "prefecture": "長野県",
    "prefecture_kana": "ナガノケン",
    "prefecture_code": 20,
    "city": "佐久市",
    "city_kana": "サクシ",
    "town": "矢嶋",
    "town_kana": "ヤシマ",
    "street": null,
    "office_name": null,
    "office_name_kana": null
  },
  "2106": {
    "postcode": "3842106",
    "prefecture": "長野県",
    "prefecture_kana": "ナガノケン",
    "prefecture_code": 20,
    "city": "佐久市",
    "city_kana": "サクシ",
    "town": "八幡",
    "town_kana": "ヤワタ",
    "street": null,
    "office_name": null,
    "office_name_kana": null
  },
  "2107": {
    "postcode": "3842107",
    "prefecture": "長野県",
    "prefecture_kana": "ナガノケン",
    "prefecture_code": 20,
    "city": "佐久市",
    "city_kana": "サクシ",
    "town": "蓬田",
    "town_kana": "ヨモギダ",
    "street": null,
    "office_name": null,
    "office_name_kana": null
  },
  "2201": {
    "postcode": "3842201",
    "prefecture": "長野県",
    "prefecture_kana": "ナガノケン",
    "prefecture_code": 20,
    "city": "佐久市",
    "city_kana": "サクシ",
    "town": "印内",
    "town_kana": "インナイ",
    "street": null,
    "office_name": null,
    "office_name_kana": null
  },
  "2202": {
    "postcode": "3842202",
    "prefecture": "長野県",
    "prefecture_kana": "ナガノケン",
    "prefecture_code": 20,
    "city": "佐久市",
    "city_kana": "サクシ",
    "town": "望月",
    "town_kana": "モチヅキ",
    "street": null,
    "office_name": null,
    "office_name_kana": null
  },
  "2203": {
    "postcode": "3842203",
    "prefecture": "長野県",
    "prefecture_kana": "ナガノケン",
    "prefecture_code": 20,
    "city": "佐久市",
    "city_kana": "サクシ",
    "town": "布施",
    "town_kana": "フセ",
    "street": null,
    "office_name": null,
    "office_name_kana": null
  },
  "2204": {
    "postcode": "3842204",
    "prefecture": "長野県",
    "prefecture_kana": "ナガノケン",
    "prefecture_code": 20,
    "city": "佐久市",
    "city_kana": "サクシ",
    "town": "協和",
    "town_kana": "キョウワ",
    "street": null,
    "office_name": null,
    "office_name_kana": null
  },
  "2205": {
    "postcode": "3842205",
    "prefecture": "長野県",
    "prefecture_kana": "ナガノケン",
    "prefecture_code": 20,
    "city": "佐久市",
    "city_kana": "サクシ",
    "town": "春日",
    "town_kana": "カスガ",
    "street": null,
    "office_name": null,
    "office_name_kana": null
  },
  "2206": {
    "postcode": "3842206",
    "prefecture": "長野県",
    "prefecture_kana": "ナガノケン",
    "prefecture_code": 20,
    "city": "佐久市",
    "city_kana": "サクシ",
    "town": "茂田井",
    "town_kana": "モタイ",
    "street": null,
    "office_name": null,
    "office_name_kana": null
  },
  "2211": {
    "postcode": "3842211",
    "prefecture": "長野県",
    "prefecture_kana": "ナガノケン",
    "prefecture_code": 20,
    "city": "北佐久郡立科町",
    "city_kana": "キタサクグンタテシナマチ",
    "town": "茂田井",
    "town_kana": "モタイ",
    "street": null,
    "office_name": null,
    "office_name_kana": null
  },
  "2292": {
    "postcode": "3842292",
    "prefecture": "長野県",
    "prefecture_kana": "ナガノケン",
    "prefecture_code": 20,
    "city": "佐久市",
    "city_kana": "サクシ",
    "town": "望月",
    "town_kana": "モチヅキ",
    "street": "３１８",
    "office_name": "川西赤十字病院",
    "office_name_kana": "カワニシセキジユウジビヨウイン"
  },
  "2300": {
    "postcode": "3842300",
    "prefecture": "長野県",
    "prefecture_kana": "ナガノケン",
    "prefecture_code": 20,
    "city": "北佐久郡立科町",
    "city_kana": "キタサクグンタテシナマチ",
    "town": "",
    "town_kana": "",
    "street": null,
    "office_name": null,
    "office_name_kana": null
  },
  "2301": {
    "postcode": "3842301",
    "prefecture": "長野県",
    "prefecture_kana": "ナガノケン",
    "prefecture_code": 20,
    "city": "北佐久郡立科町",
    "city_kana": "キタサクグンタテシナマチ",
    "town": "桐原",
    "town_kana": "キリハラ",
    "street": null,
    "office_name": null,
    "office_name_kana": null
  },
  "2302": {
    "postcode": "3842302",
    "prefecture": "長野県",
    "prefecture_kana": "ナガノケン",
    "prefecture_code": 20,
    "city": "北佐久郡立科町",
    "city_kana": "キタサクグンタテシナマチ",
    "town": "藤沢",
    "town_kana": "フジサワ",
    "street": null,
    "office_name": null,
    "office_name_kana": null
  },
  "2303": {
    "postcode": "3842303",
    "prefecture": "長野県",
    "prefecture_kana": "ナガノケン",
    "prefecture_code": 20,
    "city": "北佐久郡立科町",
    "city_kana": "キタサクグンタテシナマチ",
    "town": "塩沢",
    "town_kana": "シオサワ",
    "street": null,
    "office_name": null,
    "office_name_kana": null
  },
  "2304": {
    "postcode": "3842304",
    "prefecture": "長野県",
    "prefecture_kana": "ナガノケン",
    "prefecture_code": 20,
    "city": "北佐久郡立科町",
    "city_kana": "キタサクグンタテシナマチ",
    "town": "茂田井",
    "town_kana": "モタイ",
    "street": null,
    "office_name": null,
    "office_name_kana": null
  },
  "2305": {
    "postcode": "3842305",
    "prefecture": "長野県",
    "prefecture_kana": "ナガノケン",
    "prefecture_code": 20,
    "city": "北佐久郡立科町",
    "city_kana": "キタサクグンタテシナマチ",
    "town": "芦田",
    "town_kana": "アシダ",
    "street": null,
    "office_name": null,
    "office_name_kana": null
  },
  "2306": {
    "postcode": "3842306",
    "prefecture": "長野県",
    "prefecture_kana": "ナガノケン",
    "prefecture_code": 20,
    "city": "北佐久郡立科町",
    "city_kana": "キタサクグンタテシナマチ",
    "town": "宇山",
    "town_kana": "ウヤマ",
    "street": null,
    "office_name": null,
    "office_name_kana": null
  },
  "2307": {
    "postcode": "3842307",
    "prefecture": "長野県",
    "prefecture_kana": "ナガノケン",
    "prefecture_code": 20,
    "city": "北佐久郡立科町",
    "city_kana": "キタサクグンタテシナマチ",
    "town": "山部",
    "town_kana": "ヤマベ",
    "street": null,
    "office_name": null,
    "office_name_kana": null
  },
  "2308": {
    "postcode": "3842308",
    "prefecture": "長野県",
    "prefecture_kana": "ナガノケン",
    "prefecture_code": 20,
    "city": "北佐久郡立科町",
    "city_kana": "キタサクグンタテシナマチ",
    "town": "牛鹿",
    "town_kana": "ウシロク",
    "street": null,
    "office_name": null,
    "office_name_kana": null
  },
  "2309": {
    "postcode": "3842309",
    "prefecture": "長野県",
    "prefecture_kana": "ナガノケン",
    "prefecture_code": 20,
    "city": "北佐久郡立科町",
    "city_kana": "キタサクグンタテシナマチ",
    "town": "芦田八ケ野",
    "town_kana": "アシダハツカノ",
    "street": null,
    "office_name": null,
    "office_name_kana": null
  },
  "8501": {
    "postcode": "3848501",
    "prefecture": "長野県",
    "prefecture_kana": "ナガノケン",
    "prefecture_code": 20,
    "city": "小諸市",
    "city_kana": "コモロシ",
    "town": "相生町",
    "town_kana": "アイオイチョウ",
    "street": "３丁目３ー３",
    "office_name": "小諸市役所",
    "office_name_kana": "コモロシヤクシヨ"
  },
  "8511": {
    "postcode": "3848511",
    "prefecture": "長野県",
    "prefecture_kana": "ナガノケン",
    "prefecture_code": 20,
    "city": "小諸市",
    "city_kana": "コモロシ",
    "town": "柏木",
    "town_kana": "カシワギ",
    "street": "１９０番地",
    "office_name": "株式会社　小諸村田製作所",
    "office_name_kana": "カブシキガイシヤ コモロムラタセイサクジヨ"
  },
  "8558": {
    "postcode": "3848558",
    "prefecture": "長野県",
    "prefecture_kana": "ナガノケン",
    "prefecture_code": 20,
    "city": "小諸市",
    "city_kana": "コモロシ",
    "town": "",
    "town_kana": "",
    "street": "古城乙１２１０",
    "office_name": "中棚温泉　中棚荘",
    "office_name_kana": "ナカタナオンセン ナカタナソウ"
  },
  "8585": {
    "postcode": "3848585",
    "prefecture": "長野県",
    "prefecture_kana": "ナガノケン",
    "prefecture_code": 20,
    "city": "小諸市",
    "city_kana": "コモロシ",
    "town": "",
    "town_kana": "",
    "street": "天池４５８６ー３",
    "office_name": "日精エー・エス・ビー機械　株式会社",
    "office_name_kana": "ニツセイエ-.エス.ビ-キカイ カブシキカイシヤ"
  },
  "8588": {
    "postcode": "3848588",
    "prefecture": "長野県",
    "prefecture_kana": "ナガノケン",
    "prefecture_code": 20,
    "city": "小諸市",
    "city_kana": "コモロシ",
    "town": "相生町",
    "town_kana": "アイオイチョウ",
    "street": "三丁目３番２１号",
    "office_name": "長野県厚生農業協同組合連合会　浅間南麓こもろ医療センター",
    "office_name_kana": "ナガノケンコウセイノウギヨウキヨウドウクミアイレンゴウカイ アサマナンロクコモロイリヨウセンタ-"
  },
  "8605": {
    "postcode": "3848605",
    "prefecture": "長野県",
    "prefecture_kana": "ナガノケン",
    "prefecture_code": 20,
    "city": "小諸市",
    "city_kana": "コモロシ",
    "town": "乙",
    "town_kana": "オツ",
    "street": "２９４−２３（小諸郵便局私書箱第２７号）",
    "office_name": "小諸社会保険事務所",
    "office_name_kana": "コモロシヤカイホケンジムシヨ"
  }
}