{
  "0000": {
    "postcode": "3870000",
    "prefecture": "長野県",
    "prefecture_kana": "ナガノケン",
    "prefecture_code": 20,
    "city": "千曲市",
    "city_kana": "チクマシ",
    "town": "",
    "town_kana": "",
    "street": null,
    "office_name": null,
    "office_name_kana": null
  },
  "0001": {
    "postcode": "3870001",
    "prefecture": "長野県",
    "prefecture_kana": "ナガノケン",
    "prefecture_code": 20,
    "city": "千曲市",
    "city_kana": "チクマシ",
    "town": "雨宮",
    "town_kana": "アメノミヤ",
    "street": null,
    "office_name": null,
    "office_name_kana": null
  },
  "0002": {
    "postcode": "3870002",
    "prefecture": "長野県",
    "prefecture_kana": "ナガノケン",
    "prefecture_code": 20,
    "city": "千曲市",
    "city_kana": "チクマシ",
    "town": "土口",
    "town_kana": "ドグチ",
    "street": null,
    "office_name": null,
    "office_name_kana": null
  },
  "0003": {
    "postcode": "3870003",
    "prefecture": "長野県",
    "prefecture_kana": "ナガノケン",
    "prefecture_code": 20,
    "city": "千曲市",
    "city_kana": "チクマシ",
    "town": "生萱",
    "town_kana": "イキガヤ",
    "street": null,
    "office_name": null,
    "office_name_kana": null
  },
  "0004": {
    "postcode": "3870004",
    "prefecture": "長野県",
    "prefecture_kana": "ナガノケン",
    "prefecture_code": 20,
    "city": "千曲市",
    "city_kana": "チクマシ",
    "town": "倉科",
    "town_kana": "クラシナ",
    "street": null,
    "office_name": null,
    "office_name_kana": null
  },
  "0005": {
    "postcode": "3870005",
    "prefecture": "長野県",
    "prefecture_kana": "ナガノケン",
    "prefecture_code": 20,
    "city": "千曲市",
    "city_kana": "チクマシ",
    "town": "森",
    "town_kana": "モリ",
    "street": null,
    "office_name": null,
    "office_name_kana": null
  },
  "0006": {
    "postcode": "3870006",
    "prefecture": "長野県",
    "prefecture_kana": "ナガノケン",
    "prefecture_code": 20,
    "city": "千曲市",
    "city_kana": "チクマシ",
    "town": "粟佐",
    "town_kana": "アワサ",
    "street": null,
    "office_name": null,
    "office_name_kana": null
  },
  "0007": {
    "postcode": "3870007",
    "prefecture": "長野県",
    "prefecture_kana": "ナガノケン",
    "prefecture_code": 20,
    "city": "千曲市",
    "city_kana": "チクマシ",
    "town": "屋代",
    "town_kana": "ヤシロ",
    "street": null,
    "office_name": null,
    "office_name_kana": null
  },
  "0011": {
    "postcode": "3870011",
    "prefecture": "長野県",
    "prefecture_kana": "ナガノケン",
    "prefecture_code": 20,
    "city": "千曲市",
    "city_kana": "チクマシ",
    "town": "杭瀬下",
    "town_kana": "クイセケ",
    "street": null,
    "office_name": null,
    "office_name_kana": null
  },
  "0012": {
    "postcode": "3870012",
    "prefecture": "長野県",
    "prefecture_kana": "ナガノケン",
    "prefecture_code": 20,
    "city": "千曲市",
    "city_kana": "チクマシ",
    "town": "桜堂",
    "town_kana": "サクラドウ",
    "street": null,
    "office_name": null,
    "office_name_kana": null
  },
  "0013": {
    "postcode": "3870013",
    "prefecture": "長野県",
    "prefecture_kana": "ナガノケン",
    "prefecture_code": 20,
    "city": "千曲市",
    "city_kana": "チクマシ",
    "town": "小島",
    "town_kana": "オジマ",
    "street": null,
    "office_name": null,
    "office_name_kana": null
  },
  "0014": {
    "postcode": "3870014",
    "prefecture": "長野県",
    "prefecture_kana": "ナガノケン",
    "prefecture_code": 20,
    "city": "千曲市",
    "city_kana": "チクマシ",
    "town": "打沢",
    "town_kana": "ウッサワ",
    "street": null,
    "office_name": null,
    "office_name_kana": null
  },
  "0015": {
    "postcode": "3870015",
    "prefecture": "長野県",
    "prefecture_kana": "ナガノケン",
    "prefecture_code": 20,
    "city": "千曲市",
    "city_kana": "チクマシ",
    "town": "鋳物師屋",
    "town_kana": "イモジヤ",
    "street": null,
    "office_name": null,
    "office_name_kana": null
  },
  "0016": {
    "postcode": "3870016",
    "prefecture": "長野県",
    "prefecture_kana": "ナガノケン",
    "prefecture_code": 20,
    "city": "千曲市",
    "city_kana": "チクマシ",
    "town": "寂蒔",
    "town_kana": "ジャクマク",
    "street": null,
    "office_name": null,
    "office_name_kana": null
  },
  "0017": {
    "postcode": "3870017",
    "prefecture": "長野県",
    "prefecture_kana": "ナガノケン",
    "prefecture_code": 20,
    "city": "千曲市",
    "city_kana": "チクマシ",
    "town": "中",
    "town_kana": "ナカ",
    "street": null,
    "office_name": null,
    "office_name_kana": null
  },
  "0018": {
    "postcode": "3870018",
    "prefecture": "長野県",
    "prefecture_kana": "ナガノケン",
    "prefecture_code": 20,
    "city": "千曲市",
    "city_kana": "チクマシ",
    "town": "新田",
    "town_kana": "シンデン",
    "street": null,
    "office_name": null,
    "office_name_kana": null
  },
  "0021": {
    "postcode": "3870021",
    "prefecture": "長野県",
    "prefecture_kana": "ナガノケン",
    "prefecture_code": 20,
    "city": "千曲市",
    "city_kana": "チクマシ",
    "town": "稲荷山",
    "town_kana": "イナリヤマ",
    "street": null,
    "office_name": null,
    "office_name_kana": null
  },
  "0022": {
    "postcode": "3870022",
    "prefecture": "長野県",
    "prefecture_kana": "ナガノケン",
    "prefecture_code": 20,
    "city": "千曲市",
    "city_kana": "チクマシ",
    "town": "野高場",
    "town_kana": "ノタカバ",
    "street": null,
    "office_name": null,
    "office_name_kana": null
  },
  "0023": {
    "postcode": "3870023",
    "prefecture": "長野県",
    "prefecture_kana": "ナガノケン",
    "prefecture_code": 20,
    "city": "千曲市",
    "city_kana": "チクマシ",
    "town": "八幡",
    "town_kana": "ヤワタ",
    "street": null,
    "office_name": null,
    "office_name_kana": null
  },
  "0024": {
    "postcode": "3870024",
    "prefecture": "長野県",
    "prefecture_kana": "ナガノケン",
    "prefecture_code": 20,
    "city": "千曲市",
    "city_kana": "チクマシ",
    "town": "桑原",
    "town_kana": "クワバラ",
    "street": null,
    "office_name": null,
    "office_name_kana": null
  },
  "8501": {
    "postcode": "3878501",
    "prefecture": "長野県",
    "prefecture_kana": "ナガノケン",
    "prefecture_code": 20,
    "city": "千曲市",
    "city_kana": "チクマシ",
    "town": "大字屋代",
    "town_kana": null,
    "street": "１０００",
    "office_name": "長野県　屋代高等学校",
    "office_name_kana": "ナガノケン ヤシロコウトウガツコウ"
  },
  "8502": {
    "postcode": "3878502",
    "prefecture": "長野県",
    "prefecture_kana": "ナガノケン",
    "prefecture_code": 20,
    "city": "千曲市",
    "city_kana": "チクマシ",
    "town": "大字屋代",
    "town_kana": null,
    "street": "２１０４",
    "office_name": "長野県　屋代南高等学校",
    "office_name_kana": "ナガノケン ヤシロミナミコウトウガツコウ"
  },
  "8503": {
    "postcode": "3878503",
    "prefecture": "長野県",
    "prefecture_kana": "ナガノケン",
    "prefecture_code": 20,
    "city": "千曲市",
    "city_kana": "チクマシ",
    "town": "大字屋代",
    "town_kana": null,
    "street": "１４８０",
    "office_name": "株式会社　菱食　長野支店",
    "office_name_kana": "カブシキガイシヤ リヨウシヨク ナガノシテン"
  },
  "8511": {
    "postcode": "3878511",
    "prefecture": "長野県",
    "prefecture_kana": "ナガノケン",
    "prefecture_code": 20,
    "city": "千曲市",
    "city_kana": "チクマシ",
    "town": "大字杭瀬下",
    "town_kana": null,
    "street": "８４",
    "office_name": "千曲市役所",
    "office_name_kana": "チクマシヤクシヨ"
  },
  "8512": {
    "postcode": "3878512",
    "prefecture": "長野県",
    "prefecture_kana": "ナガノケン",
    "prefecture_code": 20,
    "city": "千曲市",
    "city_kana": "チクマシ",
    "town": "大字杭瀬下",
    "town_kana": null,
    "street": "５８",
    "office_name": "更埴中央病院",
    "office_name_kana": "コウシヨクチユウオウビヨウイン"
  },
  "8521": {
    "postcode": "3878521",
    "prefecture": "長野県",
    "prefecture_kana": "ナガノケン",
    "prefecture_code": 20,
    "city": "千曲市",
    "city_kana": "チクマシ",
    "town": "大字鋳物師屋",
    "town_kana": null,
    "street": "２００",
    "office_name": "ちくま農業協同組合",
    "office_name_kana": "チクマノウギヨウキヨウドウクミアイ"
  },
  "8555": {
    "postcode": "3878555",
    "prefecture": "長野県",
    "prefecture_kana": "ナガノケン",
    "prefecture_code": 20,
    "city": "千曲市",
    "city_kana": "チクマシ",
    "town": "大字屋代",
    "town_kana": null,
    "street": "１３９３",
    "office_name": "長野電子工業　株式会社",
    "office_name_kana": "ナガノデンシコウギヨウ カブシキガイシヤ"
  },
  "8561": {
    "postcode": "3878561",
    "prefecture": "長野県",
    "prefecture_kana": "ナガノケン",
    "prefecture_code": 20,
    "city": "千曲市",
    "city_kana": "チクマシ",
    "town": "大字八幡",
    "town_kana": null,
    "street": "３２９７−２",
    "office_name": "長野工業　株式会社",
    "office_name_kana": "ナガノコウギヨウ カブシキガイシヤ"
  },
  "8585": {
    "postcode": "3878585",
    "prefecture": "長野県",
    "prefecture_kana": "ナガノケン",
    "prefecture_code": 20,
    "city": "千曲市",
    "city_kana": "チクマシ",
    "town": "大字寂蒔",
    "town_kana": null,
    "street": "８８０",
    "office_name": "丸善食品工業　株式会社",
    "office_name_kana": "マルゼンシヨクヒンコウギヨウ カブシキガイシヤ"
  },
  "8601": {
    "postcode": "3878601",
    "prefecture": "長野県",
    "prefecture_kana": "ナガノケン",
    "prefecture_code": 20,
    "city": "千曲市",
    "city_kana": "チクマシ",
    "town": "大字屋代",
    "town_kana": null,
    "street": "２４５１（千曲郵便局私書箱第１号）",
    "office_name": "フレックスジャパン　株式会社",
    "office_name_kana": "フレツクスジヤパン カブシキガイシヤ"
  },
  "8603": {
    "postcode": "3878603",
    "prefecture": "長野県",
    "prefecture_kana": "ナガノケン",
    "prefecture_code": 20,
    "city": "千曲市",
    "city_kana": "チクマシ",
    "town": "大字雨宮",
    "town_kana": null,
    "street": "１８２５（千曲郵便局私書箱第３号）",
    "office_name": "エムケー精工　株式会社",
    "office_name_kana": "エムケ-セイコウ カブシキガイシヤ"
  }
}