{
  "0000": {
    "postcode": "3910000",
    "prefecture": "長野県",
    "prefecture_kana": "ナガノケン",
    "prefecture_code": 20,
    "city": "茅野市",
    "city_kana": "チノシ",
    "town": "",
    "town_kana": "",
    "street": null,
    "office_name": null,
    "office_name_kana": null
  },
  "0001": {
    "postcode": "3910001",
    "prefecture": "長野県",
    "prefecture_kana": "ナガノケン",
    "prefecture_code": 20,
    "city": "茅野市",
    "city_kana": "チノシ",
    "town": "ちの",
    "town_kana": "チノ",
    "street": null,
    "office_name": null,
    "office_name_kana": null
  },
  "0002": {
    "postcode": "3910002",
    "prefecture": "長野県",
    "prefecture_kana": "ナガノケン",
    "prefecture_code": 20,
    "city": "茅野市",
    "city_kana": "チノシ",
    "town": "塚原",
    "town_kana": "ツカハラ",
    "street": null,
    "office_name": null,
    "office_name_kana": null
  },
  "0003": {
    "postcode": "3910003",
    "prefecture": "長野県",
    "prefecture_kana": "ナガノケン",
    "prefecture_code": 20,
    "city": "茅野市",
    "city_kana": "チノシ",
    "town": "本町",
    "town_kana": "ホンマチ",
    "street": null,
    "office_name": null,
    "office_name_kana": null
  },
  "0004": {
    "postcode": "3910004",
    "prefecture": "長野県",
    "prefecture_kana": "ナガノケン",
    "prefecture_code": 20,
    "city": "茅野市",
    "city_kana": "チノシ",
    "town": "城山",
    "town_kana": "ジョウヤマ",
    "street": null,
    "office_name": null,
    "office_name_kana": null
  },
  "0005": {
    "postcode": "3910005",
    "prefecture": "長野県",
    "prefecture_kana": "ナガノケン",
    "prefecture_code": 20,
    "city": "茅野市",
    "city_kana": "チノシ",
    "town": "仲町",
    "town_kana": "ナカマチ",
    "street": null,
    "office_name": null,
    "office_name_kana": null
  },
  "0011": {
    "postcode": "3910011",
    "prefecture": "長野県",
    "prefecture_kana": "ナガノケン",
    "prefecture_code": 20,
    "city": "茅野市",
    "city_kana": "チノシ",
    "town": "玉川",
    "town_kana": "タマガワ",
    "street": null,
    "office_name": null,
    "office_name_kana": null
  },
  "0012": {
    "postcode": "3910012",
    "prefecture": "長野県",
    "prefecture_kana": "ナガノケン",
    "prefecture_code": 20,
    "city": "茅野市",
    "city_kana": "チノシ",
    "town": "金沢",
    "town_kana": "カナザワ",
    "street": null,
    "office_name": null,
    "office_name_kana": null
  },
  "0013": {
    "postcode": "3910013",
    "prefecture": "長野県",
    "prefecture_kana": "ナガノケン",
    "prefecture_code": 20,
    "city": "茅野市",
    "city_kana": "チノシ",
    "town": "宮川",
    "town_kana": "ミヤガワ",
    "street": null,
    "office_name": null,
    "office_name_kana": null
  },
  "0021": [
    {
      "postcode": "3910021",
      "prefecture": "長野県",
      "prefecture_kana": "ナガノケン",
      "prefecture_code": 20,
      "city": "諏訪郡富士見町",
      "city_kana": "スワグンフジミマチ",
      "town": "富士見",
      "town_kana": "フジミ",
      "street": null,
      "office_name": null,
      "office_name_kana": null
    },
    {
      "postcode": "3910021",
      "prefecture": "長野県",
      "prefecture_kana": "ナガノケン",
      "prefecture_code": 20,
      "city": "諏訪郡富士見町",
      "city_kana": "スワグンフジミマチ",
      "town": "富士見入笠湖",
      "town_kana": "フジミニュウカサコ",
      "street": null,
      "office_name": null,
      "office_name_kana": null
    }
  ],
  "0100": {
    "postcode": "3910100",
    "prefecture": "長野県",
    "prefecture_kana": "ナガノケン",
    "prefecture_code": 20,
    "city": "諏訪郡原村",
    "city_kana": "スワグンハラムラ",
    "town": "",
    "town_kana": "",
    "street": null,
    "office_name": null,
    "office_name_kana": null
  },
  "0101": {
    "postcode": "3910101",
    "prefecture": "長野県",
    "prefecture_kana": "ナガノケン",
    "prefecture_code": 20,
    "city": "諏訪郡原村",
    "city_kana": "スワグンハラムラ",
    "town": "大久保",
    "town_kana": "オオクボ",
    "street": null,
    "office_name": null,
    "office_name_kana": null
  },
  "0102": {
    "postcode": "3910102",
    "prefecture": "長野県",
    "prefecture_kana": "ナガノケン",
    "prefecture_code": 20,
    "city": "諏訪郡原村",
    "city_kana": "スワグンハラムラ",
    "town": "柳沢",
    "town_kana": "ヤナギサワ",
    "street": null,
    "office_name": null,
    "office_name_kana": null
  },
  "0103": {
    "postcode": "3910103",
    "prefecture": "長野県",
    "prefecture_kana": "ナガノケン",
    "prefecture_code": 20,
    "city": "諏訪郡原村",
    "city_kana": "スワグンハラムラ",
    "town": "八ツ手",
    "town_kana": "ヤツデ",
    "street": null,
    "office_name": null,
    "office_name_kana": null
  },
  "0104": {
    "postcode": "3910104",
    "prefecture": "長野県",
    "prefecture_kana": "ナガノケン",
    "prefecture_code": 20,
    "city": "諏訪郡原村",
    "city_kana": "スワグンハラムラ",
    "town": "払沢",
    "town_kana": "ハライザワ",
    "street": null,
    "office_name": null,
    "office_name_kana": null
  },
  "0105": {
    "postcode": "3910105",
    "prefecture": "長野県",
    "prefecture_kana": "ナガノケン",
    "prefecture_code": 20,
    "city": "諏訪郡原村",
    "city_kana": "スワグンハラムラ",
    "town": "柏木",
    "town_kana": "カシワギ",
    "street": null,
    "office_name": null,
    "office_name_kana": null
  },
  "0106": {
    "postcode": "3910106",
    "prefecture": "長野県",
    "prefecture_kana": "ナガノケン",
    "prefecture_code": 20,
    "city": "諏訪郡原村",
    "city_kana": "スワグンハラムラ",
    "town": "菖蒲沢",
    "town_kana": "ショウブザワ",
    "street": null,
    "office_name": null,
    "office_name_kana": null
  },
  "0107": {
    "postcode": "3910107",
    "prefecture": "長野県",
    "prefecture_kana": "ナガノケン",
    "prefecture_code": 20,
    "city": "諏訪郡原村",
    "city_kana": "スワグンハラムラ",
    "town": "室内",
    "town_kana": "ムロウチ",
    "street": null,
    "office_name": null,
    "office_name_kana": null
  },
  "0108": {
    "postcode": "3910108",
    "prefecture": "長野県",
    "prefecture_kana": "ナガノケン",
    "prefecture_code": 20,
    "city": "諏訪郡原村",
    "city_kana": "スワグンハラムラ",
    "town": "中新田",
    "town_kana": "ナカシンデン",
    "street": null,
    "office_name": null,
    "office_name_kana": null
  },
  "0109": {
    "postcode": "3910109",
    "prefecture": "長野県",
    "prefecture_kana": "ナガノケン",
    "prefecture_code": 20,
    "city": "諏訪郡原村",
    "city_kana": "スワグンハラムラ",
    "town": "南原",
    "town_kana": "ミナミハラ",
    "street": null,
    "office_name": null,
    "office_name_kana": null
  },
  "0111": {
    "postcode": "3910111",
    "prefecture": "長野県",
    "prefecture_kana": "ナガノケン",
    "prefecture_code": 20,
    "city": "諏訪郡原村",
    "city_kana": "スワグンハラムラ",
    "town": "上里",
    "town_kana": "カミサト",
    "street": null,
    "office_name": null,
    "office_name_kana": null
  },
  "0112": {
    "postcode": "3910112",
    "prefecture": "長野県",
    "prefecture_kana": "ナガノケン",
    "prefecture_code": 20,
    "city": "諏訪郡原村",
    "city_kana": "スワグンハラムラ",
    "town": "農場",
    "town_kana": "ノウジョウ",
    "street": null,
    "office_name": null,
    "office_name_kana": null
  },
  "0113": {
    "postcode": "3910113",
    "prefecture": "長野県",
    "prefecture_kana": "ナガノケン",
    "prefecture_code": 20,
    "city": "諏訪郡原村",
    "city_kana": "スワグンハラムラ",
    "town": "やつがね",
    "town_kana": "ヤツガネ",
    "street": null,
    "office_name": null,
    "office_name_kana": null
  },
  "0114": {
    "postcode": "3910114",
    "prefecture": "長野県",
    "prefecture_kana": "ナガノケン",
    "prefecture_code": 20,
    "city": "諏訪郡原村",
    "city_kana": "スワグンハラムラ",
    "town": "ペンション",
    "town_kana": "ペンション",
    "street": null,
    "office_name": null,
    "office_name_kana": null
  },
  "0115": {
    "postcode": "3910115",
    "prefecture": "長野県",
    "prefecture_kana": "ナガノケン",
    "prefecture_code": 20,
    "city": "諏訪郡原村",
    "city_kana": "スワグンハラムラ",
    "town": "原山",
    "town_kana": "ハラヤマ",
    "street": null,
    "office_name": null,
    "office_name_kana": null
  },
  "0116": {
    "postcode": "3910116",
    "prefecture": "長野県",
    "prefecture_kana": "ナガノケン",
    "prefecture_code": 20,
    "city": "諏訪郡原村",
    "city_kana": "スワグンハラムラ",
    "town": "判の木",
    "town_kana": "ハンノキ",
    "street": null,
    "office_name": null,
    "office_name_kana": null
  },
  "0192": {
    "postcode": "3910192",
    "prefecture": "長野県",
    "prefecture_kana": "ナガノケン",
    "prefecture_code": 20,
    "city": "諏訪郡原村",
    "city_kana": "スワグンハラムラ",
    "town": "払沢",
    "town_kana": "ハライザワ",
    "street": "６５４９−１",
    "office_name": "原村役場",
    "office_name_kana": "ハラムラヤクバ"
  },
  "0211": {
    "postcode": "3910211",
    "prefecture": "長野県",
    "prefecture_kana": "ナガノケン",
    "prefecture_code": 20,
    "city": "茅野市",
    "city_kana": "チノシ",
    "town": "湖東",
    "town_kana": "コヒガシ",
    "street": null,
    "office_name": null,
    "office_name_kana": null
  },
  "0212": {
    "postcode": "3910212",
    "prefecture": "長野県",
    "prefecture_kana": "ナガノケン",
    "prefecture_code": 20,
    "city": "茅野市",
    "city_kana": "チノシ",
    "town": "北山",
    "town_kana": "キタヤマ",
    "street": null,
    "office_name": null,
    "office_name_kana": null
  },
  "0213": {
    "postcode": "3910213",
    "prefecture": "長野県",
    "prefecture_kana": "ナガノケン",
    "prefecture_code": 20,
    "city": "茅野市",
    "city_kana": "チノシ",
    "town": "豊平",
    "town_kana": "トヨヒラ",
    "street": null,
    "office_name": null,
    "office_name_kana": null
  },
  "0214": {
    "postcode": "3910214",
    "prefecture": "長野県",
    "prefecture_kana": "ナガノケン",
    "prefecture_code": 20,
    "city": "茅野市",
    "city_kana": "チノシ",
    "town": "泉野",
    "town_kana": "イズミノ",
    "street": null,
    "office_name": null,
    "office_name_kana": null
  },
  "0215": {
    "postcode": "3910215",
    "prefecture": "長野県",
    "prefecture_kana": "ナガノケン",
    "prefecture_code": 20,
    "city": "茅野市",
    "city_kana": "チノシ",
    "town": "中大塩",
    "town_kana": "ナカオオシオ",
    "street": null,
    "office_name": null,
    "office_name_kana": null
  },
  "0216": {
    "postcode": "3910216",
    "prefecture": "長野県",
    "prefecture_kana": "ナガノケン",
    "prefecture_code": 20,
    "city": "茅野市",
    "city_kana": "チノシ",
    "town": "米沢",
    "town_kana": "ヨネザワ",
    "street": null,
    "office_name": null,
    "office_name_kana": null
  },
  "0292": {
    "postcode": "3910292",
    "prefecture": "長野県",
    "prefecture_kana": "ナガノケン",
    "prefecture_code": 20,
    "city": "茅野市",
    "city_kana": "チノシ",
    "town": "豊平",
    "town_kana": "トヨヒラ",
    "street": "５０００−１",
    "office_name": "諏訪　東京理科大学",
    "office_name_kana": "スワ トウキヨウリカダイガク"
  },
  "0293": {
    "postcode": "3910293",
    "prefecture": "長野県",
    "prefecture_kana": "ナガノケン",
    "prefecture_code": 20,
    "city": "茅野市",
    "city_kana": "チノシ",
    "town": "中大塩",
    "town_kana": "ナカオオシオ",
    "street": "２３−１１",
    "office_name": "株式会社　コダックデジタルプロダクトセンター",
    "office_name_kana": "カブシキガイシヤ コダツクデジタルプロダクトセンタ-"
  },
  "0294": {
    "postcode": "3910294",
    "prefecture": "長野県",
    "prefecture_kana": "ナガノケン",
    "prefecture_code": 20,
    "city": "茅野市",
    "city_kana": "チノシ",
    "town": "豊平",
    "town_kana": "トヨヒラ",
    "street": "４８０番地",
    "office_name": "株式会社　ダイイチコンポーネンツ",
    "office_name_kana": "カブシキガイシヤ ダイイチコンポ-ネンツ"
  },
  "0295": {
    "postcode": "3910295",
    "prefecture": "長野県",
    "prefecture_kana": "ナガノケン",
    "prefecture_code": 20,
    "city": "茅野市",
    "city_kana": "チノシ",
    "town": "豊平",
    "town_kana": "トヨヒラ",
    "street": "５３５０",
    "office_name": "宮坂ゴム　株式会社",
    "office_name_kana": "ミヤサカゴム カブシキガイシヤ"
  },
  "0296": {
    "postcode": "3910296",
    "prefecture": "長野県",
    "prefecture_kana": "ナガノケン",
    "prefecture_code": 20,
    "city": "茅野市",
    "city_kana": "チノシ",
    "town": "豊平",
    "town_kana": "トヨヒラ",
    "street": "１５２６番地１",
    "office_name": "株式会社　サンヨー工業",
    "office_name_kana": "カブシキガイシヤ サンヨ-コウギヨウ"
  },
  "0297": {
    "postcode": "3910297",
    "prefecture": "長野県",
    "prefecture_kana": "ナガノケン",
    "prefecture_code": 20,
    "city": "茅野市",
    "city_kana": "チノシ",
    "town": "豊平",
    "town_kana": "トヨヒラ",
    "street": "４８０",
    "office_name": "株式会社　ディスコ　長野事業所",
    "office_name_kana": "カブシキガイシヤ デイスコ ナガノジギヨウシヨ"
  },
  "0301": {
    "postcode": "3910301",
    "prefecture": "長野県",
    "prefecture_kana": "ナガノケン",
    "prefecture_code": 20,
    "city": "茅野市",
    "city_kana": "チノシ",
    "town": "北山",
    "town_kana": "キタヤマ",
    "street": null,
    "office_name": null,
    "office_name_kana": null
  },
  "0321": [
    {
      "postcode": "3910321",
      "prefecture": "長野県",
      "prefecture_kana": "ナガノケン",
      "prefecture_code": 20,
      "city": "北佐久郡立科町",
      "city_kana": "キタサクグンタテシナマチ",
      "town": "芦田八ケ野",
      "town_kana": "アシダハツカノ",
      "street": null,
      "office_name": null,
      "office_name_kana": null
    },
    {
      "postcode": "3910321",
      "prefecture": "長野県",
      "prefecture_kana": "ナガノケン",
      "prefecture_code": 20,
      "city": "北佐久郡立科町",
      "city_kana": "キタサクグンタテシナマチ",
      "town": "池の平",
      "town_kana": "イケノタイラ",
      "street": null,
      "office_name": null,
      "office_name_kana": null
    }
  ],
  "0392": {
    "postcode": "3910392",
    "prefecture": "長野県",
    "prefecture_kana": "ナガノケン",
    "prefecture_code": 20,
    "city": "北佐久郡立科町",
    "city_kana": "キタサクグンタテシナマチ",
    "town": "大字芦田八ケ野",
    "town_kana": null,
    "street": "１５９６",
    "office_name": "池の平ホテル",
    "office_name_kana": "イケノタイラホテル"
  },
  "0393": {
    "postcode": "3910393",
    "prefecture": "長野県",
    "prefecture_kana": "ナガノケン",
    "prefecture_code": 20,
    "city": "茅野市",
    "city_kana": "チノシ",
    "town": "北山",
    "town_kana": "キタヤマ",
    "street": "４０２８−ロ",
    "office_name": "蓼科グランドホテル滝の湯",
    "office_name_kana": "タテシナグランドホテルタキノユ"
  },
  "0394": {
    "postcode": "3910394",
    "prefecture": "長野県",
    "prefecture_kana": "ナガノケン",
    "prefecture_code": 20,
    "city": "茅野市",
    "city_kana": "チノシ",
    "town": "北山",
    "town_kana": "キタヤマ",
    "street": "５５２２",
    "office_name": "蓼科パークホテル",
    "office_name_kana": "タテシナパ-クホテル"
  },
  "0395": {
    "postcode": "3910395",
    "prefecture": "長野県",
    "prefecture_kana": "ナガノケン",
    "prefecture_code": 20,
    "city": "茅野市",
    "city_kana": "チノシ",
    "town": "北山",
    "town_kana": "キタヤマ",
    "street": "４０３５",
    "office_name": "アートランドホテル蓼科",
    "office_name_kana": "ア-トランドホテルタテシナ"
  },
  "0396": {
    "postcode": "3910396",
    "prefecture": "長野県",
    "prefecture_kana": "ナガノケン",
    "prefecture_code": 20,
    "city": "茅野市",
    "city_kana": "チノシ",
    "town": "北山",
    "town_kana": "キタヤマ",
    "street": "４７２４",
    "office_name": "株式会社　渡辺製麺",
    "office_name_kana": "カブシキガイシヤ ワタナベセイメン"
  },
  "8501": {
    "postcode": "3918501",
    "prefecture": "長野県",
    "prefecture_kana": "ナガノケン",
    "prefecture_code": 20,
    "city": "茅野市",
    "city_kana": "チノシ",
    "town": "塚原",
    "town_kana": "ツカハラ",
    "street": "２丁目６−１",
    "office_name": "茅野市役所",
    "office_name_kana": "チノシヤクシヨ"
  },
  "8503": {
    "postcode": "3918503",
    "prefecture": "長野県",
    "prefecture_kana": "ナガノケン",
    "prefecture_code": 20,
    "city": "茅野市",
    "city_kana": "チノシ",
    "town": "玉川",
    "town_kana": "タマガワ",
    "street": "４３００",
    "office_name": "諏訪中央病院",
    "office_name_kana": "スワチユウオウビヨウイン"
  },
  "8510": {
    "postcode": "3918510",
    "prefecture": "長野県",
    "prefecture_kana": "ナガノケン",
    "prefecture_code": 20,
    "city": "茅野市",
    "city_kana": "チノシ",
    "town": "塚原",
    "town_kana": "ツカハラ",
    "street": "１丁目７−２０",
    "office_name": "山高味噌　株式会社",
    "office_name_kana": "ヤマタカミソ カブシキガイシヤ"
  },
  "8511": {
    "postcode": "3918511",
    "prefecture": "長野県",
    "prefecture_kana": "ナガノケン",
    "prefecture_code": 20,
    "city": "茅野市",
    "city_kana": "チノシ",
    "town": "宮川",
    "town_kana": "ミヤガワ",
    "street": "１１３９５",
    "office_name": "長野県立　茅野高等学校",
    "office_name_kana": "ナガノケンリツ チノコウトウガツコウ"
  },
  "8512": {
    "postcode": "3918512",
    "prefecture": "長野県",
    "prefecture_kana": "ナガノケン",
    "prefecture_code": 20,
    "city": "茅野市",
    "city_kana": "チノシ",
    "town": "玉川",
    "town_kana": "タマガワ",
    "street": "６７５",
    "office_name": "東海大学第三高等学校",
    "office_name_kana": "トウカイダイガクダイサンコウトウガツコウ"
  },
  "8521": {
    "postcode": "3918521",
    "prefecture": "長野県",
    "prefecture_kana": "ナガノケン",
    "prefecture_code": 20,
    "city": "茅野市",
    "city_kana": "チノシ",
    "town": "塚原",
    "town_kana": "ツカハラ",
    "street": "１丁目３−２０",
    "office_name": "茅野商工会議所",
    "office_name_kana": "チノシヨウコウカイギシヨ"
  },
  "8522": {
    "postcode": "3918522",
    "prefecture": "長野県",
    "prefecture_kana": "ナガノケン",
    "prefecture_code": 20,
    "city": "茅野市",
    "city_kana": "チノシ",
    "town": "仲町",
    "town_kana": "ナカマチ",
    "street": "２４番４号",
    "office_name": "信州諏訪農業協同組合",
    "office_name_kana": "シンシユウスワノウギヨウキヨウドウクミアイ"
  },
  "8525": {
    "postcode": "3918525",
    "prefecture": "長野県",
    "prefecture_kana": "ナガノケン",
    "prefecture_code": 20,
    "city": "茅野市",
    "city_kana": "チノシ",
    "town": "ちの",
    "town_kana": "チノ",
    "street": "６２８",
    "office_name": "ナンシン機工　株式会社",
    "office_name_kana": "ナンシンキコウ カブシキガイシヤ"
  },
  "8531": {
    "postcode": "3918531",
    "prefecture": "長野県",
    "prefecture_kana": "ナガノケン",
    "prefecture_code": 20,
    "city": "茅野市",
    "city_kana": "チノシ",
    "town": "塚原",
    "town_kana": "ツカハラ",
    "street": "１−８−３７",
    "office_name": "株式会社　イースタン",
    "office_name_kana": "カブシキガイシヤ イ-スタン"
  },
  "8540": {
    "postcode": "3918540",
    "prefecture": "長野県",
    "prefecture_kana": "ナガノケン",
    "prefecture_code": 20,
    "city": "茅野市",
    "city_kana": "チノシ",
    "town": "玉川",
    "town_kana": "タマガワ",
    "street": "１１４００−２６０",
    "office_name": "ファナックパートロニクス　株式会社",
    "office_name_kana": "フアナツクパ-トロニクス カブシキガイシヤ"
  },
  "8550": {
    "postcode": "3918550",
    "prefecture": "長野県",
    "prefecture_kana": "ナガノケン",
    "prefecture_code": 20,
    "city": "茅野市",
    "city_kana": "チノシ",
    "town": "玉川",
    "town_kana": "タマガワ",
    "street": "１１４００−１０７８",
    "office_name": "株式会社　飯沼ゲージ製作所",
    "office_name_kana": "カブシキガイシヤ イイヌマゲ-ジセイサクジヨ"
  },
  "8555": {
    "postcode": "3918555",
    "prefecture": "長野県",
    "prefecture_kana": "ナガノケン",
    "prefecture_code": 20,
    "city": "茅野市",
    "city_kana": "チノシ",
    "town": "宮川",
    "town_kana": "ミヤガワ",
    "street": "７３７７",
    "office_name": "株式会社　キッツメタルワークス",
    "office_name_kana": "カブシキガイシヤ キツツメタルワ-クス"
  },
  "8558": {
    "postcode": "3918558",
    "prefecture": "長野県",
    "prefecture_kana": "ナガノケン",
    "prefecture_code": 20,
    "city": "茅野市",
    "city_kana": "チノシ",
    "town": "金沢",
    "town_kana": "カナザワ",
    "street": "３４１０−３",
    "office_name": "株式会社　矢島",
    "office_name_kana": "カブシキガイシヤ ヤジマ"
  },
  "8560": {
    "postcode": "3918560",
    "prefecture": "長野県",
    "prefecture_kana": "ナガノケン",
    "prefecture_code": 20,
    "city": "茅野市",
    "city_kana": "チノシ",
    "town": "本町東",
    "town_kana": null,
    "street": "６番７号",
    "office_name": "長野精工　株式会社",
    "office_name_kana": "ナガノセイコウ カブシキガイシヤ"
  },
  "8561": {
    "postcode": "3918561",
    "prefecture": "長野県",
    "prefecture_kana": "ナガノケン",
    "prefecture_code": 20,
    "city": "茅野市",
    "city_kana": "チノシ",
    "town": "金沢",
    "town_kana": "カナザワ",
    "street": "６９８",
    "office_name": "長野精工　株式会社　金沢工場",
    "office_name_kana": "ナガノセイコウ カブシキガイシヤ カナザワコウジヨウ"
  },
  "8566": {
    "postcode": "3918566",
    "prefecture": "長野県",
    "prefecture_kana": "ナガノケン",
    "prefecture_code": 20,
    "city": "茅野市",
    "city_kana": "チノシ",
    "town": "金沢",
    "town_kana": "カナザワ",
    "street": "５１２５番地",
    "office_name": "株式会社　キッツマイクロフィルター　茅野工場",
    "office_name_kana": "カブシキガイシヤ キツツマイクロフイルタ- チノコウジヨウ"
  },
  "8567": {
    "postcode": "3918567",
    "prefecture": "長野県",
    "prefecture_kana": "ナガノケン",
    "prefecture_code": 20,
    "city": "茅野市",
    "city_kana": "チノシ",
    "town": "ちの",
    "town_kana": "チノ",
    "street": "６５０",
    "office_name": "野村ユニソン　株式会社",
    "office_name_kana": "ノムラユニソン カブシキガイシヤ"
  },
  "8580": {
    "postcode": "3918580",
    "prefecture": "長野県",
    "prefecture_kana": "ナガノケン",
    "prefecture_code": 20,
    "city": "茅野市",
    "city_kana": "チノシ",
    "town": "本町西",
    "town_kana": null,
    "street": "２１番２号",
    "office_name": "株式会社　ツチハシ",
    "office_name_kana": "カブシキガイシヤ ツチハシ"
  },
  "8588": {
    "postcode": "3918588",
    "prefecture": "長野県",
    "prefecture_kana": "ナガノケン",
    "prefecture_code": 20,
    "city": "茅野市",
    "city_kana": "チノシ",
    "town": "ちの",
    "town_kana": "チノ",
    "street": "１７２",
    "office_name": "八ヶ岳乳業　株式会社",
    "office_name_kana": "ヤツガタケニユウギヨウ カブシキガイシヤ"
  }
}