{
  "0000": {
    "postcode": "3920000",
    "prefecture": "長野県",
    "prefecture_kana": "ナガノケン",
    "prefecture_code": 20,
    "city": "諏訪市",
    "city_kana": "スワシ",
    "town": "",
    "town_kana": "",
    "street": null,
    "office_name": null,
    "office_name_kana": null
  },
  "0001": {
    "postcode": "3920001",
    "prefecture": "長野県",
    "prefecture_kana": "ナガノケン",
    "prefecture_code": 20,
    "city": "諏訪市",
    "city_kana": "スワシ",
    "town": "大和",
    "town_kana": "オワ",
    "street": null,
    "office_name": null,
    "office_name_kana": null
  },
  "0002": {
    "postcode": "3920002",
    "prefecture": "長野県",
    "prefecture_kana": "ナガノケン",
    "prefecture_code": 20,
    "city": "諏訪市",
    "city_kana": "スワシ",
    "town": "湯の脇",
    "town_kana": "ユノワキ",
    "street": null,
    "office_name": null,
    "office_name_kana": null
  },
  "0003": {
    "postcode": "3920003",
    "prefecture": "長野県",
    "prefecture_kana": "ナガノケン",
    "prefecture_code": 20,
    "city": "諏訪市",
    "city_kana": "スワシ",
    "town": "上諏訪",
    "town_kana": "カミスワ",
    "street": null,
    "office_name": null,
    "office_name_kana": null
  },
  "0004": {
    "postcode": "3920004",
    "prefecture": "長野県",
    "prefecture_kana": "ナガノケン",
    "prefecture_code": 20,
    "city": "諏訪市",
    "city_kana": "スワシ",
    "town": "諏訪",
    "town_kana": "スワ",
    "street": null,
    "office_name": null,
    "office_name_kana": null
  },
  "0005": {
    "postcode": "3920005",
    "prefecture": "長野県",
    "prefecture_kana": "ナガノケン",
    "prefecture_code": 20,
    "city": "諏訪市",
    "city_kana": "スワシ",
    "town": "岡村",
    "town_kana": "オカムラ",
    "street": null,
    "office_name": null,
    "office_name_kana": null
  },
  "0006": {
    "postcode": "3920006",
    "prefecture": "長野県",
    "prefecture_kana": "ナガノケン",
    "prefecture_code": 20,
    "city": "諏訪市",
    "city_kana": "スワシ",
    "town": "元町",
    "town_kana": "モトマチ",
    "street": null,
    "office_name": null,
    "office_name_kana": null
  },
  "0007": {
    "postcode": "3920007",
    "prefecture": "長野県",
    "prefecture_kana": "ナガノケン",
    "prefecture_code": 20,
    "city": "諏訪市",
    "city_kana": "スワシ",
    "town": "清水",
    "town_kana": "シミズ",
    "street": null,
    "office_name": null,
    "office_name_kana": null
  },
  "0008": {
    "postcode": "3920008",
    "prefecture": "長野県",
    "prefecture_kana": "ナガノケン",
    "prefecture_code": 20,
    "city": "諏訪市",
    "city_kana": "スワシ",
    "town": "霧ケ峰",
    "town_kana": "キリガミネ",
    "street": null,
    "office_name": null,
    "office_name_kana": null
  },
  "0009": {
    "postcode": "3920009",
    "prefecture": "長野県",
    "prefecture_kana": "ナガノケン",
    "prefecture_code": 20,
    "city": "諏訪市",
    "city_kana": "スワシ",
    "town": "杉菜池",
    "town_kana": "スギナイケ",
    "street": null,
    "office_name": null,
    "office_name_kana": null
  },
  "0010": {
    "postcode": "3920010",
    "prefecture": "長野県",
    "prefecture_kana": "ナガノケン",
    "prefecture_code": 20,
    "city": "諏訪市",
    "city_kana": "スワシ",
    "town": "渋崎",
    "town_kana": "シブサキ",
    "street": null,
    "office_name": null,
    "office_name_kana": null
  },
  "0011": {
    "postcode": "3920011",
    "prefecture": "長野県",
    "prefecture_kana": "ナガノケン",
    "prefecture_code": 20,
    "city": "諏訪市",
    "city_kana": "スワシ",
    "town": "赤羽根",
    "town_kana": "アカハネ",
    "street": null,
    "office_name": null,
    "office_name_kana": null
  },
  "0012": {
    "postcode": "3920012",
    "prefecture": "長野県",
    "prefecture_kana": "ナガノケン",
    "prefecture_code": 20,
    "city": "諏訪市",
    "city_kana": "スワシ",
    "town": "四賀",
    "town_kana": "シガ",
    "street": null,
    "office_name": null,
    "office_name_kana": null
  },
  "0013": {
    "postcode": "3920013",
    "prefecture": "長野県",
    "prefecture_kana": "ナガノケン",
    "prefecture_code": 20,
    "city": "諏訪市",
    "city_kana": "スワシ",
    "town": "沖田町",
    "town_kana": "オキタマチ",
    "street": null,
    "office_name": null,
    "office_name_kana": null
  },
  "0014": {
    "postcode": "3920014",
    "prefecture": "長野県",
    "prefecture_kana": "ナガノケン",
    "prefecture_code": 20,
    "city": "諏訪市",
    "city_kana": "スワシ",
    "town": "南町",
    "town_kana": "ミナミマチ",
    "street": null,
    "office_name": null,
    "office_name_kana": null
  },
  "0015": {
    "postcode": "3920015",
    "prefecture": "長野県",
    "prefecture_kana": "ナガノケン",
    "prefecture_code": 20,
    "city": "諏訪市",
    "city_kana": "スワシ",
    "town": "中洲",
    "town_kana": "ナカス",
    "street": null,
    "office_name": null,
    "office_name_kana": null
  },
  "0016": {
    "postcode": "3920016",
    "prefecture": "長野県",
    "prefecture_kana": "ナガノケン",
    "prefecture_code": 20,
    "city": "諏訪市",
    "city_kana": "スワシ",
    "town": "豊田",
    "town_kana": "トヨダ",
    "street": null,
    "office_name": null,
    "office_name_kana": null
  },
  "0017": {
    "postcode": "3920017",
    "prefecture": "長野県",
    "prefecture_kana": "ナガノケン",
    "prefecture_code": 20,
    "city": "諏訪市",
    "city_kana": "スワシ",
    "town": "城南",
    "town_kana": "ジョウナン",
    "street": null,
    "office_name": null,
    "office_name_kana": null
  },
  "0021": {
    "postcode": "3920021",
    "prefecture": "長野県",
    "prefecture_kana": "ナガノケン",
    "prefecture_code": 20,
    "city": "諏訪市",
    "city_kana": "スワシ",
    "town": "上川",
    "town_kana": "カミガワ",
    "street": null,
    "office_name": null,
    "office_name_kana": null
  },
  "0022": {
    "postcode": "3920022",
    "prefecture": "長野県",
    "prefecture_kana": "ナガノケン",
    "prefecture_code": 20,
    "city": "諏訪市",
    "city_kana": "スワシ",
    "town": "高島",
    "town_kana": "タカシマ",
    "street": null,
    "office_name": null,
    "office_name_kana": null
  },
  "0023": {
    "postcode": "3920023",
    "prefecture": "長野県",
    "prefecture_kana": "ナガノケン",
    "prefecture_code": 20,
    "city": "諏訪市",
    "city_kana": "スワシ",
    "town": "小和田南",
    "town_kana": "コワタミナミ",
    "street": null,
    "office_name": null,
    "office_name_kana": null
  },
  "0024": {
    "postcode": "3920024",
    "prefecture": "長野県",
    "prefecture_kana": "ナガノケン",
    "prefecture_code": 20,
    "city": "諏訪市",
    "city_kana": "スワシ",
    "town": "小和田",
    "town_kana": "コワタ",
    "street": null,
    "office_name": null,
    "office_name_kana": null
  },
  "0025": {
    "postcode": "3920025",
    "prefecture": "長野県",
    "prefecture_kana": "ナガノケン",
    "prefecture_code": 20,
    "city": "諏訪市",
    "city_kana": "スワシ",
    "town": "末広",
    "town_kana": "スエヒロ",
    "street": null,
    "office_name": null,
    "office_name_kana": null
  },
  "0026": {
    "postcode": "3920026",
    "prefecture": "長野県",
    "prefecture_kana": "ナガノケン",
    "prefecture_code": 20,
    "city": "諏訪市",
    "city_kana": "スワシ",
    "town": "大手",
    "town_kana": "オオテ",
    "street": null,
    "office_name": null,
    "office_name_kana": null
  },
  "0027": {
    "postcode": "3920027",
    "prefecture": "長野県",
    "prefecture_kana": "ナガノケン",
    "prefecture_code": 20,
    "city": "諏訪市",
    "city_kana": "スワシ",
    "town": "湖岸通り",
    "town_kana": "コガンドオリ",
    "street": null,
    "office_name": null,
    "office_name_kana": null
  },
  "0131": {
    "postcode": "3920131",
    "prefecture": "長野県",
    "prefecture_kana": "ナガノケン",
    "prefecture_code": 20,
    "city": "諏訪市",
    "city_kana": "スワシ",
    "town": "湖南",
    "town_kana": "コナミ",
    "street": null,
    "office_name": null,
    "office_name_kana": null
  },
  "8502": {
    "postcode": "3928502",
    "prefecture": "長野県",
    "prefecture_kana": "ナガノケン",
    "prefecture_code": 20,
    "city": "諏訪市",
    "city_kana": "スワシ",
    "town": "大和",
    "town_kana": "オワ",
    "street": "３丁目３−５",
    "office_name": "セイコーエプソン　株式会社　本社",
    "office_name_kana": "セイコ-エプソン カブシキカイシヤ ホンシヤ"
  },
  "8505": {
    "postcode": "3928505",
    "prefecture": "長野県",
    "prefecture_kana": "ナガノケン",
    "prefecture_code": 20,
    "city": "諏訪市",
    "city_kana": "スワシ",
    "town": "大字中洲",
    "town_kana": null,
    "street": "４６００",
    "office_name": "株式会社　国興",
    "office_name_kana": "カブシキガイシヤ コツコウ"
  },
  "8510": {
    "postcode": "3928510",
    "prefecture": "長野県",
    "prefecture_kana": "ナガノケン",
    "prefecture_code": 20,
    "city": "諏訪市",
    "city_kana": "スワシ",
    "town": "湖岸通り",
    "town_kana": "コガンドオリ",
    "street": "５丁目１１−５０",
    "office_name": "諏訪　赤十字病院",
    "office_name_kana": "スワ セキジユウジビヨウイン"
  },
  "8511": {
    "postcode": "3928511",
    "prefecture": "長野県",
    "prefecture_kana": "ナガノケン",
    "prefecture_code": 20,
    "city": "諏訪市",
    "city_kana": "スワシ",
    "town": "高島",
    "town_kana": "タカシマ",
    "street": "１丁目２２−３０",
    "office_name": "諏訪市役所",
    "office_name_kana": "スワシヤクシヨ"
  },
  "8520": {
    "postcode": "3928520",
    "prefecture": "長野県",
    "prefecture_kana": "ナガノケン",
    "prefecture_code": 20,
    "city": "諏訪市",
    "city_kana": "スワシ",
    "town": "小和田南",
    "town_kana": "コワタミナミ",
    "street": "１３−６",
    "office_name": "信濃毎日新聞　諏訪支社",
    "office_name_kana": "シナノマイニチシンブン スワシシヤ"
  },
  "8540": {
    "postcode": "3928540",
    "prefecture": "長野県",
    "prefecture_kana": "ナガノケン",
    "prefecture_code": 20,
    "city": "諏訪市",
    "city_kana": "スワシ",
    "town": "湖岸通り",
    "town_kana": "コガンドオリ",
    "street": "２丁目３−１７",
    "office_name": "（株）　竹屋",
    "office_name_kana": "カブシキガイシヤ タケヤ"
  },
  "8548": {
    "postcode": "3928548",
    "prefecture": "長野県",
    "prefecture_kana": "ナガノケン",
    "prefecture_code": 20,
    "city": "諏訪市",
    "city_kana": "スワシ",
    "town": "清水",
    "town_kana": "シミズ",
    "street": "１丁目１０−１",
    "office_name": "長野県諏訪清陵高等学校",
    "office_name_kana": "ナガノケンスワセイリヨウコウトウガツコウ"
  },
  "8549": {
    "postcode": "3928549",
    "prefecture": "長野県",
    "prefecture_kana": "ナガノケン",
    "prefecture_code": 20,
    "city": "諏訪市",
    "city_kana": "スワシ",
    "town": "岡村",
    "town_kana": "オカムラ",
    "street": "２丁目１３−２８",
    "office_name": "長野県諏訪二葉高等学校",
    "office_name_kana": "ナガノケンスワフタバコウトウガツコウ"
  },
  "8555": {
    "postcode": "3928555",
    "prefecture": "長野県",
    "prefecture_kana": "ナガノケン",
    "prefecture_code": 20,
    "city": "諏訪市",
    "city_kana": "スワシ",
    "town": "小和田南",
    "town_kana": "コワタミナミ",
    "street": "１４−７",
    "office_name": "諏訪商工会議所",
    "office_name_kana": "スワシヨウコウカイギシヨ"
  },
  "8577": {
    "postcode": "3928577",
    "prefecture": "長野県",
    "prefecture_kana": "ナガノケン",
    "prefecture_code": 20,
    "city": "諏訪市",
    "city_kana": "スワシ",
    "town": "湖岸通り",
    "town_kana": "コガンドオリ",
    "street": "２丁目７−２１",
    "office_name": "株式会社　ホテル紅や",
    "office_name_kana": "カブシキガイシヤ ホテルベニヤ"
  },
  "8578": {
    "postcode": "3928578",
    "prefecture": "長野県",
    "prefecture_kana": "ナガノケン",
    "prefecture_code": 20,
    "city": "諏訪市",
    "city_kana": "スワシ",
    "town": "大字四賀",
    "town_kana": null,
    "street": "広瀬橋通７８４１番地",
    "office_name": "ＪＡ信州諏訪農業協同組合",
    "office_name_kana": "ジエイエ-シンシユウスワノウギヨウキヨウドウクミアイ"
  },
  "8585": {
    "postcode": "3928585",
    "prefecture": "長野県",
    "prefecture_kana": "ナガノケン",
    "prefecture_code": 20,
    "city": "諏訪市",
    "city_kana": "スワシ",
    "town": "大字四賀",
    "town_kana": null,
    "street": "１０７",
    "office_name": "太陽工業　株式会社",
    "office_name_kana": "タイヨウコウギヨウ カブシキガイシヤ"
  },
  "8601": [
    {
      "postcode": "3928601",
      "prefecture": "長野県",
      "prefecture_kana": "ナガノケン",
      "prefecture_code": 20,
      "city": "諏訪市",
      "city_kana": "スワシ",
      "town": "上川",
      "town_kana": "カミガワ",
      "street": "１丁目１６４４−１０長野県諏訪合同庁舎内",
      "office_name": "長野県　諏訪建設事務所",
      "office_name_kana": "ナガノケン スワケンセツジムシヨ"
    },
    {
      "postcode": "3928601",
      "prefecture": "長野県",
      "prefecture_kana": "ナガノケン",
      "prefecture_code": 20,
      "city": "諏訪市",
      "city_kana": "スワシ",
      "town": "上川",
      "town_kana": "カミガワ",
      "street": "１丁目１６４４−１０長野県諏訪合同庁舎内",
      "office_name": "長野県　諏訪地方事務所",
      "office_name_kana": "ナガノケン スワチホウジムシヨ"
    },
    {
      "postcode": "3928601",
      "prefecture": "長野県",
      "prefecture_kana": "ナガノケン",
      "prefecture_code": 20,
      "city": "諏訪市",
      "city_kana": "スワシ",
      "town": "上川",
      "town_kana": "カミガワ",
      "street": "１丁目１６４４−１０長野県諏訪合同庁舎内",
      "office_name": "長野県　諏訪保健所",
      "office_name_kana": "ナガノケン スワホケンジヨ"
    },
    {
      "postcode": "3928601",
      "prefecture": "長野県",
      "prefecture_kana": "ナガノケン",
      "prefecture_code": 20,
      "city": "諏訪市",
      "city_kana": "スワシ",
      "town": "上川",
      "town_kana": "カミガワ",
      "street": "１丁目１６４４−１０長野県諏訪合同庁舎内",
      "office_name": "長野県　農業改良普及センター",
      "office_name_kana": "ナガノケン ノウギヨウカイリヨウフキユウセンタ-"
    }
  ],
  "8609": {
    "postcode": "3928609",
    "prefecture": "長野県",
    "prefecture_kana": "ナガノケン",
    "prefecture_code": 20,
    "city": "諏訪市",
    "city_kana": "スワシ",
    "town": "大字四賀",
    "town_kana": null,
    "street": "８２１（諏訪郵便局私書箱第４３号）",
    "office_name": "エルシーブイ　株式会社",
    "office_name_kana": "エルシ-ブイ カブシキガイシヤ"
  },
  "8610": {
    "postcode": "3928610",
    "prefecture": "長野県",
    "prefecture_kana": "ナガノケン",
    "prefecture_code": 20,
    "city": "諏訪市",
    "city_kana": "スワシ",
    "town": "清水",
    "town_kana": "シミズ",
    "street": "２丁目５−２２（諏訪郵便局私書箱第４７号）",
    "office_name": "諏訪税務署",
    "office_name_kana": "スワゼイムシヨ"
  },
  "8611": {
    "postcode": "3928611",
    "prefecture": "長野県",
    "prefecture_kana": "ナガノケン",
    "prefecture_code": 20,
    "city": "諏訪市",
    "city_kana": "スワシ",
    "town": "高島",
    "town_kana": "タカシマ",
    "street": "３丁目１３２３−１（諏訪郵便局私書箱第９号）",
    "office_name": "株式会社　長野日報社",
    "office_name_kana": "カブシキガイシヤ ナガノニツポウシヤ"
  },
  "8627": {
    "postcode": "3928627",
    "prefecture": "長野県",
    "prefecture_kana": "ナガノケン",
    "prefecture_code": 20,
    "city": "諏訪市",
    "city_kana": "スワシ",
    "town": "大手",
    "town_kana": "オオテ",
    "street": "１丁目１４−６（諏訪郵便局私書箱第３８号）",
    "office_name": "商工組合中央金庫　諏訪支店",
    "office_name_kana": "シヨウコウクミアイチユウオウキンコ スワシテン"
  },
  "8628": {
    "postcode": "3928628",
    "prefecture": "長野県",
    "prefecture_kana": "ナガノケン",
    "prefecture_code": 20,
    "city": "諏訪市",
    "city_kana": "スワシ",
    "town": "小和田南",
    "town_kana": "コワタミナミ",
    "street": "１４−５（諏訪郵便局私書箱第６号）",
    "office_name": "株式会社　八十二銀行　諏訪支店",
    "office_name_kana": "カブシキガイシヤ ハチジユウニギンコウ スワシテン"
  },
  "8686": {
    "postcode": "3928686",
    "prefecture": "長野県",
    "prefecture_kana": "ナガノケン",
    "prefecture_code": 20,
    "city": "諏訪市",
    "city_kana": "スワシ",
    "town": "元町",
    "town_kana": "モトマチ",
    "street": "１−１６",
    "office_name": "宮坂醸造　（株）　真澄",
    "office_name_kana": "ミヤサカジヨウゾウ カブシキカイシヤ マスミ"
  }
}