{
  "0000": {
    "postcode": "3940000",
    "prefecture": "長野県",
    "prefecture_kana": "ナガノケン",
    "prefecture_code": 20,
    "city": "岡谷市",
    "city_kana": "オカヤシ",
    "town": "",
    "town_kana": "",
    "street": null,
    "office_name": null,
    "office_name_kana": null
  },
  "0001": {
    "postcode": "3940001",
    "prefecture": "長野県",
    "prefecture_kana": "ナガノケン",
    "prefecture_code": 20,
    "city": "岡谷市",
    "city_kana": "オカヤシ",
    "town": "今井",
    "town_kana": "イマイ",
    "street": null,
    "office_name": null,
    "office_name_kana": null
  },
  "0002": {
    "postcode": "3940002",
    "prefecture": "長野県",
    "prefecture_kana": "ナガノケン",
    "prefecture_code": 20,
    "city": "岡谷市",
    "city_kana": "オカヤシ",
    "town": "赤羽",
    "town_kana": "アカハネ",
    "street": null,
    "office_name": null,
    "office_name_kana": null
  },
  "0003": {
    "postcode": "3940003",
    "prefecture": "長野県",
    "prefecture_kana": "ナガノケン",
    "prefecture_code": 20,
    "city": "岡谷市",
    "city_kana": "オカヤシ",
    "town": "加茂町",
    "town_kana": "カモチョウ",
    "street": null,
    "office_name": null,
    "office_name_kana": null
  },
  "0004": {
    "postcode": "3940004",
    "prefecture": "長野県",
    "prefecture_kana": "ナガノケン",
    "prefecture_code": 20,
    "city": "岡谷市",
    "city_kana": "オカヤシ",
    "town": "神明町",
    "town_kana": "シンメイチョウ",
    "street": null,
    "office_name": null,
    "office_name_kana": null
  },
  "0005": {
    "postcode": "3940005",
    "prefecture": "長野県",
    "prefecture_kana": "ナガノケン",
    "prefecture_code": 20,
    "city": "岡谷市",
    "city_kana": "オカヤシ",
    "town": "山下町",
    "town_kana": "ヤマシタチョウ",
    "street": null,
    "office_name": null,
    "office_name_kana": null
  },
  "0011": {
    "postcode": "3940011",
    "prefecture": "長野県",
    "prefecture_kana": "ナガノケン",
    "prefecture_code": 20,
    "city": "岡谷市",
    "city_kana": "オカヤシ",
    "town": "長地",
    "town_kana": "オサチ",
    "street": null,
    "office_name": null,
    "office_name_kana": null
  },
  "0021": {
    "postcode": "3940021",
    "prefecture": "長野県",
    "prefecture_kana": "ナガノケン",
    "prefecture_code": 20,
    "city": "岡谷市",
    "city_kana": "オカヤシ",
    "town": "郷田",
    "town_kana": "ゴウダ",
    "street": null,
    "office_name": null,
    "office_name_kana": null
  },
  "0022": {
    "postcode": "3940022",
    "prefecture": "長野県",
    "prefecture_kana": "ナガノケン",
    "prefecture_code": 20,
    "city": "岡谷市",
    "city_kana": "オカヤシ",
    "town": "銀座",
    "town_kana": "ギンザ",
    "street": null,
    "office_name": null,
    "office_name_kana": null
  },
  "0023": {
    "postcode": "3940023",
    "prefecture": "長野県",
    "prefecture_kana": "ナガノケン",
    "prefecture_code": 20,
    "city": "岡谷市",
    "city_kana": "オカヤシ",
    "town": "東銀座",
    "town_kana": "ヒガシギンザ",
    "street": null,
    "office_name": null,
    "office_name_kana": null
  },
  "0024": {
    "postcode": "3940024",
    "prefecture": "長野県",
    "prefecture_kana": "ナガノケン",
    "prefecture_code": 20,
    "city": "岡谷市",
    "city_kana": "オカヤシ",
    "town": "堀ノ内",
    "town_kana": "ホリノウチ",
    "street": null,
    "office_name": null,
    "office_name_kana": null
  },
  "0025": {
    "postcode": "3940025",
    "prefecture": "長野県",
    "prefecture_kana": "ナガノケン",
    "prefecture_code": 20,
    "city": "岡谷市",
    "city_kana": "オカヤシ",
    "town": "大栄町",
    "town_kana": "ダイエイチョウ",
    "street": null,
    "office_name": null,
    "office_name_kana": null
  },
  "0026": {
    "postcode": "3940026",
    "prefecture": "長野県",
    "prefecture_kana": "ナガノケン",
    "prefecture_code": 20,
    "city": "岡谷市",
    "city_kana": "オカヤシ",
    "town": "塚間町",
    "town_kana": "ツカマチョウ",
    "street": null,
    "office_name": null,
    "office_name_kana": null
  },
  "0027": {
    "postcode": "3940027",
    "prefecture": "長野県",
    "prefecture_kana": "ナガノケン",
    "prefecture_code": 20,
    "city": "岡谷市",
    "city_kana": "オカヤシ",
    "town": "中央町",
    "town_kana": "チュウオウチョウ",
    "street": null,
    "office_name": null,
    "office_name_kana": null
  },
  "0028": {
    "postcode": "3940028",
    "prefecture": "長野県",
    "prefecture_kana": "ナガノケン",
    "prefecture_code": 20,
    "city": "岡谷市",
    "city_kana": "オカヤシ",
    "town": "本町",
    "town_kana": "ホンチョウ",
    "street": null,
    "office_name": null,
    "office_name_kana": null
  },
  "0029": {
    "postcode": "3940029",
    "prefecture": "長野県",
    "prefecture_kana": "ナガノケン",
    "prefecture_code": 20,
    "city": "岡谷市",
    "city_kana": "オカヤシ",
    "town": "幸町",
    "town_kana": "サイワイチョウ",
    "street": null,
    "office_name": null,
    "office_name_kana": null
  },
  "0031": {
    "postcode": "3940031",
    "prefecture": "長野県",
    "prefecture_kana": "ナガノケン",
    "prefecture_code": 20,
    "city": "岡谷市",
    "city_kana": "オカヤシ",
    "town": "田中町",
    "town_kana": "タナカチョウ",
    "street": null,
    "office_name": null,
    "office_name_kana": null
  },
  "0032": {
    "postcode": "3940032",
    "prefecture": "長野県",
    "prefecture_kana": "ナガノケン",
    "prefecture_code": 20,
    "city": "岡谷市",
    "city_kana": "オカヤシ",
    "town": "若宮",
    "town_kana": "ワカミヤ",
    "street": null,
    "office_name": null,
    "office_name_kana": null
  },
  "0033": {
    "postcode": "3940033",
    "prefecture": "長野県",
    "prefecture_kana": "ナガノケン",
    "prefecture_code": 20,
    "city": "岡谷市",
    "city_kana": "オカヤシ",
    "town": "南宮",
    "town_kana": "ナングウ",
    "street": null,
    "office_name": null,
    "office_name_kana": null
  },
  "0034": {
    "postcode": "3940034",
    "prefecture": "長野県",
    "prefecture_kana": "ナガノケン",
    "prefecture_code": 20,
    "city": "岡谷市",
    "city_kana": "オカヤシ",
    "town": "湖畔",
    "town_kana": "コハン",
    "street": null,
    "office_name": null,
    "office_name_kana": null
  },
  "0035": {
    "postcode": "3940035",
    "prefecture": "長野県",
    "prefecture_kana": "ナガノケン",
    "prefecture_code": 20,
    "city": "岡谷市",
    "city_kana": "オカヤシ",
    "town": "天竜町",
    "town_kana": "テンリュウチョウ",
    "street": null,
    "office_name": null,
    "office_name_kana": null
  },
  "0041": {
    "postcode": "3940041",
    "prefecture": "長野県",
    "prefecture_kana": "ナガノケン",
    "prefecture_code": 20,
    "city": "岡谷市",
    "city_kana": "オカヤシ",
    "town": "山手町",
    "town_kana": "ヤマテチョウ",
    "street": null,
    "office_name": null,
    "office_name_kana": null
  },
  "0042": {
    "postcode": "3940042",
    "prefecture": "長野県",
    "prefecture_kana": "ナガノケン",
    "prefecture_code": 20,
    "city": "岡谷市",
    "city_kana": "オカヤシ",
    "town": "成田町",
    "town_kana": "ナルタチョウ",
    "street": null,
    "office_name": null,
    "office_name_kana": null
  },
  "0043": {
    "postcode": "3940043",
    "prefecture": "長野県",
    "prefecture_kana": "ナガノケン",
    "prefecture_code": 20,
    "city": "岡谷市",
    "city_kana": "オカヤシ",
    "town": "御倉町",
    "town_kana": "オクラチョウ",
    "street": null,
    "office_name": null,
    "office_name_kana": null
  },
  "0044": {
    "postcode": "3940044",
    "prefecture": "長野県",
    "prefecture_kana": "ナガノケン",
    "prefecture_code": 20,
    "city": "岡谷市",
    "city_kana": "オカヤシ",
    "town": "湊",
    "town_kana": "ミナト",
    "street": null,
    "office_name": null,
    "office_name_kana": null
  },
  "0045": {
    "postcode": "3940045",
    "prefecture": "長野県",
    "prefecture_kana": "ナガノケン",
    "prefecture_code": 20,
    "city": "岡谷市",
    "city_kana": "オカヤシ",
    "town": "川岸東",
    "town_kana": "カワギシヒガシ",
    "street": null,
    "office_name": null,
    "office_name_kana": null
  },
  "0046": {
    "postcode": "3940046",
    "prefecture": "長野県",
    "prefecture_kana": "ナガノケン",
    "prefecture_code": 20,
    "city": "岡谷市",
    "city_kana": "オカヤシ",
    "town": "川岸西",
    "town_kana": "カワギシニシ",
    "street": null,
    "office_name": null,
    "office_name_kana": null
  },
  "0047": {
    "postcode": "3940047",
    "prefecture": "長野県",
    "prefecture_kana": "ナガノケン",
    "prefecture_code": 20,
    "city": "岡谷市",
    "city_kana": "オカヤシ",
    "town": "川岸中",
    "town_kana": "カワギシナカ",
    "street": null,
    "office_name": null,
    "office_name_kana": null
  },
  "0048": {
    "postcode": "3940048",
    "prefecture": "長野県",
    "prefecture_kana": "ナガノケン",
    "prefecture_code": 20,
    "city": "岡谷市",
    "city_kana": "オカヤシ",
    "town": "川岸上",
    "town_kana": "カワギシカミ",
    "street": null,
    "office_name": null,
    "office_name_kana": null
  },
  "0051": {
    "postcode": "3940051",
    "prefecture": "長野県",
    "prefecture_kana": "ナガノケン",
    "prefecture_code": 20,
    "city": "岡谷市",
    "city_kana": "オカヤシ",
    "town": "塩嶺",
    "town_kana": "エンレイ",
    "street": null,
    "office_name": null,
    "office_name_kana": null
  },
  "0052": {
    "postcode": "3940052",
    "prefecture": "長野県",
    "prefecture_kana": "ナガノケン",
    "prefecture_code": 20,
    "city": "岡谷市",
    "city_kana": "オカヤシ",
    "town": "西林",
    "town_kana": "ニシバヤシ",
    "street": null,
    "office_name": null,
    "office_name_kana": null
  },
  "0053": [
    {
      "postcode": "3940053",
      "prefecture": "長野県",
      "prefecture_kana": "ナガノケン",
      "prefecture_code": 20,
      "city": "岡谷市",
      "city_kana": "オカヤシ",
      "town": "芦ノ沢",
      "town_kana": "アシノサワ",
      "street": null,
      "office_name": null,
      "office_name_kana": null
    },
    {
      "postcode": "3940053",
      "prefecture": "長野県",
      "prefecture_kana": "ナガノケン",
      "prefecture_code": 20,
      "city": "岡谷市",
      "city_kana": "オカヤシ",
      "town": "ヨギトギ沢",
      "town_kana": "ヨギトギサワ",
      "street": null,
      "office_name": null,
      "office_name_kana": null
    }
  ],
  "0054": {
    "postcode": "3940054",
    "prefecture": "長野県",
    "prefecture_kana": "ナガノケン",
    "prefecture_code": 20,
    "city": "岡谷市",
    "city_kana": "オカヤシ",
    "town": "半ノ木",
    "town_kana": "ハンノキ",
    "street": null,
    "office_name": null,
    "office_name_kana": null
  },
  "0055": {
    "postcode": "3940055",
    "prefecture": "長野県",
    "prefecture_kana": "ナガノケン",
    "prefecture_code": 20,
    "city": "岡谷市",
    "city_kana": "オカヤシ",
    "town": "内山",
    "town_kana": "ウチヤマ",
    "street": null,
    "office_name": null,
    "office_name_kana": null
  },
  "0056": {
    "postcode": "3940056",
    "prefecture": "長野県",
    "prefecture_kana": "ナガノケン",
    "prefecture_code": 20,
    "city": "岡谷市",
    "city_kana": "オカヤシ",
    "town": "樋沢",
    "town_kana": "ヒザワ",
    "street": null,
    "office_name": null,
    "office_name_kana": null
  },
  "0081": {
    "postcode": "3940081",
    "prefecture": "長野県",
    "prefecture_kana": "ナガノケン",
    "prefecture_code": 20,
    "city": "岡谷市",
    "city_kana": "オカヤシ",
    "town": "長地権現町",
    "town_kana": "オサチゴンゲンチョウ",
    "street": null,
    "office_name": null,
    "office_name_kana": null
  },
  "0082": {
    "postcode": "3940082",
    "prefecture": "長野県",
    "prefecture_kana": "ナガノケン",
    "prefecture_code": 20,
    "city": "岡谷市",
    "city_kana": "オカヤシ",
    "town": "長地御所",
    "town_kana": "オサチゴショ",
    "street": null,
    "office_name": null,
    "office_name_kana": null
  },
  "0083": {
    "postcode": "3940083",
    "prefecture": "長野県",
    "prefecture_kana": "ナガノケン",
    "prefecture_code": 20,
    "city": "岡谷市",
    "city_kana": "オカヤシ",
    "town": "長地柴宮",
    "town_kana": "オサチシバミヤ",
    "street": null,
    "office_name": null,
    "office_name_kana": null
  },
  "0084": {
    "postcode": "3940084",
    "prefecture": "長野県",
    "prefecture_kana": "ナガノケン",
    "prefecture_code": 20,
    "city": "岡谷市",
    "city_kana": "オカヤシ",
    "town": "長地片間町",
    "town_kana": "オサチカタマチョウ",
    "street": null,
    "office_name": null,
    "office_name_kana": null
  },
  "0085": {
    "postcode": "3940085",
    "prefecture": "長野県",
    "prefecture_kana": "ナガノケン",
    "prefecture_code": 20,
    "city": "岡谷市",
    "city_kana": "オカヤシ",
    "town": "長地小萩",
    "town_kana": "オサチコハギ",
    "street": null,
    "office_name": null,
    "office_name_kana": null
  },
  "0086": {
    "postcode": "3940086",
    "prefecture": "長野県",
    "prefecture_kana": "ナガノケン",
    "prefecture_code": 20,
    "city": "岡谷市",
    "city_kana": "オカヤシ",
    "town": "長地源",
    "town_kana": "オサチミナモト",
    "street": null,
    "office_name": null,
    "office_name_kana": null
  },
  "0087": {
    "postcode": "3940087",
    "prefecture": "長野県",
    "prefecture_kana": "ナガノケン",
    "prefecture_code": 20,
    "city": "岡谷市",
    "city_kana": "オカヤシ",
    "town": "長地鎮",
    "town_kana": "オサチシズメ",
    "street": null,
    "office_name": null,
    "office_name_kana": null
  },
  "0088": {
    "postcode": "3940088",
    "prefecture": "長野県",
    "prefecture_kana": "ナガノケン",
    "prefecture_code": 20,
    "city": "岡谷市",
    "city_kana": "オカヤシ",
    "town": "長地梨久保",
    "town_kana": "オサチナシクボ",
    "street": null,
    "office_name": null,
    "office_name_kana": null
  },
  "0089": {
    "postcode": "3940089",
    "prefecture": "長野県",
    "prefecture_kana": "ナガノケン",
    "prefecture_code": 20,
    "city": "岡谷市",
    "city_kana": "オカヤシ",
    "town": "長地出早",
    "town_kana": "オサチイズハヤ",
    "street": null,
    "office_name": null,
    "office_name_kana": null
  },
  "0091": {
    "postcode": "3940091",
    "prefecture": "長野県",
    "prefecture_kana": "ナガノケン",
    "prefecture_code": 20,
    "city": "岡谷市",
    "city_kana": "オカヤシ",
    "town": "",
    "town_kana": "",
    "street": null,
    "office_name": null,
    "office_name_kana": null
  },
  "8510": {
    "postcode": "3948510",
    "prefecture": "長野県",
    "prefecture_kana": "ナガノケン",
    "prefecture_code": 20,
    "city": "岡谷市",
    "city_kana": "オカヤシ",
    "town": "幸町",
    "town_kana": "サイワイチョウ",
    "street": "８−１",
    "office_name": "岡谷市役所",
    "office_name_kana": "オカヤシヤクシヨ"
  },
  "8511": {
    "postcode": "3948511",
    "prefecture": "長野県",
    "prefecture_kana": "ナガノケン",
    "prefecture_code": 20,
    "city": "岡谷市",
    "city_kana": "オカヤシ",
    "town": "神明町",
    "town_kana": "シンメイチョウ",
    "street": "２丁目１−１３",
    "office_name": "帝国ピストンリング　株式会社　長野岡谷工場",
    "office_name_kana": "テイコクピストンリング カブシキガイシヤ ナガノオカヤコウジヨウ"
  },
  "8512": {
    "postcode": "3948512",
    "prefecture": "長野県",
    "prefecture_kana": "ナガノケン",
    "prefecture_code": 20,
    "city": "岡谷市",
    "city_kana": "オカヤシ",
    "town": "本町",
    "town_kana": "ホンチョウ",
    "street": "４丁目１１−３３",
    "office_name": "市立岡谷病院",
    "office_name_kana": "シリツオカヤビヨウイン"
  },
  "8515": {
    "postcode": "3948515",
    "prefecture": "長野県",
    "prefecture_kana": "ナガノケン",
    "prefecture_code": 20,
    "city": "岡谷市",
    "city_kana": "オカヤシ",
    "town": "長地小萩",
    "town_kana": "オサチコハギ",
    "street": "１丁目１１−３０",
    "office_name": "医療法人　研成会　諏訪湖畔病院",
    "office_name_kana": "イリヨウホウジン ケンセイカイ スワコハンビヨウイン"
  },
  "8520": {
    "postcode": "3948520",
    "prefecture": "長野県",
    "prefecture_kana": "ナガノケン",
    "prefecture_code": 20,
    "city": "岡谷市",
    "city_kana": "オカヤシ",
    "town": "田中町",
    "town_kana": "タナカチョウ",
    "street": "２丁目８−１３",
    "office_name": "株式会社　みくに工業",
    "office_name_kana": "カブシキガイシヤ ミクニコウギヨウ"
  },
  "8540": {
    "postcode": "3948540",
    "prefecture": "長野県",
    "prefecture_kana": "ナガノケン",
    "prefecture_code": 20,
    "city": "岡谷市",
    "city_kana": "オカヤシ",
    "town": "成田町",
    "town_kana": "ナルタチョウ",
    "street": "２丁目１１−６",
    "office_name": "マルヤス機械　株式会社",
    "office_name_kana": "マルヤスキカイ カブシキガイシヤ"
  },
  "8550": {
    "postcode": "3948550",
    "prefecture": "長野県",
    "prefecture_kana": "ナガノケン",
    "prefecture_code": 20,
    "city": "岡谷市",
    "city_kana": "オカヤシ",
    "town": "長地小萩",
    "town_kana": "オサチコハギ",
    "street": "３丁目１１−１",
    "office_name": "京セラ　株式会社　長野岡谷工場",
    "office_name_kana": "キヨウセラ カブシキガイシヤ ナガノオカヤコウジヨウ"
  },
  "8555": {
    "postcode": "3948555",
    "prefecture": "長野県",
    "prefecture_kana": "ナガノケン",
    "prefecture_code": 20,
    "city": "岡谷市",
    "city_kana": "オカヤシ",
    "town": "田中町",
    "town_kana": "タナカチョウ",
    "street": "３丁目４−２１",
    "office_name": "株式会社　マルニシ",
    "office_name_kana": "カブシキガイシヤ マルニシ"
  },
  "8577": {
    "postcode": "3948577",
    "prefecture": "長野県",
    "prefecture_kana": "ナガノケン",
    "prefecture_code": 20,
    "city": "岡谷市",
    "city_kana": "オカヤシ",
    "town": "若宮",
    "town_kana": "ワカミヤ",
    "street": "１丁目４−５０",
    "office_name": "株式会社　中外商工",
    "office_name_kana": "カブシキガイシヤ チユウガイシヨウコウ"
  },
  "8585": {
    "postcode": "3948585",
    "prefecture": "長野県",
    "prefecture_kana": "ナガノケン",
    "prefecture_code": 20,
    "city": "岡谷市",
    "city_kana": "オカヤシ",
    "town": "幸町",
    "town_kana": "サイワイチョウ",
    "street": "６−６",
    "office_name": "岡谷酸素　株式会社",
    "office_name_kana": "オカヤサンソ カブシキカイシヤ"
  },
  "8588": {
    "postcode": "3948588",
    "prefecture": "長野県",
    "prefecture_kana": "ナガノケン",
    "prefecture_code": 20,
    "city": "岡谷市",
    "city_kana": "オカヤシ",
    "town": "",
    "town_kana": "",
    "street": "内山４７６９",
    "office_name": "健康保険　岡谷塩嶺病院",
    "office_name_kana": "ケンコウホケン オカヤエンレイビヨウイン"
  },
  "8611": {
    "postcode": "3948611",
    "prefecture": "長野県",
    "prefecture_kana": "ナガノケン",
    "prefecture_code": 20,
    "city": "岡谷市",
    "city_kana": "オカヤシ",
    "town": "郷田",
    "town_kana": "ゴウダ",
    "street": "２丁目１−８（岡谷郵便局私書箱第４５号）",
    "office_name": "諏訪信用金庫",
    "office_name_kana": "スワシンヨウキンコ"
  },
  "8665": {
    "postcode": "3948665",
    "prefecture": "長野県",
    "prefecture_kana": "ナガノケン",
    "prefecture_code": 20,
    "city": "岡谷市",
    "city_kana": "オカヤシ",
    "town": "中央町",
    "town_kana": "チュウオウチョウ",
    "street": "１−８−７（岡谷郵便局私書箱第１２号）",
    "office_name": "岡谷年金事務所",
    "office_name_kana": "オカヤネンキンジムシヨ"
  },
  "8686": {
    "postcode": "3948686",
    "prefecture": "長野県",
    "prefecture_kana": "ナガノケン",
    "prefecture_code": 20,
    "city": "岡谷市",
    "city_kana": "オカヤシ",
    "town": "長地御所",
    "town_kana": "オサチゴショ",
    "street": "２丁目１０−１",
    "office_name": "沖電線　株式会社　岡谷工場",
    "office_name_kana": "オキデンセン カブシキガイシヤ オカヤコウジヨウ"
  }
}