{
  "0000": {
    "postcode": "3950000",
    "prefecture": "長野県",
    "prefecture_kana": "ナガノケン",
    "prefecture_code": 20,
    "city": "飯田市",
    "city_kana": "イイダシ",
    "town": "",
    "town_kana": "",
    "street": null,
    "office_name": null,
    "office_name_kana": null
  },
  "0001": {
    "postcode": "3950001",
    "prefecture": "長野県",
    "prefecture_kana": "ナガノケン",
    "prefecture_code": 20,
    "city": "飯田市",
    "city_kana": "イイダシ",
    "town": "座光寺",
    "town_kana": "ザコウジ",
    "street": null,
    "office_name": null,
    "office_name_kana": null
  },
  "0002": {
    "postcode": "3950002",
    "prefecture": "長野県",
    "prefecture_kana": "ナガノケン",
    "prefecture_code": 20,
    "city": "飯田市",
    "city_kana": "イイダシ",
    "town": "上郷飯沼",
    "town_kana": "カミサトイイヌマ",
    "street": null,
    "office_name": null,
    "office_name_kana": null
  },
  "0003": {
    "postcode": "3950003",
    "prefecture": "長野県",
    "prefecture_kana": "ナガノケン",
    "prefecture_code": 20,
    "city": "飯田市",
    "city_kana": "イイダシ",
    "town": "上郷別府",
    "town_kana": "カミサトベップ",
    "street": null,
    "office_name": null,
    "office_name_kana": null
  },
  "0004": {
    "postcode": "3950004",
    "prefecture": "長野県",
    "prefecture_kana": "ナガノケン",
    "prefecture_code": 20,
    "city": "飯田市",
    "city_kana": "イイダシ",
    "town": "上郷黒田",
    "town_kana": "カミサトクロダ",
    "street": null,
    "office_name": null,
    "office_name_kana": null
  },
  "0011": {
    "postcode": "3950011",
    "prefecture": "長野県",
    "prefecture_kana": "ナガノケン",
    "prefecture_code": 20,
    "city": "飯田市",
    "city_kana": "イイダシ",
    "town": "大門町",
    "town_kana": "ダイモンチョウ",
    "street": null,
    "office_name": null,
    "office_name_kana": null
  },
  "0012": {
    "postcode": "3950012",
    "prefecture": "長野県",
    "prefecture_kana": "ナガノケン",
    "prefecture_code": 20,
    "city": "飯田市",
    "city_kana": "イイダシ",
    "town": "大王路",
    "town_kana": "ダイオウジ",
    "street": null,
    "office_name": null,
    "office_name_kana": null
  },
  "0013": {
    "postcode": "3950013",
    "prefecture": "長野県",
    "prefecture_kana": "ナガノケン",
    "prefecture_code": 20,
    "city": "飯田市",
    "city_kana": "イイダシ",
    "town": "小伝馬町",
    "town_kana": "コデンマチョウ",
    "street": null,
    "office_name": null,
    "office_name_kana": null
  },
  "0014": {
    "postcode": "3950014",
    "prefecture": "長野県",
    "prefecture_kana": "ナガノケン",
    "prefecture_code": 20,
    "city": "飯田市",
    "city_kana": "イイダシ",
    "town": "桜町",
    "town_kana": "サクラマチ",
    "street": null,
    "office_name": null,
    "office_name_kana": null
  },
  "0015": {
    "postcode": "3950015",
    "prefecture": "長野県",
    "prefecture_kana": "ナガノケン",
    "prefecture_code": 20,
    "city": "飯田市",
    "city_kana": "イイダシ",
    "town": "江戸町",
    "town_kana": "エドマチ",
    "street": null,
    "office_name": null,
    "office_name_kana": null
  },
  "0016": {
    "postcode": "3950016",
    "prefecture": "長野県",
    "prefecture_kana": "ナガノケン",
    "prefecture_code": 20,
    "city": "飯田市",
    "city_kana": "イイダシ",
    "town": "伝馬町",
    "town_kana": "テンマチョウ",
    "street": null,
    "office_name": null,
    "office_name_kana": null
  },
  "0017": {
    "postcode": "3950017",
    "prefecture": "長野県",
    "prefecture_kana": "ナガノケン",
    "prefecture_code": 20,
    "city": "飯田市",
    "city_kana": "イイダシ",
    "town": "東新町",
    "town_kana": "トウシンチョウ",
    "street": null,
    "office_name": null,
    "office_name_kana": null
  },
  "0018": {
    "postcode": "3950018",
    "prefecture": "長野県",
    "prefecture_kana": "ナガノケン",
    "prefecture_code": 20,
    "city": "飯田市",
    "city_kana": "イイダシ",
    "town": "諏訪町",
    "town_kana": "スワチョウ",
    "street": null,
    "office_name": null,
    "office_name_kana": null
  },
  "0021": {
    "postcode": "3950021",
    "prefecture": "長野県",
    "prefecture_kana": "ナガノケン",
    "prefecture_code": 20,
    "city": "飯田市",
    "city_kana": "イイダシ",
    "town": "仲ノ町",
    "town_kana": "ナカノチョウ",
    "street": null,
    "office_name": null,
    "office_name_kana": null
  },
  "0022": {
    "postcode": "3950022",
    "prefecture": "長野県",
    "prefecture_kana": "ナガノケン",
    "prefecture_code": 20,
    "city": "飯田市",
    "city_kana": "イイダシ",
    "town": "浜井町",
    "town_kana": "ハマイチョウ",
    "street": null,
    "office_name": null,
    "office_name_kana": null
  },
  "0023": {
    "postcode": "3950023",
    "prefecture": "長野県",
    "prefecture_kana": "ナガノケン",
    "prefecture_code": 20,
    "city": "飯田市",
    "city_kana": "イイダシ",
    "town": "江戸浜町",
    "town_kana": "エドハマチョウ",
    "street": null,
    "office_name": null,
    "office_name_kana": null
  },
  "0024": {
    "postcode": "3950024",
    "prefecture": "長野県",
    "prefecture_kana": "ナガノケン",
    "prefecture_code": 20,
    "city": "飯田市",
    "city_kana": "イイダシ",
    "town": "東栄町",
    "town_kana": "トウエイチョウ",
    "street": null,
    "office_name": null,
    "office_name_kana": null
  },
  "0025": {
    "postcode": "3950025",
    "prefecture": "長野県",
    "prefecture_kana": "ナガノケン",
    "prefecture_code": 20,
    "city": "飯田市",
    "city_kana": "イイダシ",
    "town": "東中央通り",
    "town_kana": "ヒガシチュウオウドオリ",
    "street": null,
    "office_name": null,
    "office_name_kana": null
  },
  "0026": {
    "postcode": "3950026",
    "prefecture": "長野県",
    "prefecture_kana": "ナガノケン",
    "prefecture_code": 20,
    "city": "飯田市",
    "city_kana": "イイダシ",
    "town": "鼎西鼎",
    "town_kana": "カナエニシカナエ",
    "street": null,
    "office_name": null,
    "office_name_kana": null
  },
  "0027": {
    "postcode": "3950027",
    "prefecture": "長野県",
    "prefecture_kana": "ナガノケン",
    "prefecture_code": 20,
    "city": "飯田市",
    "city_kana": "イイダシ",
    "town": "馬場町",
    "town_kana": "ババンチョウ",
    "street": null,
    "office_name": null,
    "office_name_kana": null
  },
  "0028": {
    "postcode": "3950028",
    "prefecture": "長野県",
    "prefecture_kana": "ナガノケン",
    "prefecture_code": 20,
    "city": "飯田市",
    "city_kana": "イイダシ",
    "town": "長姫町",
    "town_kana": "オサヒメチョウ",
    "street": null,
    "office_name": null,
    "office_name_kana": null
  },
  "0029": {
    "postcode": "3950029",
    "prefecture": "長野県",
    "prefecture_kana": "ナガノケン",
    "prefecture_code": 20,
    "city": "飯田市",
    "city_kana": "イイダシ",
    "town": "二本松",
    "town_kana": "ニホンマツ",
    "street": null,
    "office_name": null,
    "office_name_kana": null
  },
  "0031": {
    "postcode": "3950031",
    "prefecture": "長野県",
    "prefecture_kana": "ナガノケン",
    "prefecture_code": 20,
    "city": "飯田市",
    "city_kana": "イイダシ",
    "town": "銀座",
    "town_kana": "ギンザ",
    "street": null,
    "office_name": null,
    "office_name_kana": null
  },
  "0032": {
    "postcode": "3950032",
    "prefecture": "長野県",
    "prefecture_kana": "ナガノケン",
    "prefecture_code": 20,
    "city": "飯田市",
    "city_kana": "イイダシ",
    "town": "主税町",
    "town_kana": "チカラマチ",
    "street": null,
    "office_name": null,
    "office_name_kana": null
  },
  "0033": {
    "postcode": "3950033",
    "prefecture": "長野県",
    "prefecture_kana": "ナガノケン",
    "prefecture_code": 20,
    "city": "飯田市",
    "city_kana": "イイダシ",
    "town": "常盤町",
    "town_kana": "トキワマチ",
    "street": null,
    "office_name": null,
    "office_name_kana": null
  },
  "0034": {
    "postcode": "3950034",
    "prefecture": "長野県",
    "prefecture_kana": "ナガノケン",
    "prefecture_code": 20,
    "city": "飯田市",
    "city_kana": "イイダシ",
    "town": "追手町",
    "town_kana": "オウテマチ",
    "street": null,
    "office_name": null,
    "office_name_kana": null
  },
  "0035": {
    "postcode": "3950035",
    "prefecture": "長野県",
    "prefecture_kana": "ナガノケン",
    "prefecture_code": 20,
    "city": "飯田市",
    "city_kana": "イイダシ",
    "town": "水の手町",
    "town_kana": "ミズノテチョウ",
    "street": null,
    "office_name": null,
    "office_name_kana": null
  },
  "0036": {
    "postcode": "3950036",
    "prefecture": "長野県",
    "prefecture_kana": "ナガノケン",
    "prefecture_code": 20,
    "city": "飯田市",
    "city_kana": "イイダシ",
    "town": "愛宕町",
    "town_kana": "アタゴチョウ",
    "street": null,
    "office_name": null,
    "office_name_kana": null
  },
  "0037": {
    "postcode": "3950037",
    "prefecture": "長野県",
    "prefecture_kana": "ナガノケン",
    "prefecture_code": 20,
    "city": "飯田市",
    "city_kana": "イイダシ",
    "town": "南常盤町",
    "town_kana": "ミナミトキワマチ",
    "street": null,
    "office_name": null,
    "office_name_kana": null
  },
  "0041": {
    "postcode": "3950041",
    "prefecture": "長野県",
    "prefecture_kana": "ナガノケン",
    "prefecture_code": 20,
    "city": "飯田市",
    "city_kana": "イイダシ",
    "town": "中央通り",
    "town_kana": "チュウオウドオリ",
    "street": null,
    "office_name": null,
    "office_name_kana": null
  },
  "0042": {
    "postcode": "3950042",
    "prefecture": "長野県",
    "prefecture_kana": "ナガノケン",
    "prefecture_code": 20,
    "city": "飯田市",
    "city_kana": "イイダシ",
    "town": "松尾町",
    "town_kana": "マツオマチ",
    "street": null,
    "office_name": null,
    "office_name_kana": null
  },
  "0043": {
    "postcode": "3950043",
    "prefecture": "長野県",
    "prefecture_kana": "ナガノケン",
    "prefecture_code": 20,
    "city": "飯田市",
    "city_kana": "イイダシ",
    "town": "通り町",
    "town_kana": "トオリマチ",
    "street": null,
    "office_name": null,
    "office_name_kana": null
  },
  "0044": {
    "postcode": "3950044",
    "prefecture": "長野県",
    "prefecture_kana": "ナガノケン",
    "prefecture_code": 20,
    "city": "飯田市",
    "city_kana": "イイダシ",
    "town": "本町",
    "town_kana": "ホンマチ",
    "street": null,
    "office_name": null,
    "office_name_kana": null
  },
  "0045": {
    "postcode": "3950045",
    "prefecture": "長野県",
    "prefecture_kana": "ナガノケン",
    "prefecture_code": 20,
    "city": "飯田市",
    "city_kana": "イイダシ",
    "town": "知久町",
    "town_kana": "チクマチ",
    "street": null,
    "office_name": null,
    "office_name_kana": null
  },
  "0046": {
    "postcode": "3950046",
    "prefecture": "長野県",
    "prefecture_kana": "ナガノケン",
    "prefecture_code": 20,
    "city": "飯田市",
    "city_kana": "イイダシ",
    "town": "扇町",
    "town_kana": "オウギマチ",
    "street": null,
    "office_name": null,
    "office_name_kana": null
  },
  "0048": {
    "postcode": "3950048",
    "prefecture": "長野県",
    "prefecture_kana": "ナガノケン",
    "prefecture_code": 20,
    "city": "飯田市",
    "city_kana": "イイダシ",
    "town": "滝の沢",
    "town_kana": "タキノサワ",
    "street": null,
    "office_name": null,
    "office_name_kana": null
  },
  "0051": {
    "postcode": "3950051",
    "prefecture": "長野県",
    "prefecture_kana": "ナガノケン",
    "prefecture_code": 20,
    "city": "飯田市",
    "city_kana": "イイダシ",
    "town": "高羽町",
    "town_kana": "タカハチョウ",
    "street": null,
    "office_name": null,
    "office_name_kana": null
  },
  "0052": {
    "postcode": "3950052",
    "prefecture": "長野県",
    "prefecture_kana": "ナガノケン",
    "prefecture_code": 20,
    "city": "飯田市",
    "city_kana": "イイダシ",
    "town": "元町",
    "town_kana": "モトマチ",
    "street": null,
    "office_name": null,
    "office_name_kana": null
  },
  "0053": {
    "postcode": "3950053",
    "prefecture": "長野県",
    "prefecture_kana": "ナガノケン",
    "prefecture_code": 20,
    "city": "飯田市",
    "city_kana": "イイダシ",
    "town": "大久保町",
    "town_kana": "オオクボチョウ",
    "street": null,
    "office_name": null,
    "office_name_kana": null
  },
  "0054": {
    "postcode": "3950054",
    "prefecture": "長野県",
    "prefecture_kana": "ナガノケン",
    "prefecture_code": 20,
    "city": "飯田市",
    "city_kana": "イイダシ",
    "town": "箕瀬町",
    "town_kana": "ミノゼチョウ",
    "street": null,
    "office_name": null,
    "office_name_kana": null
  },
  "0055": {
    "postcode": "3950055",
    "prefecture": "長野県",
    "prefecture_kana": "ナガノケン",
    "prefecture_code": 20,
    "city": "飯田市",
    "city_kana": "イイダシ",
    "town": "旭町",
    "town_kana": "アサヒマチ",
    "street": null,
    "office_name": null,
    "office_name_kana": null
  },
  "0056": {
    "postcode": "3950056",
    "prefecture": "長野県",
    "prefecture_kana": "ナガノケン",
    "prefecture_code": 20,
    "city": "飯田市",
    "city_kana": "イイダシ",
    "town": "大通",
    "town_kana": "オオドオリ",
    "street": null,
    "office_name": null,
    "office_name_kana": null
  },
  "0061": {
    "postcode": "3950061",
    "prefecture": "長野県",
    "prefecture_kana": "ナガノケン",
    "prefecture_code": 20,
    "city": "飯田市",
    "city_kana": "イイダシ",
    "town": "正永町",
    "town_kana": "ショウエイチョウ",
    "street": null,
    "office_name": null,
    "office_name_kana": null
  },
  "0062": {
    "postcode": "3950062",
    "prefecture": "長野県",
    "prefecture_kana": "ナガノケン",
    "prefecture_code": 20,
    "city": "飯田市",
    "city_kana": "イイダシ",
    "town": "砂払町",
    "town_kana": "スナハライチョウ",
    "street": null,
    "office_name": null,
    "office_name_kana": null
  },
  "0063": {
    "postcode": "3950063",
    "prefecture": "長野県",
    "prefecture_kana": "ナガノケン",
    "prefecture_code": 20,
    "city": "飯田市",
    "city_kana": "イイダシ",
    "town": "羽場町",
    "town_kana": "ハバチョウ",
    "street": null,
    "office_name": null,
    "office_name_kana": null
  },
  "0064": {
    "postcode": "3950064",
    "prefecture": "長野県",
    "prefecture_kana": "ナガノケン",
    "prefecture_code": 20,
    "city": "飯田市",
    "city_kana": "イイダシ",
    "town": "羽場仲畑",
    "town_kana": "ハバナカハタ",
    "street": null,
    "office_name": null,
    "office_name_kana": null
  },
  "0065": {
    "postcode": "3950065",
    "prefecture": "長野県",
    "prefecture_kana": "ナガノケン",
    "prefecture_code": 20,
    "city": "飯田市",
    "city_kana": "イイダシ",
    "town": "羽場上河原",
    "town_kana": "ハバカミガワラ",
    "street": null,
    "office_name": null,
    "office_name_kana": null
  },
  "0066": {
    "postcode": "3950066",
    "prefecture": "長野県",
    "prefecture_kana": "ナガノケン",
    "prefecture_code": 20,
    "city": "飯田市",
    "city_kana": "イイダシ",
    "town": "羽場赤坂",
    "town_kana": "ハバアカサカ",
    "street": null,
    "office_name": null,
    "office_name_kana": null
  },
  "0067": {
    "postcode": "3950067",
    "prefecture": "長野県",
    "prefecture_kana": "ナガノケン",
    "prefecture_code": 20,
    "city": "飯田市",
    "city_kana": "イイダシ",
    "town": "羽場権現",
    "town_kana": "ハバゴンゲン",
    "street": null,
    "office_name": null,
    "office_name_kana": null
  },
  "0068": {
    "postcode": "3950068",
    "prefecture": "長野県",
    "prefecture_kana": "ナガノケン",
    "prefecture_code": 20,
    "city": "飯田市",
    "city_kana": "イイダシ",
    "town": "大休",
    "town_kana": "オオヤスミ",
    "street": null,
    "office_name": null,
    "office_name_kana": null
  },
  "0071": {
    "postcode": "3950071",
    "prefecture": "長野県",
    "prefecture_kana": "ナガノケン",
    "prefecture_code": 20,
    "city": "飯田市",
    "city_kana": "イイダシ",
    "town": "今宮町",
    "town_kana": "イマミヤチョウ",
    "street": null,
    "office_name": null,
    "office_name_kana": null
  },
  "0072": {
    "postcode": "3950072",
    "prefecture": "長野県",
    "prefecture_kana": "ナガノケン",
    "prefecture_code": 20,
    "city": "飯田市",
    "city_kana": "イイダシ",
    "town": "曙町",
    "town_kana": "アケボノチョウ",
    "street": null,
    "office_name": null,
    "office_name_kana": null
  },
  "0073": {
    "postcode": "3950073",
    "prefecture": "長野県",
    "prefecture_kana": "ナガノケン",
    "prefecture_code": 20,
    "city": "飯田市",
    "city_kana": "イイダシ",
    "town": "羽場坂町",
    "town_kana": "ハバザカチョウ",
    "street": null,
    "office_name": null,
    "office_name_kana": null
  },
  "0074": {
    "postcode": "3950074",
    "prefecture": "長野県",
    "prefecture_kana": "ナガノケン",
    "prefecture_code": 20,
    "city": "飯田市",
    "city_kana": "イイダシ",
    "town": "松川町",
    "town_kana": "マツカワチョウ",
    "street": null,
    "office_name": null,
    "office_name_kana": null
  },
  "0075": {
    "postcode": "3950075",
    "prefecture": "長野県",
    "prefecture_kana": "ナガノケン",
    "prefecture_code": 20,
    "city": "飯田市",
    "city_kana": "イイダシ",
    "town": "白山通り",
    "town_kana": "ハクサンドオリ",
    "street": null,
    "office_name": null,
    "office_name_kana": null
  },
  "0076": {
    "postcode": "3950076",
    "prefecture": "長野県",
    "prefecture_kana": "ナガノケン",
    "prefecture_code": 20,
    "city": "飯田市",
    "city_kana": "イイダシ",
    "town": "白山町",
    "town_kana": "ハクサンチョウ",
    "street": null,
    "office_name": null,
    "office_name_kana": null
  },
  "0077": {
    "postcode": "3950077",
    "prefecture": "長野県",
    "prefecture_kana": "ナガノケン",
    "prefecture_code": 20,
    "city": "飯田市",
    "city_kana": "イイダシ",
    "town": "丸山町",
    "town_kana": "マルヤマチョウ",
    "street": null,
    "office_name": null,
    "office_name_kana": null
  },
  "0081": {
    "postcode": "3950081",
    "prefecture": "長野県",
    "prefecture_kana": "ナガノケン",
    "prefecture_code": 20,
    "city": "飯田市",
    "city_kana": "イイダシ",
    "town": "宮ノ上",
    "town_kana": "ミヤノウエ",
    "street": null,
    "office_name": null,
    "office_name_kana": null
  },
  "0082": {
    "postcode": "3950082",
    "prefecture": "長野県",
    "prefecture_kana": "ナガノケン",
    "prefecture_code": 20,
    "city": "飯田市",
    "city_kana": "イイダシ",
    "town": "宮の前",
    "town_kana": "ミヤノマエ",
    "street": null,
    "office_name": null,
    "office_name_kana": null
  },
  "0083": {
    "postcode": "3950083",
    "prefecture": "長野県",
    "prefecture_kana": "ナガノケン",
    "prefecture_code": 20,
    "city": "飯田市",
    "city_kana": "イイダシ",
    "town": "錦町",
    "town_kana": "ニシキチョウ",
    "street": null,
    "office_name": null,
    "office_name_kana": null
  },
  "0084": {
    "postcode": "3950084",
    "prefecture": "長野県",
    "prefecture_kana": "ナガノケン",
    "prefecture_code": 20,
    "city": "飯田市",
    "city_kana": "イイダシ",
    "town": "鈴加町",
    "town_kana": "スズカチョウ",
    "street": null,
    "office_name": null,
    "office_name_kana": null
  },
  "0085": {
    "postcode": "3950085",
    "prefecture": "長野県",
    "prefecture_kana": "ナガノケン",
    "prefecture_code": 20,
    "city": "飯田市",
    "city_kana": "イイダシ",
    "town": "吾妻町",
    "town_kana": "アズマチョウ",
    "street": null,
    "office_name": null,
    "office_name_kana": null
  },
  "0086": {
    "postcode": "3950086",
    "prefecture": "長野県",
    "prefecture_kana": "ナガノケン",
    "prefecture_code": 20,
    "city": "飯田市",
    "city_kana": "イイダシ",
    "town": "東和町",
    "town_kana": "トウワチョウ",
    "street": null,
    "office_name": null,
    "office_name_kana": null
  },
  "0151": {
    "postcode": "3950151",
    "prefecture": "長野県",
    "prefecture_kana": "ナガノケン",
    "prefecture_code": 20,
    "city": "飯田市",
    "city_kana": "イイダシ",
    "town": "北方",
    "town_kana": "キタガタ",
    "street": null,
    "office_name": null,
    "office_name_kana": null
  },
  "0152": {
    "postcode": "3950152",
    "prefecture": "長野県",
    "prefecture_kana": "ナガノケン",
    "prefecture_code": 20,
    "city": "飯田市",
    "city_kana": "イイダシ",
    "town": "育良町",
    "town_kana": "イクラチョウ",
    "street": null,
    "office_name": null,
    "office_name_kana": null
  },
  "0153": {
    "postcode": "3950153",
    "prefecture": "長野県",
    "prefecture_kana": "ナガノケン",
    "prefecture_code": 20,
    "city": "飯田市",
    "city_kana": "イイダシ",
    "town": "上殿岡",
    "town_kana": "カミトノオカ",
    "street": null,
    "office_name": null,
    "office_name_kana": null
  },
  "0154": {
    "postcode": "3950154",
    "prefecture": "長野県",
    "prefecture_kana": "ナガノケン",
    "prefecture_code": 20,
    "city": "飯田市",
    "city_kana": "イイダシ",
    "town": "下殿岡",
    "town_kana": "シモトノオカ",
    "street": null,
    "office_name": null,
    "office_name_kana": null
  },
  "0155": {
    "postcode": "3950155",
    "prefecture": "長野県",
    "prefecture_kana": "ナガノケン",
    "prefecture_code": 20,
    "city": "飯田市",
    "city_kana": "イイダシ",
    "town": "三日市場",
    "town_kana": "ミッカイチバ",
    "street": null,
    "office_name": null,
    "office_name_kana": null
  },
  "0156": {
    "postcode": "3950156",
    "prefecture": "長野県",
    "prefecture_kana": "ナガノケン",
    "prefecture_code": 20,
    "city": "飯田市",
    "city_kana": "イイダシ",
    "town": "中村",
    "town_kana": "ナカムラ",
    "street": null,
    "office_name": null,
    "office_name_kana": null
  },
  "0157": {
    "postcode": "3950157",
    "prefecture": "長野県",
    "prefecture_kana": "ナガノケン",
    "prefecture_code": 20,
    "city": "飯田市",
    "city_kana": "イイダシ",
    "town": "大瀬木",
    "town_kana": "オオセギ",
    "street": null,
    "office_name": null,
    "office_name_kana": null
  },
  "0192": {
    "postcode": "3950192",
    "prefecture": "長野県",
    "prefecture_kana": "ナガノケン",
    "prefecture_code": 20,
    "city": "飯田市",
    "city_kana": "イイダシ",
    "town": "鼎東鼎",
    "town_kana": "カナエヒガシカナエ",
    "street": "２８１番地",
    "office_name": "みなみ信州農業協同組合",
    "office_name_kana": "ミナミシンシユウノウギヨウキヨウドウクミアイ"
  },
  "0193": {
    "postcode": "3950193",
    "prefecture": "長野県",
    "prefecture_kana": "ナガノケン",
    "prefecture_code": 20,
    "city": "飯田市",
    "city_kana": "イイダシ",
    "town": "北方",
    "town_kana": "キタガタ",
    "street": "１０２３−１",
    "office_name": "綿半鋼機　株式会社",
    "office_name_kana": "ワタハンコウキ カブシキガイシヤ"
  },
  "0195": {
    "postcode": "3950195",
    "prefecture": "長野県",
    "prefecture_kana": "ナガノケン",
    "prefecture_code": 20,
    "city": "飯田市",
    "city_kana": "イイダシ",
    "town": "下殿岡",
    "town_kana": "シモトノオカ",
    "street": "４３５",
    "office_name": "株式会社　平和時計製作所",
    "office_name_kana": "カブシキガイシヤ ヘイワドケイセイサクジヨ"
  },
  "0196": {
    "postcode": "3950196",
    "prefecture": "長野県",
    "prefecture_kana": "ナガノケン",
    "prefecture_code": 20,
    "city": "飯田市",
    "city_kana": "イイダシ",
    "town": "中村",
    "town_kana": "ナカムラ",
    "street": "１３１３",
    "office_name": "天竜丸澤　株式会社",
    "office_name_kana": "テンリユウマルサワ カブシキガイシヤ"
  },
  "0241": {
    "postcode": "3950241",
    "prefecture": "長野県",
    "prefecture_kana": "ナガノケン",
    "prefecture_code": 20,
    "city": "飯田市",
    "city_kana": "イイダシ",
    "town": "久米",
    "town_kana": "クメ",
    "street": null,
    "office_name": null,
    "office_name_kana": null
  },
  "0242": {
    "postcode": "3950242",
    "prefecture": "長野県",
    "prefecture_kana": "ナガノケン",
    "prefecture_code": 20,
    "city": "飯田市",
    "city_kana": "イイダシ",
    "town": "竹佐",
    "town_kana": "タケサ",
    "street": null,
    "office_name": null,
    "office_name_kana": null
  },
  "0243": {
    "postcode": "3950243",
    "prefecture": "長野県",
    "prefecture_kana": "ナガノケン",
    "prefecture_code": 20,
    "city": "飯田市",
    "city_kana": "イイダシ",
    "town": "箱川",
    "town_kana": "ハコガワ",
    "street": null,
    "office_name": null,
    "office_name_kana": null
  },
  "0244": {
    "postcode": "3950244",
    "prefecture": "長野県",
    "prefecture_kana": "ナガノケン",
    "prefecture_code": 20,
    "city": "飯田市",
    "city_kana": "イイダシ",
    "town": "山本",
    "town_kana": "ヤマモト",
    "street": null,
    "office_name": null,
    "office_name_kana": null
  },
  "0245": {
    "postcode": "3950245",
    "prefecture": "長野県",
    "prefecture_kana": "ナガノケン",
    "prefecture_code": 20,
    "city": "飯田市",
    "city_kana": "イイダシ",
    "town": "山本二ツ山団地",
    "town_kana": "ヤマモトフタツヤマダンチ",
    "street": null,
    "office_name": null,
    "office_name_kana": null
  },
  "0300": {
    "postcode": "3950300",
    "prefecture": "長野県",
    "prefecture_kana": "ナガノケン",
    "prefecture_code": 20,
    "city": "下伊那郡阿智村",
    "city_kana": "シモイナグンアチムラ",
    "town": "",
    "town_kana": "",
    "street": null,
    "office_name": null,
    "office_name_kana": null
  },
  "0301": {
    "postcode": "3950301",
    "prefecture": "長野県",
    "prefecture_kana": "ナガノケン",
    "prefecture_code": 20,
    "city": "下伊那郡阿智村",
    "city_kana": "シモイナグンアチムラ",
    "town": "春日",
    "town_kana": "カスガ",
    "street": null,
    "office_name": null,
    "office_name_kana": null
  },
  "0302": {
    "postcode": "3950302",
    "prefecture": "長野県",
    "prefecture_kana": "ナガノケン",
    "prefecture_code": 20,
    "city": "下伊那郡阿智村",
    "city_kana": "シモイナグンアチムラ",
    "town": "伍和",
    "town_kana": "ゴカ",
    "street": null,
    "office_name": null,
    "office_name_kana": null
  },
  "0303": {
    "postcode": "3950303",
    "prefecture": "長野県",
    "prefecture_kana": "ナガノケン",
    "prefecture_code": 20,
    "city": "下伊那郡阿智村",
    "city_kana": "シモイナグンアチムラ",
    "town": "駒場",
    "town_kana": "コマバ",
    "street": null,
    "office_name": null,
    "office_name_kana": null
  },
  "0304": {
    "postcode": "3950304",
    "prefecture": "長野県",
    "prefecture_kana": "ナガノケン",
    "prefecture_code": 20,
    "city": "下伊那郡阿智村",
    "city_kana": "シモイナグンアチムラ",
    "town": "智里",
    "town_kana": "チサト",
    "street": null,
    "office_name": null,
    "office_name_kana": null
  },
  "0305": {
    "postcode": "3950305",
    "prefecture": "長野県",
    "prefecture_kana": "ナガノケン",
    "prefecture_code": 20,
    "city": "下伊那郡阿智村",
    "city_kana": "シモイナグンアチムラ",
    "town": "駒",
    "town_kana": "コマ",
    "street": null,
    "office_name": null,
    "office_name_kana": null
  },
  "0401": {
    "postcode": "3950401",
    "prefecture": "長野県",
    "prefecture_kana": "ナガノケン",
    "prefecture_code": 20,
    "city": "下伊那郡阿智村",
    "city_kana": "シモイナグンアチムラ",
    "town": "清内路",
    "town_kana": "セイナイジ",
    "street": null,
    "office_name": null,
    "office_name_kana": null
  },
  "0501": {
    "postcode": "3950501",
    "prefecture": "長野県",
    "prefecture_kana": "ナガノケン",
    "prefecture_code": 20,
    "city": "下伊那郡阿智村",
    "city_kana": "シモイナグンアチムラ",
    "town": "浪合",
    "town_kana": "ナミアイ",
    "street": null,
    "office_name": null,
    "office_name_kana": null
  },
  "0601": {
    "postcode": "3950601",
    "prefecture": "長野県",
    "prefecture_kana": "ナガノケン",
    "prefecture_code": 20,
    "city": "下伊那郡平谷村",
    "city_kana": "シモイナグンヒラヤムラ",
    "town": "",
    "town_kana": "",
    "street": null,
    "office_name": null,
    "office_name_kana": null
  },
  "0701": {
    "postcode": "3950701",
    "prefecture": "長野県",
    "prefecture_kana": "ナガノケン",
    "prefecture_code": 20,
    "city": "下伊那郡根羽村",
    "city_kana": "シモイナグンネバムラ",
    "town": "",
    "town_kana": "",
    "street": null,
    "office_name": null,
    "office_name_kana": null
  },
  "0801": {
    "postcode": "3950801",
    "prefecture": "長野県",
    "prefecture_kana": "ナガノケン",
    "prefecture_code": 20,
    "city": "飯田市",
    "city_kana": "イイダシ",
    "town": "鼎中平",
    "town_kana": "カナエナカダイラ",
    "street": null,
    "office_name": null,
    "office_name_kana": null
  },
  "0802": {
    "postcode": "3950802",
    "prefecture": "長野県",
    "prefecture_kana": "ナガノケン",
    "prefecture_code": 20,
    "city": "飯田市",
    "city_kana": "イイダシ",
    "town": "鼎下茶屋",
    "town_kana": "カナエシモチャヤ",
    "street": null,
    "office_name": null,
    "office_name_kana": null
  },
  "0803": {
    "postcode": "3950803",
    "prefecture": "長野県",
    "prefecture_kana": "ナガノケン",
    "prefecture_code": 20,
    "city": "飯田市",
    "city_kana": "イイダシ",
    "town": "鼎下山",
    "town_kana": "カナエシモヤマ",
    "street": null,
    "office_name": null,
    "office_name_kana": null
  },
  "0804": {
    "postcode": "3950804",
    "prefecture": "長野県",
    "prefecture_kana": "ナガノケン",
    "prefecture_code": 20,
    "city": "飯田市",
    "city_kana": "イイダシ",
    "town": "鼎名古熊",
    "town_kana": "カナエナゴクマ",
    "street": null,
    "office_name": null,
    "office_name_kana": null
  },
  "0805": {
    "postcode": "3950805",
    "prefecture": "長野県",
    "prefecture_kana": "ナガノケン",
    "prefecture_code": 20,
    "city": "飯田市",
    "city_kana": "イイダシ",
    "town": "鼎一色",
    "town_kana": "カナエイッシキ",
    "street": null,
    "office_name": null,
    "office_name_kana": null
  },
  "0806": {
    "postcode": "3950806",
    "prefecture": "長野県",
    "prefecture_kana": "ナガノケン",
    "prefecture_code": 20,
    "city": "飯田市",
    "city_kana": "イイダシ",
    "town": "鼎上山",
    "town_kana": "カナエカミヤマ",
    "street": null,
    "office_name": null,
    "office_name_kana": null
  },
  "0807": {
    "postcode": "3950807",
    "prefecture": "長野県",
    "prefecture_kana": "ナガノケン",
    "prefecture_code": 20,
    "city": "飯田市",
    "city_kana": "イイダシ",
    "town": "鼎切石",
    "town_kana": "カナエキリイシ",
    "street": null,
    "office_name": null,
    "office_name_kana": null
  },
  "0808": {
    "postcode": "3950808",
    "prefecture": "長野県",
    "prefecture_kana": "ナガノケン",
    "prefecture_code": 20,
    "city": "飯田市",
    "city_kana": "イイダシ",
    "town": "鼎上茶屋",
    "town_kana": "カナエカミチャヤ",
    "street": null,
    "office_name": null,
    "office_name_kana": null
  },
  "0811": {
    "postcode": "3950811",
    "prefecture": "長野県",
    "prefecture_kana": "ナガノケン",
    "prefecture_code": 20,
    "city": "飯田市",
    "city_kana": "イイダシ",
    "town": "松尾上溝",
    "town_kana": "マツオアゲミゾ",
    "street": null,
    "office_name": null,
    "office_name_kana": null
  },
  "0812": {
    "postcode": "3950812",
    "prefecture": "長野県",
    "prefecture_kana": "ナガノケン",
    "prefecture_code": 20,
    "city": "飯田市",
    "city_kana": "イイダシ",
    "town": "松尾代田",
    "town_kana": "マツオシロダ",
    "street": null,
    "office_name": null,
    "office_name_kana": null
  },
  "0813": {
    "postcode": "3950813",
    "prefecture": "長野県",
    "prefecture_kana": "ナガノケン",
    "prefecture_code": 20,
    "city": "飯田市",
    "city_kana": "イイダシ",
    "town": "毛賀",
    "town_kana": "ケガ",
    "street": null,
    "office_name": null,
    "office_name_kana": null
  },
  "0814": {
    "postcode": "3950814",
    "prefecture": "長野県",
    "prefecture_kana": "ナガノケン",
    "prefecture_code": 20,
    "city": "飯田市",
    "city_kana": "イイダシ",
    "town": "八幡町",
    "town_kana": "ヤワタマチ",
    "street": null,
    "office_name": null,
    "office_name_kana": null
  },
  "0815": {
    "postcode": "3950815",
    "prefecture": "長野県",
    "prefecture_kana": "ナガノケン",
    "prefecture_code": 20,
    "city": "飯田市",
    "city_kana": "イイダシ",
    "town": "松尾常盤台",
    "town_kana": "マツオトキワダイ",
    "street": null,
    "office_name": null,
    "office_name_kana": null
  },
  "0816": {
    "postcode": "3950816",
    "prefecture": "長野県",
    "prefecture_kana": "ナガノケン",
    "prefecture_code": 20,
    "city": "飯田市",
    "city_kana": "イイダシ",
    "town": "松尾久井",
    "town_kana": "マツオヒサイ",
    "street": null,
    "office_name": null,
    "office_name_kana": null
  },
  "0817": {
    "postcode": "3950817",
    "prefecture": "長野県",
    "prefecture_kana": "ナガノケン",
    "prefecture_code": 20,
    "city": "飯田市",
    "city_kana": "イイダシ",
    "town": "鼎東鼎",
    "town_kana": "カナエヒガシカナエ",
    "street": null,
    "office_name": null,
    "office_name_kana": null
  },
  "0821": {
    "postcode": "3950821",
    "prefecture": "長野県",
    "prefecture_kana": "ナガノケン",
    "prefecture_code": 20,
    "city": "飯田市",
    "city_kana": "イイダシ",
    "town": "松尾新井",
    "town_kana": "マツオアライ",
    "street": null,
    "office_name": null,
    "office_name_kana": null
  },
  "0822": {
    "postcode": "3950822",
    "prefecture": "長野県",
    "prefecture_kana": "ナガノケン",
    "prefecture_code": 20,
    "city": "飯田市",
    "city_kana": "イイダシ",
    "town": "松尾寺所",
    "town_kana": "マツオテラドコ",
    "street": null,
    "office_name": null,
    "office_name_kana": null
  },
  "0823": {
    "postcode": "3950823",
    "prefecture": "長野県",
    "prefecture_kana": "ナガノケン",
    "prefecture_code": 20,
    "city": "飯田市",
    "city_kana": "イイダシ",
    "town": "松尾明",
    "town_kana": "マツオミョウ",
    "street": null,
    "office_name": null,
    "office_name_kana": null
  },
  "0824": {
    "postcode": "3950824",
    "prefecture": "長野県",
    "prefecture_kana": "ナガノケン",
    "prefecture_code": 20,
    "city": "飯田市",
    "city_kana": "イイダシ",
    "town": "松尾清水",
    "town_kana": "マツオシミズ",
    "street": null,
    "office_name": null,
    "office_name_kana": null
  },
  "0825": {
    "postcode": "3950825",
    "prefecture": "長野県",
    "prefecture_kana": "ナガノケン",
    "prefecture_code": 20,
    "city": "飯田市",
    "city_kana": "イイダシ",
    "town": "松尾城",
    "town_kana": "マツオジョウ",
    "street": null,
    "office_name": null,
    "office_name_kana": null
  },
  "0826": {
    "postcode": "3950826",
    "prefecture": "長野県",
    "prefecture_kana": "ナガノケン",
    "prefecture_code": 20,
    "city": "飯田市",
    "city_kana": "イイダシ",
    "town": "松尾水城",
    "town_kana": "マツオミサジロ",
    "street": null,
    "office_name": null,
    "office_name_kana": null
  },
  "1100": {
    "postcode": "3951100",
    "prefecture": "長野県",
    "prefecture_kana": "ナガノケン",
    "prefecture_code": 20,
    "city": "下伊那郡喬木村",
    "city_kana": "シモイナグンタカギムラ",
    "town": "",
    "town_kana": "",
    "street": null,
    "office_name": null,
    "office_name_kana": null
  },
  "1101": {
    "postcode": "3951101",
    "prefecture": "長野県",
    "prefecture_kana": "ナガノケン",
    "prefecture_code": 20,
    "city": "下伊那郡喬木村",
    "city_kana": "シモイナグンタカギムラ",
    "town": "阿島",
    "town_kana": "アジマ",
    "street": null,
    "office_name": null,
    "office_name_kana": null
  },
  "1102": {
    "postcode": "3951102",
    "prefecture": "長野県",
    "prefecture_kana": "ナガノケン",
    "prefecture_code": 20,
    "city": "下伊那郡喬木村",
    "city_kana": "シモイナグンタカギムラ",
    "town": "加々須",
    "town_kana": "カカス",
    "street": null,
    "office_name": null,
    "office_name_kana": null
  },
  "1103": {
    "postcode": "3951103",
    "prefecture": "長野県",
    "prefecture_kana": "ナガノケン",
    "prefecture_code": 20,
    "city": "下伊那郡喬木村",
    "city_kana": "シモイナグンタカギムラ",
    "town": "大島",
    "town_kana": "オオシマ",
    "street": null,
    "office_name": null,
    "office_name_kana": null
  },
  "1104": {
    "postcode": "3951104",
    "prefecture": "長野県",
    "prefecture_kana": "ナガノケン",
    "prefecture_code": 20,
    "city": "下伊那郡喬木村",
    "city_kana": "シモイナグンタカギムラ",
    "town": "氏乗",
    "town_kana": "ウジノリ",
    "street": null,
    "office_name": null,
    "office_name_kana": null
  },
  "1105": {
    "postcode": "3951105",
    "prefecture": "長野県",
    "prefecture_kana": "ナガノケン",
    "prefecture_code": 20,
    "city": "下伊那郡喬木村",
    "city_kana": "シモイナグンタカギムラ",
    "town": "大和知",
    "town_kana": "オオワチ",
    "street": null,
    "office_name": null,
    "office_name_kana": null
  },
  "1106": {
    "postcode": "3951106",
    "prefecture": "長野県",
    "prefecture_kana": "ナガノケン",
    "prefecture_code": 20,
    "city": "下伊那郡喬木村",
    "city_kana": "シモイナグンタカギムラ",
    "town": "富田",
    "town_kana": "トミダ",
    "street": null,
    "office_name": null,
    "office_name_kana": null
  },
  "1107": {
    "postcode": "3951107",
    "prefecture": "長野県",
    "prefecture_kana": "ナガノケン",
    "prefecture_code": 20,
    "city": "下伊那郡喬木村",
    "city_kana": "シモイナグンタカギムラ",
    "town": "小川",
    "town_kana": "オガワ",
    "street": null,
    "office_name": null,
    "office_name_kana": null
  },
  "1108": {
    "postcode": "3951108",
    "prefecture": "長野県",
    "prefecture_kana": "ナガノケン",
    "prefecture_code": 20,
    "city": "下伊那郡喬木村",
    "city_kana": "シモイナグンタカギムラ",
    "town": "伊久間",
    "town_kana": "イクマ",
    "street": null,
    "office_name": null,
    "office_name_kana": null
  },
  "8501": {
    "postcode": "3958501",
    "prefecture": "長野県",
    "prefecture_kana": "ナガノケン",
    "prefecture_code": 20,
    "city": "飯田市",
    "city_kana": "イイダシ",
    "town": "大久保町",
    "town_kana": "オオクボチョウ",
    "street": "２５３４",
    "office_name": "飯田市役所",
    "office_name_kana": "イイダシヤクシヨ"
  },
  "8502": {
    "postcode": "3958502",
    "prefecture": "長野県",
    "prefecture_kana": "ナガノケン",
    "prefecture_code": 20,
    "city": "飯田市",
    "city_kana": "イイダシ",
    "town": "八幡町",
    "town_kana": "ヤワタマチ",
    "street": "４３８",
    "office_name": "飯田市立病院",
    "office_name_kana": "イイダシリツビヨウイン"
  },
  "8503": {
    "postcode": "3958503",
    "prefecture": "長野県",
    "prefecture_kana": "ナガノケン",
    "prefecture_code": 20,
    "city": "飯田市",
    "city_kana": "イイダシ",
    "town": "上郷黒田",
    "town_kana": "カミサトクロダ",
    "street": "３４１",
    "office_name": "飯田市立高松病院",
    "office_name_kana": "イイダシリツタカマツビヨウイン"
  },
  "8504": {
    "postcode": "3958504",
    "prefecture": "長野県",
    "prefecture_kana": "ナガノケン",
    "prefecture_code": 20,
    "city": "飯田市",
    "city_kana": "イイダシ",
    "town": "常盤町",
    "town_kana": "トキワマチ",
    "street": "４１番地",
    "office_name": "飯田商工会議所",
    "office_name_kana": "イイダシヨウコウカイギシヨ"
  },
  "8505": {
    "postcode": "3958505",
    "prefecture": "長野県",
    "prefecture_kana": "ナガノケン",
    "prefecture_code": 20,
    "city": "飯田市",
    "city_kana": "イイダシ",
    "town": "大通",
    "town_kana": "オオドオリ",
    "street": "１丁目１５",
    "office_name": "飯田病院",
    "office_name_kana": "イイダビヨウイン"
  },
  "8511": {
    "postcode": "3958511",
    "prefecture": "長野県",
    "prefecture_kana": "ナガノケン",
    "prefecture_code": 20,
    "city": "飯田市",
    "city_kana": "イイダシ",
    "town": "座光寺",
    "town_kana": "ザコウジ",
    "street": "４６０１−１",
    "office_name": "株式会社　マルタ",
    "office_name_kana": "カブシキカイシヤ マルタ"
  },
  "8515": {
    "postcode": "3958515",
    "prefecture": "長野県",
    "prefecture_kana": "ナガノケン",
    "prefecture_code": 20,
    "city": "飯田市",
    "city_kana": "イイダシ",
    "town": "大休",
    "town_kana": "オオヤスミ",
    "street": "１８７９",
    "office_name": "多摩川精機　（株）",
    "office_name_kana": "タマガワセイキ カブシキガイシヤ"
  },
  "8520": {
    "postcode": "3958520",
    "prefecture": "長野県",
    "prefecture_kana": "ナガノケン",
    "prefecture_code": 20,
    "city": "飯田市",
    "city_kana": "イイダシ",
    "town": "毛賀",
    "town_kana": "ケガ",
    "street": "１０２０",
    "office_name": "多摩川精機　株式会社　第２事業所",
    "office_name_kana": "タマガワセイキ カブシキガイシヤ ダイニジギヨウシヨ"
  },
  "8522": {
    "postcode": "3958522",
    "prefecture": "長野県",
    "prefecture_kana": "ナガノケン",
    "prefecture_code": 20,
    "city": "飯田市",
    "city_kana": "イイダシ",
    "town": "鼎中平",
    "town_kana": "カナエナカダイラ",
    "street": "１９３６",
    "office_name": "健和会病院",
    "office_name_kana": "ケンワカイビヨウイン"
  },
  "8528": {
    "postcode": "3958528",
    "prefecture": "長野県",
    "prefecture_kana": "ナガノケン",
    "prefecture_code": 20,
    "city": "飯田市",
    "city_kana": "イイダシ",
    "town": "上郷飯沼",
    "town_kana": "カミサトイイヌマ",
    "street": "３１３５−３",
    "office_name": "飯田女子高等学校",
    "office_name_kana": "イイダジヨシコウトウガツコウ"
  },
  "8533": {
    "postcode": "3958533",
    "prefecture": "長野県",
    "prefecture_kana": "ナガノケン",
    "prefecture_code": 20,
    "city": "飯田市",
    "city_kana": "イイダシ",
    "town": "東栄町",
    "town_kana": "トウエイチョウ",
    "street": "３３４５",
    "office_name": "飯田広域消防本部",
    "office_name_kana": "イイダコウイキシヨウボウホンブ"
  },
  "8543": {
    "postcode": "3958543",
    "prefecture": "長野県",
    "prefecture_kana": "ナガノケン",
    "prefecture_code": 20,
    "city": "飯田市",
    "city_kana": "イイダシ",
    "town": "上郷黒田",
    "town_kana": "カミサトクロダ",
    "street": "６４６２",
    "office_name": "長野県飯田風越高等学校",
    "office_name_kana": "ナガノケンイイダフウエツコウトウガツコウ"
  },
  "8555": {
    "postcode": "3958555",
    "prefecture": "長野県",
    "prefecture_kana": "ナガノケン",
    "prefecture_code": 20,
    "city": "飯田市",
    "city_kana": "イイダシ",
    "town": "松尾新井",
    "town_kana": "マツオアライ",
    "street": "６３２０−１",
    "office_name": "株式会社　長野県農協直販",
    "office_name_kana": "カブシキガイシヤ ナガノケンチヨクハン"
  },
  "8556": {
    "postcode": "3958556",
    "prefecture": "長野県",
    "prefecture_kana": "ナガノケン",
    "prefecture_code": 20,
    "city": "飯田市",
    "city_kana": "イイダシ",
    "town": "大通",
    "town_kana": "オオドオリ",
    "street": "２丁目２０８",
    "office_name": "信南交通　株式会社",
    "office_name_kana": "シンナンコウツウ カブシキガイシヤ"
  },
  "8558": {
    "postcode": "3958558",
    "prefecture": "長野県",
    "prefecture_kana": "ナガノケン",
    "prefecture_code": 20,
    "city": "飯田市",
    "city_kana": "イイダシ",
    "town": "毛賀",
    "town_kana": "ケガ",
    "street": "１７０７",
    "office_name": "医療法人　輝山会記念病院",
    "office_name_kana": "イリヨウホウジン キザンカイキネンビヨウイン"
  },
  "8566": {
    "postcode": "3958566",
    "prefecture": "長野県",
    "prefecture_kana": "ナガノケン",
    "prefecture_code": 20,
    "city": "飯田市",
    "city_kana": "イイダシ",
    "town": "松尾明",
    "town_kana": "マツオミョウ",
    "street": "７５８７−２",
    "office_name": "株式会社　ミヤウチ",
    "office_name_kana": "カブシキカイシヤ ミヤウチ"
  },
  "8567": {
    "postcode": "3958567",
    "prefecture": "長野県",
    "prefecture_kana": "ナガノケン",
    "prefecture_code": 20,
    "city": "飯田市",
    "city_kana": "イイダシ",
    "town": "松尾代田",
    "town_kana": "マツオシロダ",
    "street": "６１０",
    "office_name": "飯田女子短期大学",
    "office_name_kana": "イイダジヨシタンキダイガク"
  },
  "8577": {
    "postcode": "3958577",
    "prefecture": "長野県",
    "prefecture_kana": "ナガノケン",
    "prefecture_code": 20,
    "city": "飯田市",
    "city_kana": "イイダシ",
    "town": "松尾明",
    "town_kana": "マツオミョウ",
    "street": "２５７２",
    "office_name": "株式会社　平和時計製作所　松尾工場",
    "office_name_kana": "カブシキカイシヤ ヘイワトケイセイサクシヨ マツオコウジヨウ"
  },
  "8585": {
    "postcode": "3958585",
    "prefecture": "長野県",
    "prefecture_kana": "ナガノケン",
    "prefecture_code": 20,
    "city": "飯田市",
    "city_kana": "イイダシ",
    "town": "大門町",
    "town_kana": "ダイモンチョウ",
    "street": "２６",
    "office_name": "株式会社　原鉄",
    "office_name_kana": "カブシキカイシヤ ハラテツ"
  },
  "8588": {
    "postcode": "3958588",
    "prefecture": "長野県",
    "prefecture_kana": "ナガノケン",
    "prefecture_code": 20,
    "city": "飯田市",
    "city_kana": "イイダシ",
    "town": "松尾上溝",
    "town_kana": "マツオアゲミゾ",
    "street": "３０９３−１",
    "office_name": "株式会社　トマツ本店",
    "office_name_kana": "カブシキカイシヤ トマツホンテン"
  },
  "8609": {
    "postcode": "3958609",
    "prefecture": "長野県",
    "prefecture_kana": "ナガノケン",
    "prefecture_code": 20,
    "city": "飯田市",
    "city_kana": "イイダシ",
    "town": "大久保町",
    "town_kana": "オオクボチョウ",
    "street": "２６３７−３",
    "office_name": "飯田公共職業安定所",
    "office_name_kana": "イイダコウキヨウシヨクギヨウアンテイジヨ"
  },
  "8611": {
    "postcode": "3958611",
    "prefecture": "長野県",
    "prefecture_kana": "ナガノケン",
    "prefecture_code": 20,
    "city": "飯田市",
    "city_kana": "イイダシ",
    "town": "本町",
    "town_kana": "ホンマチ",
    "street": "１丁目２（飯田郵便局私書箱第１６号）",
    "office_name": "飯田信用金庫",
    "office_name_kana": "イイダシンヨウキンコ"
  },
  "8622": {
    "postcode": "3958622",
    "prefecture": "長野県",
    "prefecture_kana": "ナガノケン",
    "prefecture_code": 20,
    "city": "飯田市",
    "city_kana": "イイダシ",
    "town": "吾妻町",
    "town_kana": "アズマチョウ",
    "street": "１００（飯田郵便局私書箱第３７号）",
    "office_name": "中部電力　株式会社　飯田営業所",
    "office_name_kana": "チユウブデンリヨク カブシキガイシヤ イイダエイギヨウシヨ"
  },
  "8646": {
    "postcode": "3958646",
    "prefecture": "長野県",
    "prefecture_kana": "ナガノケン",
    "prefecture_code": 20,
    "city": "飯田市",
    "city_kana": "イイダシ",
    "town": "高羽町",
    "town_kana": "タカハチョウ",
    "street": "６丁目１−１５（飯田郵便局私書箱第４５号）",
    "office_name": "飯田税務署",
    "office_name_kana": "イイダゼイムシヨ"
  },
  "8655": {
    "postcode": "3958655",
    "prefecture": "長野県",
    "prefecture_kana": "ナガノケン",
    "prefecture_code": 20,
    "city": "飯田市",
    "city_kana": "イイダシ",
    "town": "宮の前",
    "town_kana": "ミヤノマエ",
    "street": "４３８１−３（飯田郵便局私書箱第２９号）",
    "office_name": "飯田社会保険事務所",
    "office_name_kana": "イイダシヤカイホケンジムシヨ"
  },
  "8682": {
    "postcode": "3958682",
    "prefecture": "長野県",
    "prefecture_kana": "ナガノケン",
    "prefecture_code": 20,
    "city": "飯田市",
    "city_kana": "イイダシ",
    "town": "知久町",
    "town_kana": "チクマチ",
    "street": "１丁目２６（飯田郵便局私書箱第７号）",
    "office_name": "株式会社　八十二銀行　飯田支店",
    "office_name_kana": "カブシキガイシヤ ハチジユウニギンコウ イイダシテン"
  },
  "8688": {
    "postcode": "3958688",
    "prefecture": "長野県",
    "prefecture_kana": "ナガノケン",
    "prefecture_code": 20,
    "city": "飯田市",
    "city_kana": "イイダシ",
    "town": "松尾上溝",
    "town_kana": "マツオアゲミゾ",
    "street": "３０１４−２（飯田郵便局私書箱第１号）",
    "office_name": "株式会社　外松",
    "office_name_kana": "カブシキガイシヤ トマツ"
  }
}