{
  "0000": {
    "postcode": "3970000",
    "prefecture": "長野県",
    "prefecture_kana": "ナガノケン",
    "prefecture_code": 20,
    "city": "木曽郡木曽町",
    "city_kana": "キソグンキソマチ",
    "town": "",
    "town_kana": "",
    "street": null,
    "office_name": null,
    "office_name_kana": null
  },
  "0001": {
    "postcode": "3970001",
    "prefecture": "長野県",
    "prefecture_kana": "ナガノケン",
    "prefecture_code": 20,
    "city": "木曽郡木曽町",
    "city_kana": "キソグンキソマチ",
    "town": "福島",
    "town_kana": "フクシマ",
    "street": null,
    "office_name": null,
    "office_name_kana": null
  },
  "0002": {
    "postcode": "3970002",
    "prefecture": "長野県",
    "prefecture_kana": "ナガノケン",
    "prefecture_code": 20,
    "city": "木曽郡木曽町",
    "city_kana": "キソグンキソマチ",
    "town": "新開",
    "town_kana": "シンカイ",
    "street": null,
    "office_name": null,
    "office_name_kana": null
  },
  "0003": {
    "postcode": "3970003",
    "prefecture": "長野県",
    "prefecture_kana": "ナガノケン",
    "prefecture_code": 20,
    "city": "木曽郡木曽町",
    "city_kana": "キソグンキソマチ",
    "town": "新開福",
    "town_kana": "シンカイフク",
    "street": null,
    "office_name": null,
    "office_name_kana": null
  },
  "0101": {
    "postcode": "3970101",
    "prefecture": "長野県",
    "prefecture_kana": "ナガノケン",
    "prefecture_code": 20,
    "city": "木曽郡木曽町",
    "city_kana": "キソグンキソマチ",
    "town": "三岳",
    "town_kana": "ミタケ",
    "street": null,
    "office_name": null,
    "office_name_kana": null
  },
  "0201": {
    "postcode": "3970201",
    "prefecture": "長野県",
    "prefecture_kana": "ナガノケン",
    "prefecture_code": 20,
    "city": "木曽郡王滝村",
    "city_kana": "キソグンオウタキムラ",
    "town": "",
    "town_kana": "",
    "street": null,
    "office_name": null,
    "office_name_kana": null
  },
  "0292": {
    "postcode": "3970292",
    "prefecture": "長野県",
    "prefecture_kana": "ナガノケン",
    "prefecture_code": 20,
    "city": "木曽郡王滝村",
    "city_kana": "キソグンオウタキムラ",
    "town": "此島",
    "town_kana": null,
    "street": "１００番地１",
    "office_name": "長野県製薬　株式会社",
    "office_name_kana": "ナガノケンセイヤク カブシキガイシヤ"
  },
  "0301": {
    "postcode": "3970301",
    "prefecture": "長野県",
    "prefecture_kana": "ナガノケン",
    "prefecture_code": 20,
    "city": "木曽郡木曽町",
    "city_kana": "キソグンキソマチ",
    "town": "開田高原末川",
    "town_kana": "カイダコウゲンスエカワ",
    "street": null,
    "office_name": null,
    "office_name_kana": null
  },
  "0302": {
    "postcode": "3970302",
    "prefecture": "長野県",
    "prefecture_kana": "ナガノケン",
    "prefecture_code": 20,
    "city": "木曽郡木曽町",
    "city_kana": "キソグンキソマチ",
    "town": "開田高原西野",
    "town_kana": "カイダコウゲンニシノ",
    "street": null,
    "office_name": null,
    "office_name_kana": null
  },
  "0392": {
    "postcode": "3970392",
    "prefecture": "長野県",
    "prefecture_kana": "ナガノケン",
    "prefecture_code": 20,
    "city": "木曽郡木曽町",
    "city_kana": "キソグンキソマチ",
    "town": "開田高原西野",
    "town_kana": "カイダコウゲンニシノ",
    "street": "６２３−１",
    "office_name": "木曽町　開田支所",
    "office_name_kana": "キソマチ カイダシシヨ"
  },
  "8550": {
    "postcode": "3978550",
    "prefecture": "長野県",
    "prefecture_kana": "ナガノケン",
    "prefecture_code": 20,
    "city": "木曽郡木曽町",
    "city_kana": "キソグンキソマチ",
    "town": "福島",
    "town_kana": "フクシマ",
    "street": "２７５７−１",
    "office_name": "木曽合同庁舎",
    "office_name_kana": "キソゴウドウチヨウシヤ"
  },
  "8555": {
    "postcode": "3978555",
    "prefecture": "長野県",
    "prefecture_kana": "ナガノケン",
    "prefecture_code": 20,
    "city": "木曽郡木曽町",
    "city_kana": "キソグンキソマチ",
    "town": "福島",
    "town_kana": "フクシマ",
    "street": "６６１３−４",
    "office_name": "長野県立　木曽病院",
    "office_name_kana": "ナガノケンリツ キソビヨウイン"
  },
  "8567": {
    "postcode": "3978567",
    "prefecture": "長野県",
    "prefecture_kana": "ナガノケン",
    "prefecture_code": 20,
    "city": "木曽郡木曽町",
    "city_kana": "キソグンキソマチ",
    "town": "新開",
    "town_kana": "シンカイ",
    "street": "４２３６",
    "office_name": "長野県　木曽青峰高等学校　新開キャンパス",
    "office_name_kana": "ナガノケン キソセイホウコウトウガツコウ シンカイキヤンパス"
  },
  "8571": {
    "postcode": "3978571",
    "prefecture": "長野県",
    "prefecture_kana": "ナガノケン",
    "prefecture_code": 20,
    "city": "木曽郡木曽町",
    "city_kana": "キソグンキソマチ",
    "town": "福島",
    "town_kana": "フクシマ",
    "street": "１８２７−２",
    "office_name": "長野県　木曽青峰高等学校",
    "office_name_kana": "ナガノケン キソセイホウコウトウガツコウ"
  },
  "8585": {
    "postcode": "3978585",
    "prefecture": "長野県",
    "prefecture_kana": "ナガノケン",
    "prefecture_code": 20,
    "city": "木曽郡木曽町",
    "city_kana": "キソグンキソマチ",
    "town": "福島",
    "town_kana": "フクシマ",
    "street": "５１２９",
    "office_name": "木曽町文化交流センター",
    "office_name_kana": "キソマチブンカコウリユウセンタ-"
  },
  "8588": {
    "postcode": "3978588",
    "prefecture": "長野県",
    "prefecture_kana": "ナガノケン",
    "prefecture_code": 20,
    "city": "木曽郡木曽町",
    "city_kana": "キソグンキソマチ",
    "town": "福島",
    "town_kana": "フクシマ",
    "street": "２３２６番地６",
    "office_name": "木曽町役場",
    "office_name_kana": "キソマチヤクバ"
  },
  "8602": {
    "postcode": "3978602",
    "prefecture": "長野県",
    "prefecture_kana": "ナガノケン",
    "prefecture_code": 20,
    "city": "木曽郡木曽町",
    "city_kana": "キソグンキソマチ",
    "town": "福島",
    "town_kana": "フクシマ",
    "street": "５６３７−１（木曽福島郵便局私書箱第２号）",
    "office_name": "木曽税務署",
    "office_name_kana": "キソゼイムシヨ"
  },
  "8609": {
    "postcode": "3978609",
    "prefecture": "長野県",
    "prefecture_kana": "ナガノケン",
    "prefecture_code": 20,
    "city": "木曽郡木曽町",
    "city_kana": "キソグンキソマチ",
    "town": "福島",
    "town_kana": "フクシマ",
    "street": "５０５６−１",
    "office_name": "木曽福島公共職業安定所",
    "office_name_kana": "キソフクシマコウキヨウシヨクギヨウアンテイシヨ"
  }
}