{
  "0000": {
    "postcode": "3980000",
    "prefecture": "長野県",
    "prefecture_kana": "ナガノケン",
    "prefecture_code": 20,
    "city": "大町市",
    "city_kana": "オオマチシ",
    "town": "",
    "town_kana": "",
    "street": null,
    "office_name": null,
    "office_name_kana": null
  },
  "0001": {
    "postcode": "3980001",
    "prefecture": "長野県",
    "prefecture_kana": "ナガノケン",
    "prefecture_code": 20,
    "city": "大町市",
    "city_kana": "オオマチシ",
    "town": "平",
    "town_kana": "タイラ",
    "street": null,
    "office_name": null,
    "office_name_kana": null
  },
  "0002": {
    "postcode": "3980002",
    "prefecture": "長野県",
    "prefecture_kana": "ナガノケン",
    "prefecture_code": 20,
    "city": "大町市",
    "city_kana": "オオマチシ",
    "town": "大町",
    "town_kana": "オオマチ",
    "street": null,
    "office_name": null,
    "office_name_kana": null
  },
  "0003": {
    "postcode": "3980003",
    "prefecture": "長野県",
    "prefecture_kana": "ナガノケン",
    "prefecture_code": 20,
    "city": "大町市",
    "city_kana": "オオマチシ",
    "town": "社",
    "town_kana": "ヤシロ",
    "street": null,
    "office_name": null,
    "office_name_kana": null
  },
  "0004": {
    "postcode": "3980004",
    "prefecture": "長野県",
    "prefecture_kana": "ナガノケン",
    "prefecture_code": 20,
    "city": "大町市",
    "city_kana": "オオマチシ",
    "town": "常盤",
    "town_kana": "トキワ",
    "street": null,
    "office_name": null,
    "office_name_kana": null
  },
  "8501": {
    "postcode": "3988501",
    "prefecture": "長野県",
    "prefecture_kana": "ナガノケン",
    "prefecture_code": 20,
    "city": "大町市",
    "city_kana": "オオマチシ",
    "town": "大字大町",
    "town_kana": null,
    "street": "３１９０−１６",
    "office_name": "大町税務署",
    "office_name_kana": "オオマチゼイムシヨ"
  },
  "8601": {
    "postcode": "3988601",
    "prefecture": "長野県",
    "prefecture_kana": "ナガノケン",
    "prefecture_code": 20,
    "city": "大町市",
    "city_kana": "オオマチシ",
    "town": "大町",
    "town_kana": "オオマチ",
    "street": "３８８７（大町郵便局私書箱第５号）",
    "office_name": "大町市役所",
    "office_name_kana": "オオマチシヤクシヨ"
  },
  "8602": {
    "postcode": "3988602",
    "prefecture": "長野県",
    "prefecture_kana": "ナガノケン",
    "prefecture_code": 20,
    "city": "大町市",
    "city_kana": "オオマチシ",
    "town": "大町",
    "town_kana": "オオマチ",
    "street": "１０５８−２（大町郵便局私書箱第１５号）",
    "office_name": "長野県大町合同庁舎",
    "office_name_kana": "ナガノケンオオマチゴウドウチヨウシヤ"
  },
  "8686": {
    "postcode": "3988686",
    "prefecture": "長野県",
    "prefecture_kana": "ナガノケン",
    "prefecture_code": 20,
    "city": "大町市",
    "city_kana": "オオマチシ",
    "town": "大町",
    "town_kana": "オオマチ",
    "street": "３０５２（大町郵便局私書箱第１４号）",
    "office_name": "株式会社　相模組",
    "office_name_kana": "カブシキカイシヤ サガミグミ"
  }
}