{
  "0000": {
    "postcode": "4010000",
    "prefecture": "山梨県",
    "prefecture_kana": "ヤマナシケン",
    "prefecture_code": 19,
    "city": "大月市",
    "city_kana": "オオツキシ",
    "town": "",
    "town_kana": "",
    "street": null,
    "office_name": null,
    "office_name_kana": null
  },
  "0001": {
    "postcode": "4010001",
    "prefecture": "山梨県",
    "prefecture_kana": "ヤマナシケン",
    "prefecture_code": 19,
    "city": "大月市",
    "city_kana": "オオツキシ",
    "town": "賑岡町畑倉",
    "town_kana": "ニギオカマチハタグラ",
    "street": null,
    "office_name": null,
    "office_name_kana": null
  },
  "0002": {
    "postcode": "4010002",
    "prefecture": "山梨県",
    "prefecture_kana": "ヤマナシケン",
    "prefecture_code": 19,
    "city": "大月市",
    "city_kana": "オオツキシ",
    "town": "賑岡町岩殿",
    "town_kana": "ニギオカマチイワドノ",
    "street": null,
    "office_name": null,
    "office_name_kana": null
  },
  "0003": {
    "postcode": "4010003",
    "prefecture": "山梨県",
    "prefecture_kana": "ヤマナシケン",
    "prefecture_code": 19,
    "city": "大月市",
    "city_kana": "オオツキシ",
    "town": "賑岡町ゆりケ丘",
    "town_kana": "ニギオカマチユリガオカ",
    "street": null,
    "office_name": null,
    "office_name_kana": null
  },
  "0004": {
    "postcode": "4010004",
    "prefecture": "山梨県",
    "prefecture_kana": "ヤマナシケン",
    "prefecture_code": 19,
    "city": "大月市",
    "city_kana": "オオツキシ",
    "town": "賑岡町強瀬",
    "town_kana": "ニギオカマチコワゼ",
    "street": null,
    "office_name": null,
    "office_name_kana": null
  },
  "0005": {
    "postcode": "4010005",
    "prefecture": "山梨県",
    "prefecture_kana": "ヤマナシケン",
    "prefecture_code": 19,
    "city": "大月市",
    "city_kana": "オオツキシ",
    "town": "賑岡町浅利",
    "town_kana": "ニギオカマチアサリ",
    "street": null,
    "office_name": null,
    "office_name_kana": null
  },
  "0006": {
    "postcode": "4010006",
    "prefecture": "山梨県",
    "prefecture_kana": "ヤマナシケン",
    "prefecture_code": 19,
    "city": "大月市",
    "city_kana": "オオツキシ",
    "town": "賑岡町奥山",
    "town_kana": "ニギオカマチオクヤマ",
    "street": null,
    "office_name": null,
    "office_name_kana": null
  },
  "0011": {
    "postcode": "4010011",
    "prefecture": "山梨県",
    "prefecture_kana": "ヤマナシケン",
    "prefecture_code": 19,
    "city": "大月市",
    "city_kana": "オオツキシ",
    "town": "駒橋",
    "town_kana": "コマハシ",
    "street": null,
    "office_name": null,
    "office_name_kana": null
  },
  "0012": {
    "postcode": "4010012",
    "prefecture": "山梨県",
    "prefecture_kana": "ヤマナシケン",
    "prefecture_code": 19,
    "city": "大月市",
    "city_kana": "オオツキシ",
    "town": "御太刀",
    "town_kana": "ミタチ",
    "street": null,
    "office_name": null,
    "office_name_kana": null
  },
  "0013": {
    "postcode": "4010013",
    "prefecture": "山梨県",
    "prefecture_kana": "ヤマナシケン",
    "prefecture_code": 19,
    "city": "大月市",
    "city_kana": "オオツキシ",
    "town": "大月",
    "town_kana": "オオツキ",
    "street": null,
    "office_name": null,
    "office_name_kana": null
  },
  "0014": {
    "postcode": "4010014",
    "prefecture": "山梨県",
    "prefecture_kana": "ヤマナシケン",
    "prefecture_code": 19,
    "city": "大月市",
    "city_kana": "オオツキシ",
    "town": "大月町大月",
    "town_kana": "オオツキマチオオツキ",
    "street": null,
    "office_name": null,
    "office_name_kana": null
  },
  "0015": {
    "postcode": "4010015",
    "prefecture": "山梨県",
    "prefecture_kana": "ヤマナシケン",
    "prefecture_code": 19,
    "city": "大月市",
    "city_kana": "オオツキシ",
    "town": "大月町花咲",
    "town_kana": "オオツキマチハナサキ",
    "street": null,
    "office_name": null,
    "office_name_kana": null
  },
  "0016": {
    "postcode": "4010016",
    "prefecture": "山梨県",
    "prefecture_kana": "ヤマナシケン",
    "prefecture_code": 19,
    "city": "大月市",
    "city_kana": "オオツキシ",
    "town": "大月町真木",
    "town_kana": "オオツキマチマギ",
    "street": null,
    "office_name": null,
    "office_name_kana": null
  },
  "0021": {
    "postcode": "4010021",
    "prefecture": "山梨県",
    "prefecture_kana": "ヤマナシケン",
    "prefecture_code": 19,
    "city": "大月市",
    "city_kana": "オオツキシ",
    "town": "初狩町下初狩",
    "town_kana": "ハツカリマチシモハツカリ",
    "street": null,
    "office_name": null,
    "office_name_kana": null
  },
  "0022": {
    "postcode": "4010022",
    "prefecture": "山梨県",
    "prefecture_kana": "ヤマナシケン",
    "prefecture_code": 19,
    "city": "大月市",
    "city_kana": "オオツキシ",
    "town": "初狩町中初狩",
    "town_kana": "ハツカリマチナカハツカリ",
    "street": null,
    "office_name": null,
    "office_name_kana": null
  },
  "0023": {
    "postcode": "4010023",
    "prefecture": "山梨県",
    "prefecture_kana": "ヤマナシケン",
    "prefecture_code": 19,
    "city": "大月市",
    "city_kana": "オオツキシ",
    "town": "笹子町白野",
    "town_kana": "ササゴマチシラノ",
    "street": null,
    "office_name": null,
    "office_name_kana": null
  },
  "0024": {
    "postcode": "4010024",
    "prefecture": "山梨県",
    "prefecture_kana": "ヤマナシケン",
    "prefecture_code": 19,
    "city": "大月市",
    "city_kana": "オオツキシ",
    "town": "笹子町吉久保",
    "town_kana": "ササゴマチヨシクボ",
    "street": null,
    "office_name": null,
    "office_name_kana": null
  },
  "0025": {
    "postcode": "4010025",
    "prefecture": "山梨県",
    "prefecture_kana": "ヤマナシケン",
    "prefecture_code": 19,
    "city": "大月市",
    "city_kana": "オオツキシ",
    "town": "笹子町黒野田",
    "town_kana": "ササゴマチクロノダ",
    "street": null,
    "office_name": null,
    "office_name_kana": null
  },
  "0201": {
    "postcode": "4010201",
    "prefecture": "山梨県",
    "prefecture_kana": "ヤマナシケン",
    "prefecture_code": 19,
    "city": "上野原市",
    "city_kana": "ウエノハラシ",
    "town": "秋山",
    "town_kana": "アキヤマ",
    "street": null,
    "office_name": null,
    "office_name_kana": null
  },
  "0292": {
    "postcode": "4010292",
    "prefecture": "山梨県",
    "prefecture_kana": "ヤマナシケン",
    "prefecture_code": 19,
    "city": "上野原市",
    "city_kana": "ウエノハラシ",
    "town": "秋山",
    "town_kana": "アキヤマ",
    "street": "７１３１",
    "office_name": "上野原市役所　秋山支所",
    "office_name_kana": "ウエノハラシヤクシヨ アキヤマシシヨ"
  },
  "0300": {
    "postcode": "4010300",
    "prefecture": "山梨県",
    "prefecture_kana": "ヤマナシケン",
    "prefecture_code": 19,
    "city": "南都留郡富士河口湖町",
    "city_kana": "ミナミツルグンフジカワグチコマチ",
    "town": "",
    "town_kana": "",
    "street": null,
    "office_name": null,
    "office_name_kana": null
  },
  "0301": {
    "postcode": "4010301",
    "prefecture": "山梨県",
    "prefecture_kana": "ヤマナシケン",
    "prefecture_code": 19,
    "city": "南都留郡富士河口湖町",
    "city_kana": "ミナミツルグンフジカワグチコマチ",
    "town": "船津",
    "town_kana": "フナツ",
    "street": null,
    "office_name": null,
    "office_name_kana": null
  },
  "0302": {
    "postcode": "4010302",
    "prefecture": "山梨県",
    "prefecture_kana": "ヤマナシケン",
    "prefecture_code": 19,
    "city": "南都留郡富士河口湖町",
    "city_kana": "ミナミツルグンフジカワグチコマチ",
    "town": "小立",
    "town_kana": "コダチ",
    "street": null,
    "office_name": null,
    "office_name_kana": null
  },
  "0303": {
    "postcode": "4010303",
    "prefecture": "山梨県",
    "prefecture_kana": "ヤマナシケン",
    "prefecture_code": 19,
    "city": "南都留郡富士河口湖町",
    "city_kana": "ミナミツルグンフジカワグチコマチ",
    "town": "浅川",
    "town_kana": "アザガワ",
    "street": null,
    "office_name": null,
    "office_name_kana": null
  },
  "0304": {
    "postcode": "4010304",
    "prefecture": "山梨県",
    "prefecture_kana": "ヤマナシケン",
    "prefecture_code": 19,
    "city": "南都留郡富士河口湖町",
    "city_kana": "ミナミツルグンフジカワグチコマチ",
    "town": "河口",
    "town_kana": "カワグチ",
    "street": null,
    "office_name": null,
    "office_name_kana": null
  },
  "0305": {
    "postcode": "4010305",
    "prefecture": "山梨県",
    "prefecture_kana": "ヤマナシケン",
    "prefecture_code": 19,
    "city": "南都留郡富士河口湖町",
    "city_kana": "ミナミツルグンフジカワグチコマチ",
    "town": "大石",
    "town_kana": "オオイシ",
    "street": null,
    "office_name": null,
    "office_name_kana": null
  },
  "0310": {
    "postcode": "4010310",
    "prefecture": "山梨県",
    "prefecture_kana": "ヤマナシケン",
    "prefecture_code": 19,
    "city": "南都留郡富士河口湖町",
    "city_kana": "ミナミツルグンフジカワグチコマチ",
    "town": "勝山",
    "town_kana": "カツヤマ",
    "street": null,
    "office_name": null,
    "office_name_kana": null
  },
  "0320": {
    "postcode": "4010320",
    "prefecture": "山梨県",
    "prefecture_kana": "ヤマナシケン",
    "prefecture_code": 19,
    "city": "南都留郡鳴沢村",
    "city_kana": "ミナミツルグンナルサワムラ",
    "town": "",
    "town_kana": "",
    "street": null,
    "office_name": null,
    "office_name_kana": null
  },
  "0331": {
    "postcode": "4010331",
    "prefecture": "山梨県",
    "prefecture_kana": "ヤマナシケン",
    "prefecture_code": 19,
    "city": "南都留郡富士河口湖町",
    "city_kana": "ミナミツルグンフジカワグチコマチ",
    "town": "長浜",
    "town_kana": "ナガハマ",
    "street": null,
    "office_name": null,
    "office_name_kana": null
  },
  "0332": {
    "postcode": "4010332",
    "prefecture": "山梨県",
    "prefecture_kana": "ヤマナシケン",
    "prefecture_code": 19,
    "city": "南都留郡富士河口湖町",
    "city_kana": "ミナミツルグンフジカワグチコマチ",
    "town": "西湖",
    "town_kana": "サイコ",
    "street": null,
    "office_name": null,
    "office_name_kana": null
  },
  "0333": {
    "postcode": "4010333",
    "prefecture": "山梨県",
    "prefecture_kana": "ヤマナシケン",
    "prefecture_code": 19,
    "city": "南都留郡富士河口湖町",
    "city_kana": "ミナミツルグンフジカワグチコマチ",
    "town": "西湖西",
    "town_kana": "サイコニシ",
    "street": null,
    "office_name": null,
    "office_name_kana": null
  },
  "0334": {
    "postcode": "4010334",
    "prefecture": "山梨県",
    "prefecture_kana": "ヤマナシケン",
    "prefecture_code": 19,
    "city": "南都留郡富士河口湖町",
    "city_kana": "ミナミツルグンフジカワグチコマチ",
    "town": "西湖南",
    "town_kana": "サイコミナミ",
    "street": null,
    "office_name": null,
    "office_name_kana": null
  },
  "0335": {
    "postcode": "4010335",
    "prefecture": "山梨県",
    "prefecture_kana": "ヤマナシケン",
    "prefecture_code": 19,
    "city": "南都留郡富士河口湖町",
    "city_kana": "ミナミツルグンフジカワグチコマチ",
    "town": "大嵐",
    "town_kana": "オオアラシ",
    "street": null,
    "office_name": null,
    "office_name_kana": null
  },
  "0336": {
    "postcode": "4010336",
    "prefecture": "山梨県",
    "prefecture_kana": "ヤマナシケン",
    "prefecture_code": 19,
    "city": "南都留郡富士河口湖町",
    "city_kana": "ミナミツルグンフジカワグチコマチ",
    "town": "精進",
    "town_kana": "ショウジ",
    "street": null,
    "office_name": null,
    "office_name_kana": null
  },
  "0337": {
    "postcode": "4010337",
    "prefecture": "山梨県",
    "prefecture_kana": "ヤマナシケン",
    "prefecture_code": 19,
    "city": "南都留郡富士河口湖町",
    "city_kana": "ミナミツルグンフジカワグチコマチ",
    "town": "本栖",
    "town_kana": "モトス",
    "street": null,
    "office_name": null,
    "office_name_kana": null
  },
  "0338": {
    "postcode": "4010338",
    "prefecture": "山梨県",
    "prefecture_kana": "ヤマナシケン",
    "prefecture_code": 19,
    "city": "南都留郡富士河口湖町",
    "city_kana": "ミナミツルグンフジカワグチコマチ",
    "town": "富士ケ嶺",
    "town_kana": "フジガネ",
    "street": null,
    "office_name": null,
    "office_name_kana": null
  },
  "0380": {
    "postcode": "4010380",
    "prefecture": "山梨県",
    "prefecture_kana": "ヤマナシケン",
    "prefecture_code": 19,
    "city": "南都留郡富士河口湖町",
    "city_kana": "ミナミツルグンフジカワグチコマチ",
    "town": "小立",
    "town_kana": "コダチ",
    "street": "７１８７",
    "office_name": "健康科学大学",
    "office_name_kana": "ケンコウカガクダイガク"
  },
  "0395": {
    "postcode": "4010395",
    "prefecture": "山梨県",
    "prefecture_kana": "ヤマナシケン",
    "prefecture_code": 19,
    "city": "南都留郡富士河口湖町",
    "city_kana": "ミナミツルグンフジカワグチコマチ",
    "town": "船津",
    "town_kana": "フナツ",
    "street": "６６６３−２",
    "office_name": "シチズンファインデバイス　株式会社",
    "office_name_kana": "シチズンフアインデバイス カブシキガイシヤ"
  },
  "0396": {
    "postcode": "4010396",
    "prefecture": "山梨県",
    "prefecture_kana": "ヤマナシケン",
    "prefecture_code": 19,
    "city": "南都留郡富士河口湖町",
    "city_kana": "ミナミツルグンフジカワグチコマチ",
    "town": "船津",
    "town_kana": "フナツ",
    "street": "３６３３−１",
    "office_name": "富士観光開発　株式会社",
    "office_name_kana": "フジカンコウカイハツ カブシキガイシヤ"
  },
  "0397": {
    "postcode": "4010397",
    "prefecture": "山梨県",
    "prefecture_kana": "ヤマナシケン",
    "prefecture_code": 19,
    "city": "南都留郡鳴沢村",
    "city_kana": "ミナミツルグンナルサワムラ",
    "town": "",
    "town_kana": "",
    "street": "８５３２−２８",
    "office_name": "アネルバ　株式会社　富士工場",
    "office_name_kana": "アネルバ カブシキガイシヤ フジコウジヨウ"
  },
  "0398": {
    "postcode": "4010398",
    "prefecture": "山梨県",
    "prefecture_kana": "ヤマナシケン",
    "prefecture_code": 19,
    "city": "南都留郡鳴沢村",
    "city_kana": "ミナミツルグンナルサワムラ",
    "town": "",
    "town_kana": "",
    "street": "１５７５",
    "office_name": "鳴沢村役場",
    "office_name_kana": "ナルサワムラヤクバ"
  },
  "0500": [
    {
      "postcode": "4010500",
      "prefecture": "山梨県",
      "prefecture_kana": "ヤマナシケン",
      "prefecture_code": 19,
      "city": "南都留郡忍野村",
      "city_kana": "ミナミツルグンオシノムラ",
      "town": "",
      "town_kana": "",
      "street": null,
      "office_name": null,
      "office_name_kana": null
    },
    {
      "postcode": "4010500",
      "prefecture": "山梨県",
      "prefecture_kana": "ヤマナシケン",
      "prefecture_code": 19,
      "city": "南都留郡山中湖村",
      "city_kana": "ミナミツルグンヤマナカコムラ",
      "town": "",
      "town_kana": "",
      "street": null,
      "office_name": null,
      "office_name_kana": null
    }
  ],
  "0501": {
    "postcode": "4010501",
    "prefecture": "山梨県",
    "prefecture_kana": "ヤマナシケン",
    "prefecture_code": 19,
    "city": "南都留郡山中湖村",
    "city_kana": "ミナミツルグンヤマナカコムラ",
    "town": "山中",
    "town_kana": "ヤマナカ",
    "street": null,
    "office_name": null,
    "office_name_kana": null
  },
  "0502": {
    "postcode": "4010502",
    "prefecture": "山梨県",
    "prefecture_kana": "ヤマナシケン",
    "prefecture_code": 19,
    "city": "南都留郡山中湖村",
    "city_kana": "ミナミツルグンヤマナカコムラ",
    "town": "平野",
    "town_kana": "ヒラノ",
    "street": null,
    "office_name": null,
    "office_name_kana": null
  },
  "0511": {
    "postcode": "4010511",
    "prefecture": "山梨県",
    "prefecture_kana": "ヤマナシケン",
    "prefecture_code": 19,
    "city": "南都留郡忍野村",
    "city_kana": "ミナミツルグンオシノムラ",
    "town": "忍草",
    "town_kana": "シボクサ",
    "street": null,
    "office_name": null,
    "office_name_kana": null
  },
  "0512": {
    "postcode": "4010512",
    "prefecture": "山梨県",
    "prefecture_kana": "ヤマナシケン",
    "prefecture_code": 19,
    "city": "南都留郡忍野村",
    "city_kana": "ミナミツルグンオシノムラ",
    "town": "内野",
    "town_kana": "ウチノ",
    "street": null,
    "office_name": null,
    "office_name_kana": null
  },
  "0592": {
    "postcode": "4010592",
    "prefecture": "山梨県",
    "prefecture_kana": "ヤマナシケン",
    "prefecture_code": 19,
    "city": "南都留郡忍野村",
    "city_kana": "ミナミツルグンオシノムラ",
    "town": "忍草",
    "town_kana": "シボクサ",
    "street": "１５１４",
    "office_name": "忍野村役場",
    "office_name_kana": "オシノムラヤクバ"
  },
  "0595": {
    "postcode": "4010595",
    "prefecture": "山梨県",
    "prefecture_kana": "ヤマナシケン",
    "prefecture_code": 19,
    "city": "南都留郡山中湖村",
    "city_kana": "ミナミツルグンヤマナカコムラ",
    "town": "山中",
    "town_kana": "ヤマナカ",
    "street": "２３７−１",
    "office_name": "山中湖村役場",
    "office_name_kana": "ヤマナカコムラヤクバ"
  },
  "0597": {
    "postcode": "4010597",
    "prefecture": "山梨県",
    "prefecture_kana": "ヤマナシケン",
    "prefecture_code": 19,
    "city": "南都留郡忍野村",
    "city_kana": "ミナミツルグンオシノムラ",
    "town": "忍草",
    "town_kana": "シボクサ",
    "street": "３５８０",
    "office_name": "ファナック　株式会社",
    "office_name_kana": "フアナツク カブシキガイシヤ"
  },
  "8501": {
    "postcode": "4018501",
    "prefecture": "山梨県",
    "prefecture_kana": "ヤマナシケン",
    "prefecture_code": 19,
    "city": "大月市",
    "city_kana": "オオツキシ",
    "town": "大月町花咲",
    "town_kana": "オオツキマチハナサキ",
    "street": "１６０２−１",
    "office_name": "山梨社会保険事務局　大月事務所",
    "office_name_kana": "ヤマナシシヤカイホケンジムキヨク オオツキジムシヨ"
  },
  "8601": {
    "postcode": "4018601",
    "prefecture": "山梨県",
    "prefecture_kana": "ヤマナシケン",
    "prefecture_code": 19,
    "city": "大月市",
    "city_kana": "オオツキシ",
    "town": "大月",
    "town_kana": "オオツキ",
    "street": "２丁目６−２０（大月郵便局私書箱第３号）",
    "office_name": "大月市役所",
    "office_name_kana": "オオツキシヤクシヨ"
  }
}