{
  "0000": [
    {
      "postcode": "4030000",
      "prefecture": "山梨県",
      "prefecture_kana": "ヤマナシケン",
      "prefecture_code": 19,
      "city": "富士吉田市",
      "city_kana": "フジヨシダシ",
      "town": "",
      "town_kana": "",
      "street": null,
      "office_name": null,
      "office_name_kana": null
    },
    {
      "postcode": "4030000",
      "prefecture": "山梨県",
      "prefecture_kana": "ヤマナシケン",
      "prefecture_code": 19,
      "city": "南都留郡西桂町",
      "city_kana": "ミナミツルグンニシカツラチョウ",
      "town": "",
      "town_kana": "",
      "street": null,
      "office_name": null,
      "office_name_kana": null
    }
  ],
  "0001": {
    "postcode": "4030001",
    "prefecture": "山梨県",
    "prefecture_kana": "ヤマナシケン",
    "prefecture_code": 19,
    "city": "富士吉田市",
    "city_kana": "フジヨシダシ",
    "town": "上暮地",
    "town_kana": "カミクレチ",
    "street": null,
    "office_name": null,
    "office_name_kana": null
  },
  "0002": {
    "postcode": "4030002",
    "prefecture": "山梨県",
    "prefecture_kana": "ヤマナシケン",
    "prefecture_code": 19,
    "city": "富士吉田市",
    "city_kana": "フジヨシダシ",
    "town": "小明見",
    "town_kana": "コアスミ",
    "street": null,
    "office_name": null,
    "office_name_kana": null
  },
  "0003": {
    "postcode": "4030003",
    "prefecture": "山梨県",
    "prefecture_kana": "ヤマナシケン",
    "prefecture_code": 19,
    "city": "富士吉田市",
    "city_kana": "フジヨシダシ",
    "town": "大明見",
    "town_kana": "オオアスミ",
    "street": null,
    "office_name": null,
    "office_name_kana": null
  },
  "0004": {
    "postcode": "4030004",
    "prefecture": "山梨県",
    "prefecture_kana": "ヤマナシケン",
    "prefecture_code": 19,
    "city": "富士吉田市",
    "city_kana": "フジヨシダシ",
    "town": "下吉田",
    "town_kana": "シモヨシダ",
    "street": null,
    "office_name": null,
    "office_name_kana": null
  },
  "0005": {
    "postcode": "4030005",
    "prefecture": "山梨県",
    "prefecture_kana": "ヤマナシケン",
    "prefecture_code": 19,
    "city": "富士吉田市",
    "city_kana": "フジヨシダシ",
    "town": "上吉田",
    "town_kana": "カミヨシダ",
    "street": null,
    "office_name": null,
    "office_name_kana": null
  },
  "0006": {
    "postcode": "4030006",
    "prefecture": "山梨県",
    "prefecture_kana": "ヤマナシケン",
    "prefecture_code": 19,
    "city": "富士吉田市",
    "city_kana": "フジヨシダシ",
    "town": "新屋",
    "town_kana": "アラヤ",
    "street": null,
    "office_name": null,
    "office_name_kana": null
  },
  "0007": {
    "postcode": "4030007",
    "prefecture": "山梨県",
    "prefecture_kana": "ヤマナシケン",
    "prefecture_code": 19,
    "city": "富士吉田市",
    "city_kana": "フジヨシダシ",
    "town": "中曽根",
    "town_kana": "ナカゾネ",
    "street": null,
    "office_name": null,
    "office_name_kana": null
  },
  "0008": {
    "postcode": "4030008",
    "prefecture": "山梨県",
    "prefecture_kana": "ヤマナシケン",
    "prefecture_code": 19,
    "city": "富士吉田市",
    "city_kana": "フジヨシダシ",
    "town": "下吉田東",
    "town_kana": "シモヨシダヒガシ",
    "street": null,
    "office_name": null,
    "office_name_kana": null
  },
  "0009": {
    "postcode": "4030009",
    "prefecture": "山梨県",
    "prefecture_kana": "ヤマナシケン",
    "prefecture_code": 19,
    "city": "富士吉田市",
    "city_kana": "フジヨシダシ",
    "town": "富士見",
    "town_kana": "フジミ",
    "street": null,
    "office_name": null,
    "office_name_kana": null
  },
  "0011": {
    "postcode": "4030011",
    "prefecture": "山梨県",
    "prefecture_kana": "ヤマナシケン",
    "prefecture_code": 19,
    "city": "富士吉田市",
    "city_kana": "フジヨシダシ",
    "town": "新倉",
    "town_kana": "アラクラ",
    "street": null,
    "office_name": null,
    "office_name_kana": null
  },
  "0012": {
    "postcode": "4030012",
    "prefecture": "山梨県",
    "prefecture_kana": "ヤマナシケン",
    "prefecture_code": 19,
    "city": "富士吉田市",
    "city_kana": "フジヨシダシ",
    "town": "旭",
    "town_kana": "アサヒ",
    "street": null,
    "office_name": null,
    "office_name_kana": null
  },
  "0013": {
    "postcode": "4030013",
    "prefecture": "山梨県",
    "prefecture_kana": "ヤマナシケン",
    "prefecture_code": 19,
    "city": "富士吉田市",
    "city_kana": "フジヨシダシ",
    "town": "緑ケ丘",
    "town_kana": "ミドリガオカ",
    "street": null,
    "office_name": null,
    "office_name_kana": null
  },
  "0014": {
    "postcode": "4030014",
    "prefecture": "山梨県",
    "prefecture_kana": "ヤマナシケン",
    "prefecture_code": 19,
    "city": "富士吉田市",
    "city_kana": "フジヨシダシ",
    "town": "竜ケ丘",
    "town_kana": "タツガオカ",
    "street": null,
    "office_name": null,
    "office_name_kana": null
  },
  "0015": {
    "postcode": "4030015",
    "prefecture": "山梨県",
    "prefecture_kana": "ヤマナシケン",
    "prefecture_code": 19,
    "city": "富士吉田市",
    "city_kana": "フジヨシダシ",
    "town": "ときわ台",
    "town_kana": "トキワダイ",
    "street": null,
    "office_name": null,
    "office_name_kana": null
  },
  "0016": {
    "postcode": "4030016",
    "prefecture": "山梨県",
    "prefecture_kana": "ヤマナシケン",
    "prefecture_code": 19,
    "city": "富士吉田市",
    "city_kana": "フジヨシダシ",
    "town": "松山",
    "town_kana": "マツヤマ",
    "street": null,
    "office_name": null,
    "office_name_kana": null
  },
  "0017": {
    "postcode": "4030017",
    "prefecture": "山梨県",
    "prefecture_kana": "ヤマナシケン",
    "prefecture_code": 19,
    "city": "富士吉田市",
    "city_kana": "フジヨシダシ",
    "town": "新西原",
    "town_kana": "シンニシハラ",
    "street": null,
    "office_name": null,
    "office_name_kana": null
  },
  "0018": {
    "postcode": "4030018",
    "prefecture": "山梨県",
    "prefecture_kana": "ヤマナシケン",
    "prefecture_code": 19,
    "city": "富士吉田市",
    "city_kana": "フジヨシダシ",
    "town": "向原",
    "town_kana": "ムカイバラ",
    "street": null,
    "office_name": null,
    "office_name_kana": null
  },
  "0019": {
    "postcode": "4030019",
    "prefecture": "山梨県",
    "prefecture_kana": "ヤマナシケン",
    "prefecture_code": 19,
    "city": "富士吉田市",
    "city_kana": "フジヨシダシ",
    "town": "新町",
    "town_kana": "シンマチ",
    "street": null,
    "office_name": null,
    "office_name_kana": null
  },
  "0021": {
    "postcode": "4030021",
    "prefecture": "山梨県",
    "prefecture_kana": "ヤマナシケン",
    "prefecture_code": 19,
    "city": "南都留郡西桂町",
    "city_kana": "ミナミツルグンニシカツラチョウ",
    "town": "下暮地",
    "town_kana": "シモクレチ",
    "street": null,
    "office_name": null,
    "office_name_kana": null
  },
  "0022": {
    "postcode": "4030022",
    "prefecture": "山梨県",
    "prefecture_kana": "ヤマナシケン",
    "prefecture_code": 19,
    "city": "南都留郡西桂町",
    "city_kana": "ミナミツルグンニシカツラチョウ",
    "town": "小沼",
    "town_kana": "オヌマ",
    "street": null,
    "office_name": null,
    "office_name_kana": null
  },
  "0023": {
    "postcode": "4030023",
    "prefecture": "山梨県",
    "prefecture_kana": "ヤマナシケン",
    "prefecture_code": 19,
    "city": "南都留郡西桂町",
    "city_kana": "ミナミツルグンニシカツラチョウ",
    "town": "倉見",
    "town_kana": "クラミ",
    "street": null,
    "office_name": null,
    "office_name_kana": null
  },
  "0031": {
    "postcode": "4030031",
    "prefecture": "山梨県",
    "prefecture_kana": "ヤマナシケン",
    "prefecture_code": 19,
    "city": "富士吉田市",
    "city_kana": "フジヨシダシ",
    "town": "浅間",
    "town_kana": "アサマ",
    "street": null,
    "office_name": null,
    "office_name_kana": null
  },
  "0032": {
    "postcode": "4030032",
    "prefecture": "山梨県",
    "prefecture_kana": "ヤマナシケン",
    "prefecture_code": 19,
    "city": "富士吉田市",
    "city_kana": "フジヨシダシ",
    "town": "上吉田東",
    "town_kana": "カミヨシダヒガシ",
    "street": null,
    "office_name": null,
    "office_name_kana": null
  },
  "8522": {
    "postcode": "4038522",
    "prefecture": "山梨県",
    "prefecture_kana": "ヤマナシケン",
    "prefecture_code": 19,
    "city": "富士吉田市",
    "city_kana": "フジヨシダシ",
    "town": "上吉田",
    "town_kana": "カミヨシダ",
    "street": "６２８３",
    "office_name": "中央観光　株式会社",
    "office_name_kana": "チユウオウカンコウ カブシキガイシヤ"
  },
  "8555": {
    "postcode": "4038555",
    "prefecture": "山梨県",
    "prefecture_kana": "ヤマナシケン",
    "prefecture_code": 19,
    "city": "富士吉田市",
    "city_kana": "フジヨシダシ",
    "town": "下吉田",
    "town_kana": "シモヨシダ",
    "street": "１０４８",
    "office_name": "全国柔道整復師会",
    "office_name_kana": "ゼンコクムドウセイフクシカイ"
  },
  "8601": {
    "postcode": "4038601",
    "prefecture": "山梨県",
    "prefecture_kana": "ヤマナシケン",
    "prefecture_code": 19,
    "city": "富士吉田市",
    "city_kana": "フジヨシダシ",
    "town": "下吉田",
    "town_kana": "シモヨシダ",
    "street": "６−１−１（富士吉田郵便局私書箱第４号）",
    "office_name": "富士吉田市役所",
    "office_name_kana": "フジヨシダシヤクシヨ"
  }
}