{
  "0000": {
    "postcode": "4050000",
    "prefecture": "山梨県",
    "prefecture_kana": "ヤマナシケン",
    "prefecture_code": 19,
    "city": "山梨市",
    "city_kana": "ヤマナシシ",
    "town": "",
    "town_kana": "",
    "street": null,
    "office_name": null,
    "office_name_kana": null
  },
  "0001": {
    "postcode": "4050001",
    "prefecture": "山梨県",
    "prefecture_kana": "ヤマナシケン",
    "prefecture_code": 19,
    "city": "山梨市",
    "city_kana": "ヤマナシシ",
    "town": "西",
    "town_kana": "ニシ",
    "street": null,
    "office_name": null,
    "office_name_kana": null
  },
  "0002": {
    "postcode": "4050002",
    "prefecture": "山梨県",
    "prefecture_kana": "ヤマナシケン",
    "prefecture_code": 19,
    "city": "山梨市",
    "city_kana": "ヤマナシシ",
    "town": "東",
    "town_kana": "ヒガシ",
    "street": null,
    "office_name": null,
    "office_name_kana": null
  },
  "0003": {
    "postcode": "4050003",
    "prefecture": "山梨県",
    "prefecture_kana": "ヤマナシケン",
    "prefecture_code": 19,
    "city": "山梨市",
    "city_kana": "ヤマナシシ",
    "town": "下井尻",
    "town_kana": "シモイジリ",
    "street": null,
    "office_name": null,
    "office_name_kana": null
  },
  "0004": {
    "postcode": "4050004",
    "prefecture": "山梨県",
    "prefecture_kana": "ヤマナシケン",
    "prefecture_code": 19,
    "city": "山梨市",
    "city_kana": "ヤマナシシ",
    "town": "上之割",
    "town_kana": "カミノワリ",
    "street": null,
    "office_name": null,
    "office_name_kana": null
  },
  "0005": {
    "postcode": "4050005",
    "prefecture": "山梨県",
    "prefecture_kana": "ヤマナシケン",
    "prefecture_code": 19,
    "city": "山梨市",
    "city_kana": "ヤマナシシ",
    "town": "小原東",
    "town_kana": "コバラヒガシ",
    "street": null,
    "office_name": null,
    "office_name_kana": null
  },
  "0006": {
    "postcode": "4050006",
    "prefecture": "山梨県",
    "prefecture_kana": "ヤマナシケン",
    "prefecture_code": 19,
    "city": "山梨市",
    "city_kana": "ヤマナシシ",
    "town": "小原西",
    "town_kana": "コバラニシ",
    "street": null,
    "office_name": null,
    "office_name_kana": null
  },
  "0007": {
    "postcode": "4050007",
    "prefecture": "山梨県",
    "prefecture_kana": "ヤマナシケン",
    "prefecture_code": 19,
    "city": "山梨市",
    "city_kana": "ヤマナシシ",
    "town": "七日市場",
    "town_kana": "ナノカイチバ",
    "street": null,
    "office_name": null,
    "office_name_kana": null
  },
  "0011": {
    "postcode": "4050011",
    "prefecture": "山梨県",
    "prefecture_kana": "ヤマナシケン",
    "prefecture_code": 19,
    "city": "山梨市",
    "city_kana": "ヤマナシシ",
    "town": "三ケ所",
    "town_kana": "サンガショ",
    "street": null,
    "office_name": null,
    "office_name_kana": null
  },
  "0012": {
    "postcode": "4050012",
    "prefecture": "山梨県",
    "prefecture_kana": "ヤマナシケン",
    "prefecture_code": 19,
    "city": "山梨市",
    "city_kana": "ヤマナシシ",
    "town": "東後屋敷",
    "town_kana": "ヒガシゴヤシキ",
    "street": null,
    "office_name": null,
    "office_name_kana": null
  },
  "0013": {
    "postcode": "4050013",
    "prefecture": "山梨県",
    "prefecture_kana": "ヤマナシケン",
    "prefecture_code": 19,
    "city": "山梨市",
    "city_kana": "ヤマナシシ",
    "town": "鴨居寺",
    "town_kana": "カモイデラ",
    "street": null,
    "office_name": null,
    "office_name_kana": null
  },
  "0014": {
    "postcode": "4050014",
    "prefecture": "山梨県",
    "prefecture_kana": "ヤマナシケン",
    "prefecture_code": 19,
    "city": "山梨市",
    "city_kana": "ヤマナシシ",
    "town": "上石森",
    "town_kana": "カミイシモリ",
    "street": null,
    "office_name": null,
    "office_name_kana": null
  },
  "0015": {
    "postcode": "4050015",
    "prefecture": "山梨県",
    "prefecture_kana": "ヤマナシケン",
    "prefecture_code": 19,
    "city": "山梨市",
    "city_kana": "ヤマナシシ",
    "town": "下石森",
    "town_kana": "シモイシモリ",
    "street": null,
    "office_name": null,
    "office_name_kana": null
  },
  "0016": {
    "postcode": "4050016",
    "prefecture": "山梨県",
    "prefecture_kana": "ヤマナシケン",
    "prefecture_code": 19,
    "city": "山梨市",
    "city_kana": "ヤマナシシ",
    "town": "大野",
    "town_kana": "オオノ",
    "street": null,
    "office_name": null,
    "office_name_kana": null
  },
  "0017": {
    "postcode": "4050017",
    "prefecture": "山梨県",
    "prefecture_kana": "ヤマナシケン",
    "prefecture_code": 19,
    "city": "山梨市",
    "city_kana": "ヤマナシシ",
    "town": "下神内川",
    "town_kana": "シモカノガワ",
    "street": null,
    "office_name": null,
    "office_name_kana": null
  },
  "0018": {
    "postcode": "4050018",
    "prefecture": "山梨県",
    "prefecture_kana": "ヤマナシケン",
    "prefecture_code": 19,
    "city": "山梨市",
    "city_kana": "ヤマナシシ",
    "town": "上神内川",
    "town_kana": "カミカノガワ",
    "street": null,
    "office_name": null,
    "office_name_kana": null
  },
  "0021": {
    "postcode": "4050021",
    "prefecture": "山梨県",
    "prefecture_kana": "ヤマナシケン",
    "prefecture_code": 19,
    "city": "山梨市",
    "city_kana": "ヤマナシシ",
    "town": "中村",
    "town_kana": "ナカムラ",
    "street": null,
    "office_name": null,
    "office_name_kana": null
  },
  "0022": {
    "postcode": "4050022",
    "prefecture": "山梨県",
    "prefecture_kana": "ヤマナシケン",
    "prefecture_code": 19,
    "city": "山梨市",
    "city_kana": "ヤマナシシ",
    "town": "上栗原",
    "town_kana": "カミクリバラ",
    "street": null,
    "office_name": null,
    "office_name_kana": null
  },
  "0023": {
    "postcode": "4050023",
    "prefecture": "山梨県",
    "prefecture_kana": "ヤマナシケン",
    "prefecture_code": 19,
    "city": "山梨市",
    "city_kana": "ヤマナシシ",
    "town": "下栗原",
    "town_kana": "シモクリバラ",
    "street": null,
    "office_name": null,
    "office_name_kana": null
  },
  "0024": {
    "postcode": "4050024",
    "prefecture": "山梨県",
    "prefecture_kana": "ヤマナシケン",
    "prefecture_code": 19,
    "city": "山梨市",
    "city_kana": "ヤマナシシ",
    "town": "歌田",
    "town_kana": "ウタダ",
    "street": null,
    "office_name": null,
    "office_name_kana": null
  },
  "0025": {
    "postcode": "4050025",
    "prefecture": "山梨県",
    "prefecture_kana": "ヤマナシケン",
    "prefecture_code": 19,
    "city": "山梨市",
    "city_kana": "ヤマナシシ",
    "town": "一町田中",
    "town_kana": "イッチョウタナカ",
    "street": null,
    "office_name": null,
    "office_name_kana": null
  },
  "0031": {
    "postcode": "4050031",
    "prefecture": "山梨県",
    "prefecture_kana": "ヤマナシケン",
    "prefecture_code": 19,
    "city": "山梨市",
    "city_kana": "ヤマナシシ",
    "town": "万力",
    "town_kana": "マンリキ",
    "street": null,
    "office_name": null,
    "office_name_kana": null
  },
  "0032": {
    "postcode": "4050032",
    "prefecture": "山梨県",
    "prefecture_kana": "ヤマナシケン",
    "prefecture_code": 19,
    "city": "山梨市",
    "city_kana": "ヤマナシシ",
    "town": "正徳寺",
    "town_kana": "ショウトクジ",
    "street": null,
    "office_name": null,
    "office_name_kana": null
  },
  "0033": {
    "postcode": "4050033",
    "prefecture": "山梨県",
    "prefecture_kana": "ヤマナシケン",
    "prefecture_code": 19,
    "city": "山梨市",
    "city_kana": "ヤマナシシ",
    "town": "落合",
    "town_kana": "オチアイ",
    "street": null,
    "office_name": null,
    "office_name_kana": null
  },
  "0034": {
    "postcode": "4050034",
    "prefecture": "山梨県",
    "prefecture_kana": "ヤマナシケン",
    "prefecture_code": 19,
    "city": "山梨市",
    "city_kana": "ヤマナシシ",
    "town": "上岩下",
    "town_kana": "カミイワシタ",
    "street": null,
    "office_name": null,
    "office_name_kana": null
  },
  "0035": {
    "postcode": "4050035",
    "prefecture": "山梨県",
    "prefecture_kana": "ヤマナシケン",
    "prefecture_code": 19,
    "city": "山梨市",
    "city_kana": "ヤマナシシ",
    "town": "山根",
    "town_kana": "ヤマネ",
    "street": null,
    "office_name": null,
    "office_name_kana": null
  },
  "0036": {
    "postcode": "4050036",
    "prefecture": "山梨県",
    "prefecture_kana": "ヤマナシケン",
    "prefecture_code": 19,
    "city": "山梨市",
    "city_kana": "ヤマナシシ",
    "town": "矢坪",
    "town_kana": "ヤツボ",
    "street": null,
    "office_name": null,
    "office_name_kana": null
  },
  "0041": {
    "postcode": "4050041",
    "prefecture": "山梨県",
    "prefecture_kana": "ヤマナシケン",
    "prefecture_code": 19,
    "city": "山梨市",
    "city_kana": "ヤマナシシ",
    "town": "北",
    "town_kana": "キタ",
    "street": null,
    "office_name": null,
    "office_name_kana": null
  },
  "0042": {
    "postcode": "4050042",
    "prefecture": "山梨県",
    "prefecture_kana": "ヤマナシケン",
    "prefecture_code": 19,
    "city": "山梨市",
    "city_kana": "ヤマナシシ",
    "town": "南",
    "town_kana": "ミナミ",
    "street": null,
    "office_name": null,
    "office_name_kana": null
  },
  "0043": {
    "postcode": "4050043",
    "prefecture": "山梨県",
    "prefecture_kana": "ヤマナシケン",
    "prefecture_code": 19,
    "city": "山梨市",
    "city_kana": "ヤマナシシ",
    "town": "江曽原",
    "town_kana": "エゾハラ",
    "street": null,
    "office_name": null,
    "office_name_kana": null
  },
  "0044": {
    "postcode": "4050044",
    "prefecture": "山梨県",
    "prefecture_kana": "ヤマナシケン",
    "prefecture_code": 19,
    "city": "山梨市",
    "city_kana": "ヤマナシシ",
    "town": "市川",
    "town_kana": "イチガワ",
    "street": null,
    "office_name": null,
    "office_name_kana": null
  },
  "0045": {
    "postcode": "4050045",
    "prefecture": "山梨県",
    "prefecture_kana": "ヤマナシケン",
    "prefecture_code": 19,
    "city": "山梨市",
    "city_kana": "ヤマナシシ",
    "town": "大工",
    "town_kana": "ダイク",
    "street": null,
    "office_name": null,
    "office_name_kana": null
  },
  "0046": {
    "postcode": "4050046",
    "prefecture": "山梨県",
    "prefecture_kana": "ヤマナシケン",
    "prefecture_code": 19,
    "city": "山梨市",
    "city_kana": "ヤマナシシ",
    "town": "堀内",
    "town_kana": "ホリノウチ",
    "street": null,
    "office_name": null,
    "office_name_kana": null
  },
  "0047": {
    "postcode": "4050047",
    "prefecture": "山梨県",
    "prefecture_kana": "ヤマナシケン",
    "prefecture_code": 19,
    "city": "山梨市",
    "city_kana": "ヤマナシシ",
    "town": "水口",
    "town_kana": "ミズクチ",
    "street": null,
    "office_name": null,
    "office_name_kana": null
  },
  "0048": {
    "postcode": "4050048",
    "prefecture": "山梨県",
    "prefecture_kana": "ヤマナシケン",
    "prefecture_code": 19,
    "city": "山梨市",
    "city_kana": "ヤマナシシ",
    "town": "切差",
    "town_kana": "キッサツ",
    "street": null,
    "office_name": null,
    "office_name_kana": null
  },
  "0051": {
    "postcode": "4050051",
    "prefecture": "山梨県",
    "prefecture_kana": "ヤマナシケン",
    "prefecture_code": 19,
    "city": "笛吹市",
    "city_kana": "フエフキシ",
    "town": "一宮町北野呂",
    "town_kana": "イチノミヤチョウキタノロ",
    "street": null,
    "office_name": null,
    "office_name_kana": null
  },
  "0052": {
    "postcode": "4050052",
    "prefecture": "山梨県",
    "prefecture_kana": "ヤマナシケン",
    "prefecture_code": 19,
    "city": "笛吹市",
    "city_kana": "フエフキシ",
    "town": "一宮町南野呂",
    "town_kana": "イチノミヤチョウミナミノロ",
    "street": null,
    "office_name": null,
    "office_name_kana": null
  },
  "0053": {
    "postcode": "4050053",
    "prefecture": "山梨県",
    "prefecture_kana": "ヤマナシケン",
    "prefecture_code": 19,
    "city": "笛吹市",
    "city_kana": "フエフキシ",
    "town": "一宮町中尾",
    "town_kana": "イチノミヤチョウナカオ",
    "street": null,
    "office_name": null,
    "office_name_kana": null
  },
  "0054": {
    "postcode": "4050054",
    "prefecture": "山梨県",
    "prefecture_kana": "ヤマナシケン",
    "prefecture_code": 19,
    "city": "笛吹市",
    "city_kana": "フエフキシ",
    "town": "一宮町千米寺",
    "town_kana": "イチノミヤチョウセンベイジ",
    "street": null,
    "office_name": null,
    "office_name_kana": null
  },
  "0055": {
    "postcode": "4050055",
    "prefecture": "山梨県",
    "prefecture_kana": "ヤマナシケン",
    "prefecture_code": 19,
    "city": "笛吹市",
    "city_kana": "フエフキシ",
    "town": "一宮町地蔵堂",
    "town_kana": "イチノミヤチョウジゾウドウ",
    "street": null,
    "office_name": null,
    "office_name_kana": null
  },
  "0056": {
    "postcode": "4050056",
    "prefecture": "山梨県",
    "prefecture_kana": "ヤマナシケン",
    "prefecture_code": 19,
    "city": "笛吹市",
    "city_kana": "フエフキシ",
    "town": "一宮町一ノ宮",
    "town_kana": "イチノミヤチョウイチノミヤ",
    "street": null,
    "office_name": null,
    "office_name_kana": null
  },
  "0057": {
    "postcode": "4050057",
    "prefecture": "山梨県",
    "prefecture_kana": "ヤマナシケン",
    "prefecture_code": 19,
    "city": "笛吹市",
    "city_kana": "フエフキシ",
    "town": "一宮町下矢作",
    "town_kana": "イチノミヤチョウシモヤハギ",
    "street": null,
    "office_name": null,
    "office_name_kana": null
  },
  "0058": {
    "postcode": "4050058",
    "prefecture": "山梨県",
    "prefecture_kana": "ヤマナシケン",
    "prefecture_code": 19,
    "city": "笛吹市",
    "city_kana": "フエフキシ",
    "town": "一宮町小城",
    "town_kana": "イチノミヤチョウコジョウ",
    "street": null,
    "office_name": null,
    "office_name_kana": null
  },
  "0059": {
    "postcode": "4050059",
    "prefecture": "山梨県",
    "prefecture_kana": "ヤマナシケン",
    "prefecture_code": 19,
    "city": "笛吹市",
    "city_kana": "フエフキシ",
    "town": "一宮町上矢作",
    "town_kana": "イチノミヤチョウカミヤハギ",
    "street": null,
    "office_name": null,
    "office_name_kana": null
  },
  "0061": {
    "postcode": "4050061",
    "prefecture": "山梨県",
    "prefecture_kana": "ヤマナシケン",
    "prefecture_code": 19,
    "city": "笛吹市",
    "city_kana": "フエフキシ",
    "town": "一宮町石",
    "town_kana": "イチノミヤチョウイシ",
    "street": null,
    "office_name": null,
    "office_name_kana": null
  },
  "0062": {
    "postcode": "4050062",
    "prefecture": "山梨県",
    "prefecture_kana": "ヤマナシケン",
    "prefecture_code": 19,
    "city": "笛吹市",
    "city_kana": "フエフキシ",
    "town": "一宮町金沢",
    "town_kana": "イチノミヤチョウカナザワ",
    "street": null,
    "office_name": null,
    "office_name_kana": null
  },
  "0063": {
    "postcode": "4050063",
    "prefecture": "山梨県",
    "prefecture_kana": "ヤマナシケン",
    "prefecture_code": 19,
    "city": "笛吹市",
    "city_kana": "フエフキシ",
    "town": "一宮町市之蔵",
    "town_kana": "イチノミヤチョウイチノクラ",
    "street": null,
    "office_name": null,
    "office_name_kana": null
  },
  "0064": {
    "postcode": "4050064",
    "prefecture": "山梨県",
    "prefecture_kana": "ヤマナシケン",
    "prefecture_code": 19,
    "city": "笛吹市",
    "city_kana": "フエフキシ",
    "town": "一宮町塩田",
    "town_kana": "イチノミヤチョウシオダ",
    "street": null,
    "office_name": null,
    "office_name_kana": null
  },
  "0065": {
    "postcode": "4050065",
    "prefecture": "山梨県",
    "prefecture_kana": "ヤマナシケン",
    "prefecture_code": 19,
    "city": "笛吹市",
    "city_kana": "フエフキシ",
    "town": "一宮町新巻",
    "town_kana": "イチノミヤチョウアラマキ",
    "street": null,
    "office_name": null,
    "office_name_kana": null
  },
  "0066": {
    "postcode": "4050066",
    "prefecture": "山梨県",
    "prefecture_kana": "ヤマナシケン",
    "prefecture_code": 19,
    "city": "笛吹市",
    "city_kana": "フエフキシ",
    "town": "一宮町神沢",
    "town_kana": "イチノミヤチョウカンザワ",
    "street": null,
    "office_name": null,
    "office_name_kana": null
  },
  "0067": {
    "postcode": "4050067",
    "prefecture": "山梨県",
    "prefecture_kana": "ヤマナシケン",
    "prefecture_code": 19,
    "city": "笛吹市",
    "city_kana": "フエフキシ",
    "town": "一宮町土塚",
    "town_kana": "イチノミヤチョウツチヅカ",
    "street": null,
    "office_name": null,
    "office_name_kana": null
  },
  "0068": {
    "postcode": "4050068",
    "prefecture": "山梨県",
    "prefecture_kana": "ヤマナシケン",
    "prefecture_code": 19,
    "city": "笛吹市",
    "city_kana": "フエフキシ",
    "town": "一宮町狐新居",
    "town_kana": "イチノミヤチョウキツネアライ",
    "street": null,
    "office_name": null,
    "office_name_kana": null
  },
  "0069": {
    "postcode": "4050069",
    "prefecture": "山梨県",
    "prefecture_kana": "ヤマナシケン",
    "prefecture_code": 19,
    "city": "笛吹市",
    "city_kana": "フエフキシ",
    "town": "一宮町東新居",
    "town_kana": "イチノミヤチョウヒガシアライ",
    "street": null,
    "office_name": null,
    "office_name_kana": null
  },
  "0071": {
    "postcode": "4050071",
    "prefecture": "山梨県",
    "prefecture_kana": "ヤマナシケン",
    "prefecture_code": 19,
    "city": "笛吹市",
    "city_kana": "フエフキシ",
    "town": "一宮町北都塚",
    "town_kana": "イチノミヤチョウキタミヤコヅカ",
    "street": null,
    "office_name": null,
    "office_name_kana": null
  },
  "0072": {
    "postcode": "4050072",
    "prefecture": "山梨県",
    "prefecture_kana": "ヤマナシケン",
    "prefecture_code": 19,
    "city": "笛吹市",
    "city_kana": "フエフキシ",
    "town": "一宮町本都塚",
    "town_kana": "イチノミヤチョウモトミヤコヅカ",
    "street": null,
    "office_name": null,
    "office_name_kana": null
  },
  "0073": {
    "postcode": "4050073",
    "prefecture": "山梨県",
    "prefecture_kana": "ヤマナシケン",
    "prefecture_code": 19,
    "city": "笛吹市",
    "city_kana": "フエフキシ",
    "town": "一宮町末木",
    "town_kana": "イチノミヤチョウスエキ",
    "street": null,
    "office_name": null,
    "office_name_kana": null
  },
  "0074": {
    "postcode": "4050074",
    "prefecture": "山梨県",
    "prefecture_kana": "ヤマナシケン",
    "prefecture_code": 19,
    "city": "笛吹市",
    "city_kana": "フエフキシ",
    "town": "一宮町国分",
    "town_kana": "イチノミヤチョウコクブ",
    "street": null,
    "office_name": null,
    "office_name_kana": null
  },
  "0075": [
    {
      "postcode": "4050075",
      "prefecture": "山梨県",
      "prefecture_kana": "ヤマナシケン",
      "prefecture_code": 19,
      "city": "笛吹市",
      "city_kana": "フエフキシ",
      "town": "一宮町橋立",
      "town_kana": "イチノミヤチョウハシタテ",
      "street": null,
      "office_name": null,
      "office_name_kana": null
    },
    {
      "postcode": "4050075",
      "prefecture": "山梨県",
      "prefecture_kana": "ヤマナシケン",
      "prefecture_code": 19,
      "city": "笛吹市",
      "city_kana": "フエフキシ",
      "town": "一宮町東原",
      "town_kana": "イチノミヤチョウヒガシバラ",
      "street": null,
      "office_name": null,
      "office_name_kana": null
    }
  ],
  "0076": {
    "postcode": "4050076",
    "prefecture": "山梨県",
    "prefecture_kana": "ヤマナシケン",
    "prefecture_code": 19,
    "city": "笛吹市",
    "city_kana": "フエフキシ",
    "town": "一宮町竹原田",
    "town_kana": "イチノミヤチョウタケハラダ",
    "street": null,
    "office_name": null,
    "office_name_kana": null
  },
  "0077": {
    "postcode": "4050077",
    "prefecture": "山梨県",
    "prefecture_kana": "ヤマナシケン",
    "prefecture_code": 19,
    "city": "笛吹市",
    "city_kana": "フエフキシ",
    "town": "一宮町坪井",
    "town_kana": "イチノミヤチョウツボイ",
    "street": null,
    "office_name": null,
    "office_name_kana": null
  },
  "0078": {
    "postcode": "4050078",
    "prefecture": "山梨県",
    "prefecture_kana": "ヤマナシケン",
    "prefecture_code": 19,
    "city": "笛吹市",
    "city_kana": "フエフキシ",
    "town": "一宮町田中",
    "town_kana": "イチノミヤチョウタナカ",
    "street": null,
    "office_name": null,
    "office_name_kana": null
  },
  "0079": {
    "postcode": "4050079",
    "prefecture": "山梨県",
    "prefecture_kana": "ヤマナシケン",
    "prefecture_code": 19,
    "city": "笛吹市",
    "city_kana": "フエフキシ",
    "town": "一宮町金田",
    "town_kana": "イチノミヤチョウカネタ",
    "street": null,
    "office_name": null,
    "office_name_kana": null
  },
  "8501": {
    "postcode": "4058501",
    "prefecture": "山梨県",
    "prefecture_kana": "ヤマナシケン",
    "prefecture_code": 19,
    "city": "山梨市",
    "city_kana": "ヤマナシシ",
    "town": "小原西",
    "town_kana": "コバラニシ",
    "street": "９５５",
    "office_name": "山梨市役所",
    "office_name_kana": "ヤマナシシヤクシヨ"
  },
  "8555": {
    "postcode": "4058555",
    "prefecture": "山梨県",
    "prefecture_kana": "ヤマナシケン",
    "prefecture_code": 19,
    "city": "笛吹市",
    "city_kana": "フエフキシ",
    "town": "一宮町末木",
    "town_kana": "イチノミヤチョウスエキ",
    "street": "８０７−６",
    "office_name": "笛吹市役所　一宮支所",
    "office_name_kana": "フエフキシヤクシヨ イチノミヤシシヨ"
  },
  "8577": {
    "postcode": "4058577",
    "prefecture": "山梨県",
    "prefecture_kana": "ヤマナシケン",
    "prefecture_code": 19,
    "city": "笛吹市",
    "city_kana": "フエフキシ",
    "town": "一宮町市之蔵",
    "town_kana": "イチノミヤチョウイチノクラ",
    "street": "７０７",
    "office_name": "ＮＳＷ　株式会社",
    "office_name_kana": "エヌエスダブリユ カブシキガイシヤ"
  },
  "8585": {
    "postcode": "4058585",
    "prefecture": "山梨県",
    "prefecture_kana": "ヤマナシケン",
    "prefecture_code": 19,
    "city": "山梨市",
    "city_kana": "ヤマナシシ",
    "town": "上神内川",
    "town_kana": "カミカノガワ",
    "street": "７３８",
    "office_name": "山梨税務署",
    "office_name_kana": "ヤマナシゼイムシヨ"
  }
}