{
  "0000": {
    "postcode": "4070000",
    "prefecture": "山梨県",
    "prefecture_kana": "ヤマナシケン",
    "prefecture_code": 19,
    "city": "韮崎市",
    "city_kana": "ニラサキシ",
    "town": "",
    "town_kana": "",
    "street": null,
    "office_name": null,
    "office_name_kana": null
  },
  "0001": {
    "postcode": "4070001",
    "prefecture": "山梨県",
    "prefecture_kana": "ヤマナシケン",
    "prefecture_code": 19,
    "city": "韮崎市",
    "city_kana": "ニラサキシ",
    "town": "藤井町駒井",
    "town_kana": "フジイマチコマイ",
    "street": null,
    "office_name": null,
    "office_name_kana": null
  },
  "0002": {
    "postcode": "4070002",
    "prefecture": "山梨県",
    "prefecture_kana": "ヤマナシケン",
    "prefecture_code": 19,
    "city": "韮崎市",
    "city_kana": "ニラサキシ",
    "town": "藤井町坂井",
    "town_kana": "フジイマチサカイ",
    "street": null,
    "office_name": null,
    "office_name_kana": null
  },
  "0003": {
    "postcode": "4070003",
    "prefecture": "山梨県",
    "prefecture_kana": "ヤマナシケン",
    "prefecture_code": 19,
    "city": "韮崎市",
    "city_kana": "ニラサキシ",
    "town": "藤井町北下條",
    "town_kana": "フジイマチキタゲジョウ",
    "street": null,
    "office_name": null,
    "office_name_kana": null
  },
  "0004": {
    "postcode": "4070004",
    "prefecture": "山梨県",
    "prefecture_kana": "ヤマナシケン",
    "prefecture_code": 19,
    "city": "韮崎市",
    "city_kana": "ニラサキシ",
    "town": "藤井町南下條",
    "town_kana": "フジイマチミナミゲジョウ",
    "street": null,
    "office_name": null,
    "office_name_kana": null
  },
  "0005": {
    "postcode": "4070005",
    "prefecture": "山梨県",
    "prefecture_kana": "ヤマナシケン",
    "prefecture_code": 19,
    "city": "韮崎市",
    "city_kana": "ニラサキシ",
    "town": "一ツ谷",
    "town_kana": "ヒトツヤ",
    "street": null,
    "office_name": null,
    "office_name_kana": null
  },
  "0006": {
    "postcode": "4070006",
    "prefecture": "山梨県",
    "prefecture_kana": "ヤマナシケン",
    "prefecture_code": 19,
    "city": "韮崎市",
    "city_kana": "ニラサキシ",
    "town": "下祖母石",
    "town_kana": "シモウバイシ",
    "street": null,
    "office_name": null,
    "office_name_kana": null
  },
  "0007": {
    "postcode": "4070007",
    "prefecture": "山梨県",
    "prefecture_kana": "ヤマナシケン",
    "prefecture_code": 19,
    "city": "韮崎市",
    "city_kana": "ニラサキシ",
    "town": "上祖母石",
    "town_kana": "カミウバイシ",
    "street": null,
    "office_name": null,
    "office_name_kana": null
  },
  "0011": {
    "postcode": "4070011",
    "prefecture": "山梨県",
    "prefecture_kana": "ヤマナシケン",
    "prefecture_code": 19,
    "city": "韮崎市",
    "city_kana": "ニラサキシ",
    "town": "上ノ山",
    "town_kana": "ウエノヤマ",
    "street": null,
    "office_name": null,
    "office_name_kana": null
  },
  "0012": {
    "postcode": "4070012",
    "prefecture": "山梨県",
    "prefecture_kana": "ヤマナシケン",
    "prefecture_code": 19,
    "city": "韮崎市",
    "city_kana": "ニラサキシ",
    "town": "岩下",
    "town_kana": "イワシタ",
    "street": null,
    "office_name": null,
    "office_name_kana": null
  },
  "0013": {
    "postcode": "4070013",
    "prefecture": "山梨県",
    "prefecture_kana": "ヤマナシケン",
    "prefecture_code": 19,
    "city": "韮崎市",
    "city_kana": "ニラサキシ",
    "town": "中島",
    "town_kana": "ナカジマ",
    "street": null,
    "office_name": null,
    "office_name_kana": null
  },
  "0014": {
    "postcode": "4070014",
    "prefecture": "山梨県",
    "prefecture_kana": "ヤマナシケン",
    "prefecture_code": 19,
    "city": "韮崎市",
    "city_kana": "ニラサキシ",
    "town": "富士見",
    "town_kana": "フジミ",
    "street": null,
    "office_name": null,
    "office_name_kana": null
  },
  "0015": {
    "postcode": "4070015",
    "prefecture": "山梨県",
    "prefecture_kana": "ヤマナシケン",
    "prefecture_code": 19,
    "city": "韮崎市",
    "city_kana": "ニラサキシ",
    "town": "若宮",
    "town_kana": "ワカミヤ",
    "street": null,
    "office_name": null,
    "office_name_kana": null
  },
  "0021": {
    "postcode": "4070021",
    "prefecture": "山梨県",
    "prefecture_kana": "ヤマナシケン",
    "prefecture_code": 19,
    "city": "韮崎市",
    "city_kana": "ニラサキシ",
    "town": "富士見ケ丘",
    "town_kana": "フジミガオカ",
    "street": null,
    "office_name": null,
    "office_name_kana": null
  },
  "0022": {
    "postcode": "4070022",
    "prefecture": "山梨県",
    "prefecture_kana": "ヤマナシケン",
    "prefecture_code": 19,
    "city": "韮崎市",
    "city_kana": "ニラサキシ",
    "town": "水神",
    "town_kana": "スイジン",
    "street": null,
    "office_name": null,
    "office_name_kana": null
  },
  "0023": {
    "postcode": "4070023",
    "prefecture": "山梨県",
    "prefecture_kana": "ヤマナシケン",
    "prefecture_code": 19,
    "city": "韮崎市",
    "city_kana": "ニラサキシ",
    "town": "中央町",
    "town_kana": "チュウオウチョウ",
    "street": null,
    "office_name": null,
    "office_name_kana": null
  },
  "0024": {
    "postcode": "4070024",
    "prefecture": "山梨県",
    "prefecture_kana": "ヤマナシケン",
    "prefecture_code": 19,
    "city": "韮崎市",
    "city_kana": "ニラサキシ",
    "town": "本町",
    "town_kana": "ホンチョウ",
    "street": null,
    "office_name": null,
    "office_name_kana": null
  },
  "0025": {
    "postcode": "4070025",
    "prefecture": "山梨県",
    "prefecture_kana": "ヤマナシケン",
    "prefecture_code": 19,
    "city": "韮崎市",
    "city_kana": "ニラサキシ",
    "town": "栄",
    "town_kana": "サカエ",
    "street": null,
    "office_name": null,
    "office_name_kana": null
  },
  "0031": {
    "postcode": "4070031",
    "prefecture": "山梨県",
    "prefecture_kana": "ヤマナシケン",
    "prefecture_code": 19,
    "city": "韮崎市",
    "city_kana": "ニラサキシ",
    "town": "龍岡町若尾新田",
    "town_kana": "タツオカマチワカオシンデン",
    "street": null,
    "office_name": null,
    "office_name_kana": null
  },
  "0032": {
    "postcode": "4070032",
    "prefecture": "山梨県",
    "prefecture_kana": "ヤマナシケン",
    "prefecture_code": 19,
    "city": "韮崎市",
    "city_kana": "ニラサキシ",
    "town": "龍岡町下條東割",
    "town_kana": "タツオカマチシモジョウヒガシワリ",
    "street": null,
    "office_name": null,
    "office_name_kana": null
  },
  "0033": {
    "postcode": "4070033",
    "prefecture": "山梨県",
    "prefecture_kana": "ヤマナシケン",
    "prefecture_code": 19,
    "city": "韮崎市",
    "city_kana": "ニラサキシ",
    "town": "龍岡町下條南割",
    "town_kana": "タツオカマチシモジョウミナミワリ",
    "street": null,
    "office_name": null,
    "office_name_kana": null
  },
  "0034": {
    "postcode": "4070034",
    "prefecture": "山梨県",
    "prefecture_kana": "ヤマナシケン",
    "prefecture_code": 19,
    "city": "韮崎市",
    "city_kana": "ニラサキシ",
    "town": "大草町下條中割",
    "town_kana": "オオクサマチシモジョウナカワリ",
    "street": null,
    "office_name": null,
    "office_name_kana": null
  },
  "0035": {
    "postcode": "4070035",
    "prefecture": "山梨県",
    "prefecture_kana": "ヤマナシケン",
    "prefecture_code": 19,
    "city": "韮崎市",
    "city_kana": "ニラサキシ",
    "town": "大草町下條西割",
    "town_kana": "オオクサマチシモジョウニシワリ",
    "street": null,
    "office_name": null,
    "office_name_kana": null
  },
  "0036": {
    "postcode": "4070036",
    "prefecture": "山梨県",
    "prefecture_kana": "ヤマナシケン",
    "prefecture_code": 19,
    "city": "韮崎市",
    "city_kana": "ニラサキシ",
    "town": "大草町上條東割",
    "town_kana": "オオクサマチカミジョウヒガシワリ",
    "street": null,
    "office_name": null,
    "office_name_kana": null
  },
  "0037": {
    "postcode": "4070037",
    "prefecture": "山梨県",
    "prefecture_kana": "ヤマナシケン",
    "prefecture_code": 19,
    "city": "韮崎市",
    "city_kana": "ニラサキシ",
    "town": "大草町若尾",
    "town_kana": "オオクサマチワカオ",
    "street": null,
    "office_name": null,
    "office_name_kana": null
  },
  "0041": {
    "postcode": "4070041",
    "prefecture": "山梨県",
    "prefecture_kana": "ヤマナシケン",
    "prefecture_code": 19,
    "city": "韮崎市",
    "city_kana": "ニラサキシ",
    "town": "神山町武田",
    "town_kana": "カミヤママチタケタ",
    "street": null,
    "office_name": null,
    "office_name_kana": null
  },
  "0042": {
    "postcode": "4070042",
    "prefecture": "山梨県",
    "prefecture_kana": "ヤマナシケン",
    "prefecture_code": 19,
    "city": "韮崎市",
    "city_kana": "ニラサキシ",
    "town": "神山町北宮地",
    "town_kana": "カミヤママチキタミヤジ",
    "street": null,
    "office_name": null,
    "office_name_kana": null
  },
  "0043": {
    "postcode": "4070043",
    "prefecture": "山梨県",
    "prefecture_kana": "ヤマナシケン",
    "prefecture_code": 19,
    "city": "韮崎市",
    "city_kana": "ニラサキシ",
    "town": "神山町鍋山",
    "town_kana": "カミヤママチナベヤマ",
    "street": null,
    "office_name": null,
    "office_name_kana": null
  },
  "0044": {
    "postcode": "4070044",
    "prefecture": "山梨県",
    "prefecture_kana": "ヤマナシケン",
    "prefecture_code": 19,
    "city": "韮崎市",
    "city_kana": "ニラサキシ",
    "town": "旭町上條北割",
    "town_kana": "アサヒマチカミジョウキタワリ",
    "street": null,
    "office_name": null,
    "office_name_kana": null
  },
  "0045": {
    "postcode": "4070045",
    "prefecture": "山梨県",
    "prefecture_kana": "ヤマナシケン",
    "prefecture_code": 19,
    "city": "韮崎市",
    "city_kana": "ニラサキシ",
    "town": "旭町上條中割",
    "town_kana": "アサヒマチカミジョウナカワリ",
    "street": null,
    "office_name": null,
    "office_name_kana": null
  },
  "0046": {
    "postcode": "4070046",
    "prefecture": "山梨県",
    "prefecture_kana": "ヤマナシケン",
    "prefecture_code": 19,
    "city": "韮崎市",
    "city_kana": "ニラサキシ",
    "town": "旭町上條南割",
    "town_kana": "アサヒマチカミジョウミナミワリ",
    "street": null,
    "office_name": null,
    "office_name_kana": null
  },
  "0051": {
    "postcode": "4070051",
    "prefecture": "山梨県",
    "prefecture_kana": "ヤマナシケン",
    "prefecture_code": 19,
    "city": "韮崎市",
    "city_kana": "ニラサキシ",
    "town": "円野町上円井",
    "town_kana": "マルノマチカミツブライ",
    "street": null,
    "office_name": null,
    "office_name_kana": null
  },
  "0052": {
    "postcode": "4070052",
    "prefecture": "山梨県",
    "prefecture_kana": "ヤマナシケン",
    "prefecture_code": 19,
    "city": "韮崎市",
    "city_kana": "ニラサキシ",
    "town": "円野町下円井",
    "town_kana": "マルノマチシモツブライ",
    "street": null,
    "office_name": null,
    "office_name_kana": null
  },
  "0053": {
    "postcode": "4070053",
    "prefecture": "山梨県",
    "prefecture_kana": "ヤマナシケン",
    "prefecture_code": 19,
    "city": "韮崎市",
    "city_kana": "ニラサキシ",
    "town": "円野町入戸野",
    "town_kana": "マルノマチニットノ",
    "street": null,
    "office_name": null,
    "office_name_kana": null
  },
  "0054": {
    "postcode": "4070054",
    "prefecture": "山梨県",
    "prefecture_kana": "ヤマナシケン",
    "prefecture_code": 19,
    "city": "韮崎市",
    "city_kana": "ニラサキシ",
    "town": "清哲町折居",
    "town_kana": "セイテツマチオリイ",
    "street": null,
    "office_name": null,
    "office_name_kana": null
  },
  "0055": {
    "postcode": "4070055",
    "prefecture": "山梨県",
    "prefecture_kana": "ヤマナシケン",
    "prefecture_code": 19,
    "city": "韮崎市",
    "city_kana": "ニラサキシ",
    "town": "清哲町青木",
    "town_kana": "セイテツマチアオキ",
    "street": null,
    "office_name": null,
    "office_name_kana": null
  },
  "0057": {
    "postcode": "4070057",
    "prefecture": "山梨県",
    "prefecture_kana": "ヤマナシケン",
    "prefecture_code": 19,
    "city": "韮崎市",
    "city_kana": "ニラサキシ",
    "town": "清哲町樋口",
    "town_kana": "セイテツマチヒノグチ",
    "street": null,
    "office_name": null,
    "office_name_kana": null
  },
  "0058": {
    "postcode": "4070058",
    "prefecture": "山梨県",
    "prefecture_kana": "ヤマナシケン",
    "prefecture_code": 19,
    "city": "韮崎市",
    "city_kana": "ニラサキシ",
    "town": "清哲町水上",
    "town_kana": "セイテツマチミズカミ",
    "street": null,
    "office_name": null,
    "office_name_kana": null
  },
  "0171": {
    "postcode": "4070171",
    "prefecture": "山梨県",
    "prefecture_kana": "ヤマナシケン",
    "prefecture_code": 19,
    "city": "韮崎市",
    "city_kana": "ニラサキシ",
    "town": "穂坂町柳平",
    "town_kana": "ホサカマチヤナギダイラ",
    "street": null,
    "office_name": null,
    "office_name_kana": null
  },
  "0172": {
    "postcode": "4070172",
    "prefecture": "山梨県",
    "prefecture_kana": "ヤマナシケン",
    "prefecture_code": 19,
    "city": "韮崎市",
    "city_kana": "ニラサキシ",
    "town": "穂坂町上今井",
    "town_kana": "ホサカマチカミイマイ",
    "street": null,
    "office_name": null,
    "office_name_kana": null
  },
  "0173": {
    "postcode": "4070173",
    "prefecture": "山梨県",
    "prefecture_kana": "ヤマナシケン",
    "prefecture_code": 19,
    "city": "韮崎市",
    "city_kana": "ニラサキシ",
    "town": "穂坂町長久保",
    "town_kana": "ホサカマチナガクボ",
    "street": null,
    "office_name": null,
    "office_name_kana": null
  },
  "0174": {
    "postcode": "4070174",
    "prefecture": "山梨県",
    "prefecture_kana": "ヤマナシケン",
    "prefecture_code": 19,
    "city": "韮崎市",
    "city_kana": "ニラサキシ",
    "town": "穂坂町三ツ沢",
    "town_kana": "ホサカマチミツサワ",
    "street": null,
    "office_name": null,
    "office_name_kana": null
  },
  "0175": {
    "postcode": "4070175",
    "prefecture": "山梨県",
    "prefecture_kana": "ヤマナシケン",
    "prefecture_code": 19,
    "city": "韮崎市",
    "city_kana": "ニラサキシ",
    "town": "穂坂町宮久保",
    "town_kana": "ホサカマチミヤクボ",
    "street": null,
    "office_name": null,
    "office_name_kana": null
  },
  "0176": {
    "postcode": "4070176",
    "prefecture": "山梨県",
    "prefecture_kana": "ヤマナシケン",
    "prefecture_code": 19,
    "city": "韮崎市",
    "city_kana": "ニラサキシ",
    "town": "穂坂町三之蔵",
    "town_kana": "ホサカマチサンノクラ",
    "street": null,
    "office_name": null,
    "office_name_kana": null
  },
  "0192": {
    "postcode": "4070192",
    "prefecture": "山梨県",
    "prefecture_kana": "ヤマナシケン",
    "prefecture_code": 19,
    "city": "韮崎市",
    "city_kana": "ニラサキシ",
    "town": "穂坂町三ツ澤",
    "town_kana": null,
    "street": "６５０",
    "office_name": "東京エレクトロンＡＴ　株式会社　山梨事業所　（穂坂地区）",
    "office_name_kana": "トウキヨウエレクトロンエイテイ カブシキガイシヤ ヤマナシジギヨウシヨ (ホサカチク)"
  },
  "0261": {
    "postcode": "4070261",
    "prefecture": "山梨県",
    "prefecture_kana": "ヤマナシケン",
    "prefecture_code": 19,
    "city": "韮崎市",
    "city_kana": "ニラサキシ",
    "town": "中田町小田川",
    "town_kana": "ナカダマチコタガワ",
    "street": null,
    "office_name": null,
    "office_name_kana": null
  },
  "0262": {
    "postcode": "4070262",
    "prefecture": "山梨県",
    "prefecture_kana": "ヤマナシケン",
    "prefecture_code": 19,
    "city": "韮崎市",
    "city_kana": "ニラサキシ",
    "town": "中田町中條",
    "town_kana": "ナカダマチナカジョウ",
    "street": null,
    "office_name": null,
    "office_name_kana": null
  },
  "0263": {
    "postcode": "4070263",
    "prefecture": "山梨県",
    "prefecture_kana": "ヤマナシケン",
    "prefecture_code": 19,
    "city": "韮崎市",
    "city_kana": "ニラサキシ",
    "town": "穴山町",
    "town_kana": "アナヤママチ",
    "street": null,
    "office_name": null,
    "office_name_kana": null
  },
  "0301": {
    "postcode": "4070301",
    "prefecture": "山梨県",
    "prefecture_kana": "ヤマナシケン",
    "prefecture_code": 19,
    "city": "北杜市",
    "city_kana": "ホクトシ",
    "town": "高根町清里",
    "town_kana": "タカネチョウキヨサト",
    "street": null,
    "office_name": null,
    "office_name_kana": null
  },
  "0302": {
    "postcode": "4070302",
    "prefecture": "山梨県",
    "prefecture_kana": "ヤマナシケン",
    "prefecture_code": 19,
    "city": "北杜市",
    "city_kana": "ホクトシ",
    "town": "高根町浅川",
    "town_kana": "タカネチョウアサカワ",
    "street": null,
    "office_name": null,
    "office_name_kana": null
  },
  "0311": [
    {
      "postcode": "4070311",
      "prefecture": "山梨県",
      "prefecture_kana": "ヤマナシケン",
      "prefecture_code": 19,
      "city": "北杜市",
      "city_kana": "ホクトシ",
      "town": "大泉町西井出８２４０−１",
      "town_kana": "オオイズミチョウニシイデ8240-1",
      "street": null,
      "office_name": null,
      "office_name_kana": null
    },
    {
      "postcode": "4070311",
      "prefecture": "山梨県",
      "prefecture_kana": "ヤマナシケン",
      "prefecture_code": 19,
      "city": "北杜市",
      "city_kana": "ホクトシ",
      "town": "大泉町西井出８２４０−１美森",
      "town_kana": "オオイズミチョウニシイデ8240-1ウツクシモリ",
      "street": null,
      "office_name": null,
      "office_name_kana": null
    },
    {
      "postcode": "4070311",
      "prefecture": "山梨県",
      "prefecture_kana": "ヤマナシケン",
      "prefecture_code": 19,
      "city": "北杜市",
      "city_kana": "ホクトシ",
      "town": "大泉町西井出８２４０−１たかね荘",
      "town_kana": "オオイズミチョウニシイデ8240-1タカネソウ",
      "street": null,
      "office_name": null,
      "office_name_kana": null
    },
    {
      "postcode": "4070311",
      "prefecture": "山梨県",
      "prefecture_kana": "ヤマナシケン",
      "prefecture_code": 19,
      "city": "北杜市",
      "city_kana": "ホクトシ",
      "town": "大泉町西井出８２４０−１清泉寮",
      "town_kana": "オオイズミチョウニシイデ8240-1セイセンリョウ",
      "street": null,
      "office_name": null,
      "office_name_kana": null
    },
    {
      "postcode": "4070311",
      "prefecture": "山梨県",
      "prefecture_kana": "ヤマナシケン",
      "prefecture_code": 19,
      "city": "北杜市",
      "city_kana": "ホクトシ",
      "town": "大泉町西井出８２４０−１サンメドウズスキー場",
      "town_kana": "オオイズミチョウニシイデ8240-1サンメドウズスキージョウ",
      "street": null,
      "office_name": null,
      "office_name_kana": null
    }
  ],
  "0321": {
    "postcode": "4070321",
    "prefecture": "山梨県",
    "prefecture_kana": "ヤマナシケン",
    "prefecture_code": 19,
    "city": "北杜市",
    "city_kana": "ホクトシ",
    "town": "須玉町上津金",
    "town_kana": "スタマチョウカミツガネ",
    "street": null,
    "office_name": null,
    "office_name_kana": null
  },
  "0322": {
    "postcode": "4070322",
    "prefecture": "山梨県",
    "prefecture_kana": "ヤマナシケン",
    "prefecture_code": 19,
    "city": "北杜市",
    "city_kana": "ホクトシ",
    "town": "須玉町下津金",
    "town_kana": "スタマチョウシモツガネ",
    "street": null,
    "office_name": null,
    "office_name_kana": null
  },
  "8501": {
    "postcode": "4078501",
    "prefecture": "山梨県",
    "prefecture_kana": "ヤマナシケン",
    "prefecture_code": 19,
    "city": "韮崎市",
    "city_kana": "ニラサキシ",
    "town": "水神",
    "town_kana": "スイジン",
    "street": "１丁目３−１",
    "office_name": "韮崎市役所",
    "office_name_kana": "ニラサキシヤクシヨ"
  },
  "8502": {
    "postcode": "4078502",
    "prefecture": "山梨県",
    "prefecture_kana": "ヤマナシケン",
    "prefecture_code": 19,
    "city": "韮崎市",
    "city_kana": "ニラサキシ",
    "town": "富士見ケ丘",
    "town_kana": "フジミガオカ",
    "street": "２−１−１１",
    "office_name": "リバーエレテック　株式会社",
    "office_name_kana": "リバ-エレテツク カブシキカイシヤ"
  },
  "8511": {
    "postcode": "4078511",
    "prefecture": "山梨県",
    "prefecture_kana": "ヤマナシケン",
    "prefecture_code": 19,
    "city": "韮崎市",
    "city_kana": "ニラサキシ",
    "town": "藤井町北下條",
    "town_kana": "フジイマチキタゲジョウ",
    "street": "２３８１−１",
    "office_name": "東京エレクトロン　株式会社",
    "office_name_kana": "トウキヨウエレクトロン カブシキガイシヤ"
  },
  "8549": {
    "postcode": "4078549",
    "prefecture": "山梨県",
    "prefecture_kana": "ヤマナシケン",
    "prefecture_code": 19,
    "city": "韮崎市",
    "city_kana": "ニラサキシ",
    "town": "上ノ山",
    "town_kana": "ウエノヤマ",
    "street": "３１８０",
    "office_name": "救心製薬　株式会社　山梨工場",
    "office_name_kana": "キユウシンセイヤク カブシキカイシヤ ヤマナシコウジヨウ"
  },
  "8555": {
    "postcode": "4078555",
    "prefecture": "山梨県",
    "prefecture_kana": "ヤマナシケン",
    "prefecture_code": 19,
    "city": "韮崎市",
    "city_kana": "ニラサキシ",
    "town": "大草町下條西割",
    "town_kana": "オオクサマチシモジョウニシワリ",
    "street": "１２００",
    "office_name": "三井金属鉱業　株式会社",
    "office_name_kana": "ミツイキンゾクコウギヨウ カブシキガイシヤ"
  }
}