{
  "0000": {
    "postcode": "4080000",
    "prefecture": "山梨県",
    "prefecture_kana": "ヤマナシケン",
    "prefecture_code": 19,
    "city": "北杜市",
    "city_kana": "ホクトシ",
    "town": "",
    "town_kana": "",
    "street": null,
    "office_name": null,
    "office_name_kana": null
  },
  "0001": {
    "postcode": "4080001",
    "prefecture": "山梨県",
    "prefecture_kana": "ヤマナシケン",
    "prefecture_code": 19,
    "city": "北杜市",
    "city_kana": "ホクトシ",
    "town": "高根町長沢",
    "town_kana": "タカネチョウナガサワ",
    "street": null,
    "office_name": null,
    "office_name_kana": null
  },
  "0002": {
    "postcode": "4080002",
    "prefecture": "山梨県",
    "prefecture_kana": "ヤマナシケン",
    "prefecture_code": 19,
    "city": "北杜市",
    "city_kana": "ホクトシ",
    "town": "高根町村山北割",
    "town_kana": "タカネチョウムラヤマキタワリ",
    "street": null,
    "office_name": null,
    "office_name_kana": null
  },
  "0003": {
    "postcode": "4080003",
    "prefecture": "山梨県",
    "prefecture_kana": "ヤマナシケン",
    "prefecture_code": 19,
    "city": "北杜市",
    "city_kana": "ホクトシ",
    "town": "高根町東井出",
    "town_kana": "タカネチョウヒガシイデ",
    "street": null,
    "office_name": null,
    "office_name_kana": null
  },
  "0004": {
    "postcode": "4080004",
    "prefecture": "山梨県",
    "prefecture_kana": "ヤマナシケン",
    "prefecture_code": 19,
    "city": "北杜市",
    "city_kana": "ホクトシ",
    "town": "高根町堤",
    "town_kana": "タカネチョウツツミ",
    "street": null,
    "office_name": null,
    "office_name_kana": null
  },
  "0011": {
    "postcode": "4080011",
    "prefecture": "山梨県",
    "prefecture_kana": "ヤマナシケン",
    "prefecture_code": 19,
    "city": "北杜市",
    "city_kana": "ホクトシ",
    "town": "高根町箕輪新町",
    "town_kana": "タカネチョウミノワシンマチ",
    "street": null,
    "office_name": null,
    "office_name_kana": null
  },
  "0012": {
    "postcode": "4080012",
    "prefecture": "山梨県",
    "prefecture_kana": "ヤマナシケン",
    "prefecture_code": 19,
    "city": "北杜市",
    "city_kana": "ホクトシ",
    "town": "高根町箕輪",
    "town_kana": "タカネチョウミノワ",
    "street": null,
    "office_name": null,
    "office_name_kana": null
  },
  "0013": {
    "postcode": "4080013",
    "prefecture": "山梨県",
    "prefecture_kana": "ヤマナシケン",
    "prefecture_code": 19,
    "city": "北杜市",
    "city_kana": "ホクトシ",
    "town": "高根町蔵原",
    "town_kana": "タカネチョウクラバラ",
    "street": null,
    "office_name": null,
    "office_name_kana": null
  },
  "0014": {
    "postcode": "4080014",
    "prefecture": "山梨県",
    "prefecture_kana": "ヤマナシケン",
    "prefecture_code": 19,
    "city": "北杜市",
    "city_kana": "ホクトシ",
    "town": "高根町小池",
    "town_kana": "タカネチョウコイケ",
    "street": null,
    "office_name": null,
    "office_name_kana": null
  },
  "0015": {
    "postcode": "4080015",
    "prefecture": "山梨県",
    "prefecture_kana": "ヤマナシケン",
    "prefecture_code": 19,
    "city": "北杜市",
    "city_kana": "ホクトシ",
    "town": "高根町下黒澤",
    "town_kana": "タカネチョウシモクロザワ",
    "street": null,
    "office_name": null,
    "office_name_kana": null
  },
  "0016": {
    "postcode": "4080016",
    "prefecture": "山梨県",
    "prefecture_kana": "ヤマナシケン",
    "prefecture_code": 19,
    "city": "北杜市",
    "city_kana": "ホクトシ",
    "town": "高根町上黒澤",
    "town_kana": "タカネチョウカミクロザワ",
    "street": null,
    "office_name": null,
    "office_name_kana": null
  },
  "0017": {
    "postcode": "4080017",
    "prefecture": "山梨県",
    "prefecture_kana": "ヤマナシケン",
    "prefecture_code": 19,
    "city": "北杜市",
    "city_kana": "ホクトシ",
    "town": "高根町五町田",
    "town_kana": "タカネチョウゴチョウダ",
    "street": null,
    "office_name": null,
    "office_name_kana": null
  },
  "0018": {
    "postcode": "4080018",
    "prefecture": "山梨県",
    "prefecture_kana": "ヤマナシケン",
    "prefecture_code": 19,
    "city": "北杜市",
    "city_kana": "ホクトシ",
    "town": "高根町村山西割",
    "town_kana": "タカネチョウムラヤマニシワリ",
    "street": null,
    "office_name": null,
    "office_name_kana": null
  },
  "0019": {
    "postcode": "4080019",
    "prefecture": "山梨県",
    "prefecture_kana": "ヤマナシケン",
    "prefecture_code": 19,
    "city": "北杜市",
    "city_kana": "ホクトシ",
    "town": "高根町村山東割",
    "town_kana": "タカネチョウムラヤマヒガシワリ",
    "street": null,
    "office_name": null,
    "office_name_kana": null
  },
  "0021": {
    "postcode": "4080021",
    "prefecture": "山梨県",
    "prefecture_kana": "ヤマナシケン",
    "prefecture_code": 19,
    "city": "北杜市",
    "city_kana": "ホクトシ",
    "town": "長坂町長坂上条",
    "town_kana": "ナガサカチョウナガサカカミジョウ",
    "street": null,
    "office_name": null,
    "office_name_kana": null
  },
  "0022": {
    "postcode": "4080022",
    "prefecture": "山梨県",
    "prefecture_kana": "ヤマナシケン",
    "prefecture_code": 19,
    "city": "北杜市",
    "city_kana": "ホクトシ",
    "town": "長坂町塚川",
    "town_kana": "ナガサカチョウツカカワ",
    "street": null,
    "office_name": null,
    "office_name_kana": null
  },
  "0023": {
    "postcode": "4080023",
    "prefecture": "山梨県",
    "prefecture_kana": "ヤマナシケン",
    "prefecture_code": 19,
    "city": "北杜市",
    "city_kana": "ホクトシ",
    "town": "長坂町渋沢",
    "town_kana": "ナガサカチョウシブサワ",
    "street": null,
    "office_name": null,
    "office_name_kana": null
  },
  "0024": {
    "postcode": "4080024",
    "prefecture": "山梨県",
    "prefecture_kana": "ヤマナシケン",
    "prefecture_code": 19,
    "city": "北杜市",
    "city_kana": "ホクトシ",
    "town": "長坂町富岡",
    "town_kana": "ナガサカチョウトミオカ",
    "street": null,
    "office_name": null,
    "office_name_kana": null
  },
  "0025": {
    "postcode": "4080025",
    "prefecture": "山梨県",
    "prefecture_kana": "ヤマナシケン",
    "prefecture_code": 19,
    "city": "北杜市",
    "city_kana": "ホクトシ",
    "town": "長坂町長坂下条",
    "town_kana": "ナガサカチョウナガサカシモジョウ",
    "street": null,
    "office_name": null,
    "office_name_kana": null
  },
  "0026": {
    "postcode": "4080026",
    "prefecture": "山梨県",
    "prefecture_kana": "ヤマナシケン",
    "prefecture_code": 19,
    "city": "北杜市",
    "city_kana": "ホクトシ",
    "town": "長坂町日野",
    "town_kana": "ナガサカチョウヒノ",
    "street": null,
    "office_name": null,
    "office_name_kana": null
  },
  "0031": {
    "postcode": "4080031",
    "prefecture": "山梨県",
    "prefecture_kana": "ヤマナシケン",
    "prefecture_code": 19,
    "city": "北杜市",
    "city_kana": "ホクトシ",
    "town": "長坂町小荒間",
    "town_kana": "ナガサカチョウコアラマ",
    "street": null,
    "office_name": null,
    "office_name_kana": null
  },
  "0032": {
    "postcode": "4080032",
    "prefecture": "山梨県",
    "prefecture_kana": "ヤマナシケン",
    "prefecture_code": 19,
    "city": "北杜市",
    "city_kana": "ホクトシ",
    "town": "長坂町大井ケ森",
    "town_kana": "ナガサカチョウオイガモリ",
    "street": null,
    "office_name": null,
    "office_name_kana": null
  },
  "0033": {
    "postcode": "4080033",
    "prefecture": "山梨県",
    "prefecture_kana": "ヤマナシケン",
    "prefecture_code": 19,
    "city": "北杜市",
    "city_kana": "ホクトシ",
    "town": "長坂町白井沢",
    "town_kana": "ナガサカチョウシロイザワ",
    "street": null,
    "office_name": null,
    "office_name_kana": null
  },
  "0034": {
    "postcode": "4080034",
    "prefecture": "山梨県",
    "prefecture_kana": "ヤマナシケン",
    "prefecture_code": 19,
    "city": "北杜市",
    "city_kana": "ホクトシ",
    "town": "長坂町大八田",
    "town_kana": "ナガサカチョウオオバッタ",
    "street": null,
    "office_name": null,
    "office_name_kana": null
  },
  "0035": {
    "postcode": "4080035",
    "prefecture": "山梨県",
    "prefecture_kana": "ヤマナシケン",
    "prefecture_code": 19,
    "city": "北杜市",
    "city_kana": "ホクトシ",
    "town": "長坂町夏秋",
    "town_kana": "ナガサカチョウナツアキ",
    "street": null,
    "office_name": null,
    "office_name_kana": null
  },
  "0036": {
    "postcode": "4080036",
    "prefecture": "山梨県",
    "prefecture_kana": "ヤマナシケン",
    "prefecture_code": 19,
    "city": "北杜市",
    "city_kana": "ホクトシ",
    "town": "長坂町中丸",
    "town_kana": "ナガサカチョウナカマル",
    "street": null,
    "office_name": null,
    "office_name_kana": null
  },
  "0037": {
    "postcode": "4080037",
    "prefecture": "山梨県",
    "prefecture_kana": "ヤマナシケン",
    "prefecture_code": 19,
    "city": "北杜市",
    "city_kana": "ホクトシ",
    "town": "長坂町中島",
    "town_kana": "ナガサカチョウナカジマ",
    "street": null,
    "office_name": null,
    "office_name_kana": null
  },
  "0041": {
    "postcode": "4080041",
    "prefecture": "山梨県",
    "prefecture_kana": "ヤマナシケン",
    "prefecture_code": 19,
    "city": "北杜市",
    "city_kana": "ホクトシ",
    "town": "小淵沢町上笹尾",
    "town_kana": "コブチサワチョウカミササオ",
    "street": null,
    "office_name": null,
    "office_name_kana": null
  },
  "0042": {
    "postcode": "4080042",
    "prefecture": "山梨県",
    "prefecture_kana": "ヤマナシケン",
    "prefecture_code": 19,
    "city": "北杜市",
    "city_kana": "ホクトシ",
    "town": "小淵沢町松向",
    "town_kana": "コブチサワチョウショウコウ",
    "street": null,
    "office_name": null,
    "office_name_kana": null
  },
  "0043": {
    "postcode": "4080043",
    "prefecture": "山梨県",
    "prefecture_kana": "ヤマナシケン",
    "prefecture_code": 19,
    "city": "北杜市",
    "city_kana": "ホクトシ",
    "town": "小淵沢町下笹尾",
    "town_kana": "コブチサワチョウシモササオ",
    "street": null,
    "office_name": null,
    "office_name_kana": null
  },
  "0044": {
    "postcode": "4080044",
    "prefecture": "山梨県",
    "prefecture_kana": "ヤマナシケン",
    "prefecture_code": 19,
    "city": "北杜市",
    "city_kana": "ホクトシ",
    "town": "小淵沢町",
    "town_kana": "コブチサワチョウ",
    "street": null,
    "office_name": null,
    "office_name_kana": null
  },
  "0101": {
    "postcode": "4080101",
    "prefecture": "山梨県",
    "prefecture_kana": "ヤマナシケン",
    "prefecture_code": 19,
    "city": "北杜市",
    "city_kana": "ホクトシ",
    "town": "須玉町小尾",
    "town_kana": "スタマチョウオビ",
    "street": null,
    "office_name": null,
    "office_name_kana": null
  },
  "0102": {
    "postcode": "4080102",
    "prefecture": "山梨県",
    "prefecture_kana": "ヤマナシケン",
    "prefecture_code": 19,
    "city": "北杜市",
    "city_kana": "ホクトシ",
    "town": "須玉町比志",
    "town_kana": "スタマチョウヒシ",
    "street": null,
    "office_name": null,
    "office_name_kana": null
  },
  "0103": {
    "postcode": "4080103",
    "prefecture": "山梨県",
    "prefecture_kana": "ヤマナシケン",
    "prefecture_code": 19,
    "city": "北杜市",
    "city_kana": "ホクトシ",
    "town": "須玉町江草",
    "town_kana": "スタマチョウエグサ",
    "street": null,
    "office_name": null,
    "office_name_kana": null
  },
  "0104": {
    "postcode": "4080104",
    "prefecture": "山梨県",
    "prefecture_kana": "ヤマナシケン",
    "prefecture_code": 19,
    "city": "北杜市",
    "city_kana": "ホクトシ",
    "town": "須玉町小倉",
    "town_kana": "スタマチョウコゴエ",
    "street": null,
    "office_name": null,
    "office_name_kana": null
  },
  "0105": {
    "postcode": "4080105",
    "prefecture": "山梨県",
    "prefecture_kana": "ヤマナシケン",
    "prefecture_code": 19,
    "city": "北杜市",
    "city_kana": "ホクトシ",
    "town": "須玉町東向",
    "town_kana": "スタマチョウヒガシムキ",
    "street": null,
    "office_name": null,
    "office_name_kana": null
  },
  "0111": {
    "postcode": "4080111",
    "prefecture": "山梨県",
    "prefecture_kana": "ヤマナシケン",
    "prefecture_code": 19,
    "city": "北杜市",
    "city_kana": "ホクトシ",
    "town": "須玉町穴平",
    "town_kana": "スタマチョウアナダイラ",
    "street": null,
    "office_name": null,
    "office_name_kana": null
  },
  "0112": {
    "postcode": "4080112",
    "prefecture": "山梨県",
    "prefecture_kana": "ヤマナシケン",
    "prefecture_code": 19,
    "city": "北杜市",
    "city_kana": "ホクトシ",
    "town": "須玉町若神子",
    "town_kana": "スタマチョウワカミコ",
    "street": null,
    "office_name": null,
    "office_name_kana": null
  },
  "0113": {
    "postcode": "4080113",
    "prefecture": "山梨県",
    "prefecture_kana": "ヤマナシケン",
    "prefecture_code": 19,
    "city": "北杜市",
    "city_kana": "ホクトシ",
    "town": "須玉町大蔵",
    "town_kana": "スタマチョウオオクラ",
    "street": null,
    "office_name": null,
    "office_name_kana": null
  },
  "0114": {
    "postcode": "4080114",
    "prefecture": "山梨県",
    "prefecture_kana": "ヤマナシケン",
    "prefecture_code": 19,
    "city": "北杜市",
    "city_kana": "ホクトシ",
    "town": "須玉町藤田",
    "town_kana": "スタマチョウトウダ",
    "street": null,
    "office_name": null,
    "office_name_kana": null
  },
  "0115": {
    "postcode": "4080115",
    "prefecture": "山梨県",
    "prefecture_kana": "ヤマナシケン",
    "prefecture_code": 19,
    "city": "北杜市",
    "city_kana": "ホクトシ",
    "town": "須玉町大豆生田",
    "town_kana": "スタマチョウマミョウダ",
    "street": null,
    "office_name": null,
    "office_name_kana": null
  },
  "0116": {
    "postcode": "4080116",
    "prefecture": "山梨県",
    "prefecture_kana": "ヤマナシケン",
    "prefecture_code": 19,
    "city": "北杜市",
    "city_kana": "ホクトシ",
    "town": "須玉町境之澤",
    "town_kana": "スタマチョウサカイノサワ",
    "street": null,
    "office_name": null,
    "office_name_kana": null
  },
  "0117": {
    "postcode": "4080117",
    "prefecture": "山梨県",
    "prefecture_kana": "ヤマナシケン",
    "prefecture_code": 19,
    "city": "北杜市",
    "city_kana": "ホクトシ",
    "town": "須玉町若神子新町",
    "town_kana": "スタマチョウワカミコシンマチ",
    "street": null,
    "office_name": null,
    "office_name_kana": null
  },
  "0188": {
    "postcode": "4080188",
    "prefecture": "山梨県",
    "prefecture_kana": "ヤマナシケン",
    "prefecture_code": 19,
    "city": "北杜市",
    "city_kana": "ホクトシ",
    "town": "須玉町大豆生田",
    "town_kana": "スタマチョウマミョウダ",
    "street": "９６１番地１",
    "office_name": "北杜市役所",
    "office_name_kana": "ホクトシヤクシヨ"
  },
  "0192": {
    "postcode": "4080192",
    "prefecture": "山梨県",
    "prefecture_kana": "ヤマナシケン",
    "prefecture_code": 19,
    "city": "北杜市",
    "city_kana": "ホクトシ",
    "town": "須玉町若神子",
    "town_kana": "スタマチョウワカミコ",
    "street": "２１５５",
    "office_name": "北杜市役所　須玉総合支所",
    "office_name_kana": "ホクトシヤクシヨ スタマソウゴウシシヨ"
  },
  "0201": {
    "postcode": "4080201",
    "prefecture": "山梨県",
    "prefecture_kana": "ヤマナシケン",
    "prefecture_code": 19,
    "city": "北杜市",
    "city_kana": "ホクトシ",
    "town": "明野町浅尾",
    "town_kana": "アケノチョウアサオ",
    "street": null,
    "office_name": null,
    "office_name_kana": null
  },
  "0202": {
    "postcode": "4080202",
    "prefecture": "山梨県",
    "prefecture_kana": "ヤマナシケン",
    "prefecture_code": 19,
    "city": "北杜市",
    "city_kana": "ホクトシ",
    "town": "明野町小笠原",
    "town_kana": "アケノチョウオガサハラ",
    "street": null,
    "office_name": null,
    "office_name_kana": null
  },
  "0203": {
    "postcode": "4080203",
    "prefecture": "山梨県",
    "prefecture_kana": "ヤマナシケン",
    "prefecture_code": 19,
    "city": "北杜市",
    "city_kana": "ホクトシ",
    "town": "明野町三之蔵",
    "town_kana": "アケノチョウサンノクラ",
    "street": null,
    "office_name": null,
    "office_name_kana": null
  },
  "0204": {
    "postcode": "4080204",
    "prefecture": "山梨県",
    "prefecture_kana": "ヤマナシケン",
    "prefecture_code": 19,
    "city": "北杜市",
    "city_kana": "ホクトシ",
    "town": "明野町上手",
    "town_kana": "アケノチョウウエデ",
    "street": null,
    "office_name": null,
    "office_name_kana": null
  },
  "0205": {
    "postcode": "4080205",
    "prefecture": "山梨県",
    "prefecture_kana": "ヤマナシケン",
    "prefecture_code": 19,
    "city": "北杜市",
    "city_kana": "ホクトシ",
    "town": "明野町浅尾新田",
    "town_kana": "アケノチョウアサオシンデン",
    "street": null,
    "office_name": null,
    "office_name_kana": null
  },
  "0206": {
    "postcode": "4080206",
    "prefecture": "山梨県",
    "prefecture_kana": "ヤマナシケン",
    "prefecture_code": 19,
    "city": "北杜市",
    "city_kana": "ホクトシ",
    "town": "明野町下神取",
    "town_kana": "アケノチョウシモカンドリ",
    "street": null,
    "office_name": null,
    "office_name_kana": null
  },
  "0207": {
    "postcode": "4080207",
    "prefecture": "山梨県",
    "prefecture_kana": "ヤマナシケン",
    "prefecture_code": 19,
    "city": "北杜市",
    "city_kana": "ホクトシ",
    "town": "明野町上神取",
    "town_kana": "アケノチョウカミカンドリ",
    "street": null,
    "office_name": null,
    "office_name_kana": null
  },
  "0301": {
    "postcode": "4080301",
    "prefecture": "山梨県",
    "prefecture_kana": "ヤマナシケン",
    "prefecture_code": 19,
    "city": "北杜市",
    "city_kana": "ホクトシ",
    "town": "武川町三吹",
    "town_kana": "ムカワチョウミフキ",
    "street": null,
    "office_name": null,
    "office_name_kana": null
  },
  "0302": {
    "postcode": "4080302",
    "prefecture": "山梨県",
    "prefecture_kana": "ヤマナシケン",
    "prefecture_code": 19,
    "city": "北杜市",
    "city_kana": "ホクトシ",
    "town": "武川町牧原",
    "town_kana": "ムカワチョウマギノハラ",
    "street": null,
    "office_name": null,
    "office_name_kana": null
  },
  "0303": {
    "postcode": "4080303",
    "prefecture": "山梨県",
    "prefecture_kana": "ヤマナシケン",
    "prefecture_code": 19,
    "city": "北杜市",
    "city_kana": "ホクトシ",
    "town": "武川町宮脇",
    "town_kana": "ムカワチョウミヤノワキ",
    "street": null,
    "office_name": null,
    "office_name_kana": null
  },
  "0304": {
    "postcode": "4080304",
    "prefecture": "山梨県",
    "prefecture_kana": "ヤマナシケン",
    "prefecture_code": 19,
    "city": "北杜市",
    "city_kana": "ホクトシ",
    "town": "武川町新奥",
    "town_kana": "ムカワチョウシンオク",
    "street": null,
    "office_name": null,
    "office_name_kana": null
  },
  "0305": {
    "postcode": "4080305",
    "prefecture": "山梨県",
    "prefecture_kana": "ヤマナシケン",
    "prefecture_code": 19,
    "city": "北杜市",
    "city_kana": "ホクトシ",
    "town": "武川町黒澤",
    "town_kana": "ムカワチョウクロサワ",
    "street": null,
    "office_name": null,
    "office_name_kana": null
  },
  "0306": {
    "postcode": "4080306",
    "prefecture": "山梨県",
    "prefecture_kana": "ヤマナシケン",
    "prefecture_code": 19,
    "city": "北杜市",
    "city_kana": "ホクトシ",
    "town": "武川町山高",
    "town_kana": "ムカワチョウヤマタカ",
    "street": null,
    "office_name": null,
    "office_name_kana": null
  },
  "0307": {
    "postcode": "4080307",
    "prefecture": "山梨県",
    "prefecture_kana": "ヤマナシケン",
    "prefecture_code": 19,
    "city": "北杜市",
    "city_kana": "ホクトシ",
    "town": "武川町柳澤",
    "town_kana": "ムカワチョウヤナギサワ",
    "street": null,
    "office_name": null,
    "office_name_kana": null
  },
  "0311": {
    "postcode": "4080311",
    "prefecture": "山梨県",
    "prefecture_kana": "ヤマナシケン",
    "prefecture_code": 19,
    "city": "北杜市",
    "city_kana": "ホクトシ",
    "town": "白州町花水",
    "town_kana": "ハクシュウチョウハナミズ",
    "street": null,
    "office_name": null,
    "office_name_kana": null
  },
  "0312": {
    "postcode": "4080312",
    "prefecture": "山梨県",
    "prefecture_kana": "ヤマナシケン",
    "prefecture_code": 19,
    "city": "北杜市",
    "city_kana": "ホクトシ",
    "town": "白州町台ケ原",
    "town_kana": "ハクシュウチョウダイガハラ",
    "street": null,
    "office_name": null,
    "office_name_kana": null
  },
  "0313": {
    "postcode": "4080313",
    "prefecture": "山梨県",
    "prefecture_kana": "ヤマナシケン",
    "prefecture_code": 19,
    "city": "北杜市",
    "city_kana": "ホクトシ",
    "town": "白州町横手",
    "town_kana": "ハクシュウチョウヨコテ",
    "street": null,
    "office_name": null,
    "office_name_kana": null
  },
  "0314": {
    "postcode": "4080314",
    "prefecture": "山梨県",
    "prefecture_kana": "ヤマナシケン",
    "prefecture_code": 19,
    "city": "北杜市",
    "city_kana": "ホクトシ",
    "town": "白州町大坊",
    "town_kana": "ハクシュウチョウダイボウ",
    "street": null,
    "office_name": null,
    "office_name_kana": null
  },
  "0315": {
    "postcode": "4080315",
    "prefecture": "山梨県",
    "prefecture_kana": "ヤマナシケン",
    "prefecture_code": 19,
    "city": "北杜市",
    "city_kana": "ホクトシ",
    "town": "白州町白須",
    "town_kana": "ハクシュウチョウシラス",
    "street": null,
    "office_name": null,
    "office_name_kana": null
  },
  "0316": {
    "postcode": "4080316",
    "prefecture": "山梨県",
    "prefecture_kana": "ヤマナシケン",
    "prefecture_code": 19,
    "city": "北杜市",
    "city_kana": "ホクトシ",
    "town": "白州町鳥原",
    "town_kana": "ハクシュウチョウトリハラ",
    "street": null,
    "office_name": null,
    "office_name_kana": null
  },
  "0317": {
    "postcode": "4080317",
    "prefecture": "山梨県",
    "prefecture_kana": "ヤマナシケン",
    "prefecture_code": 19,
    "city": "北杜市",
    "city_kana": "ホクトシ",
    "town": "白州町下教来石",
    "town_kana": "ハクシュウチョウシモキョウライシ",
    "street": null,
    "office_name": null,
    "office_name_kana": null
  },
  "0318": {
    "postcode": "4080318",
    "prefecture": "山梨県",
    "prefecture_kana": "ヤマナシケン",
    "prefecture_code": 19,
    "city": "北杜市",
    "city_kana": "ホクトシ",
    "town": "白州町上教来石",
    "town_kana": "ハクシュウチョウカミキョウライシ",
    "street": null,
    "office_name": null,
    "office_name_kana": null
  },
  "0319": {
    "postcode": "4080319",
    "prefecture": "山梨県",
    "prefecture_kana": "ヤマナシケン",
    "prefecture_code": 19,
    "city": "北杜市",
    "city_kana": "ホクトシ",
    "town": "白州町大武川",
    "town_kana": "ハクシュウチョウオオムカワ",
    "street": null,
    "office_name": null,
    "office_name_kana": null
  },
  "8511": {
    "postcode": "4088511",
    "prefecture": "山梨県",
    "prefecture_kana": "ヤマナシケン",
    "prefecture_code": 19,
    "city": "北杜市",
    "city_kana": "ホクトシ",
    "town": "高根町村山北割",
    "town_kana": "タカネチョウムラヤマキタワリ",
    "street": "３２６１番地",
    "office_name": "北杜市役所　高根総合支所",
    "office_name_kana": "ホクトシ タカネソウゴウシシヨ"
  },
  "8515": {
    "postcode": "4088515",
    "prefecture": "山梨県",
    "prefecture_kana": "ヤマナシケン",
    "prefecture_code": 19,
    "city": "北杜市",
    "city_kana": "ホクトシ",
    "town": "長坂町長坂上条",
    "town_kana": "ナガサカチョウナガサカカミジョウ",
    "street": "２０４０",
    "office_name": "株式会社　キッツ　長坂工場",
    "office_name_kana": "カブシキガイシヤ キツツ ナガサカコウジヨウ"
  },
  "8522": {
    "postcode": "4088522",
    "prefecture": "山梨県",
    "prefecture_kana": "ヤマナシケン",
    "prefecture_code": 19,
    "city": "北杜市",
    "city_kana": "ホクトシ",
    "town": "小淵沢町",
    "town_kana": "コブチサワチョウ",
    "street": "２９６１",
    "office_name": "株式会社　アルソア本社",
    "office_name_kana": "カブシキカイシヤ アルソアホンシヤ"
  },
  "8533": {
    "postcode": "4088533",
    "prefecture": "山梨県",
    "prefecture_kana": "ヤマナシケン",
    "prefecture_code": 19,
    "city": "北杜市",
    "city_kana": "ホクトシ",
    "town": "小淵沢町上笹尾",
    "town_kana": "コブチサワチョウカミササオ",
    "street": "３１８１",
    "office_name": "株式会社　ミヨシ",
    "office_name_kana": "カブシキガイシヤ ミヨシ"
  },
  "8550": {
    "postcode": "4088550",
    "prefecture": "山梨県",
    "prefecture_kana": "ヤマナシケン",
    "prefecture_code": 19,
    "city": "北杜市",
    "city_kana": "ホクトシ",
    "town": "長坂町中丸",
    "town_kana": "ナガサカチョウナカマル",
    "street": "３２８０",
    "office_name": "ＨＯＹＡ　株式会社　長坂工場",
    "office_name_kana": "ホ-ヤ カブシキカイシヤ ナガサカコウジヨウ"
  },
  "8555": {
    "postcode": "4088555",
    "prefecture": "山梨県",
    "prefecture_kana": "ヤマナシケン",
    "prefecture_code": 19,
    "city": "北杜市",
    "city_kana": "ホクトシ",
    "town": "小淵沢町",
    "town_kana": "コブチサワチョウ",
    "street": "８３５",
    "office_name": "北杜市役所　小淵沢総合支所",
    "office_name_kana": "ホクトシヤクシヨ コブチサワソウゴウシシヨ"
  },
  "8585": {
    "postcode": "4088585",
    "prefecture": "山梨県",
    "prefecture_kana": "ヤマナシケン",
    "prefecture_code": 19,
    "city": "北杜市",
    "city_kana": "ホクトシ",
    "town": "長坂町長坂上条",
    "town_kana": "ナガサカチョウナガサカカミジョウ",
    "street": "２５７５−１９",
    "office_name": "北杜市役所　長坂総合支所",
    "office_name_kana": "ホクトシヤクシヨ ナガサカソウゴウシシヨ"
  }
}