{
  "0000": [
    {
      "postcode": "4110000",
      "prefecture": "静岡県",
      "prefecture_kana": "シズオカケン",
      "prefecture_code": 22,
      "city": "三島市",
      "city_kana": "ミシマシ",
      "town": "",
      "town_kana": "",
      "street": null,
      "office_name": null,
      "office_name_kana": null
    },
    {
      "postcode": "4110000",
      "prefecture": "静岡県",
      "prefecture_kana": "シズオカケン",
      "prefecture_code": 22,
      "city": "駿東郡清水町",
      "city_kana": "スントウグンシミズチョウ",
      "town": "",
      "town_kana": "",
      "street": null,
      "office_name": null,
      "office_name_kana": null
    },
    {
      "postcode": "4110000",
      "prefecture": "静岡県",
      "prefecture_kana": "シズオカケン",
      "prefecture_code": 22,
      "city": "駿東郡長泉町",
      "city_kana": "スントウグンナガイズミチョウ",
      "town": "",
      "town_kana": "",
      "street": null,
      "office_name": null,
      "office_name_kana": null
    }
  ],
  "0001": [
    {
      "postcode": "4110001",
      "prefecture": "静岡県",
      "prefecture_kana": "シズオカケン",
      "prefecture_code": 22,
      "city": "田方郡函南町",
      "city_kana": "タガタグンカンナミチョウ",
      "town": "桑原",
      "town_kana": "クワハラ",
      "street": null,
      "office_name": null,
      "office_name_kana": null
    },
    {
      "postcode": "4110001",
      "prefecture": "静岡県",
      "prefecture_kana": "シズオカケン",
      "prefecture_code": 22,
      "city": "田方郡函南町",
      "city_kana": "タガタグンカンナミチョウ",
      "town": "桑原茨ケ平",
      "town_kana": "クワハライバラガヒラ",
      "street": null,
      "office_name": null,
      "office_name_kana": null
    },
    {
      "postcode": "4110001",
      "prefecture": "静岡県",
      "prefecture_kana": "シズオカケン",
      "prefecture_code": 22,
      "city": "田方郡函南町",
      "city_kana": "タガタグンカンナミチョウ",
      "town": "桑原箱根峠",
      "town_kana": "クワハラハコネトウゲ",
      "street": null,
      "office_name": null,
      "office_name_kana": null
    }
  ],
  "0011": {
    "postcode": "4110011",
    "prefecture": "静岡県",
    "prefecture_kana": "シズオカケン",
    "prefecture_code": 22,
    "city": "三島市",
    "city_kana": "ミシマシ",
    "town": "山中新田",
    "town_kana": "ヤマナカシンデン",
    "street": null,
    "office_name": null,
    "office_name_kana": null
  },
  "0012": {
    "postcode": "4110012",
    "prefecture": "静岡県",
    "prefecture_kana": "シズオカケン",
    "prefecture_code": 22,
    "city": "三島市",
    "city_kana": "ミシマシ",
    "town": "笹原新田",
    "town_kana": "ササハラシンデン",
    "street": null,
    "office_name": null,
    "office_name_kana": null
  },
  "0013": {
    "postcode": "4110013",
    "prefecture": "静岡県",
    "prefecture_kana": "シズオカケン",
    "prefecture_code": 22,
    "city": "三島市",
    "city_kana": "ミシマシ",
    "town": "三ツ谷新田",
    "town_kana": "ミツヤシンデン",
    "street": null,
    "office_name": null,
    "office_name_kana": null
  },
  "0014": {
    "postcode": "4110014",
    "prefecture": "静岡県",
    "prefecture_kana": "シズオカケン",
    "prefecture_code": 22,
    "city": "三島市",
    "city_kana": "ミシマシ",
    "town": "玉沢",
    "town_kana": "タマザワ",
    "street": null,
    "office_name": null,
    "office_name_kana": null
  },
  "0015": {
    "postcode": "4110015",
    "prefecture": "静岡県",
    "prefecture_kana": "シズオカケン",
    "prefecture_code": 22,
    "city": "三島市",
    "city_kana": "ミシマシ",
    "town": "市山新田",
    "town_kana": "イチノヤマシンデン",
    "street": null,
    "office_name": null,
    "office_name_kana": null
  },
  "0016": {
    "postcode": "4110016",
    "prefecture": "静岡県",
    "prefecture_kana": "シズオカケン",
    "prefecture_code": 22,
    "city": "三島市",
    "city_kana": "ミシマシ",
    "town": "塚原新田",
    "town_kana": "ツカハラシンデン",
    "street": null,
    "office_name": null,
    "office_name_kana": null
  },
  "0017": {
    "postcode": "4110017",
    "prefecture": "静岡県",
    "prefecture_kana": "シズオカケン",
    "prefecture_code": 22,
    "city": "三島市",
    "city_kana": "ミシマシ",
    "town": "三恵台",
    "town_kana": "サンケイダイ",
    "street": null,
    "office_name": null,
    "office_name_kana": null
  },
  "0018": {
    "postcode": "4110018",
    "prefecture": "静岡県",
    "prefecture_kana": "シズオカケン",
    "prefecture_code": 22,
    "city": "三島市",
    "city_kana": "ミシマシ",
    "town": "初音台",
    "town_kana": "ハツネダイ",
    "street": null,
    "office_name": null,
    "office_name_kana": null
  },
  "0019": {
    "postcode": "4110019",
    "prefecture": "静岡県",
    "prefecture_kana": "シズオカケン",
    "prefecture_code": 22,
    "city": "三島市",
    "city_kana": "ミシマシ",
    "town": "松が丘",
    "town_kana": "マツガオカ",
    "street": null,
    "office_name": null,
    "office_name_kana": null
  },
  "0020": {
    "postcode": "4110020",
    "prefecture": "静岡県",
    "prefecture_kana": "シズオカケン",
    "prefecture_code": 22,
    "city": "三島市",
    "city_kana": "ミシマシ",
    "town": "旭ケ丘",
    "town_kana": "アサヒガオカ",
    "street": null,
    "office_name": null,
    "office_name_kana": null
  },
  "0021": {
    "postcode": "4110021",
    "prefecture": "静岡県",
    "prefecture_kana": "シズオカケン",
    "prefecture_code": 22,
    "city": "三島市",
    "city_kana": "ミシマシ",
    "town": "富士見台",
    "town_kana": "フジミダイ",
    "street": null,
    "office_name": null,
    "office_name_kana": null
  },
  "0022": {
    "postcode": "4110022",
    "prefecture": "静岡県",
    "prefecture_kana": "シズオカケン",
    "prefecture_code": 22,
    "city": "三島市",
    "city_kana": "ミシマシ",
    "town": "川原ケ谷",
    "town_kana": "カワハラガヤ",
    "street": null,
    "office_name": null,
    "office_name_kana": null
  },
  "0023": {
    "postcode": "4110023",
    "prefecture": "静岡県",
    "prefecture_kana": "シズオカケン",
    "prefecture_code": 22,
    "city": "三島市",
    "city_kana": "ミシマシ",
    "town": "加茂",
    "town_kana": "カモ",
    "street": null,
    "office_name": null,
    "office_name_kana": null
  },
  "0024": {
    "postcode": "4110024",
    "prefecture": "静岡県",
    "prefecture_kana": "シズオカケン",
    "prefecture_code": 22,
    "city": "三島市",
    "city_kana": "ミシマシ",
    "town": "若松町",
    "town_kana": "ワカマツチョウ",
    "street": null,
    "office_name": null,
    "office_name_kana": null
  },
  "0025": {
    "postcode": "4110025",
    "prefecture": "静岡県",
    "prefecture_kana": "シズオカケン",
    "prefecture_code": 22,
    "city": "三島市",
    "city_kana": "ミシマシ",
    "town": "壱町田",
    "town_kana": "イッチョウダ",
    "street": null,
    "office_name": null,
    "office_name_kana": null
  },
  "0026": {
    "postcode": "4110026",
    "prefecture": "静岡県",
    "prefecture_kana": "シズオカケン",
    "prefecture_code": 22,
    "city": "三島市",
    "city_kana": "ミシマシ",
    "town": "東壱町田",
    "town_kana": "ヒガシイッチョウダ",
    "street": null,
    "office_name": null,
    "office_name_kana": null
  },
  "0027": {
    "postcode": "4110027",
    "prefecture": "静岡県",
    "prefecture_kana": "シズオカケン",
    "prefecture_code": 22,
    "city": "三島市",
    "city_kana": "ミシマシ",
    "town": "千枚原",
    "town_kana": "センマイバラ",
    "street": null,
    "office_name": null,
    "office_name_kana": null
  },
  "0028": {
    "postcode": "4110028",
    "prefecture": "静岡県",
    "prefecture_kana": "シズオカケン",
    "prefecture_code": 22,
    "city": "三島市",
    "city_kana": "ミシマシ",
    "town": "富士ビレッジ",
    "town_kana": "フジビレッジ",
    "street": null,
    "office_name": null,
    "office_name_kana": null
  },
  "0029": {
    "postcode": "4110029",
    "prefecture": "静岡県",
    "prefecture_kana": "シズオカケン",
    "prefecture_code": 22,
    "city": "三島市",
    "city_kana": "ミシマシ",
    "town": "光ケ丘",
    "town_kana": "ヒカリガオカ",
    "street": null,
    "office_name": null,
    "office_name_kana": null
  },
  "0030": {
    "postcode": "4110030",
    "prefecture": "静岡県",
    "prefecture_kana": "シズオカケン",
    "prefecture_code": 22,
    "city": "三島市",
    "city_kana": "ミシマシ",
    "town": "西旭ケ丘町",
    "town_kana": "ニシアサヒガオカチョウ",
    "street": null,
    "office_name": null,
    "office_name_kana": null
  },
  "0031": {
    "postcode": "4110031",
    "prefecture": "静岡県",
    "prefecture_kana": "シズオカケン",
    "prefecture_code": 22,
    "city": "三島市",
    "city_kana": "ミシマシ",
    "town": "幸原町",
    "town_kana": "コウバラチョウ",
    "street": null,
    "office_name": null,
    "office_name_kana": null
  },
  "0032": {
    "postcode": "4110032",
    "prefecture": "静岡県",
    "prefecture_kana": "シズオカケン",
    "prefecture_code": 22,
    "city": "三島市",
    "city_kana": "ミシマシ",
    "town": "末広町",
    "town_kana": "スエヒロチョウ",
    "street": null,
    "office_name": null,
    "office_name_kana": null
  },
  "0033": {
    "postcode": "4110033",
    "prefecture": "静岡県",
    "prefecture_kana": "シズオカケン",
    "prefecture_code": 22,
    "city": "三島市",
    "city_kana": "ミシマシ",
    "town": "文教町",
    "town_kana": "ブンキョウチョウ",
    "street": null,
    "office_name": null,
    "office_name_kana": null
  },
  "0034": {
    "postcode": "4110034",
    "prefecture": "静岡県",
    "prefecture_kana": "シズオカケン",
    "prefecture_code": 22,
    "city": "三島市",
    "city_kana": "ミシマシ",
    "town": "加茂川町",
    "town_kana": "カモガワチョウ",
    "street": null,
    "office_name": null,
    "office_name_kana": null
  },
  "0035": {
    "postcode": "4110035",
    "prefecture": "静岡県",
    "prefecture_kana": "シズオカケン",
    "prefecture_code": 22,
    "city": "三島市",
    "city_kana": "ミシマシ",
    "town": "大宮町",
    "town_kana": "オオミヤチョウ",
    "street": null,
    "office_name": null,
    "office_name_kana": null
  },
  "0036": {
    "postcode": "4110036",
    "prefecture": "静岡県",
    "prefecture_kana": "シズオカケン",
    "prefecture_code": 22,
    "city": "三島市",
    "city_kana": "ミシマシ",
    "town": "一番町",
    "town_kana": "イチバンチョウ",
    "street": null,
    "office_name": null,
    "office_name_kana": null
  },
  "0037": {
    "postcode": "4110037",
    "prefecture": "静岡県",
    "prefecture_kana": "シズオカケン",
    "prefecture_code": 22,
    "city": "三島市",
    "city_kana": "ミシマシ",
    "town": "泉町",
    "town_kana": "イズミチョウ",
    "street": null,
    "office_name": null,
    "office_name_kana": null
  },
  "0038": {
    "postcode": "4110038",
    "prefecture": "静岡県",
    "prefecture_kana": "シズオカケン",
    "prefecture_code": 22,
    "city": "三島市",
    "city_kana": "ミシマシ",
    "town": "西若町",
    "town_kana": "ニシワカチョウ",
    "street": null,
    "office_name": null,
    "office_name_kana": null
  },
  "0039": {
    "postcode": "4110039",
    "prefecture": "静岡県",
    "prefecture_kana": "シズオカケン",
    "prefecture_code": 22,
    "city": "三島市",
    "city_kana": "ミシマシ",
    "town": "寿町",
    "town_kana": "コトブキチョウ",
    "street": null,
    "office_name": null,
    "office_name_kana": null
  },
  "0041": {
    "postcode": "4110041",
    "prefecture": "静岡県",
    "prefecture_kana": "シズオカケン",
    "prefecture_code": 22,
    "city": "三島市",
    "city_kana": "ミシマシ",
    "town": "佐野見晴台",
    "town_kana": "サノミハラシダイ",
    "street": null,
    "office_name": null,
    "office_name_kana": null
  },
  "0042": {
    "postcode": "4110042",
    "prefecture": "静岡県",
    "prefecture_kana": "シズオカケン",
    "prefecture_code": 22,
    "city": "三島市",
    "city_kana": "ミシマシ",
    "town": "平成台",
    "town_kana": "ヘイセイダイ",
    "street": null,
    "office_name": null,
    "office_name_kana": null
  },
  "0043": {
    "postcode": "4110043",
    "prefecture": "静岡県",
    "prefecture_kana": "シズオカケン",
    "prefecture_code": 22,
    "city": "三島市",
    "city_kana": "ミシマシ",
    "town": "沢地",
    "town_kana": "サワジ",
    "street": null,
    "office_name": null,
    "office_name_kana": null
  },
  "0044": {
    "postcode": "4110044",
    "prefecture": "静岡県",
    "prefecture_kana": "シズオカケン",
    "prefecture_code": 22,
    "city": "三島市",
    "city_kana": "ミシマシ",
    "town": "徳倉",
    "town_kana": "トクラ",
    "street": null,
    "office_name": null,
    "office_name_kana": null
  },
  "0045": {
    "postcode": "4110045",
    "prefecture": "静岡県",
    "prefecture_kana": "シズオカケン",
    "prefecture_code": 22,
    "city": "三島市",
    "city_kana": "ミシマシ",
    "town": "萩",
    "town_kana": "ハギ",
    "street": null,
    "office_name": null,
    "office_name_kana": null
  },
  "0046": {
    "postcode": "4110046",
    "prefecture": "静岡県",
    "prefecture_kana": "シズオカケン",
    "prefecture_code": 22,
    "city": "三島市",
    "city_kana": "ミシマシ",
    "town": "芙蓉台",
    "town_kana": "フヨウダイ",
    "street": null,
    "office_name": null,
    "office_name_kana": null
  },
  "0047": {
    "postcode": "4110047",
    "prefecture": "静岡県",
    "prefecture_kana": "シズオカケン",
    "prefecture_code": 22,
    "city": "三島市",
    "city_kana": "ミシマシ",
    "town": "佐野",
    "town_kana": "サノ",
    "street": null,
    "office_name": null,
    "office_name_kana": null
  },
  "0801": {
    "postcode": "4110801",
    "prefecture": "静岡県",
    "prefecture_kana": "シズオカケン",
    "prefecture_code": 22,
    "city": "三島市",
    "city_kana": "ミシマシ",
    "town": "谷田",
    "town_kana": "ヤタ",
    "street": null,
    "office_name": null,
    "office_name_kana": null
  },
  "0802": {
    "postcode": "4110802",
    "prefecture": "静岡県",
    "prefecture_kana": "シズオカケン",
    "prefecture_code": 22,
    "city": "三島市",
    "city_kana": "ミシマシ",
    "town": "東大場",
    "town_kana": "ヒガシダイバ",
    "street": null,
    "office_name": null,
    "office_name_kana": null
  },
  "0803": {
    "postcode": "4110803",
    "prefecture": "静岡県",
    "prefecture_kana": "シズオカケン",
    "prefecture_code": 22,
    "city": "三島市",
    "city_kana": "ミシマシ",
    "town": "大場",
    "town_kana": "ダイバ",
    "street": null,
    "office_name": null,
    "office_name_kana": null
  },
  "0804": {
    "postcode": "4110804",
    "prefecture": "静岡県",
    "prefecture_kana": "シズオカケン",
    "prefecture_code": 22,
    "city": "三島市",
    "city_kana": "ミシマシ",
    "town": "多呂",
    "town_kana": "タロ",
    "street": null,
    "office_name": null,
    "office_name_kana": null
  },
  "0805": {
    "postcode": "4110805",
    "prefecture": "静岡県",
    "prefecture_kana": "シズオカケン",
    "prefecture_code": 22,
    "city": "三島市",
    "city_kana": "ミシマシ",
    "town": "北沢",
    "town_kana": "キタザワ",
    "street": null,
    "office_name": null,
    "office_name_kana": null
  },
  "0806": {
    "postcode": "4110806",
    "prefecture": "静岡県",
    "prefecture_kana": "シズオカケン",
    "prefecture_code": 22,
    "city": "三島市",
    "city_kana": "ミシマシ",
    "town": "柳郷地",
    "town_kana": "ヤナギゴウチ",
    "street": null,
    "office_name": null,
    "office_name_kana": null
  },
  "0807": {
    "postcode": "4110807",
    "prefecture": "静岡県",
    "prefecture_kana": "シズオカケン",
    "prefecture_code": 22,
    "city": "三島市",
    "city_kana": "ミシマシ",
    "town": "竹倉",
    "town_kana": "タケクラ",
    "street": null,
    "office_name": null,
    "office_name_kana": null
  },
  "0808": {
    "postcode": "4110808",
    "prefecture": "静岡県",
    "prefecture_kana": "シズオカケン",
    "prefecture_code": 22,
    "city": "三島市",
    "city_kana": "ミシマシ",
    "town": "錦が丘",
    "town_kana": "ニシキガオカ",
    "street": null,
    "office_name": null,
    "office_name_kana": null
  },
  "0811": {
    "postcode": "4110811",
    "prefecture": "静岡県",
    "prefecture_kana": "シズオカケン",
    "prefecture_code": 22,
    "city": "三島市",
    "city_kana": "ミシマシ",
    "town": "青木",
    "town_kana": "アオキ",
    "street": null,
    "office_name": null,
    "office_name_kana": null
  },
  "0812": {
    "postcode": "4110812",
    "prefecture": "静岡県",
    "prefecture_kana": "シズオカケン",
    "prefecture_code": 22,
    "city": "三島市",
    "city_kana": "ミシマシ",
    "town": "藤代町",
    "town_kana": "フジシロチョウ",
    "street": null,
    "office_name": null,
    "office_name_kana": null
  },
  "0813": {
    "postcode": "4110813",
    "prefecture": "静岡県",
    "prefecture_kana": "シズオカケン",
    "prefecture_code": 22,
    "city": "三島市",
    "city_kana": "ミシマシ",
    "town": "鶴喰",
    "town_kana": "ツルハミ",
    "street": null,
    "office_name": null,
    "office_name_kana": null
  },
  "0814": {
    "postcode": "4110814",
    "prefecture": "静岡県",
    "prefecture_kana": "シズオカケン",
    "prefecture_code": 22,
    "city": "三島市",
    "city_kana": "ミシマシ",
    "town": "中島",
    "town_kana": "ナカジマ",
    "street": null,
    "office_name": null,
    "office_name_kana": null
  },
  "0815": {
    "postcode": "4110815",
    "prefecture": "静岡県",
    "prefecture_kana": "シズオカケン",
    "prefecture_code": 22,
    "city": "三島市",
    "city_kana": "ミシマシ",
    "town": "安久",
    "town_kana": "ヤスヒサ",
    "street": null,
    "office_name": null,
    "office_name_kana": null
  },
  "0816": {
    "postcode": "4110816",
    "prefecture": "静岡県",
    "prefecture_kana": "シズオカケン",
    "prefecture_code": 22,
    "city": "三島市",
    "city_kana": "ミシマシ",
    "town": "梅名",
    "town_kana": "ウメナ",
    "street": null,
    "office_name": null,
    "office_name_kana": null
  },
  "0817": {
    "postcode": "4110817",
    "prefecture": "静岡県",
    "prefecture_kana": "シズオカケン",
    "prefecture_code": 22,
    "city": "三島市",
    "city_kana": "ミシマシ",
    "town": "八反畑",
    "town_kana": "ハッタバタ",
    "street": null,
    "office_name": null,
    "office_name_kana": null
  },
  "0821": {
    "postcode": "4110821",
    "prefecture": "静岡県",
    "prefecture_kana": "シズオカケン",
    "prefecture_code": 22,
    "city": "三島市",
    "city_kana": "ミシマシ",
    "town": "平田",
    "town_kana": "ヒラタ",
    "street": null,
    "office_name": null,
    "office_name_kana": null
  },
  "0822": {
    "postcode": "4110822",
    "prefecture": "静岡県",
    "prefecture_kana": "シズオカケン",
    "prefecture_code": 22,
    "city": "三島市",
    "city_kana": "ミシマシ",
    "town": "松本",
    "town_kana": "マツモト",
    "street": null,
    "office_name": null,
    "office_name_kana": null
  },
  "0823": {
    "postcode": "4110823",
    "prefecture": "静岡県",
    "prefecture_kana": "シズオカケン",
    "prefecture_code": 22,
    "city": "三島市",
    "city_kana": "ミシマシ",
    "town": "御園",
    "town_kana": "ミソノ",
    "street": null,
    "office_name": null,
    "office_name_kana": null
  },
  "0824": {
    "postcode": "4110824",
    "prefecture": "静岡県",
    "prefecture_kana": "シズオカケン",
    "prefecture_code": 22,
    "city": "三島市",
    "city_kana": "ミシマシ",
    "town": "長伏",
    "town_kana": "ナガブセ",
    "street": null,
    "office_name": null,
    "office_name_kana": null
  },
  "0831": {
    "postcode": "4110831",
    "prefecture": "静岡県",
    "prefecture_kana": "シズオカケン",
    "prefecture_code": 22,
    "city": "三島市",
    "city_kana": "ミシマシ",
    "town": "東本町",
    "town_kana": "ヒガシホンチョウ",
    "street": null,
    "office_name": null,
    "office_name_kana": null
  },
  "0832": {
    "postcode": "4110832",
    "prefecture": "静岡県",
    "prefecture_kana": "シズオカケン",
    "prefecture_code": 22,
    "city": "三島市",
    "city_kana": "ミシマシ",
    "town": "南二日町",
    "town_kana": "ミナミフツカマチ",
    "street": null,
    "office_name": null,
    "office_name_kana": null
  },
  "0833": {
    "postcode": "4110833",
    "prefecture": "静岡県",
    "prefecture_kana": "シズオカケン",
    "prefecture_code": 22,
    "city": "三島市",
    "city_kana": "ミシマシ",
    "town": "中",
    "town_kana": "ナカ",
    "street": null,
    "office_name": null,
    "office_name_kana": null
  },
  "0834": {
    "postcode": "4110834",
    "prefecture": "静岡県",
    "prefecture_kana": "シズオカケン",
    "prefecture_code": 22,
    "city": "三島市",
    "city_kana": "ミシマシ",
    "town": "新谷",
    "town_kana": "アラヤ",
    "street": null,
    "office_name": null,
    "office_name_kana": null
  },
  "0835": {
    "postcode": "4110835",
    "prefecture": "静岡県",
    "prefecture_kana": "シズオカケン",
    "prefecture_code": 22,
    "city": "三島市",
    "city_kana": "ミシマシ",
    "town": "玉川",
    "town_kana": "タマガワ",
    "street": null,
    "office_name": null,
    "office_name_kana": null
  },
  "0836": {
    "postcode": "4110836",
    "prefecture": "静岡県",
    "prefecture_kana": "シズオカケン",
    "prefecture_code": 22,
    "city": "三島市",
    "city_kana": "ミシマシ",
    "town": "富田町",
    "town_kana": "トミタマチ",
    "street": null,
    "office_name": null,
    "office_name_kana": null
  },
  "0837": {
    "postcode": "4110837",
    "prefecture": "静岡県",
    "prefecture_kana": "シズオカケン",
    "prefecture_code": 22,
    "city": "三島市",
    "city_kana": "ミシマシ",
    "town": "南田町",
    "town_kana": "ミナミタマチ",
    "street": null,
    "office_name": null,
    "office_name_kana": null
  },
  "0838": {
    "postcode": "4110838",
    "prefecture": "静岡県",
    "prefecture_kana": "シズオカケン",
    "prefecture_code": 22,
    "city": "三島市",
    "city_kana": "ミシマシ",
    "town": "中田町",
    "town_kana": "ナカタマチ",
    "street": null,
    "office_name": null,
    "office_name_kana": null
  },
  "0841": {
    "postcode": "4110841",
    "prefecture": "静岡県",
    "prefecture_kana": "シズオカケン",
    "prefecture_code": 22,
    "city": "三島市",
    "city_kana": "ミシマシ",
    "town": "南本町",
    "town_kana": "ミナミホンチョウ",
    "street": null,
    "office_name": null,
    "office_name_kana": null
  },
  "0842": {
    "postcode": "4110842",
    "prefecture": "静岡県",
    "prefecture_kana": "シズオカケン",
    "prefecture_code": 22,
    "city": "三島市",
    "city_kana": "ミシマシ",
    "town": "南町",
    "town_kana": "ミナミチョウ",
    "street": null,
    "office_name": null,
    "office_name_kana": null
  },
  "0843": {
    "postcode": "4110843",
    "prefecture": "静岡県",
    "prefecture_kana": "シズオカケン",
    "prefecture_code": 22,
    "city": "三島市",
    "city_kana": "ミシマシ",
    "town": "三好町",
    "town_kana": "ミヨシチョウ",
    "street": null,
    "office_name": null,
    "office_name_kana": null
  },
  "0844": {
    "postcode": "4110844",
    "prefecture": "静岡県",
    "prefecture_kana": "シズオカケン",
    "prefecture_code": 22,
    "city": "三島市",
    "city_kana": "ミシマシ",
    "town": "清住町",
    "town_kana": "キヨズミチョウ",
    "street": null,
    "office_name": null,
    "office_name_kana": null
  },
  "0845": {
    "postcode": "4110845",
    "prefecture": "静岡県",
    "prefecture_kana": "シズオカケン",
    "prefecture_code": 22,
    "city": "三島市",
    "city_kana": "ミシマシ",
    "town": "加屋町",
    "town_kana": "カヤマチ",
    "street": null,
    "office_name": null,
    "office_name_kana": null
  },
  "0846": {
    "postcode": "4110846",
    "prefecture": "静岡県",
    "prefecture_kana": "シズオカケン",
    "prefecture_code": 22,
    "city": "三島市",
    "city_kana": "ミシマシ",
    "town": "栄町",
    "town_kana": "サカエチョウ",
    "street": null,
    "office_name": null,
    "office_name_kana": null
  },
  "0847": {
    "postcode": "4110847",
    "prefecture": "静岡県",
    "prefecture_kana": "シズオカケン",
    "prefecture_code": 22,
    "city": "三島市",
    "city_kana": "ミシマシ",
    "town": "西本町",
    "town_kana": "ニシホンチョウ",
    "street": null,
    "office_name": null,
    "office_name_kana": null
  },
  "0848": {
    "postcode": "4110848",
    "prefecture": "静岡県",
    "prefecture_kana": "シズオカケン",
    "prefecture_code": 22,
    "city": "三島市",
    "city_kana": "ミシマシ",
    "town": "緑町",
    "town_kana": "ミドリチョウ",
    "street": null,
    "office_name": null,
    "office_name_kana": null
  },
  "0851": {
    "postcode": "4110851",
    "prefecture": "静岡県",
    "prefecture_kana": "シズオカケン",
    "prefecture_code": 22,
    "city": "三島市",
    "city_kana": "ミシマシ",
    "town": "日の出町",
    "town_kana": "ヒノデチョウ",
    "street": null,
    "office_name": null,
    "office_name_kana": null
  },
  "0852": {
    "postcode": "4110852",
    "prefecture": "静岡県",
    "prefecture_kana": "シズオカケン",
    "prefecture_code": 22,
    "city": "三島市",
    "city_kana": "ミシマシ",
    "town": "東町",
    "town_kana": "ヒガシチョウ",
    "street": null,
    "office_name": null,
    "office_name_kana": null
  },
  "0853": {
    "postcode": "4110853",
    "prefecture": "静岡県",
    "prefecture_kana": "シズオカケン",
    "prefecture_code": 22,
    "city": "三島市",
    "city_kana": "ミシマシ",
    "town": "大社町",
    "town_kana": "タイシャチョウ",
    "street": null,
    "office_name": null,
    "office_name_kana": null
  },
  "0854": {
    "postcode": "4110854",
    "prefecture": "静岡県",
    "prefecture_kana": "シズオカケン",
    "prefecture_code": 22,
    "city": "三島市",
    "city_kana": "ミシマシ",
    "town": "北田町",
    "town_kana": "キタタマチ",
    "street": null,
    "office_name": null,
    "office_name_kana": null
  },
  "0855": {
    "postcode": "4110855",
    "prefecture": "静岡県",
    "prefecture_kana": "シズオカケン",
    "prefecture_code": 22,
    "city": "三島市",
    "city_kana": "ミシマシ",
    "town": "本町",
    "town_kana": "ホンチョウ",
    "street": null,
    "office_name": null,
    "office_name_kana": null
  },
  "0856": {
    "postcode": "4110856",
    "prefecture": "静岡県",
    "prefecture_kana": "シズオカケン",
    "prefecture_code": 22,
    "city": "三島市",
    "city_kana": "ミシマシ",
    "town": "広小路町",
    "town_kana": "ヒロコウジチョウ",
    "street": null,
    "office_name": null,
    "office_name_kana": null
  },
  "0857": {
    "postcode": "4110857",
    "prefecture": "静岡県",
    "prefecture_kana": "シズオカケン",
    "prefecture_code": 22,
    "city": "三島市",
    "city_kana": "ミシマシ",
    "town": "芝本町",
    "town_kana": "シバホンチョウ",
    "street": null,
    "office_name": null,
    "office_name_kana": null
  },
  "0858": {
    "postcode": "4110858",
    "prefecture": "静岡県",
    "prefecture_kana": "シズオカケン",
    "prefecture_code": 22,
    "city": "三島市",
    "city_kana": "ミシマシ",
    "town": "中央町",
    "town_kana": "チュウオウチョウ",
    "street": null,
    "office_name": null,
    "office_name_kana": null
  },
  "0901": {
    "postcode": "4110901",
    "prefecture": "静岡県",
    "prefecture_kana": "シズオカケン",
    "prefecture_code": 22,
    "city": "駿東郡清水町",
    "city_kana": "スントウグンシミズチョウ",
    "town": "新宿",
    "town_kana": "シンシュク",
    "street": null,
    "office_name": null,
    "office_name_kana": null
  },
  "0902": {
    "postcode": "4110902",
    "prefecture": "静岡県",
    "prefecture_kana": "シズオカケン",
    "prefecture_code": 22,
    "city": "駿東郡清水町",
    "city_kana": "スントウグンシミズチョウ",
    "town": "玉川",
    "town_kana": "タマガワ",
    "street": null,
    "office_name": null,
    "office_name_kana": null
  },
  "0903": {
    "postcode": "4110903",
    "prefecture": "静岡県",
    "prefecture_kana": "シズオカケン",
    "prefecture_code": 22,
    "city": "駿東郡清水町",
    "city_kana": "スントウグンシミズチョウ",
    "town": "堂庭",
    "town_kana": "ドウニワ",
    "street": null,
    "office_name": null,
    "office_name_kana": null
  },
  "0904": {
    "postcode": "4110904",
    "prefecture": "静岡県",
    "prefecture_kana": "シズオカケン",
    "prefecture_code": 22,
    "city": "駿東郡清水町",
    "city_kana": "スントウグンシミズチョウ",
    "town": "柿田",
    "town_kana": "カキダ",
    "street": null,
    "office_name": null,
    "office_name_kana": null
  },
  "0905": {
    "postcode": "4110905",
    "prefecture": "静岡県",
    "prefecture_kana": "シズオカケン",
    "prefecture_code": 22,
    "city": "駿東郡清水町",
    "city_kana": "スントウグンシミズチョウ",
    "town": "長沢",
    "town_kana": "ナガサワ",
    "street": null,
    "office_name": null,
    "office_name_kana": null
  },
  "0906": {
    "postcode": "4110906",
    "prefecture": "静岡県",
    "prefecture_kana": "シズオカケン",
    "prefecture_code": 22,
    "city": "駿東郡清水町",
    "city_kana": "スントウグンシミズチョウ",
    "town": "八幡",
    "town_kana": "ヤハタ",
    "street": null,
    "office_name": null,
    "office_name_kana": null
  },
  "0907": {
    "postcode": "4110907",
    "prefecture": "静岡県",
    "prefecture_kana": "シズオカケン",
    "prefecture_code": 22,
    "city": "駿東郡清水町",
    "city_kana": "スントウグンシミズチョウ",
    "town": "伏見",
    "town_kana": "フシミ",
    "street": null,
    "office_name": null,
    "office_name_kana": null
  },
  "0911": {
    "postcode": "4110911",
    "prefecture": "静岡県",
    "prefecture_kana": "シズオカケン",
    "prefecture_code": 22,
    "city": "駿東郡清水町",
    "city_kana": "スントウグンシミズチョウ",
    "town": "久米田",
    "town_kana": "クマイデン",
    "street": null,
    "office_name": null,
    "office_name_kana": null
  },
  "0912": {
    "postcode": "4110912",
    "prefecture": "静岡県",
    "prefecture_kana": "シズオカケン",
    "prefecture_code": 22,
    "city": "駿東郡清水町",
    "city_kana": "スントウグンシミズチョウ",
    "town": "卸団地",
    "town_kana": "オロシダンチ",
    "street": null,
    "office_name": null,
    "office_name_kana": null
  },
  "0913": {
    "postcode": "4110913",
    "prefecture": "静岡県",
    "prefecture_kana": "シズオカケン",
    "prefecture_code": 22,
    "city": "駿東郡清水町",
    "city_kana": "スントウグンシミズチョウ",
    "town": "戸田",
    "town_kana": "トダ",
    "street": null,
    "office_name": null,
    "office_name_kana": null
  },
  "0914": {
    "postcode": "4110914",
    "prefecture": "静岡県",
    "prefecture_kana": "シズオカケン",
    "prefecture_code": 22,
    "city": "駿東郡清水町",
    "city_kana": "スントウグンシミズチョウ",
    "town": "畑中",
    "town_kana": "ハタケナカ",
    "street": null,
    "office_name": null,
    "office_name_kana": null
  },
  "0915": {
    "postcode": "4110915",
    "prefecture": "静岡県",
    "prefecture_kana": "シズオカケン",
    "prefecture_code": 22,
    "city": "駿東郡清水町",
    "city_kana": "スントウグンシミズチョウ",
    "town": "的場",
    "town_kana": "マトバ",
    "street": null,
    "office_name": null,
    "office_name_kana": null
  },
  "0916": {
    "postcode": "4110916",
    "prefecture": "静岡県",
    "prefecture_kana": "シズオカケン",
    "prefecture_code": 22,
    "city": "駿東郡清水町",
    "city_kana": "スントウグンシミズチョウ",
    "town": "中徳倉",
    "town_kana": "ナカトクラ",
    "street": null,
    "office_name": null,
    "office_name_kana": null
  },
  "0917": [
    {
      "postcode": "4110917",
      "prefecture": "静岡県",
      "prefecture_kana": "シズオカケン",
      "prefecture_code": 22,
      "city": "駿東郡清水町",
      "city_kana": "スントウグンシミズチョウ",
      "town": "徳倉",
      "town_kana": "トクラ",
      "street": null,
      "office_name": null,
      "office_name_kana": null
    },
    {
      "postcode": "4110917",
      "prefecture": "静岡県",
      "prefecture_kana": "シズオカケン",
      "prefecture_code": 22,
      "city": "駿東郡清水町",
      "city_kana": "スントウグンシミズチョウ",
      "town": "徳倉上徳倉",
      "town_kana": "トクラカミトクラ",
      "street": null,
      "office_name": null,
      "office_name_kana": null
    },
    {
      "postcode": "4110917",
      "prefecture": "静岡県",
      "prefecture_kana": "シズオカケン",
      "prefecture_code": 22,
      "city": "駿東郡清水町",
      "city_kana": "スントウグンシミズチョウ",
      "town": "徳倉下徳倉",
      "town_kana": "トクラシモトクラ",
      "street": null,
      "office_name": null,
      "office_name_kana": null
    },
    {
      "postcode": "4110917",
      "prefecture": "静岡県",
      "prefecture_kana": "シズオカケン",
      "prefecture_code": 22,
      "city": "駿東郡清水町",
      "city_kana": "スントウグンシミズチョウ",
      "town": "徳倉外原",
      "town_kana": "トクラソトバラ",
      "street": null,
      "office_name": null,
      "office_name_kana": null
    }
  ],
  "0918": {
    "postcode": "4110918",
    "prefecture": "静岡県",
    "prefecture_kana": "シズオカケン",
    "prefecture_code": 22,
    "city": "駿東郡清水町",
    "city_kana": "スントウグンシミズチョウ",
    "town": "湯川",
    "town_kana": "ユカワ",
    "street": null,
    "office_name": null,
    "office_name_kana": null
  },
  "0931": {
    "postcode": "4110931",
    "prefecture": "静岡県",
    "prefecture_kana": "シズオカケン",
    "prefecture_code": 22,
    "city": "駿東郡長泉町",
    "city_kana": "スントウグンナガイズミチョウ",
    "town": "東野",
    "town_kana": "ヒガシノ",
    "street": null,
    "office_name": null,
    "office_name_kana": null
  },
  "0932": {
    "postcode": "4110932",
    "prefecture": "静岡県",
    "prefecture_kana": "シズオカケン",
    "prefecture_code": 22,
    "city": "駿東郡長泉町",
    "city_kana": "スントウグンナガイズミチョウ",
    "town": "南一色",
    "town_kana": "ミナミイシキ",
    "street": null,
    "office_name": null,
    "office_name_kana": null
  },
  "0933": {
    "postcode": "4110933",
    "prefecture": "静岡県",
    "prefecture_kana": "シズオカケン",
    "prefecture_code": 22,
    "city": "駿東郡長泉町",
    "city_kana": "スントウグンナガイズミチョウ",
    "town": "納米里",
    "town_kana": "ナメリ",
    "street": null,
    "office_name": null,
    "office_name_kana": null
  },
  "0934": {
    "postcode": "4110934",
    "prefecture": "静岡県",
    "prefecture_kana": "シズオカケン",
    "prefecture_code": 22,
    "city": "駿東郡長泉町",
    "city_kana": "スントウグンナガイズミチョウ",
    "town": "下長窪",
    "town_kana": "シモナガクボ",
    "street": null,
    "office_name": null,
    "office_name_kana": null
  },
  "0935": {
    "postcode": "4110935",
    "prefecture": "静岡県",
    "prefecture_kana": "シズオカケン",
    "prefecture_code": 22,
    "city": "駿東郡長泉町",
    "city_kana": "スントウグンナガイズミチョウ",
    "town": "上長窪",
    "town_kana": "カミナガクボ",
    "street": null,
    "office_name": null,
    "office_name_kana": null
  },
  "0936": {
    "postcode": "4110936",
    "prefecture": "静岡県",
    "prefecture_kana": "シズオカケン",
    "prefecture_code": 22,
    "city": "駿東郡長泉町",
    "city_kana": "スントウグンナガイズミチョウ",
    "town": "元長窪",
    "town_kana": "モトナガクボ",
    "street": null,
    "office_name": null,
    "office_name_kana": null
  },
  "0941": {
    "postcode": "4110941",
    "prefecture": "静岡県",
    "prefecture_kana": "シズオカケン",
    "prefecture_code": 22,
    "city": "駿東郡長泉町",
    "city_kana": "スントウグンナガイズミチョウ",
    "town": "上土狩",
    "town_kana": "カミトガリ",
    "street": null,
    "office_name": null,
    "office_name_kana": null
  },
  "0942": {
    "postcode": "4110942",
    "prefecture": "静岡県",
    "prefecture_kana": "シズオカケン",
    "prefecture_code": 22,
    "city": "駿東郡長泉町",
    "city_kana": "スントウグンナガイズミチョウ",
    "town": "中土狩",
    "town_kana": "ナカトガリ",
    "street": null,
    "office_name": null,
    "office_name_kana": null
  },
  "0943": {
    "postcode": "4110943",
    "prefecture": "静岡県",
    "prefecture_kana": "シズオカケン",
    "prefecture_code": 22,
    "city": "駿東郡長泉町",
    "city_kana": "スントウグンナガイズミチョウ",
    "town": "下土狩",
    "town_kana": "シモトガリ",
    "street": null,
    "office_name": null,
    "office_name_kana": null
  },
  "0944": {
    "postcode": "4110944",
    "prefecture": "静岡県",
    "prefecture_kana": "シズオカケン",
    "prefecture_code": 22,
    "city": "駿東郡長泉町",
    "city_kana": "スントウグンナガイズミチョウ",
    "town": "竹原",
    "town_kana": "タケハラ",
    "street": null,
    "office_name": null,
    "office_name_kana": null
  },
  "0945": {
    "postcode": "4110945",
    "prefecture": "静岡県",
    "prefecture_kana": "シズオカケン",
    "prefecture_code": 22,
    "city": "駿東郡長泉町",
    "city_kana": "スントウグンナガイズミチョウ",
    "town": "本宿",
    "town_kana": "ホンジュク",
    "street": null,
    "office_name": null,
    "office_name_kana": null
  },
  "0951": {
    "postcode": "4110951",
    "prefecture": "静岡県",
    "prefecture_kana": "シズオカケン",
    "prefecture_code": 22,
    "city": "駿東郡長泉町",
    "city_kana": "スントウグンナガイズミチョウ",
    "town": "桜堤",
    "town_kana": "サクラヅツミ",
    "street": null,
    "office_name": null,
    "office_name_kana": null
  },
  "8502": {
    "postcode": "4118502",
    "prefecture": "静岡県",
    "prefecture_kana": "シズオカケン",
    "prefecture_code": 22,
    "city": "三島市",
    "city_kana": "ミシマシ",
    "town": "文教町",
    "town_kana": "ブンキョウチョウ",
    "street": "１丁目３−９３",
    "office_name": "静岡県立　静岡中央高等学校　通信制課程　東部キャンパス",
    "office_name_kana": "シズオカケンリツ シズオカチユウオウコウトウガツコウ ツウシンセイカテイ トウブキヤンパス"
  },
  "8510": {
    "postcode": "4118510",
    "prefecture": "静岡県",
    "prefecture_kana": "シズオカケン",
    "prefecture_code": 22,
    "city": "三島市",
    "city_kana": "ミシマシ",
    "town": "松本",
    "town_kana": "マツモト",
    "street": "１３１",
    "office_name": "東栄電機　株式会社",
    "office_name_kana": "トウエイデンキ カブシキガイシヤ"
  },
  "8511": {
    "postcode": "4118511",
    "prefecture": "静岡県",
    "prefecture_kana": "シズオカケン",
    "prefecture_code": 22,
    "city": "三島市",
    "city_kana": "ミシマシ",
    "town": "松本",
    "town_kana": "マツモト",
    "street": "６６",
    "office_name": "オムロン　株式会社　三島事業所",
    "office_name_kana": "オムロン カブシキガイシヤ ミシマジギヨウシヨ"
  },
  "8520": {
    "postcode": "4118520",
    "prefecture": "静岡県",
    "prefecture_kana": "シズオカケン",
    "prefecture_code": 22,
    "city": "三島市",
    "city_kana": "ミシマシ",
    "town": "南町",
    "town_kana": "ミナミチョウ",
    "street": "６−７８",
    "office_name": "東芝テック　株式会社　三島事業所",
    "office_name_kana": "トウシバテツク カブシキガイシヤ ミシマジギヨウシヨ"
  },
  "8525": {
    "postcode": "4118525",
    "prefecture": "静岡県",
    "prefecture_kana": "シズオカケン",
    "prefecture_code": 22,
    "city": "三島市",
    "city_kana": "ミシマシ",
    "town": "松本",
    "town_kana": "マツモト",
    "street": "１８１",
    "office_name": "株式会社　三静工業",
    "office_name_kana": "カブシキガイシヤ サンセイコウギヨウ"
  },
  "8533": {
    "postcode": "4118533",
    "prefecture": "静岡県",
    "prefecture_kana": "シズオカケン",
    "prefecture_code": 22,
    "city": "三島市",
    "city_kana": "ミシマシ",
    "town": "大場",
    "town_kana": "ダイバ",
    "street": "３００",
    "office_name": "伊豆箱根鉄道　株式会社",
    "office_name_kana": "イズハコネテツドウ カブシキガイシヤ"
  },
  "8540": {
    "postcode": "4118540",
    "prefecture": "静岡県",
    "prefecture_kana": "シズオカケン",
    "prefecture_code": 22,
    "city": "三島市",
    "city_kana": "ミシマシ",
    "town": "谷田",
    "town_kana": "ヤタ",
    "street": "１１１１",
    "office_name": "大学共同利用機関法人　情報システム研究機構",
    "office_name_kana": "ダイガクキヨウドウリヨウキカンホウジン ジヨウホウシステムケンキユウキコウ"
  },
  "8541": {
    "postcode": "4118541",
    "prefecture": "静岡県",
    "prefecture_kana": "シズオカケン",
    "prefecture_code": 22,
    "city": "三島市",
    "city_kana": "ミシマシ",
    "town": "谷田",
    "town_kana": "ヤタ",
    "street": "字雪沢１７３−２",
    "office_name": "和興産業　株式会社",
    "office_name_kana": "ワコウサンギヨウ カブシキガイシヤ"
  },
  "8551": {
    "postcode": "4118551",
    "prefecture": "静岡県",
    "prefecture_kana": "シズオカケン",
    "prefecture_code": 22,
    "city": "三島市",
    "city_kana": "ミシマシ",
    "town": "文教町",
    "town_kana": "ブンキョウチョウ",
    "street": "１丁目４−３３",
    "office_name": "三島税務署",
    "office_name_kana": "ミシマゼイムシヨ"
  },
  "8555": {
    "postcode": "4118555",
    "prefecture": "静岡県",
    "prefecture_kana": "シズオカケン",
    "prefecture_code": 22,
    "city": "三島市",
    "city_kana": "ミシマシ",
    "town": "文教町",
    "town_kana": "ブンキョウチョウ",
    "street": "２丁目３１−１４５",
    "office_name": "日本大学　国際関係学部",
    "office_name_kana": "ニホンダイガク コクサイカンケイガクブ"
  },
  "8560": {
    "postcode": "4118560",
    "prefecture": "静岡県",
    "prefecture_kana": "シズオカケン",
    "prefecture_code": 22,
    "city": "三島市",
    "city_kana": "ミシマシ",
    "town": "三好町",
    "town_kana": "ミヨシチョウ",
    "street": "３−２７",
    "office_name": "株式会社　電業社　機械製作所",
    "office_name_kana": "カブシキガイシヤ デンギヨウシヤ キカイセイサクシヨ"
  },
  "8577": {
    "postcode": "4118577",
    "prefecture": "静岡県",
    "prefecture_kana": "シズオカケン",
    "prefecture_code": 22,
    "city": "三島市",
    "city_kana": "ミシマシ",
    "town": "八反畑",
    "town_kana": "ハッタバタ",
    "street": "１１７−１",
    "office_name": "株式会社　鈴木工務店",
    "office_name_kana": "カブシキガイシヤ スズキコウムテン"
  },
  "8588": {
    "postcode": "4118588",
    "prefecture": "静岡県",
    "prefecture_kana": "シズオカケン",
    "prefecture_code": 22,
    "city": "三島市",
    "city_kana": "ミシマシ",
    "town": "文教町",
    "town_kana": "ブンキョウチョウ",
    "street": "１−９−１８",
    "office_name": "日本大学　国際関係学部（三島駅北口校舎）",
    "office_name_kana": "ニホンダイガク コクサイカンケイガクブ(ミシマエキキタグチコウシヤ)"
  },
  "8610": {
    "postcode": "4118610",
    "prefecture": "静岡県",
    "prefecture_kana": "シズオカケン",
    "prefecture_code": 22,
    "city": "駿東郡清水町",
    "city_kana": "スントウグンシミズチョウ",
    "town": "長沢",
    "town_kana": "ナガサワ",
    "street": "１３１−２",
    "office_name": "臼井国際産業　株式会社",
    "office_name_kana": "ウスイコクサイサンギヨウ カブシキガイシヤ"
  },
  "8611": {
    "postcode": "4118611",
    "prefecture": "静岡県",
    "prefecture_kana": "シズオカケン",
    "prefecture_code": 22,
    "city": "駿東郡清水町",
    "city_kana": "スントウグンシミズチョウ",
    "town": "長沢",
    "town_kana": "ナガサワ",
    "street": "７６２−１",
    "office_name": "独立行政法人　国立病院機構　静岡医療センター",
    "office_name_kana": "ドクリツギヨウセイホウジン コクリツビヨウインキコウ シズオカイリヨウセンタ-"
  },
  "8620": {
    "postcode": "4118620",
    "prefecture": "静岡県",
    "prefecture_kana": "シズオカケン",
    "prefecture_code": 22,
    "city": "駿東郡清水町",
    "city_kana": "スントウグンシミズチョウ",
    "town": "卸団地",
    "town_kana": "オロシダンチ",
    "street": "２８１",
    "office_name": "野口アルミ箔加工紙　株式会社",
    "office_name_kana": "ノグチアルミハクカコウシ カブシキガイシヤ"
  },
  "8623": {
    "postcode": "4118623",
    "prefecture": "静岡県",
    "prefecture_kana": "シズオカケン",
    "prefecture_code": 22,
    "city": "駿東郡清水町",
    "city_kana": "スントウグンシミズチョウ",
    "town": "卸団地",
    "town_kana": "オロシダンチ",
    "street": "６７",
    "office_name": "株式会社　大成",
    "office_name_kana": "カブシキガイシヤ タイセイ"
  },
  "8630": {
    "postcode": "4118630",
    "prefecture": "静岡県",
    "prefecture_kana": "シズオカケン",
    "prefecture_code": 22,
    "city": "駿東郡清水町",
    "city_kana": "スントウグンシミズチョウ",
    "town": "伏見",
    "town_kana": "フシミ",
    "street": "字向田３５１",
    "office_name": "近物レックス　株式会社",
    "office_name_kana": "キンブツレツクス カブシキガイシヤ"
  },
  "8641": {
    "postcode": "4118641",
    "prefecture": "静岡県",
    "prefecture_kana": "シズオカケン",
    "prefecture_code": 22,
    "city": "駿東郡清水町",
    "city_kana": "スントウグンシミズチョウ",
    "town": "久米田",
    "town_kana": "クマイデン",
    "street": "１４０−１９",
    "office_name": "フジトク　株式会社",
    "office_name_kana": "フジトク カブシキガイシヤ"
  },
  "8644": {
    "postcode": "4118644",
    "prefecture": "静岡県",
    "prefecture_kana": "シズオカケン",
    "prefecture_code": 22,
    "city": "三島市",
    "city_kana": "ミシマシ",
    "town": "一番町",
    "town_kana": "イチバンチョウ",
    "street": "２−２９",
    "office_name": "三島商工会議所",
    "office_name_kana": "ミシマシヨウコウカイギシヨ"
  },
  "8648": {
    "postcode": "4118648",
    "prefecture": "静岡県",
    "prefecture_kana": "シズオカケン",
    "prefecture_code": 22,
    "city": "三島市",
    "city_kana": "ミシマシ",
    "town": "安久",
    "town_kana": "ヤスヒサ",
    "street": "４３−２",
    "office_name": "明治ケンコーハム　株式会社　三島工場",
    "office_name_kana": "メイジケンコ-ハム カブシキガイシヤ ミシマコウジヨウ"
  },
  "8650": {
    "postcode": "4118650",
    "prefecture": "静岡県",
    "prefecture_kana": "シズオカケン",
    "prefecture_code": 22,
    "city": "駿東郡清水町",
    "city_kana": "スントウグンシミズチョウ",
    "town": "堂庭",
    "town_kana": "ドウニワ",
    "street": "２１０−１（三島郵便局私書箱第７号）",
    "office_name": "清水町役場",
    "office_name_kana": "シミズチヨウヤクバ"
  },
  "8651": {
    "postcode": "4118651",
    "prefecture": "静岡県",
    "prefecture_kana": "シズオカケン",
    "prefecture_code": 22,
    "city": "駿東郡長泉町",
    "city_kana": "スントウグンナガイズミチョウ",
    "town": "下土狩",
    "town_kana": "シモトガリ",
    "street": "９６−３（三島郵便局私書箱第５１号）",
    "office_name": "三島信用金庫",
    "office_name_kana": "ミシマシンヨウキンコ"
  },
  "8652": {
    "postcode": "4118652",
    "prefecture": "静岡県",
    "prefecture_kana": "シズオカケン",
    "prefecture_code": 22,
    "city": "三島市",
    "city_kana": "ミシマシ",
    "town": "",
    "town_kana": "",
    "street": "４８４５（三島郵便局私書箱第３７号）",
    "office_name": "東レ株式会社　三島工場",
    "office_name_kana": "トウレカブシキガイシヤミシマコウジヨウ"
  },
  "8660": {
    "postcode": "4118660",
    "prefecture": "静岡県",
    "prefecture_kana": "シズオカケン",
    "prefecture_code": 22,
    "city": "三島市",
    "city_kana": "ミシマシ",
    "town": "寿町",
    "town_kana": "コトブキチョウ",
    "street": "９−４４（三島郵便局私書箱第３６号）",
    "office_name": "三島社会保険事務所",
    "office_name_kana": "ミシマシヤカイホケンジムシヨ"
  },
  "8666": {
    "postcode": "4118666",
    "prefecture": "静岡県",
    "prefecture_kana": "シズオカケン",
    "prefecture_code": 22,
    "city": "三島市",
    "city_kana": "ミシマシ",
    "town": "北田町",
    "town_kana": "キタタマチ",
    "street": "４−４７（三島郵便局私書箱第３９号）",
    "office_name": "三島市役所",
    "office_name_kana": "ミシマシヤクシヨ"
  },
  "8668": {
    "postcode": "4118668",
    "prefecture": "静岡県",
    "prefecture_kana": "シズオカケン",
    "prefecture_code": 22,
    "city": "駿東郡長泉町",
    "city_kana": "スントウグンナガイズミチョウ",
    "town": "中土狩",
    "town_kana": "ナカトガリ",
    "street": "８２８（三島郵便局私書箱第５４号）",
    "office_name": "長泉町役場",
    "office_name_kana": "ナガイズチヨウヤクバ"
  },
  "8689": {
    "postcode": "4118689",
    "prefecture": "静岡県",
    "prefecture_kana": "シズオカケン",
    "prefecture_code": 22,
    "city": "駿東郡長泉町",
    "city_kana": "スントウグンナガイズミチョウ",
    "town": "",
    "town_kana": "",
    "street": "スルガ平５００",
    "office_name": "株式会社　駿河銀行",
    "office_name_kana": "カブシキガイシヤ スルガギンコウ"
  },
  "8720": {
    "postcode": "4118720",
    "prefecture": "静岡県",
    "prefecture_kana": "シズオカケン",
    "prefecture_code": 22,
    "city": "駿東郡長泉町",
    "city_kana": "スントウグンナガイズミチョウ",
    "town": "上土狩",
    "town_kana": "カミトガリ",
    "street": "２３４",
    "office_name": "東邦テナックス　株式会社　三島事業所",
    "office_name_kana": "トウホウテナツクス カブシキガイシヤ ミシマジギヨウシヨ"
  },
  "8722": {
    "postcode": "4118722",
    "prefecture": "静岡県",
    "prefecture_kana": "シズオカケン",
    "prefecture_code": 22,
    "city": "駿東郡長泉町",
    "city_kana": "スントウグンナガイズミチョウ",
    "town": "上土狩",
    "town_kana": "カミトガリ",
    "street": "６９５",
    "office_name": "岳南光機　株式会社",
    "office_name_kana": "ガクナンコウキ カブシキガイシヤ"
  },
  "8725": {
    "postcode": "4118725",
    "prefecture": "静岡県",
    "prefecture_kana": "シズオカケン",
    "prefecture_code": 22,
    "city": "駿東郡長泉町",
    "city_kana": "スントウグンナガイズミチョウ",
    "town": "上土狩",
    "town_kana": "カミトガリ",
    "street": "字奥原７１６",
    "office_name": "株式会社　共和工機",
    "office_name_kana": "カブシキガイシヤ キヨウワコウキ"
  },
  "8730": {
    "postcode": "4118730",
    "prefecture": "静岡県",
    "prefecture_kana": "シズオカケン",
    "prefecture_code": 22,
    "city": "駿東郡長泉町",
    "city_kana": "スントウグンナガイズミチョウ",
    "town": "下土狩",
    "town_kana": "シモトガリ",
    "street": "８４０",
    "office_name": "株式会社　不二精機製造所",
    "office_name_kana": "カブシキガイシヤ フジセイキセイゾウシヨ"
  },
  "8731": {
    "postcode": "4118731",
    "prefecture": "静岡県",
    "prefecture_kana": "シズオカケン",
    "prefecture_code": 22,
    "city": "駿東郡長泉町",
    "city_kana": "スントウグンナガイズミチョウ",
    "town": "下土狩",
    "town_kana": "シモトガリ",
    "street": "１１８８",
    "office_name": "協和発酵工業　株式会社　富士工場",
    "office_name_kana": "キヨウワハツコウコウギヨウ カブシキガイシヤ フジコウジヨウ"
  },
  "8740": {
    "postcode": "4118740",
    "prefecture": "静岡県",
    "prefecture_kana": "シズオカケン",
    "prefecture_code": 22,
    "city": "駿東郡長泉町",
    "city_kana": "スントウグンナガイズミチョウ",
    "town": "竹原",
    "town_kana": "タケハラ",
    "street": "３８３−９",
    "office_name": "ハックキミサワ",
    "office_name_kana": "ハツクキミサワ"
  },
  "8750": {
    "postcode": "4118750",
    "prefecture": "静岡県",
    "prefecture_kana": "シズオカケン",
    "prefecture_code": 22,
    "city": "駿東郡長泉町",
    "city_kana": "スントウグンナガイズミチョウ",
    "town": "本宿",
    "town_kana": "ホンジュク",
    "street": "５０１",
    "office_name": "特種製紙",
    "office_name_kana": "トクシユセイシ"
  },
  "8777": {
    "postcode": "4118777",
    "prefecture": "静岡県",
    "prefecture_kana": "シズオカケン",
    "prefecture_code": 22,
    "city": "駿東郡長泉町",
    "city_kana": "スントウグンナガイズミチョウ",
    "town": "下長窪",
    "town_kana": "シモナガクボ",
    "street": "１００７",
    "office_name": "静岡県立　静岡がんセンター",
    "office_name_kana": "シズオカケンリツ シズオカガンセンタ-"
  },
  "8787": {
    "postcode": "4118787",
    "prefecture": "静岡県",
    "prefecture_kana": "シズオカケン",
    "prefecture_code": 22,
    "city": "三島市",
    "city_kana": "ミシマシ",
    "town": "大宮町",
    "town_kana": "オオミヤチョウ",
    "street": "３−７−３３",
    "office_name": "順天堂大学　保健看護学部",
    "office_name_kana": "ジユンテンドウダイガク ホケンカンゴガクブ"
  }
}