{
  "0000": {
    "postcode": "4130000",
    "prefecture": "静岡県",
    "prefecture_kana": "シズオカケン",
    "prefecture_code": 22,
    "city": "熱海市",
    "city_kana": "アタミシ",
    "town": "",
    "town_kana": "",
    "street": null,
    "office_name": null,
    "office_name_kana": null
  },
  "0001": {
    "postcode": "4130001",
    "prefecture": "静岡県",
    "prefecture_kana": "シズオカケン",
    "prefecture_code": 22,
    "city": "熱海市",
    "city_kana": "アタミシ",
    "town": "泉",
    "town_kana": "イズミ",
    "street": null,
    "office_name": null,
    "office_name_kana": null
  },
  "0002": {
    "postcode": "4130002",
    "prefecture": "静岡県",
    "prefecture_kana": "シズオカケン",
    "prefecture_code": 22,
    "city": "熱海市",
    "city_kana": "アタミシ",
    "town": "伊豆山",
    "town_kana": "イズサン",
    "street": null,
    "office_name": null,
    "office_name_kana": null
  },
  "0003": {
    "postcode": "4130003",
    "prefecture": "静岡県",
    "prefecture_kana": "シズオカケン",
    "prefecture_code": 22,
    "city": "熱海市",
    "city_kana": "アタミシ",
    "town": "海光町",
    "town_kana": "カイコウチョウ",
    "street": null,
    "office_name": null,
    "office_name_kana": null
  },
  "0004": {
    "postcode": "4130004",
    "prefecture": "静岡県",
    "prefecture_kana": "シズオカケン",
    "prefecture_code": 22,
    "city": "熱海市",
    "city_kana": "アタミシ",
    "town": "初島",
    "town_kana": "ハツシマ",
    "street": null,
    "office_name": null,
    "office_name_kana": null
  },
  "0005": {
    "postcode": "4130005",
    "prefecture": "静岡県",
    "prefecture_kana": "シズオカケン",
    "prefecture_code": 22,
    "city": "熱海市",
    "city_kana": "アタミシ",
    "town": "春日町",
    "town_kana": "カスガチョウ",
    "street": null,
    "office_name": null,
    "office_name_kana": null
  },
  "0006": {
    "postcode": "4130006",
    "prefecture": "静岡県",
    "prefecture_kana": "シズオカケン",
    "prefecture_code": 22,
    "city": "熱海市",
    "city_kana": "アタミシ",
    "town": "桃山町",
    "town_kana": "モモヤマチョウ",
    "street": null,
    "office_name": null,
    "office_name_kana": null
  },
  "0011": {
    "postcode": "4130011",
    "prefecture": "静岡県",
    "prefecture_kana": "シズオカケン",
    "prefecture_code": 22,
    "city": "熱海市",
    "city_kana": "アタミシ",
    "town": "田原本町",
    "town_kana": "タハラホンチョウ",
    "street": null,
    "office_name": null,
    "office_name_kana": null
  },
  "0012": {
    "postcode": "4130012",
    "prefecture": "静岡県",
    "prefecture_kana": "シズオカケン",
    "prefecture_code": 22,
    "city": "熱海市",
    "city_kana": "アタミシ",
    "town": "東海岸町",
    "town_kana": "ヒガシカイガンチョウ",
    "street": null,
    "office_name": null,
    "office_name_kana": null
  },
  "0013": {
    "postcode": "4130013",
    "prefecture": "静岡県",
    "prefecture_kana": "シズオカケン",
    "prefecture_code": 22,
    "city": "熱海市",
    "city_kana": "アタミシ",
    "town": "銀座町",
    "town_kana": "ギンザチョウ",
    "street": null,
    "office_name": null,
    "office_name_kana": null
  },
  "0014": {
    "postcode": "4130014",
    "prefecture": "静岡県",
    "prefecture_kana": "シズオカケン",
    "prefecture_code": 22,
    "city": "熱海市",
    "city_kana": "アタミシ",
    "town": "渚町",
    "town_kana": "ナギサチョウ",
    "street": null,
    "office_name": null,
    "office_name_kana": null
  },
  "0015": {
    "postcode": "4130015",
    "prefecture": "静岡県",
    "prefecture_kana": "シズオカケン",
    "prefecture_code": 22,
    "city": "熱海市",
    "city_kana": "アタミシ",
    "town": "中央町",
    "town_kana": "チュウオウチョウ",
    "street": null,
    "office_name": null,
    "office_name_kana": null
  },
  "0016": {
    "postcode": "4130016",
    "prefecture": "静岡県",
    "prefecture_kana": "シズオカケン",
    "prefecture_code": 22,
    "city": "熱海市",
    "city_kana": "アタミシ",
    "town": "水口町",
    "town_kana": "ミナグチチョウ",
    "street": null,
    "office_name": null,
    "office_name_kana": null
  },
  "0017": {
    "postcode": "4130017",
    "prefecture": "静岡県",
    "prefecture_kana": "シズオカケン",
    "prefecture_code": 22,
    "city": "熱海市",
    "city_kana": "アタミシ",
    "town": "福道町",
    "town_kana": "フクミチチョウ",
    "street": null,
    "office_name": null,
    "office_name_kana": null
  },
  "0018": {
    "postcode": "4130018",
    "prefecture": "静岡県",
    "prefecture_kana": "シズオカケン",
    "prefecture_code": 22,
    "city": "熱海市",
    "city_kana": "アタミシ",
    "town": "上宿町",
    "town_kana": "カミジュクチョウ",
    "street": null,
    "office_name": null,
    "office_name_kana": null
  },
  "0019": {
    "postcode": "4130019",
    "prefecture": "静岡県",
    "prefecture_kana": "シズオカケン",
    "prefecture_code": 22,
    "city": "熱海市",
    "city_kana": "アタミシ",
    "town": "咲見町",
    "town_kana": "サキミチョウ",
    "street": null,
    "office_name": null,
    "office_name_kana": null
  },
  "0021": {
    "postcode": "4130021",
    "prefecture": "静岡県",
    "prefecture_kana": "シズオカケン",
    "prefecture_code": 22,
    "city": "熱海市",
    "city_kana": "アタミシ",
    "town": "清水町",
    "town_kana": "シミズチョウ",
    "street": null,
    "office_name": null,
    "office_name_kana": null
  },
  "0022": {
    "postcode": "4130022",
    "prefecture": "静岡県",
    "prefecture_kana": "シズオカケン",
    "prefecture_code": 22,
    "city": "熱海市",
    "city_kana": "アタミシ",
    "town": "昭和町",
    "town_kana": "ショウワチョウ",
    "street": null,
    "office_name": null,
    "office_name_kana": null
  },
  "0023": {
    "postcode": "4130023",
    "prefecture": "静岡県",
    "prefecture_kana": "シズオカケン",
    "prefecture_code": 22,
    "city": "熱海市",
    "city_kana": "アタミシ",
    "town": "和田浜南町",
    "town_kana": "ワダハマミナミチョウ",
    "street": null,
    "office_name": null,
    "office_name_kana": null
  },
  "0024": {
    "postcode": "4130024",
    "prefecture": "静岡県",
    "prefecture_kana": "シズオカケン",
    "prefecture_code": 22,
    "city": "熱海市",
    "city_kana": "アタミシ",
    "town": "和田町",
    "town_kana": "ワダチョウ",
    "street": null,
    "office_name": null,
    "office_name_kana": null
  },
  "0025": {
    "postcode": "4130025",
    "prefecture": "静岡県",
    "prefecture_kana": "シズオカケン",
    "prefecture_code": 22,
    "city": "熱海市",
    "city_kana": "アタミシ",
    "town": "桜木町",
    "town_kana": "サクラギチョウ",
    "street": null,
    "office_name": null,
    "office_name_kana": null
  },
  "0026": {
    "postcode": "4130026",
    "prefecture": "静岡県",
    "prefecture_kana": "シズオカケン",
    "prefecture_code": 22,
    "city": "熱海市",
    "city_kana": "アタミシ",
    "town": "梅花町",
    "town_kana": "バイカチョウ",
    "street": null,
    "office_name": null,
    "office_name_kana": null
  },
  "0027": {
    "postcode": "4130027",
    "prefecture": "静岡県",
    "prefecture_kana": "シズオカケン",
    "prefecture_code": 22,
    "city": "熱海市",
    "city_kana": "アタミシ",
    "town": "紅葉ガ丘町",
    "town_kana": "モミジガオカチョウ",
    "street": null,
    "office_name": null,
    "office_name_kana": null
  },
  "0028": {
    "postcode": "4130028",
    "prefecture": "静岡県",
    "prefecture_kana": "シズオカケン",
    "prefecture_code": 22,
    "city": "熱海市",
    "city_kana": "アタミシ",
    "town": "桜町",
    "town_kana": "サクラチョウ",
    "street": null,
    "office_name": null,
    "office_name_kana": null
  },
  "0029": {
    "postcode": "4130029",
    "prefecture": "静岡県",
    "prefecture_kana": "シズオカケン",
    "prefecture_code": 22,
    "city": "熱海市",
    "city_kana": "アタミシ",
    "town": "小嵐町",
    "town_kana": "コアラシチョウ",
    "street": null,
    "office_name": null,
    "office_name_kana": null
  },
  "0031": {
    "postcode": "4130031",
    "prefecture": "静岡県",
    "prefecture_kana": "シズオカケン",
    "prefecture_code": 22,
    "city": "熱海市",
    "city_kana": "アタミシ",
    "town": "林ガ丘町",
    "town_kana": "ハヤシガオカチョウ",
    "street": null,
    "office_name": null,
    "office_name_kana": null
  },
  "0032": {
    "postcode": "4130032",
    "prefecture": "静岡県",
    "prefecture_kana": "シズオカケン",
    "prefecture_code": 22,
    "city": "熱海市",
    "city_kana": "アタミシ",
    "town": "梅園町",
    "town_kana": "バイエンチョウ",
    "street": null,
    "office_name": null,
    "office_name_kana": null
  },
  "0033": {
    "postcode": "4130033",
    "prefecture": "静岡県",
    "prefecture_kana": "シズオカケン",
    "prefecture_code": 22,
    "city": "熱海市",
    "city_kana": "アタミシ",
    "town": "熱海",
    "town_kana": "アタミ",
    "street": null,
    "office_name": null,
    "office_name_kana": null
  },
  "0034": {
    "postcode": "4130034",
    "prefecture": "静岡県",
    "prefecture_kana": "シズオカケン",
    "prefecture_code": 22,
    "city": "熱海市",
    "city_kana": "アタミシ",
    "town": "西山町",
    "town_kana": "ニシヤマチョウ",
    "street": null,
    "office_name": null,
    "office_name_kana": null
  },
  "0035": {
    "postcode": "4130035",
    "prefecture": "静岡県",
    "prefecture_kana": "シズオカケン",
    "prefecture_code": 22,
    "city": "熱海市",
    "city_kana": "アタミシ",
    "town": "緑ガ丘町",
    "town_kana": "ミドリガオカチョウ",
    "street": null,
    "office_name": null,
    "office_name_kana": null
  },
  "0036": {
    "postcode": "4130036",
    "prefecture": "静岡県",
    "prefecture_kana": "シズオカケン",
    "prefecture_code": 22,
    "city": "熱海市",
    "city_kana": "アタミシ",
    "town": "日金町",
    "town_kana": "ヒガネチョウ",
    "street": null,
    "office_name": null,
    "office_name_kana": null
  },
  "0037": {
    "postcode": "4130037",
    "prefecture": "静岡県",
    "prefecture_kana": "シズオカケン",
    "prefecture_code": 22,
    "city": "熱海市",
    "city_kana": "アタミシ",
    "town": "笹良ケ台町",
    "town_kana": "ササラガダイチョウ",
    "street": null,
    "office_name": null,
    "office_name_kana": null
  },
  "0038": {
    "postcode": "4130038",
    "prefecture": "静岡県",
    "prefecture_kana": "シズオカケン",
    "prefecture_code": 22,
    "city": "熱海市",
    "city_kana": "アタミシ",
    "town": "西熱海町",
    "town_kana": "ニシアタミチョウ",
    "street": null,
    "office_name": null,
    "office_name_kana": null
  },
  "0039": {
    "postcode": "4130039",
    "prefecture": "静岡県",
    "prefecture_kana": "シズオカケン",
    "prefecture_code": 22,
    "city": "熱海市",
    "city_kana": "アタミシ",
    "town": "相の原町",
    "town_kana": "アイノハラチョウ",
    "street": null,
    "office_name": null,
    "office_name_kana": null
  },
  "0041": {
    "postcode": "4130041",
    "prefecture": "静岡県",
    "prefecture_kana": "シズオカケン",
    "prefecture_code": 22,
    "city": "熱海市",
    "city_kana": "アタミシ",
    "town": "青葉町",
    "town_kana": "アオバチョウ",
    "street": null,
    "office_name": null,
    "office_name_kana": null
  },
  "0042": {
    "postcode": "4130042",
    "prefecture": "静岡県",
    "prefecture_kana": "シズオカケン",
    "prefecture_code": 22,
    "city": "熱海市",
    "city_kana": "アタミシ",
    "town": "山手町",
    "town_kana": "ヤマテチョウ",
    "street": null,
    "office_name": null,
    "office_name_kana": null
  },
  "0101": {
    "postcode": "4130101",
    "prefecture": "静岡県",
    "prefecture_kana": "シズオカケン",
    "prefecture_code": 22,
    "city": "熱海市",
    "city_kana": "アタミシ",
    "town": "上多賀",
    "town_kana": "カミタガ",
    "street": null,
    "office_name": null,
    "office_name_kana": null
  },
  "0102": {
    "postcode": "4130102",
    "prefecture": "静岡県",
    "prefecture_kana": "シズオカケン",
    "prefecture_code": 22,
    "city": "熱海市",
    "city_kana": "アタミシ",
    "town": "下多賀",
    "town_kana": "シモタガ",
    "street": null,
    "office_name": null,
    "office_name_kana": null
  },
  "0103": {
    "postcode": "4130103",
    "prefecture": "静岡県",
    "prefecture_kana": "シズオカケン",
    "prefecture_code": 22,
    "city": "熱海市",
    "city_kana": "アタミシ",
    "town": "網代",
    "town_kana": "アジロ",
    "street": null,
    "office_name": null,
    "office_name_kana": null
  },
  "0111": {
    "postcode": "4130111",
    "prefecture": "静岡県",
    "prefecture_kana": "シズオカケン",
    "prefecture_code": 22,
    "city": "伊東市",
    "city_kana": "イトウシ",
    "town": "グリーンヒル別荘地",
    "town_kana": "グリーンヒルベツソウチ",
    "street": null,
    "office_name": null,
    "office_name_kana": null
  },
  "0196": {
    "postcode": "4130196",
    "prefecture": "静岡県",
    "prefecture_kana": "シズオカケン",
    "prefecture_code": 22,
    "city": "熱海市",
    "city_kana": "アタミシ",
    "town": "網代",
    "town_kana": "アジロ",
    "street": "４００−１",
    "office_name": "株式会社　間瀬",
    "office_name_kana": "カブシキガイシヤ マセ"
  },
  "0231": {
    "postcode": "4130231",
    "prefecture": "静岡県",
    "prefecture_kana": "シズオカケン",
    "prefecture_code": 22,
    "city": "伊東市",
    "city_kana": "イトウシ",
    "town": "富戸",
    "town_kana": "フト",
    "street": null,
    "office_name": null,
    "office_name_kana": null
  },
  "0232": {
    "postcode": "4130232",
    "prefecture": "静岡県",
    "prefecture_kana": "シズオカケン",
    "prefecture_code": 22,
    "city": "伊東市",
    "city_kana": "イトウシ",
    "town": "八幡野",
    "town_kana": "ヤワタノ",
    "street": null,
    "office_name": null,
    "office_name_kana": null
  },
  "0233": {
    "postcode": "4130233",
    "prefecture": "静岡県",
    "prefecture_kana": "シズオカケン",
    "prefecture_code": 22,
    "city": "伊東市",
    "city_kana": "イトウシ",
    "town": "赤沢",
    "town_kana": "アカザワ",
    "street": null,
    "office_name": null,
    "office_name_kana": null
  },
  "0234": {
    "postcode": "4130234",
    "prefecture": "静岡県",
    "prefecture_kana": "シズオカケン",
    "prefecture_code": 22,
    "city": "伊東市",
    "city_kana": "イトウシ",
    "town": "池",
    "town_kana": "イケ",
    "street": null,
    "office_name": null,
    "office_name_kana": null
  },
  "0235": {
    "postcode": "4130235",
    "prefecture": "静岡県",
    "prefecture_kana": "シズオカケン",
    "prefecture_code": 22,
    "city": "伊東市",
    "city_kana": "イトウシ",
    "town": "大室高原",
    "town_kana": "オオムロコウゲン",
    "street": null,
    "office_name": null,
    "office_name_kana": null
  },
  "0292": {
    "postcode": "4130292",
    "prefecture": "静岡県",
    "prefecture_kana": "シズオカケン",
    "prefecture_code": 22,
    "city": "伊東市",
    "city_kana": "イトウシ",
    "town": "八幡野",
    "town_kana": "ヤワタノ",
    "street": "１１５１",
    "office_name": "伊豆急行　株式会社",
    "office_name_kana": "イズキユウコウ カブシキガイシヤ"
  },
  "0293": {
    "postcode": "4130293",
    "prefecture": "静岡県",
    "prefecture_kana": "シズオカケン",
    "prefecture_code": 22,
    "city": "伊東市",
    "city_kana": "イトウシ",
    "town": "八幡野",
    "town_kana": "ヤワタノ",
    "street": "１０２７",
    "office_name": "伊豆高原ゆうゆうの里",
    "office_name_kana": "イズコウゲンユウユウノサト"
  },
  "0298": {
    "postcode": "4130298",
    "prefecture": "静岡県",
    "prefecture_kana": "シズオカケン",
    "prefecture_code": 22,
    "city": "伊東市",
    "city_kana": "イトウシ",
    "town": "八幡野",
    "town_kana": "ヤワタノ",
    "street": "１１５１番地",
    "office_name": "株式会社　伊豆急コミュニティー",
    "office_name_kana": "カブシキカイシヤ イズキユウコミユニテイ-"
  },
  "0300": {
    "postcode": "4130300",
    "prefecture": "静岡県",
    "prefecture_kana": "シズオカケン",
    "prefecture_code": 22,
    "city": "賀茂郡東伊豆町",
    "city_kana": "カモグンヒガシイズチョウ",
    "town": "",
    "town_kana": "",
    "street": null,
    "office_name": null,
    "office_name_kana": null
  },
  "0301": {
    "postcode": "4130301",
    "prefecture": "静岡県",
    "prefecture_kana": "シズオカケン",
    "prefecture_code": 22,
    "city": "賀茂郡東伊豆町",
    "city_kana": "カモグンヒガシイズチョウ",
    "town": "大川",
    "town_kana": "オオカワ",
    "street": null,
    "office_name": null,
    "office_name_kana": null
  },
  "0302": [
    {
      "postcode": "4130302",
      "prefecture": "静岡県",
      "prefecture_kana": "シズオカケン",
      "prefecture_code": 22,
      "city": "賀茂郡東伊豆町",
      "city_kana": "カモグンヒガシイズチョウ",
      "town": "奈良本",
      "town_kana": "ナラモト",
      "street": null,
      "office_name": null,
      "office_name_kana": null
    },
    {
      "postcode": "4130302",
      "prefecture": "静岡県",
      "prefecture_kana": "シズオカケン",
      "prefecture_code": 22,
      "city": "賀茂郡東伊豆町",
      "city_kana": "カモグンヒガシイズチョウ",
      "town": "北川",
      "town_kana": "ホツカワ",
      "street": null,
      "office_name": null,
      "office_name_kana": null
    }
  ],
  "0303": {
    "postcode": "4130303",
    "prefecture": "静岡県",
    "prefecture_kana": "シズオカケン",
    "prefecture_code": 22,
    "city": "賀茂郡東伊豆町",
    "city_kana": "カモグンヒガシイズチョウ",
    "town": "片瀬",
    "town_kana": "カタセ",
    "street": null,
    "office_name": null,
    "office_name_kana": null
  },
  "0304": {
    "postcode": "4130304",
    "prefecture": "静岡県",
    "prefecture_kana": "シズオカケン",
    "prefecture_code": 22,
    "city": "賀茂郡東伊豆町",
    "city_kana": "カモグンヒガシイズチョウ",
    "town": "白田",
    "town_kana": "シラタ",
    "street": null,
    "office_name": null,
    "office_name_kana": null
  },
  "0411": {
    "postcode": "4130411",
    "prefecture": "静岡県",
    "prefecture_kana": "シズオカケン",
    "prefecture_code": 22,
    "city": "賀茂郡東伊豆町",
    "city_kana": "カモグンヒガシイズチョウ",
    "town": "稲取",
    "town_kana": "イナトリ",
    "street": null,
    "office_name": null,
    "office_name_kana": null
  },
  "0492": {
    "postcode": "4130492",
    "prefecture": "静岡県",
    "prefecture_kana": "シズオカケン",
    "prefecture_code": 22,
    "city": "賀茂郡東伊豆町",
    "city_kana": "カモグンヒガシイズチョウ",
    "town": "稲取",
    "town_kana": "イナトリ",
    "street": "１６２４−１",
    "office_name": "ホテル銀水荘",
    "office_name_kana": "ホテルギンスイソウ"
  },
  "0493": {
    "postcode": "4130493",
    "prefecture": "静岡県",
    "prefecture_kana": "シズオカケン",
    "prefecture_code": 22,
    "city": "賀茂郡東伊豆町",
    "city_kana": "カモグンヒガシイズチョウ",
    "town": "稲取",
    "town_kana": "イナトリ",
    "street": "２１８５−１",
    "office_name": "株式会社　徳造丸",
    "office_name_kana": "カブシキガイシヤ トクゾウマル"
  },
  "0500": {
    "postcode": "4130500",
    "prefecture": "静岡県",
    "prefecture_kana": "シズオカケン",
    "prefecture_code": 22,
    "city": "賀茂郡河津町",
    "city_kana": "カモグンカワヅチョウ",
    "town": "",
    "town_kana": "",
    "street": null,
    "office_name": null,
    "office_name_kana": null
  },
  "0501": {
    "postcode": "4130501",
    "prefecture": "静岡県",
    "prefecture_kana": "シズオカケン",
    "prefecture_code": 22,
    "city": "賀茂郡河津町",
    "city_kana": "カモグンカワヅチョウ",
    "town": "梨本",
    "town_kana": "ナシモト",
    "street": null,
    "office_name": null,
    "office_name_kana": null
  },
  "0502": {
    "postcode": "4130502",
    "prefecture": "静岡県",
    "prefecture_kana": "シズオカケン",
    "prefecture_code": 22,
    "city": "賀茂郡河津町",
    "city_kana": "カモグンカワヅチョウ",
    "town": "川津筏場",
    "town_kana": "カワヅイカダバ",
    "street": null,
    "office_name": null,
    "office_name_kana": null
  },
  "0503": {
    "postcode": "4130503",
    "prefecture": "静岡県",
    "prefecture_kana": "シズオカケン",
    "prefecture_code": 22,
    "city": "賀茂郡河津町",
    "city_kana": "カモグンカワヅチョウ",
    "town": "見高",
    "town_kana": "ミダカ",
    "street": null,
    "office_name": null,
    "office_name_kana": null
  },
  "0504": {
    "postcode": "4130504",
    "prefecture": "静岡県",
    "prefecture_kana": "シズオカケン",
    "prefecture_code": 22,
    "city": "賀茂郡河津町",
    "city_kana": "カモグンカワヅチョウ",
    "town": "田中",
    "town_kana": "タナカ",
    "street": null,
    "office_name": null,
    "office_name_kana": null
  },
  "0505": {
    "postcode": "4130505",
    "prefecture": "静岡県",
    "prefecture_kana": "シズオカケン",
    "prefecture_code": 22,
    "city": "賀茂郡河津町",
    "city_kana": "カモグンカワヅチョウ",
    "town": "沢田",
    "town_kana": "サワダ",
    "street": null,
    "office_name": null,
    "office_name_kana": null
  },
  "0506": {
    "postcode": "4130506",
    "prefecture": "静岡県",
    "prefecture_kana": "シズオカケン",
    "prefecture_code": 22,
    "city": "賀茂郡河津町",
    "city_kana": "カモグンカワヅチョウ",
    "town": "下佐ケ野",
    "town_kana": "シモサガノ",
    "street": null,
    "office_name": null,
    "office_name_kana": null
  },
  "0507": {
    "postcode": "4130507",
    "prefecture": "静岡県",
    "prefecture_kana": "シズオカケン",
    "prefecture_code": 22,
    "city": "賀茂郡河津町",
    "city_kana": "カモグンカワヅチョウ",
    "town": "湯ケ野",
    "town_kana": "ユガノ",
    "street": null,
    "office_name": null,
    "office_name_kana": null
  },
  "0508": {
    "postcode": "4130508",
    "prefecture": "静岡県",
    "prefecture_kana": "シズオカケン",
    "prefecture_code": 22,
    "city": "賀茂郡河津町",
    "city_kana": "カモグンカワヅチョウ",
    "town": "小鍋",
    "town_kana": "コナベ",
    "street": null,
    "office_name": null,
    "office_name_kana": null
  },
  "0509": {
    "postcode": "4130509",
    "prefecture": "静岡県",
    "prefecture_kana": "シズオカケン",
    "prefecture_code": 22,
    "city": "賀茂郡河津町",
    "city_kana": "カモグンカワヅチョウ",
    "town": "大鍋",
    "town_kana": "オオナベ",
    "street": null,
    "office_name": null,
    "office_name_kana": null
  },
  "0511": {
    "postcode": "4130511",
    "prefecture": "静岡県",
    "prefecture_kana": "シズオカケン",
    "prefecture_code": 22,
    "city": "賀茂郡河津町",
    "city_kana": "カモグンカワヅチョウ",
    "town": "峰",
    "town_kana": "ミネ",
    "street": null,
    "office_name": null,
    "office_name_kana": null
  },
  "0512": {
    "postcode": "4130512",
    "prefecture": "静岡県",
    "prefecture_kana": "シズオカケン",
    "prefecture_code": 22,
    "city": "賀茂郡河津町",
    "city_kana": "カモグンカワヅチョウ",
    "town": "笹原",
    "town_kana": "ササハラ",
    "street": null,
    "office_name": null,
    "office_name_kana": null
  },
  "0513": {
    "postcode": "4130513",
    "prefecture": "静岡県",
    "prefecture_kana": "シズオカケン",
    "prefecture_code": 22,
    "city": "賀茂郡河津町",
    "city_kana": "カモグンカワヅチョウ",
    "town": "浜",
    "town_kana": "ハマ",
    "street": null,
    "office_name": null,
    "office_name_kana": null
  },
  "0514": {
    "postcode": "4130514",
    "prefecture": "静岡県",
    "prefecture_kana": "シズオカケン",
    "prefecture_code": 22,
    "city": "賀茂郡河津町",
    "city_kana": "カモグンカワヅチョウ",
    "town": "縄地",
    "town_kana": "ナワジ",
    "street": null,
    "office_name": null,
    "office_name_kana": null
  },
  "0515": {
    "postcode": "4130515",
    "prefecture": "静岡県",
    "prefecture_kana": "シズオカケン",
    "prefecture_code": 22,
    "city": "賀茂郡河津町",
    "city_kana": "カモグンカワヅチョウ",
    "town": "谷津",
    "town_kana": "ヤツ",
    "street": null,
    "office_name": null,
    "office_name_kana": null
  },
  "0516": {
    "postcode": "4130516",
    "prefecture": "静岡県",
    "prefecture_kana": "シズオカケン",
    "prefecture_code": 22,
    "city": "賀茂郡河津町",
    "city_kana": "カモグンカワヅチョウ",
    "town": "逆川",
    "town_kana": "サカサガワ",
    "street": null,
    "office_name": null,
    "office_name_kana": null
  },
  "0701": {
    "postcode": "4130701",
    "prefecture": "静岡県",
    "prefecture_kana": "シズオカケン",
    "prefecture_code": 22,
    "city": "下田市",
    "city_kana": "シモダシ",
    "town": "落合",
    "town_kana": "オチアイ",
    "street": null,
    "office_name": null,
    "office_name_kana": null
  },
  "0702": {
    "postcode": "4130702",
    "prefecture": "静岡県",
    "prefecture_kana": "シズオカケン",
    "prefecture_code": 22,
    "city": "下田市",
    "city_kana": "シモダシ",
    "town": "堀之内",
    "town_kana": "ホリノウチ",
    "street": null,
    "office_name": null,
    "office_name_kana": null
  },
  "0703": {
    "postcode": "4130703",
    "prefecture": "静岡県",
    "prefecture_kana": "シズオカケン",
    "prefecture_code": 22,
    "city": "下田市",
    "city_kana": "シモダシ",
    "town": "荒増",
    "town_kana": "アラゾウ",
    "street": null,
    "office_name": null,
    "office_name_kana": null
  },
  "0704": {
    "postcode": "4130704",
    "prefecture": "静岡県",
    "prefecture_kana": "シズオカケン",
    "prefecture_code": 22,
    "city": "下田市",
    "city_kana": "シモダシ",
    "town": "椎原",
    "town_kana": "シイバラ",
    "street": null,
    "office_name": null,
    "office_name_kana": null
  },
  "0705": {
    "postcode": "4130705",
    "prefecture": "静岡県",
    "prefecture_kana": "シズオカケン",
    "prefecture_code": 22,
    "city": "下田市",
    "city_kana": "シモダシ",
    "town": "箕作",
    "town_kana": "ミツクリ",
    "street": null,
    "office_name": null,
    "office_name_kana": null
  },
  "0711": {
    "postcode": "4130711",
    "prefecture": "静岡県",
    "prefecture_kana": "シズオカケン",
    "prefecture_code": 22,
    "city": "下田市",
    "city_kana": "シモダシ",
    "town": "相玉",
    "town_kana": "アイタマ",
    "street": null,
    "office_name": null,
    "office_name_kana": null
  },
  "0712": {
    "postcode": "4130712",
    "prefecture": "静岡県",
    "prefecture_kana": "シズオカケン",
    "prefecture_code": 22,
    "city": "下田市",
    "city_kana": "シモダシ",
    "town": "横川",
    "town_kana": "ヨコカワ",
    "street": null,
    "office_name": null,
    "office_name_kana": null
  },
  "0713": {
    "postcode": "4130713",
    "prefecture": "静岡県",
    "prefecture_kana": "シズオカケン",
    "prefecture_code": 22,
    "city": "下田市",
    "city_kana": "シモダシ",
    "town": "加増野",
    "town_kana": "カゾウノ",
    "street": null,
    "office_name": null,
    "office_name_kana": null
  },
  "0714": {
    "postcode": "4130714",
    "prefecture": "静岡県",
    "prefecture_kana": "シズオカケン",
    "prefecture_code": 22,
    "city": "下田市",
    "city_kana": "シモダシ",
    "town": "北湯ケ野",
    "town_kana": "キタユガノ",
    "street": null,
    "office_name": null,
    "office_name_kana": null
  },
  "0715": {
    "postcode": "4130715",
    "prefecture": "静岡県",
    "prefecture_kana": "シズオカケン",
    "prefecture_code": 22,
    "city": "下田市",
    "city_kana": "シモダシ",
    "town": "宇土金",
    "town_kana": "ウドガネ",
    "street": null,
    "office_name": null,
    "office_name_kana": null
  },
  "0716": {
    "postcode": "4130716",
    "prefecture": "静岡県",
    "prefecture_kana": "シズオカケン",
    "prefecture_code": 22,
    "city": "下田市",
    "city_kana": "シモダシ",
    "town": "須原",
    "town_kana": "スハラ",
    "street": null,
    "office_name": null,
    "office_name_kana": null
  },
  "8502": {
    "postcode": "4138502",
    "prefecture": "静岡県",
    "prefecture_kana": "シズオカケン",
    "prefecture_code": 22,
    "city": "熱海市",
    "city_kana": "アタミシ",
    "town": "上宿町",
    "town_kana": "カミジュクチョウ",
    "street": "１４番１５号",
    "office_name": "熱海税務署",
    "office_name_kana": "アタミゼイムシヨ"
  },
  "8505": {
    "postcode": "4138505",
    "prefecture": "静岡県",
    "prefecture_kana": "シズオカケン",
    "prefecture_code": 22,
    "city": "熱海市",
    "city_kana": "アタミシ",
    "town": "春日町",
    "town_kana": "カスガチョウ",
    "street": "１３−１４",
    "office_name": "熱海簡易裁判所",
    "office_name_kana": "アタミカンイサイバンシヨ"
  },
  "8510": {
    "postcode": "4138510",
    "prefecture": "静岡県",
    "prefecture_kana": "シズオカケン",
    "prefecture_code": 22,
    "city": "熱海市",
    "city_kana": "アタミシ",
    "town": "泉",
    "town_kana": "イズミ",
    "street": "山下２７−１",
    "office_name": "日本ジャンボー　株式会社",
    "office_name_kana": "ニホンジヤンボ- カブシキガイシヤ"
  },
  "8511": {
    "postcode": "4138511",
    "prefecture": "静岡県",
    "prefecture_kana": "シズオカケン",
    "prefecture_code": 22,
    "city": "熱海市",
    "city_kana": "アタミシ",
    "town": "桃山町",
    "town_kana": "モモヤマチョウ",
    "street": "２６−２",
    "office_name": "財団法人　エム・オー・エー美術・文化財団　ＭＯＡ美術館",
    "office_name_kana": "ザイダンホウジン エム・オ-・エ-ビジユツ・ブンカザイダン エムオ-エ-ビジユツカン"
  },
  "8530": {
    "postcode": "4138530",
    "prefecture": "静岡県",
    "prefecture_kana": "シズオカケン",
    "prefecture_code": 22,
    "city": "熱海市",
    "city_kana": "アタミシ",
    "town": "泉",
    "town_kana": "イズミ",
    "street": "１７−２",
    "office_name": "株式会社　寿恵会　ネオ・サミット湯河原",
    "office_name_kana": "カブシキガイシヤ ジユケイカイ ネオ・サミツトユガワラ"
  },
  "8550": {
    "postcode": "4138550",
    "prefecture": "静岡県",
    "prefecture_kana": "シズオカケン",
    "prefecture_code": 22,
    "city": "熱海市",
    "city_kana": "アタミシ",
    "town": "中央町",
    "town_kana": "チュウオウチョウ",
    "street": "１−１",
    "office_name": "熱海市役所",
    "office_name_kana": "アタミシヤクシヨ"
  },
  "8555": {
    "postcode": "4138555",
    "prefecture": "静岡県",
    "prefecture_kana": "シズオカケン",
    "prefecture_code": 22,
    "city": "熱海市",
    "city_kana": "アタミシ",
    "town": "熱海",
    "town_kana": "アタミ",
    "street": "釜ケ根１９９３−２５０",
    "office_name": "ホテルニューアカオ",
    "office_name_kana": "ホテルニユ-アカオ"
  },
  "8558": {
    "postcode": "4138558",
    "prefecture": "静岡県",
    "prefecture_kana": "シズオカケン",
    "prefecture_code": 22,
    "city": "熱海市",
    "city_kana": "アタミシ",
    "town": "田原本町",
    "town_kana": "タハラホンチョウ",
    "street": "９−１",
    "office_name": "株式会社　中銀ライフケア",
    "office_name_kana": "カブシキガイシヤ ナカギンライフケア"
  },
  "8560": {
    "postcode": "4138560",
    "prefecture": "静岡県",
    "prefecture_kana": "シズオカケン",
    "prefecture_code": 22,
    "city": "熱海市",
    "city_kana": "アタミシ",
    "town": "福道町",
    "town_kana": "フクミチチョウ",
    "street": "７−３０",
    "office_name": "静岡地方法務局　熱海出張所",
    "office_name_kana": "シズオカチホウホウムキヨク アタミシユツチヨウジヨ"
  },
  "8566": {
    "postcode": "4138566",
    "prefecture": "静岡県",
    "prefecture_kana": "シズオカケン",
    "prefecture_code": 22,
    "city": "熱海市",
    "city_kana": "アタミシ",
    "town": "西熱海町",
    "town_kana": "ニシアタミチョウ",
    "street": "１丁目２４−１",
    "office_name": "社会福祉法人　黎明会　熱海ゆとりあの郷",
    "office_name_kana": "シヤカイフクシホウジン レイメイカイ アタミユトリアノサト"
  },
  "8567": {
    "postcode": "4138567",
    "prefecture": "静岡県",
    "prefecture_kana": "シズオカケン",
    "prefecture_code": 22,
    "city": "熱海市",
    "city_kana": "アタミシ",
    "town": "東海岸町",
    "town_kana": "ヒガシカイガンチョウ",
    "street": "１３−１",
    "office_name": "国際医療福祉大学附属熱海病院",
    "office_name_kana": "コクサイイリヨウフクシダイガクフゾクアタミビヨウイン"
  },
  "8585": {
    "postcode": "4138585",
    "prefecture": "静岡県",
    "prefecture_kana": "シズオカケン",
    "prefecture_code": 22,
    "city": "熱海市",
    "city_kana": "アタミシ",
    "town": "桃山町",
    "town_kana": "モモヤマチョウ",
    "street": "２６−１",
    "office_name": "世界救世教　いづのめ教団",
    "office_name_kana": "セカイキユウセイキヨウ イヅノメキヨウダン"
  },
  "8589": {
    "postcode": "4138589",
    "prefecture": "静岡県",
    "prefecture_kana": "シズオカケン",
    "prefecture_code": 22,
    "city": "熱海市",
    "city_kana": "アタミシ",
    "town": "伊豆山",
    "town_kana": "イズサン",
    "street": "８３７",
    "office_name": "熱海身代り不動尊",
    "office_name_kana": "アタミミガワリフドウソン"
  },
  "8611": {
    "postcode": "4138611",
    "prefecture": "静岡県",
    "prefecture_kana": "シズオカケン",
    "prefecture_code": 22,
    "city": "熱海市",
    "city_kana": "アタミシ",
    "town": "和田浜南町",
    "town_kana": "ワダハマミナミチョウ",
    "street": "３−９",
    "office_name": "ホテル大野屋",
    "office_name_kana": "ホテルオオノヤ"
  },
  "8618": {
    "postcode": "4138618",
    "prefecture": "静岡県",
    "prefecture_kana": "シズオカケン",
    "prefecture_code": 22,
    "city": "熱海市",
    "city_kana": "アタミシ",
    "town": "紅葉ガ丘町",
    "town_kana": "モミジガオカチョウ",
    "street": "１７−１４",
    "office_name": "中島水産　株式会社",
    "office_name_kana": "ナカジマスイサン カブシキガイシヤ"
  },
  "8626": {
    "postcode": "4138626",
    "prefecture": "静岡県",
    "prefecture_kana": "シズオカケン",
    "prefecture_code": 22,
    "city": "熱海市",
    "city_kana": "アタミシ",
    "town": "和田浜南町",
    "town_kana": "ワダハマミナミチョウ",
    "street": "１０−１",
    "office_name": "熱海後楽園",
    "office_name_kana": "アタミコウラクエン"
  },
  "8678": {
    "postcode": "4138678",
    "prefecture": "静岡県",
    "prefecture_kana": "シズオカケン",
    "prefecture_code": 22,
    "city": "熱海市",
    "city_kana": "アタミシ",
    "town": "東海岸町",
    "town_kana": "ヒガシカイガンチョウ",
    "street": "１２−４０（熱海郵便局私書箱第４２号）",
    "office_name": "ホテル池田",
    "office_name_kana": "ホテルイケダ"
  }
}