{
  "0901": {
    "postcode": "4160901",
    "prefecture": "静岡県",
    "prefecture_kana": "シズオカケン",
    "prefecture_code": 22,
    "city": "富士市",
    "city_kana": "フジシ",
    "town": "岩本",
    "town_kana": "イワモト",
    "street": null,
    "office_name": null,
    "office_name_kana": null
  },
  "0902": {
    "postcode": "4160902",
    "prefecture": "静岡県",
    "prefecture_kana": "シズオカケン",
    "prefecture_code": 22,
    "city": "富士市",
    "city_kana": "フジシ",
    "town": "長通",
    "town_kana": "ナガドオリ",
    "street": null,
    "office_name": null,
    "office_name_kana": null
  },
  "0903": {
    "postcode": "4160903",
    "prefecture": "静岡県",
    "prefecture_kana": "シズオカケン",
    "prefecture_code": 22,
    "city": "富士市",
    "city_kana": "フジシ",
    "town": "松本",
    "town_kana": "マツモト",
    "street": null,
    "office_name": null,
    "office_name_kana": null
  },
  "0904": {
    "postcode": "4160904",
    "prefecture": "静岡県",
    "prefecture_kana": "シズオカケン",
    "prefecture_code": 22,
    "city": "富士市",
    "city_kana": "フジシ",
    "town": "本市場新田",
    "town_kana": "モトイチバシンデン",
    "street": null,
    "office_name": null,
    "office_name_kana": null
  },
  "0905": {
    "postcode": "4160905",
    "prefecture": "静岡県",
    "prefecture_kana": "シズオカケン",
    "prefecture_code": 22,
    "city": "富士市",
    "city_kana": "フジシ",
    "town": "五味島",
    "town_kana": "ゴミジマ",
    "street": null,
    "office_name": null,
    "office_name_kana": null
  },
  "0906": {
    "postcode": "4160906",
    "prefecture": "静岡県",
    "prefecture_kana": "シズオカケン",
    "prefecture_code": 22,
    "city": "富士市",
    "city_kana": "フジシ",
    "town": "本市場",
    "town_kana": "モトイチバ",
    "street": null,
    "office_name": null,
    "office_name_kana": null
  },
  "0907": {
    "postcode": "4160907",
    "prefecture": "静岡県",
    "prefecture_kana": "シズオカケン",
    "prefecture_code": 22,
    "city": "富士市",
    "city_kana": "フジシ",
    "town": "中島",
    "town_kana": "ナカジマ",
    "street": null,
    "office_name": null,
    "office_name_kana": null
  },
  "0908": {
    "postcode": "4160908",
    "prefecture": "静岡県",
    "prefecture_kana": "シズオカケン",
    "prefecture_code": 22,
    "city": "富士市",
    "city_kana": "フジシ",
    "town": "柚木",
    "town_kana": "ユノキ",
    "street": null,
    "office_name": null,
    "office_name_kana": null
  },
  "0909": {
    "postcode": "4160909",
    "prefecture": "静岡県",
    "prefecture_kana": "シズオカケン",
    "prefecture_code": 22,
    "city": "富士市",
    "city_kana": "フジシ",
    "town": "松岡",
    "town_kana": "マツオカ",
    "street": null,
    "office_name": null,
    "office_name_kana": null
  },
  "0911": {
    "postcode": "4160911",
    "prefecture": "静岡県",
    "prefecture_kana": "シズオカケン",
    "prefecture_code": 22,
    "city": "富士市",
    "city_kana": "フジシ",
    "town": "八幡町",
    "town_kana": "ハチマンチョウ",
    "street": null,
    "office_name": null,
    "office_name_kana": null
  },
  "0912": {
    "postcode": "4160912",
    "prefecture": "静岡県",
    "prefecture_kana": "シズオカケン",
    "prefecture_code": 22,
    "city": "富士市",
    "city_kana": "フジシ",
    "town": "加島町",
    "town_kana": "カジマチョウ",
    "street": null,
    "office_name": null,
    "office_name_kana": null
  },
  "0913": {
    "postcode": "4160913",
    "prefecture": "静岡県",
    "prefecture_kana": "シズオカケン",
    "prefecture_code": 22,
    "city": "富士市",
    "city_kana": "フジシ",
    "town": "平垣本町",
    "town_kana": "ヘイガキホンチョウ",
    "street": null,
    "office_name": null,
    "office_name_kana": null
  },
  "0914": {
    "postcode": "4160914",
    "prefecture": "静岡県",
    "prefecture_kana": "シズオカケン",
    "prefecture_code": 22,
    "city": "富士市",
    "city_kana": "フジシ",
    "town": "本町",
    "town_kana": "ホンチョウ",
    "street": null,
    "office_name": null,
    "office_name_kana": null
  },
  "0915": {
    "postcode": "4160915",
    "prefecture": "静岡県",
    "prefecture_kana": "シズオカケン",
    "prefecture_code": 22,
    "city": "富士市",
    "city_kana": "フジシ",
    "town": "富士町",
    "town_kana": "フジチョウ",
    "street": null,
    "office_name": null,
    "office_name_kana": null
  },
  "0916": {
    "postcode": "4160916",
    "prefecture": "静岡県",
    "prefecture_kana": "シズオカケン",
    "prefecture_code": 22,
    "city": "富士市",
    "city_kana": "フジシ",
    "town": "平垣",
    "town_kana": "ヘイガキ",
    "street": null,
    "office_name": null,
    "office_name_kana": null
  },
  "0917": {
    "postcode": "4160917",
    "prefecture": "静岡県",
    "prefecture_kana": "シズオカケン",
    "prefecture_code": 22,
    "city": "富士市",
    "city_kana": "フジシ",
    "town": "元町",
    "town_kana": "モトチョウ",
    "street": null,
    "office_name": null,
    "office_name_kana": null
  },
  "0918": {
    "postcode": "4160918",
    "prefecture": "静岡県",
    "prefecture_kana": "シズオカケン",
    "prefecture_code": 22,
    "city": "富士市",
    "city_kana": "フジシ",
    "town": "平垣町",
    "town_kana": "ヘイガキチョウ",
    "street": null,
    "office_name": null,
    "office_name_kana": null
  },
  "0919": {
    "postcode": "4160919",
    "prefecture": "静岡県",
    "prefecture_kana": "シズオカケン",
    "prefecture_code": 22,
    "city": "富士市",
    "city_kana": "フジシ",
    "town": "松富町",
    "town_kana": "マツトミマチ",
    "street": null,
    "office_name": null,
    "office_name_kana": null
  },
  "0921": {
    "postcode": "4160921",
    "prefecture": "静岡県",
    "prefecture_kana": "シズオカケン",
    "prefecture_code": 22,
    "city": "富士市",
    "city_kana": "フジシ",
    "town": "水戸島",
    "town_kana": "ミトジマ",
    "street": null,
    "office_name": null,
    "office_name_kana": null
  },
  "0922": {
    "postcode": "4160922",
    "prefecture": "静岡県",
    "prefecture_kana": "シズオカケン",
    "prefecture_code": 22,
    "city": "富士市",
    "city_kana": "フジシ",
    "town": "水戸島元町",
    "town_kana": "ミトジマモトチョウ",
    "street": null,
    "office_name": null,
    "office_name_kana": null
  },
  "0923": {
    "postcode": "4160923",
    "prefecture": "静岡県",
    "prefecture_kana": "シズオカケン",
    "prefecture_code": 22,
    "city": "富士市",
    "city_kana": "フジシ",
    "town": "横割本町",
    "town_kana": "ヨコワリホンチョウ",
    "street": null,
    "office_name": null,
    "office_name_kana": null
  },
  "0924": {
    "postcode": "4160924",
    "prefecture": "静岡県",
    "prefecture_kana": "シズオカケン",
    "prefecture_code": 22,
    "city": "富士市",
    "city_kana": "フジシ",
    "town": "水戸島本町",
    "town_kana": "ミトジマホンチョウ",
    "street": null,
    "office_name": null,
    "office_name_kana": null
  },
  "0931": {
    "postcode": "4160931",
    "prefecture": "静岡県",
    "prefecture_kana": "シズオカケン",
    "prefecture_code": 22,
    "city": "富士市",
    "city_kana": "フジシ",
    "town": "蓼原",
    "town_kana": "タデハラ",
    "street": null,
    "office_name": null,
    "office_name_kana": null
  },
  "0932": {
    "postcode": "4160932",
    "prefecture": "静岡県",
    "prefecture_kana": "シズオカケン",
    "prefecture_code": 22,
    "city": "富士市",
    "city_kana": "フジシ",
    "town": "柳島",
    "town_kana": "ヤナギシマ",
    "street": null,
    "office_name": null,
    "office_name_kana": null
  },
  "0933": {
    "postcode": "4160933",
    "prefecture": "静岡県",
    "prefecture_kana": "シズオカケン",
    "prefecture_code": 22,
    "city": "富士市",
    "city_kana": "フジシ",
    "town": "中丸",
    "town_kana": "ナカマル",
    "street": null,
    "office_name": null,
    "office_name_kana": null
  },
  "0934": {
    "postcode": "4160934",
    "prefecture": "静岡県",
    "prefecture_kana": "シズオカケン",
    "prefecture_code": 22,
    "city": "富士市",
    "city_kana": "フジシ",
    "town": "鮫島",
    "town_kana": "サメジマ",
    "street": null,
    "office_name": null,
    "office_name_kana": null
  },
  "0935": {
    "postcode": "4160935",
    "prefecture": "静岡県",
    "prefecture_kana": "シズオカケン",
    "prefecture_code": 22,
    "city": "富士市",
    "city_kana": "フジシ",
    "town": "田子",
    "town_kana": "タゴ",
    "street": null,
    "office_name": null,
    "office_name_kana": null
  },
  "0936": {
    "postcode": "4160936",
    "prefecture": "静岡県",
    "prefecture_kana": "シズオカケン",
    "prefecture_code": 22,
    "city": "富士市",
    "city_kana": "フジシ",
    "town": "中河原",
    "town_kana": "ナカカワハラ",
    "street": null,
    "office_name": null,
    "office_name_kana": null
  },
  "0937": {
    "postcode": "4160937",
    "prefecture": "静岡県",
    "prefecture_kana": "シズオカケン",
    "prefecture_code": 22,
    "city": "富士市",
    "city_kana": "フジシ",
    "town": "前田",
    "town_kana": "マエダ",
    "street": null,
    "office_name": null,
    "office_name_kana": null
  },
  "0938": {
    "postcode": "4160938",
    "prefecture": "静岡県",
    "prefecture_kana": "シズオカケン",
    "prefecture_code": 22,
    "city": "富士市",
    "city_kana": "フジシ",
    "town": "浜田町",
    "town_kana": "ハマダチョウ",
    "street": null,
    "office_name": null,
    "office_name_kana": null
  },
  "0939": {
    "postcode": "4160939",
    "prefecture": "静岡県",
    "prefecture_kana": "シズオカケン",
    "prefecture_code": 22,
    "city": "富士市",
    "city_kana": "フジシ",
    "town": "川成島",
    "town_kana": "カワナリジマ",
    "street": null,
    "office_name": null,
    "office_name_kana": null
  },
  "0941": {
    "postcode": "4160941",
    "prefecture": "静岡県",
    "prefecture_kana": "シズオカケン",
    "prefecture_code": 22,
    "city": "富士市",
    "city_kana": "フジシ",
    "town": "十兵衛",
    "town_kana": "ジュウベエ",
    "street": null,
    "office_name": null,
    "office_name_kana": null
  },
  "0942": {
    "postcode": "4160942",
    "prefecture": "静岡県",
    "prefecture_kana": "シズオカケン",
    "prefecture_code": 22,
    "city": "富士市",
    "city_kana": "フジシ",
    "town": "上横割",
    "town_kana": "カミヨコワリ",
    "street": null,
    "office_name": null,
    "office_name_kana": null
  },
  "0943": {
    "postcode": "4160943",
    "prefecture": "静岡県",
    "prefecture_kana": "シズオカケン",
    "prefecture_code": 22,
    "city": "富士市",
    "city_kana": "フジシ",
    "town": "下横割",
    "town_kana": "シモヨコワリ",
    "street": null,
    "office_name": null,
    "office_name_kana": null
  },
  "0944": {
    "postcode": "4160944",
    "prefecture": "静岡県",
    "prefecture_kana": "シズオカケン",
    "prefecture_code": 22,
    "city": "富士市",
    "city_kana": "フジシ",
    "town": "横割",
    "town_kana": "ヨコワリ",
    "street": null,
    "office_name": null,
    "office_name_kana": null
  },
  "0945": {
    "postcode": "4160945",
    "prefecture": "静岡県",
    "prefecture_kana": "シズオカケン",
    "prefecture_code": 22,
    "city": "富士市",
    "city_kana": "フジシ",
    "town": "宮島",
    "town_kana": "ミヤジマ",
    "street": null,
    "office_name": null,
    "office_name_kana": null
  },
  "0946": {
    "postcode": "4160946",
    "prefecture": "静岡県",
    "prefecture_kana": "シズオカケン",
    "prefecture_code": 22,
    "city": "富士市",
    "city_kana": "フジシ",
    "town": "五貫島",
    "town_kana": "ゴカンジマ",
    "street": null,
    "office_name": null,
    "office_name_kana": null
  },
  "0947": {
    "postcode": "4160947",
    "prefecture": "静岡県",
    "prefecture_kana": "シズオカケン",
    "prefecture_code": 22,
    "city": "富士市",
    "city_kana": "フジシ",
    "town": "宮下",
    "town_kana": "ミヤシタ",
    "street": null,
    "office_name": null,
    "office_name_kana": null
  },
  "0948": {
    "postcode": "4160948",
    "prefecture": "静岡県",
    "prefecture_kana": "シズオカケン",
    "prefecture_code": 22,
    "city": "富士市",
    "city_kana": "フジシ",
    "town": "森島",
    "town_kana": "モリジマ",
    "street": null,
    "office_name": null,
    "office_name_kana": null
  },
  "0949": {
    "postcode": "4160949",
    "prefecture": "静岡県",
    "prefecture_kana": "シズオカケン",
    "prefecture_code": 22,
    "city": "富士市",
    "city_kana": "フジシ",
    "town": "森下",
    "town_kana": "モリシタ",
    "street": null,
    "office_name": null,
    "office_name_kana": null
  },
  "0951": {
    "postcode": "4160951",
    "prefecture": "静岡県",
    "prefecture_kana": "シズオカケン",
    "prefecture_code": 22,
    "city": "富士市",
    "city_kana": "フジシ",
    "town": "米之宮町",
    "town_kana": "ヨネノミヤチョウ",
    "street": null,
    "office_name": null,
    "office_name_kana": null
  },
  "0952": {
    "postcode": "4160952",
    "prefecture": "静岡県",
    "prefecture_kana": "シズオカケン",
    "prefecture_code": 22,
    "city": "富士市",
    "city_kana": "フジシ",
    "town": "青葉町",
    "town_kana": "アオバチョウ",
    "street": null,
    "office_name": null,
    "office_name_kana": null
  },
  "0953": {
    "postcode": "4160953",
    "prefecture": "静岡県",
    "prefecture_kana": "シズオカケン",
    "prefecture_code": 22,
    "city": "富士市",
    "city_kana": "フジシ",
    "town": "蓼原町",
    "town_kana": "タデハラチョウ",
    "street": null,
    "office_name": null,
    "office_name_kana": null
  },
  "0954": {
    "postcode": "4160954",
    "prefecture": "静岡県",
    "prefecture_kana": "シズオカケン",
    "prefecture_code": 22,
    "city": "富士市",
    "city_kana": "フジシ",
    "town": "本市場町",
    "town_kana": "モトイチバチョウ",
    "street": null,
    "office_name": null,
    "office_name_kana": null
  },
  "0955": {
    "postcode": "4160955",
    "prefecture": "静岡県",
    "prefecture_kana": "シズオカケン",
    "prefecture_code": 22,
    "city": "富士市",
    "city_kana": "フジシ",
    "town": "川成新町",
    "town_kana": "カワナリシンマチ",
    "street": null,
    "office_name": null,
    "office_name_kana": null
  },
  "8501": {
    "postcode": "4168501",
    "prefecture": "静岡県",
    "prefecture_kana": "シズオカケン",
    "prefecture_code": 22,
    "city": "富士市",
    "city_kana": "フジシ",
    "town": "鮫島",
    "town_kana": "サメジマ",
    "street": "２−１",
    "office_name": "旭化成　株式会社　富士支社",
    "office_name_kana": "アサヒカセイ カブシキカイシヤ フジシシヤ"
  },
  "8521": {
    "postcode": "4168521",
    "prefecture": "静岡県",
    "prefecture_kana": "シズオカケン",
    "prefecture_code": 22,
    "city": "富士市",
    "city_kana": "フジシ",
    "town": "蓼原",
    "town_kana": "タデハラ",
    "street": "３３６番地",
    "office_name": "東芝キャリア　株式会社",
    "office_name_kana": "トウシバキヤリア カブシキガイシヤ"
  },
  "8530": {
    "postcode": "4168530",
    "prefecture": "静岡県",
    "prefecture_kana": "シズオカケン",
    "prefecture_code": 22,
    "city": "富士市",
    "city_kana": "フジシ",
    "town": "蓼原",
    "town_kana": "タデハラ",
    "street": "６００",
    "office_name": "日本製紙　株式会社　富士工場",
    "office_name_kana": "ニホンセイシ カブシキガイシヤ フジコウジヨウ"
  },
  "8533": {
    "postcode": "4168533",
    "prefecture": "静岡県",
    "prefecture_kana": "シズオカケン",
    "prefecture_code": 22,
    "city": "富士市",
    "city_kana": "フジシ",
    "town": "宮島",
    "town_kana": "ミヤジマ",
    "street": "９７３",
    "office_name": "ポリプラスチックス　株式会社　富士工場",
    "office_name_kana": "ポリプラスチツクス カブシキガイシヤ フジコウジヨウ"
  },
  "8540": {
    "postcode": "4168540",
    "prefecture": "静岡県",
    "prefecture_kana": "シズオカケン",
    "prefecture_code": 22,
    "city": "富士市",
    "city_kana": "フジシ",
    "town": "上横割",
    "town_kana": "カミヨコワリ",
    "street": "２５８−７",
    "office_name": "オー・ジー　株式会社　富士支店",
    "office_name_kana": "オ-・ジ- カブシキガイシヤ フジシテン"
  },
  "8544": {
    "postcode": "4168544",
    "prefecture": "静岡県",
    "prefecture_kana": "シズオカケン",
    "prefecture_code": 22,
    "city": "富士市",
    "city_kana": "フジシ",
    "town": "本市場",
    "town_kana": "モトイチバ",
    "street": "４４１−１",
    "office_name": "富士財務事務所",
    "office_name_kana": "フジザイムジムシヨ"
  },
  "8555": {
    "postcode": "4168555",
    "prefecture": "静岡県",
    "prefecture_kana": "シズオカケン",
    "prefecture_code": 22,
    "city": "富士市",
    "city_kana": "フジシ",
    "town": "平垣町",
    "town_kana": "ヘイガキチョウ",
    "street": "１番１号",
    "office_name": "学校法人　富士学園　静岡県富士見中学校・高等学校",
    "office_name_kana": "ガツコウホウジン フジガクエン シズオカケンフジミチユウガツコウ・コウトウガツコウ"
  },
  "8558": {
    "postcode": "4168558",
    "prefecture": "静岡県",
    "prefecture_kana": "シズオカケン",
    "prefecture_code": 22,
    "city": "富士市",
    "city_kana": "フジシ",
    "town": "本市場",
    "town_kana": "モトイチバ",
    "street": "４３２−１",
    "office_name": "富士市　保健女性センター",
    "office_name_kana": "フジシ ホケンジヨセイセンタ-"
  },
  "8577": {
    "postcode": "4168577",
    "prefecture": "静岡県",
    "prefecture_kana": "シズオカケン",
    "prefecture_code": 22,
    "city": "富士市",
    "city_kana": "フジシ",
    "town": "前田",
    "town_kana": "マエダ",
    "street": "７２１−１",
    "office_name": "株式会社　アールアンドケー",
    "office_name_kana": "カブシキガイシヤ ア-ルアンドケ-"
  },
  "8650": {
    "postcode": "4168650",
    "prefecture": "静岡県",
    "prefecture_kana": "シズオカケン",
    "prefecture_code": 22,
    "city": "富士市",
    "city_kana": "フジシ",
    "town": "本市場",
    "town_kana": "モトイチバ",
    "street": "２９７−１（富士郵便局私書箱第１３号）",
    "office_name": "富士税務署",
    "office_name_kana": "フジゼイムシヨ"
  },
  "8654": {
    "postcode": "4168654",
    "prefecture": "静岡県",
    "prefecture_kana": "シズオカケン",
    "prefecture_code": 22,
    "city": "富士市",
    "city_kana": "フジシ",
    "town": "横割",
    "town_kana": "ヨコワリ",
    "street": "３丁目５−３３（富士郵便局私書箱第１９号）",
    "office_name": "富士社会保険事務所",
    "office_name_kana": "フジシヤカイホケンジムシヨ"
  },
  "8655": {
    "postcode": "4168655",
    "prefecture": "静岡県",
    "prefecture_kana": "シズオカケン",
    "prefecture_code": 22,
    "city": "富士市",
    "city_kana": "フジシ",
    "town": "前田",
    "town_kana": "マエダ",
    "street": "９０（富士郵便局私書箱第１１号）",
    "office_name": "富士化工　株式会社",
    "office_name_kana": "フジカコウ カブシキガイシヤ"
  },
  "8656": {
    "postcode": "4168656",
    "prefecture": "静岡県",
    "prefecture_kana": "シズオカケン",
    "prefecture_code": 22,
    "city": "富士市",
    "city_kana": "フジシ",
    "town": "平垣",
    "town_kana": "ヘイガキ",
    "street": "３００（富士郵便局私書箱第７号）",
    "office_name": "王子製紙　株式会社　富士工場",
    "office_name_kana": "オウジセイシ カブシキガイシヤ フジコウジヨウ"
  },
  "8659": {
    "postcode": "4168659",
    "prefecture": "静岡県",
    "prefecture_kana": "シズオカケン",
    "prefecture_code": 22,
    "city": "富士市",
    "city_kana": "フジシ",
    "town": "水戸島元町",
    "town_kana": "ミトジマモトチョウ",
    "street": "４−１０（富士郵便局私書箱第２９号）",
    "office_name": "株式会社　石井組",
    "office_name_kana": "カブシキガイシヤ イシイグミ"
  },
  "8660": {
    "postcode": "4168660",
    "prefecture": "静岡県",
    "prefecture_kana": "シズオカケン",
    "prefecture_code": 22,
    "city": "富士市",
    "city_kana": "フジシ",
    "town": "上横割",
    "town_kana": "カミヨコワリ",
    "street": "１０（富士郵便局私書箱第３５号）",
    "office_name": "大興製紙　株式会社",
    "office_name_kana": "タイコウセイシ カブシキガイシヤ"
  },
  "8686": {
    "postcode": "4168686",
    "prefecture": "静岡県",
    "prefecture_kana": "シズオカケン",
    "prefecture_code": 22,
    "city": "富士市",
    "city_kana": "フジシ",
    "town": "本市場",
    "town_kana": "モトイチバ",
    "street": "４４１番地の１",
    "office_name": "富士市　上下水道部",
    "office_name_kana": "フジシ ジヨウゲスイドウブ"
  }
}