{
  "0100": {
    "postcode": "4190100",
    "prefecture": "静岡県",
    "prefecture_kana": "シズオカケン",
    "prefecture_code": 22,
    "city": "田方郡函南町",
    "city_kana": "タガタグンカンナミチョウ",
    "town": "",
    "town_kana": "",
    "street": null,
    "office_name": null,
    "office_name_kana": null
  },
  "0101": {
    "postcode": "4190101",
    "prefecture": "静岡県",
    "prefecture_kana": "シズオカケン",
    "prefecture_code": 22,
    "city": "田方郡函南町",
    "city_kana": "タガタグンカンナミチョウ",
    "town": "桑原",
    "town_kana": "クワハラ",
    "street": null,
    "office_name": null,
    "office_name_kana": null
  },
  "0102": {
    "postcode": "4190102",
    "prefecture": "静岡県",
    "prefecture_kana": "シズオカケン",
    "prefecture_code": 22,
    "city": "田方郡函南町",
    "city_kana": "タガタグンカンナミチョウ",
    "town": "田代",
    "town_kana": "タシロ",
    "street": null,
    "office_name": null,
    "office_name_kana": null
  },
  "0103": {
    "postcode": "4190103",
    "prefecture": "静岡県",
    "prefecture_kana": "シズオカケン",
    "prefecture_code": 22,
    "city": "田方郡函南町",
    "city_kana": "タガタグンカンナミチョウ",
    "town": "軽井沢",
    "town_kana": "カルイサワ",
    "street": null,
    "office_name": null,
    "office_name_kana": null
  },
  "0104": {
    "postcode": "4190104",
    "prefecture": "静岡県",
    "prefecture_kana": "シズオカケン",
    "prefecture_code": 22,
    "city": "田方郡函南町",
    "city_kana": "タガタグンカンナミチョウ",
    "town": "畑",
    "town_kana": "ハタ",
    "street": null,
    "office_name": null,
    "office_name_kana": null
  },
  "0105": {
    "postcode": "4190105",
    "prefecture": "静岡県",
    "prefecture_kana": "シズオカケン",
    "prefecture_code": 22,
    "city": "田方郡函南町",
    "city_kana": "タガタグンカンナミチョウ",
    "town": "丹那",
    "town_kana": "タンナ",
    "street": null,
    "office_name": null,
    "office_name_kana": null
  },
  "0106": {
    "postcode": "4190106",
    "prefecture": "静岡県",
    "prefecture_kana": "シズオカケン",
    "prefecture_code": 22,
    "city": "田方郡函南町",
    "city_kana": "タガタグンカンナミチョウ",
    "town": "南箱根ダイヤランド",
    "town_kana": "ミナミハコネダイヤランド",
    "street": null,
    "office_name": null,
    "office_name_kana": null
  },
  "0107": {
    "postcode": "4190107",
    "prefecture": "静岡県",
    "prefecture_kana": "シズオカケン",
    "prefecture_code": 22,
    "city": "田方郡函南町",
    "city_kana": "タガタグンカンナミチョウ",
    "town": "平井",
    "town_kana": "ヒライ",
    "street": null,
    "office_name": null,
    "office_name_kana": null
  },
  "0111": {
    "postcode": "4190111",
    "prefecture": "静岡県",
    "prefecture_kana": "シズオカケン",
    "prefecture_code": 22,
    "city": "田方郡函南町",
    "city_kana": "タガタグンカンナミチョウ",
    "town": "畑毛",
    "town_kana": "ハタケ",
    "street": null,
    "office_name": null,
    "office_name_kana": null
  },
  "0112": {
    "postcode": "4190112",
    "prefecture": "静岡県",
    "prefecture_kana": "シズオカケン",
    "prefecture_code": 22,
    "city": "田方郡函南町",
    "city_kana": "タガタグンカンナミチョウ",
    "town": "柏谷",
    "town_kana": "カシヤ",
    "street": null,
    "office_name": null,
    "office_name_kana": null
  },
  "0113": {
    "postcode": "4190113",
    "prefecture": "静岡県",
    "prefecture_kana": "シズオカケン",
    "prefecture_code": 22,
    "city": "田方郡函南町",
    "city_kana": "タガタグンカンナミチョウ",
    "town": "大土肥",
    "town_kana": "オオドイ",
    "street": null,
    "office_name": null,
    "office_name_kana": null
  },
  "0114": {
    "postcode": "4190114",
    "prefecture": "静岡県",
    "prefecture_kana": "シズオカケン",
    "prefecture_code": 22,
    "city": "田方郡函南町",
    "city_kana": "タガタグンカンナミチョウ",
    "town": "仁田",
    "town_kana": "ニッタ",
    "street": null,
    "office_name": null,
    "office_name_kana": null
  },
  "0115": {
    "postcode": "4190115",
    "prefecture": "静岡県",
    "prefecture_kana": "シズオカケン",
    "prefecture_code": 22,
    "city": "田方郡函南町",
    "city_kana": "タガタグンカンナミチョウ",
    "town": "新田",
    "town_kana": "シンデン",
    "street": null,
    "office_name": null,
    "office_name_kana": null
  },
  "0116": {
    "postcode": "4190116",
    "prefecture": "静岡県",
    "prefecture_kana": "シズオカケン",
    "prefecture_code": 22,
    "city": "田方郡函南町",
    "city_kana": "タガタグンカンナミチョウ",
    "town": "日守",
    "town_kana": "ヒモリ",
    "street": null,
    "office_name": null,
    "office_name_kana": null
  },
  "0121": {
    "postcode": "4190121",
    "prefecture": "静岡県",
    "prefecture_kana": "シズオカケン",
    "prefecture_code": 22,
    "city": "田方郡函南町",
    "city_kana": "タガタグンカンナミチョウ",
    "town": "大竹",
    "town_kana": "オオダケ",
    "street": null,
    "office_name": null,
    "office_name_kana": null
  },
  "0122": {
    "postcode": "4190122",
    "prefecture": "静岡県",
    "prefecture_kana": "シズオカケン",
    "prefecture_code": 22,
    "city": "田方郡函南町",
    "city_kana": "タガタグンカンナミチョウ",
    "town": "上沢",
    "town_kana": "カミザワ",
    "street": null,
    "office_name": null,
    "office_name_kana": null
  },
  "0123": {
    "postcode": "4190123",
    "prefecture": "静岡県",
    "prefecture_kana": "シズオカケン",
    "prefecture_code": 22,
    "city": "田方郡函南町",
    "city_kana": "タガタグンカンナミチョウ",
    "town": "間宮",
    "town_kana": "マミヤ",
    "street": null,
    "office_name": null,
    "office_name_kana": null
  },
  "0124": {
    "postcode": "4190124",
    "prefecture": "静岡県",
    "prefecture_kana": "シズオカケン",
    "prefecture_code": 22,
    "city": "田方郡函南町",
    "city_kana": "タガタグンカンナミチョウ",
    "town": "塚本",
    "town_kana": "ツカモト",
    "street": null,
    "office_name": null,
    "office_name_kana": null
  },
  "0125": {
    "postcode": "4190125",
    "prefecture": "静岡県",
    "prefecture_kana": "シズオカケン",
    "prefecture_code": 22,
    "city": "田方郡函南町",
    "city_kana": "タガタグンカンナミチョウ",
    "town": "肥田",
    "town_kana": "ヒタ",
    "street": null,
    "office_name": null,
    "office_name_kana": null
  },
  "0192": {
    "postcode": "4190192",
    "prefecture": "静岡県",
    "prefecture_kana": "シズオカケン",
    "prefecture_code": 22,
    "city": "田方郡函南町",
    "city_kana": "タガタグンカンナミチョウ",
    "town": "平井",
    "town_kana": "ヒライ",
    "street": "７１７番地の１３",
    "office_name": "函南町役場",
    "office_name_kana": "カンナミチヨウヤクバ"
  },
  "0193": {
    "postcode": "4190193",
    "prefecture": "静岡県",
    "prefecture_kana": "シズオカケン",
    "prefecture_code": 22,
    "city": "田方郡函南町",
    "city_kana": "タガタグンカンナミチョウ",
    "town": "平井",
    "town_kana": "ヒライ",
    "street": "７５０番地",
    "office_name": "ＮＴＴ東日本　伊豆病院",
    "office_name_kana": "エヌテイテイヒガシニホン イズビヨウイン"
  },
  "0201": {
    "postcode": "4190201",
    "prefecture": "静岡県",
    "prefecture_kana": "シズオカケン",
    "prefecture_code": 22,
    "city": "富士市",
    "city_kana": "フジシ",
    "town": "厚原",
    "town_kana": "アツハラ",
    "street": null,
    "office_name": null,
    "office_name_kana": null
  },
  "0202": {
    "postcode": "4190202",
    "prefecture": "静岡県",
    "prefecture_kana": "シズオカケン",
    "prefecture_code": 22,
    "city": "富士市",
    "city_kana": "フジシ",
    "town": "久沢",
    "town_kana": "クザワ",
    "street": null,
    "office_name": null,
    "office_name_kana": null
  },
  "0203": {
    "postcode": "4190203",
    "prefecture": "静岡県",
    "prefecture_kana": "シズオカケン",
    "prefecture_code": 22,
    "city": "富士市",
    "city_kana": "フジシ",
    "town": "鷹岡本町",
    "town_kana": "タカオカホンチョウ",
    "street": null,
    "office_name": null,
    "office_name_kana": null
  },
  "0204": {
    "postcode": "4190204",
    "prefecture": "静岡県",
    "prefecture_kana": "シズオカケン",
    "prefecture_code": 22,
    "city": "富士市",
    "city_kana": "フジシ",
    "town": "入山瀬",
    "town_kana": "イリヤマセ",
    "street": null,
    "office_name": null,
    "office_name_kana": null
  },
  "0205": {
    "postcode": "4190205",
    "prefecture": "静岡県",
    "prefecture_kana": "シズオカケン",
    "prefecture_code": 22,
    "city": "富士市",
    "city_kana": "フジシ",
    "town": "天間",
    "town_kana": "テンマ",
    "street": null,
    "office_name": null,
    "office_name_kana": null
  },
  "0293": {
    "postcode": "4190293",
    "prefecture": "静岡県",
    "prefecture_kana": "シズオカケン",
    "prefecture_code": 22,
    "city": "富士市",
    "city_kana": "フジシ",
    "town": "久沢",
    "town_kana": "クザワ",
    "street": "３７",
    "office_name": "丸井製紙　株式会社",
    "office_name_kana": "マルイセイシ カブシキガイシヤ"
  },
  "0295": {
    "postcode": "4190295",
    "prefecture": "静岡県",
    "prefecture_kana": "シズオカケン",
    "prefecture_code": 22,
    "city": "富士市",
    "city_kana": "フジシ",
    "town": "天間",
    "town_kana": "テンマ",
    "street": "６８６−１",
    "office_name": "丸富製紙　株式会社　富士根工場",
    "office_name_kana": "マルトミセイシ カブシキガイシヤ フジネコウジヨウ"
  },
  "0301": {
    "postcode": "4190301",
    "prefecture": "静岡県",
    "prefecture_kana": "シズオカケン",
    "prefecture_code": 22,
    "city": "富士宮市",
    "city_kana": "フジノミヤシ",
    "town": "上柚野",
    "town_kana": "カミユノ",
    "street": null,
    "office_name": null,
    "office_name_kana": null
  },
  "0302": {
    "postcode": "4190302",
    "prefecture": "静岡県",
    "prefecture_kana": "シズオカケン",
    "prefecture_code": 22,
    "city": "富士宮市",
    "city_kana": "フジノミヤシ",
    "town": "猫沢",
    "town_kana": "ネコザワ",
    "street": null,
    "office_name": null,
    "office_name_kana": null
  },
  "0303": {
    "postcode": "4190303",
    "prefecture": "静岡県",
    "prefecture_kana": "シズオカケン",
    "prefecture_code": 22,
    "city": "富士宮市",
    "city_kana": "フジノミヤシ",
    "town": "大鹿窪",
    "town_kana": "オオシカクボ",
    "street": null,
    "office_name": null,
    "office_name_kana": null
  },
  "0304": {
    "postcode": "4190304",
    "prefecture": "静岡県",
    "prefecture_kana": "シズオカケン",
    "prefecture_code": 22,
    "city": "富士宮市",
    "city_kana": "フジノミヤシ",
    "town": "鳥並",
    "town_kana": "トリナミ",
    "street": null,
    "office_name": null,
    "office_name_kana": null
  },
  "0305": {
    "postcode": "4190305",
    "prefecture": "静岡県",
    "prefecture_kana": "シズオカケン",
    "prefecture_code": 22,
    "city": "富士宮市",
    "city_kana": "フジノミヤシ",
    "town": "下柚野",
    "town_kana": "シモユノ",
    "street": null,
    "office_name": null,
    "office_name_kana": null
  },
  "0311": {
    "postcode": "4190311",
    "prefecture": "静岡県",
    "prefecture_kana": "シズオカケン",
    "prefecture_code": 22,
    "city": "富士宮市",
    "city_kana": "フジノミヤシ",
    "town": "上稲子",
    "town_kana": "カミイナコ",
    "street": null,
    "office_name": null,
    "office_name_kana": null
  },
  "0312": {
    "postcode": "4190312",
    "prefecture": "静岡県",
    "prefecture_kana": "シズオカケン",
    "prefecture_code": 22,
    "city": "富士宮市",
    "city_kana": "フジノミヤシ",
    "town": "下稲子",
    "town_kana": "シモイナコ",
    "street": null,
    "office_name": null,
    "office_name_kana": null
  },
  "0313": {
    "postcode": "4190313",
    "prefecture": "静岡県",
    "prefecture_kana": "シズオカケン",
    "prefecture_code": 22,
    "city": "富士宮市",
    "city_kana": "フジノミヤシ",
    "town": "西山",
    "town_kana": "ニシヤマ",
    "street": null,
    "office_name": null,
    "office_name_kana": null
  },
  "0314": {
    "postcode": "4190314",
    "prefecture": "静岡県",
    "prefecture_kana": "シズオカケン",
    "prefecture_code": 22,
    "city": "富士宮市",
    "city_kana": "フジノミヤシ",
    "town": "大久保",
    "town_kana": "オオクボ",
    "street": null,
    "office_name": null,
    "office_name_kana": null
  },
  "0315": {
    "postcode": "4190315",
    "prefecture": "静岡県",
    "prefecture_kana": "シズオカケン",
    "prefecture_code": 22,
    "city": "富士宮市",
    "city_kana": "フジノミヤシ",
    "town": "長貫",
    "town_kana": "ナガヌキ",
    "street": null,
    "office_name": null,
    "office_name_kana": null
  },
  "0316": {
    "postcode": "4190316",
    "prefecture": "静岡県",
    "prefecture_kana": "シズオカケン",
    "prefecture_code": 22,
    "city": "富士宮市",
    "city_kana": "フジノミヤシ",
    "town": "羽鮒",
    "town_kana": "ハブナ",
    "street": null,
    "office_name": null,
    "office_name_kana": null
  },
  "0317": {
    "postcode": "4190317",
    "prefecture": "静岡県",
    "prefecture_kana": "シズオカケン",
    "prefecture_code": 22,
    "city": "富士宮市",
    "city_kana": "フジノミヤシ",
    "town": "内房",
    "town_kana": "ウツブサ",
    "street": null,
    "office_name": null,
    "office_name_kana": null
  },
  "0392": {
    "postcode": "4190392",
    "prefecture": "静岡県",
    "prefecture_kana": "シズオカケン",
    "prefecture_code": 22,
    "city": "富士宮市",
    "city_kana": "フジノミヤシ",
    "town": "長貫",
    "town_kana": "ナガヌキ",
    "street": "１１３１−６",
    "office_name": "富士宮市役所　芝川出張所",
    "office_name_kana": "フジノミヤシヤクシヨ シバカワシユツチヨウジヨ"
  }
}