{
  "0001": {
    "postcode": "4280001",
    "prefecture": "静岡県",
    "prefecture_kana": "シズオカケン",
    "prefecture_code": 22,
    "city": "島田市",
    "city_kana": "シマダシ",
    "town": "高熊",
    "town_kana": "タカクマ",
    "street": null,
    "office_name": null,
    "office_name_kana": null
  },
  "0002": {
    "postcode": "4280002",
    "prefecture": "静岡県",
    "prefecture_kana": "シズオカケン",
    "prefecture_code": 22,
    "city": "島田市",
    "city_kana": "シマダシ",
    "town": "福用",
    "town_kana": "フクヨウ",
    "street": null,
    "office_name": null,
    "office_name_kana": null
  },
  "0003": {
    "postcode": "4280003",
    "prefecture": "静岡県",
    "prefecture_kana": "シズオカケン",
    "prefecture_code": 22,
    "city": "島田市",
    "city_kana": "シマダシ",
    "town": "神尾",
    "town_kana": "カミオ",
    "street": null,
    "office_name": null,
    "office_name_kana": null
  },
  "0004": {
    "postcode": "4280004",
    "prefecture": "静岡県",
    "prefecture_kana": "シズオカケン",
    "prefecture_code": 22,
    "city": "島田市",
    "city_kana": "シマダシ",
    "town": "横岡",
    "town_kana": "ヨコオカ",
    "street": null,
    "office_name": null,
    "office_name_kana": null
  },
  "0005": {
    "postcode": "4280005",
    "prefecture": "静岡県",
    "prefecture_kana": "シズオカケン",
    "prefecture_code": 22,
    "city": "島田市",
    "city_kana": "シマダシ",
    "town": "横岡新田",
    "town_kana": "ヨコオカシンデン",
    "street": null,
    "office_name": null,
    "office_name_kana": null
  },
  "0006": {
    "postcode": "4280006",
    "prefecture": "静岡県",
    "prefecture_kana": "シズオカケン",
    "prefecture_code": 22,
    "city": "島田市",
    "city_kana": "シマダシ",
    "town": "牛尾",
    "town_kana": "ウシオ",
    "street": null,
    "office_name": null,
    "office_name_kana": null
  },
  "0007": {
    "postcode": "4280007",
    "prefecture": "静岡県",
    "prefecture_kana": "シズオカケン",
    "prefecture_code": 22,
    "city": "島田市",
    "city_kana": "シマダシ",
    "town": "島",
    "town_kana": "シマ",
    "street": null,
    "office_name": null,
    "office_name_kana": null
  },
  "0008": {
    "postcode": "4280008",
    "prefecture": "静岡県",
    "prefecture_kana": "シズオカケン",
    "prefecture_code": 22,
    "city": "島田市",
    "city_kana": "シマダシ",
    "town": "竹下",
    "town_kana": "タケシタ",
    "street": null,
    "office_name": null,
    "office_name_kana": null
  },
  "0009": {
    "postcode": "4280009",
    "prefecture": "静岡県",
    "prefecture_kana": "シズオカケン",
    "prefecture_code": 22,
    "city": "島田市",
    "city_kana": "シマダシ",
    "town": "大代",
    "town_kana": "オオジロ",
    "street": null,
    "office_name": null,
    "office_name_kana": null
  },
  "0011": {
    "postcode": "4280011",
    "prefecture": "静岡県",
    "prefecture_kana": "シズオカケン",
    "prefecture_code": 22,
    "city": "島田市",
    "city_kana": "シマダシ",
    "town": "番生寺",
    "town_kana": "バンショウジ",
    "street": null,
    "office_name": null,
    "office_name_kana": null
  },
  "0012": {
    "postcode": "4280012",
    "prefecture": "静岡県",
    "prefecture_kana": "シズオカケン",
    "prefecture_code": 22,
    "city": "島田市",
    "city_kana": "シマダシ",
    "town": "金谷代官町",
    "town_kana": "カナヤダイカンチョウ",
    "street": null,
    "office_name": null,
    "office_name_kana": null
  },
  "0013": {
    "postcode": "4280013",
    "prefecture": "静岡県",
    "prefecture_kana": "シズオカケン",
    "prefecture_code": 22,
    "city": "島田市",
    "city_kana": "シマダシ",
    "town": "金谷東",
    "town_kana": "カナヤアズマ",
    "street": null,
    "office_name": null,
    "office_name_kana": null
  },
  "0014": {
    "postcode": "4280014",
    "prefecture": "静岡県",
    "prefecture_kana": "シズオカケン",
    "prefecture_code": 22,
    "city": "島田市",
    "city_kana": "シマダシ",
    "town": "金谷泉町",
    "town_kana": "カナヤイズミチョウ",
    "street": null,
    "office_name": null,
    "office_name_kana": null
  },
  "0015": {
    "postcode": "4280015",
    "prefecture": "静岡県",
    "prefecture_kana": "シズオカケン",
    "prefecture_code": 22,
    "city": "島田市",
    "city_kana": "シマダシ",
    "town": "金谷扇町",
    "town_kana": "カナヤオウギチョウ",
    "street": null,
    "office_name": null,
    "office_name_kana": null
  },
  "0016": {
    "postcode": "4280016",
    "prefecture": "静岡県",
    "prefecture_kana": "シズオカケン",
    "prefecture_code": 22,
    "city": "島田市",
    "city_kana": "シマダシ",
    "town": "金谷宮崎町",
    "town_kana": "カナヤミヤザキチョウ",
    "street": null,
    "office_name": null,
    "office_name_kana": null
  },
  "0017": {
    "postcode": "4280017",
    "prefecture": "静岡県",
    "prefecture_kana": "シズオカケン",
    "prefecture_code": 22,
    "city": "島田市",
    "city_kana": "シマダシ",
    "town": "金谷栄町",
    "town_kana": "カナヤサカエチョウ",
    "street": null,
    "office_name": null,
    "office_name_kana": null
  },
  "0018": {
    "postcode": "4280018",
    "prefecture": "静岡県",
    "prefecture_kana": "シズオカケン",
    "prefecture_code": 22,
    "city": "島田市",
    "city_kana": "シマダシ",
    "town": "金谷根岸町",
    "town_kana": "カナヤネギシチョウ",
    "street": null,
    "office_name": null,
    "office_name_kana": null
  },
  "0019": {
    "postcode": "4280019",
    "prefecture": "静岡県",
    "prefecture_kana": "シズオカケン",
    "prefecture_code": 22,
    "city": "島田市",
    "city_kana": "シマダシ",
    "town": "志戸呂",
    "town_kana": "シトロ",
    "street": null,
    "office_name": null,
    "office_name_kana": null
  },
  "0023": {
    "postcode": "4280023",
    "prefecture": "静岡県",
    "prefecture_kana": "シズオカケン",
    "prefecture_code": 22,
    "city": "島田市",
    "city_kana": "シマダシ",
    "town": "金谷坂町",
    "town_kana": "カナヤサカマチ",
    "street": null,
    "office_name": null,
    "office_name_kana": null
  },
  "0024": {
    "postcode": "4280024",
    "prefecture": "静岡県",
    "prefecture_kana": "シズオカケン",
    "prefecture_code": 22,
    "city": "島田市",
    "city_kana": "シマダシ",
    "town": "金谷南町",
    "town_kana": "カナヤミナミチョウ",
    "street": null,
    "office_name": null,
    "office_name_kana": null
  },
  "0025": {
    "postcode": "4280025",
    "prefecture": "静岡県",
    "prefecture_kana": "シズオカケン",
    "prefecture_code": 22,
    "city": "島田市",
    "city_kana": "シマダシ",
    "town": "金谷田町",
    "town_kana": "カナヤタマチ",
    "street": null,
    "office_name": null,
    "office_name_kana": null
  },
  "0026": {
    "postcode": "4280026",
    "prefecture": "静岡県",
    "prefecture_kana": "シズオカケン",
    "prefecture_code": 22,
    "city": "島田市",
    "city_kana": "シマダシ",
    "town": "金谷本町",
    "town_kana": "カナヤホンマチ",
    "street": null,
    "office_name": null,
    "office_name_kana": null
  },
  "0027": {
    "postcode": "4280027",
    "prefecture": "静岡県",
    "prefecture_kana": "シズオカケン",
    "prefecture_code": 22,
    "city": "島田市",
    "city_kana": "シマダシ",
    "town": "金谷上十五軒",
    "town_kana": "カナヤカミジュウゴケン",
    "street": null,
    "office_name": null,
    "office_name_kana": null
  },
  "0028": {
    "postcode": "4280028",
    "prefecture": "静岡県",
    "prefecture_kana": "シズオカケン",
    "prefecture_code": 22,
    "city": "島田市",
    "city_kana": "シマダシ",
    "town": "金谷下十五軒",
    "town_kana": "カナヤシモジュウゴケン",
    "street": null,
    "office_name": null,
    "office_name_kana": null
  },
  "0031": {
    "postcode": "4280031",
    "prefecture": "静岡県",
    "prefecture_kana": "シズオカケン",
    "prefecture_code": 22,
    "city": "島田市",
    "city_kana": "シマダシ",
    "town": "金谷清水",
    "town_kana": "カナヤシミズ",
    "street": null,
    "office_name": null,
    "office_name_kana": null
  },
  "0032": {
    "postcode": "4280032",
    "prefecture": "静岡県",
    "prefecture_kana": "シズオカケン",
    "prefecture_code": 22,
    "city": "島田市",
    "city_kana": "シマダシ",
    "town": "金谷天王町",
    "town_kana": "カナヤテンノウチョウ",
    "street": null,
    "office_name": null,
    "office_name_kana": null
  },
  "0033": {
    "postcode": "4280033",
    "prefecture": "静岡県",
    "prefecture_kana": "シズオカケン",
    "prefecture_code": 22,
    "city": "島田市",
    "city_kana": "シマダシ",
    "town": "金谷二軒家",
    "town_kana": "カナヤニケンヤ",
    "street": null,
    "office_name": null,
    "office_name_kana": null
  },
  "0034": {
    "postcode": "4280034",
    "prefecture": "静岡県",
    "prefecture_kana": "シズオカケン",
    "prefecture_code": 22,
    "city": "島田市",
    "city_kana": "シマダシ",
    "town": "金谷富士見町",
    "town_kana": "カナヤフジミチョウ",
    "street": null,
    "office_name": null,
    "office_name_kana": null
  },
  "0035": {
    "postcode": "4280035",
    "prefecture": "静岡県",
    "prefecture_kana": "シズオカケン",
    "prefecture_code": 22,
    "city": "島田市",
    "city_kana": "シマダシ",
    "town": "切山",
    "town_kana": "キリヤマ",
    "street": null,
    "office_name": null,
    "office_name_kana": null
  },
  "0036": {
    "postcode": "4280036",
    "prefecture": "静岡県",
    "prefecture_kana": "シズオカケン",
    "prefecture_code": 22,
    "city": "島田市",
    "city_kana": "シマダシ",
    "town": "神谷城",
    "town_kana": "カミヤシロ",
    "street": null,
    "office_name": null,
    "office_name_kana": null
  },
  "0037": {
    "postcode": "4280037",
    "prefecture": "静岡県",
    "prefecture_kana": "シズオカケン",
    "prefecture_code": 22,
    "city": "島田市",
    "city_kana": "シマダシ",
    "town": "菊川",
    "town_kana": "キクガワ",
    "street": null,
    "office_name": null,
    "office_name_kana": null
  },
  "0038": {
    "postcode": "4280038",
    "prefecture": "静岡県",
    "prefecture_kana": "シズオカケン",
    "prefecture_code": 22,
    "city": "島田市",
    "city_kana": "シマダシ",
    "town": "佐夜鹿",
    "town_kana": "サヨシカ",
    "street": null,
    "office_name": null,
    "office_name_kana": null
  },
  "0039": {
    "postcode": "4280039",
    "prefecture": "静岡県",
    "prefecture_kana": "シズオカケン",
    "prefecture_code": 22,
    "city": "島田市",
    "city_kana": "シマダシ",
    "town": "金谷猪土居",
    "town_kana": "カナヤシシドイ",
    "street": null,
    "office_name": null,
    "office_name_kana": null
  },
  "0041": {
    "postcode": "4280041",
    "prefecture": "静岡県",
    "prefecture_kana": "シズオカケン",
    "prefecture_code": 22,
    "city": "島田市",
    "city_kana": "シマダシ",
    "town": "金谷都町",
    "town_kana": "カナヤミヤコチョウ",
    "street": null,
    "office_name": null,
    "office_name_kana": null
  },
  "0042": {
    "postcode": "4280042",
    "prefecture": "静岡県",
    "prefecture_kana": "シズオカケン",
    "prefecture_code": 22,
    "city": "島田市",
    "city_kana": "シマダシ",
    "town": "金谷古横町",
    "town_kana": "カナヤフルヨコチョウ",
    "street": null,
    "office_name": null,
    "office_name_kana": null
  },
  "0043": {
    "postcode": "4280043",
    "prefecture": "静岡県",
    "prefecture_kana": "シズオカケン",
    "prefecture_code": 22,
    "city": "島田市",
    "city_kana": "シマダシ",
    "town": "金谷中町",
    "town_kana": "カナヤナカマチ",
    "street": null,
    "office_name": null,
    "office_name_kana": null
  },
  "0044": {
    "postcode": "4280044",
    "prefecture": "静岡県",
    "prefecture_kana": "シズオカケン",
    "prefecture_code": 22,
    "city": "島田市",
    "city_kana": "シマダシ",
    "town": "金谷緑町",
    "town_kana": "カナヤミドリチョウ",
    "street": null,
    "office_name": null,
    "office_name_kana": null
  },
  "0046": {
    "postcode": "4280046",
    "prefecture": "静岡県",
    "prefecture_kana": "シズオカケン",
    "prefecture_code": 22,
    "city": "島田市",
    "city_kana": "シマダシ",
    "town": "金谷金山町",
    "town_kana": "カナヤキンザンチョウ",
    "street": null,
    "office_name": null,
    "office_name_kana": null
  },
  "0047": {
    "postcode": "4280047",
    "prefecture": "静岡県",
    "prefecture_kana": "シズオカケン",
    "prefecture_code": 22,
    "city": "島田市",
    "city_kana": "シマダシ",
    "town": "金谷新町",
    "town_kana": "カナヤシンマチ",
    "street": null,
    "office_name": null,
    "office_name_kana": null
  },
  "0048": {
    "postcode": "4280048",
    "prefecture": "静岡県",
    "prefecture_kana": "シズオカケン",
    "prefecture_code": 22,
    "city": "島田市",
    "city_kana": "シマダシ",
    "town": "金谷城山町",
    "town_kana": "カナヤシロヤマチョウ",
    "street": null,
    "office_name": null,
    "office_name_kana": null
  },
  "0049": {
    "postcode": "4280049",
    "prefecture": "静岡県",
    "prefecture_kana": "シズオカケン",
    "prefecture_code": 22,
    "city": "島田市",
    "city_kana": "シマダシ",
    "town": "牧之原",
    "town_kana": "マキノハラ",
    "street": null,
    "office_name": null,
    "office_name_kana": null
  },
  "0101": {
    "postcode": "4280101",
    "prefecture": "静岡県",
    "prefecture_kana": "シズオカケン",
    "prefecture_code": 22,
    "city": "島田市",
    "city_kana": "シマダシ",
    "town": "川根町笹間渡",
    "town_kana": "カワネチョウササマド",
    "street": null,
    "office_name": null,
    "office_name_kana": null
  },
  "0102": {
    "postcode": "4280102",
    "prefecture": "静岡県",
    "prefecture_kana": "シズオカケン",
    "prefecture_code": 22,
    "city": "島田市",
    "city_kana": "シマダシ",
    "town": "川根町上河内",
    "town_kana": "カワネチョウカミゴウチ",
    "street": null,
    "office_name": null,
    "office_name_kana": null
  },
  "0103": {
    "postcode": "4280103",
    "prefecture": "静岡県",
    "prefecture_kana": "シズオカケン",
    "prefecture_code": 22,
    "city": "島田市",
    "city_kana": "シマダシ",
    "town": "川根町身成",
    "town_kana": "カワネチョウミナリ",
    "street": null,
    "office_name": null,
    "office_name_kana": null
  },
  "0104": {
    "postcode": "4280104",
    "prefecture": "静岡県",
    "prefecture_kana": "シズオカケン",
    "prefecture_code": 22,
    "city": "島田市",
    "city_kana": "シマダシ",
    "town": "川根町家山",
    "town_kana": "カワネチョウイエヤマ",
    "street": null,
    "office_name": null,
    "office_name_kana": null
  },
  "0105": {
    "postcode": "4280105",
    "prefecture": "静岡県",
    "prefecture_kana": "シズオカケン",
    "prefecture_code": 22,
    "city": "島田市",
    "city_kana": "シマダシ",
    "town": "川根町葛籠",
    "town_kana": "カワネチョウツヅラ",
    "street": null,
    "office_name": null,
    "office_name_kana": null
  },
  "0106": {
    "postcode": "4280106",
    "prefecture": "静岡県",
    "prefecture_kana": "シズオカケン",
    "prefecture_code": 22,
    "city": "島田市",
    "city_kana": "シマダシ",
    "town": "川根町抜里",
    "town_kana": "カワネチョウヌクリ",
    "street": null,
    "office_name": null,
    "office_name_kana": null
  },
  "0192": {
    "postcode": "4280192",
    "prefecture": "静岡県",
    "prefecture_kana": "シズオカケン",
    "prefecture_code": 22,
    "city": "島田市",
    "city_kana": "シマダシ",
    "town": "川根町抜里",
    "town_kana": "カワネチョウヌクリ",
    "street": "８７１（川根郵便局私書箱第２号）",
    "office_name": "白瀧製茶　株式会社",
    "office_name_kana": "シラタキセイチヤ カブシキガイシヤ"
  },
  "0211": {
    "postcode": "4280211",
    "prefecture": "静岡県",
    "prefecture_kana": "シズオカケン",
    "prefecture_code": 22,
    "city": "島田市",
    "city_kana": "シマダシ",
    "town": "川根町笹間上",
    "town_kana": "カワネチョウササマカミ",
    "street": null,
    "office_name": null,
    "office_name_kana": null
  },
  "0212": {
    "postcode": "4280212",
    "prefecture": "静岡県",
    "prefecture_kana": "シズオカケン",
    "prefecture_code": 22,
    "city": "島田市",
    "city_kana": "シマダシ",
    "town": "川根町笹間下",
    "town_kana": "カワネチョウササマシモ",
    "street": null,
    "office_name": null,
    "office_name_kana": null
  },
  "0300": {
    "postcode": "4280300",
    "prefecture": "静岡県",
    "prefecture_kana": "シズオカケン",
    "prefecture_code": 22,
    "city": "榛原郡川根本町",
    "city_kana": "ハイバラグンカワネホンチョウ",
    "town": "",
    "town_kana": "",
    "street": null,
    "office_name": null,
    "office_name_kana": null
  },
  "0301": {
    "postcode": "4280301",
    "prefecture": "静岡県",
    "prefecture_kana": "シズオカケン",
    "prefecture_code": 22,
    "city": "榛原郡川根本町",
    "city_kana": "ハイバラグンカワネホンチョウ",
    "town": "徳山",
    "town_kana": "トクヤマ",
    "street": null,
    "office_name": null,
    "office_name_kana": null
  },
  "0302": {
    "postcode": "4280302",
    "prefecture": "静岡県",
    "prefecture_kana": "シズオカケン",
    "prefecture_code": 22,
    "city": "榛原郡川根本町",
    "city_kana": "ハイバラグンカワネホンチョウ",
    "town": "文沢",
    "town_kana": "ブンザワ",
    "street": null,
    "office_name": null,
    "office_name_kana": null
  },
  "0303": {
    "postcode": "4280303",
    "prefecture": "静岡県",
    "prefecture_kana": "シズオカケン",
    "prefecture_code": 22,
    "city": "榛原郡川根本町",
    "city_kana": "ハイバラグンカワネホンチョウ",
    "town": "壱町河内",
    "town_kana": "イチョウゴウチ",
    "street": null,
    "office_name": null,
    "office_name_kana": null
  },
  "0304": {
    "postcode": "4280304",
    "prefecture": "静岡県",
    "prefecture_kana": "シズオカケン",
    "prefecture_code": 22,
    "city": "榛原郡川根本町",
    "city_kana": "ハイバラグンカワネホンチョウ",
    "town": "下泉",
    "town_kana": "シモイズミ",
    "street": null,
    "office_name": null,
    "office_name_kana": null
  },
  "0305": {
    "postcode": "4280305",
    "prefecture": "静岡県",
    "prefecture_kana": "シズオカケン",
    "prefecture_code": 22,
    "city": "榛原郡川根本町",
    "city_kana": "ハイバラグンカワネホンチョウ",
    "town": "地名",
    "town_kana": "ジナ",
    "street": null,
    "office_name": null,
    "office_name_kana": null
  },
  "0306": {
    "postcode": "4280306",
    "prefecture": "静岡県",
    "prefecture_kana": "シズオカケン",
    "prefecture_code": 22,
    "city": "榛原郡川根本町",
    "city_kana": "ハイバラグンカワネホンチョウ",
    "town": "田野口",
    "town_kana": "タノクチ",
    "street": null,
    "office_name": null,
    "office_name_kana": null
  },
  "0311": {
    "postcode": "4280311",
    "prefecture": "静岡県",
    "prefecture_kana": "シズオカケン",
    "prefecture_code": 22,
    "city": "榛原郡川根本町",
    "city_kana": "ハイバラグンカワネホンチョウ",
    "town": "元藤川",
    "town_kana": "モトフジカワ",
    "street": null,
    "office_name": null,
    "office_name_kana": null
  },
  "0312": {
    "postcode": "4280312",
    "prefecture": "静岡県",
    "prefecture_kana": "シズオカケン",
    "prefecture_code": 22,
    "city": "榛原郡川根本町",
    "city_kana": "ハイバラグンカワネホンチョウ",
    "town": "水川",
    "town_kana": "ミズカワ",
    "street": null,
    "office_name": null,
    "office_name_kana": null
  },
  "0313": {
    "postcode": "4280313",
    "prefecture": "静岡県",
    "prefecture_kana": "シズオカケン",
    "prefecture_code": 22,
    "city": "榛原郡川根本町",
    "city_kana": "ハイバラグンカワネホンチョウ",
    "town": "上長尾",
    "town_kana": "カミナガオ",
    "street": null,
    "office_name": null,
    "office_name_kana": null
  },
  "0314": {
    "postcode": "4280314",
    "prefecture": "静岡県",
    "prefecture_kana": "シズオカケン",
    "prefecture_code": 22,
    "city": "榛原郡川根本町",
    "city_kana": "ハイバラグンカワネホンチョウ",
    "town": "下長尾",
    "town_kana": "シモナガオ",
    "street": null,
    "office_name": null,
    "office_name_kana": null
  },
  "0315": {
    "postcode": "4280315",
    "prefecture": "静岡県",
    "prefecture_kana": "シズオカケン",
    "prefecture_code": 22,
    "city": "榛原郡川根本町",
    "city_kana": "ハイバラグンカワネホンチョウ",
    "town": "久野脇",
    "town_kana": "クノワキ",
    "street": null,
    "office_name": null,
    "office_name_kana": null
  },
  "0401": {
    "postcode": "4280401",
    "prefecture": "静岡県",
    "prefecture_kana": "シズオカケン",
    "prefecture_code": 22,
    "city": "榛原郡川根本町",
    "city_kana": "ハイバラグンカワネホンチョウ",
    "town": "梅地",
    "town_kana": "ウメジ",
    "street": null,
    "office_name": null,
    "office_name_kana": null
  },
  "0402": {
    "postcode": "4280402",
    "prefecture": "静岡県",
    "prefecture_kana": "シズオカケン",
    "prefecture_code": 22,
    "city": "榛原郡川根本町",
    "city_kana": "ハイバラグンカワネホンチョウ",
    "town": "犬間",
    "town_kana": "イヌマ",
    "street": null,
    "office_name": null,
    "office_name_kana": null
  },
  "0411": {
    "postcode": "4280411",
    "prefecture": "静岡県",
    "prefecture_kana": "シズオカケン",
    "prefecture_code": 22,
    "city": "榛原郡川根本町",
    "city_kana": "ハイバラグンカワネホンチョウ",
    "town": "千頭",
    "town_kana": "センズ",
    "street": null,
    "office_name": null,
    "office_name_kana": null
  },
  "0412": {
    "postcode": "4280412",
    "prefecture": "静岡県",
    "prefecture_kana": "シズオカケン",
    "prefecture_code": 22,
    "city": "榛原郡川根本町",
    "city_kana": "ハイバラグンカワネホンチョウ",
    "town": "奥泉",
    "town_kana": "オクイズミ",
    "street": null,
    "office_name": null,
    "office_name_kana": null
  },
  "0413": {
    "postcode": "4280413",
    "prefecture": "静岡県",
    "prefecture_kana": "シズオカケン",
    "prefecture_code": 22,
    "city": "榛原郡川根本町",
    "city_kana": "ハイバラグンカワネホンチョウ",
    "town": "桑野山",
    "town_kana": "クワノヤマ",
    "street": null,
    "office_name": null,
    "office_name_kana": null
  },
  "0414": {
    "postcode": "4280414",
    "prefecture": "静岡県",
    "prefecture_kana": "シズオカケン",
    "prefecture_code": 22,
    "city": "榛原郡川根本町",
    "city_kana": "ハイバラグンカワネホンチョウ",
    "town": "東藤川",
    "town_kana": "ヒガシフジカワ",
    "street": null,
    "office_name": null,
    "office_name_kana": null
  },
  "0415": {
    "postcode": "4280415",
    "prefecture": "静岡県",
    "prefecture_kana": "シズオカケン",
    "prefecture_code": 22,
    "city": "榛原郡川根本町",
    "city_kana": "ハイバラグンカワネホンチョウ",
    "town": "上岸",
    "town_kana": "カミキシ",
    "street": null,
    "office_name": null,
    "office_name_kana": null
  },
  "0416": {
    "postcode": "4280416",
    "prefecture": "静岡県",
    "prefecture_kana": "シズオカケン",
    "prefecture_code": 22,
    "city": "榛原郡川根本町",
    "city_kana": "ハイバラグンカワネホンチョウ",
    "town": "田代",
    "town_kana": "タシロ",
    "street": null,
    "office_name": null,
    "office_name_kana": null
  },
  "0417": {
    "postcode": "4280417",
    "prefecture": "静岡県",
    "prefecture_kana": "シズオカケン",
    "prefecture_code": 22,
    "city": "榛原郡川根本町",
    "city_kana": "ハイバラグンカワネホンチョウ",
    "town": "青部",
    "town_kana": "アオベ",
    "street": null,
    "office_name": null,
    "office_name_kana": null
  },
  "0418": {
    "postcode": "4280418",
    "prefecture": "静岡県",
    "prefecture_kana": "シズオカケン",
    "prefecture_code": 22,
    "city": "榛原郡川根本町",
    "city_kana": "ハイバラグンカワネホンチョウ",
    "town": "崎平",
    "town_kana": "サキダイラ",
    "street": null,
    "office_name": null,
    "office_name_kana": null
  },
  "0501": {
    "postcode": "4280501",
    "prefecture": "静岡県",
    "prefecture_kana": "シズオカケン",
    "prefecture_code": 22,
    "city": "静岡市葵区",
    "city_kana": "シズオカシアオイク",
    "town": "小河内",
    "town_kana": "コゴウチ",
    "street": null,
    "office_name": null,
    "office_name_kana": null
  },
  "0502": {
    "postcode": "4280502",
    "prefecture": "静岡県",
    "prefecture_kana": "シズオカケン",
    "prefecture_code": 22,
    "city": "静岡市葵区",
    "city_kana": "シズオカシアオイク",
    "town": "上坂本",
    "town_kana": "カミサカモト",
    "street": null,
    "office_name": null,
    "office_name_kana": null
  },
  "0503": {
    "postcode": "4280503",
    "prefecture": "静岡県",
    "prefecture_kana": "シズオカケン",
    "prefecture_code": 22,
    "city": "静岡市葵区",
    "city_kana": "シズオカシアオイク",
    "town": "岩崎",
    "town_kana": "イワサキ",
    "street": null,
    "office_name": null,
    "office_name_kana": null
  },
  "0504": {
    "postcode": "4280504",
    "prefecture": "静岡県",
    "prefecture_kana": "シズオカケン",
    "prefecture_code": 22,
    "city": "静岡市葵区",
    "city_kana": "シズオカシアオイク",
    "town": "井川",
    "town_kana": "イカワ",
    "street": null,
    "office_name": null,
    "office_name_kana": null
  },
  "0505": {
    "postcode": "4280505",
    "prefecture": "静岡県",
    "prefecture_kana": "シズオカケン",
    "prefecture_code": 22,
    "city": "静岡市葵区",
    "city_kana": "シズオカシアオイク",
    "town": "田代",
    "town_kana": "タシロ",
    "street": null,
    "office_name": null,
    "office_name_kana": null
  },
  "8501": {
    "postcode": "4288501",
    "prefecture": "静岡県",
    "prefecture_kana": "シズオカケン",
    "prefecture_code": 22,
    "city": "島田市",
    "city_kana": "シマダシ",
    "town": "金谷",
    "town_kana": null,
    "street": "２７６９",
    "office_name": "野菜茶業試験場",
    "office_name_kana": "ヤサイチヤギヨウシケンジヨウ"
  },
  "8502": {
    "postcode": "4288502",
    "prefecture": "静岡県",
    "prefecture_kana": "シズオカケン",
    "prefecture_code": 22,
    "city": "島田市",
    "city_kana": "シマダシ",
    "town": "牛尾",
    "town_kana": "ウシオ",
    "street": "８６９−１",
    "office_name": "株式会社　寺田製作所",
    "office_name_kana": "カブシキガイシヤ テラダセイサクシヨ"
  },
  "8503": {
    "postcode": "4288503",
    "prefecture": "静岡県",
    "prefecture_kana": "シズオカケン",
    "prefecture_code": 22,
    "city": "島田市",
    "city_kana": "シマダシ",
    "town": "金谷",
    "town_kana": null,
    "street": "１１１２−２",
    "office_name": "大井川鉄道　株式会社",
    "office_name_kana": "オオイガワテツドウ カブシキガイシヤ"
  },
  "8650": {
    "postcode": "4288650",
    "prefecture": "静岡県",
    "prefecture_kana": "シズオカケン",
    "prefecture_code": 22,
    "city": "島田市",
    "city_kana": "シマダシ",
    "town": "金谷代官町",
    "town_kana": "カナヤダイカンチョウ",
    "street": "３４００番地",
    "office_name": "金谷地区生活交流拠点施設（かなうぇる）",
    "office_name_kana": "カナヤチクセイカツコウリユウキヨテンシセツカナウエル"
  },
  "8651": {
    "postcode": "4288651",
    "prefecture": "静岡県",
    "prefecture_kana": "シズオカケン",
    "prefecture_code": 22,
    "city": "島田市",
    "city_kana": "シマダシ",
    "town": "牛尾",
    "town_kana": "ウシオ",
    "street": "１１８（金谷郵便局私書箱第１３号）",
    "office_name": "ティーライフ　株式会社",
    "office_name_kana": "テイ-ライフ カブシキガイシヤ"
  },
  "8652": {
    "postcode": "4288652",
    "prefecture": "静岡県",
    "prefecture_kana": "シズオカケン",
    "prefecture_code": 22,
    "city": "島田市",
    "city_kana": "シマダシ",
    "town": "大代",
    "town_kana": "オオジロ",
    "street": "１０８６−１（金谷郵便局私書箱第１２号）",
    "office_name": "サンエムパッケージ　株式会社",
    "office_name_kana": "サンエムパツケ-ジ カブシキガイシヤ"
  },
  "8686": {
    "postcode": "4288686",
    "prefecture": "静岡県",
    "prefecture_kana": "シズオカケン",
    "prefecture_code": 22,
    "city": "島田市",
    "city_kana": "シマダシ",
    "town": "佐夜鹿",
    "town_kana": "サヨシカ",
    "street": "２６−２（金谷郵便局私書箱第１６号）",
    "office_name": "なかすぎ園",
    "office_name_kana": "ナカスギエン"
  }
}