{
  "0801": {
    "postcode": "4300801",
    "prefecture": "静岡県",
    "prefecture_kana": "シズオカケン",
    "prefecture_code": 22,
    "city": "浜松市中央区",
    "city_kana": "ハママツシチュウオウク",
    "town": "神立町",
    "town_kana": "コウダチチョウ",
    "street": null,
    "office_name": null,
    "office_name_kana": null
  },
  "0802": {
    "postcode": "4300802",
    "prefecture": "静岡県",
    "prefecture_kana": "シズオカケン",
    "prefecture_code": 22,
    "city": "浜松市中央区",
    "city_kana": "ハママツシチュウオウク",
    "town": "将監町",
    "town_kana": "ショウゲンチョウ",
    "street": null,
    "office_name": null,
    "office_name_kana": null
  },
  "0803": {
    "postcode": "4300803",
    "prefecture": "静岡県",
    "prefecture_kana": "シズオカケン",
    "prefecture_code": 22,
    "city": "浜松市中央区",
    "city_kana": "ハママツシチュウオウク",
    "town": "植松町",
    "town_kana": "ウエマツチョウ",
    "street": null,
    "office_name": null,
    "office_name_kana": null
  },
  "0804": {
    "postcode": "4300804",
    "prefecture": "静岡県",
    "prefecture_kana": "シズオカケン",
    "prefecture_code": 22,
    "city": "浜松市中央区",
    "city_kana": "ハママツシチュウオウク",
    "town": "富吉町",
    "town_kana": "トミヨシチョウ",
    "street": null,
    "office_name": null,
    "office_name_kana": null
  },
  "0805": {
    "postcode": "4300805",
    "prefecture": "静岡県",
    "prefecture_kana": "シズオカケン",
    "prefecture_code": 22,
    "city": "浜松市中央区",
    "city_kana": "ハママツシチュウオウク",
    "town": "相生町",
    "town_kana": "アイオイチョウ",
    "street": null,
    "office_name": null,
    "office_name_kana": null
  },
  "0806": {
    "postcode": "4300806",
    "prefecture": "静岡県",
    "prefecture_kana": "シズオカケン",
    "prefecture_code": 22,
    "city": "浜松市中央区",
    "city_kana": "ハママツシチュウオウク",
    "town": "木戸町",
    "town_kana": "キドチョウ",
    "street": null,
    "office_name": null,
    "office_name_kana": null
  },
  "0807": {
    "postcode": "4300807",
    "prefecture": "静岡県",
    "prefecture_kana": "シズオカケン",
    "prefecture_code": 22,
    "city": "浜松市中央区",
    "city_kana": "ハママツシチュウオウク",
    "town": "佐藤",
    "town_kana": "サトウ",
    "street": null,
    "office_name": null,
    "office_name_kana": null
  },
  "0808": {
    "postcode": "4300808",
    "prefecture": "静岡県",
    "prefecture_kana": "シズオカケン",
    "prefecture_code": 22,
    "city": "浜松市中央区",
    "city_kana": "ハママツシチュウオウク",
    "town": "天神町",
    "town_kana": "テンジンマチ",
    "street": null,
    "office_name": null,
    "office_name_kana": null
  },
  "0811": {
    "postcode": "4300811",
    "prefecture": "静岡県",
    "prefecture_kana": "シズオカケン",
    "prefecture_code": 22,
    "city": "浜松市中央区",
    "city_kana": "ハママツシチュウオウク",
    "town": "名塚町",
    "town_kana": "ナヅカチョウ",
    "street": null,
    "office_name": null,
    "office_name_kana": null
  },
  "0812": {
    "postcode": "4300812",
    "prefecture": "静岡県",
    "prefecture_kana": "シズオカケン",
    "prefecture_code": 22,
    "city": "浜松市中央区",
    "city_kana": "ハママツシチュウオウク",
    "town": "本郷町",
    "town_kana": "ホンゴウチョウ",
    "street": null,
    "office_name": null,
    "office_name_kana": null
  },
  "0813": {
    "postcode": "4300813",
    "prefecture": "静岡県",
    "prefecture_kana": "シズオカケン",
    "prefecture_code": 22,
    "city": "浜松市中央区",
    "city_kana": "ハママツシチュウオウク",
    "town": "芳川町",
    "town_kana": "ホウガワチョウ",
    "street": null,
    "office_name": null,
    "office_name_kana": null
  },
  "0814": {
    "postcode": "4300814",
    "prefecture": "静岡県",
    "prefecture_kana": "シズオカケン",
    "prefecture_code": 22,
    "city": "浜松市中央区",
    "city_kana": "ハママツシチュウオウク",
    "town": "恩地町",
    "town_kana": "オンヂチョウ",
    "street": null,
    "office_name": null,
    "office_name_kana": null
  },
  "0815": {
    "postcode": "4300815",
    "prefecture": "静岡県",
    "prefecture_kana": "シズオカケン",
    "prefecture_code": 22,
    "city": "浜松市中央区",
    "city_kana": "ハママツシチュウオウク",
    "town": "都盛町",
    "town_kana": "ツモリチョウ",
    "street": null,
    "office_name": null,
    "office_name_kana": null
  },
  "0816": {
    "postcode": "4300816",
    "prefecture": "静岡県",
    "prefecture_kana": "シズオカケン",
    "prefecture_code": 22,
    "city": "浜松市中央区",
    "city_kana": "ハママツシチュウオウク",
    "town": "参野町",
    "town_kana": "サンジノチョウ",
    "street": null,
    "office_name": null,
    "office_name_kana": null
  },
  "0817": {
    "postcode": "4300817",
    "prefecture": "静岡県",
    "prefecture_kana": "シズオカケン",
    "prefecture_code": 22,
    "city": "浜松市中央区",
    "city_kana": "ハママツシチュウオウク",
    "town": "頭陀寺町",
    "town_kana": "ズダジチョウ",
    "street": null,
    "office_name": null,
    "office_name_kana": null
  },
  "0821": {
    "postcode": "4300821",
    "prefecture": "静岡県",
    "prefecture_kana": "シズオカケン",
    "prefecture_code": 22,
    "city": "浜松市中央区",
    "city_kana": "ハママツシチュウオウク",
    "town": "西町",
    "town_kana": "ニシマチ",
    "street": null,
    "office_name": null,
    "office_name_kana": null
  },
  "0822": {
    "postcode": "4300822",
    "prefecture": "静岡県",
    "prefecture_kana": "シズオカケン",
    "prefecture_code": 22,
    "city": "浜松市中央区",
    "city_kana": "ハママツシチュウオウク",
    "town": "東町",
    "town_kana": "ヒガシマチ",
    "street": null,
    "office_name": null,
    "office_name_kana": null
  },
  "0823": {
    "postcode": "4300823",
    "prefecture": "静岡県",
    "prefecture_kana": "シズオカケン",
    "prefecture_code": 22,
    "city": "浜松市中央区",
    "city_kana": "ハママツシチュウオウク",
    "town": "河輪町",
    "town_kana": "カワワチョウ",
    "street": null,
    "office_name": null,
    "office_name_kana": null
  },
  "0824": {
    "postcode": "4300824",
    "prefecture": "静岡県",
    "prefecture_kana": "シズオカケン",
    "prefecture_code": 22,
    "city": "浜松市中央区",
    "city_kana": "ハママツシチュウオウク",
    "town": "富屋町",
    "town_kana": "トミヤチョウ",
    "street": null,
    "office_name": null,
    "office_name_kana": null
  },
  "0825": {
    "postcode": "4300825",
    "prefecture": "静岡県",
    "prefecture_kana": "シズオカケン",
    "prefecture_code": 22,
    "city": "浜松市中央区",
    "city_kana": "ハママツシチュウオウク",
    "town": "下江町",
    "town_kana": "シモエチョウ",
    "street": null,
    "office_name": null,
    "office_name_kana": null
  },
  "0826": {
    "postcode": "4300826",
    "prefecture": "静岡県",
    "prefecture_kana": "シズオカケン",
    "prefecture_code": 22,
    "city": "浜松市中央区",
    "city_kana": "ハママツシチュウオウク",
    "town": "四本松町",
    "town_kana": "シホンマツチョウ",
    "street": null,
    "office_name": null,
    "office_name_kana": null
  },
  "0827": {
    "postcode": "4300827",
    "prefecture": "静岡県",
    "prefecture_kana": "シズオカケン",
    "prefecture_code": 22,
    "city": "浜松市中央区",
    "city_kana": "ハママツシチュウオウク",
    "town": "立野町",
    "town_kana": "タテノチョウ",
    "street": null,
    "office_name": null,
    "office_name_kana": null
  },
  "0831": {
    "postcode": "4300831",
    "prefecture": "静岡県",
    "prefecture_kana": "シズオカケン",
    "prefecture_code": 22,
    "city": "浜松市中央区",
    "city_kana": "ハママツシチュウオウク",
    "town": "御給町",
    "town_kana": "ゴキュウチョウ",
    "street": null,
    "office_name": null,
    "office_name_kana": null
  },
  "0832": {
    "postcode": "4300832",
    "prefecture": "静岡県",
    "prefecture_kana": "シズオカケン",
    "prefecture_code": 22,
    "city": "浜松市中央区",
    "city_kana": "ハママツシチュウオウク",
    "town": "長田町",
    "town_kana": "ナガタチョウ",
    "street": null,
    "office_name": null,
    "office_name_kana": null
  },
  "0833": {
    "postcode": "4300833",
    "prefecture": "静岡県",
    "prefecture_kana": "シズオカケン",
    "prefecture_code": 22,
    "city": "浜松市中央区",
    "city_kana": "ハママツシチュウオウク",
    "town": "三新町",
    "town_kana": "サンシンチョウ",
    "street": null,
    "office_name": null,
    "office_name_kana": null
  },
  "0834": {
    "postcode": "4300834",
    "prefecture": "静岡県",
    "prefecture_kana": "シズオカケン",
    "prefecture_code": 22,
    "city": "浜松市中央区",
    "city_kana": "ハママツシチュウオウク",
    "town": "松島町",
    "town_kana": "マツシマチョウ",
    "street": null,
    "office_name": null,
    "office_name_kana": null
  },
  "0835": {
    "postcode": "4300835",
    "prefecture": "静岡県",
    "prefecture_kana": "シズオカケン",
    "prefecture_code": 22,
    "city": "浜松市中央区",
    "city_kana": "ハママツシチュウオウク",
    "town": "遠州浜",
    "town_kana": "エンシュウハマ",
    "street": null,
    "office_name": null,
    "office_name_kana": null
  },
  "0836": {
    "postcode": "4300836",
    "prefecture": "静岡県",
    "prefecture_kana": "シズオカケン",
    "prefecture_code": 22,
    "city": "浜松市中央区",
    "city_kana": "ハママツシチュウオウク",
    "town": "福島町",
    "town_kana": "フクシマチョウ",
    "street": null,
    "office_name": null,
    "office_name_kana": null
  },
  "0837": {
    "postcode": "4300837",
    "prefecture": "静岡県",
    "prefecture_kana": "シズオカケン",
    "prefecture_code": 22,
    "city": "浜松市中央区",
    "city_kana": "ハママツシチュウオウク",
    "town": "西島町",
    "town_kana": "ニシジマチョウ",
    "street": null,
    "office_name": null,
    "office_name_kana": null
  },
  "0838": {
    "postcode": "4300838",
    "prefecture": "静岡県",
    "prefecture_kana": "シズオカケン",
    "prefecture_code": 22,
    "city": "浜松市中央区",
    "city_kana": "ハママツシチュウオウク",
    "town": "鼡野町",
    "town_kana": "ネズミノチョウ",
    "street": null,
    "office_name": null,
    "office_name_kana": null
  },
  "0841": {
    "postcode": "4300841",
    "prefecture": "静岡県",
    "prefecture_kana": "シズオカケン",
    "prefecture_code": 22,
    "city": "浜松市中央区",
    "city_kana": "ハママツシチュウオウク",
    "town": "寺脇町",
    "town_kana": "テラワキチョウ",
    "street": null,
    "office_name": null,
    "office_name_kana": null
  },
  "0842": {
    "postcode": "4300842",
    "prefecture": "静岡県",
    "prefecture_kana": "シズオカケン",
    "prefecture_code": 22,
    "city": "浜松市中央区",
    "city_kana": "ハママツシチュウオウク",
    "town": "大柳町",
    "town_kana": "オオヤギチョウ",
    "street": null,
    "office_name": null,
    "office_name_kana": null
  },
  "0843": {
    "postcode": "4300843",
    "prefecture": "静岡県",
    "prefecture_kana": "シズオカケン",
    "prefecture_code": 22,
    "city": "浜松市中央区",
    "city_kana": "ハママツシチュウオウク",
    "town": "福塚町",
    "town_kana": "フクヅカチョウ",
    "street": null,
    "office_name": null,
    "office_name_kana": null
  },
  "0844": {
    "postcode": "4300844",
    "prefecture": "静岡県",
    "prefecture_kana": "シズオカケン",
    "prefecture_code": 22,
    "city": "浜松市中央区",
    "city_kana": "ハママツシチュウオウク",
    "town": "江之島町",
    "town_kana": "エノシマチョウ",
    "street": null,
    "office_name": null,
    "office_name_kana": null
  },
  "0845": {
    "postcode": "4300845",
    "prefecture": "静岡県",
    "prefecture_kana": "シズオカケン",
    "prefecture_code": 22,
    "city": "浜松市中央区",
    "city_kana": "ハママツシチュウオウク",
    "town": "中田島町",
    "town_kana": "ナカタジマチョウ",
    "street": null,
    "office_name": null,
    "office_name_kana": null
  },
  "0846": {
    "postcode": "4300846",
    "prefecture": "静岡県",
    "prefecture_kana": "シズオカケン",
    "prefecture_code": 22,
    "city": "浜松市中央区",
    "city_kana": "ハママツシチュウオウク",
    "town": "白羽町",
    "town_kana": "シロワチョウ",
    "street": null,
    "office_name": null,
    "office_name_kana": null
  },
  "0851": {
    "postcode": "4300851",
    "prefecture": "静岡県",
    "prefecture_kana": "シズオカケン",
    "prefecture_code": 22,
    "city": "浜松市中央区",
    "city_kana": "ハママツシチュウオウク",
    "town": "向宿",
    "town_kana": "ムコウジュク",
    "street": null,
    "office_name": null,
    "office_name_kana": null
  },
  "0852": {
    "postcode": "4300852",
    "prefecture": "静岡県",
    "prefecture_kana": "シズオカケン",
    "prefecture_code": 22,
    "city": "浜松市中央区",
    "city_kana": "ハママツシチュウオウク",
    "town": "領家",
    "town_kana": "リョウケ",
    "street": null,
    "office_name": null,
    "office_name_kana": null
  },
  "0853": {
    "postcode": "4300853",
    "prefecture": "静岡県",
    "prefecture_kana": "シズオカケン",
    "prefecture_code": 22,
    "city": "浜松市中央区",
    "city_kana": "ハママツシチュウオウク",
    "town": "三島町",
    "town_kana": "ミシマチョウ",
    "street": null,
    "office_name": null,
    "office_name_kana": null
  },
  "0854": {
    "postcode": "4300854",
    "prefecture": "静岡県",
    "prefecture_kana": "シズオカケン",
    "prefecture_code": 22,
    "city": "浜松市中央区",
    "city_kana": "ハママツシチュウオウク",
    "town": "瓜内町",
    "town_kana": "ウリウチチョウ",
    "street": null,
    "office_name": null,
    "office_name_kana": null
  },
  "0855": {
    "postcode": "4300855",
    "prefecture": "静岡県",
    "prefecture_kana": "シズオカケン",
    "prefecture_code": 22,
    "city": "浜松市中央区",
    "city_kana": "ハママツシチュウオウク",
    "town": "楊子町",
    "town_kana": "ヨウズチョウ",
    "street": null,
    "office_name": null,
    "office_name_kana": null
  },
  "0856": {
    "postcode": "4300856",
    "prefecture": "静岡県",
    "prefecture_kana": "シズオカケン",
    "prefecture_code": 22,
    "city": "浜松市中央区",
    "city_kana": "ハママツシチュウオウク",
    "town": "中島",
    "town_kana": "ナカジマ",
    "street": null,
    "office_name": null,
    "office_name_kana": null
  },
  "0857": {
    "postcode": "4300857",
    "prefecture": "静岡県",
    "prefecture_kana": "シズオカケン",
    "prefecture_code": 22,
    "city": "浜松市中央区",
    "city_kana": "ハママツシチュウオウク",
    "town": "中島町",
    "town_kana": "ナカジマチョウ",
    "street": null,
    "office_name": null,
    "office_name_kana": null
  },
  "0897": {
    "postcode": "4300897",
    "prefecture": "静岡県",
    "prefecture_kana": "シズオカケン",
    "prefecture_code": 22,
    "city": "浜松市中央区",
    "city_kana": "ハママツシチュウオウク",
    "town": "江之島町",
    "town_kana": "エノシマチョウ",
    "street": "６００番地の１",
    "office_name": "南行政センター",
    "office_name_kana": "ミナミギヨウセイセンタ-"
  },
  "0898": {
    "postcode": "4300898",
    "prefecture": "静岡県",
    "prefecture_kana": "シズオカケン",
    "prefecture_code": 22,
    "city": "浜松市中央区",
    "city_kana": "ハママツシチュウオウク",
    "town": "瓜内町",
    "town_kana": "ウリウチチョウ",
    "street": "５４０番地",
    "office_name": "株式会社　マルイチ",
    "office_name_kana": "カブシキガイシヤ マルイチ"
  },
  "0901": {
    "postcode": "4300901",
    "prefecture": "静岡県",
    "prefecture_kana": "シズオカケン",
    "prefecture_code": 22,
    "city": "浜松市中央区",
    "city_kana": "ハママツシチュウオウク",
    "town": "曳馬",
    "town_kana": "ヒクマ",
    "street": null,
    "office_name": null,
    "office_name_kana": null
  },
  "0902": {
    "postcode": "4300902",
    "prefecture": "静岡県",
    "prefecture_kana": "シズオカケン",
    "prefecture_code": 22,
    "city": "浜松市中央区",
    "city_kana": "ハママツシチュウオウク",
    "town": "曳馬町",
    "town_kana": "ヒクマチョウ",
    "street": null,
    "office_name": null,
    "office_name_kana": null
  },
  "0903": {
    "postcode": "4300903",
    "prefecture": "静岡県",
    "prefecture_kana": "シズオカケン",
    "prefecture_code": 22,
    "city": "浜松市中央区",
    "city_kana": "ハママツシチュウオウク",
    "town": "助信町",
    "town_kana": "スケノブチョウ",
    "street": null,
    "office_name": null,
    "office_name_kana": null
  },
  "0904": {
    "postcode": "4300904",
    "prefecture": "静岡県",
    "prefecture_kana": "シズオカケン",
    "prefecture_code": 22,
    "city": "浜松市中央区",
    "city_kana": "ハママツシチュウオウク",
    "town": "中沢町",
    "town_kana": "ナカザワチョウ",
    "street": null,
    "office_name": null,
    "office_name_kana": null
  },
  "0905": {
    "postcode": "4300905",
    "prefecture": "静岡県",
    "prefecture_kana": "シズオカケン",
    "prefecture_code": 22,
    "city": "浜松市中央区",
    "city_kana": "ハママツシチュウオウク",
    "town": "下池川町",
    "town_kana": "シモイケガワチョウ",
    "street": null,
    "office_name": null,
    "office_name_kana": null
  },
  "0906": {
    "postcode": "4300906",
    "prefecture": "静岡県",
    "prefecture_kana": "シズオカケン",
    "prefecture_code": 22,
    "city": "浜松市中央区",
    "city_kana": "ハママツシチュウオウク",
    "town": "住吉",
    "town_kana": "スミヨシ",
    "street": null,
    "office_name": null,
    "office_name_kana": null
  },
  "0907": {
    "postcode": "4300907",
    "prefecture": "静岡県",
    "prefecture_kana": "シズオカケン",
    "prefecture_code": 22,
    "city": "浜松市中央区",
    "city_kana": "ハママツシチュウオウク",
    "town": "高林",
    "town_kana": "タカバヤシ",
    "street": null,
    "office_name": null,
    "office_name_kana": null
  },
  "0911": {
    "postcode": "4300911",
    "prefecture": "静岡県",
    "prefecture_kana": "シズオカケン",
    "prefecture_code": 22,
    "city": "浜松市中央区",
    "city_kana": "ハママツシチュウオウク",
    "town": "新津町",
    "town_kana": "シンヅチョウ",
    "street": null,
    "office_name": null,
    "office_name_kana": null
  },
  "0912": {
    "postcode": "4300912",
    "prefecture": "静岡県",
    "prefecture_kana": "シズオカケン",
    "prefecture_code": 22,
    "city": "浜松市中央区",
    "city_kana": "ハママツシチュウオウク",
    "town": "茄子町",
    "town_kana": "ナスビチョウ",
    "street": null,
    "office_name": null,
    "office_name_kana": null
  },
  "0913": {
    "postcode": "4300913",
    "prefecture": "静岡県",
    "prefecture_kana": "シズオカケン",
    "prefecture_code": 22,
    "city": "浜松市中央区",
    "city_kana": "ハママツシチュウオウク",
    "town": "船越町",
    "town_kana": "フナコシチョウ",
    "street": null,
    "office_name": null,
    "office_name_kana": null
  },
  "0915": {
    "postcode": "4300915",
    "prefecture": "静岡県",
    "prefecture_kana": "シズオカケン",
    "prefecture_code": 22,
    "city": "浜松市中央区",
    "city_kana": "ハママツシチュウオウク",
    "town": "東田町",
    "town_kana": "ヒガシタマチ",
    "street": null,
    "office_name": null,
    "office_name_kana": null
  },
  "0916": {
    "postcode": "4300916",
    "prefecture": "静岡県",
    "prefecture_kana": "シズオカケン",
    "prefecture_code": 22,
    "city": "浜松市中央区",
    "city_kana": "ハママツシチュウオウク",
    "town": "早馬町",
    "town_kana": "ハヤウマチョウ",
    "street": null,
    "office_name": null,
    "office_name_kana": null
  },
  "0917": {
    "postcode": "4300917",
    "prefecture": "静岡県",
    "prefecture_kana": "シズオカケン",
    "prefecture_code": 22,
    "city": "浜松市中央区",
    "city_kana": "ハママツシチュウオウク",
    "town": "常盤町",
    "town_kana": "トキワチョウ",
    "street": null,
    "office_name": null,
    "office_name_kana": null
  },
  "0918": {
    "postcode": "4300918",
    "prefecture": "静岡県",
    "prefecture_kana": "シズオカケン",
    "prefecture_code": 22,
    "city": "浜松市中央区",
    "city_kana": "ハママツシチュウオウク",
    "town": "八幡町",
    "town_kana": "ハチマンチョウ",
    "street": null,
    "office_name": null,
    "office_name_kana": null
  },
  "0919": {
    "postcode": "4300919",
    "prefecture": "静岡県",
    "prefecture_kana": "シズオカケン",
    "prefecture_code": 22,
    "city": "浜松市中央区",
    "city_kana": "ハママツシチュウオウク",
    "town": "野口町",
    "town_kana": "ノグチチョウ",
    "street": null,
    "office_name": null,
    "office_name_kana": null
  },
  "0923": {
    "postcode": "4300923",
    "prefecture": "静岡県",
    "prefecture_kana": "シズオカケン",
    "prefecture_code": 22,
    "city": "浜松市中央区",
    "city_kana": "ハママツシチュウオウク",
    "town": "北寺島町",
    "town_kana": "キタテラジマチョウ",
    "street": null,
    "office_name": null,
    "office_name_kana": null
  },
  "0924": {
    "postcode": "4300924",
    "prefecture": "静岡県",
    "prefecture_kana": "シズオカケン",
    "prefecture_code": 22,
    "city": "浜松市中央区",
    "city_kana": "ハママツシチュウオウク",
    "town": "龍禅寺町",
    "town_kana": "リュウゼンジチョウ",
    "street": null,
    "office_name": null,
    "office_name_kana": null
  },
  "0925": {
    "postcode": "4300925",
    "prefecture": "静岡県",
    "prefecture_kana": "シズオカケン",
    "prefecture_code": 22,
    "city": "浜松市中央区",
    "city_kana": "ハママツシチュウオウク",
    "town": "寺島町",
    "town_kana": "テラジマチョウ",
    "street": null,
    "office_name": null,
    "office_name_kana": null
  },
  "0926": {
    "postcode": "4300926",
    "prefecture": "静岡県",
    "prefecture_kana": "シズオカケン",
    "prefecture_code": 22,
    "city": "浜松市中央区",
    "city_kana": "ハママツシチュウオウク",
    "town": "砂山町",
    "town_kana": "スナヤマチョウ",
    "street": null,
    "office_name": null,
    "office_name_kana": null
  },
  "0927": {
    "postcode": "4300927",
    "prefecture": "静岡県",
    "prefecture_kana": "シズオカケン",
    "prefecture_code": 22,
    "city": "浜松市中央区",
    "city_kana": "ハママツシチュウオウク",
    "town": "旭町",
    "town_kana": "アサヒチョウ",
    "street": null,
    "office_name": null,
    "office_name_kana": null
  },
  "0928": {
    "postcode": "4300928",
    "prefecture": "静岡県",
    "prefecture_kana": "シズオカケン",
    "prefecture_code": 22,
    "city": "浜松市中央区",
    "city_kana": "ハママツシチュウオウク",
    "town": "板屋町",
    "town_kana": "イタヤマチ",
    "street": null,
    "office_name": null,
    "office_name_kana": null
  },
  "0929": {
    "postcode": "4300929",
    "prefecture": "静岡県",
    "prefecture_kana": "シズオカケン",
    "prefecture_code": 22,
    "city": "浜松市中央区",
    "city_kana": "ハママツシチュウオウク",
    "town": "中央",
    "town_kana": "チュウオウ",
    "street": null,
    "office_name": null,
    "office_name_kana": null
  },
  "0931": {
    "postcode": "4300931",
    "prefecture": "静岡県",
    "prefecture_kana": "シズオカケン",
    "prefecture_code": 22,
    "city": "浜松市中央区",
    "city_kana": "ハママツシチュウオウク",
    "town": "神明町",
    "town_kana": "シンメイチョウ",
    "street": null,
    "office_name": null,
    "office_name_kana": null
  },
  "0932": {
    "postcode": "4300932",
    "prefecture": "静岡県",
    "prefecture_kana": "シズオカケン",
    "prefecture_code": 22,
    "city": "浜松市中央区",
    "city_kana": "ハママツシチュウオウク",
    "town": "肴町",
    "town_kana": "サカナマチ",
    "street": null,
    "office_name": null,
    "office_name_kana": null
  },
  "0933": {
    "postcode": "4300933",
    "prefecture": "静岡県",
    "prefecture_kana": "シズオカケン",
    "prefecture_code": 22,
    "city": "浜松市中央区",
    "city_kana": "ハママツシチュウオウク",
    "town": "鍛冶町",
    "town_kana": "カジマチ",
    "street": null,
    "office_name": null,
    "office_name_kana": null
  },
  "0934": {
    "postcode": "4300934",
    "prefecture": "静岡県",
    "prefecture_kana": "シズオカケン",
    "prefecture_code": 22,
    "city": "浜松市中央区",
    "city_kana": "ハママツシチュウオウク",
    "town": "千歳町",
    "town_kana": "チトセチョウ",
    "street": null,
    "office_name": null,
    "office_name_kana": null
  },
  "0935": {
    "postcode": "4300935",
    "prefecture": "静岡県",
    "prefecture_kana": "シズオカケン",
    "prefecture_code": 22,
    "city": "浜松市中央区",
    "city_kana": "ハママツシチュウオウク",
    "town": "伝馬町",
    "town_kana": "テンマチョウ",
    "street": null,
    "office_name": null,
    "office_name_kana": null
  },
  "0936": {
    "postcode": "4300936",
    "prefecture": "静岡県",
    "prefecture_kana": "シズオカケン",
    "prefecture_code": 22,
    "city": "浜松市中央区",
    "city_kana": "ハママツシチュウオウク",
    "town": "大工町",
    "town_kana": "ダイクマチ",
    "street": null,
    "office_name": null,
    "office_name_kana": null
  },
  "0937": {
    "postcode": "4300937",
    "prefecture": "静岡県",
    "prefecture_kana": "シズオカケン",
    "prefecture_code": 22,
    "city": "浜松市中央区",
    "city_kana": "ハママツシチュウオウク",
    "town": "利町",
    "town_kana": "トギマチ",
    "street": null,
    "office_name": null,
    "office_name_kana": null
  },
  "0938": {
    "postcode": "4300938",
    "prefecture": "静岡県",
    "prefecture_kana": "シズオカケン",
    "prefecture_code": 22,
    "city": "浜松市中央区",
    "city_kana": "ハママツシチュウオウク",
    "town": "紺屋町",
    "town_kana": "コウヤマチ",
    "street": null,
    "office_name": null,
    "office_name_kana": null
  },
  "0939": {
    "postcode": "4300939",
    "prefecture": "静岡県",
    "prefecture_kana": "シズオカケン",
    "prefecture_code": 22,
    "city": "浜松市中央区",
    "city_kana": "ハママツシチュウオウク",
    "town": "連尺町",
    "town_kana": "レンジャクチョウ",
    "street": null,
    "office_name": null,
    "office_name_kana": null
  },
  "0941": {
    "postcode": "4300941",
    "prefecture": "静岡県",
    "prefecture_kana": "シズオカケン",
    "prefecture_code": 22,
    "city": "浜松市中央区",
    "city_kana": "ハママツシチュウオウク",
    "town": "山下町",
    "town_kana": "ヤマシタチョウ",
    "street": null,
    "office_name": null,
    "office_name_kana": null
  },
  "0942": {
    "postcode": "4300942",
    "prefecture": "静岡県",
    "prefecture_kana": "シズオカケン",
    "prefecture_code": 22,
    "city": "浜松市中央区",
    "city_kana": "ハママツシチュウオウク",
    "town": "元浜町",
    "town_kana": "モトハマチョウ",
    "street": null,
    "office_name": null,
    "office_name_kana": null
  },
  "0943": {
    "postcode": "4300943",
    "prefecture": "静岡県",
    "prefecture_kana": "シズオカケン",
    "prefecture_code": 22,
    "city": "浜松市中央区",
    "city_kana": "ハママツシチュウオウク",
    "town": "北田町",
    "town_kana": "キタタマチ",
    "street": null,
    "office_name": null,
    "office_name_kana": null
  },
  "0944": {
    "postcode": "4300944",
    "prefecture": "静岡県",
    "prefecture_kana": "シズオカケン",
    "prefecture_code": 22,
    "city": "浜松市中央区",
    "city_kana": "ハママツシチュウオウク",
    "town": "田町",
    "town_kana": "タマチ",
    "street": null,
    "office_name": null,
    "office_name_kana": null
  },
  "0945": {
    "postcode": "4300945",
    "prefecture": "静岡県",
    "prefecture_kana": "シズオカケン",
    "prefecture_code": 22,
    "city": "浜松市中央区",
    "city_kana": "ハママツシチュウオウク",
    "town": "池町",
    "town_kana": "イケマチ",
    "street": null,
    "office_name": null,
    "office_name_kana": null
  },
  "0946": {
    "postcode": "4300946",
    "prefecture": "静岡県",
    "prefecture_kana": "シズオカケン",
    "prefecture_code": 22,
    "city": "浜松市中央区",
    "city_kana": "ハママツシチュウオウク",
    "town": "元城町",
    "town_kana": "モトシロチョウ",
    "street": null,
    "office_name": null,
    "office_name_kana": null
  },
  "0947": {
    "postcode": "4300947",
    "prefecture": "静岡県",
    "prefecture_kana": "シズオカケン",
    "prefecture_code": 22,
    "city": "浜松市中央区",
    "city_kana": "ハママツシチュウオウク",
    "town": "松城町",
    "town_kana": "マツシロチョウ",
    "street": null,
    "office_name": null,
    "office_name_kana": null
  },
  "0948": {
    "postcode": "4300948",
    "prefecture": "静岡県",
    "prefecture_kana": "シズオカケン",
    "prefecture_code": 22,
    "city": "浜松市中央区",
    "city_kana": "ハママツシチュウオウク",
    "town": "元目町",
    "town_kana": "ゲンモクチョウ",
    "street": null,
    "office_name": null,
    "office_name_kana": null
  },
  "0949": {
    "postcode": "4300949",
    "prefecture": "静岡県",
    "prefecture_kana": "シズオカケン",
    "prefecture_code": 22,
    "city": "浜松市中央区",
    "city_kana": "ハママツシチュウオウク",
    "town": "尾張町",
    "town_kana": "オワリチョウ",
    "street": null,
    "office_name": null,
    "office_name_kana": null
  },
  "7701": {
    "postcode": "4307701",
    "prefecture": "静岡県",
    "prefecture_kana": "シズオカケン",
    "prefecture_code": 22,
    "city": "浜松市中央区",
    "city_kana": "ハママツシチュウオウク",
    "town": "板屋町浜松アクトタワー　１階",
    "town_kana": "イタヤマチハママツアクトタワー1カイ",
    "street": null,
    "office_name": null,
    "office_name_kana": null
  },
  "7702": {
    "postcode": "4307702",
    "prefecture": "静岡県",
    "prefecture_kana": "シズオカケン",
    "prefecture_code": 22,
    "city": "浜松市中央区",
    "city_kana": "ハママツシチュウオウク",
    "town": "板屋町浜松アクトタワー　２階",
    "town_kana": "イタヤマチハママツアクトタワー2カイ",
    "street": null,
    "office_name": null,
    "office_name_kana": null
  },
  "7703": {
    "postcode": "4307703",
    "prefecture": "静岡県",
    "prefecture_kana": "シズオカケン",
    "prefecture_code": 22,
    "city": "浜松市中央区",
    "city_kana": "ハママツシチュウオウク",
    "town": "板屋町浜松アクトタワー　３階",
    "town_kana": "イタヤマチハママツアクトタワー3カイ",
    "street": null,
    "office_name": null,
    "office_name_kana": null
  },
  "7704": {
    "postcode": "4307704",
    "prefecture": "静岡県",
    "prefecture_kana": "シズオカケン",
    "prefecture_code": 22,
    "city": "浜松市中央区",
    "city_kana": "ハママツシチュウオウク",
    "town": "板屋町浜松アクトタワー　４階",
    "town_kana": "イタヤマチハママツアクトタワー4カイ",
    "street": null,
    "office_name": null,
    "office_name_kana": null
  },
  "7705": {
    "postcode": "4307705",
    "prefecture": "静岡県",
    "prefecture_kana": "シズオカケン",
    "prefecture_code": 22,
    "city": "浜松市中央区",
    "city_kana": "ハママツシチュウオウク",
    "town": "板屋町浜松アクトタワー　５階",
    "town_kana": "イタヤマチハママツアクトタワー5カイ",
    "street": null,
    "office_name": null,
    "office_name_kana": null
  },
  "7706": {
    "postcode": "4307706",
    "prefecture": "静岡県",
    "prefecture_kana": "シズオカケン",
    "prefecture_code": 22,
    "city": "浜松市中央区",
    "city_kana": "ハママツシチュウオウク",
    "town": "板屋町浜松アクトタワー　６階",
    "town_kana": "イタヤマチハママツアクトタワー6カイ",
    "street": null,
    "office_name": null,
    "office_name_kana": null
  },
  "7707": {
    "postcode": "4307707",
    "prefecture": "静岡県",
    "prefecture_kana": "シズオカケン",
    "prefecture_code": 22,
    "city": "浜松市中央区",
    "city_kana": "ハママツシチュウオウク",
    "town": "板屋町浜松アクトタワー　７階",
    "town_kana": "イタヤマチハママツアクトタワー7カイ",
    "street": null,
    "office_name": null,
    "office_name_kana": null
  },
  "7708": {
    "postcode": "4307708",
    "prefecture": "静岡県",
    "prefecture_kana": "シズオカケン",
    "prefecture_code": 22,
    "city": "浜松市中央区",
    "city_kana": "ハママツシチュウオウク",
    "town": "板屋町浜松アクトタワー　８階",
    "town_kana": "イタヤマチハママツアクトタワー8カイ",
    "street": null,
    "office_name": null,
    "office_name_kana": null
  },
  "7709": {
    "postcode": "4307709",
    "prefecture": "静岡県",
    "prefecture_kana": "シズオカケン",
    "prefecture_code": 22,
    "city": "浜松市中央区",
    "city_kana": "ハママツシチュウオウク",
    "town": "板屋町浜松アクトタワー　９階",
    "town_kana": "イタヤマチハママツアクトタワー9カイ",
    "street": null,
    "office_name": null,
    "office_name_kana": null
  },
  "7710": {
    "postcode": "4307710",
    "prefecture": "静岡県",
    "prefecture_kana": "シズオカケン",
    "prefecture_code": 22,
    "city": "浜松市中央区",
    "city_kana": "ハママツシチュウオウク",
    "town": "板屋町浜松アクトタワー　１０階",
    "town_kana": "イタヤマチハママツアクトタワー10カイ",
    "street": null,
    "office_name": null,
    "office_name_kana": null
  },
  "7711": {
    "postcode": "4307711",
    "prefecture": "静岡県",
    "prefecture_kana": "シズオカケン",
    "prefecture_code": 22,
    "city": "浜松市中央区",
    "city_kana": "ハママツシチュウオウク",
    "town": "板屋町浜松アクトタワー　１１階",
    "town_kana": "イタヤマチハママツアクトタワー11カイ",
    "street": null,
    "office_name": null,
    "office_name_kana": null
  },
  "7712": {
    "postcode": "4307712",
    "prefecture": "静岡県",
    "prefecture_kana": "シズオカケン",
    "prefecture_code": 22,
    "city": "浜松市中央区",
    "city_kana": "ハママツシチュウオウク",
    "town": "板屋町浜松アクトタワー　１２階",
    "town_kana": "イタヤマチハママツアクトタワー12カイ",
    "street": null,
    "office_name": null,
    "office_name_kana": null
  },
  "7713": {
    "postcode": "4307713",
    "prefecture": "静岡県",
    "prefecture_kana": "シズオカケン",
    "prefecture_code": 22,
    "city": "浜松市中央区",
    "city_kana": "ハママツシチュウオウク",
    "town": "板屋町浜松アクトタワー　１３階",
    "town_kana": "イタヤマチハママツアクトタワー13カイ",
    "street": null,
    "office_name": null,
    "office_name_kana": null
  },
  "7714": {
    "postcode": "4307714",
    "prefecture": "静岡県",
    "prefecture_kana": "シズオカケン",
    "prefecture_code": 22,
    "city": "浜松市中央区",
    "city_kana": "ハママツシチュウオウク",
    "town": "板屋町浜松アクトタワー　１４階",
    "town_kana": "イタヤマチハママツアクトタワー14カイ",
    "street": null,
    "office_name": null,
    "office_name_kana": null
  },
  "7715": {
    "postcode": "4307715",
    "prefecture": "静岡県",
    "prefecture_kana": "シズオカケン",
    "prefecture_code": 22,
    "city": "浜松市中央区",
    "city_kana": "ハママツシチュウオウク",
    "town": "板屋町浜松アクトタワー　１５階",
    "town_kana": "イタヤマチハママツアクトタワー15カイ",
    "street": null,
    "office_name": null,
    "office_name_kana": null
  },
  "7716": {
    "postcode": "4307716",
    "prefecture": "静岡県",
    "prefecture_kana": "シズオカケン",
    "prefecture_code": 22,
    "city": "浜松市中央区",
    "city_kana": "ハママツシチュウオウク",
    "town": "板屋町浜松アクトタワー　１６階",
    "town_kana": "イタヤマチハママツアクトタワー16カイ",
    "street": null,
    "office_name": null,
    "office_name_kana": null
  },
  "7717": {
    "postcode": "4307717",
    "prefecture": "静岡県",
    "prefecture_kana": "シズオカケン",
    "prefecture_code": 22,
    "city": "浜松市中央区",
    "city_kana": "ハママツシチュウオウク",
    "town": "板屋町浜松アクトタワー　１７階",
    "town_kana": "イタヤマチハママツアクトタワー17カイ",
    "street": null,
    "office_name": null,
    "office_name_kana": null
  },
  "7718": {
    "postcode": "4307718",
    "prefecture": "静岡県",
    "prefecture_kana": "シズオカケン",
    "prefecture_code": 22,
    "city": "浜松市中央区",
    "city_kana": "ハママツシチュウオウク",
    "town": "板屋町浜松アクトタワー　１８階",
    "town_kana": "イタヤマチハママツアクトタワー18カイ",
    "street": null,
    "office_name": null,
    "office_name_kana": null
  },
  "7719": {
    "postcode": "4307719",
    "prefecture": "静岡県",
    "prefecture_kana": "シズオカケン",
    "prefecture_code": 22,
    "city": "浜松市中央区",
    "city_kana": "ハママツシチュウオウク",
    "town": "板屋町浜松アクトタワー　１９階",
    "town_kana": "イタヤマチハママツアクトタワー19カイ",
    "street": null,
    "office_name": null,
    "office_name_kana": null
  },
  "7720": {
    "postcode": "4307720",
    "prefecture": "静岡県",
    "prefecture_kana": "シズオカケン",
    "prefecture_code": 22,
    "city": "浜松市中央区",
    "city_kana": "ハママツシチュウオウク",
    "town": "板屋町浜松アクトタワー　２０階",
    "town_kana": "イタヤマチハママツアクトタワー20カイ",
    "street": null,
    "office_name": null,
    "office_name_kana": null
  },
  "7721": {
    "postcode": "4307721",
    "prefecture": "静岡県",
    "prefecture_kana": "シズオカケン",
    "prefecture_code": 22,
    "city": "浜松市中央区",
    "city_kana": "ハママツシチュウオウク",
    "town": "板屋町浜松アクトタワー　２１階",
    "town_kana": "イタヤマチハママツアクトタワー21カイ",
    "street": null,
    "office_name": null,
    "office_name_kana": null
  },
  "7722": {
    "postcode": "4307722",
    "prefecture": "静岡県",
    "prefecture_kana": "シズオカケン",
    "prefecture_code": 22,
    "city": "浜松市中央区",
    "city_kana": "ハママツシチュウオウク",
    "town": "板屋町浜松アクトタワー　２２階",
    "town_kana": "イタヤマチハママツアクトタワー22カイ",
    "street": null,
    "office_name": null,
    "office_name_kana": null
  },
  "7723": {
    "postcode": "4307723",
    "prefecture": "静岡県",
    "prefecture_kana": "シズオカケン",
    "prefecture_code": 22,
    "city": "浜松市中央区",
    "city_kana": "ハママツシチュウオウク",
    "town": "板屋町浜松アクトタワー　２３階",
    "town_kana": "イタヤマチハママツアクトタワー23カイ",
    "street": null,
    "office_name": null,
    "office_name_kana": null
  },
  "7724": {
    "postcode": "4307724",
    "prefecture": "静岡県",
    "prefecture_kana": "シズオカケン",
    "prefecture_code": 22,
    "city": "浜松市中央区",
    "city_kana": "ハママツシチュウオウク",
    "town": "板屋町浜松アクトタワー　２４階",
    "town_kana": "イタヤマチハママツアクトタワー24カイ",
    "street": null,
    "office_name": null,
    "office_name_kana": null
  },
  "7725": {
    "postcode": "4307725",
    "prefecture": "静岡県",
    "prefecture_kana": "シズオカケン",
    "prefecture_code": 22,
    "city": "浜松市中央区",
    "city_kana": "ハママツシチュウオウク",
    "town": "板屋町浜松アクトタワー　２５階",
    "town_kana": "イタヤマチハママツアクトタワー25カイ",
    "street": null,
    "office_name": null,
    "office_name_kana": null
  },
  "7726": {
    "postcode": "4307726",
    "prefecture": "静岡県",
    "prefecture_kana": "シズオカケン",
    "prefecture_code": 22,
    "city": "浜松市中央区",
    "city_kana": "ハママツシチュウオウク",
    "town": "板屋町浜松アクトタワー　２６階",
    "town_kana": "イタヤマチハママツアクトタワー26カイ",
    "street": null,
    "office_name": null,
    "office_name_kana": null
  },
  "7727": {
    "postcode": "4307727",
    "prefecture": "静岡県",
    "prefecture_kana": "シズオカケン",
    "prefecture_code": 22,
    "city": "浜松市中央区",
    "city_kana": "ハママツシチュウオウク",
    "town": "板屋町浜松アクトタワー　２７階",
    "town_kana": "イタヤマチハママツアクトタワー27カイ",
    "street": null,
    "office_name": null,
    "office_name_kana": null
  },
  "7728": {
    "postcode": "4307728",
    "prefecture": "静岡県",
    "prefecture_kana": "シズオカケン",
    "prefecture_code": 22,
    "city": "浜松市中央区",
    "city_kana": "ハママツシチュウオウク",
    "town": "板屋町浜松アクトタワー　２８階",
    "town_kana": "イタヤマチハママツアクトタワー28カイ",
    "street": null,
    "office_name": null,
    "office_name_kana": null
  },
  "7729": {
    "postcode": "4307729",
    "prefecture": "静岡県",
    "prefecture_kana": "シズオカケン",
    "prefecture_code": 22,
    "city": "浜松市中央区",
    "city_kana": "ハママツシチュウオウク",
    "town": "板屋町浜松アクトタワー　２９階",
    "town_kana": "イタヤマチハママツアクトタワー29カイ",
    "street": null,
    "office_name": null,
    "office_name_kana": null
  },
  "7730": {
    "postcode": "4307730",
    "prefecture": "静岡県",
    "prefecture_kana": "シズオカケン",
    "prefecture_code": 22,
    "city": "浜松市中央区",
    "city_kana": "ハママツシチュウオウク",
    "town": "板屋町浜松アクトタワー　３０階",
    "town_kana": "イタヤマチハママツアクトタワー30カイ",
    "street": null,
    "office_name": null,
    "office_name_kana": null
  },
  "7731": {
    "postcode": "4307731",
    "prefecture": "静岡県",
    "prefecture_kana": "シズオカケン",
    "prefecture_code": 22,
    "city": "浜松市中央区",
    "city_kana": "ハママツシチュウオウク",
    "town": "板屋町浜松アクトタワー　３１階",
    "town_kana": "イタヤマチハママツアクトタワー31カイ",
    "street": null,
    "office_name": null,
    "office_name_kana": null
  },
  "7732": {
    "postcode": "4307732",
    "prefecture": "静岡県",
    "prefecture_kana": "シズオカケン",
    "prefecture_code": 22,
    "city": "浜松市中央区",
    "city_kana": "ハママツシチュウオウク",
    "town": "板屋町浜松アクトタワー　３２階",
    "town_kana": "イタヤマチハママツアクトタワー32カイ",
    "street": null,
    "office_name": null,
    "office_name_kana": null
  },
  "7733": {
    "postcode": "4307733",
    "prefecture": "静岡県",
    "prefecture_kana": "シズオカケン",
    "prefecture_code": 22,
    "city": "浜松市中央区",
    "city_kana": "ハママツシチュウオウク",
    "town": "板屋町浜松アクトタワー　３３階",
    "town_kana": "イタヤマチハママツアクトタワー33カイ",
    "street": null,
    "office_name": null,
    "office_name_kana": null
  },
  "7734": {
    "postcode": "4307734",
    "prefecture": "静岡県",
    "prefecture_kana": "シズオカケン",
    "prefecture_code": 22,
    "city": "浜松市中央区",
    "city_kana": "ハママツシチュウオウク",
    "town": "板屋町浜松アクトタワー　３４階",
    "town_kana": "イタヤマチハママツアクトタワー34カイ",
    "street": null,
    "office_name": null,
    "office_name_kana": null
  },
  "7735": {
    "postcode": "4307735",
    "prefecture": "静岡県",
    "prefecture_kana": "シズオカケン",
    "prefecture_code": 22,
    "city": "浜松市中央区",
    "city_kana": "ハママツシチュウオウク",
    "town": "板屋町浜松アクトタワー　３５階",
    "town_kana": "イタヤマチハママツアクトタワー35カイ",
    "street": null,
    "office_name": null,
    "office_name_kana": null
  },
  "7736": {
    "postcode": "4307736",
    "prefecture": "静岡県",
    "prefecture_kana": "シズオカケン",
    "prefecture_code": 22,
    "city": "浜松市中央区",
    "city_kana": "ハママツシチュウオウク",
    "town": "板屋町浜松アクトタワー　３６階",
    "town_kana": "イタヤマチハママツアクトタワー36カイ",
    "street": null,
    "office_name": null,
    "office_name_kana": null
  },
  "7737": {
    "postcode": "4307737",
    "prefecture": "静岡県",
    "prefecture_kana": "シズオカケン",
    "prefecture_code": 22,
    "city": "浜松市中央区",
    "city_kana": "ハママツシチュウオウク",
    "town": "板屋町浜松アクトタワー　３７階",
    "town_kana": "イタヤマチハママツアクトタワー37カイ",
    "street": null,
    "office_name": null,
    "office_name_kana": null
  },
  "7738": {
    "postcode": "4307738",
    "prefecture": "静岡県",
    "prefecture_kana": "シズオカケン",
    "prefecture_code": 22,
    "city": "浜松市中央区",
    "city_kana": "ハママツシチュウオウク",
    "town": "板屋町浜松アクトタワー　３８階",
    "town_kana": "イタヤマチハママツアクトタワー38カイ",
    "street": null,
    "office_name": null,
    "office_name_kana": null
  },
  "7739": {
    "postcode": "4307739",
    "prefecture": "静岡県",
    "prefecture_kana": "シズオカケン",
    "prefecture_code": 22,
    "city": "浜松市中央区",
    "city_kana": "ハママツシチュウオウク",
    "town": "板屋町浜松アクトタワー　３９階",
    "town_kana": "イタヤマチハママツアクトタワー39カイ",
    "street": null,
    "office_name": null,
    "office_name_kana": null
  },
  "7740": {
    "postcode": "4307740",
    "prefecture": "静岡県",
    "prefecture_kana": "シズオカケン",
    "prefecture_code": 22,
    "city": "浜松市中央区",
    "city_kana": "ハママツシチュウオウク",
    "town": "板屋町浜松アクトタワー　４０階",
    "town_kana": "イタヤマチハママツアクトタワー40カイ",
    "street": null,
    "office_name": null,
    "office_name_kana": null
  },
  "7741": {
    "postcode": "4307741",
    "prefecture": "静岡県",
    "prefecture_kana": "シズオカケン",
    "prefecture_code": 22,
    "city": "浜松市中央区",
    "city_kana": "ハママツシチュウオウク",
    "town": "板屋町浜松アクトタワー　４１階",
    "town_kana": "イタヤマチハママツアクトタワー41カイ",
    "street": null,
    "office_name": null,
    "office_name_kana": null
  },
  "7742": {
    "postcode": "4307742",
    "prefecture": "静岡県",
    "prefecture_kana": "シズオカケン",
    "prefecture_code": 22,
    "city": "浜松市中央区",
    "city_kana": "ハママツシチュウオウク",
    "town": "板屋町浜松アクトタワー　４２階",
    "town_kana": "イタヤマチハママツアクトタワー42カイ",
    "street": null,
    "office_name": null,
    "office_name_kana": null
  },
  "7743": {
    "postcode": "4307743",
    "prefecture": "静岡県",
    "prefecture_kana": "シズオカケン",
    "prefecture_code": 22,
    "city": "浜松市中央区",
    "city_kana": "ハママツシチュウオウク",
    "town": "板屋町浜松アクトタワー　４３階",
    "town_kana": "イタヤマチハママツアクトタワー43カイ",
    "street": null,
    "office_name": null,
    "office_name_kana": null
  },
  "7744": {
    "postcode": "4307744",
    "prefecture": "静岡県",
    "prefecture_kana": "シズオカケン",
    "prefecture_code": 22,
    "city": "浜松市中央区",
    "city_kana": "ハママツシチュウオウク",
    "town": "板屋町浜松アクトタワー　４４階",
    "town_kana": "イタヤマチハママツアクトタワー44カイ",
    "street": null,
    "office_name": null,
    "office_name_kana": null
  },
  "7745": {
    "postcode": "4307745",
    "prefecture": "静岡県",
    "prefecture_kana": "シズオカケン",
    "prefecture_code": 22,
    "city": "浜松市中央区",
    "city_kana": "ハママツシチュウオウク",
    "town": "板屋町浜松アクトタワー　４５階",
    "town_kana": "イタヤマチハママツアクトタワー45カイ",
    "street": null,
    "office_name": null,
    "office_name_kana": null
  },
  "7790": {
    "postcode": "4307790",
    "prefecture": "静岡県",
    "prefecture_kana": "シズオカケン",
    "prefecture_code": 22,
    "city": "浜松市中央区",
    "city_kana": "ハママツシチュウオウク",
    "town": "板屋町浜松アクトタワー",
    "town_kana": "イタヤマチハママツアクトタワー",
    "street": null,
    "office_name": null,
    "office_name_kana": null
  },
  "8510": {
    "postcode": "4308510",
    "prefecture": "静岡県",
    "prefecture_kana": "シズオカケン",
    "prefecture_code": 22,
    "city": "浜松市中央区",
    "city_kana": "ハママツシチュウオウク",
    "town": "東町",
    "town_kana": "ヒガシマチ",
    "street": "１８７６番地",
    "office_name": "共和レザー　株式会社",
    "office_name_kana": "キヨウワレザ- カブシキガイシヤ"
  },
  "8511": {
    "postcode": "4308511",
    "prefecture": "静岡県",
    "prefecture_kana": "シズオカケン",
    "prefecture_code": 22,
    "city": "浜松市中央区",
    "city_kana": "ハママツシチュウオウク",
    "town": "板屋町",
    "town_kana": "イタヤマチ",
    "street": "１１０−１７",
    "office_name": "ホテル　クラウンパレス浜松",
    "office_name_kana": "ホテル クラウンパレスハママツ"
  },
  "8520": {
    "postcode": "4308520",
    "prefecture": "静岡県",
    "prefecture_kana": "シズオカケン",
    "prefecture_code": 22,
    "city": "浜松市中央区",
    "city_kana": "ハママツシチュウオウク",
    "town": "中央",
    "town_kana": "チュウオウ",
    "street": "１丁目１２番５号",
    "office_name": "静岡地方裁判所　浜松支部",
    "office_name_kana": "シズオカチホウサイバンシヨ ハママツシブ"
  },
  "8530": {
    "postcode": "4308530",
    "prefecture": "静岡県",
    "prefecture_kana": "シズオカケン",
    "prefecture_code": 22,
    "city": "浜松市中央区",
    "city_kana": "ハママツシチュウオウク",
    "town": "野口町",
    "town_kana": "ノグチチョウ",
    "street": "６２６",
    "office_name": "アズマ工業　（株）",
    "office_name_kana": "アズマコウギヨウ (カブ)"
  },
  "8533": {
    "postcode": "4308533",
    "prefecture": "静岡県",
    "prefecture_kana": "シズオカケン",
    "prefecture_code": 22,
    "city": "浜松市中央区",
    "city_kana": "ハママツシチュウオウク",
    "town": "中央",
    "town_kana": "チュウオウ",
    "street": "２丁目１番地１号",
    "office_name": "公立大学法人　静岡文化芸術大学",
    "office_name_kana": "コウリツダイガクホウジン シズオカブンカゲイジユツダイガク"
  },
  "8536": {
    "postcode": "4308536",
    "prefecture": "静岡県",
    "prefecture_kana": "シズオカケン",
    "prefecture_code": 22,
    "city": "浜松市中央区",
    "city_kana": "ハママツシチュウオウク",
    "town": "砂山町",
    "town_kana": "スナヤマチョウ",
    "street": "３５５−４（浜松郵便局私書箱第１３３号）",
    "office_name": "豊島　株式会社　浜松支店",
    "office_name_kana": "トヨシマ カブシキガイシヤ ハママツシテン"
  },
  "8540": {
    "postcode": "4308540",
    "prefecture": "静岡県",
    "prefecture_kana": "シズオカケン",
    "prefecture_code": 22,
    "city": "浜松市中央区",
    "city_kana": "ハママツシチュウオウク",
    "town": "池町",
    "town_kana": "イケマチ",
    "street": "２２０−４",
    "office_name": "日管　（株）",
    "office_name_kana": "ニツカン (カブ)"
  },
  "8553": {
    "postcode": "4308553",
    "prefecture": "静岡県",
    "prefecture_kana": "シズオカケン",
    "prefecture_code": 22,
    "city": "浜松市中央区",
    "city_kana": "ハママツシチュウオウク",
    "town": "早馬町",
    "town_kana": "ハヤウマチョウ",
    "street": "１−５",
    "office_name": "小栗　株式会社",
    "office_name_kana": "オグリ カブシキガイシヤ"
  },
  "8555": {
    "postcode": "4308555",
    "prefecture": "静岡県",
    "prefecture_kana": "シズオカケン",
    "prefecture_code": 22,
    "city": "浜松市中央区",
    "city_kana": "ハママツシチュウオウク",
    "town": "龍禅寺町",
    "town_kana": "リュウゼンジチョウ",
    "street": "７６５",
    "office_name": "株式会社　大誠",
    "office_name_kana": "カブシキガイシヤ タイセイ"
  },
  "8558": {
    "postcode": "4308558",
    "prefecture": "静岡県",
    "prefecture_kana": "シズオカケン",
    "prefecture_code": 22,
    "city": "浜松市中央区",
    "city_kana": "ハママツシチュウオウク",
    "town": "住吉",
    "town_kana": "スミヨシ",
    "street": "２丁目１２−１２",
    "office_name": "聖隷浜松病院",
    "office_name_kana": "セイレイハママツビヨウイン"
  },
  "8560": {
    "postcode": "4308560",
    "prefecture": "静岡県",
    "prefecture_kana": "シズオカケン",
    "prefecture_code": 22,
    "city": "浜松市中央区",
    "city_kana": "ハママツシチュウオウク",
    "town": "早馬町",
    "town_kana": "ハヤウマチョウ",
    "street": "１−５",
    "office_name": "遠州綿業　株式会社",
    "office_name_kana": "エンシユウメンギヨウ カブシキガイシヤ"
  },
  "8570": {
    "postcode": "4308570",
    "prefecture": "静岡県",
    "prefecture_kana": "シズオカケン",
    "prefecture_code": 22,
    "city": "浜松市中央区",
    "city_kana": "ハママツシチュウオウク",
    "town": "中央",
    "town_kana": "チュウオウ",
    "street": "１丁目１２番５号",
    "office_name": "浜松簡易裁判所",
    "office_name_kana": "ハママツカンイサイバンシヨ"
  },
  "8575": {
    "postcode": "4308575",
    "prefecture": "静岡県",
    "prefecture_kana": "シズオカケン",
    "prefecture_code": 22,
    "city": "浜松市中央区",
    "city_kana": "ハママツシチュウオウク",
    "town": "常盤町",
    "town_kana": "トキワチョウ",
    "street": "１３３番地の２４",
    "office_name": "Ｋ・ＭＩＸ　静岡エフエム放送",
    "office_name_kana": "ケイ・ミツクス シズオカエフエムホウソウ"
  },
  "8577": {
    "postcode": "4308577",
    "prefecture": "静岡県",
    "prefecture_kana": "シズオカケン",
    "prefecture_code": 22,
    "city": "浜松市中央区",
    "city_kana": "ハママツシチュウオウク",
    "town": "板屋町",
    "town_kana": "イタヤマチ",
    "street": "１１１−２浜松アクトタワー９階",
    "office_name": "東京海上日動火災保険　株式会社",
    "office_name_kana": "トウキヨウカイジヨウニチドウカサイホケン カブシキガイシヤ"
  },
  "8580": {
    "postcode": "4308580",
    "prefecture": "静岡県",
    "prefecture_kana": "シズオカケン",
    "prefecture_code": 22,
    "city": "浜松市中央区",
    "city_kana": "ハママツシチュウオウク",
    "town": "板屋町",
    "town_kana": "イタヤマチ",
    "street": "５６２",
    "office_name": "榎本　株式会社",
    "office_name_kana": "エノモト カブシキガイシヤ"
  },
  "8585": {
    "postcode": "4308585",
    "prefecture": "静岡県",
    "prefecture_kana": "シズオカケン",
    "prefecture_code": 22,
    "city": "浜松市中央区",
    "city_kana": "ハママツシチュウオウク",
    "town": "中央",
    "town_kana": "チュウオウ",
    "street": "１丁目１２−４",
    "office_name": "浜松西税務署",
    "office_name_kana": "ハママツニシゼイムシヨ"
  },
  "8587": {
    "postcode": "4308587",
    "prefecture": "静岡県",
    "prefecture_kana": "シズオカケン",
    "prefecture_code": 22,
    "city": "浜松市中央区",
    "city_kana": "ハママツシチュウオウク",
    "town": "砂山町",
    "town_kana": "スナヤマチョウ",
    "street": "３２５−６",
    "office_name": "浜松ホトニクス　株式会社　本社事務所",
    "office_name_kana": "ハママツホトニクス カブシキガイシヤ ホンシヤジムシヨ"
  },
  "8588": {
    "postcode": "4308588",
    "prefecture": "静岡県",
    "prefecture_kana": "シズオカケン",
    "prefecture_code": 22,
    "city": "浜松市中央区",
    "city_kana": "ハママツシチュウオウク",
    "town": "砂山町",
    "town_kana": "スナヤマチョウ",
    "street": "３２０−２",
    "office_name": "株式会社　遠鉄百貨店",
    "office_name_kana": "カブシキガイシヤ エンテツヒヤツカテン"
  },
  "8611": {
    "postcode": "4308611",
    "prefecture": "静岡県",
    "prefecture_kana": "シズオカケン",
    "prefecture_code": 22,
    "city": "浜松市中央区",
    "city_kana": "ハママツシチュウオウク",
    "town": "鍛冶町",
    "town_kana": "カジマチ",
    "street": "１００番地の１ザザシティ浜松中央館４階",
    "office_name": "浜松エフエム放送　株式会社　ＦＭ　Ｈａｒｏ！",
    "office_name_kana": "ハママツエフエムホウソウ カブシキガイシヤ エフエム ハロ-!"
  },
  "8620": {
    "postcode": "4308620",
    "prefecture": "静岡県",
    "prefecture_kana": "シズオカケン",
    "prefecture_code": 22,
    "city": "浜松市中央区",
    "city_kana": "ハママツシチュウオウク",
    "town": "中央",
    "town_kana": "チュウオウ",
    "street": "１丁目１２番５号",
    "office_name": "静岡家庭裁判所　浜松支部",
    "office_name_kana": "シズオカカテイサイバンシヨ ハママツシブ"
  },
  "8630": {
    "postcode": "4308630",
    "prefecture": "静岡県",
    "prefecture_kana": "シズオカケン",
    "prefecture_code": 22,
    "city": "浜松市中央区",
    "city_kana": "ハママツシチュウオウク",
    "town": "中央",
    "town_kana": "チュウオウ",
    "street": "１丁目１２番４号",
    "office_name": "静岡地方検察庁浜松支部，浜松区検察庁",
    "office_name_kana": "シズオカチホウケンサツチヨウハママツシブ.ハママツクケンサツチヨウ"
  },
  "8639": {
    "postcode": "4308639",
    "prefecture": "静岡県",
    "prefecture_kana": "シズオカケン",
    "prefecture_code": 22,
    "city": "浜松市中央区",
    "city_kana": "ハママツシチュウオウク",
    "town": "中央",
    "town_kana": "チュウオウ",
    "street": "１丁目１２番４号浜松合同庁舎８階",
    "office_name": "浜松労働基準監督署",
    "office_name_kana": "ハママツロウドウキジユンカントクシヨ"
  },
  "8650": {
    "postcode": "4308650",
    "prefecture": "静岡県",
    "prefecture_kana": "シズオカケン",
    "prefecture_code": 22,
    "city": "浜松市中央区",
    "city_kana": "ハママツシチュウオウク",
    "town": "中沢町",
    "town_kana": "ナカザワチョウ",
    "street": "１０−１（浜松郵便局私書箱第１号）",
    "office_name": "ヤマハ　株式会社",
    "office_name_kana": "ヤマハ カブシキガイシヤ"
  },
  "8652": {
    "postcode": "4308652",
    "prefecture": "静岡県",
    "prefecture_kana": "シズオカケン",
    "prefecture_code": 22,
    "city": "浜松市中央区",
    "city_kana": "ハママツシチュウオウク",
    "town": "元城町",
    "town_kana": "モトシロチョウ",
    "street": "１０３−２（浜松郵便局私書箱第６４号）",
    "office_name": "浜松市役所・中央区役所",
    "office_name_kana": "ハママツシヤクシヨ・チユウオウクヤクシヨ"
  },
  "8653": {
    "postcode": "4308653",
    "prefecture": "静岡県",
    "prefecture_kana": "シズオカケン",
    "prefecture_code": 22,
    "city": "浜松市中央区",
    "city_kana": "ハママツシチュウオウク",
    "town": "元城町",
    "town_kana": "モトシロチョウ",
    "street": "１０３−２（浜松郵便局私書箱第６４号）",
    "office_name": "浜松市役所・中央区役所",
    "office_name_kana": "ハママツシヤクシヨ・チユウオウクヤクシヨ"
  },
  "8654": {
    "postcode": "4308654",
    "prefecture": "静岡県",
    "prefecture_kana": "シズオカケン",
    "prefecture_code": 22,
    "city": "浜松市中央区",
    "city_kana": "ハママツシチュウオウク",
    "town": "田町",
    "town_kana": "タマチ",
    "street": "３２２−７（浜松郵便局私書箱第５号）",
    "office_name": "株式会社　静岡銀行　浜松営業部",
    "office_name_kana": "カブシキガイシヤ シズオカギンコウ ハママツエイギヨウブ"
  },
  "8655": {
    "postcode": "4308655",
    "prefecture": "静岡県",
    "prefecture_kana": "シズオカケン",
    "prefecture_code": 22,
    "city": "浜松市中央区",
    "city_kana": "ハママツシチュウオウク",
    "town": "旭町",
    "town_kana": "アサヒチョウ",
    "street": "１２−１",
    "office_name": "遠州鉄道　株式会社",
    "office_name_kana": "エンシユウテツドウ カブシキガイシヤ"
  },
  "8665": {
    "postcode": "4308665",
    "prefecture": "静岡県",
    "prefecture_kana": "シズオカケン",
    "prefecture_code": 22,
    "city": "浜松市中央区",
    "city_kana": "ハママツシチュウオウク",
    "town": "寺島町",
    "town_kana": "テラジマチョウ",
    "street": "２００（浜松郵便局私書箱第１２２号）",
    "office_name": "株式会社　河合楽器製作所",
    "office_name_kana": "カブシキガイシヤ カワイガツキセイサクシヨ"
  },
  "8667": {
    "postcode": "4308667",
    "prefecture": "静岡県",
    "prefecture_kana": "シズオカケン",
    "prefecture_code": 22,
    "city": "浜松市中央区",
    "city_kana": "ハママツシチュウオウク",
    "town": "砂山町",
    "town_kana": "スナヤマチョウ",
    "street": "１１８３番地",
    "office_name": "浜松東税務署",
    "office_name_kana": "ハママツヒガシゼイムシヨ"
  },
  "8670": {
    "postcode": "4308670",
    "prefecture": "静岡県",
    "prefecture_kana": "シズオカケン",
    "prefecture_code": 22,
    "city": "浜松市中央区",
    "city_kana": "ハママツシチュウオウク",
    "town": "元城町",
    "town_kana": "モトシロチョウ",
    "street": "１１４番地の１",
    "office_name": "浜松磐田信用金庫",
    "office_name_kana": "ハママツイワタシンヨウキンコ"
  },
  "8675": {
    "postcode": "4308675",
    "prefecture": "静岡県",
    "prefecture_kana": "シズオカケン",
    "prefecture_code": 22,
    "city": "浜松市中央区",
    "city_kana": "ハママツシチュウオウク",
    "town": "砂山町",
    "town_kana": "スナヤマチョウ",
    "street": "６−１",
    "office_name": "大和証券　株式会社　浜松支店",
    "office_name_kana": "ダイワシヨウケン カブシキガイシヤ ハママツシテン"
  },
  "8678": {
    "postcode": "4308678",
    "prefecture": "静岡県",
    "prefecture_kana": "シズオカケン",
    "prefecture_code": 22,
    "city": "浜松市中央区",
    "city_kana": "ハママツシチュウオウク",
    "town": "中沢町",
    "town_kana": "ナカザワチョウ",
    "street": "７１−２３",
    "office_name": "中村建設　株式会社",
    "office_name_kana": "ナカムラケンセツ カブシキガイシヤ"
  },
  "8680": {
    "postcode": "4308680",
    "prefecture": "静岡県",
    "prefecture_kana": "シズオカケン",
    "prefecture_code": 22,
    "city": "浜松市中央区",
    "city_kana": "ハママツシチュウオウク",
    "town": "常盤町",
    "town_kana": "トキワチョウ",
    "street": "１３３−１（浜松郵便局私書箱第１５号）",
    "office_name": "商工組合中央金庫　浜松支店",
    "office_name_kana": "シヨウコウクミアイチユウオウキンコ ハママツシテン"
  },
  "8686": {
    "postcode": "4308686",
    "prefecture": "静岡県",
    "prefecture_kana": "シズオカケン",
    "prefecture_code": 22,
    "city": "浜松市中央区",
    "city_kana": "ハママツシチュウオウク",
    "town": "中央",
    "town_kana": "チュウオウ",
    "street": "１丁目１６番１１号",
    "office_name": "三立製菓　株式会社",
    "office_name_kana": "サンリツセイカ カブシキガイシヤ"
  },
  "8687": {
    "postcode": "4308687",
    "prefecture": "静岡県",
    "prefecture_kana": "シズオカケン",
    "prefecture_code": 22,
    "city": "浜松市中央区",
    "city_kana": "ハママツシチュウオウク",
    "town": "板屋町",
    "town_kana": "イタヤマチ",
    "street": "１１１−２",
    "office_name": "豊田通商　株式会社　浜松支店",
    "office_name_kana": "トヨタツウシヨウ カブシキガイシヤ ハママツシテン"
  },
  "8689": {
    "postcode": "4308689",
    "prefecture": "静岡県",
    "prefecture_kana": "シズオカケン",
    "prefecture_code": 22,
    "city": "浜松市中央区",
    "city_kana": "ハママツシチュウオウク",
    "town": "中沢町",
    "town_kana": "ナカザワチョウ",
    "street": "８１−１８（浜松郵便局私書箱第８０号）",
    "office_name": "遠州信用金庫",
    "office_name_kana": "エンシユウシンヨウキンコ"
  }
}