{
  "8101": {
    "postcode": "4338101",
    "prefecture": "静岡県",
    "prefecture_kana": "シズオカケン",
    "prefecture_code": 22,
    "city": "浜松市中央区",
    "city_kana": "ハママツシチュウオウク",
    "town": "三幸町",
    "town_kana": "ミユキチョウ",
    "street": null,
    "office_name": null,
    "office_name_kana": null
  },
  "8102": {
    "postcode": "4338102",
    "prefecture": "静岡県",
    "prefecture_kana": "シズオカケン",
    "prefecture_code": 22,
    "city": "浜松市中央区",
    "city_kana": "ハママツシチュウオウク",
    "town": "大原町",
    "town_kana": "オオハラチョウ",
    "street": null,
    "office_name": null,
    "office_name_kana": null
  },
  "8103": {
    "postcode": "4338103",
    "prefecture": "静岡県",
    "prefecture_kana": "シズオカケン",
    "prefecture_code": 22,
    "city": "浜松市中央区",
    "city_kana": "ハママツシチュウオウク",
    "town": "豊岡町",
    "town_kana": "トヨオカチョウ",
    "street": null,
    "office_name": null,
    "office_name_kana": null
  },
  "8104": {
    "postcode": "4338104",
    "prefecture": "静岡県",
    "prefecture_kana": "シズオカケン",
    "prefecture_code": 22,
    "city": "浜松市中央区",
    "city_kana": "ハママツシチュウオウク",
    "town": "東三方町",
    "town_kana": "ヒガシミカタチョウ",
    "street": null,
    "office_name": null,
    "office_name_kana": null
  },
  "8105": {
    "postcode": "4338105",
    "prefecture": "静岡県",
    "prefecture_kana": "シズオカケン",
    "prefecture_code": 22,
    "city": "浜松市中央区",
    "city_kana": "ハママツシチュウオウク",
    "town": "三方原町",
    "town_kana": "ミカタハラチョウ",
    "street": null,
    "office_name": null,
    "office_name_kana": null
  },
  "8108": {
    "postcode": "4338108",
    "prefecture": "静岡県",
    "prefecture_kana": "シズオカケン",
    "prefecture_code": 22,
    "city": "浜松市中央区",
    "city_kana": "ハママツシチュウオウク",
    "town": "根洗町",
    "town_kana": "ネアライチョウ",
    "street": null,
    "office_name": null,
    "office_name_kana": null
  },
  "8109": {
    "postcode": "4338109",
    "prefecture": "静岡県",
    "prefecture_kana": "シズオカケン",
    "prefecture_code": 22,
    "city": "浜松市中央区",
    "city_kana": "ハママツシチュウオウク",
    "town": "花川町",
    "town_kana": "ハナカワチョウ",
    "street": null,
    "office_name": null,
    "office_name_kana": null
  },
  "8111": {
    "postcode": "4338111",
    "prefecture": "静岡県",
    "prefecture_kana": "シズオカケン",
    "prefecture_code": 22,
    "city": "浜松市中央区",
    "city_kana": "ハママツシチュウオウク",
    "town": "葵西",
    "town_kana": "アオイニシ",
    "street": null,
    "office_name": null,
    "office_name_kana": null
  },
  "8112": {
    "postcode": "4338112",
    "prefecture": "静岡県",
    "prefecture_kana": "シズオカケン",
    "prefecture_code": 22,
    "city": "浜松市中央区",
    "city_kana": "ハママツシチュウオウク",
    "town": "初生町",
    "town_kana": "ハツオイチョウ",
    "street": null,
    "office_name": null,
    "office_name_kana": null
  },
  "8113": {
    "postcode": "4338113",
    "prefecture": "静岡県",
    "prefecture_kana": "シズオカケン",
    "prefecture_code": 22,
    "city": "浜松市中央区",
    "city_kana": "ハママツシチュウオウク",
    "town": "小豆餅",
    "town_kana": "アズキモチ",
    "street": null,
    "office_name": null,
    "office_name_kana": null
  },
  "8114": {
    "postcode": "4338114",
    "prefecture": "静岡県",
    "prefecture_kana": "シズオカケン",
    "prefecture_code": 22,
    "city": "浜松市中央区",
    "city_kana": "ハママツシチュウオウク",
    "town": "葵東",
    "town_kana": "アオイヒガシ",
    "street": null,
    "office_name": null,
    "office_name_kana": null
  },
  "8116": {
    "postcode": "4338116",
    "prefecture": "静岡県",
    "prefecture_kana": "シズオカケン",
    "prefecture_code": 22,
    "city": "浜松市中央区",
    "city_kana": "ハママツシチュウオウク",
    "town": "西丘町",
    "town_kana": "ニシオカチョウ",
    "street": null,
    "office_name": null,
    "office_name_kana": null
  },
  "8117": {
    "postcode": "4338117",
    "prefecture": "静岡県",
    "prefecture_kana": "シズオカケン",
    "prefecture_code": 22,
    "city": "浜松市中央区",
    "city_kana": "ハママツシチュウオウク",
    "town": "高丘東",
    "town_kana": "タカオカヒガシ",
    "street": null,
    "office_name": null,
    "office_name_kana": null
  },
  "8118": {
    "postcode": "4338118",
    "prefecture": "静岡県",
    "prefecture_kana": "シズオカケン",
    "prefecture_code": 22,
    "city": "浜松市中央区",
    "city_kana": "ハママツシチュウオウク",
    "town": "高丘西",
    "town_kana": "タカオカニシ",
    "street": null,
    "office_name": null,
    "office_name_kana": null
  },
  "8119": {
    "postcode": "4338119",
    "prefecture": "静岡県",
    "prefecture_kana": "シズオカケン",
    "prefecture_code": 22,
    "city": "浜松市中央区",
    "city_kana": "ハママツシチュウオウク",
    "town": "高丘北",
    "town_kana": "タカオカキタ",
    "street": null,
    "office_name": null,
    "office_name_kana": null
  },
  "8121": {
    "postcode": "4338121",
    "prefecture": "静岡県",
    "prefecture_kana": "シズオカケン",
    "prefecture_code": 22,
    "city": "浜松市中央区",
    "city_kana": "ハママツシチュウオウク",
    "town": "萩丘",
    "town_kana": "ハギオカ",
    "street": null,
    "office_name": null,
    "office_name_kana": null
  },
  "8122": {
    "postcode": "4338122",
    "prefecture": "静岡県",
    "prefecture_kana": "シズオカケン",
    "prefecture_code": 22,
    "city": "浜松市中央区",
    "city_kana": "ハママツシチュウオウク",
    "town": "上島",
    "town_kana": "カミジマ",
    "street": null,
    "office_name": null,
    "office_name_kana": null
  },
  "8123": {
    "postcode": "4338123",
    "prefecture": "静岡県",
    "prefecture_kana": "シズオカケン",
    "prefecture_code": 22,
    "city": "浜松市中央区",
    "city_kana": "ハママツシチュウオウク",
    "town": "幸",
    "town_kana": "サイワイ",
    "street": null,
    "office_name": null,
    "office_name_kana": null
  },
  "8124": {
    "postcode": "4338124",
    "prefecture": "静岡県",
    "prefecture_kana": "シズオカケン",
    "prefecture_code": 22,
    "city": "浜松市中央区",
    "city_kana": "ハママツシチュウオウク",
    "town": "泉",
    "town_kana": "イズミ",
    "street": null,
    "office_name": null,
    "office_name_kana": null
  },
  "8125": {
    "postcode": "4338125",
    "prefecture": "静岡県",
    "prefecture_kana": "シズオカケン",
    "prefecture_code": 22,
    "city": "浜松市中央区",
    "city_kana": "ハママツシチュウオウク",
    "town": "和合町",
    "town_kana": "ワゴウチョウ",
    "street": null,
    "office_name": null,
    "office_name_kana": null
  },
  "8126": {
    "postcode": "4338126",
    "prefecture": "静岡県",
    "prefecture_kana": "シズオカケン",
    "prefecture_code": 22,
    "city": "浜松市中央区",
    "city_kana": "ハママツシチュウオウク",
    "town": "泉町",
    "town_kana": "イズミチョウ",
    "street": null,
    "office_name": null,
    "office_name_kana": null
  },
  "8127": {
    "postcode": "4338127",
    "prefecture": "静岡県",
    "prefecture_kana": "シズオカケン",
    "prefecture_code": 22,
    "city": "浜松市中央区",
    "city_kana": "ハママツシチュウオウク",
    "town": "和合北",
    "town_kana": "ワゴウキタ",
    "street": null,
    "office_name": null,
    "office_name_kana": null
  },
  "8501": {
    "postcode": "4338501",
    "prefecture": "静岡県",
    "prefecture_kana": "シズオカケン",
    "prefecture_code": 22,
    "city": "浜松市中央区",
    "city_kana": "ハママツシチュウオウク",
    "town": "葵東",
    "town_kana": "アオイヒガシ",
    "street": "１丁目１３番１号",
    "office_name": "本田技研工業　株式会社　トランスミッション製造部",
    "office_name_kana": "ホンダギケンコウギヨウ カブシキガイシヤ トランスミツシヨンセイゾウブ"
  },
  "8511": {
    "postcode": "4338511",
    "prefecture": "静岡県",
    "prefecture_kana": "シズオカケン",
    "prefecture_code": 22,
    "city": "浜松市中央区",
    "city_kana": "ハママツシチュウオウク",
    "town": "和合北",
    "town_kana": "ワゴウキタ",
    "street": "１−６−１",
    "office_name": "浜松市　リハビリテーション病院",
    "office_name_kana": "ハママツシ リハビリテ-シヨンビヨウイン"
  },
  "8550": {
    "postcode": "4338550",
    "prefecture": "静岡県",
    "prefecture_kana": "シズオカケン",
    "prefecture_code": 22,
    "city": "浜松市中央区",
    "city_kana": "ハママツシチュウオウク",
    "town": "上島",
    "town_kana": "カミジマ",
    "street": "５丁目３−１８",
    "office_name": "株式会社　栃木屋　東海営業所",
    "office_name_kana": "カブシキガイシヤ トチギヤ トウカイエイギヨウシヨ"
  },
  "8558": {
    "postcode": "4338558",
    "prefecture": "静岡県",
    "prefecture_kana": "シズオカケン",
    "prefecture_code": 22,
    "city": "浜松市中央区",
    "city_kana": "ハママツシチュウオウク",
    "town": "三方原町",
    "town_kana": "ミカタハラチョウ",
    "street": "３４５３",
    "office_name": "社会福祉法人　聖隷福祉事業団　総合病院　聖隷三方原病院",
    "office_name_kana": "シヤカイフクシホウジン セイレイフクシジギヨウダン ソウゴウビヨウイン セイレイミカタハラビヨウイン"
  },
  "8567": {
    "postcode": "4338567",
    "prefecture": "静岡県",
    "prefecture_kana": "シズオカケン",
    "prefecture_code": 22,
    "city": "浜松市中央区",
    "city_kana": "ハママツシチュウオウク",
    "town": "初生町",
    "town_kana": "ハツオイチョウ",
    "street": "１１５０",
    "office_name": "静岡県立浜松工業高等学校",
    "office_name_kana": "シズオカケンリツハママツコウギヨウコウトウガツコウ"
  },
  "8601": {
    "postcode": "4338601",
    "prefecture": "静岡県",
    "prefecture_kana": "シズオカケン",
    "prefecture_code": 22,
    "city": "浜松市中央区",
    "city_kana": "ハママツシチュウオウク",
    "town": "和合町",
    "town_kana": "ワゴウチョウ",
    "street": "２−５５（浜松北郵便局私書箱第８号）",
    "office_name": "浜松磐田信用金庫　業務サポート部",
    "office_name_kana": "ハママツイワタシンヨウキンコ ギヨウムサポ-トブ"
  }
}