{
  "0000": {
    "postcode": "4360000",
    "prefecture": "静岡県",
    "prefecture_kana": "シズオカケン",
    "prefecture_code": 22,
    "city": "掛川市",
    "city_kana": "カケガワシ",
    "town": "",
    "town_kana": "",
    "street": null,
    "office_name": null,
    "office_name_kana": null
  },
  "0001": {
    "postcode": "4360001",
    "prefecture": "静岡県",
    "prefecture_kana": "シズオカケン",
    "prefecture_code": 22,
    "city": "掛川市",
    "city_kana": "カケガワシ",
    "town": "東山",
    "town_kana": "ヒガシヤマ",
    "street": null,
    "office_name": null,
    "office_name_kana": null
  },
  "0002": {
    "postcode": "4360002",
    "prefecture": "静岡県",
    "prefecture_kana": "シズオカケン",
    "prefecture_code": 22,
    "city": "掛川市",
    "city_kana": "カケガワシ",
    "town": "佐夜鹿",
    "town_kana": "サヨシカ",
    "street": null,
    "office_name": null,
    "office_name_kana": null
  },
  "0003": {
    "postcode": "4360003",
    "prefecture": "静岡県",
    "prefecture_kana": "シズオカケン",
    "prefecture_code": 22,
    "city": "掛川市",
    "city_kana": "カケガワシ",
    "town": "日坂",
    "town_kana": "ニッサカ",
    "street": null,
    "office_name": null,
    "office_name_kana": null
  },
  "0004": {
    "postcode": "4360004",
    "prefecture": "静岡県",
    "prefecture_kana": "シズオカケン",
    "prefecture_code": 22,
    "city": "掛川市",
    "city_kana": "カケガワシ",
    "town": "八坂",
    "town_kana": "ヤサカ",
    "street": null,
    "office_name": null,
    "office_name_kana": null
  },
  "0005": {
    "postcode": "4360005",
    "prefecture": "静岡県",
    "prefecture_kana": "シズオカケン",
    "prefecture_code": 22,
    "city": "掛川市",
    "city_kana": "カケガワシ",
    "town": "伊達方",
    "town_kana": "ダテガタ",
    "street": null,
    "office_name": null,
    "office_name_kana": null
  },
  "0006": {
    "postcode": "4360006",
    "prefecture": "静岡県",
    "prefecture_kana": "シズオカケン",
    "prefecture_code": 22,
    "city": "掛川市",
    "city_kana": "カケガワシ",
    "town": "本所",
    "town_kana": "ホンジョ",
    "street": null,
    "office_name": null,
    "office_name_kana": null
  },
  "0007": {
    "postcode": "4360007",
    "prefecture": "静岡県",
    "prefecture_kana": "シズオカケン",
    "prefecture_code": 22,
    "city": "掛川市",
    "city_kana": "カケガワシ",
    "town": "小原子",
    "town_kana": "コバラコ",
    "street": null,
    "office_name": null,
    "office_name_kana": null
  },
  "0008": {
    "postcode": "4360008",
    "prefecture": "静岡県",
    "prefecture_kana": "シズオカケン",
    "prefecture_code": 22,
    "city": "掛川市",
    "city_kana": "カケガワシ",
    "town": "千羽",
    "town_kana": "センバ",
    "street": null,
    "office_name": null,
    "office_name_kana": null
  },
  "0009": {
    "postcode": "4360009",
    "prefecture": "静岡県",
    "prefecture_kana": "シズオカケン",
    "prefecture_code": 22,
    "city": "掛川市",
    "city_kana": "カケガワシ",
    "town": "大野",
    "town_kana": "オオノ",
    "street": null,
    "office_name": null,
    "office_name_kana": null
  },
  "0011": {
    "postcode": "4360011",
    "prefecture": "静岡県",
    "prefecture_kana": "シズオカケン",
    "prefecture_code": 22,
    "city": "掛川市",
    "city_kana": "カケガワシ",
    "town": "満水",
    "town_kana": "タマリ",
    "street": null,
    "office_name": null,
    "office_name_kana": null
  },
  "0012": {
    "postcode": "4360012",
    "prefecture": "静岡県",
    "prefecture_kana": "シズオカケン",
    "prefecture_code": 22,
    "city": "掛川市",
    "city_kana": "カケガワシ",
    "town": "上内田",
    "town_kana": "カミウチダ",
    "street": null,
    "office_name": null,
    "office_name_kana": null
  },
  "0013": {
    "postcode": "4360013",
    "prefecture": "静岡県",
    "prefecture_kana": "シズオカケン",
    "prefecture_code": 22,
    "city": "掛川市",
    "city_kana": "カケガワシ",
    "town": "子隣",
    "town_kana": "コトナリ",
    "street": null,
    "office_name": null,
    "office_name_kana": null
  },
  "0014": {
    "postcode": "4360014",
    "prefecture": "静岡県",
    "prefecture_kana": "シズオカケン",
    "prefecture_code": 22,
    "city": "掛川市",
    "city_kana": "カケガワシ",
    "town": "岩井寺",
    "town_kana": "ガンショウジ",
    "street": null,
    "office_name": null,
    "office_name_kana": null
  },
  "0015": {
    "postcode": "4360015",
    "prefecture": "静岡県",
    "prefecture_kana": "シズオカケン",
    "prefecture_code": 22,
    "city": "掛川市",
    "city_kana": "カケガワシ",
    "town": "和田",
    "town_kana": "ワダ",
    "street": null,
    "office_name": null,
    "office_name_kana": null
  },
  "0016": {
    "postcode": "4360016",
    "prefecture": "静岡県",
    "prefecture_kana": "シズオカケン",
    "prefecture_code": 22,
    "city": "掛川市",
    "city_kana": "カケガワシ",
    "town": "板沢",
    "town_kana": "イタサワ",
    "street": null,
    "office_name": null,
    "office_name_kana": null
  },
  "0017": {
    "postcode": "4360017",
    "prefecture": "静岡県",
    "prefecture_kana": "シズオカケン",
    "prefecture_code": 22,
    "city": "掛川市",
    "city_kana": "カケガワシ",
    "town": "杉谷",
    "town_kana": "スギヤ",
    "street": null,
    "office_name": null,
    "office_name_kana": null
  },
  "0018": {
    "postcode": "4360018",
    "prefecture": "静岡県",
    "prefecture_kana": "シズオカケン",
    "prefecture_code": 22,
    "city": "掛川市",
    "city_kana": "カケガワシ",
    "town": "葵町",
    "town_kana": "アオイチョウ",
    "street": null,
    "office_name": null,
    "office_name_kana": null
  },
  "0019": {
    "postcode": "4360019",
    "prefecture": "静岡県",
    "prefecture_kana": "シズオカケン",
    "prefecture_code": 22,
    "city": "掛川市",
    "city_kana": "カケガワシ",
    "town": "青葉台",
    "town_kana": "アオバダイ",
    "street": null,
    "office_name": null,
    "office_name_kana": null
  },
  "0020": {
    "postcode": "4360020",
    "prefecture": "静岡県",
    "prefecture_kana": "シズオカケン",
    "prefecture_code": 22,
    "city": "掛川市",
    "city_kana": "カケガワシ",
    "town": "矢崎町",
    "town_kana": "ヤサキチョウ",
    "street": null,
    "office_name": null,
    "office_name_kana": null
  },
  "0021": {
    "postcode": "4360021",
    "prefecture": "静岡県",
    "prefecture_kana": "シズオカケン",
    "prefecture_code": 22,
    "city": "掛川市",
    "city_kana": "カケガワシ",
    "town": "緑ケ丘",
    "town_kana": "ミドリガオカ",
    "street": null,
    "office_name": null,
    "office_name_kana": null
  },
  "0022": {
    "postcode": "4360022",
    "prefecture": "静岡県",
    "prefecture_kana": "シズオカケン",
    "prefecture_code": 22,
    "city": "掛川市",
    "city_kana": "カケガワシ",
    "town": "上張",
    "town_kana": "アゲハリ",
    "street": null,
    "office_name": null,
    "office_name_kana": null
  },
  "0023": {
    "postcode": "4360023",
    "prefecture": "静岡県",
    "prefecture_kana": "シズオカケン",
    "prefecture_code": 22,
    "city": "掛川市",
    "city_kana": "カケガワシ",
    "town": "結縁寺",
    "town_kana": "ケツエンジ",
    "street": null,
    "office_name": null,
    "office_name_kana": null
  },
  "0024": {
    "postcode": "4360024",
    "prefecture": "静岡県",
    "prefecture_kana": "シズオカケン",
    "prefecture_code": 22,
    "city": "掛川市",
    "city_kana": "カケガワシ",
    "town": "南西郷",
    "town_kana": "ミナミサイゴウ",
    "street": null,
    "office_name": null,
    "office_name_kana": null
  },
  "0025": {
    "postcode": "4360025",
    "prefecture": "静岡県",
    "prefecture_kana": "シズオカケン",
    "prefecture_code": 22,
    "city": "掛川市",
    "city_kana": "カケガワシ",
    "town": "下俣",
    "town_kana": "シモマタ",
    "street": null,
    "office_name": null,
    "office_name_kana": null
  },
  "0026": {
    "postcode": "4360026",
    "prefecture": "静岡県",
    "prefecture_kana": "シズオカケン",
    "prefecture_code": 22,
    "city": "掛川市",
    "city_kana": "カケガワシ",
    "town": "下俣南",
    "town_kana": "シモマタミナミ",
    "street": null,
    "office_name": null,
    "office_name_kana": null
  },
  "0027": {
    "postcode": "4360027",
    "prefecture": "静岡県",
    "prefecture_kana": "シズオカケン",
    "prefecture_code": 22,
    "city": "掛川市",
    "city_kana": "カケガワシ",
    "town": "久保",
    "town_kana": "クボ",
    "street": null,
    "office_name": null,
    "office_name_kana": null
  },
  "0028": {
    "postcode": "4360028",
    "prefecture": "静岡県",
    "prefecture_kana": "シズオカケン",
    "prefecture_code": 22,
    "city": "掛川市",
    "city_kana": "カケガワシ",
    "town": "亀の甲",
    "town_kana": "カメノコウ",
    "street": null,
    "office_name": null,
    "office_name_kana": null
  },
  "0029": {
    "postcode": "4360029",
    "prefecture": "静岡県",
    "prefecture_kana": "シズオカケン",
    "prefecture_code": 22,
    "city": "掛川市",
    "city_kana": "カケガワシ",
    "town": "南",
    "town_kana": "ミナミ",
    "street": null,
    "office_name": null,
    "office_name_kana": null
  },
  "0030": {
    "postcode": "4360030",
    "prefecture": "静岡県",
    "prefecture_kana": "シズオカケン",
    "prefecture_code": 22,
    "city": "掛川市",
    "city_kana": "カケガワシ",
    "town": "杉谷南",
    "town_kana": "スギヤミナミ",
    "street": null,
    "office_name": null,
    "office_name_kana": null
  },
  "0031": {
    "postcode": "4360031",
    "prefecture": "静岡県",
    "prefecture_kana": "シズオカケン",
    "prefecture_code": 22,
    "city": "掛川市",
    "city_kana": "カケガワシ",
    "town": "高御所",
    "town_kana": "コウゴショ",
    "street": null,
    "office_name": null,
    "office_name_kana": null
  },
  "0032": {
    "postcode": "4360032",
    "prefecture": "静岡県",
    "prefecture_kana": "シズオカケン",
    "prefecture_code": 22,
    "city": "掛川市",
    "city_kana": "カケガワシ",
    "town": "平野",
    "town_kana": "ヒラノ",
    "street": null,
    "office_name": null,
    "office_name_kana": null
  },
  "0033": {
    "postcode": "4360033",
    "prefecture": "静岡県",
    "prefecture_kana": "シズオカケン",
    "prefecture_code": 22,
    "city": "掛川市",
    "city_kana": "カケガワシ",
    "town": "篠場",
    "town_kana": "シノンバ",
    "street": null,
    "office_name": null,
    "office_name_kana": null
  },
  "0034": {
    "postcode": "4360034",
    "prefecture": "静岡県",
    "prefecture_kana": "シズオカケン",
    "prefecture_code": 22,
    "city": "掛川市",
    "city_kana": "カケガワシ",
    "town": "梅橋",
    "town_kana": "ウメバシ",
    "street": null,
    "office_name": null,
    "office_name_kana": null
  },
  "0035": {
    "postcode": "4360035",
    "prefecture": "静岡県",
    "prefecture_kana": "シズオカケン",
    "prefecture_code": 22,
    "city": "掛川市",
    "city_kana": "カケガワシ",
    "town": "徳泉",
    "town_kana": "トクイズミ",
    "street": null,
    "office_name": null,
    "office_name_kana": null
  },
  "0036": {
    "postcode": "4360036",
    "prefecture": "静岡県",
    "prefecture_kana": "シズオカケン",
    "prefecture_code": 22,
    "city": "掛川市",
    "city_kana": "カケガワシ",
    "town": "原川",
    "town_kana": "ハラガワ",
    "street": null,
    "office_name": null,
    "office_name_kana": null
  },
  "0037": {
    "postcode": "4360037",
    "prefecture": "静岡県",
    "prefecture_kana": "シズオカケン",
    "prefecture_code": 22,
    "city": "掛川市",
    "city_kana": "カケガワシ",
    "town": "岡津",
    "town_kana": "オカツ",
    "street": null,
    "office_name": null,
    "office_name_kana": null
  },
  "0038": {
    "postcode": "4360038",
    "prefecture": "静岡県",
    "prefecture_kana": "シズオカケン",
    "prefecture_code": 22,
    "city": "掛川市",
    "city_kana": "カケガワシ",
    "town": "領家",
    "town_kana": "リョウケ",
    "street": null,
    "office_name": null,
    "office_name_kana": null
  },
  "0039": {
    "postcode": "4360039",
    "prefecture": "静岡県",
    "prefecture_kana": "シズオカケン",
    "prefecture_code": 22,
    "city": "掛川市",
    "city_kana": "カケガワシ",
    "town": "沢田",
    "town_kana": "サワダ",
    "street": null,
    "office_name": null,
    "office_name_kana": null
  },
  "0040": {
    "postcode": "4360040",
    "prefecture": "静岡県",
    "prefecture_kana": "シズオカケン",
    "prefecture_code": 22,
    "city": "掛川市",
    "city_kana": "カケガワシ",
    "town": "菖蒲ヶ池",
    "town_kana": "ショウブガイケ",
    "street": null,
    "office_name": null,
    "office_name_kana": null
  },
  "0041": {
    "postcode": "4360041",
    "prefecture": "静岡県",
    "prefecture_kana": "シズオカケン",
    "prefecture_code": 22,
    "city": "掛川市",
    "city_kana": "カケガワシ",
    "town": "秋葉路",
    "town_kana": "アキハミチ",
    "street": null,
    "office_name": null,
    "office_name_kana": null
  },
  "0042": {
    "postcode": "4360042",
    "prefecture": "静岡県",
    "prefecture_kana": "シズオカケン",
    "prefecture_code": 22,
    "city": "掛川市",
    "city_kana": "カケガワシ",
    "town": "二瀬川",
    "town_kana": "フタセガワ",
    "street": null,
    "office_name": null,
    "office_name_kana": null
  },
  "0043": {
    "postcode": "4360043",
    "prefecture": "静岡県",
    "prefecture_kana": "シズオカケン",
    "prefecture_code": 22,
    "city": "掛川市",
    "city_kana": "カケガワシ",
    "town": "大池",
    "town_kana": "オオイケ",
    "street": null,
    "office_name": null,
    "office_name_kana": null
  },
  "0044": {
    "postcode": "4360044",
    "prefecture": "静岡県",
    "prefecture_kana": "シズオカケン",
    "prefecture_code": 22,
    "city": "掛川市",
    "city_kana": "カケガワシ",
    "town": "清崎",
    "town_kana": "キヨサキ",
    "street": null,
    "office_name": null,
    "office_name_kana": null
  },
  "0045": {
    "postcode": "4360045",
    "prefecture": "静岡県",
    "prefecture_kana": "シズオカケン",
    "prefecture_code": 22,
    "city": "掛川市",
    "city_kana": "カケガワシ",
    "town": "小鷹町",
    "town_kana": "オダカチョウ",
    "street": null,
    "office_name": null,
    "office_name_kana": null
  },
  "0046": {
    "postcode": "4360046",
    "prefecture": "静岡県",
    "prefecture_kana": "シズオカケン",
    "prefecture_code": 22,
    "city": "掛川市",
    "city_kana": "カケガワシ",
    "town": "中央高町",
    "town_kana": "チュウオウタカマチ",
    "street": null,
    "office_name": null,
    "office_name_kana": null
  },
  "0047": {
    "postcode": "4360047",
    "prefecture": "静岡県",
    "prefecture_kana": "シズオカケン",
    "prefecture_code": 22,
    "city": "掛川市",
    "city_kana": "カケガワシ",
    "town": "長谷",
    "town_kana": "ナガヤ",
    "street": null,
    "office_name": null,
    "office_name_kana": null
  },
  "0048": {
    "postcode": "4360048",
    "prefecture": "静岡県",
    "prefecture_kana": "シズオカケン",
    "prefecture_code": 22,
    "city": "掛川市",
    "city_kana": "カケガワシ",
    "town": "細田",
    "town_kana": "サイダ",
    "street": null,
    "office_name": null,
    "office_name_kana": null
  },
  "0049": {
    "postcode": "4360049",
    "prefecture": "静岡県",
    "prefecture_kana": "シズオカケン",
    "prefecture_code": 22,
    "city": "掛川市",
    "city_kana": "カケガワシ",
    "town": "上屋敷",
    "town_kana": "カミヤシキ",
    "street": null,
    "office_name": null,
    "office_name_kana": null
  },
  "0051": {
    "postcode": "4360051",
    "prefecture": "静岡県",
    "prefecture_kana": "シズオカケン",
    "prefecture_code": 22,
    "city": "掛川市",
    "city_kana": "カケガワシ",
    "town": "中宿",
    "town_kana": "ナカジュク",
    "street": null,
    "office_name": null,
    "office_name_kana": null
  },
  "0052": {
    "postcode": "4360052",
    "prefecture": "静岡県",
    "prefecture_kana": "シズオカケン",
    "prefecture_code": 22,
    "city": "掛川市",
    "city_kana": "カケガワシ",
    "town": "柳町",
    "town_kana": "ヤナギチョウ",
    "street": null,
    "office_name": null,
    "office_name_kana": null
  },
  "0053": {
    "postcode": "4360053",
    "prefecture": "静岡県",
    "prefecture_kana": "シズオカケン",
    "prefecture_code": 22,
    "city": "掛川市",
    "city_kana": "カケガワシ",
    "town": "弥生町",
    "town_kana": "ヤヨイチョウ",
    "street": null,
    "office_name": null,
    "office_name_kana": null
  },
  "0054": {
    "postcode": "4360054",
    "prefecture": "静岡県",
    "prefecture_kana": "シズオカケン",
    "prefecture_code": 22,
    "city": "掛川市",
    "city_kana": "カケガワシ",
    "town": "城西",
    "town_kana": "シロニシ",
    "street": null,
    "office_name": null,
    "office_name_kana": null
  },
  "0055": {
    "postcode": "4360055",
    "prefecture": "静岡県",
    "prefecture_kana": "シズオカケン",
    "prefecture_code": 22,
    "city": "掛川市",
    "city_kana": "カケガワシ",
    "town": "紺屋町",
    "town_kana": "コウヤマチ",
    "street": null,
    "office_name": null,
    "office_name_kana": null
  },
  "0056": {
    "postcode": "4360056",
    "prefecture": "静岡県",
    "prefecture_kana": "シズオカケン",
    "prefecture_code": 22,
    "city": "掛川市",
    "city_kana": "カケガワシ",
    "town": "中央",
    "town_kana": "チュウオウ",
    "street": null,
    "office_name": null,
    "office_name_kana": null
  },
  "0057": {
    "postcode": "4360057",
    "prefecture": "静岡県",
    "prefecture_kana": "シズオカケン",
    "prefecture_code": 22,
    "city": "掛川市",
    "city_kana": "カケガワシ",
    "town": "十九首",
    "town_kana": "ジュウクシュ",
    "street": null,
    "office_name": null,
    "office_name_kana": null
  },
  "0058": {
    "postcode": "4360058",
    "prefecture": "静岡県",
    "prefecture_kana": "シズオカケン",
    "prefecture_code": 22,
    "city": "掛川市",
    "city_kana": "カケガワシ",
    "town": "七日町",
    "town_kana": "ナノカマチ",
    "street": null,
    "office_name": null,
    "office_name_kana": null
  },
  "0059": {
    "postcode": "4360059",
    "prefecture": "静岡県",
    "prefecture_kana": "シズオカケン",
    "prefecture_code": 22,
    "city": "掛川市",
    "city_kana": "カケガワシ",
    "town": "城北",
    "town_kana": "ジョウホク",
    "street": null,
    "office_name": null,
    "office_name_kana": null
  },
  "0061": {
    "postcode": "4360061",
    "prefecture": "静岡県",
    "prefecture_kana": "シズオカケン",
    "prefecture_code": 22,
    "city": "掛川市",
    "city_kana": "カケガワシ",
    "town": "水垂",
    "town_kana": "ミズタリ",
    "street": null,
    "office_name": null,
    "office_name_kana": null
  },
  "0062": {
    "postcode": "4360062",
    "prefecture": "静岡県",
    "prefecture_kana": "シズオカケン",
    "prefecture_code": 22,
    "city": "掛川市",
    "city_kana": "カケガワシ",
    "town": "旭ケ丘",
    "town_kana": "アサヒガオカ",
    "street": null,
    "office_name": null,
    "office_name_kana": null
  },
  "0063": {
    "postcode": "4360063",
    "prefecture": "静岡県",
    "prefecture_kana": "シズオカケン",
    "prefecture_code": 22,
    "city": "掛川市",
    "city_kana": "カケガワシ",
    "town": "北池新田",
    "town_kana": "キタイケシンデン",
    "street": null,
    "office_name": null,
    "office_name_kana": null
  },
  "0064": {
    "postcode": "4360064",
    "prefecture": "静岡県",
    "prefecture_kana": "シズオカケン",
    "prefecture_code": 22,
    "city": "掛川市",
    "city_kana": "カケガワシ",
    "town": "北門",
    "town_kana": "キタモン",
    "street": null,
    "office_name": null,
    "office_name_kana": null
  },
  "0065": {
    "postcode": "4360065",
    "prefecture": "静岡県",
    "prefecture_kana": "シズオカケン",
    "prefecture_code": 22,
    "city": "掛川市",
    "city_kana": "カケガワシ",
    "town": "天王町",
    "town_kana": "テンノウチョウ",
    "street": null,
    "office_name": null,
    "office_name_kana": null
  },
  "0066": {
    "postcode": "4360066",
    "prefecture": "静岡県",
    "prefecture_kana": "シズオカケン",
    "prefecture_code": 22,
    "city": "掛川市",
    "city_kana": "カケガワシ",
    "town": "谷の口町",
    "town_kana": "ヤノクチチョウ",
    "street": null,
    "office_name": null,
    "office_name_kana": null
  },
  "0067": {
    "postcode": "4360067",
    "prefecture": "静岡県",
    "prefecture_kana": "シズオカケン",
    "prefecture_code": 22,
    "city": "掛川市",
    "city_kana": "カケガワシ",
    "town": "下西郷",
    "town_kana": "シモサイゴウ",
    "street": null,
    "office_name": null,
    "office_name_kana": null
  },
  "0068": {
    "postcode": "4360068",
    "prefecture": "静岡県",
    "prefecture_kana": "シズオカケン",
    "prefecture_code": 22,
    "city": "掛川市",
    "city_kana": "カケガワシ",
    "town": "御所原",
    "town_kana": "ゴショバラ",
    "street": null,
    "office_name": null,
    "office_name_kana": null
  },
  "0069": {
    "postcode": "4360069",
    "prefecture": "静岡県",
    "prefecture_kana": "シズオカケン",
    "prefecture_code": 22,
    "city": "掛川市",
    "city_kana": "カケガワシ",
    "town": "旭台",
    "town_kana": "アサヒダイ",
    "street": null,
    "office_name": null,
    "office_name_kana": null
  },
  "0070": {
    "postcode": "4360070",
    "prefecture": "静岡県",
    "prefecture_kana": "シズオカケン",
    "prefecture_code": 22,
    "city": "掛川市",
    "city_kana": "カケガワシ",
    "town": "紅葉台",
    "town_kana": "コウヨウダイ",
    "street": null,
    "office_name": null,
    "office_name_kana": null
  },
  "0071": {
    "postcode": "4360071",
    "prefecture": "静岡県",
    "prefecture_kana": "シズオカケン",
    "prefecture_code": 22,
    "city": "掛川市",
    "city_kana": "カケガワシ",
    "town": "仁藤",
    "town_kana": "ニトウ",
    "street": null,
    "office_name": null,
    "office_name_kana": null
  },
  "0072": {
    "postcode": "4360072",
    "prefecture": "静岡県",
    "prefecture_kana": "シズオカケン",
    "prefecture_code": 22,
    "city": "掛川市",
    "city_kana": "カケガワシ",
    "town": "印内",
    "town_kana": "インナイ",
    "street": null,
    "office_name": null,
    "office_name_kana": null
  },
  "0073": {
    "postcode": "4360073",
    "prefecture": "静岡県",
    "prefecture_kana": "シズオカケン",
    "prefecture_code": 22,
    "city": "掛川市",
    "city_kana": "カケガワシ",
    "town": "金城",
    "town_kana": "カネシロ",
    "street": null,
    "office_name": null,
    "office_name_kana": null
  },
  "0074": {
    "postcode": "4360074",
    "prefecture": "静岡県",
    "prefecture_kana": "シズオカケン",
    "prefecture_code": 22,
    "city": "掛川市",
    "city_kana": "カケガワシ",
    "town": "葛川",
    "town_kana": "クズカワ",
    "street": null,
    "office_name": null,
    "office_name_kana": null
  },
  "0075": {
    "postcode": "4360075",
    "prefecture": "静岡県",
    "prefecture_kana": "シズオカケン",
    "prefecture_code": 22,
    "city": "掛川市",
    "city_kana": "カケガワシ",
    "town": "仁藤町",
    "town_kana": "ニトウマチ",
    "street": null,
    "office_name": null,
    "office_name_kana": null
  },
  "0076": {
    "postcode": "4360076",
    "prefecture": "静岡県",
    "prefecture_kana": "シズオカケン",
    "prefecture_code": 22,
    "city": "掛川市",
    "city_kana": "カケガワシ",
    "town": "塩町",
    "town_kana": "シオマチ",
    "street": null,
    "office_name": null,
    "office_name_kana": null
  },
  "0077": {
    "postcode": "4360077",
    "prefecture": "静岡県",
    "prefecture_kana": "シズオカケン",
    "prefecture_code": 22,
    "city": "掛川市",
    "city_kana": "カケガワシ",
    "town": "駅前",
    "town_kana": "エキマエ",
    "street": null,
    "office_name": null,
    "office_name_kana": null
  },
  "0078": {
    "postcode": "4360078",
    "prefecture": "静岡県",
    "prefecture_kana": "シズオカケン",
    "prefecture_code": 22,
    "city": "掛川市",
    "city_kana": "カケガワシ",
    "town": "肴町",
    "town_kana": "サカナマチ",
    "street": null,
    "office_name": null,
    "office_name_kana": null
  },
  "0079": {
    "postcode": "4360079",
    "prefecture": "静岡県",
    "prefecture_kana": "シズオカケン",
    "prefecture_code": 22,
    "city": "掛川市",
    "city_kana": "カケガワシ",
    "town": "掛川",
    "town_kana": "カケガワ",
    "street": null,
    "office_name": null,
    "office_name_kana": null
  },
  "0081": {
    "postcode": "4360081",
    "prefecture": "静岡県",
    "prefecture_kana": "シズオカケン",
    "prefecture_code": 22,
    "city": "掛川市",
    "city_kana": "カケガワシ",
    "town": "初馬",
    "town_kana": "ハツマ",
    "street": null,
    "office_name": null,
    "office_name_kana": null
  },
  "0082": {
    "postcode": "4360082",
    "prefecture": "静岡県",
    "prefecture_kana": "シズオカケン",
    "prefecture_code": 22,
    "city": "掛川市",
    "city_kana": "カケガワシ",
    "town": "淡陽",
    "town_kana": "タンヨウ",
    "street": null,
    "office_name": null,
    "office_name_kana": null
  },
  "0083": {
    "postcode": "4360083",
    "prefecture": "静岡県",
    "prefecture_kana": "シズオカケン",
    "prefecture_code": 22,
    "city": "掛川市",
    "city_kana": "カケガワシ",
    "town": "薗ケ谷",
    "town_kana": "ソノガヤ",
    "street": null,
    "office_name": null,
    "office_name_kana": null
  },
  "0084": {
    "postcode": "4360084",
    "prefecture": "静岡県",
    "prefecture_kana": "シズオカケン",
    "prefecture_code": 22,
    "city": "掛川市",
    "city_kana": "カケガワシ",
    "town": "逆川",
    "town_kana": "サカガワ",
    "street": null,
    "office_name": null,
    "office_name_kana": null
  },
  "0085": {
    "postcode": "4360085",
    "prefecture": "静岡県",
    "prefecture_kana": "シズオカケン",
    "prefecture_code": 22,
    "city": "掛川市",
    "city_kana": "カケガワシ",
    "town": "成滝",
    "town_kana": "ナルタキ",
    "street": null,
    "office_name": null,
    "office_name_kana": null
  },
  "0086": {
    "postcode": "4360086",
    "prefecture": "静岡県",
    "prefecture_kana": "シズオカケン",
    "prefecture_code": 22,
    "city": "掛川市",
    "city_kana": "カケガワシ",
    "town": "宮脇",
    "town_kana": "ミヤワキ",
    "street": null,
    "office_name": null,
    "office_name_kana": null
  },
  "0087": {
    "postcode": "4360087",
    "prefecture": "静岡県",
    "prefecture_kana": "シズオカケン",
    "prefecture_code": 22,
    "city": "掛川市",
    "city_kana": "カケガワシ",
    "town": "大多郎",
    "town_kana": "オオタロウ",
    "street": null,
    "office_name": null,
    "office_name_kana": null
  },
  "0088": {
    "postcode": "4360088",
    "prefecture": "静岡県",
    "prefecture_kana": "シズオカケン",
    "prefecture_code": 22,
    "city": "掛川市",
    "city_kana": "カケガワシ",
    "town": "葛ケ丘",
    "town_kana": "カツラガオカ",
    "street": null,
    "office_name": null,
    "office_name_kana": null
  },
  "0089": {
    "postcode": "4360089",
    "prefecture": "静岡県",
    "prefecture_kana": "シズオカケン",
    "prefecture_code": 22,
    "city": "掛川市",
    "city_kana": "カケガワシ",
    "town": "安養寺",
    "town_kana": "アンヨウジ",
    "street": null,
    "office_name": null,
    "office_name_kana": null
  },
  "0090": {
    "postcode": "4360090",
    "prefecture": "静岡県",
    "prefecture_kana": "シズオカケン",
    "prefecture_code": 22,
    "city": "掛川市",
    "city_kana": "カケガワシ",
    "town": "光陽",
    "town_kana": "コウヨウ",
    "street": null,
    "office_name": null,
    "office_name_kana": null
  },
  "0091": {
    "postcode": "4360091",
    "prefecture": "静岡県",
    "prefecture_kana": "シズオカケン",
    "prefecture_code": 22,
    "city": "掛川市",
    "city_kana": "カケガワシ",
    "town": "城下",
    "town_kana": "シロシタ",
    "street": null,
    "office_name": null,
    "office_name_kana": null
  },
  "0092": {
    "postcode": "4360092",
    "prefecture": "静岡県",
    "prefecture_kana": "シズオカケン",
    "prefecture_code": 22,
    "city": "掛川市",
    "city_kana": "カケガワシ",
    "town": "中町",
    "town_kana": "ナカマチ",
    "street": null,
    "office_name": null,
    "office_name_kana": null
  },
  "0093": {
    "postcode": "4360093",
    "prefecture": "静岡県",
    "prefecture_kana": "シズオカケン",
    "prefecture_code": 22,
    "city": "掛川市",
    "city_kana": "カケガワシ",
    "town": "連雀",
    "town_kana": "レンジャク",
    "street": null,
    "office_name": null,
    "office_name_kana": null
  },
  "0094": {
    "postcode": "4360094",
    "prefecture": "静岡県",
    "prefecture_kana": "シズオカケン",
    "prefecture_code": 22,
    "city": "掛川市",
    "city_kana": "カケガワシ",
    "town": "喜町",
    "town_kana": "キマチ",
    "street": null,
    "office_name": null,
    "office_name_kana": null
  },
  "0101": {
    "postcode": "4360101",
    "prefecture": "静岡県",
    "prefecture_kana": "シズオカケン",
    "prefecture_code": 22,
    "city": "掛川市",
    "city_kana": "カケガワシ",
    "town": "上西之谷",
    "town_kana": "カミニシノヤ",
    "street": null,
    "office_name": null,
    "office_name_kana": null
  },
  "0102": {
    "postcode": "4360102",
    "prefecture": "静岡県",
    "prefecture_kana": "シズオカケン",
    "prefecture_code": 22,
    "city": "掛川市",
    "city_kana": "カケガワシ",
    "town": "中西之谷",
    "town_kana": "ナカニシノヤ",
    "street": null,
    "office_name": null,
    "office_name_kana": null
  },
  "0103": {
    "postcode": "4360103",
    "prefecture": "静岡県",
    "prefecture_kana": "シズオカケン",
    "prefecture_code": 22,
    "city": "掛川市",
    "city_kana": "カケガワシ",
    "town": "久居島",
    "town_kana": "ヒサイジマ",
    "street": null,
    "office_name": null,
    "office_name_kana": null
  },
  "0104": {
    "postcode": "4360104",
    "prefecture": "静岡県",
    "prefecture_kana": "シズオカケン",
    "prefecture_code": 22,
    "city": "掛川市",
    "city_kana": "カケガワシ",
    "town": "平島",
    "town_kana": "ヒラシマ",
    "street": null,
    "office_name": null,
    "office_name_kana": null
  },
  "0105": {
    "postcode": "4360105",
    "prefecture": "静岡県",
    "prefecture_kana": "シズオカケン",
    "prefecture_code": 22,
    "city": "掛川市",
    "city_kana": "カケガワシ",
    "town": "原里",
    "town_kana": "ハラサト",
    "street": null,
    "office_name": null,
    "office_name_kana": null
  },
  "0106": {
    "postcode": "4360106",
    "prefecture": "静岡県",
    "prefecture_kana": "シズオカケン",
    "prefecture_code": 22,
    "city": "掛川市",
    "city_kana": "カケガワシ",
    "town": "寺島",
    "town_kana": "テラシマ",
    "street": null,
    "office_name": null,
    "office_name_kana": null
  },
  "0111": {
    "postcode": "4360111",
    "prefecture": "静岡県",
    "prefecture_kana": "シズオカケン",
    "prefecture_code": 22,
    "city": "掛川市",
    "city_kana": "カケガワシ",
    "town": "本郷",
    "town_kana": "ホンゴウ",
    "street": null,
    "office_name": null,
    "office_name_kana": null
  },
  "0112": {
    "postcode": "4360112",
    "prefecture": "静岡県",
    "prefecture_kana": "シズオカケン",
    "prefecture_code": 22,
    "city": "掛川市",
    "city_kana": "カケガワシ",
    "town": "細谷",
    "town_kana": "ホソヤ",
    "street": null,
    "office_name": null,
    "office_name_kana": null
  },
  "0113": {
    "postcode": "4360113",
    "prefecture": "静岡県",
    "prefecture_kana": "シズオカケン",
    "prefecture_code": 22,
    "city": "掛川市",
    "city_kana": "カケガワシ",
    "town": "各和",
    "town_kana": "カクワ",
    "street": null,
    "office_name": null,
    "office_name_kana": null
  },
  "0114": {
    "postcode": "4360114",
    "prefecture": "静岡県",
    "prefecture_kana": "シズオカケン",
    "prefecture_code": 22,
    "city": "掛川市",
    "city_kana": "カケガワシ",
    "town": "高田",
    "town_kana": "タカダ",
    "street": null,
    "office_name": null,
    "office_name_kana": null
  },
  "0115": {
    "postcode": "4360115",
    "prefecture": "静岡県",
    "prefecture_kana": "シズオカケン",
    "prefecture_code": 22,
    "city": "掛川市",
    "city_kana": "カケガワシ",
    "town": "吉岡",
    "town_kana": "ヨシオカ",
    "street": null,
    "office_name": null,
    "office_name_kana": null
  },
  "0116": {
    "postcode": "4360116",
    "prefecture": "静岡県",
    "prefecture_kana": "シズオカケン",
    "prefecture_code": 22,
    "city": "掛川市",
    "city_kana": "カケガワシ",
    "town": "西山",
    "town_kana": "ニシヤマ",
    "street": null,
    "office_name": null,
    "office_name_kana": null
  },
  "0117": {
    "postcode": "4360117",
    "prefecture": "静岡県",
    "prefecture_kana": "シズオカケン",
    "prefecture_code": 22,
    "city": "掛川市",
    "city_kana": "カケガワシ",
    "town": "幡鎌",
    "town_kana": "ハタカマ",
    "street": null,
    "office_name": null,
    "office_name_kana": null
  },
  "0221": {
    "postcode": "4360221",
    "prefecture": "静岡県",
    "prefecture_kana": "シズオカケン",
    "prefecture_code": 22,
    "city": "掛川市",
    "city_kana": "カケガワシ",
    "town": "上垂木",
    "town_kana": "カミタルキ",
    "street": null,
    "office_name": null,
    "office_name_kana": null
  },
  "0222": {
    "postcode": "4360222",
    "prefecture": "静岡県",
    "prefecture_kana": "シズオカケン",
    "prefecture_code": 22,
    "city": "掛川市",
    "city_kana": "カケガワシ",
    "town": "下垂木",
    "town_kana": "シモタルキ",
    "street": null,
    "office_name": null,
    "office_name_kana": null
  },
  "0223": {
    "postcode": "4360223",
    "prefecture": "静岡県",
    "prefecture_kana": "シズオカケン",
    "prefecture_code": 22,
    "city": "掛川市",
    "city_kana": "カケガワシ",
    "town": "黒田",
    "town_kana": "クロダ",
    "street": null,
    "office_name": null,
    "office_name_kana": null
  },
  "0224": {
    "postcode": "4360224",
    "prefecture": "静岡県",
    "prefecture_kana": "シズオカケン",
    "prefecture_code": 22,
    "city": "掛川市",
    "city_kana": "カケガワシ",
    "town": "富部",
    "town_kana": "トンベ",
    "street": null,
    "office_name": null,
    "office_name_kana": null
  },
  "0225": {
    "postcode": "4360225",
    "prefecture": "静岡県",
    "prefecture_kana": "シズオカケン",
    "prefecture_code": 22,
    "city": "掛川市",
    "city_kana": "カケガワシ",
    "town": "家代",
    "town_kana": "イエシロ",
    "street": null,
    "office_name": null,
    "office_name_kana": null
  },
  "0226": {
    "postcode": "4360226",
    "prefecture": "静岡県",
    "prefecture_kana": "シズオカケン",
    "prefecture_code": 22,
    "city": "掛川市",
    "city_kana": "カケガワシ",
    "town": "遊家",
    "town_kana": "ユケ",
    "street": null,
    "office_name": null,
    "office_name_kana": null
  },
  "0227": {
    "postcode": "4360227",
    "prefecture": "静岡県",
    "prefecture_kana": "シズオカケン",
    "prefecture_code": 22,
    "city": "掛川市",
    "city_kana": "カケガワシ",
    "town": "家代の里",
    "town_kana": "イエシロノサト",
    "street": null,
    "office_name": null,
    "office_name_kana": null
  },
  "0331": {
    "postcode": "4360331",
    "prefecture": "静岡県",
    "prefecture_kana": "シズオカケン",
    "prefecture_code": 22,
    "city": "掛川市",
    "city_kana": "カケガワシ",
    "town": "黒俣",
    "town_kana": "クロマタ",
    "street": null,
    "office_name": null,
    "office_name_kana": null
  },
  "0332": {
    "postcode": "4360332",
    "prefecture": "静岡県",
    "prefecture_kana": "シズオカケン",
    "prefecture_code": 22,
    "city": "掛川市",
    "city_kana": "カケガワシ",
    "town": "居尻",
    "town_kana": "イジリ",
    "street": null,
    "office_name": null,
    "office_name_kana": null
  },
  "0333": {
    "postcode": "4360333",
    "prefecture": "静岡県",
    "prefecture_kana": "シズオカケン",
    "prefecture_code": 22,
    "city": "掛川市",
    "city_kana": "カケガワシ",
    "town": "丹間",
    "town_kana": "タンマ",
    "street": null,
    "office_name": null,
    "office_name_kana": null
  },
  "0334": {
    "postcode": "4360334",
    "prefecture": "静岡県",
    "prefecture_kana": "シズオカケン",
    "prefecture_code": 22,
    "city": "掛川市",
    "city_kana": "カケガワシ",
    "town": "孕石",
    "town_kana": "ハラミイシ",
    "street": null,
    "office_name": null,
    "office_name_kana": null
  },
  "0335": {
    "postcode": "4360335",
    "prefecture": "静岡県",
    "prefecture_kana": "シズオカケン",
    "prefecture_code": 22,
    "city": "掛川市",
    "city_kana": "カケガワシ",
    "town": "大和田",
    "town_kana": "オオワダ",
    "street": null,
    "office_name": null,
    "office_name_kana": null
  },
  "0336": {
    "postcode": "4360336",
    "prefecture": "静岡県",
    "prefecture_kana": "シズオカケン",
    "prefecture_code": 22,
    "city": "掛川市",
    "city_kana": "カケガワシ",
    "town": "萩間",
    "town_kana": "ハギマ",
    "street": null,
    "office_name": null,
    "office_name_kana": null
  },
  "0337": {
    "postcode": "4360337",
    "prefecture": "静岡県",
    "prefecture_kana": "シズオカケン",
    "prefecture_code": 22,
    "city": "掛川市",
    "city_kana": "カケガワシ",
    "town": "炭焼",
    "town_kana": "スミヤキ",
    "street": null,
    "office_name": null,
    "office_name_kana": null
  },
  "0338": {
    "postcode": "4360338",
    "prefecture": "静岡県",
    "prefecture_kana": "シズオカケン",
    "prefecture_code": 22,
    "city": "掛川市",
    "city_kana": "カケガワシ",
    "town": "和光",
    "town_kana": "ワコウ",
    "street": null,
    "office_name": null,
    "office_name_kana": null
  },
  "0341": {
    "postcode": "4360341",
    "prefecture": "静岡県",
    "prefecture_kana": "シズオカケン",
    "prefecture_code": 22,
    "city": "掛川市",
    "city_kana": "カケガワシ",
    "town": "倉真",
    "town_kana": "クラミ",
    "street": null,
    "office_name": null,
    "office_name_kana": null
  },
  "0342": {
    "postcode": "4360342",
    "prefecture": "静岡県",
    "prefecture_kana": "シズオカケン",
    "prefecture_code": 22,
    "city": "掛川市",
    "city_kana": "カケガワシ",
    "town": "上西郷",
    "town_kana": "カミサイゴウ",
    "street": null,
    "office_name": null,
    "office_name_kana": null
  },
  "0343": {
    "postcode": "4360343",
    "prefecture": "静岡県",
    "prefecture_kana": "シズオカケン",
    "prefecture_code": 22,
    "city": "掛川市",
    "city_kana": "カケガワシ",
    "town": "五明",
    "town_kana": "ゴミョウ",
    "street": null,
    "office_name": null,
    "office_name_kana": null
  },
  "8501": {
    "postcode": "4368501",
    "prefecture": "静岡県",
    "prefecture_kana": "シズオカケン",
    "prefecture_code": 22,
    "city": "掛川市",
    "city_kana": "カケガワシ",
    "town": "下俣",
    "town_kana": "シモマタ",
    "street": "８００",
    "office_name": "ＮＥＣプラットフォームズ　株式会社",
    "office_name_kana": "エヌイ-シ-プラツトフオ-ムズ カブシキガイシヤ"
  },
  "8502": {
    "postcode": "4368502",
    "prefecture": "静岡県",
    "prefecture_kana": "シズオカケン",
    "prefecture_code": 22,
    "city": "掛川市",
    "city_kana": "カケガワシ",
    "town": "杉谷",
    "town_kana": "スギヤ",
    "street": "７２１",
    "office_name": "掛川市立総合病院",
    "office_name_kana": "カケガワシリツソウゴウビヨウイン"
  },
  "8503": {
    "postcode": "4368503",
    "prefecture": "静岡県",
    "prefecture_kana": "シズオカケン",
    "prefecture_code": 22,
    "city": "掛川市",
    "city_kana": "カケガワシ",
    "town": "駅前",
    "town_kana": "エキマエ",
    "street": "１番地の９",
    "office_name": "ダイレクトワン　株式会社",
    "office_name_kana": "ダイレクトワン カブシキガイシヤ"
  },
  "8555": {
    "postcode": "4368555",
    "prefecture": "静岡県",
    "prefecture_kana": "シズオカケン",
    "prefecture_code": 22,
    "city": "掛川市",
    "city_kana": "カケガワシ",
    "town": "",
    "town_kana": "",
    "street": "菖蒲ヶ池１−１",
    "office_name": "掛川市・袋井市病院企業団立　中東遠総合医療センター",
    "office_name_kana": "カケガワシ・フクロイシビヨウインキギヨウダンリツ チユウトウエンソウゴウイリヨウセンタ-"
  },
  "8650": {
    "postcode": "4368650",
    "prefecture": "静岡県",
    "prefecture_kana": "シズオカケン",
    "prefecture_code": 22,
    "city": "掛川市",
    "city_kana": "カケガワシ",
    "town": "長谷",
    "town_kana": "ナガヤ",
    "street": "１丁目１番地の１（掛川郵便局私書箱第４号）",
    "office_name": "掛川市役所",
    "office_name_kana": "カケガワシヤクシヨ"
  },
  "8651": {
    "postcode": "4368651",
    "prefecture": "静岡県",
    "prefecture_kana": "シズオカケン",
    "prefecture_code": 22,
    "city": "掛川市",
    "city_kana": "カケガワシ",
    "town": "亀の甲",
    "town_kana": "カメノコウ",
    "street": "２丁目２０３（掛川郵便局私書箱第１９号）",
    "office_name": "掛川信用金庫",
    "office_name_kana": "カケガワシンヨウキンコ"
  },
  "8652": {
    "postcode": "4368652",
    "prefecture": "静岡県",
    "prefecture_kana": "シズオカケン",
    "prefecture_code": 22,
    "city": "掛川市",
    "city_kana": "カケガワシ",
    "town": "緑ケ丘",
    "town_kana": "ミドリガオカ",
    "street": "２丁目１１−４（掛川郵便局私書箱第２２号）",
    "office_name": "掛川　税務署",
    "office_name_kana": "カケガワ ゼイムシヨ"
  },
  "8653": {
    "postcode": "4368653",
    "prefecture": "静岡県",
    "prefecture_kana": "シズオカケン",
    "prefecture_code": 22,
    "city": "掛川市",
    "city_kana": "カケガワシ",
    "town": "久保",
    "town_kana": "クボ",
    "street": "１丁目１９−８",
    "office_name": "日本年金機構　掛川年金事務所",
    "office_name_kana": "ニツポンネンキンキコウ カケガワネンキンジムシヨ"
  },
  "8701": {
    "postcode": "4368701",
    "prefecture": "静岡県",
    "prefecture_kana": "シズオカケン",
    "prefecture_code": 22,
    "city": "袋井市",
    "city_kana": "フクロイシ",
    "town": "豊沢",
    "town_kana": "トヨサワ",
    "street": "２２２８−１（掛川郵便局私書箱第１号）",
    "office_name": "トッパン・フォームズ東海　株式会社",
    "office_name_kana": "トツパン・フオ-ムズトウカイ カブシキガイシヤ"
  }
}