{
  "0000": {
    "postcode": "4420000",
    "prefecture": "愛知県",
    "prefecture_kana": "アイチケン",
    "prefecture_code": 23,
    "city": "豊川市",
    "city_kana": "トヨカワシ",
    "town": "",
    "town_kana": "",
    "street": null,
    "office_name": null,
    "office_name_kana": null
  },
  "0001": {
    "postcode": "4420001",
    "prefecture": "愛知県",
    "prefecture_kana": "アイチケン",
    "prefecture_code": 23,
    "city": "豊川市",
    "city_kana": "トヨカワシ",
    "town": "千両町",
    "town_kana": "チギリチョウ",
    "street": null,
    "office_name": null,
    "office_name_kana": null
  },
  "0002": {
    "postcode": "4420002",
    "prefecture": "愛知県",
    "prefecture_kana": "アイチケン",
    "prefecture_code": 23,
    "city": "豊川市",
    "city_kana": "トヨカワシ",
    "town": "六角町",
    "town_kana": "ロッカクチョウ",
    "street": null,
    "office_name": null,
    "office_name_kana": null
  },
  "0003": {
    "postcode": "4420003",
    "prefecture": "愛知県",
    "prefecture_kana": "アイチケン",
    "prefecture_code": 23,
    "city": "豊川市",
    "city_kana": "トヨカワシ",
    "town": "長草町",
    "town_kana": "ナガクサチョウ",
    "street": null,
    "office_name": null,
    "office_name_kana": null
  },
  "0004": {
    "postcode": "4420004",
    "prefecture": "愛知県",
    "prefecture_kana": "アイチケン",
    "prefecture_code": 23,
    "city": "豊川市",
    "city_kana": "トヨカワシ",
    "town": "樽井町",
    "town_kana": "タルイチョウ",
    "street": null,
    "office_name": null,
    "office_name_kana": null
  },
  "0005": {
    "postcode": "4420005",
    "prefecture": "愛知県",
    "prefecture_kana": "アイチケン",
    "prefecture_code": 23,
    "city": "豊川市",
    "city_kana": "トヨカワシ",
    "town": "本野ケ原",
    "town_kana": "ホンノガハラ",
    "street": null,
    "office_name": null,
    "office_name_kana": null
  },
  "0006": {
    "postcode": "4420006",
    "prefecture": "愛知県",
    "prefecture_kana": "アイチケン",
    "prefecture_code": 23,
    "city": "豊川市",
    "city_kana": "トヨカワシ",
    "town": "三蔵子町",
    "town_kana": "サンゾウゴチョウ",
    "street": null,
    "office_name": null,
    "office_name_kana": null
  },
  "0007": {
    "postcode": "4420007",
    "prefecture": "愛知県",
    "prefecture_kana": "アイチケン",
    "prefecture_code": 23,
    "city": "豊川市",
    "city_kana": "トヨカワシ",
    "town": "大崎町",
    "town_kana": "オオサキチョウ",
    "street": null,
    "office_name": null,
    "office_name_kana": null
  },
  "0008": {
    "postcode": "4420008",
    "prefecture": "愛知県",
    "prefecture_kana": "アイチケン",
    "prefecture_code": 23,
    "city": "豊川市",
    "city_kana": "トヨカワシ",
    "town": "南千両",
    "town_kana": "ミナミチギリ",
    "street": null,
    "office_name": null,
    "office_name_kana": null
  },
  "0011": {
    "postcode": "4420011",
    "prefecture": "愛知県",
    "prefecture_kana": "アイチケン",
    "prefecture_code": 23,
    "city": "豊川市",
    "city_kana": "トヨカワシ",
    "town": "東曙町",
    "town_kana": "ヒガシアケボノチョウ",
    "street": null,
    "office_name": null,
    "office_name_kana": null
  },
  "0012": {
    "postcode": "4420012",
    "prefecture": "愛知県",
    "prefecture_kana": "アイチケン",
    "prefecture_code": 23,
    "city": "豊川市",
    "city_kana": "トヨカワシ",
    "town": "新豊町",
    "town_kana": "シンユタカマチ",
    "street": null,
    "office_name": null,
    "office_name_kana": null
  },
  "0013": {
    "postcode": "4420013",
    "prefecture": "愛知県",
    "prefecture_kana": "アイチケン",
    "prefecture_code": 23,
    "city": "豊川市",
    "city_kana": "トヨカワシ",
    "town": "大堀町",
    "town_kana": "オオボリチョウ",
    "street": null,
    "office_name": null,
    "office_name_kana": null
  },
  "0014": {
    "postcode": "4420014",
    "prefecture": "愛知県",
    "prefecture_kana": "アイチケン",
    "prefecture_code": 23,
    "city": "豊川市",
    "city_kana": "トヨカワシ",
    "town": "豊栄町",
    "town_kana": "ホウエイチョウ",
    "street": null,
    "office_name": null,
    "office_name_kana": null
  },
  "0015": {
    "postcode": "4420015",
    "prefecture": "愛知県",
    "prefecture_kana": "アイチケン",
    "prefecture_code": 23,
    "city": "豊川市",
    "city_kana": "トヨカワシ",
    "town": "曙町",
    "town_kana": "アケボノチョウ",
    "street": null,
    "office_name": null,
    "office_name_kana": null
  },
  "0016": {
    "postcode": "4420016",
    "prefecture": "愛知県",
    "prefecture_kana": "アイチケン",
    "prefecture_code": 23,
    "city": "豊川市",
    "city_kana": "トヨカワシ",
    "town": "美幸町",
    "town_kana": "ミユキチョウ",
    "street": null,
    "office_name": null,
    "office_name_kana": null
  },
  "0017": {
    "postcode": "4420017",
    "prefecture": "愛知県",
    "prefecture_kana": "アイチケン",
    "prefecture_code": 23,
    "city": "豊川市",
    "city_kana": "トヨカワシ",
    "town": "佐土町",
    "town_kana": "サドチョウ",
    "street": null,
    "office_name": null,
    "office_name_kana": null
  },
  "0018": {
    "postcode": "4420018",
    "prefecture": "愛知県",
    "prefecture_kana": "アイチケン",
    "prefecture_code": 23,
    "city": "豊川市",
    "city_kana": "トヨカワシ",
    "town": "白雲町",
    "town_kana": "シラクモチョウ",
    "street": null,
    "office_name": null,
    "office_name_kana": null
  },
  "0019": {
    "postcode": "4420019",
    "prefecture": "愛知県",
    "prefecture_kana": "アイチケン",
    "prefecture_code": 23,
    "city": "豊川市",
    "city_kana": "トヨカワシ",
    "town": "東名町",
    "town_kana": "トウメイチョウ",
    "street": null,
    "office_name": null,
    "office_name_kana": null
  },
  "0021": {
    "postcode": "4420021",
    "prefecture": "愛知県",
    "prefecture_kana": "アイチケン",
    "prefecture_code": 23,
    "city": "豊川市",
    "city_kana": "トヨカワシ",
    "town": "小桜町",
    "town_kana": "コザクラチョウ",
    "street": null,
    "office_name": null,
    "office_name_kana": null
  },
  "0022": {
    "postcode": "4420022",
    "prefecture": "愛知県",
    "prefecture_kana": "アイチケン",
    "prefecture_code": 23,
    "city": "豊川市",
    "city_kana": "トヨカワシ",
    "town": "東光町",
    "town_kana": "トウコウチョウ",
    "street": null,
    "office_name": null,
    "office_name_kana": null
  },
  "0023": {
    "postcode": "4420023",
    "prefecture": "愛知県",
    "prefecture_kana": "アイチケン",
    "prefecture_code": 23,
    "city": "豊川市",
    "city_kana": "トヨカワシ",
    "town": "稲荷通",
    "town_kana": "イナリドオリ",
    "street": null,
    "office_name": null,
    "office_name_kana": null
  },
  "0024": {
    "postcode": "4420024",
    "prefecture": "愛知県",
    "prefecture_kana": "アイチケン",
    "prefecture_code": 23,
    "city": "豊川市",
    "city_kana": "トヨカワシ",
    "town": "西豊町",
    "town_kana": "ニシユタカマチ",
    "street": null,
    "office_name": null,
    "office_name_kana": null
  },
  "0025": {
    "postcode": "4420025",
    "prefecture": "愛知県",
    "prefecture_kana": "アイチケン",
    "prefecture_code": 23,
    "city": "豊川市",
    "city_kana": "トヨカワシ",
    "town": "東豊町",
    "town_kana": "ヒガシユタカマチ",
    "street": null,
    "office_name": null,
    "office_name_kana": null
  },
  "0026": {
    "postcode": "4420026",
    "prefecture": "愛知県",
    "prefecture_kana": "アイチケン",
    "prefecture_code": 23,
    "city": "豊川市",
    "city_kana": "トヨカワシ",
    "town": "東新町",
    "town_kana": "トウシンチョウ",
    "street": null,
    "office_name": null,
    "office_name_kana": null
  },
  "0027": {
    "postcode": "4420027",
    "prefecture": "愛知県",
    "prefecture_kana": "アイチケン",
    "prefecture_code": 23,
    "city": "豊川市",
    "city_kana": "トヨカワシ",
    "town": "桜木通",
    "town_kana": "サクラギドオリ",
    "street": null,
    "office_name": null,
    "office_name_kana": null
  },
  "0028": {
    "postcode": "4420028",
    "prefecture": "愛知県",
    "prefecture_kana": "アイチケン",
    "prefecture_code": 23,
    "city": "豊川市",
    "city_kana": "トヨカワシ",
    "town": "東桜木町",
    "town_kana": "ヒガシサクラギチョウ",
    "street": null,
    "office_name": null,
    "office_name_kana": null
  },
  "0029": {
    "postcode": "4420029",
    "prefecture": "愛知県",
    "prefecture_kana": "アイチケン",
    "prefecture_code": 23,
    "city": "豊川市",
    "city_kana": "トヨカワシ",
    "town": "末広通",
    "town_kana": "スエヒロドオリ",
    "street": null,
    "office_name": null,
    "office_name_kana": null
  },
  "0031": {
    "postcode": "4420031",
    "prefecture": "愛知県",
    "prefecture_kana": "アイチケン",
    "prefecture_code": 23,
    "city": "豊川市",
    "city_kana": "トヨカワシ",
    "town": "豊川西町",
    "town_kana": "トヨカワニシマチ",
    "street": null,
    "office_name": null,
    "office_name_kana": null
  },
  "0032": {
    "postcode": "4420032",
    "prefecture": "愛知県",
    "prefecture_kana": "アイチケン",
    "prefecture_code": 23,
    "city": "豊川市",
    "city_kana": "トヨカワシ",
    "town": "豊川仲町",
    "town_kana": "トヨカワナカマチ",
    "street": null,
    "office_name": null,
    "office_name_kana": null
  },
  "0033": {
    "postcode": "4420033",
    "prefecture": "愛知県",
    "prefecture_kana": "アイチケン",
    "prefecture_code": 23,
    "city": "豊川市",
    "city_kana": "トヨカワシ",
    "town": "豊川町",
    "town_kana": "トヨカワチョウ",
    "street": null,
    "office_name": null,
    "office_name_kana": null
  },
  "0034": {
    "postcode": "4420034",
    "prefecture": "愛知県",
    "prefecture_kana": "アイチケン",
    "prefecture_code": 23,
    "city": "豊川市",
    "city_kana": "トヨカワシ",
    "town": "西本町",
    "town_kana": "ニシホンマチ",
    "street": null,
    "office_name": null,
    "office_name_kana": null
  },
  "0035": {
    "postcode": "4420035",
    "prefecture": "愛知県",
    "prefecture_kana": "アイチケン",
    "prefecture_code": 23,
    "city": "豊川市",
    "city_kana": "トヨカワシ",
    "town": "豊川元町",
    "town_kana": "トヨカワモトマチ",
    "street": null,
    "office_name": null,
    "office_name_kana": null
  },
  "0036": {
    "postcode": "4420036",
    "prefecture": "愛知県",
    "prefecture_kana": "アイチケン",
    "prefecture_code": 23,
    "city": "豊川市",
    "city_kana": "トヨカワシ",
    "town": "豊川栄町",
    "town_kana": "トヨカワサカエマチ",
    "street": null,
    "office_name": null,
    "office_name_kana": null
  },
  "0037": {
    "postcode": "4420037",
    "prefecture": "愛知県",
    "prefecture_kana": "アイチケン",
    "prefecture_code": 23,
    "city": "豊川市",
    "city_kana": "トヨカワシ",
    "town": "門前町",
    "town_kana": "モンゼンチョウ",
    "street": null,
    "office_name": null,
    "office_name_kana": null
  },
  "0038": {
    "postcode": "4420038",
    "prefecture": "愛知県",
    "prefecture_kana": "アイチケン",
    "prefecture_code": 23,
    "city": "豊川市",
    "city_kana": "トヨカワシ",
    "town": "光陽町",
    "town_kana": "コウヨウチョウ",
    "street": null,
    "office_name": null,
    "office_name_kana": null
  },
  "0039": {
    "postcode": "4420039",
    "prefecture": "愛知県",
    "prefecture_kana": "アイチケン",
    "prefecture_code": 23,
    "city": "豊川市",
    "city_kana": "トヨカワシ",
    "town": "天神町",
    "town_kana": "テンジンチョウ",
    "street": null,
    "office_name": null,
    "office_name_kana": null
  },
  "0041": {
    "postcode": "4420041",
    "prefecture": "愛知県",
    "prefecture_kana": "アイチケン",
    "prefecture_code": 23,
    "city": "豊川市",
    "city_kana": "トヨカワシ",
    "town": "旭町",
    "town_kana": "アサヒマチ",
    "street": null,
    "office_name": null,
    "office_name_kana": null
  },
  "0042": {
    "postcode": "4420042",
    "prefecture": "愛知県",
    "prefecture_kana": "アイチケン",
    "prefecture_code": 23,
    "city": "豊川市",
    "city_kana": "トヨカワシ",
    "town": "北浦町",
    "town_kana": "キタウラチョウ",
    "street": null,
    "office_name": null,
    "office_name_kana": null
  },
  "0043": {
    "postcode": "4420043",
    "prefecture": "愛知県",
    "prefecture_kana": "アイチケン",
    "prefecture_code": 23,
    "city": "豊川市",
    "city_kana": "トヨカワシ",
    "town": "新宿町",
    "town_kana": "シンジュクチョウ",
    "street": null,
    "office_name": null,
    "office_name_kana": null
  },
  "0044": {
    "postcode": "4420044",
    "prefecture": "愛知県",
    "prefecture_kana": "アイチケン",
    "prefecture_code": 23,
    "city": "豊川市",
    "city_kana": "トヨカワシ",
    "town": "二見町",
    "town_kana": "フタミチョウ",
    "street": null,
    "office_name": null,
    "office_name_kana": null
  },
  "0045": {
    "postcode": "4420045",
    "prefecture": "愛知県",
    "prefecture_kana": "アイチケン",
    "prefecture_code": 23,
    "city": "豊川市",
    "city_kana": "トヨカワシ",
    "town": "駅前通",
    "town_kana": "エキマエドオリ",
    "street": null,
    "office_name": null,
    "office_name_kana": null
  },
  "0046": {
    "postcode": "4420046",
    "prefecture": "愛知県",
    "prefecture_kana": "アイチケン",
    "prefecture_code": 23,
    "city": "豊川市",
    "city_kana": "トヨカワシ",
    "town": "幸町",
    "town_kana": "サイワイチョウ",
    "street": null,
    "office_name": null,
    "office_name_kana": null
  },
  "0047": {
    "postcode": "4420047",
    "prefecture": "愛知県",
    "prefecture_kana": "アイチケン",
    "prefecture_code": 23,
    "city": "豊川市",
    "city_kana": "トヨカワシ",
    "town": "若宮町",
    "town_kana": "ワカミヤチョウ",
    "street": null,
    "office_name": null,
    "office_name_kana": null
  },
  "0048": {
    "postcode": "4420048",
    "prefecture": "愛知県",
    "prefecture_kana": "アイチケン",
    "prefecture_code": 23,
    "city": "豊川市",
    "city_kana": "トヨカワシ",
    "town": "開運通",
    "town_kana": "カイウンドオリ",
    "street": null,
    "office_name": null,
    "office_name_kana": null
  },
  "0049": {
    "postcode": "4420049",
    "prefecture": "愛知県",
    "prefecture_kana": "アイチケン",
    "prefecture_code": 23,
    "city": "豊川市",
    "city_kana": "トヨカワシ",
    "town": "緑町",
    "town_kana": "ミドリマチ",
    "street": null,
    "office_name": null,
    "office_name_kana": null
  },
  "0051": {
    "postcode": "4420051",
    "prefecture": "愛知県",
    "prefecture_kana": "アイチケン",
    "prefecture_code": 23,
    "city": "豊川市",
    "city_kana": "トヨカワシ",
    "town": "中央通",
    "town_kana": "チュウオウドオリ",
    "street": null,
    "office_name": null,
    "office_name_kana": null
  },
  "0052": {
    "postcode": "4420052",
    "prefecture": "愛知県",
    "prefecture_kana": "アイチケン",
    "prefecture_code": 23,
    "city": "豊川市",
    "city_kana": "トヨカワシ",
    "town": "金屋本町",
    "town_kana": "カナヤホンマチ",
    "street": null,
    "office_name": null,
    "office_name_kana": null
  },
  "0053": {
    "postcode": "4420053",
    "prefecture": "愛知県",
    "prefecture_kana": "アイチケン",
    "prefecture_code": 23,
    "city": "豊川市",
    "city_kana": "トヨカワシ",
    "town": "金屋町",
    "town_kana": "カナヤチョウ",
    "street": null,
    "office_name": null,
    "office_name_kana": null
  },
  "0054": {
    "postcode": "4420054",
    "prefecture": "愛知県",
    "prefecture_kana": "アイチケン",
    "prefecture_code": 23,
    "city": "豊川市",
    "city_kana": "トヨカワシ",
    "town": "赤代町",
    "town_kana": "アカシロチョウ",
    "street": null,
    "office_name": null,
    "office_name_kana": null
  },
  "0055": {
    "postcode": "4420055",
    "prefecture": "愛知県",
    "prefecture_kana": "アイチケン",
    "prefecture_code": 23,
    "city": "豊川市",
    "city_kana": "トヨカワシ",
    "town": "金屋橋町",
    "town_kana": "カナヤバシチョウ",
    "street": null,
    "office_name": null,
    "office_name_kana": null
  },
  "0061": {
    "postcode": "4420061",
    "prefecture": "愛知県",
    "prefecture_kana": "アイチケン",
    "prefecture_code": 23,
    "city": "豊川市",
    "city_kana": "トヨカワシ",
    "town": "穂ノ原",
    "town_kana": "ホノハラ",
    "street": null,
    "office_name": null,
    "office_name_kana": null
  },
  "0062": {
    "postcode": "4420062",
    "prefecture": "愛知県",
    "prefecture_kana": "アイチケン",
    "prefecture_code": 23,
    "city": "豊川市",
    "city_kana": "トヨカワシ",
    "town": "本野町",
    "town_kana": "ホンノチョウ",
    "street": null,
    "office_name": null,
    "office_name_kana": null
  },
  "0063": {
    "postcode": "4420063",
    "prefecture": "愛知県",
    "prefecture_kana": "アイチケン",
    "prefecture_code": 23,
    "city": "豊川市",
    "city_kana": "トヨカワシ",
    "town": "西桜木町",
    "town_kana": "ニシサクラギチョウ",
    "street": null,
    "office_name": null,
    "office_name_kana": null
  },
  "0064": {
    "postcode": "4420064",
    "prefecture": "愛知県",
    "prefecture_kana": "アイチケン",
    "prefecture_code": 23,
    "city": "豊川市",
    "city_kana": "トヨカワシ",
    "town": "桜ケ丘町",
    "town_kana": "サクラガオカチョウ",
    "street": null,
    "office_name": null,
    "office_name_kana": null
  },
  "0065": {
    "postcode": "4420065",
    "prefecture": "愛知県",
    "prefecture_kana": "アイチケン",
    "prefecture_code": 23,
    "city": "豊川市",
    "city_kana": "トヨカワシ",
    "town": "若鳩町",
    "town_kana": "ワカバトチョウ",
    "street": null,
    "office_name": null,
    "office_name_kana": null
  },
  "0066": {
    "postcode": "4420066",
    "prefecture": "愛知県",
    "prefecture_kana": "アイチケン",
    "prefecture_code": 23,
    "city": "豊川市",
    "city_kana": "トヨカワシ",
    "town": "金屋元町",
    "town_kana": "カナヤモトマチ",
    "street": null,
    "office_name": null,
    "office_name_kana": null
  },
  "0067": {
    "postcode": "4420067",
    "prefecture": "愛知県",
    "prefecture_kana": "アイチケン",
    "prefecture_code": 23,
    "city": "豊川市",
    "city_kana": "トヨカワシ",
    "town": "金屋西町",
    "town_kana": "カナヤニシマチ",
    "street": null,
    "office_name": null,
    "office_name_kana": null
  },
  "0068": {
    "postcode": "4420068",
    "prefecture": "愛知県",
    "prefecture_kana": "アイチケン",
    "prefecture_code": 23,
    "city": "豊川市",
    "city_kana": "トヨカワシ",
    "town": "諏訪",
    "town_kana": "スワ",
    "street": null,
    "office_name": null,
    "office_name_kana": null
  },
  "0069": {
    "postcode": "4420069",
    "prefecture": "愛知県",
    "prefecture_kana": "アイチケン",
    "prefecture_code": 23,
    "city": "豊川市",
    "city_kana": "トヨカワシ",
    "town": "諏訪西町",
    "town_kana": "スワニシマチ",
    "street": null,
    "office_name": null,
    "office_name_kana": null
  },
  "0801": {
    "postcode": "4420801",
    "prefecture": "愛知県",
    "prefecture_kana": "アイチケン",
    "prefecture_code": 23,
    "city": "豊川市",
    "city_kana": "トヨカワシ",
    "town": "上野",
    "town_kana": "ウエノ",
    "street": null,
    "office_name": null,
    "office_name_kana": null
  },
  "0802": {
    "postcode": "4420802",
    "prefecture": "愛知県",
    "prefecture_kana": "アイチケン",
    "prefecture_code": 23,
    "city": "豊川市",
    "city_kana": "トヨカワシ",
    "town": "麻生田町",
    "town_kana": "アソウダチョウ",
    "street": null,
    "office_name": null,
    "office_name_kana": null
  },
  "0803": {
    "postcode": "4420803",
    "prefecture": "愛知県",
    "prefecture_kana": "アイチケン",
    "prefecture_code": 23,
    "city": "豊川市",
    "city_kana": "トヨカワシ",
    "town": "向河原町",
    "town_kana": "ムコウガワラチョウ",
    "street": null,
    "office_name": null,
    "office_name_kana": null
  },
  "0804": {
    "postcode": "4420804",
    "prefecture": "愛知県",
    "prefecture_kana": "アイチケン",
    "prefecture_code": 23,
    "city": "豊川市",
    "city_kana": "トヨカワシ",
    "town": "二葉町",
    "town_kana": "フタバチョウ",
    "street": null,
    "office_name": null,
    "office_name_kana": null
  },
  "0805": {
    "postcode": "4420805",
    "prefecture": "愛知県",
    "prefecture_kana": "アイチケン",
    "prefecture_code": 23,
    "city": "豊川市",
    "city_kana": "トヨカワシ",
    "town": "三谷原町",
    "town_kana": "ミヤハラチョウ",
    "street": null,
    "office_name": null,
    "office_name_kana": null
  },
  "0806": {
    "postcode": "4420806",
    "prefecture": "愛知県",
    "prefecture_kana": "アイチケン",
    "prefecture_code": 23,
    "city": "豊川市",
    "city_kana": "トヨカワシ",
    "town": "牧野町",
    "town_kana": "マキノチョウ",
    "street": null,
    "office_name": null,
    "office_name_kana": null
  },
  "0807": {
    "postcode": "4420807",
    "prefecture": "愛知県",
    "prefecture_kana": "アイチケン",
    "prefecture_code": 23,
    "city": "豊川市",
    "city_kana": "トヨカワシ",
    "town": "谷川町",
    "town_kana": "ヤガワチョウ",
    "street": null,
    "office_name": null,
    "office_name_kana": null
  },
  "0808": {
    "postcode": "4420808",
    "prefecture": "愛知県",
    "prefecture_kana": "アイチケン",
    "prefecture_code": 23,
    "city": "豊川市",
    "city_kana": "トヨカワシ",
    "town": "豊が丘町",
    "town_kana": "ユタカガオカチョウ",
    "street": null,
    "office_name": null,
    "office_name_kana": null
  },
  "0809": {
    "postcode": "4420809",
    "prefecture": "愛知県",
    "prefecture_kana": "アイチケン",
    "prefecture_code": 23,
    "city": "豊川市",
    "city_kana": "トヨカワシ",
    "town": "大橋町",
    "town_kana": "オオハシチョウ",
    "street": null,
    "office_name": null,
    "office_name_kana": null
  },
  "0811": {
    "postcode": "4420811",
    "prefecture": "愛知県",
    "prefecture_kana": "アイチケン",
    "prefecture_code": 23,
    "city": "豊川市",
    "city_kana": "トヨカワシ",
    "town": "馬場町",
    "town_kana": "ババチョウ",
    "street": null,
    "office_name": null,
    "office_name_kana": null
  },
  "0812": {
    "postcode": "4420812",
    "prefecture": "愛知県",
    "prefecture_kana": "アイチケン",
    "prefecture_code": 23,
    "city": "豊川市",
    "city_kana": "トヨカワシ",
    "town": "三上町",
    "town_kana": "ミカミチョウ",
    "street": null,
    "office_name": null,
    "office_name_kana": null
  },
  "0813": {
    "postcode": "4420813",
    "prefecture": "愛知県",
    "prefecture_kana": "アイチケン",
    "prefecture_code": 23,
    "city": "豊川市",
    "city_kana": "トヨカワシ",
    "town": "土筒町",
    "town_kana": "ドドウチョウ",
    "street": null,
    "office_name": null,
    "office_name_kana": null
  },
  "0814": {
    "postcode": "4420814",
    "prefecture": "愛知県",
    "prefecture_kana": "アイチケン",
    "prefecture_code": 23,
    "city": "豊川市",
    "city_kana": "トヨカワシ",
    "town": "院之子町",
    "town_kana": "インノコチョウ",
    "street": null,
    "office_name": null,
    "office_name_kana": null
  },
  "0815": {
    "postcode": "4420815",
    "prefecture": "愛知県",
    "prefecture_kana": "アイチケン",
    "prefecture_code": 23,
    "city": "豊川市",
    "city_kana": "トヨカワシ",
    "town": "瀬木町",
    "town_kana": "セギチョウ",
    "street": null,
    "office_name": null,
    "office_name_kana": null
  },
  "0816": {
    "postcode": "4420816",
    "prefecture": "愛知県",
    "prefecture_kana": "アイチケン",
    "prefecture_code": 23,
    "city": "豊川市",
    "city_kana": "トヨカワシ",
    "town": "花井町",
    "town_kana": "ハナイチョウ",
    "street": null,
    "office_name": null,
    "office_name_kana": null
  },
  "0817": {
    "postcode": "4420817",
    "prefecture": "愛知県",
    "prefecture_kana": "アイチケン",
    "prefecture_code": 23,
    "city": "豊川市",
    "city_kana": "トヨカワシ",
    "town": "古宿町",
    "town_kana": "フルジュクチョウ",
    "street": null,
    "office_name": null,
    "office_name_kana": null
  },
  "0818": {
    "postcode": "4420818",
    "prefecture": "愛知県",
    "prefecture_kana": "アイチケン",
    "prefecture_code": 23,
    "city": "豊川市",
    "city_kana": "トヨカワシ",
    "town": "中条町",
    "town_kana": "チュウジョウチョウ",
    "street": null,
    "office_name": null,
    "office_name_kana": null
  },
  "0819": {
    "postcode": "4420819",
    "prefecture": "愛知県",
    "prefecture_kana": "アイチケン",
    "prefecture_code": 23,
    "city": "豊川市",
    "city_kana": "トヨカワシ",
    "town": "住吉町",
    "town_kana": "スミヨシチョウ",
    "street": null,
    "office_name": null,
    "office_name_kana": null
  },
  "0821": {
    "postcode": "4420821",
    "prefecture": "愛知県",
    "prefecture_kana": "アイチケン",
    "prefecture_code": 23,
    "city": "豊川市",
    "city_kana": "トヨカワシ",
    "town": "当古町",
    "town_kana": "トウゴチョウ",
    "street": null,
    "office_name": null,
    "office_name_kana": null
  },
  "0822": {
    "postcode": "4420822",
    "prefecture": "愛知県",
    "prefecture_kana": "アイチケン",
    "prefecture_code": 23,
    "city": "豊川市",
    "city_kana": "トヨカワシ",
    "town": "行明町",
    "town_kana": "ギョウメイチョウ",
    "street": null,
    "office_name": null,
    "office_name_kana": null
  },
  "0823": {
    "postcode": "4420823",
    "prefecture": "愛知県",
    "prefecture_kana": "アイチケン",
    "prefecture_code": 23,
    "city": "豊川市",
    "city_kana": "トヨカワシ",
    "town": "正岡町",
    "town_kana": "マサオカチョウ",
    "street": null,
    "office_name": null,
    "office_name_kana": null
  },
  "0824": {
    "postcode": "4420824",
    "prefecture": "愛知県",
    "prefecture_kana": "アイチケン",
    "prefecture_code": 23,
    "city": "豊川市",
    "city_kana": "トヨカワシ",
    "town": "下長山町",
    "town_kana": "シモナガヤマチョウ",
    "street": null,
    "office_name": null,
    "office_name_kana": null
  },
  "0825": {
    "postcode": "4420825",
    "prefecture": "愛知県",
    "prefecture_kana": "アイチケン",
    "prefecture_code": 23,
    "city": "豊川市",
    "city_kana": "トヨカワシ",
    "town": "美和通",
    "town_kana": "ミワドオリ",
    "street": null,
    "office_name": null,
    "office_name_kana": null
  },
  "0826": {
    "postcode": "4420826",
    "prefecture": "愛知県",
    "prefecture_kana": "アイチケン",
    "prefecture_code": 23,
    "city": "豊川市",
    "city_kana": "トヨカワシ",
    "town": "牛久保町",
    "town_kana": "ウシクボチョウ",
    "street": null,
    "office_name": null,
    "office_name_kana": null
  },
  "0827": {
    "postcode": "4420827",
    "prefecture": "愛知県",
    "prefecture_kana": "アイチケン",
    "prefecture_code": 23,
    "city": "豊川市",
    "city_kana": "トヨカワシ",
    "town": "西島町",
    "town_kana": "ニシジマチョウ",
    "street": null,
    "office_name": null,
    "office_name_kana": null
  },
  "0828": {
    "postcode": "4420828",
    "prefecture": "愛知県",
    "prefecture_kana": "アイチケン",
    "prefecture_code": 23,
    "city": "豊川市",
    "city_kana": "トヨカワシ",
    "town": "柑子町",
    "town_kana": "コウジチョウ",
    "street": null,
    "office_name": null,
    "office_name_kana": null
  },
  "0831": {
    "postcode": "4420831",
    "prefecture": "愛知県",
    "prefecture_kana": "アイチケン",
    "prefecture_code": 23,
    "city": "豊川市",
    "city_kana": "トヨカワシ",
    "town": "弥生町",
    "town_kana": "ヤヨイチョウ",
    "street": null,
    "office_name": null,
    "office_name_kana": null
  },
  "0832": {
    "postcode": "4420832",
    "prefecture": "愛知県",
    "prefecture_kana": "アイチケン",
    "prefecture_code": 23,
    "city": "豊川市",
    "city_kana": "トヨカワシ",
    "town": "寿通",
    "town_kana": "コトブキドオリ",
    "street": null,
    "office_name": null,
    "office_name_kana": null
  },
  "0833": {
    "postcode": "4420833",
    "prefecture": "愛知県",
    "prefecture_kana": "アイチケン",
    "prefecture_code": 23,
    "city": "豊川市",
    "city_kana": "トヨカワシ",
    "town": "西口町",
    "town_kana": "ニシグチチョウ",
    "street": null,
    "office_name": null,
    "office_name_kana": null
  },
  "0834": {
    "postcode": "4420834",
    "prefecture": "愛知県",
    "prefecture_kana": "アイチケン",
    "prefecture_code": 23,
    "city": "豊川市",
    "city_kana": "トヨカワシ",
    "town": "西香ノ木町",
    "town_kana": "ニシコウノギチョウ",
    "street": null,
    "office_name": null,
    "office_name_kana": null
  },
  "0835": {
    "postcode": "4420835",
    "prefecture": "愛知県",
    "prefecture_kana": "アイチケン",
    "prefecture_code": 23,
    "city": "豊川市",
    "city_kana": "トヨカワシ",
    "town": "新桜町通",
    "town_kana": "シンサクラマチドオリ",
    "street": null,
    "office_name": null,
    "office_name_kana": null
  },
  "0836": {
    "postcode": "4420836",
    "prefecture": "愛知県",
    "prefecture_kana": "アイチケン",
    "prefecture_code": 23,
    "city": "豊川市",
    "city_kana": "トヨカワシ",
    "town": "堺町",
    "town_kana": "サカイマチ",
    "street": null,
    "office_name": null,
    "office_name_kana": null
  },
  "0837": {
    "postcode": "4420837",
    "prefecture": "愛知県",
    "prefecture_kana": "アイチケン",
    "prefecture_code": 23,
    "city": "豊川市",
    "city_kana": "トヨカワシ",
    "town": "川花町",
    "town_kana": "カワハナチョウ",
    "street": null,
    "office_name": null,
    "office_name_kana": null
  },
  "0838": {
    "postcode": "4420838",
    "prefecture": "愛知県",
    "prefecture_kana": "アイチケン",
    "prefecture_code": 23,
    "city": "豊川市",
    "city_kana": "トヨカワシ",
    "town": "西塚町",
    "town_kana": "ニシヅカチョウ",
    "street": null,
    "office_name": null,
    "office_name_kana": null
  },
  "0839": {
    "postcode": "4420839",
    "prefecture": "愛知県",
    "prefecture_kana": "アイチケン",
    "prefecture_code": 23,
    "city": "豊川市",
    "city_kana": "トヨカワシ",
    "town": "四ツ谷町",
    "town_kana": "ヨツヤチョウ",
    "street": null,
    "office_name": null,
    "office_name_kana": null
  },
  "0841": {
    "postcode": "4420841",
    "prefecture": "愛知県",
    "prefecture_kana": "アイチケン",
    "prefecture_code": 23,
    "city": "豊川市",
    "city_kana": "トヨカワシ",
    "town": "代田町",
    "town_kana": "ダイダチョウ",
    "street": null,
    "office_name": null,
    "office_name_kana": null
  },
  "0842": {
    "postcode": "4420842",
    "prefecture": "愛知県",
    "prefecture_kana": "アイチケン",
    "prefecture_code": 23,
    "city": "豊川市",
    "city_kana": "トヨカワシ",
    "town": "蔵子",
    "town_kana": "ゾウシ",
    "street": null,
    "office_name": null,
    "office_name_kana": null
  },
  "0843": {
    "postcode": "4420843",
    "prefecture": "愛知県",
    "prefecture_kana": "アイチケン",
    "prefecture_code": 23,
    "city": "豊川市",
    "city_kana": "トヨカワシ",
    "town": "桜町",
    "town_kana": "サクラマチ",
    "street": null,
    "office_name": null,
    "office_name_kana": null
  },
  "0844": {
    "postcode": "4420844",
    "prefecture": "愛知県",
    "prefecture_kana": "アイチケン",
    "prefecture_code": 23,
    "city": "豊川市",
    "city_kana": "トヨカワシ",
    "town": "小田渕町",
    "town_kana": "オダブチチョウ",
    "street": null,
    "office_name": null,
    "office_name_kana": null
  },
  "0845": {
    "postcode": "4420845",
    "prefecture": "愛知県",
    "prefecture_kana": "アイチケン",
    "prefecture_code": 23,
    "city": "豊川市",
    "city_kana": "トヨカワシ",
    "town": "為当町",
    "town_kana": "タメトウチョウ",
    "street": null,
    "office_name": null,
    "office_name_kana": null
  },
  "0846": {
    "postcode": "4420846",
    "prefecture": "愛知県",
    "prefecture_kana": "アイチケン",
    "prefecture_code": 23,
    "city": "豊川市",
    "city_kana": "トヨカワシ",
    "town": "森",
    "town_kana": "モリ",
    "street": null,
    "office_name": null,
    "office_name_kana": null
  },
  "0847": {
    "postcode": "4420847",
    "prefecture": "愛知県",
    "prefecture_kana": "アイチケン",
    "prefecture_code": 23,
    "city": "豊川市",
    "city_kana": "トヨカワシ",
    "town": "白鳥",
    "town_kana": "シロトリ",
    "street": null,
    "office_name": null,
    "office_name_kana": null
  },
  "0848": {
    "postcode": "4420848",
    "prefecture": "愛知県",
    "prefecture_kana": "アイチケン",
    "prefecture_code": 23,
    "city": "豊川市",
    "city_kana": "トヨカワシ",
    "town": "白鳥町",
    "town_kana": "シロトリチョウ",
    "street": null,
    "office_name": null,
    "office_name_kana": null
  },
  "0851": {
    "postcode": "4420851",
    "prefecture": "愛知県",
    "prefecture_kana": "アイチケン",
    "prefecture_code": 23,
    "city": "豊川市",
    "city_kana": "トヨカワシ",
    "town": "野口町",
    "town_kana": "ノグチチョウ",
    "street": null,
    "office_name": null,
    "office_name_kana": null
  },
  "0852": {
    "postcode": "4420852",
    "prefecture": "愛知県",
    "prefecture_kana": "アイチケン",
    "prefecture_code": 23,
    "city": "豊川市",
    "city_kana": "トヨカワシ",
    "town": "国府南",
    "town_kana": "コウミナミ",
    "street": null,
    "office_name": null,
    "office_name_kana": null
  },
  "0853": {
    "postcode": "4420853",
    "prefecture": "愛知県",
    "prefecture_kana": "アイチケン",
    "prefecture_code": 23,
    "city": "豊川市",
    "city_kana": "トヨカワシ",
    "town": "新青馬町",
    "town_kana": "シンアオウマチョウ",
    "street": null,
    "office_name": null,
    "office_name_kana": null
  },
  "0854": {
    "postcode": "4420854",
    "prefecture": "愛知県",
    "prefecture_kana": "アイチケン",
    "prefecture_code": 23,
    "city": "豊川市",
    "city_kana": "トヨカワシ",
    "town": "国府町",
    "town_kana": "コウチョウ",
    "street": null,
    "office_name": null,
    "office_name_kana": null
  },
  "0855": {
    "postcode": "4420855",
    "prefecture": "愛知県",
    "prefecture_kana": "アイチケン",
    "prefecture_code": 23,
    "city": "豊川市",
    "city_kana": "トヨカワシ",
    "town": "新栄町",
    "town_kana": "シンサカエマチ",
    "street": null,
    "office_name": null,
    "office_name_kana": null
  },
  "0856": {
    "postcode": "4420856",
    "prefecture": "愛知県",
    "prefecture_kana": "アイチケン",
    "prefecture_code": 23,
    "city": "豊川市",
    "city_kana": "トヨカワシ",
    "town": "久保町",
    "town_kana": "クボチョウ",
    "street": null,
    "office_name": null,
    "office_name_kana": null
  },
  "0857": {
    "postcode": "4420857",
    "prefecture": "愛知県",
    "prefecture_kana": "アイチケン",
    "prefecture_code": 23,
    "city": "豊川市",
    "city_kana": "トヨカワシ",
    "town": "八幡町",
    "town_kana": "ヤワタチョウ",
    "street": null,
    "office_name": null,
    "office_name_kana": null
  },
  "0861": {
    "postcode": "4420861",
    "prefecture": "愛知県",
    "prefecture_kana": "アイチケン",
    "prefecture_code": 23,
    "city": "豊川市",
    "city_kana": "トヨカワシ",
    "town": "財賀町",
    "town_kana": "ザイカチョウ",
    "street": null,
    "office_name": null,
    "office_name_kana": null
  },
  "0862": {
    "postcode": "4420862",
    "prefecture": "愛知県",
    "prefecture_kana": "アイチケン",
    "prefecture_code": 23,
    "city": "豊川市",
    "city_kana": "トヨカワシ",
    "town": "市田町",
    "town_kana": "イチダチョウ",
    "street": null,
    "office_name": null,
    "office_name_kana": null
  },
  "0863": {
    "postcode": "4420863",
    "prefecture": "愛知県",
    "prefecture_kana": "アイチケン",
    "prefecture_code": 23,
    "city": "豊川市",
    "city_kana": "トヨカワシ",
    "town": "平尾町",
    "town_kana": "ヒラオチョウ",
    "street": null,
    "office_name": null,
    "office_name_kana": null
  },
  "0871": {
    "postcode": "4420871",
    "prefecture": "愛知県",
    "prefecture_kana": "アイチケン",
    "prefecture_code": 23,
    "city": "豊川市",
    "city_kana": "トヨカワシ",
    "town": "松風町",
    "town_kana": "マツカゼチョウ",
    "street": null,
    "office_name": null,
    "office_name_kana": null
  },
  "0872": {
    "postcode": "4420872",
    "prefecture": "愛知県",
    "prefecture_kana": "アイチケン",
    "prefecture_code": 23,
    "city": "豊川市",
    "city_kana": "トヨカワシ",
    "town": "金塚町",
    "town_kana": "カナヅカチョウ",
    "street": null,
    "office_name": null,
    "office_name_kana": null
  },
  "0873": {
    "postcode": "4420873",
    "prefecture": "愛知県",
    "prefecture_kana": "アイチケン",
    "prefecture_code": 23,
    "city": "豊川市",
    "city_kana": "トヨカワシ",
    "town": "山道町",
    "town_kana": "ヤマミチチョウ",
    "street": null,
    "office_name": null,
    "office_name_kana": null
  },
  "0874": {
    "postcode": "4420874",
    "prefecture": "愛知県",
    "prefecture_kana": "アイチケン",
    "prefecture_code": 23,
    "city": "豊川市",
    "city_kana": "トヨカワシ",
    "town": "松久町",
    "town_kana": "マツヒサチョウ",
    "street": null,
    "office_name": null,
    "office_name_kana": null
  },
  "0875": {
    "postcode": "4420875",
    "prefecture": "愛知県",
    "prefecture_kana": "アイチケン",
    "prefecture_code": 23,
    "city": "豊川市",
    "city_kana": "トヨカワシ",
    "town": "佐奈川町",
    "town_kana": "サナガワチョウ",
    "street": null,
    "office_name": null,
    "office_name_kana": null
  },
  "0876": {
    "postcode": "4420876",
    "prefecture": "愛知県",
    "prefecture_kana": "アイチケン",
    "prefecture_code": 23,
    "city": "豊川市",
    "city_kana": "トヨカワシ",
    "town": "中部町",
    "town_kana": "チュウブチョウ",
    "street": null,
    "office_name": null,
    "office_name_kana": null
  },
  "0877": {
    "postcode": "4420877",
    "prefecture": "愛知県",
    "prefecture_kana": "アイチケン",
    "prefecture_code": 23,
    "city": "豊川市",
    "city_kana": "トヨカワシ",
    "town": "下野川町",
    "town_kana": "シモノガワチョウ",
    "street": null,
    "office_name": null,
    "office_name_kana": null
  },
  "0878": {
    "postcode": "4420878",
    "prefecture": "愛知県",
    "prefecture_kana": "アイチケン",
    "prefecture_code": 23,
    "city": "豊川市",
    "city_kana": "トヨカワシ",
    "town": "新道町",
    "town_kana": "シンミチチョウ",
    "street": null,
    "office_name": null,
    "office_name_kana": null
  },
  "0879": {
    "postcode": "4420879",
    "prefecture": "愛知県",
    "prefecture_kana": "アイチケン",
    "prefecture_code": 23,
    "city": "豊川市",
    "city_kana": "トヨカワシ",
    "town": "萩山町",
    "town_kana": "ハギヤマチョウ",
    "street": null,
    "office_name": null,
    "office_name_kana": null
  },
  "0881": {
    "postcode": "4420881",
    "prefecture": "愛知県",
    "prefecture_kana": "アイチケン",
    "prefecture_code": 23,
    "city": "豊川市",
    "city_kana": "トヨカワシ",
    "town": "塔ノ木町",
    "town_kana": "トウノギチョウ",
    "street": null,
    "office_name": null,
    "office_name_kana": null
  },
  "0882": {
    "postcode": "4420882",
    "prefecture": "愛知県",
    "prefecture_kana": "アイチケン",
    "prefecture_code": 23,
    "city": "豊川市",
    "city_kana": "トヨカワシ",
    "town": "光輝町",
    "town_kana": "コウキチョウ",
    "street": null,
    "office_name": null,
    "office_name_kana": null
  },
  "0883": {
    "postcode": "4420883",
    "prefecture": "愛知県",
    "prefecture_kana": "アイチケン",
    "prefecture_code": 23,
    "city": "豊川市",
    "city_kana": "トヨカワシ",
    "town": "高見町",
    "town_kana": "タカミチョウ",
    "street": null,
    "office_name": null,
    "office_name_kana": null
  },
  "0884": {
    "postcode": "4420884",
    "prefecture": "愛知県",
    "prefecture_kana": "アイチケン",
    "prefecture_code": 23,
    "city": "豊川市",
    "city_kana": "トヨカワシ",
    "town": "光明町",
    "town_kana": "コウメイチョウ",
    "street": null,
    "office_name": null,
    "office_name_kana": null
  },
  "0885": {
    "postcode": "4420885",
    "prefecture": "愛知県",
    "prefecture_kana": "アイチケン",
    "prefecture_code": 23,
    "city": "豊川市",
    "city_kana": "トヨカワシ",
    "town": "中野川町",
    "town_kana": "ナカノガワチョウ",
    "street": null,
    "office_name": null,
    "office_name_kana": null
  },
  "0886": {
    "postcode": "4420886",
    "prefecture": "愛知県",
    "prefecture_kana": "アイチケン",
    "prefecture_code": 23,
    "city": "豊川市",
    "city_kana": "トヨカワシ",
    "town": "牛久保駅通",
    "town_kana": "ウシクボエキドオリ",
    "street": null,
    "office_name": null,
    "office_name_kana": null
  },
  "0887": {
    "postcode": "4420887",
    "prefecture": "愛知県",
    "prefecture_kana": "アイチケン",
    "prefecture_code": 23,
    "city": "豊川市",
    "city_kana": "トヨカワシ",
    "town": "明野町",
    "town_kana": "アケノチョウ",
    "street": null,
    "office_name": null,
    "office_name_kana": null
  },
  "0888": {
    "postcode": "4420888",
    "prefecture": "愛知県",
    "prefecture_kana": "アイチケン",
    "prefecture_code": 23,
    "city": "豊川市",
    "city_kana": "トヨカワシ",
    "town": "千歳通",
    "town_kana": "チトセドオリ",
    "street": null,
    "office_name": null,
    "office_name_kana": null
  },
  "0889": {
    "postcode": "4420889",
    "prefecture": "愛知県",
    "prefecture_kana": "アイチケン",
    "prefecture_code": 23,
    "city": "豊川市",
    "city_kana": "トヨカワシ",
    "town": "南大通",
    "town_kana": "ミナミオオドオリ",
    "street": null,
    "office_name": null,
    "office_name_kana": null
  },
  "8501": {
    "postcode": "4428501",
    "prefecture": "愛知県",
    "prefecture_kana": "アイチケン",
    "prefecture_code": 23,
    "city": "豊川市",
    "city_kana": "トヨカワシ",
    "town": "千両町",
    "town_kana": "チギリチョウ",
    "street": "下ノ市場３５−１",
    "office_name": "シロキ工業　株式会社",
    "office_name_kana": "シロキコウギヨウ カブシキガイシヤ"
  },
  "8502": {
    "postcode": "4428502",
    "prefecture": "愛知県",
    "prefecture_kana": "アイチケン",
    "prefecture_code": 23,
    "city": "豊川市",
    "city_kana": "トヨカワシ",
    "town": "穂ノ原",
    "town_kana": "ホノハラ",
    "street": "２丁目２０",
    "office_name": "日本車輌製造　株式会社　豊川製作所",
    "office_name_kana": "ニツポンシヤリヨウセイゾウ カブシキガイシヤ トヨカワセイサクシヨ"
  },
  "8503": {
    "postcode": "4428503",
    "prefecture": "愛知県",
    "prefecture_kana": "アイチケン",
    "prefecture_code": 23,
    "city": "豊川市",
    "city_kana": "トヨカワシ",
    "town": "穂ノ原",
    "town_kana": "ホノハラ",
    "street": "３丁目２２−１",
    "office_name": "コニカミノルタ　瑞穂サイト",
    "office_name_kana": "コニカミノルタ ミズホサイト"
  },
  "8505": {
    "postcode": "4428505",
    "prefecture": "愛知県",
    "prefecture_kana": "アイチケン",
    "prefecture_code": 23,
    "city": "豊川市",
    "city_kana": "トヨカワシ",
    "town": "穂ノ原",
    "town_kana": "ホノハラ",
    "street": "３丁目１",
    "office_name": "新東工業　株式会社　豊川製作所",
    "office_name_kana": "シントウコウギヨウ カブシキガイシヤ トヨカワセイサクシヨ"
  },
  "8506": {
    "postcode": "4428506",
    "prefecture": "愛知県",
    "prefecture_kana": "アイチケン",
    "prefecture_code": 23,
    "city": "豊川市",
    "city_kana": "トヨカワシ",
    "town": "穂ノ原",
    "town_kana": "ホノハラ",
    "street": "３丁目３０",
    "office_name": "トピー工業　株式会社　豊川製造所",
    "office_name_kana": "トピ-コウギヨウ カブシキガイシヤ トヨカワセイゾウシヨ"
  },
  "8507": {
    "postcode": "4428507",
    "prefecture": "愛知県",
    "prefecture_kana": "アイチケン",
    "prefecture_code": 23,
    "city": "豊川市",
    "city_kana": "トヨカワシ",
    "town": "穂ノ原",
    "town_kana": "ホノハラ",
    "street": "３丁目１３",
    "office_name": "名古屋大学太陽地球環境研究所",
    "office_name_kana": "ナゴヤダイガクタイヨウチキユウカンキヨウケンキユウシヨ"
  },
  "8509": {
    "postcode": "4428509",
    "prefecture": "愛知県",
    "prefecture_kana": "アイチケン",
    "prefecture_code": 23,
    "city": "豊川市",
    "city_kana": "トヨカワシ",
    "town": "穂ノ原",
    "town_kana": "ホノハラ",
    "street": "２丁目１０",
    "office_name": "旭テック　株式会社　豊川事業所",
    "office_name_kana": "アサヒテツク カブシキガイシヤ トヨカワジギヨウシヨ"
  },
  "8510": {
    "postcode": "4428510",
    "prefecture": "愛知県",
    "prefecture_kana": "アイチケン",
    "prefecture_code": 23,
    "city": "豊川市",
    "city_kana": "トヨカワシ",
    "town": "穂ノ原",
    "town_kana": "ホノハラ",
    "street": "３丁目１４−１",
    "office_name": "中日精工　株式会社",
    "office_name_kana": "チユウニチセイコウ カブシキガイシヤ"
  },
  "8511": {
    "postcode": "4428511",
    "prefecture": "愛知県",
    "prefecture_kana": "アイチケン",
    "prefecture_code": 23,
    "city": "豊川市",
    "city_kana": "トヨカワシ",
    "town": "穂ノ原",
    "town_kana": "ホノハラ",
    "street": "３丁目１４−４",
    "office_name": "千代田電子工業　株式会社",
    "office_name_kana": "チヨダデンシコウギヨウ カブシキガイシヤ"
  },
  "8512": {
    "postcode": "4428512",
    "prefecture": "愛知県",
    "prefecture_kana": "アイチケン",
    "prefecture_code": 23,
    "city": "豊川市",
    "city_kana": "トヨカワシ",
    "town": "穂ノ原",
    "town_kana": "ホノハラ",
    "street": "３丁目１４−１８",
    "office_name": "株式会社　富士精工",
    "office_name_kana": "カブシキガイシヤ フジセイコウ"
  },
  "8513": {
    "postcode": "4428513",
    "prefecture": "愛知県",
    "prefecture_kana": "アイチケン",
    "prefecture_code": 23,
    "city": "豊川市",
    "city_kana": "トヨカワシ",
    "town": "穂ノ原",
    "town_kana": "ホノハラ",
    "street": "２丁目１−１５",
    "office_name": "バスデイ　株式会社",
    "office_name_kana": "バスデイ カブシキガイシヤ"
  },
  "8515": {
    "postcode": "4428515",
    "prefecture": "愛知県",
    "prefecture_kana": "アイチケン",
    "prefecture_code": 23,
    "city": "豊川市",
    "city_kana": "トヨカワシ",
    "town": "大崎町",
    "town_kana": "オオサキチョウ",
    "street": "門１−１",
    "office_name": "新東工業　株式会社　大崎事業所",
    "office_name_kana": "シントウコウギヨウ カブシキガイシヤ オオサキジギヨウシヨ"
  },
  "8516": {
    "postcode": "4428516",
    "prefecture": "愛知県",
    "prefecture_kana": "アイチケン",
    "prefecture_code": 23,
    "city": "豊川市",
    "city_kana": "トヨカワシ",
    "town": "大崎町",
    "town_kana": "オオサキチョウ",
    "street": "宮之坪５８",
    "office_name": "トーアス　株式会社",
    "office_name_kana": "ト-アス カブシキガイシヤ"
  },
  "8517": {
    "postcode": "4428517",
    "prefecture": "愛知県",
    "prefecture_kana": "アイチケン",
    "prefecture_code": 23,
    "city": "豊川市",
    "city_kana": "トヨカワシ",
    "town": "諏訪",
    "town_kana": "スワ",
    "street": "１丁目１",
    "office_name": "ひまわり　農業協同組合",
    "office_name_kana": "ヒマワリ ノウギヨウキヨウドウクミアイ"
  },
  "8518": {
    "postcode": "4428518",
    "prefecture": "愛知県",
    "prefecture_kana": "アイチケン",
    "prefecture_code": 23,
    "city": "豊川市",
    "city_kana": "トヨカワシ",
    "town": "諏訪",
    "town_kana": "スワ",
    "street": "３丁目１３３",
    "office_name": "ユニー　株式会社　アピタ豊川店",
    "office_name_kana": "ユニ- カブシキガイシヤ アピタトヨカワテン"
  },
  "8520": {
    "postcode": "4428520",
    "prefecture": "愛知県",
    "prefecture_kana": "アイチケン",
    "prefecture_code": 23,
    "city": "豊川市",
    "city_kana": "トヨカワシ",
    "town": "末広通",
    "town_kana": "スエヒロドオリ",
    "street": "３丁目３４−１",
    "office_name": "豊川信用金庫",
    "office_name_kana": "トヨカワシンヨウキンコ"
  },
  "8530": {
    "postcode": "4428530",
    "prefecture": "愛知県",
    "prefecture_kana": "アイチケン",
    "prefecture_code": 23,
    "city": "豊川市",
    "city_kana": "トヨカワシ",
    "town": "美幸町",
    "town_kana": "ミユキチョウ",
    "street": "１丁目２６",
    "office_name": "株式会社　共栄社",
    "office_name_kana": "カブシキガイシヤ キヨウエイシヤ"
  },
  "8531": {
    "postcode": "4428531",
    "prefecture": "愛知県",
    "prefecture_kana": "アイチケン",
    "prefecture_code": 23,
    "city": "豊川市",
    "city_kana": "トヨカワシ",
    "town": "豊川元町",
    "town_kana": "トヨカワモトマチ",
    "street": "３５",
    "office_name": "石黒商事　有限会社",
    "office_name_kana": "イシグロシヨウジ ユウゲンガイシヤ"
  },
  "8532": {
    "postcode": "4428532",
    "prefecture": "愛知県",
    "prefecture_kana": "アイチケン",
    "prefecture_code": 23,
    "city": "豊川市",
    "city_kana": "トヨカワシ",
    "town": "豊川町",
    "town_kana": "トヨカワチョウ",
    "street": "伊呂通４０",
    "office_name": "宮地病院",
    "office_name_kana": "ミヤチビヨウイン"
  },
  "8533": {
    "postcode": "4428533",
    "prefecture": "愛知県",
    "prefecture_kana": "アイチケン",
    "prefecture_code": 23,
    "city": "豊川市",
    "city_kana": "トヨカワシ",
    "town": "豊川栄町",
    "town_kana": "トヨカワサカエマチ",
    "street": "１８",
    "office_name": "株式会社　三菱東京ＵＦＪ銀行　豊川支店",
    "office_name_kana": "カブシキガイシヤ ミツビシトウキヨウユ-エフジエイギンコウ トヨカワシテン"
  },
  "8535": {
    "postcode": "4428535",
    "prefecture": "愛知県",
    "prefecture_kana": "アイチケン",
    "prefecture_code": 23,
    "city": "豊川市",
    "city_kana": "トヨカワシ",
    "town": "西豊町",
    "town_kana": "ニシユタカマチ",
    "street": "２丁目３５",
    "office_name": "株式会社　トヨテック　本社",
    "office_name_kana": "カブシキガイシヤ トヨテツク ホンシヤ"
  },
  "8538": {
    "postcode": "4428538",
    "prefecture": "愛知県",
    "prefecture_kana": "アイチケン",
    "prefecture_code": 23,
    "city": "豊川市",
    "city_kana": "トヨカワシ",
    "town": "豊川町",
    "town_kana": "トヨカワチョウ",
    "street": "１",
    "office_name": "宗教法人　豊川閣妙厳寺",
    "office_name_kana": "シユウキヨウホウジン トヨカワカクミヨウゴンジ"
  },
  "8540": {
    "postcode": "4428540",
    "prefecture": "愛知県",
    "prefecture_kana": "アイチケン",
    "prefecture_code": 23,
    "city": "豊川市",
    "city_kana": "トヨカワシ",
    "town": "豊川町",
    "town_kana": "トヨカワチョウ",
    "street": "辺通４−４",
    "office_name": "豊川商工会議所",
    "office_name_kana": "トヨカワシヨウコウカイギシヨ"
  },
  "8541": {
    "postcode": "4428541",
    "prefecture": "愛知県",
    "prefecture_kana": "アイチケン",
    "prefecture_code": 23,
    "city": "豊川市",
    "city_kana": "トヨカワシ",
    "town": "本野ケ原",
    "town_kana": "ホンノガハラ",
    "street": "３丁目４４",
    "office_name": "株式会社　ツシマ",
    "office_name_kana": "カブシキガイシヤ ツシマ"
  },
  "8543": {
    "postcode": "4428543",
    "prefecture": "愛知県",
    "prefecture_kana": "アイチケン",
    "prefecture_code": 23,
    "city": "豊川市",
    "city_kana": "トヨカワシ",
    "town": "本野ケ原",
    "town_kana": "ホンノガハラ",
    "street": "３丁目２２",
    "office_name": "オーエスジー　株式会社",
    "office_name_kana": "オ-エスジ- カブシキガイシヤ"
  },
  "8544": {
    "postcode": "4428544",
    "prefecture": "愛知県",
    "prefecture_kana": "アイチケン",
    "prefecture_code": 23,
    "city": "豊川市",
    "city_kana": "トヨカワシ",
    "town": "本野ケ原",
    "town_kana": "ホンノガハラ",
    "street": "１丁目１５",
    "office_name": "オーエスジー　株式会社　Ｒ＆Ｄセンター",
    "office_name_kana": "オ-エスジ- カブシキガイシヤ ア-ルアンドデイ-センタ-"
  },
  "8545": {
    "postcode": "4428545",
    "prefecture": "愛知県",
    "prefecture_kana": "アイチケン",
    "prefecture_code": 23,
    "city": "豊川市",
    "city_kana": "トヨカワシ",
    "town": "本野ケ原",
    "town_kana": "ホンノガハラ",
    "street": "４丁目１",
    "office_name": "福山通運　株式会社　豊橋支店",
    "office_name_kana": "フクヤマツウウン カブシキガイシヤ トヨハシシテン"
  },
  "8546": {
    "postcode": "4428546",
    "prefecture": "愛知県",
    "prefecture_kana": "アイチケン",
    "prefecture_code": 23,
    "city": "豊川市",
    "city_kana": "トヨカワシ",
    "town": "川花町",
    "town_kana": "カワハナチョウ",
    "street": "二丁目６２番地",
    "office_name": "株式会社　トヨコン",
    "office_name_kana": "カブシキガイシヤ トヨコン"
  },
  "8550": {
    "postcode": "4428550",
    "prefecture": "愛知県",
    "prefecture_kana": "アイチケン",
    "prefecture_code": 23,
    "city": "豊川市",
    "city_kana": "トヨカワシ",
    "town": "白鳥町",
    "town_kana": "シロトリチョウ",
    "street": "兎足１番１６号",
    "office_name": "イオンモール豊川",
    "office_name_kana": "イオンモ-ルトヨカワ"
  },
  "8555": {
    "postcode": "4428555",
    "prefecture": "愛知県",
    "prefecture_kana": "アイチケン",
    "prefecture_code": 23,
    "city": "豊川市",
    "city_kana": "トヨカワシ",
    "town": "八幡町",
    "town_kana": "ヤワタチョウ",
    "street": "東赤土２",
    "office_name": "コニカミノルタメカトロニクス　株式会社　本社",
    "office_name_kana": "コニカミノルタメカトロニクス カブシキガイシヤ ホンシヤ"
  },
  "8558": {
    "postcode": "4428558",
    "prefecture": "愛知県",
    "prefecture_kana": "アイチケン",
    "prefecture_code": 23,
    "city": "豊川市",
    "city_kana": "トヨカワシ",
    "town": "金屋西町",
    "town_kana": "カナヤニシマチ",
    "street": "１丁目８",
    "office_name": "コニカミノルタ　豊川サイト",
    "office_name_kana": "コニカミノルタ トヨカワサイト"
  },
  "8561": {
    "postcode": "4428561",
    "prefecture": "愛知県",
    "prefecture_kana": "アイチケン",
    "prefecture_code": 23,
    "city": "豊川市",
    "city_kana": "トヨカワシ",
    "town": "八幡町",
    "town_kana": "ヤワタチョウ",
    "street": "野路２３番地",
    "office_name": "豊川市民病院",
    "office_name_kana": "トヨカワシミンビヨウイン"
  },
  "8566": {
    "postcode": "4428566",
    "prefecture": "愛知県",
    "prefecture_kana": "アイチケン",
    "prefecture_code": 23,
    "city": "豊川市",
    "city_kana": "トヨカワシ",
    "town": "正岡町",
    "town_kana": "マサオカチョウ",
    "street": "胡麻田７３２",
    "office_name": "マルスホームデザイン",
    "office_name_kana": "マルスホ-ムデザイン"
  },
  "8569": {
    "postcode": "4428569",
    "prefecture": "愛知県",
    "prefecture_kana": "アイチケン",
    "prefecture_code": 23,
    "city": "豊川市",
    "city_kana": "トヨカワシ",
    "town": "新桜町通",
    "town_kana": "シンサクラマチドオリ",
    "street": "３丁目１８",
    "office_name": "株式会社　対松堂",
    "office_name_kana": "カブシキガイシヤ タイシヨウドウ"
  },
  "8573": {
    "postcode": "4428573",
    "prefecture": "愛知県",
    "prefecture_kana": "アイチケン",
    "prefecture_code": 23,
    "city": "豊川市",
    "city_kana": "トヨカワシ",
    "town": "新道町",
    "town_kana": "シンミチチョウ",
    "street": "１丁目３",
    "office_name": "愛知県立豊川工業高等学校",
    "office_name_kana": "アイチケンリツトヨカワコウギヨウコウトウガツコウ"
  },
  "8575": {
    "postcode": "4428575",
    "prefecture": "愛知県",
    "prefecture_kana": "アイチケン",
    "prefecture_code": 23,
    "city": "豊川市",
    "city_kana": "トヨカワシ",
    "town": "白鳥町",
    "town_kana": "シロトリチョウ",
    "street": "兎足１−２",
    "office_name": "スズキ　株式会社　豊川工場",
    "office_name_kana": "スズキ カブシキガイシヤ トヨカワコウジヨウ"
  },
  "8576": {
    "postcode": "4428576",
    "prefecture": "愛知県",
    "prefecture_kana": "アイチケン",
    "prefecture_code": 23,
    "city": "豊川市",
    "city_kana": "トヨカワシ",
    "town": "白鳥町",
    "town_kana": "シロトリチョウ",
    "street": "野口前９番地の５",
    "office_name": "株式会社　アイイーメカトロニクス",
    "office_name_kana": "カブシキガイシヤ アイイ-メカトロニクス"
  },
  "8577": {
    "postcode": "4428577",
    "prefecture": "愛知県",
    "prefecture_kana": "アイチケン",
    "prefecture_code": 23,
    "city": "豊川市",
    "city_kana": "トヨカワシ",
    "town": "白鳥町",
    "town_kana": "シロトリチョウ",
    "street": "京次５２−１",
    "office_name": "岡田建設　株式会社",
    "office_name_kana": "オカダケンセツ カブシキガイシヤ"
  },
  "8580": {
    "postcode": "4428580",
    "prefecture": "愛知県",
    "prefecture_kana": "アイチケン",
    "prefecture_code": 23,
    "city": "豊川市",
    "city_kana": "トヨカワシ",
    "town": "白鳥町",
    "town_kana": "シロトリチョウ",
    "street": "防入６０",
    "office_name": "株式会社　ＡＩＨＯ",
    "office_name_kana": "カブシキガイシヤ アイホ-"
  },
  "8581": {
    "postcode": "4428581",
    "prefecture": "愛知県",
    "prefecture_kana": "アイチケン",
    "prefecture_code": 23,
    "city": "豊川市",
    "city_kana": "トヨカワシ",
    "town": "市田町",
    "town_kana": "イチダチョウ",
    "street": "本野原１８−７",
    "office_name": "東海セイホク　株式会社",
    "office_name_kana": "トウカイセイホク カブシキガイシヤ"
  },
  "8585": {
    "postcode": "4428585",
    "prefecture": "愛知県",
    "prefecture_kana": "アイチケン",
    "prefecture_code": 23,
    "city": "豊川市",
    "city_kana": "トヨカワシ",
    "town": "八幡町",
    "town_kana": "ヤワタチョウ",
    "street": "忍地１６８",
    "office_name": "コニカミノルタ　株式会社　三河サイト",
    "office_name_kana": "コニカミノルタ カブシキガイシヤ ミカワサイト"
  },
  "8586": {
    "postcode": "4428586",
    "prefecture": "愛知県",
    "prefecture_kana": "アイチケン",
    "prefecture_code": 23,
    "city": "豊川市",
    "city_kana": "トヨカワシ",
    "town": "国府町",
    "town_kana": "コウチョウ",
    "street": "下坊入１０−１",
    "office_name": "愛知県立国府高等学校",
    "office_name_kana": "アイチケンリツコウコウトウガツコウ"
  },
  "8587": {
    "postcode": "4428587",
    "prefecture": "愛知県",
    "prefecture_kana": "アイチケン",
    "prefecture_code": 23,
    "city": "豊川市",
    "city_kana": "トヨカワシ",
    "town": "穂ノ原",
    "town_kana": "ホノハラ",
    "street": "２丁目１−１７",
    "office_name": "イトモル　株式会社",
    "office_name_kana": "イトモル カブシキガイシヤ"
  },
  "8588": {
    "postcode": "4428588",
    "prefecture": "愛知県",
    "prefecture_kana": "アイチケン",
    "prefecture_code": 23,
    "city": "豊川市",
    "city_kana": "トヨカワシ",
    "town": "穂ノ原",
    "town_kana": "ホノハラ",
    "street": "２丁目１−１７",
    "office_name": "イトモル精密株式会社",
    "office_name_kana": "イトモルセイミツカブシキガイシヤ"
  },
  "8590": {
    "postcode": "4428590",
    "prefecture": "愛知県",
    "prefecture_kana": "アイチケン",
    "prefecture_code": 23,
    "city": "豊川市",
    "city_kana": "トヨカワシ",
    "town": "新豊町",
    "town_kana": "シンユタカマチ",
    "street": "１丁目１３６番地",
    "office_name": "協同組合　ギフト用品卸販売二十一世紀",
    "office_name_kana": "キヨウドウクミアイ ギフトヨウヒンオロシハンバイニジユウイチセイキ"
  },
  "8591": {
    "postcode": "4428591",
    "prefecture": "愛知県",
    "prefecture_kana": "アイチケン",
    "prefecture_code": 23,
    "city": "豊川市",
    "city_kana": "トヨカワシ",
    "town": "穂ノ原",
    "town_kana": "ホノハラ",
    "street": "二丁目１０",
    "office_name": "ＴＤＭ　株式会社",
    "office_name_kana": "テイ-デイ-エム カブシキガイシヤ"
  },
  "8601": {
    "postcode": "4428601",
    "prefecture": "愛知県",
    "prefecture_kana": "アイチケン",
    "prefecture_code": 23,
    "city": "豊川市",
    "city_kana": "トヨカワシ",
    "town": "諏訪",
    "town_kana": "スワ",
    "street": "１丁目１",
    "office_name": "豊川市役所",
    "office_name_kana": "トヨカワシヤクシヨ"
  },
  "8602": {
    "postcode": "4428602",
    "prefecture": "愛知県",
    "prefecture_kana": "アイチケン",
    "prefecture_code": 23,
    "city": "豊川市",
    "city_kana": "トヨカワシ",
    "town": "穂ノ原",
    "town_kana": "ホノハラ",
    "street": "１丁目１（豊川郵便局私書箱第１９号）",
    "office_name": "陸上自衛隊　豊川駐屯地",
    "office_name_kana": "リクジヨウジエイタイ トヨカワチユウトンチ"
  },
  "8603": {
    "postcode": "4428603",
    "prefecture": "愛知県",
    "prefecture_kana": "アイチケン",
    "prefecture_code": 23,
    "city": "豊川市",
    "city_kana": "トヨカワシ",
    "town": "諏訪",
    "town_kana": "スワ",
    "street": "２丁目１０１（豊川郵便局私書箱第５号）",
    "office_name": "世界心道教",
    "office_name_kana": "セカイシンドウキヨウ"
  }
}