{
  "0000": {
    "postcode": "4450000",
    "prefecture": "愛知県",
    "prefecture_kana": "アイチケン",
    "prefecture_code": 23,
    "city": "西尾市",
    "city_kana": "ニシオシ",
    "town": "",
    "town_kana": "",
    "street": null,
    "office_name": null,
    "office_name_kana": null
  },
  "0001": {
    "postcode": "4450001",
    "prefecture": "愛知県",
    "prefecture_kana": "アイチケン",
    "prefecture_code": 23,
    "city": "西尾市",
    "city_kana": "ニシオシ",
    "town": "高落町",
    "town_kana": "タカオチチョウ",
    "street": null,
    "office_name": null,
    "office_name_kana": null
  },
  "0002": {
    "postcode": "4450002",
    "prefecture": "愛知県",
    "prefecture_kana": "アイチケン",
    "prefecture_code": 23,
    "city": "西尾市",
    "city_kana": "ニシオシ",
    "town": "新村町",
    "town_kana": "シンムラチョウ",
    "street": null,
    "office_name": null,
    "office_name_kana": null
  },
  "0003": {
    "postcode": "4450003",
    "prefecture": "愛知県",
    "prefecture_kana": "アイチケン",
    "prefecture_code": 23,
    "city": "西尾市",
    "city_kana": "ニシオシ",
    "town": "東浅井町",
    "town_kana": "ヒガシアザイチョウ",
    "street": null,
    "office_name": null,
    "office_name_kana": null
  },
  "0004": {
    "postcode": "4450004",
    "prefecture": "愛知県",
    "prefecture_kana": "アイチケン",
    "prefecture_code": 23,
    "city": "西尾市",
    "city_kana": "ニシオシ",
    "town": "西浅井町",
    "town_kana": "ニシアザイチョウ",
    "street": null,
    "office_name": null,
    "office_name_kana": null
  },
  "0005": {
    "postcode": "4450005",
    "prefecture": "愛知県",
    "prefecture_kana": "アイチケン",
    "prefecture_code": 23,
    "city": "西尾市",
    "city_kana": "ニシオシ",
    "town": "米野町",
    "town_kana": "コメノチョウ",
    "street": null,
    "office_name": null,
    "office_name_kana": null
  },
  "0006": {
    "postcode": "4450006",
    "prefecture": "愛知県",
    "prefecture_kana": "アイチケン",
    "prefecture_code": 23,
    "city": "西尾市",
    "city_kana": "ニシオシ",
    "town": "小島町",
    "town_kana": "オジマチョウ",
    "street": null,
    "office_name": null,
    "office_name_kana": null
  },
  "0011": {
    "postcode": "4450011",
    "prefecture": "愛知県",
    "prefecture_kana": "アイチケン",
    "prefecture_code": 23,
    "city": "西尾市",
    "city_kana": "ニシオシ",
    "town": "上羽角町",
    "town_kana": "カミハスミチョウ",
    "street": null,
    "office_name": null,
    "office_name_kana": null
  },
  "0012": {
    "postcode": "4450012",
    "prefecture": "愛知県",
    "prefecture_kana": "アイチケン",
    "prefecture_code": 23,
    "city": "西尾市",
    "city_kana": "ニシオシ",
    "town": "下羽角町",
    "town_kana": "シモハスミチョウ",
    "street": null,
    "office_name": null,
    "office_name_kana": null
  },
  "0013": {
    "postcode": "4450013",
    "prefecture": "愛知県",
    "prefecture_kana": "アイチケン",
    "prefecture_code": 23,
    "city": "西尾市",
    "city_kana": "ニシオシ",
    "town": "貝吹町",
    "town_kana": "カイフクチョウ",
    "street": null,
    "office_name": null,
    "office_name_kana": null
  },
  "0014": {
    "postcode": "4450014",
    "prefecture": "愛知県",
    "prefecture_kana": "アイチケン",
    "prefecture_code": 23,
    "city": "西尾市",
    "city_kana": "ニシオシ",
    "town": "つくしが丘",
    "town_kana": "ツクシガオカ",
    "street": null,
    "office_name": null,
    "office_name_kana": null
  },
  "0015": {
    "postcode": "4450015",
    "prefecture": "愛知県",
    "prefecture_kana": "アイチケン",
    "prefecture_code": 23,
    "city": "西尾市",
    "city_kana": "ニシオシ",
    "town": "竹山町",
    "town_kana": "タケヤマチョウ",
    "street": null,
    "office_name": null,
    "office_name_kana": null
  },
  "0016": {
    "postcode": "4450016",
    "prefecture": "愛知県",
    "prefecture_kana": "アイチケン",
    "prefecture_code": 23,
    "city": "西尾市",
    "city_kana": "ニシオシ",
    "town": "下永良町",
    "town_kana": "シモナガラチョウ",
    "street": null,
    "office_name": null,
    "office_name_kana": null
  },
  "0017": {
    "postcode": "4450017",
    "prefecture": "愛知県",
    "prefecture_kana": "アイチケン",
    "prefecture_code": 23,
    "city": "西尾市",
    "city_kana": "ニシオシ",
    "town": "上永良町",
    "town_kana": "カミナガラチョウ",
    "street": null,
    "office_name": null,
    "office_name_kana": null
  },
  "0021": {
    "postcode": "4450021",
    "prefecture": "愛知県",
    "prefecture_kana": "アイチケン",
    "prefecture_code": 23,
    "city": "西尾市",
    "city_kana": "ニシオシ",
    "town": "駒場町",
    "town_kana": "コマンバチョウ",
    "street": null,
    "office_name": null,
    "office_name_kana": null
  },
  "0022": {
    "postcode": "4450022",
    "prefecture": "愛知県",
    "prefecture_kana": "アイチケン",
    "prefecture_code": 23,
    "city": "西尾市",
    "city_kana": "ニシオシ",
    "town": "岡島町",
    "town_kana": "オカジマチョウ",
    "street": null,
    "office_name": null,
    "office_name_kana": null
  },
  "0023": {
    "postcode": "4450023",
    "prefecture": "愛知県",
    "prefecture_kana": "アイチケン",
    "prefecture_code": 23,
    "city": "西尾市",
    "city_kana": "ニシオシ",
    "town": "高河原町",
    "town_kana": "タカガワラチョウ",
    "street": null,
    "office_name": null,
    "office_name_kana": null
  },
  "0024": {
    "postcode": "4450024",
    "prefecture": "愛知県",
    "prefecture_kana": "アイチケン",
    "prefecture_code": 23,
    "city": "西尾市",
    "city_kana": "ニシオシ",
    "town": "大和田町",
    "town_kana": "オオワダチョウ",
    "street": null,
    "office_name": null,
    "office_name_kana": null
  },
  "0025": {
    "postcode": "4450025",
    "prefecture": "愛知県",
    "prefecture_kana": "アイチケン",
    "prefecture_code": 23,
    "city": "西尾市",
    "city_kana": "ニシオシ",
    "town": "和気町",
    "town_kana": "ワキチョウ",
    "street": null,
    "office_name": null,
    "office_name_kana": null
  },
  "0026": {
    "postcode": "4450026",
    "prefecture": "愛知県",
    "prefecture_kana": "アイチケン",
    "prefecture_code": 23,
    "city": "西尾市",
    "city_kana": "ニシオシ",
    "town": "江原町",
    "town_kana": "エワラチョウ",
    "street": null,
    "office_name": null,
    "office_name_kana": null
  },
  "0027": {
    "postcode": "4450027",
    "prefecture": "愛知県",
    "prefecture_kana": "アイチケン",
    "prefecture_code": 23,
    "city": "西尾市",
    "city_kana": "ニシオシ",
    "town": "尾花町",
    "town_kana": "オバナチョウ",
    "street": null,
    "office_name": null,
    "office_name_kana": null
  },
  "0031": {
    "postcode": "4450031",
    "prefecture": "愛知県",
    "prefecture_kana": "アイチケン",
    "prefecture_code": 23,
    "city": "西尾市",
    "city_kana": "ニシオシ",
    "town": "家武町",
    "town_kana": "エタケチョウ",
    "street": null,
    "office_name": null,
    "office_name_kana": null
  },
  "0032": {
    "postcode": "4450032",
    "prefecture": "愛知県",
    "prefecture_kana": "アイチケン",
    "prefecture_code": 23,
    "city": "西尾市",
    "city_kana": "ニシオシ",
    "town": "平原町",
    "town_kana": "ヒラハラチョウ",
    "street": null,
    "office_name": null,
    "office_name_kana": null
  },
  "0033": {
    "postcode": "4450033",
    "prefecture": "愛知県",
    "prefecture_kana": "アイチケン",
    "prefecture_code": 23,
    "city": "西尾市",
    "city_kana": "ニシオシ",
    "town": "室町",
    "town_kana": "ムロチョウ",
    "street": null,
    "office_name": null,
    "office_name_kana": null
  },
  "0034": {
    "postcode": "4450034",
    "prefecture": "愛知県",
    "prefecture_kana": "アイチケン",
    "prefecture_code": 23,
    "city": "西尾市",
    "city_kana": "ニシオシ",
    "town": "善明町",
    "town_kana": "ゼンミョウチョウ",
    "street": null,
    "office_name": null,
    "office_name_kana": null
  },
  "0035": {
    "postcode": "4450035",
    "prefecture": "愛知県",
    "prefecture_kana": "アイチケン",
    "prefecture_code": 23,
    "city": "西尾市",
    "city_kana": "ニシオシ",
    "town": "花蔵寺町",
    "town_kana": "ケゾウジチョウ",
    "street": null,
    "office_name": null,
    "office_name_kana": null
  },
  "0041": {
    "postcode": "4450041",
    "prefecture": "愛知県",
    "prefecture_kana": "アイチケン",
    "prefecture_code": 23,
    "city": "西尾市",
    "city_kana": "ニシオシ",
    "town": "小焼野町",
    "town_kana": "コヤケノチョウ",
    "street": null,
    "office_name": null,
    "office_name_kana": null
  },
  "0042": {
    "postcode": "4450042",
    "prefecture": "愛知県",
    "prefecture_kana": "アイチケン",
    "prefecture_code": 23,
    "city": "西尾市",
    "city_kana": "ニシオシ",
    "town": "宅野島町",
    "town_kana": "タクノシマチョウ",
    "street": null,
    "office_name": null,
    "office_name_kana": null
  },
  "0043": {
    "postcode": "4450043",
    "prefecture": "愛知県",
    "prefecture_kana": "アイチケン",
    "prefecture_code": 23,
    "city": "西尾市",
    "city_kana": "ニシオシ",
    "town": "鵜ケ池町",
    "town_kana": "ウガイケチョウ",
    "street": null,
    "office_name": null,
    "office_name_kana": null
  },
  "0044": {
    "postcode": "4450044",
    "prefecture": "愛知県",
    "prefecture_kana": "アイチケン",
    "prefecture_code": 23,
    "city": "西尾市",
    "city_kana": "ニシオシ",
    "town": "鎌谷町",
    "town_kana": "カマヤチョウ",
    "street": null,
    "office_name": null,
    "office_name_kana": null
  },
  "0045": {
    "postcode": "4450045",
    "prefecture": "愛知県",
    "prefecture_kana": "アイチケン",
    "prefecture_code": 23,
    "city": "西尾市",
    "city_kana": "ニシオシ",
    "town": "十郎島町",
    "town_kana": "ジュウロウシマチョウ",
    "street": null,
    "office_name": null,
    "office_name_kana": null
  },
  "0046": {
    "postcode": "4450046",
    "prefecture": "愛知県",
    "prefecture_kana": "アイチケン",
    "prefecture_code": 23,
    "city": "西尾市",
    "city_kana": "ニシオシ",
    "town": "須脇町",
    "town_kana": "スワキチョウ",
    "street": null,
    "office_name": null,
    "office_name_kana": null
  },
  "0047": {
    "postcode": "4450047",
    "prefecture": "愛知県",
    "prefecture_kana": "アイチケン",
    "prefecture_code": 23,
    "city": "西尾市",
    "city_kana": "ニシオシ",
    "town": "細池町",
    "town_kana": "ホソイケチョウ",
    "street": null,
    "office_name": null,
    "office_name_kana": null
  },
  "0051": {
    "postcode": "4450051",
    "prefecture": "愛知県",
    "prefecture_kana": "アイチケン",
    "prefecture_code": 23,
    "city": "西尾市",
    "city_kana": "ニシオシ",
    "town": "天竹町",
    "town_kana": "テンジクチョウ",
    "street": null,
    "office_name": null,
    "office_name_kana": null
  },
  "0052": {
    "postcode": "4450052",
    "prefecture": "愛知県",
    "prefecture_kana": "アイチケン",
    "prefecture_code": 23,
    "city": "西尾市",
    "city_kana": "ニシオシ",
    "town": "横手町",
    "town_kana": "ヨコテチョウ",
    "street": null,
    "office_name": null,
    "office_name_kana": null
  },
  "0053": {
    "postcode": "4450053",
    "prefecture": "愛知県",
    "prefecture_kana": "アイチケン",
    "prefecture_code": 23,
    "city": "西尾市",
    "city_kana": "ニシオシ",
    "town": "笹曽根町",
    "town_kana": "ササゾネチョウ",
    "street": null,
    "office_name": null,
    "office_name_kana": null
  },
  "0054": {
    "postcode": "4450054",
    "prefecture": "愛知県",
    "prefecture_kana": "アイチケン",
    "prefecture_code": 23,
    "city": "西尾市",
    "city_kana": "ニシオシ",
    "town": "平口町",
    "town_kana": "ヒラクチチョウ",
    "street": null,
    "office_name": null,
    "office_name_kana": null
  },
  "0055": {
    "postcode": "4450055",
    "prefecture": "愛知県",
    "prefecture_kana": "アイチケン",
    "prefecture_code": 23,
    "city": "西尾市",
    "city_kana": "ニシオシ",
    "town": "市子町",
    "town_kana": "イチゴチョウ",
    "street": null,
    "office_name": null,
    "office_name_kana": null
  },
  "0056": {
    "postcode": "4450056",
    "prefecture": "愛知県",
    "prefecture_kana": "アイチケン",
    "prefecture_code": 23,
    "city": "西尾市",
    "city_kana": "ニシオシ",
    "town": "斉藤町",
    "town_kana": "サイトウチョウ",
    "street": null,
    "office_name": null,
    "office_name_kana": null
  },
  "0057": {
    "postcode": "4450057",
    "prefecture": "愛知県",
    "prefecture_kana": "アイチケン",
    "prefecture_code": 23,
    "city": "西尾市",
    "city_kana": "ニシオシ",
    "town": "野々宮町",
    "town_kana": "ノノミヤチョウ",
    "street": null,
    "office_name": null,
    "office_name_kana": null
  },
  "0061": {
    "postcode": "4450061",
    "prefecture": "愛知県",
    "prefecture_kana": "アイチケン",
    "prefecture_code": 23,
    "city": "西尾市",
    "city_kana": "ニシオシ",
    "town": "寄近町",
    "town_kana": "ヨリチカチョウ",
    "street": null,
    "office_name": null,
    "office_name_kana": null
  },
  "0062": {
    "postcode": "4450062",
    "prefecture": "愛知県",
    "prefecture_kana": "アイチケン",
    "prefecture_code": 23,
    "city": "西尾市",
    "city_kana": "ニシオシ",
    "town": "丁田町",
    "town_kana": "チョウダチョウ",
    "street": null,
    "office_name": null,
    "office_name_kana": null
  },
  "0063": {
    "postcode": "4450063",
    "prefecture": "愛知県",
    "prefecture_kana": "アイチケン",
    "prefecture_code": 23,
    "city": "西尾市",
    "city_kana": "ニシオシ",
    "town": "今川町",
    "town_kana": "イマガワチョウ",
    "street": null,
    "office_name": null,
    "office_name_kana": null
  },
  "0064": {
    "postcode": "4450064",
    "prefecture": "愛知県",
    "prefecture_kana": "アイチケン",
    "prefecture_code": 23,
    "city": "西尾市",
    "city_kana": "ニシオシ",
    "town": "高畠町",
    "town_kana": "タカバタチョウ",
    "street": null,
    "office_name": null,
    "office_name_kana": null
  },
  "0065": {
    "postcode": "4450065",
    "prefecture": "愛知県",
    "prefecture_kana": "アイチケン",
    "prefecture_code": 23,
    "city": "西尾市",
    "city_kana": "ニシオシ",
    "town": "城崎町",
    "town_kana": "シロサキチョウ",
    "street": null,
    "office_name": null,
    "office_name_kana": null
  },
  "0071": {
    "postcode": "4450071",
    "prefecture": "愛知県",
    "prefecture_kana": "アイチケン",
    "prefecture_code": 23,
    "city": "西尾市",
    "city_kana": "ニシオシ",
    "town": "熊味町",
    "town_kana": "クマミチョウ",
    "street": null,
    "office_name": null,
    "office_name_kana": null
  },
  "0072": {
    "postcode": "4450072",
    "prefecture": "愛知県",
    "prefecture_kana": "アイチケン",
    "prefecture_code": 23,
    "city": "西尾市",
    "city_kana": "ニシオシ",
    "town": "徳次町",
    "town_kana": "トクツギチョウ",
    "street": null,
    "office_name": null,
    "office_name_kana": null
  },
  "0073": {
    "postcode": "4450073",
    "prefecture": "愛知県",
    "prefecture_kana": "アイチケン",
    "prefecture_code": 23,
    "city": "西尾市",
    "city_kana": "ニシオシ",
    "town": "寄住町",
    "town_kana": "ヨリズミチョウ",
    "street": null,
    "office_name": null,
    "office_name_kana": null
  },
  "0074": {
    "postcode": "4450074",
    "prefecture": "愛知県",
    "prefecture_kana": "アイチケン",
    "prefecture_code": 23,
    "city": "西尾市",
    "city_kana": "ニシオシ",
    "town": "戸ケ崎町",
    "town_kana": "トガサキチョウ",
    "street": null,
    "office_name": null,
    "office_name_kana": null
  },
  "0075": {
    "postcode": "4450075",
    "prefecture": "愛知県",
    "prefecture_kana": "アイチケン",
    "prefecture_code": 23,
    "city": "西尾市",
    "city_kana": "ニシオシ",
    "town": "戸ケ崎",
    "town_kana": "トガサキ",
    "street": null,
    "office_name": null,
    "office_name_kana": null
  },
  "0076": {
    "postcode": "4450076",
    "prefecture": "愛知県",
    "prefecture_kana": "アイチケン",
    "prefecture_code": 23,
    "city": "西尾市",
    "city_kana": "ニシオシ",
    "town": "新渡場",
    "town_kana": "シンドバ",
    "street": null,
    "office_name": null,
    "office_name_kana": null
  },
  "0077": {
    "postcode": "4450077",
    "prefecture": "愛知県",
    "prefecture_kana": "アイチケン",
    "prefecture_code": 23,
    "city": "西尾市",
    "city_kana": "ニシオシ",
    "town": "新渡場町",
    "town_kana": "シンドバチョウ",
    "street": null,
    "office_name": null,
    "office_name_kana": null
  },
  "0081": {
    "postcode": "4450081",
    "prefecture": "愛知県",
    "prefecture_kana": "アイチケン",
    "prefecture_code": 23,
    "city": "西尾市",
    "city_kana": "ニシオシ",
    "town": "志籠谷町",
    "town_kana": "シコヤチョウ",
    "street": null,
    "office_name": null,
    "office_name_kana": null
  },
  "0082": {
    "postcode": "4450082",
    "prefecture": "愛知県",
    "prefecture_kana": "アイチケン",
    "prefecture_code": 23,
    "city": "西尾市",
    "city_kana": "ニシオシ",
    "town": "八ツ面町",
    "town_kana": "ヤツオモテチョウ",
    "street": null,
    "office_name": null,
    "office_name_kana": null
  },
  "0083": {
    "postcode": "4450083",
    "prefecture": "愛知県",
    "prefecture_kana": "アイチケン",
    "prefecture_code": 23,
    "city": "西尾市",
    "city_kana": "ニシオシ",
    "town": "中原町",
    "town_kana": "ナカハラチョウ",
    "street": null,
    "office_name": null,
    "office_name_kana": null
  },
  "0084": {
    "postcode": "4450084",
    "prefecture": "愛知県",
    "prefecture_kana": "アイチケン",
    "prefecture_code": 23,
    "city": "西尾市",
    "city_kana": "ニシオシ",
    "town": "志貴野町",
    "town_kana": "シキノチョウ",
    "street": null,
    "office_name": null,
    "office_name_kana": null
  },
  "0801": {
    "postcode": "4450801",
    "prefecture": "愛知県",
    "prefecture_kana": "アイチケン",
    "prefecture_code": 23,
    "city": "西尾市",
    "city_kana": "ニシオシ",
    "town": "南中根町",
    "town_kana": "ミナミナカネチョウ",
    "street": null,
    "office_name": null,
    "office_name_kana": null
  },
  "0802": {
    "postcode": "4450802",
    "prefecture": "愛知県",
    "prefecture_kana": "アイチケン",
    "prefecture_code": 23,
    "city": "西尾市",
    "city_kana": "ニシオシ",
    "town": "米津町",
    "town_kana": "ヨネヅチョウ",
    "street": null,
    "office_name": null,
    "office_name_kana": null
  },
  "0803": {
    "postcode": "4450803",
    "prefecture": "愛知県",
    "prefecture_kana": "アイチケン",
    "prefecture_code": 23,
    "city": "西尾市",
    "city_kana": "ニシオシ",
    "town": "桜町",
    "town_kana": "サクラマチ",
    "street": null,
    "office_name": null,
    "office_name_kana": null
  },
  "0804": {
    "postcode": "4450804",
    "prefecture": "愛知県",
    "prefecture_kana": "アイチケン",
    "prefecture_code": 23,
    "city": "西尾市",
    "city_kana": "ニシオシ",
    "town": "緑町",
    "town_kana": "ミドリマチ",
    "street": null,
    "office_name": null,
    "office_name_kana": null
  },
  "0805": {
    "postcode": "4450805",
    "prefecture": "愛知県",
    "prefecture_kana": "アイチケン",
    "prefecture_code": 23,
    "city": "西尾市",
    "city_kana": "ニシオシ",
    "town": "鶴城町",
    "town_kana": "ツルシロチョウ",
    "street": null,
    "office_name": null,
    "office_name_kana": null
  },
  "0806": {
    "postcode": "4450806",
    "prefecture": "愛知県",
    "prefecture_kana": "アイチケン",
    "prefecture_code": 23,
    "city": "西尾市",
    "city_kana": "ニシオシ",
    "town": "伊藤町",
    "town_kana": "イトウチョウ",
    "street": null,
    "office_name": null,
    "office_name_kana": null
  },
  "0807": {
    "postcode": "4450807",
    "prefecture": "愛知県",
    "prefecture_kana": "アイチケン",
    "prefecture_code": 23,
    "city": "西尾市",
    "city_kana": "ニシオシ",
    "town": "伊藤",
    "town_kana": "イトウ",
    "street": null,
    "office_name": null,
    "office_name_kana": null
  },
  "0811": {
    "postcode": "4450811",
    "prefecture": "愛知県",
    "prefecture_kana": "アイチケン",
    "prefecture_code": 23,
    "city": "西尾市",
    "city_kana": "ニシオシ",
    "town": "道光寺町",
    "town_kana": "ドウコウジチョウ",
    "street": null,
    "office_name": null,
    "office_name_kana": null
  },
  "0812": {
    "postcode": "4450812",
    "prefecture": "愛知県",
    "prefecture_kana": "アイチケン",
    "prefecture_code": 23,
    "city": "西尾市",
    "city_kana": "ニシオシ",
    "town": "道光寺",
    "town_kana": "ドウコウジ",
    "street": null,
    "office_name": null,
    "office_name_kana": null
  },
  "0813": {
    "postcode": "4450813",
    "prefecture": "愛知県",
    "prefecture_kana": "アイチケン",
    "prefecture_code": 23,
    "city": "西尾市",
    "city_kana": "ニシオシ",
    "town": "若松町",
    "town_kana": "ワカマツチョウ",
    "street": null,
    "office_name": null,
    "office_name_kana": null
  },
  "0814": {
    "postcode": "4450814",
    "prefecture": "愛知県",
    "prefecture_kana": "アイチケン",
    "prefecture_code": 23,
    "city": "西尾市",
    "city_kana": "ニシオシ",
    "town": "新屋敷町",
    "town_kana": "シンヤシキチョウ",
    "street": null,
    "office_name": null,
    "office_name_kana": null
  },
  "0815": {
    "postcode": "4450815",
    "prefecture": "愛知県",
    "prefecture_kana": "アイチケン",
    "prefecture_code": 23,
    "city": "西尾市",
    "city_kana": "ニシオシ",
    "town": "菅原町",
    "town_kana": "スガワラチョウ",
    "street": null,
    "office_name": null,
    "office_name_kana": null
  },
  "0816": {
    "postcode": "4450816",
    "prefecture": "愛知県",
    "prefecture_kana": "アイチケン",
    "prefecture_code": 23,
    "city": "西尾市",
    "city_kana": "ニシオシ",
    "town": "宮町",
    "town_kana": "ミヤマチ",
    "street": null,
    "office_name": null,
    "office_name_kana": null
  },
  "0821": {
    "postcode": "4450821",
    "prefecture": "愛知県",
    "prefecture_kana": "アイチケン",
    "prefecture_code": 23,
    "city": "西尾市",
    "city_kana": "ニシオシ",
    "town": "矢場町",
    "town_kana": "ヤバチョウ",
    "street": null,
    "office_name": null,
    "office_name_kana": null
  },
  "0822": {
    "postcode": "4450822",
    "prefecture": "愛知県",
    "prefecture_kana": "アイチケン",
    "prefecture_code": 23,
    "city": "西尾市",
    "city_kana": "ニシオシ",
    "town": "伊文町",
    "town_kana": "イブンチョウ",
    "street": null,
    "office_name": null,
    "office_name_kana": null
  },
  "0823": {
    "postcode": "4450823",
    "prefecture": "愛知県",
    "prefecture_kana": "アイチケン",
    "prefecture_code": 23,
    "city": "西尾市",
    "city_kana": "ニシオシ",
    "town": "神下町",
    "town_kana": "カミシタチョウ",
    "street": null,
    "office_name": null,
    "office_name_kana": null
  },
  "0824": {
    "postcode": "4450824",
    "prefecture": "愛知県",
    "prefecture_kana": "アイチケン",
    "prefecture_code": 23,
    "city": "西尾市",
    "city_kana": "ニシオシ",
    "town": "和泉町",
    "town_kana": "イズミチョウ",
    "street": null,
    "office_name": null,
    "office_name_kana": null
  },
  "0825": {
    "postcode": "4450825",
    "prefecture": "愛知県",
    "prefecture_kana": "アイチケン",
    "prefecture_code": 23,
    "city": "西尾市",
    "city_kana": "ニシオシ",
    "town": "会生町",
    "town_kana": "カイセイチョウ",
    "street": null,
    "office_name": null,
    "office_name_kana": null
  },
  "0826": {
    "postcode": "4450826",
    "prefecture": "愛知県",
    "prefecture_kana": "アイチケン",
    "prefecture_code": 23,
    "city": "西尾市",
    "city_kana": "ニシオシ",
    "town": "満全町",
    "town_kana": "マンゼンチョウ",
    "street": null,
    "office_name": null,
    "office_name_kana": null
  },
  "0827": {
    "postcode": "4450827",
    "prefecture": "愛知県",
    "prefecture_kana": "アイチケン",
    "prefecture_code": 23,
    "city": "西尾市",
    "city_kana": "ニシオシ",
    "town": "幸町",
    "town_kana": "サイワイチョウ",
    "street": null,
    "office_name": null,
    "office_name_kana": null
  },
  "0831": {
    "postcode": "4450831",
    "prefecture": "愛知県",
    "prefecture_kana": "アイチケン",
    "prefecture_code": 23,
    "city": "西尾市",
    "city_kana": "ニシオシ",
    "town": "大給町",
    "town_kana": "オギュウチョウ",
    "street": null,
    "office_name": null,
    "office_name_kana": null
  },
  "0832": {
    "postcode": "4450832",
    "prefecture": "愛知県",
    "prefecture_kana": "アイチケン",
    "prefecture_code": 23,
    "city": "西尾市",
    "city_kana": "ニシオシ",
    "town": "瓦町",
    "town_kana": "カワラマチ",
    "street": null,
    "office_name": null,
    "office_name_kana": null
  },
  "0833": {
    "postcode": "4450833",
    "prefecture": "愛知県",
    "prefecture_kana": "アイチケン",
    "prefecture_code": 23,
    "city": "西尾市",
    "city_kana": "ニシオシ",
    "town": "天王町",
    "town_kana": "テンノウマチ",
    "street": null,
    "office_name": null,
    "office_name_kana": null
  },
  "0834": {
    "postcode": "4450834",
    "prefecture": "愛知県",
    "prefecture_kana": "アイチケン",
    "prefecture_code": 23,
    "city": "西尾市",
    "city_kana": "ニシオシ",
    "town": "順海町",
    "town_kana": "ジュンカイマチ",
    "street": null,
    "office_name": null,
    "office_name_kana": null
  },
  "0835": {
    "postcode": "4450835",
    "prefecture": "愛知県",
    "prefecture_kana": "アイチケン",
    "prefecture_code": 23,
    "city": "西尾市",
    "city_kana": "ニシオシ",
    "town": "肴町",
    "town_kana": "サカナマチ",
    "street": null,
    "office_name": null,
    "office_name_kana": null
  },
  "0836": {
    "postcode": "4450836",
    "prefecture": "愛知県",
    "prefecture_kana": "アイチケン",
    "prefecture_code": 23,
    "city": "西尾市",
    "city_kana": "ニシオシ",
    "town": "中町",
    "town_kana": "ナカマチ",
    "street": null,
    "office_name": null,
    "office_name_kana": null
  },
  "0837": {
    "postcode": "4450837",
    "prefecture": "愛知県",
    "prefecture_kana": "アイチケン",
    "prefecture_code": 23,
    "city": "西尾市",
    "city_kana": "ニシオシ",
    "town": "鶴ケ崎町",
    "town_kana": "ツルガサキチョウ",
    "street": null,
    "office_name": null,
    "office_name_kana": null
  },
  "0841": {
    "postcode": "4450841",
    "prefecture": "愛知県",
    "prefecture_kana": "アイチケン",
    "prefecture_code": 23,
    "city": "西尾市",
    "city_kana": "ニシオシ",
    "town": "馬場町",
    "town_kana": "ババチョウ",
    "street": null,
    "office_name": null,
    "office_name_kana": null
  },
  "0842": {
    "postcode": "4450842",
    "prefecture": "愛知県",
    "prefecture_kana": "アイチケン",
    "prefecture_code": 23,
    "city": "西尾市",
    "city_kana": "ニシオシ",
    "town": "弥生町",
    "town_kana": "ヤヨイチョウ",
    "street": null,
    "office_name": null,
    "office_name_kana": null
  },
  "0843": {
    "postcode": "4450843",
    "prefecture": "愛知県",
    "prefecture_kana": "アイチケン",
    "prefecture_code": 23,
    "city": "西尾市",
    "city_kana": "ニシオシ",
    "town": "天神町",
    "town_kana": "テンジンチョウ",
    "street": null,
    "office_name": null,
    "office_name_kana": null
  },
  "0844": {
    "postcode": "4450844",
    "prefecture": "愛知県",
    "prefecture_kana": "アイチケン",
    "prefecture_code": 23,
    "city": "西尾市",
    "city_kana": "ニシオシ",
    "town": "末広町",
    "town_kana": "スエヒロチョウ",
    "street": null,
    "office_name": null,
    "office_name_kana": null
  },
  "0845": {
    "postcode": "4450845",
    "prefecture": "愛知県",
    "prefecture_kana": "アイチケン",
    "prefecture_code": 23,
    "city": "西尾市",
    "city_kana": "ニシオシ",
    "town": "鶴舞町",
    "town_kana": "ツルマイチョウ",
    "street": null,
    "office_name": null,
    "office_name_kana": null
  },
  "0846": {
    "postcode": "4450846",
    "prefecture": "愛知県",
    "prefecture_kana": "アイチケン",
    "prefecture_code": 23,
    "city": "西尾市",
    "city_kana": "ニシオシ",
    "town": "千歳町",
    "town_kana": "チトセチョウ",
    "street": null,
    "office_name": null,
    "office_name_kana": null
  },
  "0847": {
    "postcode": "4450847",
    "prefecture": "愛知県",
    "prefecture_kana": "アイチケン",
    "prefecture_code": 23,
    "city": "西尾市",
    "city_kana": "ニシオシ",
    "town": "亀沢町",
    "town_kana": "カメザワチョウ",
    "street": null,
    "office_name": null,
    "office_name_kana": null
  },
  "0851": {
    "postcode": "4450851",
    "prefecture": "愛知県",
    "prefecture_kana": "アイチケン",
    "prefecture_code": 23,
    "city": "西尾市",
    "city_kana": "ニシオシ",
    "town": "住吉町",
    "town_kana": "スミヨシチョウ",
    "street": null,
    "office_name": null,
    "office_name_kana": null
  },
  "0852": {
    "postcode": "4450852",
    "prefecture": "愛知県",
    "prefecture_kana": "アイチケン",
    "prefecture_code": 23,
    "city": "西尾市",
    "city_kana": "ニシオシ",
    "town": "花ノ木町",
    "town_kana": "ハナノキチョウ",
    "street": null,
    "office_name": null,
    "office_name_kana": null
  },
  "0853": {
    "postcode": "4450853",
    "prefecture": "愛知県",
    "prefecture_kana": "アイチケン",
    "prefecture_code": 23,
    "city": "西尾市",
    "city_kana": "ニシオシ",
    "town": "桜木町",
    "town_kana": "サクラギチョウ",
    "street": null,
    "office_name": null,
    "office_name_kana": null
  },
  "0854": {
    "postcode": "4450854",
    "prefecture": "愛知県",
    "prefecture_kana": "アイチケン",
    "prefecture_code": 23,
    "city": "西尾市",
    "city_kana": "ニシオシ",
    "town": "永楽町",
    "town_kana": "エイラクチョウ",
    "street": null,
    "office_name": null,
    "office_name_kana": null
  },
  "0855": {
    "postcode": "4450855",
    "prefecture": "愛知県",
    "prefecture_kana": "アイチケン",
    "prefecture_code": 23,
    "city": "西尾市",
    "city_kana": "ニシオシ",
    "town": "南旭町",
    "town_kana": "ミナミアサヒマチ",
    "street": null,
    "office_name": null,
    "office_name_kana": null
  },
  "0856": {
    "postcode": "4450856",
    "prefecture": "愛知県",
    "prefecture_kana": "アイチケン",
    "prefecture_code": 23,
    "city": "西尾市",
    "city_kana": "ニシオシ",
    "town": "高砂町",
    "town_kana": "タカサゴチョウ",
    "street": null,
    "office_name": null,
    "office_name_kana": null
  },
  "0857": {
    "postcode": "4450857",
    "prefecture": "愛知県",
    "prefecture_kana": "アイチケン",
    "prefecture_code": 23,
    "city": "西尾市",
    "city_kana": "ニシオシ",
    "town": "北旭町",
    "town_kana": "キタアサヒマチ",
    "street": null,
    "office_name": null,
    "office_name_kana": null
  },
  "0861": {
    "postcode": "4450861",
    "prefecture": "愛知県",
    "prefecture_kana": "アイチケン",
    "prefecture_code": 23,
    "city": "西尾市",
    "city_kana": "ニシオシ",
    "town": "吾妻町",
    "town_kana": "アヅマチョウ",
    "street": null,
    "office_name": null,
    "office_name_kana": null
  },
  "0862": {
    "postcode": "4450862",
    "prefecture": "愛知県",
    "prefecture_kana": "アイチケン",
    "prefecture_code": 23,
    "city": "西尾市",
    "city_kana": "ニシオシ",
    "town": "須田町",
    "town_kana": "スダチョウ",
    "street": null,
    "office_name": null,
    "office_name_kana": null
  },
  "0863": {
    "postcode": "4450863",
    "prefecture": "愛知県",
    "prefecture_kana": "アイチケン",
    "prefecture_code": 23,
    "city": "西尾市",
    "city_kana": "ニシオシ",
    "town": "葵町",
    "town_kana": "アオイチョウ",
    "street": null,
    "office_name": null,
    "office_name_kana": null
  },
  "0864": {
    "postcode": "4450864",
    "prefecture": "愛知県",
    "prefecture_kana": "アイチケン",
    "prefecture_code": 23,
    "city": "西尾市",
    "city_kana": "ニシオシ",
    "town": "錦城町",
    "town_kana": "キンジョウチョウ",
    "street": null,
    "office_name": null,
    "office_name_kana": null
  },
  "0865": {
    "postcode": "4450865",
    "prefecture": "愛知県",
    "prefecture_kana": "アイチケン",
    "prefecture_code": 23,
    "city": "西尾市",
    "city_kana": "ニシオシ",
    "town": "本町",
    "town_kana": "ホンマチ",
    "street": null,
    "office_name": null,
    "office_name_kana": null
  },
  "0866": {
    "postcode": "4450866",
    "prefecture": "愛知県",
    "prefecture_kana": "アイチケン",
    "prefecture_code": 23,
    "city": "西尾市",
    "city_kana": "ニシオシ",
    "town": "塩町",
    "town_kana": "シオマチ",
    "street": null,
    "office_name": null,
    "office_name_kana": null
  },
  "0870": {
    "postcode": "4450870",
    "prefecture": "愛知県",
    "prefecture_kana": "アイチケン",
    "prefecture_code": 23,
    "city": "西尾市",
    "city_kana": "ニシオシ",
    "town": "永吉",
    "town_kana": "ナガヨシ",
    "street": null,
    "office_name": null,
    "office_name_kana": null
  },
  "0871": {
    "postcode": "4450871",
    "prefecture": "愛知県",
    "prefecture_kana": "アイチケン",
    "prefecture_code": 23,
    "city": "西尾市",
    "city_kana": "ニシオシ",
    "town": "永吉町",
    "town_kana": "ナガヨシチョウ",
    "street": null,
    "office_name": null,
    "office_name_kana": null
  },
  "0872": {
    "postcode": "4450872",
    "prefecture": "愛知県",
    "prefecture_kana": "アイチケン",
    "prefecture_code": 23,
    "city": "西尾市",
    "city_kana": "ニシオシ",
    "town": "矢曽根町",
    "town_kana": "ヤゾネチョウ",
    "street": null,
    "office_name": null,
    "office_name_kana": null
  },
  "0873": {
    "postcode": "4450873",
    "prefecture": "愛知県",
    "prefecture_kana": "アイチケン",
    "prefecture_code": 23,
    "city": "西尾市",
    "city_kana": "ニシオシ",
    "town": "川口町",
    "town_kana": "カワグチチョウ",
    "street": null,
    "office_name": null,
    "office_name_kana": null
  },
  "0874": {
    "postcode": "4450874",
    "prefecture": "愛知県",
    "prefecture_kana": "アイチケン",
    "prefecture_code": 23,
    "city": "西尾市",
    "city_kana": "ニシオシ",
    "town": "菱池町",
    "town_kana": "ヒシイケチョウ",
    "street": null,
    "office_name": null,
    "office_name_kana": null
  },
  "0875": {
    "postcode": "4450875",
    "prefecture": "愛知県",
    "prefecture_kana": "アイチケン",
    "prefecture_code": 23,
    "city": "西尾市",
    "city_kana": "ニシオシ",
    "town": "深池町",
    "town_kana": "フカイケチョウ",
    "street": null,
    "office_name": null,
    "office_name_kana": null
  },
  "0876": {
    "postcode": "4450876",
    "prefecture": "愛知県",
    "prefecture_kana": "アイチケン",
    "prefecture_code": 23,
    "city": "西尾市",
    "city_kana": "ニシオシ",
    "town": "住崎町",
    "town_kana": "スミサキチョウ",
    "street": null,
    "office_name": null,
    "office_name_kana": null
  },
  "0877": {
    "postcode": "4450877",
    "prefecture": "愛知県",
    "prefecture_kana": "アイチケン",
    "prefecture_code": 23,
    "city": "西尾市",
    "city_kana": "ニシオシ",
    "town": "山下町",
    "town_kana": "ヤマシタチョウ",
    "street": null,
    "office_name": null,
    "office_name_kana": null
  },
  "0878": {
    "postcode": "4450878",
    "prefecture": "愛知県",
    "prefecture_kana": "アイチケン",
    "prefecture_code": 23,
    "city": "西尾市",
    "city_kana": "ニシオシ",
    "town": "新在家",
    "town_kana": "シンザイケ",
    "street": null,
    "office_name": null,
    "office_name_kana": null
  },
  "0879": {
    "postcode": "4450879",
    "prefecture": "愛知県",
    "prefecture_kana": "アイチケン",
    "prefecture_code": 23,
    "city": "西尾市",
    "city_kana": "ニシオシ",
    "town": "住崎",
    "town_kana": "スミサキ",
    "street": null,
    "office_name": null,
    "office_name_kana": null
  },
  "0881": {
    "postcode": "4450881",
    "prefecture": "愛知県",
    "prefecture_kana": "アイチケン",
    "prefecture_code": 23,
    "city": "西尾市",
    "city_kana": "ニシオシ",
    "town": "熱池町",
    "town_kana": "ニイケチョウ",
    "street": null,
    "office_name": null,
    "office_name_kana": null
  },
  "0882": {
    "postcode": "4450882",
    "prefecture": "愛知県",
    "prefecture_kana": "アイチケン",
    "prefecture_code": 23,
    "city": "西尾市",
    "city_kana": "ニシオシ",
    "town": "上道目記町",
    "town_kana": "カミドウメキチョウ",
    "street": null,
    "office_name": null,
    "office_name_kana": null
  },
  "0883": {
    "postcode": "4450883",
    "prefecture": "愛知県",
    "prefecture_kana": "アイチケン",
    "prefecture_code": 23,
    "city": "西尾市",
    "city_kana": "ニシオシ",
    "town": "下道目記町",
    "town_kana": "シモドウメキチョウ",
    "street": null,
    "office_name": null,
    "office_name_kana": null
  },
  "0884": {
    "postcode": "4450884",
    "prefecture": "愛知県",
    "prefecture_kana": "アイチケン",
    "prefecture_code": 23,
    "city": "西尾市",
    "city_kana": "ニシオシ",
    "town": "八ケ尻町",
    "town_kana": "ハチガシリチョウ",
    "street": null,
    "office_name": null,
    "office_name_kana": null
  },
  "0885": {
    "postcode": "4450885",
    "prefecture": "愛知県",
    "prefecture_kana": "アイチケン",
    "prefecture_code": 23,
    "city": "西尾市",
    "city_kana": "ニシオシ",
    "town": "行用町",
    "town_kana": "ギョウヨウチョウ",
    "street": null,
    "office_name": null,
    "office_name_kana": null
  },
  "0886": {
    "postcode": "4450886",
    "prefecture": "愛知県",
    "prefecture_kana": "アイチケン",
    "prefecture_code": 23,
    "city": "西尾市",
    "city_kana": "ニシオシ",
    "town": "針曽根町",
    "town_kana": "ハリゾネチョウ",
    "street": null,
    "office_name": null,
    "office_name_kana": null
  },
  "0887": {
    "postcode": "4450887",
    "prefecture": "愛知県",
    "prefecture_kana": "アイチケン",
    "prefecture_code": 23,
    "city": "西尾市",
    "city_kana": "ニシオシ",
    "town": "長縄町",
    "town_kana": "ナガナワチョウ",
    "street": null,
    "office_name": null,
    "office_name_kana": null
  },
  "0891": {
    "postcode": "4450891",
    "prefecture": "愛知県",
    "prefecture_kana": "アイチケン",
    "prefecture_code": 23,
    "city": "西尾市",
    "city_kana": "ニシオシ",
    "town": "下町",
    "town_kana": "シモマチ",
    "street": null,
    "office_name": null,
    "office_name_kana": null
  },
  "0892": {
    "postcode": "4450892",
    "prefecture": "愛知県",
    "prefecture_kana": "アイチケン",
    "prefecture_code": 23,
    "city": "西尾市",
    "city_kana": "ニシオシ",
    "town": "法光寺町",
    "town_kana": "ホウコウジチョウ",
    "street": null,
    "office_name": null,
    "office_name_kana": null
  },
  "0893": {
    "postcode": "4450893",
    "prefecture": "愛知県",
    "prefecture_kana": "アイチケン",
    "prefecture_code": 23,
    "city": "西尾市",
    "city_kana": "ニシオシ",
    "town": "小間町",
    "town_kana": "オマチョウ",
    "street": null,
    "office_name": null,
    "office_name_kana": null
  },
  "0894": {
    "postcode": "4450894",
    "prefecture": "愛知県",
    "prefecture_kana": "アイチケン",
    "prefecture_code": 23,
    "city": "西尾市",
    "city_kana": "ニシオシ",
    "town": "上町",
    "town_kana": "カミマチ",
    "street": null,
    "office_name": null,
    "office_name_kana": null
  },
  "8501": {
    "postcode": "4458501",
    "prefecture": "愛知県",
    "prefecture_kana": "アイチケン",
    "prefecture_code": 23,
    "city": "西尾市",
    "city_kana": "ニシオシ",
    "town": "寄住町",
    "town_kana": "ヨリズミチョウ",
    "street": "下田２２",
    "office_name": "西尾市役所",
    "office_name_kana": "ニシオシヤクシヨ"
  },
  "8502": {
    "postcode": "4458502",
    "prefecture": "愛知県",
    "prefecture_kana": "アイチケン",
    "prefecture_code": 23,
    "city": "西尾市",
    "city_kana": "ニシオシ",
    "town": "下羽角町",
    "town_kana": "シモハスミチョウ",
    "street": "住崎１",
    "office_name": "株式会社　デンソー　西尾製作所",
    "office_name_kana": "カブシキガイシヤ デンソ- ニシオセイサクシヨ"
  },
  "8503": {
    "postcode": "4458503",
    "prefecture": "愛知県",
    "prefecture_kana": "アイチケン",
    "prefecture_code": 23,
    "city": "西尾市",
    "city_kana": "ニシオシ",
    "town": "下町",
    "town_kana": "シモマチ",
    "street": "御城下２３−１",
    "office_name": "西尾ニュータウン開発　株式会社",
    "office_name_kana": "ニシオニユ-タウンカイハツ カブシキガイシヤ"
  },
  "8505": {
    "postcode": "4458505",
    "prefecture": "愛知県",
    "prefecture_kana": "アイチケン",
    "prefecture_code": 23,
    "city": "西尾市",
    "city_kana": "ニシオシ",
    "town": "錦城町",
    "town_kana": "キンジョウチョウ",
    "street": "２３４",
    "office_name": "西尾商工会議所",
    "office_name_kana": "ニシオシヨウコウカイギシヨ"
  },
  "8510": {
    "postcode": "4458510",
    "prefecture": "愛知県",
    "prefecture_kana": "アイチケン",
    "prefecture_code": 23,
    "city": "西尾市",
    "city_kana": "ニシオシ",
    "town": "熊味町",
    "town_kana": "クマミチョウ",
    "street": "上泡原６",
    "office_name": "西尾市民病院",
    "office_name_kana": "ニシオシミンビヨウイン"
  },
  "8511": {
    "postcode": "4458511",
    "prefecture": "愛知県",
    "prefecture_kana": "アイチケン",
    "prefecture_code": 23,
    "city": "西尾市",
    "city_kana": "ニシオシ",
    "town": "熊味町",
    "town_kana": "クマミチョウ",
    "street": "南十五夜６０",
    "office_name": "名古屋法務局　西尾支局",
    "office_name_kana": "ナゴヤホウムキヨク ニシオシキヨク"
  },
  "8555": {
    "postcode": "4458555",
    "prefecture": "愛知県",
    "prefecture_kana": "アイチケン",
    "prefecture_code": 23,
    "city": "西尾市",
    "city_kana": "ニシオシ",
    "town": "港町",
    "town_kana": "ミナトマチ",
    "street": "６番地６",
    "office_name": "中日本鋳工　株式会社",
    "office_name_kana": "ナカニホンチユウコウ カブシキガイシヤ"
  },
  "8585": {
    "postcode": "4458585",
    "prefecture": "愛知県",
    "prefecture_kana": "アイチケン",
    "prefecture_code": 23,
    "city": "西尾市",
    "city_kana": "ニシオシ",
    "town": "下町",
    "town_kana": "シモマチ",
    "street": "御城下２３−１",
    "office_name": "おしろタウン　シャオ",
    "office_name_kana": "オシロタウン シヤオ"
  },
  "8601": {
    "postcode": "4458601",
    "prefecture": "愛知県",
    "prefecture_kana": "アイチケン",
    "prefecture_code": 23,
    "city": "西尾市",
    "city_kana": "ニシオシ",
    "town": "寄住町",
    "town_kana": "ヨリズミチョウ",
    "street": "洲田５１（西尾郵便局私書箱第４号）",
    "office_name": "西尾信用金庫",
    "office_name_kana": "ニシオシンヨウキンコ"
  },
  "8602": {
    "postcode": "4458602",
    "prefecture": "愛知県",
    "prefecture_kana": "アイチケン",
    "prefecture_code": 23,
    "city": "西尾市",
    "city_kana": "ニシオシ",
    "town": "熊味町",
    "town_kana": "クマミチョウ",
    "street": "南十五夜４１−１（西尾郵便局私書箱第１７号）",
    "office_name": "西尾税務署",
    "office_name_kana": "ニシオゼイムシヨ"
  }
}