{
  "0200": {
    "postcode": "4490200",
    "prefecture": "愛知県",
    "prefecture_kana": "アイチケン",
    "prefecture_code": 23,
    "city": "北設楽郡東栄町",
    "city_kana": "キタシタラグントウエイチョウ",
    "town": "",
    "town_kana": "",
    "street": null,
    "office_name": null,
    "office_name_kana": null
  },
  "0201": {
    "postcode": "4490201",
    "prefecture": "愛知県",
    "prefecture_kana": "アイチケン",
    "prefecture_code": 23,
    "city": "北設楽郡東栄町",
    "city_kana": "キタシタラグントウエイチョウ",
    "town": "御園",
    "town_kana": "ミソノ",
    "street": null,
    "office_name": null,
    "office_name_kana": null
  },
  "0202": {
    "postcode": "4490202",
    "prefecture": "愛知県",
    "prefecture_kana": "アイチケン",
    "prefecture_code": 23,
    "city": "北設楽郡東栄町",
    "city_kana": "キタシタラグントウエイチョウ",
    "town": "足込",
    "town_kana": "アシコメ",
    "street": null,
    "office_name": null,
    "office_name_kana": null
  },
  "0203": {
    "postcode": "4490203",
    "prefecture": "愛知県",
    "prefecture_kana": "アイチケン",
    "prefecture_code": 23,
    "city": "北設楽郡東栄町",
    "city_kana": "キタシタラグントウエイチョウ",
    "town": "東薗目",
    "town_kana": "ヒガシソノメ",
    "street": null,
    "office_name": null,
    "office_name_kana": null
  },
  "0204": {
    "postcode": "4490204",
    "prefecture": "愛知県",
    "prefecture_kana": "アイチケン",
    "prefecture_code": 23,
    "city": "北設楽郡東栄町",
    "city_kana": "キタシタラグントウエイチョウ",
    "town": "西薗目",
    "town_kana": "ニシソノメ",
    "street": null,
    "office_name": null,
    "office_name_kana": null
  },
  "0205": {
    "postcode": "4490205",
    "prefecture": "愛知県",
    "prefecture_kana": "アイチケン",
    "prefecture_code": 23,
    "city": "北設楽郡東栄町",
    "city_kana": "キタシタラグントウエイチョウ",
    "town": "川角",
    "town_kana": "カワカド",
    "street": null,
    "office_name": null,
    "office_name_kana": null
  },
  "0206": {
    "postcode": "4490206",
    "prefecture": "愛知県",
    "prefecture_kana": "アイチケン",
    "prefecture_code": 23,
    "city": "北設楽郡東栄町",
    "city_kana": "キタシタラグントウエイチョウ",
    "town": "下田",
    "town_kana": "シモダ",
    "street": null,
    "office_name": null,
    "office_name_kana": null
  },
  "0211": {
    "postcode": "4490211",
    "prefecture": "愛知県",
    "prefecture_kana": "アイチケン",
    "prefecture_code": 23,
    "city": "北設楽郡東栄町",
    "city_kana": "キタシタラグントウエイチョウ",
    "town": "中設楽",
    "town_kana": "ナカシタラ",
    "street": null,
    "office_name": null,
    "office_name_kana": null
  },
  "0212": {
    "postcode": "4490212",
    "prefecture": "愛知県",
    "prefecture_kana": "アイチケン",
    "prefecture_code": 23,
    "city": "北設楽郡東栄町",
    "city_kana": "キタシタラグントウエイチョウ",
    "town": "月",
    "town_kana": "ツキ",
    "street": null,
    "office_name": null,
    "office_name_kana": null
  },
  "0213": {
    "postcode": "4490213",
    "prefecture": "愛知県",
    "prefecture_kana": "アイチケン",
    "prefecture_code": 23,
    "city": "北設楽郡東栄町",
    "city_kana": "キタシタラグントウエイチョウ",
    "town": "振草",
    "town_kana": "フリクサ",
    "street": null,
    "office_name": null,
    "office_name_kana": null
  },
  "0214": {
    "postcode": "4490214",
    "prefecture": "愛知県",
    "prefecture_kana": "アイチケン",
    "prefecture_code": 23,
    "city": "北設楽郡東栄町",
    "city_kana": "キタシタラグントウエイチョウ",
    "town": "本郷",
    "town_kana": "ホンゴウ",
    "street": null,
    "office_name": null,
    "office_name_kana": null
  },
  "0215": {
    "postcode": "4490215",
    "prefecture": "愛知県",
    "prefecture_kana": "アイチケン",
    "prefecture_code": 23,
    "city": "北設楽郡東栄町",
    "city_kana": "キタシタラグントウエイチョウ",
    "town": "奈根",
    "town_kana": "ナネ",
    "street": null,
    "office_name": null,
    "office_name_kana": null
  },
  "0216": {
    "postcode": "4490216",
    "prefecture": "愛知県",
    "prefecture_kana": "アイチケン",
    "prefecture_code": 23,
    "city": "北設楽郡東栄町",
    "city_kana": "キタシタラグントウエイチョウ",
    "town": "三輪",
    "town_kana": "ミワ",
    "street": null,
    "office_name": null,
    "office_name_kana": null
  },
  "0292": {
    "postcode": "4490292",
    "prefecture": "愛知県",
    "prefecture_kana": "アイチケン",
    "prefecture_code": 23,
    "city": "北設楽郡東栄町",
    "city_kana": "キタシタラグントウエイチョウ",
    "town": "大字本郷",
    "town_kana": null,
    "street": "字上前畑２５",
    "office_name": "東栄町役場",
    "office_name_kana": "トウエイチヨウヤクバ"
  },
  "0293": {
    "postcode": "4490293",
    "prefecture": "愛知県",
    "prefecture_kana": "アイチケン",
    "prefecture_code": 23,
    "city": "北設楽郡東栄町",
    "city_kana": "キタシタラグントウエイチョウ",
    "town": "大字三輪",
    "town_kana": null,
    "street": "字上栗５番地",
    "office_name": "東栄医療センター",
    "office_name_kana": "トウエイイリヨウセンタ-"
  },
  "0400": {
    "postcode": "4490400",
    "prefecture": "愛知県",
    "prefecture_kana": "アイチケン",
    "prefecture_code": 23,
    "city": "北設楽郡豊根村",
    "city_kana": "キタシタラグントヨネムラ",
    "town": "",
    "town_kana": "",
    "street": null,
    "office_name": null,
    "office_name_kana": null
  },
  "0401": {
    "postcode": "4490401",
    "prefecture": "愛知県",
    "prefecture_kana": "アイチケン",
    "prefecture_code": 23,
    "city": "北設楽郡豊根村",
    "city_kana": "キタシタラグントヨネムラ",
    "town": "三沢",
    "town_kana": "ミサワ",
    "street": null,
    "office_name": null,
    "office_name_kana": null
  },
  "0402": {
    "postcode": "4490402",
    "prefecture": "愛知県",
    "prefecture_kana": "アイチケン",
    "prefecture_code": 23,
    "city": "北設楽郡豊根村",
    "city_kana": "キタシタラグントヨネムラ",
    "town": "古真立",
    "town_kana": "コマダテ",
    "street": null,
    "office_name": null,
    "office_name_kana": null
  },
  "0403": {
    "postcode": "4490403",
    "prefecture": "愛知県",
    "prefecture_kana": "アイチケン",
    "prefecture_code": 23,
    "city": "北設楽郡豊根村",
    "city_kana": "キタシタラグントヨネムラ",
    "town": "下黒川",
    "town_kana": "シモクロガワ",
    "street": null,
    "office_name": null,
    "office_name_kana": null
  },
  "0404": {
    "postcode": "4490404",
    "prefecture": "愛知県",
    "prefecture_kana": "アイチケン",
    "prefecture_code": 23,
    "city": "北設楽郡豊根村",
    "city_kana": "キタシタラグントヨネムラ",
    "town": "上黒川",
    "town_kana": "カミクロガワ",
    "street": null,
    "office_name": null,
    "office_name_kana": null
  },
  "0405": {
    "postcode": "4490405",
    "prefecture": "愛知県",
    "prefecture_kana": "アイチケン",
    "prefecture_code": 23,
    "city": "北設楽郡豊根村",
    "city_kana": "キタシタラグントヨネムラ",
    "town": "坂宇場",
    "town_kana": "サカウバ",
    "street": null,
    "office_name": null,
    "office_name_kana": null
  }
}