{
  "0000": {
    "postcode": "4560000",
    "prefecture": "愛知県",
    "prefecture_kana": "アイチケン",
    "prefecture_code": 23,
    "city": "名古屋市熱田区",
    "city_kana": "ナゴヤシアツタク",
    "town": "",
    "town_kana": "",
    "street": null,
    "office_name": null,
    "office_name_kana": null
  },
  "0001": {
    "postcode": "4560001",
    "prefecture": "愛知県",
    "prefecture_kana": "アイチケン",
    "prefecture_code": 23,
    "city": "名古屋市熱田区",
    "city_kana": "ナゴヤシアツタク",
    "town": "金山",
    "town_kana": "カナヤマ",
    "street": null,
    "office_name": null,
    "office_name_kana": null
  },
  "0002": {
    "postcode": "4560002",
    "prefecture": "愛知県",
    "prefecture_kana": "アイチケン",
    "prefecture_code": 23,
    "city": "名古屋市熱田区",
    "city_kana": "ナゴヤシアツタク",
    "town": "金山町",
    "town_kana": "カナヤマチョウ",
    "street": null,
    "office_name": null,
    "office_name_kana": null
  },
  "0003": {
    "postcode": "4560003",
    "prefecture": "愛知県",
    "prefecture_kana": "アイチケン",
    "prefecture_code": 23,
    "city": "名古屋市熱田区",
    "city_kana": "ナゴヤシアツタク",
    "town": "波寄町",
    "town_kana": "ナミヨセチョウ",
    "street": null,
    "office_name": null,
    "office_name_kana": null
  },
  "0004": {
    "postcode": "4560004",
    "prefecture": "愛知県",
    "prefecture_kana": "アイチケン",
    "prefecture_code": 23,
    "city": "名古屋市熱田区",
    "city_kana": "ナゴヤシアツタク",
    "town": "桜田町",
    "town_kana": "サクラダチョウ",
    "street": null,
    "office_name": null,
    "office_name_kana": null
  },
  "0005": {
    "postcode": "4560005",
    "prefecture": "愛知県",
    "prefecture_kana": "アイチケン",
    "prefecture_code": 23,
    "city": "名古屋市熱田区",
    "city_kana": "ナゴヤシアツタク",
    "town": "池内町",
    "town_kana": "イケウチチョウ",
    "street": null,
    "office_name": null,
    "office_name_kana": null
  },
  "0006": {
    "postcode": "4560006",
    "prefecture": "愛知県",
    "prefecture_kana": "アイチケン",
    "prefecture_code": 23,
    "city": "名古屋市熱田区",
    "city_kana": "ナゴヤシアツタク",
    "town": "沢下町",
    "town_kana": "サワシタチョウ",
    "street": null,
    "office_name": null,
    "office_name_kana": null
  },
  "0011": {
    "postcode": "4560011",
    "prefecture": "愛知県",
    "prefecture_kana": "アイチケン",
    "prefecture_code": 23,
    "city": "名古屋市熱田区",
    "city_kana": "ナゴヤシアツタク",
    "town": "花町",
    "town_kana": "ハナチョウ",
    "street": null,
    "office_name": null,
    "office_name_kana": null
  },
  "0012": {
    "postcode": "4560012",
    "prefecture": "愛知県",
    "prefecture_kana": "アイチケン",
    "prefecture_code": 23,
    "city": "名古屋市熱田区",
    "city_kana": "ナゴヤシアツタク",
    "town": "沢上",
    "town_kana": "サワカミ",
    "street": null,
    "office_name": null,
    "office_name_kana": null
  },
  "0013": {
    "postcode": "4560013",
    "prefecture": "愛知県",
    "prefecture_kana": "アイチケン",
    "prefecture_code": 23,
    "city": "名古屋市熱田区",
    "city_kana": "ナゴヤシアツタク",
    "town": "外土居町",
    "town_kana": "ソトドイチョウ",
    "street": null,
    "office_name": null,
    "office_name_kana": null
  },
  "0014": {
    "postcode": "4560014",
    "prefecture": "愛知県",
    "prefecture_kana": "アイチケン",
    "prefecture_code": 23,
    "city": "名古屋市熱田区",
    "city_kana": "ナゴヤシアツタク",
    "town": "中田町",
    "town_kana": "ナカタチョウ",
    "street": null,
    "office_name": null,
    "office_name_kana": null
  },
  "0015": {
    "postcode": "4560015",
    "prefecture": "愛知県",
    "prefecture_kana": "アイチケン",
    "prefecture_code": 23,
    "city": "名古屋市熱田区",
    "city_kana": "ナゴヤシアツタク",
    "town": "高蔵町",
    "town_kana": "タカクラチョウ",
    "street": null,
    "office_name": null,
    "office_name_kana": null
  },
  "0016": {
    "postcode": "4560016",
    "prefecture": "愛知県",
    "prefecture_kana": "アイチケン",
    "prefecture_code": 23,
    "city": "名古屋市熱田区",
    "city_kana": "ナゴヤシアツタク",
    "town": "五本松町",
    "town_kana": "ゴホンマツチョウ",
    "street": null,
    "office_name": null,
    "office_name_kana": null
  },
  "0017": {
    "postcode": "4560017",
    "prefecture": "愛知県",
    "prefecture_kana": "アイチケン",
    "prefecture_code": 23,
    "city": "名古屋市熱田区",
    "city_kana": "ナゴヤシアツタク",
    "town": "尾頭町",
    "town_kana": "オトウチョウ",
    "street": null,
    "office_name": null,
    "office_name_kana": null
  },
  "0018": {
    "postcode": "4560018",
    "prefecture": "愛知県",
    "prefecture_kana": "アイチケン",
    "prefecture_code": 23,
    "city": "名古屋市熱田区",
    "city_kana": "ナゴヤシアツタク",
    "town": "新尾頭",
    "town_kana": "シンオトウ",
    "street": null,
    "office_name": null,
    "office_name_kana": null
  },
  "0021": {
    "postcode": "4560021",
    "prefecture": "愛知県",
    "prefecture_kana": "アイチケン",
    "prefecture_code": 23,
    "city": "名古屋市熱田区",
    "city_kana": "ナゴヤシアツタク",
    "town": "夜寒町",
    "town_kana": "ヨサムチョウ",
    "street": null,
    "office_name": null,
    "office_name_kana": null
  },
  "0022": {
    "postcode": "4560022",
    "prefecture": "愛知県",
    "prefecture_kana": "アイチケン",
    "prefecture_code": 23,
    "city": "名古屋市熱田区",
    "city_kana": "ナゴヤシアツタク",
    "town": "横田",
    "town_kana": "ヨコタ",
    "street": null,
    "office_name": null,
    "office_name_kana": null
  },
  "0023": {
    "postcode": "4560023",
    "prefecture": "愛知県",
    "prefecture_kana": "アイチケン",
    "prefecture_code": 23,
    "city": "名古屋市熱田区",
    "city_kana": "ナゴヤシアツタク",
    "town": "六野",
    "town_kana": "ムツノ",
    "street": null,
    "office_name": null,
    "office_name_kana": null
  },
  "0024": {
    "postcode": "4560024",
    "prefecture": "愛知県",
    "prefecture_kana": "アイチケン",
    "prefecture_code": 23,
    "city": "名古屋市熱田区",
    "city_kana": "ナゴヤシアツタク",
    "town": "森後町",
    "town_kana": "モリゴチョウ",
    "street": null,
    "office_name": null,
    "office_name_kana": null
  },
  "0025": {
    "postcode": "4560025",
    "prefecture": "愛知県",
    "prefecture_kana": "アイチケン",
    "prefecture_code": 23,
    "city": "名古屋市熱田区",
    "city_kana": "ナゴヤシアツタク",
    "town": "玉の井町",
    "town_kana": "タマノイチョウ",
    "street": null,
    "office_name": null,
    "office_name_kana": null
  },
  "0026": {
    "postcode": "4560026",
    "prefecture": "愛知県",
    "prefecture_kana": "アイチケン",
    "prefecture_code": 23,
    "city": "名古屋市熱田区",
    "city_kana": "ナゴヤシアツタク",
    "town": "旗屋町",
    "town_kana": "ハタヤチョウ",
    "street": null,
    "office_name": null,
    "office_name_kana": null
  },
  "0027": {
    "postcode": "4560027",
    "prefecture": "愛知県",
    "prefecture_kana": "アイチケン",
    "prefecture_code": 23,
    "city": "名古屋市熱田区",
    "city_kana": "ナゴヤシアツタク",
    "town": "旗屋",
    "town_kana": "ハタヤ",
    "street": null,
    "office_name": null,
    "office_name_kana": null
  },
  "0031": {
    "postcode": "4560031",
    "prefecture": "愛知県",
    "prefecture_kana": "アイチケン",
    "prefecture_code": 23,
    "city": "名古屋市熱田区",
    "city_kana": "ナゴヤシアツタク",
    "town": "神宮",
    "town_kana": "ジングウ",
    "street": null,
    "office_name": null,
    "office_name_kana": null
  },
  "0032": {
    "postcode": "4560032",
    "prefecture": "愛知県",
    "prefecture_kana": "アイチケン",
    "prefecture_code": 23,
    "city": "名古屋市熱田区",
    "city_kana": "ナゴヤシアツタク",
    "town": "三本松町",
    "town_kana": "サンボンマツチョウ",
    "street": null,
    "office_name": null,
    "office_name_kana": null
  },
  "0033": {
    "postcode": "4560033",
    "prefecture": "愛知県",
    "prefecture_kana": "アイチケン",
    "prefecture_code": 23,
    "city": "名古屋市熱田区",
    "city_kana": "ナゴヤシアツタク",
    "town": "花表町",
    "town_kana": "ハナオモテチョウ",
    "street": null,
    "office_name": null,
    "office_name_kana": null
  },
  "0034": {
    "postcode": "4560034",
    "prefecture": "愛知県",
    "prefecture_kana": "アイチケン",
    "prefecture_code": 23,
    "city": "名古屋市熱田区",
    "city_kana": "ナゴヤシアツタク",
    "town": "伝馬",
    "town_kana": "テンマ",
    "street": null,
    "office_name": null,
    "office_name_kana": null
  },
  "0035": {
    "postcode": "4560035",
    "prefecture": "愛知県",
    "prefecture_kana": "アイチケン",
    "prefecture_code": 23,
    "city": "名古屋市熱田区",
    "city_kana": "ナゴヤシアツタク",
    "town": "白鳥",
    "town_kana": "シロトリ",
    "street": null,
    "office_name": null,
    "office_name_kana": null
  },
  "0036": {
    "postcode": "4560036",
    "prefecture": "愛知県",
    "prefecture_kana": "アイチケン",
    "prefecture_code": 23,
    "city": "名古屋市熱田区",
    "city_kana": "ナゴヤシアツタク",
    "town": "熱田西町",
    "town_kana": "アツタニシマチ",
    "street": null,
    "office_name": null,
    "office_name_kana": null
  },
  "0037": {
    "postcode": "4560037",
    "prefecture": "愛知県",
    "prefecture_kana": "アイチケン",
    "prefecture_code": 23,
    "city": "名古屋市熱田区",
    "city_kana": "ナゴヤシアツタク",
    "town": "熱田新田東組",
    "town_kana": "アツタシンデンヒガシグミ",
    "street": null,
    "office_name": null,
    "office_name_kana": null
  },
  "0041": {
    "postcode": "4560041",
    "prefecture": "愛知県",
    "prefecture_kana": "アイチケン",
    "prefecture_code": 23,
    "city": "名古屋市熱田区",
    "city_kana": "ナゴヤシアツタク",
    "town": "中瀬町",
    "town_kana": "ナカセチョウ",
    "street": null,
    "office_name": null,
    "office_name_kana": null
  },
  "0042": {
    "postcode": "4560042",
    "prefecture": "愛知県",
    "prefecture_kana": "アイチケン",
    "prefecture_code": 23,
    "city": "名古屋市熱田区",
    "city_kana": "ナゴヤシアツタク",
    "town": "須賀町",
    "town_kana": "スカチョウ",
    "street": null,
    "office_name": null,
    "office_name_kana": null
  },
  "0043": {
    "postcode": "4560043",
    "prefecture": "愛知県",
    "prefecture_kana": "アイチケン",
    "prefecture_code": 23,
    "city": "名古屋市熱田区",
    "city_kana": "ナゴヤシアツタク",
    "town": "神戸町",
    "town_kana": "ゴウドチョウ",
    "street": null,
    "office_name": null,
    "office_name_kana": null
  },
  "0044": {
    "postcode": "4560044",
    "prefecture": "愛知県",
    "prefecture_kana": "アイチケン",
    "prefecture_code": 23,
    "city": "名古屋市熱田区",
    "city_kana": "ナゴヤシアツタク",
    "town": "内田町",
    "town_kana": "ウチダチョウ",
    "street": null,
    "office_name": null,
    "office_name_kana": null
  },
  "0045": {
    "postcode": "4560045",
    "prefecture": "愛知県",
    "prefecture_kana": "アイチケン",
    "prefecture_code": 23,
    "city": "名古屋市熱田区",
    "city_kana": "ナゴヤシアツタク",
    "town": "大瀬子町",
    "town_kana": "オオセコチョウ",
    "street": null,
    "office_name": null,
    "office_name_kana": null
  },
  "0046": {
    "postcode": "4560046",
    "prefecture": "愛知県",
    "prefecture_kana": "アイチケン",
    "prefecture_code": 23,
    "city": "名古屋市熱田区",
    "city_kana": "ナゴヤシアツタク",
    "town": "木之免町",
    "town_kana": "キノメチョウ",
    "street": null,
    "office_name": null,
    "office_name_kana": null
  },
  "0047": {
    "postcode": "4560047",
    "prefecture": "愛知県",
    "prefecture_kana": "アイチケン",
    "prefecture_code": 23,
    "city": "名古屋市熱田区",
    "city_kana": "ナゴヤシアツタク",
    "town": "田中町",
    "town_kana": "タナカチョウ",
    "street": null,
    "office_name": null,
    "office_name_kana": null
  },
  "0048": {
    "postcode": "4560048",
    "prefecture": "愛知県",
    "prefecture_kana": "アイチケン",
    "prefecture_code": 23,
    "city": "名古屋市熱田区",
    "city_kana": "ナゴヤシアツタク",
    "town": "白鳥町",
    "town_kana": "シロトリチョウ",
    "street": null,
    "office_name": null,
    "office_name_kana": null
  },
  "0051": {
    "postcode": "4560051",
    "prefecture": "愛知県",
    "prefecture_kana": "アイチケン",
    "prefecture_code": 23,
    "city": "名古屋市熱田区",
    "city_kana": "ナゴヤシアツタク",
    "town": "四番",
    "town_kana": "ヨンバン",
    "street": null,
    "office_name": null,
    "office_name_kana": null
  },
  "0052": {
    "postcode": "4560052",
    "prefecture": "愛知県",
    "prefecture_kana": "アイチケン",
    "prefecture_code": 23,
    "city": "名古屋市熱田区",
    "city_kana": "ナゴヤシアツタク",
    "town": "二番",
    "town_kana": "ニバン",
    "street": null,
    "office_name": null,
    "office_name_kana": null
  },
  "0053": {
    "postcode": "4560053",
    "prefecture": "愛知県",
    "prefecture_kana": "アイチケン",
    "prefecture_code": 23,
    "city": "名古屋市熱田区",
    "city_kana": "ナゴヤシアツタク",
    "town": "一番",
    "town_kana": "イチバン",
    "street": null,
    "office_name": null,
    "office_name_kana": null
  },
  "0054": {
    "postcode": "4560054",
    "prefecture": "愛知県",
    "prefecture_kana": "アイチケン",
    "prefecture_code": 23,
    "city": "名古屋市熱田区",
    "city_kana": "ナゴヤシアツタク",
    "town": "千年",
    "town_kana": "チトセ",
    "street": null,
    "office_name": null,
    "office_name_kana": null
  },
  "0055": {
    "postcode": "4560055",
    "prefecture": "愛知県",
    "prefecture_kana": "アイチケン",
    "prefecture_code": 23,
    "city": "名古屋市熱田区",
    "city_kana": "ナゴヤシアツタク",
    "town": "南一番町",
    "town_kana": "ミナミイチバンチョウ",
    "street": null,
    "office_name": null,
    "office_name_kana": null
  },
  "0056": {
    "postcode": "4560056",
    "prefecture": "愛知県",
    "prefecture_kana": "アイチケン",
    "prefecture_code": 23,
    "city": "名古屋市熱田区",
    "city_kana": "ナゴヤシアツタク",
    "town": "三番町",
    "town_kana": "サンバンチョウ",
    "street": null,
    "office_name": null,
    "office_name_kana": null
  },
  "0057": {
    "postcode": "4560057",
    "prefecture": "愛知県",
    "prefecture_kana": "アイチケン",
    "prefecture_code": 23,
    "city": "名古屋市熱田区",
    "city_kana": "ナゴヤシアツタク",
    "town": "五番町",
    "town_kana": "ゴバンチョウ",
    "street": null,
    "office_name": null,
    "office_name_kana": null
  },
  "0058": {
    "postcode": "4560058",
    "prefecture": "愛知県",
    "prefecture_kana": "アイチケン",
    "prefecture_code": 23,
    "city": "名古屋市熱田区",
    "city_kana": "ナゴヤシアツタク",
    "town": "六番",
    "town_kana": "ロクバン",
    "street": null,
    "office_name": null,
    "office_name_kana": null
  },
  "0059": {
    "postcode": "4560059",
    "prefecture": "愛知県",
    "prefecture_kana": "アイチケン",
    "prefecture_code": 23,
    "city": "名古屋市熱田区",
    "city_kana": "ナゴヤシアツタク",
    "town": "八番",
    "town_kana": "ハチバン",
    "street": null,
    "office_name": null,
    "office_name_kana": null
  },
  "0061": {
    "postcode": "4560061",
    "prefecture": "愛知県",
    "prefecture_kana": "アイチケン",
    "prefecture_code": 23,
    "city": "名古屋市熱田区",
    "city_kana": "ナゴヤシアツタク",
    "town": "西郊通",
    "town_kana": "サイコウトオリ",
    "street": null,
    "office_name": null,
    "office_name_kana": null
  },
  "0062": {
    "postcode": "4560062",
    "prefecture": "愛知県",
    "prefecture_kana": "アイチケン",
    "prefecture_code": 23,
    "city": "名古屋市熱田区",
    "city_kana": "ナゴヤシアツタク",
    "town": "大宝",
    "town_kana": "タイホウ",
    "street": null,
    "office_name": null,
    "office_name_kana": null
  },
  "0063": {
    "postcode": "4560063",
    "prefecture": "愛知県",
    "prefecture_kana": "アイチケン",
    "prefecture_code": 23,
    "city": "名古屋市熱田区",
    "city_kana": "ナゴヤシアツタク",
    "town": "西野町",
    "town_kana": "ニシノチョウ",
    "street": null,
    "office_name": null,
    "office_name_kana": null
  },
  "0064": {
    "postcode": "4560064",
    "prefecture": "愛知県",
    "prefecture_kana": "アイチケン",
    "prefecture_code": 23,
    "city": "名古屋市熱田区",
    "city_kana": "ナゴヤシアツタク",
    "town": "古新町",
    "town_kana": "コシンチョウ",
    "street": null,
    "office_name": null,
    "office_name_kana": null
  },
  "0065": {
    "postcode": "4560065",
    "prefecture": "愛知県",
    "prefecture_kana": "アイチケン",
    "prefecture_code": 23,
    "city": "名古屋市熱田区",
    "city_kana": "ナゴヤシアツタク",
    "town": "河田町",
    "town_kana": "カワダチョウ",
    "street": null,
    "office_name": null,
    "office_name_kana": null
  },
  "0066": {
    "postcode": "4560066",
    "prefecture": "愛知県",
    "prefecture_kana": "アイチケン",
    "prefecture_code": 23,
    "city": "名古屋市熱田区",
    "city_kana": "ナゴヤシアツタク",
    "town": "野立町",
    "town_kana": "ノダテチョウ",
    "street": null,
    "office_name": null,
    "office_name_kana": null
  },
  "0067": {
    "postcode": "4560067",
    "prefecture": "愛知県",
    "prefecture_kana": "アイチケン",
    "prefecture_code": 23,
    "city": "名古屋市熱田区",
    "city_kana": "ナゴヤシアツタク",
    "town": "中出町",
    "town_kana": "ナカデチョウ",
    "street": null,
    "office_name": null,
    "office_name_kana": null
  },
  "0068": {
    "postcode": "4560068",
    "prefecture": "愛知県",
    "prefecture_kana": "アイチケン",
    "prefecture_code": 23,
    "city": "名古屋市熱田区",
    "city_kana": "ナゴヤシアツタク",
    "town": "神野町",
    "town_kana": "ジンノチョウ",
    "street": null,
    "office_name": null,
    "office_name_kana": null
  },
  "0069": {
    "postcode": "4560069",
    "prefecture": "愛知県",
    "prefecture_kana": "アイチケン",
    "prefecture_code": 23,
    "city": "名古屋市熱田区",
    "city_kana": "ナゴヤシアツタク",
    "town": "中野新町",
    "town_kana": "ナカノシンチョウ",
    "street": null,
    "office_name": null,
    "office_name_kana": null
  },
  "0071": {
    "postcode": "4560071",
    "prefecture": "愛知県",
    "prefecture_kana": "アイチケン",
    "prefecture_code": 23,
    "city": "名古屋市熱田区",
    "city_kana": "ナゴヤシアツタク",
    "town": "明野町",
    "town_kana": "アケノチョウ",
    "street": null,
    "office_name": null,
    "office_name_kana": null
  },
  "0072": {
    "postcode": "4560072",
    "prefecture": "愛知県",
    "prefecture_kana": "アイチケン",
    "prefecture_code": 23,
    "city": "名古屋市熱田区",
    "city_kana": "ナゴヤシアツタク",
    "town": "川並町",
    "town_kana": "カワナミチョウ",
    "street": null,
    "office_name": null,
    "office_name_kana": null
  },
  "0073": {
    "postcode": "4560073",
    "prefecture": "愛知県",
    "prefecture_kana": "アイチケン",
    "prefecture_code": 23,
    "city": "名古屋市熱田区",
    "city_kana": "ナゴヤシアツタク",
    "town": "千代田町",
    "town_kana": "チヨダチョウ",
    "street": null,
    "office_name": null,
    "office_name_kana": null
  },
  "0074": {
    "postcode": "4560074",
    "prefecture": "愛知県",
    "prefecture_kana": "アイチケン",
    "prefecture_code": 23,
    "city": "名古屋市熱田区",
    "city_kana": "ナゴヤシアツタク",
    "town": "比々野町",
    "town_kana": "ヒビノチョウ",
    "street": null,
    "office_name": null,
    "office_name_kana": null
  },
  "0075": {
    "postcode": "4560075",
    "prefecture": "愛知県",
    "prefecture_kana": "アイチケン",
    "prefecture_code": 23,
    "city": "名古屋市熱田区",
    "city_kana": "ナゴヤシアツタク",
    "town": "青池町",
    "town_kana": "アオイケチョウ",
    "street": null,
    "office_name": null,
    "office_name_kana": null
  },
  "0076": {
    "postcode": "4560076",
    "prefecture": "愛知県",
    "prefecture_kana": "アイチケン",
    "prefecture_code": 23,
    "city": "名古屋市熱田区",
    "city_kana": "ナゴヤシアツタク",
    "town": "切戸町",
    "town_kana": "キレトチョウ",
    "street": null,
    "office_name": null,
    "office_name_kana": null
  },
  "0077": {
    "postcode": "4560077",
    "prefecture": "愛知県",
    "prefecture_kana": "アイチケン",
    "prefecture_code": 23,
    "city": "名古屋市熱田区",
    "city_kana": "ナゴヤシアツタク",
    "town": "幡野町",
    "town_kana": "ハタノチョウ",
    "street": null,
    "office_name": null,
    "office_name_kana": null
  },
  "0078": {
    "postcode": "4560078",
    "prefecture": "愛知県",
    "prefecture_kana": "アイチケン",
    "prefecture_code": 23,
    "city": "名古屋市熱田区",
    "city_kana": "ナゴヤシアツタク",
    "town": "南八熊町",
    "town_kana": "ミナミヤグマチョウ",
    "street": null,
    "office_name": null,
    "office_name_kana": null
  },
  "8501": {
    "postcode": "4568501",
    "prefecture": "愛知県",
    "prefecture_kana": "アイチケン",
    "prefecture_code": 23,
    "city": "名古屋市熱田区",
    "city_kana": "ナゴヤシアツタク",
    "town": "神宮",
    "town_kana": "ジングウ",
    "street": "３丁目１−１５",
    "office_name": "名古屋市熱田区役所",
    "office_name_kana": "ナゴヤシアツタクヤクシヨ"
  },
  "8502": {
    "postcode": "4568502",
    "prefecture": "愛知県",
    "prefecture_kana": "アイチケン",
    "prefecture_code": 23,
    "city": "名古屋市熱田区",
    "city_kana": "ナゴヤシアツタク",
    "town": "神宮",
    "town_kana": "ジングウ",
    "street": "三丁目１番１５号",
    "office_name": "郵送請求に係る証明書交付センター",
    "office_name_kana": "ユウソウセイキユウニカカルシヨウメイシヨコウフセンタ-"
  },
  "8503": {
    "postcode": "4568503",
    "prefecture": "愛知県",
    "prefecture_kana": "アイチケン",
    "prefecture_code": 23,
    "city": "名古屋市熱田区",
    "city_kana": "ナゴヤシアツタク",
    "town": "旗屋",
    "town_kana": "ハタヤ",
    "street": "二丁目２２番２１号",
    "office_name": "名古屋南公共職業安定所",
    "office_name_kana": "ナゴヤミナミコウキヨウシヨクギヨウアンテイシヨ"
  },
  "8511": {
    "postcode": "4568511",
    "prefecture": "愛知県",
    "prefecture_kana": "アイチケン",
    "prefecture_code": 23,
    "city": "名古屋市熱田区",
    "city_kana": "ナゴヤシアツタク",
    "town": "桜田町",
    "town_kana": "サクラダチョウ",
    "street": "１９−１８",
    "office_name": "東邦ガス　株式会社",
    "office_name_kana": "トウホウガス カブシキガイシヤ"
  },
  "8516": {
    "postcode": "4568516",
    "prefecture": "愛知県",
    "prefecture_kana": "アイチケン",
    "prefecture_code": 23,
    "city": "名古屋市熱田区",
    "city_kana": "ナゴヤシアツタク",
    "town": "五本松町",
    "town_kana": "ゴホンマツチョウ",
    "street": "１１−２２",
    "office_name": "株式会社　中部プラントサービス",
    "office_name_kana": "カブシキガイシヤ チユウブプラントサ-ビス"
  },
  "8523": {
    "postcode": "4568523",
    "prefecture": "愛知県",
    "prefecture_kana": "アイチケン",
    "prefecture_code": 23,
    "city": "名古屋市熱田区",
    "city_kana": "ナゴヤシアツタク",
    "town": "桜田町",
    "town_kana": "サクラダチョウ",
    "street": "２０−３４",
    "office_name": "愛知日産自動車　株式会社",
    "office_name_kana": "アイチニツサンジドウシヤ カブシキガイシヤ"
  },
  "8530": {
    "postcode": "4568530",
    "prefecture": "愛知県",
    "prefecture_kana": "アイチケン",
    "prefecture_code": 23,
    "city": "名古屋市熱田区",
    "city_kana": "ナゴヤシアツタク",
    "town": "金山町",
    "town_kana": "カナヤマチョウ",
    "street": "１丁目１２−７",
    "office_name": "全労済愛知県本部",
    "office_name_kana": "ゼンロウサイアイチケンホンブ"
  },
  "8544": {
    "postcode": "4568544",
    "prefecture": "愛知県",
    "prefecture_kana": "アイチケン",
    "prefecture_code": 23,
    "city": "名古屋市熱田区",
    "city_kana": "ナゴヤシアツタク",
    "town": "桜田町",
    "town_kana": "サクラダチョウ",
    "street": "１６番１７号",
    "office_name": "株式会社　日立産機システム　中部支社",
    "office_name_kana": "カブシキガイシヤ ヒタチサンキシステム チユウブシシヤ"
  },
  "8555": {
    "postcode": "4568555",
    "prefecture": "愛知県",
    "prefecture_kana": "アイチケン",
    "prefecture_code": 23,
    "city": "名古屋市熱田区",
    "city_kana": "ナゴヤシアツタク",
    "town": "尾頭町",
    "town_kana": "オトウチョウ",
    "street": "２−２２",
    "office_name": "名古屋トヨペット　株式会社",
    "office_name_kana": "ナゴヤトヨペツト カブシキガイシヤ"
  },
  "8556": {
    "postcode": "4568556",
    "prefecture": "愛知県",
    "prefecture_kana": "アイチケン",
    "prefecture_code": 23,
    "city": "名古屋市熱田区",
    "city_kana": "ナゴヤシアツタク",
    "town": "尾頭町",
    "town_kana": "オトウチョウ",
    "street": "２番２２号",
    "office_name": "ＮＴＰホールディングス　株式会社",
    "office_name_kana": "エヌテイピ-ホ-ルデイングス カブシキガイシヤ"
  },
  "8560": {
    "postcode": "4568560",
    "prefecture": "愛知県",
    "prefecture_kana": "アイチケン",
    "prefecture_code": 23,
    "city": "名古屋市熱田区",
    "city_kana": "ナゴヤシアツタク",
    "town": "新尾頭",
    "town_kana": "シンオトウ",
    "street": "２丁目２−６１",
    "office_name": "株式会社　名給",
    "office_name_kana": "カブシキガイシヤ メイキユウ"
  },
  "8567": {
    "postcode": "4568567",
    "prefecture": "愛知県",
    "prefecture_kana": "アイチケン",
    "prefecture_code": 23,
    "city": "名古屋市熱田区",
    "city_kana": "ナゴヤシアツタク",
    "town": "伝馬",
    "town_kana": "テンマ",
    "street": "２丁目３−１９",
    "office_name": "熱田社会保険事務所",
    "office_name_kana": "アツタシヤカイホケンジムシヨ"
  },
  "8580": {
    "postcode": "4568580",
    "prefecture": "愛知県",
    "prefecture_kana": "アイチケン",
    "prefecture_code": 23,
    "city": "名古屋市熱田区",
    "city_kana": "ナゴヤシアツタク",
    "town": "神宮",
    "town_kana": "ジングウ",
    "street": "３丁目６番３４号",
    "office_name": "株式会社　名鉄パレ管財",
    "office_name_kana": "カブシキガイシヤ メイテツパレカンザイ"
  },
  "8585": {
    "postcode": "4568585",
    "prefecture": "愛知県",
    "prefecture_kana": "アイチケン",
    "prefecture_code": 23,
    "city": "名古屋市熱田区",
    "city_kana": "ナゴヤシアツタク",
    "town": "神宮",
    "town_kana": "ジングウ",
    "street": "一丁目１−１",
    "office_name": "熱田神宮宮庁",
    "office_name_kana": "アツタジングウキユウチヨウ"
  },
  "8587": {
    "postcode": "4568587",
    "prefecture": "愛知県",
    "prefecture_kana": "アイチケン",
    "prefecture_code": 23,
    "city": "名古屋市熱田区",
    "city_kana": "ナゴヤシアツタク",
    "town": "六野",
    "town_kana": "ムツノ",
    "street": "２丁目４−１",
    "office_name": "財団法人　ファインセラミックスセンター",
    "office_name_kana": "ザイダンホウジン フアインセラミツクスセンタ-"
  },
  "8588": {
    "postcode": "4568588",
    "prefecture": "愛知県",
    "prefecture_kana": "アイチケン",
    "prefecture_code": 23,
    "city": "名古屋市熱田区",
    "city_kana": "ナゴヤシアツタク",
    "town": "白鳥",
    "town_kana": "シロトリ",
    "street": "２丁目１０番１０号",
    "office_name": "株式会社　山善　名古屋支社",
    "office_name_kana": "カブシキガイシヤ ヤマゼン ナゴヤシシヤ"
  },
  "8601": {
    "postcode": "4568601",
    "prefecture": "愛知県",
    "prefecture_kana": "アイチケン",
    "prefecture_code": 23,
    "city": "名古屋市熱田区",
    "city_kana": "ナゴヤシアツタク",
    "town": "川並町",
    "town_kana": "カワナミチョウ",
    "street": "２−１２",
    "office_name": "愛知機械工業　株式会社",
    "office_name_kana": "アイチキカイコウギヨウ カブシキガイシヤ"
  },
  "8602": {
    "postcode": "4568602",
    "prefecture": "愛知県",
    "prefecture_kana": "アイチケン",
    "prefecture_code": 23,
    "city": "名古屋市熱田区",
    "city_kana": "ナゴヤシアツタク",
    "town": "明野町",
    "town_kana": "アケノチョウ",
    "street": "２−３",
    "office_name": "株式会社　昭和",
    "office_name_kana": "カブシキガイシヤ シヨウワ"
  },
  "8610": {
    "postcode": "4568610",
    "prefecture": "愛知県",
    "prefecture_kana": "アイチケン",
    "prefecture_code": 23,
    "city": "名古屋市熱田区",
    "city_kana": "ナゴヤシアツタク",
    "town": "新尾頭",
    "town_kana": "シンオトウ",
    "street": "一丁目６番９号",
    "office_name": "伊藤忠食品　株式会社　東海営業本部",
    "office_name_kana": "イトウチユウシヨクヒン カブシキガイシヤ トウカイエイギヨウホンブ"
  },
  "8611": {
    "postcode": "4568611",
    "prefecture": "愛知県",
    "prefecture_kana": "アイチケン",
    "prefecture_code": 23,
    "city": "名古屋市熱田区",
    "city_kana": "ナゴヤシアツタク",
    "town": "五番町",
    "town_kana": "ゴバンチョウ",
    "street": "４−３３",
    "office_name": "みなと医療生活　協同組合　協立総合病院",
    "office_name_kana": "ミナトイリヨウセイカツ キヨウドウクミアイ キヨウリツソウゴウビヨウイン"
  },
  "8612": {
    "postcode": "4568612",
    "prefecture": "愛知県",
    "prefecture_kana": "アイチケン",
    "prefecture_code": 23,
    "city": "名古屋市熱田区",
    "city_kana": "ナゴヤシアツタク",
    "town": "熱田西町",
    "town_kana": "アツタニシマチ",
    "street": "１番２５号",
    "office_name": "学校法人　名古屋学院大学",
    "office_name_kana": "ガツコウホウジン ナゴヤガクインダイガク"
  },
  "8620": {
    "postcode": "4568620",
    "prefecture": "愛知県",
    "prefecture_kana": "アイチケン",
    "prefecture_code": 23,
    "city": "名古屋市熱田区",
    "city_kana": "ナゴヤシアツタク",
    "town": "熱田西町",
    "town_kana": "アツタニシマチ",
    "street": "１番２０号",
    "office_name": "中部森林管理局　名古屋事務所",
    "office_name_kana": "チユウブシンリンカンリキヨク ナゴヤジムシヨ"
  },
  "8666": {
    "postcode": "4568666",
    "prefecture": "愛知県",
    "prefecture_kana": "アイチケン",
    "prefecture_code": 23,
    "city": "名古屋市熱田区",
    "city_kana": "ナゴヤシアツタク",
    "town": "神野町",
    "town_kana": "ジンノチョウ",
    "street": "２丁目１８番地",
    "office_name": "アイホン　株式会社",
    "office_name_kana": "アイホン カブシキガイシヤ"
  },
  "8668": {
    "postcode": "4568668",
    "prefecture": "愛知県",
    "prefecture_kana": "アイチケン",
    "prefecture_code": 23,
    "city": "名古屋市熱田区",
    "city_kana": "ナゴヤシアツタク",
    "town": "大宝",
    "town_kana": "タイホウ",
    "street": "１丁目１３番２０号",
    "office_name": "ネッツトヨタ中京　株式会社",
    "office_name_kana": "ネツツトヨタチユウキヨウ カブシキガイシヤ"
  },
  "8686": {
    "postcode": "4568686",
    "prefecture": "愛知県",
    "prefecture_kana": "アイチケン",
    "prefecture_code": 23,
    "city": "名古屋市熱田区",
    "city_kana": "ナゴヤシアツタク",
    "town": "幡野町",
    "town_kana": "ハタノチョウ",
    "street": "１８−８",
    "office_name": "株式会社　イノアックリビング",
    "office_name_kana": "カブシキガイシヤ イノアツクリビング"
  },
  "8688": {
    "postcode": "4568688",
    "prefecture": "愛知県",
    "prefecture_kana": "アイチケン",
    "prefecture_code": 23,
    "city": "名古屋市熱田区",
    "city_kana": "ナゴヤシアツタク",
    "town": "川並町",
    "town_kana": "カワナミチョウ",
    "street": "２番２２号",
    "office_name": "名古屋青果　株式会社",
    "office_name_kana": "ナゴヤセイカ カブシキガイシヤ"
  },
  "8691": {
    "postcode": "4568691",
    "prefecture": "愛知県",
    "prefecture_kana": "アイチケン",
    "prefecture_code": 23,
    "city": "名古屋市熱田区",
    "city_kana": "ナゴヤシアツタク",
    "town": "三本松町",
    "town_kana": "サンボンマツチョウ",
    "street": "１番１号",
    "office_name": "日本車輌製造　株式会社　本社",
    "office_name_kana": "ニツポンシヤリヨウセイゾウ カブシキガイシヤ ホンシヤ"
  },
  "8711": {
    "postcode": "4568711",
    "prefecture": "愛知県",
    "prefecture_kana": "アイチケン",
    "prefecture_code": 23,
    "city": "名古屋市熱田区",
    "city_kana": "ナゴヤシアツタク",
    "town": "花表町",
    "town_kana": "ハナオモテチョウ",
    "street": "７−１７（熱田郵便局私書箱第７号）",
    "office_name": "熱田税務署",
    "office_name_kana": "アツタゼイムシヨ"
  },
  "8739": {
    "postcode": "4568739",
    "prefecture": "愛知県",
    "prefecture_kana": "アイチケン",
    "prefecture_code": 23,
    "city": "名古屋市熱田区",
    "city_kana": "ナゴヤシアツタク",
    "town": "新尾頭",
    "town_kana": "シンオトウ",
    "street": "２丁目２−３３（熱田郵便局私書箱第７１号）",
    "office_name": "商工組合中央金庫　熱田支店",
    "office_name_kana": "シヨウコウクミアイチユウオウキンコ アツタシテン"
  },
  "8763": {
    "postcode": "4568763",
    "prefecture": "愛知県",
    "prefecture_kana": "アイチケン",
    "prefecture_code": 23,
    "city": "名古屋市熱田区",
    "city_kana": "ナゴヤシアツタク",
    "town": "六野",
    "town_kana": "ムツノ",
    "street": "１丁目２−１１",
    "office_name": "イオン熱田ショッピングセンター",
    "office_name_kana": "イオンアツタシヨツピングセンタ-"
  }
}