{
  "0000": {
    "postcode": "4570000",
    "prefecture": "愛知県",
    "prefecture_kana": "アイチケン",
    "prefecture_code": 23,
    "city": "名古屋市南区",
    "city_kana": "ナゴヤシミナミク",
    "town": "",
    "town_kana": "",
    "street": null,
    "office_name": null,
    "office_name_kana": null
  },
  "0001": {
    "postcode": "4570001",
    "prefecture": "愛知県",
    "prefecture_kana": "アイチケン",
    "prefecture_code": 23,
    "city": "名古屋市南区",
    "city_kana": "ナゴヤシミナミク",
    "town": "平子",
    "town_kana": "ヒラコ",
    "street": null,
    "office_name": null,
    "office_name_kana": null
  },
  "0002": {
    "postcode": "4570002",
    "prefecture": "愛知県",
    "prefecture_kana": "アイチケン",
    "prefecture_code": 23,
    "city": "名古屋市南区",
    "city_kana": "ナゴヤシミナミク",
    "town": "大堀町",
    "town_kana": "オオホリチョウ",
    "street": null,
    "office_name": null,
    "office_name_kana": null
  },
  "0003": {
    "postcode": "4570003",
    "prefecture": "愛知県",
    "prefecture_kana": "アイチケン",
    "prefecture_code": 23,
    "city": "名古屋市南区",
    "city_kana": "ナゴヤシミナミク",
    "town": "鶴田",
    "town_kana": "ツルタ",
    "street": null,
    "office_name": null,
    "office_name_kana": null
  },
  "0004": {
    "postcode": "4570004",
    "prefecture": "愛知県",
    "prefecture_kana": "アイチケン",
    "prefecture_code": 23,
    "city": "名古屋市南区",
    "city_kana": "ナゴヤシミナミク",
    "town": "中江",
    "town_kana": "ナカエ",
    "street": null,
    "office_name": null,
    "office_name_kana": null
  },
  "0005": {
    "postcode": "4570005",
    "prefecture": "愛知県",
    "prefecture_kana": "アイチケン",
    "prefecture_code": 23,
    "city": "名古屋市南区",
    "city_kana": "ナゴヤシミナミク",
    "town": "桜台",
    "town_kana": "サクラダイ",
    "street": null,
    "office_name": null,
    "office_name_kana": null
  },
  "0006": {
    "postcode": "4570006",
    "prefecture": "愛知県",
    "prefecture_kana": "アイチケン",
    "prefecture_code": 23,
    "city": "名古屋市南区",
    "city_kana": "ナゴヤシミナミク",
    "town": "鳥栖",
    "town_kana": "トリス",
    "street": null,
    "office_name": null,
    "office_name_kana": null
  },
  "0007": {
    "postcode": "4570007",
    "prefecture": "愛知県",
    "prefecture_kana": "アイチケン",
    "prefecture_code": 23,
    "city": "名古屋市南区",
    "city_kana": "ナゴヤシミナミク",
    "town": "駈上",
    "town_kana": "カケアゲ",
    "street": null,
    "office_name": null,
    "office_name_kana": null
  },
  "0008": {
    "postcode": "4570008",
    "prefecture": "愛知県",
    "prefecture_kana": "アイチケン",
    "prefecture_code": 23,
    "city": "名古屋市南区",
    "city_kana": "ナゴヤシミナミク",
    "town": "外山",
    "town_kana": "ソトヤマ",
    "street": null,
    "office_name": null,
    "office_name_kana": null
  },
  "0011": {
    "postcode": "4570011",
    "prefecture": "愛知県",
    "prefecture_kana": "アイチケン",
    "prefecture_code": 23,
    "city": "名古屋市南区",
    "city_kana": "ナゴヤシミナミク",
    "town": "呼続元町",
    "town_kana": "ヨビツギモトマチ",
    "street": null,
    "office_name": null,
    "office_name_kana": null
  },
  "0012": {
    "postcode": "4570012",
    "prefecture": "愛知県",
    "prefecture_kana": "アイチケン",
    "prefecture_code": 23,
    "city": "名古屋市南区",
    "city_kana": "ナゴヤシミナミク",
    "town": "菊住",
    "town_kana": "キクスミ",
    "street": null,
    "office_name": null,
    "office_name_kana": null
  },
  "0013": {
    "postcode": "4570013",
    "prefecture": "愛知県",
    "prefecture_kana": "アイチケン",
    "prefecture_code": 23,
    "city": "名古屋市南区",
    "city_kana": "ナゴヤシミナミク",
    "town": "寺崎町",
    "town_kana": "テラサキチョウ",
    "street": null,
    "office_name": null,
    "office_name_kana": null
  },
  "0014": {
    "postcode": "4570014",
    "prefecture": "愛知県",
    "prefecture_kana": "アイチケン",
    "prefecture_code": 23,
    "city": "名古屋市南区",
    "city_kana": "ナゴヤシミナミク",
    "town": "呼続",
    "town_kana": "ヨビツギ",
    "street": null,
    "office_name": null,
    "office_name_kana": null
  },
  "0015": {
    "postcode": "4570015",
    "prefecture": "愛知県",
    "prefecture_kana": "アイチケン",
    "prefecture_code": 23,
    "city": "名古屋市南区",
    "city_kana": "ナゴヤシミナミク",
    "town": "岩戸町",
    "town_kana": "イワトチョウ",
    "street": null,
    "office_name": null,
    "office_name_kana": null
  },
  "0016": {
    "postcode": "4570016",
    "prefecture": "愛知県",
    "prefecture_kana": "アイチケン",
    "prefecture_code": 23,
    "city": "名古屋市南区",
    "city_kana": "ナゴヤシミナミク",
    "town": "汐田町",
    "town_kana": "シオダチョウ",
    "street": null,
    "office_name": null,
    "office_name_kana": null
  },
  "0021": {
    "postcode": "4570021",
    "prefecture": "愛知県",
    "prefecture_kana": "アイチケン",
    "prefecture_code": 23,
    "city": "名古屋市南区",
    "city_kana": "ナゴヤシミナミク",
    "town": "鶴里町",
    "town_kana": "ツルサトチョウ",
    "street": null,
    "office_name": null,
    "office_name_kana": null
  },
  "0022": {
    "postcode": "4570022",
    "prefecture": "愛知県",
    "prefecture_kana": "アイチケン",
    "prefecture_code": 23,
    "city": "名古屋市南区",
    "city_kana": "ナゴヤシミナミク",
    "town": "明円町",
    "town_kana": "ミョウエンチョウ",
    "street": null,
    "office_name": null,
    "office_name_kana": null
  },
  "0023": {
    "postcode": "4570023",
    "prefecture": "愛知県",
    "prefecture_kana": "アイチケン",
    "prefecture_code": 23,
    "city": "名古屋市南区",
    "city_kana": "ナゴヤシミナミク",
    "town": "芝町",
    "town_kana": "シバチョウ",
    "street": null,
    "office_name": null,
    "office_name_kana": null
  },
  "0024": {
    "postcode": "4570024",
    "prefecture": "愛知県",
    "prefecture_kana": "アイチケン",
    "prefecture_code": 23,
    "city": "名古屋市南区",
    "city_kana": "ナゴヤシミナミク",
    "town": "赤坪町",
    "town_kana": "アカツボチョウ",
    "street": null,
    "office_name": null,
    "office_name_kana": null
  },
  "0025": {
    "postcode": "4570025",
    "prefecture": "愛知県",
    "prefecture_kana": "アイチケン",
    "prefecture_code": 23,
    "city": "名古屋市南区",
    "city_kana": "ナゴヤシミナミク",
    "town": "白雲町",
    "town_kana": "ハクウンチョウ",
    "street": null,
    "office_name": null,
    "office_name_kana": null
  },
  "0026": {
    "postcode": "4570026",
    "prefecture": "愛知県",
    "prefecture_kana": "アイチケン",
    "prefecture_code": 23,
    "city": "名古屋市南区",
    "city_kana": "ナゴヤシミナミク",
    "town": "見晴町",
    "town_kana": "ミハラシチョウ",
    "street": null,
    "office_name": null,
    "office_name_kana": null
  },
  "0027": {
    "postcode": "4570027",
    "prefecture": "愛知県",
    "prefecture_kana": "アイチケン",
    "prefecture_code": 23,
    "city": "名古屋市南区",
    "city_kana": "ナゴヤシミナミク",
    "town": "弥生町",
    "town_kana": "ヤヨイチョウ",
    "street": null,
    "office_name": null,
    "office_name_kana": null
  },
  "0028": {
    "postcode": "4570028",
    "prefecture": "愛知県",
    "prefecture_kana": "アイチケン",
    "prefecture_code": 23,
    "city": "名古屋市南区",
    "city_kana": "ナゴヤシミナミク",
    "town": "楠町",
    "town_kana": "クスノキチョウ",
    "street": null,
    "office_name": null,
    "office_name_kana": null
  },
  "0031": {
    "postcode": "4570031",
    "prefecture": "愛知県",
    "prefecture_kana": "アイチケン",
    "prefecture_code": 23,
    "city": "名古屋市南区",
    "city_kana": "ナゴヤシミナミク",
    "town": "鯛取通",
    "town_kana": "タイトリトオリ",
    "street": null,
    "office_name": null,
    "office_name_kana": null
  },
  "0032": {
    "postcode": "4570032",
    "prefecture": "愛知県",
    "prefecture_kana": "アイチケン",
    "prefecture_code": 23,
    "city": "名古屋市南区",
    "city_kana": "ナゴヤシミナミク",
    "town": "元桜田町",
    "town_kana": "モトサクラダチョウ",
    "street": null,
    "office_name": null,
    "office_name_kana": null
  },
  "0033": {
    "postcode": "4570033",
    "prefecture": "愛知県",
    "prefecture_kana": "アイチケン",
    "prefecture_code": 23,
    "city": "名古屋市南区",
    "city_kana": "ナゴヤシミナミク",
    "town": "霞町",
    "town_kana": "カスミチョウ",
    "street": null,
    "office_name": null,
    "office_name_kana": null
  },
  "0034": {
    "postcode": "4570034",
    "prefecture": "愛知県",
    "prefecture_kana": "アイチケン",
    "prefecture_code": 23,
    "city": "名古屋市南区",
    "city_kana": "ナゴヤシミナミク",
    "town": "春日野町",
    "town_kana": "カスガノチョウ",
    "street": null,
    "office_name": null,
    "office_name_kana": null
  },
  "0035": {
    "postcode": "4570035",
    "prefecture": "愛知県",
    "prefecture_kana": "アイチケン",
    "prefecture_code": 23,
    "city": "名古屋市南区",
    "city_kana": "ナゴヤシミナミク",
    "town": "貝塚町",
    "town_kana": "カイヅカチョウ",
    "street": null,
    "office_name": null,
    "office_name_kana": null
  },
  "0036": {
    "postcode": "4570036",
    "prefecture": "愛知県",
    "prefecture_kana": "アイチケン",
    "prefecture_code": 23,
    "city": "名古屋市南区",
    "city_kana": "ナゴヤシミナミク",
    "town": "若草町",
    "town_kana": "ワカクサチョウ",
    "street": null,
    "office_name": null,
    "office_name_kana": null
  },
  "0037": {
    "postcode": "4570037",
    "prefecture": "愛知県",
    "prefecture_kana": "アイチケン",
    "prefecture_code": 23,
    "city": "名古屋市南区",
    "city_kana": "ナゴヤシミナミク",
    "town": "扇田町",
    "town_kana": "オウギダチョウ",
    "street": null,
    "office_name": null,
    "office_name_kana": null
  },
  "0038": {
    "postcode": "4570038",
    "prefecture": "愛知県",
    "prefecture_kana": "アイチケン",
    "prefecture_code": 23,
    "city": "名古屋市南区",
    "city_kana": "ナゴヤシミナミク",
    "town": "桜本町",
    "town_kana": "サクラホンマチ",
    "street": null,
    "office_name": null,
    "office_name_kana": null
  },
  "0039": {
    "postcode": "4570039",
    "prefecture": "愛知県",
    "prefecture_kana": "アイチケン",
    "prefecture_code": 23,
    "city": "名古屋市南区",
    "city_kana": "ナゴヤシミナミク",
    "town": "西桜町",
    "town_kana": "ニシサクラチョウ",
    "street": null,
    "office_name": null,
    "office_name_kana": null
  },
  "0041": {
    "postcode": "4570041",
    "prefecture": "愛知県",
    "prefecture_kana": "アイチケン",
    "prefecture_code": 23,
    "city": "名古屋市南区",
    "city_kana": "ナゴヤシミナミク",
    "town": "薬師通",
    "town_kana": "ヤクシドオリ",
    "street": null,
    "office_name": null,
    "office_name_kana": null
  },
  "0042": {
    "postcode": "4570042",
    "prefecture": "愛知県",
    "prefecture_kana": "アイチケン",
    "prefecture_code": 23,
    "city": "名古屋市南区",
    "city_kana": "ナゴヤシミナミク",
    "town": "曽池町",
    "town_kana": "ソイケチョウ",
    "street": null,
    "office_name": null,
    "office_name_kana": null
  },
  "0043": {
    "postcode": "4570043",
    "prefecture": "愛知県",
    "prefecture_kana": "アイチケン",
    "prefecture_code": 23,
    "city": "名古屋市南区",
    "city_kana": "ナゴヤシミナミク",
    "town": "戸部町",
    "town_kana": "トベチョウ",
    "street": null,
    "office_name": null,
    "office_name_kana": null
  },
  "0044": {
    "postcode": "4570044",
    "prefecture": "愛知県",
    "prefecture_kana": "アイチケン",
    "prefecture_code": 23,
    "city": "名古屋市南区",
    "city_kana": "ナゴヤシミナミク",
    "town": "柵下町",
    "town_kana": "サクシタチョウ",
    "street": null,
    "office_name": null,
    "office_name_kana": null
  },
  "0045": {
    "postcode": "4570045",
    "prefecture": "愛知県",
    "prefecture_kana": "アイチケン",
    "prefecture_code": 23,
    "city": "名古屋市南区",
    "city_kana": "ナゴヤシミナミク",
    "town": "松城町",
    "town_kana": "マツシロチョウ",
    "street": null,
    "office_name": null,
    "office_name_kana": null
  },
  "0046": {
    "postcode": "4570046",
    "prefecture": "愛知県",
    "prefecture_kana": "アイチケン",
    "prefecture_code": 23,
    "city": "名古屋市南区",
    "city_kana": "ナゴヤシミナミク",
    "town": "松池町",
    "town_kana": "マツイケチョウ",
    "street": null,
    "office_name": null,
    "office_name_kana": null
  },
  "0047": {
    "postcode": "4570047",
    "prefecture": "愛知県",
    "prefecture_kana": "アイチケン",
    "prefecture_code": 23,
    "city": "名古屋市南区",
    "city_kana": "ナゴヤシミナミク",
    "town": "城下町",
    "town_kana": "シロシタチョウ",
    "street": null,
    "office_name": null,
    "office_name_kana": null
  },
  "0048": {
    "postcode": "4570048",
    "prefecture": "愛知県",
    "prefecture_kana": "アイチケン",
    "prefecture_code": 23,
    "city": "名古屋市南区",
    "city_kana": "ナゴヤシミナミク",
    "town": "大磯通",
    "town_kana": "オオイソトオリ",
    "street": null,
    "office_name": null,
    "office_name_kana": null
  },
  "0049": {
    "postcode": "4570049",
    "prefecture": "愛知県",
    "prefecture_kana": "アイチケン",
    "prefecture_code": 23,
    "city": "名古屋市南区",
    "city_kana": "ナゴヤシミナミク",
    "town": "北内町",
    "town_kana": "キタウチチョウ",
    "street": null,
    "office_name": null,
    "office_name_kana": null
  },
  "0051": {
    "postcode": "4570051",
    "prefecture": "愛知県",
    "prefecture_kana": "アイチケン",
    "prefecture_code": 23,
    "city": "名古屋市南区",
    "city_kana": "ナゴヤシミナミク",
    "town": "笠寺町",
    "town_kana": "カサデラチョウ",
    "street": null,
    "office_name": null,
    "office_name_kana": null
  },
  "0052": {
    "postcode": "4570052",
    "prefecture": "愛知県",
    "prefecture_kana": "アイチケン",
    "prefecture_code": 23,
    "city": "名古屋市南区",
    "city_kana": "ナゴヤシミナミク",
    "town": "粕畠町",
    "town_kana": "カスバタチョウ",
    "street": null,
    "office_name": null,
    "office_name_kana": null
  },
  "0053": {
    "postcode": "4570053",
    "prefecture": "愛知県",
    "prefecture_kana": "アイチケン",
    "prefecture_code": 23,
    "city": "名古屋市南区",
    "city_kana": "ナゴヤシミナミク",
    "town": "本城町",
    "town_kana": "ホンジョウチョウ",
    "street": null,
    "office_name": null,
    "office_name_kana": null
  },
  "0054": {
    "postcode": "4570054",
    "prefecture": "愛知県",
    "prefecture_kana": "アイチケン",
    "prefecture_code": 23,
    "city": "名古屋市南区",
    "city_kana": "ナゴヤシミナミク",
    "town": "砂口町",
    "town_kana": "スナクチチョウ",
    "street": null,
    "office_name": null,
    "office_name_kana": null
  },
  "0055": {
    "postcode": "4570055",
    "prefecture": "愛知県",
    "prefecture_kana": "アイチケン",
    "prefecture_code": 23,
    "city": "名古屋市南区",
    "city_kana": "ナゴヤシミナミク",
    "town": "星宮町",
    "town_kana": "ホシミヤチョウ",
    "street": null,
    "office_name": null,
    "office_name_kana": null
  },
  "0056": {
    "postcode": "4570056",
    "prefecture": "愛知県",
    "prefecture_kana": "アイチケン",
    "prefecture_code": 23,
    "city": "名古屋市南区",
    "city_kana": "ナゴヤシミナミク",
    "town": "本星崎町",
    "town_kana": "モトホシザキチョウ",
    "street": null,
    "office_name": null,
    "office_name_kana": null
  },
  "0057": {
    "postcode": "4570057",
    "prefecture": "愛知県",
    "prefecture_kana": "アイチケン",
    "prefecture_code": 23,
    "city": "名古屋市南区",
    "city_kana": "ナゴヤシミナミク",
    "town": "鳥山町",
    "town_kana": "トリヤマチョウ",
    "street": null,
    "office_name": null,
    "office_name_kana": null
  },
  "0058": {
    "postcode": "4570058",
    "prefecture": "愛知県",
    "prefecture_kana": "アイチケン",
    "prefecture_code": 23,
    "city": "名古屋市南区",
    "city_kana": "ナゴヤシミナミク",
    "town": "前浜通",
    "town_kana": "マエハマドオリ",
    "street": null,
    "office_name": null,
    "office_name_kana": null
  },
  "0061": [
    {
      "postcode": "4570061",
      "prefecture": "愛知県",
      "prefecture_kana": "アイチケン",
      "prefecture_code": 23,
      "city": "名古屋市南区",
      "city_kana": "ナゴヤシミナミク",
      "town": "星崎町",
      "town_kana": "ホシザキチョウ",
      "street": null,
      "office_name": null,
      "office_name_kana": null
    },
    {
      "postcode": "4570061",
      "prefecture": "愛知県",
      "prefecture_kana": "アイチケン",
      "prefecture_code": 23,
      "city": "名古屋市南区",
      "city_kana": "ナゴヤシミナミク",
      "town": "星崎町殿海道",
      "town_kana": "ホシザキチョウトノカイドウ",
      "street": null,
      "office_name": null,
      "office_name_kana": null
    }
  ],
  "0062": [
    {
      "postcode": "4570062",
      "prefecture": "愛知県",
      "prefecture_kana": "アイチケン",
      "prefecture_code": 23,
      "city": "名古屋市南区",
      "city_kana": "ナゴヤシミナミク",
      "town": "星崎町",
      "town_kana": "ホシザキチョウ",
      "street": null,
      "office_name": null,
      "office_name_kana": null
    },
    {
      "postcode": "4570062",
      "prefecture": "愛知県",
      "prefecture_kana": "アイチケン",
      "prefecture_code": 23,
      "city": "名古屋市南区",
      "city_kana": "ナゴヤシミナミク",
      "town": "星崎町阿原",
      "town_kana": "ホシザキチョウアハラ",
      "street": null,
      "office_name": null,
      "office_name_kana": null
    }
  ],
  "0063": {
    "postcode": "4570063",
    "prefecture": "愛知県",
    "prefecture_kana": "アイチケン",
    "prefecture_code": 23,
    "city": "名古屋市南区",
    "city_kana": "ナゴヤシミナミク",
    "town": "阿原町",
    "town_kana": "アハラチョウ",
    "street": null,
    "office_name": null,
    "office_name_kana": null
  },
  "0064": {
    "postcode": "4570064",
    "prefecture": "愛知県",
    "prefecture_kana": "アイチケン",
    "prefecture_code": 23,
    "city": "名古屋市南区",
    "city_kana": "ナゴヤシミナミク",
    "town": "星崎",
    "town_kana": "ホシザキ",
    "street": null,
    "office_name": null,
    "office_name_kana": null
  },
  "0065": {
    "postcode": "4570065",
    "prefecture": "愛知県",
    "prefecture_kana": "アイチケン",
    "prefecture_code": 23,
    "city": "名古屋市南区",
    "city_kana": "ナゴヤシミナミク",
    "town": "元鳴尾町",
    "town_kana": "モトナルオチョウ",
    "street": null,
    "office_name": null,
    "office_name_kana": null
  },
  "0066": {
    "postcode": "4570066",
    "prefecture": "愛知県",
    "prefecture_kana": "アイチケン",
    "prefecture_code": 23,
    "city": "名古屋市南区",
    "city_kana": "ナゴヤシミナミク",
    "town": "鳴尾",
    "town_kana": "ナルオ",
    "street": null,
    "office_name": null,
    "office_name_kana": null
  },
  "0067": {
    "postcode": "4570067",
    "prefecture": "愛知県",
    "prefecture_kana": "アイチケン",
    "prefecture_code": 23,
    "city": "名古屋市南区",
    "city_kana": "ナゴヤシミナミク",
    "town": "上浜町",
    "town_kana": "カミハマチョウ",
    "street": null,
    "office_name": null,
    "office_name_kana": null
  },
  "0068": {
    "postcode": "4570068",
    "prefecture": "愛知県",
    "prefecture_kana": "アイチケン",
    "prefecture_code": 23,
    "city": "名古屋市南区",
    "city_kana": "ナゴヤシミナミク",
    "town": "南野",
    "town_kana": "ミナミノ",
    "street": null,
    "office_name": null,
    "office_name_kana": null
  },
  "0069": {
    "postcode": "4570069",
    "prefecture": "愛知県",
    "prefecture_kana": "アイチケン",
    "prefecture_code": 23,
    "city": "名古屋市南区",
    "city_kana": "ナゴヤシミナミク",
    "town": "星園町",
    "town_kana": "ホシゾノチョウ",
    "street": null,
    "office_name": null,
    "office_name_kana": null
  },
  "0071": {
    "postcode": "4570071",
    "prefecture": "愛知県",
    "prefecture_kana": "アイチケン",
    "prefecture_code": 23,
    "city": "名古屋市南区",
    "city_kana": "ナゴヤシミナミク",
    "town": "千竈通",
    "town_kana": "チカマトオリ",
    "street": null,
    "office_name": null,
    "office_name_kana": null
  },
  "0072": {
    "postcode": "4570072",
    "prefecture": "愛知県",
    "prefecture_kana": "アイチケン",
    "prefecture_code": 23,
    "city": "名古屋市南区",
    "city_kana": "ナゴヤシミナミク",
    "town": "寺部通",
    "town_kana": "テラベドオリ",
    "street": null,
    "office_name": null,
    "office_name_kana": null
  },
  "0073": {
    "postcode": "4570073",
    "prefecture": "愛知県",
    "prefecture_kana": "アイチケン",
    "prefecture_code": 23,
    "city": "名古屋市南区",
    "city_kana": "ナゴヤシミナミク",
    "town": "西田町",
    "town_kana": "ニシダチョウ",
    "street": null,
    "office_name": null,
    "office_name_kana": null
  },
  "0074": {
    "postcode": "4570074",
    "prefecture": "愛知県",
    "prefecture_kana": "アイチケン",
    "prefecture_code": 23,
    "city": "名古屋市南区",
    "city_kana": "ナゴヤシミナミク",
    "town": "本地通",
    "town_kana": "ホンジドオリ",
    "street": null,
    "office_name": null,
    "office_name_kana": null
  },
  "0075": {
    "postcode": "4570075",
    "prefecture": "愛知県",
    "prefecture_kana": "アイチケン",
    "prefecture_code": 23,
    "city": "名古屋市南区",
    "city_kana": "ナゴヤシミナミク",
    "town": "石元町",
    "town_kana": "イシモトチョウ",
    "street": null,
    "office_name": null,
    "office_name_kana": null
  },
  "0076": {
    "postcode": "4570076",
    "prefecture": "愛知県",
    "prefecture_kana": "アイチケン",
    "prefecture_code": 23,
    "city": "名古屋市南区",
    "city_kana": "ナゴヤシミナミク",
    "town": "道全町",
    "town_kana": "ドウゼンチョウ",
    "street": null,
    "office_name": null,
    "office_name_kana": null
  },
  "0077": {
    "postcode": "4570077",
    "prefecture": "愛知県",
    "prefecture_kana": "アイチケン",
    "prefecture_code": 23,
    "city": "名古屋市南区",
    "city_kana": "ナゴヤシミナミク",
    "town": "立脇町",
    "town_kana": "タテワキチョウ",
    "street": null,
    "office_name": null,
    "office_name_kana": null
  },
  "0078": {
    "postcode": "4570078",
    "prefecture": "愛知県",
    "prefecture_kana": "アイチケン",
    "prefecture_code": 23,
    "city": "名古屋市南区",
    "city_kana": "ナゴヤシミナミク",
    "town": "塩屋町",
    "town_kana": "シオヤチョウ",
    "street": null,
    "office_name": null,
    "office_name_kana": null
  },
  "0801": {
    "postcode": "4570801",
    "prefecture": "愛知県",
    "prefecture_kana": "アイチケン",
    "prefecture_code": 23,
    "city": "名古屋市南区",
    "city_kana": "ナゴヤシミナミク",
    "town": "丹後通",
    "town_kana": "タンゴトオリ",
    "street": null,
    "office_name": null,
    "office_name_kana": null
  },
  "0802": {
    "postcode": "4570802",
    "prefecture": "愛知県",
    "prefecture_kana": "アイチケン",
    "prefecture_code": 23,
    "city": "名古屋市南区",
    "city_kana": "ナゴヤシミナミク",
    "town": "要町",
    "town_kana": "カナメチョウ",
    "street": null,
    "office_name": null,
    "office_name_kana": null
  },
  "0803": {
    "postcode": "4570803",
    "prefecture": "愛知県",
    "prefecture_kana": "アイチケン",
    "prefecture_code": 23,
    "city": "名古屋市南区",
    "city_kana": "ナゴヤシミナミク",
    "town": "天白町",
    "town_kana": "テンパクチョウ",
    "street": null,
    "office_name": null,
    "office_name_kana": null
  },
  "0804": {
    "postcode": "4570804",
    "prefecture": "愛知県",
    "prefecture_kana": "アイチケン",
    "prefecture_code": 23,
    "city": "名古屋市南区",
    "city_kana": "ナゴヤシミナミク",
    "town": "源兵衛町",
    "town_kana": "ゲンベエチョウ",
    "street": null,
    "office_name": null,
    "office_name_kana": null
  },
  "0805": {
    "postcode": "4570805",
    "prefecture": "愛知県",
    "prefecture_kana": "アイチケン",
    "prefecture_code": 23,
    "city": "名古屋市南区",
    "city_kana": "ナゴヤシミナミク",
    "town": "三吉町",
    "town_kana": "ミヨシチョウ",
    "street": null,
    "office_name": null,
    "office_name_kana": null
  },
  "0806": {
    "postcode": "4570806",
    "prefecture": "愛知県",
    "prefecture_kana": "アイチケン",
    "prefecture_code": 23,
    "city": "名古屋市南区",
    "city_kana": "ナゴヤシミナミク",
    "town": "鳴浜町",
    "town_kana": "ナルハマチョウ",
    "street": null,
    "office_name": null,
    "office_name_kana": null
  },
  "0807": {
    "postcode": "4570807",
    "prefecture": "愛知県",
    "prefecture_kana": "アイチケン",
    "prefecture_code": 23,
    "city": "名古屋市南区",
    "city_kana": "ナゴヤシミナミク",
    "town": "鶴見通",
    "town_kana": "ツルミトオリ",
    "street": null,
    "office_name": null,
    "office_name_kana": null
  },
  "0808": {
    "postcode": "4570808",
    "prefecture": "愛知県",
    "prefecture_kana": "アイチケン",
    "prefecture_code": 23,
    "city": "名古屋市南区",
    "city_kana": "ナゴヤシミナミク",
    "town": "松下町",
    "town_kana": "マツシタチョウ",
    "street": null,
    "office_name": null,
    "office_name_kana": null
  },
  "0811": {
    "postcode": "4570811",
    "prefecture": "愛知県",
    "prefecture_kana": "アイチケン",
    "prefecture_code": 23,
    "city": "名古屋市南区",
    "city_kana": "ナゴヤシミナミク",
    "town": "大同町",
    "town_kana": "ダイドウチョウ",
    "street": null,
    "office_name": null,
    "office_name_kana": null
  },
  "0812": {
    "postcode": "4570812",
    "prefecture": "愛知県",
    "prefecture_kana": "アイチケン",
    "prefecture_code": 23,
    "city": "名古屋市南区",
    "city_kana": "ナゴヤシミナミク",
    "town": "星崎町",
    "town_kana": "ホシザキチョウ",
    "street": null,
    "office_name": null,
    "office_name_kana": null
  },
  "0813": [
    {
      "postcode": "4570813",
      "prefecture": "愛知県",
      "prefecture_kana": "アイチケン",
      "prefecture_code": 23,
      "city": "名古屋市南区",
      "city_kana": "ナゴヤシミナミク",
      "town": "鳴尾町",
      "town_kana": "ナルオチョウ",
      "street": null,
      "office_name": null,
      "office_name_kana": null
    },
    {
      "postcode": "4570813",
      "prefecture": "愛知県",
      "prefecture_kana": "アイチケン",
      "prefecture_code": 23,
      "city": "名古屋市南区",
      "city_kana": "ナゴヤシミナミク",
      "town": "鳴尾町丹後江",
      "town_kana": "ナルオチョウタンゴエ",
      "street": null,
      "office_name": null,
      "office_name_kana": null
    }
  ],
  "0814": {
    "postcode": "4570814",
    "prefecture": "愛知県",
    "prefecture_kana": "アイチケン",
    "prefecture_code": 23,
    "city": "名古屋市南区",
    "city_kana": "ナゴヤシミナミク",
    "town": "柴田本通",
    "town_kana": "シバタホンドオリ",
    "street": null,
    "office_name": null,
    "office_name_kana": null
  },
  "0815": {
    "postcode": "4570815",
    "prefecture": "愛知県",
    "prefecture_kana": "アイチケン",
    "prefecture_code": 23,
    "city": "名古屋市南区",
    "city_kana": "ナゴヤシミナミク",
    "town": "柴田町",
    "town_kana": "シバタチョウ",
    "street": null,
    "office_name": null,
    "office_name_kana": null
  },
  "0816": {
    "postcode": "4570816",
    "prefecture": "愛知県",
    "prefecture_kana": "アイチケン",
    "prefecture_code": 23,
    "city": "名古屋市南区",
    "city_kana": "ナゴヤシミナミク",
    "town": "元柴田東町",
    "town_kana": "モトシバタヒガシマチ",
    "street": null,
    "office_name": null,
    "office_name_kana": null
  },
  "0817": {
    "postcode": "4570817",
    "prefecture": "愛知県",
    "prefecture_kana": "アイチケン",
    "prefecture_code": 23,
    "city": "名古屋市南区",
    "city_kana": "ナゴヤシミナミク",
    "town": "元柴田西町",
    "town_kana": "モトシバタニシマチ",
    "street": null,
    "office_name": null,
    "office_name_kana": null
  },
  "0818": {
    "postcode": "4570818",
    "prefecture": "愛知県",
    "prefecture_kana": "アイチケン",
    "prefecture_code": 23,
    "city": "名古屋市南区",
    "city_kana": "ナゴヤシミナミク",
    "town": "白水町",
    "town_kana": "ハクスイチョウ",
    "street": null,
    "office_name": null,
    "office_name_kana": null
  },
  "0819": {
    "postcode": "4570819",
    "prefecture": "愛知県",
    "prefecture_kana": "アイチケン",
    "prefecture_code": 23,
    "city": "名古屋市南区",
    "city_kana": "ナゴヤシミナミク",
    "town": "滝春町",
    "town_kana": "タキハルチョウ",
    "street": null,
    "office_name": null,
    "office_name_kana": null
  },
  "0821": {
    "postcode": "4570821",
    "prefecture": "愛知県",
    "prefecture_kana": "アイチケン",
    "prefecture_code": 23,
    "city": "名古屋市南区",
    "city_kana": "ナゴヤシミナミク",
    "town": "弥次ヱ町",
    "town_kana": "ヤジエチョウ",
    "street": null,
    "office_name": null,
    "office_name_kana": null
  },
  "0822": {
    "postcode": "4570822",
    "prefecture": "愛知県",
    "prefecture_kana": "アイチケン",
    "prefecture_code": 23,
    "city": "名古屋市南区",
    "city_kana": "ナゴヤシミナミク",
    "town": "浜田町",
    "town_kana": "ハマダチョウ",
    "street": null,
    "office_name": null,
    "office_name_kana": null
  },
  "0823": {
    "postcode": "4570823",
    "prefecture": "愛知県",
    "prefecture_kana": "アイチケン",
    "prefecture_code": 23,
    "city": "名古屋市南区",
    "city_kana": "ナゴヤシミナミク",
    "town": "元塩町",
    "town_kana": "モトシオチョウ",
    "street": null,
    "office_name": null,
    "office_name_kana": null
  },
  "0824": {
    "postcode": "4570824",
    "prefecture": "愛知県",
    "prefecture_kana": "アイチケン",
    "prefecture_code": 23,
    "city": "名古屋市南区",
    "city_kana": "ナゴヤシミナミク",
    "town": "神松町",
    "town_kana": "カミマツチョウ",
    "street": null,
    "office_name": null,
    "office_name_kana": null
  },
  "0825": {
    "postcode": "4570825",
    "prefecture": "愛知県",
    "prefecture_kana": "アイチケン",
    "prefecture_code": 23,
    "city": "名古屋市南区",
    "city_kana": "ナゴヤシミナミク",
    "town": "堤起町",
    "town_kana": "ツツミオコシチョウ",
    "street": null,
    "office_name": null,
    "office_name_kana": null
  },
  "0826": {
    "postcode": "4570826",
    "prefecture": "愛知県",
    "prefecture_kana": "アイチケン",
    "prefecture_code": 23,
    "city": "名古屋市南区",
    "city_kana": "ナゴヤシミナミク",
    "town": "中割町",
    "town_kana": "ナカワリチョウ",
    "street": null,
    "office_name": null,
    "office_name_kana": null
  },
  "0827": {
    "postcode": "4570827",
    "prefecture": "愛知県",
    "prefecture_kana": "アイチケン",
    "prefecture_code": 23,
    "city": "名古屋市南区",
    "city_kana": "ナゴヤシミナミク",
    "town": "北頭町",
    "town_kana": "キタガシラチョウ",
    "street": null,
    "office_name": null,
    "office_name_kana": null
  },
  "0828": {
    "postcode": "4570828",
    "prefecture": "愛知県",
    "prefecture_kana": "アイチケン",
    "prefecture_code": 23,
    "city": "名古屋市南区",
    "city_kana": "ナゴヤシミナミク",
    "town": "宝生町",
    "town_kana": "ホウショウチョウ",
    "street": null,
    "office_name": null,
    "office_name_kana": null
  },
  "0831": {
    "postcode": "4570831",
    "prefecture": "愛知県",
    "prefecture_kana": "アイチケン",
    "prefecture_code": 23,
    "city": "名古屋市南区",
    "city_kana": "ナゴヤシミナミク",
    "town": "荒浜町",
    "town_kana": "アラハマチョウ",
    "street": null,
    "office_name": null,
    "office_name_kana": null
  },
  "0832": {
    "postcode": "4570832",
    "prefecture": "愛知県",
    "prefecture_kana": "アイチケン",
    "prefecture_code": 23,
    "city": "名古屋市南区",
    "city_kana": "ナゴヤシミナミク",
    "town": "浜中町",
    "town_kana": "ハマナカチョウ",
    "street": null,
    "office_name": null,
    "office_name_kana": null
  },
  "0833": {
    "postcode": "4570833",
    "prefecture": "愛知県",
    "prefecture_kana": "アイチケン",
    "prefecture_code": 23,
    "city": "名古屋市南区",
    "city_kana": "ナゴヤシミナミク",
    "town": "東又兵ヱ町",
    "town_kana": "ヒガシマタベエチョウ",
    "street": null,
    "office_name": null,
    "office_name_kana": null
  },
  "0834": {
    "postcode": "4570834",
    "prefecture": "愛知県",
    "prefecture_kana": "アイチケン",
    "prefecture_code": 23,
    "city": "名古屋市南区",
    "city_kana": "ナゴヤシミナミク",
    "town": "港東通",
    "town_kana": "コウトウドオリ",
    "street": null,
    "office_name": null,
    "office_name_kana": null
  },
  "0835": {
    "postcode": "4570835",
    "prefecture": "愛知県",
    "prefecture_kana": "アイチケン",
    "prefecture_code": 23,
    "city": "名古屋市南区",
    "city_kana": "ナゴヤシミナミク",
    "town": "西又兵ヱ町",
    "town_kana": "ニシマタベエチョウ",
    "street": null,
    "office_name": null,
    "office_name_kana": null
  },
  "0836": {
    "postcode": "4570836",
    "prefecture": "愛知県",
    "prefecture_kana": "アイチケン",
    "prefecture_code": 23,
    "city": "名古屋市南区",
    "city_kana": "ナゴヤシミナミク",
    "town": "加福本通",
    "town_kana": "カフクホントオリ",
    "street": null,
    "office_name": null,
    "office_name_kana": null
  },
  "0837": {
    "postcode": "4570837",
    "prefecture": "愛知県",
    "prefecture_kana": "アイチケン",
    "prefecture_code": 23,
    "city": "名古屋市南区",
    "city_kana": "ナゴヤシミナミク",
    "town": "加福町",
    "town_kana": "カフクチョウ",
    "street": null,
    "office_name": null,
    "office_name_kana": null
  },
  "0841": {
    "postcode": "4570841",
    "prefecture": "愛知県",
    "prefecture_kana": "アイチケン",
    "prefecture_code": 23,
    "city": "名古屋市南区",
    "city_kana": "ナゴヤシミナミク",
    "town": "豊田",
    "town_kana": "トヨダ",
    "street": null,
    "office_name": null,
    "office_name_kana": null
  },
  "0842": {
    "postcode": "4570842",
    "prefecture": "愛知県",
    "prefecture_kana": "アイチケン",
    "prefecture_code": 23,
    "city": "名古屋市南区",
    "city_kana": "ナゴヤシミナミク",
    "town": "戸部下",
    "town_kana": "トベシタ",
    "street": null,
    "office_name": null,
    "office_name_kana": null
  },
  "0843": {
    "postcode": "4570843",
    "prefecture": "愛知県",
    "prefecture_kana": "アイチケン",
    "prefecture_code": 23,
    "city": "名古屋市南区",
    "city_kana": "ナゴヤシミナミク",
    "town": "忠次",
    "town_kana": "チュウジ",
    "street": null,
    "office_name": null,
    "office_name_kana": null
  },
  "0844": {
    "postcode": "4570844",
    "prefecture": "愛知県",
    "prefecture_kana": "アイチケン",
    "prefecture_code": 23,
    "city": "名古屋市南区",
    "city_kana": "ナゴヤシミナミク",
    "town": "堤町",
    "town_kana": "ツツミチョウ",
    "street": null,
    "office_name": null,
    "office_name_kana": null
  },
  "0845": {
    "postcode": "4570845",
    "prefecture": "愛知県",
    "prefecture_kana": "アイチケン",
    "prefecture_code": 23,
    "city": "名古屋市南区",
    "city_kana": "ナゴヤシミナミク",
    "town": "観音町",
    "town_kana": "カンノンチョウ",
    "street": null,
    "office_name": null,
    "office_name_kana": null
  },
  "0846": {
    "postcode": "4570846",
    "prefecture": "愛知県",
    "prefecture_kana": "アイチケン",
    "prefecture_code": 23,
    "city": "名古屋市南区",
    "city_kana": "ナゴヤシミナミク",
    "town": "道徳通",
    "town_kana": "ドウトクトオリ",
    "street": null,
    "office_name": null,
    "office_name_kana": null
  },
  "0847": {
    "postcode": "4570847",
    "prefecture": "愛知県",
    "prefecture_kana": "アイチケン",
    "prefecture_code": 23,
    "city": "名古屋市南区",
    "city_kana": "ナゴヤシミナミク",
    "town": "道徳新町",
    "town_kana": "ドウトクシンマチ",
    "street": null,
    "office_name": null,
    "office_name_kana": null
  },
  "0851": {
    "postcode": "4570851",
    "prefecture": "愛知県",
    "prefecture_kana": "アイチケン",
    "prefecture_code": 23,
    "city": "名古屋市南区",
    "city_kana": "ナゴヤシミナミク",
    "town": "五条町",
    "town_kana": "ゴジョウチョウ",
    "street": null,
    "office_name": null,
    "office_name_kana": null
  },
  "0852": {
    "postcode": "4570852",
    "prefecture": "愛知県",
    "prefecture_kana": "アイチケン",
    "prefecture_code": 23,
    "city": "名古屋市南区",
    "city_kana": "ナゴヤシミナミク",
    "town": "泉楽通",
    "town_kana": "センラクトオリ",
    "street": null,
    "office_name": null,
    "office_name_kana": null
  },
  "0853": {
    "postcode": "4570853",
    "prefecture": "愛知県",
    "prefecture_kana": "アイチケン",
    "prefecture_code": 23,
    "city": "名古屋市南区",
    "city_kana": "ナゴヤシミナミク",
    "town": "六条町",
    "town_kana": "ロクジョウチョウ",
    "street": null,
    "office_name": null,
    "office_name_kana": null
  },
  "0854": {
    "postcode": "4570854",
    "prefecture": "愛知県",
    "prefecture_kana": "アイチケン",
    "prefecture_code": 23,
    "city": "名古屋市南区",
    "city_kana": "ナゴヤシミナミク",
    "town": "七条町",
    "town_kana": "シチジョウチョウ",
    "street": null,
    "office_name": null,
    "office_name_kana": null
  },
  "0855": {
    "postcode": "4570855",
    "prefecture": "愛知県",
    "prefecture_kana": "アイチケン",
    "prefecture_code": 23,
    "city": "名古屋市南区",
    "city_kana": "ナゴヤシミナミク",
    "town": "豊田町",
    "town_kana": "トヨダチョウ",
    "street": null,
    "office_name": null,
    "office_name_kana": null
  },
  "0856": {
    "postcode": "4570856",
    "prefecture": "愛知県",
    "prefecture_kana": "アイチケン",
    "prefecture_code": 23,
    "city": "名古屋市南区",
    "city_kana": "ナゴヤシミナミク",
    "town": "南陽通",
    "town_kana": "ナンヨウドオリ",
    "street": null,
    "office_name": null,
    "office_name_kana": null
  },
  "0861": {
    "postcode": "4570861",
    "prefecture": "愛知県",
    "prefecture_kana": "アイチケン",
    "prefecture_code": 23,
    "city": "名古屋市南区",
    "city_kana": "ナゴヤシミナミク",
    "town": "明治",
    "town_kana": "メイジ",
    "street": null,
    "office_name": null,
    "office_name_kana": null
  },
  "0862": {
    "postcode": "4570862",
    "prefecture": "愛知県",
    "prefecture_kana": "アイチケン",
    "prefecture_code": 23,
    "city": "名古屋市南区",
    "city_kana": "ナゴヤシミナミク",
    "town": "内田橋",
    "town_kana": "ウチダバシ",
    "street": null,
    "office_name": null,
    "office_name_kana": null
  },
  "0863": {
    "postcode": "4570863",
    "prefecture": "愛知県",
    "prefecture_kana": "アイチケン",
    "prefecture_code": 23,
    "city": "名古屋市南区",
    "city_kana": "ナゴヤシミナミク",
    "town": "豊",
    "town_kana": "ユタカ",
    "street": null,
    "office_name": null,
    "office_name_kana": null
  },
  "0864": {
    "postcode": "4570864",
    "prefecture": "愛知県",
    "prefecture_kana": "アイチケン",
    "prefecture_code": 23,
    "city": "名古屋市南区",
    "city_kana": "ナゴヤシミナミク",
    "town": "道徳北町",
    "town_kana": "ドウトクキタマチ",
    "street": null,
    "office_name": null,
    "office_name_kana": null
  },
  "0865": {
    "postcode": "4570865",
    "prefecture": "愛知県",
    "prefecture_kana": "アイチケン",
    "prefecture_code": 23,
    "city": "名古屋市南区",
    "city_kana": "ナゴヤシミナミク",
    "town": "氷室町",
    "town_kana": "ヒムロチョウ",
    "street": null,
    "office_name": null,
    "office_name_kana": null
  },
  "0866": {
    "postcode": "4570866",
    "prefecture": "愛知県",
    "prefecture_kana": "アイチケン",
    "prefecture_code": 23,
    "city": "名古屋市南区",
    "city_kana": "ナゴヤシミナミク",
    "town": "三条",
    "town_kana": "サンジョウ",
    "street": null,
    "office_name": null,
    "office_name_kana": null
  },
  "8501": {
    "postcode": "4578501",
    "prefecture": "愛知県",
    "prefecture_kana": "アイチケン",
    "prefecture_code": 23,
    "city": "名古屋市南区",
    "city_kana": "ナゴヤシミナミク",
    "town": "千竈通",
    "town_kana": "チカマトオリ",
    "street": "１丁目３６−５",
    "office_name": "ネッツトヨタ東海　株式会社",
    "office_name_kana": "ネツツトヨタトウカイ カブシキガイシヤ"
  },
  "8508": {
    "postcode": "4578508",
    "prefecture": "愛知県",
    "prefecture_kana": "アイチケン",
    "prefecture_code": 23,
    "city": "名古屋市南区",
    "city_kana": "ナゴヤシミナミク",
    "town": "前浜通",
    "town_kana": "マエハマドオリ",
    "street": "３丁目１０番地",
    "office_name": "名古屋市南区役所",
    "office_name_kana": "ナゴヤシミナミクヤクシヨ"
  },
  "8510": {
    "postcode": "4578510",
    "prefecture": "愛知県",
    "prefecture_kana": "アイチケン",
    "prefecture_code": 23,
    "city": "名古屋市南区",
    "city_kana": "ナゴヤシミナミク",
    "town": "三条",
    "town_kana": "サンジョウ",
    "street": "１丁目",
    "office_name": "社会保険中京病院",
    "office_name_kana": "シヤカイホケンチユウキヨウビヨウイン"
  },
  "8511": {
    "postcode": "4578511",
    "prefecture": "愛知県",
    "prefecture_kana": "アイチケン",
    "prefecture_code": 23,
    "city": "名古屋市南区",
    "city_kana": "ナゴヤシミナミク",
    "town": "白水町",
    "town_kana": "ハクスイチョウ",
    "street": "９",
    "office_name": "大同病院",
    "office_name_kana": "ダイドウビヨウイン"
  },
  "8512": {
    "postcode": "4578512",
    "prefecture": "愛知県",
    "prefecture_kana": "アイチケン",
    "prefecture_code": 23,
    "city": "名古屋市南区",
    "city_kana": "ナゴヤシミナミク",
    "town": "白水町",
    "town_kana": "ハクスイチョウ",
    "street": "２０番地",
    "office_name": "社会福祉法人　大同福祉会",
    "office_name_kana": "シヤカイフクシホウジン ダイドウフクシカイ"
  },
  "8515": {
    "postcode": "4578515",
    "prefecture": "愛知県",
    "prefecture_kana": "アイチケン",
    "prefecture_code": 23,
    "city": "名古屋市南区",
    "city_kana": "ナゴヤシミナミク",
    "town": "曽池町",
    "town_kana": "ソイケチョウ",
    "street": "４丁目２８番地",
    "office_name": "愛精病院",
    "office_name_kana": "アイセイビヨウイン"
  },
  "8522": {
    "postcode": "4578522",
    "prefecture": "愛知県",
    "prefecture_kana": "アイチケン",
    "prefecture_code": 23,
    "city": "名古屋市南区",
    "city_kana": "ナゴヤシミナミク",
    "town": "丹後通",
    "town_kana": "タンゴトオリ",
    "street": "２丁目１",
    "office_name": "三井化学　株式会社　名古屋工場",
    "office_name_kana": "ミツイカガク カブシキガイシヤ ナゴヤコウジヨウ"
  },
  "8530": {
    "postcode": "4578530",
    "prefecture": "愛知県",
    "prefecture_kana": "アイチケン",
    "prefecture_code": 23,
    "city": "名古屋市南区",
    "city_kana": "ナゴヤシミナミク",
    "town": "滝春町",
    "town_kana": "タキハルチョウ",
    "street": "１０−３",
    "office_name": "大同大学",
    "office_name_kana": "ダイドウダイガク"
  },
  "8531": {
    "postcode": "4578531",
    "prefecture": "愛知県",
    "prefecture_kana": "アイチケン",
    "prefecture_code": 23,
    "city": "名古屋市南区",
    "city_kana": "ナゴヤシミナミク",
    "town": "滝春町",
    "town_kana": "タキハルチョウ",
    "street": "１０−３",
    "office_name": "大同大学　滝春校舎",
    "office_name_kana": "ダイドウダイガク タキハルコウシヤ"
  },
  "8532": {
    "postcode": "4578532",
    "prefecture": "愛知県",
    "prefecture_kana": "アイチケン",
    "prefecture_code": 23,
    "city": "名古屋市南区",
    "city_kana": "ナゴヤシミナミク",
    "town": "白水町",
    "town_kana": "ハクスイチョウ",
    "street": "４０",
    "office_name": "大同大学　白水校舎",
    "office_name_kana": "ダイドウダイガク ハクスイコウシヤ"
  },
  "8533": {
    "postcode": "4578533",
    "prefecture": "愛知県",
    "prefecture_kana": "アイチケン",
    "prefecture_code": 23,
    "city": "名古屋市南区",
    "city_kana": "ナゴヤシミナミク",
    "town": "星崎",
    "town_kana": "ホシザキ",
    "street": "２丁目１０１",
    "office_name": "株式会社　丸政",
    "office_name_kana": "カブシキガイシヤ マルマサ"
  },
  "8535": {
    "postcode": "4578535",
    "prefecture": "愛知県",
    "prefecture_kana": "アイチケン",
    "prefecture_code": 23,
    "city": "名古屋市南区",
    "city_kana": "ナゴヤシミナミク",
    "town": "浜田町",
    "town_kana": "ハマダチョウ",
    "street": "１丁目１０",
    "office_name": "近藤産興　株式会社",
    "office_name_kana": "コンドウサンコウ カブシキガイシヤ"
  },
  "8545": {
    "postcode": "4578545",
    "prefecture": "愛知県",
    "prefecture_kana": "アイチケン",
    "prefecture_code": 23,
    "city": "名古屋市南区",
    "city_kana": "ナゴヤシミナミク",
    "town": "大同町",
    "town_kana": "ダイドウチョウ",
    "street": "２丁目３０",
    "office_name": "大同特殊鋼　株式会社　星崎工場",
    "office_name_kana": "ダイドウトクシユコウ カブシキガイシヤ ホシザキコウジヨウ"
  },
  "8551": {
    "postcode": "4578551",
    "prefecture": "愛知県",
    "prefecture_kana": "アイチケン",
    "prefecture_code": 23,
    "city": "名古屋市南区",
    "city_kana": "ナゴヤシミナミク",
    "town": "元塩町",
    "town_kana": "モトシオチョウ",
    "street": "３丁目１８",
    "office_name": "株式会社　ミック",
    "office_name_kana": "カブシキガイシヤ ミツク"
  },
  "8555": {
    "postcode": "4578555",
    "prefecture": "愛知県",
    "prefecture_kana": "アイチケン",
    "prefecture_code": 23,
    "city": "名古屋市南区",
    "city_kana": "ナゴヤシミナミク",
    "town": "豊",
    "town_kana": "ユタカ",
    "street": "３丁目１９−２４",
    "office_name": "カネハツ食品　株式会社",
    "office_name_kana": "カネハツシヨクヒン カブシキガイシヤ"
  },
  "8558": {
    "postcode": "4578558",
    "prefecture": "愛知県",
    "prefecture_kana": "アイチケン",
    "prefecture_code": 23,
    "city": "名古屋市南区",
    "city_kana": "ナゴヤシミナミク",
    "town": "星崎",
    "town_kana": "ホシザキ",
    "street": "２丁目９６番地",
    "office_name": "三菱ふそうトラック・バス　株式会社　東海ふそう",
    "office_name_kana": "ミツビシフソウトラツク・バス カブシキガイシヤ トウカイフソウ"
  },
  "8560": {
    "postcode": "4578560",
    "prefecture": "愛知県",
    "prefecture_kana": "アイチケン",
    "prefecture_code": 23,
    "city": "名古屋市南区",
    "city_kana": "ナゴヤシミナミク",
    "town": "塩屋町",
    "town_kana": "シオヤチョウ",
    "street": "４丁目１４番地",
    "office_name": "株式会社　テイラド",
    "office_name_kana": "カブシキガイシヤ テイラド"
  },
  "8566": {
    "postcode": "4578566",
    "prefecture": "愛知県",
    "prefecture_kana": "アイチケン",
    "prefecture_code": 23,
    "city": "名古屋市南区",
    "city_kana": "ナゴヤシミナミク",
    "town": "豊田",
    "town_kana": "トヨダ",
    "street": "３丁目１９−２１",
    "office_name": "株式会社　チップトン",
    "office_name_kana": "カブシキガイシヤ チツプトン"
  },
  "8567": {
    "postcode": "4578567",
    "prefecture": "愛知県",
    "prefecture_kana": "アイチケン",
    "prefecture_code": 23,
    "city": "名古屋市南区",
    "city_kana": "ナゴヤシミナミク",
    "town": "明治",
    "town_kana": "メイジ",
    "street": "１丁目１８番９号",
    "office_name": "株式会社　あかのれん　内田橋店",
    "office_name_kana": "カブシキガイシヤ アカノレン ウチダバシテン"
  },
  "8577": {
    "postcode": "4578577",
    "prefecture": "愛知県",
    "prefecture_kana": "アイチケン",
    "prefecture_code": 23,
    "city": "名古屋市南区",
    "city_kana": "ナゴヤシミナミク",
    "town": "滝春町",
    "town_kana": "タキハルチョウ",
    "street": "９",
    "office_name": "株式会社　大同機械製作所",
    "office_name_kana": "カブシキガイシヤ ダイドウキカイセイサクジヨ"
  },
  "8585": {
    "postcode": "4578585",
    "prefecture": "愛知県",
    "prefecture_kana": "アイチケン",
    "prefecture_code": 23,
    "city": "名古屋市南区",
    "city_kana": "ナゴヤシミナミク",
    "town": "明治",
    "town_kana": "メイジ",
    "street": "１丁目６−５",
    "office_name": "株式会社　ナカガワ",
    "office_name_kana": "カブシキガイシヤ ナカガワ"
  },
  "8588": {
    "postcode": "4578588",
    "prefecture": "愛知県",
    "prefecture_kana": "アイチケン",
    "prefecture_code": 23,
    "city": "名古屋市南区",
    "city_kana": "ナゴヤシミナミク",
    "town": "東又兵ヱ町",
    "town_kana": "ヒガシマタベエチョウ",
    "street": "一丁目５７番２",
    "office_name": "株式会社　八神製作所",
    "office_name_kana": "カブシキガイシヤ ヤガミセイサクシヨ"
  },
  "8711": {
    "postcode": "4578711",
    "prefecture": "愛知県",
    "prefecture_kana": "アイチケン",
    "prefecture_code": 23,
    "city": "名古屋市南区",
    "city_kana": "ナゴヤシミナミク",
    "town": "元塩町",
    "town_kana": "モトシオチョウ",
    "street": "４丁目１４−１",
    "office_name": "株式会社　中部シントー",
    "office_name_kana": "カブシキガイシヤ チユウブシント-"
  },
  "8712": {
    "postcode": "4578712",
    "prefecture": "愛知県",
    "prefecture_kana": "アイチケン",
    "prefecture_code": 23,
    "city": "名古屋市南区",
    "city_kana": "ナゴヤシミナミク",
    "town": "滝春町",
    "town_kana": "タキハルチョウ",
    "street": "９番地",
    "office_name": "大同特殊鋼　株式会社　機械事業部　滝春テクノセンター",
    "office_name_kana": "ダイドウトクシユコウ カブシキガイシヤ キカイジギヨウブ タキハルテクノセンタ-"
  }
}