{
  "0000": {
    "postcode": "4580000",
    "prefecture": "愛知県",
    "prefecture_kana": "アイチケン",
    "prefecture_code": 23,
    "city": "名古屋市緑区",
    "city_kana": "ナゴヤシミドリク",
    "town": "",
    "town_kana": "",
    "street": null,
    "office_name": null,
    "office_name_kana": null
  },
  "0001": {
    "postcode": "4580001",
    "prefecture": "愛知県",
    "prefecture_kana": "アイチケン",
    "prefecture_code": 23,
    "city": "名古屋市緑区",
    "city_kana": "ナゴヤシミドリク",
    "town": "梅里",
    "town_kana": "ウメサト",
    "street": null,
    "office_name": null,
    "office_name_kana": null
  },
  "0002": {
    "postcode": "4580002",
    "prefecture": "愛知県",
    "prefecture_kana": "アイチケン",
    "prefecture_code": 23,
    "city": "名古屋市緑区",
    "city_kana": "ナゴヤシミドリク",
    "town": "桃山",
    "town_kana": "モモヤマ",
    "street": null,
    "office_name": null,
    "office_name_kana": null
  },
  "0003": {
    "postcode": "4580003",
    "prefecture": "愛知県",
    "prefecture_kana": "アイチケン",
    "prefecture_code": 23,
    "city": "名古屋市緑区",
    "city_kana": "ナゴヤシミドリク",
    "town": "黒沢台",
    "town_kana": "クロサワダイ",
    "street": null,
    "office_name": null,
    "office_name_kana": null
  },
  "0004": {
    "postcode": "4580004",
    "prefecture": "愛知県",
    "prefecture_kana": "アイチケン",
    "prefecture_code": 23,
    "city": "名古屋市緑区",
    "city_kana": "ナゴヤシミドリク",
    "town": "乗鞍",
    "town_kana": "ノリクラ",
    "street": null,
    "office_name": null,
    "office_name_kana": null
  },
  "0005": {
    "postcode": "4580005",
    "prefecture": "愛知県",
    "prefecture_kana": "アイチケン",
    "prefecture_code": 23,
    "city": "名古屋市緑区",
    "city_kana": "ナゴヤシミドリク",
    "town": "鳴丘",
    "town_kana": "ナルオカ",
    "street": null,
    "office_name": null,
    "office_name_kana": null
  },
  "0006": {
    "postcode": "4580006",
    "prefecture": "愛知県",
    "prefecture_kana": "アイチケン",
    "prefecture_code": 23,
    "city": "名古屋市緑区",
    "city_kana": "ナゴヤシミドリク",
    "town": "細口",
    "town_kana": "ホソグチ",
    "street": null,
    "office_name": null,
    "office_name_kana": null
  },
  "0007": {
    "postcode": "4580007",
    "prefecture": "愛知県",
    "prefecture_kana": "アイチケン",
    "prefecture_code": 23,
    "city": "名古屋市緑区",
    "city_kana": "ナゴヤシミドリク",
    "town": "篭山",
    "town_kana": "カゴヤマ",
    "street": null,
    "office_name": null,
    "office_name_kana": null
  },
  "0008": {
    "postcode": "4580008",
    "prefecture": "愛知県",
    "prefecture_kana": "アイチケン",
    "prefecture_code": 23,
    "city": "名古屋市緑区",
    "city_kana": "ナゴヤシミドリク",
    "town": "平手北",
    "town_kana": "ヒラテキタ",
    "street": null,
    "office_name": null,
    "office_name_kana": null
  },
  "0009": {
    "postcode": "4580009",
    "prefecture": "愛知県",
    "prefecture_kana": "アイチケン",
    "prefecture_code": 23,
    "city": "名古屋市緑区",
    "city_kana": "ナゴヤシミドリク",
    "town": "平手南",
    "town_kana": "ヒラテミナミ",
    "street": null,
    "office_name": null,
    "office_name_kana": null
  },
  "0011": {
    "postcode": "4580011",
    "prefecture": "愛知県",
    "prefecture_kana": "アイチケン",
    "prefecture_code": 23,
    "city": "名古屋市緑区",
    "city_kana": "ナゴヤシミドリク",
    "town": "相川",
    "town_kana": "アイカワ",
    "street": null,
    "office_name": null,
    "office_name_kana": null
  },
  "0012": {
    "postcode": "4580012",
    "prefecture": "愛知県",
    "prefecture_kana": "アイチケン",
    "prefecture_code": 23,
    "city": "名古屋市緑区",
    "city_kana": "ナゴヤシミドリク",
    "town": "久方",
    "town_kana": "ヒサカタ",
    "street": null,
    "office_name": null,
    "office_name_kana": null
  },
  "0013": {
    "postcode": "4580013",
    "prefecture": "愛知県",
    "prefecture_kana": "アイチケン",
    "prefecture_code": 23,
    "city": "名古屋市緑区",
    "city_kana": "ナゴヤシミドリク",
    "town": "ほら貝",
    "town_kana": "ホラガイ",
    "street": null,
    "office_name": null,
    "office_name_kana": null
  },
  "0014": {
    "postcode": "4580014",
    "prefecture": "愛知県",
    "prefecture_kana": "アイチケン",
    "prefecture_code": 23,
    "city": "名古屋市緑区",
    "city_kana": "ナゴヤシミドリク",
    "town": "神沢",
    "town_kana": "カミサワ",
    "street": null,
    "office_name": null,
    "office_name_kana": null
  },
  "0015": {
    "postcode": "4580015",
    "prefecture": "愛知県",
    "prefecture_kana": "アイチケン",
    "prefecture_code": 23,
    "city": "名古屋市緑区",
    "city_kana": "ナゴヤシミドリク",
    "town": "篠の風",
    "town_kana": "シノノカゼ",
    "street": null,
    "office_name": null,
    "office_name_kana": null
  },
  "0016": {
    "postcode": "4580016",
    "prefecture": "愛知県",
    "prefecture_kana": "アイチケン",
    "prefecture_code": 23,
    "city": "名古屋市緑区",
    "city_kana": "ナゴヤシミドリク",
    "town": "上旭",
    "town_kana": "カミアサヒ",
    "street": null,
    "office_name": null,
    "office_name_kana": null
  },
  "0021": {
    "postcode": "4580021",
    "prefecture": "愛知県",
    "prefecture_kana": "アイチケン",
    "prefecture_code": 23,
    "city": "名古屋市緑区",
    "city_kana": "ナゴヤシミドリク",
    "town": "滝ノ水",
    "town_kana": "タキノミズ",
    "street": null,
    "office_name": null,
    "office_name_kana": null
  },
  "0022": {
    "postcode": "4580022",
    "prefecture": "愛知県",
    "prefecture_kana": "アイチケン",
    "prefecture_code": 23,
    "city": "名古屋市緑区",
    "city_kana": "ナゴヤシミドリク",
    "town": "小坂",
    "town_kana": "コサカ",
    "street": null,
    "office_name": null,
    "office_name_kana": null
  },
  "0023": {
    "postcode": "4580023",
    "prefecture": "愛知県",
    "prefecture_kana": "アイチケン",
    "prefecture_code": 23,
    "city": "名古屋市緑区",
    "city_kana": "ナゴヤシミドリク",
    "town": "鴻仏目",
    "town_kana": "コウブツメ",
    "street": null,
    "office_name": null,
    "office_name_kana": null
  },
  "0024": {
    "postcode": "4580024",
    "prefecture": "愛知県",
    "prefecture_kana": "アイチケン",
    "prefecture_code": 23,
    "city": "名古屋市緑区",
    "city_kana": "ナゴヤシミドリク",
    "town": "尾崎山",
    "town_kana": "オザキヤマ",
    "street": null,
    "office_name": null,
    "office_name_kana": null
  },
  "0025": {
    "postcode": "4580025",
    "prefecture": "愛知県",
    "prefecture_kana": "アイチケン",
    "prefecture_code": 23,
    "city": "名古屋市緑区",
    "city_kana": "ナゴヤシミドリク",
    "town": "鳥澄",
    "town_kana": "トリスミ",
    "street": null,
    "office_name": null,
    "office_name_kana": null
  },
  "0031": {
    "postcode": "4580031",
    "prefecture": "愛知県",
    "prefecture_kana": "アイチケン",
    "prefecture_code": 23,
    "city": "名古屋市緑区",
    "city_kana": "ナゴヤシミドリク",
    "town": "旭出",
    "town_kana": "アサヒデ",
    "street": null,
    "office_name": null,
    "office_name_kana": null
  },
  "0032": {
    "postcode": "4580032",
    "prefecture": "愛知県",
    "prefecture_kana": "アイチケン",
    "prefecture_code": 23,
    "city": "名古屋市緑区",
    "city_kana": "ナゴヤシミドリク",
    "town": "大形山",
    "town_kana": "オオガタヤマ",
    "street": null,
    "office_name": null,
    "office_name_kana": null
  },
  "0033": {
    "postcode": "4580033",
    "prefecture": "愛知県",
    "prefecture_kana": "アイチケン",
    "prefecture_code": 23,
    "city": "名古屋市緑区",
    "city_kana": "ナゴヤシミドリク",
    "town": "相原郷",
    "town_kana": "アイバラゴウ",
    "street": null,
    "office_name": null,
    "office_name_kana": null
  },
  "0034": {
    "postcode": "4580034",
    "prefecture": "愛知県",
    "prefecture_kana": "アイチケン",
    "prefecture_code": 23,
    "city": "名古屋市緑区",
    "city_kana": "ナゴヤシミドリク",
    "town": "若田",
    "town_kana": "ワカタ",
    "street": null,
    "office_name": null,
    "office_name_kana": null
  },
  "0035": {
    "postcode": "4580035",
    "prefecture": "愛知県",
    "prefecture_kana": "アイチケン",
    "prefecture_code": 23,
    "city": "名古屋市緑区",
    "city_kana": "ナゴヤシミドリク",
    "town": "曽根",
    "town_kana": "ソネ",
    "street": null,
    "office_name": null,
    "office_name_kana": null
  },
  "0036": {
    "postcode": "4580036",
    "prefecture": "愛知県",
    "prefecture_kana": "アイチケン",
    "prefecture_code": 23,
    "city": "名古屋市緑区",
    "city_kana": "ナゴヤシミドリク",
    "town": "六田",
    "town_kana": "ロクデン",
    "street": null,
    "office_name": null,
    "office_name_kana": null
  },
  "0037": {
    "postcode": "4580037",
    "prefecture": "愛知県",
    "prefecture_kana": "アイチケン",
    "prefecture_code": 23,
    "city": "名古屋市緑区",
    "city_kana": "ナゴヤシミドリク",
    "town": "潮見が丘",
    "town_kana": "シオミガオカ",
    "street": null,
    "office_name": null,
    "office_name_kana": null
  },
  "0038": {
    "postcode": "4580038",
    "prefecture": "愛知県",
    "prefecture_kana": "アイチケン",
    "prefecture_code": 23,
    "city": "名古屋市緑区",
    "city_kana": "ナゴヤシミドリク",
    "town": "作の山町",
    "town_kana": "サクノヤマチョウ",
    "street": null,
    "office_name": null,
    "office_name_kana": null
  },
  "0039": {
    "postcode": "4580039",
    "prefecture": "愛知県",
    "prefecture_kana": "アイチケン",
    "prefecture_code": 23,
    "city": "名古屋市緑区",
    "city_kana": "ナゴヤシミドリク",
    "town": "四本木",
    "town_kana": "シホンギ",
    "street": null,
    "office_name": null,
    "office_name_kana": null
  },
  "0041": {
    "postcode": "4580041",
    "prefecture": "愛知県",
    "prefecture_kana": "アイチケン",
    "prefecture_code": 23,
    "city": "名古屋市緑区",
    "city_kana": "ナゴヤシミドリク",
    "town": "鳴子町",
    "town_kana": "ナルコチョウ",
    "street": null,
    "office_name": null,
    "office_name_kana": null
  },
  "0042": {
    "postcode": "4580042",
    "prefecture": "愛知県",
    "prefecture_kana": "アイチケン",
    "prefecture_code": 23,
    "city": "名古屋市緑区",
    "city_kana": "ナゴヤシミドリク",
    "town": "高根台",
    "town_kana": "タカネダイ",
    "street": null,
    "office_name": null,
    "office_name_kana": null
  },
  "0043": {
    "postcode": "4580043",
    "prefecture": "愛知県",
    "prefecture_kana": "アイチケン",
    "prefecture_code": 23,
    "city": "名古屋市緑区",
    "city_kana": "ナゴヤシミドリク",
    "town": "万場山",
    "town_kana": "マンバヤマ",
    "street": null,
    "office_name": null,
    "office_name_kana": null
  },
  "0044": {
    "postcode": "4580044",
    "prefecture": "愛知県",
    "prefecture_kana": "アイチケン",
    "prefecture_code": 23,
    "city": "名古屋市緑区",
    "city_kana": "ナゴヤシミドリク",
    "town": "池上台",
    "town_kana": "イケガミダイ",
    "street": null,
    "office_name": null,
    "office_name_kana": null
  },
  "0045": {
    "postcode": "4580045",
    "prefecture": "愛知県",
    "prefecture_kana": "アイチケン",
    "prefecture_code": 23,
    "city": "名古屋市緑区",
    "city_kana": "ナゴヤシミドリク",
    "town": "鹿山",
    "town_kana": "シカヤマ",
    "street": null,
    "office_name": null,
    "office_name_kana": null
  },
  "0046": {
    "postcode": "4580046",
    "prefecture": "愛知県",
    "prefecture_kana": "アイチケン",
    "prefecture_code": 23,
    "city": "名古屋市緑区",
    "city_kana": "ナゴヤシミドリク",
    "town": "長根町",
    "town_kana": "ナガネチョウ",
    "street": null,
    "office_name": null,
    "office_name_kana": null
  },
  "0047": {
    "postcode": "4580047",
    "prefecture": "愛知県",
    "prefecture_kana": "アイチケン",
    "prefecture_code": 23,
    "city": "名古屋市緑区",
    "city_kana": "ナゴヤシミドリク",
    "town": "古鳴海",
    "town_kana": "コナルミ",
    "street": null,
    "office_name": null,
    "office_name_kana": null
  },
  "0801": {
    "postcode": "4580801",
    "prefecture": "愛知県",
    "prefecture_kana": "アイチケン",
    "prefecture_code": 23,
    "city": "名古屋市緑区",
    "city_kana": "ナゴヤシミドリク",
    "town": "鳴海町",
    "town_kana": "ナルミチョウ",
    "street": null,
    "office_name": null,
    "office_name_kana": null
  },
  "0802": {
    "postcode": "4580802",
    "prefecture": "愛知県",
    "prefecture_kana": "アイチケン",
    "prefecture_code": 23,
    "city": "名古屋市緑区",
    "city_kana": "ナゴヤシミドリク",
    "town": "兵庫",
    "town_kana": "ヒョウゴ",
    "street": null,
    "office_name": null,
    "office_name_kana": null
  },
  "0803": {
    "postcode": "4580803",
    "prefecture": "愛知県",
    "prefecture_kana": "アイチケン",
    "prefecture_code": 23,
    "city": "名古屋市緑区",
    "city_kana": "ナゴヤシミドリク",
    "town": "鏡田",
    "town_kana": "カガミダ",
    "street": null,
    "office_name": null,
    "office_name_kana": null
  },
  "0804": {
    "postcode": "4580804",
    "prefecture": "愛知県",
    "prefecture_kana": "アイチケン",
    "prefecture_code": 23,
    "city": "名古屋市緑区",
    "city_kana": "ナゴヤシミドリク",
    "town": "亀が洞",
    "town_kana": "カメガホラ",
    "street": null,
    "office_name": null,
    "office_name_kana": null
  },
  "0805": {
    "postcode": "4580805",
    "prefecture": "愛知県",
    "prefecture_kana": "アイチケン",
    "prefecture_code": 23,
    "city": "名古屋市緑区",
    "city_kana": "ナゴヤシミドリク",
    "town": "大清水",
    "town_kana": "オオシミズ",
    "street": null,
    "office_name": null,
    "office_name_kana": null
  },
  "0806": {
    "postcode": "4580806",
    "prefecture": "愛知県",
    "prefecture_kana": "アイチケン",
    "prefecture_code": 23,
    "city": "名古屋市緑区",
    "city_kana": "ナゴヤシミドリク",
    "town": "大清水西",
    "town_kana": "オオシミズニシ",
    "street": null,
    "office_name": null,
    "office_name_kana": null
  },
  "0807": {
    "postcode": "4580807",
    "prefecture": "愛知県",
    "prefecture_kana": "アイチケン",
    "prefecture_code": 23,
    "city": "名古屋市緑区",
    "city_kana": "ナゴヤシミドリク",
    "town": "砂田",
    "town_kana": "スナダ",
    "street": null,
    "office_name": null,
    "office_name_kana": null
  },
  "0808": {
    "postcode": "4580808",
    "prefecture": "愛知県",
    "prefecture_kana": "アイチケン",
    "prefecture_code": 23,
    "city": "名古屋市緑区",
    "city_kana": "ナゴヤシミドリク",
    "town": "東神の倉",
    "town_kana": "ヒガシカミノクラ",
    "street": null,
    "office_name": null,
    "office_name_kana": null
  },
  "0809": {
    "postcode": "4580809",
    "prefecture": "愛知県",
    "prefecture_kana": "アイチケン",
    "prefecture_code": 23,
    "city": "名古屋市緑区",
    "city_kana": "ナゴヤシミドリク",
    "town": "西神の倉",
    "town_kana": "ニシカミノクラ",
    "street": null,
    "office_name": null,
    "office_name_kana": null
  },
  "0810": {
    "postcode": "4580810",
    "prefecture": "愛知県",
    "prefecture_kana": "アイチケン",
    "prefecture_code": 23,
    "city": "名古屋市緑区",
    "city_kana": "ナゴヤシミドリク",
    "town": "八つ松",
    "town_kana": "ヤツマツ",
    "street": null,
    "office_name": null,
    "office_name_kana": null
  },
  "0811": [
    {
      "postcode": "4580811",
      "prefecture": "愛知県",
      "prefecture_kana": "アイチケン",
      "prefecture_code": 23,
      "city": "名古屋市緑区",
      "city_kana": "ナゴヤシミドリク",
      "town": "鳴海町",
      "town_kana": "ナルミチョウ",
      "street": null,
      "office_name": null,
      "office_name_kana": null
    },
    {
      "postcode": "4580811",
      "prefecture": "愛知県",
      "prefecture_kana": "アイチケン",
      "prefecture_code": 23,
      "city": "名古屋市緑区",
      "city_kana": "ナゴヤシミドリク",
      "town": "鳴海町神ノ倉",
      "town_kana": "ナルミチョウカンノクラ",
      "street": null,
      "office_name": null,
      "office_name_kana": null
    }
  ],
  "0812": {
    "postcode": "4580812",
    "prefecture": "愛知県",
    "prefecture_kana": "アイチケン",
    "prefecture_code": 23,
    "city": "名古屋市緑区",
    "city_kana": "ナゴヤシミドリク",
    "town": "神の倉",
    "town_kana": "カミノクラ",
    "street": null,
    "office_name": null,
    "office_name_kana": null
  },
  "0813": {
    "postcode": "4580813",
    "prefecture": "愛知県",
    "prefecture_kana": "アイチケン",
    "prefecture_code": 23,
    "city": "名古屋市緑区",
    "city_kana": "ナゴヤシミドリク",
    "town": "藤塚",
    "town_kana": "フジヅカ",
    "street": null,
    "office_name": null,
    "office_name_kana": null
  },
  "0814": {
    "postcode": "4580814",
    "prefecture": "愛知県",
    "prefecture_kana": "アイチケン",
    "prefecture_code": 23,
    "city": "名古屋市緑区",
    "city_kana": "ナゴヤシミドリク",
    "town": "鶴が沢",
    "town_kana": "ツルガサワ",
    "street": null,
    "office_name": null,
    "office_name_kana": null
  },
  "0815": {
    "postcode": "4580815",
    "prefecture": "愛知県",
    "prefecture_kana": "アイチケン",
    "prefecture_code": 23,
    "city": "名古屋市緑区",
    "city_kana": "ナゴヤシミドリク",
    "town": "徳重",
    "town_kana": "トクシゲ",
    "street": null,
    "office_name": null,
    "office_name_kana": null
  },
  "0816": {
    "postcode": "4580816",
    "prefecture": "愛知県",
    "prefecture_kana": "アイチケン",
    "prefecture_code": 23,
    "city": "名古屋市緑区",
    "city_kana": "ナゴヤシミドリク",
    "town": "横吹町",
    "town_kana": "ヨコブキチョウ",
    "street": null,
    "office_name": null,
    "office_name_kana": null
  },
  "0817": [
    {
      "postcode": "4580817",
      "prefecture": "愛知県",
      "prefecture_kana": "アイチケン",
      "prefecture_code": 23,
      "city": "名古屋市緑区",
      "city_kana": "ナゴヤシミドリク",
      "town": "鳴海町",
      "town_kana": "ナルミチョウ",
      "street": null,
      "office_name": null,
      "office_name_kana": null
    },
    {
      "postcode": "4580817",
      "prefecture": "愛知県",
      "prefecture_kana": "アイチケン",
      "prefecture_code": 23,
      "city": "名古屋市緑区",
      "city_kana": "ナゴヤシミドリク",
      "town": "鳴海町諸の木",
      "town_kana": "ナルミチョウモロノキ",
      "street": null,
      "office_name": null,
      "office_name_kana": null
    },
    {
      "postcode": "4580817",
      "prefecture": "愛知県",
      "prefecture_kana": "アイチケン",
      "prefecture_code": 23,
      "city": "名古屋市緑区",
      "city_kana": "ナゴヤシミドリク",
      "town": "諸の木",
      "town_kana": "モロノキ",
      "street": null,
      "office_name": null,
      "office_name_kana": null
    }
  ],
  "0818": [
    {
      "postcode": "4580818",
      "prefecture": "愛知県",
      "prefecture_kana": "アイチケン",
      "prefecture_code": 23,
      "city": "名古屋市緑区",
      "city_kana": "ナゴヤシミドリク",
      "town": "鳴海町",
      "town_kana": "ナルミチョウ",
      "street": null,
      "office_name": null,
      "office_name_kana": null
    },
    {
      "postcode": "4580818",
      "prefecture": "愛知県",
      "prefecture_kana": "アイチケン",
      "prefecture_code": 23,
      "city": "名古屋市緑区",
      "city_kana": "ナゴヤシミドリク",
      "town": "鳴海町大清水",
      "town_kana": "ナルミチョウオオシミズ",
      "street": null,
      "office_name": null,
      "office_name_kana": null
    }
  ],
  "0819": [
    {
      "postcode": "4580819",
      "prefecture": "愛知県",
      "prefecture_kana": "アイチケン",
      "prefecture_code": 23,
      "city": "名古屋市緑区",
      "city_kana": "ナゴヤシミドリク",
      "town": "鳴海町",
      "town_kana": "ナルミチョウ",
      "street": null,
      "office_name": null,
      "office_name_kana": null
    },
    {
      "postcode": "4580819",
      "prefecture": "愛知県",
      "prefecture_kana": "アイチケン",
      "prefecture_code": 23,
      "city": "名古屋市緑区",
      "city_kana": "ナゴヤシミドリク",
      "town": "鳴海町八ツ松",
      "town_kana": "ナルミチョウヤツマツ",
      "street": null,
      "office_name": null,
      "office_name_kana": null
    }
  ],
  "0820": {
    "postcode": "4580820",
    "prefecture": "愛知県",
    "prefecture_kana": "アイチケン",
    "prefecture_code": 23,
    "city": "名古屋市緑区",
    "city_kana": "ナゴヤシミドリク",
    "town": "境松",
    "town_kana": "サカイマツ",
    "street": null,
    "office_name": null,
    "office_name_kana": null
  },
  "0821": [
    {
      "postcode": "4580821",
      "prefecture": "愛知県",
      "prefecture_kana": "アイチケン",
      "prefecture_code": 23,
      "city": "名古屋市緑区",
      "city_kana": "ナゴヤシミドリク",
      "town": "鳴海町",
      "town_kana": "ナルミチョウ",
      "street": null,
      "office_name": null,
      "office_name_kana": null
    },
    {
      "postcode": "4580821",
      "prefecture": "愛知県",
      "prefecture_kana": "アイチケン",
      "prefecture_code": 23,
      "city": "名古屋市緑区",
      "city_kana": "ナゴヤシミドリク",
      "town": "鳴海町尾崎山",
      "town_kana": "ナルミチョウオザキヤマ",
      "street": null,
      "office_name": null,
      "office_name_kana": null
    }
  ],
  "0822": {
    "postcode": "4580822",
    "prefecture": "愛知県",
    "prefecture_kana": "アイチケン",
    "prefecture_code": 23,
    "city": "名古屋市緑区",
    "city_kana": "ナゴヤシミドリク",
    "town": "大将ケ根",
    "town_kana": "タイショウガネ",
    "street": null,
    "office_name": null,
    "office_name_kana": null
  },
  "0823": {
    "postcode": "4580823",
    "prefecture": "愛知県",
    "prefecture_kana": "アイチケン",
    "prefecture_code": 23,
    "city": "名古屋市緑区",
    "city_kana": "ナゴヤシミドリク",
    "town": "太子",
    "town_kana": "タイシ",
    "street": null,
    "office_name": null,
    "office_name_kana": null
  },
  "0824": [
    {
      "postcode": "4580824",
      "prefecture": "愛知県",
      "prefecture_kana": "アイチケン",
      "prefecture_code": 23,
      "city": "名古屋市緑区",
      "city_kana": "ナゴヤシミドリク",
      "town": "鳴海町",
      "town_kana": "ナルミチョウ",
      "street": null,
      "office_name": null,
      "office_name_kana": null
    },
    {
      "postcode": "4580824",
      "prefecture": "愛知県",
      "prefecture_kana": "アイチケン",
      "prefecture_code": 23,
      "city": "名古屋市緑区",
      "city_kana": "ナゴヤシミドリク",
      "town": "鳴海町有松裏",
      "town_kana": "ナルミチョウアリマツウラ",
      "street": null,
      "office_name": null,
      "office_name_kana": null
    }
  ],
  "0825": {
    "postcode": "4580825",
    "prefecture": "愛知県",
    "prefecture_kana": "アイチケン",
    "prefecture_code": 23,
    "city": "名古屋市緑区",
    "city_kana": "ナゴヤシミドリク",
    "town": "左京山",
    "town_kana": "サキョウヤマ",
    "street": null,
    "office_name": null,
    "office_name_kana": null
  },
  "0826": {
    "postcode": "4580826",
    "prefecture": "愛知県",
    "prefecture_kana": "アイチケン",
    "prefecture_code": 23,
    "city": "名古屋市緑区",
    "city_kana": "ナゴヤシミドリク",
    "town": "平子が丘",
    "town_kana": "ヒラコガオカ",
    "street": null,
    "office_name": null,
    "office_name_kana": null
  },
  "0827": [
    {
      "postcode": "4580827",
      "prefecture": "愛知県",
      "prefecture_kana": "アイチケン",
      "prefecture_code": 23,
      "city": "名古屋市緑区",
      "city_kana": "ナゴヤシミドリク",
      "town": "鳴海町",
      "town_kana": "ナルミチョウ",
      "street": null,
      "office_name": null,
      "office_name_kana": null
    },
    {
      "postcode": "4580827",
      "prefecture": "愛知県",
      "prefecture_kana": "アイチケン",
      "prefecture_code": 23,
      "city": "名古屋市緑区",
      "city_kana": "ナゴヤシミドリク",
      "town": "鳴海町細根",
      "town_kana": "ナルミチョウホソネ",
      "street": null,
      "office_name": null,
      "office_name_kana": null
    }
  ],
  "0828": [
    {
      "postcode": "4580828",
      "prefecture": "愛知県",
      "prefecture_kana": "アイチケン",
      "prefecture_code": 23,
      "city": "名古屋市緑区",
      "city_kana": "ナゴヤシミドリク",
      "town": "鳴海町",
      "town_kana": "ナルミチョウ",
      "street": null,
      "office_name": null,
      "office_name_kana": null
    },
    {
      "postcode": "4580828",
      "prefecture": "愛知県",
      "prefecture_kana": "アイチケン",
      "prefecture_code": 23,
      "city": "名古屋市緑区",
      "city_kana": "ナゴヤシミドリク",
      "town": "鳴海町姥子山",
      "town_kana": "ナルミチョウウバコヤマ",
      "street": null,
      "office_name": null,
      "office_name_kana": null
    }
  ],
  "0829": {
    "postcode": "4580829",
    "prefecture": "愛知県",
    "prefecture_kana": "アイチケン",
    "prefecture_code": 23,
    "city": "名古屋市緑区",
    "city_kana": "ナゴヤシミドリク",
    "town": "鎌倉台",
    "town_kana": "カマクラダイ",
    "street": null,
    "office_name": null,
    "office_name_kana": null
  },
  "0830": {
    "postcode": "4580830",
    "prefecture": "愛知県",
    "prefecture_kana": "アイチケン",
    "prefecture_code": 23,
    "city": "名古屋市緑区",
    "city_kana": "ナゴヤシミドリク",
    "town": "姥子山",
    "town_kana": "ウバコヤマ",
    "street": null,
    "office_name": null,
    "office_name_kana": null
  },
  "0831": [
    {
      "postcode": "4580831",
      "prefecture": "愛知県",
      "prefecture_kana": "アイチケン",
      "prefecture_code": 23,
      "city": "名古屋市緑区",
      "city_kana": "ナゴヤシミドリク",
      "town": "鳴海町",
      "town_kana": "ナルミチョウ",
      "street": null,
      "office_name": null,
      "office_name_kana": null
    },
    {
      "postcode": "4580831",
      "prefecture": "愛知県",
      "prefecture_kana": "アイチケン",
      "prefecture_code": 23,
      "city": "名古屋市緑区",
      "city_kana": "ナゴヤシミドリク",
      "town": "鳴海町向田",
      "town_kana": "ナルミチョウムカエダ",
      "street": null,
      "office_name": null,
      "office_name_kana": null
    }
  ],
  "0832": {
    "postcode": "4580832",
    "prefecture": "愛知県",
    "prefecture_kana": "アイチケン",
    "prefecture_code": 23,
    "city": "名古屋市緑区",
    "city_kana": "ナゴヤシミドリク",
    "town": "漆山",
    "town_kana": "ウルシヤマ",
    "street": null,
    "office_name": null,
    "office_name_kana": null
  },
  "0833": {
    "postcode": "4580833",
    "prefecture": "愛知県",
    "prefecture_kana": "アイチケン",
    "prefecture_code": 23,
    "city": "名古屋市緑区",
    "city_kana": "ナゴヤシミドリク",
    "town": "青山",
    "town_kana": "アオヤマ",
    "street": null,
    "office_name": null,
    "office_name_kana": null
  },
  "0834": [
    {
      "postcode": "4580834",
      "prefecture": "愛知県",
      "prefecture_kana": "アイチケン",
      "prefecture_code": 23,
      "city": "名古屋市緑区",
      "city_kana": "ナゴヤシミドリク",
      "town": "鳴海町",
      "town_kana": "ナルミチョウ",
      "street": null,
      "office_name": null,
      "office_name_kana": null
    },
    {
      "postcode": "4580834",
      "prefecture": "愛知県",
      "prefecture_kana": "アイチケン",
      "prefecture_code": 23,
      "city": "名古屋市緑区",
      "city_kana": "ナゴヤシミドリク",
      "town": "鳴海町前之輪",
      "town_kana": "ナルミチョウゼンノワ",
      "street": null,
      "office_name": null,
      "office_name_kana": null
    }
  ],
  "0835": [
    {
      "postcode": "4580835",
      "prefecture": "愛知県",
      "prefecture_kana": "アイチケン",
      "prefecture_code": 23,
      "city": "名古屋市緑区",
      "city_kana": "ナゴヤシミドリク",
      "town": "鳴海町",
      "town_kana": "ナルミチョウ",
      "street": null,
      "office_name": null,
      "office_name_kana": null
    },
    {
      "postcode": "4580835",
      "prefecture": "愛知県",
      "prefecture_kana": "アイチケン",
      "prefecture_code": 23,
      "city": "名古屋市緑区",
      "city_kana": "ナゴヤシミドリク",
      "town": "鳴海町上汐田",
      "town_kana": "ナルミチョウカミシオタ",
      "street": null,
      "office_name": null,
      "office_name_kana": null
    }
  ],
  "0836": {
    "postcode": "4580836",
    "prefecture": "愛知県",
    "prefecture_kana": "アイチケン",
    "prefecture_code": 23,
    "city": "名古屋市緑区",
    "city_kana": "ナゴヤシミドリク",
    "town": "白土",
    "town_kana": "シロツチ",
    "street": null,
    "office_name": null,
    "office_name_kana": null
  },
  "0837": {
    "postcode": "4580837",
    "prefecture": "愛知県",
    "prefecture_kana": "アイチケン",
    "prefecture_code": 23,
    "city": "名古屋市緑区",
    "city_kana": "ナゴヤシミドリク",
    "town": "赤松",
    "town_kana": "アカマツ",
    "street": null,
    "office_name": null,
    "office_name_kana": null
  },
  "0838": {
    "postcode": "4580838",
    "prefecture": "愛知県",
    "prefecture_kana": "アイチケン",
    "prefecture_code": 23,
    "city": "名古屋市緑区",
    "city_kana": "ナゴヤシミドリク",
    "town": "東陵",
    "town_kana": "トウリョウ",
    "street": null,
    "office_name": null,
    "office_name_kana": null
  },
  "0841": [
    {
      "postcode": "4580841",
      "prefecture": "愛知県",
      "prefecture_kana": "アイチケン",
      "prefecture_code": 23,
      "city": "名古屋市緑区",
      "city_kana": "ナゴヤシミドリク",
      "town": "鳴海町",
      "town_kana": "ナルミチョウ",
      "street": null,
      "office_name": null,
      "office_name_kana": null
    },
    {
      "postcode": "4580841",
      "prefecture": "愛知県",
      "prefecture_kana": "アイチケン",
      "prefecture_code": 23,
      "city": "名古屋市緑区",
      "city_kana": "ナゴヤシミドリク",
      "town": "鳴海町小森",
      "town_kana": "ナルミチョウコモリ",
      "street": null,
      "office_name": null,
      "office_name_kana": null
    }
  ],
  "0842": [
    {
      "postcode": "4580842",
      "prefecture": "愛知県",
      "prefecture_kana": "アイチケン",
      "prefecture_code": 23,
      "city": "名古屋市緑区",
      "city_kana": "ナゴヤシミドリク",
      "town": "鳴海町",
      "town_kana": "ナルミチョウ",
      "street": null,
      "office_name": null,
      "office_name_kana": null
    },
    {
      "postcode": "4580842",
      "prefecture": "愛知県",
      "prefecture_kana": "アイチケン",
      "prefecture_code": 23,
      "city": "名古屋市緑区",
      "city_kana": "ナゴヤシミドリク",
      "town": "鳴海町上ノ山",
      "town_kana": "ナルミチョウウエノヤマ",
      "street": null,
      "office_name": null,
      "office_name_kana": null
    }
  ],
  "0843": {
    "postcode": "4580843",
    "prefecture": "愛知県",
    "prefecture_kana": "アイチケン",
    "prefecture_code": 23,
    "city": "名古屋市緑区",
    "city_kana": "ナゴヤシミドリク",
    "town": "松が根台",
    "town_kana": "マツガネダイ",
    "street": null,
    "office_name": null,
    "office_name_kana": null
  },
  "0844": [
    {
      "postcode": "4580844",
      "prefecture": "愛知県",
      "prefecture_kana": "アイチケン",
      "prefecture_code": 23,
      "city": "名古屋市緑区",
      "city_kana": "ナゴヤシミドリク",
      "town": "鳴海町",
      "town_kana": "ナルミチョウ",
      "street": null,
      "office_name": null,
      "office_name_kana": null
    },
    {
      "postcode": "4580844",
      "prefecture": "愛知県",
      "prefecture_kana": "アイチケン",
      "prefecture_code": 23,
      "city": "名古屋市緑区",
      "city_kana": "ナゴヤシミドリク",
      "town": "鳴海町伝治山",
      "town_kana": "ナルミチョウデンジヤマ",
      "street": null,
      "office_name": null,
      "office_name_kana": null
    }
  ],
  "0845": [
    {
      "postcode": "4580845",
      "prefecture": "愛知県",
      "prefecture_kana": "アイチケン",
      "prefecture_code": 23,
      "city": "名古屋市緑区",
      "city_kana": "ナゴヤシミドリク",
      "town": "鳴海町",
      "town_kana": "ナルミチョウ",
      "street": null,
      "office_name": null,
      "office_name_kana": null
    },
    {
      "postcode": "4580845",
      "prefecture": "愛知県",
      "prefecture_kana": "アイチケン",
      "prefecture_code": 23,
      "city": "名古屋市緑区",
      "city_kana": "ナゴヤシミドリク",
      "town": "鳴海町赤塚",
      "town_kana": "ナルミチョウアカツカ",
      "street": null,
      "office_name": null,
      "office_name_kana": null
    }
  ],
  "0846": [
    {
      "postcode": "4580846",
      "prefecture": "愛知県",
      "prefecture_kana": "アイチケン",
      "prefecture_code": 23,
      "city": "名古屋市緑区",
      "city_kana": "ナゴヤシミドリク",
      "town": "鳴海町",
      "town_kana": "ナルミチョウ",
      "street": null,
      "office_name": null,
      "office_name_kana": null
    },
    {
      "postcode": "4580846",
      "prefecture": "愛知県",
      "prefecture_kana": "アイチケン",
      "prefecture_code": 23,
      "city": "名古屋市緑区",
      "city_kana": "ナゴヤシミドリク",
      "town": "鳴海町薬師山",
      "town_kana": "ナルミチョウヤクシヤマ",
      "street": null,
      "office_name": null,
      "office_name_kana": null
    }
  ],
  "0847": {
    "postcode": "4580847",
    "prefecture": "愛知県",
    "prefecture_kana": "アイチケン",
    "prefecture_code": 23,
    "city": "名古屋市緑区",
    "city_kana": "ナゴヤシミドリク",
    "town": "浦里",
    "town_kana": "ウラサト",
    "street": null,
    "office_name": null,
    "office_name_kana": null
  },
  "0848": {
    "postcode": "4580848",
    "prefecture": "愛知県",
    "prefecture_kana": "アイチケン",
    "prefecture_code": 23,
    "city": "名古屋市緑区",
    "city_kana": "ナゴヤシミドリク",
    "town": "水広",
    "town_kana": "ミズヒロ",
    "street": null,
    "office_name": null,
    "office_name_kana": null
  },
  "0849": {
    "postcode": "4580849",
    "prefecture": "愛知県",
    "prefecture_kana": "アイチケン",
    "prefecture_code": 23,
    "city": "名古屋市緑区",
    "city_kana": "ナゴヤシミドリク",
    "town": "大清水東",
    "town_kana": "オオシミズヒガシ",
    "street": null,
    "office_name": null,
    "office_name_kana": null
  },
  "0851": {
    "postcode": "4580851",
    "prefecture": "愛知県",
    "prefecture_kana": "アイチケン",
    "prefecture_code": 23,
    "city": "名古屋市緑区",
    "city_kana": "ナゴヤシミドリク",
    "town": "熊の前",
    "town_kana": "クマノマエ",
    "street": null,
    "office_name": null,
    "office_name_kana": null
  },
  "0852": {
    "postcode": "4580852",
    "prefecture": "愛知県",
    "prefecture_kana": "アイチケン",
    "prefecture_code": 23,
    "city": "名古屋市緑区",
    "city_kana": "ナゴヤシミドリク",
    "town": "元徳重",
    "town_kana": "モトトクシゲ",
    "street": null,
    "office_name": null,
    "office_name_kana": null
  },
  "0901": {
    "postcode": "4580901",
    "prefecture": "愛知県",
    "prefecture_kana": "アイチケン",
    "prefecture_code": 23,
    "city": "名古屋市緑区",
    "city_kana": "ナゴヤシミドリク",
    "town": "有松町有松",
    "town_kana": "アリマツチョウアリマツ",
    "street": null,
    "office_name": null,
    "office_name_kana": null
  },
  "0902": {
    "postcode": "4580902",
    "prefecture": "愛知県",
    "prefecture_kana": "アイチケン",
    "prefecture_code": 23,
    "city": "名古屋市緑区",
    "city_kana": "ナゴヤシミドリク",
    "town": "有松三丁山",
    "town_kana": "アリマツサンチョウヤマ",
    "street": null,
    "office_name": null,
    "office_name_kana": null
  },
  "0903": {
    "postcode": "4580903",
    "prefecture": "愛知県",
    "prefecture_kana": "アイチケン",
    "prefecture_code": 23,
    "city": "名古屋市緑区",
    "city_kana": "ナゴヤシミドリク",
    "town": "有松愛宕",
    "town_kana": "アリマツアタゴ",
    "street": null,
    "office_name": null,
    "office_name_kana": null
  },
  "0910": {
    "postcode": "4580910",
    "prefecture": "愛知県",
    "prefecture_kana": "アイチケン",
    "prefecture_code": 23,
    "city": "名古屋市緑区",
    "city_kana": "ナゴヤシミドリク",
    "town": "桶狭間森前",
    "town_kana": "オケハザマモリマエ",
    "street": null,
    "office_name": null,
    "office_name_kana": null
  },
  "0911": {
    "postcode": "4580911",
    "prefecture": "愛知県",
    "prefecture_kana": "アイチケン",
    "prefecture_code": 23,
    "city": "名古屋市緑区",
    "city_kana": "ナゴヤシミドリク",
    "town": "有松町桶狭間",
    "town_kana": "アリマツチョウオケハザマ",
    "street": null,
    "office_name": null,
    "office_name_kana": null
  },
  "0912": [
    {
      "postcode": "4580912",
      "prefecture": "愛知県",
      "prefecture_kana": "アイチケン",
      "prefecture_code": 23,
      "city": "名古屋市緑区",
      "city_kana": "ナゴヤシミドリク",
      "town": "有松町桶狭間",
      "town_kana": "アリマツチョウオケハザマ",
      "street": null,
      "office_name": null,
      "office_name_kana": null
    },
    {
      "postcode": "4580912",
      "prefecture": "愛知県",
      "prefecture_kana": "アイチケン",
      "prefecture_code": 23,
      "city": "名古屋市緑区",
      "city_kana": "ナゴヤシミドリク",
      "town": "有松町桶狭間生山",
      "town_kana": "アリマツチョウオケハザマハエヤマ",
      "street": null,
      "office_name": null,
      "office_name_kana": null
    }
  ],
  "0913": {
    "postcode": "4580913",
    "prefecture": "愛知県",
    "prefecture_kana": "アイチケン",
    "prefecture_code": 23,
    "city": "名古屋市緑区",
    "city_kana": "ナゴヤシミドリク",
    "town": "桶狭間北",
    "town_kana": "オケハザマキタ",
    "street": null,
    "office_name": null,
    "office_name_kana": null
  },
  "0915": {
    "postcode": "4580915",
    "prefecture": "愛知県",
    "prefecture_kana": "アイチケン",
    "prefecture_code": 23,
    "city": "名古屋市緑区",
    "city_kana": "ナゴヤシミドリク",
    "town": "野末町",
    "town_kana": "ノズエチョウ",
    "street": null,
    "office_name": null,
    "office_name_kana": null
  },
  "0916": [
    {
      "postcode": "4580916",
      "prefecture": "愛知県",
      "prefecture_kana": "アイチケン",
      "prefecture_code": 23,
      "city": "名古屋市緑区",
      "city_kana": "ナゴヤシミドリク",
      "town": "有松町桶狭間",
      "town_kana": "アリマツチョウオケハザマ",
      "street": null,
      "office_name": null,
      "office_name_kana": null
    },
    {
      "postcode": "4580916",
      "prefecture": "愛知県",
      "prefecture_kana": "アイチケン",
      "prefecture_code": 23,
      "city": "名古屋市緑区",
      "city_kana": "ナゴヤシミドリク",
      "town": "有松町桶狭間愛宕西",
      "town_kana": "アリマツチョウオケハザマアタゴニシ",
      "street": null,
      "office_name": null,
      "office_name_kana": null
    }
  ],
  "0917": {
    "postcode": "4580917",
    "prefecture": "愛知県",
    "prefecture_kana": "アイチケン",
    "prefecture_code": 23,
    "city": "名古屋市緑区",
    "city_kana": "ナゴヤシミドリク",
    "town": "武路町",
    "town_kana": "タケジチョウ",
    "street": null,
    "office_name": null,
    "office_name_kana": null
  },
  "0918": {
    "postcode": "4580918",
    "prefecture": "愛知県",
    "prefecture_kana": "アイチケン",
    "prefecture_code": 23,
    "city": "名古屋市緑区",
    "city_kana": "ナゴヤシミドリク",
    "town": "南陵",
    "town_kana": "ナンリョウ",
    "street": null,
    "office_name": null,
    "office_name_kana": null
  },
  "0919": {
    "postcode": "4580919",
    "prefecture": "愛知県",
    "prefecture_kana": "アイチケン",
    "prefecture_code": 23,
    "city": "名古屋市緑区",
    "city_kana": "ナゴヤシミドリク",
    "town": "桶狭間神明",
    "town_kana": "オケハザマシンメイ",
    "street": null,
    "office_name": null,
    "office_name_kana": null
  },
  "0920": {
    "postcode": "4580920",
    "prefecture": "愛知県",
    "prefecture_kana": "アイチケン",
    "prefecture_code": 23,
    "city": "名古屋市緑区",
    "city_kana": "ナゴヤシミドリク",
    "town": "桶狭間巻山",
    "town_kana": "オケハザママキヤマ",
    "street": null,
    "office_name": null,
    "office_name_kana": null
  },
  "0921": {
    "postcode": "4580921",
    "prefecture": "愛知県",
    "prefecture_kana": "アイチケン",
    "prefecture_code": 23,
    "city": "名古屋市緑区",
    "city_kana": "ナゴヤシミドリク",
    "town": "桶狭間清水山",
    "town_kana": "オケハザマシミズヤマ",
    "street": null,
    "office_name": null,
    "office_name_kana": null
  },
  "0922": {
    "postcode": "4580922",
    "prefecture": "愛知県",
    "prefecture_kana": "アイチケン",
    "prefecture_code": 23,
    "city": "名古屋市緑区",
    "city_kana": "ナゴヤシミドリク",
    "town": "桶狭間切戸",
    "town_kana": "オケハザマキリト",
    "street": null,
    "office_name": null,
    "office_name_kana": null
  },
  "0924": {
    "postcode": "4580924",
    "prefecture": "愛知県",
    "prefecture_kana": "アイチケン",
    "prefecture_code": 23,
    "city": "名古屋市緑区",
    "city_kana": "ナゴヤシミドリク",
    "town": "有松",
    "town_kana": "アリマツ",
    "street": null,
    "office_name": null,
    "office_name_kana": null
  },
  "0925": {
    "postcode": "4580925",
    "prefecture": "愛知県",
    "prefecture_kana": "アイチケン",
    "prefecture_code": 23,
    "city": "名古屋市緑区",
    "city_kana": "ナゴヤシミドリク",
    "town": "桶狭間",
    "town_kana": "オケハザマ",
    "street": null,
    "office_name": null,
    "office_name_kana": null
  },
  "0926": {
    "postcode": "4580926",
    "prefecture": "愛知県",
    "prefecture_kana": "アイチケン",
    "prefecture_code": 23,
    "city": "名古屋市緑区",
    "city_kana": "ナゴヤシミドリク",
    "town": "桶狭間上の山",
    "town_kana": "オケハザマウエノヤマ",
    "street": null,
    "office_name": null,
    "office_name_kana": null
  },
  "0927": {
    "postcode": "4580927",
    "prefecture": "愛知県",
    "prefecture_kana": "アイチケン",
    "prefecture_code": 23,
    "city": "名古屋市緑区",
    "city_kana": "ナゴヤシミドリク",
    "town": "桶狭間南",
    "town_kana": "オケハザマミナミ",
    "street": null,
    "office_name": null,
    "office_name_kana": null
  },
  "0928": {
    "postcode": "4580928",
    "prefecture": "愛知県",
    "prefecture_kana": "アイチケン",
    "prefecture_code": 23,
    "city": "名古屋市緑区",
    "city_kana": "ナゴヤシミドリク",
    "town": "有松幕山",
    "town_kana": "アリマツマクヤマ",
    "street": null,
    "office_name": null,
    "office_name_kana": null
  },
  "0929": {
    "postcode": "4580929",
    "prefecture": "愛知県",
    "prefecture_kana": "アイチケン",
    "prefecture_code": 23,
    "city": "名古屋市緑区",
    "city_kana": "ナゴヤシミドリク",
    "town": "桶狭間西",
    "town_kana": "オケハザマニシ",
    "street": null,
    "office_name": null,
    "office_name_kana": null
  },
  "8501": {
    "postcode": "4588501",
    "prefecture": "愛知県",
    "prefecture_kana": "アイチケン",
    "prefecture_code": 23,
    "city": "名古屋市緑区",
    "city_kana": "ナゴヤシミドリク",
    "town": "鳴海町",
    "town_kana": "ナルミチョウ",
    "street": "字山下９８",
    "office_name": "株式会社　東亜製作所",
    "office_name_kana": "カブシキガイシヤ トウアセイサクシヨ"
  },
  "8502": {
    "postcode": "4588502",
    "prefecture": "愛知県",
    "prefecture_kana": "アイチケン",
    "prefecture_code": 23,
    "city": "名古屋市緑区",
    "city_kana": "ナゴヤシミドリク",
    "town": "鳴海町",
    "town_kana": "ナルミチョウ",
    "street": "字柳長８０",
    "office_name": "日本車輌製造　株式会社　鳴海製作所",
    "office_name_kana": "ニホンシヤリヨウセイゾウ カブシキガイシヤ ナルミセイサクシヨ"
  },
  "8505": {
    "postcode": "4588505",
    "prefecture": "愛知県",
    "prefecture_kana": "アイチケン",
    "prefecture_code": 23,
    "city": "名古屋市緑区",
    "city_kana": "ナゴヤシミドリク",
    "town": "鳴海町",
    "town_kana": "ナルミチョウ",
    "street": "字上汐田６８",
    "office_name": "中央発條　株式会社",
    "office_name_kana": "チユウオウハツジヨウ カブシキガイシヤ"
  },
  "8508": {
    "postcode": "4588508",
    "prefecture": "愛知県",
    "prefecture_kana": "アイチケン",
    "prefecture_code": 23,
    "city": "名古屋市緑区",
    "city_kana": "ナゴヤシミドリク",
    "town": "鳴海町",
    "town_kana": "ナルミチョウ",
    "street": "字長田７５−１",
    "office_name": "ソルダーコート　株式会社",
    "office_name_kana": "ソルダ-コ-ト カブシキガイシヤ"
  },
  "8510": {
    "postcode": "4588510",
    "prefecture": "愛知県",
    "prefecture_kana": "アイチケン",
    "prefecture_code": 23,
    "city": "名古屋市緑区",
    "city_kana": "ナゴヤシミドリク",
    "town": "浦里",
    "town_kana": "ウラサト",
    "street": "５丁目２５０",
    "office_name": "佐久間特殊鋼　株式会社",
    "office_name_kana": "サクマトクシユコウ カブシキガイシヤ"
  },
  "8515": {
    "postcode": "4588515",
    "prefecture": "愛知県",
    "prefecture_kana": "アイチケン",
    "prefecture_code": 23,
    "city": "名古屋市緑区",
    "city_kana": "ナゴヤシミドリク",
    "town": "鳴海町",
    "town_kana": "ナルミチョウ",
    "street": "字前之輪２１９",
    "office_name": "中部電力　株式会社　緑電力センター",
    "office_name_kana": "チユウブデンリヨク カブシキガイシヤ ミドリデンリヨクセンタ-"
  },
  "8520": {
    "postcode": "4588520",
    "prefecture": "愛知県",
    "prefecture_kana": "アイチケン",
    "prefecture_code": 23,
    "city": "名古屋市緑区",
    "city_kana": "ナゴヤシミドリク",
    "town": "鳴海町",
    "town_kana": "ナルミチョウ",
    "street": "字下汐田１５",
    "office_name": "ＵＤトラックス　株式会社",
    "office_name_kana": "ユ-デイ-トラツクス カブシキガイシヤ"
  },
  "8521": {
    "postcode": "4588521",
    "prefecture": "愛知県",
    "prefecture_kana": "アイチケン",
    "prefecture_code": 23,
    "city": "名古屋市緑区",
    "city_kana": "ナゴヤシミドリク",
    "town": "鳴海町",
    "town_kana": "ナルミチョウ",
    "street": "字中汐田１３０",
    "office_name": "株式会社　光金属工業所",
    "office_name_kana": "カブシキガイシヤ ヒカリキンゾクコウギヨウシヨ"
  },
  "8522": {
    "postcode": "4588522",
    "prefecture": "愛知県",
    "prefecture_kana": "アイチケン",
    "prefecture_code": 23,
    "city": "名古屋市緑区",
    "city_kana": "ナゴヤシミドリク",
    "town": "鳴海町",
    "town_kana": "ナルミチョウ",
    "street": "字杜若６６",
    "office_name": "高砂電気工業　株式会社",
    "office_name_kana": "タカサゴデンキコウギヨウ カブシキガイシヤ"
  },
  "8530": {
    "postcode": "4588530",
    "prefecture": "愛知県",
    "prefecture_kana": "アイチケン",
    "prefecture_code": 23,
    "city": "名古屋市緑区",
    "city_kana": "ナゴヤシミドリク",
    "town": "鳴海町",
    "town_kana": "ナルミチョウ",
    "street": "字伝治山３",
    "office_name": "鳴海製陶　株式会社",
    "office_name_kana": "ナルミセイトウ カブシキガイシヤ"
  },
  "8555": {
    "postcode": "4588555",
    "prefecture": "愛知県",
    "prefecture_kana": "アイチケン",
    "prefecture_code": 23,
    "city": "名古屋市緑区",
    "city_kana": "ナゴヤシミドリク",
    "town": "鳴海町",
    "town_kana": "ナルミチョウ",
    "street": "字伝治山３番地９",
    "office_name": "ユニー　株式会社　アピタ鳴海店",
    "office_name_kana": "ユニ- カブシキガイシヤ アピタナルミテン"
  },
  "8570": {
    "postcode": "4588570",
    "prefecture": "愛知県",
    "prefecture_kana": "アイチケン",
    "prefecture_code": 23,
    "city": "名古屋市緑区",
    "city_kana": "ナゴヤシミドリク",
    "town": "鳴海町",
    "town_kana": "ナルミチョウ",
    "street": "字徳重１８番地の４４",
    "office_name": "ヒルズウォーク　徳重ガーデンズ",
    "office_name_kana": "ヒルズウオ-ク トクシゲガ-デンズ"
  },
  "8571": {
    "postcode": "4588571",
    "prefecture": "愛知県",
    "prefecture_kana": "アイチケン",
    "prefecture_code": 23,
    "city": "名古屋市緑区",
    "city_kana": "ナゴヤシミドリク",
    "town": "鳴海町",
    "town_kana": "ナルミチョウ",
    "street": "字徳重１８番地の４４",
    "office_name": "ピアゴ　ラフーズ　コア　徳重店",
    "office_name_kana": "ピアゴ ラフ-ズ コア トクシゲテン"
  },
  "8580": {
    "postcode": "4588580",
    "prefecture": "愛知県",
    "prefecture_kana": "アイチケン",
    "prefecture_code": 23,
    "city": "名古屋市緑区",
    "city_kana": "ナゴヤシミドリク",
    "town": "曽根",
    "town_kana": "ソネ",
    "street": "二丁目４２７番地",
    "office_name": "名鉄自動車整備　株式会社",
    "office_name_kana": "メイテツジドウシヤセイビ カブシキガイシヤ"
  },
  "8581": {
    "postcode": "4588581",
    "prefecture": "愛知県",
    "prefecture_kana": "アイチケン",
    "prefecture_code": 23,
    "city": "名古屋市緑区",
    "city_kana": "ナゴヤシミドリク",
    "town": "有松町大字桶狭間",
    "town_kana": null,
    "street": "字高根２８−１",
    "office_name": "名城食品　株式会社",
    "office_name_kana": "メイジヨウシヨクヒン カブシキガイシヤ"
  },
  "8585": {
    "postcode": "4588585",
    "prefecture": "愛知県",
    "prefecture_kana": "アイチケン",
    "prefecture_code": 23,
    "city": "名古屋市緑区",
    "city_kana": "ナゴヤシミドリク",
    "town": "青山",
    "town_kana": "アオヤマ",
    "street": "２丁目１５",
    "office_name": "名古屋市緑区役所",
    "office_name_kana": "ナゴヤシミドリクヤクシヨ"
  }
}