{
  "0000": {
    "postcode": "4720000",
    "prefecture": "愛知県",
    "prefecture_kana": "アイチケン",
    "prefecture_code": 23,
    "city": "知立市",
    "city_kana": "チリュウシ",
    "town": "",
    "town_kana": "",
    "street": null,
    "office_name": null,
    "office_name_kana": null
  },
  "0001": {
    "postcode": "4720001",
    "prefecture": "愛知県",
    "prefecture_kana": "アイチケン",
    "prefecture_code": 23,
    "city": "知立市",
    "city_kana": "チリュウシ",
    "town": "八橋町",
    "town_kana": "ヤツハシチョウ",
    "street": null,
    "office_name": null,
    "office_name_kana": null
  },
  "0002": {
    "postcode": "4720002",
    "prefecture": "愛知県",
    "prefecture_kana": "アイチケン",
    "prefecture_code": 23,
    "city": "知立市",
    "city_kana": "チリュウシ",
    "town": "来迎寺町",
    "town_kana": "ライコウジチョウ",
    "street": null,
    "office_name": null,
    "office_name_kana": null
  },
  "0003": {
    "postcode": "4720003",
    "prefecture": "愛知県",
    "prefecture_kana": "アイチケン",
    "prefecture_code": 23,
    "city": "知立市",
    "city_kana": "チリュウシ",
    "town": "牛田",
    "town_kana": "ウシダ",
    "street": null,
    "office_name": null,
    "office_name_kana": null
  },
  "0004": {
    "postcode": "4720004",
    "prefecture": "愛知県",
    "prefecture_kana": "アイチケン",
    "prefecture_code": 23,
    "city": "知立市",
    "city_kana": "チリュウシ",
    "town": "南陽",
    "town_kana": "ナンヨウ",
    "street": null,
    "office_name": null,
    "office_name_kana": null
  },
  "0005": {
    "postcode": "4720005",
    "prefecture": "愛知県",
    "prefecture_kana": "アイチケン",
    "prefecture_code": 23,
    "city": "知立市",
    "city_kana": "チリュウシ",
    "town": "新池",
    "town_kana": "シンイケ",
    "street": null,
    "office_name": null,
    "office_name_kana": null
  },
  "0006": {
    "postcode": "4720006",
    "prefecture": "愛知県",
    "prefecture_kana": "アイチケン",
    "prefecture_code": 23,
    "city": "知立市",
    "city_kana": "チリュウシ",
    "town": "山町",
    "town_kana": "ヤママチ",
    "street": null,
    "office_name": null,
    "office_name_kana": null
  },
  "0007": {
    "postcode": "4720007",
    "prefecture": "愛知県",
    "prefecture_kana": "アイチケン",
    "prefecture_code": 23,
    "city": "知立市",
    "city_kana": "チリュウシ",
    "town": "牛田町",
    "town_kana": "ウシタチョウ",
    "street": null,
    "office_name": null,
    "office_name_kana": null
  },
  "0011": {
    "postcode": "4720011",
    "prefecture": "愛知県",
    "prefecture_kana": "アイチケン",
    "prefecture_code": 23,
    "city": "知立市",
    "city_kana": "チリュウシ",
    "town": "昭和",
    "town_kana": "ショウワ",
    "street": null,
    "office_name": null,
    "office_name_kana": null
  },
  "0012": {
    "postcode": "4720012",
    "prefecture": "愛知県",
    "prefecture_kana": "アイチケン",
    "prefecture_code": 23,
    "city": "知立市",
    "city_kana": "チリュウシ",
    "town": "八ツ田町",
    "town_kana": "ヤツダチョウ",
    "street": null,
    "office_name": null,
    "office_name_kana": null
  },
  "0013": {
    "postcode": "4720013",
    "prefecture": "愛知県",
    "prefecture_kana": "アイチケン",
    "prefecture_code": 23,
    "city": "知立市",
    "city_kana": "チリュウシ",
    "town": "谷田町",
    "town_kana": "ヤタチョウ",
    "street": null,
    "office_name": null,
    "office_name_kana": null
  },
  "0014": {
    "postcode": "4720014",
    "prefecture": "愛知県",
    "prefecture_kana": "アイチケン",
    "prefecture_code": 23,
    "city": "知立市",
    "city_kana": "チリュウシ",
    "town": "谷田町西",
    "town_kana": "ヤタチョウニシ",
    "street": null,
    "office_name": null,
    "office_name_kana": null
  },
  "0015": {
    "postcode": "4720015",
    "prefecture": "愛知県",
    "prefecture_kana": "アイチケン",
    "prefecture_code": 23,
    "city": "知立市",
    "city_kana": "チリュウシ",
    "town": "谷田町本林",
    "town_kana": "ヤタチョウホンバヤシ",
    "street": null,
    "office_name": null,
    "office_name_kana": null
  },
  "0016": {
    "postcode": "4720016",
    "prefecture": "愛知県",
    "prefecture_kana": "アイチケン",
    "prefecture_code": 23,
    "city": "知立市",
    "city_kana": "チリュウシ",
    "town": "西中町",
    "town_kana": "ニシナカチョウ",
    "street": null,
    "office_name": null,
    "office_name_kana": null
  },
  "0017": {
    "postcode": "4720017",
    "prefecture": "愛知県",
    "prefecture_kana": "アイチケン",
    "prefecture_code": 23,
    "city": "知立市",
    "city_kana": "チリュウシ",
    "town": "新林町",
    "town_kana": "シンバヤシチョウ",
    "street": null,
    "office_name": null,
    "office_name_kana": null
  },
  "0021": {
    "postcode": "4720021",
    "prefecture": "愛知県",
    "prefecture_kana": "アイチケン",
    "prefecture_code": 23,
    "city": "知立市",
    "city_kana": "チリュウシ",
    "town": "逢妻町",
    "town_kana": "アイヅマチョウ",
    "street": null,
    "office_name": null,
    "office_name_kana": null
  },
  "0022": {
    "postcode": "4720022",
    "prefecture": "愛知県",
    "prefecture_kana": "アイチケン",
    "prefecture_code": 23,
    "city": "知立市",
    "city_kana": "チリュウシ",
    "town": "山屋敷町",
    "town_kana": "ヤマヤシキチョウ",
    "street": null,
    "office_name": null,
    "office_name_kana": null
  },
  "0023": {
    "postcode": "4720023",
    "prefecture": "愛知県",
    "prefecture_kana": "アイチケン",
    "prefecture_code": 23,
    "city": "知立市",
    "city_kana": "チリュウシ",
    "town": "西町",
    "town_kana": "ニシマチ",
    "street": null,
    "office_name": null,
    "office_name_kana": null
  },
  "0024": {
    "postcode": "4720024",
    "prefecture": "愛知県",
    "prefecture_kana": "アイチケン",
    "prefecture_code": 23,
    "city": "知立市",
    "city_kana": "チリュウシ",
    "town": "宝町",
    "town_kana": "タカラマチ",
    "street": null,
    "office_name": null,
    "office_name_kana": null
  },
  "0025": {
    "postcode": "4720025",
    "prefecture": "愛知県",
    "prefecture_kana": "アイチケン",
    "prefecture_code": 23,
    "city": "知立市",
    "city_kana": "チリュウシ",
    "town": "池端",
    "town_kana": "イケハタ",
    "street": null,
    "office_name": null,
    "office_name_kana": null
  },
  "0026": {
    "postcode": "4720026",
    "prefecture": "愛知県",
    "prefecture_kana": "アイチケン",
    "prefecture_code": 23,
    "city": "知立市",
    "city_kana": "チリュウシ",
    "town": "上重原町",
    "town_kana": "カミシゲハラチョウ",
    "street": null,
    "office_name": null,
    "office_name_kana": null
  },
  "0027": {
    "postcode": "4720027",
    "prefecture": "愛知県",
    "prefecture_kana": "アイチケン",
    "prefecture_code": 23,
    "city": "知立市",
    "city_kana": "チリュウシ",
    "town": "西丘町",
    "town_kana": "ニシオカチョウ",
    "street": null,
    "office_name": null,
    "office_name_kana": null
  },
  "0031": {
    "postcode": "4720031",
    "prefecture": "愛知県",
    "prefecture_kana": "アイチケン",
    "prefecture_code": 23,
    "city": "知立市",
    "city_kana": "チリュウシ",
    "town": "桜木町",
    "town_kana": "サクラギチョウ",
    "street": null,
    "office_name": null,
    "office_name_kana": null
  },
  "0032": {
    "postcode": "4720032",
    "prefecture": "愛知県",
    "prefecture_kana": "アイチケン",
    "prefecture_code": 23,
    "city": "知立市",
    "city_kana": "チリュウシ",
    "town": "中山町",
    "town_kana": "ナカヤママチ",
    "street": null,
    "office_name": null,
    "office_name_kana": null
  },
  "0033": {
    "postcode": "4720033",
    "prefecture": "愛知県",
    "prefecture_kana": "アイチケン",
    "prefecture_code": 23,
    "city": "知立市",
    "city_kana": "チリュウシ",
    "town": "中町",
    "town_kana": "ナカマチ",
    "street": null,
    "office_name": null,
    "office_name_kana": null
  },
  "0034": {
    "postcode": "4720034",
    "prefecture": "愛知県",
    "prefecture_kana": "アイチケン",
    "prefecture_code": 23,
    "city": "知立市",
    "city_kana": "チリュウシ",
    "town": "弘栄",
    "town_kana": "コウエイ",
    "street": null,
    "office_name": null,
    "office_name_kana": null
  },
  "0035": {
    "postcode": "4720035",
    "prefecture": "愛知県",
    "prefecture_kana": "アイチケン",
    "prefecture_code": 23,
    "city": "知立市",
    "city_kana": "チリュウシ",
    "town": "長田",
    "town_kana": "ナガタ",
    "street": null,
    "office_name": null,
    "office_name_kana": null
  },
  "0036": {
    "postcode": "4720036",
    "prefecture": "愛知県",
    "prefecture_kana": "アイチケン",
    "prefecture_code": 23,
    "city": "知立市",
    "city_kana": "チリュウシ",
    "town": "堀切",
    "town_kana": "ホリキリ",
    "street": null,
    "office_name": null,
    "office_name_kana": null
  },
  "0037": {
    "postcode": "4720037",
    "prefecture": "愛知県",
    "prefecture_kana": "アイチケン",
    "prefecture_code": 23,
    "city": "知立市",
    "city_kana": "チリュウシ",
    "town": "栄",
    "town_kana": "サカエ",
    "street": null,
    "office_name": null,
    "office_name_kana": null
  },
  "0038": {
    "postcode": "4720038",
    "prefecture": "愛知県",
    "prefecture_kana": "アイチケン",
    "prefecture_code": 23,
    "city": "知立市",
    "city_kana": "チリュウシ",
    "town": "本町",
    "town_kana": "ホンマチ",
    "street": null,
    "office_name": null,
    "office_name_kana": null
  },
  "0041": {
    "postcode": "4720041",
    "prefecture": "愛知県",
    "prefecture_kana": "アイチケン",
    "prefecture_code": 23,
    "city": "知立市",
    "city_kana": "チリュウシ",
    "town": "新地町",
    "town_kana": "シンチチョウ",
    "street": null,
    "office_name": null,
    "office_name_kana": null
  },
  "0042": {
    "postcode": "4720042",
    "prefecture": "愛知県",
    "prefecture_kana": "アイチケン",
    "prefecture_code": 23,
    "city": "知立市",
    "city_kana": "チリュウシ",
    "town": "内幸町",
    "town_kana": "ウチサイワイチョウ",
    "street": null,
    "office_name": null,
    "office_name_kana": null
  },
  "0043": {
    "postcode": "4720043",
    "prefecture": "愛知県",
    "prefecture_kana": "アイチケン",
    "prefecture_code": 23,
    "city": "知立市",
    "city_kana": "チリュウシ",
    "town": "東栄",
    "town_kana": "トウエイ",
    "street": null,
    "office_name": null,
    "office_name_kana": null
  },
  "0044": {
    "postcode": "4720044",
    "prefecture": "愛知県",
    "prefecture_kana": "アイチケン",
    "prefecture_code": 23,
    "city": "知立市",
    "city_kana": "チリュウシ",
    "town": "広見",
    "town_kana": "ヒロミ",
    "street": null,
    "office_name": null,
    "office_name_kana": null
  },
  "0045": {
    "postcode": "4720045",
    "prefecture": "愛知県",
    "prefecture_kana": "アイチケン",
    "prefecture_code": 23,
    "city": "知立市",
    "city_kana": "チリュウシ",
    "town": "長篠町",
    "town_kana": "ナガシノチョウ",
    "street": null,
    "office_name": null,
    "office_name_kana": null
  },
  "0046": {
    "postcode": "4720046",
    "prefecture": "愛知県",
    "prefecture_kana": "アイチケン",
    "prefecture_code": 23,
    "city": "知立市",
    "city_kana": "チリュウシ",
    "town": "弘法町",
    "town_kana": "コウボウチョウ",
    "street": null,
    "office_name": null,
    "office_name_kana": null
  },
  "0047": {
    "postcode": "4720047",
    "prefecture": "愛知県",
    "prefecture_kana": "アイチケン",
    "prefecture_code": 23,
    "city": "知立市",
    "city_kana": "チリュウシ",
    "town": "新富",
    "town_kana": "シントミ",
    "street": null,
    "office_name": null,
    "office_name_kana": null
  },
  "0051": {
    "postcode": "4720051",
    "prefecture": "愛知県",
    "prefecture_kana": "アイチケン",
    "prefecture_code": 23,
    "city": "知立市",
    "city_kana": "チリュウシ",
    "town": "東長篠",
    "town_kana": "ヒガシナガシノ",
    "street": null,
    "office_name": null,
    "office_name_kana": null
  },
  "0052": {
    "postcode": "4720052",
    "prefecture": "愛知県",
    "prefecture_kana": "アイチケン",
    "prefecture_code": 23,
    "city": "知立市",
    "city_kana": "チリュウシ",
    "town": "弘法",
    "town_kana": "コウボウ",
    "street": null,
    "office_name": null,
    "office_name_kana": null
  },
  "0053": {
    "postcode": "4720053",
    "prefecture": "愛知県",
    "prefecture_kana": "アイチケン",
    "prefecture_code": 23,
    "city": "知立市",
    "city_kana": "チリュウシ",
    "town": "南新地",
    "town_kana": "ミナミシンチ",
    "street": null,
    "office_name": null,
    "office_name_kana": null
  },
  "0054": {
    "postcode": "4720054",
    "prefecture": "愛知県",
    "prefecture_kana": "アイチケン",
    "prefecture_code": 23,
    "city": "知立市",
    "city_kana": "チリュウシ",
    "town": "東上重原",
    "town_kana": "ヒガシカミシゲハラ",
    "street": null,
    "office_name": null,
    "office_name_kana": null
  },
  "0055": {
    "postcode": "4720055",
    "prefecture": "愛知県",
    "prefecture_kana": "アイチケン",
    "prefecture_code": 23,
    "city": "知立市",
    "city_kana": "チリュウシ",
    "town": "鳥居",
    "town_kana": "トリイ",
    "street": null,
    "office_name": null,
    "office_name_kana": null
  },
  "0056": {
    "postcode": "4720056",
    "prefecture": "愛知県",
    "prefecture_kana": "アイチケン",
    "prefecture_code": 23,
    "city": "知立市",
    "city_kana": "チリュウシ",
    "town": "宝",
    "town_kana": "タカラ",
    "street": null,
    "office_name": null,
    "office_name_kana": null
  },
  "0057": {
    "postcode": "4720057",
    "prefecture": "愛知県",
    "prefecture_kana": "アイチケン",
    "prefecture_code": 23,
    "city": "知立市",
    "city_kana": "チリュウシ",
    "town": "西",
    "town_kana": "ニシ",
    "street": null,
    "office_name": null,
    "office_name_kana": null
  },
  "0058": {
    "postcode": "4720058",
    "prefecture": "愛知県",
    "prefecture_kana": "アイチケン",
    "prefecture_code": 23,
    "city": "知立市",
    "city_kana": "チリュウシ",
    "town": "上重原",
    "town_kana": "カミシゲハラ",
    "street": null,
    "office_name": null,
    "office_name_kana": null
  },
  "8555": {
    "postcode": "4728555",
    "prefecture": "愛知県",
    "prefecture_kana": "アイチケン",
    "prefecture_code": 23,
    "city": "知立市",
    "city_kana": "チリュウシ",
    "town": "弘法町",
    "town_kana": "コウボウチョウ",
    "street": "弘法山１９",
    "office_name": "（宗）　遍照院",
    "office_name_kana": "(シユウ) ヘンシヨウイン"
  },
  "8585": {
    "postcode": "4728585",
    "prefecture": "愛知県",
    "prefecture_kana": "アイチケン",
    "prefecture_code": 23,
    "city": "知立市",
    "city_kana": "チリュウシ",
    "town": "弘法",
    "town_kana": "コウボウ",
    "street": "二丁目５番地８",
    "office_name": "愛知県立　知立高等学校",
    "office_name_kana": "アイチケンリツ チリユウコウトウガツコウ"
  },
  "8639": {
    "postcode": "4728639",
    "prefecture": "愛知県",
    "prefecture_kana": "アイチケン",
    "prefecture_code": 23,
    "city": "知立市",
    "city_kana": "チリュウシ",
    "town": "長篠町",
    "town_kana": "ナガシノチョウ",
    "street": "大山１８−６",
    "office_name": "愛知県立知立東高等学校",
    "office_name_kana": "アイチケンリツチリユウヒガシコウトウガツコウ"
  },
  "8666": {
    "postcode": "4728666",
    "prefecture": "愛知県",
    "prefecture_kana": "アイチケン",
    "prefecture_code": 23,
    "city": "知立市",
    "city_kana": "チリュウシ",
    "town": "広見",
    "town_kana": "ヒロミ",
    "street": "３丁目１（知立郵便局私書箱第９号）",
    "office_name": "知立市役所",
    "office_name_kana": "チリユウシヤクシヨ"
  },
  "8686": {
    "postcode": "4728686",
    "prefecture": "愛知県",
    "prefecture_kana": "アイチケン",
    "prefecture_code": 23,
    "city": "知立市",
    "city_kana": "チリュウシ",
    "town": "山町",
    "town_kana": "ヤママチ",
    "street": "茶碓山１９",
    "office_name": "株式会社　ＦＵＪＩ",
    "office_name_kana": "カブシキガイシヤ フジ"
  }
}