{
  "0100": [
    {
      "postcode": "4800100",
      "prefecture": "愛知県",
      "prefecture_kana": "アイチケン",
      "prefecture_code": 23,
      "city": "丹羽郡大口町",
      "city_kana": "ニワグンオオグチチョウ",
      "town": "",
      "town_kana": "",
      "street": null,
      "office_name": null,
      "office_name_kana": null
    },
    {
      "postcode": "4800100",
      "prefecture": "愛知県",
      "prefecture_kana": "アイチケン",
      "prefecture_code": 23,
      "city": "丹羽郡扶桑町",
      "city_kana": "ニワグンフソウチョウ",
      "town": "",
      "town_kana": "",
      "street": null,
      "office_name": null,
      "office_name_kana": null
    }
  ],
  "0101": {
    "postcode": "4800101",
    "prefecture": "愛知県",
    "prefecture_kana": "アイチケン",
    "prefecture_code": 23,
    "city": "丹羽郡扶桑町",
    "city_kana": "ニワグンフソウチョウ",
    "town": "山那",
    "town_kana": "ヤマナ",
    "street": null,
    "office_name": null,
    "office_name_kana": null
  },
  "0102": {
    "postcode": "4800102",
    "prefecture": "愛知県",
    "prefecture_kana": "アイチケン",
    "prefecture_code": 23,
    "city": "丹羽郡扶桑町",
    "city_kana": "ニワグンフソウチョウ",
    "town": "高雄",
    "town_kana": "タカオ",
    "street": null,
    "office_name": null,
    "office_name_kana": null
  },
  "0103": {
    "postcode": "4800103",
    "prefecture": "愛知県",
    "prefecture_kana": "アイチケン",
    "prefecture_code": 23,
    "city": "丹羽郡扶桑町",
    "city_kana": "ニワグンフソウチョウ",
    "town": "柏森",
    "town_kana": "カシワモリ",
    "street": null,
    "office_name": null,
    "office_name_kana": null
  },
  "0104": {
    "postcode": "4800104",
    "prefecture": "愛知県",
    "prefecture_kana": "アイチケン",
    "prefecture_code": 23,
    "city": "丹羽郡扶桑町",
    "city_kana": "ニワグンフソウチョウ",
    "town": "斎藤",
    "town_kana": "サイト",
    "street": null,
    "office_name": null,
    "office_name_kana": null
  },
  "0105": {
    "postcode": "4800105",
    "prefecture": "愛知県",
    "prefecture_kana": "アイチケン",
    "prefecture_code": 23,
    "city": "丹羽郡扶桑町",
    "city_kana": "ニワグンフソウチョウ",
    "town": "南山名",
    "town_kana": "ミナミヤナ",
    "street": null,
    "office_name": null,
    "office_name_kana": null
  },
  "0106": {
    "postcode": "4800106",
    "prefecture": "愛知県",
    "prefecture_kana": "アイチケン",
    "prefecture_code": 23,
    "city": "丹羽郡扶桑町",
    "city_kana": "ニワグンフソウチョウ",
    "town": "小淵",
    "town_kana": "オブチ",
    "street": null,
    "office_name": null,
    "office_name_kana": null
  },
  "0107": {
    "postcode": "4800107",
    "prefecture": "愛知県",
    "prefecture_kana": "アイチケン",
    "prefecture_code": 23,
    "city": "丹羽郡扶桑町",
    "city_kana": "ニワグンフソウチョウ",
    "town": "高木",
    "town_kana": "タカギ",
    "street": null,
    "office_name": null,
    "office_name_kana": null
  },
  "0121": {
    "postcode": "4800121",
    "prefecture": "愛知県",
    "prefecture_kana": "アイチケン",
    "prefecture_code": 23,
    "city": "丹羽郡大口町",
    "city_kana": "ニワグンオオグチチョウ",
    "town": "河北",
    "town_kana": "コギタ",
    "street": null,
    "office_name": null,
    "office_name_kana": null
  },
  "0122": {
    "postcode": "4800122",
    "prefecture": "愛知県",
    "prefecture_kana": "アイチケン",
    "prefecture_code": 23,
    "city": "丹羽郡大口町",
    "city_kana": "ニワグンオオグチチョウ",
    "town": "仲沖",
    "town_kana": "ナカオキ",
    "street": null,
    "office_name": null,
    "office_name_kana": null
  },
  "0123": {
    "postcode": "4800123",
    "prefecture": "愛知県",
    "prefecture_kana": "アイチケン",
    "prefecture_code": 23,
    "city": "丹羽郡大口町",
    "city_kana": "ニワグンオオグチチョウ",
    "town": "二ツ屋",
    "town_kana": "フタツヤ",
    "street": null,
    "office_name": null,
    "office_name_kana": null
  },
  "0124": {
    "postcode": "4800124",
    "prefecture": "愛知県",
    "prefecture_kana": "アイチケン",
    "prefecture_code": 23,
    "city": "丹羽郡大口町",
    "city_kana": "ニワグンオオグチチョウ",
    "town": "萩島",
    "town_kana": "ハギシマ",
    "street": null,
    "office_name": null,
    "office_name_kana": null
  },
  "0125": {
    "postcode": "4800125",
    "prefecture": "愛知県",
    "prefecture_kana": "アイチケン",
    "prefecture_code": 23,
    "city": "丹羽郡大口町",
    "city_kana": "ニワグンオオグチチョウ",
    "town": "外坪",
    "town_kana": "トツボ",
    "street": null,
    "office_name": null,
    "office_name_kana": null
  },
  "0126": {
    "postcode": "4800126",
    "prefecture": "愛知県",
    "prefecture_kana": "アイチケン",
    "prefecture_code": 23,
    "city": "丹羽郡大口町",
    "city_kana": "ニワグンオオグチチョウ",
    "town": "伝右",
    "town_kana": "デンネ",
    "street": null,
    "office_name": null,
    "office_name_kana": null
  },
  "0127": {
    "postcode": "4800127",
    "prefecture": "愛知県",
    "prefecture_kana": "アイチケン",
    "prefecture_code": 23,
    "city": "丹羽郡大口町",
    "city_kana": "ニワグンオオグチチョウ",
    "town": "新宮",
    "town_kana": "シンミヤ",
    "street": null,
    "office_name": null,
    "office_name_kana": null
  },
  "0131": {
    "postcode": "4800131",
    "prefecture": "愛知県",
    "prefecture_kana": "アイチケン",
    "prefecture_code": 23,
    "city": "丹羽郡大口町",
    "city_kana": "ニワグンオオグチチョウ",
    "town": "高橋",
    "town_kana": "タカハシ",
    "street": null,
    "office_name": null,
    "office_name_kana": null
  },
  "0132": {
    "postcode": "4800132",
    "prefecture": "愛知県",
    "prefecture_kana": "アイチケン",
    "prefecture_code": 23,
    "city": "丹羽郡大口町",
    "city_kana": "ニワグンオオグチチョウ",
    "town": "秋田",
    "town_kana": "アキタ",
    "street": null,
    "office_name": null,
    "office_name_kana": null
  },
  "0133": {
    "postcode": "4800133",
    "prefecture": "愛知県",
    "prefecture_kana": "アイチケン",
    "prefecture_code": 23,
    "city": "丹羽郡大口町",
    "city_kana": "ニワグンオオグチチョウ",
    "town": "替地",
    "town_kana": "カエチ",
    "street": null,
    "office_name": null,
    "office_name_kana": null
  },
  "0134": {
    "postcode": "4800134",
    "prefecture": "愛知県",
    "prefecture_kana": "アイチケン",
    "prefecture_code": 23,
    "city": "丹羽郡大口町",
    "city_kana": "ニワグンオオグチチョウ",
    "town": "豊田",
    "town_kana": "トヨタ",
    "street": null,
    "office_name": null,
    "office_name_kana": null
  },
  "0135": {
    "postcode": "4800135",
    "prefecture": "愛知県",
    "prefecture_kana": "アイチケン",
    "prefecture_code": 23,
    "city": "丹羽郡大口町",
    "city_kana": "ニワグンオオグチチョウ",
    "town": "御供所",
    "town_kana": "ゴゴショ",
    "street": null,
    "office_name": null,
    "office_name_kana": null
  },
  "0136": {
    "postcode": "4800136",
    "prefecture": "愛知県",
    "prefecture_kana": "アイチケン",
    "prefecture_code": 23,
    "city": "丹羽郡大口町",
    "city_kana": "ニワグンオオグチチョウ",
    "town": "堀尾跡",
    "town_kana": "ホリオセキ",
    "street": null,
    "office_name": null,
    "office_name_kana": null
  },
  "0137": {
    "postcode": "4800137",
    "prefecture": "愛知県",
    "prefecture_kana": "アイチケン",
    "prefecture_code": 23,
    "city": "丹羽郡大口町",
    "city_kana": "ニワグンオオグチチョウ",
    "town": "大屋敷",
    "town_kana": "オオヤシキ",
    "street": null,
    "office_name": null,
    "office_name_kana": null
  },
  "0138": {
    "postcode": "4800138",
    "prefecture": "愛知県",
    "prefecture_kana": "アイチケン",
    "prefecture_code": 23,
    "city": "丹羽郡大口町",
    "city_kana": "ニワグンオオグチチョウ",
    "town": "大御堂",
    "town_kana": "オミド",
    "street": null,
    "office_name": null,
    "office_name_kana": null
  },
  "0139": {
    "postcode": "4800139",
    "prefecture": "愛知県",
    "prefecture_kana": "アイチケン",
    "prefecture_code": 23,
    "city": "丹羽郡大口町",
    "city_kana": "ニワグンオオグチチョウ",
    "town": "奈良子",
    "town_kana": "ナラシ",
    "street": null,
    "office_name": null,
    "office_name_kana": null
  },
  "0141": {
    "postcode": "4800141",
    "prefecture": "愛知県",
    "prefecture_kana": "アイチケン",
    "prefecture_code": 23,
    "city": "丹羽郡大口町",
    "city_kana": "ニワグンオオグチチョウ",
    "town": "上小口",
    "town_kana": "カミオグチ",
    "street": null,
    "office_name": null,
    "office_name_kana": null
  },
  "0142": {
    "postcode": "4800142",
    "prefecture": "愛知県",
    "prefecture_kana": "アイチケン",
    "prefecture_code": 23,
    "city": "丹羽郡大口町",
    "city_kana": "ニワグンオオグチチョウ",
    "town": "中小口",
    "town_kana": "ナカオグチ",
    "street": null,
    "office_name": null,
    "office_name_kana": null
  },
  "0143": {
    "postcode": "4800143",
    "prefecture": "愛知県",
    "prefecture_kana": "アイチケン",
    "prefecture_code": 23,
    "city": "丹羽郡大口町",
    "city_kana": "ニワグンオオグチチョウ",
    "town": "城屋敷",
    "town_kana": "シロヤシキ",
    "street": null,
    "office_name": null,
    "office_name_kana": null
  },
  "0144": {
    "postcode": "4800144",
    "prefecture": "愛知県",
    "prefecture_kana": "アイチケン",
    "prefecture_code": 23,
    "city": "丹羽郡大口町",
    "city_kana": "ニワグンオオグチチョウ",
    "town": "下小口",
    "town_kana": "シモオグチ",
    "street": null,
    "office_name": null,
    "office_name_kana": null
  },
  "0145": {
    "postcode": "4800145",
    "prefecture": "愛知県",
    "prefecture_kana": "アイチケン",
    "prefecture_code": 23,
    "city": "丹羽郡大口町",
    "city_kana": "ニワグンオオグチチョウ",
    "town": "丸",
    "town_kana": "マル",
    "street": null,
    "office_name": null,
    "office_name_kana": null
  },
  "0146": {
    "postcode": "4800146",
    "prefecture": "愛知県",
    "prefecture_kana": "アイチケン",
    "prefecture_code": 23,
    "city": "丹羽郡大口町",
    "city_kana": "ニワグンオオグチチョウ",
    "town": "余野",
    "town_kana": "ヨノ",
    "street": null,
    "office_name": null,
    "office_name_kana": null
  },
  "0147": {
    "postcode": "4800147",
    "prefecture": "愛知県",
    "prefecture_kana": "アイチケン",
    "prefecture_code": 23,
    "city": "丹羽郡大口町",
    "city_kana": "ニワグンオオグチチョウ",
    "town": "竹田",
    "town_kana": "タケダ",
    "street": null,
    "office_name": null,
    "office_name_kana": null
  },
  "0148": {
    "postcode": "4800148",
    "prefecture": "愛知県",
    "prefecture_kana": "アイチケン",
    "prefecture_code": 23,
    "city": "丹羽郡大口町",
    "city_kana": "ニワグンオオグチチョウ",
    "town": "小口",
    "town_kana": "オグチ",
    "street": null,
    "office_name": null,
    "office_name_kana": null
  },
  "0149": {
    "postcode": "4800149",
    "prefecture": "愛知県",
    "prefecture_kana": "アイチケン",
    "prefecture_code": 23,
    "city": "丹羽郡大口町",
    "city_kana": "ニワグンオオグチチョウ",
    "town": "垣田",
    "town_kana": "カキタ",
    "street": null,
    "office_name": null,
    "office_name_kana": null
  },
  "0151": {
    "postcode": "4800151",
    "prefecture": "愛知県",
    "prefecture_kana": "アイチケン",
    "prefecture_code": 23,
    "city": "丹羽郡大口町",
    "city_kana": "ニワグンオオグチチョウ",
    "town": "さつきケ丘",
    "town_kana": "サツキガオカ",
    "street": null,
    "office_name": null,
    "office_name_kana": null
  },
  "0192": {
    "postcode": "4800192",
    "prefecture": "愛知県",
    "prefecture_kana": "アイチケン",
    "prefecture_code": 23,
    "city": "丹羽郡大口町",
    "city_kana": "ニワグンオオグチチョウ",
    "town": "中小口",
    "town_kana": "ナカオグチ",
    "street": "１丁目１",
    "office_name": "兼房　株式会社",
    "office_name_kana": "カネフサ カブシキガイシヤ"
  },
  "0193": {
    "postcode": "4800193",
    "prefecture": "愛知県",
    "prefecture_kana": "アイチケン",
    "prefecture_code": 23,
    "city": "丹羽郡大口町",
    "city_kana": "ニワグンオオグチチョウ",
    "town": "下小口",
    "town_kana": "シモオグチ",
    "street": "５丁目２５−１（扶桑郵便局私書箱第１号）",
    "office_name": "オークマ　株式会社",
    "office_name_kana": "オ-クマ カブシキガイシヤ"
  },
  "0195": {
    "postcode": "4800195",
    "prefecture": "愛知県",
    "prefecture_kana": "アイチケン",
    "prefecture_code": 23,
    "city": "丹羽郡大口町",
    "city_kana": "ニワグンオオグチチョウ",
    "town": "豊田",
    "town_kana": "トヨタ",
    "street": "３丁目２６０",
    "office_name": "株式会社　東海理化電機製作所",
    "office_name_kana": "カブシキガイシヤ トウカイリカデンキセイサクシヨ"
  },
  "0197": {
    "postcode": "4800197",
    "prefecture": "愛知県",
    "prefecture_kana": "アイチケン",
    "prefecture_code": 23,
    "city": "丹羽郡大口町",
    "city_kana": "ニワグンオオグチチョウ",
    "town": "竹田",
    "town_kana": "タケダ",
    "street": "１丁目１３１",
    "office_name": "ヤマザキマザック　株式会社",
    "office_name_kana": "ヤマザキマザツク カブシキガイシヤ"
  },
  "0198": {
    "postcode": "4800198",
    "prefecture": "愛知県",
    "prefecture_kana": "アイチケン",
    "prefecture_code": 23,
    "city": "丹羽郡大口町",
    "city_kana": "ニワグンオオグチチョウ",
    "town": "高橋",
    "town_kana": "タカハシ",
    "street": "１丁目８",
    "office_name": "青山製作所　株式会社",
    "office_name_kana": "アオヤマセイサクシヨ カブシキガイシヤ"
  },
  "0200": {
    "postcode": "4800200",
    "prefecture": "愛知県",
    "prefecture_kana": "アイチケン",
    "prefecture_code": 23,
    "city": "西春日井郡豊山町",
    "city_kana": "ニシカスガイグントヨヤマチョウ",
    "town": "",
    "town_kana": "",
    "street": null,
    "office_name": null,
    "office_name_kana": null
  },
  "0201": {
    "postcode": "4800201",
    "prefecture": "愛知県",
    "prefecture_kana": "アイチケン",
    "prefecture_code": 23,
    "city": "西春日井郡豊山町",
    "city_kana": "ニシカスガイグントヨヤマチョウ",
    "town": "青山",
    "town_kana": "アオヤマ",
    "street": null,
    "office_name": null,
    "office_name_kana": null
  },
  "0202": {
    "postcode": "4800202",
    "prefecture": "愛知県",
    "prefecture_kana": "アイチケン",
    "prefecture_code": 23,
    "city": "西春日井郡豊山町",
    "city_kana": "ニシカスガイグントヨヤマチョウ",
    "town": "豊場",
    "town_kana": "トヨバ",
    "street": null,
    "office_name": null,
    "office_name_kana": null
  },
  "0281": {
    "postcode": "4800281",
    "prefecture": "愛知県",
    "prefecture_kana": "アイチケン",
    "prefecture_code": 23,
    "city": "西春日井郡豊山町",
    "city_kana": "ニシカスガイグントヨヤマチョウ",
    "town": "豊場",
    "town_kana": "トヨバ",
    "street": "八反１０７",
    "office_name": "セントライ青果　株式会社",
    "office_name_kana": "セントライセイカ カブシキガイシヤ"
  },
  "0282": {
    "postcode": "4800282",
    "prefecture": "愛知県",
    "prefecture_kana": "アイチケン",
    "prefecture_code": 23,
    "city": "西春日井郡豊山町",
    "city_kana": "ニシカスガイグントヨヤマチョウ",
    "town": "大字豊場",
    "town_kana": null,
    "street": "字林先１番８",
    "office_name": "アピタ名古屋空港店",
    "office_name_kana": "アピタナゴヤクウコウテン"
  },
  "0287": {
    "postcode": "4800287",
    "prefecture": "愛知県",
    "prefecture_kana": "アイチケン",
    "prefecture_code": 23,
    "city": "西春日井郡豊山町",
    "city_kana": "ニシカスガイグントヨヤマチョウ",
    "town": "",
    "town_kana": "",
    "street": "名古屋空港内",
    "office_name": "三菱航空機　株式会社",
    "office_name_kana": "ミツビシコウクウキ カブシキガイシヤ"
  },
  "0288": {
    "postcode": "4800288",
    "prefecture": "愛知県",
    "prefecture_kana": "アイチケン",
    "prefecture_code": 23,
    "city": "西春日井郡豊山町",
    "city_kana": "ニシカスガイグントヨヤマチョウ",
    "town": "大字豊場",
    "town_kana": null,
    "street": "字林先１番８",
    "office_name": "エアポートウォーク名古屋",
    "office_name_kana": "エアポ-トウオ-クナゴヤ"
  },
  "0291": {
    "postcode": "4800291",
    "prefecture": "愛知県",
    "prefecture_kana": "アイチケン",
    "prefecture_code": 23,
    "city": "西春日井郡豊山町",
    "city_kana": "ニシカスガイグントヨヤマチョウ",
    "town": "大字豊場",
    "town_kana": null,
    "street": "字八反１０７",
    "office_name": "名北魚市場　株式会社",
    "office_name_kana": "メイホクウオイチバ カブシキガイシヤ"
  },
  "0292": {
    "postcode": "4800292",
    "prefecture": "愛知県",
    "prefecture_kana": "アイチケン",
    "prefecture_code": 23,
    "city": "西春日井郡豊山町",
    "city_kana": "ニシカスガイグントヨヤマチョウ",
    "town": "大字豊場",
    "town_kana": null,
    "street": "字新栄２６０",
    "office_name": "豊山町役場",
    "office_name_kana": "トヨヤマチヨウヤクバ"
  },
  "0293": {
    "postcode": "4800293",
    "prefecture": "愛知県",
    "prefecture_kana": "アイチケン",
    "prefecture_code": 23,
    "city": "西春日井郡豊山町",
    "city_kana": "ニシカスガイグントヨヤマチョウ",
    "town": "大字豊場",
    "town_kana": null,
    "street": "松木島１",
    "office_name": "三菱重工業　株式会社",
    "office_name_kana": "ミツビシジユウコウギヨウ カブシキガイシヤ"
  },
  "0294": {
    "postcode": "4800294",
    "prefecture": "愛知県",
    "prefecture_kana": "アイチケン",
    "prefecture_code": 23,
    "city": "西春日井郡豊山町",
    "city_kana": "ニシカスガイグントヨヤマチョウ",
    "town": "大字豊場",
    "town_kana": null,
    "street": "名古屋空港内",
    "office_name": "中日本航空　株式会社",
    "office_name_kana": "ナカニホンコウクウ カブシキガイシヤ"
  },
  "0297": [
    {
      "postcode": "4800297",
      "prefecture": "愛知県",
      "prefecture_kana": "アイチケン",
      "prefecture_code": 23,
      "city": "西春日井郡豊山町",
      "city_kana": "ニシカスガイグントヨヤマチョウ",
      "town": "大字豊場",
      "town_kana": null,
      "street": "字林先１番地１",
      "office_name": "朝日航洋　株式会社　南格納庫",
      "office_name_kana": "アサヒコウヨウ カブシキガイシヤ ミナミカクノウコ"
    },
    {
      "postcode": "4800297",
      "prefecture": "愛知県",
      "prefecture_kana": "アイチケン",
      "prefecture_code": 23,
      "city": "西春日井郡豊山町",
      "city_kana": "ニシカスガイグントヨヤマチョウ",
      "town": "大字豊場",
      "town_kana": null,
      "street": "字林先１番地１",
      "office_name": "セントラルヘリコプターサービス　株式会社",
      "office_name_kana": "セントラルヘリコプタ-サ-ビス カブシキガイシヤ"
    }
  ],
  "0301": {
    "postcode": "4800301",
    "prefecture": "愛知県",
    "prefecture_kana": "アイチケン",
    "prefecture_code": 23,
    "city": "春日井市",
    "city_kana": "カスガイシ",
    "town": "内津町",
    "town_kana": "ウツツチョウ",
    "street": null,
    "office_name": null,
    "office_name_kana": null
  },
  "0302": {
    "postcode": "4800302",
    "prefecture": "愛知県",
    "prefecture_kana": "アイチケン",
    "prefecture_code": 23,
    "city": "春日井市",
    "city_kana": "カスガイシ",
    "town": "西尾町",
    "town_kana": "サイオチョウ",
    "street": null,
    "office_name": null,
    "office_name_kana": null
  },
  "0303": {
    "postcode": "4800303",
    "prefecture": "愛知県",
    "prefecture_kana": "アイチケン",
    "prefecture_code": 23,
    "city": "春日井市",
    "city_kana": "カスガイシ",
    "town": "明知町",
    "town_kana": "アケチチョウ",
    "street": null,
    "office_name": null,
    "office_name_kana": null
  },
  "0304": {
    "postcode": "4800304",
    "prefecture": "愛知県",
    "prefecture_kana": "アイチケン",
    "prefecture_code": 23,
    "city": "春日井市",
    "city_kana": "カスガイシ",
    "town": "神屋町",
    "town_kana": "カギヤチョウ",
    "street": null,
    "office_name": null,
    "office_name_kana": null
  },
  "0305": {
    "postcode": "4800305",
    "prefecture": "愛知県",
    "prefecture_kana": "アイチケン",
    "prefecture_code": 23,
    "city": "春日井市",
    "city_kana": "カスガイシ",
    "town": "坂下町",
    "town_kana": "サカシタチョウ",
    "street": null,
    "office_name": null,
    "office_name_kana": null
  },
  "0306": {
    "postcode": "4800306",
    "prefecture": "愛知県",
    "prefecture_kana": "アイチケン",
    "prefecture_code": 23,
    "city": "春日井市",
    "city_kana": "カスガイシ",
    "town": "上野町",
    "town_kana": "ウエノチョウ",
    "street": null,
    "office_name": null,
    "office_name_kana": null
  },
  "0392": {
    "postcode": "4800392",
    "prefecture": "愛知県",
    "prefecture_kana": "アイチケン",
    "prefecture_code": 23,
    "city": "春日井市",
    "city_kana": "カスガイシ",
    "town": "神屋町",
    "town_kana": "カギヤチョウ",
    "street": "７１３−８",
    "office_name": "愛知県医療療育総合センター",
    "office_name_kana": "アイチケンイリヨウリヨウイクソウゴウセンタ-"
  },
  "0393": {
    "postcode": "4800393",
    "prefecture": "愛知県",
    "prefecture_kana": "アイチケン",
    "prefecture_code": 23,
    "city": "春日井市",
    "city_kana": "カスガイシ",
    "town": "神屋町",
    "town_kana": "カギヤチョウ",
    "street": "引沢１−３９",
    "office_name": "東洋電機　株式会社",
    "office_name_kana": "トウヨウデンキ カブシキガイシヤ"
  },
  "0395": {
    "postcode": "4800395",
    "prefecture": "愛知県",
    "prefecture_kana": "アイチケン",
    "prefecture_code": 23,
    "city": "春日井市",
    "city_kana": "カスガイシ",
    "town": "坂下町",
    "town_kana": "サカシタチョウ",
    "street": "１丁目８７５",
    "office_name": "ダイコク電機　（株）",
    "office_name_kana": "ダイコクデンキ (カブ)"
  },
  "1100": {
    "postcode": "4801100",
    "prefecture": "愛知県",
    "prefecture_kana": "アイチケン",
    "prefecture_code": 23,
    "city": "長久手市",
    "city_kana": "ナガクテシ",
    "town": "",
    "town_kana": "",
    "street": null,
    "office_name": null,
    "office_name_kana": null
  },
  "1102": [
    {
      "postcode": "4801102",
      "prefecture": "愛知県",
      "prefecture_kana": "アイチケン",
      "prefecture_code": 23,
      "city": "長久手市",
      "city_kana": "ナガクテシ",
      "town": "前熊一ノ井",
      "town_kana": "マエグマイチノイ",
      "street": null,
      "office_name": null,
      "office_name_kana": null
    },
    {
      "postcode": "4801102",
      "prefecture": "愛知県",
      "prefecture_kana": "アイチケン",
      "prefecture_code": 23,
      "city": "長久手市",
      "city_kana": "ナガクテシ",
      "town": "前熊志水",
      "town_kana": "マエグマシミズ",
      "street": null,
      "office_name": null,
      "office_name_kana": null
    },
    {
      "postcode": "4801102",
      "prefecture": "愛知県",
      "prefecture_kana": "アイチケン",
      "prefecture_code": 23,
      "city": "長久手市",
      "city_kana": "ナガクテシ",
      "town": "前熊下田",
      "town_kana": "マエグマシモダ",
      "street": null,
      "office_name": null,
      "office_name_kana": null
    },
    {
      "postcode": "4801102",
      "prefecture": "愛知県",
      "prefecture_kana": "アイチケン",
      "prefecture_code": 23,
      "city": "長久手市",
      "city_kana": "ナガクテシ",
      "town": "前熊寺田",
      "town_kana": "マエグマテラダ",
      "street": null,
      "office_name": null,
      "office_name_kana": null
    },
    {
      "postcode": "4801102",
      "prefecture": "愛知県",
      "prefecture_kana": "アイチケン",
      "prefecture_code": 23,
      "city": "長久手市",
      "city_kana": "ナガクテシ",
      "town": "前熊中井",
      "town_kana": "マエグマナカイ",
      "street": null,
      "office_name": null,
      "office_name_kana": null
    },
    {
      "postcode": "4801102",
      "prefecture": "愛知県",
      "prefecture_kana": "アイチケン",
      "prefecture_code": 23,
      "city": "長久手市",
      "city_kana": "ナガクテシ",
      "town": "前熊西脇",
      "town_kana": "マエグマニシワキ",
      "street": null,
      "office_name": null,
      "office_name_kana": null
    },
    {
      "postcode": "4801102",
      "prefecture": "愛知県",
      "prefecture_kana": "アイチケン",
      "prefecture_code": 23,
      "city": "長久手市",
      "city_kana": "ナガクテシ",
      "town": "前熊根ノ上",
      "town_kana": "マエグマネノウエ",
      "street": null,
      "office_name": null,
      "office_name_kana": null
    },
    {
      "postcode": "4801102",
      "prefecture": "愛知県",
      "prefecture_kana": "アイチケン",
      "prefecture_code": 23,
      "city": "長久手市",
      "city_kana": "ナガクテシ",
      "town": "前熊根ノ原",
      "town_kana": "マエグマネノハラ",
      "street": null,
      "office_name": null,
      "office_name_kana": null
    },
    {
      "postcode": "4801102",
      "prefecture": "愛知県",
      "prefecture_kana": "アイチケン",
      "prefecture_code": 23,
      "city": "長久手市",
      "city_kana": "ナガクテシ",
      "town": "前熊橋ノ本",
      "town_kana": "マエグマハシノモト",
      "street": null,
      "office_name": null,
      "office_name_kana": null
    },
    {
      "postcode": "4801102",
      "prefecture": "愛知県",
      "prefecture_kana": "アイチケン",
      "prefecture_code": 23,
      "city": "長久手市",
      "city_kana": "ナガクテシ",
      "town": "前熊原山",
      "town_kana": "マエグマハラヤマ",
      "street": null,
      "office_name": null,
      "office_name_kana": null
    },
    {
      "postcode": "4801102",
      "prefecture": "愛知県",
      "prefecture_kana": "アイチケン",
      "prefecture_code": 23,
      "city": "長久手市",
      "city_kana": "ナガクテシ",
      "town": "前熊広面",
      "town_kana": "マエグマヒロオモテ",
      "street": null,
      "office_name": null,
      "office_name_kana": null
    },
    {
      "postcode": "4801102",
      "prefecture": "愛知県",
      "prefecture_kana": "アイチケン",
      "prefecture_code": 23,
      "city": "長久手市",
      "city_kana": "ナガクテシ",
      "town": "前熊堀越",
      "town_kana": "マエグマホリコシ",
      "street": null,
      "office_name": null,
      "office_name_kana": null
    },
    {
      "postcode": "4801102",
      "prefecture": "愛知県",
      "prefecture_kana": "アイチケン",
      "prefecture_code": 23,
      "city": "長久手市",
      "city_kana": "ナガクテシ",
      "town": "前熊前山",
      "town_kana": "マエグママエヤマ",
      "street": null,
      "office_name": null,
      "office_name_kana": null
    },
    {
      "postcode": "4801102",
      "prefecture": "愛知県",
      "prefecture_kana": "アイチケン",
      "prefecture_code": 23,
      "city": "長久手市",
      "city_kana": "ナガクテシ",
      "town": "前熊溝下",
      "town_kana": "マエグマミゾシタ",
      "street": null,
      "office_name": null,
      "office_name_kana": null
    }
  ],
  "1103": [
    {
      "postcode": "4801103",
      "prefecture": "愛知県",
      "prefecture_kana": "アイチケン",
      "prefecture_code": 23,
      "city": "長久手市",
      "city_kana": "ナガクテシ",
      "town": "岩作石田",
      "town_kana": "ヤザコイシダ",
      "street": null,
      "office_name": null,
      "office_name_kana": null
    },
    {
      "postcode": "4801103",
      "prefecture": "愛知県",
      "prefecture_kana": "アイチケン",
      "prefecture_code": 23,
      "city": "長久手市",
      "city_kana": "ナガクテシ",
      "town": "岩作井戸ケ根",
      "town_kana": "ヤザコイドガネ",
      "street": null,
      "office_name": null,
      "office_name_kana": null
    },
    {
      "postcode": "4801103",
      "prefecture": "愛知県",
      "prefecture_kana": "アイチケン",
      "prefecture_code": 23,
      "city": "長久手市",
      "city_kana": "ナガクテシ",
      "town": "岩作色金",
      "town_kana": "ヤザコイロガネ",
      "street": null,
      "office_name": null,
      "office_name_kana": null
    },
    {
      "postcode": "4801103",
      "prefecture": "愛知県",
      "prefecture_kana": "アイチケン",
      "prefecture_code": 23,
      "city": "長久手市",
      "city_kana": "ナガクテシ",
      "town": "岩作浮江",
      "town_kana": "ヤザコウキエ",
      "street": null,
      "office_name": null,
      "office_name_kana": null
    },
    {
      "postcode": "4801103",
      "prefecture": "愛知県",
      "prefecture_kana": "アイチケン",
      "prefecture_code": 23,
      "city": "長久手市",
      "city_kana": "ナガクテシ",
      "town": "岩作内万場",
      "town_kana": "ヤザコウチマンバ",
      "street": null,
      "office_name": null,
      "office_name_kana": null
    },
    {
      "postcode": "4801103",
      "prefecture": "愛知県",
      "prefecture_kana": "アイチケン",
      "prefecture_code": 23,
      "city": "長久手市",
      "city_kana": "ナガクテシ",
      "town": "岩作大根",
      "town_kana": "ヤザコオオネ",
      "street": null,
      "office_name": null,
      "office_name_kana": null
    },
    {
      "postcode": "4801103",
      "prefecture": "愛知県",
      "prefecture_kana": "アイチケン",
      "prefecture_code": 23,
      "city": "長久手市",
      "city_kana": "ナガクテシ",
      "town": "岩作落合",
      "town_kana": "ヤザコオチアイ",
      "street": null,
      "office_name": null,
      "office_name_kana": null
    },
    {
      "postcode": "4801103",
      "prefecture": "愛知県",
      "prefecture_kana": "アイチケン",
      "prefecture_code": 23,
      "city": "長久手市",
      "city_kana": "ナガクテシ",
      "town": "岩作折戸ケ平",
      "town_kana": "ヤザコオリドガヒラ",
      "street": null,
      "office_name": null,
      "office_name_kana": null
    },
    {
      "postcode": "4801103",
      "prefecture": "愛知県",
      "prefecture_kana": "アイチケン",
      "prefecture_code": 23,
      "city": "長久手市",
      "city_kana": "ナガクテシ",
      "town": "岩作欠花",
      "town_kana": "ヤザコカケハナ",
      "street": null,
      "office_name": null,
      "office_name_kana": null
    },
    {
      "postcode": "4801103",
      "prefecture": "愛知県",
      "prefecture_kana": "アイチケン",
      "prefecture_code": 23,
      "city": "長久手市",
      "city_kana": "ナガクテシ",
      "town": "岩作壁ノ本",
      "town_kana": "ヤザコカベノモト",
      "street": null,
      "office_name": null,
      "office_name_kana": null
    },
    {
      "postcode": "4801103",
      "prefecture": "愛知県",
      "prefecture_kana": "アイチケン",
      "prefecture_code": 23,
      "city": "長久手市",
      "city_kana": "ナガクテシ",
      "town": "岩作雁又",
      "town_kana": "ヤザコカリマタ",
      "street": null,
      "office_name": null,
      "office_name_kana": null
    },
    {
      "postcode": "4801103",
      "prefecture": "愛知県",
      "prefecture_kana": "アイチケン",
      "prefecture_code": 23,
      "city": "長久手市",
      "city_kana": "ナガクテシ",
      "town": "岩作北山",
      "town_kana": "ヤザコキタヤマ",
      "street": null,
      "office_name": null,
      "office_name_kana": null
    },
    {
      "postcode": "4801103",
      "prefecture": "愛知県",
      "prefecture_kana": "アイチケン",
      "prefecture_code": 23,
      "city": "長久手市",
      "city_kana": "ナガクテシ",
      "town": "岩作狐洞",
      "town_kana": "ヤザコキツネボラ",
      "street": null,
      "office_name": null,
      "office_name_kana": null
    },
    {
      "postcode": "4801103",
      "prefecture": "愛知県",
      "prefecture_kana": "アイチケン",
      "prefecture_code": 23,
      "city": "長久手市",
      "city_kana": "ナガクテシ",
      "town": "岩作五反田",
      "town_kana": "ヤザコゴタンダ",
      "street": null,
      "office_name": null,
      "office_name_kana": null
    },
    {
      "postcode": "4801103",
      "prefecture": "愛知県",
      "prefecture_kana": "アイチケン",
      "prefecture_code": 23,
      "city": "長久手市",
      "city_kana": "ナガクテシ",
      "town": "岩作権田",
      "town_kana": "ヤザコゴンダ",
      "street": null,
      "office_name": null,
      "office_name_kana": null
    },
    {
      "postcode": "4801103",
      "prefecture": "愛知県",
      "prefecture_kana": "アイチケン",
      "prefecture_code": 23,
      "city": "長久手市",
      "city_kana": "ナガクテシ",
      "town": "岩作権代",
      "town_kana": "ヤザコゴンダイ",
      "street": null,
      "office_name": null,
      "office_name_kana": null
    },
    {
      "postcode": "4801103",
      "prefecture": "愛知県",
      "prefecture_kana": "アイチケン",
      "prefecture_code": 23,
      "city": "長久手市",
      "city_kana": "ナガクテシ",
      "town": "岩作三ケ峯",
      "town_kana": "ヤザコサガミネ",
      "street": null,
      "office_name": null,
      "office_name_kana": null
    },
    {
      "postcode": "4801103",
      "prefecture": "愛知県",
      "prefecture_kana": "アイチケン",
      "prefecture_code": 23,
      "city": "長久手市",
      "city_kana": "ナガクテシ",
      "town": "岩作申立花",
      "town_kana": "ヤザコサルリッカ",
      "street": null,
      "office_name": null,
      "office_name_kana": null
    },
    {
      "postcode": "4801103",
      "prefecture": "愛知県",
      "prefecture_kana": "アイチケン",
      "prefecture_code": 23,
      "city": "長久手市",
      "city_kana": "ナガクテシ",
      "town": "岩作下島",
      "town_kana": "ヤザコシモジマ",
      "street": null,
      "office_name": null,
      "office_name_kana": null
    },
    {
      "postcode": "4801103",
      "prefecture": "愛知県",
      "prefecture_kana": "アイチケン",
      "prefecture_code": 23,
      "city": "長久手市",
      "city_kana": "ナガクテシ",
      "town": "岩作下田",
      "town_kana": "ヤザコシモダ",
      "street": null,
      "office_name": null,
      "office_name_kana": null
    },
    {
      "postcode": "4801103",
      "prefecture": "愛知県",
      "prefecture_kana": "アイチケン",
      "prefecture_code": 23,
      "city": "長久手市",
      "city_kana": "ナガクテシ",
      "town": "岩作下堀越",
      "town_kana": "ヤザコシモホリコシ",
      "street": null,
      "office_name": null,
      "office_name_kana": null
    },
    {
      "postcode": "4801103",
      "prefecture": "愛知県",
      "prefecture_kana": "アイチケン",
      "prefecture_code": 23,
      "city": "長久手市",
      "city_kana": "ナガクテシ",
      "town": "岩作蛇洞",
      "town_kana": "ヤザコジャボラ",
      "street": null,
      "office_name": null,
      "office_name_kana": null
    },
    {
      "postcode": "4801103",
      "prefecture": "愛知県",
      "prefecture_kana": "アイチケン",
      "prefecture_code": 23,
      "city": "長久手市",
      "city_kana": "ナガクテシ",
      "town": "岩作白針",
      "town_kana": "ヤザコシラバリ",
      "street": null,
      "office_name": null,
      "office_name_kana": null
    },
    {
      "postcode": "4801103",
      "prefecture": "愛知県",
      "prefecture_kana": "アイチケン",
      "prefecture_code": 23,
      "city": "長久手市",
      "city_kana": "ナガクテシ",
      "town": "岩作城の内",
      "town_kana": "ヤザコシロノウチ",
      "street": null,
      "office_name": null,
      "office_name_kana": null
    },
    {
      "postcode": "4801103",
      "prefecture": "愛知県",
      "prefecture_kana": "アイチケン",
      "prefecture_code": 23,
      "city": "長久手市",
      "city_kana": "ナガクテシ",
      "town": "岩作隅田",
      "town_kana": "ヤザコスミダ",
      "street": null,
      "office_name": null,
      "office_name_kana": null
    },
    {
      "postcode": "4801103",
      "prefecture": "愛知県",
      "prefecture_kana": "アイチケン",
      "prefecture_code": 23,
      "city": "長久手市",
      "city_kana": "ナガクテシ",
      "town": "岩作高根",
      "town_kana": "ヤザコタカネ",
      "street": null,
      "office_name": null,
      "office_name_kana": null
    },
    {
      "postcode": "4801103",
      "prefecture": "愛知県",
      "prefecture_kana": "アイチケン",
      "prefecture_code": 23,
      "city": "長久手市",
      "city_kana": "ナガクテシ",
      "town": "岩作高根前",
      "town_kana": "ヤザコタカネマエ",
      "street": null,
      "office_name": null,
      "office_name_kana": null
    },
    {
      "postcode": "4801103",
      "prefecture": "愛知県",
      "prefecture_kana": "アイチケン",
      "prefecture_code": 23,
      "city": "長久手市",
      "city_kana": "ナガクテシ",
      "town": "岩作高山",
      "town_kana": "ヤザコタカヤマ",
      "street": null,
      "office_name": null,
      "office_name_kana": null
    },
    {
      "postcode": "4801103",
      "prefecture": "愛知県",
      "prefecture_kana": "アイチケン",
      "prefecture_code": 23,
      "city": "長久手市",
      "city_kana": "ナガクテシ",
      "town": "岩作塚本",
      "town_kana": "ヤザコツカモト",
      "street": null,
      "office_name": null,
      "office_name_kana": null
    },
    {
      "postcode": "4801103",
      "prefecture": "愛知県",
      "prefecture_kana": "アイチケン",
      "prefecture_code": 23,
      "city": "長久手市",
      "city_kana": "ナガクテシ",
      "town": "岩作寺田",
      "town_kana": "ヤザコテラダ",
      "street": null,
      "office_name": null,
      "office_name_kana": null
    },
    {
      "postcode": "4801103",
      "prefecture": "愛知県",
      "prefecture_kana": "アイチケン",
      "prefecture_code": 23,
      "city": "長久手市",
      "city_kana": "ナガクテシ",
      "town": "岩作寺山",
      "town_kana": "ヤザコテラヤマ",
      "street": null,
      "office_name": null,
      "office_name_kana": null
    },
    {
      "postcode": "4801103",
      "prefecture": "愛知県",
      "prefecture_kana": "アイチケン",
      "prefecture_code": 23,
      "city": "長久手市",
      "city_kana": "ナガクテシ",
      "town": "岩作床寒",
      "town_kana": "ヤザコトコサム",
      "street": null,
      "office_name": null,
      "office_name_kana": null
    },
    {
      "postcode": "4801103",
      "prefecture": "愛知県",
      "prefecture_kana": "アイチケン",
      "prefecture_code": 23,
      "city": "長久手市",
      "city_kana": "ナガクテシ",
      "town": "岩作泥亀首",
      "town_kana": "ヤザコトチクビ",
      "street": null,
      "office_name": null,
      "office_name_kana": null
    },
    {
      "postcode": "4801103",
      "prefecture": "愛知県",
      "prefecture_kana": "アイチケン",
      "prefecture_code": 23,
      "city": "長久手市",
      "city_kana": "ナガクテシ",
      "town": "岩作寅山",
      "town_kana": "ヤザコトラヤマ",
      "street": null,
      "office_name": null,
      "office_name_kana": null
    },
    {
      "postcode": "4801103",
      "prefecture": "愛知県",
      "prefecture_kana": "アイチケン",
      "prefecture_code": 23,
      "city": "長久手市",
      "city_kana": "ナガクテシ",
      "town": "岩作酉立花",
      "town_kana": "ヤザコトリリッカ",
      "street": null,
      "office_name": null,
      "office_name_kana": null
    },
    {
      "postcode": "4801103",
      "prefecture": "愛知県",
      "prefecture_kana": "アイチケン",
      "prefecture_code": 23,
      "city": "長久手市",
      "city_kana": "ナガクテシ",
      "town": "岩作長池",
      "town_kana": "ヤザコナガイケ",
      "street": null,
      "office_name": null,
      "office_name_kana": null
    },
    {
      "postcode": "4801103",
      "prefecture": "愛知県",
      "prefecture_kana": "アイチケン",
      "prefecture_code": 23,
      "city": "長久手市",
      "city_kana": "ナガクテシ",
      "town": "岩作長筬",
      "town_kana": "ヤザコナガオサ",
      "street": null,
      "office_name": null,
      "office_name_kana": null
    },
    {
      "postcode": "4801103",
      "prefecture": "愛知県",
      "prefecture_kana": "アイチケン",
      "prefecture_code": 23,
      "city": "長久手市",
      "city_kana": "ナガクテシ",
      "town": "岩作中権代",
      "town_kana": "ヤザコナカゴンダイ",
      "street": null,
      "office_name": null,
      "office_name_kana": null
    },
    {
      "postcode": "4801103",
      "prefecture": "愛知県",
      "prefecture_kana": "アイチケン",
      "prefecture_code": 23,
      "city": "長久手市",
      "city_kana": "ナガクテシ",
      "town": "岩作中島",
      "town_kana": "ヤザコナカジマ",
      "street": null,
      "office_name": null,
      "office_name_kana": null
    },
    {
      "postcode": "4801103",
      "prefecture": "愛知県",
      "prefecture_kana": "アイチケン",
      "prefecture_code": 23,
      "city": "長久手市",
      "city_kana": "ナガクテシ",
      "town": "岩作長鶴",
      "town_kana": "ヤザコナガツル",
      "street": null,
      "office_name": null,
      "office_name_kana": null
    },
    {
      "postcode": "4801103",
      "prefecture": "愛知県",
      "prefecture_kana": "アイチケン",
      "prefecture_code": 23,
      "city": "長久手市",
      "city_kana": "ナガクテシ",
      "town": "岩作中縄手",
      "town_kana": "ヤザコナカナワテ",
      "street": null,
      "office_name": null,
      "office_name_kana": null
    },
    {
      "postcode": "4801103",
      "prefecture": "愛知県",
      "prefecture_kana": "アイチケン",
      "prefecture_code": 23,
      "city": "長久手市",
      "city_kana": "ナガクテシ",
      "town": "岩作中根",
      "town_kana": "ヤザコナカネ",
      "street": null,
      "office_name": null,
      "office_name_kana": null
    },
    {
      "postcode": "4801103",
      "prefecture": "愛知県",
      "prefecture_kana": "アイチケン",
      "prefecture_code": 23,
      "city": "長久手市",
      "city_kana": "ナガクテシ",
      "town": "岩作中根原",
      "town_kana": "ヤザコナカネバラ",
      "street": null,
      "office_name": null,
      "office_name_kana": null
    },
    {
      "postcode": "4801103",
      "prefecture": "愛知県",
      "prefecture_kana": "アイチケン",
      "prefecture_code": 23,
      "city": "長久手市",
      "city_kana": "ナガクテシ",
      "town": "岩作中立花",
      "town_kana": "ヤザコナカリッカ",
      "street": null,
      "office_name": null,
      "office_name_kana": null
    },
    {
      "postcode": "4801103",
      "prefecture": "愛知県",
      "prefecture_kana": "アイチケン",
      "prefecture_code": 23,
      "city": "長久手市",
      "city_kana": "ナガクテシ",
      "town": "岩作中脇",
      "town_kana": "ヤザコナカワキ",
      "street": null,
      "office_name": null,
      "office_name_kana": null
    },
    {
      "postcode": "4801103",
      "prefecture": "愛知県",
      "prefecture_kana": "アイチケン",
      "prefecture_code": 23,
      "city": "長久手市",
      "city_kana": "ナガクテシ",
      "town": "岩作西浦",
      "town_kana": "ヤザコニシウラ",
      "street": null,
      "office_name": null,
      "office_name_kana": null
    },
    {
      "postcode": "4801103",
      "prefecture": "愛知県",
      "prefecture_kana": "アイチケン",
      "prefecture_code": 23,
      "city": "長久手市",
      "city_kana": "ナガクテシ",
      "town": "岩作西島",
      "town_kana": "ヤザコニシジマ",
      "street": null,
      "office_name": null,
      "office_name_kana": null
    },
    {
      "postcode": "4801103",
      "prefecture": "愛知県",
      "prefecture_kana": "アイチケン",
      "prefecture_code": 23,
      "city": "長久手市",
      "city_kana": "ナガクテシ",
      "town": "岩作東島",
      "town_kana": "ヤザコヒガシジマ",
      "street": null,
      "office_name": null,
      "office_name_kana": null
    },
    {
      "postcode": "4801103",
      "prefecture": "愛知県",
      "prefecture_kana": "アイチケン",
      "prefecture_code": 23,
      "city": "長久手市",
      "city_kana": "ナガクテシ",
      "town": "岩作東中",
      "town_kana": "ヤザコヒガシナカ",
      "street": null,
      "office_name": null,
      "office_name_kana": null
    },
    {
      "postcode": "4801103",
      "prefecture": "愛知県",
      "prefecture_kana": "アイチケン",
      "prefecture_code": 23,
      "city": "長久手市",
      "city_kana": "ナガクテシ",
      "town": "岩作平子",
      "town_kana": "ヤザコヒラコ",
      "street": null,
      "office_name": null,
      "office_name_kana": null
    },
    {
      "postcode": "4801103",
      "prefecture": "愛知県",
      "prefecture_kana": "アイチケン",
      "prefecture_code": 23,
      "city": "長久手市",
      "city_kana": "ナガクテシ",
      "town": "岩作平地",
      "town_kana": "ヤザコヒラチ",
      "street": null,
      "office_name": null,
      "office_name_kana": null
    },
    {
      "postcode": "4801103",
      "prefecture": "愛知県",
      "prefecture_kana": "アイチケン",
      "prefecture_code": 23,
      "city": "長久手市",
      "city_kana": "ナガクテシ",
      "town": "岩作琵琶ケ池",
      "town_kana": "ヤザコビワガイケ",
      "street": null,
      "office_name": null,
      "office_name_kana": null
    },
    {
      "postcode": "4801103",
      "prefecture": "愛知県",
      "prefecture_kana": "アイチケン",
      "prefecture_code": 23,
      "city": "長久手市",
      "city_kana": "ナガクテシ",
      "town": "岩作福井",
      "town_kana": "ヤザコフクイ",
      "street": null,
      "office_name": null,
      "office_name_kana": null
    },
    {
      "postcode": "4801103",
      "prefecture": "愛知県",
      "prefecture_kana": "アイチケン",
      "prefecture_code": 23,
      "city": "長久手市",
      "city_kana": "ナガクテシ",
      "town": "岩作丸根",
      "town_kana": "ヤザコマルネ",
      "street": null,
      "office_name": null,
      "office_name_kana": null
    },
    {
      "postcode": "4801103",
      "prefecture": "愛知県",
      "prefecture_kana": "アイチケン",
      "prefecture_code": 23,
      "city": "長久手市",
      "city_kana": "ナガクテシ",
      "town": "岩作溝添",
      "town_kana": "ヤザコミゾゾエ",
      "street": null,
      "office_name": null,
      "office_name_kana": null
    },
    {
      "postcode": "4801103",
      "prefecture": "愛知県",
      "prefecture_kana": "アイチケン",
      "prefecture_code": 23,
      "city": "長久手市",
      "city_kana": "ナガクテシ",
      "town": "岩作南島",
      "town_kana": "ヤザコミナミジマ",
      "street": null,
      "office_name": null,
      "office_name_kana": null
    },
    {
      "postcode": "4801103",
      "prefecture": "愛知県",
      "prefecture_kana": "アイチケン",
      "prefecture_code": 23,
      "city": "長久手市",
      "city_kana": "ナガクテシ",
      "town": "岩作宮後",
      "town_kana": "ヤザコミヤウシロ",
      "street": null,
      "office_name": null,
      "office_name_kana": null
    },
    {
      "postcode": "4801103",
      "prefecture": "愛知県",
      "prefecture_kana": "アイチケン",
      "prefecture_code": 23,
      "city": "長久手市",
      "city_kana": "ナガクテシ",
      "town": "岩作宮前",
      "town_kana": "ヤザコミヤマエ",
      "street": null,
      "office_name": null,
      "office_name_kana": null
    },
    {
      "postcode": "4801103",
      "prefecture": "愛知県",
      "prefecture_kana": "アイチケン",
      "prefecture_code": 23,
      "city": "長久手市",
      "city_kana": "ナガクテシ",
      "town": "岩作向田",
      "town_kana": "ヤザコムカイダ",
      "street": null,
      "office_name": null,
      "office_name_kana": null
    },
    {
      "postcode": "4801103",
      "prefecture": "愛知県",
      "prefecture_kana": "アイチケン",
      "prefecture_code": 23,
      "city": "長久手市",
      "city_kana": "ナガクテシ",
      "town": "岩作向畑",
      "town_kana": "ヤザコムカエバタ",
      "street": null,
      "office_name": null,
      "office_name_kana": null
    },
    {
      "postcode": "4801103",
      "prefecture": "愛知県",
      "prefecture_kana": "アイチケン",
      "prefecture_code": 23,
      "city": "長久手市",
      "city_kana": "ナガクテシ",
      "town": "岩作元門",
      "town_kana": "ヤザコモトカド",
      "street": null,
      "office_name": null,
      "office_name_kana": null
    },
    {
      "postcode": "4801103",
      "prefecture": "愛知県",
      "prefecture_kana": "アイチケン",
      "prefecture_code": 23,
      "city": "長久手市",
      "city_kana": "ナガクテシ",
      "town": "岩作桃ノ木洞",
      "town_kana": "ヤザコモモノキボラ",
      "street": null,
      "office_name": null,
      "office_name_kana": null
    },
    {
      "postcode": "4801103",
      "prefecture": "愛知県",
      "prefecture_kana": "アイチケン",
      "prefecture_code": 23,
      "city": "長久手市",
      "city_kana": "ナガクテシ",
      "town": "岩作八瀬ノ木",
      "town_kana": "ヤザコヤセノキ",
      "street": null,
      "office_name": null,
      "office_name_kana": null
    },
    {
      "postcode": "4801103",
      "prefecture": "愛知県",
      "prefecture_kana": "アイチケン",
      "prefecture_code": 23,
      "city": "長久手市",
      "city_kana": "ナガクテシ",
      "town": "岩作籔田",
      "town_kana": "ヤザコヤブタ",
      "street": null,
      "office_name": null,
      "office_name_kana": null
    },
    {
      "postcode": "4801103",
      "prefecture": "愛知県",
      "prefecture_kana": "アイチケン",
      "prefecture_code": 23,
      "city": "長久手市",
      "city_kana": "ナガクテシ",
      "town": "岩作早稲田",
      "town_kana": "ヤザコワセダ",
      "street": null,
      "office_name": null,
      "office_name_kana": null
    }
  ],
  "1104": {
    "postcode": "4801104",
    "prefecture": "愛知県",
    "prefecture_kana": "アイチケン",
    "prefecture_code": 23,
    "city": "長久手市",
    "city_kana": "ナガクテシ",
    "town": "棒振",
    "town_kana": "ボウフリ",
    "street": null,
    "office_name": null,
    "office_name_kana": null
  },
  "1105": {
    "postcode": "4801105",
    "prefecture": "愛知県",
    "prefecture_kana": "アイチケン",
    "prefecture_code": 23,
    "city": "長久手市",
    "city_kana": "ナガクテシ",
    "town": "丸根",
    "town_kana": "マルネ",
    "street": null,
    "office_name": null,
    "office_name_kana": null
  },
  "1106": {
    "postcode": "4801106",
    "prefecture": "愛知県",
    "prefecture_kana": "アイチケン",
    "prefecture_code": 23,
    "city": "長久手市",
    "city_kana": "ナガクテシ",
    "town": "大久手",
    "town_kana": "オオクテ",
    "street": null,
    "office_name": null,
    "office_name_kana": null
  },
  "1107": {
    "postcode": "4801107",
    "prefecture": "愛知県",
    "prefecture_kana": "アイチケン",
    "prefecture_code": 23,
    "city": "長久手市",
    "city_kana": "ナガクテシ",
    "town": "下権田",
    "town_kana": "シモゴンダ",
    "street": null,
    "office_name": null,
    "office_name_kana": null
  },
  "1108": {
    "postcode": "4801108",
    "prefecture": "愛知県",
    "prefecture_kana": "アイチケン",
    "prefecture_code": 23,
    "city": "長久手市",
    "city_kana": "ナガクテシ",
    "town": "中池",
    "town_kana": "ナカイケ",
    "street": null,
    "office_name": null,
    "office_name_kana": null
  },
  "1111": {
    "postcode": "4801111",
    "prefecture": "愛知県",
    "prefecture_kana": "アイチケン",
    "prefecture_code": 23,
    "city": "長久手市",
    "city_kana": "ナガクテシ",
    "town": "山越",
    "town_kana": "ヤマゴエ",
    "street": null,
    "office_name": null,
    "office_name_kana": null
  },
  "1112": {
    "postcode": "4801112",
    "prefecture": "愛知県",
    "prefecture_kana": "アイチケン",
    "prefecture_code": 23,
    "city": "長久手市",
    "city_kana": "ナガクテシ",
    "town": "砂子",
    "town_kana": "スナゴ",
    "street": null,
    "office_name": null,
    "office_name_kana": null
  },
  "1113": {
    "postcode": "4801113",
    "prefecture": "愛知県",
    "prefecture_kana": "アイチケン",
    "prefecture_code": 23,
    "city": "長久手市",
    "city_kana": "ナガクテシ",
    "town": "山野田",
    "town_kana": "ヤマノタ",
    "street": null,
    "office_name": null,
    "office_name_kana": null
  },
  "1114": {
    "postcode": "4801114",
    "prefecture": "愛知県",
    "prefecture_kana": "アイチケン",
    "prefecture_code": 23,
    "city": "長久手市",
    "city_kana": "ナガクテシ",
    "town": "長配",
    "town_kana": "チョウハイ",
    "street": null,
    "office_name": null,
    "office_name_kana": null
  },
  "1115": {
    "postcode": "4801115",
    "prefecture": "愛知県",
    "prefecture_kana": "アイチケン",
    "prefecture_code": 23,
    "city": "長久手市",
    "city_kana": "ナガクテシ",
    "town": "菖蒲池",
    "town_kana": "ショウブイケ",
    "street": null,
    "office_name": null,
    "office_name_kana": null
  },
  "1116": {
    "postcode": "4801116",
    "prefecture": "愛知県",
    "prefecture_kana": "アイチケン",
    "prefecture_code": 23,
    "city": "長久手市",
    "city_kana": "ナガクテシ",
    "town": "杁ケ池",
    "town_kana": "イリガイケ",
    "street": null,
    "office_name": null,
    "office_name_kana": null
  },
  "1117": {
    "postcode": "4801117",
    "prefecture": "愛知県",
    "prefecture_kana": "アイチケン",
    "prefecture_code": 23,
    "city": "長久手市",
    "city_kana": "ナガクテシ",
    "town": "喜婦嶽",
    "town_kana": "キブタケ",
    "street": null,
    "office_name": null,
    "office_name_kana": null
  },
  "1118": {
    "postcode": "4801118",
    "prefecture": "愛知県",
    "prefecture_kana": "アイチケン",
    "prefecture_code": 23,
    "city": "長久手市",
    "city_kana": "ナガクテシ",
    "town": "横道",
    "town_kana": "ヨコミチ",
    "street": null,
    "office_name": null,
    "office_name_kana": null
  },
  "1119": {
    "postcode": "4801119",
    "prefecture": "愛知県",
    "prefecture_kana": "アイチケン",
    "prefecture_code": 23,
    "city": "長久手市",
    "city_kana": "ナガクテシ",
    "town": "深廻間",
    "town_kana": "フカバサマ",
    "street": null,
    "office_name": null,
    "office_name_kana": null
  },
  "1121": {
    "postcode": "4801121",
    "prefecture": "愛知県",
    "prefecture_kana": "アイチケン",
    "prefecture_code": 23,
    "city": "長久手市",
    "city_kana": "ナガクテシ",
    "town": "武蔵塚",
    "town_kana": "ムサシヅカ",
    "street": null,
    "office_name": null,
    "office_name_kana": null
  },
  "1122": {
    "postcode": "4801122",
    "prefecture": "愛知県",
    "prefecture_kana": "アイチケン",
    "prefecture_code": 23,
    "city": "長久手市",
    "city_kana": "ナガクテシ",
    "town": "城屋敷",
    "town_kana": "シロヤシキ",
    "street": null,
    "office_name": null,
    "office_name_kana": null
  },
  "1123": {
    "postcode": "4801123",
    "prefecture": "愛知県",
    "prefecture_kana": "アイチケン",
    "prefecture_code": 23,
    "city": "長久手市",
    "city_kana": "ナガクテシ",
    "town": "東狭間",
    "town_kana": "ヒガシハザマ",
    "street": null,
    "office_name": null,
    "office_name_kana": null
  },
  "1124": {
    "postcode": "4801124",
    "prefecture": "愛知県",
    "prefecture_kana": "アイチケン",
    "prefecture_code": 23,
    "city": "長久手市",
    "city_kana": "ナガクテシ",
    "town": "戸田谷",
    "town_kana": "トダガイ",
    "street": null,
    "office_name": null,
    "office_name_kana": null
  },
  "1125": {
    "postcode": "4801125",
    "prefecture": "愛知県",
    "prefecture_kana": "アイチケン",
    "prefecture_code": 23,
    "city": "長久手市",
    "city_kana": "ナガクテシ",
    "town": "氏神前",
    "town_kana": "ウジガミマエ",
    "street": null,
    "office_name": null,
    "office_name_kana": null
  },
  "1126": {
    "postcode": "4801126",
    "prefecture": "愛知県",
    "prefecture_kana": "アイチケン",
    "prefecture_code": 23,
    "city": "長久手市",
    "city_kana": "ナガクテシ",
    "town": "深田",
    "town_kana": "フカダ",
    "street": null,
    "office_name": null,
    "office_name_kana": null
  },
  "1127": {
    "postcode": "4801127",
    "prefecture": "愛知県",
    "prefecture_kana": "アイチケン",
    "prefecture_code": 23,
    "city": "長久手市",
    "city_kana": "ナガクテシ",
    "town": "菅池",
    "town_kana": "スガイケ",
    "street": null,
    "office_name": null,
    "office_name_kana": null
  },
  "1128": {
    "postcode": "4801128",
    "prefecture": "愛知県",
    "prefecture_kana": "アイチケン",
    "prefecture_code": 23,
    "city": "長久手市",
    "city_kana": "ナガクテシ",
    "town": "勝入塚",
    "town_kana": "ショウニュウヅカ",
    "street": null,
    "office_name": null,
    "office_name_kana": null
  },
  "1129": {
    "postcode": "4801129",
    "prefecture": "愛知県",
    "prefecture_kana": "アイチケン",
    "prefecture_code": 23,
    "city": "長久手市",
    "city_kana": "ナガクテシ",
    "town": "よし池",
    "town_kana": "ヨシイケ",
    "street": null,
    "office_name": null,
    "office_name_kana": null
  },
  "1132": {
    "postcode": "4801132",
    "prefecture": "愛知県",
    "prefecture_kana": "アイチケン",
    "prefecture_code": 23,
    "city": "長久手市",
    "city_kana": "ナガクテシ",
    "town": "上川原",
    "town_kana": "カミカワハラ",
    "street": null,
    "office_name": null,
    "office_name_kana": null
  },
  "1133": {
    "postcode": "4801133",
    "prefecture": "愛知県",
    "prefecture_kana": "アイチケン",
    "prefecture_code": 23,
    "city": "長久手市",
    "city_kana": "ナガクテシ",
    "town": "原山",
    "town_kana": "ハラヤマ",
    "street": null,
    "office_name": null,
    "office_name_kana": null
  },
  "1134": {
    "postcode": "4801134",
    "prefecture": "愛知県",
    "prefecture_kana": "アイチケン",
    "prefecture_code": 23,
    "city": "長久手市",
    "city_kana": "ナガクテシ",
    "town": "南原山",
    "town_kana": "ミナミハラヤマ",
    "street": null,
    "office_name": null,
    "office_name_kana": null
  },
  "1135": {
    "postcode": "4801135",
    "prefecture": "愛知県",
    "prefecture_kana": "アイチケン",
    "prefecture_code": 23,
    "city": "長久手市",
    "city_kana": "ナガクテシ",
    "town": "下山",
    "town_kana": "シモヤマ",
    "street": null,
    "office_name": null,
    "office_name_kana": null
  },
  "1136": {
    "postcode": "4801136",
    "prefecture": "愛知県",
    "prefecture_kana": "アイチケン",
    "prefecture_code": 23,
    "city": "長久手市",
    "city_kana": "ナガクテシ",
    "town": "櫨木",
    "town_kana": "ロウボク",
    "street": null,
    "office_name": null,
    "office_name_kana": null
  },
  "1137": {
    "postcode": "4801137",
    "prefecture": "愛知県",
    "prefecture_kana": "アイチケン",
    "prefecture_code": 23,
    "city": "長久手市",
    "city_kana": "ナガクテシ",
    "town": "下川原",
    "town_kana": "シモガワラ",
    "street": null,
    "office_name": null,
    "office_name_kana": null
  },
  "1138": {
    "postcode": "4801138",
    "prefecture": "愛知県",
    "prefecture_kana": "アイチケン",
    "prefecture_code": 23,
    "city": "長久手市",
    "city_kana": "ナガクテシ",
    "town": "西原山",
    "town_kana": "ニシハラヤマ",
    "street": null,
    "office_name": null,
    "office_name_kana": null
  },
  "1139": {
    "postcode": "4801139",
    "prefecture": "愛知県",
    "prefecture_kana": "アイチケン",
    "prefecture_code": 23,
    "city": "長久手市",
    "city_kana": "ナガクテシ",
    "town": "中川原",
    "town_kana": "ナカガワラ",
    "street": null,
    "office_name": null,
    "office_name_kana": null
  },
  "1141": {
    "postcode": "4801141",
    "prefecture": "愛知県",
    "prefecture_kana": "アイチケン",
    "prefecture_code": 23,
    "city": "長久手市",
    "city_kana": "ナガクテシ",
    "town": "根の神",
    "town_kana": "ネノガミ",
    "street": null,
    "office_name": null,
    "office_name_kana": null
  },
  "1142": {
    "postcode": "4801142",
    "prefecture": "愛知県",
    "prefecture_kana": "アイチケン",
    "prefecture_code": 23,
    "city": "長久手市",
    "city_kana": "ナガクテシ",
    "town": "蟹原",
    "town_kana": "カニハラ",
    "street": null,
    "office_name": null,
    "office_name_kana": null
  },
  "1143": {
    "postcode": "4801143",
    "prefecture": "愛知県",
    "prefecture_kana": "アイチケン",
    "prefecture_code": 23,
    "city": "長久手市",
    "city_kana": "ナガクテシ",
    "town": "井堀",
    "town_kana": "イボリ",
    "street": null,
    "office_name": null,
    "office_name_kana": null
  },
  "1144": {
    "postcode": "4801144",
    "prefecture": "愛知県",
    "prefecture_kana": "アイチケン",
    "prefecture_code": 23,
    "city": "長久手市",
    "city_kana": "ナガクテシ",
    "town": "熊田",
    "town_kana": "クマダ",
    "street": null,
    "office_name": null,
    "office_name_kana": null
  },
  "1145": {
    "postcode": "4801145",
    "prefecture": "愛知県",
    "prefecture_kana": "アイチケン",
    "prefecture_code": 23,
    "city": "長久手市",
    "city_kana": "ナガクテシ",
    "town": "卯塚",
    "town_kana": "ウヅカ",
    "street": null,
    "office_name": null,
    "office_name_kana": null
  },
  "1146": {
    "postcode": "4801146",
    "prefecture": "愛知県",
    "prefecture_kana": "アイチケン",
    "prefecture_code": 23,
    "city": "長久手市",
    "city_kana": "ナガクテシ",
    "town": "片平",
    "town_kana": "カタヒラ",
    "street": null,
    "office_name": null,
    "office_name_kana": null
  },
  "1147": {
    "postcode": "4801147",
    "prefecture": "愛知県",
    "prefecture_kana": "アイチケン",
    "prefecture_code": 23,
    "city": "長久手市",
    "city_kana": "ナガクテシ",
    "town": "市が洞",
    "town_kana": "イチガホラ",
    "street": null,
    "office_name": null,
    "office_name_kana": null
  },
  "1148": {
    "postcode": "4801148",
    "prefecture": "愛知県",
    "prefecture_kana": "アイチケン",
    "prefecture_code": 23,
    "city": "長久手市",
    "city_kana": "ナガクテシ",
    "town": "根嶽",
    "town_kana": "ネタケ",
    "street": null,
    "office_name": null,
    "office_name_kana": null
  },
  "1151": {
    "postcode": "4801151",
    "prefecture": "愛知県",
    "prefecture_kana": "アイチケン",
    "prefecture_code": 23,
    "city": "長久手市",
    "city_kana": "ナガクテシ",
    "town": "久保山",
    "town_kana": "クボヤマ",
    "street": null,
    "office_name": null,
    "office_name_kana": null
  },
  "1152": {
    "postcode": "4801152",
    "prefecture": "愛知県",
    "prefecture_kana": "アイチケン",
    "prefecture_code": 23,
    "city": "長久手市",
    "city_kana": "ナガクテシ",
    "town": "打越",
    "town_kana": "ウチコシ",
    "street": null,
    "office_name": null,
    "office_name_kana": null
  },
  "1153": {
    "postcode": "4801153",
    "prefecture": "愛知県",
    "prefecture_kana": "アイチケン",
    "prefecture_code": 23,
    "city": "長久手市",
    "city_kana": "ナガクテシ",
    "town": "作田",
    "town_kana": "サクタ",
    "street": null,
    "office_name": null,
    "office_name_kana": null
  },
  "1154": {
    "postcode": "4801154",
    "prefecture": "愛知県",
    "prefecture_kana": "アイチケン",
    "prefecture_code": 23,
    "city": "長久手市",
    "city_kana": "ナガクテシ",
    "town": "塚田",
    "town_kana": "ツカダ",
    "street": null,
    "office_name": null,
    "office_name_kana": null
  },
  "1155": {
    "postcode": "4801155",
    "prefecture": "愛知県",
    "prefecture_kana": "アイチケン",
    "prefecture_code": 23,
    "city": "長久手市",
    "city_kana": "ナガクテシ",
    "town": "平池",
    "town_kana": "ヒライケ",
    "street": null,
    "office_name": null,
    "office_name_kana": null
  },
  "1156": {
    "postcode": "4801156",
    "prefecture": "愛知県",
    "prefecture_kana": "アイチケン",
    "prefecture_code": 23,
    "city": "長久手市",
    "city_kana": "ナガクテシ",
    "town": "五合池",
    "town_kana": "ゴゴウイケ",
    "street": null,
    "office_name": null,
    "office_name_kana": null
  },
  "1157": {
    "postcode": "4801157",
    "prefecture": "愛知県",
    "prefecture_kana": "アイチケン",
    "prefecture_code": 23,
    "city": "長久手市",
    "city_kana": "ナガクテシ",
    "town": "桜作",
    "town_kana": "サクラツクリ",
    "street": null,
    "office_name": null,
    "office_name_kana": null
  },
  "1158": {
    "postcode": "4801158",
    "prefecture": "愛知県",
    "prefecture_kana": "アイチケン",
    "prefecture_code": 23,
    "city": "長久手市",
    "city_kana": "ナガクテシ",
    "town": "東原山",
    "town_kana": "ヒガシハラヤマ",
    "street": null,
    "office_name": null,
    "office_name_kana": null
  },
  "1161": {
    "postcode": "4801161",
    "prefecture": "愛知県",
    "prefecture_kana": "アイチケン",
    "prefecture_code": 23,
    "city": "長久手市",
    "city_kana": "ナガクテシ",
    "town": "荒田",
    "town_kana": "アラタ",
    "street": null,
    "office_name": null,
    "office_name_kana": null
  },
  "1162": {
    "postcode": "4801162",
    "prefecture": "愛知県",
    "prefecture_kana": "アイチケン",
    "prefecture_code": 23,
    "city": "長久手市",
    "city_kana": "ナガクテシ",
    "town": "段の上",
    "town_kana": "ダンノウエ",
    "street": null,
    "office_name": null,
    "office_name_kana": null
  },
  "1163": {
    "postcode": "4801163",
    "prefecture": "愛知県",
    "prefecture_kana": "アイチケン",
    "prefecture_code": 23,
    "city": "長久手市",
    "city_kana": "ナガクテシ",
    "town": "原邸",
    "town_kana": "ハラヤシキ",
    "street": null,
    "office_name": null,
    "office_name_kana": null
  },
  "1164": {
    "postcode": "4801164",
    "prefecture": "愛知県",
    "prefecture_kana": "アイチケン",
    "prefecture_code": 23,
    "city": "長久手市",
    "city_kana": "ナガクテシ",
    "town": "山桶",
    "town_kana": "ヤマオケ",
    "street": null,
    "office_name": null,
    "office_name_kana": null
  },
  "1165": {
    "postcode": "4801165",
    "prefecture": "愛知県",
    "prefecture_kana": "アイチケン",
    "prefecture_code": 23,
    "city": "長久手市",
    "city_kana": "ナガクテシ",
    "town": "鴨田",
    "town_kana": "カモダ",
    "street": null,
    "office_name": null,
    "office_name_kana": null
  },
  "1166": {
    "postcode": "4801166",
    "prefecture": "愛知県",
    "prefecture_kana": "アイチケン",
    "prefecture_code": 23,
    "city": "長久手市",
    "city_kana": "ナガクテシ",
    "town": "野田農",
    "town_kana": "ノダノウ",
    "street": null,
    "office_name": null,
    "office_name_kana": null
  },
  "1167": {
    "postcode": "4801167",
    "prefecture": "愛知県",
    "prefecture_kana": "アイチケン",
    "prefecture_code": 23,
    "city": "長久手市",
    "city_kana": "ナガクテシ",
    "town": "仲田",
    "town_kana": "ナカタ",
    "street": null,
    "office_name": null,
    "office_name_kana": null
  },
  "1168": {
    "postcode": "4801168",
    "prefecture": "愛知県",
    "prefecture_kana": "アイチケン",
    "prefecture_code": 23,
    "city": "長久手市",
    "city_kana": "ナガクテシ",
    "town": "坊の後",
    "town_kana": "ボウノウシロ",
    "street": null,
    "office_name": null,
    "office_name_kana": null
  },
  "1171": {
    "postcode": "4801171",
    "prefecture": "愛知県",
    "prefecture_kana": "アイチケン",
    "prefecture_code": 23,
    "city": "長久手市",
    "city_kana": "ナガクテシ",
    "town": "西浦",
    "town_kana": "ニシウラ",
    "street": null,
    "office_name": null,
    "office_name_kana": null
  },
  "1172": {
    "postcode": "4801172",
    "prefecture": "愛知県",
    "prefecture_kana": "アイチケン",
    "prefecture_code": 23,
    "city": "長久手市",
    "city_kana": "ナガクテシ",
    "town": "宮脇",
    "town_kana": "ミヤワキ",
    "street": null,
    "office_name": null,
    "office_name_kana": null
  },
  "1173": {
    "postcode": "4801173",
    "prefecture": "愛知県",
    "prefecture_kana": "アイチケン",
    "prefecture_code": 23,
    "city": "長久手市",
    "city_kana": "ナガクテシ",
    "town": "富士浦",
    "town_kana": "フジウラ",
    "street": null,
    "office_name": null,
    "office_name_kana": null
  },
  "1174": {
    "postcode": "4801174",
    "prefecture": "愛知県",
    "prefecture_kana": "アイチケン",
    "prefecture_code": 23,
    "city": "長久手市",
    "city_kana": "ナガクテシ",
    "town": "東浦",
    "town_kana": "ヒガシウラ",
    "street": null,
    "office_name": null,
    "office_name_kana": null
  },
  "1175": {
    "postcode": "4801175",
    "prefecture": "愛知県",
    "prefecture_kana": "アイチケン",
    "prefecture_code": 23,
    "city": "長久手市",
    "city_kana": "ナガクテシ",
    "town": "先達",
    "town_kana": "センダツ",
    "street": null,
    "office_name": null,
    "office_name_kana": null
  },
  "1176": {
    "postcode": "4801176",
    "prefecture": "愛知県",
    "prefecture_kana": "アイチケン",
    "prefecture_code": 23,
    "city": "長久手市",
    "city_kana": "ナガクテシ",
    "town": "香桶",
    "town_kana": "コオケ",
    "street": null,
    "office_name": null,
    "office_name_kana": null
  },
  "1177": {
    "postcode": "4801177",
    "prefecture": "愛知県",
    "prefecture_kana": "アイチケン",
    "prefecture_code": 23,
    "city": "長久手市",
    "city_kana": "ナガクテシ",
    "town": "仏が根",
    "town_kana": "ホトケガネ",
    "street": null,
    "office_name": null,
    "office_name_kana": null
  },
  "1178": {
    "postcode": "4801178",
    "prefecture": "愛知県",
    "prefecture_kana": "アイチケン",
    "prefecture_code": 23,
    "city": "長久手市",
    "city_kana": "ナガクテシ",
    "town": "丁子田",
    "town_kana": "チョウシダ",
    "street": null,
    "office_name": null,
    "office_name_kana": null
  },
  "1181": {
    "postcode": "4801181",
    "prefecture": "愛知県",
    "prefecture_kana": "アイチケン",
    "prefecture_code": 23,
    "city": "長久手市",
    "city_kana": "ナガクテシ",
    "town": "東原",
    "town_kana": "ヒガシハラ",
    "street": null,
    "office_name": null,
    "office_name_kana": null
  },
  "1182": {
    "postcode": "4801182",
    "prefecture": "愛知県",
    "prefecture_kana": "アイチケン",
    "prefecture_code": 23,
    "city": "長久手市",
    "city_kana": "ナガクテシ",
    "town": "池田",
    "town_kana": "イケダ",
    "street": null,
    "office_name": null,
    "office_name_kana": null
  },
  "1183": {
    "postcode": "4801183",
    "prefecture": "愛知県",
    "prefecture_kana": "アイチケン",
    "prefecture_code": 23,
    "city": "長久手市",
    "city_kana": "ナガクテシ",
    "town": "西原",
    "town_kana": "ニシハラ",
    "street": null,
    "office_name": null,
    "office_name_kana": null
  },
  "1184": {
    "postcode": "4801184",
    "prefecture": "愛知県",
    "prefecture_kana": "アイチケン",
    "prefecture_code": 23,
    "city": "長久手市",
    "city_kana": "ナガクテシ",
    "town": "草掛",
    "town_kana": "クサカケ",
    "street": null,
    "office_name": null,
    "office_name_kana": null
  },
  "1188": {
    "postcode": "4801188",
    "prefecture": "愛知県",
    "prefecture_kana": "アイチケン",
    "prefecture_code": 23,
    "city": "長久手市",
    "city_kana": "ナガクテシ",
    "town": "菖蒲池",
    "town_kana": "ショウブイケ",
    "street": "３０１",
    "office_name": "株式会社　ホンダカーズ愛知",
    "office_name_kana": "カブシキガイシヤ ホンダカ-ズアイチ"
  },
  "1189": {
    "postcode": "4801189",
    "prefecture": "愛知県",
    "prefecture_kana": "アイチケン",
    "prefecture_code": 23,
    "city": "長久手市",
    "city_kana": "ナガクテシ",
    "town": "蟹原",
    "town_kana": "カニハラ",
    "street": "２２０１",
    "office_name": "日東工業　株式会社",
    "office_name_kana": "ニツトウコウギヨウ カブシキガイシヤ"
  },
  "1192": {
    "postcode": "4801192",
    "prefecture": "愛知県",
    "prefecture_kana": "アイチケン",
    "prefecture_code": 23,
    "city": "長久手市",
    "city_kana": "ナガクテシ",
    "town": "横道",
    "town_kana": "ヨコミチ",
    "street": "４１−１",
    "office_name": "株式会社　豊田中央研究所",
    "office_name_kana": "カブシキガイシヤ トヨタチユウオウケンキユウシヨ"
  },
  "1193": {
    "postcode": "4801193",
    "prefecture": "愛知県",
    "prefecture_kana": "アイチケン",
    "prefecture_code": 23,
    "city": "長久手市",
    "city_kana": "ナガクテシ",
    "town": "岩作三ケ峯",
    "town_kana": "ヤザコサガミネ",
    "street": "１−１",
    "office_name": "愛知県農業総合試験場",
    "office_name_kana": "アイチケンノウギヨウソウゴウシケンジヨウ"
  },
  "1194": {
    "postcode": "4801194",
    "prefecture": "愛知県",
    "prefecture_kana": "アイチケン",
    "prefecture_code": 23,
    "city": "長久手市",
    "city_kana": "ナガクテシ",
    "town": "岩作三ケ峯",
    "town_kana": "ヤザコサガミネ",
    "street": "１−１１４",
    "office_name": "愛知県立芸術大学",
    "office_name_kana": "アイチケンリツゲイジユツダイガク"
  },
  "1195": {
    "postcode": "4801195",
    "prefecture": "愛知県",
    "prefecture_kana": "アイチケン",
    "prefecture_code": 23,
    "city": "長久手市",
    "city_kana": "ナガクテシ",
    "town": "岩作雁又",
    "town_kana": "ヤザコカリマタ",
    "street": "１−１",
    "office_name": "愛知医科大学",
    "office_name_kana": "アイチイカダイガク"
  },
  "1196": {
    "postcode": "4801196",
    "prefecture": "愛知県",
    "prefecture_kana": "アイチケン",
    "prefecture_code": 23,
    "city": "長久手市",
    "city_kana": "ナガクテシ",
    "town": "岩作城の内",
    "town_kana": "ヤザコシロノウチ",
    "street": "６０番地の１",
    "office_name": "長久手市役所",
    "office_name_kana": "ナガクテシヤクシヨ"
  },
  "1197": {
    "postcode": "4801197",
    "prefecture": "愛知県",
    "prefecture_kana": "アイチケン",
    "prefecture_code": 23,
    "city": "長久手市",
    "city_kana": "ナガクテシ",
    "town": "片平",
    "town_kana": "カタヒラ",
    "street": "二丁目９",
    "office_name": "愛知淑徳大学",
    "office_name_kana": "アイチシユクトクダイガク"
  },
  "1198": {
    "postcode": "4801198",
    "prefecture": "愛知県",
    "prefecture_kana": "アイチケン",
    "prefecture_code": 23,
    "city": "長久手市",
    "city_kana": "ナガクテシ",
    "town": "茨ケ廻間",
    "town_kana": "イバラガバサマ",
    "street": "１５２２−３",
    "office_name": "愛知県立大学",
    "office_name_kana": "アイチケンリツダイガク"
  },
  "1201": {
    "postcode": "4801201",
    "prefecture": "愛知県",
    "prefecture_kana": "アイチケン",
    "prefecture_code": 23,
    "city": "瀬戸市",
    "city_kana": "セトシ",
    "town": "定光寺町",
    "town_kana": "ジョウコウジチョウ",
    "street": null,
    "office_name": null,
    "office_name_kana": null
  },
  "1202": {
    "postcode": "4801202",
    "prefecture": "愛知県",
    "prefecture_kana": "アイチケン",
    "prefecture_code": 23,
    "city": "瀬戸市",
    "city_kana": "セトシ",
    "town": "下半田川町",
    "town_kana": "シモハダガワチョウ",
    "street": null,
    "office_name": null,
    "office_name_kana": null
  },
  "1203": {
    "postcode": "4801203",
    "prefecture": "愛知県",
    "prefecture_kana": "アイチケン",
    "prefecture_code": 23,
    "city": "瀬戸市",
    "city_kana": "セトシ",
    "town": "広之田町",
    "town_kana": "ヒロノタチョウ",
    "street": null,
    "office_name": null,
    "office_name_kana": null
  },
  "1204": {
    "postcode": "4801204",
    "prefecture": "愛知県",
    "prefecture_kana": "アイチケン",
    "prefecture_code": 23,
    "city": "瀬戸市",
    "city_kana": "セトシ",
    "town": "北丘町",
    "town_kana": "キタオカチョウ",
    "street": null,
    "office_name": null,
    "office_name_kana": null
  },
  "1205": {
    "postcode": "4801205",
    "prefecture": "愛知県",
    "prefecture_kana": "アイチケン",
    "prefecture_code": 23,
    "city": "瀬戸市",
    "city_kana": "セトシ",
    "town": "落合町",
    "town_kana": "オチアイチョウ",
    "street": null,
    "office_name": null,
    "office_name_kana": null
  },
  "1206": {
    "postcode": "4801206",
    "prefecture": "愛知県",
    "prefecture_kana": "アイチケン",
    "prefecture_code": 23,
    "city": "瀬戸市",
    "city_kana": "セトシ",
    "town": "八床町",
    "town_kana": "ヤトコチョウ",
    "street": null,
    "office_name": null,
    "office_name_kana": null
  },
  "1207": {
    "postcode": "4801207",
    "prefecture": "愛知県",
    "prefecture_kana": "アイチケン",
    "prefecture_code": 23,
    "city": "瀬戸市",
    "city_kana": "セトシ",
    "town": "品野町",
    "town_kana": "シナノチョウ",
    "street": null,
    "office_name": null,
    "office_name_kana": null
  },
  "1211": {
    "postcode": "4801211",
    "prefecture": "愛知県",
    "prefecture_kana": "アイチケン",
    "prefecture_code": 23,
    "city": "瀬戸市",
    "city_kana": "セトシ",
    "town": "上半田川町",
    "town_kana": "カミハダガワチョウ",
    "street": null,
    "office_name": null,
    "office_name_kana": null
  },
  "1212": {
    "postcode": "4801212",
    "prefecture": "愛知県",
    "prefecture_kana": "アイチケン",
    "prefecture_code": 23,
    "city": "瀬戸市",
    "city_kana": "セトシ",
    "town": "片草町",
    "town_kana": "カタクサチョウ",
    "street": null,
    "office_name": null,
    "office_name_kana": null
  },
  "1213": {
    "postcode": "4801213",
    "prefecture": "愛知県",
    "prefecture_kana": "アイチケン",
    "prefecture_code": 23,
    "city": "瀬戸市",
    "city_kana": "セトシ",
    "town": "白岩町",
    "town_kana": "シライワチョウ",
    "street": null,
    "office_name": null,
    "office_name_kana": null
  },
  "1214": {
    "postcode": "4801214",
    "prefecture": "愛知県",
    "prefecture_kana": "アイチケン",
    "prefecture_code": 23,
    "city": "瀬戸市",
    "city_kana": "セトシ",
    "town": "上品野町",
    "town_kana": "カミシナノチョウ",
    "street": null,
    "office_name": null,
    "office_name_kana": null
  },
  "1215": {
    "postcode": "4801215",
    "prefecture": "愛知県",
    "prefecture_kana": "アイチケン",
    "prefecture_code": 23,
    "city": "瀬戸市",
    "city_kana": "セトシ",
    "town": "岩屋町",
    "town_kana": "イワヤチョウ",
    "street": null,
    "office_name": null,
    "office_name_kana": null
  },
  "1216": {
    "postcode": "4801216",
    "prefecture": "愛知県",
    "prefecture_kana": "アイチケン",
    "prefecture_code": 23,
    "city": "瀬戸市",
    "city_kana": "セトシ",
    "town": "鳥原町",
    "town_kana": "トリハラチョウ",
    "street": null,
    "office_name": null,
    "office_name_kana": null
  },
  "1217": {
    "postcode": "4801217",
    "prefecture": "愛知県",
    "prefecture_kana": "アイチケン",
    "prefecture_code": 23,
    "city": "瀬戸市",
    "city_kana": "セトシ",
    "town": "井山町",
    "town_kana": "イヤマチョウ",
    "street": null,
    "office_name": null,
    "office_name_kana": null
  },
  "1218": {
    "postcode": "4801218",
    "prefecture": "愛知県",
    "prefecture_kana": "アイチケン",
    "prefecture_code": 23,
    "city": "瀬戸市",
    "city_kana": "セトシ",
    "town": "中品野町",
    "town_kana": "ナカシナノチョウ",
    "street": null,
    "office_name": null,
    "office_name_kana": null
  },
  "1219": {
    "postcode": "4801219",
    "prefecture": "愛知県",
    "prefecture_kana": "アイチケン",
    "prefecture_code": 23,
    "city": "瀬戸市",
    "city_kana": "セトシ",
    "town": "窯町",
    "town_kana": "カママチ",
    "street": null,
    "office_name": null,
    "office_name_kana": null
  },
  "1298": {
    "postcode": "4801298",
    "prefecture": "愛知県",
    "prefecture_kana": "アイチケン",
    "prefecture_code": 23,
    "city": "瀬戸市",
    "city_kana": "セトシ",
    "town": "上品野町",
    "town_kana": "カミシナノチョウ",
    "street": "１３５０",
    "office_name": "名古屋学院大学",
    "office_name_kana": "ナゴヤガクインダイガク"
  },
  "1301": {
    "postcode": "4801301",
    "prefecture": "愛知県",
    "prefecture_kana": "アイチケン",
    "prefecture_code": 23,
    "city": "長久手市",
    "city_kana": "ナガクテシ",
    "town": "北浦",
    "town_kana": "キタウラ",
    "street": null,
    "office_name": null,
    "office_name_kana": null
  },
  "1302": {
    "postcode": "4801302",
    "prefecture": "愛知県",
    "prefecture_kana": "アイチケン",
    "prefecture_code": 23,
    "city": "長久手市",
    "city_kana": "ナガクテシ",
    "town": "杁ノ洞",
    "town_kana": "イリノホラ",
    "street": null,
    "office_name": null,
    "office_name_kana": null
  },
  "1303": {
    "postcode": "4801303",
    "prefecture": "愛知県",
    "prefecture_kana": "アイチケン",
    "prefecture_code": 23,
    "city": "長久手市",
    "city_kana": "ナガクテシ",
    "town": "東田",
    "town_kana": "ヒガシダ",
    "street": null,
    "office_name": null,
    "office_name_kana": null
  },
  "1304": {
    "postcode": "4801304",
    "prefecture": "愛知県",
    "prefecture_kana": "アイチケン",
    "prefecture_code": 23,
    "city": "長久手市",
    "city_kana": "ナガクテシ",
    "town": "郷前",
    "town_kana": "ゴウマエ",
    "street": null,
    "office_name": null,
    "office_name_kana": null
  },
  "1305": {
    "postcode": "4801305",
    "prefecture": "愛知県",
    "prefecture_kana": "アイチケン",
    "prefecture_code": 23,
    "city": "長久手市",
    "city_kana": "ナガクテシ",
    "town": "中井",
    "town_kana": "ナカイ",
    "street": null,
    "office_name": null,
    "office_name_kana": null
  },
  "1306": {
    "postcode": "4801306",
    "prefecture": "愛知県",
    "prefecture_kana": "アイチケン",
    "prefecture_code": 23,
    "city": "長久手市",
    "city_kana": "ナガクテシ",
    "town": "真行田",
    "town_kana": "シンギョウダ",
    "street": null,
    "office_name": null,
    "office_name_kana": null
  },
  "1307": {
    "postcode": "4801307",
    "prefecture": "愛知県",
    "prefecture_kana": "アイチケン",
    "prefecture_code": 23,
    "city": "長久手市",
    "city_kana": "ナガクテシ",
    "town": "立花",
    "town_kana": "リッカ",
    "street": null,
    "office_name": null,
    "office_name_kana": null
  },
  "1308": {
    "postcode": "4801308",
    "prefecture": "愛知県",
    "prefecture_kana": "アイチケン",
    "prefecture_code": 23,
    "city": "長久手市",
    "city_kana": "ナガクテシ",
    "town": "岩廻間",
    "town_kana": "イワバサマ",
    "street": null,
    "office_name": null,
    "office_name_kana": null
  },
  "1309": {
    "postcode": "4801309",
    "prefecture": "愛知県",
    "prefecture_kana": "アイチケン",
    "prefecture_code": 23,
    "city": "長久手市",
    "city_kana": "ナガクテシ",
    "town": "溝之杁",
    "town_kana": "ミゾノイリ",
    "street": null,
    "office_name": null,
    "office_name_kana": null
  },
  "1311": {
    "postcode": "4801311",
    "prefecture": "愛知県",
    "prefecture_kana": "アイチケン",
    "prefecture_code": 23,
    "city": "長久手市",
    "city_kana": "ナガクテシ",
    "town": "福井",
    "town_kana": "フクイ",
    "street": null,
    "office_name": null,
    "office_name_kana": null
  },
  "1312": {
    "postcode": "4801312",
    "prefecture": "愛知県",
    "prefecture_kana": "アイチケン",
    "prefecture_code": 23,
    "city": "長久手市",
    "city_kana": "ナガクテシ",
    "town": "熊張深田",
    "town_kana": "クマハリフカダ",
    "street": null,
    "office_name": null,
    "office_name_kana": null
  },
  "1313": {
    "postcode": "4801313",
    "prefecture": "愛知県",
    "prefecture_kana": "アイチケン",
    "prefecture_code": 23,
    "city": "長久手市",
    "city_kana": "ナガクテシ",
    "town": "小深",
    "town_kana": "コブケ",
    "street": null,
    "office_name": null,
    "office_name_kana": null
  },
  "1314": {
    "postcode": "4801314",
    "prefecture": "愛知県",
    "prefecture_kana": "アイチケン",
    "prefecture_code": 23,
    "city": "長久手市",
    "city_kana": "ナガクテシ",
    "town": "馬堤",
    "town_kana": "ウマヅツミ",
    "street": null,
    "office_name": null,
    "office_name_kana": null
  },
  "1315": {
    "postcode": "4801315",
    "prefecture": "愛知県",
    "prefecture_kana": "アイチケン",
    "prefecture_code": 23,
    "city": "長久手市",
    "city_kana": "ナガクテシ",
    "town": "東平地",
    "town_kana": "ヒガシヒラチ",
    "street": null,
    "office_name": null,
    "office_name_kana": null
  },
  "1316": {
    "postcode": "4801316",
    "prefecture": "愛知県",
    "prefecture_kana": "アイチケン",
    "prefecture_code": 23,
    "city": "長久手市",
    "city_kana": "ナガクテシ",
    "town": "平地",
    "town_kana": "ヒラチ",
    "street": null,
    "office_name": null,
    "office_name_kana": null
  },
  "1317": {
    "postcode": "4801317",
    "prefecture": "愛知県",
    "prefecture_kana": "アイチケン",
    "prefecture_code": 23,
    "city": "長久手市",
    "city_kana": "ナガクテシ",
    "town": "松杁",
    "town_kana": "マツイリ",
    "street": null,
    "office_name": null,
    "office_name_kana": null
  },
  "1318": {
    "postcode": "4801318",
    "prefecture": "愛知県",
    "prefecture_kana": "アイチケン",
    "prefecture_code": 23,
    "city": "長久手市",
    "city_kana": "ナガクテシ",
    "town": "東山",
    "town_kana": "ヒガシヤマ",
    "street": null,
    "office_name": null,
    "office_name_kana": null
  },
  "1321": {
    "postcode": "4801321",
    "prefecture": "愛知県",
    "prefecture_kana": "アイチケン",
    "prefecture_code": 23,
    "city": "長久手市",
    "city_kana": "ナガクテシ",
    "town": "神明",
    "town_kana": "シンメイ",
    "street": null,
    "office_name": null,
    "office_name_kana": null
  },
  "1322": {
    "postcode": "4801322",
    "prefecture": "愛知県",
    "prefecture_kana": "アイチケン",
    "prefecture_code": 23,
    "city": "長久手市",
    "city_kana": "ナガクテシ",
    "town": "汐見坂",
    "town_kana": "シオミザカ",
    "street": null,
    "office_name": null,
    "office_name_kana": null
  },
  "1323": {
    "postcode": "4801323",
    "prefecture": "愛知県",
    "prefecture_kana": "アイチケン",
    "prefecture_code": 23,
    "city": "長久手市",
    "city_kana": "ナガクテシ",
    "town": "阿畑",
    "town_kana": "アバタ",
    "street": null,
    "office_name": null,
    "office_name_kana": null
  },
  "1324": {
    "postcode": "4801324",
    "prefecture": "愛知県",
    "prefecture_kana": "アイチケン",
    "prefecture_code": 23,
    "city": "長久手市",
    "city_kana": "ナガクテシ",
    "town": "段留",
    "town_kana": "ダントメ",
    "street": null,
    "office_name": null,
    "office_name_kana": null
  },
  "1325": {
    "postcode": "4801325",
    "prefecture": "愛知県",
    "prefecture_kana": "アイチケン",
    "prefecture_code": 23,
    "city": "長久手市",
    "city_kana": "ナガクテシ",
    "town": "杁ケ根",
    "town_kana": "イリガネ",
    "street": null,
    "office_name": null,
    "office_name_kana": null
  },
  "1326": {
    "postcode": "4801326",
    "prefecture": "愛知県",
    "prefecture_kana": "アイチケン",
    "prefecture_code": 23,
    "city": "長久手市",
    "city_kana": "ナガクテシ",
    "town": "助六",
    "town_kana": "スケロク",
    "street": null,
    "office_name": null,
    "office_name_kana": null
  },
  "1327": {
    "postcode": "4801327",
    "prefecture": "愛知県",
    "prefecture_kana": "アイチケン",
    "prefecture_code": 23,
    "city": "長久手市",
    "city_kana": "ナガクテシ",
    "town": "観音堂",
    "town_kana": "カンノンドウ",
    "street": null,
    "office_name": null,
    "office_name_kana": null
  },
  "1328": {
    "postcode": "4801328",
    "prefecture": "愛知県",
    "prefecture_kana": "アイチケン",
    "prefecture_code": 23,
    "city": "長久手市",
    "city_kana": "ナガクテシ",
    "town": "早稲田",
    "town_kana": "ワセダ",
    "street": null,
    "office_name": null,
    "office_name_kana": null
  },
  "1329": {
    "postcode": "4801329",
    "prefecture": "愛知県",
    "prefecture_kana": "アイチケン",
    "prefecture_code": 23,
    "city": "長久手市",
    "city_kana": "ナガクテシ",
    "town": "申平",
    "town_kana": "サルヒラ",
    "street": null,
    "office_name": null,
    "office_name_kana": null
  },
  "1331": {
    "postcode": "4801331",
    "prefecture": "愛知県",
    "prefecture_kana": "アイチケン",
    "prefecture_code": 23,
    "city": "長久手市",
    "city_kana": "ナガクテシ",
    "town": "雨堤",
    "town_kana": "アマヅツミ",
    "street": null,
    "office_name": null,
    "office_name_kana": null
  },
  "1332": {
    "postcode": "4801332",
    "prefecture": "愛知県",
    "prefecture_kana": "アイチケン",
    "prefecture_code": 23,
    "city": "長久手市",
    "city_kana": "ナガクテシ",
    "town": "神門前",
    "town_kana": "ジンモンマエ",
    "street": null,
    "office_name": null,
    "office_name_kana": null
  },
  "1333": {
    "postcode": "4801333",
    "prefecture": "愛知県",
    "prefecture_kana": "アイチケン",
    "prefecture_code": 23,
    "city": "長久手市",
    "city_kana": "ナガクテシ",
    "town": "蛭子",
    "town_kana": "エビス",
    "street": null,
    "office_name": null,
    "office_name_kana": null
  },
  "1334": {
    "postcode": "4801334",
    "prefecture": "愛知県",
    "prefecture_kana": "アイチケン",
    "prefecture_code": 23,
    "city": "長久手市",
    "city_kana": "ナガクテシ",
    "town": "榎ノ下",
    "town_kana": "エノシタ",
    "street": null,
    "office_name": null,
    "office_name_kana": null
  },
  "1335": {
    "postcode": "4801335",
    "prefecture": "愛知県",
    "prefecture_kana": "アイチケン",
    "prefecture_code": 23,
    "city": "長久手市",
    "city_kana": "ナガクテシ",
    "town": "大日",
    "town_kana": "ダイニチ",
    "street": null,
    "office_name": null,
    "office_name_kana": null
  },
  "1336": {
    "postcode": "4801336",
    "prefecture": "愛知県",
    "prefecture_kana": "アイチケン",
    "prefecture_code": 23,
    "city": "長久手市",
    "city_kana": "ナガクテシ",
    "town": "小稲葉",
    "town_kana": "コイナバ",
    "street": null,
    "office_name": null,
    "office_name_kana": null
  },
  "1337": {
    "postcode": "4801337",
    "prefecture": "愛知県",
    "prefecture_kana": "アイチケン",
    "prefecture_code": 23,
    "city": "長久手市",
    "city_kana": "ナガクテシ",
    "town": "中屋",
    "town_kana": "ナカヤ",
    "street": null,
    "office_name": null,
    "office_name_kana": null
  },
  "1338": {
    "postcode": "4801338",
    "prefecture": "愛知県",
    "prefecture_kana": "アイチケン",
    "prefecture_code": 23,
    "city": "長久手市",
    "city_kana": "ナガクテシ",
    "town": "下田",
    "town_kana": "シモダ",
    "street": null,
    "office_name": null,
    "office_name_kana": null
  },
  "1339": {
    "postcode": "4801339",
    "prefecture": "愛知県",
    "prefecture_kana": "アイチケン",
    "prefecture_code": 23,
    "city": "長久手市",
    "city_kana": "ナガクテシ",
    "town": "北熊",
    "town_kana": "キタグマ",
    "street": null,
    "office_name": null,
    "office_name_kana": null
  },
  "1341": {
    "postcode": "4801341",
    "prefecture": "愛知県",
    "prefecture_kana": "アイチケン",
    "prefecture_code": 23,
    "city": "長久手市",
    "city_kana": "ナガクテシ",
    "town": "葭ケ廻間",
    "town_kana": "ヨシガバサマ",
    "street": null,
    "office_name": null,
    "office_name_kana": null
  },
  "1342": {
    "postcode": "4801342",
    "prefecture": "愛知県",
    "prefecture_kana": "アイチケン",
    "prefecture_code": 23,
    "city": "長久手市",
    "city_kana": "ナガクテシ",
    "town": "茨ケ廻間",
    "town_kana": "イバラガバサマ",
    "street": null,
    "office_name": null,
    "office_name_kana": null
  },
  "1343": {
    "postcode": "4801343",
    "prefecture": "愛知県",
    "prefecture_kana": "アイチケン",
    "prefecture_code": 23,
    "city": "長久手市",
    "city_kana": "ナガクテシ",
    "town": "石場",
    "town_kana": "イシバ",
    "street": null,
    "office_name": null,
    "office_name_kana": null
  },
  "1344": {
    "postcode": "4801344",
    "prefecture": "愛知県",
    "prefecture_kana": "アイチケン",
    "prefecture_code": 23,
    "city": "長久手市",
    "city_kana": "ナガクテシ",
    "town": "広田",
    "town_kana": "ヒロタ",
    "street": null,
    "office_name": null,
    "office_name_kana": null
  },
  "1345": {
    "postcode": "4801345",
    "prefecture": "愛知県",
    "prefecture_kana": "アイチケン",
    "prefecture_code": 23,
    "city": "長久手市",
    "city_kana": "ナガクテシ",
    "town": "丸山",
    "town_kana": "マルヤマ",
    "street": null,
    "office_name": null,
    "office_name_kana": null
  },
  "1346": {
    "postcode": "4801346",
    "prefecture": "愛知県",
    "prefecture_kana": "アイチケン",
    "prefecture_code": 23,
    "city": "長久手市",
    "city_kana": "ナガクテシ",
    "town": "堂脇",
    "town_kana": "ドウワキ",
    "street": null,
    "office_name": null,
    "office_name_kana": null
  },
  "1347": {
    "postcode": "4801347",
    "prefecture": "愛知県",
    "prefecture_kana": "アイチケン",
    "prefecture_code": 23,
    "city": "長久手市",
    "city_kana": "ナガクテシ",
    "town": "鯉ケ廻間",
    "town_kana": "コイガバサマ",
    "street": null,
    "office_name": null,
    "office_name_kana": null
  }
}