{
  "0000": {
    "postcode": "4840000",
    "prefecture": "愛知県",
    "prefecture_kana": "アイチケン",
    "prefecture_code": 23,
    "city": "犬山市",
    "city_kana": "イヌヤマシ",
    "town": "",
    "town_kana": "",
    "street": null,
    "office_name": null,
    "office_name_kana": null
  },
  "0001": {
    "postcode": "4840001",
    "prefecture": "愛知県",
    "prefecture_kana": "アイチケン",
    "prefecture_code": 23,
    "city": "犬山市",
    "city_kana": "イヌヤマシ",
    "town": "垣ノ内",
    "town_kana": "カキノウチ",
    "street": null,
    "office_name": null,
    "office_name_kana": null
  },
  "0002": {
    "postcode": "4840002",
    "prefecture": "愛知県",
    "prefecture_kana": "アイチケン",
    "prefecture_code": 23,
    "city": "犬山市",
    "city_kana": "イヌヤマシ",
    "town": "栗栖",
    "town_kana": "クリス",
    "street": null,
    "office_name": null,
    "office_name_kana": null
  },
  "0003": {
    "postcode": "4840003",
    "prefecture": "愛知県",
    "prefecture_kana": "アイチケン",
    "prefecture_code": 23,
    "city": "犬山市",
    "city_kana": "イヌヤマシ",
    "town": "善師野",
    "town_kana": "ゼンジノ",
    "street": null,
    "office_name": null,
    "office_name_kana": null
  },
  "0004": {
    "postcode": "4840004",
    "prefecture": "愛知県",
    "prefecture_kana": "アイチケン",
    "prefecture_code": 23,
    "city": "犬山市",
    "city_kana": "イヌヤマシ",
    "town": "善師野台",
    "town_kana": "ゼンジノダイ",
    "street": null,
    "office_name": null,
    "office_name_kana": null
  },
  "0005": {
    "postcode": "4840005",
    "prefecture": "愛知県",
    "prefecture_kana": "アイチケン",
    "prefecture_code": 23,
    "city": "犬山市",
    "city_kana": "イヌヤマシ",
    "town": "今井",
    "town_kana": "イマイ",
    "street": null,
    "office_name": null,
    "office_name_kana": null
  },
  "0006": {
    "postcode": "4840006",
    "prefecture": "愛知県",
    "prefecture_kana": "アイチケン",
    "prefecture_code": 23,
    "city": "犬山市",
    "city_kana": "イヌヤマシ",
    "town": "八曽",
    "town_kana": "ハッソ",
    "street": null,
    "office_name": null,
    "office_name_kana": null
  },
  "0007": {
    "postcode": "4840007",
    "prefecture": "愛知県",
    "prefecture_kana": "アイチケン",
    "prefecture_code": 23,
    "city": "犬山市",
    "city_kana": "イヌヤマシ",
    "town": "十三塚",
    "town_kana": "ジュウサンヅカ",
    "street": null,
    "office_name": null,
    "office_name_kana": null
  },
  "0008": {
    "postcode": "4840008",
    "prefecture": "愛知県",
    "prefecture_kana": "アイチケン",
    "prefecture_code": 23,
    "city": "犬山市",
    "city_kana": "イヌヤマシ",
    "town": "岩穴",
    "town_kana": "イワアナ",
    "street": null,
    "office_name": null,
    "office_name_kana": null
  },
  "0009": {
    "postcode": "4840009",
    "prefecture": "愛知県",
    "prefecture_kana": "アイチケン",
    "prefecture_code": 23,
    "city": "犬山市",
    "city_kana": "イヌヤマシ",
    "town": "田口",
    "town_kana": "タグチ",
    "street": null,
    "office_name": null,
    "office_name_kana": null
  },
  "0011": {
    "postcode": "4840011",
    "prefecture": "愛知県",
    "prefecture_kana": "アイチケン",
    "prefecture_code": 23,
    "city": "犬山市",
    "city_kana": "イヌヤマシ",
    "town": "北高根",
    "town_kana": "キタタカネ",
    "street": null,
    "office_name": null,
    "office_name_kana": null
  },
  "0012": {
    "postcode": "4840012",
    "prefecture": "愛知県",
    "prefecture_kana": "アイチケン",
    "prefecture_code": 23,
    "city": "犬山市",
    "city_kana": "イヌヤマシ",
    "town": "南高根",
    "town_kana": "ミナミタカネ",
    "street": null,
    "office_name": null,
    "office_name_kana": null
  },
  "0013": {
    "postcode": "4840013",
    "prefecture": "愛知県",
    "prefecture_kana": "アイチケン",
    "prefecture_code": 23,
    "city": "犬山市",
    "city_kana": "イヌヤマシ",
    "town": "寺洞",
    "town_kana": "テラボラ",
    "street": null,
    "office_name": null,
    "office_name_kana": null
  },
  "0014": {
    "postcode": "4840014",
    "prefecture": "愛知県",
    "prefecture_kana": "アイチケン",
    "prefecture_code": 23,
    "city": "犬山市",
    "city_kana": "イヌヤマシ",
    "town": "郷中",
    "town_kana": "ゴウナカ",
    "street": null,
    "office_name": null,
    "office_name_kana": null
  },
  "0015": {
    "postcode": "4840015",
    "prefecture": "愛知県",
    "prefecture_kana": "アイチケン",
    "prefecture_code": 23,
    "city": "犬山市",
    "city_kana": "イヌヤマシ",
    "town": "御殿屋敷",
    "town_kana": "ゴテンヤシキ",
    "street": null,
    "office_name": null,
    "office_name_kana": null
  },
  "0016": {
    "postcode": "4840016",
    "prefecture": "愛知県",
    "prefecture_kana": "アイチケン",
    "prefecture_code": 23,
    "city": "犬山市",
    "city_kana": "イヌヤマシ",
    "town": "藪ケ洞",
    "town_kana": "ヤブガホラ",
    "street": null,
    "office_name": null,
    "office_name_kana": null
  },
  "0017": {
    "postcode": "4840017",
    "prefecture": "愛知県",
    "prefecture_kana": "アイチケン",
    "prefecture_code": 23,
    "city": "犬山市",
    "city_kana": "イヌヤマシ",
    "town": "篠平",
    "town_kana": "シノダイラ",
    "street": null,
    "office_name": null,
    "office_name_kana": null
  },
  "0018": {
    "postcode": "4840018",
    "prefecture": "愛知県",
    "prefecture_kana": "アイチケン",
    "prefecture_code": 23,
    "city": "犬山市",
    "city_kana": "イヌヤマシ",
    "town": "佐ケ瀬",
    "town_kana": "サガセ",
    "street": null,
    "office_name": null,
    "office_name_kana": null
  },
  "0019": {
    "postcode": "4840019",
    "prefecture": "愛知県",
    "prefecture_kana": "アイチケン",
    "prefecture_code": 23,
    "city": "犬山市",
    "city_kana": "イヌヤマシ",
    "town": "四季の丘",
    "town_kana": "シキノオカ",
    "street": null,
    "office_name": null,
    "office_name_kana": null
  },
  "0020": {
    "postcode": "4840020",
    "prefecture": "愛知県",
    "prefecture_kana": "アイチケン",
    "prefecture_code": 23,
    "city": "犬山市",
    "city_kana": "イヌヤマシ",
    "town": "もえぎケ丘",
    "town_kana": "モエギガオカ",
    "street": null,
    "office_name": null,
    "office_name_kana": null
  },
  "0021": {
    "postcode": "4840021",
    "prefecture": "愛知県",
    "prefecture_kana": "アイチケン",
    "prefecture_code": 23,
    "city": "犬山市",
    "city_kana": "イヌヤマシ",
    "town": "杁下",
    "town_kana": "イリシタ",
    "street": null,
    "office_name": null,
    "office_name_kana": null
  },
  "0022": {
    "postcode": "4840022",
    "prefecture": "愛知県",
    "prefecture_kana": "アイチケン",
    "prefecture_code": 23,
    "city": "犬山市",
    "city_kana": "イヌヤマシ",
    "town": "白山洞",
    "town_kana": "ハクサンボラ",
    "street": null,
    "office_name": null,
    "office_name_kana": null
  },
  "0023": {
    "postcode": "4840023",
    "prefecture": "愛知県",
    "prefecture_kana": "アイチケン",
    "prefecture_code": 23,
    "city": "犬山市",
    "city_kana": "イヌヤマシ",
    "town": "堤下",
    "town_kana": "ツツミシタ",
    "street": null,
    "office_name": null,
    "office_name_kana": null
  },
  "0024": {
    "postcode": "4840024",
    "prefecture": "愛知県",
    "prefecture_kana": "アイチケン",
    "prefecture_code": 23,
    "city": "犬山市",
    "city_kana": "イヌヤマシ",
    "town": "喜六屋敷",
    "town_kana": "キロクヤシキ",
    "street": null,
    "office_name": null,
    "office_name_kana": null
  },
  "0025": {
    "postcode": "4840025",
    "prefecture": "愛知県",
    "prefecture_kana": "アイチケン",
    "prefecture_code": 23,
    "city": "犬山市",
    "city_kana": "イヌヤマシ",
    "town": "野中",
    "town_kana": "ノナカ",
    "street": null,
    "office_name": null,
    "office_name_kana": null
  },
  "0026": {
    "postcode": "4840026",
    "prefecture": "愛知県",
    "prefecture_kana": "アイチケン",
    "prefecture_code": 23,
    "city": "犬山市",
    "city_kana": "イヌヤマシ",
    "town": "内屋敷",
    "town_kana": "ウチヤシキ",
    "street": null,
    "office_name": null,
    "office_name_kana": null
  },
  "0027": {
    "postcode": "4840027",
    "prefecture": "愛知県",
    "prefecture_kana": "アイチケン",
    "prefecture_code": 23,
    "city": "犬山市",
    "city_kana": "イヌヤマシ",
    "town": "倉曽洞",
    "town_kana": "クラソボラ",
    "street": null,
    "office_name": null,
    "office_name_kana": null
  },
  "0028": {
    "postcode": "4840028",
    "prefecture": "愛知県",
    "prefecture_kana": "アイチケン",
    "prefecture_code": 23,
    "city": "犬山市",
    "city_kana": "イヌヤマシ",
    "town": "向田",
    "town_kana": "ムコダ",
    "street": null,
    "office_name": null,
    "office_name_kana": null
  },
  "0029": {
    "postcode": "4840029",
    "prefecture": "愛知県",
    "prefecture_kana": "アイチケン",
    "prefecture_code": 23,
    "city": "犬山市",
    "city_kana": "イヌヤマシ",
    "town": "西洞",
    "town_kana": "ニシボラ",
    "street": null,
    "office_name": null,
    "office_name_kana": null
  },
  "0031": {
    "postcode": "4840031",
    "prefecture": "愛知県",
    "prefecture_kana": "アイチケン",
    "prefecture_code": 23,
    "city": "犬山市",
    "city_kana": "イヌヤマシ",
    "town": "東桑原",
    "town_kana": "ヒガシクワバラ",
    "street": null,
    "office_name": null,
    "office_name_kana": null
  },
  "0032": {
    "postcode": "4840032",
    "prefecture": "愛知県",
    "prefecture_kana": "アイチケン",
    "prefecture_code": 23,
    "city": "犬山市",
    "city_kana": "イヌヤマシ",
    "town": "池野安楽寺",
    "town_kana": "イケノアズクシ",
    "street": null,
    "office_name": null,
    "office_name_kana": null
  },
  "0033": {
    "postcode": "4840033",
    "prefecture": "愛知県",
    "prefecture_kana": "アイチケン",
    "prefecture_code": 23,
    "city": "犬山市",
    "city_kana": "イヌヤマシ",
    "town": "井ノ元",
    "town_kana": "イノモト",
    "street": null,
    "office_name": null,
    "office_name_kana": null
  },
  "0034": {
    "postcode": "4840034",
    "prefecture": "愛知県",
    "prefecture_kana": "アイチケン",
    "prefecture_code": 23,
    "city": "犬山市",
    "city_kana": "イヌヤマシ",
    "town": "大洞",
    "town_kana": "オオボラ",
    "street": null,
    "office_name": null,
    "office_name_kana": null
  },
  "0035": {
    "postcode": "4840035",
    "prefecture": "愛知県",
    "prefecture_kana": "アイチケン",
    "prefecture_code": 23,
    "city": "犬山市",
    "city_kana": "イヌヤマシ",
    "town": "裏山",
    "town_kana": "ウラヤマ",
    "street": null,
    "office_name": null,
    "office_name_kana": null
  },
  "0036": {
    "postcode": "4840036",
    "prefecture": "愛知県",
    "prefecture_kana": "アイチケン",
    "prefecture_code": 23,
    "city": "犬山市",
    "city_kana": "イヌヤマシ",
    "town": "西桑原",
    "town_kana": "ニシクワバラ",
    "street": null,
    "office_name": null,
    "office_name_kana": null
  },
  "0037": {
    "postcode": "4840037",
    "prefecture": "愛知県",
    "prefecture_kana": "アイチケン",
    "prefecture_code": 23,
    "city": "犬山市",
    "city_kana": "イヌヤマシ",
    "town": "西片草",
    "town_kana": "ニシカタクサ",
    "street": null,
    "office_name": null,
    "office_name_kana": null
  },
  "0038": {
    "postcode": "4840038",
    "prefecture": "愛知県",
    "prefecture_kana": "アイチケン",
    "prefecture_code": 23,
    "city": "犬山市",
    "city_kana": "イヌヤマシ",
    "town": "東片草",
    "town_kana": "ヒガシカタクサ",
    "street": null,
    "office_name": null,
    "office_name_kana": null
  },
  "0041": {
    "postcode": "4840041",
    "prefecture": "愛知県",
    "prefecture_kana": "アイチケン",
    "prefecture_code": 23,
    "city": "犬山市",
    "city_kana": "イヌヤマシ",
    "town": "長者町",
    "town_kana": "チョウジャマチ",
    "street": null,
    "office_name": null,
    "office_name_kana": null
  },
  "0042": {
    "postcode": "4840042",
    "prefecture": "愛知県",
    "prefecture_kana": "アイチケン",
    "prefecture_code": 23,
    "city": "犬山市",
    "city_kana": "イヌヤマシ",
    "town": "二本木",
    "town_kana": "ニホンギ",
    "street": null,
    "office_name": null,
    "office_name_kana": null
  },
  "0043": {
    "postcode": "4840043",
    "prefecture": "愛知県",
    "prefecture_kana": "アイチケン",
    "prefecture_code": 23,
    "city": "犬山市",
    "city_kana": "イヌヤマシ",
    "town": "上ノ田",
    "town_kana": "カミノタ",
    "street": null,
    "office_name": null,
    "office_name_kana": null
  },
  "0044": {
    "postcode": "4840044",
    "prefecture": "愛知県",
    "prefecture_kana": "アイチケン",
    "prefecture_code": 23,
    "city": "犬山市",
    "city_kana": "イヌヤマシ",
    "town": "下屋敷",
    "town_kana": "シモヤシキ",
    "street": null,
    "office_name": null,
    "office_name_kana": null
  },
  "0045": {
    "postcode": "4840045",
    "prefecture": "愛知県",
    "prefecture_kana": "アイチケン",
    "prefecture_code": 23,
    "city": "犬山市",
    "city_kana": "イヌヤマシ",
    "town": "仲畑",
    "town_kana": "ナカハタ",
    "street": null,
    "office_name": null,
    "office_name_kana": null
  },
  "0046": {
    "postcode": "4840046",
    "prefecture": "愛知県",
    "prefecture_kana": "アイチケン",
    "prefecture_code": 23,
    "city": "犬山市",
    "city_kana": "イヌヤマシ",
    "town": "屋敷裏",
    "town_kana": "ヤシキウラ",
    "street": null,
    "office_name": null,
    "office_name_kana": null
  },
  "0047": {
    "postcode": "4840047",
    "prefecture": "愛知県",
    "prefecture_kana": "アイチケン",
    "prefecture_code": 23,
    "city": "犬山市",
    "city_kana": "イヌヤマシ",
    "town": "内久保",
    "town_kana": "ウチクボ",
    "street": null,
    "office_name": null,
    "office_name_kana": null
  },
  "0048": {
    "postcode": "4840048",
    "prefecture": "愛知県",
    "prefecture_kana": "アイチケン",
    "prefecture_code": 23,
    "city": "犬山市",
    "city_kana": "イヌヤマシ",
    "town": "楽田内久保",
    "town_kana": "ガクデンウチクボ",
    "street": null,
    "office_name": null,
    "office_name_kana": null
  },
  "0049": {
    "postcode": "4840049",
    "prefecture": "愛知県",
    "prefecture_kana": "アイチケン",
    "prefecture_code": 23,
    "city": "犬山市",
    "city_kana": "イヌヤマシ",
    "town": "前田面",
    "town_kana": "マエダメン",
    "street": null,
    "office_name": null,
    "office_name_kana": null
  },
  "0051": {
    "postcode": "4840051",
    "prefecture": "愛知県",
    "prefecture_kana": "アイチケン",
    "prefecture_code": 23,
    "city": "犬山市",
    "city_kana": "イヌヤマシ",
    "town": "宮裏",
    "town_kana": "ミヤウラ",
    "street": null,
    "office_name": null,
    "office_name_kana": null
  },
  "0052": {
    "postcode": "4840052",
    "prefecture": "愛知県",
    "prefecture_kana": "アイチケン",
    "prefecture_code": 23,
    "city": "犬山市",
    "city_kana": "イヌヤマシ",
    "town": "早稲田",
    "town_kana": "ワセダ",
    "street": null,
    "office_name": null,
    "office_name_kana": null
  },
  "0053": {
    "postcode": "4840053",
    "prefecture": "愛知県",
    "prefecture_kana": "アイチケン",
    "prefecture_code": 23,
    "city": "犬山市",
    "city_kana": "イヌヤマシ",
    "town": "石畑",
    "town_kana": "イシハタ",
    "street": null,
    "office_name": null,
    "office_name_kana": null
  },
  "0054": {
    "postcode": "4840054",
    "prefecture": "愛知県",
    "prefecture_kana": "アイチケン",
    "prefecture_code": 23,
    "city": "犬山市",
    "city_kana": "イヌヤマシ",
    "town": "仲屋敷",
    "town_kana": "ナカヤシキ",
    "street": null,
    "office_name": null,
    "office_name_kana": null
  },
  "0055": {
    "postcode": "4840055",
    "prefecture": "愛知県",
    "prefecture_kana": "アイチケン",
    "prefecture_code": 23,
    "city": "犬山市",
    "city_kana": "イヌヤマシ",
    "town": "牛岩",
    "town_kana": "ウシイワ",
    "street": null,
    "office_name": null,
    "office_name_kana": null
  },
  "0056": {
    "postcode": "4840056",
    "prefecture": "愛知県",
    "prefecture_kana": "アイチケン",
    "prefecture_code": 23,
    "city": "犬山市",
    "city_kana": "イヌヤマシ",
    "town": "稲干場",
    "town_kana": "イナホシバ",
    "street": null,
    "office_name": null,
    "office_name_kana": null
  },
  "0057": {
    "postcode": "4840057",
    "prefecture": "愛知県",
    "prefecture_kana": "アイチケン",
    "prefecture_code": 23,
    "city": "犬山市",
    "city_kana": "イヌヤマシ",
    "town": "富士山",
    "town_kana": "フジヤマ",
    "street": null,
    "office_name": null,
    "office_name_kana": null
  },
  "0058": {
    "postcode": "4840058",
    "prefecture": "愛知県",
    "prefecture_kana": "アイチケン",
    "prefecture_code": 23,
    "city": "犬山市",
    "city_kana": "イヌヤマシ",
    "town": "大門",
    "town_kana": "ダイモン",
    "street": null,
    "office_name": null,
    "office_name_kana": null
  },
  "0059": {
    "postcode": "4840059",
    "prefecture": "愛知県",
    "prefecture_kana": "アイチケン",
    "prefecture_code": 23,
    "city": "犬山市",
    "city_kana": "イヌヤマシ",
    "town": "上坂町",
    "town_kana": "カミサカチョウ",
    "street": null,
    "office_name": null,
    "office_name_kana": null
  },
  "0061": {
    "postcode": "4840061",
    "prefecture": "愛知県",
    "prefecture_kana": "アイチケン",
    "prefecture_code": 23,
    "city": "犬山市",
    "city_kana": "イヌヤマシ",
    "town": "前原",
    "town_kana": "マエハラ",
    "street": null,
    "office_name": null,
    "office_name_kana": null
  },
  "0062": {
    "postcode": "4840062",
    "prefecture": "愛知県",
    "prefecture_kana": "アイチケン",
    "prefecture_code": 23,
    "city": "犬山市",
    "city_kana": "イヌヤマシ",
    "town": "前原味鹿",
    "town_kana": "マエハラアジカ",
    "street": null,
    "office_name": null,
    "office_name_kana": null
  },
  "0063": {
    "postcode": "4840063",
    "prefecture": "愛知県",
    "prefecture_kana": "アイチケン",
    "prefecture_code": 23,
    "city": "犬山市",
    "city_kana": "イヌヤマシ",
    "town": "前原南",
    "town_kana": "マエハラミナミ",
    "street": null,
    "office_name": null,
    "office_name_kana": null
  },
  "0064": {
    "postcode": "4840064",
    "prefecture": "愛知県",
    "prefecture_kana": "アイチケン",
    "prefecture_code": 23,
    "city": "犬山市",
    "city_kana": "イヌヤマシ",
    "town": "前原西",
    "town_kana": "マエハラニシ",
    "street": null,
    "office_name": null,
    "office_name_kana": null
  },
  "0065": {
    "postcode": "4840065",
    "prefecture": "愛知県",
    "prefecture_kana": "アイチケン",
    "prefecture_code": 23,
    "city": "犬山市",
    "city_kana": "イヌヤマシ",
    "town": "五郎丸東",
    "town_kana": "ゴロウマルヒガシ",
    "street": null,
    "office_name": null,
    "office_name_kana": null
  },
  "0066": {
    "postcode": "4840066",
    "prefecture": "愛知県",
    "prefecture_kana": "アイチケン",
    "prefecture_code": 23,
    "city": "犬山市",
    "city_kana": "イヌヤマシ",
    "town": "五郎丸",
    "town_kana": "ゴロウマル",
    "street": null,
    "office_name": null,
    "office_name_kana": null
  },
  "0071": {
    "postcode": "4840071",
    "prefecture": "愛知県",
    "prefecture_kana": "アイチケン",
    "prefecture_code": 23,
    "city": "犬山市",
    "city_kana": "イヌヤマシ",
    "town": "内田東町",
    "town_kana": "ウチダヒガシマチ",
    "street": null,
    "office_name": null,
    "office_name_kana": null
  },
  "0072": {
    "postcode": "4840072",
    "prefecture": "愛知県",
    "prefecture_kana": "アイチケン",
    "prefecture_code": 23,
    "city": "犬山市",
    "city_kana": "イヌヤマシ",
    "town": "丸山天白町",
    "town_kana": "マルヤマテンパクチョウ",
    "street": null,
    "office_name": null,
    "office_name_kana": null
  },
  "0073": {
    "postcode": "4840073",
    "prefecture": "愛知県",
    "prefecture_kana": "アイチケン",
    "prefecture_code": 23,
    "city": "犬山市",
    "city_kana": "イヌヤマシ",
    "town": "天神町",
    "town_kana": "テンジンチョウ",
    "street": null,
    "office_name": null,
    "office_name_kana": null
  },
  "0074": {
    "postcode": "4840074",
    "prefecture": "愛知県",
    "prefecture_kana": "アイチケン",
    "prefecture_code": 23,
    "city": "犬山市",
    "city_kana": "イヌヤマシ",
    "town": "梅坪",
    "town_kana": "ウメツボ",
    "street": null,
    "office_name": null,
    "office_name_kana": null
  },
  "0075": {
    "postcode": "4840075",
    "prefecture": "愛知県",
    "prefecture_kana": "アイチケン",
    "prefecture_code": 23,
    "city": "犬山市",
    "city_kana": "イヌヤマシ",
    "town": "橋爪東",
    "town_kana": "ハシヅメヒガシ",
    "street": null,
    "office_name": null,
    "office_name_kana": null
  },
  "0076": {
    "postcode": "4840076",
    "prefecture": "愛知県",
    "prefecture_kana": "アイチケン",
    "prefecture_code": 23,
    "city": "犬山市",
    "city_kana": "イヌヤマシ",
    "town": "橋爪",
    "town_kana": "ハシヅメ",
    "street": null,
    "office_name": null,
    "office_name_kana": null
  },
  "0077": {
    "postcode": "4840077",
    "prefecture": "愛知県",
    "prefecture_kana": "アイチケン",
    "prefecture_code": 23,
    "city": "犬山市",
    "city_kana": "イヌヤマシ",
    "town": "上野",
    "town_kana": "カミノ",
    "street": null,
    "office_name": null,
    "office_name_kana": null
  },
  "0078": {
    "postcode": "4840078",
    "prefecture": "愛知県",
    "prefecture_kana": "アイチケン",
    "prefecture_code": 23,
    "city": "犬山市",
    "city_kana": "イヌヤマシ",
    "town": "上野新町",
    "town_kana": "カミノシンマチ",
    "street": null,
    "office_name": null,
    "office_name_kana": null
  },
  "0079": {
    "postcode": "4840079",
    "prefecture": "愛知県",
    "prefecture_kana": "アイチケン",
    "prefecture_code": 23,
    "city": "犬山市",
    "city_kana": "イヌヤマシ",
    "town": "木津",
    "town_kana": "コッツ",
    "street": null,
    "office_name": null,
    "office_name_kana": null
  },
  "0081": {
    "postcode": "4840081",
    "prefecture": "愛知県",
    "prefecture_kana": "アイチケン",
    "prefecture_code": 23,
    "city": "犬山市",
    "city_kana": "イヌヤマシ",
    "town": "犬山",
    "town_kana": "イヌヤマ",
    "street": null,
    "office_name": null,
    "office_name_kana": null
  },
  "0082": {
    "postcode": "4840082",
    "prefecture": "愛知県",
    "prefecture_kana": "アイチケン",
    "prefecture_code": 23,
    "city": "犬山市",
    "city_kana": "イヌヤマシ",
    "town": "北古券",
    "town_kana": "キタコケン",
    "street": null,
    "office_name": null,
    "office_name_kana": null
  },
  "0083": {
    "postcode": "4840083",
    "prefecture": "愛知県",
    "prefecture_kana": "アイチケン",
    "prefecture_code": 23,
    "city": "犬山市",
    "city_kana": "イヌヤマシ",
    "town": "東古券",
    "town_kana": "ヒガシコケン",
    "street": null,
    "office_name": null,
    "office_name_kana": null
  },
  "0084": {
    "postcode": "4840084",
    "prefecture": "愛知県",
    "prefecture_kana": "アイチケン",
    "prefecture_code": 23,
    "city": "犬山市",
    "city_kana": "イヌヤマシ",
    "town": "南古券",
    "town_kana": "ミナミコケン",
    "street": null,
    "office_name": null,
    "office_name_kana": null
  },
  "0085": {
    "postcode": "4840085",
    "prefecture": "愛知県",
    "prefecture_kana": "アイチケン",
    "prefecture_code": 23,
    "city": "犬山市",
    "city_kana": "イヌヤマシ",
    "town": "西古券",
    "town_kana": "ニシコケン",
    "street": null,
    "office_name": null,
    "office_name_kana": null
  },
  "0086": {
    "postcode": "4840086",
    "prefecture": "愛知県",
    "prefecture_kana": "アイチケン",
    "prefecture_code": 23,
    "city": "犬山市",
    "city_kana": "イヌヤマシ",
    "town": "松本町",
    "town_kana": "マツモトチョウ",
    "street": null,
    "office_name": null,
    "office_name_kana": null
  },
  "0087": {
    "postcode": "4840087",
    "prefecture": "愛知県",
    "prefecture_kana": "アイチケン",
    "prefecture_code": 23,
    "city": "犬山市",
    "city_kana": "イヌヤマシ",
    "town": "中山町",
    "town_kana": "ナカヤマチョウ",
    "street": null,
    "office_name": null,
    "office_name_kana": null
  },
  "0091": {
    "postcode": "4840091",
    "prefecture": "愛知県",
    "prefecture_kana": "アイチケン",
    "prefecture_code": 23,
    "city": "犬山市",
    "city_kana": "イヌヤマシ",
    "town": "継鹿尾",
    "town_kana": "ツガオ",
    "street": null,
    "office_name": null,
    "office_name_kana": null
  },
  "0092": {
    "postcode": "4840092",
    "prefecture": "愛知県",
    "prefecture_kana": "アイチケン",
    "prefecture_code": 23,
    "city": "犬山市",
    "city_kana": "イヌヤマシ",
    "town": "富岡",
    "town_kana": "トミオカ",
    "street": null,
    "office_name": null,
    "office_name_kana": null
  },
  "0093": {
    "postcode": "4840093",
    "prefecture": "愛知県",
    "prefecture_kana": "アイチケン",
    "prefecture_code": 23,
    "city": "犬山市",
    "city_kana": "イヌヤマシ",
    "town": "富岡東",
    "town_kana": "トミオカヒガシ",
    "street": null,
    "office_name": null,
    "office_name_kana": null
  },
  "0094": {
    "postcode": "4840094",
    "prefecture": "愛知県",
    "prefecture_kana": "アイチケン",
    "prefecture_code": 23,
    "city": "犬山市",
    "city_kana": "イヌヤマシ",
    "town": "塔野地",
    "town_kana": "トウノジ",
    "street": null,
    "office_name": null,
    "office_name_kana": null
  },
  "0095": {
    "postcode": "4840095",
    "prefecture": "愛知県",
    "prefecture_kana": "アイチケン",
    "prefecture_code": 23,
    "city": "犬山市",
    "city_kana": "イヌヤマシ",
    "town": "塔野地杉",
    "town_kana": "トウノジスギ",
    "street": null,
    "office_name": null,
    "office_name_kana": null
  },
  "0096": {
    "postcode": "4840096",
    "prefecture": "愛知県",
    "prefecture_kana": "アイチケン",
    "prefecture_code": 23,
    "city": "犬山市",
    "city_kana": "イヌヤマシ",
    "town": "塔野地西",
    "town_kana": "トウノジニシ",
    "street": null,
    "office_name": null,
    "office_name_kana": null
  },
  "0097": {
    "postcode": "4840097",
    "prefecture": "愛知県",
    "prefecture_kana": "アイチケン",
    "prefecture_code": 23,
    "city": "犬山市",
    "city_kana": "イヌヤマシ",
    "town": "塔野地北",
    "town_kana": "トウノジキタ",
    "street": null,
    "office_name": null,
    "office_name_kana": null
  },
  "0098": {
    "postcode": "4840098",
    "prefecture": "愛知県",
    "prefecture_kana": "アイチケン",
    "prefecture_code": 23,
    "city": "犬山市",
    "city_kana": "イヌヤマシ",
    "town": "富岡南",
    "town_kana": "トミオカミナミ",
    "street": null,
    "office_name": null,
    "office_name_kana": null
  },
  "0099": {
    "postcode": "4840099",
    "prefecture": "愛知県",
    "prefecture_kana": "アイチケン",
    "prefecture_code": 23,
    "city": "犬山市",
    "city_kana": "イヌヤマシ",
    "town": "富岡新町",
    "town_kana": "トミオカシンマチ",
    "street": null,
    "office_name": null,
    "office_name_kana": null
  },
  "0801": {
    "postcode": "4840801",
    "prefecture": "愛知県",
    "prefecture_kana": "アイチケン",
    "prefecture_code": 23,
    "city": "犬山市",
    "city_kana": "イヌヤマシ",
    "town": "羽黒安戸南",
    "town_kana": "ハグロヤスドミナミ",
    "street": null,
    "office_name": null,
    "office_name_kana": null
  },
  "0802": {
    "postcode": "4840802",
    "prefecture": "愛知県",
    "prefecture_kana": "アイチケン",
    "prefecture_code": 23,
    "city": "犬山市",
    "city_kana": "イヌヤマシ",
    "town": "羽黒安戸西",
    "town_kana": "ハグロヤスドニシ",
    "street": null,
    "office_name": null,
    "office_name_kana": null
  },
  "0803": {
    "postcode": "4840803",
    "prefecture": "愛知県",
    "prefecture_kana": "アイチケン",
    "prefecture_code": 23,
    "city": "犬山市",
    "city_kana": "イヌヤマシ",
    "town": "羽黒新赤坂",
    "town_kana": "ハグロシンアカサカ",
    "street": null,
    "office_name": null,
    "office_name_kana": null
  },
  "0804": {
    "postcode": "4840804",
    "prefecture": "愛知県",
    "prefecture_kana": "アイチケン",
    "prefecture_code": 23,
    "city": "犬山市",
    "city_kana": "イヌヤマシ",
    "town": "羽黒桜海道",
    "town_kana": "ハグロサクラカイドウ",
    "street": null,
    "office_name": null,
    "office_name_kana": null
  },
  "0805": {
    "postcode": "4840805",
    "prefecture": "愛知県",
    "prefecture_kana": "アイチケン",
    "prefecture_code": 23,
    "city": "犬山市",
    "city_kana": "イヌヤマシ",
    "town": "羽黒新外山",
    "town_kana": "ハグロシントヤマ",
    "street": null,
    "office_name": null,
    "office_name_kana": null
  },
  "0806": {
    "postcode": "4840806",
    "prefecture": "愛知県",
    "prefecture_kana": "アイチケン",
    "prefecture_code": 23,
    "city": "犬山市",
    "city_kana": "イヌヤマシ",
    "town": "羽黒朝日",
    "town_kana": "ハグロアサヒ",
    "street": null,
    "office_name": null,
    "office_name_kana": null
  },
  "0807": {
    "postcode": "4840807",
    "prefecture": "愛知県",
    "prefecture_kana": "アイチケン",
    "prefecture_code": 23,
    "city": "犬山市",
    "city_kana": "イヌヤマシ",
    "town": "羽黒鉾添",
    "town_kana": "ハグロホコゾエ",
    "street": null,
    "office_name": null,
    "office_name_kana": null
  },
  "0811": {
    "postcode": "4840811",
    "prefecture": "愛知県",
    "prefecture_kana": "アイチケン",
    "prefecture_code": 23,
    "city": "犬山市",
    "city_kana": "イヌヤマシ",
    "town": "楽田長塚東",
    "town_kana": "ガクデンナガツカヒガシ",
    "street": null,
    "office_name": null,
    "office_name_kana": null
  },
  "0812": {
    "postcode": "4840812",
    "prefecture": "愛知県",
    "prefecture_kana": "アイチケン",
    "prefecture_code": 23,
    "city": "犬山市",
    "city_kana": "イヌヤマシ",
    "town": "山ノ田",
    "town_kana": "ヤマノタ",
    "street": null,
    "office_name": null,
    "office_name_kana": null
  },
  "0813": {
    "postcode": "4840813",
    "prefecture": "愛知県",
    "prefecture_kana": "アイチケン",
    "prefecture_code": 23,
    "city": "犬山市",
    "city_kana": "イヌヤマシ",
    "town": "山ノ田腰",
    "town_kana": "ヤマノタゴシ",
    "street": null,
    "office_name": null,
    "office_name_kana": null
  },
  "0814": {
    "postcode": "4840814",
    "prefecture": "愛知県",
    "prefecture_kana": "アイチケン",
    "prefecture_code": 23,
    "city": "犬山市",
    "city_kana": "イヌヤマシ",
    "town": "高根",
    "town_kana": "タカネ",
    "street": null,
    "office_name": null,
    "office_name_kana": null
  },
  "0815": {
    "postcode": "4840815",
    "prefecture": "愛知県",
    "prefecture_kana": "アイチケン",
    "prefecture_code": 23,
    "city": "犬山市",
    "city_kana": "イヌヤマシ",
    "town": "郷東",
    "town_kana": "ゴウヒガシ",
    "street": null,
    "office_name": null,
    "office_name_kana": null
  },
  "0816": {
    "postcode": "4840816",
    "prefecture": "愛知県",
    "prefecture_kana": "アイチケン",
    "prefecture_code": 23,
    "city": "犬山市",
    "city_kana": "イヌヤマシ",
    "town": "楽田原東",
    "town_kana": "ガクデンハラヒガシ",
    "street": null,
    "office_name": null,
    "office_name_kana": null
  },
  "0817": {
    "postcode": "4840817",
    "prefecture": "愛知県",
    "prefecture_kana": "アイチケン",
    "prefecture_code": 23,
    "city": "犬山市",
    "city_kana": "イヌヤマシ",
    "town": "郷西",
    "town_kana": "ゴウニシ",
    "street": null,
    "office_name": null,
    "office_name_kana": null
  },
  "0818": {
    "postcode": "4840818",
    "prefecture": "愛知県",
    "prefecture_kana": "アイチケン",
    "prefecture_code": 23,
    "city": "犬山市",
    "city_kana": "イヌヤマシ",
    "town": "北浦",
    "town_kana": "キタウラ",
    "street": null,
    "office_name": null,
    "office_name_kana": null
  },
  "0819": {
    "postcode": "4840819",
    "prefecture": "愛知県",
    "prefecture_kana": "アイチケン",
    "prefecture_code": 23,
    "city": "犬山市",
    "city_kana": "イヌヤマシ",
    "town": "楽田長塚西",
    "town_kana": "ガクデンナガツカニシ",
    "street": null,
    "office_name": null,
    "office_name_kana": null
  },
  "0821": {
    "postcode": "4840821",
    "prefecture": "愛知県",
    "prefecture_kana": "アイチケン",
    "prefecture_code": 23,
    "city": "犬山市",
    "city_kana": "イヌヤマシ",
    "town": "山崎西",
    "town_kana": "ヤマザキニシ",
    "street": null,
    "office_name": null,
    "office_name_kana": null
  },
  "0822": {
    "postcode": "4840822",
    "prefecture": "愛知県",
    "prefecture_kana": "アイチケン",
    "prefecture_code": 23,
    "city": "犬山市",
    "city_kana": "イヌヤマシ",
    "town": "中切",
    "town_kana": "ナカギリ",
    "street": null,
    "office_name": null,
    "office_name_kana": null
  },
  "0823": {
    "postcode": "4840823",
    "prefecture": "愛知県",
    "prefecture_kana": "アイチケン",
    "prefecture_code": 23,
    "city": "犬山市",
    "city_kana": "イヌヤマシ",
    "town": "北大門",
    "town_kana": "キタダイモン",
    "street": null,
    "office_name": null,
    "office_name_kana": null
  },
  "0824": {
    "postcode": "4840824",
    "prefecture": "愛知県",
    "prefecture_kana": "アイチケン",
    "prefecture_code": 23,
    "city": "犬山市",
    "city_kana": "イヌヤマシ",
    "town": "北洞",
    "town_kana": "キタボラ",
    "street": null,
    "office_name": null,
    "office_name_kana": null
  },
  "0825": {
    "postcode": "4840825",
    "prefecture": "愛知県",
    "prefecture_kana": "アイチケン",
    "prefecture_code": 23,
    "city": "犬山市",
    "city_kana": "イヌヤマシ",
    "town": "常福寺洞",
    "town_kana": "ジョウフクジボラ",
    "street": null,
    "office_name": null,
    "office_name_kana": null
  },
  "0826": {
    "postcode": "4840826",
    "prefecture": "愛知県",
    "prefecture_kana": "アイチケン",
    "prefecture_code": 23,
    "city": "犬山市",
    "city_kana": "イヌヤマシ",
    "town": "山ノ鼻",
    "town_kana": "ヤマノハナ",
    "street": null,
    "office_name": null,
    "office_name_kana": null
  },
  "0827": {
    "postcode": "4840827",
    "prefecture": "愛知県",
    "prefecture_kana": "アイチケン",
    "prefecture_code": 23,
    "city": "犬山市",
    "city_kana": "イヌヤマシ",
    "town": "薬師前",
    "town_kana": "ヤクシマエ",
    "street": null,
    "office_name": null,
    "office_name_kana": null
  },
  "0828": {
    "postcode": "4840828",
    "prefecture": "愛知県",
    "prefecture_kana": "アイチケン",
    "prefecture_code": 23,
    "city": "犬山市",
    "city_kana": "イヌヤマシ",
    "town": "薬師浦",
    "town_kana": "ヤクシウラ",
    "street": null,
    "office_name": null,
    "office_name_kana": null
  },
  "0831": {
    "postcode": "4840831",
    "prefecture": "愛知県",
    "prefecture_kana": "アイチケン",
    "prefecture_code": 23,
    "city": "犬山市",
    "city_kana": "イヌヤマシ",
    "town": "堂屋敷",
    "town_kana": "ドウヤシキ",
    "street": null,
    "office_name": null,
    "office_name_kana": null
  },
  "0832": {
    "postcode": "4840832",
    "prefecture": "愛知県",
    "prefecture_kana": "アイチケン",
    "prefecture_code": 23,
    "city": "犬山市",
    "city_kana": "イヌヤマシ",
    "town": "向山",
    "town_kana": "ムコヤマ",
    "street": null,
    "office_name": null,
    "office_name_kana": null
  },
  "0833": {
    "postcode": "4840833",
    "prefecture": "愛知県",
    "prefecture_kana": "アイチケン",
    "prefecture_code": 23,
    "city": "犬山市",
    "city_kana": "イヌヤマシ",
    "town": "宮西",
    "town_kana": "ミヤニシ",
    "street": null,
    "office_name": null,
    "office_name_kana": null
  },
  "0834": {
    "postcode": "4840834",
    "prefecture": "愛知県",
    "prefecture_kana": "アイチケン",
    "prefecture_code": 23,
    "city": "犬山市",
    "city_kana": "イヌヤマシ",
    "town": "宮山",
    "town_kana": "ミヤヤマ",
    "street": null,
    "office_name": null,
    "office_name_kana": null
  },
  "0835": {
    "postcode": "4840835",
    "prefecture": "愛知県",
    "prefecture_kana": "アイチケン",
    "prefecture_code": 23,
    "city": "犬山市",
    "city_kana": "イヌヤマシ",
    "town": "蓮池",
    "town_kana": "ハスイケ",
    "street": null,
    "office_name": null,
    "office_name_kana": null
  },
  "0836": {
    "postcode": "4840836",
    "prefecture": "愛知県",
    "prefecture_kana": "アイチケン",
    "prefecture_code": 23,
    "city": "犬山市",
    "city_kana": "イヌヤマシ",
    "town": "笛田",
    "town_kana": "フエダ",
    "street": null,
    "office_name": null,
    "office_name_kana": null
  },
  "0837": {
    "postcode": "4840837",
    "prefecture": "愛知県",
    "prefecture_kana": "アイチケン",
    "prefecture_code": 23,
    "city": "犬山市",
    "city_kana": "イヌヤマシ",
    "town": "荒井",
    "town_kana": "アライ",
    "street": null,
    "office_name": null,
    "office_name_kana": null
  },
  "0838": {
    "postcode": "4840838",
    "prefecture": "愛知県",
    "prefecture_kana": "アイチケン",
    "prefecture_code": 23,
    "city": "犬山市",
    "city_kana": "イヌヤマシ",
    "town": "小路",
    "town_kana": "コジ",
    "street": null,
    "office_name": null,
    "office_name_kana": null
  },
  "0839": {
    "postcode": "4840839",
    "prefecture": "愛知県",
    "prefecture_kana": "アイチケン",
    "prefecture_code": 23,
    "city": "犬山市",
    "city_kana": "イヌヤマシ",
    "town": "桃山台",
    "town_kana": "モモヤマダイ",
    "street": null,
    "office_name": null,
    "office_name_kana": null
  },
  "0841": {
    "postcode": "4840841",
    "prefecture": "愛知県",
    "prefecture_kana": "アイチケン",
    "prefecture_code": 23,
    "city": "犬山市",
    "city_kana": "イヌヤマシ",
    "town": "楽田小針",
    "town_kana": "ガクデンコバリ",
    "street": null,
    "office_name": null,
    "office_name_kana": null
  },
  "0842": {
    "postcode": "4840842",
    "prefecture": "愛知県",
    "prefecture_kana": "アイチケン",
    "prefecture_code": 23,
    "city": "犬山市",
    "city_kana": "イヌヤマシ",
    "town": "下小針",
    "town_kana": "シモコバリ",
    "street": null,
    "office_name": null,
    "office_name_kana": null
  },
  "0843": {
    "postcode": "4840843",
    "prefecture": "愛知県",
    "prefecture_kana": "アイチケン",
    "prefecture_code": 23,
    "city": "犬山市",
    "city_kana": "イヌヤマシ",
    "town": "楽田打越",
    "town_kana": "ガクデンウチコシ",
    "street": null,
    "office_name": null,
    "office_name_kana": null
  },
  "0844": {
    "postcode": "4840844",
    "prefecture": "愛知県",
    "prefecture_kana": "アイチケン",
    "prefecture_code": 23,
    "city": "犬山市",
    "city_kana": "イヌヤマシ",
    "town": "鷺山",
    "town_kana": "サギヤマ",
    "street": null,
    "office_name": null,
    "office_name_kana": null
  },
  "0845": {
    "postcode": "4840845",
    "prefecture": "愛知県",
    "prefecture_kana": "アイチケン",
    "prefecture_code": 23,
    "city": "犬山市",
    "city_kana": "イヌヤマシ",
    "town": "高坪",
    "town_kana": "タカツボ",
    "street": null,
    "office_name": null,
    "office_name_kana": null
  },
  "0846": {
    "postcode": "4840846",
    "prefecture": "愛知県",
    "prefecture_kana": "アイチケン",
    "prefecture_code": 23,
    "city": "犬山市",
    "city_kana": "イヌヤマシ",
    "town": "楽田山ノ田",
    "town_kana": "ガクデンヤマノタ",
    "street": null,
    "office_name": null,
    "office_name_kana": null
  },
  "0851": {
    "postcode": "4840851",
    "prefecture": "愛知県",
    "prefecture_kana": "アイチケン",
    "prefecture_code": 23,
    "city": "犬山市",
    "city_kana": "イヌヤマシ",
    "town": "烏杜",
    "town_kana": "カラスモリ",
    "street": null,
    "office_name": null,
    "office_name_kana": null
  },
  "0852": {
    "postcode": "4840852",
    "prefecture": "愛知県",
    "prefecture_kana": "アイチケン",
    "prefecture_code": 23,
    "city": "犬山市",
    "city_kana": "イヌヤマシ",
    "town": "中小針",
    "town_kana": "ナカコバリ",
    "street": null,
    "office_name": null,
    "office_name_kana": null
  },
  "0853": {
    "postcode": "4840853",
    "prefecture": "愛知県",
    "prefecture_kana": "アイチケン",
    "prefecture_code": 23,
    "city": "犬山市",
    "city_kana": "イヌヤマシ",
    "town": "横町",
    "town_kana": "ヨコマチ",
    "street": null,
    "office_name": null,
    "office_name_kana": null
  },
  "0854": {
    "postcode": "4840854",
    "prefecture": "愛知県",
    "prefecture_kana": "アイチケン",
    "prefecture_code": 23,
    "city": "犬山市",
    "city_kana": "イヌヤマシ",
    "town": "裏之門",
    "town_kana": "ウラノモン",
    "street": null,
    "office_name": null,
    "office_name_kana": null
  },
  "0855": {
    "postcode": "4840855",
    "prefecture": "愛知県",
    "prefecture_kana": "アイチケン",
    "prefecture_code": 23,
    "city": "犬山市",
    "city_kana": "イヌヤマシ",
    "town": "小洞",
    "town_kana": "コボラ",
    "street": null,
    "office_name": null,
    "office_name_kana": null
  },
  "0856": {
    "postcode": "4840856",
    "prefecture": "愛知県",
    "prefecture_kana": "アイチケン",
    "prefecture_code": 23,
    "city": "犬山市",
    "city_kana": "イヌヤマシ",
    "town": "楽田天神",
    "town_kana": "ガクデンテンジン",
    "street": null,
    "office_name": null,
    "office_name_kana": null
  },
  "0857": {
    "postcode": "4840857",
    "prefecture": "愛知県",
    "prefecture_kana": "アイチケン",
    "prefecture_code": 23,
    "city": "犬山市",
    "city_kana": "イヌヤマシ",
    "town": "外屋敷",
    "town_kana": "トヤシキ",
    "street": null,
    "office_name": null,
    "office_name_kana": null
  },
  "0858": {
    "postcode": "4840858",
    "prefecture": "愛知県",
    "prefecture_kana": "アイチケン",
    "prefecture_code": 23,
    "city": "犬山市",
    "city_kana": "イヌヤマシ",
    "town": "城山",
    "town_kana": "シロヤマ",
    "street": null,
    "office_name": null,
    "office_name_kana": null
  },
  "0861": {
    "postcode": "4840861",
    "prefecture": "愛知県",
    "prefecture_kana": "アイチケン",
    "prefecture_code": 23,
    "city": "犬山市",
    "city_kana": "イヌヤマシ",
    "town": "若宮",
    "town_kana": "ワカミヤ",
    "street": null,
    "office_name": null,
    "office_name_kana": null
  },
  "0862": {
    "postcode": "4840862",
    "prefecture": "愛知県",
    "prefecture_kana": "アイチケン",
    "prefecture_code": 23,
    "city": "犬山市",
    "city_kana": "イヌヤマシ",
    "town": "石塚",
    "town_kana": "イシヅカ",
    "street": null,
    "office_name": null,
    "office_name_kana": null
  },
  "0863": {
    "postcode": "4840863",
    "prefecture": "愛知県",
    "prefecture_kana": "アイチケン",
    "prefecture_code": 23,
    "city": "犬山市",
    "city_kana": "イヌヤマシ",
    "town": "野田",
    "town_kana": "ノダ",
    "street": null,
    "office_name": null,
    "office_name_kana": null
  },
  "0864": {
    "postcode": "4840864",
    "prefecture": "愛知県",
    "prefecture_kana": "アイチケン",
    "prefecture_code": 23,
    "city": "犬山市",
    "city_kana": "イヌヤマシ",
    "town": "番前",
    "town_kana": "バンマエ",
    "street": null,
    "office_name": null,
    "office_name_kana": null
  },
  "0865": {
    "postcode": "4840865",
    "prefecture": "愛知県",
    "prefecture_kana": "アイチケン",
    "prefecture_code": 23,
    "city": "犬山市",
    "city_kana": "イヌヤマシ",
    "town": "藪畔",
    "town_kana": "ヤブグロ",
    "street": null,
    "office_name": null,
    "office_name_kana": null
  },
  "0866": {
    "postcode": "4840866",
    "prefecture": "愛知県",
    "prefecture_kana": "アイチケン",
    "prefecture_code": 23,
    "city": "犬山市",
    "city_kana": "イヌヤマシ",
    "town": "寺西",
    "town_kana": "テラニシ",
    "street": null,
    "office_name": null,
    "office_name_kana": null
  },
  "0867": {
    "postcode": "4840867",
    "prefecture": "愛知県",
    "prefecture_kana": "アイチケン",
    "prefecture_code": 23,
    "city": "犬山市",
    "city_kana": "イヌヤマシ",
    "town": "九左エ門廻り",
    "town_kana": "クザエモンマワリ",
    "street": null,
    "office_name": null,
    "office_name_kana": null
  },
  "0868": {
    "postcode": "4840868",
    "prefecture": "愛知県",
    "prefecture_kana": "アイチケン",
    "prefecture_code": 23,
    "city": "犬山市",
    "city_kana": "イヌヤマシ",
    "town": "東北野",
    "town_kana": "ヒガシキタノ",
    "street": null,
    "office_name": null,
    "office_name_kana": null
  },
  "0869": {
    "postcode": "4840869",
    "prefecture": "愛知県",
    "prefecture_kana": "アイチケン",
    "prefecture_code": 23,
    "city": "犬山市",
    "city_kana": "イヌヤマシ",
    "town": "惣作",
    "town_kana": "ソウサク",
    "street": null,
    "office_name": null,
    "office_name_kana": null
  },
  "0871": {
    "postcode": "4840871",
    "prefecture": "愛知県",
    "prefecture_kana": "アイチケン",
    "prefecture_code": 23,
    "city": "犬山市",
    "city_kana": "イヌヤマシ",
    "town": "前並",
    "town_kana": "マエナミ",
    "street": null,
    "office_name": null,
    "office_name_kana": null
  },
  "0872": {
    "postcode": "4840872",
    "prefecture": "愛知県",
    "prefecture_kana": "アイチケン",
    "prefecture_code": 23,
    "city": "犬山市",
    "city_kana": "イヌヤマシ",
    "town": "岩田",
    "town_kana": "イワタ",
    "street": null,
    "office_name": null,
    "office_name_kana": null
  },
  "0873": {
    "postcode": "4840873",
    "prefecture": "愛知県",
    "prefecture_kana": "アイチケン",
    "prefecture_code": 23,
    "city": "犬山市",
    "city_kana": "イヌヤマシ",
    "town": "天王前",
    "town_kana": "テンオウマエ",
    "street": null,
    "office_name": null,
    "office_name_kana": null
  },
  "0874": {
    "postcode": "4840874",
    "prefecture": "愛知県",
    "prefecture_kana": "アイチケン",
    "prefecture_code": 23,
    "city": "犬山市",
    "city_kana": "イヌヤマシ",
    "town": "楽田今村",
    "town_kana": "ガクデンイマムラ",
    "street": null,
    "office_name": null,
    "office_name_kana": null
  },
  "0875": {
    "postcode": "4840875",
    "prefecture": "愛知県",
    "prefecture_kana": "アイチケン",
    "prefecture_code": 23,
    "city": "犬山市",
    "city_kana": "イヌヤマシ",
    "town": "林吾塚",
    "town_kana": "リンゴヅカ",
    "street": null,
    "office_name": null,
    "office_name_kana": null
  },
  "0876": {
    "postcode": "4840876",
    "prefecture": "愛知県",
    "prefecture_kana": "アイチケン",
    "prefecture_code": 23,
    "city": "犬山市",
    "city_kana": "イヌヤマシ",
    "town": "山神",
    "town_kana": "ヤマガミ",
    "street": null,
    "office_name": null,
    "office_name_kana": null
  },
  "0877": {
    "postcode": "4840877",
    "prefecture": "愛知県",
    "prefecture_kana": "アイチケン",
    "prefecture_code": 23,
    "city": "犬山市",
    "city_kana": "イヌヤマシ",
    "town": "楽田東追分",
    "town_kana": "ガクデンヒガシオイワケ",
    "street": null,
    "office_name": null,
    "office_name_kana": null
  },
  "0878": {
    "postcode": "4840878",
    "prefecture": "愛知県",
    "prefecture_kana": "アイチケン",
    "prefecture_code": 23,
    "city": "犬山市",
    "city_kana": "イヌヤマシ",
    "town": "栗林",
    "town_kana": "クリバヤシ",
    "street": null,
    "office_name": null,
    "office_name_kana": null
  },
  "0879": {
    "postcode": "4840879",
    "prefecture": "愛知県",
    "prefecture_kana": "アイチケン",
    "prefecture_code": 23,
    "city": "犬山市",
    "city_kana": "イヌヤマシ",
    "town": "楽田三ツ塚",
    "town_kana": "ガクデンミツヅカ",
    "street": null,
    "office_name": null,
    "office_name_kana": null
  },
  "0881": {
    "postcode": "4840881",
    "prefecture": "愛知県",
    "prefecture_kana": "アイチケン",
    "prefecture_code": 23,
    "city": "犬山市",
    "city_kana": "イヌヤマシ",
    "town": "羽黒成海西",
    "town_kana": "ハグロナルミニシ",
    "street": null,
    "office_name": null,
    "office_name_kana": null
  },
  "0882": {
    "postcode": "4840882",
    "prefecture": "愛知県",
    "prefecture_kana": "アイチケン",
    "prefecture_code": 23,
    "city": "犬山市",
    "city_kana": "イヌヤマシ",
    "town": "羽黒菊川",
    "town_kana": "ハグロキクカワ",
    "street": null,
    "office_name": null,
    "office_name_kana": null
  },
  "0883": {
    "postcode": "4840883",
    "prefecture": "愛知県",
    "prefecture_kana": "アイチケン",
    "prefecture_code": 23,
    "city": "犬山市",
    "city_kana": "イヌヤマシ",
    "town": "羽黒成海南",
    "town_kana": "ハグロナルミミナミ",
    "street": null,
    "office_name": null,
    "office_name_kana": null
  },
  "0884": {
    "postcode": "4840884",
    "prefecture": "愛知県",
    "prefecture_kana": "アイチケン",
    "prefecture_code": 23,
    "city": "犬山市",
    "city_kana": "イヌヤマシ",
    "town": "羽黒起",
    "town_kana": "ハグロオコシ",
    "street": null,
    "office_name": null,
    "office_name_kana": null
  },
  "0885": {
    "postcode": "4840885",
    "prefecture": "愛知県",
    "prefecture_kana": "アイチケン",
    "prefecture_code": 23,
    "city": "犬山市",
    "city_kana": "イヌヤマシ",
    "town": "楽田原西",
    "town_kana": "ガクデンハラニシ",
    "street": null,
    "office_name": null,
    "office_name_kana": null
  },
  "0886": {
    "postcode": "4840886",
    "prefecture": "愛知県",
    "prefecture_kana": "アイチケン",
    "prefecture_code": 23,
    "city": "犬山市",
    "city_kana": "イヌヤマシ",
    "town": "宮浦",
    "town_kana": "ミヤウラ",
    "street": null,
    "office_name": null,
    "office_name_kana": null
  },
  "0887": {
    "postcode": "4840887",
    "prefecture": "愛知県",
    "prefecture_kana": "アイチケン",
    "prefecture_code": 23,
    "city": "犬山市",
    "city_kana": "イヌヤマシ",
    "town": "池田",
    "town_kana": "イケダ",
    "street": null,
    "office_name": null,
    "office_name_kana": null
  },
  "0888": {
    "postcode": "4840888",
    "prefecture": "愛知県",
    "prefecture_kana": "アイチケン",
    "prefecture_code": 23,
    "city": "犬山市",
    "city_kana": "イヌヤマシ",
    "town": "羽黒新田",
    "town_kana": "ハグロシンデン",
    "street": null,
    "office_name": null,
    "office_name_kana": null
  },
  "0889": {
    "postcode": "4840889",
    "prefecture": "愛知県",
    "prefecture_kana": "アイチケン",
    "prefecture_code": 23,
    "city": "犬山市",
    "city_kana": "イヌヤマシ",
    "town": "羽黒高橋",
    "town_kana": "ハグロタカハシ",
    "street": null,
    "office_name": null,
    "office_name_kana": null
  },
  "0891": {
    "postcode": "4840891",
    "prefecture": "愛知県",
    "prefecture_kana": "アイチケン",
    "prefecture_code": 23,
    "city": "犬山市",
    "city_kana": "イヌヤマシ",
    "town": "羽黒恩田島",
    "town_kana": "ハグロオンダシマ",
    "street": null,
    "office_name": null,
    "office_name_kana": null
  },
  "0892": {
    "postcode": "4840892",
    "prefecture": "愛知県",
    "prefecture_kana": "アイチケン",
    "prefecture_code": 23,
    "city": "犬山市",
    "city_kana": "イヌヤマシ",
    "town": "羽黒惣境",
    "town_kana": "ハグロソウサカイ",
    "street": null,
    "office_name": null,
    "office_name_kana": null
  },
  "0893": {
    "postcode": "4840893",
    "prefecture": "愛知県",
    "prefecture_kana": "アイチケン",
    "prefecture_code": 23,
    "city": "犬山市",
    "city_kana": "イヌヤマシ",
    "town": "羽黒栄",
    "town_kana": "ハグロサカエ",
    "street": null,
    "office_name": null,
    "office_name_kana": null
  },
  "0894": {
    "postcode": "4840894",
    "prefecture": "愛知県",
    "prefecture_kana": "アイチケン",
    "prefecture_code": 23,
    "city": "犬山市",
    "city_kana": "イヌヤマシ",
    "town": "羽黒",
    "town_kana": "ハグロ",
    "street": null,
    "office_name": null,
    "office_name_kana": null
  },
  "0895": {
    "postcode": "4840895",
    "prefecture": "愛知県",
    "prefecture_kana": "アイチケン",
    "prefecture_code": 23,
    "city": "犬山市",
    "city_kana": "イヌヤマシ",
    "town": "羽黒摺墨",
    "town_kana": "ハグロスルスミ",
    "street": null,
    "office_name": null,
    "office_name_kana": null
  },
  "0896": {
    "postcode": "4840896",
    "prefecture": "愛知県",
    "prefecture_kana": "アイチケン",
    "prefecture_code": 23,
    "city": "犬山市",
    "city_kana": "イヌヤマシ",
    "town": "羽黒余町",
    "town_kana": "ハグロヨマチ",
    "street": null,
    "office_name": null,
    "office_name_kana": null
  },
  "0897": {
    "postcode": "4840897",
    "prefecture": "愛知県",
    "prefecture_kana": "アイチケン",
    "prefecture_code": 23,
    "city": "犬山市",
    "city_kana": "イヌヤマシ",
    "town": "羽黒堂前",
    "town_kana": "ハグロドウマエ",
    "street": null,
    "office_name": null,
    "office_name_kana": null
  },
  "0898": {
    "postcode": "4840898",
    "prefecture": "愛知県",
    "prefecture_kana": "アイチケン",
    "prefecture_code": 23,
    "city": "犬山市",
    "city_kana": "イヌヤマシ",
    "town": "羽黒稲葉西",
    "town_kana": "ハグロイナバニシ",
    "street": null,
    "office_name": null,
    "office_name_kana": null
  },
  "0899": {
    "postcode": "4840899",
    "prefecture": "愛知県",
    "prefecture_kana": "アイチケン",
    "prefecture_code": 23,
    "city": "犬山市",
    "city_kana": "イヌヤマシ",
    "town": "羽黒稲葉東",
    "town_kana": "ハグロイナバヒガシ",
    "street": null,
    "office_name": null,
    "office_name_kana": null
  },
  "0901": {
    "postcode": "4840901",
    "prefecture": "愛知県",
    "prefecture_kana": "アイチケン",
    "prefecture_code": 23,
    "city": "犬山市",
    "city_kana": "イヌヤマシ",
    "town": "柿畑",
    "town_kana": "カキバタ",
    "street": null,
    "office_name": null,
    "office_name_kana": null
  },
  "0902": {
    "postcode": "4840902",
    "prefecture": "愛知県",
    "prefecture_kana": "アイチケン",
    "prefecture_code": 23,
    "city": "犬山市",
    "city_kana": "イヌヤマシ",
    "town": "追分",
    "town_kana": "オイワケ",
    "street": null,
    "office_name": null,
    "office_name_kana": null
  },
  "0903": {
    "postcode": "4840903",
    "prefecture": "愛知県",
    "prefecture_kana": "アイチケン",
    "prefecture_code": 23,
    "city": "犬山市",
    "city_kana": "イヌヤマシ",
    "town": "追分東",
    "town_kana": "オイワケヒガシ",
    "street": null,
    "office_name": null,
    "office_name_kana": null
  },
  "0904": {
    "postcode": "4840904",
    "prefecture": "愛知県",
    "prefecture_kana": "アイチケン",
    "prefecture_code": 23,
    "city": "犬山市",
    "city_kana": "イヌヤマシ",
    "town": "楽田勝部前",
    "town_kana": "ガクデンカチベマエ",
    "street": null,
    "office_name": null,
    "office_name_kana": null
  },
  "0905": {
    "postcode": "4840905",
    "prefecture": "愛知県",
    "prefecture_kana": "アイチケン",
    "prefecture_code": 23,
    "city": "犬山市",
    "city_kana": "イヌヤマシ",
    "town": "西北野",
    "town_kana": "ニシキタノ",
    "street": null,
    "office_name": null,
    "office_name_kana": null
  },
  "0906": {
    "postcode": "4840906",
    "prefecture": "愛知県",
    "prefecture_kana": "アイチケン",
    "prefecture_code": 23,
    "city": "犬山市",
    "city_kana": "イヌヤマシ",
    "town": "焼野",
    "town_kana": "ヤケノ",
    "street": null,
    "office_name": null,
    "office_name_kana": null
  },
  "0907": {
    "postcode": "4840907",
    "prefecture": "愛知県",
    "prefecture_kana": "アイチケン",
    "prefecture_code": 23,
    "city": "犬山市",
    "city_kana": "イヌヤマシ",
    "town": "楽田地蔵池",
    "town_kana": "ガクデンジゾウイケ",
    "street": null,
    "office_name": null,
    "office_name_kana": null
  },
  "0908": {
    "postcode": "4840908",
    "prefecture": "愛知県",
    "prefecture_kana": "アイチケン",
    "prefecture_code": 23,
    "city": "犬山市",
    "city_kana": "イヌヤマシ",
    "town": "大上戸",
    "town_kana": "ダイジョウド",
    "street": null,
    "office_name": null,
    "office_name_kana": null
  },
  "0911": {
    "postcode": "4840911",
    "prefecture": "愛知県",
    "prefecture_kana": "アイチケン",
    "prefecture_code": 23,
    "city": "犬山市",
    "city_kana": "イヌヤマシ",
    "town": "北之門",
    "town_kana": "キタノモン",
    "street": null,
    "office_name": null,
    "office_name_kana": null
  },
  "0912": {
    "postcode": "4840912",
    "prefecture": "愛知県",
    "prefecture_kana": "アイチケン",
    "prefecture_code": 23,
    "city": "犬山市",
    "city_kana": "イヌヤマシ",
    "town": "舟田",
    "town_kana": "フナダ",
    "street": null,
    "office_name": null,
    "office_name_kana": null
  },
  "0913": {
    "postcode": "4840913",
    "prefecture": "愛知県",
    "prefecture_kana": "アイチケン",
    "prefecture_code": 23,
    "city": "犬山市",
    "city_kana": "イヌヤマシ",
    "town": "鳥屋越",
    "town_kana": "トリヤコシ",
    "street": null,
    "office_name": null,
    "office_name_kana": null
  },
  "0914": {
    "postcode": "4840914",
    "prefecture": "愛知県",
    "prefecture_kana": "アイチケン",
    "prefecture_code": 23,
    "city": "犬山市",
    "city_kana": "イヌヤマシ",
    "town": "観音浦",
    "town_kana": "カンノンウラ",
    "street": null,
    "office_name": null,
    "office_name_kana": null
  },
  "0915": {
    "postcode": "4840915",
    "prefecture": "愛知県",
    "prefecture_kana": "アイチケン",
    "prefecture_code": 23,
    "city": "犬山市",
    "city_kana": "イヌヤマシ",
    "town": "楽田上沼",
    "town_kana": "ガクデンカミヌマ",
    "street": null,
    "office_name": null,
    "office_name_kana": null
  },
  "0916": {
    "postcode": "4840916",
    "prefecture": "愛知県",
    "prefecture_kana": "アイチケン",
    "prefecture_code": 23,
    "city": "犬山市",
    "city_kana": "イヌヤマシ",
    "town": "楽田西浦",
    "town_kana": "ガクデンニシウラ",
    "street": null,
    "office_name": null,
    "office_name_kana": null
  },
  "0917": {
    "postcode": "4840917",
    "prefecture": "愛知県",
    "prefecture_kana": "アイチケン",
    "prefecture_code": 23,
    "city": "犬山市",
    "city_kana": "イヌヤマシ",
    "town": "土取",
    "town_kana": "ツチトリ",
    "street": null,
    "office_name": null,
    "office_name_kana": null
  },
  "0918": {
    "postcode": "4840918",
    "prefecture": "愛知県",
    "prefecture_kana": "アイチケン",
    "prefecture_code": 23,
    "city": "犬山市",
    "city_kana": "イヌヤマシ",
    "town": "ニタ田",
    "town_kana": "ニタンダ",
    "street": null,
    "office_name": null,
    "office_name_kana": null
  },
  "0919": {
    "postcode": "4840919",
    "prefecture": "愛知県",
    "prefecture_kana": "アイチケン",
    "prefecture_code": 23,
    "city": "犬山市",
    "city_kana": "イヌヤマシ",
    "town": "中道",
    "town_kana": "ナカミチ",
    "street": null,
    "office_name": null,
    "office_name_kana": null
  },
  "0921": {
    "postcode": "4840921",
    "prefecture": "愛知県",
    "prefecture_kana": "アイチケン",
    "prefecture_code": 23,
    "city": "犬山市",
    "city_kana": "イヌヤマシ",
    "town": "味加田",
    "town_kana": "アジカタ",
    "street": null,
    "office_name": null,
    "office_name_kana": null
  },
  "0922": {
    "postcode": "4840922",
    "prefecture": "愛知県",
    "prefecture_kana": "アイチケン",
    "prefecture_code": 23,
    "city": "犬山市",
    "city_kana": "イヌヤマシ",
    "town": "北大橋",
    "town_kana": "キタオオハシ",
    "street": null,
    "office_name": null,
    "office_name_kana": null
  },
  "0923": {
    "postcode": "4840923",
    "prefecture": "愛知県",
    "prefecture_kana": "アイチケン",
    "prefecture_code": 23,
    "city": "犬山市",
    "city_kana": "イヌヤマシ",
    "town": "下沼",
    "town_kana": "シモヌマ",
    "street": null,
    "office_name": null,
    "office_name_kana": null
  },
  "0924": {
    "postcode": "4840924",
    "prefecture": "愛知県",
    "prefecture_kana": "アイチケン",
    "prefecture_code": 23,
    "city": "犬山市",
    "city_kana": "イヌヤマシ",
    "town": "楽田大橋",
    "town_kana": "ガクデンオオハシ",
    "street": null,
    "office_name": null,
    "office_name_kana": null
  },
  "0925": {
    "postcode": "4840925",
    "prefecture": "愛知県",
    "prefecture_kana": "アイチケン",
    "prefecture_code": 23,
    "city": "犬山市",
    "city_kana": "イヌヤマシ",
    "town": "楽田西野",
    "town_kana": "ガクデンニシノ",
    "street": null,
    "office_name": null,
    "office_name_kana": null
  },
  "0926": {
    "postcode": "4840926",
    "prefecture": "愛知県",
    "prefecture_kana": "アイチケン",
    "prefecture_code": 23,
    "city": "犬山市",
    "city_kana": "イヌヤマシ",
    "town": "楽田一色浦",
    "town_kana": "ガクデンイシキウラ",
    "street": null,
    "office_name": null,
    "office_name_kana": null
  },
  "0927": {
    "postcode": "4840927",
    "prefecture": "愛知県",
    "prefecture_kana": "アイチケン",
    "prefecture_code": 23,
    "city": "犬山市",
    "city_kana": "イヌヤマシ",
    "town": "的場",
    "town_kana": "マトバ",
    "street": null,
    "office_name": null,
    "office_name_kana": null
  },
  "0928": {
    "postcode": "4840928",
    "prefecture": "愛知県",
    "prefecture_kana": "アイチケン",
    "prefecture_code": 23,
    "city": "犬山市",
    "city_kana": "イヌヤマシ",
    "town": "七ツ屋",
    "town_kana": "ナナツヤ",
    "street": null,
    "office_name": null,
    "office_name_kana": null
  },
  "0931": {
    "postcode": "4840931",
    "prefecture": "愛知県",
    "prefecture_kana": "アイチケン",
    "prefecture_code": 23,
    "city": "犬山市",
    "city_kana": "イヌヤマシ",
    "town": "南大橋",
    "town_kana": "ミナミオオハシ",
    "street": null,
    "office_name": null,
    "office_name_kana": null
  },
  "0932": {
    "postcode": "4840932",
    "prefecture": "愛知県",
    "prefecture_kana": "アイチケン",
    "prefecture_code": 23,
    "city": "犬山市",
    "city_kana": "イヌヤマシ",
    "town": "西野",
    "town_kana": "ニシノ",
    "street": null,
    "office_name": null,
    "office_name_kana": null
  },
  "0933": {
    "postcode": "4840933",
    "prefecture": "愛知県",
    "prefecture_kana": "アイチケン",
    "prefecture_code": 23,
    "city": "犬山市",
    "city_kana": "イヌヤマシ",
    "town": "東唐曽",
    "town_kana": "ヒガシガラソ",
    "street": null,
    "office_name": null,
    "office_name_kana": null
  },
  "0934": {
    "postcode": "4840934",
    "prefecture": "愛知県",
    "prefecture_kana": "アイチケン",
    "prefecture_code": 23,
    "city": "犬山市",
    "city_kana": "イヌヤマシ",
    "town": "中唐曽",
    "town_kana": "ナカガラソ",
    "street": null,
    "office_name": null,
    "office_name_kana": null
  },
  "0935": {
    "postcode": "4840935",
    "prefecture": "愛知県",
    "prefecture_kana": "アイチケン",
    "prefecture_code": 23,
    "city": "犬山市",
    "city_kana": "イヌヤマシ",
    "town": "西唐曽",
    "town_kana": "ニシガラソ",
    "street": null,
    "office_name": null,
    "office_name_kana": null
  },
  "0936": {
    "postcode": "4840936",
    "prefecture": "愛知県",
    "prefecture_kana": "アイチケン",
    "prefecture_code": 23,
    "city": "犬山市",
    "city_kana": "イヌヤマシ",
    "town": "楽田青塚",
    "town_kana": "ガクデンアオツカ",
    "street": null,
    "office_name": null,
    "office_name_kana": null
  },
  "0937": {
    "postcode": "4840937",
    "prefecture": "愛知県",
    "prefecture_kana": "アイチケン",
    "prefecture_code": 23,
    "city": "犬山市",
    "city_kana": "イヌヤマシ",
    "town": "宮東",
    "town_kana": "ミヤヒガシ",
    "street": null,
    "office_name": null,
    "office_name_kana": null
  },
  "0941": {
    "postcode": "4840941",
    "prefecture": "愛知県",
    "prefecture_kana": "アイチケン",
    "prefecture_code": 23,
    "city": "犬山市",
    "city_kana": "イヌヤマシ",
    "town": "巾廻り",
    "town_kana": "ハバマワリ",
    "street": null,
    "office_name": null,
    "office_name_kana": null
  },
  "0942": {
    "postcode": "4840942",
    "prefecture": "愛知県",
    "prefecture_kana": "アイチケン",
    "prefecture_code": 23,
    "city": "犬山市",
    "city_kana": "イヌヤマシ",
    "town": "楽田巾",
    "town_kana": "ガクデンハバ",
    "street": null,
    "office_name": null,
    "office_name_kana": null
  },
  "0943": {
    "postcode": "4840943",
    "prefecture": "愛知県",
    "prefecture_kana": "アイチケン",
    "prefecture_code": 23,
    "city": "犬山市",
    "city_kana": "イヌヤマシ",
    "town": "巾前",
    "town_kana": "ハバマエ",
    "street": null,
    "office_name": null,
    "office_name_kana": null
  },
  "0944": {
    "postcode": "4840944",
    "prefecture": "愛知県",
    "prefecture_kana": "アイチケン",
    "prefecture_code": 23,
    "city": "犬山市",
    "city_kana": "イヌヤマシ",
    "town": "楽田安師",
    "town_kana": "ガクデンアンシ",
    "street": null,
    "office_name": null,
    "office_name_kana": null
  },
  "0945": {
    "postcode": "4840945",
    "prefecture": "愛知県",
    "prefecture_kana": "アイチケン",
    "prefecture_code": 23,
    "city": "犬山市",
    "city_kana": "イヌヤマシ",
    "town": "青塚",
    "town_kana": "アオツカ",
    "street": null,
    "office_name": null,
    "office_name_kana": null
  },
  "0946": {
    "postcode": "4840946",
    "prefecture": "愛知県",
    "prefecture_kana": "アイチケン",
    "prefecture_code": 23,
    "city": "犬山市",
    "city_kana": "イヌヤマシ",
    "town": "東大円",
    "town_kana": "ヒガシダイエン",
    "street": null,
    "office_name": null,
    "office_name_kana": null
  },
  "0947": {
    "postcode": "4840947",
    "prefecture": "愛知県",
    "prefecture_kana": "アイチケン",
    "prefecture_code": 23,
    "city": "犬山市",
    "city_kana": "イヌヤマシ",
    "town": "楽田大円",
    "town_kana": "ガクデンダイエン",
    "street": null,
    "office_name": null,
    "office_name_kana": null
  },
  "0948": {
    "postcode": "4840948",
    "prefecture": "愛知県",
    "prefecture_kana": "アイチケン",
    "prefecture_code": 23,
    "city": "犬山市",
    "city_kana": "イヌヤマシ",
    "town": "西大円",
    "town_kana": "ニシダイエン",
    "street": null,
    "office_name": null,
    "office_name_kana": null
  },
  "0951": {
    "postcode": "4840951",
    "prefecture": "愛知県",
    "prefecture_kana": "アイチケン",
    "prefecture_code": 23,
    "city": "犬山市",
    "city_kana": "イヌヤマシ",
    "town": "八反田",
    "town_kana": "ハッタンダ",
    "street": null,
    "office_name": null,
    "office_name_kana": null
  },
  "0952": {
    "postcode": "4840952",
    "prefecture": "愛知県",
    "prefecture_kana": "アイチケン",
    "prefecture_code": 23,
    "city": "犬山市",
    "city_kana": "イヌヤマシ",
    "town": "上舞台",
    "town_kana": "カミブタイ",
    "street": null,
    "office_name": null,
    "office_name_kana": null
  },
  "0953": {
    "postcode": "4840953",
    "prefecture": "愛知県",
    "prefecture_kana": "アイチケン",
    "prefecture_code": 23,
    "city": "犬山市",
    "city_kana": "イヌヤマシ",
    "town": "下舞台",
    "town_kana": "シモブタイ",
    "street": null,
    "office_name": null,
    "office_name_kana": null
  },
  "0954": {
    "postcode": "4840954",
    "prefecture": "愛知県",
    "prefecture_kana": "アイチケン",
    "prefecture_code": 23,
    "city": "犬山市",
    "city_kana": "イヌヤマシ",
    "town": "元散前",
    "town_kana": "モトサンマエ",
    "street": null,
    "office_name": null,
    "office_name_kana": null
  },
  "0955": {
    "postcode": "4840955",
    "prefecture": "愛知県",
    "prefecture_kana": "アイチケン",
    "prefecture_code": 23,
    "city": "犬山市",
    "city_kana": "イヌヤマシ",
    "town": "角池",
    "town_kana": "カクイケ",
    "street": null,
    "office_name": null,
    "office_name_kana": null
  },
  "0956": {
    "postcode": "4840956",
    "prefecture": "愛知県",
    "prefecture_kana": "アイチケン",
    "prefecture_code": 23,
    "city": "犬山市",
    "city_kana": "イヌヤマシ",
    "town": "新川",
    "town_kana": "シンカワ",
    "street": null,
    "office_name": null,
    "office_name_kana": null
  },
  "0957": {
    "postcode": "4840957",
    "prefecture": "愛知県",
    "prefecture_kana": "アイチケン",
    "prefecture_code": 23,
    "city": "犬山市",
    "city_kana": "イヌヤマシ",
    "town": "五反田",
    "town_kana": "ゴタンダ",
    "street": null,
    "office_name": null,
    "office_name_kana": null
  },
  "0958": {
    "postcode": "4840958",
    "prefecture": "愛知県",
    "prefecture_kana": "アイチケン",
    "prefecture_code": 23,
    "city": "犬山市",
    "city_kana": "イヌヤマシ",
    "town": "平塚",
    "town_kana": "ヒラツカ",
    "street": null,
    "office_name": null,
    "office_name_kana": null
  },
  "0959": {
    "postcode": "4840959",
    "prefecture": "愛知県",
    "prefecture_kana": "アイチケン",
    "prefecture_code": 23,
    "city": "犬山市",
    "city_kana": "イヌヤマシ",
    "town": "北平塚",
    "town_kana": "キタヒラツカ",
    "street": null,
    "office_name": null,
    "office_name_kana": null
  },
  "0961": {
    "postcode": "4840961",
    "prefecture": "愛知県",
    "prefecture_kana": "アイチケン",
    "prefecture_code": 23,
    "city": "犬山市",
    "city_kana": "イヌヤマシ",
    "town": "太吉屋敷",
    "town_kana": "タキチヤシキ",
    "street": null,
    "office_name": null,
    "office_name_kana": null
  },
  "0962": {
    "postcode": "4840962",
    "prefecture": "愛知県",
    "prefecture_kana": "アイチケン",
    "prefecture_code": 23,
    "city": "犬山市",
    "city_kana": "イヌヤマシ",
    "town": "落添",
    "town_kana": "オチゾエ",
    "street": null,
    "office_name": null,
    "office_name_kana": null
  },
  "0963": {
    "postcode": "4840963",
    "prefecture": "愛知県",
    "prefecture_kana": "アイチケン",
    "prefecture_code": 23,
    "city": "犬山市",
    "city_kana": "イヌヤマシ",
    "town": "楽田鶴池",
    "town_kana": "ガクデンツルイケ",
    "street": null,
    "office_name": null,
    "office_name_kana": null
  },
  "0964": {
    "postcode": "4840964",
    "prefecture": "愛知県",
    "prefecture_kana": "アイチケン",
    "prefecture_code": 23,
    "city": "犬山市",
    "city_kana": "イヌヤマシ",
    "town": "上榎島",
    "town_kana": "カミエノキジマ",
    "street": null,
    "office_name": null,
    "office_name_kana": null
  },
  "0965": {
    "postcode": "4840965",
    "prefecture": "愛知県",
    "prefecture_kana": "アイチケン",
    "prefecture_code": 23,
    "city": "犬山市",
    "city_kana": "イヌヤマシ",
    "town": "下榎島",
    "town_kana": "シモエノキジマ",
    "street": null,
    "office_name": null,
    "office_name_kana": null
  },
  "0966": {
    "postcode": "4840966",
    "prefecture": "愛知県",
    "prefecture_kana": "アイチケン",
    "prefecture_code": 23,
    "city": "犬山市",
    "city_kana": "イヌヤマシ",
    "town": "五郎丸二タ俣",
    "town_kana": "ゴロウマルフタマタ",
    "street": null,
    "office_name": null,
    "office_name_kana": null
  },
  "8501": {
    "postcode": "4848501",
    "prefecture": "愛知県",
    "prefecture_kana": "アイチケン",
    "prefecture_code": 23,
    "city": "犬山市",
    "city_kana": "イヌヤマシ",
    "town": "大字犬山",
    "town_kana": null,
    "street": "字東畑３６",
    "office_name": "犬山市役所",
    "office_name_kana": "イヌヤマシヤクシヨ"
  },
  "8502": {
    "postcode": "4848502",
    "prefecture": "愛知県",
    "prefecture_kana": "アイチケン",
    "prefecture_code": 23,
    "city": "犬山市",
    "city_kana": "イヌヤマシ",
    "town": "大字橋爪",
    "town_kana": null,
    "street": "字中島２",
    "office_name": "村田機械　株式会社　犬山工場",
    "office_name_kana": "ムラタキカイ カブシキガイシヤ イヌヤマコウジヨウ"
  },
  "8503": {
    "postcode": "4848503",
    "prefecture": "愛知県",
    "prefecture_kana": "アイチケン",
    "prefecture_code": 23,
    "city": "犬山市",
    "city_kana": "イヌヤマシ",
    "town": "字内久保",
    "town_kana": null,
    "street": "６１−１",
    "office_name": "名古屋経済大学　短期大学部",
    "office_name_kana": "ナゴヤケイザイダイガク タンキダイガクブ"
  },
  "8504": {
    "postcode": "4848504",
    "prefecture": "愛知県",
    "prefecture_kana": "アイチケン",
    "prefecture_code": 23,
    "city": "犬山市",
    "city_kana": "イヌヤマシ",
    "town": "字内久保",
    "town_kana": null,
    "street": "６１−１",
    "office_name": "名古屋経済大学",
    "office_name_kana": "ナゴヤケイザイダイガク"
  },
  "8505": {
    "postcode": "4848505",
    "prefecture": "愛知県",
    "prefecture_kana": "アイチケン",
    "prefecture_code": 23,
    "city": "犬山市",
    "city_kana": "イヌヤマシ",
    "town": "字上小針",
    "town_kana": null,
    "street": "１",
    "office_name": "エナジーサポート　株式会社",
    "office_name_kana": "エナジ-サポ-ト カブシキガイシヤ"
  },
  "8506": {
    "postcode": "4848506",
    "prefecture": "愛知県",
    "prefecture_kana": "アイチケン",
    "prefecture_code": 23,
    "city": "犬山市",
    "city_kana": "イヌヤマシ",
    "town": "大字犬山",
    "town_kana": null,
    "street": "字官林４１−２",
    "office_name": "京都大学　ヒト行動進化研究センター",
    "office_name_kana": "キヨウトダイガク ヒトコウドウシンカケンキユウセンタ-"
  },
  "8507": {
    "postcode": "4848507",
    "prefecture": "愛知県",
    "prefecture_kana": "アイチケン",
    "prefecture_code": 23,
    "city": "犬山市",
    "city_kana": "イヌヤマシ",
    "town": "字柿畑",
    "town_kana": null,
    "street": "１",
    "office_name": "（株）　今仙電機製作所",
    "office_name_kana": "(カブ) イマセンデンキセイサクシヨ"
  },
  "8508": {
    "postcode": "4848508",
    "prefecture": "愛知県",
    "prefecture_kana": "アイチケン",
    "prefecture_code": 23,
    "city": "犬山市",
    "city_kana": "イヌヤマシ",
    "town": "大字木津",
    "town_kana": null,
    "street": "字前畑３４４",
    "office_name": "東洋紡　株式会社　犬山工場",
    "office_name_kana": "トウヨウボウ カブシキカイシヤ イヌヤマコウジヨウ"
  },
  "8510": {
    "postcode": "4848510",
    "prefecture": "愛知県",
    "prefecture_kana": "アイチケン",
    "prefecture_code": 23,
    "city": "犬山市",
    "city_kana": "イヌヤマシ",
    "town": "天神町",
    "town_kana": "テンジンチョウ",
    "street": "１丁目８",
    "office_name": "犬山商工会議所",
    "office_name_kana": "イヌヤマシヨウコウカイギシヨ"
  },
  "8511": {
    "postcode": "4848511",
    "prefecture": "愛知県",
    "prefecture_kana": "アイチケン",
    "prefecture_code": 23,
    "city": "犬山市",
    "city_kana": "イヌヤマシ",
    "town": "大字五郎丸",
    "town_kana": null,
    "street": "字二タ子塚６",
    "office_name": "医療法人社団　志聖会　犬山中央病院",
    "office_name_kana": "イリヨウホウジンシヤダン シセイカイ イヌヤマチユウオウビヨウイン"
  },
  "8512": {
    "postcode": "4848512",
    "prefecture": "愛知県",
    "prefecture_kana": "アイチケン",
    "prefecture_code": 23,
    "city": "犬山市",
    "city_kana": "イヌヤマシ",
    "town": "大字犬山",
    "town_kana": null,
    "street": "字北白山平５番地",
    "office_name": "成田山　大聖寺",
    "office_name_kana": "ナリタサン ダイシヨウジ"
  },
  "8609": {
    "postcode": "4848609",
    "prefecture": "愛知県",
    "prefecture_kana": "アイチケン",
    "prefecture_code": 23,
    "city": "犬山市",
    "city_kana": "イヌヤマシ",
    "town": "松本町",
    "town_kana": "マツモトチョウ",
    "street": "２丁目１０番地",
    "office_name": "犬山公共職業安定所",
    "office_name_kana": "イヌヤマコウキヨウシヨクギヨウアンテイシヨ"
  }
}