{
  "0001": {
    "postcode": "4870001",
    "prefecture": "愛知県",
    "prefecture_kana": "アイチケン",
    "prefecture_code": 23,
    "city": "春日井市",
    "city_kana": "カスガイシ",
    "town": "細野町",
    "town_kana": "ホソノチョウ",
    "street": null,
    "office_name": null,
    "office_name_kana": null
  },
  "0002": {
    "postcode": "4870002",
    "prefecture": "愛知県",
    "prefecture_kana": "アイチケン",
    "prefecture_code": 23,
    "city": "春日井市",
    "city_kana": "カスガイシ",
    "town": "外之原町",
    "town_kana": "トノハラチョウ",
    "street": null,
    "office_name": null,
    "office_name_kana": null
  },
  "0003": {
    "postcode": "4870003",
    "prefecture": "愛知県",
    "prefecture_kana": "アイチケン",
    "prefecture_code": 23,
    "city": "春日井市",
    "city_kana": "カスガイシ",
    "town": "木附町",
    "town_kana": "キヅキチョウ",
    "street": null,
    "office_name": null,
    "office_name_kana": null
  },
  "0004": {
    "postcode": "4870004",
    "prefecture": "愛知県",
    "prefecture_kana": "アイチケン",
    "prefecture_code": 23,
    "city": "春日井市",
    "city_kana": "カスガイシ",
    "town": "玉野町",
    "town_kana": "タマノチョウ",
    "street": null,
    "office_name": null,
    "office_name_kana": null
  },
  "0005": {
    "postcode": "4870005",
    "prefecture": "愛知県",
    "prefecture_kana": "アイチケン",
    "prefecture_code": 23,
    "city": "春日井市",
    "city_kana": "カスガイシ",
    "town": "押沢台",
    "town_kana": "オシザワダイ",
    "street": null,
    "office_name": null,
    "office_name_kana": null
  },
  "0006": {
    "postcode": "4870006",
    "prefecture": "愛知県",
    "prefecture_kana": "アイチケン",
    "prefecture_code": 23,
    "city": "春日井市",
    "city_kana": "カスガイシ",
    "town": "石尾台",
    "town_kana": "イシオダイ",
    "street": null,
    "office_name": null,
    "office_name_kana": null
  },
  "0007": {
    "postcode": "4870007",
    "prefecture": "愛知県",
    "prefecture_kana": "アイチケン",
    "prefecture_code": 23,
    "city": "春日井市",
    "city_kana": "カスガイシ",
    "town": "玉野台",
    "town_kana": "タマノダイ",
    "street": null,
    "office_name": null,
    "office_name_kana": null
  },
  "0011": {
    "postcode": "4870011",
    "prefecture": "愛知県",
    "prefecture_kana": "アイチケン",
    "prefecture_code": 23,
    "city": "春日井市",
    "city_kana": "カスガイシ",
    "town": "中央台",
    "town_kana": "チュウオウダイ",
    "street": null,
    "office_name": null,
    "office_name_kana": null
  },
  "0012": {
    "postcode": "4870012",
    "prefecture": "愛知県",
    "prefecture_kana": "アイチケン",
    "prefecture_code": 23,
    "city": "春日井市",
    "city_kana": "カスガイシ",
    "town": "高座町",
    "town_kana": "タカクラチョウ",
    "street": null,
    "office_name": null,
    "office_name_kana": null
  },
  "0013": {
    "postcode": "4870013",
    "prefecture": "愛知県",
    "prefecture_kana": "アイチケン",
    "prefecture_code": 23,
    "city": "春日井市",
    "city_kana": "カスガイシ",
    "town": "高蔵寺町",
    "town_kana": "コウゾウジチョウ",
    "street": null,
    "office_name": null,
    "office_name_kana": null
  },
  "0014": {
    "postcode": "4870014",
    "prefecture": "愛知県",
    "prefecture_kana": "アイチケン",
    "prefecture_code": 23,
    "city": "春日井市",
    "city_kana": "カスガイシ",
    "town": "気噴町",
    "town_kana": "キブキチョウ",
    "street": null,
    "office_name": null,
    "office_name_kana": null
  },
  "0015": {
    "postcode": "4870015",
    "prefecture": "愛知県",
    "prefecture_kana": "アイチケン",
    "prefecture_code": 23,
    "city": "春日井市",
    "city_kana": "カスガイシ",
    "town": "気噴町北",
    "town_kana": "キブキチョウキタ",
    "street": null,
    "office_name": null,
    "office_name_kana": null
  },
  "0016": {
    "postcode": "4870016",
    "prefecture": "愛知県",
    "prefecture_kana": "アイチケン",
    "prefecture_code": 23,
    "city": "春日井市",
    "city_kana": "カスガイシ",
    "town": "高蔵寺町北",
    "town_kana": "コウゾウジチョウキタ",
    "street": null,
    "office_name": null,
    "office_name_kana": null
  },
  "0017": {
    "postcode": "4870017",
    "prefecture": "愛知県",
    "prefecture_kana": "アイチケン",
    "prefecture_code": 23,
    "city": "春日井市",
    "city_kana": "カスガイシ",
    "town": "高座台",
    "town_kana": "タカクラダイ",
    "street": null,
    "office_name": null,
    "office_name_kana": null
  },
  "0021": {
    "postcode": "4870021",
    "prefecture": "愛知県",
    "prefecture_kana": "アイチケン",
    "prefecture_code": 23,
    "city": "春日井市",
    "city_kana": "カスガイシ",
    "town": "東神明町",
    "town_kana": "ヒガシシンミョウチョウ",
    "street": null,
    "office_name": null,
    "office_name_kana": null
  },
  "0022": {
    "postcode": "4870022",
    "prefecture": "愛知県",
    "prefecture_kana": "アイチケン",
    "prefecture_code": 23,
    "city": "春日井市",
    "city_kana": "カスガイシ",
    "town": "庄名町",
    "town_kana": "ショウナチョウ",
    "street": null,
    "office_name": null,
    "office_name_kana": null
  },
  "0023": {
    "postcode": "4870023",
    "prefecture": "愛知県",
    "prefecture_kana": "アイチケン",
    "prefecture_code": 23,
    "city": "春日井市",
    "city_kana": "カスガイシ",
    "town": "不二ガ丘",
    "town_kana": "フジガオカ",
    "street": null,
    "office_name": null,
    "office_name_kana": null
  },
  "0024": {
    "postcode": "4870024",
    "prefecture": "愛知県",
    "prefecture_kana": "アイチケン",
    "prefecture_code": 23,
    "city": "春日井市",
    "city_kana": "カスガイシ",
    "town": "大留町",
    "town_kana": "オオドメチョウ",
    "street": null,
    "office_name": null,
    "office_name_kana": null
  },
  "0025": {
    "postcode": "4870025",
    "prefecture": "愛知県",
    "prefecture_kana": "アイチケン",
    "prefecture_code": 23,
    "city": "春日井市",
    "city_kana": "カスガイシ",
    "town": "出川町",
    "town_kana": "テガワチョウ",
    "street": null,
    "office_name": null,
    "office_name_kana": null
  },
  "0026": {
    "postcode": "4870026",
    "prefecture": "愛知県",
    "prefecture_kana": "アイチケン",
    "prefecture_code": 23,
    "city": "春日井市",
    "city_kana": "カスガイシ",
    "town": "不二町",
    "town_kana": "フジチョウ",
    "street": null,
    "office_name": null,
    "office_name_kana": null
  },
  "0027": {
    "postcode": "4870027",
    "prefecture": "愛知県",
    "prefecture_kana": "アイチケン",
    "prefecture_code": 23,
    "city": "春日井市",
    "city_kana": "カスガイシ",
    "town": "松本町",
    "town_kana": "マツモトチョウ",
    "street": null,
    "office_name": null,
    "office_name_kana": null
  },
  "0031": {
    "postcode": "4870031",
    "prefecture": "愛知県",
    "prefecture_kana": "アイチケン",
    "prefecture_code": 23,
    "city": "春日井市",
    "city_kana": "カスガイシ",
    "town": "廻間町",
    "town_kana": "ハザマチョウ",
    "street": null,
    "office_name": null,
    "office_name_kana": null
  },
  "0032": {
    "postcode": "4870032",
    "prefecture": "愛知県",
    "prefecture_kana": "アイチケン",
    "prefecture_code": 23,
    "city": "春日井市",
    "city_kana": "カスガイシ",
    "town": "高森台",
    "town_kana": "タカモリダイ",
    "street": null,
    "office_name": null,
    "office_name_kana": null
  },
  "0033": {
    "postcode": "4870033",
    "prefecture": "愛知県",
    "prefecture_kana": "アイチケン",
    "prefecture_code": 23,
    "city": "春日井市",
    "city_kana": "カスガイシ",
    "town": "岩成台",
    "town_kana": "イワナリダイ",
    "street": null,
    "office_name": null,
    "office_name_kana": null
  },
  "0034": {
    "postcode": "4870034",
    "prefecture": "愛知県",
    "prefecture_kana": "アイチケン",
    "prefecture_code": 23,
    "city": "春日井市",
    "city_kana": "カスガイシ",
    "town": "白山町",
    "town_kana": "シラヤマチョウ",
    "street": null,
    "office_name": null,
    "office_name_kana": null
  },
  "0035": {
    "postcode": "4870035",
    "prefecture": "愛知県",
    "prefecture_kana": "アイチケン",
    "prefecture_code": 23,
    "city": "春日井市",
    "city_kana": "カスガイシ",
    "town": "藤山台",
    "town_kana": "フジヤマダイ",
    "street": null,
    "office_name": null,
    "office_name_kana": null
  },
  "8501": {
    "postcode": "4878501",
    "prefecture": "愛知県",
    "prefecture_kana": "アイチケン",
    "prefecture_code": 23,
    "city": "春日井市",
    "city_kana": "カスガイシ",
    "town": "松本町",
    "town_kana": "マツモトチョウ",
    "street": "１２００",
    "office_name": "中部大学",
    "office_name_kana": "チユウブダイガク"
  },
  "8622": {
    "postcode": "4878622",
    "prefecture": "愛知県",
    "prefecture_kana": "アイチケン",
    "prefecture_code": 23,
    "city": "春日井市",
    "city_kana": "カスガイシ",
    "town": "高森台",
    "town_kana": "タカモリダイ",
    "street": "４丁目１１−１",
    "office_name": "株式会社　キクチメガネ",
    "office_name_kana": "カブシキガイシヤ キクチメガネ"
  },
  "8650": {
    "postcode": "4878650",
    "prefecture": "愛知県",
    "prefecture_kana": "アイチケン",
    "prefecture_code": 23,
    "city": "春日井市",
    "city_kana": "カスガイシ",
    "town": "気噴町",
    "town_kana": "キブキチョウ",
    "street": "１丁目（高蔵寺郵便局私書箱第２０号）",
    "office_name": "中部精機　株式会社",
    "office_name_kana": "チユウブセイキ カブシキガイシヤ"
  }
}