{
  "0000": {
    "postcode": "4970000",
    "prefecture": "愛知県",
    "prefecture_kana": "アイチケン",
    "prefecture_code": 23,
    "city": "海部郡蟹江町",
    "city_kana": "アマグンカニエチョウ",
    "town": "",
    "town_kana": "",
    "street": null,
    "office_name": null,
    "office_name_kana": null
  },
  "0001": {
    "postcode": "4970001",
    "prefecture": "愛知県",
    "prefecture_kana": "アイチケン",
    "prefecture_code": 23,
    "city": "あま市",
    "city_kana": "アマシ",
    "town": "七宝町沖之島",
    "town_kana": "シッポウチョウオキノシマ",
    "street": null,
    "office_name": null,
    "office_name_kana": null
  },
  "0002": {
    "postcode": "4970002",
    "prefecture": "愛知県",
    "prefecture_kana": "アイチケン",
    "prefecture_code": 23,
    "city": "あま市",
    "city_kana": "アマシ",
    "town": "七宝町遠島",
    "town_kana": "シッポウチョウトオシマ",
    "street": null,
    "office_name": null,
    "office_name_kana": null
  },
  "0003": {
    "postcode": "4970003",
    "prefecture": "愛知県",
    "prefecture_kana": "アイチケン",
    "prefecture_code": 23,
    "city": "あま市",
    "city_kana": "アマシ",
    "town": "七宝町秋竹",
    "town_kana": "シッポウチョウアキタケ",
    "street": null,
    "office_name": null,
    "office_name_kana": null
  },
  "0004": {
    "postcode": "4970004",
    "prefecture": "愛知県",
    "prefecture_kana": "アイチケン",
    "prefecture_code": 23,
    "city": "あま市",
    "city_kana": "アマシ",
    "town": "七宝町桂",
    "town_kana": "シッポウチョウカツラ",
    "street": null,
    "office_name": null,
    "office_name_kana": null
  },
  "0005": {
    "postcode": "4970005",
    "prefecture": "愛知県",
    "prefecture_kana": "アイチケン",
    "prefecture_code": 23,
    "city": "あま市",
    "city_kana": "アマシ",
    "town": "七宝町伊福",
    "town_kana": "シッポウチョウイフク",
    "street": null,
    "office_name": null,
    "office_name_kana": null
  },
  "0006": {
    "postcode": "4970006",
    "prefecture": "愛知県",
    "prefecture_kana": "アイチケン",
    "prefecture_code": 23,
    "city": "あま市",
    "city_kana": "アマシ",
    "town": "七宝町下之森",
    "town_kana": "シッポウチョウシモノモリ",
    "street": null,
    "office_name": null,
    "office_name_kana": null
  },
  "0011": {
    "postcode": "4970011",
    "prefecture": "愛知県",
    "prefecture_kana": "アイチケン",
    "prefecture_code": 23,
    "city": "あま市",
    "city_kana": "アマシ",
    "town": "七宝町安松",
    "town_kana": "シッポウチョウヤスマツ",
    "street": null,
    "office_name": null,
    "office_name_kana": null
  },
  "0012": {
    "postcode": "4970012",
    "prefecture": "愛知県",
    "prefecture_kana": "アイチケン",
    "prefecture_code": 23,
    "city": "あま市",
    "city_kana": "アマシ",
    "town": "七宝町下田",
    "town_kana": "シッポウチョウシモダ",
    "street": null,
    "office_name": null,
    "office_name_kana": null
  },
  "0013": {
    "postcode": "4970013",
    "prefecture": "愛知県",
    "prefecture_kana": "アイチケン",
    "prefecture_code": 23,
    "city": "あま市",
    "city_kana": "アマシ",
    "town": "七宝町川部",
    "town_kana": "シッポウチョウカワベ",
    "street": null,
    "office_name": null,
    "office_name_kana": null
  },
  "0014": {
    "postcode": "4970014",
    "prefecture": "愛知県",
    "prefecture_kana": "アイチケン",
    "prefecture_code": 23,
    "city": "あま市",
    "city_kana": "アマシ",
    "town": "七宝町鷹居",
    "town_kana": "シッポウチョウタカイ",
    "street": null,
    "office_name": null,
    "office_name_kana": null
  },
  "0015": {
    "postcode": "4970015",
    "prefecture": "愛知県",
    "prefecture_kana": "アイチケン",
    "prefecture_code": 23,
    "city": "あま市",
    "city_kana": "アマシ",
    "town": "七宝町鯰橋",
    "town_kana": "シッポウチョウナマズバシ",
    "street": null,
    "office_name": null,
    "office_name_kana": null
  },
  "0016": {
    "postcode": "4970016",
    "prefecture": "愛知県",
    "prefecture_kana": "アイチケン",
    "prefecture_code": 23,
    "city": "あま市",
    "city_kana": "アマシ",
    "town": "七宝町徳実",
    "town_kana": "シッポウチョウトクザネ",
    "street": null,
    "office_name": null,
    "office_name_kana": null
  },
  "0030": {
    "postcode": "4970030",
    "prefecture": "愛知県",
    "prefecture_kana": "アイチケン",
    "prefecture_code": 23,
    "city": "海部郡蟹江町",
    "city_kana": "アマグンカニエチョウ",
    "town": "宝",
    "town_kana": "タカラ",
    "street": null,
    "office_name": null,
    "office_name_kana": null
  },
  "0031": {
    "postcode": "4970031",
    "prefecture": "愛知県",
    "prefecture_kana": "アイチケン",
    "prefecture_code": 23,
    "city": "海部郡蟹江町",
    "city_kana": "アマグンカニエチョウ",
    "town": "須成",
    "town_kana": "スナリ",
    "street": null,
    "office_name": null,
    "office_name_kana": null
  },
  "0032": {
    "postcode": "4970032",
    "prefecture": "愛知県",
    "prefecture_kana": "アイチケン",
    "prefecture_code": 23,
    "city": "海部郡蟹江町",
    "city_kana": "アマグンカニエチョウ",
    "town": "今",
    "town_kana": "イマ",
    "street": null,
    "office_name": null,
    "office_name_kana": null
  },
  "0033": {
    "postcode": "4970033",
    "prefecture": "愛知県",
    "prefecture_kana": "アイチケン",
    "prefecture_code": 23,
    "city": "海部郡蟹江町",
    "city_kana": "アマグンカニエチョウ",
    "town": "蟹江本町",
    "town_kana": "カニエホンマチ",
    "street": null,
    "office_name": null,
    "office_name_kana": null
  },
  "0034": {
    "postcode": "4970034",
    "prefecture": "愛知県",
    "prefecture_kana": "アイチケン",
    "prefecture_code": 23,
    "city": "海部郡蟹江町",
    "city_kana": "アマグンカニエチョウ",
    "town": "本町",
    "town_kana": "ホンマチ",
    "street": null,
    "office_name": null,
    "office_name_kana": null
  },
  "0035": {
    "postcode": "4970035",
    "prefecture": "愛知県",
    "prefecture_kana": "アイチケン",
    "prefecture_code": 23,
    "city": "海部郡蟹江町",
    "city_kana": "アマグンカニエチョウ",
    "town": "蟹江新町",
    "town_kana": "カニエシンマチ",
    "street": null,
    "office_name": null,
    "office_name_kana": null
  },
  "0036": {
    "postcode": "4970036",
    "prefecture": "愛知県",
    "prefecture_kana": "アイチケン",
    "prefecture_code": 23,
    "city": "海部郡蟹江町",
    "city_kana": "アマグンカニエチョウ",
    "town": "須成西",
    "town_kana": "スナリニシ",
    "street": null,
    "office_name": null,
    "office_name_kana": null
  },
  "0037": {
    "postcode": "4970037",
    "prefecture": "愛知県",
    "prefecture_kana": "アイチケン",
    "prefecture_code": 23,
    "city": "海部郡蟹江町",
    "city_kana": "アマグンカニエチョウ",
    "town": "今西",
    "town_kana": "イマニシ",
    "street": null,
    "office_name": null,
    "office_name_kana": null
  },
  "0038": {
    "postcode": "4970038",
    "prefecture": "愛知県",
    "prefecture_kana": "アイチケン",
    "prefecture_code": 23,
    "city": "海部郡蟹江町",
    "city_kana": "アマグンカニエチョウ",
    "town": "桜",
    "town_kana": "サクラ",
    "street": null,
    "office_name": null,
    "office_name_kana": null
  },
  "0040": {
    "postcode": "4970040",
    "prefecture": "愛知県",
    "prefecture_kana": "アイチケン",
    "prefecture_code": 23,
    "city": "海部郡蟹江町",
    "city_kana": "アマグンカニエチョウ",
    "town": "城",
    "town_kana": "シロ",
    "street": null,
    "office_name": null,
    "office_name_kana": null
  },
  "0041": {
    "postcode": "4970041",
    "prefecture": "愛知県",
    "prefecture_kana": "アイチケン",
    "prefecture_code": 23,
    "city": "海部郡蟹江町",
    "city_kana": "アマグンカニエチョウ",
    "town": "南",
    "town_kana": "ミナミ",
    "street": null,
    "office_name": null,
    "office_name_kana": null
  },
  "0042": {
    "postcode": "4970042",
    "prefecture": "愛知県",
    "prefecture_kana": "アイチケン",
    "prefecture_code": 23,
    "city": "海部郡蟹江町",
    "city_kana": "アマグンカニエチョウ",
    "town": "鍋蓋新田",
    "town_kana": "ナベブタシンデン",
    "street": null,
    "office_name": null,
    "office_name_kana": null
  },
  "0043": {
    "postcode": "4970043",
    "prefecture": "愛知県",
    "prefecture_kana": "アイチケン",
    "prefecture_code": 23,
    "city": "海部郡蟹江町",
    "city_kana": "アマグンカニエチョウ",
    "town": "新千秋",
    "town_kana": "シンチアキ",
    "street": null,
    "office_name": null,
    "office_name_kana": null
  },
  "0044": {
    "postcode": "4970044",
    "prefecture": "愛知県",
    "prefecture_kana": "アイチケン",
    "prefecture_code": 23,
    "city": "海部郡蟹江町",
    "city_kana": "アマグンカニエチョウ",
    "town": "蟹江新田",
    "town_kana": "カニエシンデン",
    "street": null,
    "office_name": null,
    "office_name_kana": null
  },
  "0045": {
    "postcode": "4970045",
    "prefecture": "愛知県",
    "prefecture_kana": "アイチケン",
    "prefecture_code": 23,
    "city": "海部郡蟹江町",
    "city_kana": "アマグンカニエチョウ",
    "town": "緑",
    "town_kana": "ミドリ",
    "street": null,
    "office_name": null,
    "office_name_kana": null
  },
  "0046": {
    "postcode": "4970046",
    "prefecture": "愛知県",
    "prefecture_kana": "アイチケン",
    "prefecture_code": 23,
    "city": "海部郡蟹江町",
    "city_kana": "アマグンカニエチョウ",
    "town": "旭",
    "town_kana": "アサヒ",
    "street": null,
    "office_name": null,
    "office_name_kana": null
  },
  "0047": {
    "postcode": "4970047",
    "prefecture": "愛知県",
    "prefecture_kana": "アイチケン",
    "prefecture_code": 23,
    "city": "海部郡蟹江町",
    "city_kana": "アマグンカニエチョウ",
    "town": "泉",
    "town_kana": "イズミ",
    "street": null,
    "office_name": null,
    "office_name_kana": null
  },
  "0048": {
    "postcode": "4970048",
    "prefecture": "愛知県",
    "prefecture_kana": "アイチケン",
    "prefecture_code": 23,
    "city": "海部郡蟹江町",
    "city_kana": "アマグンカニエチョウ",
    "town": "舟入",
    "town_kana": "フナイリ",
    "street": null,
    "office_name": null,
    "office_name_kana": null
  },
  "0050": {
    "postcode": "4970050",
    "prefecture": "愛知県",
    "prefecture_kana": "アイチケン",
    "prefecture_code": 23,
    "city": "海部郡蟹江町",
    "city_kana": "アマグンカニエチョウ",
    "town": "学戸",
    "town_kana": "ガクト",
    "street": null,
    "office_name": null,
    "office_name_kana": null
  },
  "0051": {
    "postcode": "4970051",
    "prefecture": "愛知県",
    "prefecture_kana": "アイチケン",
    "prefecture_code": 23,
    "city": "海部郡蟹江町",
    "city_kana": "アマグンカニエチョウ",
    "town": "北新田",
    "town_kana": "キタシンデン",
    "street": null,
    "office_name": null,
    "office_name_kana": null
  },
  "0052": {
    "postcode": "4970052",
    "prefecture": "愛知県",
    "prefecture_kana": "アイチケン",
    "prefecture_code": 23,
    "city": "海部郡蟹江町",
    "city_kana": "アマグンカニエチョウ",
    "town": "西之森",
    "town_kana": "ニシノモリ",
    "street": null,
    "office_name": null,
    "office_name_kana": null
  },
  "0053": {
    "postcode": "4970053",
    "prefecture": "愛知県",
    "prefecture_kana": "アイチケン",
    "prefecture_code": 23,
    "city": "海部郡蟹江町",
    "city_kana": "アマグンカニエチョウ",
    "town": "平安",
    "town_kana": "ヘイアン",
    "street": null,
    "office_name": null,
    "office_name_kana": null
  },
  "0054": {
    "postcode": "4970054",
    "prefecture": "愛知県",
    "prefecture_kana": "アイチケン",
    "prefecture_code": 23,
    "city": "海部郡蟹江町",
    "city_kana": "アマグンカニエチョウ",
    "town": "錦",
    "town_kana": "ニシキ",
    "street": null,
    "office_name": null,
    "office_name_kana": null
  },
  "0055": {
    "postcode": "4970055",
    "prefecture": "愛知県",
    "prefecture_kana": "アイチケン",
    "prefecture_code": 23,
    "city": "海部郡蟹江町",
    "city_kana": "アマグンカニエチョウ",
    "town": "源氏",
    "town_kana": "ゲンジ",
    "street": null,
    "office_name": null,
    "office_name_kana": null
  },
  "0056": {
    "postcode": "4970056",
    "prefecture": "愛知県",
    "prefecture_kana": "アイチケン",
    "prefecture_code": 23,
    "city": "海部郡蟹江町",
    "city_kana": "アマグンカニエチョウ",
    "town": "八幡",
    "town_kana": "ハチマン",
    "street": null,
    "office_name": null,
    "office_name_kana": null
  },
  "0057": {
    "postcode": "4970057",
    "prefecture": "愛知県",
    "prefecture_kana": "アイチケン",
    "prefecture_code": 23,
    "city": "海部郡蟹江町",
    "city_kana": "アマグンカニエチョウ",
    "town": "上川田",
    "town_kana": "カミカワタ",
    "street": null,
    "office_name": null,
    "office_name_kana": null
  },
  "0058": {
    "postcode": "4970058",
    "prefecture": "愛知県",
    "prefecture_kana": "アイチケン",
    "prefecture_code": 23,
    "city": "海部郡蟹江町",
    "city_kana": "アマグンカニエチョウ",
    "town": "富吉",
    "town_kana": "トミヨシ",
    "street": null,
    "office_name": null,
    "office_name_kana": null
  },
  "8501": {
    "postcode": "4978501",
    "prefecture": "愛知県",
    "prefecture_kana": "アイチケン",
    "prefecture_code": 23,
    "city": "海部郡蟹江町",
    "city_kana": "アマグンカニエチョウ",
    "town": "大字蟹江新田",
    "town_kana": null,
    "street": "字下市場１９−１",
    "office_name": "株式会社　加藤建設",
    "office_name_kana": "カブシキガイシヤ カトウケンセツ"
  },
  "8505": {
    "postcode": "4978505",
    "prefecture": "愛知県",
    "prefecture_kana": "アイチケン",
    "prefecture_code": 23,
    "city": "あま市",
    "city_kana": "アマシ",
    "town": "七宝町下田",
    "town_kana": "シッポウチョウシモダ",
    "street": "矢倉下１４３２",
    "office_name": "七宝病院",
    "office_name_kana": "シツポウビヨウイン"
  },
  "8508": {
    "postcode": "4978508",
    "prefecture": "愛知県",
    "prefecture_kana": "アイチケン",
    "prefecture_code": 23,
    "city": "海部郡蟹江町",
    "city_kana": "アマグンカニエチョウ",
    "town": "今",
    "town_kana": "イマ",
    "street": "３丁目１７番地",
    "office_name": "株式会社　ヨシヅヤ　蟹江店",
    "office_name_kana": "カブシキガイシヤ ヨシヅヤ カニエテン"
  },
  "8510": {
    "postcode": "4978510",
    "prefecture": "愛知県",
    "prefecture_kana": "アイチケン",
    "prefecture_code": 23,
    "city": "あま市",
    "city_kana": "アマシ",
    "town": "七宝町鷹居",
    "town_kana": "シッポウチョウタカイ",
    "street": "７丁目３４−１",
    "office_name": "株式会社　マツヤ",
    "office_name_kana": "カブシキガイシヤ マツヤ"
  },
  "8511": {
    "postcode": "4978511",
    "prefecture": "愛知県",
    "prefecture_kana": "アイチケン",
    "prefecture_code": 23,
    "city": "海部郡蟹江町",
    "city_kana": "アマグンカニエチョウ",
    "town": "西之森",
    "town_kana": "ニシノモリ",
    "street": "７丁目１１２番地",
    "office_name": "丸信製粉　株式会社",
    "office_name_kana": "マルシンセイフン カブシキガイシヤ"
  },
  "8512": {
    "postcode": "4978512",
    "prefecture": "愛知県",
    "prefecture_kana": "アイチケン",
    "prefecture_code": 23,
    "city": "あま市",
    "city_kana": "アマシ",
    "town": "七宝町川部",
    "town_kana": "シッポウチョウカワベ",
    "street": "六反田２",
    "office_name": "株式会社　エイビス",
    "office_name_kana": "カブシキガイシヤ エイビス"
  },
  "8522": {
    "postcode": "4978522",
    "prefecture": "愛知県",
    "prefecture_kana": "アイチケン",
    "prefecture_code": 23,
    "city": "あま市",
    "city_kana": "アマシ",
    "town": "七宝町桂",
    "town_kana": "シッポウチョウカツラ",
    "street": "城之堀１番地",
    "office_name": "あま市役所　七宝庁舎",
    "office_name_kana": "アマシヤクシヨ シツポウチヨウシヤ"
  },
  "8527": {
    "postcode": "4978527",
    "prefecture": "愛知県",
    "prefecture_kana": "アイチケン",
    "prefecture_code": 23,
    "city": "海部郡蟹江町",
    "city_kana": "アマグンカニエチョウ",
    "town": "大字蟹江本町",
    "town_kana": null,
    "street": "字テノ割１−１",
    "office_name": "高梨産業　株式会社",
    "office_name_kana": "タカナシサンギヨウ カブシキガイシヤ"
  },
  "8531": {
    "postcode": "4978531",
    "prefecture": "愛知県",
    "prefecture_kana": "アイチケン",
    "prefecture_code": 23,
    "city": "海部郡蟹江町",
    "city_kana": "アマグンカニエチョウ",
    "town": "宝",
    "town_kana": "タカラ",
    "street": "１丁目２５",
    "office_name": "株式会社　アンレット",
    "office_name_kana": "カブシキガイシヤ アンレツト"
  },
  "8533": {
    "postcode": "4978533",
    "prefecture": "愛知県",
    "prefecture_kana": "アイチケン",
    "prefecture_code": 23,
    "city": "海部郡蟹江町",
    "city_kana": "アマグンカニエチョウ",
    "town": "大字西之森",
    "town_kana": null,
    "street": "字刎畑３８",
    "office_name": "加藤軽金属工業　株式会社",
    "office_name_kana": "カトウケイキンゾクコウギヨウ カブシキガイシヤ"
  },
  "8538": {
    "postcode": "4978538",
    "prefecture": "愛知県",
    "prefecture_kana": "アイチケン",
    "prefecture_code": 23,
    "city": "海部郡蟹江町",
    "city_kana": "アマグンカニエチョウ",
    "town": "須成西",
    "town_kana": "スナリニシ",
    "street": "１０丁目８",
    "office_name": "中部第一輸送　株式会社",
    "office_name_kana": "チユウブダイイチユソウ カブシキガイシヤ"
  },
  "8541": {
    "postcode": "4978541",
    "prefecture": "愛知県",
    "prefecture_kana": "アイチケン",
    "prefecture_code": 23,
    "city": "海部郡蟹江町",
    "city_kana": "アマグンカニエチョウ",
    "town": "大字蟹江新田",
    "town_kana": null,
    "street": "字勝田場１０１",
    "office_name": "ＮＴＮ特殊合金　株式会社",
    "office_name_kana": "エヌテイエヌトクシユゴウキン カブシキガイシヤ"
  },
  "8545": {
    "postcode": "4978545",
    "prefecture": "愛知県",
    "prefecture_kana": "アイチケン",
    "prefecture_code": 23,
    "city": "あま市",
    "city_kana": "アマシ",
    "town": "七宝町沖之島",
    "town_kana": "シッポウチョウオキノシマ",
    "street": "東流１４５０",
    "office_name": "株式会社　松岡",
    "office_name_kana": "カブシキガイシヤ マツオカ"
  },
  "8548": {
    "postcode": "4978548",
    "prefecture": "愛知県",
    "prefecture_kana": "アイチケン",
    "prefecture_code": 23,
    "city": "あま市",
    "city_kana": "アマシ",
    "town": "七宝町川部",
    "town_kana": "シッポウチョウカワベ",
    "street": "佛供田７０",
    "office_name": "小山　株式会社",
    "office_name_kana": "コヤマ カブシキガイシヤ"
  },
  "8601": {
    "postcode": "4978601",
    "prefecture": "愛知県",
    "prefecture_kana": "アイチケン",
    "prefecture_code": 23,
    "city": "海部郡蟹江町",
    "city_kana": "アマグンカニエチョウ",
    "town": "学戸",
    "town_kana": "ガクト",
    "street": "３丁目１番地（蟹江郵便局私書箱第１４号）",
    "office_name": "蟹江町役場",
    "office_name_kana": "カニエチヨウヤクバ"
  },
  "8602": {
    "postcode": "4978602",
    "prefecture": "愛知県",
    "prefecture_kana": "アイチケン",
    "prefecture_code": 23,
    "city": "あま市",
    "city_kana": "アマシ",
    "town": "七宝町沖之島",
    "town_kana": "シッポウチョウオキノシマ",
    "street": "深坪１番地",
    "office_name": "あま市役所",
    "office_name_kana": "アマシヤクシヨ"
  }
}