{
  "0000": [
    {
      "postcode": "4980000",
      "prefecture": "愛知県",
      "prefecture_kana": "アイチケン",
      "prefecture_code": 23,
      "city": "弥富市",
      "city_kana": "ヤトミシ",
      "town": "",
      "town_kana": "",
      "street": null,
      "office_name": null,
      "office_name_kana": null
    },
    {
      "postcode": "4980000",
      "prefecture": "三重県",
      "prefecture_kana": "ミエケン",
      "prefecture_code": 24,
      "city": "桑名郡木曽岬町",
      "city_kana": "クワナグンキソサキチョウ",
      "town": "",
      "town_kana": "",
      "street": null,
      "office_name": null,
      "office_name_kana": null
    }
  ],
  "0001": {
    "postcode": "4980001",
    "prefecture": "愛知県",
    "prefecture_kana": "アイチケン",
    "prefecture_code": 23,
    "city": "弥富市",
    "city_kana": "ヤトミシ",
    "town": "西中地町",
    "town_kana": "ニシナカジチョウ",
    "street": null,
    "office_name": null,
    "office_name_kana": null
  },
  "0002": {
    "postcode": "4980002",
    "prefecture": "愛知県",
    "prefecture_kana": "アイチケン",
    "prefecture_code": 23,
    "city": "弥富市",
    "city_kana": "ヤトミシ",
    "town": "東中地",
    "town_kana": "ヒガシナカジ",
    "street": null,
    "office_name": null,
    "office_name_kana": null
  },
  "0003": {
    "postcode": "4980003",
    "prefecture": "愛知県",
    "prefecture_kana": "アイチケン",
    "prefecture_code": 23,
    "city": "弥富市",
    "city_kana": "ヤトミシ",
    "town": "前ケ平",
    "town_kana": "マエガヒラ",
    "street": null,
    "office_name": null,
    "office_name_kana": null
  },
  "0004": [
    {
      "postcode": "4980004",
      "prefecture": "愛知県",
      "prefecture_kana": "アイチケン",
      "prefecture_code": 23,
      "city": "弥富市",
      "city_kana": "ヤトミシ",
      "town": "又八",
      "town_kana": "マタハチ",
      "street": null,
      "office_name": null,
      "office_name_kana": null
    },
    {
      "postcode": "4980004",
      "prefecture": "愛知県",
      "prefecture_kana": "アイチケン",
      "prefecture_code": 23,
      "city": "弥富市",
      "city_kana": "ヤトミシ",
      "town": "又八町",
      "town_kana": "マタハチチョウ",
      "street": null,
      "office_name": null,
      "office_name_kana": null
    }
  ],
  "0005": {
    "postcode": "4980005",
    "prefecture": "愛知県",
    "prefecture_kana": "アイチケン",
    "prefecture_code": 23,
    "city": "弥富市",
    "city_kana": "ヤトミシ",
    "town": "楽平",
    "town_kana": "ヨシヒラ",
    "street": null,
    "office_name": null,
    "office_name_kana": null
  },
  "0006": {
    "postcode": "4980006",
    "prefecture": "愛知県",
    "prefecture_kana": "アイチケン",
    "prefecture_code": 23,
    "city": "弥富市",
    "city_kana": "ヤトミシ",
    "town": "佐古木",
    "town_kana": "サコギ",
    "street": null,
    "office_name": null,
    "office_name_kana": null
  },
  "0007": {
    "postcode": "4980007",
    "prefecture": "愛知県",
    "prefecture_kana": "アイチケン",
    "prefecture_code": 23,
    "city": "弥富市",
    "city_kana": "ヤトミシ",
    "town": "鎌倉町",
    "town_kana": "カマクラチョウ",
    "street": null,
    "office_name": null,
    "office_name_kana": null
  },
  "0011": {
    "postcode": "4980011",
    "prefecture": "愛知県",
    "prefecture_kana": "アイチケン",
    "prefecture_code": 23,
    "city": "弥富市",
    "city_kana": "ヤトミシ",
    "town": "荷之上町",
    "town_kana": "ニノウエチョウ",
    "street": null,
    "office_name": null,
    "office_name_kana": null
  },
  "0012": {
    "postcode": "4980012",
    "prefecture": "愛知県",
    "prefecture_kana": "アイチケン",
    "prefecture_code": 23,
    "city": "弥富市",
    "city_kana": "ヤトミシ",
    "town": "五之三町",
    "town_kana": "ゴノサンチョウ",
    "street": null,
    "office_name": null,
    "office_name_kana": null
  },
  "0013": {
    "postcode": "4980013",
    "prefecture": "愛知県",
    "prefecture_kana": "アイチケン",
    "prefecture_code": 23,
    "city": "弥富市",
    "city_kana": "ヤトミシ",
    "town": "川平",
    "town_kana": "カワヒラ",
    "street": null,
    "office_name": null,
    "office_name_kana": null
  },
  "0014": [
    {
      "postcode": "4980014",
      "prefecture": "愛知県",
      "prefecture_kana": "アイチケン",
      "prefecture_code": 23,
      "city": "弥富市",
      "city_kana": "ヤトミシ",
      "town": "五明",
      "town_kana": "ゴミョウ",
      "street": null,
      "office_name": null,
      "office_name_kana": null
    },
    {
      "postcode": "4980014",
      "prefecture": "愛知県",
      "prefecture_kana": "アイチケン",
      "prefecture_code": 23,
      "city": "弥富市",
      "city_kana": "ヤトミシ",
      "town": "五明町",
      "town_kana": "ゴミョウチョウ",
      "street": null,
      "office_name": null,
      "office_name_kana": null
    }
  ],
  "0015": {
    "postcode": "4980015",
    "prefecture": "愛知県",
    "prefecture_kana": "アイチケン",
    "prefecture_code": 23,
    "city": "弥富市",
    "city_kana": "ヤトミシ",
    "town": "海老江",
    "town_kana": "エビエ",
    "street": null,
    "office_name": null,
    "office_name_kana": null
  },
  "0016": {
    "postcode": "4980016",
    "prefecture": "愛知県",
    "prefecture_kana": "アイチケン",
    "prefecture_code": 23,
    "city": "弥富市",
    "city_kana": "ヤトミシ",
    "town": "小島町",
    "town_kana": "コジマチョウ",
    "street": null,
    "office_name": null,
    "office_name_kana": null
  },
  "0017": {
    "postcode": "4980017",
    "prefecture": "愛知県",
    "prefecture_kana": "アイチケン",
    "prefecture_code": 23,
    "city": "弥富市",
    "city_kana": "ヤトミシ",
    "town": "前ケ須町",
    "town_kana": "マエガスチョウ",
    "street": null,
    "office_name": null,
    "office_name_kana": null
  },
  "0018": {
    "postcode": "4980018",
    "prefecture": "愛知県",
    "prefecture_kana": "アイチケン",
    "prefecture_code": 23,
    "city": "弥富市",
    "city_kana": "ヤトミシ",
    "town": "五之三川平",
    "town_kana": "ゴノサンカワヒラ",
    "street": null,
    "office_name": null,
    "office_name_kana": null
  },
  "0021": {
    "postcode": "4980021",
    "prefecture": "愛知県",
    "prefecture_kana": "アイチケン",
    "prefecture_code": 23,
    "city": "弥富市",
    "city_kana": "ヤトミシ",
    "town": "鯏浦町",
    "town_kana": "ウグイウラチョウ",
    "street": null,
    "office_name": null,
    "office_name_kana": null
  },
  "0022": [
    {
      "postcode": "4980022",
      "prefecture": "愛知県",
      "prefecture_kana": "アイチケン",
      "prefecture_code": 23,
      "city": "弥富市",
      "city_kana": "ヤトミシ",
      "town": "鯏浦町",
      "town_kana": "ウグイウラチョウ",
      "street": null,
      "office_name": null,
      "office_name_kana": null
    },
    {
      "postcode": "4980022",
      "prefecture": "愛知県",
      "prefecture_kana": "アイチケン",
      "prefecture_code": 23,
      "city": "弥富市",
      "city_kana": "ヤトミシ",
      "town": "鯏浦町下六",
      "town_kana": "ウグイウラチョウシモロク",
      "street": null,
      "office_name": null,
      "office_name_kana": null
    }
  ],
  "0023": [
    {
      "postcode": "4980023",
      "prefecture": "愛知県",
      "prefecture_kana": "アイチケン",
      "prefecture_code": 23,
      "city": "弥富市",
      "city_kana": "ヤトミシ",
      "town": "鯏浦町",
      "town_kana": "ウグイウラチョウ",
      "street": null,
      "office_name": null,
      "office_name_kana": null
    },
    {
      "postcode": "4980023",
      "prefecture": "愛知県",
      "prefecture_kana": "アイチケン",
      "prefecture_code": 23,
      "city": "弥富市",
      "city_kana": "ヤトミシ",
      "town": "鯏浦町上六",
      "town_kana": "ウグイウラチョウカミロク",
      "street": null,
      "office_name": null,
      "office_name_kana": null
    }
  ],
  "0024": [
    {
      "postcode": "4980024",
      "prefecture": "愛知県",
      "prefecture_kana": "アイチケン",
      "prefecture_code": 23,
      "city": "弥富市",
      "city_kana": "ヤトミシ",
      "town": "鯏浦町",
      "town_kana": "ウグイウラチョウ",
      "street": null,
      "office_name": null,
      "office_name_kana": null
    },
    {
      "postcode": "4980024",
      "prefecture": "愛知県",
      "prefecture_kana": "アイチケン",
      "prefecture_code": 23,
      "city": "弥富市",
      "city_kana": "ヤトミシ",
      "town": "鯏浦町気開",
      "town_kana": "ウグイウラチョウキトケ",
      "street": null,
      "office_name": null,
      "office_name_kana": null
    }
  ],
  "0025": [
    {
      "postcode": "4980025",
      "prefecture": "愛知県",
      "prefecture_kana": "アイチケン",
      "prefecture_code": 23,
      "city": "弥富市",
      "city_kana": "ヤトミシ",
      "town": "平島町",
      "town_kana": "ヘイジマチョウ",
      "street": null,
      "office_name": null,
      "office_name_kana": null
    },
    {
      "postcode": "4980025",
      "prefecture": "愛知県",
      "prefecture_kana": "アイチケン",
      "prefecture_code": 23,
      "city": "弥富市",
      "city_kana": "ヤトミシ",
      "town": "平島町喜右味名",
      "town_kana": "ヘイジマチョウキアジナ",
      "street": null,
      "office_name": null,
      "office_name_kana": null
    }
  ],
  "0026": [
    {
      "postcode": "4980026",
      "prefecture": "愛知県",
      "prefecture_kana": "アイチケン",
      "prefecture_code": 23,
      "city": "弥富市",
      "city_kana": "ヤトミシ",
      "town": "鯏浦町",
      "town_kana": "ウグイウラチョウ",
      "street": null,
      "office_name": null,
      "office_name_kana": null
    },
    {
      "postcode": "4980026",
      "prefecture": "愛知県",
      "prefecture_kana": "アイチケン",
      "prefecture_code": 23,
      "city": "弥富市",
      "city_kana": "ヤトミシ",
      "town": "鯏浦町西前新田",
      "town_kana": "ウグイウラチョウニシマエシンデン",
      "street": null,
      "office_name": null,
      "office_name_kana": null
    }
  ],
  "0027": [
    {
      "postcode": "4980027",
      "prefecture": "愛知県",
      "prefecture_kana": "アイチケン",
      "prefecture_code": 23,
      "city": "弥富市",
      "city_kana": "ヤトミシ",
      "town": "鯏浦町",
      "town_kana": "ウグイウラチョウ",
      "street": null,
      "office_name": null,
      "office_name_kana": null
    },
    {
      "postcode": "4980027",
      "prefecture": "愛知県",
      "prefecture_kana": "アイチケン",
      "prefecture_code": 23,
      "city": "弥富市",
      "city_kana": "ヤトミシ",
      "town": "鯏浦町南前新田",
      "town_kana": "ウグイウラチョウミナミマエシンデン",
      "street": null,
      "office_name": null,
      "office_name_kana": null
    }
  ],
  "0028": [
    {
      "postcode": "4980028",
      "prefecture": "愛知県",
      "prefecture_kana": "アイチケン",
      "prefecture_code": 23,
      "city": "弥富市",
      "city_kana": "ヤトミシ",
      "town": "鯏浦町",
      "town_kana": "ウグイウラチョウ",
      "street": null,
      "office_name": null,
      "office_name_kana": null
    },
    {
      "postcode": "4980028",
      "prefecture": "愛知県",
      "prefecture_kana": "アイチケン",
      "prefecture_code": 23,
      "city": "弥富市",
      "city_kana": "ヤトミシ",
      "town": "鯏浦町中六",
      "town_kana": "ウグイウラチョウナカロク",
      "street": null,
      "office_name": null,
      "office_name_kana": null
    }
  ],
  "0031": {
    "postcode": "4980031",
    "prefecture": "愛知県",
    "prefecture_kana": "アイチケン",
    "prefecture_code": 23,
    "city": "弥富市",
    "city_kana": "ヤトミシ",
    "town": "平島町",
    "town_kana": "ヘイジマチョウ",
    "street": null,
    "office_name": null,
    "office_name_kana": null
  },
  "0032": {
    "postcode": "4980032",
    "prefecture": "愛知県",
    "prefecture_kana": "アイチケン",
    "prefecture_code": 23,
    "city": "弥富市",
    "city_kana": "ヤトミシ",
    "town": "平島中",
    "town_kana": "ヘイジマナカ",
    "street": null,
    "office_name": null,
    "office_name_kana": null
  },
  "0033": {
    "postcode": "4980033",
    "prefecture": "愛知県",
    "prefecture_kana": "アイチケン",
    "prefecture_code": 23,
    "city": "弥富市",
    "city_kana": "ヤトミシ",
    "town": "平島西",
    "town_kana": "ヘイジマニシ",
    "street": null,
    "office_name": null,
    "office_name_kana": null
  },
  "0034": {
    "postcode": "4980034",
    "prefecture": "愛知県",
    "prefecture_kana": "アイチケン",
    "prefecture_code": 23,
    "city": "弥富市",
    "city_kana": "ヤトミシ",
    "town": "平島東",
    "town_kana": "ヘイジマヒガシ",
    "street": null,
    "office_name": null,
    "office_name_kana": null
  },
  "0035": {
    "postcode": "4980035",
    "prefecture": "愛知県",
    "prefecture_kana": "アイチケン",
    "prefecture_code": 23,
    "city": "弥富市",
    "city_kana": "ヤトミシ",
    "town": "鎌島",
    "town_kana": "カマジマ",
    "street": null,
    "office_name": null,
    "office_name_kana": null
  },
  "0036": [
    {
      "postcode": "4980036",
      "prefecture": "愛知県",
      "prefecture_kana": "アイチケン",
      "prefecture_code": 23,
      "city": "弥富市",
      "city_kana": "ヤトミシ",
      "town": "森津",
      "town_kana": "モリヅ",
      "street": null,
      "office_name": null,
      "office_name_kana": null
    },
    {
      "postcode": "4980036",
      "prefecture": "愛知県",
      "prefecture_kana": "アイチケン",
      "prefecture_code": 23,
      "city": "弥富市",
      "city_kana": "ヤトミシ",
      "town": "森津町",
      "town_kana": "モリヅチョウ",
      "street": null,
      "office_name": null,
      "office_name_kana": null
    }
  ],
  "0037": [
    {
      "postcode": "4980037",
      "prefecture": "愛知県",
      "prefecture_kana": "アイチケン",
      "prefecture_code": 23,
      "city": "弥富市",
      "city_kana": "ヤトミシ",
      "town": "川原欠",
      "town_kana": "カワラガケ",
      "street": null,
      "office_name": null,
      "office_name_kana": null
    },
    {
      "postcode": "4980037",
      "prefecture": "愛知県",
      "prefecture_kana": "アイチケン",
      "prefecture_code": 23,
      "city": "弥富市",
      "city_kana": "ヤトミシ",
      "town": "川原欠町",
      "town_kana": "カワラガケチョウ",
      "street": null,
      "office_name": null,
      "office_name_kana": null
    }
  ],
  "0038": {
    "postcode": "4980038",
    "prefecture": "愛知県",
    "prefecture_kana": "アイチケン",
    "prefecture_code": 23,
    "city": "弥富市",
    "city_kana": "ヤトミシ",
    "town": "中山町",
    "town_kana": "ナカヤマチョウ",
    "street": null,
    "office_name": null,
    "office_name_kana": null
  },
  "0039": {
    "postcode": "4980039",
    "prefecture": "愛知県",
    "prefecture_kana": "アイチケン",
    "prefecture_code": 23,
    "city": "弥富市",
    "city_kana": "ヤトミシ",
    "town": "大藤町",
    "town_kana": "オオフジチョウ",
    "street": null,
    "office_name": null,
    "office_name_kana": null
  },
  "0040": {
    "postcode": "4980040",
    "prefecture": "愛知県",
    "prefecture_kana": "アイチケン",
    "prefecture_code": 23,
    "city": "弥富市",
    "city_kana": "ヤトミシ",
    "town": "栄南町",
    "town_kana": "エイナンチョウ",
    "street": null,
    "office_name": null,
    "office_name_kana": null
  },
  "0041": [
    {
      "postcode": "4980041",
      "prefecture": "愛知県",
      "prefecture_kana": "アイチケン",
      "prefecture_code": 23,
      "city": "弥富市",
      "city_kana": "ヤトミシ",
      "town": "芝井",
      "town_kana": "シバイ",
      "street": null,
      "office_name": null,
      "office_name_kana": null
    },
    {
      "postcode": "4980041",
      "prefecture": "愛知県",
      "prefecture_kana": "アイチケン",
      "prefecture_code": 23,
      "city": "弥富市",
      "city_kana": "ヤトミシ",
      "town": "芝井町",
      "town_kana": "シバイチョウ",
      "street": null,
      "office_name": null,
      "office_name_kana": null
    }
  ],
  "0042": [
    {
      "postcode": "4980042",
      "prefecture": "愛知県",
      "prefecture_kana": "アイチケン",
      "prefecture_code": 23,
      "city": "弥富市",
      "city_kana": "ヤトミシ",
      "town": "松名",
      "town_kana": "マツナ",
      "street": null,
      "office_name": null,
      "office_name_kana": null
    },
    {
      "postcode": "4980042",
      "prefecture": "愛知県",
      "prefecture_kana": "アイチケン",
      "prefecture_code": 23,
      "city": "弥富市",
      "city_kana": "ヤトミシ",
      "town": "松名町",
      "town_kana": "マツナチョウ",
      "street": null,
      "office_name": null,
      "office_name_kana": null
    }
  ],
  "0043": {
    "postcode": "4980043",
    "prefecture": "愛知県",
    "prefecture_kana": "アイチケン",
    "prefecture_code": 23,
    "city": "弥富市",
    "city_kana": "ヤトミシ",
    "town": "寛延",
    "town_kana": "カンエン",
    "street": null,
    "office_name": null,
    "office_name_kana": null
  },
  "0044": [
    {
      "postcode": "4980044",
      "prefecture": "愛知県",
      "prefecture_kana": "アイチケン",
      "prefecture_code": 23,
      "city": "弥富市",
      "city_kana": "ヤトミシ",
      "town": "間崎",
      "town_kana": "カンザキ",
      "street": null,
      "office_name": null,
      "office_name_kana": null
    },
    {
      "postcode": "4980044",
      "prefecture": "愛知県",
      "prefecture_kana": "アイチケン",
      "prefecture_code": 23,
      "city": "弥富市",
      "city_kana": "ヤトミシ",
      "town": "間崎町",
      "town_kana": "カンザキチョウ",
      "street": null,
      "office_name": null,
      "office_name_kana": null
    }
  ],
  "0045": [
    {
      "postcode": "4980045",
      "prefecture": "愛知県",
      "prefecture_kana": "アイチケン",
      "prefecture_code": 23,
      "city": "弥富市",
      "city_kana": "ヤトミシ",
      "town": "稲元",
      "town_kana": "イナモト",
      "street": null,
      "office_name": null,
      "office_name_kana": null
    },
    {
      "postcode": "4980045",
      "prefecture": "愛知県",
      "prefecture_kana": "アイチケン",
      "prefecture_code": 23,
      "city": "弥富市",
      "city_kana": "ヤトミシ",
      "town": "稲元町",
      "town_kana": "イナモトチョウ",
      "street": null,
      "office_name": null,
      "office_name_kana": null
    }
  ],
  "0046": [
    {
      "postcode": "4980046",
      "prefecture": "愛知県",
      "prefecture_kana": "アイチケン",
      "prefecture_code": 23,
      "city": "弥富市",
      "city_kana": "ヤトミシ",
      "town": "三好",
      "town_kana": "ミヨシ",
      "street": null,
      "office_name": null,
      "office_name_kana": null
    },
    {
      "postcode": "4980046",
      "prefecture": "愛知県",
      "prefecture_kana": "アイチケン",
      "prefecture_code": 23,
      "city": "弥富市",
      "city_kana": "ヤトミシ",
      "town": "三好町",
      "town_kana": "ミヨシチョウ",
      "street": null,
      "office_name": null,
      "office_name_kana": null
    }
  ],
  "0047": {
    "postcode": "4980047",
    "prefecture": "愛知県",
    "prefecture_kana": "アイチケン",
    "prefecture_code": 23,
    "city": "弥富市",
    "city_kana": "ヤトミシ",
    "town": "加稲",
    "town_kana": "カイナ",
    "street": null,
    "office_name": null,
    "office_name_kana": null
  },
  "0048": {
    "postcode": "4980048",
    "prefecture": "愛知県",
    "prefecture_kana": "アイチケン",
    "prefecture_code": 23,
    "city": "弥富市",
    "city_kana": "ヤトミシ",
    "town": "稲吉",
    "town_kana": "イナヨシ",
    "street": null,
    "office_name": null,
    "office_name_kana": null
  },
  "0049": {
    "postcode": "4980049",
    "prefecture": "愛知県",
    "prefecture_kana": "アイチケン",
    "prefecture_code": 23,
    "city": "弥富市",
    "city_kana": "ヤトミシ",
    "town": "大縄場町",
    "town_kana": "オオナワバチョウ",
    "street": null,
    "office_name": null,
    "office_name_kana": null
  },
  "0051": [
    {
      "postcode": "4980051",
      "prefecture": "愛知県",
      "prefecture_kana": "アイチケン",
      "prefecture_code": 23,
      "city": "弥富市",
      "city_kana": "ヤトミシ",
      "town": "狐地",
      "town_kana": "キツネジ",
      "street": null,
      "office_name": null,
      "office_name_kana": null
    },
    {
      "postcode": "4980051",
      "prefecture": "愛知県",
      "prefecture_kana": "アイチケン",
      "prefecture_code": 23,
      "city": "弥富市",
      "city_kana": "ヤトミシ",
      "town": "狐地町",
      "town_kana": "キツネジチョウ",
      "street": null,
      "office_name": null,
      "office_name_kana": null
    }
  ],
  "0052": [
    {
      "postcode": "4980052",
      "prefecture": "愛知県",
      "prefecture_kana": "アイチケン",
      "prefecture_code": 23,
      "city": "弥富市",
      "city_kana": "ヤトミシ",
      "town": "稲荷",
      "town_kana": "イナリ",
      "street": null,
      "office_name": null,
      "office_name_kana": null
    },
    {
      "postcode": "4980052",
      "prefecture": "愛知県",
      "prefecture_kana": "アイチケン",
      "prefecture_code": 23,
      "city": "弥富市",
      "city_kana": "ヤトミシ",
      "town": "稲荷町",
      "town_kana": "イナリチョウ",
      "street": null,
      "office_name": null,
      "office_name_kana": null
    }
  ],
  "0053": {
    "postcode": "4980053",
    "prefecture": "愛知県",
    "prefecture_kana": "アイチケン",
    "prefecture_code": 23,
    "city": "弥富市",
    "city_kana": "ヤトミシ",
    "town": "稲狐町",
    "town_kana": "イナコチョウ",
    "street": null,
    "office_name": null,
    "office_name_kana": null
  },
  "0054": [
    {
      "postcode": "4980054",
      "prefecture": "愛知県",
      "prefecture_kana": "アイチケン",
      "prefecture_code": 23,
      "city": "弥富市",
      "city_kana": "ヤトミシ",
      "town": "三稲",
      "town_kana": "サント",
      "street": null,
      "office_name": null,
      "office_name_kana": null
    },
    {
      "postcode": "4980054",
      "prefecture": "愛知県",
      "prefecture_kana": "アイチケン",
      "prefecture_code": 23,
      "city": "弥富市",
      "city_kana": "ヤトミシ",
      "town": "三稲町",
      "town_kana": "サントチョウ",
      "street": null,
      "office_name": null,
      "office_name_kana": null
    }
  ],
  "0055": {
    "postcode": "4980055",
    "prefecture": "愛知県",
    "prefecture_kana": "アイチケン",
    "prefecture_code": 23,
    "city": "弥富市",
    "city_kana": "ヤトミシ",
    "town": "境町",
    "town_kana": "サカイチョウ",
    "street": null,
    "office_name": null,
    "office_name_kana": null
  },
  "0056": [
    {
      "postcode": "4980056",
      "prefecture": "愛知県",
      "prefecture_kana": "アイチケン",
      "prefecture_code": 23,
      "city": "弥富市",
      "city_kana": "ヤトミシ",
      "town": "稲荷崎",
      "town_kana": "イナリザキ",
      "street": null,
      "office_name": null,
      "office_name_kana": null
    },
    {
      "postcode": "4980056",
      "prefecture": "愛知県",
      "prefecture_kana": "アイチケン",
      "prefecture_code": 23,
      "city": "弥富市",
      "city_kana": "ヤトミシ",
      "town": "稲荷崎町",
      "town_kana": "イナリザキチョウ",
      "street": null,
      "office_name": null,
      "office_name_kana": null
    }
  ],
  "0057": [
    {
      "postcode": "4980057",
      "prefecture": "愛知県",
      "prefecture_kana": "アイチケン",
      "prefecture_code": 23,
      "city": "弥富市",
      "city_kana": "ヤトミシ",
      "town": "中原",
      "town_kana": "ナカハラ",
      "street": null,
      "office_name": null,
      "office_name_kana": null
    },
    {
      "postcode": "4980057",
      "prefecture": "愛知県",
      "prefecture_kana": "アイチケン",
      "prefecture_code": 23,
      "city": "弥富市",
      "city_kana": "ヤトミシ",
      "town": "中原町",
      "town_kana": "ナカハラチョウ",
      "street": null,
      "office_name": null,
      "office_name_kana": null
    }
  ],
  "0058": [
    {
      "postcode": "4980058",
      "prefecture": "愛知県",
      "prefecture_kana": "アイチケン",
      "prefecture_code": 23,
      "city": "弥富市",
      "city_kana": "ヤトミシ",
      "town": "富島",
      "town_kana": "トミシマ",
      "street": null,
      "office_name": null,
      "office_name_kana": null
    },
    {
      "postcode": "4980058",
      "prefecture": "愛知県",
      "prefecture_kana": "アイチケン",
      "prefecture_code": 23,
      "city": "弥富市",
      "city_kana": "ヤトミシ",
      "town": "富島町",
      "town_kana": "トミシマチョウ",
      "street": null,
      "office_name": null,
      "office_name_kana": null
    }
  ],
  "0060": {
    "postcode": "4980060",
    "prefecture": "愛知県",
    "prefecture_kana": "アイチケン",
    "prefecture_code": 23,
    "city": "弥富市",
    "city_kana": "ヤトミシ",
    "town": "曙",
    "town_kana": "アケボノ",
    "street": null,
    "office_name": null,
    "office_name_kana": null
  },
  "0061": {
    "postcode": "4980061",
    "prefecture": "愛知県",
    "prefecture_kana": "アイチケン",
    "prefecture_code": 23,
    "city": "弥富市",
    "city_kana": "ヤトミシ",
    "town": "操出",
    "town_kana": "クリダシ",
    "street": null,
    "office_name": null,
    "office_name_kana": null
  },
  "0062": {
    "postcode": "4980062",
    "prefecture": "愛知県",
    "prefecture_kana": "アイチケン",
    "prefecture_code": 23,
    "city": "弥富市",
    "city_kana": "ヤトミシ",
    "town": "大谷",
    "town_kana": "オオタニ",
    "street": null,
    "office_name": null,
    "office_name_kana": null
  },
  "0063": {
    "postcode": "4980063",
    "prefecture": "愛知県",
    "prefecture_kana": "アイチケン",
    "prefecture_code": 23,
    "city": "弥富市",
    "city_kana": "ヤトミシ",
    "town": "東末広",
    "town_kana": "ヒガシスエヒロ",
    "street": null,
    "office_name": null,
    "office_name_kana": null
  },
  "0064": {
    "postcode": "4980064",
    "prefecture": "愛知県",
    "prefecture_kana": "アイチケン",
    "prefecture_code": 23,
    "city": "弥富市",
    "city_kana": "ヤトミシ",
    "town": "西末広",
    "town_kana": "ニシスエヒロ",
    "street": null,
    "office_name": null,
    "office_name_kana": null
  },
  "0065": {
    "postcode": "4980065",
    "prefecture": "愛知県",
    "prefecture_kana": "アイチケン",
    "prefecture_code": 23,
    "city": "弥富市",
    "city_kana": "ヤトミシ",
    "town": "駒野町",
    "town_kana": "コマノチョウ",
    "street": null,
    "office_name": null,
    "office_name_kana": null
  },
  "0066": {
    "postcode": "4980066",
    "prefecture": "愛知県",
    "prefecture_kana": "アイチケン",
    "prefecture_code": 23,
    "city": "弥富市",
    "city_kana": "ヤトミシ",
    "town": "楠",
    "town_kana": "クスノキ",
    "street": null,
    "office_name": null,
    "office_name_kana": null
  },
  "0067": {
    "postcode": "4980067",
    "prefecture": "愛知県",
    "prefecture_kana": "アイチケン",
    "prefecture_code": 23,
    "city": "弥富市",
    "city_kana": "ヤトミシ",
    "town": "上野町",
    "town_kana": "ウエノチョウ",
    "street": null,
    "office_name": null,
    "office_name_kana": null
  },
  "0068": {
    "postcode": "4980068",
    "prefecture": "愛知県",
    "prefecture_kana": "アイチケン",
    "prefecture_code": 23,
    "city": "弥富市",
    "city_kana": "ヤトミシ",
    "town": "鍋田町",
    "town_kana": "ナベタチョウ",
    "street": null,
    "office_name": null,
    "office_name_kana": null
  },
  "0069": {
    "postcode": "4980069",
    "prefecture": "愛知県",
    "prefecture_kana": "アイチケン",
    "prefecture_code": 23,
    "city": "弥富市",
    "city_kana": "ヤトミシ",
    "town": "富浜",
    "town_kana": "トミハマ",
    "street": null,
    "office_name": null,
    "office_name_kana": null
  },
  "0801": {
    "postcode": "4980801",
    "prefecture": "三重県",
    "prefecture_kana": "ミエケン",
    "prefecture_code": 24,
    "city": "桑名郡木曽岬町",
    "city_kana": "クワナグンキソサキチョウ",
    "town": "加路戸",
    "town_kana": "カロト",
    "street": null,
    "office_name": null,
    "office_name_kana": null
  },
  "0802": {
    "postcode": "4980802",
    "prefecture": "三重県",
    "prefecture_kana": "ミエケン",
    "prefecture_code": 24,
    "city": "桑名郡木曽岬町",
    "city_kana": "クワナグンキソサキチョウ",
    "town": "見入",
    "town_kana": "ケンニュウ",
    "street": null,
    "office_name": null,
    "office_name_kana": null
  },
  "0803": {
    "postcode": "4980803",
    "prefecture": "三重県",
    "prefecture_kana": "ミエケン",
    "prefecture_code": 24,
    "city": "桑名郡木曽岬町",
    "city_kana": "クワナグンキソサキチョウ",
    "town": "和泉",
    "town_kana": "イズミ",
    "street": null,
    "office_name": null,
    "office_name_kana": null
  },
  "0804": {
    "postcode": "4980804",
    "prefecture": "三重県",
    "prefecture_kana": "ミエケン",
    "prefecture_code": 24,
    "city": "桑名郡木曽岬町",
    "city_kana": "クワナグンキソサキチョウ",
    "town": "小和泉",
    "town_kana": "コイズミ",
    "street": null,
    "office_name": null,
    "office_name_kana": null
  },
  "0805": {
    "postcode": "4980805",
    "prefecture": "三重県",
    "prefecture_kana": "ミエケン",
    "prefecture_code": 24,
    "city": "桑名郡木曽岬町",
    "city_kana": "クワナグンキソサキチョウ",
    "town": "小林",
    "town_kana": "コバヤシ",
    "street": null,
    "office_name": null,
    "office_name_kana": null
  },
  "0806": {
    "postcode": "4980806",
    "prefecture": "三重県",
    "prefecture_kana": "ミエケン",
    "prefecture_code": 24,
    "city": "桑名郡木曽岬町",
    "city_kana": "クワナグンキソサキチョウ",
    "town": "外平喜",
    "town_kana": "ソトビラキ",
    "street": null,
    "office_name": null,
    "office_name_kana": null
  },
  "0807": {
    "postcode": "4980807",
    "prefecture": "三重県",
    "prefecture_kana": "ミエケン",
    "prefecture_code": 24,
    "city": "桑名郡木曽岬町",
    "city_kana": "クワナグンキソサキチョウ",
    "town": "西対海地",
    "town_kana": "ニシタイガンジ",
    "street": null,
    "office_name": null,
    "office_name_kana": null
  },
  "0808": {
    "postcode": "4980808",
    "prefecture": "三重県",
    "prefecture_kana": "ミエケン",
    "prefecture_code": 24,
    "city": "桑名郡木曽岬町",
    "city_kana": "クワナグンキソサキチョウ",
    "town": "近江島",
    "town_kana": "オウミジマ",
    "street": null,
    "office_name": null,
    "office_name_kana": null
  },
  "0810": {
    "postcode": "4980810",
    "prefecture": "三重県",
    "prefecture_kana": "ミエケン",
    "prefecture_code": 24,
    "city": "桑名郡木曽岬町",
    "city_kana": "クワナグンキソサキチョウ",
    "town": "川先",
    "town_kana": "カワサキ",
    "street": null,
    "office_name": null,
    "office_name_kana": null
  },
  "0811": {
    "postcode": "4980811",
    "prefecture": "三重県",
    "prefecture_kana": "ミエケン",
    "prefecture_code": 24,
    "city": "桑名郡木曽岬町",
    "city_kana": "クワナグンキソサキチョウ",
    "town": "栄",
    "town_kana": "サカエ",
    "street": null,
    "office_name": null,
    "office_name_kana": null
  },
  "0812": {
    "postcode": "4980812",
    "prefecture": "三重県",
    "prefecture_kana": "ミエケン",
    "prefecture_code": 24,
    "city": "桑名郡木曽岬町",
    "city_kana": "クワナグンキソサキチョウ",
    "town": "中和泉",
    "town_kana": "ナカイズミ",
    "street": null,
    "office_name": null,
    "office_name_kana": null
  },
  "0813": {
    "postcode": "4980813",
    "prefecture": "三重県",
    "prefecture_kana": "ミエケン",
    "prefecture_code": 24,
    "city": "桑名郡木曽岬町",
    "city_kana": "クワナグンキソサキチョウ",
    "town": "富田子",
    "town_kana": "トミタネ",
    "street": null,
    "office_name": null,
    "office_name_kana": null
  },
  "0814": {
    "postcode": "4980814",
    "prefecture": "三重県",
    "prefecture_kana": "ミエケン",
    "prefecture_code": 24,
    "city": "桑名郡木曽岬町",
    "city_kana": "クワナグンキソサキチョウ",
    "town": "三崎",
    "town_kana": "ミサキ",
    "street": null,
    "office_name": null,
    "office_name_kana": null
  },
  "0815": {
    "postcode": "4980815",
    "prefecture": "三重県",
    "prefecture_kana": "ミエケン",
    "prefecture_code": 24,
    "city": "桑名郡木曽岬町",
    "city_kana": "クワナグンキソサキチョウ",
    "town": "白鷺",
    "town_kana": "ハクロ",
    "street": null,
    "office_name": null,
    "office_name_kana": null
  },
  "0816": {
    "postcode": "4980816",
    "prefecture": "三重県",
    "prefecture_kana": "ミエケン",
    "prefecture_code": 24,
    "city": "桑名郡木曽岬町",
    "city_kana": "クワナグンキソサキチョウ",
    "town": "源緑輪中",
    "town_kana": "ゲンロクワジュウ",
    "street": null,
    "office_name": null,
    "office_name_kana": null
  },
  "0817": {
    "postcode": "4980817",
    "prefecture": "三重県",
    "prefecture_kana": "ミエケン",
    "prefecture_code": 24,
    "city": "桑名郡木曽岬町",
    "city_kana": "クワナグンキソサキチョウ",
    "town": "松永",
    "town_kana": "マツナガ",
    "street": null,
    "office_name": null,
    "office_name_kana": null
  },
  "0818": {
    "postcode": "4980818",
    "prefecture": "三重県",
    "prefecture_kana": "ミエケン",
    "prefecture_code": 24,
    "city": "桑名郡木曽岬町",
    "city_kana": "クワナグンキソサキチョウ",
    "town": "雁ケ地",
    "town_kana": "ガンガジ",
    "street": null,
    "office_name": null,
    "office_name_kana": null
  },
  "0819": {
    "postcode": "4980819",
    "prefecture": "三重県",
    "prefecture_kana": "ミエケン",
    "prefecture_code": 24,
    "city": "桑名郡木曽岬町",
    "city_kana": "クワナグンキソサキチョウ",
    "town": "田代",
    "town_kana": "タシロ",
    "street": null,
    "office_name": null,
    "office_name_kana": null
  },
  "0821": {
    "postcode": "4980821",
    "prefecture": "三重県",
    "prefecture_kana": "ミエケン",
    "prefecture_code": 24,
    "city": "桑名郡木曽岬町",
    "city_kana": "クワナグンキソサキチョウ",
    "town": "新加路戸",
    "town_kana": "シンカロト",
    "street": null,
    "office_name": null,
    "office_name_kana": null
  },
  "0822": {
    "postcode": "4980822",
    "prefecture": "三重県",
    "prefecture_kana": "ミエケン",
    "prefecture_code": 24,
    "city": "桑名郡木曽岬町",
    "city_kana": "クワナグンキソサキチョウ",
    "town": "見入流作",
    "town_kana": "ケンニュウリュウサク",
    "street": null,
    "office_name": null,
    "office_name_kana": null
  },
  "0823": {
    "postcode": "4980823",
    "prefecture": "三重県",
    "prefecture_kana": "ミエケン",
    "prefecture_code": 24,
    "city": "桑名郡木曽岬町",
    "city_kana": "クワナグンキソサキチョウ",
    "town": "和富",
    "town_kana": "カズトミ",
    "street": null,
    "office_name": null,
    "office_name_kana": null
  },
  "0824": {
    "postcode": "4980824",
    "prefecture": "三重県",
    "prefecture_kana": "ミエケン",
    "prefecture_code": 24,
    "city": "桑名郡木曽岬町",
    "city_kana": "クワナグンキソサキチョウ",
    "town": "新輪",
    "town_kana": "シンワ",
    "street": null,
    "office_name": null,
    "office_name_kana": null
  },
  "8501": {
    "postcode": "4988501",
    "prefecture": "愛知県",
    "prefecture_kana": "アイチケン",
    "prefecture_code": 23,
    "city": "弥富市",
    "city_kana": "ヤトミシ",
    "town": "前ケ須町",
    "town_kana": "マエガスチョウ",
    "street": "南本田３３５",
    "office_name": "弥富市役所",
    "office_name_kana": "ヤトミシヤクシヨ"
  },
  "8502": {
    "postcode": "4988502",
    "prefecture": "愛知県",
    "prefecture_kana": "アイチケン",
    "prefecture_code": 23,
    "city": "弥富市",
    "city_kana": "ヤトミシ",
    "town": "前ケ須町",
    "town_kana": "マエガスチョウ",
    "street": "南本田３９６",
    "office_name": "愛知県厚生農業協同組合連合会　海南病院",
    "office_name_kana": "アイチケンコウセイノウギヨウキヨウドウクミアイレンゴウカイ カイナンビヨウイン"
  },
  "8503": {
    "postcode": "4988503",
    "prefecture": "三重県",
    "prefecture_kana": "ミエケン",
    "prefecture_code": 24,
    "city": "桑名郡木曽岬町",
    "city_kana": "クワナグンキソサキチョウ",
    "town": "大字西対海地",
    "town_kana": null,
    "street": "２５１",
    "office_name": "木曽岬町役場",
    "office_name_kana": "キソサキチヨウヤクバ"
  },
  "8505": {
    "postcode": "4988505",
    "prefecture": "愛知県",
    "prefecture_kana": "アイチケン",
    "prefecture_code": 23,
    "city": "弥富市",
    "city_kana": "ヤトミシ",
    "town": "鯏浦町",
    "town_kana": "ウグイウラチョウ",
    "street": "南前新田２１５",
    "office_name": "株式会社　川スミ",
    "office_name_kana": "カブシキガイシヤ カワスミ"
  }
}