{
  "0000": [
    {
      "postcode": "5050000",
      "prefecture": "岐阜県",
      "prefecture_kana": "ギフケン",
      "prefecture_code": 21,
      "city": "美濃加茂市",
      "city_kana": "ミノカモシ",
      "town": "",
      "town_kana": "",
      "street": null,
      "office_name": null,
      "office_name_kana": null
    },
    {
      "postcode": "5050000",
      "prefecture": "岐阜県",
      "prefecture_kana": "ギフケン",
      "prefecture_code": 21,
      "city": "加茂郡坂祝町",
      "city_kana": "カモグンサカホギチョウ",
      "town": "",
      "town_kana": "",
      "street": null,
      "office_name": null,
      "office_name_kana": null
    }
  ],
  "0001": {
    "postcode": "5050001",
    "prefecture": "岐阜県",
    "prefecture_kana": "ギフケン",
    "prefecture_code": 21,
    "city": "美濃加茂市",
    "city_kana": "ミノカモシ",
    "town": "三和町廿屋",
    "town_kana": "ミワチョウツヅヤ",
    "street": null,
    "office_name": null,
    "office_name_kana": null
  },
  "0002": {
    "postcode": "5050002",
    "prefecture": "岐阜県",
    "prefecture_kana": "ギフケン",
    "prefecture_code": 21,
    "city": "美濃加茂市",
    "city_kana": "ミノカモシ",
    "town": "三和町川浦",
    "town_kana": "ミワチョウカワウラ",
    "street": null,
    "office_name": null,
    "office_name_kana": null
  },
  "0003": {
    "postcode": "5050003",
    "prefecture": "岐阜県",
    "prefecture_kana": "ギフケン",
    "prefecture_code": 21,
    "city": "美濃加茂市",
    "city_kana": "ミノカモシ",
    "town": "山之上町",
    "town_kana": "ヤマノウエチョウ",
    "street": null,
    "office_name": null,
    "office_name_kana": null
  },
  "0004": {
    "postcode": "5050004",
    "prefecture": "岐阜県",
    "prefecture_kana": "ギフケン",
    "prefecture_code": 21,
    "city": "美濃加茂市",
    "city_kana": "ミノカモシ",
    "town": "蜂屋町上蜂屋",
    "town_kana": "ハチヤチョウカミハチヤ",
    "street": null,
    "office_name": null,
    "office_name_kana": null
  },
  "0005": {
    "postcode": "5050005",
    "prefecture": "岐阜県",
    "prefecture_kana": "ギフケン",
    "prefecture_code": 21,
    "city": "美濃加茂市",
    "city_kana": "ミノカモシ",
    "town": "蜂屋町中蜂屋",
    "town_kana": "ハチヤチョウナカハチヤ",
    "street": null,
    "office_name": null,
    "office_name_kana": null
  },
  "0006": {
    "postcode": "5050006",
    "prefecture": "岐阜県",
    "prefecture_kana": "ギフケン",
    "prefecture_code": 21,
    "city": "美濃加茂市",
    "city_kana": "ミノカモシ",
    "town": "蜂屋町伊瀬",
    "town_kana": "ハチヤチョウイゼ",
    "street": null,
    "office_name": null,
    "office_name_kana": null
  },
  "0007": {
    "postcode": "5050007",
    "prefecture": "岐阜県",
    "prefecture_kana": "ギフケン",
    "prefecture_code": 21,
    "city": "美濃加茂市",
    "city_kana": "ミノカモシ",
    "town": "蜂屋町下蜂屋",
    "town_kana": "ハチヤチョウシモハチヤ",
    "street": null,
    "office_name": null,
    "office_name_kana": null
  },
  "0008": {
    "postcode": "5050008",
    "prefecture": "岐阜県",
    "prefecture_kana": "ギフケン",
    "prefecture_code": 21,
    "city": "美濃加茂市",
    "city_kana": "ミノカモシ",
    "town": "伊深町",
    "town_kana": "イブカチョウ",
    "street": null,
    "office_name": null,
    "office_name_kana": null
  },
  "0009": {
    "postcode": "5050009",
    "prefecture": "岐阜県",
    "prefecture_kana": "ギフケン",
    "prefecture_code": 21,
    "city": "美濃加茂市",
    "city_kana": "ミノカモシ",
    "town": "蜂屋町矢田",
    "town_kana": "ハチヤチョウヤタ",
    "street": null,
    "office_name": null,
    "office_name_kana": null
  },
  "0010": {
    "postcode": "5050010",
    "prefecture": "岐阜県",
    "prefecture_kana": "ギフケン",
    "prefecture_code": 21,
    "city": "美濃加茂市",
    "city_kana": "ミノカモシ",
    "town": "健康のまち",
    "town_kana": "ケンコウノマチ",
    "street": null,
    "office_name": null,
    "office_name_kana": null
  },
  "0011": {
    "postcode": "5050011",
    "prefecture": "岐阜県",
    "prefecture_kana": "ギフケン",
    "prefecture_code": 21,
    "city": "美濃加茂市",
    "city_kana": "ミノカモシ",
    "town": "下米田町東栃井",
    "town_kana": "シモヨネダチョウヒガシトチイ",
    "street": null,
    "office_name": null,
    "office_name_kana": null
  },
  "0012": {
    "postcode": "5050012",
    "prefecture": "岐阜県",
    "prefecture_kana": "ギフケン",
    "prefecture_code": 21,
    "city": "美濃加茂市",
    "city_kana": "ミノカモシ",
    "town": "下米田町山本",
    "town_kana": "シモヨネダチョウヤマモト",
    "street": null,
    "office_name": null,
    "office_name_kana": null
  },
  "0013": {
    "postcode": "5050013",
    "prefecture": "岐阜県",
    "prefecture_kana": "ギフケン",
    "prefecture_code": 21,
    "city": "美濃加茂市",
    "city_kana": "ミノカモシ",
    "town": "下米田町信友",
    "town_kana": "シモヨネダチョウノブトモ",
    "street": null,
    "office_name": null,
    "office_name_kana": null
  },
  "0014": {
    "postcode": "5050014",
    "prefecture": "岐阜県",
    "prefecture_kana": "ギフケン",
    "prefecture_code": 21,
    "city": "美濃加茂市",
    "city_kana": "ミノカモシ",
    "town": "下米田町則光",
    "town_kana": "シモヨネダチョウノリミツ",
    "street": null,
    "office_name": null,
    "office_name_kana": null
  },
  "0015": {
    "postcode": "5050015",
    "prefecture": "岐阜県",
    "prefecture_kana": "ギフケン",
    "prefecture_code": 21,
    "city": "美濃加茂市",
    "city_kana": "ミノカモシ",
    "town": "下米田町今",
    "town_kana": "シモヨネダチョウイマ",
    "street": null,
    "office_name": null,
    "office_name_kana": null
  },
  "0016": {
    "postcode": "5050016",
    "prefecture": "岐阜県",
    "prefecture_kana": "ギフケン",
    "prefecture_code": 21,
    "city": "美濃加茂市",
    "city_kana": "ミノカモシ",
    "town": "牧野",
    "town_kana": "マキノ",
    "street": null,
    "office_name": null,
    "office_name_kana": null
  },
  "0017": {
    "postcode": "5050017",
    "prefecture": "岐阜県",
    "prefecture_kana": "ギフケン",
    "prefecture_code": 21,
    "city": "美濃加茂市",
    "city_kana": "ミノカモシ",
    "town": "下米田町小山",
    "town_kana": "シモヨネダチョウコヤマ",
    "street": null,
    "office_name": null,
    "office_name_kana": null
  },
  "0018": {
    "postcode": "5050018",
    "prefecture": "岐阜県",
    "prefecture_kana": "ギフケン",
    "prefecture_code": 21,
    "city": "美濃加茂市",
    "city_kana": "ミノカモシ",
    "town": "下米田町西脇",
    "town_kana": "シモヨネダチョウニシワキ",
    "street": null,
    "office_name": null,
    "office_name_kana": null
  },
  "0019": {
    "postcode": "5050019",
    "prefecture": "岐阜県",
    "prefecture_kana": "ギフケン",
    "prefecture_code": 21,
    "city": "美濃加茂市",
    "city_kana": "ミノカモシ",
    "town": "下米田町為岡",
    "town_kana": "シモヨネダチョウタメオカ",
    "street": null,
    "office_name": null,
    "office_name_kana": null
  },
  "0021": {
    "postcode": "5050021",
    "prefecture": "岐阜県",
    "prefecture_kana": "ギフケン",
    "prefecture_code": 21,
    "city": "美濃加茂市",
    "city_kana": "ミノカモシ",
    "town": "森山町",
    "town_kana": "モリヤマチョウ",
    "street": null,
    "office_name": null,
    "office_name_kana": null
  },
  "0022": {
    "postcode": "5050022",
    "prefecture": "岐阜県",
    "prefecture_kana": "ギフケン",
    "prefecture_code": 21,
    "city": "美濃加茂市",
    "city_kana": "ミノカモシ",
    "town": "川合町",
    "town_kana": "カワイチョウ",
    "street": null,
    "office_name": null,
    "office_name_kana": null
  },
  "0023": {
    "postcode": "5050023",
    "prefecture": "岐阜県",
    "prefecture_kana": "ギフケン",
    "prefecture_code": 21,
    "city": "美濃加茂市",
    "city_kana": "ミノカモシ",
    "town": "野笹町",
    "town_kana": "ノザサチョウ",
    "street": null,
    "office_name": null,
    "office_name_kana": null
  },
  "0024": {
    "postcode": "5050024",
    "prefecture": "岐阜県",
    "prefecture_kana": "ギフケン",
    "prefecture_code": 21,
    "city": "美濃加茂市",
    "city_kana": "ミノカモシ",
    "town": "御門町",
    "town_kana": "ミカドチョウ",
    "street": null,
    "office_name": null,
    "office_name_kana": null
  },
  "0025": {
    "postcode": "5050025",
    "prefecture": "岐阜県",
    "prefecture_kana": "ギフケン",
    "prefecture_code": 21,
    "city": "美濃加茂市",
    "city_kana": "ミノカモシ",
    "town": "島町",
    "town_kana": "シマチョウ",
    "street": null,
    "office_name": null,
    "office_name_kana": null
  },
  "0026": {
    "postcode": "5050026",
    "prefecture": "岐阜県",
    "prefecture_kana": "ギフケン",
    "prefecture_code": 21,
    "city": "美濃加茂市",
    "city_kana": "ミノカモシ",
    "town": "清水町",
    "town_kana": "シミズチョウ",
    "street": null,
    "office_name": null,
    "office_name_kana": null
  },
  "0027": {
    "postcode": "5050027",
    "prefecture": "岐阜県",
    "prefecture_kana": "ギフケン",
    "prefecture_code": 21,
    "city": "美濃加茂市",
    "city_kana": "ミノカモシ",
    "town": "本郷町",
    "town_kana": "ホンゴウチョウ",
    "street": null,
    "office_name": null,
    "office_name_kana": null
  },
  "0028": {
    "postcode": "5050028",
    "prefecture": "岐阜県",
    "prefecture_kana": "ギフケン",
    "prefecture_code": 21,
    "city": "美濃加茂市",
    "city_kana": "ミノカモシ",
    "town": "山崎町",
    "town_kana": "ヤマザキチョウ",
    "street": null,
    "office_name": null,
    "office_name_kana": null
  },
  "0029": {
    "postcode": "5050029",
    "prefecture": "岐阜県",
    "prefecture_kana": "ギフケン",
    "prefecture_code": 21,
    "city": "美濃加茂市",
    "city_kana": "ミノカモシ",
    "town": "あじさいヶ丘",
    "town_kana": "アジサイガオカ",
    "street": null,
    "office_name": null,
    "office_name_kana": null
  },
  "0031": {
    "postcode": "5050031",
    "prefecture": "岐阜県",
    "prefecture_kana": "ギフケン",
    "prefecture_code": 21,
    "city": "美濃加茂市",
    "city_kana": "ミノカモシ",
    "town": "新池町",
    "town_kana": "シンイケチョウ",
    "street": null,
    "office_name": null,
    "office_name_kana": null
  },
  "0032": {
    "postcode": "5050032",
    "prefecture": "岐阜県",
    "prefecture_kana": "ギフケン",
    "prefecture_code": 21,
    "city": "美濃加茂市",
    "city_kana": "ミノカモシ",
    "town": "田島町",
    "town_kana": "タジマチョウ",
    "street": null,
    "office_name": null,
    "office_name_kana": null
  },
  "0033": {
    "postcode": "5050033",
    "prefecture": "岐阜県",
    "prefecture_kana": "ギフケン",
    "prefecture_code": 21,
    "city": "美濃加茂市",
    "city_kana": "ミノカモシ",
    "town": "中富町",
    "town_kana": "ナカトミチョウ",
    "street": null,
    "office_name": null,
    "office_name_kana": null
  },
  "0034": {
    "postcode": "5050034",
    "prefecture": "岐阜県",
    "prefecture_kana": "ギフケン",
    "prefecture_code": 21,
    "city": "美濃加茂市",
    "city_kana": "ミノカモシ",
    "town": "古井町下古井",
    "town_kana": "コビチョウシモコビ",
    "street": null,
    "office_name": null,
    "office_name_kana": null
  },
  "0035": {
    "postcode": "5050035",
    "prefecture": "岐阜県",
    "prefecture_kana": "ギフケン",
    "prefecture_code": 21,
    "city": "美濃加茂市",
    "city_kana": "ミノカモシ",
    "town": "大手町",
    "town_kana": "オオテマチ",
    "street": null,
    "office_name": null,
    "office_name_kana": null
  },
  "0036": {
    "postcode": "5050036",
    "prefecture": "岐阜県",
    "prefecture_kana": "ギフケン",
    "prefecture_code": 21,
    "city": "美濃加茂市",
    "city_kana": "ミノカモシ",
    "town": "山手町",
    "town_kana": "ヤマテチョウ",
    "street": null,
    "office_name": null,
    "office_name_kana": null
  },
  "0037": {
    "postcode": "5050037",
    "prefecture": "岐阜県",
    "prefecture_kana": "ギフケン",
    "prefecture_code": 21,
    "city": "美濃加茂市",
    "city_kana": "ミノカモシ",
    "town": "前平町",
    "town_kana": "マエヒラチョウ",
    "street": null,
    "office_name": null,
    "office_name_kana": null
  },
  "0038": {
    "postcode": "5050038",
    "prefecture": "岐阜県",
    "prefecture_kana": "ギフケン",
    "prefecture_code": 21,
    "city": "美濃加茂市",
    "city_kana": "ミノカモシ",
    "town": "中部台",
    "town_kana": "チュウブダイ",
    "street": null,
    "office_name": null,
    "office_name_kana": null
  },
  "0039": {
    "postcode": "5050039",
    "prefecture": "岐阜県",
    "prefecture_kana": "ギフケン",
    "prefecture_code": 21,
    "city": "美濃加茂市",
    "city_kana": "ミノカモシ",
    "town": "蜂屋台",
    "town_kana": "ハチヤダイ",
    "street": null,
    "office_name": null,
    "office_name_kana": null
  },
  "0041": {
    "postcode": "5050041",
    "prefecture": "岐阜県",
    "prefecture_kana": "ギフケン",
    "prefecture_code": 21,
    "city": "美濃加茂市",
    "city_kana": "ミノカモシ",
    "town": "太田町",
    "town_kana": "オオタチョウ",
    "street": null,
    "office_name": null,
    "office_name_kana": null
  },
  "0042": {
    "postcode": "5050042",
    "prefecture": "岐阜県",
    "prefecture_kana": "ギフケン",
    "prefecture_code": 21,
    "city": "美濃加茂市",
    "city_kana": "ミノカモシ",
    "town": "太田本町",
    "town_kana": "オオタホンマチ",
    "street": null,
    "office_name": null,
    "office_name_kana": null
  },
  "0043": {
    "postcode": "5050043",
    "prefecture": "岐阜県",
    "prefecture_kana": "ギフケン",
    "prefecture_code": 21,
    "city": "美濃加茂市",
    "city_kana": "ミノカモシ",
    "town": "深田町",
    "town_kana": "フカタチョウ",
    "street": null,
    "office_name": null,
    "office_name_kana": null
  },
  "0044": {
    "postcode": "5050044",
    "prefecture": "岐阜県",
    "prefecture_kana": "ギフケン",
    "prefecture_code": 21,
    "city": "美濃加茂市",
    "city_kana": "ミノカモシ",
    "town": "加茂川町",
    "town_kana": "カモガワチョウ",
    "street": null,
    "office_name": null,
    "office_name_kana": null
  },
  "0045": {
    "postcode": "5050045",
    "prefecture": "岐阜県",
    "prefecture_kana": "ギフケン",
    "prefecture_code": 21,
    "city": "美濃加茂市",
    "city_kana": "ミノカモシ",
    "town": "草笛町",
    "town_kana": "クサブエチョウ",
    "street": null,
    "office_name": null,
    "office_name_kana": null
  },
  "0046": {
    "postcode": "5050046",
    "prefecture": "岐阜県",
    "prefecture_kana": "ギフケン",
    "prefecture_code": 21,
    "city": "美濃加茂市",
    "city_kana": "ミノカモシ",
    "town": "西町",
    "town_kana": "ニシマチ",
    "street": null,
    "office_name": null,
    "office_name_kana": null
  },
  "0051": {
    "postcode": "5050051",
    "prefecture": "岐阜県",
    "prefecture_kana": "ギフケン",
    "prefecture_code": 21,
    "city": "美濃加茂市",
    "city_kana": "ミノカモシ",
    "town": "加茂野町鷹之巣",
    "town_kana": "カモノチョウタカノス",
    "street": null,
    "office_name": null,
    "office_name_kana": null
  },
  "0052": {
    "postcode": "5050052",
    "prefecture": "岐阜県",
    "prefecture_kana": "ギフケン",
    "prefecture_code": 21,
    "city": "美濃加茂市",
    "city_kana": "ミノカモシ",
    "town": "加茂野町今泉",
    "town_kana": "カモノチョウイマイズミ",
    "street": null,
    "office_name": null,
    "office_name_kana": null
  },
  "0053": {
    "postcode": "5050053",
    "prefecture": "岐阜県",
    "prefecture_kana": "ギフケン",
    "prefecture_code": 21,
    "city": "美濃加茂市",
    "city_kana": "ミノカモシ",
    "town": "加茂野町木野",
    "town_kana": "カモノチョウコノ",
    "street": null,
    "office_name": null,
    "office_name_kana": null
  },
  "0054": {
    "postcode": "5050054",
    "prefecture": "岐阜県",
    "prefecture_kana": "ギフケン",
    "prefecture_code": 21,
    "city": "美濃加茂市",
    "city_kana": "ミノカモシ",
    "town": "加茂野町加茂野",
    "town_kana": "カモノチョウカモノ",
    "street": null,
    "office_name": null,
    "office_name_kana": null
  },
  "0055": {
    "postcode": "5050055",
    "prefecture": "岐阜県",
    "prefecture_kana": "ギフケン",
    "prefecture_code": 21,
    "city": "美濃加茂市",
    "city_kana": "ミノカモシ",
    "town": "加茂野町稲辺",
    "town_kana": "カモノチョウイナベ",
    "street": null,
    "office_name": null,
    "office_name_kana": null
  },
  "0056": {
    "postcode": "5050056",
    "prefecture": "岐阜県",
    "prefecture_kana": "ギフケン",
    "prefecture_code": 21,
    "city": "美濃加茂市",
    "city_kana": "ミノカモシ",
    "town": "加茂野町市橋",
    "town_kana": "カモノチョウイチハシ",
    "street": null,
    "office_name": null,
    "office_name_kana": null
  },
  "0071": {
    "postcode": "5050071",
    "prefecture": "岐阜県",
    "prefecture_kana": "ギフケン",
    "prefecture_code": 21,
    "city": "加茂郡坂祝町",
    "city_kana": "カモグンサカホギチョウ",
    "town": "黒岩",
    "town_kana": "クロイワ",
    "street": null,
    "office_name": null,
    "office_name_kana": null
  },
  "0072": {
    "postcode": "5050072",
    "prefecture": "岐阜県",
    "prefecture_kana": "ギフケン",
    "prefecture_code": 21,
    "city": "加茂郡坂祝町",
    "city_kana": "カモグンサカホギチョウ",
    "town": "大針",
    "town_kana": "オオハリ",
    "street": null,
    "office_name": null,
    "office_name_kana": null
  },
  "0073": {
    "postcode": "5050073",
    "prefecture": "岐阜県",
    "prefecture_kana": "ギフケン",
    "prefecture_code": 21,
    "city": "加茂郡坂祝町",
    "city_kana": "カモグンサカホギチョウ",
    "town": "加茂山",
    "town_kana": "カモヤマ",
    "street": null,
    "office_name": null,
    "office_name_kana": null
  },
  "0074": {
    "postcode": "5050074",
    "prefecture": "岐阜県",
    "prefecture_kana": "ギフケン",
    "prefecture_code": 21,
    "city": "加茂郡坂祝町",
    "city_kana": "カモグンサカホギチョウ",
    "town": "酒倉",
    "town_kana": "サカクラ",
    "street": null,
    "office_name": null,
    "office_name_kana": null
  },
  "0075": {
    "postcode": "5050075",
    "prefecture": "岐阜県",
    "prefecture_kana": "ギフケン",
    "prefecture_code": 21,
    "city": "加茂郡坂祝町",
    "city_kana": "カモグンサカホギチョウ",
    "town": "取組",
    "town_kana": "トリクミ",
    "street": null,
    "office_name": null,
    "office_name_kana": null
  },
  "0076": {
    "postcode": "5050076",
    "prefecture": "岐阜県",
    "prefecture_kana": "ギフケン",
    "prefecture_code": 21,
    "city": "加茂郡坂祝町",
    "city_kana": "カモグンサカホギチョウ",
    "town": "勝山",
    "town_kana": "カツヤマ",
    "street": null,
    "office_name": null,
    "office_name_kana": null
  },
  "0077": {
    "postcode": "5050077",
    "prefecture": "岐阜県",
    "prefecture_kana": "ギフケン",
    "prefecture_code": 21,
    "city": "加茂郡坂祝町",
    "city_kana": "カモグンサカホギチョウ",
    "town": "深萱",
    "town_kana": "フカガヤ",
    "street": null,
    "office_name": null,
    "office_name_kana": null
  },
  "0100": {
    "postcode": "5050100",
    "prefecture": "岐阜県",
    "prefecture_kana": "ギフケン",
    "prefecture_code": 21,
    "city": "可児郡御嵩町",
    "city_kana": "カニグンミタケチョウ",
    "town": "",
    "town_kana": "",
    "street": null,
    "office_name": null,
    "office_name_kana": null
  },
  "0101": {
    "postcode": "5050101",
    "prefecture": "岐阜県",
    "prefecture_kana": "ギフケン",
    "prefecture_code": 21,
    "city": "可児郡御嵩町",
    "city_kana": "カニグンミタケチョウ",
    "town": "大久後",
    "town_kana": "オオクゴ",
    "street": null,
    "office_name": null,
    "office_name_kana": null
  },
  "0102": {
    "postcode": "5050102",
    "prefecture": "岐阜県",
    "prefecture_kana": "ギフケン",
    "prefecture_code": 21,
    "city": "可児郡御嵩町",
    "city_kana": "カニグンミタケチョウ",
    "town": "前沢",
    "town_kana": "マエザワ",
    "street": null,
    "office_name": null,
    "office_name_kana": null
  },
  "0103": {
    "postcode": "5050103",
    "prefecture": "岐阜県",
    "prefecture_kana": "ギフケン",
    "prefecture_code": 21,
    "city": "可児郡御嵩町",
    "city_kana": "カニグンミタケチョウ",
    "town": "津橋",
    "town_kana": "ツバシ",
    "street": null,
    "office_name": null,
    "office_name_kana": null
  },
  "0104": {
    "postcode": "5050104",
    "prefecture": "岐阜県",
    "prefecture_kana": "ギフケン",
    "prefecture_code": 21,
    "city": "可児郡御嵩町",
    "city_kana": "カニグンミタケチョウ",
    "town": "謡坂",
    "town_kana": "ウトウザカ",
    "street": null,
    "office_name": null,
    "office_name_kana": null
  },
  "0105": {
    "postcode": "5050105",
    "prefecture": "岐阜県",
    "prefecture_kana": "ギフケン",
    "prefecture_code": 21,
    "city": "可児郡御嵩町",
    "city_kana": "カニグンミタケチョウ",
    "town": "西洞",
    "town_kana": "サイト",
    "street": null,
    "office_name": null,
    "office_name_kana": null
  },
  "0106": {
    "postcode": "5050106",
    "prefecture": "岐阜県",
    "prefecture_kana": "ギフケン",
    "prefecture_code": 21,
    "city": "可児郡御嵩町",
    "city_kana": "カニグンミタケチョウ",
    "town": "小原",
    "town_kana": "オバラ",
    "street": null,
    "office_name": null,
    "office_name_kana": null
  },
  "0107": {
    "postcode": "5050107",
    "prefecture": "岐阜県",
    "prefecture_kana": "ギフケン",
    "prefecture_code": 21,
    "city": "可児郡御嵩町",
    "city_kana": "カニグンミタケチョウ",
    "town": "上之郷",
    "town_kana": "カミノゴウ",
    "street": null,
    "office_name": null,
    "office_name_kana": null
  },
  "0108": {
    "postcode": "5050108",
    "prefecture": "岐阜県",
    "prefecture_kana": "ギフケン",
    "prefecture_code": 21,
    "city": "可児郡御嵩町",
    "city_kana": "カニグンミタケチョウ",
    "town": "小和沢",
    "town_kana": "コワサワ",
    "street": null,
    "office_name": null,
    "office_name_kana": null
  },
  "0111": {
    "postcode": "5050111",
    "prefecture": "岐阜県",
    "prefecture_kana": "ギフケン",
    "prefecture_code": 21,
    "city": "可児郡御嵩町",
    "city_kana": "カニグンミタケチョウ",
    "town": "次月",
    "town_kana": "シヅキ",
    "street": null,
    "office_name": null,
    "office_name_kana": null
  },
  "0112": {
    "postcode": "5050112",
    "prefecture": "岐阜県",
    "prefecture_kana": "ギフケン",
    "prefecture_code": 21,
    "city": "可児郡御嵩町",
    "city_kana": "カニグンミタケチョウ",
    "town": "美佐野",
    "town_kana": "ミザノ",
    "street": null,
    "office_name": null,
    "office_name_kana": null
  },
  "0113": {
    "postcode": "5050113",
    "prefecture": "岐阜県",
    "prefecture_kana": "ギフケン",
    "prefecture_code": 21,
    "city": "可児郡御嵩町",
    "city_kana": "カニグンミタケチョウ",
    "town": "宿",
    "town_kana": "シュク",
    "street": null,
    "office_name": null,
    "office_name_kana": null
  },
  "0114": {
    "postcode": "5050114",
    "prefecture": "岐阜県",
    "prefecture_kana": "ギフケン",
    "prefecture_code": 21,
    "city": "可児郡御嵩町",
    "city_kana": "カニグンミタケチョウ",
    "town": "中切",
    "town_kana": "ナカギリ",
    "street": null,
    "office_name": null,
    "office_name_kana": null
  },
  "0115": {
    "postcode": "5050115",
    "prefecture": "岐阜県",
    "prefecture_kana": "ギフケン",
    "prefecture_code": 21,
    "city": "可児郡御嵩町",
    "city_kana": "カニグンミタケチョウ",
    "town": "井尻",
    "town_kana": "イジリ",
    "street": null,
    "office_name": null,
    "office_name_kana": null
  },
  "0116": {
    "postcode": "5050116",
    "prefecture": "岐阜県",
    "prefecture_kana": "ギフケン",
    "prefecture_code": 21,
    "city": "可児郡御嵩町",
    "city_kana": "カニグンミタケチョウ",
    "town": "御嵩",
    "town_kana": "ミタケ",
    "street": null,
    "office_name": null,
    "office_name_kana": null
  },
  "0121": {
    "postcode": "5050121",
    "prefecture": "岐阜県",
    "prefecture_kana": "ギフケン",
    "prefecture_code": 21,
    "city": "可児郡御嵩町",
    "city_kana": "カニグンミタケチョウ",
    "town": "中",
    "town_kana": "ナカ",
    "street": null,
    "office_name": null,
    "office_name_kana": null
  },
  "0122": {
    "postcode": "5050122",
    "prefecture": "岐阜県",
    "prefecture_kana": "ギフケン",
    "prefecture_code": 21,
    "city": "可児郡御嵩町",
    "city_kana": "カニグンミタケチョウ",
    "town": "顔戸",
    "town_kana": "ゴウド",
    "street": null,
    "office_name": null,
    "office_name_kana": null
  },
  "0123": {
    "postcode": "5050123",
    "prefecture": "岐阜県",
    "prefecture_kana": "ギフケン",
    "prefecture_code": 21,
    "city": "可児郡御嵩町",
    "city_kana": "カニグンミタケチョウ",
    "town": "古屋敷",
    "town_kana": "フルヤシキ",
    "street": null,
    "office_name": null,
    "office_name_kana": null
  },
  "0124": {
    "postcode": "5050124",
    "prefecture": "岐阜県",
    "prefecture_kana": "ギフケン",
    "prefecture_code": 21,
    "city": "可児郡御嵩町",
    "city_kana": "カニグンミタケチョウ",
    "town": "比衣",
    "town_kana": "ヒエ",
    "street": null,
    "office_name": null,
    "office_name_kana": null
  },
  "0125": {
    "postcode": "5050125",
    "prefecture": "岐阜県",
    "prefecture_kana": "ギフケン",
    "prefecture_code": 21,
    "city": "可児郡御嵩町",
    "city_kana": "カニグンミタケチョウ",
    "town": "伏見",
    "town_kana": "フシミ",
    "street": null,
    "office_name": null,
    "office_name_kana": null
  },
  "0126": {
    "postcode": "5050126",
    "prefecture": "岐阜県",
    "prefecture_kana": "ギフケン",
    "prefecture_code": 21,
    "city": "可児郡御嵩町",
    "city_kana": "カニグンミタケチョウ",
    "town": "上恵土",
    "town_kana": "カミエド",
    "street": null,
    "office_name": null,
    "office_name_kana": null
  },
  "0130": {
    "postcode": "5050130",
    "prefecture": "岐阜県",
    "prefecture_kana": "ギフケン",
    "prefecture_code": 21,
    "city": "可児市",
    "city_kana": "カニシ",
    "town": "兼山",
    "town_kana": "カネヤマ",
    "street": null,
    "office_name": null,
    "office_name_kana": null
  },
  "0300": {
    "postcode": "5050300",
    "prefecture": "岐阜県",
    "prefecture_kana": "ギフケン",
    "prefecture_code": 21,
    "city": "加茂郡八百津町",
    "city_kana": "カモグンヤオツチョウ",
    "town": "",
    "town_kana": "",
    "street": null,
    "office_name": null,
    "office_name_kana": null
  },
  "0301": {
    "postcode": "5050301",
    "prefecture": "岐阜県",
    "prefecture_kana": "ギフケン",
    "prefecture_code": 21,
    "city": "加茂郡八百津町",
    "city_kana": "カモグンヤオツチョウ",
    "town": "八百津",
    "town_kana": "ヤオツ",
    "street": null,
    "office_name": null,
    "office_name_kana": null
  },
  "0302": {
    "postcode": "5050302",
    "prefecture": "岐阜県",
    "prefecture_kana": "ギフケン",
    "prefecture_code": 21,
    "city": "加茂郡八百津町",
    "city_kana": "カモグンヤオツチョウ",
    "town": "錦織",
    "town_kana": "ニシコオリ",
    "street": null,
    "office_name": null,
    "office_name_kana": null
  },
  "0303": {
    "postcode": "5050303",
    "prefecture": "岐阜県",
    "prefecture_kana": "ギフケン",
    "prefecture_code": 21,
    "city": "加茂郡八百津町",
    "city_kana": "カモグンヤオツチョウ",
    "town": "伊岐津志",
    "town_kana": "イギツシ",
    "street": null,
    "office_name": null,
    "office_name_kana": null
  },
  "0304": {
    "postcode": "5050304",
    "prefecture": "岐阜県",
    "prefecture_kana": "ギフケン",
    "prefecture_code": 21,
    "city": "加茂郡八百津町",
    "city_kana": "カモグンヤオツチョウ",
    "town": "上牧野",
    "town_kana": "カミマキノ",
    "street": null,
    "office_name": null,
    "office_name_kana": null
  },
  "0305": {
    "postcode": "5050305",
    "prefecture": "岐阜県",
    "prefecture_kana": "ギフケン",
    "prefecture_code": 21,
    "city": "加茂郡八百津町",
    "city_kana": "カモグンヤオツチョウ",
    "town": "和知",
    "town_kana": "ワチ",
    "street": null,
    "office_name": null,
    "office_name_kana": null
  },
  "0306": {
    "postcode": "5050306",
    "prefecture": "岐阜県",
    "prefecture_kana": "ギフケン",
    "prefecture_code": 21,
    "city": "加茂郡八百津町",
    "city_kana": "カモグンヤオツチョウ",
    "town": "上飯田",
    "town_kana": "カミイイダ",
    "street": null,
    "office_name": null,
    "office_name_kana": null
  },
  "0307": {
    "postcode": "5050307",
    "prefecture": "岐阜県",
    "prefecture_kana": "ギフケン",
    "prefecture_code": 21,
    "city": "加茂郡八百津町",
    "city_kana": "カモグンヤオツチョウ",
    "town": "野上",
    "town_kana": "ノガミ",
    "street": null,
    "office_name": null,
    "office_name_kana": null
  },
  "0392": {
    "postcode": "5050392",
    "prefecture": "岐阜県",
    "prefecture_kana": "ギフケン",
    "prefecture_code": 21,
    "city": "加茂郡八百津町",
    "city_kana": "カモグンヤオツチョウ",
    "town": "八百津",
    "town_kana": "ヤオツ",
    "street": "３９０３−２（八百津郵便局私書箱第３号）",
    "office_name": "八百津町役場",
    "office_name_kana": "ヤオツチヨウヤクバ"
  },
  "0421": {
    "postcode": "5050421",
    "prefecture": "岐阜県",
    "prefecture_kana": "ギフケン",
    "prefecture_code": 21,
    "city": "加茂郡八百津町",
    "city_kana": "カモグンヤオツチョウ",
    "town": "福地",
    "town_kana": "フクチ",
    "street": null,
    "office_name": null,
    "office_name_kana": null
  },
  "0422": {
    "postcode": "5050422",
    "prefecture": "岐阜県",
    "prefecture_kana": "ギフケン",
    "prefecture_code": 21,
    "city": "加茂郡八百津町",
    "city_kana": "カモグンヤオツチョウ",
    "town": "久田見",
    "town_kana": "クタミ",
    "street": null,
    "office_name": null,
    "office_name_kana": null
  },
  "0423": {
    "postcode": "5050423",
    "prefecture": "岐阜県",
    "prefecture_kana": "ギフケン",
    "prefecture_code": 21,
    "city": "加茂郡八百津町",
    "city_kana": "カモグンヤオツチョウ",
    "town": "上吉田",
    "town_kana": "カミヨシダ",
    "street": null,
    "office_name": null,
    "office_name_kana": null
  },
  "0531": {
    "postcode": "5050531",
    "prefecture": "岐阜県",
    "prefecture_kana": "ギフケン",
    "prefecture_code": 21,
    "city": "加茂郡八百津町",
    "city_kana": "カモグンヤオツチョウ",
    "town": "潮見",
    "town_kana": "シオミ",
    "street": null,
    "office_name": null,
    "office_name_kana": null
  },
  "0532": {
    "postcode": "5050532",
    "prefecture": "岐阜県",
    "prefecture_kana": "ギフケン",
    "prefecture_code": 21,
    "city": "加茂郡八百津町",
    "city_kana": "カモグンヤオツチョウ",
    "town": "南戸",
    "town_kana": "ミナト",
    "street": null,
    "office_name": null,
    "office_name_kana": null
  },
  "8501": {
    "postcode": "5058501",
    "prefecture": "岐阜県",
    "prefecture_kana": "ギフケン",
    "prefecture_code": 21,
    "city": "加茂郡坂祝町",
    "city_kana": "カモグンサカホギチョウ",
    "town": "取組",
    "town_kana": "トリクミ",
    "street": "４６−１８",
    "office_name": "坂祝町役場",
    "office_name_kana": "サカホギチヨウヤクバ"
  },
  "8503": {
    "postcode": "5058503",
    "prefecture": "岐阜県",
    "prefecture_kana": "ギフケン",
    "prefecture_code": 21,
    "city": "美濃加茂市",
    "city_kana": "ミノカモシ",
    "town": "古井町下古井",
    "town_kana": "コビチョウシモコビ",
    "street": "５９０",
    "office_name": "社会医療法人厚生会　中部脳リハビリテーション病院",
    "office_name_kana": "シヤカイイリヨウホウジンコウセイカイ チユウブノウリハビリテ-シヨンビヨウイン"
  },
  "8505": {
    "postcode": "5058505",
    "prefecture": "岐阜県",
    "prefecture_kana": "ギフケン",
    "prefecture_code": 21,
    "city": "加茂郡坂祝町",
    "city_kana": "カモグンサカホギチョウ",
    "town": "酒倉",
    "town_kana": "サカクラ",
    "street": "２０７９",
    "office_name": "パジェロ製造　株式会社",
    "office_name_kana": "パジエロセイゾウ カブシキガイシヤ"
  },
  "8508": {
    "postcode": "5058508",
    "prefecture": "岐阜県",
    "prefecture_kana": "ギフケン",
    "prefecture_code": 21,
    "city": "美濃加茂市",
    "city_kana": "ミノカモシ",
    "town": "古井町下古井",
    "town_kana": "コビチョウシモコビ",
    "street": "２６１０−１",
    "office_name": "可茂総合庁舎",
    "office_name_kana": "カモソウゴウチヨウシヤ"
  },
  "8510": {
    "postcode": "5058510",
    "prefecture": "岐阜県",
    "prefecture_kana": "ギフケン",
    "prefecture_code": 21,
    "city": "美濃加茂市",
    "city_kana": "ミノカモシ",
    "town": "健康のまち",
    "town_kana": "ケンコウノマチ",
    "street": "一丁目１番地",
    "office_name": "社会医療法人厚生会　中部国際医療センター",
    "office_name_kana": "シヤカイイリヨウホウジンコウセイカイ チユウブコクサイイリヨウセンタ-"
  },
  "8603": {
    "postcode": "5058603",
    "prefecture": "岐阜県",
    "prefecture_kana": "ギフケン",
    "prefecture_code": 21,
    "city": "美濃加茂市",
    "city_kana": "ミノカモシ",
    "town": "本郷町",
    "town_kana": "ホンゴウチョウ",
    "street": "９−１５−２２",
    "office_name": "美濃加茂ディストリビューションセンター",
    "office_name_kana": "ミノカモデイストリビユ-シヨンセンタ-"
  },
  "8606": {
    "postcode": "5058606",
    "prefecture": "岐阜県",
    "prefecture_kana": "ギフケン",
    "prefecture_code": 21,
    "city": "美濃加茂市",
    "city_kana": "ミノカモシ",
    "town": "太田町",
    "town_kana": "オオタチョウ",
    "street": "３４３１−１",
    "office_name": "美濃加茂市役所",
    "office_name_kana": "ミノカモシヤクシヨ"
  }
}