{
  "0000": {
    "postcode": "5060000",
    "prefecture": "岐阜県",
    "prefecture_kana": "ギフケン",
    "prefecture_code": 21,
    "city": "高山市",
    "city_kana": "タカヤマシ",
    "town": "",
    "town_kana": "",
    "street": null,
    "office_name": null,
    "office_name_kana": null
  },
  "0001": {
    "postcode": "5060001",
    "prefecture": "岐阜県",
    "prefecture_kana": "ギフケン",
    "prefecture_code": 21,
    "city": "高山市",
    "city_kana": "タカヤマシ",
    "town": "冬頭町",
    "town_kana": "フユトウマチ",
    "street": null,
    "office_name": null,
    "office_name_kana": null
  },
  "0002": {
    "postcode": "5060002",
    "prefecture": "岐阜県",
    "prefecture_kana": "ギフケン",
    "prefecture_code": 21,
    "city": "高山市",
    "city_kana": "タカヤマシ",
    "town": "問屋町",
    "town_kana": "トンヤマチ",
    "street": null,
    "office_name": null,
    "office_name_kana": null
  },
  "0003": {
    "postcode": "5060003",
    "prefecture": "岐阜県",
    "prefecture_kana": "ギフケン",
    "prefecture_code": 21,
    "city": "高山市",
    "city_kana": "タカヤマシ",
    "town": "本母町",
    "town_kana": "ホノブマチ",
    "street": null,
    "office_name": null,
    "office_name_kana": null
  },
  "0004": {
    "postcode": "5060004",
    "prefecture": "岐阜県",
    "prefecture_kana": "ギフケン",
    "prefecture_code": 21,
    "city": "高山市",
    "city_kana": "タカヤマシ",
    "town": "桐生町",
    "town_kana": "キリウマチ",
    "street": null,
    "office_name": null,
    "office_name_kana": null
  },
  "0005": {
    "postcode": "5060005",
    "prefecture": "岐阜県",
    "prefecture_kana": "ギフケン",
    "prefecture_code": 21,
    "city": "高山市",
    "city_kana": "タカヤマシ",
    "town": "七日町",
    "town_kana": "ナヌカマチ",
    "street": null,
    "office_name": null,
    "office_name_kana": null
  },
  "0006": {
    "postcode": "5060006",
    "prefecture": "岐阜県",
    "prefecture_kana": "ギフケン",
    "prefecture_code": 21,
    "city": "高山市",
    "city_kana": "タカヤマシ",
    "town": "神田町",
    "town_kana": "カンダマチ",
    "street": null,
    "office_name": null,
    "office_name_kana": null
  },
  "0007": {
    "postcode": "5060007",
    "prefecture": "岐阜県",
    "prefecture_kana": "ギフケン",
    "prefecture_code": 21,
    "city": "高山市",
    "city_kana": "タカヤマシ",
    "town": "総和町",
    "town_kana": "ソウワマチ",
    "street": null,
    "office_name": null,
    "office_name_kana": null
  },
  "0008": {
    "postcode": "5060008",
    "prefecture": "岐阜県",
    "prefecture_kana": "ギフケン",
    "prefecture_code": 21,
    "city": "高山市",
    "city_kana": "タカヤマシ",
    "town": "初田町",
    "town_kana": "ハツダマチ",
    "street": null,
    "office_name": null,
    "office_name_kana": null
  },
  "0009": {
    "postcode": "5060009",
    "prefecture": "岐阜県",
    "prefecture_kana": "ギフケン",
    "prefecture_code": 21,
    "city": "高山市",
    "city_kana": "タカヤマシ",
    "town": "花岡町",
    "town_kana": "ハナオカマチ",
    "street": null,
    "office_name": null,
    "office_name_kana": null
  },
  "0011": {
    "postcode": "5060011",
    "prefecture": "岐阜県",
    "prefecture_kana": "ギフケン",
    "prefecture_code": 21,
    "city": "高山市",
    "city_kana": "タカヤマシ",
    "town": "本町",
    "town_kana": "ホンマチ",
    "street": null,
    "office_name": null,
    "office_name_kana": null
  },
  "0012": {
    "postcode": "5060012",
    "prefecture": "岐阜県",
    "prefecture_kana": "ギフケン",
    "prefecture_code": 21,
    "city": "高山市",
    "city_kana": "タカヤマシ",
    "town": "八軒町",
    "town_kana": "ハチケンマチ",
    "street": null,
    "office_name": null,
    "office_name_kana": null
  },
  "0013": {
    "postcode": "5060013",
    "prefecture": "岐阜県",
    "prefecture_kana": "ギフケン",
    "prefecture_code": 21,
    "city": "高山市",
    "city_kana": "タカヤマシ",
    "town": "有楽町",
    "town_kana": "ウラマチ",
    "street": null,
    "office_name": null,
    "office_name_kana": null
  },
  "0014": {
    "postcode": "5060014",
    "prefecture": "岐阜県",
    "prefecture_kana": "ギフケン",
    "prefecture_code": 21,
    "city": "高山市",
    "city_kana": "タカヤマシ",
    "town": "相生町",
    "town_kana": "アイオイマチ",
    "street": null,
    "office_name": null,
    "office_name_kana": null
  },
  "0015": {
    "postcode": "5060015",
    "prefecture": "岐阜県",
    "prefecture_kana": "ギフケン",
    "prefecture_code": 21,
    "city": "高山市",
    "city_kana": "タカヤマシ",
    "town": "花川町",
    "town_kana": "ハナカワマチ",
    "street": null,
    "office_name": null,
    "office_name_kana": null
  },
  "0016": {
    "postcode": "5060016",
    "prefecture": "岐阜県",
    "prefecture_kana": "ギフケン",
    "prefecture_code": 21,
    "city": "高山市",
    "city_kana": "タカヤマシ",
    "town": "末広町",
    "town_kana": "スエヒロマチ",
    "street": null,
    "office_name": null,
    "office_name_kana": null
  },
  "0017": {
    "postcode": "5060017",
    "prefecture": "岐阜県",
    "prefecture_kana": "ギフケン",
    "prefecture_code": 21,
    "city": "高山市",
    "city_kana": "タカヤマシ",
    "town": "朝日町",
    "town_kana": "アサヒマチ",
    "street": null,
    "office_name": null,
    "office_name_kana": null
  },
  "0021": {
    "postcode": "5060021",
    "prefecture": "岐阜県",
    "prefecture_kana": "ギフケン",
    "prefecture_code": 21,
    "city": "高山市",
    "city_kana": "タカヤマシ",
    "town": "名田町",
    "town_kana": "ナダマチ",
    "street": null,
    "office_name": null,
    "office_name_kana": null
  },
  "0022": {
    "postcode": "5060022",
    "prefecture": "岐阜県",
    "prefecture_kana": "ギフケン",
    "prefecture_code": 21,
    "city": "高山市",
    "city_kana": "タカヤマシ",
    "town": "西町",
    "town_kana": "ニシマチ",
    "street": null,
    "office_name": null,
    "office_name_kana": null
  },
  "0023": {
    "postcode": "5060023",
    "prefecture": "岐阜県",
    "prefecture_kana": "ギフケン",
    "prefecture_code": 21,
    "city": "高山市",
    "city_kana": "タカヤマシ",
    "town": "川原町",
    "town_kana": "カワハラマチ",
    "street": null,
    "office_name": null,
    "office_name_kana": null
  },
  "0024": {
    "postcode": "5060024",
    "prefecture": "岐阜県",
    "prefecture_kana": "ギフケン",
    "prefecture_code": 21,
    "city": "高山市",
    "city_kana": "タカヤマシ",
    "town": "上川原町",
    "town_kana": "カミカワハラマチ",
    "street": null,
    "office_name": null,
    "office_name_kana": null
  },
  "0025": {
    "postcode": "5060025",
    "prefecture": "岐阜県",
    "prefecture_kana": "ギフケン",
    "prefecture_code": 21,
    "city": "高山市",
    "city_kana": "タカヤマシ",
    "town": "天満町",
    "town_kana": "テンマンマチ",
    "street": null,
    "office_name": null,
    "office_name_kana": null
  },
  "0026": {
    "postcode": "5060026",
    "prefecture": "岐阜県",
    "prefecture_kana": "ギフケン",
    "prefecture_code": 21,
    "city": "高山市",
    "city_kana": "タカヤマシ",
    "town": "花里町",
    "town_kana": "ハナサトマチ",
    "street": null,
    "office_name": null,
    "office_name_kana": null
  },
  "0031": {
    "postcode": "5060031",
    "prefecture": "岐阜県",
    "prefecture_kana": "ギフケン",
    "prefecture_code": 21,
    "city": "高山市",
    "city_kana": "タカヤマシ",
    "town": "西之一色町",
    "town_kana": "ニシノイッシキマチ",
    "street": null,
    "office_name": null,
    "office_name_kana": null
  },
  "0032": {
    "postcode": "5060032",
    "prefecture": "岐阜県",
    "prefecture_kana": "ギフケン",
    "prefecture_code": 21,
    "city": "高山市",
    "city_kana": "タカヤマシ",
    "town": "千島町",
    "town_kana": "チシママチ",
    "street": null,
    "office_name": null,
    "office_name_kana": null
  },
  "0033": {
    "postcode": "5060033",
    "prefecture": "岐阜県",
    "prefecture_kana": "ギフケン",
    "prefecture_code": 21,
    "city": "高山市",
    "city_kana": "タカヤマシ",
    "town": "越後町",
    "town_kana": "エチゴマチ",
    "street": null,
    "office_name": null,
    "office_name_kana": null
  },
  "0034": {
    "postcode": "5060034",
    "prefecture": "岐阜県",
    "prefecture_kana": "ギフケン",
    "prefecture_code": 21,
    "city": "高山市",
    "city_kana": "タカヤマシ",
    "town": "松倉町",
    "town_kana": "マツクラマチ",
    "street": null,
    "office_name": null,
    "office_name_kana": null
  },
  "0035": {
    "postcode": "5060035",
    "prefecture": "岐阜県",
    "prefecture_kana": "ギフケン",
    "prefecture_code": 21,
    "city": "高山市",
    "city_kana": "タカヤマシ",
    "town": "新宮町",
    "town_kana": "シングウマチ",
    "street": null,
    "office_name": null,
    "office_name_kana": null
  },
  "0041": {
    "postcode": "5060041",
    "prefecture": "岐阜県",
    "prefecture_kana": "ギフケン",
    "prefecture_code": 21,
    "city": "高山市",
    "city_kana": "タカヤマシ",
    "town": "下切町",
    "town_kana": "シモギリマチ",
    "street": null,
    "office_name": null,
    "office_name_kana": null
  },
  "0042": {
    "postcode": "5060042",
    "prefecture": "岐阜県",
    "prefecture_kana": "ギフケン",
    "prefecture_code": 21,
    "city": "高山市",
    "city_kana": "タカヤマシ",
    "town": "旭ケ丘町",
    "town_kana": "アサヒガオカマチ",
    "street": null,
    "office_name": null,
    "office_name_kana": null
  },
  "0043": {
    "postcode": "5060043",
    "prefecture": "岐阜県",
    "prefecture_kana": "ギフケン",
    "prefecture_code": 21,
    "city": "高山市",
    "city_kana": "タカヤマシ",
    "town": "中切町",
    "town_kana": "ナカギリマチ",
    "street": null,
    "office_name": null,
    "office_name_kana": null
  },
  "0044": {
    "postcode": "5060044",
    "prefecture": "岐阜県",
    "prefecture_kana": "ギフケン",
    "prefecture_code": 21,
    "city": "高山市",
    "city_kana": "タカヤマシ",
    "town": "上切町",
    "town_kana": "カミギリマチ",
    "street": null,
    "office_name": null,
    "office_name_kana": null
  },
  "0045": {
    "postcode": "5060045",
    "prefecture": "岐阜県",
    "prefecture_kana": "ギフケン",
    "prefecture_code": 21,
    "city": "高山市",
    "city_kana": "タカヤマシ",
    "town": "赤保木町",
    "town_kana": "アカホキマチ",
    "street": null,
    "office_name": null,
    "office_name_kana": null
  },
  "0046": {
    "postcode": "5060046",
    "prefecture": "岐阜県",
    "prefecture_kana": "ギフケン",
    "prefecture_code": 21,
    "city": "高山市",
    "city_kana": "タカヤマシ",
    "town": "下之切町",
    "town_kana": "シモノキリマチ",
    "street": null,
    "office_name": null,
    "office_name_kana": null
  },
  "0047": {
    "postcode": "5060047",
    "prefecture": "岐阜県",
    "prefecture_kana": "ギフケン",
    "prefecture_code": 21,
    "city": "高山市",
    "city_kana": "タカヤマシ",
    "town": "八日町",
    "town_kana": "ヨウカマチ",
    "street": null,
    "office_name": null,
    "office_name_kana": null
  },
  "0048": {
    "postcode": "5060048",
    "prefecture": "岐阜県",
    "prefecture_kana": "ギフケン",
    "prefecture_code": 21,
    "city": "高山市",
    "city_kana": "タカヤマシ",
    "town": "前原町",
    "town_kana": "マエハラマチ",
    "street": null,
    "office_name": null,
    "office_name_kana": null
  },
  "0051": {
    "postcode": "5060051",
    "prefecture": "岐阜県",
    "prefecture_kana": "ギフケン",
    "prefecture_code": 21,
    "city": "高山市",
    "city_kana": "タカヤマシ",
    "town": "中山町",
    "town_kana": "ナカヤママチ",
    "street": null,
    "office_name": null,
    "office_name_kana": null
  },
  "0052": {
    "postcode": "5060052",
    "prefecture": "岐阜県",
    "prefecture_kana": "ギフケン",
    "prefecture_code": 21,
    "city": "高山市",
    "city_kana": "タカヤマシ",
    "town": "下岡本町",
    "town_kana": "シモオカモトマチ",
    "street": null,
    "office_name": null,
    "office_name_kana": null
  },
  "0053": {
    "postcode": "5060053",
    "prefecture": "岐阜県",
    "prefecture_kana": "ギフケン",
    "prefecture_code": 21,
    "city": "高山市",
    "city_kana": "タカヤマシ",
    "town": "昭和町",
    "town_kana": "ショウワマチ",
    "street": null,
    "office_name": null,
    "office_name_kana": null
  },
  "0054": {
    "postcode": "5060054",
    "prefecture": "岐阜県",
    "prefecture_kana": "ギフケン",
    "prefecture_code": 21,
    "city": "高山市",
    "city_kana": "タカヤマシ",
    "town": "岡本町",
    "town_kana": "オカモトマチ",
    "street": null,
    "office_name": null,
    "office_name_kana": null
  },
  "0055": {
    "postcode": "5060055",
    "prefecture": "岐阜県",
    "prefecture_kana": "ギフケン",
    "prefecture_code": 21,
    "city": "高山市",
    "city_kana": "タカヤマシ",
    "town": "上岡本町",
    "town_kana": "カミオカモトマチ",
    "street": null,
    "office_name": null,
    "office_name_kana": null
  },
  "0056": {
    "postcode": "5060056",
    "prefecture": "岐阜県",
    "prefecture_kana": "ギフケン",
    "prefecture_code": 21,
    "city": "高山市",
    "city_kana": "タカヤマシ",
    "town": "緑ケ丘町",
    "town_kana": "ミドリガオカマチ",
    "street": null,
    "office_name": null,
    "office_name_kana": null
  },
  "0057": {
    "postcode": "5060057",
    "prefecture": "岐阜県",
    "prefecture_kana": "ギフケン",
    "prefecture_code": 21,
    "city": "高山市",
    "city_kana": "タカヤマシ",
    "town": "匠ケ丘町",
    "town_kana": "タクミガオカマチ",
    "street": null,
    "office_name": null,
    "office_name_kana": null
  },
  "0058": {
    "postcode": "5060058",
    "prefecture": "岐阜県",
    "prefecture_kana": "ギフケン",
    "prefecture_code": 21,
    "city": "高山市",
    "city_kana": "タカヤマシ",
    "town": "山田町",
    "town_kana": "ヤマダマチ",
    "street": null,
    "office_name": null,
    "office_name_kana": null
  },
  "0059": {
    "postcode": "5060059",
    "prefecture": "岐阜県",
    "prefecture_kana": "ギフケン",
    "prefecture_code": 21,
    "city": "高山市",
    "city_kana": "タカヤマシ",
    "town": "下林町",
    "town_kana": "シモバヤシマチ",
    "street": null,
    "office_name": null,
    "office_name_kana": null
  },
  "0101": {
    "postcode": "5060101",
    "prefecture": "岐阜県",
    "prefecture_kana": "ギフケン",
    "prefecture_code": 21,
    "city": "高山市",
    "city_kana": "タカヤマシ",
    "town": "清見町牧ケ洞",
    "town_kana": "キヨミチョウマキガホラ",
    "street": null,
    "office_name": null,
    "office_name_kana": null
  },
  "0102": {
    "postcode": "5060102",
    "prefecture": "岐阜県",
    "prefecture_kana": "ギフケン",
    "prefecture_code": 21,
    "city": "高山市",
    "city_kana": "タカヤマシ",
    "town": "清見町三日町",
    "town_kana": "キヨミチョウミッカマチ",
    "street": null,
    "office_name": null,
    "office_name_kana": null
  },
  "0103": {
    "postcode": "5060103",
    "prefecture": "岐阜県",
    "prefecture_kana": "ギフケン",
    "prefecture_code": 21,
    "city": "高山市",
    "city_kana": "タカヤマシ",
    "town": "清見町藤瀬",
    "town_kana": "キヨミチョウフジセ",
    "street": null,
    "office_name": null,
    "office_name_kana": null
  },
  "0104": {
    "postcode": "5060104",
    "prefecture": "岐阜県",
    "prefecture_kana": "ギフケン",
    "prefecture_code": 21,
    "city": "高山市",
    "city_kana": "タカヤマシ",
    "town": "清見町福寄",
    "town_kana": "キヨミチョウフクヨリ",
    "street": null,
    "office_name": null,
    "office_name_kana": null
  },
  "0105": {
    "postcode": "5060105",
    "prefecture": "岐阜県",
    "prefecture_kana": "ギフケン",
    "prefecture_code": 21,
    "city": "高山市",
    "city_kana": "タカヤマシ",
    "town": "清見町三ツ谷",
    "town_kana": "キヨミチョウミツダニ",
    "street": null,
    "office_name": null,
    "office_name_kana": null
  },
  "0106": {
    "postcode": "5060106",
    "prefecture": "岐阜県",
    "prefecture_kana": "ギフケン",
    "prefecture_code": 21,
    "city": "高山市",
    "city_kana": "タカヤマシ",
    "town": "清見町坂下",
    "town_kana": "キヨミチョウサカシタ",
    "street": null,
    "office_name": null,
    "office_name_kana": null
  },
  "0107": {
    "postcode": "5060107",
    "prefecture": "岐阜県",
    "prefecture_kana": "ギフケン",
    "prefecture_code": 21,
    "city": "高山市",
    "city_kana": "タカヤマシ",
    "town": "清見町巣野俣",
    "town_kana": "キヨミチョウスノマタ",
    "street": null,
    "office_name": null,
    "office_name_kana": null
  },
  "0192": {
    "postcode": "5060192",
    "prefecture": "岐阜県",
    "prefecture_kana": "ギフケン",
    "prefecture_code": 21,
    "city": "高山市",
    "city_kana": "タカヤマシ",
    "town": "清見町三日町",
    "town_kana": "キヨミチョウミッカマチ",
    "street": "３０５",
    "office_name": "高山市役所　清見支所",
    "office_name_kana": "タカヤマシヤクシヨ キヨミシシヨ"
  },
  "0194": {
    "postcode": "5060194",
    "prefecture": "岐阜県",
    "prefecture_kana": "ギフケン",
    "prefecture_code": 21,
    "city": "高山市",
    "city_kana": "タカヤマシ",
    "town": "清見町牧ケ洞",
    "town_kana": "キヨミチョウマキガホラ",
    "street": "８４６",
    "office_name": "オーク・ヴィレッジ　（株）",
    "office_name_kana": "オ-ク・ヴイレツジ (カブ)"
  },
  "0201": {
    "postcode": "5060201",
    "prefecture": "岐阜県",
    "prefecture_kana": "ギフケン",
    "prefecture_code": 21,
    "city": "高山市",
    "city_kana": "タカヤマシ",
    "town": "清見町江黒",
    "town_kana": "キヨミチョウエグロ",
    "street": null,
    "office_name": null,
    "office_name_kana": null
  },
  "0202": {
    "postcode": "5060202",
    "prefecture": "岐阜県",
    "prefecture_kana": "ギフケン",
    "prefecture_code": 21,
    "city": "高山市",
    "city_kana": "タカヤマシ",
    "town": "清見町大谷",
    "town_kana": "キヨミチョウオオタニ",
    "street": null,
    "office_name": null,
    "office_name_kana": null
  },
  "0203": {
    "postcode": "5060203",
    "prefecture": "岐阜県",
    "prefecture_kana": "ギフケン",
    "prefecture_code": 21,
    "city": "高山市",
    "city_kana": "タカヤマシ",
    "town": "清見町池本",
    "town_kana": "キヨミチョウイケモト",
    "street": null,
    "office_name": null,
    "office_name_kana": null
  },
  "0204": {
    "postcode": "5060204",
    "prefecture": "岐阜県",
    "prefecture_kana": "ギフケン",
    "prefecture_code": 21,
    "city": "高山市",
    "city_kana": "タカヤマシ",
    "town": "清見町二本木",
    "town_kana": "キヨミチョウニホンギ",
    "street": null,
    "office_name": null,
    "office_name_kana": null
  },
  "0205": {
    "postcode": "5060205",
    "prefecture": "岐阜県",
    "prefecture_kana": "ギフケン",
    "prefecture_code": 21,
    "city": "高山市",
    "city_kana": "タカヤマシ",
    "town": "清見町夏厩",
    "town_kana": "キヨミチョウナツマヤ",
    "street": null,
    "office_name": null,
    "office_name_kana": null
  },
  "0206": {
    "postcode": "5060206",
    "prefecture": "岐阜県",
    "prefecture_kana": "ギフケン",
    "prefecture_code": 21,
    "city": "高山市",
    "city_kana": "タカヤマシ",
    "town": "清見町上小鳥",
    "town_kana": "キヨミチョウカミオドリ",
    "street": null,
    "office_name": null,
    "office_name_kana": null
  },
  "0207": {
    "postcode": "5060207",
    "prefecture": "岐阜県",
    "prefecture_kana": "ギフケン",
    "prefecture_code": 21,
    "city": "高山市",
    "city_kana": "タカヤマシ",
    "town": "清見町森茂",
    "town_kana": "キヨミチョウモリモ",
    "street": null,
    "office_name": null,
    "office_name_kana": null
  },
  "0271": {
    "postcode": "5060271",
    "prefecture": "岐阜県",
    "prefecture_kana": "ギフケン",
    "prefecture_code": 21,
    "city": "飛騨市",
    "city_kana": "ヒダシ",
    "town": "河合町舟原",
    "town_kana": "カワイチョウフナバラ",
    "street": null,
    "office_name": null,
    "office_name_kana": null
  },
  "0801": {
    "postcode": "5060801",
    "prefecture": "岐阜県",
    "prefecture_kana": "ギフケン",
    "prefecture_code": 21,
    "city": "高山市",
    "city_kana": "タカヤマシ",
    "town": "上野町",
    "town_kana": "ウワノマチ",
    "street": null,
    "office_name": null,
    "office_name_kana": null
  },
  "0802": {
    "postcode": "5060802",
    "prefecture": "岐阜県",
    "prefecture_kana": "ギフケン",
    "prefecture_code": 21,
    "city": "高山市",
    "city_kana": "タカヤマシ",
    "town": "松之木町",
    "town_kana": "マツノキマチ",
    "street": null,
    "office_name": null,
    "office_name_kana": null
  },
  "0803": {
    "postcode": "5060803",
    "prefecture": "岐阜県",
    "prefecture_kana": "ギフケン",
    "prefecture_code": 21,
    "city": "高山市",
    "city_kana": "タカヤマシ",
    "town": "日の出町",
    "town_kana": "ヒノデマチ",
    "street": null,
    "office_name": null,
    "office_name_kana": null
  },
  "0804": {
    "postcode": "5060804",
    "prefecture": "岐阜県",
    "prefecture_kana": "ギフケン",
    "prefecture_code": 21,
    "city": "高山市",
    "city_kana": "タカヤマシ",
    "town": "長坂町",
    "town_kana": "ナガサカマチ",
    "street": null,
    "office_name": null,
    "office_name_kana": null
  },
  "0805": {
    "postcode": "5060805",
    "prefecture": "岐阜県",
    "prefecture_kana": "ギフケン",
    "prefecture_code": 21,
    "city": "高山市",
    "city_kana": "タカヤマシ",
    "town": "東山町",
    "town_kana": "ヒガシヤママチ",
    "street": null,
    "office_name": null,
    "office_name_kana": null
  },
  "0806": {
    "postcode": "5060806",
    "prefecture": "岐阜県",
    "prefecture_kana": "ギフケン",
    "prefecture_code": 21,
    "city": "高山市",
    "city_kana": "タカヤマシ",
    "town": "曙町",
    "town_kana": "アケボノマチ",
    "street": null,
    "office_name": null,
    "office_name_kana": null
  },
  "0807": {
    "postcode": "5060807",
    "prefecture": "岐阜県",
    "prefecture_kana": "ギフケン",
    "prefecture_code": 21,
    "city": "高山市",
    "city_kana": "タカヤマシ",
    "town": "三福寺町",
    "town_kana": "サンフクジマチ",
    "street": null,
    "office_name": null,
    "office_name_kana": null
  },
  "0808": {
    "postcode": "5060808",
    "prefecture": "岐阜県",
    "prefecture_kana": "ギフケン",
    "prefecture_code": 21,
    "city": "高山市",
    "city_kana": "タカヤマシ",
    "town": "松本町",
    "town_kana": "マツモトマチ",
    "street": null,
    "office_name": null,
    "office_name_kana": null
  },
  "0811": {
    "postcode": "5060811",
    "prefecture": "岐阜県",
    "prefecture_kana": "ギフケン",
    "prefecture_code": 21,
    "city": "高山市",
    "city_kana": "タカヤマシ",
    "town": "大洞町",
    "town_kana": "オオボラマチ",
    "street": null,
    "office_name": null,
    "office_name_kana": null
  },
  "0812": {
    "postcode": "5060812",
    "prefecture": "岐阜県",
    "prefecture_kana": "ギフケン",
    "prefecture_code": 21,
    "city": "高山市",
    "city_kana": "タカヤマシ",
    "town": "漆垣内町",
    "town_kana": "ウルシガイトウマチ",
    "street": null,
    "office_name": null,
    "office_name_kana": null
  },
  "0813": {
    "postcode": "5060813",
    "prefecture": "岐阜県",
    "prefecture_kana": "ギフケン",
    "prefecture_code": 21,
    "city": "高山市",
    "city_kana": "タカヤマシ",
    "town": "塩屋町",
    "town_kana": "シオヤマチ",
    "street": null,
    "office_name": null,
    "office_name_kana": null
  },
  "0814": {
    "postcode": "5060814",
    "prefecture": "岐阜県",
    "prefecture_kana": "ギフケン",
    "prefecture_code": 21,
    "city": "高山市",
    "city_kana": "タカヤマシ",
    "town": "滝町",
    "town_kana": "タキマチ",
    "street": null,
    "office_name": null,
    "office_name_kana": null
  },
  "0815": {
    "postcode": "5060815",
    "prefecture": "岐阜県",
    "prefecture_kana": "ギフケン",
    "prefecture_code": 21,
    "city": "高山市",
    "city_kana": "タカヤマシ",
    "town": "岩井町",
    "town_kana": "イワイマチ",
    "street": null,
    "office_name": null,
    "office_name_kana": null
  },
  "0816": {
    "postcode": "5060816",
    "prefecture": "岐阜県",
    "prefecture_kana": "ギフケン",
    "prefecture_code": 21,
    "city": "高山市",
    "city_kana": "タカヤマシ",
    "town": "大島町",
    "town_kana": "オオジママチ",
    "street": null,
    "office_name": null,
    "office_name_kana": null
  },
  "0817": {
    "postcode": "5060817",
    "prefecture": "岐阜県",
    "prefecture_kana": "ギフケン",
    "prefecture_code": 21,
    "city": "高山市",
    "city_kana": "タカヤマシ",
    "town": "山口町",
    "town_kana": "ヤマグチマチ",
    "street": null,
    "office_name": null,
    "office_name_kana": null
  },
  "0818": {
    "postcode": "5060818",
    "prefecture": "岐阜県",
    "prefecture_kana": "ギフケン",
    "prefecture_code": 21,
    "city": "高山市",
    "city_kana": "タカヤマシ",
    "town": "江名子町",
    "town_kana": "エナコマチ",
    "street": null,
    "office_name": null,
    "office_name_kana": null
  },
  "0821": {
    "postcode": "5060821",
    "prefecture": "岐阜県",
    "prefecture_kana": "ギフケン",
    "prefecture_code": 21,
    "city": "高山市",
    "city_kana": "タカヤマシ",
    "town": "神明町",
    "town_kana": "シンメイマチ",
    "street": null,
    "office_name": null,
    "office_name_kana": null
  },
  "0822": {
    "postcode": "5060822",
    "prefecture": "岐阜県",
    "prefecture_kana": "ギフケン",
    "prefecture_code": 21,
    "city": "高山市",
    "city_kana": "タカヤマシ",
    "town": "城山",
    "town_kana": "シロヤマ",
    "street": null,
    "office_name": null,
    "office_name_kana": null
  },
  "0823": {
    "postcode": "5060823",
    "prefecture": "岐阜県",
    "prefecture_kana": "ギフケン",
    "prefecture_code": 21,
    "city": "高山市",
    "city_kana": "タカヤマシ",
    "town": "森下町",
    "town_kana": "モリシタマチ",
    "street": null,
    "office_name": null,
    "office_name_kana": null
  },
  "0824": {
    "postcode": "5060824",
    "prefecture": "岐阜県",
    "prefecture_kana": "ギフケン",
    "prefecture_code": 21,
    "city": "高山市",
    "city_kana": "タカヤマシ",
    "town": "片野町",
    "town_kana": "カタノマチ",
    "street": null,
    "office_name": null,
    "office_name_kana": null
  },
  "0825": {
    "postcode": "5060825",
    "prefecture": "岐阜県",
    "prefecture_kana": "ギフケン",
    "prefecture_code": 21,
    "city": "高山市",
    "city_kana": "タカヤマシ",
    "town": "石浦町",
    "town_kana": "イシウラマチ",
    "street": null,
    "office_name": null,
    "office_name_kana": null
  },
  "0831": {
    "postcode": "5060831",
    "prefecture": "岐阜県",
    "prefecture_kana": "ギフケン",
    "prefecture_code": 21,
    "city": "高山市",
    "city_kana": "タカヤマシ",
    "town": "吹屋町",
    "town_kana": "フキヤマチ",
    "street": null,
    "office_name": null,
    "office_name_kana": null
  },
  "0832": {
    "postcode": "5060832",
    "prefecture": "岐阜県",
    "prefecture_kana": "ギフケン",
    "prefecture_code": 21,
    "city": "高山市",
    "city_kana": "タカヤマシ",
    "town": "天性寺町",
    "town_kana": "テンショウジマチ",
    "street": null,
    "office_name": null,
    "office_name_kana": null
  },
  "0833": {
    "postcode": "5060833",
    "prefecture": "岐阜県",
    "prefecture_kana": "ギフケン",
    "prefecture_code": 21,
    "city": "高山市",
    "city_kana": "タカヤマシ",
    "town": "西洞町",
    "town_kana": "ニシボラマチ",
    "street": null,
    "office_name": null,
    "office_name_kana": null
  },
  "0834": {
    "postcode": "5060834",
    "prefecture": "岐阜県",
    "prefecture_kana": "ギフケン",
    "prefecture_code": 21,
    "city": "高山市",
    "city_kana": "タカヤマシ",
    "town": "宗猷寺町",
    "town_kana": "ソウユウジマチ",
    "street": null,
    "office_name": null,
    "office_name_kana": null
  },
  "0835": {
    "postcode": "5060835",
    "prefecture": "岐阜県",
    "prefecture_kana": "ギフケン",
    "prefecture_code": 21,
    "city": "高山市",
    "city_kana": "タカヤマシ",
    "town": "春日町",
    "town_kana": "カスガマチ",
    "street": null,
    "office_name": null,
    "office_name_kana": null
  },
  "0836": {
    "postcode": "5060836",
    "prefecture": "岐阜県",
    "prefecture_kana": "ギフケン",
    "prefecture_code": 21,
    "city": "高山市",
    "city_kana": "タカヤマシ",
    "town": "島川原町",
    "town_kana": "シマカワハラマチ",
    "street": null,
    "office_name": null,
    "office_name_kana": null
  },
  "0837": {
    "postcode": "5060837",
    "prefecture": "岐阜県",
    "prefecture_kana": "ギフケン",
    "prefecture_code": 21,
    "city": "高山市",
    "city_kana": "タカヤマシ",
    "town": "堀端町",
    "town_kana": "ホリバタマチ",
    "street": null,
    "office_name": null,
    "office_name_kana": null
  },
  "0838": {
    "postcode": "5060838",
    "prefecture": "岐阜県",
    "prefecture_kana": "ギフケン",
    "prefecture_code": 21,
    "city": "高山市",
    "city_kana": "タカヤマシ",
    "town": "馬場町",
    "town_kana": "ババマチ",
    "street": null,
    "office_name": null,
    "office_name_kana": null
  },
  "0841": {
    "postcode": "5060841",
    "prefecture": "岐阜県",
    "prefecture_kana": "ギフケン",
    "prefecture_code": 21,
    "city": "高山市",
    "city_kana": "タカヤマシ",
    "town": "下三之町",
    "town_kana": "シモ3ノマチ",
    "street": null,
    "office_name": null,
    "office_name_kana": null
  },
  "0842": {
    "postcode": "5060842",
    "prefecture": "岐阜県",
    "prefecture_kana": "ギフケン",
    "prefecture_code": 21,
    "city": "高山市",
    "city_kana": "タカヤマシ",
    "town": "下二之町",
    "town_kana": "シモ2ノマチ",
    "street": null,
    "office_name": null,
    "office_name_kana": null
  },
  "0843": {
    "postcode": "5060843",
    "prefecture": "岐阜県",
    "prefecture_kana": "ギフケン",
    "prefecture_code": 21,
    "city": "高山市",
    "city_kana": "タカヤマシ",
    "town": "下一之町",
    "town_kana": "シモ1ノマチ",
    "street": null,
    "office_name": null,
    "office_name_kana": null
  },
  "0844": {
    "postcode": "5060844",
    "prefecture": "岐阜県",
    "prefecture_kana": "ギフケン",
    "prefecture_code": 21,
    "city": "高山市",
    "city_kana": "タカヤマシ",
    "town": "上一之町",
    "town_kana": "カミ1ノマチ",
    "street": null,
    "office_name": null,
    "office_name_kana": null
  },
  "0845": {
    "postcode": "5060845",
    "prefecture": "岐阜県",
    "prefecture_kana": "ギフケン",
    "prefecture_code": 21,
    "city": "高山市",
    "city_kana": "タカヤマシ",
    "town": "上二之町",
    "town_kana": "カミ2ノマチ",
    "street": null,
    "office_name": null,
    "office_name_kana": null
  },
  "0846": {
    "postcode": "5060846",
    "prefecture": "岐阜県",
    "prefecture_kana": "ギフケン",
    "prefecture_code": 21,
    "city": "高山市",
    "city_kana": "タカヤマシ",
    "town": "上三之町",
    "town_kana": "カミ3ノマチ",
    "street": null,
    "office_name": null,
    "office_name_kana": null
  },
  "0847": {
    "postcode": "5060847",
    "prefecture": "岐阜県",
    "prefecture_kana": "ギフケン",
    "prefecture_code": 21,
    "city": "高山市",
    "city_kana": "タカヤマシ",
    "town": "片原町",
    "town_kana": "カタハラマチ",
    "street": null,
    "office_name": null,
    "office_name_kana": null
  },
  "0851": {
    "postcode": "5060851",
    "prefecture": "岐阜県",
    "prefecture_kana": "ギフケン",
    "prefecture_code": 21,
    "city": "高山市",
    "city_kana": "タカヤマシ",
    "town": "大新町",
    "town_kana": "オオシンマチ",
    "street": null,
    "office_name": null,
    "office_name_kana": null
  },
  "0852": {
    "postcode": "5060852",
    "prefecture": "岐阜県",
    "prefecture_kana": "ギフケン",
    "prefecture_code": 21,
    "city": "高山市",
    "city_kana": "タカヤマシ",
    "town": "八幡町",
    "town_kana": "ハチマンマチ",
    "street": null,
    "office_name": null,
    "office_name_kana": null
  },
  "0853": {
    "postcode": "5060853",
    "prefecture": "岐阜県",
    "prefecture_kana": "ギフケン",
    "prefecture_code": 21,
    "city": "高山市",
    "city_kana": "タカヤマシ",
    "town": "左京町",
    "town_kana": "サキョウマチ",
    "street": null,
    "office_name": null,
    "office_name_kana": null
  },
  "0854": {
    "postcode": "5060854",
    "prefecture": "岐阜県",
    "prefecture_kana": "ギフケン",
    "prefecture_code": 21,
    "city": "高山市",
    "city_kana": "タカヤマシ",
    "town": "若達町",
    "town_kana": "ワカタツマチ",
    "street": null,
    "office_name": null,
    "office_name_kana": null
  },
  "0855": {
    "postcode": "5060855",
    "prefecture": "岐阜県",
    "prefecture_kana": "ギフケン",
    "prefecture_code": 21,
    "city": "高山市",
    "city_kana": "タカヤマシ",
    "town": "愛宕町",
    "town_kana": "アタゴマチ",
    "street": null,
    "office_name": null,
    "office_name_kana": null
  },
  "0856": {
    "postcode": "5060856",
    "prefecture": "岐阜県",
    "prefecture_kana": "ギフケン",
    "prefecture_code": 21,
    "city": "高山市",
    "city_kana": "タカヤマシ",
    "town": "大門町",
    "town_kana": "ダイモンマチ",
    "street": null,
    "office_name": null,
    "office_name_kana": null
  },
  "0857": {
    "postcode": "5060857",
    "prefecture": "岐阜県",
    "prefecture_kana": "ギフケン",
    "prefecture_code": 21,
    "city": "高山市",
    "city_kana": "タカヤマシ",
    "town": "鉄砲町",
    "town_kana": "テッポウマチ",
    "street": null,
    "office_name": null,
    "office_name_kana": null
  },
  "0858": {
    "postcode": "5060858",
    "prefecture": "岐阜県",
    "prefecture_kana": "ギフケン",
    "prefecture_code": 21,
    "city": "高山市",
    "city_kana": "タカヤマシ",
    "town": "桜町",
    "town_kana": "サクラマチ",
    "street": null,
    "office_name": null,
    "office_name_kana": null
  },
  "1100": {
    "postcode": "5061100",
    "prefecture": "岐阜県",
    "prefecture_kana": "ギフケン",
    "prefecture_code": 21,
    "city": "飛騨市",
    "city_kana": "ヒダシ",
    "town": "",
    "town_kana": "",
    "street": null,
    "office_name": null,
    "office_name_kana": null
  },
  "1101": {
    "postcode": "5061101",
    "prefecture": "岐阜県",
    "prefecture_kana": "ギフケン",
    "prefecture_code": 21,
    "city": "飛騨市",
    "city_kana": "ヒダシ",
    "town": "神岡町和佐府",
    "town_kana": "カミオカチョウワサフ",
    "street": null,
    "office_name": null,
    "office_name_kana": null
  },
  "1102": {
    "postcode": "5061102",
    "prefecture": "岐阜県",
    "prefecture_kana": "ギフケン",
    "prefecture_code": 21,
    "city": "飛騨市",
    "city_kana": "ヒダシ",
    "town": "神岡町打保",
    "town_kana": "カミオカチョウウツボ",
    "street": null,
    "office_name": null,
    "office_name_kana": null
  },
  "1103": {
    "postcode": "5061103",
    "prefecture": "岐阜県",
    "prefecture_kana": "ギフケン",
    "prefecture_code": 21,
    "city": "飛騨市",
    "city_kana": "ヒダシ",
    "town": "神岡町岩井谷",
    "town_kana": "カミオカチョウイワイダニ",
    "street": null,
    "office_name": null,
    "office_name_kana": null
  },
  "1104": {
    "postcode": "5061104",
    "prefecture": "岐阜県",
    "prefecture_kana": "ギフケン",
    "prefecture_code": 21,
    "city": "飛騨市",
    "city_kana": "ヒダシ",
    "town": "神岡町森茂",
    "town_kana": "カミオカチョウモリモ",
    "street": null,
    "office_name": null,
    "office_name_kana": null
  },
  "1105": {
    "postcode": "5061105",
    "prefecture": "岐阜県",
    "prefecture_kana": "ギフケン",
    "prefecture_code": 21,
    "city": "飛騨市",
    "city_kana": "ヒダシ",
    "town": "神岡町和佐保",
    "town_kana": "カミオカチョウワサボ",
    "street": null,
    "office_name": null,
    "office_name_kana": null
  },
  "1106": {
    "postcode": "5061106",
    "prefecture": "岐阜県",
    "prefecture_kana": "ギフケン",
    "prefecture_code": 21,
    "city": "飛騨市",
    "city_kana": "ヒダシ",
    "town": "神岡町伊西",
    "town_kana": "カミオカチョウイニシ",
    "street": null,
    "office_name": null,
    "office_name_kana": null
  },
  "1107": {
    "postcode": "5061107",
    "prefecture": "岐阜県",
    "prefecture_kana": "ギフケン",
    "prefecture_code": 21,
    "city": "飛騨市",
    "city_kana": "ヒダシ",
    "town": "神岡町下之本",
    "town_kana": "カミオカチョウシモノモト",
    "street": null,
    "office_name": null,
    "office_name_kana": null
  },
  "1108": {
    "postcode": "5061108",
    "prefecture": "岐阜県",
    "prefecture_kana": "ギフケン",
    "prefecture_code": 21,
    "city": "飛騨市",
    "city_kana": "ヒダシ",
    "town": "神岡町瀬戸",
    "town_kana": "カミオカチョウセト",
    "street": null,
    "office_name": null,
    "office_name_kana": null
  },
  "1111": [
    {
      "postcode": "5061111",
      "prefecture": "岐阜県",
      "prefecture_kana": "ギフケン",
      "prefecture_code": 21,
      "city": "飛騨市",
      "city_kana": "ヒダシ",
      "town": "神岡町東町",
      "town_kana": "カミオカチョウヒガシマチ",
      "street": null,
      "office_name": null,
      "office_name_kana": null
    },
    {
      "postcode": "5061111",
      "prefecture": "岐阜県",
      "prefecture_kana": "ギフケン",
      "prefecture_code": 21,
      "city": "飛騨市",
      "city_kana": "ヒダシ",
      "town": "神岡町六郎",
      "town_kana": "カミオカチョウロクロウ",
      "street": null,
      "office_name": null,
      "office_name_kana": null
    }
  ],
  "1112": {
    "postcode": "5061112",
    "prefecture": "岐阜県",
    "prefecture_kana": "ギフケン",
    "prefecture_code": 21,
    "city": "飛騨市",
    "city_kana": "ヒダシ",
    "town": "神岡町割石",
    "town_kana": "カミオカチョウワリイシ",
    "street": null,
    "office_name": null,
    "office_name_kana": null
  },
  "1113": {
    "postcode": "5061113",
    "prefecture": "岐阜県",
    "prefecture_kana": "ギフケン",
    "prefecture_code": 21,
    "city": "飛騨市",
    "city_kana": "ヒダシ",
    "town": "神岡町吉ケ原",
    "town_kana": "カミオカチョウヨシガハラ",
    "street": null,
    "office_name": null,
    "office_name_kana": null
  },
  "1114": {
    "postcode": "5061114",
    "prefecture": "岐阜県",
    "prefecture_kana": "ギフケン",
    "prefecture_code": 21,
    "city": "飛騨市",
    "city_kana": "ヒダシ",
    "town": "神岡町鹿間",
    "town_kana": "カミオカチョウシカマ",
    "street": null,
    "office_name": null,
    "office_name_kana": null
  },
  "1121": [
    {
      "postcode": "5061121",
      "prefecture": "岐阜県",
      "prefecture_kana": "ギフケン",
      "prefecture_code": 21,
      "city": "飛騨市",
      "city_kana": "ヒダシ",
      "town": "神岡町旭ケ丘",
      "town_kana": "カミオカチョウアサヒガオカ",
      "street": null,
      "office_name": null,
      "office_name_kana": null
    },
    {
      "postcode": "5061121",
      "prefecture": "岐阜県",
      "prefecture_kana": "ギフケン",
      "prefecture_code": 21,
      "city": "飛騨市",
      "city_kana": "ヒダシ",
      "town": "神岡町殿",
      "town_kana": "カミオカチョウトノ",
      "street": null,
      "office_name": null,
      "office_name_kana": null
    }
  ],
  "1122": {
    "postcode": "5061122",
    "prefecture": "岐阜県",
    "prefecture_kana": "ギフケン",
    "prefecture_code": 21,
    "city": "飛騨市",
    "city_kana": "ヒダシ",
    "town": "神岡町坂富町",
    "town_kana": "カミオカチョウサカトミチョウ",
    "street": null,
    "office_name": null,
    "office_name_kana": null
  },
  "1123": {
    "postcode": "5061123",
    "prefecture": "岐阜県",
    "prefecture_kana": "ギフケン",
    "prefecture_code": 21,
    "city": "飛騨市",
    "city_kana": "ヒダシ",
    "town": "神岡町城ケ丘",
    "town_kana": "カミオカチョウシロガオカ",
    "street": null,
    "office_name": null,
    "office_name_kana": null
  },
  "1124": {
    "postcode": "5061124",
    "prefecture": "岐阜県",
    "prefecture_kana": "ギフケン",
    "prefecture_code": 21,
    "city": "飛騨市",
    "city_kana": "ヒダシ",
    "town": "神岡町夕陽ケ丘",
    "town_kana": "カミオカチョウユウヒガオカ",
    "street": null,
    "office_name": null,
    "office_name_kana": null
  },
  "1125": {
    "postcode": "5061125",
    "prefecture": "岐阜県",
    "prefecture_kana": "ギフケン",
    "prefecture_code": 21,
    "city": "飛騨市",
    "city_kana": "ヒダシ",
    "town": "神岡町江馬町",
    "town_kana": "カミオカチョウエマチョウ",
    "street": null,
    "office_name": null,
    "office_name_kana": null
  },
  "1126": {
    "postcode": "5061126",
    "prefecture": "岐阜県",
    "prefecture_kana": "ギフケン",
    "prefecture_code": 21,
    "city": "飛騨市",
    "city_kana": "ヒダシ",
    "town": "神岡町桜ケ丘",
    "town_kana": "カミオカチョウサクラガオカ",
    "street": null,
    "office_name": null,
    "office_name_kana": null
  },
  "1131": {
    "postcode": "5061131",
    "prefecture": "岐阜県",
    "prefecture_kana": "ギフケン",
    "prefecture_code": 21,
    "city": "飛騨市",
    "city_kana": "ヒダシ",
    "town": "神岡町麻生野",
    "town_kana": "カミオカチョウアソヤ",
    "street": null,
    "office_name": null,
    "office_name_kana": null
  },
  "1132": {
    "postcode": "5061132",
    "prefecture": "岐阜県",
    "prefecture_kana": "ギフケン",
    "prefecture_code": 21,
    "city": "飛騨市",
    "city_kana": "ヒダシ",
    "town": "神岡町石神",
    "town_kana": "カミオカチョウイシガミ",
    "street": null,
    "office_name": null,
    "office_name_kana": null
  },
  "1133": {
    "postcode": "5061133",
    "prefecture": "岐阜県",
    "prefecture_kana": "ギフケン",
    "prefecture_code": 21,
    "city": "飛騨市",
    "city_kana": "ヒダシ",
    "town": "神岡町数河",
    "town_kana": "カミオカチョウスゴウ",
    "street": null,
    "office_name": null,
    "office_name_kana": null
  },
  "1141": {
    "postcode": "5061141",
    "prefecture": "岐阜県",
    "prefecture_kana": "ギフケン",
    "prefecture_code": 21,
    "city": "飛騨市",
    "city_kana": "ヒダシ",
    "town": "神岡町野首",
    "town_kana": "カミオカチョウノクビ",
    "street": null,
    "office_name": null,
    "office_name_kana": null
  },
  "1142": {
    "postcode": "5061142",
    "prefecture": "岐阜県",
    "prefecture_kana": "ギフケン",
    "prefecture_code": 21,
    "city": "飛騨市",
    "city_kana": "ヒダシ",
    "town": "神岡町丸山",
    "town_kana": "カミオカチョウマルヤマ",
    "street": null,
    "office_name": null,
    "office_name_kana": null
  },
  "1143": {
    "postcode": "5061143",
    "prefecture": "岐阜県",
    "prefecture_kana": "ギフケン",
    "prefecture_code": 21,
    "city": "飛騨市",
    "city_kana": "ヒダシ",
    "town": "神岡町小萱",
    "town_kana": "カミオカチョウコカヤ",
    "street": null,
    "office_name": null,
    "office_name_kana": null
  },
  "1144": {
    "postcode": "5061144",
    "prefecture": "岐阜県",
    "prefecture_kana": "ギフケン",
    "prefecture_code": 21,
    "city": "飛騨市",
    "city_kana": "ヒダシ",
    "town": "神岡町吉田",
    "town_kana": "カミオカチョウヨシダ",
    "street": null,
    "office_name": null,
    "office_name_kana": null
  },
  "1145": {
    "postcode": "5061145",
    "prefecture": "岐阜県",
    "prefecture_kana": "ギフケン",
    "prefecture_code": 21,
    "city": "飛騨市",
    "city_kana": "ヒダシ",
    "town": "神岡町釜崎",
    "town_kana": "カミオカチョウカマサキ",
    "street": null,
    "office_name": null,
    "office_name_kana": null
  },
  "1146": {
    "postcode": "5061146",
    "prefecture": "岐阜県",
    "prefecture_kana": "ギフケン",
    "prefecture_code": 21,
    "city": "飛騨市",
    "city_kana": "ヒダシ",
    "town": "神岡町緑ケ丘",
    "town_kana": "カミオカチョウミドリガオカ",
    "street": null,
    "office_name": null,
    "office_name_kana": null
  },
  "1147": {
    "postcode": "5061147",
    "prefecture": "岐阜県",
    "prefecture_kana": "ギフケン",
    "prefecture_code": 21,
    "city": "飛騨市",
    "city_kana": "ヒダシ",
    "town": "神岡町東雲",
    "town_kana": "カミオカチョウアズモ",
    "street": null,
    "office_name": null,
    "office_name_kana": null
  },
  "1148": {
    "postcode": "5061148",
    "prefecture": "岐阜県",
    "prefecture_kana": "ギフケン",
    "prefecture_code": 21,
    "city": "飛騨市",
    "city_kana": "ヒダシ",
    "town": "神岡町館野町",
    "town_kana": "カミオカチョウタテノチョウ",
    "street": null,
    "office_name": null,
    "office_name_kana": null
  },
  "1149": {
    "postcode": "5061149",
    "prefecture": "岐阜県",
    "prefecture_kana": "ギフケン",
    "prefecture_code": 21,
    "city": "飛騨市",
    "city_kana": "ヒダシ",
    "town": "神岡町阿曽保",
    "town_kana": "カミオカチョウアソボ",
    "street": null,
    "office_name": null,
    "office_name_kana": null
  },
  "1151": {
    "postcode": "5061151",
    "prefecture": "岐阜県",
    "prefecture_kana": "ギフケン",
    "prefecture_code": 21,
    "city": "飛騨市",
    "city_kana": "ヒダシ",
    "town": "神岡町梨ケ根",
    "town_kana": "カミオカチョウナシガネ",
    "street": null,
    "office_name": null,
    "office_name_kana": null
  },
  "1152": {
    "postcode": "5061152",
    "prefecture": "岐阜県",
    "prefecture_kana": "ギフケン",
    "prefecture_code": 21,
    "city": "飛騨市",
    "city_kana": "ヒダシ",
    "town": "神岡町寺林",
    "town_kana": "カミオカチョウテラバヤシ",
    "street": null,
    "office_name": null,
    "office_name_kana": null
  },
  "1153": {
    "postcode": "5061153",
    "prefecture": "岐阜県",
    "prefecture_kana": "ギフケン",
    "prefecture_code": 21,
    "city": "飛騨市",
    "city_kana": "ヒダシ",
    "town": "神岡町堀之内",
    "town_kana": "カミオカチョウホリノウチ",
    "street": null,
    "office_name": null,
    "office_name_kana": null
  },
  "1154": {
    "postcode": "5061154",
    "prefecture": "岐阜県",
    "prefecture_kana": "ギフケン",
    "prefecture_code": 21,
    "city": "飛騨市",
    "city_kana": "ヒダシ",
    "town": "神岡町伏方",
    "town_kana": "カミオカチョウフセガタ",
    "street": null,
    "office_name": null,
    "office_name_kana": null
  },
  "1155": {
    "postcode": "5061155",
    "prefecture": "岐阜県",
    "prefecture_kana": "ギフケン",
    "prefecture_code": 21,
    "city": "飛騨市",
    "city_kana": "ヒダシ",
    "town": "神岡町西",
    "town_kana": "カミオカチョウニシ",
    "street": null,
    "office_name": null,
    "office_name_kana": null
  },
  "1156": {
    "postcode": "5061156",
    "prefecture": "岐阜県",
    "prefecture_kana": "ギフケン",
    "prefecture_code": 21,
    "city": "飛騨市",
    "city_kana": "ヒダシ",
    "town": "神岡町山田",
    "town_kana": "カミオカチョウヤマダ",
    "street": null,
    "office_name": null,
    "office_name_kana": null
  },
  "1157": {
    "postcode": "5061157",
    "prefecture": "岐阜県",
    "prefecture_kana": "ギフケン",
    "prefecture_code": 21,
    "city": "飛騨市",
    "city_kana": "ヒダシ",
    "town": "神岡町巣山",
    "town_kana": "カミオカチョウスヤマ",
    "street": null,
    "office_name": null,
    "office_name_kana": null
  },
  "1158": {
    "postcode": "5061158",
    "prefecture": "岐阜県",
    "prefecture_kana": "ギフケン",
    "prefecture_code": 21,
    "city": "飛騨市",
    "city_kana": "ヒダシ",
    "town": "神岡町柏原",
    "town_kana": "カミオカチョウカシハラ",
    "street": null,
    "office_name": null,
    "office_name_kana": null
  },
  "1161": [
    {
      "postcode": "5061161",
      "prefecture": "岐阜県",
      "prefecture_kana": "ギフケン",
      "prefecture_code": 21,
      "city": "飛騨市",
      "city_kana": "ヒダシ",
      "town": "神岡町船津",
      "town_kana": "カミオカチョウフナツ",
      "street": null,
      "office_name": null,
      "office_name_kana": null
    },
    {
      "postcode": "5061161",
      "prefecture": "岐阜県",
      "prefecture_kana": "ギフケン",
      "prefecture_code": 21,
      "city": "飛騨市",
      "city_kana": "ヒダシ",
      "town": "神岡町牧ケ平",
      "town_kana": "カミオカチョウマキガヒラ",
      "street": null,
      "office_name": null,
      "office_name_kana": null
    }
  ],
  "1162": {
    "postcode": "5061162",
    "prefecture": "岐阜県",
    "prefecture_kana": "ギフケン",
    "prefecture_code": 21,
    "city": "飛騨市",
    "city_kana": "ヒダシ",
    "town": "神岡町朝浦",
    "town_kana": "カミオカチョウアソラ",
    "street": null,
    "office_name": null,
    "office_name_kana": null
  },
  "1195": {
    "postcode": "5061195",
    "prefecture": "岐阜県",
    "prefecture_kana": "ギフケン",
    "prefecture_code": 21,
    "city": "飛騨市",
    "city_kana": "ヒダシ",
    "town": "神岡町東町",
    "town_kana": "カミオカチョウヒガシマチ",
    "street": "３７８",
    "office_name": "飛騨市　神岡振興事務所",
    "office_name_kana": "ヒダシ カミオカシンコウジムシヨ"
  },
  "1196": {
    "postcode": "5061196",
    "prefecture": "岐阜県",
    "prefecture_kana": "ギフケン",
    "prefecture_code": 21,
    "city": "飛騨市",
    "city_kana": "ヒダシ",
    "town": "神岡町鹿間",
    "town_kana": "カミオカチョウシカマ",
    "street": "１−１",
    "office_name": "神岡鉱業　株式会社",
    "office_name_kana": "カミオカコウギヨウ カブシキガイシヤ"
  },
  "1201": {
    "postcode": "5061201",
    "prefecture": "岐阜県",
    "prefecture_kana": "ギフケン",
    "prefecture_code": 21,
    "city": "飛騨市",
    "city_kana": "ヒダシ",
    "town": "神岡町谷",
    "town_kana": "カミオカチョウタニ",
    "street": null,
    "office_name": null,
    "office_name_kana": null
  },
  "1202": {
    "postcode": "5061202",
    "prefecture": "岐阜県",
    "prefecture_kana": "ギフケン",
    "prefecture_code": 21,
    "city": "飛騨市",
    "city_kana": "ヒダシ",
    "town": "神岡町中山",
    "town_kana": "カミオカチョウナカヤマ",
    "street": null,
    "office_name": null,
    "office_name_kana": null
  },
  "1203": {
    "postcode": "5061203",
    "prefecture": "岐阜県",
    "prefecture_kana": "ギフケン",
    "prefecture_code": 21,
    "city": "飛騨市",
    "city_kana": "ヒダシ",
    "town": "神岡町横山",
    "town_kana": "カミオカチョウヨコヤマ",
    "street": null,
    "office_name": null,
    "office_name_kana": null
  },
  "1204": {
    "postcode": "5061204",
    "prefecture": "岐阜県",
    "prefecture_kana": "ギフケン",
    "prefecture_code": 21,
    "city": "飛騨市",
    "city_kana": "ヒダシ",
    "town": "神岡町杉山",
    "town_kana": "カミオカチョウスギヤマ",
    "street": null,
    "office_name": null,
    "office_name_kana": null
  },
  "1205": {
    "postcode": "5061205",
    "prefecture": "岐阜県",
    "prefecture_kana": "ギフケン",
    "prefecture_code": 21,
    "city": "飛騨市",
    "city_kana": "ヒダシ",
    "town": "神岡町東茂住",
    "town_kana": "カミオカチョウヒガシモズミ",
    "street": null,
    "office_name": null,
    "office_name_kana": null
  },
  "1206": {
    "postcode": "5061206",
    "prefecture": "岐阜県",
    "prefecture_kana": "ギフケン",
    "prefecture_code": 21,
    "city": "飛騨市",
    "city_kana": "ヒダシ",
    "town": "神岡町西茂住",
    "town_kana": "カミオカチョウニシモズミ",
    "street": null,
    "office_name": null,
    "office_name_kana": null
  },
  "1211": {
    "postcode": "5061211",
    "prefecture": "岐阜県",
    "prefecture_kana": "ギフケン",
    "prefecture_code": 21,
    "city": "飛騨市",
    "city_kana": "ヒダシ",
    "town": "神岡町佐古",
    "town_kana": "カミオカチョウサコ",
    "street": null,
    "office_name": null,
    "office_name_kana": null
  },
  "1212": {
    "postcode": "5061212",
    "prefecture": "岐阜県",
    "prefecture_kana": "ギフケン",
    "prefecture_code": 21,
    "city": "飛騨市",
    "city_kana": "ヒダシ",
    "town": "神岡町跡津川",
    "town_kana": "カミオカチョウアトツガワ",
    "street": null,
    "office_name": null,
    "office_name_kana": null
  },
  "1213": {
    "postcode": "5061213",
    "prefecture": "岐阜県",
    "prefecture_kana": "ギフケン",
    "prefecture_code": 21,
    "city": "飛騨市",
    "city_kana": "ヒダシ",
    "town": "神岡町土",
    "town_kana": "カミオカチョウド",
    "street": null,
    "office_name": null,
    "office_name_kana": null
  },
  "1214": {
    "postcode": "5061214",
    "prefecture": "岐阜県",
    "prefecture_kana": "ギフケン",
    "prefecture_code": 21,
    "city": "飛騨市",
    "city_kana": "ヒダシ",
    "town": "神岡町牧",
    "town_kana": "カミオカチョウマキ",
    "street": null,
    "office_name": null,
    "office_name_kana": null
  },
  "1215": {
    "postcode": "5061215",
    "prefecture": "岐阜県",
    "prefecture_kana": "ギフケン",
    "prefecture_code": 21,
    "city": "飛騨市",
    "city_kana": "ヒダシ",
    "town": "神岡町西漆山",
    "town_kana": "カミオカチョウニシウルシヤマ",
    "street": null,
    "office_name": null,
    "office_name_kana": null
  },
  "1216": {
    "postcode": "5061216",
    "prefecture": "岐阜県",
    "prefecture_kana": "ギフケン",
    "prefecture_code": 21,
    "city": "飛騨市",
    "city_kana": "ヒダシ",
    "town": "神岡町東漆山",
    "town_kana": "カミオカチョウヒガシウルシヤマ",
    "street": null,
    "office_name": null,
    "office_name_kana": null
  },
  "1217": {
    "postcode": "5061217",
    "prefecture": "岐阜県",
    "prefecture_kana": "ギフケン",
    "prefecture_code": 21,
    "city": "飛騨市",
    "city_kana": "ヒダシ",
    "town": "神岡町二ツ屋",
    "town_kana": "カミオカチョウフタツヤ",
    "street": null,
    "office_name": null,
    "office_name_kana": null
  },
  "1301": {
    "postcode": "5061301",
    "prefecture": "岐阜県",
    "prefecture_kana": "ギフケン",
    "prefecture_code": 21,
    "city": "高山市",
    "city_kana": "タカヤマシ",
    "town": "上宝町葛山",
    "town_kana": "カミタカラチョウクズヤマ",
    "street": null,
    "office_name": null,
    "office_name_kana": null
  },
  "1302": {
    "postcode": "5061302",
    "prefecture": "岐阜県",
    "prefecture_kana": "ギフケン",
    "prefecture_code": 21,
    "city": "高山市",
    "city_kana": "タカヤマシ",
    "town": "上宝町長倉",
    "town_kana": "カミタカラチョウナガクラ",
    "street": null,
    "office_name": null,
    "office_name_kana": null
  },
  "1303": {
    "postcode": "5061303",
    "prefecture": "岐阜県",
    "prefecture_kana": "ギフケン",
    "prefecture_code": 21,
    "city": "高山市",
    "city_kana": "タカヤマシ",
    "town": "上宝町岩井戸",
    "town_kana": "カミタカラチョウイワイド",
    "street": null,
    "office_name": null,
    "office_name_kana": null
  },
  "1304": {
    "postcode": "5061304",
    "prefecture": "岐阜県",
    "prefecture_kana": "ギフケン",
    "prefecture_code": 21,
    "city": "高山市",
    "city_kana": "タカヤマシ",
    "town": "上宝町宮原",
    "town_kana": "カミタカラチョウミヤハラ",
    "street": null,
    "office_name": null,
    "office_name_kana": null
  },
  "1305": {
    "postcode": "5061305",
    "prefecture": "岐阜県",
    "prefecture_kana": "ギフケン",
    "prefecture_code": 21,
    "city": "高山市",
    "city_kana": "タカヤマシ",
    "town": "上宝町中山",
    "town_kana": "カミタカラチョウナカヤマ",
    "street": null,
    "office_name": null,
    "office_name_kana": null
  },
  "1306": {
    "postcode": "5061306",
    "prefecture": "岐阜県",
    "prefecture_kana": "ギフケン",
    "prefecture_code": 21,
    "city": "高山市",
    "city_kana": "タカヤマシ",
    "town": "上宝町見座",
    "town_kana": "カミタカラチョウミザ",
    "street": null,
    "office_name": null,
    "office_name_kana": null
  },
  "1307": {
    "postcode": "5061307",
    "prefecture": "岐阜県",
    "prefecture_kana": "ギフケン",
    "prefecture_code": 21,
    "city": "高山市",
    "city_kana": "タカヤマシ",
    "town": "上宝町双六",
    "town_kana": "カミタカラチョウスゴロク",
    "street": null,
    "office_name": null,
    "office_name_kana": null
  },
  "1308": {
    "postcode": "5061308",
    "prefecture": "岐阜県",
    "prefecture_kana": "ギフケン",
    "prefecture_code": 21,
    "city": "高山市",
    "city_kana": "タカヤマシ",
    "town": "上宝町金木戸",
    "town_kana": "カミタカラチョウカナキド",
    "street": null,
    "office_name": null,
    "office_name_kana": null
  },
  "1311": {
    "postcode": "5061311",
    "prefecture": "岐阜県",
    "prefecture_kana": "ギフケン",
    "prefecture_code": 21,
    "city": "高山市",
    "city_kana": "タカヤマシ",
    "town": "上宝町鼠餅",
    "town_kana": "カミタカラチョウネズモチ",
    "street": null,
    "office_name": null,
    "office_name_kana": null
  },
  "1312": {
    "postcode": "5061312",
    "prefecture": "岐阜県",
    "prefecture_kana": "ギフケン",
    "prefecture_code": 21,
    "city": "高山市",
    "city_kana": "タカヤマシ",
    "town": "上宝町新田",
    "town_kana": "カミタカラチョウアラタ",
    "street": null,
    "office_name": null,
    "office_name_kana": null
  },
  "1313": {
    "postcode": "5061313",
    "prefecture": "岐阜県",
    "prefecture_kana": "ギフケン",
    "prefecture_code": 21,
    "city": "高山市",
    "city_kana": "タカヤマシ",
    "town": "上宝町在家",
    "town_kana": "カミタカラチョウザイケ",
    "street": null,
    "office_name": null,
    "office_name_kana": null
  },
  "1314": {
    "postcode": "5061314",
    "prefecture": "岐阜県",
    "prefecture_kana": "ギフケン",
    "prefecture_code": 21,
    "city": "高山市",
    "city_kana": "タカヤマシ",
    "town": "上宝町蔵柱",
    "town_kana": "カミタカラチョウクラバシラ",
    "street": null,
    "office_name": null,
    "office_name_kana": null
  },
  "1315": {
    "postcode": "5061315",
    "prefecture": "岐阜県",
    "prefecture_kana": "ギフケン",
    "prefecture_code": 21,
    "city": "高山市",
    "city_kana": "タカヤマシ",
    "town": "上宝町荒原",
    "town_kana": "カミタカラチョウアラハラ",
    "street": null,
    "office_name": null,
    "office_name_kana": null
  },
  "1316": {
    "postcode": "5061316",
    "prefecture": "岐阜県",
    "prefecture_kana": "ギフケン",
    "prefecture_code": 21,
    "city": "高山市",
    "city_kana": "タカヤマシ",
    "town": "上宝町吉野",
    "town_kana": "カミタカラチョウヨシノ",
    "street": null,
    "office_name": null,
    "office_name_kana": null
  },
  "1317": {
    "postcode": "5061317",
    "prefecture": "岐阜県",
    "prefecture_kana": "ギフケン",
    "prefecture_code": 21,
    "city": "高山市",
    "city_kana": "タカヤマシ",
    "town": "上宝町本郷",
    "town_kana": "カミタカラチョウホンゴウ",
    "street": null,
    "office_name": null,
    "office_name_kana": null
  },
  "1318": {
    "postcode": "5061318",
    "prefecture": "岐阜県",
    "prefecture_kana": "ギフケン",
    "prefecture_code": 21,
    "city": "高山市",
    "city_kana": "タカヤマシ",
    "town": "上宝町芋生茂",
    "town_kana": "カミタカラチョウオイモ",
    "street": null,
    "office_name": null,
    "office_name_kana": null
  },
  "1319": {
    "postcode": "5061319",
    "prefecture": "岐阜県",
    "prefecture_kana": "ギフケン",
    "prefecture_code": 21,
    "city": "高山市",
    "city_kana": "タカヤマシ",
    "town": "上宝町下佐谷",
    "town_kana": "カミタカラチョウシモサダニ",
    "street": null,
    "office_name": null,
    "office_name_kana": null
  },
  "1392": {
    "postcode": "5061392",
    "prefecture": "岐阜県",
    "prefecture_kana": "ギフケン",
    "prefecture_code": 21,
    "city": "高山市",
    "city_kana": "タカヤマシ",
    "town": "上宝町本郷",
    "town_kana": "カミタカラチョウホンゴウ",
    "street": "５４０番地",
    "office_name": "高山市　上宝支所",
    "office_name_kana": "タカヤマシ カミタカラシシヨ"
  },
  "1421": [
    {
      "postcode": "5061421",
      "prefecture": "岐阜県",
      "prefecture_kana": "ギフケン",
      "prefecture_code": 21,
      "city": "高山市",
      "city_kana": "タカヤマシ",
      "town": "奥飛騨温泉郷神坂",
      "town_kana": "オクヒダオンセンゴウカンサカ",
      "street": null,
      "office_name": null,
      "office_name_kana": null
    },
    {
      "postcode": "5061421",
      "prefecture": "岐阜県",
      "prefecture_kana": "ギフケン",
      "prefecture_code": 21,
      "city": "高山市",
      "city_kana": "タカヤマシ",
      "town": "奥飛騨温泉郷神坂新穂高",
      "town_kana": "オクヒダオンセンゴウカンサカシンホダカ",
      "street": null,
      "office_name": null,
      "office_name_kana": null
    }
  ],
  "1422": {
    "postcode": "5061422",
    "prefecture": "岐阜県",
    "prefecture_kana": "ギフケン",
    "prefecture_code": 21,
    "city": "高山市",
    "city_kana": "タカヤマシ",
    "town": "奥飛騨温泉郷中尾",
    "town_kana": "オクヒダオンセンゴウナカオ",
    "street": null,
    "office_name": null,
    "office_name_kana": null
  },
  "1423": {
    "postcode": "5061423",
    "prefecture": "岐阜県",
    "prefecture_kana": "ギフケン",
    "prefecture_code": 21,
    "city": "高山市",
    "city_kana": "タカヤマシ",
    "town": "奥飛騨温泉郷栃尾",
    "town_kana": "オクヒダオンセンゴウトチオ",
    "street": null,
    "office_name": null,
    "office_name_kana": null
  },
  "1424": {
    "postcode": "5061424",
    "prefecture": "岐阜県",
    "prefecture_kana": "ギフケン",
    "prefecture_code": 21,
    "city": "高山市",
    "city_kana": "タカヤマシ",
    "town": "奥飛騨温泉郷柏当",
    "town_kana": "オクヒダオンセンゴウカシアテ",
    "street": null,
    "office_name": null,
    "office_name_kana": null
  },
  "1425": {
    "postcode": "5061425",
    "prefecture": "岐阜県",
    "prefecture_kana": "ギフケン",
    "prefecture_code": 21,
    "city": "高山市",
    "city_kana": "タカヤマシ",
    "town": "奥飛騨温泉郷今見",
    "town_kana": "オクヒダオンセンゴウイマミ",
    "street": null,
    "office_name": null,
    "office_name_kana": null
  },
  "1426": {
    "postcode": "5061426",
    "prefecture": "岐阜県",
    "prefecture_kana": "ギフケン",
    "prefecture_code": 21,
    "city": "高山市",
    "city_kana": "タカヤマシ",
    "town": "奥飛騨温泉郷蓼之俣",
    "town_kana": "オクヒダオンセンゴウタテノマタ",
    "street": null,
    "office_name": null,
    "office_name_kana": null
  },
  "1427": {
    "postcode": "5061427",
    "prefecture": "岐阜県",
    "prefecture_kana": "ギフケン",
    "prefecture_code": 21,
    "city": "高山市",
    "city_kana": "タカヤマシ",
    "town": "奥飛騨温泉郷田頃家",
    "town_kana": "オクヒダオンセンゴウタゴロケ",
    "street": null,
    "office_name": null,
    "office_name_kana": null
  },
  "1428": {
    "postcode": "5061428",
    "prefecture": "岐阜県",
    "prefecture_kana": "ギフケン",
    "prefecture_code": 21,
    "city": "高山市",
    "city_kana": "タカヤマシ",
    "town": "奥飛騨温泉郷笹嶋",
    "town_kana": "オクヒダオンセンゴウササジマ",
    "street": null,
    "office_name": null,
    "office_name_kana": null
  },
  "1429": {
    "postcode": "5061429",
    "prefecture": "岐阜県",
    "prefecture_kana": "ギフケン",
    "prefecture_code": 21,
    "city": "高山市",
    "city_kana": "タカヤマシ",
    "town": "奥飛騨温泉郷赤桶",
    "town_kana": "オクヒダオンセンゴウアカオケ",
    "street": null,
    "office_name": null,
    "office_name_kana": null
  },
  "1431": {
    "postcode": "5061431",
    "prefecture": "岐阜県",
    "prefecture_kana": "ギフケン",
    "prefecture_code": 21,
    "city": "高山市",
    "city_kana": "タカヤマシ",
    "town": "奥飛騨温泉郷村上",
    "town_kana": "オクヒダオンセンゴウムラカミ",
    "street": null,
    "office_name": null,
    "office_name_kana": null
  },
  "1432": {
    "postcode": "5061432",
    "prefecture": "岐阜県",
    "prefecture_kana": "ギフケン",
    "prefecture_code": 21,
    "city": "高山市",
    "city_kana": "タカヤマシ",
    "town": "奥飛騨温泉郷一重ケ根",
    "town_kana": "オクヒダオンセンゴウヒトエガネ",
    "street": null,
    "office_name": null,
    "office_name_kana": null
  },
  "1433": {
    "postcode": "5061433",
    "prefecture": "岐阜県",
    "prefecture_kana": "ギフケン",
    "prefecture_code": 21,
    "city": "高山市",
    "city_kana": "タカヤマシ",
    "town": "奥飛騨温泉郷平湯",
    "town_kana": "オクヒダオンセンゴウヒラユ",
    "street": null,
    "office_name": null,
    "office_name_kana": null
  },
  "1434": {
    "postcode": "5061434",
    "prefecture": "岐阜県",
    "prefecture_kana": "ギフケン",
    "prefecture_code": 21,
    "city": "高山市",
    "city_kana": "タカヤマシ",
    "town": "奥飛騨温泉郷福地",
    "town_kana": "オクヒダオンセンゴウフクジ",
    "street": null,
    "office_name": null,
    "office_name_kana": null
  },
  "1492": {
    "postcode": "5061492",
    "prefecture": "岐阜県",
    "prefecture_kana": "ギフケン",
    "prefecture_code": 21,
    "city": "高山市",
    "city_kana": "タカヤマシ",
    "town": "奥飛騨温泉郷一重ケ根",
    "town_kana": "オクヒダオンセンゴウヒトエガネ",
    "street": "２０８−４８",
    "office_name": "奥飛騨ガーデンホテル本陣",
    "office_name_kana": "オクヒダガ-デンホテルホンジン"
  },
  "1493": {
    "postcode": "5061493",
    "prefecture": "岐阜県",
    "prefecture_kana": "ギフケン",
    "prefecture_code": 21,
    "city": "高山市",
    "city_kana": "タカヤマシ",
    "town": "奥飛騨温泉郷神坂",
    "town_kana": "オクヒダオンセンゴウカンサカ",
    "street": "５７７の１３",
    "office_name": "穂高荘山のホテル",
    "office_name_kana": "ホダカソウヤマノホテル"
  },
  "1495": {
    "postcode": "5061495",
    "prefecture": "岐阜県",
    "prefecture_kana": "ギフケン",
    "prefecture_code": 21,
    "city": "高山市",
    "city_kana": "タカヤマシ",
    "town": "奥飛騨温泉郷平湯",
    "town_kana": "オクヒダオンセンゴウヒラユ",
    "street": "５０５番地",
    "office_name": "（有）　岡田旅館",
    "office_name_kana": "オカダリヨカン"
  },
  "1496": {
    "postcode": "5061496",
    "prefecture": "岐阜県",
    "prefecture_kana": "ギフケン",
    "prefecture_code": 21,
    "city": "高山市",
    "city_kana": "タカヤマシ",
    "town": "奥飛騨温泉郷一重ケ根",
    "town_kana": "オクヒダオンセンゴウヒトエガネ",
    "street": "２０２番地９",
    "office_name": "株式会社　飛騨湯の花本舗",
    "office_name_kana": "カブシキガイシヤ ヒダユノハナホンポ"
  },
  "1498": {
    "postcode": "5061498",
    "prefecture": "岐阜県",
    "prefecture_kana": "ギフケン",
    "prefecture_code": 21,
    "city": "高山市",
    "city_kana": "タカヤマシ",
    "town": "奥飛騨温泉郷平湯",
    "town_kana": "オクヒダオンセンゴウヒラユ",
    "street": "７２６番地",
    "office_name": "ホテル平湯館",
    "office_name_kana": "ホテルヒラユカン"
  },
  "2101": {
    "postcode": "5062101",
    "prefecture": "岐阜県",
    "prefecture_kana": "ギフケン",
    "prefecture_code": 21,
    "city": "高山市",
    "city_kana": "タカヤマシ",
    "town": "丹生川町森部",
    "town_kana": "ニュウカワチョウモリブ",
    "street": null,
    "office_name": null,
    "office_name_kana": null
  },
  "2103": {
    "postcode": "5062103",
    "prefecture": "岐阜県",
    "prefecture_kana": "ギフケン",
    "prefecture_code": 21,
    "city": "高山市",
    "city_kana": "タカヤマシ",
    "town": "丹生川町折敷地",
    "town_kana": "ニュウカワチョウオシキジ",
    "street": null,
    "office_name": null,
    "office_name_kana": null
  },
  "2104": {
    "postcode": "5062104",
    "prefecture": "岐阜県",
    "prefecture_kana": "ギフケン",
    "prefecture_code": 21,
    "city": "高山市",
    "city_kana": "タカヤマシ",
    "town": "丹生川町大沼",
    "town_kana": "ニュウカワチョウオオヌマ",
    "street": null,
    "office_name": null,
    "office_name_kana": null
  },
  "2105": {
    "postcode": "5062105",
    "prefecture": "岐阜県",
    "prefecture_kana": "ギフケン",
    "prefecture_code": 21,
    "city": "高山市",
    "city_kana": "タカヤマシ",
    "town": "丹生川町三之瀬",
    "town_kana": "ニュウカワチョウサンノセ",
    "street": null,
    "office_name": null,
    "office_name_kana": null
  },
  "2106": {
    "postcode": "5062106",
    "prefecture": "岐阜県",
    "prefecture_kana": "ギフケン",
    "prefecture_code": 21,
    "city": "高山市",
    "city_kana": "タカヤマシ",
    "town": "丹生川町柏原",
    "town_kana": "ニュウカワチョウカシハラ",
    "street": null,
    "office_name": null,
    "office_name_kana": null
  },
  "2111": {
    "postcode": "5062111",
    "prefecture": "岐阜県",
    "prefecture_kana": "ギフケン",
    "prefecture_code": 21,
    "city": "高山市",
    "city_kana": "タカヤマシ",
    "town": "丹生川町瓜田",
    "town_kana": "ニュウカワチョウウリダ",
    "street": null,
    "office_name": null,
    "office_name_kana": null
  },
  "2112": {
    "postcode": "5062112",
    "prefecture": "岐阜県",
    "prefecture_kana": "ギフケン",
    "prefecture_code": 21,
    "city": "高山市",
    "city_kana": "タカヤマシ",
    "town": "丹生川町板殿",
    "town_kana": "ニュウカワチョウイタンド",
    "street": null,
    "office_name": null,
    "office_name_kana": null
  },
  "2113": {
    "postcode": "5062113",
    "prefecture": "岐阜県",
    "prefecture_kana": "ギフケン",
    "prefecture_code": 21,
    "city": "高山市",
    "city_kana": "タカヤマシ",
    "town": "丹生川町芦谷",
    "town_kana": "ニュウカワチョウアシタニ",
    "street": null,
    "office_name": null,
    "office_name_kana": null
  },
  "2114": {
    "postcode": "5062114",
    "prefecture": "岐阜県",
    "prefecture_kana": "ギフケン",
    "prefecture_code": 21,
    "city": "高山市",
    "city_kana": "タカヤマシ",
    "town": "丹生川町日影",
    "town_kana": "ニュウカワチョウヒカゲ",
    "street": null,
    "office_name": null,
    "office_name_kana": null
  },
  "2115": {
    "postcode": "5062115",
    "prefecture": "岐阜県",
    "prefecture_kana": "ギフケン",
    "prefecture_code": 21,
    "city": "高山市",
    "city_kana": "タカヤマシ",
    "town": "丹生川町小野",
    "town_kana": "ニュウカワチョウコノ",
    "street": null,
    "office_name": null,
    "office_name_kana": null
  },
  "2116": {
    "postcode": "5062116",
    "prefecture": "岐阜県",
    "prefecture_kana": "ギフケン",
    "prefecture_code": 21,
    "city": "高山市",
    "city_kana": "タカヤマシ",
    "town": "丹生川町大谷",
    "town_kana": "ニュウカワチョウオオタニ",
    "street": null,
    "office_name": null,
    "office_name_kana": null
  },
  "2117": {
    "postcode": "5062117",
    "prefecture": "岐阜県",
    "prefecture_kana": "ギフケン",
    "prefecture_code": 21,
    "city": "高山市",
    "city_kana": "タカヤマシ",
    "town": "丹生川町根方",
    "town_kana": "ニュウカワチョウゴンボウ",
    "street": null,
    "office_name": null,
    "office_name_kana": null
  },
  "2118": {
    "postcode": "5062118",
    "prefecture": "岐阜県",
    "prefecture_kana": "ギフケン",
    "prefecture_code": 21,
    "city": "高山市",
    "city_kana": "タカヤマシ",
    "town": "丹生川町白井",
    "town_kana": "ニュウカワチョウシロイ",
    "street": null,
    "office_name": null,
    "office_name_kana": null
  },
  "2121": {
    "postcode": "5062121",
    "prefecture": "岐阜県",
    "prefecture_kana": "ギフケン",
    "prefecture_code": 21,
    "city": "高山市",
    "city_kana": "タカヤマシ",
    "town": "丹生川町坊方",
    "town_kana": "ニュウカワチョウボウカタ",
    "street": null,
    "office_name": null,
    "office_name_kana": null
  },
  "2122": {
    "postcode": "5062122",
    "prefecture": "岐阜県",
    "prefecture_kana": "ギフケン",
    "prefecture_code": 21,
    "city": "高山市",
    "city_kana": "タカヤマシ",
    "town": "丹生川町山口",
    "town_kana": "ニュウカワチョウヤマクチ",
    "street": null,
    "office_name": null,
    "office_name_kana": null
  },
  "2123": {
    "postcode": "5062123",
    "prefecture": "岐阜県",
    "prefecture_kana": "ギフケン",
    "prefecture_code": 21,
    "city": "高山市",
    "city_kana": "タカヤマシ",
    "town": "丹生川町町方",
    "town_kana": "ニュウカワチョウマチカタ",
    "street": null,
    "office_name": null,
    "office_name_kana": null
  },
  "2124": {
    "postcode": "5062124",
    "prefecture": "岐阜県",
    "prefecture_kana": "ギフケン",
    "prefecture_code": 21,
    "city": "高山市",
    "city_kana": "タカヤマシ",
    "town": "丹生川町新張",
    "town_kana": "ニュウカワチョウニイバリ",
    "street": null,
    "office_name": null,
    "office_name_kana": null
  },
  "2125": {
    "postcode": "5062125",
    "prefecture": "岐阜県",
    "prefecture_kana": "ギフケン",
    "prefecture_code": 21,
    "city": "高山市",
    "city_kana": "タカヤマシ",
    "town": "丹生川町細越",
    "town_kana": "ニュウカワチョウホソゴエ",
    "street": null,
    "office_name": null,
    "office_name_kana": null
  },
  "2131": {
    "postcode": "5062131",
    "prefecture": "岐阜県",
    "prefecture_kana": "ギフケン",
    "prefecture_code": 21,
    "city": "高山市",
    "city_kana": "タカヤマシ",
    "town": "丹生川町大萱",
    "town_kana": "ニュウカワチョウオオガヤ",
    "street": null,
    "office_name": null,
    "office_name_kana": null
  },
  "2132": {
    "postcode": "5062132",
    "prefecture": "岐阜県",
    "prefecture_kana": "ギフケン",
    "prefecture_code": 21,
    "city": "高山市",
    "city_kana": "タカヤマシ",
    "town": "丹生川町法力",
    "town_kana": "ニュウカワチョウホウリキ",
    "street": null,
    "office_name": null,
    "office_name_kana": null
  },
  "2133": {
    "postcode": "5062133",
    "prefecture": "岐阜県",
    "prefecture_kana": "ギフケン",
    "prefecture_code": 21,
    "city": "高山市",
    "city_kana": "タカヤマシ",
    "town": "丹生川町北方",
    "town_kana": "ニュウカワチョウキタカタ",
    "street": null,
    "office_name": null,
    "office_name_kana": null
  },
  "2134": {
    "postcode": "5062134",
    "prefecture": "岐阜県",
    "prefecture_kana": "ギフケン",
    "prefecture_code": 21,
    "city": "高山市",
    "city_kana": "タカヤマシ",
    "town": "丹生川町桐山",
    "town_kana": "ニュウカワチョウキリヤマ",
    "street": null,
    "office_name": null,
    "office_name_kana": null
  },
  "2135": {
    "postcode": "5062135",
    "prefecture": "岐阜県",
    "prefecture_kana": "ギフケン",
    "prefecture_code": 21,
    "city": "高山市",
    "city_kana": "タカヤマシ",
    "town": "丹生川町下保",
    "town_kana": "ニュウカワチョウシモボ",
    "street": null,
    "office_name": null,
    "office_name_kana": null
  },
  "2192": {
    "postcode": "5062192",
    "prefecture": "岐阜県",
    "prefecture_kana": "ギフケン",
    "prefecture_code": 21,
    "city": "高山市",
    "city_kana": "タカヤマシ",
    "town": "丹生川町",
    "town_kana": null,
    "street": "坊方２０００",
    "office_name": "高山市丹生川支所",
    "office_name_kana": "タカヤマシ ニウカワシシヨ"
  },
  "2251": {
    "postcode": "5062251",
    "prefecture": "岐阜県",
    "prefecture_kana": "ギフケン",
    "prefecture_code": 21,
    "city": "高山市",
    "city_kana": "タカヤマシ",
    "town": "丹生川町旗鉾",
    "town_kana": "ニュウカワチョウハタホコ",
    "street": null,
    "office_name": null,
    "office_name_kana": null
  },
  "2252": {
    "postcode": "5062252",
    "prefecture": "岐阜県",
    "prefecture_kana": "ギフケン",
    "prefecture_code": 21,
    "city": "高山市",
    "city_kana": "タカヤマシ",
    "town": "丹生川町久手",
    "town_kana": "ニュウカワチョウクテ",
    "street": null,
    "office_name": null,
    "office_name_kana": null
  },
  "2253": {
    "postcode": "5062253",
    "prefecture": "岐阜県",
    "prefecture_kana": "ギフケン",
    "prefecture_code": 21,
    "city": "高山市",
    "city_kana": "タカヤマシ",
    "town": "丹生川町池之俣",
    "town_kana": "ニュウカワチョウイケノマタ",
    "street": null,
    "office_name": null,
    "office_name_kana": null
  },
  "2254": {
    "postcode": "5062254",
    "prefecture": "岐阜県",
    "prefecture_kana": "ギフケン",
    "prefecture_code": 21,
    "city": "高山市",
    "city_kana": "タカヤマシ",
    "town": "丹生川町岩井谷",
    "town_kana": "ニュウカワチョウイワイタニ",
    "street": null,
    "office_name": null,
    "office_name_kana": null
  },
  "2255": {
    "postcode": "5062255",
    "prefecture": "岐阜県",
    "prefecture_kana": "ギフケン",
    "prefecture_code": 21,
    "city": "高山市",
    "city_kana": "タカヤマシ",
    "town": "丹生川町駄吉",
    "town_kana": "ニュウカワチョウダヨシ",
    "street": null,
    "office_name": null,
    "office_name_kana": null
  },
  "2256": {
    "postcode": "5062256",
    "prefecture": "岐阜県",
    "prefecture_kana": "ギフケン",
    "prefecture_code": 21,
    "city": "高山市",
    "city_kana": "タカヤマシ",
    "town": "丹生川町日面",
    "town_kana": "ニュウカワチョウヒヨモ",
    "street": null,
    "office_name": null,
    "office_name_kana": null
  },
  "2257": {
    "postcode": "5062257",
    "prefecture": "岐阜県",
    "prefecture_kana": "ギフケン",
    "prefecture_code": 21,
    "city": "高山市",
    "city_kana": "タカヤマシ",
    "town": "丹生川町曽手",
    "town_kana": "ニュウカワチョウソデ",
    "street": null,
    "office_name": null,
    "office_name_kana": null
  },
  "2258": {
    "postcode": "5062258",
    "prefecture": "岐阜県",
    "prefecture_kana": "ギフケン",
    "prefecture_code": 21,
    "city": "高山市",
    "city_kana": "タカヤマシ",
    "town": "丹生川町塩屋",
    "town_kana": "ニュウカワチョウシオヤ",
    "street": null,
    "office_name": null,
    "office_name_kana": null
  },
  "8502": {
    "postcode": "5068502",
    "prefecture": "岐阜県",
    "prefecture_kana": "ギフケン",
    "prefecture_code": 21,
    "city": "高山市",
    "city_kana": "タカヤマシ",
    "town": "中切町",
    "town_kana": "ナカギリマチ",
    "street": "１番地１",
    "office_name": "久美愛　厚生病院",
    "office_name_kana": "クミアイ コウセイビヨウイン"
  },
  "8506": {
    "postcode": "5068506",
    "prefecture": "岐阜県",
    "prefecture_kana": "ギフケン",
    "prefecture_code": 21,
    "city": "高山市",
    "city_kana": "タカヤマシ",
    "town": "上岡本町",
    "town_kana": "カミオカモトマチ",
    "street": "１丁目５０",
    "office_name": "飛騨運輸　株式会社",
    "office_name_kana": "ヒダウンユ カブシキガイシヤ"
  },
  "8550": {
    "postcode": "5068550",
    "prefecture": "岐阜県",
    "prefecture_kana": "ギフケン",
    "prefecture_code": 21,
    "city": "高山市",
    "city_kana": "タカヤマシ",
    "town": "天満町",
    "town_kana": "テンマンマチ",
    "street": "３丁目１１",
    "office_name": "高山赤十字病院",
    "office_name_kana": "タカヤマセキジユウジビヨウイン"
  },
  "8555": {
    "postcode": "5068555",
    "prefecture": "岐阜県",
    "prefecture_kana": "ギフケン",
    "prefecture_code": 21,
    "city": "高山市",
    "city_kana": "タカヤマシ",
    "town": "花岡町",
    "town_kana": "ハナオカマチ",
    "street": "２丁目１８",
    "office_name": "高山市役所",
    "office_name_kana": "タカヤマシヤクシヨ"
  },
  "8577": {
    "postcode": "5068577",
    "prefecture": "岐阜県",
    "prefecture_kana": "ギフケン",
    "prefecture_code": 21,
    "city": "高山市",
    "city_kana": "タカヤマシ",
    "town": "下林町",
    "town_kana": "シモバヤシマチ",
    "street": "１１５５",
    "office_name": "高山短期大学",
    "office_name_kana": "タカヤマタンキダイガク"
  },
  "8585": {
    "postcode": "5068585",
    "prefecture": "岐阜県",
    "prefecture_kana": "ギフケン",
    "prefecture_code": 21,
    "city": "高山市",
    "city_kana": "タカヤマシ",
    "town": "上岡本町",
    "town_kana": "カミオカモトマチ",
    "street": "１丁目２６０",
    "office_name": "柏木工　株式会社",
    "office_name_kana": "カシワモツコウ カブシキガイシヤ"
  },
  "8601": {
    "postcode": "5068601",
    "prefecture": "岐阜県",
    "prefecture_kana": "ギフケン",
    "prefecture_code": 21,
    "city": "高山市",
    "city_kana": "タカヤマシ",
    "town": "昭和町",
    "town_kana": "ショウワマチ",
    "street": "２丁目２２０番地高山合同庁舎２階（高山郵便局私書箱第４号）",
    "office_name": "高山税務署",
    "office_name_kana": "タカヤマゼイムシヨ"
  },
  "8603": {
    "postcode": "5068603",
    "prefecture": "岐阜県",
    "prefecture_kana": "ギフケン",
    "prefecture_code": 21,
    "city": "高山市",
    "city_kana": "タカヤマシ",
    "town": "冬頭町",
    "town_kana": "フユトウマチ",
    "street": "１−１",
    "office_name": "飛騨農業協同組合",
    "office_name_kana": "ヒダノウギヨウキヨウドウクミアイ"
  },
  "8666": {
    "postcode": "5068666",
    "prefecture": "岐阜県",
    "prefecture_kana": "ギフケン",
    "prefecture_code": 21,
    "city": "高山市",
    "city_kana": "タカヤマシ",
    "town": "下一之町",
    "town_kana": "シモ1ノマチ",
    "street": "６３（高山郵便局私書箱第３９号）",
    "office_name": "高山信用金庫",
    "office_name_kana": "タカヤマシンヨウキンコ"
  },
  "8678": {
    "postcode": "5068678",
    "prefecture": "岐阜県",
    "prefecture_kana": "ギフケン",
    "prefecture_code": 21,
    "city": "高山市",
    "city_kana": "タカヤマシ",
    "town": "天満町",
    "town_kana": "テンマンマチ",
    "street": "５丁目１（高山郵便局私書箱第３５号）",
    "office_name": "高山商工会議所",
    "office_name_kana": "タカヤマシヨウコウカイギシヨ"
  },
  "8686": {
    "postcode": "5068686",
    "prefecture": "岐阜県",
    "prefecture_kana": "ギフケン",
    "prefecture_code": 21,
    "city": "高山市",
    "city_kana": "タカヤマシ",
    "town": "漆垣内町",
    "town_kana": "ウルシガイトウマチ",
    "street": "３１８０",
    "office_name": "飛騨産業　株式会社",
    "office_name_kana": "ヒダサンギヨウ カブシキガイシヤ"
  },
  "8687": {
    "postcode": "5068687",
    "prefecture": "岐阜県",
    "prefecture_kana": "ギフケン",
    "prefecture_code": 21,
    "city": "高山市",
    "city_kana": "タカヤマシ",
    "town": "漆垣内町",
    "town_kana": "ウルシガイトウマチ",
    "street": "２５９３",
    "office_name": "飛騨産業　株式会社　本社工場",
    "office_name_kana": "ヒダサンギヨウ カブシキガイシヤ ホンシヤコウジヨウ"
  },
  "8688": {
    "postcode": "5068688",
    "prefecture": "岐阜県",
    "prefecture_kana": "ギフケン",
    "prefecture_code": 21,
    "city": "高山市",
    "city_kana": "タカヤマシ",
    "town": "上岡本町",
    "town_kana": "カミオカモトマチ",
    "street": "７丁目４６８番地",
    "office_name": "飛騨県事務所",
    "office_name_kana": "ヒダケンジムシヨ"
  },
  "8690": {
    "postcode": "5068690",
    "prefecture": "岐阜県",
    "prefecture_kana": "ギフケン",
    "prefecture_code": 21,
    "city": "高山市",
    "city_kana": "タカヤマシ",
    "town": "桐生町",
    "town_kana": "キリウマチ",
    "street": "３丁目１２２−１",
    "office_name": "株式会社　高山市民時報社　ザ・チャンス",
    "office_name_kana": "カブシキガイシヤ タカヤマシミンジホウシヤ ザ・チヤンス"
  }
}