{
  "0000": {
    "postcode": "5070000",
    "prefecture": "岐阜県",
    "prefecture_kana": "ギフケン",
    "prefecture_code": 21,
    "city": "多治見市",
    "city_kana": "タジミシ",
    "town": "",
    "town_kana": "",
    "street": null,
    "office_name": null,
    "office_name_kana": null
  },
  "0001": {
    "postcode": "5070001",
    "prefecture": "岐阜県",
    "prefecture_kana": "ギフケン",
    "prefecture_code": 21,
    "city": "多治見市",
    "city_kana": "タジミシ",
    "town": "小名田町小滝",
    "town_kana": "オナダチョウコタキ",
    "street": null,
    "office_name": null,
    "office_name_kana": null
  },
  "0002": {
    "postcode": "5070002",
    "prefecture": "岐阜県",
    "prefecture_kana": "ギフケン",
    "prefecture_code": 21,
    "city": "多治見市",
    "city_kana": "タジミシ",
    "town": "小名田町別山",
    "town_kana": "オナダチョウハナレヤマ",
    "street": null,
    "office_name": null,
    "office_name_kana": null
  },
  "0003": {
    "postcode": "5070003",
    "prefecture": "岐阜県",
    "prefecture_kana": "ギフケン",
    "prefecture_code": 21,
    "city": "多治見市",
    "city_kana": "タジミシ",
    "town": "小名田町東谷",
    "town_kana": "オナダチョウヒガシダニ",
    "street": null,
    "office_name": null,
    "office_name_kana": null
  },
  "0004": {
    "postcode": "5070004",
    "prefecture": "岐阜県",
    "prefecture_kana": "ギフケン",
    "prefecture_code": 21,
    "city": "多治見市",
    "city_kana": "タジミシ",
    "town": "小名田町",
    "town_kana": "オナダチョウ",
    "street": null,
    "office_name": null,
    "office_name_kana": null
  },
  "0005": {
    "postcode": "5070005",
    "prefecture": "岐阜県",
    "prefecture_kana": "ギフケン",
    "prefecture_code": 21,
    "city": "多治見市",
    "city_kana": "タジミシ",
    "town": "小名田町岩ケ根",
    "town_kana": "オナダチョウイワガネ",
    "street": null,
    "office_name": null,
    "office_name_kana": null
  },
  "0006": {
    "postcode": "5070006",
    "prefecture": "岐阜県",
    "prefecture_kana": "ギフケン",
    "prefecture_code": 21,
    "city": "多治見市",
    "city_kana": "タジミシ",
    "town": "小名田町西山",
    "town_kana": "オナダチョウニシヤマ",
    "street": null,
    "office_name": null,
    "office_name_kana": null
  },
  "0007": {
    "postcode": "5070007",
    "prefecture": "岐阜県",
    "prefecture_kana": "ギフケン",
    "prefecture_code": 21,
    "city": "多治見市",
    "city_kana": "タジミシ",
    "town": "小名田町西ケ洞",
    "town_kana": "オナダチョウニシガボラ",
    "street": null,
    "office_name": null,
    "office_name_kana": null
  },
  "0008": {
    "postcode": "5070008",
    "prefecture": "岐阜県",
    "prefecture_kana": "ギフケン",
    "prefecture_code": 21,
    "city": "多治見市",
    "city_kana": "タジミシ",
    "town": "希望ケ丘",
    "town_kana": "キボウガオカ",
    "street": null,
    "office_name": null,
    "office_name_kana": null
  },
  "0011": {
    "postcode": "5070011",
    "prefecture": "岐阜県",
    "prefecture_kana": "ギフケン",
    "prefecture_code": 21,
    "city": "多治見市",
    "city_kana": "タジミシ",
    "town": "高田町岩曽根",
    "town_kana": "タカタチョウイワゾネ",
    "street": null,
    "office_name": null,
    "office_name_kana": null
  },
  "0012": {
    "postcode": "5070012",
    "prefecture": "岐阜県",
    "prefecture_kana": "ギフケン",
    "prefecture_code": 21,
    "city": "多治見市",
    "city_kana": "タジミシ",
    "town": "高田町白粉",
    "town_kana": "タカタチョウシロコ",
    "street": null,
    "office_name": null,
    "office_name_kana": null
  },
  "0013": {
    "postcode": "5070013",
    "prefecture": "岐阜県",
    "prefecture_kana": "ギフケン",
    "prefecture_code": 21,
    "city": "多治見市",
    "city_kana": "タジミシ",
    "town": "東栄町",
    "town_kana": "トウエイチョウ",
    "street": null,
    "office_name": null,
    "office_name_kana": null
  },
  "0014": {
    "postcode": "5070014",
    "prefecture": "岐阜県",
    "prefecture_kana": "ギフケン",
    "prefecture_code": 21,
    "city": "多治見市",
    "city_kana": "タジミシ",
    "town": "虎渓山町",
    "town_kana": "コケイザンチョウ",
    "street": null,
    "office_name": null,
    "office_name_kana": null
  },
  "0015": {
    "postcode": "5070015",
    "prefecture": "岐阜県",
    "prefecture_kana": "ギフケン",
    "prefecture_code": 21,
    "city": "多治見市",
    "city_kana": "タジミシ",
    "town": "住吉町",
    "town_kana": "スミヨシチョウ",
    "street": null,
    "office_name": null,
    "office_name_kana": null
  },
  "0016": {
    "postcode": "5070016",
    "prefecture": "岐阜県",
    "prefecture_kana": "ギフケン",
    "prefecture_code": 21,
    "city": "多治見市",
    "city_kana": "タジミシ",
    "town": "金岡町",
    "town_kana": "カナオカチョウ",
    "street": null,
    "office_name": null,
    "office_name_kana": null
  },
  "0017": {
    "postcode": "5070017",
    "prefecture": "岐阜県",
    "prefecture_kana": "ギフケン",
    "prefecture_code": 21,
    "city": "多治見市",
    "city_kana": "タジミシ",
    "town": "長瀬町",
    "town_kana": "ナガセチョウ",
    "street": null,
    "office_name": null,
    "office_name_kana": null
  },
  "0018": {
    "postcode": "5070018",
    "prefecture": "岐阜県",
    "prefecture_kana": "ギフケン",
    "prefecture_code": 21,
    "city": "多治見市",
    "city_kana": "タジミシ",
    "town": "高田町",
    "town_kana": "タカタチョウ",
    "street": null,
    "office_name": null,
    "office_name_kana": null
  },
  "0019": {
    "postcode": "5070019",
    "prefecture": "岐阜県",
    "prefecture_kana": "ギフケン",
    "prefecture_code": 21,
    "city": "多治見市",
    "city_kana": "タジミシ",
    "town": "東山",
    "town_kana": "ヒガシヤマ",
    "street": null,
    "office_name": null,
    "office_name_kana": null
  },
  "0021": {
    "postcode": "5070021",
    "prefecture": "岐阜県",
    "prefecture_kana": "ギフケン",
    "prefecture_code": 21,
    "city": "多治見市",
    "city_kana": "タジミシ",
    "town": "緑ケ丘",
    "town_kana": "ミドリガオカ",
    "street": null,
    "office_name": null,
    "office_name_kana": null
  },
  "0022": {
    "postcode": "5070022",
    "prefecture": "岐阜県",
    "prefecture_kana": "ギフケン",
    "prefecture_code": 21,
    "city": "多治見市",
    "city_kana": "タジミシ",
    "town": "上山町",
    "town_kana": "カミヤマチョウ",
    "street": null,
    "office_name": null,
    "office_name_kana": null
  },
  "0023": {
    "postcode": "5070023",
    "prefecture": "岐阜県",
    "prefecture_kana": "ギフケン",
    "prefecture_code": 21,
    "city": "多治見市",
    "city_kana": "タジミシ",
    "town": "小田町",
    "town_kana": "オダマチ",
    "street": null,
    "office_name": null,
    "office_name_kana": null
  },
  "0024": {
    "postcode": "5070024",
    "prefecture": "岐阜県",
    "prefecture_kana": "ギフケン",
    "prefecture_code": 21,
    "city": "多治見市",
    "city_kana": "タジミシ",
    "town": "大正町",
    "town_kana": "タイショウマチ",
    "street": null,
    "office_name": null,
    "office_name_kana": null
  },
  "0025": {
    "postcode": "5070025",
    "prefecture": "岐阜県",
    "prefecture_kana": "ギフケン",
    "prefecture_code": 21,
    "city": "多治見市",
    "city_kana": "タジミシ",
    "town": "宮前町",
    "town_kana": "ミヤマエチョウ",
    "street": null,
    "office_name": null,
    "office_name_kana": null
  },
  "0026": {
    "postcode": "5070026",
    "prefecture": "岐阜県",
    "prefecture_kana": "ギフケン",
    "prefecture_code": 21,
    "city": "多治見市",
    "city_kana": "タジミシ",
    "town": "虎渓町",
    "town_kana": "コケイチョウ",
    "street": null,
    "office_name": null,
    "office_name_kana": null
  },
  "0027": {
    "postcode": "5070027",
    "prefecture": "岐阜県",
    "prefecture_kana": "ギフケン",
    "prefecture_code": 21,
    "city": "多治見市",
    "city_kana": "タジミシ",
    "town": "上野町",
    "town_kana": "ウエノチョウ",
    "street": null,
    "office_name": null,
    "office_name_kana": null
  },
  "0028": {
    "postcode": "5070028",
    "prefecture": "岐阜県",
    "prefecture_kana": "ギフケン",
    "prefecture_code": 21,
    "city": "多治見市",
    "city_kana": "タジミシ",
    "town": "弁天町",
    "town_kana": "ベンテンチョウ",
    "street": null,
    "office_name": null,
    "office_name_kana": null
  },
  "0031": {
    "postcode": "5070031",
    "prefecture": "岐阜県",
    "prefecture_kana": "ギフケン",
    "prefecture_code": 21,
    "city": "多治見市",
    "city_kana": "タジミシ",
    "town": "精華町",
    "town_kana": "セイカマチ",
    "street": null,
    "office_name": null,
    "office_name_kana": null
  },
  "0032": {
    "postcode": "5070032",
    "prefecture": "岐阜県",
    "prefecture_kana": "ギフケン",
    "prefecture_code": 21,
    "city": "多治見市",
    "city_kana": "タジミシ",
    "town": "大日町",
    "town_kana": "ダイニチチョウ",
    "street": null,
    "office_name": null,
    "office_name_kana": null
  },
  "0033": {
    "postcode": "5070033",
    "prefecture": "岐阜県",
    "prefecture_kana": "ギフケン",
    "prefecture_code": 21,
    "city": "多治見市",
    "city_kana": "タジミシ",
    "town": "本町",
    "town_kana": "ホンマチ",
    "street": null,
    "office_name": null,
    "office_name_kana": null
  },
  "0034": {
    "postcode": "5070034",
    "prefecture": "岐阜県",
    "prefecture_kana": "ギフケン",
    "prefecture_code": 21,
    "city": "多治見市",
    "city_kana": "タジミシ",
    "town": "豊岡町",
    "town_kana": "トヨオカチョウ",
    "street": null,
    "office_name": null,
    "office_name_kana": null
  },
  "0035": {
    "postcode": "5070035",
    "prefecture": "岐阜県",
    "prefecture_kana": "ギフケン",
    "prefecture_code": 21,
    "city": "多治見市",
    "city_kana": "タジミシ",
    "town": "栄町",
    "town_kana": "サカエマチ",
    "street": null,
    "office_name": null,
    "office_name_kana": null
  },
  "0036": {
    "postcode": "5070036",
    "prefecture": "岐阜県",
    "prefecture_kana": "ギフケン",
    "prefecture_code": 21,
    "city": "多治見市",
    "city_kana": "タジミシ",
    "town": "田代町",
    "town_kana": "タシロチョウ",
    "street": null,
    "office_name": null,
    "office_name_kana": null
  },
  "0037": {
    "postcode": "5070037",
    "prefecture": "岐阜県",
    "prefecture_kana": "ギフケン",
    "prefecture_code": 21,
    "city": "多治見市",
    "city_kana": "タジミシ",
    "town": "音羽町",
    "town_kana": "オトワチョウ",
    "street": null,
    "office_name": null,
    "office_name_kana": null
  },
  "0038": {
    "postcode": "5070038",
    "prefecture": "岐阜県",
    "prefecture_kana": "ギフケン",
    "prefecture_code": 21,
    "city": "多治見市",
    "city_kana": "タジミシ",
    "town": "白山町",
    "town_kana": "ハクサンチョウ",
    "street": null,
    "office_name": null,
    "office_name_kana": null
  },
  "0039": {
    "postcode": "5070039",
    "prefecture": "岐阜県",
    "prefecture_kana": "ギフケン",
    "prefecture_code": 21,
    "city": "多治見市",
    "city_kana": "タジミシ",
    "town": "十九田町",
    "town_kana": "ジュクタチョウ",
    "street": null,
    "office_name": null,
    "office_name_kana": null
  },
  "0041": {
    "postcode": "5070041",
    "prefecture": "岐阜県",
    "prefecture_kana": "ギフケン",
    "prefecture_code": 21,
    "city": "多治見市",
    "city_kana": "タジミシ",
    "town": "太平町",
    "town_kana": "タイヘイチョウ",
    "street": null,
    "office_name": null,
    "office_name_kana": null
  },
  "0042": {
    "postcode": "5070042",
    "prefecture": "岐阜県",
    "prefecture_kana": "ギフケン",
    "prefecture_code": 21,
    "city": "多治見市",
    "city_kana": "タジミシ",
    "town": "前畑町",
    "town_kana": "マエバタチョウ",
    "street": null,
    "office_name": null,
    "office_name_kana": null
  },
  "0043": {
    "postcode": "5070043",
    "prefecture": "岐阜県",
    "prefecture_kana": "ギフケン",
    "prefecture_code": 21,
    "city": "多治見市",
    "city_kana": "タジミシ",
    "town": "月見町",
    "town_kana": "ツキミチョウ",
    "street": null,
    "office_name": null,
    "office_name_kana": null
  },
  "0044": {
    "postcode": "5070044",
    "prefecture": "岐阜県",
    "prefecture_kana": "ギフケン",
    "prefecture_code": 21,
    "city": "多治見市",
    "city_kana": "タジミシ",
    "town": "諏訪町",
    "town_kana": "スワチョウ",
    "street": null,
    "office_name": null,
    "office_name_kana": null
  },
  "0045": {
    "postcode": "5070045",
    "prefecture": "岐阜県",
    "prefecture_kana": "ギフケン",
    "prefecture_code": 21,
    "city": "多治見市",
    "city_kana": "タジミシ",
    "town": "三の倉町",
    "town_kana": "サンノクラチョウ",
    "street": null,
    "office_name": null,
    "office_name_kana": null
  },
  "0046": {
    "postcode": "5070046",
    "prefecture": "岐阜県",
    "prefecture_kana": "ギフケン",
    "prefecture_code": 21,
    "city": "多治見市",
    "city_kana": "タジミシ",
    "town": "廿原町",
    "town_kana": "ツヅハラチョウ",
    "street": null,
    "office_name": null,
    "office_name_kana": null
  },
  "0047": {
    "postcode": "5070047",
    "prefecture": "岐阜県",
    "prefecture_kana": "ギフケン",
    "prefecture_code": 21,
    "city": "多治見市",
    "city_kana": "タジミシ",
    "town": "富士見町",
    "town_kana": "フジミチョウ",
    "street": null,
    "office_name": null,
    "office_name_kana": null
  },
  "0048": {
    "postcode": "5070048",
    "prefecture": "岐阜県",
    "prefecture_kana": "ギフケン",
    "prefecture_code": 21,
    "city": "多治見市",
    "city_kana": "タジミシ",
    "town": "池田町",
    "town_kana": "イケダチョウ",
    "street": null,
    "office_name": null,
    "office_name_kana": null
  },
  "0051": {
    "postcode": "5070051",
    "prefecture": "岐阜県",
    "prefecture_kana": "ギフケン",
    "prefecture_code": 21,
    "city": "多治見市",
    "city_kana": "タジミシ",
    "town": "西坂町",
    "town_kana": "ニシザカチョウ",
    "street": null,
    "office_name": null,
    "office_name_kana": null
  },
  "0052": {
    "postcode": "5070052",
    "prefecture": "岐阜県",
    "prefecture_kana": "ギフケン",
    "prefecture_code": 21,
    "city": "多治見市",
    "city_kana": "タジミシ",
    "town": "光ケ丘",
    "town_kana": "ヒカリガオカ",
    "street": null,
    "office_name": null,
    "office_name_kana": null
  },
  "0053": {
    "postcode": "5070053",
    "prefecture": "岐阜県",
    "prefecture_kana": "ギフケン",
    "prefecture_code": 21,
    "city": "多治見市",
    "city_kana": "タジミシ",
    "town": "若松町",
    "town_kana": "ワカマツチョウ",
    "street": null,
    "office_name": null,
    "office_name_kana": null
  },
  "0054": {
    "postcode": "5070054",
    "prefecture": "岐阜県",
    "prefecture_kana": "ギフケン",
    "prefecture_code": 21,
    "city": "多治見市",
    "city_kana": "タジミシ",
    "town": "宝町",
    "town_kana": "タカラマチ",
    "street": null,
    "office_name": null,
    "office_name_kana": null
  },
  "0055": {
    "postcode": "5070055",
    "prefecture": "岐阜県",
    "prefecture_kana": "ギフケン",
    "prefecture_code": 21,
    "city": "多治見市",
    "city_kana": "タジミシ",
    "town": "喜多町",
    "town_kana": "キタマチ",
    "street": null,
    "office_name": null,
    "office_name_kana": null
  },
  "0056": {
    "postcode": "5070056",
    "prefecture": "岐阜県",
    "prefecture_kana": "ギフケン",
    "prefecture_code": 21,
    "city": "多治見市",
    "city_kana": "タジミシ",
    "town": "美山町",
    "town_kana": "ミヤマチョウ",
    "street": null,
    "office_name": null,
    "office_name_kana": null
  },
  "0057": {
    "postcode": "5070057",
    "prefecture": "岐阜県",
    "prefecture_kana": "ギフケン",
    "prefecture_code": 21,
    "city": "多治見市",
    "city_kana": "タジミシ",
    "town": "赤坂町",
    "town_kana": "アカサカチョウ",
    "street": null,
    "office_name": null,
    "office_name_kana": null
  },
  "0058": {
    "postcode": "5070058",
    "prefecture": "岐阜県",
    "prefecture_kana": "ギフケン",
    "prefecture_code": 21,
    "city": "多治見市",
    "city_kana": "タジミシ",
    "town": "平井町",
    "town_kana": "ヒライチョウ",
    "street": null,
    "office_name": null,
    "office_name_kana": null
  },
  "0061": {
    "postcode": "5070061",
    "prefecture": "岐阜県",
    "prefecture_kana": "ギフケン",
    "prefecture_code": 21,
    "city": "多治見市",
    "city_kana": "タジミシ",
    "town": "姫町",
    "town_kana": "ヒメチョウ",
    "street": null,
    "office_name": null,
    "office_name_kana": null
  },
  "0062": {
    "postcode": "5070062",
    "prefecture": "岐阜県",
    "prefecture_kana": "ギフケン",
    "prefecture_code": 21,
    "city": "多治見市",
    "city_kana": "タジミシ",
    "town": "大針町",
    "town_kana": "オオハリチョウ",
    "street": null,
    "office_name": null,
    "office_name_kana": null
  },
  "0063": {
    "postcode": "5070063",
    "prefecture": "岐阜県",
    "prefecture_kana": "ギフケン",
    "prefecture_code": 21,
    "city": "多治見市",
    "city_kana": "タジミシ",
    "town": "松坂町",
    "town_kana": "マツサカチョウ",
    "street": null,
    "office_name": null,
    "office_name_kana": null
  },
  "0064": {
    "postcode": "5070064",
    "prefecture": "岐阜県",
    "prefecture_kana": "ギフケン",
    "prefecture_code": 21,
    "city": "多治見市",
    "city_kana": "タジミシ",
    "town": "北丘町",
    "town_kana": "キタオカチョウ",
    "street": null,
    "office_name": null,
    "office_name_kana": null
  },
  "0065": {
    "postcode": "5070065",
    "prefecture": "岐阜県",
    "prefecture_kana": "ギフケン",
    "prefecture_code": 21,
    "city": "多治見市",
    "city_kana": "タジミシ",
    "town": "根本町",
    "town_kana": "ネモトチョウ",
    "street": null,
    "office_name": null,
    "office_name_kana": null
  },
  "0066": {
    "postcode": "5070066",
    "prefecture": "岐阜県",
    "prefecture_kana": "ギフケン",
    "prefecture_code": 21,
    "city": "多治見市",
    "city_kana": "タジミシ",
    "town": "西山町",
    "town_kana": "ニシヤマチョウ",
    "street": null,
    "office_name": null,
    "office_name_kana": null
  },
  "0067": {
    "postcode": "5070067",
    "prefecture": "岐阜県",
    "prefecture_kana": "ギフケン",
    "prefecture_code": 21,
    "city": "多治見市",
    "city_kana": "タジミシ",
    "town": "北小木町",
    "town_kana": "キタオギチョウ",
    "street": null,
    "office_name": null,
    "office_name_kana": null
  },
  "0068": {
    "postcode": "5070068",
    "prefecture": "岐阜県",
    "prefecture_kana": "ギフケン",
    "prefecture_code": 21,
    "city": "多治見市",
    "city_kana": "タジミシ",
    "town": "大薮町",
    "town_kana": "オオヤブチョウ",
    "street": null,
    "office_name": null,
    "office_name_kana": null
  },
  "0071": {
    "postcode": "5070071",
    "prefecture": "岐阜県",
    "prefecture_kana": "ギフケン",
    "prefecture_code": 21,
    "city": "多治見市",
    "city_kana": "タジミシ",
    "town": "旭ケ丘",
    "town_kana": "アサヒガオカ",
    "street": null,
    "office_name": null,
    "office_name_kana": null
  },
  "0072": {
    "postcode": "5070072",
    "prefecture": "岐阜県",
    "prefecture_kana": "ギフケン",
    "prefecture_code": 21,
    "city": "多治見市",
    "city_kana": "タジミシ",
    "town": "明和町",
    "town_kana": "メイワチョウ",
    "street": null,
    "office_name": null,
    "office_name_kana": null
  },
  "0073": {
    "postcode": "5070073",
    "prefecture": "岐阜県",
    "prefecture_kana": "ギフケン",
    "prefecture_code": 21,
    "city": "多治見市",
    "city_kana": "タジミシ",
    "town": "小泉町",
    "town_kana": "コイズミチョウ",
    "street": null,
    "office_name": null,
    "office_name_kana": null
  },
  "0074": {
    "postcode": "5070074",
    "prefecture": "岐阜県",
    "prefecture_kana": "ギフケン",
    "prefecture_code": 21,
    "city": "多治見市",
    "city_kana": "タジミシ",
    "town": "大原町",
    "town_kana": "オオハラチョウ",
    "street": null,
    "office_name": null,
    "office_name_kana": null
  },
  "0075": {
    "postcode": "5070075",
    "prefecture": "岐阜県",
    "prefecture_kana": "ギフケン",
    "prefecture_code": 21,
    "city": "多治見市",
    "city_kana": "タジミシ",
    "town": "大沢町",
    "town_kana": "オオサワチョウ",
    "street": null,
    "office_name": null,
    "office_name_kana": null
  },
  "0076": {
    "postcode": "5070076",
    "prefecture": "岐阜県",
    "prefecture_kana": "ギフケン",
    "prefecture_code": 21,
    "city": "多治見市",
    "city_kana": "タジミシ",
    "town": "昭栄町",
    "town_kana": "ショウエイチョウ",
    "street": null,
    "office_name": null,
    "office_name_kana": null
  },
  "0077": {
    "postcode": "5070077",
    "prefecture": "岐阜県",
    "prefecture_kana": "ギフケン",
    "prefecture_code": 21,
    "city": "多治見市",
    "city_kana": "タジミシ",
    "town": "幸町",
    "town_kana": "サイワイチョウ",
    "street": null,
    "office_name": null,
    "office_name_kana": null
  },
  "0078": {
    "postcode": "5070078",
    "prefecture": "岐阜県",
    "prefecture_kana": "ギフケン",
    "prefecture_code": 21,
    "city": "多治見市",
    "city_kana": "タジミシ",
    "town": "高根町",
    "town_kana": "タカネチョウ",
    "street": null,
    "office_name": null,
    "office_name_kana": null
  },
  "0801": {
    "postcode": "5070801",
    "prefecture": "岐阜県",
    "prefecture_kana": "ギフケン",
    "prefecture_code": 21,
    "city": "多治見市",
    "city_kana": "タジミシ",
    "town": "東町",
    "town_kana": "ヒガシマチ",
    "street": null,
    "office_name": null,
    "office_name_kana": null
  },
  "0802": {
    "postcode": "5070802",
    "prefecture": "岐阜県",
    "prefecture_kana": "ギフケン",
    "prefecture_code": 21,
    "city": "多治見市",
    "city_kana": "タジミシ",
    "town": "山吹町",
    "town_kana": "ヤマブキチョウ",
    "street": null,
    "office_name": null,
    "office_name_kana": null
  },
  "0803": {
    "postcode": "5070803",
    "prefecture": "岐阜県",
    "prefecture_kana": "ギフケン",
    "prefecture_code": 21,
    "city": "多治見市",
    "city_kana": "タジミシ",
    "town": "美坂町",
    "town_kana": "ミサカチョウ",
    "street": null,
    "office_name": null,
    "office_name_kana": null
  },
  "0804": {
    "postcode": "5070804",
    "prefecture": "岐阜県",
    "prefecture_kana": "ギフケン",
    "prefecture_code": 21,
    "city": "多治見市",
    "city_kana": "タジミシ",
    "town": "坂上町",
    "town_kana": "サカウエチョウ",
    "street": null,
    "office_name": null,
    "office_name_kana": null
  },
  "0805": {
    "postcode": "5070805",
    "prefecture": "岐阜県",
    "prefecture_kana": "ギフケン",
    "prefecture_code": 21,
    "city": "多治見市",
    "city_kana": "タジミシ",
    "town": "新富町",
    "town_kana": "シントミチョウ",
    "street": null,
    "office_name": null,
    "office_name_kana": null
  },
  "0806": {
    "postcode": "5070806",
    "prefecture": "岐阜県",
    "prefecture_kana": "ギフケン",
    "prefecture_code": 21,
    "city": "多治見市",
    "city_kana": "タジミシ",
    "town": "上町",
    "town_kana": "カミマチ",
    "street": null,
    "office_name": null,
    "office_name_kana": null
  },
  "0807": {
    "postcode": "5070807",
    "prefecture": "岐阜県",
    "prefecture_kana": "ギフケン",
    "prefecture_code": 21,
    "city": "多治見市",
    "city_kana": "タジミシ",
    "town": "生田町",
    "town_kana": "イクタチョウ",
    "street": null,
    "office_name": null,
    "office_name_kana": null
  },
  "0811": {
    "postcode": "5070811",
    "prefecture": "岐阜県",
    "prefecture_kana": "ギフケン",
    "prefecture_code": 21,
    "city": "多治見市",
    "city_kana": "タジミシ",
    "town": "星ケ台",
    "town_kana": "ホシガダイ",
    "street": null,
    "office_name": null,
    "office_name_kana": null
  },
  "0812": {
    "postcode": "5070812",
    "prefecture": "岐阜県",
    "prefecture_kana": "ギフケン",
    "prefecture_code": 21,
    "city": "多治見市",
    "city_kana": "タジミシ",
    "town": "下沢町",
    "town_kana": "シモザワチョウ",
    "street": null,
    "office_name": null,
    "office_name_kana": null
  },
  "0813": {
    "postcode": "5070813",
    "prefecture": "岐阜県",
    "prefecture_kana": "ギフケン",
    "prefecture_code": 21,
    "city": "多治見市",
    "city_kana": "タジミシ",
    "town": "滝呂町",
    "town_kana": "タキロチョウ",
    "street": null,
    "office_name": null,
    "office_name_kana": null
  },
  "0814": {
    "postcode": "5070814",
    "prefecture": "岐阜県",
    "prefecture_kana": "ギフケン",
    "prefecture_code": 21,
    "city": "多治見市",
    "city_kana": "タジミシ",
    "town": "市之倉町",
    "town_kana": "イチノクラチョウ",
    "street": null,
    "office_name": null,
    "office_name_kana": null
  },
  "0815": {
    "postcode": "5070815",
    "prefecture": "岐阜県",
    "prefecture_kana": "ギフケン",
    "prefecture_code": 21,
    "city": "多治見市",
    "city_kana": "タジミシ",
    "town": "大畑町赤松",
    "town_kana": "オオバタチョウアカマツ",
    "street": null,
    "office_name": null,
    "office_name_kana": null
  },
  "0816": {
    "postcode": "5070816",
    "prefecture": "岐阜県",
    "prefecture_kana": "ギフケン",
    "prefecture_code": 21,
    "city": "多治見市",
    "city_kana": "タジミシ",
    "town": "大畑町西仲根",
    "town_kana": "オオバタチョウニシナカネ",
    "street": null,
    "office_name": null,
    "office_name_kana": null
  },
  "0817": {
    "postcode": "5070817",
    "prefecture": "岐阜県",
    "prefecture_kana": "ギフケン",
    "prefecture_code": 21,
    "city": "多治見市",
    "city_kana": "タジミシ",
    "town": "大畑町大洞",
    "town_kana": "オオバタチョウオオボラ",
    "street": null,
    "office_name": null,
    "office_name_kana": null
  },
  "0818": {
    "postcode": "5070818",
    "prefecture": "岐阜県",
    "prefecture_kana": "ギフケン",
    "prefecture_code": 21,
    "city": "多治見市",
    "city_kana": "タジミシ",
    "town": "大畑町",
    "town_kana": "オオバタチョウ",
    "street": null,
    "office_name": null,
    "office_name_kana": null
  },
  "0821": {
    "postcode": "5070821",
    "prefecture": "岐阜県",
    "prefecture_kana": "ギフケン",
    "prefecture_code": 21,
    "city": "多治見市",
    "city_kana": "タジミシ",
    "town": "窯町",
    "town_kana": "カママチ",
    "street": null,
    "office_name": null,
    "office_name_kana": null
  },
  "0822": {
    "postcode": "5070822",
    "prefecture": "岐阜県",
    "prefecture_kana": "ギフケン",
    "prefecture_code": 21,
    "city": "多治見市",
    "city_kana": "タジミシ",
    "town": "奥川町",
    "town_kana": "オクガワチョウ",
    "street": null,
    "office_name": null,
    "office_name_kana": null
  },
  "0823": {
    "postcode": "5070823",
    "prefecture": "岐阜県",
    "prefecture_kana": "ギフケン",
    "prefecture_code": 21,
    "city": "多治見市",
    "city_kana": "タジミシ",
    "town": "平野町",
    "town_kana": "ヒラノチョウ",
    "street": null,
    "office_name": null,
    "office_name_kana": null
  },
  "0824": {
    "postcode": "5070824",
    "prefecture": "岐阜県",
    "prefecture_kana": "ギフケン",
    "prefecture_code": 21,
    "city": "多治見市",
    "city_kana": "タジミシ",
    "town": "元町",
    "town_kana": "モトマチ",
    "street": null,
    "office_name": null,
    "office_name_kana": null
  },
  "0825": {
    "postcode": "5070825",
    "prefecture": "岐阜県",
    "prefecture_kana": "ギフケン",
    "prefecture_code": 21,
    "city": "多治見市",
    "city_kana": "タジミシ",
    "town": "京町",
    "town_kana": "キョウマチ",
    "street": null,
    "office_name": null,
    "office_name_kana": null
  },
  "0826": {
    "postcode": "5070826",
    "prefecture": "岐阜県",
    "prefecture_kana": "ギフケン",
    "prefecture_code": 21,
    "city": "多治見市",
    "city_kana": "タジミシ",
    "town": "脇之島町",
    "town_kana": "ワキノシマチョウ",
    "street": null,
    "office_name": null,
    "office_name_kana": null
  },
  "0827": {
    "postcode": "5070827",
    "prefecture": "岐阜県",
    "prefecture_kana": "ギフケン",
    "prefecture_code": 21,
    "city": "多治見市",
    "city_kana": "タジミシ",
    "town": "平和町",
    "town_kana": "ヘイワマチ",
    "street": null,
    "office_name": null,
    "office_name_kana": null
  },
  "0828": {
    "postcode": "5070828",
    "prefecture": "岐阜県",
    "prefecture_kana": "ギフケン",
    "prefecture_code": 21,
    "city": "多治見市",
    "city_kana": "タジミシ",
    "town": "三笠町",
    "town_kana": "ミカサチョウ",
    "street": null,
    "office_name": null,
    "office_name_kana": null
  },
  "0831": {
    "postcode": "5070831",
    "prefecture": "岐阜県",
    "prefecture_kana": "ギフケン",
    "prefecture_code": 21,
    "city": "多治見市",
    "city_kana": "タジミシ",
    "town": "新町",
    "town_kana": "シンマチ",
    "street": null,
    "office_name": null,
    "office_name_kana": null
  },
  "0832": {
    "postcode": "5070832",
    "prefecture": "岐阜県",
    "prefecture_kana": "ギフケン",
    "prefecture_code": 21,
    "city": "多治見市",
    "city_kana": "タジミシ",
    "town": "金山町",
    "town_kana": "カナヤマチョウ",
    "street": null,
    "office_name": null,
    "office_name_kana": null
  },
  "0833": {
    "postcode": "5070833",
    "prefecture": "岐阜県",
    "prefecture_kana": "ギフケン",
    "prefecture_code": 21,
    "city": "多治見市",
    "city_kana": "タジミシ",
    "town": "広小路",
    "town_kana": "ヒロコウジ",
    "street": null,
    "office_name": null,
    "office_name_kana": null
  },
  "0834": {
    "postcode": "5070834",
    "prefecture": "岐阜県",
    "prefecture_kana": "ギフケン",
    "prefecture_code": 21,
    "city": "多治見市",
    "city_kana": "タジミシ",
    "town": "御幸町",
    "town_kana": "ミユキマチ",
    "street": null,
    "office_name": null,
    "office_name_kana": null
  },
  "0835": {
    "postcode": "5070835",
    "prefecture": "岐阜県",
    "prefecture_kana": "ギフケン",
    "prefecture_code": 21,
    "city": "多治見市",
    "city_kana": "タジミシ",
    "town": "錦町",
    "town_kana": "ニシキマチ",
    "street": null,
    "office_name": null,
    "office_name_kana": null
  },
  "0836": {
    "postcode": "5070836",
    "prefecture": "岐阜県",
    "prefecture_kana": "ギフケン",
    "prefecture_code": 21,
    "city": "多治見市",
    "city_kana": "タジミシ",
    "town": "昭和町",
    "town_kana": "ショウワマチ",
    "street": null,
    "office_name": null,
    "office_name_kana": null
  },
  "0837": {
    "postcode": "5070837",
    "prefecture": "岐阜県",
    "prefecture_kana": "ギフケン",
    "prefecture_code": 21,
    "city": "多治見市",
    "city_kana": "タジミシ",
    "town": "青木町",
    "town_kana": "アオキマチ",
    "street": null,
    "office_name": null,
    "office_name_kana": null
  },
  "0838": {
    "postcode": "5070838",
    "prefecture": "岐阜県",
    "prefecture_kana": "ギフケン",
    "prefecture_code": 21,
    "city": "多治見市",
    "city_kana": "タジミシ",
    "town": "末広町",
    "town_kana": "スエヒロチョウ",
    "street": null,
    "office_name": null,
    "office_name_kana": null
  },
  "0841": {
    "postcode": "5070841",
    "prefecture": "岐阜県",
    "prefecture_kana": "ギフケン",
    "prefecture_code": 21,
    "city": "多治見市",
    "city_kana": "タジミシ",
    "town": "明治町",
    "town_kana": "メイジマチ",
    "street": null,
    "office_name": null,
    "office_name_kana": null
  },
  "0842": {
    "postcode": "5070842",
    "prefecture": "岐阜県",
    "prefecture_kana": "ギフケン",
    "prefecture_code": 21,
    "city": "多治見市",
    "city_kana": "タジミシ",
    "town": "中町",
    "town_kana": "ナカマチ",
    "street": null,
    "office_name": null,
    "office_name_kana": null
  },
  "0843": {
    "postcode": "5070843",
    "prefecture": "岐阜県",
    "prefecture_kana": "ギフケン",
    "prefecture_code": 21,
    "city": "多治見市",
    "city_kana": "タジミシ",
    "town": "常盤町",
    "town_kana": "トキワマチ",
    "street": null,
    "office_name": null,
    "office_name_kana": null
  },
  "0844": {
    "postcode": "5070844",
    "prefecture": "岐阜県",
    "prefecture_kana": "ギフケン",
    "prefecture_code": 21,
    "city": "多治見市",
    "city_kana": "タジミシ",
    "town": "陶元町",
    "town_kana": "トウゲンチョウ",
    "street": null,
    "office_name": null,
    "office_name_kana": null
  },
  "0845": {
    "postcode": "5070845",
    "prefecture": "岐阜県",
    "prefecture_kana": "ギフケン",
    "prefecture_code": 21,
    "city": "多治見市",
    "city_kana": "タジミシ",
    "town": "山下町",
    "town_kana": "ヤマシタチョウ",
    "street": null,
    "office_name": null,
    "office_name_kana": null
  },
  "0846": {
    "postcode": "5070846",
    "prefecture": "岐阜県",
    "prefecture_kana": "ギフケン",
    "prefecture_code": 21,
    "city": "多治見市",
    "city_kana": "タジミシ",
    "town": "神楽町",
    "town_kana": "カグラマチ",
    "street": null,
    "office_name": null,
    "office_name_kana": null
  },
  "0847": {
    "postcode": "5070847",
    "prefecture": "岐阜県",
    "prefecture_kana": "ギフケン",
    "prefecture_code": 21,
    "city": "多治見市",
    "city_kana": "タジミシ",
    "town": "小路町",
    "town_kana": "ショウジマチ",
    "street": null,
    "office_name": null,
    "office_name_kana": null
  },
  "0848": {
    "postcode": "5070848",
    "prefecture": "岐阜県",
    "prefecture_kana": "ギフケン",
    "prefecture_code": 21,
    "city": "多治見市",
    "city_kana": "タジミシ",
    "town": "日ノ出町",
    "town_kana": "ヒノデマチ",
    "street": null,
    "office_name": null,
    "office_name_kana": null
  },
  "0901": {
    "postcode": "5070901",
    "prefecture": "岐阜県",
    "prefecture_kana": "ギフケン",
    "prefecture_code": 21,
    "city": "多治見市",
    "city_kana": "タジミシ",
    "town": "笠原町",
    "town_kana": "カサハラチョウ",
    "street": null,
    "office_name": null,
    "office_name_kana": null
  },
  "8511": {
    "postcode": "5078511",
    "prefecture": "岐阜県",
    "prefecture_kana": "ギフケン",
    "prefecture_code": 21,
    "city": "多治見市",
    "city_kana": "タジミシ",
    "town": "前畑町",
    "town_kana": "マエバタチョウ",
    "street": "３丁目４３",
    "office_name": "社会医療法人厚生会　多治見市民病院",
    "office_name_kana": "シヤカイイリヨウホウジンコウセイカイ タジミシミンビヨウイン"
  },
  "8522": {
    "postcode": "5078522",
    "prefecture": "岐阜県",
    "prefecture_kana": "ギフケン",
    "prefecture_code": 21,
    "city": "多治見市",
    "city_kana": "タジミシ",
    "town": "前畑町",
    "town_kana": "マエバタチョウ",
    "street": "５丁目１６１",
    "office_name": "岐阜県立多治見病院",
    "office_name_kana": "ギフケンリツタジミビヨウイン"
  },
  "8523": {
    "postcode": "5078523",
    "prefecture": "岐阜県",
    "prefecture_kana": "ギフケン",
    "prefecture_code": 21,
    "city": "多治見市",
    "city_kana": "タジミシ",
    "town": "小田町",
    "town_kana": "オダマチ",
    "street": "６丁目１",
    "office_name": "太陽社電気　株式会社",
    "office_name_kana": "タイヨウシヤデンキ カブシキガイシヤ"
  },
  "8527": {
    "postcode": "5078527",
    "prefecture": "岐阜県",
    "prefecture_kana": "ギフケン",
    "prefecture_code": 21,
    "city": "多治見市",
    "city_kana": "タジミシ",
    "town": "上野町",
    "town_kana": "ウエノチョウ",
    "street": "５丁目１番地",
    "office_name": "中部電力　株式会社　多治見電力所",
    "office_name_kana": "チユウブデンリヨク カブシキガイシヤ タジミデンリヨクシヨ"
  },
  "8533": {
    "postcode": "5078533",
    "prefecture": "岐阜県",
    "prefecture_kana": "ギフケン",
    "prefecture_code": 21,
    "city": "多治見市",
    "city_kana": "タジミシ",
    "town": "本町",
    "town_kana": "ホンマチ",
    "street": "１丁目２番地",
    "office_name": "株式会社　三菱東京ＵＦＪ銀行　多治見支店",
    "office_name_kana": "カブシキガイシヤ ミツビシトウキヨウユ-エフジエイギンコウ タジミシテン"
  },
  "8561": {
    "postcode": "5078561",
    "prefecture": "岐阜県",
    "prefecture_kana": "ギフケン",
    "prefecture_code": 21,
    "city": "多治見市",
    "city_kana": "タジミシ",
    "town": "姫町",
    "town_kana": "ヒメチョウ",
    "street": "３丁目１６２",
    "office_name": "株式会社　アンシア",
    "office_name_kana": "カブシキガイシヤ アンシア"
  },
  "8568": {
    "postcode": "5078568",
    "prefecture": "岐阜県",
    "prefecture_kana": "ギフケン",
    "prefecture_code": 21,
    "city": "多治見市",
    "city_kana": "タジミシ",
    "town": "大薮町",
    "town_kana": "オオヤブチョウ",
    "street": "３４１",
    "office_name": "セレック　株式会社",
    "office_name_kana": "セレツク カブシキガイシヤ"
  },
  "8585": {
    "postcode": "5078585",
    "prefecture": "岐阜県",
    "prefecture_kana": "ギフケン",
    "prefecture_code": 21,
    "city": "多治見市",
    "city_kana": "タジミシ",
    "town": "旭ケ丘",
    "town_kana": "アサヒガオカ",
    "street": "１０−６",
    "office_name": "アマゾン　多治見ＦＣ　入庫係",
    "office_name_kana": "アマゾン タジミエフシ- ニユウコカカリ"
  },
  "8601": {
    "postcode": "5078601",
    "prefecture": "岐阜県",
    "prefecture_kana": "ギフケン",
    "prefecture_code": 21,
    "city": "多治見市",
    "city_kana": "タジミシ",
    "town": "大針町",
    "town_kana": "オオハリチョウ",
    "street": "６６１−１",
    "office_name": "株式会社　バロー",
    "office_name_kana": "カブシキガイシヤ バロ-"
  },
  "8602": {
    "postcode": "5078602",
    "prefecture": "岐阜県",
    "prefecture_kana": "ギフケン",
    "prefecture_code": 21,
    "city": "多治見市",
    "city_kana": "タジミシ",
    "town": "京町",
    "town_kana": "キョウマチ",
    "street": "４丁目１９−１",
    "office_name": "美濃包材　株式会社",
    "office_name_kana": "ミノホウザイ カブシキガイシヤ"
  },
  "8603": {
    "postcode": "5078603",
    "prefecture": "岐阜県",
    "prefecture_kana": "ギフケン",
    "prefecture_code": 21,
    "city": "多治見市",
    "city_kana": "タジミシ",
    "town": "新町",
    "town_kana": "シンマチ",
    "street": "１丁目２３番地",
    "office_name": "産業文化センター　指定管理者　株式会社",
    "office_name_kana": "サンギヨウブンカセンタ- シテイカンリシヤ カブシキガイシヤ"
  },
  "8605": {
    "postcode": "5078605",
    "prefecture": "岐阜県",
    "prefecture_kana": "ギフケン",
    "prefecture_code": 21,
    "city": "多治見市",
    "city_kana": "タジミシ",
    "town": "陶元町",
    "town_kana": "トウゲンチョウ",
    "street": "２０７",
    "office_name": "岐阜県立多治見工業高等学校",
    "office_name_kana": "ギフケンリツタジミコウギヨウコウトウガツコウ"
  },
  "8607": {
    "postcode": "5078607",
    "prefecture": "岐阜県",
    "prefecture_kana": "ギフケン",
    "prefecture_code": 21,
    "city": "多治見市",
    "city_kana": "タジミシ",
    "town": "大畑町",
    "town_kana": "オオバタチョウ",
    "street": "３丁目１",
    "office_name": "株式会社　Ｔ　Ｙ　Ｋ",
    "office_name_kana": "カブシキガイシヤ テエ・ワイ・ケイ"
  },
  "8608": {
    "postcode": "5078608",
    "prefecture": "岐阜県",
    "prefecture_kana": "ギフケン",
    "prefecture_code": 21,
    "city": "多治見市",
    "city_kana": "タジミシ",
    "town": "新町",
    "town_kana": "シンマチ",
    "street": "１丁目２３",
    "office_name": "多治見商工会議所",
    "office_name_kana": "タジミシヨウコウカイギシヨ"
  },
  "8701": {
    "postcode": "5078701",
    "prefecture": "岐阜県",
    "prefecture_kana": "ギフケン",
    "prefecture_code": 21,
    "city": "多治見市",
    "city_kana": "タジミシ",
    "town": "前畑町",
    "town_kana": "マエバタチョウ",
    "street": "２丁目１２（多治見郵便局私書箱第４４号）",
    "office_name": "前畑陶器　株式会社",
    "office_name_kana": "マエバタトウキ カブシキガイシヤ"
  },
  "8702": {
    "postcode": "5078702",
    "prefecture": "岐阜県",
    "prefecture_kana": "ギフケン",
    "prefecture_code": 21,
    "city": "多治見市",
    "city_kana": "タジミシ",
    "town": "本町",
    "town_kana": "ホンマチ",
    "street": "２丁目５−１（多治見郵便局私書箱第２号）",
    "office_name": "東濃信用金庫",
    "office_name_kana": "トウノウシンヨウキンコ"
  },
  "8703": {
    "postcode": "5078703",
    "prefecture": "岐阜県",
    "prefecture_kana": "ギフケン",
    "prefecture_code": 21,
    "city": "多治見市",
    "city_kana": "タジミシ",
    "town": "日ノ出町",
    "town_kana": "ヒノデマチ",
    "street": "２丁目１５（多治見郵便局私書箱第２３号）",
    "office_name": "多治見市役所",
    "office_name_kana": "タジミシヤクシヨ"
  },
  "8705": {
    "postcode": "5078705",
    "prefecture": "岐阜県",
    "prefecture_kana": "ギフケン",
    "prefecture_code": 21,
    "city": "多治見市",
    "city_kana": "タジミシ",
    "town": "錦町",
    "town_kana": "ニシキマチ",
    "street": "１丁目１２（多治見郵便局私書箱第４５号）",
    "office_name": "協同組合　日本陶芸チェーン",
    "office_name_kana": "キヨウドウクミアイ ニホントウゲイチエ-ン"
  },
  "8706": {
    "postcode": "5078706",
    "prefecture": "岐阜県",
    "prefecture_kana": "ギフケン",
    "prefecture_code": 21,
    "city": "多治見市",
    "city_kana": "タジミシ",
    "town": "白山町",
    "town_kana": "ハクサンチョウ",
    "street": "１丁目２９番地の１（多治見郵便局私書箱第４６号）",
    "office_name": "多治見税務署",
    "office_name_kana": "タジミゼイムシヨ"
  },
  "8708": {
    "postcode": "5078708",
    "prefecture": "岐阜県",
    "prefecture_kana": "ギフケン",
    "prefecture_code": 21,
    "city": "多治見市",
    "city_kana": "タジミシ",
    "town": "上野町",
    "town_kana": "ウエノチョウ",
    "street": "５丁目６８−１（多治見郵便局私書箱第５８号）",
    "office_name": "東濃西部総合庁舎",
    "office_name_kana": "トウノセイブソウゴウチヨウシヤ"
  },
  "8787": {
    "postcode": "5078787",
    "prefecture": "岐阜県",
    "prefecture_kana": "ギフケン",
    "prefecture_code": 21,
    "city": "多治見市",
    "city_kana": "タジミシ",
    "town": "音羽町",
    "town_kana": "オトワチョウ",
    "street": "１丁目２３３番地",
    "office_name": "多治見市役所　駅北庁舎",
    "office_name_kana": "タジミシヤクシヨ エキキタチヨウシヤ"
  }
}