{
  "0000": {
    "postcode": "5080000",
    "prefecture": "岐阜県",
    "prefecture_kana": "ギフケン",
    "prefecture_code": 21,
    "city": "中津川市",
    "city_kana": "ナカツガワシ",
    "town": "",
    "town_kana": "",
    "street": null,
    "office_name": null,
    "office_name_kana": null
  },
  "0001": {
    "postcode": "5080001",
    "prefecture": "岐阜県",
    "prefecture_kana": "ギフケン",
    "prefecture_code": 21,
    "city": "中津川市",
    "city_kana": "ナカツガワシ",
    "town": "中津川",
    "town_kana": "ナカツガワ",
    "street": null,
    "office_name": null,
    "office_name_kana": null
  },
  "0002": [
    {
      "postcode": "5080002",
      "prefecture": "岐阜県",
      "prefecture_kana": "ギフケン",
      "prefecture_code": 21,
      "city": "中津川市",
      "city_kana": "ナカツガワシ",
      "town": "阿木",
      "town_kana": "アギ",
      "street": null,
      "office_name": null,
      "office_name_kana": null
    },
    {
      "postcode": "5080002",
      "prefecture": "岐阜県",
      "prefecture_kana": "ギフケン",
      "prefecture_code": 21,
      "city": "中津川市",
      "city_kana": "ナカツガワシ",
      "town": "阿木川上",
      "town_kana": "アギカオレ",
      "street": null,
      "office_name": null,
      "office_name_kana": null
    }
  ],
  "0003": {
    "postcode": "5080003",
    "prefecture": "岐阜県",
    "prefecture_kana": "ギフケン",
    "prefecture_code": 21,
    "city": "中津川市",
    "city_kana": "ナカツガワシ",
    "town": "中一色町",
    "town_kana": "ナカイッシキチョウ",
    "street": null,
    "office_name": null,
    "office_name_kana": null
  },
  "0004": {
    "postcode": "5080004",
    "prefecture": "岐阜県",
    "prefecture_kana": "ギフケン",
    "prefecture_code": 21,
    "city": "中津川市",
    "city_kana": "ナカツガワシ",
    "town": "花戸町",
    "town_kana": "ハナドチョウ",
    "street": null,
    "office_name": null,
    "office_name_kana": null
  },
  "0005": {
    "postcode": "5080005",
    "prefecture": "岐阜県",
    "prefecture_kana": "ギフケン",
    "prefecture_code": 21,
    "city": "中津川市",
    "city_kana": "ナカツガワシ",
    "town": "日の出町",
    "town_kana": "ヒノデチョウ",
    "street": null,
    "office_name": null,
    "office_name_kana": null
  },
  "0006": {
    "postcode": "5080006",
    "prefecture": "岐阜県",
    "prefecture_kana": "ギフケン",
    "prefecture_code": 21,
    "city": "中津川市",
    "city_kana": "ナカツガワシ",
    "town": "落合",
    "town_kana": "オチアイ",
    "street": null,
    "office_name": null,
    "office_name_kana": null
  },
  "0007": {
    "postcode": "5080007",
    "prefecture": "岐阜県",
    "prefecture_kana": "ギフケン",
    "prefecture_code": 21,
    "city": "中津川市",
    "city_kana": "ナカツガワシ",
    "town": "神坂",
    "town_kana": "ミサカ",
    "street": null,
    "office_name": null,
    "office_name_kana": null
  },
  "0011": {
    "postcode": "5080011",
    "prefecture": "岐阜県",
    "prefecture_kana": "ギフケン",
    "prefecture_code": 21,
    "city": "中津川市",
    "city_kana": "ナカツガワシ",
    "town": "駒場",
    "town_kana": "コマンバ",
    "street": null,
    "office_name": null,
    "office_name_kana": null
  },
  "0012": {
    "postcode": "5080012",
    "prefecture": "岐阜県",
    "prefecture_kana": "ギフケン",
    "prefecture_code": 21,
    "city": "中津川市",
    "city_kana": "ナカツガワシ",
    "town": "津島町",
    "town_kana": "ツシマチョウ",
    "street": null,
    "office_name": null,
    "office_name_kana": null
  },
  "0013": {
    "postcode": "5080013",
    "prefecture": "岐阜県",
    "prefecture_kana": "ギフケン",
    "prefecture_code": 21,
    "city": "中津川市",
    "city_kana": "ナカツガワシ",
    "town": "柳町",
    "town_kana": "ヤナギマチ",
    "street": null,
    "office_name": null,
    "office_name_kana": null
  },
  "0014": {
    "postcode": "5080014",
    "prefecture": "岐阜県",
    "prefecture_kana": "ギフケン",
    "prefecture_code": 21,
    "city": "中津川市",
    "city_kana": "ナカツガワシ",
    "town": "駒場町",
    "town_kana": "コマンバチョウ",
    "street": null,
    "office_name": null,
    "office_name_kana": null
  },
  "0015": {
    "postcode": "5080015",
    "prefecture": "岐阜県",
    "prefecture_kana": "ギフケン",
    "prefecture_code": 21,
    "city": "中津川市",
    "city_kana": "ナカツガワシ",
    "town": "手賀野",
    "town_kana": "テガノ",
    "street": null,
    "office_name": null,
    "office_name_kana": null
  },
  "0021": {
    "postcode": "5080021",
    "prefecture": "岐阜県",
    "prefecture_kana": "ギフケン",
    "prefecture_code": 21,
    "city": "中津川市",
    "city_kana": "ナカツガワシ",
    "town": "中川町",
    "town_kana": "ナカガワチョウ",
    "street": null,
    "office_name": null,
    "office_name_kana": null
  },
  "0022": {
    "postcode": "5080022",
    "prefecture": "岐阜県",
    "prefecture_kana": "ギフケン",
    "prefecture_code": 21,
    "city": "中津川市",
    "city_kana": "ナカツガワシ",
    "town": "北野町",
    "town_kana": "キタノチョウ",
    "street": null,
    "office_name": null,
    "office_name_kana": null
  },
  "0023": {
    "postcode": "5080023",
    "prefecture": "岐阜県",
    "prefecture_kana": "ギフケン",
    "prefecture_code": 21,
    "city": "中津川市",
    "city_kana": "ナカツガワシ",
    "town": "小川町",
    "town_kana": "オガワチョウ",
    "street": null,
    "office_name": null,
    "office_name_kana": null
  },
  "0024": {
    "postcode": "5080024",
    "prefecture": "岐阜県",
    "prefecture_kana": "ギフケン",
    "prefecture_code": 21,
    "city": "中津川市",
    "city_kana": "ナカツガワシ",
    "town": "桃山町",
    "town_kana": "モモヤマチョウ",
    "street": null,
    "office_name": null,
    "office_name_kana": null
  },
  "0031": {
    "postcode": "5080031",
    "prefecture": "岐阜県",
    "prefecture_kana": "ギフケン",
    "prefecture_code": 21,
    "city": "中津川市",
    "city_kana": "ナカツガワシ",
    "town": "宮前町",
    "town_kana": "ミヤマエチョウ",
    "street": null,
    "office_name": null,
    "office_name_kana": null
  },
  "0032": {
    "postcode": "5080032",
    "prefecture": "岐阜県",
    "prefecture_kana": "ギフケン",
    "prefecture_code": 21,
    "city": "中津川市",
    "city_kana": "ナカツガワシ",
    "town": "栄町",
    "town_kana": "サカエマチ",
    "street": null,
    "office_name": null,
    "office_name_kana": null
  },
  "0033": {
    "postcode": "5080033",
    "prefecture": "岐阜県",
    "prefecture_kana": "ギフケン",
    "prefecture_code": 21,
    "city": "中津川市",
    "city_kana": "ナカツガワシ",
    "town": "太田町",
    "town_kana": "オオタマチ",
    "street": null,
    "office_name": null,
    "office_name_kana": null
  },
  "0034": {
    "postcode": "5080034",
    "prefecture": "岐阜県",
    "prefecture_kana": "ギフケン",
    "prefecture_code": 21,
    "city": "中津川市",
    "city_kana": "ナカツガワシ",
    "town": "淀川町",
    "town_kana": "ヨドガワチョウ",
    "street": null,
    "office_name": null,
    "office_name_kana": null
  },
  "0035": {
    "postcode": "5080035",
    "prefecture": "岐阜県",
    "prefecture_kana": "ギフケン",
    "prefecture_code": 21,
    "city": "中津川市",
    "city_kana": "ナカツガワシ",
    "town": "東町",
    "town_kana": "ヒガシマチ",
    "street": null,
    "office_name": null,
    "office_name_kana": null
  },
  "0036": {
    "postcode": "5080036",
    "prefecture": "岐阜県",
    "prefecture_kana": "ギフケン",
    "prefecture_code": 21,
    "city": "中津川市",
    "city_kana": "ナカツガワシ",
    "town": "東宮町",
    "town_kana": "ヒガシミヤマチ",
    "street": null,
    "office_name": null,
    "office_name_kana": null
  },
  "0037": {
    "postcode": "5080037",
    "prefecture": "岐阜県",
    "prefecture_kana": "ギフケン",
    "prefecture_code": 21,
    "city": "中津川市",
    "city_kana": "ナカツガワシ",
    "town": "えびす町",
    "town_kana": "エビスチョウ",
    "street": null,
    "office_name": null,
    "office_name_kana": null
  },
  "0038": {
    "postcode": "5080038",
    "prefecture": "岐阜県",
    "prefecture_kana": "ギフケン",
    "prefecture_code": 21,
    "city": "中津川市",
    "city_kana": "ナカツガワシ",
    "town": "新町",
    "town_kana": "シンマチ",
    "street": null,
    "office_name": null,
    "office_name_kana": null
  },
  "0041": {
    "postcode": "5080041",
    "prefecture": "岐阜県",
    "prefecture_kana": "ギフケン",
    "prefecture_code": 21,
    "city": "中津川市",
    "city_kana": "ナカツガワシ",
    "town": "本町",
    "town_kana": "ホンマチ",
    "street": null,
    "office_name": null,
    "office_name_kana": null
  },
  "0042": {
    "postcode": "5080042",
    "prefecture": "岐阜県",
    "prefecture_kana": "ギフケン",
    "prefecture_code": 21,
    "city": "中津川市",
    "city_kana": "ナカツガワシ",
    "town": "西宮町",
    "town_kana": "ニシミヤマチ",
    "street": null,
    "office_name": null,
    "office_name_kana": null
  },
  "0043": {
    "postcode": "5080043",
    "prefecture": "岐阜県",
    "prefecture_kana": "ギフケン",
    "prefecture_code": 21,
    "city": "中津川市",
    "city_kana": "ナカツガワシ",
    "town": "八幡町",
    "town_kana": "ハチマンチョウ",
    "street": null,
    "office_name": null,
    "office_name_kana": null
  },
  "0044": {
    "postcode": "5080044",
    "prefecture": "岐阜県",
    "prefecture_kana": "ギフケン",
    "prefecture_code": 21,
    "city": "中津川市",
    "city_kana": "ナカツガワシ",
    "town": "昭和町",
    "town_kana": "ショウワマチ",
    "street": null,
    "office_name": null,
    "office_name_kana": null
  },
  "0045": {
    "postcode": "5080045",
    "prefecture": "岐阜県",
    "prefecture_kana": "ギフケン",
    "prefecture_code": 21,
    "city": "中津川市",
    "city_kana": "ナカツガワシ",
    "town": "かやの木町",
    "town_kana": "カヤノキチョウ",
    "street": null,
    "office_name": null,
    "office_name_kana": null
  },
  "0101": {
    "postcode": "5080101",
    "prefecture": "岐阜県",
    "prefecture_kana": "ギフケン",
    "prefecture_code": 21,
    "city": "中津川市",
    "city_kana": "ナカツガワシ",
    "town": "苗木",
    "town_kana": "ナエギ",
    "street": null,
    "office_name": null,
    "office_name_kana": null
  },
  "0111": {
    "postcode": "5080111",
    "prefecture": "岐阜県",
    "prefecture_kana": "ギフケン",
    "prefecture_code": 21,
    "city": "中津川市",
    "city_kana": "ナカツガワシ",
    "town": "瀬戸",
    "town_kana": "セト",
    "street": null,
    "office_name": null,
    "office_name_kana": null
  },
  "0201": {
    "postcode": "5080201",
    "prefecture": "岐阜県",
    "prefecture_kana": "ギフケン",
    "prefecture_code": 21,
    "city": "中津川市",
    "city_kana": "ナカツガワシ",
    "town": "田瀬",
    "town_kana": "タセ",
    "street": null,
    "office_name": null,
    "office_name_kana": null
  },
  "0202": {
    "postcode": "5080202",
    "prefecture": "岐阜県",
    "prefecture_kana": "ギフケン",
    "prefecture_code": 21,
    "city": "中津川市",
    "city_kana": "ナカツガワシ",
    "town": "下野",
    "town_kana": "シモノ",
    "street": null,
    "office_name": null,
    "office_name_kana": null
  },
  "0203": {
    "postcode": "5080203",
    "prefecture": "岐阜県",
    "prefecture_kana": "ギフケン",
    "prefecture_code": 21,
    "city": "中津川市",
    "city_kana": "ナカツガワシ",
    "town": "福岡",
    "town_kana": "フクオカ",
    "street": null,
    "office_name": null,
    "office_name_kana": null
  },
  "0204": {
    "postcode": "5080204",
    "prefecture": "岐阜県",
    "prefecture_kana": "ギフケン",
    "prefecture_code": 21,
    "city": "中津川市",
    "city_kana": "ナカツガワシ",
    "town": "高山",
    "town_kana": "タカヤマ",
    "street": null,
    "office_name": null,
    "office_name_kana": null
  },
  "0292": {
    "postcode": "5080292",
    "prefecture": "岐阜県",
    "prefecture_kana": "ギフケン",
    "prefecture_code": 21,
    "city": "中津川市",
    "city_kana": "ナカツガワシ",
    "town": "福岡",
    "town_kana": "フクオカ",
    "street": "７１４番地２",
    "office_name": "中津川市　福岡総合事務所",
    "office_name_kana": "ナカツガワシ フクオカソウゴウジムシヨ"
  },
  "0351": {
    "postcode": "5080351",
    "prefecture": "岐阜県",
    "prefecture_kana": "ギフケン",
    "prefecture_code": 21,
    "city": "中津川市",
    "city_kana": "ナカツガワシ",
    "town": "付知町",
    "town_kana": "ツケチチョウ",
    "street": null,
    "office_name": null,
    "office_name_kana": null
  },
  "0421": {
    "postcode": "5080421",
    "prefecture": "岐阜県",
    "prefecture_kana": "ギフケン",
    "prefecture_code": 21,
    "city": "中津川市",
    "city_kana": "ナカツガワシ",
    "town": "加子母",
    "town_kana": "カシモ",
    "street": null,
    "office_name": null,
    "office_name_kana": null
  },
  "0494": {
    "postcode": "5080494",
    "prefecture": "岐阜県",
    "prefecture_kana": "ギフケン",
    "prefecture_code": 21,
    "city": "中津川市",
    "city_kana": "ナカツガワシ",
    "town": "加子母",
    "town_kana": "カシモ",
    "street": "３５１９番地２",
    "office_name": "中津川市　加子母総合事務所",
    "office_name_kana": "ナカツガワシ カシモソウゴウジムシヨ"
  },
  "0501": {
    "postcode": "5080501",
    "prefecture": "岐阜県",
    "prefecture_kana": "ギフケン",
    "prefecture_code": 21,
    "city": "中津川市",
    "city_kana": "ナカツガワシ",
    "town": "山口",
    "town_kana": "ヤマグチ",
    "street": null,
    "office_name": null,
    "office_name_kana": null
  },
  "0502": {
    "postcode": "5080502",
    "prefecture": "岐阜県",
    "prefecture_kana": "ギフケン",
    "prefecture_code": 21,
    "city": "中津川市",
    "city_kana": "ナカツガワシ",
    "town": "馬籠",
    "town_kana": "マゴメ",
    "street": null,
    "office_name": null,
    "office_name_kana": null
  },
  "8500": {
    "postcode": "5088500",
    "prefecture": "岐阜県",
    "prefecture_kana": "ギフケン",
    "prefecture_code": 21,
    "city": "中津川市",
    "city_kana": "ナカツガワシ",
    "town": "中津川",
    "town_kana": "ナカツガワ",
    "street": "８４２−３３４",
    "office_name": "北恵那交通　（株）",
    "office_name_kana": "キタエナコウツウ (カブ)"
  },
  "8501": {
    "postcode": "5088501",
    "prefecture": "岐阜県",
    "prefecture_kana": "ギフケン",
    "prefecture_code": 21,
    "city": "中津川市",
    "city_kana": "ナカツガワシ",
    "town": "かやの木町",
    "town_kana": "カヤノキチョウ",
    "street": "２−１",
    "office_name": "中津川市役所",
    "office_name_kana": "ナカツガワシヤクシヨ"
  },
  "8502": {
    "postcode": "5088502",
    "prefecture": "岐阜県",
    "prefecture_kana": "ギフケン",
    "prefecture_code": 21,
    "city": "中津川市",
    "city_kana": "ナカツガワシ",
    "town": "駒場",
    "town_kana": "コマンバ",
    "street": "１５５２−１",
    "office_name": "総合病院中津川市民病院",
    "office_name_kana": "ソウゴウビヨウインナカツガワシミンビヨウイン"
  },
  "8511": {
    "postcode": "5088511",
    "prefecture": "岐阜県",
    "prefecture_kana": "ギフケン",
    "prefecture_code": 21,
    "city": "中津川市",
    "city_kana": "ナカツガワシ",
    "town": "小川町",
    "town_kana": "オガワチョウ",
    "street": "２−８",
    "office_name": "株式会社　吉川工務店",
    "office_name_kana": "カブシキガイシヤ ヨシカワコウムテン"
  },
  "8555": {
    "postcode": "5088555",
    "prefecture": "岐阜県",
    "prefecture_kana": "ギフケン",
    "prefecture_code": 21,
    "city": "中津川市",
    "city_kana": "ナカツガワシ",
    "town": "桃山町",
    "town_kana": "モモヤマチョウ",
    "street": "３−２０",
    "office_name": "株式会社　トキワ",
    "office_name_kana": "カブシキガイシヤ トキワ"
  },
  "8585": {
    "postcode": "5088585",
    "prefecture": "岐阜県",
    "prefecture_kana": "ギフケン",
    "prefecture_code": 21,
    "city": "中津川市",
    "city_kana": "ナカツガワシ",
    "town": "小川町",
    "town_kana": "オガワチョウ",
    "street": "２−３",
    "office_name": "中央板紙　株式会社",
    "office_name_kana": "チユウオウイタガミ カブシキガイシヤ"
  },
  "8611": {
    "postcode": "5088611",
    "prefecture": "岐阜県",
    "prefecture_kana": "ギフケン",
    "prefecture_code": 21,
    "city": "中津川市",
    "city_kana": "ナカツガワシ",
    "town": "かやの木町",
    "town_kana": "カヤノキチョウ",
    "street": "４−３中津川合同庁舎２階（中津川郵便局私書箱第２８号）",
    "office_name": "中津川税務署",
    "office_name_kana": "ナカツガワゼイムシヨ"
  },
  "8666": {
    "postcode": "5088666",
    "prefecture": "岐阜県",
    "prefecture_kana": "ギフケン",
    "prefecture_code": 21,
    "city": "中津川市",
    "city_kana": "ナカツガワシ",
    "town": "駒場町",
    "town_kana": "コマンバチョウ",
    "street": "１−３（中津川郵便局私書箱第２５号）",
    "office_name": "三菱電機　株式会社　中津川製作所",
    "office_name_kana": "ミツビシデンキ カブシキガイシヤ ナカツガワセイサクシヨ"
  },
  "8686": {
    "postcode": "5088686",
    "prefecture": "岐阜県",
    "prefecture_kana": "ギフケン",
    "prefecture_code": 21,
    "city": "中津川市",
    "city_kana": "ナカツガワシ",
    "town": "中津川",
    "town_kana": "ナカツガワ",
    "street": "３４６５−１",
    "office_name": "王子エフテックス　株式会社　中津工場",
    "office_name_kana": "オウジエフテツクス (カ) ナカツコウジヨウ"
  }
}