{
  "0000": {
    "postcode": "5180000",
    "prefecture": "三重県",
    "prefecture_kana": "ミエケン",
    "prefecture_code": 24,
    "city": "伊賀市",
    "city_kana": "イガシ",
    "town": "",
    "town_kana": "",
    "street": null,
    "office_name": null,
    "office_name_kana": null
  },
  "0001": {
    "postcode": "5180001",
    "prefecture": "三重県",
    "prefecture_kana": "ミエケン",
    "prefecture_code": 24,
    "city": "伊賀市",
    "city_kana": "イガシ",
    "town": "佐那具町",
    "town_kana": "サナグチョウ",
    "street": null,
    "office_name": null,
    "office_name_kana": null
  },
  "0002": {
    "postcode": "5180002",
    "prefecture": "三重県",
    "prefecture_kana": "ミエケン",
    "prefecture_code": 24,
    "city": "伊賀市",
    "city_kana": "イガシ",
    "town": "千歳",
    "town_kana": "センザイ",
    "street": null,
    "office_name": null,
    "office_name_kana": null
  },
  "0003": {
    "postcode": "5180003",
    "prefecture": "三重県",
    "prefecture_kana": "ミエケン",
    "prefecture_code": 24,
    "city": "伊賀市",
    "city_kana": "イガシ",
    "town": "一之宮",
    "town_kana": "イチノミヤ",
    "street": null,
    "office_name": null,
    "office_name_kana": null
  },
  "0004": {
    "postcode": "5180004",
    "prefecture": "三重県",
    "prefecture_kana": "ミエケン",
    "prefecture_code": 24,
    "city": "伊賀市",
    "city_kana": "イガシ",
    "town": "寺田",
    "town_kana": "テラダ",
    "street": null,
    "office_name": null,
    "office_name_kana": null
  },
  "0005": {
    "postcode": "5180005",
    "prefecture": "三重県",
    "prefecture_kana": "ミエケン",
    "prefecture_code": 24,
    "city": "伊賀市",
    "city_kana": "イガシ",
    "town": "高畑",
    "town_kana": "タカハタ",
    "street": null,
    "office_name": null,
    "office_name_kana": null
  },
  "0006": {
    "postcode": "5180006",
    "prefecture": "三重県",
    "prefecture_kana": "ミエケン",
    "prefecture_code": 24,
    "city": "伊賀市",
    "city_kana": "イガシ",
    "town": "羽根",
    "town_kana": "ハネ",
    "street": null,
    "office_name": null,
    "office_name_kana": null
  },
  "0007": {
    "postcode": "5180007",
    "prefecture": "三重県",
    "prefecture_kana": "ミエケン",
    "prefecture_code": 24,
    "city": "伊賀市",
    "city_kana": "イガシ",
    "town": "服部町",
    "town_kana": "ハットリチョウ",
    "street": null,
    "office_name": null,
    "office_name_kana": null
  },
  "0008": {
    "postcode": "5180008",
    "prefecture": "三重県",
    "prefecture_kana": "ミエケン",
    "prefecture_code": 24,
    "city": "伊賀市",
    "city_kana": "イガシ",
    "town": "印代",
    "town_kana": "イジロ",
    "street": null,
    "office_name": null,
    "office_name_kana": null
  },
  "0011": {
    "postcode": "5180011",
    "prefecture": "三重県",
    "prefecture_kana": "ミエケン",
    "prefecture_code": 24,
    "city": "伊賀市",
    "city_kana": "イガシ",
    "town": "外山",
    "town_kana": "トヤマ",
    "street": null,
    "office_name": null,
    "office_name_kana": null
  },
  "0012": {
    "postcode": "5180012",
    "prefecture": "三重県",
    "prefecture_kana": "ミエケン",
    "prefecture_code": 24,
    "city": "伊賀市",
    "city_kana": "イガシ",
    "town": "坂之下",
    "town_kana": "サカノシタ",
    "street": null,
    "office_name": null,
    "office_name_kana": null
  },
  "0013": {
    "postcode": "5180013",
    "prefecture": "三重県",
    "prefecture_kana": "ミエケン",
    "prefecture_code": 24,
    "city": "伊賀市",
    "city_kana": "イガシ",
    "town": "東条",
    "town_kana": "ヒガシジョウ",
    "street": null,
    "office_name": null,
    "office_name_kana": null
  },
  "0014": {
    "postcode": "5180014",
    "prefecture": "三重県",
    "prefecture_kana": "ミエケン",
    "prefecture_code": 24,
    "city": "伊賀市",
    "city_kana": "イガシ",
    "town": "西条",
    "town_kana": "ニシジョウ",
    "street": null,
    "office_name": null,
    "office_name_kana": null
  },
  "0015": {
    "postcode": "5180015",
    "prefecture": "三重県",
    "prefecture_kana": "ミエケン",
    "prefecture_code": 24,
    "city": "伊賀市",
    "city_kana": "イガシ",
    "town": "土橋",
    "town_kana": "ツチハシ",
    "street": null,
    "office_name": null,
    "office_name_kana": null
  },
  "0016": {
    "postcode": "5180016",
    "prefecture": "三重県",
    "prefecture_kana": "ミエケン",
    "prefecture_code": 24,
    "city": "伊賀市",
    "city_kana": "イガシ",
    "town": "山神",
    "town_kana": "ヤガミ",
    "street": null,
    "office_name": null,
    "office_name_kana": null
  },
  "0017": {
    "postcode": "5180017",
    "prefecture": "三重県",
    "prefecture_kana": "ミエケン",
    "prefecture_code": 24,
    "city": "伊賀市",
    "city_kana": "イガシ",
    "town": "大谷",
    "town_kana": "オオタニ",
    "street": null,
    "office_name": null,
    "office_name_kana": null
  },
  "0021": {
    "postcode": "5180021",
    "prefecture": "三重県",
    "prefecture_kana": "ミエケン",
    "prefecture_code": 24,
    "city": "伊賀市",
    "city_kana": "イガシ",
    "town": "諏訪",
    "town_kana": "スワ",
    "street": null,
    "office_name": null,
    "office_name_kana": null
  },
  "0022": {
    "postcode": "5180022",
    "prefecture": "三重県",
    "prefecture_kana": "ミエケン",
    "prefecture_code": 24,
    "city": "伊賀市",
    "city_kana": "イガシ",
    "town": "三田",
    "town_kana": "ミタ",
    "street": null,
    "office_name": null,
    "office_name_kana": null
  },
  "0023": {
    "postcode": "5180023",
    "prefecture": "三重県",
    "prefecture_kana": "ミエケン",
    "prefecture_code": 24,
    "city": "伊賀市",
    "city_kana": "イガシ",
    "town": "野間",
    "town_kana": "ノマ",
    "street": null,
    "office_name": null,
    "office_name_kana": null
  },
  "0024": {
    "postcode": "5180024",
    "prefecture": "三重県",
    "prefecture_kana": "ミエケン",
    "prefecture_code": 24,
    "city": "伊賀市",
    "city_kana": "イガシ",
    "town": "東高倉",
    "town_kana": "ヒガシタカクラ",
    "street": null,
    "office_name": null,
    "office_name_kana": null
  },
  "0025": {
    "postcode": "5180025",
    "prefecture": "三重県",
    "prefecture_kana": "ミエケン",
    "prefecture_code": 24,
    "city": "伊賀市",
    "city_kana": "イガシ",
    "town": "西高倉",
    "town_kana": "ニシタカクラ",
    "street": null,
    "office_name": null,
    "office_name_kana": null
  },
  "0026": {
    "postcode": "5180026",
    "prefecture": "三重県",
    "prefecture_kana": "ミエケン",
    "prefecture_code": 24,
    "city": "伊賀市",
    "city_kana": "イガシ",
    "town": "岩倉",
    "town_kana": "イワクラ",
    "street": null,
    "office_name": null,
    "office_name_kana": null
  },
  "0027": {
    "postcode": "5180027",
    "prefecture": "三重県",
    "prefecture_kana": "ミエケン",
    "prefecture_code": 24,
    "city": "伊賀市",
    "city_kana": "イガシ",
    "town": "西山",
    "town_kana": "ニシヤマ",
    "street": null,
    "office_name": null,
    "office_name_kana": null
  },
  "0031": {
    "postcode": "5180031",
    "prefecture": "三重県",
    "prefecture_kana": "ミエケン",
    "prefecture_code": 24,
    "city": "伊賀市",
    "city_kana": "イガシ",
    "town": "長田",
    "town_kana": "ナガタ",
    "street": null,
    "office_name": null,
    "office_name_kana": null
  },
  "0032": {
    "postcode": "5180032",
    "prefecture": "三重県",
    "prefecture_kana": "ミエケン",
    "prefecture_code": 24,
    "city": "伊賀市",
    "city_kana": "イガシ",
    "town": "朝屋",
    "town_kana": "チョウヤ",
    "street": null,
    "office_name": null,
    "office_name_kana": null
  },
  "0033": {
    "postcode": "5180033",
    "prefecture": "三重県",
    "prefecture_kana": "ミエケン",
    "prefecture_code": 24,
    "city": "伊賀市",
    "city_kana": "イガシ",
    "town": "大野木",
    "town_kana": "オオノギ",
    "street": null,
    "office_name": null,
    "office_name_kana": null
  },
  "0034": {
    "postcode": "5180034",
    "prefecture": "三重県",
    "prefecture_kana": "ミエケン",
    "prefecture_code": 24,
    "city": "伊賀市",
    "city_kana": "イガシ",
    "town": "大内",
    "town_kana": "オオウチ",
    "street": null,
    "office_name": null,
    "office_name_kana": null
  },
  "0035": {
    "postcode": "5180035",
    "prefecture": "三重県",
    "prefecture_kana": "ミエケン",
    "prefecture_code": 24,
    "city": "伊賀市",
    "city_kana": "イガシ",
    "town": "七本木",
    "town_kana": "シチホンギ",
    "street": null,
    "office_name": null,
    "office_name_kana": null
  },
  "0036": {
    "postcode": "5180036",
    "prefecture": "三重県",
    "prefecture_kana": "ミエケン",
    "prefecture_code": 24,
    "city": "伊賀市",
    "city_kana": "イガシ",
    "town": "法花",
    "town_kana": "ホッケ",
    "street": null,
    "office_name": null,
    "office_name_kana": null
  },
  "0101": {
    "postcode": "5180101",
    "prefecture": "三重県",
    "prefecture_kana": "ミエケン",
    "prefecture_code": 24,
    "city": "伊賀市",
    "city_kana": "イガシ",
    "town": "依那具",
    "town_kana": "イナグ",
    "street": null,
    "office_name": null,
    "office_name_kana": null
  },
  "0102": {
    "postcode": "5180102",
    "prefecture": "三重県",
    "prefecture_kana": "ミエケン",
    "prefecture_code": 24,
    "city": "伊賀市",
    "city_kana": "イガシ",
    "town": "市部",
    "town_kana": "イチベ",
    "street": null,
    "office_name": null,
    "office_name_kana": null
  },
  "0103": {
    "postcode": "5180103",
    "prefecture": "三重県",
    "prefecture_kana": "ミエケン",
    "prefecture_code": 24,
    "city": "伊賀市",
    "city_kana": "イガシ",
    "town": "沖",
    "town_kana": "オキ",
    "street": null,
    "office_name": null,
    "office_name_kana": null
  },
  "0104": {
    "postcode": "5180104",
    "prefecture": "三重県",
    "prefecture_kana": "ミエケン",
    "prefecture_code": 24,
    "city": "伊賀市",
    "city_kana": "イガシ",
    "town": "摺見",
    "town_kana": "スルミ",
    "street": null,
    "office_name": null,
    "office_name_kana": null
  },
  "0105": {
    "postcode": "5180105",
    "prefecture": "三重県",
    "prefecture_kana": "ミエケン",
    "prefecture_code": 24,
    "city": "伊賀市",
    "city_kana": "イガシ",
    "town": "比自岐",
    "town_kana": "ヒジキ",
    "street": null,
    "office_name": null,
    "office_name_kana": null
  },
  "0106": {
    "postcode": "5180106",
    "prefecture": "三重県",
    "prefecture_kana": "ミエケン",
    "prefecture_code": 24,
    "city": "伊賀市",
    "city_kana": "イガシ",
    "town": "岡波",
    "town_kana": "オカナミ",
    "street": null,
    "office_name": null,
    "office_name_kana": null
  },
  "0107": {
    "postcode": "5180107",
    "prefecture": "三重県",
    "prefecture_kana": "ミエケン",
    "prefecture_code": 24,
    "city": "伊賀市",
    "city_kana": "イガシ",
    "town": "枅川",
    "town_kana": "ヒジキガワ",
    "street": null,
    "office_name": null,
    "office_name_kana": null
  },
  "0108": {
    "postcode": "5180108",
    "prefecture": "三重県",
    "prefecture_kana": "ミエケン",
    "prefecture_code": 24,
    "city": "伊賀市",
    "city_kana": "イガシ",
    "town": "才良",
    "town_kana": "ザイリョウ",
    "street": null,
    "office_name": null,
    "office_name_kana": null
  },
  "0111": {
    "postcode": "5180111",
    "prefecture": "三重県",
    "prefecture_kana": "ミエケン",
    "prefecture_code": 24,
    "city": "伊賀市",
    "city_kana": "イガシ",
    "town": "下神戸",
    "town_kana": "シモカンベ",
    "street": null,
    "office_name": null,
    "office_name_kana": null
  },
  "0112": {
    "postcode": "5180112",
    "prefecture": "三重県",
    "prefecture_kana": "ミエケン",
    "prefecture_code": 24,
    "city": "伊賀市",
    "city_kana": "イガシ",
    "town": "上林",
    "town_kana": "ウエバヤシ",
    "street": null,
    "office_name": null,
    "office_name_kana": null
  },
  "0113": {
    "postcode": "5180113",
    "prefecture": "三重県",
    "prefecture_kana": "ミエケン",
    "prefecture_code": 24,
    "city": "伊賀市",
    "city_kana": "イガシ",
    "town": "古郡",
    "town_kana": "フルコオリ",
    "street": null,
    "office_name": null,
    "office_name_kana": null
  },
  "0114": {
    "postcode": "5180114",
    "prefecture": "三重県",
    "prefecture_kana": "ミエケン",
    "prefecture_code": 24,
    "city": "伊賀市",
    "city_kana": "イガシ",
    "town": "朝日ケ丘町",
    "town_kana": "アサヒガオカチョウ",
    "street": null,
    "office_name": null,
    "office_name_kana": null
  },
  "0115": {
    "postcode": "5180115",
    "prefecture": "三重県",
    "prefecture_kana": "ミエケン",
    "prefecture_code": 24,
    "city": "伊賀市",
    "city_kana": "イガシ",
    "town": "比土",
    "town_kana": "ヒド",
    "street": null,
    "office_name": null,
    "office_name_kana": null
  },
  "0116": {
    "postcode": "5180116",
    "prefecture": "三重県",
    "prefecture_kana": "ミエケン",
    "prefecture_code": 24,
    "city": "伊賀市",
    "city_kana": "イガシ",
    "town": "上神戸",
    "town_kana": "カミカンベ",
    "street": null,
    "office_name": null,
    "office_name_kana": null
  },
  "0121": {
    "postcode": "5180121",
    "prefecture": "三重県",
    "prefecture_kana": "ミエケン",
    "prefecture_code": 24,
    "city": "伊賀市",
    "city_kana": "イガシ",
    "town": "上之庄",
    "town_kana": "カミノショウ",
    "street": null,
    "office_name": null,
    "office_name_kana": null
  },
  "0122": {
    "postcode": "5180122",
    "prefecture": "三重県",
    "prefecture_kana": "ミエケン",
    "prefecture_code": 24,
    "city": "伊賀市",
    "city_kana": "イガシ",
    "town": "笠部",
    "town_kana": "カサベ",
    "street": null,
    "office_name": null,
    "office_name_kana": null
  },
  "0123": {
    "postcode": "5180123",
    "prefecture": "三重県",
    "prefecture_kana": "ミエケン",
    "prefecture_code": 24,
    "city": "伊賀市",
    "city_kana": "イガシ",
    "town": "猪田",
    "town_kana": "イダ",
    "street": null,
    "office_name": null,
    "office_name_kana": null
  },
  "0124": {
    "postcode": "5180124",
    "prefecture": "三重県",
    "prefecture_kana": "ミエケン",
    "prefecture_code": 24,
    "city": "伊賀市",
    "city_kana": "イガシ",
    "town": "下郡",
    "town_kana": "シモゴオリ",
    "street": null,
    "office_name": null,
    "office_name_kana": null
  },
  "0125": {
    "postcode": "5180125",
    "prefecture": "三重県",
    "prefecture_kana": "ミエケン",
    "prefecture_code": 24,
    "city": "伊賀市",
    "city_kana": "イガシ",
    "town": "上郡",
    "town_kana": "カミゴオリ",
    "street": null,
    "office_name": null,
    "office_name_kana": null
  },
  "0126": {
    "postcode": "5180126",
    "prefecture": "三重県",
    "prefecture_kana": "ミエケン",
    "prefecture_code": 24,
    "city": "伊賀市",
    "city_kana": "イガシ",
    "town": "森寺",
    "town_kana": "モリデラ",
    "street": null,
    "office_name": null,
    "office_name_kana": null
  },
  "0127": {
    "postcode": "5180127",
    "prefecture": "三重県",
    "prefecture_kana": "ミエケン",
    "prefecture_code": 24,
    "city": "伊賀市",
    "city_kana": "イガシ",
    "town": "山出",
    "town_kana": "ヤマデ",
    "street": null,
    "office_name": null,
    "office_name_kana": null
  },
  "0131": {
    "postcode": "5180131",
    "prefecture": "三重県",
    "prefecture_kana": "ミエケン",
    "prefecture_code": 24,
    "city": "伊賀市",
    "city_kana": "イガシ",
    "town": "ゆめが丘",
    "town_kana": "ユメガオカ",
    "street": null,
    "office_name": null,
    "office_name_kana": null
  },
  "0192": {
    "postcode": "5180192",
    "prefecture": "三重県",
    "prefecture_kana": "ミエケン",
    "prefecture_code": 24,
    "city": "伊賀市",
    "city_kana": "イガシ",
    "town": "下神戸",
    "town_kana": "シモカンベ",
    "street": "２７５６",
    "office_name": "桜丘中学校・高等学校",
    "office_name_kana": "サクラガオカチユウガツコウ・コウトウガツコウ"
  },
  "0201": {
    "postcode": "5180201",
    "prefecture": "三重県",
    "prefecture_kana": "ミエケン",
    "prefecture_code": 24,
    "city": "伊賀市",
    "city_kana": "イガシ",
    "town": "瀧",
    "town_kana": "タキ",
    "street": null,
    "office_name": null,
    "office_name_kana": null
  },
  "0202": {
    "postcode": "5180202",
    "prefecture": "三重県",
    "prefecture_kana": "ミエケン",
    "prefecture_code": 24,
    "city": "伊賀市",
    "city_kana": "イガシ",
    "town": "妙楽地",
    "town_kana": "ミョウラクジ",
    "street": null,
    "office_name": null,
    "office_name_kana": null
  },
  "0203": {
    "postcode": "5180203",
    "prefecture": "三重県",
    "prefecture_kana": "ミエケン",
    "prefecture_code": 24,
    "city": "伊賀市",
    "city_kana": "イガシ",
    "town": "勝地",
    "town_kana": "カチジ",
    "street": null,
    "office_name": null,
    "office_name_kana": null
  },
  "0204": {
    "postcode": "5180204",
    "prefecture": "三重県",
    "prefecture_kana": "ミエケン",
    "prefecture_code": 24,
    "city": "伊賀市",
    "city_kana": "イガシ",
    "town": "北山",
    "town_kana": "キタヤマ",
    "street": null,
    "office_name": null,
    "office_name_kana": null
  },
  "0205": {
    "postcode": "5180205",
    "prefecture": "三重県",
    "prefecture_kana": "ミエケン",
    "prefecture_code": 24,
    "city": "伊賀市",
    "city_kana": "イガシ",
    "town": "伊勢路",
    "town_kana": "イセジ",
    "street": null,
    "office_name": null,
    "office_name_kana": null
  },
  "0206": {
    "postcode": "5180206",
    "prefecture": "三重県",
    "prefecture_kana": "ミエケン",
    "prefecture_code": 24,
    "city": "伊賀市",
    "city_kana": "イガシ",
    "town": "下川原",
    "town_kana": "シモガワラ",
    "street": null,
    "office_name": null,
    "office_name_kana": null
  },
  "0211": {
    "postcode": "5180211",
    "prefecture": "三重県",
    "prefecture_kana": "ミエケン",
    "prefecture_code": 24,
    "city": "伊賀市",
    "city_kana": "イガシ",
    "town": "奥鹿野",
    "town_kana": "オクガノ",
    "street": null,
    "office_name": null,
    "office_name_kana": null
  },
  "0212": {
    "postcode": "5180212",
    "prefecture": "三重県",
    "prefecture_kana": "ミエケン",
    "prefecture_code": 24,
    "city": "伊賀市",
    "city_kana": "イガシ",
    "town": "福川",
    "town_kana": "フクガワ",
    "street": null,
    "office_name": null,
    "office_name_kana": null
  },
  "0213": {
    "postcode": "5180213",
    "prefecture": "三重県",
    "prefecture_kana": "ミエケン",
    "prefecture_code": 24,
    "city": "伊賀市",
    "city_kana": "イガシ",
    "town": "諸木",
    "town_kana": "モロキ",
    "street": null,
    "office_name": null,
    "office_name_kana": null
  },
  "0214": {
    "postcode": "5180214",
    "prefecture": "三重県",
    "prefecture_kana": "ミエケン",
    "prefecture_code": 24,
    "city": "伊賀市",
    "city_kana": "イガシ",
    "town": "腰山",
    "town_kana": "コシヤマ",
    "street": null,
    "office_name": null,
    "office_name_kana": null
  },
  "0215": {
    "postcode": "5180215",
    "prefecture": "三重県",
    "prefecture_kana": "ミエケン",
    "prefecture_code": 24,
    "city": "伊賀市",
    "city_kana": "イガシ",
    "town": "霧生",
    "town_kana": "キリュウ",
    "street": null,
    "office_name": null,
    "office_name_kana": null
  },
  "0216": {
    "postcode": "5180216",
    "prefecture": "三重県",
    "prefecture_kana": "ミエケン",
    "prefecture_code": 24,
    "city": "伊賀市",
    "city_kana": "イガシ",
    "town": "高尾",
    "town_kana": "タカオ",
    "street": null,
    "office_name": null,
    "office_name_kana": null
  },
  "0217": {
    "postcode": "5180217",
    "prefecture": "三重県",
    "prefecture_kana": "ミエケン",
    "prefecture_code": 24,
    "city": "伊賀市",
    "city_kana": "イガシ",
    "town": "種生",
    "town_kana": "タナオ",
    "street": null,
    "office_name": null,
    "office_name_kana": null
  },
  "0218": {
    "postcode": "5180218",
    "prefecture": "三重県",
    "prefecture_kana": "ミエケン",
    "prefecture_code": 24,
    "city": "伊賀市",
    "city_kana": "イガシ",
    "town": "川上",
    "town_kana": "カワカミ",
    "street": null,
    "office_name": null,
    "office_name_kana": null
  },
  "0219": {
    "postcode": "5180219",
    "prefecture": "三重県",
    "prefecture_kana": "ミエケン",
    "prefecture_code": 24,
    "city": "伊賀市",
    "city_kana": "イガシ",
    "town": "老川",
    "town_kana": "オイカワ",
    "street": null,
    "office_name": null,
    "office_name_kana": null
  },
  "0221": {
    "postcode": "5180221",
    "prefecture": "三重県",
    "prefecture_kana": "ミエケン",
    "prefecture_code": 24,
    "city": "伊賀市",
    "city_kana": "イガシ",
    "town": "別府",
    "town_kana": "ベフ",
    "street": null,
    "office_name": null,
    "office_name_kana": null
  },
  "0222": {
    "postcode": "5180222",
    "prefecture": "三重県",
    "prefecture_kana": "ミエケン",
    "prefecture_code": 24,
    "city": "伊賀市",
    "city_kana": "イガシ",
    "town": "寺脇",
    "town_kana": "テラワキ",
    "street": null,
    "office_name": null,
    "office_name_kana": null
  },
  "0223": {
    "postcode": "5180223",
    "prefecture": "三重県",
    "prefecture_kana": "ミエケン",
    "prefecture_code": 24,
    "city": "伊賀市",
    "city_kana": "イガシ",
    "town": "岡田",
    "town_kana": "オカダ",
    "street": null,
    "office_name": null,
    "office_name_kana": null
  },
  "0224": {
    "postcode": "5180224",
    "prefecture": "三重県",
    "prefecture_kana": "ミエケン",
    "prefecture_code": 24,
    "city": "伊賀市",
    "city_kana": "イガシ",
    "town": "柏尾",
    "town_kana": "カシオ",
    "street": null,
    "office_name": null,
    "office_name_kana": null
  },
  "0225": {
    "postcode": "5180225",
    "prefecture": "三重県",
    "prefecture_kana": "ミエケン",
    "prefecture_code": 24,
    "city": "伊賀市",
    "city_kana": "イガシ",
    "town": "桐ケ丘",
    "town_kana": "キリガオカ",
    "street": null,
    "office_name": null,
    "office_name_kana": null
  },
  "0226": {
    "postcode": "5180226",
    "prefecture": "三重県",
    "prefecture_kana": "ミエケン",
    "prefecture_code": 24,
    "city": "伊賀市",
    "city_kana": "イガシ",
    "town": "阿保",
    "town_kana": "アオ",
    "street": null,
    "office_name": null,
    "office_name_kana": null
  },
  "0227": {
    "postcode": "5180227",
    "prefecture": "三重県",
    "prefecture_kana": "ミエケン",
    "prefecture_code": 24,
    "city": "伊賀市",
    "city_kana": "イガシ",
    "town": "青山羽根",
    "town_kana": "アオヤマハネ",
    "street": null,
    "office_name": null,
    "office_name_kana": null
  },
  "0292": {
    "postcode": "5180292",
    "prefecture": "三重県",
    "prefecture_kana": "ミエケン",
    "prefecture_code": 24,
    "city": "伊賀市",
    "city_kana": "イガシ",
    "town": "阿保",
    "town_kana": "アオ",
    "street": "１５１番地１",
    "office_name": "伊賀市役所　青山支所",
    "office_name_kana": "イガシヤクシヨ アオヤマシシヨ"
  },
  "0293": {
    "postcode": "5180293",
    "prefecture": "三重県",
    "prefecture_kana": "ミエケン",
    "prefecture_code": 24,
    "city": "伊賀市",
    "city_kana": "イガシ",
    "town": "阿保",
    "town_kana": "アオ",
    "street": "１３６",
    "office_name": "ＪＡ伊賀南部青山支店",
    "office_name_kana": "ジエイエ-イガナンブ アオヤマシテン"
  },
  "0294": {
    "postcode": "5180294",
    "prefecture": "三重県",
    "prefecture_kana": "ミエケン",
    "prefecture_code": 24,
    "city": "伊賀市",
    "city_kana": "イガシ",
    "town": "阿保",
    "town_kana": "アオ",
    "street": "２５１番地",
    "office_name": "独立行政法人　水資源機構　川上ダム建設所",
    "office_name_kana": "ドクリツギヨウセイホウジン ミズシゲンキコウ カワカミダムケンセツシヨ"
  },
  "0295": {
    "postcode": "5180295",
    "prefecture": "三重県",
    "prefecture_kana": "ミエケン",
    "prefecture_code": 24,
    "city": "伊賀市",
    "city_kana": "イガシ",
    "town": "霧生",
    "town_kana": "キリュウ",
    "street": "２３５６",
    "office_name": "メナード青山リゾート",
    "office_name_kana": "メナ-ドアオヤマリゾ-ト"
  },
  "0296": {
    "postcode": "5180296",
    "prefecture": "三重県",
    "prefecture_kana": "ミエケン",
    "prefecture_code": 24,
    "city": "伊賀市",
    "city_kana": "イガシ",
    "town": "奥鹿野",
    "town_kana": "オクガノ",
    "street": "１９９０",
    "office_name": "伊賀南部クリーンセンター",
    "office_name_kana": "イガナンブクリ-ンセンタ-"
  },
  "0298": {
    "postcode": "5180298",
    "prefecture": "三重県",
    "prefecture_kana": "ミエケン",
    "prefecture_code": 24,
    "city": "伊賀市",
    "city_kana": "イガシ",
    "town": "阿保",
    "town_kana": "アオ",
    "street": "２１７１番地１２",
    "office_name": "独立行政法人　水資源機構川上ダム建設所",
    "office_name_kana": "ドクリツギヨウセイホウジン ミズシゲンキコウカワカミダムケンセツシヨ"
  },
  "0400": {
    "postcode": "5180400",
    "prefecture": "三重県",
    "prefecture_kana": "ミエケン",
    "prefecture_code": 24,
    "city": "名張市",
    "city_kana": "ナバリシ",
    "town": "",
    "town_kana": "",
    "street": null,
    "office_name": null,
    "office_name_kana": null
  },
  "0401": {
    "postcode": "5180401",
    "prefecture": "三重県",
    "prefecture_kana": "ミエケン",
    "prefecture_code": 24,
    "city": "名張市",
    "city_kana": "ナバリシ",
    "town": "すずらん台東１番町",
    "town_kana": "スズランダイヒガシ1バンチョウ",
    "street": null,
    "office_name": null,
    "office_name_kana": null
  },
  "0402": {
    "postcode": "5180402",
    "prefecture": "三重県",
    "prefecture_kana": "ミエケン",
    "prefecture_code": 24,
    "city": "名張市",
    "city_kana": "ナバリシ",
    "town": "すずらん台東２番町",
    "town_kana": "スズランダイヒガシ2バンチョウ",
    "street": null,
    "office_name": null,
    "office_name_kana": null
  },
  "0403": {
    "postcode": "5180403",
    "prefecture": "三重県",
    "prefecture_kana": "ミエケン",
    "prefecture_code": 24,
    "city": "名張市",
    "city_kana": "ナバリシ",
    "town": "すずらん台東３番町",
    "town_kana": "スズランダイヒガシ3バンチョウ",
    "street": null,
    "office_name": null,
    "office_name_kana": null
  },
  "0404": {
    "postcode": "5180404",
    "prefecture": "三重県",
    "prefecture_kana": "ミエケン",
    "prefecture_code": 24,
    "city": "名張市",
    "city_kana": "ナバリシ",
    "town": "すずらん台東４番町",
    "town_kana": "スズランダイヒガシ4バンチョウ",
    "street": null,
    "office_name": null,
    "office_name_kana": null
  },
  "0405": {
    "postcode": "5180405",
    "prefecture": "三重県",
    "prefecture_kana": "ミエケン",
    "prefecture_code": 24,
    "city": "名張市",
    "city_kana": "ナバリシ",
    "town": "すずらん台東５番町",
    "town_kana": "スズランダイヒガシ5バンチョウ",
    "street": null,
    "office_name": null,
    "office_name_kana": null
  },
  "0406": {
    "postcode": "5180406",
    "prefecture": "三重県",
    "prefecture_kana": "ミエケン",
    "prefecture_code": 24,
    "city": "名張市",
    "city_kana": "ナバリシ",
    "town": "すずらん台西１番町",
    "town_kana": "スズランダイニシ1バンチョウ",
    "street": null,
    "office_name": null,
    "office_name_kana": null
  },
  "0407": {
    "postcode": "5180407",
    "prefecture": "三重県",
    "prefecture_kana": "ミエケン",
    "prefecture_code": 24,
    "city": "名張市",
    "city_kana": "ナバリシ",
    "town": "すずらん台西２番町",
    "town_kana": "スズランダイニシ2バンチョウ",
    "street": null,
    "office_name": null,
    "office_name_kana": null
  },
  "0408": {
    "postcode": "5180408",
    "prefecture": "三重県",
    "prefecture_kana": "ミエケン",
    "prefecture_code": 24,
    "city": "名張市",
    "city_kana": "ナバリシ",
    "town": "すずらん台西３番町",
    "town_kana": "スズランダイニシ3バンチョウ",
    "street": null,
    "office_name": null,
    "office_name_kana": null
  },
  "0409": {
    "postcode": "5180409",
    "prefecture": "三重県",
    "prefecture_kana": "ミエケン",
    "prefecture_code": 24,
    "city": "名張市",
    "city_kana": "ナバリシ",
    "town": "すずらん台西４番町",
    "town_kana": "スズランダイニシ4バンチョウ",
    "street": null,
    "office_name": null,
    "office_name_kana": null
  },
  "0411": {
    "postcode": "5180411",
    "prefecture": "三重県",
    "prefecture_kana": "ミエケン",
    "prefecture_code": 24,
    "city": "名張市",
    "city_kana": "ナバリシ",
    "town": "滝之原",
    "town_kana": "タキノハラ",
    "street": null,
    "office_name": null,
    "office_name_kana": null
  },
  "0412": {
    "postcode": "5180412",
    "prefecture": "三重県",
    "prefecture_kana": "ミエケン",
    "prefecture_code": 24,
    "city": "名張市",
    "city_kana": "ナバリシ",
    "town": "上比奈知",
    "town_kana": "カミヒナチ",
    "street": null,
    "office_name": null,
    "office_name_kana": null
  },
  "0413": {
    "postcode": "5180413",
    "prefecture": "三重県",
    "prefecture_kana": "ミエケン",
    "prefecture_code": 24,
    "city": "名張市",
    "city_kana": "ナバリシ",
    "town": "下比奈知",
    "town_kana": "シモヒナチ",
    "street": null,
    "office_name": null,
    "office_name_kana": null
  },
  "0414": {
    "postcode": "5180414",
    "prefecture": "三重県",
    "prefecture_kana": "ミエケン",
    "prefecture_code": 24,
    "city": "名張市",
    "city_kana": "ナバリシ",
    "town": "富貴ケ丘１番町",
    "town_kana": "フキガオカ1バンチョウ",
    "street": null,
    "office_name": null,
    "office_name_kana": null
  },
  "0415": {
    "postcode": "5180415",
    "prefecture": "三重県",
    "prefecture_kana": "ミエケン",
    "prefecture_code": 24,
    "city": "名張市",
    "city_kana": "ナバリシ",
    "town": "富貴ケ丘２番町",
    "town_kana": "フキガオカ2バンチョウ",
    "street": null,
    "office_name": null,
    "office_name_kana": null
  },
  "0416": {
    "postcode": "5180416",
    "prefecture": "三重県",
    "prefecture_kana": "ミエケン",
    "prefecture_code": 24,
    "city": "名張市",
    "city_kana": "ナバリシ",
    "town": "富貴ケ丘３番町",
    "town_kana": "フキガオカ3バンチョウ",
    "street": null,
    "office_name": null,
    "office_name_kana": null
  },
  "0417": {
    "postcode": "5180417",
    "prefecture": "三重県",
    "prefecture_kana": "ミエケン",
    "prefecture_code": 24,
    "city": "名張市",
    "city_kana": "ナバリシ",
    "town": "富貴ケ丘４番町",
    "town_kana": "フキガオカ4バンチョウ",
    "street": null,
    "office_name": null,
    "office_name_kana": null
  },
  "0418": {
    "postcode": "5180418",
    "prefecture": "三重県",
    "prefecture_kana": "ミエケン",
    "prefecture_code": 24,
    "city": "名張市",
    "city_kana": "ナバリシ",
    "town": "富貴ケ丘５番町",
    "town_kana": "フキガオカ5バンチョウ",
    "street": null,
    "office_name": null,
    "office_name_kana": null
  },
  "0419": {
    "postcode": "5180419",
    "prefecture": "三重県",
    "prefecture_kana": "ミエケン",
    "prefecture_code": 24,
    "city": "名張市",
    "city_kana": "ナバリシ",
    "town": "富貴ケ丘６番町",
    "town_kana": "フキガオカ6バンチョウ",
    "street": null,
    "office_name": null,
    "office_name_kana": null
  },
  "0421": {
    "postcode": "5180421",
    "prefecture": "三重県",
    "prefecture_kana": "ミエケン",
    "prefecture_code": 24,
    "city": "名張市",
    "city_kana": "ナバリシ",
    "town": "つつじが丘南１番町",
    "town_kana": "ツツジガオカミナミ1バンチョウ",
    "street": null,
    "office_name": null,
    "office_name_kana": null
  },
  "0422": {
    "postcode": "5180422",
    "prefecture": "三重県",
    "prefecture_kana": "ミエケン",
    "prefecture_code": 24,
    "city": "名張市",
    "city_kana": "ナバリシ",
    "town": "つつじが丘南２番町",
    "town_kana": "ツツジガオカミナミ2バンチョウ",
    "street": null,
    "office_name": null,
    "office_name_kana": null
  },
  "0423": {
    "postcode": "5180423",
    "prefecture": "三重県",
    "prefecture_kana": "ミエケン",
    "prefecture_code": 24,
    "city": "名張市",
    "city_kana": "ナバリシ",
    "town": "つつじが丘南３番町",
    "town_kana": "ツツジガオカミナミ3バンチョウ",
    "street": null,
    "office_name": null,
    "office_name_kana": null
  },
  "0424": {
    "postcode": "5180424",
    "prefecture": "三重県",
    "prefecture_kana": "ミエケン",
    "prefecture_code": 24,
    "city": "名張市",
    "city_kana": "ナバリシ",
    "town": "つつじが丘南４番町",
    "town_kana": "ツツジガオカミナミ4バンチョウ",
    "street": null,
    "office_name": null,
    "office_name_kana": null
  },
  "0425": {
    "postcode": "5180425",
    "prefecture": "三重県",
    "prefecture_kana": "ミエケン",
    "prefecture_code": 24,
    "city": "名張市",
    "city_kana": "ナバリシ",
    "town": "つつじが丘南５番町",
    "town_kana": "ツツジガオカミナミ5バンチョウ",
    "street": null,
    "office_name": null,
    "office_name_kana": null
  },
  "0426": {
    "postcode": "5180426",
    "prefecture": "三重県",
    "prefecture_kana": "ミエケン",
    "prefecture_code": 24,
    "city": "名張市",
    "city_kana": "ナバリシ",
    "town": "つつじが丘南６番町",
    "town_kana": "ツツジガオカミナミ6バンチョウ",
    "street": null,
    "office_name": null,
    "office_name_kana": null
  },
  "0427": {
    "postcode": "5180427",
    "prefecture": "三重県",
    "prefecture_kana": "ミエケン",
    "prefecture_code": 24,
    "city": "名張市",
    "city_kana": "ナバリシ",
    "town": "つつじが丘南７番町",
    "town_kana": "ツツジガオカミナミ7バンチョウ",
    "street": null,
    "office_name": null,
    "office_name_kana": null
  },
  "0428": {
    "postcode": "5180428",
    "prefecture": "三重県",
    "prefecture_kana": "ミエケン",
    "prefecture_code": 24,
    "city": "名張市",
    "city_kana": "ナバリシ",
    "town": "つつじが丘南８番町",
    "town_kana": "ツツジガオカミナミ8バンチョウ",
    "street": null,
    "office_name": null,
    "office_name_kana": null
  },
  "0430": {
    "postcode": "5180430",
    "prefecture": "三重県",
    "prefecture_kana": "ミエケン",
    "prefecture_code": 24,
    "city": "名張市",
    "city_kana": "ナバリシ",
    "town": "つつじが丘北１０番町",
    "town_kana": "ツツジガオカキタ10バンチョウ",
    "street": null,
    "office_name": null,
    "office_name_kana": null
  },
  "0431": {
    "postcode": "5180431",
    "prefecture": "三重県",
    "prefecture_kana": "ミエケン",
    "prefecture_code": 24,
    "city": "名張市",
    "city_kana": "ナバリシ",
    "town": "つつじが丘北１番町",
    "town_kana": "ツツジガオカキタ1バンチョウ",
    "street": null,
    "office_name": null,
    "office_name_kana": null
  },
  "0432": {
    "postcode": "5180432",
    "prefecture": "三重県",
    "prefecture_kana": "ミエケン",
    "prefecture_code": 24,
    "city": "名張市",
    "city_kana": "ナバリシ",
    "town": "つつじが丘北２番町",
    "town_kana": "ツツジガオカキタ2バンチョウ",
    "street": null,
    "office_name": null,
    "office_name_kana": null
  },
  "0433": {
    "postcode": "5180433",
    "prefecture": "三重県",
    "prefecture_kana": "ミエケン",
    "prefecture_code": 24,
    "city": "名張市",
    "city_kana": "ナバリシ",
    "town": "つつじが丘北３番町",
    "town_kana": "ツツジガオカキタ3バンチョウ",
    "street": null,
    "office_name": null,
    "office_name_kana": null
  },
  "0434": {
    "postcode": "5180434",
    "prefecture": "三重県",
    "prefecture_kana": "ミエケン",
    "prefecture_code": 24,
    "city": "名張市",
    "city_kana": "ナバリシ",
    "town": "つつじが丘北４番町",
    "town_kana": "ツツジガオカキタ4バンチョウ",
    "street": null,
    "office_name": null,
    "office_name_kana": null
  },
  "0435": {
    "postcode": "5180435",
    "prefecture": "三重県",
    "prefecture_kana": "ミエケン",
    "prefecture_code": 24,
    "city": "名張市",
    "city_kana": "ナバリシ",
    "town": "つつじが丘北５番町",
    "town_kana": "ツツジガオカキタ5バンチョウ",
    "street": null,
    "office_name": null,
    "office_name_kana": null
  },
  "0436": {
    "postcode": "5180436",
    "prefecture": "三重県",
    "prefecture_kana": "ミエケン",
    "prefecture_code": 24,
    "city": "名張市",
    "city_kana": "ナバリシ",
    "town": "つつじが丘北６番町",
    "town_kana": "ツツジガオカキタ6バンチョウ",
    "street": null,
    "office_name": null,
    "office_name_kana": null
  },
  "0437": {
    "postcode": "5180437",
    "prefecture": "三重県",
    "prefecture_kana": "ミエケン",
    "prefecture_code": 24,
    "city": "名張市",
    "city_kana": "ナバリシ",
    "town": "つつじが丘北７番町",
    "town_kana": "ツツジガオカキタ7バンチョウ",
    "street": null,
    "office_name": null,
    "office_name_kana": null
  },
  "0438": {
    "postcode": "5180438",
    "prefecture": "三重県",
    "prefecture_kana": "ミエケン",
    "prefecture_code": 24,
    "city": "名張市",
    "city_kana": "ナバリシ",
    "town": "つつじが丘北８番町",
    "town_kana": "ツツジガオカキタ8バンチョウ",
    "street": null,
    "office_name": null,
    "office_name_kana": null
  },
  "0439": {
    "postcode": "5180439",
    "prefecture": "三重県",
    "prefecture_kana": "ミエケン",
    "prefecture_code": 24,
    "city": "名張市",
    "city_kana": "ナバリシ",
    "town": "つつじが丘北９番町",
    "town_kana": "ツツジガオカキタ9バンチョウ",
    "street": null,
    "office_name": null,
    "office_name_kana": null
  },
  "0441": {
    "postcode": "5180441",
    "prefecture": "三重県",
    "prefecture_kana": "ミエケン",
    "prefecture_code": 24,
    "city": "名張市",
    "city_kana": "ナバリシ",
    "town": "夏見",
    "town_kana": "ナツミ",
    "street": null,
    "office_name": null,
    "office_name_kana": null
  },
  "0442": {
    "postcode": "5180442",
    "prefecture": "三重県",
    "prefecture_kana": "ミエケン",
    "prefecture_code": 24,
    "city": "名張市",
    "city_kana": "ナバリシ",
    "town": "中知山",
    "town_kana": "ナカチヤマ",
    "street": null,
    "office_name": null,
    "office_name_kana": null
  },
  "0443": {
    "postcode": "5180443",
    "prefecture": "三重県",
    "prefecture_kana": "ミエケン",
    "prefecture_code": 24,
    "city": "名張市",
    "city_kana": "ナバリシ",
    "town": "青蓮寺",
    "town_kana": "ショウレンジ",
    "street": null,
    "office_name": null,
    "office_name_kana": null
  },
  "0444": {
    "postcode": "5180444",
    "prefecture": "三重県",
    "prefecture_kana": "ミエケン",
    "prefecture_code": 24,
    "city": "名張市",
    "city_kana": "ナバリシ",
    "town": "箕曲中村",
    "town_kana": "ミノワナカムラ",
    "street": null,
    "office_name": null,
    "office_name_kana": null
  },
  "0445": {
    "postcode": "5180445",
    "prefecture": "三重県",
    "prefecture_kana": "ミエケン",
    "prefecture_code": 24,
    "city": "名張市",
    "city_kana": "ナバリシ",
    "town": "瀬古口",
    "town_kana": "セコグチ",
    "street": null,
    "office_name": null,
    "office_name_kana": null
  },
  "0446": {
    "postcode": "5180446",
    "prefecture": "三重県",
    "prefecture_kana": "ミエケン",
    "prefecture_code": 24,
    "city": "名張市",
    "city_kana": "ナバリシ",
    "town": "南百合が丘",
    "town_kana": "ミナミユリガオカ",
    "street": null,
    "office_name": null,
    "office_name_kana": null
  },
  "0453": {
    "postcode": "5180453",
    "prefecture": "三重県",
    "prefecture_kana": "ミエケン",
    "prefecture_code": 24,
    "city": "名張市",
    "city_kana": "ナバリシ",
    "town": "春日丘１番町",
    "town_kana": "カスガオカ1バンチョウ",
    "street": null,
    "office_name": null,
    "office_name_kana": null
  },
  "0454": {
    "postcode": "5180454",
    "prefecture": "三重県",
    "prefecture_kana": "ミエケン",
    "prefecture_code": 24,
    "city": "名張市",
    "city_kana": "ナバリシ",
    "town": "春日丘２番町",
    "town_kana": "カスガオカ2バンチョウ",
    "street": null,
    "office_name": null,
    "office_name_kana": null
  },
  "0455": {
    "postcode": "5180455",
    "prefecture": "三重県",
    "prefecture_kana": "ミエケン",
    "prefecture_code": 24,
    "city": "名張市",
    "city_kana": "ナバリシ",
    "town": "春日丘３番町",
    "town_kana": "カスガオカ3バンチョウ",
    "street": null,
    "office_name": null,
    "office_name_kana": null
  },
  "0456": {
    "postcode": "5180456",
    "prefecture": "三重県",
    "prefecture_kana": "ミエケン",
    "prefecture_code": 24,
    "city": "名張市",
    "city_kana": "ナバリシ",
    "town": "春日丘４番町",
    "town_kana": "カスガオカ4バンチョウ",
    "street": null,
    "office_name": null,
    "office_name_kana": null
  },
  "0457": {
    "postcode": "5180457",
    "prefecture": "三重県",
    "prefecture_kana": "ミエケン",
    "prefecture_code": 24,
    "city": "名張市",
    "city_kana": "ナバリシ",
    "town": "春日丘５番町",
    "town_kana": "カスガオカ5バンチョウ",
    "street": null,
    "office_name": null,
    "office_name_kana": null
  },
  "0458": {
    "postcode": "5180458",
    "prefecture": "三重県",
    "prefecture_kana": "ミエケン",
    "prefecture_code": 24,
    "city": "名張市",
    "city_kana": "ナバリシ",
    "town": "春日丘６番町",
    "town_kana": "カスガオカ6バンチョウ",
    "street": null,
    "office_name": null,
    "office_name_kana": null
  },
  "0459": {
    "postcode": "5180459",
    "prefecture": "三重県",
    "prefecture_kana": "ミエケン",
    "prefecture_code": 24,
    "city": "名張市",
    "city_kana": "ナバリシ",
    "town": "春日丘７番町",
    "town_kana": "カスガオカ7バンチョウ",
    "street": null,
    "office_name": null,
    "office_name_kana": null
  },
  "0461": {
    "postcode": "5180461",
    "prefecture": "三重県",
    "prefecture_kana": "ミエケン",
    "prefecture_code": 24,
    "city": "名張市",
    "city_kana": "ナバリシ",
    "town": "赤目町すみれが丘",
    "town_kana": "アカメチョウスミレガオカ",
    "street": null,
    "office_name": null,
    "office_name_kana": null
  },
  "0462": {
    "postcode": "5180462",
    "prefecture": "三重県",
    "prefecture_kana": "ミエケン",
    "prefecture_code": 24,
    "city": "名張市",
    "city_kana": "ナバリシ",
    "town": "赤目町星川",
    "town_kana": "アカメチョウホシカワ",
    "street": null,
    "office_name": null,
    "office_name_kana": null
  },
  "0463": {
    "postcode": "5180463",
    "prefecture": "三重県",
    "prefecture_kana": "ミエケン",
    "prefecture_code": 24,
    "city": "名張市",
    "city_kana": "ナバリシ",
    "town": "赤目町檀",
    "town_kana": "アカメチョウダン",
    "street": null,
    "office_name": null,
    "office_name_kana": null
  },
  "0464": {
    "postcode": "5180464",
    "prefecture": "三重県",
    "prefecture_kana": "ミエケン",
    "prefecture_code": 24,
    "city": "名張市",
    "city_kana": "ナバリシ",
    "town": "赤目町柏原",
    "town_kana": "アカメチョウカシワラ",
    "street": null,
    "office_name": null,
    "office_name_kana": null
  },
  "0465": {
    "postcode": "5180465",
    "prefecture": "三重県",
    "prefecture_kana": "ミエケン",
    "prefecture_code": 24,
    "city": "名張市",
    "city_kana": "ナバリシ",
    "town": "赤目町丈六",
    "town_kana": "アカメチョウジョウロク",
    "street": null,
    "office_name": null,
    "office_name_kana": null
  },
  "0466": {
    "postcode": "5180466",
    "prefecture": "三重県",
    "prefecture_kana": "ミエケン",
    "prefecture_code": 24,
    "city": "名張市",
    "city_kana": "ナバリシ",
    "town": "赤目町新川",
    "town_kana": "アカメチョウシンカワ",
    "street": null,
    "office_name": null,
    "office_name_kana": null
  },
  "0467": {
    "postcode": "5180467",
    "prefecture": "三重県",
    "prefecture_kana": "ミエケン",
    "prefecture_code": 24,
    "city": "名張市",
    "city_kana": "ナバリシ",
    "town": "赤目町相楽",
    "town_kana": "アカメチョウサガラ",
    "street": null,
    "office_name": null,
    "office_name_kana": null
  },
  "0468": {
    "postcode": "5180468",
    "prefecture": "三重県",
    "prefecture_kana": "ミエケン",
    "prefecture_code": 24,
    "city": "名張市",
    "city_kana": "ナバリシ",
    "town": "赤目町一ノ井",
    "town_kana": "アカメチョウイチノイ",
    "street": null,
    "office_name": null,
    "office_name_kana": null
  },
  "0469": {
    "postcode": "5180469",
    "prefecture": "三重県",
    "prefecture_kana": "ミエケン",
    "prefecture_code": 24,
    "city": "名張市",
    "city_kana": "ナバリシ",
    "town": "赤目町長坂",
    "town_kana": "アカメチョウナガサカ",
    "street": null,
    "office_name": null,
    "office_name_kana": null
  },
  "0471": {
    "postcode": "5180471",
    "prefecture": "三重県",
    "prefecture_kana": "ミエケン",
    "prefecture_code": 24,
    "city": "名張市",
    "city_kana": "ナバリシ",
    "town": "百合が丘東１番町",
    "town_kana": "ユリガオカヒガシ1バンチョウ",
    "street": null,
    "office_name": null,
    "office_name_kana": null
  },
  "0472": {
    "postcode": "5180472",
    "prefecture": "三重県",
    "prefecture_kana": "ミエケン",
    "prefecture_code": 24,
    "city": "名張市",
    "city_kana": "ナバリシ",
    "town": "百合が丘東２番町",
    "town_kana": "ユリガオカヒガシ2バンチョウ",
    "street": null,
    "office_name": null,
    "office_name_kana": null
  },
  "0473": {
    "postcode": "5180473",
    "prefecture": "三重県",
    "prefecture_kana": "ミエケン",
    "prefecture_code": 24,
    "city": "名張市",
    "city_kana": "ナバリシ",
    "town": "百合が丘東３番町",
    "town_kana": "ユリガオカヒガシ3バンチョウ",
    "street": null,
    "office_name": null,
    "office_name_kana": null
  },
  "0474": {
    "postcode": "5180474",
    "prefecture": "三重県",
    "prefecture_kana": "ミエケン",
    "prefecture_code": 24,
    "city": "名張市",
    "city_kana": "ナバリシ",
    "town": "百合が丘東４番町",
    "town_kana": "ユリガオカヒガシ4バンチョウ",
    "street": null,
    "office_name": null,
    "office_name_kana": null
  },
  "0475": {
    "postcode": "5180475",
    "prefecture": "三重県",
    "prefecture_kana": "ミエケン",
    "prefecture_code": 24,
    "city": "名張市",
    "city_kana": "ナバリシ",
    "town": "百合が丘東５番町",
    "town_kana": "ユリガオカヒガシ5バンチョウ",
    "street": null,
    "office_name": null,
    "office_name_kana": null
  },
  "0476": {
    "postcode": "5180476",
    "prefecture": "三重県",
    "prefecture_kana": "ミエケン",
    "prefecture_code": 24,
    "city": "名張市",
    "city_kana": "ナバリシ",
    "town": "百合が丘東６番町",
    "town_kana": "ユリガオカヒガシ6バンチョウ",
    "street": null,
    "office_name": null,
    "office_name_kana": null
  },
  "0477": {
    "postcode": "5180477",
    "prefecture": "三重県",
    "prefecture_kana": "ミエケン",
    "prefecture_code": 24,
    "city": "名張市",
    "city_kana": "ナバリシ",
    "town": "百合が丘東７番町",
    "town_kana": "ユリガオカヒガシ7バンチョウ",
    "street": null,
    "office_name": null,
    "office_name_kana": null
  },
  "0478": {
    "postcode": "5180478",
    "prefecture": "三重県",
    "prefecture_kana": "ミエケン",
    "prefecture_code": 24,
    "city": "名張市",
    "city_kana": "ナバリシ",
    "town": "百合が丘東８番町",
    "town_kana": "ユリガオカヒガシ8バンチョウ",
    "street": null,
    "office_name": null,
    "office_name_kana": null
  },
  "0479": {
    "postcode": "5180479",
    "prefecture": "三重県",
    "prefecture_kana": "ミエケン",
    "prefecture_code": 24,
    "city": "名張市",
    "city_kana": "ナバリシ",
    "town": "百合が丘東９番町",
    "town_kana": "ユリガオカヒガシ9バンチョウ",
    "street": null,
    "office_name": null,
    "office_name_kana": null
  },
  "0481": {
    "postcode": "5180481",
    "prefecture": "三重県",
    "prefecture_kana": "ミエケン",
    "prefecture_code": 24,
    "city": "名張市",
    "city_kana": "ナバリシ",
    "town": "百合が丘西１番町",
    "town_kana": "ユリガオカニシ1バンチョウ",
    "street": null,
    "office_name": null,
    "office_name_kana": null
  },
  "0482": {
    "postcode": "5180482",
    "prefecture": "三重県",
    "prefecture_kana": "ミエケン",
    "prefecture_code": 24,
    "city": "名張市",
    "city_kana": "ナバリシ",
    "town": "百合が丘西２番町",
    "town_kana": "ユリガオカニシ2バンチョウ",
    "street": null,
    "office_name": null,
    "office_name_kana": null
  },
  "0483": {
    "postcode": "5180483",
    "prefecture": "三重県",
    "prefecture_kana": "ミエケン",
    "prefecture_code": 24,
    "city": "名張市",
    "city_kana": "ナバリシ",
    "town": "百合が丘西３番町",
    "town_kana": "ユリガオカニシ3バンチョウ",
    "street": null,
    "office_name": null,
    "office_name_kana": null
  },
  "0484": {
    "postcode": "5180484",
    "prefecture": "三重県",
    "prefecture_kana": "ミエケン",
    "prefecture_code": 24,
    "city": "名張市",
    "city_kana": "ナバリシ",
    "town": "百合が丘西４番町",
    "town_kana": "ユリガオカニシ4バンチョウ",
    "street": null,
    "office_name": null,
    "office_name_kana": null
  },
  "0485": {
    "postcode": "5180485",
    "prefecture": "三重県",
    "prefecture_kana": "ミエケン",
    "prefecture_code": 24,
    "city": "名張市",
    "city_kana": "ナバリシ",
    "town": "百合が丘西５番町",
    "town_kana": "ユリガオカニシ5バンチョウ",
    "street": null,
    "office_name": null,
    "office_name_kana": null
  },
  "0486": {
    "postcode": "5180486",
    "prefecture": "三重県",
    "prefecture_kana": "ミエケン",
    "prefecture_code": 24,
    "city": "名張市",
    "city_kana": "ナバリシ",
    "town": "百合が丘西６番町",
    "town_kana": "ユリガオカニシ6バンチョウ",
    "street": null,
    "office_name": null,
    "office_name_kana": null
  },
  "0492": {
    "postcode": "5180492",
    "prefecture": "三重県",
    "prefecture_kana": "ミエケン",
    "prefecture_code": 24,
    "city": "名張市",
    "city_kana": "ナバリシ",
    "town": "鴻之台１番町",
    "town_kana": "コウノダイ1バンチョウ",
    "street": "１",
    "office_name": "名張市役所",
    "office_name_kana": "ナバリシヤクシヨ"
  },
  "0493": {
    "postcode": "5180493",
    "prefecture": "三重県",
    "prefecture_kana": "ミエケン",
    "prefecture_code": 24,
    "city": "名張市",
    "city_kana": "ナバリシ",
    "town": "八幡",
    "town_kana": "ヤバタ",
    "street": "１３００−１５",
    "office_name": "日立化成　株式会社　名張事業所",
    "office_name_kana": "ヒタチカセイ カブシキガイシヤ ナバリジギヨウシヨ"
  },
  "0494": {
    "postcode": "5180494",
    "prefecture": "三重県",
    "prefecture_kana": "ミエケン",
    "prefecture_code": 24,
    "city": "名張市",
    "city_kana": "ナバリシ",
    "town": "八幡",
    "town_kana": "ヤバタ",
    "street": "１３００−４５",
    "office_name": "ニッタ　株式会社　名張工場",
    "office_name_kana": "ニツタ カブシキガイシヤ ナバリコウジヨウ"
  },
  "0495": {
    "postcode": "5180495",
    "prefecture": "三重県",
    "prefecture_kana": "ミエケン",
    "prefecture_code": 24,
    "city": "名張市",
    "city_kana": "ナバリシ",
    "town": "八幡",
    "town_kana": "ヤバタ",
    "street": "１３００−５０",
    "office_name": "ボルグワーナー・モールステック・ジャパン　株式会社",
    "office_name_kana": "ボルグワ-ナ-・モ-ルステツク・ジヤパン カブシキガイシヤ"
  },
  "0496": {
    "postcode": "5180496",
    "prefecture": "三重県",
    "prefecture_kana": "ミエケン",
    "prefecture_code": 24,
    "city": "名張市",
    "city_kana": "ナバリシ",
    "town": "夏見",
    "town_kana": "ナツミ",
    "street": "２８３２",
    "office_name": "株式会社　マキシンコー　名張工場",
    "office_name_kana": "カブシキガイシヤ マキシンコ- ナバリコウジヨウ"
  },
  "0501": {
    "postcode": "5180501",
    "prefecture": "三重県",
    "prefecture_kana": "ミエケン",
    "prefecture_code": 24,
    "city": "名張市",
    "city_kana": "ナバリシ",
    "town": "長瀬",
    "town_kana": "ナガセ",
    "street": null,
    "office_name": null,
    "office_name_kana": null
  },
  "0502": {
    "postcode": "5180502",
    "prefecture": "三重県",
    "prefecture_kana": "ミエケン",
    "prefecture_code": 24,
    "city": "名張市",
    "city_kana": "ナバリシ",
    "town": "上長瀬",
    "town_kana": "カミナガセ",
    "street": null,
    "office_name": null,
    "office_name_kana": null
  },
  "0503": {
    "postcode": "5180503",
    "prefecture": "三重県",
    "prefecture_kana": "ミエケン",
    "prefecture_code": 24,
    "city": "名張市",
    "city_kana": "ナバリシ",
    "town": "布生",
    "town_kana": "フノウ",
    "street": null,
    "office_name": null,
    "office_name_kana": null
  },
  "0504": {
    "postcode": "5180504",
    "prefecture": "三重県",
    "prefecture_kana": "ミエケン",
    "prefecture_code": 24,
    "city": "名張市",
    "city_kana": "ナバリシ",
    "town": "神屋",
    "town_kana": "カミヤ",
    "street": null,
    "office_name": null,
    "office_name_kana": null
  },
  "0505": {
    "postcode": "5180505",
    "prefecture": "三重県",
    "prefecture_kana": "ミエケン",
    "prefecture_code": 24,
    "city": "名張市",
    "city_kana": "ナバリシ",
    "town": "奈垣",
    "town_kana": "ナガキ",
    "street": null,
    "office_name": null,
    "office_name_kana": null
  },
  "0601": {
    "postcode": "5180601",
    "prefecture": "三重県",
    "prefecture_kana": "ミエケン",
    "prefecture_code": 24,
    "city": "名張市",
    "city_kana": "ナバリシ",
    "town": "南古山",
    "town_kana": "ミナミフルヤマ",
    "street": null,
    "office_name": null,
    "office_name_kana": null
  },
  "0602": {
    "postcode": "5180602",
    "prefecture": "三重県",
    "prefecture_kana": "ミエケン",
    "prefecture_code": 24,
    "city": "名張市",
    "city_kana": "ナバリシ",
    "town": "東田原",
    "town_kana": "ヒガシタワラ",
    "street": null,
    "office_name": null,
    "office_name_kana": null
  },
  "0603": {
    "postcode": "5180603",
    "prefecture": "三重県",
    "prefecture_kana": "ミエケン",
    "prefecture_code": 24,
    "city": "名張市",
    "city_kana": "ナバリシ",
    "town": "西原町",
    "town_kana": "ニシワラチョウ",
    "street": null,
    "office_name": null,
    "office_name_kana": null
  },
  "0604": {
    "postcode": "5180604",
    "prefecture": "三重県",
    "prefecture_kana": "ミエケン",
    "prefecture_code": 24,
    "city": "名張市",
    "city_kana": "ナバリシ",
    "town": "さつき台",
    "town_kana": "サツキダイ",
    "street": null,
    "office_name": null,
    "office_name_kana": null
  },
  "0605": {
    "postcode": "5180605",
    "prefecture": "三重県",
    "prefecture_kana": "ミエケン",
    "prefecture_code": 24,
    "city": "名張市",
    "city_kana": "ナバリシ",
    "town": "八幡",
    "town_kana": "ヤバタ",
    "street": null,
    "office_name": null,
    "office_name_kana": null
  },
  "0606": {
    "postcode": "5180606",
    "prefecture": "三重県",
    "prefecture_kana": "ミエケン",
    "prefecture_code": 24,
    "city": "名張市",
    "city_kana": "ナバリシ",
    "town": "薦生",
    "town_kana": "コモオ",
    "street": null,
    "office_name": null,
    "office_name_kana": null
  },
  "0607": [
    {
      "postcode": "5180607",
      "prefecture": "三重県",
      "prefecture_kana": "ミエケン",
      "prefecture_code": 24,
      "city": "名張市",
      "city_kana": "ナバリシ",
      "town": "家野",
      "town_kana": "イエノ",
      "street": null,
      "office_name": null,
      "office_name_kana": null
    },
    {
      "postcode": "5180607",
      "prefecture": "三重県",
      "prefecture_kana": "ミエケン",
      "prefecture_code": 24,
      "city": "名張市",
      "city_kana": "ナバリシ",
      "town": "葛尾",
      "town_kana": "クズオ",
      "street": null,
      "office_name": null,
      "office_name_kana": null
    }
  ],
  "0608": {
    "postcode": "5180608",
    "prefecture": "三重県",
    "prefecture_kana": "ミエケン",
    "prefecture_code": 24,
    "city": "名張市",
    "city_kana": "ナバリシ",
    "town": "鵜山",
    "town_kana": "ウヤマ",
    "street": null,
    "office_name": null,
    "office_name_kana": null
  },
  "0609": {
    "postcode": "5180609",
    "prefecture": "三重県",
    "prefecture_kana": "ミエケン",
    "prefecture_code": 24,
    "city": "名張市",
    "city_kana": "ナバリシ",
    "town": "西田原",
    "town_kana": "ニシタワラ",
    "street": null,
    "office_name": null,
    "office_name_kana": null
  },
  "0610": {
    "postcode": "5180610",
    "prefecture": "三重県",
    "prefecture_kana": "ミエケン",
    "prefecture_code": 24,
    "city": "名張市",
    "city_kana": "ナバリシ",
    "town": "美旗町藤が丘",
    "town_kana": "ミハタチョウフジガオカ",
    "street": null,
    "office_name": null,
    "office_name_kana": null
  },
  "0611": {
    "postcode": "5180611",
    "prefecture": "三重県",
    "prefecture_kana": "ミエケン",
    "prefecture_code": 24,
    "city": "名張市",
    "city_kana": "ナバリシ",
    "town": "新田",
    "town_kana": "シンデン",
    "street": null,
    "office_name": null,
    "office_name_kana": null
  },
  "0612": {
    "postcode": "5180612",
    "prefecture": "三重県",
    "prefecture_kana": "ミエケン",
    "prefecture_code": 24,
    "city": "名張市",
    "city_kana": "ナバリシ",
    "town": "下小波田",
    "town_kana": "シモオバタ",
    "street": null,
    "office_name": null,
    "office_name_kana": null
  },
  "0613": {
    "postcode": "5180613",
    "prefecture": "三重県",
    "prefecture_kana": "ミエケン",
    "prefecture_code": 24,
    "city": "名張市",
    "city_kana": "ナバリシ",
    "town": "上小波田",
    "town_kana": "カミオバタ",
    "street": null,
    "office_name": null,
    "office_name_kana": null
  },
  "0614": [
    {
      "postcode": "5180614",
      "prefecture": "三重県",
      "prefecture_kana": "ミエケン",
      "prefecture_code": 24,
      "city": "名張市",
      "city_kana": "ナバリシ",
      "town": "美旗町池の台東",
      "town_kana": "ミハタチョウイケノダイヒガシ",
      "street": null,
      "office_name": null,
      "office_name_kana": null
    },
    {
      "postcode": "5180614",
      "prefecture": "三重県",
      "prefecture_kana": "ミエケン",
      "prefecture_code": 24,
      "city": "名張市",
      "city_kana": "ナバリシ",
      "town": "美旗町池の台西",
      "town_kana": "ミハタチョウイケノダイニシ",
      "street": null,
      "office_name": null,
      "office_name_kana": null
    }
  ],
  "0615": {
    "postcode": "5180615",
    "prefecture": "三重県",
    "prefecture_kana": "ミエケン",
    "prefecture_code": 24,
    "city": "名張市",
    "city_kana": "ナバリシ",
    "town": "美旗中村",
    "town_kana": "ミハタナカムラ",
    "street": null,
    "office_name": null,
    "office_name_kana": null
  },
  "0616": {
    "postcode": "5180616",
    "prefecture": "三重県",
    "prefecture_kana": "ミエケン",
    "prefecture_code": 24,
    "city": "名張市",
    "city_kana": "ナバリシ",
    "town": "美旗町南西原",
    "town_kana": "ミハタチョウミナミニシハラ",
    "street": null,
    "office_name": null,
    "office_name_kana": null
  },
  "0617": {
    "postcode": "5180617",
    "prefecture": "三重県",
    "prefecture_kana": "ミエケン",
    "prefecture_code": 24,
    "city": "名張市",
    "city_kana": "ナバリシ",
    "town": "美旗町中１番",
    "town_kana": "ミハタチョウナカ1バン",
    "street": null,
    "office_name": null,
    "office_name_kana": null
  },
  "0618": {
    "postcode": "5180618",
    "prefecture": "三重県",
    "prefecture_kana": "ミエケン",
    "prefecture_code": 24,
    "city": "名張市",
    "city_kana": "ナバリシ",
    "town": "美旗町中２番",
    "town_kana": "ミハタチョウナカ2バン",
    "street": null,
    "office_name": null,
    "office_name_kana": null
  },
  "0619": {
    "postcode": "5180619",
    "prefecture": "三重県",
    "prefecture_kana": "ミエケン",
    "prefecture_code": 24,
    "city": "名張市",
    "city_kana": "ナバリシ",
    "town": "美旗町中３番",
    "town_kana": "ミハタチョウナカ3バン",
    "street": null,
    "office_name": null,
    "office_name_kana": null
  },
  "0621": {
    "postcode": "5180621",
    "prefecture": "三重県",
    "prefecture_kana": "ミエケン",
    "prefecture_code": 24,
    "city": "名張市",
    "city_kana": "ナバリシ",
    "town": "桔梗が丘１番町",
    "town_kana": "キキョウガオカ1バンチョウ",
    "street": null,
    "office_name": null,
    "office_name_kana": null
  },
  "0622": {
    "postcode": "5180622",
    "prefecture": "三重県",
    "prefecture_kana": "ミエケン",
    "prefecture_code": 24,
    "city": "名張市",
    "city_kana": "ナバリシ",
    "town": "桔梗が丘２番町",
    "town_kana": "キキョウガオカ2バンチョウ",
    "street": null,
    "office_name": null,
    "office_name_kana": null
  },
  "0623": {
    "postcode": "5180623",
    "prefecture": "三重県",
    "prefecture_kana": "ミエケン",
    "prefecture_code": 24,
    "city": "名張市",
    "city_kana": "ナバリシ",
    "town": "桔梗が丘３番町",
    "town_kana": "キキョウガオカ3バンチョウ",
    "street": null,
    "office_name": null,
    "office_name_kana": null
  },
  "0624": {
    "postcode": "5180624",
    "prefecture": "三重県",
    "prefecture_kana": "ミエケン",
    "prefecture_code": 24,
    "city": "名張市",
    "city_kana": "ナバリシ",
    "town": "桔梗が丘４番町",
    "town_kana": "キキョウガオカ4バンチョウ",
    "street": null,
    "office_name": null,
    "office_name_kana": null
  },
  "0625": {
    "postcode": "5180625",
    "prefecture": "三重県",
    "prefecture_kana": "ミエケン",
    "prefecture_code": 24,
    "city": "名張市",
    "city_kana": "ナバリシ",
    "town": "桔梗が丘５番町",
    "town_kana": "キキョウガオカ5バンチョウ",
    "street": null,
    "office_name": null,
    "office_name_kana": null
  },
  "0626": {
    "postcode": "5180626",
    "prefecture": "三重県",
    "prefecture_kana": "ミエケン",
    "prefecture_code": 24,
    "city": "名張市",
    "city_kana": "ナバリシ",
    "town": "桔梗が丘６番町",
    "town_kana": "キキョウガオカ6バンチョウ",
    "street": null,
    "office_name": null,
    "office_name_kana": null
  },
  "0627": {
    "postcode": "5180627",
    "prefecture": "三重県",
    "prefecture_kana": "ミエケン",
    "prefecture_code": 24,
    "city": "名張市",
    "city_kana": "ナバリシ",
    "town": "桔梗が丘７番町",
    "town_kana": "キキョウガオカ7バンチョウ",
    "street": null,
    "office_name": null,
    "office_name_kana": null
  },
  "0628": {
    "postcode": "5180628",
    "prefecture": "三重県",
    "prefecture_kana": "ミエケン",
    "prefecture_code": 24,
    "city": "名張市",
    "city_kana": "ナバリシ",
    "town": "桔梗が丘８番町",
    "town_kana": "キキョウガオカ8バンチョウ",
    "street": null,
    "office_name": null,
    "office_name_kana": null
  },
  "0631": {
    "postcode": "5180631",
    "prefecture": "三重県",
    "prefecture_kana": "ミエケン",
    "prefecture_code": 24,
    "city": "名張市",
    "city_kana": "ナバリシ",
    "town": "桔梗が丘南１番町",
    "town_kana": "キキョウガオカミナミ1バンチョウ",
    "street": null,
    "office_name": null,
    "office_name_kana": null
  },
  "0632": {
    "postcode": "5180632",
    "prefecture": "三重県",
    "prefecture_kana": "ミエケン",
    "prefecture_code": 24,
    "city": "名張市",
    "city_kana": "ナバリシ",
    "town": "桔梗が丘南２番町",
    "town_kana": "キキョウガオカミナミ2バンチョウ",
    "street": null,
    "office_name": null,
    "office_name_kana": null
  },
  "0633": {
    "postcode": "5180633",
    "prefecture": "三重県",
    "prefecture_kana": "ミエケン",
    "prefecture_code": 24,
    "city": "名張市",
    "city_kana": "ナバリシ",
    "town": "桔梗が丘南３番町",
    "town_kana": "キキョウガオカミナミ3バンチョウ",
    "street": null,
    "office_name": null,
    "office_name_kana": null
  },
  "0634": {
    "postcode": "5180634",
    "prefecture": "三重県",
    "prefecture_kana": "ミエケン",
    "prefecture_code": 24,
    "city": "名張市",
    "city_kana": "ナバリシ",
    "town": "桔梗が丘南４番町",
    "town_kana": "キキョウガオカミナミ4バンチョウ",
    "street": null,
    "office_name": null,
    "office_name_kana": null
  },
  "0641": {
    "postcode": "5180641",
    "prefecture": "三重県",
    "prefecture_kana": "ミエケン",
    "prefecture_code": 24,
    "city": "名張市",
    "city_kana": "ナバリシ",
    "town": "桔梗が丘西１番町",
    "town_kana": "キキョウガオカニシ1バンチョウ",
    "street": null,
    "office_name": null,
    "office_name_kana": null
  },
  "0642": {
    "postcode": "5180642",
    "prefecture": "三重県",
    "prefecture_kana": "ミエケン",
    "prefecture_code": 24,
    "city": "名張市",
    "city_kana": "ナバリシ",
    "town": "桔梗が丘西２番町",
    "town_kana": "キキョウガオカニシ2バンチョウ",
    "street": null,
    "office_name": null,
    "office_name_kana": null
  },
  "0643": {
    "postcode": "5180643",
    "prefecture": "三重県",
    "prefecture_kana": "ミエケン",
    "prefecture_code": 24,
    "city": "名張市",
    "city_kana": "ナバリシ",
    "town": "桔梗が丘西３番町",
    "town_kana": "キキョウガオカニシ3バンチョウ",
    "street": null,
    "office_name": null,
    "office_name_kana": null
  },
  "0644": {
    "postcode": "5180644",
    "prefecture": "三重県",
    "prefecture_kana": "ミエケン",
    "prefecture_code": 24,
    "city": "名張市",
    "city_kana": "ナバリシ",
    "town": "桔梗が丘西４番町",
    "town_kana": "キキョウガオカニシ4バンチョウ",
    "street": null,
    "office_name": null,
    "office_name_kana": null
  },
  "0645": {
    "postcode": "5180645",
    "prefecture": "三重県",
    "prefecture_kana": "ミエケン",
    "prefecture_code": 24,
    "city": "名張市",
    "city_kana": "ナバリシ",
    "town": "桔梗が丘西５番町",
    "town_kana": "キキョウガオカニシ5バンチョウ",
    "street": null,
    "office_name": null,
    "office_name_kana": null
  },
  "0646": {
    "postcode": "5180646",
    "prefecture": "三重県",
    "prefecture_kana": "ミエケン",
    "prefecture_code": 24,
    "city": "名張市",
    "city_kana": "ナバリシ",
    "town": "桔梗が丘西６番町",
    "town_kana": "キキョウガオカニシ6バンチョウ",
    "street": null,
    "office_name": null,
    "office_name_kana": null
  },
  "0647": {
    "postcode": "5180647",
    "prefecture": "三重県",
    "prefecture_kana": "ミエケン",
    "prefecture_code": 24,
    "city": "名張市",
    "city_kana": "ナバリシ",
    "town": "桔梗が丘西７番町",
    "town_kana": "キキョウガオカニシ7バンチョウ",
    "street": null,
    "office_name": null,
    "office_name_kana": null
  },
  "0701": {
    "postcode": "5180701",
    "prefecture": "三重県",
    "prefecture_kana": "ミエケン",
    "prefecture_code": 24,
    "city": "名張市",
    "city_kana": "ナバリシ",
    "town": "鴻之台１番町",
    "town_kana": "コウノダイ1バンチョウ",
    "street": null,
    "office_name": null,
    "office_name_kana": null
  },
  "0702": {
    "postcode": "5180702",
    "prefecture": "三重県",
    "prefecture_kana": "ミエケン",
    "prefecture_code": 24,
    "city": "名張市",
    "city_kana": "ナバリシ",
    "town": "鴻之台２番町",
    "town_kana": "コウノダイ2バンチョウ",
    "street": null,
    "office_name": null,
    "office_name_kana": null
  },
  "0703": {
    "postcode": "5180703",
    "prefecture": "三重県",
    "prefecture_kana": "ミエケン",
    "prefecture_code": 24,
    "city": "名張市",
    "city_kana": "ナバリシ",
    "town": "鴻之台３番町",
    "town_kana": "コウノダイ3バンチョウ",
    "street": null,
    "office_name": null,
    "office_name_kana": null
  },
  "0704": {
    "postcode": "5180704",
    "prefecture": "三重県",
    "prefecture_kana": "ミエケン",
    "prefecture_code": 24,
    "city": "名張市",
    "city_kana": "ナバリシ",
    "town": "鴻之台４番町",
    "town_kana": "コウノダイ4バンチョウ",
    "street": null,
    "office_name": null,
    "office_name_kana": null
  },
  "0705": {
    "postcode": "5180705",
    "prefecture": "三重県",
    "prefecture_kana": "ミエケン",
    "prefecture_code": 24,
    "city": "名張市",
    "city_kana": "ナバリシ",
    "town": "鴻之台５番町",
    "town_kana": "コウノダイ5バンチョウ",
    "street": null,
    "office_name": null,
    "office_name_kana": null
  },
  "0710": {
    "postcode": "5180710",
    "prefecture": "三重県",
    "prefecture_kana": "ミエケン",
    "prefecture_code": 24,
    "city": "名張市",
    "city_kana": "ナバリシ",
    "town": "上八町",
    "town_kana": "カミハッチョウ",
    "street": null,
    "office_name": null,
    "office_name_kana": null
  },
  "0711": {
    "postcode": "5180711",
    "prefecture": "三重県",
    "prefecture_kana": "ミエケン",
    "prefecture_code": 24,
    "city": "名張市",
    "city_kana": "ナバリシ",
    "town": "東町",
    "town_kana": "ヒガシマチ",
    "street": null,
    "office_name": null,
    "office_name_kana": null
  },
  "0712": {
    "postcode": "5180712",
    "prefecture": "三重県",
    "prefecture_kana": "ミエケン",
    "prefecture_code": 24,
    "city": "名張市",
    "city_kana": "ナバリシ",
    "town": "桜ケ丘",
    "town_kana": "サクラガオカ",
    "street": null,
    "office_name": null,
    "office_name_kana": null
  },
  "0713": {
    "postcode": "5180713",
    "prefecture": "三重県",
    "prefecture_kana": "ミエケン",
    "prefecture_code": 24,
    "city": "名張市",
    "city_kana": "ナバリシ",
    "town": "平尾",
    "town_kana": "ヒラオ",
    "street": null,
    "office_name": null,
    "office_name_kana": null
  },
  "0714": {
    "postcode": "5180714",
    "prefecture": "三重県",
    "prefecture_kana": "ミエケン",
    "prefecture_code": 24,
    "city": "名張市",
    "city_kana": "ナバリシ",
    "town": "鍛冶町",
    "town_kana": "カジマチ",
    "street": null,
    "office_name": null,
    "office_name_kana": null
  },
  "0715": {
    "postcode": "5180715",
    "prefecture": "三重県",
    "prefecture_kana": "ミエケン",
    "prefecture_code": 24,
    "city": "名張市",
    "city_kana": "ナバリシ",
    "town": "柳原町",
    "town_kana": "ヤナギハラチョウ",
    "street": null,
    "office_name": null,
    "office_name_kana": null
  },
  "0716": {
    "postcode": "5180716",
    "prefecture": "三重県",
    "prefecture_kana": "ミエケン",
    "prefecture_code": 24,
    "city": "名張市",
    "city_kana": "ナバリシ",
    "town": "上本町",
    "town_kana": "ウエホンマチ",
    "street": null,
    "office_name": null,
    "office_name_kana": null
  },
  "0717": {
    "postcode": "5180717",
    "prefecture": "三重県",
    "prefecture_kana": "ミエケン",
    "prefecture_code": 24,
    "city": "名張市",
    "city_kana": "ナバリシ",
    "town": "中町",
    "town_kana": "ナカマチ",
    "street": null,
    "office_name": null,
    "office_name_kana": null
  },
  "0718": {
    "postcode": "5180718",
    "prefecture": "三重県",
    "prefecture_kana": "ミエケン",
    "prefecture_code": 24,
    "city": "名張市",
    "city_kana": "ナバリシ",
    "town": "丸之内",
    "town_kana": "マルノウチ",
    "street": null,
    "office_name": null,
    "office_name_kana": null
  },
  "0719": {
    "postcode": "5180719",
    "prefecture": "三重県",
    "prefecture_kana": "ミエケン",
    "prefecture_code": 24,
    "city": "名張市",
    "city_kana": "ナバリシ",
    "town": "栄町",
    "town_kana": "サカエマチ",
    "street": null,
    "office_name": null,
    "office_name_kana": null
  },
  "0721": {
    "postcode": "5180721",
    "prefecture": "三重県",
    "prefecture_kana": "ミエケン",
    "prefecture_code": 24,
    "city": "名張市",
    "city_kana": "ナバリシ",
    "town": "朝日町",
    "town_kana": "アサヒマチ",
    "street": null,
    "office_name": null,
    "office_name_kana": null
  },
  "0722": {
    "postcode": "5180722",
    "prefecture": "三重県",
    "prefecture_kana": "ミエケン",
    "prefecture_code": 24,
    "city": "名張市",
    "city_kana": "ナバリシ",
    "town": "松崎町",
    "town_kana": "マツサキマチ",
    "street": null,
    "office_name": null,
    "office_name_kana": null
  },
  "0723": {
    "postcode": "5180723",
    "prefecture": "三重県",
    "prefecture_kana": "ミエケン",
    "prefecture_code": 24,
    "city": "名張市",
    "city_kana": "ナバリシ",
    "town": "木屋町",
    "town_kana": "キヤマチ",
    "street": null,
    "office_name": null,
    "office_name_kana": null
  },
  "0724": {
    "postcode": "5180724",
    "prefecture": "三重県",
    "prefecture_kana": "ミエケン",
    "prefecture_code": 24,
    "city": "名張市",
    "city_kana": "ナバリシ",
    "town": "榊町",
    "town_kana": "サカキマチ",
    "street": null,
    "office_name": null,
    "office_name_kana": null
  },
  "0725": {
    "postcode": "5180725",
    "prefecture": "三重県",
    "prefecture_kana": "ミエケン",
    "prefecture_code": 24,
    "city": "名張市",
    "city_kana": "ナバリシ",
    "town": "元町",
    "town_kana": "モトマチ",
    "street": null,
    "office_name": null,
    "office_name_kana": null
  },
  "0726": {
    "postcode": "5180726",
    "prefecture": "三重県",
    "prefecture_kana": "ミエケン",
    "prefecture_code": 24,
    "city": "名張市",
    "city_kana": "ナバリシ",
    "town": "本町",
    "town_kana": "ホンマチ",
    "street": null,
    "office_name": null,
    "office_name_kana": null
  },
  "0727": {
    "postcode": "5180727",
    "prefecture": "三重県",
    "prefecture_kana": "ミエケン",
    "prefecture_code": 24,
    "city": "名張市",
    "city_kana": "ナバリシ",
    "town": "新町",
    "town_kana": "シンマチ",
    "street": null,
    "office_name": null,
    "office_name_kana": null
  },
  "0728": {
    "postcode": "5180728",
    "prefecture": "三重県",
    "prefecture_kana": "ミエケン",
    "prefecture_code": 24,
    "city": "名張市",
    "city_kana": "ナバリシ",
    "town": "豊後町",
    "town_kana": "ブンゴマチ",
    "street": null,
    "office_name": null,
    "office_name_kana": null
  },
  "0729": {
    "postcode": "5180729",
    "prefecture": "三重県",
    "prefecture_kana": "ミエケン",
    "prefecture_code": 24,
    "city": "名張市",
    "city_kana": "ナバリシ",
    "town": "南町",
    "town_kana": "ミナミマチ",
    "street": null,
    "office_name": null,
    "office_name_kana": null
  },
  "0731": {
    "postcode": "5180731",
    "prefecture": "三重県",
    "prefecture_kana": "ミエケン",
    "prefecture_code": 24,
    "city": "名張市",
    "city_kana": "ナバリシ",
    "town": "夏秋",
    "town_kana": "ナツアキ",
    "street": null,
    "office_name": null,
    "office_name_kana": null
  },
  "0732": {
    "postcode": "5180732",
    "prefecture": "三重県",
    "prefecture_kana": "ミエケン",
    "prefecture_code": 24,
    "city": "名張市",
    "city_kana": "ナバリシ",
    "town": "松原町",
    "town_kana": "マツバラチョウ",
    "street": null,
    "office_name": null,
    "office_name_kana": null
  },
  "0733": {
    "postcode": "5180733",
    "prefecture": "三重県",
    "prefecture_kana": "ミエケン",
    "prefecture_code": 24,
    "city": "名張市",
    "city_kana": "ナバリシ",
    "town": "大屋戸",
    "town_kana": "オヤド",
    "street": null,
    "office_name": null,
    "office_name_kana": null
  },
  "0734": {
    "postcode": "5180734",
    "prefecture": "三重県",
    "prefecture_kana": "ミエケン",
    "prefecture_code": 24,
    "city": "名張市",
    "city_kana": "ナバリシ",
    "town": "黒田",
    "town_kana": "クロダ",
    "street": null,
    "office_name": null,
    "office_name_kana": null
  },
  "0735": {
    "postcode": "5180735",
    "prefecture": "三重県",
    "prefecture_kana": "ミエケン",
    "prefecture_code": 24,
    "city": "名張市",
    "city_kana": "ナバリシ",
    "town": "結馬",
    "town_kana": "ケチバ",
    "street": null,
    "office_name": null,
    "office_name_kana": null
  },
  "0736": {
    "postcode": "5180736",
    "prefecture": "三重県",
    "prefecture_kana": "ミエケン",
    "prefecture_code": 24,
    "city": "名張市",
    "city_kana": "ナバリシ",
    "town": "井手",
    "town_kana": "イデ",
    "street": null,
    "office_name": null,
    "office_name_kana": null
  },
  "0737": {
    "postcode": "5180737",
    "prefecture": "三重県",
    "prefecture_kana": "ミエケン",
    "prefecture_code": 24,
    "city": "名張市",
    "city_kana": "ナバリシ",
    "town": "安部田",
    "town_kana": "アベタ",
    "street": null,
    "office_name": null,
    "office_name_kana": null
  },
  "0738": {
    "postcode": "5180738",
    "prefecture": "三重県",
    "prefecture_kana": "ミエケン",
    "prefecture_code": 24,
    "city": "名張市",
    "city_kana": "ナバリシ",
    "town": "短野",
    "town_kana": "ミジカノ",
    "street": null,
    "office_name": null,
    "office_name_kana": null
  },
  "0739": {
    "postcode": "5180739",
    "prefecture": "三重県",
    "prefecture_kana": "ミエケン",
    "prefecture_code": 24,
    "city": "名張市",
    "city_kana": "ナバリシ",
    "town": "下三谷",
    "town_kana": "シモミタニ",
    "street": null,
    "office_name": null,
    "office_name_kana": null
  },
  "0740": {
    "postcode": "5180740",
    "prefecture": "三重県",
    "prefecture_kana": "ミエケン",
    "prefecture_code": 24,
    "city": "名張市",
    "city_kana": "ナバリシ",
    "town": "梅が丘北５番町",
    "town_kana": "ウメガオカキタ5バンチョウ",
    "street": null,
    "office_name": null,
    "office_name_kana": null
  },
  "0741": {
    "postcode": "5180741",
    "prefecture": "三重県",
    "prefecture_kana": "ミエケン",
    "prefecture_code": 24,
    "city": "名張市",
    "city_kana": "ナバリシ",
    "town": "梅が丘南１番町",
    "town_kana": "ウメガオカミナミ1バンチョウ",
    "street": null,
    "office_name": null,
    "office_name_kana": null
  },
  "0742": {
    "postcode": "5180742",
    "prefecture": "三重県",
    "prefecture_kana": "ミエケン",
    "prefecture_code": 24,
    "city": "名張市",
    "city_kana": "ナバリシ",
    "town": "梅が丘南２番町",
    "town_kana": "ウメガオカミナミ2バンチョウ",
    "street": null,
    "office_name": null,
    "office_name_kana": null
  },
  "0743": {
    "postcode": "5180743",
    "prefecture": "三重県",
    "prefecture_kana": "ミエケン",
    "prefecture_code": 24,
    "city": "名張市",
    "city_kana": "ナバリシ",
    "town": "梅が丘南３番町",
    "town_kana": "ウメガオカミナミ3バンチョウ",
    "street": null,
    "office_name": null,
    "office_name_kana": null
  },
  "0744": {
    "postcode": "5180744",
    "prefecture": "三重県",
    "prefecture_kana": "ミエケン",
    "prefecture_code": 24,
    "city": "名張市",
    "city_kana": "ナバリシ",
    "town": "梅が丘南４番町",
    "town_kana": "ウメガオカミナミ4バンチョウ",
    "street": null,
    "office_name": null,
    "office_name_kana": null
  },
  "0745": {
    "postcode": "5180745",
    "prefecture": "三重県",
    "prefecture_kana": "ミエケン",
    "prefecture_code": 24,
    "city": "名張市",
    "city_kana": "ナバリシ",
    "town": "梅が丘南５番町",
    "town_kana": "ウメガオカミナミ5バンチョウ",
    "street": null,
    "office_name": null,
    "office_name_kana": null
  },
  "0746": {
    "postcode": "5180746",
    "prefecture": "三重県",
    "prefecture_kana": "ミエケン",
    "prefecture_code": 24,
    "city": "名張市",
    "city_kana": "ナバリシ",
    "town": "梅が丘北１番町",
    "town_kana": "ウメガオカキタ1バンチョウ",
    "street": null,
    "office_name": null,
    "office_name_kana": null
  },
  "0747": {
    "postcode": "5180747",
    "prefecture": "三重県",
    "prefecture_kana": "ミエケン",
    "prefecture_code": 24,
    "city": "名張市",
    "city_kana": "ナバリシ",
    "town": "梅が丘北２番町",
    "town_kana": "ウメガオカキタ2バンチョウ",
    "street": null,
    "office_name": null,
    "office_name_kana": null
  },
  "0748": {
    "postcode": "5180748",
    "prefecture": "三重県",
    "prefecture_kana": "ミエケン",
    "prefecture_code": 24,
    "city": "名張市",
    "city_kana": "ナバリシ",
    "town": "梅が丘北３番町",
    "town_kana": "ウメガオカキタ3バンチョウ",
    "street": null,
    "office_name": null,
    "office_name_kana": null
  },
  "0749": {
    "postcode": "5180749",
    "prefecture": "三重県",
    "prefecture_kana": "ミエケン",
    "prefecture_code": 24,
    "city": "名張市",
    "city_kana": "ナバリシ",
    "town": "梅が丘北４番町",
    "town_kana": "ウメガオカキタ4バンチョウ",
    "street": null,
    "office_name": null,
    "office_name_kana": null
  },
  "0751": {
    "postcode": "5180751",
    "prefecture": "三重県",
    "prefecture_kana": "ミエケン",
    "prefecture_code": 24,
    "city": "名張市",
    "city_kana": "ナバリシ",
    "town": "蔵持町芝出",
    "town_kana": "クラモチチョウシバデ",
    "street": null,
    "office_name": null,
    "office_name_kana": null
  },
  "0752": {
    "postcode": "5180752",
    "prefecture": "三重県",
    "prefecture_kana": "ミエケン",
    "prefecture_code": 24,
    "city": "名張市",
    "city_kana": "ナバリシ",
    "town": "蔵持町原出",
    "town_kana": "クラモチチョウハラデ",
    "street": null,
    "office_name": null,
    "office_name_kana": null
  },
  "0753": {
    "postcode": "5180753",
    "prefecture": "三重県",
    "prefecture_kana": "ミエケン",
    "prefecture_code": 24,
    "city": "名張市",
    "city_kana": "ナバリシ",
    "town": "蔵持町里",
    "town_kana": "クラモチチョウサト",
    "street": null,
    "office_name": null,
    "office_name_kana": null
  },
  "0754": {
    "postcode": "5180754",
    "prefecture": "三重県",
    "prefecture_kana": "ミエケン",
    "prefecture_code": 24,
    "city": "名張市",
    "city_kana": "ナバリシ",
    "town": "緑が丘西",
    "town_kana": "ミドリガオカニシ",
    "street": null,
    "office_name": null,
    "office_name_kana": null
  },
  "0755": {
    "postcode": "5180755",
    "prefecture": "三重県",
    "prefecture_kana": "ミエケン",
    "prefecture_code": 24,
    "city": "名張市",
    "city_kana": "ナバリシ",
    "town": "緑が丘中",
    "town_kana": "ミドリガオカナカ",
    "street": null,
    "office_name": null,
    "office_name_kana": null
  },
  "0756": {
    "postcode": "5180756",
    "prefecture": "三重県",
    "prefecture_kana": "ミエケン",
    "prefecture_code": 24,
    "city": "名張市",
    "city_kana": "ナバリシ",
    "town": "緑が丘東",
    "town_kana": "ミドリガオカヒガシ",
    "street": null,
    "office_name": null,
    "office_name_kana": null
  },
  "0761": {
    "postcode": "5180761",
    "prefecture": "三重県",
    "prefecture_kana": "ミエケン",
    "prefecture_code": 24,
    "city": "名張市",
    "city_kana": "ナバリシ",
    "town": "竜口",
    "town_kana": "リュウグチ",
    "street": null,
    "office_name": null,
    "office_name_kana": null
  },
  "0762": {
    "postcode": "5180762",
    "prefecture": "三重県",
    "prefecture_kana": "ミエケン",
    "prefecture_code": 24,
    "city": "名張市",
    "city_kana": "ナバリシ",
    "town": "上三谷",
    "town_kana": "カミミタニ",
    "street": null,
    "office_name": null,
    "office_name_kana": null
  },
  "0763": {
    "postcode": "5180763",
    "prefecture": "三重県",
    "prefecture_kana": "ミエケン",
    "prefecture_code": 24,
    "city": "名張市",
    "city_kana": "ナバリシ",
    "town": "矢川",
    "town_kana": "ヤガワ",
    "street": null,
    "office_name": null,
    "office_name_kana": null
  },
  "0771": {
    "postcode": "5180771",
    "prefecture": "三重県",
    "prefecture_kana": "ミエケン",
    "prefecture_code": 24,
    "city": "名張市",
    "city_kana": "ナバリシ",
    "town": "希央台１番町",
    "town_kana": "キオウダイ1バンチョウ",
    "street": null,
    "office_name": null,
    "office_name_kana": null
  },
  "0772": {
    "postcode": "5180772",
    "prefecture": "三重県",
    "prefecture_kana": "ミエケン",
    "prefecture_code": 24,
    "city": "名張市",
    "city_kana": "ナバリシ",
    "town": "希央台２番町",
    "town_kana": "キオウダイ2バンチョウ",
    "street": null,
    "office_name": null,
    "office_name_kana": null
  },
  "0773": {
    "postcode": "5180773",
    "prefecture": "三重県",
    "prefecture_kana": "ミエケン",
    "prefecture_code": 24,
    "city": "名張市",
    "city_kana": "ナバリシ",
    "town": "希央台３番町",
    "town_kana": "キオウダイ3バンチョウ",
    "street": null,
    "office_name": null,
    "office_name_kana": null
  },
  "0774": {
    "postcode": "5180774",
    "prefecture": "三重県",
    "prefecture_kana": "ミエケン",
    "prefecture_code": 24,
    "city": "名張市",
    "city_kana": "ナバリシ",
    "town": "希央台４番町",
    "town_kana": "キオウダイ4バンチョウ",
    "street": null,
    "office_name": null,
    "office_name_kana": null
  },
  "0775": {
    "postcode": "5180775",
    "prefecture": "三重県",
    "prefecture_kana": "ミエケン",
    "prefecture_code": 24,
    "city": "名張市",
    "city_kana": "ナバリシ",
    "town": "希央台５番町",
    "town_kana": "キオウダイ5バンチョウ",
    "street": null,
    "office_name": null,
    "office_name_kana": null
  },
  "0801": {
    "postcode": "5180801",
    "prefecture": "三重県",
    "prefecture_kana": "ミエケン",
    "prefecture_code": 24,
    "city": "伊賀市",
    "city_kana": "イガシ",
    "town": "平野見能",
    "town_kana": "ヒラノミノウ",
    "street": null,
    "office_name": null,
    "office_name_kana": null
  },
  "0802": {
    "postcode": "5180802",
    "prefecture": "三重県",
    "prefecture_kana": "ミエケン",
    "prefecture_code": 24,
    "city": "伊賀市",
    "city_kana": "イガシ",
    "town": "平野樋之口",
    "town_kana": "ヒラノヒノクチ",
    "street": null,
    "office_name": null,
    "office_name_kana": null
  },
  "0804": {
    "postcode": "5180804",
    "prefecture": "三重県",
    "prefecture_kana": "ミエケン",
    "prefecture_code": 24,
    "city": "伊賀市",
    "city_kana": "イガシ",
    "town": "平野六反田",
    "town_kana": "ヒラノロクタンダ",
    "street": null,
    "office_name": null,
    "office_name_kana": null
  },
  "0807": {
    "postcode": "5180807",
    "prefecture": "三重県",
    "prefecture_kana": "ミエケン",
    "prefecture_code": 24,
    "city": "伊賀市",
    "city_kana": "イガシ",
    "town": "平野上川原",
    "town_kana": "ヒラノカミガワラ",
    "street": null,
    "office_name": null,
    "office_name_kana": null
  },
  "0808": {
    "postcode": "5180808",
    "prefecture": "三重県",
    "prefecture_kana": "ミエケン",
    "prefecture_code": 24,
    "city": "伊賀市",
    "city_kana": "イガシ",
    "town": "平野蔵垣内",
    "town_kana": "ヒラノクラガイト",
    "street": null,
    "office_name": null,
    "office_name_kana": null
  },
  "0809": {
    "postcode": "5180809",
    "prefecture": "三重県",
    "prefecture_kana": "ミエケン",
    "prefecture_code": 24,
    "city": "伊賀市",
    "city_kana": "イガシ",
    "town": "西明寺",
    "town_kana": "サイミョウジ",
    "street": null,
    "office_name": null,
    "office_name_kana": null
  },
  "0810": {
    "postcode": "5180810",
    "prefecture": "三重県",
    "prefecture_kana": "ミエケン",
    "prefecture_code": 24,
    "city": "伊賀市",
    "city_kana": "イガシ",
    "town": "平野東町",
    "town_kana": "ヒラノヒガシマチ",
    "street": null,
    "office_name": null,
    "office_name_kana": null
  },
  "0811": {
    "postcode": "5180811",
    "prefecture": "三重県",
    "prefecture_kana": "ミエケン",
    "prefecture_code": 24,
    "city": "伊賀市",
    "city_kana": "イガシ",
    "town": "喰代",
    "town_kana": "ホウジロ",
    "street": null,
    "office_name": null,
    "office_name_kana": null
  },
  "0812": {
    "postcode": "5180812",
    "prefecture": "三重県",
    "prefecture_kana": "ミエケン",
    "prefecture_code": 24,
    "city": "伊賀市",
    "city_kana": "イガシ",
    "town": "高山",
    "town_kana": "タカヤマ",
    "street": null,
    "office_name": null,
    "office_name_kana": null
  },
  "0813": {
    "postcode": "5180813",
    "prefecture": "三重県",
    "prefecture_kana": "ミエケン",
    "prefecture_code": 24,
    "city": "伊賀市",
    "city_kana": "イガシ",
    "town": "蓮池",
    "town_kana": "ハスイケ",
    "street": null,
    "office_name": null,
    "office_name_kana": null
  },
  "0814": {
    "postcode": "5180814",
    "prefecture": "三重県",
    "prefecture_kana": "ミエケン",
    "prefecture_code": 24,
    "city": "伊賀市",
    "city_kana": "イガシ",
    "town": "上友生",
    "town_kana": "カミトモノ",
    "street": null,
    "office_name": null,
    "office_name_kana": null
  },
  "0815": {
    "postcode": "5180815",
    "prefecture": "三重県",
    "prefecture_kana": "ミエケン",
    "prefecture_code": 24,
    "city": "伊賀市",
    "city_kana": "イガシ",
    "town": "界外",
    "town_kana": "カイゲ",
    "street": null,
    "office_name": null,
    "office_name_kana": null
  },
  "0816": {
    "postcode": "5180816",
    "prefecture": "三重県",
    "prefecture_kana": "ミエケン",
    "prefecture_code": 24,
    "city": "伊賀市",
    "city_kana": "イガシ",
    "town": "中友生",
    "town_kana": "ナカトモノ",
    "street": null,
    "office_name": null,
    "office_name_kana": null
  },
  "0817": {
    "postcode": "5180817",
    "prefecture": "三重県",
    "prefecture_kana": "ミエケン",
    "prefecture_code": 24,
    "city": "伊賀市",
    "city_kana": "イガシ",
    "town": "下友生",
    "town_kana": "シモトモノ",
    "street": null,
    "office_name": null,
    "office_name_kana": null
  },
  "0818": {
    "postcode": "5180818",
    "prefecture": "三重県",
    "prefecture_kana": "ミエケン",
    "prefecture_code": 24,
    "city": "伊賀市",
    "city_kana": "イガシ",
    "town": "荒木",
    "town_kana": "アラキ",
    "street": null,
    "office_name": null,
    "office_name_kana": null
  },
  "0820": {
    "postcode": "5180820",
    "prefecture": "三重県",
    "prefecture_kana": "ミエケン",
    "prefecture_code": 24,
    "city": "伊賀市",
    "city_kana": "イガシ",
    "town": "平野西町",
    "town_kana": "ヒラノニシマチ",
    "street": null,
    "office_name": null,
    "office_name_kana": null
  },
  "0821": {
    "postcode": "5180821",
    "prefecture": "三重県",
    "prefecture_kana": "ミエケン",
    "prefecture_code": 24,
    "city": "伊賀市",
    "city_kana": "イガシ",
    "town": "生琉里",
    "town_kana": "フルサト",
    "street": null,
    "office_name": null,
    "office_name_kana": null
  },
  "0822": {
    "postcode": "5180822",
    "prefecture": "三重県",
    "prefecture_kana": "ミエケン",
    "prefecture_code": 24,
    "city": "伊賀市",
    "city_kana": "イガシ",
    "town": "問屋町",
    "town_kana": "トンヤマチ",
    "street": null,
    "office_name": null,
    "office_name_kana": null
  },
  "0823": {
    "postcode": "5180823",
    "prefecture": "三重県",
    "prefecture_kana": "ミエケン",
    "prefecture_code": 24,
    "city": "伊賀市",
    "city_kana": "イガシ",
    "town": "四十九町",
    "town_kana": "シジュクチョウ",
    "street": null,
    "office_name": null,
    "office_name_kana": null
  },
  "0824": {
    "postcode": "5180824",
    "prefecture": "三重県",
    "prefecture_kana": "ミエケン",
    "prefecture_code": 24,
    "city": "伊賀市",
    "city_kana": "イガシ",
    "town": "守田町",
    "town_kana": "モリタチョウ",
    "street": null,
    "office_name": null,
    "office_name_kana": null
  },
  "0825": {
    "postcode": "5180825",
    "prefecture": "三重県",
    "prefecture_kana": "ミエケン",
    "prefecture_code": 24,
    "city": "伊賀市",
    "city_kana": "イガシ",
    "town": "小田町",
    "town_kana": "オタチョウ",
    "street": null,
    "office_name": null,
    "office_name_kana": null
  },
  "0826": {
    "postcode": "5180826",
    "prefecture": "三重県",
    "prefecture_kana": "ミエケン",
    "prefecture_code": 24,
    "city": "伊賀市",
    "city_kana": "イガシ",
    "town": "平野北谷",
    "town_kana": "ヒラノキタダニ",
    "street": null,
    "office_name": null,
    "office_name_kana": null
  },
  "0827": {
    "postcode": "5180827",
    "prefecture": "三重県",
    "prefecture_kana": "ミエケン",
    "prefecture_code": 24,
    "city": "伊賀市",
    "city_kana": "イガシ",
    "town": "平野清水",
    "town_kana": "ヒラノショウズ",
    "street": null,
    "office_name": null,
    "office_name_kana": null
  },
  "0828": {
    "postcode": "5180828",
    "prefecture": "三重県",
    "prefecture_kana": "ミエケン",
    "prefecture_code": 24,
    "city": "伊賀市",
    "city_kana": "イガシ",
    "town": "平野中川原",
    "town_kana": "ヒラノナカガワラ",
    "street": null,
    "office_name": null,
    "office_name_kana": null
  },
  "0829": {
    "postcode": "5180829",
    "prefecture": "三重県",
    "prefecture_kana": "ミエケン",
    "prefecture_code": 24,
    "city": "伊賀市",
    "city_kana": "イガシ",
    "town": "平野山之下",
    "town_kana": "ヒラノヤマノシタ",
    "street": null,
    "office_name": null,
    "office_name_kana": null
  },
  "0830": {
    "postcode": "5180830",
    "prefecture": "三重県",
    "prefecture_kana": "ミエケン",
    "prefecture_code": 24,
    "city": "伊賀市",
    "city_kana": "イガシ",
    "town": "平野城北町",
    "town_kana": "ヒラノジョウホクチョウ",
    "street": null,
    "office_name": null,
    "office_name_kana": null
  },
  "0831": {
    "postcode": "5180831",
    "prefecture": "三重県",
    "prefecture_kana": "ミエケン",
    "prefecture_code": 24,
    "city": "伊賀市",
    "city_kana": "イガシ",
    "town": "上野農人町",
    "town_kana": "ウエノノウニンマチ",
    "street": null,
    "office_name": null,
    "office_name_kana": null
  },
  "0832": {
    "postcode": "5180832",
    "prefecture": "三重県",
    "prefecture_kana": "ミエケン",
    "prefecture_code": 24,
    "city": "伊賀市",
    "city_kana": "イガシ",
    "town": "上野車坂町",
    "town_kana": "ウエノクルマザカチョウ",
    "street": null,
    "office_name": null,
    "office_name_kana": null
  },
  "0833": {
    "postcode": "5180833",
    "prefecture": "三重県",
    "prefecture_kana": "ミエケン",
    "prefecture_code": 24,
    "city": "伊賀市",
    "city_kana": "イガシ",
    "town": "緑ケ丘東町",
    "town_kana": "ミドリガオカヒガシマチ",
    "street": null,
    "office_name": null,
    "office_name_kana": null
  },
  "0834": {
    "postcode": "5180834",
    "prefecture": "三重県",
    "prefecture_kana": "ミエケン",
    "prefecture_code": 24,
    "city": "伊賀市",
    "city_kana": "イガシ",
    "town": "緑ケ丘中町",
    "town_kana": "ミドリガオカナカマチ",
    "street": null,
    "office_name": null,
    "office_name_kana": null
  },
  "0835": {
    "postcode": "5180835",
    "prefecture": "三重県",
    "prefecture_kana": "ミエケン",
    "prefecture_code": 24,
    "city": "伊賀市",
    "city_kana": "イガシ",
    "town": "緑ケ丘南町",
    "town_kana": "ミドリガオカミナミマチ",
    "street": null,
    "office_name": null,
    "office_name_kana": null
  },
  "0836": {
    "postcode": "5180836",
    "prefecture": "三重県",
    "prefecture_kana": "ミエケン",
    "prefecture_code": 24,
    "city": "伊賀市",
    "city_kana": "イガシ",
    "town": "緑ケ丘本町",
    "town_kana": "ミドリガオカホンマチ",
    "street": null,
    "office_name": null,
    "office_name_kana": null
  },
  "0837": {
    "postcode": "5180837",
    "prefecture": "三重県",
    "prefecture_kana": "ミエケン",
    "prefecture_code": 24,
    "city": "伊賀市",
    "city_kana": "イガシ",
    "town": "緑ケ丘西町",
    "town_kana": "ミドリガオカニシマチ",
    "street": null,
    "office_name": null,
    "office_name_kana": null
  },
  "0838": {
    "postcode": "5180838",
    "prefecture": "三重県",
    "prefecture_kana": "ミエケン",
    "prefecture_code": 24,
    "city": "伊賀市",
    "city_kana": "イガシ",
    "town": "上野茅町",
    "town_kana": "ウエノカヤマチ",
    "street": null,
    "office_name": null,
    "office_name_kana": null
  },
  "0839": {
    "postcode": "5180839",
    "prefecture": "三重県",
    "prefecture_kana": "ミエケン",
    "prefecture_code": 24,
    "city": "伊賀市",
    "city_kana": "イガシ",
    "town": "上野田端町",
    "town_kana": "ウエノタバタチョウ",
    "street": null,
    "office_name": null,
    "office_name_kana": null
  },
  "0840": {
    "postcode": "5180840",
    "prefecture": "三重県",
    "prefecture_kana": "ミエケン",
    "prefecture_code": 24,
    "city": "伊賀市",
    "city_kana": "イガシ",
    "town": "陽光台",
    "town_kana": "ヨウコウダイ",
    "street": null,
    "office_name": null,
    "office_name_kana": null
  },
  "0841": {
    "postcode": "5180841",
    "prefecture": "三重県",
    "prefecture_kana": "ミエケン",
    "prefecture_code": 24,
    "city": "伊賀市",
    "city_kana": "イガシ",
    "town": "上野恵美須町",
    "town_kana": "ウエノエビスマチ",
    "street": null,
    "office_name": null,
    "office_name_kana": null
  },
  "0842": {
    "postcode": "5180842",
    "prefecture": "三重県",
    "prefecture_kana": "ミエケン",
    "prefecture_code": 24,
    "city": "伊賀市",
    "city_kana": "イガシ",
    "town": "上野桑町",
    "town_kana": "ウエノクワマチ",
    "street": null,
    "office_name": null,
    "office_name_kana": null
  },
  "0843": {
    "postcode": "5180843",
    "prefecture": "三重県",
    "prefecture_kana": "ミエケン",
    "prefecture_code": 24,
    "city": "伊賀市",
    "city_kana": "イガシ",
    "town": "久米町",
    "town_kana": "クメチョウ",
    "street": null,
    "office_name": null,
    "office_name_kana": null
  },
  "0844": {
    "postcode": "5180844",
    "prefecture": "三重県",
    "prefecture_kana": "ミエケン",
    "prefecture_code": 24,
    "city": "伊賀市",
    "city_kana": "イガシ",
    "town": "八幡町",
    "town_kana": "ヤハタチョウ",
    "street": null,
    "office_name": null,
    "office_name_kana": null
  },
  "0845": {
    "postcode": "5180845",
    "prefecture": "三重県",
    "prefecture_kana": "ミエケン",
    "prefecture_code": 24,
    "city": "伊賀市",
    "city_kana": "イガシ",
    "town": "木興町",
    "town_kana": "キコチョウ",
    "street": null,
    "office_name": null,
    "office_name_kana": null
  },
  "0846": {
    "postcode": "5180846",
    "prefecture": "三重県",
    "prefecture_kana": "ミエケン",
    "prefecture_code": 24,
    "city": "伊賀市",
    "city_kana": "イガシ",
    "town": "上野愛宕町",
    "town_kana": "ウエノアタゴマチ",
    "street": null,
    "office_name": null,
    "office_name_kana": null
  },
  "0847": {
    "postcode": "5180847",
    "prefecture": "三重県",
    "prefecture_kana": "ミエケン",
    "prefecture_code": 24,
    "city": "伊賀市",
    "city_kana": "イガシ",
    "town": "上野鉄砲町",
    "town_kana": "ウエノテッポウマチ",
    "street": null,
    "office_name": null,
    "office_name_kana": null
  },
  "0848": {
    "postcode": "5180848",
    "prefecture": "三重県",
    "prefecture_kana": "ミエケン",
    "prefecture_code": 24,
    "city": "伊賀市",
    "city_kana": "イガシ",
    "town": "上野西日南町",
    "town_kana": "ウエノニシヒナタマチ",
    "street": null,
    "office_name": null,
    "office_name_kana": null
  },
  "0849": {
    "postcode": "5180849",
    "prefecture": "三重県",
    "prefecture_kana": "ミエケン",
    "prefecture_code": 24,
    "city": "伊賀市",
    "city_kana": "イガシ",
    "town": "上野東日南町",
    "town_kana": "ウエノヒガシヒナタマチ",
    "street": null,
    "office_name": null,
    "office_name_kana": null
  },
  "0851": {
    "postcode": "5180851",
    "prefecture": "三重県",
    "prefecture_kana": "ミエケン",
    "prefecture_code": 24,
    "city": "伊賀市",
    "city_kana": "イガシ",
    "town": "上野寺町",
    "town_kana": "ウエノテラマチ",
    "street": null,
    "office_name": null,
    "office_name_kana": null
  },
  "0852": {
    "postcode": "5180852",
    "prefecture": "三重県",
    "prefecture_kana": "ミエケン",
    "prefecture_code": 24,
    "city": "伊賀市",
    "city_kana": "イガシ",
    "town": "上野伊予町",
    "town_kana": "ウエノイヨマチ",
    "street": null,
    "office_name": null,
    "office_name_kana": null
  },
  "0853": {
    "postcode": "5180853",
    "prefecture": "三重県",
    "prefecture_kana": "ミエケン",
    "prefecture_code": 24,
    "city": "伊賀市",
    "city_kana": "イガシ",
    "town": "上野池町",
    "town_kana": "ウエノイケマチ",
    "street": null,
    "office_name": null,
    "office_name_kana": null
  },
  "0854": {
    "postcode": "5180854",
    "prefecture": "三重県",
    "prefecture_kana": "ミエケン",
    "prefecture_code": 24,
    "city": "伊賀市",
    "city_kana": "イガシ",
    "town": "上野忍町",
    "town_kana": "ウエノシノビチョウ",
    "street": null,
    "office_name": null,
    "office_name_kana": null
  },
  "0855": {
    "postcode": "5180855",
    "prefecture": "三重県",
    "prefecture_kana": "ミエケン",
    "prefecture_code": 24,
    "city": "伊賀市",
    "city_kana": "イガシ",
    "town": "上野万町",
    "town_kana": "ウエノヨロズマチ",
    "street": null,
    "office_name": null,
    "office_name_kana": null
  },
  "0856": {
    "postcode": "5180856",
    "prefecture": "三重県",
    "prefecture_kana": "ミエケン",
    "prefecture_code": 24,
    "city": "伊賀市",
    "city_kana": "イガシ",
    "town": "上野徳居町",
    "town_kana": "ウエノトクイチョウ",
    "street": null,
    "office_name": null,
    "office_name_kana": null
  },
  "0857": {
    "postcode": "5180857",
    "prefecture": "三重県",
    "prefecture_kana": "ミエケン",
    "prefecture_code": 24,
    "city": "伊賀市",
    "city_kana": "イガシ",
    "town": "上野三之西町",
    "town_kana": "ウエノサンノニシマチ",
    "street": null,
    "office_name": null,
    "office_name_kana": null
  },
  "0858": {
    "postcode": "5180858",
    "prefecture": "三重県",
    "prefecture_kana": "ミエケン",
    "prefecture_code": 24,
    "city": "伊賀市",
    "city_kana": "イガシ",
    "town": "上野紺屋町",
    "town_kana": "ウエノコンヤマチ",
    "street": null,
    "office_name": null,
    "office_name_kana": null
  },
  "0859": {
    "postcode": "5180859",
    "prefecture": "三重県",
    "prefecture_kana": "ミエケン",
    "prefecture_code": 24,
    "city": "伊賀市",
    "city_kana": "イガシ",
    "town": "上野相生町",
    "town_kana": "ウエノアイオイチョウ",
    "street": null,
    "office_name": null,
    "office_name_kana": null
  },
  "0861": {
    "postcode": "5180861",
    "prefecture": "三重県",
    "prefecture_kana": "ミエケン",
    "prefecture_code": 24,
    "city": "伊賀市",
    "city_kana": "イガシ",
    "town": "上野東町",
    "town_kana": "ウエノヒガシマチ",
    "street": null,
    "office_name": null,
    "office_name_kana": null
  },
  "0862": {
    "postcode": "5180862",
    "prefecture": "三重県",
    "prefecture_kana": "ミエケン",
    "prefecture_code": 24,
    "city": "伊賀市",
    "city_kana": "イガシ",
    "town": "上野片原町",
    "town_kana": "ウエノカタハラマチ",
    "street": null,
    "office_name": null,
    "office_name_kana": null
  },
  "0863": {
    "postcode": "5180863",
    "prefecture": "三重県",
    "prefecture_kana": "ミエケン",
    "prefecture_code": 24,
    "city": "伊賀市",
    "city_kana": "イガシ",
    "town": "上野新町",
    "town_kana": "ウエノシンマチ",
    "street": null,
    "office_name": null,
    "office_name_kana": null
  },
  "0864": {
    "postcode": "5180864",
    "prefecture": "三重県",
    "prefecture_kana": "ミエケン",
    "prefecture_code": 24,
    "city": "伊賀市",
    "city_kana": "イガシ",
    "town": "上野鍛冶町",
    "town_kana": "ウエノカジマチ",
    "street": null,
    "office_name": null,
    "office_name_kana": null
  },
  "0865": {
    "postcode": "5180865",
    "prefecture": "三重県",
    "prefecture_kana": "ミエケン",
    "prefecture_code": 24,
    "city": "伊賀市",
    "city_kana": "イガシ",
    "town": "上野魚町",
    "town_kana": "ウエノウオマチ",
    "street": null,
    "office_name": null,
    "office_name_kana": null
  },
  "0866": {
    "postcode": "5180866",
    "prefecture": "三重県",
    "prefecture_kana": "ミエケン",
    "prefecture_code": 24,
    "city": "伊賀市",
    "city_kana": "イガシ",
    "town": "上野小玉町",
    "town_kana": "ウエノコダマチョウ",
    "street": null,
    "office_name": null,
    "office_name_kana": null
  },
  "0867": {
    "postcode": "5180867",
    "prefecture": "三重県",
    "prefecture_kana": "ミエケン",
    "prefecture_code": 24,
    "city": "伊賀市",
    "city_kana": "イガシ",
    "town": "上野福居町",
    "town_kana": "ウエノフクイチョウ",
    "street": null,
    "office_name": null,
    "office_name_kana": null
  },
  "0868": {
    "postcode": "5180868",
    "prefecture": "三重県",
    "prefecture_kana": "ミエケン",
    "prefecture_code": 24,
    "city": "伊賀市",
    "city_kana": "イガシ",
    "town": "上野西町",
    "town_kana": "ウエノニシマチ",
    "street": null,
    "office_name": null,
    "office_name_kana": null
  },
  "0869": {
    "postcode": "5180869",
    "prefecture": "三重県",
    "prefecture_kana": "ミエケン",
    "prefecture_code": 24,
    "city": "伊賀市",
    "city_kana": "イガシ",
    "town": "上野中町",
    "town_kana": "ウエノナカマチ",
    "street": null,
    "office_name": null,
    "office_name_kana": null
  },
  "0871": {
    "postcode": "5180871",
    "prefecture": "三重県",
    "prefecture_kana": "ミエケン",
    "prefecture_code": 24,
    "city": "伊賀市",
    "city_kana": "イガシ",
    "town": "上野赤坂町",
    "town_kana": "ウエノアカサカチョウ",
    "street": null,
    "office_name": null,
    "office_name_kana": null
  },
  "0872": {
    "postcode": "5180872",
    "prefecture": "三重県",
    "prefecture_kana": "ミエケン",
    "prefecture_code": 24,
    "city": "伊賀市",
    "city_kana": "イガシ",
    "town": "上野玄蕃町",
    "town_kana": "ウエノゲンバマチ",
    "street": null,
    "office_name": null,
    "office_name_kana": null
  },
  "0873": {
    "postcode": "5180873",
    "prefecture": "三重県",
    "prefecture_kana": "ミエケン",
    "prefecture_code": 24,
    "city": "伊賀市",
    "city_kana": "イガシ",
    "town": "上野丸之内",
    "town_kana": "ウエノマルノウチ",
    "street": null,
    "office_name": null,
    "office_name_kana": null
  },
  "0874": {
    "postcode": "5180874",
    "prefecture": "三重県",
    "prefecture_kana": "ミエケン",
    "prefecture_code": 24,
    "city": "伊賀市",
    "city_kana": "イガシ",
    "town": "上野幸坂町",
    "town_kana": "ウエノコウサカマチ",
    "street": null,
    "office_name": null,
    "office_name_kana": null
  },
  "0875": {
    "postcode": "5180875",
    "prefecture": "三重県",
    "prefecture_kana": "ミエケン",
    "prefecture_code": 24,
    "city": "伊賀市",
    "city_kana": "イガシ",
    "town": "上野向島町",
    "town_kana": "ウエノムカイジマチョウ",
    "street": null,
    "office_name": null,
    "office_name_kana": null
  },
  "0877": {
    "postcode": "5180877",
    "prefecture": "三重県",
    "prefecture_kana": "ミエケン",
    "prefecture_code": 24,
    "city": "伊賀市",
    "city_kana": "イガシ",
    "town": "上野下幸坂町",
    "town_kana": "ウエノシモコウサカマチ",
    "street": null,
    "office_name": null,
    "office_name_kana": null
  },
  "0878": {
    "postcode": "5180878",
    "prefecture": "三重県",
    "prefecture_kana": "ミエケン",
    "prefecture_code": 24,
    "city": "伊賀市",
    "city_kana": "イガシ",
    "town": "上野西大手町",
    "town_kana": "ウエノニシオオテチョウ",
    "street": null,
    "office_name": null,
    "office_name_kana": null
  },
  "1141": {
    "postcode": "5181141",
    "prefecture": "三重県",
    "prefecture_kana": "ミエケン",
    "prefecture_code": 24,
    "city": "伊賀市",
    "city_kana": "イガシ",
    "town": "菖蒲池",
    "town_kana": "ショウブイケ",
    "street": null,
    "office_name": null,
    "office_name_kana": null
  },
  "1142": {
    "postcode": "5181142",
    "prefecture": "三重県",
    "prefecture_kana": "ミエケン",
    "prefecture_code": 24,
    "city": "伊賀市",
    "city_kana": "イガシ",
    "town": "古山界外",
    "town_kana": "フルヤマカイゲ",
    "street": null,
    "office_name": null,
    "office_name_kana": null
  },
  "1143": {
    "postcode": "5181143",
    "prefecture": "三重県",
    "prefecture_kana": "ミエケン",
    "prefecture_code": 24,
    "city": "伊賀市",
    "city_kana": "イガシ",
    "town": "鍛冶屋",
    "town_kana": "カジヤ",
    "street": null,
    "office_name": null,
    "office_name_kana": null
  },
  "1144": {
    "postcode": "5181144",
    "prefecture": "三重県",
    "prefecture_kana": "ミエケン",
    "prefecture_code": 24,
    "city": "伊賀市",
    "city_kana": "イガシ",
    "town": "東谷",
    "town_kana": "ヒガシダニ",
    "street": null,
    "office_name": null,
    "office_name_kana": null
  },
  "1145": {
    "postcode": "5181145",
    "prefecture": "三重県",
    "prefecture_kana": "ミエケン",
    "prefecture_code": 24,
    "city": "伊賀市",
    "city_kana": "イガシ",
    "town": "安場",
    "town_kana": "ヤスバ",
    "street": null,
    "office_name": null,
    "office_name_kana": null
  },
  "1146": {
    "postcode": "5181146",
    "prefecture": "三重県",
    "prefecture_kana": "ミエケン",
    "prefecture_code": 24,
    "city": "伊賀市",
    "city_kana": "イガシ",
    "town": "湯屋谷",
    "town_kana": "ユヤダニ",
    "street": null,
    "office_name": null,
    "office_name_kana": null
  },
  "1147": {
    "postcode": "5181147",
    "prefecture": "三重県",
    "prefecture_kana": "ミエケン",
    "prefecture_code": 24,
    "city": "伊賀市",
    "city_kana": "イガシ",
    "town": "蔵縄手",
    "town_kana": "クラナワテ",
    "street": null,
    "office_name": null,
    "office_name_kana": null
  },
  "1151": {
    "postcode": "5181151",
    "prefecture": "三重県",
    "prefecture_kana": "ミエケン",
    "prefecture_code": 24,
    "city": "伊賀市",
    "city_kana": "イガシ",
    "town": "白樫",
    "town_kana": "シラカシ",
    "street": null,
    "office_name": null,
    "office_name_kana": null
  },
  "1152": {
    "postcode": "5181152",
    "prefecture": "三重県",
    "prefecture_kana": "ミエケン",
    "prefecture_code": 24,
    "city": "伊賀市",
    "city_kana": "イガシ",
    "town": "予野",
    "town_kana": "ヨノ",
    "street": null,
    "office_name": null,
    "office_name_kana": null
  },
  "1153": {
    "postcode": "5181153",
    "prefecture": "三重県",
    "prefecture_kana": "ミエケン",
    "prefecture_code": 24,
    "city": "伊賀市",
    "city_kana": "イガシ",
    "town": "桂",
    "town_kana": "カツラ",
    "street": null,
    "office_name": null,
    "office_name_kana": null
  },
  "1154": {
    "postcode": "5181154",
    "prefecture": "三重県",
    "prefecture_kana": "ミエケン",
    "prefecture_code": 24,
    "city": "伊賀市",
    "city_kana": "イガシ",
    "town": "大滝",
    "town_kana": "オオタキ",
    "street": null,
    "office_name": null,
    "office_name_kana": null
  },
  "1155": {
    "postcode": "5181155",
    "prefecture": "三重県",
    "prefecture_kana": "ミエケン",
    "prefecture_code": 24,
    "city": "伊賀市",
    "city_kana": "イガシ",
    "town": "治田",
    "town_kana": "ハッタ",
    "street": null,
    "office_name": null,
    "office_name_kana": null
  },
  "1301": {
    "postcode": "5181301",
    "prefecture": "三重県",
    "prefecture_kana": "ミエケン",
    "prefecture_code": 24,
    "city": "伊賀市",
    "city_kana": "イガシ",
    "town": "西湯舟",
    "town_kana": "ニシユブネ",
    "street": null,
    "office_name": null,
    "office_name_kana": null
  },
  "1302": {
    "postcode": "5181302",
    "prefecture": "三重県",
    "prefecture_kana": "ミエケン",
    "prefecture_code": 24,
    "city": "伊賀市",
    "city_kana": "イガシ",
    "town": "東湯舟",
    "town_kana": "ヒガシユブネ",
    "street": null,
    "office_name": null,
    "office_name_kana": null
  },
  "1303": {
    "postcode": "5181303",
    "prefecture": "三重県",
    "prefecture_kana": "ミエケン",
    "prefecture_code": 24,
    "city": "伊賀市",
    "city_kana": "イガシ",
    "town": "上友田",
    "town_kana": "カミトモダ",
    "street": null,
    "office_name": null,
    "office_name_kana": null
  },
  "1304": {
    "postcode": "5181304",
    "prefecture": "三重県",
    "prefecture_kana": "ミエケン",
    "prefecture_code": 24,
    "city": "伊賀市",
    "city_kana": "イガシ",
    "town": "中友田",
    "town_kana": "ナカトモダ",
    "street": null,
    "office_name": null,
    "office_name_kana": null
  },
  "1305": {
    "postcode": "5181305",
    "prefecture": "三重県",
    "prefecture_kana": "ミエケン",
    "prefecture_code": 24,
    "city": "伊賀市",
    "city_kana": "イガシ",
    "town": "下友田",
    "town_kana": "シモトモダ",
    "street": null,
    "office_name": null,
    "office_name_kana": null
  },
  "1306": {
    "postcode": "5181306",
    "prefecture": "三重県",
    "prefecture_kana": "ミエケン",
    "prefecture_code": 24,
    "city": "伊賀市",
    "city_kana": "イガシ",
    "town": "湯舟",
    "town_kana": "ユブネ",
    "street": null,
    "office_name": null,
    "office_name_kana": null
  },
  "1307": [
    {
      "postcode": "5181307",
      "prefecture": "三重県",
      "prefecture_kana": "ミエケン",
      "prefecture_code": 24,
      "city": "伊賀市",
      "city_kana": "イガシ",
      "town": "川合",
      "town_kana": "カワイ",
      "street": null,
      "office_name": null,
      "office_name_kana": null
    },
    {
      "postcode": "5181307",
      "prefecture": "三重県",
      "prefecture_kana": "ミエケン",
      "prefecture_code": 24,
      "city": "伊賀市",
      "city_kana": "イガシ",
      "town": "川合東山タウン",
      "town_kana": "カワイヒガシヤマタウン",
      "street": null,
      "office_name": null,
      "office_name_kana": null
    }
  ],
  "1311": {
    "postcode": "5181311",
    "prefecture": "三重県",
    "prefecture_kana": "ミエケン",
    "prefecture_code": 24,
    "city": "伊賀市",
    "city_kana": "イガシ",
    "town": "馬田",
    "town_kana": "バタ",
    "street": null,
    "office_name": null,
    "office_name_kana": null
  },
  "1312": {
    "postcode": "5181312",
    "prefecture": "三重県",
    "prefecture_kana": "ミエケン",
    "prefecture_code": 24,
    "city": "伊賀市",
    "city_kana": "イガシ",
    "town": "田中",
    "town_kana": "タナカ",
    "street": null,
    "office_name": null,
    "office_name_kana": null
  },
  "1313": {
    "postcode": "5181313",
    "prefecture": "三重県",
    "prefecture_kana": "ミエケン",
    "prefecture_code": 24,
    "city": "伊賀市",
    "city_kana": "イガシ",
    "town": "馬場",
    "town_kana": "ババ",
    "street": null,
    "office_name": null,
    "office_name_kana": null
  },
  "1314": {
    "postcode": "5181314",
    "prefecture": "三重県",
    "prefecture_kana": "ミエケン",
    "prefecture_code": 24,
    "city": "伊賀市",
    "city_kana": "イガシ",
    "town": "円徳院",
    "town_kana": "エントクイン",
    "street": null,
    "office_name": null,
    "office_name_kana": null
  },
  "1315": {
    "postcode": "5181315",
    "prefecture": "三重県",
    "prefecture_kana": "ミエケン",
    "prefecture_code": 24,
    "city": "伊賀市",
    "city_kana": "イガシ",
    "town": "川合",
    "town_kana": "カワイ",
    "street": null,
    "office_name": null,
    "office_name_kana": null
  },
  "1316": {
    "postcode": "5181316",
    "prefecture": "三重県",
    "prefecture_kana": "ミエケン",
    "prefecture_code": 24,
    "city": "伊賀市",
    "city_kana": "イガシ",
    "town": "阿山ハイツ",
    "town_kana": "アヤマハイツ",
    "street": null,
    "office_name": null,
    "office_name_kana": null
  },
  "1317": {
    "postcode": "5181317",
    "prefecture": "三重県",
    "prefecture_kana": "ミエケン",
    "prefecture_code": 24,
    "city": "伊賀市",
    "city_kana": "イガシ",
    "town": "大江",
    "town_kana": "オオエ",
    "street": null,
    "office_name": null,
    "office_name_kana": null
  },
  "1318": {
    "postcode": "5181318",
    "prefecture": "三重県",
    "prefecture_kana": "ミエケン",
    "prefecture_code": 24,
    "city": "伊賀市",
    "city_kana": "イガシ",
    "town": "波敷野",
    "town_kana": "ハジキノ",
    "street": null,
    "office_name": null,
    "office_name_kana": null
  },
  "1319": {
    "postcode": "5181319",
    "prefecture": "三重県",
    "prefecture_kana": "ミエケン",
    "prefecture_code": 24,
    "city": "伊賀市",
    "city_kana": "イガシ",
    "town": "千貝",
    "town_kana": "セガイ",
    "street": null,
    "office_name": null,
    "office_name_kana": null
  },
  "1321": {
    "postcode": "5181321",
    "prefecture": "三重県",
    "prefecture_kana": "ミエケン",
    "prefecture_code": 24,
    "city": "伊賀市",
    "city_kana": "イガシ",
    "town": "内保",
    "town_kana": "ウチホ",
    "street": null,
    "office_name": null,
    "office_name_kana": null
  },
  "1322": {
    "postcode": "5181322",
    "prefecture": "三重県",
    "prefecture_kana": "ミエケン",
    "prefecture_code": 24,
    "city": "伊賀市",
    "city_kana": "イガシ",
    "town": "玉滝",
    "town_kana": "タマタキ",
    "street": null,
    "office_name": null,
    "office_name_kana": null
  },
  "1323": {
    "postcode": "5181323",
    "prefecture": "三重県",
    "prefecture_kana": "ミエケン",
    "prefecture_code": 24,
    "city": "伊賀市",
    "city_kana": "イガシ",
    "town": "石川",
    "town_kana": "イシカワ",
    "street": null,
    "office_name": null,
    "office_name_kana": null
  },
  "1324": {
    "postcode": "5181324",
    "prefecture": "三重県",
    "prefecture_kana": "ミエケン",
    "prefecture_code": 24,
    "city": "伊賀市",
    "city_kana": "イガシ",
    "town": "音羽",
    "town_kana": "オトワ",
    "street": null,
    "office_name": null,
    "office_name_kana": null
  },
  "1325": {
    "postcode": "5181325",
    "prefecture": "三重県",
    "prefecture_kana": "ミエケン",
    "prefecture_code": 24,
    "city": "伊賀市",
    "city_kana": "イガシ",
    "town": "丸柱",
    "town_kana": "マルバシラ",
    "street": null,
    "office_name": null,
    "office_name_kana": null
  },
  "1326": {
    "postcode": "5181326",
    "prefecture": "三重県",
    "prefecture_kana": "ミエケン",
    "prefecture_code": 24,
    "city": "伊賀市",
    "city_kana": "イガシ",
    "town": "槙山",
    "town_kana": "マキヤマ",
    "street": null,
    "office_name": null,
    "office_name_kana": null
  },
  "1401": {
    "postcode": "5181401",
    "prefecture": "三重県",
    "prefecture_kana": "ミエケン",
    "prefecture_code": 24,
    "city": "伊賀市",
    "city_kana": "イガシ",
    "town": "千戸",
    "town_kana": "センド",
    "street": null,
    "office_name": null,
    "office_name_kana": null
  },
  "1403": {
    "postcode": "5181403",
    "prefecture": "三重県",
    "prefecture_kana": "ミエケン",
    "prefecture_code": 24,
    "city": "伊賀市",
    "city_kana": "イガシ",
    "town": "炊村",
    "town_kana": "カシキムラ",
    "street": null,
    "office_name": null,
    "office_name_kana": null
  },
  "1404": {
    "postcode": "5181404",
    "prefecture": "三重県",
    "prefecture_kana": "ミエケン",
    "prefecture_code": 24,
    "city": "伊賀市",
    "city_kana": "イガシ",
    "town": "甲野",
    "town_kana": "コウノ",
    "street": null,
    "office_name": null,
    "office_name_kana": null
  },
  "1405": {
    "postcode": "5181405",
    "prefecture": "三重県",
    "prefecture_kana": "ミエケン",
    "prefecture_code": 24,
    "city": "伊賀市",
    "city_kana": "イガシ",
    "town": "鳳凰寺",
    "town_kana": "ボウジ",
    "street": null,
    "office_name": null,
    "office_name_kana": null
  },
  "1406": {
    "postcode": "5181406",
    "prefecture": "三重県",
    "prefecture_kana": "ミエケン",
    "prefecture_code": 24,
    "city": "伊賀市",
    "city_kana": "イガシ",
    "town": "中村",
    "town_kana": "ナカムラ",
    "street": null,
    "office_name": null,
    "office_name_kana": null
  },
  "1407": {
    "postcode": "5181407",
    "prefecture": "三重県",
    "prefecture_kana": "ミエケン",
    "prefecture_code": 24,
    "city": "伊賀市",
    "city_kana": "イガシ",
    "town": "出後",
    "town_kana": "イズゴ",
    "street": null,
    "office_name": null,
    "office_name_kana": null
  },
  "1408": {
    "postcode": "5181408",
    "prefecture": "三重県",
    "prefecture_kana": "ミエケン",
    "prefecture_code": 24,
    "city": "伊賀市",
    "city_kana": "イガシ",
    "town": "畑村",
    "town_kana": "ハタムラ",
    "street": null,
    "office_name": null,
    "office_name_kana": null
  },
  "1412": {
    "postcode": "5181412",
    "prefecture": "三重県",
    "prefecture_kana": "ミエケン",
    "prefecture_code": 24,
    "city": "伊賀市",
    "city_kana": "イガシ",
    "town": "上阿波",
    "town_kana": "カミアワ",
    "street": null,
    "office_name": null,
    "office_name_kana": null
  },
  "1414": {
    "postcode": "5181414",
    "prefecture": "三重県",
    "prefecture_kana": "ミエケン",
    "prefecture_code": 24,
    "city": "伊賀市",
    "city_kana": "イガシ",
    "town": "猿野",
    "town_kana": "マシノ",
    "street": null,
    "office_name": null,
    "office_name_kana": null
  },
  "1416": {
    "postcode": "5181416",
    "prefecture": "三重県",
    "prefecture_kana": "ミエケン",
    "prefecture_code": 24,
    "city": "伊賀市",
    "city_kana": "イガシ",
    "town": "下阿波",
    "town_kana": "シモアワ",
    "street": null,
    "office_name": null,
    "office_name_kana": null
  },
  "1417": {
    "postcode": "5181417",
    "prefecture": "三重県",
    "prefecture_kana": "ミエケン",
    "prefecture_code": 24,
    "city": "伊賀市",
    "city_kana": "イガシ",
    "town": "富永",
    "town_kana": "トミナガ",
    "street": null,
    "office_name": null,
    "office_name_kana": null
  },
  "1421": {
    "postcode": "5181421",
    "prefecture": "三重県",
    "prefecture_kana": "ミエケン",
    "prefecture_code": 24,
    "city": "伊賀市",
    "city_kana": "イガシ",
    "town": "真泥",
    "town_kana": "ミドロ",
    "street": null,
    "office_name": null,
    "office_name_kana": null
  },
  "1422": {
    "postcode": "5181422",
    "prefecture": "三重県",
    "prefecture_kana": "ミエケン",
    "prefecture_code": 24,
    "city": "伊賀市",
    "city_kana": "イガシ",
    "town": "平田",
    "town_kana": "ヒラタ",
    "street": null,
    "office_name": null,
    "office_name_kana": null
  },
  "1424": {
    "postcode": "5181424",
    "prefecture": "三重県",
    "prefecture_kana": "ミエケン",
    "prefecture_code": 24,
    "city": "伊賀市",
    "city_kana": "イガシ",
    "town": "富岡",
    "town_kana": "トミオカ",
    "street": null,
    "office_name": null,
    "office_name_kana": null
  },
  "1425": {
    "postcode": "5181425",
    "prefecture": "三重県",
    "prefecture_kana": "ミエケン",
    "prefecture_code": 24,
    "city": "伊賀市",
    "city_kana": "イガシ",
    "town": "川北",
    "town_kana": "カワキタ",
    "street": null,
    "office_name": null,
    "office_name_kana": null
  },
  "1426": {
    "postcode": "5181426",
    "prefecture": "三重県",
    "prefecture_kana": "ミエケン",
    "prefecture_code": 24,
    "city": "伊賀市",
    "city_kana": "イガシ",
    "town": "広瀬",
    "town_kana": "ヒロセ",
    "street": null,
    "office_name": null,
    "office_name_kana": null
  },
  "1427": {
    "postcode": "5181427",
    "prefecture": "三重県",
    "prefecture_kana": "ミエケン",
    "prefecture_code": 24,
    "city": "伊賀市",
    "city_kana": "イガシ",
    "town": "奥馬野",
    "town_kana": "オクバノ",
    "street": null,
    "office_name": null,
    "office_name_kana": null
  },
  "1428": {
    "postcode": "5181428",
    "prefecture": "三重県",
    "prefecture_kana": "ミエケン",
    "prefecture_code": 24,
    "city": "伊賀市",
    "city_kana": "イガシ",
    "town": "中馬野",
    "town_kana": "ナカバノ",
    "street": null,
    "office_name": null,
    "office_name_kana": null
  },
  "1429": {
    "postcode": "5181429",
    "prefecture": "三重県",
    "prefecture_kana": "ミエケン",
    "prefecture_code": 24,
    "city": "伊賀市",
    "city_kana": "イガシ",
    "town": "坂下",
    "town_kana": "サカゲ",
    "street": null,
    "office_name": null,
    "office_name_kana": null
  },
  "8501": {
    "postcode": "5188501",
    "prefecture": "三重県",
    "prefecture_kana": "ミエケン",
    "prefecture_code": 24,
    "city": "伊賀市",
    "city_kana": "イガシ",
    "town": "四十九町",
    "town_kana": "シジュクチョウ",
    "street": "３１８４番地",
    "office_name": "伊賀市役所",
    "office_name_kana": "イガシヤクシヨ"
  },
  "8518": {
    "postcode": "5188518",
    "prefecture": "三重県",
    "prefecture_kana": "ミエケン",
    "prefecture_code": 24,
    "city": "伊賀市",
    "city_kana": "イガシ",
    "town": "ゆめが丘",
    "town_kana": "ユメガオカ",
    "street": "７丁目７番地の６",
    "office_name": "パナソニックライティングシステムズ　株式会社",
    "office_name_kana": "パナソニツクライテイングシステムズ カブシキカイシヤ"
  },
  "8533": {
    "postcode": "5188533",
    "prefecture": "三重県",
    "prefecture_kana": "ミエケン",
    "prefecture_code": 24,
    "city": "伊賀市",
    "city_kana": "イガシ",
    "town": "四十九町",
    "town_kana": "シジュクチョウ",
    "street": "２８０２",
    "office_name": "三重県伊賀庁舎",
    "office_name_kana": "ミエケンイガチヨウシヤ"
  }
}