{
  "0100": {
    "postcode": "5190100",
    "prefecture": "三重県",
    "prefecture_kana": "ミエケン",
    "prefecture_code": 24,
    "city": "亀山市",
    "city_kana": "カメヤマシ",
    "town": "",
    "town_kana": "",
    "street": null,
    "office_name": null,
    "office_name_kana": null
  },
  "0101": {
    "postcode": "5190101",
    "prefecture": "三重県",
    "prefecture_kana": "ミエケン",
    "prefecture_code": 24,
    "city": "亀山市",
    "city_kana": "カメヤマシ",
    "town": "井田川町",
    "town_kana": "イダガワチョウ",
    "street": null,
    "office_name": null,
    "office_name_kana": null
  },
  "0102": {
    "postcode": "5190102",
    "prefecture": "三重県",
    "prefecture_kana": "ミエケン",
    "prefecture_code": 24,
    "city": "亀山市",
    "city_kana": "カメヤマシ",
    "town": "和田町",
    "town_kana": "ワダチョウ",
    "street": null,
    "office_name": null,
    "office_name_kana": null
  },
  "0103": {
    "postcode": "5190103",
    "prefecture": "三重県",
    "prefecture_kana": "ミエケン",
    "prefecture_code": 24,
    "city": "亀山市",
    "city_kana": "カメヤマシ",
    "town": "川合町",
    "town_kana": "カワイチョウ",
    "street": null,
    "office_name": null,
    "office_name_kana": null
  },
  "0104": {
    "postcode": "5190104",
    "prefecture": "三重県",
    "prefecture_kana": "ミエケン",
    "prefecture_code": 24,
    "city": "亀山市",
    "city_kana": "カメヤマシ",
    "town": "椿世町",
    "town_kana": "ツバイソチョウ",
    "street": null,
    "office_name": null,
    "office_name_kana": null
  },
  "0105": {
    "postcode": "5190105",
    "prefecture": "三重県",
    "prefecture_kana": "ミエケン",
    "prefecture_code": 24,
    "city": "亀山市",
    "city_kana": "カメヤマシ",
    "town": "みずほ台",
    "town_kana": "ミズホダイ",
    "street": null,
    "office_name": null,
    "office_name_kana": null
  },
  "0106": {
    "postcode": "5190106",
    "prefecture": "三重県",
    "prefecture_kana": "ミエケン",
    "prefecture_code": 24,
    "city": "亀山市",
    "city_kana": "カメヤマシ",
    "town": "みどり町",
    "town_kana": "ミドリチョウ",
    "street": null,
    "office_name": null,
    "office_name_kana": null
  },
  "0111": {
    "postcode": "5190111",
    "prefecture": "三重県",
    "prefecture_kana": "ミエケン",
    "prefecture_code": 24,
    "city": "亀山市",
    "city_kana": "カメヤマシ",
    "town": "栄町",
    "town_kana": "サカエマチ",
    "street": null,
    "office_name": null,
    "office_name_kana": null
  },
  "0112": {
    "postcode": "5190112",
    "prefecture": "三重県",
    "prefecture_kana": "ミエケン",
    "prefecture_code": 24,
    "city": "亀山市",
    "city_kana": "カメヤマシ",
    "town": "上野町",
    "town_kana": "ウエノチョウ",
    "street": null,
    "office_name": null,
    "office_name_kana": null
  },
  "0113": {
    "postcode": "5190113",
    "prefecture": "三重県",
    "prefecture_kana": "ミエケン",
    "prefecture_code": 24,
    "city": "亀山市",
    "city_kana": "カメヤマシ",
    "town": "小下町",
    "town_kana": "コミザチョウ",
    "street": null,
    "office_name": null,
    "office_name_kana": null
  },
  "0114": {
    "postcode": "5190114",
    "prefecture": "三重県",
    "prefecture_kana": "ミエケン",
    "prefecture_code": 24,
    "city": "亀山市",
    "city_kana": "カメヤマシ",
    "town": "南鹿島町",
    "town_kana": "ミナミカシマチョウ",
    "street": null,
    "office_name": null,
    "office_name_kana": null
  },
  "0115": {
    "postcode": "5190115",
    "prefecture": "三重県",
    "prefecture_kana": "ミエケン",
    "prefecture_code": 24,
    "city": "亀山市",
    "city_kana": "カメヤマシ",
    "town": "北鹿島町",
    "town_kana": "キタカシマチョウ",
    "street": null,
    "office_name": null,
    "office_name_kana": null
  },
  "0116": {
    "postcode": "5190116",
    "prefecture": "三重県",
    "prefecture_kana": "ミエケン",
    "prefecture_code": 24,
    "city": "亀山市",
    "city_kana": "カメヤマシ",
    "town": "本町",
    "town_kana": "ホンマチ",
    "street": null,
    "office_name": null,
    "office_name_kana": null
  },
  "0117": {
    "postcode": "5190117",
    "prefecture": "三重県",
    "prefecture_kana": "ミエケン",
    "prefecture_code": 24,
    "city": "亀山市",
    "city_kana": "カメヤマシ",
    "town": "北山町",
    "town_kana": "キタヤマチョウ",
    "street": null,
    "office_name": null,
    "office_name_kana": null
  },
  "0118": {
    "postcode": "5190118",
    "prefecture": "三重県",
    "prefecture_kana": "ミエケン",
    "prefecture_code": 24,
    "city": "亀山市",
    "city_kana": "カメヤマシ",
    "town": "北町",
    "town_kana": "キタマチ",
    "street": null,
    "office_name": null,
    "office_name_kana": null
  },
  "0119": {
    "postcode": "5190119",
    "prefecture": "三重県",
    "prefecture_kana": "ミエケン",
    "prefecture_code": 24,
    "city": "亀山市",
    "city_kana": "カメヤマシ",
    "town": "高塚町",
    "town_kana": "タカツカチョウ",
    "street": null,
    "office_name": null,
    "office_name_kana": null
  },
  "0121": {
    "postcode": "5190121",
    "prefecture": "三重県",
    "prefecture_kana": "ミエケン",
    "prefecture_code": 24,
    "city": "亀山市",
    "city_kana": "カメヤマシ",
    "town": "江ケ室",
    "town_kana": "エガムロ",
    "street": null,
    "office_name": null,
    "office_name_kana": null
  },
  "0122": {
    "postcode": "5190122",
    "prefecture": "三重県",
    "prefecture_kana": "ミエケン",
    "prefecture_code": 24,
    "city": "亀山市",
    "city_kana": "カメヤマシ",
    "town": "東台町",
    "town_kana": "ヒガシダイチョウ",
    "street": null,
    "office_name": null,
    "office_name_kana": null
  },
  "0123": {
    "postcode": "5190123",
    "prefecture": "三重県",
    "prefecture_kana": "ミエケン",
    "prefecture_code": 24,
    "city": "亀山市",
    "city_kana": "カメヤマシ",
    "town": "渋倉町",
    "town_kana": "シブクラチョウ",
    "street": null,
    "office_name": null,
    "office_name_kana": null
  },
  "0124": {
    "postcode": "5190124",
    "prefecture": "三重県",
    "prefecture_kana": "ミエケン",
    "prefecture_code": 24,
    "city": "亀山市",
    "city_kana": "カメヤマシ",
    "town": "東御幸町",
    "town_kana": "ヒガシミユキチョウ",
    "street": null,
    "office_name": null,
    "office_name_kana": null
  },
  "0125": {
    "postcode": "5190125",
    "prefecture": "三重県",
    "prefecture_kana": "ミエケン",
    "prefecture_code": 24,
    "city": "亀山市",
    "city_kana": "カメヤマシ",
    "town": "東町",
    "town_kana": "ヒガシマチ",
    "street": null,
    "office_name": null,
    "office_name_kana": null
  },
  "0126": {
    "postcode": "5190126",
    "prefecture": "三重県",
    "prefecture_kana": "ミエケン",
    "prefecture_code": 24,
    "city": "亀山市",
    "city_kana": "カメヤマシ",
    "town": "東丸町",
    "town_kana": "ヒガシマルチョウ",
    "street": null,
    "office_name": null,
    "office_name_kana": null
  },
  "0127": {
    "postcode": "5190127",
    "prefecture": "三重県",
    "prefecture_kana": "ミエケン",
    "prefecture_code": 24,
    "city": "亀山市",
    "city_kana": "カメヤマシ",
    "town": "中屋敷町",
    "town_kana": "ナカヤシキチョウ",
    "street": null,
    "office_name": null,
    "office_name_kana": null
  },
  "0131": {
    "postcode": "5190131",
    "prefecture": "三重県",
    "prefecture_kana": "ミエケン",
    "prefecture_code": 24,
    "city": "亀山市",
    "city_kana": "カメヤマシ",
    "town": "井尻町",
    "town_kana": "イジリチョウ",
    "street": null,
    "office_name": null,
    "office_name_kana": null
  },
  "0132": {
    "postcode": "5190132",
    "prefecture": "三重県",
    "prefecture_kana": "ミエケン",
    "prefecture_code": 24,
    "city": "亀山市",
    "city_kana": "カメヤマシ",
    "town": "菅内町",
    "town_kana": "スガウチチョウ",
    "street": null,
    "office_name": null,
    "office_name_kana": null
  },
  "0133": {
    "postcode": "5190133",
    "prefecture": "三重県",
    "prefecture_kana": "ミエケン",
    "prefecture_code": 24,
    "city": "亀山市",
    "city_kana": "カメヤマシ",
    "town": "下庄町",
    "town_kana": "シモノショウチョウ",
    "street": null,
    "office_name": null,
    "office_name_kana": null
  },
  "0134": {
    "postcode": "5190134",
    "prefecture": "三重県",
    "prefecture_kana": "ミエケン",
    "prefecture_code": 24,
    "city": "亀山市",
    "city_kana": "カメヤマシ",
    "town": "中庄町",
    "town_kana": "ナカノショウチョウ",
    "street": null,
    "office_name": null,
    "office_name_kana": null
  },
  "0135": {
    "postcode": "5190135",
    "prefecture": "三重県",
    "prefecture_kana": "ミエケン",
    "prefecture_code": 24,
    "city": "亀山市",
    "city_kana": "カメヤマシ",
    "town": "三寺町",
    "town_kana": "ミツデラチョウ",
    "street": null,
    "office_name": null,
    "office_name_kana": null
  },
  "0136": {
    "postcode": "5190136",
    "prefecture": "三重県",
    "prefecture_kana": "ミエケン",
    "prefecture_code": 24,
    "city": "亀山市",
    "city_kana": "カメヤマシ",
    "town": "田茂町",
    "town_kana": "タモチョウ",
    "street": null,
    "office_name": null,
    "office_name_kana": null
  },
  "0137": {
    "postcode": "5190137",
    "prefecture": "三重県",
    "prefecture_kana": "ミエケン",
    "prefecture_code": 24,
    "city": "亀山市",
    "city_kana": "カメヤマシ",
    "town": "阿野田町",
    "town_kana": "アノダチョウ",
    "street": null,
    "office_name": null,
    "office_name_kana": null
  },
  "0141": {
    "postcode": "5190141",
    "prefecture": "三重県",
    "prefecture_kana": "ミエケン",
    "prefecture_code": 24,
    "city": "亀山市",
    "city_kana": "カメヤマシ",
    "town": "海本町",
    "town_kana": "カイモトチョウ",
    "street": null,
    "office_name": null,
    "office_name_kana": null
  },
  "0142": {
    "postcode": "5190142",
    "prefecture": "三重県",
    "prefecture_kana": "ミエケン",
    "prefecture_code": 24,
    "city": "亀山市",
    "city_kana": "カメヤマシ",
    "town": "天神",
    "town_kana": "テンジン",
    "street": null,
    "office_name": null,
    "office_name_kana": null
  },
  "0143": {
    "postcode": "5190143",
    "prefecture": "三重県",
    "prefecture_kana": "ミエケン",
    "prefecture_code": 24,
    "city": "亀山市",
    "city_kana": "カメヤマシ",
    "town": "安知本町",
    "town_kana": "アチモトチョウ",
    "street": null,
    "office_name": null,
    "office_name_kana": null
  },
  "0144": {
    "postcode": "5190144",
    "prefecture": "三重県",
    "prefecture_kana": "ミエケン",
    "prefecture_code": 24,
    "city": "亀山市",
    "city_kana": "カメヤマシ",
    "town": "楠平尾町",
    "town_kana": "クスビラオチョウ",
    "street": null,
    "office_name": null,
    "office_name_kana": null
  },
  "0145": {
    "postcode": "5190145",
    "prefecture": "三重県",
    "prefecture_kana": "ミエケン",
    "prefecture_code": 24,
    "city": "亀山市",
    "city_kana": "カメヤマシ",
    "town": "和賀町",
    "town_kana": "ワガチョウ",
    "street": null,
    "office_name": null,
    "office_name_kana": null
  },
  "0146": {
    "postcode": "5190146",
    "prefecture": "三重県",
    "prefecture_kana": "ミエケン",
    "prefecture_code": 24,
    "city": "亀山市",
    "city_kana": "カメヤマシ",
    "town": "野村町",
    "town_kana": "ノムラチョウ",
    "street": null,
    "office_name": null,
    "office_name_kana": null
  },
  "0147": {
    "postcode": "5190147",
    "prefecture": "三重県",
    "prefecture_kana": "ミエケン",
    "prefecture_code": 24,
    "city": "亀山市",
    "city_kana": "カメヤマシ",
    "town": "山下町",
    "town_kana": "ヤマシタチョウ",
    "street": null,
    "office_name": null,
    "office_name_kana": null
  },
  "0148": {
    "postcode": "5190148",
    "prefecture": "三重県",
    "prefecture_kana": "ミエケン",
    "prefecture_code": 24,
    "city": "亀山市",
    "city_kana": "カメヤマシ",
    "town": "木下町",
    "town_kana": "コノシタチョウ",
    "street": null,
    "office_name": null,
    "office_name_kana": null
  },
  "0151": {
    "postcode": "5190151",
    "prefecture": "三重県",
    "prefecture_kana": "ミエケン",
    "prefecture_code": 24,
    "city": "亀山市",
    "city_kana": "カメヤマシ",
    "town": "若山町",
    "town_kana": "ワカヤマチョウ",
    "street": null,
    "office_name": null,
    "office_name_kana": null
  },
  "0152": {
    "postcode": "5190152",
    "prefecture": "三重県",
    "prefecture_kana": "ミエケン",
    "prefecture_code": 24,
    "city": "亀山市",
    "city_kana": "カメヤマシ",
    "town": "本丸町",
    "town_kana": "ホンマルチョウ",
    "street": null,
    "office_name": null,
    "office_name_kana": null
  },
  "0153": {
    "postcode": "5190153",
    "prefecture": "三重県",
    "prefecture_kana": "ミエケン",
    "prefecture_code": 24,
    "city": "亀山市",
    "city_kana": "カメヤマシ",
    "town": "西町",
    "town_kana": "ニシマチ",
    "street": null,
    "office_name": null,
    "office_name_kana": null
  },
  "0154": {
    "postcode": "5190154",
    "prefecture": "三重県",
    "prefecture_kana": "ミエケン",
    "prefecture_code": 24,
    "city": "亀山市",
    "city_kana": "カメヤマシ",
    "town": "南崎町",
    "town_kana": "ミナミザキチョウ",
    "street": null,
    "office_name": null,
    "office_name_kana": null
  },
  "0155": {
    "postcode": "5190155",
    "prefecture": "三重県",
    "prefecture_kana": "ミエケン",
    "prefecture_code": 24,
    "city": "亀山市",
    "city_kana": "カメヤマシ",
    "town": "御幸町",
    "town_kana": "ミユキチョウ",
    "street": null,
    "office_name": null,
    "office_name_kana": null
  },
  "0156": {
    "postcode": "5190156",
    "prefecture": "三重県",
    "prefecture_kana": "ミエケン",
    "prefecture_code": 24,
    "city": "亀山市",
    "city_kana": "カメヤマシ",
    "town": "南野町",
    "town_kana": "ミナミノチョウ",
    "street": null,
    "office_name": null,
    "office_name_kana": null
  },
  "0157": {
    "postcode": "5190157",
    "prefecture": "三重県",
    "prefecture_kana": "ミエケン",
    "prefecture_code": 24,
    "city": "亀山市",
    "city_kana": "カメヤマシ",
    "town": "北野町",
    "town_kana": "キタノチョウ",
    "street": null,
    "office_name": null,
    "office_name_kana": null
  },
  "0158": {
    "postcode": "5190158",
    "prefecture": "三重県",
    "prefecture_kana": "ミエケン",
    "prefecture_code": 24,
    "city": "亀山市",
    "city_kana": "カメヤマシ",
    "town": "市ケ坂町",
    "town_kana": "イチガサカチョウ",
    "street": null,
    "office_name": null,
    "office_name_kana": null
  },
  "0159": {
    "postcode": "5190159",
    "prefecture": "三重県",
    "prefecture_kana": "ミエケン",
    "prefecture_code": 24,
    "city": "亀山市",
    "city_kana": "カメヤマシ",
    "town": "西丸町",
    "town_kana": "ニシマルチョウ",
    "street": null,
    "office_name": null,
    "office_name_kana": null
  },
  "0161": {
    "postcode": "5190161",
    "prefecture": "三重県",
    "prefecture_kana": "ミエケン",
    "prefecture_code": 24,
    "city": "亀山市",
    "city_kana": "カメヤマシ",
    "town": "小川町",
    "town_kana": "オガワチョウ",
    "street": null,
    "office_name": null,
    "office_name_kana": null
  },
  "0162": {
    "postcode": "5190162",
    "prefecture": "三重県",
    "prefecture_kana": "ミエケン",
    "prefecture_code": 24,
    "city": "亀山市",
    "city_kana": "カメヤマシ",
    "town": "住山町",
    "town_kana": "スミヤマチョウ",
    "street": null,
    "office_name": null,
    "office_name_kana": null
  },
  "0163": {
    "postcode": "5190163",
    "prefecture": "三重県",
    "prefecture_kana": "ミエケン",
    "prefecture_code": 24,
    "city": "亀山市",
    "city_kana": "カメヤマシ",
    "town": "亀田町",
    "town_kana": "カメダチョウ",
    "street": null,
    "office_name": null,
    "office_name_kana": null
  },
  "0164": {
    "postcode": "5190164",
    "prefecture": "三重県",
    "prefecture_kana": "ミエケン",
    "prefecture_code": 24,
    "city": "亀山市",
    "city_kana": "カメヤマシ",
    "town": "羽若町",
    "town_kana": "ハワカチョウ",
    "street": null,
    "office_name": null,
    "office_name_kana": null
  },
  "0165": {
    "postcode": "5190165",
    "prefecture": "三重県",
    "prefecture_kana": "ミエケン",
    "prefecture_code": 24,
    "city": "亀山市",
    "city_kana": "カメヤマシ",
    "town": "野村",
    "town_kana": "ノムラ",
    "street": null,
    "office_name": null,
    "office_name_kana": null
  },
  "0166": {
    "postcode": "5190166",
    "prefecture": "三重県",
    "prefecture_kana": "ミエケン",
    "prefecture_code": 24,
    "city": "亀山市",
    "city_kana": "カメヤマシ",
    "town": "布気町",
    "town_kana": "フケチョウ",
    "street": null,
    "office_name": null,
    "office_name_kana": null
  },
  "0167": {
    "postcode": "5190167",
    "prefecture": "三重県",
    "prefecture_kana": "ミエケン",
    "prefecture_code": 24,
    "city": "亀山市",
    "city_kana": "カメヤマシ",
    "town": "小野町",
    "town_kana": "オノチョウ",
    "street": null,
    "office_name": null,
    "office_name_kana": null
  },
  "0168": {
    "postcode": "5190168",
    "prefecture": "三重県",
    "prefecture_kana": "ミエケン",
    "prefecture_code": 24,
    "city": "亀山市",
    "city_kana": "カメヤマシ",
    "town": "太岡寺町",
    "town_kana": "タイコウジチョウ",
    "street": null,
    "office_name": null,
    "office_name_kana": null
  },
  "0169": {
    "postcode": "5190169",
    "prefecture": "三重県",
    "prefecture_kana": "ミエケン",
    "prefecture_code": 24,
    "city": "亀山市",
    "city_kana": "カメヤマシ",
    "town": "白木町",
    "town_kana": "シラキチョウ",
    "street": null,
    "office_name": null,
    "office_name_kana": null
  },
  "0171": {
    "postcode": "5190171",
    "prefecture": "三重県",
    "prefecture_kana": "ミエケン",
    "prefecture_code": 24,
    "city": "亀山市",
    "city_kana": "カメヤマシ",
    "town": "アイリス町",
    "town_kana": "アイリスチョウ",
    "street": null,
    "office_name": null,
    "office_name_kana": null
  },
  "0181": {
    "postcode": "5190181",
    "prefecture": "三重県",
    "prefecture_kana": "ミエケン",
    "prefecture_code": 24,
    "city": "亀山市",
    "city_kana": "カメヤマシ",
    "town": "みずきが丘",
    "town_kana": "ミズキガオカ",
    "street": null,
    "office_name": null,
    "office_name_kana": null
  },
  "0193": {
    "postcode": "5190193",
    "prefecture": "三重県",
    "prefecture_kana": "ミエケン",
    "prefecture_code": 24,
    "city": "亀山市",
    "city_kana": "カメヤマシ",
    "town": "布気町",
    "town_kana": "フケチョウ",
    "street": "９１９",
    "office_name": "日東電工　株式会社　亀山事業所",
    "office_name_kana": "ニツトウデンコウ カブシキガイシヤ カメヤマジギヨウシヨ"
  },
  "0194": {
    "postcode": "5190194",
    "prefecture": "三重県",
    "prefecture_kana": "ミエケン",
    "prefecture_code": 24,
    "city": "亀山市",
    "city_kana": "カメヤマシ",
    "town": "白木町",
    "town_kana": "シラキチョウ",
    "street": "字押之尾６０番３７",
    "office_name": "株式会社　スズカ未来　ＴＳＵＮＡＧＵセンター",
    "office_name_kana": "カブシキガイシヤ スズカミライ ツナグセンタ-"
  },
  "0195": {
    "postcode": "5190195",
    "prefecture": "三重県",
    "prefecture_kana": "ミエケン",
    "prefecture_code": 24,
    "city": "亀山市",
    "city_kana": "カメヤマシ",
    "town": "本丸町",
    "town_kana": "ホンマルチョウ",
    "street": "５７７",
    "office_name": "亀山市役所",
    "office_name_kana": "カメヤマシヤクシヨ"
  },
  "0196": {
    "postcode": "5190196",
    "prefecture": "三重県",
    "prefecture_kana": "ミエケン",
    "prefecture_code": 24,
    "city": "亀山市",
    "city_kana": "カメヤマシ",
    "town": "栄町",
    "town_kana": "サカエマチ",
    "street": "１５０４−１",
    "office_name": "カメヤマ　株式会社",
    "office_name_kana": "カメヤマ カブシキガイシヤ"
  },
  "0197": {
    "postcode": "5190197",
    "prefecture": "三重県",
    "prefecture_kana": "ミエケン",
    "prefecture_code": 24,
    "city": "亀山市",
    "city_kana": "カメヤマシ",
    "town": "下庄町",
    "town_kana": "シモノショウチョウ",
    "street": "１７０１",
    "office_name": "株式会社　エイチワン　亀山製作所",
    "office_name_kana": "カブシキガイシヤ エイチワン カメヤマセイサクシヨ"
  },
  "0198": {
    "postcode": "5190198",
    "prefecture": "三重県",
    "prefecture_kana": "ミエケン",
    "prefecture_code": 24,
    "city": "亀山市",
    "city_kana": "カメヤマシ",
    "town": "白木町",
    "town_kana": "シラキチョウ",
    "street": "幸川４６４番",
    "office_name": "シャープ　株式会社　亀山工場",
    "office_name_kana": "シヤ-プ カブシキガイシヤ カメヤマコウジヨウ"
  },
  "0211": {
    "postcode": "5190211",
    "prefecture": "三重県",
    "prefecture_kana": "ミエケン",
    "prefecture_code": 24,
    "city": "亀山市",
    "city_kana": "カメヤマシ",
    "town": "川崎町",
    "town_kana": "カワサキチョウ",
    "street": null,
    "office_name": null,
    "office_name_kana": null
  },
  "0212": {
    "postcode": "5190212",
    "prefecture": "三重県",
    "prefecture_kana": "ミエケン",
    "prefecture_code": 24,
    "city": "亀山市",
    "city_kana": "カメヤマシ",
    "town": "能褒野町",
    "town_kana": "ノボノチョウ",
    "street": null,
    "office_name": null,
    "office_name_kana": null
  },
  "0213": {
    "postcode": "5190213",
    "prefecture": "三重県",
    "prefecture_kana": "ミエケン",
    "prefecture_code": 24,
    "city": "亀山市",
    "city_kana": "カメヤマシ",
    "town": "田村町",
    "town_kana": "タムラチョウ",
    "street": null,
    "office_name": null,
    "office_name_kana": null
  },
  "0214": {
    "postcode": "5190214",
    "prefecture": "三重県",
    "prefecture_kana": "ミエケン",
    "prefecture_code": 24,
    "city": "亀山市",
    "city_kana": "カメヤマシ",
    "town": "長明寺町",
    "town_kana": "チョウミョウジチョウ",
    "street": null,
    "office_name": null,
    "office_name_kana": null
  },
  "0215": {
    "postcode": "5190215",
    "prefecture": "三重県",
    "prefecture_kana": "ミエケン",
    "prefecture_code": 24,
    "city": "亀山市",
    "city_kana": "カメヤマシ",
    "town": "太森町",
    "town_kana": "フトモリチョウ",
    "street": null,
    "office_name": null,
    "office_name_kana": null
  },
  "0221": {
    "postcode": "5190221",
    "prefecture": "三重県",
    "prefecture_kana": "ミエケン",
    "prefecture_code": 24,
    "city": "亀山市",
    "city_kana": "カメヤマシ",
    "town": "辺法寺町",
    "town_kana": "ヘンボウジチョウ",
    "street": null,
    "office_name": null,
    "office_name_kana": null
  },
  "0222": {
    "postcode": "5190222",
    "prefecture": "三重県",
    "prefecture_kana": "ミエケン",
    "prefecture_code": 24,
    "city": "亀山市",
    "city_kana": "カメヤマシ",
    "town": "両尾町",
    "town_kana": "フタオチョウ",
    "street": null,
    "office_name": null,
    "office_name_kana": null
  },
  "0223": {
    "postcode": "5190223",
    "prefecture": "三重県",
    "prefecture_kana": "ミエケン",
    "prefecture_code": 24,
    "city": "亀山市",
    "city_kana": "カメヤマシ",
    "town": "安坂山町",
    "town_kana": "アサカヤマチョウ",
    "street": null,
    "office_name": null,
    "office_name_kana": null
  },
  "0271": {
    "postcode": "5190271",
    "prefecture": "三重県",
    "prefecture_kana": "ミエケン",
    "prefecture_code": 24,
    "city": "鈴鹿市",
    "city_kana": "スズカシ",
    "town": "西庄内町",
    "town_kana": "ニシショウナイチョウ",
    "street": null,
    "office_name": null,
    "office_name_kana": null
  },
  "0272": {
    "postcode": "5190272",
    "prefecture": "三重県",
    "prefecture_kana": "ミエケン",
    "prefecture_code": 24,
    "city": "鈴鹿市",
    "city_kana": "スズカシ",
    "town": "東庄内町",
    "town_kana": "ヒガシショウナイチョウ",
    "street": null,
    "office_name": null,
    "office_name_kana": null
  },
  "0292": {
    "postcode": "5190292",
    "prefecture": "三重県",
    "prefecture_kana": "ミエケン",
    "prefecture_code": 24,
    "city": "亀山市",
    "city_kana": "カメヤマシ",
    "town": "能褒野町",
    "town_kana": "ノボノチョウ",
    "street": "２０−１６",
    "office_name": "古河電気工業　株式会社　三重事務所",
    "office_name_kana": "フルカワデンキコウギヨウ カブシキガイシヤ ミエジムシヨ"
  },
  "0311": {
    "postcode": "5190311",
    "prefecture": "三重県",
    "prefecture_kana": "ミエケン",
    "prefecture_code": 24,
    "city": "鈴鹿市",
    "city_kana": "スズカシ",
    "town": "大久保町",
    "town_kana": "オオクボチョウ",
    "street": null,
    "office_name": null,
    "office_name_kana": null
  },
  "0312": {
    "postcode": "5190312",
    "prefecture": "三重県",
    "prefecture_kana": "ミエケン",
    "prefecture_code": 24,
    "city": "鈴鹿市",
    "city_kana": "スズカシ",
    "town": "椿一宮町",
    "town_kana": "ツバキイチミヤチョウ",
    "street": null,
    "office_name": null,
    "office_name_kana": null
  },
  "0313": {
    "postcode": "5190313",
    "prefecture": "三重県",
    "prefecture_kana": "ミエケン",
    "prefecture_code": 24,
    "city": "鈴鹿市",
    "city_kana": "スズカシ",
    "town": "追分町",
    "town_kana": "オイワケチョウ",
    "street": null,
    "office_name": null,
    "office_name_kana": null
  },
  "0314": {
    "postcode": "5190314",
    "prefecture": "三重県",
    "prefecture_kana": "ミエケン",
    "prefecture_code": 24,
    "city": "鈴鹿市",
    "city_kana": "スズカシ",
    "town": "長澤町",
    "town_kana": "ナガサワチョウ",
    "street": null,
    "office_name": null,
    "office_name_kana": null
  },
  "0315": {
    "postcode": "5190315",
    "prefecture": "三重県",
    "prefecture_kana": "ミエケン",
    "prefecture_code": 24,
    "city": "鈴鹿市",
    "city_kana": "スズカシ",
    "town": "山本町",
    "town_kana": "ヤマモトチョウ",
    "street": null,
    "office_name": null,
    "office_name_kana": null
  },
  "0316": {
    "postcode": "5190316",
    "prefecture": "三重県",
    "prefecture_kana": "ミエケン",
    "prefecture_code": 24,
    "city": "鈴鹿市",
    "city_kana": "スズカシ",
    "town": "小岐須町",
    "town_kana": "オギスチョウ",
    "street": null,
    "office_name": null,
    "office_name_kana": null
  },
  "0321": {
    "postcode": "5190321",
    "prefecture": "三重県",
    "prefecture_kana": "ミエケン",
    "prefecture_code": 24,
    "city": "鈴鹿市",
    "city_kana": "スズカシ",
    "town": "深溝町",
    "town_kana": "フカミゾチョウ",
    "street": null,
    "office_name": null,
    "office_name_kana": null
  },
  "0322": {
    "postcode": "5190322",
    "prefecture": "三重県",
    "prefecture_kana": "ミエケン",
    "prefecture_code": 24,
    "city": "鈴鹿市",
    "city_kana": "スズカシ",
    "town": "三畑町",
    "town_kana": "ミハタチョウ",
    "street": null,
    "office_name": null,
    "office_name_kana": null
  },
  "0323": {
    "postcode": "5190323",
    "prefecture": "三重県",
    "prefecture_kana": "ミエケン",
    "prefecture_code": 24,
    "city": "鈴鹿市",
    "city_kana": "スズカシ",
    "town": "伊船町",
    "town_kana": "イフナチョウ",
    "street": null,
    "office_name": null,
    "office_name_kana": null
  },
  "0324": {
    "postcode": "5190324",
    "prefecture": "三重県",
    "prefecture_kana": "ミエケン",
    "prefecture_code": 24,
    "city": "鈴鹿市",
    "city_kana": "スズカシ",
    "town": "小社町",
    "town_kana": "コヤシロチョウ",
    "street": null,
    "office_name": null,
    "office_name_kana": null
  },
  "0393": {
    "postcode": "5190393",
    "prefecture": "三重県",
    "prefecture_kana": "ミエケン",
    "prefecture_code": 24,
    "city": "鈴鹿市",
    "city_kana": "スズカシ",
    "town": "伊船町",
    "town_kana": "イフナチョウ",
    "street": "１９００",
    "office_name": "鈴鹿富士ゼロックス　株式会社",
    "office_name_kana": "スズカフジゼロツクス カブシキガイシヤ"
  },
  "0400": {
    "postcode": "5190400",
    "prefecture": "三重県",
    "prefecture_kana": "ミエケン",
    "prefecture_code": 24,
    "city": "度会郡玉城町",
    "city_kana": "ワタライグンタマキチョウ",
    "town": "",
    "town_kana": "",
    "street": null,
    "office_name": null,
    "office_name_kana": null
  },
  "0401": {
    "postcode": "5190401",
    "prefecture": "三重県",
    "prefecture_kana": "ミエケン",
    "prefecture_code": 24,
    "city": "度会郡玉城町",
    "city_kana": "ワタライグンタマキチョウ",
    "town": "世古",
    "town_kana": "セコ",
    "street": null,
    "office_name": null,
    "office_name_kana": null
  },
  "0402": {
    "postcode": "5190402",
    "prefecture": "三重県",
    "prefecture_kana": "ミエケン",
    "prefecture_code": 24,
    "city": "度会郡玉城町",
    "city_kana": "ワタライグンタマキチョウ",
    "town": "門前",
    "town_kana": "モンゼン",
    "street": null,
    "office_name": null,
    "office_name_kana": null
  },
  "0403": {
    "postcode": "5190403",
    "prefecture": "三重県",
    "prefecture_kana": "ミエケン",
    "prefecture_code": 24,
    "city": "度会郡玉城町",
    "city_kana": "ワタライグンタマキチョウ",
    "town": "井倉",
    "town_kana": "イグラ",
    "street": null,
    "office_name": null,
    "office_name_kana": null
  },
  "0404": {
    "postcode": "5190404",
    "prefecture": "三重県",
    "prefecture_kana": "ミエケン",
    "prefecture_code": 24,
    "city": "度会郡玉城町",
    "city_kana": "ワタライグンタマキチョウ",
    "town": "長更",
    "town_kana": "ナガフケ",
    "street": null,
    "office_name": null,
    "office_name_kana": null
  },
  "0405": {
    "postcode": "5190405",
    "prefecture": "三重県",
    "prefecture_kana": "ミエケン",
    "prefecture_code": 24,
    "city": "度会郡玉城町",
    "city_kana": "ワタライグンタマキチョウ",
    "town": "日向",
    "town_kana": "ヒュウガ",
    "street": null,
    "office_name": null,
    "office_name_kana": null
  },
  "0406": {
    "postcode": "5190406",
    "prefecture": "三重県",
    "prefecture_kana": "ミエケン",
    "prefecture_code": 24,
    "city": "度会郡玉城町",
    "city_kana": "ワタライグンタマキチョウ",
    "town": "岡村",
    "town_kana": "オカムラ",
    "street": null,
    "office_name": null,
    "office_name_kana": null
  },
  "0407": {
    "postcode": "5190407",
    "prefecture": "三重県",
    "prefecture_kana": "ミエケン",
    "prefecture_code": 24,
    "city": "度会郡玉城町",
    "city_kana": "ワタライグンタマキチョウ",
    "town": "玉川",
    "town_kana": "タマガワ",
    "street": null,
    "office_name": null,
    "office_name_kana": null
  },
  "0408": {
    "postcode": "5190408",
    "prefecture": "三重県",
    "prefecture_kana": "ミエケン",
    "prefecture_code": 24,
    "city": "度会郡玉城町",
    "city_kana": "ワタライグンタマキチョウ",
    "town": "坂本",
    "town_kana": "サカモト",
    "street": null,
    "office_name": null,
    "office_name_kana": null
  },
  "0411": {
    "postcode": "5190411",
    "prefecture": "三重県",
    "prefecture_kana": "ミエケン",
    "prefecture_code": 24,
    "city": "度会郡玉城町",
    "city_kana": "ワタライグンタマキチョウ",
    "town": "久保",
    "town_kana": "クボ",
    "street": null,
    "office_name": null,
    "office_name_kana": null
  },
  "0412": {
    "postcode": "5190412",
    "prefecture": "三重県",
    "prefecture_kana": "ミエケン",
    "prefecture_code": 24,
    "city": "度会郡玉城町",
    "city_kana": "ワタライグンタマキチョウ",
    "town": "中楽",
    "town_kana": "チュウラク",
    "street": null,
    "office_name": null,
    "office_name_kana": null
  },
  "0413": {
    "postcode": "5190413",
    "prefecture": "三重県",
    "prefecture_kana": "ミエケン",
    "prefecture_code": 24,
    "city": "度会郡玉城町",
    "city_kana": "ワタライグンタマキチョウ",
    "town": "妙法寺",
    "town_kana": "ミョウホウジ",
    "street": null,
    "office_name": null,
    "office_name_kana": null
  },
  "0414": {
    "postcode": "5190414",
    "prefecture": "三重県",
    "prefecture_kana": "ミエケン",
    "prefecture_code": 24,
    "city": "度会郡玉城町",
    "city_kana": "ワタライグンタマキチョウ",
    "town": "佐田",
    "town_kana": "サタ",
    "street": null,
    "office_name": null,
    "office_name_kana": null
  },
  "0415": {
    "postcode": "5190415",
    "prefecture": "三重県",
    "prefecture_kana": "ミエケン",
    "prefecture_code": 24,
    "city": "度会郡玉城町",
    "city_kana": "ワタライグンタマキチョウ",
    "town": "田丸",
    "town_kana": "タマル",
    "street": null,
    "office_name": null,
    "office_name_kana": null
  },
  "0416": {
    "postcode": "5190416",
    "prefecture": "三重県",
    "prefecture_kana": "ミエケン",
    "prefecture_code": 24,
    "city": "度会郡玉城町",
    "city_kana": "ワタライグンタマキチョウ",
    "town": "下田辺",
    "town_kana": "シモタヌイ",
    "street": null,
    "office_name": null,
    "office_name_kana": null
  },
  "0417": {
    "postcode": "5190417",
    "prefecture": "三重県",
    "prefecture_kana": "ミエケン",
    "prefecture_code": 24,
    "city": "度会郡玉城町",
    "city_kana": "ワタライグンタマキチョウ",
    "town": "上田辺",
    "town_kana": "カミタヌイ",
    "street": null,
    "office_name": null,
    "office_name_kana": null
  },
  "0421": {
    "postcode": "5190421",
    "prefecture": "三重県",
    "prefecture_kana": "ミエケン",
    "prefecture_code": 24,
    "city": "度会郡玉城町",
    "city_kana": "ワタライグンタマキチョウ",
    "town": "冨岡",
    "town_kana": "トミオカ",
    "street": null,
    "office_name": null,
    "office_name_kana": null
  },
  "0422": {
    "postcode": "5190422",
    "prefecture": "三重県",
    "prefecture_kana": "ミエケン",
    "prefecture_code": 24,
    "city": "度会郡玉城町",
    "city_kana": "ワタライグンタマキチョウ",
    "town": "小社曽根",
    "town_kana": "オゴソソネ",
    "street": null,
    "office_name": null,
    "office_name_kana": null
  },
  "0423": {
    "postcode": "5190423",
    "prefecture": "三重県",
    "prefecture_kana": "ミエケン",
    "prefecture_code": 24,
    "city": "度会郡玉城町",
    "city_kana": "ワタライグンタマキチョウ",
    "town": "昼田",
    "town_kana": "ヒルダ",
    "street": null,
    "office_name": null,
    "office_name_kana": null
  },
  "0424": {
    "postcode": "5190424",
    "prefecture": "三重県",
    "prefecture_kana": "ミエケン",
    "prefecture_code": 24,
    "city": "度会郡玉城町",
    "city_kana": "ワタライグンタマキチョウ",
    "town": "山岡",
    "town_kana": "ヤマオカ",
    "street": null,
    "office_name": null,
    "office_name_kana": null
  },
  "0425": {
    "postcode": "5190425",
    "prefecture": "三重県",
    "prefecture_kana": "ミエケン",
    "prefecture_code": 24,
    "city": "度会郡玉城町",
    "city_kana": "ワタライグンタマキチョウ",
    "town": "岩出",
    "town_kana": "イワデ",
    "street": null,
    "office_name": null,
    "office_name_kana": null
  },
  "0426": {
    "postcode": "5190426",
    "prefecture": "三重県",
    "prefecture_kana": "ミエケン",
    "prefecture_code": 24,
    "city": "度会郡玉城町",
    "city_kana": "ワタライグンタマキチョウ",
    "town": "中角",
    "town_kana": "ナカツノ",
    "street": null,
    "office_name": null,
    "office_name_kana": null
  },
  "0427": {
    "postcode": "5190427",
    "prefecture": "三重県",
    "prefecture_kana": "ミエケン",
    "prefecture_code": 24,
    "city": "度会郡玉城町",
    "city_kana": "ワタライグンタマキチョウ",
    "town": "宮古",
    "town_kana": "ミヤコ",
    "street": null,
    "office_name": null,
    "office_name_kana": null
  },
  "0428": {
    "postcode": "5190428",
    "prefecture": "三重県",
    "prefecture_kana": "ミエケン",
    "prefecture_code": 24,
    "city": "度会郡玉城町",
    "city_kana": "ワタライグンタマキチョウ",
    "town": "岡出",
    "town_kana": "オカデ",
    "street": null,
    "office_name": null,
    "office_name_kana": null
  },
  "0431": {
    "postcode": "5190431",
    "prefecture": "三重県",
    "prefecture_kana": "ミエケン",
    "prefecture_code": 24,
    "city": "度会郡玉城町",
    "city_kana": "ワタライグンタマキチョウ",
    "town": "蚊野",
    "town_kana": "カノ",
    "street": null,
    "office_name": null,
    "office_name_kana": null
  },
  "0432": {
    "postcode": "5190432",
    "prefecture": "三重県",
    "prefecture_kana": "ミエケン",
    "prefecture_code": 24,
    "city": "度会郡玉城町",
    "city_kana": "ワタライグンタマキチョウ",
    "town": "野篠",
    "town_kana": "ノジノ",
    "street": null,
    "office_name": null,
    "office_name_kana": null
  },
  "0433": {
    "postcode": "5190433",
    "prefecture": "三重県",
    "prefecture_kana": "ミエケン",
    "prefecture_code": 24,
    "city": "度会郡玉城町",
    "city_kana": "ワタライグンタマキチョウ",
    "town": "勝田",
    "town_kana": "カツタ",
    "street": null,
    "office_name": null,
    "office_name_kana": null
  },
  "0434": {
    "postcode": "5190434",
    "prefecture": "三重県",
    "prefecture_kana": "ミエケン",
    "prefecture_code": 24,
    "city": "度会郡玉城町",
    "city_kana": "ワタライグンタマキチョウ",
    "town": "田宮寺",
    "town_kana": "タミヤジ",
    "street": null,
    "office_name": null,
    "office_name_kana": null
  },
  "0435": {
    "postcode": "5190435",
    "prefecture": "三重県",
    "prefecture_kana": "ミエケン",
    "prefecture_code": 24,
    "city": "度会郡玉城町",
    "city_kana": "ワタライグンタマキチョウ",
    "town": "矢野",
    "town_kana": "ヤノ",
    "street": null,
    "office_name": null,
    "office_name_kana": null
  },
  "0436": {
    "postcode": "5190436",
    "prefecture": "三重県",
    "prefecture_kana": "ミエケン",
    "prefecture_code": 24,
    "city": "度会郡玉城町",
    "city_kana": "ワタライグンタマキチョウ",
    "town": "山神",
    "town_kana": "ヤマカミ",
    "street": null,
    "office_name": null,
    "office_name_kana": null
  },
  "0437": {
    "postcode": "5190437",
    "prefecture": "三重県",
    "prefecture_kana": "ミエケン",
    "prefecture_code": 24,
    "city": "度会郡玉城町",
    "city_kana": "ワタライグンタマキチョウ",
    "town": "積良",
    "town_kana": "ツムロ",
    "street": null,
    "office_name": null,
    "office_name_kana": null
  },
  "0438": {
    "postcode": "5190438",
    "prefecture": "三重県",
    "prefecture_kana": "ミエケン",
    "prefecture_code": 24,
    "city": "度会郡玉城町",
    "city_kana": "ワタライグンタマキチョウ",
    "town": "原",
    "town_kana": "ハラ",
    "street": null,
    "office_name": null,
    "office_name_kana": null
  },
  "0492": {
    "postcode": "5190492",
    "prefecture": "三重県",
    "prefecture_kana": "ミエケン",
    "prefecture_code": 24,
    "city": "度会郡玉城町",
    "city_kana": "ワタライグンタマキチョウ",
    "town": "田宮寺",
    "town_kana": "タミヤジ",
    "street": "４６８−１",
    "office_name": "松下電工　株式会社　伊勢工場",
    "office_name_kana": "マツシタデンコウ カブシキガイシヤ イセコウジヨウ"
  },
  "0493": {
    "postcode": "5190493",
    "prefecture": "三重県",
    "prefecture_kana": "ミエケン",
    "prefecture_code": 24,
    "city": "度会郡玉城町",
    "city_kana": "ワタライグンタマキチョウ",
    "town": "佐田",
    "town_kana": "サタ",
    "street": "６２６",
    "office_name": "ミマス　株式会社",
    "office_name_kana": "ミマス カブシキガイシヤ"
  },
  "0495": {
    "postcode": "5190495",
    "prefecture": "三重県",
    "prefecture_kana": "ミエケン",
    "prefecture_code": 24,
    "city": "度会郡玉城町",
    "city_kana": "ワタライグンタマキチョウ",
    "town": "田丸",
    "town_kana": "タマル",
    "street": "１１４−２",
    "office_name": "玉城町役場",
    "office_name_kana": "タマキチヨウヤクバ"
  },
  "0497": {
    "postcode": "5190497",
    "prefecture": "三重県",
    "prefecture_kana": "ミエケン",
    "prefecture_code": 24,
    "city": "度会郡玉城町",
    "city_kana": "ワタライグンタマキチョウ",
    "town": "野篠",
    "town_kana": "ノジノ",
    "street": "字又兵衛７０４番１９",
    "office_name": "京セラドキュメントソリューションズ　株式会社　玉城工場",
    "office_name_kana": "キヨウセラドキユメントソリユ-シヨンズ カブシキガイシヤ タマキコウジヨウ"
  },
  "0501": {
    "postcode": "5190501",
    "prefecture": "三重県",
    "prefecture_kana": "ミエケン",
    "prefecture_code": 24,
    "city": "伊勢市",
    "city_kana": "イセシ",
    "town": "小俣町明野",
    "town_kana": "オバタチョウアケノ",
    "street": null,
    "office_name": null,
    "office_name_kana": null
  },
  "0502": {
    "postcode": "5190502",
    "prefecture": "三重県",
    "prefecture_kana": "ミエケン",
    "prefecture_code": 24,
    "city": "伊勢市",
    "city_kana": "イセシ",
    "town": "小俣町相合",
    "town_kana": "オバタチョウソウゴウ",
    "street": null,
    "office_name": null,
    "office_name_kana": null
  },
  "0503": {
    "postcode": "5190503",
    "prefecture": "三重県",
    "prefecture_kana": "ミエケン",
    "prefecture_code": 24,
    "city": "伊勢市",
    "city_kana": "イセシ",
    "town": "小俣町元町",
    "town_kana": "オバタチョウモトマチ",
    "street": null,
    "office_name": null,
    "office_name_kana": null
  },
  "0504": {
    "postcode": "5190504",
    "prefecture": "三重県",
    "prefecture_kana": "ミエケン",
    "prefecture_code": 24,
    "city": "伊勢市",
    "city_kana": "イセシ",
    "town": "小俣町宮前",
    "town_kana": "オバタチョウミヤマエ",
    "street": null,
    "office_name": null,
    "office_name_kana": null
  },
  "0505": {
    "postcode": "5190505",
    "prefecture": "三重県",
    "prefecture_kana": "ミエケン",
    "prefecture_code": 24,
    "city": "伊勢市",
    "city_kana": "イセシ",
    "town": "小俣町本町",
    "town_kana": "オバタチョウホンマチ",
    "street": null,
    "office_name": null,
    "office_name_kana": null
  },
  "0506": {
    "postcode": "5190506",
    "prefecture": "三重県",
    "prefecture_kana": "ミエケン",
    "prefecture_code": 24,
    "city": "伊勢市",
    "city_kana": "イセシ",
    "town": "小俣町湯田",
    "town_kana": "オバタチョウユタ",
    "street": null,
    "office_name": null,
    "office_name_kana": null
  },
  "0507": {
    "postcode": "5190507",
    "prefecture": "三重県",
    "prefecture_kana": "ミエケン",
    "prefecture_code": 24,
    "city": "伊勢市",
    "city_kana": "イセシ",
    "town": "小俣町新村",
    "town_kana": "オバタチョウシムラ",
    "street": null,
    "office_name": null,
    "office_name_kana": null
  },
  "0592": {
    "postcode": "5190592",
    "prefecture": "三重県",
    "prefecture_kana": "ミエケン",
    "prefecture_code": 24,
    "city": "伊勢市",
    "city_kana": "イセシ",
    "town": "小俣町元町",
    "town_kana": "オバタチョウモトマチ",
    "street": "５４０",
    "office_name": "伊勢市　小俣総合支所",
    "office_name_kana": "イセシ オバタソウゴウシシヨ"
  },
  "0593": {
    "postcode": "5190593",
    "prefecture": "三重県",
    "prefecture_kana": "ミエケン",
    "prefecture_code": 24,
    "city": "伊勢市",
    "city_kana": "イセシ",
    "town": "小俣町本町",
    "town_kana": "オバタチョウホンマチ",
    "street": "３４１",
    "office_name": "ユニチカ　株式会社　宮川工場",
    "office_name_kana": "ユニチカ カブシキガイシヤ ミヤガワコウジヨウ"
  },
  "0594": {
    "postcode": "5190594",
    "prefecture": "三重県",
    "prefecture_kana": "ミエケン",
    "prefecture_code": 24,
    "city": "伊勢市",
    "city_kana": "イセシ",
    "town": "小俣町相合",
    "town_kana": "オバタチョウソウゴウ",
    "street": "１３０６",
    "office_name": "株式会社　マスヤ",
    "office_name_kana": "カブシキガイシヤ マスヤ"
  },
  "0595": {
    "postcode": "5190595",
    "prefecture": "三重県",
    "prefecture_kana": "ミエケン",
    "prefecture_code": 24,
    "city": "伊勢市",
    "city_kana": "イセシ",
    "town": "小俣町湯田",
    "town_kana": "オバタチョウユタ",
    "street": "４０９−１３",
    "office_name": "美和ロック　株式会社　伊勢工場",
    "office_name_kana": "ミワロツク カブシキガイシヤ イセコウジヨウ"
  },
  "0601": {
    "postcode": "5190601",
    "prefecture": "三重県",
    "prefecture_kana": "ミエケン",
    "prefecture_code": 24,
    "city": "伊勢市",
    "city_kana": "イセシ",
    "town": "二見町松下",
    "town_kana": "フタミチョウマツシタ",
    "street": null,
    "office_name": null,
    "office_name_kana": null
  },
  "0602": {
    "postcode": "5190602",
    "prefecture": "三重県",
    "prefecture_kana": "ミエケン",
    "prefecture_code": 24,
    "city": "伊勢市",
    "city_kana": "イセシ",
    "town": "二見町江",
    "town_kana": "フタミチョウエ",
    "street": null,
    "office_name": null,
    "office_name_kana": null
  },
  "0603": {
    "postcode": "5190603",
    "prefecture": "三重県",
    "prefecture_kana": "ミエケン",
    "prefecture_code": 24,
    "city": "伊勢市",
    "city_kana": "イセシ",
    "town": "二見町三津",
    "town_kana": "フタミチョウミツ",
    "street": null,
    "office_name": null,
    "office_name_kana": null
  },
  "0604": {
    "postcode": "5190604",
    "prefecture": "三重県",
    "prefecture_kana": "ミエケン",
    "prefecture_code": 24,
    "city": "伊勢市",
    "city_kana": "イセシ",
    "town": "二見町山田原",
    "town_kana": "フタミチョウヤマダハラ",
    "street": null,
    "office_name": null,
    "office_name_kana": null
  },
  "0605": {
    "postcode": "5190605",
    "prefecture": "三重県",
    "prefecture_kana": "ミエケン",
    "prefecture_code": 24,
    "city": "伊勢市",
    "city_kana": "イセシ",
    "town": "二見町溝口",
    "town_kana": "フタミチョウミゾグチ",
    "street": null,
    "office_name": null,
    "office_name_kana": null
  },
  "0606": {
    "postcode": "5190606",
    "prefecture": "三重県",
    "prefecture_kana": "ミエケン",
    "prefecture_code": 24,
    "city": "伊勢市",
    "city_kana": "イセシ",
    "town": "二見町荘",
    "town_kana": "フタミチョウショウ",
    "street": null,
    "office_name": null,
    "office_name_kana": null
  },
  "0607": {
    "postcode": "5190607",
    "prefecture": "三重県",
    "prefecture_kana": "ミエケン",
    "prefecture_code": 24,
    "city": "伊勢市",
    "city_kana": "イセシ",
    "town": "二見町西",
    "town_kana": "フタミチョウニシ",
    "street": null,
    "office_name": null,
    "office_name_kana": null
  },
  "0608": {
    "postcode": "5190608",
    "prefecture": "三重県",
    "prefecture_kana": "ミエケン",
    "prefecture_code": 24,
    "city": "伊勢市",
    "city_kana": "イセシ",
    "town": "二見町今一色",
    "town_kana": "フタミチョウイマイシキ",
    "street": null,
    "office_name": null,
    "office_name_kana": null
  },
  "0609": {
    "postcode": "5190609",
    "prefecture": "三重県",
    "prefecture_kana": "ミエケン",
    "prefecture_code": 24,
    "city": "伊勢市",
    "city_kana": "イセシ",
    "town": "二見町茶屋",
    "town_kana": "フタミチョウチャヤ",
    "street": null,
    "office_name": null,
    "office_name_kana": null
  },
  "0611": {
    "postcode": "5190611",
    "prefecture": "三重県",
    "prefecture_kana": "ミエケン",
    "prefecture_code": 24,
    "city": "伊勢市",
    "city_kana": "イセシ",
    "town": "二見町光の街",
    "town_kana": "フタミチョウヒカリノマチ",
    "street": null,
    "office_name": null,
    "office_name_kana": null
  },
  "0696": {
    "postcode": "5190696",
    "prefecture": "三重県",
    "prefecture_kana": "ミエケン",
    "prefecture_code": 24,
    "city": "伊勢市",
    "city_kana": "イセシ",
    "town": "二見町茶屋",
    "town_kana": "フタミチョウチャヤ",
    "street": "４２０番地１",
    "office_name": "伊勢市二見総合支所",
    "office_name_kana": "イセシフタミソウゴウシシヨ"
  },
  "1101": {
    "postcode": "5191101",
    "prefecture": "三重県",
    "prefecture_kana": "ミエケン",
    "prefecture_code": 24,
    "city": "亀山市",
    "city_kana": "カメヤマシ",
    "town": "関町坂下",
    "town_kana": "セキチョウサカシタ",
    "street": null,
    "office_name": null,
    "office_name_kana": null
  },
  "1102": {
    "postcode": "5191102",
    "prefecture": "三重県",
    "prefecture_kana": "ミエケン",
    "prefecture_code": 24,
    "city": "亀山市",
    "city_kana": "カメヤマシ",
    "town": "関町沓掛",
    "town_kana": "セキチョウクツカケ",
    "street": null,
    "office_name": null,
    "office_name_kana": null
  },
  "1103": {
    "postcode": "5191103",
    "prefecture": "三重県",
    "prefecture_kana": "ミエケン",
    "prefecture_code": 24,
    "city": "亀山市",
    "city_kana": "カメヤマシ",
    "town": "関町市瀬",
    "town_kana": "セキチョウイチノセ",
    "street": null,
    "office_name": null,
    "office_name_kana": null
  },
  "1104": {
    "postcode": "5191104",
    "prefecture": "三重県",
    "prefecture_kana": "ミエケン",
    "prefecture_code": 24,
    "city": "亀山市",
    "city_kana": "カメヤマシ",
    "town": "関町白木一色",
    "town_kana": "セキチョウシラキイッシキ",
    "street": null,
    "office_name": null,
    "office_name_kana": null
  },
  "1105": {
    "postcode": "5191105",
    "prefecture": "三重県",
    "prefecture_kana": "ミエケン",
    "prefecture_code": 24,
    "city": "亀山市",
    "city_kana": "カメヤマシ",
    "town": "関町鷲山",
    "town_kana": "セキチョウワシヤマ",
    "street": null,
    "office_name": null,
    "office_name_kana": null
  },
  "1106": {
    "postcode": "5191106",
    "prefecture": "三重県",
    "prefecture_kana": "ミエケン",
    "prefecture_code": 24,
    "city": "亀山市",
    "city_kana": "カメヤマシ",
    "town": "関町会下",
    "town_kana": "セキチョウエゲ",
    "street": null,
    "office_name": null,
    "office_name_kana": null
  },
  "1107": {
    "postcode": "5191107",
    "prefecture": "三重県",
    "prefecture_kana": "ミエケン",
    "prefecture_code": 24,
    "city": "亀山市",
    "city_kana": "カメヤマシ",
    "town": "関町木崎",
    "town_kana": "セキチョウコザキ",
    "street": null,
    "office_name": null,
    "office_name_kana": null
  },
  "1108": {
    "postcode": "5191108",
    "prefecture": "三重県",
    "prefecture_kana": "ミエケン",
    "prefecture_code": 24,
    "city": "亀山市",
    "city_kana": "カメヤマシ",
    "town": "関町小野",
    "town_kana": "セキチョウオノ",
    "street": null,
    "office_name": null,
    "office_name_kana": null
  },
  "1111": {
    "postcode": "5191111",
    "prefecture": "三重県",
    "prefecture_kana": "ミエケン",
    "prefecture_code": 24,
    "city": "亀山市",
    "city_kana": "カメヤマシ",
    "town": "関町新所",
    "town_kana": "セキチョウシンジョ",
    "street": null,
    "office_name": null,
    "office_name_kana": null
  },
  "1112": {
    "postcode": "5191112",
    "prefecture": "三重県",
    "prefecture_kana": "ミエケン",
    "prefecture_code": 24,
    "city": "亀山市",
    "city_kana": "カメヤマシ",
    "town": "関町中町",
    "town_kana": "セキチョウナカマチ",
    "street": null,
    "office_name": null,
    "office_name_kana": null
  },
  "1113": {
    "postcode": "5191113",
    "prefecture": "三重県",
    "prefecture_kana": "ミエケン",
    "prefecture_code": 24,
    "city": "亀山市",
    "city_kana": "カメヤマシ",
    "town": "関町古厩",
    "town_kana": "セキチョウフルマヤ",
    "street": null,
    "office_name": null,
    "office_name_kana": null
  },
  "1114": {
    "postcode": "5191114",
    "prefecture": "三重県",
    "prefecture_kana": "ミエケン",
    "prefecture_code": 24,
    "city": "亀山市",
    "city_kana": "カメヤマシ",
    "town": "関町萩原",
    "town_kana": "セキチョウハギワラ",
    "street": null,
    "office_name": null,
    "office_name_kana": null
  },
  "1115": {
    "postcode": "5191115",
    "prefecture": "三重県",
    "prefecture_kana": "ミエケン",
    "prefecture_code": 24,
    "city": "亀山市",
    "city_kana": "カメヤマシ",
    "town": "関町福徳",
    "town_kana": "セキチョウフクトク",
    "street": null,
    "office_name": null,
    "office_name_kana": null
  },
  "1116": {
    "postcode": "5191116",
    "prefecture": "三重県",
    "prefecture_kana": "ミエケン",
    "prefecture_code": 24,
    "city": "亀山市",
    "city_kana": "カメヤマシ",
    "town": "関町久我",
    "town_kana": "セキチョウクガ",
    "street": null,
    "office_name": null,
    "office_name_kana": null
  },
  "1117": {
    "postcode": "5191117",
    "prefecture": "三重県",
    "prefecture_kana": "ミエケン",
    "prefecture_code": 24,
    "city": "亀山市",
    "city_kana": "カメヤマシ",
    "town": "関町泉ケ丘",
    "town_kana": "セキチョウイズミガオカ",
    "street": null,
    "office_name": null,
    "office_name_kana": null
  },
  "1118": {
    "postcode": "5191118",
    "prefecture": "三重県",
    "prefecture_kana": "ミエケン",
    "prefecture_code": 24,
    "city": "亀山市",
    "city_kana": "カメヤマシ",
    "town": "関町富士ハイツ",
    "town_kana": "セキチョウフジハイツ",
    "street": null,
    "office_name": null,
    "office_name_kana": null
  },
  "1119": {
    "postcode": "5191119",
    "prefecture": "三重県",
    "prefecture_kana": "ミエケン",
    "prefecture_code": 24,
    "city": "亀山市",
    "city_kana": "カメヤマシ",
    "town": "関ケ丘",
    "town_kana": "セキガオカ",
    "street": null,
    "office_name": null,
    "office_name_kana": null
  },
  "1121": {
    "postcode": "5191121",
    "prefecture": "三重県",
    "prefecture_kana": "ミエケン",
    "prefecture_code": 24,
    "city": "亀山市",
    "city_kana": "カメヤマシ",
    "town": "加太梶ケ坂",
    "town_kana": "カブトカジガサカ",
    "street": null,
    "office_name": null,
    "office_name_kana": null
  },
  "1122": {
    "postcode": "5191122",
    "prefecture": "三重県",
    "prefecture_kana": "ミエケン",
    "prefecture_code": 24,
    "city": "亀山市",
    "city_kana": "カメヤマシ",
    "town": "加太市場",
    "town_kana": "カブトイチバ",
    "street": null,
    "office_name": null,
    "office_name_kana": null
  },
  "1123": {
    "postcode": "5191123",
    "prefecture": "三重県",
    "prefecture_kana": "ミエケン",
    "prefecture_code": 24,
    "city": "亀山市",
    "city_kana": "カメヤマシ",
    "town": "関町金場",
    "town_kana": "セキチョウカネバ",
    "street": null,
    "office_name": null,
    "office_name_kana": null
  },
  "1124": {
    "postcode": "5191124",
    "prefecture": "三重県",
    "prefecture_kana": "ミエケン",
    "prefecture_code": 24,
    "city": "亀山市",
    "city_kana": "カメヤマシ",
    "town": "関町越川",
    "town_kana": "セキチョウエチガワ",
    "street": null,
    "office_name": null,
    "office_name_kana": null
  },
  "1125": {
    "postcode": "5191125",
    "prefecture": "三重県",
    "prefecture_kana": "ミエケン",
    "prefecture_code": 24,
    "city": "亀山市",
    "city_kana": "カメヤマシ",
    "town": "加太向井",
    "town_kana": "カブトムカイ",
    "street": null,
    "office_name": null,
    "office_name_kana": null
  },
  "1126": {
    "postcode": "5191126",
    "prefecture": "三重県",
    "prefecture_kana": "ミエケン",
    "prefecture_code": 24,
    "city": "亀山市",
    "city_kana": "カメヤマシ",
    "town": "加太神武",
    "town_kana": "カブトジンム",
    "street": null,
    "office_name": null,
    "office_name_kana": null
  },
  "1127": {
    "postcode": "5191127",
    "prefecture": "三重県",
    "prefecture_kana": "ミエケン",
    "prefecture_code": 24,
    "city": "亀山市",
    "city_kana": "カメヤマシ",
    "town": "加太中在家",
    "town_kana": "カブトナカザイケ",
    "street": null,
    "office_name": null,
    "office_name_kana": null
  },
  "1128": {
    "postcode": "5191128",
    "prefecture": "三重県",
    "prefecture_kana": "ミエケン",
    "prefecture_code": 24,
    "city": "亀山市",
    "city_kana": "カメヤマシ",
    "town": "加太北在家",
    "town_kana": "カブトキタザイケ",
    "street": null,
    "office_name": null,
    "office_name_kana": null
  },
  "1129": {
    "postcode": "5191129",
    "prefecture": "三重県",
    "prefecture_kana": "ミエケン",
    "prefecture_code": 24,
    "city": "亀山市",
    "city_kana": "カメヤマシ",
    "town": "加太板屋",
    "town_kana": "カブトイタヤ",
    "street": null,
    "office_name": null,
    "office_name_kana": null
  },
  "1192": {
    "postcode": "5191192",
    "prefecture": "三重県",
    "prefecture_kana": "ミエケン",
    "prefecture_code": 24,
    "city": "亀山市",
    "city_kana": "カメヤマシ",
    "town": "関町木崎",
    "town_kana": "セキチョウコザキ",
    "street": "９１９番地の１",
    "office_name": "亀山市関支所",
    "office_name_kana": "カメヤマシ セキシシヨ"
  },
  "1401": {
    "postcode": "5191401",
    "prefecture": "三重県",
    "prefecture_kana": "ミエケン",
    "prefecture_code": 24,
    "city": "伊賀市",
    "city_kana": "イガシ",
    "town": "一ツ家",
    "town_kana": "ヒトツヤ",
    "street": null,
    "office_name": null,
    "office_name_kana": null
  },
  "1402": {
    "postcode": "5191402",
    "prefecture": "三重県",
    "prefecture_kana": "ミエケン",
    "prefecture_code": 24,
    "city": "伊賀市",
    "city_kana": "イガシ",
    "town": "柘植町",
    "town_kana": "ツゲマチ",
    "street": null,
    "office_name": null,
    "office_name_kana": null
  },
  "1403": {
    "postcode": "5191403",
    "prefecture": "三重県",
    "prefecture_kana": "ミエケン",
    "prefecture_code": 24,
    "city": "伊賀市",
    "city_kana": "イガシ",
    "town": "上村",
    "town_kana": "ウエムラ",
    "street": null,
    "office_name": null,
    "office_name_kana": null
  },
  "1404": {
    "postcode": "5191404",
    "prefecture": "三重県",
    "prefecture_kana": "ミエケン",
    "prefecture_code": 24,
    "city": "伊賀市",
    "city_kana": "イガシ",
    "town": "中柘植",
    "town_kana": "ナカツゲ",
    "street": null,
    "office_name": null,
    "office_name_kana": null
  },
  "1405": {
    "postcode": "5191405",
    "prefecture": "三重県",
    "prefecture_kana": "ミエケン",
    "prefecture_code": 24,
    "city": "伊賀市",
    "city_kana": "イガシ",
    "town": "野村",
    "town_kana": "ノムラ",
    "street": null,
    "office_name": null,
    "office_name_kana": null
  },
  "1406": {
    "postcode": "5191406",
    "prefecture": "三重県",
    "prefecture_kana": "ミエケン",
    "prefecture_code": 24,
    "city": "伊賀市",
    "city_kana": "イガシ",
    "town": "小杉",
    "town_kana": "コスギ",
    "street": null,
    "office_name": null,
    "office_name_kana": null
  },
  "1411": {
    "postcode": "5191411",
    "prefecture": "三重県",
    "prefecture_kana": "ミエケン",
    "prefecture_code": 24,
    "city": "伊賀市",
    "city_kana": "イガシ",
    "town": "楯岡",
    "town_kana": "タテオカ",
    "street": null,
    "office_name": null,
    "office_name_kana": null
  },
  "1412": {
    "postcode": "5191412",
    "prefecture": "三重県",
    "prefecture_kana": "ミエケン",
    "prefecture_code": 24,
    "city": "伊賀市",
    "city_kana": "イガシ",
    "town": "下柘植",
    "town_kana": "シモツゲ",
    "street": null,
    "office_name": null,
    "office_name_kana": null
  },
  "1413": {
    "postcode": "5191413",
    "prefecture": "三重県",
    "prefecture_kana": "ミエケン",
    "prefecture_code": 24,
    "city": "伊賀市",
    "city_kana": "イガシ",
    "town": "愛田",
    "town_kana": "アイタ",
    "street": null,
    "office_name": null,
    "office_name_kana": null
  },
  "1414": {
    "postcode": "5191414",
    "prefecture": "三重県",
    "prefecture_kana": "ミエケン",
    "prefecture_code": 24,
    "city": "伊賀市",
    "city_kana": "イガシ",
    "town": "御代",
    "town_kana": "ミダイ",
    "street": null,
    "office_name": null,
    "office_name_kana": null
  },
  "1415": {
    "postcode": "5191415",
    "prefecture": "三重県",
    "prefecture_kana": "ミエケン",
    "prefecture_code": 24,
    "city": "伊賀市",
    "city_kana": "イガシ",
    "town": "柏野",
    "town_kana": "カシワノ",
    "street": null,
    "office_name": null,
    "office_name_kana": null
  },
  "1416": {
    "postcode": "5191416",
    "prefecture": "三重県",
    "prefecture_kana": "ミエケン",
    "prefecture_code": 24,
    "city": "伊賀市",
    "city_kana": "イガシ",
    "town": "新堂",
    "town_kana": "シンドウ",
    "street": null,
    "office_name": null,
    "office_name_kana": null
  },
  "1421": {
    "postcode": "5191421",
    "prefecture": "三重県",
    "prefecture_kana": "ミエケン",
    "prefecture_code": 24,
    "city": "伊賀市",
    "city_kana": "イガシ",
    "town": "山畑",
    "town_kana": "ヤバタ",
    "street": null,
    "office_name": null,
    "office_name_kana": null
  },
  "1422": {
    "postcode": "5191422",
    "prefecture": "三重県",
    "prefecture_kana": "ミエケン",
    "prefecture_code": 24,
    "city": "伊賀市",
    "city_kana": "イガシ",
    "town": "希望ケ丘東",
    "town_kana": "キボウガオカヒガシ",
    "street": null,
    "office_name": null,
    "office_name_kana": null
  },
  "1423": {
    "postcode": "5191423",
    "prefecture": "三重県",
    "prefecture_kana": "ミエケン",
    "prefecture_code": 24,
    "city": "伊賀市",
    "city_kana": "イガシ",
    "town": "希望ケ丘西",
    "town_kana": "キボウガオカニシ",
    "street": null,
    "office_name": null,
    "office_name_kana": null
  },
  "1424": {
    "postcode": "5191424",
    "prefecture": "三重県",
    "prefecture_kana": "ミエケン",
    "prefecture_code": 24,
    "city": "伊賀市",
    "city_kana": "イガシ",
    "town": "川東",
    "town_kana": "カワヒガシ",
    "street": null,
    "office_name": null,
    "office_name_kana": null
  },
  "1425": {
    "postcode": "5191425",
    "prefecture": "三重県",
    "prefecture_kana": "ミエケン",
    "prefecture_code": 24,
    "city": "伊賀市",
    "city_kana": "イガシ",
    "town": "川西",
    "town_kana": "カワニシ",
    "street": null,
    "office_name": null,
    "office_name_kana": null
  },
  "1426": {
    "postcode": "5191426",
    "prefecture": "三重県",
    "prefecture_kana": "ミエケン",
    "prefecture_code": 24,
    "city": "伊賀市",
    "city_kana": "イガシ",
    "town": "西之澤",
    "town_kana": "ニシノサワ",
    "street": null,
    "office_name": null,
    "office_name_kana": null
  },
  "1701": [
    {
      "postcode": "5191701",
      "prefecture": "三重県",
      "prefecture_kana": "ミエケン",
      "prefecture_code": 24,
      "city": "伊賀市",
      "city_kana": "イガシ",
      "town": "島ケ原",
      "town_kana": "シマガハラ",
      "street": null,
      "office_name": null,
      "office_name_kana": null
    },
    {
      "postcode": "5191701",
      "prefecture": "三重県",
      "prefecture_kana": "ミエケン",
      "prefecture_code": 24,
      "city": "伊賀市",
      "city_kana": "イガシ",
      "town": "島ケ原川南",
      "town_kana": "シマガハラカワミナミ",
      "street": null,
      "office_name": null,
      "office_name_kana": null
    }
  ],
  "1702": [
    {
      "postcode": "5191702",
      "prefecture": "三重県",
      "prefecture_kana": "ミエケン",
      "prefecture_code": 24,
      "city": "伊賀市",
      "city_kana": "イガシ",
      "town": "島ケ原",
      "town_kana": "シマガハラ",
      "street": null,
      "office_name": null,
      "office_name_kana": null
    },
    {
      "postcode": "5191702",
      "prefecture": "三重県",
      "prefecture_kana": "ミエケン",
      "prefecture_code": 24,
      "city": "伊賀市",
      "city_kana": "イガシ",
      "town": "島ケ原不見上",
      "town_kana": "シマガハラフケンジョウ",
      "street": null,
      "office_name": null,
      "office_name_kana": null
    }
  ],
  "1703": [
    {
      "postcode": "5191703",
      "prefecture": "三重県",
      "prefecture_kana": "ミエケン",
      "prefecture_code": 24,
      "city": "伊賀市",
      "city_kana": "イガシ",
      "town": "島ケ原",
      "town_kana": "シマガハラ",
      "street": null,
      "office_name": null,
      "office_name_kana": null
    },
    {
      "postcode": "5191703",
      "prefecture": "三重県",
      "prefecture_kana": "ミエケン",
      "prefecture_code": 24,
      "city": "伊賀市",
      "city_kana": "イガシ",
      "town": "島ケ原山菅",
      "town_kana": "シマガハラヤマスゲ",
      "street": null,
      "office_name": null,
      "office_name_kana": null
    }
  ],
  "1704": [
    {
      "postcode": "5191704",
      "prefecture": "三重県",
      "prefecture_kana": "ミエケン",
      "prefecture_code": 24,
      "city": "伊賀市",
      "city_kana": "イガシ",
      "town": "島ケ原",
      "town_kana": "シマガハラ",
      "street": null,
      "office_name": null,
      "office_name_kana": null
    },
    {
      "postcode": "5191704",
      "prefecture": "三重県",
      "prefecture_kana": "ミエケン",
      "prefecture_code": 24,
      "city": "伊賀市",
      "city_kana": "イガシ",
      "town": "島ケ原町",
      "town_kana": "シマガハラマチ",
      "street": null,
      "office_name": null,
      "office_name_kana": null
    }
  ],
  "1705": [
    {
      "postcode": "5191705",
      "prefecture": "三重県",
      "prefecture_kana": "ミエケン",
      "prefecture_code": 24,
      "city": "伊賀市",
      "city_kana": "イガシ",
      "town": "島ケ原",
      "town_kana": "シマガハラ",
      "street": null,
      "office_name": null,
      "office_name_kana": null
    },
    {
      "postcode": "5191705",
      "prefecture": "三重県",
      "prefecture_kana": "ミエケン",
      "prefecture_code": 24,
      "city": "伊賀市",
      "city_kana": "イガシ",
      "town": "島ケ原中村",
      "town_kana": "シマガハラナカムラ",
      "street": null,
      "office_name": null,
      "office_name_kana": null
    }
  ],
  "1706": [
    {
      "postcode": "5191706",
      "prefecture": "三重県",
      "prefecture_kana": "ミエケン",
      "prefecture_code": 24,
      "city": "伊賀市",
      "city_kana": "イガシ",
      "town": "島ケ原",
      "town_kana": "シマガハラ",
      "street": null,
      "office_name": null,
      "office_name_kana": null
    },
    {
      "postcode": "5191706",
      "prefecture": "三重県",
      "prefecture_kana": "ミエケン",
      "prefecture_code": 24,
      "city": "伊賀市",
      "city_kana": "イガシ",
      "town": "島ケ原奥村",
      "town_kana": "シマガハラオクムラ",
      "street": null,
      "office_name": null,
      "office_name_kana": null
    }
  ],
  "1707": [
    {
      "postcode": "5191707",
      "prefecture": "三重県",
      "prefecture_kana": "ミエケン",
      "prefecture_code": 24,
      "city": "伊賀市",
      "city_kana": "イガシ",
      "town": "島ケ原",
      "town_kana": "シマガハラ",
      "street": null,
      "office_name": null,
      "office_name_kana": null
    },
    {
      "postcode": "5191707",
      "prefecture": "三重県",
      "prefecture_kana": "ミエケン",
      "prefecture_code": 24,
      "city": "伊賀市",
      "city_kana": "イガシ",
      "town": "島ケ原大道",
      "town_kana": "シマガハラオオドウ",
      "street": null,
      "office_name": null,
      "office_name_kana": null
    }
  ],
  "1708": [
    {
      "postcode": "5191708",
      "prefecture": "三重県",
      "prefecture_kana": "ミエケン",
      "prefecture_code": 24,
      "city": "伊賀市",
      "city_kana": "イガシ",
      "town": "島ケ原",
      "town_kana": "シマガハラ",
      "street": null,
      "office_name": null,
      "office_name_kana": null
    },
    {
      "postcode": "5191708",
      "prefecture": "三重県",
      "prefecture_kana": "ミエケン",
      "prefecture_code": 24,
      "city": "伊賀市",
      "city_kana": "イガシ",
      "town": "島ケ原中矢",
      "town_kana": "シマガハラナカヤ",
      "street": null,
      "office_name": null,
      "office_name_kana": null
    }
  ],
  "1711": {
    "postcode": "5191711",
    "prefecture": "三重県",
    "prefecture_kana": "ミエケン",
    "prefecture_code": 24,
    "city": "伊賀市",
    "city_kana": "イガシ",
    "town": "島ケ原",
    "town_kana": "シマガハラ",
    "street": null,
    "office_name": null,
    "office_name_kana": null
  },
  "2100": {
    "postcode": "5192100",
    "prefecture": "三重県",
    "prefecture_kana": "ミエケン",
    "prefecture_code": 24,
    "city": "多気郡多気町",
    "city_kana": "タキグンタキチョウ",
    "town": "",
    "town_kana": "",
    "street": null,
    "office_name": null,
    "office_name_kana": null
  },
  "2141": {
    "postcode": "5192141",
    "prefecture": "三重県",
    "prefecture_kana": "ミエケン",
    "prefecture_code": 24,
    "city": "松阪市",
    "city_kana": "マツサカシ",
    "town": "上蛸路町",
    "town_kana": "カミタコジチョウ",
    "street": null,
    "office_name": null,
    "office_name_kana": null
  },
  "2142": {
    "postcode": "5192142",
    "prefecture": "三重県",
    "prefecture_kana": "ミエケン",
    "prefecture_code": 24,
    "city": "松阪市",
    "city_kana": "マツサカシ",
    "town": "下蛸路町",
    "town_kana": "シモタコジチョウ",
    "street": null,
    "office_name": null,
    "office_name_kana": null
  },
  "2143": {
    "postcode": "5192143",
    "prefecture": "三重県",
    "prefecture_kana": "ミエケン",
    "prefecture_code": 24,
    "city": "松阪市",
    "city_kana": "マツサカシ",
    "town": "中万町",
    "town_kana": "チュウマチョウ",
    "street": null,
    "office_name": null,
    "office_name_kana": null
  },
  "2144": {
    "postcode": "5192144",
    "prefecture": "三重県",
    "prefecture_kana": "ミエケン",
    "prefecture_code": 24,
    "city": "松阪市",
    "city_kana": "マツサカシ",
    "town": "八太町",
    "town_kana": "ハッタチョウ",
    "street": null,
    "office_name": null,
    "office_name_kana": null
  },
  "2145": {
    "postcode": "5192145",
    "prefecture": "三重県",
    "prefecture_kana": "ミエケン",
    "prefecture_code": 24,
    "city": "松阪市",
    "city_kana": "マツサカシ",
    "town": "射和町",
    "town_kana": "イザワチョウ",
    "street": null,
    "office_name": null,
    "office_name_kana": null
  },
  "2146": {
    "postcode": "5192146",
    "prefecture": "三重県",
    "prefecture_kana": "ミエケン",
    "prefecture_code": 24,
    "city": "松阪市",
    "city_kana": "マツサカシ",
    "town": "阿波曽町",
    "town_kana": "アワソチョウ",
    "street": null,
    "office_name": null,
    "office_name_kana": null
  },
  "2147": {
    "postcode": "5192147",
    "prefecture": "三重県",
    "prefecture_kana": "ミエケン",
    "prefecture_code": 24,
    "city": "松阪市",
    "city_kana": "マツサカシ",
    "town": "庄町",
    "town_kana": "ショウチョウ",
    "street": null,
    "office_name": null,
    "office_name_kana": null
  },
  "2148": {
    "postcode": "5192148",
    "prefecture": "三重県",
    "prefecture_kana": "ミエケン",
    "prefecture_code": 24,
    "city": "松阪市",
    "city_kana": "マツサカシ",
    "town": "御麻生薗町",
    "town_kana": "ミオゾノチョウ",
    "street": null,
    "office_name": null,
    "office_name_kana": null
  },
  "2151": {
    "postcode": "5192151",
    "prefecture": "三重県",
    "prefecture_kana": "ミエケン",
    "prefecture_code": 24,
    "city": "多気郡多気町",
    "city_kana": "タキグンタキチョウ",
    "town": "朝長",
    "town_kana": "アサオサ",
    "street": null,
    "office_name": null,
    "office_name_kana": null
  },
  "2152": {
    "postcode": "5192152",
    "prefecture": "三重県",
    "prefecture_kana": "ミエケン",
    "prefecture_code": 24,
    "city": "多気郡多気町",
    "city_kana": "タキグンタキチョウ",
    "town": "弟国",
    "town_kana": "オウグニ",
    "street": null,
    "office_name": null,
    "office_name_kana": null
  },
  "2153": {
    "postcode": "5192153",
    "prefecture": "三重県",
    "prefecture_kana": "ミエケン",
    "prefecture_code": 24,
    "city": "多気郡多気町",
    "city_kana": "タキグンタキチョウ",
    "town": "河田",
    "town_kana": "コウダ",
    "street": null,
    "office_name": null,
    "office_name_kana": null
  },
  "2154": {
    "postcode": "5192154",
    "prefecture": "三重県",
    "prefecture_kana": "ミエケン",
    "prefecture_code": 24,
    "city": "多気郡多気町",
    "city_kana": "タキグンタキチョウ",
    "town": "多気",
    "town_kana": "タキ",
    "street": null,
    "office_name": null,
    "office_name_kana": null
  },
  "2155": {
    "postcode": "5192155",
    "prefecture": "三重県",
    "prefecture_kana": "ミエケン",
    "prefecture_code": 24,
    "city": "多気郡多気町",
    "city_kana": "タキグンタキチョウ",
    "town": "東池上",
    "town_kana": "ヒガシイケベ",
    "street": null,
    "office_name": null,
    "office_name_kana": null
  },
  "2156": {
    "postcode": "5192156",
    "prefecture": "三重県",
    "prefecture_kana": "ミエケン",
    "prefecture_code": 24,
    "city": "多気郡多気町",
    "city_kana": "タキグンタキチョウ",
    "town": "西池上",
    "town_kana": "ニシイケベ",
    "street": null,
    "office_name": null,
    "office_name_kana": null
  },
  "2157": {
    "postcode": "5192157",
    "prefecture": "三重県",
    "prefecture_kana": "ミエケン",
    "prefecture_code": 24,
    "city": "多気郡多気町",
    "city_kana": "タキグンタキチョウ",
    "town": "五佐奈",
    "town_kana": "ゴサナ",
    "street": null,
    "office_name": null,
    "office_name_kana": null
  },
  "2158": {
    "postcode": "5192158",
    "prefecture": "三重県",
    "prefecture_kana": "ミエケン",
    "prefecture_code": 24,
    "city": "多気郡多気町",
    "city_kana": "タキグンタキチョウ",
    "town": "荒蒔",
    "town_kana": "アラマキ",
    "street": null,
    "office_name": null,
    "office_name_kana": null
  },
  "2159": {
    "postcode": "5192159",
    "prefecture": "三重県",
    "prefecture_kana": "ミエケン",
    "prefecture_code": 24,
    "city": "多気郡多気町",
    "city_kana": "タキグンタキチョウ",
    "town": "兄国",
    "town_kana": "エクニ",
    "street": null,
    "office_name": null,
    "office_name_kana": null
  },
  "2161": {
    "postcode": "5192161",
    "prefecture": "三重県",
    "prefecture_kana": "ミエケン",
    "prefecture_code": 24,
    "city": "多気郡多気町",
    "city_kana": "タキグンタキチョウ",
    "town": "土羽",
    "town_kana": "トバ",
    "street": null,
    "office_name": null,
    "office_name_kana": null
  },
  "2162": {
    "postcode": "5192162",
    "prefecture": "三重県",
    "prefecture_kana": "ミエケン",
    "prefecture_code": 24,
    "city": "多気郡多気町",
    "city_kana": "タキグンタキチョウ",
    "town": "笠木",
    "town_kana": "カサギ",
    "street": null,
    "office_name": null,
    "office_name_kana": null
  },
  "2163": {
    "postcode": "5192163",
    "prefecture": "三重県",
    "prefecture_kana": "ミエケン",
    "prefecture_code": 24,
    "city": "多気郡多気町",
    "city_kana": "タキグンタキチョウ",
    "town": "矢田",
    "town_kana": "ヤタ",
    "street": null,
    "office_name": null,
    "office_name_kana": null
  },
  "2164": {
    "postcode": "5192164",
    "prefecture": "三重県",
    "prefecture_kana": "ミエケン",
    "prefecture_code": 24,
    "city": "多気郡多気町",
    "city_kana": "タキグンタキチョウ",
    "town": "森荘",
    "town_kana": "モリショウ",
    "street": null,
    "office_name": null,
    "office_name_kana": null
  },
  "2165": {
    "postcode": "5192165",
    "prefecture": "三重県",
    "prefecture_kana": "ミエケン",
    "prefecture_code": 24,
    "city": "多気郡多気町",
    "city_kana": "タキグンタキチョウ",
    "town": "田中",
    "town_kana": "タナカ",
    "street": null,
    "office_name": null,
    "office_name_kana": null
  },
  "2166": {
    "postcode": "5192166",
    "prefecture": "三重県",
    "prefecture_kana": "ミエケン",
    "prefecture_code": 24,
    "city": "多気郡多気町",
    "city_kana": "タキグンタキチョウ",
    "town": "野中",
    "town_kana": "ノナカ",
    "street": null,
    "office_name": null,
    "office_name_kana": null
  },
  "2167": {
    "postcode": "5192167",
    "prefecture": "三重県",
    "prefecture_kana": "ミエケン",
    "prefecture_code": 24,
    "city": "多気郡多気町",
    "city_kana": "タキグンタキチョウ",
    "town": "相鹿瀬",
    "town_kana": "オウカセ",
    "street": null,
    "office_name": null,
    "office_name_kana": null
  },
  "2170": {
    "postcode": "5192170",
    "prefecture": "三重県",
    "prefecture_kana": "ミエケン",
    "prefecture_code": 24,
    "city": "多気郡多気町",
    "city_kana": "タキグンタキチョウ",
    "town": "ヴィソン",
    "town_kana": "ヴィソン",
    "street": null,
    "office_name": null,
    "office_name_kana": null
  },
  "2171": {
    "postcode": "5192171",
    "prefecture": "三重県",
    "prefecture_kana": "ミエケン",
    "prefecture_code": 24,
    "city": "多気郡多気町",
    "city_kana": "タキグンタキチョウ",
    "town": "西山",
    "town_kana": "ニシヤマ",
    "street": null,
    "office_name": null,
    "office_name_kana": null
  },
  "2172": {
    "postcode": "5192172",
    "prefecture": "三重県",
    "prefecture_kana": "ミエケン",
    "prefecture_code": 24,
    "city": "多気郡多気町",
    "city_kana": "タキグンタキチョウ",
    "town": "四神田",
    "town_kana": "シコウダ",
    "street": null,
    "office_name": null,
    "office_name_kana": null
  },
  "2173": {
    "postcode": "5192173",
    "prefecture": "三重県",
    "prefecture_kana": "ミエケン",
    "prefecture_code": 24,
    "city": "多気郡多気町",
    "city_kana": "タキグンタキチョウ",
    "town": "油夫",
    "town_kana": "ユブ",
    "street": null,
    "office_name": null,
    "office_name_kana": null
  },
  "2174": {
    "postcode": "5192174",
    "prefecture": "三重県",
    "prefecture_kana": "ミエケン",
    "prefecture_code": 24,
    "city": "多気郡多気町",
    "city_kana": "タキグンタキチョウ",
    "town": "五桂",
    "town_kana": "ゴカツラ",
    "street": null,
    "office_name": null,
    "office_name_kana": null
  },
  "2175": {
    "postcode": "5192175",
    "prefecture": "三重県",
    "prefecture_kana": "ミエケン",
    "prefecture_code": 24,
    "city": "多気郡多気町",
    "city_kana": "タキグンタキチョウ",
    "town": "前村",
    "town_kana": "マエムラ",
    "street": null,
    "office_name": null,
    "office_name_kana": null
  },
  "2176": {
    "postcode": "5192176",
    "prefecture": "三重県",
    "prefecture_kana": "ミエケン",
    "prefecture_code": 24,
    "city": "多気郡多気町",
    "city_kana": "タキグンタキチョウ",
    "town": "長谷",
    "town_kana": "ハセ",
    "street": null,
    "office_name": null,
    "office_name_kana": null
  },
  "2177": {
    "postcode": "5192177",
    "prefecture": "三重県",
    "prefecture_kana": "ミエケン",
    "prefecture_code": 24,
    "city": "多気郡多気町",
    "city_kana": "タキグンタキチョウ",
    "town": "神坂",
    "town_kana": "コウザカ",
    "street": null,
    "office_name": null,
    "office_name_kana": null
  },
  "2178": {
    "postcode": "5192178",
    "prefecture": "三重県",
    "prefecture_kana": "ミエケン",
    "prefecture_code": 24,
    "city": "多気郡多気町",
    "city_kana": "タキグンタキチョウ",
    "town": "平谷",
    "town_kana": "ヒラダニ",
    "street": null,
    "office_name": null,
    "office_name_kana": null
  },
  "2179": {
    "postcode": "5192179",
    "prefecture": "三重県",
    "prefecture_kana": "ミエケン",
    "prefecture_code": 24,
    "city": "多気郡多気町",
    "city_kana": "タキグンタキチョウ",
    "town": "仁田",
    "town_kana": "ニタ",
    "street": null,
    "office_name": null,
    "office_name_kana": null
  },
  "2181": {
    "postcode": "5192181",
    "prefecture": "三重県",
    "prefecture_kana": "ミエケン",
    "prefecture_code": 24,
    "city": "多気郡多気町",
    "city_kana": "タキグンタキチョウ",
    "town": "相可",
    "town_kana": "オウカ",
    "street": null,
    "office_name": null,
    "office_name_kana": null
  },
  "2182": {
    "postcode": "5192182",
    "prefecture": "三重県",
    "prefecture_kana": "ミエケン",
    "prefecture_code": 24,
    "city": "多気郡多気町",
    "city_kana": "タキグンタキチョウ",
    "town": "相可台",
    "town_kana": "オウカダイ",
    "street": null,
    "office_name": null,
    "office_name_kana": null
  },
  "2183": {
    "postcode": "5192183",
    "prefecture": "三重県",
    "prefecture_kana": "ミエケン",
    "prefecture_code": 24,
    "city": "多気郡多気町",
    "city_kana": "タキグンタキチョウ",
    "town": "四疋田",
    "town_kana": "シヒキダ",
    "street": null,
    "office_name": null,
    "office_name_kana": null
  },
  "2184": {
    "postcode": "5192184",
    "prefecture": "三重県",
    "prefecture_kana": "ミエケン",
    "prefecture_code": 24,
    "city": "多気郡多気町",
    "city_kana": "タキグンタキチョウ",
    "town": "三疋田",
    "town_kana": "サンビキダ",
    "street": null,
    "office_name": null,
    "office_name_kana": null
  },
  "2185": {
    "postcode": "5192185",
    "prefecture": "三重県",
    "prefecture_kana": "ミエケン",
    "prefecture_code": 24,
    "city": "多気郡多気町",
    "city_kana": "タキグンタキチョウ",
    "town": "佐伯中",
    "town_kana": "サエキナカ",
    "street": null,
    "office_name": null,
    "office_name_kana": null
  },
  "2186": {
    "postcode": "5192186",
    "prefecture": "三重県",
    "prefecture_kana": "ミエケン",
    "prefecture_code": 24,
    "city": "多気郡多気町",
    "city_kana": "タキグンタキチョウ",
    "town": "井内林",
    "town_kana": "イノウチバヤシ",
    "street": null,
    "office_name": null,
    "office_name_kana": null
  },
  "2187": {
    "postcode": "5192187",
    "prefecture": "三重県",
    "prefecture_kana": "ミエケン",
    "prefecture_code": 24,
    "city": "多気郡多気町",
    "city_kana": "タキグンタキチョウ",
    "town": "鍬形",
    "town_kana": "クワガタ",
    "street": null,
    "office_name": null,
    "office_name_kana": null
  },
  "2188": {
    "postcode": "5192188",
    "prefecture": "三重県",
    "prefecture_kana": "ミエケン",
    "prefecture_code": 24,
    "city": "多気郡多気町",
    "city_kana": "タキグンタキチョウ",
    "town": "牧",
    "town_kana": "マキ",
    "street": null,
    "office_name": null,
    "office_name_kana": null
  },
  "2189": {
    "postcode": "5192189",
    "prefecture": "三重県",
    "prefecture_kana": "ミエケン",
    "prefecture_code": 24,
    "city": "多気郡多気町",
    "city_kana": "タキグンタキチョウ",
    "town": "津留",
    "town_kana": "ツル",
    "street": null,
    "office_name": null,
    "office_name_kana": null
  },
  "2192": {
    "postcode": "5192192",
    "prefecture": "三重県",
    "prefecture_kana": "ミエケン",
    "prefecture_code": 24,
    "city": "多気郡多気町",
    "city_kana": "タキグンタキチョウ",
    "town": "大字五佐奈",
    "town_kana": null,
    "street": "１１７７番地",
    "office_name": "シャープ　株式会社",
    "office_name_kana": "シヤ-プ カブシキガイシヤ"
  },
  "2201": {
    "postcode": "5192201",
    "prefecture": "三重県",
    "prefecture_kana": "ミエケン",
    "prefecture_code": 24,
    "city": "多気郡多気町",
    "city_kana": "タキグンタキチョウ",
    "town": "上出江",
    "town_kana": "カミイズエ",
    "street": null,
    "office_name": null,
    "office_name_kana": null
  },
  "2202": {
    "postcode": "5192202",
    "prefecture": "三重県",
    "prefecture_kana": "ミエケン",
    "prefecture_code": 24,
    "city": "多気郡多気町",
    "city_kana": "タキグンタキチョウ",
    "town": "下出江",
    "town_kana": "シモイズエ",
    "street": null,
    "office_name": null,
    "office_name_kana": null
  },
  "2203": {
    "postcode": "5192203",
    "prefecture": "三重県",
    "prefecture_kana": "ミエケン",
    "prefecture_code": 24,
    "city": "多気郡多気町",
    "city_kana": "タキグンタキチョウ",
    "town": "片野",
    "town_kana": "カタノ",
    "street": null,
    "office_name": null,
    "office_name_kana": null
  },
  "2204": {
    "postcode": "5192204",
    "prefecture": "三重県",
    "prefecture_kana": "ミエケン",
    "prefecture_code": 24,
    "city": "多気郡多気町",
    "city_kana": "タキグンタキチョウ",
    "town": "波多瀬",
    "town_kana": "ハタセ",
    "street": null,
    "office_name": null,
    "office_name_kana": null
  },
  "2211": {
    "postcode": "5192211",
    "prefecture": "三重県",
    "prefecture_kana": "ミエケン",
    "prefecture_code": 24,
    "city": "多気郡多気町",
    "city_kana": "タキグンタキチョウ",
    "town": "丹生",
    "town_kana": "ニウ",
    "street": null,
    "office_name": null,
    "office_name_kana": null
  },
  "2212": {
    "postcode": "5192212",
    "prefecture": "三重県",
    "prefecture_kana": "ミエケン",
    "prefecture_code": 24,
    "city": "多気郡多気町",
    "city_kana": "タキグンタキチョウ",
    "town": "色太",
    "town_kana": "シキフト",
    "street": null,
    "office_name": null,
    "office_name_kana": null
  },
  "2213": {
    "postcode": "5192213",
    "prefecture": "三重県",
    "prefecture_kana": "ミエケン",
    "prefecture_code": 24,
    "city": "多気郡多気町",
    "city_kana": "タキグンタキチョウ",
    "town": "土屋",
    "town_kana": "ツチヤ",
    "street": null,
    "office_name": null,
    "office_name_kana": null
  },
  "2214": {
    "postcode": "5192214",
    "prefecture": "三重県",
    "prefecture_kana": "ミエケン",
    "prefecture_code": 24,
    "city": "多気郡多気町",
    "city_kana": "タキグンタキチョウ",
    "town": "車川",
    "town_kana": "クルマガワ",
    "street": null,
    "office_name": null,
    "office_name_kana": null
  },
  "2215": {
    "postcode": "5192215",
    "prefecture": "三重県",
    "prefecture_kana": "ミエケン",
    "prefecture_code": 24,
    "city": "多気郡多気町",
    "city_kana": "タキグンタキチョウ",
    "town": "朝柄",
    "town_kana": "アサガラ",
    "street": null,
    "office_name": null,
    "office_name_kana": null
  },
  "2216": {
    "postcode": "5192216",
    "prefecture": "三重県",
    "prefecture_kana": "ミエケン",
    "prefecture_code": 24,
    "city": "多気郡多気町",
    "city_kana": "タキグンタキチョウ",
    "town": "古江",
    "town_kana": "フルエ",
    "street": null,
    "office_name": null,
    "office_name_kana": null
  },
  "2400": {
    "postcode": "5192400",
    "prefecture": "三重県",
    "prefecture_kana": "ミエケン",
    "prefecture_code": 24,
    "city": "多気郡大台町",
    "city_kana": "タキグンオオダイチョウ",
    "town": "",
    "town_kana": "",
    "street": null,
    "office_name": null,
    "office_name_kana": null
  },
  "2401": {
    "postcode": "5192401",
    "prefecture": "三重県",
    "prefecture_kana": "ミエケン",
    "prefecture_code": 24,
    "city": "多気郡大台町",
    "city_kana": "タキグンオオダイチョウ",
    "town": "長ケ",
    "town_kana": "ナガ",
    "street": null,
    "office_name": null,
    "office_name_kana": null
  },
  "2402": {
    "postcode": "5192402",
    "prefecture": "三重県",
    "prefecture_kana": "ミエケン",
    "prefecture_code": 24,
    "city": "多気郡大台町",
    "city_kana": "タキグンオオダイチョウ",
    "town": "下三瀬",
    "town_kana": "シモミセ",
    "street": null,
    "office_name": null,
    "office_name_kana": null
  },
  "2403": {
    "postcode": "5192403",
    "prefecture": "三重県",
    "prefecture_kana": "ミエケン",
    "prefecture_code": 24,
    "city": "多気郡大台町",
    "city_kana": "タキグンオオダイチョウ",
    "town": "上三瀬",
    "town_kana": "カミミセ",
    "street": null,
    "office_name": null,
    "office_name_kana": null
  },
  "2404": {
    "postcode": "5192404",
    "prefecture": "三重県",
    "prefecture_kana": "ミエケン",
    "prefecture_code": 24,
    "city": "多気郡大台町",
    "city_kana": "タキグンオオダイチョウ",
    "town": "佐原",
    "town_kana": "サワラ",
    "street": null,
    "office_name": null,
    "office_name_kana": null
  },
  "2405": {
    "postcode": "5192405",
    "prefecture": "三重県",
    "prefecture_kana": "ミエケン",
    "prefecture_code": 24,
    "city": "多気郡大台町",
    "city_kana": "タキグンオオダイチョウ",
    "town": "弥起井",
    "town_kana": "ヤキイ",
    "street": null,
    "office_name": null,
    "office_name_kana": null
  },
  "2411": {
    "postcode": "5192411",
    "prefecture": "三重県",
    "prefecture_kana": "ミエケン",
    "prefecture_code": 24,
    "city": "多気郡大台町",
    "city_kana": "タキグンオオダイチョウ",
    "town": "上菅",
    "town_kana": "カミスガ",
    "street": null,
    "office_name": null,
    "office_name_kana": null
  },
  "2412": [
    {
      "postcode": "5192412",
      "prefecture": "三重県",
      "prefecture_kana": "ミエケン",
      "prefecture_code": 24,
      "city": "多気郡大台町",
      "city_kana": "タキグンオオダイチョウ",
      "town": "川合",
      "town_kana": "カワイ",
      "street": null,
      "office_name": null,
      "office_name_kana": null
    },
    {
      "postcode": "5192412",
      "prefecture": "三重県",
      "prefecture_kana": "ミエケン",
      "prefecture_code": 24,
      "city": "多気郡大台町",
      "city_kana": "タキグンオオダイチョウ",
      "town": "下菅",
      "town_kana": "シモスガ",
      "street": null,
      "office_name": null,
      "office_name_kana": null
    },
    {
      "postcode": "5192412",
      "prefecture": "三重県",
      "prefecture_kana": "ミエケン",
      "prefecture_code": 24,
      "city": "多気郡大台町",
      "city_kana": "タキグンオオダイチョウ",
      "town": "菅合",
      "town_kana": "スガアイ",
      "street": null,
      "office_name": null,
      "office_name_kana": null
    },
    {
      "postcode": "5192412",
      "prefecture": "三重県",
      "prefecture_kana": "ミエケン",
      "prefecture_code": 24,
      "city": "多気郡大台町",
      "city_kana": "タキグンオオダイチョウ",
      "town": "滝広",
      "town_kana": "タキヒロ",
      "street": null,
      "office_name": null,
      "office_name_kana": null
    }
  ],
  "2413": {
    "postcode": "5192413",
    "prefecture": "三重県",
    "prefecture_kana": "ミエケン",
    "prefecture_code": 24,
    "city": "多気郡大台町",
    "city_kana": "タキグンオオダイチョウ",
    "town": "大ケ所",
    "town_kana": "オオガショ",
    "street": null,
    "office_name": null,
    "office_name_kana": null
  },
  "2421": {
    "postcode": "5192421",
    "prefecture": "三重県",
    "prefecture_kana": "ミエケン",
    "prefecture_code": 24,
    "city": "多気郡大台町",
    "city_kana": "タキグンオオダイチョウ",
    "town": "千代",
    "town_kana": "センダイ",
    "street": null,
    "office_name": null,
    "office_name_kana": null
  },
  "2422": {
    "postcode": "5192422",
    "prefecture": "三重県",
    "prefecture_kana": "ミエケン",
    "prefecture_code": 24,
    "city": "多気郡大台町",
    "city_kana": "タキグンオオダイチョウ",
    "town": "柳原",
    "town_kana": "ヤナギハラ",
    "street": null,
    "office_name": null,
    "office_name_kana": null
  },
  "2423": {
    "postcode": "5192423",
    "prefecture": "三重県",
    "prefecture_kana": "ミエケン",
    "prefecture_code": 24,
    "city": "多気郡大台町",
    "city_kana": "タキグンオオダイチョウ",
    "town": "新田",
    "town_kana": "シンデン",
    "street": null,
    "office_name": null,
    "office_name_kana": null
  },
  "2424": {
    "postcode": "5192424",
    "prefecture": "三重県",
    "prefecture_kana": "ミエケン",
    "prefecture_code": 24,
    "city": "多気郡大台町",
    "city_kana": "タキグンオオダイチョウ",
    "town": "栃原",
    "town_kana": "トチハラ",
    "street": null,
    "office_name": null,
    "office_name_kana": null
  },
  "2425": {
    "postcode": "5192425",
    "prefecture": "三重県",
    "prefecture_kana": "ミエケン",
    "prefecture_code": 24,
    "city": "多気郡大台町",
    "city_kana": "タキグンオオダイチョウ",
    "town": "神瀬",
    "town_kana": "カミゼ",
    "street": null,
    "office_name": null,
    "office_name_kana": null
  },
  "2426": {
    "postcode": "5192426",
    "prefecture": "三重県",
    "prefecture_kana": "ミエケン",
    "prefecture_code": 24,
    "city": "多気郡大台町",
    "city_kana": "タキグンオオダイチョウ",
    "town": "下楠",
    "town_kana": "シモクス",
    "street": null,
    "office_name": null,
    "office_name_kana": null
  },
  "2427": {
    "postcode": "5192427",
    "prefecture": "三重県",
    "prefecture_kana": "ミエケン",
    "prefecture_code": 24,
    "city": "多気郡大台町",
    "city_kana": "タキグンオオダイチョウ",
    "town": "上楠",
    "town_kana": "カミクス",
    "street": null,
    "office_name": null,
    "office_name_kana": null
  },
  "2428": {
    "postcode": "5192428",
    "prefecture": "三重県",
    "prefecture_kana": "ミエケン",
    "prefecture_code": 24,
    "city": "多気郡大台町",
    "city_kana": "タキグンオオダイチョウ",
    "town": "粟生",
    "town_kana": "アオ",
    "street": null,
    "office_name": null,
    "office_name_kana": null
  },
  "2429": {
    "postcode": "5192429",
    "prefecture": "三重県",
    "prefecture_kana": "ミエケン",
    "prefecture_code": 24,
    "city": "多気郡大台町",
    "city_kana": "タキグンオオダイチョウ",
    "town": "高奈",
    "town_kana": "タカナ",
    "street": null,
    "office_name": null,
    "office_name_kana": null
  },
  "2501": {
    "postcode": "5192501",
    "prefecture": "三重県",
    "prefecture_kana": "ミエケン",
    "prefecture_code": 24,
    "city": "多気郡大台町",
    "city_kana": "タキグンオオダイチョウ",
    "town": "下真手",
    "town_kana": "シモマテ",
    "street": null,
    "office_name": null,
    "office_name_kana": null
  },
  "2502": {
    "postcode": "5192502",
    "prefecture": "三重県",
    "prefecture_kana": "ミエケン",
    "prefecture_code": 24,
    "city": "多気郡大台町",
    "city_kana": "タキグンオオダイチョウ",
    "town": "上真手",
    "town_kana": "カミマテ",
    "street": null,
    "office_name": null,
    "office_name_kana": null
  },
  "2503": {
    "postcode": "5192503",
    "prefecture": "三重県",
    "prefecture_kana": "ミエケン",
    "prefecture_code": 24,
    "city": "多気郡大台町",
    "city_kana": "タキグンオオダイチョウ",
    "town": "本田木屋",
    "town_kana": "ホンダゴヤ",
    "street": null,
    "office_name": null,
    "office_name_kana": null
  },
  "2504": {
    "postcode": "5192504",
    "prefecture": "三重県",
    "prefecture_kana": "ミエケン",
    "prefecture_code": 24,
    "city": "多気郡大台町",
    "city_kana": "タキグンオオダイチョウ",
    "town": "小切畑",
    "town_kana": "コギリハタ",
    "street": null,
    "office_name": null,
    "office_name_kana": null
  },
  "2505": {
    "postcode": "5192505",
    "prefecture": "三重県",
    "prefecture_kana": "ミエケン",
    "prefecture_code": 24,
    "city": "多気郡大台町",
    "city_kana": "タキグンオオダイチョウ",
    "town": "江馬",
    "town_kana": "エマ",
    "street": null,
    "office_name": null,
    "office_name_kana": null
  },
  "2506": {
    "postcode": "5192506",
    "prefecture": "三重県",
    "prefecture_kana": "ミエケン",
    "prefecture_code": 24,
    "city": "多気郡大台町",
    "city_kana": "タキグンオオダイチョウ",
    "town": "天ケ瀬",
    "town_kana": "アマガセ",
    "street": null,
    "office_name": null,
    "office_name_kana": null
  },
  "2507": {
    "postcode": "5192507",
    "prefecture": "三重県",
    "prefecture_kana": "ミエケン",
    "prefecture_code": 24,
    "city": "多気郡大台町",
    "city_kana": "タキグンオオダイチョウ",
    "town": "栗谷",
    "town_kana": "クリダニ",
    "street": null,
    "office_name": null,
    "office_name_kana": null
  },
  "2511": {
    "postcode": "5192511",
    "prefecture": "三重県",
    "prefecture_kana": "ミエケン",
    "prefecture_code": 24,
    "city": "多気郡大台町",
    "city_kana": "タキグンオオダイチョウ",
    "town": "菅木屋",
    "town_kana": "スガゴヤ",
    "street": null,
    "office_name": null,
    "office_name_kana": null
  },
  "2512": {
    "postcode": "5192512",
    "prefecture": "三重県",
    "prefecture_kana": "ミエケン",
    "prefecture_code": 24,
    "city": "多気郡大台町",
    "city_kana": "タキグンオオダイチョウ",
    "town": "清滝",
    "town_kana": "キヨタキ",
    "street": null,
    "office_name": null,
    "office_name_kana": null
  },
  "2513": {
    "postcode": "5192513",
    "prefecture": "三重県",
    "prefecture_kana": "ミエケン",
    "prefecture_code": 24,
    "city": "多気郡大台町",
    "city_kana": "タキグンオオダイチョウ",
    "town": "薗",
    "town_kana": "ソノ",
    "street": null,
    "office_name": null,
    "office_name_kana": null
  },
  "2514": {
    "postcode": "5192514",
    "prefecture": "三重県",
    "prefecture_kana": "ミエケン",
    "prefecture_code": 24,
    "city": "多気郡大台町",
    "city_kana": "タキグンオオダイチョウ",
    "town": "茂原",
    "town_kana": "モバラ",
    "street": null,
    "office_name": null,
    "office_name_kana": null
  },
  "2515": {
    "postcode": "5192515",
    "prefecture": "三重県",
    "prefecture_kana": "ミエケン",
    "prefecture_code": 24,
    "city": "多気郡大台町",
    "city_kana": "タキグンオオダイチョウ",
    "town": "熊内",
    "town_kana": "クモチ",
    "street": null,
    "office_name": null,
    "office_name_kana": null
  },
  "2516": {
    "postcode": "5192516",
    "prefecture": "三重県",
    "prefecture_kana": "ミエケン",
    "prefecture_code": 24,
    "city": "多気郡大台町",
    "city_kana": "タキグンオオダイチョウ",
    "town": "唐櫃",
    "town_kana": "カラト",
    "street": null,
    "office_name": null,
    "office_name_kana": null
  },
  "2517": {
    "postcode": "5192517",
    "prefecture": "三重県",
    "prefecture_kana": "ミエケン",
    "prefecture_code": 24,
    "city": "多気郡大台町",
    "city_kana": "タキグンオオダイチョウ",
    "town": "南",
    "town_kana": "ミナミ",
    "street": null,
    "office_name": null,
    "office_name_kana": null
  },
  "2518": {
    "postcode": "5192518",
    "prefecture": "三重県",
    "prefecture_kana": "ミエケン",
    "prefecture_code": 24,
    "city": "多気郡大台町",
    "city_kana": "タキグンオオダイチョウ",
    "town": "大井",
    "town_kana": "オオイ",
    "street": null,
    "office_name": null,
    "office_name_kana": null
  },
  "2521": {
    "postcode": "5192521",
    "prefecture": "三重県",
    "prefecture_kana": "ミエケン",
    "prefecture_code": 24,
    "city": "多気郡大台町",
    "city_kana": "タキグンオオダイチョウ",
    "town": "明豆",
    "town_kana": "ミョウズ",
    "street": null,
    "office_name": null,
    "office_name_kana": null
  },
  "2522": {
    "postcode": "5192522",
    "prefecture": "三重県",
    "prefecture_kana": "ミエケン",
    "prefecture_code": 24,
    "city": "多気郡大台町",
    "city_kana": "タキグンオオダイチョウ",
    "town": "御棟",
    "town_kana": "オムナギ",
    "street": null,
    "office_name": null,
    "office_name_kana": null
  },
  "2523": {
    "postcode": "5192523",
    "prefecture": "三重県",
    "prefecture_kana": "ミエケン",
    "prefecture_code": 24,
    "city": "多気郡大台町",
    "city_kana": "タキグンオオダイチョウ",
    "town": "小滝",
    "town_kana": "コタキ",
    "street": null,
    "office_name": null,
    "office_name_kana": null
  },
  "2524": {
    "postcode": "5192524",
    "prefecture": "三重県",
    "prefecture_kana": "ミエケン",
    "prefecture_code": 24,
    "city": "多気郡大台町",
    "city_kana": "タキグンオオダイチョウ",
    "town": "神滝",
    "town_kana": "コウタキ",
    "street": null,
    "office_name": null,
    "office_name_kana": null
  },
  "2525": {
    "postcode": "5192525",
    "prefecture": "三重県",
    "prefecture_kana": "ミエケン",
    "prefecture_code": 24,
    "city": "多気郡大台町",
    "city_kana": "タキグンオオダイチョウ",
    "town": "滝谷",
    "town_kana": "タキヤ",
    "street": null,
    "office_name": null,
    "office_name_kana": null
  },
  "2592": {
    "postcode": "5192592",
    "prefecture": "三重県",
    "prefecture_kana": "ミエケン",
    "prefecture_code": 24,
    "city": "多気郡大台町",
    "city_kana": "タキグンオオダイチョウ",
    "town": "江馬",
    "town_kana": "エマ",
    "street": "３１６",
    "office_name": "大台町役場　宮川総合支所",
    "office_name_kana": "オオダイチヨウヤクバ ミヤガワソウゴウシシヨ"
  },
  "2593": {
    "postcode": "5192593",
    "prefecture": "三重県",
    "prefecture_kana": "ミエケン",
    "prefecture_code": 24,
    "city": "多気郡大台町",
    "city_kana": "タキグンオオダイチョウ",
    "town": "茂原",
    "town_kana": "モバラ",
    "street": "４８番地",
    "office_name": "三重県立　昴学園高等学校",
    "office_name_kana": "ミエケンリツ スバルガクエンコウトウガツコウ"
  },
  "2631": {
    "postcode": "5192631",
    "prefecture": "三重県",
    "prefecture_kana": "ミエケン",
    "prefecture_code": 24,
    "city": "多気郡大台町",
    "city_kana": "タキグンオオダイチョウ",
    "town": "岩井",
    "town_kana": "イワイ",
    "street": null,
    "office_name": null,
    "office_name_kana": null
  },
  "2632": {
    "postcode": "5192632",
    "prefecture": "三重県",
    "prefecture_kana": "ミエケン",
    "prefecture_code": 24,
    "city": "多気郡大台町",
    "city_kana": "タキグンオオダイチョウ",
    "town": "桧原",
    "town_kana": "キソハラ",
    "street": null,
    "office_name": null,
    "office_name_kana": null
  },
  "2633": {
    "postcode": "5192633",
    "prefecture": "三重県",
    "prefecture_kana": "ミエケン",
    "prefecture_code": 24,
    "city": "多気郡大台町",
    "city_kana": "タキグンオオダイチョウ",
    "town": "久豆",
    "town_kana": "クズ",
    "street": null,
    "office_name": null,
    "office_name_kana": null
  },
  "2634": {
    "postcode": "5192634",
    "prefecture": "三重県",
    "prefecture_kana": "ミエケン",
    "prefecture_code": 24,
    "city": "多気郡大台町",
    "city_kana": "タキグンオオダイチョウ",
    "town": "大杉",
    "town_kana": "オオスギ",
    "street": null,
    "office_name": null,
    "office_name_kana": null
  },
  "2700": {
    "postcode": "5192700",
    "prefecture": "三重県",
    "prefecture_kana": "ミエケン",
    "prefecture_code": 24,
    "city": "度会郡大紀町",
    "city_kana": "ワタライグンタイキチョウ",
    "town": "",
    "town_kana": "",
    "street": null,
    "office_name": null,
    "office_name_kana": null
  },
  "2701": {
    "postcode": "5192701",
    "prefecture": "三重県",
    "prefecture_kana": "ミエケン",
    "prefecture_code": 24,
    "city": "度会郡大紀町",
    "city_kana": "ワタライグンタイキチョウ",
    "town": "船木",
    "town_kana": "フナキ",
    "street": null,
    "office_name": null,
    "office_name_kana": null
  },
  "2702": {
    "postcode": "5192702",
    "prefecture": "三重県",
    "prefecture_kana": "ミエケン",
    "prefecture_code": 24,
    "city": "度会郡大紀町",
    "city_kana": "ワタライグンタイキチョウ",
    "town": "三瀬川",
    "town_kana": "ミセガワ",
    "street": null,
    "office_name": null,
    "office_name_kana": null
  },
  "2703": {
    "postcode": "5192703",
    "prefecture": "三重県",
    "prefecture_kana": "ミエケン",
    "prefecture_code": 24,
    "city": "度会郡大紀町",
    "city_kana": "ワタライグンタイキチョウ",
    "town": "滝原",
    "town_kana": "タキハラ",
    "street": null,
    "office_name": null,
    "office_name_kana": null
  },
  "2704": {
    "postcode": "5192704",
    "prefecture": "三重県",
    "prefecture_kana": "ミエケン",
    "prefecture_code": 24,
    "city": "度会郡大紀町",
    "city_kana": "ワタライグンタイキチョウ",
    "town": "阿曽",
    "town_kana": "アソ",
    "street": null,
    "office_name": null,
    "office_name_kana": null
  },
  "2731": {
    "postcode": "5192731",
    "prefecture": "三重県",
    "prefecture_kana": "ミエケン",
    "prefecture_code": 24,
    "city": "度会郡大紀町",
    "city_kana": "ワタライグンタイキチョウ",
    "town": "野原",
    "town_kana": "ノワラ",
    "street": null,
    "office_name": null,
    "office_name_kana": null
  },
  "2732": {
    "postcode": "5192732",
    "prefecture": "三重県",
    "prefecture_kana": "ミエケン",
    "prefecture_code": 24,
    "city": "度会郡大紀町",
    "city_kana": "ワタライグンタイキチョウ",
    "town": "野添",
    "town_kana": "ノゾエ",
    "street": null,
    "office_name": null,
    "office_name_kana": null
  },
  "2733": {
    "postcode": "5192733",
    "prefecture": "三重県",
    "prefecture_kana": "ミエケン",
    "prefecture_code": 24,
    "city": "度会郡大紀町",
    "city_kana": "ワタライグンタイキチョウ",
    "town": "金輪",
    "town_kana": "カナワ",
    "street": null,
    "office_name": null,
    "office_name_kana": null
  },
  "2734": {
    "postcode": "5192734",
    "prefecture": "三重県",
    "prefecture_kana": "ミエケン",
    "prefecture_code": 24,
    "city": "度会郡大紀町",
    "city_kana": "ワタライグンタイキチョウ",
    "town": "永会",
    "town_kana": "エイカイ",
    "street": null,
    "office_name": null,
    "office_name_kana": null
  },
  "2735": {
    "postcode": "5192735",
    "prefecture": "三重県",
    "prefecture_kana": "ミエケン",
    "prefecture_code": 24,
    "city": "度会郡大紀町",
    "city_kana": "ワタライグンタイキチョウ",
    "town": "神原",
    "town_kana": "コノハラ",
    "street": null,
    "office_name": null,
    "office_name_kana": null
  },
  "2736": {
    "postcode": "5192736",
    "prefecture": "三重県",
    "prefecture_kana": "ミエケン",
    "prefecture_code": 24,
    "city": "度会郡大紀町",
    "city_kana": "ワタライグンタイキチョウ",
    "town": "打見",
    "town_kana": "ウチミ",
    "street": null,
    "office_name": null,
    "office_name_kana": null
  },
  "2792": {
    "postcode": "5192792",
    "prefecture": "三重県",
    "prefecture_kana": "ミエケン",
    "prefecture_code": 24,
    "city": "度会郡大紀町",
    "city_kana": "ワタライグンタイキチョウ",
    "town": "滝原",
    "town_kana": "タキハラ",
    "street": "１６１０−１",
    "office_name": "大紀町役場",
    "office_name_kana": "タイキチヨウヤクバ"
  },
  "2801": {
    "postcode": "5192801",
    "prefecture": "三重県",
    "prefecture_kana": "ミエケン",
    "prefecture_code": 24,
    "city": "度会郡大紀町",
    "city_kana": "ワタライグンタイキチョウ",
    "town": "柏野",
    "town_kana": "カシワノ",
    "street": null,
    "office_name": null,
    "office_name_kana": null
  },
  "2802": {
    "postcode": "5192802",
    "prefecture": "三重県",
    "prefecture_kana": "ミエケン",
    "prefecture_code": 24,
    "city": "度会郡大紀町",
    "city_kana": "ワタライグンタイキチョウ",
    "town": "崎",
    "town_kana": "サキ",
    "street": null,
    "office_name": null,
    "office_name_kana": null
  },
  "2911": {
    "postcode": "5192911",
    "prefecture": "三重県",
    "prefecture_kana": "ミエケン",
    "prefecture_code": 24,
    "city": "度会郡大紀町",
    "city_kana": "ワタライグンタイキチョウ",
    "town": "錦",
    "town_kana": "ニシキ",
    "street": null,
    "office_name": null,
    "office_name_kana": null
  },
  "3111": {
    "postcode": "5193111",
    "prefecture": "三重県",
    "prefecture_kana": "ミエケン",
    "prefecture_code": 24,
    "city": "度会郡大紀町",
    "city_kana": "ワタライグンタイキチョウ",
    "town": "大内山",
    "town_kana": "オオウチヤマ",
    "street": null,
    "office_name": null,
    "office_name_kana": null
  },
  "3201": {
    "postcode": "5193201",
    "prefecture": "三重県",
    "prefecture_kana": "ミエケン",
    "prefecture_code": 24,
    "city": "北牟婁郡紀北町",
    "city_kana": "キタムログンキホクチョウ",
    "town": "十須",
    "town_kana": "ジュウス",
    "street": null,
    "office_name": null,
    "office_name_kana": null
  },
  "3202": {
    "postcode": "5193202",
    "prefecture": "三重県",
    "prefecture_kana": "ミエケン",
    "prefecture_code": 24,
    "city": "北牟婁郡紀北町",
    "city_kana": "キタムログンキホクチョウ",
    "town": "大原",
    "town_kana": "オオハラ",
    "street": null,
    "office_name": null,
    "office_name_kana": null
  },
  "3203": {
    "postcode": "5193203",
    "prefecture": "三重県",
    "prefecture_kana": "ミエケン",
    "prefecture_code": 24,
    "city": "北牟婁郡紀北町",
    "city_kana": "キタムログンキホクチョウ",
    "town": "島原",
    "town_kana": "シマバラ",
    "street": null,
    "office_name": null,
    "office_name_kana": null
  },
  "3204": {
    "postcode": "5193204",
    "prefecture": "三重県",
    "prefecture_kana": "ミエケン",
    "prefecture_code": 24,
    "city": "北牟婁郡紀北町",
    "city_kana": "キタムログンキホクチョウ",
    "town": "東長島",
    "town_kana": "ヒガシナガシマ",
    "street": null,
    "office_name": null,
    "office_name_kana": null
  },
  "3205": {
    "postcode": "5193205",
    "prefecture": "三重県",
    "prefecture_kana": "ミエケン",
    "prefecture_code": 24,
    "city": "北牟婁郡紀北町",
    "city_kana": "キタムログンキホクチョウ",
    "town": "長島",
    "town_kana": "ナガシマ",
    "street": null,
    "office_name": null,
    "office_name_kana": null
  },
  "3206": {
    "postcode": "5193206",
    "prefecture": "三重県",
    "prefecture_kana": "ミエケン",
    "prefecture_code": 24,
    "city": "北牟婁郡紀北町",
    "city_kana": "キタムログンキホクチョウ",
    "town": "海野",
    "town_kana": "カイノ",
    "street": null,
    "office_name": null,
    "office_name_kana": null
  },
  "3207": {
    "postcode": "5193207",
    "prefecture": "三重県",
    "prefecture_kana": "ミエケン",
    "prefecture_code": 24,
    "city": "北牟婁郡紀北町",
    "city_kana": "キタムログンキホクチョウ",
    "town": "道瀬",
    "town_kana": "ドウゼ",
    "street": null,
    "office_name": null,
    "office_name_kana": null
  },
  "3208": {
    "postcode": "5193208",
    "prefecture": "三重県",
    "prefecture_kana": "ミエケン",
    "prefecture_code": 24,
    "city": "北牟婁郡紀北町",
    "city_kana": "キタムログンキホクチョウ",
    "town": "三浦",
    "town_kana": "ミウラ",
    "street": null,
    "office_name": null,
    "office_name_kana": null
  },
  "3209": {
    "postcode": "5193209",
    "prefecture": "三重県",
    "prefecture_kana": "ミエケン",
    "prefecture_code": 24,
    "city": "北牟婁郡紀北町",
    "city_kana": "キタムログンキホクチョウ",
    "town": "古里",
    "town_kana": "フルサト",
    "street": null,
    "office_name": null,
    "office_name_kana": null
  },
  "3292": {
    "postcode": "5193292",
    "prefecture": "三重県",
    "prefecture_kana": "ミエケン",
    "prefecture_code": 24,
    "city": "北牟婁郡紀北町",
    "city_kana": "キタムログンキホクチョウ",
    "town": "紀伊長島区東長島",
    "town_kana": null,
    "street": "７６９番地１",
    "office_name": "紀北町役場",
    "office_name_kana": "キホクチヨウヤクバ"
  },
  "3400": {
    "postcode": "5193400",
    "prefecture": "三重県",
    "prefecture_kana": "ミエケン",
    "prefecture_code": 24,
    "city": "北牟婁郡紀北町",
    "city_kana": "キタムログンキホクチョウ",
    "town": "",
    "town_kana": "",
    "street": null,
    "office_name": null,
    "office_name_kana": null
  },
  "3401": {
    "postcode": "5193401",
    "prefecture": "三重県",
    "prefecture_kana": "ミエケン",
    "prefecture_code": 24,
    "city": "北牟婁郡紀北町",
    "city_kana": "キタムログンキホクチョウ",
    "town": "馬瀬",
    "town_kana": "ウマゼ",
    "street": null,
    "office_name": null,
    "office_name_kana": null
  },
  "3402": {
    "postcode": "5193402",
    "prefecture": "三重県",
    "prefecture_kana": "ミエケン",
    "prefecture_code": 24,
    "city": "北牟婁郡紀北町",
    "city_kana": "キタムログンキホクチョウ",
    "town": "河内",
    "town_kana": "コウチ",
    "street": null,
    "office_name": null,
    "office_name_kana": null
  },
  "3403": {
    "postcode": "5193403",
    "prefecture": "三重県",
    "prefecture_kana": "ミエケン",
    "prefecture_code": 24,
    "city": "北牟婁郡紀北町",
    "city_kana": "キタムログンキホクチョウ",
    "town": "上里",
    "town_kana": "カミザト",
    "street": null,
    "office_name": null,
    "office_name_kana": null
  },
  "3404": {
    "postcode": "5193404",
    "prefecture": "三重県",
    "prefecture_kana": "ミエケン",
    "prefecture_code": 24,
    "city": "北牟婁郡紀北町",
    "city_kana": "キタムログンキホクチョウ",
    "town": "中里",
    "town_kana": "ナカザト",
    "street": null,
    "office_name": null,
    "office_name_kana": null
  },
  "3405": {
    "postcode": "5193405",
    "prefecture": "三重県",
    "prefecture_kana": "ミエケン",
    "prefecture_code": 24,
    "city": "北牟婁郡紀北町",
    "city_kana": "キタムログンキホクチョウ",
    "town": "船津",
    "town_kana": "フナツ",
    "street": null,
    "office_name": null,
    "office_name_kana": null
  },
  "3406": {
    "postcode": "5193406",
    "prefecture": "三重県",
    "prefecture_kana": "ミエケン",
    "prefecture_code": 24,
    "city": "北牟婁郡紀北町",
    "city_kana": "キタムログンキホクチョウ",
    "town": "相賀",
    "town_kana": "アイガ",
    "street": null,
    "office_name": null,
    "office_name_kana": null
  },
  "3407": {
    "postcode": "5193407",
    "prefecture": "三重県",
    "prefecture_kana": "ミエケン",
    "prefecture_code": 24,
    "city": "北牟婁郡紀北町",
    "city_kana": "キタムログンキホクチョウ",
    "town": "小山浦",
    "town_kana": "オヤマウラ",
    "street": null,
    "office_name": null,
    "office_name_kana": null
  },
  "3408": {
    "postcode": "5193408",
    "prefecture": "三重県",
    "prefecture_kana": "ミエケン",
    "prefecture_code": 24,
    "city": "北牟婁郡紀北町",
    "city_kana": "キタムログンキホクチョウ",
    "town": "便ノ山",
    "town_kana": "ビンノヤマ",
    "street": null,
    "office_name": null,
    "office_name_kana": null
  },
  "3411": {
    "postcode": "5193411",
    "prefecture": "三重県",
    "prefecture_kana": "ミエケン",
    "prefecture_code": 24,
    "city": "北牟婁郡紀北町",
    "city_kana": "キタムログンキホクチョウ",
    "town": "白浦",
    "town_kana": "シロウラ",
    "street": null,
    "office_name": null,
    "office_name_kana": null
  },
  "3412": {
    "postcode": "5193412",
    "prefecture": "三重県",
    "prefecture_kana": "ミエケン",
    "prefecture_code": 24,
    "city": "北牟婁郡紀北町",
    "city_kana": "キタムログンキホクチョウ",
    "town": "島勝浦",
    "town_kana": "シマカツウラ",
    "street": null,
    "office_name": null,
    "office_name_kana": null
  },
  "3413": {
    "postcode": "5193413",
    "prefecture": "三重県",
    "prefecture_kana": "ミエケン",
    "prefecture_code": 24,
    "city": "北牟婁郡紀北町",
    "city_kana": "キタムログンキホクチョウ",
    "town": "引本浦",
    "town_kana": "ヒキモトウラ",
    "street": null,
    "office_name": null,
    "office_name_kana": null
  },
  "3414": {
    "postcode": "5193414",
    "prefecture": "三重県",
    "prefecture_kana": "ミエケン",
    "prefecture_code": 24,
    "city": "北牟婁郡紀北町",
    "city_kana": "キタムログンキホクチョウ",
    "town": "小浦",
    "town_kana": "オウラ",
    "street": null,
    "office_name": null,
    "office_name_kana": null
  },
  "3415": {
    "postcode": "5193415",
    "prefecture": "三重県",
    "prefecture_kana": "ミエケン",
    "prefecture_code": 24,
    "city": "北牟婁郡紀北町",
    "city_kana": "キタムログンキホクチョウ",
    "town": "矢口浦",
    "town_kana": "ヤグチウラ",
    "street": null,
    "office_name": null,
    "office_name_kana": null
  },
  "3421": {
    "postcode": "5193421",
    "prefecture": "三重県",
    "prefecture_kana": "ミエケン",
    "prefecture_code": 24,
    "city": "尾鷲市",
    "city_kana": "オワセシ",
    "town": "須賀利町",
    "town_kana": "スガリチョウ",
    "street": null,
    "office_name": null,
    "office_name_kana": null
  },
  "3492": {
    "postcode": "5193492",
    "prefecture": "三重県",
    "prefecture_kana": "ミエケン",
    "prefecture_code": 24,
    "city": "北牟婁郡紀北町",
    "city_kana": "キタムログンキホクチョウ",
    "town": "海山区相賀",
    "town_kana": null,
    "street": "４９５番地８",
    "office_name": "紀北町　海山総合支所",
    "office_name_kana": "キホクチヨウ ミヤマソウゴウシシヨ"
  },
  "3600": {
    "postcode": "5193600",
    "prefecture": "三重県",
    "prefecture_kana": "ミエケン",
    "prefecture_code": 24,
    "city": "尾鷲市",
    "city_kana": "オワセシ",
    "town": "",
    "town_kana": "",
    "street": null,
    "office_name": null,
    "office_name_kana": null
  },
  "3601": [
    {
      "postcode": "5193601",
      "prefecture": "三重県",
      "prefecture_kana": "ミエケン",
      "prefecture_code": 24,
      "city": "尾鷲市",
      "city_kana": "オワセシ",
      "town": "南浦",
      "town_kana": "ミナミウラ",
      "street": null,
      "office_name": null,
      "office_name_kana": null
    },
    {
      "postcode": "5193601",
      "prefecture": "三重県",
      "prefecture_kana": "ミエケン",
      "prefecture_code": 24,
      "city": "尾鷲市",
      "city_kana": "オワセシ",
      "town": "南浦天満",
      "town_kana": "ミナミウラテンマ",
      "street": null,
      "office_name": null,
      "office_name_kana": null
    }
  ],
  "3602": {
    "postcode": "5193602",
    "prefecture": "三重県",
    "prefecture_kana": "ミエケン",
    "prefecture_code": 24,
    "city": "尾鷲市",
    "city_kana": "オワセシ",
    "town": "天満浦",
    "town_kana": "テンマウラ",
    "street": null,
    "office_name": null,
    "office_name_kana": null
  },
  "3604": {
    "postcode": "5193604",
    "prefecture": "三重県",
    "prefecture_kana": "ミエケン",
    "prefecture_code": 24,
    "city": "尾鷲市",
    "city_kana": "オワセシ",
    "town": "港町",
    "town_kana": "ミナトマチ",
    "street": null,
    "office_name": null,
    "office_name_kana": null
  },
  "3605": {
    "postcode": "5193605",
    "prefecture": "三重県",
    "prefecture_kana": "ミエケン",
    "prefecture_code": 24,
    "city": "尾鷲市",
    "city_kana": "オワセシ",
    "town": "中井町",
    "town_kana": "ナカイマチ",
    "street": null,
    "office_name": null,
    "office_name_kana": null
  },
  "3606": {
    "postcode": "5193606",
    "prefecture": "三重県",
    "prefecture_kana": "ミエケン",
    "prefecture_code": 24,
    "city": "尾鷲市",
    "city_kana": "オワセシ",
    "town": "北浦町",
    "town_kana": "キタウラチョウ",
    "street": null,
    "office_name": null,
    "office_name_kana": null
  },
  "3609": {
    "postcode": "5193609",
    "prefecture": "三重県",
    "prefecture_kana": "ミエケン",
    "prefecture_code": 24,
    "city": "尾鷲市",
    "city_kana": "オワセシ",
    "town": "北浦東町",
    "town_kana": "キタウラヒガシマチ",
    "street": null,
    "office_name": null,
    "office_name_kana": null
  },
  "3610": {
    "postcode": "5193610",
    "prefecture": "三重県",
    "prefecture_kana": "ミエケン",
    "prefecture_code": 24,
    "city": "尾鷲市",
    "city_kana": "オワセシ",
    "town": "北浦西町",
    "town_kana": "キタウラニシマチ",
    "street": null,
    "office_name": null,
    "office_name_kana": null
  },
  "3611": {
    "postcode": "5193611",
    "prefecture": "三重県",
    "prefecture_kana": "ミエケン",
    "prefecture_code": 24,
    "city": "尾鷲市",
    "city_kana": "オワセシ",
    "town": "朝日町",
    "town_kana": "アサヒマチ",
    "street": null,
    "office_name": null,
    "office_name_kana": null
  },
  "3612": {
    "postcode": "5193612",
    "prefecture": "三重県",
    "prefecture_kana": "ミエケン",
    "prefecture_code": 24,
    "city": "尾鷲市",
    "city_kana": "オワセシ",
    "town": "林町",
    "town_kana": "ハヤシマチ",
    "street": null,
    "office_name": null,
    "office_name_kana": null
  },
  "3613": [
    {
      "postcode": "5193613",
      "prefecture": "三重県",
      "prefecture_kana": "ミエケン",
      "prefecture_code": 24,
      "city": "尾鷲市",
      "city_kana": "オワセシ",
      "town": "瀬木山町",
      "town_kana": "セギヤマチョウ",
      "street": null,
      "office_name": null,
      "office_name_kana": null
    },
    {
      "postcode": "5193613",
      "prefecture": "三重県",
      "prefecture_kana": "ミエケン",
      "prefecture_code": 24,
      "city": "尾鷲市",
      "city_kana": "オワセシ",
      "town": "南浦",
      "town_kana": "ミナミウラ",
      "street": null,
      "office_name": null,
      "office_name_kana": null
    },
    {
      "postcode": "5193613",
      "prefecture": "三重県",
      "prefecture_kana": "ミエケン",
      "prefecture_code": 24,
      "city": "尾鷲市",
      "city_kana": "オワセシ",
      "town": "南浦林",
      "town_kana": "ミナミウラハヤシ",
      "street": null,
      "office_name": null,
      "office_name_kana": null
    }
  ],
  "3614": {
    "postcode": "5193614",
    "prefecture": "三重県",
    "prefecture_kana": "ミエケン",
    "prefecture_code": 24,
    "city": "尾鷲市",
    "city_kana": "オワセシ",
    "town": "南陽町",
    "town_kana": "ナンヨウチョウ",
    "street": null,
    "office_name": null,
    "office_name_kana": null
  },
  "3615": {
    "postcode": "5193615",
    "prefecture": "三重県",
    "prefecture_kana": "ミエケン",
    "prefecture_code": 24,
    "city": "尾鷲市",
    "city_kana": "オワセシ",
    "town": "中央町",
    "town_kana": "チュウオウチョウ",
    "street": null,
    "office_name": null,
    "office_name_kana": null
  },
  "3616": {
    "postcode": "5193616",
    "prefecture": "三重県",
    "prefecture_kana": "ミエケン",
    "prefecture_code": 24,
    "city": "尾鷲市",
    "city_kana": "オワセシ",
    "town": "中村町",
    "town_kana": "ナカムラチョウ",
    "street": null,
    "office_name": null,
    "office_name_kana": null
  },
  "3617": {
    "postcode": "5193617",
    "prefecture": "三重県",
    "prefecture_kana": "ミエケン",
    "prefecture_code": 24,
    "city": "尾鷲市",
    "city_kana": "オワセシ",
    "town": "野地町",
    "town_kana": "ノジマチ",
    "street": null,
    "office_name": null,
    "office_name_kana": null
  },
  "3618": {
    "postcode": "5193618",
    "prefecture": "三重県",
    "prefecture_kana": "ミエケン",
    "prefecture_code": 24,
    "city": "尾鷲市",
    "city_kana": "オワセシ",
    "town": "栄町",
    "town_kana": "サカエマチ",
    "street": null,
    "office_name": null,
    "office_name_kana": null
  },
  "3619": {
    "postcode": "5193619",
    "prefecture": "三重県",
    "prefecture_kana": "ミエケン",
    "prefecture_code": 24,
    "city": "尾鷲市",
    "city_kana": "オワセシ",
    "town": "馬越町",
    "town_kana": "マゴセチョウ",
    "street": null,
    "office_name": null,
    "office_name_kana": null
  },
  "3620": {
    "postcode": "5193620",
    "prefecture": "三重県",
    "prefecture_kana": "ミエケン",
    "prefecture_code": 24,
    "city": "尾鷲市",
    "city_kana": "オワセシ",
    "town": "座ノ下町",
    "town_kana": "ザノシタチョウ",
    "street": null,
    "office_name": null,
    "office_name_kana": null
  },
  "3621": {
    "postcode": "5193621",
    "prefecture": "三重県",
    "prefecture_kana": "ミエケン",
    "prefecture_code": 24,
    "city": "尾鷲市",
    "city_kana": "オワセシ",
    "town": "行野浦",
    "town_kana": "ユクノウラ",
    "street": null,
    "office_name": null,
    "office_name_kana": null
  },
  "3623": {
    "postcode": "5193623",
    "prefecture": "三重県",
    "prefecture_kana": "ミエケン",
    "prefecture_code": 24,
    "city": "尾鷲市",
    "city_kana": "オワセシ",
    "town": "大曽根浦",
    "town_kana": "オオソネウラ",
    "street": null,
    "office_name": null,
    "office_name_kana": null
  },
  "3625": {
    "postcode": "5193625",
    "prefecture": "三重県",
    "prefecture_kana": "ミエケン",
    "prefecture_code": 24,
    "city": "尾鷲市",
    "city_kana": "オワセシ",
    "town": "向井",
    "town_kana": "ムカイ",
    "street": null,
    "office_name": null,
    "office_name_kana": null
  },
  "3626": {
    "postcode": "5193626",
    "prefecture": "三重県",
    "prefecture_kana": "ミエケン",
    "prefecture_code": 24,
    "city": "尾鷲市",
    "city_kana": "オワセシ",
    "town": "国市松泉町",
    "town_kana": "クニシショウセンチョウ",
    "street": null,
    "office_name": null,
    "office_name_kana": null
  },
  "3634": [
    {
      "postcode": "5193634",
      "prefecture": "三重県",
      "prefecture_kana": "ミエケン",
      "prefecture_code": 24,
      "city": "尾鷲市",
      "city_kana": "オワセシ",
      "town": "南浦",
      "town_kana": "ミナミウラ",
      "street": null,
      "office_name": null,
      "office_name_kana": null
    },
    {
      "postcode": "5193634",
      "prefecture": "三重県",
      "prefecture_kana": "ミエケン",
      "prefecture_code": 24,
      "city": "尾鷲市",
      "city_kana": "オワセシ",
      "town": "南浦矢浜",
      "town_kana": "ミナミウラヤノハマ",
      "street": null,
      "office_name": null,
      "office_name_kana": null
    }
  ],
  "3637": {
    "postcode": "5193637",
    "prefecture": "三重県",
    "prefecture_kana": "ミエケン",
    "prefecture_code": 24,
    "city": "尾鷲市",
    "city_kana": "オワセシ",
    "town": "光ケ丘",
    "town_kana": "ヒカリガオカ",
    "street": null,
    "office_name": null,
    "office_name_kana": null
  },
  "3638": {
    "postcode": "5193638",
    "prefecture": "三重県",
    "prefecture_kana": "ミエケン",
    "prefecture_code": 24,
    "city": "尾鷲市",
    "city_kana": "オワセシ",
    "town": "新田町",
    "town_kana": "シンデンチョウ",
    "street": null,
    "office_name": null,
    "office_name_kana": null
  },
  "3639": {
    "postcode": "5193639",
    "prefecture": "三重県",
    "prefecture_kana": "ミエケン",
    "prefecture_code": 24,
    "city": "尾鷲市",
    "city_kana": "オワセシ",
    "town": "中川",
    "town_kana": "ナカガワ",
    "street": null,
    "office_name": null,
    "office_name_kana": null
  },
  "3640": {
    "postcode": "5193640",
    "prefecture": "三重県",
    "prefecture_kana": "ミエケン",
    "prefecture_code": 24,
    "city": "尾鷲市",
    "city_kana": "オワセシ",
    "town": "桂ケ丘",
    "town_kana": "カツラガオカ",
    "street": null,
    "office_name": null,
    "office_name_kana": null
  },
  "3642": {
    "postcode": "5193642",
    "prefecture": "三重県",
    "prefecture_kana": "ミエケン",
    "prefecture_code": 24,
    "city": "尾鷲市",
    "city_kana": "オワセシ",
    "town": "大滝町",
    "town_kana": "オオタキチョウ",
    "street": null,
    "office_name": null,
    "office_name_kana": null
  },
  "3643": [
    {
      "postcode": "5193643",
      "prefecture": "三重県",
      "prefecture_kana": "ミエケン",
      "prefecture_code": 24,
      "city": "尾鷲市",
      "city_kana": "オワセシ",
      "town": "南浦",
      "town_kana": "ミナミウラ",
      "street": null,
      "office_name": null,
      "office_name_kana": null
    },
    {
      "postcode": "5193643",
      "prefecture": "三重県",
      "prefecture_kana": "ミエケン",
      "prefecture_code": 24,
      "city": "尾鷲市",
      "city_kana": "オワセシ",
      "town": "南浦小原野",
      "town_kana": "ミナミウラオバラノ",
      "street": null,
      "office_name": null,
      "office_name_kana": null
    }
  ],
  "3646": {
    "postcode": "5193646",
    "prefecture": "三重県",
    "prefecture_kana": "ミエケン",
    "prefecture_code": 24,
    "city": "尾鷲市",
    "city_kana": "オワセシ",
    "town": "泉町",
    "town_kana": "イズミチョウ",
    "street": null,
    "office_name": null,
    "office_name_kana": null
  },
  "3647": {
    "postcode": "5193647",
    "prefecture": "三重県",
    "prefecture_kana": "ミエケン",
    "prefecture_code": 24,
    "city": "尾鷲市",
    "city_kana": "オワセシ",
    "town": "小川西町",
    "town_kana": "コガワニシマチ",
    "street": null,
    "office_name": null,
    "office_name_kana": null
  },
  "3648": {
    "postcode": "5193648",
    "prefecture": "三重県",
    "prefecture_kana": "ミエケン",
    "prefecture_code": 24,
    "city": "尾鷲市",
    "city_kana": "オワセシ",
    "town": "小川東町",
    "town_kana": "コガワヒガシマチ",
    "street": null,
    "office_name": null,
    "office_name_kana": null
  },
  "3651": {
    "postcode": "5193651",
    "prefecture": "三重県",
    "prefecture_kana": "ミエケン",
    "prefecture_code": 24,
    "city": "尾鷲市",
    "city_kana": "オワセシ",
    "town": "末広町",
    "town_kana": "スエヒロチョウ",
    "street": null,
    "office_name": null,
    "office_name_kana": null
  },
  "3652": {
    "postcode": "5193652",
    "prefecture": "三重県",
    "prefecture_kana": "ミエケン",
    "prefecture_code": 24,
    "city": "尾鷲市",
    "city_kana": "オワセシ",
    "town": "古戸町",
    "town_kana": "コドチョウ",
    "street": null,
    "office_name": null,
    "office_name_kana": null
  },
  "3653": {
    "postcode": "5193653",
    "prefecture": "三重県",
    "prefecture_kana": "ミエケン",
    "prefecture_code": 24,
    "city": "尾鷲市",
    "city_kana": "オワセシ",
    "town": "上野町",
    "town_kana": "ウエノチョウ",
    "street": null,
    "office_name": null,
    "office_name_kana": null
  },
  "3656": [
    {
      "postcode": "5193656",
      "prefecture": "三重県",
      "prefecture_kana": "ミエケン",
      "prefecture_code": 24,
      "city": "尾鷲市",
      "city_kana": "オワセシ",
      "town": "南浦",
      "town_kana": "ミナミウラ",
      "street": null,
      "office_name": null,
      "office_name_kana": null
    },
    {
      "postcode": "5193656",
      "prefecture": "三重県",
      "prefecture_kana": "ミエケン",
      "prefecture_code": 24,
      "city": "尾鷲市",
      "city_kana": "オワセシ",
      "town": "南浦倉ノ谷",
      "town_kana": "ミナミウラクラノタニ",
      "street": null,
      "office_name": null,
      "office_name_kana": null
    }
  ],
  "3658": {
    "postcode": "5193658",
    "prefecture": "三重県",
    "prefecture_kana": "ミエケン",
    "prefecture_code": 24,
    "city": "尾鷲市",
    "city_kana": "オワセシ",
    "town": "倉ノ谷町",
    "town_kana": "クラノタニチョウ",
    "street": null,
    "office_name": null,
    "office_name_kana": null
  },
  "3659": {
    "postcode": "5193659",
    "prefecture": "三重県",
    "prefecture_kana": "ミエケン",
    "prefecture_code": 24,
    "city": "尾鷲市",
    "city_kana": "オワセシ",
    "town": "古戸野町",
    "town_kana": "コドノチョウ",
    "street": null,
    "office_name": null,
    "office_name_kana": null
  },
  "3663": {
    "postcode": "5193663",
    "prefecture": "三重県",
    "prefecture_kana": "ミエケン",
    "prefecture_code": 24,
    "city": "尾鷲市",
    "city_kana": "オワセシ",
    "town": "宮ノ上町",
    "town_kana": "ミヤノウエチョウ",
    "street": null,
    "office_name": null,
    "office_name_kana": null
  },
  "3664": {
    "postcode": "5193664",
    "prefecture": "三重県",
    "prefecture_kana": "ミエケン",
    "prefecture_code": 24,
    "city": "尾鷲市",
    "city_kana": "オワセシ",
    "town": "坂場町",
    "town_kana": "サカバチョウ",
    "street": null,
    "office_name": null,
    "office_name_kana": null
  },
  "3666": [
    {
      "postcode": "5193666",
      "prefecture": "三重県",
      "prefecture_kana": "ミエケン",
      "prefecture_code": 24,
      "city": "尾鷲市",
      "city_kana": "オワセシ",
      "town": "坂場西町",
      "town_kana": "サカバニシマチ",
      "street": null,
      "office_name": null,
      "office_name_kana": null
    },
    {
      "postcode": "5193666",
      "prefecture": "三重県",
      "prefecture_kana": "ミエケン",
      "prefecture_code": 24,
      "city": "尾鷲市",
      "city_kana": "オワセシ",
      "town": "中井浦",
      "town_kana": "ナカイウラ",
      "street": null,
      "office_name": null,
      "office_name_kana": null
    },
    {
      "postcode": "5193666",
      "prefecture": "三重県",
      "prefecture_kana": "ミエケン",
      "prefecture_code": 24,
      "city": "尾鷲市",
      "city_kana": "オワセシ",
      "town": "中井浦坂場",
      "town_kana": "ナカイウラサカバ",
      "street": null,
      "office_name": null,
      "office_name_kana": null
    }
  ],
  "3667": [
    {
      "postcode": "5193667",
      "prefecture": "三重県",
      "prefecture_kana": "ミエケン",
      "prefecture_code": 24,
      "city": "尾鷲市",
      "city_kana": "オワセシ",
      "town": "南浦",
      "town_kana": "ミナミウラ",
      "street": null,
      "office_name": null,
      "office_name_kana": null
    },
    {
      "postcode": "5193667",
      "prefecture": "三重県",
      "prefecture_kana": "ミエケン",
      "prefecture_code": 24,
      "city": "尾鷲市",
      "city_kana": "オワセシ",
      "town": "南浦クチスボ",
      "town_kana": "ミナミウラクチスボ",
      "street": null,
      "office_name": null,
      "office_name_kana": null
    }
  ],
  "3671": {
    "postcode": "5193671",
    "prefecture": "三重県",
    "prefecture_kana": "ミエケン",
    "prefecture_code": 24,
    "city": "尾鷲市",
    "city_kana": "オワセシ",
    "town": "矢浜",
    "town_kana": "ヤノハマ",
    "street": null,
    "office_name": null,
    "office_name_kana": null
  },
  "3672": {
    "postcode": "5193672",
    "prefecture": "三重県",
    "prefecture_kana": "ミエケン",
    "prefecture_code": 24,
    "city": "尾鷲市",
    "city_kana": "オワセシ",
    "town": "矢浜岡崎町",
    "town_kana": "ヤノハマオカザキチョウ",
    "street": null,
    "office_name": null,
    "office_name_kana": null
  },
  "3673": {
    "postcode": "5193673",
    "prefecture": "三重県",
    "prefecture_kana": "ミエケン",
    "prefecture_code": 24,
    "city": "尾鷲市",
    "city_kana": "オワセシ",
    "town": "矢浜大道",
    "town_kana": "ヤノハマオオミチ",
    "street": null,
    "office_name": null,
    "office_name_kana": null
  },
  "3674": {
    "postcode": "5193674",
    "prefecture": "三重県",
    "prefecture_kana": "ミエケン",
    "prefecture_code": 24,
    "city": "尾鷲市",
    "city_kana": "オワセシ",
    "town": "矢浜真砂",
    "town_kana": "ヤノハママサゴ",
    "street": null,
    "office_name": null,
    "office_name_kana": null
  },
  "3692": {
    "postcode": "5193692",
    "prefecture": "三重県",
    "prefecture_kana": "ミエケン",
    "prefecture_code": 24,
    "city": "尾鷲市",
    "city_kana": "オワセシ",
    "town": "林町",
    "town_kana": "ハヤシマチ",
    "street": "２−２３",
    "office_name": "尾鷲社会保険事務所",
    "office_name_kana": "オワセシヤカイホケンジムシヨ"
  },
  "3693": {
    "postcode": "5193693",
    "prefecture": "三重県",
    "prefecture_kana": "ミエケン",
    "prefecture_code": 24,
    "city": "尾鷲市",
    "city_kana": "オワセシ",
    "town": "上野町",
    "town_kana": "ウエノチョウ",
    "street": "５−２５",
    "office_name": "尾鷲総合病院",
    "office_name_kana": "オワセソウゴウビヨウイン"
  },
  "3694": {
    "postcode": "5193694",
    "prefecture": "三重県",
    "prefecture_kana": "ミエケン",
    "prefecture_code": 24,
    "city": "尾鷲市",
    "city_kana": "オワセシ",
    "town": "末広町",
    "town_kana": "スエヒロチョウ",
    "street": "１−３０",
    "office_name": "尾鷲税務署",
    "office_name_kana": "オワセゼイムシヨ"
  },
  "3695": {
    "postcode": "5193695",
    "prefecture": "三重県",
    "prefecture_kana": "ミエケン",
    "prefecture_code": 24,
    "city": "尾鷲市",
    "city_kana": "オワセシ",
    "town": "坂場西町",
    "town_kana": "サカバニシマチ",
    "street": "１−１",
    "office_name": "三重県　紀北県民局",
    "office_name_kana": "ミエケン キホクケンミンキヨク"
  },
  "3696": {
    "postcode": "5193696",
    "prefecture": "三重県",
    "prefecture_kana": "ミエケン",
    "prefecture_code": 24,
    "city": "尾鷲市",
    "city_kana": "オワセシ",
    "town": "中央町",
    "town_kana": "チュウオウチョウ",
    "street": "１０−４３（尾鷲郵便局私書箱第１０号）",
    "office_name": "尾鷲市役所",
    "office_name_kana": "オワセシヤクシヨ"
  },
  "3701": {
    "postcode": "5193701",
    "prefecture": "三重県",
    "prefecture_kana": "ミエケン",
    "prefecture_code": 24,
    "city": "尾鷲市",
    "city_kana": "オワセシ",
    "town": "九鬼町",
    "town_kana": "クキチョウ",
    "street": null,
    "office_name": null,
    "office_name_kana": null
  },
  "3702": {
    "postcode": "5193702",
    "prefecture": "三重県",
    "prefecture_kana": "ミエケン",
    "prefecture_code": 24,
    "city": "尾鷲市",
    "city_kana": "オワセシ",
    "town": "早田町",
    "town_kana": "ハイダチョウ",
    "street": null,
    "office_name": null,
    "office_name_kana": null
  },
  "3811": {
    "postcode": "5193811",
    "prefecture": "三重県",
    "prefecture_kana": "ミエケン",
    "prefecture_code": 24,
    "city": "尾鷲市",
    "city_kana": "オワセシ",
    "town": "三木里町",
    "town_kana": "ミキサトチョウ",
    "street": null,
    "office_name": null,
    "office_name_kana": null
  },
  "3812": {
    "postcode": "5193812",
    "prefecture": "三重県",
    "prefecture_kana": "ミエケン",
    "prefecture_code": 24,
    "city": "尾鷲市",
    "city_kana": "オワセシ",
    "town": "名柄町",
    "town_kana": "ナガラチョウ",
    "street": null,
    "office_name": null,
    "office_name_kana": null
  },
  "3813": {
    "postcode": "5193813",
    "prefecture": "三重県",
    "prefecture_kana": "ミエケン",
    "prefecture_code": 24,
    "city": "尾鷲市",
    "city_kana": "オワセシ",
    "town": "小脇町",
    "town_kana": "コワキチョウ",
    "street": null,
    "office_name": null,
    "office_name_kana": null
  },
  "3814": {
    "postcode": "5193814",
    "prefecture": "三重県",
    "prefecture_kana": "ミエケン",
    "prefecture_code": 24,
    "city": "尾鷲市",
    "city_kana": "オワセシ",
    "town": "三木浦町",
    "town_kana": "ミキウラチョウ",
    "street": null,
    "office_name": null,
    "office_name_kana": null
  },
  "3921": {
    "postcode": "5193921",
    "prefecture": "三重県",
    "prefecture_kana": "ミエケン",
    "prefecture_code": 24,
    "city": "尾鷲市",
    "city_kana": "オワセシ",
    "town": "賀田町",
    "town_kana": "カタチョウ",
    "street": null,
    "office_name": null,
    "office_name_kana": null
  },
  "3922": {
    "postcode": "5193922",
    "prefecture": "三重県",
    "prefecture_kana": "ミエケン",
    "prefecture_code": 24,
    "city": "尾鷲市",
    "city_kana": "オワセシ",
    "town": "古江町",
    "town_kana": "フルエチョウ",
    "street": null,
    "office_name": null,
    "office_name_kana": null
  },
  "3923": {
    "postcode": "5193923",
    "prefecture": "三重県",
    "prefecture_kana": "ミエケン",
    "prefecture_code": 24,
    "city": "尾鷲市",
    "city_kana": "オワセシ",
    "town": "梶賀町",
    "town_kana": "カジカチョウ",
    "street": null,
    "office_name": null,
    "office_name_kana": null
  },
  "3924": {
    "postcode": "5193924",
    "prefecture": "三重県",
    "prefecture_kana": "ミエケン",
    "prefecture_code": 24,
    "city": "尾鷲市",
    "city_kana": "オワセシ",
    "town": "曽根町",
    "town_kana": "ソネチョウ",
    "street": null,
    "office_name": null,
    "office_name_kana": null
  },
  "4201": {
    "postcode": "5194201",
    "prefecture": "三重県",
    "prefecture_kana": "ミエケン",
    "prefecture_code": 24,
    "city": "熊野市",
    "city_kana": "クマノシ",
    "town": "須野町",
    "town_kana": "スノチョウ",
    "street": null,
    "office_name": null,
    "office_name_kana": null
  },
  "4202": {
    "postcode": "5194202",
    "prefecture": "三重県",
    "prefecture_kana": "ミエケン",
    "prefecture_code": 24,
    "city": "熊野市",
    "city_kana": "クマノシ",
    "town": "甫母町",
    "town_kana": "ホボチョウ",
    "street": null,
    "office_name": null,
    "office_name_kana": null
  },
  "4203": {
    "postcode": "5194203",
    "prefecture": "三重県",
    "prefecture_kana": "ミエケン",
    "prefecture_code": 24,
    "city": "熊野市",
    "city_kana": "クマノシ",
    "town": "二木島里町",
    "town_kana": "ニギシマサトチョウ",
    "street": null,
    "office_name": null,
    "office_name_kana": null
  },
  "4204": {
    "postcode": "5194204",
    "prefecture": "三重県",
    "prefecture_kana": "ミエケン",
    "prefecture_code": 24,
    "city": "熊野市",
    "city_kana": "クマノシ",
    "town": "二木島町",
    "town_kana": "ニギシマチョウ",
    "street": null,
    "office_name": null,
    "office_name_kana": null
  },
  "4205": {
    "postcode": "5194205",
    "prefecture": "三重県",
    "prefecture_kana": "ミエケン",
    "prefecture_code": 24,
    "city": "熊野市",
    "city_kana": "クマノシ",
    "town": "遊木町",
    "town_kana": "ユキチョウ",
    "street": null,
    "office_name": null,
    "office_name_kana": null
  },
  "4206": {
    "postcode": "5194206",
    "prefecture": "三重県",
    "prefecture_kana": "ミエケン",
    "prefecture_code": 24,
    "city": "熊野市",
    "city_kana": "クマノシ",
    "town": "新鹿町",
    "town_kana": "アタシカチョウ",
    "street": null,
    "office_name": null,
    "office_name_kana": null
  },
  "4207": {
    "postcode": "5194207",
    "prefecture": "三重県",
    "prefecture_kana": "ミエケン",
    "prefecture_code": 24,
    "city": "熊野市",
    "city_kana": "クマノシ",
    "town": "波田須町",
    "town_kana": "ハダスチョウ",
    "street": null,
    "office_name": null,
    "office_name_kana": null
  },
  "4300": {
    "postcode": "5194300",
    "prefecture": "三重県",
    "prefecture_kana": "ミエケン",
    "prefecture_code": 24,
    "city": "熊野市",
    "city_kana": "クマノシ",
    "town": "",
    "town_kana": "",
    "street": null,
    "office_name": null,
    "office_name_kana": null
  },
  "4321": {
    "postcode": "5194321",
    "prefecture": "三重県",
    "prefecture_kana": "ミエケン",
    "prefecture_code": 24,
    "city": "熊野市",
    "city_kana": "クマノシ",
    "town": "磯崎町",
    "town_kana": "イソザキチョウ",
    "street": null,
    "office_name": null,
    "office_name_kana": null
  },
  "4322": {
    "postcode": "5194322",
    "prefecture": "三重県",
    "prefecture_kana": "ミエケン",
    "prefecture_code": 24,
    "city": "熊野市",
    "city_kana": "クマノシ",
    "town": "大泊町",
    "town_kana": "オオドマリチョウ",
    "street": null,
    "office_name": null,
    "office_name_kana": null
  },
  "4323": {
    "postcode": "5194323",
    "prefecture": "三重県",
    "prefecture_kana": "ミエケン",
    "prefecture_code": 24,
    "city": "熊野市",
    "city_kana": "クマノシ",
    "town": "木本町",
    "town_kana": "キノモトチョウ",
    "street": null,
    "office_name": null,
    "office_name_kana": null
  },
  "4324": {
    "postcode": "5194324",
    "prefecture": "三重県",
    "prefecture_kana": "ミエケン",
    "prefecture_code": 24,
    "city": "熊野市",
    "city_kana": "クマノシ",
    "town": "井戸町",
    "town_kana": "イドチョウ",
    "street": null,
    "office_name": null,
    "office_name_kana": null
  },
  "4325": {
    "postcode": "5194325",
    "prefecture": "三重県",
    "prefecture_kana": "ミエケン",
    "prefecture_code": 24,
    "city": "熊野市",
    "city_kana": "クマノシ",
    "town": "有馬町",
    "town_kana": "アリマチョウ",
    "street": null,
    "office_name": null,
    "office_name_kana": null
  },
  "4326": {
    "postcode": "5194326",
    "prefecture": "三重県",
    "prefecture_kana": "ミエケン",
    "prefecture_code": 24,
    "city": "熊野市",
    "city_kana": "クマノシ",
    "town": "久生屋町",
    "town_kana": "クシヤチョウ",
    "street": null,
    "office_name": null,
    "office_name_kana": null
  },
  "4327": {
    "postcode": "5194327",
    "prefecture": "三重県",
    "prefecture_kana": "ミエケン",
    "prefecture_code": 24,
    "city": "熊野市",
    "city_kana": "クマノシ",
    "town": "金山町",
    "town_kana": "カナヤマチョウ",
    "street": null,
    "office_name": null,
    "office_name_kana": null
  },
  "4392": {
    "postcode": "5194392",
    "prefecture": "三重県",
    "prefecture_kana": "ミエケン",
    "prefecture_code": 24,
    "city": "熊野市",
    "city_kana": "クマノシ",
    "town": "井戸町",
    "town_kana": "イドチョウ",
    "street": "７９６",
    "office_name": "熊野市役所",
    "office_name_kana": "クマノシヤクシヨ"
  },
  "4393": {
    "postcode": "5194393",
    "prefecture": "三重県",
    "prefecture_kana": "ミエケン",
    "prefecture_code": 24,
    "city": "熊野市",
    "city_kana": "クマノシ",
    "town": "井戸町",
    "town_kana": "イドチョウ",
    "street": "３７１",
    "office_name": "三重県　熊野庁舎",
    "office_name_kana": "ミエケン クマノチヨウシヤ"
  },
  "4394": {
    "postcode": "5194394",
    "prefecture": "三重県",
    "prefecture_kana": "ミエケン",
    "prefecture_code": 24,
    "city": "熊野市",
    "city_kana": "クマノシ",
    "town": "木本町",
    "town_kana": "キノモトチョウ",
    "street": "１１０１−４",
    "office_name": "三重県立木本高等学校",
    "office_name_kana": "ミエケンリツキノモトコウトウガツコウ"
  },
  "4395": {
    "postcode": "5194395",
    "prefecture": "三重県",
    "prefecture_kana": "ミエケン",
    "prefecture_code": 24,
    "city": "熊野市",
    "city_kana": "クマノシ",
    "town": "有馬町",
    "town_kana": "アリマチョウ",
    "street": "２８００",
    "office_name": "熊野工業高等専門学校",
    "office_name_kana": "クマノコウギヨウコウトウセンモンガツコウ"
  },
  "4396": {
    "postcode": "5194396",
    "prefecture": "三重県",
    "prefecture_kana": "ミエケン",
    "prefecture_code": 24,
    "city": "熊野市",
    "city_kana": "クマノシ",
    "town": "井戸町",
    "town_kana": "イドチョウ",
    "street": "７８４",
    "office_name": "津地方裁判所　熊野支部",
    "office_name_kana": "ツチホウサイバンシヨ クマノシブ"
  },
  "4441": {
    "postcode": "5194441",
    "prefecture": "三重県",
    "prefecture_kana": "ミエケン",
    "prefecture_code": 24,
    "city": "熊野市",
    "city_kana": "クマノシ",
    "town": "神川町花知",
    "town_kana": "カミカワチョウハナジリ",
    "street": null,
    "office_name": null,
    "office_name_kana": null
  },
  "4442": {
    "postcode": "5194442",
    "prefecture": "三重県",
    "prefecture_kana": "ミエケン",
    "prefecture_code": 24,
    "city": "熊野市",
    "city_kana": "クマノシ",
    "town": "神川町神上",
    "town_kana": "カミカワチョウコウノウエ",
    "street": null,
    "office_name": null,
    "office_name_kana": null
  },
  "4443": {
    "postcode": "5194443",
    "prefecture": "三重県",
    "prefecture_kana": "ミエケン",
    "prefecture_code": 24,
    "city": "熊野市",
    "city_kana": "クマノシ",
    "town": "神川町柳谷",
    "town_kana": "カミカワチョウヤナギダニ",
    "street": null,
    "office_name": null,
    "office_name_kana": null
  },
  "4444": {
    "postcode": "5194444",
    "prefecture": "三重県",
    "prefecture_kana": "ミエケン",
    "prefecture_code": 24,
    "city": "熊野市",
    "city_kana": "クマノシ",
    "town": "神川町長原",
    "town_kana": "カミカワチョウナガハラ",
    "street": null,
    "office_name": null,
    "office_name_kana": null
  },
  "4445": {
    "postcode": "5194445",
    "prefecture": "三重県",
    "prefecture_kana": "ミエケン",
    "prefecture_code": 24,
    "city": "熊野市",
    "city_kana": "クマノシ",
    "town": "育生町粉所",
    "town_kana": "イクセイチョウコドコロ",
    "street": null,
    "office_name": null,
    "office_name_kana": null
  },
  "4446": {
    "postcode": "5194446",
    "prefecture": "三重県",
    "prefecture_kana": "ミエケン",
    "prefecture_code": 24,
    "city": "熊野市",
    "city_kana": "クマノシ",
    "town": "育生町赤倉",
    "town_kana": "イクセイチョウアカグラ",
    "street": null,
    "office_name": null,
    "office_name_kana": null
  },
  "4447": {
    "postcode": "5194447",
    "prefecture": "三重県",
    "prefecture_kana": "ミエケン",
    "prefecture_code": 24,
    "city": "熊野市",
    "city_kana": "クマノシ",
    "town": "育生町尾川",
    "town_kana": "イクセイチョウオガワ",
    "street": null,
    "office_name": null,
    "office_name_kana": null
  },
  "4448": {
    "postcode": "5194448",
    "prefecture": "三重県",
    "prefecture_kana": "ミエケン",
    "prefecture_code": 24,
    "city": "熊野市",
    "city_kana": "クマノシ",
    "town": "育生町大井",
    "town_kana": "イクセイチョウオオイ",
    "street": null,
    "office_name": null,
    "office_name_kana": null
  },
  "4449": {
    "postcode": "5194449",
    "prefecture": "三重県",
    "prefecture_kana": "ミエケン",
    "prefecture_code": 24,
    "city": "熊野市",
    "city_kana": "クマノシ",
    "town": "育生町長井",
    "town_kana": "イクセイチョウナガイ",
    "street": null,
    "office_name": null,
    "office_name_kana": null
  },
  "4561": {
    "postcode": "5194561",
    "prefecture": "三重県",
    "prefecture_kana": "ミエケン",
    "prefecture_code": 24,
    "city": "熊野市",
    "city_kana": "クマノシ",
    "town": "飛鳥町大又",
    "town_kana": "アスカチョウオオマタ",
    "street": null,
    "office_name": null,
    "office_name_kana": null
  },
  "4562": {
    "postcode": "5194562",
    "prefecture": "三重県",
    "prefecture_kana": "ミエケン",
    "prefecture_code": 24,
    "city": "熊野市",
    "city_kana": "クマノシ",
    "town": "飛鳥町小又",
    "town_kana": "アスカチョウコマタ",
    "street": null,
    "office_name": null,
    "office_name_kana": null
  },
  "4563": {
    "postcode": "5194563",
    "prefecture": "三重県",
    "prefecture_kana": "ミエケン",
    "prefecture_code": 24,
    "city": "熊野市",
    "city_kana": "クマノシ",
    "town": "飛鳥町小阪",
    "town_kana": "アスカチョウコザカ",
    "street": null,
    "office_name": null,
    "office_name_kana": null
  },
  "4564": {
    "postcode": "5194564",
    "prefecture": "三重県",
    "prefecture_kana": "ミエケン",
    "prefecture_code": 24,
    "city": "熊野市",
    "city_kana": "クマノシ",
    "town": "飛鳥町佐渡",
    "town_kana": "アスカチョウサワタリ",
    "street": null,
    "office_name": null,
    "office_name_kana": null
  },
  "4565": {
    "postcode": "5194565",
    "prefecture": "三重県",
    "prefecture_kana": "ミエケン",
    "prefecture_code": 24,
    "city": "熊野市",
    "city_kana": "クマノシ",
    "town": "飛鳥町野口",
    "town_kana": "アスカチョウノグチ",
    "street": null,
    "office_name": null,
    "office_name_kana": null
  },
  "4566": {
    "postcode": "5194566",
    "prefecture": "三重県",
    "prefecture_kana": "ミエケン",
    "prefecture_code": 24,
    "city": "熊野市",
    "city_kana": "クマノシ",
    "town": "飛鳥町神山",
    "town_kana": "アスカチョウコウノヤマ",
    "street": null,
    "office_name": null,
    "office_name_kana": null
  },
  "4671": {
    "postcode": "5194671",
    "prefecture": "三重県",
    "prefecture_kana": "ミエケン",
    "prefecture_code": 24,
    "city": "熊野市",
    "city_kana": "クマノシ",
    "town": "五郷町桃崎",
    "town_kana": "イサトチョウモモザキ",
    "street": null,
    "office_name": null,
    "office_name_kana": null
  },
  "4672": {
    "postcode": "5194672",
    "prefecture": "三重県",
    "prefecture_kana": "ミエケン",
    "prefecture_code": 24,
    "city": "熊野市",
    "city_kana": "クマノシ",
    "town": "五郷町湯谷",
    "town_kana": "イサトチョウユノタニ",
    "street": null,
    "office_name": null,
    "office_name_kana": null
  },
  "4673": {
    "postcode": "5194673",
    "prefecture": "三重県",
    "prefecture_kana": "ミエケン",
    "prefecture_code": 24,
    "city": "熊野市",
    "city_kana": "クマノシ",
    "town": "五郷町寺谷",
    "town_kana": "イサトチョウテラダニ",
    "street": null,
    "office_name": null,
    "office_name_kana": null
  },
  "4674": {
    "postcode": "5194674",
    "prefecture": "三重県",
    "prefecture_kana": "ミエケン",
    "prefecture_code": 24,
    "city": "熊野市",
    "city_kana": "クマノシ",
    "town": "五郷町和田",
    "town_kana": "イサトチョウワダ",
    "street": null,
    "office_name": null,
    "office_name_kana": null
  },
  "4675": {
    "postcode": "5194675",
    "prefecture": "三重県",
    "prefecture_kana": "ミエケン",
    "prefecture_code": 24,
    "city": "熊野市",
    "city_kana": "クマノシ",
    "town": "五郷町大井谷",
    "town_kana": "イサトチョウオオイダニ",
    "street": null,
    "office_name": null,
    "office_name_kana": null
  },
  "5200": {
    "postcode": "5195200",
    "prefecture": "三重県",
    "prefecture_kana": "ミエケン",
    "prefecture_code": 24,
    "city": "南牟婁郡御浜町",
    "city_kana": "ミナミムログンミハマチョウ",
    "town": "",
    "town_kana": "",
    "street": null,
    "office_name": null,
    "office_name_kana": null
  },
  "5201": {
    "postcode": "5195201",
    "prefecture": "三重県",
    "prefecture_kana": "ミエケン",
    "prefecture_code": 24,
    "city": "南牟婁郡御浜町",
    "city_kana": "ミナミムログンミハマチョウ",
    "town": "神木",
    "town_kana": "コウノギ",
    "street": null,
    "office_name": null,
    "office_name_kana": null
  },
  "5202": {
    "postcode": "5195202",
    "prefecture": "三重県",
    "prefecture_kana": "ミエケン",
    "prefecture_code": 24,
    "city": "南牟婁郡御浜町",
    "city_kana": "ミナミムログンミハマチョウ",
    "town": "志原",
    "town_kana": "シワラ",
    "street": null,
    "office_name": null,
    "office_name_kana": null
  },
  "5203": [
    {
      "postcode": "5195203",
      "prefecture": "三重県",
      "prefecture_kana": "ミエケン",
      "prefecture_code": 24,
      "city": "南牟婁郡御浜町",
      "city_kana": "ミナミムログンミハマチョウ",
      "town": "下市木",
      "town_kana": "シモイチギ",
      "street": null,
      "office_name": null,
      "office_name_kana": null
    },
    {
      "postcode": "5195203",
      "prefecture": "三重県",
      "prefecture_kana": "ミエケン",
      "prefecture_code": 24,
      "city": "南牟婁郡御浜町",
      "city_kana": "ミナミムログンミハマチョウ",
      "town": "萩内",
      "town_kana": "ハギウチ",
      "street": null,
      "office_name": null,
      "office_name_kana": null
    }
  ],
  "5204": [
    {
      "postcode": "5195204",
      "prefecture": "三重県",
      "prefecture_kana": "ミエケン",
      "prefecture_code": 24,
      "city": "南牟婁郡御浜町",
      "city_kana": "ミナミムログンミハマチョウ",
      "town": "阿田和",
      "town_kana": "アタワ",
      "street": null,
      "office_name": null,
      "office_name_kana": null
    },
    {
      "postcode": "5195204",
      "prefecture": "三重県",
      "prefecture_kana": "ミエケン",
      "prefecture_code": 24,
      "city": "南牟婁郡御浜町",
      "city_kana": "ミナミムログンミハマチョウ",
      "town": "阿田和平見",
      "town_kana": "アタワヒラミ",
      "street": null,
      "office_name": null,
      "office_name_kana": null
    },
    {
      "postcode": "5195204",
      "prefecture": "三重県",
      "prefecture_kana": "ミエケン",
      "prefecture_code": 24,
      "city": "南牟婁郡御浜町",
      "city_kana": "ミナミムログンミハマチョウ",
      "town": "山地",
      "town_kana": "ヤマヂ",
      "street": null,
      "office_name": null,
      "office_name_kana": null
    }
  ],
  "5205": {
    "postcode": "5195205",
    "prefecture": "三重県",
    "prefecture_kana": "ミエケン",
    "prefecture_code": 24,
    "city": "南牟婁郡御浜町",
    "city_kana": "ミナミムログンミハマチョウ",
    "town": "引作",
    "town_kana": "ヒキツクリ",
    "street": null,
    "office_name": null,
    "office_name_kana": null
  },
  "5206": {
    "postcode": "5195206",
    "prefecture": "三重県",
    "prefecture_kana": "ミエケン",
    "prefecture_code": 24,
    "city": "南牟婁郡御浜町",
    "city_kana": "ミナミムログンミハマチョウ",
    "town": "柿原",
    "town_kana": "カキハラ",
    "street": null,
    "office_name": null,
    "office_name_kana": null
  },
  "5211": {
    "postcode": "5195211",
    "prefecture": "三重県",
    "prefecture_kana": "ミエケン",
    "prefecture_code": 24,
    "city": "南牟婁郡御浜町",
    "city_kana": "ミナミムログンミハマチョウ",
    "town": "上市木",
    "town_kana": "カミイチギ",
    "street": null,
    "office_name": null,
    "office_name_kana": null
  },
  "5292": {
    "postcode": "5195292",
    "prefecture": "三重県",
    "prefecture_kana": "ミエケン",
    "prefecture_code": 24,
    "city": "南牟婁郡御浜町",
    "city_kana": "ミナミムログンミハマチョウ",
    "town": "大字阿田和",
    "town_kana": null,
    "street": "６１２０−１",
    "office_name": "御浜町役場",
    "office_name_kana": "ミハマチヨウヤクバ"
  },
  "5293": {
    "postcode": "5195293",
    "prefecture": "三重県",
    "prefecture_kana": "ミエケン",
    "prefecture_code": 24,
    "city": "南牟婁郡御浜町",
    "city_kana": "ミナミムログンミハマチョウ",
    "town": "大字阿田和",
    "town_kana": null,
    "street": "４７５０",
    "office_name": "公立紀南病院",
    "office_name_kana": "コウリツキナンビヨウイン"
  },
  "5321": {
    "postcode": "5195321",
    "prefecture": "三重県",
    "prefecture_kana": "ミエケン",
    "prefecture_code": 24,
    "city": "南牟婁郡御浜町",
    "city_kana": "ミナミムログンミハマチョウ",
    "town": "阪本",
    "town_kana": "サカモト",
    "street": null,
    "office_name": null,
    "office_name_kana": null
  },
  "5322": {
    "postcode": "5195322",
    "prefecture": "三重県",
    "prefecture_kana": "ミエケン",
    "prefecture_code": 24,
    "city": "南牟婁郡御浜町",
    "city_kana": "ミナミムログンミハマチョウ",
    "town": "上野",
    "town_kana": "ウワノ",
    "street": null,
    "office_name": null,
    "office_name_kana": null
  },
  "5323": {
    "postcode": "5195323",
    "prefecture": "三重県",
    "prefecture_kana": "ミエケン",
    "prefecture_code": 24,
    "city": "南牟婁郡御浜町",
    "city_kana": "ミナミムログンミハマチョウ",
    "town": "西原",
    "town_kana": "ニシノハラ",
    "street": null,
    "office_name": null,
    "office_name_kana": null
  },
  "5324": {
    "postcode": "5195324",
    "prefecture": "三重県",
    "prefecture_kana": "ミエケン",
    "prefecture_code": 24,
    "city": "南牟婁郡御浜町",
    "city_kana": "ミナミムログンミハマチョウ",
    "town": "中立",
    "town_kana": "ナカダチ",
    "street": null,
    "office_name": null,
    "office_name_kana": null
  },
  "5325": {
    "postcode": "5195325",
    "prefecture": "三重県",
    "prefecture_kana": "ミエケン",
    "prefecture_code": 24,
    "city": "南牟婁郡御浜町",
    "city_kana": "ミナミムログンミハマチョウ",
    "town": "片川",
    "town_kana": "カタカワ",
    "street": null,
    "office_name": null,
    "office_name_kana": null
  },
  "5326": {
    "postcode": "5195326",
    "prefecture": "三重県",
    "prefecture_kana": "ミエケン",
    "prefecture_code": 24,
    "city": "南牟婁郡御浜町",
    "city_kana": "ミナミムログンミハマチョウ",
    "town": "栗須",
    "town_kana": "クルス",
    "street": null,
    "office_name": null,
    "office_name_kana": null
  },
  "5327": {
    "postcode": "5195327",
    "prefecture": "三重県",
    "prefecture_kana": "ミエケン",
    "prefecture_code": 24,
    "city": "南牟婁郡御浜町",
    "city_kana": "ミナミムログンミハマチョウ",
    "town": "川瀬",
    "town_kana": "カワセ",
    "street": null,
    "office_name": null,
    "office_name_kana": null
  },
  "5401": {
    "postcode": "5195401",
    "prefecture": "三重県",
    "prefecture_kana": "ミエケン",
    "prefecture_code": 24,
    "city": "熊野市",
    "city_kana": "クマノシ",
    "town": "紀和町小森",
    "town_kana": "キワチョウコモリ",
    "street": null,
    "office_name": null,
    "office_name_kana": null
  },
  "5402": {
    "postcode": "5195402",
    "prefecture": "三重県",
    "prefecture_kana": "ミエケン",
    "prefecture_code": 24,
    "city": "熊野市",
    "city_kana": "クマノシ",
    "town": "紀和町平谷",
    "town_kana": "キワチョウヒラタニ",
    "street": null,
    "office_name": null,
    "office_name_kana": null
  },
  "5403": {
    "postcode": "5195403",
    "prefecture": "三重県",
    "prefecture_kana": "ミエケン",
    "prefecture_code": 24,
    "city": "熊野市",
    "city_kana": "クマノシ",
    "town": "紀和町長尾",
    "town_kana": "キワチョウナガオ",
    "street": null,
    "office_name": null,
    "office_name_kana": null
  },
  "5404": {
    "postcode": "5195404",
    "prefecture": "三重県",
    "prefecture_kana": "ミエケン",
    "prefecture_code": 24,
    "city": "熊野市",
    "city_kana": "クマノシ",
    "town": "紀和町赤木",
    "town_kana": "キワチョウアカギ",
    "street": null,
    "office_name": null,
    "office_name_kana": null
  },
  "5405": {
    "postcode": "5195405",
    "prefecture": "三重県",
    "prefecture_kana": "ミエケン",
    "prefecture_code": 24,
    "city": "熊野市",
    "city_kana": "クマノシ",
    "town": "紀和町丸山",
    "town_kana": "キワチョウマルヤマ",
    "street": null,
    "office_name": null,
    "office_name_kana": null
  },
  "5406": {
    "postcode": "5195406",
    "prefecture": "三重県",
    "prefecture_kana": "ミエケン",
    "prefecture_code": 24,
    "city": "熊野市",
    "city_kana": "クマノシ",
    "town": "紀和町矢ノ川",
    "town_kana": "キワチョウヤノカワ",
    "street": null,
    "office_name": null,
    "office_name_kana": null
  },
  "5411": {
    "postcode": "5195411",
    "prefecture": "三重県",
    "prefecture_kana": "ミエケン",
    "prefecture_code": 24,
    "city": "熊野市",
    "city_kana": "クマノシ",
    "town": "紀和町木津呂",
    "town_kana": "キワチョウキヅロ",
    "street": null,
    "office_name": null,
    "office_name_kana": null
  },
  "5412": {
    "postcode": "5195412",
    "prefecture": "三重県",
    "prefecture_kana": "ミエケン",
    "prefecture_code": 24,
    "city": "熊野市",
    "city_kana": "クマノシ",
    "town": "紀和町大栗須",
    "town_kana": "キワチョウオオグルス",
    "street": null,
    "office_name": null,
    "office_name_kana": null
  },
  "5413": {
    "postcode": "5195413",
    "prefecture": "三重県",
    "prefecture_kana": "ミエケン",
    "prefecture_code": 24,
    "city": "熊野市",
    "city_kana": "クマノシ",
    "town": "紀和町板屋",
    "town_kana": "キワチョウイタヤ",
    "street": null,
    "office_name": null,
    "office_name_kana": null
  },
  "5414": {
    "postcode": "5195414",
    "prefecture": "三重県",
    "prefecture_kana": "ミエケン",
    "prefecture_code": 24,
    "city": "熊野市",
    "city_kana": "クマノシ",
    "town": "紀和町小栗須",
    "town_kana": "キワチョウコグルス",
    "street": null,
    "office_name": null,
    "office_name_kana": null
  },
  "5415": {
    "postcode": "5195415",
    "prefecture": "三重県",
    "prefecture_kana": "ミエケン",
    "prefecture_code": 24,
    "city": "熊野市",
    "city_kana": "クマノシ",
    "town": "紀和町大河内",
    "town_kana": "キワチョウオコチ",
    "street": null,
    "office_name": null,
    "office_name_kana": null
  },
  "5416": {
    "postcode": "5195416",
    "prefecture": "三重県",
    "prefecture_kana": "ミエケン",
    "prefecture_code": 24,
    "city": "熊野市",
    "city_kana": "クマノシ",
    "town": "紀和町湯ノ口",
    "town_kana": "キワチョウユノクチ",
    "street": null,
    "office_name": null,
    "office_name_kana": null
  },
  "5417": {
    "postcode": "5195417",
    "prefecture": "三重県",
    "prefecture_kana": "ミエケン",
    "prefecture_code": 24,
    "city": "熊野市",
    "city_kana": "クマノシ",
    "town": "紀和町小川口",
    "town_kana": "キワチョウコガワグチ",
    "street": null,
    "office_name": null,
    "office_name_kana": null
  },
  "5700": {
    "postcode": "5195700",
    "prefecture": "三重県",
    "prefecture_kana": "ミエケン",
    "prefecture_code": 24,
    "city": "南牟婁郡紀宝町",
    "city_kana": "ミナミムログンキホウチョウ",
    "town": "",
    "town_kana": "",
    "street": null,
    "office_name": null,
    "office_name_kana": null
  },
  "5701": {
    "postcode": "5195701",
    "prefecture": "三重県",
    "prefecture_kana": "ミエケン",
    "prefecture_code": 24,
    "city": "南牟婁郡紀宝町",
    "city_kana": "ミナミムログンキホウチョウ",
    "town": "鵜殿",
    "town_kana": "ウドノ",
    "street": null,
    "office_name": null,
    "office_name_kana": null
  },
  "5711": {
    "postcode": "5195711",
    "prefecture": "三重県",
    "prefecture_kana": "ミエケン",
    "prefecture_code": 24,
    "city": "南牟婁郡紀宝町",
    "city_kana": "ミナミムログンキホウチョウ",
    "town": "井田",
    "town_kana": "イダ",
    "street": null,
    "office_name": null,
    "office_name_kana": null
  },
  "5712": {
    "postcode": "5195712",
    "prefecture": "三重県",
    "prefecture_kana": "ミエケン",
    "prefecture_code": 24,
    "city": "南牟婁郡紀宝町",
    "city_kana": "ミナミムログンキホウチョウ",
    "town": "神内",
    "town_kana": "コウノウチ",
    "street": null,
    "office_name": null,
    "office_name_kana": null
  },
  "5713": {
    "postcode": "5195713",
    "prefecture": "三重県",
    "prefecture_kana": "ミエケン",
    "prefecture_code": 24,
    "city": "南牟婁郡紀宝町",
    "city_kana": "ミナミムログンキホウチョウ",
    "town": "成川",
    "town_kana": "ナルカワ",
    "street": null,
    "office_name": null,
    "office_name_kana": null
  },
  "5714": {
    "postcode": "5195714",
    "prefecture": "三重県",
    "prefecture_kana": "ミエケン",
    "prefecture_code": 24,
    "city": "南牟婁郡紀宝町",
    "city_kana": "ミナミムログンキホウチョウ",
    "town": "鮒田",
    "town_kana": "フナダ",
    "street": null,
    "office_name": null,
    "office_name_kana": null
  },
  "5715": {
    "postcode": "5195715",
    "prefecture": "三重県",
    "prefecture_kana": "ミエケン",
    "prefecture_code": 24,
    "city": "南牟婁郡紀宝町",
    "city_kana": "ミナミムログンキホウチョウ",
    "town": "高岡",
    "town_kana": "タカオカ",
    "street": null,
    "office_name": null,
    "office_name_kana": null
  },
  "5716": {
    "postcode": "5195716",
    "prefecture": "三重県",
    "prefecture_kana": "ミエケン",
    "prefecture_code": 24,
    "city": "南牟婁郡紀宝町",
    "city_kana": "ミナミムログンキホウチョウ",
    "town": "北桧杖",
    "town_kana": "キタヒヅエ",
    "street": null,
    "office_name": null,
    "office_name_kana": null
  },
  "5717": {
    "postcode": "5195717",
    "prefecture": "三重県",
    "prefecture_kana": "ミエケン",
    "prefecture_code": 24,
    "city": "南牟婁郡紀宝町",
    "city_kana": "ミナミムログンキホウチョウ",
    "town": "瀬原",
    "town_kana": "セバラ",
    "street": null,
    "office_name": null,
    "office_name_kana": null
  },
  "5718": {
    "postcode": "5195718",
    "prefecture": "三重県",
    "prefecture_kana": "ミエケン",
    "prefecture_code": 24,
    "city": "南牟婁郡紀宝町",
    "city_kana": "ミナミムログンキホウチョウ",
    "town": "浅里",
    "town_kana": "アサリ",
    "street": null,
    "office_name": null,
    "office_name_kana": null
  },
  "5831": {
    "postcode": "5195831",
    "prefecture": "三重県",
    "prefecture_kana": "ミエケン",
    "prefecture_code": 24,
    "city": "南牟婁郡紀宝町",
    "city_kana": "ミナミムログンキホウチョウ",
    "town": "桐原",
    "town_kana": "キリハラ",
    "street": null,
    "office_name": null,
    "office_name_kana": null
  },
  "5832": {
    "postcode": "5195832",
    "prefecture": "三重県",
    "prefecture_kana": "ミエケン",
    "prefecture_code": 24,
    "city": "南牟婁郡紀宝町",
    "city_kana": "ミナミムログンキホウチョウ",
    "town": "阪松原",
    "town_kana": "サカマツバラ",
    "street": null,
    "office_name": null,
    "office_name_kana": null
  },
  "5833": {
    "postcode": "5195833",
    "prefecture": "三重県",
    "prefecture_kana": "ミエケン",
    "prefecture_code": 24,
    "city": "南牟婁郡紀宝町",
    "city_kana": "ミナミムログンキホウチョウ",
    "town": "平尾井",
    "town_kana": "ヒラオイ",
    "street": null,
    "office_name": null,
    "office_name_kana": null
  },
  "5834": {
    "postcode": "5195834",
    "prefecture": "三重県",
    "prefecture_kana": "ミエケン",
    "prefecture_code": 24,
    "city": "南牟婁郡紀宝町",
    "city_kana": "ミナミムログンキホウチョウ",
    "town": "井内",
    "town_kana": "イナイ",
    "street": null,
    "office_name": null,
    "office_name_kana": null
  },
  "5835": {
    "postcode": "5195835",
    "prefecture": "三重県",
    "prefecture_kana": "ミエケン",
    "prefecture_code": 24,
    "city": "南牟婁郡紀宝町",
    "city_kana": "ミナミムログンキホウチョウ",
    "town": "大里",
    "town_kana": "オオザト",
    "street": null,
    "office_name": null,
    "office_name_kana": null
  }
}