{
  "0000": {
    "postcode": "5260000",
    "prefecture": "滋賀県",
    "prefecture_kana": "シガケン",
    "prefecture_code": 25,
    "city": "長浜市",
    "city_kana": "ナガハマシ",
    "town": "",
    "town_kana": "",
    "street": null,
    "office_name": null,
    "office_name_kana": null
  },
  "0001": {
    "postcode": "5260001",
    "prefecture": "滋賀県",
    "prefecture_kana": "シガケン",
    "prefecture_code": 25,
    "city": "長浜市",
    "city_kana": "ナガハマシ",
    "town": "国友町",
    "town_kana": "クニトモチョウ",
    "street": null,
    "office_name": null,
    "office_name_kana": null
  },
  "0002": {
    "postcode": "5260002",
    "prefecture": "滋賀県",
    "prefecture_kana": "シガケン",
    "prefecture_code": 25,
    "city": "長浜市",
    "city_kana": "ナガハマシ",
    "town": "保田町",
    "town_kana": "ホウデチョウ",
    "street": null,
    "office_name": null,
    "office_name_kana": null
  },
  "0003": {
    "postcode": "5260003",
    "prefecture": "滋賀県",
    "prefecture_kana": "シガケン",
    "prefecture_code": 25,
    "city": "長浜市",
    "city_kana": "ナガハマシ",
    "town": "泉町",
    "town_kana": "イズミチョウ",
    "street": null,
    "office_name": null,
    "office_name_kana": null
  },
  "0004": {
    "postcode": "5260004",
    "prefecture": "滋賀県",
    "prefecture_kana": "シガケン",
    "prefecture_code": 25,
    "city": "長浜市",
    "city_kana": "ナガハマシ",
    "town": "小沢町",
    "town_kana": "コザワチョウ",
    "street": null,
    "office_name": null,
    "office_name_kana": null
  },
  "0005": {
    "postcode": "5260005",
    "prefecture": "滋賀県",
    "prefecture_kana": "シガケン",
    "prefecture_code": 25,
    "city": "長浜市",
    "city_kana": "ナガハマシ",
    "town": "下之郷町",
    "town_kana": "シモノゴウチョウ",
    "street": null,
    "office_name": null,
    "office_name_kana": null
  },
  "0011": {
    "postcode": "5260011",
    "prefecture": "滋賀県",
    "prefecture_kana": "シガケン",
    "prefecture_code": 25,
    "city": "長浜市",
    "city_kana": "ナガハマシ",
    "town": "新庄馬場町",
    "town_kana": "シンジョウバンバチョウ",
    "street": null,
    "office_name": null,
    "office_name_kana": null
  },
  "0012": {
    "postcode": "5260012",
    "prefecture": "滋賀県",
    "prefecture_kana": "シガケン",
    "prefecture_code": 25,
    "city": "長浜市",
    "city_kana": "ナガハマシ",
    "town": "新庄中町",
    "town_kana": "シンジョウナカチョウ",
    "street": null,
    "office_name": null,
    "office_name_kana": null
  },
  "0013": {
    "postcode": "5260013",
    "prefecture": "滋賀県",
    "prefecture_kana": "シガケン",
    "prefecture_code": 25,
    "city": "長浜市",
    "city_kana": "ナガハマシ",
    "town": "新庄寺町",
    "town_kana": "シンジョウテラチョウ",
    "street": null,
    "office_name": null,
    "office_name_kana": null
  },
  "0014": {
    "postcode": "5260014",
    "prefecture": "滋賀県",
    "prefecture_kana": "シガケン",
    "prefecture_code": 25,
    "city": "長浜市",
    "city_kana": "ナガハマシ",
    "town": "口分田町",
    "town_kana": "クモデチョウ",
    "street": null,
    "office_name": null,
    "office_name_kana": null
  },
  "0015": {
    "postcode": "5260015",
    "prefecture": "滋賀県",
    "prefecture_kana": "シガケン",
    "prefecture_code": 25,
    "city": "長浜市",
    "city_kana": "ナガハマシ",
    "town": "神照町",
    "town_kana": "カミテルチョウ",
    "street": null,
    "office_name": null,
    "office_name_kana": null
  },
  "0016": {
    "postcode": "5260016",
    "prefecture": "滋賀県",
    "prefecture_kana": "シガケン",
    "prefecture_code": 25,
    "city": "長浜市",
    "city_kana": "ナガハマシ",
    "town": "十里町",
    "town_kana": "ジュウリチョウ",
    "street": null,
    "office_name": null,
    "office_name_kana": null
  },
  "0017": {
    "postcode": "5260017",
    "prefecture": "滋賀県",
    "prefecture_kana": "シガケン",
    "prefecture_code": 25,
    "city": "長浜市",
    "city_kana": "ナガハマシ",
    "town": "相撲町",
    "town_kana": "スマイチョウ",
    "street": null,
    "office_name": null,
    "office_name_kana": null
  },
  "0018": {
    "postcode": "5260018",
    "prefecture": "滋賀県",
    "prefecture_kana": "シガケン",
    "prefecture_code": 25,
    "city": "長浜市",
    "city_kana": "ナガハマシ",
    "town": "森町",
    "town_kana": "モリチョウ",
    "street": null,
    "office_name": null,
    "office_name_kana": null
  },
  "0021": {
    "postcode": "5260021",
    "prefecture": "滋賀県",
    "prefecture_kana": "シガケン",
    "prefecture_code": 25,
    "city": "長浜市",
    "city_kana": "ナガハマシ",
    "town": "八幡中山町",
    "town_kana": "ヤワタナカヤマチョウ",
    "street": null,
    "office_name": null,
    "office_name_kana": null
  },
  "0022": {
    "postcode": "5260022",
    "prefecture": "滋賀県",
    "prefecture_kana": "シガケン",
    "prefecture_code": 25,
    "city": "長浜市",
    "city_kana": "ナガハマシ",
    "town": "中山町",
    "town_kana": "ナカヤマチョウ",
    "street": null,
    "office_name": null,
    "office_name_kana": null
  },
  "0023": {
    "postcode": "5260023",
    "prefecture": "滋賀県",
    "prefecture_kana": "シガケン",
    "prefecture_code": 25,
    "city": "長浜市",
    "city_kana": "ナガハマシ",
    "town": "三ツ矢町",
    "town_kana": "ミツヤチョウ",
    "street": null,
    "office_name": null,
    "office_name_kana": null
  },
  "0024": {
    "postcode": "5260024",
    "prefecture": "滋賀県",
    "prefecture_kana": "シガケン",
    "prefecture_code": 25,
    "city": "長浜市",
    "city_kana": "ナガハマシ",
    "town": "三ツ矢元町",
    "town_kana": "ミツヤモトチョウ",
    "street": null,
    "office_name": null,
    "office_name_kana": null
  },
  "0025": {
    "postcode": "5260025",
    "prefecture": "滋賀県",
    "prefecture_kana": "シガケン",
    "prefecture_code": 25,
    "city": "長浜市",
    "city_kana": "ナガハマシ",
    "town": "分木町",
    "town_kana": "ブンギチョウ",
    "street": null,
    "office_name": null,
    "office_name_kana": null
  },
  "0031": {
    "postcode": "5260031",
    "prefecture": "滋賀県",
    "prefecture_kana": "シガケン",
    "prefecture_code": 25,
    "city": "長浜市",
    "city_kana": "ナガハマシ",
    "town": "八幡東町",
    "town_kana": "ヤワタヒガシチョウ",
    "street": null,
    "office_name": null,
    "office_name_kana": null
  },
  "0032": {
    "postcode": "5260032",
    "prefecture": "滋賀県",
    "prefecture_kana": "シガケン",
    "prefecture_code": 25,
    "city": "長浜市",
    "city_kana": "ナガハマシ",
    "town": "南高田町",
    "town_kana": "ミナミタカダチョウ",
    "street": null,
    "office_name": null,
    "office_name_kana": null
  },
  "0033": {
    "postcode": "5260033",
    "prefecture": "滋賀県",
    "prefecture_kana": "シガケン",
    "prefecture_code": 25,
    "city": "長浜市",
    "city_kana": "ナガハマシ",
    "town": "平方町",
    "town_kana": "ヒラカタチョウ",
    "street": null,
    "office_name": null,
    "office_name_kana": null
  },
  "0034": {
    "postcode": "5260034",
    "prefecture": "滋賀県",
    "prefecture_kana": "シガケン",
    "prefecture_code": 25,
    "city": "長浜市",
    "city_kana": "ナガハマシ",
    "town": "弥高町",
    "town_kana": "ヤタカチョウ",
    "street": null,
    "office_name": null,
    "office_name_kana": null
  },
  "0035": {
    "postcode": "5260035",
    "prefecture": "滋賀県",
    "prefecture_kana": "シガケン",
    "prefecture_code": 25,
    "city": "長浜市",
    "city_kana": "ナガハマシ",
    "town": "平方南町",
    "town_kana": "ヒラカタミナミチョウ",
    "street": null,
    "office_name": null,
    "office_name_kana": null
  },
  "0036": {
    "postcode": "5260036",
    "prefecture": "滋賀県",
    "prefecture_kana": "シガケン",
    "prefecture_code": 25,
    "city": "長浜市",
    "city_kana": "ナガハマシ",
    "town": "地福寺町",
    "town_kana": "ジフクジチョウ",
    "street": null,
    "office_name": null,
    "office_name_kana": null
  },
  "0037": {
    "postcode": "5260037",
    "prefecture": "滋賀県",
    "prefecture_kana": "シガケン",
    "prefecture_code": 25,
    "city": "長浜市",
    "city_kana": "ナガハマシ",
    "town": "高田町",
    "town_kana": "タカダチョウ",
    "street": null,
    "office_name": null,
    "office_name_kana": null
  },
  "0041": {
    "postcode": "5260041",
    "prefecture": "滋賀県",
    "prefecture_kana": "シガケン",
    "prefecture_code": 25,
    "city": "長浜市",
    "city_kana": "ナガハマシ",
    "town": "四ツ塚町",
    "town_kana": "ヨツヅカチョウ",
    "street": null,
    "office_name": null,
    "office_name_kana": null
  },
  "0042": {
    "postcode": "5260042",
    "prefecture": "滋賀県",
    "prefecture_kana": "シガケン",
    "prefecture_code": 25,
    "city": "長浜市",
    "city_kana": "ナガハマシ",
    "town": "勝町",
    "town_kana": "カツチョウ",
    "street": null,
    "office_name": null,
    "office_name_kana": null
  },
  "0043": {
    "postcode": "5260043",
    "prefecture": "滋賀県",
    "prefecture_kana": "シガケン",
    "prefecture_code": 25,
    "city": "長浜市",
    "city_kana": "ナガハマシ",
    "town": "大戌亥町",
    "town_kana": "オオイヌイチョウ",
    "street": null,
    "office_name": null,
    "office_name_kana": null
  },
  "0044": {
    "postcode": "5260044",
    "prefecture": "滋賀県",
    "prefecture_kana": "シガケン",
    "prefecture_code": 25,
    "city": "長浜市",
    "city_kana": "ナガハマシ",
    "town": "下坂中町",
    "town_kana": "シモサカナカチョウ",
    "street": null,
    "office_name": null,
    "office_name_kana": null
  },
  "0045": {
    "postcode": "5260045",
    "prefecture": "滋賀県",
    "prefecture_kana": "シガケン",
    "prefecture_code": 25,
    "city": "長浜市",
    "city_kana": "ナガハマシ",
    "town": "寺田町",
    "town_kana": "テラダチョウ",
    "street": null,
    "office_name": null,
    "office_name_kana": null
  },
  "0046": {
    "postcode": "5260046",
    "prefecture": "滋賀県",
    "prefecture_kana": "シガケン",
    "prefecture_code": 25,
    "city": "長浜市",
    "city_kana": "ナガハマシ",
    "town": "高橋町",
    "town_kana": "タカハシチョウ",
    "street": null,
    "office_name": null,
    "office_name_kana": null
  },
  "0047": {
    "postcode": "5260047",
    "prefecture": "滋賀県",
    "prefecture_kana": "シガケン",
    "prefecture_code": 25,
    "city": "長浜市",
    "city_kana": "ナガハマシ",
    "town": "下坂浜町",
    "town_kana": "シモサカハマチョウ",
    "street": null,
    "office_name": null,
    "office_name_kana": null
  },
  "0051": {
    "postcode": "5260051",
    "prefecture": "滋賀県",
    "prefecture_kana": "シガケン",
    "prefecture_code": 25,
    "city": "長浜市",
    "city_kana": "ナガハマシ",
    "town": "一の宮町",
    "town_kana": "イチノミヤチョウ",
    "street": null,
    "office_name": null,
    "office_name_kana": null
  },
  "0052": {
    "postcode": "5260052",
    "prefecture": "滋賀県",
    "prefecture_kana": "シガケン",
    "prefecture_code": 25,
    "city": "長浜市",
    "city_kana": "ナガハマシ",
    "town": "神前町",
    "town_kana": "シンゼンチョウ",
    "street": null,
    "office_name": null,
    "office_name_kana": null
  },
  "0053": {
    "postcode": "5260053",
    "prefecture": "滋賀県",
    "prefecture_kana": "シガケン",
    "prefecture_code": 25,
    "city": "長浜市",
    "city_kana": "ナガハマシ",
    "town": "宮前町",
    "town_kana": "ミヤマエチョウ",
    "street": null,
    "office_name": null,
    "office_name_kana": null
  },
  "0054": {
    "postcode": "5260054",
    "prefecture": "滋賀県",
    "prefecture_kana": "シガケン",
    "prefecture_code": 25,
    "city": "長浜市",
    "city_kana": "ナガハマシ",
    "town": "大宮町",
    "town_kana": "オオミヤチョウ",
    "street": null,
    "office_name": null,
    "office_name_kana": null
  },
  "0055": {
    "postcode": "5260055",
    "prefecture": "滋賀県",
    "prefecture_kana": "シガケン",
    "prefecture_code": 25,
    "city": "長浜市",
    "city_kana": "ナガハマシ",
    "town": "三和町",
    "town_kana": "サンワチョウ",
    "street": null,
    "office_name": null,
    "office_name_kana": null
  },
  "0056": {
    "postcode": "5260056",
    "prefecture": "滋賀県",
    "prefecture_kana": "シガケン",
    "prefecture_code": 25,
    "city": "長浜市",
    "city_kana": "ナガハマシ",
    "town": "朝日町",
    "town_kana": "アサヒチョウ",
    "street": null,
    "office_name": null,
    "office_name_kana": null
  },
  "0057": {
    "postcode": "5260057",
    "prefecture": "滋賀県",
    "prefecture_kana": "シガケン",
    "prefecture_code": 25,
    "city": "長浜市",
    "city_kana": "ナガハマシ",
    "town": "北船町",
    "town_kana": "キタフナチョウ",
    "street": null,
    "office_name": null,
    "office_name_kana": null
  },
  "0058": {
    "postcode": "5260058",
    "prefecture": "滋賀県",
    "prefecture_kana": "シガケン",
    "prefecture_code": 25,
    "city": "長浜市",
    "city_kana": "ナガハマシ",
    "town": "南呉服町",
    "town_kana": "ミナミゴフクチョウ",
    "street": null,
    "office_name": null,
    "office_name_kana": null
  },
  "0059": {
    "postcode": "5260059",
    "prefecture": "滋賀県",
    "prefecture_kana": "シガケン",
    "prefecture_code": 25,
    "city": "長浜市",
    "city_kana": "ナガハマシ",
    "town": "元浜町",
    "town_kana": "モトハマチョウ",
    "street": null,
    "office_name": null,
    "office_name_kana": null
  },
  "0061": {
    "postcode": "5260061",
    "prefecture": "滋賀県",
    "prefecture_kana": "シガケン",
    "prefecture_code": 25,
    "city": "長浜市",
    "city_kana": "ナガハマシ",
    "town": "祇園町",
    "town_kana": "ギオンチョウ",
    "street": null,
    "office_name": null,
    "office_name_kana": null
  },
  "0062": {
    "postcode": "5260062",
    "prefecture": "滋賀県",
    "prefecture_kana": "シガケン",
    "prefecture_code": 25,
    "city": "長浜市",
    "city_kana": "ナガハマシ",
    "town": "列見町",
    "town_kana": "レツケチョウ",
    "street": null,
    "office_name": null,
    "office_name_kana": null
  },
  "0063": {
    "postcode": "5260063",
    "prefecture": "滋賀県",
    "prefecture_kana": "シガケン",
    "prefecture_code": 25,
    "city": "長浜市",
    "city_kana": "ナガハマシ",
    "town": "末広町",
    "town_kana": "スエヒロチョウ",
    "street": null,
    "office_name": null,
    "office_name_kana": null
  },
  "0064": {
    "postcode": "5260064",
    "prefecture": "滋賀県",
    "prefecture_kana": "シガケン",
    "prefecture_code": 25,
    "city": "長浜市",
    "city_kana": "ナガハマシ",
    "town": "殿町",
    "town_kana": "トノチョウ",
    "street": null,
    "office_name": null,
    "office_name_kana": null
  },
  "0065": {
    "postcode": "5260065",
    "prefecture": "滋賀県",
    "prefecture_kana": "シガケン",
    "prefecture_code": 25,
    "city": "長浜市",
    "city_kana": "ナガハマシ",
    "town": "公園町",
    "town_kana": "コウエンチョウ",
    "street": null,
    "office_name": null,
    "office_name_kana": null
  },
  "0066": {
    "postcode": "5260066",
    "prefecture": "滋賀県",
    "prefecture_kana": "シガケン",
    "prefecture_code": 25,
    "city": "長浜市",
    "city_kana": "ナガハマシ",
    "town": "大島町",
    "town_kana": "オオシマチョウ",
    "street": null,
    "office_name": null,
    "office_name_kana": null
  },
  "0067": {
    "postcode": "5260067",
    "prefecture": "滋賀県",
    "prefecture_kana": "シガケン",
    "prefecture_code": 25,
    "city": "長浜市",
    "city_kana": "ナガハマシ",
    "town": "港町",
    "town_kana": "ミナトチョウ",
    "street": null,
    "office_name": null,
    "office_name_kana": null
  },
  "0068": {
    "postcode": "5260068",
    "prefecture": "滋賀県",
    "prefecture_kana": "シガケン",
    "prefecture_code": 25,
    "city": "長浜市",
    "city_kana": "ナガハマシ",
    "town": "鐘紡町",
    "town_kana": "カネボウチョウ",
    "street": null,
    "office_name": null,
    "office_name_kana": null
  },
  "0101": {
    "postcode": "5260101",
    "prefecture": "滋賀県",
    "prefecture_kana": "シガケン",
    "prefecture_code": 25,
    "city": "長浜市",
    "city_kana": "ナガハマシ",
    "town": "錦織町",
    "town_kana": "ニシコオリチョウ",
    "street": null,
    "office_name": null,
    "office_name_kana": null
  },
  "0102": {
    "postcode": "5260102",
    "prefecture": "滋賀県",
    "prefecture_kana": "シガケン",
    "prefecture_code": 25,
    "city": "長浜市",
    "city_kana": "ナガハマシ",
    "town": "落合町",
    "town_kana": "オチアイチョウ",
    "street": null,
    "office_name": null,
    "office_name_kana": null
  },
  "0103": {
    "postcode": "5260103",
    "prefecture": "滋賀県",
    "prefecture_kana": "シガケン",
    "prefecture_code": 25,
    "city": "長浜市",
    "city_kana": "ナガハマシ",
    "town": "曽根町",
    "town_kana": "ソネチョウ",
    "street": null,
    "office_name": null,
    "office_name_kana": null
  },
  "0104": {
    "postcode": "5260104",
    "prefecture": "滋賀県",
    "prefecture_kana": "シガケン",
    "prefecture_code": 25,
    "city": "長浜市",
    "city_kana": "ナガハマシ",
    "town": "御館",
    "town_kana": "ミタチ",
    "street": null,
    "office_name": null,
    "office_name_kana": null
  },
  "0105": {
    "postcode": "5260105",
    "prefecture": "滋賀県",
    "prefecture_kana": "シガケン",
    "prefecture_code": 25,
    "city": "長浜市",
    "city_kana": "ナガハマシ",
    "town": "細江町",
    "town_kana": "ホソエチョウ",
    "street": null,
    "office_name": null,
    "office_name_kana": null
  },
  "0106": {
    "postcode": "5260106",
    "prefecture": "滋賀県",
    "prefecture_kana": "シガケン",
    "prefecture_code": 25,
    "city": "長浜市",
    "city_kana": "ナガハマシ",
    "town": "野寺町",
    "town_kana": "ノデラチョウ",
    "street": null,
    "office_name": null,
    "office_name_kana": null
  },
  "0107": {
    "postcode": "5260107",
    "prefecture": "滋賀県",
    "prefecture_kana": "シガケン",
    "prefecture_code": 25,
    "city": "長浜市",
    "city_kana": "ナガハマシ",
    "town": "新居町",
    "town_kana": "ニノイチョウ",
    "street": null,
    "office_name": null,
    "office_name_kana": null
  },
  "0108": {
    "postcode": "5260108",
    "prefecture": "滋賀県",
    "prefecture_kana": "シガケン",
    "prefecture_code": 25,
    "city": "長浜市",
    "city_kana": "ナガハマシ",
    "town": "難波町",
    "town_kana": "ナンバチョウ",
    "street": null,
    "office_name": null,
    "office_name_kana": null
  },
  "0111": {
    "postcode": "5260111",
    "prefecture": "滋賀県",
    "prefecture_kana": "シガケン",
    "prefecture_code": 25,
    "city": "長浜市",
    "city_kana": "ナガハマシ",
    "town": "川道町",
    "town_kana": "カワミチチョウ",
    "street": null,
    "office_name": null,
    "office_name_kana": null
  },
  "0112": {
    "postcode": "5260112",
    "prefecture": "滋賀県",
    "prefecture_kana": "シガケン",
    "prefecture_code": 25,
    "city": "長浜市",
    "city_kana": "ナガハマシ",
    "town": "鶴が島",
    "town_kana": "ツルガシマ",
    "street": null,
    "office_name": null,
    "office_name_kana": null
  },
  "0113": {
    "postcode": "5260113",
    "prefecture": "滋賀県",
    "prefecture_kana": "シガケン",
    "prefecture_code": 25,
    "city": "長浜市",
    "city_kana": "ナガハマシ",
    "town": "南浜町",
    "town_kana": "ミナミハマチョウ",
    "street": null,
    "office_name": null,
    "office_name_kana": null
  },
  "0114": {
    "postcode": "5260114",
    "prefecture": "滋賀県",
    "prefecture_kana": "シガケン",
    "prefecture_code": 25,
    "city": "長浜市",
    "city_kana": "ナガハマシ",
    "town": "中浜",
    "town_kana": "ナカハマ",
    "street": null,
    "office_name": null,
    "office_name_kana": null
  },
  "0115": {
    "postcode": "5260115",
    "prefecture": "滋賀県",
    "prefecture_kana": "シガケン",
    "prefecture_code": 25,
    "city": "長浜市",
    "city_kana": "ナガハマシ",
    "town": "大浜町",
    "town_kana": "オオハマチョウ",
    "street": null,
    "office_name": null,
    "office_name_kana": null
  },
  "0116": {
    "postcode": "5260116",
    "prefecture": "滋賀県",
    "prefecture_kana": "シガケン",
    "prefecture_code": 25,
    "city": "長浜市",
    "city_kana": "ナガハマシ",
    "town": "八木浜町",
    "town_kana": "ヤギハマチョウ",
    "street": null,
    "office_name": null,
    "office_name_kana": null
  },
  "0121": {
    "postcode": "5260121",
    "prefecture": "滋賀県",
    "prefecture_kana": "シガケン",
    "prefecture_code": 25,
    "city": "長浜市",
    "city_kana": "ナガハマシ",
    "town": "十九町",
    "town_kana": "ジュックチョウ",
    "street": null,
    "office_name": null,
    "office_name_kana": null
  },
  "0122": {
    "postcode": "5260122",
    "prefecture": "滋賀県",
    "prefecture_kana": "シガケン",
    "prefecture_code": 25,
    "city": "長浜市",
    "city_kana": "ナガハマシ",
    "town": "上八木町",
    "town_kana": "カミヤギチョウ",
    "street": null,
    "office_name": null,
    "office_name_kana": null
  },
  "0123": {
    "postcode": "5260123",
    "prefecture": "滋賀県",
    "prefecture_kana": "シガケン",
    "prefecture_code": 25,
    "city": "長浜市",
    "city_kana": "ナガハマシ",
    "town": "下八木町",
    "town_kana": "シモヤギチョウ",
    "street": null,
    "office_name": null,
    "office_name_kana": null
  },
  "0124": {
    "postcode": "5260124",
    "prefecture": "滋賀県",
    "prefecture_kana": "シガケン",
    "prefecture_code": 25,
    "city": "長浜市",
    "city_kana": "ナガハマシ",
    "town": "早崎町",
    "town_kana": "ハヤザキチョウ",
    "street": null,
    "office_name": null,
    "office_name_kana": null
  },
  "0125": {
    "postcode": "5260125",
    "prefecture": "滋賀県",
    "prefecture_kana": "シガケン",
    "prefecture_code": 25,
    "city": "長浜市",
    "city_kana": "ナガハマシ",
    "town": "益田町",
    "town_kana": "マスダチョウ",
    "street": null,
    "office_name": null,
    "office_name_kana": null
  },
  "0126": {
    "postcode": "5260126",
    "prefecture": "滋賀県",
    "prefecture_kana": "シガケン",
    "prefecture_code": 25,
    "city": "長浜市",
    "city_kana": "ナガハマシ",
    "town": "安養寺町",
    "town_kana": "アンヨウジチョウ",
    "street": null,
    "office_name": null,
    "office_name_kana": null
  },
  "0131": {
    "postcode": "5260131",
    "prefecture": "滋賀県",
    "prefecture_kana": "シガケン",
    "prefecture_code": 25,
    "city": "長浜市",
    "city_kana": "ナガハマシ",
    "town": "富田町",
    "town_kana": "トンダチョウ",
    "street": null,
    "office_name": null,
    "office_name_kana": null
  },
  "0132": {
    "postcode": "5260132",
    "prefecture": "滋賀県",
    "prefecture_kana": "シガケン",
    "prefecture_code": 25,
    "city": "長浜市",
    "city_kana": "ナガハマシ",
    "town": "香花寺町",
    "town_kana": "コウケイジチョウ",
    "street": null,
    "office_name": null,
    "office_name_kana": null
  },
  "0133": {
    "postcode": "5260133",
    "prefecture": "滋賀県",
    "prefecture_kana": "シガケン",
    "prefecture_code": 25,
    "city": "長浜市",
    "city_kana": "ナガハマシ",
    "town": "稲葉町",
    "town_kana": "イナバチョウ",
    "street": null,
    "office_name": null,
    "office_name_kana": null
  },
  "0134": {
    "postcode": "5260134",
    "prefecture": "滋賀県",
    "prefecture_kana": "シガケン",
    "prefecture_code": 25,
    "city": "長浜市",
    "city_kana": "ナガハマシ",
    "town": "小観音寺町",
    "town_kana": "コカンノンジチョウ",
    "street": null,
    "office_name": null,
    "office_name_kana": null
  },
  "0135": {
    "postcode": "5260135",
    "prefecture": "滋賀県",
    "prefecture_kana": "シガケン",
    "prefecture_code": 25,
    "city": "長浜市",
    "city_kana": "ナガハマシ",
    "town": "弓削町",
    "town_kana": "ユウゲチョウ",
    "street": null,
    "office_name": null,
    "office_name_kana": null
  },
  "0201": {
    "postcode": "5260201",
    "prefecture": "滋賀県",
    "prefecture_kana": "シガケン",
    "prefecture_code": 25,
    "city": "長浜市",
    "city_kana": "ナガハマシ",
    "town": "高山町",
    "town_kana": "タカヤマチョウ",
    "street": null,
    "office_name": null,
    "office_name_kana": null
  },
  "0202": {
    "postcode": "5260202",
    "prefecture": "滋賀県",
    "prefecture_kana": "シガケン",
    "prefecture_code": 25,
    "city": "長浜市",
    "city_kana": "ナガハマシ",
    "town": "草野町",
    "town_kana": "クサノチョウ",
    "street": null,
    "office_name": null,
    "office_name_kana": null
  },
  "0203": {
    "postcode": "5260203",
    "prefecture": "滋賀県",
    "prefecture_kana": "シガケン",
    "prefecture_code": 25,
    "city": "長浜市",
    "city_kana": "ナガハマシ",
    "town": "野瀬町",
    "town_kana": "ノセチョウ",
    "street": null,
    "office_name": null,
    "office_name_kana": null
  },
  "0204": {
    "postcode": "5260204",
    "prefecture": "滋賀県",
    "prefecture_kana": "シガケン",
    "prefecture_code": 25,
    "city": "長浜市",
    "city_kana": "ナガハマシ",
    "town": "鍛冶屋町",
    "town_kana": "カジヤチョウ",
    "street": null,
    "office_name": null,
    "office_name_kana": null
  },
  "0205": {
    "postcode": "5260205",
    "prefecture": "滋賀県",
    "prefecture_kana": "シガケン",
    "prefecture_code": 25,
    "city": "長浜市",
    "city_kana": "ナガハマシ",
    "town": "岡谷町",
    "town_kana": "オカダニチョウ",
    "street": null,
    "office_name": null,
    "office_name_kana": null
  },
  "0206": {
    "postcode": "5260206",
    "prefecture": "滋賀県",
    "prefecture_kana": "シガケン",
    "prefecture_code": 25,
    "city": "長浜市",
    "city_kana": "ナガハマシ",
    "town": "郷野町",
    "town_kana": "ゴウノチョウ",
    "street": null,
    "office_name": null,
    "office_name_kana": null
  },
  "0207": {
    "postcode": "5260207",
    "prefecture": "滋賀県",
    "prefecture_kana": "シガケン",
    "prefecture_code": 25,
    "city": "長浜市",
    "city_kana": "ナガハマシ",
    "town": "太田町",
    "town_kana": "オオタチョウ",
    "street": null,
    "office_name": null,
    "office_name_kana": null
  },
  "0208": {
    "postcode": "5260208",
    "prefecture": "滋賀県",
    "prefecture_kana": "シガケン",
    "prefecture_code": 25,
    "city": "長浜市",
    "city_kana": "ナガハマシ",
    "town": "西村町",
    "town_kana": "ニシムラチョウ",
    "street": null,
    "office_name": null,
    "office_name_kana": null
  },
  "0209": {
    "postcode": "5260209",
    "prefecture": "滋賀県",
    "prefecture_kana": "シガケン",
    "prefecture_code": 25,
    "city": "長浜市",
    "city_kana": "ナガハマシ",
    "town": "寺師町",
    "town_kana": "テラシチョウ",
    "street": null,
    "office_name": null,
    "office_name_kana": null
  },
  "0211": {
    "postcode": "5260211",
    "prefecture": "滋賀県",
    "prefecture_kana": "シガケン",
    "prefecture_code": 25,
    "city": "長浜市",
    "city_kana": "ナガハマシ",
    "town": "飯山町",
    "town_kana": "イヤマチョウ",
    "street": null,
    "office_name": null,
    "office_name_kana": null
  },
  "0212": {
    "postcode": "5260212",
    "prefecture": "滋賀県",
    "prefecture_kana": "シガケン",
    "prefecture_code": 25,
    "city": "長浜市",
    "city_kana": "ナガハマシ",
    "town": "徳山町",
    "town_kana": "トクヤマチョウ",
    "street": null,
    "office_name": null,
    "office_name_kana": null
  },
  "0213": {
    "postcode": "5260213",
    "prefecture": "滋賀県",
    "prefecture_kana": "シガケン",
    "prefecture_code": 25,
    "city": "長浜市",
    "city_kana": "ナガハマシ",
    "town": "醍醐町",
    "town_kana": "ダイゴチョウ",
    "street": null,
    "office_name": null,
    "office_name_kana": null
  },
  "0214": {
    "postcode": "5260214",
    "prefecture": "滋賀県",
    "prefecture_kana": "シガケン",
    "prefecture_code": 25,
    "city": "長浜市",
    "city_kana": "ナガハマシ",
    "town": "北ノ郷町",
    "town_kana": "キタノゴウチョウ",
    "street": null,
    "office_name": null,
    "office_name_kana": null
  },
  "0215": {
    "postcode": "5260215",
    "prefecture": "滋賀県",
    "prefecture_kana": "シガケン",
    "prefecture_code": 25,
    "city": "長浜市",
    "city_kana": "ナガハマシ",
    "town": "当目町",
    "town_kana": "トウメチョウ",
    "street": null,
    "office_name": null,
    "office_name_kana": null
  },
  "0216": {
    "postcode": "5260216",
    "prefecture": "滋賀県",
    "prefecture_kana": "シガケン",
    "prefecture_code": 25,
    "city": "長浜市",
    "city_kana": "ナガハマシ",
    "town": "大門町",
    "town_kana": "ダイモンチョウ",
    "street": null,
    "office_name": null,
    "office_name_kana": null
  },
  "0217": {
    "postcode": "5260217",
    "prefecture": "滋賀県",
    "prefecture_kana": "シガケン",
    "prefecture_code": 25,
    "city": "長浜市",
    "city_kana": "ナガハマシ",
    "town": "乗倉町",
    "town_kana": "ノセクラチョウ",
    "street": null,
    "office_name": null,
    "office_name_kana": null
  },
  "0221": {
    "postcode": "5260221",
    "prefecture": "滋賀県",
    "prefecture_kana": "シガケン",
    "prefecture_code": 25,
    "city": "長浜市",
    "city_kana": "ナガハマシ",
    "town": "小野寺町",
    "town_kana": "オノデラチョウ",
    "street": null,
    "office_name": null,
    "office_name_kana": null
  },
  "0222": {
    "postcode": "5260222",
    "prefecture": "滋賀県",
    "prefecture_kana": "シガケン",
    "prefecture_code": 25,
    "city": "長浜市",
    "city_kana": "ナガハマシ",
    "town": "浅井高原",
    "town_kana": "アザイコウゲン",
    "street": null,
    "office_name": null,
    "office_name_kana": null
  },
  "0223": {
    "postcode": "5260223",
    "prefecture": "滋賀県",
    "prefecture_kana": "シガケン",
    "prefecture_code": 25,
    "city": "長浜市",
    "city_kana": "ナガハマシ",
    "town": "法楽寺町",
    "town_kana": "ホウラクジチョウ",
    "street": null,
    "office_name": null,
    "office_name_kana": null
  },
  "0224": {
    "postcode": "5260224",
    "prefecture": "滋賀県",
    "prefecture_kana": "シガケン",
    "prefecture_code": 25,
    "city": "長浜市",
    "city_kana": "ナガハマシ",
    "town": "東野町",
    "town_kana": "ヒガシノチョウ",
    "street": null,
    "office_name": null,
    "office_name_kana": null
  },
  "0225": {
    "postcode": "5260225",
    "prefecture": "滋賀県",
    "prefecture_kana": "シガケン",
    "prefecture_code": 25,
    "city": "長浜市",
    "city_kana": "ナガハマシ",
    "town": "南郷町",
    "town_kana": "ナンゴウチョウ",
    "street": null,
    "office_name": null,
    "office_name_kana": null
  },
  "0226": {
    "postcode": "5260226",
    "prefecture": "滋賀県",
    "prefecture_kana": "シガケン",
    "prefecture_code": 25,
    "city": "長浜市",
    "city_kana": "ナガハマシ",
    "town": "東主計町",
    "town_kana": "ヒガシカズエチョウ",
    "street": null,
    "office_name": null,
    "office_name_kana": null
  },
  "0227": {
    "postcode": "5260227",
    "prefecture": "滋賀県",
    "prefecture_kana": "シガケン",
    "prefecture_code": 25,
    "city": "長浜市",
    "city_kana": "ナガハマシ",
    "town": "西主計町",
    "town_kana": "ニシカズエチョウ",
    "street": null,
    "office_name": null,
    "office_name_kana": null
  },
  "0231": {
    "postcode": "5260231",
    "prefecture": "滋賀県",
    "prefecture_kana": "シガケン",
    "prefecture_code": 25,
    "city": "長浜市",
    "city_kana": "ナガハマシ",
    "town": "北池町",
    "town_kana": "キタイケチョウ",
    "street": null,
    "office_name": null,
    "office_name_kana": null
  },
  "0232": {
    "postcode": "5260232",
    "prefecture": "滋賀県",
    "prefecture_kana": "シガケン",
    "prefecture_code": 25,
    "city": "長浜市",
    "city_kana": "ナガハマシ",
    "town": "南池町",
    "town_kana": "ミナミイケチョウ",
    "street": null,
    "office_name": null,
    "office_name_kana": null
  },
  "0233": {
    "postcode": "5260233",
    "prefecture": "滋賀県",
    "prefecture_kana": "シガケン",
    "prefecture_code": 25,
    "city": "長浜市",
    "city_kana": "ナガハマシ",
    "town": "今荘町",
    "town_kana": "イマジョウチョウ",
    "street": null,
    "office_name": null,
    "office_name_kana": null
  },
  "0234": {
    "postcode": "5260234",
    "prefecture": "滋賀県",
    "prefecture_kana": "シガケン",
    "prefecture_code": 25,
    "city": "長浜市",
    "city_kana": "ナガハマシ",
    "town": "相撲庭町",
    "town_kana": "スマイニワチョウ",
    "street": null,
    "office_name": null,
    "office_name_kana": null
  },
  "0235": {
    "postcode": "5260235",
    "prefecture": "滋賀県",
    "prefecture_kana": "シガケン",
    "prefecture_code": 25,
    "city": "長浜市",
    "city_kana": "ナガハマシ",
    "town": "佐野町",
    "town_kana": "サノチョウ",
    "street": null,
    "office_name": null,
    "office_name_kana": null
  },
  "0236": {
    "postcode": "5260236",
    "prefecture": "滋賀県",
    "prefecture_kana": "シガケン",
    "prefecture_code": 25,
    "city": "長浜市",
    "city_kana": "ナガハマシ",
    "town": "野村町",
    "town_kana": "ノムラチョウ",
    "street": null,
    "office_name": null,
    "office_name_kana": null
  },
  "0241": {
    "postcode": "5260241",
    "prefecture": "滋賀県",
    "prefecture_kana": "シガケン",
    "prefecture_code": 25,
    "city": "長浜市",
    "city_kana": "ナガハマシ",
    "town": "新三田",
    "town_kana": "シンミタ",
    "street": null,
    "office_name": null,
    "office_name_kana": null
  },
  "0242": {
    "postcode": "5260242",
    "prefecture": "滋賀県",
    "prefecture_kana": "シガケン",
    "prefecture_code": 25,
    "city": "長浜市",
    "city_kana": "ナガハマシ",
    "town": "三田町",
    "town_kana": "ミタチョウ",
    "street": null,
    "office_name": null,
    "office_name_kana": null
  },
  "0243": {
    "postcode": "5260243",
    "prefecture": "滋賀県",
    "prefecture_kana": "シガケン",
    "prefecture_code": 25,
    "city": "長浜市",
    "city_kana": "ナガハマシ",
    "town": "大路町",
    "town_kana": "オチチョウ",
    "street": null,
    "office_name": null,
    "office_name_kana": null
  },
  "0244": {
    "postcode": "5260244",
    "prefecture": "滋賀県",
    "prefecture_kana": "シガケン",
    "prefecture_code": 25,
    "city": "長浜市",
    "city_kana": "ナガハマシ",
    "town": "内保町",
    "town_kana": "ウチボチョウ",
    "street": null,
    "office_name": null,
    "office_name_kana": null
  },
  "0245": {
    "postcode": "5260245",
    "prefecture": "滋賀県",
    "prefecture_kana": "シガケン",
    "prefecture_code": 25,
    "city": "長浜市",
    "city_kana": "ナガハマシ",
    "town": "湯次町",
    "town_kana": "ユスキチョウ",
    "street": null,
    "office_name": null,
    "office_name_kana": null
  },
  "0246": {
    "postcode": "5260246",
    "prefecture": "滋賀県",
    "prefecture_kana": "シガケン",
    "prefecture_code": 25,
    "city": "長浜市",
    "city_kana": "ナガハマシ",
    "town": "西新三田",
    "town_kana": "ニシシンミタ",
    "street": null,
    "office_name": null,
    "office_name_kana": null
  },
  "0251": {
    "postcode": "5260251",
    "prefecture": "滋賀県",
    "prefecture_kana": "シガケン",
    "prefecture_code": 25,
    "city": "長浜市",
    "city_kana": "ナガハマシ",
    "town": "大依町",
    "town_kana": "オオヨリチョウ",
    "street": null,
    "office_name": null,
    "office_name_kana": null
  },
  "0252": {
    "postcode": "5260252",
    "prefecture": "滋賀県",
    "prefecture_kana": "シガケン",
    "prefecture_code": 25,
    "city": "長浜市",
    "city_kana": "ナガハマシ",
    "town": "八島町",
    "town_kana": "ヤシマチョウ",
    "street": null,
    "office_name": null,
    "office_name_kana": null
  },
  "0253": {
    "postcode": "5260253",
    "prefecture": "滋賀県",
    "prefecture_kana": "シガケン",
    "prefecture_code": 25,
    "city": "長浜市",
    "city_kana": "ナガハマシ",
    "town": "平塚町",
    "town_kana": "ヒラツカチョウ",
    "street": null,
    "office_name": null,
    "office_name_kana": null
  },
  "0254": {
    "postcode": "5260254",
    "prefecture": "滋賀県",
    "prefecture_kana": "シガケン",
    "prefecture_code": 25,
    "city": "長浜市",
    "city_kana": "ナガハマシ",
    "town": "尊野町",
    "town_kana": "ソンノチョウ",
    "street": null,
    "office_name": null,
    "office_name_kana": null
  },
  "0255": {
    "postcode": "5260255",
    "prefecture": "滋賀県",
    "prefecture_kana": "シガケン",
    "prefecture_code": 25,
    "city": "長浜市",
    "city_kana": "ナガハマシ",
    "town": "西野町",
    "town_kana": "ニシノチョウ",
    "street": null,
    "office_name": null,
    "office_name_kana": null
  },
  "0256": {
    "postcode": "5260256",
    "prefecture": "滋賀県",
    "prefecture_kana": "シガケン",
    "prefecture_code": 25,
    "city": "長浜市",
    "city_kana": "ナガハマシ",
    "town": "尊勝寺町",
    "town_kana": "ソンショウジチョウ",
    "street": null,
    "office_name": null,
    "office_name_kana": null
  },
  "0257": {
    "postcode": "5260257",
    "prefecture": "滋賀県",
    "prefecture_kana": "シガケン",
    "prefecture_code": 25,
    "city": "長浜市",
    "city_kana": "ナガハマシ",
    "town": "山ノ前町",
    "town_kana": "ヤマノマエチョウ",
    "street": null,
    "office_name": null,
    "office_name_kana": null
  },
  "0261": {
    "postcode": "5260261",
    "prefecture": "滋賀県",
    "prefecture_kana": "シガケン",
    "prefecture_code": 25,
    "city": "長浜市",
    "city_kana": "ナガハマシ",
    "town": "竜安寺町",
    "town_kana": "リュウアンジチョウ",
    "street": null,
    "office_name": null,
    "office_name_kana": null
  },
  "0262": {
    "postcode": "5260262",
    "prefecture": "滋賀県",
    "prefecture_kana": "シガケン",
    "prefecture_code": 25,
    "city": "長浜市",
    "city_kana": "ナガハマシ",
    "town": "黒部町",
    "town_kana": "クロベチョウ",
    "street": null,
    "office_name": null,
    "office_name_kana": null
  },
  "0263": {
    "postcode": "5260263",
    "prefecture": "滋賀県",
    "prefecture_kana": "シガケン",
    "prefecture_code": 25,
    "city": "長浜市",
    "city_kana": "ナガハマシ",
    "town": "小室町",
    "town_kana": "コムロチョウ",
    "street": null,
    "office_name": null,
    "office_name_kana": null
  },
  "0264": {
    "postcode": "5260264",
    "prefecture": "滋賀県",
    "prefecture_kana": "シガケン",
    "prefecture_code": 25,
    "city": "長浜市",
    "city_kana": "ナガハマシ",
    "town": "上野町",
    "town_kana": "ウワノチョウ",
    "street": null,
    "office_name": null,
    "office_name_kana": null
  },
  "0265": {
    "postcode": "5260265",
    "prefecture": "滋賀県",
    "prefecture_kana": "シガケン",
    "prefecture_code": 25,
    "city": "長浜市",
    "city_kana": "ナガハマシ",
    "town": "木尾町",
    "town_kana": "キオチョウ",
    "street": null,
    "office_name": null,
    "office_name_kana": null
  },
  "0266": {
    "postcode": "5260266",
    "prefecture": "滋賀県",
    "prefecture_kana": "シガケン",
    "prefecture_code": 25,
    "city": "長浜市",
    "city_kana": "ナガハマシ",
    "town": "野田町",
    "town_kana": "ノダチョウ",
    "street": null,
    "office_name": null,
    "office_name_kana": null
  },
  "0267": {
    "postcode": "5260267",
    "prefecture": "滋賀県",
    "prefecture_kana": "シガケン",
    "prefecture_code": 25,
    "city": "長浜市",
    "city_kana": "ナガハマシ",
    "town": "力丸町",
    "town_kana": "リキマルチョウ",
    "street": null,
    "office_name": null,
    "office_name_kana": null
  },
  "0271": {
    "postcode": "5260271",
    "prefecture": "滋賀県",
    "prefecture_kana": "シガケン",
    "prefecture_code": 25,
    "city": "長浜市",
    "city_kana": "ナガハマシ",
    "town": "谷口町",
    "town_kana": "タニグチチョウ",
    "street": null,
    "office_name": null,
    "office_name_kana": null
  },
  "0272": {
    "postcode": "5260272",
    "prefecture": "滋賀県",
    "prefecture_kana": "シガケン",
    "prefecture_code": 25,
    "city": "長浜市",
    "city_kana": "ナガハマシ",
    "town": "北野町",
    "town_kana": "キタノチョウ",
    "street": null,
    "office_name": null,
    "office_name_kana": null
  },
  "0273": {
    "postcode": "5260273",
    "prefecture": "滋賀県",
    "prefecture_kana": "シガケン",
    "prefecture_code": 25,
    "city": "長浜市",
    "city_kana": "ナガハマシ",
    "town": "高畑町",
    "town_kana": "タカハタチョウ",
    "street": null,
    "office_name": null,
    "office_name_kana": null
  },
  "0274": {
    "postcode": "5260274",
    "prefecture": "滋賀県",
    "prefecture_kana": "シガケン",
    "prefecture_code": 25,
    "city": "長浜市",
    "city_kana": "ナガハマシ",
    "town": "池奥町",
    "town_kana": "イケオクチョウ",
    "street": null,
    "office_name": null,
    "office_name_kana": null
  },
  "0275": {
    "postcode": "5260275",
    "prefecture": "滋賀県",
    "prefecture_kana": "シガケン",
    "prefecture_code": 25,
    "city": "長浜市",
    "city_kana": "ナガハマシ",
    "town": "瓜生町",
    "town_kana": "ウリュウチョウ",
    "street": null,
    "office_name": null,
    "office_name_kana": null
  },
  "0276": {
    "postcode": "5260276",
    "prefecture": "滋賀県",
    "prefecture_kana": "シガケン",
    "prefecture_code": 25,
    "city": "長浜市",
    "city_kana": "ナガハマシ",
    "town": "田川町",
    "town_kana": "タガワチョウ",
    "street": null,
    "office_name": null,
    "office_name_kana": null
  },
  "0277": {
    "postcode": "5260277",
    "prefecture": "滋賀県",
    "prefecture_kana": "シガケン",
    "prefecture_code": 25,
    "city": "長浜市",
    "city_kana": "ナガハマシ",
    "town": "須賀谷町",
    "town_kana": "スガタニチョウ",
    "street": null,
    "office_name": null,
    "office_name_kana": null
  },
  "0292": {
    "postcode": "5260292",
    "prefecture": "滋賀県",
    "prefecture_kana": "シガケン",
    "prefecture_code": 25,
    "city": "長浜市",
    "city_kana": "ナガハマシ",
    "town": "内保町",
    "town_kana": "ウチボチョウ",
    "street": "２４９０−１",
    "office_name": "長浜市役所　浅井支所",
    "office_name_kana": "ナガハマシヤクシヨ アザイシシヨ"
  },
  "0293": {
    "postcode": "5260293",
    "prefecture": "滋賀県",
    "prefecture_kana": "シガケン",
    "prefecture_code": 25,
    "city": "長浜市",
    "city_kana": "ナガハマシ",
    "town": "内保町",
    "town_kana": "ウチボチョウ",
    "street": "７７",
    "office_name": "株式会社　セネファ",
    "office_name_kana": "カブシキガイシヤ セネフア"
  },
  "0801": {
    "postcode": "5260801",
    "prefecture": "滋賀県",
    "prefecture_kana": "シガケン",
    "prefecture_code": 25,
    "city": "長浜市",
    "city_kana": "ナガハマシ",
    "town": "千草町",
    "town_kana": "チクサチョウ",
    "street": null,
    "office_name": null,
    "office_name_kana": null
  },
  "0802": {
    "postcode": "5260802",
    "prefecture": "滋賀県",
    "prefecture_kana": "シガケン",
    "prefecture_code": 25,
    "city": "長浜市",
    "city_kana": "ナガハマシ",
    "town": "東上坂町",
    "town_kana": "ヒガシコウザカチョウ",
    "street": null,
    "office_name": null,
    "office_name_kana": null
  },
  "0803": {
    "postcode": "5260803",
    "prefecture": "滋賀県",
    "prefecture_kana": "シガケン",
    "prefecture_code": 25,
    "city": "長浜市",
    "city_kana": "ナガハマシ",
    "town": "西上坂町",
    "town_kana": "ニシコウザカチョウ",
    "street": null,
    "office_name": null,
    "office_name_kana": null
  },
  "0804": {
    "postcode": "5260804",
    "prefecture": "滋賀県",
    "prefecture_kana": "シガケン",
    "prefecture_code": 25,
    "city": "長浜市",
    "city_kana": "ナガハマシ",
    "town": "加納町",
    "town_kana": "カノウチョウ",
    "street": null,
    "office_name": null,
    "office_name_kana": null
  },
  "0805": {
    "postcode": "5260805",
    "prefecture": "滋賀県",
    "prefecture_kana": "シガケン",
    "prefecture_code": 25,
    "city": "長浜市",
    "city_kana": "ナガハマシ",
    "town": "榎木町",
    "town_kana": "エノキチョウ",
    "street": null,
    "office_name": null,
    "office_name_kana": null
  },
  "0806": {
    "postcode": "5260806",
    "prefecture": "滋賀県",
    "prefecture_kana": "シガケン",
    "prefecture_code": 25,
    "city": "長浜市",
    "city_kana": "ナガハマシ",
    "town": "今町",
    "town_kana": "イマチョウ",
    "street": null,
    "office_name": null,
    "office_name_kana": null
  },
  "0811": {
    "postcode": "5260811",
    "prefecture": "滋賀県",
    "prefecture_kana": "シガケン",
    "prefecture_code": 25,
    "city": "長浜市",
    "city_kana": "ナガハマシ",
    "town": "垣籠町",
    "town_kana": "カイゴメチョウ",
    "street": null,
    "office_name": null,
    "office_name_kana": null
  },
  "0812": {
    "postcode": "5260812",
    "prefecture": "滋賀県",
    "prefecture_kana": "シガケン",
    "prefecture_code": 25,
    "city": "長浜市",
    "city_kana": "ナガハマシ",
    "town": "保多町",
    "town_kana": "ホダチョウ",
    "street": null,
    "office_name": null,
    "office_name_kana": null
  },
  "0813": {
    "postcode": "5260813",
    "prefecture": "滋賀県",
    "prefecture_kana": "シガケン",
    "prefecture_code": 25,
    "city": "長浜市",
    "city_kana": "ナガハマシ",
    "town": "堀部町",
    "town_kana": "ホリベチョウ",
    "street": null,
    "office_name": null,
    "office_name_kana": null
  },
  "0814": {
    "postcode": "5260814",
    "prefecture": "滋賀県",
    "prefecture_kana": "シガケン",
    "prefecture_code": 25,
    "city": "長浜市",
    "city_kana": "ナガハマシ",
    "town": "石田町",
    "town_kana": "イシダチョウ",
    "street": null,
    "office_name": null,
    "office_name_kana": null
  },
  "0815": {
    "postcode": "5260815",
    "prefecture": "滋賀県",
    "prefecture_kana": "シガケン",
    "prefecture_code": 25,
    "city": "長浜市",
    "city_kana": "ナガハマシ",
    "town": "八条町",
    "town_kana": "ハチジョウチョウ",
    "street": null,
    "office_name": null,
    "office_name_kana": null
  },
  "0816": {
    "postcode": "5260816",
    "prefecture": "滋賀県",
    "prefecture_kana": "シガケン",
    "prefecture_code": 25,
    "city": "長浜市",
    "city_kana": "ナガハマシ",
    "town": "今川町",
    "town_kana": "イマガワチョウ",
    "street": null,
    "office_name": null,
    "office_name_kana": null
  },
  "0817": {
    "postcode": "5260817",
    "prefecture": "滋賀県",
    "prefecture_kana": "シガケン",
    "prefecture_code": 25,
    "city": "長浜市",
    "city_kana": "ナガハマシ",
    "town": "七条町",
    "town_kana": "シチジョウチョウ",
    "street": null,
    "office_name": null,
    "office_name_kana": null
  },
  "0821": {
    "postcode": "5260821",
    "prefecture": "滋賀県",
    "prefecture_kana": "シガケン",
    "prefecture_code": 25,
    "city": "長浜市",
    "city_kana": "ナガハマシ",
    "town": "本庄町",
    "town_kana": "ホンジョウチョウ",
    "street": null,
    "office_name": null,
    "office_name_kana": null
  },
  "0822": {
    "postcode": "5260822",
    "prefecture": "滋賀県",
    "prefecture_kana": "シガケン",
    "prefecture_code": 25,
    "city": "長浜市",
    "city_kana": "ナガハマシ",
    "town": "鳥羽上町",
    "town_kana": "トバカミチョウ",
    "street": null,
    "office_name": null,
    "office_name_kana": null
  },
  "0823": {
    "postcode": "5260823",
    "prefecture": "滋賀県",
    "prefecture_kana": "シガケン",
    "prefecture_code": 25,
    "city": "長浜市",
    "city_kana": "ナガハマシ",
    "town": "常喜町",
    "town_kana": "ジョウギチョウ",
    "street": null,
    "office_name": null,
    "office_name_kana": null
  },
  "0824": {
    "postcode": "5260824",
    "prefecture": "滋賀県",
    "prefecture_kana": "シガケン",
    "prefecture_code": 25,
    "city": "長浜市",
    "city_kana": "ナガハマシ",
    "town": "名越町",
    "town_kana": "ナゴシチョウ",
    "street": null,
    "office_name": null,
    "office_name_kana": null
  },
  "0825": {
    "postcode": "5260825",
    "prefecture": "滋賀県",
    "prefecture_kana": "シガケン",
    "prefecture_code": 25,
    "city": "長浜市",
    "city_kana": "ナガハマシ",
    "town": "布勢町",
    "town_kana": "フセチョウ",
    "street": null,
    "office_name": null,
    "office_name_kana": null
  },
  "0826": {
    "postcode": "5260826",
    "prefecture": "滋賀県",
    "prefecture_kana": "シガケン",
    "prefecture_code": 25,
    "city": "長浜市",
    "city_kana": "ナガハマシ",
    "town": "小一条町",
    "town_kana": "コイチジョウチョウ",
    "street": null,
    "office_name": null,
    "office_name_kana": null
  },
  "0827": {
    "postcode": "5260827",
    "prefecture": "滋賀県",
    "prefecture_kana": "シガケン",
    "prefecture_code": 25,
    "city": "長浜市",
    "city_kana": "ナガハマシ",
    "town": "加田今町",
    "town_kana": "カダイマチョウ",
    "street": null,
    "office_name": null,
    "office_name_kana": null
  },
  "0828": {
    "postcode": "5260828",
    "prefecture": "滋賀県",
    "prefecture_kana": "シガケン",
    "prefecture_code": 25,
    "city": "長浜市",
    "city_kana": "ナガハマシ",
    "town": "加田町",
    "town_kana": "カダチョウ",
    "street": null,
    "office_name": null,
    "office_name_kana": null
  },
  "0829": {
    "postcode": "5260829",
    "prefecture": "滋賀県",
    "prefecture_kana": "シガケン",
    "prefecture_code": 25,
    "city": "長浜市",
    "city_kana": "ナガハマシ",
    "town": "田村町",
    "town_kana": "タムラチョウ",
    "street": null,
    "office_name": null,
    "office_name_kana": null
  },
  "0831": {
    "postcode": "5260831",
    "prefecture": "滋賀県",
    "prefecture_kana": "シガケン",
    "prefecture_code": 25,
    "city": "長浜市",
    "city_kana": "ナガハマシ",
    "town": "宮司町",
    "town_kana": "ミヤシチョウ",
    "street": null,
    "office_name": null,
    "office_name_kana": null
  },
  "0832": {
    "postcode": "5260832",
    "prefecture": "滋賀県",
    "prefecture_kana": "シガケン",
    "prefecture_code": 25,
    "city": "長浜市",
    "city_kana": "ナガハマシ",
    "town": "大東町",
    "town_kana": "オオヒガシチョウ",
    "street": null,
    "office_name": null,
    "office_name_kana": null
  },
  "0833": {
    "postcode": "5260833",
    "prefecture": "滋賀県",
    "prefecture_kana": "シガケン",
    "prefecture_code": 25,
    "city": "長浜市",
    "city_kana": "ナガハマシ",
    "town": "永久寺町",
    "town_kana": "エイキュウジチョウ",
    "street": null,
    "office_name": null,
    "office_name_kana": null
  },
  "0834": {
    "postcode": "5260834",
    "prefecture": "滋賀県",
    "prefecture_kana": "シガケン",
    "prefecture_code": 25,
    "city": "長浜市",
    "city_kana": "ナガハマシ",
    "town": "大辰巳町",
    "town_kana": "オオタツミチョウ",
    "street": null,
    "office_name": null,
    "office_name_kana": null
  },
  "0835": {
    "postcode": "5260835",
    "prefecture": "滋賀県",
    "prefecture_kana": "シガケン",
    "prefecture_code": 25,
    "city": "長浜市",
    "city_kana": "ナガハマシ",
    "town": "室町",
    "town_kana": "ムロチョウ",
    "street": null,
    "office_name": null,
    "office_name_kana": null
  },
  "0841": {
    "postcode": "5260841",
    "prefecture": "滋賀県",
    "prefecture_kana": "シガケン",
    "prefecture_code": 25,
    "city": "長浜市",
    "city_kana": "ナガハマシ",
    "town": "新栄町",
    "town_kana": "ニイサカチョウ",
    "street": null,
    "office_name": null,
    "office_name_kana": null
  },
  "0842": {
    "postcode": "5260842",
    "prefecture": "滋賀県",
    "prefecture_kana": "シガケン",
    "prefecture_code": 25,
    "city": "長浜市",
    "city_kana": "ナガハマシ",
    "town": "春近町",
    "town_kana": "ハルチカチョウ",
    "street": null,
    "office_name": null,
    "office_name_kana": null
  },
  "0843": {
    "postcode": "5260843",
    "prefecture": "滋賀県",
    "prefecture_kana": "シガケン",
    "prefecture_code": 25,
    "city": "長浜市",
    "city_kana": "ナガハマシ",
    "town": "南小足町",
    "town_kana": "ミナミコアシチョウ",
    "street": null,
    "office_name": null,
    "office_name_kana": null
  },
  "0844": {
    "postcode": "5260844",
    "prefecture": "滋賀県",
    "prefecture_kana": "シガケン",
    "prefecture_code": 25,
    "city": "長浜市",
    "city_kana": "ナガハマシ",
    "town": "南田附町",
    "town_kana": "ミナミタヅケチョウ",
    "street": null,
    "office_name": null,
    "office_name_kana": null
  },
  "0845": {
    "postcode": "5260845",
    "prefecture": "滋賀県",
    "prefecture_kana": "シガケン",
    "prefecture_code": 25,
    "city": "長浜市",
    "city_kana": "ナガハマシ",
    "town": "小堀町",
    "town_kana": "コボリチョウ",
    "street": null,
    "office_name": null,
    "office_name_kana": null
  },
  "0846": {
    "postcode": "5260846",
    "prefecture": "滋賀県",
    "prefecture_kana": "シガケン",
    "prefecture_code": 25,
    "city": "長浜市",
    "city_kana": "ナガハマシ",
    "town": "川崎町",
    "town_kana": "カワサキチョウ",
    "street": null,
    "office_name": null,
    "office_name_kana": null
  },
  "0847": {
    "postcode": "5260847",
    "prefecture": "滋賀県",
    "prefecture_kana": "シガケン",
    "prefecture_code": 25,
    "city": "長浜市",
    "city_kana": "ナガハマシ",
    "town": "山階町",
    "town_kana": "ヤマシナチョウ",
    "street": null,
    "office_name": null,
    "office_name_kana": null
  },
  "8501": {
    "postcode": "5268501",
    "prefecture": "滋賀県",
    "prefecture_kana": "シガケン",
    "prefecture_code": 25,
    "city": "長浜市",
    "city_kana": "ナガハマシ",
    "town": "八幡東町",
    "town_kana": "ヤワタヒガシチョウ",
    "street": "６３２番地",
    "office_name": "長浜市役所",
    "office_name_kana": "ナガハマシヤクシヨ"
  },
  "8545": {
    "postcode": "5268545",
    "prefecture": "滋賀県",
    "prefecture_kana": "シガケン",
    "prefecture_code": 25,
    "city": "長浜市",
    "city_kana": "ナガハマシ",
    "town": "殿町",
    "town_kana": "トノチョウ",
    "street": "４−６",
    "office_name": "タカタ　（株）　長浜製造所",
    "office_name_kana": "タカタ (カブ) ナガハマセイゾウシヨ"
  },
  "8558": {
    "postcode": "5268558",
    "prefecture": "滋賀県",
    "prefecture_kana": "シガケン",
    "prefecture_code": 25,
    "city": "長浜市",
    "city_kana": "ナガハマシ",
    "town": "三和町",
    "town_kana": "サンワチョウ",
    "street": "７−３５",
    "office_name": "ヤンマー　（株）　小形エンジン事業部",
    "office_name_kana": "ヤンマ- (カブ) コガタエンジンジギヨウブ"
  },
  "8580": {
    "postcode": "5268580",
    "prefecture": "滋賀県",
    "prefecture_kana": "シガケン",
    "prefecture_code": 25,
    "city": "長浜市",
    "city_kana": "ナガハマシ",
    "town": "大戌亥町",
    "town_kana": "オオイヌイチョウ",
    "street": "３１３",
    "office_name": "市立長浜病院",
    "office_name_kana": "シリツナガハマビヨウイン"
  },
  "8585": {
    "postcode": "5268585",
    "prefecture": "滋賀県",
    "prefecture_kana": "シガケン",
    "prefecture_code": 25,
    "city": "長浜市",
    "city_kana": "ナガハマシ",
    "town": "宮前町",
    "town_kana": "ミヤマエチョウ",
    "street": "１４−７",
    "office_name": "長浜赤十字病院",
    "office_name_kana": "ナガハマセキジユウジビヨウイン"
  },
  "8660": {
    "postcode": "5268660",
    "prefecture": "滋賀県",
    "prefecture_kana": "シガケン",
    "prefecture_code": 25,
    "city": "長浜市",
    "city_kana": "ナガハマシ",
    "town": "三ツ矢町",
    "town_kana": "ミツヤチョウ",
    "street": "５番８号（長浜郵便局私書箱第９号）",
    "office_name": "三菱ケミカル　株式会社　滋賀事業所",
    "office_name_kana": "ミツビシケミカル カブシキガイシヤ シガジギヨウシヨ"
  },
  "8686": {
    "postcode": "5268686",
    "prefecture": "滋賀県",
    "prefecture_kana": "シガケン",
    "prefecture_code": 25,
    "city": "長浜市",
    "city_kana": "ナガハマシ",
    "town": "元浜町",
    "town_kana": "モトハマチョウ",
    "street": "３番３号（長浜郵便局私書箱第２８号）",
    "office_name": "長浜信用金庫",
    "office_name_kana": "ナガハマシンヨウキンコ"
  }
}