{
  "0041": {
    "postcode": "5310041",
    "prefecture": "大阪府",
    "prefecture_kana": "オオサカフ",
    "prefecture_code": 27,
    "city": "大阪市北区",
    "city_kana": "オオサカシキタク",
    "town": "天神橋",
    "town_kana": "テンジンバシ",
    "street": null,
    "office_name": null,
    "office_name_kana": null
  },
  "0061": {
    "postcode": "5310061",
    "prefecture": "大阪府",
    "prefecture_kana": "オオサカフ",
    "prefecture_code": 27,
    "city": "大阪市北区",
    "city_kana": "オオサカシキタク",
    "town": "長柄西",
    "town_kana": "ナガラニシ",
    "street": null,
    "office_name": null,
    "office_name_kana": null
  },
  "0062": {
    "postcode": "5310062",
    "prefecture": "大阪府",
    "prefecture_kana": "オオサカフ",
    "prefecture_code": 27,
    "city": "大阪市北区",
    "city_kana": "オオサカシキタク",
    "town": "長柄中",
    "town_kana": "ナガラナカ",
    "street": null,
    "office_name": null,
    "office_name_kana": null
  },
  "0063": {
    "postcode": "5310063",
    "prefecture": "大阪府",
    "prefecture_kana": "オオサカフ",
    "prefecture_code": 27,
    "city": "大阪市北区",
    "city_kana": "オオサカシキタク",
    "town": "長柄東",
    "town_kana": "ナガラヒガシ",
    "street": null,
    "office_name": null,
    "office_name_kana": null
  },
  "0064": {
    "postcode": "5310064",
    "prefecture": "大阪府",
    "prefecture_kana": "オオサカフ",
    "prefecture_code": 27,
    "city": "大阪市北区",
    "city_kana": "オオサカシキタク",
    "town": "国分寺",
    "town_kana": "コクブンジ",
    "street": null,
    "office_name": null,
    "office_name_kana": null
  },
  "0071": {
    "postcode": "5310071",
    "prefecture": "大阪府",
    "prefecture_kana": "オオサカフ",
    "prefecture_code": 27,
    "city": "大阪市北区",
    "city_kana": "オオサカシキタク",
    "town": "中津",
    "town_kana": "ナカツ",
    "street": null,
    "office_name": null,
    "office_name_kana": null
  },
  "0072": {
    "postcode": "5310072",
    "prefecture": "大阪府",
    "prefecture_kana": "オオサカフ",
    "prefecture_code": 27,
    "city": "大阪市北区",
    "city_kana": "オオサカシキタク",
    "town": "豊崎",
    "town_kana": "トヨサキ",
    "street": null,
    "office_name": null,
    "office_name_kana": null
  },
  "0073": {
    "postcode": "5310073",
    "prefecture": "大阪府",
    "prefecture_kana": "オオサカフ",
    "prefecture_code": 27,
    "city": "大阪市北区",
    "city_kana": "オオサカシキタク",
    "town": "本庄西",
    "town_kana": "ホンジョウニシ",
    "street": null,
    "office_name": null,
    "office_name_kana": null
  },
  "0074": {
    "postcode": "5310074",
    "prefecture": "大阪府",
    "prefecture_kana": "オオサカフ",
    "prefecture_code": 27,
    "city": "大阪市北区",
    "city_kana": "オオサカシキタク",
    "town": "本庄東",
    "town_kana": "ホンジョウヒガシ",
    "street": null,
    "office_name": null,
    "office_name_kana": null
  },
  "0075": {
    "postcode": "5310075",
    "prefecture": "大阪府",
    "prefecture_kana": "オオサカフ",
    "prefecture_code": 27,
    "city": "大阪市北区",
    "city_kana": "オオサカシキタク",
    "town": "大淀南",
    "town_kana": "オオヨドミナミ",
    "street": null,
    "office_name": null,
    "office_name_kana": null
  },
  "0076": {
    "postcode": "5310076",
    "prefecture": "大阪府",
    "prefecture_kana": "オオサカフ",
    "prefecture_code": 27,
    "city": "大阪市北区",
    "city_kana": "オオサカシキタク",
    "town": "大淀中",
    "town_kana": "オオヨドナカ",
    "street": null,
    "office_name": null,
    "office_name_kana": null
  },
  "0077": {
    "postcode": "5310077",
    "prefecture": "大阪府",
    "prefecture_kana": "オオサカフ",
    "prefecture_code": 27,
    "city": "大阪市北区",
    "city_kana": "オオサカシキタク",
    "town": "大淀北",
    "town_kana": "オオヨドキタ",
    "street": null,
    "office_name": null,
    "office_name_kana": null
  },
  "6001": {
    "postcode": "5316001",
    "prefecture": "大阪府",
    "prefecture_kana": "オオサカフ",
    "prefecture_code": 27,
    "city": "大阪市北区",
    "city_kana": "オオサカシキタク",
    "town": "大淀中梅田スカイビルタワーイースト　１階",
    "town_kana": "オオヨドナカウメダスカイビルタワーイースト1カイ",
    "street": null,
    "office_name": null,
    "office_name_kana": null
  },
  "6002": {
    "postcode": "5316002",
    "prefecture": "大阪府",
    "prefecture_kana": "オオサカフ",
    "prefecture_code": 27,
    "city": "大阪市北区",
    "city_kana": "オオサカシキタク",
    "town": "大淀中梅田スカイビルタワーイースト　２階",
    "town_kana": "オオヨドナカウメダスカイビルタワーイースト2カイ",
    "street": null,
    "office_name": null,
    "office_name_kana": null
  },
  "6003": {
    "postcode": "5316003",
    "prefecture": "大阪府",
    "prefecture_kana": "オオサカフ",
    "prefecture_code": 27,
    "city": "大阪市北区",
    "city_kana": "オオサカシキタク",
    "town": "大淀中梅田スカイビルタワーイースト　３階",
    "town_kana": "オオヨドナカウメダスカイビルタワーイースト3カイ",
    "street": null,
    "office_name": null,
    "office_name_kana": null
  },
  "6004": {
    "postcode": "5316004",
    "prefecture": "大阪府",
    "prefecture_kana": "オオサカフ",
    "prefecture_code": 27,
    "city": "大阪市北区",
    "city_kana": "オオサカシキタク",
    "town": "大淀中梅田スカイビルタワーイースト　４階",
    "town_kana": "オオヨドナカウメダスカイビルタワーイースト4カイ",
    "street": null,
    "office_name": null,
    "office_name_kana": null
  },
  "6005": {
    "postcode": "5316005",
    "prefecture": "大阪府",
    "prefecture_kana": "オオサカフ",
    "prefecture_code": 27,
    "city": "大阪市北区",
    "city_kana": "オオサカシキタク",
    "town": "大淀中梅田スカイビルタワーイースト　５階",
    "town_kana": "オオヨドナカウメダスカイビルタワーイースト5カイ",
    "street": null,
    "office_name": null,
    "office_name_kana": null
  },
  "6006": {
    "postcode": "5316006",
    "prefecture": "大阪府",
    "prefecture_kana": "オオサカフ",
    "prefecture_code": 27,
    "city": "大阪市北区",
    "city_kana": "オオサカシキタク",
    "town": "大淀中梅田スカイビルタワーイースト　６階",
    "town_kana": "オオヨドナカウメダスカイビルタワーイースト6カイ",
    "street": null,
    "office_name": null,
    "office_name_kana": null
  },
  "6007": {
    "postcode": "5316007",
    "prefecture": "大阪府",
    "prefecture_kana": "オオサカフ",
    "prefecture_code": 27,
    "city": "大阪市北区",
    "city_kana": "オオサカシキタク",
    "town": "大淀中梅田スカイビルタワーイースト　７階",
    "town_kana": "オオヨドナカウメダスカイビルタワーイースト7カイ",
    "street": null,
    "office_name": null,
    "office_name_kana": null
  },
  "6008": {
    "postcode": "5316008",
    "prefecture": "大阪府",
    "prefecture_kana": "オオサカフ",
    "prefecture_code": 27,
    "city": "大阪市北区",
    "city_kana": "オオサカシキタク",
    "town": "大淀中梅田スカイビルタワーイースト　８階",
    "town_kana": "オオヨドナカウメダスカイビルタワーイースト8カイ",
    "street": null,
    "office_name": null,
    "office_name_kana": null
  },
  "6009": {
    "postcode": "5316009",
    "prefecture": "大阪府",
    "prefecture_kana": "オオサカフ",
    "prefecture_code": 27,
    "city": "大阪市北区",
    "city_kana": "オオサカシキタク",
    "town": "大淀中梅田スカイビルタワーイースト　９階",
    "town_kana": "オオヨドナカウメダスカイビルタワーイースト9カイ",
    "street": null,
    "office_name": null,
    "office_name_kana": null
  },
  "6010": {
    "postcode": "5316010",
    "prefecture": "大阪府",
    "prefecture_kana": "オオサカフ",
    "prefecture_code": 27,
    "city": "大阪市北区",
    "city_kana": "オオサカシキタク",
    "town": "大淀中梅田スカイビルタワーイースト　１０階",
    "town_kana": "オオヨドナカウメダスカイビルタワーイースト10カイ",
    "street": null,
    "office_name": null,
    "office_name_kana": null
  },
  "6011": {
    "postcode": "5316011",
    "prefecture": "大阪府",
    "prefecture_kana": "オオサカフ",
    "prefecture_code": 27,
    "city": "大阪市北区",
    "city_kana": "オオサカシキタク",
    "town": "大淀中梅田スカイビルタワーイースト　１１階",
    "town_kana": "オオヨドナカウメダスカイビルタワーイースト11カイ",
    "street": null,
    "office_name": null,
    "office_name_kana": null
  },
  "6012": {
    "postcode": "5316012",
    "prefecture": "大阪府",
    "prefecture_kana": "オオサカフ",
    "prefecture_code": 27,
    "city": "大阪市北区",
    "city_kana": "オオサカシキタク",
    "town": "大淀中梅田スカイビルタワーイースト　１２階",
    "town_kana": "オオヨドナカウメダスカイビルタワーイースト12カイ",
    "street": null,
    "office_name": null,
    "office_name_kana": null
  },
  "6013": {
    "postcode": "5316013",
    "prefecture": "大阪府",
    "prefecture_kana": "オオサカフ",
    "prefecture_code": 27,
    "city": "大阪市北区",
    "city_kana": "オオサカシキタク",
    "town": "大淀中梅田スカイビルタワーイースト　１３階",
    "town_kana": "オオヨドナカウメダスカイビルタワーイースト13カイ",
    "street": null,
    "office_name": null,
    "office_name_kana": null
  },
  "6014": {
    "postcode": "5316014",
    "prefecture": "大阪府",
    "prefecture_kana": "オオサカフ",
    "prefecture_code": 27,
    "city": "大阪市北区",
    "city_kana": "オオサカシキタク",
    "town": "大淀中梅田スカイビルタワーイースト　１４階",
    "town_kana": "オオヨドナカウメダスカイビルタワーイースト14カイ",
    "street": null,
    "office_name": null,
    "office_name_kana": null
  },
  "6015": {
    "postcode": "5316015",
    "prefecture": "大阪府",
    "prefecture_kana": "オオサカフ",
    "prefecture_code": 27,
    "city": "大阪市北区",
    "city_kana": "オオサカシキタク",
    "town": "大淀中梅田スカイビルタワーイースト　１５階",
    "town_kana": "オオヨドナカウメダスカイビルタワーイースト15カイ",
    "street": null,
    "office_name": null,
    "office_name_kana": null
  },
  "6016": {
    "postcode": "5316016",
    "prefecture": "大阪府",
    "prefecture_kana": "オオサカフ",
    "prefecture_code": 27,
    "city": "大阪市北区",
    "city_kana": "オオサカシキタク",
    "town": "大淀中梅田スカイビルタワーイースト　１６階",
    "town_kana": "オオヨドナカウメダスカイビルタワーイースト16カイ",
    "street": null,
    "office_name": null,
    "office_name_kana": null
  },
  "6017": {
    "postcode": "5316017",
    "prefecture": "大阪府",
    "prefecture_kana": "オオサカフ",
    "prefecture_code": 27,
    "city": "大阪市北区",
    "city_kana": "オオサカシキタク",
    "town": "大淀中梅田スカイビルタワーイースト　１７階",
    "town_kana": "オオヨドナカウメダスカイビルタワーイースト17カイ",
    "street": null,
    "office_name": null,
    "office_name_kana": null
  },
  "6018": {
    "postcode": "5316018",
    "prefecture": "大阪府",
    "prefecture_kana": "オオサカフ",
    "prefecture_code": 27,
    "city": "大阪市北区",
    "city_kana": "オオサカシキタク",
    "town": "大淀中梅田スカイビルタワーイースト　１８階",
    "town_kana": "オオヨドナカウメダスカイビルタワーイースト18カイ",
    "street": null,
    "office_name": null,
    "office_name_kana": null
  },
  "6019": {
    "postcode": "5316019",
    "prefecture": "大阪府",
    "prefecture_kana": "オオサカフ",
    "prefecture_code": 27,
    "city": "大阪市北区",
    "city_kana": "オオサカシキタク",
    "town": "大淀中梅田スカイビルタワーイースト　１９階",
    "town_kana": "オオヨドナカウメダスカイビルタワーイースト19カイ",
    "street": null,
    "office_name": null,
    "office_name_kana": null
  },
  "6020": {
    "postcode": "5316020",
    "prefecture": "大阪府",
    "prefecture_kana": "オオサカフ",
    "prefecture_code": 27,
    "city": "大阪市北区",
    "city_kana": "オオサカシキタク",
    "town": "大淀中梅田スカイビルタワーイースト　２０階",
    "town_kana": "オオヨドナカウメダスカイビルタワーイースト20カイ",
    "street": null,
    "office_name": null,
    "office_name_kana": null
  },
  "6021": {
    "postcode": "5316021",
    "prefecture": "大阪府",
    "prefecture_kana": "オオサカフ",
    "prefecture_code": 27,
    "city": "大阪市北区",
    "city_kana": "オオサカシキタク",
    "town": "大淀中梅田スカイビルタワーイースト　２１階",
    "town_kana": "オオヨドナカウメダスカイビルタワーイースト21カイ",
    "street": null,
    "office_name": null,
    "office_name_kana": null
  },
  "6022": {
    "postcode": "5316022",
    "prefecture": "大阪府",
    "prefecture_kana": "オオサカフ",
    "prefecture_code": 27,
    "city": "大阪市北区",
    "city_kana": "オオサカシキタク",
    "town": "大淀中梅田スカイビルタワーイースト　２２階",
    "town_kana": "オオヨドナカウメダスカイビルタワーイースト22カイ",
    "street": null,
    "office_name": null,
    "office_name_kana": null
  },
  "6023": {
    "postcode": "5316023",
    "prefecture": "大阪府",
    "prefecture_kana": "オオサカフ",
    "prefecture_code": 27,
    "city": "大阪市北区",
    "city_kana": "オオサカシキタク",
    "town": "大淀中梅田スカイビルタワーイースト　２３階",
    "town_kana": "オオヨドナカウメダスカイビルタワーイースト23カイ",
    "street": null,
    "office_name": null,
    "office_name_kana": null
  },
  "6024": {
    "postcode": "5316024",
    "prefecture": "大阪府",
    "prefecture_kana": "オオサカフ",
    "prefecture_code": 27,
    "city": "大阪市北区",
    "city_kana": "オオサカシキタク",
    "town": "大淀中梅田スカイビルタワーイースト　２４階",
    "town_kana": "オオヨドナカウメダスカイビルタワーイースト24カイ",
    "street": null,
    "office_name": null,
    "office_name_kana": null
  },
  "6025": {
    "postcode": "5316025",
    "prefecture": "大阪府",
    "prefecture_kana": "オオサカフ",
    "prefecture_code": 27,
    "city": "大阪市北区",
    "city_kana": "オオサカシキタク",
    "town": "大淀中梅田スカイビルタワーイースト　２５階",
    "town_kana": "オオヨドナカウメダスカイビルタワーイースト25カイ",
    "street": null,
    "office_name": null,
    "office_name_kana": null
  },
  "6026": {
    "postcode": "5316026",
    "prefecture": "大阪府",
    "prefecture_kana": "オオサカフ",
    "prefecture_code": 27,
    "city": "大阪市北区",
    "city_kana": "オオサカシキタク",
    "town": "大淀中梅田スカイビルタワーイースト　２６階",
    "town_kana": "オオヨドナカウメダスカイビルタワーイースト26カイ",
    "street": null,
    "office_name": null,
    "office_name_kana": null
  },
  "6027": {
    "postcode": "5316027",
    "prefecture": "大阪府",
    "prefecture_kana": "オオサカフ",
    "prefecture_code": 27,
    "city": "大阪市北区",
    "city_kana": "オオサカシキタク",
    "town": "大淀中梅田スカイビルタワーイースト　２７階",
    "town_kana": "オオヨドナカウメダスカイビルタワーイースト27カイ",
    "street": null,
    "office_name": null,
    "office_name_kana": null
  },
  "6028": {
    "postcode": "5316028",
    "prefecture": "大阪府",
    "prefecture_kana": "オオサカフ",
    "prefecture_code": 27,
    "city": "大阪市北区",
    "city_kana": "オオサカシキタク",
    "town": "大淀中梅田スカイビルタワーイースト　２８階",
    "town_kana": "オオヨドナカウメダスカイビルタワーイースト28カイ",
    "street": null,
    "office_name": null,
    "office_name_kana": null
  },
  "6029": {
    "postcode": "5316029",
    "prefecture": "大阪府",
    "prefecture_kana": "オオサカフ",
    "prefecture_code": 27,
    "city": "大阪市北区",
    "city_kana": "オオサカシキタク",
    "town": "大淀中梅田スカイビルタワーイースト　２９階",
    "town_kana": "オオヨドナカウメダスカイビルタワーイースト29カイ",
    "street": null,
    "office_name": null,
    "office_name_kana": null
  },
  "6030": {
    "postcode": "5316030",
    "prefecture": "大阪府",
    "prefecture_kana": "オオサカフ",
    "prefecture_code": 27,
    "city": "大阪市北区",
    "city_kana": "オオサカシキタク",
    "town": "大淀中梅田スカイビルタワーイースト　３０階",
    "town_kana": "オオヨドナカウメダスカイビルタワーイースト30カイ",
    "street": null,
    "office_name": null,
    "office_name_kana": null
  },
  "6031": {
    "postcode": "5316031",
    "prefecture": "大阪府",
    "prefecture_kana": "オオサカフ",
    "prefecture_code": 27,
    "city": "大阪市北区",
    "city_kana": "オオサカシキタク",
    "town": "大淀中梅田スカイビルタワーイースト　３１階",
    "town_kana": "オオヨドナカウメダスカイビルタワーイースト31カイ",
    "street": null,
    "office_name": null,
    "office_name_kana": null
  },
  "6032": {
    "postcode": "5316032",
    "prefecture": "大阪府",
    "prefecture_kana": "オオサカフ",
    "prefecture_code": 27,
    "city": "大阪市北区",
    "city_kana": "オオサカシキタク",
    "town": "大淀中梅田スカイビルタワーイースト　３２階",
    "town_kana": "オオヨドナカウメダスカイビルタワーイースト32カイ",
    "street": null,
    "office_name": null,
    "office_name_kana": null
  },
  "6033": {
    "postcode": "5316033",
    "prefecture": "大阪府",
    "prefecture_kana": "オオサカフ",
    "prefecture_code": 27,
    "city": "大阪市北区",
    "city_kana": "オオサカシキタク",
    "town": "大淀中梅田スカイビルタワーイースト　３３階",
    "town_kana": "オオヨドナカウメダスカイビルタワーイースト33カイ",
    "street": null,
    "office_name": null,
    "office_name_kana": null
  },
  "6034": {
    "postcode": "5316034",
    "prefecture": "大阪府",
    "prefecture_kana": "オオサカフ",
    "prefecture_code": 27,
    "city": "大阪市北区",
    "city_kana": "オオサカシキタク",
    "town": "大淀中梅田スカイビルタワーイースト　３４階",
    "town_kana": "オオヨドナカウメダスカイビルタワーイースト34カイ",
    "street": null,
    "office_name": null,
    "office_name_kana": null
  },
  "6035": {
    "postcode": "5316035",
    "prefecture": "大阪府",
    "prefecture_kana": "オオサカフ",
    "prefecture_code": 27,
    "city": "大阪市北区",
    "city_kana": "オオサカシキタク",
    "town": "大淀中梅田スカイビルタワーイースト　３５階",
    "town_kana": "オオヨドナカウメダスカイビルタワーイースト35カイ",
    "street": null,
    "office_name": null,
    "office_name_kana": null
  },
  "6036": {
    "postcode": "5316036",
    "prefecture": "大阪府",
    "prefecture_kana": "オオサカフ",
    "prefecture_code": 27,
    "city": "大阪市北区",
    "city_kana": "オオサカシキタク",
    "town": "大淀中梅田スカイビルタワーイースト　３６階",
    "town_kana": "オオヨドナカウメダスカイビルタワーイースト36カイ",
    "street": null,
    "office_name": null,
    "office_name_kana": null
  },
  "6037": {
    "postcode": "5316037",
    "prefecture": "大阪府",
    "prefecture_kana": "オオサカフ",
    "prefecture_code": 27,
    "city": "大阪市北区",
    "city_kana": "オオサカシキタク",
    "town": "大淀中梅田スカイビルタワーイースト　３７階",
    "town_kana": "オオヨドナカウメダスカイビルタワーイースト37カイ",
    "street": null,
    "office_name": null,
    "office_name_kana": null
  },
  "6038": {
    "postcode": "5316038",
    "prefecture": "大阪府",
    "prefecture_kana": "オオサカフ",
    "prefecture_code": 27,
    "city": "大阪市北区",
    "city_kana": "オオサカシキタク",
    "town": "大淀中梅田スカイビルタワーイースト　３８階",
    "town_kana": "オオヨドナカウメダスカイビルタワーイースト38カイ",
    "street": null,
    "office_name": null,
    "office_name_kana": null
  },
  "6039": {
    "postcode": "5316039",
    "prefecture": "大阪府",
    "prefecture_kana": "オオサカフ",
    "prefecture_code": 27,
    "city": "大阪市北区",
    "city_kana": "オオサカシキタク",
    "town": "大淀中梅田スカイビルタワーイースト　３９階",
    "town_kana": "オオヨドナカウメダスカイビルタワーイースト39カイ",
    "street": null,
    "office_name": null,
    "office_name_kana": null
  },
  "6053": {
    "postcode": "5316053",
    "prefecture": "大阪府",
    "prefecture_kana": "オオサカフ",
    "prefecture_code": 27,
    "city": "大阪市北区",
    "city_kana": "オオサカシキタク",
    "town": "大淀中",
    "town_kana": "オオヨドナカ",
    "street": "１丁目１番９０号梅田スカイビルガーデンファイブ３階",
    "office_name": "積水ハウスリフォーム　株式会社",
    "office_name_kana": "セキスイハウスリフオ-ム カブシキガイシヤ"
  },
  "6090": {
    "postcode": "5316090",
    "prefecture": "大阪府",
    "prefecture_kana": "オオサカフ",
    "prefecture_code": 27,
    "city": "大阪市北区",
    "city_kana": "オオサカシキタク",
    "town": "大淀中梅田スカイビルタワーイースト",
    "town_kana": "オオヨドナカウメダスカイビルタワーイースト",
    "street": null,
    "office_name": null,
    "office_name_kana": null
  },
  "6101": {
    "postcode": "5316101",
    "prefecture": "大阪府",
    "prefecture_kana": "オオサカフ",
    "prefecture_code": 27,
    "city": "大阪市北区",
    "city_kana": "オオサカシキタク",
    "town": "大淀中梅田スカイビルタワーウエスト　１階",
    "town_kana": "オオヨドナカウメダスカイビルタワーウエスト1カイ",
    "street": null,
    "office_name": null,
    "office_name_kana": null
  },
  "6102": {
    "postcode": "5316102",
    "prefecture": "大阪府",
    "prefecture_kana": "オオサカフ",
    "prefecture_code": 27,
    "city": "大阪市北区",
    "city_kana": "オオサカシキタク",
    "town": "大淀中梅田スカイビルタワーウエスト　２階",
    "town_kana": "オオヨドナカウメダスカイビルタワーウエスト2カイ",
    "street": null,
    "office_name": null,
    "office_name_kana": null
  },
  "6103": {
    "postcode": "5316103",
    "prefecture": "大阪府",
    "prefecture_kana": "オオサカフ",
    "prefecture_code": 27,
    "city": "大阪市北区",
    "city_kana": "オオサカシキタク",
    "town": "大淀中梅田スカイビルタワーウエスト　３階",
    "town_kana": "オオヨドナカウメダスカイビルタワーウエスト3カイ",
    "street": null,
    "office_name": null,
    "office_name_kana": null
  },
  "6104": {
    "postcode": "5316104",
    "prefecture": "大阪府",
    "prefecture_kana": "オオサカフ",
    "prefecture_code": 27,
    "city": "大阪市北区",
    "city_kana": "オオサカシキタク",
    "town": "大淀中梅田スカイビルタワーウエスト　４階",
    "town_kana": "オオヨドナカウメダスカイビルタワーウエスト4カイ",
    "street": null,
    "office_name": null,
    "office_name_kana": null
  },
  "6105": {
    "postcode": "5316105",
    "prefecture": "大阪府",
    "prefecture_kana": "オオサカフ",
    "prefecture_code": 27,
    "city": "大阪市北区",
    "city_kana": "オオサカシキタク",
    "town": "大淀中梅田スカイビルタワーウエスト　５階",
    "town_kana": "オオヨドナカウメダスカイビルタワーウエスト5カイ",
    "street": null,
    "office_name": null,
    "office_name_kana": null
  },
  "6106": {
    "postcode": "5316106",
    "prefecture": "大阪府",
    "prefecture_kana": "オオサカフ",
    "prefecture_code": 27,
    "city": "大阪市北区",
    "city_kana": "オオサカシキタク",
    "town": "大淀中梅田スカイビルタワーウエスト　６階",
    "town_kana": "オオヨドナカウメダスカイビルタワーウエスト6カイ",
    "street": null,
    "office_name": null,
    "office_name_kana": null
  },
  "6107": {
    "postcode": "5316107",
    "prefecture": "大阪府",
    "prefecture_kana": "オオサカフ",
    "prefecture_code": 27,
    "city": "大阪市北区",
    "city_kana": "オオサカシキタク",
    "town": "大淀中梅田スカイビルタワーウエスト　７階",
    "town_kana": "オオヨドナカウメダスカイビルタワーウエスト7カイ",
    "street": null,
    "office_name": null,
    "office_name_kana": null
  },
  "6108": {
    "postcode": "5316108",
    "prefecture": "大阪府",
    "prefecture_kana": "オオサカフ",
    "prefecture_code": 27,
    "city": "大阪市北区",
    "city_kana": "オオサカシキタク",
    "town": "大淀中梅田スカイビルタワーウエスト　８階",
    "town_kana": "オオヨドナカウメダスカイビルタワーウエスト8カイ",
    "street": null,
    "office_name": null,
    "office_name_kana": null
  },
  "6109": {
    "postcode": "5316109",
    "prefecture": "大阪府",
    "prefecture_kana": "オオサカフ",
    "prefecture_code": 27,
    "city": "大阪市北区",
    "city_kana": "オオサカシキタク",
    "town": "大淀中梅田スカイビルタワーウエスト　９階",
    "town_kana": "オオヨドナカウメダスカイビルタワーウエスト9カイ",
    "street": null,
    "office_name": null,
    "office_name_kana": null
  },
  "6110": {
    "postcode": "5316110",
    "prefecture": "大阪府",
    "prefecture_kana": "オオサカフ",
    "prefecture_code": 27,
    "city": "大阪市北区",
    "city_kana": "オオサカシキタク",
    "town": "大淀中梅田スカイビルタワーウエスト　１０階",
    "town_kana": "オオヨドナカウメダスカイビルタワーウエスト10カイ",
    "street": null,
    "office_name": null,
    "office_name_kana": null
  },
  "6111": {
    "postcode": "5316111",
    "prefecture": "大阪府",
    "prefecture_kana": "オオサカフ",
    "prefecture_code": 27,
    "city": "大阪市北区",
    "city_kana": "オオサカシキタク",
    "town": "大淀中梅田スカイビルタワーウエスト　１１階",
    "town_kana": "オオヨドナカウメダスカイビルタワーウエスト11カイ",
    "street": null,
    "office_name": null,
    "office_name_kana": null
  },
  "6112": {
    "postcode": "5316112",
    "prefecture": "大阪府",
    "prefecture_kana": "オオサカフ",
    "prefecture_code": 27,
    "city": "大阪市北区",
    "city_kana": "オオサカシキタク",
    "town": "大淀中梅田スカイビルタワーウエスト　１２階",
    "town_kana": "オオヨドナカウメダスカイビルタワーウエスト12カイ",
    "street": null,
    "office_name": null,
    "office_name_kana": null
  },
  "6113": {
    "postcode": "5316113",
    "prefecture": "大阪府",
    "prefecture_kana": "オオサカフ",
    "prefecture_code": 27,
    "city": "大阪市北区",
    "city_kana": "オオサカシキタク",
    "town": "大淀中梅田スカイビルタワーウエスト　１３階",
    "town_kana": "オオヨドナカウメダスカイビルタワーウエスト13カイ",
    "street": null,
    "office_name": null,
    "office_name_kana": null
  },
  "6114": {
    "postcode": "5316114",
    "prefecture": "大阪府",
    "prefecture_kana": "オオサカフ",
    "prefecture_code": 27,
    "city": "大阪市北区",
    "city_kana": "オオサカシキタク",
    "town": "大淀中梅田スカイビルタワーウエスト　１４階",
    "town_kana": "オオヨドナカウメダスカイビルタワーウエスト14カイ",
    "street": null,
    "office_name": null,
    "office_name_kana": null
  },
  "6115": {
    "postcode": "5316115",
    "prefecture": "大阪府",
    "prefecture_kana": "オオサカフ",
    "prefecture_code": 27,
    "city": "大阪市北区",
    "city_kana": "オオサカシキタク",
    "town": "大淀中梅田スカイビルタワーウエスト　１５階",
    "town_kana": "オオヨドナカウメダスカイビルタワーウエスト15カイ",
    "street": null,
    "office_name": null,
    "office_name_kana": null
  },
  "6116": {
    "postcode": "5316116",
    "prefecture": "大阪府",
    "prefecture_kana": "オオサカフ",
    "prefecture_code": 27,
    "city": "大阪市北区",
    "city_kana": "オオサカシキタク",
    "town": "大淀中梅田スカイビルタワーウエスト　１６階",
    "town_kana": "オオヨドナカウメダスカイビルタワーウエスト16カイ",
    "street": null,
    "office_name": null,
    "office_name_kana": null
  },
  "6117": {
    "postcode": "5316117",
    "prefecture": "大阪府",
    "prefecture_kana": "オオサカフ",
    "prefecture_code": 27,
    "city": "大阪市北区",
    "city_kana": "オオサカシキタク",
    "town": "大淀中梅田スカイビルタワーウエスト　１７階",
    "town_kana": "オオヨドナカウメダスカイビルタワーウエスト17カイ",
    "street": null,
    "office_name": null,
    "office_name_kana": null
  },
  "6118": {
    "postcode": "5316118",
    "prefecture": "大阪府",
    "prefecture_kana": "オオサカフ",
    "prefecture_code": 27,
    "city": "大阪市北区",
    "city_kana": "オオサカシキタク",
    "town": "大淀中梅田スカイビルタワーウエスト　１８階",
    "town_kana": "オオヨドナカウメダスカイビルタワーウエスト18カイ",
    "street": null,
    "office_name": null,
    "office_name_kana": null
  },
  "6119": {
    "postcode": "5316119",
    "prefecture": "大阪府",
    "prefecture_kana": "オオサカフ",
    "prefecture_code": 27,
    "city": "大阪市北区",
    "city_kana": "オオサカシキタク",
    "town": "大淀中梅田スカイビルタワーウエスト　１９階",
    "town_kana": "オオヨドナカウメダスカイビルタワーウエスト19カイ",
    "street": null,
    "office_name": null,
    "office_name_kana": null
  },
  "6120": {
    "postcode": "5316120",
    "prefecture": "大阪府",
    "prefecture_kana": "オオサカフ",
    "prefecture_code": 27,
    "city": "大阪市北区",
    "city_kana": "オオサカシキタク",
    "town": "大淀中梅田スカイビルタワーウエスト　２０階",
    "town_kana": "オオヨドナカウメダスカイビルタワーウエスト20カイ",
    "street": null,
    "office_name": null,
    "office_name_kana": null
  },
  "6121": {
    "postcode": "5316121",
    "prefecture": "大阪府",
    "prefecture_kana": "オオサカフ",
    "prefecture_code": 27,
    "city": "大阪市北区",
    "city_kana": "オオサカシキタク",
    "town": "大淀中梅田スカイビルタワーウエスト　２１階",
    "town_kana": "オオヨドナカウメダスカイビルタワーウエスト21カイ",
    "street": null,
    "office_name": null,
    "office_name_kana": null
  },
  "6122": {
    "postcode": "5316122",
    "prefecture": "大阪府",
    "prefecture_kana": "オオサカフ",
    "prefecture_code": 27,
    "city": "大阪市北区",
    "city_kana": "オオサカシキタク",
    "town": "大淀中梅田スカイビルタワーウエスト　２２階",
    "town_kana": "オオヨドナカウメダスカイビルタワーウエスト22カイ",
    "street": null,
    "office_name": null,
    "office_name_kana": null
  },
  "6123": {
    "postcode": "5316123",
    "prefecture": "大阪府",
    "prefecture_kana": "オオサカフ",
    "prefecture_code": 27,
    "city": "大阪市北区",
    "city_kana": "オオサカシキタク",
    "town": "大淀中梅田スカイビルタワーウエスト　２３階",
    "town_kana": "オオヨドナカウメダスカイビルタワーウエスト23カイ",
    "street": null,
    "office_name": null,
    "office_name_kana": null
  },
  "6124": {
    "postcode": "5316124",
    "prefecture": "大阪府",
    "prefecture_kana": "オオサカフ",
    "prefecture_code": 27,
    "city": "大阪市北区",
    "city_kana": "オオサカシキタク",
    "town": "大淀中梅田スカイビルタワーウエスト　２４階",
    "town_kana": "オオヨドナカウメダスカイビルタワーウエスト24カイ",
    "street": null,
    "office_name": null,
    "office_name_kana": null
  },
  "6125": {
    "postcode": "5316125",
    "prefecture": "大阪府",
    "prefecture_kana": "オオサカフ",
    "prefecture_code": 27,
    "city": "大阪市北区",
    "city_kana": "オオサカシキタク",
    "town": "大淀中梅田スカイビルタワーウエスト　２５階",
    "town_kana": "オオヨドナカウメダスカイビルタワーウエスト25カイ",
    "street": null,
    "office_name": null,
    "office_name_kana": null
  },
  "6126": {
    "postcode": "5316126",
    "prefecture": "大阪府",
    "prefecture_kana": "オオサカフ",
    "prefecture_code": 27,
    "city": "大阪市北区",
    "city_kana": "オオサカシキタク",
    "town": "大淀中梅田スカイビルタワーウエスト　２６階",
    "town_kana": "オオヨドナカウメダスカイビルタワーウエスト26カイ",
    "street": null,
    "office_name": null,
    "office_name_kana": null
  },
  "6127": {
    "postcode": "5316127",
    "prefecture": "大阪府",
    "prefecture_kana": "オオサカフ",
    "prefecture_code": 27,
    "city": "大阪市北区",
    "city_kana": "オオサカシキタク",
    "town": "大淀中梅田スカイビルタワーウエスト　２７階",
    "town_kana": "オオヨドナカウメダスカイビルタワーウエスト27カイ",
    "street": null,
    "office_name": null,
    "office_name_kana": null
  },
  "6128": {
    "postcode": "5316128",
    "prefecture": "大阪府",
    "prefecture_kana": "オオサカフ",
    "prefecture_code": 27,
    "city": "大阪市北区",
    "city_kana": "オオサカシキタク",
    "town": "大淀中梅田スカイビルタワーウエスト　２８階",
    "town_kana": "オオヨドナカウメダスカイビルタワーウエスト28カイ",
    "street": null,
    "office_name": null,
    "office_name_kana": null
  },
  "6129": {
    "postcode": "5316129",
    "prefecture": "大阪府",
    "prefecture_kana": "オオサカフ",
    "prefecture_code": 27,
    "city": "大阪市北区",
    "city_kana": "オオサカシキタク",
    "town": "大淀中梅田スカイビルタワーウエスト　２９階",
    "town_kana": "オオヨドナカウメダスカイビルタワーウエスト29カイ",
    "street": null,
    "office_name": null,
    "office_name_kana": null
  },
  "6130": {
    "postcode": "5316130",
    "prefecture": "大阪府",
    "prefecture_kana": "オオサカフ",
    "prefecture_code": 27,
    "city": "大阪市北区",
    "city_kana": "オオサカシキタク",
    "town": "大淀中梅田スカイビルタワーウエスト　３０階",
    "town_kana": "オオヨドナカウメダスカイビルタワーウエスト30カイ",
    "street": null,
    "office_name": null,
    "office_name_kana": null
  },
  "6131": {
    "postcode": "5316131",
    "prefecture": "大阪府",
    "prefecture_kana": "オオサカフ",
    "prefecture_code": 27,
    "city": "大阪市北区",
    "city_kana": "オオサカシキタク",
    "town": "大淀中梅田スカイビルタワーウエスト　３１階",
    "town_kana": "オオヨドナカウメダスカイビルタワーウエスト31カイ",
    "street": null,
    "office_name": null,
    "office_name_kana": null
  },
  "6132": {
    "postcode": "5316132",
    "prefecture": "大阪府",
    "prefecture_kana": "オオサカフ",
    "prefecture_code": 27,
    "city": "大阪市北区",
    "city_kana": "オオサカシキタク",
    "town": "大淀中梅田スカイビルタワーウエスト　３２階",
    "town_kana": "オオヨドナカウメダスカイビルタワーウエスト32カイ",
    "street": null,
    "office_name": null,
    "office_name_kana": null
  },
  "6133": {
    "postcode": "5316133",
    "prefecture": "大阪府",
    "prefecture_kana": "オオサカフ",
    "prefecture_code": 27,
    "city": "大阪市北区",
    "city_kana": "オオサカシキタク",
    "town": "大淀中梅田スカイビルタワーウエスト　３３階",
    "town_kana": "オオヨドナカウメダスカイビルタワーウエスト33カイ",
    "street": null,
    "office_name": null,
    "office_name_kana": null
  },
  "6134": {
    "postcode": "5316134",
    "prefecture": "大阪府",
    "prefecture_kana": "オオサカフ",
    "prefecture_code": 27,
    "city": "大阪市北区",
    "city_kana": "オオサカシキタク",
    "town": "大淀中梅田スカイビルタワーウエスト　３４階",
    "town_kana": "オオヨドナカウメダスカイビルタワーウエスト34カイ",
    "street": null,
    "office_name": null,
    "office_name_kana": null
  },
  "6135": {
    "postcode": "5316135",
    "prefecture": "大阪府",
    "prefecture_kana": "オオサカフ",
    "prefecture_code": 27,
    "city": "大阪市北区",
    "city_kana": "オオサカシキタク",
    "town": "大淀中梅田スカイビルタワーウエスト　３５階",
    "town_kana": "オオヨドナカウメダスカイビルタワーウエスト35カイ",
    "street": null,
    "office_name": null,
    "office_name_kana": null
  },
  "6136": {
    "postcode": "5316136",
    "prefecture": "大阪府",
    "prefecture_kana": "オオサカフ",
    "prefecture_code": 27,
    "city": "大阪市北区",
    "city_kana": "オオサカシキタク",
    "town": "大淀中梅田スカイビルタワーウエスト　３６階",
    "town_kana": "オオヨドナカウメダスカイビルタワーウエスト36カイ",
    "street": null,
    "office_name": null,
    "office_name_kana": null
  },
  "6137": {
    "postcode": "5316137",
    "prefecture": "大阪府",
    "prefecture_kana": "オオサカフ",
    "prefecture_code": 27,
    "city": "大阪市北区",
    "city_kana": "オオサカシキタク",
    "town": "大淀中梅田スカイビルタワーウエスト　３７階",
    "town_kana": "オオヨドナカウメダスカイビルタワーウエスト37カイ",
    "street": null,
    "office_name": null,
    "office_name_kana": null
  },
  "6138": {
    "postcode": "5316138",
    "prefecture": "大阪府",
    "prefecture_kana": "オオサカフ",
    "prefecture_code": 27,
    "city": "大阪市北区",
    "city_kana": "オオサカシキタク",
    "town": "大淀中梅田スカイビルタワーウエスト　３８階",
    "town_kana": "オオヨドナカウメダスカイビルタワーウエスト38カイ",
    "street": null,
    "office_name": null,
    "office_name_kana": null
  },
  "6139": {
    "postcode": "5316139",
    "prefecture": "大阪府",
    "prefecture_kana": "オオサカフ",
    "prefecture_code": 27,
    "city": "大阪市北区",
    "city_kana": "オオサカシキタク",
    "town": "大淀中梅田スカイビルタワーウエスト　３９階",
    "town_kana": "オオヨドナカウメダスカイビルタワーウエスト39カイ",
    "street": null,
    "office_name": null,
    "office_name_kana": null
  },
  "6190": {
    "postcode": "5316190",
    "prefecture": "大阪府",
    "prefecture_kana": "オオサカフ",
    "prefecture_code": 27,
    "city": "大阪市北区",
    "city_kana": "オオサカシキタク",
    "town": "大淀中梅田スカイビルタワーウエスト",
    "town_kana": "オオヨドナカウメダスカイビルタワーウエスト",
    "street": null,
    "office_name": null,
    "office_name_kana": null
  },
  "8501": {
    "postcode": "5318501",
    "prefecture": "大阪府",
    "prefecture_kana": "オオサカフ",
    "prefecture_code": 27,
    "city": "大阪市北区",
    "city_kana": "オオサカシキタク",
    "town": "大淀南",
    "town_kana": "オオヨドミナミ",
    "street": "２丁目３−３",
    "office_name": "株式会社　ザ・シンフォニーホール",
    "office_name_kana": "カブシキガイシヤ ザ・シンフオニ-ホ-ル"
  },
  "8502": {
    "postcode": "5318502",
    "prefecture": "大阪府",
    "prefecture_kana": "オオサカフ",
    "prefecture_code": 27,
    "city": "大阪市北区",
    "city_kana": "オオサカシキタク",
    "town": "本庄東",
    "town_kana": "ホンジョウヒガシ",
    "street": "２丁目９番１８号",
    "office_name": "関電プラント　株式会社",
    "office_name_kana": "カンデンプラント カブシキガイシヤ"
  },
  "8503": {
    "postcode": "5318503",
    "prefecture": "大阪府",
    "prefecture_kana": "オオサカフ",
    "prefecture_code": 27,
    "city": "大阪市北区",
    "city_kana": "オオサカシキタク",
    "town": "豊崎",
    "town_kana": "トヨサキ",
    "street": "３丁目１９番３号",
    "office_name": "カバーマーク　株式会社",
    "office_name_kana": "カバ-マ-ク カブシキガイシヤ"
  },
  "8510": {
    "postcode": "5318510",
    "prefecture": "大阪府",
    "prefecture_kana": "オオサカフ",
    "prefecture_code": 27,
    "city": "大阪市北区",
    "city_kana": "オオサカシキタク",
    "town": "本庄西",
    "town_kana": "ホンジョウニシ",
    "street": "３丁目９番３号",
    "office_name": "ニプロ　株式会社",
    "office_name_kana": "ニプロ カブシキガイシヤ"
  },
  "8511": {
    "postcode": "5318511",
    "prefecture": "大阪府",
    "prefecture_kana": "オオサカフ",
    "prefecture_code": 27,
    "city": "大阪市北区",
    "city_kana": "オオサカシキタク",
    "town": "大淀北",
    "town_kana": "オオヨドキタ",
    "street": "２丁目１−２",
    "office_name": "ニッポンペイント　株式会社",
    "office_name_kana": "ニツポンペイント カブシキガイシヤ"
  },
  "8519": {
    "postcode": "5318519",
    "prefecture": "大阪府",
    "prefecture_kana": "オオサカフ",
    "prefecture_code": 27,
    "city": "大阪市北区",
    "city_kana": "オオサカシキタク",
    "town": "豊崎",
    "town_kana": "トヨサキ",
    "street": "３丁目１９番３号",
    "office_name": "東急建設　株式会社　関西支店",
    "office_name_kana": "トウキユウケンセツ カブシキガイシヤ カンサイシテン"
  },
  "8526": {
    "postcode": "5318526",
    "prefecture": "大阪府",
    "prefecture_kana": "オオサカフ",
    "prefecture_code": 27,
    "city": "大阪市北区",
    "city_kana": "オオサカシキタク",
    "town": "大淀北",
    "town_kana": "オオヨドキタ",
    "street": "２丁目１番２７号",
    "office_name": "東罐マテリアル・テクノロジー　（株）",
    "office_name_kana": "トウカンマテリアル・テクノロジ- (カブ)"
  },
  "8555": {
    "postcode": "5318555",
    "prefecture": "大阪府",
    "prefecture_kana": "オオサカフ",
    "prefecture_code": 27,
    "city": "大阪市北区",
    "city_kana": "オオサカシキタク",
    "town": "大淀中",
    "town_kana": "オオヨドナカ",
    "street": "１丁目４−１３",
    "office_name": "三菱電機クレジット　株式会社",
    "office_name_kana": "ミツビシデンキクレジツト カブシキガイシヤ"
  },
  "8558": {
    "postcode": "5318558",
    "prefecture": "大阪府",
    "prefecture_kana": "オオサカフ",
    "prefecture_code": 27,
    "city": "大阪市北区",
    "city_kana": "オオサカシキタク",
    "town": "野崎町",
    "town_kana": "ノザキチョウ",
    "street": "５−９読売大阪ビル",
    "office_name": "報知新聞　大阪本社",
    "office_name_kana": "ホウチシンブン オオサカホンシヤ"
  },
  "8567": {
    "postcode": "5318567",
    "prefecture": "大阪府",
    "prefecture_kana": "オオサカフ",
    "prefecture_code": 27,
    "city": "大阪市北区",
    "city_kana": "オオサカシキタク",
    "town": "大淀中",
    "town_kana": "オオヨドナカ",
    "street": "１丁目７−４",
    "office_name": "株式会社　日本電商",
    "office_name_kana": "カブシキガイシヤ ニホンデンシヨウ"
  },
  "8577": {
    "postcode": "5318577",
    "prefecture": "大阪府",
    "prefecture_kana": "オオサカフ",
    "prefecture_code": 27,
    "city": "大阪市北区",
    "city_kana": "オオサカシキタク",
    "town": "豊崎",
    "town_kana": "トヨサキ",
    "street": "５−４−１９",
    "office_name": "株式会社　インテック",
    "office_name_kana": "カブシキガイシヤ インテツク"
  },
  "8588": {
    "postcode": "5318588",
    "prefecture": "大阪府",
    "prefecture_kana": "オオサカフ",
    "prefecture_code": 27,
    "city": "大阪市北区",
    "city_kana": "オオサカシキタク",
    "town": "本庄東",
    "town_kana": "ホンジョウヒガシ",
    "street": "３丁目９−３",
    "office_name": "関西電力　株式会社　大阪北支店",
    "office_name_kana": "カンサイデンリヨク カブシキガイシヤ オオサカキタシテン"
  },
  "8787": {
    "postcode": "5318787",
    "prefecture": "大阪府",
    "prefecture_kana": "オオサカフ",
    "prefecture_code": 27,
    "city": "大阪市北区",
    "city_kana": "オオサカシキタク",
    "town": "大淀中",
    "town_kana": "オオヨドナカ",
    "street": "１丁目３−６",
    "office_name": "大阪地域センター",
    "office_name_kana": "オオサカチイキセンタ-"
  }
}