{
  "0000": {
    "postcode": "5320000",
    "prefecture": "大阪府",
    "prefecture_kana": "オオサカフ",
    "prefecture_code": 27,
    "city": "大阪市淀川区",
    "city_kana": "オオサカシヨドガワク",
    "town": "",
    "town_kana": "",
    "street": null,
    "office_name": null,
    "office_name_kana": null
  },
  "0001": {
    "postcode": "5320001",
    "prefecture": "大阪府",
    "prefecture_kana": "オオサカフ",
    "prefecture_code": 27,
    "city": "大阪市淀川区",
    "city_kana": "オオサカシヨドガワク",
    "town": "十八条",
    "town_kana": "ジュウハチジョウ",
    "street": null,
    "office_name": null,
    "office_name_kana": null
  },
  "0002": {
    "postcode": "5320002",
    "prefecture": "大阪府",
    "prefecture_kana": "オオサカフ",
    "prefecture_code": 27,
    "city": "大阪市淀川区",
    "city_kana": "オオサカシヨドガワク",
    "town": "東三国",
    "town_kana": "ヒガシミクニ",
    "street": null,
    "office_name": null,
    "office_name_kana": null
  },
  "0003": {
    "postcode": "5320003",
    "prefecture": "大阪府",
    "prefecture_kana": "オオサカフ",
    "prefecture_code": 27,
    "city": "大阪市淀川区",
    "city_kana": "オオサカシヨドガワク",
    "town": "宮原",
    "town_kana": "ミヤハラ",
    "street": null,
    "office_name": null,
    "office_name_kana": null
  },
  "0004": {
    "postcode": "5320004",
    "prefecture": "大阪府",
    "prefecture_kana": "オオサカフ",
    "prefecture_code": 27,
    "city": "大阪市淀川区",
    "city_kana": "オオサカシヨドガワク",
    "town": "西宮原",
    "town_kana": "ニシミヤハラ",
    "street": null,
    "office_name": null,
    "office_name_kana": null
  },
  "0005": {
    "postcode": "5320005",
    "prefecture": "大阪府",
    "prefecture_kana": "オオサカフ",
    "prefecture_code": 27,
    "city": "大阪市淀川区",
    "city_kana": "オオサカシヨドガワク",
    "town": "三国本町",
    "town_kana": "ミクニホンマチ",
    "street": null,
    "office_name": null,
    "office_name_kana": null
  },
  "0006": {
    "postcode": "5320006",
    "prefecture": "大阪府",
    "prefecture_kana": "オオサカフ",
    "prefecture_code": 27,
    "city": "大阪市淀川区",
    "city_kana": "オオサカシヨドガワク",
    "town": "西三国",
    "town_kana": "ニシミクニ",
    "street": null,
    "office_name": null,
    "office_name_kana": null
  },
  "0011": {
    "postcode": "5320011",
    "prefecture": "大阪府",
    "prefecture_kana": "オオサカフ",
    "prefecture_code": 27,
    "city": "大阪市淀川区",
    "city_kana": "オオサカシヨドガワク",
    "town": "西中島",
    "town_kana": "ニシナカジマ",
    "street": null,
    "office_name": null,
    "office_name_kana": null
  },
  "0012": {
    "postcode": "5320012",
    "prefecture": "大阪府",
    "prefecture_kana": "オオサカフ",
    "prefecture_code": 27,
    "city": "大阪市淀川区",
    "city_kana": "オオサカシヨドガワク",
    "town": "木川東",
    "town_kana": "キカワヒガシ",
    "street": null,
    "office_name": null,
    "office_name_kana": null
  },
  "0013": {
    "postcode": "5320013",
    "prefecture": "大阪府",
    "prefecture_kana": "オオサカフ",
    "prefecture_code": 27,
    "city": "大阪市淀川区",
    "city_kana": "オオサカシヨドガワク",
    "town": "木川西",
    "town_kana": "キカワニシ",
    "street": null,
    "office_name": null,
    "office_name_kana": null
  },
  "0021": {
    "postcode": "5320021",
    "prefecture": "大阪府",
    "prefecture_kana": "オオサカフ",
    "prefecture_code": 27,
    "city": "大阪市淀川区",
    "city_kana": "オオサカシヨドガワク",
    "town": "田川北",
    "town_kana": "タガワキタ",
    "street": null,
    "office_name": null,
    "office_name_kana": null
  },
  "0022": {
    "postcode": "5320022",
    "prefecture": "大阪府",
    "prefecture_kana": "オオサカフ",
    "prefecture_code": 27,
    "city": "大阪市淀川区",
    "city_kana": "オオサカシヨドガワク",
    "town": "野中南",
    "town_kana": "ノナカミナミ",
    "street": null,
    "office_name": null,
    "office_name_kana": null
  },
  "0023": {
    "postcode": "5320023",
    "prefecture": "大阪府",
    "prefecture_kana": "オオサカフ",
    "prefecture_code": 27,
    "city": "大阪市淀川区",
    "city_kana": "オオサカシヨドガワク",
    "town": "十三東",
    "town_kana": "ジュウソウヒガシ",
    "street": null,
    "office_name": null,
    "office_name_kana": null
  },
  "0024": {
    "postcode": "5320024",
    "prefecture": "大阪府",
    "prefecture_kana": "オオサカフ",
    "prefecture_code": 27,
    "city": "大阪市淀川区",
    "city_kana": "オオサカシヨドガワク",
    "town": "十三本町",
    "town_kana": "ジュウソウホンマチ",
    "street": null,
    "office_name": null,
    "office_name_kana": null
  },
  "0025": {
    "postcode": "5320025",
    "prefecture": "大阪府",
    "prefecture_kana": "オオサカフ",
    "prefecture_code": 27,
    "city": "大阪市淀川区",
    "city_kana": "オオサカシヨドガワク",
    "town": "新北野",
    "town_kana": "シンキタノ",
    "street": null,
    "office_name": null,
    "office_name_kana": null
  },
  "0026": {
    "postcode": "5320026",
    "prefecture": "大阪府",
    "prefecture_kana": "オオサカフ",
    "prefecture_code": 27,
    "city": "大阪市淀川区",
    "city_kana": "オオサカシヨドガワク",
    "town": "塚本",
    "town_kana": "ツカモト",
    "street": null,
    "office_name": null,
    "office_name_kana": null
  },
  "0027": {
    "postcode": "5320027",
    "prefecture": "大阪府",
    "prefecture_kana": "オオサカフ",
    "prefecture_code": 27,
    "city": "大阪市淀川区",
    "city_kana": "オオサカシヨドガワク",
    "town": "田川",
    "town_kana": "タガワ",
    "street": null,
    "office_name": null,
    "office_name_kana": null
  },
  "0028": {
    "postcode": "5320028",
    "prefecture": "大阪府",
    "prefecture_kana": "オオサカフ",
    "prefecture_code": 27,
    "city": "大阪市淀川区",
    "city_kana": "オオサカシヨドガワク",
    "town": "十三元今里",
    "town_kana": "ジュウソウモトイマザト",
    "street": null,
    "office_name": null,
    "office_name_kana": null
  },
  "0031": {
    "postcode": "5320031",
    "prefecture": "大阪府",
    "prefecture_kana": "オオサカフ",
    "prefecture_code": 27,
    "city": "大阪市淀川区",
    "city_kana": "オオサカシヨドガワク",
    "town": "加島",
    "town_kana": "カシマ",
    "street": null,
    "office_name": null,
    "office_name_kana": null
  },
  "0032": {
    "postcode": "5320032",
    "prefecture": "大阪府",
    "prefecture_kana": "オオサカフ",
    "prefecture_code": 27,
    "city": "大阪市淀川区",
    "city_kana": "オオサカシヨドガワク",
    "town": "三津屋北",
    "town_kana": "ミツヤキタ",
    "street": null,
    "office_name": null,
    "office_name_kana": null
  },
  "0033": {
    "postcode": "5320033",
    "prefecture": "大阪府",
    "prefecture_kana": "オオサカフ",
    "prefecture_code": 27,
    "city": "大阪市淀川区",
    "city_kana": "オオサカシヨドガワク",
    "town": "新高",
    "town_kana": "ニイタカ",
    "street": null,
    "office_name": null,
    "office_name_kana": null
  },
  "0034": {
    "postcode": "5320034",
    "prefecture": "大阪府",
    "prefecture_kana": "オオサカフ",
    "prefecture_code": 27,
    "city": "大阪市淀川区",
    "city_kana": "オオサカシヨドガワク",
    "town": "野中北",
    "town_kana": "ノナカキタ",
    "street": null,
    "office_name": null,
    "office_name_kana": null
  },
  "0035": {
    "postcode": "5320035",
    "prefecture": "大阪府",
    "prefecture_kana": "オオサカフ",
    "prefecture_code": 27,
    "city": "大阪市淀川区",
    "city_kana": "オオサカシヨドガワク",
    "town": "三津屋南",
    "town_kana": "ミツヤミナミ",
    "street": null,
    "office_name": null,
    "office_name_kana": null
  },
  "0036": {
    "postcode": "5320036",
    "prefecture": "大阪府",
    "prefecture_kana": "オオサカフ",
    "prefecture_code": 27,
    "city": "大阪市淀川区",
    "city_kana": "オオサカシヨドガワク",
    "town": "三津屋中",
    "town_kana": "ミツヤナカ",
    "street": null,
    "office_name": null,
    "office_name_kana": null
  },
  "8501": {
    "postcode": "5328501",
    "prefecture": "大阪府",
    "prefecture_kana": "オオサカフ",
    "prefecture_code": 27,
    "city": "大阪市淀川区",
    "city_kana": "オオサカシヨドガワク",
    "town": "十三東",
    "town_kana": "ジュウソウヒガシ",
    "street": "２丁目３−３",
    "office_name": "大阪市淀川区役所",
    "office_name_kana": "オオサカシヨドガワクヤクシヨ"
  },
  "8505": {
    "postcode": "5328505",
    "prefecture": "大阪府",
    "prefecture_kana": "オオサカフ",
    "prefecture_code": 27,
    "city": "大阪市淀川区",
    "city_kana": "オオサカシヨドガワク",
    "town": "加島",
    "town_kana": "カシマ",
    "street": "３丁目１６番８９号",
    "office_name": "田辺三菱製薬　株式会社　加島事業所",
    "office_name_kana": "タナベミツビシセイヤク カブシキガイシヤ カシマジギヨウシヨ"
  },
  "8507": {
    "postcode": "5328507",
    "prefecture": "大阪府",
    "prefecture_kana": "オオサカフ",
    "prefecture_code": 27,
    "city": "大阪市淀川区",
    "city_kana": "オオサカシヨドガワク",
    "town": "西三国",
    "town_kana": "ニシミクニ",
    "street": "４丁目１−１２",
    "office_name": "淀川労働基準監督署",
    "office_name_kana": "ヨドガワロウドウキジユンカントクシヨ"
  },
  "8508": {
    "postcode": "5328508",
    "prefecture": "大阪府",
    "prefecture_kana": "オオサカフ",
    "prefecture_code": 27,
    "city": "大阪市淀川区",
    "city_kana": "オオサカシヨドガワク",
    "town": "宮原",
    "town_kana": "ミヤハラ",
    "street": "３丁目５−３６新大阪ＭＴビル２号館",
    "office_name": "株式会社　パールエース　関西支店",
    "office_name_kana": "カブシキガイシヤ パ-ルエ-ス カンサイシテン"
  },
  "8511": {
    "postcode": "5328511",
    "prefecture": "大阪府",
    "prefecture_kana": "オオサカフ",
    "prefecture_code": 27,
    "city": "大阪市淀川区",
    "city_kana": "オオサカシヨドガワク",
    "town": "西中島",
    "town_kana": "ニシナカジマ",
    "street": "５丁目６番６号",
    "office_name": "株式会社　公文教育研究会",
    "office_name_kana": "カブシキガイシヤ クモンキヨウイクケンキユウカイ"
  },
  "8512": {
    "postcode": "5328512",
    "prefecture": "大阪府",
    "prefecture_kana": "オオサカフ",
    "prefecture_code": 27,
    "city": "大阪市淀川区",
    "city_kana": "オオサカシヨドガワク",
    "town": "田川",
    "town_kana": "タガワ",
    "street": "２丁目１番１１号",
    "office_name": "株式会社　ダイヘン",
    "office_name_kana": "カブシキカイシヤ ダイヘン"
  },
  "8514": {
    "postcode": "5328514",
    "prefecture": "大阪府",
    "prefecture_kana": "オオサカフ",
    "prefecture_code": 27,
    "city": "大阪市淀川区",
    "city_kana": "オオサカシヨドガワク",
    "town": "加島",
    "town_kana": "カシマ",
    "street": "２丁目１−６",
    "office_name": "アステラス製薬　（株）　加島事業場",
    "office_name_kana": "アステラスセイヤク カブシキガイシヤ カシマジギヨウジヨウ"
  },
  "8515": {
    "postcode": "5328515",
    "prefecture": "大阪府",
    "prefecture_kana": "オオサカフ",
    "prefecture_code": 27,
    "city": "大阪市淀川区",
    "city_kana": "オオサカシヨドガワク",
    "town": "西中島",
    "town_kana": "ニシナカジマ",
    "street": "５丁目１４−１０",
    "office_name": "オール日本スーパーマーケット　協会",
    "office_name_kana": "オ-ルニホンス-パ-マ-ケツト キヨウカイ"
  },
  "8520": {
    "postcode": "5328520",
    "prefecture": "大阪府",
    "prefecture_kana": "オオサカフ",
    "prefecture_code": 27,
    "city": "大阪市淀川区",
    "city_kana": "オオサカシヨドガワク",
    "town": "西中島",
    "town_kana": "ニシナカジマ",
    "street": "５丁目１４−２２",
    "office_name": "全国金物連合商業協同組合",
    "office_name_kana": "ゼンコクカナモノレンゴウシヨウギヨウキヨウドウクミアイ"
  },
  "8524": {
    "postcode": "5328524",
    "prefecture": "大阪府",
    "prefecture_kana": "オオサカフ",
    "prefecture_code": 27,
    "city": "大阪市淀川区",
    "city_kana": "オオサカシヨドガワク",
    "town": "西中島",
    "town_kana": "ニシナカジマ",
    "street": "４丁目１−１",
    "office_name": "日清食品　株式会社　本社",
    "office_name_kana": "ニツシンシヨクヒン カブシキガイシヤ ホンシヤ"
  },
  "8525": {
    "postcode": "5328525",
    "prefecture": "大阪府",
    "prefecture_kana": "オオサカフ",
    "prefecture_code": 27,
    "city": "大阪市淀川区",
    "city_kana": "オオサカシヨドガワク",
    "town": "西中島",
    "town_kana": "ニシナカジマ",
    "street": "５丁目１４−１０",
    "office_name": "コプロ　株式会社",
    "office_name_kana": "コプロ カブシキガイシヤ"
  },
  "8535": {
    "postcode": "5328535",
    "prefecture": "大阪府",
    "prefecture_kana": "オオサカフ",
    "prefecture_code": 27,
    "city": "大阪市淀川区",
    "city_kana": "オオサカシヨドガワク",
    "town": "西宮原",
    "town_kana": "ニシミヤハラ",
    "street": "１丁目５番２８号新大阪テラサキ第３ビル６階６０５号",
    "office_name": "株式会社　チップワンストップ　関西営業所",
    "office_name_kana": "カブシキガイシヤ チツプワンストツプ カンサイエイギヨウシヨ"
  },
  "8555": {
    "postcode": "5328555",
    "prefecture": "大阪府",
    "prefecture_kana": "オオサカフ",
    "prefecture_code": 27,
    "city": "大阪市淀川区",
    "city_kana": "オオサカシヨドガワク",
    "town": "宮原",
    "town_kana": "ミヤハラ",
    "street": "４丁目１番４３号",
    "office_name": "オー・ジー　株式会社　本社／大阪支店",
    "office_name_kana": "オ-・ジ- カブシキガイシヤ ホンシヤ/オオサカシテン"
  },
  "8558": {
    "postcode": "5328558",
    "prefecture": "大阪府",
    "prefecture_kana": "オオサカフ",
    "prefecture_code": 27,
    "city": "大阪市淀川区",
    "city_kana": "オオサカシヨドガワク",
    "town": "木川東",
    "town_kana": "キカワヒガシ",
    "street": "２丁目３−１",
    "office_name": "東淀川税務署",
    "office_name_kana": "ヒガシヨドガワゼイムシヨ"
  },
  "8560": {
    "postcode": "5328560",
    "prefecture": "大阪府",
    "prefecture_kana": "オオサカフ",
    "prefecture_code": 27,
    "city": "大阪市淀川区",
    "city_kana": "オオサカシヨドガワク",
    "town": "新高",
    "town_kana": "ニイタカ",
    "street": "１丁目８−１０",
    "office_name": "株式会社　ニイタカ",
    "office_name_kana": "カブシキガイシヤ ニイタカ"
  },
  "8588": {
    "postcode": "5328588",
    "prefecture": "大阪府",
    "prefecture_kana": "オオサカフ",
    "prefecture_code": 27,
    "city": "大阪市淀川区",
    "city_kana": "オオサカシヨドガワク",
    "town": "宮原",
    "town_kana": "ミヤハラ",
    "street": "３丁目４番３０号ニッセイ新大阪ビル１６Ｆ",
    "office_name": "株式会社　メディカ出版",
    "office_name_kana": "カブシキガイシヤ メデイカシユツパン"
  },
  "8680": {
    "postcode": "5328680",
    "prefecture": "大阪府",
    "prefecture_kana": "オオサカフ",
    "prefecture_code": 27,
    "city": "大阪市淀川区",
    "city_kana": "オオサカシヨドガワク",
    "town": "西中島",
    "town_kana": "ニシナカジマ",
    "street": "２丁目１１−３０（淀川郵便局私書箱第２２号）",
    "office_name": "株式会社　シェル石油大阪発売所",
    "office_name_kana": "カブシキガイシヤ シエルセキユオオサカハツバイシヨ"
  }
}