{
  "0000": {
    "postcode": "5330000",
    "prefecture": "大阪府",
    "prefecture_kana": "オオサカフ",
    "prefecture_code": 27,
    "city": "大阪市東淀川区",
    "city_kana": "オオサカシヒガシヨドガワク",
    "town": "",
    "town_kana": "",
    "street": null,
    "office_name": null,
    "office_name_kana": null
  },
  "0001": {
    "postcode": "5330001",
    "prefecture": "大阪府",
    "prefecture_kana": "オオサカフ",
    "prefecture_code": 27,
    "city": "大阪市東淀川区",
    "city_kana": "オオサカシヒガシヨドガワク",
    "town": "井高野",
    "town_kana": "イタカノ",
    "street": null,
    "office_name": null,
    "office_name_kana": null
  },
  "0002": {
    "postcode": "5330002",
    "prefecture": "大阪府",
    "prefecture_kana": "オオサカフ",
    "prefecture_code": 27,
    "city": "大阪市東淀川区",
    "city_kana": "オオサカシヒガシヨドガワク",
    "town": "北江口",
    "town_kana": "キタエグチ",
    "street": null,
    "office_name": null,
    "office_name_kana": null
  },
  "0003": {
    "postcode": "5330003",
    "prefecture": "大阪府",
    "prefecture_kana": "オオサカフ",
    "prefecture_code": 27,
    "city": "大阪市東淀川区",
    "city_kana": "オオサカシヒガシヨドガワク",
    "town": "南江口",
    "town_kana": "ミナミエグチ",
    "street": null,
    "office_name": null,
    "office_name_kana": null
  },
  "0004": {
    "postcode": "5330004",
    "prefecture": "大阪府",
    "prefecture_kana": "オオサカフ",
    "prefecture_code": 27,
    "city": "大阪市東淀川区",
    "city_kana": "オオサカシヒガシヨドガワク",
    "town": "小松",
    "town_kana": "コマツ",
    "street": null,
    "office_name": null,
    "office_name_kana": null
  },
  "0005": {
    "postcode": "5330005",
    "prefecture": "大阪府",
    "prefecture_kana": "オオサカフ",
    "prefecture_code": 27,
    "city": "大阪市東淀川区",
    "city_kana": "オオサカシヒガシヨドガワク",
    "town": "瑞光",
    "town_kana": "ズイコウ",
    "street": null,
    "office_name": null,
    "office_name_kana": null
  },
  "0006": {
    "postcode": "5330006",
    "prefecture": "大阪府",
    "prefecture_kana": "オオサカフ",
    "prefecture_code": 27,
    "city": "大阪市東淀川区",
    "city_kana": "オオサカシヒガシヨドガワク",
    "town": "上新庄",
    "town_kana": "カミシンジョウ",
    "street": null,
    "office_name": null,
    "office_name_kana": null
  },
  "0007": {
    "postcode": "5330007",
    "prefecture": "大阪府",
    "prefecture_kana": "オオサカフ",
    "prefecture_code": 27,
    "city": "大阪市東淀川区",
    "city_kana": "オオサカシヒガシヨドガワク",
    "town": "相川",
    "town_kana": "アイカワ",
    "street": null,
    "office_name": null,
    "office_name_kana": null
  },
  "0011": {
    "postcode": "5330011",
    "prefecture": "大阪府",
    "prefecture_kana": "オオサカフ",
    "prefecture_code": 27,
    "city": "大阪市東淀川区",
    "city_kana": "オオサカシヒガシヨドガワク",
    "town": "大桐",
    "town_kana": "ダイドウ",
    "street": null,
    "office_name": null,
    "office_name_kana": null
  },
  "0012": {
    "postcode": "5330012",
    "prefecture": "大阪府",
    "prefecture_kana": "オオサカフ",
    "prefecture_code": 27,
    "city": "大阪市東淀川区",
    "city_kana": "オオサカシヒガシヨドガワク",
    "town": "大道南",
    "town_kana": "ダイドウミナミ",
    "street": null,
    "office_name": null,
    "office_name_kana": null
  },
  "0013": {
    "postcode": "5330013",
    "prefecture": "大阪府",
    "prefecture_kana": "オオサカフ",
    "prefecture_code": 27,
    "city": "大阪市東淀川区",
    "city_kana": "オオサカシヒガシヨドガワク",
    "town": "豊里",
    "town_kana": "トヨサト",
    "street": null,
    "office_name": null,
    "office_name_kana": null
  },
  "0014": {
    "postcode": "5330014",
    "prefecture": "大阪府",
    "prefecture_kana": "オオサカフ",
    "prefecture_code": 27,
    "city": "大阪市東淀川区",
    "city_kana": "オオサカシヒガシヨドガワク",
    "town": "豊新",
    "town_kana": "ホウシン",
    "street": null,
    "office_name": null,
    "office_name_kana": null
  },
  "0015": {
    "postcode": "5330015",
    "prefecture": "大阪府",
    "prefecture_kana": "オオサカフ",
    "prefecture_code": 27,
    "city": "大阪市東淀川区",
    "city_kana": "オオサカシヒガシヨドガワク",
    "town": "大隅",
    "town_kana": "オオスミ",
    "street": null,
    "office_name": null,
    "office_name_kana": null
  },
  "0021": {
    "postcode": "5330021",
    "prefecture": "大阪府",
    "prefecture_kana": "オオサカフ",
    "prefecture_code": 27,
    "city": "大阪市東淀川区",
    "city_kana": "オオサカシヒガシヨドガワク",
    "town": "下新庄",
    "town_kana": "シモシンジョウ",
    "street": null,
    "office_name": null,
    "office_name_kana": null
  },
  "0022": {
    "postcode": "5330022",
    "prefecture": "大阪府",
    "prefecture_kana": "オオサカフ",
    "prefecture_code": 27,
    "city": "大阪市東淀川区",
    "city_kana": "オオサカシヒガシヨドガワク",
    "town": "菅原",
    "town_kana": "スガハラ",
    "street": null,
    "office_name": null,
    "office_name_kana": null
  },
  "0023": {
    "postcode": "5330023",
    "prefecture": "大阪府",
    "prefecture_kana": "オオサカフ",
    "prefecture_code": 27,
    "city": "大阪市東淀川区",
    "city_kana": "オオサカシヒガシヨドガワク",
    "town": "東淡路",
    "town_kana": "ヒガシアワジ",
    "street": null,
    "office_name": null,
    "office_name_kana": null
  },
  "0024": {
    "postcode": "5330024",
    "prefecture": "大阪府",
    "prefecture_kana": "オオサカフ",
    "prefecture_code": 27,
    "city": "大阪市東淀川区",
    "city_kana": "オオサカシヒガシヨドガワク",
    "town": "柴島",
    "town_kana": "クニジマ",
    "street": null,
    "office_name": null,
    "office_name_kana": null
  },
  "0031": {
    "postcode": "5330031",
    "prefecture": "大阪府",
    "prefecture_kana": "オオサカフ",
    "prefecture_code": 27,
    "city": "大阪市東淀川区",
    "city_kana": "オオサカシヒガシヨドガワク",
    "town": "西淡路",
    "town_kana": "ニシアワジ",
    "street": null,
    "office_name": null,
    "office_name_kana": null
  },
  "0032": {
    "postcode": "5330032",
    "prefecture": "大阪府",
    "prefecture_kana": "オオサカフ",
    "prefecture_code": 27,
    "city": "大阪市東淀川区",
    "city_kana": "オオサカシヒガシヨドガワク",
    "town": "淡路",
    "town_kana": "アワジ",
    "street": null,
    "office_name": null,
    "office_name_kana": null
  },
  "0033": {
    "postcode": "5330033",
    "prefecture": "大阪府",
    "prefecture_kana": "オオサカフ",
    "prefecture_code": 27,
    "city": "大阪市東淀川区",
    "city_kana": "オオサカシヒガシヨドガワク",
    "town": "東中島",
    "town_kana": "ヒガシナカジマ",
    "street": null,
    "office_name": null,
    "office_name_kana": null
  },
  "8501": {
    "postcode": "5338501",
    "prefecture": "大阪府",
    "prefecture_kana": "オオサカフ",
    "prefecture_code": 27,
    "city": "大阪市東淀川区",
    "city_kana": "オオサカシヒガシヨドガワク",
    "town": "豊新",
    "town_kana": "ホウシン",
    "street": "２丁目１−４",
    "office_name": "東淀川区役所",
    "office_name_kana": "ヒガシヨドガワクヤクシヨ"
  },
  "8502": {
    "postcode": "5338502",
    "prefecture": "大阪府",
    "prefecture_kana": "オオサカフ",
    "prefecture_code": 27,
    "city": "大阪市東淀川区",
    "city_kana": "オオサカシヒガシヨドガワク",
    "town": "豊新",
    "town_kana": "ホウシン",
    "street": "５−６−２７",
    "office_name": "杉本商事　株式会社　本社",
    "office_name_kana": "スギモトシヨウジ カブシキガイシヤ ホンシヤ"
  },
  "8533": {
    "postcode": "5338533",
    "prefecture": "大阪府",
    "prefecture_kana": "オオサカフ",
    "prefecture_code": 27,
    "city": "大阪市東淀川区",
    "city_kana": "オオサカシヒガシヨドガワク",
    "town": "大隅",
    "town_kana": "オオスミ",
    "street": "２丁目２−８",
    "office_name": "大阪経済大学",
    "office_name_kana": "オオサカケイザイダイガク"
  },
  "8555": {
    "postcode": "5338555",
    "prefecture": "大阪府",
    "prefecture_kana": "オオサカフ",
    "prefecture_code": 27,
    "city": "大阪市東淀川区",
    "city_kana": "オオサカシヒガシヨドガワク",
    "town": "東中島",
    "town_kana": "ヒガシナカジマ",
    "street": "１丁目３−１４",
    "office_name": "株式会社　キーエンス",
    "office_name_kana": "カブシキガイシヤ キ-エンス"
  },
  "8558": {
    "postcode": "5338558",
    "prefecture": "大阪府",
    "prefecture_kana": "オオサカフ",
    "prefecture_code": 27,
    "city": "大阪市東淀川区",
    "city_kana": "オオサカシヒガシヨドガワク",
    "town": "東中島",
    "town_kana": "ヒガシナカジマ",
    "street": "１丁目１９−４",
    "office_name": "ライフコーポレーション",
    "office_name_kana": "ライフコ-ポレ-シヨン"
  },
  "8585": {
    "postcode": "5338585",
    "prefecture": "大阪府",
    "prefecture_kana": "オオサカフ",
    "prefecture_code": 27,
    "city": "大阪市東淀川区",
    "city_kana": "オオサカシヒガシヨドガワク",
    "town": "豊新",
    "town_kana": "ホウシン",
    "street": "４丁目２１−１",
    "office_name": "株式会社　ダイヤモンドプレス",
    "office_name_kana": "カブシキガイシヤ ダイヤモンドプレス"
  },
  "8651": {
    "postcode": "5338651",
    "prefecture": "大阪府",
    "prefecture_kana": "オオサカフ",
    "prefecture_code": 27,
    "city": "大阪市東淀川区",
    "city_kana": "オオサカシヒガシヨドガワク",
    "town": "下新庄",
    "town_kana": "シモシンジョウ",
    "street": "３丁目９番３１号",
    "office_name": "参天製薬　株式会社",
    "office_name_kana": "サンテンセイヤク カブシキガイシヤ"
  }
}