{
  "0000": {
    "postcode": "5340000",
    "prefecture": "大阪府",
    "prefecture_kana": "オオサカフ",
    "prefecture_code": 27,
    "city": "大阪市都島区",
    "city_kana": "オオサカシミヤコジマク",
    "town": "",
    "town_kana": "",
    "street": null,
    "office_name": null,
    "office_name_kana": null
  },
  "0001": {
    "postcode": "5340001",
    "prefecture": "大阪府",
    "prefecture_kana": "オオサカフ",
    "prefecture_code": 27,
    "city": "大阪市都島区",
    "city_kana": "オオサカシミヤコジマク",
    "town": "毛馬町",
    "town_kana": "ケマチョウ",
    "street": null,
    "office_name": null,
    "office_name_kana": null
  },
  "0002": {
    "postcode": "5340002",
    "prefecture": "大阪府",
    "prefecture_kana": "オオサカフ",
    "prefecture_code": 27,
    "city": "大阪市都島区",
    "city_kana": "オオサカシミヤコジマク",
    "town": "大東町",
    "town_kana": "ダイトウチョウ",
    "street": null,
    "office_name": null,
    "office_name_kana": null
  },
  "0011": {
    "postcode": "5340011",
    "prefecture": "大阪府",
    "prefecture_kana": "オオサカフ",
    "prefecture_code": 27,
    "city": "大阪市都島区",
    "city_kana": "オオサカシミヤコジマク",
    "town": "高倉町",
    "town_kana": "タカクラチョウ",
    "street": null,
    "office_name": null,
    "office_name_kana": null
  },
  "0012": {
    "postcode": "5340012",
    "prefecture": "大阪府",
    "prefecture_kana": "オオサカフ",
    "prefecture_code": 27,
    "city": "大阪市都島区",
    "city_kana": "オオサカシミヤコジマク",
    "town": "御幸町",
    "town_kana": "ミユキチョウ",
    "street": null,
    "office_name": null,
    "office_name_kana": null
  },
  "0013": {
    "postcode": "5340013",
    "prefecture": "大阪府",
    "prefecture_kana": "オオサカフ",
    "prefecture_code": 27,
    "city": "大阪市都島区",
    "city_kana": "オオサカシミヤコジマク",
    "town": "内代町",
    "town_kana": "ウチンダイチョウ",
    "street": null,
    "office_name": null,
    "office_name_kana": null
  },
  "0014": {
    "postcode": "5340014",
    "prefecture": "大阪府",
    "prefecture_kana": "オオサカフ",
    "prefecture_code": 27,
    "city": "大阪市都島区",
    "city_kana": "オオサカシミヤコジマク",
    "town": "都島北通",
    "town_kana": "ミヤコジマキタドオリ",
    "street": null,
    "office_name": null,
    "office_name_kana": null
  },
  "0015": {
    "postcode": "5340015",
    "prefecture": "大阪府",
    "prefecture_kana": "オオサカフ",
    "prefecture_code": 27,
    "city": "大阪市都島区",
    "city_kana": "オオサカシミヤコジマク",
    "town": "善源寺町",
    "town_kana": "ゼンゲンジチョウ",
    "street": null,
    "office_name": null,
    "office_name_kana": null
  },
  "0016": {
    "postcode": "5340016",
    "prefecture": "大阪府",
    "prefecture_kana": "オオサカフ",
    "prefecture_code": 27,
    "city": "大阪市都島区",
    "city_kana": "オオサカシミヤコジマク",
    "town": "友渕町",
    "town_kana": "トモブチチョウ",
    "street": null,
    "office_name": null,
    "office_name_kana": null
  },
  "0021": {
    "postcode": "5340021",
    "prefecture": "大阪府",
    "prefecture_kana": "オオサカフ",
    "prefecture_code": 27,
    "city": "大阪市都島区",
    "city_kana": "オオサカシミヤコジマク",
    "town": "都島本通",
    "town_kana": "ミヤコジマホンドオリ",
    "street": null,
    "office_name": null,
    "office_name_kana": null
  },
  "0022": {
    "postcode": "5340022",
    "prefecture": "大阪府",
    "prefecture_kana": "オオサカフ",
    "prefecture_code": 27,
    "city": "大阪市都島区",
    "city_kana": "オオサカシミヤコジマク",
    "town": "都島中通",
    "town_kana": "ミヤコジマナカドオリ",
    "street": null,
    "office_name": null,
    "office_name_kana": null
  },
  "0023": {
    "postcode": "5340023",
    "prefecture": "大阪府",
    "prefecture_kana": "オオサカフ",
    "prefecture_code": 27,
    "city": "大阪市都島区",
    "city_kana": "オオサカシミヤコジマク",
    "town": "都島南通",
    "town_kana": "ミヤコジマミナミドオリ",
    "street": null,
    "office_name": null,
    "office_name_kana": null
  },
  "0024": {
    "postcode": "5340024",
    "prefecture": "大阪府",
    "prefecture_kana": "オオサカフ",
    "prefecture_code": 27,
    "city": "大阪市都島区",
    "city_kana": "オオサカシミヤコジマク",
    "town": "東野田町",
    "town_kana": "ヒガシノダマチ",
    "street": null,
    "office_name": null,
    "office_name_kana": null
  },
  "0025": {
    "postcode": "5340025",
    "prefecture": "大阪府",
    "prefecture_kana": "オオサカフ",
    "prefecture_code": 27,
    "city": "大阪市都島区",
    "city_kana": "オオサカシミヤコジマク",
    "town": "片町",
    "town_kana": "カタマチ",
    "street": null,
    "office_name": null,
    "office_name_kana": null
  },
  "0026": {
    "postcode": "5340026",
    "prefecture": "大阪府",
    "prefecture_kana": "オオサカフ",
    "prefecture_code": 27,
    "city": "大阪市都島区",
    "city_kana": "オオサカシミヤコジマク",
    "town": "網島町",
    "town_kana": "アミジマチョウ",
    "street": null,
    "office_name": null,
    "office_name_kana": null
  },
  "0027": {
    "postcode": "5340027",
    "prefecture": "大阪府",
    "prefecture_kana": "オオサカフ",
    "prefecture_code": 27,
    "city": "大阪市都島区",
    "city_kana": "オオサカシミヤコジマク",
    "town": "中野町",
    "town_kana": "ナカノチョウ",
    "street": null,
    "office_name": null,
    "office_name_kana": null
  },
  "8501": {
    "postcode": "5348501",
    "prefecture": "大阪府",
    "prefecture_kana": "オオサカフ",
    "prefecture_code": 27,
    "city": "大阪市都島区",
    "city_kana": "オオサカシミヤコジマク",
    "town": "中野町",
    "town_kana": "ナカノチョウ",
    "street": "２丁目１６−２０",
    "office_name": "都島区役所",
    "office_name_kana": "ミヤコジマクヤクシヨ"
  },
  "8502": {
    "postcode": "5348502",
    "prefecture": "大阪府",
    "prefecture_kana": "オオサカフ",
    "prefecture_code": 27,
    "city": "大阪市都島区",
    "city_kana": "オオサカシミヤコジマク",
    "town": "片町",
    "town_kana": "カタマチ",
    "street": "２−２−４８ＭＩＤ京橋ビル４階",
    "office_name": "大阪市　京橋市税事務所",
    "office_name_kana": "オオサカシ キヨウバシシゼイジムシヨ"
  },
  "8511": {
    "postcode": "5348511",
    "prefecture": "大阪府",
    "prefecture_kana": "オオサカフ",
    "prefecture_code": 27,
    "city": "大阪市都島区",
    "city_kana": "オオサカシミヤコジマク",
    "town": "片町",
    "town_kana": "カタマチ",
    "street": "２丁目２−４０大発ビル３０１号室",
    "office_name": "よみうりテレビサービス",
    "office_name_kana": "ヨミウリテレビサ-ビス"
  },
  "8585": {
    "postcode": "5348585",
    "prefecture": "大阪府",
    "prefecture_kana": "オオサカフ",
    "prefecture_code": 27,
    "city": "大阪市都島区",
    "city_kana": "オオサカシミヤコジマク",
    "town": "友渕町",
    "town_kana": "トモブチチョウ",
    "street": "１丁目２−５",
    "office_name": "大阪拘置所",
    "office_name_kana": "オオサカコウチシヨ"
  }
}