{
  "0000": {
    "postcode": "5350000",
    "prefecture": "大阪府",
    "prefecture_kana": "オオサカフ",
    "prefecture_code": 27,
    "city": "大阪市旭区",
    "city_kana": "オオサカシアサヒク",
    "town": "",
    "town_kana": "",
    "street": null,
    "office_name": null,
    "office_name_kana": null
  },
  "0001": {
    "postcode": "5350001",
    "prefecture": "大阪府",
    "prefecture_kana": "オオサカフ",
    "prefecture_code": 27,
    "city": "大阪市旭区",
    "city_kana": "オオサカシアサヒク",
    "town": "太子橋",
    "town_kana": "タイシバシ",
    "street": null,
    "office_name": null,
    "office_name_kana": null
  },
  "0002": {
    "postcode": "5350002",
    "prefecture": "大阪府",
    "prefecture_kana": "オオサカフ",
    "prefecture_code": 27,
    "city": "大阪市旭区",
    "city_kana": "オオサカシアサヒク",
    "town": "大宮",
    "town_kana": "オオミヤ",
    "street": null,
    "office_name": null,
    "office_name_kana": null
  },
  "0003": {
    "postcode": "5350003",
    "prefecture": "大阪府",
    "prefecture_kana": "オオサカフ",
    "prefecture_code": 27,
    "city": "大阪市旭区",
    "city_kana": "オオサカシアサヒク",
    "town": "中宮",
    "town_kana": "ナカミヤ",
    "street": null,
    "office_name": null,
    "office_name_kana": null
  },
  "0004": {
    "postcode": "5350004",
    "prefecture": "大阪府",
    "prefecture_kana": "オオサカフ",
    "prefecture_code": 27,
    "city": "大阪市旭区",
    "city_kana": "オオサカシアサヒク",
    "town": "生江",
    "town_kana": "イクエ",
    "street": null,
    "office_name": null,
    "office_name_kana": null
  },
  "0005": {
    "postcode": "5350005",
    "prefecture": "大阪府",
    "prefecture_kana": "オオサカフ",
    "prefecture_code": 27,
    "city": "大阪市旭区",
    "city_kana": "オオサカシアサヒク",
    "town": "赤川",
    "town_kana": "アカガワ",
    "street": null,
    "office_name": null,
    "office_name_kana": null
  },
  "0011": {
    "postcode": "5350011",
    "prefecture": "大阪府",
    "prefecture_kana": "オオサカフ",
    "prefecture_code": 27,
    "city": "大阪市旭区",
    "city_kana": "オオサカシアサヒク",
    "town": "今市",
    "town_kana": "イマイチ",
    "street": null,
    "office_name": null,
    "office_name_kana": null
  },
  "0012": {
    "postcode": "5350012",
    "prefecture": "大阪府",
    "prefecture_kana": "オオサカフ",
    "prefecture_code": 27,
    "city": "大阪市旭区",
    "city_kana": "オオサカシアサヒク",
    "town": "千林",
    "town_kana": "センバヤシ",
    "street": null,
    "office_name": null,
    "office_name_kana": null
  },
  "0013": {
    "postcode": "5350013",
    "prefecture": "大阪府",
    "prefecture_kana": "オオサカフ",
    "prefecture_code": 27,
    "city": "大阪市旭区",
    "city_kana": "オオサカシアサヒク",
    "town": "森小路",
    "town_kana": "モリショウジ",
    "street": null,
    "office_name": null,
    "office_name_kana": null
  },
  "0021": {
    "postcode": "5350021",
    "prefecture": "大阪府",
    "prefecture_kana": "オオサカフ",
    "prefecture_code": 27,
    "city": "大阪市旭区",
    "city_kana": "オオサカシアサヒク",
    "town": "清水",
    "town_kana": "シミズ",
    "street": null,
    "office_name": null,
    "office_name_kana": null
  },
  "0022": {
    "postcode": "5350022",
    "prefecture": "大阪府",
    "prefecture_kana": "オオサカフ",
    "prefecture_code": 27,
    "city": "大阪市旭区",
    "city_kana": "オオサカシアサヒク",
    "town": "新森",
    "town_kana": "シンモリ",
    "street": null,
    "office_name": null,
    "office_name_kana": null
  },
  "0031": {
    "postcode": "5350031",
    "prefecture": "大阪府",
    "prefecture_kana": "オオサカフ",
    "prefecture_code": 27,
    "city": "大阪市旭区",
    "city_kana": "オオサカシアサヒク",
    "town": "高殿",
    "town_kana": "タカドノ",
    "street": null,
    "office_name": null,
    "office_name_kana": null
  },
  "8501": {
    "postcode": "5358501",
    "prefecture": "大阪府",
    "prefecture_kana": "オオサカフ",
    "prefecture_code": 27,
    "city": "大阪市旭区",
    "city_kana": "オオサカシアサヒク",
    "town": "大宮",
    "town_kana": "オオミヤ",
    "street": "１丁目１−１７",
    "office_name": "大阪市旭区役所",
    "office_name_kana": "オオサカシアサヒクヤクシヨ"
  },
  "8555": {
    "postcode": "5358555",
    "prefecture": "大阪府",
    "prefecture_kana": "オオサカフ",
    "prefecture_code": 27,
    "city": "大阪市旭区",
    "city_kana": "オオサカシアサヒク",
    "town": "大宮",
    "town_kana": "オオミヤ",
    "street": "１丁目１−２５",
    "office_name": "旭　税務署",
    "office_name_kana": "アサヒ ゼイムシヨ"
  },
  "8585": {
    "postcode": "5358585",
    "prefecture": "大阪府",
    "prefecture_kana": "オオサカフ",
    "prefecture_code": 27,
    "city": "大阪市旭区",
    "city_kana": "オオサカシアサヒク",
    "town": "大宮",
    "town_kana": "オオミヤ",
    "street": "５丁目１６−１",
    "office_name": "学校法人　常翔学園（大阪工業大学・常翔学園高等学校・常翔学園中学校）",
    "office_name_kana": "ガツコウホウジン ジヨウシヨウガクエン(オオサカコウギヨウダイガク・ジヨウシヨウガクエンコウトウガツコウ・ジヨウシヨウガクエンチユウガツコウ)"
  }
}