{
  "0000": {
    "postcode": "5370000",
    "prefecture": "大阪府",
    "prefecture_kana": "オオサカフ",
    "prefecture_code": 27,
    "city": "大阪市東成区",
    "city_kana": "オオサカシヒガシナリク",
    "town": "",
    "town_kana": "",
    "street": null,
    "office_name": null,
    "office_name_kana": null
  },
  "0001": {
    "postcode": "5370001",
    "prefecture": "大阪府",
    "prefecture_kana": "オオサカフ",
    "prefecture_code": 27,
    "city": "大阪市東成区",
    "city_kana": "オオサカシヒガシナリク",
    "town": "深江北",
    "town_kana": "フカエキタ",
    "street": null,
    "office_name": null,
    "office_name_kana": null
  },
  "0002": {
    "postcode": "5370002",
    "prefecture": "大阪府",
    "prefecture_kana": "オオサカフ",
    "prefecture_code": 27,
    "city": "大阪市東成区",
    "city_kana": "オオサカシヒガシナリク",
    "town": "深江南",
    "town_kana": "フカエミナミ",
    "street": null,
    "office_name": null,
    "office_name_kana": null
  },
  "0003": {
    "postcode": "5370003",
    "prefecture": "大阪府",
    "prefecture_kana": "オオサカフ",
    "prefecture_code": 27,
    "city": "大阪市東成区",
    "city_kana": "オオサカシヒガシナリク",
    "town": "神路",
    "town_kana": "カミジ",
    "street": null,
    "office_name": null,
    "office_name_kana": null
  },
  "0011": {
    "postcode": "5370011",
    "prefecture": "大阪府",
    "prefecture_kana": "オオサカフ",
    "prefecture_code": 27,
    "city": "大阪市東成区",
    "city_kana": "オオサカシヒガシナリク",
    "town": "東今里",
    "town_kana": "ヒガシイマザト",
    "street": null,
    "office_name": null,
    "office_name_kana": null
  },
  "0012": {
    "postcode": "5370012",
    "prefecture": "大阪府",
    "prefecture_kana": "オオサカフ",
    "prefecture_code": 27,
    "city": "大阪市東成区",
    "city_kana": "オオサカシヒガシナリク",
    "town": "大今里",
    "town_kana": "オオイマザト",
    "street": null,
    "office_name": null,
    "office_name_kana": null
  },
  "0013": {
    "postcode": "5370013",
    "prefecture": "大阪府",
    "prefecture_kana": "オオサカフ",
    "prefecture_code": 27,
    "city": "大阪市東成区",
    "city_kana": "オオサカシヒガシナリク",
    "town": "大今里南",
    "town_kana": "オオイマザトミナミ",
    "street": null,
    "office_name": null,
    "office_name_kana": null
  },
  "0014": {
    "postcode": "5370014",
    "prefecture": "大阪府",
    "prefecture_kana": "オオサカフ",
    "prefecture_code": 27,
    "city": "大阪市東成区",
    "city_kana": "オオサカシヒガシナリク",
    "town": "大今里西",
    "town_kana": "オオイマザトニシ",
    "street": null,
    "office_name": null,
    "office_name_kana": null
  },
  "0021": {
    "postcode": "5370021",
    "prefecture": "大阪府",
    "prefecture_kana": "オオサカフ",
    "prefecture_code": 27,
    "city": "大阪市東成区",
    "city_kana": "オオサカシヒガシナリク",
    "town": "東中本",
    "town_kana": "ヒガシナカモト",
    "street": null,
    "office_name": null,
    "office_name_kana": null
  },
  "0022": {
    "postcode": "5370022",
    "prefecture": "大阪府",
    "prefecture_kana": "オオサカフ",
    "prefecture_code": 27,
    "city": "大阪市東成区",
    "city_kana": "オオサカシヒガシナリク",
    "town": "中本",
    "town_kana": "ナカモト",
    "street": null,
    "office_name": null,
    "office_name_kana": null
  },
  "0023": {
    "postcode": "5370023",
    "prefecture": "大阪府",
    "prefecture_kana": "オオサカフ",
    "prefecture_code": 27,
    "city": "大阪市東成区",
    "city_kana": "オオサカシヒガシナリク",
    "town": "玉津",
    "town_kana": "タマツ",
    "street": null,
    "office_name": null,
    "office_name_kana": null
  },
  "0024": {
    "postcode": "5370024",
    "prefecture": "大阪府",
    "prefecture_kana": "オオサカフ",
    "prefecture_code": 27,
    "city": "大阪市東成区",
    "city_kana": "オオサカシヒガシナリク",
    "town": "東小橋",
    "town_kana": "ヒガシオバセ",
    "street": null,
    "office_name": null,
    "office_name_kana": null
  },
  "0025": {
    "postcode": "5370025",
    "prefecture": "大阪府",
    "prefecture_kana": "オオサカフ",
    "prefecture_code": 27,
    "city": "大阪市東成区",
    "city_kana": "オオサカシヒガシナリク",
    "town": "中道",
    "town_kana": "ナカミチ",
    "street": null,
    "office_name": null,
    "office_name_kana": null
  },
  "8501": {
    "postcode": "5378501",
    "prefecture": "大阪府",
    "prefecture_kana": "オオサカフ",
    "prefecture_code": 27,
    "city": "大阪市東成区",
    "city_kana": "オオサカシヒガシナリク",
    "town": "大今里西",
    "town_kana": "オオイマザトニシ",
    "street": "２丁目８−４",
    "office_name": "東成区役所",
    "office_name_kana": "ヒガシナリクヤクシヨ"
  },
  "8686": {
    "postcode": "5378686",
    "prefecture": "大阪府",
    "prefecture_kana": "オオサカフ",
    "prefecture_code": 27,
    "city": "大阪市東成区",
    "city_kana": "オオサカシヒガシナリク",
    "town": "大今里南",
    "town_kana": "オオイマザトミナミ",
    "street": "６丁目１−１（東成郵便局私書箱第５号）",
    "office_name": "コクヨ　（株）",
    "office_name_kana": "コクヨ カブシキガイシヤ"
  },
  "8911": {
    "postcode": "5378911",
    "prefecture": "大阪府",
    "prefecture_kana": "オオサカフ",
    "prefecture_code": 27,
    "city": "大阪市東成区",
    "city_kana": "オオサカシヒガシナリク",
    "town": "東小橋",
    "town_kana": "ヒガシオバセ",
    "street": "２丁目９番３号",
    "office_name": "ザ・パック　株式会社",
    "office_name_kana": "ザ・パツク カブシキガイシヤ"
  }
}