{
  "0000": {
    "postcode": "5380000",
    "prefecture": "大阪府",
    "prefecture_kana": "オオサカフ",
    "prefecture_code": 27,
    "city": "大阪市鶴見区",
    "city_kana": "オオサカシツルミク",
    "town": "",
    "town_kana": "",
    "street": null,
    "office_name": null,
    "office_name_kana": null
  },
  "0031": {
    "postcode": "5380031",
    "prefecture": "大阪府",
    "prefecture_kana": "オオサカフ",
    "prefecture_code": 27,
    "city": "大阪市鶴見区",
    "city_kana": "オオサカシツルミク",
    "town": "茨田大宮",
    "town_kana": "マッタオオミヤ",
    "street": null,
    "office_name": null,
    "office_name_kana": null
  },
  "0032": {
    "postcode": "5380032",
    "prefecture": "大阪府",
    "prefecture_kana": "オオサカフ",
    "prefecture_code": 27,
    "city": "大阪市鶴見区",
    "city_kana": "オオサカシツルミク",
    "town": "安田",
    "town_kana": "ヤスダ",
    "street": null,
    "office_name": null,
    "office_name_kana": null
  },
  "0033": {
    "postcode": "5380033",
    "prefecture": "大阪府",
    "prefecture_kana": "オオサカフ",
    "prefecture_code": 27,
    "city": "大阪市鶴見区",
    "city_kana": "オオサカシツルミク",
    "town": "中茶屋",
    "town_kana": "ナカノチャヤ",
    "street": null,
    "office_name": null,
    "office_name_kana": null
  },
  "0034": {
    "postcode": "5380034",
    "prefecture": "大阪府",
    "prefecture_kana": "オオサカフ",
    "prefecture_code": 27,
    "city": "大阪市鶴見区",
    "city_kana": "オオサカシツルミク",
    "town": "徳庵",
    "town_kana": "トクアン",
    "street": null,
    "office_name": null,
    "office_name_kana": null
  },
  "0035": {
    "postcode": "5380035",
    "prefecture": "大阪府",
    "prefecture_kana": "オオサカフ",
    "prefecture_code": 27,
    "city": "大阪市鶴見区",
    "city_kana": "オオサカシツルミク",
    "town": "浜",
    "town_kana": "ハマ",
    "street": null,
    "office_name": null,
    "office_name_kana": null
  },
  "0036": {
    "postcode": "5380036",
    "prefecture": "大阪府",
    "prefecture_kana": "オオサカフ",
    "prefecture_code": 27,
    "city": "大阪市鶴見区",
    "city_kana": "オオサカシツルミク",
    "town": "緑地公園",
    "town_kana": "リョクチコウエン",
    "street": null,
    "office_name": null,
    "office_name_kana": null
  },
  "0037": {
    "postcode": "5380037",
    "prefecture": "大阪府",
    "prefecture_kana": "オオサカフ",
    "prefecture_code": 27,
    "city": "大阪市鶴見区",
    "city_kana": "オオサカシツルミク",
    "town": "焼野",
    "town_kana": "ヤケノ",
    "street": null,
    "office_name": null,
    "office_name_kana": null
  },
  "0041": {
    "postcode": "5380041",
    "prefecture": "大阪府",
    "prefecture_kana": "オオサカフ",
    "prefecture_code": 27,
    "city": "大阪市鶴見区",
    "city_kana": "オオサカシツルミク",
    "town": "今津北",
    "town_kana": "イマヅキタ",
    "street": null,
    "office_name": null,
    "office_name_kana": null
  },
  "0042": {
    "postcode": "5380042",
    "prefecture": "大阪府",
    "prefecture_kana": "オオサカフ",
    "prefecture_code": 27,
    "city": "大阪市鶴見区",
    "city_kana": "オオサカシツルミク",
    "town": "今津中",
    "town_kana": "イマヅナカ",
    "street": null,
    "office_name": null,
    "office_name_kana": null
  },
  "0043": {
    "postcode": "5380043",
    "prefecture": "大阪府",
    "prefecture_kana": "オオサカフ",
    "prefecture_code": 27,
    "city": "大阪市鶴見区",
    "city_kana": "オオサカシツルミク",
    "town": "今津南",
    "town_kana": "イマヅミナミ",
    "street": null,
    "office_name": null,
    "office_name_kana": null
  },
  "0044": {
    "postcode": "5380044",
    "prefecture": "大阪府",
    "prefecture_kana": "オオサカフ",
    "prefecture_code": 27,
    "city": "大阪市鶴見区",
    "city_kana": "オオサカシツルミク",
    "town": "放出東",
    "town_kana": "ハナテンヒガシ",
    "street": null,
    "office_name": null,
    "office_name_kana": null
  },
  "0051": {
    "postcode": "5380051",
    "prefecture": "大阪府",
    "prefecture_kana": "オオサカフ",
    "prefecture_code": 27,
    "city": "大阪市鶴見区",
    "city_kana": "オオサカシツルミク",
    "town": "諸口",
    "town_kana": "モロクチ",
    "street": null,
    "office_name": null,
    "office_name_kana": null
  },
  "0052": {
    "postcode": "5380052",
    "prefecture": "大阪府",
    "prefecture_kana": "オオサカフ",
    "prefecture_code": 27,
    "city": "大阪市鶴見区",
    "city_kana": "オオサカシツルミク",
    "town": "横堤",
    "town_kana": "ヨコヅツミ",
    "street": null,
    "office_name": null,
    "office_name_kana": null
  },
  "0053": {
    "postcode": "5380053",
    "prefecture": "大阪府",
    "prefecture_kana": "オオサカフ",
    "prefecture_code": 27,
    "city": "大阪市鶴見区",
    "city_kana": "オオサカシツルミク",
    "town": "鶴見",
    "town_kana": "ツルミ",
    "street": null,
    "office_name": null,
    "office_name_kana": null
  },
  "0054": {
    "postcode": "5380054",
    "prefecture": "大阪府",
    "prefecture_kana": "オオサカフ",
    "prefecture_code": 27,
    "city": "大阪市鶴見区",
    "city_kana": "オオサカシツルミク",
    "town": "緑",
    "town_kana": "ミドリ",
    "street": null,
    "office_name": null,
    "office_name_kana": null
  },
  "8501": {
    "postcode": "5388501",
    "prefecture": "大阪府",
    "prefecture_kana": "オオサカフ",
    "prefecture_code": 27,
    "city": "大阪市鶴見区",
    "city_kana": "オオサカシツルミク",
    "town": "緑",
    "town_kana": "ミドリ",
    "street": "１−１１−８",
    "office_name": "株式会社　タカラ",
    "office_name_kana": "カブシキガイシヤ タカラ"
  },
  "8510": {
    "postcode": "5388510",
    "prefecture": "大阪府",
    "prefecture_kana": "オオサカフ",
    "prefecture_code": 27,
    "city": "大阪市鶴見区",
    "city_kana": "オオサカシツルミク",
    "town": "横堤",
    "town_kana": "ヨコヅツミ",
    "street": "５丁目４−１９",
    "office_name": "大阪市鶴見区役所",
    "office_name_kana": "オオサカシツルミクヤクシヨ"
  },
  "8555": {
    "postcode": "5388555",
    "prefecture": "大阪府",
    "prefecture_kana": "オオサカフ",
    "prefecture_code": 27,
    "city": "大阪市鶴見区",
    "city_kana": "オオサカシツルミク",
    "town": "放出東",
    "town_kana": "ハナテンヒガシ",
    "street": "１丁目２９−１０",
    "office_name": "株式会社　コジット",
    "office_name_kana": "カブシキガイシヤ コジツト"
  },
  "8585": {
    "postcode": "5388585",
    "prefecture": "大阪府",
    "prefecture_kana": "オオサカフ",
    "prefecture_code": 27,
    "city": "大阪市鶴見区",
    "city_kana": "オオサカシツルミク",
    "town": "鶴見",
    "town_kana": "ツルミ",
    "street": "４丁目１６−４０",
    "office_name": "株式会社　鶴見製作所",
    "office_name_kana": "カブシキガイシヤ ツルミセイサクシヨ"
  },
  "8655": {
    "postcode": "5388655",
    "prefecture": "大阪府",
    "prefecture_kana": "オオサカフ",
    "prefecture_code": 27,
    "city": "大阪市鶴見区",
    "city_kana": "オオサカシツルミク",
    "town": "放出東",
    "town_kana": "ハナテンヒガシ",
    "street": "１丁目６−１３（大阪城東郵便局私書箱第２８号）",
    "office_name": "カナヱ塗料　株式会社",
    "office_name_kana": "カナエトリヨウ カブシキガイシヤ"
  },
  "8666": {
    "postcode": "5388666",
    "prefecture": "大阪府",
    "prefecture_kana": "オオサカフ",
    "prefecture_code": 27,
    "city": "大阪市鶴見区",
    "city_kana": "オオサカシツルミク",
    "town": "鶴見",
    "town_kana": "ツルミ",
    "street": "４丁目１−１２（大阪城東郵便局私書箱第１０号）",
    "office_name": "株式会社　アサヒペン",
    "office_name_kana": "カブシキガイシヤ アサヒペン"
  },
  "8686": {
    "postcode": "5388686",
    "prefecture": "大阪府",
    "prefecture_kana": "オオサカフ",
    "prefecture_code": 27,
    "city": "大阪市鶴見区",
    "city_kana": "オオサカシツルミク",
    "town": "鶴見",
    "town_kana": "ツルミ",
    "street": "４丁目１７−９６（大阪城東郵便局私書箱第１１号）",
    "office_name": "株式会社　椿本チエイン",
    "office_name_kana": "カブシキガイシヤ ツバキモトチエイン"
  }
}