{
  "0012": {
    "postcode": "5420012",
    "prefecture": "大阪府",
    "prefecture_kana": "オオサカフ",
    "prefecture_code": 27,
    "city": "大阪市中央区",
    "city_kana": "オオサカシチュウオウク",
    "town": "谷町",
    "town_kana": "タニマチ",
    "street": null,
    "office_name": null,
    "office_name_kana": null
  },
  "0061": {
    "postcode": "5420061",
    "prefecture": "大阪府",
    "prefecture_kana": "オオサカフ",
    "prefecture_code": 27,
    "city": "大阪市中央区",
    "city_kana": "オオサカシチュウオウク",
    "town": "安堂寺町",
    "town_kana": "アンドウジマチ",
    "street": null,
    "office_name": null,
    "office_name_kana": null
  },
  "0062": {
    "postcode": "5420062",
    "prefecture": "大阪府",
    "prefecture_kana": "オオサカフ",
    "prefecture_code": 27,
    "city": "大阪市中央区",
    "city_kana": "オオサカシチュウオウク",
    "town": "上本町西",
    "town_kana": "ウエホンマチニシ",
    "street": null,
    "office_name": null,
    "office_name_kana": null
  },
  "0063": {
    "postcode": "5420063",
    "prefecture": "大阪府",
    "prefecture_kana": "オオサカフ",
    "prefecture_code": 27,
    "city": "大阪市中央区",
    "city_kana": "オオサカシチュウオウク",
    "town": "東平",
    "town_kana": "トウヘイ",
    "street": null,
    "office_name": null,
    "office_name_kana": null
  },
  "0064": {
    "postcode": "5420064",
    "prefecture": "大阪府",
    "prefecture_kana": "オオサカフ",
    "prefecture_code": 27,
    "city": "大阪市中央区",
    "city_kana": "オオサカシチュウオウク",
    "town": "上汐",
    "town_kana": "ウエシオ",
    "street": null,
    "office_name": null,
    "office_name_kana": null
  },
  "0065": {
    "postcode": "5420065",
    "prefecture": "大阪府",
    "prefecture_kana": "オオサカフ",
    "prefecture_code": 27,
    "city": "大阪市中央区",
    "city_kana": "オオサカシチュウオウク",
    "town": "中寺",
    "town_kana": "ナカデラ",
    "street": null,
    "office_name": null,
    "office_name_kana": null
  },
  "0066": {
    "postcode": "5420066",
    "prefecture": "大阪府",
    "prefecture_kana": "オオサカフ",
    "prefecture_code": 27,
    "city": "大阪市中央区",
    "city_kana": "オオサカシチュウオウク",
    "town": "瓦屋町",
    "town_kana": "カワラヤマチ",
    "street": null,
    "office_name": null,
    "office_name_kana": null
  },
  "0067": {
    "postcode": "5420067",
    "prefecture": "大阪府",
    "prefecture_kana": "オオサカフ",
    "prefecture_code": 27,
    "city": "大阪市中央区",
    "city_kana": "オオサカシチュウオウク",
    "town": "松屋町",
    "town_kana": "マツヤマチ",
    "street": null,
    "office_name": null,
    "office_name_kana": null
  },
  "0071": {
    "postcode": "5420071",
    "prefecture": "大阪府",
    "prefecture_kana": "オオサカフ",
    "prefecture_code": 27,
    "city": "大阪市中央区",
    "city_kana": "オオサカシチュウオウク",
    "town": "道頓堀",
    "town_kana": "ドウトンボリ",
    "street": null,
    "office_name": null,
    "office_name_kana": null
  },
  "0072": {
    "postcode": "5420072",
    "prefecture": "大阪府",
    "prefecture_kana": "オオサカフ",
    "prefecture_code": 27,
    "city": "大阪市中央区",
    "city_kana": "オオサカシチュウオウク",
    "town": "高津",
    "town_kana": "コウヅ",
    "street": null,
    "office_name": null,
    "office_name_kana": null
  },
  "0073": {
    "postcode": "5420073",
    "prefecture": "大阪府",
    "prefecture_kana": "オオサカフ",
    "prefecture_code": 27,
    "city": "大阪市中央区",
    "city_kana": "オオサカシチュウオウク",
    "town": "日本橋",
    "town_kana": "ニッポンバシ",
    "street": null,
    "office_name": null,
    "office_name_kana": null
  },
  "0074": {
    "postcode": "5420074",
    "prefecture": "大阪府",
    "prefecture_kana": "オオサカフ",
    "prefecture_code": 27,
    "city": "大阪市中央区",
    "city_kana": "オオサカシチュウオウク",
    "town": "千日前",
    "town_kana": "センニチマエ",
    "street": null,
    "office_name": null,
    "office_name_kana": null
  },
  "0075": {
    "postcode": "5420075",
    "prefecture": "大阪府",
    "prefecture_kana": "オオサカフ",
    "prefecture_code": 27,
    "city": "大阪市中央区",
    "city_kana": "オオサカシチュウオウク",
    "town": "難波千日前",
    "town_kana": "ナンバセンニチマエ",
    "street": null,
    "office_name": null,
    "office_name_kana": null
  },
  "0076": {
    "postcode": "5420076",
    "prefecture": "大阪府",
    "prefecture_kana": "オオサカフ",
    "prefecture_code": 27,
    "city": "大阪市中央区",
    "city_kana": "オオサカシチュウオウク",
    "town": "難波",
    "town_kana": "ナンバ",
    "street": null,
    "office_name": null,
    "office_name_kana": null
  },
  "0077": {
    "postcode": "5420077",
    "prefecture": "大阪府",
    "prefecture_kana": "オオサカフ",
    "prefecture_code": 27,
    "city": "大阪市中央区",
    "city_kana": "オオサカシチュウオウク",
    "town": "道頓堀",
    "town_kana": "ドウトンボリ",
    "street": null,
    "office_name": null,
    "office_name_kana": null
  },
  "0081": {
    "postcode": "5420081",
    "prefecture": "大阪府",
    "prefecture_kana": "オオサカフ",
    "prefecture_code": 27,
    "city": "大阪市中央区",
    "city_kana": "オオサカシチュウオウク",
    "town": "南船場",
    "town_kana": "ミナミセンバ",
    "street": null,
    "office_name": null,
    "office_name_kana": null
  },
  "0082": {
    "postcode": "5420082",
    "prefecture": "大阪府",
    "prefecture_kana": "オオサカフ",
    "prefecture_code": 27,
    "city": "大阪市中央区",
    "city_kana": "オオサカシチュウオウク",
    "town": "島之内",
    "town_kana": "シマノウチ",
    "street": null,
    "office_name": null,
    "office_name_kana": null
  },
  "0083": {
    "postcode": "5420083",
    "prefecture": "大阪府",
    "prefecture_kana": "オオサカフ",
    "prefecture_code": 27,
    "city": "大阪市中央区",
    "city_kana": "オオサカシチュウオウク",
    "town": "東心斎橋",
    "town_kana": "ヒガシシンサイバシ",
    "street": null,
    "office_name": null,
    "office_name_kana": null
  },
  "0084": {
    "postcode": "5420084",
    "prefecture": "大阪府",
    "prefecture_kana": "オオサカフ",
    "prefecture_code": 27,
    "city": "大阪市中央区",
    "city_kana": "オオサカシチュウオウク",
    "town": "宗右衛門町",
    "town_kana": "ソウエモンチョウ",
    "street": null,
    "office_name": null,
    "office_name_kana": null
  },
  "0085": {
    "postcode": "5420085",
    "prefecture": "大阪府",
    "prefecture_kana": "オオサカフ",
    "prefecture_code": 27,
    "city": "大阪市中央区",
    "city_kana": "オオサカシチュウオウク",
    "town": "心斎橋筋",
    "town_kana": "シンサイバシスジ",
    "street": null,
    "office_name": null,
    "office_name_kana": null
  },
  "0086": {
    "postcode": "5420086",
    "prefecture": "大阪府",
    "prefecture_kana": "オオサカフ",
    "prefecture_code": 27,
    "city": "大阪市中央区",
    "city_kana": "オオサカシチュウオウク",
    "town": "西心斎橋",
    "town_kana": "ニシシンサイバシ",
    "street": null,
    "office_name": null,
    "office_name_kana": null
  },
  "8501": {
    "postcode": "5428501",
    "prefecture": "大阪府",
    "prefecture_kana": "オオサカフ",
    "prefecture_code": 27,
    "city": "大阪市中央区",
    "city_kana": "オオサカシチュウオウク",
    "town": "心斎橋筋",
    "town_kana": "シンサイバシスジ",
    "street": "１丁目７−１",
    "office_name": "株式会社　大丸　大阪心斎橋店",
    "office_name_kana": "カブシキガイシヤ ダイマル オオサカシンサイバシテン"
  },
  "8502": {
    "postcode": "5428502",
    "prefecture": "大阪府",
    "prefecture_kana": "オオサカフ",
    "prefecture_code": 27,
    "city": "大阪市中央区",
    "city_kana": "オオサカシチュウオウク",
    "town": "南船場",
    "town_kana": "ミナミセンバ",
    "street": "３丁目５−８",
    "office_name": "株式会社　ジェイテクト",
    "office_name_kana": "カブシキガイシヤ ジエイテクト"
  },
  "8503": {
    "postcode": "5428503",
    "prefecture": "大阪府",
    "prefecture_kana": "オオサカフ",
    "prefecture_code": 27,
    "city": "大阪市中央区",
    "city_kana": "オオサカシチュウオウク",
    "town": "難波",
    "town_kana": "ナンバ",
    "street": "５丁目１−６０",
    "office_name": "南海電気鉄道　株式会社",
    "office_name_kana": "ナンカイデンキテツドウ カブシキガイシヤ"
  },
  "8504": {
    "postcode": "5428504",
    "prefecture": "大阪府",
    "prefecture_kana": "オオサカフ",
    "prefecture_code": 27,
    "city": "大阪市中央区",
    "city_kana": "オオサカシチュウオウク",
    "town": "南船場",
    "town_kana": "ミナミセンバ",
    "street": "３丁目１１−２０",
    "office_name": "住江織物　株式会社",
    "office_name_kana": "スミエオリモノ カブシキガイシヤ"
  },
  "8510": {
    "postcode": "5428510",
    "prefecture": "大阪府",
    "prefecture_kana": "オオサカフ",
    "prefecture_code": 27,
    "city": "大阪市中央区",
    "city_kana": "オオサカシチュウオウク",
    "town": "難波",
    "town_kana": "ナンバ",
    "street": "５丁目１−５",
    "office_name": "株式会社　高島屋　大阪店",
    "office_name_kana": "カブシキガイシヤ タカシマヤ オオサカテン"
  },
  "8511": {
    "postcode": "5428511",
    "prefecture": "大阪府",
    "prefecture_kana": "オオサカフ",
    "prefecture_code": 27,
    "city": "大阪市中央区",
    "city_kana": "オオサカシチュウオウク",
    "town": "難波",
    "town_kana": "ナンバ",
    "street": "４丁目２−３",
    "office_name": "大和証券　株式会社　難波支店",
    "office_name_kana": "ダイワシヨウケン カブシキガイシヤ ナンバシテン"
  },
  "8522": {
    "postcode": "5428522",
    "prefecture": "大阪府",
    "prefecture_kana": "オオサカフ",
    "prefecture_code": 27,
    "city": "大阪市中央区",
    "city_kana": "オオサカシチュウオウク",
    "town": "南船場",
    "town_kana": "ミナミセンバ",
    "street": "２丁目４−８",
    "office_name": "村本建設　株式会社",
    "office_name_kana": "ムラモトケンセツ カブシキガイシヤ"
  },
  "8523": {
    "postcode": "5428523",
    "prefecture": "大阪府",
    "prefecture_kana": "オオサカフ",
    "prefecture_code": 27,
    "city": "大阪市中央区",
    "city_kana": "オオサカシチュウオウク",
    "town": "東心斎橋",
    "town_kana": "ヒガシシンサイバシ",
    "street": "１丁目２番２号",
    "office_name": "日産プリンス大阪販売　株式会社",
    "office_name_kana": "ニツサンプリンスオオサカハンバイ カブシキガイシヤ"
  },
  "8525": {
    "postcode": "5428525",
    "prefecture": "大阪府",
    "prefecture_kana": "オオサカフ",
    "prefecture_code": 27,
    "city": "大阪市中央区",
    "city_kana": "オオサカシチュウオウク",
    "town": "東心斎橋",
    "town_kana": "ヒガシシンサイバシ",
    "street": "１丁目５−５",
    "office_name": "株式会社　ドウシシャ",
    "office_name_kana": "カブシキガイシヤ ドウシシヤ"
  },
  "8533": {
    "postcode": "5428533",
    "prefecture": "大阪府",
    "prefecture_kana": "オオサカフ",
    "prefecture_code": 27,
    "city": "大阪市中央区",
    "city_kana": "オオサカシチュウオウク",
    "town": "南船場",
    "town_kana": "ミナミセンバ",
    "street": "３丁目４−１２",
    "office_name": "株式会社　東急ハンズ　心斎橋店",
    "office_name_kana": "カブシキガイシヤ トウキユウハンズ シンサイバシテン"
  },
  "8542": {
    "postcode": "5428542",
    "prefecture": "大阪府",
    "prefecture_kana": "オオサカフ",
    "prefecture_code": 27,
    "city": "大阪市中央区",
    "city_kana": "オオサカシチュウオウク",
    "town": "高津",
    "town_kana": "コウヅ",
    "street": "３−１６−６",
    "office_name": "株式会社　ＵＳＥＮ　事務センター　大阪管理課",
    "office_name_kana": "カブシキガイシヤ ユウセン ジムセンタ- オオサカカンリカ"
  },
  "8550": {
    "postcode": "5428550",
    "prefecture": "大阪府",
    "prefecture_kana": "オオサカフ",
    "prefecture_code": 27,
    "city": "大阪市中央区",
    "city_kana": "オオサカシチュウオウク",
    "town": "南船場",
    "town_kana": "ミナミセンバ",
    "street": "４丁目３−１１",
    "office_name": "豊田通商　株式会社　大阪支店",
    "office_name_kana": "トヨタツウシヨウ カブシキガイシヤ オオサカシテン"
  },
  "8554": {
    "postcode": "5428554",
    "prefecture": "大阪府",
    "prefecture_kana": "オオサカフ",
    "prefecture_code": 27,
    "city": "大阪市中央区",
    "city_kana": "オオサカシチュウオウク",
    "town": "松屋町",
    "town_kana": "マツヤマチ",
    "street": "７−７",
    "office_name": "株式会社　カナデン　関西支社",
    "office_name_kana": "カブシキガイシヤ カナデン カンサイシシヤ"
  },
  "8555": {
    "postcode": "5428555",
    "prefecture": "大阪府",
    "prefecture_kana": "オオサカフ",
    "prefecture_code": 27,
    "city": "大阪市中央区",
    "city_kana": "オオサカシチュウオウク",
    "town": "心斎橋筋",
    "town_kana": "シンサイバシスジ",
    "street": "１丁目８−３",
    "office_name": "株式会社　そごう　大阪店",
    "office_name_kana": "カブシキガイシヤ ソゴウ オオサカテン"
  },
  "8558": {
    "postcode": "5428558",
    "prefecture": "大阪府",
    "prefecture_kana": "オオサカフ",
    "prefecture_code": 27,
    "city": "大阪市中央区",
    "city_kana": "オオサカシチュウオウク",
    "town": "南船場",
    "town_kana": "ミナミセンバ",
    "street": "１丁目１５−１４",
    "office_name": "稲畑産業　株式会社",
    "office_name_kana": "イナハタサンギヨウ カブシキガイシヤ"
  },
  "8566": {
    "postcode": "5428566",
    "prefecture": "大阪府",
    "prefecture_kana": "オオサカフ",
    "prefecture_code": 27,
    "city": "大阪市中央区",
    "city_kana": "オオサカシチュウオウク",
    "town": "難波",
    "town_kana": "ナンバ",
    "street": "４丁目１番１５号",
    "office_name": "クラブツーリズム　株式会社",
    "office_name_kana": "クラブツ-リズム カブシキガイシヤ"
  },
  "8567": {
    "postcode": "5428567",
    "prefecture": "大阪府",
    "prefecture_kana": "オオサカフ",
    "prefecture_code": 27,
    "city": "大阪市中央区",
    "city_kana": "オオサカシチュウオウク",
    "town": "南船場",
    "town_kana": "ミナミセンバ",
    "street": "１丁目１８−１１",
    "office_name": "冨士火災海上保険　株式会社",
    "office_name_kana": "フジカサイカイジヨウホケン カブシキガイシヤ"
  },
  "8577": {
    "postcode": "5428577",
    "prefecture": "大阪府",
    "prefecture_kana": "オオサカフ",
    "prefecture_code": 27,
    "city": "大阪市中央区",
    "city_kana": "オオサカシチュウオウク",
    "town": "安堂寺町",
    "town_kana": "アンドウジマチ",
    "street": "１丁目５番６号",
    "office_name": "株式会社　誠和商会",
    "office_name_kana": "カブシキガイシヤ セイワシヨウカイ"
  },
  "8580": {
    "postcode": "5428580",
    "prefecture": "大阪府",
    "prefecture_kana": "オオサカフ",
    "prefecture_code": 27,
    "city": "大阪市中央区",
    "city_kana": "オオサカシチュウオウク",
    "town": "上本町西",
    "town_kana": "ウエホンマチニシ",
    "street": "３丁目１−５",
    "office_name": "大阪府医師協同組合",
    "office_name_kana": "オオサカフイシキヨウドウクミアイ"
  },
  "8585": {
    "postcode": "5428585",
    "prefecture": "大阪府",
    "prefecture_kana": "オオサカフ",
    "prefecture_code": 27,
    "city": "大阪市中央区",
    "city_kana": "オオサカシチュウオウク",
    "town": "上本町西",
    "town_kana": "ウエホンマチニシ",
    "street": "１丁目２−１９",
    "office_name": "株式会社　エスエスケイ",
    "office_name_kana": "カブシキガイシヤ エスエスケイ"
  },
  "8586": {
    "postcode": "5428586",
    "prefecture": "大阪府",
    "prefecture_kana": "オオサカフ",
    "prefecture_code": 27,
    "city": "大阪市中央区",
    "city_kana": "オオサカシチュウオウク",
    "town": "谷町",
    "town_kana": "タニマチ",
    "street": "７丁目５−２３",
    "office_name": "南税務署",
    "office_name_kana": "ミナミゼイムシヨ"
  },
  "8588": {
    "postcode": "5428588",
    "prefecture": "大阪府",
    "prefecture_kana": "オオサカフ",
    "prefecture_code": 27,
    "city": "大阪市中央区",
    "city_kana": "オオサカシチュウオウク",
    "town": "上本町西",
    "town_kana": "ウエホンマチニシ",
    "street": "１丁目２−１６",
    "office_name": "株式会社　日伝",
    "office_name_kana": "カブシキガイシヤ ニチデン"
  },
  "8654": {
    "postcode": "5428654",
    "prefecture": "大阪府",
    "prefecture_kana": "オオサカフ",
    "prefecture_code": 27,
    "city": "大阪市中央区",
    "city_kana": "オオサカシチュウオウク",
    "town": "西心斎橋",
    "town_kana": "ニシシンサイバシ",
    "street": "１丁目２−４（大阪南郵便局私書箱第１１４号）",
    "office_name": "株式会社　関西みらい銀行",
    "office_name_kana": "カブシキガイシヤ カンサイミライギンコウ"
  },
  "8660": {
    "postcode": "5428660",
    "prefecture": "大阪府",
    "prefecture_kana": "オオサカフ",
    "prefecture_code": 27,
    "city": "大阪市中央区",
    "city_kana": "オオサカシチュウオウク",
    "town": "南船場",
    "town_kana": "ミナミセンバ",
    "street": "２丁目４−１２（大阪南郵便局私書箱第２９２号）",
    "office_name": "ユアサ商事　株式会社　関西支社",
    "office_name_kana": "ユアサシヨウジ カブシキガイシヤ カンサイシシヤ"
  },
  "8686": {
    "postcode": "5428686",
    "prefecture": "大阪府",
    "prefecture_kana": "オオサカフ",
    "prefecture_code": 27,
    "city": "大阪市中央区",
    "city_kana": "オオサカシチュウオウク",
    "town": "東心斎橋",
    "town_kana": "ヒガシシンサイバシ",
    "street": "１丁目５−９（大阪南郵便局私書箱第２９１号）",
    "office_name": "株式会社　福徳銀行",
    "office_name_kana": "カブシキガイシヤ フクトクギンコウ"
  },
  "8688": {
    "postcode": "5428688",
    "prefecture": "大阪府",
    "prefecture_kana": "オオサカフ",
    "prefecture_code": 27,
    "city": "大阪市中央区",
    "city_kana": "オオサカシチュウオウク",
    "town": "今橋",
    "town_kana": "イマバシ",
    "street": "４−５−１５（大阪南郵便局私書箱第２９号）",
    "office_name": "三井住友カード　株式会社",
    "office_name_kana": "ミツイスミトモカ-ド カブシキカイシヤ"
  },
  "8745": {
    "postcode": "5428745",
    "prefecture": "大阪府",
    "prefecture_kana": "オオサカフ",
    "prefecture_code": 27,
    "city": "大阪市中央区",
    "city_kana": "オオサカシチュウオウク",
    "town": "上本町西",
    "town_kana": "ウエホンマチニシ",
    "street": "３丁目１−５",
    "office_name": "大阪府医師協同組合",
    "office_name_kana": "オオサカフイシキヨウドウクミアイ"
  }
}