{
  "0000": {
    "postcode": "5440000",
    "prefecture": "大阪府",
    "prefecture_kana": "オオサカフ",
    "prefecture_code": 27,
    "city": "大阪市生野区",
    "city_kana": "オオサカシイクノク",
    "town": "",
    "town_kana": "",
    "street": null,
    "office_name": null,
    "office_name_kana": null
  },
  "0001": {
    "postcode": "5440001",
    "prefecture": "大阪府",
    "prefecture_kana": "オオサカフ",
    "prefecture_code": 27,
    "city": "大阪市生野区",
    "city_kana": "オオサカシイクノク",
    "town": "新今里",
    "town_kana": "シンイマザト",
    "street": null,
    "office_name": null,
    "office_name_kana": null
  },
  "0002": {
    "postcode": "5440002",
    "prefecture": "大阪府",
    "prefecture_kana": "オオサカフ",
    "prefecture_code": 27,
    "city": "大阪市生野区",
    "city_kana": "オオサカシイクノク",
    "town": "小路",
    "town_kana": "ショウジ",
    "street": null,
    "office_name": null,
    "office_name_kana": null
  },
  "0003": {
    "postcode": "5440003",
    "prefecture": "大阪府",
    "prefecture_kana": "オオサカフ",
    "prefecture_code": 27,
    "city": "大阪市生野区",
    "city_kana": "オオサカシイクノク",
    "town": "小路東",
    "town_kana": "ショウジヒガシ",
    "street": null,
    "office_name": null,
    "office_name_kana": null
  },
  "0004": {
    "postcode": "5440004",
    "prefecture": "大阪府",
    "prefecture_kana": "オオサカフ",
    "prefecture_code": 27,
    "city": "大阪市生野区",
    "city_kana": "オオサカシイクノク",
    "town": "巽北",
    "town_kana": "タツミキタ",
    "street": null,
    "office_name": null,
    "office_name_kana": null
  },
  "0005": {
    "postcode": "5440005",
    "prefecture": "大阪府",
    "prefecture_kana": "オオサカフ",
    "prefecture_code": 27,
    "city": "大阪市生野区",
    "city_kana": "オオサカシイクノク",
    "town": "中川",
    "town_kana": "ナカガワ",
    "street": null,
    "office_name": null,
    "office_name_kana": null
  },
  "0006": {
    "postcode": "5440006",
    "prefecture": "大阪府",
    "prefecture_kana": "オオサカフ",
    "prefecture_code": 27,
    "city": "大阪市生野区",
    "city_kana": "オオサカシイクノク",
    "town": "中川東",
    "town_kana": "ナカガワヒガシ",
    "street": null,
    "office_name": null,
    "office_name_kana": null
  },
  "0011": {
    "postcode": "5440011",
    "prefecture": "大阪府",
    "prefecture_kana": "オオサカフ",
    "prefecture_code": 27,
    "city": "大阪市生野区",
    "city_kana": "オオサカシイクノク",
    "town": "田島",
    "town_kana": "タジマ",
    "street": null,
    "office_name": null,
    "office_name_kana": null
  },
  "0012": {
    "postcode": "5440012",
    "prefecture": "大阪府",
    "prefecture_kana": "オオサカフ",
    "prefecture_code": 27,
    "city": "大阪市生野区",
    "city_kana": "オオサカシイクノク",
    "town": "巽西",
    "town_kana": "タツミニシ",
    "street": null,
    "office_name": null,
    "office_name_kana": null
  },
  "0013": {
    "postcode": "5440013",
    "prefecture": "大阪府",
    "prefecture_kana": "オオサカフ",
    "prefecture_code": 27,
    "city": "大阪市生野区",
    "city_kana": "オオサカシイクノク",
    "town": "巽中",
    "town_kana": "タツミナカ",
    "street": null,
    "office_name": null,
    "office_name_kana": null
  },
  "0014": {
    "postcode": "5440014",
    "prefecture": "大阪府",
    "prefecture_kana": "オオサカフ",
    "prefecture_code": 27,
    "city": "大阪市生野区",
    "city_kana": "オオサカシイクノク",
    "town": "巽東",
    "town_kana": "タツミヒガシ",
    "street": null,
    "office_name": null,
    "office_name_kana": null
  },
  "0015": {
    "postcode": "5440015",
    "prefecture": "大阪府",
    "prefecture_kana": "オオサカフ",
    "prefecture_code": 27,
    "city": "大阪市生野区",
    "city_kana": "オオサカシイクノク",
    "town": "巽南",
    "town_kana": "タツミミナミ",
    "street": null,
    "office_name": null,
    "office_name_kana": null
  },
  "0021": {
    "postcode": "5440021",
    "prefecture": "大阪府",
    "prefecture_kana": "オオサカフ",
    "prefecture_code": 27,
    "city": "大阪市生野区",
    "city_kana": "オオサカシイクノク",
    "town": "勝山南",
    "town_kana": "カツヤマミナミ",
    "street": null,
    "office_name": null,
    "office_name_kana": null
  },
  "0022": {
    "postcode": "5440022",
    "prefecture": "大阪府",
    "prefecture_kana": "オオサカフ",
    "prefecture_code": 27,
    "city": "大阪市生野区",
    "city_kana": "オオサカシイクノク",
    "town": "舎利寺",
    "town_kana": "シャリジ",
    "street": null,
    "office_name": null,
    "office_name_kana": null
  },
  "0023": {
    "postcode": "5440023",
    "prefecture": "大阪府",
    "prefecture_kana": "オオサカフ",
    "prefecture_code": 27,
    "city": "大阪市生野区",
    "city_kana": "オオサカシイクノク",
    "town": "林寺",
    "town_kana": "ハヤシジ",
    "street": null,
    "office_name": null,
    "office_name_kana": null
  },
  "0024": {
    "postcode": "5440024",
    "prefecture": "大阪府",
    "prefecture_kana": "オオサカフ",
    "prefecture_code": 27,
    "city": "大阪市生野区",
    "city_kana": "オオサカシイクノク",
    "town": "生野西",
    "town_kana": "イクノニシ",
    "street": null,
    "office_name": null,
    "office_name_kana": null
  },
  "0025": {
    "postcode": "5440025",
    "prefecture": "大阪府",
    "prefecture_kana": "オオサカフ",
    "prefecture_code": 27,
    "city": "大阪市生野区",
    "city_kana": "オオサカシイクノク",
    "town": "生野東",
    "town_kana": "イクノヒガシ",
    "street": null,
    "office_name": null,
    "office_name_kana": null
  },
  "0031": {
    "postcode": "5440031",
    "prefecture": "大阪府",
    "prefecture_kana": "オオサカフ",
    "prefecture_code": 27,
    "city": "大阪市生野区",
    "city_kana": "オオサカシイクノク",
    "town": "鶴橋",
    "town_kana": "ツルハシ",
    "street": null,
    "office_name": null,
    "office_name_kana": null
  },
  "0032": {
    "postcode": "5440032",
    "prefecture": "大阪府",
    "prefecture_kana": "オオサカフ",
    "prefecture_code": 27,
    "city": "大阪市生野区",
    "city_kana": "オオサカシイクノク",
    "town": "中川西",
    "town_kana": "ナカガワニシ",
    "street": null,
    "office_name": null,
    "office_name_kana": null
  },
  "0033": {
    "postcode": "5440033",
    "prefecture": "大阪府",
    "prefecture_kana": "オオサカフ",
    "prefecture_code": 27,
    "city": "大阪市生野区",
    "city_kana": "オオサカシイクノク",
    "town": "勝山北",
    "town_kana": "カツヤマキタ",
    "street": null,
    "office_name": null,
    "office_name_kana": null
  },
  "0034": {
    "postcode": "5440034",
    "prefecture": "大阪府",
    "prefecture_kana": "オオサカフ",
    "prefecture_code": 27,
    "city": "大阪市生野区",
    "city_kana": "オオサカシイクノク",
    "town": "桃谷",
    "town_kana": "モモダニ",
    "street": null,
    "office_name": null,
    "office_name_kana": null
  },
  "8501": {
    "postcode": "5448501",
    "prefecture": "大阪府",
    "prefecture_kana": "オオサカフ",
    "prefecture_code": 27,
    "city": "大阪市生野区",
    "city_kana": "オオサカシイクノク",
    "town": "勝山南",
    "town_kana": "カツヤマミナミ",
    "street": "３丁目１−１９",
    "office_name": "生野区役所",
    "office_name_kana": "イクノクヤクシヨ"
  },
  "8555": {
    "postcode": "5448555",
    "prefecture": "大阪府",
    "prefecture_kana": "オオサカフ",
    "prefecture_code": 27,
    "city": "大阪市生野区",
    "city_kana": "オオサカシイクノク",
    "town": "勝山北",
    "town_kana": "カツヤマキタ",
    "street": "５丁目２２−１４",
    "office_name": "生野税務署",
    "office_name_kana": "イクノゼイムシヨ"
  },
  "8585": {
    "postcode": "5448585",
    "prefecture": "大阪府",
    "prefecture_kana": "オオサカフ",
    "prefecture_code": 27,
    "city": "大阪市生野区",
    "city_kana": "オオサカシイクノク",
    "town": "小路東",
    "town_kana": "ショウジヒガシ",
    "street": "５丁目５番２０号",
    "office_name": "株式会社　モリタホールディングス",
    "office_name_kana": "カブシキガイシヤ モリタホ-ルデイングス"
  },
  "8666": {
    "postcode": "5448666",
    "prefecture": "大阪府",
    "prefecture_kana": "オオサカフ",
    "prefecture_code": 27,
    "city": "大阪市生野区",
    "city_kana": "オオサカシイクノク",
    "town": "巽西",
    "town_kana": "タツミニシ",
    "street": "１丁目８−１（生野郵便局私書箱第１号）",
    "office_name": "ロート製薬　株式会社",
    "office_name_kana": "ロ-トセイヤク カブシキガイシヤ"
  },
  "8686": {
    "postcode": "5448686",
    "prefecture": "大阪府",
    "prefecture_kana": "オオサカフ",
    "prefecture_code": 27,
    "city": "大阪市生野区",
    "city_kana": "オオサカシイクノク",
    "town": "桃谷",
    "town_kana": "モモダニ",
    "street": "１丁目３番２３号",
    "office_name": "昌栄印刷　株式会社",
    "office_name_kana": "シヨウエイインサツ カブシキガイシヤ"
  }
}