{
  "0000": {
    "postcode": "5460000",
    "prefecture": "大阪府",
    "prefecture_kana": "オオサカフ",
    "prefecture_code": 27,
    "city": "大阪市東住吉区",
    "city_kana": "オオサカシヒガシスミヨシク",
    "town": "",
    "town_kana": "",
    "street": null,
    "office_name": null,
    "office_name_kana": null
  },
  "0001": {
    "postcode": "5460001",
    "prefecture": "大阪府",
    "prefecture_kana": "オオサカフ",
    "prefecture_code": 27,
    "city": "大阪市東住吉区",
    "city_kana": "オオサカシヒガシスミヨシク",
    "town": "今林",
    "town_kana": "イマバヤシ",
    "street": null,
    "office_name": null,
    "office_name_kana": null
  },
  "0002": {
    "postcode": "5460002",
    "prefecture": "大阪府",
    "prefecture_kana": "オオサカフ",
    "prefecture_code": 27,
    "city": "大阪市東住吉区",
    "city_kana": "オオサカシヒガシスミヨシク",
    "town": "杭全",
    "town_kana": "クマタ",
    "street": null,
    "office_name": null,
    "office_name_kana": null
  },
  "0003": {
    "postcode": "5460003",
    "prefecture": "大阪府",
    "prefecture_kana": "オオサカフ",
    "prefecture_code": 27,
    "city": "大阪市東住吉区",
    "city_kana": "オオサカシヒガシスミヨシク",
    "town": "今川",
    "town_kana": "イマガワ",
    "street": null,
    "office_name": null,
    "office_name_kana": null
  },
  "0011": {
    "postcode": "5460011",
    "prefecture": "大阪府",
    "prefecture_kana": "オオサカフ",
    "prefecture_code": 27,
    "city": "大阪市東住吉区",
    "city_kana": "オオサカシヒガシスミヨシク",
    "town": "針中野",
    "town_kana": "ハリナカノ",
    "street": null,
    "office_name": null,
    "office_name_kana": null
  },
  "0012": {
    "postcode": "5460012",
    "prefecture": "大阪府",
    "prefecture_kana": "オオサカフ",
    "prefecture_code": 27,
    "city": "大阪市東住吉区",
    "city_kana": "オオサカシヒガシスミヨシク",
    "town": "中野",
    "town_kana": "ナカノ",
    "street": null,
    "office_name": null,
    "office_name_kana": null
  },
  "0013": {
    "postcode": "5460013",
    "prefecture": "大阪府",
    "prefecture_kana": "オオサカフ",
    "prefecture_code": 27,
    "city": "大阪市東住吉区",
    "city_kana": "オオサカシヒガシスミヨシク",
    "town": "湯里",
    "town_kana": "ユザト",
    "street": null,
    "office_name": null,
    "office_name_kana": null
  },
  "0014": {
    "postcode": "5460014",
    "prefecture": "大阪府",
    "prefecture_kana": "オオサカフ",
    "prefecture_code": 27,
    "city": "大阪市東住吉区",
    "city_kana": "オオサカシヒガシスミヨシク",
    "town": "鷹合",
    "town_kana": "タカアイ",
    "street": null,
    "office_name": null,
    "office_name_kana": null
  },
  "0021": {
    "postcode": "5460021",
    "prefecture": "大阪府",
    "prefecture_kana": "オオサカフ",
    "prefecture_code": 27,
    "city": "大阪市東住吉区",
    "city_kana": "オオサカシヒガシスミヨシク",
    "town": "照ケ丘矢田",
    "town_kana": "テルガオカヤタ",
    "street": null,
    "office_name": null,
    "office_name_kana": null
  },
  "0022": {
    "postcode": "5460022",
    "prefecture": "大阪府",
    "prefecture_kana": "オオサカフ",
    "prefecture_code": 27,
    "city": "大阪市東住吉区",
    "city_kana": "オオサカシヒガシスミヨシク",
    "town": "住道矢田",
    "town_kana": "スンジヤタ",
    "street": null,
    "office_name": null,
    "office_name_kana": null
  },
  "0023": {
    "postcode": "5460023",
    "prefecture": "大阪府",
    "prefecture_kana": "オオサカフ",
    "prefecture_code": 27,
    "city": "大阪市東住吉区",
    "city_kana": "オオサカシヒガシスミヨシク",
    "town": "矢田",
    "town_kana": "ヤタ",
    "street": null,
    "office_name": null,
    "office_name_kana": null
  },
  "0024": {
    "postcode": "5460024",
    "prefecture": "大阪府",
    "prefecture_kana": "オオサカフ",
    "prefecture_code": 27,
    "city": "大阪市東住吉区",
    "city_kana": "オオサカシヒガシスミヨシク",
    "town": "公園南矢田",
    "town_kana": "コウエンミナミヤタ",
    "street": null,
    "office_name": null,
    "office_name_kana": null
  },
  "0031": {
    "postcode": "5460031",
    "prefecture": "大阪府",
    "prefecture_kana": "オオサカフ",
    "prefecture_code": 27,
    "city": "大阪市東住吉区",
    "city_kana": "オオサカシヒガシスミヨシク",
    "town": "田辺",
    "town_kana": "タナベ",
    "street": null,
    "office_name": null,
    "office_name_kana": null
  },
  "0032": {
    "postcode": "5460032",
    "prefecture": "大阪府",
    "prefecture_kana": "オオサカフ",
    "prefecture_code": 27,
    "city": "大阪市東住吉区",
    "city_kana": "オオサカシヒガシスミヨシク",
    "town": "東田辺",
    "town_kana": "ヒガシタナベ",
    "street": null,
    "office_name": null,
    "office_name_kana": null
  },
  "0033": {
    "postcode": "5460033",
    "prefecture": "大阪府",
    "prefecture_kana": "オオサカフ",
    "prefecture_code": 27,
    "city": "大阪市東住吉区",
    "city_kana": "オオサカシヒガシスミヨシク",
    "town": "南田辺",
    "town_kana": "ミナミタナベ",
    "street": null,
    "office_name": null,
    "office_name_kana": null
  },
  "0034": {
    "postcode": "5460034",
    "prefecture": "大阪府",
    "prefecture_kana": "オオサカフ",
    "prefecture_code": 27,
    "city": "大阪市東住吉区",
    "city_kana": "オオサカシヒガシスミヨシク",
    "town": "長居公園",
    "town_kana": "ナガイコウエン",
    "street": null,
    "office_name": null,
    "office_name_kana": null
  },
  "0035": {
    "postcode": "5460035",
    "prefecture": "大阪府",
    "prefecture_kana": "オオサカフ",
    "prefecture_code": 27,
    "city": "大阪市東住吉区",
    "city_kana": "オオサカシヒガシスミヨシク",
    "town": "山坂",
    "town_kana": "ヤマサカ",
    "street": null,
    "office_name": null,
    "office_name_kana": null
  },
  "0041": {
    "postcode": "5460041",
    "prefecture": "大阪府",
    "prefecture_kana": "オオサカフ",
    "prefecture_code": 27,
    "city": "大阪市東住吉区",
    "city_kana": "オオサカシヒガシスミヨシク",
    "town": "桑津",
    "town_kana": "クワヅ",
    "street": null,
    "office_name": null,
    "office_name_kana": null
  },
  "0042": {
    "postcode": "5460042",
    "prefecture": "大阪府",
    "prefecture_kana": "オオサカフ",
    "prefecture_code": 27,
    "city": "大阪市東住吉区",
    "city_kana": "オオサカシヒガシスミヨシク",
    "town": "西今川",
    "town_kana": "ニシイマガワ",
    "street": null,
    "office_name": null,
    "office_name_kana": null
  },
  "0043": {
    "postcode": "5460043",
    "prefecture": "大阪府",
    "prefecture_kana": "オオサカフ",
    "prefecture_code": 27,
    "city": "大阪市東住吉区",
    "city_kana": "オオサカシヒガシスミヨシク",
    "town": "駒川",
    "town_kana": "コマガワ",
    "street": null,
    "office_name": null,
    "office_name_kana": null
  },
  "0044": {
    "postcode": "5460044",
    "prefecture": "大阪府",
    "prefecture_kana": "オオサカフ",
    "prefecture_code": 27,
    "city": "大阪市東住吉区",
    "city_kana": "オオサカシヒガシスミヨシク",
    "town": "北田辺",
    "town_kana": "キタタナベ",
    "street": null,
    "office_name": null,
    "office_name_kana": null
  },
  "8501": {
    "postcode": "5468501",
    "prefecture": "大阪府",
    "prefecture_kana": "オオサカフ",
    "prefecture_code": 27,
    "city": "大阪市東住吉区",
    "city_kana": "オオサカシヒガシスミヨシク",
    "town": "東田辺",
    "town_kana": "ヒガシタナベ",
    "street": "１丁目１３−４",
    "office_name": "東住吉区役所",
    "office_name_kana": "ヒガシスミヨシクヤクシヨ"
  }
}