{
  "0000": {
    "postcode": "5510000",
    "prefecture": "大阪府",
    "prefecture_kana": "オオサカフ",
    "prefecture_code": 27,
    "city": "大阪市大正区",
    "city_kana": "オオサカシタイショウク",
    "town": "",
    "town_kana": "",
    "street": null,
    "office_name": null,
    "office_name_kana": null
  },
  "0001": {
    "postcode": "5510001",
    "prefecture": "大阪府",
    "prefecture_kana": "オオサカフ",
    "prefecture_code": 27,
    "city": "大阪市大正区",
    "city_kana": "オオサカシタイショウク",
    "town": "三軒家西",
    "town_kana": "サンゲンヤニシ",
    "street": null,
    "office_name": null,
    "office_name_kana": null
  },
  "0002": {
    "postcode": "5510002",
    "prefecture": "大阪府",
    "prefecture_kana": "オオサカフ",
    "prefecture_code": 27,
    "city": "大阪市大正区",
    "city_kana": "オオサカシタイショウク",
    "town": "三軒家東",
    "town_kana": "サンゲンヤヒガシ",
    "street": null,
    "office_name": null,
    "office_name_kana": null
  },
  "0003": {
    "postcode": "5510003",
    "prefecture": "大阪府",
    "prefecture_kana": "オオサカフ",
    "prefecture_code": 27,
    "city": "大阪市大正区",
    "city_kana": "オオサカシタイショウク",
    "town": "千島",
    "town_kana": "チシマ",
    "street": null,
    "office_name": null,
    "office_name_kana": null
  },
  "0011": {
    "postcode": "5510011",
    "prefecture": "大阪府",
    "prefecture_kana": "オオサカフ",
    "prefecture_code": 27,
    "city": "大阪市大正区",
    "city_kana": "オオサカシタイショウク",
    "town": "小林東",
    "town_kana": "コバヤシヒガシ",
    "street": null,
    "office_name": null,
    "office_name_kana": null
  },
  "0012": {
    "postcode": "5510012",
    "prefecture": "大阪府",
    "prefecture_kana": "オオサカフ",
    "prefecture_code": 27,
    "city": "大阪市大正区",
    "city_kana": "オオサカシタイショウク",
    "town": "平尾",
    "town_kana": "ヒラオ",
    "street": null,
    "office_name": null,
    "office_name_kana": null
  },
  "0013": {
    "postcode": "5510013",
    "prefecture": "大阪府",
    "prefecture_kana": "オオサカフ",
    "prefecture_code": 27,
    "city": "大阪市大正区",
    "city_kana": "オオサカシタイショウク",
    "town": "小林西",
    "town_kana": "コバヤシニシ",
    "street": null,
    "office_name": null,
    "office_name_kana": null
  },
  "0021": {
    "postcode": "5510021",
    "prefecture": "大阪府",
    "prefecture_kana": "オオサカフ",
    "prefecture_code": 27,
    "city": "大阪市大正区",
    "city_kana": "オオサカシタイショウク",
    "town": "南恩加島",
    "town_kana": "ミナミオカジマ",
    "street": null,
    "office_name": null,
    "office_name_kana": null
  },
  "0022": {
    "postcode": "5510022",
    "prefecture": "大阪府",
    "prefecture_kana": "オオサカフ",
    "prefecture_code": 27,
    "city": "大阪市大正区",
    "city_kana": "オオサカシタイショウク",
    "town": "船町",
    "town_kana": "フナマチ",
    "street": null,
    "office_name": null,
    "office_name_kana": null
  },
  "0023": {
    "postcode": "5510023",
    "prefecture": "大阪府",
    "prefecture_kana": "オオサカフ",
    "prefecture_code": 27,
    "city": "大阪市大正区",
    "city_kana": "オオサカシタイショウク",
    "town": "鶴町",
    "town_kana": "ツルマチ",
    "street": null,
    "office_name": null,
    "office_name_kana": null
  },
  "0031": {
    "postcode": "5510031",
    "prefecture": "大阪府",
    "prefecture_kana": "オオサカフ",
    "prefecture_code": 27,
    "city": "大阪市大正区",
    "city_kana": "オオサカシタイショウク",
    "town": "泉尾",
    "town_kana": "イズオ",
    "street": null,
    "office_name": null,
    "office_name_kana": null
  },
  "0032": {
    "postcode": "5510032",
    "prefecture": "大阪府",
    "prefecture_kana": "オオサカフ",
    "prefecture_code": 27,
    "city": "大阪市大正区",
    "city_kana": "オオサカシタイショウク",
    "town": "北村",
    "town_kana": "キタムラ",
    "street": null,
    "office_name": null,
    "office_name_kana": null
  },
  "0033": {
    "postcode": "5510033",
    "prefecture": "大阪府",
    "prefecture_kana": "オオサカフ",
    "prefecture_code": 27,
    "city": "大阪市大正区",
    "city_kana": "オオサカシタイショウク",
    "town": "北恩加島",
    "town_kana": "キタオカジマ",
    "street": null,
    "office_name": null,
    "office_name_kana": null
  },
  "8501": {
    "postcode": "5518501",
    "prefecture": "大阪府",
    "prefecture_kana": "オオサカフ",
    "prefecture_code": 27,
    "city": "大阪市大正区",
    "city_kana": "オオサカシタイショウク",
    "town": "千島",
    "town_kana": "チシマ",
    "street": "２丁目７−９５",
    "office_name": "大正区役所",
    "office_name_kana": "タイシヨウクヤクシヨ"
  },
  "8511": {
    "postcode": "5518511",
    "prefecture": "大阪府",
    "prefecture_kana": "オオサカフ",
    "prefecture_code": 27,
    "city": "大阪市大正区",
    "city_kana": "オオサカシタイショウク",
    "town": "船町",
    "town_kana": "フナマチ",
    "street": "１丁目２−２１（ロジポート大阪大正内）",
    "office_name": "株式会社　エディオンＬＥＣ近畿",
    "office_name_kana": "カブシキガイシヤ エデイオンエルイ-シ-キンキ"
  },
  "8551": {
    "postcode": "5518551",
    "prefecture": "大阪府",
    "prefecture_kana": "オオサカフ",
    "prefecture_code": 27,
    "city": "大阪市大正区",
    "city_kana": "オオサカシタイショウク",
    "town": "船町",
    "town_kana": "フナマチ",
    "street": "１丁目１−６６",
    "office_name": "株式会社　中山製鋼所",
    "office_name_kana": "カブシキガイシヤ ナカヤマセイコウシヨ"
  }
}