{
  "0000": {
    "postcode": "5520000",
    "prefecture": "大阪府",
    "prefecture_kana": "オオサカフ",
    "prefecture_code": 27,
    "city": "大阪市港区",
    "city_kana": "オオサカシミナトク",
    "town": "",
    "town_kana": "",
    "street": null,
    "office_name": null,
    "office_name_kana": null
  },
  "0001": {
    "postcode": "5520001",
    "prefecture": "大阪府",
    "prefecture_kana": "オオサカフ",
    "prefecture_code": 27,
    "city": "大阪市港区",
    "city_kana": "オオサカシミナトク",
    "town": "波除",
    "town_kana": "ナミヨケ",
    "street": null,
    "office_name": null,
    "office_name_kana": null
  },
  "0002": {
    "postcode": "5520002",
    "prefecture": "大阪府",
    "prefecture_kana": "オオサカフ",
    "prefecture_code": 27,
    "city": "大阪市港区",
    "city_kana": "オオサカシミナトク",
    "town": "市岡元町",
    "town_kana": "イチオカモトマチ",
    "street": null,
    "office_name": null,
    "office_name_kana": null
  },
  "0003": {
    "postcode": "5520003",
    "prefecture": "大阪府",
    "prefecture_kana": "オオサカフ",
    "prefecture_code": 27,
    "city": "大阪市港区",
    "city_kana": "オオサカシミナトク",
    "town": "磯路",
    "town_kana": "イソジ",
    "street": null,
    "office_name": null,
    "office_name_kana": null
  },
  "0004": {
    "postcode": "5520004",
    "prefecture": "大阪府",
    "prefecture_kana": "オオサカフ",
    "prefecture_code": 27,
    "city": "大阪市港区",
    "city_kana": "オオサカシミナトク",
    "town": "夕凪",
    "town_kana": "ユウナギ",
    "street": null,
    "office_name": null,
    "office_name_kana": null
  },
  "0005": {
    "postcode": "5520005",
    "prefecture": "大阪府",
    "prefecture_kana": "オオサカフ",
    "prefecture_code": 27,
    "city": "大阪市港区",
    "city_kana": "オオサカシミナトク",
    "town": "田中",
    "town_kana": "タナカ",
    "street": null,
    "office_name": null,
    "office_name_kana": null
  },
  "0006": {
    "postcode": "5520006",
    "prefecture": "大阪府",
    "prefecture_kana": "オオサカフ",
    "prefecture_code": 27,
    "city": "大阪市港区",
    "city_kana": "オオサカシミナトク",
    "town": "石田",
    "town_kana": "イシダ",
    "street": null,
    "office_name": null,
    "office_name_kana": null
  },
  "0007": {
    "postcode": "5520007",
    "prefecture": "大阪府",
    "prefecture_kana": "オオサカフ",
    "prefecture_code": 27,
    "city": "大阪市港区",
    "city_kana": "オオサカシミナトク",
    "town": "弁天",
    "town_kana": "ベンテン",
    "street": null,
    "office_name": null,
    "office_name_kana": null
  },
  "0011": {
    "postcode": "5520011",
    "prefecture": "大阪府",
    "prefecture_kana": "オオサカフ",
    "prefecture_code": 27,
    "city": "大阪市港区",
    "city_kana": "オオサカシミナトク",
    "town": "南市岡",
    "town_kana": "ミナミイチオカ",
    "street": null,
    "office_name": null,
    "office_name_kana": null
  },
  "0012": {
    "postcode": "5520012",
    "prefecture": "大阪府",
    "prefecture_kana": "オオサカフ",
    "prefecture_code": 27,
    "city": "大阪市港区",
    "city_kana": "オオサカシミナトク",
    "town": "市岡",
    "town_kana": "イチオカ",
    "street": null,
    "office_name": null,
    "office_name_kana": null
  },
  "0013": {
    "postcode": "5520013",
    "prefecture": "大阪府",
    "prefecture_kana": "オオサカフ",
    "prefecture_code": 27,
    "city": "大阪市港区",
    "city_kana": "オオサカシミナトク",
    "town": "福崎",
    "town_kana": "フクザキ",
    "street": null,
    "office_name": null,
    "office_name_kana": null
  },
  "0014": {
    "postcode": "5520014",
    "prefecture": "大阪府",
    "prefecture_kana": "オオサカフ",
    "prefecture_code": 27,
    "city": "大阪市港区",
    "city_kana": "オオサカシミナトク",
    "town": "八幡屋",
    "town_kana": "ヤハタヤ",
    "street": null,
    "office_name": null,
    "office_name_kana": null
  },
  "0015": {
    "postcode": "5520015",
    "prefecture": "大阪府",
    "prefecture_kana": "オオサカフ",
    "prefecture_code": 27,
    "city": "大阪市港区",
    "city_kana": "オオサカシミナトク",
    "town": "池島",
    "town_kana": "イケジマ",
    "street": null,
    "office_name": null,
    "office_name_kana": null
  },
  "0016": {
    "postcode": "5520016",
    "prefecture": "大阪府",
    "prefecture_kana": "オオサカフ",
    "prefecture_code": 27,
    "city": "大阪市港区",
    "city_kana": "オオサカシミナトク",
    "town": "三先",
    "town_kana": "ミサキ",
    "street": null,
    "office_name": null,
    "office_name_kana": null
  },
  "0021": {
    "postcode": "5520021",
    "prefecture": "大阪府",
    "prefecture_kana": "オオサカフ",
    "prefecture_code": 27,
    "city": "大阪市港区",
    "city_kana": "オオサカシミナトク",
    "town": "築港",
    "town_kana": "チッコウ",
    "street": null,
    "office_name": null,
    "office_name_kana": null
  },
  "0022": {
    "postcode": "5520022",
    "prefecture": "大阪府",
    "prefecture_kana": "オオサカフ",
    "prefecture_code": 27,
    "city": "大阪市港区",
    "city_kana": "オオサカシミナトク",
    "town": "海岸通",
    "town_kana": "カイガンドオリ",
    "street": null,
    "office_name": null,
    "office_name_kana": null
  },
  "0023": {
    "postcode": "5520023",
    "prefecture": "大阪府",
    "prefecture_kana": "オオサカフ",
    "prefecture_code": 27,
    "city": "大阪市港区",
    "city_kana": "オオサカシミナトク",
    "town": "港晴",
    "town_kana": "コウセイ",
    "street": null,
    "office_name": null,
    "office_name_kana": null
  },
  "8501": {
    "postcode": "5528501",
    "prefecture": "大阪府",
    "prefecture_kana": "オオサカフ",
    "prefecture_code": 27,
    "city": "大阪市港区",
    "city_kana": "オオサカシミナトク",
    "town": "弁天",
    "town_kana": "ベンテン",
    "street": "１丁目２−４",
    "office_name": "大阪放送　株式会社",
    "office_name_kana": "オオサカホウソウ カブシキガイシヤ"
  },
  "8510": {
    "postcode": "5528510",
    "prefecture": "大阪府",
    "prefecture_kana": "オオサカフ",
    "prefecture_code": 27,
    "city": "大阪市港区",
    "city_kana": "オオサカシミナトク",
    "town": "市岡",
    "town_kana": "イチオカ",
    "street": "１丁目１５−２５",
    "office_name": "大阪市港区役所",
    "office_name_kana": "オオサカシミナトクヤクシヨ"
  }
}