{
  "0000": {
    "postcode": "5530000",
    "prefecture": "大阪府",
    "prefecture_kana": "オオサカフ",
    "prefecture_code": 27,
    "city": "大阪市福島区",
    "city_kana": "オオサカシフクシマク",
    "town": "",
    "town_kana": "",
    "street": null,
    "office_name": null,
    "office_name_kana": null
  },
  "0001": {
    "postcode": "5530001",
    "prefecture": "大阪府",
    "prefecture_kana": "オオサカフ",
    "prefecture_code": 27,
    "city": "大阪市福島区",
    "city_kana": "オオサカシフクシマク",
    "town": "海老江",
    "town_kana": "エビエ",
    "street": null,
    "office_name": null,
    "office_name_kana": null
  },
  "0002": {
    "postcode": "5530002",
    "prefecture": "大阪府",
    "prefecture_kana": "オオサカフ",
    "prefecture_code": 27,
    "city": "大阪市福島区",
    "city_kana": "オオサカシフクシマク",
    "town": "鷺洲",
    "town_kana": "サギス",
    "street": null,
    "office_name": null,
    "office_name_kana": null
  },
  "0003": {
    "postcode": "5530003",
    "prefecture": "大阪府",
    "prefecture_kana": "オオサカフ",
    "prefecture_code": 27,
    "city": "大阪市福島区",
    "city_kana": "オオサカシフクシマク",
    "town": "福島",
    "town_kana": "フクシマ",
    "street": null,
    "office_name": null,
    "office_name_kana": null
  },
  "0004": {
    "postcode": "5530004",
    "prefecture": "大阪府",
    "prefecture_kana": "オオサカフ",
    "prefecture_code": 27,
    "city": "大阪市福島区",
    "city_kana": "オオサカシフクシマク",
    "town": "玉川",
    "town_kana": "タマガワ",
    "street": null,
    "office_name": null,
    "office_name_kana": null
  },
  "0005": {
    "postcode": "5530005",
    "prefecture": "大阪府",
    "prefecture_kana": "オオサカフ",
    "prefecture_code": 27,
    "city": "大阪市福島区",
    "city_kana": "オオサカシフクシマク",
    "town": "野田",
    "town_kana": "ノダ",
    "street": null,
    "office_name": null,
    "office_name_kana": null
  },
  "0006": {
    "postcode": "5530006",
    "prefecture": "大阪府",
    "prefecture_kana": "オオサカフ",
    "prefecture_code": 27,
    "city": "大阪市福島区",
    "city_kana": "オオサカシフクシマク",
    "town": "吉野",
    "town_kana": "ヨシノ",
    "street": null,
    "office_name": null,
    "office_name_kana": null
  },
  "0007": {
    "postcode": "5530007",
    "prefecture": "大阪府",
    "prefecture_kana": "オオサカフ",
    "prefecture_code": 27,
    "city": "大阪市福島区",
    "city_kana": "オオサカシフクシマク",
    "town": "大開",
    "town_kana": "オオヒラキ",
    "street": null,
    "office_name": null,
    "office_name_kana": null
  },
  "8501": {
    "postcode": "5538501",
    "prefecture": "大阪府",
    "prefecture_kana": "オオサカフ",
    "prefecture_code": 27,
    "city": "大阪市福島区",
    "city_kana": "オオサカシフクシマク",
    "town": "大開",
    "town_kana": "オオヒラキ",
    "street": "１丁目８−１",
    "office_name": "大阪市福島区役所",
    "office_name_kana": "オオサカシフクシマクヤクシヨ"
  },
  "8503": {
    "postcode": "5538503",
    "prefecture": "大阪府",
    "prefecture_kana": "オオサカフ",
    "prefecture_code": 27,
    "city": "大阪市福島区",
    "city_kana": "オオサカシフクシマク",
    "town": "福島",
    "town_kana": "フクシマ",
    "street": "１丁目１番３０号",
    "office_name": "朝日放送　株式会社",
    "office_name_kana": "アサヒホウソウ カブシキガイシヤ"
  },
  "8511": {
    "postcode": "5538511",
    "prefecture": "大阪府",
    "prefecture_kana": "オオサカフ",
    "prefecture_code": 27,
    "city": "大阪市福島区",
    "city_kana": "オオサカシフクシマク",
    "town": "福島",
    "town_kana": "フクシマ",
    "street": "１丁目１−６０",
    "office_name": "大阪高等検察庁",
    "office_name_kana": "オオサカコウトウケンサツチヨウ"
  },
  "8512": {
    "postcode": "5538512",
    "prefecture": "大阪府",
    "prefecture_kana": "オオサカフ",
    "prefecture_code": 27,
    "city": "大阪市福島区",
    "city_kana": "オオサカシフクシマク",
    "town": "福島",
    "town_kana": "フクシマ",
    "street": "１丁目１−６０",
    "office_name": "大阪地方検察庁",
    "office_name_kana": "オオサカチホウケンサツチヨウ"
  },
  "8513": {
    "postcode": "5538513",
    "prefecture": "大阪府",
    "prefecture_kana": "オオサカフ",
    "prefecture_code": 27,
    "city": "大阪市福島区",
    "city_kana": "オオサカシフクシマク",
    "town": "福島",
    "town_kana": "フクシマ",
    "street": "１丁目１−６０",
    "office_name": "人事院近畿事務局",
    "office_name_kana": "ジンジインキンキジムキヨク"
  },
  "8550": {
    "postcode": "5538550",
    "prefecture": "大阪府",
    "prefecture_kana": "オオサカフ",
    "prefecture_code": 27,
    "city": "大阪市福島区",
    "city_kana": "オオサカシフクシマク",
    "town": "野田",
    "town_kana": "ノダ",
    "street": "１丁目１番８６号大阪市中央卸売市場内",
    "office_name": "株式会社　大水",
    "office_name_kana": "カブシキガイシヤ ダイスイ"
  },
  "8553": {
    "postcode": "5538553",
    "prefecture": "大阪府",
    "prefecture_kana": "オオサカフ",
    "prefecture_code": 27,
    "city": "大阪市福島区",
    "city_kana": "オオサカシフクシマク",
    "town": "海老江",
    "town_kana": "エビエ",
    "street": "１丁目１番２４号",
    "office_name": "阪神電気鉄道　株式会社",
    "office_name_kana": "ハンシンデンキテツドウ カブシキガイシヤ"
  },
  "8555": {
    "postcode": "5538555",
    "prefecture": "大阪府",
    "prefecture_kana": "オオサカフ",
    "prefecture_code": 27,
    "city": "大阪市福島区",
    "city_kana": "オオサカシフクシマク",
    "town": "野田",
    "town_kana": "ノダ",
    "street": "１−１−８６大阪中央卸売市場内",
    "office_name": "株式会社　うおいち",
    "office_name_kana": "カブシキガイシヤ ウオイチ"
  },
  "8558": {
    "postcode": "5538558",
    "prefecture": "大阪府",
    "prefecture_kana": "オオサカフ",
    "prefecture_code": 27,
    "city": "大阪市福島区",
    "city_kana": "オオサカシフクシマク",
    "town": "福島",
    "town_kana": "フクシマ",
    "street": "６−１４−１大塚梅田ビル",
    "office_name": "株式会社　大塚商会　関西支社",
    "office_name_kana": "カブシキガイシヤ オオツカシヨウカイ カンサイシシヤ"
  },
  "8567": {
    "postcode": "5538567",
    "prefecture": "大阪府",
    "prefecture_kana": "オオサカフ",
    "prefecture_code": 27,
    "city": "大阪市福島区",
    "city_kana": "オオサカシフクシマク",
    "town": "玉川",
    "town_kana": "タマガワ",
    "street": "２丁目１２−２８",
    "office_name": "大阪福島税務署",
    "office_name_kana": "オオサカフクシマゼイムシヨ"
  },
  "8585": {
    "postcode": "5538585",
    "prefecture": "大阪府",
    "prefecture_kana": "オオサカフ",
    "prefecture_code": 27,
    "city": "大阪市福島区",
    "city_kana": "オオサカシフクシマク",
    "town": "福島",
    "town_kana": "フクシマ",
    "street": "８丁目１２−６",
    "office_name": "福島年金事務所",
    "office_name_kana": "フクシマネンキンジムシヨ"
  },
  "8588": {
    "postcode": "5538588",
    "prefecture": "大阪府",
    "prefecture_kana": "オオサカフ",
    "prefecture_code": 27,
    "city": "大阪市福島区",
    "city_kana": "オオサカシフクシマク",
    "town": "福島",
    "town_kana": "フクシマ",
    "street": "４丁目８番５号",
    "office_name": "株式会社　交通タイムス社　大阪事業所",
    "office_name_kana": "カブシキガイシヤ コウツウタイムスシヤ オオサカジギヨウシヨ"
  },
  "8739": {
    "postcode": "5538739",
    "prefecture": "大阪府",
    "prefecture_kana": "オオサカフ",
    "prefecture_code": 27,
    "city": "大阪市福島区",
    "city_kana": "オオサカシフクシマク",
    "town": "福島",
    "town_kana": "フクシマ",
    "street": "６丁目２５−２３",
    "office_name": "学校法人　創造社学園　創造社デザイン専門学校",
    "office_name_kana": "ガツコウホウジン ソウゾウシヤガクエン ソウゾウシヤデザインセンモンガツコウ"
  }
}