{
  "0000": {
    "postcode": "5560000",
    "prefecture": "大阪府",
    "prefecture_kana": "オオサカフ",
    "prefecture_code": 27,
    "city": "大阪市浪速区",
    "city_kana": "オオサカシナニワク",
    "town": "",
    "town_kana": "",
    "street": null,
    "office_name": null,
    "office_name_kana": null
  },
  "0001": {
    "postcode": "5560001",
    "prefecture": "大阪府",
    "prefecture_kana": "オオサカフ",
    "prefecture_code": 27,
    "city": "大阪市浪速区",
    "city_kana": "オオサカシナニワク",
    "town": "下寺",
    "town_kana": "シモデラ",
    "street": null,
    "office_name": null,
    "office_name_kana": null
  },
  "0002": {
    "postcode": "5560002",
    "prefecture": "大阪府",
    "prefecture_kana": "オオサカフ",
    "prefecture_code": 27,
    "city": "大阪市浪速区",
    "city_kana": "オオサカシナニワク",
    "town": "恵美須東",
    "town_kana": "エビスヒガシ",
    "street": null,
    "office_name": null,
    "office_name_kana": null
  },
  "0003": {
    "postcode": "5560003",
    "prefecture": "大阪府",
    "prefecture_kana": "オオサカフ",
    "prefecture_code": 27,
    "city": "大阪市浪速区",
    "city_kana": "オオサカシナニワク",
    "town": "恵美須西",
    "town_kana": "エビスニシ",
    "street": null,
    "office_name": null,
    "office_name_kana": null
  },
  "0004": {
    "postcode": "5560004",
    "prefecture": "大阪府",
    "prefecture_kana": "オオサカフ",
    "prefecture_code": 27,
    "city": "大阪市浪速区",
    "city_kana": "オオサカシナニワク",
    "town": "日本橋西",
    "town_kana": "ニッポンバシニシ",
    "street": null,
    "office_name": null,
    "office_name_kana": null
  },
  "0005": {
    "postcode": "5560005",
    "prefecture": "大阪府",
    "prefecture_kana": "オオサカフ",
    "prefecture_code": 27,
    "city": "大阪市浪速区",
    "city_kana": "オオサカシナニワク",
    "town": "日本橋",
    "town_kana": "ニッポンバシ",
    "street": null,
    "office_name": null,
    "office_name_kana": null
  },
  "0006": {
    "postcode": "5560006",
    "prefecture": "大阪府",
    "prefecture_kana": "オオサカフ",
    "prefecture_code": 27,
    "city": "大阪市浪速区",
    "city_kana": "オオサカシナニワク",
    "town": "日本橋東",
    "town_kana": "ニッポンバシヒガシ",
    "street": null,
    "office_name": null,
    "office_name_kana": null
  },
  "0011": {
    "postcode": "5560011",
    "prefecture": "大阪府",
    "prefecture_kana": "オオサカフ",
    "prefecture_code": 27,
    "city": "大阪市浪速区",
    "city_kana": "オオサカシナニワク",
    "town": "難波中",
    "town_kana": "ナンバナカ",
    "street": null,
    "office_name": null,
    "office_name_kana": null
  },
  "0012": {
    "postcode": "5560012",
    "prefecture": "大阪府",
    "prefecture_kana": "オオサカフ",
    "prefecture_code": 27,
    "city": "大阪市浪速区",
    "city_kana": "オオサカシナニワク",
    "town": "敷津東",
    "town_kana": "シキツヒガシ",
    "street": null,
    "office_name": null,
    "office_name_kana": null
  },
  "0013": {
    "postcode": "5560013",
    "prefecture": "大阪府",
    "prefecture_kana": "オオサカフ",
    "prefecture_code": 27,
    "city": "大阪市浪速区",
    "city_kana": "オオサカシナニワク",
    "town": "戎本町",
    "town_kana": "エビスホンマチ",
    "street": null,
    "office_name": null,
    "office_name_kana": null
  },
  "0014": {
    "postcode": "5560014",
    "prefecture": "大阪府",
    "prefecture_kana": "オオサカフ",
    "prefecture_code": 27,
    "city": "大阪市浪速区",
    "city_kana": "オオサカシナニワク",
    "town": "大国",
    "town_kana": "ダイコク",
    "street": null,
    "office_name": null,
    "office_name_kana": null
  },
  "0015": {
    "postcode": "5560015",
    "prefecture": "大阪府",
    "prefecture_kana": "オオサカフ",
    "prefecture_code": 27,
    "city": "大阪市浪速区",
    "city_kana": "オオサカシナニワク",
    "town": "敷津西",
    "town_kana": "シキツニシ",
    "street": null,
    "office_name": null,
    "office_name_kana": null
  },
  "0016": {
    "postcode": "5560016",
    "prefecture": "大阪府",
    "prefecture_kana": "オオサカフ",
    "prefecture_code": 27,
    "city": "大阪市浪速区",
    "city_kana": "オオサカシナニワク",
    "town": "元町",
    "town_kana": "モトマチ",
    "street": null,
    "office_name": null,
    "office_name_kana": null
  },
  "0017": {
    "postcode": "5560017",
    "prefecture": "大阪府",
    "prefecture_kana": "オオサカフ",
    "prefecture_code": 27,
    "city": "大阪市浪速区",
    "city_kana": "オオサカシナニワク",
    "town": "湊町",
    "town_kana": "ミナトマチ",
    "street": null,
    "office_name": null,
    "office_name_kana": null
  },
  "0020": {
    "postcode": "5560020",
    "prefecture": "大阪府",
    "prefecture_kana": "オオサカフ",
    "prefecture_code": 27,
    "city": "大阪市浪速区",
    "city_kana": "オオサカシナニワク",
    "town": "立葉",
    "town_kana": "タテバ",
    "street": null,
    "office_name": null,
    "office_name_kana": null
  },
  "0021": {
    "postcode": "5560021",
    "prefecture": "大阪府",
    "prefecture_kana": "オオサカフ",
    "prefecture_code": 27,
    "city": "大阪市浪速区",
    "city_kana": "オオサカシナニワク",
    "town": "幸町",
    "town_kana": "サイワイチョウ",
    "street": null,
    "office_name": null,
    "office_name_kana": null
  },
  "0022": {
    "postcode": "5560022",
    "prefecture": "大阪府",
    "prefecture_kana": "オオサカフ",
    "prefecture_code": 27,
    "city": "大阪市浪速区",
    "city_kana": "オオサカシナニワク",
    "town": "桜川",
    "town_kana": "サクラガワ",
    "street": null,
    "office_name": null,
    "office_name_kana": null
  },
  "0023": {
    "postcode": "5560023",
    "prefecture": "大阪府",
    "prefecture_kana": "オオサカフ",
    "prefecture_code": 27,
    "city": "大阪市浪速区",
    "city_kana": "オオサカシナニワク",
    "town": "稲荷",
    "town_kana": "イナリ",
    "street": null,
    "office_name": null,
    "office_name_kana": null
  },
  "0024": {
    "postcode": "5560024",
    "prefecture": "大阪府",
    "prefecture_kana": "オオサカフ",
    "prefecture_code": 27,
    "city": "大阪市浪速区",
    "city_kana": "オオサカシナニワク",
    "town": "塩草",
    "town_kana": "シオクサ",
    "street": null,
    "office_name": null,
    "office_name_kana": null
  },
  "0025": {
    "postcode": "5560025",
    "prefecture": "大阪府",
    "prefecture_kana": "オオサカフ",
    "prefecture_code": 27,
    "city": "大阪市浪速区",
    "city_kana": "オオサカシナニワク",
    "town": "浪速東",
    "town_kana": "ナニワヒガシ",
    "street": null,
    "office_name": null,
    "office_name_kana": null
  },
  "0026": {
    "postcode": "5560026",
    "prefecture": "大阪府",
    "prefecture_kana": "オオサカフ",
    "prefecture_code": 27,
    "city": "大阪市浪速区",
    "city_kana": "オオサカシナニワク",
    "town": "浪速西",
    "town_kana": "ナニワニシ",
    "street": null,
    "office_name": null,
    "office_name_kana": null
  },
  "0027": {
    "postcode": "5560027",
    "prefecture": "大阪府",
    "prefecture_kana": "オオサカフ",
    "prefecture_code": 27,
    "city": "大阪市浪速区",
    "city_kana": "オオサカシナニワク",
    "town": "木津川",
    "town_kana": "キヅガワ",
    "street": null,
    "office_name": null,
    "office_name_kana": null
  },
  "0028": {
    "postcode": "5560028",
    "prefecture": "大阪府",
    "prefecture_kana": "オオサカフ",
    "prefecture_code": 27,
    "city": "大阪市浪速区",
    "city_kana": "オオサカシナニワク",
    "town": "久保吉",
    "town_kana": "クボヨシ",
    "street": null,
    "office_name": null,
    "office_name_kana": null
  },
  "0029": {
    "postcode": "5560029",
    "prefecture": "大阪府",
    "prefecture_kana": "オオサカフ",
    "prefecture_code": 27,
    "city": "大阪市浪速区",
    "city_kana": "オオサカシナニワク",
    "town": "芦原",
    "town_kana": "アシハラ",
    "street": null,
    "office_name": null,
    "office_name_kana": null
  },
  "8501": {
    "postcode": "5568501",
    "prefecture": "大阪府",
    "prefecture_kana": "オオサカフ",
    "prefecture_code": 27,
    "city": "大阪市浪速区",
    "city_kana": "オオサカシナニワク",
    "town": "敷津東",
    "town_kana": "シキツヒガシ",
    "street": "１丁目４−１９",
    "office_name": "浪速区役所",
    "office_name_kana": "ナニワクヤクシヨ"
  },
  "8503": {
    "postcode": "5568503",
    "prefecture": "大阪府",
    "prefecture_kana": "オオサカフ",
    "prefecture_code": 27,
    "city": "大阪市浪速区",
    "city_kana": "オオサカシナニワク",
    "town": "敷津東",
    "town_kana": "シキツヒガシ",
    "street": "二丁目１番４１号",
    "office_name": "南海電気鉄道　株式会社",
    "office_name_kana": "ナンカイデンキテツドウ カブシキカイシヤ"
  },
  "8510": {
    "postcode": "5568510",
    "prefecture": "大阪府",
    "prefecture_kana": "オオサカフ",
    "prefecture_code": 27,
    "city": "大阪市浪速区",
    "city_kana": "オオサカシナニワク",
    "town": "湊町",
    "town_kana": "ミナトマチ",
    "street": "１丁目３番１号",
    "office_name": "ｆｍ　ｏｓａｋａ",
    "office_name_kana": "エフエムオオサカ"
  },
  "8515": {
    "postcode": "5568515",
    "prefecture": "大阪府",
    "prefecture_kana": "オオサカフ",
    "prefecture_code": 27,
    "city": "大阪市浪速区",
    "city_kana": "オオサカシナニワク",
    "town": "湊町",
    "town_kana": "ミナトマチ",
    "street": "２丁目１番５７号",
    "office_name": "株式会社　サンケイリビング新聞社",
    "office_name_kana": "カブシキガイシヤ サンケイリビングシンブンシヤ"
  },
  "8516": {
    "postcode": "5568516",
    "prefecture": "大阪府",
    "prefecture_kana": "オオサカフ",
    "prefecture_code": 27,
    "city": "大阪市浪速区",
    "city_kana": "オオサカシナニワク",
    "town": "湊町",
    "town_kana": "ミナトマチ",
    "street": "２丁目１番５７号",
    "office_name": "株式会社　リビングプロシード",
    "office_name_kana": "カブシキガイシヤ リビングプロシ-ド"
  },
  "8535": {
    "postcode": "5568535",
    "prefecture": "大阪府",
    "prefecture_kana": "オオサカフ",
    "prefecture_code": 27,
    "city": "大阪市浪速区",
    "city_kana": "オオサカシナニワク",
    "town": "湊町",
    "town_kana": "ミナトマチ",
    "street": "１丁目２番３号マルイト難波ビル１７階",
    "office_name": "株式会社　アプラス",
    "office_name_kana": "カブシキガイシヤ アプラス"
  },
  "8550": {
    "postcode": "5568550",
    "prefecture": "大阪府",
    "prefecture_kana": "オオサカフ",
    "prefecture_code": 27,
    "city": "大阪市浪速区",
    "city_kana": "オオサカシナニワク",
    "town": "日本橋西",
    "town_kana": "ニッポンバシニシ",
    "street": "１丁目６−５",
    "office_name": "上新電機　株式会社",
    "office_name_kana": "ジヨウシンデンキ カブシキガイシヤ"
  },
  "8555": {
    "postcode": "5568555",
    "prefecture": "大阪府",
    "prefecture_kana": "オオサカフ",
    "prefecture_code": 27,
    "city": "大阪市浪速区",
    "city_kana": "オオサカシナニワク",
    "town": "芦原",
    "town_kana": "アシハラ",
    "street": "１丁目３番１８号",
    "office_name": "東洋紙業　株式会社",
    "office_name_kana": "トウヨウシギヨウ カブシキガイシヤ"
  },
  "8558": {
    "postcode": "5568558",
    "prefecture": "大阪府",
    "prefecture_kana": "オオサカフ",
    "prefecture_code": 27,
    "city": "大阪市浪速区",
    "city_kana": "オオサカシナニワク",
    "town": "敷津東",
    "town_kana": "シキツヒガシ",
    "street": "２丁目５番１５号",
    "office_name": "エルエイト",
    "office_name_kana": "エルエイト"
  },
  "8585": {
    "postcode": "5568585",
    "prefecture": "大阪府",
    "prefecture_kana": "オオサカフ",
    "prefecture_code": 27,
    "city": "大阪市浪速区",
    "city_kana": "オオサカシナニワク",
    "town": "敷津東",
    "town_kana": "シキツヒガシ",
    "street": "１−６−１６",
    "office_name": "難波年金事務所",
    "office_name_kana": "ナンバネンキンジムシヨ"
  },
  "8601": {
    "postcode": "5568601",
    "prefecture": "大阪府",
    "prefecture_kana": "オオサカフ",
    "prefecture_code": 27,
    "city": "大阪市浪速区",
    "city_kana": "オオサカシナニワク",
    "town": "敷津東",
    "town_kana": "シキツヒガシ",
    "street": "１丁目２−４７",
    "office_name": "株式会社　クボタ　本社",
    "office_name_kana": "カブシキガイシヤ クボタ ホンシヤ"
  },
  "8660": {
    "postcode": "5568660",
    "prefecture": "大阪府",
    "prefecture_kana": "オオサカフ",
    "prefecture_code": 27,
    "city": "大阪市浪速区",
    "city_kana": "オオサカシナニワク",
    "town": "湊町",
    "town_kana": "ミナトマチ",
    "street": "２丁目１番５７号",
    "office_name": "株式会社　産業経済新聞社",
    "office_name_kana": "カブシキガイシヤ サンギヨウケイザイシンブンシヤ"
  },
  "8663": {
    "postcode": "5568663",
    "prefecture": "大阪府",
    "prefecture_kana": "オオサカフ",
    "prefecture_code": 27,
    "city": "大阪市浪速区",
    "city_kana": "オオサカシナニワク",
    "town": "湊町",
    "town_kana": "ミナトマチ",
    "street": "２丁目１番５７号",
    "office_name": "サンケイスポーツ",
    "office_name_kana": "サンケイスポ-ツ"
  },
  "8664": {
    "postcode": "5568664",
    "prefecture": "大阪府",
    "prefecture_kana": "オオサカフ",
    "prefecture_code": 27,
    "city": "大阪市浪速区",
    "city_kana": "オオサカシナニワク",
    "town": "湊町",
    "town_kana": "ミナトマチ",
    "street": "２丁目１番５７号",
    "office_name": "夕刊フジ",
    "office_name_kana": "ユウカンフジ"
  },
  "8665": {
    "postcode": "5568665",
    "prefecture": "大阪府",
    "prefecture_kana": "オオサカフ",
    "prefecture_code": 27,
    "city": "大阪市浪速区",
    "city_kana": "オオサカシナニワク",
    "town": "湊町",
    "town_kana": "ミナトマチ",
    "street": "２丁目１番５７号",
    "office_name": "サンケイチケットセンター",
    "office_name_kana": "サンケイチケツトセンタ-"
  },
  "8666": {
    "postcode": "5568666",
    "prefecture": "大阪府",
    "prefecture_kana": "オオサカフ",
    "prefecture_code": 27,
    "city": "大阪市浪速区",
    "city_kana": "オオサカシナニワク",
    "town": "湊町",
    "town_kana": "ミナトマチ",
    "street": "２−１−５７",
    "office_name": "産經新聞開発　株式会社",
    "office_name_kana": "サンケイシンブンカイハツ カブシキカイシヤ"
  },
  "8670": {
    "postcode": "5568670",
    "prefecture": "大阪府",
    "prefecture_kana": "オオサカフ",
    "prefecture_code": 27,
    "city": "大阪市浪速区",
    "city_kana": "オオサカシナニワク",
    "town": "湊町",
    "town_kana": "ミナトマチ",
    "street": "１−４−１大阪シティエアターミナルビル５階",
    "office_name": "大阪市　なんば市税事務所",
    "office_name_kana": "オオサカシ ナンバシゼイジムシヨ"
  }
}