{
  "0000": {
    "postcode": "5570000",
    "prefecture": "大阪府",
    "prefecture_kana": "オオサカフ",
    "prefecture_code": 27,
    "city": "大阪市西成区",
    "city_kana": "オオサカシニシナリク",
    "town": "",
    "town_kana": "",
    "street": null,
    "office_name": null,
    "office_name_kana": null
  },
  "0001": {
    "postcode": "5570001",
    "prefecture": "大阪府",
    "prefecture_kana": "オオサカフ",
    "prefecture_code": 27,
    "city": "大阪市西成区",
    "city_kana": "オオサカシニシナリク",
    "town": "山王",
    "town_kana": "サンノウ",
    "street": null,
    "office_name": null,
    "office_name_kana": null
  },
  "0002": {
    "postcode": "5570002",
    "prefecture": "大阪府",
    "prefecture_kana": "オオサカフ",
    "prefecture_code": 27,
    "city": "大阪市西成区",
    "city_kana": "オオサカシニシナリク",
    "town": "太子",
    "town_kana": "タイシ",
    "street": null,
    "office_name": null,
    "office_name_kana": null
  },
  "0003": {
    "postcode": "5570003",
    "prefecture": "大阪府",
    "prefecture_kana": "オオサカフ",
    "prefecture_code": 27,
    "city": "大阪市西成区",
    "city_kana": "オオサカシニシナリク",
    "town": "天下茶屋北",
    "town_kana": "テンガチャヤキタ",
    "street": null,
    "office_name": null,
    "office_name_kana": null
  },
  "0004": {
    "postcode": "5570004",
    "prefecture": "大阪府",
    "prefecture_kana": "オオサカフ",
    "prefecture_code": 27,
    "city": "大阪市西成区",
    "city_kana": "オオサカシニシナリク",
    "town": "萩之茶屋",
    "town_kana": "ハギノチャヤ",
    "street": null,
    "office_name": null,
    "office_name_kana": null
  },
  "0011": {
    "postcode": "5570011",
    "prefecture": "大阪府",
    "prefecture_kana": "オオサカフ",
    "prefecture_code": 27,
    "city": "大阪市西成区",
    "city_kana": "オオサカシニシナリク",
    "town": "天下茶屋東",
    "town_kana": "テンガチャヤヒガシ",
    "street": null,
    "office_name": null,
    "office_name_kana": null
  },
  "0012": {
    "postcode": "5570012",
    "prefecture": "大阪府",
    "prefecture_kana": "オオサカフ",
    "prefecture_code": 27,
    "city": "大阪市西成区",
    "city_kana": "オオサカシニシナリク",
    "town": "聖天下",
    "town_kana": "ショウテンシタ",
    "street": null,
    "office_name": null,
    "office_name_kana": null
  },
  "0013": {
    "postcode": "5570013",
    "prefecture": "大阪府",
    "prefecture_kana": "オオサカフ",
    "prefecture_code": 27,
    "city": "大阪市西成区",
    "city_kana": "オオサカシニシナリク",
    "town": "天神ノ森",
    "town_kana": "テンジンノモリ",
    "street": null,
    "office_name": null,
    "office_name_kana": null
  },
  "0014": {
    "postcode": "5570014",
    "prefecture": "大阪府",
    "prefecture_kana": "オオサカフ",
    "prefecture_code": 27,
    "city": "大阪市西成区",
    "city_kana": "オオサカシニシナリク",
    "town": "天下茶屋",
    "town_kana": "テンガチャヤ",
    "street": null,
    "office_name": null,
    "office_name_kana": null
  },
  "0015": {
    "postcode": "5570015",
    "prefecture": "大阪府",
    "prefecture_kana": "オオサカフ",
    "prefecture_code": 27,
    "city": "大阪市西成区",
    "city_kana": "オオサカシニシナリク",
    "town": "花園南",
    "town_kana": "ハナゾノミナミ",
    "street": null,
    "office_name": null,
    "office_name_kana": null
  },
  "0016": {
    "postcode": "5570016",
    "prefecture": "大阪府",
    "prefecture_kana": "オオサカフ",
    "prefecture_code": 27,
    "city": "大阪市西成区",
    "city_kana": "オオサカシニシナリク",
    "town": "花園北",
    "town_kana": "ハナゾノキタ",
    "street": null,
    "office_name": null,
    "office_name_kana": null
  },
  "0021": {
    "postcode": "5570021",
    "prefecture": "大阪府",
    "prefecture_kana": "オオサカフ",
    "prefecture_code": 27,
    "city": "大阪市西成区",
    "city_kana": "オオサカシニシナリク",
    "town": "北開",
    "town_kana": "キタビラキ",
    "street": null,
    "office_name": null,
    "office_name_kana": null
  },
  "0022": {
    "postcode": "5570022",
    "prefecture": "大阪府",
    "prefecture_kana": "オオサカフ",
    "prefecture_code": 27,
    "city": "大阪市西成区",
    "city_kana": "オオサカシニシナリク",
    "town": "中開",
    "town_kana": "ナカビラキ",
    "street": null,
    "office_name": null,
    "office_name_kana": null
  },
  "0023": {
    "postcode": "5570023",
    "prefecture": "大阪府",
    "prefecture_kana": "オオサカフ",
    "prefecture_code": 27,
    "city": "大阪市西成区",
    "city_kana": "オオサカシニシナリク",
    "town": "南開",
    "town_kana": "ミナミビラキ",
    "street": null,
    "office_name": null,
    "office_name_kana": null
  },
  "0024": {
    "postcode": "5570024",
    "prefecture": "大阪府",
    "prefecture_kana": "オオサカフ",
    "prefecture_code": 27,
    "city": "大阪市西成区",
    "city_kana": "オオサカシニシナリク",
    "town": "出城",
    "town_kana": "デシロ",
    "street": null,
    "office_name": null,
    "office_name_kana": null
  },
  "0025": {
    "postcode": "5570025",
    "prefecture": "大阪府",
    "prefecture_kana": "オオサカフ",
    "prefecture_code": 27,
    "city": "大阪市西成区",
    "city_kana": "オオサカシニシナリク",
    "town": "長橋",
    "town_kana": "ナガハシ",
    "street": null,
    "office_name": null,
    "office_name_kana": null
  },
  "0031": {
    "postcode": "5570031",
    "prefecture": "大阪府",
    "prefecture_kana": "オオサカフ",
    "prefecture_code": 27,
    "city": "大阪市西成区",
    "city_kana": "オオサカシニシナリク",
    "town": "鶴見橋",
    "town_kana": "ツルミバシ",
    "street": null,
    "office_name": null,
    "office_name_kana": null
  },
  "0032": {
    "postcode": "5570032",
    "prefecture": "大阪府",
    "prefecture_kana": "オオサカフ",
    "prefecture_code": 27,
    "city": "大阪市西成区",
    "city_kana": "オオサカシニシナリク",
    "town": "旭",
    "town_kana": "アサヒ",
    "street": null,
    "office_name": null,
    "office_name_kana": null
  },
  "0033": {
    "postcode": "5570033",
    "prefecture": "大阪府",
    "prefecture_kana": "オオサカフ",
    "prefecture_code": 27,
    "city": "大阪市西成区",
    "city_kana": "オオサカシニシナリク",
    "town": "梅南",
    "town_kana": "バイナン",
    "street": null,
    "office_name": null,
    "office_name_kana": null
  },
  "0034": {
    "postcode": "5570034",
    "prefecture": "大阪府",
    "prefecture_kana": "オオサカフ",
    "prefecture_code": 27,
    "city": "大阪市西成区",
    "city_kana": "オオサカシニシナリク",
    "town": "松",
    "town_kana": "マツ",
    "street": null,
    "office_name": null,
    "office_name_kana": null
  },
  "0041": {
    "postcode": "5570041",
    "prefecture": "大阪府",
    "prefecture_kana": "オオサカフ",
    "prefecture_code": 27,
    "city": "大阪市西成区",
    "city_kana": "オオサカシニシナリク",
    "town": "岸里",
    "town_kana": "キシノサト",
    "street": null,
    "office_name": null,
    "office_name_kana": null
  },
  "0042": {
    "postcode": "5570042",
    "prefecture": "大阪府",
    "prefecture_kana": "オオサカフ",
    "prefecture_code": 27,
    "city": "大阪市西成区",
    "city_kana": "オオサカシニシナリク",
    "town": "岸里東",
    "town_kana": "キシノサトヒガシ",
    "street": null,
    "office_name": null,
    "office_name_kana": null
  },
  "0043": {
    "postcode": "5570043",
    "prefecture": "大阪府",
    "prefecture_kana": "オオサカフ",
    "prefecture_code": 27,
    "city": "大阪市西成区",
    "city_kana": "オオサカシニシナリク",
    "town": "玉出東",
    "town_kana": "タマデヒガシ",
    "street": null,
    "office_name": null,
    "office_name_kana": null
  },
  "0044": {
    "postcode": "5570044",
    "prefecture": "大阪府",
    "prefecture_kana": "オオサカフ",
    "prefecture_code": 27,
    "city": "大阪市西成区",
    "city_kana": "オオサカシニシナリク",
    "town": "玉出中",
    "town_kana": "タマデナカ",
    "street": null,
    "office_name": null,
    "office_name_kana": null
  },
  "0045": {
    "postcode": "5570045",
    "prefecture": "大阪府",
    "prefecture_kana": "オオサカフ",
    "prefecture_code": 27,
    "city": "大阪市西成区",
    "city_kana": "オオサカシニシナリク",
    "town": "玉出西",
    "town_kana": "タマデニシ",
    "street": null,
    "office_name": null,
    "office_name_kana": null
  },
  "0051": {
    "postcode": "5570051",
    "prefecture": "大阪府",
    "prefecture_kana": "オオサカフ",
    "prefecture_code": 27,
    "city": "大阪市西成区",
    "city_kana": "オオサカシニシナリク",
    "town": "橘",
    "town_kana": "タチバナ",
    "street": null,
    "office_name": null,
    "office_name_kana": null
  },
  "0052": {
    "postcode": "5570052",
    "prefecture": "大阪府",
    "prefecture_kana": "オオサカフ",
    "prefecture_code": 27,
    "city": "大阪市西成区",
    "city_kana": "オオサカシニシナリク",
    "town": "潮路",
    "town_kana": "シオジ",
    "street": null,
    "office_name": null,
    "office_name_kana": null
  },
  "0053": {
    "postcode": "5570053",
    "prefecture": "大阪府",
    "prefecture_kana": "オオサカフ",
    "prefecture_code": 27,
    "city": "大阪市西成区",
    "city_kana": "オオサカシニシナリク",
    "town": "千本北",
    "town_kana": "センボンキタ",
    "street": null,
    "office_name": null,
    "office_name_kana": null
  },
  "0054": {
    "postcode": "5570054",
    "prefecture": "大阪府",
    "prefecture_kana": "オオサカフ",
    "prefecture_code": 27,
    "city": "大阪市西成区",
    "city_kana": "オオサカシニシナリク",
    "town": "千本中",
    "town_kana": "センボンナカ",
    "street": null,
    "office_name": null,
    "office_name_kana": null
  },
  "0055": {
    "postcode": "5570055",
    "prefecture": "大阪府",
    "prefecture_kana": "オオサカフ",
    "prefecture_code": 27,
    "city": "大阪市西成区",
    "city_kana": "オオサカシニシナリク",
    "town": "千本南",
    "town_kana": "センボンミナミ",
    "street": null,
    "office_name": null,
    "office_name_kana": null
  },
  "0061": {
    "postcode": "5570061",
    "prefecture": "大阪府",
    "prefecture_kana": "オオサカフ",
    "prefecture_code": 27,
    "city": "大阪市西成区",
    "city_kana": "オオサカシニシナリク",
    "town": "北津守",
    "town_kana": "キタツモリ",
    "street": null,
    "office_name": null,
    "office_name_kana": null
  },
  "0062": {
    "postcode": "5570062",
    "prefecture": "大阪府",
    "prefecture_kana": "オオサカフ",
    "prefecture_code": 27,
    "city": "大阪市西成区",
    "city_kana": "オオサカシニシナリク",
    "town": "津守",
    "town_kana": "ツモリ",
    "street": null,
    "office_name": null,
    "office_name_kana": null
  },
  "0063": {
    "postcode": "5570063",
    "prefecture": "大阪府",
    "prefecture_kana": "オオサカフ",
    "prefecture_code": 27,
    "city": "大阪市西成区",
    "city_kana": "オオサカシニシナリク",
    "town": "南津守",
    "town_kana": "ミナミツモリ",
    "street": null,
    "office_name": null,
    "office_name_kana": null
  },
  "8501": {
    "postcode": "5578501",
    "prefecture": "大阪府",
    "prefecture_kana": "オオサカフ",
    "prefecture_code": 27,
    "city": "大阪市西成区",
    "city_kana": "オオサカシニシナリク",
    "town": "岸里",
    "town_kana": "キシノサト",
    "street": "１丁目５番２０号",
    "office_name": "大阪市西成区役所",
    "office_name_kana": "オオサカシニシナリクヤクシヨ"
  }
}