{
  "0801": {
    "postcode": "5610801",
    "prefecture": "大阪府",
    "prefecture_kana": "オオサカフ",
    "prefecture_code": 27,
    "city": "豊中市",
    "city_kana": "トヨナカシ",
    "town": "曽根西町",
    "town_kana": "ソネニシマチ",
    "street": null,
    "office_name": null,
    "office_name_kana": null
  },
  "0802": {
    "postcode": "5610802",
    "prefecture": "大阪府",
    "prefecture_kana": "オオサカフ",
    "prefecture_code": 27,
    "city": "豊中市",
    "city_kana": "トヨナカシ",
    "town": "曽根東町",
    "town_kana": "ソネヒガシノチョウ",
    "street": null,
    "office_name": null,
    "office_name_kana": null
  },
  "0803": {
    "postcode": "5610803",
    "prefecture": "大阪府",
    "prefecture_kana": "オオサカフ",
    "prefecture_code": 27,
    "city": "豊中市",
    "city_kana": "トヨナカシ",
    "town": "城山町",
    "town_kana": "シロヤマチョウ",
    "street": null,
    "office_name": null,
    "office_name_kana": null
  },
  "0804": {
    "postcode": "5610804",
    "prefecture": "大阪府",
    "prefecture_kana": "オオサカフ",
    "prefecture_code": 27,
    "city": "豊中市",
    "city_kana": "トヨナカシ",
    "town": "曽根南町",
    "town_kana": "ソネミナミマチ",
    "street": null,
    "office_name": null,
    "office_name_kana": null
  },
  "0805": {
    "postcode": "5610805",
    "prefecture": "大阪府",
    "prefecture_kana": "オオサカフ",
    "prefecture_code": 27,
    "city": "豊中市",
    "city_kana": "トヨナカシ",
    "town": "原田南",
    "town_kana": "ハラダミナミ",
    "street": null,
    "office_name": null,
    "office_name_kana": null
  },
  "0806": {
    "postcode": "5610806",
    "prefecture": "大阪府",
    "prefecture_kana": "オオサカフ",
    "prefecture_code": 27,
    "city": "豊中市",
    "city_kana": "トヨナカシ",
    "town": "原田西町",
    "town_kana": "ハラダニシマチ",
    "street": null,
    "office_name": null,
    "office_name_kana": null
  },
  "0807": {
    "postcode": "5610807",
    "prefecture": "大阪府",
    "prefecture_kana": "オオサカフ",
    "prefecture_code": 27,
    "city": "豊中市",
    "city_kana": "トヨナカシ",
    "town": "原田中",
    "town_kana": "ハラダナカ",
    "street": null,
    "office_name": null,
    "office_name_kana": null
  },
  "0808": {
    "postcode": "5610808",
    "prefecture": "大阪府",
    "prefecture_kana": "オオサカフ",
    "prefecture_code": 27,
    "city": "豊中市",
    "city_kana": "トヨナカシ",
    "town": "原田元町",
    "town_kana": "ハラダモトマチ",
    "street": null,
    "office_name": null,
    "office_name_kana": null
  },
  "0811": {
    "postcode": "5610811",
    "prefecture": "大阪府",
    "prefecture_kana": "オオサカフ",
    "prefecture_code": 27,
    "city": "豊中市",
    "city_kana": "トヨナカシ",
    "town": "若竹町",
    "town_kana": "ワカタケチョウ",
    "street": null,
    "office_name": null,
    "office_name_kana": null
  },
  "0812": {
    "postcode": "5610812",
    "prefecture": "大阪府",
    "prefecture_kana": "オオサカフ",
    "prefecture_code": 27,
    "city": "豊中市",
    "city_kana": "トヨナカシ",
    "town": "北条町",
    "town_kana": "キタジョウチョウ",
    "street": null,
    "office_name": null,
    "office_name_kana": null
  },
  "0813": {
    "postcode": "5610813",
    "prefecture": "大阪府",
    "prefecture_kana": "オオサカフ",
    "prefecture_code": 27,
    "city": "豊中市",
    "city_kana": "トヨナカシ",
    "town": "小曽根",
    "town_kana": "オゾネ",
    "street": null,
    "office_name": null,
    "office_name_kana": null
  },
  "0814": {
    "postcode": "5610814",
    "prefecture": "大阪府",
    "prefecture_kana": "オオサカフ",
    "prefecture_code": 27,
    "city": "豊中市",
    "city_kana": "トヨナカシ",
    "town": "豊南町東",
    "town_kana": "ホウナンチョウヒガシ",
    "street": null,
    "office_name": null,
    "office_name_kana": null
  },
  "0815": {
    "postcode": "5610815",
    "prefecture": "大阪府",
    "prefecture_kana": "オオサカフ",
    "prefecture_code": 27,
    "city": "豊中市",
    "city_kana": "トヨナカシ",
    "town": "豊南町南",
    "town_kana": "ホウナンチョウミナミ",
    "street": null,
    "office_name": null,
    "office_name_kana": null
  },
  "0816": {
    "postcode": "5610816",
    "prefecture": "大阪府",
    "prefecture_kana": "オオサカフ",
    "prefecture_code": 27,
    "city": "豊中市",
    "city_kana": "トヨナカシ",
    "town": "豊南町西",
    "town_kana": "ホウナンチョウニシ",
    "street": null,
    "office_name": null,
    "office_name_kana": null
  },
  "0817": {
    "postcode": "5610817",
    "prefecture": "大阪府",
    "prefecture_kana": "オオサカフ",
    "prefecture_code": 27,
    "city": "豊中市",
    "city_kana": "トヨナカシ",
    "town": "浜",
    "town_kana": "ハマ",
    "street": null,
    "office_name": null,
    "office_name_kana": null
  },
  "0821": {
    "postcode": "5610821",
    "prefecture": "大阪府",
    "prefecture_kana": "オオサカフ",
    "prefecture_code": 27,
    "city": "豊中市",
    "city_kana": "トヨナカシ",
    "town": "日出町",
    "town_kana": "ヒノデチョウ",
    "street": null,
    "office_name": null,
    "office_name_kana": null
  },
  "0822": {
    "postcode": "5610822",
    "prefecture": "大阪府",
    "prefecture_kana": "オオサカフ",
    "prefecture_code": 27,
    "city": "豊中市",
    "city_kana": "トヨナカシ",
    "town": "三国",
    "town_kana": "ミクニ",
    "street": null,
    "office_name": null,
    "office_name_kana": null
  },
  "0823": {
    "postcode": "5610823",
    "prefecture": "大阪府",
    "prefecture_kana": "オオサカフ",
    "prefecture_code": 27,
    "city": "豊中市",
    "city_kana": "トヨナカシ",
    "town": "神州町",
    "town_kana": "カミスチョウ",
    "street": null,
    "office_name": null,
    "office_name_kana": null
  },
  "0824": {
    "postcode": "5610824",
    "prefecture": "大阪府",
    "prefecture_kana": "オオサカフ",
    "prefecture_code": 27,
    "city": "豊中市",
    "city_kana": "トヨナカシ",
    "town": "大島町",
    "town_kana": "オオシマチョウ",
    "street": null,
    "office_name": null,
    "office_name_kana": null
  },
  "0825": {
    "postcode": "5610825",
    "prefecture": "大阪府",
    "prefecture_kana": "オオサカフ",
    "prefecture_code": 27,
    "city": "豊中市",
    "city_kana": "トヨナカシ",
    "town": "二葉町",
    "town_kana": "フタバチョウ",
    "street": null,
    "office_name": null,
    "office_name_kana": null
  },
  "0826": {
    "postcode": "5610826",
    "prefecture": "大阪府",
    "prefecture_kana": "オオサカフ",
    "prefecture_code": 27,
    "city": "豊中市",
    "city_kana": "トヨナカシ",
    "town": "島江町",
    "town_kana": "シマエチョウ",
    "street": null,
    "office_name": null,
    "office_name_kana": null
  },
  "0827": {
    "postcode": "5610827",
    "prefecture": "大阪府",
    "prefecture_kana": "オオサカフ",
    "prefecture_code": 27,
    "city": "豊中市",
    "city_kana": "トヨナカシ",
    "town": "大黒町",
    "town_kana": "ダイコクチョウ",
    "street": null,
    "office_name": null,
    "office_name_kana": null
  },
  "0828": {
    "postcode": "5610828",
    "prefecture": "大阪府",
    "prefecture_kana": "オオサカフ",
    "prefecture_code": 27,
    "city": "豊中市",
    "city_kana": "トヨナカシ",
    "town": "三和町",
    "town_kana": "サンワチョウ",
    "street": null,
    "office_name": null,
    "office_name_kana": null
  },
  "0829": {
    "postcode": "5610829",
    "prefecture": "大阪府",
    "prefecture_kana": "オオサカフ",
    "prefecture_code": 27,
    "city": "豊中市",
    "city_kana": "トヨナカシ",
    "town": "千成町",
    "town_kana": "センナリチョウ",
    "street": null,
    "office_name": null,
    "office_name_kana": null
  },
  "0831": {
    "postcode": "5610831",
    "prefecture": "大阪府",
    "prefecture_kana": "オオサカフ",
    "prefecture_code": 27,
    "city": "豊中市",
    "city_kana": "トヨナカシ",
    "town": "庄内東町",
    "town_kana": "ショウナイヒガシマチ",
    "street": null,
    "office_name": null,
    "office_name_kana": null
  },
  "0832": {
    "postcode": "5610832",
    "prefecture": "大阪府",
    "prefecture_kana": "オオサカフ",
    "prefecture_code": 27,
    "city": "豊中市",
    "city_kana": "トヨナカシ",
    "town": "庄内西町",
    "town_kana": "ショウナイニシマチ",
    "street": null,
    "office_name": null,
    "office_name_kana": null
  },
  "0833": {
    "postcode": "5610833",
    "prefecture": "大阪府",
    "prefecture_kana": "オオサカフ",
    "prefecture_code": 27,
    "city": "豊中市",
    "city_kana": "トヨナカシ",
    "town": "庄内幸町",
    "town_kana": "ショウナイサイワイマチ",
    "street": null,
    "office_name": null,
    "office_name_kana": null
  },
  "0834": {
    "postcode": "5610834",
    "prefecture": "大阪府",
    "prefecture_kana": "オオサカフ",
    "prefecture_code": 27,
    "city": "豊中市",
    "city_kana": "トヨナカシ",
    "town": "庄内栄町",
    "town_kana": "ショウナイサカエマチ",
    "street": null,
    "office_name": null,
    "office_name_kana": null
  },
  "0835": {
    "postcode": "5610835",
    "prefecture": "大阪府",
    "prefecture_kana": "オオサカフ",
    "prefecture_code": 27,
    "city": "豊中市",
    "city_kana": "トヨナカシ",
    "town": "庄本町",
    "town_kana": "ショウモトチョウ",
    "street": null,
    "office_name": null,
    "office_name_kana": null
  },
  "0836": {
    "postcode": "5610836",
    "prefecture": "大阪府",
    "prefecture_kana": "オオサカフ",
    "prefecture_code": 27,
    "city": "豊中市",
    "city_kana": "トヨナカシ",
    "town": "庄内宝町",
    "town_kana": "ショウナイタカラマチ",
    "street": null,
    "office_name": null,
    "office_name_kana": null
  },
  "0841": {
    "postcode": "5610841",
    "prefecture": "大阪府",
    "prefecture_kana": "オオサカフ",
    "prefecture_code": 27,
    "city": "豊中市",
    "city_kana": "トヨナカシ",
    "town": "名神口",
    "town_kana": "メイシングチ",
    "street": null,
    "office_name": null,
    "office_name_kana": null
  },
  "0842": {
    "postcode": "5610842",
    "prefecture": "大阪府",
    "prefecture_kana": "オオサカフ",
    "prefecture_code": 27,
    "city": "豊中市",
    "city_kana": "トヨナカシ",
    "town": "今在家町",
    "town_kana": "イマザイケチョウ",
    "street": null,
    "office_name": null,
    "office_name_kana": null
  },
  "0843": {
    "postcode": "5610843",
    "prefecture": "大阪府",
    "prefecture_kana": "オオサカフ",
    "prefecture_code": 27,
    "city": "豊中市",
    "city_kana": "トヨナカシ",
    "town": "上津島",
    "town_kana": "コウヅシマ",
    "street": null,
    "office_name": null,
    "office_name_kana": null
  },
  "0844": {
    "postcode": "5610844",
    "prefecture": "大阪府",
    "prefecture_kana": "オオサカフ",
    "prefecture_code": 27,
    "city": "豊中市",
    "city_kana": "トヨナカシ",
    "town": "利倉西",
    "town_kana": "トクラニシ",
    "street": null,
    "office_name": null,
    "office_name_kana": null
  },
  "0845": {
    "postcode": "5610845",
    "prefecture": "大阪府",
    "prefecture_kana": "オオサカフ",
    "prefecture_code": 27,
    "city": "豊中市",
    "city_kana": "トヨナカシ",
    "town": "利倉",
    "town_kana": "トクラ",
    "street": null,
    "office_name": null,
    "office_name_kana": null
  },
  "0846": {
    "postcode": "5610846",
    "prefecture": "大阪府",
    "prefecture_kana": "オオサカフ",
    "prefecture_code": 27,
    "city": "豊中市",
    "city_kana": "トヨナカシ",
    "town": "利倉東",
    "town_kana": "トクラヒガシ",
    "street": null,
    "office_name": null,
    "office_name_kana": null
  },
  "0851": {
    "postcode": "5610851",
    "prefecture": "大阪府",
    "prefecture_kana": "オオサカフ",
    "prefecture_code": 27,
    "city": "豊中市",
    "city_kana": "トヨナカシ",
    "town": "服部元町",
    "town_kana": "ハットリモトマチ",
    "street": null,
    "office_name": null,
    "office_name_kana": null
  },
  "0852": {
    "postcode": "5610852",
    "prefecture": "大阪府",
    "prefecture_kana": "オオサカフ",
    "prefecture_code": 27,
    "city": "豊中市",
    "city_kana": "トヨナカシ",
    "town": "服部本町",
    "town_kana": "ハットリホンマチ",
    "street": null,
    "office_name": null,
    "office_name_kana": null
  },
  "0853": {
    "postcode": "5610853",
    "prefecture": "大阪府",
    "prefecture_kana": "オオサカフ",
    "prefecture_code": 27,
    "city": "豊中市",
    "city_kana": "トヨナカシ",
    "town": "服部南町",
    "town_kana": "ハットリミナミマチ",
    "street": null,
    "office_name": null,
    "office_name_kana": null
  },
  "0854": {
    "postcode": "5610854",
    "prefecture": "大阪府",
    "prefecture_kana": "オオサカフ",
    "prefecture_code": 27,
    "city": "豊中市",
    "city_kana": "トヨナカシ",
    "town": "稲津町",
    "town_kana": "イナヅチョウ",
    "street": null,
    "office_name": null,
    "office_name_kana": null
  },
  "0855": {
    "postcode": "5610855",
    "prefecture": "大阪府",
    "prefecture_kana": "オオサカフ",
    "prefecture_code": 27,
    "city": "豊中市",
    "city_kana": "トヨナカシ",
    "town": "野田町",
    "town_kana": "ノダチョウ",
    "street": null,
    "office_name": null,
    "office_name_kana": null
  },
  "0856": {
    "postcode": "5610856",
    "prefecture": "大阪府",
    "prefecture_kana": "オオサカフ",
    "prefecture_code": 27,
    "city": "豊中市",
    "city_kana": "トヨナカシ",
    "town": "穂積",
    "town_kana": "ホヅミ",
    "street": null,
    "office_name": null,
    "office_name_kana": null
  },
  "0857": {
    "postcode": "5610857",
    "prefecture": "大阪府",
    "prefecture_kana": "オオサカフ",
    "prefecture_code": 27,
    "city": "豊中市",
    "city_kana": "トヨナカシ",
    "town": "服部寿町",
    "town_kana": "ハットリコトブキチョウ",
    "street": null,
    "office_name": null,
    "office_name_kana": null
  },
  "0858": {
    "postcode": "5610858",
    "prefecture": "大阪府",
    "prefecture_kana": "オオサカフ",
    "prefecture_code": 27,
    "city": "豊中市",
    "city_kana": "トヨナカシ",
    "town": "服部西町",
    "town_kana": "ハットリニシマチ",
    "street": null,
    "office_name": null,
    "office_name_kana": null
  },
  "0859": {
    "postcode": "5610859",
    "prefecture": "大阪府",
    "prefecture_kana": "オオサカフ",
    "prefecture_code": 27,
    "city": "豊中市",
    "city_kana": "トヨナカシ",
    "town": "服部豊町",
    "town_kana": "ハットリユタカマチ",
    "street": null,
    "office_name": null,
    "office_name_kana": null
  },
  "0861": {
    "postcode": "5610861",
    "prefecture": "大阪府",
    "prefecture_kana": "オオサカフ",
    "prefecture_code": 27,
    "city": "豊中市",
    "city_kana": "トヨナカシ",
    "town": "東泉丘",
    "town_kana": "ヒガシイズミガオカ",
    "street": null,
    "office_name": null,
    "office_name_kana": null
  },
  "0862": {
    "postcode": "5610862",
    "prefecture": "大阪府",
    "prefecture_kana": "オオサカフ",
    "prefecture_code": 27,
    "city": "豊中市",
    "city_kana": "トヨナカシ",
    "town": "西泉丘",
    "town_kana": "ニシイズミガオカ",
    "street": null,
    "office_name": null,
    "office_name_kana": null
  },
  "0863": {
    "postcode": "5610863",
    "prefecture": "大阪府",
    "prefecture_kana": "オオサカフ",
    "prefecture_code": 27,
    "city": "豊中市",
    "city_kana": "トヨナカシ",
    "town": "広田町",
    "town_kana": "ヒロタチョウ",
    "street": null,
    "office_name": null,
    "office_name_kana": null
  },
  "0864": {
    "postcode": "5610864",
    "prefecture": "大阪府",
    "prefecture_kana": "オオサカフ",
    "prefecture_code": 27,
    "city": "豊中市",
    "city_kana": "トヨナカシ",
    "town": "夕日丘",
    "town_kana": "ユウヒガオカ",
    "street": null,
    "office_name": null,
    "office_name_kana": null
  },
  "0865": {
    "postcode": "5610865",
    "prefecture": "大阪府",
    "prefecture_kana": "オオサカフ",
    "prefecture_code": 27,
    "city": "豊中市",
    "city_kana": "トヨナカシ",
    "town": "旭丘",
    "town_kana": "アサヒガオカ",
    "street": null,
    "office_name": null,
    "office_name_kana": null
  },
  "0871": {
    "postcode": "5610871",
    "prefecture": "大阪府",
    "prefecture_kana": "オオサカフ",
    "prefecture_code": 27,
    "city": "豊中市",
    "city_kana": "トヨナカシ",
    "town": "東寺内町",
    "town_kana": "ヒガシテラウチチョウ",
    "street": null,
    "office_name": null,
    "office_name_kana": null
  },
  "0872": {
    "postcode": "5610872",
    "prefecture": "大阪府",
    "prefecture_kana": "オオサカフ",
    "prefecture_code": 27,
    "city": "豊中市",
    "city_kana": "トヨナカシ",
    "town": "寺内",
    "town_kana": "テラウチ",
    "street": null,
    "office_name": null,
    "office_name_kana": null
  },
  "0873": {
    "postcode": "5610873",
    "prefecture": "大阪府",
    "prefecture_kana": "オオサカフ",
    "prefecture_code": 27,
    "city": "豊中市",
    "city_kana": "トヨナカシ",
    "town": "服部緑地",
    "town_kana": "ハットリリョクチ",
    "street": null,
    "office_name": null,
    "office_name_kana": null
  },
  "0874": {
    "postcode": "5610874",
    "prefecture": "大阪府",
    "prefecture_kana": "オオサカフ",
    "prefecture_code": 27,
    "city": "豊中市",
    "city_kana": "トヨナカシ",
    "town": "長興寺南",
    "town_kana": "チョウコウジミナミ",
    "street": null,
    "office_name": null,
    "office_name_kana": null
  },
  "0875": {
    "postcode": "5610875",
    "prefecture": "大阪府",
    "prefecture_kana": "オオサカフ",
    "prefecture_code": 27,
    "city": "豊中市",
    "city_kana": "トヨナカシ",
    "town": "長興寺北",
    "town_kana": "チョウコウジキタ",
    "street": null,
    "office_name": null,
    "office_name_kana": null
  },
  "0881": {
    "postcode": "5610881",
    "prefecture": "大阪府",
    "prefecture_kana": "オオサカフ",
    "prefecture_code": 27,
    "city": "豊中市",
    "city_kana": "トヨナカシ",
    "town": "中桜塚",
    "town_kana": "ナカサクラヅカ",
    "street": null,
    "office_name": null,
    "office_name_kana": null
  },
  "0882": {
    "postcode": "5610882",
    "prefecture": "大阪府",
    "prefecture_kana": "オオサカフ",
    "prefecture_code": 27,
    "city": "豊中市",
    "city_kana": "トヨナカシ",
    "town": "南桜塚",
    "town_kana": "ミナミサクラヅカ",
    "street": null,
    "office_name": null,
    "office_name_kana": null
  },
  "0883": {
    "postcode": "5610883",
    "prefecture": "大阪府",
    "prefecture_kana": "オオサカフ",
    "prefecture_code": 27,
    "city": "豊中市",
    "city_kana": "トヨナカシ",
    "town": "岡町南",
    "town_kana": "オカマチミナミ",
    "street": null,
    "office_name": null,
    "office_name_kana": null
  },
  "0884": {
    "postcode": "5610884",
    "prefecture": "大阪府",
    "prefecture_kana": "オオサカフ",
    "prefecture_code": 27,
    "city": "豊中市",
    "city_kana": "トヨナカシ",
    "town": "岡町北",
    "town_kana": "オカマチキタ",
    "street": null,
    "office_name": null,
    "office_name_kana": null
  },
  "0885": {
    "postcode": "5610885",
    "prefecture": "大阪府",
    "prefecture_kana": "オオサカフ",
    "prefecture_code": 27,
    "city": "豊中市",
    "city_kana": "トヨナカシ",
    "town": "岡町",
    "town_kana": "オカマチ",
    "street": null,
    "office_name": null,
    "office_name_kana": null
  },
  "0891": {
    "postcode": "5610891",
    "prefecture": "大阪府",
    "prefecture_kana": "オオサカフ",
    "prefecture_code": 27,
    "city": "豊中市",
    "city_kana": "トヨナカシ",
    "town": "走井",
    "town_kana": "ハシリイ",
    "street": null,
    "office_name": null,
    "office_name_kana": null
  },
  "0892": {
    "postcode": "5610892",
    "prefecture": "大阪府",
    "prefecture_kana": "オオサカフ",
    "prefecture_code": 27,
    "city": "豊中市",
    "city_kana": "トヨナカシ",
    "town": "山ノ上町",
    "town_kana": "ヤマノウエチョウ",
    "street": null,
    "office_name": null,
    "office_name_kana": null
  },
  "0893": {
    "postcode": "5610893",
    "prefecture": "大阪府",
    "prefecture_kana": "オオサカフ",
    "prefecture_code": 27,
    "city": "豊中市",
    "city_kana": "トヨナカシ",
    "town": "宝山町",
    "town_kana": "ホウザンチョウ",
    "street": null,
    "office_name": null,
    "office_name_kana": null
  },
  "0894": {
    "postcode": "5610894",
    "prefecture": "大阪府",
    "prefecture_kana": "オオサカフ",
    "prefecture_code": 27,
    "city": "豊中市",
    "city_kana": "トヨナカシ",
    "town": "勝部",
    "town_kana": "カツベ",
    "street": null,
    "office_name": null,
    "office_name_kana": null
  },
  "8501": {
    "postcode": "5618501",
    "prefecture": "大阪府",
    "prefecture_kana": "オオサカフ",
    "prefecture_code": 27,
    "city": "豊中市",
    "city_kana": "トヨナカシ",
    "town": "中桜塚",
    "town_kana": "ナカサクラヅカ",
    "street": "３丁目１−１",
    "office_name": "豊中市役所",
    "office_name_kana": "トヨナカシヤクシヨ"
  },
  "8510": {
    "postcode": "5618510",
    "prefecture": "大阪府",
    "prefecture_kana": "オオサカフ",
    "prefecture_code": 27,
    "city": "豊中市",
    "city_kana": "トヨナカシ",
    "town": "寺内",
    "town_kana": "テラウチ",
    "street": "２丁目１３−３",
    "office_name": "株式会社　日本経営",
    "office_name_kana": "カブシキガイシヤ ニホンケイエイ"
  },
  "8511": {
    "postcode": "5618511",
    "prefecture": "大阪府",
    "prefecture_kana": "オオサカフ",
    "prefecture_code": 27,
    "city": "豊中市",
    "city_kana": "トヨナカシ",
    "town": "岡町北",
    "town_kana": "オカマチキタ",
    "street": "１丁目２−１７太陽生命豊中ビル２Ｆ",
    "office_name": "大阪北生活協同組合",
    "office_name_kana": "オオサカキタセイカツキヨウドウクミアイ"
  },
  "8520": {
    "postcode": "5618520",
    "prefecture": "大阪府",
    "prefecture_kana": "オオサカフ",
    "prefecture_code": 27,
    "city": "豊中市",
    "city_kana": "トヨナカシ",
    "town": "岡町",
    "town_kana": "オカマチ",
    "street": "１番１号",
    "office_name": "摂津水都信用金庫",
    "office_name_kana": "セツツスイトシンヨウキンコ"
  },
  "8530": {
    "postcode": "5618530",
    "prefecture": "大阪府",
    "prefecture_kana": "オオサカフ",
    "prefecture_code": 27,
    "city": "豊中市",
    "city_kana": "トヨナカシ",
    "town": "名神口",
    "town_kana": "メイシングチ",
    "street": "１丁目１０−１",
    "office_name": "敷島製パン　株式会社　パスコウエストカンパニー大阪豊中工場",
    "office_name_kana": "シキシマセイパン カブシキガイシヤ パスコウエストカンパニ-オオサカトヨナカコウジヨウ"
  },
  "8550": {
    "postcode": "5618550",
    "prefecture": "大阪府",
    "prefecture_kana": "オオサカフ",
    "prefecture_code": 27,
    "city": "豊中市",
    "city_kana": "トヨナカシ",
    "town": "日出町",
    "town_kana": "ヒノデチョウ",
    "street": "１丁目６−２２",
    "office_name": "株式会社　イーパック",
    "office_name_kana": "カブシキガイシヤ イ-パツク"
  },
  "8555": {
    "postcode": "5618555",
    "prefecture": "大阪府",
    "prefecture_kana": "オオサカフ",
    "prefecture_code": 27,
    "city": "豊中市",
    "city_kana": "トヨナカシ",
    "town": "庄内幸町",
    "town_kana": "ショウナイサイワイマチ",
    "street": "１丁目１−８",
    "office_name": "学校法人　大阪音楽大学",
    "office_name_kana": "ガツコウホウジン オオサカオンガクダイガク"
  },
  "8558": {
    "postcode": "5618558",
    "prefecture": "大阪府",
    "prefecture_kana": "オオサカフ",
    "prefecture_code": 27,
    "city": "豊中市",
    "city_kana": "トヨナカシ",
    "town": "千成町",
    "town_kana": "センナリチョウ",
    "street": "３丁目５−３",
    "office_name": "松尾電機　株式会社",
    "office_name_kana": "マツオデンキ カブシキガイシヤ"
  },
  "8577": {
    "postcode": "5618577",
    "prefecture": "大阪府",
    "prefecture_kana": "オオサカフ",
    "prefecture_code": 27,
    "city": "豊中市",
    "city_kana": "トヨナカシ",
    "town": "利倉東",
    "town_kana": "トクラヒガシ",
    "street": "１丁目２番１号",
    "office_name": "学校法人　大商学園　大商学園高等学校",
    "office_name_kana": "ガツコウホウジン ダイシヨウガクエン ダイシヨウガクエンコウトウガツコウ"
  }
}