{
  "0000": {
    "postcode": "5640000",
    "prefecture": "大阪府",
    "prefecture_kana": "オオサカフ",
    "prefecture_code": 27,
    "city": "吹田市",
    "city_kana": "スイタシ",
    "town": "",
    "town_kana": "",
    "street": null,
    "office_name": null,
    "office_name_kana": null
  },
  "0001": {
    "postcode": "5640001",
    "prefecture": "大阪府",
    "prefecture_kana": "オオサカフ",
    "prefecture_code": 27,
    "city": "吹田市",
    "city_kana": "スイタシ",
    "town": "岸部北",
    "town_kana": "キシベキタ",
    "street": null,
    "office_name": null,
    "office_name_kana": null
  },
  "0002": {
    "postcode": "5640002",
    "prefecture": "大阪府",
    "prefecture_kana": "オオサカフ",
    "prefecture_code": 27,
    "city": "吹田市",
    "city_kana": "スイタシ",
    "town": "岸部中",
    "town_kana": "キシベナカ",
    "street": null,
    "office_name": null,
    "office_name_kana": null
  },
  "0003": {
    "postcode": "5640003",
    "prefecture": "大阪府",
    "prefecture_kana": "オオサカフ",
    "prefecture_code": 27,
    "city": "吹田市",
    "city_kana": "スイタシ",
    "town": "天道町",
    "town_kana": "テンドウチョウ",
    "street": null,
    "office_name": null,
    "office_name_kana": null
  },
  "0004": {
    "postcode": "5640004",
    "prefecture": "大阪府",
    "prefecture_kana": "オオサカフ",
    "prefecture_code": 27,
    "city": "吹田市",
    "city_kana": "スイタシ",
    "town": "原町",
    "town_kana": "ハラチョウ",
    "street": null,
    "office_name": null,
    "office_name_kana": null
  },
  "0011": {
    "postcode": "5640011",
    "prefecture": "大阪府",
    "prefecture_kana": "オオサカフ",
    "prefecture_code": 27,
    "city": "吹田市",
    "city_kana": "スイタシ",
    "town": "岸部南",
    "town_kana": "キシベミナミ",
    "street": null,
    "office_name": null,
    "office_name_kana": null
  },
  "0012": {
    "postcode": "5640012",
    "prefecture": "大阪府",
    "prefecture_kana": "オオサカフ",
    "prefecture_code": 27,
    "city": "吹田市",
    "city_kana": "スイタシ",
    "town": "南正雀",
    "town_kana": "ミナミショウジャク",
    "street": null,
    "office_name": null,
    "office_name_kana": null
  },
  "0013": {
    "postcode": "5640013",
    "prefecture": "大阪府",
    "prefecture_kana": "オオサカフ",
    "prefecture_code": 27,
    "city": "吹田市",
    "city_kana": "スイタシ",
    "town": "川園町",
    "town_kana": "カワゾノチョウ",
    "street": null,
    "office_name": null,
    "office_name_kana": null
  },
  "0014": {
    "postcode": "5640014",
    "prefecture": "大阪府",
    "prefecture_kana": "オオサカフ",
    "prefecture_code": 27,
    "city": "吹田市",
    "city_kana": "スイタシ",
    "town": "吹東町",
    "town_kana": "スイトウチョウ",
    "street": null,
    "office_name": null,
    "office_name_kana": null
  },
  "0015": {
    "postcode": "5640015",
    "prefecture": "大阪府",
    "prefecture_kana": "オオサカフ",
    "prefecture_code": 27,
    "city": "吹田市",
    "city_kana": "スイタシ",
    "town": "幸町",
    "town_kana": "サイワイチョウ",
    "street": null,
    "office_name": null,
    "office_name_kana": null
  },
  "0016": {
    "postcode": "5640016",
    "prefecture": "大阪府",
    "prefecture_kana": "オオサカフ",
    "prefecture_code": 27,
    "city": "吹田市",
    "city_kana": "スイタシ",
    "town": "平松町",
    "town_kana": "ヒラマツチョウ",
    "street": null,
    "office_name": null,
    "office_name_kana": null
  },
  "0017": {
    "postcode": "5640017",
    "prefecture": "大阪府",
    "prefecture_kana": "オオサカフ",
    "prefecture_code": 27,
    "city": "吹田市",
    "city_kana": "スイタシ",
    "town": "芝田町",
    "town_kana": "シバタチョウ",
    "street": null,
    "office_name": null,
    "office_name_kana": null
  },
  "0018": {
    "postcode": "5640018",
    "prefecture": "大阪府",
    "prefecture_kana": "オオサカフ",
    "prefecture_code": 27,
    "city": "吹田市",
    "city_kana": "スイタシ",
    "town": "岸部新町",
    "town_kana": "キシベシンマチ",
    "street": null,
    "office_name": null,
    "office_name_kana": null
  },
  "0021": {
    "postcode": "5640021",
    "prefecture": "大阪府",
    "prefecture_kana": "オオサカフ",
    "prefecture_code": 27,
    "city": "吹田市",
    "city_kana": "スイタシ",
    "town": "目俵町",
    "town_kana": "メダワラチョウ",
    "street": null,
    "office_name": null,
    "office_name_kana": null
  },
  "0022": {
    "postcode": "5640022",
    "prefecture": "大阪府",
    "prefecture_kana": "オオサカフ",
    "prefecture_code": 27,
    "city": "吹田市",
    "city_kana": "スイタシ",
    "town": "末広町",
    "town_kana": "スエヒロチョウ",
    "street": null,
    "office_name": null,
    "office_name_kana": null
  },
  "0023": {
    "postcode": "5640023",
    "prefecture": "大阪府",
    "prefecture_kana": "オオサカフ",
    "prefecture_code": 27,
    "city": "吹田市",
    "city_kana": "スイタシ",
    "town": "日の出町",
    "town_kana": "ヒノデチョウ",
    "street": null,
    "office_name": null,
    "office_name_kana": null
  },
  "0024": {
    "postcode": "5640024",
    "prefecture": "大阪府",
    "prefecture_kana": "オオサカフ",
    "prefecture_code": 27,
    "city": "吹田市",
    "city_kana": "スイタシ",
    "town": "高城町",
    "town_kana": "タカシロチョウ",
    "street": null,
    "office_name": null,
    "office_name_kana": null
  },
  "0025": {
    "postcode": "5640025",
    "prefecture": "大阪府",
    "prefecture_kana": "オオサカフ",
    "prefecture_code": 27,
    "city": "吹田市",
    "city_kana": "スイタシ",
    "town": "南高浜町",
    "town_kana": "ミナミタカハマチョウ",
    "street": null,
    "office_name": null,
    "office_name_kana": null
  },
  "0026": {
    "postcode": "5640026",
    "prefecture": "大阪府",
    "prefecture_kana": "オオサカフ",
    "prefecture_code": 27,
    "city": "吹田市",
    "city_kana": "スイタシ",
    "town": "高浜町",
    "town_kana": "タカハマチョウ",
    "street": null,
    "office_name": null,
    "office_name_kana": null
  },
  "0027": {
    "postcode": "5640027",
    "prefecture": "大阪府",
    "prefecture_kana": "オオサカフ",
    "prefecture_code": 27,
    "city": "吹田市",
    "city_kana": "スイタシ",
    "town": "朝日町",
    "town_kana": "アサヒマチ",
    "street": null,
    "office_name": null,
    "office_name_kana": null
  },
  "0028": {
    "postcode": "5640028",
    "prefecture": "大阪府",
    "prefecture_kana": "オオサカフ",
    "prefecture_code": 27,
    "city": "吹田市",
    "city_kana": "スイタシ",
    "town": "昭和町",
    "town_kana": "ショウワチョウ",
    "street": null,
    "office_name": null,
    "office_name_kana": null
  },
  "0031": {
    "postcode": "5640031",
    "prefecture": "大阪府",
    "prefecture_kana": "オオサカフ",
    "prefecture_code": 27,
    "city": "吹田市",
    "city_kana": "スイタシ",
    "town": "元町",
    "town_kana": "モトマチ",
    "street": null,
    "office_name": null,
    "office_name_kana": null
  },
  "0032": {
    "postcode": "5640032",
    "prefecture": "大阪府",
    "prefecture_kana": "オオサカフ",
    "prefecture_code": 27,
    "city": "吹田市",
    "city_kana": "スイタシ",
    "town": "内本町",
    "town_kana": "ウチホンマチ",
    "street": null,
    "office_name": null,
    "office_name_kana": null
  },
  "0033": {
    "postcode": "5640033",
    "prefecture": "大阪府",
    "prefecture_kana": "オオサカフ",
    "prefecture_code": 27,
    "city": "吹田市",
    "city_kana": "スイタシ",
    "town": "東御旅町",
    "town_kana": "ヒガシオタビチョウ",
    "street": null,
    "office_name": null,
    "office_name_kana": null
  },
  "0034": {
    "postcode": "5640034",
    "prefecture": "大阪府",
    "prefecture_kana": "オオサカフ",
    "prefecture_code": 27,
    "city": "吹田市",
    "city_kana": "スイタシ",
    "town": "西御旅町",
    "town_kana": "ニシオタビチョウ",
    "street": null,
    "office_name": null,
    "office_name_kana": null
  },
  "0035": {
    "postcode": "5640035",
    "prefecture": "大阪府",
    "prefecture_kana": "オオサカフ",
    "prefecture_code": 27,
    "city": "吹田市",
    "city_kana": "スイタシ",
    "town": "中の島町",
    "town_kana": "ナカノシマチョウ",
    "street": null,
    "office_name": null,
    "office_name_kana": null
  },
  "0036": {
    "postcode": "5640036",
    "prefecture": "大阪府",
    "prefecture_kana": "オオサカフ",
    "prefecture_code": 27,
    "city": "吹田市",
    "city_kana": "スイタシ",
    "town": "寿町",
    "town_kana": "コトブキチョウ",
    "street": null,
    "office_name": null,
    "office_name_kana": null
  },
  "0037": {
    "postcode": "5640037",
    "prefecture": "大阪府",
    "prefecture_kana": "オオサカフ",
    "prefecture_code": 27,
    "city": "吹田市",
    "city_kana": "スイタシ",
    "town": "川岸町",
    "town_kana": "カワギシチョウ",
    "street": null,
    "office_name": null,
    "office_name_kana": null
  },
  "0038": {
    "postcode": "5640038",
    "prefecture": "大阪府",
    "prefecture_kana": "オオサカフ",
    "prefecture_code": 27,
    "city": "吹田市",
    "city_kana": "スイタシ",
    "town": "南清和園町",
    "town_kana": "ミナミセイワエンチョウ",
    "street": null,
    "office_name": null,
    "office_name_kana": null
  },
  "0039": {
    "postcode": "5640039",
    "prefecture": "大阪府",
    "prefecture_kana": "オオサカフ",
    "prefecture_code": 27,
    "city": "吹田市",
    "city_kana": "スイタシ",
    "town": "清和園町",
    "town_kana": "セイワエンチョウ",
    "street": null,
    "office_name": null,
    "office_name_kana": null
  },
  "0041": {
    "postcode": "5640041",
    "prefecture": "大阪府",
    "prefecture_kana": "オオサカフ",
    "prefecture_code": 27,
    "city": "吹田市",
    "city_kana": "スイタシ",
    "town": "泉町",
    "town_kana": "イズミチョウ",
    "street": null,
    "office_name": null,
    "office_name_kana": null
  },
  "0042": {
    "postcode": "5640042",
    "prefecture": "大阪府",
    "prefecture_kana": "オオサカフ",
    "prefecture_code": 27,
    "city": "吹田市",
    "city_kana": "スイタシ",
    "town": "穂波町",
    "town_kana": "ホナミチョウ",
    "street": null,
    "office_name": null,
    "office_name_kana": null
  },
  "0043": {
    "postcode": "5640043",
    "prefecture": "大阪府",
    "prefecture_kana": "オオサカフ",
    "prefecture_code": 27,
    "city": "吹田市",
    "city_kana": "スイタシ",
    "town": "南吹田",
    "town_kana": "ミナミスイタ",
    "street": null,
    "office_name": null,
    "office_name_kana": null
  },
  "0044": {
    "postcode": "5640044",
    "prefecture": "大阪府",
    "prefecture_kana": "オオサカフ",
    "prefecture_code": 27,
    "city": "吹田市",
    "city_kana": "スイタシ",
    "town": "南金田",
    "town_kana": "ミナミカネデン",
    "street": null,
    "office_name": null,
    "office_name_kana": null
  },
  "0045": {
    "postcode": "5640045",
    "prefecture": "大阪府",
    "prefecture_kana": "オオサカフ",
    "prefecture_code": 27,
    "city": "吹田市",
    "city_kana": "スイタシ",
    "town": "金田町",
    "town_kana": "カネデンチョウ",
    "street": null,
    "office_name": null,
    "office_name_kana": null
  },
  "0051": {
    "postcode": "5640051",
    "prefecture": "大阪府",
    "prefecture_kana": "オオサカフ",
    "prefecture_code": 27,
    "city": "吹田市",
    "city_kana": "スイタシ",
    "town": "豊津町",
    "town_kana": "トヨツチョウ",
    "street": null,
    "office_name": null,
    "office_name_kana": null
  },
  "0052": {
    "postcode": "5640052",
    "prefecture": "大阪府",
    "prefecture_kana": "オオサカフ",
    "prefecture_code": 27,
    "city": "吹田市",
    "city_kana": "スイタシ",
    "town": "広芝町",
    "town_kana": "ヒロシバチョウ",
    "street": null,
    "office_name": null,
    "office_name_kana": null
  },
  "0053": {
    "postcode": "5640053",
    "prefecture": "大阪府",
    "prefecture_kana": "オオサカフ",
    "prefecture_code": 27,
    "city": "吹田市",
    "city_kana": "スイタシ",
    "town": "江の木町",
    "town_kana": "エノキチョウ",
    "street": null,
    "office_name": null,
    "office_name_kana": null
  },
  "0054": {
    "postcode": "5640054",
    "prefecture": "大阪府",
    "prefecture_kana": "オオサカフ",
    "prefecture_code": 27,
    "city": "吹田市",
    "city_kana": "スイタシ",
    "town": "芳野町",
    "town_kana": "ヨシノチョウ",
    "street": null,
    "office_name": null,
    "office_name_kana": null
  },
  "0061": {
    "postcode": "5640061",
    "prefecture": "大阪府",
    "prefecture_kana": "オオサカフ",
    "prefecture_code": 27,
    "city": "吹田市",
    "city_kana": "スイタシ",
    "town": "円山町",
    "town_kana": "マルヤマチョウ",
    "street": null,
    "office_name": null,
    "office_name_kana": null
  },
  "0062": {
    "postcode": "5640062",
    "prefecture": "大阪府",
    "prefecture_kana": "オオサカフ",
    "prefecture_code": 27,
    "city": "吹田市",
    "city_kana": "スイタシ",
    "town": "垂水町",
    "town_kana": "タルミチョウ",
    "street": null,
    "office_name": null,
    "office_name_kana": null
  },
  "0063": {
    "postcode": "5640063",
    "prefecture": "大阪府",
    "prefecture_kana": "オオサカフ",
    "prefecture_code": 27,
    "city": "吹田市",
    "city_kana": "スイタシ",
    "town": "江坂町",
    "town_kana": "エサカチョウ",
    "street": null,
    "office_name": null,
    "office_name_kana": null
  },
  "0071": {
    "postcode": "5640071",
    "prefecture": "大阪府",
    "prefecture_kana": "オオサカフ",
    "prefecture_code": 27,
    "city": "吹田市",
    "city_kana": "スイタシ",
    "town": "西の庄町",
    "town_kana": "ニシノショウチョウ",
    "street": null,
    "office_name": null,
    "office_name_kana": null
  },
  "0072": {
    "postcode": "5640072",
    "prefecture": "大阪府",
    "prefecture_kana": "オオサカフ",
    "prefecture_code": 27,
    "city": "吹田市",
    "city_kana": "スイタシ",
    "town": "出口町",
    "town_kana": "デグチチョウ",
    "street": null,
    "office_name": null,
    "office_name_kana": null
  },
  "0073": {
    "postcode": "5640073",
    "prefecture": "大阪府",
    "prefecture_kana": "オオサカフ",
    "prefecture_code": 27,
    "city": "吹田市",
    "city_kana": "スイタシ",
    "town": "山手町",
    "town_kana": "ヤマテチョウ",
    "street": null,
    "office_name": null,
    "office_name_kana": null
  },
  "0081": {
    "postcode": "5640081",
    "prefecture": "大阪府",
    "prefecture_kana": "オオサカフ",
    "prefecture_code": 27,
    "city": "吹田市",
    "city_kana": "スイタシ",
    "town": "藤が丘町",
    "town_kana": "フジガオカチョウ",
    "street": null,
    "office_name": null,
    "office_name_kana": null
  },
  "0082": {
    "postcode": "5640082",
    "prefecture": "大阪府",
    "prefecture_kana": "オオサカフ",
    "prefecture_code": 27,
    "city": "吹田市",
    "city_kana": "スイタシ",
    "town": "片山町",
    "town_kana": "カタヤマチョウ",
    "street": null,
    "office_name": null,
    "office_name_kana": null
  },
  "0083": {
    "postcode": "5640083",
    "prefecture": "大阪府",
    "prefecture_kana": "オオサカフ",
    "prefecture_code": 27,
    "city": "吹田市",
    "city_kana": "スイタシ",
    "town": "朝日が丘町",
    "town_kana": "アサヒガオカチョウ",
    "street": null,
    "office_name": null,
    "office_name_kana": null
  },
  "8501": {
    "postcode": "5648501",
    "prefecture": "大阪府",
    "prefecture_kana": "オオサカフ",
    "prefecture_code": 27,
    "city": "吹田市",
    "city_kana": "スイタシ",
    "town": "岸部南",
    "town_kana": "キシベミナミ",
    "street": "２丁目１７−１",
    "office_name": "オッペン化粧品",
    "office_name_kana": "オツペンケシヨウヒン"
  },
  "8503": {
    "postcode": "5648503",
    "prefecture": "大阪府",
    "prefecture_kana": "オオサカフ",
    "prefecture_code": 27,
    "city": "吹田市",
    "city_kana": "スイタシ",
    "town": "広芝町",
    "town_kana": "ヒロシバチョウ",
    "street": "１０−２５第２池上ビル４Ｆ",
    "office_name": "株式会社　ジェフサ",
    "office_name_kana": "カブシキガイシヤ ジエフサ"
  },
  "8511": {
    "postcode": "5648511",
    "prefecture": "大阪府",
    "prefecture_kana": "オオサカフ",
    "prefecture_code": 27,
    "city": "吹田市",
    "city_kana": "スイタシ",
    "town": "岸部南",
    "town_kana": "キシベミナミ",
    "street": "２丁目３６−１",
    "office_name": "大阪学院大学",
    "office_name_kana": "オオサカガクインダイガク"
  },
  "8515": {
    "postcode": "5648515",
    "prefecture": "大阪府",
    "prefecture_kana": "オオサカフ",
    "prefecture_code": 27,
    "city": "吹田市",
    "city_kana": "スイタシ",
    "town": "片山町",
    "town_kana": "カタヤマチョウ",
    "street": "３丁目１６−２２",
    "office_name": "吹田税務署",
    "office_name_kana": "スイタゼイムシヨ"
  },
  "8523": {
    "postcode": "5648523",
    "prefecture": "大阪府",
    "prefecture_kana": "オオサカフ",
    "prefecture_code": 27,
    "city": "吹田市",
    "city_kana": "スイタシ",
    "town": "江坂町",
    "town_kana": "エサカチョウ",
    "street": "１丁目２３−１０１",
    "office_name": "日本システム収納　株式会社",
    "office_name_kana": "ニホンシステムシユウノウ カブシキガイシヤ"
  },
  "8550": {
    "postcode": "5648550",
    "prefecture": "大阪府",
    "prefecture_kana": "オオサカフ",
    "prefecture_code": 27,
    "city": "吹田市",
    "city_kana": "スイタシ",
    "town": "泉町",
    "town_kana": "イズミチョウ",
    "street": "１丁目３番４０号",
    "office_name": "吹田市役所",
    "office_name_kana": "スイタシヤクシヨ"
  },
  "8551": {
    "postcode": "5648551",
    "prefecture": "大阪府",
    "prefecture_kana": "オオサカフ",
    "prefecture_code": 27,
    "city": "吹田市",
    "city_kana": "スイタシ",
    "town": "南吹田",
    "town_kana": "ミナミスイタ",
    "street": "３丁目３−６０",
    "office_name": "吹田市水道部",
    "office_name_kana": "スイタシスイドウブ"
  },
  "8555": {
    "postcode": "5648555",
    "prefecture": "大阪府",
    "prefecture_kana": "オオサカフ",
    "prefecture_code": 27,
    "city": "吹田市",
    "city_kana": "スイタシ",
    "town": "豊津町",
    "town_kana": "トヨツチョウ",
    "street": "１２−５",
    "office_name": "株式会社　日本創造教育研究所",
    "office_name_kana": "カブシキガイシヤ ニホンソウゾウキヨウイクケンキユウシヨ"
  },
  "8565": {
    "postcode": "5648565",
    "prefecture": "大阪府",
    "prefecture_kana": "オオサカフ",
    "prefecture_code": 27,
    "city": "吹田市",
    "city_kana": "スイタシ",
    "town": "岸部新町",
    "town_kana": "キシベシンマチ",
    "street": "６番１号",
    "office_name": "国立研究開発法人　国立循環器病研究センター",
    "office_name_kana": "コクリツケンキユウカイハツホウジン コクリツジユンカンキビヨウケンキユウセンタ-"
  },
  "8567": {
    "postcode": "5648567",
    "prefecture": "大阪府",
    "prefecture_kana": "オオサカフ",
    "prefecture_code": 27,
    "city": "吹田市",
    "city_kana": "スイタシ",
    "town": "岸部新町",
    "town_kana": "キシベシンマチ",
    "street": "５番７号",
    "office_name": "地方独立行政法人　市立吹田市民病院",
    "office_name_kana": "チホウドクリツギヨウセイホウジン シリツスイタシミンビヨウイン"
  },
  "8650": {
    "postcode": "5648650",
    "prefecture": "大阪府",
    "prefecture_kana": "オオサカフ",
    "prefecture_code": 27,
    "city": "吹田市",
    "city_kana": "スイタシ",
    "town": "垂水町",
    "town_kana": "タルミチョウ",
    "street": "３丁目３３番１８号（吹田郵便局私書箱第４４号）",
    "office_name": "株式会社　モリタ",
    "office_name_kana": "カブシキガイシヤ モリタ"
  },
  "8651": {
    "postcode": "5648651",
    "prefecture": "大阪府",
    "prefecture_kana": "オオサカフ",
    "prefecture_code": 27,
    "city": "吹田市",
    "city_kana": "スイタシ",
    "town": "広芝町",
    "town_kana": "ヒロシバチョウ",
    "street": "１１−２１（吹田郵便局私書箱第１００号）",
    "office_name": "三井信託銀行　大阪事務センター",
    "office_name_kana": "ミツイシンタクギンコウ オオサカジムセンタ-"
  },
  "8680": {
    "postcode": "5648680",
    "prefecture": "大阪府",
    "prefecture_kana": "オオサカフ",
    "prefecture_code": 27,
    "city": "吹田市",
    "city_kana": "スイタシ",
    "town": "山手町",
    "town_kana": "ヤマテチョウ",
    "street": "３丁目３−３５（吹田郵便局私書箱第５０号）",
    "office_name": "関西大学　千里山キャンパス",
    "office_name_kana": "カンサイダイガク センリヤマキヤンパス"
  }
}