{
  "0081": {
    "postcode": "5680081",
    "prefecture": "大阪府",
    "prefecture_kana": "オオサカフ",
    "prefecture_code": 27,
    "city": "茨木市",
    "city_kana": "イバラキシ",
    "town": "清阪",
    "town_kana": "キヨサカ",
    "street": null,
    "office_name": null,
    "office_name_kana": null
  },
  "0082": {
    "postcode": "5680082",
    "prefecture": "大阪府",
    "prefecture_kana": "オオサカフ",
    "prefecture_code": 27,
    "city": "茨木市",
    "city_kana": "イバラキシ",
    "town": "下音羽",
    "town_kana": "シモオトワ",
    "street": null,
    "office_name": null,
    "office_name_kana": null
  },
  "0083": {
    "postcode": "5680083",
    "prefecture": "大阪府",
    "prefecture_kana": "オオサカフ",
    "prefecture_code": 27,
    "city": "茨木市",
    "city_kana": "イバラキシ",
    "town": "車作",
    "town_kana": "クルマツクリ",
    "street": null,
    "office_name": null,
    "office_name_kana": null
  },
  "0084": {
    "postcode": "5680084",
    "prefecture": "大阪府",
    "prefecture_kana": "オオサカフ",
    "prefecture_code": 27,
    "city": "茨木市",
    "city_kana": "イバラキシ",
    "town": "安元",
    "town_kana": "ヤスモト",
    "street": null,
    "office_name": null,
    "office_name_kana": null
  },
  "0085": {
    "postcode": "5680085",
    "prefecture": "大阪府",
    "prefecture_kana": "オオサカフ",
    "prefecture_code": 27,
    "city": "茨木市",
    "city_kana": "イバラキシ",
    "town": "忍頂寺",
    "town_kana": "ニンチョウジ",
    "street": null,
    "office_name": null,
    "office_name_kana": null
  },
  "0086": {
    "postcode": "5680086",
    "prefecture": "大阪府",
    "prefecture_kana": "オオサカフ",
    "prefecture_code": 27,
    "city": "茨木市",
    "city_kana": "イバラキシ",
    "town": "上音羽",
    "town_kana": "カミオトワ",
    "street": null,
    "office_name": null,
    "office_name_kana": null
  },
  "0087": {
    "postcode": "5680087",
    "prefecture": "大阪府",
    "prefecture_kana": "オオサカフ",
    "prefecture_code": 27,
    "city": "茨木市",
    "city_kana": "イバラキシ",
    "town": "銭原",
    "town_kana": "ゼニハラ",
    "street": null,
    "office_name": null,
    "office_name_kana": null
  },
  "0088": {
    "postcode": "5680088",
    "prefecture": "大阪府",
    "prefecture_kana": "オオサカフ",
    "prefecture_code": 27,
    "city": "茨木市",
    "city_kana": "イバラキシ",
    "town": "長谷",
    "town_kana": "ナガタニ",
    "street": null,
    "office_name": null,
    "office_name_kana": null
  },
  "0089": {
    "postcode": "5680089",
    "prefecture": "大阪府",
    "prefecture_kana": "オオサカフ",
    "prefecture_code": 27,
    "city": "茨木市",
    "city_kana": "イバラキシ",
    "town": "山手台東町",
    "town_kana": "ヤマテダイヒガシマチ",
    "street": null,
    "office_name": null,
    "office_name_kana": null
  },
  "0091": {
    "postcode": "5680091",
    "prefecture": "大阪府",
    "prefecture_kana": "オオサカフ",
    "prefecture_code": 27,
    "city": "茨木市",
    "city_kana": "イバラキシ",
    "town": "大岩",
    "town_kana": "オオイワ",
    "street": null,
    "office_name": null,
    "office_name_kana": null
  },
  "0092": {
    "postcode": "5680092",
    "prefecture": "大阪府",
    "prefecture_kana": "オオサカフ",
    "prefecture_code": 27,
    "city": "茨木市",
    "city_kana": "イバラキシ",
    "town": "生保",
    "town_kana": "ショウボ",
    "street": null,
    "office_name": null,
    "office_name_kana": null
  },
  "0093": {
    "postcode": "5680093",
    "prefecture": "大阪府",
    "prefecture_kana": "オオサカフ",
    "prefecture_code": 27,
    "city": "茨木市",
    "city_kana": "イバラキシ",
    "town": "大門寺",
    "town_kana": "ダイモンジ",
    "street": null,
    "office_name": null,
    "office_name_kana": null
  },
  "0094": {
    "postcode": "5680094",
    "prefecture": "大阪府",
    "prefecture_kana": "オオサカフ",
    "prefecture_code": 27,
    "city": "茨木市",
    "city_kana": "イバラキシ",
    "town": "桑原",
    "town_kana": "クワノハラ",
    "street": null,
    "office_name": null,
    "office_name_kana": null
  },
  "0095": {
    "postcode": "5680095",
    "prefecture": "大阪府",
    "prefecture_kana": "オオサカフ",
    "prefecture_code": 27,
    "city": "茨木市",
    "city_kana": "イバラキシ",
    "town": "佐保",
    "town_kana": "サホ",
    "street": null,
    "office_name": null,
    "office_name_kana": null
  },
  "0096": {
    "postcode": "5680096",
    "prefecture": "大阪府",
    "prefecture_kana": "オオサカフ",
    "prefecture_code": 27,
    "city": "茨木市",
    "city_kana": "イバラキシ",
    "town": "粟生岩阪",
    "town_kana": "アオイワサカ",
    "street": null,
    "office_name": null,
    "office_name_kana": null
  },
  "0097": {
    "postcode": "5680097",
    "prefecture": "大阪府",
    "prefecture_kana": "オオサカフ",
    "prefecture_code": 27,
    "city": "茨木市",
    "city_kana": "イバラキシ",
    "town": "泉原",
    "town_kana": "イズハラ",
    "street": null,
    "office_name": null,
    "office_name_kana": null
  },
  "0098": {
    "postcode": "5680098",
    "prefecture": "大阪府",
    "prefecture_kana": "オオサカフ",
    "prefecture_code": 27,
    "city": "茨木市",
    "city_kana": "イバラキシ",
    "town": "千提寺",
    "town_kana": "センダイジ",
    "street": null,
    "office_name": null,
    "office_name_kana": null
  }
}