{
  "0000": {
    "postcode": "5700000",
    "prefecture": "大阪府",
    "prefecture_kana": "オオサカフ",
    "prefecture_code": 27,
    "city": "守口市",
    "city_kana": "モリグチシ",
    "town": "",
    "town_kana": "",
    "street": null,
    "office_name": null,
    "office_name_kana": null
  },
  "0001": {
    "postcode": "5700001",
    "prefecture": "大阪府",
    "prefecture_kana": "オオサカフ",
    "prefecture_code": 27,
    "city": "守口市",
    "city_kana": "モリグチシ",
    "town": "佐太西町",
    "town_kana": "サタニシマチ",
    "street": null,
    "office_name": null,
    "office_name_kana": null
  },
  "0002": {
    "postcode": "5700002",
    "prefecture": "大阪府",
    "prefecture_kana": "オオサカフ",
    "prefecture_code": 27,
    "city": "守口市",
    "city_kana": "モリグチシ",
    "town": "佐太中町",
    "town_kana": "サタナカマチ",
    "street": null,
    "office_name": null,
    "office_name_kana": null
  },
  "0003": {
    "postcode": "5700003",
    "prefecture": "大阪府",
    "prefecture_kana": "オオサカフ",
    "prefecture_code": 27,
    "city": "守口市",
    "city_kana": "モリグチシ",
    "town": "大日町",
    "town_kana": "ダイニチチョウ",
    "street": null,
    "office_name": null,
    "office_name_kana": null
  },
  "0004": {
    "postcode": "5700004",
    "prefecture": "大阪府",
    "prefecture_kana": "オオサカフ",
    "prefecture_code": 27,
    "city": "守口市",
    "city_kana": "モリグチシ",
    "town": "淀江町",
    "town_kana": "ヨドエチョウ",
    "street": null,
    "office_name": null,
    "office_name_kana": null
  },
  "0005": {
    "postcode": "5700005",
    "prefecture": "大阪府",
    "prefecture_kana": "オオサカフ",
    "prefecture_code": 27,
    "city": "守口市",
    "city_kana": "モリグチシ",
    "town": "八雲中町",
    "town_kana": "ヤグモナカマチ",
    "street": null,
    "office_name": null,
    "office_name_kana": null
  },
  "0006": {
    "postcode": "5700006",
    "prefecture": "大阪府",
    "prefecture_kana": "オオサカフ",
    "prefecture_code": 27,
    "city": "守口市",
    "city_kana": "モリグチシ",
    "town": "八雲西町",
    "town_kana": "ヤグモニシマチ",
    "street": null,
    "office_name": null,
    "office_name_kana": null
  },
  "0007": {
    "postcode": "5700007",
    "prefecture": "大阪府",
    "prefecture_kana": "オオサカフ",
    "prefecture_code": 27,
    "city": "守口市",
    "city_kana": "モリグチシ",
    "town": "下島町",
    "town_kana": "シモジマチョウ",
    "street": null,
    "office_name": null,
    "office_name_kana": null
  },
  "0008": {
    "postcode": "5700008",
    "prefecture": "大阪府",
    "prefecture_kana": "オオサカフ",
    "prefecture_code": 27,
    "city": "守口市",
    "city_kana": "モリグチシ",
    "town": "八雲北町",
    "town_kana": "ヤグモキタマチ",
    "street": null,
    "office_name": null,
    "office_name_kana": null
  },
  "0009": {
    "postcode": "5700009",
    "prefecture": "大阪府",
    "prefecture_kana": "オオサカフ",
    "prefecture_code": 27,
    "city": "守口市",
    "city_kana": "モリグチシ",
    "town": "大庭町",
    "town_kana": "オオバチョウ",
    "street": null,
    "office_name": null,
    "office_name_kana": null
  },
  "0011": {
    "postcode": "5700011",
    "prefecture": "大阪府",
    "prefecture_kana": "オオサカフ",
    "prefecture_code": 27,
    "city": "守口市",
    "city_kana": "モリグチシ",
    "town": "金田町",
    "town_kana": "キンダチョウ",
    "street": null,
    "office_name": null,
    "office_name_kana": null
  },
  "0012": {
    "postcode": "5700012",
    "prefecture": "大阪府",
    "prefecture_kana": "オオサカフ",
    "prefecture_code": 27,
    "city": "守口市",
    "city_kana": "モリグチシ",
    "town": "大久保町",
    "town_kana": "オオクボチョウ",
    "street": null,
    "office_name": null,
    "office_name_kana": null
  },
  "0013": {
    "postcode": "5700013",
    "prefecture": "大阪府",
    "prefecture_kana": "オオサカフ",
    "prefecture_code": 27,
    "city": "守口市",
    "city_kana": "モリグチシ",
    "town": "東町",
    "town_kana": "ヒガシマチ",
    "street": null,
    "office_name": null,
    "office_name_kana": null
  },
  "0014": {
    "postcode": "5700014",
    "prefecture": "大阪府",
    "prefecture_kana": "オオサカフ",
    "prefecture_code": 27,
    "city": "守口市",
    "city_kana": "モリグチシ",
    "town": "藤田町",
    "town_kana": "トウダチョウ",
    "street": null,
    "office_name": null,
    "office_name_kana": null
  },
  "0015": {
    "postcode": "5700015",
    "prefecture": "大阪府",
    "prefecture_kana": "オオサカフ",
    "prefecture_code": 27,
    "city": "守口市",
    "city_kana": "モリグチシ",
    "town": "梶町",
    "town_kana": "カジマチ",
    "street": null,
    "office_name": null,
    "office_name_kana": null
  },
  "0016": {
    "postcode": "5700016",
    "prefecture": "大阪府",
    "prefecture_kana": "オオサカフ",
    "prefecture_code": 27,
    "city": "守口市",
    "city_kana": "モリグチシ",
    "town": "大日東町",
    "town_kana": "ダイニチヒガシマチ",
    "street": null,
    "office_name": null,
    "office_name_kana": null
  },
  "0017": {
    "postcode": "5700017",
    "prefecture": "大阪府",
    "prefecture_kana": "オオサカフ",
    "prefecture_code": 27,
    "city": "守口市",
    "city_kana": "モリグチシ",
    "town": "佐太東町",
    "town_kana": "サタヒガシマチ",
    "street": null,
    "office_name": null,
    "office_name_kana": null
  },
  "0021": {
    "postcode": "5700021",
    "prefecture": "大阪府",
    "prefecture_kana": "オオサカフ",
    "prefecture_code": 27,
    "city": "守口市",
    "city_kana": "モリグチシ",
    "town": "八雲東町",
    "town_kana": "ヤグモヒガシマチ",
    "street": null,
    "office_name": null,
    "office_name_kana": null
  },
  "0022": {
    "postcode": "5700022",
    "prefecture": "大阪府",
    "prefecture_kana": "オオサカフ",
    "prefecture_code": 27,
    "city": "守口市",
    "city_kana": "モリグチシ",
    "town": "暁町",
    "town_kana": "アカツキチョウ",
    "street": null,
    "office_name": null,
    "office_name_kana": null
  },
  "0023": {
    "postcode": "5700023",
    "prefecture": "大阪府",
    "prefecture_kana": "オオサカフ",
    "prefecture_code": 27,
    "city": "守口市",
    "city_kana": "モリグチシ",
    "town": "日向町",
    "town_kana": "ヒュウガチョウ",
    "street": null,
    "office_name": null,
    "office_name_kana": null
  },
  "0024": {
    "postcode": "5700024",
    "prefecture": "大阪府",
    "prefecture_kana": "オオサカフ",
    "prefecture_code": 27,
    "city": "守口市",
    "city_kana": "モリグチシ",
    "town": "神木町",
    "town_kana": "カミキチョウ",
    "street": null,
    "office_name": null,
    "office_name_kana": null
  },
  "0025": {
    "postcode": "5700025",
    "prefecture": "大阪府",
    "prefecture_kana": "オオサカフ",
    "prefecture_code": 27,
    "city": "守口市",
    "city_kana": "モリグチシ",
    "town": "竜田通",
    "town_kana": "タツタドオリ",
    "street": null,
    "office_name": null,
    "office_name_kana": null
  },
  "0026": {
    "postcode": "5700026",
    "prefecture": "大阪府",
    "prefecture_kana": "オオサカフ",
    "prefecture_code": 27,
    "city": "守口市",
    "city_kana": "モリグチシ",
    "town": "松月町",
    "town_kana": "ショウゲツチョウ",
    "street": null,
    "office_name": null,
    "office_name_kana": null
  },
  "0027": {
    "postcode": "5700027",
    "prefecture": "大阪府",
    "prefecture_kana": "オオサカフ",
    "prefecture_code": 27,
    "city": "守口市",
    "city_kana": "モリグチシ",
    "town": "桜町",
    "town_kana": "サクラマチ",
    "street": null,
    "office_name": null,
    "office_name_kana": null
  },
  "0028": {
    "postcode": "5700028",
    "prefecture": "大阪府",
    "prefecture_kana": "オオサカフ",
    "prefecture_code": 27,
    "city": "守口市",
    "city_kana": "モリグチシ",
    "town": "本町",
    "town_kana": "ホンマチ",
    "street": null,
    "office_name": null,
    "office_name_kana": null
  },
  "0029": {
    "postcode": "5700029",
    "prefecture": "大阪府",
    "prefecture_kana": "オオサカフ",
    "prefecture_code": 27,
    "city": "守口市",
    "city_kana": "モリグチシ",
    "town": "来迎町",
    "town_kana": "ライコウチョウ",
    "street": null,
    "office_name": null,
    "office_name_kana": null
  },
  "0031": {
    "postcode": "5700031",
    "prefecture": "大阪府",
    "prefecture_kana": "オオサカフ",
    "prefecture_code": 27,
    "city": "守口市",
    "city_kana": "モリグチシ",
    "town": "橋波東之町",
    "town_kana": "ハシバヒガシノチョウ",
    "street": null,
    "office_name": null,
    "office_name_kana": null
  },
  "0032": {
    "postcode": "5700032",
    "prefecture": "大阪府",
    "prefecture_kana": "オオサカフ",
    "prefecture_code": 27,
    "city": "守口市",
    "city_kana": "モリグチシ",
    "town": "菊水通",
    "town_kana": "キクスイドオリ",
    "street": null,
    "office_name": null,
    "office_name_kana": null
  },
  "0033": {
    "postcode": "5700033",
    "prefecture": "大阪府",
    "prefecture_kana": "オオサカフ",
    "prefecture_code": 27,
    "city": "守口市",
    "city_kana": "モリグチシ",
    "town": "大宮通",
    "town_kana": "オオミヤドオリ",
    "street": null,
    "office_name": null,
    "office_name_kana": null
  },
  "0034": {
    "postcode": "5700034",
    "prefecture": "大阪府",
    "prefecture_kana": "オオサカフ",
    "prefecture_code": 27,
    "city": "守口市",
    "city_kana": "モリグチシ",
    "town": "西郷通",
    "town_kana": "サイゴウドオリ",
    "street": null,
    "office_name": null,
    "office_name_kana": null
  },
  "0035": {
    "postcode": "5700035",
    "prefecture": "大阪府",
    "prefecture_kana": "オオサカフ",
    "prefecture_code": 27,
    "city": "守口市",
    "city_kana": "モリグチシ",
    "town": "東光町",
    "town_kana": "トウコウチョウ",
    "street": null,
    "office_name": null,
    "office_name_kana": null
  },
  "0036": {
    "postcode": "5700036",
    "prefecture": "大阪府",
    "prefecture_kana": "オオサカフ",
    "prefecture_code": 27,
    "city": "守口市",
    "city_kana": "モリグチシ",
    "town": "大枝東町",
    "town_kana": "オオエダヒガシマチ",
    "street": null,
    "office_name": null,
    "office_name_kana": null
  },
  "0037": {
    "postcode": "5700037",
    "prefecture": "大阪府",
    "prefecture_kana": "オオサカフ",
    "prefecture_code": 27,
    "city": "守口市",
    "city_kana": "モリグチシ",
    "town": "大枝北町",
    "town_kana": "オオエダキタマチ",
    "street": null,
    "office_name": null,
    "office_name_kana": null
  },
  "0038": {
    "postcode": "5700038",
    "prefecture": "大阪府",
    "prefecture_kana": "オオサカフ",
    "prefecture_code": 27,
    "city": "守口市",
    "city_kana": "モリグチシ",
    "town": "河原町",
    "town_kana": "カワハラチョウ",
    "street": null,
    "office_name": null,
    "office_name_kana": null
  },
  "0039": {
    "postcode": "5700039",
    "prefecture": "大阪府",
    "prefecture_kana": "オオサカフ",
    "prefecture_code": 27,
    "city": "守口市",
    "city_kana": "モリグチシ",
    "town": "橋波西之町",
    "town_kana": "ハシバニシノチョウ",
    "street": null,
    "office_name": null,
    "office_name_kana": null
  },
  "0041": {
    "postcode": "5700041",
    "prefecture": "大阪府",
    "prefecture_kana": "オオサカフ",
    "prefecture_code": 27,
    "city": "守口市",
    "city_kana": "モリグチシ",
    "town": "東郷通",
    "town_kana": "トウゴウドオリ",
    "street": null,
    "office_name": null,
    "office_name_kana": null
  },
  "0042": {
    "postcode": "5700042",
    "prefecture": "大阪府",
    "prefecture_kana": "オオサカフ",
    "prefecture_code": 27,
    "city": "守口市",
    "city_kana": "モリグチシ",
    "town": "寺方錦通",
    "town_kana": "テラカタニシキドオリ",
    "street": null,
    "office_name": null,
    "office_name_kana": null
  },
  "0043": {
    "postcode": "5700043",
    "prefecture": "大阪府",
    "prefecture_kana": "オオサカフ",
    "prefecture_code": 27,
    "city": "守口市",
    "city_kana": "モリグチシ",
    "town": "南寺方東通",
    "town_kana": "ミナミテラカタヒガシドオリ",
    "street": null,
    "office_name": null,
    "office_name_kana": null
  },
  "0044": {
    "postcode": "5700044",
    "prefecture": "大阪府",
    "prefecture_kana": "オオサカフ",
    "prefecture_code": 27,
    "city": "守口市",
    "city_kana": "モリグチシ",
    "town": "南寺方南通",
    "town_kana": "ミナミテラカタミナミドオリ",
    "street": null,
    "office_name": null,
    "office_name_kana": null
  },
  "0045": {
    "postcode": "5700045",
    "prefecture": "大阪府",
    "prefecture_kana": "オオサカフ",
    "prefecture_code": 27,
    "city": "守口市",
    "city_kana": "モリグチシ",
    "town": "南寺方中通",
    "town_kana": "ミナミテラカタナカドオリ",
    "street": null,
    "office_name": null,
    "office_name_kana": null
  },
  "0046": {
    "postcode": "5700046",
    "prefecture": "大阪府",
    "prefecture_kana": "オオサカフ",
    "prefecture_code": 27,
    "city": "守口市",
    "city_kana": "モリグチシ",
    "town": "南寺方北通",
    "town_kana": "ミナミテラカタキタドオリ",
    "street": null,
    "office_name": null,
    "office_name_kana": null
  },
  "0047": {
    "postcode": "5700047",
    "prefecture": "大阪府",
    "prefecture_kana": "オオサカフ",
    "prefecture_code": 27,
    "city": "守口市",
    "city_kana": "モリグチシ",
    "town": "寺方元町",
    "town_kana": "テラカタモトマチ",
    "street": null,
    "office_name": null,
    "office_name_kana": null
  },
  "0048": {
    "postcode": "5700048",
    "prefecture": "大阪府",
    "prefecture_kana": "オオサカフ",
    "prefecture_code": 27,
    "city": "守口市",
    "city_kana": "モリグチシ",
    "town": "寺方本通",
    "town_kana": "テラカタホンドオリ",
    "street": null,
    "office_name": null,
    "office_name_kana": null
  },
  "0051": {
    "postcode": "5700051",
    "prefecture": "大阪府",
    "prefecture_kana": "オオサカフ",
    "prefecture_code": 27,
    "city": "守口市",
    "city_kana": "モリグチシ",
    "town": "大枝南町",
    "town_kana": "オオエダミナミマチ",
    "street": null,
    "office_name": null,
    "office_name_kana": null
  },
  "0052": {
    "postcode": "5700052",
    "prefecture": "大阪府",
    "prefecture_kana": "オオサカフ",
    "prefecture_code": 27,
    "city": "守口市",
    "city_kana": "モリグチシ",
    "town": "松下町",
    "town_kana": "マツシタチョウ",
    "street": null,
    "office_name": null,
    "office_name_kana": null
  },
  "0053": {
    "postcode": "5700053",
    "prefecture": "大阪府",
    "prefecture_kana": "オオサカフ",
    "prefecture_code": 27,
    "city": "守口市",
    "city_kana": "モリグチシ",
    "town": "高瀬町",
    "town_kana": "タカセチョウ",
    "street": null,
    "office_name": null,
    "office_name_kana": null
  },
  "0054": {
    "postcode": "5700054",
    "prefecture": "大阪府",
    "prefecture_kana": "オオサカフ",
    "prefecture_code": 27,
    "city": "守口市",
    "city_kana": "モリグチシ",
    "town": "大枝西町",
    "town_kana": "オオエダニシマチ",
    "street": null,
    "office_name": null,
    "office_name_kana": null
  },
  "0055": {
    "postcode": "5700055",
    "prefecture": "大阪府",
    "prefecture_kana": "オオサカフ",
    "prefecture_code": 27,
    "city": "守口市",
    "city_kana": "モリグチシ",
    "town": "春日町",
    "town_kana": "カスガチョウ",
    "street": null,
    "office_name": null,
    "office_name_kana": null
  },
  "0056": {
    "postcode": "5700056",
    "prefecture": "大阪府",
    "prefecture_kana": "オオサカフ",
    "prefecture_code": 27,
    "city": "守口市",
    "city_kana": "モリグチシ",
    "town": "寺内町",
    "town_kana": "ジナイチョウ",
    "street": null,
    "office_name": null,
    "office_name_kana": null
  },
  "0061": {
    "postcode": "5700061",
    "prefecture": "大阪府",
    "prefecture_kana": "オオサカフ",
    "prefecture_code": 27,
    "city": "守口市",
    "city_kana": "モリグチシ",
    "town": "小春町",
    "town_kana": "コハルチョウ",
    "street": null,
    "office_name": null,
    "office_name_kana": null
  },
  "0062": {
    "postcode": "5700062",
    "prefecture": "大阪府",
    "prefecture_kana": "オオサカフ",
    "prefecture_code": 27,
    "city": "守口市",
    "city_kana": "モリグチシ",
    "town": "馬場町",
    "town_kana": "ババチョウ",
    "street": null,
    "office_name": null,
    "office_name_kana": null
  },
  "0063": {
    "postcode": "5700063",
    "prefecture": "大阪府",
    "prefecture_kana": "オオサカフ",
    "prefecture_code": 27,
    "city": "守口市",
    "city_kana": "モリグチシ",
    "town": "大門町",
    "town_kana": "ダイモンチョウ",
    "street": null,
    "office_name": null,
    "office_name_kana": null
  },
  "0064": {
    "postcode": "5700064",
    "prefecture": "大阪府",
    "prefecture_kana": "オオサカフ",
    "prefecture_code": 27,
    "city": "守口市",
    "city_kana": "モリグチシ",
    "town": "長池町",
    "town_kana": "ナガイケチョウ",
    "street": null,
    "office_name": null,
    "office_name_kana": null
  },
  "0065": {
    "postcode": "5700065",
    "prefecture": "大阪府",
    "prefecture_kana": "オオサカフ",
    "prefecture_code": 27,
    "city": "守口市",
    "city_kana": "モリグチシ",
    "town": "滝井元町",
    "town_kana": "タキイモトマチ",
    "street": null,
    "office_name": null,
    "office_name_kana": null
  },
  "0066": {
    "postcode": "5700066",
    "prefecture": "大阪府",
    "prefecture_kana": "オオサカフ",
    "prefecture_code": 27,
    "city": "守口市",
    "city_kana": "モリグチシ",
    "town": "梅園町",
    "town_kana": "ウメゾノチョウ",
    "street": null,
    "office_name": null,
    "office_name_kana": null
  },
  "0071": {
    "postcode": "5700071",
    "prefecture": "大阪府",
    "prefecture_kana": "オオサカフ",
    "prefecture_code": 27,
    "city": "守口市",
    "city_kana": "モリグチシ",
    "town": "祝町",
    "town_kana": "イワイマチ",
    "street": null,
    "office_name": null,
    "office_name_kana": null
  },
  "0072": {
    "postcode": "5700072",
    "prefecture": "大阪府",
    "prefecture_kana": "オオサカフ",
    "prefecture_code": 27,
    "city": "守口市",
    "city_kana": "モリグチシ",
    "town": "早苗町",
    "town_kana": "サナエチョウ",
    "street": null,
    "office_name": null,
    "office_name_kana": null
  },
  "0073": {
    "postcode": "5700073",
    "prefecture": "大阪府",
    "prefecture_kana": "オオサカフ",
    "prefecture_code": 27,
    "city": "守口市",
    "city_kana": "モリグチシ",
    "town": "土居町",
    "town_kana": "ドイチョウ",
    "street": null,
    "office_name": null,
    "office_name_kana": null
  },
  "0074": {
    "postcode": "5700074",
    "prefecture": "大阪府",
    "prefecture_kana": "オオサカフ",
    "prefecture_code": 27,
    "city": "守口市",
    "city_kana": "モリグチシ",
    "town": "文園町",
    "town_kana": "フミゾノチョウ",
    "street": null,
    "office_name": null,
    "office_name_kana": null
  },
  "0075": {
    "postcode": "5700075",
    "prefecture": "大阪府",
    "prefecture_kana": "オオサカフ",
    "prefecture_code": 27,
    "city": "守口市",
    "city_kana": "モリグチシ",
    "town": "紅屋町",
    "town_kana": "ベニヤチョウ",
    "street": null,
    "office_name": null,
    "office_name_kana": null
  },
  "0076": {
    "postcode": "5700076",
    "prefecture": "大阪府",
    "prefecture_kana": "オオサカフ",
    "prefecture_code": 27,
    "city": "守口市",
    "city_kana": "モリグチシ",
    "town": "滝井西町",
    "town_kana": "タキイニシマチ",
    "street": null,
    "office_name": null,
    "office_name_kana": null
  },
  "0077": {
    "postcode": "5700077",
    "prefecture": "大阪府",
    "prefecture_kana": "オオサカフ",
    "prefecture_code": 27,
    "city": "守口市",
    "city_kana": "モリグチシ",
    "town": "寿町",
    "town_kana": "コトブキチョウ",
    "street": null,
    "office_name": null,
    "office_name_kana": null
  },
  "0078": {
    "postcode": "5700078",
    "prefecture": "大阪府",
    "prefecture_kana": "オオサカフ",
    "prefecture_code": 27,
    "city": "守口市",
    "city_kana": "モリグチシ",
    "town": "平代町",
    "town_kana": "ヒラダイチョウ",
    "street": null,
    "office_name": null,
    "office_name_kana": null
  },
  "0079": {
    "postcode": "5700079",
    "prefecture": "大阪府",
    "prefecture_kana": "オオサカフ",
    "prefecture_code": 27,
    "city": "守口市",
    "city_kana": "モリグチシ",
    "town": "金下町",
    "town_kana": "カネシタチョウ",
    "street": null,
    "office_name": null,
    "office_name_kana": null
  },
  "0081": {
    "postcode": "5700081",
    "prefecture": "大阪府",
    "prefecture_kana": "オオサカフ",
    "prefecture_code": 27,
    "city": "守口市",
    "city_kana": "モリグチシ",
    "town": "日吉町",
    "town_kana": "ヒヨシチョウ",
    "street": null,
    "office_name": null,
    "office_name_kana": null
  },
  "0082": {
    "postcode": "5700082",
    "prefecture": "大阪府",
    "prefecture_kana": "オオサカフ",
    "prefecture_code": 27,
    "city": "守口市",
    "city_kana": "モリグチシ",
    "town": "豊秀町",
    "town_kana": "トヨヒデチョウ",
    "street": null,
    "office_name": null,
    "office_name_kana": null
  },
  "0083": {
    "postcode": "5700083",
    "prefecture": "大阪府",
    "prefecture_kana": "オオサカフ",
    "prefecture_code": 27,
    "city": "守口市",
    "city_kana": "モリグチシ",
    "town": "京阪本通",
    "town_kana": "ケイハンホンドオリ",
    "street": null,
    "office_name": null,
    "office_name_kana": null
  },
  "0084": {
    "postcode": "5700084",
    "prefecture": "大阪府",
    "prefecture_kana": "オオサカフ",
    "prefecture_code": 27,
    "city": "守口市",
    "city_kana": "モリグチシ",
    "town": "緑町",
    "town_kana": "ミドリマチ",
    "street": null,
    "office_name": null,
    "office_name_kana": null
  },
  "0085": {
    "postcode": "5700085",
    "prefecture": "大阪府",
    "prefecture_kana": "オオサカフ",
    "prefecture_code": 27,
    "city": "守口市",
    "city_kana": "モリグチシ",
    "town": "松町",
    "town_kana": "マツマチ",
    "street": null,
    "office_name": null,
    "office_name_kana": null
  },
  "0086": {
    "postcode": "5700086",
    "prefecture": "大阪府",
    "prefecture_kana": "オオサカフ",
    "prefecture_code": 27,
    "city": "守口市",
    "city_kana": "モリグチシ",
    "town": "竹町",
    "town_kana": "タケマチ",
    "street": null,
    "office_name": null,
    "office_name_kana": null
  },
  "0087": {
    "postcode": "5700087",
    "prefecture": "大阪府",
    "prefecture_kana": "オオサカフ",
    "prefecture_code": 27,
    "city": "守口市",
    "city_kana": "モリグチシ",
    "town": "梅町",
    "town_kana": "ウメマチ",
    "street": null,
    "office_name": null,
    "office_name_kana": null
  },
  "0091": {
    "postcode": "5700091",
    "prefecture": "大阪府",
    "prefecture_kana": "オオサカフ",
    "prefecture_code": 27,
    "city": "守口市",
    "city_kana": "モリグチシ",
    "town": "北斗町",
    "town_kana": "ホクトチョウ",
    "street": null,
    "office_name": null,
    "office_name_kana": null
  },
  "0092": {
    "postcode": "5700092",
    "prefecture": "大阪府",
    "prefecture_kana": "オオサカフ",
    "prefecture_code": 27,
    "city": "守口市",
    "city_kana": "モリグチシ",
    "town": "日光町",
    "town_kana": "ニッコウチョウ",
    "street": null,
    "office_name": null,
    "office_name_kana": null
  },
  "0093": {
    "postcode": "5700093",
    "prefecture": "大阪府",
    "prefecture_kana": "オオサカフ",
    "prefecture_code": 27,
    "city": "守口市",
    "city_kana": "モリグチシ",
    "town": "浜町",
    "town_kana": "ハママチ",
    "street": null,
    "office_name": null,
    "office_name_kana": null
  },
  "0094": {
    "postcode": "5700094",
    "prefecture": "大阪府",
    "prefecture_kana": "オオサカフ",
    "prefecture_code": 27,
    "city": "守口市",
    "city_kana": "モリグチシ",
    "town": "京阪北本通",
    "town_kana": "ケイハンキタホンドオリ",
    "street": null,
    "office_name": null,
    "office_name_kana": null
  },
  "0095": {
    "postcode": "5700095",
    "prefecture": "大阪府",
    "prefecture_kana": "オオサカフ",
    "prefecture_code": 27,
    "city": "守口市",
    "city_kana": "モリグチシ",
    "town": "八島町",
    "town_kana": "ヤシマチョウ",
    "street": null,
    "office_name": null,
    "office_name_kana": null
  },
  "0096": {
    "postcode": "5700096",
    "prefecture": "大阪府",
    "prefecture_kana": "オオサカフ",
    "prefecture_code": 27,
    "city": "守口市",
    "city_kana": "モリグチシ",
    "town": "外島町",
    "town_kana": "ソトジマチョウ",
    "street": null,
    "office_name": null,
    "office_name_kana": null
  },
  "0097": {
    "postcode": "5700097",
    "prefecture": "大阪府",
    "prefecture_kana": "オオサカフ",
    "prefecture_code": 27,
    "city": "守口市",
    "city_kana": "モリグチシ",
    "town": "桃町",
    "town_kana": "モモマチ",
    "street": null,
    "office_name": null,
    "office_name_kana": null
  },
  "0098": {
    "postcode": "5700098",
    "prefecture": "大阪府",
    "prefecture_kana": "オオサカフ",
    "prefecture_code": 27,
    "city": "守口市",
    "city_kana": "モリグチシ",
    "town": "新橋寺町",
    "town_kana": "シンハシデラチョウ",
    "street": null,
    "office_name": null,
    "office_name_kana": null
  },
  "8501": {
    "postcode": "5708501",
    "prefecture": "大阪府",
    "prefecture_kana": "オオサカフ",
    "prefecture_code": 27,
    "city": "守口市",
    "city_kana": "モリグチシ",
    "town": "八雲中町",
    "town_kana": "ヤグモナカマチ",
    "street": "３丁目１−１",
    "office_name": "松下電器産業　（株）　技術総務センター",
    "office_name_kana": "マツシタデンキサンギヨウ カブシキガイシヤ ギジユツソウムセンタ-"
  },
  "8506": {
    "postcode": "5708506",
    "prefecture": "大阪府",
    "prefecture_kana": "オオサカフ",
    "prefecture_code": 27,
    "city": "守口市",
    "city_kana": "モリグチシ",
    "town": "文園町",
    "town_kana": "フミゾノチョウ",
    "street": "１０−１５",
    "office_name": "関西医科大学",
    "office_name_kana": "カンサイイカダイガク"
  },
  "8507": {
    "postcode": "5708507",
    "prefecture": "大阪府",
    "prefecture_kana": "オオサカフ",
    "prefecture_code": 27,
    "city": "守口市",
    "city_kana": "モリグチシ",
    "town": "文園町",
    "town_kana": "フミゾノチョウ",
    "street": "１０−１５",
    "office_name": "関西医科大学総合医療センター",
    "office_name_kana": "カンサイイカダイガクソウゴウイリヨウセンタ-"
  },
  "8511": {
    "postcode": "5708511",
    "prefecture": "大阪府",
    "prefecture_kana": "オオサカフ",
    "prefecture_code": 27,
    "city": "守口市",
    "city_kana": "モリグチシ",
    "town": "松下町",
    "town_kana": "マツシタチョウ",
    "street": "１番１号",
    "office_name": "パナソニックエナジー　株式会社",
    "office_name_kana": "パナソニツクエナジ- カブシキガイシヤ"
  },
  "8515": {
    "postcode": "5708515",
    "prefecture": "大阪府",
    "prefecture_kana": "オオサカフ",
    "prefecture_code": 27,
    "city": "守口市",
    "city_kana": "モリグチシ",
    "town": "梶町",
    "town_kana": "カジマチ",
    "street": "１丁目４１−５",
    "office_name": "ＮＴＴプリコム　株式会社",
    "office_name_kana": "エヌ・テイ・テイプリコム カブシキガイシヤ"
  },
  "8539": {
    "postcode": "5708539",
    "prefecture": "大阪府",
    "prefecture_kana": "オオサカフ",
    "prefecture_code": 27,
    "city": "守口市",
    "city_kana": "モリグチシ",
    "town": "佐太中町",
    "town_kana": "サタナカマチ",
    "street": "２丁目５−３",
    "office_name": "奥村機械　（株）",
    "office_name_kana": "オクムラキカイ (カ"
  },
  "8540": {
    "postcode": "5708540",
    "prefecture": "大阪府",
    "prefecture_kana": "オオサカフ",
    "prefecture_code": 27,
    "city": "守口市",
    "city_kana": "モリグチシ",
    "town": "外島町",
    "town_kana": "ソトジマチョウ",
    "street": "５−５５",
    "office_name": "松下電器　健康保険組合・松下記念病院・松下健康管理センター",
    "office_name_kana": "マツシタデンキ ケンコウホケンクミアイ・マツシタキネンビヨウイン・マツシタケンコウカンリセンタ-"
  },
  "8555": {
    "postcode": "5708555",
    "prefecture": "大阪府",
    "prefecture_kana": "オオサカフ",
    "prefecture_code": 27,
    "city": "守口市",
    "city_kana": "モリグチシ",
    "town": "藤田町",
    "town_kana": "トウダチョウ",
    "street": "６丁目２１番５７号",
    "office_name": "学校法人　大阪国際学園・大阪国際大学・大阪国際大学短期大学部",
    "office_name_kana": "ガツコウホウジン オオサカコクサイガクエン・オオサカコクサイダイガク・オオサカコクサイダイガクタンキダイガクブ"
  },
  "8558": {
    "postcode": "5708558",
    "prefecture": "大阪府",
    "prefecture_kana": "オオサカフ",
    "prefecture_code": 27,
    "city": "守口市",
    "city_kana": "モリグチシ",
    "town": "河原町",
    "town_kana": "カワハラチョウ",
    "street": "８−３",
    "office_name": "株式会社　京阪百貨店",
    "office_name_kana": "カブシキガイシヤ ケイハンヒヤツカテン"
  },
  "8585": {
    "postcode": "5708585",
    "prefecture": "大阪府",
    "prefecture_kana": "オオサカフ",
    "prefecture_code": 27,
    "city": "守口市",
    "city_kana": "モリグチシ",
    "town": "東郷通",
    "town_kana": "トウゴウドオリ",
    "street": "２丁目７番３０号",
    "office_name": "山岡金属工業　株式会社",
    "office_name_kana": "ヤマオカキンゾクコウギヨウ カブシキガイシヤ"
  },
  "8588": {
    "postcode": "5708588",
    "prefecture": "大阪府",
    "prefecture_kana": "オオサカフ",
    "prefecture_code": 27,
    "city": "守口市",
    "city_kana": "モリグチシ",
    "town": "八雲東町",
    "town_kana": "ヤグモヒガシマチ",
    "street": "１丁目２１−１０",
    "office_name": "いすゞ自動車近畿　株式会社",
    "office_name_kana": "イスズジドウシヤキンキ カブシキガイシヤ"
  },
  "8634": {
    "postcode": "5708634",
    "prefecture": "大阪府",
    "prefecture_kana": "オオサカフ",
    "prefecture_code": 27,
    "city": "守口市",
    "city_kana": "モリグチシ",
    "town": "日吉町",
    "town_kana": "ヒヨシチョウ",
    "street": "２丁目５−１５（守口郵便局私書箱第１８号）",
    "office_name": "三洋電機貿易　株式会社",
    "office_name_kana": "サンヨウデンキボウエキ カブシキガイシヤ"
  },
  "8666": {
    "postcode": "5708666",
    "prefecture": "大阪府",
    "prefecture_kana": "オオサカフ",
    "prefecture_code": 27,
    "city": "守口市",
    "city_kana": "モリグチシ",
    "town": "京阪本通",
    "town_kana": "ケイハンホンドオリ",
    "street": "２丁目５−５（守口郵便局私書箱第１号）",
    "office_name": "守口市役所",
    "office_name_kana": "モリグチシヤクシヨ"
  },
  "8787": {
    "postcode": "5708787",
    "prefecture": "大阪府",
    "prefecture_kana": "オオサカフ",
    "prefecture_code": 27,
    "city": "守口市",
    "city_kana": "モリグチシ",
    "town": "松下町",
    "town_kana": "マツシタチョウ",
    "street": "１番２８号",
    "office_name": "大阪国際中学校高等学校",
    "office_name_kana": "オオサカコクサイチユウガツコウコウトウガツコウ"
  }
}