{
  "0000": {
    "postcode": "5750000",
    "prefecture": "大阪府",
    "prefecture_kana": "オオサカフ",
    "prefecture_code": 27,
    "city": "四條畷市",
    "city_kana": "シジョウナワテシ",
    "town": "",
    "town_kana": "",
    "street": null,
    "office_name": null,
    "office_name_kana": null
  },
  "0001": {
    "postcode": "5750001",
    "prefecture": "大阪府",
    "prefecture_kana": "オオサカフ",
    "prefecture_code": 27,
    "city": "四條畷市",
    "city_kana": "シジョウナワテシ",
    "town": "砂",
    "town_kana": "スナ",
    "street": null,
    "office_name": null,
    "office_name_kana": null
  },
  "0002": {
    "postcode": "5750002",
    "prefecture": "大阪府",
    "prefecture_kana": "オオサカフ",
    "prefecture_code": 27,
    "city": "四條畷市",
    "city_kana": "シジョウナワテシ",
    "town": "岡山",
    "town_kana": "オカヤマ",
    "street": null,
    "office_name": null,
    "office_name_kana": null
  },
  "0003": {
    "postcode": "5750003",
    "prefecture": "大阪府",
    "prefecture_kana": "オオサカフ",
    "prefecture_code": 27,
    "city": "四條畷市",
    "city_kana": "シジョウナワテシ",
    "town": "岡山東",
    "town_kana": "オカヤマヒガシ",
    "street": null,
    "office_name": null,
    "office_name_kana": null
  },
  "0004": {
    "postcode": "5750004",
    "prefecture": "大阪府",
    "prefecture_kana": "オオサカフ",
    "prefecture_code": 27,
    "city": "四條畷市",
    "city_kana": "シジョウナワテシ",
    "town": "岡山",
    "town_kana": "オカヤマ",
    "street": null,
    "office_name": null,
    "office_name_kana": null
  },
  "0011": {
    "postcode": "5750011",
    "prefecture": "大阪府",
    "prefecture_kana": "オオサカフ",
    "prefecture_code": 27,
    "city": "四條畷市",
    "city_kana": "シジョウナワテシ",
    "town": "逢阪",
    "town_kana": "オウサカ",
    "street": null,
    "office_name": null,
    "office_name_kana": null
  },
  "0012": {
    "postcode": "5750012",
    "prefecture": "大阪府",
    "prefecture_kana": "オオサカフ",
    "prefecture_code": 27,
    "city": "四條畷市",
    "city_kana": "シジョウナワテシ",
    "town": "下田原",
    "town_kana": "シモタワラ",
    "street": null,
    "office_name": null,
    "office_name_kana": null
  },
  "0013": {
    "postcode": "5750013",
    "prefecture": "大阪府",
    "prefecture_kana": "オオサカフ",
    "prefecture_code": 27,
    "city": "四條畷市",
    "city_kana": "シジョウナワテシ",
    "town": "田原台",
    "town_kana": "タワラダイ",
    "street": null,
    "office_name": null,
    "office_name_kana": null
  },
  "0014": {
    "postcode": "5750014",
    "prefecture": "大阪府",
    "prefecture_kana": "オオサカフ",
    "prefecture_code": 27,
    "city": "四條畷市",
    "city_kana": "シジョウナワテシ",
    "town": "上田原",
    "town_kana": "カミタワラ",
    "street": null,
    "office_name": null,
    "office_name_kana": null
  },
  "0015": {
    "postcode": "5750015",
    "prefecture": "大阪府",
    "prefecture_kana": "オオサカフ",
    "prefecture_code": 27,
    "city": "四條畷市",
    "city_kana": "シジョウナワテシ",
    "town": "さつきケ丘",
    "town_kana": "サツキガオカ",
    "street": null,
    "office_name": null,
    "office_name_kana": null
  },
  "0016": {
    "postcode": "5750016",
    "prefecture": "大阪府",
    "prefecture_kana": "オオサカフ",
    "prefecture_code": 27,
    "city": "四條畷市",
    "city_kana": "シジョウナワテシ",
    "town": "緑風台",
    "town_kana": "リョクフウダイ",
    "street": null,
    "office_name": null,
    "office_name_kana": null
  },
  "0021": {
    "postcode": "5750021",
    "prefecture": "大阪府",
    "prefecture_kana": "オオサカフ",
    "prefecture_code": 27,
    "city": "四條畷市",
    "city_kana": "シジョウナワテシ",
    "town": "南野",
    "town_kana": "ミナミノ",
    "street": null,
    "office_name": null,
    "office_name_kana": null
  },
  "0022": {
    "postcode": "5750022",
    "prefecture": "大阪府",
    "prefecture_kana": "オオサカフ",
    "prefecture_code": 27,
    "city": "四條畷市",
    "city_kana": "シジョウナワテシ",
    "town": "南野",
    "town_kana": "ミナミノ",
    "street": null,
    "office_name": null,
    "office_name_kana": null
  },
  "0023": {
    "postcode": "5750023",
    "prefecture": "大阪府",
    "prefecture_kana": "オオサカフ",
    "prefecture_code": 27,
    "city": "四條畷市",
    "city_kana": "シジョウナワテシ",
    "town": "楠公",
    "town_kana": "ナンコウ",
    "street": null,
    "office_name": null,
    "office_name_kana": null
  },
  "0024": {
    "postcode": "5750024",
    "prefecture": "大阪府",
    "prefecture_kana": "オオサカフ",
    "prefecture_code": 27,
    "city": "四條畷市",
    "city_kana": "シジョウナワテシ",
    "town": "塚脇町",
    "town_kana": "ツカワキチョウ",
    "street": null,
    "office_name": null,
    "office_name_kana": null
  },
  "0032": {
    "postcode": "5750032",
    "prefecture": "大阪府",
    "prefecture_kana": "オオサカフ",
    "prefecture_code": 27,
    "city": "四條畷市",
    "city_kana": "シジョウナワテシ",
    "town": "米崎町",
    "town_kana": "コメザキチョウ",
    "street": null,
    "office_name": null,
    "office_name_kana": null
  },
  "0033": {
    "postcode": "5750033",
    "prefecture": "大阪府",
    "prefecture_kana": "オオサカフ",
    "prefecture_code": 27,
    "city": "四條畷市",
    "city_kana": "シジョウナワテシ",
    "town": "美田町",
    "town_kana": "ミタチョウ",
    "street": null,
    "office_name": null,
    "office_name_kana": null
  },
  "0034": {
    "postcode": "5750034",
    "prefecture": "大阪府",
    "prefecture_kana": "オオサカフ",
    "prefecture_code": 27,
    "city": "四條畷市",
    "city_kana": "シジョウナワテシ",
    "town": "江瀬美町",
    "town_kana": "エセビチョウ",
    "street": null,
    "office_name": null,
    "office_name_kana": null
  },
  "0035": {
    "postcode": "5750035",
    "prefecture": "大阪府",
    "prefecture_kana": "オオサカフ",
    "prefecture_code": 27,
    "city": "四條畷市",
    "city_kana": "シジョウナワテシ",
    "town": "雁屋北町",
    "town_kana": "カリヤキタマチ",
    "street": null,
    "office_name": null,
    "office_name_kana": null
  },
  "0036": {
    "postcode": "5750036",
    "prefecture": "大阪府",
    "prefecture_kana": "オオサカフ",
    "prefecture_code": 27,
    "city": "四條畷市",
    "city_kana": "シジョウナワテシ",
    "town": "雁屋南町",
    "town_kana": "カリヤミナミマチ",
    "street": null,
    "office_name": null,
    "office_name_kana": null
  },
  "0041": {
    "postcode": "5750041",
    "prefecture": "大阪府",
    "prefecture_kana": "オオサカフ",
    "prefecture_code": 27,
    "city": "四條畷市",
    "city_kana": "シジョウナワテシ",
    "town": "蔀屋新町",
    "town_kana": "シトミヤシンマチ",
    "street": null,
    "office_name": null,
    "office_name_kana": null
  },
  "0042": {
    "postcode": "5750042",
    "prefecture": "大阪府",
    "prefecture_kana": "オオサカフ",
    "prefecture_code": 27,
    "city": "四條畷市",
    "city_kana": "シジョウナワテシ",
    "town": "蔀屋本町",
    "town_kana": "シトミヤホンマチ",
    "street": null,
    "office_name": null,
    "office_name_kana": null
  },
  "0043": {
    "postcode": "5750043",
    "prefecture": "大阪府",
    "prefecture_kana": "オオサカフ",
    "prefecture_code": 27,
    "city": "四條畷市",
    "city_kana": "シジョウナワテシ",
    "town": "北出町",
    "town_kana": "キタデチョウ",
    "street": null,
    "office_name": null,
    "office_name_kana": null
  },
  "0044": {
    "postcode": "5750044",
    "prefecture": "大阪府",
    "prefecture_kana": "オオサカフ",
    "prefecture_code": 27,
    "city": "四條畷市",
    "city_kana": "シジョウナワテシ",
    "town": "二丁通町",
    "town_kana": "ニチョウドオリチョウ",
    "street": null,
    "office_name": null,
    "office_name_kana": null
  },
  "0045": {
    "postcode": "5750045",
    "prefecture": "大阪府",
    "prefecture_kana": "オオサカフ",
    "prefecture_code": 27,
    "city": "四條畷市",
    "city_kana": "シジョウナワテシ",
    "town": "雁屋西町",
    "town_kana": "カリヤニシマチ",
    "street": null,
    "office_name": null,
    "office_name_kana": null
  },
  "0051": {
    "postcode": "5750051",
    "prefecture": "大阪府",
    "prefecture_kana": "オオサカフ",
    "prefecture_code": 27,
    "city": "四條畷市",
    "city_kana": "シジョウナワテシ",
    "town": "中野本町",
    "town_kana": "ナカノホンマチ",
    "street": null,
    "office_name": null,
    "office_name_kana": null
  },
  "0052": {
    "postcode": "5750052",
    "prefecture": "大阪府",
    "prefecture_kana": "オオサカフ",
    "prefecture_code": 27,
    "city": "四條畷市",
    "city_kana": "シジョウナワテシ",
    "town": "中野",
    "town_kana": "ナカノ",
    "street": null,
    "office_name": null,
    "office_name_kana": null
  },
  "0053": {
    "postcode": "5750053",
    "prefecture": "大阪府",
    "prefecture_kana": "オオサカフ",
    "prefecture_code": 27,
    "city": "四條畷市",
    "city_kana": "シジョウナワテシ",
    "town": "中野",
    "town_kana": "ナカノ",
    "street": null,
    "office_name": null,
    "office_name_kana": null
  },
  "0054": {
    "postcode": "5750054",
    "prefecture": "大阪府",
    "prefecture_kana": "オオサカフ",
    "prefecture_code": 27,
    "city": "四條畷市",
    "city_kana": "シジョウナワテシ",
    "town": "中野新町",
    "town_kana": "ナカノシンマチ",
    "street": null,
    "office_name": null,
    "office_name_kana": null
  },
  "0055": {
    "postcode": "5750055",
    "prefecture": "大阪府",
    "prefecture_kana": "オオサカフ",
    "prefecture_code": 27,
    "city": "四條畷市",
    "city_kana": "シジョウナワテシ",
    "town": "西中野",
    "town_kana": "ニシナカノ",
    "street": null,
    "office_name": null,
    "office_name_kana": null
  },
  "0061": {
    "postcode": "5750061",
    "prefecture": "大阪府",
    "prefecture_kana": "オオサカフ",
    "prefecture_code": 27,
    "city": "四條畷市",
    "city_kana": "シジョウナワテシ",
    "town": "清滝中町",
    "town_kana": "キヨタキナカマチ",
    "street": null,
    "office_name": null,
    "office_name_kana": null
  },
  "0062": {
    "postcode": "5750062",
    "prefecture": "大阪府",
    "prefecture_kana": "オオサカフ",
    "prefecture_code": 27,
    "city": "四條畷市",
    "city_kana": "シジョウナワテシ",
    "town": "清滝新町",
    "town_kana": "キヨタキシンマチ",
    "street": null,
    "office_name": null,
    "office_name_kana": null
  },
  "0063": {
    "postcode": "5750063",
    "prefecture": "大阪府",
    "prefecture_kana": "オオサカフ",
    "prefecture_code": 27,
    "city": "四條畷市",
    "city_kana": "シジョウナワテシ",
    "town": "清瀧",
    "town_kana": "キヨタキ",
    "street": null,
    "office_name": null,
    "office_name_kana": null
  },
  "8501": {
    "postcode": "5758501",
    "prefecture": "大阪府",
    "prefecture_kana": "オオサカフ",
    "prefecture_code": 27,
    "city": "四條畷市",
    "city_kana": "シジョウナワテシ",
    "town": "中野本町",
    "town_kana": "ナカノホンマチ",
    "street": "１−１",
    "office_name": "四條畷市役所",
    "office_name_kana": "シジヨウナワテシヤクシヨ"
  },
  "8511": {
    "postcode": "5758511",
    "prefecture": "大阪府",
    "prefecture_kana": "オオサカフ",
    "prefecture_code": 27,
    "city": "四條畷市",
    "city_kana": "シジョウナワテシ",
    "town": "中野本町",
    "town_kana": "ナカノホンマチ",
    "street": "２８−１",
    "office_name": "社会医療法人　信愛会　畷生会　脳神経外科病院",
    "office_name_kana": "シヤカイイリヨウホウジン シンアイカイ テツセイカイ ノウシンケイゲカビヨウイン"
  },
  "8530": {
    "postcode": "5758530",
    "prefecture": "大阪府",
    "prefecture_kana": "オオサカフ",
    "prefecture_code": 27,
    "city": "四條畷市",
    "city_kana": "シジョウナワテシ",
    "town": "蔀屋新町",
    "town_kana": "シトミヤシンマチ",
    "street": "３−５５",
    "office_name": "タイガー魔法瓶　株式会社　パーツセンター",
    "office_name_kana": "タイガ-マホウビン カブシキガイシヤ パ-ツセンタ-"
  },
  "8555": {
    "postcode": "5758555",
    "prefecture": "大阪府",
    "prefecture_kana": "オオサカフ",
    "prefecture_code": 27,
    "city": "四條畷市",
    "city_kana": "シジョウナワテシ",
    "town": "蔀屋新町",
    "town_kana": "シトミヤシンマチ",
    "street": "３−５５",
    "office_name": "大岡広　株式会社",
    "office_name_kana": "オオオカヒロ カブシキガイシヤ"
  },
  "8558": {
    "postcode": "5758558",
    "prefecture": "大阪府",
    "prefecture_kana": "オオサカフ",
    "prefecture_code": 27,
    "city": "四條畷市",
    "city_kana": "シジョウナワテシ",
    "town": "田原台",
    "town_kana": "タワラダイ",
    "street": "７丁目２−４−４０４",
    "office_name": "竹本行政書士事務所",
    "office_name_kana": "タケモトギヨウセイシヨシジムシヨ"
  },
  "8585": {
    "postcode": "5758585",
    "prefecture": "大阪府",
    "prefecture_kana": "オオサカフ",
    "prefecture_code": 27,
    "city": "四條畷市",
    "city_kana": "シジョウナワテシ",
    "town": "岡山東",
    "town_kana": "オカヤマヒガシ",
    "street": "１丁目１−１８",
    "office_name": "サン電子工業　株式会社",
    "office_name_kana": "サンデンシコウギヨウ カブシキガイシヤ"
  },
  "8588": {
    "postcode": "5758588",
    "prefecture": "大阪府",
    "prefecture_kana": "オオサカフ",
    "prefecture_code": 27,
    "city": "四條畷市",
    "city_kana": "シジョウナワテシ",
    "town": "江瀬美町",
    "town_kana": "エセビチョウ",
    "street": "１４−８",
    "office_name": "松本引越センター",
    "office_name_kana": "マツモトヒツコシセンタ-"
  }
}