{
  "0000": [
    {
      "postcode": "5830000",
      "prefecture": "大阪府",
      "prefecture_kana": "オオサカフ",
      "prefecture_code": 27,
      "city": "羽曳野市",
      "city_kana": "ハビキノシ",
      "town": "",
      "town_kana": "",
      "street": null,
      "office_name": null,
      "office_name_kana": null
    },
    {
      "postcode": "5830000",
      "prefecture": "大阪府",
      "prefecture_kana": "オオサカフ",
      "prefecture_code": 27,
      "city": "藤井寺市",
      "city_kana": "フジイデラシ",
      "town": "",
      "town_kana": "",
      "street": null,
      "office_name": null,
      "office_name_kana": null
    },
    {
      "postcode": "5830000",
      "prefecture": "大阪府",
      "prefecture_kana": "オオサカフ",
      "prefecture_code": 27,
      "city": "南河内郡太子町",
      "city_kana": "ミナミカワチグンタイシチョウ",
      "town": "",
      "town_kana": "",
      "street": null,
      "office_name": null,
      "office_name_kana": null
    }
  ],
  "0001": {
    "postcode": "5830001",
    "prefecture": "大阪府",
    "prefecture_kana": "オオサカフ",
    "prefecture_code": 27,
    "city": "藤井寺市",
    "city_kana": "フジイデラシ",
    "town": "川北",
    "town_kana": "カワキタ",
    "street": null,
    "office_name": null,
    "office_name_kana": null
  },
  "0002": {
    "postcode": "5830002",
    "prefecture": "大阪府",
    "prefecture_kana": "オオサカフ",
    "prefecture_code": 27,
    "city": "藤井寺市",
    "city_kana": "フジイデラシ",
    "town": "北條町",
    "town_kana": "ホウジョウチョウ",
    "street": null,
    "office_name": null,
    "office_name_kana": null
  },
  "0003": {
    "postcode": "5830003",
    "prefecture": "大阪府",
    "prefecture_kana": "オオサカフ",
    "prefecture_code": 27,
    "city": "藤井寺市",
    "city_kana": "フジイデラシ",
    "town": "船橋町",
    "town_kana": "フナハシチョウ",
    "street": null,
    "office_name": null,
    "office_name_kana": null
  },
  "0004": {
    "postcode": "5830004",
    "prefecture": "大阪府",
    "prefecture_kana": "オオサカフ",
    "prefecture_code": 27,
    "city": "藤井寺市",
    "city_kana": "フジイデラシ",
    "town": "梅が園町",
    "town_kana": "ウメガエンチョウ",
    "street": null,
    "office_name": null,
    "office_name_kana": null
  },
  "0005": {
    "postcode": "5830005",
    "prefecture": "大阪府",
    "prefecture_kana": "オオサカフ",
    "prefecture_code": 27,
    "city": "藤井寺市",
    "city_kana": "フジイデラシ",
    "town": "惣社",
    "town_kana": "ソウシャ",
    "street": null,
    "office_name": null,
    "office_name_kana": null
  },
  "0006": {
    "postcode": "5830006",
    "prefecture": "大阪府",
    "prefecture_kana": "オオサカフ",
    "prefecture_code": 27,
    "city": "藤井寺市",
    "city_kana": "フジイデラシ",
    "town": "国府",
    "town_kana": "コウ",
    "street": null,
    "office_name": null,
    "office_name_kana": null
  },
  "0007": {
    "postcode": "5830007",
    "prefecture": "大阪府",
    "prefecture_kana": "オオサカフ",
    "prefecture_code": 27,
    "city": "藤井寺市",
    "city_kana": "フジイデラシ",
    "town": "林",
    "town_kana": "ハヤシ",
    "street": null,
    "office_name": null,
    "office_name_kana": null
  },
  "0008": {
    "postcode": "5830008",
    "prefecture": "大阪府",
    "prefecture_kana": "オオサカフ",
    "prefecture_code": 27,
    "city": "藤井寺市",
    "city_kana": "フジイデラシ",
    "town": "大井",
    "town_kana": "オオイ",
    "street": null,
    "office_name": null,
    "office_name_kana": null
  },
  "0009": {
    "postcode": "5830009",
    "prefecture": "大阪府",
    "prefecture_kana": "オオサカフ",
    "prefecture_code": 27,
    "city": "藤井寺市",
    "city_kana": "フジイデラシ",
    "town": "西大井",
    "town_kana": "ニシオオイ",
    "street": null,
    "office_name": null,
    "office_name_kana": null
  },
  "0011": {
    "postcode": "5830011",
    "prefecture": "大阪府",
    "prefecture_kana": "オオサカフ",
    "prefecture_code": 27,
    "city": "藤井寺市",
    "city_kana": "フジイデラシ",
    "town": "沢田",
    "town_kana": "サワダ",
    "street": null,
    "office_name": null,
    "office_name_kana": null
  },
  "0012": {
    "postcode": "5830012",
    "prefecture": "大阪府",
    "prefecture_kana": "オオサカフ",
    "prefecture_code": 27,
    "city": "藤井寺市",
    "city_kana": "フジイデラシ",
    "town": "道明寺",
    "town_kana": "ドウミョウジ",
    "street": null,
    "office_name": null,
    "office_name_kana": null
  },
  "0013": {
    "postcode": "5830013",
    "prefecture": "大阪府",
    "prefecture_kana": "オオサカフ",
    "prefecture_code": 27,
    "city": "藤井寺市",
    "city_kana": "フジイデラシ",
    "town": "古室",
    "town_kana": "コムロ",
    "street": null,
    "office_name": null,
    "office_name_kana": null
  },
  "0014": {
    "postcode": "5830014",
    "prefecture": "大阪府",
    "prefecture_kana": "オオサカフ",
    "prefecture_code": 27,
    "city": "藤井寺市",
    "city_kana": "フジイデラシ",
    "town": "野中",
    "town_kana": "ノナカ",
    "street": null,
    "office_name": null,
    "office_name_kana": null
  },
  "0015": {
    "postcode": "5830015",
    "prefecture": "大阪府",
    "prefecture_kana": "オオサカフ",
    "prefecture_code": 27,
    "city": "藤井寺市",
    "city_kana": "フジイデラシ",
    "town": "青山",
    "town_kana": "アオヤマ",
    "street": null,
    "office_name": null,
    "office_name_kana": null
  },
  "0016": {
    "postcode": "5830016",
    "prefecture": "大阪府",
    "prefecture_kana": "オオサカフ",
    "prefecture_code": 27,
    "city": "藤井寺市",
    "city_kana": "フジイデラシ",
    "town": "陵南町",
    "town_kana": "リョウナンチョウ",
    "street": null,
    "office_name": null,
    "office_name_kana": null
  },
  "0017": {
    "postcode": "5830017",
    "prefecture": "大阪府",
    "prefecture_kana": "オオサカフ",
    "prefecture_code": 27,
    "city": "藤井寺市",
    "city_kana": "フジイデラシ",
    "town": "藤ケ丘",
    "town_kana": "フジガオカ",
    "street": null,
    "office_name": null,
    "office_name_kana": null
  },
  "0018": {
    "postcode": "5830018",
    "prefecture": "大阪府",
    "prefecture_kana": "オオサカフ",
    "prefecture_code": 27,
    "city": "藤井寺市",
    "city_kana": "フジイデラシ",
    "town": "西古室",
    "town_kana": "ニシコムロ",
    "street": null,
    "office_name": null,
    "office_name_kana": null
  },
  "0021": {
    "postcode": "5830021",
    "prefecture": "大阪府",
    "prefecture_kana": "オオサカフ",
    "prefecture_code": 27,
    "city": "藤井寺市",
    "city_kana": "フジイデラシ",
    "town": "御舟町",
    "town_kana": "ミフネチョウ",
    "street": null,
    "office_name": null,
    "office_name_kana": null
  },
  "0022": {
    "postcode": "5830022",
    "prefecture": "大阪府",
    "prefecture_kana": "オオサカフ",
    "prefecture_code": 27,
    "city": "藤井寺市",
    "city_kana": "フジイデラシ",
    "town": "東藤井寺町",
    "town_kana": "ヒガシフジイデラチョウ",
    "street": null,
    "office_name": null,
    "office_name_kana": null
  },
  "0023": {
    "postcode": "5830023",
    "prefecture": "大阪府",
    "prefecture_kana": "オオサカフ",
    "prefecture_code": 27,
    "city": "藤井寺市",
    "city_kana": "フジイデラシ",
    "town": "さくら町",
    "town_kana": "サクラチョウ",
    "street": null,
    "office_name": null,
    "office_name_kana": null
  },
  "0024": {
    "postcode": "5830024",
    "prefecture": "大阪府",
    "prefecture_kana": "オオサカフ",
    "prefecture_code": 27,
    "city": "藤井寺市",
    "city_kana": "フジイデラシ",
    "town": "藤井寺",
    "town_kana": "フジイデラ",
    "street": null,
    "office_name": null,
    "office_name_kana": null
  },
  "0025": {
    "postcode": "5830025",
    "prefecture": "大阪府",
    "prefecture_kana": "オオサカフ",
    "prefecture_code": 27,
    "city": "藤井寺市",
    "city_kana": "フジイデラシ",
    "town": "春日丘新町",
    "town_kana": "カスガオカシンマチ",
    "street": null,
    "office_name": null,
    "office_name_kana": null
  },
  "0026": {
    "postcode": "5830026",
    "prefecture": "大阪府",
    "prefecture_kana": "オオサカフ",
    "prefecture_code": 27,
    "city": "藤井寺市",
    "city_kana": "フジイデラシ",
    "town": "春日丘",
    "town_kana": "カスガオカ",
    "street": null,
    "office_name": null,
    "office_name_kana": null
  },
  "0027": {
    "postcode": "5830027",
    "prefecture": "大阪府",
    "prefecture_kana": "オオサカフ",
    "prefecture_code": 27,
    "city": "藤井寺市",
    "city_kana": "フジイデラシ",
    "town": "岡",
    "town_kana": "オカ",
    "street": null,
    "office_name": null,
    "office_name_kana": null
  },
  "0031": {
    "postcode": "5830031",
    "prefecture": "大阪府",
    "prefecture_kana": "オオサカフ",
    "prefecture_code": 27,
    "city": "藤井寺市",
    "city_kana": "フジイデラシ",
    "town": "小山新町",
    "town_kana": "コヤマシンマチ",
    "street": null,
    "office_name": null,
    "office_name_kana": null
  },
  "0032": {
    "postcode": "5830032",
    "prefecture": "大阪府",
    "prefecture_kana": "オオサカフ",
    "prefecture_code": 27,
    "city": "藤井寺市",
    "city_kana": "フジイデラシ",
    "town": "小山藤美町",
    "town_kana": "コヤマフジミチョウ",
    "street": null,
    "office_name": null,
    "office_name_kana": null
  },
  "0033": {
    "postcode": "5830033",
    "prefecture": "大阪府",
    "prefecture_kana": "オオサカフ",
    "prefecture_code": 27,
    "city": "藤井寺市",
    "city_kana": "フジイデラシ",
    "town": "小山",
    "town_kana": "コヤマ",
    "street": null,
    "office_name": null,
    "office_name_kana": null
  },
  "0034": {
    "postcode": "5830034",
    "prefecture": "大阪府",
    "prefecture_kana": "オオサカフ",
    "prefecture_code": 27,
    "city": "藤井寺市",
    "city_kana": "フジイデラシ",
    "town": "小山藤の里町",
    "town_kana": "コヤマフジノサトチョウ",
    "street": null,
    "office_name": null,
    "office_name_kana": null
  },
  "0035": {
    "postcode": "5830035",
    "prefecture": "大阪府",
    "prefecture_kana": "オオサカフ",
    "prefecture_code": 27,
    "city": "藤井寺市",
    "city_kana": "フジイデラシ",
    "town": "北岡",
    "town_kana": "キタオカ",
    "street": null,
    "office_name": null,
    "office_name_kana": null
  },
  "0036": {
    "postcode": "5830036",
    "prefecture": "大阪府",
    "prefecture_kana": "オオサカフ",
    "prefecture_code": 27,
    "city": "藤井寺市",
    "city_kana": "フジイデラシ",
    "town": "恵美坂",
    "town_kana": "エミサカ",
    "street": null,
    "office_name": null,
    "office_name_kana": null
  },
  "0037": {
    "postcode": "5830037",
    "prefecture": "大阪府",
    "prefecture_kana": "オオサカフ",
    "prefecture_code": 27,
    "city": "藤井寺市",
    "city_kana": "フジイデラシ",
    "town": "津堂",
    "town_kana": "ツドウ",
    "street": null,
    "office_name": null,
    "office_name_kana": null
  },
  "0841": {
    "postcode": "5830841",
    "prefecture": "大阪府",
    "prefecture_kana": "オオサカフ",
    "prefecture_code": 27,
    "city": "羽曳野市",
    "city_kana": "ハビキノシ",
    "town": "駒ケ谷",
    "town_kana": "コマガタニ",
    "street": null,
    "office_name": null,
    "office_name_kana": null
  },
  "0842": {
    "postcode": "5830842",
    "prefecture": "大阪府",
    "prefecture_kana": "オオサカフ",
    "prefecture_code": 27,
    "city": "羽曳野市",
    "city_kana": "ハビキノシ",
    "town": "飛鳥",
    "town_kana": "アスカ",
    "street": null,
    "office_name": null,
    "office_name_kana": null
  },
  "0843": {
    "postcode": "5830843",
    "prefecture": "大阪府",
    "prefecture_kana": "オオサカフ",
    "prefecture_code": 27,
    "city": "羽曳野市",
    "city_kana": "ハビキノシ",
    "town": "通法寺",
    "town_kana": "ツウホウジ",
    "street": null,
    "office_name": null,
    "office_name_kana": null
  },
  "0844": {
    "postcode": "5830844",
    "prefecture": "大阪府",
    "prefecture_kana": "オオサカフ",
    "prefecture_code": 27,
    "city": "羽曳野市",
    "city_kana": "ハビキノシ",
    "town": "壺井",
    "town_kana": "ツボイ",
    "street": null,
    "office_name": null,
    "office_name_kana": null
  },
  "0845": {
    "postcode": "5830845",
    "prefecture": "大阪府",
    "prefecture_kana": "オオサカフ",
    "prefecture_code": 27,
    "city": "羽曳野市",
    "city_kana": "ハビキノシ",
    "town": "広瀬",
    "town_kana": "ヒロセ",
    "street": null,
    "office_name": null,
    "office_name_kana": null
  },
  "0846": {
    "postcode": "5830846",
    "prefecture": "大阪府",
    "prefecture_kana": "オオサカフ",
    "prefecture_code": 27,
    "city": "羽曳野市",
    "city_kana": "ハビキノシ",
    "town": "東阪田",
    "town_kana": "ヒガシサカタ",
    "street": null,
    "office_name": null,
    "office_name_kana": null
  },
  "0847": {
    "postcode": "5830847",
    "prefecture": "大阪府",
    "prefecture_kana": "オオサカフ",
    "prefecture_code": 27,
    "city": "羽曳野市",
    "city_kana": "ハビキノシ",
    "town": "大黒",
    "town_kana": "オグロ",
    "street": null,
    "office_name": null,
    "office_name_kana": null
  },
  "0848": {
    "postcode": "5830848",
    "prefecture": "大阪府",
    "prefecture_kana": "オオサカフ",
    "prefecture_code": 27,
    "city": "羽曳野市",
    "city_kana": "ハビキノシ",
    "town": "川向",
    "town_kana": "カワムカイ",
    "street": null,
    "office_name": null,
    "office_name_kana": null
  },
  "0851": {
    "postcode": "5830851",
    "prefecture": "大阪府",
    "prefecture_kana": "オオサカフ",
    "prefecture_code": 27,
    "city": "羽曳野市",
    "city_kana": "ハビキノシ",
    "town": "碓井",
    "town_kana": "ウスイ",
    "street": null,
    "office_name": null,
    "office_name_kana": null
  },
  "0852": {
    "postcode": "5830852",
    "prefecture": "大阪府",
    "prefecture_kana": "オオサカフ",
    "prefecture_code": 27,
    "city": "羽曳野市",
    "city_kana": "ハビキノシ",
    "town": "古市",
    "town_kana": "フルイチ",
    "street": null,
    "office_name": null,
    "office_name_kana": null
  },
  "0853": {
    "postcode": "5830853",
    "prefecture": "大阪府",
    "prefecture_kana": "オオサカフ",
    "prefecture_code": 27,
    "city": "羽曳野市",
    "city_kana": "ハビキノシ",
    "town": "栄町",
    "town_kana": "サカエマチ",
    "street": null,
    "office_name": null,
    "office_name_kana": null
  },
  "0854": {
    "postcode": "5830854",
    "prefecture": "大阪府",
    "prefecture_kana": "オオサカフ",
    "prefecture_code": 27,
    "city": "羽曳野市",
    "city_kana": "ハビキノシ",
    "town": "軽里",
    "town_kana": "カルサト",
    "street": null,
    "office_name": null,
    "office_name_kana": null
  },
  "0855": {
    "postcode": "5830855",
    "prefecture": "大阪府",
    "prefecture_kana": "オオサカフ",
    "prefecture_code": 27,
    "city": "羽曳野市",
    "city_kana": "ハビキノシ",
    "town": "翠鳥園",
    "town_kana": "スイチョウエン",
    "street": null,
    "office_name": null,
    "office_name_kana": null
  },
  "0856": {
    "postcode": "5830856",
    "prefecture": "大阪府",
    "prefecture_kana": "オオサカフ",
    "prefecture_code": 27,
    "city": "羽曳野市",
    "city_kana": "ハビキノシ",
    "town": "白鳥",
    "town_kana": "ハクチョウ",
    "street": null,
    "office_name": null,
    "office_name_kana": null
  },
  "0857": {
    "postcode": "5830857",
    "prefecture": "大阪府",
    "prefecture_kana": "オオサカフ",
    "prefecture_code": 27,
    "city": "羽曳野市",
    "city_kana": "ハビキノシ",
    "town": "誉田",
    "town_kana": "コンダ",
    "street": null,
    "office_name": null,
    "office_name_kana": null
  },
  "0858": {
    "postcode": "5830858",
    "prefecture": "大阪府",
    "prefecture_kana": "オオサカフ",
    "prefecture_code": 27,
    "city": "羽曳野市",
    "city_kana": "ハビキノシ",
    "town": "南古市",
    "town_kana": "ミナミフルイチ",
    "street": null,
    "office_name": null,
    "office_name_kana": null
  },
  "0861": {
    "postcode": "5830861",
    "prefecture": "大阪府",
    "prefecture_kana": "オオサカフ",
    "prefecture_code": 27,
    "city": "羽曳野市",
    "city_kana": "ハビキノシ",
    "town": "西浦",
    "town_kana": "ニシウラ",
    "street": null,
    "office_name": null,
    "office_name_kana": null
  },
  "0862": {
    "postcode": "5830862",
    "prefecture": "大阪府",
    "prefecture_kana": "オオサカフ",
    "prefecture_code": 27,
    "city": "羽曳野市",
    "city_kana": "ハビキノシ",
    "town": "尺度",
    "town_kana": "シャクド",
    "street": null,
    "office_name": null,
    "office_name_kana": null
  },
  "0863": {
    "postcode": "5830863",
    "prefecture": "大阪府",
    "prefecture_kana": "オオサカフ",
    "prefecture_code": 27,
    "city": "羽曳野市",
    "city_kana": "ハビキノシ",
    "town": "蔵之内",
    "town_kana": "クラノウチ",
    "street": null,
    "office_name": null,
    "office_name_kana": null
  },
  "0864": {
    "postcode": "5830864",
    "prefecture": "大阪府",
    "prefecture_kana": "オオサカフ",
    "prefecture_code": 27,
    "city": "羽曳野市",
    "city_kana": "ハビキノシ",
    "town": "羽曳が丘",
    "town_kana": "ハビキガオカ",
    "street": null,
    "office_name": null,
    "office_name_kana": null
  },
  "0865": {
    "postcode": "5830865",
    "prefecture": "大阪府",
    "prefecture_kana": "オオサカフ",
    "prefecture_code": 27,
    "city": "羽曳野市",
    "city_kana": "ハビキノシ",
    "town": "羽曳が丘西",
    "town_kana": "ハビキガオカニシ",
    "street": null,
    "office_name": null,
    "office_name_kana": null
  },
  "0866": {
    "postcode": "5830866",
    "prefecture": "大阪府",
    "prefecture_kana": "オオサカフ",
    "prefecture_code": 27,
    "city": "羽曳野市",
    "city_kana": "ハビキノシ",
    "town": "埴生野",
    "town_kana": "ハニュウノ",
    "street": null,
    "office_name": null,
    "office_name_kana": null
  },
  "0867": {
    "postcode": "5830867",
    "prefecture": "大阪府",
    "prefecture_kana": "オオサカフ",
    "prefecture_code": 27,
    "city": "羽曳野市",
    "city_kana": "ハビキノシ",
    "town": "河原城",
    "town_kana": "カワハラジョウ",
    "street": null,
    "office_name": null,
    "office_name_kana": null
  },
  "0868": {
    "postcode": "5830868",
    "prefecture": "大阪府",
    "prefecture_kana": "オオサカフ",
    "prefecture_code": 27,
    "city": "羽曳野市",
    "city_kana": "ハビキノシ",
    "town": "学園前",
    "town_kana": "ガクエンマエ",
    "street": null,
    "office_name": null,
    "office_name_kana": null
  },
  "0871": {
    "postcode": "5830871",
    "prefecture": "大阪府",
    "prefecture_kana": "オオサカフ",
    "prefecture_code": 27,
    "city": "羽曳野市",
    "city_kana": "ハビキノシ",
    "town": "野々上",
    "town_kana": "ノノウエ",
    "street": null,
    "office_name": null,
    "office_name_kana": null
  },
  "0872": {
    "postcode": "5830872",
    "prefecture": "大阪府",
    "prefecture_kana": "オオサカフ",
    "prefecture_code": 27,
    "city": "羽曳野市",
    "city_kana": "ハビキノシ",
    "town": "はびきの",
    "town_kana": "ハビキノ",
    "street": null,
    "office_name": null,
    "office_name_kana": null
  },
  "0873": {
    "postcode": "5830873",
    "prefecture": "大阪府",
    "prefecture_kana": "オオサカフ",
    "prefecture_code": 27,
    "city": "羽曳野市",
    "city_kana": "ハビキノシ",
    "town": "桃山台",
    "town_kana": "モモヤマダイ",
    "street": null,
    "office_name": null,
    "office_name_kana": null
  },
  "0874": {
    "postcode": "5830874",
    "prefecture": "大阪府",
    "prefecture_kana": "オオサカフ",
    "prefecture_code": 27,
    "city": "羽曳野市",
    "city_kana": "ハビキノシ",
    "town": "郡戸",
    "town_kana": "コオズ",
    "street": null,
    "office_name": null,
    "office_name_kana": null
  },
  "0875": {
    "postcode": "5830875",
    "prefecture": "大阪府",
    "prefecture_kana": "オオサカフ",
    "prefecture_code": 27,
    "city": "羽曳野市",
    "city_kana": "ハビキノシ",
    "town": "樫山",
    "town_kana": "カシヤマ",
    "street": null,
    "office_name": null,
    "office_name_kana": null
  },
  "0876": {
    "postcode": "5830876",
    "prefecture": "大阪府",
    "prefecture_kana": "オオサカフ",
    "prefecture_code": 27,
    "city": "羽曳野市",
    "city_kana": "ハビキノシ",
    "town": "伊賀",
    "town_kana": "イガ",
    "street": null,
    "office_name": null,
    "office_name_kana": null
  },
  "0881": {
    "postcode": "5830881",
    "prefecture": "大阪府",
    "prefecture_kana": "オオサカフ",
    "prefecture_code": 27,
    "city": "羽曳野市",
    "city_kana": "ハビキノシ",
    "town": "島泉",
    "town_kana": "シマイズミ",
    "street": null,
    "office_name": null,
    "office_name_kana": null
  },
  "0882": {
    "postcode": "5830882",
    "prefecture": "大阪府",
    "prefecture_kana": "オオサカフ",
    "prefecture_code": 27,
    "city": "羽曳野市",
    "city_kana": "ハビキノシ",
    "town": "高鷲",
    "town_kana": "タカワシ",
    "street": null,
    "office_name": null,
    "office_name_kana": null
  },
  "0883": {
    "postcode": "5830883",
    "prefecture": "大阪府",
    "prefecture_kana": "オオサカフ",
    "prefecture_code": 27,
    "city": "羽曳野市",
    "city_kana": "ハビキノシ",
    "town": "向野",
    "town_kana": "ムカイノ",
    "street": null,
    "office_name": null,
    "office_name_kana": null
  },
  "0884": {
    "postcode": "5830884",
    "prefecture": "大阪府",
    "prefecture_kana": "オオサカフ",
    "prefecture_code": 27,
    "city": "羽曳野市",
    "city_kana": "ハビキノシ",
    "town": "野",
    "town_kana": "ノ",
    "street": null,
    "office_name": null,
    "office_name_kana": null
  },
  "0885": {
    "postcode": "5830885",
    "prefecture": "大阪府",
    "prefecture_kana": "オオサカフ",
    "prefecture_code": 27,
    "city": "羽曳野市",
    "city_kana": "ハビキノシ",
    "town": "南恵我之荘",
    "town_kana": "ミナミエガノショウ",
    "street": null,
    "office_name": null,
    "office_name_kana": null
  },
  "0886": {
    "postcode": "5830886",
    "prefecture": "大阪府",
    "prefecture_kana": "オオサカフ",
    "prefecture_code": 27,
    "city": "羽曳野市",
    "city_kana": "ハビキノシ",
    "town": "恵我之荘",
    "town_kana": "エガノショウ",
    "street": null,
    "office_name": null,
    "office_name_kana": null
  },
  "0991": {
    "postcode": "5830991",
    "prefecture": "大阪府",
    "prefecture_kana": "オオサカフ",
    "prefecture_code": 27,
    "city": "南河内郡太子町",
    "city_kana": "ミナミカワチグンタイシチョウ",
    "town": "春日",
    "town_kana": "カスガ",
    "street": null,
    "office_name": null,
    "office_name_kana": null
  },
  "0992": {
    "postcode": "5830992",
    "prefecture": "大阪府",
    "prefecture_kana": "オオサカフ",
    "prefecture_code": 27,
    "city": "南河内郡太子町",
    "city_kana": "ミナミカワチグンタイシチョウ",
    "town": "山田",
    "town_kana": "ヤマダ",
    "street": null,
    "office_name": null,
    "office_name_kana": null
  },
  "0993": {
    "postcode": "5830993",
    "prefecture": "大阪府",
    "prefecture_kana": "オオサカフ",
    "prefecture_code": 27,
    "city": "南河内郡太子町",
    "city_kana": "ミナミカワチグンタイシチョウ",
    "town": "畑",
    "town_kana": "ハタ",
    "street": null,
    "office_name": null,
    "office_name_kana": null
  },
  "0994": {
    "postcode": "5830994",
    "prefecture": "大阪府",
    "prefecture_kana": "オオサカフ",
    "prefecture_code": 27,
    "city": "南河内郡太子町",
    "city_kana": "ミナミカワチグンタイシチョウ",
    "town": "葉室",
    "town_kana": "ハムロ",
    "street": null,
    "office_name": null,
    "office_name_kana": null
  },
  "0995": {
    "postcode": "5830995",
    "prefecture": "大阪府",
    "prefecture_kana": "オオサカフ",
    "prefecture_code": 27,
    "city": "南河内郡太子町",
    "city_kana": "ミナミカワチグンタイシチョウ",
    "town": "太子",
    "town_kana": "タイシ",
    "street": null,
    "office_name": null,
    "office_name_kana": null
  },
  "0996": {
    "postcode": "5830996",
    "prefecture": "大阪府",
    "prefecture_kana": "オオサカフ",
    "prefecture_code": 27,
    "city": "南河内郡太子町",
    "city_kana": "ミナミカワチグンタイシチョウ",
    "town": "聖和台",
    "town_kana": "セイワダイ",
    "street": null,
    "office_name": null,
    "office_name_kana": null
  },
  "8501": {
    "postcode": "5838501",
    "prefecture": "大阪府",
    "prefecture_kana": "オオサカフ",
    "prefecture_code": 27,
    "city": "羽曳野市",
    "city_kana": "ハビキノシ",
    "town": "学園前",
    "town_kana": "ガクエンマエ",
    "street": "３丁目２−１",
    "office_name": "四天王寺大学",
    "office_name_kana": "シテンノウジダイガク"
  },
  "8522": {
    "postcode": "5838522",
    "prefecture": "大阪府",
    "prefecture_kana": "オオサカフ",
    "prefecture_code": 27,
    "city": "藤井寺市",
    "city_kana": "フジイデラシ",
    "town": "津堂",
    "town_kana": "ツドウ",
    "street": "４丁目４３５番地",
    "office_name": "シャープ　株式会社　藤井寺事業所",
    "office_name_kana": "シヤ-プ カブシキガイシヤ フジイデラジギヨウシヨ"
  },
  "8533": {
    "postcode": "5838533",
    "prefecture": "大阪府",
    "prefecture_kana": "オオサカフ",
    "prefecture_code": 27,
    "city": "藤井寺市",
    "city_kana": "フジイデラシ",
    "town": "津堂",
    "town_kana": "ツドウ",
    "street": "４−４３５",
    "office_name": "アマゾン藤井寺フルフィルメントセンター",
    "office_name_kana": "アマゾンフジイデラフルフイルメントセンタ-"
  },
  "8534": {
    "postcode": "5838534",
    "prefecture": "大阪府",
    "prefecture_kana": "オオサカフ",
    "prefecture_code": 27,
    "city": "藤井寺市",
    "city_kana": "フジイデラシ",
    "town": "津堂",
    "town_kana": "ツドウ",
    "street": "４−４３５",
    "office_name": "アマゾン藤井寺ＦＣ",
    "office_name_kana": "アマゾンフジイデラエフシ-"
  },
  "8535": {
    "postcode": "5838535",
    "prefecture": "大阪府",
    "prefecture_kana": "オオサカフ",
    "prefecture_code": 27,
    "city": "藤井寺市",
    "city_kana": "フジイデラシ",
    "town": "津堂",
    "town_kana": "ツドウ",
    "street": "４−４３５",
    "office_name": "アマゾン藤井寺ＦＣ　ＫＩＸ４",
    "office_name_kana": "アマゾンフジイデラエフシ-キツクスフオ-"
  },
  "8550": {
    "postcode": "5838550",
    "prefecture": "大阪府",
    "prefecture_kana": "オオサカフ",
    "prefecture_code": 27,
    "city": "羽曳野市",
    "city_kana": "ハビキノシ",
    "town": "誉田",
    "town_kana": "コンダ",
    "street": "７丁目７２０",
    "office_name": "ミツワ電機工業　株式会社",
    "office_name_kana": "ミツワデンキコウギヨウ カブシキガイシヤ"
  },
  "8555": {
    "postcode": "5838555",
    "prefecture": "大阪府",
    "prefecture_kana": "オオサカフ",
    "prefecture_code": 27,
    "city": "羽曳野市",
    "city_kana": "ハビキノシ",
    "town": "はびきの",
    "town_kana": "ハビキノ",
    "street": "３丁目７番３０号",
    "office_name": "大阪公立大学　羽曳野キャンパス",
    "office_name_kana": "オオサカコウリツダイガク ハビキノキヤンパス"
  },
  "8558": {
    "postcode": "5838558",
    "prefecture": "大阪府",
    "prefecture_kana": "オオサカフ",
    "prefecture_code": 27,
    "city": "藤井寺市",
    "city_kana": "フジイデラシ",
    "town": "春日丘",
    "town_kana": "カスガオカ",
    "street": "３丁目８−１",
    "office_name": "大阪女子短期大学・大阪女子短期大学高等学校",
    "office_name_kana": "オオサカジヨシタンキダイガク・オオサカジヨシタンキダイガクコウトウガツコウ"
  },
  "8563": {
    "postcode": "5838563",
    "prefecture": "大阪府",
    "prefecture_kana": "オオサカフ",
    "prefecture_code": 27,
    "city": "藤井寺市",
    "city_kana": "フジイデラシ",
    "town": "北岡",
    "town_kana": "キタオカ",
    "street": "２丁目３−１８",
    "office_name": "ニチバン　株式会社　大阪工場",
    "office_name_kana": "ニチバン カブシキガイシヤ オオサカコウジヨウ"
  },
  "8580": {
    "postcode": "5838580",
    "prefecture": "大阪府",
    "prefecture_kana": "オオサカフ",
    "prefecture_code": 27,
    "city": "南河内郡太子町",
    "city_kana": "ミナミカワチグンタイシチョウ",
    "town": "大字山田",
    "town_kana": null,
    "street": "８８",
    "office_name": "太子町役場",
    "office_name_kana": "タイシチヨウヤクバ"
  },
  "8583": {
    "postcode": "5838583",
    "prefecture": "大阪府",
    "prefecture_kana": "オオサカフ",
    "prefecture_code": 27,
    "city": "藤井寺市",
    "city_kana": "フジイデラシ",
    "town": "岡",
    "town_kana": "オカ",
    "street": "１丁目１−１",
    "office_name": "藤井寺市役所",
    "office_name_kana": "フジイデラシヤクシヨ"
  },
  "8585": {
    "postcode": "5838585",
    "prefecture": "大阪府",
    "prefecture_kana": "オオサカフ",
    "prefecture_code": 27,
    "city": "羽曳野市",
    "city_kana": "ハビキノシ",
    "town": "誉田",
    "town_kana": "コンダ",
    "street": "４丁目１−１",
    "office_name": "羽曳野市役所",
    "office_name_kana": "ハビキノシヤクシヨ"
  },
  "8588": {
    "postcode": "5838588",
    "prefecture": "大阪府",
    "prefecture_kana": "オオサカフ",
    "prefecture_code": 27,
    "city": "羽曳野市",
    "city_kana": "ハビキノシ",
    "town": "はびきの",
    "town_kana": "ハビキノ",
    "street": "３丁目７−１",
    "office_name": "大阪府立　羽曳野病院",
    "office_name_kana": "オオサカフリツ ハビキノビヨウイン"
  }
}