{
  "0000": {
    "postcode": "5870000",
    "prefecture": "大阪府",
    "prefecture_kana": "オオサカフ",
    "prefecture_code": 27,
    "city": "堺市美原区",
    "city_kana": "サカイシミハラク",
    "town": "",
    "town_kana": "",
    "street": null,
    "office_name": null,
    "office_name_kana": null
  },
  "0001": {
    "postcode": "5870001",
    "prefecture": "大阪府",
    "prefecture_kana": "オオサカフ",
    "prefecture_code": 27,
    "city": "堺市美原区",
    "city_kana": "サカイシミハラク",
    "town": "大保",
    "town_kana": "ダイホ",
    "street": null,
    "office_name": null,
    "office_name_kana": null
  },
  "0002": {
    "postcode": "5870002",
    "prefecture": "大阪府",
    "prefecture_kana": "オオサカフ",
    "prefecture_code": 27,
    "city": "堺市美原区",
    "city_kana": "サカイシミハラク",
    "town": "黒山",
    "town_kana": "クロヤマ",
    "street": null,
    "office_name": null,
    "office_name_kana": null
  },
  "0003": {
    "postcode": "5870003",
    "prefecture": "大阪府",
    "prefecture_kana": "オオサカフ",
    "prefecture_code": 27,
    "city": "堺市美原区",
    "city_kana": "サカイシミハラク",
    "town": "阿弥",
    "town_kana": "アミ",
    "street": null,
    "office_name": null,
    "office_name_kana": null
  },
  "0011": {
    "postcode": "5870011",
    "prefecture": "大阪府",
    "prefecture_kana": "オオサカフ",
    "prefecture_code": 27,
    "city": "堺市美原区",
    "city_kana": "サカイシミハラク",
    "town": "丹上",
    "town_kana": "タンジョウ",
    "street": null,
    "office_name": null,
    "office_name_kana": null
  },
  "0012": {
    "postcode": "5870012",
    "prefecture": "大阪府",
    "prefecture_kana": "オオサカフ",
    "prefecture_code": 27,
    "city": "堺市美原区",
    "city_kana": "サカイシミハラク",
    "town": "多治井",
    "town_kana": "タジイ",
    "street": null,
    "office_name": null,
    "office_name_kana": null
  },
  "0013": {
    "postcode": "5870013",
    "prefecture": "大阪府",
    "prefecture_kana": "オオサカフ",
    "prefecture_code": 27,
    "city": "堺市美原区",
    "city_kana": "サカイシミハラク",
    "town": "真福寺",
    "town_kana": "シンプクジ",
    "street": null,
    "office_name": null,
    "office_name_kana": null
  },
  "0014": {
    "postcode": "5870014",
    "prefecture": "大阪府",
    "prefecture_kana": "オオサカフ",
    "prefecture_code": 27,
    "city": "堺市美原区",
    "city_kana": "サカイシミハラク",
    "town": "丹南",
    "town_kana": "タンナン",
    "street": null,
    "office_name": null,
    "office_name_kana": null
  },
  "0021": {
    "postcode": "5870021",
    "prefecture": "大阪府",
    "prefecture_kana": "オオサカフ",
    "prefecture_code": 27,
    "city": "堺市美原区",
    "city_kana": "サカイシミハラク",
    "town": "小平尾",
    "town_kana": "コビラオ",
    "street": null,
    "office_name": null,
    "office_name_kana": null
  },
  "0022": {
    "postcode": "5870022",
    "prefecture": "大阪府",
    "prefecture_kana": "オオサカフ",
    "prefecture_code": 27,
    "city": "堺市美原区",
    "city_kana": "サカイシミハラク",
    "town": "平尾",
    "town_kana": "ヒラオ",
    "street": null,
    "office_name": null,
    "office_name_kana": null
  },
  "0031": {
    "postcode": "5870031",
    "prefecture": "大阪府",
    "prefecture_kana": "オオサカフ",
    "prefecture_code": 27,
    "city": "堺市美原区",
    "city_kana": "サカイシミハラク",
    "town": "さつき野西",
    "town_kana": "サツキノニシ",
    "street": null,
    "office_name": null,
    "office_name_kana": null
  },
  "0032": {
    "postcode": "5870032",
    "prefecture": "大阪府",
    "prefecture_kana": "オオサカフ",
    "prefecture_code": 27,
    "city": "堺市美原区",
    "city_kana": "サカイシミハラク",
    "town": "さつき野東",
    "town_kana": "サツキノヒガシ",
    "street": null,
    "office_name": null,
    "office_name_kana": null
  },
  "0041": {
    "postcode": "5870041",
    "prefecture": "大阪府",
    "prefecture_kana": "オオサカフ",
    "prefecture_code": 27,
    "city": "堺市美原区",
    "city_kana": "サカイシミハラク",
    "town": "菅生",
    "town_kana": "スゴウ",
    "street": null,
    "office_name": null,
    "office_name_kana": null
  },
  "0042": {
    "postcode": "5870042",
    "prefecture": "大阪府",
    "prefecture_kana": "オオサカフ",
    "prefecture_code": 27,
    "city": "堺市美原区",
    "city_kana": "サカイシミハラク",
    "town": "木材通",
    "town_kana": "モクザイドオリ",
    "street": null,
    "office_name": null,
    "office_name_kana": null
  },
  "0043": {
    "postcode": "5870043",
    "prefecture": "大阪府",
    "prefecture_kana": "オオサカフ",
    "prefecture_code": 27,
    "city": "堺市美原区",
    "city_kana": "サカイシミハラク",
    "town": "青南台",
    "town_kana": "セイナンダイ",
    "street": null,
    "office_name": null,
    "office_name_kana": null
  },
  "0051": {
    "postcode": "5870051",
    "prefecture": "大阪府",
    "prefecture_kana": "オオサカフ",
    "prefecture_code": 27,
    "city": "堺市美原区",
    "city_kana": "サカイシミハラク",
    "town": "北余部",
    "town_kana": "キタアマベ",
    "street": null,
    "office_name": null,
    "office_name_kana": null
  },
  "0052": {
    "postcode": "5870052",
    "prefecture": "大阪府",
    "prefecture_kana": "オオサカフ",
    "prefecture_code": 27,
    "city": "堺市美原区",
    "city_kana": "サカイシミハラク",
    "town": "南余部",
    "town_kana": "ミナミアマベ",
    "street": null,
    "office_name": null,
    "office_name_kana": null
  },
  "0053": {
    "postcode": "5870053",
    "prefecture": "大阪府",
    "prefecture_kana": "オオサカフ",
    "prefecture_code": 27,
    "city": "堺市美原区",
    "city_kana": "サカイシミハラク",
    "town": "北余部西",
    "town_kana": "キタアマベニシ",
    "street": null,
    "office_name": null,
    "office_name_kana": null
  },
  "0054": {
    "postcode": "5870054",
    "prefecture": "大阪府",
    "prefecture_kana": "オオサカフ",
    "prefecture_code": 27,
    "city": "堺市美原区",
    "city_kana": "サカイシミハラク",
    "town": "南余部西",
    "town_kana": "ミナミアマベニシ",
    "street": null,
    "office_name": null,
    "office_name_kana": null
  },
  "0061": {
    "postcode": "5870061",
    "prefecture": "大阪府",
    "prefecture_kana": "オオサカフ",
    "prefecture_code": 27,
    "city": "堺市美原区",
    "city_kana": "サカイシミハラク",
    "town": "今井",
    "town_kana": "イマイ",
    "street": null,
    "office_name": null,
    "office_name_kana": null
  },
  "0062": {
    "postcode": "5870062",
    "prefecture": "大阪府",
    "prefecture_kana": "オオサカフ",
    "prefecture_code": 27,
    "city": "堺市美原区",
    "city_kana": "サカイシミハラク",
    "town": "太井",
    "town_kana": "タイ",
    "street": null,
    "office_name": null,
    "office_name_kana": null
  },
  "0063": {
    "postcode": "5870063",
    "prefecture": "大阪府",
    "prefecture_kana": "オオサカフ",
    "prefecture_code": 27,
    "city": "堺市美原区",
    "city_kana": "サカイシミハラク",
    "town": "大饗",
    "town_kana": "オワイ",
    "street": null,
    "office_name": null,
    "office_name_kana": null
  },
  "0064": {
    "postcode": "5870064",
    "prefecture": "大阪府",
    "prefecture_kana": "オオサカフ",
    "prefecture_code": 27,
    "city": "堺市美原区",
    "city_kana": "サカイシミハラク",
    "town": "菩提",
    "town_kana": "ボダイ",
    "street": null,
    "office_name": null,
    "office_name_kana": null
  },
  "0065": {
    "postcode": "5870065",
    "prefecture": "大阪府",
    "prefecture_kana": "オオサカフ",
    "prefecture_code": 27,
    "city": "堺市美原区",
    "city_kana": "サカイシミハラク",
    "town": "小寺",
    "town_kana": "コデラ",
    "street": null,
    "office_name": null,
    "office_name_kana": null
  },
  "0066": {
    "postcode": "5870066",
    "prefecture": "大阪府",
    "prefecture_kana": "オオサカフ",
    "prefecture_code": 27,
    "city": "堺市美原区",
    "city_kana": "サカイシミハラク",
    "town": "石原",
    "town_kana": "イシハラ",
    "street": null,
    "office_name": null,
    "office_name_kana": null
  },
  "8555": {
    "postcode": "5878555",
    "prefecture": "大阪府",
    "prefecture_kana": "オオサカフ",
    "prefecture_code": 27,
    "city": "堺市美原区",
    "city_kana": "サカイシミハラク",
    "town": "平尾",
    "town_kana": "ヒラオ",
    "street": "１０６０−１",
    "office_name": "学校法人　天満学園　太成学院大学",
    "office_name_kana": "ガツコウホウジン テンマガクエン タイセイガクインダイガク"
  },
  "8577": {
    "postcode": "5878577",
    "prefecture": "大阪府",
    "prefecture_kana": "オオサカフ",
    "prefecture_code": 27,
    "city": "堺市美原区",
    "city_kana": "サカイシミハラク",
    "town": "黒山",
    "town_kana": "クロヤマ",
    "street": "２２番１",
    "office_name": "三井ショッピングパーク　ららぽーと堺",
    "office_name_kana": "ミツイシヨツピングパ-ク ララポ-トサカイ"
  },
  "8585": {
    "postcode": "5878585",
    "prefecture": "大阪府",
    "prefecture_kana": "オオサカフ",
    "prefecture_code": 27,
    "city": "堺市美原区",
    "city_kana": "サカイシミハラク",
    "town": "黒山",
    "town_kana": "クロヤマ",
    "street": "１６７−１",
    "office_name": "美原区役所",
    "office_name_kana": "ミハラクヤクシヨ"
  },
  "8586": {
    "postcode": "5878586",
    "prefecture": "大阪府",
    "prefecture_kana": "オオサカフ",
    "prefecture_code": 27,
    "city": "堺市美原区",
    "city_kana": "サカイシミハラク",
    "town": "黒山",
    "town_kana": "クロヤマ",
    "street": "１６７−９",
    "office_name": "美原区役所　別館",
    "office_name_kana": "ミハラクヤクシヨ ベツカン"
  }
}