{
  "0000": {
    "postcode": "5940000",
    "prefecture": "大阪府",
    "prefecture_kana": "オオサカフ",
    "prefecture_code": 27,
    "city": "和泉市",
    "city_kana": "イズミシ",
    "town": "",
    "town_kana": "",
    "street": null,
    "office_name": null,
    "office_name_kana": null
  },
  "0001": {
    "postcode": "5940001",
    "prefecture": "大阪府",
    "prefecture_kana": "オオサカフ",
    "prefecture_code": 27,
    "city": "和泉市",
    "city_kana": "イズミシ",
    "town": "舞町",
    "town_kana": "マイチョウ",
    "street": null,
    "office_name": null,
    "office_name_kana": null
  },
  "0002": {
    "postcode": "5940002",
    "prefecture": "大阪府",
    "prefecture_kana": "オオサカフ",
    "prefecture_code": 27,
    "city": "和泉市",
    "city_kana": "イズミシ",
    "town": "上町",
    "town_kana": "カミチョウ",
    "street": null,
    "office_name": null,
    "office_name_kana": null
  },
  "0003": {
    "postcode": "5940003",
    "prefecture": "大阪府",
    "prefecture_kana": "オオサカフ",
    "prefecture_code": 27,
    "city": "和泉市",
    "city_kana": "イズミシ",
    "town": "太町",
    "town_kana": "タイチョウ",
    "street": null,
    "office_name": null,
    "office_name_kana": null
  },
  "0004": {
    "postcode": "5940004",
    "prefecture": "大阪府",
    "prefecture_kana": "オオサカフ",
    "prefecture_code": 27,
    "city": "和泉市",
    "city_kana": "イズミシ",
    "town": "王子町",
    "town_kana": "オウジチョウ",
    "street": null,
    "office_name": null,
    "office_name_kana": null
  },
  "0005": {
    "postcode": "5940005",
    "prefecture": "大阪府",
    "prefecture_kana": "オオサカフ",
    "prefecture_code": 27,
    "city": "和泉市",
    "city_kana": "イズミシ",
    "town": "幸",
    "town_kana": "サイワイ",
    "street": null,
    "office_name": null,
    "office_name_kana": null
  },
  "0006": {
    "postcode": "5940006",
    "prefecture": "大阪府",
    "prefecture_kana": "オオサカフ",
    "prefecture_code": 27,
    "city": "和泉市",
    "city_kana": "イズミシ",
    "town": "尾井町",
    "town_kana": "オノイチョウ",
    "street": null,
    "office_name": null,
    "office_name_kana": null
  },
  "0011": {
    "postcode": "5940011",
    "prefecture": "大阪府",
    "prefecture_kana": "オオサカフ",
    "prefecture_code": 27,
    "city": "和泉市",
    "city_kana": "イズミシ",
    "town": "上代町",
    "town_kana": "ウエダイチョウ",
    "street": null,
    "office_name": null,
    "office_name_kana": null
  },
  "0012": {
    "postcode": "5940012",
    "prefecture": "大阪府",
    "prefecture_kana": "オオサカフ",
    "prefecture_code": 27,
    "city": "和泉市",
    "city_kana": "イズミシ",
    "town": "小野町",
    "town_kana": "オノチョウ",
    "street": null,
    "office_name": null,
    "office_name_kana": null
  },
  "0013": {
    "postcode": "5940013",
    "prefecture": "大阪府",
    "prefecture_kana": "オオサカフ",
    "prefecture_code": 27,
    "city": "和泉市",
    "city_kana": "イズミシ",
    "town": "鶴山台",
    "town_kana": "ツルヤマダイ",
    "street": null,
    "office_name": null,
    "office_name_kana": null
  },
  "0021": {
    "postcode": "5940021",
    "prefecture": "大阪府",
    "prefecture_kana": "オオサカフ",
    "prefecture_code": 27,
    "city": "和泉市",
    "city_kana": "イズミシ",
    "town": "山荘町",
    "town_kana": "サンソウチョウ",
    "street": null,
    "office_name": null,
    "office_name_kana": null
  },
  "0022": {
    "postcode": "5940022",
    "prefecture": "大阪府",
    "prefecture_kana": "オオサカフ",
    "prefecture_code": 27,
    "city": "和泉市",
    "city_kana": "イズミシ",
    "town": "黒鳥町",
    "town_kana": "クロドリチョウ",
    "street": null,
    "office_name": null,
    "office_name_kana": null
  },
  "0023": {
    "postcode": "5940023",
    "prefecture": "大阪府",
    "prefecture_kana": "オオサカフ",
    "prefecture_code": 27,
    "city": "和泉市",
    "city_kana": "イズミシ",
    "town": "伯太町",
    "town_kana": "ハカタチョウ",
    "street": null,
    "office_name": null,
    "office_name_kana": null
  },
  "0031": {
    "postcode": "5940031",
    "prefecture": "大阪府",
    "prefecture_kana": "オオサカフ",
    "prefecture_code": 27,
    "city": "和泉市",
    "city_kana": "イズミシ",
    "town": "伏屋町",
    "town_kana": "フセヤチョウ",
    "street": null,
    "office_name": null,
    "office_name_kana": null
  },
  "0032": {
    "postcode": "5940032",
    "prefecture": "大阪府",
    "prefecture_kana": "オオサカフ",
    "prefecture_code": 27,
    "city": "和泉市",
    "city_kana": "イズミシ",
    "town": "池田下町",
    "town_kana": "イケダシモチョウ",
    "street": null,
    "office_name": null,
    "office_name_kana": null
  },
  "0041": {
    "postcode": "5940041",
    "prefecture": "大阪府",
    "prefecture_kana": "オオサカフ",
    "prefecture_code": 27,
    "city": "和泉市",
    "city_kana": "イズミシ",
    "town": "いぶき野",
    "town_kana": "イブキノ",
    "street": null,
    "office_name": null,
    "office_name_kana": null
  },
  "0042": {
    "postcode": "5940042",
    "prefecture": "大阪府",
    "prefecture_kana": "オオサカフ",
    "prefecture_code": 27,
    "city": "和泉市",
    "city_kana": "イズミシ",
    "town": "箕形町",
    "town_kana": "ミガタチョウ",
    "street": null,
    "office_name": null,
    "office_name_kana": null
  },
  "0051": {
    "postcode": "5940051",
    "prefecture": "大阪府",
    "prefecture_kana": "オオサカフ",
    "prefecture_code": 27,
    "city": "和泉市",
    "city_kana": "イズミシ",
    "town": "東阪本町",
    "town_kana": "ヒガシサカモトチョウ",
    "street": null,
    "office_name": null,
    "office_name_kana": null
  },
  "0052": {
    "postcode": "5940052",
    "prefecture": "大阪府",
    "prefecture_kana": "オオサカフ",
    "prefecture_code": 27,
    "city": "和泉市",
    "city_kana": "イズミシ",
    "town": "阪本町",
    "town_kana": "サカモトチョウ",
    "street": null,
    "office_name": null,
    "office_name_kana": null
  },
  "0053": {
    "postcode": "5940053",
    "prefecture": "大阪府",
    "prefecture_kana": "オオサカフ",
    "prefecture_code": 27,
    "city": "和泉市",
    "city_kana": "イズミシ",
    "town": "芦部町",
    "town_kana": "アシベチョウ",
    "street": null,
    "office_name": null,
    "office_name_kana": null
  },
  "0054": {
    "postcode": "5940054",
    "prefecture": "大阪府",
    "prefecture_kana": "オオサカフ",
    "prefecture_code": 27,
    "city": "和泉市",
    "city_kana": "イズミシ",
    "town": "一条院町",
    "town_kana": "イチジョウインチョウ",
    "street": null,
    "office_name": null,
    "office_name_kana": null
  },
  "0061": {
    "postcode": "5940061",
    "prefecture": "大阪府",
    "prefecture_kana": "オオサカフ",
    "prefecture_code": 27,
    "city": "和泉市",
    "city_kana": "イズミシ",
    "town": "弥生町",
    "town_kana": "ヤヨイチョウ",
    "street": null,
    "office_name": null,
    "office_name_kana": null
  },
  "0062": {
    "postcode": "5940062",
    "prefecture": "大阪府",
    "prefecture_kana": "オオサカフ",
    "prefecture_code": 27,
    "city": "和泉市",
    "city_kana": "イズミシ",
    "town": "寺田町",
    "town_kana": "テラダチョウ",
    "street": null,
    "office_name": null,
    "office_name_kana": null
  },
  "0063": {
    "postcode": "5940063",
    "prefecture": "大阪府",
    "prefecture_kana": "オオサカフ",
    "prefecture_code": 27,
    "city": "和泉市",
    "city_kana": "イズミシ",
    "town": "今福町",
    "town_kana": "イマフクチョウ",
    "street": null,
    "office_name": null,
    "office_name_kana": null
  },
  "0064": {
    "postcode": "5940064",
    "prefecture": "大阪府",
    "prefecture_kana": "オオサカフ",
    "prefecture_code": 27,
    "city": "和泉市",
    "city_kana": "イズミシ",
    "town": "寺門町",
    "town_kana": "テラカドチョウ",
    "street": null,
    "office_name": null,
    "office_name_kana": null
  },
  "0065": {
    "postcode": "5940065",
    "prefecture": "大阪府",
    "prefecture_kana": "オオサカフ",
    "prefecture_code": 27,
    "city": "和泉市",
    "city_kana": "イズミシ",
    "town": "観音寺町",
    "town_kana": "カンノンジチョウ",
    "street": null,
    "office_name": null,
    "office_name_kana": null
  },
  "0066": {
    "postcode": "5940066",
    "prefecture": "大阪府",
    "prefecture_kana": "オオサカフ",
    "prefecture_code": 27,
    "city": "和泉市",
    "city_kana": "イズミシ",
    "town": "桑原町",
    "town_kana": "クワバラチョウ",
    "street": null,
    "office_name": null,
    "office_name_kana": null
  },
  "0071": {
    "postcode": "5940071",
    "prefecture": "大阪府",
    "prefecture_kana": "オオサカフ",
    "prefecture_code": 27,
    "city": "和泉市",
    "city_kana": "イズミシ",
    "town": "府中町",
    "town_kana": "フチュウチョウ",
    "street": null,
    "office_name": null,
    "office_name_kana": null
  },
  "0072": {
    "postcode": "5940072",
    "prefecture": "大阪府",
    "prefecture_kana": "オオサカフ",
    "prefecture_code": 27,
    "city": "和泉市",
    "city_kana": "イズミシ",
    "town": "井ノ口町",
    "town_kana": "イノクチチョウ",
    "street": null,
    "office_name": null,
    "office_name_kana": null
  },
  "0073": {
    "postcode": "5940073",
    "prefecture": "大阪府",
    "prefecture_kana": "オオサカフ",
    "prefecture_code": 27,
    "city": "和泉市",
    "city_kana": "イズミシ",
    "town": "和気町",
    "town_kana": "ワケチョウ",
    "street": null,
    "office_name": null,
    "office_name_kana": null
  },
  "0074": {
    "postcode": "5940074",
    "prefecture": "大阪府",
    "prefecture_kana": "オオサカフ",
    "prefecture_code": 27,
    "city": "和泉市",
    "city_kana": "イズミシ",
    "town": "小田町",
    "town_kana": "オダチョウ",
    "street": null,
    "office_name": null,
    "office_name_kana": null
  },
  "0075": {
    "postcode": "5940075",
    "prefecture": "大阪府",
    "prefecture_kana": "オオサカフ",
    "prefecture_code": 27,
    "city": "和泉市",
    "city_kana": "イズミシ",
    "town": "繁和町",
    "town_kana": "ハンワチョウ",
    "street": null,
    "office_name": null,
    "office_name_kana": null
  },
  "0076": {
    "postcode": "5940076",
    "prefecture": "大阪府",
    "prefecture_kana": "オオサカフ",
    "prefecture_code": 27,
    "city": "和泉市",
    "city_kana": "イズミシ",
    "town": "肥子町",
    "town_kana": "ヒコチョウ",
    "street": null,
    "office_name": null,
    "office_name_kana": null
  },
  "0081": {
    "postcode": "5940081",
    "prefecture": "大阪府",
    "prefecture_kana": "オオサカフ",
    "prefecture_code": 27,
    "city": "和泉市",
    "city_kana": "イズミシ",
    "town": "葛の葉町",
    "town_kana": "クズノハチョウ",
    "street": null,
    "office_name": null,
    "office_name_kana": null
  },
  "0082": {
    "postcode": "5940082",
    "prefecture": "大阪府",
    "prefecture_kana": "オオサカフ",
    "prefecture_code": 27,
    "city": "和泉市",
    "city_kana": "イズミシ",
    "town": "富秋町",
    "town_kana": "トミアキチョウ",
    "street": null,
    "office_name": null,
    "office_name_kana": null
  },
  "0083": {
    "postcode": "5940083",
    "prefecture": "大阪府",
    "prefecture_kana": "オオサカフ",
    "prefecture_code": 27,
    "city": "和泉市",
    "city_kana": "イズミシ",
    "town": "池上町",
    "town_kana": "イケガミチョウ",
    "street": null,
    "office_name": null,
    "office_name_kana": null
  },
  "1101": {
    "postcode": "5941101",
    "prefecture": "大阪府",
    "prefecture_kana": "オオサカフ",
    "prefecture_code": 27,
    "city": "和泉市",
    "city_kana": "イズミシ",
    "town": "室堂町",
    "town_kana": "ムロドウチョウ",
    "street": null,
    "office_name": null,
    "office_name_kana": null
  },
  "1102": {
    "postcode": "5941102",
    "prefecture": "大阪府",
    "prefecture_kana": "オオサカフ",
    "prefecture_code": 27,
    "city": "和泉市",
    "city_kana": "イズミシ",
    "town": "和田町",
    "town_kana": "ワダチョウ",
    "street": null,
    "office_name": null,
    "office_name_kana": null
  },
  "1103": {
    "postcode": "5941103",
    "prefecture": "大阪府",
    "prefecture_kana": "オオサカフ",
    "prefecture_code": 27,
    "city": "和泉市",
    "city_kana": "イズミシ",
    "town": "浦田町",
    "town_kana": "ウラダチョウ",
    "street": null,
    "office_name": null,
    "office_name_kana": null
  },
  "1104": {
    "postcode": "5941104",
    "prefecture": "大阪府",
    "prefecture_kana": "オオサカフ",
    "prefecture_code": 27,
    "city": "和泉市",
    "city_kana": "イズミシ",
    "town": "万町",
    "town_kana": "マンチョウ",
    "street": null,
    "office_name": null,
    "office_name_kana": null
  },
  "1105": {
    "postcode": "5941105",
    "prefecture": "大阪府",
    "prefecture_kana": "オオサカフ",
    "prefecture_code": 27,
    "city": "和泉市",
    "city_kana": "イズミシ",
    "town": "のぞみ野",
    "town_kana": "ノゾミノ",
    "street": null,
    "office_name": null,
    "office_name_kana": null
  },
  "1106": {
    "postcode": "5941106",
    "prefecture": "大阪府",
    "prefecture_kana": "オオサカフ",
    "prefecture_code": 27,
    "city": "和泉市",
    "city_kana": "イズミシ",
    "town": "はつが野",
    "town_kana": "ハツガノ",
    "street": null,
    "office_name": null,
    "office_name_kana": null
  },
  "1111": {
    "postcode": "5941111",
    "prefecture": "大阪府",
    "prefecture_kana": "オオサカフ",
    "prefecture_code": 27,
    "city": "和泉市",
    "city_kana": "イズミシ",
    "town": "光明台",
    "town_kana": "コウミョウダイ",
    "street": null,
    "office_name": null,
    "office_name_kana": null
  },
  "1112": {
    "postcode": "5941112",
    "prefecture": "大阪府",
    "prefecture_kana": "オオサカフ",
    "prefecture_code": 27,
    "city": "和泉市",
    "city_kana": "イズミシ",
    "town": "三林町",
    "town_kana": "ミバヤシチョウ",
    "street": null,
    "office_name": null,
    "office_name_kana": null
  },
  "1113": {
    "postcode": "5941113",
    "prefecture": "大阪府",
    "prefecture_kana": "オオサカフ",
    "prefecture_code": 27,
    "city": "和泉市",
    "city_kana": "イズミシ",
    "town": "黒石町",
    "town_kana": "クロイシチョウ",
    "street": null,
    "office_name": null,
    "office_name_kana": null
  },
  "1114": {
    "postcode": "5941114",
    "prefecture": "大阪府",
    "prefecture_kana": "オオサカフ",
    "prefecture_code": 27,
    "city": "和泉市",
    "city_kana": "イズミシ",
    "town": "国分町",
    "town_kana": "コクブチョウ",
    "street": null,
    "office_name": null,
    "office_name_kana": null
  },
  "1115": {
    "postcode": "5941115",
    "prefecture": "大阪府",
    "prefecture_kana": "オオサカフ",
    "prefecture_code": 27,
    "city": "和泉市",
    "city_kana": "イズミシ",
    "town": "平井町",
    "town_kana": "ヒライチョウ",
    "street": null,
    "office_name": null,
    "office_name_kana": null
  },
  "1116": {
    "postcode": "5941116",
    "prefecture": "大阪府",
    "prefecture_kana": "オオサカフ",
    "prefecture_code": 27,
    "city": "和泉市",
    "city_kana": "イズミシ",
    "town": "納花町",
    "town_kana": "ノウケチョウ",
    "street": null,
    "office_name": null,
    "office_name_kana": null
  },
  "1117": {
    "postcode": "5941117",
    "prefecture": "大阪府",
    "prefecture_kana": "オオサカフ",
    "prefecture_code": 27,
    "city": "和泉市",
    "city_kana": "イズミシ",
    "town": "鍛治屋町",
    "town_kana": "カジヤチョウ",
    "street": null,
    "office_name": null,
    "office_name_kana": null
  },
  "1118": {
    "postcode": "5941118",
    "prefecture": "大阪府",
    "prefecture_kana": "オオサカフ",
    "prefecture_code": 27,
    "city": "和泉市",
    "city_kana": "イズミシ",
    "town": "みずき台",
    "town_kana": "ミズキダイ",
    "street": null,
    "office_name": null,
    "office_name_kana": null
  },
  "1121": {
    "postcode": "5941121",
    "prefecture": "大阪府",
    "prefecture_kana": "オオサカフ",
    "prefecture_code": 27,
    "city": "和泉市",
    "city_kana": "イズミシ",
    "town": "下宮町",
    "town_kana": "シモノミヤチョウ",
    "street": null,
    "office_name": null,
    "office_name_kana": null
  },
  "1122": {
    "postcode": "5941122",
    "prefecture": "大阪府",
    "prefecture_kana": "オオサカフ",
    "prefecture_code": 27,
    "city": "和泉市",
    "city_kana": "イズミシ",
    "town": "北田中町",
    "town_kana": "キタダナカチョウ",
    "street": null,
    "office_name": null,
    "office_name_kana": null
  },
  "1123": {
    "postcode": "5941123",
    "prefecture": "大阪府",
    "prefecture_kana": "オオサカフ",
    "prefecture_code": 27,
    "city": "和泉市",
    "city_kana": "イズミシ",
    "town": "福瀬町",
    "town_kana": "フクゼチョウ",
    "street": null,
    "office_name": null,
    "office_name_kana": null
  },
  "1124": {
    "postcode": "5941124",
    "prefecture": "大阪府",
    "prefecture_kana": "オオサカフ",
    "prefecture_code": 27,
    "city": "和泉市",
    "city_kana": "イズミシ",
    "town": "南面利町",
    "town_kana": "ナメリチョウ",
    "street": null,
    "office_name": null,
    "office_name_kana": null
  },
  "1125": {
    "postcode": "5941125",
    "prefecture": "大阪府",
    "prefecture_kana": "オオサカフ",
    "prefecture_code": 27,
    "city": "和泉市",
    "city_kana": "イズミシ",
    "town": "善正町",
    "town_kana": "ゼンショウチョウ",
    "street": null,
    "office_name": null,
    "office_name_kana": null
  },
  "1126": {
    "postcode": "5941126",
    "prefecture": "大阪府",
    "prefecture_kana": "オオサカフ",
    "prefecture_code": 27,
    "city": "和泉市",
    "city_kana": "イズミシ",
    "town": "九鬼町",
    "town_kana": "クキチョウ",
    "street": null,
    "office_name": null,
    "office_name_kana": null
  },
  "1127": {
    "postcode": "5941127",
    "prefecture": "大阪府",
    "prefecture_kana": "オオサカフ",
    "prefecture_code": 27,
    "city": "和泉市",
    "city_kana": "イズミシ",
    "town": "小野田町",
    "town_kana": "オノダチョウ",
    "street": null,
    "office_name": null,
    "office_name_kana": null
  },
  "1128": {
    "postcode": "5941128",
    "prefecture": "大阪府",
    "prefecture_kana": "オオサカフ",
    "prefecture_code": 27,
    "city": "和泉市",
    "city_kana": "イズミシ",
    "town": "岡町",
    "town_kana": "オカチョウ",
    "street": null,
    "office_name": null,
    "office_name_kana": null
  },
  "1131": {
    "postcode": "5941131",
    "prefecture": "大阪府",
    "prefecture_kana": "オオサカフ",
    "prefecture_code": 27,
    "city": "和泉市",
    "city_kana": "イズミシ",
    "town": "槇尾山町",
    "town_kana": "マキオサンチョウ",
    "street": null,
    "office_name": null,
    "office_name_kana": null
  },
  "1132": {
    "postcode": "5941132",
    "prefecture": "大阪府",
    "prefecture_kana": "オオサカフ",
    "prefecture_code": 27,
    "city": "和泉市",
    "city_kana": "イズミシ",
    "town": "父鬼町",
    "town_kana": "チチオニチョウ",
    "street": null,
    "office_name": null,
    "office_name_kana": null
  },
  "1133": {
    "postcode": "5941133",
    "prefecture": "大阪府",
    "prefecture_kana": "オオサカフ",
    "prefecture_code": 27,
    "city": "和泉市",
    "city_kana": "イズミシ",
    "town": "春木川町",
    "town_kana": "ハルキガワチョウ",
    "street": null,
    "office_name": null,
    "office_name_kana": null
  },
  "1134": {
    "postcode": "5941134",
    "prefecture": "大阪府",
    "prefecture_kana": "オオサカフ",
    "prefecture_code": 27,
    "city": "和泉市",
    "city_kana": "イズミシ",
    "town": "大野町",
    "town_kana": "オオノチョウ",
    "street": null,
    "office_name": null,
    "office_name_kana": null
  },
  "1135": {
    "postcode": "5941135",
    "prefecture": "大阪府",
    "prefecture_kana": "オオサカフ",
    "prefecture_code": 27,
    "city": "和泉市",
    "city_kana": "イズミシ",
    "town": "坪井町",
    "town_kana": "ツボイチョウ",
    "street": null,
    "office_name": null,
    "office_name_kana": null
  },
  "1136": {
    "postcode": "5941136",
    "prefecture": "大阪府",
    "prefecture_kana": "オオサカフ",
    "prefecture_code": 27,
    "city": "和泉市",
    "city_kana": "イズミシ",
    "town": "仏並町",
    "town_kana": "ブツナミチョウ",
    "street": null,
    "office_name": null,
    "office_name_kana": null
  },
  "1141": {
    "postcode": "5941141",
    "prefecture": "大阪府",
    "prefecture_kana": "オオサカフ",
    "prefecture_code": 27,
    "city": "和泉市",
    "city_kana": "イズミシ",
    "town": "春木町",
    "town_kana": "ハルキチョウ",
    "street": null,
    "office_name": null,
    "office_name_kana": null
  },
  "1142": {
    "postcode": "5941142",
    "prefecture": "大阪府",
    "prefecture_kana": "オオサカフ",
    "prefecture_code": 27,
    "city": "和泉市",
    "city_kana": "イズミシ",
    "town": "久井町",
    "town_kana": "ヒサイチョウ",
    "street": null,
    "office_name": null,
    "office_name_kana": null
  },
  "1143": {
    "postcode": "5941143",
    "prefecture": "大阪府",
    "prefecture_kana": "オオサカフ",
    "prefecture_code": 27,
    "city": "和泉市",
    "city_kana": "イズミシ",
    "town": "若樫町",
    "town_kana": "ワカカシチョウ",
    "street": null,
    "office_name": null,
    "office_name_kana": null
  },
  "1144": {
    "postcode": "5941144",
    "prefecture": "大阪府",
    "prefecture_kana": "オオサカフ",
    "prefecture_code": 27,
    "city": "和泉市",
    "city_kana": "イズミシ",
    "town": "テクノステージ",
    "town_kana": "テクノステージ",
    "street": null,
    "office_name": null,
    "office_name_kana": null
  },
  "1151": {
    "postcode": "5941151",
    "prefecture": "大阪府",
    "prefecture_kana": "オオサカフ",
    "prefecture_code": 27,
    "city": "和泉市",
    "city_kana": "イズミシ",
    "town": "唐国町",
    "town_kana": "カラクニチョウ",
    "street": null,
    "office_name": null,
    "office_name_kana": null
  },
  "1152": {
    "postcode": "5941152",
    "prefecture": "大阪府",
    "prefecture_kana": "オオサカフ",
    "prefecture_code": 27,
    "city": "和泉市",
    "city_kana": "イズミシ",
    "town": "まなび野",
    "town_kana": "マナビノ",
    "street": null,
    "office_name": null,
    "office_name_kana": null
  },
  "1153": {
    "postcode": "5941153",
    "prefecture": "大阪府",
    "prefecture_kana": "オオサカフ",
    "prefecture_code": 27,
    "city": "和泉市",
    "city_kana": "イズミシ",
    "town": "青葉台",
    "town_kana": "アオバダイ",
    "street": null,
    "office_name": null,
    "office_name_kana": null
  },
  "1154": {
    "postcode": "5941154",
    "prefecture": "大阪府",
    "prefecture_kana": "オオサカフ",
    "prefecture_code": 27,
    "city": "和泉市",
    "city_kana": "イズミシ",
    "town": "松尾寺町",
    "town_kana": "マツオジチョウ",
    "street": null,
    "office_name": null,
    "office_name_kana": null
  },
  "1155": {
    "postcode": "5941155",
    "prefecture": "大阪府",
    "prefecture_kana": "オオサカフ",
    "prefecture_code": 27,
    "city": "和泉市",
    "city_kana": "イズミシ",
    "town": "緑ケ丘",
    "town_kana": "ミドリガオカ",
    "street": null,
    "office_name": null,
    "office_name_kana": null
  },
  "1156": {
    "postcode": "5941156",
    "prefecture": "大阪府",
    "prefecture_kana": "オオサカフ",
    "prefecture_code": 27,
    "city": "和泉市",
    "city_kana": "イズミシ",
    "town": "内田町",
    "town_kana": "ウチダチョウ",
    "street": null,
    "office_name": null,
    "office_name_kana": null
  },
  "1157": {
    "postcode": "5941157",
    "prefecture": "大阪府",
    "prefecture_kana": "オオサカフ",
    "prefecture_code": 27,
    "city": "和泉市",
    "city_kana": "イズミシ",
    "town": "あゆみ野",
    "town_kana": "アユミノ",
    "street": null,
    "office_name": null,
    "office_name_kana": null
  },
  "1192": {
    "postcode": "5941192",
    "prefecture": "大阪府",
    "prefecture_kana": "オオサカフ",
    "prefecture_code": 27,
    "city": "和泉市",
    "city_kana": "イズミシ",
    "town": "善正町",
    "town_kana": "ゼンショウチョウ",
    "street": "１０",
    "office_name": "株式会社　国華園",
    "office_name_kana": "カブシキガイシヤ コツカエン"
  },
  "1198": {
    "postcode": "5941198",
    "prefecture": "大阪府",
    "prefecture_kana": "オオサカフ",
    "prefecture_code": 27,
    "city": "和泉市",
    "city_kana": "イズミシ",
    "town": "まなび野",
    "town_kana": "マナビノ",
    "street": "１−１",
    "office_name": "桃山学院大学",
    "office_name_kana": "モモヤマガクインダイガク"
  },
  "8501": {
    "postcode": "5948501",
    "prefecture": "大阪府",
    "prefecture_kana": "オオサカフ",
    "prefecture_code": 27,
    "city": "和泉市",
    "city_kana": "イズミシ",
    "town": "府中町",
    "town_kana": "フチュウチョウ",
    "street": "２丁目７−５",
    "office_name": "和泉市役所",
    "office_name_kana": "イズミシヤクシヨ"
  },
  "8502": {
    "postcode": "5948502",
    "prefecture": "大阪府",
    "prefecture_kana": "オオサカフ",
    "prefecture_code": 27,
    "city": "和泉市",
    "city_kana": "イズミシ",
    "town": "伯太町",
    "town_kana": "ハカタチョウ",
    "street": "官有地",
    "office_name": "自衛隊　信太山駐屯地",
    "office_name_kana": "ジエイタイ シノダヤマチユウトンチ"
  },
  "8686": {
    "postcode": "5948686",
    "prefecture": "大阪府",
    "prefecture_kana": "オオサカフ",
    "prefecture_code": 27,
    "city": "和泉市",
    "city_kana": "イズミシ",
    "town": "あゆみ野",
    "town_kana": "アユミノ",
    "street": "２−８−２（和泉郵便局私書箱第３９号）",
    "office_name": "村中医療器　株式会社　総合センター",
    "office_name_kana": "ムラナカイリヨウキ カブシキガイシヤ ソウゴウセンタ-"
  }
}