{
  "0000": {
    "postcode": "6010000",
    "prefecture": "京都府",
    "prefecture_kana": "キョウトフ",
    "prefecture_code": 26,
    "city": "京都市南区",
    "city_kana": "キョウトシミナミク",
    "town": "",
    "town_kana": "",
    "street": null,
    "office_name": null,
    "office_name_kana": null
  },
  "0101": {
    "postcode": "6010101",
    "prefecture": "京都府",
    "prefecture_kana": "キョウトフ",
    "prefecture_code": 26,
    "city": "京都市北区",
    "city_kana": "キョウトシキタク",
    "town": "真弓八幡町",
    "town_kana": "マユミハチマンチョウ",
    "street": null,
    "office_name": null,
    "office_name_kana": null
  },
  "0102": {
    "postcode": "6010102",
    "prefecture": "京都府",
    "prefecture_kana": "キョウトフ",
    "prefecture_code": 26,
    "city": "京都市北区",
    "city_kana": "キョウトシキタク",
    "town": "真弓善福",
    "town_kana": "マユミゼンプク",
    "street": null,
    "office_name": null,
    "office_name_kana": null
  },
  "0111": {
    "postcode": "6010111",
    "prefecture": "京都府",
    "prefecture_kana": "キョウトフ",
    "prefecture_code": 26,
    "city": "京都市北区",
    "city_kana": "キョウトシキタク",
    "town": "杉阪北尾",
    "town_kana": "スギサカキタオ",
    "street": null,
    "office_name": null,
    "office_name_kana": null
  },
  "0112": {
    "postcode": "6010112",
    "prefecture": "京都府",
    "prefecture_kana": "キョウトフ",
    "prefecture_code": 26,
    "city": "京都市北区",
    "city_kana": "キョウトシキタク",
    "town": "杉阪都町",
    "town_kana": "スギサカミヤコチョウ",
    "street": null,
    "office_name": null,
    "office_name_kana": null
  },
  "0113": {
    "postcode": "6010113",
    "prefecture": "京都府",
    "prefecture_kana": "キョウトフ",
    "prefecture_code": 26,
    "city": "京都市北区",
    "city_kana": "キョウトシキタク",
    "town": "杉阪道風町",
    "town_kana": "スギサカトウフウチョウ",
    "street": null,
    "office_name": null,
    "office_name_kana": null
  },
  "0121": {
    "postcode": "6010121",
    "prefecture": "京都府",
    "prefecture_kana": "キョウトフ",
    "prefecture_code": 26,
    "city": "京都市北区",
    "city_kana": "キョウトシキタク",
    "town": "中川東山",
    "town_kana": "ナカガワヒガシヤマ",
    "street": null,
    "office_name": null,
    "office_name_kana": null
  },
  "0122": {
    "postcode": "6010122",
    "prefecture": "京都府",
    "prefecture_kana": "キョウトフ",
    "prefecture_code": 26,
    "city": "京都市北区",
    "city_kana": "キョウトシキタク",
    "town": "中川北山町",
    "town_kana": "ナカガワキタヤマチョウ",
    "street": null,
    "office_name": null,
    "office_name_kana": null
  },
  "0123": {
    "postcode": "6010123",
    "prefecture": "京都府",
    "prefecture_kana": "キョウトフ",
    "prefecture_code": 26,
    "city": "京都市北区",
    "city_kana": "キョウトシキタク",
    "town": "中川西山",
    "town_kana": "ナカガワニシヤマ",
    "street": null,
    "office_name": null,
    "office_name_kana": null
  },
  "0124": {
    "postcode": "6010124",
    "prefecture": "京都府",
    "prefecture_kana": "キョウトフ",
    "prefecture_code": 26,
    "city": "京都市北区",
    "city_kana": "キョウトシキタク",
    "town": "中川中山",
    "town_kana": "ナカガワナカヤマ",
    "street": null,
    "office_name": null,
    "office_name_kana": null
  },
  "0125": {
    "postcode": "6010125",
    "prefecture": "京都府",
    "prefecture_kana": "キョウトフ",
    "prefecture_code": 26,
    "city": "京都市北区",
    "city_kana": "キョウトシキタク",
    "town": "中川川登",
    "town_kana": "ナカガワカワノボリ",
    "street": null,
    "office_name": null,
    "office_name_kana": null
  },
  "0131": {
    "postcode": "6010131",
    "prefecture": "京都府",
    "prefecture_kana": "キョウトフ",
    "prefecture_code": 26,
    "city": "京都市北区",
    "city_kana": "キョウトシキタク",
    "town": "小野下ノ町",
    "town_kana": "オノシモノチョウ",
    "street": null,
    "office_name": null,
    "office_name_kana": null
  },
  "0132": {
    "postcode": "6010132",
    "prefecture": "京都府",
    "prefecture_kana": "キョウトフ",
    "prefecture_code": 26,
    "city": "京都市北区",
    "city_kana": "キョウトシキタク",
    "town": "小野中ノ町",
    "town_kana": "オノナカノチョウ",
    "street": null,
    "office_name": null,
    "office_name_kana": null
  },
  "0133": {
    "postcode": "6010133",
    "prefecture": "京都府",
    "prefecture_kana": "キョウトフ",
    "prefecture_code": 26,
    "city": "京都市北区",
    "city_kana": "キョウトシキタク",
    "town": "小野上ノ町",
    "town_kana": "オノカミノチョウ",
    "street": null,
    "office_name": null,
    "office_name_kana": null
  },
  "0134": {
    "postcode": "6010134",
    "prefecture": "京都府",
    "prefecture_kana": "キョウトフ",
    "prefecture_code": 26,
    "city": "京都市北区",
    "city_kana": "キョウトシキタク",
    "town": "小野岩戸",
    "town_kana": "オノイワト",
    "street": null,
    "office_name": null,
    "office_name_kana": null
  },
  "0135": {
    "postcode": "6010135",
    "prefecture": "京都府",
    "prefecture_kana": "キョウトフ",
    "prefecture_code": 26,
    "city": "京都市北区",
    "city_kana": "キョウトシキタク",
    "town": "小野宮ノ上町",
    "town_kana": "オノミヤノカミチョウ",
    "street": null,
    "office_name": null,
    "office_name_kana": null
  },
  "0141": {
    "postcode": "6010141",
    "prefecture": "京都府",
    "prefecture_kana": "キョウトフ",
    "prefecture_code": 26,
    "city": "京都市北区",
    "city_kana": "キョウトシキタク",
    "town": "大森稲荷",
    "town_kana": "オオモリイナリ",
    "street": null,
    "office_name": null,
    "office_name_kana": null
  },
  "0142": {
    "postcode": "6010142",
    "prefecture": "京都府",
    "prefecture_kana": "キョウトフ",
    "prefecture_code": 26,
    "city": "京都市北区",
    "city_kana": "キョウトシキタク",
    "town": "大森芦堂町",
    "town_kana": "オオモリアシドウチョウ",
    "street": null,
    "office_name": null,
    "office_name_kana": null
  },
  "0143": {
    "postcode": "6010143",
    "prefecture": "京都府",
    "prefecture_kana": "キョウトフ",
    "prefecture_code": 26,
    "city": "京都市北区",
    "city_kana": "キョウトシキタク",
    "town": "大森中町",
    "town_kana": "オオモリナカチョウ",
    "street": null,
    "office_name": null,
    "office_name_kana": null
  },
  "0144": {
    "postcode": "6010144",
    "prefecture": "京都府",
    "prefecture_kana": "キョウトフ",
    "prefecture_code": 26,
    "city": "京都市北区",
    "city_kana": "キョウトシキタク",
    "town": "大森西町",
    "town_kana": "オオモリニシチョウ",
    "street": null,
    "office_name": null,
    "office_name_kana": null
  },
  "0145": {
    "postcode": "6010145",
    "prefecture": "京都府",
    "prefecture_kana": "キョウトフ",
    "prefecture_code": 26,
    "city": "京都市北区",
    "city_kana": "キョウトシキタク",
    "town": "大森東町",
    "town_kana": "オオモリヒガシチョウ",
    "street": null,
    "office_name": null,
    "office_name_kana": null
  },
  "0251": {
    "postcode": "6010251",
    "prefecture": "京都府",
    "prefecture_kana": "キョウトフ",
    "prefecture_code": 26,
    "city": "京都市右京区",
    "city_kana": "キョウトシウキョウク",
    "town": "京北周山町",
    "town_kana": "ケイホクシュウザンチョウ",
    "street": null,
    "office_name": null,
    "office_name_kana": null
  },
  "0252": {
    "postcode": "6010252",
    "prefecture": "京都府",
    "prefecture_kana": "キョウトフ",
    "prefecture_code": 26,
    "city": "京都市右京区",
    "city_kana": "キョウトシウキョウク",
    "town": "京北五本松町",
    "town_kana": "ケイホクゴホンマツチョウ",
    "street": null,
    "office_name": null,
    "office_name_kana": null
  },
  "0261": {
    "postcode": "6010261",
    "prefecture": "京都府",
    "prefecture_kana": "キョウトフ",
    "prefecture_code": 26,
    "city": "京都市右京区",
    "city_kana": "キョウトシウキョウク",
    "town": "京北柏原町",
    "town_kana": "ケイホクカシワラチョウ",
    "street": null,
    "office_name": null,
    "office_name_kana": null
  },
  "0262": {
    "postcode": "6010262",
    "prefecture": "京都府",
    "prefecture_kana": "キョウトフ",
    "prefecture_code": 26,
    "city": "京都市右京区",
    "city_kana": "キョウトシウキョウク",
    "town": "京北細野町",
    "town_kana": "ケイホクホソノチョウ",
    "street": null,
    "office_name": null,
    "office_name_kana": null
  },
  "0263": {
    "postcode": "6010263",
    "prefecture": "京都府",
    "prefecture_kana": "キョウトフ",
    "prefecture_code": 26,
    "city": "京都市右京区",
    "city_kana": "キョウトシウキョウク",
    "town": "京北弓槻町",
    "town_kana": "ケイホクユヅキチョウ",
    "street": null,
    "office_name": null,
    "office_name_kana": null
  },
  "0264": {
    "postcode": "6010264",
    "prefecture": "京都府",
    "prefecture_kana": "キョウトフ",
    "prefecture_code": 26,
    "city": "京都市右京区",
    "city_kana": "キョウトシウキョウク",
    "town": "京北栃本町",
    "town_kana": "ケイホクトチモトチョウ",
    "street": null,
    "office_name": null,
    "office_name_kana": null
  },
  "0265": {
    "postcode": "6010265",
    "prefecture": "京都府",
    "prefecture_kana": "キョウトフ",
    "prefecture_code": 26,
    "city": "京都市右京区",
    "city_kana": "キョウトシウキョウク",
    "town": "京北中地町",
    "town_kana": "ケイホクチュウジチョウ",
    "street": null,
    "office_name": null,
    "office_name_kana": null
  },
  "0266": {
    "postcode": "6010266",
    "prefecture": "京都府",
    "prefecture_kana": "キョウトフ",
    "prefecture_code": 26,
    "city": "京都市右京区",
    "city_kana": "キョウトシウキョウク",
    "town": "京北下宇津町",
    "town_kana": "ケイホクシモウツチョウ",
    "street": null,
    "office_name": null,
    "office_name_kana": null
  },
  "0271": {
    "postcode": "6010271",
    "prefecture": "京都府",
    "prefecture_kana": "キョウトフ",
    "prefecture_code": 26,
    "city": "京都市右京区",
    "city_kana": "キョウトシウキョウク",
    "town": "京北熊田町",
    "town_kana": "ケイホククマタチョウ",
    "street": null,
    "office_name": null,
    "office_name_kana": null
  },
  "0272": {
    "postcode": "6010272",
    "prefecture": "京都府",
    "prefecture_kana": "キョウトフ",
    "prefecture_code": 26,
    "city": "京都市右京区",
    "city_kana": "キョウトシウキョウク",
    "town": "京北下熊田町",
    "town_kana": "ケイホクシモクマタチョウ",
    "street": null,
    "office_name": null,
    "office_name_kana": null
  },
  "0273": {
    "postcode": "6010273",
    "prefecture": "京都府",
    "prefecture_kana": "キョウトフ",
    "prefecture_code": 26,
    "city": "京都市右京区",
    "city_kana": "キョウトシウキョウク",
    "town": "京北明石町",
    "town_kana": "ケイホクアケシチョウ",
    "street": null,
    "office_name": null,
    "office_name_kana": null
  },
  "0274": {
    "postcode": "6010274",
    "prefecture": "京都府",
    "prefecture_kana": "キョウトフ",
    "prefecture_code": 26,
    "city": "京都市右京区",
    "city_kana": "キョウトシウキョウク",
    "town": "京北浅江町",
    "town_kana": "ケイホクアザエチョウ",
    "street": null,
    "office_name": null,
    "office_name_kana": null
  },
  "0275": {
    "postcode": "6010275",
    "prefecture": "京都府",
    "prefecture_kana": "キョウトフ",
    "prefecture_code": 26,
    "city": "京都市右京区",
    "city_kana": "キョウトシウキョウク",
    "town": "京北宇野町",
    "town_kana": "ケイホクウノチョウ",
    "street": null,
    "office_name": null,
    "office_name_kana": null
  },
  "0276": {
    "postcode": "6010276",
    "prefecture": "京都府",
    "prefecture_kana": "キョウトフ",
    "prefecture_code": 26,
    "city": "京都市右京区",
    "city_kana": "キョウトシウキョウク",
    "town": "京北西町",
    "town_kana": "ケイホクニシチョウ",
    "street": null,
    "office_name": null,
    "office_name_kana": null
  },
  "0277": {
    "postcode": "6010277",
    "prefecture": "京都府",
    "prefecture_kana": "キョウトフ",
    "prefecture_code": 26,
    "city": "京都市右京区",
    "city_kana": "キョウトシウキョウク",
    "town": "京北漆谷町",
    "town_kana": "ケイホクウルシタニチョウ",
    "street": null,
    "office_name": null,
    "office_name_kana": null
  },
  "0278": {
    "postcode": "6010278",
    "prefecture": "京都府",
    "prefecture_kana": "キョウトフ",
    "prefecture_code": 26,
    "city": "京都市右京区",
    "city_kana": "キョウトシウキョウク",
    "town": "京北矢代中町",
    "town_kana": "ケイホクヤシロナカチョウ",
    "street": null,
    "office_name": null,
    "office_name_kana": null
  },
  "0292": {
    "postcode": "6010292",
    "prefecture": "京都府",
    "prefecture_kana": "キョウトフ",
    "prefecture_code": 26,
    "city": "京都市右京区",
    "city_kana": "キョウトシウキョウク",
    "town": "京北周山町上寺田",
    "town_kana": null,
    "street": "１−１",
    "office_name": "京都市　京北合同庁舎",
    "office_name_kana": "キヨウトシ ケイホクゴウドウチヨウシヤ"
  },
  "0311": {
    "postcode": "6010311",
    "prefecture": "京都府",
    "prefecture_kana": "キョウトフ",
    "prefecture_code": 26,
    "city": "京都市右京区",
    "city_kana": "キョウトシウキョウク",
    "town": "京北小塩町",
    "town_kana": "ケイホクオシオチョウ",
    "street": null,
    "office_name": null,
    "office_name_kana": null
  },
  "0312": {
    "postcode": "6010312",
    "prefecture": "京都府",
    "prefecture_kana": "キョウトフ",
    "prefecture_code": 26,
    "city": "京都市右京区",
    "city_kana": "キョウトシウキョウク",
    "town": "京北初川町",
    "town_kana": "ケイホクハツカワチョウ",
    "street": null,
    "office_name": null,
    "office_name_kana": null
  },
  "0313": {
    "postcode": "6010313",
    "prefecture": "京都府",
    "prefecture_kana": "キョウトフ",
    "prefecture_code": 26,
    "city": "京都市右京区",
    "city_kana": "キョウトシウキョウク",
    "town": "京北井戸町",
    "town_kana": "ケイホクイドチョウ",
    "street": null,
    "office_name": null,
    "office_name_kana": null
  },
  "0314": {
    "postcode": "6010314",
    "prefecture": "京都府",
    "prefecture_kana": "キョウトフ",
    "prefecture_code": 26,
    "city": "京都市右京区",
    "city_kana": "キョウトシウキョウク",
    "town": "京北大野町",
    "town_kana": "ケイホクオオノチョウ",
    "street": null,
    "office_name": null,
    "office_name_kana": null
  },
  "0315": {
    "postcode": "6010315",
    "prefecture": "京都府",
    "prefecture_kana": "キョウトフ",
    "prefecture_code": 26,
    "city": "京都市右京区",
    "city_kana": "キョウトシウキョウク",
    "town": "京北中江町",
    "town_kana": "ケイホクナカエチョウ",
    "street": null,
    "office_name": null,
    "office_name_kana": null
  },
  "0316": {
    "postcode": "6010316",
    "prefecture": "京都府",
    "prefecture_kana": "キョウトフ",
    "prefecture_code": 26,
    "city": "京都市右京区",
    "city_kana": "キョウトシウキョウク",
    "town": "京北比賀江町",
    "town_kana": "ケイホクヒガエチョウ",
    "street": null,
    "office_name": null,
    "office_name_kana": null
  },
  "0321": {
    "postcode": "6010321",
    "prefecture": "京都府",
    "prefecture_kana": "キョウトフ",
    "prefecture_code": 26,
    "city": "京都市右京区",
    "city_kana": "キョウトシウキョウク",
    "town": "京北塔町",
    "town_kana": "ケイホクトウチョウ",
    "street": null,
    "office_name": null,
    "office_name_kana": null
  },
  "0322": {
    "postcode": "6010322",
    "prefecture": "京都府",
    "prefecture_kana": "キョウトフ",
    "prefecture_code": 26,
    "city": "京都市右京区",
    "city_kana": "キョウトシウキョウク",
    "town": "京北辻町",
    "town_kana": "ケイホクツジチョウ",
    "street": null,
    "office_name": null,
    "office_name_kana": null
  },
  "0323": {
    "postcode": "6010323",
    "prefecture": "京都府",
    "prefecture_kana": "キョウトフ",
    "prefecture_code": 26,
    "city": "京都市右京区",
    "city_kana": "キョウトシウキョウク",
    "town": "京北鳥居町",
    "town_kana": "ケイホクトリイチョウ",
    "street": null,
    "office_name": null,
    "office_name_kana": null
  },
  "0324": {
    "postcode": "6010324",
    "prefecture": "京都府",
    "prefecture_kana": "キョウトフ",
    "prefecture_code": 26,
    "city": "京都市右京区",
    "city_kana": "キョウトシウキョウク",
    "town": "京北下町",
    "town_kana": "ケイホクシモチョウ",
    "street": null,
    "office_name": null,
    "office_name_kana": null
  },
  "0401": {
    "postcode": "6010401",
    "prefecture": "京都府",
    "prefecture_kana": "キョウトフ",
    "prefecture_code": 26,
    "city": "京都市右京区",
    "city_kana": "キョウトシウキョウク",
    "town": "京北片波町",
    "town_kana": "ケイホクカタナミチョウ",
    "street": null,
    "office_name": null,
    "office_name_kana": null
  },
  "0402": {
    "postcode": "6010402",
    "prefecture": "京都府",
    "prefecture_kana": "キョウトフ",
    "prefecture_code": 26,
    "city": "京都市右京区",
    "city_kana": "キョウトシウキョウク",
    "town": "京北上黒田町",
    "town_kana": "ケイホクカミクロダチョウ",
    "street": null,
    "office_name": null,
    "office_name_kana": null
  },
  "0403": {
    "postcode": "6010403",
    "prefecture": "京都府",
    "prefecture_kana": "キョウトフ",
    "prefecture_code": 26,
    "city": "京都市右京区",
    "city_kana": "キョウトシウキョウク",
    "town": "京北灰屋町",
    "town_kana": "ケイホクハイヤチョウ",
    "street": null,
    "office_name": null,
    "office_name_kana": null
  },
  "0404": {
    "postcode": "6010404",
    "prefecture": "京都府",
    "prefecture_kana": "キョウトフ",
    "prefecture_code": 26,
    "city": "京都市右京区",
    "city_kana": "キョウトシウキョウク",
    "town": "京北芹生町",
    "town_kana": "ケイホクセリョウチョウ",
    "street": null,
    "office_name": null,
    "office_name_kana": null
  },
  "0405": {
    "postcode": "6010405",
    "prefecture": "京都府",
    "prefecture_kana": "キョウトフ",
    "prefecture_code": 26,
    "city": "京都市右京区",
    "city_kana": "キョウトシウキョウク",
    "town": "京北下黒田町",
    "town_kana": "ケイホクシモクロダチョウ",
    "street": null,
    "office_name": null,
    "office_name_kana": null
  },
  "0406": {
    "postcode": "6010406",
    "prefecture": "京都府",
    "prefecture_kana": "キョウトフ",
    "prefecture_code": 26,
    "city": "京都市右京区",
    "city_kana": "キョウトシウキョウク",
    "town": "京北宮町",
    "town_kana": "ケイホクミヤチョウ",
    "street": null,
    "office_name": null,
    "office_name_kana": null
  },
  "0531": {
    "postcode": "6010531",
    "prefecture": "京都府",
    "prefecture_kana": "キョウトフ",
    "prefecture_code": 26,
    "city": "京都市右京区",
    "city_kana": "キョウトシウキョウク",
    "town": "京北上弓削町",
    "town_kana": "ケイホクカミユゲチョウ",
    "street": null,
    "office_name": null,
    "office_name_kana": null
  },
  "0532": {
    "postcode": "6010532",
    "prefecture": "京都府",
    "prefecture_kana": "キョウトフ",
    "prefecture_code": 26,
    "city": "京都市右京区",
    "city_kana": "キョウトシウキョウク",
    "town": "京北上中町",
    "town_kana": "ケイホクカミナカチョウ",
    "street": null,
    "office_name": null,
    "office_name_kana": null
  },
  "0533": {
    "postcode": "6010533",
    "prefecture": "京都府",
    "prefecture_kana": "キョウトフ",
    "prefecture_code": 26,
    "city": "京都市右京区",
    "city_kana": "キョウトシウキョウク",
    "town": "京北下中町",
    "town_kana": "ケイホクシモナカチョウ",
    "street": null,
    "office_name": null,
    "office_name_kana": null
  },
  "0534": {
    "postcode": "6010534",
    "prefecture": "京都府",
    "prefecture_kana": "キョウトフ",
    "prefecture_code": 26,
    "city": "京都市右京区",
    "city_kana": "キョウトシウキョウク",
    "town": "京北下弓削町",
    "town_kana": "ケイホクシモユゲチョウ",
    "street": null,
    "office_name": null,
    "office_name_kana": null
  },
  "0535": {
    "postcode": "6010535",
    "prefecture": "京都府",
    "prefecture_kana": "キョウトフ",
    "prefecture_code": 26,
    "city": "京都市右京区",
    "city_kana": "キョウトシウキョウク",
    "town": "京北井崎町",
    "town_kana": "ケイホクイザキチョウ",
    "street": null,
    "office_name": null,
    "office_name_kana": null
  },
  "0536": {
    "postcode": "6010536",
    "prefecture": "京都府",
    "prefecture_kana": "キョウトフ",
    "prefecture_code": 26,
    "city": "京都市右京区",
    "city_kana": "キョウトシウキョウク",
    "town": "京北塩田町",
    "town_kana": "ケイホクシオタチョウ",
    "street": null,
    "office_name": null,
    "office_name_kana": null
  },
  "0541": {
    "postcode": "6010541",
    "prefecture": "京都府",
    "prefecture_kana": "キョウトフ",
    "prefecture_code": 26,
    "city": "京都市右京区",
    "city_kana": "キョウトシウキョウク",
    "town": "京北赤石町",
    "town_kana": "ケイホクアカイシチョウ",
    "street": null,
    "office_name": null,
    "office_name_kana": null
  },
  "0542": {
    "postcode": "6010542",
    "prefecture": "京都府",
    "prefecture_kana": "キョウトフ",
    "prefecture_code": 26,
    "city": "京都市右京区",
    "city_kana": "キョウトシウキョウク",
    "town": "京北田貫町",
    "town_kana": "ケイホクタヌキチョウ",
    "street": null,
    "office_name": null,
    "office_name_kana": null
  },
  "0543": {
    "postcode": "6010543",
    "prefecture": "京都府",
    "prefecture_kana": "キョウトフ",
    "prefecture_code": 26,
    "city": "京都市右京区",
    "city_kana": "キョウトシウキョウク",
    "town": "京北室谷町",
    "town_kana": "ケイホクシツタンチョウ",
    "street": null,
    "office_name": null,
    "office_name_kana": null
  },
  "0701": {
    "postcode": "6010701",
    "prefecture": "京都府",
    "prefecture_kana": "キョウトフ",
    "prefecture_code": 26,
    "city": "南丹市",
    "city_kana": "ナンタンシ",
    "town": "美山町江和",
    "town_kana": "ミヤマチョウエワ",
    "street": null,
    "office_name": null,
    "office_name_kana": null
  },
  "0702": {
    "postcode": "6010702",
    "prefecture": "京都府",
    "prefecture_kana": "キョウトフ",
    "prefecture_code": 26,
    "city": "南丹市",
    "city_kana": "ナンタンシ",
    "town": "美山町田歌",
    "town_kana": "ミヤマチョウタウタ",
    "street": null,
    "office_name": null,
    "office_name_kana": null
  },
  "0703": {
    "postcode": "6010703",
    "prefecture": "京都府",
    "prefecture_kana": "キョウトフ",
    "prefecture_code": 26,
    "city": "南丹市",
    "city_kana": "ナンタンシ",
    "town": "美山町芦生",
    "town_kana": "ミヤマチョウアシウ",
    "street": null,
    "office_name": null,
    "office_name_kana": null
  },
  "0704": {
    "postcode": "6010704",
    "prefecture": "京都府",
    "prefecture_kana": "キョウトフ",
    "prefecture_code": 26,
    "city": "南丹市",
    "city_kana": "ナンタンシ",
    "town": "美山町白石",
    "town_kana": "ミヤマチョウシライシ",
    "street": null,
    "office_name": null,
    "office_name_kana": null
  },
  "0705": {
    "postcode": "6010705",
    "prefecture": "京都府",
    "prefecture_kana": "キョウトフ",
    "prefecture_code": 26,
    "city": "南丹市",
    "city_kana": "ナンタンシ",
    "town": "美山町佐々里",
    "town_kana": "ミヤマチョウササリ",
    "street": null,
    "office_name": null,
    "office_name_kana": null
  },
  "0711": {
    "postcode": "6010711",
    "prefecture": "京都府",
    "prefecture_kana": "キョウトフ",
    "prefecture_code": 26,
    "city": "南丹市",
    "city_kana": "ナンタンシ",
    "town": "美山町南",
    "town_kana": "ミヤマチョウミナミ",
    "street": null,
    "office_name": null,
    "office_name_kana": null
  },
  "0712": {
    "postcode": "6010712",
    "prefecture": "京都府",
    "prefecture_kana": "キョウトフ",
    "prefecture_code": 26,
    "city": "南丹市",
    "city_kana": "ナンタンシ",
    "town": "美山町北",
    "town_kana": "ミヤマチョウキタ",
    "street": null,
    "office_name": null,
    "office_name_kana": null
  },
  "0713": {
    "postcode": "6010713",
    "prefecture": "京都府",
    "prefecture_kana": "キョウトフ",
    "prefecture_code": 26,
    "city": "南丹市",
    "city_kana": "ナンタンシ",
    "town": "美山町中",
    "town_kana": "ミヤマチョウナカ",
    "street": null,
    "office_name": null,
    "office_name_kana": null
  },
  "0714": {
    "postcode": "6010714",
    "prefecture": "京都府",
    "prefecture_kana": "キョウトフ",
    "prefecture_code": 26,
    "city": "南丹市",
    "city_kana": "ナンタンシ",
    "town": "美山町河内谷",
    "town_kana": "ミヤマチョウカワウチダニ",
    "street": null,
    "office_name": null,
    "office_name_kana": null
  },
  "0715": {
    "postcode": "6010715",
    "prefecture": "京都府",
    "prefecture_kana": "キョウトフ",
    "prefecture_code": 26,
    "city": "南丹市",
    "city_kana": "ナンタンシ",
    "town": "美山町下",
    "town_kana": "ミヤマチョウシモ",
    "street": null,
    "office_name": null,
    "office_name_kana": null
  },
  "0716": {
    "postcode": "6010716",
    "prefecture": "京都府",
    "prefecture_kana": "キョウトフ",
    "prefecture_code": 26,
    "city": "南丹市",
    "city_kana": "ナンタンシ",
    "town": "美山町知見",
    "town_kana": "ミヤマチョウチミ",
    "street": null,
    "office_name": null,
    "office_name_kana": null
  },
  "0721": {
    "postcode": "6010721",
    "prefecture": "京都府",
    "prefecture_kana": "キョウトフ",
    "prefecture_code": 26,
    "city": "南丹市",
    "city_kana": "ナンタンシ",
    "town": "美山町上平屋",
    "town_kana": "ミヤマチョウカミヒラヤ",
    "street": null,
    "office_name": null,
    "office_name_kana": null
  },
  "0722": {
    "postcode": "6010722",
    "prefecture": "京都府",
    "prefecture_kana": "キョウトフ",
    "prefecture_code": 26,
    "city": "南丹市",
    "city_kana": "ナンタンシ",
    "town": "美山町安掛",
    "town_kana": "ミヤマチョウアガケ",
    "street": null,
    "office_name": null,
    "office_name_kana": null
  },
  "0723": {
    "postcode": "6010723",
    "prefecture": "京都府",
    "prefecture_kana": "キョウトフ",
    "prefecture_code": 26,
    "city": "南丹市",
    "city_kana": "ナンタンシ",
    "town": "美山町荒倉",
    "town_kana": "ミヤマチョウアラクラ",
    "street": null,
    "office_name": null,
    "office_name_kana": null
  },
  "0724": {
    "postcode": "6010724",
    "prefecture": "京都府",
    "prefecture_kana": "キョウトフ",
    "prefecture_code": 26,
    "city": "南丹市",
    "city_kana": "ナンタンシ",
    "town": "美山町内久保",
    "town_kana": "ミヤマチョウウチクボ",
    "street": null,
    "office_name": null,
    "office_name_kana": null
  },
  "0731": {
    "postcode": "6010731",
    "prefecture": "京都府",
    "prefecture_kana": "キョウトフ",
    "prefecture_code": 26,
    "city": "南丹市",
    "city_kana": "ナンタンシ",
    "town": "美山町又林",
    "town_kana": "ミヤマチョウマタバヤシ",
    "street": null,
    "office_name": null,
    "office_name_kana": null
  },
  "0732": {
    "postcode": "6010732",
    "prefecture": "京都府",
    "prefecture_kana": "キョウトフ",
    "prefecture_code": 26,
    "city": "南丹市",
    "city_kana": "ナンタンシ",
    "town": "美山町下平屋",
    "town_kana": "ミヤマチョウシモヒラヤ",
    "street": null,
    "office_name": null,
    "office_name_kana": null
  },
  "0733": {
    "postcode": "6010733",
    "prefecture": "京都府",
    "prefecture_kana": "キョウトフ",
    "prefecture_code": 26,
    "city": "南丹市",
    "city_kana": "ナンタンシ",
    "town": "美山町野添",
    "town_kana": "ミヤマチョウノゾエ",
    "street": null,
    "office_name": null,
    "office_name_kana": null
  },
  "0734": {
    "postcode": "6010734",
    "prefecture": "京都府",
    "prefecture_kana": "キョウトフ",
    "prefecture_code": 26,
    "city": "南丹市",
    "city_kana": "ナンタンシ",
    "town": "美山町長尾",
    "town_kana": "ミヤマチョウナガオ",
    "street": null,
    "office_name": null,
    "office_name_kana": null
  },
  "0735": {
    "postcode": "6010735",
    "prefecture": "京都府",
    "prefecture_kana": "キョウトフ",
    "prefecture_code": 26,
    "city": "南丹市",
    "city_kana": "ナンタンシ",
    "town": "美山町深見",
    "town_kana": "ミヤマチョウフカミ",
    "street": null,
    "office_name": null,
    "office_name_kana": null
  },
  "0741": {
    "postcode": "6010741",
    "prefecture": "京都府",
    "prefecture_kana": "キョウトフ",
    "prefecture_code": 26,
    "city": "南丹市",
    "city_kana": "ナンタンシ",
    "town": "美山町原",
    "town_kana": "ミヤマチョウハラ",
    "street": null,
    "office_name": null,
    "office_name_kana": null
  },
  "0742": {
    "postcode": "6010742",
    "prefecture": "京都府",
    "prefecture_kana": "キョウトフ",
    "prefecture_code": 26,
    "city": "南丹市",
    "city_kana": "ナンタンシ",
    "town": "美山町板橋",
    "town_kana": "ミヤマチョウイタハシ",
    "street": null,
    "office_name": null,
    "office_name_kana": null
  },
  "0743": {
    "postcode": "6010743",
    "prefecture": "京都府",
    "prefecture_kana": "キョウトフ",
    "prefecture_code": 26,
    "city": "南丹市",
    "city_kana": "ナンタンシ",
    "town": "美山町宮脇",
    "town_kana": "ミヤマチョウミヤノワキ",
    "street": null,
    "office_name": null,
    "office_name_kana": null
  },
  "0744": {
    "postcode": "6010744",
    "prefecture": "京都府",
    "prefecture_kana": "キョウトフ",
    "prefecture_code": 26,
    "city": "南丹市",
    "city_kana": "ナンタンシ",
    "town": "美山町下吉田",
    "town_kana": "ミヤマチョウシモヨシダ",
    "street": null,
    "office_name": null,
    "office_name_kana": null
  },
  "0751": {
    "postcode": "6010751",
    "prefecture": "京都府",
    "prefecture_kana": "キョウトフ",
    "prefecture_code": 26,
    "city": "南丹市",
    "city_kana": "ナンタンシ",
    "town": "美山町島",
    "town_kana": "ミヤマチョウシマ",
    "street": null,
    "office_name": null,
    "office_name_kana": null
  },
  "0752": {
    "postcode": "6010752",
    "prefecture": "京都府",
    "prefecture_kana": "キョウトフ",
    "prefecture_code": 26,
    "city": "南丹市",
    "city_kana": "ナンタンシ",
    "town": "美山町長谷",
    "town_kana": "ミヤマチョウナガタニ",
    "street": null,
    "office_name": null,
    "office_name_kana": null
  },
  "0753": {
    "postcode": "6010753",
    "prefecture": "京都府",
    "prefecture_kana": "キョウトフ",
    "prefecture_code": 26,
    "city": "南丹市",
    "city_kana": "ナンタンシ",
    "town": "美山町上司",
    "town_kana": "ミヤマチョウジョウシ",
    "street": null,
    "office_name": null,
    "office_name_kana": null
  },
  "0754": {
    "postcode": "6010754",
    "prefecture": "京都府",
    "prefecture_kana": "キョウトフ",
    "prefecture_code": 26,
    "city": "南丹市",
    "city_kana": "ナンタンシ",
    "town": "美山町和泉",
    "town_kana": "ミヤマチョウイズミ",
    "street": null,
    "office_name": null,
    "office_name_kana": null
  },
  "0755": {
    "postcode": "6010755",
    "prefecture": "京都府",
    "prefecture_kana": "キョウトフ",
    "prefecture_code": 26,
    "city": "南丹市",
    "city_kana": "ナンタンシ",
    "town": "美山町静原",
    "town_kana": "ミヤマチョウシズハラ",
    "street": null,
    "office_name": null,
    "office_name_kana": null
  },
  "0761": {
    "postcode": "6010761",
    "prefecture": "京都府",
    "prefecture_kana": "キョウトフ",
    "prefecture_code": 26,
    "city": "南丹市",
    "city_kana": "ナンタンシ",
    "town": "美山町高野",
    "town_kana": "ミヤマチョウタカノ",
    "street": null,
    "office_name": null,
    "office_name_kana": null
  },
  "0762": {
    "postcode": "6010762",
    "prefecture": "京都府",
    "prefecture_kana": "キョウトフ",
    "prefecture_code": 26,
    "city": "南丹市",
    "city_kana": "ナンタンシ",
    "town": "美山町鶴ケ岡",
    "town_kana": "ミヤマチョウツルガオカ",
    "street": null,
    "office_name": null,
    "office_name_kana": null
  },
  "0763": {
    "postcode": "6010763",
    "prefecture": "京都府",
    "prefecture_kana": "キョウトフ",
    "prefecture_code": 26,
    "city": "南丹市",
    "city_kana": "ナンタンシ",
    "town": "美山町豊郷",
    "town_kana": "ミヤマチョウトヨサト",
    "street": null,
    "office_name": null,
    "office_name_kana": null
  },
  "0764": {
    "postcode": "6010764",
    "prefecture": "京都府",
    "prefecture_kana": "キョウトフ",
    "prefecture_code": 26,
    "city": "南丹市",
    "city_kana": "ナンタンシ",
    "town": "美山町盛郷",
    "town_kana": "ミヤマチョウモリサト",
    "street": null,
    "office_name": null,
    "office_name_kana": null
  },
  "0765": {
    "postcode": "6010765",
    "prefecture": "京都府",
    "prefecture_kana": "キョウトフ",
    "prefecture_code": 26,
    "city": "南丹市",
    "city_kana": "ナンタンシ",
    "town": "美山町福居",
    "town_kana": "ミヤマチョウフクイ",
    "street": null,
    "office_name": null,
    "office_name_kana": null
  },
  "0771": {
    "postcode": "6010771",
    "prefecture": "京都府",
    "prefecture_kana": "キョウトフ",
    "prefecture_code": 26,
    "city": "南丹市",
    "city_kana": "ナンタンシ",
    "town": "美山町萱野",
    "town_kana": "ミヤマチョウカヤノ",
    "street": null,
    "office_name": null,
    "office_name_kana": null
  },
  "0772": {
    "postcode": "6010772",
    "prefecture": "京都府",
    "prefecture_kana": "キョウトフ",
    "prefecture_code": 26,
    "city": "南丹市",
    "city_kana": "ナンタンシ",
    "town": "美山町大野",
    "town_kana": "ミヤマチョウオオノ",
    "street": null,
    "office_name": null,
    "office_name_kana": null
  },
  "0773": {
    "postcode": "6010773",
    "prefecture": "京都府",
    "prefecture_kana": "キョウトフ",
    "prefecture_code": 26,
    "city": "南丹市",
    "city_kana": "ナンタンシ",
    "town": "美山町三埜",
    "town_kana": "ミヤマチョウミツノ",
    "street": null,
    "office_name": null,
    "office_name_kana": null
  },
  "0774": {
    "postcode": "6010774",
    "prefecture": "京都府",
    "prefecture_kana": "キョウトフ",
    "prefecture_code": 26,
    "city": "南丹市",
    "city_kana": "ナンタンシ",
    "town": "美山町肱谷",
    "town_kana": "ミヤマチョウヒジタニ",
    "street": null,
    "office_name": null,
    "office_name_kana": null
  },
  "0775": {
    "postcode": "6010775",
    "prefecture": "京都府",
    "prefecture_kana": "キョウトフ",
    "prefecture_code": 26,
    "city": "南丹市",
    "city_kana": "ナンタンシ",
    "town": "美山町小渕",
    "town_kana": "ミヤマチョウオブチ",
    "street": null,
    "office_name": null,
    "office_name_kana": null
  },
  "0776": {
    "postcode": "6010776",
    "prefecture": "京都府",
    "prefecture_kana": "キョウトフ",
    "prefecture_code": 26,
    "city": "南丹市",
    "city_kana": "ナンタンシ",
    "town": "美山町向山",
    "town_kana": "ミヤマチョウムカイヤマ",
    "street": null,
    "office_name": null,
    "office_name_kana": null
  },
  "0777": {
    "postcode": "6010777",
    "prefecture": "京都府",
    "prefecture_kana": "キョウトフ",
    "prefecture_code": 26,
    "city": "南丹市",
    "city_kana": "ナンタンシ",
    "town": "美山町樫原",
    "town_kana": "ミヤマチョウカシワラ",
    "street": null,
    "office_name": null,
    "office_name_kana": null
  },
  "0778": {
    "postcode": "6010778",
    "prefecture": "京都府",
    "prefecture_kana": "キョウトフ",
    "prefecture_code": 26,
    "city": "南丹市",
    "city_kana": "ナンタンシ",
    "town": "美山町音海",
    "town_kana": "ミヤマチョウオトミ",
    "street": null,
    "office_name": null,
    "office_name_kana": null
  },
  "0797": {
    "postcode": "6010797",
    "prefecture": "京都府",
    "prefecture_kana": "キョウトフ",
    "prefecture_code": 26,
    "city": "南丹市",
    "city_kana": "ナンタンシ",
    "town": "美山町島",
    "town_kana": "ミヤマチョウシマ",
    "street": "島台５１番地",
    "office_name": "南丹市役所美山支所",
    "office_name_kana": "ナンタンシヤクシヨミヤマシシヨ"
  },
  "1101": [
    {
      "postcode": "6011101",
      "prefecture": "京都府",
      "prefecture_kana": "キョウトフ",
      "prefecture_code": 26,
      "city": "京都市左京区",
      "city_kana": "キョウトシサキョウク",
      "town": "広河原",
      "town_kana": "ヒロガワラ",
      "street": null,
      "office_name": null,
      "office_name_kana": null
    },
    {
      "postcode": "6011101",
      "prefecture": "京都府",
      "prefecture_kana": "キョウトフ",
      "prefecture_code": 26,
      "city": "京都市左京区",
      "city_kana": "キョウトシサキョウク",
      "town": "広河原各町",
      "town_kana": "ヒロガワラカクマチ",
      "street": null,
      "office_name": null,
      "office_name_kana": null
    }
  ],
  "1102": {
    "postcode": "6011102",
    "prefecture": "京都府",
    "prefecture_kana": "キョウトフ",
    "prefecture_code": 26,
    "city": "京都市左京区",
    "city_kana": "キョウトシサキョウク",
    "town": "花脊原地町",
    "town_kana": "ハナセハラチチョウ",
    "street": null,
    "office_name": null,
    "office_name_kana": null
  },
  "1103": {
    "postcode": "6011103",
    "prefecture": "京都府",
    "prefecture_kana": "キョウトフ",
    "prefecture_code": 26,
    "city": "京都市左京区",
    "city_kana": "キョウトシサキョウク",
    "town": "花脊八桝町",
    "town_kana": "ハナセヤマスチョウ",
    "street": null,
    "office_name": null,
    "office_name_kana": null
  },
  "1104": {
    "postcode": "6011104",
    "prefecture": "京都府",
    "prefecture_kana": "キョウトフ",
    "prefecture_code": 26,
    "city": "京都市左京区",
    "city_kana": "キョウトシサキョウク",
    "town": "花脊大布施町",
    "town_kana": "ハナセオオフセチョウ",
    "street": null,
    "office_name": null,
    "office_name_kana": null
  },
  "1105": {
    "postcode": "6011105",
    "prefecture": "京都府",
    "prefecture_kana": "キョウトフ",
    "prefecture_code": 26,
    "city": "京都市左京区",
    "city_kana": "キョウトシサキョウク",
    "town": "花脊別所町",
    "town_kana": "ハナセベッショチョウ",
    "street": null,
    "office_name": null,
    "office_name_kana": null
  },
  "1111": {
    "postcode": "6011111",
    "prefecture": "京都府",
    "prefecture_kana": "キョウトフ",
    "prefecture_code": 26,
    "city": "京都市左京区",
    "city_kana": "キョウトシサキョウク",
    "town": "鞍馬本町",
    "town_kana": "クラマホンマチ",
    "street": null,
    "office_name": null,
    "office_name_kana": null
  },
  "1112": {
    "postcode": "6011112",
    "prefecture": "京都府",
    "prefecture_kana": "キョウトフ",
    "prefecture_code": 26,
    "city": "京都市左京区",
    "city_kana": "キョウトシサキョウク",
    "town": "鞍馬貴船町",
    "town_kana": "クラマキブネチョウ",
    "street": null,
    "office_name": null,
    "office_name_kana": null
  },
  "1113": {
    "postcode": "6011113",
    "prefecture": "京都府",
    "prefecture_kana": "キョウトフ",
    "prefecture_code": 26,
    "city": "京都市左京区",
    "city_kana": "キョウトシサキョウク",
    "town": "鞍馬二ノ瀬町",
    "town_kana": "クラマニノセチョウ",
    "street": null,
    "office_name": null,
    "office_name_kana": null
  },
  "1121": {
    "postcode": "6011121",
    "prefecture": "京都府",
    "prefecture_kana": "キョウトフ",
    "prefecture_code": 26,
    "city": "京都市左京区",
    "city_kana": "キョウトシサキョウク",
    "town": "静市静原町",
    "town_kana": "シズイチシズハラチョウ",
    "street": null,
    "office_name": null,
    "office_name_kana": null
  },
  "1122": {
    "postcode": "6011122",
    "prefecture": "京都府",
    "prefecture_kana": "キョウトフ",
    "prefecture_code": 26,
    "city": "京都市左京区",
    "city_kana": "キョウトシサキョウク",
    "town": "静市野中町",
    "town_kana": "シズイチノナカチョウ",
    "street": null,
    "office_name": null,
    "office_name_kana": null
  },
  "1123": {
    "postcode": "6011123",
    "prefecture": "京都府",
    "prefecture_kana": "キョウトフ",
    "prefecture_code": 26,
    "city": "京都市左京区",
    "city_kana": "キョウトシサキョウク",
    "town": "静市市原町",
    "town_kana": "シズイチイチハラチョウ",
    "street": null,
    "office_name": null,
    "office_name_kana": null
  },
  "1124": {
    "postcode": "6011124",
    "prefecture": "京都府",
    "prefecture_kana": "キョウトフ",
    "prefecture_code": 26,
    "city": "京都市左京区",
    "city_kana": "キョウトシサキョウク",
    "town": "岩倉上蔵町",
    "town_kana": "イワクラアグラチョウ",
    "street": null,
    "office_name": null,
    "office_name_kana": null
  },
  "1125": {
    "postcode": "6011125",
    "prefecture": "京都府",
    "prefecture_kana": "キョウトフ",
    "prefecture_code": 26,
    "city": "京都市左京区",
    "city_kana": "キョウトシサキョウク",
    "town": "岩倉木野町",
    "town_kana": "イワクラキノチョウ",
    "street": null,
    "office_name": null,
    "office_name_kana": null
  },
  "1192": {
    "postcode": "6011192",
    "prefecture": "京都府",
    "prefecture_kana": "キョウトフ",
    "prefecture_code": 26,
    "city": "京都市左京区",
    "city_kana": "キョウトシサキョウク",
    "town": "静市市原町",
    "town_kana": "シズイチイチハラチョウ",
    "street": "２６５",
    "office_name": "株式会社　川島織物セルコン　市原事業所",
    "office_name_kana": "カブシキガイシヤ カワシマオリモノセルコン イチハラジギヨウシヨ"
  },
  "1231": {
    "postcode": "6011231",
    "prefecture": "京都府",
    "prefecture_kana": "キョウトフ",
    "prefecture_code": 26,
    "city": "京都市左京区",
    "city_kana": "キョウトシサキョウク",
    "town": "大原尾越町",
    "town_kana": "オオハラオゴセチョウ",
    "street": null,
    "office_name": null,
    "office_name_kana": null
  },
  "1232": {
    "postcode": "6011232",
    "prefecture": "京都府",
    "prefecture_kana": "キョウトフ",
    "prefecture_code": 26,
    "city": "京都市左京区",
    "city_kana": "キョウトシサキョウク",
    "town": "大原大見町",
    "town_kana": "オオハラオオミチョウ",
    "street": null,
    "office_name": null,
    "office_name_kana": null
  },
  "1233": {
    "postcode": "6011233",
    "prefecture": "京都府",
    "prefecture_kana": "キョウトフ",
    "prefecture_code": 26,
    "city": "京都市左京区",
    "city_kana": "キョウトシサキョウク",
    "town": "大原百井町",
    "town_kana": "オオハラモモイチョウ",
    "street": null,
    "office_name": null,
    "office_name_kana": null
  },
  "1234": {
    "postcode": "6011234",
    "prefecture": "京都府",
    "prefecture_kana": "キョウトフ",
    "prefecture_code": 26,
    "city": "京都市左京区",
    "city_kana": "キョウトシサキョウク",
    "town": "大原小出石町",
    "town_kana": "オオハラコデイシチョウ",
    "street": null,
    "office_name": null,
    "office_name_kana": null
  },
  "1235": {
    "postcode": "6011235",
    "prefecture": "京都府",
    "prefecture_kana": "キョウトフ",
    "prefecture_code": 26,
    "city": "京都市左京区",
    "city_kana": "キョウトシサキョウク",
    "town": "大原古知平町",
    "town_kana": "オオハラコチヒラチョウ",
    "street": null,
    "office_name": null,
    "office_name_kana": null
  },
  "1241": {
    "postcode": "6011241",
    "prefecture": "京都府",
    "prefecture_kana": "キョウトフ",
    "prefecture_code": 26,
    "city": "京都市左京区",
    "city_kana": "キョウトシサキョウク",
    "town": "大原勝林院町",
    "town_kana": "オオハラショウリンインチョウ",
    "street": null,
    "office_name": null,
    "office_name_kana": null
  },
  "1242": {
    "postcode": "6011242",
    "prefecture": "京都府",
    "prefecture_kana": "キョウトフ",
    "prefecture_code": 26,
    "city": "京都市左京区",
    "city_kana": "キョウトシサキョウク",
    "town": "大原来迎院町",
    "town_kana": "オオハラライコウインチョウ",
    "street": null,
    "office_name": null,
    "office_name_kana": null
  },
  "1243": {
    "postcode": "6011243",
    "prefecture": "京都府",
    "prefecture_kana": "キョウトフ",
    "prefecture_code": 26,
    "city": "京都市左京区",
    "city_kana": "キョウトシサキョウク",
    "town": "大原大長瀬町",
    "town_kana": "オオハラオオナガセチョウ",
    "street": null,
    "office_name": null,
    "office_name_kana": null
  },
  "1244": {
    "postcode": "6011244",
    "prefecture": "京都府",
    "prefecture_kana": "キョウトフ",
    "prefecture_code": 26,
    "city": "京都市左京区",
    "city_kana": "キョウトシサキョウク",
    "town": "大原上野町",
    "town_kana": "オオハラウエノチョウ",
    "street": null,
    "office_name": null,
    "office_name_kana": null
  },
  "1245": {
    "postcode": "6011245",
    "prefecture": "京都府",
    "prefecture_kana": "キョウトフ",
    "prefecture_code": 26,
    "city": "京都市左京区",
    "city_kana": "キョウトシサキョウク",
    "town": "大原戸寺町",
    "town_kana": "オオハラトデラチョウ",
    "street": null,
    "office_name": null,
    "office_name_kana": null
  },
  "1246": {
    "postcode": "6011246",
    "prefecture": "京都府",
    "prefecture_kana": "キョウトフ",
    "prefecture_code": 26,
    "city": "京都市左京区",
    "city_kana": "キョウトシサキョウク",
    "town": "大原井出町",
    "town_kana": "オオハライデチョウ",
    "street": null,
    "office_name": null,
    "office_name_kana": null
  },
  "1247": {
    "postcode": "6011247",
    "prefecture": "京都府",
    "prefecture_kana": "キョウトフ",
    "prefecture_code": 26,
    "city": "京都市左京区",
    "city_kana": "キョウトシサキョウク",
    "town": "大原野村町",
    "town_kana": "オオハラノムラチョウ",
    "street": null,
    "office_name": null,
    "office_name_kana": null
  },
  "1248": {
    "postcode": "6011248",
    "prefecture": "京都府",
    "prefecture_kana": "キョウトフ",
    "prefecture_code": 26,
    "city": "京都市左京区",
    "city_kana": "キョウトシサキョウク",
    "town": "大原草生町",
    "town_kana": "オオハラクサオチョウ",
    "street": null,
    "office_name": null,
    "office_name_kana": null
  },
  "1251": {
    "postcode": "6011251",
    "prefecture": "京都府",
    "prefecture_kana": "キョウトフ",
    "prefecture_code": 26,
    "city": "京都市左京区",
    "city_kana": "キョウトシサキョウク",
    "town": "八瀬花尻町",
    "town_kana": "ヤセハナジリチョウ",
    "street": null,
    "office_name": null,
    "office_name_kana": null
  },
  "1252": {
    "postcode": "6011252",
    "prefecture": "京都府",
    "prefecture_kana": "キョウトフ",
    "prefecture_code": 26,
    "city": "京都市左京区",
    "city_kana": "キョウトシサキョウク",
    "town": "八瀬秋元町",
    "town_kana": "ヤセアキモトチョウ",
    "street": null,
    "office_name": null,
    "office_name_kana": null
  },
  "1253": {
    "postcode": "6011253",
    "prefecture": "京都府",
    "prefecture_kana": "キョウトフ",
    "prefecture_code": 26,
    "city": "京都市左京区",
    "city_kana": "キョウトシサキョウク",
    "town": "八瀬近衛町",
    "town_kana": "ヤセコノエチョウ",
    "street": null,
    "office_name": null,
    "office_name_kana": null
  },
  "1254": {
    "postcode": "6011254",
    "prefecture": "京都府",
    "prefecture_kana": "キョウトフ",
    "prefecture_code": 26,
    "city": "京都市左京区",
    "city_kana": "キョウトシサキョウク",
    "town": "八瀬野瀬町",
    "town_kana": "ヤセノセチョウ",
    "street": null,
    "office_name": null,
    "office_name_kana": null
  },
  "1255": {
    "postcode": "6011255",
    "prefecture": "京都府",
    "prefecture_kana": "キョウトフ",
    "prefecture_code": 26,
    "city": "京都市左京区",
    "city_kana": "キョウトシサキョウク",
    "town": "上高野東山",
    "town_kana": "カミタカノヒガシヤマ",
    "street": null,
    "office_name": null,
    "office_name_kana": null
  },
  "1301": {
    "postcode": "6011301",
    "prefecture": "京都府",
    "prefecture_kana": "キョウトフ",
    "prefecture_code": 26,
    "city": "京都市伏見区",
    "city_kana": "キョウトシフシミク",
    "town": "醍醐上山田",
    "town_kana": "ダイゴカミヤマダ",
    "street": null,
    "office_name": null,
    "office_name_kana": null
  },
  "1302": {
    "postcode": "6011302",
    "prefecture": "京都府",
    "prefecture_kana": "キョウトフ",
    "prefecture_code": 26,
    "city": "京都市伏見区",
    "city_kana": "キョウトシフシミク",
    "town": "醍醐内ケ井戸",
    "town_kana": "ダイゴウチガイド",
    "street": null,
    "office_name": null,
    "office_name_kana": null
  },
  "1303": {
    "postcode": "6011303",
    "prefecture": "京都府",
    "prefecture_kana": "キョウトフ",
    "prefecture_code": 26,
    "city": "京都市伏見区",
    "city_kana": "キョウトシフシミク",
    "town": "醍醐大畑町",
    "town_kana": "ダイゴオオハタチョウ",
    "street": null,
    "office_name": null,
    "office_name_kana": null
  },
  "1304": {
    "postcode": "6011304",
    "prefecture": "京都府",
    "prefecture_kana": "キョウトフ",
    "prefecture_code": 26,
    "city": "京都市伏見区",
    "city_kana": "キョウトシフシミク",
    "town": "醍醐山ケ鼻",
    "town_kana": "ダイゴヤマガハナ",
    "street": null,
    "office_name": null,
    "office_name_kana": null
  },
  "1305": {
    "postcode": "6011305",
    "prefecture": "京都府",
    "prefecture_kana": "キョウトフ",
    "prefecture_code": 26,
    "city": "京都市伏見区",
    "city_kana": "キョウトシフシミク",
    "town": "醍醐柿原町",
    "town_kana": "ダイゴカキハラチョウ",
    "street": null,
    "office_name": null,
    "office_name_kana": null
  },
  "1306": {
    "postcode": "6011306",
    "prefecture": "京都府",
    "prefecture_kana": "キョウトフ",
    "prefecture_code": 26,
    "city": "京都市伏見区",
    "city_kana": "キョウトシフシミク",
    "town": "醍醐連蔵",
    "town_kana": "ダイゴレンゾウ",
    "street": null,
    "office_name": null,
    "office_name_kana": null
  },
  "1307": {
    "postcode": "6011307",
    "prefecture": "京都府",
    "prefecture_kana": "キョウトフ",
    "prefecture_code": 26,
    "city": "京都市伏見区",
    "city_kana": "キョウトシフシミク",
    "town": "醍醐狭間",
    "town_kana": "ダイゴハザマ",
    "street": null,
    "office_name": null,
    "office_name_kana": null
  },
  "1308": {
    "postcode": "6011308",
    "prefecture": "京都府",
    "prefecture_kana": "キョウトフ",
    "prefecture_code": 26,
    "city": "京都市伏見区",
    "city_kana": "キョウトシフシミク",
    "town": "醍醐御所ノ内",
    "town_kana": "ダイゴゴショノウチ",
    "street": null,
    "office_name": null,
    "office_name_kana": null
  },
  "1311": {
    "postcode": "6011311",
    "prefecture": "京都府",
    "prefecture_kana": "キョウトフ",
    "prefecture_code": 26,
    "city": "京都市伏見区",
    "city_kana": "キョウトシフシミク",
    "town": "醍醐大高町",
    "town_kana": "ダイゴオオタカチョウ",
    "street": null,
    "office_name": null,
    "office_name_kana": null
  },
  "1312": {
    "postcode": "6011312",
    "prefecture": "京都府",
    "prefecture_kana": "キョウトフ",
    "prefecture_code": 26,
    "city": "京都市伏見区",
    "city_kana": "キョウトシフシミク",
    "town": "醍醐片山町",
    "town_kana": "ダイゴカタヤマチョウ",
    "street": null,
    "office_name": null,
    "office_name_kana": null
  },
  "1313": {
    "postcode": "6011313",
    "prefecture": "京都府",
    "prefecture_kana": "キョウトフ",
    "prefecture_code": 26,
    "city": "京都市伏見区",
    "city_kana": "キョウトシフシミク",
    "town": "醍醐御陵東裏町",
    "town_kana": "ダイゴゴリョウヒガシウラチョウ",
    "street": null,
    "office_name": null,
    "office_name_kana": null
  },
  "1314": {
    "postcode": "6011314",
    "prefecture": "京都府",
    "prefecture_kana": "キョウトフ",
    "prefecture_code": 26,
    "city": "京都市伏見区",
    "city_kana": "キョウトシフシミク",
    "town": "醍醐御陵西裏町",
    "town_kana": "ダイゴゴリョウニシウラチョウ",
    "street": null,
    "office_name": null,
    "office_name_kana": null
  },
  "1315": {
    "postcode": "6011315",
    "prefecture": "京都府",
    "prefecture_kana": "キョウトフ",
    "prefecture_code": 26,
    "city": "京都市伏見区",
    "city_kana": "キョウトシフシミク",
    "town": "醍醐烏橋町",
    "town_kana": "ダイゴカラスバシチョウ",
    "street": null,
    "office_name": null,
    "office_name_kana": null
  },
  "1316": {
    "postcode": "6011316",
    "prefecture": "京都府",
    "prefecture_kana": "キョウトフ",
    "prefecture_code": 26,
    "city": "京都市伏見区",
    "city_kana": "キョウトシフシミク",
    "town": "醍醐古道町",
    "town_kana": "ダイゴフルミチチョウ",
    "street": null,
    "office_name": null,
    "office_name_kana": null
  },
  "1317": {
    "postcode": "6011317",
    "prefecture": "京都府",
    "prefecture_kana": "キョウトフ",
    "prefecture_code": 26,
    "city": "京都市伏見区",
    "city_kana": "キョウトシフシミク",
    "town": "醍醐京道町",
    "town_kana": "ダイゴキョウミチチョウ",
    "street": null,
    "office_name": null,
    "office_name_kana": null
  },
  "1318": {
    "postcode": "6011318",
    "prefecture": "京都府",
    "prefecture_kana": "キョウトフ",
    "prefecture_code": 26,
    "city": "京都市伏見区",
    "city_kana": "キョウトシフシミク",
    "town": "醍醐廻り戸町",
    "town_kana": "ダイゴマワリドチョウ",
    "street": null,
    "office_name": null,
    "office_name_kana": null
  },
  "1321": {
    "postcode": "6011321",
    "prefecture": "京都府",
    "prefecture_kana": "キョウトフ",
    "prefecture_code": 26,
    "city": "京都市伏見区",
    "city_kana": "キョウトシフシミク",
    "town": "醍醐北端山",
    "town_kana": "ダイゴキタハヤマ",
    "street": null,
    "office_name": null,
    "office_name_kana": null
  },
  "1322": {
    "postcode": "6011322",
    "prefecture": "京都府",
    "prefecture_kana": "キョウトフ",
    "prefecture_code": 26,
    "city": "京都市伏見区",
    "city_kana": "キョウトシフシミク",
    "town": "醍醐北伽藍町",
    "town_kana": "ダイゴキタガランチョウ",
    "street": null,
    "office_name": null,
    "office_name_kana": null
  },
  "1323": {
    "postcode": "6011323",
    "prefecture": "京都府",
    "prefecture_kana": "キョウトフ",
    "prefecture_code": 26,
    "city": "京都市伏見区",
    "city_kana": "キョウトシフシミク",
    "town": "醍醐赤間南裏町",
    "town_kana": "ダイゴアカマミナミウラチョウ",
    "street": null,
    "office_name": null,
    "office_name_kana": null
  },
  "1324": {
    "postcode": "6011324",
    "prefecture": "京都府",
    "prefecture_kana": "キョウトフ",
    "prefecture_code": 26,
    "city": "京都市伏見区",
    "city_kana": "キョウトシフシミク",
    "town": "醍醐伽藍町",
    "town_kana": "ダイゴガランチョウ",
    "street": null,
    "office_name": null,
    "office_name_kana": null
  },
  "1325": {
    "postcode": "6011325",
    "prefecture": "京都府",
    "prefecture_kana": "キョウトフ",
    "prefecture_code": 26,
    "city": "京都市伏見区",
    "city_kana": "キョウトシフシミク",
    "town": "醍醐東大路町",
    "town_kana": "ダイゴヒガシオオジチョウ",
    "street": null,
    "office_name": null,
    "office_name_kana": null
  },
  "1326": {
    "postcode": "6011326",
    "prefecture": "京都府",
    "prefecture_kana": "キョウトフ",
    "prefecture_code": 26,
    "city": "京都市伏見区",
    "city_kana": "キョウトシフシミク",
    "town": "醍醐新町裏町",
    "town_kana": "ダイゴシンマチウラマチ",
    "street": null,
    "office_name": null,
    "office_name_kana": null
  },
  "1327": {
    "postcode": "6011327",
    "prefecture": "京都府",
    "prefecture_kana": "キョウトフ",
    "prefecture_code": 26,
    "city": "京都市伏見区",
    "city_kana": "キョウトシフシミク",
    "town": "醍醐切レ戸町",
    "town_kana": "ダイゴキレドチョウ",
    "street": null,
    "office_name": null,
    "office_name_kana": null
  },
  "1331": {
    "postcode": "6011331",
    "prefecture": "京都府",
    "prefecture_kana": "キョウトフ",
    "prefecture_code": 26,
    "city": "京都市伏見区",
    "city_kana": "キョウトシフシミク",
    "town": "醍醐南端山町",
    "town_kana": "ダイゴミナミハヤマチョウ",
    "street": null,
    "office_name": null,
    "office_name_kana": null
  },
  "1332": {
    "postcode": "6011332",
    "prefecture": "京都府",
    "prefecture_kana": "キョウトフ",
    "prefecture_code": 26,
    "city": "京都市伏見区",
    "city_kana": "キョウトシフシミク",
    "town": "醍醐下端山町",
    "town_kana": "ダイゴシモハヤマチョウ",
    "street": null,
    "office_name": null,
    "office_name_kana": null
  },
  "1333": {
    "postcode": "6011333",
    "prefecture": "京都府",
    "prefecture_kana": "キョウトフ",
    "prefecture_code": 26,
    "city": "京都市伏見区",
    "city_kana": "キョウトシフシミク",
    "town": "醍醐上端山町",
    "town_kana": "ダイゴカミハヤマチョウ",
    "street": null,
    "office_name": null,
    "office_name_kana": null
  },
  "1334": {
    "postcode": "6011334",
    "prefecture": "京都府",
    "prefecture_kana": "キョウトフ",
    "prefecture_code": 26,
    "city": "京都市伏見区",
    "city_kana": "キョウトシフシミク",
    "town": "醍醐勝口町",
    "town_kana": "ダイゴショウクチチョウ",
    "street": null,
    "office_name": null,
    "office_name_kana": null
  },
  "1335": {
    "postcode": "6011335",
    "prefecture": "京都府",
    "prefecture_kana": "キョウトフ",
    "prefecture_code": 26,
    "city": "京都市伏見区",
    "city_kana": "キョウトシフシミク",
    "town": "醍醐一言寺裏町",
    "town_kana": "ダイゴイチゴンジウラチョウ",
    "street": null,
    "office_name": null,
    "office_name_kana": null
  },
  "1336": {
    "postcode": "6011336",
    "prefecture": "京都府",
    "prefecture_kana": "キョウトフ",
    "prefecture_code": 26,
    "city": "京都市伏見区",
    "city_kana": "キョウトシフシミク",
    "town": "醍醐柏森町",
    "town_kana": "ダイゴカシワモリチョウ",
    "street": null,
    "office_name": null,
    "office_name_kana": null
  },
  "1337": {
    "postcode": "6011337",
    "prefecture": "京都府",
    "prefecture_kana": "キョウトフ",
    "prefecture_code": 26,
    "city": "京都市伏見区",
    "city_kana": "キョウトシフシミク",
    "town": "醍醐槇ノ内町",
    "town_kana": "ダイゴマキノウチチョウ",
    "street": null,
    "office_name": null,
    "office_name_kana": null
  },
  "1338": {
    "postcode": "6011338",
    "prefecture": "京都府",
    "prefecture_kana": "キョウトフ",
    "prefecture_code": 26,
    "city": "京都市伏見区",
    "city_kana": "キョウトシフシミク",
    "town": "醍醐落保町",
    "town_kana": "ダイゴオチボチョウ",
    "street": null,
    "office_name": null,
    "office_name_kana": null
  },
  "1341": {
    "postcode": "6011341",
    "prefecture": "京都府",
    "prefecture_kana": "キョウトフ",
    "prefecture_code": 26,
    "city": "京都市伏見区",
    "city_kana": "キョウトシフシミク",
    "town": "醍醐岸ノ上町",
    "town_kana": "ダイゴキシノウエチョウ",
    "street": null,
    "office_name": null,
    "office_name_kana": null
  },
  "1342": {
    "postcode": "6011342",
    "prefecture": "京都府",
    "prefecture_kana": "キョウトフ",
    "prefecture_code": 26,
    "city": "京都市伏見区",
    "city_kana": "キョウトシフシミク",
    "town": "醍醐上山口町",
    "town_kana": "ダイゴカミヤマグチチョウ",
    "street": null,
    "office_name": null,
    "office_name_kana": null
  },
  "1343": {
    "postcode": "6011343",
    "prefecture": "京都府",
    "prefecture_kana": "キョウトフ",
    "prefecture_code": 26,
    "city": "京都市伏見区",
    "city_kana": "キョウトシフシミク",
    "town": "醍醐下山口町",
    "town_kana": "ダイゴシモヤマグチチョウ",
    "street": null,
    "office_name": null,
    "office_name_kana": null
  },
  "1344": {
    "postcode": "6011344",
    "prefecture": "京都府",
    "prefecture_kana": "キョウトフ",
    "prefecture_code": 26,
    "city": "京都市伏見区",
    "city_kana": "キョウトシフシミク",
    "town": "醍醐辰巳町",
    "town_kana": "ダイゴタツミチョウ",
    "street": null,
    "office_name": null,
    "office_name_kana": null
  },
  "1345": {
    "postcode": "6011345",
    "prefecture": "京都府",
    "prefecture_kana": "キョウトフ",
    "prefecture_code": 26,
    "city": "京都市伏見区",
    "city_kana": "キョウトシフシミク",
    "town": "醍醐外山街道町",
    "town_kana": "ダイゴソトヤマカイドウチョウ",
    "street": null,
    "office_name": null,
    "office_name_kana": null
  },
  "1346": {
    "postcode": "6011346",
    "prefecture": "京都府",
    "prefecture_kana": "キョウトフ",
    "prefecture_code": 26,
    "city": "京都市伏見区",
    "city_kana": "キョウトシフシミク",
    "town": "醍醐東合場町",
    "town_kana": "ダイゴヒガシアイバチョウ",
    "street": null,
    "office_name": null,
    "office_name_kana": null
  },
  "1347": {
    "postcode": "6011347",
    "prefecture": "京都府",
    "prefecture_kana": "キョウトフ",
    "prefecture_code": 26,
    "city": "京都市伏見区",
    "city_kana": "キョウトシフシミク",
    "town": "醍醐合場町",
    "town_kana": "ダイゴアイバチョウ",
    "street": null,
    "office_name": null,
    "office_name_kana": null
  },
  "1351": {
    "postcode": "6011351",
    "prefecture": "京都府",
    "prefecture_kana": "キョウトフ",
    "prefecture_code": 26,
    "city": "京都市伏見区",
    "city_kana": "キョウトシフシミク",
    "town": "醍醐和泉町",
    "town_kana": "ダイゴイズミチョウ",
    "street": null,
    "office_name": null,
    "office_name_kana": null
  },
  "1352": {
    "postcode": "6011352",
    "prefecture": "京都府",
    "prefecture_kana": "キョウトフ",
    "prefecture_code": 26,
    "city": "京都市伏見区",
    "city_kana": "キョウトシフシミク",
    "town": "醍醐南里町",
    "town_kana": "ダイゴミナミサトチョウ",
    "street": null,
    "office_name": null,
    "office_name_kana": null
  },
  "1353": {
    "postcode": "6011353",
    "prefecture": "京都府",
    "prefecture_kana": "キョウトフ",
    "prefecture_code": 26,
    "city": "京都市伏見区",
    "city_kana": "キョウトシフシミク",
    "town": "醍醐御園尾町",
    "town_kana": "ダイゴミソノオチョウ",
    "street": null,
    "office_name": null,
    "office_name_kana": null
  },
  "1354": {
    "postcode": "6011354",
    "prefecture": "京都府",
    "prefecture_kana": "キョウトフ",
    "prefecture_code": 26,
    "city": "京都市伏見区",
    "city_kana": "キョウトシフシミク",
    "town": "醍醐構口町",
    "town_kana": "ダイゴカマエグチチョウ",
    "street": null,
    "office_name": null,
    "office_name_kana": null
  },
  "1355": {
    "postcode": "6011355",
    "prefecture": "京都府",
    "prefecture_kana": "キョウトフ",
    "prefecture_code": 26,
    "city": "京都市伏見区",
    "city_kana": "キョウトシフシミク",
    "town": "醍醐多近田町",
    "town_kana": "ダイゴタコンダチョウ",
    "street": null,
    "office_name": null,
    "office_name_kana": null
  },
  "1356": {
    "postcode": "6011356",
    "prefecture": "京都府",
    "prefecture_kana": "キョウトフ",
    "prefecture_code": 26,
    "city": "京都市伏見区",
    "city_kana": "キョウトシフシミク",
    "town": "醍醐南西裏町",
    "town_kana": "ダイゴミナミニシウラチョウ",
    "street": null,
    "office_name": null,
    "office_name_kana": null
  },
  "1357": {
    "postcode": "6011357",
    "prefecture": "京都府",
    "prefecture_kana": "キョウトフ",
    "prefecture_code": 26,
    "city": "京都市伏見区",
    "city_kana": "キョウトシフシミク",
    "town": "醍醐僧尊坊町",
    "town_kana": "ダイゴドドンボウチョウ",
    "street": null,
    "office_name": null,
    "office_name_kana": null
  },
  "1361": {
    "postcode": "6011361",
    "prefecture": "京都府",
    "prefecture_kana": "キョウトフ",
    "prefecture_code": 26,
    "city": "京都市伏見区",
    "city_kana": "キョウトシフシミク",
    "town": "醍醐御霊ケ下町",
    "town_kana": "ダイゴゴリョウガシタチョウ",
    "street": null,
    "office_name": null,
    "office_name_kana": null
  },
  "1362": {
    "postcode": "6011362",
    "prefecture": "京都府",
    "prefecture_kana": "キョウトフ",
    "prefecture_code": 26,
    "city": "京都市伏見区",
    "city_kana": "キョウトシフシミク",
    "town": "醍醐池田町",
    "town_kana": "ダイゴイケダチョウ",
    "street": null,
    "office_name": null,
    "office_name_kana": null
  },
  "1363": {
    "postcode": "6011363",
    "prefecture": "京都府",
    "prefecture_kana": "キョウトフ",
    "prefecture_code": 26,
    "city": "京都市伏見区",
    "city_kana": "キョウトシフシミク",
    "town": "醍醐鍵尾町",
    "town_kana": "ダイゴカギオチョウ",
    "street": null,
    "office_name": null,
    "office_name_kana": null
  },
  "1364": {
    "postcode": "6011364",
    "prefecture": "京都府",
    "prefecture_kana": "キョウトフ",
    "prefecture_code": 26,
    "city": "京都市伏見区",
    "city_kana": "キョウトシフシミク",
    "town": "醍醐江奈志町",
    "town_kana": "ダイゴエナシチョウ",
    "street": null,
    "office_name": null,
    "office_name_kana": null
  },
  "1365": {
    "postcode": "6011365",
    "prefecture": "京都府",
    "prefecture_kana": "キョウトフ",
    "prefecture_code": 26,
    "city": "京都市伏見区",
    "city_kana": "キョウトシフシミク",
    "town": "醍醐新開",
    "town_kana": "ダイゴシンカイ",
    "street": null,
    "office_name": null,
    "office_name_kana": null
  },
  "1366": {
    "postcode": "6011366",
    "prefecture": "京都府",
    "prefecture_kana": "キョウトフ",
    "prefecture_code": 26,
    "city": "京都市伏見区",
    "city_kana": "キョウトシフシミク",
    "town": "醍醐大構町",
    "town_kana": "ダイゴオオカマエチョウ",
    "street": null,
    "office_name": null,
    "office_name_kana": null
  },
  "1371": {
    "postcode": "6011371",
    "prefecture": "京都府",
    "prefecture_kana": "キョウトフ",
    "prefecture_code": 26,
    "city": "京都市伏見区",
    "city_kana": "キョウトシフシミク",
    "town": "醍醐上ノ山町",
    "town_kana": "ダイゴウエノヤマチョウ",
    "street": null,
    "office_name": null,
    "office_name_kana": null
  },
  "1372": {
    "postcode": "6011372",
    "prefecture": "京都府",
    "prefecture_kana": "キョウトフ",
    "prefecture_code": 26,
    "city": "京都市伏見区",
    "city_kana": "キョウトシフシミク",
    "town": "醍醐平松町",
    "town_kana": "ダイゴヒラマツチョウ",
    "street": null,
    "office_name": null,
    "office_name_kana": null
  },
  "1373": {
    "postcode": "6011373",
    "prefecture": "京都府",
    "prefecture_kana": "キョウトフ",
    "prefecture_code": 26,
    "city": "京都市伏見区",
    "city_kana": "キョウトシフシミク",
    "town": "醍醐中山町",
    "town_kana": "ダイゴナカヤマチョウ",
    "street": null,
    "office_name": null,
    "office_name_kana": null
  },
  "1374": {
    "postcode": "6011374",
    "prefecture": "京都府",
    "prefecture_kana": "キョウトフ",
    "prefecture_code": 26,
    "city": "京都市伏見区",
    "city_kana": "キョウトシフシミク",
    "town": "醍醐西大路町",
    "town_kana": "ダイゴニシオオジチョウ",
    "street": null,
    "office_name": null,
    "office_name_kana": null
  },
  "1375": {
    "postcode": "6011375",
    "prefecture": "京都府",
    "prefecture_kana": "キョウトフ",
    "prefecture_code": 26,
    "city": "京都市伏見区",
    "city_kana": "キョウトシフシミク",
    "town": "醍醐高畑町",
    "town_kana": "ダイゴタカハタチョウ",
    "street": null,
    "office_name": null,
    "office_name_kana": null
  },
  "1376": {
    "postcode": "6011376",
    "prefecture": "京都府",
    "prefecture_kana": "キョウトフ",
    "prefecture_code": 26,
    "city": "京都市伏見区",
    "city_kana": "キョウトシフシミク",
    "town": "醍醐折戸町",
    "town_kana": "ダイゴオリドチョウ",
    "street": null,
    "office_name": null,
    "office_name_kana": null
  },
  "1377": {
    "postcode": "6011377",
    "prefecture": "京都府",
    "prefecture_kana": "キョウトフ",
    "prefecture_code": 26,
    "city": "京都市伏見区",
    "city_kana": "キョウトシフシミク",
    "town": "醍醐北西裏町",
    "town_kana": "ダイゴキタニシウラチョウ",
    "street": null,
    "office_name": null,
    "office_name_kana": null
  },
  "1378": {
    "postcode": "6011378",
    "prefecture": "京都府",
    "prefecture_kana": "キョウトフ",
    "prefecture_code": 26,
    "city": "京都市伏見区",
    "city_kana": "キョウトシフシミク",
    "town": "醍醐川久保町",
    "town_kana": "ダイゴカワクボチョウ",
    "street": null,
    "office_name": null,
    "office_name_kana": null
  },
  "1381": {
    "postcode": "6011381",
    "prefecture": "京都府",
    "prefecture_kana": "キョウトフ",
    "prefecture_code": 26,
    "city": "京都市伏見区",
    "city_kana": "キョウトシフシミク",
    "town": "醍醐北谷",
    "town_kana": "ダイゴキタダニ",
    "street": null,
    "office_name": null,
    "office_name_kana": null
  },
  "1382": {
    "postcode": "6011382",
    "prefecture": "京都府",
    "prefecture_kana": "キョウトフ",
    "prefecture_code": 26,
    "city": "京都市伏見区",
    "city_kana": "キョウトシフシミク",
    "town": "醍醐南谷",
    "town_kana": "ダイゴミナミダニ",
    "street": null,
    "office_name": null,
    "office_name_kana": null
  },
  "1383": {
    "postcode": "6011383",
    "prefecture": "京都府",
    "prefecture_kana": "キョウトフ",
    "prefecture_code": 26,
    "city": "京都市伏見区",
    "city_kana": "キョウトシフシミク",
    "town": "醍醐醍醐山",
    "town_kana": "ダイゴダイゴヤマ",
    "street": null,
    "office_name": null,
    "office_name_kana": null
  },
  "1384": {
    "postcode": "6011384",
    "prefecture": "京都府",
    "prefecture_kana": "キョウトフ",
    "prefecture_code": 26,
    "city": "京都市伏見区",
    "city_kana": "キョウトシフシミク",
    "town": "醍醐高田",
    "town_kana": "ダイゴタカダ",
    "street": null,
    "office_name": null,
    "office_name_kana": null
  },
  "1385": {
    "postcode": "6011385",
    "prefecture": "京都府",
    "prefecture_kana": "キョウトフ",
    "prefecture_code": 26,
    "city": "京都市伏見区",
    "city_kana": "キョウトシフシミク",
    "town": "醍醐宮ノ下町",
    "town_kana": "ダイゴミヤノシタチョウ",
    "street": null,
    "office_name": null,
    "office_name_kana": null
  },
  "1386": {
    "postcode": "6011386",
    "prefecture": "京都府",
    "prefecture_kana": "キョウトフ",
    "prefecture_code": 26,
    "city": "京都市伏見区",
    "city_kana": "キョウトシフシミク",
    "town": "醍醐陀羅谷",
    "town_kana": "ダイゴダラタニ",
    "street": null,
    "office_name": null,
    "office_name_kana": null
  },
  "1387": [
    {
      "postcode": "6011387",
      "prefecture": "京都府",
      "prefecture_kana": "キョウトフ",
      "prefecture_code": 26,
      "city": "京都市伏見区",
      "city_kana": "キョウトシフシミク",
      "town": "醍醐一ノ切町",
      "town_kana": "ダイゴイチノキリチョウ",
      "street": null,
      "office_name": null,
      "office_name_kana": null
    },
    {
      "postcode": "6011387",
      "prefecture": "京都府",
      "prefecture_kana": "キョウトフ",
      "prefecture_code": 26,
      "city": "京都市伏見区",
      "city_kana": "キョウトシフシミク",
      "town": "醍醐三ノ切",
      "town_kana": "ダイゴサンノキリ",
      "street": null,
      "office_name": null,
      "office_name_kana": null
    },
    {
      "postcode": "6011387",
      "prefecture": "京都府",
      "prefecture_kana": "キョウトフ",
      "prefecture_code": 26,
      "city": "京都市伏見区",
      "city_kana": "キョウトシフシミク",
      "town": "醍醐二ノ切町",
      "town_kana": "ダイゴニノキリチョウ",
      "street": null,
      "office_name": null,
      "office_name_kana": null
    }
  ],
  "1391": {
    "postcode": "6011391",
    "prefecture": "京都府",
    "prefecture_kana": "キョウトフ",
    "prefecture_code": 26,
    "city": "宇治市",
    "city_kana": "ウジシ",
    "town": "東笠取",
    "town_kana": "ヒガシカサトリ",
    "street": null,
    "office_name": null,
    "office_name_kana": null
  },
  "1392": {
    "postcode": "6011392",
    "prefecture": "京都府",
    "prefecture_kana": "キョウトフ",
    "prefecture_code": 26,
    "city": "宇治市",
    "city_kana": "ウジシ",
    "town": "西笠取",
    "town_kana": "ニシカサトリ",
    "street": null,
    "office_name": null,
    "office_name_kana": null
  },
  "1393": {
    "postcode": "6011393",
    "prefecture": "京都府",
    "prefecture_kana": "キョウトフ",
    "prefecture_code": 26,
    "city": "宇治市",
    "city_kana": "ウジシ",
    "town": "二尾",
    "town_kana": "ニオ",
    "street": null,
    "office_name": null,
    "office_name_kana": null
  },
  "1394": {
    "postcode": "6011394",
    "prefecture": "京都府",
    "prefecture_kana": "キョウトフ",
    "prefecture_code": 26,
    "city": "宇治市",
    "city_kana": "ウジシ",
    "town": "池尾",
    "town_kana": "イケノオ",
    "street": null,
    "office_name": null,
    "office_name_kana": null
  },
  "1395": {
    "postcode": "6011395",
    "prefecture": "京都府",
    "prefecture_kana": "キョウトフ",
    "prefecture_code": 26,
    "city": "宇治市",
    "city_kana": "ウジシ",
    "town": "炭山",
    "town_kana": "スミヤマ",
    "street": null,
    "office_name": null,
    "office_name_kana": null
  },
  "1396": {
    "postcode": "6011396",
    "prefecture": "京都府",
    "prefecture_kana": "キョウトフ",
    "prefecture_code": 26,
    "city": "宇治市",
    "city_kana": "ウジシ",
    "town": "莵道東垣内",
    "town_kana": "トドウヒガシガイト",
    "street": null,
    "office_name": null,
    "office_name_kana": null
  },
  "1397": {
    "postcode": "6011397",
    "prefecture": "京都府",
    "prefecture_kana": "キョウトフ",
    "prefecture_code": 26,
    "city": "京都市伏見区",
    "city_kana": "キョウトシフシミク",
    "town": "醍醐大構町",
    "town_kana": "ダイゴオオカマエチョウ",
    "street": "２８",
    "office_name": "京都市伏見区役所　醍醐支所",
    "office_name_kana": "キヨウトシフシミクヤクシヨ ダイゴシシヨ"
  },
  "1401": {
    "postcode": "6011401",
    "prefecture": "京都府",
    "prefecture_kana": "キョウトフ",
    "prefecture_code": 26,
    "city": "京都市伏見区",
    "city_kana": "キョウトシフシミク",
    "town": "日野北山",
    "town_kana": "ヒノキタヤマ",
    "street": null,
    "office_name": null,
    "office_name_kana": null
  },
  "1402": {
    "postcode": "6011402",
    "prefecture": "京都府",
    "prefecture_kana": "キョウトフ",
    "prefecture_code": 26,
    "city": "京都市伏見区",
    "city_kana": "キョウトシフシミク",
    "town": "日野南山",
    "town_kana": "ヒノミナミヤマ",
    "street": null,
    "office_name": null,
    "office_name_kana": null
  },
  "1403": {
    "postcode": "6011403",
    "prefecture": "京都府",
    "prefecture_kana": "キョウトフ",
    "prefecture_code": 26,
    "city": "京都市伏見区",
    "city_kana": "キョウトシフシミク",
    "town": "日野船尾",
    "town_kana": "ヒノフナオ",
    "street": null,
    "office_name": null,
    "office_name_kana": null
  },
  "1404": {
    "postcode": "6011404",
    "prefecture": "京都府",
    "prefecture_kana": "キョウトフ",
    "prefecture_code": 26,
    "city": "京都市伏見区",
    "city_kana": "キョウトシフシミク",
    "town": "日野北川頬",
    "town_kana": "ヒノキタカワヅラ",
    "street": null,
    "office_name": null,
    "office_name_kana": null
  },
  "1405": {
    "postcode": "6011405",
    "prefecture": "京都府",
    "prefecture_kana": "キョウトフ",
    "prefecture_code": 26,
    "city": "京都市伏見区",
    "city_kana": "キョウトシフシミク",
    "town": "日野林",
    "town_kana": "ヒノハヤシ",
    "street": null,
    "office_name": null,
    "office_name_kana": null
  },
  "1406": {
    "postcode": "6011406",
    "prefecture": "京都府",
    "prefecture_kana": "キョウトフ",
    "prefecture_code": 26,
    "city": "京都市伏見区",
    "city_kana": "キョウトシフシミク",
    "town": "日野谷寺町",
    "town_kana": "ヒノタニデラチョウ",
    "street": null,
    "office_name": null,
    "office_name_kana": null
  },
  "1411": {
    "postcode": "6011411",
    "prefecture": "京都府",
    "prefecture_kana": "キョウトフ",
    "prefecture_code": 26,
    "city": "京都市伏見区",
    "city_kana": "キョウトシフシミク",
    "town": "日野慈悲町",
    "town_kana": "ヒノジヒチョウ",
    "street": null,
    "office_name": null,
    "office_name_kana": null
  },
  "1412": {
    "postcode": "6011412",
    "prefecture": "京都府",
    "prefecture_kana": "キョウトフ",
    "prefecture_code": 26,
    "city": "京都市伏見区",
    "city_kana": "キョウトシフシミク",
    "town": "日野畑出町",
    "town_kana": "ヒノハタデチョウ",
    "street": null,
    "office_name": null,
    "office_name_kana": null
  },
  "1413": {
    "postcode": "6011413",
    "prefecture": "京都府",
    "prefecture_kana": "キョウトフ",
    "prefecture_code": 26,
    "city": "京都市伏見区",
    "city_kana": "キョウトシフシミク",
    "town": "日野谷田町",
    "town_kana": "ヒノタニダチョウ",
    "street": null,
    "office_name": null,
    "office_name_kana": null
  },
  "1414": {
    "postcode": "6011414",
    "prefecture": "京都府",
    "prefecture_kana": "キョウトフ",
    "prefecture_code": 26,
    "city": "京都市伏見区",
    "city_kana": "キョウトシフシミク",
    "town": "日野奥出",
    "town_kana": "ヒノオクデ",
    "street": null,
    "office_name": null,
    "office_name_kana": null
  },
  "1415": {
    "postcode": "6011415",
    "prefecture": "京都府",
    "prefecture_kana": "キョウトフ",
    "prefecture_code": 26,
    "city": "京都市伏見区",
    "city_kana": "キョウトシフシミク",
    "town": "日野野色町",
    "town_kana": "ヒノノイロチョウ",
    "street": null,
    "office_name": null,
    "office_name_kana": null
  },
  "1416": {
    "postcode": "6011416",
    "prefecture": "京都府",
    "prefecture_kana": "キョウトフ",
    "prefecture_code": 26,
    "city": "京都市伏見区",
    "city_kana": "キョウトシフシミク",
    "town": "日野岡西町",
    "town_kana": "ヒノオカニシチョウ",
    "street": null,
    "office_name": null,
    "office_name_kana": null
  },
  "1417": {
    "postcode": "6011417",
    "prefecture": "京都府",
    "prefecture_kana": "キョウトフ",
    "prefecture_code": 26,
    "city": "京都市伏見区",
    "city_kana": "キョウトシフシミク",
    "town": "日野西大道町",
    "town_kana": "ヒノニシダイドウチョウ",
    "street": null,
    "office_name": null,
    "office_name_kana": null
  },
  "1421": {
    "postcode": "6011421",
    "prefecture": "京都府",
    "prefecture_kana": "キョウトフ",
    "prefecture_code": 26,
    "city": "京都市伏見区",
    "city_kana": "キョウトシフシミク",
    "town": "日野馬場出町",
    "town_kana": "ヒノバンバテチョウ",
    "street": null,
    "office_name": null,
    "office_name_kana": null
  },
  "1422": {
    "postcode": "6011422",
    "prefecture": "京都府",
    "prefecture_kana": "キョウトフ",
    "prefecture_code": 26,
    "city": "京都市伏見区",
    "city_kana": "キョウトシフシミク",
    "town": "日野不動講町",
    "town_kana": "ヒノフドウコウチョウ",
    "street": null,
    "office_name": null,
    "office_name_kana": null
  },
  "1423": {
    "postcode": "6011423",
    "prefecture": "京都府",
    "prefecture_kana": "キョウトフ",
    "prefecture_code": 26,
    "city": "京都市伏見区",
    "city_kana": "キョウトシフシミク",
    "town": "日野西風呂町",
    "town_kana": "ヒノニシフロチョウ",
    "street": null,
    "office_name": null,
    "office_name_kana": null
  },
  "1424": {
    "postcode": "6011424",
    "prefecture": "京都府",
    "prefecture_kana": "キョウトフ",
    "prefecture_code": 26,
    "city": "京都市伏見区",
    "city_kana": "キョウトシフシミク",
    "town": "日野田頬町",
    "town_kana": "ヒノタヅラチョウ",
    "street": null,
    "office_name": null,
    "office_name_kana": null
  },
  "1425": {
    "postcode": "6011425",
    "prefecture": "京都府",
    "prefecture_kana": "キョウトフ",
    "prefecture_code": 26,
    "city": "京都市伏見区",
    "city_kana": "キョウトシフシミク",
    "town": "日野田中町",
    "town_kana": "ヒノタナカチョウ",
    "street": null,
    "office_name": null,
    "office_name_kana": null
  },
  "1426": {
    "postcode": "6011426",
    "prefecture": "京都府",
    "prefecture_kana": "キョウトフ",
    "prefecture_code": 26,
    "city": "京都市伏見区",
    "city_kana": "キョウトシフシミク",
    "town": "日野西川頬",
    "town_kana": "ヒノニシカワヅラ",
    "street": null,
    "office_name": null,
    "office_name_kana": null
  },
  "1431": {
    "postcode": "6011431",
    "prefecture": "京都府",
    "prefecture_kana": "キョウトフ",
    "prefecture_code": 26,
    "city": "京都市伏見区",
    "city_kana": "キョウトシフシミク",
    "town": "石田大受町",
    "town_kana": "イシダオオウケチョウ",
    "street": null,
    "office_name": null,
    "office_name_kana": null
  },
  "1432": {
    "postcode": "6011432",
    "prefecture": "京都府",
    "prefecture_kana": "キョウトフ",
    "prefecture_code": 26,
    "city": "京都市伏見区",
    "city_kana": "キョウトシフシミク",
    "town": "石田内里町",
    "town_kana": "イシダウチサトチョウ",
    "street": null,
    "office_name": null,
    "office_name_kana": null
  },
  "1433": {
    "postcode": "6011433",
    "prefecture": "京都府",
    "prefecture_kana": "キョウトフ",
    "prefecture_code": 26,
    "city": "京都市伏見区",
    "city_kana": "キョウトシフシミク",
    "town": "石田大山町",
    "town_kana": "イシダオオヤマチョウ",
    "street": null,
    "office_name": null,
    "office_name_kana": null
  },
  "1434": {
    "postcode": "6011434",
    "prefecture": "京都府",
    "prefecture_kana": "キョウトフ",
    "prefecture_code": 26,
    "city": "京都市伏見区",
    "city_kana": "キョウトシフシミク",
    "town": "石田森南町",
    "town_kana": "イシダモリミナミチョウ",
    "street": null,
    "office_name": null,
    "office_name_kana": null
  },
  "1435": {
    "postcode": "6011435",
    "prefecture": "京都府",
    "prefecture_kana": "キョウトフ",
    "prefecture_code": 26,
    "city": "京都市伏見区",
    "city_kana": "キョウトシフシミク",
    "town": "石田桜木",
    "town_kana": "イシダサクラギ",
    "street": null,
    "office_name": null,
    "office_name_kana": null
  },
  "1436": {
    "postcode": "6011436",
    "prefecture": "京都府",
    "prefecture_kana": "キョウトフ",
    "prefecture_code": 26,
    "city": "京都市伏見区",
    "city_kana": "キョウトシフシミク",
    "town": "石田西ノ坪",
    "town_kana": "イシダニシノツボ",
    "street": null,
    "office_name": null,
    "office_name_kana": null
  },
  "1437": {
    "postcode": "6011437",
    "prefecture": "京都府",
    "prefecture_kana": "キョウトフ",
    "prefecture_code": 26,
    "city": "京都市伏見区",
    "city_kana": "キョウトシフシミク",
    "town": "石田森西",
    "town_kana": "イシダモリニシ",
    "street": null,
    "office_name": null,
    "office_name_kana": null
  },
  "1438": {
    "postcode": "6011438",
    "prefecture": "京都府",
    "prefecture_kana": "キョウトフ",
    "prefecture_code": 26,
    "city": "京都市伏見区",
    "city_kana": "キョウトシフシミク",
    "town": "石田川向",
    "town_kana": "イシダカワムカイ",
    "street": null,
    "office_name": null,
    "office_name_kana": null
  },
  "1439": {
    "postcode": "6011439",
    "prefecture": "京都府",
    "prefecture_kana": "キョウトフ",
    "prefecture_code": 26,
    "city": "京都市伏見区",
    "city_kana": "キョウトシフシミク",
    "town": "石田森東町",
    "town_kana": "イシダモリヒガシチョウ",
    "street": null,
    "office_name": null,
    "office_name_kana": null
  },
  "1441": {
    "postcode": "6011441",
    "prefecture": "京都府",
    "prefecture_kana": "キョウトフ",
    "prefecture_code": 26,
    "city": "京都市伏見区",
    "city_kana": "キョウトシフシミク",
    "town": "小栗栖北谷町",
    "town_kana": "オグリスキタダニチョウ",
    "street": null,
    "office_name": null,
    "office_name_kana": null
  },
  "1442": {
    "postcode": "6011442",
    "prefecture": "京都府",
    "prefecture_kana": "キョウトフ",
    "prefecture_code": 26,
    "city": "京都市伏見区",
    "city_kana": "キョウトシフシミク",
    "town": "小栗栖丸山",
    "town_kana": "オグリスマルヤマ",
    "street": null,
    "office_name": null,
    "office_name_kana": null
  },
  "1443": {
    "postcode": "6011443",
    "prefecture": "京都府",
    "prefecture_kana": "キョウトフ",
    "prefecture_code": 26,
    "city": "京都市伏見区",
    "city_kana": "キョウトシフシミク",
    "town": "小栗栖岩ケ淵町",
    "town_kana": "オグリスイワガフチチョウ",
    "street": null,
    "office_name": null,
    "office_name_kana": null
  },
  "1444": {
    "postcode": "6011444",
    "prefecture": "京都府",
    "prefecture_kana": "キョウトフ",
    "prefecture_code": 26,
    "city": "京都市伏見区",
    "city_kana": "キョウトシフシミク",
    "town": "小栗栖牛ケ淵町",
    "town_kana": "オグリスウシガフチチョウ",
    "street": null,
    "office_name": null,
    "office_name_kana": null
  },
  "1445": {
    "postcode": "6011445",
    "prefecture": "京都府",
    "prefecture_kana": "キョウトフ",
    "prefecture_code": 26,
    "city": "京都市伏見区",
    "city_kana": "キョウトシフシミク",
    "town": "小栗栖森ケ淵町",
    "town_kana": "オグリスモリガフチチョウ",
    "street": null,
    "office_name": null,
    "office_name_kana": null
  },
  "1446": {
    "postcode": "6011446",
    "prefecture": "京都府",
    "prefecture_kana": "キョウトフ",
    "prefecture_code": 26,
    "city": "京都市伏見区",
    "city_kana": "キョウトシフシミク",
    "town": "小栗栖北後藤町",
    "town_kana": "オグリスキタゴトウチョウ",
    "street": null,
    "office_name": null,
    "office_name_kana": null
  },
  "1451": {
    "postcode": "6011451",
    "prefecture": "京都府",
    "prefecture_kana": "キョウトフ",
    "prefecture_code": 26,
    "city": "京都市伏見区",
    "city_kana": "キョウトシフシミク",
    "town": "小栗栖鉢伏",
    "town_kana": "オグリスハチフセ",
    "street": null,
    "office_name": null,
    "office_name_kana": null
  },
  "1452": {
    "postcode": "6011452",
    "prefecture": "京都府",
    "prefecture_kana": "キョウトフ",
    "prefecture_code": 26,
    "city": "京都市伏見区",
    "city_kana": "キョウトシフシミク",
    "town": "小栗栖西ノ峯",
    "town_kana": "オグリスニシノミネ",
    "street": null,
    "office_name": null,
    "office_name_kana": null
  },
  "1453": {
    "postcode": "6011453",
    "prefecture": "京都府",
    "prefecture_kana": "キョウトフ",
    "prefecture_code": 26,
    "city": "京都市伏見区",
    "city_kana": "キョウトシフシミク",
    "town": "小栗栖西谷町",
    "town_kana": "オグリスニシダニチョウ",
    "street": null,
    "office_name": null,
    "office_name_kana": null
  },
  "1454": {
    "postcode": "6011454",
    "prefecture": "京都府",
    "prefecture_kana": "キョウトフ",
    "prefecture_code": 26,
    "city": "京都市伏見区",
    "city_kana": "キョウトシフシミク",
    "town": "小栗栖山口町",
    "town_kana": "オグリスヤマグチチョウ",
    "street": null,
    "office_name": null,
    "office_name_kana": null
  },
  "1455": {
    "postcode": "6011455",
    "prefecture": "京都府",
    "prefecture_kana": "キョウトフ",
    "prefecture_code": 26,
    "city": "京都市伏見区",
    "city_kana": "キョウトシフシミク",
    "town": "小栗栖小阪町",
    "town_kana": "オグリスコサカチョウ",
    "street": null,
    "office_name": null,
    "office_name_kana": null
  },
  "1456": {
    "postcode": "6011456",
    "prefecture": "京都府",
    "prefecture_kana": "キョウトフ",
    "prefecture_code": 26,
    "city": "京都市伏見区",
    "city_kana": "キョウトシフシミク",
    "town": "小栗栖南後藤町",
    "town_kana": "オグリスミナミゴトウチョウ",
    "street": null,
    "office_name": null,
    "office_name_kana": null
  },
  "1461": {
    "postcode": "6011461",
    "prefecture": "京都府",
    "prefecture_kana": "キョウトフ",
    "prefecture_code": 26,
    "city": "京都市伏見区",
    "city_kana": "キョウトシフシミク",
    "town": "小栗栖宮山",
    "town_kana": "オグリスミヤヤマ",
    "street": null,
    "office_name": null,
    "office_name_kana": null
  },
  "1462": {
    "postcode": "6011462",
    "prefecture": "京都府",
    "prefecture_kana": "キョウトフ",
    "prefecture_code": 26,
    "city": "京都市伏見区",
    "city_kana": "キョウトシフシミク",
    "town": "小栗栖森本町",
    "town_kana": "オグリスモリモトチョウ",
    "street": null,
    "office_name": null,
    "office_name_kana": null
  },
  "1463": {
    "postcode": "6011463",
    "prefecture": "京都府",
    "prefecture_kana": "キョウトフ",
    "prefecture_code": 26,
    "city": "京都市伏見区",
    "city_kana": "キョウトシフシミク",
    "town": "小栗栖中山田町",
    "town_kana": "オグリスナカヤマダチョウ",
    "street": null,
    "office_name": null,
    "office_name_kana": null
  },
  "1464": {
    "postcode": "6011464",
    "prefecture": "京都府",
    "prefecture_kana": "キョウトフ",
    "prefecture_code": 26,
    "city": "京都市伏見区",
    "city_kana": "キョウトシフシミク",
    "town": "小栗栖石川町",
    "town_kana": "オグリスイシカワチョウ",
    "street": null,
    "office_name": null,
    "office_name_kana": null
  },
  "1495": {
    "postcode": "6011495",
    "prefecture": "京都府",
    "prefecture_kana": "キョウトフ",
    "prefecture_code": 26,
    "city": "京都市伏見区",
    "city_kana": "キョウトシフシミク",
    "town": "石田森南町",
    "town_kana": "イシダモリミナミチョウ",
    "street": "２８−１",
    "office_name": "医療法人　医仁会　武田総合病院",
    "office_name_kana": "イリヨウホウジン イジンカイ タケダソウゴウビヨウイン"
  },
  "8001": {
    "postcode": "6018001",
    "prefecture": "京都府",
    "prefecture_kana": "キョウトフ",
    "prefecture_code": 26,
    "city": "京都市南区",
    "city_kana": "キョウトシミナミク",
    "town": "東九条室町",
    "town_kana": "ヒガシクジョウムロマチ",
    "street": null,
    "office_name": null,
    "office_name_kana": null
  },
  "8002": {
    "postcode": "6018002",
    "prefecture": "京都府",
    "prefecture_kana": "キョウトフ",
    "prefecture_code": 26,
    "city": "京都市南区",
    "city_kana": "キョウトシミナミク",
    "town": "東九条上殿田町",
    "town_kana": "ヒガシクジョウカミトノダチョウ",
    "street": null,
    "office_name": null,
    "office_name_kana": null
  },
  "8003": {
    "postcode": "6018003",
    "prefecture": "京都府",
    "prefecture_kana": "キョウトフ",
    "prefecture_code": 26,
    "city": "京都市南区",
    "city_kana": "キョウトシミナミク",
    "town": "東九条西山王町",
    "town_kana": "ヒガシクジョウニシサンノウチョウ",
    "street": null,
    "office_name": null,
    "office_name_kana": null
  },
  "8004": {
    "postcode": "6018004",
    "prefecture": "京都府",
    "prefecture_kana": "キョウトフ",
    "prefecture_code": 26,
    "city": "京都市南区",
    "city_kana": "キョウトシミナミク",
    "town": "東九条東山王町",
    "town_kana": "ヒガシクジョウヒガシサンノウチョウ",
    "street": null,
    "office_name": null,
    "office_name_kana": null
  },
  "8005": {
    "postcode": "6018005",
    "prefecture": "京都府",
    "prefecture_kana": "キョウトフ",
    "prefecture_code": 26,
    "city": "京都市南区",
    "city_kana": "キョウトシミナミク",
    "town": "東九条西岩本町",
    "town_kana": "ヒガシクジョウニシイワモトチョウ",
    "street": null,
    "office_name": null,
    "office_name_kana": null
  },
  "8006": {
    "postcode": "6018006",
    "prefecture": "京都府",
    "prefecture_kana": "キョウトフ",
    "prefecture_code": 26,
    "city": "京都市南区",
    "city_kana": "キョウトシミナミク",
    "town": "東九条東岩本町",
    "town_kana": "ヒガシクジョウヒガシイワモトチョウ",
    "street": null,
    "office_name": null,
    "office_name_kana": null
  },
  "8007": {
    "postcode": "6018007",
    "prefecture": "京都府",
    "prefecture_kana": "キョウトフ",
    "prefecture_code": 26,
    "city": "京都市南区",
    "city_kana": "キョウトシミナミク",
    "town": "東九条北河原町",
    "town_kana": "ヒガシクジョウキタカワラマチ",
    "street": null,
    "office_name": null,
    "office_name_kana": null
  },
  "8011": {
    "postcode": "6018011",
    "prefecture": "京都府",
    "prefecture_kana": "キョウトフ",
    "prefecture_code": 26,
    "city": "京都市南区",
    "city_kana": "キョウトシミナミク",
    "town": "東九条南山王町",
    "town_kana": "ヒガシクジョウミナミサンノウチョウ",
    "street": null,
    "office_name": null,
    "office_name_kana": null
  },
  "8012": {
    "postcode": "6018012",
    "prefecture": "京都府",
    "prefecture_kana": "キョウトフ",
    "prefecture_code": 26,
    "city": "京都市南区",
    "city_kana": "キョウトシミナミク",
    "town": "東九条南岩本町",
    "town_kana": "ヒガシクジョウミナミイワモトチョウ",
    "street": null,
    "office_name": null,
    "office_name_kana": null
  },
  "8013": {
    "postcode": "6018013",
    "prefecture": "京都府",
    "prefecture_kana": "キョウトフ",
    "prefecture_code": 26,
    "city": "京都市南区",
    "city_kana": "キョウトシミナミク",
    "town": "東九条南河原町",
    "town_kana": "ヒガシクジョウミナミカワラマチ",
    "street": null,
    "office_name": null,
    "office_name_kana": null
  },
  "8014": {
    "postcode": "6018014",
    "prefecture": "京都府",
    "prefecture_kana": "キョウトフ",
    "prefecture_code": 26,
    "city": "京都市南区",
    "city_kana": "キョウトシミナミク",
    "town": "東九条河西町",
    "town_kana": "ヒガシクジョウカワニシチョウ",
    "street": null,
    "office_name": null,
    "office_name_kana": null
  },
  "8015": {
    "postcode": "6018015",
    "prefecture": "京都府",
    "prefecture_kana": "キョウトフ",
    "prefecture_code": 26,
    "city": "京都市南区",
    "city_kana": "キョウトシミナミク",
    "town": "東九条上御霊町",
    "town_kana": "ヒガシクジョウカミゴリョウチョウ",
    "street": null,
    "office_name": null,
    "office_name_kana": null
  },
  "8016": {
    "postcode": "6018016",
    "prefecture": "京都府",
    "prefecture_kana": "キョウトフ",
    "prefecture_code": 26,
    "city": "京都市南区",
    "city_kana": "キョウトシミナミク",
    "town": "東九条烏丸町",
    "town_kana": "ヒガシクジョウカラスマチョウ",
    "street": null,
    "office_name": null,
    "office_name_kana": null
  },
  "8017": {
    "postcode": "6018017",
    "prefecture": "京都府",
    "prefecture_kana": "キョウトフ",
    "prefecture_code": 26,
    "city": "京都市南区",
    "city_kana": "キョウトシミナミク",
    "town": "東九条北烏丸町",
    "town_kana": "ヒガシクジョウキタカラスマチョウ",
    "street": null,
    "office_name": null,
    "office_name_kana": null
  },
  "8021": {
    "postcode": "6018021",
    "prefecture": "京都府",
    "prefecture_kana": "キョウトフ",
    "prefecture_code": 26,
    "city": "京都市南区",
    "city_kana": "キョウトシミナミク",
    "town": "東九条宇賀辺町",
    "town_kana": "ヒガシクジョウウカベチョウ",
    "street": null,
    "office_name": null,
    "office_name_kana": null
  },
  "8022": {
    "postcode": "6018022",
    "prefecture": "京都府",
    "prefecture_kana": "キョウトフ",
    "prefecture_code": 26,
    "city": "京都市南区",
    "city_kana": "キョウトシミナミク",
    "town": "東九条北松ノ木町",
    "town_kana": "ヒガシクジョウキタマツノキチョウ",
    "street": null,
    "office_name": null,
    "office_name_kana": null
  },
  "8023": {
    "postcode": "6018023",
    "prefecture": "京都府",
    "prefecture_kana": "キョウトフ",
    "prefecture_code": 26,
    "city": "京都市南区",
    "city_kana": "キョウトシミナミク",
    "town": "東九条南松ノ木町",
    "town_kana": "ヒガシクジョウミナミマツノキチョウ",
    "street": null,
    "office_name": null,
    "office_name_kana": null
  },
  "8024": {
    "postcode": "6018024",
    "prefecture": "京都府",
    "prefecture_kana": "キョウトフ",
    "prefecture_code": 26,
    "city": "京都市南区",
    "city_kana": "キョウトシミナミク",
    "town": "東九条東札辻町",
    "town_kana": "ヒガシクジョウヒガシフダノツジチョウ",
    "street": null,
    "office_name": null,
    "office_name_kana": null
  },
  "8025": {
    "postcode": "6018025",
    "prefecture": "京都府",
    "prefecture_kana": "キョウトフ",
    "prefecture_code": 26,
    "city": "京都市南区",
    "city_kana": "キョウトシミナミク",
    "town": "東九条柳下町",
    "town_kana": "ヒガシクジョウヤナギノシタチョウ",
    "street": null,
    "office_name": null,
    "office_name_kana": null
  },
  "8026": {
    "postcode": "6018026",
    "prefecture": "京都府",
    "prefecture_kana": "キョウトフ",
    "prefecture_code": 26,
    "city": "京都市南区",
    "city_kana": "キョウトシミナミク",
    "town": "東九条中札辻町",
    "town_kana": "ヒガシクジョウナカフダノツジチョウ",
    "street": null,
    "office_name": null,
    "office_name_kana": null
  },
  "8027": {
    "postcode": "6018027",
    "prefecture": "京都府",
    "prefecture_kana": "キョウトフ",
    "prefecture_code": 26,
    "city": "京都市南区",
    "city_kana": "キョウトシミナミク",
    "town": "東九条中御霊町",
    "town_kana": "ヒガシクジョウナカゴリョウチョウ",
    "street": null,
    "office_name": null,
    "office_name_kana": null
  },
  "8028": {
    "postcode": "6018028",
    "prefecture": "京都府",
    "prefecture_kana": "キョウトフ",
    "prefecture_code": 26,
    "city": "京都市南区",
    "city_kana": "キョウトシミナミク",
    "town": "東九条東御霊町",
    "town_kana": "ヒガシクジョウヒガシゴリョウチョウ",
    "street": null,
    "office_name": null,
    "office_name_kana": null
  },
  "8029": {
    "postcode": "6018029",
    "prefecture": "京都府",
    "prefecture_kana": "キョウトフ",
    "prefecture_code": 26,
    "city": "京都市南区",
    "city_kana": "キョウトシミナミク",
    "town": "東九条東松ノ木町",
    "town_kana": "ヒガシクジョウヒガシマツノキチョウ",
    "street": null,
    "office_name": null,
    "office_name_kana": null
  },
  "8031": {
    "postcode": "6018031",
    "prefecture": "京都府",
    "prefecture_kana": "キョウトフ",
    "prefecture_code": 26,
    "city": "京都市南区",
    "city_kana": "キョウトシミナミク",
    "town": "東九条河辺町",
    "town_kana": "ヒガシクジョウカワベチョウ",
    "street": null,
    "office_name": null,
    "office_name_kana": null
  },
  "8032": {
    "postcode": "6018032",
    "prefecture": "京都府",
    "prefecture_kana": "キョウトフ",
    "prefecture_code": 26,
    "city": "京都市南区",
    "city_kana": "キョウトシミナミク",
    "town": "東九条石田町",
    "town_kana": "ヒガシクジョウイシダチョウ",
    "street": null,
    "office_name": null,
    "office_name_kana": null
  },
  "8033": {
    "postcode": "6018033",
    "prefecture": "京都府",
    "prefecture_kana": "キョウトフ",
    "prefecture_code": 26,
    "city": "京都市南区",
    "city_kana": "キョウトシミナミク",
    "town": "東九条南石田町",
    "town_kana": "ヒガシクジョウミナミイシダチョウ",
    "street": null,
    "office_name": null,
    "office_name_kana": null
  },
  "8034": {
    "postcode": "6018034",
    "prefecture": "京都府",
    "prefecture_kana": "キョウトフ",
    "prefecture_code": 26,
    "city": "京都市南区",
    "city_kana": "キョウトシミナミク",
    "town": "東九条南河辺町",
    "town_kana": "ヒガシクジョウミナミカワベチョウ",
    "street": null,
    "office_name": null,
    "office_name_kana": null
  },
  "8035": {
    "postcode": "6018035",
    "prefecture": "京都府",
    "prefecture_kana": "キョウトフ",
    "prefecture_code": 26,
    "city": "京都市南区",
    "city_kana": "キョウトシミナミク",
    "town": "東九条南松田町",
    "town_kana": "ヒガシクジョウミナミマツダチョウ",
    "street": null,
    "office_name": null,
    "office_name_kana": null
  },
  "8036": {
    "postcode": "6018036",
    "prefecture": "京都府",
    "prefecture_kana": "キョウトフ",
    "prefecture_code": 26,
    "city": "京都市南区",
    "city_kana": "キョウトシミナミク",
    "town": "東九条松田町",
    "town_kana": "ヒガシクジョウマツダチョウ",
    "street": null,
    "office_name": null,
    "office_name_kana": null
  },
  "8037": {
    "postcode": "6018037",
    "prefecture": "京都府",
    "prefecture_kana": "キョウトフ",
    "prefecture_code": 26,
    "city": "京都市南区",
    "city_kana": "キョウトシミナミク",
    "town": "東九条西河辺町",
    "town_kana": "ヒガシクジョウニシカワベチョウ",
    "street": null,
    "office_name": null,
    "office_name_kana": null
  },
  "8041": {
    "postcode": "6018041",
    "prefecture": "京都府",
    "prefecture_kana": "キョウトフ",
    "prefecture_code": 26,
    "city": "京都市南区",
    "city_kana": "キョウトシミナミク",
    "town": "東九条南烏丸町",
    "town_kana": "ヒガシクジョウミナミカラスマチョウ",
    "street": null,
    "office_name": null,
    "office_name_kana": null
  },
  "8042": {
    "postcode": "6018042",
    "prefecture": "京都府",
    "prefecture_kana": "キョウトフ",
    "prefecture_code": 26,
    "city": "京都市南区",
    "city_kana": "キョウトシミナミク",
    "town": "東九条西御霊町",
    "town_kana": "ヒガシクジョウニシゴリョウチョウ",
    "street": null,
    "office_name": null,
    "office_name_kana": null
  },
  "8043": {
    "postcode": "6018043",
    "prefecture": "京都府",
    "prefecture_kana": "キョウトフ",
    "prefecture_code": 26,
    "city": "京都市南区",
    "city_kana": "キョウトシミナミク",
    "town": "東九条西札辻町",
    "town_kana": "ヒガシクジョウニシフダノツジチョウ",
    "street": null,
    "office_name": null,
    "office_name_kana": null
  },
  "8044": {
    "postcode": "6018044",
    "prefecture": "京都府",
    "prefecture_kana": "キョウトフ",
    "prefecture_code": 26,
    "city": "京都市南区",
    "city_kana": "キョウトシミナミク",
    "town": "東九条明田町",
    "town_kana": "ヒガシクジョウアケタチョウ",
    "street": null,
    "office_name": null,
    "office_name_kana": null
  },
  "8045": {
    "postcode": "6018045",
    "prefecture": "京都府",
    "prefecture_kana": "キョウトフ",
    "prefecture_code": 26,
    "city": "京都市南区",
    "city_kana": "キョウトシミナミク",
    "town": "東九条西明田町",
    "town_kana": "ヒガシクジョウニシアケタチョウ",
    "street": null,
    "office_name": null,
    "office_name_kana": null
  },
  "8046": {
    "postcode": "6018046",
    "prefecture": "京都府",
    "prefecture_kana": "キョウトフ",
    "prefecture_code": 26,
    "city": "京都市南区",
    "city_kana": "キョウトシミナミク",
    "town": "東九条西山町",
    "town_kana": "ヒガシクジョウニシヤマチョウ",
    "street": null,
    "office_name": null,
    "office_name_kana": null
  },
  "8047": {
    "postcode": "6018047",
    "prefecture": "京都府",
    "prefecture_kana": "キョウトフ",
    "prefecture_code": 26,
    "city": "京都市南区",
    "city_kana": "キョウトシミナミク",
    "town": "東九条下殿田町",
    "town_kana": "ヒガシクジョウシモトノダチョウ",
    "street": null,
    "office_name": null,
    "office_name_kana": null
  },
  "8048": {
    "postcode": "6018048",
    "prefecture": "京都府",
    "prefecture_kana": "キョウトフ",
    "prefecture_code": 26,
    "city": "京都市南区",
    "city_kana": "キョウトシミナミク",
    "town": "東九条中殿田町",
    "town_kana": "ヒガシクジョウナカトノダチョウ",
    "street": null,
    "office_name": null,
    "office_name_kana": null
  },
  "8101": {
    "postcode": "6018101",
    "prefecture": "京都府",
    "prefecture_kana": "キョウトフ",
    "prefecture_code": 26,
    "city": "京都市南区",
    "city_kana": "キョウトシミナミク",
    "town": "上鳥羽高畠町",
    "town_kana": "カミトバタカハタチョウ",
    "street": null,
    "office_name": null,
    "office_name_kana": null
  },
  "8102": {
    "postcode": "6018102",
    "prefecture": "京都府",
    "prefecture_kana": "キョウトフ",
    "prefecture_code": 26,
    "city": "京都市南区",
    "city_kana": "キョウトシミナミク",
    "town": "上鳥羽菅田町",
    "town_kana": "カミトバスガタチョウ",
    "street": null,
    "office_name": null,
    "office_name_kana": null
  },
  "8103": {
    "postcode": "6018103",
    "prefecture": "京都府",
    "prefecture_kana": "キョウトフ",
    "prefecture_code": 26,
    "city": "京都市南区",
    "city_kana": "キョウトシミナミク",
    "town": "上鳥羽仏現寺町",
    "town_kana": "カミトバブツゲンジチョウ",
    "street": null,
    "office_name": null,
    "office_name_kana": null
  },
  "8104": {
    "postcode": "6018104",
    "prefecture": "京都府",
    "prefecture_kana": "キョウトフ",
    "prefecture_code": 26,
    "city": "京都市南区",
    "city_kana": "キョウトシミナミク",
    "town": "上鳥羽角田町",
    "town_kana": "カミトバツノダチョウ",
    "street": null,
    "office_name": null,
    "office_name_kana": null
  },
  "8105": {
    "postcode": "6018105",
    "prefecture": "京都府",
    "prefecture_kana": "キョウトフ",
    "prefecture_code": 26,
    "city": "京都市南区",
    "city_kana": "キョウトシミナミク",
    "town": "上鳥羽上調子町",
    "town_kana": "カミトバカミチョウシチョウ",
    "street": null,
    "office_name": null,
    "office_name_kana": null
  },
  "8106": {
    "postcode": "6018106",
    "prefecture": "京都府",
    "prefecture_kana": "キョウトフ",
    "prefecture_code": 26,
    "city": "京都市南区",
    "city_kana": "キョウトシミナミク",
    "town": "上鳥羽北中ノ坪町",
    "town_kana": "カミトバキタナカノツボチョウ",
    "street": null,
    "office_name": null,
    "office_name_kana": null
  },
  "8107": {
    "postcode": "6018107",
    "prefecture": "京都府",
    "prefecture_kana": "キョウトフ",
    "prefecture_code": 26,
    "city": "京都市南区",
    "city_kana": "キョウトシミナミク",
    "town": "上鳥羽南唐戸町",
    "town_kana": "カミトバミナミカラトチョウ",
    "street": null,
    "office_name": null,
    "office_name_kana": null
  },
  "8108": {
    "postcode": "6018108",
    "prefecture": "京都府",
    "prefecture_kana": "キョウトフ",
    "prefecture_code": 26,
    "city": "京都市南区",
    "city_kana": "キョウトシミナミク",
    "town": "上鳥羽唐戸町",
    "town_kana": "カミトバカラトチョウ",
    "street": null,
    "office_name": null,
    "office_name_kana": null
  },
  "8111": {
    "postcode": "6018111",
    "prefecture": "京都府",
    "prefecture_kana": "キョウトフ",
    "prefecture_code": 26,
    "city": "京都市南区",
    "city_kana": "キョウトシミナミク",
    "town": "上鳥羽苗代町",
    "town_kana": "カミトバナワシロチョウ",
    "street": null,
    "office_name": null,
    "office_name_kana": null
  },
  "8112": {
    "postcode": "6018112",
    "prefecture": "京都府",
    "prefecture_kana": "キョウトフ",
    "prefecture_code": 26,
    "city": "京都市南区",
    "city_kana": "キョウトシミナミク",
    "town": "上鳥羽勧進橋町",
    "town_kana": "カミトバカンジンバシチョウ",
    "street": null,
    "office_name": null,
    "office_name_kana": null
  },
  "8113": {
    "postcode": "6018113",
    "prefecture": "京都府",
    "prefecture_kana": "キョウトフ",
    "prefecture_code": 26,
    "city": "京都市南区",
    "city_kana": "キョウトシミナミク",
    "town": "上鳥羽南苗代町",
    "town_kana": "カミトバミナミナワシロチョウ",
    "street": null,
    "office_name": null,
    "office_name_kana": null
  },
  "8114": {
    "postcode": "6018114",
    "prefecture": "京都府",
    "prefecture_kana": "キョウトフ",
    "prefecture_code": 26,
    "city": "京都市南区",
    "city_kana": "キョウトシミナミク",
    "town": "上鳥羽南鉾立町",
    "town_kana": "カミトバミナミホコタテチョウ",
    "street": null,
    "office_name": null,
    "office_name_kana": null
  },
  "8115": {
    "postcode": "6018115",
    "prefecture": "京都府",
    "prefecture_kana": "キョウトフ",
    "prefecture_code": 26,
    "city": "京都市南区",
    "city_kana": "キョウトシミナミク",
    "town": "上鳥羽尻切町",
    "town_kana": "カミトバシリキリチョウ",
    "street": null,
    "office_name": null,
    "office_name_kana": null
  },
  "8116": {
    "postcode": "6018116",
    "prefecture": "京都府",
    "prefecture_kana": "キョウトフ",
    "prefecture_code": 26,
    "city": "京都市南区",
    "city_kana": "キョウトシミナミク",
    "town": "上鳥羽鉾立町",
    "town_kana": "カミトバホコタテチョウ",
    "street": null,
    "office_name": null,
    "office_name_kana": null
  },
  "8121": {
    "postcode": "6018121",
    "prefecture": "京都府",
    "prefecture_kana": "キョウトフ",
    "prefecture_code": 26,
    "city": "京都市南区",
    "city_kana": "キョウトシミナミク",
    "town": "上鳥羽大物町",
    "town_kana": "カミトバダイモツチョウ",
    "street": null,
    "office_name": null,
    "office_name_kana": null
  },
  "8122": {
    "postcode": "6018122",
    "prefecture": "京都府",
    "prefecture_kana": "キョウトフ",
    "prefecture_code": 26,
    "city": "京都市南区",
    "city_kana": "キョウトシミナミク",
    "town": "上鳥羽北塔ノ本町",
    "town_kana": "カミトバキタトウノモトチョウ",
    "street": null,
    "office_name": null,
    "office_name_kana": null
  },
  "8123": {
    "postcode": "6018123",
    "prefecture": "京都府",
    "prefecture_kana": "キョウトフ",
    "prefecture_code": 26,
    "city": "京都市南区",
    "city_kana": "キョウトシミナミク",
    "town": "上鳥羽南塔ノ本町",
    "town_kana": "カミトバミナミトウノモトチョウ",
    "street": null,
    "office_name": null,
    "office_name_kana": null
  },
  "8126": {
    "postcode": "6018126",
    "prefecture": "京都府",
    "prefecture_kana": "キョウトフ",
    "prefecture_code": 26,
    "city": "京都市南区",
    "city_kana": "キョウトシミナミク",
    "town": "上鳥羽南花名町",
    "town_kana": "カミトバミナミハナナチョウ",
    "street": null,
    "office_name": null,
    "office_name_kana": null
  },
  "8127": {
    "postcode": "6018127",
    "prefecture": "京都府",
    "prefecture_kana": "キョウトフ",
    "prefecture_code": 26,
    "city": "京都市南区",
    "city_kana": "キョウトシミナミク",
    "town": "上鳥羽北花名町",
    "town_kana": "カミトバキタハナナチョウ",
    "street": null,
    "office_name": null,
    "office_name_kana": null
  },
  "8128": {
    "postcode": "6018128",
    "prefecture": "京都府",
    "prefecture_kana": "キョウトフ",
    "prefecture_code": 26,
    "city": "京都市南区",
    "city_kana": "キョウトシミナミク",
    "town": "上鳥羽大柳町",
    "town_kana": "カミトバオオヤナギチョウ",
    "street": null,
    "office_name": null,
    "office_name_kana": null
  },
  "8131": {
    "postcode": "6018131",
    "prefecture": "京都府",
    "prefecture_kana": "キョウトフ",
    "prefecture_code": 26,
    "city": "京都市南区",
    "city_kana": "キョウトシミナミク",
    "town": "上鳥羽鴨田町",
    "town_kana": "カミトバカモンデンチョウ",
    "street": null,
    "office_name": null,
    "office_name_kana": null
  },
  "8132": {
    "postcode": "6018132",
    "prefecture": "京都府",
    "prefecture_kana": "キョウトフ",
    "prefecture_code": 26,
    "city": "京都市南区",
    "city_kana": "キョウトシミナミク",
    "town": "上鳥羽町田町",
    "town_kana": "カミトバチョウダマチ",
    "street": null,
    "office_name": null,
    "office_name_kana": null
  },
  "8133": {
    "postcode": "6018133",
    "prefecture": "京都府",
    "prefecture_kana": "キョウトフ",
    "prefecture_code": 26,
    "city": "京都市南区",
    "city_kana": "キョウトシミナミク",
    "town": "上鳥羽藁田町",
    "town_kana": "カミトバワランデンチョウ",
    "street": null,
    "office_name": null,
    "office_name_kana": null
  },
  "8134": {
    "postcode": "6018134",
    "prefecture": "京都府",
    "prefecture_kana": "キョウトフ",
    "prefecture_code": 26,
    "city": "京都市南区",
    "city_kana": "キョウトシミナミク",
    "town": "上鳥羽大溝町",
    "town_kana": "カミトバオオミゾチョウ",
    "street": null,
    "office_name": null,
    "office_name_kana": null
  },
  "8135": {
    "postcode": "6018135",
    "prefecture": "京都府",
    "prefecture_kana": "キョウトフ",
    "prefecture_code": 26,
    "city": "京都市南区",
    "city_kana": "キョウトシミナミク",
    "town": "上鳥羽石橋町",
    "town_kana": "カミトバイシバシチョウ",
    "street": null,
    "office_name": null,
    "office_name_kana": null
  },
  "8136": {
    "postcode": "6018136",
    "prefecture": "京都府",
    "prefecture_kana": "キョウトフ",
    "prefecture_code": 26,
    "city": "京都市南区",
    "city_kana": "キョウトシミナミク",
    "town": "上鳥羽岩ノ本町",
    "town_kana": "カミトバイワノモトチョウ",
    "street": null,
    "office_name": null,
    "office_name_kana": null
  },
  "8137": {
    "postcode": "6018137",
    "prefecture": "京都府",
    "prefecture_kana": "キョウトフ",
    "prefecture_code": 26,
    "city": "京都市南区",
    "city_kana": "キョウトシミナミク",
    "town": "上鳥羽城ケ前町",
    "town_kana": "カミトバシロガマエチョウ",
    "street": null,
    "office_name": null,
    "office_name_kana": null
  },
  "8138": {
    "postcode": "6018138",
    "prefecture": "京都府",
    "prefecture_kana": "キョウトフ",
    "prefecture_code": 26,
    "city": "京都市南区",
    "city_kana": "キョウトシミナミク",
    "town": "上鳥羽北岩ノ本町",
    "town_kana": "カミトバキタイワノモトチョウ",
    "street": null,
    "office_name": null,
    "office_name_kana": null
  },
  "8139": {
    "postcode": "6018139",
    "prefecture": "京都府",
    "prefecture_kana": "キョウトフ",
    "prefecture_code": 26,
    "city": "京都市南区",
    "city_kana": "キョウトシミナミク",
    "town": "上鳥羽南岩ノ本町",
    "town_kana": "カミトバミナミイワノモトチョウ",
    "street": null,
    "office_name": null,
    "office_name_kana": null
  },
  "8141": {
    "postcode": "6018141",
    "prefecture": "京都府",
    "prefecture_kana": "キョウトフ",
    "prefecture_code": 26,
    "city": "京都市南区",
    "city_kana": "キョウトシミナミク",
    "town": "上鳥羽卯ノ花町",
    "town_kana": "カミトバウノハナチョウ",
    "street": null,
    "office_name": null,
    "office_name_kana": null
  },
  "8142": {
    "postcode": "6018142",
    "prefecture": "京都府",
    "prefecture_kana": "キョウトフ",
    "prefecture_code": 26,
    "city": "京都市南区",
    "city_kana": "キョウトシミナミク",
    "town": "上鳥羽中河原町",
    "town_kana": "カミトバナカガワラチョウ",
    "street": null,
    "office_name": null,
    "office_name_kana": null
  },
  "8143": {
    "postcode": "6018143",
    "prefecture": "京都府",
    "prefecture_kana": "キョウトフ",
    "prefecture_code": 26,
    "city": "京都市南区",
    "city_kana": "キョウトシミナミク",
    "town": "上鳥羽麻ノ本町",
    "town_kana": "カミトバアサノモトチョウ",
    "street": null,
    "office_name": null,
    "office_name_kana": null
  },
  "8144": {
    "postcode": "6018144",
    "prefecture": "京都府",
    "prefecture_kana": "キョウトフ",
    "prefecture_code": 26,
    "city": "京都市南区",
    "city_kana": "キョウトシミナミク",
    "town": "上鳥羽火打形町",
    "town_kana": "カミトバヒウチガタチョウ",
    "street": null,
    "office_name": null,
    "office_name_kana": null
  },
  "8145": {
    "postcode": "6018145",
    "prefecture": "京都府",
    "prefecture_kana": "キョウトフ",
    "prefecture_code": 26,
    "city": "京都市南区",
    "city_kana": "キョウトシミナミク",
    "town": "上鳥羽西浦町",
    "town_kana": "カミトバニシウラチョウ",
    "street": null,
    "office_name": null,
    "office_name_kana": null
  },
  "8146": {
    "postcode": "6018146",
    "prefecture": "京都府",
    "prefecture_kana": "キョウトフ",
    "prefecture_code": 26,
    "city": "京都市南区",
    "city_kana": "キョウトシミナミク",
    "town": "上鳥羽奈須野町",
    "town_kana": "カミトバナスノチョウ",
    "street": null,
    "office_name": null,
    "office_name_kana": null
  },
  "8151": {
    "postcode": "6018151",
    "prefecture": "京都府",
    "prefecture_kana": "キョウトフ",
    "prefecture_code": 26,
    "city": "京都市南区",
    "city_kana": "キョウトシミナミク",
    "town": "上鳥羽塔ノ森東向町",
    "town_kana": "カミトバトウノモリヒガシムコウチョウ",
    "street": null,
    "office_name": null,
    "office_name_kana": null
  },
  "8152": {
    "postcode": "6018152",
    "prefecture": "京都府",
    "prefecture_kana": "キョウトフ",
    "prefecture_code": 26,
    "city": "京都市南区",
    "city_kana": "キョウトシミナミク",
    "town": "上鳥羽塔ノ森洲崎町",
    "town_kana": "カミトバトウノモリスザキチョウ",
    "street": null,
    "office_name": null,
    "office_name_kana": null
  },
  "8153": {
    "postcode": "6018153",
    "prefecture": "京都府",
    "prefecture_kana": "キョウトフ",
    "prefecture_code": 26,
    "city": "京都市南区",
    "city_kana": "キョウトシミナミク",
    "town": "上鳥羽塔ノ森下河原",
    "town_kana": "カミトバトウノモリシモカワラ",
    "street": null,
    "office_name": null,
    "office_name_kana": null
  },
  "8154": {
    "postcode": "6018154",
    "prefecture": "京都府",
    "prefecture_kana": "キョウトフ",
    "prefecture_code": 26,
    "city": "京都市南区",
    "city_kana": "キョウトシミナミク",
    "town": "上鳥羽塔ノ森柳原",
    "town_kana": "カミトバトウノモリヤナギハラ",
    "street": null,
    "office_name": null,
    "office_name_kana": null
  },
  "8155": {
    "postcode": "6018155",
    "prefecture": "京都府",
    "prefecture_kana": "キョウトフ",
    "prefecture_code": 26,
    "city": "京都市南区",
    "city_kana": "キョウトシミナミク",
    "town": "上鳥羽塔ノ森上河原",
    "town_kana": "カミトバトウノモリカミカワラ",
    "street": null,
    "office_name": null,
    "office_name_kana": null
  },
  "8161": {
    "postcode": "6018161",
    "prefecture": "京都府",
    "prefecture_kana": "キョウトフ",
    "prefecture_code": 26,
    "city": "京都市南区",
    "city_kana": "キョウトシミナミク",
    "town": "上鳥羽塔ノ森梅ノ木",
    "town_kana": "カミトバトウノモリウメノキ",
    "street": null,
    "office_name": null,
    "office_name_kana": null
  },
  "8162": {
    "postcode": "6018162",
    "prefecture": "京都府",
    "prefecture_kana": "キョウトフ",
    "prefecture_code": 26,
    "city": "京都市南区",
    "city_kana": "キョウトシミナミク",
    "town": "上鳥羽塔ノ森柴東町",
    "town_kana": "カミトバトウノモリシバヒガシチョウ",
    "street": null,
    "office_name": null,
    "office_name_kana": null
  },
  "8163": {
    "postcode": "6018163",
    "prefecture": "京都府",
    "prefecture_kana": "キョウトフ",
    "prefecture_code": 26,
    "city": "京都市南区",
    "city_kana": "キョウトシミナミク",
    "town": "上鳥羽塔ノ森江川町",
    "town_kana": "カミトバトウノモリエガワチョウ",
    "street": null,
    "office_name": null,
    "office_name_kana": null
  },
  "8164": {
    "postcode": "6018164",
    "prefecture": "京都府",
    "prefecture_kana": "キョウトフ",
    "prefecture_code": 26,
    "city": "京都市南区",
    "city_kana": "キョウトシミナミク",
    "town": "上鳥羽塔ノ森四ツ谷町",
    "town_kana": "カミトバトウノモリヨツヤチョウ",
    "street": null,
    "office_name": null,
    "office_name_kana": null
  },
  "8165": {
    "postcode": "6018165",
    "prefecture": "京都府",
    "prefecture_kana": "キョウトフ",
    "prefecture_code": 26,
    "city": "京都市南区",
    "city_kana": "キョウトシミナミク",
    "town": "上鳥羽塔ノ森西河原町",
    "town_kana": "カミトバトウノモリニシガワラチョウ",
    "street": null,
    "office_name": null,
    "office_name_kana": null
  },
  "8166": {
    "postcode": "6018166",
    "prefecture": "京都府",
    "prefecture_kana": "キョウトフ",
    "prefecture_code": 26,
    "city": "京都市南区",
    "city_kana": "キョウトシミナミク",
    "town": "上鳥羽塔ノ森下開ノ内",
    "town_kana": "カミトバトウノモリシモヒラキノウチ",
    "street": null,
    "office_name": null,
    "office_name_kana": null
  },
  "8167": {
    "postcode": "6018167",
    "prefecture": "京都府",
    "prefecture_kana": "キョウトフ",
    "prefecture_code": 26,
    "city": "京都市南区",
    "city_kana": "キョウトシミナミク",
    "town": "上鳥羽塔ノ森上開ノ内",
    "town_kana": "カミトバトウノモリカミヒラキノウチ",
    "street": null,
    "office_name": null,
    "office_name_kana": null
  },
  "8171": {
    "postcode": "6018171",
    "prefecture": "京都府",
    "prefecture_kana": "キョウトフ",
    "prefecture_code": 26,
    "city": "京都市南区",
    "city_kana": "キョウトシミナミク",
    "town": "上鳥羽川端町",
    "town_kana": "カミトバカワバタチョウ",
    "street": null,
    "office_name": null,
    "office_name_kana": null
  },
  "8172": {
    "postcode": "6018172",
    "prefecture": "京都府",
    "prefecture_kana": "キョウトフ",
    "prefecture_code": 26,
    "city": "京都市南区",
    "city_kana": "キョウトシミナミク",
    "town": "上鳥羽鍋ケ渕町",
    "town_kana": "カミトバナベガフチチョウ",
    "street": null,
    "office_name": null,
    "office_name_kana": null
  },
  "8173": {
    "postcode": "6018173",
    "prefecture": "京都府",
    "prefecture_kana": "キョウトフ",
    "prefecture_code": 26,
    "city": "京都市南区",
    "city_kana": "キョウトシミナミク",
    "town": "上鳥羽八王神町",
    "town_kana": "カミトバハチオウジンチョウ",
    "street": null,
    "office_name": null,
    "office_name_kana": null
  },
  "8174": {
    "postcode": "6018174",
    "prefecture": "京都府",
    "prefecture_kana": "キョウトフ",
    "prefecture_code": 26,
    "city": "京都市南区",
    "city_kana": "キョウトシミナミク",
    "town": "上鳥羽清井町",
    "town_kana": "カミトバキヨイチョウ",
    "street": null,
    "office_name": null,
    "office_name_kana": null
  },
  "8175": {
    "postcode": "6018175",
    "prefecture": "京都府",
    "prefecture_kana": "キョウトフ",
    "prefecture_code": 26,
    "city": "京都市南区",
    "city_kana": "キョウトシミナミク",
    "town": "上鳥羽金仏町",
    "town_kana": "カミトバカナボトケチョウ",
    "street": null,
    "office_name": null,
    "office_name_kana": null
  },
  "8176": {
    "postcode": "6018176",
    "prefecture": "京都府",
    "prefecture_kana": "キョウトフ",
    "prefecture_code": 26,
    "city": "京都市南区",
    "city_kana": "キョウトシミナミク",
    "town": "上鳥羽山ノ本町",
    "town_kana": "カミトバヤマノモトチョウ",
    "street": null,
    "office_name": null,
    "office_name_kana": null
  },
  "8177": {
    "postcode": "6018177",
    "prefecture": "京都府",
    "prefecture_kana": "キョウトフ",
    "prefecture_code": 26,
    "city": "京都市南区",
    "city_kana": "キョウトシミナミク",
    "town": "上鳥羽馬廻町",
    "town_kana": "カミトバウママワシチョウ",
    "street": null,
    "office_name": null,
    "office_name_kana": null
  },
  "8178": {
    "postcode": "6018178",
    "prefecture": "京都府",
    "prefecture_kana": "キョウトフ",
    "prefecture_code": 26,
    "city": "京都市南区",
    "city_kana": "キョウトシミナミク",
    "town": "上鳥羽南戒光町",
    "town_kana": "カミトバミナミカイコウチョウ",
    "street": null,
    "office_name": null,
    "office_name_kana": null
  },
  "8181": {
    "postcode": "6018181",
    "prefecture": "京都府",
    "prefecture_kana": "キョウトフ",
    "prefecture_code": 26,
    "city": "京都市南区",
    "city_kana": "キョウトシミナミク",
    "town": "上鳥羽堀子町",
    "town_kana": "カミトバホリコチョウ",
    "street": null,
    "office_name": null,
    "office_name_kana": null
  },
  "8182": {
    "postcode": "6018182",
    "prefecture": "京都府",
    "prefecture_kana": "キョウトフ",
    "prefecture_code": 26,
    "city": "京都市南区",
    "city_kana": "キョウトシミナミク",
    "town": "上鳥羽北島田町",
    "town_kana": "カミトバキタシマダチョウ",
    "street": null,
    "office_name": null,
    "office_name_kana": null
  },
  "8183": {
    "postcode": "6018183",
    "prefecture": "京都府",
    "prefecture_kana": "キョウトフ",
    "prefecture_code": 26,
    "city": "京都市南区",
    "city_kana": "キョウトシミナミク",
    "town": "上鳥羽南島田町",
    "town_kana": "カミトバミナミシマダチョウ",
    "street": null,
    "office_name": null,
    "office_name_kana": null
  },
  "8184": {
    "postcode": "6018184",
    "prefecture": "京都府",
    "prefecture_kana": "キョウトフ",
    "prefecture_code": 26,
    "city": "京都市南区",
    "city_kana": "キョウトシミナミク",
    "town": "上鳥羽南村山町",
    "town_kana": "カミトバミナミムラヤマチョウ",
    "street": null,
    "office_name": null,
    "office_name_kana": null
  },
  "8185": {
    "postcode": "6018185",
    "prefecture": "京都府",
    "prefecture_kana": "キョウトフ",
    "prefecture_code": 26,
    "city": "京都市南区",
    "city_kana": "キョウトシミナミク",
    "town": "上鳥羽戒光町",
    "town_kana": "カミトバカイコウチョウ",
    "street": null,
    "office_name": null,
    "office_name_kana": null
  },
  "8186": {
    "postcode": "6018186",
    "prefecture": "京都府",
    "prefecture_kana": "キョウトフ",
    "prefecture_code": 26,
    "city": "京都市南区",
    "city_kana": "キョウトシミナミク",
    "town": "上鳥羽北戒光町",
    "town_kana": "カミトバキタカイコウチョウ",
    "street": null,
    "office_name": null,
    "office_name_kana": null
  },
  "8187": {
    "postcode": "6018187",
    "prefecture": "京都府",
    "prefecture_kana": "キョウトフ",
    "prefecture_code": 26,
    "city": "京都市南区",
    "city_kana": "キョウトシミナミク",
    "town": "上鳥羽北村山町",
    "town_kana": "カミトバキタムラヤマチョウ",
    "street": null,
    "office_name": null,
    "office_name_kana": null
  },
  "8188": {
    "postcode": "6018188",
    "prefecture": "京都府",
    "prefecture_kana": "キョウトフ",
    "prefecture_code": 26,
    "city": "京都市南区",
    "city_kana": "キョウトシミナミク",
    "town": "上鳥羽南中ノ坪町",
    "town_kana": "カミトバミナミナカノツボチョウ",
    "street": null,
    "office_name": null,
    "office_name_kana": null
  },
  "8201": {
    "postcode": "6018201",
    "prefecture": "京都府",
    "prefecture_kana": "キョウトフ",
    "prefecture_code": 26,
    "city": "京都市南区",
    "city_kana": "キョウトシミナミク",
    "town": "久世川原町",
    "town_kana": "クゼカワハラチョウ",
    "street": null,
    "office_name": null,
    "office_name_kana": null
  },
  "8202": {
    "postcode": "6018202",
    "prefecture": "京都府",
    "prefecture_kana": "キョウトフ",
    "prefecture_code": 26,
    "city": "京都市南区",
    "city_kana": "キョウトシミナミク",
    "town": "久世大築町",
    "town_kana": "クゼオオツキチョウ",
    "street": null,
    "office_name": null,
    "office_name_kana": null
  },
  "8203": {
    "postcode": "6018203",
    "prefecture": "京都府",
    "prefecture_kana": "キョウトフ",
    "prefecture_code": 26,
    "city": "京都市南区",
    "city_kana": "キョウトシミナミク",
    "town": "久世築山町",
    "town_kana": "クゼツキヤマチョウ",
    "street": null,
    "office_name": null,
    "office_name_kana": null
  },
  "8204": {
    "postcode": "6018204",
    "prefecture": "京都府",
    "prefecture_kana": "キョウトフ",
    "prefecture_code": 26,
    "city": "京都市南区",
    "city_kana": "キョウトシミナミク",
    "town": "久世東土川町",
    "town_kana": "クゼヒガシツチカワチョウ",
    "street": null,
    "office_name": null,
    "office_name_kana": null
  },
  "8205": {
    "postcode": "6018205",
    "prefecture": "京都府",
    "prefecture_kana": "キョウトフ",
    "prefecture_code": 26,
    "city": "京都市南区",
    "city_kana": "キョウトシミナミク",
    "town": "久世殿城町",
    "town_kana": "クゼトノシロチョウ",
    "street": null,
    "office_name": null,
    "office_name_kana": null
  },
  "8206": {
    "postcode": "6018206",
    "prefecture": "京都府",
    "prefecture_kana": "キョウトフ",
    "prefecture_code": 26,
    "city": "京都市南区",
    "city_kana": "キョウトシミナミク",
    "town": "久世大薮町",
    "town_kana": "クゼオオヤブチョウ",
    "street": null,
    "office_name": null,
    "office_name_kana": null
  },
  "8207": {
    "postcode": "6018207",
    "prefecture": "京都府",
    "prefecture_kana": "キョウトフ",
    "prefecture_code": 26,
    "city": "京都市南区",
    "city_kana": "キョウトシミナミク",
    "town": "久世中久町",
    "town_kana": "クゼナカヒサチョウ",
    "street": null,
    "office_name": null,
    "office_name_kana": null
  },
  "8211": {
    "postcode": "6018211",
    "prefecture": "京都府",
    "prefecture_kana": "キョウトフ",
    "prefecture_code": 26,
    "city": "京都市南区",
    "city_kana": "キョウトシミナミク",
    "town": "久世高田町",
    "town_kana": "クゼタカダチョウ",
    "street": null,
    "office_name": null,
    "office_name_kana": null
  },
  "8212": {
    "postcode": "6018212",
    "prefecture": "京都府",
    "prefecture_kana": "キョウトフ",
    "prefecture_code": 26,
    "city": "京都市南区",
    "city_kana": "キョウトシミナミク",
    "town": "久世上久世町",
    "town_kana": "クゼカミクゼチョウ",
    "street": null,
    "office_name": null,
    "office_name_kana": null
  },
  "8213": {
    "postcode": "6018213",
    "prefecture": "京都府",
    "prefecture_kana": "キョウトフ",
    "prefecture_code": 26,
    "city": "京都市南区",
    "city_kana": "キョウトシミナミク",
    "town": "久世中久世町",
    "town_kana": "クゼナカクゼチョウ",
    "street": null,
    "office_name": null,
    "office_name_kana": null
  },
  "8301": {
    "postcode": "6018301",
    "prefecture": "京都府",
    "prefecture_kana": "キョウトフ",
    "prefecture_code": 26,
    "city": "京都市南区",
    "city_kana": "キョウトシミナミク",
    "town": "吉祥院西ノ庄西浦町",
    "town_kana": "キッショウインニシノショウニシウラチョウ",
    "street": null,
    "office_name": null,
    "office_name_kana": null
  },
  "8302": {
    "postcode": "6018302",
    "prefecture": "京都府",
    "prefecture_kana": "キョウトフ",
    "prefecture_code": 26,
    "city": "京都市南区",
    "city_kana": "キョウトシミナミク",
    "town": "吉祥院西ノ庄淵ノ西町",
    "town_kana": "キッショウインニシノショウフチノニシチョウ",
    "street": null,
    "office_name": null,
    "office_name_kana": null
  },
  "8303": {
    "postcode": "6018303",
    "prefecture": "京都府",
    "prefecture_kana": "キョウトフ",
    "prefecture_code": 26,
    "city": "京都市南区",
    "city_kana": "キョウトシミナミク",
    "town": "吉祥院西ノ庄西中町",
    "town_kana": "キッショウインニシノショウニシナカチョウ",
    "street": null,
    "office_name": null,
    "office_name_kana": null
  },
  "8304": {
    "postcode": "6018304",
    "prefecture": "京都府",
    "prefecture_kana": "キョウトフ",
    "prefecture_code": 26,
    "city": "京都市南区",
    "city_kana": "キョウトシミナミク",
    "town": "吉祥院前河原町",
    "town_kana": "キッショウインマエガワラチョウ",
    "street": null,
    "office_name": null,
    "office_name_kana": null
  },
  "8305": {
    "postcode": "6018305",
    "prefecture": "京都府",
    "prefecture_kana": "キョウトフ",
    "prefecture_code": 26,
    "city": "京都市南区",
    "city_kana": "キョウトシミナミク",
    "town": "吉祥院宮ノ東町",
    "town_kana": "キッショウインミヤノヒガシチョウ",
    "street": null,
    "office_name": null,
    "office_name_kana": null
  },
  "8306": {
    "postcode": "6018306",
    "prefecture": "京都府",
    "prefecture_kana": "キョウトフ",
    "prefecture_code": 26,
    "city": "京都市南区",
    "city_kana": "キョウトシミナミク",
    "town": "吉祥院宮ノ西町",
    "town_kana": "キッショウインミヤノニシチョウ",
    "street": null,
    "office_name": null,
    "office_name_kana": null
  },
  "8307": {
    "postcode": "6018307",
    "prefecture": "京都府",
    "prefecture_kana": "キョウトフ",
    "prefecture_code": 26,
    "city": "京都市南区",
    "city_kana": "キョウトシミナミク",
    "town": "吉祥院向田西町",
    "town_kana": "キッショウインムカイダニシチョウ",
    "street": null,
    "office_name": null,
    "office_name_kana": null
  },
  "8308": {
    "postcode": "6018308",
    "prefecture": "京都府",
    "prefecture_kana": "キョウトフ",
    "prefecture_code": 26,
    "city": "京都市南区",
    "city_kana": "キョウトシミナミク",
    "town": "吉祥院向田東町",
    "town_kana": "キッショウインムカイダヒガシチョウ",
    "street": null,
    "office_name": null,
    "office_name_kana": null
  },
  "8309": {
    "postcode": "6018309",
    "prefecture": "京都府",
    "prefecture_kana": "キョウトフ",
    "prefecture_code": 26,
    "city": "京都市南区",
    "city_kana": "キョウトシミナミク",
    "town": "吉祥院西ノ庄向田町",
    "town_kana": "キッショウインニシノショウムカイダチョウ",
    "street": null,
    "office_name": null,
    "office_name_kana": null
  },
  "8310": {
    "postcode": "6018310",
    "prefecture": "京都府",
    "prefecture_kana": "キョウトフ",
    "prefecture_code": 26,
    "city": "京都市南区",
    "city_kana": "キョウトシミナミク",
    "town": "吉祥院西ノ庄猪之馬場町",
    "town_kana": "キッショウインニシノショウイノババチョウ",
    "street": null,
    "office_name": null,
    "office_name_kana": null
  },
  "8311": {
    "postcode": "6018311",
    "prefecture": "京都府",
    "prefecture_kana": "キョウトフ",
    "prefecture_code": 26,
    "city": "京都市南区",
    "city_kana": "キョウトシミナミク",
    "town": "吉祥院西ノ庄東屋敷町",
    "town_kana": "キッショウインニシノショウヒガシヤシキチョウ",
    "street": null,
    "office_name": null,
    "office_name_kana": null
  },
  "8312": {
    "postcode": "6018312",
    "prefecture": "京都府",
    "prefecture_kana": "キョウトフ",
    "prefecture_code": 26,
    "city": "京都市南区",
    "city_kana": "キョウトシミナミク",
    "town": "吉祥院西ノ庄門口町",
    "town_kana": "キッショウインニシノショウモングチチョウ",
    "street": null,
    "office_name": null,
    "office_name_kana": null
  },
  "8313": {
    "postcode": "6018313",
    "prefecture": "京都府",
    "prefecture_kana": "キョウトフ",
    "prefecture_code": 26,
    "city": "京都市南区",
    "city_kana": "キョウトシミナミク",
    "town": "吉祥院中島町",
    "town_kana": "キッショウインナカジマチョウ",
    "street": null,
    "office_name": null,
    "office_name_kana": null
  },
  "8314": {
    "postcode": "6018314",
    "prefecture": "京都府",
    "prefecture_kana": "キョウトフ",
    "prefecture_code": 26,
    "city": "京都市南区",
    "city_kana": "キョウトシミナミク",
    "town": "吉祥院井ノ口町",
    "town_kana": "キッショウインイノクチチョウ",
    "street": null,
    "office_name": null,
    "office_name_kana": null
  },
  "8315": {
    "postcode": "6018315",
    "prefecture": "京都府",
    "prefecture_kana": "キョウトフ",
    "prefecture_code": 26,
    "city": "京都市南区",
    "city_kana": "キョウトシミナミク",
    "town": "吉祥院車道町",
    "town_kana": "キッショウインクルマミチチョウ",
    "street": null,
    "office_name": null,
    "office_name_kana": null
  },
  "8316": {
    "postcode": "6018316",
    "prefecture": "京都府",
    "prefecture_kana": "キョウトフ",
    "prefecture_code": 26,
    "city": "京都市南区",
    "city_kana": "キョウトシミナミク",
    "town": "吉祥院池ノ内町",
    "town_kana": "キッショウインイケノウチチョウ",
    "street": null,
    "office_name": null,
    "office_name_kana": null
  },
  "8317": {
    "postcode": "6018317",
    "prefecture": "京都府",
    "prefecture_kana": "キョウトフ",
    "prefecture_code": 26,
    "city": "京都市南区",
    "city_kana": "キョウトシミナミク",
    "town": "吉祥院新田弐ノ段町",
    "town_kana": "キッショウインシンデンニノダンチョウ",
    "street": null,
    "office_name": null,
    "office_name_kana": null
  },
  "8318": {
    "postcode": "6018318",
    "prefecture": "京都府",
    "prefecture_kana": "キョウトフ",
    "prefecture_code": 26,
    "city": "京都市南区",
    "city_kana": "キョウトシミナミク",
    "town": "吉祥院三ノ宮西町",
    "town_kana": "キッショウインサンノミヤニシマチ",
    "street": null,
    "office_name": null,
    "office_name_kana": null
  },
  "8319": {
    "postcode": "6018319",
    "prefecture": "京都府",
    "prefecture_kana": "キョウトフ",
    "prefecture_code": 26,
    "city": "京都市南区",
    "city_kana": "キョウトシミナミク",
    "town": "吉祥院三ノ宮町",
    "town_kana": "キッショウインサンノミヤチョウ",
    "street": null,
    "office_name": null,
    "office_name_kana": null
  },
  "8321": {
    "postcode": "6018321",
    "prefecture": "京都府",
    "prefecture_kana": "キョウトフ",
    "prefecture_code": 26,
    "city": "京都市南区",
    "city_kana": "キョウトシミナミク",
    "town": "吉祥院西定成町",
    "town_kana": "キッショウインニシサダナリチョウ",
    "street": null,
    "office_name": null,
    "office_name_kana": null
  },
  "8322": {
    "postcode": "6018322",
    "prefecture": "京都府",
    "prefecture_kana": "キョウトフ",
    "prefecture_code": 26,
    "city": "京都市南区",
    "city_kana": "キョウトシミナミク",
    "town": "吉祥院定成町",
    "town_kana": "キッショウインサダナリチョウ",
    "street": null,
    "office_name": null,
    "office_name_kana": null
  },
  "8323": {
    "postcode": "6018323",
    "prefecture": "京都府",
    "prefecture_kana": "キョウトフ",
    "prefecture_code": 26,
    "city": "京都市南区",
    "city_kana": "キョウトシミナミク",
    "town": "吉祥院春日町",
    "town_kana": "キッショウインカスガチョウ",
    "street": null,
    "office_name": null,
    "office_name_kana": null
  },
  "8324": {
    "postcode": "6018324",
    "prefecture": "京都府",
    "prefecture_kana": "キョウトフ",
    "prefecture_code": 26,
    "city": "京都市南区",
    "city_kana": "キョウトシミナミク",
    "town": "吉祥院落合町",
    "town_kana": "キッショウインオチアイチョウ",
    "street": null,
    "office_name": null,
    "office_name_kana": null
  },
  "8325": {
    "postcode": "6018325",
    "prefecture": "京都府",
    "prefecture_kana": "キョウトフ",
    "prefecture_code": 26,
    "city": "京都市南区",
    "city_kana": "キョウトシミナミク",
    "town": "吉祥院八反田町",
    "town_kana": "キッショウインハツタンダチョウ",
    "street": null,
    "office_name": null,
    "office_name_kana": null
  },
  "8326": {
    "postcode": "6018326",
    "prefecture": "京都府",
    "prefecture_kana": "キョウトフ",
    "prefecture_code": 26,
    "city": "京都市南区",
    "city_kana": "キョウトシミナミク",
    "town": "吉祥院南落合町",
    "town_kana": "キッショウインミナミオチアイチョウ",
    "street": null,
    "office_name": null,
    "office_name_kana": null
  },
  "8327": {
    "postcode": "6018327",
    "prefecture": "京都府",
    "prefecture_kana": "キョウトフ",
    "prefecture_code": 26,
    "city": "京都市南区",
    "city_kana": "キョウトシミナミク",
    "town": "吉祥院御池町",
    "town_kana": "キッショウインオイケチョウ",
    "street": null,
    "office_name": null,
    "office_name_kana": null
  },
  "8328": {
    "postcode": "6018328",
    "prefecture": "京都府",
    "prefecture_kana": "キョウトフ",
    "prefecture_code": 26,
    "city": "京都市南区",
    "city_kana": "キョウトシミナミク",
    "town": "吉祥院九条町",
    "town_kana": "キッショウインクジョウチョウ",
    "street": null,
    "office_name": null,
    "office_name_kana": null
  },
  "8329": {
    "postcode": "6018329",
    "prefecture": "京都府",
    "prefecture_kana": "キョウトフ",
    "prefecture_code": 26,
    "city": "京都市南区",
    "city_kana": "キョウトシミナミク",
    "town": "吉祥院清水町",
    "town_kana": "キッショウインシミズチョウ",
    "street": null,
    "office_name": null,
    "office_name_kana": null
  },
  "8330": {
    "postcode": "6018330",
    "prefecture": "京都府",
    "prefecture_kana": "キョウトフ",
    "prefecture_code": 26,
    "city": "京都市南区",
    "city_kana": "キョウトシミナミク",
    "town": "吉祥院船戸町",
    "town_kana": "キッショウインフナトチョウ",
    "street": null,
    "office_name": null,
    "office_name_kana": null
  },
  "8331": {
    "postcode": "6018331",
    "prefecture": "京都府",
    "prefecture_kana": "キョウトフ",
    "prefecture_code": 26,
    "city": "京都市南区",
    "city_kana": "キョウトシミナミク",
    "town": "吉祥院政所町",
    "town_kana": "キッショウインマンドコロチョウ",
    "street": null,
    "office_name": null,
    "office_name_kana": null
  },
  "8332": {
    "postcode": "6018332",
    "prefecture": "京都府",
    "prefecture_kana": "キョウトフ",
    "prefecture_code": 26,
    "city": "京都市南区",
    "city_kana": "キョウトシミナミク",
    "town": "吉祥院高畑町",
    "town_kana": "キッショウインタカハタチョウ",
    "street": null,
    "office_name": null,
    "office_name_kana": null
  },
  "8333": {
    "postcode": "6018333",
    "prefecture": "京都府",
    "prefecture_kana": "キョウトフ",
    "prefecture_code": 26,
    "city": "京都市南区",
    "city_kana": "キョウトシミナミク",
    "town": "吉祥院東浦町",
    "town_kana": "キッショウインヒガシウラチョウ",
    "street": null,
    "office_name": null,
    "office_name_kana": null
  },
  "8334": {
    "postcode": "6018334",
    "prefecture": "京都府",
    "prefecture_kana": "キョウトフ",
    "prefecture_code": 26,
    "city": "京都市南区",
    "city_kana": "キョウトシミナミク",
    "town": "吉祥院東砂ノ町",
    "town_kana": "キッショウインヒガシスナノチョウ",
    "street": null,
    "office_name": null,
    "office_name_kana": null
  },
  "8335": {
    "postcode": "6018335",
    "prefecture": "京都府",
    "prefecture_kana": "キョウトフ",
    "prefecture_code": 26,
    "city": "京都市南区",
    "city_kana": "キョウトシミナミク",
    "town": "吉祥院砂ノ町",
    "town_kana": "キッショウインスナノチョウ",
    "street": null,
    "office_name": null,
    "office_name_kana": null
  },
  "8336": {
    "postcode": "6018336",
    "prefecture": "京都府",
    "prefecture_kana": "キョウトフ",
    "prefecture_code": 26,
    "city": "京都市南区",
    "city_kana": "キョウトシミナミク",
    "town": "吉祥院菅原町",
    "town_kana": "キッショウインスガハラチョウ",
    "street": null,
    "office_name": null,
    "office_name_kana": null
  },
  "8337": {
    "postcode": "6018337",
    "prefecture": "京都府",
    "prefecture_kana": "キョウトフ",
    "prefecture_code": 26,
    "city": "京都市南区",
    "city_kana": "キョウトシミナミク",
    "town": "吉祥院這登東町",
    "town_kana": "キッショウインハイノボリヒガシマチ",
    "street": null,
    "office_name": null,
    "office_name_kana": null
  },
  "8338": {
    "postcode": "6018338",
    "prefecture": "京都府",
    "prefecture_kana": "キョウトフ",
    "prefecture_code": 26,
    "city": "京都市南区",
    "city_kana": "キョウトシミナミク",
    "town": "吉祥院西ノ内町",
    "town_kana": "キッショウインニシノウチチョウ",
    "street": null,
    "office_name": null,
    "office_name_kana": null
  },
  "8339": {
    "postcode": "6018339",
    "prefecture": "京都府",
    "prefecture_kana": "キョウトフ",
    "prefecture_code": 26,
    "city": "京都市南区",
    "city_kana": "キョウトシミナミク",
    "town": "吉祥院里ノ内町",
    "town_kana": "キッショウインサトノウチチョウ",
    "street": null,
    "office_name": null,
    "office_name_kana": null
  },
  "8341": {
    "postcode": "6018341",
    "prefecture": "京都府",
    "prefecture_kana": "キョウトフ",
    "prefecture_code": 26,
    "city": "京都市南区",
    "city_kana": "キョウトシミナミク",
    "town": "吉祥院前田町",
    "town_kana": "キッショウインマエダチョウ",
    "street": null,
    "office_name": null,
    "office_name_kana": null
  },
  "8342": {
    "postcode": "6018342",
    "prefecture": "京都府",
    "prefecture_kana": "キョウトフ",
    "prefecture_code": 26,
    "city": "京都市南区",
    "city_kana": "キョウトシミナミク",
    "town": "吉祥院東前田町",
    "town_kana": "キッショウインヒガシマエダチョウ",
    "street": null,
    "office_name": null,
    "office_name_kana": null
  },
  "8343": {
    "postcode": "6018343",
    "prefecture": "京都府",
    "prefecture_kana": "キョウトフ",
    "prefecture_code": 26,
    "city": "京都市南区",
    "city_kana": "キョウトシミナミク",
    "town": "吉祥院稲葉町",
    "town_kana": "キッショウインイナバチョウ",
    "street": null,
    "office_name": null,
    "office_name_kana": null
  },
  "8344": {
    "postcode": "6018344",
    "prefecture": "京都府",
    "prefecture_kana": "キョウトフ",
    "prefecture_code": 26,
    "city": "京都市南区",
    "city_kana": "キョウトシミナミク",
    "town": "吉祥院蒔絵町",
    "town_kana": "キッショウインマキエチョウ",
    "street": null,
    "office_name": null,
    "office_name_kana": null
  },
  "8345": {
    "postcode": "6018345",
    "prefecture": "京都府",
    "prefecture_kana": "キョウトフ",
    "prefecture_code": 26,
    "city": "京都市南区",
    "city_kana": "キョウトシミナミク",
    "town": "吉祥院蒔絵南町",
    "town_kana": "キッショウインマキエミナミチョウ",
    "street": null,
    "office_name": null,
    "office_name_kana": null
  },
  "8346": {
    "postcode": "6018346",
    "prefecture": "京都府",
    "prefecture_kana": "キョウトフ",
    "prefecture_code": 26,
    "city": "京都市南区",
    "city_kana": "キョウトシミナミク",
    "town": "吉祥院池田南町",
    "town_kana": "キッショウインイケダミナミチョウ",
    "street": null,
    "office_name": null,
    "office_name_kana": null
  },
  "8347": {
    "postcode": "6018347",
    "prefecture": "京都府",
    "prefecture_kana": "キョウトフ",
    "prefecture_code": 26,
    "city": "京都市南区",
    "city_kana": "キョウトシミナミク",
    "town": "吉祥院観音堂南町",
    "town_kana": "キッショウインカンノンドウミナミチョウ",
    "street": null,
    "office_name": null,
    "office_name_kana": null
  },
  "8348": {
    "postcode": "6018348",
    "prefecture": "京都府",
    "prefecture_kana": "キョウトフ",
    "prefecture_code": 26,
    "city": "京都市南区",
    "city_kana": "キョウトシミナミク",
    "town": "吉祥院観音堂町",
    "town_kana": "キッショウインカンノンドウチョウ",
    "street": null,
    "office_name": null,
    "office_name_kana": null
  },
  "8349": {
    "postcode": "6018349",
    "prefecture": "京都府",
    "prefecture_kana": "キョウトフ",
    "prefecture_code": 26,
    "city": "京都市南区",
    "city_kana": "キョウトシミナミク",
    "town": "吉祥院池田町",
    "town_kana": "キッショウインイケダチョウ",
    "street": null,
    "office_name": null,
    "office_name_kana": null
  },
  "8351": {
    "postcode": "6018351",
    "prefecture": "京都府",
    "prefecture_kana": "キョウトフ",
    "prefecture_code": 26,
    "city": "京都市南区",
    "city_kana": "キョウトシミナミク",
    "town": "吉祥院這登西町",
    "town_kana": "キッショウインハイノボリニシマチ",
    "street": null,
    "office_name": null,
    "office_name_kana": null
  },
  "8352": {
    "postcode": "6018352",
    "prefecture": "京都府",
    "prefecture_kana": "キョウトフ",
    "prefecture_code": 26,
    "city": "京都市南区",
    "city_kana": "キョウトシミナミク",
    "town": "吉祥院西浦町",
    "town_kana": "キッショウインニシウラチョウ",
    "street": null,
    "office_name": null,
    "office_name_kana": null
  },
  "8353": {
    "postcode": "6018353",
    "prefecture": "京都府",
    "prefecture_kana": "キョウトフ",
    "prefecture_code": 26,
    "city": "京都市南区",
    "city_kana": "キョウトシミナミク",
    "town": "吉祥院這登中町",
    "town_kana": "キッショウインハイノボリナカマチ",
    "street": null,
    "office_name": null,
    "office_name_kana": null
  },
  "8354": {
    "postcode": "6018354",
    "prefecture": "京都府",
    "prefecture_kana": "キョウトフ",
    "prefecture_code": 26,
    "city": "京都市南区",
    "city_kana": "キョウトシミナミク",
    "town": "吉祥院仁木ノ森町",
    "town_kana": "キッショウインニキノモリチョウ",
    "street": null,
    "office_name": null,
    "office_name_kana": null
  },
  "8355": {
    "postcode": "6018355",
    "prefecture": "京都府",
    "prefecture_kana": "キョウトフ",
    "prefecture_code": 26,
    "city": "京都市南区",
    "city_kana": "キョウトシミナミク",
    "town": "吉祥院石原堂ノ後町",
    "town_kana": "キッショウインイシハラドウノウシロチョウ",
    "street": null,
    "office_name": null,
    "office_name_kana": null
  },
  "8356": {
    "postcode": "6018356",
    "prefecture": "京都府",
    "prefecture_kana": "キョウトフ",
    "prefecture_code": 26,
    "city": "京都市南区",
    "city_kana": "キョウトシミナミク",
    "town": "吉祥院石原京道町",
    "town_kana": "キッショウインイシハラキョウミチチョウ",
    "street": null,
    "office_name": null,
    "office_name_kana": null
  },
  "8357": {
    "postcode": "6018357",
    "prefecture": "京都府",
    "prefecture_kana": "キョウトフ",
    "prefecture_code": 26,
    "city": "京都市南区",
    "city_kana": "キョウトシミナミク",
    "town": "吉祥院石原堂ノ後西町",
    "town_kana": "キッショウインイシハラドウノウシロニシマチ",
    "street": null,
    "office_name": null,
    "office_name_kana": null
  },
  "8361": {
    "postcode": "6018361",
    "prefecture": "京都府",
    "prefecture_kana": "キョウトフ",
    "prefecture_code": 26,
    "city": "京都市南区",
    "city_kana": "キョウトシミナミク",
    "town": "吉祥院石原東之口町",
    "town_kana": "キッショウインイシハラヒガシノクチチョウ",
    "street": null,
    "office_name": null,
    "office_name_kana": null
  },
  "8362": {
    "postcode": "6018362",
    "prefecture": "京都府",
    "prefecture_kana": "キョウトフ",
    "prefecture_code": 26,
    "city": "京都市南区",
    "city_kana": "キョウトシミナミク",
    "town": "吉祥院長田町",
    "town_kana": "キッショウインナガタチョウ",
    "street": null,
    "office_name": null,
    "office_name_kana": null
  },
  "8363": {
    "postcode": "6018363",
    "prefecture": "京都府",
    "prefecture_kana": "キョウトフ",
    "prefecture_code": 26,
    "city": "京都市南区",
    "city_kana": "キョウトシミナミク",
    "town": "吉祥院嶋野間詰町",
    "town_kana": "キッショウインシマノマヅメチョウ",
    "street": null,
    "office_name": null,
    "office_name_kana": null
  },
  "8364": {
    "postcode": "6018364",
    "prefecture": "京都府",
    "prefecture_kana": "キョウトフ",
    "prefecture_code": 26,
    "city": "京都市南区",
    "city_kana": "キョウトシミナミク",
    "town": "吉祥院石原南町",
    "town_kana": "キッショウインイシハラミナミチョウ",
    "street": null,
    "office_name": null,
    "office_name_kana": null
  },
  "8365": {
    "postcode": "6018365",
    "prefecture": "京都府",
    "prefecture_kana": "キョウトフ",
    "prefecture_code": 26,
    "city": "京都市南区",
    "city_kana": "キョウトシミナミク",
    "town": "吉祥院石原開町",
    "town_kana": "キッショウインイシハラヒラキマチ",
    "street": null,
    "office_name": null,
    "office_name_kana": null
  },
  "8366": {
    "postcode": "6018366",
    "prefecture": "京都府",
    "prefecture_kana": "キョウトフ",
    "prefecture_code": 26,
    "city": "京都市南区",
    "city_kana": "キョウトシミナミク",
    "town": "吉祥院石原西町",
    "town_kana": "キッショウインイシハラニシマチ",
    "street": null,
    "office_name": null,
    "office_name_kana": null
  },
  "8367": {
    "postcode": "6018367",
    "prefecture": "京都府",
    "prefecture_kana": "キョウトフ",
    "prefecture_code": 26,
    "city": "京都市南区",
    "city_kana": "キョウトシミナミク",
    "town": "吉祥院石原町",
    "town_kana": "キッショウインイシハラチョウ",
    "street": null,
    "office_name": null,
    "office_name_kana": null
  },
  "8371": {
    "postcode": "6018371",
    "prefecture": "京都府",
    "prefecture_kana": "キョウトフ",
    "prefecture_code": 26,
    "city": "京都市南区",
    "city_kana": "キョウトシミナミク",
    "town": "吉祥院嶋樫山町",
    "town_kana": "キッショウインシマカタギヤマチョウ",
    "street": null,
    "office_name": null,
    "office_name_kana": null
  },
  "8372": {
    "postcode": "6018372",
    "prefecture": "京都府",
    "prefecture_kana": "キョウトフ",
    "prefecture_code": 26,
    "city": "京都市南区",
    "city_kana": "キョウトシミナミク",
    "town": "吉祥院嶋高町",
    "town_kana": "キッショウインシマタカマチ",
    "street": null,
    "office_name": null,
    "office_name_kana": null
  },
  "8373": {
    "postcode": "6018373",
    "prefecture": "京都府",
    "prefecture_kana": "キョウトフ",
    "prefecture_code": 26,
    "city": "京都市南区",
    "city_kana": "キョウトシミナミク",
    "town": "吉祥院嶋出在家町",
    "town_kana": "キッショウインシマデザイケチョウ",
    "street": null,
    "office_name": null,
    "office_name_kana": null
  },
  "8374": {
    "postcode": "6018374",
    "prefecture": "京都府",
    "prefecture_kana": "キョウトフ",
    "prefecture_code": 26,
    "city": "京都市南区",
    "city_kana": "キョウトシミナミク",
    "town": "吉祥院嶋笠井町",
    "town_kana": "キッショウインシマカサイチョウ",
    "street": null,
    "office_name": null,
    "office_name_kana": null
  },
  "8375": {
    "postcode": "6018375",
    "prefecture": "京都府",
    "prefecture_kana": "キョウトフ",
    "prefecture_code": 26,
    "city": "京都市南区",
    "city_kana": "キョウトシミナミク",
    "town": "吉祥院嶋西浦",
    "town_kana": "キッショウインシマニシウラ",
    "street": null,
    "office_name": null,
    "office_name_kana": null
  },
  "8376": {
    "postcode": "6018376",
    "prefecture": "京都府",
    "prefecture_kana": "キョウトフ",
    "prefecture_code": 26,
    "city": "京都市南区",
    "city_kana": "キョウトシミナミク",
    "town": "吉祥院嶋中ノ島",
    "town_kana": "キッショウインシマナカノシマ",
    "street": null,
    "office_name": null,
    "office_name_kana": null
  },
  "8377": {
    "postcode": "6018377",
    "prefecture": "京都府",
    "prefecture_kana": "キョウトフ",
    "prefecture_code": 26,
    "city": "京都市南区",
    "city_kana": "キョウトシミナミク",
    "town": "吉祥院嶋堂ノ裏",
    "town_kana": "キッショウインシマドウノウラ",
    "street": null,
    "office_name": null,
    "office_name_kana": null
  },
  "8378": {
    "postcode": "6018378",
    "prefecture": "京都府",
    "prefecture_kana": "キョウトフ",
    "prefecture_code": 26,
    "city": "京都市南区",
    "city_kana": "キョウトシミナミク",
    "town": "吉祥院嶋堤外",
    "town_kana": "キッショウインシマツツミソト",
    "street": null,
    "office_name": null,
    "office_name_kana": null
  },
  "8379": {
    "postcode": "6018379",
    "prefecture": "京都府",
    "prefecture_kana": "キョウトフ",
    "prefecture_code": 26,
    "city": "京都市南区",
    "city_kana": "キョウトシミナミク",
    "town": "吉祥院嶋川原田町",
    "town_kana": "キッショウインシマカワラダチョウ",
    "street": null,
    "office_name": null,
    "office_name_kana": null
  },
  "8380": {
    "postcode": "6018380",
    "prefecture": "京都府",
    "prefecture_kana": "キョウトフ",
    "prefecture_code": 26,
    "city": "京都市南区",
    "city_kana": "キョウトシミナミク",
    "town": "吉祥院新田下ノ向町",
    "town_kana": "キッショウインシンデンシモノムカイチョウ",
    "street": null,
    "office_name": null,
    "office_name_kana": null
  },
  "8381": {
    "postcode": "6018381",
    "prefecture": "京都府",
    "prefecture_kana": "キョウトフ",
    "prefecture_code": 26,
    "city": "京都市南区",
    "city_kana": "キョウトシミナミク",
    "town": "吉祥院西ノ茶屋町",
    "town_kana": "キッショウインニシノチャヤチョウ",
    "street": null,
    "office_name": null,
    "office_name_kana": null
  },
  "8382": {
    "postcode": "6018382",
    "prefecture": "京都府",
    "prefecture_kana": "キョウトフ",
    "prefecture_code": 26,
    "city": "京都市南区",
    "city_kana": "キョウトシミナミク",
    "town": "吉祥院石原上川原町",
    "town_kana": "キッショウインイシハラカミカワラチョウ",
    "street": null,
    "office_name": null,
    "office_name_kana": null
  },
  "8383": {
    "postcode": "6018383",
    "prefecture": "京都府",
    "prefecture_kana": "キョウトフ",
    "prefecture_code": 26,
    "city": "京都市南区",
    "city_kana": "キョウトシミナミク",
    "town": "吉祥院石原長田町",
    "town_kana": "キッショウインイシハラナガタチョウ",
    "street": null,
    "office_name": null,
    "office_name_kana": null
  },
  "8384": {
    "postcode": "6018384",
    "prefecture": "京都府",
    "prefecture_kana": "キョウトフ",
    "prefecture_code": 26,
    "city": "京都市南区",
    "city_kana": "キョウトシミナミク",
    "town": "吉祥院石原野上町",
    "town_kana": "キッショウインイシハラノガミチョウ",
    "street": null,
    "office_name": null,
    "office_name_kana": null
  },
  "8385": {
    "postcode": "6018385",
    "prefecture": "京都府",
    "prefecture_kana": "キョウトフ",
    "prefecture_code": 26,
    "city": "京都市南区",
    "city_kana": "キョウトシミナミク",
    "town": "吉祥院石原葭縁",
    "town_kana": "キッショウインイシハラヨシベリ",
    "street": null,
    "office_name": null,
    "office_name_kana": null
  },
  "8386": {
    "postcode": "6018386",
    "prefecture": "京都府",
    "prefecture_kana": "キョウトフ",
    "prefecture_code": 26,
    "city": "京都市南区",
    "city_kana": "キョウトシミナミク",
    "town": "吉祥院石原割畑",
    "town_kana": "キッショウインイシハラワリハタ",
    "street": null,
    "office_name": null,
    "office_name_kana": null
  },
  "8387": {
    "postcode": "6018387",
    "prefecture": "京都府",
    "prefecture_kana": "キョウトフ",
    "prefecture_code": 26,
    "city": "京都市南区",
    "city_kana": "キョウトシミナミク",
    "town": "吉祥院石原橋裏",
    "town_kana": "キッショウインイシハラハシウラ",
    "street": null,
    "office_name": null,
    "office_name_kana": null
  },
  "8388": {
    "postcode": "6018388",
    "prefecture": "京都府",
    "prefecture_kana": "キョウトフ",
    "prefecture_code": 26,
    "city": "京都市南区",
    "city_kana": "キョウトシミナミク",
    "town": "吉祥院石原西ノ開町",
    "town_kana": "キッショウインイシハラニシノヒラキチョウ",
    "street": null,
    "office_name": null,
    "office_name_kana": null
  },
  "8389": {
    "postcode": "6018389",
    "prefecture": "京都府",
    "prefecture_kana": "キョウトフ",
    "prefecture_code": 26,
    "city": "京都市南区",
    "city_kana": "キョウトシミナミク",
    "town": "吉祥院石原橋上",
    "town_kana": "キッショウインイシハラハシカミ",
    "street": null,
    "office_name": null,
    "office_name_kana": null
  },
  "8390": {
    "postcode": "6018390",
    "prefecture": "京都府",
    "prefecture_kana": "キョウトフ",
    "prefecture_code": 26,
    "city": "京都市南区",
    "city_kana": "キョウトシミナミク",
    "town": "吉祥院流作町",
    "town_kana": "キッショウインリュウサクチョウ",
    "street": null,
    "office_name": null,
    "office_name_kana": null
  },
  "8391": {
    "postcode": "6018391",
    "prefecture": "京都府",
    "prefecture_kana": "キョウトフ",
    "prefecture_code": 26,
    "city": "京都市南区",
    "city_kana": "キョウトシミナミク",
    "town": "吉祥院大河原町",
    "town_kana": "キッショウインオオガワラチョウ",
    "street": null,
    "office_name": null,
    "office_name_kana": null
  },
  "8392": {
    "postcode": "6018392",
    "prefecture": "京都府",
    "prefecture_kana": "キョウトフ",
    "prefecture_code": 26,
    "city": "京都市南区",
    "city_kana": "キョウトシミナミク",
    "town": "吉祥院内河原町",
    "town_kana": "キッショウインウチガワラチョウ",
    "street": null,
    "office_name": null,
    "office_name_kana": null
  },
  "8393": {
    "postcode": "6018393",
    "prefecture": "京都府",
    "prefecture_kana": "キョウトフ",
    "prefecture_code": 26,
    "city": "京都市南区",
    "city_kana": "キョウトシミナミク",
    "town": "吉祥院中河原里西町",
    "town_kana": "キッショウインナカガワラサトニシチョウ",
    "street": null,
    "office_name": null,
    "office_name_kana": null
  },
  "8394": {
    "postcode": "6018394",
    "prefecture": "京都府",
    "prefecture_kana": "キョウトフ",
    "prefecture_code": 26,
    "city": "京都市南区",
    "city_kana": "キョウトシミナミク",
    "town": "吉祥院中河原里北町",
    "town_kana": "キッショウインナカガワラサトキタチョウ",
    "street": null,
    "office_name": null,
    "office_name_kana": null
  },
  "8395": {
    "postcode": "6018395",
    "prefecture": "京都府",
    "prefecture_kana": "キョウトフ",
    "prefecture_code": 26,
    "city": "京都市南区",
    "city_kana": "キョウトシミナミク",
    "town": "吉祥院中河原西屋敷町",
    "town_kana": "キッショウインナカガワラニシヤシキチョウ",
    "street": null,
    "office_name": null,
    "office_name_kana": null
  },
  "8396": {
    "postcode": "6018396",
    "prefecture": "京都府",
    "prefecture_kana": "キョウトフ",
    "prefecture_code": 26,
    "city": "京都市南区",
    "city_kana": "キョウトシミナミク",
    "town": "吉祥院中河原里南町",
    "town_kana": "キッショウインナカガワラサトミナミチョウ",
    "street": null,
    "office_name": null,
    "office_name_kana": null
  },
  "8397": {
    "postcode": "6018397",
    "prefecture": "京都府",
    "prefecture_kana": "キョウトフ",
    "prefecture_code": 26,
    "city": "京都市南区",
    "city_kana": "キョウトシミナミク",
    "town": "吉祥院新田壱ノ段町",
    "town_kana": "キッショウインシンデンイチノダンチョウ",
    "street": null,
    "office_name": null,
    "office_name_kana": null
  },
  "8398": {
    "postcode": "6018398",
    "prefecture": "京都府",
    "prefecture_kana": "キョウトフ",
    "prefecture_code": 26,
    "city": "京都市南区",
    "city_kana": "キョウトシミナミク",
    "town": "吉祥院新田参ノ段町",
    "town_kana": "キッショウインシンデンサンノダンチョウ",
    "street": null,
    "office_name": null,
    "office_name_kana": null
  },
  "8399": {
    "postcode": "6018399",
    "prefecture": "京都府",
    "prefecture_kana": "キョウトフ",
    "prefecture_code": 26,
    "city": "京都市南区",
    "city_kana": "キョウトシミナミク",
    "town": "吉祥院堤外町",
    "town_kana": "キッショウインツツミソトチョウ",
    "street": null,
    "office_name": null,
    "office_name_kana": null
  },
  "8401": {
    "postcode": "6018401",
    "prefecture": "京都府",
    "prefecture_kana": "キョウトフ",
    "prefecture_code": 26,
    "city": "京都市南区",
    "city_kana": "キョウトシミナミク",
    "town": "塩屋町",
    "town_kana": "シオヤチョウ",
    "street": null,
    "office_name": null,
    "office_name_kana": null
  },
  "8402": {
    "postcode": "6018402",
    "prefecture": "京都府",
    "prefecture_kana": "キョウトフ",
    "prefecture_code": 26,
    "city": "京都市南区",
    "city_kana": "キョウトシミナミク",
    "town": "大黒町",
    "town_kana": "ダイコクチョウ",
    "street": null,
    "office_name": null,
    "office_name_kana": null
  },
  "8403": {
    "postcode": "6018403",
    "prefecture": "京都府",
    "prefecture_kana": "キョウトフ",
    "prefecture_code": 26,
    "city": "京都市南区",
    "city_kana": "キョウトシミナミク",
    "town": "古御旅町",
    "town_kana": "フルオタビチョウ",
    "street": null,
    "office_name": null,
    "office_name_kana": null
  },
  "8404": {
    "postcode": "6018404",
    "prefecture": "京都府",
    "prefecture_kana": "キョウトフ",
    "prefecture_code": 26,
    "city": "京都市南区",
    "city_kana": "キョウトシミナミク",
    "town": "西九条小寺町",
    "town_kana": "ニシクジョウコデラチョウ",
    "street": null,
    "office_name": null,
    "office_name_kana": null
  },
  "8405": {
    "postcode": "6018405",
    "prefecture": "京都府",
    "prefecture_kana": "キョウトフ",
    "prefecture_code": 26,
    "city": "京都市南区",
    "city_kana": "キョウトシミナミク",
    "town": "西九条戒光寺町",
    "town_kana": "ニシクジョウカイコウジチョウ",
    "street": null,
    "office_name": null,
    "office_name_kana": null
  },
  "8406": {
    "postcode": "6018406",
    "prefecture": "京都府",
    "prefecture_kana": "キョウトフ",
    "prefecture_code": 26,
    "city": "京都市南区",
    "city_kana": "キョウトシミナミク",
    "town": "戒光寺町",
    "town_kana": "カイコウジチョウ",
    "street": null,
    "office_name": null,
    "office_name_kana": null
  },
  "8407": {
    "postcode": "6018407",
    "prefecture": "京都府",
    "prefecture_kana": "キョウトフ",
    "prefecture_code": 26,
    "city": "京都市南区",
    "city_kana": "キョウトシミナミク",
    "town": "西九条寺ノ前町",
    "town_kana": "ニシクジョウテラノマエチョウ",
    "street": null,
    "office_name": null,
    "office_name_kana": null
  },
  "8411": {
    "postcode": "6018411",
    "prefecture": "京都府",
    "prefecture_kana": "キョウトフ",
    "prefecture_code": 26,
    "city": "京都市南区",
    "city_kana": "キョウトシミナミク",
    "town": "西九条北ノ内町",
    "town_kana": "ニシクジョウキタノウチチョウ",
    "street": null,
    "office_name": null,
    "office_name_kana": null
  },
  "8412": {
    "postcode": "6018412",
    "prefecture": "京都府",
    "prefecture_kana": "キョウトフ",
    "prefecture_code": 26,
    "city": "京都市南区",
    "city_kana": "キョウトシミナミク",
    "town": "西九条院町",
    "town_kana": "ニシクジョウインマチ",
    "street": null,
    "office_name": null,
    "office_name_kana": null
  },
  "8413": {
    "postcode": "6018413",
    "prefecture": "京都府",
    "prefecture_kana": "キョウトフ",
    "prefecture_code": 26,
    "city": "京都市南区",
    "city_kana": "キョウトシミナミク",
    "town": "西九条春日町",
    "town_kana": "ニシクジョウカスガチョウ",
    "street": null,
    "office_name": null,
    "office_name_kana": null
  },
  "8414": {
    "postcode": "6018414",
    "prefecture": "京都府",
    "prefecture_kana": "キョウトフ",
    "prefecture_code": 26,
    "city": "京都市南区",
    "city_kana": "キョウトシミナミク",
    "town": "西九条蔵王町",
    "town_kana": "ニシクジョウザオウチョウ",
    "street": null,
    "office_name": null,
    "office_name_kana": null
  },
  "8415": {
    "postcode": "6018415",
    "prefecture": "京都府",
    "prefecture_kana": "キョウトフ",
    "prefecture_code": 26,
    "city": "京都市南区",
    "city_kana": "キョウトシミナミク",
    "town": "西九条西蔵王町",
    "town_kana": "ニシクジョウニシザオウチョウ",
    "street": null,
    "office_name": null,
    "office_name_kana": null
  },
  "8416": {
    "postcode": "6018416",
    "prefecture": "京都府",
    "prefecture_kana": "キョウトフ",
    "prefecture_code": 26,
    "city": "京都市南区",
    "city_kana": "キョウトシミナミク",
    "town": "西九条池ノ内町",
    "town_kana": "ニシクジョウイケノウチチョウ",
    "street": null,
    "office_name": null,
    "office_name_kana": null
  },
  "8417": {
    "postcode": "6018417",
    "prefecture": "京都府",
    "prefecture_kana": "キョウトフ",
    "prefecture_code": 26,
    "city": "京都市南区",
    "city_kana": "キョウトシミナミク",
    "town": "西九条鳥居口町",
    "town_kana": "ニシクジョウトリイグチチョウ",
    "street": null,
    "office_name": null,
    "office_name_kana": null
  },
  "8421": {
    "postcode": "6018421",
    "prefecture": "京都府",
    "prefecture_kana": "キョウトフ",
    "prefecture_code": 26,
    "city": "京都市南区",
    "city_kana": "キョウトシミナミク",
    "town": "西九条藤ノ木町",
    "town_kana": "ニシクジョウフジノキチョウ",
    "street": null,
    "office_name": null,
    "office_name_kana": null
  },
  "8422": {
    "postcode": "6018422",
    "prefecture": "京都府",
    "prefecture_kana": "キョウトフ",
    "prefecture_code": 26,
    "city": "京都市南区",
    "city_kana": "キョウトシミナミク",
    "town": "西九条針小路町",
    "town_kana": "ニシクジョウハリコウジチョウ",
    "street": null,
    "office_name": null,
    "office_name_kana": null
  },
  "8423": {
    "postcode": "6018423",
    "prefecture": "京都府",
    "prefecture_kana": "キョウトフ",
    "prefecture_code": 26,
    "city": "京都市南区",
    "city_kana": "キョウトシミナミク",
    "town": "西九条唐橋町",
    "town_kana": "ニシクジョウカラハシチョウ",
    "street": null,
    "office_name": null,
    "office_name_kana": null
  },
  "8424": {
    "postcode": "6018424",
    "prefecture": "京都府",
    "prefecture_kana": "キョウトフ",
    "prefecture_code": 26,
    "city": "京都市南区",
    "city_kana": "キョウトシミナミク",
    "town": "西九条川原城町",
    "town_kana": "ニシクジョウカワラジョウチョウ",
    "street": null,
    "office_name": null,
    "office_name_kana": null
  },
  "8425": {
    "postcode": "6018425",
    "prefecture": "京都府",
    "prefecture_kana": "キョウトフ",
    "prefecture_code": 26,
    "city": "京都市南区",
    "city_kana": "キョウトシミナミク",
    "town": "西九条南小路町",
    "town_kana": "ニシクジョウミナミコウジチョウ",
    "street": null,
    "office_name": null,
    "office_name_kana": null
  },
  "8426": {
    "postcode": "6018426",
    "prefecture": "京都府",
    "prefecture_kana": "キョウトフ",
    "prefecture_code": 26,
    "city": "京都市南区",
    "city_kana": "キョウトシミナミク",
    "town": "西九条猪熊町",
    "town_kana": "ニシクジョウイノクマチョウ",
    "street": null,
    "office_name": null,
    "office_name_kana": null
  },
  "8427": {
    "postcode": "6018427",
    "prefecture": "京都府",
    "prefecture_kana": "キョウトフ",
    "prefecture_code": 26,
    "city": "京都市南区",
    "city_kana": "キョウトシミナミク",
    "town": "西九条横町",
    "town_kana": "ニシクジョウヨコマチ",
    "street": null,
    "office_name": null,
    "office_name_kana": null
  },
  "8428": {
    "postcode": "6018428",
    "prefecture": "京都府",
    "prefecture_kana": "キョウトフ",
    "prefecture_code": 26,
    "city": "京都市南区",
    "city_kana": "キョウトシミナミク",
    "town": "東寺東門前町",
    "town_kana": "トウジヒガシモンゼンチョウ",
    "street": null,
    "office_name": null,
    "office_name_kana": null
  },
  "8431": {
    "postcode": "6018431",
    "prefecture": "京都府",
    "prefecture_kana": "キョウトフ",
    "prefecture_code": 26,
    "city": "京都市南区",
    "city_kana": "キョウトシミナミク",
    "town": "西九条島町",
    "town_kana": "ニシクジョウシママチ",
    "street": null,
    "office_name": null,
    "office_name_kana": null
  },
  "8432": {
    "postcode": "6018432",
    "prefecture": "京都府",
    "prefecture_kana": "キョウトフ",
    "prefecture_code": 26,
    "city": "京都市南区",
    "city_kana": "キョウトシミナミク",
    "town": "西九条東島町",
    "town_kana": "ニシクジョウヒガシシママチ",
    "street": null,
    "office_name": null,
    "office_name_kana": null
  },
  "8433": {
    "postcode": "6018433",
    "prefecture": "京都府",
    "prefecture_kana": "キョウトフ",
    "prefecture_code": 26,
    "city": "京都市南区",
    "city_kana": "キョウトシミナミク",
    "town": "西九条東柳ノ内町",
    "town_kana": "ニシクジョウヒガシヤナギノウチチョウ",
    "street": null,
    "office_name": null,
    "office_name_kana": null
  },
  "8434": {
    "postcode": "6018434",
    "prefecture": "京都府",
    "prefecture_kana": "キョウトフ",
    "prefecture_code": 26,
    "city": "京都市南区",
    "city_kana": "キョウトシミナミク",
    "town": "西九条仏現寺町",
    "town_kana": "ニシクジョウブツゲンジチョウ",
    "street": null,
    "office_name": null,
    "office_name_kana": null
  },
  "8435": {
    "postcode": "6018435",
    "prefecture": "京都府",
    "prefecture_kana": "キョウトフ",
    "prefecture_code": 26,
    "city": "京都市南区",
    "city_kana": "キョウトシミナミク",
    "town": "西九条柳ノ内町",
    "town_kana": "ニシクジョウヤナギノウチチョウ",
    "street": null,
    "office_name": null,
    "office_name_kana": null
  },
  "8436": {
    "postcode": "6018436",
    "prefecture": "京都府",
    "prefecture_kana": "キョウトフ",
    "prefecture_code": 26,
    "city": "京都市南区",
    "city_kana": "キョウトシミナミク",
    "town": "西九条西柳ノ内町",
    "town_kana": "ニシクジョウニシヤナギノウチチョウ",
    "street": null,
    "office_name": null,
    "office_name_kana": null
  },
  "8437": {
    "postcode": "6018437",
    "prefecture": "京都府",
    "prefecture_kana": "キョウトフ",
    "prefecture_code": 26,
    "city": "京都市南区",
    "city_kana": "キョウトシミナミク",
    "town": "西九条比永城町",
    "town_kana": "ニシクジョウヒエイジョウチョウ",
    "street": null,
    "office_name": null,
    "office_name_kana": null
  },
  "8438": {
    "postcode": "6018438",
    "prefecture": "京都府",
    "prefecture_kana": "キョウトフ",
    "prefecture_code": 26,
    "city": "京都市南区",
    "city_kana": "キョウトシミナミク",
    "town": "西九条東比永城町",
    "town_kana": "ニシクジョウヒガシヒエイジョウチョウ",
    "street": null,
    "office_name": null,
    "office_name_kana": null
  },
  "8439": {
    "postcode": "6018439",
    "prefecture": "京都府",
    "prefecture_kana": "キョウトフ",
    "prefecture_code": 26,
    "city": "京都市南区",
    "city_kana": "キョウトシミナミク",
    "town": "西九条開ケ町",
    "town_kana": "ニシクジョウカイガチョウ",
    "street": null,
    "office_name": null,
    "office_name_kana": null
  },
  "8441": {
    "postcode": "6018441",
    "prefecture": "京都府",
    "prefecture_kana": "キョウトフ",
    "prefecture_code": 26,
    "city": "京都市南区",
    "city_kana": "キョウトシミナミク",
    "town": "西九条南田町",
    "town_kana": "ニシクジョウナンデンチョウ",
    "street": null,
    "office_name": null,
    "office_name_kana": null
  },
  "8442": {
    "postcode": "6018442",
    "prefecture": "京都府",
    "prefecture_kana": "キョウトフ",
    "prefecture_code": 26,
    "city": "京都市南区",
    "city_kana": "キョウトシミナミク",
    "town": "西九条御幸田町",
    "town_kana": "ニシクジョウゴコウデンチョウ",
    "street": null,
    "office_name": null,
    "office_name_kana": null
  },
  "8443": {
    "postcode": "6018443",
    "prefecture": "京都府",
    "prefecture_kana": "キョウトフ",
    "prefecture_code": 26,
    "city": "京都市南区",
    "city_kana": "キョウトシミナミク",
    "town": "西九条東御幸田町",
    "town_kana": "ニシクジョウヒガシゴコウデンチョウ",
    "street": null,
    "office_name": null,
    "office_name_kana": null
  },
  "8444": {
    "postcode": "6018444",
    "prefecture": "京都府",
    "prefecture_kana": "キョウトフ",
    "prefecture_code": 26,
    "city": "京都市南区",
    "city_kana": "キョウトシミナミク",
    "town": "西九条森本町",
    "town_kana": "ニシクジョウモリモトチョウ",
    "street": null,
    "office_name": null,
    "office_name_kana": null
  },
  "8445": {
    "postcode": "6018445",
    "prefecture": "京都府",
    "prefecture_kana": "キョウトフ",
    "prefecture_code": 26,
    "city": "京都市南区",
    "city_kana": "キョウトシミナミク",
    "town": "西九条菅田町",
    "town_kana": "ニシクジョウスガタチョウ",
    "street": null,
    "office_name": null,
    "office_name_kana": null
  },
  "8446": {
    "postcode": "6018446",
    "prefecture": "京都府",
    "prefecture_kana": "キョウトフ",
    "prefecture_code": 26,
    "city": "京都市南区",
    "city_kana": "キョウトシミナミク",
    "town": "西九条高畠町",
    "town_kana": "ニシクジョウタカハタチョウ",
    "street": null,
    "office_name": null,
    "office_name_kana": null
  },
  "8447": {
    "postcode": "6018447",
    "prefecture": "京都府",
    "prefecture_kana": "キョウトフ",
    "prefecture_code": 26,
    "city": "京都市南区",
    "city_kana": "キョウトシミナミク",
    "town": "西九条唐戸町",
    "town_kana": "ニシクジョウカラトチョウ",
    "street": null,
    "office_name": null,
    "office_name_kana": null
  },
  "8448": {
    "postcode": "6018448",
    "prefecture": "京都府",
    "prefecture_kana": "キョウトフ",
    "prefecture_code": 26,
    "city": "京都市南区",
    "city_kana": "キョウトシミナミク",
    "town": "西九条豊田町",
    "town_kana": "ニシクジョウトヨダチョウ",
    "street": null,
    "office_name": null,
    "office_name_kana": null
  },
  "8449": {
    "postcode": "6018449",
    "prefecture": "京都府",
    "prefecture_kana": "キョウトフ",
    "prefecture_code": 26,
    "city": "京都市南区",
    "city_kana": "キョウトシミナミク",
    "town": "西九条大国町",
    "town_kana": "ニシクジョウオオクニチョウ",
    "street": null,
    "office_name": null,
    "office_name_kana": null
  },
  "8451": {
    "postcode": "6018451",
    "prefecture": "京都府",
    "prefecture_kana": "キョウトフ",
    "prefecture_code": 26,
    "city": "京都市南区",
    "city_kana": "キョウトシミナミク",
    "town": "唐橋川久保町",
    "town_kana": "カラハシカワクボチョウ",
    "street": null,
    "office_name": null,
    "office_name_kana": null
  },
  "8452": {
    "postcode": "6018452",
    "prefecture": "京都府",
    "prefecture_kana": "キョウトフ",
    "prefecture_code": 26,
    "city": "京都市南区",
    "city_kana": "キョウトシミナミク",
    "town": "唐橋堂ノ前町",
    "town_kana": "カラハシドウノマエチョウ",
    "street": null,
    "office_name": null,
    "office_name_kana": null
  },
  "8453": {
    "postcode": "6018453",
    "prefecture": "京都府",
    "prefecture_kana": "キョウトフ",
    "prefecture_code": 26,
    "city": "京都市南区",
    "city_kana": "キョウトシミナミク",
    "town": "唐橋羅城門町",
    "town_kana": "カラハシラジョウモンチョウ",
    "street": null,
    "office_name": null,
    "office_name_kana": null
  },
  "8454": {
    "postcode": "6018454",
    "prefecture": "京都府",
    "prefecture_kana": "キョウトフ",
    "prefecture_code": 26,
    "city": "京都市南区",
    "city_kana": "キョウトシミナミク",
    "town": "唐橋経田町",
    "town_kana": "カラハシケイデンチョウ",
    "street": null,
    "office_name": null,
    "office_name_kana": null
  },
  "8455": {
    "postcode": "6018455",
    "prefecture": "京都府",
    "prefecture_kana": "キョウトフ",
    "prefecture_code": 26,
    "city": "京都市南区",
    "city_kana": "キョウトシミナミク",
    "town": "唐橋芦辺町",
    "town_kana": "カラハシアシベチョウ",
    "street": null,
    "office_name": null,
    "office_name_kana": null
  },
  "8456": {
    "postcode": "6018456",
    "prefecture": "京都府",
    "prefecture_kana": "キョウトフ",
    "prefecture_code": 26,
    "city": "京都市南区",
    "city_kana": "キョウトシミナミク",
    "town": "唐橋南琵琶町",
    "town_kana": "カラハシミナミビワチョウ",
    "street": null,
    "office_name": null,
    "office_name_kana": null
  },
  "8457": {
    "postcode": "6018457",
    "prefecture": "京都府",
    "prefecture_kana": "キョウトフ",
    "prefecture_code": 26,
    "city": "京都市南区",
    "city_kana": "キョウトシミナミク",
    "town": "唐橋琵琶町",
    "town_kana": "カラハシビワチョウ",
    "street": null,
    "office_name": null,
    "office_name_kana": null
  },
  "8461": {
    "postcode": "6018461",
    "prefecture": "京都府",
    "prefecture_kana": "キョウトフ",
    "prefecture_code": 26,
    "city": "京都市南区",
    "city_kana": "キョウトシミナミク",
    "town": "唐橋門脇町",
    "town_kana": "カラハシカドワキチョウ",
    "street": null,
    "office_name": null,
    "office_name_kana": null
  },
  "8462": {
    "postcode": "6018462",
    "prefecture": "京都府",
    "prefecture_kana": "キョウトフ",
    "prefecture_code": 26,
    "city": "京都市南区",
    "city_kana": "キョウトシミナミク",
    "town": "唐橋井園町",
    "town_kana": "カラハシイソノチョウ",
    "street": null,
    "office_name": null,
    "office_name_kana": null
  },
  "8463": {
    "postcode": "6018463",
    "prefecture": "京都府",
    "prefecture_kana": "キョウトフ",
    "prefecture_code": 26,
    "city": "京都市南区",
    "city_kana": "キョウトシミナミク",
    "town": "唐橋赤金町",
    "town_kana": "カラハシアカカネチョウ",
    "street": null,
    "office_name": null,
    "office_name_kana": null
  },
  "8464": {
    "postcode": "6018464",
    "prefecture": "京都府",
    "prefecture_kana": "キョウトフ",
    "prefecture_code": 26,
    "city": "京都市南区",
    "city_kana": "キョウトシミナミク",
    "town": "唐橋高田町",
    "town_kana": "カラハシタカダチョウ",
    "street": null,
    "office_name": null,
    "office_name_kana": null
  },
  "8465": {
    "postcode": "6018465",
    "prefecture": "京都府",
    "prefecture_kana": "キョウトフ",
    "prefecture_code": 26,
    "city": "京都市南区",
    "city_kana": "キョウトシミナミク",
    "town": "唐橋花園町",
    "town_kana": "カラハシハナゾノチョウ",
    "street": null,
    "office_name": null,
    "office_name_kana": null
  },
  "8466": {
    "postcode": "6018466",
    "prefecture": "京都府",
    "prefecture_kana": "キョウトフ",
    "prefecture_code": 26,
    "city": "京都市南区",
    "city_kana": "キョウトシミナミク",
    "town": "唐橋西寺町",
    "town_kana": "カラハシサイジチョウ",
    "street": null,
    "office_name": null,
    "office_name_kana": null
  },
  "8467": {
    "postcode": "6018467",
    "prefecture": "京都府",
    "prefecture_kana": "キョウトフ",
    "prefecture_code": 26,
    "city": "京都市南区",
    "city_kana": "キョウトシミナミク",
    "town": "唐橋大宮尻町",
    "town_kana": "カラハシオオミヤジリチョウ",
    "street": null,
    "office_name": null,
    "office_name_kana": null
  },
  "8468": {
    "postcode": "6018468",
    "prefecture": "京都府",
    "prefecture_kana": "キョウトフ",
    "prefecture_code": 26,
    "city": "京都市南区",
    "city_kana": "キョウトシミナミク",
    "town": "唐橋西平垣町",
    "town_kana": "カラハシニシヒラガキチョウ",
    "street": null,
    "office_name": null,
    "office_name_kana": null
  },
  "8469": {
    "postcode": "6018469",
    "prefecture": "京都府",
    "prefecture_kana": "キョウトフ",
    "prefecture_code": 26,
    "city": "京都市南区",
    "city_kana": "キョウトシミナミク",
    "town": "唐橋平垣町",
    "town_kana": "カラハシヒラガキチョウ",
    "street": null,
    "office_name": null,
    "office_name_kana": null
  },
  "8471": {
    "postcode": "6018471",
    "prefecture": "京都府",
    "prefecture_kana": "キョウトフ",
    "prefecture_code": 26,
    "city": "京都市南区",
    "city_kana": "キョウトシミナミク",
    "town": "八条町",
    "town_kana": "ハチジョウチョウ",
    "street": null,
    "office_name": null,
    "office_name_kana": null
  },
  "8472": {
    "postcode": "6018472",
    "prefecture": "京都府",
    "prefecture_kana": "キョウトフ",
    "prefecture_code": 26,
    "city": "京都市南区",
    "city_kana": "キョウトシミナミク",
    "town": "八条坊門町",
    "town_kana": "ハチジョウボウモンチョウ",
    "street": null,
    "office_name": null,
    "office_name_kana": null
  },
  "8473": {
    "postcode": "6018473",
    "prefecture": "京都府",
    "prefecture_kana": "キョウトフ",
    "prefecture_code": 26,
    "city": "京都市南区",
    "city_kana": "キョウトシミナミク",
    "town": "九条町",
    "town_kana": "クジョウチョウ",
    "street": null,
    "office_name": null,
    "office_name_kana": null
  },
  "8474": {
    "postcode": "6018474",
    "prefecture": "京都府",
    "prefecture_kana": "キョウトフ",
    "prefecture_code": 26,
    "city": "京都市南区",
    "city_kana": "キョウトシミナミク",
    "town": "四ツ塚町",
    "town_kana": "ヨツヅカチョウ",
    "street": null,
    "office_name": null,
    "office_name_kana": null
  },
  "8475": {
    "postcode": "6018475",
    "prefecture": "京都府",
    "prefecture_kana": "キョウトフ",
    "prefecture_code": 26,
    "city": "京都市南区",
    "city_kana": "キョウトシミナミク",
    "town": "八条内田町",
    "town_kana": "ハチジョウウチダチョウ",
    "street": null,
    "office_name": null,
    "office_name_kana": null
  },
  "8476": {
    "postcode": "6018476",
    "prefecture": "京都府",
    "prefecture_kana": "キョウトフ",
    "prefecture_code": 26,
    "city": "京都市南区",
    "city_kana": "キョウトシミナミク",
    "town": "八条寺内町",
    "town_kana": "ハチジョウテラノウチチョウ",
    "street": null,
    "office_name": null,
    "office_name_kana": null
  },
  "8477": {
    "postcode": "6018477",
    "prefecture": "京都府",
    "prefecture_kana": "キョウトフ",
    "prefecture_code": 26,
    "city": "京都市南区",
    "city_kana": "キョウトシミナミク",
    "town": "八条源町",
    "town_kana": "ハチジョウミナモトチョウ",
    "street": null,
    "office_name": null,
    "office_name_kana": null
  },
  "8478": {
    "postcode": "6018478",
    "prefecture": "京都府",
    "prefecture_kana": "キョウトフ",
    "prefecture_code": 26,
    "city": "京都市南区",
    "city_kana": "キョウトシミナミク",
    "town": "東寺町",
    "town_kana": "トウジチョウ",
    "street": null,
    "office_name": null,
    "office_name_kana": null
  },
  "8501": {
    "postcode": "6018501",
    "prefecture": "京都府",
    "prefecture_kana": "キョウトフ",
    "prefecture_code": 26,
    "city": "京都市南区",
    "city_kana": "キョウトシミナミク",
    "town": "上鳥羽鉾立町",
    "town_kana": "カミトバホコタテチョウ",
    "street": "１１−１",
    "office_name": "任天堂　株式会社",
    "office_name_kana": "ニンテンドウ カブシキガイシヤ"
  },
  "8502": {
    "postcode": "6018502",
    "prefecture": "京都府",
    "prefecture_kana": "キョウトフ",
    "prefecture_code": 26,
    "city": "京都市南区",
    "city_kana": "キョウトシミナミク",
    "town": "東九条南松田町",
    "town_kana": "ヒガシクジョウミナミマツダチョウ",
    "street": "２番１",
    "office_name": "任天堂　株式会社",
    "office_name_kana": "ニンテンドウ カブシキガイシヤ"
  },
  "8506": {
    "postcode": "6018506",
    "prefecture": "京都府",
    "prefecture_kana": "キョウトフ",
    "prefecture_code": 26,
    "city": "京都市南区",
    "city_kana": "キョウトシミナミク",
    "town": "西九条北ノ内町",
    "town_kana": "ニシクジョウキタノウチチョウ",
    "street": "６",
    "office_name": "株式会社　ワコール　新京都ビル",
    "office_name_kana": "カブシキガイシヤ ワコ-ル シンキヨウトビル"
  },
  "8510": {
    "postcode": "6018510",
    "prefecture": "京都府",
    "prefecture_kana": "キョウトフ",
    "prefecture_code": 26,
    "city": "京都市南区",
    "city_kana": "キョウトシミナミク",
    "town": "吉祥院宮ノ東町",
    "town_kana": "キッショウインミヤノヒガシチョウ",
    "street": "２",
    "office_name": "株式会社　堀場製作所",
    "office_name_kana": "カブシキガイシヤ ホリバセイサクシヨ"
  },
  "8511": {
    "postcode": "6018511",
    "prefecture": "京都府",
    "prefecture_kana": "キョウトフ",
    "prefecture_code": 26,
    "city": "京都市南区",
    "city_kana": "キョウトシミナミク",
    "town": "西九条南田町",
    "town_kana": "ニシクジョウナンデンチョウ",
    "street": "１−３",
    "office_name": "京都市南区役所",
    "office_name_kana": "キヨウトシミナミクヤクシヨ"
  },
  "8520": {
    "postcode": "6018520",
    "prefecture": "京都府",
    "prefecture_kana": "キョウトフ",
    "prefecture_code": 26,
    "city": "京都市南区",
    "city_kana": "キョウトシミナミク",
    "town": "吉祥院西ノ庄猪之馬場町",
    "town_kana": "キッショウインニシノショウイノババチョウ",
    "street": "１",
    "office_name": "株式会社　ＧＳユアサ",
    "office_name_kana": "カブシキガイシヤ ジ-エスユアサ"
  },
  "8530": {
    "postcode": "6018530",
    "prefecture": "京都府",
    "prefecture_kana": "キョウトフ",
    "prefecture_code": 26,
    "city": "京都市南区",
    "city_kana": "キョウトシミナミク",
    "town": "吉祥院中島町",
    "town_kana": "キッショウインナカジマチョウ",
    "street": "２９",
    "office_name": "株式会社　ワコール",
    "office_name_kana": "カブシキガイシヤ ワコ-ル"
  },
  "8533": {
    "postcode": "6018533",
    "prefecture": "京都府",
    "prefecture_kana": "キョウトフ",
    "prefecture_code": 26,
    "city": "京都市南区",
    "city_kana": "キョウトシミナミク",
    "town": "上鳥羽大物町",
    "town_kana": "カミトバダイモツチョウ",
    "street": "６８",
    "office_name": "株式会社　三笑堂",
    "office_name_kana": "カブシキガイシヤ サンシヨウドウ"
  },
  "8542": {
    "postcode": "6018542",
    "prefecture": "京都府",
    "prefecture_kana": "キョウトフ",
    "prefecture_code": 26,
    "city": "京都市南区",
    "city_kana": "キョウトシミナミク",
    "town": "西九条菅田町",
    "town_kana": "ニシクジョウスガタチョウ",
    "street": "１９−１",
    "office_name": "ＮＴＴファイナンス　株式会社　西日本みやこ料金センター",
    "office_name_kana": "エヌテイテイフアイナンス カブシキガイシヤ ニシニホンミヤコリヨウキンセンタ-"
  },
  "8550": {
    "postcode": "6018550",
    "prefecture": "京都府",
    "prefecture_kana": "キョウトフ",
    "prefecture_code": 26,
    "city": "京都市南区",
    "city_kana": "キョウトシミナミク",
    "town": "吉祥院西ノ庄門口町",
    "town_kana": "キッショウインニシノショウモングチチョウ",
    "street": "１４",
    "office_name": "日本新薬　株式会社",
    "office_name_kana": "ニツポンシンヤク カブシキガイシヤ"
  },
  "8559": {
    "postcode": "6018559",
    "prefecture": "京都府",
    "prefecture_kana": "キョウトフ",
    "prefecture_code": 26,
    "city": "京都市南区",
    "city_kana": "キョウトシミナミク",
    "town": "西九条菅田町",
    "town_kana": "ニシクジョウスガタチョウ",
    "street": "１９−１",
    "office_name": "西日本電信電話　株式会社　京都支店　京都１１６センタ　みやこＩＰコールセンタ",
    "office_name_kana": "ニシニホンデンシンデンワ カブシキガイシヤ キヨウトシテン キヨウトイチイチロクセンタ ミヤコアイピ-コ-ルセンタ"
  },
  "8560": {
    "postcode": "6018560",
    "prefecture": "京都府",
    "prefecture_kana": "キョウトフ",
    "prefecture_code": 26,
    "city": "京都市南区",
    "city_kana": "キョウトシミナミク",
    "town": "西九条西柳ノ内町",
    "town_kana": "ニシクジョウニシヤナギノウチチョウ",
    "street": "８番地",
    "office_name": "株式会社　きんでん　京都支店",
    "office_name_kana": "カブシキカイシヤ キンデン キヨウトシテン"
  },
  "8588": {
    "postcode": "6018588",
    "prefecture": "京都府",
    "prefecture_kana": "キョウトフ",
    "prefecture_code": 26,
    "city": "京都市南区",
    "city_kana": "キョウトシミナミク",
    "town": "吉祥院嶋野間詰町",
    "town_kana": "キッショウインシマノマヅメチョウ",
    "street": "１８番地",
    "office_name": "橋爪食品　株式会社",
    "office_name_kana": "ハシヅメシヨクヒン カブシキガイシヤ"
  },
  "8601": {
    "postcode": "6018601",
    "prefecture": "京都府",
    "prefecture_kana": "キョウトフ",
    "prefecture_code": 26,
    "city": "京都市南区",
    "city_kana": "キョウトシミナミク",
    "town": "久世高田町",
    "town_kana": "クゼタカダチョウ",
    "street": "３７６番１号",
    "office_name": "イオンモール京都桂川",
    "office_name_kana": "イオンモ-ルキヨウトカツラガワ"
  }
}