{
  "0000": {
    "postcode": "6060000",
    "prefecture": "京都府",
    "prefecture_kana": "キョウトフ",
    "prefecture_code": 26,
    "city": "京都市左京区",
    "city_kana": "キョウトシサキョウク",
    "town": "",
    "town_kana": "",
    "street": null,
    "office_name": null,
    "office_name_kana": null
  },
  "0001": {
    "postcode": "6060001",
    "prefecture": "京都府",
    "prefecture_kana": "キョウトフ",
    "prefecture_code": 26,
    "city": "京都市左京区",
    "city_kana": "キョウトシサキョウク",
    "town": "岩倉大鷺町",
    "town_kana": "イワクラオオサギチョウ",
    "street": null,
    "office_name": null,
    "office_name_kana": null
  },
  "0002": {
    "postcode": "6060002",
    "prefecture": "京都府",
    "prefecture_kana": "キョウトフ",
    "prefecture_code": 26,
    "city": "京都市左京区",
    "city_kana": "キョウトシサキョウク",
    "town": "岩倉中大鷺町",
    "town_kana": "イワクラナカオオサギチョウ",
    "street": null,
    "office_name": null,
    "office_name_kana": null
  },
  "0003": {
    "postcode": "6060003",
    "prefecture": "京都府",
    "prefecture_kana": "キョウトフ",
    "prefecture_code": 26,
    "city": "京都市左京区",
    "city_kana": "キョウトシサキョウク",
    "town": "岩倉南大鷺町",
    "town_kana": "イワクラミナミオオサギチョウ",
    "street": null,
    "office_name": null,
    "office_name_kana": null
  },
  "0004": {
    "postcode": "6060004",
    "prefecture": "京都府",
    "prefecture_kana": "キョウトフ",
    "prefecture_code": 26,
    "city": "京都市左京区",
    "city_kana": "キョウトシサキョウク",
    "town": "岩倉北池田町",
    "town_kana": "イワクラキタイケダチョウ",
    "street": null,
    "office_name": null,
    "office_name_kana": null
  },
  "0005": {
    "postcode": "6060005",
    "prefecture": "京都府",
    "prefecture_kana": "キョウトフ",
    "prefecture_code": 26,
    "city": "京都市左京区",
    "city_kana": "キョウトシサキョウク",
    "town": "岩倉南池田町",
    "town_kana": "イワクラミナミイケダチョウ",
    "street": null,
    "office_name": null,
    "office_name_kana": null
  },
  "0006": {
    "postcode": "6060006",
    "prefecture": "京都府",
    "prefecture_kana": "キョウトフ",
    "prefecture_code": 26,
    "city": "京都市左京区",
    "city_kana": "キョウトシサキョウク",
    "town": "岩倉西五田町",
    "town_kana": "イワクラニシゴダチョウ",
    "street": null,
    "office_name": null,
    "office_name_kana": null
  },
  "0007": {
    "postcode": "6060007",
    "prefecture": "京都府",
    "prefecture_kana": "キョウトフ",
    "prefecture_code": 26,
    "city": "京都市左京区",
    "city_kana": "キョウトシサキョウク",
    "town": "岩倉東五田町",
    "town_kana": "イワクラヒガシゴダチョウ",
    "street": null,
    "office_name": null,
    "office_name_kana": null
  },
  "0008": {
    "postcode": "6060008",
    "prefecture": "京都府",
    "prefecture_kana": "キョウトフ",
    "prefecture_code": 26,
    "city": "京都市左京区",
    "city_kana": "キョウトシサキョウク",
    "town": "岩倉三笠町",
    "town_kana": "イワクラミカサチョウ",
    "street": null,
    "office_name": null,
    "office_name_kana": null
  },
  "0009": {
    "postcode": "6060009",
    "prefecture": "京都府",
    "prefecture_kana": "キョウトフ",
    "prefecture_code": 26,
    "city": "京都市左京区",
    "city_kana": "キョウトシサキョウク",
    "town": "岩倉北桑原町",
    "town_kana": "イワクラキタクワハラチョウ",
    "street": null,
    "office_name": null,
    "office_name_kana": null
  },
  "0010": {
    "postcode": "6060010",
    "prefecture": "京都府",
    "prefecture_kana": "キョウトフ",
    "prefecture_code": 26,
    "city": "京都市左京区",
    "city_kana": "キョウトシサキョウク",
    "town": "岩倉北四ノ坪町",
    "town_kana": "イワクラキタヨンノツボチョウ",
    "street": null,
    "office_name": null,
    "office_name_kana": null
  },
  "0011": {
    "postcode": "6060011",
    "prefecture": "京都府",
    "prefecture_kana": "キョウトフ",
    "prefecture_code": 26,
    "city": "京都市左京区",
    "city_kana": "キョウトシサキョウク",
    "town": "岩倉西宮田町",
    "town_kana": "イワクラニシミヤタチョウ",
    "street": null,
    "office_name": null,
    "office_name_kana": null
  },
  "0012": {
    "postcode": "6060012",
    "prefecture": "京都府",
    "prefecture_kana": "キョウトフ",
    "prefecture_code": 26,
    "city": "京都市左京区",
    "city_kana": "キョウトシサキョウク",
    "town": "岩倉東宮田町",
    "town_kana": "イワクラヒガシミヤタチョウ",
    "street": null,
    "office_name": null,
    "office_name_kana": null
  },
  "0013": {
    "postcode": "6060013",
    "prefecture": "京都府",
    "prefecture_kana": "キョウトフ",
    "prefecture_code": 26,
    "city": "京都市左京区",
    "city_kana": "キョウトシサキョウク",
    "town": "岩倉下在地町",
    "town_kana": "イワクラシモザイジチョウ",
    "street": null,
    "office_name": null,
    "office_name_kana": null
  },
  "0014": {
    "postcode": "6060014",
    "prefecture": "京都府",
    "prefecture_kana": "キョウトフ",
    "prefecture_code": 26,
    "city": "京都市左京区",
    "city_kana": "キョウトシサキョウク",
    "town": "岩倉西河原町",
    "town_kana": "イワクラニシガワラチョウ",
    "street": null,
    "office_name": null,
    "office_name_kana": null
  },
  "0015": {
    "postcode": "6060015",
    "prefecture": "京都府",
    "prefecture_kana": "キョウトフ",
    "prefecture_code": 26,
    "city": "京都市左京区",
    "city_kana": "キョウトシサキョウク",
    "town": "岩倉幡枝町",
    "town_kana": "イワクラハタエダチョウ",
    "street": null,
    "office_name": null,
    "office_name_kana": null
  },
  "0016": {
    "postcode": "6060016",
    "prefecture": "京都府",
    "prefecture_kana": "キョウトフ",
    "prefecture_code": 26,
    "city": "京都市左京区",
    "city_kana": "キョウトシサキョウク",
    "town": "岩倉木野町",
    "town_kana": "イワクラキノチョウ",
    "street": null,
    "office_name": null,
    "office_name_kana": null
  },
  "0017": {
    "postcode": "6060017",
    "prefecture": "京都府",
    "prefecture_kana": "キョウトフ",
    "prefecture_code": 26,
    "city": "京都市左京区",
    "city_kana": "キョウトシサキョウク",
    "town": "岩倉上蔵町",
    "town_kana": "イワクラアグラチョウ",
    "street": null,
    "office_name": null,
    "office_name_kana": null
  },
  "0018": {
    "postcode": "6060018",
    "prefecture": "京都府",
    "prefecture_kana": "キョウトフ",
    "prefecture_code": 26,
    "city": "京都市左京区",
    "city_kana": "キョウトシサキョウク",
    "town": "岩倉中河原町",
    "town_kana": "イワクラナカカワラチョウ",
    "street": null,
    "office_name": null,
    "office_name_kana": null
  },
  "0019": {
    "postcode": "6060019",
    "prefecture": "京都府",
    "prefecture_kana": "キョウトフ",
    "prefecture_code": 26,
    "city": "京都市左京区",
    "city_kana": "キョウトシサキョウク",
    "town": "岩倉南河原町",
    "town_kana": "イワクラミナミカワラチョウ",
    "street": null,
    "office_name": null,
    "office_name_kana": null
  },
  "0021": {
    "postcode": "6060021",
    "prefecture": "京都府",
    "prefecture_kana": "キョウトフ",
    "prefecture_code": 26,
    "city": "京都市左京区",
    "city_kana": "キョウトシサキョウク",
    "town": "岩倉忠在地町",
    "town_kana": "イワクラチュウザイジチョウ",
    "street": null,
    "office_name": null,
    "office_name_kana": null
  },
  "0022": {
    "postcode": "6060022",
    "prefecture": "京都府",
    "prefecture_kana": "キョウトフ",
    "prefecture_code": 26,
    "city": "京都市左京区",
    "city_kana": "キョウトシサキョウク",
    "town": "岩倉三宅町",
    "town_kana": "イワクラミヤケチョウ",
    "street": null,
    "office_name": null,
    "office_name_kana": null
  },
  "0023": {
    "postcode": "6060023",
    "prefecture": "京都府",
    "prefecture_kana": "キョウトフ",
    "prefecture_code": 26,
    "city": "京都市左京区",
    "city_kana": "キョウトシサキョウク",
    "town": "岩倉南三宅町",
    "town_kana": "イワクラミナミミヤケチョウ",
    "street": null,
    "office_name": null,
    "office_name_kana": null
  },
  "0024": {
    "postcode": "6060024",
    "prefecture": "京都府",
    "prefecture_kana": "キョウトフ",
    "prefecture_code": 26,
    "city": "京都市左京区",
    "city_kana": "キョウトシサキョウク",
    "town": "岩倉花園町",
    "town_kana": "イワクラハナゾノチョウ",
    "street": null,
    "office_name": null,
    "office_name_kana": null
  },
  "0025": {
    "postcode": "6060025",
    "prefecture": "京都府",
    "prefecture_kana": "キョウトフ",
    "prefecture_code": 26,
    "city": "京都市左京区",
    "city_kana": "キョウトシサキョウク",
    "town": "岩倉中町",
    "town_kana": "イワクラナカマチ",
    "street": null,
    "office_name": null,
    "office_name_kana": null
  },
  "0026": {
    "postcode": "6060026",
    "prefecture": "京都府",
    "prefecture_kana": "キョウトフ",
    "prefecture_code": 26,
    "city": "京都市左京区",
    "city_kana": "キョウトシサキョウク",
    "town": "岩倉長谷町",
    "town_kana": "イワクラナガタニチョウ",
    "street": null,
    "office_name": null,
    "office_name_kana": null
  },
  "0027": {
    "postcode": "6060027",
    "prefecture": "京都府",
    "prefecture_kana": "キョウトフ",
    "prefecture_code": 26,
    "city": "京都市左京区",
    "city_kana": "キョウトシサキョウク",
    "town": "岩倉中在地町",
    "town_kana": "イワクラナカザイジチョウ",
    "street": null,
    "office_name": null,
    "office_name_kana": null
  },
  "0028": {
    "postcode": "6060028",
    "prefecture": "京都府",
    "prefecture_kana": "キョウトフ",
    "prefecture_code": 26,
    "city": "京都市左京区",
    "city_kana": "キョウトシサキョウク",
    "town": "岩倉南木野町",
    "town_kana": "イワクラミナミキノチョウ",
    "street": null,
    "office_name": null,
    "office_name_kana": null
  },
  "0029": {
    "postcode": "6060029",
    "prefecture": "京都府",
    "prefecture_kana": "キョウトフ",
    "prefecture_code": 26,
    "city": "京都市左京区",
    "city_kana": "キョウトシサキョウク",
    "town": "岩倉北平岡町",
    "town_kana": "イワクラキタヒラオカチョウ",
    "street": null,
    "office_name": null,
    "office_name_kana": null
  },
  "0031": {
    "postcode": "6060031",
    "prefecture": "京都府",
    "prefecture_kana": "キョウトフ",
    "prefecture_code": 26,
    "city": "京都市左京区",
    "city_kana": "キョウトシサキョウク",
    "town": "岩倉南桑原町",
    "town_kana": "イワクラミナミクワハラチョウ",
    "street": null,
    "office_name": null,
    "office_name_kana": null
  },
  "0032": {
    "postcode": "6060032",
    "prefecture": "京都府",
    "prefecture_kana": "キョウトフ",
    "prefecture_code": 26,
    "city": "京都市左京区",
    "city_kana": "キョウトシサキョウク",
    "town": "岩倉南平岡町",
    "town_kana": "イワクラミナミヒラオカチョウ",
    "street": null,
    "office_name": null,
    "office_name_kana": null
  },
  "0033": {
    "postcode": "6060033",
    "prefecture": "京都府",
    "prefecture_kana": "キョウトフ",
    "prefecture_code": 26,
    "city": "京都市左京区",
    "city_kana": "キョウトシサキョウク",
    "town": "岩倉南四ノ坪町",
    "town_kana": "イワクラミナミヨンノツボチョウ",
    "street": null,
    "office_name": null,
    "office_name_kana": null
  },
  "0034": {
    "postcode": "6060034",
    "prefecture": "京都府",
    "prefecture_kana": "キョウトフ",
    "prefecture_code": 26,
    "city": "京都市左京区",
    "city_kana": "キョウトシサキョウク",
    "town": "岩倉村松町",
    "town_kana": "イワクラムラマツチョウ",
    "street": null,
    "office_name": null,
    "office_name_kana": null
  },
  "0035": {
    "postcode": "6060035",
    "prefecture": "京都府",
    "prefecture_kana": "キョウトフ",
    "prefecture_code": 26,
    "city": "京都市左京区",
    "city_kana": "キョウトシサキョウク",
    "town": "上高野三宅町",
    "town_kana": "カミタカノミヤケチョウ",
    "street": null,
    "office_name": null,
    "office_name_kana": null
  },
  "0036": {
    "postcode": "6060036",
    "prefecture": "京都府",
    "prefecture_kana": "キョウトフ",
    "prefecture_code": 26,
    "city": "京都市左京区",
    "city_kana": "キョウトシサキョウク",
    "town": "上高野北田町",
    "town_kana": "カミタカノキタタチョウ",
    "street": null,
    "office_name": null,
    "office_name_kana": null
  },
  "0037": {
    "postcode": "6060037",
    "prefecture": "京都府",
    "prefecture_kana": "キョウトフ",
    "prefecture_code": 26,
    "city": "京都市左京区",
    "city_kana": "キョウトシサキョウク",
    "town": "上高野流田町",
    "town_kana": "カミタカノナガレダチョウ",
    "street": null,
    "office_name": null,
    "office_name_kana": null
  },
  "0041": {
    "postcode": "6060041",
    "prefecture": "京都府",
    "prefecture_kana": "キョウトフ",
    "prefecture_code": 26,
    "city": "京都市左京区",
    "city_kana": "キョウトシサキョウク",
    "town": "上高野石田町",
    "town_kana": "カミタカノイシダチョウ",
    "street": null,
    "office_name": null,
    "office_name_kana": null
  },
  "0042": {
    "postcode": "6060042",
    "prefecture": "京都府",
    "prefecture_kana": "キョウトフ",
    "prefecture_code": 26,
    "city": "京都市左京区",
    "city_kana": "キョウトシサキョウク",
    "town": "上高野鷺町",
    "town_kana": "カミタカノサギマチ",
    "street": null,
    "office_name": null,
    "office_name_kana": null
  },
  "0043": {
    "postcode": "6060043",
    "prefecture": "京都府",
    "prefecture_kana": "キョウトフ",
    "prefecture_code": 26,
    "city": "京都市左京区",
    "city_kana": "キョウトシサキョウク",
    "town": "上高野古川町",
    "town_kana": "カミタカノフルカワチョウ",
    "street": null,
    "office_name": null,
    "office_name_kana": null
  },
  "0044": {
    "postcode": "6060044",
    "prefecture": "京都府",
    "prefecture_kana": "キョウトフ",
    "prefecture_code": 26,
    "city": "京都市左京区",
    "city_kana": "キョウトシサキョウク",
    "town": "上高野仲町",
    "town_kana": "カミタカノナカマチ",
    "street": null,
    "office_name": null,
    "office_name_kana": null
  },
  "0045": {
    "postcode": "6060045",
    "prefecture": "京都府",
    "prefecture_kana": "キョウトフ",
    "prefecture_code": 26,
    "city": "京都市左京区",
    "city_kana": "キョウトシサキョウク",
    "town": "上高野深田町",
    "town_kana": "カミタカノフカダチョウ",
    "street": null,
    "office_name": null,
    "office_name_kana": null
  },
  "0046": {
    "postcode": "6060046",
    "prefecture": "京都府",
    "prefecture_kana": "キョウトフ",
    "prefecture_code": 26,
    "city": "京都市左京区",
    "city_kana": "キョウトシサキョウク",
    "town": "上高野諸木町",
    "town_kana": "カミタカノモロキチョウ",
    "street": null,
    "office_name": null,
    "office_name_kana": null
  },
  "0047": {
    "postcode": "6060047",
    "prefecture": "京都府",
    "prefecture_kana": "キョウトフ",
    "prefecture_code": 26,
    "city": "京都市左京区",
    "city_kana": "キョウトシサキョウク",
    "town": "上高野薩田町",
    "town_kana": "カミタカノサツタチョウ",
    "street": null,
    "office_name": null,
    "office_name_kana": null
  },
  "0048": {
    "postcode": "6060048",
    "prefecture": "京都府",
    "prefecture_kana": "キョウトフ",
    "prefecture_code": 26,
    "city": "京都市左京区",
    "city_kana": "キョウトシサキョウク",
    "town": "上高野大湯手町",
    "town_kana": "カミタカノオオユデチョウ",
    "street": null,
    "office_name": null,
    "office_name_kana": null
  },
  "0051": {
    "postcode": "6060051",
    "prefecture": "京都府",
    "prefecture_kana": "キョウトフ",
    "prefecture_code": 26,
    "city": "京都市左京区",
    "city_kana": "キョウトシサキョウク",
    "town": "上高野野上町",
    "town_kana": "カミタカノノカミチョウ",
    "street": null,
    "office_name": null,
    "office_name_kana": null
  },
  "0052": {
    "postcode": "6060052",
    "prefecture": "京都府",
    "prefecture_kana": "キョウトフ",
    "prefecture_code": 26,
    "city": "京都市左京区",
    "city_kana": "キョウトシサキョウク",
    "town": "上高野鳥脇町",
    "town_kana": "カミタカノトリワキチョウ",
    "street": null,
    "office_name": null,
    "office_name_kana": null
  },
  "0053": {
    "postcode": "6060053",
    "prefecture": "京都府",
    "prefecture_kana": "キョウトフ",
    "prefecture_code": 26,
    "city": "京都市左京区",
    "city_kana": "キョウトシサキョウク",
    "town": "上高野車地町",
    "town_kana": "カミタカノクルマジチョウ",
    "street": null,
    "office_name": null,
    "office_name_kana": null
  },
  "0054": {
    "postcode": "6060054",
    "prefecture": "京都府",
    "prefecture_kana": "キョウトフ",
    "prefecture_code": 26,
    "city": "京都市左京区",
    "city_kana": "キョウトシサキョウク",
    "town": "上高野三反田町",
    "town_kana": "カミタカノサンタンダチョウ",
    "street": null,
    "office_name": null,
    "office_name_kana": null
  },
  "0055": {
    "postcode": "6060055",
    "prefecture": "京都府",
    "prefecture_kana": "キョウトフ",
    "prefecture_code": 26,
    "city": "京都市左京区",
    "city_kana": "キョウトシサキョウク",
    "town": "上高野尾保地町",
    "town_kana": "カミタカノオホチチョウ",
    "street": null,
    "office_name": null,
    "office_name_kana": null
  },
  "0056": {
    "postcode": "6060056",
    "prefecture": "京都府",
    "prefecture_kana": "キョウトフ",
    "prefecture_code": 26,
    "city": "京都市左京区",
    "city_kana": "キョウトシサキョウク",
    "town": "上高野市川町",
    "town_kana": "カミタカノイチカワチョウ",
    "street": null,
    "office_name": null,
    "office_name_kana": null
  },
  "0057": {
    "postcode": "6060057",
    "prefecture": "京都府",
    "prefecture_kana": "キョウトフ",
    "prefecture_code": 26,
    "city": "京都市左京区",
    "city_kana": "キョウトシサキョウク",
    "town": "上高野池ノ内町",
    "town_kana": "カミタカノイケノウチチョウ",
    "street": null,
    "office_name": null,
    "office_name_kana": null
  },
  "0058": {
    "postcode": "6060058",
    "prefecture": "京都府",
    "prefecture_kana": "キョウトフ",
    "prefecture_code": 26,
    "city": "京都市左京区",
    "city_kana": "キョウトシサキョウク",
    "town": "上高野小野町",
    "town_kana": "カミタカノオノチョウ",
    "street": null,
    "office_name": null,
    "office_name_kana": null
  },
  "0059": {
    "postcode": "6060059",
    "prefecture": "京都府",
    "prefecture_kana": "キョウトフ",
    "prefecture_code": 26,
    "city": "京都市左京区",
    "city_kana": "キョウトシサキョウク",
    "town": "上高野北川原町",
    "town_kana": "カミタカノキタカワラチョウ",
    "street": null,
    "office_name": null,
    "office_name_kana": null
  },
  "0061": {
    "postcode": "6060061",
    "prefecture": "京都府",
    "prefecture_kana": "キョウトフ",
    "prefecture_code": 26,
    "city": "京都市左京区",
    "city_kana": "キョウトシサキョウク",
    "town": "上高野川原町",
    "town_kana": "カミタカノカワラチョウ",
    "street": null,
    "office_name": null,
    "office_name_kana": null
  },
  "0062": {
    "postcode": "6060062",
    "prefecture": "京都府",
    "prefecture_kana": "キョウトフ",
    "prefecture_code": 26,
    "city": "京都市左京区",
    "city_kana": "キョウトシサキョウク",
    "town": "上高野大橋町",
    "town_kana": "カミタカノオオハシチョウ",
    "street": null,
    "office_name": null,
    "office_name_kana": null
  },
  "0063": {
    "postcode": "6060063",
    "prefecture": "京都府",
    "prefecture_kana": "キョウトフ",
    "prefecture_code": 26,
    "city": "京都市左京区",
    "city_kana": "キョウトシサキョウク",
    "town": "上高野大明神町",
    "town_kana": "カミタカノダイミョウジンチョウ",
    "street": null,
    "office_name": null,
    "office_name_kana": null
  },
  "0064": {
    "postcode": "6060064",
    "prefecture": "京都府",
    "prefecture_kana": "キョウトフ",
    "prefecture_code": 26,
    "city": "京都市左京区",
    "city_kana": "キョウトシサキョウク",
    "town": "上高野西明寺山",
    "town_kana": "カミタカノサイミョウジヤマ",
    "street": null,
    "office_name": null,
    "office_name_kana": null
  },
  "0065": {
    "postcode": "6060065",
    "prefecture": "京都府",
    "prefecture_kana": "キョウトフ",
    "prefecture_code": 26,
    "city": "京都市左京区",
    "city_kana": "キョウトシサキョウク",
    "town": "上高野八幡町",
    "town_kana": "カミタカノハチマンチョウ",
    "street": null,
    "office_name": null,
    "office_name_kana": null
  },
  "0066": {
    "postcode": "6060066",
    "prefecture": "京都府",
    "prefecture_kana": "キョウトフ",
    "prefecture_code": 26,
    "city": "京都市左京区",
    "city_kana": "キョウトシサキョウク",
    "town": "上高野水車町",
    "town_kana": "カミタカノスイシャチョウ",
    "street": null,
    "office_name": null,
    "office_name_kana": null
  },
  "0067": {
    "postcode": "6060067",
    "prefecture": "京都府",
    "prefecture_kana": "キョウトフ",
    "prefecture_code": 26,
    "city": "京都市左京区",
    "city_kana": "キョウトシサキョウク",
    "town": "上高野東山",
    "town_kana": "カミタカノヒガシヤマ",
    "street": null,
    "office_name": null,
    "office_name_kana": null
  },
  "0068": {
    "postcode": "6060068",
    "prefecture": "京都府",
    "prefecture_kana": "キョウトフ",
    "prefecture_code": 26,
    "city": "京都市左京区",
    "city_kana": "キョウトシサキョウク",
    "town": "八瀬野瀬町",
    "town_kana": "ヤセノセチョウ",
    "street": null,
    "office_name": null,
    "office_name_kana": null
  },
  "0071": {
    "postcode": "6060071",
    "prefecture": "京都府",
    "prefecture_kana": "キョウトフ",
    "prefecture_code": 26,
    "city": "京都市左京区",
    "city_kana": "キョウトシサキョウク",
    "town": "上高野防山",
    "town_kana": "カミタカノボウヤマ",
    "street": null,
    "office_name": null,
    "office_name_kana": null
  },
  "0072": {
    "postcode": "6060072",
    "prefecture": "京都府",
    "prefecture_kana": "キョウトフ",
    "prefecture_code": 26,
    "city": "京都市左京区",
    "city_kana": "キョウトシサキョウク",
    "town": "上高野掃部林町",
    "town_kana": "カミタカノカモンハヤシチョウ",
    "street": null,
    "office_name": null,
    "office_name_kana": null
  },
  "0073": {
    "postcode": "6060073",
    "prefecture": "京都府",
    "prefecture_kana": "キョウトフ",
    "prefecture_code": 26,
    "city": "京都市左京区",
    "city_kana": "キョウトシサキョウク",
    "town": "上高野釜土町",
    "town_kana": "カミタカノカマツチチョウ",
    "street": null,
    "office_name": null,
    "office_name_kana": null
  },
  "0074": {
    "postcode": "6060074",
    "prefecture": "京都府",
    "prefecture_kana": "キョウトフ",
    "prefecture_code": 26,
    "city": "京都市左京区",
    "city_kana": "キョウトシサキョウク",
    "town": "上高野下東野町",
    "town_kana": "カミタカノシモヒガシノチョウ",
    "street": null,
    "office_name": null,
    "office_name_kana": null
  },
  "0075": {
    "postcode": "6060075",
    "prefecture": "京都府",
    "prefecture_kana": "キョウトフ",
    "prefecture_code": 26,
    "city": "京都市左京区",
    "city_kana": "キョウトシサキョウク",
    "town": "上高野奥東野町",
    "town_kana": "カミタカノオクヒガシノチョウ",
    "street": null,
    "office_name": null,
    "office_name_kana": null
  },
  "0076": {
    "postcode": "6060076",
    "prefecture": "京都府",
    "prefecture_kana": "キョウトフ",
    "prefecture_code": 26,
    "city": "京都市左京区",
    "city_kana": "キョウトシサキョウク",
    "town": "上高野口小森町",
    "town_kana": "カミタカノグチコモリチョウ",
    "street": null,
    "office_name": null,
    "office_name_kana": null
  },
  "0077": {
    "postcode": "6060077",
    "prefecture": "京都府",
    "prefecture_kana": "キョウトフ",
    "prefecture_code": 26,
    "city": "京都市左京区",
    "city_kana": "キョウトシサキョウク",
    "town": "上高野奥小森町",
    "town_kana": "カミタカノオクコモリチョウ",
    "street": null,
    "office_name": null,
    "office_name_kana": null
  },
  "0078": {
    "postcode": "6060078",
    "prefecture": "京都府",
    "prefecture_kana": "キョウトフ",
    "prefecture_code": 26,
    "city": "京都市左京区",
    "city_kana": "キョウトシサキョウク",
    "town": "上高野東田町",
    "town_kana": "カミタカノヒガシダチョウ",
    "street": null,
    "office_name": null,
    "office_name_kana": null
  },
  "0081": {
    "postcode": "6060081",
    "prefecture": "京都府",
    "prefecture_kana": "キョウトフ",
    "prefecture_code": 26,
    "city": "京都市左京区",
    "city_kana": "キョウトシサキョウク",
    "town": "上高野畑町",
    "town_kana": "カミタカノハタマチ",
    "street": null,
    "office_name": null,
    "office_name_kana": null
  },
  "0082": {
    "postcode": "6060082",
    "prefecture": "京都府",
    "prefecture_kana": "キョウトフ",
    "prefecture_code": 26,
    "city": "京都市左京区",
    "city_kana": "キョウトシサキョウク",
    "town": "上高野畑ケ田町",
    "town_kana": "カミタカノハタガダチョウ",
    "street": null,
    "office_name": null,
    "office_name_kana": null
  },
  "0083": {
    "postcode": "6060083",
    "prefecture": "京都府",
    "prefecture_kana": "キョウトフ",
    "prefecture_code": 26,
    "city": "京都市左京区",
    "city_kana": "キョウトシサキョウク",
    "town": "上高野松田町",
    "town_kana": "カミタカノマツダチョウ",
    "street": null,
    "office_name": null,
    "office_name_kana": null
  },
  "0084": {
    "postcode": "6060084",
    "prefecture": "京都府",
    "prefecture_kana": "キョウトフ",
    "prefecture_code": 26,
    "city": "京都市左京区",
    "city_kana": "キョウトシサキョウク",
    "town": "上高野鐘突町",
    "town_kana": "カミタカノカネツキチョウ",
    "street": null,
    "office_name": null,
    "office_name_kana": null
  },
  "0085": {
    "postcode": "6060085",
    "prefecture": "京都府",
    "prefecture_kana": "キョウトフ",
    "prefecture_code": 26,
    "city": "京都市左京区",
    "city_kana": "キョウトシサキョウク",
    "town": "上高野隣好町",
    "town_kana": "カミタカノリンコウチョウ",
    "street": null,
    "office_name": null,
    "office_name_kana": null
  },
  "0086": {
    "postcode": "6060086",
    "prefecture": "京都府",
    "prefecture_kana": "キョウトフ",
    "prefecture_code": 26,
    "city": "京都市左京区",
    "city_kana": "キョウトシサキョウク",
    "town": "上高野木ノ下町",
    "town_kana": "カミタカノキノシタチョウ",
    "street": null,
    "office_name": null,
    "office_name_kana": null
  },
  "0087": {
    "postcode": "6060087",
    "prefecture": "京都府",
    "prefecture_kana": "キョウトフ",
    "prefecture_code": 26,
    "city": "京都市左京区",
    "city_kana": "キョウトシサキョウク",
    "town": "上高野稲荷町",
    "town_kana": "カミタカノイナリチョウ",
    "street": null,
    "office_name": null,
    "office_name_kana": null
  },
  "0088": {
    "postcode": "6060088",
    "prefecture": "京都府",
    "prefecture_kana": "キョウトフ",
    "prefecture_code": 26,
    "city": "京都市左京区",
    "city_kana": "キョウトシサキョウク",
    "town": "上高野植ノ町",
    "town_kana": "カミタカノウエノチョウ",
    "street": null,
    "office_name": null,
    "office_name_kana": null
  },
  "0089": {
    "postcode": "6060089",
    "prefecture": "京都府",
    "prefecture_kana": "キョウトフ",
    "prefecture_code": 26,
    "city": "京都市左京区",
    "city_kana": "キョウトシサキョウク",
    "town": "上高野上畑町",
    "town_kana": "カミタカノウエハタチョウ",
    "street": null,
    "office_name": null,
    "office_name_kana": null
  },
  "0091": {
    "postcode": "6060091",
    "prefecture": "京都府",
    "prefecture_kana": "キョウトフ",
    "prefecture_code": 26,
    "city": "京都市左京区",
    "city_kana": "キョウトシサキョウク",
    "town": "上高野大塚町",
    "town_kana": "カミタカノオオツカチョウ",
    "street": null,
    "office_name": null,
    "office_name_kana": null
  },
  "0092": {
    "postcode": "6060092",
    "prefecture": "京都府",
    "prefecture_kana": "キョウトフ",
    "prefecture_code": 26,
    "city": "京都市左京区",
    "city_kana": "キョウトシサキョウク",
    "town": "上高野下荒蒔町",
    "town_kana": "カミタカノシモアラマキチョウ",
    "street": null,
    "office_name": null,
    "office_name_kana": null
  },
  "0093": {
    "postcode": "6060093",
    "prefecture": "京都府",
    "prefecture_kana": "キョウトフ",
    "prefecture_code": 26,
    "city": "京都市左京区",
    "city_kana": "キョウトシサキョウク",
    "town": "上高野上荒蒔町",
    "town_kana": "カミタカノカミアラマキチョウ",
    "street": null,
    "office_name": null,
    "office_name_kana": null
  },
  "0094": {
    "postcode": "6060094",
    "prefecture": "京都府",
    "prefecture_kana": "キョウトフ",
    "prefecture_code": 26,
    "city": "京都市左京区",
    "city_kana": "キョウトシサキョウク",
    "town": "上高野東氷室町",
    "town_kana": "カミタカノヒガシヒムロチョウ",
    "street": null,
    "office_name": null,
    "office_name_kana": null
  },
  "0095": {
    "postcode": "6060095",
    "prefecture": "京都府",
    "prefecture_kana": "キョウトフ",
    "prefecture_code": 26,
    "city": "京都市左京区",
    "city_kana": "キョウトシサキョウク",
    "town": "上高野西氷室町",
    "town_kana": "カミタカノニシヒムロチョウ",
    "street": null,
    "office_name": null,
    "office_name_kana": null
  },
  "0096": {
    "postcode": "6060096",
    "prefecture": "京都府",
    "prefecture_kana": "キョウトフ",
    "prefecture_code": 26,
    "city": "京都市左京区",
    "city_kana": "キョウトシサキョウク",
    "town": "上高野山ノ橋町",
    "town_kana": "カミタカノヤマノハシチョウ",
    "street": null,
    "office_name": null,
    "office_name_kana": null
  },
  "0097": {
    "postcode": "6060097",
    "prefecture": "京都府",
    "prefecture_kana": "キョウトフ",
    "prefecture_code": 26,
    "city": "京都市左京区",
    "city_kana": "キョウトシサキョウク",
    "town": "上高野前田町",
    "town_kana": "カミタカノマエダチョウ",
    "street": null,
    "office_name": null,
    "office_name_kana": null
  },
  "0098": {
    "postcode": "6060098",
    "prefecture": "京都府",
    "prefecture_kana": "キョウトフ",
    "prefecture_code": 26,
    "city": "京都市左京区",
    "city_kana": "キョウトシサキョウク",
    "town": "上高野沢渕町",
    "town_kana": "カミタカノサワブチチョウ",
    "street": null,
    "office_name": null,
    "office_name_kana": null
  },
  "0801": {
    "postcode": "6060801",
    "prefecture": "京都府",
    "prefecture_kana": "キョウトフ",
    "prefecture_code": 26,
    "city": "京都市左京区",
    "city_kana": "キョウトシサキョウク",
    "town": "下鴨宮河町",
    "town_kana": "シモガモミヤカワチョウ",
    "street": null,
    "office_name": null,
    "office_name_kana": null
  },
  "0802": {
    "postcode": "6060802",
    "prefecture": "京都府",
    "prefecture_kana": "キョウトフ",
    "prefecture_code": 26,
    "city": "京都市左京区",
    "city_kana": "キョウトシサキョウク",
    "town": "下鴨宮崎町",
    "town_kana": "シモガモミヤザキチョウ",
    "street": null,
    "office_name": null,
    "office_name_kana": null
  },
  "0803": {
    "postcode": "6060803",
    "prefecture": "京都府",
    "prefecture_kana": "キョウトフ",
    "prefecture_code": 26,
    "city": "京都市左京区",
    "city_kana": "キョウトシサキョウク",
    "town": "下鴨下川原町",
    "town_kana": "シモガモシモガワラチョウ",
    "street": null,
    "office_name": null,
    "office_name_kana": null
  },
  "0804": {
    "postcode": "6060804",
    "prefecture": "京都府",
    "prefecture_kana": "キョウトフ",
    "prefecture_code": 26,
    "city": "京都市左京区",
    "city_kana": "キョウトシサキョウク",
    "town": "下鴨松原町",
    "town_kana": "シモガモマツバラチョウ",
    "street": null,
    "office_name": null,
    "office_name_kana": null
  },
  "0805": {
    "postcode": "6060805",
    "prefecture": "京都府",
    "prefecture_kana": "キョウトフ",
    "prefecture_code": 26,
    "city": "京都市左京区",
    "city_kana": "キョウトシサキョウク",
    "town": "下鴨森本町",
    "town_kana": "シモガモモリモトチョウ",
    "street": null,
    "office_name": null,
    "office_name_kana": null
  },
  "0806": {
    "postcode": "6060806",
    "prefecture": "京都府",
    "prefecture_kana": "キョウトフ",
    "prefecture_code": 26,
    "city": "京都市左京区",
    "city_kana": "キョウトシサキョウク",
    "town": "下鴨蓼倉町",
    "town_kana": "シモガモタデクラチョウ",
    "street": null,
    "office_name": null,
    "office_name_kana": null
  },
  "0807": {
    "postcode": "6060807",
    "prefecture": "京都府",
    "prefecture_kana": "キョウトフ",
    "prefecture_code": 26,
    "city": "京都市左京区",
    "city_kana": "キョウトシサキョウク",
    "town": "下鴨泉川町",
    "town_kana": "シモガモイズミガワチョウ",
    "street": null,
    "office_name": null,
    "office_name_kana": null
  },
  "0811": {
    "postcode": "6060811",
    "prefecture": "京都府",
    "prefecture_kana": "キョウトフ",
    "prefecture_code": 26,
    "city": "京都市左京区",
    "city_kana": "キョウトシサキョウク",
    "town": "下鴨中川原町",
    "town_kana": "シモガモナカガワラチョウ",
    "street": null,
    "office_name": null,
    "office_name_kana": null
  },
  "0812": {
    "postcode": "6060812",
    "prefecture": "京都府",
    "prefecture_kana": "キョウトフ",
    "prefecture_code": 26,
    "city": "京都市左京区",
    "city_kana": "キョウトシサキョウク",
    "town": "下鴨上川原町",
    "town_kana": "シモガモカミガワラチョウ",
    "street": null,
    "office_name": null,
    "office_name_kana": null
  },
  "0813": {
    "postcode": "6060813",
    "prefecture": "京都府",
    "prefecture_kana": "キョウトフ",
    "prefecture_code": 26,
    "city": "京都市左京区",
    "city_kana": "キョウトシサキョウク",
    "town": "下鴨貴船町",
    "town_kana": "シモガモキブネチョウ",
    "street": null,
    "office_name": null,
    "office_name_kana": null
  },
  "0814": {
    "postcode": "6060814",
    "prefecture": "京都府",
    "prefecture_kana": "キョウトフ",
    "prefecture_code": 26,
    "city": "京都市左京区",
    "city_kana": "キョウトシサキョウク",
    "town": "下鴨芝本町",
    "town_kana": "シモガモシバモトチョウ",
    "street": null,
    "office_name": null,
    "office_name_kana": null
  },
  "0815": {
    "postcode": "6060815",
    "prefecture": "京都府",
    "prefecture_kana": "キョウトフ",
    "prefecture_code": 26,
    "city": "京都市左京区",
    "city_kana": "キョウトシサキョウク",
    "town": "下鴨膳部町",
    "town_kana": "シモガモカシワベチョウ",
    "street": null,
    "office_name": null,
    "office_name_kana": null
  },
  "0816": {
    "postcode": "6060816",
    "prefecture": "京都府",
    "prefecture_kana": "キョウトフ",
    "prefecture_code": 26,
    "city": "京都市左京区",
    "city_kana": "キョウトシサキョウク",
    "town": "下鴨松ノ木町",
    "town_kana": "シモガモマツノキチョウ",
    "street": null,
    "office_name": null,
    "office_name_kana": null
  },
  "0817": {
    "postcode": "6060817",
    "prefecture": "京都府",
    "prefecture_kana": "キョウトフ",
    "prefecture_code": 26,
    "city": "京都市左京区",
    "city_kana": "キョウトシサキョウク",
    "town": "下鴨西林町",
    "town_kana": "シモガモニシバヤシチョウ",
    "street": null,
    "office_name": null,
    "office_name_kana": null
  },
  "0821": {
    "postcode": "6060821",
    "prefecture": "京都府",
    "prefecture_kana": "キョウトフ",
    "prefecture_code": 26,
    "city": "京都市左京区",
    "city_kana": "キョウトシサキョウク",
    "town": "賀茂今井町",
    "town_kana": "カモイマイチョウ",
    "street": null,
    "office_name": null,
    "office_name_kana": null
  },
  "0822": {
    "postcode": "6060822",
    "prefecture": "京都府",
    "prefecture_kana": "キョウトフ",
    "prefecture_code": 26,
    "city": "京都市左京区",
    "city_kana": "キョウトシサキョウク",
    "town": "賀茂半木町",
    "town_kana": "カモハンギチョウ",
    "street": null,
    "office_name": null,
    "office_name_kana": null
  },
  "0823": {
    "postcode": "6060823",
    "prefecture": "京都府",
    "prefecture_kana": "キョウトフ",
    "prefecture_code": 26,
    "city": "京都市左京区",
    "city_kana": "キョウトシサキョウク",
    "town": "下鴨半木町",
    "town_kana": "シモガモハンギチョウ",
    "street": null,
    "office_name": null,
    "office_name_kana": null
  },
  "0824": {
    "postcode": "6060824",
    "prefecture": "京都府",
    "prefecture_kana": "キョウトフ",
    "prefecture_code": 26,
    "city": "京都市左京区",
    "city_kana": "キョウトシサキョウク",
    "town": "下鴨東半木町",
    "town_kana": "シモガモヒガシハンギチョウ",
    "street": null,
    "office_name": null,
    "office_name_kana": null
  },
  "0825": {
    "postcode": "6060825",
    "prefecture": "京都府",
    "prefecture_kana": "キョウトフ",
    "prefecture_code": 26,
    "city": "京都市左京区",
    "city_kana": "キョウトシサキョウク",
    "town": "下鴨西梅ノ木町",
    "town_kana": "シモガモニシウメノキチョウ",
    "street": null,
    "office_name": null,
    "office_name_kana": null
  },
  "0826": {
    "postcode": "6060826",
    "prefecture": "京都府",
    "prefecture_kana": "キョウトフ",
    "prefecture_code": 26,
    "city": "京都市左京区",
    "city_kana": "キョウトシサキョウク",
    "town": "下鴨西本町",
    "town_kana": "シモガモニシホンマチ",
    "street": null,
    "office_name": null,
    "office_name_kana": null
  },
  "0827": {
    "postcode": "6060827",
    "prefecture": "京都府",
    "prefecture_kana": "キョウトフ",
    "prefecture_code": 26,
    "city": "京都市左京区",
    "city_kana": "キョウトシサキョウク",
    "town": "下鴨西半木町",
    "town_kana": "シモガモニシハンギチョウ",
    "street": null,
    "office_name": null,
    "office_name_kana": null
  },
  "0831": {
    "postcode": "6060831",
    "prefecture": "京都府",
    "prefecture_kana": "キョウトフ",
    "prefecture_code": 26,
    "city": "京都市左京区",
    "city_kana": "キョウトシサキョウク",
    "town": "下鴨北園町",
    "town_kana": "シモガモキタゾノチョウ",
    "street": null,
    "office_name": null,
    "office_name_kana": null
  },
  "0832": {
    "postcode": "6060832",
    "prefecture": "京都府",
    "prefecture_kana": "キョウトフ",
    "prefecture_code": 26,
    "city": "京都市左京区",
    "city_kana": "キョウトシサキョウク",
    "town": "下鴨萩ケ垣内町",
    "town_kana": "シモガモハギガカキウチチョウ",
    "street": null,
    "office_name": null,
    "office_name_kana": null
  },
  "0833": {
    "postcode": "6060833",
    "prefecture": "京都府",
    "prefecture_kana": "キョウトフ",
    "prefecture_code": 26,
    "city": "京都市左京区",
    "city_kana": "キョウトシサキョウク",
    "town": "下鴨前萩町",
    "town_kana": "シモガモマエハギチョウ",
    "street": null,
    "office_name": null,
    "office_name_kana": null
  },
  "0834": {
    "postcode": "6060834",
    "prefecture": "京都府",
    "prefecture_kana": "キョウトフ",
    "prefecture_code": 26,
    "city": "京都市左京区",
    "city_kana": "キョウトシサキョウク",
    "town": "下鴨狗子田町",
    "town_kana": "シモガモイノコダチョウ",
    "street": null,
    "office_name": null,
    "office_name_kana": null
  },
  "0835": {
    "postcode": "6060835",
    "prefecture": "京都府",
    "prefecture_kana": "キョウトフ",
    "prefecture_code": 26,
    "city": "京都市左京区",
    "city_kana": "キョウトシサキョウク",
    "town": "下鴨神殿町",
    "town_kana": "シモガモコウドノチョウ",
    "street": null,
    "office_name": null,
    "office_name_kana": null
  },
  "0836": {
    "postcode": "6060836",
    "prefecture": "京都府",
    "prefecture_kana": "キョウトフ",
    "prefecture_code": 26,
    "city": "京都市左京区",
    "city_kana": "キョウトシサキョウク",
    "town": "下鴨梁田町",
    "town_kana": "シモガモヤナダチョウ",
    "street": null,
    "office_name": null,
    "office_name_kana": null
  },
  "0837": {
    "postcode": "6060837",
    "prefecture": "京都府",
    "prefecture_kana": "キョウトフ",
    "prefecture_code": 26,
    "city": "京都市左京区",
    "city_kana": "キョウトシサキョウク",
    "town": "下鴨夜光町",
    "town_kana": "シモガモヤコウチョウ",
    "street": null,
    "office_name": null,
    "office_name_kana": null
  },
  "0841": {
    "postcode": "6060841",
    "prefecture": "京都府",
    "prefecture_kana": "キョウトフ",
    "prefecture_code": 26,
    "city": "京都市左京区",
    "city_kana": "キョウトシサキョウク",
    "town": "下鴨南芝町",
    "town_kana": "シモガモミナミシバチョウ",
    "street": null,
    "office_name": null,
    "office_name_kana": null
  },
  "0842": {
    "postcode": "6060842",
    "prefecture": "京都府",
    "prefecture_kana": "キョウトフ",
    "prefecture_code": 26,
    "city": "京都市左京区",
    "city_kana": "キョウトシサキョウク",
    "town": "下鴨北芝町",
    "town_kana": "シモガモキタシバチョウ",
    "street": null,
    "office_name": null,
    "office_name_kana": null
  },
  "0843": {
    "postcode": "6060843",
    "prefecture": "京都府",
    "prefecture_kana": "キョウトフ",
    "prefecture_code": 26,
    "city": "京都市左京区",
    "city_kana": "キョウトシサキョウク",
    "town": "下鴨水口町",
    "town_kana": "シモガモミナクチチョウ",
    "street": null,
    "office_name": null,
    "office_name_kana": null
  },
  "0844": {
    "postcode": "6060844",
    "prefecture": "京都府",
    "prefecture_kana": "キョウトフ",
    "prefecture_code": 26,
    "city": "京都市左京区",
    "city_kana": "キョウトシサキョウク",
    "town": "下鴨北茶ノ木町",
    "town_kana": "シモガモキタチャノキチョウ",
    "street": null,
    "office_name": null,
    "office_name_kana": null
  },
  "0845": {
    "postcode": "6060845",
    "prefecture": "京都府",
    "prefecture_kana": "キョウトフ",
    "prefecture_code": 26,
    "city": "京都市左京区",
    "city_kana": "キョウトシサキョウク",
    "town": "下鴨南茶ノ木町",
    "town_kana": "シモガモミナミチャノキチョウ",
    "street": null,
    "office_name": null,
    "office_name_kana": null
  },
  "0846": {
    "postcode": "6060846",
    "prefecture": "京都府",
    "prefecture_kana": "キョウトフ",
    "prefecture_code": 26,
    "city": "京都市左京区",
    "city_kana": "キョウトシサキョウク",
    "town": "下鴨北野々神町",
    "town_kana": "シモガモキタノノガミチョウ",
    "street": null,
    "office_name": null,
    "office_name_kana": null
  },
  "0847": {
    "postcode": "6060847",
    "prefecture": "京都府",
    "prefecture_kana": "キョウトフ",
    "prefecture_code": 26,
    "city": "京都市左京区",
    "city_kana": "キョウトシサキョウク",
    "town": "下鴨南野々神町",
    "town_kana": "シモガモミナミノノガミチョウ",
    "street": null,
    "office_name": null,
    "office_name_kana": null
  },
  "0851": {
    "postcode": "6060851",
    "prefecture": "京都府",
    "prefecture_kana": "キョウトフ",
    "prefecture_code": 26,
    "city": "京都市左京区",
    "city_kana": "キョウトシサキョウク",
    "town": "下鴨梅ノ木町",
    "town_kana": "シモガモウメノキチョウ",
    "street": null,
    "office_name": null,
    "office_name_kana": null
  },
  "0852": {
    "postcode": "6060852",
    "prefecture": "京都府",
    "prefecture_kana": "キョウトフ",
    "prefecture_code": 26,
    "city": "京都市左京区",
    "city_kana": "キョウトシサキョウク",
    "town": "下鴨東梅ノ木町",
    "town_kana": "シモガモヒガシウメノキチョウ",
    "street": null,
    "office_name": null,
    "office_name_kana": null
  },
  "0853": {
    "postcode": "6060853",
    "prefecture": "京都府",
    "prefecture_kana": "キョウトフ",
    "prefecture_code": 26,
    "city": "京都市左京区",
    "city_kana": "キョウトシサキョウク",
    "town": "下鴨岸本町",
    "town_kana": "シモガモキシモトチョウ",
    "street": null,
    "office_name": null,
    "office_name_kana": null
  },
  "0854": {
    "postcode": "6060854",
    "prefecture": "京都府",
    "prefecture_kana": "キョウトフ",
    "prefecture_code": 26,
    "city": "京都市左京区",
    "city_kana": "キョウトシサキョウク",
    "town": "下鴨東岸本町",
    "town_kana": "シモガモヒガシキシモトチョウ",
    "street": null,
    "office_name": null,
    "office_name_kana": null
  },
  "0855": {
    "postcode": "6060855",
    "prefecture": "京都府",
    "prefecture_kana": "キョウトフ",
    "prefecture_code": 26,
    "city": "京都市左京区",
    "city_kana": "キョウトシサキョウク",
    "town": "下鴨東塚本町",
    "town_kana": "シモガモヒガシツカモトチョウ",
    "street": null,
    "office_name": null,
    "office_name_kana": null
  },
  "0856": {
    "postcode": "6060856",
    "prefecture": "京都府",
    "prefecture_kana": "キョウトフ",
    "prefecture_code": 26,
    "city": "京都市左京区",
    "city_kana": "キョウトシサキョウク",
    "town": "下鴨塚本町",
    "town_kana": "シモガモツカモトチョウ",
    "street": null,
    "office_name": null,
    "office_name_kana": null
  },
  "0861": {
    "postcode": "6060861",
    "prefecture": "京都府",
    "prefecture_kana": "キョウトフ",
    "prefecture_code": 26,
    "city": "京都市左京区",
    "city_kana": "キョウトシサキョウク",
    "town": "下鴨西高木町",
    "town_kana": "シモガモニシタカギチョウ",
    "street": null,
    "office_name": null,
    "office_name_kana": null
  },
  "0862": {
    "postcode": "6060862",
    "prefecture": "京都府",
    "prefecture_kana": "キョウトフ",
    "prefecture_code": 26,
    "city": "京都市左京区",
    "city_kana": "キョウトシサキョウク",
    "town": "下鴨本町",
    "town_kana": "シモガモホンマチ",
    "street": null,
    "office_name": null,
    "office_name_kana": null
  },
  "0863": {
    "postcode": "6060863",
    "prefecture": "京都府",
    "prefecture_kana": "キョウトフ",
    "prefecture_code": 26,
    "city": "京都市左京区",
    "city_kana": "キョウトシサキョウク",
    "town": "下鴨東本町",
    "town_kana": "シモガモヒガシホンマチ",
    "street": null,
    "office_name": null,
    "office_name_kana": null
  },
  "0864": {
    "postcode": "6060864",
    "prefecture": "京都府",
    "prefecture_kana": "キョウトフ",
    "prefecture_code": 26,
    "city": "京都市左京区",
    "city_kana": "キョウトシサキョウク",
    "town": "下鴨高木町",
    "town_kana": "シモガモタカギチョウ",
    "street": null,
    "office_name": null,
    "office_name_kana": null
  },
  "0865": {
    "postcode": "6060865",
    "prefecture": "京都府",
    "prefecture_kana": "キョウトフ",
    "prefecture_code": 26,
    "city": "京都市左京区",
    "city_kana": "キョウトシサキョウク",
    "town": "下鴨東高木町",
    "town_kana": "シモガモヒガシタカギチョウ",
    "street": null,
    "office_name": null,
    "office_name_kana": null
  },
  "0866": {
    "postcode": "6060866",
    "prefecture": "京都府",
    "prefecture_kana": "キョウトフ",
    "prefecture_code": 26,
    "city": "京都市左京区",
    "city_kana": "キョウトシサキョウク",
    "town": "下鴨東森ケ前町",
    "town_kana": "シモガモヒガシモリガマエチョウ",
    "street": null,
    "office_name": null,
    "office_name_kana": null
  },
  "0867": {
    "postcode": "6060867",
    "prefecture": "京都府",
    "prefecture_kana": "キョウトフ",
    "prefecture_code": 26,
    "city": "京都市左京区",
    "city_kana": "キョウトシサキョウク",
    "town": "下鴨森ケ前町",
    "town_kana": "シモガモモリガマエチョウ",
    "street": null,
    "office_name": null,
    "office_name_kana": null
  },
  "0901": {
    "postcode": "6060901",
    "prefecture": "京都府",
    "prefecture_kana": "キョウトフ",
    "prefecture_code": 26,
    "city": "京都市左京区",
    "city_kana": "キョウトシサキョウク",
    "town": "松ケ崎東桜木町",
    "town_kana": "マツガサキヒガシサクラギチョウ",
    "street": null,
    "office_name": null,
    "office_name_kana": null
  },
  "0902": {
    "postcode": "6060902",
    "prefecture": "京都府",
    "prefecture_kana": "キョウトフ",
    "prefecture_code": 26,
    "city": "京都市左京区",
    "city_kana": "キョウトシサキョウク",
    "town": "松ケ崎桜木町",
    "town_kana": "マツガサキサクラギチョウ",
    "street": null,
    "office_name": null,
    "office_name_kana": null
  },
  "0903": {
    "postcode": "6060903",
    "prefecture": "京都府",
    "prefecture_kana": "キョウトフ",
    "prefecture_code": 26,
    "city": "京都市左京区",
    "city_kana": "キョウトシサキョウク",
    "town": "松ケ崎西桜木町",
    "town_kana": "マツガサキニシサクラギチョウ",
    "street": null,
    "office_name": null,
    "office_name_kana": null
  },
  "0904": {
    "postcode": "6060904",
    "prefecture": "京都府",
    "prefecture_kana": "キョウトフ",
    "prefecture_code": 26,
    "city": "京都市左京区",
    "city_kana": "キョウトシサキョウク",
    "town": "松ケ崎柳井田町",
    "town_kana": "マツガサキヤナイダチョウ",
    "street": null,
    "office_name": null,
    "office_name_kana": null
  },
  "0905": {
    "postcode": "6060905",
    "prefecture": "京都府",
    "prefecture_kana": "キョウトフ",
    "prefecture_code": 26,
    "city": "京都市左京区",
    "city_kana": "キョウトシサキョウク",
    "town": "松ケ崎杉ケ海道町",
    "town_kana": "マツガサキスギガカイドウチョウ",
    "street": null,
    "office_name": null,
    "office_name_kana": null
  },
  "0906": {
    "postcode": "6060906",
    "prefecture": "京都府",
    "prefecture_kana": "キョウトフ",
    "prefecture_code": 26,
    "city": "京都市左京区",
    "city_kana": "キョウトシサキョウク",
    "town": "松ケ崎中海道町",
    "town_kana": "マツガサキナカカイドウチョウ",
    "street": null,
    "office_name": null,
    "office_name_kana": null
  },
  "0907": {
    "postcode": "6060907",
    "prefecture": "京都府",
    "prefecture_kana": "キョウトフ",
    "prefecture_code": 26,
    "city": "京都市左京区",
    "city_kana": "キョウトシサキョウク",
    "town": "松ケ崎村ケ内町",
    "town_kana": "マツガサキムラガウチチョウ",
    "street": null,
    "office_name": null,
    "office_name_kana": null
  },
  "0911": {
    "postcode": "6060911",
    "prefecture": "京都府",
    "prefecture_kana": "キョウトフ",
    "prefecture_code": 26,
    "city": "京都市左京区",
    "city_kana": "キョウトシサキョウク",
    "town": "松ケ崎泉川町",
    "town_kana": "マツガサキイズミガワチョウ",
    "street": null,
    "office_name": null,
    "office_name_kana": null
  },
  "0912": {
    "postcode": "6060912",
    "prefecture": "京都府",
    "prefecture_kana": "キョウトフ",
    "prefecture_code": 26,
    "city": "京都市左京区",
    "city_kana": "キョウトシサキョウク",
    "town": "松ケ崎呼返町",
    "town_kana": "マツガサキヨビカエリチョウ",
    "street": null,
    "office_name": null,
    "office_name_kana": null
  },
  "0913": {
    "postcode": "6060913",
    "prefecture": "京都府",
    "prefecture_kana": "キョウトフ",
    "prefecture_code": 26,
    "city": "京都市左京区",
    "city_kana": "キョウトシサキョウク",
    "town": "松ケ崎芝本町",
    "town_kana": "マツガサキシバモトチョウ",
    "street": null,
    "office_name": null,
    "office_name_kana": null
  },
  "0914": {
    "postcode": "6060914",
    "prefecture": "京都府",
    "prefecture_kana": "キョウトフ",
    "prefecture_code": 26,
    "city": "京都市左京区",
    "city_kana": "キョウトシサキョウク",
    "town": "松ケ崎今海道町",
    "town_kana": "マツガサキイマカイドウチョウ",
    "street": null,
    "office_name": null,
    "office_name_kana": null
  },
  "0915": {
    "postcode": "6060915",
    "prefecture": "京都府",
    "prefecture_kana": "キョウトフ",
    "prefecture_code": 26,
    "city": "京都市左京区",
    "city_kana": "キョウトシサキョウク",
    "town": "松ケ崎六ノ坪町",
    "town_kana": "マツガサキロクノツボチョウ",
    "street": null,
    "office_name": null,
    "office_name_kana": null
  },
  "0916": {
    "postcode": "6060916",
    "prefecture": "京都府",
    "prefecture_kana": "キョウトフ",
    "prefecture_code": 26,
    "city": "京都市左京区",
    "city_kana": "キョウトシサキョウク",
    "town": "松ケ崎三反長町",
    "town_kana": "マツガサキサンダンオサチョウ",
    "street": null,
    "office_name": null,
    "office_name_kana": null
  },
  "0917": {
    "postcode": "6060917",
    "prefecture": "京都府",
    "prefecture_kana": "キョウトフ",
    "prefecture_code": 26,
    "city": "京都市左京区",
    "city_kana": "キョウトシサキョウク",
    "town": "松ケ崎堂ノ上町",
    "town_kana": "マツガサキドウノウエチョウ",
    "street": null,
    "office_name": null,
    "office_name_kana": null
  },
  "0921": {
    "postcode": "6060921",
    "prefecture": "京都府",
    "prefecture_kana": "キョウトフ",
    "prefecture_code": 26,
    "city": "京都市左京区",
    "city_kana": "キョウトシサキョウク",
    "town": "松ケ崎平田町",
    "town_kana": "マツガサキヒラタチョウ",
    "street": null,
    "office_name": null,
    "office_name_kana": null
  },
  "0922": {
    "postcode": "6060922",
    "prefecture": "京都府",
    "prefecture_kana": "キョウトフ",
    "prefecture_code": 26,
    "city": "京都市左京区",
    "city_kana": "キョウトシサキョウク",
    "town": "松ケ崎南池ノ内町",
    "town_kana": "マツガサキミナミイケノウチチョウ",
    "street": null,
    "office_name": null,
    "office_name_kana": null
  },
  "0923": {
    "postcode": "6060923",
    "prefecture": "京都府",
    "prefecture_kana": "キョウトフ",
    "prefecture_code": 26,
    "city": "京都市左京区",
    "city_kana": "キョウトシサキョウク",
    "town": "松ケ崎総作町",
    "town_kana": "マツガサキソウサクチョウ",
    "street": null,
    "office_name": null,
    "office_name_kana": null
  },
  "0924": {
    "postcode": "6060924",
    "prefecture": "京都府",
    "prefecture_kana": "キョウトフ",
    "prefecture_code": 26,
    "city": "京都市左京区",
    "city_kana": "キョウトシサキョウク",
    "town": "松ケ崎東池ノ内町",
    "town_kana": "マツガサキヒガシイケノウチチョウ",
    "street": null,
    "office_name": null,
    "office_name_kana": null
  },
  "0925": {
    "postcode": "6060925",
    "prefecture": "京都府",
    "prefecture_kana": "キョウトフ",
    "prefecture_code": 26,
    "city": "京都市左京区",
    "city_kana": "キョウトシサキョウク",
    "town": "松ケ崎林山",
    "town_kana": "マツガサキハヤシヤマ",
    "street": null,
    "office_name": null,
    "office_name_kana": null
  },
  "0926": {
    "postcode": "6060926",
    "prefecture": "京都府",
    "prefecture_kana": "キョウトフ",
    "prefecture_code": 26,
    "city": "京都市左京区",
    "city_kana": "キョウトシサキョウク",
    "town": "松ケ崎中町",
    "town_kana": "マツガサキナカマチ",
    "street": null,
    "office_name": null,
    "office_name_kana": null
  },
  "0927": {
    "postcode": "6060927",
    "prefecture": "京都府",
    "prefecture_kana": "キョウトフ",
    "prefecture_code": 26,
    "city": "京都市左京区",
    "city_kana": "キョウトシサキョウク",
    "town": "松ケ崎西町",
    "town_kana": "マツガサキニシマチ",
    "street": null,
    "office_name": null,
    "office_name_kana": null
  },
  "0931": {
    "postcode": "6060931",
    "prefecture": "京都府",
    "prefecture_kana": "キョウトフ",
    "prefecture_code": 26,
    "city": "京都市左京区",
    "city_kana": "キョウトシサキョウク",
    "town": "松ケ崎井出ケ海道町",
    "town_kana": "マツガサキイデガカイドウチョウ",
    "street": null,
    "office_name": null,
    "office_name_kana": null
  },
  "0932": {
    "postcode": "6060932",
    "prefecture": "京都府",
    "prefecture_kana": "キョウトフ",
    "prefecture_code": 26,
    "city": "京都市左京区",
    "city_kana": "キョウトシサキョウク",
    "town": "松ケ崎西池ノ内町",
    "town_kana": "マツガサキニシイケノウチチョウ",
    "street": null,
    "office_name": null,
    "office_name_kana": null
  },
  "0933": {
    "postcode": "6060933",
    "prefecture": "京都府",
    "prefecture_kana": "キョウトフ",
    "prefecture_code": 26,
    "city": "京都市左京区",
    "city_kana": "キョウトシサキョウク",
    "town": "松ケ崎西山",
    "town_kana": "マツガサキニシヤマ",
    "street": null,
    "office_name": null,
    "office_name_kana": null
  },
  "0934": {
    "postcode": "6060934",
    "prefecture": "京都府",
    "prefecture_kana": "キョウトフ",
    "prefecture_code": 26,
    "city": "京都市左京区",
    "city_kana": "キョウトシサキョウク",
    "town": "松ケ崎狐坂",
    "town_kana": "マツガサキキツネサカ",
    "street": null,
    "office_name": null,
    "office_name_kana": null
  },
  "0935": {
    "postcode": "6060935",
    "prefecture": "京都府",
    "prefecture_kana": "キョウトフ",
    "prefecture_code": 26,
    "city": "京都市左京区",
    "city_kana": "キョウトシサキョウク",
    "town": "松ケ崎高山",
    "town_kana": "マツガサキタカヤマ",
    "street": null,
    "office_name": null,
    "office_name_kana": null
  },
  "0936": {
    "postcode": "6060936",
    "prefecture": "京都府",
    "prefecture_kana": "キョウトフ",
    "prefecture_code": 26,
    "city": "京都市左京区",
    "city_kana": "キョウトシサキョウク",
    "town": "松ケ崎榎実ケ芝",
    "town_kana": "マツガサキエノミガシバ",
    "street": null,
    "office_name": null,
    "office_name_kana": null
  },
  "0937": {
    "postcode": "6060937",
    "prefecture": "京都府",
    "prefecture_kana": "キョウトフ",
    "prefecture_code": 26,
    "city": "京都市左京区",
    "city_kana": "キョウトシサキョウク",
    "town": "松ケ崎北裏町",
    "town_kana": "マツガサキキタウラチョウ",
    "street": null,
    "office_name": null,
    "office_name_kana": null
  },
  "0938": {
    "postcode": "6060938",
    "prefecture": "京都府",
    "prefecture_kana": "キョウトフ",
    "prefecture_code": 26,
    "city": "京都市左京区",
    "city_kana": "キョウトシサキョウク",
    "town": "松ケ崎木燈籠町",
    "town_kana": "マツガサキキトウロウチョウ",
    "street": null,
    "office_name": null,
    "office_name_kana": null
  },
  "0941": {
    "postcode": "6060941",
    "prefecture": "京都府",
    "prefecture_kana": "キョウトフ",
    "prefecture_code": 26,
    "city": "京都市左京区",
    "city_kana": "キョウトシサキョウク",
    "town": "松ケ崎河原田町",
    "town_kana": "マツガサキカワラダチョウ",
    "street": null,
    "office_name": null,
    "office_name_kana": null
  },
  "0942": {
    "postcode": "6060942",
    "prefecture": "京都府",
    "prefecture_kana": "キョウトフ",
    "prefecture_code": 26,
    "city": "京都市左京区",
    "city_kana": "キョウトシサキョウク",
    "town": "松ケ崎樋ノ上町",
    "town_kana": "マツガサキヒノエチョウ",
    "street": null,
    "office_name": null,
    "office_name_kana": null
  },
  "0943": {
    "postcode": "6060943",
    "prefecture": "京都府",
    "prefecture_kana": "キョウトフ",
    "prefecture_code": 26,
    "city": "京都市左京区",
    "city_kana": "キョウトシサキョウク",
    "town": "松ケ崎東町",
    "town_kana": "マツガサキヒガシマチ",
    "street": null,
    "office_name": null,
    "office_name_kana": null
  },
  "0944": {
    "postcode": "6060944",
    "prefecture": "京都府",
    "prefecture_kana": "キョウトフ",
    "prefecture_code": 26,
    "city": "京都市左京区",
    "city_kana": "キョウトシサキョウク",
    "town": "松ケ崎御所ノ内町",
    "town_kana": "マツガサキゴショノウチチョウ",
    "street": null,
    "office_name": null,
    "office_name_kana": null
  },
  "0945": {
    "postcode": "6060945",
    "prefecture": "京都府",
    "prefecture_kana": "キョウトフ",
    "prefecture_code": 26,
    "city": "京都市左京区",
    "city_kana": "キョウトシサキョウク",
    "town": "松ケ崎堀町",
    "town_kana": "マツガサキホリマチ",
    "street": null,
    "office_name": null,
    "office_name_kana": null
  },
  "0946": {
    "postcode": "6060946",
    "prefecture": "京都府",
    "prefecture_kana": "キョウトフ",
    "prefecture_code": 26,
    "city": "京都市左京区",
    "city_kana": "キョウトシサキョウク",
    "town": "松ケ崎東山",
    "town_kana": "マツガサキヒガシヤマ",
    "street": null,
    "office_name": null,
    "office_name_kana": null
  },
  "0947": {
    "postcode": "6060947",
    "prefecture": "京都府",
    "prefecture_kana": "キョウトフ",
    "prefecture_code": 26,
    "city": "京都市左京区",
    "city_kana": "キョウトシサキョウク",
    "town": "松ケ崎井出ケ鼻町",
    "town_kana": "マツガサキイデガハナチョウ",
    "street": null,
    "office_name": null,
    "office_name_kana": null
  },
  "0951": {
    "postcode": "6060951",
    "prefecture": "京都府",
    "prefecture_kana": "キョウトフ",
    "prefecture_code": 26,
    "city": "京都市左京区",
    "city_kana": "キョウトシサキョウク",
    "town": "松ケ崎橋上町",
    "town_kana": "マツガサキハシカミチョウ",
    "street": null,
    "office_name": null,
    "office_name_kana": null
  },
  "0952": {
    "postcode": "6060952",
    "prefecture": "京都府",
    "prefecture_kana": "キョウトフ",
    "prefecture_code": 26,
    "city": "京都市左京区",
    "city_kana": "キョウトシサキョウク",
    "town": "松ケ崎木ノ本町",
    "town_kana": "マツガサキキノモトチョウ",
    "street": null,
    "office_name": null,
    "office_name_kana": null
  },
  "0953": {
    "postcode": "6060953",
    "prefecture": "京都府",
    "prefecture_kana": "キョウトフ",
    "prefecture_code": 26,
    "city": "京都市左京区",
    "city_kana": "キョウトシサキョウク",
    "town": "松ケ崎海尻町",
    "town_kana": "マツガサキカイジリチョウ",
    "street": null,
    "office_name": null,
    "office_name_kana": null
  },
  "0954": {
    "postcode": "6060954",
    "prefecture": "京都府",
    "prefecture_kana": "キョウトフ",
    "prefecture_code": 26,
    "city": "京都市左京区",
    "city_kana": "キョウトシサキョウク",
    "town": "松ケ崎壱町田町",
    "town_kana": "マツガサキイッチョウダチョウ",
    "street": null,
    "office_name": null,
    "office_name_kana": null
  },
  "0955": {
    "postcode": "6060955",
    "prefecture": "京都府",
    "prefecture_kana": "キョウトフ",
    "prefecture_code": 26,
    "city": "京都市左京区",
    "city_kana": "キョウトシサキョウク",
    "town": "松ケ崎雲路町",
    "town_kana": "マツガサキクモジチョウ",
    "street": null,
    "office_name": null,
    "office_name_kana": null
  },
  "0956": {
    "postcode": "6060956",
    "prefecture": "京都府",
    "prefecture_kana": "キョウトフ",
    "prefecture_code": 26,
    "city": "京都市左京区",
    "city_kana": "キョウトシサキョウク",
    "town": "松ケ崎鞍馬田町",
    "town_kana": "マツガサキクラマダチョウ",
    "street": null,
    "office_name": null,
    "office_name_kana": null
  },
  "0957": {
    "postcode": "6060957",
    "prefecture": "京都府",
    "prefecture_kana": "キョウトフ",
    "prefecture_code": 26,
    "city": "京都市左京区",
    "city_kana": "キョウトシサキョウク",
    "town": "松ケ崎小脇町",
    "town_kana": "マツガサキコワキチョウ",
    "street": null,
    "office_name": null,
    "office_name_kana": null
  },
  "0961": {
    "postcode": "6060961",
    "prefecture": "京都府",
    "prefecture_kana": "キョウトフ",
    "prefecture_code": 26,
    "city": "京都市左京区",
    "city_kana": "キョウトシサキョウク",
    "town": "松ケ崎久土町",
    "town_kana": "マツガサキクドチョウ",
    "street": null,
    "office_name": null,
    "office_name_kana": null
  },
  "0962": {
    "postcode": "6060962",
    "prefecture": "京都府",
    "prefecture_kana": "キョウトフ",
    "prefecture_code": 26,
    "city": "京都市左京区",
    "city_kana": "キョウトシサキョウク",
    "town": "松ケ崎御所海道町",
    "town_kana": "マツガサキゴショカイドウチョウ",
    "street": null,
    "office_name": null,
    "office_name_kana": null
  },
  "0963": {
    "postcode": "6060963",
    "prefecture": "京都府",
    "prefecture_kana": "キョウトフ",
    "prefecture_code": 26,
    "city": "京都市左京区",
    "city_kana": "キョウトシサキョウク",
    "town": "松ケ崎糺田町",
    "town_kana": "マツガサキタダスデンチョウ",
    "street": null,
    "office_name": null,
    "office_name_kana": null
  },
  "0964": {
    "postcode": "6060964",
    "prefecture": "京都府",
    "prefecture_kana": "キョウトフ",
    "prefecture_code": 26,
    "city": "京都市左京区",
    "city_kana": "キョウトシサキョウク",
    "town": "松ケ崎修理式町",
    "town_kana": "マツガサキシュウリシキチョウ",
    "street": null,
    "office_name": null,
    "office_name_kana": null
  },
  "0965": {
    "postcode": "6060965",
    "prefecture": "京都府",
    "prefecture_kana": "キョウトフ",
    "prefecture_code": 26,
    "city": "京都市左京区",
    "city_kana": "キョウトシサキョウク",
    "town": "松ケ崎横縄手町",
    "town_kana": "マツガサキヨコナワテチョウ",
    "street": null,
    "office_name": null,
    "office_name_kana": null
  },
  "0966": {
    "postcode": "6060966",
    "prefecture": "京都府",
    "prefecture_kana": "キョウトフ",
    "prefecture_code": 26,
    "city": "京都市左京区",
    "city_kana": "キョウトシサキョウク",
    "town": "松ケ崎正田町",
    "town_kana": "マツガサキショウデンチョウ",
    "street": null,
    "office_name": null,
    "office_name_kana": null
  },
  "0967": {
    "postcode": "6060967",
    "prefecture": "京都府",
    "prefecture_kana": "キョウトフ",
    "prefecture_code": 26,
    "city": "京都市左京区",
    "city_kana": "キョウトシサキョウク",
    "town": "松ケ崎小竹薮町",
    "town_kana": "マツガサキコタケヤブチョウ",
    "street": null,
    "office_name": null,
    "office_name_kana": null
  },
  "8001": {
    "postcode": "6068001",
    "prefecture": "京都府",
    "prefecture_kana": "キョウトフ",
    "prefecture_code": 26,
    "city": "京都市左京区",
    "city_kana": "キョウトシサキョウク",
    "town": "山端柳ケ坪町",
    "town_kana": "ヤマバナヤナガツボチョウ",
    "street": null,
    "office_name": null,
    "office_name_kana": null
  },
  "8002": {
    "postcode": "6068002",
    "prefecture": "京都府",
    "prefecture_kana": "キョウトフ",
    "prefecture_code": 26,
    "city": "京都市左京区",
    "city_kana": "キョウトシサキョウク",
    "town": "山端大城田町",
    "town_kana": "ヤマバナダイジョウデンチョウ",
    "street": null,
    "office_name": null,
    "office_name_kana": null
  },
  "8003": {
    "postcode": "6068003",
    "prefecture": "京都府",
    "prefecture_kana": "キョウトフ",
    "prefecture_code": 26,
    "city": "京都市左京区",
    "city_kana": "キョウトシサキョウク",
    "town": "山端川原町",
    "town_kana": "ヤマバナカワハラチョウ",
    "street": null,
    "office_name": null,
    "office_name_kana": null
  },
  "8004": {
    "postcode": "6068004",
    "prefecture": "京都府",
    "prefecture_kana": "キョウトフ",
    "prefecture_code": 26,
    "city": "京都市左京区",
    "city_kana": "キョウトシサキョウク",
    "town": "山端川端町",
    "town_kana": "ヤマバナカワバタチョウ",
    "street": null,
    "office_name": null,
    "office_name_kana": null
  },
  "8005": {
    "postcode": "6068005",
    "prefecture": "京都府",
    "prefecture_kana": "キョウトフ",
    "prefecture_code": 26,
    "city": "京都市左京区",
    "city_kana": "キョウトシサキョウク",
    "town": "山端川岸町",
    "town_kana": "ヤマバナカワギシチョウ",
    "street": null,
    "office_name": null,
    "office_name_kana": null
  },
  "8006": {
    "postcode": "6068006",
    "prefecture": "京都府",
    "prefecture_kana": "キョウトフ",
    "prefecture_code": 26,
    "city": "京都市左京区",
    "city_kana": "キョウトシサキョウク",
    "town": "山端橋ノ本町",
    "town_kana": "ヤマバナハシノモトチョウ",
    "street": null,
    "office_name": null,
    "office_name_kana": null
  },
  "8007": {
    "postcode": "6068007",
    "prefecture": "京都府",
    "prefecture_kana": "キョウトフ",
    "prefecture_code": 26,
    "city": "京都市左京区",
    "city_kana": "キョウトシサキョウク",
    "town": "山端壱町田町",
    "town_kana": "ヤマバナイッチョウダチョウ",
    "street": null,
    "office_name": null,
    "office_name_kana": null
  },
  "8011": {
    "postcode": "6068011",
    "prefecture": "京都府",
    "prefecture_kana": "キョウトフ",
    "prefecture_code": 26,
    "city": "京都市左京区",
    "city_kana": "キョウトシサキョウク",
    "town": "山端森本町",
    "town_kana": "ヤマバナモリモトチョウ",
    "street": null,
    "office_name": null,
    "office_name_kana": null
  },
  "8012": {
    "postcode": "6068012",
    "prefecture": "京都府",
    "prefecture_kana": "キョウトフ",
    "prefecture_code": 26,
    "city": "京都市左京区",
    "city_kana": "キョウトシサキョウク",
    "town": "山端滝ケ鼻町",
    "town_kana": "ヤマバナタキガハナチョウ",
    "street": null,
    "office_name": null,
    "office_name_kana": null
  },
  "8013": {
    "postcode": "6068013",
    "prefecture": "京都府",
    "prefecture_kana": "キョウトフ",
    "prefecture_code": 26,
    "city": "京都市左京区",
    "city_kana": "キョウトシサキョウク",
    "town": "山端大君町",
    "town_kana": "ヤマバナオオキミチョウ",
    "street": null,
    "office_name": null,
    "office_name_kana": null
  },
  "8014": {
    "postcode": "6068014",
    "prefecture": "京都府",
    "prefecture_kana": "キョウトフ",
    "prefecture_code": 26,
    "city": "京都市左京区",
    "city_kana": "キョウトシサキョウク",
    "town": "山端大塚町",
    "town_kana": "ヤマバナオオツカチョウ",
    "street": null,
    "office_name": null,
    "office_name_kana": null
  },
  "8021": {
    "postcode": "6068021",
    "prefecture": "京都府",
    "prefecture_kana": "キョウトフ",
    "prefecture_code": 26,
    "city": "京都市左京区",
    "city_kana": "キョウトシサキョウク",
    "town": "修学院沖殿町",
    "town_kana": "シュウガクインオキドノチョウ",
    "street": null,
    "office_name": null,
    "office_name_kana": null
  },
  "8022": {
    "postcode": "6068022",
    "prefecture": "京都府",
    "prefecture_kana": "キョウトフ",
    "prefecture_code": 26,
    "city": "京都市左京区",
    "city_kana": "キョウトシサキョウク",
    "town": "修学院高部町",
    "town_kana": "シュウガクインタカベチョウ",
    "street": null,
    "office_name": null,
    "office_name_kana": null
  },
  "8023": {
    "postcode": "6068023",
    "prefecture": "京都府",
    "prefecture_kana": "キョウトフ",
    "prefecture_code": 26,
    "city": "京都市左京区",
    "city_kana": "キョウトシサキョウク",
    "town": "修学院水上田町",
    "town_kana": "シュウガクインスイジョウデンチョウ",
    "street": null,
    "office_name": null,
    "office_name_kana": null
  },
  "8024": {
    "postcode": "6068024",
    "prefecture": "京都府",
    "prefecture_kana": "キョウトフ",
    "prefecture_code": 26,
    "city": "京都市左京区",
    "city_kana": "キョウトシサキョウク",
    "town": "修学院千万田町",
    "town_kana": "シュウガクインセンマンダチョウ",
    "street": null,
    "office_name": null,
    "office_name_kana": null
  },
  "8025": {
    "postcode": "6068025",
    "prefecture": "京都府",
    "prefecture_kana": "キョウトフ",
    "prefecture_code": 26,
    "city": "京都市左京区",
    "city_kana": "キョウトシサキョウク",
    "town": "修学院山ノ鼻町",
    "town_kana": "シュウガクインヤマノハナチョウ",
    "street": null,
    "office_name": null,
    "office_name_kana": null
  },
  "8026": {
    "postcode": "6068026",
    "prefecture": "京都府",
    "prefecture_kana": "キョウトフ",
    "prefecture_code": 26,
    "city": "京都市左京区",
    "city_kana": "キョウトシサキョウク",
    "town": "修学院川尻町",
    "town_kana": "シュウガクインカワジリチョウ",
    "street": null,
    "office_name": null,
    "office_name_kana": null
  },
  "8027": {
    "postcode": "6068027",
    "prefecture": "京都府",
    "prefecture_kana": "キョウトフ",
    "prefecture_code": 26,
    "city": "京都市左京区",
    "city_kana": "キョウトシサキョウク",
    "town": "修学院水川原町",
    "town_kana": "シュウガクインミズカワラチョウ",
    "street": null,
    "office_name": null,
    "office_name_kana": null
  },
  "8031": {
    "postcode": "6068031",
    "prefecture": "京都府",
    "prefecture_kana": "キョウトフ",
    "prefecture_code": 26,
    "city": "京都市左京区",
    "city_kana": "キョウトシサキョウク",
    "town": "修学院西沮沢町",
    "town_kana": "シュウガクインニシフケチョウ",
    "street": null,
    "office_name": null,
    "office_name_kana": null
  },
  "8032": {
    "postcode": "6068032",
    "prefecture": "京都府",
    "prefecture_kana": "キョウトフ",
    "prefecture_code": 26,
    "city": "京都市左京区",
    "city_kana": "キョウトシサキョウク",
    "town": "修学院北沮沢町",
    "town_kana": "シュウガクインキタフケチョウ",
    "street": null,
    "office_name": null,
    "office_name_kana": null
  },
  "8033": {
    "postcode": "6068033",
    "prefecture": "京都府",
    "prefecture_kana": "キョウトフ",
    "prefecture_code": 26,
    "city": "京都市左京区",
    "city_kana": "キョウトシサキョウク",
    "town": "修学院山添町",
    "town_kana": "シュウガクインヤマゾエチョウ",
    "street": null,
    "office_name": null,
    "office_name_kana": null
  },
  "8034": {
    "postcode": "6068034",
    "prefecture": "京都府",
    "prefecture_kana": "キョウトフ",
    "prefecture_code": 26,
    "city": "京都市左京区",
    "city_kana": "キョウトシサキョウク",
    "town": "修学院桧峠町",
    "town_kana": "シュウガクインヒノキトウゲチョウ",
    "street": null,
    "office_name": null,
    "office_name_kana": null
  },
  "8035": {
    "postcode": "6068035",
    "prefecture": "京都府",
    "prefecture_kana": "キョウトフ",
    "prefecture_code": 26,
    "city": "京都市左京区",
    "city_kana": "キョウトシサキョウク",
    "town": "修学院守禅庵",
    "town_kana": "シュウガクインシュゼンアン",
    "street": null,
    "office_name": null,
    "office_name_kana": null
  },
  "8036": {
    "postcode": "6068036",
    "prefecture": "京都府",
    "prefecture_kana": "キョウトフ",
    "prefecture_code": 26,
    "city": "京都市左京区",
    "city_kana": "キョウトシサキョウク",
    "town": "修学院開根坊町",
    "town_kana": "シュウガクインカイコンボウチョウ",
    "street": null,
    "office_name": null,
    "office_name_kana": null
  },
  "8037": {
    "postcode": "6068037",
    "prefecture": "京都府",
    "prefecture_kana": "キョウトフ",
    "prefecture_code": 26,
    "city": "京都市左京区",
    "city_kana": "キョウトシサキョウク",
    "town": "修学院大道町",
    "town_kana": "シュウガクインダイドウチョウ",
    "street": null,
    "office_name": null,
    "office_name_kana": null
  },
  "8041": {
    "postcode": "6068041",
    "prefecture": "京都府",
    "prefecture_kana": "キョウトフ",
    "prefecture_code": 26,
    "city": "京都市左京区",
    "city_kana": "キョウトシサキョウク",
    "town": "修学院仏者町",
    "town_kana": "シュウガクインブッシャチョウ",
    "street": null,
    "office_name": null,
    "office_name_kana": null
  },
  "8042": {
    "postcode": "6068042",
    "prefecture": "京都府",
    "prefecture_kana": "キョウトフ",
    "prefecture_code": 26,
    "city": "京都市左京区",
    "city_kana": "キョウトシサキョウク",
    "town": "修学院泉殿町",
    "town_kana": "シュウガクインイズミドノチョウ",
    "street": null,
    "office_name": null,
    "office_name_kana": null
  },
  "8043": {
    "postcode": "6068043",
    "prefecture": "京都府",
    "prefecture_kana": "キョウトフ",
    "prefecture_code": 26,
    "city": "京都市左京区",
    "city_kana": "キョウトシサキョウク",
    "town": "修学院貝原町",
    "town_kana": "シュウガクインカイバラチョウ",
    "street": null,
    "office_name": null,
    "office_name_kana": null
  },
  "8044": {
    "postcode": "6068044",
    "prefecture": "京都府",
    "prefecture_kana": "キョウトフ",
    "prefecture_code": 26,
    "city": "京都市左京区",
    "city_kana": "キョウトシサキョウク",
    "town": "修学院馬場脇町",
    "town_kana": "シュウガクインババワキチョウ",
    "street": null,
    "office_name": null,
    "office_name_kana": null
  },
  "8045": {
    "postcode": "6068045",
    "prefecture": "京都府",
    "prefecture_kana": "キョウトフ",
    "prefecture_code": 26,
    "city": "京都市左京区",
    "city_kana": "キョウトシサキョウク",
    "town": "修学院安養坊",
    "town_kana": "シュウガクインアンヨウボウ",
    "street": null,
    "office_name": null,
    "office_name_kana": null
  },
  "8046": {
    "postcode": "6068046",
    "prefecture": "京都府",
    "prefecture_kana": "キョウトフ",
    "prefecture_code": 26,
    "city": "京都市左京区",
    "city_kana": "キョウトシサキョウク",
    "town": "修学院室町",
    "town_kana": "シュウガクインムロマチ",
    "street": null,
    "office_name": null,
    "office_name_kana": null
  },
  "8047": {
    "postcode": "6068047",
    "prefecture": "京都府",
    "prefecture_kana": "キョウトフ",
    "prefecture_code": 26,
    "city": "京都市左京区",
    "city_kana": "キョウトシサキョウク",
    "town": "修学院烏丸町",
    "town_kana": "シュウガクインカラスマルチョウ",
    "street": null,
    "office_name": null,
    "office_name_kana": null
  },
  "8051": {
    "postcode": "6068051",
    "prefecture": "京都府",
    "prefecture_kana": "キョウトフ",
    "prefecture_code": 26,
    "city": "京都市左京区",
    "city_kana": "キョウトシサキョウク",
    "town": "修学院中新開",
    "town_kana": "シュウガクインナカシンカイ",
    "street": null,
    "office_name": null,
    "office_name_kana": null
  },
  "8052": {
    "postcode": "6068052",
    "prefecture": "京都府",
    "prefecture_kana": "キョウトフ",
    "prefecture_code": 26,
    "city": "京都市左京区",
    "city_kana": "キョウトシサキョウク",
    "town": "修学院薮添",
    "town_kana": "シュウガクインヤブソエ",
    "street": null,
    "office_name": null,
    "office_name_kana": null
  },
  "8053": {
    "postcode": "6068053",
    "prefecture": "京都府",
    "prefecture_kana": "キョウトフ",
    "prefecture_code": 26,
    "city": "京都市左京区",
    "city_kana": "キョウトシサキョウク",
    "town": "修学院宮ノ前",
    "town_kana": "シュウガクインミヤノマエ",
    "street": null,
    "office_name": null,
    "office_name_kana": null
  },
  "8054": {
    "postcode": "6068054",
    "prefecture": "京都府",
    "prefecture_kana": "キョウトフ",
    "prefecture_code": 26,
    "city": "京都市左京区",
    "city_kana": "キョウトシサキョウク",
    "town": "修学院山神町",
    "town_kana": "シュウガクインヤマカミチョウ",
    "street": null,
    "office_name": null,
    "office_name_kana": null
  },
  "8055": {
    "postcode": "6068055",
    "prefecture": "京都府",
    "prefecture_kana": "キョウトフ",
    "prefecture_code": 26,
    "city": "京都市左京区",
    "city_kana": "キョウトシサキョウク",
    "town": "修学院高岸町",
    "town_kana": "シュウガクインタカギシチョウ",
    "street": null,
    "office_name": null,
    "office_name_kana": null
  },
  "8056": {
    "postcode": "6068056",
    "prefecture": "京都府",
    "prefecture_kana": "キョウトフ",
    "prefecture_code": 26,
    "city": "京都市左京区",
    "city_kana": "キョウトシサキョウク",
    "town": "修学院松本町",
    "town_kana": "シュウガクインマツモトチョウ",
    "street": null,
    "office_name": null,
    "office_name_kana": null
  },
  "8057": {
    "postcode": "6068057",
    "prefecture": "京都府",
    "prefecture_kana": "キョウトフ",
    "prefecture_code": 26,
    "city": "京都市左京区",
    "city_kana": "キョウトシサキョウク",
    "town": "修学院林ノ脇",
    "town_kana": "シュウガクインハヤシノワキ",
    "street": null,
    "office_name": null,
    "office_name_kana": null
  },
  "8061": {
    "postcode": "6068061",
    "prefecture": "京都府",
    "prefecture_kana": "キョウトフ",
    "prefecture_code": 26,
    "city": "京都市左京区",
    "city_kana": "キョウトシサキョウク",
    "town": "修学院宮ノ脇町",
    "town_kana": "シュウガクインミヤノワキチョウ",
    "street": null,
    "office_name": null,
    "office_name_kana": null
  },
  "8062": {
    "postcode": "6068062",
    "prefecture": "京都府",
    "prefecture_kana": "キョウトフ",
    "prefecture_code": 26,
    "city": "京都市左京区",
    "city_kana": "キョウトシサキョウク",
    "town": "修学院南代",
    "town_kana": "シュウガクインミナミシロ",
    "street": null,
    "office_name": null,
    "office_name_kana": null
  },
  "8063": {
    "postcode": "6068063",
    "prefecture": "京都府",
    "prefecture_kana": "キョウトフ",
    "prefecture_code": 26,
    "city": "京都市左京区",
    "city_kana": "キョウトシサキョウク",
    "town": "修学院後安堂",
    "town_kana": "シュウガクインゴアンドウ",
    "street": null,
    "office_name": null,
    "office_name_kana": null
  },
  "8064": {
    "postcode": "6068064",
    "prefecture": "京都府",
    "prefecture_kana": "キョウトフ",
    "prefecture_code": 26,
    "city": "京都市左京区",
    "city_kana": "キョウトシサキョウク",
    "town": "修学院辻ノ田町",
    "town_kana": "シュウガクインツジノダチョウ",
    "street": null,
    "office_name": null,
    "office_name_kana": null
  },
  "8065": {
    "postcode": "6068065",
    "prefecture": "京都府",
    "prefecture_kana": "キョウトフ",
    "prefecture_code": 26,
    "city": "京都市左京区",
    "city_kana": "キョウトシサキョウク",
    "town": "修学院月輪寺町",
    "town_kana": "シュウガクインガツリンジチョウ",
    "street": null,
    "office_name": null,
    "office_name_kana": null
  },
  "8071": {
    "postcode": "6068071",
    "prefecture": "京都府",
    "prefecture_kana": "キョウトフ",
    "prefecture_code": 26,
    "city": "京都市左京区",
    "city_kana": "キョウトシサキョウク",
    "town": "修学院狭間町",
    "town_kana": "シュウガクインハザマチョウ",
    "street": null,
    "office_name": null,
    "office_name_kana": null
  },
  "8072": {
    "postcode": "6068072",
    "prefecture": "京都府",
    "prefecture_kana": "キョウトフ",
    "prefecture_code": 26,
    "city": "京都市左京区",
    "city_kana": "キョウトシサキョウク",
    "town": "修学院登リ内町",
    "town_kana": "シュウガクインノボリウチチョウ",
    "street": null,
    "office_name": null,
    "office_name_kana": null
  },
  "8073": {
    "postcode": "6068073",
    "prefecture": "京都府",
    "prefecture_kana": "キョウトフ",
    "prefecture_code": 26,
    "city": "京都市左京区",
    "city_kana": "キョウトシサキョウク",
    "town": "修学院茶屋ノ前町",
    "town_kana": "シュウガクインチャヤノマエチョウ",
    "street": null,
    "office_name": null,
    "office_name_kana": null
  },
  "8074": {
    "postcode": "6068074",
    "prefecture": "京都府",
    "prefecture_kana": "キョウトフ",
    "prefecture_code": 26,
    "city": "京都市左京区",
    "city_kana": "キョウトシサキョウク",
    "town": "修学院石掛町",
    "town_kana": "シュウガクインイシカケチョウ",
    "street": null,
    "office_name": null,
    "office_name_kana": null
  },
  "8075": {
    "postcode": "6068075",
    "prefecture": "京都府",
    "prefecture_kana": "キョウトフ",
    "prefecture_code": 26,
    "city": "京都市左京区",
    "city_kana": "キョウトシサキョウク",
    "town": "修学院坪江町",
    "town_kana": "シュウガクインツボエチョウ",
    "street": null,
    "office_name": null,
    "office_name_kana": null
  },
  "8081": {
    "postcode": "6068081",
    "prefecture": "京都府",
    "prefecture_kana": "キョウトフ",
    "prefecture_code": 26,
    "city": "京都市左京区",
    "city_kana": "キョウトシサキョウク",
    "town": "修学院大林町",
    "town_kana": "シュウガクインオオバヤシチョウ",
    "street": null,
    "office_name": null,
    "office_name_kana": null
  },
  "8082": {
    "postcode": "6068082",
    "prefecture": "京都府",
    "prefecture_kana": "キョウトフ",
    "prefecture_code": 26,
    "city": "京都市左京区",
    "city_kana": "キョウトシサキョウク",
    "town": "修学院鹿ノ下町",
    "town_kana": "シュウガクインカノシタチョウ",
    "street": null,
    "office_name": null,
    "office_name_kana": null
  },
  "8083": {
    "postcode": "6068083",
    "prefecture": "京都府",
    "prefecture_kana": "キョウトフ",
    "prefecture_code": 26,
    "city": "京都市左京区",
    "city_kana": "キョウトシサキョウク",
    "town": "修学院犬塚町",
    "town_kana": "シュウガクインイヌヅカチョウ",
    "street": null,
    "office_name": null,
    "office_name_kana": null
  },
  "8084": {
    "postcode": "6068084",
    "prefecture": "京都府",
    "prefecture_kana": "キョウトフ",
    "prefecture_code": 26,
    "city": "京都市左京区",
    "city_kana": "キョウトシサキョウク",
    "town": "修学院薬師堂町",
    "town_kana": "シュウガクインヤクシドウチョウ",
    "street": null,
    "office_name": null,
    "office_name_kana": null
  },
  "8085": {
    "postcode": "6068085",
    "prefecture": "京都府",
    "prefecture_kana": "キョウトフ",
    "prefecture_code": 26,
    "city": "京都市左京区",
    "city_kana": "キョウトシサキョウク",
    "town": "修学院中林町",
    "town_kana": "シュウガクインナカバヤシチョウ",
    "street": null,
    "office_name": null,
    "office_name_kana": null
  },
  "8086": {
    "postcode": "6068086",
    "prefecture": "京都府",
    "prefecture_kana": "キョウトフ",
    "prefecture_code": 26,
    "city": "京都市左京区",
    "city_kana": "キョウトシサキョウク",
    "town": "修学院十権寺町",
    "town_kana": "シュウガクインジュウゴンジチョウ",
    "street": null,
    "office_name": null,
    "office_name_kana": null
  },
  "8101": {
    "postcode": "6068101",
    "prefecture": "京都府",
    "prefecture_kana": "キョウトフ",
    "prefecture_code": 26,
    "city": "京都市左京区",
    "city_kana": "キョウトシサキョウク",
    "town": "高野蓼原町",
    "town_kana": "タカノタデハラチョウ",
    "street": null,
    "office_name": null,
    "office_name_kana": null
  },
  "8102": {
    "postcode": "6068102",
    "prefecture": "京都府",
    "prefecture_kana": "キョウトフ",
    "prefecture_code": 26,
    "city": "京都市左京区",
    "city_kana": "キョウトシサキョウク",
    "town": "高野清水町",
    "town_kana": "タカノシミズチョウ",
    "street": null,
    "office_name": null,
    "office_name_kana": null
  },
  "8103": {
    "postcode": "6068103",
    "prefecture": "京都府",
    "prefecture_kana": "キョウトフ",
    "prefecture_code": 26,
    "city": "京都市左京区",
    "city_kana": "キョウトシサキョウク",
    "town": "高野西開町",
    "town_kana": "タカノニシビラキチョウ",
    "street": null,
    "office_name": null,
    "office_name_kana": null
  },
  "8104": {
    "postcode": "6068104",
    "prefecture": "京都府",
    "prefecture_kana": "キョウトフ",
    "prefecture_code": 26,
    "city": "京都市左京区",
    "city_kana": "キョウトシサキョウク",
    "town": "高野竹屋町",
    "town_kana": "タカノタケヤチョウ",
    "street": null,
    "office_name": null,
    "office_name_kana": null
  },
  "8105": {
    "postcode": "6068105",
    "prefecture": "京都府",
    "prefecture_kana": "キョウトフ",
    "prefecture_code": 26,
    "city": "京都市左京区",
    "city_kana": "キョウトシサキョウク",
    "town": "高野上竹屋町",
    "town_kana": "タカノカミタケヤチョウ",
    "street": null,
    "office_name": null,
    "office_name_kana": null
  },
  "8106": {
    "postcode": "6068106",
    "prefecture": "京都府",
    "prefecture_kana": "キョウトフ",
    "prefecture_code": 26,
    "city": "京都市左京区",
    "city_kana": "キョウトシサキョウク",
    "town": "高野玉岡町",
    "town_kana": "タカノタマオカチョウ",
    "street": null,
    "office_name": null,
    "office_name_kana": null
  },
  "8107": {
    "postcode": "6068107",
    "prefecture": "京都府",
    "prefecture_kana": "キョウトフ",
    "prefecture_code": 26,
    "city": "京都市左京区",
    "city_kana": "キョウトシサキョウク",
    "town": "高野東開町",
    "town_kana": "タカノヒガシヒラキチョウ",
    "street": null,
    "office_name": null,
    "office_name_kana": null
  },
  "8111": {
    "postcode": "6068111",
    "prefecture": "京都府",
    "prefecture_kana": "キョウトフ",
    "prefecture_code": 26,
    "city": "京都市左京区",
    "city_kana": "キョウトシサキョウク",
    "town": "高野泉町",
    "town_kana": "タカノイズミチョウ",
    "street": null,
    "office_name": null,
    "office_name_kana": null
  },
  "8112": {
    "postcode": "6068112",
    "prefecture": "京都府",
    "prefecture_kana": "キョウトフ",
    "prefecture_code": 26,
    "city": "京都市左京区",
    "city_kana": "キョウトシサキョウク",
    "town": "一乗寺西杉ノ宮町",
    "town_kana": "イチジョウジニシスギノミヤチョウ",
    "street": null,
    "office_name": null,
    "office_name_kana": null
  },
  "8113": {
    "postcode": "6068113",
    "prefecture": "京都府",
    "prefecture_kana": "キョウトフ",
    "prefecture_code": 26,
    "city": "京都市左京区",
    "city_kana": "キョウトシサキョウク",
    "town": "一乗寺東杉ノ宮町",
    "town_kana": "イチジョウジヒガシスギノミヤチョウ",
    "street": null,
    "office_name": null,
    "office_name_kana": null
  },
  "8114": {
    "postcode": "6068114",
    "prefecture": "京都府",
    "prefecture_kana": "キョウトフ",
    "prefecture_code": 26,
    "city": "京都市左京区",
    "city_kana": "キョウトシサキョウク",
    "town": "一乗寺北大丸町",
    "town_kana": "イチジョウジキタオオマルチョウ",
    "street": null,
    "office_name": null,
    "office_name_kana": null
  },
  "8115": {
    "postcode": "6068115",
    "prefecture": "京都府",
    "prefecture_kana": "キョウトフ",
    "prefecture_code": 26,
    "city": "京都市左京区",
    "city_kana": "キョウトシサキョウク",
    "town": "一乗寺里ノ西町",
    "town_kana": "イチジョウジサトノニシチョウ",
    "street": null,
    "office_name": null,
    "office_name_kana": null
  },
  "8116": {
    "postcode": "6068116",
    "prefecture": "京都府",
    "prefecture_kana": "キョウトフ",
    "prefecture_code": 26,
    "city": "京都市左京区",
    "city_kana": "キョウトシサキョウク",
    "town": "一乗寺宮ノ東町",
    "town_kana": "イチジョウジミヤノヒガシチョウ",
    "street": null,
    "office_name": null,
    "office_name_kana": null
  },
  "8117": {
    "postcode": "6068117",
    "prefecture": "京都府",
    "prefecture_kana": "キョウトフ",
    "prefecture_code": 26,
    "city": "京都市左京区",
    "city_kana": "キョウトシサキョウク",
    "town": "一乗寺里ノ前町",
    "town_kana": "イチジョウジサトノマエチョウ",
    "street": null,
    "office_name": null,
    "office_name_kana": null
  },
  "8121": {
    "postcode": "6068121",
    "prefecture": "京都府",
    "prefecture_kana": "キョウトフ",
    "prefecture_code": 26,
    "city": "京都市左京区",
    "city_kana": "キョウトシサキョウク",
    "town": "一乗寺青城町",
    "town_kana": "イチジョウジアオジョウチョウ",
    "street": null,
    "office_name": null,
    "office_name_kana": null
  },
  "8122": {
    "postcode": "6068122",
    "prefecture": "京都府",
    "prefecture_kana": "キョウトフ",
    "prefecture_code": 26,
    "city": "京都市左京区",
    "city_kana": "キョウトシサキョウク",
    "town": "一乗寺東閉川原町",
    "town_kana": "イチジョウジヒガシトジカワラチョウ",
    "street": null,
    "office_name": null,
    "office_name_kana": null
  },
  "8123": {
    "postcode": "6068123",
    "prefecture": "京都府",
    "prefecture_kana": "キョウトフ",
    "prefecture_code": 26,
    "city": "京都市左京区",
    "city_kana": "キョウトシサキョウク",
    "town": "一乗寺西閉川原町",
    "town_kana": "イチジョウジニシトジカワラチョウ",
    "street": null,
    "office_name": null,
    "office_name_kana": null
  },
  "8124": {
    "postcode": "6068124",
    "prefecture": "京都府",
    "prefecture_kana": "キョウトフ",
    "prefecture_code": 26,
    "city": "京都市左京区",
    "city_kana": "キョウトシサキョウク",
    "town": "一乗寺松田町",
    "town_kana": "イチジョウジマツダチョウ",
    "street": null,
    "office_name": null,
    "office_name_kana": null
  },
  "8125": {
    "postcode": "6068125",
    "prefecture": "京都府",
    "prefecture_kana": "キョウトフ",
    "prefecture_code": 26,
    "city": "京都市左京区",
    "city_kana": "キョウトシサキョウク",
    "town": "一乗寺清水町",
    "town_kana": "イチジョウジシミズチョウ",
    "street": null,
    "office_name": null,
    "office_name_kana": null
  },
  "8126": {
    "postcode": "6068126",
    "prefecture": "京都府",
    "prefecture_kana": "キョウトフ",
    "prefecture_code": 26,
    "city": "京都市左京区",
    "city_kana": "キョウトシサキョウク",
    "town": "一乗寺向畑町",
    "town_kana": "イチジョウジムカイバタチョウ",
    "street": null,
    "office_name": null,
    "office_name_kana": null
  },
  "8127": {
    "postcode": "6068127",
    "prefecture": "京都府",
    "prefecture_kana": "キョウトフ",
    "prefecture_code": 26,
    "city": "京都市左京区",
    "city_kana": "キョウトシサキョウク",
    "town": "一乗寺西浦畑町",
    "town_kana": "イチジョウジニシウラバタチョウ",
    "street": null,
    "office_name": null,
    "office_name_kana": null
  },
  "8131": {
    "postcode": "6068131",
    "prefecture": "京都府",
    "prefecture_kana": "キョウトフ",
    "prefecture_code": 26,
    "city": "京都市左京区",
    "city_kana": "キョウトシサキョウク",
    "town": "一乗寺稲荷町",
    "town_kana": "イチジョウジイナリチョウ",
    "street": null,
    "office_name": null,
    "office_name_kana": null
  },
  "8132": {
    "postcode": "6068132",
    "prefecture": "京都府",
    "prefecture_kana": "キョウトフ",
    "prefecture_code": 26,
    "city": "京都市左京区",
    "city_kana": "キョウトシサキョウク",
    "town": "一乗寺馬場町",
    "town_kana": "イチジョウジババチョウ",
    "street": null,
    "office_name": null,
    "office_name_kana": null
  },
  "8133": {
    "postcode": "6068133",
    "prefecture": "京都府",
    "prefecture_kana": "キョウトフ",
    "prefecture_code": 26,
    "city": "京都市左京区",
    "city_kana": "キョウトシサキョウク",
    "town": "一乗寺月輪寺町",
    "town_kana": "イチジョウジガツリンジチョウ",
    "street": null,
    "office_name": null,
    "office_name_kana": null
  },
  "8134": {
    "postcode": "6068134",
    "prefecture": "京都府",
    "prefecture_kana": "キョウトフ",
    "prefecture_code": 26,
    "city": "京都市左京区",
    "city_kana": "キョウトシサキョウク",
    "town": "一乗寺竹ノ内町",
    "town_kana": "イチジョウジタケノウチチョウ",
    "street": null,
    "office_name": null,
    "office_name_kana": null
  },
  "8135": {
    "postcode": "6068135",
    "prefecture": "京都府",
    "prefecture_kana": "キョウトフ",
    "prefecture_code": 26,
    "city": "京都市左京区",
    "city_kana": "キョウトシサキョウク",
    "town": "一乗寺水掛町",
    "town_kana": "イチジョウジミズガケチョウ",
    "street": null,
    "office_name": null,
    "office_name_kana": null
  },
  "8136": {
    "postcode": "6068136",
    "prefecture": "京都府",
    "prefecture_kana": "キョウトフ",
    "prefecture_code": 26,
    "city": "京都市左京区",
    "city_kana": "キョウトシサキョウク",
    "town": "一乗寺東浦町",
    "town_kana": "イチジョウジヒガシウラチョウ",
    "street": null,
    "office_name": null,
    "office_name_kana": null
  },
  "8141": {
    "postcode": "6068141",
    "prefecture": "京都府",
    "prefecture_kana": "キョウトフ",
    "prefecture_code": 26,
    "city": "京都市左京区",
    "city_kana": "キョウトシサキョウク",
    "town": "一乗寺釈迦堂町",
    "town_kana": "イチジョウジシャカドウチョウ",
    "street": null,
    "office_name": null,
    "office_name_kana": null
  },
  "8142": {
    "postcode": "6068142",
    "prefecture": "京都府",
    "prefecture_kana": "キョウトフ",
    "prefecture_code": 26,
    "city": "京都市左京区",
    "city_kana": "キョウトシサキョウク",
    "town": "一乗寺燈籠本町",
    "town_kana": "イチジョウジトウロウモトチョウ",
    "street": null,
    "office_name": null,
    "office_name_kana": null
  },
  "8143": {
    "postcode": "6068143",
    "prefecture": "京都府",
    "prefecture_kana": "キョウトフ",
    "prefecture_code": 26,
    "city": "京都市左京区",
    "city_kana": "キョウトシサキョウク",
    "town": "一乗寺堀ノ内町",
    "town_kana": "イチジョウジホリノウチチョウ",
    "street": null,
    "office_name": null,
    "office_name_kana": null
  },
  "8144": {
    "postcode": "6068144",
    "prefecture": "京都府",
    "prefecture_kana": "キョウトフ",
    "prefecture_code": 26,
    "city": "京都市左京区",
    "city_kana": "キョウトシサキョウク",
    "town": "一乗寺堂ノ前町",
    "town_kana": "イチジョウジドウノマエチョウ",
    "street": null,
    "office_name": null,
    "office_name_kana": null
  },
  "8145": {
    "postcode": "6068145",
    "prefecture": "京都府",
    "prefecture_kana": "キョウトフ",
    "prefecture_code": 26,
    "city": "京都市左京区",
    "city_kana": "キョウトシサキョウク",
    "town": "一乗寺葉山町",
    "town_kana": "イチジョウジハヤマチョウ",
    "street": null,
    "office_name": null,
    "office_name_kana": null
  },
  "8146": {
    "postcode": "6068146",
    "prefecture": "京都府",
    "prefecture_kana": "キョウトフ",
    "prefecture_code": 26,
    "city": "京都市左京区",
    "city_kana": "キョウトシサキョウク",
    "town": "一乗寺病ダレ",
    "town_kana": "イチジョウジヤマイダレ",
    "street": null,
    "office_name": null,
    "office_name_kana": null
  },
  "8147": {
    "postcode": "6068147",
    "prefecture": "京都府",
    "prefecture_kana": "キョウトフ",
    "prefecture_code": 26,
    "city": "京都市左京区",
    "city_kana": "キョウトシサキョウク",
    "town": "一乗寺小谷町",
    "town_kana": "イチジョウジコタニチョウ",
    "street": null,
    "office_name": null,
    "office_name_kana": null
  },
  "8151": {
    "postcode": "6068151",
    "prefecture": "京都府",
    "prefecture_kana": "キョウトフ",
    "prefecture_code": 26,
    "city": "京都市左京区",
    "city_kana": "キョウトシサキョウク",
    "town": "一乗寺花ノ木町",
    "town_kana": "イチジョウジハナノキチョウ",
    "street": null,
    "office_name": null,
    "office_name_kana": null
  },
  "8152": {
    "postcode": "6068152",
    "prefecture": "京都府",
    "prefecture_kana": "キョウトフ",
    "prefecture_code": 26,
    "city": "京都市左京区",
    "city_kana": "キョウトシサキョウク",
    "town": "一乗寺下リ松町",
    "town_kana": "イチジョウジサガリマツチョウ",
    "street": null,
    "office_name": null,
    "office_name_kana": null
  },
  "8153": {
    "postcode": "6068153",
    "prefecture": "京都府",
    "prefecture_kana": "キョウトフ",
    "prefecture_code": 26,
    "city": "京都市左京区",
    "city_kana": "キョウトシサキョウク",
    "town": "一乗寺谷田町",
    "town_kana": "イチジョウジタニダチョウ",
    "street": null,
    "office_name": null,
    "office_name_kana": null
  },
  "8154": {
    "postcode": "6068154",
    "prefecture": "京都府",
    "prefecture_kana": "キョウトフ",
    "prefecture_code": 26,
    "city": "京都市左京区",
    "city_kana": "キョウトシサキョウク",
    "town": "一乗寺門口町",
    "town_kana": "イチジョウジモングチチョウ",
    "street": null,
    "office_name": null,
    "office_name_kana": null
  },
  "8155": {
    "postcode": "6068155",
    "prefecture": "京都府",
    "prefecture_kana": "キョウトフ",
    "prefecture_code": 26,
    "city": "京都市左京区",
    "city_kana": "キョウトシサキョウク",
    "town": "一乗寺薬師堂町",
    "town_kana": "イチジョウジヤクシドウチョウ",
    "street": null,
    "office_name": null,
    "office_name_kana": null
  },
  "8156": {
    "postcode": "6068156",
    "prefecture": "京都府",
    "prefecture_kana": "キョウトフ",
    "prefecture_code": 26,
    "city": "京都市左京区",
    "city_kana": "キョウトシサキョウク",
    "town": "一乗寺松原町",
    "town_kana": "イチジョウジマツハラチョウ",
    "street": null,
    "office_name": null,
    "office_name_kana": null
  },
  "8157": {
    "postcode": "6068157",
    "prefecture": "京都府",
    "prefecture_kana": "キョウトフ",
    "prefecture_code": 26,
    "city": "京都市左京区",
    "city_kana": "キョウトシサキョウク",
    "town": "一乗寺才形町",
    "town_kana": "イチジョウジサイカタチョウ",
    "street": null,
    "office_name": null,
    "office_name_kana": null
  },
  "8158": {
    "postcode": "6068158",
    "prefecture": "京都府",
    "prefecture_kana": "キョウトフ",
    "prefecture_code": 26,
    "city": "京都市左京区",
    "city_kana": "キョウトシサキョウク",
    "town": "一乗寺大谷",
    "town_kana": "イチジョウジオオタニ",
    "street": null,
    "office_name": null,
    "office_name_kana": null
  },
  "8161": {
    "postcode": "6068161",
    "prefecture": "京都府",
    "prefecture_kana": "キョウトフ",
    "prefecture_code": 26,
    "city": "京都市左京区",
    "city_kana": "キョウトシサキョウク",
    "town": "一乗寺木ノ本町",
    "town_kana": "イチジョウジキノモトチョウ",
    "street": null,
    "office_name": null,
    "office_name_kana": null
  },
  "8162": {
    "postcode": "6068162",
    "prefecture": "京都府",
    "prefecture_kana": "キョウトフ",
    "prefecture_code": 26,
    "city": "京都市左京区",
    "city_kana": "キョウトシサキョウク",
    "town": "一乗寺御祭田町",
    "town_kana": "イチジョウジゴサイデンチョウ",
    "street": null,
    "office_name": null,
    "office_name_kana": null
  },
  "8163": {
    "postcode": "6068163",
    "prefecture": "京都府",
    "prefecture_kana": "キョウトフ",
    "prefecture_code": 26,
    "city": "京都市左京区",
    "city_kana": "キョウトシサキョウク",
    "town": "一乗寺中ノ田町",
    "town_kana": "イチジョウジナカノダチョウ",
    "street": null,
    "office_name": null,
    "office_name_kana": null
  },
  "8164": {
    "postcode": "6068164",
    "prefecture": "京都府",
    "prefecture_kana": "キョウトフ",
    "prefecture_code": 26,
    "city": "京都市左京区",
    "city_kana": "キョウトシサキョウク",
    "town": "一乗寺出口町",
    "town_kana": "イチジョウジデグチチョウ",
    "street": null,
    "office_name": null,
    "office_name_kana": null
  },
  "8165": {
    "postcode": "6068165",
    "prefecture": "京都府",
    "prefecture_kana": "キョウトフ",
    "prefecture_code": 26,
    "city": "京都市左京区",
    "city_kana": "キョウトシサキョウク",
    "town": "一乗寺野田町",
    "town_kana": "イチジョウジノダチョウ",
    "street": null,
    "office_name": null,
    "office_name_kana": null
  },
  "8166": {
    "postcode": "6068166",
    "prefecture": "京都府",
    "prefecture_kana": "キョウトフ",
    "prefecture_code": 26,
    "city": "京都市左京区",
    "city_kana": "キョウトシサキョウク",
    "town": "一乗寺庵野町",
    "town_kana": "イチジョウジイオリノチョウ",
    "street": null,
    "office_name": null,
    "office_name_kana": null
  },
  "8167": {
    "postcode": "6068167",
    "prefecture": "京都府",
    "prefecture_kana": "キョウトフ",
    "prefecture_code": 26,
    "city": "京都市左京区",
    "city_kana": "キョウトシサキョウク",
    "town": "一乗寺樋ノ口町",
    "town_kana": "イチジョウジヒノクチチョウ",
    "street": null,
    "office_name": null,
    "office_name_kana": null
  },
  "8171": {
    "postcode": "6068171",
    "prefecture": "京都府",
    "prefecture_kana": "キョウトフ",
    "prefecture_code": 26,
    "city": "京都市左京区",
    "city_kana": "キョウトシサキョウク",
    "town": "一乗寺西水干町",
    "town_kana": "イチジョウジニシミズボシチョウ",
    "street": null,
    "office_name": null,
    "office_name_kana": null
  },
  "8172": {
    "postcode": "6068172",
    "prefecture": "京都府",
    "prefecture_kana": "キョウトフ",
    "prefecture_code": 26,
    "city": "京都市左京区",
    "city_kana": "キョウトシサキョウク",
    "town": "一乗寺河原田町",
    "town_kana": "イチジョウジカワハラダチョウ",
    "street": null,
    "office_name": null,
    "office_name_kana": null
  },
  "8173": {
    "postcode": "6068173",
    "prefecture": "京都府",
    "prefecture_kana": "キョウトフ",
    "prefecture_code": 26,
    "city": "京都市左京区",
    "city_kana": "キョウトシサキョウク",
    "town": "一乗寺梅ノ木町",
    "town_kana": "イチジョウジウメノキチョウ",
    "street": null,
    "office_name": null,
    "office_name_kana": null
  },
  "8174": {
    "postcode": "6068174",
    "prefecture": "京都府",
    "prefecture_kana": "キョウトフ",
    "prefecture_code": 26,
    "city": "京都市左京区",
    "city_kana": "キョウトシサキョウク",
    "town": "一乗寺染殿町",
    "town_kana": "イチジョウジソメドノチョウ",
    "street": null,
    "office_name": null,
    "office_name_kana": null
  },
  "8175": {
    "postcode": "6068175",
    "prefecture": "京都府",
    "prefecture_kana": "キョウトフ",
    "prefecture_code": 26,
    "city": "京都市左京区",
    "city_kana": "キョウトシサキョウク",
    "town": "一乗寺築田町",
    "town_kana": "イチジョウジツクダチョウ",
    "street": null,
    "office_name": null,
    "office_name_kana": null
  },
  "8176": {
    "postcode": "6068176",
    "prefecture": "京都府",
    "prefecture_kana": "キョウトフ",
    "prefecture_code": 26,
    "city": "京都市左京区",
    "city_kana": "キョウトシサキョウク",
    "town": "一乗寺塚本町",
    "town_kana": "イチジョウジツカモトチョウ",
    "street": null,
    "office_name": null,
    "office_name_kana": null
  },
  "8177": {
    "postcode": "6068177",
    "prefecture": "京都府",
    "prefecture_kana": "キョウトフ",
    "prefecture_code": 26,
    "city": "京都市左京区",
    "city_kana": "キョウトシサキョウク",
    "town": "一乗寺東水干町",
    "town_kana": "イチジョウジヒガシミズボシチョウ",
    "street": null,
    "office_name": null,
    "office_name_kana": null
  },
  "8181": {
    "postcode": "6068181",
    "prefecture": "京都府",
    "prefecture_kana": "キョウトフ",
    "prefecture_code": 26,
    "city": "京都市左京区",
    "city_kana": "キョウトシサキョウク",
    "town": "一乗寺地蔵本町",
    "town_kana": "イチジョウジジゾウモトチョウ",
    "street": null,
    "office_name": null,
    "office_name_kana": null
  },
  "8182": {
    "postcode": "6068182",
    "prefecture": "京都府",
    "prefecture_kana": "キョウトフ",
    "prefecture_code": 26,
    "city": "京都市左京区",
    "city_kana": "キョウトシサキョウク",
    "town": "一乗寺赤ノ宮町",
    "town_kana": "イチジョウジアカノミヤチョウ",
    "street": null,
    "office_name": null,
    "office_name_kana": null
  },
  "8183": {
    "postcode": "6068183",
    "prefecture": "京都府",
    "prefecture_kana": "キョウトフ",
    "prefecture_code": 26,
    "city": "京都市左京区",
    "city_kana": "キョウトシサキョウク",
    "town": "一乗寺大新開町",
    "town_kana": "イチジョウジダイシンカイチョウ",
    "street": null,
    "office_name": null,
    "office_name_kana": null
  },
  "8184": {
    "postcode": "6068184",
    "prefecture": "京都府",
    "prefecture_kana": "キョウトフ",
    "prefecture_code": 26,
    "city": "京都市左京区",
    "city_kana": "キョウトシサキョウク",
    "town": "一乗寺払殿町",
    "town_kana": "イチジョウジハライトノチョウ",
    "street": null,
    "office_name": null,
    "office_name_kana": null
  },
  "8185": {
    "postcode": "6068185",
    "prefecture": "京都府",
    "prefecture_kana": "キョウトフ",
    "prefecture_code": 26,
    "city": "京都市左京区",
    "city_kana": "キョウトシサキョウク",
    "town": "一乗寺高槻町",
    "town_kana": "イチジョウジタカツキチョウ",
    "street": null,
    "office_name": null,
    "office_name_kana": null
  },
  "8186": {
    "postcode": "6068186",
    "prefecture": "京都府",
    "prefecture_kana": "キョウトフ",
    "prefecture_code": 26,
    "city": "京都市左京区",
    "city_kana": "キョウトシサキョウク",
    "town": "一乗寺南大丸町",
    "town_kana": "イチジョウジミナミオオマルチョウ",
    "street": null,
    "office_name": null,
    "office_name_kana": null
  },
  "8187": {
    "postcode": "6068187",
    "prefecture": "京都府",
    "prefecture_kana": "キョウトフ",
    "prefecture_code": 26,
    "city": "京都市左京区",
    "city_kana": "キョウトシサキョウク",
    "town": "一乗寺大原田町",
    "town_kana": "イチジョウジオオハラダチョウ",
    "street": null,
    "office_name": null,
    "office_name_kana": null
  },
  "8201": {
    "postcode": "6068201",
    "prefecture": "京都府",
    "prefecture_kana": "キョウトフ",
    "prefecture_code": 26,
    "city": "京都市左京区",
    "city_kana": "キョウトシサキョウク",
    "town": "田中玄京町",
    "town_kana": "タナカゲンキョウチョウ",
    "street": null,
    "office_name": null,
    "office_name_kana": null
  },
  "8202": {
    "postcode": "6068202",
    "prefecture": "京都府",
    "prefecture_kana": "キョウトフ",
    "prefecture_code": 26,
    "city": "京都市左京区",
    "city_kana": "キョウトシサキョウク",
    "town": "田中大堰町",
    "town_kana": "タナカオオイチョウ",
    "street": null,
    "office_name": null,
    "office_name_kana": null
  },
  "8203": {
    "postcode": "6068203",
    "prefecture": "京都府",
    "prefecture_kana": "キョウトフ",
    "prefecture_code": 26,
    "city": "京都市左京区",
    "city_kana": "キョウトシサキョウク",
    "town": "田中関田町",
    "town_kana": "タナカセキデンチョウ",
    "street": null,
    "office_name": null,
    "office_name_kana": null
  },
  "8204": {
    "postcode": "6068204",
    "prefecture": "京都府",
    "prefecture_kana": "キョウトフ",
    "prefecture_code": 26,
    "city": "京都市左京区",
    "city_kana": "キョウトシサキョウク",
    "town": "田中下柳町",
    "town_kana": "タナカシモヤナギチョウ",
    "street": null,
    "office_name": null,
    "office_name_kana": null
  },
  "8205": {
    "postcode": "6068205",
    "prefecture": "京都府",
    "prefecture_kana": "キョウトフ",
    "prefecture_code": 26,
    "city": "京都市左京区",
    "city_kana": "キョウトシサキョウク",
    "town": "田中上柳町",
    "town_kana": "タナカカミヤナギチョウ",
    "street": null,
    "office_name": null,
    "office_name_kana": null
  },
  "8206": {
    "postcode": "6068206",
    "prefecture": "京都府",
    "prefecture_kana": "キョウトフ",
    "prefecture_code": 26,
    "city": "京都市左京区",
    "city_kana": "キョウトシサキョウク",
    "town": "田中馬場町",
    "town_kana": "タナカババチョウ",
    "street": null,
    "office_name": null,
    "office_name_kana": null
  },
  "8211": {
    "postcode": "6068211",
    "prefecture": "京都府",
    "prefecture_kana": "キョウトフ",
    "prefecture_code": 26,
    "city": "京都市左京区",
    "city_kana": "キョウトシサキョウク",
    "town": "田中西大久保町",
    "town_kana": "タナカニシオオクボチョウ",
    "street": null,
    "office_name": null,
    "office_name_kana": null
  },
  "8212": {
    "postcode": "6068212",
    "prefecture": "京都府",
    "prefecture_kana": "キョウトフ",
    "prefecture_code": 26,
    "city": "京都市左京区",
    "city_kana": "キョウトシサキョウク",
    "town": "田中里ノ内町",
    "town_kana": "タナカサトノウチチョウ",
    "street": null,
    "office_name": null,
    "office_name_kana": null
  },
  "8213": {
    "postcode": "6068213",
    "prefecture": "京都府",
    "prefecture_kana": "キョウトフ",
    "prefecture_code": 26,
    "city": "京都市左京区",
    "city_kana": "キョウトシサキョウク",
    "town": "田中野神町",
    "town_kana": "タナカノガミチョウ",
    "street": null,
    "office_name": null,
    "office_name_kana": null
  },
  "8214": {
    "postcode": "6068214",
    "prefecture": "京都府",
    "prefecture_kana": "キョウトフ",
    "prefecture_code": 26,
    "city": "京都市左京区",
    "city_kana": "キョウトシサキョウク",
    "town": "田中南大久保町",
    "town_kana": "タナカミナミオオクボチョウ",
    "street": null,
    "office_name": null,
    "office_name_kana": null
  },
  "8215": {
    "postcode": "6068215",
    "prefecture": "京都府",
    "prefecture_kana": "キョウトフ",
    "prefecture_code": 26,
    "city": "京都市左京区",
    "city_kana": "キョウトシサキョウク",
    "town": "田中上玄京町",
    "town_kana": "タナカカミゲンキョウチョウ",
    "street": null,
    "office_name": null,
    "office_name_kana": null
  },
  "8216": {
    "postcode": "6068216",
    "prefecture": "京都府",
    "prefecture_kana": "キョウトフ",
    "prefecture_code": 26,
    "city": "京都市左京区",
    "city_kana": "キョウトシサキョウク",
    "town": "田中南西浦町",
    "town_kana": "タナカミナミニシウラチョウ",
    "street": null,
    "office_name": null,
    "office_name_kana": null
  },
  "8217": {
    "postcode": "6068217",
    "prefecture": "京都府",
    "prefecture_kana": "キョウトフ",
    "prefecture_code": 26,
    "city": "京都市左京区",
    "city_kana": "キョウトシサキョウク",
    "town": "田中西浦町",
    "town_kana": "タナカニシウラチョウ",
    "street": null,
    "office_name": null,
    "office_name_kana": null
  },
  "8221": {
    "postcode": "6068221",
    "prefecture": "京都府",
    "prefecture_kana": "キョウトフ",
    "prefecture_code": 26,
    "city": "京都市左京区",
    "city_kana": "キョウトシサキョウク",
    "town": "田中西樋ノ口町",
    "town_kana": "タナカニシヒノクチチョウ",
    "street": null,
    "office_name": null,
    "office_name_kana": null
  },
  "8222": {
    "postcode": "6068222",
    "prefecture": "京都府",
    "prefecture_kana": "キョウトフ",
    "prefecture_code": 26,
    "city": "京都市左京区",
    "city_kana": "キョウトシサキョウク",
    "town": "田中樋ノ口町",
    "town_kana": "タナカヒノクチチョウ",
    "street": null,
    "office_name": null,
    "office_name_kana": null
  },
  "8223": {
    "postcode": "6068223",
    "prefecture": "京都府",
    "prefecture_kana": "キョウトフ",
    "prefecture_code": 26,
    "city": "京都市左京区",
    "city_kana": "キョウトシサキョウク",
    "town": "田中東樋ノ口町",
    "town_kana": "タナカヒガシヒノクチチョウ",
    "street": null,
    "office_name": null,
    "office_name_kana": null
  },
  "8224": {
    "postcode": "6068224",
    "prefecture": "京都府",
    "prefecture_kana": "キョウトフ",
    "prefecture_code": 26,
    "city": "京都市左京区",
    "city_kana": "キョウトシサキョウク",
    "town": "北白川追分町",
    "town_kana": "キタシラカワオイワケチョウ",
    "street": null,
    "office_name": null,
    "office_name_kana": null
  },
  "8225": {
    "postcode": "6068225",
    "prefecture": "京都府",
    "prefecture_kana": "キョウトフ",
    "prefecture_code": 26,
    "city": "京都市左京区",
    "city_kana": "キョウトシサキョウク",
    "town": "田中門前町",
    "town_kana": "タナカモンゼンチョウ",
    "street": null,
    "office_name": null,
    "office_name_kana": null
  },
  "8226": {
    "postcode": "6068226",
    "prefecture": "京都府",
    "prefecture_kana": "キョウトフ",
    "prefecture_code": 26,
    "city": "京都市左京区",
    "city_kana": "キョウトシサキョウク",
    "town": "田中飛鳥井町",
    "town_kana": "タナカアスカイチョウ",
    "street": null,
    "office_name": null,
    "office_name_kana": null
  },
  "8227": {
    "postcode": "6068227",
    "prefecture": "京都府",
    "prefecture_kana": "キョウトフ",
    "prefecture_code": 26,
    "city": "京都市左京区",
    "city_kana": "キョウトシサキョウク",
    "town": "田中里ノ前町",
    "town_kana": "タナカサトノマエチョウ",
    "street": null,
    "office_name": null,
    "office_name_kana": null
  },
  "8231": {
    "postcode": "6068231",
    "prefecture": "京都府",
    "prefecture_kana": "キョウトフ",
    "prefecture_code": 26,
    "city": "京都市左京区",
    "city_kana": "キョウトシサキョウク",
    "town": "田中上古川町",
    "town_kana": "タナカカミフルカワチョウ",
    "street": null,
    "office_name": null,
    "office_name_kana": null
  },
  "8232": {
    "postcode": "6068232",
    "prefecture": "京都府",
    "prefecture_kana": "キョウトフ",
    "prefecture_code": 26,
    "city": "京都市左京区",
    "city_kana": "キョウトシサキョウク",
    "town": "田中古川町",
    "town_kana": "タナカフルカワチョウ",
    "street": null,
    "office_name": null,
    "office_name_kana": null
  },
  "8233": {
    "postcode": "6068233",
    "prefecture": "京都府",
    "prefecture_kana": "キョウトフ",
    "prefecture_code": 26,
    "city": "京都市左京区",
    "city_kana": "キョウトシサキョウク",
    "town": "田中北春菜町",
    "town_kana": "タナカキタハルナチョウ",
    "street": null,
    "office_name": null,
    "office_name_kana": null
  },
  "8234": {
    "postcode": "6068234",
    "prefecture": "京都府",
    "prefecture_kana": "キョウトフ",
    "prefecture_code": 26,
    "city": "京都市左京区",
    "city_kana": "キョウトシサキョウク",
    "town": "田中春菜町",
    "town_kana": "タナカハルナチョウ",
    "street": null,
    "office_name": null,
    "office_name_kana": null
  },
  "8235": {
    "postcode": "6068235",
    "prefecture": "京都府",
    "prefecture_kana": "キョウトフ",
    "prefecture_code": 26,
    "city": "京都市左京区",
    "city_kana": "キョウトシサキョウク",
    "town": "田中西春菜町",
    "town_kana": "タナカニシハルナチョウ",
    "street": null,
    "office_name": null,
    "office_name_kana": null
  },
  "8236": {
    "postcode": "6068236",
    "prefecture": "京都府",
    "prefecture_kana": "キョウトフ",
    "prefecture_code": 26,
    "city": "京都市左京区",
    "city_kana": "キョウトシサキョウク",
    "town": "田中大久保町",
    "town_kana": "タナカオオクボチョウ",
    "street": null,
    "office_name": null,
    "office_name_kana": null
  },
  "8237": {
    "postcode": "6068237",
    "prefecture": "京都府",
    "prefecture_kana": "キョウトフ",
    "prefecture_code": 26,
    "city": "京都市左京区",
    "city_kana": "キョウトシサキョウク",
    "town": "田中上大久保町",
    "town_kana": "タナカカミオオクボチョウ",
    "street": null,
    "office_name": null,
    "office_name_kana": null
  },
  "8241": {
    "postcode": "6068241",
    "prefecture": "京都府",
    "prefecture_kana": "キョウトフ",
    "prefecture_code": 26,
    "city": "京都市左京区",
    "city_kana": "キョウトシサキョウク",
    "town": "田中西高原町",
    "town_kana": "タナカニシタカハラチョウ",
    "street": null,
    "office_name": null,
    "office_name_kana": null
  },
  "8242": {
    "postcode": "6068242",
    "prefecture": "京都府",
    "prefecture_kana": "キョウトフ",
    "prefecture_code": 26,
    "city": "京都市左京区",
    "city_kana": "キョウトシサキョウク",
    "town": "田中高原町",
    "town_kana": "タナカタカハラチョウ",
    "street": null,
    "office_name": null,
    "office_name_kana": null
  },
  "8243": {
    "postcode": "6068243",
    "prefecture": "京都府",
    "prefecture_kana": "キョウトフ",
    "prefecture_code": 26,
    "city": "京都市左京区",
    "city_kana": "キョウトシサキョウク",
    "town": "田中東高原町",
    "town_kana": "タナカヒガシタカハラチョウ",
    "street": null,
    "office_name": null,
    "office_name_kana": null
  },
  "8244": {
    "postcode": "6068244",
    "prefecture": "京都府",
    "prefecture_kana": "キョウトフ",
    "prefecture_code": 26,
    "city": "京都市左京区",
    "city_kana": "キョウトシサキョウク",
    "town": "北白川東平井町",
    "town_kana": "キタシラカワヒガシヒライチョウ",
    "street": null,
    "office_name": null,
    "office_name_kana": null
  },
  "8245": {
    "postcode": "6068245",
    "prefecture": "京都府",
    "prefecture_kana": "キョウトフ",
    "prefecture_code": 26,
    "city": "京都市左京区",
    "city_kana": "キョウトシサキョウク",
    "town": "北白川平井町",
    "town_kana": "キタシラカワヒライチョウ",
    "street": null,
    "office_name": null,
    "office_name_kana": null
  },
  "8246": {
    "postcode": "6068246",
    "prefecture": "京都府",
    "prefecture_kana": "キョウトフ",
    "prefecture_code": 26,
    "city": "京都市左京区",
    "city_kana": "キョウトシサキョウク",
    "town": "北白川西平井町",
    "town_kana": "キタシラカワニシヒライチョウ",
    "street": null,
    "office_name": null,
    "office_name_kana": null
  },
  "8247": {
    "postcode": "6068247",
    "prefecture": "京都府",
    "prefecture_kana": "キョウトフ",
    "prefecture_code": 26,
    "city": "京都市左京区",
    "city_kana": "キョウトシサキョウク",
    "town": "田中東春菜町",
    "town_kana": "タナカヒガシハルナチョウ",
    "street": null,
    "office_name": null,
    "office_name_kana": null
  },
  "8251": {
    "postcode": "6068251",
    "prefecture": "京都府",
    "prefecture_kana": "キョウトフ",
    "prefecture_code": 26,
    "city": "京都市左京区",
    "city_kana": "キョウトシサキョウク",
    "town": "北白川東伊織町",
    "town_kana": "キタシラカワヒガシイオリチョウ",
    "street": null,
    "office_name": null,
    "office_name_kana": null
  },
  "8252": {
    "postcode": "6068252",
    "prefecture": "京都府",
    "prefecture_kana": "キョウトフ",
    "prefecture_code": 26,
    "city": "京都市左京区",
    "city_kana": "キョウトシサキョウク",
    "town": "北白川上終町",
    "town_kana": "キタシラカワカミハテチョウ",
    "street": null,
    "office_name": null,
    "office_name_kana": null
  },
  "8253": {
    "postcode": "6068253",
    "prefecture": "京都府",
    "prefecture_kana": "キョウトフ",
    "prefecture_code": 26,
    "city": "京都市左京区",
    "city_kana": "キョウトシサキョウク",
    "town": "北白川瀬ノ内町",
    "town_kana": "キタシラカワセノウチチョウ",
    "street": null,
    "office_name": null,
    "office_name_kana": null
  },
  "8254": {
    "postcode": "6068254",
    "prefecture": "京都府",
    "prefecture_kana": "キョウトフ",
    "prefecture_code": 26,
    "city": "京都市左京区",
    "city_kana": "キョウトシサキョウク",
    "town": "北白川東瀬ノ内町",
    "town_kana": "キタシラカワヒガシセノウチチョウ",
    "street": null,
    "office_name": null,
    "office_name_kana": null
  },
  "8255": {
    "postcode": "6068255",
    "prefecture": "京都府",
    "prefecture_kana": "キョウトフ",
    "prefecture_code": 26,
    "city": "京都市左京区",
    "city_kana": "キョウトシサキョウク",
    "town": "北白川西瀬ノ内町",
    "town_kana": "キタシラカワニシセノウチチョウ",
    "street": null,
    "office_name": null,
    "office_name_kana": null
  },
  "8256": {
    "postcode": "6068256",
    "prefecture": "京都府",
    "prefecture_kana": "キョウトフ",
    "prefecture_code": 26,
    "city": "京都市左京区",
    "city_kana": "キョウトシサキョウク",
    "town": "北白川伊織町",
    "town_kana": "キタシラカワイオリチョウ",
    "street": null,
    "office_name": null,
    "office_name_kana": null
  },
  "8257": {
    "postcode": "6068257",
    "prefecture": "京都府",
    "prefecture_kana": "キョウトフ",
    "prefecture_code": 26,
    "city": "京都市左京区",
    "city_kana": "キョウトシサキョウク",
    "town": "北白川西伊織町",
    "town_kana": "キタシラカワニシイオリチョウ",
    "street": null,
    "office_name": null,
    "office_name_kana": null
  },
  "8261": {
    "postcode": "6068261",
    "prefecture": "京都府",
    "prefecture_kana": "キョウトフ",
    "prefecture_code": 26,
    "city": "京都市左京区",
    "city_kana": "キョウトシサキョウク",
    "town": "北白川西蔦町",
    "town_kana": "キタシラカワニシツタチョウ",
    "street": null,
    "office_name": null,
    "office_name_kana": null
  },
  "8262": {
    "postcode": "6068262",
    "prefecture": "京都府",
    "prefecture_kana": "キョウトフ",
    "prefecture_code": 26,
    "city": "京都市左京区",
    "city_kana": "キョウトシサキョウク",
    "town": "北白川蔦町",
    "town_kana": "キタシラカワツタチョウ",
    "street": null,
    "office_name": null,
    "office_name_kana": null
  },
  "8263": {
    "postcode": "6068263",
    "prefecture": "京都府",
    "prefecture_kana": "キョウトフ",
    "prefecture_code": 26,
    "city": "京都市左京区",
    "city_kana": "キョウトシサキョウク",
    "town": "北白川東蔦町",
    "town_kana": "キタシラカワヒガシツタチョウ",
    "street": null,
    "office_name": null,
    "office_name_kana": null
  },
  "8264": {
    "postcode": "6068264",
    "prefecture": "京都府",
    "prefecture_kana": "キョウトフ",
    "prefecture_code": 26,
    "city": "京都市左京区",
    "city_kana": "キョウトシサキョウク",
    "town": "北白川小倉町",
    "town_kana": "キタシラカワオグラチョウ",
    "street": null,
    "office_name": null,
    "office_name_kana": null
  },
  "8265": {
    "postcode": "6068265",
    "prefecture": "京都府",
    "prefecture_kana": "キョウトフ",
    "prefecture_code": 26,
    "city": "京都市左京区",
    "city_kana": "キョウトシサキョウク",
    "town": "北白川東小倉町",
    "town_kana": "キタシラカワヒガシオグラチョウ",
    "street": null,
    "office_name": null,
    "office_name_kana": null
  },
  "8266": {
    "postcode": "6068266",
    "prefecture": "京都府",
    "prefecture_kana": "キョウトフ",
    "prefecture_code": 26,
    "city": "京都市左京区",
    "city_kana": "キョウトシサキョウク",
    "town": "北白川久保田町",
    "town_kana": "キタシラカワクボタチョウ",
    "street": null,
    "office_name": null,
    "office_name_kana": null
  },
  "8267": {
    "postcode": "6068267",
    "prefecture": "京都府",
    "prefecture_kana": "キョウトフ",
    "prefecture_code": 26,
    "city": "京都市左京区",
    "city_kana": "キョウトシサキョウク",
    "town": "北白川西町",
    "town_kana": "キタシラカワニシマチ",
    "street": null,
    "office_name": null,
    "office_name_kana": null
  },
  "8271": {
    "postcode": "6068271",
    "prefecture": "京都府",
    "prefecture_kana": "キョウトフ",
    "prefecture_code": 26,
    "city": "京都市左京区",
    "city_kana": "キョウトシサキョウク",
    "town": "北白川瓜生山町",
    "town_kana": "キタシラカワウリュウザンチョウ",
    "street": null,
    "office_name": null,
    "office_name_kana": null
  },
  "8272": {
    "postcode": "6068272",
    "prefecture": "京都府",
    "prefecture_kana": "キョウトフ",
    "prefecture_code": 26,
    "city": "京都市左京区",
    "city_kana": "キョウトシサキョウク",
    "town": "北白川山田町",
    "town_kana": "キタシラカワヤマダチョウ",
    "street": null,
    "office_name": null,
    "office_name_kana": null
  },
  "8273": {
    "postcode": "6068273",
    "prefecture": "京都府",
    "prefecture_kana": "キョウトフ",
    "prefecture_code": 26,
    "city": "京都市左京区",
    "city_kana": "キョウトシサキョウク",
    "town": "北白川山ノ元町",
    "town_kana": "キタシラカワヤマノモトチョウ",
    "street": null,
    "office_name": null,
    "office_name_kana": null
  },
  "8274": {
    "postcode": "6068274",
    "prefecture": "京都府",
    "prefecture_kana": "キョウトフ",
    "prefecture_code": 26,
    "city": "京都市左京区",
    "city_kana": "キョウトシサキョウク",
    "town": "北白川大堂町",
    "town_kana": "キタシラカワダイドウチョウ",
    "street": null,
    "office_name": null,
    "office_name_kana": null
  },
  "8275": {
    "postcode": "6068275",
    "prefecture": "京都府",
    "prefecture_kana": "キョウトフ",
    "prefecture_code": 26,
    "city": "京都市左京区",
    "city_kana": "キョウトシサキョウク",
    "town": "北白川上別当町",
    "town_kana": "キタシラカワカミベットウチョウ",
    "street": null,
    "office_name": null,
    "office_name_kana": null
  },
  "8276": {
    "postcode": "6068276",
    "prefecture": "京都府",
    "prefecture_kana": "キョウトフ",
    "prefecture_code": 26,
    "city": "京都市左京区",
    "city_kana": "キョウトシサキョウク",
    "town": "北白川別当町",
    "town_kana": "キタシラカワベットウチョウ",
    "street": null,
    "office_name": null,
    "office_name_kana": null
  },
  "8277": {
    "postcode": "6068277",
    "prefecture": "京都府",
    "prefecture_kana": "キョウトフ",
    "prefecture_code": 26,
    "city": "京都市左京区",
    "city_kana": "キョウトシサキョウク",
    "town": "北白川堂ノ前町",
    "town_kana": "キタシラカワドウノマエチョウ",
    "street": null,
    "office_name": null,
    "office_name_kana": null
  },
  "8281": {
    "postcode": "6068281",
    "prefecture": "京都府",
    "prefecture_kana": "キョウトフ",
    "prefecture_code": 26,
    "city": "京都市左京区",
    "city_kana": "キョウトシサキョウク",
    "town": "北白川丸山町",
    "town_kana": "キタシラカワマルヤマチョウ",
    "street": null,
    "office_name": null,
    "office_name_kana": null
  },
  "8282": {
    "postcode": "6068282",
    "prefecture": "京都府",
    "prefecture_kana": "キョウトフ",
    "prefecture_code": 26,
    "city": "京都市左京区",
    "city_kana": "キョウトシサキョウク",
    "town": "北白川外山町",
    "town_kana": "キタシラカワトヤマチョウ",
    "street": null,
    "office_name": null,
    "office_name_kana": null
  },
  "8283": {
    "postcode": "6068283",
    "prefecture": "京都府",
    "prefecture_kana": "キョウトフ",
    "prefecture_code": 26,
    "city": "京都市左京区",
    "city_kana": "キョウトシサキョウク",
    "town": "北白川仕伏町",
    "town_kana": "キタシラカワシブセチョウ",
    "street": null,
    "office_name": null,
    "office_name_kana": null
  },
  "8284": {
    "postcode": "6068284",
    "prefecture": "京都府",
    "prefecture_kana": "キョウトフ",
    "prefecture_code": 26,
    "city": "京都市左京区",
    "city_kana": "キョウトシサキョウク",
    "town": "北白川下池田町",
    "town_kana": "キタシラカワシモイケダチョウ",
    "street": null,
    "office_name": null,
    "office_name_kana": null
  },
  "8285": {
    "postcode": "6068285",
    "prefecture": "京都府",
    "prefecture_kana": "キョウトフ",
    "prefecture_code": 26,
    "city": "京都市左京区",
    "city_kana": "キョウトシサキョウク",
    "town": "北白川東久保田町",
    "town_kana": "キタシラカワヒガシクボタチョウ",
    "street": null,
    "office_name": null,
    "office_name_kana": null
  },
  "8286": {
    "postcode": "6068286",
    "prefecture": "京都府",
    "prefecture_kana": "キョウトフ",
    "prefecture_code": 26,
    "city": "京都市左京区",
    "city_kana": "キョウトシサキョウク",
    "town": "北白川下別当町",
    "town_kana": "キタシラカワシモベットウチョウ",
    "street": null,
    "office_name": null,
    "office_name_kana": null
  },
  "8287": {
    "postcode": "6068287",
    "prefecture": "京都府",
    "prefecture_kana": "キョウトフ",
    "prefecture_code": 26,
    "city": "京都市左京区",
    "city_kana": "キョウトシサキョウク",
    "town": "北白川上池田町",
    "town_kana": "キタシラカワカミイケダチョウ",
    "street": null,
    "office_name": null,
    "office_name_kana": null
  },
  "8291": {
    "postcode": "6068291",
    "prefecture": "京都府",
    "prefecture_kana": "キョウトフ",
    "prefecture_code": 26,
    "city": "京都市左京区",
    "city_kana": "キョウトシサキョウク",
    "town": "北白川岩坂町",
    "town_kana": "キタシラカワイワサカチョウ",
    "street": null,
    "office_name": null,
    "office_name_kana": null
  },
  "8292": {
    "postcode": "6068292",
    "prefecture": "京都府",
    "prefecture_kana": "キョウトフ",
    "prefecture_code": 26,
    "city": "京都市左京区",
    "city_kana": "キョウトシサキョウク",
    "town": "北白川重石町",
    "town_kana": "キタシラカワカサネイシチョウ",
    "street": null,
    "office_name": null,
    "office_name_kana": null
  },
  "8293": {
    "postcode": "6068293",
    "prefecture": "京都府",
    "prefecture_kana": "キョウトフ",
    "prefecture_code": 26,
    "city": "京都市左京区",
    "city_kana": "キョウトシサキョウク",
    "town": "北白川琵琶町",
    "town_kana": "キタシラカワビワチョウ",
    "street": null,
    "office_name": null,
    "office_name_kana": null
  },
  "8294": {
    "postcode": "6068294",
    "prefecture": "京都府",
    "prefecture_kana": "キョウトフ",
    "prefecture_code": 26,
    "city": "京都市左京区",
    "city_kana": "キョウトシサキョウク",
    "town": "北白川地蔵谷町",
    "town_kana": "キタシラカワジゾウダニチョウ",
    "street": null,
    "office_name": null,
    "office_name_kana": null
  },
  "8295": {
    "postcode": "6068295",
    "prefecture": "京都府",
    "prefecture_kana": "キョウトフ",
    "prefecture_code": 26,
    "city": "京都市左京区",
    "city_kana": "キョウトシサキョウク",
    "town": "北白川清沢口町",
    "town_kana": "キタシラカワキヨザワグチチョウ",
    "street": null,
    "office_name": null,
    "office_name_kana": null
  },
  "8301": {
    "postcode": "6068301",
    "prefecture": "京都府",
    "prefecture_kana": "キョウトフ",
    "prefecture_code": 26,
    "city": "京都市左京区",
    "city_kana": "キョウトシサキョウク",
    "town": "吉田泉殿町",
    "town_kana": "ヨシダイズミドノチョウ",
    "street": null,
    "office_name": null,
    "office_name_kana": null
  },
  "8302": {
    "postcode": "6068302",
    "prefecture": "京都府",
    "prefecture_kana": "キョウトフ",
    "prefecture_code": 26,
    "city": "京都市左京区",
    "city_kana": "キョウトシサキョウク",
    "town": "吉田牛ノ宮町",
    "town_kana": "ヨシダウシノミヤチョウ",
    "street": null,
    "office_name": null,
    "office_name_kana": null
  },
  "8303": {
    "postcode": "6068303",
    "prefecture": "京都府",
    "prefecture_kana": "キョウトフ",
    "prefecture_code": 26,
    "city": "京都市左京区",
    "city_kana": "キョウトシサキョウク",
    "town": "吉田橘町",
    "town_kana": "ヨシダタチバナチョウ",
    "street": null,
    "office_name": null,
    "office_name_kana": null
  },
  "8304": {
    "postcode": "6068304",
    "prefecture": "京都府",
    "prefecture_kana": "キョウトフ",
    "prefecture_code": 26,
    "city": "京都市左京区",
    "city_kana": "キョウトシサキョウク",
    "town": "吉田下阿達町",
    "town_kana": "ヨシダシモアダチチョウ",
    "street": null,
    "office_name": null,
    "office_name_kana": null
  },
  "8305": {
    "postcode": "6068305",
    "prefecture": "京都府",
    "prefecture_kana": "キョウトフ",
    "prefecture_code": 26,
    "city": "京都市左京区",
    "city_kana": "キョウトシサキョウク",
    "town": "吉田河原町",
    "town_kana": "ヨシダカワラチョウ",
    "street": null,
    "office_name": null,
    "office_name_kana": null
  },
  "8306": {
    "postcode": "6068306",
    "prefecture": "京都府",
    "prefecture_kana": "キョウトフ",
    "prefecture_code": 26,
    "city": "京都市左京区",
    "city_kana": "キョウトシサキョウク",
    "town": "吉田中阿達町",
    "town_kana": "ヨシダナカアダチチョウ",
    "street": null,
    "office_name": null,
    "office_name_kana": null
  },
  "8307": {
    "postcode": "6068307",
    "prefecture": "京都府",
    "prefecture_kana": "キョウトフ",
    "prefecture_code": 26,
    "city": "京都市左京区",
    "city_kana": "キョウトシサキョウク",
    "town": "吉田上阿達町",
    "town_kana": "ヨシダカミアダチチョウ",
    "street": null,
    "office_name": null,
    "office_name_kana": null
  },
  "8311": {
    "postcode": "6068311",
    "prefecture": "京都府",
    "prefecture_kana": "キョウトフ",
    "prefecture_code": 26,
    "city": "京都市左京区",
    "city_kana": "キョウトシサキョウク",
    "town": "吉田神楽岡町",
    "town_kana": "ヨシダカグラオカチョウ",
    "street": null,
    "office_name": null,
    "office_name_kana": null
  },
  "8312": {
    "postcode": "6068312",
    "prefecture": "京都府",
    "prefecture_kana": "キョウトフ",
    "prefecture_code": 26,
    "city": "京都市左京区",
    "city_kana": "キョウトシサキョウク",
    "town": "吉田上大路町",
    "town_kana": "ヨシダカミオオジチョウ",
    "street": null,
    "office_name": null,
    "office_name_kana": null
  },
  "8313": {
    "postcode": "6068313",
    "prefecture": "京都府",
    "prefecture_kana": "キョウトフ",
    "prefecture_code": 26,
    "city": "京都市左京区",
    "city_kana": "キョウトシサキョウク",
    "town": "吉田中大路町",
    "town_kana": "ヨシダナカオオジチョウ",
    "street": null,
    "office_name": null,
    "office_name_kana": null
  },
  "8314": {
    "postcode": "6068314",
    "prefecture": "京都府",
    "prefecture_kana": "キョウトフ",
    "prefecture_code": 26,
    "city": "京都市左京区",
    "city_kana": "キョウトシサキョウク",
    "town": "吉田下大路町",
    "town_kana": "ヨシダシモオオジチョウ",
    "street": null,
    "office_name": null,
    "office_name_kana": null
  },
  "8315": {
    "postcode": "6068315",
    "prefecture": "京都府",
    "prefecture_kana": "キョウトフ",
    "prefecture_code": 26,
    "city": "京都市左京区",
    "city_kana": "キョウトシサキョウク",
    "town": "吉田近衛町",
    "town_kana": "ヨシダコノエチョウ",
    "street": null,
    "office_name": null,
    "office_name_kana": null
  },
  "8316": {
    "postcode": "6068316",
    "prefecture": "京都府",
    "prefecture_kana": "キョウトフ",
    "prefecture_code": 26,
    "city": "京都市左京区",
    "city_kana": "キョウトシサキョウク",
    "town": "吉田二本松町",
    "town_kana": "ヨシダニホンマツチョウ",
    "street": null,
    "office_name": null,
    "office_name_kana": null
  },
  "8317": {
    "postcode": "6068317",
    "prefecture": "京都府",
    "prefecture_kana": "キョウトフ",
    "prefecture_code": 26,
    "city": "京都市左京区",
    "city_kana": "キョウトシサキョウク",
    "town": "吉田本町",
    "town_kana": "ヨシダホンマチ",
    "street": null,
    "office_name": null,
    "office_name_kana": null
  },
  "8321": {
    "postcode": "6068321",
    "prefecture": "京都府",
    "prefecture_kana": "キョウトフ",
    "prefecture_code": 26,
    "city": "京都市左京区",
    "city_kana": "キョウトシサキョウク",
    "town": "岡崎東福ノ川町",
    "town_kana": "オカザキヒガシフクノカワチョウ",
    "street": null,
    "office_name": null,
    "office_name_kana": null
  },
  "8322": {
    "postcode": "6068322",
    "prefecture": "京都府",
    "prefecture_kana": "キョウトフ",
    "prefecture_code": 26,
    "city": "京都市左京区",
    "city_kana": "キョウトシサキョウク",
    "town": "岡崎入江町",
    "town_kana": "オカザキイリエチョウ",
    "street": null,
    "office_name": null,
    "office_name_kana": null
  },
  "8323": {
    "postcode": "6068323",
    "prefecture": "京都府",
    "prefecture_kana": "キョウトフ",
    "prefecture_code": 26,
    "city": "京都市左京区",
    "city_kana": "キョウトシサキョウク",
    "town": "聖護院円頓美町",
    "town_kana": "ショウゴインエントミチョウ",
    "street": null,
    "office_name": null,
    "office_name_kana": null
  },
  "8324": {
    "postcode": "6068324",
    "prefecture": "京都府",
    "prefecture_kana": "キョウトフ",
    "prefecture_code": 26,
    "city": "京都市左京区",
    "city_kana": "キョウトシサキョウク",
    "town": "聖護院中町",
    "town_kana": "ショウゴインナカマチ",
    "street": null,
    "office_name": null,
    "office_name_kana": null
  },
  "8325": {
    "postcode": "6068325",
    "prefecture": "京都府",
    "prefecture_kana": "キョウトフ",
    "prefecture_code": 26,
    "city": "京都市左京区",
    "city_kana": "キョウトシサキョウク",
    "town": "聖護院東町",
    "town_kana": "ショウゴインヒガシマチ",
    "street": null,
    "office_name": null,
    "office_name_kana": null
  },
  "8326": {
    "postcode": "6068326",
    "prefecture": "京都府",
    "prefecture_kana": "キョウトフ",
    "prefecture_code": 26,
    "city": "京都市左京区",
    "city_kana": "キョウトシサキョウク",
    "town": "岡崎西福ノ川町",
    "town_kana": "オカザキニシフクノカワチョウ",
    "street": null,
    "office_name": null,
    "office_name_kana": null
  },
  "8331": {
    "postcode": "6068331",
    "prefecture": "京都府",
    "prefecture_kana": "キョウトフ",
    "prefecture_code": 26,
    "city": "京都市左京区",
    "city_kana": "キョウトシサキョウク",
    "town": "黒谷町",
    "town_kana": "クロダニチョウ",
    "street": null,
    "office_name": null,
    "office_name_kana": null
  },
  "8332": {
    "postcode": "6068332",
    "prefecture": "京都府",
    "prefecture_kana": "キョウトフ",
    "prefecture_code": 26,
    "city": "京都市左京区",
    "city_kana": "キョウトシサキョウク",
    "town": "岡崎東天王町",
    "town_kana": "オカザキヒガシテンノウチョウ",
    "street": null,
    "office_name": null,
    "office_name_kana": null
  },
  "8333": {
    "postcode": "6068333",
    "prefecture": "京都府",
    "prefecture_kana": "キョウトフ",
    "prefecture_code": 26,
    "city": "京都市左京区",
    "city_kana": "キョウトシサキョウク",
    "town": "岡崎法勝寺町",
    "town_kana": "オカザキホウショウジチョウ",
    "street": null,
    "office_name": null,
    "office_name_kana": null
  },
  "8334": {
    "postcode": "6068334",
    "prefecture": "京都府",
    "prefecture_kana": "キョウトフ",
    "prefecture_code": 26,
    "city": "京都市左京区",
    "city_kana": "キョウトシサキョウク",
    "town": "岡崎南御所町",
    "town_kana": "オカザキミナミゴショチョウ",
    "street": null,
    "office_name": null,
    "office_name_kana": null
  },
  "8335": {
    "postcode": "6068335",
    "prefecture": "京都府",
    "prefecture_kana": "キョウトフ",
    "prefecture_code": 26,
    "city": "京都市左京区",
    "city_kana": "キョウトシサキョウク",
    "town": "岡崎天王町",
    "town_kana": "オカザキテンノウチョウ",
    "street": null,
    "office_name": null,
    "office_name_kana": null
  },
  "8336": {
    "postcode": "6068336",
    "prefecture": "京都府",
    "prefecture_kana": "キョウトフ",
    "prefecture_code": 26,
    "city": "京都市左京区",
    "city_kana": "キョウトシサキョウク",
    "town": "岡崎北御所町",
    "town_kana": "オカザキキタゴショチョウ",
    "street": null,
    "office_name": null,
    "office_name_kana": null
  },
  "8341": {
    "postcode": "6068341",
    "prefecture": "京都府",
    "prefecture_kana": "キョウトフ",
    "prefecture_code": 26,
    "city": "京都市左京区",
    "city_kana": "キョウトシサキョウク",
    "town": "岡崎西天王町",
    "town_kana": "オカザキニシテンノウチョウ",
    "street": null,
    "office_name": null,
    "office_name_kana": null
  },
  "8342": {
    "postcode": "6068342",
    "prefecture": "京都府",
    "prefecture_kana": "キョウトフ",
    "prefecture_code": 26,
    "city": "京都市左京区",
    "city_kana": "キョウトシサキョウク",
    "town": "岡崎最勝寺町",
    "town_kana": "オカザキサイショウジチョウ",
    "street": null,
    "office_name": null,
    "office_name_kana": null
  },
  "8343": {
    "postcode": "6068343",
    "prefecture": "京都府",
    "prefecture_kana": "キョウトフ",
    "prefecture_code": 26,
    "city": "京都市左京区",
    "city_kana": "キョウトシサキョウク",
    "town": "岡崎成勝寺町",
    "town_kana": "オカザキセイショウジチョウ",
    "street": null,
    "office_name": null,
    "office_name_kana": null
  },
  "8344": {
    "postcode": "6068344",
    "prefecture": "京都府",
    "prefecture_kana": "キョウトフ",
    "prefecture_code": 26,
    "city": "京都市左京区",
    "city_kana": "キョウトシサキョウク",
    "town": "岡崎円勝寺町",
    "town_kana": "オカザキエンショウジチョウ",
    "street": null,
    "office_name": null,
    "office_name_kana": null
  },
  "8345": {
    "postcode": "6068345",
    "prefecture": "京都府",
    "prefecture_kana": "キョウトフ",
    "prefecture_code": 26,
    "city": "京都市左京区",
    "city_kana": "キョウトシサキョウク",
    "town": "東門前町",
    "town_kana": "ヒガシモンゼンチョウ",
    "street": null,
    "office_name": null,
    "office_name_kana": null
  },
  "8346": {
    "postcode": "6068346",
    "prefecture": "京都府",
    "prefecture_kana": "キョウトフ",
    "prefecture_code": 26,
    "city": "京都市左京区",
    "city_kana": "キョウトシサキョウク",
    "town": "南門前町",
    "town_kana": "ミナミモンゼンチョウ",
    "street": null,
    "office_name": null,
    "office_name_kana": null
  },
  "8351": {
    "postcode": "6068351",
    "prefecture": "京都府",
    "prefecture_kana": "キョウトフ",
    "prefecture_code": 26,
    "city": "京都市左京区",
    "city_kana": "キョウトシサキョウク",
    "town": "岡崎徳成町",
    "town_kana": "オカザキトクセイチョウ",
    "street": null,
    "office_name": null,
    "office_name_kana": null
  },
  "8352": {
    "postcode": "6068352",
    "prefecture": "京都府",
    "prefecture_kana": "キョウトフ",
    "prefecture_code": 26,
    "city": "京都市左京区",
    "city_kana": "キョウトシサキョウク",
    "town": "北門前町",
    "town_kana": "キタモンゼンチョウ",
    "street": null,
    "office_name": null,
    "office_name_kana": null
  },
  "8353": {
    "postcode": "6068353",
    "prefecture": "京都府",
    "prefecture_kana": "キョウトフ",
    "prefecture_code": 26,
    "city": "京都市左京区",
    "city_kana": "キョウトシサキョウク",
    "town": "正往寺町",
    "town_kana": "ショウオウジチョウ",
    "street": null,
    "office_name": null,
    "office_name_kana": null
  },
  "8354": {
    "postcode": "6068354",
    "prefecture": "京都府",
    "prefecture_kana": "キョウトフ",
    "prefecture_code": 26,
    "city": "京都市左京区",
    "city_kana": "キョウトシサキョウク",
    "town": "頭町",
    "town_kana": "カシラチョウ",
    "street": null,
    "office_name": null,
    "office_name_kana": null
  },
  "8355": {
    "postcode": "6068355",
    "prefecture": "京都府",
    "prefecture_kana": "キョウトフ",
    "prefecture_code": 26,
    "city": "京都市左京区",
    "city_kana": "キョウトシサキョウク",
    "town": "新東洞院町",
    "town_kana": "シンヒガシドウインチョウ",
    "street": null,
    "office_name": null,
    "office_name_kana": null
  },
  "8356": {
    "postcode": "6068356",
    "prefecture": "京都府",
    "prefecture_kana": "キョウトフ",
    "prefecture_code": 26,
    "city": "京都市左京区",
    "city_kana": "キョウトシサキョウク",
    "town": "石原町",
    "town_kana": "イシワラチョウ",
    "street": null,
    "office_name": null,
    "office_name_kana": null
  },
  "8357": {
    "postcode": "6068357",
    "prefecture": "京都府",
    "prefecture_kana": "キョウトフ",
    "prefecture_code": 26,
    "city": "京都市左京区",
    "city_kana": "キョウトシサキョウク",
    "town": "聖護院蓮華蔵町",
    "town_kana": "ショウゴインレンゲゾウチョウ",
    "street": null,
    "office_name": null,
    "office_name_kana": null
  },
  "8361": {
    "postcode": "6068361",
    "prefecture": "京都府",
    "prefecture_kana": "キョウトフ",
    "prefecture_code": 26,
    "city": "京都市左京区",
    "city_kana": "キョウトシサキョウク",
    "town": "福本町",
    "town_kana": "フクモトチョウ",
    "street": null,
    "office_name": null,
    "office_name_kana": null
  },
  "8362": {
    "postcode": "6068362",
    "prefecture": "京都府",
    "prefecture_kana": "キョウトフ",
    "prefecture_code": 26,
    "city": "京都市左京区",
    "city_kana": "キョウトシサキョウク",
    "town": "法皇寺町",
    "town_kana": "ホウオウジチョウ",
    "street": null,
    "office_name": null,
    "office_name_kana": null
  },
  "8363": {
    "postcode": "6068363",
    "prefecture": "京都府",
    "prefecture_kana": "キョウトフ",
    "prefecture_code": 26,
    "city": "京都市左京区",
    "city_kana": "キョウトシサキョウク",
    "town": "和国町",
    "town_kana": "ワコクチョウ",
    "street": null,
    "office_name": null,
    "office_name_kana": null
  },
  "8364": {
    "postcode": "6068364",
    "prefecture": "京都府",
    "prefecture_kana": "キョウトフ",
    "prefecture_code": 26,
    "city": "京都市左京区",
    "city_kana": "キョウトシサキョウク",
    "town": "菊鉾町",
    "town_kana": "キクホコチョウ",
    "street": null,
    "office_name": null,
    "office_name_kana": null
  },
  "8365": {
    "postcode": "6068365",
    "prefecture": "京都府",
    "prefecture_kana": "キョウトフ",
    "prefecture_code": 26,
    "city": "京都市左京区",
    "city_kana": "キョウトシサキョウク",
    "town": "讃州寺町",
    "town_kana": "サンシュウジチョウ",
    "street": null,
    "office_name": null,
    "office_name_kana": null
  },
  "8366": {
    "postcode": "6068366",
    "prefecture": "京都府",
    "prefecture_kana": "キョウトフ",
    "prefecture_code": 26,
    "city": "京都市左京区",
    "city_kana": "キョウトシサキョウク",
    "town": "超勝寺門前町",
    "town_kana": "チョウショウジモンゼンチョウ",
    "street": null,
    "office_name": null,
    "office_name_kana": null
  },
  "8371": {
    "postcode": "6068371",
    "prefecture": "京都府",
    "prefecture_kana": "キョウトフ",
    "prefecture_code": 26,
    "city": "京都市左京区",
    "city_kana": "キョウトシサキョウク",
    "town": "秋築町",
    "town_kana": "アキツキチョウ",
    "street": null,
    "office_name": null,
    "office_name_kana": null
  },
  "8372": {
    "postcode": "6068372",
    "prefecture": "京都府",
    "prefecture_kana": "キョウトフ",
    "prefecture_code": 26,
    "city": "京都市左京区",
    "city_kana": "キョウトシサキョウク",
    "town": "吉永町",
    "town_kana": "ヨシナガチョウ",
    "street": null,
    "office_name": null,
    "office_name_kana": null
  },
  "8373": {
    "postcode": "6068373",
    "prefecture": "京都府",
    "prefecture_kana": "キョウトフ",
    "prefecture_code": 26,
    "city": "京都市左京区",
    "city_kana": "キョウトシサキョウク",
    "town": "杉本町",
    "town_kana": "スギモトチョウ",
    "street": null,
    "office_name": null,
    "office_name_kana": null
  },
  "8374": {
    "postcode": "6068374",
    "prefecture": "京都府",
    "prefecture_kana": "キョウトフ",
    "prefecture_code": 26,
    "city": "京都市左京区",
    "city_kana": "キョウトシサキョウク",
    "town": "難波町",
    "town_kana": "ナンバチョウ",
    "street": null,
    "office_name": null,
    "office_name_kana": null
  },
  "8375": {
    "postcode": "6068375",
    "prefecture": "京都府",
    "prefecture_kana": "キョウトフ",
    "prefecture_code": 26,
    "city": "京都市左京区",
    "city_kana": "キョウトシサキョウク",
    "town": "新車屋町",
    "town_kana": "シンクルマヤチョウ",
    "street": null,
    "office_name": null,
    "office_name_kana": null
  },
  "8376": {
    "postcode": "6068376",
    "prefecture": "京都府",
    "prefecture_kana": "キョウトフ",
    "prefecture_code": 26,
    "city": "京都市左京区",
    "city_kana": "キョウトシサキョウク",
    "town": "大菊町",
    "town_kana": "オオキクチョウ",
    "street": null,
    "office_name": null,
    "office_name_kana": null
  },
  "8381": {
    "postcode": "6068381",
    "prefecture": "京都府",
    "prefecture_kana": "キョウトフ",
    "prefecture_code": 26,
    "city": "京都市左京区",
    "city_kana": "キョウトシサキョウク",
    "town": "中川町",
    "town_kana": "ナカガワチョウ",
    "street": null,
    "office_name": null,
    "office_name_kana": null
  },
  "8382": {
    "postcode": "6068382",
    "prefecture": "京都府",
    "prefecture_kana": "キョウトフ",
    "prefecture_code": 26,
    "city": "京都市左京区",
    "city_kana": "キョウトシサキョウク",
    "town": "大文字町",
    "town_kana": "ダイモンジチョウ",
    "street": null,
    "office_name": null,
    "office_name_kana": null
  },
  "8383": {
    "postcode": "6068383",
    "prefecture": "京都府",
    "prefecture_kana": "キョウトフ",
    "prefecture_code": 26,
    "city": "京都市左京区",
    "city_kana": "キョウトシサキョウク",
    "town": "新先斗町",
    "town_kana": "シンポントチョウ",
    "street": null,
    "office_name": null,
    "office_name_kana": null
  },
  "8384": {
    "postcode": "6068384",
    "prefecture": "京都府",
    "prefecture_kana": "キョウトフ",
    "prefecture_code": 26,
    "city": "京都市左京区",
    "city_kana": "キョウトシサキョウク",
    "town": "新生洲町",
    "town_kana": "シンイケスチョウ",
    "street": null,
    "office_name": null,
    "office_name_kana": null
  },
  "8385": {
    "postcode": "6068385",
    "prefecture": "京都府",
    "prefecture_kana": "キョウトフ",
    "prefecture_code": 26,
    "city": "京都市左京区",
    "city_kana": "キョウトシサキョウク",
    "town": "孫橋町",
    "town_kana": "マゴハシチョウ",
    "street": null,
    "office_name": null,
    "office_name_kana": null
  },
  "8386": {
    "postcode": "6068386",
    "prefecture": "京都府",
    "prefecture_kana": "キョウトフ",
    "prefecture_code": 26,
    "city": "京都市左京区",
    "city_kana": "キョウトシサキョウク",
    "town": "新丸太町",
    "town_kana": "シンマルタチョウ",
    "street": null,
    "office_name": null,
    "office_name_kana": null
  },
  "8387": {
    "postcode": "6068387",
    "prefecture": "京都府",
    "prefecture_kana": "キョウトフ",
    "prefecture_code": 26,
    "city": "京都市左京区",
    "city_kana": "キョウトシサキョウク",
    "town": "法林寺門前町",
    "town_kana": "ホウリンジモンゼンチョウ",
    "street": null,
    "office_name": null,
    "office_name_kana": null
  },
  "8391": {
    "postcode": "6068391",
    "prefecture": "京都府",
    "prefecture_kana": "キョウトフ",
    "prefecture_code": 26,
    "city": "京都市左京区",
    "city_kana": "キョウトシサキョウク",
    "town": "聖護院西町",
    "town_kana": "ショウゴインニシマチ",
    "street": null,
    "office_name": null,
    "office_name_kana": null
  },
  "8392": {
    "postcode": "6068392",
    "prefecture": "京都府",
    "prefecture_kana": "キョウトフ",
    "prefecture_code": 26,
    "city": "京都市左京区",
    "city_kana": "キョウトシサキョウク",
    "town": "聖護院山王町",
    "town_kana": "ショウゴインサンノウチョウ",
    "street": null,
    "office_name": null,
    "office_name_kana": null
  },
  "8393": {
    "postcode": "6068393",
    "prefecture": "京都府",
    "prefecture_kana": "キョウトフ",
    "prefecture_code": 26,
    "city": "京都市左京区",
    "city_kana": "キョウトシサキョウク",
    "town": "東竹屋町",
    "town_kana": "ヒガシタケヤチョウ",
    "street": null,
    "office_name": null,
    "office_name_kana": null
  },
  "8394": {
    "postcode": "6068394",
    "prefecture": "京都府",
    "prefecture_kana": "キョウトフ",
    "prefecture_code": 26,
    "city": "京都市左京区",
    "city_kana": "キョウトシサキョウク",
    "town": "聖護院東寺領町",
    "town_kana": "ショウゴインヒガシジリョウチョウ",
    "street": null,
    "office_name": null,
    "office_name_kana": null
  },
  "8395": {
    "postcode": "6068395",
    "prefecture": "京都府",
    "prefecture_kana": "キョウトフ",
    "prefecture_code": 26,
    "city": "京都市左京区",
    "city_kana": "キョウトシサキョウク",
    "town": "東丸太町",
    "town_kana": "ヒガシマルタチョウ",
    "street": null,
    "office_name": null,
    "office_name_kana": null
  },
  "8396": {
    "postcode": "6068396",
    "prefecture": "京都府",
    "prefecture_kana": "キョウトフ",
    "prefecture_code": 26,
    "city": "京都市左京区",
    "city_kana": "キョウトシサキョウク",
    "town": "下堤町",
    "town_kana": "シモツツミチョウ",
    "street": null,
    "office_name": null,
    "office_name_kana": null
  },
  "8397": {
    "postcode": "6068397",
    "prefecture": "京都府",
    "prefecture_kana": "キョウトフ",
    "prefecture_code": 26,
    "city": "京都市左京区",
    "city_kana": "キョウトシサキョウク",
    "town": "聖護院川原町",
    "town_kana": "ショウゴインカワハラチョウ",
    "street": null,
    "office_name": null,
    "office_name_kana": null
  },
  "8401": {
    "postcode": "6068401",
    "prefecture": "京都府",
    "prefecture_kana": "キョウトフ",
    "prefecture_code": 26,
    "city": "京都市左京区",
    "city_kana": "キョウトシサキョウク",
    "town": "浄土寺小山町",
    "town_kana": "ジョウドジコヤマチョウ",
    "street": null,
    "office_name": null,
    "office_name_kana": null
  },
  "8402": {
    "postcode": "6068402",
    "prefecture": "京都府",
    "prefecture_kana": "キョウトフ",
    "prefecture_code": 26,
    "city": "京都市左京区",
    "city_kana": "キョウトシサキョウク",
    "town": "銀閣寺町",
    "town_kana": "ギンカクジチョウ",
    "street": null,
    "office_name": null,
    "office_name_kana": null
  },
  "8403": {
    "postcode": "6068403",
    "prefecture": "京都府",
    "prefecture_kana": "キョウトフ",
    "prefecture_code": 26,
    "city": "京都市左京区",
    "city_kana": "キョウトシサキョウク",
    "town": "浄土寺南田町",
    "town_kana": "ジョウドジミナミダチョウ",
    "street": null,
    "office_name": null,
    "office_name_kana": null
  },
  "8404": {
    "postcode": "6068404",
    "prefecture": "京都府",
    "prefecture_kana": "キョウトフ",
    "prefecture_code": 26,
    "city": "京都市左京区",
    "city_kana": "キョウトシサキョウク",
    "town": "浄土寺下南田町",
    "town_kana": "ジョウドジシモミナミダチョウ",
    "street": null,
    "office_name": null,
    "office_name_kana": null
  },
  "8405": {
    "postcode": "6068405",
    "prefecture": "京都府",
    "prefecture_kana": "キョウトフ",
    "prefecture_code": 26,
    "city": "京都市左京区",
    "city_kana": "キョウトシサキョウク",
    "town": "浄土寺上南田町",
    "town_kana": "ジョウドジカミミナミダチョウ",
    "street": null,
    "office_name": null,
    "office_name_kana": null
  },
  "8406": {
    "postcode": "6068406",
    "prefecture": "京都府",
    "prefecture_kana": "キョウトフ",
    "prefecture_code": 26,
    "city": "京都市左京区",
    "city_kana": "キョウトシサキョウク",
    "town": "浄土寺石橋町",
    "town_kana": "ジョウドジイシバシチョウ",
    "street": null,
    "office_name": null,
    "office_name_kana": null
  },
  "8407": {
    "postcode": "6068407",
    "prefecture": "京都府",
    "prefecture_kana": "キョウトフ",
    "prefecture_code": 26,
    "city": "京都市左京区",
    "city_kana": "キョウトシサキョウク",
    "town": "銀閣寺前町",
    "town_kana": "ギンカクジマエチョウ",
    "street": null,
    "office_name": null,
    "office_name_kana": null
  },
  "8411": {
    "postcode": "6068411",
    "prefecture": "京都府",
    "prefecture_kana": "キョウトフ",
    "prefecture_code": 26,
    "city": "京都市左京区",
    "city_kana": "キョウトシサキョウク",
    "town": "浄土寺東田町",
    "town_kana": "ジョウドジヒガシダチョウ",
    "street": null,
    "office_name": null,
    "office_name_kana": null
  },
  "8412": {
    "postcode": "6068412",
    "prefecture": "京都府",
    "prefecture_kana": "キョウトフ",
    "prefecture_code": 26,
    "city": "京都市左京区",
    "city_kana": "キョウトシサキョウク",
    "town": "浄土寺馬場町",
    "town_kana": "ジョウドジバンバチョウ",
    "street": null,
    "office_name": null,
    "office_name_kana": null
  },
  "8413": {
    "postcode": "6068413",
    "prefecture": "京都府",
    "prefecture_kana": "キョウトフ",
    "prefecture_code": 26,
    "city": "京都市左京区",
    "city_kana": "キョウトシサキョウク",
    "town": "浄土寺下馬場町",
    "town_kana": "ジョウドジシモバンバチョウ",
    "street": null,
    "office_name": null,
    "office_name_kana": null
  },
  "8414": {
    "postcode": "6068414",
    "prefecture": "京都府",
    "prefecture_kana": "キョウトフ",
    "prefecture_code": 26,
    "city": "京都市左京区",
    "city_kana": "キョウトシサキョウク",
    "town": "浄土寺真如町",
    "town_kana": "ジョウドジシンニョチョウ",
    "street": null,
    "office_name": null,
    "office_name_kana": null
  },
  "8415": {
    "postcode": "6068415",
    "prefecture": "京都府",
    "prefecture_kana": "キョウトフ",
    "prefecture_code": 26,
    "city": "京都市左京区",
    "city_kana": "キョウトシサキョウク",
    "town": "岡崎真如堂前町",
    "town_kana": "オカザキシンニョドウマエチョウ",
    "street": null,
    "office_name": null,
    "office_name_kana": null
  },
  "8416": {
    "postcode": "6068416",
    "prefecture": "京都府",
    "prefecture_kana": "キョウトフ",
    "prefecture_code": 26,
    "city": "京都市左京区",
    "city_kana": "キョウトシサキョウク",
    "town": "浄土寺上馬場町",
    "town_kana": "ジョウドジカミバンバチョウ",
    "street": null,
    "office_name": null,
    "office_name_kana": null
  },
  "8417": {
    "postcode": "6068417",
    "prefecture": "京都府",
    "prefecture_kana": "キョウトフ",
    "prefecture_code": 26,
    "city": "京都市左京区",
    "city_kana": "キョウトシサキョウク",
    "town": "浄土寺西田町",
    "town_kana": "ジョウドジニシダチョウ",
    "street": null,
    "office_name": null,
    "office_name_kana": null
  },
  "8421": {
    "postcode": "6068421",
    "prefecture": "京都府",
    "prefecture_kana": "キョウトフ",
    "prefecture_code": 26,
    "city": "京都市左京区",
    "city_kana": "キョウトシサキョウク",
    "town": "鹿ケ谷法然院町",
    "town_kana": "シシガタニホウネンインチョウ",
    "street": null,
    "office_name": null,
    "office_name_kana": null
  },
  "8422": {
    "postcode": "6068422",
    "prefecture": "京都府",
    "prefecture_kana": "キョウトフ",
    "prefecture_code": 26,
    "city": "京都市左京区",
    "city_kana": "キョウトシサキョウク",
    "town": "鹿ケ谷御所ノ段町",
    "town_kana": "シシガタニゴショノダンチョウ",
    "street": null,
    "office_name": null,
    "office_name_kana": null
  },
  "8423": {
    "postcode": "6068423",
    "prefecture": "京都府",
    "prefecture_kana": "キョウトフ",
    "prefecture_code": 26,
    "city": "京都市左京区",
    "city_kana": "キョウトシサキョウク",
    "town": "鹿ケ谷桜谷町",
    "town_kana": "シシガタニサクラダニチョウ",
    "street": null,
    "office_name": null,
    "office_name_kana": null
  },
  "8424": {
    "postcode": "6068424",
    "prefecture": "京都府",
    "prefecture_kana": "キョウトフ",
    "prefecture_code": 26,
    "city": "京都市左京区",
    "city_kana": "キョウトシサキョウク",
    "town": "鹿ケ谷宮ノ前町",
    "town_kana": "シシガタニミヤノマエチョウ",
    "street": null,
    "office_name": null,
    "office_name_kana": null
  },
  "8425": {
    "postcode": "6068425",
    "prefecture": "京都府",
    "prefecture_kana": "キョウトフ",
    "prefecture_code": 26,
    "city": "京都市左京区",
    "city_kana": "キョウトシサキョウク",
    "town": "鹿ケ谷西寺ノ前町",
    "town_kana": "シシガタニニシテラノマエチョウ",
    "street": null,
    "office_name": null,
    "office_name_kana": null
  },
  "8426": {
    "postcode": "6068426",
    "prefecture": "京都府",
    "prefecture_kana": "キョウトフ",
    "prefecture_code": 26,
    "city": "京都市左京区",
    "city_kana": "キョウトシサキョウク",
    "town": "鹿ケ谷寺ノ前町",
    "town_kana": "シシガタニテラノマエチョウ",
    "street": null,
    "office_name": null,
    "office_name_kana": null
  },
  "8427": {
    "postcode": "6068427",
    "prefecture": "京都府",
    "prefecture_kana": "キョウトフ",
    "prefecture_code": 26,
    "city": "京都市左京区",
    "city_kana": "キョウトシサキョウク",
    "town": "鹿ケ谷法然院西町",
    "town_kana": "シシガタニホウネンインニシマチ",
    "street": null,
    "office_name": null,
    "office_name_kana": null
  },
  "8428": {
    "postcode": "6068428",
    "prefecture": "京都府",
    "prefecture_kana": "キョウトフ",
    "prefecture_code": 26,
    "city": "京都市左京区",
    "city_kana": "キョウトシサキョウク",
    "town": "鹿ケ谷栗木谷町",
    "town_kana": "シシガタニクリキタニチョウ",
    "street": null,
    "office_name": null,
    "office_name_kana": null
  },
  "8431": {
    "postcode": "6068431",
    "prefecture": "京都府",
    "prefecture_kana": "キョウトフ",
    "prefecture_code": 26,
    "city": "京都市左京区",
    "city_kana": "キョウトシサキョウク",
    "town": "鹿ケ谷下宮ノ前町",
    "town_kana": "シシガタニシモミヤノマエチョウ",
    "street": null,
    "office_name": null,
    "office_name_kana": null
  },
  "8432": {
    "postcode": "6068432",
    "prefecture": "京都府",
    "prefecture_kana": "キョウトフ",
    "prefecture_code": 26,
    "city": "京都市左京区",
    "city_kana": "キョウトシサキョウク",
    "town": "鹿ケ谷高岸町",
    "town_kana": "シシガタニタカギシチョウ",
    "street": null,
    "office_name": null,
    "office_name_kana": null
  },
  "8433": {
    "postcode": "6068433",
    "prefecture": "京都府",
    "prefecture_kana": "キョウトフ",
    "prefecture_code": 26,
    "city": "京都市左京区",
    "city_kana": "キョウトシサキョウク",
    "town": "永観堂西町",
    "town_kana": "エイカンドウニシマチ",
    "street": null,
    "office_name": null,
    "office_name_kana": null
  },
  "8434": {
    "postcode": "6068434",
    "prefecture": "京都府",
    "prefecture_kana": "キョウトフ",
    "prefecture_code": 26,
    "city": "京都市左京区",
    "city_kana": "キョウトシサキョウク",
    "town": "南禅寺下河原町",
    "town_kana": "ナンゼンジシモカワラチョウ",
    "street": null,
    "office_name": null,
    "office_name_kana": null
  },
  "8435": {
    "postcode": "6068435",
    "prefecture": "京都府",
    "prefecture_kana": "キョウトフ",
    "prefecture_code": 26,
    "city": "京都市左京区",
    "city_kana": "キョウトシサキョウク",
    "town": "南禅寺福地町",
    "town_kana": "ナンゼンジフクチチョウ",
    "street": null,
    "office_name": null,
    "office_name_kana": null
  },
  "8436": {
    "postcode": "6068436",
    "prefecture": "京都府",
    "prefecture_kana": "キョウトフ",
    "prefecture_code": 26,
    "city": "京都市左京区",
    "city_kana": "キョウトシサキョウク",
    "town": "粟田口鳥居町",
    "town_kana": "アワタグチトリイチョウ",
    "street": null,
    "office_name": null,
    "office_name_kana": null
  },
  "8437": {
    "postcode": "6068437",
    "prefecture": "京都府",
    "prefecture_kana": "キョウトフ",
    "prefecture_code": 26,
    "city": "京都市左京区",
    "city_kana": "キョウトシサキョウク",
    "town": "南禅寺草川町",
    "town_kana": "ナンゼンジクサガワチョウ",
    "street": null,
    "office_name": null,
    "office_name_kana": null
  },
  "8441": {
    "postcode": "6068441",
    "prefecture": "京都府",
    "prefecture_kana": "キョウトフ",
    "prefecture_code": 26,
    "city": "京都市左京区",
    "city_kana": "キョウトシサキョウク",
    "town": "鹿ケ谷徳善谷町",
    "town_kana": "シシガタニトクゼンダニチョウ",
    "street": null,
    "office_name": null,
    "office_name_kana": null
  },
  "8442": {
    "postcode": "6068442",
    "prefecture": "京都府",
    "prefecture_kana": "キョウトフ",
    "prefecture_code": 26,
    "city": "京都市左京区",
    "city_kana": "キョウトシサキョウク",
    "town": "鹿ケ谷大黒谷町",
    "town_kana": "シシガタニダイコクダニチョウ",
    "street": null,
    "office_name": null,
    "office_name_kana": null
  },
  "8443": {
    "postcode": "6068443",
    "prefecture": "京都府",
    "prefecture_kana": "キョウトフ",
    "prefecture_code": 26,
    "city": "京都市左京区",
    "city_kana": "キョウトシサキョウク",
    "town": "粟田口山下町",
    "town_kana": "アワタグチヤマシタチョウ",
    "street": null,
    "office_name": null,
    "office_name_kana": null
  },
  "8444": {
    "postcode": "6068444",
    "prefecture": "京都府",
    "prefecture_kana": "キョウトフ",
    "prefecture_code": 26,
    "city": "京都市左京区",
    "city_kana": "キョウトシサキョウク",
    "town": "若王子町",
    "town_kana": "ニャクオウジチョウ",
    "street": null,
    "office_name": null,
    "office_name_kana": null
  },
  "8445": {
    "postcode": "6068445",
    "prefecture": "京都府",
    "prefecture_kana": "キョウトフ",
    "prefecture_code": 26,
    "city": "京都市左京区",
    "city_kana": "キョウトシサキョウク",
    "town": "永観堂町",
    "town_kana": "エイカンドウチョウ",
    "street": null,
    "office_name": null,
    "office_name_kana": null
  },
  "8446": {
    "postcode": "6068446",
    "prefecture": "京都府",
    "prefecture_kana": "キョウトフ",
    "prefecture_code": 26,
    "city": "京都市左京区",
    "city_kana": "キョウトシサキョウク",
    "town": "南禅寺北ノ坊町",
    "town_kana": "ナンゼンジキタノボウチョウ",
    "street": null,
    "office_name": null,
    "office_name_kana": null
  },
  "8447": {
    "postcode": "6068447",
    "prefecture": "京都府",
    "prefecture_kana": "キョウトフ",
    "prefecture_code": 26,
    "city": "京都市左京区",
    "city_kana": "キョウトシサキョウク",
    "town": "鹿ケ谷上宮ノ前町",
    "town_kana": "シシガタニカミミヤノマエチョウ",
    "street": null,
    "office_name": null,
    "office_name_kana": null
  },
  "8451": {
    "postcode": "6068451",
    "prefecture": "京都府",
    "prefecture_kana": "キョウトフ",
    "prefecture_code": 26,
    "city": "京都市左京区",
    "city_kana": "キョウトシサキョウク",
    "town": "北白川中山町",
    "town_kana": "キタシラカワナカヤマチョウ",
    "street": null,
    "office_name": null,
    "office_name_kana": null
  },
  "8452": {
    "postcode": "6068452",
    "prefecture": "京都府",
    "prefecture_kana": "キョウトフ",
    "prefecture_code": 26,
    "city": "京都市左京区",
    "city_kana": "キョウトシサキョウク",
    "town": "粟田口如意ケ嶽町",
    "town_kana": "アワタグチニョイガタケチョウ",
    "street": null,
    "office_name": null,
    "office_name_kana": null
  },
  "8453": {
    "postcode": "6068453",
    "prefecture": "京都府",
    "prefecture_kana": "キョウトフ",
    "prefecture_code": 26,
    "city": "京都市左京区",
    "city_kana": "キョウトシサキョウク",
    "town": "北白川南ケ原町",
    "town_kana": "キタシラカワミナミガハラチョウ",
    "street": null,
    "office_name": null,
    "office_name_kana": null
  },
  "8454": {
    "postcode": "6068454",
    "prefecture": "京都府",
    "prefecture_kana": "キョウトフ",
    "prefecture_code": 26,
    "city": "京都市左京区",
    "city_kana": "キョウトシサキョウク",
    "town": "北白川向ケ谷町",
    "town_kana": "キタシラカワムコウガダニチョウ",
    "street": null,
    "office_name": null,
    "office_name_kana": null
  },
  "8455": {
    "postcode": "6068455",
    "prefecture": "京都府",
    "prefecture_kana": "キョウトフ",
    "prefecture_code": 26,
    "city": "京都市左京区",
    "city_kana": "キョウトシサキョウク",
    "town": "北白川小亀谷町",
    "town_kana": "キタシラカワコガメダニチョウ",
    "street": null,
    "office_name": null,
    "office_name_kana": null
  },
  "8501": {
    "postcode": "6068501",
    "prefecture": "京都府",
    "prefecture_kana": "キョウトフ",
    "prefecture_code": 26,
    "city": "京都市左京区",
    "city_kana": "キョウトシサキョウク",
    "town": "吉田本町",
    "town_kana": "ヨシダホンマチ",
    "street": "",
    "office_name": "京都大学",
    "office_name_kana": "キヨウトダイガク"
  },
  "8502": {
    "postcode": "6068502",
    "prefecture": "京都府",
    "prefecture_kana": "キョウトフ",
    "prefecture_code": 26,
    "city": "京都市左京区",
    "city_kana": "キョウトシサキョウク",
    "town": "北白川追分町",
    "town_kana": "キタシラカワオイワケチョウ",
    "street": "",
    "office_name": "京都大学農学部、農学部附属演習林、大学院理学研究科、理学部、基礎物理学研究所、数理解析研究所",
    "office_name_kana": "キヨウトダイガクノウガクブ.ノウガクブフゾクエンシユウリン.ダイガクインリガクケンキユウカ.リガクブ.キソブツリガクケンキユウジヨ.スウリカイセキケンキユウジヨ"
  },
  "8505": {
    "postcode": "6068505",
    "prefecture": "京都府",
    "prefecture_kana": "キョウトフ",
    "prefecture_code": 26,
    "city": "京都市左京区",
    "city_kana": "キョウトシサキョウク",
    "town": "岩倉幡枝町",
    "town_kana": "イワクラハタエダチョウ",
    "street": "１０９２−２",
    "office_name": "京都宝ヶ池プリンスホテル",
    "office_name_kana": "キヨウトタカラガイケプリンスホテル"
  },
  "8507": {
    "postcode": "6068507",
    "prefecture": "京都府",
    "prefecture_kana": "キョウトフ",
    "prefecture_code": 26,
    "city": "京都市左京区",
    "city_kana": "キョウトシサキョウク",
    "town": "聖護院川原町",
    "town_kana": "ショウゴインカワハラチョウ",
    "street": "",
    "office_name": "京都大学医学部附属病院、胸部疾患研究所、ウイルス研究所、生体医療工学研究センター、遺伝子実験施設、医療技術短期大学部",
    "office_name_kana": "キヨウトダイガクイガクブフゾクビヨウイン、キヨウブシツカンケンキユウジヨ.ウイルスケンキユウジヨ、セイタイイリヨウコウガクケンキユウセンタ-.イデンシジツケンシセツ、イリヨウキ"
  },
  "8511": {
    "postcode": "6068511",
    "prefecture": "京都府",
    "prefecture_kana": "キョウトフ",
    "prefecture_code": 26,
    "city": "京都市左京区",
    "city_kana": "キョウトシサキョウク",
    "town": "松ケ崎堂ノ上町",
    "town_kana": "マツガサキドウノウエチョウ",
    "street": "７番地の２",
    "office_name": "京都市左京区役所",
    "office_name_kana": "キヨウトシサキヨウクヤクシヨ"
  },
  "8522": {
    "postcode": "6068522",
    "prefecture": "京都府",
    "prefecture_kana": "キョウトフ",
    "prefecture_code": 26,
    "city": "京都市左京区",
    "city_kana": "キョウトシサキョウク",
    "town": "下鴨半木町",
    "town_kana": "シモガモハンギチョウ",
    "street": "１−５",
    "office_name": "京都府立大学",
    "office_name_kana": "キヨウトフリツダイガク"
  },
  "8536": {
    "postcode": "6068536",
    "prefecture": "京都府",
    "prefecture_kana": "キョウトフ",
    "prefecture_code": 26,
    "city": "京都市左京区",
    "city_kana": "キョウトシサキョウク",
    "town": "粟田口鳥居町",
    "town_kana": "アワタグチトリイチョウ",
    "street": "２−１",
    "office_name": "（財）　京都市国際交流協会",
    "office_name_kana": "(ザイ) キヨウトシコクサイコウリユウキヨウカイ"
  },
  "8540": {
    "postcode": "6068540",
    "prefecture": "京都府",
    "prefecture_kana": "キョウトフ",
    "prefecture_code": 26,
    "city": "京都市左京区",
    "city_kana": "キョウトシサキョウク",
    "town": "下鴨高木町",
    "town_kana": "シモガモタカギチョウ",
    "street": "３８−２",
    "office_name": "北斗プリント社",
    "office_name_kana": "ホクトプリントシヤ"
  },
  "8555": {
    "postcode": "6068555",
    "prefecture": "京都府",
    "prefecture_kana": "キョウトフ",
    "prefecture_code": 26,
    "city": "京都市左京区",
    "city_kana": "キョウトシサキョウク",
    "town": "聖護院円頓美町",
    "town_kana": "ショウゴインエントミチョウ",
    "street": "１８",
    "office_name": "左京税務署",
    "office_name_kana": "サキヨウゼイムシヨ"
  },
  "8558": {
    "postcode": "6068558",
    "prefecture": "京都府",
    "prefecture_kana": "キョウトフ",
    "prefecture_code": 26,
    "city": "京都市左京区",
    "city_kana": "キョウトシサキョウク",
    "town": "岩倉大鷺町",
    "town_kana": "イワクラオオサギチョウ",
    "street": "８９",
    "office_name": "同志社中学校・高等学校",
    "office_name_kana": "ドウシシヤチユウガツコウ・コウトウガツコウ"
  },
  "8585": {
    "postcode": "6068585",
    "prefecture": "京都府",
    "prefecture_kana": "キョウトフ",
    "prefecture_code": 26,
    "city": "京都市左京区",
    "city_kana": "キョウトシサキョウク",
    "town": "松ケ崎橋上町",
    "town_kana": "マツガサキハシカミチョウ",
    "street": "",
    "office_name": "京都工芸繊維大学",
    "office_name_kana": "キヨウトコウゲイセンイダイガク"
  },
  "8588": {
    "postcode": "6068588",
    "prefecture": "京都府",
    "prefecture_kana": "キョウトフ",
    "prefecture_code": 26,
    "city": "京都市左京区",
    "city_kana": "キョウトシサキョウク",
    "town": "岩倉木野町",
    "town_kana": "イワクラキノチョウ",
    "street": "１３７",
    "office_name": "京都精華大学",
    "office_name_kana": "キヨウトセイカダイガク"
  }
}