{
  "0000": {
    "postcode": "6070000",
    "prefecture": "京都府",
    "prefecture_kana": "キョウトフ",
    "prefecture_code": 26,
    "city": "京都市山科区",
    "city_kana": "キョウトシヤマシナク",
    "town": "",
    "town_kana": "",
    "street": null,
    "office_name": null,
    "office_name_kana": null
  },
  "8001": {
    "postcode": "6078001",
    "prefecture": "京都府",
    "prefecture_kana": "キョウトフ",
    "prefecture_code": 26,
    "city": "京都市山科区",
    "city_kana": "キョウトシヤマシナク",
    "town": "安朱毘沙門堂町",
    "town_kana": "アンシュビシャモンドウチョウ",
    "street": null,
    "office_name": null,
    "office_name_kana": null
  },
  "8002": {
    "postcode": "6078002",
    "prefecture": "京都府",
    "prefecture_kana": "キョウトフ",
    "prefecture_code": 26,
    "city": "京都市山科区",
    "city_kana": "キョウトシヤマシナク",
    "town": "安朱東谷",
    "town_kana": "アンシュヒガシダニ",
    "street": null,
    "office_name": null,
    "office_name_kana": null
  },
  "8003": {
    "postcode": "6078003",
    "prefecture": "京都府",
    "prefecture_kana": "キョウトフ",
    "prefecture_code": 26,
    "city": "京都市山科区",
    "city_kana": "キョウトシヤマシナク",
    "town": "安朱稲荷山町",
    "town_kana": "アンシュイナリヤマチョウ",
    "street": null,
    "office_name": null,
    "office_name_kana": null
  },
  "8004": {
    "postcode": "6078004",
    "prefecture": "京都府",
    "prefecture_kana": "キョウトフ",
    "prefecture_code": 26,
    "city": "京都市山科区",
    "city_kana": "キョウトシヤマシナク",
    "town": "安朱屋敷町",
    "town_kana": "アンシュヤシキチョウ",
    "street": null,
    "office_name": null,
    "office_name_kana": null
  },
  "8005": {
    "postcode": "6078005",
    "prefecture": "京都府",
    "prefecture_kana": "キョウトフ",
    "prefecture_code": 26,
    "city": "京都市山科区",
    "city_kana": "キョウトシヤマシナク",
    "town": "安朱堂ノ後町",
    "town_kana": "アンシュドウノウシロチョウ",
    "street": null,
    "office_name": null,
    "office_name_kana": null
  },
  "8006": {
    "postcode": "6078006",
    "prefecture": "京都府",
    "prefecture_kana": "キョウトフ",
    "prefecture_code": 26,
    "city": "京都市山科区",
    "city_kana": "キョウトシヤマシナク",
    "town": "安朱馬場ノ東町",
    "town_kana": "アンシュババノヒガシチョウ",
    "street": null,
    "office_name": null,
    "office_name_kana": null
  },
  "8007": {
    "postcode": "6078007",
    "prefecture": "京都府",
    "prefecture_kana": "キョウトフ",
    "prefecture_code": 26,
    "city": "京都市山科区",
    "city_kana": "キョウトシヤマシナク",
    "town": "安朱馬場ノ西町",
    "town_kana": "アンシュババノニシチョウ",
    "street": null,
    "office_name": null,
    "office_name_kana": null
  },
  "8008": {
    "postcode": "6078008",
    "prefecture": "京都府",
    "prefecture_kana": "キョウトフ",
    "prefecture_code": 26,
    "city": "京都市山科区",
    "city_kana": "キョウトシヤマシナク",
    "town": "安朱東海道町",
    "town_kana": "アンシュヒガシカイドウチョウ",
    "street": null,
    "office_name": null,
    "office_name_kana": null
  },
  "8009": {
    "postcode": "6078009",
    "prefecture": "京都府",
    "prefecture_kana": "キョウトフ",
    "prefecture_code": 26,
    "city": "京都市山科区",
    "city_kana": "キョウトシヤマシナク",
    "town": "安朱北屋敷町",
    "town_kana": "アンシュキタヤシキチョウ",
    "street": null,
    "office_name": null,
    "office_name_kana": null
  },
  "8011": {
    "postcode": "6078011",
    "prefecture": "京都府",
    "prefecture_kana": "キョウトフ",
    "prefecture_code": 26,
    "city": "京都市山科区",
    "city_kana": "キョウトシヤマシナク",
    "town": "安朱南屋敷町",
    "town_kana": "アンシュミナミヤシキチョウ",
    "street": null,
    "office_name": null,
    "office_name_kana": null
  },
  "8012": {
    "postcode": "6078012",
    "prefecture": "京都府",
    "prefecture_kana": "キョウトフ",
    "prefecture_code": 26,
    "city": "京都市山科区",
    "city_kana": "キョウトシヤマシナク",
    "town": "安朱桟敷町",
    "town_kana": "アンシュサジキチョウ",
    "street": null,
    "office_name": null,
    "office_name_kana": null
  },
  "8013": {
    "postcode": "6078013",
    "prefecture": "京都府",
    "prefecture_kana": "キョウトフ",
    "prefecture_code": 26,
    "city": "京都市山科区",
    "city_kana": "キョウトシヤマシナク",
    "town": "安朱中小路町",
    "town_kana": "アンシュナカコウジチョウ",
    "street": null,
    "office_name": null,
    "office_name_kana": null
  },
  "8014": {
    "postcode": "6078014",
    "prefecture": "京都府",
    "prefecture_kana": "キョウトフ",
    "prefecture_code": 26,
    "city": "京都市山科区",
    "city_kana": "キョウトシヤマシナク",
    "town": "安朱山田",
    "town_kana": "アンシュヤマダ",
    "street": null,
    "office_name": null,
    "office_name_kana": null
  },
  "8015": {
    "postcode": "6078015",
    "prefecture": "京都府",
    "prefecture_kana": "キョウトフ",
    "prefecture_code": 26,
    "city": "京都市山科区",
    "city_kana": "キョウトシヤマシナク",
    "town": "安朱山川町",
    "town_kana": "アンシュヤマカワチョウ",
    "street": null,
    "office_name": null,
    "office_name_kana": null
  },
  "8016": {
    "postcode": "6078016",
    "prefecture": "京都府",
    "prefecture_kana": "キョウトフ",
    "prefecture_code": 26,
    "city": "京都市山科区",
    "city_kana": "キョウトシヤマシナク",
    "town": "安朱中溝町",
    "town_kana": "アンシュナカミゾチョウ",
    "street": null,
    "office_name": null,
    "office_name_kana": null
  },
  "8017": {
    "postcode": "6078017",
    "prefecture": "京都府",
    "prefecture_kana": "キョウトフ",
    "prefecture_code": 26,
    "city": "京都市山科区",
    "city_kana": "キョウトシヤマシナク",
    "town": "安朱川向町",
    "town_kana": "アンシュカワムカイチョウ",
    "street": null,
    "office_name": null,
    "office_name_kana": null
  },
  "8018": {
    "postcode": "6078018",
    "prefecture": "京都府",
    "prefecture_kana": "キョウトフ",
    "prefecture_code": 26,
    "city": "京都市山科区",
    "city_kana": "キョウトシヤマシナク",
    "town": "安朱奥ノ田",
    "town_kana": "アンシュオクノダ",
    "street": null,
    "office_name": null,
    "office_name_kana": null
  },
  "8021": {
    "postcode": "6078021",
    "prefecture": "京都府",
    "prefecture_kana": "キョウトフ",
    "prefecture_code": 26,
    "city": "京都市山科区",
    "city_kana": "キョウトシヤマシナク",
    "town": "四ノ宮行者谷",
    "town_kana": "シノミヤギョウジャダニ",
    "street": null,
    "office_name": null,
    "office_name_kana": null
  },
  "8022": {
    "postcode": "6078022",
    "prefecture": "京都府",
    "prefecture_kana": "キョウトフ",
    "prefecture_code": 26,
    "city": "京都市山科区",
    "city_kana": "キョウトシヤマシナク",
    "town": "四ノ宮小金塚",
    "town_kana": "シノミヤコガネヅカ",
    "street": null,
    "office_name": null,
    "office_name_kana": null
  },
  "8023": {
    "postcode": "6078023",
    "prefecture": "京都府",
    "prefecture_kana": "キョウトフ",
    "prefecture_code": 26,
    "city": "京都市山科区",
    "city_kana": "キョウトシヤマシナク",
    "town": "四ノ宮新開畑",
    "town_kana": "シノミヤシンカイバタ",
    "street": null,
    "office_name": null,
    "office_name_kana": null
  },
  "8024": {
    "postcode": "6078024",
    "prefecture": "京都府",
    "prefecture_kana": "キョウトフ",
    "prefecture_code": 26,
    "city": "京都市山科区",
    "city_kana": "キョウトシヤマシナク",
    "town": "四ノ宮熊ケ谷",
    "town_kana": "シノミヤクマガダニ",
    "street": null,
    "office_name": null,
    "office_name_kana": null
  },
  "8025": {
    "postcode": "6078025",
    "prefecture": "京都府",
    "prefecture_kana": "キョウトフ",
    "prefecture_code": 26,
    "city": "京都市山科区",
    "city_kana": "キョウトシヤマシナク",
    "town": "四ノ宮柳山町",
    "town_kana": "シノミヤヤナギヤマチョウ",
    "street": null,
    "office_name": null,
    "office_name_kana": null
  },
  "8026": {
    "postcode": "6078026",
    "prefecture": "京都府",
    "prefecture_kana": "キョウトフ",
    "prefecture_code": 26,
    "city": "京都市山科区",
    "city_kana": "キョウトシヤマシナク",
    "town": "四ノ宮山田町",
    "town_kana": "シノミヤヤマダチョウ",
    "street": null,
    "office_name": null,
    "office_name_kana": null
  },
  "8027": {
    "postcode": "6078027",
    "prefecture": "京都府",
    "prefecture_kana": "キョウトフ",
    "prefecture_code": 26,
    "city": "京都市山科区",
    "city_kana": "キョウトシヤマシナク",
    "town": "四ノ宮川原町",
    "town_kana": "シノミヤカワラチョウ",
    "street": null,
    "office_name": null,
    "office_name_kana": null
  },
  "8028": {
    "postcode": "6078028",
    "prefecture": "京都府",
    "prefecture_kana": "キョウトフ",
    "prefecture_code": 26,
    "city": "京都市山科区",
    "city_kana": "キョウトシヤマシナク",
    "town": "四ノ宮岩久保町",
    "town_kana": "シノミヤイワクボチョウ",
    "street": null,
    "office_name": null,
    "office_name_kana": null
  },
  "8029": {
    "postcode": "6078029",
    "prefecture": "京都府",
    "prefecture_kana": "キョウトフ",
    "prefecture_code": 26,
    "city": "京都市山科区",
    "city_kana": "キョウトシヤマシナク",
    "town": "四ノ宮大将軍町",
    "town_kana": "シノミヤタイショウグンチョウ",
    "street": null,
    "office_name": null,
    "office_name_kana": null
  },
  "8031": {
    "postcode": "6078031",
    "prefecture": "京都府",
    "prefecture_kana": "キョウトフ",
    "prefecture_code": 26,
    "city": "京都市山科区",
    "city_kana": "キョウトシヤマシナク",
    "town": "四ノ宮鎌手町",
    "town_kana": "シノミヤカマテチョウ",
    "street": null,
    "office_name": null,
    "office_name_kana": null
  },
  "8032": {
    "postcode": "6078032",
    "prefecture": "京都府",
    "prefecture_kana": "キョウトフ",
    "prefecture_code": 26,
    "city": "京都市山科区",
    "city_kana": "キョウトシヤマシナク",
    "town": "四ノ宮奈良野町",
    "town_kana": "シノミヤナラノチョウ",
    "street": null,
    "office_name": null,
    "office_name_kana": null
  },
  "8033": {
    "postcode": "6078033",
    "prefecture": "京都府",
    "prefecture_kana": "キョウトフ",
    "prefecture_code": 26,
    "city": "京都市山科区",
    "city_kana": "キョウトシヤマシナク",
    "town": "四ノ宮芝畑町",
    "town_kana": "シノミヤシバハタチョウ",
    "street": null,
    "office_name": null,
    "office_name_kana": null
  },
  "8034": {
    "postcode": "6078034",
    "prefecture": "京都府",
    "prefecture_kana": "キョウトフ",
    "prefecture_code": 26,
    "city": "京都市山科区",
    "city_kana": "キョウトシヤマシナク",
    "town": "四ノ宮泓",
    "town_kana": "シノミヤフケ",
    "street": null,
    "office_name": null,
    "office_name_kana": null
  },
  "8035": {
    "postcode": "6078035",
    "prefecture": "京都府",
    "prefecture_kana": "キョウトフ",
    "prefecture_code": 26,
    "city": "京都市山科区",
    "city_kana": "キョウトシヤマシナク",
    "town": "四ノ宮神田町",
    "town_kana": "シノミヤカンダチョウ",
    "street": null,
    "office_name": null,
    "office_name_kana": null
  },
  "8041": {
    "postcode": "6078041",
    "prefecture": "京都府",
    "prefecture_kana": "キョウトフ",
    "prefecture_code": 26,
    "city": "京都市山科区",
    "city_kana": "キョウトシヤマシナク",
    "town": "四ノ宮垣ノ内町",
    "town_kana": "シノミヤカキノウチチョウ",
    "street": null,
    "office_name": null,
    "office_name_kana": null
  },
  "8042": {
    "postcode": "6078042",
    "prefecture": "京都府",
    "prefecture_kana": "キョウトフ",
    "prefecture_code": 26,
    "city": "京都市山科区",
    "city_kana": "キョウトシヤマシナク",
    "town": "四ノ宮南河原町",
    "town_kana": "シノミヤミナミガワラチョウ",
    "street": null,
    "office_name": null,
    "office_name_kana": null
  },
  "8043": {
    "postcode": "6078043",
    "prefecture": "京都府",
    "prefecture_kana": "キョウトフ",
    "prefecture_code": 26,
    "city": "京都市山科区",
    "city_kana": "キョウトシヤマシナク",
    "town": "四ノ宮中在寺町",
    "town_kana": "シノミヤチュウザイジチョウ",
    "street": null,
    "office_name": null,
    "office_name_kana": null
  },
  "8044": {
    "postcode": "6078044",
    "prefecture": "京都府",
    "prefecture_kana": "キョウトフ",
    "prefecture_code": 26,
    "city": "京都市山科区",
    "city_kana": "キョウトシヤマシナク",
    "town": "四ノ宮泉水町",
    "town_kana": "シノミヤセンスイチョウ",
    "street": null,
    "office_name": null,
    "office_name_kana": null
  },
  "8045": {
    "postcode": "6078045",
    "prefecture": "京都府",
    "prefecture_kana": "キョウトフ",
    "prefecture_code": 26,
    "city": "京都市山科区",
    "city_kana": "キョウトシヤマシナク",
    "town": "四ノ宮堂ノ後町",
    "town_kana": "シノミヤドウノゴチョウ",
    "street": null,
    "office_name": null,
    "office_name_kana": null
  },
  "8051": {
    "postcode": "6078051",
    "prefecture": "京都府",
    "prefecture_kana": "キョウトフ",
    "prefecture_code": 26,
    "city": "京都市山科区",
    "city_kana": "キョウトシヤマシナク",
    "town": "髭茶屋桃燈町",
    "town_kana": "ヒゲチャヤチョウチンチョウ",
    "street": null,
    "office_name": null,
    "office_name_kana": null
  },
  "8052": {
    "postcode": "6078052",
    "prefecture": "京都府",
    "prefecture_kana": "キョウトフ",
    "prefecture_code": 26,
    "city": "京都市山科区",
    "city_kana": "キョウトシヤマシナク",
    "town": "髭茶屋屋敷町",
    "town_kana": "ヒゲチャヤヤシキチョウ",
    "street": null,
    "office_name": null,
    "office_name_kana": null
  },
  "8061": {
    "postcode": "6078061",
    "prefecture": "京都府",
    "prefecture_kana": "キョウトフ",
    "prefecture_code": 26,
    "city": "京都市山科区",
    "city_kana": "キョウトシヤマシナク",
    "town": "音羽草田町",
    "town_kana": "オトワクサダチョウ",
    "street": null,
    "office_name": null,
    "office_name_kana": null
  },
  "8062": {
    "postcode": "6078062",
    "prefecture": "京都府",
    "prefecture_kana": "キョウトフ",
    "prefecture_code": 26,
    "city": "京都市山科区",
    "city_kana": "キョウトシヤマシナク",
    "town": "音羽珍事町",
    "town_kana": "オトワチンジチョウ",
    "street": null,
    "office_name": null,
    "office_name_kana": null
  },
  "8063": {
    "postcode": "6078063",
    "prefecture": "京都府",
    "prefecture_kana": "キョウトフ",
    "prefecture_code": 26,
    "city": "京都市山科区",
    "city_kana": "キョウトシヤマシナク",
    "town": "音羽平林町",
    "town_kana": "オトワヒラバヤシチョウ",
    "street": null,
    "office_name": null,
    "office_name_kana": null
  },
  "8064": {
    "postcode": "6078064",
    "prefecture": "京都府",
    "prefecture_kana": "キョウトフ",
    "prefecture_code": 26,
    "city": "京都市山科区",
    "city_kana": "キョウトシヤマシナク",
    "town": "音羽八ノ坪",
    "town_kana": "オトワハチノツボ",
    "street": null,
    "office_name": null,
    "office_name_kana": null
  },
  "8065": {
    "postcode": "6078065",
    "prefecture": "京都府",
    "prefecture_kana": "キョウトフ",
    "prefecture_code": 26,
    "city": "京都市山科区",
    "city_kana": "キョウトシヤマシナク",
    "town": "音羽山等地",
    "town_kana": "オトワサントウジ",
    "street": null,
    "office_name": null,
    "office_name_kana": null
  },
  "8066": {
    "postcode": "6078066",
    "prefecture": "京都府",
    "prefecture_kana": "キョウトフ",
    "prefecture_code": 26,
    "city": "京都市山科区",
    "city_kana": "キョウトシヤマシナク",
    "town": "音羽森廻り町",
    "town_kana": "オトワモリマワリチョウ",
    "street": null,
    "office_name": null,
    "office_name_kana": null
  },
  "8067": {
    "postcode": "6078067",
    "prefecture": "京都府",
    "prefecture_kana": "キョウトフ",
    "prefecture_code": 26,
    "city": "京都市山科区",
    "city_kana": "キョウトシヤマシナク",
    "town": "音羽前田町",
    "town_kana": "オトワマエダチョウ",
    "street": null,
    "office_name": null,
    "office_name_kana": null
  },
  "8068": {
    "postcode": "6078068",
    "prefecture": "京都府",
    "prefecture_kana": "キョウトフ",
    "prefecture_code": 26,
    "city": "京都市山科区",
    "city_kana": "キョウトシヤマシナク",
    "town": "音羽稲芝",
    "town_kana": "オトワイナシバ",
    "street": null,
    "office_name": null,
    "office_name_kana": null
  },
  "8069": {
    "postcode": "6078069",
    "prefecture": "京都府",
    "prefecture_kana": "キョウトフ",
    "prefecture_code": 26,
    "city": "京都市山科区",
    "city_kana": "キョウトシヤマシナク",
    "town": "音羽中芝町",
    "town_kana": "オトワナカシバチョウ",
    "street": null,
    "office_name": null,
    "office_name_kana": null
  },
  "8071": {
    "postcode": "6078071",
    "prefecture": "京都府",
    "prefecture_kana": "キョウトフ",
    "prefecture_code": 26,
    "city": "京都市山科区",
    "city_kana": "キョウトシヤマシナク",
    "town": "音羽千本町",
    "town_kana": "オトワセンボンチョウ",
    "street": null,
    "office_name": null,
    "office_name_kana": null
  },
  "8072": {
    "postcode": "6078072",
    "prefecture": "京都府",
    "prefecture_kana": "キョウトフ",
    "prefecture_code": 26,
    "city": "京都市山科区",
    "city_kana": "キョウトシヤマシナク",
    "town": "音羽伊勢宿町",
    "town_kana": "オトワイセジュクチョウ",
    "street": null,
    "office_name": null,
    "office_name_kana": null
  },
  "8073": {
    "postcode": "6078073",
    "prefecture": "京都府",
    "prefecture_kana": "キョウトフ",
    "prefecture_code": 26,
    "city": "京都市山科区",
    "city_kana": "キョウトシヤマシナク",
    "town": "音羽西林",
    "town_kana": "オトワニシバヤシ",
    "street": null,
    "office_name": null,
    "office_name_kana": null
  },
  "8074": {
    "postcode": "6078074",
    "prefecture": "京都府",
    "prefecture_kana": "キョウトフ",
    "prefecture_code": 26,
    "city": "京都市山科区",
    "city_kana": "キョウトシヤマシナク",
    "town": "音羽乙出町",
    "town_kana": "オトワオツデチョウ",
    "street": null,
    "office_name": null,
    "office_name_kana": null
  },
  "8075": {
    "postcode": "6078075",
    "prefecture": "京都府",
    "prefecture_kana": "キョウトフ",
    "prefecture_code": 26,
    "city": "京都市山科区",
    "city_kana": "キョウトシヤマシナク",
    "town": "音羽野田町",
    "town_kana": "オトワノダチョウ",
    "street": null,
    "office_name": null,
    "office_name_kana": null
  },
  "8076": {
    "postcode": "6078076",
    "prefecture": "京都府",
    "prefecture_kana": "キョウトフ",
    "prefecture_code": 26,
    "city": "京都市山科区",
    "city_kana": "キョウトシヤマシナク",
    "town": "音羽役出町",
    "town_kana": "オトワヤクデチョウ",
    "street": null,
    "office_name": null,
    "office_name_kana": null
  },
  "8077": {
    "postcode": "6078077",
    "prefecture": "京都府",
    "prefecture_kana": "キョウトフ",
    "prefecture_code": 26,
    "city": "京都市山科区",
    "city_kana": "キョウトシヤマシナク",
    "town": "音羽沢町",
    "town_kana": "オトワサワチョウ",
    "street": null,
    "office_name": null,
    "office_name_kana": null
  },
  "8078": {
    "postcode": "6078078",
    "prefecture": "京都府",
    "prefecture_kana": "キョウトフ",
    "prefecture_code": 26,
    "city": "京都市山科区",
    "city_kana": "キョウトシヤマシナク",
    "town": "音羽初田町",
    "town_kana": "オトワハツダチョウ",
    "street": null,
    "office_name": null,
    "office_name_kana": null
  },
  "8079": {
    "postcode": "6078079",
    "prefecture": "京都府",
    "prefecture_kana": "キョウトフ",
    "prefecture_code": 26,
    "city": "京都市山科区",
    "city_kana": "キョウトシヤマシナク",
    "town": "音羽前出町",
    "town_kana": "オトワマエデチョウ",
    "street": null,
    "office_name": null,
    "office_name_kana": null
  },
  "8080": {
    "postcode": "6078080",
    "prefecture": "京都府",
    "prefecture_kana": "キョウトフ",
    "prefecture_code": 26,
    "city": "京都市山科区",
    "city_kana": "キョウトシヤマシナク",
    "town": "竹鼻竹ノ街道町",
    "town_kana": "タケハナタケノカイドウチョウ",
    "street": null,
    "office_name": null,
    "office_name_kana": null
  },
  "8081": {
    "postcode": "6078081",
    "prefecture": "京都府",
    "prefecture_kana": "キョウトフ",
    "prefecture_code": 26,
    "city": "京都市山科区",
    "city_kana": "キョウトシヤマシナク",
    "town": "竹鼻外田町",
    "town_kana": "タケハナソトダチョウ",
    "street": null,
    "office_name": null,
    "office_name_kana": null
  },
  "8082": {
    "postcode": "6078082",
    "prefecture": "京都府",
    "prefecture_kana": "キョウトフ",
    "prefecture_code": 26,
    "city": "京都市山科区",
    "city_kana": "キョウトシヤマシナク",
    "town": "竹鼻扇町",
    "town_kana": "タケハナオウギチョウ",
    "street": null,
    "office_name": null,
    "office_name_kana": null
  },
  "8083": {
    "postcode": "6078083",
    "prefecture": "京都府",
    "prefecture_kana": "キョウトフ",
    "prefecture_code": 26,
    "city": "京都市山科区",
    "city_kana": "キョウトシヤマシナク",
    "town": "竹鼻木ノ本町",
    "town_kana": "タケハナキノモトチョウ",
    "street": null,
    "office_name": null,
    "office_name_kana": null
  },
  "8084": {
    "postcode": "6078084",
    "prefecture": "京都府",
    "prefecture_kana": "キョウトフ",
    "prefecture_code": 26,
    "city": "京都市山科区",
    "city_kana": "キョウトシヤマシナク",
    "town": "竹鼻立原町",
    "town_kana": "タケハナタテハラチョウ",
    "street": null,
    "office_name": null,
    "office_name_kana": null
  },
  "8085": {
    "postcode": "6078085",
    "prefecture": "京都府",
    "prefecture_kana": "キョウトフ",
    "prefecture_code": 26,
    "city": "京都市山科区",
    "city_kana": "キョウトシヤマシナク",
    "town": "竹鼻堂ノ前町",
    "town_kana": "タケハナドウノマエチョウ",
    "street": null,
    "office_name": null,
    "office_name_kana": null
  },
  "8086": {
    "postcode": "6078086",
    "prefecture": "京都府",
    "prefecture_kana": "キョウトフ",
    "prefecture_code": 26,
    "city": "京都市山科区",
    "city_kana": "キョウトシヤマシナク",
    "town": "竹鼻四丁野町",
    "town_kana": "タケハナシチョウノチョウ",
    "street": null,
    "office_name": null,
    "office_name_kana": null
  },
  "8087": {
    "postcode": "6078087",
    "prefecture": "京都府",
    "prefecture_kana": "キョウトフ",
    "prefecture_code": 26,
    "city": "京都市山科区",
    "city_kana": "キョウトシヤマシナク",
    "town": "竹鼻サイカシ町",
    "town_kana": "タケハナサイカシチョウ",
    "street": null,
    "office_name": null,
    "office_name_kana": null
  },
  "8088": {
    "postcode": "6078088",
    "prefecture": "京都府",
    "prefecture_kana": "キョウトフ",
    "prefecture_code": 26,
    "city": "京都市山科区",
    "city_kana": "キョウトシヤマシナク",
    "town": "竹鼻地蔵寺南町",
    "town_kana": "タケハナジゾウジミナミチョウ",
    "street": null,
    "office_name": null,
    "office_name_kana": null
  },
  "8089": {
    "postcode": "6078089",
    "prefecture": "京都府",
    "prefecture_kana": "キョウトフ",
    "prefecture_code": 26,
    "city": "京都市山科区",
    "city_kana": "キョウトシヤマシナク",
    "town": "竹鼻西ノ口町",
    "town_kana": "タケハナニシノグチチョウ",
    "street": null,
    "office_name": null,
    "office_name_kana": null
  },
  "8091": {
    "postcode": "6078091",
    "prefecture": "京都府",
    "prefecture_kana": "キョウトフ",
    "prefecture_code": 26,
    "city": "京都市山科区",
    "city_kana": "キョウトシヤマシナク",
    "town": "八軒屋敷町",
    "town_kana": "ハチケンヤシキチョウ",
    "street": null,
    "office_name": null,
    "office_name_kana": null
  },
  "8101": {
    "postcode": "6078101",
    "prefecture": "京都府",
    "prefecture_kana": "キョウトフ",
    "prefecture_code": 26,
    "city": "京都市山科区",
    "city_kana": "キョウトシヤマシナク",
    "town": "小山神無森町",
    "town_kana": "コヤマカミナシモリチョウ",
    "street": null,
    "office_name": null,
    "office_name_kana": null
  },
  "8102": {
    "postcode": "6078102",
    "prefecture": "京都府",
    "prefecture_kana": "キョウトフ",
    "prefecture_code": 26,
    "city": "京都市山科区",
    "city_kana": "キョウトシヤマシナク",
    "town": "小山下ノ池",
    "town_kana": "コヤマシモノイケ",
    "street": null,
    "office_name": null,
    "office_name_kana": null
  },
  "8103": {
    "postcode": "6078103",
    "prefecture": "京都府",
    "prefecture_kana": "キョウトフ",
    "prefecture_code": 26,
    "city": "京都市山科区",
    "city_kana": "キョウトシヤマシナク",
    "town": "小山一石畑",
    "town_kana": "コヤマイッコクバタ",
    "street": null,
    "office_name": null,
    "office_name_kana": null
  },
  "8104": {
    "postcode": "6078104",
    "prefecture": "京都府",
    "prefecture_kana": "キョウトフ",
    "prefecture_code": 26,
    "city": "京都市山科区",
    "city_kana": "キョウトシヤマシナク",
    "town": "小山谷田町",
    "town_kana": "コヤマタニダチョウ",
    "street": null,
    "office_name": null,
    "office_name_kana": null
  },
  "8105": {
    "postcode": "6078105",
    "prefecture": "京都府",
    "prefecture_kana": "キョウトフ",
    "prefecture_code": 26,
    "city": "京都市山科区",
    "city_kana": "キョウトシヤマシナク",
    "town": "小山松原畑町",
    "town_kana": "コヤママツハラバタチョウ",
    "street": null,
    "office_name": null,
    "office_name_kana": null
  },
  "8106": {
    "postcode": "6078106",
    "prefecture": "京都府",
    "prefecture_kana": "キョウトフ",
    "prefecture_code": 26,
    "city": "京都市山科区",
    "city_kana": "キョウトシヤマシナク",
    "town": "小山御坊ノ内町",
    "town_kana": "コヤマゴボウノウチチョウ",
    "street": null,
    "office_name": null,
    "office_name_kana": null
  },
  "8107": {
    "postcode": "6078107",
    "prefecture": "京都府",
    "prefecture_kana": "キョウトフ",
    "prefecture_code": 26,
    "city": "京都市山科区",
    "city_kana": "キョウトシヤマシナク",
    "town": "小山小川町",
    "town_kana": "コヤマオガワチョウ",
    "street": null,
    "office_name": null,
    "office_name_kana": null
  },
  "8108": {
    "postcode": "6078108",
    "prefecture": "京都府",
    "prefecture_kana": "キョウトフ",
    "prefecture_code": 26,
    "city": "京都市山科区",
    "city_kana": "キョウトシヤマシナク",
    "town": "小山中島町",
    "town_kana": "コヤマナカジマチョウ",
    "street": null,
    "office_name": null,
    "office_name_kana": null
  },
  "8109": {
    "postcode": "6078109",
    "prefecture": "京都府",
    "prefecture_kana": "キョウトフ",
    "prefecture_code": 26,
    "city": "京都市山科区",
    "city_kana": "キョウトシヤマシナク",
    "town": "小山西御所町",
    "town_kana": "コヤマニシゴショチョウ",
    "street": null,
    "office_name": null,
    "office_name_kana": null
  },
  "8111": {
    "postcode": "6078111",
    "prefecture": "京都府",
    "prefecture_kana": "キョウトフ",
    "prefecture_code": 26,
    "city": "京都市山科区",
    "city_kana": "キョウトシヤマシナク",
    "town": "小山南溝町",
    "town_kana": "コヤマミナミミゾチョウ",
    "street": null,
    "office_name": null,
    "office_name_kana": null
  },
  "8112": {
    "postcode": "6078112",
    "prefecture": "京都府",
    "prefecture_kana": "キョウトフ",
    "prefecture_code": 26,
    "city": "京都市山科区",
    "city_kana": "キョウトシヤマシナク",
    "town": "小山中ノ川町",
    "town_kana": "コヤマナカノカワチョウ",
    "street": null,
    "office_name": null,
    "office_name_kana": null
  },
  "8113": {
    "postcode": "6078113",
    "prefecture": "京都府",
    "prefecture_kana": "キョウトフ",
    "prefecture_code": 26,
    "city": "京都市山科区",
    "city_kana": "キョウトシヤマシナク",
    "town": "小山北溝町",
    "town_kana": "コヤマキタミゾチョウ",
    "street": null,
    "office_name": null,
    "office_name_kana": null
  },
  "8114": {
    "postcode": "6078114",
    "prefecture": "京都府",
    "prefecture_kana": "キョウトフ",
    "prefecture_code": 26,
    "city": "京都市山科区",
    "city_kana": "キョウトシヤマシナク",
    "town": "小山姫子町",
    "town_kana": "コヤマヒメコチョウ",
    "street": null,
    "office_name": null,
    "office_name_kana": null
  },
  "8115": {
    "postcode": "6078115",
    "prefecture": "京都府",
    "prefecture_kana": "キョウトフ",
    "prefecture_code": 26,
    "city": "京都市山科区",
    "city_kana": "キョウトシヤマシナク",
    "town": "小山北林町",
    "town_kana": "コヤマキタバヤシチョウ",
    "street": null,
    "office_name": null,
    "office_name_kana": null
  },
  "8116": {
    "postcode": "6078116",
    "prefecture": "京都府",
    "prefecture_kana": "キョウトフ",
    "prefecture_code": 26,
    "city": "京都市山科区",
    "city_kana": "キョウトシヤマシナク",
    "town": "小山鎮守町",
    "town_kana": "コヤマチンジュチョウ",
    "street": null,
    "office_name": null,
    "office_name_kana": null
  },
  "8121": {
    "postcode": "6078121",
    "prefecture": "京都府",
    "prefecture_kana": "キョウトフ",
    "prefecture_code": 26,
    "city": "京都市山科区",
    "city_kana": "キョウトシヤマシナク",
    "town": "大塚向畑町",
    "town_kana": "オオツカムカイバタチョウ",
    "street": null,
    "office_name": null,
    "office_name_kana": null
  },
  "8122": {
    "postcode": "6078122",
    "prefecture": "京都府",
    "prefecture_kana": "キョウトフ",
    "prefecture_code": 26,
    "city": "京都市山科区",
    "city_kana": "キョウトシヤマシナク",
    "town": "大塚高岩",
    "town_kana": "オオツカタカイワ",
    "street": null,
    "office_name": null,
    "office_name_kana": null
  },
  "8123": {
    "postcode": "6078123",
    "prefecture": "京都府",
    "prefecture_kana": "キョウトフ",
    "prefecture_code": 26,
    "city": "京都市山科区",
    "city_kana": "キョウトシヤマシナク",
    "town": "大塚大岩",
    "town_kana": "オオツカオオイワ",
    "street": null,
    "office_name": null,
    "office_name_kana": null
  },
  "8124": {
    "postcode": "6078124",
    "prefecture": "京都府",
    "prefecture_kana": "キョウトフ",
    "prefecture_code": 26,
    "city": "京都市山科区",
    "city_kana": "キョウトシヤマシナク",
    "town": "大塚檀ノ浦",
    "town_kana": "オオツカダンノウラ",
    "street": null,
    "office_name": null,
    "office_name_kana": null
  },
  "8125": {
    "postcode": "6078125",
    "prefecture": "京都府",
    "prefecture_kana": "キョウトフ",
    "prefecture_code": 26,
    "city": "京都市山科区",
    "city_kana": "キョウトシヤマシナク",
    "town": "大塚西浦町",
    "town_kana": "オオツカニシウラチョウ",
    "street": null,
    "office_name": null,
    "office_name_kana": null
  },
  "8126": {
    "postcode": "6078126",
    "prefecture": "京都府",
    "prefecture_kana": "キョウトフ",
    "prefecture_code": 26,
    "city": "京都市山科区",
    "city_kana": "キョウトシヤマシナク",
    "town": "大塚元屋敷町",
    "town_kana": "オオツカモトヤシキチョウ",
    "street": null,
    "office_name": null,
    "office_name_kana": null
  },
  "8131": {
    "postcode": "6078131",
    "prefecture": "京都府",
    "prefecture_kana": "キョウトフ",
    "prefecture_code": 26,
    "city": "京都市山科区",
    "city_kana": "キョウトシヤマシナク",
    "town": "大塚南溝町",
    "town_kana": "オオツカミナミミゾチョウ",
    "street": null,
    "office_name": null,
    "office_name_kana": null
  },
  "8132": {
    "postcode": "6078132",
    "prefecture": "京都府",
    "prefecture_kana": "キョウトフ",
    "prefecture_code": 26,
    "city": "京都市山科区",
    "city_kana": "キョウトシヤマシナク",
    "town": "大塚森町",
    "town_kana": "オオツカモリチョウ",
    "street": null,
    "office_name": null,
    "office_name_kana": null
  },
  "8133": {
    "postcode": "6078133",
    "prefecture": "京都府",
    "prefecture_kana": "キョウトフ",
    "prefecture_code": 26,
    "city": "京都市山科区",
    "city_kana": "キョウトシヤマシナク",
    "town": "大塚中溝",
    "town_kana": "オオツカナカミゾ",
    "street": null,
    "office_name": null,
    "office_name_kana": null
  },
  "8134": {
    "postcode": "6078134",
    "prefecture": "京都府",
    "prefecture_kana": "キョウトフ",
    "prefecture_code": 26,
    "city": "京都市山科区",
    "city_kana": "キョウトシヤマシナク",
    "town": "大塚北溝町",
    "town_kana": "オオツカキタミゾチョウ",
    "street": null,
    "office_name": null,
    "office_name_kana": null
  },
  "8135": {
    "postcode": "6078135",
    "prefecture": "京都府",
    "prefecture_kana": "キョウトフ",
    "prefecture_code": 26,
    "city": "京都市山科区",
    "city_kana": "キョウトシヤマシナク",
    "town": "大塚野溝町",
    "town_kana": "オオツカノミゾチョウ",
    "street": null,
    "office_name": null,
    "office_name_kana": null
  },
  "8136": {
    "postcode": "6078136",
    "prefecture": "京都府",
    "prefecture_kana": "キョウトフ",
    "prefecture_code": 26,
    "city": "京都市山科区",
    "city_kana": "キョウトシヤマシナク",
    "town": "大塚丹田",
    "town_kana": "オオツカタンダ",
    "street": null,
    "office_name": null,
    "office_name_kana": null
  },
  "8141": {
    "postcode": "6078141",
    "prefecture": "京都府",
    "prefecture_kana": "キョウトフ",
    "prefecture_code": 26,
    "city": "京都市山科区",
    "city_kana": "キョウトシヤマシナク",
    "town": "東野北井ノ上町",
    "town_kana": "ヒガシノキタイノウエチョウ",
    "street": null,
    "office_name": null,
    "office_name_kana": null
  },
  "8142": {
    "postcode": "6078142",
    "prefecture": "京都府",
    "prefecture_kana": "キョウトフ",
    "prefecture_code": 26,
    "city": "京都市山科区",
    "city_kana": "キョウトシヤマシナク",
    "town": "東野中井ノ上町",
    "town_kana": "ヒガシノナカイノウエチョウ",
    "street": null,
    "office_name": null,
    "office_name_kana": null
  },
  "8143": {
    "postcode": "6078143",
    "prefecture": "京都府",
    "prefecture_kana": "キョウトフ",
    "prefecture_code": 26,
    "city": "京都市山科区",
    "city_kana": "キョウトシヤマシナク",
    "town": "東野南井ノ上町",
    "town_kana": "ヒガシノミナミイノウエチョウ",
    "street": null,
    "office_name": null,
    "office_name_kana": null
  },
  "8144": {
    "postcode": "6078144",
    "prefecture": "京都府",
    "prefecture_kana": "キョウトフ",
    "prefecture_code": 26,
    "city": "京都市山科区",
    "city_kana": "キョウトシヤマシナク",
    "town": "東野井ノ上町",
    "town_kana": "ヒガシノイノウエチョウ",
    "street": null,
    "office_name": null,
    "office_name_kana": null
  },
  "8145": {
    "postcode": "6078145",
    "prefecture": "京都府",
    "prefecture_kana": "キョウトフ",
    "prefecture_code": 26,
    "city": "京都市山科区",
    "city_kana": "キョウトシヤマシナク",
    "town": "東野八反畑町",
    "town_kana": "ヒガシノハッタンバタチョウ",
    "street": null,
    "office_name": null,
    "office_name_kana": null
  },
  "8146": {
    "postcode": "6078146",
    "prefecture": "京都府",
    "prefecture_kana": "キョウトフ",
    "prefecture_code": 26,
    "city": "京都市山科区",
    "city_kana": "キョウトシヤマシナク",
    "town": "東野舞台町",
    "town_kana": "ヒガシノブタイチョウ",
    "street": null,
    "office_name": null,
    "office_name_kana": null
  },
  "8147": {
    "postcode": "6078147",
    "prefecture": "京都府",
    "prefecture_kana": "キョウトフ",
    "prefecture_code": 26,
    "city": "京都市山科区",
    "city_kana": "キョウトシヤマシナク",
    "town": "東野森野町",
    "town_kana": "ヒガシノモリノチョウ",
    "street": null,
    "office_name": null,
    "office_name_kana": null
  },
  "8151": {
    "postcode": "6078151",
    "prefecture": "京都府",
    "prefecture_kana": "キョウトフ",
    "prefecture_code": 26,
    "city": "京都市山科区",
    "city_kana": "キョウトシヤマシナク",
    "town": "東野竹田",
    "town_kana": "ヒガシノタケダ",
    "street": null,
    "office_name": null,
    "office_name_kana": null
  },
  "8152": {
    "postcode": "6078152",
    "prefecture": "京都府",
    "prefecture_kana": "キョウトフ",
    "prefecture_code": 26,
    "city": "京都市山科区",
    "city_kana": "キョウトシヤマシナク",
    "town": "東野八代",
    "town_kana": "ヒガシノヤシロ",
    "street": null,
    "office_name": null,
    "office_name_kana": null
  },
  "8153": {
    "postcode": "6078153",
    "prefecture": "京都府",
    "prefecture_kana": "キョウトフ",
    "prefecture_code": 26,
    "city": "京都市山科区",
    "city_kana": "キョウトシヤマシナク",
    "town": "東野百拍子町",
    "town_kana": "ヒガシノヒャクビョウシチョウ",
    "street": null,
    "office_name": null,
    "office_name_kana": null
  },
  "8154": {
    "postcode": "6078154",
    "prefecture": "京都府",
    "prefecture_kana": "キョウトフ",
    "prefecture_code": 26,
    "city": "京都市山科区",
    "city_kana": "キョウトシヤマシナク",
    "town": "東野門口町",
    "town_kana": "ヒガシノモングチチョウ",
    "street": null,
    "office_name": null,
    "office_name_kana": null
  },
  "8155": {
    "postcode": "6078155",
    "prefecture": "京都府",
    "prefecture_kana": "キョウトフ",
    "prefecture_code": 26,
    "city": "京都市山科区",
    "city_kana": "キョウトシヤマシナク",
    "town": "東野狐藪町",
    "town_kana": "ヒガシノキツネヤブチョウ",
    "street": null,
    "office_name": null,
    "office_name_kana": null
  },
  "8156": {
    "postcode": "6078156",
    "prefecture": "京都府",
    "prefecture_kana": "キョウトフ",
    "prefecture_code": 26,
    "city": "京都市山科区",
    "city_kana": "キョウトシヤマシナク",
    "town": "東野片下リ町",
    "town_kana": "ヒガシノカタサガリチョウ",
    "street": null,
    "office_name": null,
    "office_name_kana": null
  },
  "8160": {
    "postcode": "6078160",
    "prefecture": "京都府",
    "prefecture_kana": "キョウトフ",
    "prefecture_code": 26,
    "city": "京都市山科区",
    "city_kana": "キョウトシヤマシナク",
    "town": "椥辻東浦町",
    "town_kana": "ナギツジヒガシウラチョウ",
    "street": null,
    "office_name": null,
    "office_name_kana": null
  },
  "8161": {
    "postcode": "6078161",
    "prefecture": "京都府",
    "prefecture_kana": "キョウトフ",
    "prefecture_code": 26,
    "city": "京都市山科区",
    "city_kana": "キョウトシヤマシナク",
    "town": "椥辻中在家町",
    "town_kana": "ナギツジチュウザイケチョウ",
    "street": null,
    "office_name": null,
    "office_name_kana": null
  },
  "8162": {
    "postcode": "6078162",
    "prefecture": "京都府",
    "prefecture_kana": "キョウトフ",
    "prefecture_code": 26,
    "city": "京都市山科区",
    "city_kana": "キョウトシヤマシナク",
    "town": "椥辻草海道町",
    "town_kana": "ナギツジクサカイドウチョウ",
    "street": null,
    "office_name": null,
    "office_name_kana": null
  },
  "8163": {
    "postcode": "6078163",
    "prefecture": "京都府",
    "prefecture_kana": "キョウトフ",
    "prefecture_code": 26,
    "city": "京都市山科区",
    "city_kana": "キョウトシヤマシナク",
    "town": "椥辻東潰",
    "town_kana": "ナギツジヒガシツブシ",
    "street": null,
    "office_name": null,
    "office_name_kana": null
  },
  "8164": {
    "postcode": "6078164",
    "prefecture": "京都府",
    "prefecture_kana": "キョウトフ",
    "prefecture_code": 26,
    "city": "京都市山科区",
    "city_kana": "キョウトシヤマシナク",
    "town": "椥辻西潰",
    "town_kana": "ナギツジニシツブシ",
    "street": null,
    "office_name": null,
    "office_name_kana": null
  },
  "8165": {
    "postcode": "6078165",
    "prefecture": "京都府",
    "prefecture_kana": "キョウトフ",
    "prefecture_code": 26,
    "city": "京都市山科区",
    "city_kana": "キョウトシヤマシナク",
    "town": "椥辻平田町",
    "town_kana": "ナギツジヒラタチョウ",
    "street": null,
    "office_name": null,
    "office_name_kana": null
  },
  "8166": {
    "postcode": "6078166",
    "prefecture": "京都府",
    "prefecture_kana": "キョウトフ",
    "prefecture_code": 26,
    "city": "京都市山科区",
    "city_kana": "キョウトシヤマシナク",
    "town": "椥辻番所ケ口町",
    "town_kana": "ナギツジバンショウガグチチョウ",
    "street": null,
    "office_name": null,
    "office_name_kana": null
  },
  "8167": {
    "postcode": "6078167",
    "prefecture": "京都府",
    "prefecture_kana": "キョウトフ",
    "prefecture_code": 26,
    "city": "京都市山科区",
    "city_kana": "キョウトシヤマシナク",
    "town": "椥辻封シ川町",
    "town_kana": "ナギツジフウシガワチョウ",
    "street": null,
    "office_name": null,
    "office_name_kana": null
  },
  "8168": {
    "postcode": "6078168",
    "prefecture": "京都府",
    "prefecture_kana": "キョウトフ",
    "prefecture_code": 26,
    "city": "京都市山科区",
    "city_kana": "キョウトシヤマシナク",
    "town": "椥辻池尻町",
    "town_kana": "ナギツジイケジリチョウ",
    "street": null,
    "office_name": null,
    "office_name_kana": null
  },
  "8169": {
    "postcode": "6078169",
    "prefecture": "京都府",
    "prefecture_kana": "キョウトフ",
    "prefecture_code": 26,
    "city": "京都市山科区",
    "city_kana": "キョウトシヤマシナク",
    "town": "椥辻西浦町",
    "town_kana": "ナギツジニシウラチョウ",
    "street": null,
    "office_name": null,
    "office_name_kana": null
  },
  "8170": {
    "postcode": "6078170",
    "prefecture": "京都府",
    "prefecture_kana": "キョウトフ",
    "prefecture_code": 26,
    "city": "京都市山科区",
    "city_kana": "キョウトシヤマシナク",
    "town": "大宅向山",
    "town_kana": "オオヤケムカイヤマ",
    "street": null,
    "office_name": null,
    "office_name_kana": null
  },
  "8171": {
    "postcode": "6078171",
    "prefecture": "京都府",
    "prefecture_kana": "キョウトフ",
    "prefecture_code": 26,
    "city": "京都市山科区",
    "city_kana": "キョウトシヤマシナク",
    "town": "大宅御所山",
    "town_kana": "オオヤケゴショヤマ",
    "street": null,
    "office_name": null,
    "office_name_kana": null
  },
  "8172": {
    "postcode": "6078172",
    "prefecture": "京都府",
    "prefecture_kana": "キョウトフ",
    "prefecture_code": 26,
    "city": "京都市山科区",
    "city_kana": "キョウトシヤマシナク",
    "town": "大宅岩屋殿",
    "town_kana": "オオヤケイワヤデン",
    "street": null,
    "office_name": null,
    "office_name_kana": null
  },
  "8173": {
    "postcode": "6078173",
    "prefecture": "京都府",
    "prefecture_kana": "キョウトフ",
    "prefecture_code": 26,
    "city": "京都市山科区",
    "city_kana": "キョウトシヤマシナク",
    "town": "大宅奥山田",
    "town_kana": "オオヤケオクヤマダ",
    "street": null,
    "office_name": null,
    "office_name_kana": null
  },
  "8174": {
    "postcode": "6078174",
    "prefecture": "京都府",
    "prefecture_kana": "キョウトフ",
    "prefecture_code": 26,
    "city": "京都市山科区",
    "city_kana": "キョウトシヤマシナク",
    "town": "大宅鳥井脇町",
    "town_kana": "オオヤケトリイワキチョウ",
    "street": null,
    "office_name": null,
    "office_name_kana": null
  },
  "8175": {
    "postcode": "6078175",
    "prefecture": "京都府",
    "prefecture_kana": "キョウトフ",
    "prefecture_code": 26,
    "city": "京都市山科区",
    "city_kana": "キョウトシヤマシナク",
    "town": "大宅山田",
    "town_kana": "オオヤケヤマダ",
    "street": null,
    "office_name": null,
    "office_name_kana": null
  },
  "8176": {
    "postcode": "6078176",
    "prefecture": "京都府",
    "prefecture_kana": "キョウトフ",
    "prefecture_code": 26,
    "city": "京都市山科区",
    "city_kana": "キョウトシヤマシナク",
    "town": "大宅中小路町",
    "town_kana": "オオヤケナカコウジチョウ",
    "street": null,
    "office_name": null,
    "office_name_kana": null
  },
  "8177": {
    "postcode": "6078177",
    "prefecture": "京都府",
    "prefecture_kana": "キョウトフ",
    "prefecture_code": 26,
    "city": "京都市山科区",
    "city_kana": "キョウトシヤマシナク",
    "town": "大宅古海道町",
    "town_kana": "オオヤケフルカイドウチョウ",
    "street": null,
    "office_name": null,
    "office_name_kana": null
  },
  "8178": {
    "postcode": "6078178",
    "prefecture": "京都府",
    "prefecture_kana": "キョウトフ",
    "prefecture_code": 26,
    "city": "京都市山科区",
    "city_kana": "キョウトシヤマシナク",
    "town": "大宅五反畑町",
    "town_kana": "オオヤケゴタンバタチョウ",
    "street": null,
    "office_name": null,
    "office_name_kana": null
  },
  "8179": {
    "postcode": "6078179",
    "prefecture": "京都府",
    "prefecture_kana": "キョウトフ",
    "prefecture_code": 26,
    "city": "京都市山科区",
    "city_kana": "キョウトシヤマシナク",
    "town": "大宅御所田町",
    "town_kana": "オオヤケゴショデンチョウ",
    "street": null,
    "office_name": null,
    "office_name_kana": null
  },
  "8181": {
    "postcode": "6078181",
    "prefecture": "京都府",
    "prefecture_kana": "キョウトフ",
    "prefecture_code": 26,
    "city": "京都市山科区",
    "city_kana": "キョウトシヤマシナク",
    "town": "大宅打明町",
    "town_kana": "オオヤケウチアケチョウ",
    "street": null,
    "office_name": null,
    "office_name_kana": null
  },
  "8182": {
    "postcode": "6078182",
    "prefecture": "京都府",
    "prefecture_kana": "キョウトフ",
    "prefecture_code": 26,
    "city": "京都市山科区",
    "city_kana": "キョウトシヤマシナク",
    "town": "大宅坂ノ辻町",
    "town_kana": "オオヤケサカノツジチョウ",
    "street": null,
    "office_name": null,
    "office_name_kana": null
  },
  "8183": {
    "postcode": "6078183",
    "prefecture": "京都府",
    "prefecture_kana": "キョウトフ",
    "prefecture_code": 26,
    "city": "京都市山科区",
    "city_kana": "キョウトシヤマシナク",
    "town": "大宅辻脇町",
    "town_kana": "オオヤケツジワキチョウ",
    "street": null,
    "office_name": null,
    "office_name_kana": null
  },
  "8184": {
    "postcode": "6078184",
    "prefecture": "京都府",
    "prefecture_kana": "キョウトフ",
    "prefecture_code": 26,
    "city": "京都市山科区",
    "city_kana": "キョウトシヤマシナク",
    "town": "大宅甲ノ辻町",
    "town_kana": "オオヤケコウノツジチョウ",
    "street": null,
    "office_name": null,
    "office_name_kana": null
  },
  "8185": {
    "postcode": "6078185",
    "prefecture": "京都府",
    "prefecture_kana": "キョウトフ",
    "prefecture_code": 26,
    "city": "京都市山科区",
    "city_kana": "キョウトシヤマシナク",
    "town": "大宅神納町",
    "town_kana": "オオヤケカンノウチョウ",
    "street": null,
    "office_name": null,
    "office_name_kana": null
  },
  "8186": {
    "postcode": "6078186",
    "prefecture": "京都府",
    "prefecture_kana": "キョウトフ",
    "prefecture_code": 26,
    "city": "京都市山科区",
    "city_kana": "キョウトシヤマシナク",
    "town": "大宅早稲ノ内町",
    "town_kana": "オオヤケワセノウチチョウ",
    "street": null,
    "office_name": null,
    "office_name_kana": null
  },
  "8187": {
    "postcode": "6078187",
    "prefecture": "京都府",
    "prefecture_kana": "キョウトフ",
    "prefecture_code": 26,
    "city": "京都市山科区",
    "city_kana": "キョウトシヤマシナク",
    "town": "大宅石郡町",
    "town_kana": "オオヤケイシゴオリチョウ",
    "street": null,
    "office_name": null,
    "office_name_kana": null
  },
  "8188": {
    "postcode": "6078188",
    "prefecture": "京都府",
    "prefecture_kana": "キョウトフ",
    "prefecture_code": 26,
    "city": "京都市山科区",
    "city_kana": "キョウトシヤマシナク",
    "town": "大宅関生町",
    "town_kana": "オオヤケセキショウチョウ",
    "street": null,
    "office_name": null,
    "office_name_kana": null
  },
  "8189": {
    "postcode": "6078189",
    "prefecture": "京都府",
    "prefecture_kana": "キョウトフ",
    "prefecture_code": 26,
    "city": "京都市山科区",
    "city_kana": "キョウトシヤマシナク",
    "town": "大宅細田町",
    "town_kana": "オオヤケホソダチョウ",
    "street": null,
    "office_name": null,
    "office_name_kana": null
  },
  "8191": {
    "postcode": "6078191",
    "prefecture": "京都府",
    "prefecture_kana": "キョウトフ",
    "prefecture_code": 26,
    "city": "京都市山科区",
    "city_kana": "キョウトシヤマシナク",
    "town": "大宅烏田町",
    "town_kana": "オオヤケカラスダチョウ",
    "street": null,
    "office_name": null,
    "office_name_kana": null
  },
  "8192": {
    "postcode": "6078192",
    "prefecture": "京都府",
    "prefecture_kana": "キョウトフ",
    "prefecture_code": 26,
    "city": "京都市山科区",
    "city_kana": "キョウトシヤマシナク",
    "town": "大宅御供田町",
    "town_kana": "オオヤケゴクデンチョウ",
    "street": null,
    "office_name": null,
    "office_name_kana": null
  },
  "8193": {
    "postcode": "6078193",
    "prefecture": "京都府",
    "prefecture_kana": "キョウトフ",
    "prefecture_code": 26,
    "city": "京都市山科区",
    "city_kana": "キョウトシヤマシナク",
    "town": "大宅沢町",
    "town_kana": "オオヤケサワチョウ",
    "street": null,
    "office_name": null,
    "office_name_kana": null
  },
  "8194": {
    "postcode": "6078194",
    "prefecture": "京都府",
    "prefecture_kana": "キョウトフ",
    "prefecture_code": 26,
    "city": "京都市山科区",
    "city_kana": "キョウトシヤマシナク",
    "town": "大宅桟敷",
    "town_kana": "オオヤケサジキ",
    "street": null,
    "office_name": null,
    "office_name_kana": null
  },
  "8201": {
    "postcode": "6078201",
    "prefecture": "京都府",
    "prefecture_kana": "キョウトフ",
    "prefecture_code": 26,
    "city": "京都市山科区",
    "city_kana": "キョウトシヤマシナク",
    "town": "栗栖野狐塚",
    "town_kana": "クリスノキツネヅカ",
    "street": null,
    "office_name": null,
    "office_name_kana": null
  },
  "8202": {
    "postcode": "6078202",
    "prefecture": "京都府",
    "prefecture_kana": "キョウトフ",
    "prefecture_code": 26,
    "city": "京都市山科区",
    "city_kana": "キョウトシヤマシナク",
    "town": "栗栖野中臣町",
    "town_kana": "クリスノナカトミチョウ",
    "street": null,
    "office_name": null,
    "office_name_kana": null
  },
  "8203": {
    "postcode": "6078203",
    "prefecture": "京都府",
    "prefecture_kana": "キョウトフ",
    "prefecture_code": 26,
    "city": "京都市山科区",
    "city_kana": "キョウトシヤマシナク",
    "town": "栗栖野打越町",
    "town_kana": "クリスノウチコシチョウ",
    "street": null,
    "office_name": null,
    "office_name_kana": null
  },
  "8204": {
    "postcode": "6078204",
    "prefecture": "京都府",
    "prefecture_kana": "キョウトフ",
    "prefecture_code": 26,
    "city": "京都市山科区",
    "city_kana": "キョウトシヤマシナク",
    "town": "栗栖野華ノ木町",
    "town_kana": "クリスノハナノキチョウ",
    "street": null,
    "office_name": null,
    "office_name_kana": null
  },
  "8211": {
    "postcode": "6078211",
    "prefecture": "京都府",
    "prefecture_kana": "キョウトフ",
    "prefecture_code": 26,
    "city": "京都市山科区",
    "city_kana": "キョウトシヤマシナク",
    "town": "勧修寺東栗栖野町",
    "town_kana": "カンシュウジヒガシクリスノチョウ",
    "street": null,
    "office_name": null,
    "office_name_kana": null
  },
  "8212": {
    "postcode": "6078212",
    "prefecture": "京都府",
    "prefecture_kana": "キョウトフ",
    "prefecture_code": 26,
    "city": "京都市山科区",
    "city_kana": "キョウトシヤマシナク",
    "town": "勧修寺西栗栖野町",
    "town_kana": "カンシュウジニシクリスノチョウ",
    "street": null,
    "office_name": null,
    "office_name_kana": null
  },
  "8213": {
    "postcode": "6078213",
    "prefecture": "京都府",
    "prefecture_kana": "キョウトフ",
    "prefecture_code": 26,
    "city": "京都市山科区",
    "city_kana": "キョウトシヤマシナク",
    "town": "勧修寺東金ケ崎町",
    "town_kana": "カンシュウジヒガシカナガサキチョウ",
    "street": null,
    "office_name": null,
    "office_name_kana": null
  },
  "8214": {
    "postcode": "6078214",
    "prefecture": "京都府",
    "prefecture_kana": "キョウトフ",
    "prefecture_code": 26,
    "city": "京都市山科区",
    "city_kana": "キョウトシヤマシナク",
    "town": "勧修寺平田町",
    "town_kana": "カンシュウジヒラタチョウ",
    "street": null,
    "office_name": null,
    "office_name_kana": null
  },
  "8215": {
    "postcode": "6078215",
    "prefecture": "京都府",
    "prefecture_kana": "キョウトフ",
    "prefecture_code": 26,
    "city": "京都市山科区",
    "city_kana": "キョウトシヤマシナク",
    "town": "勧修寺縄手町",
    "town_kana": "カンシュウジナワテチョウ",
    "street": null,
    "office_name": null,
    "office_name_kana": null
  },
  "8216": {
    "postcode": "6078216",
    "prefecture": "京都府",
    "prefecture_kana": "キョウトフ",
    "prefecture_code": 26,
    "city": "京都市山科区",
    "city_kana": "キョウトシヤマシナク",
    "town": "勧修寺東出町",
    "town_kana": "カンシュウジヒガシデチョウ",
    "street": null,
    "office_name": null,
    "office_name_kana": null
  },
  "8217": {
    "postcode": "6078217",
    "prefecture": "京都府",
    "prefecture_kana": "キョウトフ",
    "prefecture_code": 26,
    "city": "京都市山科区",
    "city_kana": "キョウトシヤマシナク",
    "town": "勧修寺閑林寺",
    "town_kana": "カンシュウジカンリンジ",
    "street": null,
    "office_name": null,
    "office_name_kana": null
  },
  "8218": {
    "postcode": "6078218",
    "prefecture": "京都府",
    "prefecture_kana": "キョウトフ",
    "prefecture_code": 26,
    "city": "京都市山科区",
    "city_kana": "キョウトシヤマシナク",
    "town": "勧修寺御所内町",
    "town_kana": "カンシュウジゴショウチチョウ",
    "street": null,
    "office_name": null,
    "office_name_kana": null
  },
  "8219": {
    "postcode": "6078219",
    "prefecture": "京都府",
    "prefecture_kana": "キョウトフ",
    "prefecture_code": 26,
    "city": "京都市山科区",
    "city_kana": "キョウトシヤマシナク",
    "town": "勧修寺風呂尻町",
    "town_kana": "カンシュウジフロジリチョウ",
    "street": null,
    "office_name": null,
    "office_name_kana": null
  },
  "8221": {
    "postcode": "6078221",
    "prefecture": "京都府",
    "prefecture_kana": "キョウトフ",
    "prefecture_code": 26,
    "city": "京都市山科区",
    "city_kana": "キョウトシヤマシナク",
    "town": "勧修寺西金ケ崎",
    "town_kana": "カンシュウジニシカナガサキ",
    "street": null,
    "office_name": null,
    "office_name_kana": null
  },
  "8222": {
    "postcode": "6078222",
    "prefecture": "京都府",
    "prefecture_kana": "キョウトフ",
    "prefecture_code": 26,
    "city": "京都市山科区",
    "city_kana": "キョウトシヤマシナク",
    "town": "勧修寺東堂田町",
    "town_kana": "カンシュウジヒガシドウデンチョウ",
    "street": null,
    "office_name": null,
    "office_name_kana": null
  },
  "8223": {
    "postcode": "6078223",
    "prefecture": "京都府",
    "prefecture_kana": "キョウトフ",
    "prefecture_code": 26,
    "city": "京都市山科区",
    "city_kana": "キョウトシヤマシナク",
    "town": "勧修寺瀬戸河原町",
    "town_kana": "カンシュウジセトガワラチョウ",
    "street": null,
    "office_name": null,
    "office_name_kana": null
  },
  "8224": {
    "postcode": "6078224",
    "prefecture": "京都府",
    "prefecture_kana": "キョウトフ",
    "prefecture_code": 26,
    "city": "京都市山科区",
    "city_kana": "キョウトシヤマシナク",
    "town": "勧修寺東北出町",
    "town_kana": "カンシュウジヒガシキタデチョウ",
    "street": null,
    "office_name": null,
    "office_name_kana": null
  },
  "8225": {
    "postcode": "6078225",
    "prefecture": "京都府",
    "prefecture_kana": "キョウトフ",
    "prefecture_code": 26,
    "city": "京都市山科区",
    "city_kana": "キョウトシヤマシナク",
    "town": "勧修寺西北出町",
    "town_kana": "カンシュウジニシキタデチョウ",
    "street": null,
    "office_name": null,
    "office_name_kana": null
  },
  "8226": {
    "postcode": "6078226",
    "prefecture": "京都府",
    "prefecture_kana": "キョウトフ",
    "prefecture_code": 26,
    "city": "京都市山科区",
    "city_kana": "キョウトシヤマシナク",
    "town": "勧修寺仁王堂町",
    "town_kana": "カンシュウジニオウドウチョウ",
    "street": null,
    "office_name": null,
    "office_name_kana": null
  },
  "8227": {
    "postcode": "6078227",
    "prefecture": "京都府",
    "prefecture_kana": "キョウトフ",
    "prefecture_code": 26,
    "city": "京都市山科区",
    "city_kana": "キョウトシヤマシナク",
    "town": "勧修寺下ノ茶屋町",
    "town_kana": "カンシュウジシモノチャヤチョウ",
    "street": null,
    "office_name": null,
    "office_name_kana": null
  },
  "8228": {
    "postcode": "6078228",
    "prefecture": "京都府",
    "prefecture_kana": "キョウトフ",
    "prefecture_code": 26,
    "city": "京都市山科区",
    "city_kana": "キョウトシヤマシナク",
    "town": "勧修寺本堂山町",
    "town_kana": "カンシュウジホンドウヤマチョウ",
    "street": null,
    "office_name": null,
    "office_name_kana": null
  },
  "8229": {
    "postcode": "6078229",
    "prefecture": "京都府",
    "prefecture_kana": "キョウトフ",
    "prefecture_code": 26,
    "city": "京都市山科区",
    "city_kana": "キョウトシヤマシナク",
    "town": "勧修寺泉玉町",
    "town_kana": "カンシュウジセンギョクチョウ",
    "street": null,
    "office_name": null,
    "office_name_kana": null
  },
  "8231": {
    "postcode": "6078231",
    "prefecture": "京都府",
    "prefecture_kana": "キョウトフ",
    "prefecture_code": 26,
    "city": "京都市山科区",
    "city_kana": "キョウトシヤマシナク",
    "town": "勧修寺堂田",
    "town_kana": "カンシュウジドウデン",
    "street": null,
    "office_name": null,
    "office_name_kana": null
  },
  "8232": {
    "postcode": "6078232",
    "prefecture": "京都府",
    "prefecture_kana": "キョウトフ",
    "prefecture_code": 26,
    "city": "京都市山科区",
    "city_kana": "キョウトシヤマシナク",
    "town": "勧修寺福岡町",
    "town_kana": "カンシュウジフクオカチョウ",
    "street": null,
    "office_name": null,
    "office_name_kana": null
  },
  "8233": {
    "postcode": "6078233",
    "prefecture": "京都府",
    "prefecture_kana": "キョウトフ",
    "prefecture_code": 26,
    "city": "京都市山科区",
    "city_kana": "キョウトシヤマシナク",
    "town": "勧修寺南谷町",
    "town_kana": "カンシュウジミナミダニチョウ",
    "street": null,
    "office_name": null,
    "office_name_kana": null
  },
  "8234": {
    "postcode": "6078234",
    "prefecture": "京都府",
    "prefecture_kana": "キョウトフ",
    "prefecture_code": 26,
    "city": "京都市山科区",
    "city_kana": "キョウトシヤマシナク",
    "town": "勧修寺南大日町",
    "town_kana": "カンシュウジミナミダイニチチョウ",
    "street": null,
    "office_name": null,
    "office_name_kana": null
  },
  "8235": {
    "postcode": "6078235",
    "prefecture": "京都府",
    "prefecture_kana": "キョウトフ",
    "prefecture_code": 26,
    "city": "京都市山科区",
    "city_kana": "キョウトシヤマシナク",
    "town": "勧修寺南大日",
    "town_kana": "カンシュウジミナミダイニチ",
    "street": null,
    "office_name": null,
    "office_name_kana": null
  },
  "8236": {
    "postcode": "6078236",
    "prefecture": "京都府",
    "prefecture_kana": "キョウトフ",
    "prefecture_code": 26,
    "city": "京都市山科区",
    "city_kana": "キョウトシヤマシナク",
    "town": "勧修寺小松原町",
    "town_kana": "カンシュウジコマツバラチョウ",
    "street": null,
    "office_name": null,
    "office_name_kana": null
  },
  "8237": {
    "postcode": "6078237",
    "prefecture": "京都府",
    "prefecture_kana": "キョウトフ",
    "prefecture_code": 26,
    "city": "京都市山科区",
    "city_kana": "キョウトシヤマシナク",
    "town": "勧修寺北大日町",
    "town_kana": "カンシュウジキタダイニチチョウ",
    "street": null,
    "office_name": null,
    "office_name_kana": null
  },
  "8238": {
    "postcode": "6078238",
    "prefecture": "京都府",
    "prefecture_kana": "キョウトフ",
    "prefecture_code": 26,
    "city": "京都市山科区",
    "city_kana": "キョウトシヤマシナク",
    "town": "勧修寺北大日",
    "town_kana": "カンシュウジキタダイニチ",
    "street": null,
    "office_name": null,
    "office_name_kana": null
  },
  "8239": {
    "postcode": "6078239",
    "prefecture": "京都府",
    "prefecture_kana": "キョウトフ",
    "prefecture_code": 26,
    "city": "京都市山科区",
    "city_kana": "キョウトシヤマシナク",
    "town": "勧修寺丸山町",
    "town_kana": "カンシュウジマルヤマチョウ",
    "street": null,
    "office_name": null,
    "office_name_kana": null
  },
  "8241": {
    "postcode": "6078241",
    "prefecture": "京都府",
    "prefecture_kana": "キョウトフ",
    "prefecture_code": 26,
    "city": "京都市山科区",
    "city_kana": "キョウトシヤマシナク",
    "town": "勧修寺冷尻",
    "town_kana": "カンシュウジヒエジリ",
    "street": null,
    "office_name": null,
    "office_name_kana": null
  },
  "8242": {
    "postcode": "6078242",
    "prefecture": "京都府",
    "prefecture_kana": "キョウトフ",
    "prefecture_code": 26,
    "city": "京都市山科区",
    "city_kana": "キョウトシヤマシナク",
    "town": "勧修寺柴山",
    "town_kana": "カンシュウジシバヤマ",
    "street": null,
    "office_name": null,
    "office_name_kana": null
  },
  "8251": {
    "postcode": "6078251",
    "prefecture": "京都府",
    "prefecture_kana": "キョウトフ",
    "prefecture_code": 26,
    "city": "京都市山科区",
    "city_kana": "キョウトシヤマシナク",
    "town": "小野蚊ケ瀬町",
    "town_kana": "オノカガセチョウ",
    "street": null,
    "office_name": null,
    "office_name_kana": null
  },
  "8252": {
    "postcode": "6078252",
    "prefecture": "京都府",
    "prefecture_kana": "キョウトフ",
    "prefecture_code": 26,
    "city": "京都市山科区",
    "city_kana": "キョウトシヤマシナク",
    "town": "小野河原町",
    "town_kana": "オノカワラチョウ",
    "street": null,
    "office_name": null,
    "office_name_kana": null
  },
  "8253": {
    "postcode": "6078253",
    "prefecture": "京都府",
    "prefecture_kana": "キョウトフ",
    "prefecture_code": 26,
    "city": "京都市山科区",
    "city_kana": "キョウトシヤマシナク",
    "town": "小野弓田町",
    "town_kana": "オノユミデンチョウ",
    "street": null,
    "office_name": null,
    "office_name_kana": null
  },
  "8254": {
    "postcode": "6078254",
    "prefecture": "京都府",
    "prefecture_kana": "キョウトフ",
    "prefecture_code": 26,
    "city": "京都市山科区",
    "city_kana": "キョウトシヤマシナク",
    "town": "小野高芝町",
    "town_kana": "オノタカシバチョウ",
    "street": null,
    "office_name": null,
    "office_name_kana": null
  },
  "8255": {
    "postcode": "6078255",
    "prefecture": "京都府",
    "prefecture_kana": "キョウトフ",
    "prefecture_code": 26,
    "city": "京都市山科区",
    "city_kana": "キョウトシヤマシナク",
    "town": "小野御所ノ内町",
    "town_kana": "オノゴショノウチチョウ",
    "street": null,
    "office_name": null,
    "office_name_kana": null
  },
  "8256": {
    "postcode": "6078256",
    "prefecture": "京都府",
    "prefecture_kana": "キョウトフ",
    "prefecture_code": 26,
    "city": "京都市山科区",
    "city_kana": "キョウトシヤマシナク",
    "town": "小野荘司町",
    "town_kana": "オノショウジチョウ",
    "street": null,
    "office_name": null,
    "office_name_kana": null
  },
  "8257": {
    "postcode": "6078257",
    "prefecture": "京都府",
    "prefecture_kana": "キョウトフ",
    "prefecture_code": 26,
    "city": "京都市山科区",
    "city_kana": "キョウトシヤマシナク",
    "town": "小野御霊町",
    "town_kana": "オノゴリョウチョウ",
    "street": null,
    "office_name": null,
    "office_name_kana": null
  },
  "8258": {
    "postcode": "6078258",
    "prefecture": "京都府",
    "prefecture_kana": "キョウトフ",
    "prefecture_code": 26,
    "city": "京都市山科区",
    "city_kana": "キョウトシヤマシナク",
    "town": "小野西浦",
    "town_kana": "オノニシウラ",
    "street": null,
    "office_name": null,
    "office_name_kana": null
  },
  "8259": {
    "postcode": "6078259",
    "prefecture": "京都府",
    "prefecture_kana": "キョウトフ",
    "prefecture_code": 26,
    "city": "京都市山科区",
    "city_kana": "キョウトシヤマシナク",
    "town": "小野葛篭尻町",
    "town_kana": "オノツヅラジリチョウ",
    "street": null,
    "office_name": null,
    "office_name_kana": null
  },
  "8261": {
    "postcode": "6078261",
    "prefecture": "京都府",
    "prefecture_kana": "キョウトフ",
    "prefecture_code": 26,
    "city": "京都市山科区",
    "city_kana": "キョウトシヤマシナク",
    "town": "小野鐘付田町",
    "town_kana": "オノカネツキデンチョウ",
    "street": null,
    "office_name": null,
    "office_name_kana": null
  },
  "8301": {
    "postcode": "6078301",
    "prefecture": "京都府",
    "prefecture_kana": "キョウトフ",
    "prefecture_code": 26,
    "city": "京都市山科区",
    "city_kana": "キョウトシヤマシナク",
    "town": "西野山百々町",
    "town_kana": "ニシノヤマドドチョウ",
    "street": null,
    "office_name": null,
    "office_name_kana": null
  },
  "8302": {
    "postcode": "6078302",
    "prefecture": "京都府",
    "prefecture_kana": "キョウトフ",
    "prefecture_code": 26,
    "city": "京都市山科区",
    "city_kana": "キョウトシヤマシナク",
    "town": "西野山欠ノ上町",
    "town_kana": "ニシノヤマカケノウエチョウ",
    "street": null,
    "office_name": null,
    "office_name_kana": null
  },
  "8303": {
    "postcode": "6078303",
    "prefecture": "京都府",
    "prefecture_kana": "キョウトフ",
    "prefecture_code": 26,
    "city": "京都市山科区",
    "city_kana": "キョウトシヤマシナク",
    "town": "西野山中畑町",
    "town_kana": "ニシノヤマナカハタチョウ",
    "street": null,
    "office_name": null,
    "office_name_kana": null
  },
  "8304": {
    "postcode": "6078304",
    "prefecture": "京都府",
    "prefecture_kana": "キョウトフ",
    "prefecture_code": 26,
    "city": "京都市山科区",
    "city_kana": "キョウトシヤマシナク",
    "town": "西野山南畑町",
    "town_kana": "ニシノヤマミナミハタチョウ",
    "street": null,
    "office_name": null,
    "office_name_kana": null
  },
  "8305": {
    "postcode": "6078305",
    "prefecture": "京都府",
    "prefecture_kana": "キョウトフ",
    "prefecture_code": 26,
    "city": "京都市山科区",
    "city_kana": "キョウトシヤマシナク",
    "town": "西野山中臣町",
    "town_kana": "ニシノヤマナカトミチョウ",
    "street": null,
    "office_name": null,
    "office_name_kana": null
  },
  "8306": {
    "postcode": "6078306",
    "prefecture": "京都府",
    "prefecture_kana": "キョウトフ",
    "prefecture_code": 26,
    "city": "京都市山科区",
    "city_kana": "キョウトシヤマシナク",
    "town": "西野山中鳥井町",
    "town_kana": "ニシノヤマナカトリイチョウ",
    "street": null,
    "office_name": null,
    "office_name_kana": null
  },
  "8307": {
    "postcode": "6078307",
    "prefecture": "京都府",
    "prefecture_kana": "キョウトフ",
    "prefecture_code": 26,
    "city": "京都市山科区",
    "city_kana": "キョウトシヤマシナク",
    "town": "西野山射庭ノ上町",
    "town_kana": "ニシノヤマイバノウエチョウ",
    "street": null,
    "office_name": null,
    "office_name_kana": null
  },
  "8308": {
    "postcode": "6078308",
    "prefecture": "京都府",
    "prefecture_kana": "キョウトフ",
    "prefecture_code": 26,
    "city": "京都市山科区",
    "city_kana": "キョウトシヤマシナク",
    "town": "西野山桜ノ馬場町",
    "town_kana": "ニシノヤマサクラノババチョウ",
    "street": null,
    "office_name": null,
    "office_name_kana": null
  },
  "8309": {
    "postcode": "6078309",
    "prefecture": "京都府",
    "prefecture_kana": "キョウトフ",
    "prefecture_code": 26,
    "city": "京都市山科区",
    "city_kana": "キョウトシヤマシナク",
    "town": "西野山岩ケ谷町",
    "town_kana": "ニシノヤマイワガタニチョウ",
    "street": null,
    "office_name": null,
    "office_name_kana": null
  },
  "8311": {
    "postcode": "6078311",
    "prefecture": "京都府",
    "prefecture_kana": "キョウトフ",
    "prefecture_code": 26,
    "city": "京都市山科区",
    "city_kana": "キョウトシヤマシナク",
    "town": "西野山山田",
    "town_kana": "ニシノヤマヤマダ",
    "street": null,
    "office_name": null,
    "office_name_kana": null
  },
  "8321": {
    "postcode": "6078321",
    "prefecture": "京都府",
    "prefecture_kana": "キョウトフ",
    "prefecture_code": 26,
    "city": "京都市山科区",
    "city_kana": "キョウトシヤマシナク",
    "town": "川田岩ケ谷",
    "town_kana": "カワタイワガタニ",
    "street": null,
    "office_name": null,
    "office_name_kana": null
  },
  "8322": {
    "postcode": "6078322",
    "prefecture": "京都府",
    "prefecture_kana": "キョウトフ",
    "prefecture_code": 26,
    "city": "京都市山科区",
    "city_kana": "キョウトシヤマシナク",
    "town": "川田清水焼団地町",
    "town_kana": "カワタキヨミズヤキダンチチョウ",
    "street": null,
    "office_name": null,
    "office_name_kana": null
  },
  "8323": {
    "postcode": "6078323",
    "prefecture": "京都府",
    "prefecture_kana": "キョウトフ",
    "prefecture_code": 26,
    "city": "京都市山科区",
    "city_kana": "キョウトシヤマシナク",
    "town": "川田岡ノ西",
    "town_kana": "カワタオカノニシ",
    "street": null,
    "office_name": null,
    "office_name_kana": null
  },
  "8324": {
    "postcode": "6078324",
    "prefecture": "京都府",
    "prefecture_kana": "キョウトフ",
    "prefecture_code": 26,
    "city": "京都市山科区",
    "city_kana": "キョウトシヤマシナク",
    "town": "川田百々",
    "town_kana": "カワタドド",
    "street": null,
    "office_name": null,
    "office_name_kana": null
  },
  "8325": {
    "postcode": "6078325",
    "prefecture": "京都府",
    "prefecture_kana": "キョウトフ",
    "prefecture_code": 26,
    "city": "京都市山科区",
    "city_kana": "キョウトシヤマシナク",
    "town": "川田土仏",
    "town_kana": "カワタツチボトケ",
    "street": null,
    "office_name": null,
    "office_name_kana": null
  },
  "8326": {
    "postcode": "6078326",
    "prefecture": "京都府",
    "prefecture_kana": "キョウトフ",
    "prefecture_code": 26,
    "city": "京都市山科区",
    "city_kana": "キョウトシヤマシナク",
    "town": "川田御出町",
    "town_kana": "カワタオイデチョウ",
    "street": null,
    "office_name": null,
    "office_name_kana": null
  },
  "8327": {
    "postcode": "6078327",
    "prefecture": "京都府",
    "prefecture_kana": "キョウトフ",
    "prefecture_code": 26,
    "city": "京都市山科区",
    "city_kana": "キョウトシヤマシナク",
    "town": "川田山田",
    "town_kana": "カワタヤマダ",
    "street": null,
    "office_name": null,
    "office_name_kana": null
  },
  "8328": {
    "postcode": "6078328",
    "prefecture": "京都府",
    "prefecture_kana": "キョウトフ",
    "prefecture_code": 26,
    "city": "京都市山科区",
    "city_kana": "キョウトシヤマシナク",
    "town": "川田南山",
    "town_kana": "カワタミナミヤマ",
    "street": null,
    "office_name": null,
    "office_name_kana": null
  },
  "8329": {
    "postcode": "6078329",
    "prefecture": "京都府",
    "prefecture_kana": "キョウトフ",
    "prefecture_code": 26,
    "city": "京都市山科区",
    "city_kana": "キョウトシヤマシナク",
    "town": "川田梅ケ谷町",
    "town_kana": "カワタウメガタニチョウ",
    "street": null,
    "office_name": null,
    "office_name_kana": null
  },
  "8331": {
    "postcode": "6078331",
    "prefecture": "京都府",
    "prefecture_kana": "キョウトフ",
    "prefecture_code": 26,
    "city": "京都市山科区",
    "city_kana": "キョウトシヤマシナク",
    "town": "川田御輿塚町",
    "town_kana": "カワタミコシヅカチョウ",
    "street": null,
    "office_name": null,
    "office_name_kana": null
  },
  "8332": {
    "postcode": "6078332",
    "prefecture": "京都府",
    "prefecture_kana": "キョウトフ",
    "prefecture_code": 26,
    "city": "京都市山科区",
    "city_kana": "キョウトシヤマシナク",
    "town": "川田西浦町",
    "town_kana": "カワタニシウラチョウ",
    "street": null,
    "office_name": null,
    "office_name_kana": null
  },
  "8333": {
    "postcode": "6078333",
    "prefecture": "京都府",
    "prefecture_kana": "キョウトフ",
    "prefecture_code": 26,
    "city": "京都市山科区",
    "city_kana": "キョウトシヤマシナク",
    "town": "川田前畑町",
    "town_kana": "カワタマエハタチョウ",
    "street": null,
    "office_name": null,
    "office_name_kana": null
  },
  "8334": {
    "postcode": "6078334",
    "prefecture": "京都府",
    "prefecture_kana": "キョウトフ",
    "prefecture_code": 26,
    "city": "京都市山科区",
    "city_kana": "キョウトシヤマシナク",
    "town": "川田欠ノ上",
    "town_kana": "カワタカケノウエ",
    "street": null,
    "office_name": null,
    "office_name_kana": null
  },
  "8335": {
    "postcode": "6078335",
    "prefecture": "京都府",
    "prefecture_kana": "キョウトフ",
    "prefecture_code": 26,
    "city": "京都市山科区",
    "city_kana": "キョウトシヤマシナク",
    "town": "川田南畑町",
    "town_kana": "カワタミナミバタチョウ",
    "street": null,
    "office_name": null,
    "office_name_kana": null
  },
  "8336": {
    "postcode": "6078336",
    "prefecture": "京都府",
    "prefecture_kana": "キョウトフ",
    "prefecture_code": 26,
    "city": "京都市山科区",
    "city_kana": "キョウトシヤマシナク",
    "town": "川田中畑町",
    "town_kana": "カワタナカバタチョウ",
    "street": null,
    "office_name": null,
    "office_name_kana": null
  },
  "8337": {
    "postcode": "6078337",
    "prefecture": "京都府",
    "prefecture_kana": "キョウトフ",
    "prefecture_code": 26,
    "city": "京都市山科区",
    "city_kana": "キョウトシヤマシナク",
    "town": "川田菱尾田",
    "town_kana": "カワタヒシオダ",
    "street": null,
    "office_name": null,
    "office_name_kana": null
  },
  "8341": {
    "postcode": "6078341",
    "prefecture": "京都府",
    "prefecture_kana": "キョウトフ",
    "prefecture_code": 26,
    "city": "京都市山科区",
    "city_kana": "キョウトシヤマシナク",
    "town": "西野今屋敷町",
    "town_kana": "ニシノイマヤシキチョウ",
    "street": null,
    "office_name": null,
    "office_name_kana": null
  },
  "8342": {
    "postcode": "6078342",
    "prefecture": "京都府",
    "prefecture_kana": "キョウトフ",
    "prefecture_code": 26,
    "city": "京都市山科区",
    "city_kana": "キョウトシヤマシナク",
    "town": "西野様子見町",
    "town_kana": "ニシノヨウスミチョウ",
    "street": null,
    "office_name": null,
    "office_name_kana": null
  },
  "8343": {
    "postcode": "6078343",
    "prefecture": "京都府",
    "prefecture_kana": "キョウトフ",
    "prefecture_code": 26,
    "city": "京都市山科区",
    "city_kana": "キョウトシヤマシナク",
    "town": "西野阿芸沢町",
    "town_kana": "ニシノアゲザワチョウ",
    "street": null,
    "office_name": null,
    "office_name_kana": null
  },
  "8344": {
    "postcode": "6078344",
    "prefecture": "京都府",
    "prefecture_kana": "キョウトフ",
    "prefecture_code": 26,
    "city": "京都市山科区",
    "city_kana": "キョウトシヤマシナク",
    "town": "西野大手先町",
    "town_kana": "ニシノオオテサキチョウ",
    "street": null,
    "office_name": null,
    "office_name_kana": null
  },
  "8345": {
    "postcode": "6078345",
    "prefecture": "京都府",
    "prefecture_kana": "キョウトフ",
    "prefecture_code": 26,
    "city": "京都市山科区",
    "city_kana": "キョウトシヤマシナク",
    "town": "西野離宮町",
    "town_kana": "ニシノリキュウチョウ",
    "street": null,
    "office_name": null,
    "office_name_kana": null
  },
  "8346": {
    "postcode": "6078346",
    "prefecture": "京都府",
    "prefecture_kana": "キョウトフ",
    "prefecture_code": 26,
    "city": "京都市山科区",
    "city_kana": "キョウトシヤマシナク",
    "town": "西野山階町",
    "town_kana": "ニシノサンカイチョウ",
    "street": null,
    "office_name": null,
    "office_name_kana": null
  },
  "8347": {
    "postcode": "6078347",
    "prefecture": "京都府",
    "prefecture_kana": "キョウトフ",
    "prefecture_code": 26,
    "city": "京都市山科区",
    "city_kana": "キョウトシヤマシナク",
    "town": "西野左義長町",
    "town_kana": "ニシノサギチョウチョウ",
    "street": null,
    "office_name": null,
    "office_name_kana": null
  },
  "8348": {
    "postcode": "6078348",
    "prefecture": "京都府",
    "prefecture_kana": "キョウトフ",
    "prefecture_code": 26,
    "city": "京都市山科区",
    "city_kana": "キョウトシヤマシナク",
    "town": "西野広見町",
    "town_kana": "ニシノヒロミチョウ",
    "street": null,
    "office_name": null,
    "office_name_kana": null
  },
  "8351": {
    "postcode": "6078351",
    "prefecture": "京都府",
    "prefecture_kana": "キョウトフ",
    "prefecture_code": 26,
    "city": "京都市山科区",
    "city_kana": "キョウトシヤマシナク",
    "town": "西野八幡田町",
    "town_kana": "ニシノハチマンデンチョウ",
    "street": null,
    "office_name": null,
    "office_name_kana": null
  },
  "8352": {
    "postcode": "6078352",
    "prefecture": "京都府",
    "prefecture_kana": "キョウトフ",
    "prefecture_code": 26,
    "city": "京都市山科区",
    "city_kana": "キョウトシヤマシナク",
    "town": "西野岸ノ下町",
    "town_kana": "ニシノキシノシタチョウ",
    "street": null,
    "office_name": null,
    "office_name_kana": null
  },
  "8353": {
    "postcode": "6078353",
    "prefecture": "京都府",
    "prefecture_kana": "キョウトフ",
    "prefecture_code": 26,
    "city": "京都市山科区",
    "city_kana": "キョウトシヤマシナク",
    "town": "西野野色町",
    "town_kana": "ニシノノイロチョウ",
    "street": null,
    "office_name": null,
    "office_name_kana": null
  },
  "8354": {
    "postcode": "6078354",
    "prefecture": "京都府",
    "prefecture_kana": "キョウトフ",
    "prefecture_code": 26,
    "city": "京都市山科区",
    "city_kana": "キョウトシヤマシナク",
    "town": "西野小柳町",
    "town_kana": "ニシノコヤナギチョウ",
    "street": null,
    "office_name": null,
    "office_name_kana": null
  },
  "8355": {
    "postcode": "6078355",
    "prefecture": "京都府",
    "prefecture_kana": "キョウトフ",
    "prefecture_code": 26,
    "city": "京都市山科区",
    "city_kana": "キョウトシヤマシナク",
    "town": "西野大鳥井町",
    "town_kana": "ニシノオオトリイチョウ",
    "street": null,
    "office_name": null,
    "office_name_kana": null
  },
  "8356": {
    "postcode": "6078356",
    "prefecture": "京都府",
    "prefecture_kana": "キョウトフ",
    "prefecture_code": 26,
    "city": "京都市山科区",
    "city_kana": "キョウトシヤマシナク",
    "town": "西野後藤",
    "town_kana": "ニシノゴトウ",
    "street": null,
    "office_name": null,
    "office_name_kana": null
  },
  "8357": {
    "postcode": "6078357",
    "prefecture": "京都府",
    "prefecture_kana": "キョウトフ",
    "prefecture_code": 26,
    "city": "京都市山科区",
    "city_kana": "キョウトシヤマシナク",
    "town": "西野櫃川町",
    "town_kana": "ニシノヒツガワチョウ",
    "street": null,
    "office_name": null,
    "office_name_kana": null
  },
  "8358": {
    "postcode": "6078358",
    "prefecture": "京都府",
    "prefecture_kana": "キョウトフ",
    "prefecture_code": 26,
    "city": "京都市山科区",
    "city_kana": "キョウトシヤマシナク",
    "town": "西野楳本町",
    "town_kana": "ニシノムメモトチョウ",
    "street": null,
    "office_name": null,
    "office_name_kana": null
  },
  "8401": {
    "postcode": "6078401",
    "prefecture": "京都府",
    "prefecture_kana": "キョウトフ",
    "prefecture_code": 26,
    "city": "京都市山科区",
    "city_kana": "キョウトシヤマシナク",
    "town": "御陵沢ノ川町",
    "town_kana": "ミササギサワノカワチョウ",
    "street": null,
    "office_name": null,
    "office_name_kana": null
  },
  "8402": {
    "postcode": "6078402",
    "prefecture": "京都府",
    "prefecture_kana": "キョウトフ",
    "prefecture_code": 26,
    "city": "京都市山科区",
    "city_kana": "キョウトシヤマシナク",
    "town": "御陵黒岩",
    "town_kana": "ミササギクロイワ",
    "street": null,
    "office_name": null,
    "office_name_kana": null
  },
  "8403": {
    "postcode": "6078403",
    "prefecture": "京都府",
    "prefecture_kana": "キョウトフ",
    "prefecture_code": 26,
    "city": "京都市山科区",
    "city_kana": "キョウトシヤマシナク",
    "town": "御陵大岩",
    "town_kana": "ミササギオオイワ",
    "street": null,
    "office_name": null,
    "office_name_kana": null
  },
  "8404": {
    "postcode": "6078404",
    "prefecture": "京都府",
    "prefecture_kana": "キョウトフ",
    "prefecture_code": 26,
    "city": "京都市山科区",
    "city_kana": "キョウトシヤマシナク",
    "town": "御陵大谷町",
    "town_kana": "ミササギオオタニチョウ",
    "street": null,
    "office_name": null,
    "office_name_kana": null
  },
  "8405": {
    "postcode": "6078405",
    "prefecture": "京都府",
    "prefecture_kana": "キョウトフ",
    "prefecture_code": 26,
    "city": "京都市山科区",
    "city_kana": "キョウトシヤマシナク",
    "town": "御陵田山町",
    "town_kana": "ミササギタヤマチョウ",
    "street": null,
    "office_name": null,
    "office_name_kana": null
  },
  "8406": {
    "postcode": "6078406",
    "prefecture": "京都府",
    "prefecture_kana": "キョウトフ",
    "prefecture_code": 26,
    "city": "京都市山科区",
    "city_kana": "キョウトシヤマシナク",
    "town": "御陵平林町",
    "town_kana": "ミササギヒラバヤシチョウ",
    "street": null,
    "office_name": null,
    "office_name_kana": null
  },
  "8407": {
    "postcode": "6078407",
    "prefecture": "京都府",
    "prefecture_kana": "キョウトフ",
    "prefecture_code": 26,
    "city": "京都市山科区",
    "city_kana": "キョウトシヤマシナク",
    "town": "御陵安祥寺町",
    "town_kana": "ミササギアンショウジチョウ",
    "street": null,
    "office_name": null,
    "office_name_kana": null
  },
  "8408": {
    "postcode": "6078408",
    "prefecture": "京都府",
    "prefecture_kana": "キョウトフ",
    "prefecture_code": 26,
    "city": "京都市山科区",
    "city_kana": "キョウトシヤマシナク",
    "town": "御陵鳥ノ向町",
    "town_kana": "ミササギトリノムカイチョウ",
    "street": null,
    "office_name": null,
    "office_name_kana": null
  },
  "8409": {
    "postcode": "6078409",
    "prefecture": "京都府",
    "prefecture_kana": "キョウトフ",
    "prefecture_code": 26,
    "city": "京都市山科区",
    "city_kana": "キョウトシヤマシナク",
    "town": "御陵天徳町",
    "town_kana": "ミササギテントクチョウ",
    "street": null,
    "office_name": null,
    "office_name_kana": null
  },
  "8411": {
    "postcode": "6078411",
    "prefecture": "京都府",
    "prefecture_kana": "キョウトフ",
    "prefecture_code": 26,
    "city": "京都市山科区",
    "city_kana": "キョウトシヤマシナク",
    "town": "御陵大津畑町",
    "town_kana": "ミササギオオツバタチョウ",
    "street": null,
    "office_name": null,
    "office_name_kana": null
  },
  "8412": {
    "postcode": "6078412",
    "prefecture": "京都府",
    "prefecture_kana": "キョウトフ",
    "prefecture_code": 26,
    "city": "京都市山科区",
    "city_kana": "キョウトシヤマシナク",
    "town": "御陵四丁野町",
    "town_kana": "ミササギシチョウノチョウ",
    "street": null,
    "office_name": null,
    "office_name_kana": null
  },
  "8413": {
    "postcode": "6078413",
    "prefecture": "京都府",
    "prefecture_kana": "キョウトフ",
    "prefecture_code": 26,
    "city": "京都市山科区",
    "city_kana": "キョウトシヤマシナク",
    "town": "御陵三蔵町",
    "town_kana": "ミササギサンゾウチョウ",
    "street": null,
    "office_name": null,
    "office_name_kana": null
  },
  "8414": {
    "postcode": "6078414",
    "prefecture": "京都府",
    "prefecture_kana": "キョウトフ",
    "prefecture_code": 26,
    "city": "京都市山科区",
    "city_kana": "キョウトシヤマシナク",
    "town": "御陵中内町",
    "town_kana": "ミササギナカウチチョウ",
    "street": null,
    "office_name": null,
    "office_name_kana": null
  },
  "8415": {
    "postcode": "6078415",
    "prefecture": "京都府",
    "prefecture_kana": "キョウトフ",
    "prefecture_code": 26,
    "city": "京都市山科区",
    "city_kana": "キョウトシヤマシナク",
    "town": "御陵中筋町",
    "town_kana": "ミササギナカスジチョウ",
    "street": null,
    "office_name": null,
    "office_name_kana": null
  },
  "8416": {
    "postcode": "6078416",
    "prefecture": "京都府",
    "prefecture_kana": "キョウトフ",
    "prefecture_code": 26,
    "city": "京都市山科区",
    "city_kana": "キョウトシヤマシナク",
    "town": "御陵進藤町",
    "town_kana": "ミササギシンドウチョウ",
    "street": null,
    "office_name": null,
    "office_name_kana": null
  },
  "8417": {
    "postcode": "6078417",
    "prefecture": "京都府",
    "prefecture_kana": "キョウトフ",
    "prefecture_code": 26,
    "city": "京都市山科区",
    "city_kana": "キョウトシヤマシナク",
    "town": "御陵別所町",
    "town_kana": "ミササギベッショチョウ",
    "street": null,
    "office_name": null,
    "office_name_kana": null
  },
  "8418": {
    "postcode": "6078418",
    "prefecture": "京都府",
    "prefecture_kana": "キョウトフ",
    "prefecture_code": 26,
    "city": "京都市山科区",
    "city_kana": "キョウトシヤマシナク",
    "town": "御陵牛尾町",
    "town_kana": "ミササギウシオチョウ",
    "street": null,
    "office_name": null,
    "office_name_kana": null
  },
  "8419": {
    "postcode": "6078419",
    "prefecture": "京都府",
    "prefecture_kana": "キョウトフ",
    "prefecture_code": 26,
    "city": "京都市山科区",
    "city_kana": "キョウトシヤマシナク",
    "town": "御陵檀ノ後",
    "town_kana": "ミササギダンノウシロ",
    "street": null,
    "office_name": null,
    "office_name_kana": null
  },
  "8421": {
    "postcode": "6078421",
    "prefecture": "京都府",
    "prefecture_kana": "キョウトフ",
    "prefecture_code": 26,
    "city": "京都市山科区",
    "city_kana": "キョウトシヤマシナク",
    "town": "御陵岡ノ西町",
    "town_kana": "ミササギオカノニシチョウ",
    "street": null,
    "office_name": null,
    "office_name_kana": null
  },
  "8422": {
    "postcode": "6078422",
    "prefecture": "京都府",
    "prefecture_kana": "キョウトフ",
    "prefecture_code": 26,
    "city": "京都市山科区",
    "city_kana": "キョウトシヤマシナク",
    "town": "御陵封ジ山町",
    "town_kana": "ミササギフウジヤマチョウ",
    "street": null,
    "office_name": null,
    "office_name_kana": null
  },
  "8423": {
    "postcode": "6078423",
    "prefecture": "京都府",
    "prefecture_kana": "キョウトフ",
    "prefecture_code": 26,
    "city": "京都市山科区",
    "city_kana": "キョウトシヤマシナク",
    "town": "御陵山ノ谷",
    "town_kana": "ミササギヤマノタニ",
    "street": null,
    "office_name": null,
    "office_name_kana": null
  },
  "8424": {
    "postcode": "6078424",
    "prefecture": "京都府",
    "prefecture_kana": "キョウトフ",
    "prefecture_code": 26,
    "city": "京都市山科区",
    "city_kana": "キョウトシヤマシナク",
    "town": "御陵原西町",
    "town_kana": "ミササギハラニシチョウ",
    "street": null,
    "office_name": null,
    "office_name_kana": null
  },
  "8425": {
    "postcode": "6078425",
    "prefecture": "京都府",
    "prefecture_kana": "キョウトフ",
    "prefecture_code": 26,
    "city": "京都市山科区",
    "city_kana": "キョウトシヤマシナク",
    "town": "御陵上御廟野町",
    "town_kana": "ミササギカミゴビョウノチョウ",
    "street": null,
    "office_name": null,
    "office_name_kana": null
  },
  "8426": {
    "postcode": "6078426",
    "prefecture": "京都府",
    "prefecture_kana": "キョウトフ",
    "prefecture_code": 26,
    "city": "京都市山科区",
    "city_kana": "キョウトシヤマシナク",
    "town": "御陵下御廟野町",
    "town_kana": "ミササギシモゴビョウノチョウ",
    "street": null,
    "office_name": null,
    "office_name_kana": null
  },
  "8427": {
    "postcode": "6078427",
    "prefecture": "京都府",
    "prefecture_kana": "キョウトフ",
    "prefecture_code": 26,
    "city": "京都市山科区",
    "city_kana": "キョウトシヤマシナク",
    "town": "御陵久保町",
    "town_kana": "ミササギクボチョウ",
    "street": null,
    "office_name": null,
    "office_name_kana": null
  },
  "8428": {
    "postcode": "6078428",
    "prefecture": "京都府",
    "prefecture_kana": "キョウトフ",
    "prefecture_code": 26,
    "city": "京都市山科区",
    "city_kana": "キョウトシヤマシナク",
    "town": "御陵血洗町",
    "town_kana": "ミササギチアライチョウ",
    "street": null,
    "office_name": null,
    "office_name_kana": null
  },
  "8429": {
    "postcode": "6078429",
    "prefecture": "京都府",
    "prefecture_kana": "キョウトフ",
    "prefecture_code": 26,
    "city": "京都市山科区",
    "city_kana": "キョウトシヤマシナク",
    "town": "御陵荒巻町",
    "town_kana": "ミササギアラマキチョウ",
    "street": null,
    "office_name": null,
    "office_name_kana": null
  },
  "8431": {
    "postcode": "6078431",
    "prefecture": "京都府",
    "prefecture_kana": "キョウトフ",
    "prefecture_code": 26,
    "city": "京都市山科区",
    "city_kana": "キョウトシヤマシナク",
    "town": "御陵岡町",
    "town_kana": "ミササギオカチョウ",
    "street": null,
    "office_name": null,
    "office_name_kana": null
  },
  "8432": {
    "postcode": "6078432",
    "prefecture": "京都府",
    "prefecture_kana": "キョウトフ",
    "prefecture_code": 26,
    "city": "京都市山科区",
    "city_kana": "キョウトシヤマシナク",
    "town": "御陵鴨戸町",
    "town_kana": "ミササギカモトチョウ",
    "street": null,
    "office_name": null,
    "office_name_kana": null
  },
  "8433": {
    "postcode": "6078433",
    "prefecture": "京都府",
    "prefecture_kana": "キョウトフ",
    "prefecture_code": 26,
    "city": "京都市山科区",
    "city_kana": "キョウトシヤマシナク",
    "town": "御陵池堤町",
    "town_kana": "ミササギイケツツミチョウ",
    "street": null,
    "office_name": null,
    "office_name_kana": null
  },
  "8441": {
    "postcode": "6078441",
    "prefecture": "京都府",
    "prefecture_kana": "キョウトフ",
    "prefecture_code": 26,
    "city": "京都市山科区",
    "city_kana": "キョウトシヤマシナク",
    "town": "上野御所ノ内町",
    "town_kana": "ウエノゴショノウチチョウ",
    "street": null,
    "office_name": null,
    "office_name_kana": null
  },
  "8442": {
    "postcode": "6078442",
    "prefecture": "京都府",
    "prefecture_kana": "キョウトフ",
    "prefecture_code": 26,
    "city": "京都市山科区",
    "city_kana": "キョウトシヤマシナク",
    "town": "上野山田",
    "town_kana": "ウエノヤマダ",
    "street": null,
    "office_name": null,
    "office_name_kana": null
  },
  "8443": {
    "postcode": "6078443",
    "prefecture": "京都府",
    "prefecture_kana": "キョウトフ",
    "prefecture_code": 26,
    "city": "京都市山科区",
    "city_kana": "キョウトシヤマシナク",
    "town": "上野寺井町",
    "town_kana": "ウエノテライチョウ",
    "street": null,
    "office_name": null,
    "office_name_kana": null
  },
  "8451": {
    "postcode": "6078451",
    "prefecture": "京都府",
    "prefecture_kana": "キョウトフ",
    "prefecture_code": 26,
    "city": "京都市山科区",
    "city_kana": "キョウトシヤマシナク",
    "town": "厨子奥若林町",
    "town_kana": "ズシオクワカバヤシチョウ",
    "street": null,
    "office_name": null,
    "office_name_kana": null
  },
  "8452": {
    "postcode": "6078452",
    "prefecture": "京都府",
    "prefecture_kana": "キョウトフ",
    "prefecture_code": 26,
    "city": "京都市山科区",
    "city_kana": "キョウトシヤマシナク",
    "town": "厨子奥矢倉町",
    "town_kana": "ズシオクヤクラチョウ",
    "street": null,
    "office_name": null,
    "office_name_kana": null
  },
  "8453": {
    "postcode": "6078453",
    "prefecture": "京都府",
    "prefecture_kana": "キョウトフ",
    "prefecture_code": 26,
    "city": "京都市山科区",
    "city_kana": "キョウトシヤマシナク",
    "town": "厨子奥尾上町",
    "town_kana": "ズシオクオノエチョウ",
    "street": null,
    "office_name": null,
    "office_name_kana": null
  },
  "8454": {
    "postcode": "6078454",
    "prefecture": "京都府",
    "prefecture_kana": "キョウトフ",
    "prefecture_code": 26,
    "city": "京都市山科区",
    "city_kana": "キョウトシヤマシナク",
    "town": "厨子奥苗代元町",
    "town_kana": "ズシオクナワシロモトチョウ",
    "street": null,
    "office_name": null,
    "office_name_kana": null
  },
  "8455": {
    "postcode": "6078455",
    "prefecture": "京都府",
    "prefecture_kana": "キョウトフ",
    "prefecture_code": 26,
    "city": "京都市山科区",
    "city_kana": "キョウトシヤマシナク",
    "town": "厨子奥長通",
    "town_kana": "ズシオクナガミチ",
    "street": null,
    "office_name": null,
    "office_name_kana": null
  },
  "8456": {
    "postcode": "6078456",
    "prefecture": "京都府",
    "prefecture_kana": "キョウトフ",
    "prefecture_code": 26,
    "city": "京都市山科区",
    "city_kana": "キョウトシヤマシナク",
    "town": "厨子奥花鳥町",
    "town_kana": "ズシオクカチョウチョウ",
    "street": null,
    "office_name": null,
    "office_name_kana": null
  },
  "8461": {
    "postcode": "6078461",
    "prefecture": "京都府",
    "prefecture_kana": "キョウトフ",
    "prefecture_code": 26,
    "city": "京都市山科区",
    "city_kana": "キョウトシヤマシナク",
    "town": "上花山旭山町",
    "town_kana": "カミカザンアサヒヤマチョウ",
    "street": null,
    "office_name": null,
    "office_name_kana": null
  },
  "8462": {
    "postcode": "6078462",
    "prefecture": "京都府",
    "prefecture_kana": "キョウトフ",
    "prefecture_code": 26,
    "city": "京都市山科区",
    "city_kana": "キョウトシヤマシナク",
    "town": "上花山花ノ岡町",
    "town_kana": "カミカザンハナノオカチョウ",
    "street": null,
    "office_name": null,
    "office_name_kana": null
  },
  "8463": {
    "postcode": "6078463",
    "prefecture": "京都府",
    "prefecture_kana": "キョウトフ",
    "prefecture_code": 26,
    "city": "京都市山科区",
    "city_kana": "キョウトシヤマシナク",
    "town": "上花山講田町",
    "town_kana": "カミカザンコウダチョウ",
    "street": null,
    "office_name": null,
    "office_name_kana": null
  },
  "8464": {
    "postcode": "6078464",
    "prefecture": "京都府",
    "prefecture_kana": "キョウトフ",
    "prefecture_code": 26,
    "city": "京都市山科区",
    "city_kana": "キョウトシヤマシナク",
    "town": "上花山久保町",
    "town_kana": "カミカザンクボチョウ",
    "street": null,
    "office_name": null,
    "office_name_kana": null
  },
  "8465": {
    "postcode": "6078465",
    "prefecture": "京都府",
    "prefecture_kana": "キョウトフ",
    "prefecture_code": 26,
    "city": "京都市山科区",
    "city_kana": "キョウトシヤマシナク",
    "town": "上花山坂尻",
    "town_kana": "カミカザンサカジリ",
    "street": null,
    "office_name": null,
    "office_name_kana": null
  },
  "8466": {
    "postcode": "6078466",
    "prefecture": "京都府",
    "prefecture_kana": "キョウトフ",
    "prefecture_code": 26,
    "city": "京都市山科区",
    "city_kana": "キョウトシヤマシナク",
    "town": "上花山桜谷",
    "town_kana": "カミカザンサクラダニ",
    "street": null,
    "office_name": null,
    "office_name_kana": null
  },
  "8471": {
    "postcode": "6078471",
    "prefecture": "京都府",
    "prefecture_kana": "キョウトフ",
    "prefecture_code": 26,
    "city": "京都市山科区",
    "city_kana": "キョウトシヤマシナク",
    "town": "北花山大峰町",
    "town_kana": "キタカザンオオミネチョウ",
    "street": null,
    "office_name": null,
    "office_name_kana": null
  },
  "8472": {
    "postcode": "6078472",
    "prefecture": "京都府",
    "prefecture_kana": "キョウトフ",
    "prefecture_code": 26,
    "city": "京都市山科区",
    "city_kana": "キョウトシヤマシナク",
    "town": "北花山山田町",
    "town_kana": "キタカザンヤマダチョウ",
    "street": null,
    "office_name": null,
    "office_name_kana": null
  },
  "8473": {
    "postcode": "6078473",
    "prefecture": "京都府",
    "prefecture_kana": "キョウトフ",
    "prefecture_code": 26,
    "city": "京都市山科区",
    "city_kana": "キョウトシヤマシナク",
    "town": "北花山六反田町",
    "town_kana": "キタカザンロクタンダチョウ",
    "street": null,
    "office_name": null,
    "office_name_kana": null
  },
  "8474": {
    "postcode": "6078474",
    "prefecture": "京都府",
    "prefecture_kana": "キョウトフ",
    "prefecture_code": 26,
    "city": "京都市山科区",
    "city_kana": "キョウトシヤマシナク",
    "town": "北花山寺内町",
    "town_kana": "キタカザンテラウチチョウ",
    "street": null,
    "office_name": null,
    "office_name_kana": null
  },
  "8475": {
    "postcode": "6078475",
    "prefecture": "京都府",
    "prefecture_kana": "キョウトフ",
    "prefecture_code": 26,
    "city": "京都市山科区",
    "city_kana": "キョウトシヤマシナク",
    "town": "北花山横田町",
    "town_kana": "キタカザンヨコタチョウ",
    "street": null,
    "office_name": null,
    "office_name_kana": null
  },
  "8476": {
    "postcode": "6078476",
    "prefecture": "京都府",
    "prefecture_kana": "キョウトフ",
    "prefecture_code": 26,
    "city": "京都市山科区",
    "city_kana": "キョウトシヤマシナク",
    "town": "北花山河原町",
    "town_kana": "キタカザンカワラチョウ",
    "street": null,
    "office_name": null,
    "office_name_kana": null
  },
  "8481": {
    "postcode": "6078481",
    "prefecture": "京都府",
    "prefecture_kana": "キョウトフ",
    "prefecture_code": 26,
    "city": "京都市山科区",
    "city_kana": "キョウトシヤマシナク",
    "town": "北花山中道町",
    "town_kana": "キタカザンナカミチチョウ",
    "street": null,
    "office_name": null,
    "office_name_kana": null
  },
  "8482": {
    "postcode": "6078482",
    "prefecture": "京都府",
    "prefecture_kana": "キョウトフ",
    "prefecture_code": 26,
    "city": "京都市山科区",
    "city_kana": "キョウトシヤマシナク",
    "town": "北花山大林町",
    "town_kana": "キタカザンオオハヤシチョウ",
    "street": null,
    "office_name": null,
    "office_name_kana": null
  },
  "8483": {
    "postcode": "6078483",
    "prefecture": "京都府",
    "prefecture_kana": "キョウトフ",
    "prefecture_code": 26,
    "city": "京都市山科区",
    "city_kana": "キョウトシヤマシナク",
    "town": "北花山市田町",
    "town_kana": "キタカザンイチダチョウ",
    "street": null,
    "office_name": null,
    "office_name_kana": null
  },
  "8484": {
    "postcode": "6078484",
    "prefecture": "京都府",
    "prefecture_kana": "キョウトフ",
    "prefecture_code": 26,
    "city": "京都市山科区",
    "city_kana": "キョウトシヤマシナク",
    "town": "北花山西ノ野町",
    "town_kana": "キタカザンニシノノチョウ",
    "street": null,
    "office_name": null,
    "office_name_kana": null
  },
  "8485": {
    "postcode": "6078485",
    "prefecture": "京都府",
    "prefecture_kana": "キョウトフ",
    "prefecture_code": 26,
    "city": "京都市山科区",
    "city_kana": "キョウトシヤマシナク",
    "town": "北花山上稚児ケ池",
    "town_kana": "キタカザンカミチゴガイケ",
    "street": null,
    "office_name": null,
    "office_name_kana": null
  },
  "8491": {
    "postcode": "6078491",
    "prefecture": "京都府",
    "prefecture_kana": "キョウトフ",
    "prefecture_code": 26,
    "city": "京都市山科区",
    "city_kana": "キョウトシヤマシナク",
    "town": "日ノ岡一切経谷町",
    "town_kana": "ヒノオカイッサイキョウダニチョウ",
    "street": null,
    "office_name": null,
    "office_name_kana": null
  },
  "8492": {
    "postcode": "6078492",
    "prefecture": "京都府",
    "prefecture_kana": "キョウトフ",
    "prefecture_code": 26,
    "city": "京都市山科区",
    "city_kana": "キョウトシヤマシナク",
    "town": "日ノ岡夷谷町",
    "town_kana": "ヒノオカエビスダニチョウ",
    "street": null,
    "office_name": null,
    "office_name_kana": null
  },
  "8493": {
    "postcode": "6078493",
    "prefecture": "京都府",
    "prefecture_kana": "キョウトフ",
    "prefecture_code": 26,
    "city": "京都市山科区",
    "city_kana": "キョウトシヤマシナク",
    "town": "日ノ岡朝田町",
    "town_kana": "ヒノオカアサダチョウ",
    "street": null,
    "office_name": null,
    "office_name_kana": null
  },
  "8494": {
    "postcode": "6078494",
    "prefecture": "京都府",
    "prefecture_kana": "キョウトフ",
    "prefecture_code": 26,
    "city": "京都市山科区",
    "city_kana": "キョウトシヤマシナク",
    "town": "日ノ岡堤谷町",
    "town_kana": "ヒノオカツツミダニチョウ",
    "street": null,
    "office_name": null,
    "office_name_kana": null
  },
  "8495": {
    "postcode": "6078495",
    "prefecture": "京都府",
    "prefecture_kana": "キョウトフ",
    "prefecture_code": 26,
    "city": "京都市山科区",
    "city_kana": "キョウトシヤマシナク",
    "town": "日ノ岡鴨土町",
    "town_kana": "ヒノオカカモドチョウ",
    "street": null,
    "office_name": null,
    "office_name_kana": null
  },
  "8496": {
    "postcode": "6078496",
    "prefecture": "京都府",
    "prefecture_kana": "キョウトフ",
    "prefecture_code": 26,
    "city": "京都市山科区",
    "city_kana": "キョウトシヤマシナク",
    "town": "日ノ岡坂脇町",
    "town_kana": "ヒノオカサカワキチョウ",
    "street": null,
    "office_name": null,
    "office_name_kana": null
  },
  "8497": {
    "postcode": "6078497",
    "prefecture": "京都府",
    "prefecture_kana": "キョウトフ",
    "prefecture_code": 26,
    "city": "京都市山科区",
    "city_kana": "キョウトシヤマシナク",
    "town": "日ノ岡ホッパラ町",
    "town_kana": "ヒノオカホッパラチョウ",
    "street": null,
    "office_name": null,
    "office_name_kana": null
  },
  "8498": {
    "postcode": "6078498",
    "prefecture": "京都府",
    "prefecture_kana": "キョウトフ",
    "prefecture_code": 26,
    "city": "京都市山科区",
    "city_kana": "キョウトシヤマシナク",
    "town": "日ノ岡石塚町",
    "town_kana": "ヒノオカイシヅカチョウ",
    "street": null,
    "office_name": null,
    "office_name_kana": null
  },
  "8501": {
    "postcode": "6078501",
    "prefecture": "京都府",
    "prefecture_kana": "キョウトフ",
    "prefecture_code": 26,
    "city": "京都市山科区",
    "city_kana": "キョウトシヤマシナク",
    "town": "東野中井ノ上町",
    "town_kana": "ヒガシノナカイノウエチョウ",
    "street": "１１−３９",
    "office_name": "株式会社　新学社",
    "office_name_kana": "カブシキガイシヤ シンガクシヤ"
  },
  "8511": {
    "postcode": "6078511",
    "prefecture": "京都府",
    "prefecture_kana": "キョウトフ",
    "prefecture_code": 26,
    "city": "京都市山科区",
    "city_kana": "キョウトシヤマシナク",
    "town": "椥辻池尻町",
    "town_kana": "ナギツジイケジリチョウ",
    "street": "１４番地２",
    "office_name": "京都市　山科区役所",
    "office_name_kana": "キヨウトシ ヤマシナクヤクシヨ"
  },
  "8571": {
    "postcode": "6078571",
    "prefecture": "京都府",
    "prefecture_kana": "キョウトフ",
    "prefecture_code": 26,
    "city": "京都市山科区",
    "city_kana": "キョウトシヤマシナク",
    "town": "東野中井ノ上町",
    "town_kana": "ヒガシノナカイノウエチョウ",
    "street": "１１−１７",
    "office_name": "全家研ポピー",
    "office_name_kana": "ゼンカケンポピ-"
  }
}