{
  "0000": {
    "postcode": "6140000",
    "prefecture": "京都府",
    "prefecture_kana": "キョウトフ",
    "prefecture_code": 26,
    "city": "八幡市",
    "city_kana": "ヤワタシ",
    "town": "",
    "town_kana": "",
    "street": null,
    "office_name": null,
    "office_name_kana": null
  },
  "8001": {
    "postcode": "6148001",
    "prefecture": "京都府",
    "prefecture_kana": "キョウトフ",
    "prefecture_code": 26,
    "city": "八幡市",
    "city_kana": "ヤワタシ",
    "town": "八幡科手",
    "town_kana": "ヤワタシナデ",
    "street": null,
    "office_name": null,
    "office_name_kana": null
  },
  "8002": {
    "postcode": "6148002",
    "prefecture": "京都府",
    "prefecture_kana": "キョウトフ",
    "prefecture_code": 26,
    "city": "八幡市",
    "city_kana": "ヤワタシ",
    "town": "八幡土井",
    "town_kana": "ヤワタドイ",
    "street": null,
    "office_name": null,
    "office_name_kana": null
  },
  "8003": {
    "postcode": "6148003",
    "prefecture": "京都府",
    "prefecture_kana": "キョウトフ",
    "prefecture_code": 26,
    "city": "八幡市",
    "city_kana": "ヤワタシ",
    "town": "八幡千束",
    "town_kana": "ヤワタセンゾク",
    "street": null,
    "office_name": null,
    "office_name_kana": null
  },
  "8004": {
    "postcode": "6148004",
    "prefecture": "京都府",
    "prefecture_kana": "キョウトフ",
    "prefecture_code": 26,
    "city": "八幡市",
    "city_kana": "ヤワタシ",
    "town": "八幡山柴",
    "town_kana": "ヤワタヤマシバ",
    "street": null,
    "office_name": null,
    "office_name_kana": null
  },
  "8005": {
    "postcode": "6148005",
    "prefecture": "京都府",
    "prefecture_kana": "キョウトフ",
    "prefecture_code": 26,
    "city": "八幡市",
    "city_kana": "ヤワタシ",
    "town": "八幡高坊",
    "town_kana": "ヤワタタカボウ",
    "street": null,
    "office_name": null,
    "office_name_kana": null
  },
  "8006": {
    "postcode": "6148006",
    "prefecture": "京都府",
    "prefecture_kana": "キョウトフ",
    "prefecture_code": 26,
    "city": "八幡市",
    "city_kana": "ヤワタシ",
    "town": "八幡大谷",
    "town_kana": "ヤワタオオタニ",
    "street": null,
    "office_name": null,
    "office_name_kana": null
  },
  "8007": {
    "postcode": "6148007",
    "prefecture": "京都府",
    "prefecture_kana": "キョウトフ",
    "prefecture_code": 26,
    "city": "八幡市",
    "city_kana": "ヤワタシ",
    "town": "八幡西高坊",
    "town_kana": "ヤワタニシタカボウ",
    "street": null,
    "office_name": null,
    "office_name_kana": null
  },
  "8008": {
    "postcode": "6148008",
    "prefecture": "京都府",
    "prefecture_kana": "キョウトフ",
    "prefecture_code": 26,
    "city": "八幡市",
    "city_kana": "ヤワタシ",
    "town": "八幡平ノ山",
    "town_kana": "ヤワタヒラノヤマ",
    "street": null,
    "office_name": null,
    "office_name_kana": null
  },
  "8011": {
    "postcode": "6148011",
    "prefecture": "京都府",
    "prefecture_kana": "キョウトフ",
    "prefecture_code": 26,
    "city": "八幡市",
    "city_kana": "ヤワタシ",
    "town": "八幡垣内山",
    "town_kana": "ヤワタカイトヤマ",
    "street": null,
    "office_name": null,
    "office_name_kana": null
  },
  "8012": {
    "postcode": "6148012",
    "prefecture": "京都府",
    "prefecture_kana": "キョウトフ",
    "prefecture_code": 26,
    "city": "八幡市",
    "city_kana": "ヤワタシ",
    "town": "八幡吉野",
    "town_kana": "ヤワタヨシノ",
    "street": null,
    "office_name": null,
    "office_name_kana": null
  },
  "8013": {
    "postcode": "6148013",
    "prefecture": "京都府",
    "prefecture_kana": "キョウトフ",
    "prefecture_code": 26,
    "city": "八幡市",
    "city_kana": "ヤワタシ",
    "town": "八幡吉野垣内",
    "town_kana": "ヤワタヨシノガイト",
    "street": null,
    "office_name": null,
    "office_name_kana": null
  },
  "8014": {
    "postcode": "6148014",
    "prefecture": "京都府",
    "prefecture_kana": "キョウトフ",
    "prefecture_code": 26,
    "city": "八幡市",
    "city_kana": "ヤワタシ",
    "town": "八幡北浦",
    "town_kana": "ヤワタキタウラ",
    "street": null,
    "office_name": null,
    "office_name_kana": null
  },
  "8015": {
    "postcode": "6148015",
    "prefecture": "京都府",
    "prefecture_kana": "キョウトフ",
    "prefecture_code": 26,
    "city": "八幡市",
    "city_kana": "ヤワタシ",
    "town": "八幡旦所",
    "town_kana": "ヤワタダンジョ",
    "street": null,
    "office_name": null,
    "office_name_kana": null
  },
  "8016": {
    "postcode": "6148016",
    "prefecture": "京都府",
    "prefecture_kana": "キョウトフ",
    "prefecture_code": 26,
    "city": "八幡市",
    "city_kana": "ヤワタシ",
    "town": "八幡山路",
    "town_kana": "ヤワタヤマジ",
    "street": null,
    "office_name": null,
    "office_name_kana": null
  },
  "8017": {
    "postcode": "6148017",
    "prefecture": "京都府",
    "prefecture_kana": "キョウトフ",
    "prefecture_code": 26,
    "city": "八幡市",
    "city_kana": "ヤワタシ",
    "town": "八幡柴座",
    "town_kana": "ヤワタシバザ",
    "street": null,
    "office_name": null,
    "office_name_kana": null
  },
  "8021": {
    "postcode": "6148021",
    "prefecture": "京都府",
    "prefecture_kana": "キョウトフ",
    "prefecture_code": 26,
    "city": "八幡市",
    "city_kana": "ヤワタシ",
    "town": "八幡森垣内",
    "town_kana": "ヤワタモリガイト",
    "street": null,
    "office_name": null,
    "office_name_kana": null
  },
  "8022": {
    "postcode": "6148022",
    "prefecture": "京都府",
    "prefecture_kana": "キョウトフ",
    "prefecture_code": 26,
    "city": "八幡市",
    "city_kana": "ヤワタシ",
    "town": "八幡東浦",
    "town_kana": "ヤワタヒガシウラ",
    "street": null,
    "office_name": null,
    "office_name_kana": null
  },
  "8023": {
    "postcode": "6148023",
    "prefecture": "京都府",
    "prefecture_kana": "キョウトフ",
    "prefecture_code": 26,
    "city": "八幡市",
    "city_kana": "ヤワタシ",
    "town": "八幡名残",
    "town_kana": "ヤワタナゴリ",
    "street": null,
    "office_name": null,
    "office_name_kana": null
  },
  "8024": {
    "postcode": "6148024",
    "prefecture": "京都府",
    "prefecture_kana": "キョウトフ",
    "prefecture_code": 26,
    "city": "八幡市",
    "city_kana": "ヤワタシ",
    "town": "八幡双栗",
    "town_kana": "ヤワタソグリ",
    "street": null,
    "office_name": null,
    "office_name_kana": null
  },
  "8025": {
    "postcode": "6148025",
    "prefecture": "京都府",
    "prefecture_kana": "キョウトフ",
    "prefecture_code": 26,
    "city": "八幡市",
    "city_kana": "ヤワタシ",
    "town": "八幡源氏垣外",
    "town_kana": "ヤワタゲンジガイト",
    "street": null,
    "office_name": null,
    "office_name_kana": null
  },
  "8026": {
    "postcode": "6148026",
    "prefecture": "京都府",
    "prefecture_kana": "キョウトフ",
    "prefecture_code": 26,
    "city": "八幡市",
    "city_kana": "ヤワタシ",
    "town": "八幡森",
    "town_kana": "ヤワタモリ",
    "street": null,
    "office_name": null,
    "office_name_kana": null
  },
  "8030": {
    "postcode": "6148030",
    "prefecture": "京都府",
    "prefecture_kana": "キョウトフ",
    "prefecture_code": 26,
    "city": "八幡市",
    "city_kana": "ヤワタシ",
    "town": "八幡東島",
    "town_kana": "ヤワタヒガシジマ",
    "street": null,
    "office_name": null,
    "office_name_kana": null
  },
  "8031": {
    "postcode": "6148031",
    "prefecture": "京都府",
    "prefecture_kana": "キョウトフ",
    "prefecture_code": 26,
    "city": "八幡市",
    "city_kana": "ヤワタシ",
    "town": "八幡小西",
    "town_kana": "ヤワタコニシ",
    "street": null,
    "office_name": null,
    "office_name_kana": null
  },
  "8032": {
    "postcode": "6148032",
    "prefecture": "京都府",
    "prefecture_kana": "キョウトフ",
    "prefecture_code": 26,
    "city": "八幡市",
    "city_kana": "ヤワタシ",
    "town": "八幡番賀",
    "town_kana": "ヤワタバンガ",
    "street": null,
    "office_name": null,
    "office_name_kana": null
  },
  "8033": {
    "postcode": "6148033",
    "prefecture": "京都府",
    "prefecture_kana": "キョウトフ",
    "prefecture_code": 26,
    "city": "八幡市",
    "city_kana": "ヤワタシ",
    "town": "八幡西島",
    "town_kana": "ヤワタニシジマ",
    "street": null,
    "office_name": null,
    "office_name_kana": null
  },
  "8034": {
    "postcode": "6148034",
    "prefecture": "京都府",
    "prefecture_kana": "キョウトフ",
    "prefecture_code": 26,
    "city": "八幡市",
    "city_kana": "ヤワタシ",
    "town": "八幡舞台",
    "town_kana": "ヤワタブタイ",
    "street": null,
    "office_name": null,
    "office_name_kana": null
  },
  "8035": {
    "postcode": "6148035",
    "prefecture": "京都府",
    "prefecture_kana": "キョウトフ",
    "prefecture_code": 26,
    "city": "八幡市",
    "city_kana": "ヤワタシ",
    "town": "八幡小松",
    "town_kana": "ヤワタコマツ",
    "street": null,
    "office_name": null,
    "office_name_kana": null
  },
  "8036": {
    "postcode": "6148036",
    "prefecture": "京都府",
    "prefecture_kana": "キョウトフ",
    "prefecture_code": 26,
    "city": "八幡市",
    "city_kana": "ヤワタシ",
    "town": "八幡柿木垣内",
    "town_kana": "ヤワタカキノキガイト",
    "street": null,
    "office_name": null,
    "office_name_kana": null
  },
  "8037": {
    "postcode": "6148037",
    "prefecture": "京都府",
    "prefecture_kana": "キョウトフ",
    "prefecture_code": 26,
    "city": "八幡市",
    "city_kana": "ヤワタシ",
    "town": "八幡高畑",
    "town_kana": "ヤワタタカバタケ",
    "street": null,
    "office_name": null,
    "office_name_kana": null
  },
  "8038": {
    "postcode": "6148038",
    "prefecture": "京都府",
    "prefecture_kana": "キョウトフ",
    "prefecture_code": 26,
    "city": "八幡市",
    "city_kana": "ヤワタシ",
    "town": "八幡園内",
    "town_kana": "ヤワタソノウチ",
    "street": null,
    "office_name": null,
    "office_name_kana": null
  },
  "8039": {
    "postcode": "6148039",
    "prefecture": "京都府",
    "prefecture_kana": "キョウトフ",
    "prefecture_code": 26,
    "city": "八幡市",
    "city_kana": "ヤワタシ",
    "town": "八幡苗田",
    "town_kana": "ヤワタナエダ",
    "street": null,
    "office_name": null,
    "office_name_kana": null
  },
  "8041": {
    "postcode": "6148041",
    "prefecture": "京都府",
    "prefecture_kana": "キョウトフ",
    "prefecture_code": 26,
    "city": "八幡市",
    "city_kana": "ヤワタシ",
    "town": "八幡吉原",
    "town_kana": "ヤワタヨシハラ",
    "street": null,
    "office_name": null,
    "office_name_kana": null
  },
  "8042": {
    "postcode": "6148042",
    "prefecture": "京都府",
    "prefecture_kana": "キョウトフ",
    "prefecture_code": 26,
    "city": "八幡市",
    "city_kana": "ヤワタシ",
    "town": "八幡盛戸",
    "town_kana": "ヤワタサカンド",
    "street": null,
    "office_name": null,
    "office_name_kana": null
  },
  "8043": {
    "postcode": "6148043",
    "prefecture": "京都府",
    "prefecture_kana": "キョウトフ",
    "prefecture_code": 26,
    "city": "八幡市",
    "city_kana": "ヤワタシ",
    "town": "八幡一ノ坪",
    "town_kana": "ヤワタイチノツボ",
    "street": null,
    "office_name": null,
    "office_name_kana": null
  },
  "8044": {
    "postcode": "6148044",
    "prefecture": "京都府",
    "prefecture_kana": "キョウトフ",
    "prefecture_code": 26,
    "city": "八幡市",
    "city_kana": "ヤワタシ",
    "town": "八幡御幸谷",
    "town_kana": "ヤワタゴコウダニ",
    "street": null,
    "office_name": null,
    "office_name_kana": null
  },
  "8045": {
    "postcode": "6148045",
    "prefecture": "京都府",
    "prefecture_kana": "キョウトフ",
    "prefecture_code": 26,
    "city": "八幡市",
    "city_kana": "ヤワタシ",
    "town": "八幡久保田",
    "town_kana": "ヤワタクボタ",
    "street": null,
    "office_name": null,
    "office_name_kana": null
  },
  "8046": {
    "postcode": "6148046",
    "prefecture": "京都府",
    "prefecture_kana": "キョウトフ",
    "prefecture_code": 26,
    "city": "八幡市",
    "city_kana": "ヤワタシ",
    "town": "八幡砂田",
    "town_kana": "ヤワタサデン",
    "street": null,
    "office_name": null,
    "office_name_kana": null
  },
  "8047": {
    "postcode": "6148047",
    "prefecture": "京都府",
    "prefecture_kana": "キョウトフ",
    "prefecture_code": 26,
    "city": "八幡市",
    "city_kana": "ヤワタシ",
    "town": "八幡月夜田",
    "town_kana": "ヤワタツキヨダ",
    "street": null,
    "office_name": null,
    "office_name_kana": null
  },
  "8048": {
    "postcode": "6148048",
    "prefecture": "京都府",
    "prefecture_kana": "キョウトフ",
    "prefecture_code": 26,
    "city": "八幡市",
    "city_kana": "ヤワタシ",
    "town": "八幡備前",
    "town_kana": "ヤワタビゼン",
    "street": null,
    "office_name": null,
    "office_name_kana": null
  },
  "8051": {
    "postcode": "6148051",
    "prefecture": "京都府",
    "prefecture_kana": "キョウトフ",
    "prefecture_code": 26,
    "city": "八幡市",
    "city_kana": "ヤワタシ",
    "town": "八幡山田",
    "town_kana": "ヤワタヤマダ",
    "street": null,
    "office_name": null,
    "office_name_kana": null
  },
  "8052": {
    "postcode": "6148052",
    "prefecture": "京都府",
    "prefecture_kana": "キョウトフ",
    "prefecture_code": 26,
    "city": "八幡市",
    "city_kana": "ヤワタシ",
    "town": "八幡武蔵芝",
    "town_kana": "ヤワタムサシシバ",
    "street": null,
    "office_name": null,
    "office_name_kana": null
  },
  "8053": {
    "postcode": "6148053",
    "prefecture": "京都府",
    "prefecture_kana": "キョウトフ",
    "prefecture_code": 26,
    "city": "八幡市",
    "city_kana": "ヤワタシ",
    "town": "八幡水珀",
    "town_kana": "ヤワタスイハク",
    "street": null,
    "office_name": null,
    "office_name_kana": null
  },
  "8054": {
    "postcode": "6148054",
    "prefecture": "京都府",
    "prefecture_kana": "キョウトフ",
    "prefecture_code": 26,
    "city": "八幡市",
    "city_kana": "ヤワタシ",
    "town": "八幡南山",
    "town_kana": "ヤワタミナミヤマ",
    "street": null,
    "office_name": null,
    "office_name_kana": null
  },
  "8055": {
    "postcode": "6148055",
    "prefecture": "京都府",
    "prefecture_kana": "キョウトフ",
    "prefecture_code": 26,
    "city": "八幡市",
    "city_kana": "ヤワタシ",
    "town": "八幡柿ケ谷",
    "town_kana": "ヤワタカキガダニ",
    "street": null,
    "office_name": null,
    "office_name_kana": null
  },
  "8056": {
    "postcode": "6148056",
    "prefecture": "京都府",
    "prefecture_kana": "キョウトフ",
    "prefecture_code": 26,
    "city": "八幡市",
    "city_kana": "ヤワタシ",
    "town": "八幡福禄谷",
    "town_kana": "ヤワタフクロクダニ",
    "street": null,
    "office_name": null,
    "office_name_kana": null
  },
  "8057": {
    "postcode": "6148057",
    "prefecture": "京都府",
    "prefecture_kana": "キョウトフ",
    "prefecture_code": 26,
    "city": "八幡市",
    "city_kana": "ヤワタシ",
    "town": "八幡安居塚",
    "town_kana": "ヤワタアンゴヅカ",
    "street": null,
    "office_name": null,
    "office_name_kana": null
  },
  "8058": {
    "postcode": "6148058",
    "prefecture": "京都府",
    "prefecture_kana": "キョウトフ",
    "prefecture_code": 26,
    "city": "八幡市",
    "city_kana": "ヤワタシ",
    "town": "八幡長谷",
    "town_kana": "ヤワタナガタニ",
    "street": null,
    "office_name": null,
    "office_name_kana": null
  },
  "8061": {
    "postcode": "6148061",
    "prefecture": "京都府",
    "prefecture_kana": "キョウトフ",
    "prefecture_code": 26,
    "city": "八幡市",
    "city_kana": "ヤワタシ",
    "town": "八幡式部谷",
    "town_kana": "ヤワタシキブダニ",
    "street": null,
    "office_name": null,
    "office_name_kana": null
  },
  "8062": {
    "postcode": "6148062",
    "prefecture": "京都府",
    "prefecture_kana": "キョウトフ",
    "prefecture_code": 26,
    "city": "八幡市",
    "city_kana": "ヤワタシ",
    "town": "八幡清水井",
    "town_kana": "ヤワタシミズイ",
    "street": null,
    "office_name": null,
    "office_name_kana": null
  },
  "8063": {
    "postcode": "6148063",
    "prefecture": "京都府",
    "prefecture_kana": "キョウトフ",
    "prefecture_code": 26,
    "city": "八幡市",
    "city_kana": "ヤワタシ",
    "town": "八幡岸本",
    "town_kana": "ヤワタキシモト",
    "street": null,
    "office_name": null,
    "office_name_kana": null
  },
  "8064": {
    "postcode": "6148064",
    "prefecture": "京都府",
    "prefecture_kana": "キョウトフ",
    "prefecture_code": 26,
    "city": "八幡市",
    "city_kana": "ヤワタシ",
    "town": "八幡松原",
    "town_kana": "ヤワタマツバラ",
    "street": null,
    "office_name": null,
    "office_name_kana": null
  },
  "8065": {
    "postcode": "6148065",
    "prefecture": "京都府",
    "prefecture_kana": "キョウトフ",
    "prefecture_code": 26,
    "city": "八幡市",
    "city_kana": "ヤワタシ",
    "town": "八幡山下",
    "town_kana": "ヤワタヤマシタ",
    "street": null,
    "office_name": null,
    "office_name_kana": null
  },
  "8066": {
    "postcode": "6148066",
    "prefecture": "京都府",
    "prefecture_kana": "キョウトフ",
    "prefecture_code": 26,
    "city": "八幡市",
    "city_kana": "ヤワタシ",
    "town": "八幡大芝",
    "town_kana": "ヤワタオオシバ",
    "street": null,
    "office_name": null,
    "office_name_kana": null
  },
  "8067": {
    "postcode": "6148067",
    "prefecture": "京都府",
    "prefecture_kana": "キョウトフ",
    "prefecture_code": 26,
    "city": "八幡市",
    "city_kana": "ヤワタシ",
    "town": "八幡中ノ山",
    "town_kana": "ヤワタナカノヤマ",
    "street": null,
    "office_name": null,
    "office_name_kana": null
  },
  "8068": {
    "postcode": "6148068",
    "prefecture": "京都府",
    "prefecture_kana": "キョウトフ",
    "prefecture_code": 26,
    "city": "八幡市",
    "city_kana": "ヤワタシ",
    "town": "八幡隅田口",
    "town_kana": "ヤワタスミダグチ",
    "street": null,
    "office_name": null,
    "office_name_kana": null
  },
  "8071": {
    "postcode": "6148071",
    "prefecture": "京都府",
    "prefecture_kana": "キョウトフ",
    "prefecture_code": 26,
    "city": "八幡市",
    "city_kana": "ヤワタシ",
    "town": "八幡五反田",
    "town_kana": "ヤワタゴタンダ",
    "street": null,
    "office_name": null,
    "office_name_kana": null
  },
  "8072": {
    "postcode": "6148072",
    "prefecture": "京都府",
    "prefecture_kana": "キョウトフ",
    "prefecture_code": 26,
    "city": "八幡市",
    "city_kana": "ヤワタシ",
    "town": "八幡長田",
    "town_kana": "ヤワタオサダ",
    "street": null,
    "office_name": null,
    "office_name_kana": null
  },
  "8073": {
    "postcode": "6148073",
    "prefecture": "京都府",
    "prefecture_kana": "キョウトフ",
    "prefecture_code": 26,
    "city": "八幡市",
    "city_kana": "ヤワタシ",
    "town": "八幡軸",
    "town_kana": "ヤワタジク",
    "street": null,
    "office_name": null,
    "office_name_kana": null
  },
  "8074": {
    "postcode": "6148074",
    "prefecture": "京都府",
    "prefecture_kana": "キョウトフ",
    "prefecture_code": 26,
    "city": "八幡市",
    "city_kana": "ヤワタシ",
    "town": "八幡渡ル瀬",
    "town_kana": "ヤワタワタルセ",
    "street": null,
    "office_name": null,
    "office_name_kana": null
  },
  "8075": {
    "postcode": "6148075",
    "prefecture": "京都府",
    "prefecture_kana": "キョウトフ",
    "prefecture_code": 26,
    "city": "八幡市",
    "city_kana": "ヤワタシ",
    "town": "八幡三反長",
    "town_kana": "ヤワタサンダオサ",
    "street": null,
    "office_name": null,
    "office_name_kana": null
  },
  "8076": {
    "postcode": "6148076",
    "prefecture": "京都府",
    "prefecture_kana": "キョウトフ",
    "prefecture_code": 26,
    "city": "八幡市",
    "city_kana": "ヤワタシ",
    "town": "八幡植松",
    "town_kana": "ヤワタウエマツ",
    "street": null,
    "office_name": null,
    "office_name_kana": null
  },
  "8077": {
    "postcode": "6148077",
    "prefecture": "京都府",
    "prefecture_kana": "キョウトフ",
    "prefecture_code": 26,
    "city": "八幡市",
    "city_kana": "ヤワタシ",
    "town": "八幡女郎花",
    "town_kana": "ヤワタオミナエシ",
    "street": null,
    "office_name": null,
    "office_name_kana": null
  },
  "8078": {
    "postcode": "6148078",
    "prefecture": "京都府",
    "prefecture_kana": "キョウトフ",
    "prefecture_code": 26,
    "city": "八幡市",
    "city_kana": "ヤワタシ",
    "town": "八幡広門",
    "town_kana": "ヤワタヒロカド",
    "street": null,
    "office_name": null,
    "office_name_kana": null
  },
  "8079": {
    "postcode": "6148079",
    "prefecture": "京都府",
    "prefecture_kana": "キョウトフ",
    "prefecture_code": 26,
    "city": "八幡市",
    "city_kana": "ヤワタシ",
    "town": "八幡東林",
    "town_kana": "ヤワタトウリン",
    "street": null,
    "office_name": null,
    "office_name_kana": null
  },
  "8081": {
    "postcode": "6148081",
    "prefecture": "京都府",
    "prefecture_kana": "キョウトフ",
    "prefecture_code": 26,
    "city": "八幡市",
    "city_kana": "ヤワタシ",
    "town": "八幡御馬所",
    "town_kana": "ヤワタゴバショ",
    "street": null,
    "office_name": null,
    "office_name_kana": null
  },
  "8082": {
    "postcode": "6148082",
    "prefecture": "京都府",
    "prefecture_kana": "キョウトフ",
    "prefecture_code": 26,
    "city": "八幡市",
    "city_kana": "ヤワタシ",
    "town": "八幡菖蒲池",
    "town_kana": "ヤワタショウブイケ",
    "street": null,
    "office_name": null,
    "office_name_kana": null
  },
  "8083": {
    "postcode": "6148083",
    "prefecture": "京都府",
    "prefecture_kana": "キョウトフ",
    "prefecture_code": 26,
    "city": "八幡市",
    "city_kana": "ヤワタシ",
    "town": "八幡山本",
    "town_kana": "ヤワタヤマモト",
    "street": null,
    "office_name": null,
    "office_name_kana": null
  },
  "8084": {
    "postcode": "6148084",
    "prefecture": "京都府",
    "prefecture_kana": "キョウトフ",
    "prefecture_code": 26,
    "city": "八幡市",
    "city_kana": "ヤワタシ",
    "town": "八幡今田",
    "town_kana": "ヤワタイマダ",
    "street": null,
    "office_name": null,
    "office_name_kana": null
  },
  "8085": {
    "postcode": "6148085",
    "prefecture": "京都府",
    "prefecture_kana": "キョウトフ",
    "prefecture_code": 26,
    "city": "八幡市",
    "city_kana": "ヤワタシ",
    "town": "八幡馬場",
    "town_kana": "ヤワタババ",
    "street": null,
    "office_name": null,
    "office_name_kana": null
  },
  "8086": {
    "postcode": "6148086",
    "prefecture": "京都府",
    "prefecture_kana": "キョウトフ",
    "prefecture_code": 26,
    "city": "八幡市",
    "city_kana": "ヤワタシ",
    "town": "八幡河原崎",
    "town_kana": "ヤワタカワラザキ",
    "street": null,
    "office_name": null,
    "office_name_kana": null
  },
  "8087": {
    "postcode": "6148087",
    "prefecture": "京都府",
    "prefecture_kana": "キョウトフ",
    "prefecture_code": 26,
    "city": "八幡市",
    "city_kana": "ヤワタシ",
    "town": "八幡神原",
    "town_kana": "ヤワタカミハラ",
    "street": null,
    "office_name": null,
    "office_name_kana": null
  },
  "8088": {
    "postcode": "6148088",
    "prefecture": "京都府",
    "prefecture_kana": "キョウトフ",
    "prefecture_code": 26,
    "city": "八幡市",
    "city_kana": "ヤワタシ",
    "town": "八幡石不動",
    "town_kana": "ヤワタイシフドウ",
    "street": null,
    "office_name": null,
    "office_name_kana": null
  },
  "8091": {
    "postcode": "6148091",
    "prefecture": "京都府",
    "prefecture_kana": "キョウトフ",
    "prefecture_code": 26,
    "city": "八幡市",
    "city_kana": "ヤワタシ",
    "town": "八幡平谷",
    "town_kana": "ヤワタビョウダニ",
    "street": null,
    "office_name": null,
    "office_name_kana": null
  },
  "8092": {
    "postcode": "6148092",
    "prefecture": "京都府",
    "prefecture_kana": "キョウトフ",
    "prefecture_code": 26,
    "city": "八幡市",
    "city_kana": "ヤワタシ",
    "town": "八幡城ノ内",
    "town_kana": "ヤワタジョウノウチ",
    "street": null,
    "office_name": null,
    "office_name_kana": null
  },
  "8093": {
    "postcode": "6148093",
    "prefecture": "京都府",
    "prefecture_kana": "キョウトフ",
    "prefecture_code": 26,
    "city": "八幡市",
    "city_kana": "ヤワタシ",
    "town": "八幡三本橋",
    "town_kana": "ヤワタサンボンバシ",
    "street": null,
    "office_name": null,
    "office_name_kana": null
  },
  "8094": {
    "postcode": "6148094",
    "prefecture": "京都府",
    "prefecture_kana": "キョウトフ",
    "prefecture_code": 26,
    "city": "八幡市",
    "city_kana": "ヤワタシ",
    "town": "八幡平田",
    "town_kana": "ヤワタヒラタ",
    "street": null,
    "office_name": null,
    "office_name_kana": null
  },
  "8095": {
    "postcode": "6148095",
    "prefecture": "京都府",
    "prefecture_kana": "キョウトフ",
    "prefecture_code": 26,
    "city": "八幡市",
    "city_kana": "ヤワタシ",
    "town": "八幡沓田",
    "town_kana": "ヤワタクツデン",
    "street": null,
    "office_name": null,
    "office_name_kana": null
  },
  "8096": {
    "postcode": "6148096",
    "prefecture": "京都府",
    "prefecture_kana": "キョウトフ",
    "prefecture_code": 26,
    "city": "八幡市",
    "city_kana": "ヤワタシ",
    "town": "八幡三ノ甲",
    "town_kana": "ヤワタサンノコウ",
    "street": null,
    "office_name": null,
    "office_name_kana": null
  },
  "8101": {
    "postcode": "6148101",
    "prefecture": "京都府",
    "prefecture_kana": "キョウトフ",
    "prefecture_code": 26,
    "city": "八幡市",
    "city_kana": "ヤワタシ",
    "town": "川口浜",
    "town_kana": "カワグチハマ",
    "street": null,
    "office_name": null,
    "office_name_kana": null
  },
  "8102": {
    "postcode": "6148102",
    "prefecture": "京都府",
    "prefecture_kana": "キョウトフ",
    "prefecture_code": 26,
    "city": "八幡市",
    "city_kana": "ヤワタシ",
    "town": "川口北浦",
    "town_kana": "カワグチキタウラ",
    "street": null,
    "office_name": null,
    "office_name_kana": null
  },
  "8103": {
    "postcode": "6148103",
    "prefecture": "京都府",
    "prefecture_kana": "キョウトフ",
    "prefecture_code": 26,
    "city": "八幡市",
    "city_kana": "ヤワタシ",
    "town": "川口堀ノ内",
    "town_kana": "カワグチホリノウチ",
    "street": null,
    "office_name": null,
    "office_name_kana": null
  },
  "8104": {
    "postcode": "6148104",
    "prefecture": "京都府",
    "prefecture_kana": "キョウトフ",
    "prefecture_code": 26,
    "city": "八幡市",
    "city_kana": "ヤワタシ",
    "town": "川口東頭",
    "town_kana": "カワグチヒガシガシラ",
    "street": null,
    "office_name": null,
    "office_name_kana": null
  },
  "8105": {
    "postcode": "6148105",
    "prefecture": "京都府",
    "prefecture_kana": "キョウトフ",
    "prefecture_code": 26,
    "city": "八幡市",
    "city_kana": "ヤワタシ",
    "town": "川口擬宝珠",
    "town_kana": "カワグチギボシュ",
    "street": null,
    "office_name": null,
    "office_name_kana": null
  },
  "8106": {
    "postcode": "6148106",
    "prefecture": "京都府",
    "prefecture_kana": "キョウトフ",
    "prefecture_code": 26,
    "city": "八幡市",
    "city_kana": "ヤワタシ",
    "town": "川口天神崎",
    "town_kana": "カワグチテンジンザキ",
    "street": null,
    "office_name": null,
    "office_name_kana": null
  },
  "8111": {
    "postcode": "6148111",
    "prefecture": "京都府",
    "prefecture_kana": "キョウトフ",
    "prefecture_code": 26,
    "city": "八幡市",
    "city_kana": "ヤワタシ",
    "town": "川口小西",
    "town_kana": "カワグチコニシ",
    "street": null,
    "office_name": null,
    "office_name_kana": null
  },
  "8112": {
    "postcode": "6148112",
    "prefecture": "京都府",
    "prefecture_kana": "キョウトフ",
    "prefecture_code": 26,
    "city": "八幡市",
    "city_kana": "ヤワタシ",
    "town": "川口馬屋尻",
    "town_kana": "カワグチウマヤジリ",
    "street": null,
    "office_name": null,
    "office_name_kana": null
  },
  "8113": {
    "postcode": "6148113",
    "prefecture": "京都府",
    "prefecture_kana": "キョウトフ",
    "prefecture_code": 26,
    "city": "八幡市",
    "city_kana": "ヤワタシ",
    "town": "川口萩原",
    "town_kana": "カワグチハギハラ",
    "street": null,
    "office_name": null,
    "office_name_kana": null
  },
  "8114": {
    "postcode": "6148114",
    "prefecture": "京都府",
    "prefecture_kana": "キョウトフ",
    "prefecture_code": 26,
    "city": "八幡市",
    "city_kana": "ヤワタシ",
    "town": "川口別所",
    "town_kana": "カワグチベッシヨ",
    "street": null,
    "office_name": null,
    "office_name_kana": null
  },
  "8115": {
    "postcode": "6148115",
    "prefecture": "京都府",
    "prefecture_kana": "キョウトフ",
    "prefecture_code": 26,
    "city": "八幡市",
    "city_kana": "ヤワタシ",
    "town": "川口扇ノ芝",
    "town_kana": "カワグチオウギノシバ",
    "street": null,
    "office_name": null,
    "office_name_kana": null
  },
  "8116": {
    "postcode": "6148116",
    "prefecture": "京都府",
    "prefecture_kana": "キョウトフ",
    "prefecture_code": 26,
    "city": "八幡市",
    "city_kana": "ヤワタシ",
    "town": "川口東扇",
    "town_kana": "カワグチヒガシオウギ",
    "street": null,
    "office_name": null,
    "office_name_kana": null
  },
  "8117": {
    "postcode": "6148117",
    "prefecture": "京都府",
    "prefecture_kana": "キョウトフ",
    "prefecture_code": 26,
    "city": "八幡市",
    "city_kana": "ヤワタシ",
    "town": "川口西扇",
    "town_kana": "カワグチニシオウギ",
    "street": null,
    "office_name": null,
    "office_name_kana": null
  },
  "8121": {
    "postcode": "6148121",
    "prefecture": "京都府",
    "prefecture_kana": "キョウトフ",
    "prefecture_code": 26,
    "city": "八幡市",
    "city_kana": "ヤワタシ",
    "town": "下奈良小宮",
    "town_kana": "シモナラコミヤ",
    "street": null,
    "office_name": null,
    "office_name_kana": null
  },
  "8122": {
    "postcode": "6148122",
    "prefecture": "京都府",
    "prefecture_kana": "キョウトフ",
    "prefecture_code": 26,
    "city": "八幡市",
    "city_kana": "ヤワタシ",
    "town": "下奈良一丁堤",
    "town_kana": "シモナライッチョウヅツミ",
    "street": null,
    "office_name": null,
    "office_name_kana": null
  },
  "8123": {
    "postcode": "6148123",
    "prefecture": "京都府",
    "prefecture_kana": "キョウトフ",
    "prefecture_code": 26,
    "city": "八幡市",
    "city_kana": "ヤワタシ",
    "town": "下奈良名越",
    "town_kana": "シモナラナゴシ",
    "street": null,
    "office_name": null,
    "office_name_kana": null
  },
  "8124": {
    "postcode": "6148124",
    "prefecture": "京都府",
    "prefecture_kana": "キョウトフ",
    "prefecture_code": 26,
    "city": "八幡市",
    "city_kana": "ヤワタシ",
    "town": "下奈良奥垣内",
    "town_kana": "シモナラオクガイト",
    "street": null,
    "office_name": null,
    "office_name_kana": null
  },
  "8125": {
    "postcode": "6148125",
    "prefecture": "京都府",
    "prefecture_kana": "キョウトフ",
    "prefecture_code": 26,
    "city": "八幡市",
    "city_kana": "ヤワタシ",
    "town": "下奈良出垣内",
    "town_kana": "シモナラデガイト",
    "street": null,
    "office_name": null,
    "office_name_kana": null
  },
  "8126": {
    "postcode": "6148126",
    "prefecture": "京都府",
    "prefecture_kana": "キョウトフ",
    "prefecture_code": 26,
    "city": "八幡市",
    "city_kana": "ヤワタシ",
    "town": "下奈良下三床",
    "town_kana": "シモナラシモサンドコ",
    "street": null,
    "office_name": null,
    "office_name_kana": null
  },
  "8127": {
    "postcode": "6148127",
    "prefecture": "京都府",
    "prefecture_kana": "キョウトフ",
    "prefecture_code": 26,
    "city": "八幡市",
    "city_kana": "ヤワタシ",
    "town": "下奈良隅田",
    "town_kana": "シモナラスミダ",
    "street": null,
    "office_name": null,
    "office_name_kana": null
  },
  "8128": {
    "postcode": "6148128",
    "prefecture": "京都府",
    "prefecture_kana": "キョウトフ",
    "prefecture_code": 26,
    "city": "八幡市",
    "city_kana": "ヤワタシ",
    "town": "下奈良野神",
    "town_kana": "シモナラノガミ",
    "street": null,
    "office_name": null,
    "office_name_kana": null
  },
  "8131": {
    "postcode": "6148131",
    "prefecture": "京都府",
    "prefecture_kana": "キョウトフ",
    "prefecture_code": 26,
    "city": "八幡市",
    "city_kana": "ヤワタシ",
    "town": "下奈良宮ノ道",
    "town_kana": "シモナラミヤノミチ",
    "street": null,
    "office_name": null,
    "office_name_kana": null
  },
  "8132": {
    "postcode": "6148132",
    "prefecture": "京都府",
    "prefecture_kana": "キョウトフ",
    "prefecture_code": 26,
    "city": "八幡市",
    "city_kana": "ヤワタシ",
    "town": "下奈良榊",
    "town_kana": "シモナラサカキ",
    "street": null,
    "office_name": null,
    "office_name_kana": null
  },
  "8133": {
    "postcode": "6148133",
    "prefecture": "京都府",
    "prefecture_kana": "キョウトフ",
    "prefecture_code": 26,
    "city": "八幡市",
    "city_kana": "ヤワタシ",
    "town": "下奈良新下",
    "town_kana": "シモナラシンゲ",
    "street": null,
    "office_name": null,
    "office_name_kana": null
  },
  "8134": {
    "postcode": "6148134",
    "prefecture": "京都府",
    "prefecture_kana": "キョウトフ",
    "prefecture_code": 26,
    "city": "八幡市",
    "city_kana": "ヤワタシ",
    "town": "下奈良中ノ坪",
    "town_kana": "シモナラナカノツボ",
    "street": null,
    "office_name": null,
    "office_name_kana": null
  },
  "8135": {
    "postcode": "6148135",
    "prefecture": "京都府",
    "prefecture_kana": "キョウトフ",
    "prefecture_code": 26,
    "city": "八幡市",
    "city_kana": "ヤワタシ",
    "town": "下奈良蜻蛉尻筋",
    "town_kana": "シモナラトンボジリスジ",
    "street": null,
    "office_name": null,
    "office_name_kana": null
  },
  "8136": {
    "postcode": "6148136",
    "prefecture": "京都府",
    "prefecture_kana": "キョウトフ",
    "prefecture_code": 26,
    "city": "八幡市",
    "city_kana": "ヤワタシ",
    "town": "下奈良蜻蛉尻",
    "town_kana": "シモナラトンボジリ",
    "street": null,
    "office_name": null,
    "office_name_kana": null
  },
  "8141": {
    "postcode": "6148141",
    "prefecture": "京都府",
    "prefecture_kana": "キョウトフ",
    "prefecture_code": 26,
    "city": "八幡市",
    "city_kana": "ヤワタシ",
    "town": "下奈良上三床",
    "town_kana": "シモナラカミサンドコ",
    "street": null,
    "office_name": null,
    "office_name_kana": null
  },
  "8142": {
    "postcode": "6148142",
    "prefecture": "京都府",
    "prefecture_kana": "キョウトフ",
    "prefecture_code": 26,
    "city": "八幡市",
    "city_kana": "ヤワタシ",
    "town": "下奈良南頭",
    "town_kana": "シモナラミナミガシラ",
    "street": null,
    "office_name": null,
    "office_name_kana": null
  },
  "8143": {
    "postcode": "6148143",
    "prefecture": "京都府",
    "prefecture_kana": "キョウトフ",
    "prefecture_code": 26,
    "city": "八幡市",
    "city_kana": "ヤワタシ",
    "town": "下奈良一丁地",
    "town_kana": "シモナライッチョウチ",
    "street": null,
    "office_name": null,
    "office_name_kana": null
  },
  "8144": {
    "postcode": "6148144",
    "prefecture": "京都府",
    "prefecture_kana": "キョウトフ",
    "prefecture_code": 26,
    "city": "八幡市",
    "city_kana": "ヤワタシ",
    "town": "下奈良奈良元",
    "town_kana": "シモナラナラモト",
    "street": null,
    "office_name": null,
    "office_name_kana": null
  },
  "8145": {
    "postcode": "6148145",
    "prefecture": "京都府",
    "prefecture_kana": "キョウトフ",
    "prefecture_code": 26,
    "city": "八幡市",
    "city_kana": "ヤワタシ",
    "town": "下奈良二階堂",
    "town_kana": "シモナラニカイドウ",
    "street": null,
    "office_name": null,
    "office_name_kana": null
  },
  "8146": {
    "postcode": "6148146",
    "prefecture": "京都府",
    "prefecture_kana": "キョウトフ",
    "prefecture_code": 26,
    "city": "八幡市",
    "city_kana": "ヤワタシ",
    "town": "下奈良上ノ段",
    "town_kana": "シモナラカミノダン",
    "street": null,
    "office_name": null,
    "office_name_kana": null
  },
  "8147": {
    "postcode": "6148147",
    "prefecture": "京都府",
    "prefecture_kana": "キョウトフ",
    "prefecture_code": 26,
    "city": "八幡市",
    "city_kana": "ヤワタシ",
    "town": "下奈良今里",
    "town_kana": "シモナライマザト",
    "street": null,
    "office_name": null,
    "office_name_kana": null
  },
  "8148": {
    "postcode": "6148148",
    "prefecture": "京都府",
    "prefecture_kana": "キョウトフ",
    "prefecture_code": 26,
    "city": "八幡市",
    "city_kana": "ヤワタシ",
    "town": "下奈良井関",
    "town_kana": "シモナライゼキ",
    "street": null,
    "office_name": null,
    "office_name_kana": null
  },
  "8149": {
    "postcode": "6148149",
    "prefecture": "京都府",
    "prefecture_kana": "キョウトフ",
    "prefecture_code": 26,
    "city": "八幡市",
    "city_kana": "ヤワタシ",
    "town": "下奈良竹垣内",
    "town_kana": "シモナラタケガイト",
    "street": null,
    "office_name": null,
    "office_name_kana": null
  },
  "8151": {
    "postcode": "6148151",
    "prefecture": "京都府",
    "prefecture_kana": "キョウトフ",
    "prefecture_code": 26,
    "city": "八幡市",
    "city_kana": "ヤワタシ",
    "town": "上奈良小端",
    "town_kana": "カミナラオバタ",
    "street": null,
    "office_name": null,
    "office_name_kana": null
  },
  "8152": {
    "postcode": "6148152",
    "prefecture": "京都府",
    "prefecture_kana": "キョウトフ",
    "prefecture_code": 26,
    "city": "八幡市",
    "city_kana": "ヤワタシ",
    "town": "上奈良御園",
    "town_kana": "カミナラミソノ",
    "street": null,
    "office_name": null,
    "office_name_kana": null
  },
  "8153": {
    "postcode": "6148153",
    "prefecture": "京都府",
    "prefecture_kana": "キョウトフ",
    "prefecture_code": 26,
    "city": "八幡市",
    "city_kana": "ヤワタシ",
    "town": "上奈良サグリ前",
    "town_kana": "カミナラサグリマエ",
    "street": null,
    "office_name": null,
    "office_name_kana": null
  },
  "8154": {
    "postcode": "6148154",
    "prefecture": "京都府",
    "prefecture_kana": "キョウトフ",
    "prefecture_code": 26,
    "city": "八幡市",
    "city_kana": "ヤワタシ",
    "town": "上奈良宮ノ西",
    "town_kana": "カミナラミヤノニシ",
    "street": null,
    "office_name": null,
    "office_name_kana": null
  },
  "8155": {
    "postcode": "6148155",
    "prefecture": "京都府",
    "prefecture_kana": "キョウトフ",
    "prefecture_code": 26,
    "city": "八幡市",
    "city_kana": "ヤワタシ",
    "town": "上奈良城垣内",
    "town_kana": "カミナラシロガイト",
    "street": null,
    "office_name": null,
    "office_name_kana": null
  },
  "8156": {
    "postcode": "6148156",
    "prefecture": "京都府",
    "prefecture_kana": "キョウトフ",
    "prefecture_code": 26,
    "city": "八幡市",
    "city_kana": "ヤワタシ",
    "town": "上奈良奈良里",
    "town_kana": "カミナラナラザト",
    "street": null,
    "office_name": null,
    "office_name_kana": null
  },
  "8157": {
    "postcode": "6148157",
    "prefecture": "京都府",
    "prefecture_kana": "キョウトフ",
    "prefecture_code": 26,
    "city": "八幡市",
    "city_kana": "ヤワタシ",
    "town": "上奈良東ノ口",
    "town_kana": "カミナラヒガシノクチ",
    "street": null,
    "office_name": null,
    "office_name_kana": null
  },
  "8158": {
    "postcode": "6148158",
    "prefecture": "京都府",
    "prefecture_kana": "キョウトフ",
    "prefecture_code": 26,
    "city": "八幡市",
    "city_kana": "ヤワタシ",
    "town": "上奈良北ノ口",
    "town_kana": "カミナラキタノクチ",
    "street": null,
    "office_name": null,
    "office_name_kana": null
  },
  "8159": {
    "postcode": "6148159",
    "prefecture": "京都府",
    "prefecture_kana": "キョウトフ",
    "prefecture_code": 26,
    "city": "八幡市",
    "city_kana": "ヤワタシ",
    "town": "上奈良大門",
    "town_kana": "カミナラダイモン",
    "street": null,
    "office_name": null,
    "office_name_kana": null
  },
  "8161": {
    "postcode": "6148161",
    "prefecture": "京都府",
    "prefecture_kana": "キョウトフ",
    "prefecture_code": 26,
    "city": "八幡市",
    "city_kana": "ヤワタシ",
    "town": "上奈良宮ノ東",
    "town_kana": "カミナラミヤノヒガシ",
    "street": null,
    "office_name": null,
    "office_name_kana": null
  },
  "8162": {
    "postcode": "6148162",
    "prefecture": "京都府",
    "prefecture_kana": "キョウトフ",
    "prefecture_code": 26,
    "city": "八幡市",
    "city_kana": "ヤワタシ",
    "town": "上奈良日ノ尾",
    "town_kana": "カミナラヒノオ",
    "street": null,
    "office_name": null,
    "office_name_kana": null
  },
  "8163": {
    "postcode": "6148163",
    "prefecture": "京都府",
    "prefecture_kana": "キョウトフ",
    "prefecture_code": 26,
    "city": "八幡市",
    "city_kana": "ヤワタシ",
    "town": "上奈良長池",
    "town_kana": "カミナラナガイケ",
    "street": null,
    "office_name": null,
    "office_name_kana": null
  },
  "8164": {
    "postcode": "6148164",
    "prefecture": "京都府",
    "prefecture_kana": "キョウトフ",
    "prefecture_code": 26,
    "city": "八幡市",
    "city_kana": "ヤワタシ",
    "town": "上奈良南ノ口",
    "town_kana": "カミナラミナミノクチ",
    "street": null,
    "office_name": null,
    "office_name_kana": null
  },
  "8165": {
    "postcode": "6148165",
    "prefecture": "京都府",
    "prefecture_kana": "キョウトフ",
    "prefecture_code": 26,
    "city": "八幡市",
    "city_kana": "ヤワタシ",
    "town": "上奈良池ノ向",
    "town_kana": "カミナライケノムコウ",
    "street": null,
    "office_name": null,
    "office_name_kana": null
  },
  "8166": {
    "postcode": "6148166",
    "prefecture": "京都府",
    "prefecture_kana": "キョウトフ",
    "prefecture_code": 26,
    "city": "八幡市",
    "city_kana": "ヤワタシ",
    "town": "上奈良堂島",
    "town_kana": "カミナラドウジマ",
    "street": null,
    "office_name": null,
    "office_name_kana": null
  },
  "8171": {
    "postcode": "6148171",
    "prefecture": "京都府",
    "prefecture_kana": "キョウトフ",
    "prefecture_code": 26,
    "city": "八幡市",
    "city_kana": "ヤワタシ",
    "town": "上津屋尼ケ池",
    "town_kana": "コウヅヤアマガイケ",
    "street": null,
    "office_name": null,
    "office_name_kana": null
  },
  "8172": {
    "postcode": "6148172",
    "prefecture": "京都府",
    "prefecture_kana": "キョウトフ",
    "prefecture_code": 26,
    "city": "八幡市",
    "city_kana": "ヤワタシ",
    "town": "上津屋林",
    "town_kana": "コウヅヤハヤシ",
    "street": null,
    "office_name": null,
    "office_name_kana": null
  },
  "8173": {
    "postcode": "6148173",
    "prefecture": "京都府",
    "prefecture_kana": "キョウトフ",
    "prefecture_code": 26,
    "city": "八幡市",
    "city_kana": "ヤワタシ",
    "town": "上津屋里垣内",
    "town_kana": "コウヅヤサトガイト",
    "street": null,
    "office_name": null,
    "office_name_kana": null
  },
  "8174": {
    "postcode": "6148174",
    "prefecture": "京都府",
    "prefecture_kana": "キョウトフ",
    "prefecture_code": 26,
    "city": "八幡市",
    "city_kana": "ヤワタシ",
    "town": "上津屋八王子",
    "town_kana": "コウヅヤハチオウジ",
    "street": null,
    "office_name": null,
    "office_name_kana": null
  },
  "8175": {
    "postcode": "6148175",
    "prefecture": "京都府",
    "prefecture_kana": "キョウトフ",
    "prefecture_code": 26,
    "city": "八幡市",
    "city_kana": "ヤワタシ",
    "town": "上津屋石ノ塔",
    "town_kana": "コウヅヤイシノトウ",
    "street": null,
    "office_name": null,
    "office_name_kana": null
  },
  "8176": {
    "postcode": "6148176",
    "prefecture": "京都府",
    "prefecture_kana": "キョウトフ",
    "prefecture_code": 26,
    "city": "八幡市",
    "city_kana": "ヤワタシ",
    "town": "上津屋中堤",
    "town_kana": "コウヅヤナカヅツミ",
    "street": null,
    "office_name": null,
    "office_name_kana": null
  },
  "8181": {
    "postcode": "6148181",
    "prefecture": "京都府",
    "prefecture_kana": "キョウトフ",
    "prefecture_code": 26,
    "city": "八幡市",
    "city_kana": "ヤワタシ",
    "town": "上津屋浜垣内",
    "town_kana": "コウヅヤハマガイト",
    "street": null,
    "office_name": null,
    "office_name_kana": null
  },
  "8182": {
    "postcode": "6148182",
    "prefecture": "京都府",
    "prefecture_kana": "キョウトフ",
    "prefecture_code": 26,
    "city": "八幡市",
    "city_kana": "ヤワタシ",
    "town": "上津屋南村",
    "town_kana": "コウヅヤミナミムラ",
    "street": null,
    "office_name": null,
    "office_name_kana": null
  },
  "8183": {
    "postcode": "6148183",
    "prefecture": "京都府",
    "prefecture_kana": "キョウトフ",
    "prefecture_code": 26,
    "city": "八幡市",
    "city_kana": "ヤワタシ",
    "town": "上津屋西久保",
    "town_kana": "コウヅヤニシクボ",
    "street": null,
    "office_name": null,
    "office_name_kana": null
  },
  "8184": {
    "postcode": "6148184",
    "prefecture": "京都府",
    "prefecture_kana": "キョウトフ",
    "prefecture_code": 26,
    "city": "八幡市",
    "city_kana": "ヤワタシ",
    "town": "上津屋八丁",
    "town_kana": "コウヅヤハッチョウ",
    "street": null,
    "office_name": null,
    "office_name_kana": null
  },
  "8191": {
    "postcode": "6148191",
    "prefecture": "京都府",
    "prefecture_kana": "キョウトフ",
    "prefecture_code": 26,
    "city": "八幡市",
    "city_kana": "ヤワタシ",
    "town": "野尻北ノ口",
    "town_kana": "ノジリキタノクチ",
    "street": null,
    "office_name": null,
    "office_name_kana": null
  },
  "8192": {
    "postcode": "6148192",
    "prefecture": "京都府",
    "prefecture_kana": "キョウトフ",
    "prefecture_code": 26,
    "city": "八幡市",
    "city_kana": "ヤワタシ",
    "town": "野尻土井ノ内",
    "town_kana": "ノジリドイノウチ",
    "street": null,
    "office_name": null,
    "office_name_kana": null
  },
  "8193": {
    "postcode": "6148193",
    "prefecture": "京都府",
    "prefecture_kana": "キョウトフ",
    "prefecture_code": 26,
    "city": "八幡市",
    "city_kana": "ヤワタシ",
    "town": "野尻一庵",
    "town_kana": "ノジリイチアン",
    "street": null,
    "office_name": null,
    "office_name_kana": null
  },
  "8194": {
    "postcode": "6148194",
    "prefecture": "京都府",
    "prefecture_kana": "キョウトフ",
    "prefecture_code": 26,
    "city": "八幡市",
    "city_kana": "ヤワタシ",
    "town": "野尻円ノ元",
    "town_kana": "ノジリエンノモト",
    "street": null,
    "office_name": null,
    "office_name_kana": null
  },
  "8195": {
    "postcode": "6148195",
    "prefecture": "京都府",
    "prefecture_kana": "キョウトフ",
    "prefecture_code": 26,
    "city": "八幡市",
    "city_kana": "ヤワタシ",
    "town": "野尻城究",
    "town_kana": "ノジリジョウギワ",
    "street": null,
    "office_name": null,
    "office_name_kana": null
  },
  "8196": {
    "postcode": "6148196",
    "prefecture": "京都府",
    "prefecture_kana": "キョウトフ",
    "prefecture_code": 26,
    "city": "八幡市",
    "city_kana": "ヤワタシ",
    "town": "野尻正畑",
    "town_kana": "ノジリショウハタ",
    "street": null,
    "office_name": null,
    "office_name_kana": null
  },
  "8197": {
    "postcode": "6148197",
    "prefecture": "京都府",
    "prefecture_kana": "キョウトフ",
    "prefecture_code": 26,
    "city": "八幡市",
    "city_kana": "ヤワタシ",
    "town": "野尻倉掛",
    "town_kana": "ノジリクラカケ",
    "street": null,
    "office_name": null,
    "office_name_kana": null
  },
  "8201": {
    "postcode": "6148201",
    "prefecture": "京都府",
    "prefecture_kana": "キョウトフ",
    "prefecture_code": 26,
    "city": "八幡市",
    "city_kana": "ヤワタシ",
    "town": "戸津南小路",
    "town_kana": "トウヅミナミショウジ",
    "street": null,
    "office_name": null,
    "office_name_kana": null
  },
  "8202": {
    "postcode": "6148202",
    "prefecture": "京都府",
    "prefecture_kana": "キョウトフ",
    "prefecture_code": 26,
    "city": "八幡市",
    "city_kana": "ヤワタシ",
    "town": "戸津東ノ口",
    "town_kana": "トウヅヒガシノクチ",
    "street": null,
    "office_name": null,
    "office_name_kana": null
  },
  "8203": {
    "postcode": "6148203",
    "prefecture": "京都府",
    "prefecture_kana": "キョウトフ",
    "prefecture_code": 26,
    "city": "八幡市",
    "city_kana": "ヤワタシ",
    "town": "戸津中垣内",
    "town_kana": "トウヅナカガイト",
    "street": null,
    "office_name": null,
    "office_name_kana": null
  },
  "8204": {
    "postcode": "6148204",
    "prefecture": "京都府",
    "prefecture_kana": "キョウトフ",
    "prefecture_code": 26,
    "city": "八幡市",
    "city_kana": "ヤワタシ",
    "town": "戸津蜻蛉尻",
    "town_kana": "トウヅトンボジリ",
    "street": null,
    "office_name": null,
    "office_name_kana": null
  },
  "8205": {
    "postcode": "6148205",
    "prefecture": "京都府",
    "prefecture_kana": "キョウトフ",
    "prefecture_code": 26,
    "city": "八幡市",
    "city_kana": "ヤワタシ",
    "town": "戸津東代",
    "town_kana": "トウヅヒガシダイ",
    "street": null,
    "office_name": null,
    "office_name_kana": null
  },
  "8206": {
    "postcode": "6148206",
    "prefecture": "京都府",
    "prefecture_kana": "キョウトフ",
    "prefecture_code": 26,
    "city": "八幡市",
    "city_kana": "ヤワタシ",
    "town": "戸津正ノ竹",
    "town_kana": "トウヅショウノタケ",
    "street": null,
    "office_name": null,
    "office_name_kana": null
  },
  "8207": {
    "postcode": "6148207",
    "prefecture": "京都府",
    "prefecture_kana": "キョウトフ",
    "prefecture_code": 26,
    "city": "八幡市",
    "city_kana": "ヤワタシ",
    "town": "戸津北小路",
    "town_kana": "トウヅキタショウジ",
    "street": null,
    "office_name": null,
    "office_name_kana": null
  },
  "8208": {
    "postcode": "6148208",
    "prefecture": "京都府",
    "prefecture_kana": "キョウトフ",
    "prefecture_code": 26,
    "city": "八幡市",
    "city_kana": "ヤワタシ",
    "town": "戸津荒堀",
    "town_kana": "トウヅアラホリ",
    "street": null,
    "office_name": null,
    "office_name_kana": null
  },
  "8211": {
    "postcode": "6148211",
    "prefecture": "京都府",
    "prefecture_kana": "キョウトフ",
    "prefecture_code": 26,
    "city": "八幡市",
    "city_kana": "ヤワタシ",
    "town": "戸津小中代",
    "town_kana": "トウヅコナカダイ",
    "street": null,
    "office_name": null,
    "office_name_kana": null
  },
  "8212": {
    "postcode": "6148212",
    "prefecture": "京都府",
    "prefecture_kana": "キョウトフ",
    "prefecture_code": 26,
    "city": "八幡市",
    "city_kana": "ヤワタシ",
    "town": "戸津中代",
    "town_kana": "トウヅナカダイ",
    "street": null,
    "office_name": null,
    "office_name_kana": null
  },
  "8213": {
    "postcode": "6148213",
    "prefecture": "京都府",
    "prefecture_kana": "キョウトフ",
    "prefecture_code": 26,
    "city": "八幡市",
    "city_kana": "ヤワタシ",
    "town": "戸津南代",
    "town_kana": "トウヅミナミダイ",
    "street": null,
    "office_name": null,
    "office_name_kana": null
  },
  "8214": {
    "postcode": "6148214",
    "prefecture": "京都府",
    "prefecture_kana": "キョウトフ",
    "prefecture_code": 26,
    "city": "八幡市",
    "city_kana": "ヤワタシ",
    "town": "戸津水戸城",
    "town_kana": "トウヅミトシロ",
    "street": null,
    "office_name": null,
    "office_name_kana": null
  },
  "8215": {
    "postcode": "6148215",
    "prefecture": "京都府",
    "prefecture_kana": "キョウトフ",
    "prefecture_code": 26,
    "city": "八幡市",
    "city_kana": "ヤワタシ",
    "town": "戸津堂田",
    "town_kana": "トウヅドウデン",
    "street": null,
    "office_name": null,
    "office_name_kana": null
  },
  "8216": {
    "postcode": "6148216",
    "prefecture": "京都府",
    "prefecture_kana": "キョウトフ",
    "prefecture_code": 26,
    "city": "八幡市",
    "city_kana": "ヤワタシ",
    "town": "戸津谷ノ口",
    "town_kana": "トウヅタニノクチ",
    "street": null,
    "office_name": null,
    "office_name_kana": null
  },
  "8221": {
    "postcode": "6148221",
    "prefecture": "京都府",
    "prefecture_kana": "キョウトフ",
    "prefecture_code": 26,
    "city": "八幡市",
    "city_kana": "ヤワタシ",
    "town": "内里蜻蛉尻",
    "town_kana": "ウチザトトンボジリ",
    "street": null,
    "office_name": null,
    "office_name_kana": null
  },
  "8222": {
    "postcode": "6148222",
    "prefecture": "京都府",
    "prefecture_kana": "キョウトフ",
    "prefecture_code": 26,
    "city": "八幡市",
    "city_kana": "ヤワタシ",
    "town": "内里極楽橋",
    "town_kana": "ウチザトゴクラクバシ",
    "street": null,
    "office_name": null,
    "office_name_kana": null
  },
  "8223": {
    "postcode": "6148223",
    "prefecture": "京都府",
    "prefecture_kana": "キョウトフ",
    "prefecture_code": 26,
    "city": "八幡市",
    "city_kana": "ヤワタシ",
    "town": "内里北ノ山",
    "town_kana": "ウチザトキタノヤマ",
    "street": null,
    "office_name": null,
    "office_name_kana": null
  },
  "8224": {
    "postcode": "6148224",
    "prefecture": "京都府",
    "prefecture_kana": "キョウトフ",
    "prefecture_code": 26,
    "city": "八幡市",
    "city_kana": "ヤワタシ",
    "town": "内里別所",
    "town_kana": "ウチザトベッシヨ",
    "street": null,
    "office_name": null,
    "office_name_kana": null
  },
  "8225": {
    "postcode": "6148225",
    "prefecture": "京都府",
    "prefecture_kana": "キョウトフ",
    "prefecture_code": 26,
    "city": "八幡市",
    "city_kana": "ヤワタシ",
    "town": "内里砂田",
    "town_kana": "ウチザトスナダ",
    "street": null,
    "office_name": null,
    "office_name_kana": null
  },
  "8226": {
    "postcode": "6148226",
    "prefecture": "京都府",
    "prefecture_kana": "キョウトフ",
    "prefecture_code": 26,
    "city": "八幡市",
    "city_kana": "ヤワタシ",
    "town": "内里東ノ口",
    "town_kana": "ウチザトヒガシノクチ",
    "street": null,
    "office_name": null,
    "office_name_kana": null
  },
  "8227": {
    "postcode": "6148227",
    "prefecture": "京都府",
    "prefecture_kana": "キョウトフ",
    "prefecture_code": 26,
    "city": "八幡市",
    "city_kana": "ヤワタシ",
    "town": "内里内",
    "town_kana": "ウチザトウチ",
    "street": null,
    "office_name": null,
    "office_name_kana": null
  },
  "8228": {
    "postcode": "6148228",
    "prefecture": "京都府",
    "prefecture_kana": "キョウトフ",
    "prefecture_code": 26,
    "city": "八幡市",
    "city_kana": "ヤワタシ",
    "town": "内里菅井",
    "town_kana": "ウチザトスガイ",
    "street": null,
    "office_name": null,
    "office_name_kana": null
  },
  "8229": {
    "postcode": "6148229",
    "prefecture": "京都府",
    "prefecture_kana": "キョウトフ",
    "prefecture_code": 26,
    "city": "八幡市",
    "city_kana": "ヤワタシ",
    "town": "内里北ノ口",
    "town_kana": "ウチザトキタノクチ",
    "street": null,
    "office_name": null,
    "office_name_kana": null
  },
  "8230": {
    "postcode": "6148230",
    "prefecture": "京都府",
    "prefecture_kana": "キョウトフ",
    "prefecture_code": 26,
    "city": "八幡市",
    "city_kana": "ヤワタシ",
    "town": "内里平尾",
    "town_kana": "ウチザトヒラオ",
    "street": null,
    "office_name": null,
    "office_name_kana": null
  },
  "8231": {
    "postcode": "6148231",
    "prefecture": "京都府",
    "prefecture_kana": "キョウトフ",
    "prefecture_code": 26,
    "city": "八幡市",
    "city_kana": "ヤワタシ",
    "town": "内里安居芝",
    "town_kana": "ウチザトアンゴシバ",
    "street": null,
    "office_name": null,
    "office_name_kana": null
  },
  "8232": {
    "postcode": "6148232",
    "prefecture": "京都府",
    "prefecture_kana": "キョウトフ",
    "prefecture_code": 26,
    "city": "八幡市",
    "city_kana": "ヤワタシ",
    "town": "内里荒場",
    "town_kana": "ウチザトアレバ",
    "street": null,
    "office_name": null,
    "office_name_kana": null
  },
  "8233": {
    "postcode": "6148233",
    "prefecture": "京都府",
    "prefecture_kana": "キョウトフ",
    "prefecture_code": 26,
    "city": "八幡市",
    "city_kana": "ヤワタシ",
    "town": "内里河原",
    "town_kana": "ウチザトカワラ",
    "street": null,
    "office_name": null,
    "office_name_kana": null
  },
  "8234": {
    "postcode": "6148234",
    "prefecture": "京都府",
    "prefecture_kana": "キョウトフ",
    "prefecture_code": 26,
    "city": "八幡市",
    "city_kana": "ヤワタシ",
    "town": "内里女谷",
    "town_kana": "ウチザトオンナダニ",
    "street": null,
    "office_name": null,
    "office_name_kana": null
  },
  "8235": {
    "postcode": "6148235",
    "prefecture": "京都府",
    "prefecture_kana": "キョウトフ",
    "prefecture_code": 26,
    "city": "八幡市",
    "city_kana": "ヤワタシ",
    "town": "内里穴ケ谷",
    "town_kana": "ウチザトアナガダニ",
    "street": null,
    "office_name": null,
    "office_name_kana": null
  },
  "8236": {
    "postcode": "6148236",
    "prefecture": "京都府",
    "prefecture_kana": "キョウトフ",
    "prefecture_code": 26,
    "city": "八幡市",
    "city_kana": "ヤワタシ",
    "town": "内里柿谷",
    "town_kana": "ウチザトカキダニ",
    "street": null,
    "office_name": null,
    "office_name_kana": null
  },
  "8237": {
    "postcode": "6148237",
    "prefecture": "京都府",
    "prefecture_kana": "キョウトフ",
    "prefecture_code": 26,
    "city": "八幡市",
    "city_kana": "ヤワタシ",
    "town": "内里西山川",
    "town_kana": "ウチザトニシヤマカワ",
    "street": null,
    "office_name": null,
    "office_name_kana": null
  },
  "8238": {
    "postcode": "6148238",
    "prefecture": "京都府",
    "prefecture_kana": "キョウトフ",
    "prefecture_code": 26,
    "city": "八幡市",
    "city_kana": "ヤワタシ",
    "town": "内里砂畠",
    "town_kana": "ウチザトスナハタ",
    "street": null,
    "office_name": null,
    "office_name_kana": null
  },
  "8239": {
    "postcode": "6148239",
    "prefecture": "京都府",
    "prefecture_kana": "キョウトフ",
    "prefecture_code": 26,
    "city": "八幡市",
    "city_kana": "ヤワタシ",
    "town": "内里大谷",
    "town_kana": "ウチザトオオタニ",
    "street": null,
    "office_name": null,
    "office_name_kana": null
  },
  "8241": {
    "postcode": "6148241",
    "prefecture": "京都府",
    "prefecture_kana": "キョウトフ",
    "prefecture_code": 26,
    "city": "八幡市",
    "city_kana": "ヤワタシ",
    "town": "内里宮ノ前",
    "town_kana": "ウチザトミヤノマエ",
    "street": null,
    "office_name": null,
    "office_name_kana": null
  },
  "8242": {
    "postcode": "6148242",
    "prefecture": "京都府",
    "prefecture_kana": "キョウトフ",
    "prefecture_code": 26,
    "city": "八幡市",
    "city_kana": "ヤワタシ",
    "town": "内里巽ノ口",
    "town_kana": "ウチザトタツミノクチ",
    "street": null,
    "office_name": null,
    "office_name_kana": null
  },
  "8243": {
    "postcode": "6148243",
    "prefecture": "京都府",
    "prefecture_kana": "キョウトフ",
    "prefecture_code": 26,
    "city": "八幡市",
    "city_kana": "ヤワタシ",
    "town": "内里松ケ外",
    "town_kana": "ウチザトマツガソト",
    "street": null,
    "office_name": null,
    "office_name_kana": null
  },
  "8244": {
    "postcode": "6148244",
    "prefecture": "京都府",
    "prefecture_kana": "キョウトフ",
    "prefecture_code": 26,
    "city": "八幡市",
    "city_kana": "ヤワタシ",
    "town": "内里東山川",
    "town_kana": "ウチザトヒガシヤマカワ",
    "street": null,
    "office_name": null,
    "office_name_kana": null
  },
  "8245": {
    "postcode": "6148245",
    "prefecture": "京都府",
    "prefecture_kana": "キョウトフ",
    "prefecture_code": 26,
    "city": "八幡市",
    "city_kana": "ヤワタシ",
    "town": "内里古溜池",
    "town_kana": "ウチザトフルタメイケ",
    "street": null,
    "office_name": null,
    "office_name_kana": null
  },
  "8246": {
    "postcode": "6148246",
    "prefecture": "京都府",
    "prefecture_kana": "キョウトフ",
    "prefecture_code": 26,
    "city": "八幡市",
    "city_kana": "ヤワタシ",
    "town": "内里南ノ口",
    "town_kana": "ウチザトミナミノクチ",
    "street": null,
    "office_name": null,
    "office_name_kana": null
  },
  "8247": {
    "postcode": "6148247",
    "prefecture": "京都府",
    "prefecture_kana": "キョウトフ",
    "prefecture_code": 26,
    "city": "八幡市",
    "city_kana": "ヤワタシ",
    "town": "内里日向堂",
    "town_kana": "ウチザトヒュウガドウ",
    "street": null,
    "office_name": null,
    "office_name_kana": null
  },
  "8248": {
    "postcode": "6148248",
    "prefecture": "京都府",
    "prefecture_kana": "キョウトフ",
    "prefecture_code": 26,
    "city": "八幡市",
    "city_kana": "ヤワタシ",
    "town": "内里中島",
    "town_kana": "ウチザトナカジマ",
    "street": null,
    "office_name": null,
    "office_name_kana": null
  },
  "8249": {
    "postcode": "6148249",
    "prefecture": "京都府",
    "prefecture_kana": "キョウトフ",
    "prefecture_code": 26,
    "city": "八幡市",
    "city_kana": "ヤワタシ",
    "town": "内里五丁",
    "town_kana": "ウチザトゴチョウ",
    "street": null,
    "office_name": null,
    "office_name_kana": null
  },
  "8251": {
    "postcode": "6148251",
    "prefecture": "京都府",
    "prefecture_kana": "キョウトフ",
    "prefecture_code": 26,
    "city": "八幡市",
    "city_kana": "ヤワタシ",
    "town": "岩田茶屋ノ前",
    "town_kana": "イワタチャヤノマエ",
    "street": null,
    "office_name": null,
    "office_name_kana": null
  },
  "8252": {
    "postcode": "6148252",
    "prefecture": "京都府",
    "prefecture_kana": "キョウトフ",
    "prefecture_code": 26,
    "city": "八幡市",
    "city_kana": "ヤワタシ",
    "town": "岩田大将軍",
    "town_kana": "イワタダイショウグン",
    "street": null,
    "office_name": null,
    "office_name_kana": null
  },
  "8253": {
    "postcode": "6148253",
    "prefecture": "京都府",
    "prefecture_kana": "キョウトフ",
    "prefecture_code": 26,
    "city": "八幡市",
    "city_kana": "ヤワタシ",
    "town": "岩田西玉造",
    "town_kana": "イワタニシタマツクリ",
    "street": null,
    "office_name": null,
    "office_name_kana": null
  },
  "8254": {
    "postcode": "6148254",
    "prefecture": "京都府",
    "prefecture_kana": "キョウトフ",
    "prefecture_code": 26,
    "city": "八幡市",
    "city_kana": "ヤワタシ",
    "town": "岩田北ノ口",
    "town_kana": "イワタキタノクチ",
    "street": null,
    "office_name": null,
    "office_name_kana": null
  },
  "8255": {
    "postcode": "6148255",
    "prefecture": "京都府",
    "prefecture_kana": "キョウトフ",
    "prefecture_code": 26,
    "city": "八幡市",
    "city_kana": "ヤワタシ",
    "town": "岩田竹綱",
    "town_kana": "イワタタケヅナ",
    "street": null,
    "office_name": null,
    "office_name_kana": null
  },
  "8256": {
    "postcode": "6148256",
    "prefecture": "京都府",
    "prefecture_kana": "キョウトフ",
    "prefecture_code": 26,
    "city": "八幡市",
    "city_kana": "ヤワタシ",
    "town": "岩田岩ノ前",
    "town_kana": "イワタイワノマエ",
    "street": null,
    "office_name": null,
    "office_name_kana": null
  },
  "8257": {
    "postcode": "6148257",
    "prefecture": "京都府",
    "prefecture_kana": "キョウトフ",
    "prefecture_code": 26,
    "city": "八幡市",
    "city_kana": "ヤワタシ",
    "town": "岩田橋溝",
    "town_kana": "イワタハシミゾ",
    "street": null,
    "office_name": null,
    "office_name_kana": null
  },
  "8258": {
    "postcode": "6148258",
    "prefecture": "京都府",
    "prefecture_kana": "キョウトフ",
    "prefecture_code": 26,
    "city": "八幡市",
    "city_kana": "ヤワタシ",
    "town": "岩田加賀ノ辻",
    "town_kana": "イワタカガノツジ",
    "street": null,
    "office_name": null,
    "office_name_kana": null
  },
  "8261": {
    "postcode": "6148261",
    "prefecture": "京都府",
    "prefecture_kana": "キョウトフ",
    "prefecture_code": 26,
    "city": "八幡市",
    "city_kana": "ヤワタシ",
    "town": "岩田辻垣内",
    "town_kana": "イワタツジガイト",
    "street": null,
    "office_name": null,
    "office_name_kana": null
  },
  "8262": {
    "postcode": "6148262",
    "prefecture": "京都府",
    "prefecture_kana": "キョウトフ",
    "prefecture_code": 26,
    "city": "八幡市",
    "city_kana": "ヤワタシ",
    "town": "岩田松原",
    "town_kana": "イワタマツバラ",
    "street": null,
    "office_name": null,
    "office_name_kana": null
  },
  "8263": {
    "postcode": "6148263",
    "prefecture": "京都府",
    "prefecture_kana": "キョウトフ",
    "prefecture_code": 26,
    "city": "八幡市",
    "city_kana": "ヤワタシ",
    "town": "岩田六ノ坪",
    "town_kana": "イワタロクノツボ",
    "street": null,
    "office_name": null,
    "office_name_kana": null
  },
  "8264": {
    "postcode": "6148264",
    "prefecture": "京都府",
    "prefecture_kana": "キョウトフ",
    "prefecture_code": 26,
    "city": "八幡市",
    "city_kana": "ヤワタシ",
    "town": "岩田南野",
    "town_kana": "イワタミナミノ",
    "street": null,
    "office_name": null,
    "office_name_kana": null
  },
  "8265": {
    "postcode": "6148265",
    "prefecture": "京都府",
    "prefecture_kana": "キョウトフ",
    "prefecture_code": 26,
    "city": "八幡市",
    "city_kana": "ヤワタシ",
    "town": "岩田南浅地",
    "town_kana": "イワタミナミアサジ",
    "street": null,
    "office_name": null,
    "office_name_kana": null
  },
  "8266": {
    "postcode": "6148266",
    "prefecture": "京都府",
    "prefecture_kana": "キョウトフ",
    "prefecture_code": 26,
    "city": "八幡市",
    "city_kana": "ヤワタシ",
    "town": "岩田八丁",
    "town_kana": "イワタハッチョウ",
    "street": null,
    "office_name": null,
    "office_name_kana": null
  },
  "8267": {
    "postcode": "6148267",
    "prefecture": "京都府",
    "prefecture_kana": "キョウトフ",
    "prefecture_code": 26,
    "city": "八幡市",
    "city_kana": "ヤワタシ",
    "town": "岩田北浅地",
    "town_kana": "イワタキタアサジ",
    "street": null,
    "office_name": null,
    "office_name_kana": null
  },
  "8268": {
    "postcode": "6148268",
    "prefecture": "京都府",
    "prefecture_kana": "キョウトフ",
    "prefecture_code": 26,
    "city": "八幡市",
    "city_kana": "ヤワタシ",
    "town": "岩田高木",
    "town_kana": "イワタタカギ",
    "street": null,
    "office_name": null,
    "office_name_kana": null
  },
  "8271": {
    "postcode": "6148271",
    "prefecture": "京都府",
    "prefecture_kana": "キョウトフ",
    "prefecture_code": 26,
    "city": "八幡市",
    "city_kana": "ヤワタシ",
    "town": "美濃山ヒル塚",
    "town_kana": "ミノヤマヒルヅカ",
    "street": null,
    "office_name": null,
    "office_name_kana": null
  },
  "8272": {
    "postcode": "6148272",
    "prefecture": "京都府",
    "prefecture_kana": "キョウトフ",
    "prefecture_code": 26,
    "city": "八幡市",
    "city_kana": "ヤワタシ",
    "town": "美濃山御幸",
    "town_kana": "ミノヤマミユキ",
    "street": null,
    "office_name": null,
    "office_name_kana": null
  },
  "8273": {
    "postcode": "6148273",
    "prefecture": "京都府",
    "prefecture_kana": "キョウトフ",
    "prefecture_code": 26,
    "city": "八幡市",
    "city_kana": "ヤワタシ",
    "town": "美濃山井ノ元",
    "town_kana": "ミノヤマイノモト",
    "street": null,
    "office_name": null,
    "office_name_kana": null
  },
  "8274": {
    "postcode": "6148274",
    "prefecture": "京都府",
    "prefecture_kana": "キョウトフ",
    "prefecture_code": 26,
    "city": "八幡市",
    "city_kana": "ヤワタシ",
    "town": "美濃山野神",
    "town_kana": "ミノヤマノガミ",
    "street": null,
    "office_name": null,
    "office_name_kana": null
  },
  "8275": {
    "postcode": "6148275",
    "prefecture": "京都府",
    "prefecture_kana": "キョウトフ",
    "prefecture_code": 26,
    "city": "八幡市",
    "city_kana": "ヤワタシ",
    "town": "美濃山中尾",
    "town_kana": "ミノヤマナカオ",
    "street": null,
    "office_name": null,
    "office_name_kana": null
  },
  "8276": {
    "postcode": "6148276",
    "prefecture": "京都府",
    "prefecture_kana": "キョウトフ",
    "prefecture_code": 26,
    "city": "八幡市",
    "city_kana": "ヤワタシ",
    "town": "美濃山宮道",
    "town_kana": "ミノヤマミヤミチ",
    "street": null,
    "office_name": null,
    "office_name_kana": null
  },
  "8277": {
    "postcode": "6148277",
    "prefecture": "京都府",
    "prefecture_kana": "キョウトフ",
    "prefecture_code": 26,
    "city": "八幡市",
    "city_kana": "ヤワタシ",
    "town": "美濃山宮ノ背",
    "town_kana": "ミノヤマミヤノセ",
    "street": null,
    "office_name": null,
    "office_name_kana": null
  },
  "8278": {
    "postcode": "6148278",
    "prefecture": "京都府",
    "prefecture_kana": "キョウトフ",
    "prefecture_code": 26,
    "city": "八幡市",
    "city_kana": "ヤワタシ",
    "town": "美濃山西ノ口",
    "town_kana": "ミノヤマニシノクチ",
    "street": null,
    "office_name": null,
    "office_name_kana": null
  },
  "8279": {
    "postcode": "6148279",
    "prefecture": "京都府",
    "prefecture_kana": "キョウトフ",
    "prefecture_code": 26,
    "city": "八幡市",
    "city_kana": "ヤワタシ",
    "town": "美濃山幸水",
    "town_kana": "ミノヤマコウスイ",
    "street": null,
    "office_name": null,
    "office_name_kana": null
  },
  "8280": {
    "postcode": "6148280",
    "prefecture": "京都府",
    "prefecture_kana": "キョウトフ",
    "prefecture_code": 26,
    "city": "八幡市",
    "city_kana": "ヤワタシ",
    "town": "戸津奥谷",
    "town_kana": "トウヅオクタニ",
    "street": null,
    "office_name": null,
    "office_name_kana": null
  },
  "8281": {
    "postcode": "6148281",
    "prefecture": "京都府",
    "prefecture_kana": "キョウトフ",
    "prefecture_code": 26,
    "city": "八幡市",
    "city_kana": "ヤワタシ",
    "town": "美濃山狐谷",
    "town_kana": "ミノヤマキツネダニ",
    "street": null,
    "office_name": null,
    "office_name_kana": null
  },
  "8282": {
    "postcode": "6148282",
    "prefecture": "京都府",
    "prefecture_kana": "キョウトフ",
    "prefecture_code": 26,
    "city": "八幡市",
    "city_kana": "ヤワタシ",
    "town": "美濃山大塚",
    "town_kana": "ミノヤマオオツカ",
    "street": null,
    "office_name": null,
    "office_name_kana": null
  },
  "8283": {
    "postcode": "6148283",
    "prefecture": "京都府",
    "prefecture_kana": "キョウトフ",
    "prefecture_code": 26,
    "city": "八幡市",
    "city_kana": "ヤワタシ",
    "town": "美濃山細谷",
    "town_kana": "ミノヤマホソダニ",
    "street": null,
    "office_name": null,
    "office_name_kana": null
  },
  "8284": {
    "postcode": "6148284",
    "prefecture": "京都府",
    "prefecture_kana": "キョウトフ",
    "prefecture_code": 26,
    "city": "八幡市",
    "city_kana": "ヤワタシ",
    "town": "美濃山馬ケ背",
    "town_kana": "ミノヤマウマガセ",
    "street": null,
    "office_name": null,
    "office_name_kana": null
  },
  "8285": {
    "postcode": "6148285",
    "prefecture": "京都府",
    "prefecture_kana": "キョウトフ",
    "prefecture_code": 26,
    "city": "八幡市",
    "city_kana": "ヤワタシ",
    "town": "美濃山御幸谷",
    "town_kana": "ミノヤマミユキダニ",
    "street": null,
    "office_name": null,
    "office_name_kana": null
  },
  "8286": {
    "postcode": "6148286",
    "prefecture": "京都府",
    "prefecture_kana": "キョウトフ",
    "prefecture_code": 26,
    "city": "八幡市",
    "city_kana": "ヤワタシ",
    "town": "美濃山千原谷",
    "town_kana": "ミノヤマチハラダニ",
    "street": null,
    "office_name": null,
    "office_name_kana": null
  },
  "8287": {
    "postcode": "6148287",
    "prefecture": "京都府",
    "prefecture_kana": "キョウトフ",
    "prefecture_code": 26,
    "city": "八幡市",
    "city_kana": "ヤワタシ",
    "town": "美濃山出口",
    "town_kana": "ミノヤマデグチ",
    "street": null,
    "office_name": null,
    "office_name_kana": null
  },
  "8288": {
    "postcode": "6148288",
    "prefecture": "京都府",
    "prefecture_kana": "キョウトフ",
    "prefecture_code": 26,
    "city": "八幡市",
    "city_kana": "ヤワタシ",
    "town": "美濃山出島",
    "town_kana": "ミノヤマデジマ",
    "street": null,
    "office_name": null,
    "office_name_kana": null
  },
  "8289": {
    "postcode": "6148289",
    "prefecture": "京都府",
    "prefecture_kana": "キョウトフ",
    "prefecture_code": 26,
    "city": "八幡市",
    "city_kana": "ヤワタシ",
    "town": "美濃山一ノ谷",
    "town_kana": "ミノヤマイチノタニ",
    "street": null,
    "office_name": null,
    "office_name_kana": null
  },
  "8294": {
    "postcode": "6148294",
    "prefecture": "京都府",
    "prefecture_kana": "キョウトフ",
    "prefecture_code": 26,
    "city": "八幡市",
    "city_kana": "ヤワタシ",
    "town": "欽明台北",
    "town_kana": "キンメイダイキタ",
    "street": null,
    "office_name": null,
    "office_name_kana": null
  },
  "8295": {
    "postcode": "6148295",
    "prefecture": "京都府",
    "prefecture_kana": "キョウトフ",
    "prefecture_code": 26,
    "city": "八幡市",
    "city_kana": "ヤワタシ",
    "town": "欽明台中央",
    "town_kana": "キンメイダイチュウオウ",
    "street": null,
    "office_name": null,
    "office_name_kana": null
  },
  "8296": {
    "postcode": "6148296",
    "prefecture": "京都府",
    "prefecture_kana": "キョウトフ",
    "prefecture_code": 26,
    "city": "八幡市",
    "city_kana": "ヤワタシ",
    "town": "欽明台東",
    "town_kana": "キンメイダイヒガシ",
    "street": null,
    "office_name": null,
    "office_name_kana": null
  },
  "8297": {
    "postcode": "6148297",
    "prefecture": "京都府",
    "prefecture_kana": "キョウトフ",
    "prefecture_code": 26,
    "city": "八幡市",
    "city_kana": "ヤワタシ",
    "town": "欽明台西",
    "town_kana": "キンメイダイニシ",
    "street": null,
    "office_name": null,
    "office_name_kana": null
  },
  "8298": {
    "postcode": "6148298",
    "prefecture": "京都府",
    "prefecture_kana": "キョウトフ",
    "prefecture_code": 26,
    "city": "八幡市",
    "city_kana": "ヤワタシ",
    "town": "美濃山古寺",
    "town_kana": "ミノヤマフルデラ",
    "street": null,
    "office_name": null,
    "office_name_kana": null
  },
  "8301": {
    "postcode": "6148301",
    "prefecture": "京都府",
    "prefecture_kana": "キョウトフ",
    "prefecture_code": 26,
    "city": "八幡市",
    "city_kana": "ヤワタシ",
    "town": "八幡池ノ首",
    "town_kana": "ヤワタイケノクビ",
    "street": null,
    "office_name": null,
    "office_name_kana": null
  },
  "8302": {
    "postcode": "6148302",
    "prefecture": "京都府",
    "prefecture_kana": "キョウトフ",
    "prefecture_code": 26,
    "city": "八幡市",
    "city_kana": "ヤワタシ",
    "town": "八幡カイトリ",
    "town_kana": "ヤワタカイトリ",
    "street": null,
    "office_name": null,
    "office_name_kana": null
  },
  "8303": {
    "postcode": "6148303",
    "prefecture": "京都府",
    "prefecture_kana": "キョウトフ",
    "prefecture_code": 26,
    "city": "八幡市",
    "city_kana": "ヤワタシ",
    "town": "八幡菰池",
    "town_kana": "ヤワタコモイケ",
    "street": null,
    "office_name": null,
    "office_name_kana": null
  },
  "8304": {
    "postcode": "6148304",
    "prefecture": "京都府",
    "prefecture_kana": "キョウトフ",
    "prefecture_code": 26,
    "city": "八幡市",
    "city_kana": "ヤワタシ",
    "town": "八幡源野",
    "town_kana": "ヤワタゲンノ",
    "street": null,
    "office_name": null,
    "office_name_kana": null
  },
  "8305": {
    "postcode": "6148305",
    "prefecture": "京都府",
    "prefecture_kana": "キョウトフ",
    "prefecture_code": 26,
    "city": "八幡市",
    "city_kana": "ヤワタシ",
    "town": "八幡焼木",
    "town_kana": "ヤワタヤケギ",
    "street": null,
    "office_name": null,
    "office_name_kana": null
  },
  "8306": {
    "postcode": "6148306",
    "prefecture": "京都府",
    "prefecture_kana": "キョウトフ",
    "prefecture_code": 26,
    "city": "八幡市",
    "city_kana": "ヤワタシ",
    "town": "八幡沢",
    "town_kana": "ヤワタサワ",
    "street": null,
    "office_name": null,
    "office_name_kana": null
  },
  "8307": {
    "postcode": "6148307",
    "prefecture": "京都府",
    "prefecture_kana": "キョウトフ",
    "prefecture_code": 26,
    "city": "八幡市",
    "city_kana": "ヤワタシ",
    "town": "八幡在応寺",
    "town_kana": "ヤワタザイオウジ",
    "street": null,
    "office_name": null,
    "office_name_kana": null
  },
  "8308": {
    "postcode": "6148308",
    "prefecture": "京都府",
    "prefecture_kana": "キョウトフ",
    "prefecture_code": 26,
    "city": "八幡市",
    "city_kana": "ヤワタシ",
    "town": "八幡八萩",
    "town_kana": "ヤワタヤハギ",
    "street": null,
    "office_name": null,
    "office_name_kana": null
  },
  "8311": {
    "postcode": "6148311",
    "prefecture": "京都府",
    "prefecture_kana": "キョウトフ",
    "prefecture_code": 26,
    "city": "八幡市",
    "city_kana": "ヤワタシ",
    "town": "橋本奥ノ町",
    "town_kana": "ハシモトオクノチョウ",
    "street": null,
    "office_name": null,
    "office_name_kana": null
  },
  "8312": {
    "postcode": "6148312",
    "prefecture": "京都府",
    "prefecture_kana": "キョウトフ",
    "prefecture_code": 26,
    "city": "八幡市",
    "city_kana": "ヤワタシ",
    "town": "橋本尻江",
    "town_kana": "ハシモトシリエ",
    "street": null,
    "office_name": null,
    "office_name_kana": null
  },
  "8313": {
    "postcode": "6148313",
    "prefecture": "京都府",
    "prefecture_kana": "キョウトフ",
    "prefecture_code": 26,
    "city": "八幡市",
    "city_kana": "ヤワタシ",
    "town": "橋本東山本",
    "town_kana": "ハシモトヒガシヤマモト",
    "street": null,
    "office_name": null,
    "office_name_kana": null
  },
  "8314": {
    "postcode": "6148314",
    "prefecture": "京都府",
    "prefecture_kana": "キョウトフ",
    "prefecture_code": 26,
    "city": "八幡市",
    "city_kana": "ヤワタシ",
    "town": "橋本西山本",
    "town_kana": "ハシモトニシヤマモト",
    "street": null,
    "office_name": null,
    "office_name_kana": null
  },
  "8315": {
    "postcode": "6148315",
    "prefecture": "京都府",
    "prefecture_kana": "キョウトフ",
    "prefecture_code": 26,
    "city": "八幡市",
    "city_kana": "ヤワタシ",
    "town": "橋本北ノ町",
    "town_kana": "ハシモトキタノチョウ",
    "street": null,
    "office_name": null,
    "office_name_kana": null
  },
  "8321": {
    "postcode": "6148321",
    "prefecture": "京都府",
    "prefecture_kana": "キョウトフ",
    "prefecture_code": 26,
    "city": "八幡市",
    "city_kana": "ヤワタシ",
    "town": "橋本米ノ尾",
    "town_kana": "ハシモトコメノオ",
    "street": null,
    "office_name": null,
    "office_name_kana": null
  },
  "8322": {
    "postcode": "6148322",
    "prefecture": "京都府",
    "prefecture_kana": "キョウトフ",
    "prefecture_code": 26,
    "city": "八幡市",
    "city_kana": "ヤワタシ",
    "town": "橋本狩尾",
    "town_kana": "ハシモトトガノオ",
    "street": null,
    "office_name": null,
    "office_name_kana": null
  },
  "8323": {
    "postcode": "6148323",
    "prefecture": "京都府",
    "prefecture_kana": "キョウトフ",
    "prefecture_code": 26,
    "city": "八幡市",
    "city_kana": "ヤワタシ",
    "town": "橋本興正",
    "town_kana": "ハシモトコウショウ",
    "street": null,
    "office_name": null,
    "office_name_kana": null
  },
  "8324": {
    "postcode": "6148324",
    "prefecture": "京都府",
    "prefecture_kana": "キョウトフ",
    "prefecture_code": 26,
    "city": "八幡市",
    "city_kana": "ヤワタシ",
    "town": "橋本東浄土ケ原",
    "town_kana": "ハシモトヒガシジョウドガハラ",
    "street": null,
    "office_name": null,
    "office_name_kana": null
  },
  "8325": {
    "postcode": "6148325",
    "prefecture": "京都府",
    "prefecture_kana": "キョウトフ",
    "prefecture_code": 26,
    "city": "八幡市",
    "city_kana": "ヤワタシ",
    "town": "橋本北浄土ケ原",
    "town_kana": "ハシモトキタジョウドガハラ",
    "street": null,
    "office_name": null,
    "office_name_kana": null
  },
  "8326": {
    "postcode": "6148326",
    "prefecture": "京都府",
    "prefecture_kana": "キョウトフ",
    "prefecture_code": 26,
    "city": "八幡市",
    "city_kana": "ヤワタシ",
    "town": "橋本石ケ谷",
    "town_kana": "ハシモトイシガダニ",
    "street": null,
    "office_name": null,
    "office_name_kana": null
  },
  "8327": {
    "postcode": "6148327",
    "prefecture": "京都府",
    "prefecture_kana": "キョウトフ",
    "prefecture_code": 26,
    "city": "八幡市",
    "city_kana": "ヤワタシ",
    "town": "橋本栗ケ谷",
    "town_kana": "ハシモトクリガダニ",
    "street": null,
    "office_name": null,
    "office_name_kana": null
  },
  "8331": {
    "postcode": "6148331",
    "prefecture": "京都府",
    "prefecture_kana": "キョウトフ",
    "prefecture_code": 26,
    "city": "八幡市",
    "city_kana": "ヤワタシ",
    "town": "橋本意足",
    "town_kana": "ハシモトイソク",
    "street": null,
    "office_name": null,
    "office_name_kana": null
  },
  "8332": {
    "postcode": "6148332",
    "prefecture": "京都府",
    "prefecture_kana": "キョウトフ",
    "prefecture_code": 26,
    "city": "八幡市",
    "city_kana": "ヤワタシ",
    "town": "橋本新石",
    "town_kana": "ハシモトシンセキ",
    "street": null,
    "office_name": null,
    "office_name_kana": null
  },
  "8333": {
    "postcode": "6148333",
    "prefecture": "京都府",
    "prefecture_kana": "キョウトフ",
    "prefecture_code": 26,
    "city": "八幡市",
    "city_kana": "ヤワタシ",
    "town": "橋本東刈又",
    "town_kana": "ハシモトヒガシカリマタ",
    "street": null,
    "office_name": null,
    "office_name_kana": null
  },
  "8334": {
    "postcode": "6148334",
    "prefecture": "京都府",
    "prefecture_kana": "キョウトフ",
    "prefecture_code": 26,
    "city": "八幡市",
    "city_kana": "ヤワタシ",
    "town": "橋本西刈又",
    "town_kana": "ハシモトニシカリマタ",
    "street": null,
    "office_name": null,
    "office_name_kana": null
  },
  "8335": {
    "postcode": "6148335",
    "prefecture": "京都府",
    "prefecture_kana": "キョウトフ",
    "prefecture_code": 26,
    "city": "八幡市",
    "city_kana": "ヤワタシ",
    "town": "橋本中ノ池尻",
    "town_kana": "ハシモトナカノイケジリ",
    "street": null,
    "office_name": null,
    "office_name_kana": null
  },
  "8336": {
    "postcode": "6148336",
    "prefecture": "京都府",
    "prefecture_kana": "キョウトフ",
    "prefecture_code": 26,
    "city": "八幡市",
    "city_kana": "ヤワタシ",
    "town": "橋本向山",
    "town_kana": "ハシモトムカイヤマ",
    "street": null,
    "office_name": null,
    "office_name_kana": null
  },
  "8341": {
    "postcode": "6148341",
    "prefecture": "京都府",
    "prefecture_kana": "キョウトフ",
    "prefecture_code": 26,
    "city": "八幡市",
    "city_kana": "ヤワタシ",
    "town": "橋本中ノ町",
    "town_kana": "ハシモトナカノチョウ",
    "street": null,
    "office_name": null,
    "office_name_kana": null
  },
  "8342": {
    "postcode": "6148342",
    "prefecture": "京都府",
    "prefecture_kana": "キョウトフ",
    "prefecture_code": 26,
    "city": "八幡市",
    "city_kana": "ヤワタシ",
    "town": "橋本小金川",
    "town_kana": "ハシモトコガネガワ",
    "street": null,
    "office_name": null,
    "office_name_kana": null
  },
  "8343": {
    "postcode": "6148343",
    "prefecture": "京都府",
    "prefecture_kana": "キョウトフ",
    "prefecture_code": 26,
    "city": "八幡市",
    "city_kana": "ヤワタシ",
    "town": "橋本焼野",
    "town_kana": "ハシモトヤケノ",
    "street": null,
    "office_name": null,
    "office_name_kana": null
  },
  "8344": {
    "postcode": "6148344",
    "prefecture": "京都府",
    "prefecture_kana": "キョウトフ",
    "prefecture_code": 26,
    "city": "八幡市",
    "city_kana": "ヤワタシ",
    "town": "橋本堂ケ原",
    "town_kana": "ハシモトドウガハラ",
    "street": null,
    "office_name": null,
    "office_name_kana": null
  },
  "8345": {
    "postcode": "6148345",
    "prefecture": "京都府",
    "prefecture_kana": "キョウトフ",
    "prefecture_code": 26,
    "city": "八幡市",
    "city_kana": "ヤワタシ",
    "town": "橋本愛宕山",
    "town_kana": "ハシモトアタゴヤマ",
    "street": null,
    "office_name": null,
    "office_name_kana": null
  },
  "8346": {
    "postcode": "6148346",
    "prefecture": "京都府",
    "prefecture_kana": "キョウトフ",
    "prefecture_code": 26,
    "city": "八幡市",
    "city_kana": "ヤワタシ",
    "town": "橋本塩釜",
    "town_kana": "ハシモトシオガマ",
    "street": null,
    "office_name": null,
    "office_name_kana": null
  },
  "8347": {
    "postcode": "6148347",
    "prefecture": "京都府",
    "prefecture_kana": "キョウトフ",
    "prefecture_code": 26,
    "city": "八幡市",
    "city_kana": "ヤワタシ",
    "town": "橋本平野山",
    "town_kana": "ハシモトヒラノヤマ",
    "street": null,
    "office_name": null,
    "office_name_kana": null
  },
  "8348": {
    "postcode": "6148348",
    "prefecture": "京都府",
    "prefecture_kana": "キョウトフ",
    "prefecture_code": 26,
    "city": "八幡市",
    "city_kana": "ヤワタシ",
    "town": "橋本東原",
    "town_kana": "ハシモトヒガシハラ",
    "street": null,
    "office_name": null,
    "office_name_kana": null
  },
  "8349": {
    "postcode": "6148349",
    "prefecture": "京都府",
    "prefecture_kana": "キョウトフ",
    "prefecture_code": 26,
    "city": "八幡市",
    "city_kana": "ヤワタシ",
    "town": "橋本糸ケ上",
    "town_kana": "ハシモトイトガウエ",
    "street": null,
    "office_name": null,
    "office_name_kana": null
  },
  "8351": {
    "postcode": "6148351",
    "prefecture": "京都府",
    "prefecture_kana": "キョウトフ",
    "prefecture_code": 26,
    "city": "八幡市",
    "city_kana": "ヤワタシ",
    "town": "西山足立",
    "town_kana": "ニシヤマアダチ",
    "street": null,
    "office_name": null,
    "office_name_kana": null
  },
  "8352": {
    "postcode": "6148352",
    "prefecture": "京都府",
    "prefecture_kana": "キョウトフ",
    "prefecture_code": 26,
    "city": "八幡市",
    "city_kana": "ヤワタシ",
    "town": "西山和気",
    "town_kana": "ニシヤマワキ",
    "street": null,
    "office_name": null,
    "office_name_kana": null
  },
  "8353": {
    "postcode": "6148353",
    "prefecture": "京都府",
    "prefecture_kana": "キョウトフ",
    "prefecture_code": 26,
    "city": "八幡市",
    "city_kana": "ヤワタシ",
    "town": "西山丸尾",
    "town_kana": "ニシヤママルオ",
    "street": null,
    "office_name": null,
    "office_name_kana": null
  },
  "8361": {
    "postcode": "6148361",
    "prefecture": "京都府",
    "prefecture_kana": "キョウトフ",
    "prefecture_code": 26,
    "city": "八幡市",
    "city_kana": "ヤワタシ",
    "town": "男山指月",
    "town_kana": "オトコヤマシゲツ",
    "street": null,
    "office_name": null,
    "office_name_kana": null
  },
  "8362": {
    "postcode": "6148362",
    "prefecture": "京都府",
    "prefecture_kana": "キョウトフ",
    "prefecture_code": 26,
    "city": "八幡市",
    "city_kana": "ヤワタシ",
    "town": "男山美桜",
    "town_kana": "オトコヤマミザクラ",
    "street": null,
    "office_name": null,
    "office_name_kana": null
  },
  "8363": {
    "postcode": "6148363",
    "prefecture": "京都府",
    "prefecture_kana": "キョウトフ",
    "prefecture_code": 26,
    "city": "八幡市",
    "city_kana": "ヤワタシ",
    "town": "男山吉井",
    "town_kana": "オトコヤマヨシイ",
    "street": null,
    "office_name": null,
    "office_name_kana": null
  },
  "8364": {
    "postcode": "6148364",
    "prefecture": "京都府",
    "prefecture_kana": "キョウトフ",
    "prefecture_code": 26,
    "city": "八幡市",
    "city_kana": "ヤワタシ",
    "town": "男山松里",
    "town_kana": "オトコヤママツサト",
    "street": null,
    "office_name": null,
    "office_name_kana": null
  },
  "8365": {
    "postcode": "6148365",
    "prefecture": "京都府",
    "prefecture_kana": "キョウトフ",
    "prefecture_code": 26,
    "city": "八幡市",
    "city_kana": "ヤワタシ",
    "town": "男山金振",
    "town_kana": "オトコヤマカナブリ",
    "street": null,
    "office_name": null,
    "office_name_kana": null
  },
  "8366": {
    "postcode": "6148366",
    "prefecture": "京都府",
    "prefecture_kana": "キョウトフ",
    "prefecture_code": 26,
    "city": "八幡市",
    "city_kana": "ヤワタシ",
    "town": "男山泉",
    "town_kana": "オトコヤマイズミ",
    "street": null,
    "office_name": null,
    "office_name_kana": null
  },
  "8367": {
    "postcode": "6148367",
    "prefecture": "京都府",
    "prefecture_kana": "キョウトフ",
    "prefecture_code": 26,
    "city": "八幡市",
    "city_kana": "ヤワタシ",
    "town": "男山長沢",
    "town_kana": "オトコヤマナガサワ",
    "street": null,
    "office_name": null,
    "office_name_kana": null
  },
  "8371": {
    "postcode": "6148371",
    "prefecture": "京都府",
    "prefecture_kana": "キョウトフ",
    "prefecture_code": 26,
    "city": "八幡市",
    "city_kana": "ヤワタシ",
    "town": "男山雄徳",
    "town_kana": "オトコヤマユウトク",
    "street": null,
    "office_name": null,
    "office_name_kana": null
  },
  "8372": {
    "postcode": "6148372",
    "prefecture": "京都府",
    "prefecture_kana": "キョウトフ",
    "prefecture_code": 26,
    "city": "八幡市",
    "city_kana": "ヤワタシ",
    "town": "男山笹谷",
    "town_kana": "オトコヤマササタニ",
    "street": null,
    "office_name": null,
    "office_name_kana": null
  },
  "8373": {
    "postcode": "6148373",
    "prefecture": "京都府",
    "prefecture_kana": "キョウトフ",
    "prefecture_code": 26,
    "city": "八幡市",
    "city_kana": "ヤワタシ",
    "town": "男山八望",
    "town_kana": "オトコヤマハチボウ",
    "street": null,
    "office_name": null,
    "office_name_kana": null
  },
  "8374": {
    "postcode": "6148374",
    "prefecture": "京都府",
    "prefecture_kana": "キョウトフ",
    "prefecture_code": 26,
    "city": "八幡市",
    "city_kana": "ヤワタシ",
    "town": "男山石城",
    "town_kana": "オトコヤマイシシロ",
    "street": null,
    "office_name": null,
    "office_name_kana": null
  },
  "8375": {
    "postcode": "6148375",
    "prefecture": "京都府",
    "prefecture_kana": "キョウトフ",
    "prefecture_code": 26,
    "city": "八幡市",
    "city_kana": "ヤワタシ",
    "town": "男山弓岡",
    "town_kana": "オトコヤマユミオカ",
    "street": null,
    "office_name": null,
    "office_name_kana": null
  },
  "8376": {
    "postcode": "6148376",
    "prefecture": "京都府",
    "prefecture_kana": "キョウトフ",
    "prefecture_code": 26,
    "city": "八幡市",
    "city_kana": "ヤワタシ",
    "town": "男山竹園",
    "town_kana": "オトコヤマタケゾノ",
    "street": null,
    "office_name": null,
    "office_name_kana": null
  },
  "8377": {
    "postcode": "6148377",
    "prefecture": "京都府",
    "prefecture_kana": "キョウトフ",
    "prefecture_code": 26,
    "city": "八幡市",
    "city_kana": "ヤワタシ",
    "town": "男山香呂",
    "town_kana": "オトコヤマコウロ",
    "street": null,
    "office_name": null,
    "office_name_kana": null
  },
  "8501": {
    "postcode": "6148501",
    "prefecture": "京都府",
    "prefecture_kana": "キョウトフ",
    "prefecture_code": 26,
    "city": "八幡市",
    "city_kana": "ヤワタシ",
    "town": "八幡園内",
    "town_kana": "ヤワタソノウチ",
    "street": "７５",
    "office_name": "八幡市役所",
    "office_name_kana": "ヤワタシヤクシヨ"
  },
  "8511": {
    "postcode": "6148511",
    "prefecture": "京都府",
    "prefecture_kana": "キョウトフ",
    "prefecture_code": 26,
    "city": "八幡市",
    "city_kana": "ヤワタシ",
    "town": "八幡沢",
    "town_kana": "ヤワタサワ",
    "street": "１",
    "office_name": "城南衛生管理組合",
    "office_name_kana": "ジヨウナンエイセイカンリクミアイ"
  },
  "8588": {
    "postcode": "6148588",
    "prefecture": "京都府",
    "prefecture_kana": "キョウトフ",
    "prefecture_code": 26,
    "city": "八幡市",
    "city_kana": "ヤワタシ",
    "town": "八幡高坊",
    "town_kana": "ヤワタタカボウ",
    "street": "３０",
    "office_name": "石清水八幡宮",
    "office_name_kana": "イワシミズハチマングウ"
  }
}