{
  "0001": {
    "postcode": "6150001",
    "prefecture": "京都府",
    "prefecture_kana": "キョウトフ",
    "prefecture_code": 26,
    "city": "京都市右京区",
    "city_kana": "キョウトシウキョウク",
    "town": "西院上今田町",
    "town_kana": "サイインカミイマダチョウ",
    "street": null,
    "office_name": null,
    "office_name_kana": null
  },
  "0002": {
    "postcode": "6150002",
    "prefecture": "京都府",
    "prefecture_kana": "キョウトフ",
    "prefecture_code": 26,
    "city": "京都市右京区",
    "city_kana": "キョウトシウキョウク",
    "town": "西院東今田町",
    "town_kana": "サイインヒガシイマダチョウ",
    "street": null,
    "office_name": null,
    "office_name_kana": null
  },
  "0003": {
    "postcode": "6150003",
    "prefecture": "京都府",
    "prefecture_kana": "キョウトフ",
    "prefecture_code": 26,
    "city": "京都市右京区",
    "city_kana": "キョウトシウキョウク",
    "town": "西院西今田町",
    "town_kana": "サイインニシイマダチョウ",
    "street": null,
    "office_name": null,
    "office_name_kana": null
  },
  "0004": {
    "postcode": "6150004",
    "prefecture": "京都府",
    "prefecture_kana": "キョウトフ",
    "prefecture_code": 26,
    "city": "京都市右京区",
    "city_kana": "キョウトシウキョウク",
    "town": "西院下花田町",
    "town_kana": "サイインシモハナダチョウ",
    "street": null,
    "office_name": null,
    "office_name_kana": null
  },
  "0005": {
    "postcode": "6150005",
    "prefecture": "京都府",
    "prefecture_kana": "キョウトフ",
    "prefecture_code": 26,
    "city": "京都市右京区",
    "city_kana": "キョウトシウキョウク",
    "town": "西院春栄町",
    "town_kana": "サイインシュンエイチョウ",
    "street": null,
    "office_name": null,
    "office_name_kana": null
  },
  "0006": {
    "postcode": "6150006",
    "prefecture": "京都府",
    "prefecture_kana": "キョウトフ",
    "prefecture_code": 26,
    "city": "京都市右京区",
    "city_kana": "キョウトシウキョウク",
    "town": "西院金槌町",
    "town_kana": "サイインカナヅチチョウ",
    "street": null,
    "office_name": null,
    "office_name_kana": null
  },
  "0007": {
    "postcode": "6150007",
    "prefecture": "京都府",
    "prefecture_kana": "キョウトフ",
    "prefecture_code": 26,
    "city": "京都市右京区",
    "city_kana": "キョウトシウキョウク",
    "town": "西院上花田町",
    "town_kana": "サイインカミハナダチョウ",
    "street": null,
    "office_name": null,
    "office_name_kana": null
  },
  "0011": {
    "postcode": "6150011",
    "prefecture": "京都府",
    "prefecture_kana": "キョウトフ",
    "prefecture_code": 26,
    "city": "京都市右京区",
    "city_kana": "キョウトシウキョウク",
    "town": "西院東淳和院町",
    "town_kana": "サイインヒガシジュンナインチョウ",
    "street": null,
    "office_name": null,
    "office_name_kana": null
  },
  "0012": {
    "postcode": "6150012",
    "prefecture": "京都府",
    "prefecture_kana": "キョウトフ",
    "prefecture_code": 26,
    "city": "京都市右京区",
    "city_kana": "キョウトシウキョウク",
    "town": "西院高山寺町",
    "town_kana": "サイインコウザンジチョウ",
    "street": null,
    "office_name": null,
    "office_name_kana": null
  },
  "0013": {
    "postcode": "6150013",
    "prefecture": "京都府",
    "prefecture_kana": "キョウトフ",
    "prefecture_code": 26,
    "city": "京都市右京区",
    "city_kana": "キョウトシウキョウク",
    "town": "西院松井町",
    "town_kana": "サイインマツイチョウ",
    "street": null,
    "office_name": null,
    "office_name_kana": null
  },
  "0014": {
    "postcode": "6150014",
    "prefecture": "京都府",
    "prefecture_kana": "キョウトフ",
    "prefecture_code": 26,
    "city": "京都市右京区",
    "city_kana": "キョウトシウキョウク",
    "town": "西院巽町",
    "town_kana": "サイインタツミチョウ",
    "street": null,
    "office_name": null,
    "office_name_kana": null
  },
  "0015": {
    "postcode": "6150015",
    "prefecture": "京都府",
    "prefecture_kana": "キョウトフ",
    "prefecture_code": 26,
    "city": "京都市右京区",
    "city_kana": "キョウトシウキョウク",
    "town": "西院春日町",
    "town_kana": "サイインカスガチョウ",
    "street": null,
    "office_name": null,
    "office_name_kana": null
  },
  "0016": {
    "postcode": "6150016",
    "prefecture": "京都府",
    "prefecture_kana": "キョウトフ",
    "prefecture_code": 26,
    "city": "京都市右京区",
    "city_kana": "キョウトシウキョウク",
    "town": "西院西淳和院町",
    "town_kana": "サイインニシジュンナインチョウ",
    "street": null,
    "office_name": null,
    "office_name_kana": null
  },
  "0021": {
    "postcode": "6150021",
    "prefecture": "京都府",
    "prefecture_kana": "キョウトフ",
    "prefecture_code": 26,
    "city": "京都市右京区",
    "city_kana": "キョウトシウキョウク",
    "town": "西院三蔵町",
    "town_kana": "サイインサンゾウチョウ",
    "street": null,
    "office_name": null,
    "office_name_kana": null
  },
  "0022": {
    "postcode": "6150022",
    "prefecture": "京都府",
    "prefecture_kana": "キョウトフ",
    "prefecture_code": 26,
    "city": "京都市右京区",
    "city_kana": "キョウトシウキョウク",
    "town": "西院平町",
    "town_kana": "サイインヒラマチ",
    "street": null,
    "office_name": null,
    "office_name_kana": null
  },
  "0023": {
    "postcode": "6150023",
    "prefecture": "京都府",
    "prefecture_kana": "キョウトフ",
    "prefecture_code": 26,
    "city": "京都市右京区",
    "city_kana": "キョウトシウキョウク",
    "town": "西院西平町",
    "town_kana": "サイインニシヒラマチ",
    "street": null,
    "office_name": null,
    "office_name_kana": null
  },
  "0024": {
    "postcode": "6150024",
    "prefecture": "京都府",
    "prefecture_kana": "キョウトフ",
    "prefecture_code": 26,
    "city": "京都市右京区",
    "city_kana": "キョウトシウキョウク",
    "town": "西院矢掛町",
    "town_kana": "サイインヤカケチョウ",
    "street": null,
    "office_name": null,
    "office_name_kana": null
  },
  "0025": {
    "postcode": "6150025",
    "prefecture": "京都府",
    "prefecture_kana": "キョウトフ",
    "prefecture_code": 26,
    "city": "京都市右京区",
    "city_kana": "キョウトシウキョウク",
    "town": "西院西矢掛町",
    "town_kana": "サイインニシヤカケチョウ",
    "street": null,
    "office_name": null,
    "office_name_kana": null
  },
  "0026": {
    "postcode": "6150026",
    "prefecture": "京都府",
    "prefecture_kana": "キョウトフ",
    "prefecture_code": 26,
    "city": "京都市右京区",
    "city_kana": "キョウトシウキョウク",
    "town": "西院北矢掛町",
    "town_kana": "サイインキタヤカケチョウ",
    "street": null,
    "office_name": null,
    "office_name_kana": null
  },
  "0027": {
    "postcode": "6150027",
    "prefecture": "京都府",
    "prefecture_kana": "キョウトフ",
    "prefecture_code": 26,
    "city": "京都市右京区",
    "city_kana": "キョウトシウキョウク",
    "town": "西院西三蔵町",
    "town_kana": "サイインニシサンゾウチョウ",
    "street": null,
    "office_name": null,
    "office_name_kana": null
  },
  "0031": {
    "postcode": "6150031",
    "prefecture": "京都府",
    "prefecture_kana": "キョウトフ",
    "prefecture_code": 26,
    "city": "京都市右京区",
    "city_kana": "キョウトシウキョウク",
    "town": "西院高田町",
    "town_kana": "サイインタカダチョウ",
    "street": null,
    "office_name": null,
    "office_name_kana": null
  },
  "0032": {
    "postcode": "6150032",
    "prefecture": "京都府",
    "prefecture_kana": "キョウトフ",
    "prefecture_code": 26,
    "city": "京都市右京区",
    "city_kana": "キョウトシウキョウク",
    "town": "西院西高田町",
    "town_kana": "サイインニシタカダチョウ",
    "street": null,
    "office_name": null,
    "office_name_kana": null
  },
  "0033": {
    "postcode": "6150033",
    "prefecture": "京都府",
    "prefecture_kana": "キョウトフ",
    "prefecture_code": 26,
    "city": "京都市右京区",
    "city_kana": "キョウトシウキョウク",
    "town": "西院寿町",
    "town_kana": "サイインコトブキチョウ",
    "street": null,
    "office_name": null,
    "office_name_kana": null
  },
  "0034": {
    "postcode": "6150034",
    "prefecture": "京都府",
    "prefecture_kana": "キョウトフ",
    "prefecture_code": 26,
    "city": "京都市右京区",
    "city_kana": "キョウトシウキョウク",
    "town": "西院西寿町",
    "town_kana": "サイインニシコトブキチョウ",
    "street": null,
    "office_name": null,
    "office_name_kana": null
  },
  "0035": {
    "postcode": "6150035",
    "prefecture": "京都府",
    "prefecture_kana": "キョウトフ",
    "prefecture_code": 26,
    "city": "京都市右京区",
    "city_kana": "キョウトシウキョウク",
    "town": "西院追分町",
    "town_kana": "サイインオイワケチョウ",
    "street": null,
    "office_name": null,
    "office_name_kana": null
  },
  "0036": {
    "postcode": "6150036",
    "prefecture": "京都府",
    "prefecture_kana": "キョウトフ",
    "prefecture_code": 26,
    "city": "京都市右京区",
    "city_kana": "キョウトシウキョウク",
    "town": "西院太田町",
    "town_kana": "サイインオオタチョウ",
    "street": null,
    "office_name": null,
    "office_name_kana": null
  },
  "0037": {
    "postcode": "6150037",
    "prefecture": "京都府",
    "prefecture_kana": "キョウトフ",
    "prefecture_code": 26,
    "city": "京都市右京区",
    "city_kana": "キョウトシウキョウク",
    "town": "西院南井御料町",
    "town_kana": "サイインミナミイゴリョウチョウ",
    "street": null,
    "office_name": null,
    "office_name_kana": null
  },
  "0041": {
    "postcode": "6150041",
    "prefecture": "京都府",
    "prefecture_kana": "キョウトフ",
    "prefecture_code": 26,
    "city": "京都市右京区",
    "city_kana": "キョウトシウキョウク",
    "town": "西院南高田町",
    "town_kana": "サイインミナミタカダチョウ",
    "street": null,
    "office_name": null,
    "office_name_kana": null
  },
  "0042": {
    "postcode": "6150042",
    "prefecture": "京都府",
    "prefecture_kana": "キョウトフ",
    "prefecture_code": 26,
    "city": "京都市右京区",
    "city_kana": "キョウトシウキョウク",
    "town": "西院東中水町",
    "town_kana": "サイインヒガシナカミズチョウ",
    "street": null,
    "office_name": null,
    "office_name_kana": null
  },
  "0043": {
    "postcode": "6150043",
    "prefecture": "京都府",
    "prefecture_kana": "キョウトフ",
    "prefecture_code": 26,
    "city": "京都市右京区",
    "city_kana": "キョウトシウキョウク",
    "town": "西院中水町",
    "town_kana": "サイインナカミズチョウ",
    "street": null,
    "office_name": null,
    "office_name_kana": null
  },
  "0044": {
    "postcode": "6150044",
    "prefecture": "京都府",
    "prefecture_kana": "キョウトフ",
    "prefecture_code": 26,
    "city": "京都市右京区",
    "city_kana": "キョウトシウキョウク",
    "town": "西院西中水町",
    "town_kana": "サイインニシナカミズチョウ",
    "street": null,
    "office_name": null,
    "office_name_kana": null
  },
  "0045": {
    "postcode": "6150045",
    "prefecture": "京都府",
    "prefecture_kana": "キョウトフ",
    "prefecture_code": 26,
    "city": "京都市右京区",
    "city_kana": "キョウトシウキョウク",
    "town": "西院溝崎町",
    "town_kana": "サイインミゾサキチョウ",
    "street": null,
    "office_name": null,
    "office_name_kana": null
  },
  "0046": {
    "postcode": "6150046",
    "prefecture": "京都府",
    "prefecture_kana": "キョウトフ",
    "prefecture_code": 26,
    "city": "京都市右京区",
    "city_kana": "キョウトシウキョウク",
    "town": "西院西溝崎町",
    "town_kana": "サイインニシミゾサキチョウ",
    "street": null,
    "office_name": null,
    "office_name_kana": null
  },
  "0047": {
    "postcode": "6150047",
    "prefecture": "京都府",
    "prefecture_kana": "キョウトフ",
    "prefecture_code": 26,
    "city": "京都市右京区",
    "city_kana": "キョウトシウキョウク",
    "town": "西院六反田町",
    "town_kana": "サイインロクタンダチョウ",
    "street": null,
    "office_name": null,
    "office_name_kana": null
  },
  "0048": {
    "postcode": "6150048",
    "prefecture": "京都府",
    "prefecture_kana": "キョウトフ",
    "prefecture_code": 26,
    "city": "京都市右京区",
    "city_kana": "キョウトシウキョウク",
    "town": "西院南寿町",
    "town_kana": "サイインミナミコトブキチョウ",
    "street": null,
    "office_name": null,
    "office_name_kana": null
  },
  "0051": {
    "postcode": "6150051",
    "prefecture": "京都府",
    "prefecture_kana": "キョウトフ",
    "prefecture_code": 26,
    "city": "京都市右京区",
    "city_kana": "キョウトシウキョウク",
    "town": "西院安塚町",
    "town_kana": "サイインヤスヅカチョウ",
    "street": null,
    "office_name": null,
    "office_name_kana": null
  },
  "0052": {
    "postcode": "6150052",
    "prefecture": "京都府",
    "prefecture_kana": "キョウトフ",
    "prefecture_code": 26,
    "city": "京都市右京区",
    "city_kana": "キョウトシウキョウク",
    "town": "西院清水町",
    "town_kana": "サイインシミズチョウ",
    "street": null,
    "office_name": null,
    "office_name_kana": null
  },
  "0053": {
    "postcode": "6150053",
    "prefecture": "京都府",
    "prefecture_kana": "キョウトフ",
    "prefecture_code": 26,
    "city": "京都市右京区",
    "city_kana": "キョウトシウキョウク",
    "town": "西院久保田町",
    "town_kana": "サイインクボタチョウ",
    "street": null,
    "office_name": null,
    "office_name_kana": null
  },
  "0054": {
    "postcode": "6150054",
    "prefecture": "京都府",
    "prefecture_kana": "キョウトフ",
    "prefecture_code": 26,
    "city": "京都市右京区",
    "city_kana": "キョウトシウキョウク",
    "town": "西院月双町",
    "town_kana": "サイインツキソウチョウ",
    "street": null,
    "office_name": null,
    "office_name_kana": null
  },
  "0055": {
    "postcode": "6150055",
    "prefecture": "京都府",
    "prefecture_kana": "キョウトフ",
    "prefecture_code": 26,
    "city": "京都市右京区",
    "city_kana": "キョウトシウキョウク",
    "town": "西院西田町",
    "town_kana": "サイインニシダチョウ",
    "street": null,
    "office_name": null,
    "office_name_kana": null
  },
  "0056": {
    "postcode": "6150056",
    "prefecture": "京都府",
    "prefecture_kana": "キョウトフ",
    "prefecture_code": 26,
    "city": "京都市右京区",
    "city_kana": "キョウトシウキョウク",
    "town": "西院西貝川町",
    "town_kana": "サイインニシカイガワチョウ",
    "street": null,
    "office_name": null,
    "office_name_kana": null
  },
  "0057": {
    "postcode": "6150057",
    "prefecture": "京都府",
    "prefecture_kana": "キョウトフ",
    "prefecture_code": 26,
    "city": "京都市右京区",
    "city_kana": "キョウトシウキョウク",
    "town": "西院東貝川町",
    "town_kana": "サイインヒガシカイガワチョウ",
    "street": null,
    "office_name": null,
    "office_name_kana": null
  },
  "0058": {
    "postcode": "6150058",
    "prefecture": "京都府",
    "prefecture_kana": "キョウトフ",
    "prefecture_code": 26,
    "city": "京都市右京区",
    "city_kana": "キョウトシウキョウク",
    "town": "西院笠目町",
    "town_kana": "サイインカサメチョウ",
    "street": null,
    "office_name": null,
    "office_name_kana": null
  },
  "0061": {
    "postcode": "6150061",
    "prefecture": "京都府",
    "prefecture_kana": "キョウトフ",
    "prefecture_code": 26,
    "city": "京都市右京区",
    "city_kana": "キョウトシウキョウク",
    "town": "西院乾町",
    "town_kana": "サイインイヌイチョウ",
    "street": null,
    "office_name": null,
    "office_name_kana": null
  },
  "0062": {
    "postcode": "6150062",
    "prefecture": "京都府",
    "prefecture_kana": "キョウトフ",
    "prefecture_code": 26,
    "city": "京都市右京区",
    "city_kana": "キョウトシウキョウク",
    "town": "西院坤町",
    "town_kana": "サイインヒツジサルチョウ",
    "street": null,
    "office_name": null,
    "office_name_kana": null
  },
  "0063": {
    "postcode": "6150063",
    "prefecture": "京都府",
    "prefecture_kana": "キョウトフ",
    "prefecture_code": 26,
    "city": "京都市右京区",
    "city_kana": "キョウトシウキョウク",
    "town": "西院北井御料町",
    "town_kana": "サイインキタイゴリョウチョウ",
    "street": null,
    "office_name": null,
    "office_name_kana": null
  },
  "0064": {
    "postcode": "6150064",
    "prefecture": "京都府",
    "prefecture_kana": "キョウトフ",
    "prefecture_code": 26,
    "city": "京都市右京区",
    "city_kana": "キョウトシウキョウク",
    "town": "西院久田町",
    "town_kana": "サイインクデンチョウ",
    "street": null,
    "office_name": null,
    "office_name_kana": null
  },
  "0065": {
    "postcode": "6150065",
    "prefecture": "京都府",
    "prefecture_kana": "キョウトフ",
    "prefecture_code": 26,
    "city": "京都市右京区",
    "city_kana": "キョウトシウキョウク",
    "town": "西院日照町",
    "town_kana": "サイインヒデリチョウ",
    "street": null,
    "office_name": null,
    "office_name_kana": null
  },
  "0066": {
    "postcode": "6150066",
    "prefecture": "京都府",
    "prefecture_kana": "キョウトフ",
    "prefecture_code": 26,
    "city": "京都市右京区",
    "city_kana": "キョウトシウキョウク",
    "town": "西院四条畑町",
    "town_kana": "サイインシジョウバタチョウ",
    "street": null,
    "office_name": null,
    "office_name_kana": null
  },
  "0067": {
    "postcode": "6150067",
    "prefecture": "京都府",
    "prefecture_kana": "キョウトフ",
    "prefecture_code": 26,
    "city": "京都市右京区",
    "city_kana": "キョウトシウキョウク",
    "town": "西院小米町",
    "town_kana": "サイインコゴメチョウ",
    "street": null,
    "office_name": null,
    "office_name_kana": null
  },
  "0071": {
    "postcode": "6150071",
    "prefecture": "京都府",
    "prefecture_kana": "キョウトフ",
    "prefecture_code": 26,
    "city": "京都市右京区",
    "city_kana": "キョウトシウキョウク",
    "town": "山ノ内西裏町",
    "town_kana": "ヤマノウチニシウラチョウ",
    "street": null,
    "office_name": null,
    "office_name_kana": null
  },
  "0072": {
    "postcode": "6150072",
    "prefecture": "京都府",
    "prefecture_kana": "キョウトフ",
    "prefecture_code": 26,
    "city": "京都市右京区",
    "city_kana": "キョウトシウキョウク",
    "town": "山ノ内池尻町",
    "town_kana": "ヤマノウチイケジリチョウ",
    "street": null,
    "office_name": null,
    "office_name_kana": null
  },
  "0073": {
    "postcode": "6150073",
    "prefecture": "京都府",
    "prefecture_kana": "キョウトフ",
    "prefecture_code": 26,
    "city": "京都市右京区",
    "city_kana": "キョウトシウキョウク",
    "town": "山ノ内荒木町",
    "town_kana": "ヤマノウチアラキチョウ",
    "street": null,
    "office_name": null,
    "office_name_kana": null
  },
  "0074": {
    "postcode": "6150074",
    "prefecture": "京都府",
    "prefecture_kana": "キョウトフ",
    "prefecture_code": 26,
    "city": "京都市右京区",
    "city_kana": "キョウトシウキョウク",
    "town": "山ノ内苗町",
    "town_kana": "ヤマノウチナエマチ",
    "street": null,
    "office_name": null,
    "office_name_kana": null
  },
  "0081": {
    "postcode": "6150081",
    "prefecture": "京都府",
    "prefecture_kana": "キョウトフ",
    "prefecture_code": 26,
    "city": "京都市右京区",
    "city_kana": "キョウトシウキョウク",
    "town": "山ノ内養老町",
    "town_kana": "ヤマノウチヨウロウチョウ",
    "street": null,
    "office_name": null,
    "office_name_kana": null
  },
  "0082": {
    "postcode": "6150082",
    "prefecture": "京都府",
    "prefecture_kana": "キョウトフ",
    "prefecture_code": 26,
    "city": "京都市右京区",
    "city_kana": "キョウトシウキョウク",
    "town": "山ノ内赤山町",
    "town_kana": "ヤマノウチセキサンチョウ",
    "street": null,
    "office_name": null,
    "office_name_kana": null
  },
  "0083": {
    "postcode": "6150083",
    "prefecture": "京都府",
    "prefecture_kana": "キョウトフ",
    "prefecture_code": 26,
    "city": "京都市右京区",
    "city_kana": "キョウトシウキョウク",
    "town": "山ノ内瀬戸畑町",
    "town_kana": "ヤマノウチセトハタチョウ",
    "street": null,
    "office_name": null,
    "office_name_kana": null
  },
  "0084": {
    "postcode": "6150084",
    "prefecture": "京都府",
    "prefecture_kana": "キョウトフ",
    "prefecture_code": 26,
    "city": "京都市右京区",
    "city_kana": "キョウトシウキョウク",
    "town": "山ノ内山ノ下町",
    "town_kana": "ヤマノウチヤマノシタチョウ",
    "street": null,
    "office_name": null,
    "office_name_kana": null
  },
  "0085": {
    "postcode": "6150085",
    "prefecture": "京都府",
    "prefecture_kana": "キョウトフ",
    "prefecture_code": 26,
    "city": "京都市右京区",
    "city_kana": "キョウトシウキョウク",
    "town": "山ノ内中畑町",
    "town_kana": "ヤマノウチナカハタチョウ",
    "street": null,
    "office_name": null,
    "office_name_kana": null
  },
  "0091": {
    "postcode": "6150091",
    "prefecture": "京都府",
    "prefecture_kana": "キョウトフ",
    "prefecture_code": 26,
    "city": "京都市右京区",
    "city_kana": "キョウトシウキョウク",
    "town": "山ノ内御堂殿町",
    "town_kana": "ヤマノウチミドウデンチョウ",
    "street": null,
    "office_name": null,
    "office_name_kana": null
  },
  "0092": {
    "postcode": "6150092",
    "prefecture": "京都府",
    "prefecture_kana": "キョウトフ",
    "prefecture_code": 26,
    "city": "京都市右京区",
    "city_kana": "キョウトシウキョウク",
    "town": "山ノ内宮脇町",
    "town_kana": "ヤマノウチミヤワキチョウ",
    "street": null,
    "office_name": null,
    "office_name_kana": null
  },
  "0093": {
    "postcode": "6150093",
    "prefecture": "京都府",
    "prefecture_kana": "キョウトフ",
    "prefecture_code": 26,
    "city": "京都市右京区",
    "city_kana": "キョウトシウキョウク",
    "town": "山ノ内宮前町",
    "town_kana": "ヤマノウチミヤマエチョウ",
    "street": null,
    "office_name": null,
    "office_name_kana": null
  },
  "0094": {
    "postcode": "6150094",
    "prefecture": "京都府",
    "prefecture_kana": "キョウトフ",
    "prefecture_code": 26,
    "city": "京都市右京区",
    "city_kana": "キョウトシウキョウク",
    "town": "山ノ内北ノ口町",
    "town_kana": "ヤマノウチキタノクチチョウ",
    "street": null,
    "office_name": null,
    "office_name_kana": null
  },
  "0095": {
    "postcode": "6150095",
    "prefecture": "京都府",
    "prefecture_kana": "キョウトフ",
    "prefecture_code": 26,
    "city": "京都市右京区",
    "city_kana": "キョウトシウキョウク",
    "town": "山ノ内西八反田町",
    "town_kana": "ヤマノウチニシハッタンダチョウ",
    "street": null,
    "office_name": null,
    "office_name_kana": null
  },
  "0096": {
    "postcode": "6150096",
    "prefecture": "京都府",
    "prefecture_kana": "キョウトフ",
    "prefecture_code": 26,
    "city": "京都市右京区",
    "city_kana": "キョウトシウキョウク",
    "town": "山ノ内五反田町",
    "town_kana": "ヤマノウチゴタンダチョウ",
    "street": null,
    "office_name": null,
    "office_name_kana": null
  },
  "0097": {
    "postcode": "6150097",
    "prefecture": "京都府",
    "prefecture_kana": "キョウトフ",
    "prefecture_code": 26,
    "city": "京都市右京区",
    "city_kana": "キョウトシウキョウク",
    "town": "山ノ内大町",
    "town_kana": "ヤマノウチオオマチ",
    "street": null,
    "office_name": null,
    "office_name_kana": null
  },
  "0801": {
    "postcode": "6150801",
    "prefecture": "京都府",
    "prefecture_kana": "キョウトフ",
    "prefecture_code": 26,
    "city": "京都市右京区",
    "city_kana": "キョウトシウキョウク",
    "town": "西京極豆田町",
    "town_kana": "ニシキョウゴクマメダチョウ",
    "street": null,
    "office_name": null,
    "office_name_kana": null
  },
  "0802": {
    "postcode": "6150802",
    "prefecture": "京都府",
    "prefecture_kana": "キョウトフ",
    "prefecture_code": 26,
    "city": "京都市右京区",
    "city_kana": "キョウトシウキョウク",
    "town": "西京極北庄境町",
    "town_kana": "ニシキョウゴクキタショウザカイチョウ",
    "street": null,
    "office_name": null,
    "office_name_kana": null
  },
  "0803": {
    "postcode": "6150803",
    "prefecture": "京都府",
    "prefecture_kana": "キョウトフ",
    "prefecture_code": 26,
    "city": "京都市右京区",
    "city_kana": "キョウトシウキョウク",
    "town": "西京極南庄境町",
    "town_kana": "ニシキョウゴクミナミショウザカイチョウ",
    "street": null,
    "office_name": null,
    "office_name_kana": null
  },
  "0804": {
    "postcode": "6150804",
    "prefecture": "京都府",
    "prefecture_kana": "キョウトフ",
    "prefecture_code": 26,
    "city": "京都市右京区",
    "city_kana": "キョウトシウキョウク",
    "town": "西京極町ノ坪町",
    "town_kana": "ニシキョウゴクチョウノツボチョウ",
    "street": null,
    "office_name": null,
    "office_name_kana": null
  },
  "0805": {
    "postcode": "6150805",
    "prefecture": "京都府",
    "prefecture_kana": "キョウトフ",
    "prefecture_code": 26,
    "city": "京都市右京区",
    "city_kana": "キョウトシウキョウク",
    "town": "西京極東池田町",
    "town_kana": "ニシキョウゴクヒガシイケダチョウ",
    "street": null,
    "office_name": null,
    "office_name_kana": null
  },
  "0806": {
    "postcode": "6150806",
    "prefecture": "京都府",
    "prefecture_kana": "キョウトフ",
    "prefecture_code": 26,
    "city": "京都市右京区",
    "city_kana": "キョウトシウキョウク",
    "town": "西京極畔勝町",
    "town_kana": "ニシキョウゴクアゼカツチョウ",
    "street": null,
    "office_name": null,
    "office_name_kana": null
  },
  "0807": {
    "postcode": "6150807",
    "prefecture": "京都府",
    "prefecture_kana": "キョウトフ",
    "prefecture_code": 26,
    "city": "京都市右京区",
    "city_kana": "キョウトシウキョウク",
    "town": "西京極東大丸町",
    "town_kana": "ニシキョウゴクヒガシオオマルチョウ",
    "street": null,
    "office_name": null,
    "office_name_kana": null
  },
  "0811": {
    "postcode": "6150811",
    "prefecture": "京都府",
    "prefecture_kana": "キョウトフ",
    "prefecture_code": 26,
    "city": "京都市右京区",
    "city_kana": "キョウトシウキョウク",
    "town": "西京極中溝町",
    "town_kana": "ニシキョウゴクナカミゾチョウ",
    "street": null,
    "office_name": null,
    "office_name_kana": null
  },
  "0812": {
    "postcode": "6150812",
    "prefecture": "京都府",
    "prefecture_kana": "キョウトフ",
    "prefecture_code": 26,
    "city": "京都市右京区",
    "city_kana": "キョウトシウキョウク",
    "town": "西京極大門町",
    "town_kana": "ニシキョウゴクダイモンチョウ",
    "street": null,
    "office_name": null,
    "office_name_kana": null
  },
  "0813": {
    "postcode": "6150813",
    "prefecture": "京都府",
    "prefecture_kana": "キョウトフ",
    "prefecture_code": 26,
    "city": "京都市右京区",
    "city_kana": "キョウトシウキョウク",
    "town": "西京極佃田町",
    "town_kana": "ニシキョウゴクツクダチョウ",
    "street": null,
    "office_name": null,
    "office_name_kana": null
  },
  "0814": {
    "postcode": "6150814",
    "prefecture": "京都府",
    "prefecture_kana": "キョウトフ",
    "prefecture_code": 26,
    "city": "京都市右京区",
    "city_kana": "キョウトシウキョウク",
    "town": "西京極下沢町",
    "town_kana": "ニシキョウゴクシモザワチョウ",
    "street": null,
    "office_name": null,
    "office_name_kana": null
  },
  "0815": {
    "postcode": "6150815",
    "prefecture": "京都府",
    "prefecture_kana": "キョウトフ",
    "prefecture_code": 26,
    "city": "京都市右京区",
    "city_kana": "キョウトシウキョウク",
    "town": "西京極中沢町",
    "town_kana": "ニシキョウゴクナカザワチョウ",
    "street": null,
    "office_name": null,
    "office_name_kana": null
  },
  "0816": {
    "postcode": "6150816",
    "prefecture": "京都府",
    "prefecture_kana": "キョウトフ",
    "prefecture_code": 26,
    "city": "京都市右京区",
    "city_kana": "キョウトシウキョウク",
    "town": "西京極東町",
    "town_kana": "ニシキョウゴクヒガシチョウ",
    "street": null,
    "office_name": null,
    "office_name_kana": null
  },
  "0817": {
    "postcode": "6150817",
    "prefecture": "京都府",
    "prefecture_kana": "キョウトフ",
    "prefecture_code": 26,
    "city": "京都市右京区",
    "city_kana": "キョウトシウキョウク",
    "town": "西京極宮ノ東町",
    "town_kana": "ニシキョウゴクミヤノヒガシチョウ",
    "street": null,
    "office_name": null,
    "office_name_kana": null
  },
  "0818": {
    "postcode": "6150818",
    "prefecture": "京都府",
    "prefecture_kana": "キョウトフ",
    "prefecture_code": 26,
    "city": "京都市右京区",
    "city_kana": "キョウトシウキョウク",
    "town": "西京極三反田町",
    "town_kana": "ニシキョウゴクサンタンダチョウ",
    "street": null,
    "office_name": null,
    "office_name_kana": null
  },
  "0821": {
    "postcode": "6150821",
    "prefecture": "京都府",
    "prefecture_kana": "キョウトフ",
    "prefecture_code": 26,
    "city": "京都市右京区",
    "city_kana": "キョウトシウキョウク",
    "town": "西京極北裏町",
    "town_kana": "ニシキョウゴクキタウラチョウ",
    "street": null,
    "office_name": null,
    "office_name_kana": null
  },
  "0822": {
    "postcode": "6150822",
    "prefecture": "京都府",
    "prefecture_kana": "キョウトフ",
    "prefecture_code": 26,
    "city": "京都市右京区",
    "city_kana": "キョウトシウキョウク",
    "town": "西京極中町",
    "town_kana": "ニシキョウゴクナカマチ",
    "street": null,
    "office_name": null,
    "office_name_kana": null
  },
  "0823": {
    "postcode": "6150823",
    "prefecture": "京都府",
    "prefecture_kana": "キョウトフ",
    "prefecture_code": 26,
    "city": "京都市右京区",
    "city_kana": "キョウトシウキョウク",
    "town": "西京極前田町",
    "town_kana": "ニシキョウゴクマエダチョウ",
    "street": null,
    "office_name": null,
    "office_name_kana": null
  },
  "0824": {
    "postcode": "6150824",
    "prefecture": "京都府",
    "prefecture_kana": "キョウトフ",
    "prefecture_code": 26,
    "city": "京都市右京区",
    "city_kana": "キョウトシウキョウク",
    "town": "西京極畑田町",
    "town_kana": "ニシキョウゴクハタダチョウ",
    "street": null,
    "office_name": null,
    "office_name_kana": null
  },
  "0825": {
    "postcode": "6150825",
    "prefecture": "京都府",
    "prefecture_kana": "キョウトフ",
    "prefecture_code": 26,
    "city": "京都市右京区",
    "city_kana": "キョウトシウキョウク",
    "town": "西京極東向河原町",
    "town_kana": "ニシキョウゴクヒガシムコウガワラチョウ",
    "street": null,
    "office_name": null,
    "office_name_kana": null
  },
  "0826": {
    "postcode": "6150826",
    "prefecture": "京都府",
    "prefecture_kana": "キョウトフ",
    "prefecture_code": 26,
    "city": "京都市右京区",
    "city_kana": "キョウトシウキョウク",
    "town": "西京極芝ノ下町",
    "town_kana": "ニシキョウゴクシバノシタチョウ",
    "street": null,
    "office_name": null,
    "office_name_kana": null
  },
  "0827": {
    "postcode": "6150827",
    "prefecture": "京都府",
    "prefecture_kana": "キョウトフ",
    "prefecture_code": 26,
    "city": "京都市右京区",
    "city_kana": "キョウトシウキョウク",
    "town": "西京極南方町",
    "town_kana": "ニシキョウゴクナンポウチョウ",
    "street": null,
    "office_name": null,
    "office_name_kana": null
  },
  "0831": {
    "postcode": "6150831",
    "prefecture": "京都府",
    "prefecture_kana": "キョウトフ",
    "prefecture_code": 26,
    "city": "京都市右京区",
    "city_kana": "キョウトシウキョウク",
    "town": "西京極長町",
    "town_kana": "ニシキョウゴクナガマチ",
    "street": null,
    "office_name": null,
    "office_name_kana": null
  },
  "0832": {
    "postcode": "6150832",
    "prefecture": "京都府",
    "prefecture_kana": "キョウトフ",
    "prefecture_code": 26,
    "city": "京都市右京区",
    "city_kana": "キョウトシウキョウク",
    "town": "西京極走上リ町",
    "town_kana": "ニシキョウゴクハシアガリチョウ",
    "street": null,
    "office_name": null,
    "office_name_kana": null
  },
  "0833": {
    "postcode": "6150833",
    "prefecture": "京都府",
    "prefecture_kana": "キョウトフ",
    "prefecture_code": 26,
    "city": "京都市右京区",
    "city_kana": "キョウトシウキョウク",
    "town": "西京極橋詰町",
    "town_kana": "ニシキョウゴクハシヅメチョウ",
    "street": null,
    "office_name": null,
    "office_name_kana": null
  },
  "0834": {
    "postcode": "6150834",
    "prefecture": "京都府",
    "prefecture_kana": "キョウトフ",
    "prefecture_code": 26,
    "city": "京都市右京区",
    "city_kana": "キョウトシウキョウク",
    "town": "西京極殿田町",
    "town_kana": "ニシキョウゴクトノダチョウ",
    "street": null,
    "office_name": null,
    "office_name_kana": null
  },
  "0835": {
    "postcode": "6150835",
    "prefecture": "京都府",
    "prefecture_kana": "キョウトフ",
    "prefecture_code": 26,
    "city": "京都市右京区",
    "city_kana": "キョウトシウキョウク",
    "town": "西京極堤下町",
    "town_kana": "ニシキョウゴクツツミシタチョウ",
    "street": null,
    "office_name": null,
    "office_name_kana": null
  },
  "0836": {
    "postcode": "6150836",
    "prefecture": "京都府",
    "prefecture_kana": "キョウトフ",
    "prefecture_code": 26,
    "city": "京都市右京区",
    "city_kana": "キョウトシウキョウク",
    "town": "西京極河原町裏町",
    "town_kana": "ニシキョウゴクカワラチョウウラマチ",
    "street": null,
    "office_name": null,
    "office_name_kana": null
  },
  "0837": {
    "postcode": "6150837",
    "prefecture": "京都府",
    "prefecture_kana": "キョウトフ",
    "prefecture_code": 26,
    "city": "京都市右京区",
    "city_kana": "キョウトシウキョウク",
    "town": "西京極西向河原町",
    "town_kana": "ニシキョウゴクニシムコウガワラチョウ",
    "street": null,
    "office_name": null,
    "office_name_kana": null
  },
  "0838": {
    "postcode": "6150838",
    "prefecture": "京都府",
    "prefecture_kana": "キョウトフ",
    "prefecture_code": 26,
    "city": "京都市右京区",
    "city_kana": "キョウトシウキョウク",
    "town": "西京極薮ノ下町",
    "town_kana": "ニシキョウゴクヤブノシタチョウ",
    "street": null,
    "office_name": null,
    "office_name_kana": null
  },
  "0841": {
    "postcode": "6150841",
    "prefecture": "京都府",
    "prefecture_kana": "キョウトフ",
    "prefecture_code": 26,
    "city": "京都市右京区",
    "city_kana": "キョウトシウキョウク",
    "town": "西京極火打畑町",
    "town_kana": "ニシキョウゴクヒウチバタチョウ",
    "street": null,
    "office_name": null,
    "office_name_kana": null
  },
  "0842": {
    "postcode": "6150842",
    "prefecture": "京都府",
    "prefecture_kana": "キョウトフ",
    "prefecture_code": 26,
    "city": "京都市右京区",
    "city_kana": "キョウトシウキョウク",
    "town": "西京極薮開町",
    "town_kana": "ニシキョウゴクヤブビラキチョウ",
    "street": null,
    "office_name": null,
    "office_name_kana": null
  },
  "0843": {
    "postcode": "6150843",
    "prefecture": "京都府",
    "prefecture_kana": "キョウトフ",
    "prefecture_code": 26,
    "city": "京都市右京区",
    "city_kana": "キョウトシウキョウク",
    "town": "西京極河原町",
    "town_kana": "ニシキョウゴクカワラチョウ",
    "street": null,
    "office_name": null,
    "office_name_kana": null
  },
  "0844": {
    "postcode": "6150844",
    "prefecture": "京都府",
    "prefecture_kana": "キョウトフ",
    "prefecture_code": 26,
    "city": "京都市右京区",
    "city_kana": "キョウトシウキョウク",
    "town": "西京極東側町",
    "town_kana": "ニシキョウゴクヒガシガワチョウ",
    "street": null,
    "office_name": null,
    "office_name_kana": null
  },
  "0845": {
    "postcode": "6150845",
    "prefecture": "京都府",
    "prefecture_kana": "キョウトフ",
    "prefecture_code": 26,
    "city": "京都市右京区",
    "city_kana": "キョウトシウキョウク",
    "town": "西京極末広町",
    "town_kana": "ニシキョウゴクスエヒロチョウ",
    "street": null,
    "office_name": null,
    "office_name_kana": null
  },
  "0846": {
    "postcode": "6150846",
    "prefecture": "京都府",
    "prefecture_kana": "キョウトフ",
    "prefecture_code": 26,
    "city": "京都市右京区",
    "city_kana": "キョウトシウキョウク",
    "town": "西京極徳大寺団子田町",
    "town_kana": "ニシキョウゴクトクダイジダンゴデンチョウ",
    "street": null,
    "office_name": null,
    "office_name_kana": null
  },
  "0851": {
    "postcode": "6150851",
    "prefecture": "京都府",
    "prefecture_kana": "キョウトフ",
    "prefecture_code": 26,
    "city": "京都市右京区",
    "city_kana": "キョウトシウキョウク",
    "town": "西京極西池田町",
    "town_kana": "ニシキョウゴクニシイケダチョウ",
    "street": null,
    "office_name": null,
    "office_name_kana": null
  },
  "0852": {
    "postcode": "6150852",
    "prefecture": "京都府",
    "prefecture_kana": "キョウトフ",
    "prefecture_code": 26,
    "city": "京都市右京区",
    "city_kana": "キョウトシウキョウク",
    "town": "西京極西川町",
    "town_kana": "ニシキョウゴクニシカワチョウ",
    "street": null,
    "office_name": null,
    "office_name_kana": null
  },
  "0853": {
    "postcode": "6150853",
    "prefecture": "京都府",
    "prefecture_kana": "キョウトフ",
    "prefecture_code": 26,
    "city": "京都市右京区",
    "city_kana": "キョウトシウキョウク",
    "town": "西京極郡醍醐田町",
    "town_kana": "ニシキョウゴクゴオリダイゴデンチョウ",
    "street": null,
    "office_name": null,
    "office_name_kana": null
  },
  "0854": {
    "postcode": "6150854",
    "prefecture": "京都府",
    "prefecture_kana": "キョウトフ",
    "prefecture_code": 26,
    "city": "京都市右京区",
    "city_kana": "キョウトシウキョウク",
    "town": "西京極堤外町",
    "town_kana": "ニシキョウゴクツツミソトチョウ",
    "street": null,
    "office_name": null,
    "office_name_kana": null
  },
  "0855": {
    "postcode": "6150855",
    "prefecture": "京都府",
    "prefecture_kana": "キョウトフ",
    "prefecture_code": 26,
    "city": "京都市右京区",
    "city_kana": "キョウトシウキョウク",
    "town": "西京極西団子田町",
    "town_kana": "ニシキョウゴクニシダンゴデンチョウ",
    "street": null,
    "office_name": null,
    "office_name_kana": null
  },
  "0856": {
    "postcode": "6150856",
    "prefecture": "京都府",
    "prefecture_kana": "キョウトフ",
    "prefecture_code": 26,
    "city": "京都市右京区",
    "city_kana": "キョウトシウキョウク",
    "town": "西京極古浜町",
    "town_kana": "ニシキョウゴクフルハマチョウ",
    "street": null,
    "office_name": null,
    "office_name_kana": null
  },
  "0857": {
    "postcode": "6150857",
    "prefecture": "京都府",
    "prefecture_kana": "キョウトフ",
    "prefecture_code": 26,
    "city": "京都市右京区",
    "city_kana": "キョウトシウキョウク",
    "town": "西京極郡猪馬場町",
    "town_kana": "ニシキョウゴクゴオリイノババチョウ",
    "street": null,
    "office_name": null,
    "office_name_kana": null
  },
  "0858": {
    "postcode": "6150858",
    "prefecture": "京都府",
    "prefecture_kana": "キョウトフ",
    "prefecture_code": 26,
    "city": "京都市右京区",
    "city_kana": "キョウトシウキョウク",
    "town": "西京極郡沢町",
    "town_kana": "ニシキョウゴクゴオリサワチョウ",
    "street": null,
    "office_name": null,
    "office_name_kana": null
  },
  "0861": {
    "postcode": "6150861",
    "prefecture": "京都府",
    "prefecture_kana": "キョウトフ",
    "prefecture_code": 26,
    "city": "京都市右京区",
    "city_kana": "キョウトシウキョウク",
    "town": "西京極野田町",
    "town_kana": "ニシキョウゴクノダチョウ",
    "street": null,
    "office_name": null,
    "office_name_kana": null
  },
  "0862": {
    "postcode": "6150862",
    "prefecture": "京都府",
    "prefecture_kana": "キョウトフ",
    "prefecture_code": 26,
    "city": "京都市右京区",
    "city_kana": "キョウトシウキョウク",
    "town": "西京極西大丸町",
    "town_kana": "ニシキョウゴクニシオオマルチョウ",
    "street": null,
    "office_name": null,
    "office_name_kana": null
  },
  "0863": {
    "postcode": "6150863",
    "prefecture": "京都府",
    "prefecture_kana": "キョウトフ",
    "prefecture_code": 26,
    "city": "京都市右京区",
    "city_kana": "キョウトシウキョウク",
    "town": "西京極堤町",
    "town_kana": "ニシキョウゴクツツミチョウ",
    "street": null,
    "office_name": null,
    "office_name_kana": null
  },
  "0864": {
    "postcode": "6150864",
    "prefecture": "京都府",
    "prefecture_kana": "キョウトフ",
    "prefecture_code": 26,
    "city": "京都市右京区",
    "city_kana": "キョウトシウキョウク",
    "town": "西京極新明町",
    "town_kana": "ニシキョウゴクシンメイチョウ",
    "street": null,
    "office_name": null,
    "office_name_kana": null
  },
  "0871": {
    "postcode": "6150871",
    "prefecture": "京都府",
    "prefecture_kana": "キョウトフ",
    "prefecture_code": 26,
    "city": "京都市右京区",
    "city_kana": "キョウトシウキョウク",
    "town": "西京極東衣手町",
    "town_kana": "ニシキョウゴクヒガシコロモデチョウ",
    "street": null,
    "office_name": null,
    "office_name_kana": null
  },
  "0872": {
    "postcode": "6150872",
    "prefecture": "京都府",
    "prefecture_kana": "キョウトフ",
    "prefecture_code": 26,
    "city": "京都市右京区",
    "city_kana": "キョウトシウキョウク",
    "town": "西京極南衣手町",
    "town_kana": "ニシキョウゴクミナミコロモデチョウ",
    "street": null,
    "office_name": null,
    "office_name_kana": null
  },
  "0873": {
    "postcode": "6150873",
    "prefecture": "京都府",
    "prefecture_kana": "キョウトフ",
    "prefecture_code": 26,
    "city": "京都市右京区",
    "city_kana": "キョウトシウキョウク",
    "town": "西京極浜ノ本町",
    "town_kana": "ニシキョウゴクハマノモトチョウ",
    "street": null,
    "office_name": null,
    "office_name_kana": null
  },
  "0874": {
    "postcode": "6150874",
    "prefecture": "京都府",
    "prefecture_kana": "キョウトフ",
    "prefecture_code": 26,
    "city": "京都市右京区",
    "city_kana": "キョウトシウキョウク",
    "town": "西京極新田町",
    "town_kana": "ニシキョウゴクシンデンチョウ",
    "street": null,
    "office_name": null,
    "office_name_kana": null
  },
  "0875": {
    "postcode": "6150875",
    "prefecture": "京都府",
    "prefecture_kana": "キョウトフ",
    "prefecture_code": 26,
    "city": "京都市右京区",
    "city_kana": "キョウトシウキョウク",
    "town": "西京極徳大寺西団子田町",
    "town_kana": "ニシキョウゴクトクダイジニシダンゴデンチョウ",
    "street": null,
    "office_name": null,
    "office_name_kana": null
  },
  "0876": {
    "postcode": "6150876",
    "prefecture": "京都府",
    "prefecture_kana": "キョウトフ",
    "prefecture_code": 26,
    "city": "京都市右京区",
    "city_kana": "キョウトシウキョウク",
    "town": "西京極郡附洲町",
    "town_kana": "ニシキョウゴクゴオリフズチョウ",
    "street": null,
    "office_name": null,
    "office_name_kana": null
  },
  "0877": {
    "postcode": "6150877",
    "prefecture": "京都府",
    "prefecture_kana": "キョウトフ",
    "prefecture_code": 26,
    "city": "京都市右京区",
    "city_kana": "キョウトシウキョウク",
    "town": "西京極西衣手町",
    "town_kana": "ニシキョウゴクニシコロモデチョウ",
    "street": null,
    "office_name": null,
    "office_name_kana": null
  },
  "0878": {
    "postcode": "6150878",
    "prefecture": "京都府",
    "prefecture_kana": "キョウトフ",
    "prefecture_code": 26,
    "city": "京都市右京区",
    "city_kana": "キョウトシウキョウク",
    "town": "西京極北衣手町",
    "town_kana": "ニシキョウゴクキタコロモデチョウ",
    "street": null,
    "office_name": null,
    "office_name_kana": null
  },
  "0881": {
    "postcode": "6150881",
    "prefecture": "京都府",
    "prefecture_kana": "キョウトフ",
    "prefecture_code": 26,
    "city": "京都市右京区",
    "city_kana": "キョウトシウキョウク",
    "town": "西京極北大入町",
    "town_kana": "ニシキョウゴクキタオオイリチョウ",
    "street": null,
    "office_name": null,
    "office_name_kana": null
  },
  "0882": {
    "postcode": "6150882",
    "prefecture": "京都府",
    "prefecture_kana": "キョウトフ",
    "prefecture_code": 26,
    "city": "京都市右京区",
    "city_kana": "キョウトシウキョウク",
    "town": "西京極葛野町",
    "town_kana": "ニシキョウゴクカドノチョウ",
    "street": null,
    "office_name": null,
    "office_name_kana": null
  },
  "0883": {
    "postcode": "6150883",
    "prefecture": "京都府",
    "prefecture_kana": "キョウトフ",
    "prefecture_code": 26,
    "city": "京都市右京区",
    "city_kana": "キョウトシウキョウク",
    "town": "西京極南大入町",
    "town_kana": "ニシキョウゴクミナミオオイリチョウ",
    "street": null,
    "office_name": null,
    "office_name_kana": null
  },
  "0884": {
    "postcode": "6150884",
    "prefecture": "京都府",
    "prefecture_kana": "キョウトフ",
    "prefecture_code": 26,
    "city": "京都市右京区",
    "city_kana": "キョウトシウキョウク",
    "town": "西京極郡町",
    "town_kana": "ニシキョウゴクゴオリチョウ",
    "street": null,
    "office_name": null,
    "office_name_kana": null
  },
  "0885": {
    "postcode": "6150885",
    "prefecture": "京都府",
    "prefecture_kana": "キョウトフ",
    "prefecture_code": 26,
    "city": "京都市右京区",
    "city_kana": "キョウトシウキョウク",
    "town": "西京極午塚町",
    "town_kana": "ニシキョウゴクウマヅカチョウ",
    "street": null,
    "office_name": null,
    "office_name_kana": null
  },
  "0901": {
    "postcode": "6150901",
    "prefecture": "京都府",
    "prefecture_kana": "キョウトフ",
    "prefecture_code": 26,
    "city": "京都市右京区",
    "city_kana": "キョウトシウキョウク",
    "town": "梅津南広町",
    "town_kana": "ウメヅミナミヒロチョウ",
    "street": null,
    "office_name": null,
    "office_name_kana": null
  },
  "0902": {
    "postcode": "6150902",
    "prefecture": "京都府",
    "prefecture_kana": "キョウトフ",
    "prefecture_code": 26,
    "city": "京都市右京区",
    "city_kana": "キョウトシウキョウク",
    "town": "梅津神田町",
    "town_kana": "ウメヅカンダチョウ",
    "street": null,
    "office_name": null,
    "office_name_kana": null
  },
  "0903": {
    "postcode": "6150903",
    "prefecture": "京都府",
    "prefecture_kana": "キョウトフ",
    "prefecture_code": 26,
    "city": "京都市右京区",
    "city_kana": "キョウトシウキョウク",
    "town": "梅津堤下町",
    "town_kana": "ウメヅツツミシタチョウ",
    "street": null,
    "office_name": null,
    "office_name_kana": null
  },
  "0904": {
    "postcode": "6150904",
    "prefecture": "京都府",
    "prefecture_kana": "キョウトフ",
    "prefecture_code": 26,
    "city": "京都市右京区",
    "city_kana": "キョウトシウキョウク",
    "town": "梅津堤上町",
    "town_kana": "ウメヅツツミカミチョウ",
    "street": null,
    "office_name": null,
    "office_name_kana": null
  },
  "0905": {
    "postcode": "6150905",
    "prefecture": "京都府",
    "prefecture_kana": "キョウトフ",
    "prefecture_code": 26,
    "city": "京都市右京区",
    "city_kana": "キョウトシウキョウク",
    "town": "梅津石灘町",
    "town_kana": "ウメヅイシナダチョウ",
    "street": null,
    "office_name": null,
    "office_name_kana": null
  },
  "0906": {
    "postcode": "6150906",
    "prefecture": "京都府",
    "prefecture_kana": "キョウトフ",
    "prefecture_code": 26,
    "city": "京都市右京区",
    "city_kana": "キョウトシウキョウク",
    "town": "梅津高畝町",
    "town_kana": "ウメヅタカゼチョウ",
    "street": null,
    "office_name": null,
    "office_name_kana": null
  },
  "0907": {
    "postcode": "6150907",
    "prefecture": "京都府",
    "prefecture_kana": "キョウトフ",
    "prefecture_code": 26,
    "city": "京都市右京区",
    "city_kana": "キョウトシウキョウク",
    "town": "梅津段町",
    "town_kana": "ウメヅダンマチ",
    "street": null,
    "office_name": null,
    "office_name_kana": null
  },
  "0911": {
    "postcode": "6150911",
    "prefecture": "京都府",
    "prefecture_kana": "キョウトフ",
    "prefecture_code": 26,
    "city": "京都市右京区",
    "city_kana": "キョウトシウキョウク",
    "town": "梅津北町",
    "town_kana": "ウメヅキタマチ",
    "street": null,
    "office_name": null,
    "office_name_kana": null
  },
  "0912": {
    "postcode": "6150912",
    "prefecture": "京都府",
    "prefecture_kana": "キョウトフ",
    "prefecture_code": 26,
    "city": "京都市右京区",
    "city_kana": "キョウトシウキョウク",
    "town": "梅津構口町",
    "town_kana": "ウメヅカマエグチチョウ",
    "street": null,
    "office_name": null,
    "office_name_kana": null
  },
  "0913": {
    "postcode": "6150913",
    "prefecture": "京都府",
    "prefecture_kana": "キョウトフ",
    "prefecture_code": 26,
    "city": "京都市右京区",
    "city_kana": "キョウトシウキョウク",
    "town": "梅津南上田町",
    "town_kana": "ウメヅミナミウエダチョウ",
    "street": null,
    "office_name": null,
    "office_name_kana": null
  },
  "0914": {
    "postcode": "6150914",
    "prefecture": "京都府",
    "prefecture_kana": "キョウトフ",
    "prefecture_code": 26,
    "city": "京都市右京区",
    "city_kana": "キョウトシウキョウク",
    "town": "梅津東構口町",
    "town_kana": "ウメヅヒガシカマエグチチョウ",
    "street": null,
    "office_name": null,
    "office_name_kana": null
  },
  "0915": {
    "postcode": "6150915",
    "prefecture": "京都府",
    "prefecture_kana": "キョウトフ",
    "prefecture_code": 26,
    "city": "京都市右京区",
    "city_kana": "キョウトシウキョウク",
    "town": "梅津南町",
    "town_kana": "ウメヅミナミマチ",
    "street": null,
    "office_name": null,
    "office_name_kana": null
  },
  "0916": {
    "postcode": "6150916",
    "prefecture": "京都府",
    "prefecture_kana": "キョウトフ",
    "prefecture_code": 26,
    "city": "京都市右京区",
    "city_kana": "キョウトシウキョウク",
    "town": "梅津中村町",
    "town_kana": "ウメヅナカムラチョウ",
    "street": null,
    "office_name": null,
    "office_name_kana": null
  },
  "0917": {
    "postcode": "6150917",
    "prefecture": "京都府",
    "prefecture_kana": "キョウトフ",
    "prefecture_code": 26,
    "city": "京都市右京区",
    "city_kana": "キョウトシウキョウク",
    "town": "梅津西浦町",
    "town_kana": "ウメヅニシウラチョウ",
    "street": null,
    "office_name": null,
    "office_name_kana": null
  },
  "0921": {
    "postcode": "6150921",
    "prefecture": "京都府",
    "prefecture_kana": "キョウトフ",
    "prefecture_code": 26,
    "city": "京都市右京区",
    "city_kana": "キョウトシウキョウク",
    "town": "梅津フケノ川町",
    "town_kana": "ウメヅフケノカワチョウ",
    "street": null,
    "office_name": null,
    "office_name_kana": null
  },
  "0922": {
    "postcode": "6150922",
    "prefecture": "京都府",
    "prefecture_kana": "キョウトフ",
    "prefecture_code": 26,
    "city": "京都市右京区",
    "city_kana": "キョウトシウキョウク",
    "town": "梅津前田町",
    "town_kana": "ウメヅマエダチョウ",
    "street": null,
    "office_name": null,
    "office_name_kana": null
  },
  "0923": {
    "postcode": "6150923",
    "prefecture": "京都府",
    "prefecture_kana": "キョウトフ",
    "prefecture_code": 26,
    "city": "京都市右京区",
    "city_kana": "キョウトシウキョウク",
    "town": "梅津中倉町",
    "town_kana": "ウメヅナカクラチョウ",
    "street": null,
    "office_name": null,
    "office_name_kana": null
  },
  "0924": {
    "postcode": "6150924",
    "prefecture": "京都府",
    "prefecture_kana": "キョウトフ",
    "prefecture_code": 26,
    "city": "京都市右京区",
    "city_kana": "キョウトシウキョウク",
    "town": "梅津尻溝町",
    "town_kana": "ウメヅシリミゾチョウ",
    "street": null,
    "office_name": null,
    "office_name_kana": null
  },
  "0925": {
    "postcode": "6150925",
    "prefecture": "京都府",
    "prefecture_kana": "キョウトフ",
    "prefecture_code": 26,
    "city": "京都市右京区",
    "city_kana": "キョウトシウキョウク",
    "town": "梅津大縄場町",
    "town_kana": "ウメヅオオナワバチョウ",
    "street": null,
    "office_name": null,
    "office_name_kana": null
  },
  "0926": {
    "postcode": "6150926",
    "prefecture": "京都府",
    "prefecture_kana": "キョウトフ",
    "prefecture_code": 26,
    "city": "京都市右京区",
    "city_kana": "キョウトシウキョウク",
    "town": "梅津罧原町",
    "town_kana": "ウメヅフシハラチョウ",
    "street": null,
    "office_name": null,
    "office_name_kana": null
  },
  "0931": {
    "postcode": "6150931",
    "prefecture": "京都府",
    "prefecture_kana": "キョウトフ",
    "prefecture_code": 26,
    "city": "京都市右京区",
    "city_kana": "キョウトシウキョウク",
    "town": "梅津開キ町",
    "town_kana": "ウメヅヒラキチョウ",
    "street": null,
    "office_name": null,
    "office_name_kana": null
  },
  "0932": {
    "postcode": "6150932",
    "prefecture": "京都府",
    "prefecture_kana": "キョウトフ",
    "prefecture_code": 26,
    "city": "京都市右京区",
    "city_kana": "キョウトシウキョウク",
    "town": "梅津上田町",
    "town_kana": "ウメヅウエダチョウ",
    "street": null,
    "office_name": null,
    "office_name_kana": null
  },
  "0933": {
    "postcode": "6150933",
    "prefecture": "京都府",
    "prefecture_kana": "キョウトフ",
    "prefecture_code": 26,
    "city": "京都市右京区",
    "city_kana": "キョウトシウキョウク",
    "town": "梅津後藤町",
    "town_kana": "ウメヅゴトウチョウ",
    "street": null,
    "office_name": null,
    "office_name_kana": null
  },
  "0934": {
    "postcode": "6150934",
    "prefecture": "京都府",
    "prefecture_kana": "キョウトフ",
    "prefecture_code": 26,
    "city": "京都市右京区",
    "city_kana": "キョウトシウキョウク",
    "town": "梅津北浦町",
    "town_kana": "ウメヅキタウラチョウ",
    "street": null,
    "office_name": null,
    "office_name_kana": null
  },
  "0935": {
    "postcode": "6150935",
    "prefecture": "京都府",
    "prefecture_kana": "キョウトフ",
    "prefecture_code": 26,
    "city": "京都市右京区",
    "city_kana": "キョウトシウキョウク",
    "town": "梅津徳丸町",
    "town_kana": "ウメヅトクマルチョウ",
    "street": null,
    "office_name": null,
    "office_name_kana": null
  },
  "0936": {
    "postcode": "6150936",
    "prefecture": "京都府",
    "prefecture_kana": "キョウトフ",
    "prefecture_code": 26,
    "city": "京都市右京区",
    "city_kana": "キョウトシウキョウク",
    "town": "梅津林口町",
    "town_kana": "ウメヅハヤシクチチョウ",
    "street": null,
    "office_name": null,
    "office_name_kana": null
  },
  "0937": {
    "postcode": "6150937",
    "prefecture": "京都府",
    "prefecture_kana": "キョウトフ",
    "prefecture_code": 26,
    "city": "京都市右京区",
    "city_kana": "キョウトシウキョウク",
    "town": "梅津北川町",
    "town_kana": "ウメヅキタガワチョウ",
    "street": null,
    "office_name": null,
    "office_name_kana": null
  },
  "0938": {
    "postcode": "6150938",
    "prefecture": "京都府",
    "prefecture_kana": "キョウトフ",
    "prefecture_code": 26,
    "city": "京都市右京区",
    "city_kana": "キョウトシウキョウク",
    "town": "梅津坂本町",
    "town_kana": "ウメヅサカモトチョウ",
    "street": null,
    "office_name": null,
    "office_name_kana": null
  },
  "8001": {
    "postcode": "6158001",
    "prefecture": "京都府",
    "prefecture_kana": "キョウトフ",
    "prefecture_code": 26,
    "city": "京都市西京区",
    "city_kana": "キョウトシニシキョウク",
    "town": "桂上野北町",
    "town_kana": "カツラカミノキタチョウ",
    "street": null,
    "office_name": null,
    "office_name_kana": null
  },
  "8002": {
    "postcode": "6158002",
    "prefecture": "京都府",
    "prefecture_kana": "キョウトフ",
    "prefecture_code": 26,
    "city": "京都市西京区",
    "city_kana": "キョウトシニシキョウク",
    "town": "桂上野中町",
    "town_kana": "カツラカミノナカチョウ",
    "street": null,
    "office_name": null,
    "office_name_kana": null
  },
  "8003": {
    "postcode": "6158003",
    "prefecture": "京都府",
    "prefecture_kana": "キョウトフ",
    "prefecture_code": 26,
    "city": "京都市西京区",
    "city_kana": "キョウトシニシキョウク",
    "town": "桂上野東町",
    "town_kana": "カツラカミノヒガシチョウ",
    "street": null,
    "office_name": null,
    "office_name_kana": null
  },
  "8004": {
    "postcode": "6158004",
    "prefecture": "京都府",
    "prefecture_kana": "キョウトフ",
    "prefecture_code": 26,
    "city": "京都市西京区",
    "city_kana": "キョウトシニシキョウク",
    "town": "桂畑ケ田町",
    "town_kana": "カツラハタケダチョウ",
    "street": null,
    "office_name": null,
    "office_name_kana": null
  },
  "8005": {
    "postcode": "6158005",
    "prefecture": "京都府",
    "prefecture_kana": "キョウトフ",
    "prefecture_code": 26,
    "city": "京都市西京区",
    "city_kana": "キョウトシニシキョウク",
    "town": "桂上野南町",
    "town_kana": "カツラカミノミナミチョウ",
    "street": null,
    "office_name": null,
    "office_name_kana": null
  },
  "8006": {
    "postcode": "6158006",
    "prefecture": "京都府",
    "prefecture_kana": "キョウトフ",
    "prefecture_code": 26,
    "city": "京都市西京区",
    "city_kana": "キョウトシニシキョウク",
    "town": "桂上野西町",
    "town_kana": "カツラカミノニシチョウ",
    "street": null,
    "office_name": null,
    "office_name_kana": null
  },
  "8007": {
    "postcode": "6158007",
    "prefecture": "京都府",
    "prefecture_kana": "キョウトフ",
    "prefecture_code": 26,
    "city": "京都市西京区",
    "city_kana": "キョウトシニシキョウク",
    "town": "桂上野今井町",
    "town_kana": "カツラカミノイマイチョウ",
    "street": null,
    "office_name": null,
    "office_name_kana": null
  },
  "8008": {
    "postcode": "6158008",
    "prefecture": "京都府",
    "prefecture_kana": "キョウトフ",
    "prefecture_code": 26,
    "city": "京都市西京区",
    "city_kana": "キョウトシニシキョウク",
    "town": "桂上野川原町",
    "town_kana": "カツラカミノカワラチョウ",
    "street": null,
    "office_name": null,
    "office_name_kana": null
  },
  "8011": {
    "postcode": "6158011",
    "prefecture": "京都府",
    "prefecture_kana": "キョウトフ",
    "prefecture_code": 26,
    "city": "京都市西京区",
    "city_kana": "キョウトシニシキョウク",
    "town": "桂大縄町",
    "town_kana": "カツラオオナワチョウ",
    "street": null,
    "office_name": null,
    "office_name_kana": null
  },
  "8012": {
    "postcode": "6158012",
    "prefecture": "京都府",
    "prefecture_kana": "キョウトフ",
    "prefecture_code": 26,
    "city": "京都市西京区",
    "city_kana": "キョウトシニシキョウク",
    "town": "桂後水町",
    "town_kana": "カツラコウズチョウ",
    "street": null,
    "office_name": null,
    "office_name_kana": null
  },
  "8013": {
    "postcode": "6158013",
    "prefecture": "京都府",
    "prefecture_kana": "キョウトフ",
    "prefecture_code": 26,
    "city": "京都市西京区",
    "city_kana": "キョウトシニシキョウク",
    "town": "桂清水町",
    "town_kana": "カツラシミズチョウ",
    "street": null,
    "office_name": null,
    "office_name_kana": null
  },
  "8014": {
    "postcode": "6158014",
    "prefecture": "京都府",
    "prefecture_kana": "キョウトフ",
    "prefecture_code": 26,
    "city": "京都市西京区",
    "city_kana": "キョウトシニシキョウク",
    "town": "桂御園",
    "town_kana": "カツラミソノ",
    "street": null,
    "office_name": null,
    "office_name_kana": null
  },
  "8015": {
    "postcode": "6158015",
    "prefecture": "京都府",
    "prefecture_kana": "キョウトフ",
    "prefecture_code": 26,
    "city": "京都市西京区",
    "city_kana": "キョウトシニシキョウク",
    "town": "徳大寺清水町",
    "town_kana": "トクダイジシミズチョウ",
    "street": null,
    "office_name": null,
    "office_name_kana": null
  },
  "8016": {
    "postcode": "6158016",
    "prefecture": "京都府",
    "prefecture_kana": "キョウトフ",
    "prefecture_code": 26,
    "city": "京都市西京区",
    "city_kana": "キョウトシニシキョウク",
    "town": "桂久方町",
    "town_kana": "カツラヒサカタチョウ",
    "street": null,
    "office_name": null,
    "office_name_kana": null
  },
  "8017": {
    "postcode": "6158017",
    "prefecture": "京都府",
    "prefecture_kana": "キョウトフ",
    "prefecture_code": 26,
    "city": "京都市西京区",
    "city_kana": "キョウトシニシキョウク",
    "town": "桂河田町",
    "town_kana": "カツラカワダチョウ",
    "street": null,
    "office_name": null,
    "office_name_kana": null
  },
  "8018": {
    "postcode": "6158018",
    "prefecture": "京都府",
    "prefecture_kana": "キョウトフ",
    "prefecture_code": 26,
    "city": "京都市西京区",
    "city_kana": "キョウトシニシキョウク",
    "town": "桂徳大寺町",
    "town_kana": "カツラトクダイジチョウ",
    "street": null,
    "office_name": null,
    "office_name_kana": null
  },
  "8021": {
    "postcode": "6158021",
    "prefecture": "京都府",
    "prefecture_kana": "キョウトフ",
    "prefecture_code": 26,
    "city": "京都市西京区",
    "city_kana": "キョウトシニシキョウク",
    "town": "桂浅原町",
    "town_kana": "カツラアサハラチョウ",
    "street": null,
    "office_name": null,
    "office_name_kana": null
  },
  "8022": {
    "postcode": "6158022",
    "prefecture": "京都府",
    "prefecture_kana": "キョウトフ",
    "prefecture_code": 26,
    "city": "京都市西京区",
    "city_kana": "キョウトシニシキョウク",
    "town": "桂北滝川町",
    "town_kana": "カツラキタタキガワチョウ",
    "street": null,
    "office_name": null,
    "office_name_kana": null
  },
  "8023": {
    "postcode": "6158023",
    "prefecture": "京都府",
    "prefecture_kana": "キョウトフ",
    "prefecture_code": 26,
    "city": "京都市西京区",
    "city_kana": "キョウトシニシキョウク",
    "town": "桂南滝川町",
    "town_kana": "カツラミナミタキガワチョウ",
    "street": null,
    "office_name": null,
    "office_name_kana": null
  },
  "8024": {
    "postcode": "6158024",
    "prefecture": "京都府",
    "prefecture_kana": "キョウトフ",
    "prefecture_code": 26,
    "city": "京都市西京区",
    "city_kana": "キョウトシニシキョウク",
    "town": "桂西滝川町",
    "town_kana": "カツラニシタキガワチョウ",
    "street": null,
    "office_name": null,
    "office_name_kana": null
  },
  "8025": {
    "postcode": "6158025",
    "prefecture": "京都府",
    "prefecture_kana": "キョウトフ",
    "prefecture_code": 26,
    "city": "京都市西京区",
    "city_kana": "キョウトシニシキョウク",
    "town": "桂稲荷山町",
    "town_kana": "カツライナリヤマチョウ",
    "street": null,
    "office_name": null,
    "office_name_kana": null
  },
  "8026": {
    "postcode": "6158026",
    "prefecture": "京都府",
    "prefecture_kana": "キョウトフ",
    "prefecture_code": 26,
    "city": "京都市西京区",
    "city_kana": "キョウトシニシキョウク",
    "town": "桂市ノ前町",
    "town_kana": "カツライチノマエチョウ",
    "street": null,
    "office_name": null,
    "office_name_kana": null
  },
  "8027": {
    "postcode": "6158027",
    "prefecture": "京都府",
    "prefecture_kana": "キョウトフ",
    "prefecture_code": 26,
    "city": "京都市西京区",
    "city_kana": "キョウトシニシキョウク",
    "town": "桂朝日町",
    "town_kana": "カツラアサヒチョウ",
    "street": null,
    "office_name": null,
    "office_name_kana": null
  },
  "8031": {
    "postcode": "6158031",
    "prefecture": "京都府",
    "prefecture_kana": "キョウトフ",
    "prefecture_code": 26,
    "city": "京都市西京区",
    "city_kana": "キョウトシニシキョウク",
    "town": "牛ケ瀬林ノ本町",
    "town_kana": "ウシガセハヤシノモトチョウ",
    "street": null,
    "office_name": null,
    "office_name_kana": null
  },
  "8032": {
    "postcode": "6158032",
    "prefecture": "京都府",
    "prefecture_kana": "キョウトフ",
    "prefecture_code": 26,
    "city": "京都市西京区",
    "city_kana": "キョウトシニシキョウク",
    "town": "牛ケ瀬奥ノ防町",
    "town_kana": "ウシガセオクノボウチョウ",
    "street": null,
    "office_name": null,
    "office_name_kana": null
  },
  "8033": {
    "postcode": "6158033",
    "prefecture": "京都府",
    "prefecture_kana": "キョウトフ",
    "prefecture_code": 26,
    "city": "京都市西京区",
    "city_kana": "キョウトシニシキョウク",
    "town": "下津林東大般若町",
    "town_kana": "シモツバヤシヒガシダイハンニャチョウ",
    "street": null,
    "office_name": null,
    "office_name_kana": null
  },
  "8034": {
    "postcode": "6158034",
    "prefecture": "京都府",
    "prefecture_kana": "キョウトフ",
    "prefecture_code": 26,
    "city": "京都市西京区",
    "city_kana": "キョウトシニシキョウク",
    "town": "下津林東芝ノ宮町",
    "town_kana": "シモツバヤシヒガシシバノミヤチョウ",
    "street": null,
    "office_name": null,
    "office_name_kana": null
  },
  "8035": {
    "postcode": "6158035",
    "prefecture": "京都府",
    "prefecture_kana": "キョウトフ",
    "prefecture_code": 26,
    "city": "京都市西京区",
    "city_kana": "キョウトシニシキョウク",
    "town": "下津林芝ノ宮町",
    "town_kana": "シモツバヤシシバノミヤチョウ",
    "street": null,
    "office_name": null,
    "office_name_kana": null
  },
  "8036": {
    "postcode": "6158036",
    "prefecture": "京都府",
    "prefecture_kana": "キョウトフ",
    "prefecture_code": 26,
    "city": "京都市西京区",
    "city_kana": "キョウトシニシキョウク",
    "town": "下津林南大般若町",
    "town_kana": "シモツバヤシミナミダイハンニャチョウ",
    "street": null,
    "office_name": null,
    "office_name_kana": null
  },
  "8037": {
    "postcode": "6158037",
    "prefecture": "京都府",
    "prefecture_kana": "キョウトフ",
    "prefecture_code": 26,
    "city": "京都市西京区",
    "city_kana": "キョウトシニシキョウク",
    "town": "下津林大般若町",
    "town_kana": "シモツバヤシダイハンニャチョウ",
    "street": null,
    "office_name": null,
    "office_name_kana": null
  },
  "8041": {
    "postcode": "6158041",
    "prefecture": "京都府",
    "prefecture_kana": "キョウトフ",
    "prefecture_code": 26,
    "city": "京都市西京区",
    "city_kana": "キョウトシニシキョウク",
    "town": "牛ケ瀬青柳町",
    "town_kana": "ウシガセアオヤギチョウ",
    "street": null,
    "office_name": null,
    "office_name_kana": null
  },
  "8042": {
    "postcode": "6158042",
    "prefecture": "京都府",
    "prefecture_kana": "キョウトフ",
    "prefecture_code": 26,
    "city": "京都市西京区",
    "city_kana": "キョウトシニシキョウク",
    "town": "牛ケ瀬川原口町",
    "town_kana": "ウシガセカハラグチチョウ",
    "street": null,
    "office_name": null,
    "office_name_kana": null
  },
  "8043": {
    "postcode": "6158043",
    "prefecture": "京都府",
    "prefecture_kana": "キョウトフ",
    "prefecture_code": 26,
    "city": "京都市西京区",
    "city_kana": "キョウトシニシキョウク",
    "town": "牛ケ瀬新田泓町",
    "town_kana": "ウシガセシンデンブケチョウ",
    "street": null,
    "office_name": null,
    "office_name_kana": null
  },
  "8044": {
    "postcode": "6158044",
    "prefecture": "京都府",
    "prefecture_kana": "キョウトフ",
    "prefecture_code": 26,
    "city": "京都市西京区",
    "city_kana": "キョウトシニシキョウク",
    "town": "牛ケ瀬山柿町",
    "town_kana": "ウシガセヤマガキチョウ",
    "street": null,
    "office_name": null,
    "office_name_kana": null
  },
  "8045": {
    "postcode": "6158045",
    "prefecture": "京都府",
    "prefecture_kana": "キョウトフ",
    "prefecture_code": 26,
    "city": "京都市西京区",
    "city_kana": "キョウトシニシキョウク",
    "town": "牛ケ瀬南ノ口町",
    "town_kana": "ウシガセミナミノクチチョウ",
    "street": null,
    "office_name": null,
    "office_name_kana": null
  },
  "8046": {
    "postcode": "6158046",
    "prefecture": "京都府",
    "prefecture_kana": "キョウトフ",
    "prefecture_code": 26,
    "city": "京都市西京区",
    "city_kana": "キョウトシニシキョウク",
    "town": "牛ケ瀬弥生町",
    "town_kana": "ウシガセヤヨイチョウ",
    "street": null,
    "office_name": null,
    "office_name_kana": null
  },
  "8051": {
    "postcode": "6158051",
    "prefecture": "京都府",
    "prefecture_kana": "キョウトフ",
    "prefecture_code": 26,
    "city": "京都市西京区",
    "city_kana": "キョウトシニシキョウク",
    "town": "牛ケ瀬西柿町",
    "town_kana": "ウシガセニシガキチョウ",
    "street": null,
    "office_name": null,
    "office_name_kana": null
  },
  "8052": {
    "postcode": "6158052",
    "prefecture": "京都府",
    "prefecture_kana": "キョウトフ",
    "prefecture_code": 26,
    "city": "京都市西京区",
    "city_kana": "キョウトシニシキョウク",
    "town": "牛ケ瀬堂田町",
    "town_kana": "ウシガセドウデンチョウ",
    "street": null,
    "office_name": null,
    "office_name_kana": null
  },
  "8053": {
    "postcode": "6158053",
    "prefecture": "京都府",
    "prefecture_kana": "キョウトフ",
    "prefecture_code": 26,
    "city": "京都市西京区",
    "city_kana": "キョウトシニシキョウク",
    "town": "下津林中島町",
    "town_kana": "シモツバヤシナカジマチョウ",
    "street": null,
    "office_name": null,
    "office_name_kana": null
  },
  "8054": {
    "postcode": "6158054",
    "prefecture": "京都府",
    "prefecture_kana": "キョウトフ",
    "prefecture_code": 26,
    "city": "京都市西京区",
    "city_kana": "キョウトシニシキョウク",
    "town": "下津林南中島町",
    "town_kana": "シモツバヤシミナミナカジマチョウ",
    "street": null,
    "office_name": null,
    "office_name_kana": null
  },
  "8055": {
    "postcode": "6158055",
    "prefecture": "京都府",
    "prefecture_kana": "キョウトフ",
    "prefecture_code": 26,
    "city": "京都市西京区",
    "city_kana": "キョウトシニシキョウク",
    "town": "下津林佃",
    "town_kana": "シモツバヤシツクダ",
    "street": null,
    "office_name": null,
    "office_name_kana": null
  },
  "8056": {
    "postcode": "6158056",
    "prefecture": "京都府",
    "prefecture_kana": "キョウトフ",
    "prefecture_code": 26,
    "city": "京都市西京区",
    "city_kana": "キョウトシニシキョウク",
    "town": "下津林番条",
    "town_kana": "シモツバヤシバンジョウ",
    "street": null,
    "office_name": null,
    "office_name_kana": null
  },
  "8057": {
    "postcode": "6158057",
    "prefecture": "京都府",
    "prefecture_kana": "キョウトフ",
    "prefecture_code": 26,
    "city": "京都市西京区",
    "city_kana": "キョウトシニシキョウク",
    "town": "下津林番条町",
    "town_kana": "シモツバヤシバンジョウチョウ",
    "street": null,
    "office_name": null,
    "office_name_kana": null
  },
  "8061": {
    "postcode": "6158061",
    "prefecture": "京都府",
    "prefecture_kana": "キョウトフ",
    "prefecture_code": 26,
    "city": "京都市西京区",
    "city_kana": "キョウトシニシキョウク",
    "town": "下津林北浦町",
    "town_kana": "シモツバヤシキタウラチョウ",
    "street": null,
    "office_name": null,
    "office_name_kana": null
  },
  "8062": {
    "postcode": "6158062",
    "prefecture": "京都府",
    "prefecture_kana": "キョウトフ",
    "prefecture_code": 26,
    "city": "京都市西京区",
    "city_kana": "キョウトシニシキョウク",
    "town": "下津林前泓町",
    "town_kana": "シモツバヤシマエブケチョウ",
    "street": null,
    "office_name": null,
    "office_name_kana": null
  },
  "8063": {
    "postcode": "6158063",
    "prefecture": "京都府",
    "prefecture_kana": "キョウトフ",
    "prefecture_code": 26,
    "city": "京都市西京区",
    "city_kana": "キョウトシニシキョウク",
    "town": "下津林六反田",
    "town_kana": "シモツバヤシロクタンダ",
    "street": null,
    "office_name": null,
    "office_name_kana": null
  },
  "8064": {
    "postcode": "6158064",
    "prefecture": "京都府",
    "prefecture_kana": "キョウトフ",
    "prefecture_code": 26,
    "city": "京都市西京区",
    "city_kana": "キョウトシニシキョウク",
    "town": "下津林水掛町",
    "town_kana": "シモツバヤシミズカケチョウ",
    "street": null,
    "office_name": null,
    "office_name_kana": null
  },
  "8065": {
    "postcode": "6158065",
    "prefecture": "京都府",
    "prefecture_kana": "キョウトフ",
    "prefecture_code": 26,
    "city": "京都市西京区",
    "city_kana": "キョウトシニシキョウク",
    "town": "下津林楠町",
    "town_kana": "シモツバヤシクスノキチョウ",
    "street": null,
    "office_name": null,
    "office_name_kana": null
  },
  "8071": {
    "postcode": "6158071",
    "prefecture": "京都府",
    "prefecture_kana": "キョウトフ",
    "prefecture_code": 26,
    "city": "京都市西京区",
    "city_kana": "キョウトシニシキョウク",
    "town": "桂春日町",
    "town_kana": "カツラカスガチョウ",
    "street": null,
    "office_name": null,
    "office_name_kana": null
  },
  "8072": {
    "postcode": "6158072",
    "prefecture": "京都府",
    "prefecture_kana": "キョウトフ",
    "prefecture_code": 26,
    "city": "京都市西京区",
    "city_kana": "キョウトシニシキョウク",
    "town": "桂木ノ下町",
    "town_kana": "カツラキノシタチョウ",
    "street": null,
    "office_name": null,
    "office_name_kana": null
  },
  "8073": {
    "postcode": "6158073",
    "prefecture": "京都府",
    "prefecture_kana": "キョウトフ",
    "prefecture_code": 26,
    "city": "京都市西京区",
    "city_kana": "キョウトシニシキョウク",
    "town": "桂野里町",
    "town_kana": "カツラノザトチョウ",
    "street": null,
    "office_name": null,
    "office_name_kana": null
  },
  "8074": {
    "postcode": "6158074",
    "prefecture": "京都府",
    "prefecture_kana": "キョウトフ",
    "prefecture_code": 26,
    "city": "京都市西京区",
    "city_kana": "キョウトシニシキョウク",
    "town": "桂南巽町",
    "town_kana": "カツラミナミタツミチョウ",
    "street": null,
    "office_name": null,
    "office_name_kana": null
  },
  "8075": {
    "postcode": "6158075",
    "prefecture": "京都府",
    "prefecture_kana": "キョウトフ",
    "prefecture_code": 26,
    "city": "京都市西京区",
    "city_kana": "キョウトシニシキョウク",
    "town": "桂巽町",
    "town_kana": "カツラタツミチョウ",
    "street": null,
    "office_name": null,
    "office_name_kana": null
  },
  "8076": {
    "postcode": "6158076",
    "prefecture": "京都府",
    "prefecture_kana": "キョウトフ",
    "prefecture_code": 26,
    "city": "京都市西京区",
    "city_kana": "キョウトシニシキョウク",
    "town": "桂下豆田町",
    "town_kana": "カツラシモマメダチョウ",
    "street": null,
    "office_name": null,
    "office_name_kana": null
  },
  "8077": {
    "postcode": "6158077",
    "prefecture": "京都府",
    "prefecture_kana": "キョウトフ",
    "prefecture_code": 26,
    "city": "京都市西京区",
    "city_kana": "キョウトシニシキョウク",
    "town": "桂芝ノ下町",
    "town_kana": "カツラシバノシタチョウ",
    "street": null,
    "office_name": null,
    "office_name_kana": null
  },
  "8081": {
    "postcode": "6158081",
    "prefecture": "京都府",
    "prefecture_kana": "キョウトフ",
    "prefecture_code": 26,
    "city": "京都市西京区",
    "city_kana": "キョウトシニシキョウク",
    "town": "桂池尻町",
    "town_kana": "カツライケジリチョウ",
    "street": null,
    "office_name": null,
    "office_name_kana": null
  },
  "8082": {
    "postcode": "6158082",
    "prefecture": "京都府",
    "prefecture_kana": "キョウトフ",
    "prefecture_code": 26,
    "city": "京都市西京区",
    "city_kana": "キョウトシニシキョウク",
    "town": "桂上豆田町",
    "town_kana": "カツラカミマメダチョウ",
    "street": null,
    "office_name": null,
    "office_name_kana": null
  },
  "8083": {
    "postcode": "6158083",
    "prefecture": "京都府",
    "prefecture_kana": "キョウトフ",
    "prefecture_code": 26,
    "city": "京都市西京区",
    "city_kana": "キョウトシニシキョウク",
    "town": "桂艮町",
    "town_kana": "カツラウシトラチョウ",
    "street": null,
    "office_name": null,
    "office_name_kana": null
  },
  "8084": {
    "postcode": "6158084",
    "prefecture": "京都府",
    "prefecture_kana": "キョウトフ",
    "prefecture_code": 26,
    "city": "京都市西京区",
    "city_kana": "キョウトシニシキョウク",
    "town": "桂坤町",
    "town_kana": "カツラヒツジサルチョウ",
    "street": null,
    "office_name": null,
    "office_name_kana": null
  },
  "8085": {
    "postcode": "6158085",
    "prefecture": "京都府",
    "prefecture_kana": "キョウトフ",
    "prefecture_code": 26,
    "city": "京都市西京区",
    "city_kana": "キョウトシニシキョウク",
    "town": "桂千代原町",
    "town_kana": "カツラチヨハラチョウ",
    "street": null,
    "office_name": null,
    "office_name_kana": null
  },
  "8086": {
    "postcode": "6158086",
    "prefecture": "京都府",
    "prefecture_kana": "キョウトフ",
    "prefecture_code": 26,
    "city": "京都市西京区",
    "city_kana": "キョウトシニシキョウク",
    "town": "桂乾町",
    "town_kana": "カツライヌイチョウ",
    "street": null,
    "office_name": null,
    "office_name_kana": null
  },
  "8087": {
    "postcode": "6158087",
    "prefecture": "京都府",
    "prefecture_kana": "キョウトフ",
    "prefecture_code": 26,
    "city": "京都市西京区",
    "city_kana": "キョウトシニシキョウク",
    "town": "桂御所町",
    "town_kana": "カツラゴショチョウ",
    "street": null,
    "office_name": null,
    "office_name_kana": null
  },
  "8101": {
    "postcode": "6158101",
    "prefecture": "京都府",
    "prefecture_kana": "キョウトフ",
    "prefecture_code": 26,
    "city": "京都市西京区",
    "city_kana": "キョウトシニシキョウク",
    "town": "川島東代町",
    "town_kana": "カワシマヒガシダイチョウ",
    "street": null,
    "office_name": null,
    "office_name_kana": null
  },
  "8102": {
    "postcode": "6158102",
    "prefecture": "京都府",
    "prefecture_kana": "キョウトフ",
    "prefecture_code": 26,
    "city": "京都市西京区",
    "city_kana": "キョウトシニシキョウク",
    "town": "川島松ノ木本町",
    "town_kana": "カワシママツノキモトチョウ",
    "street": null,
    "office_name": null,
    "office_name_kana": null
  },
  "8103": {
    "postcode": "6158103",
    "prefecture": "京都府",
    "prefecture_kana": "キョウトフ",
    "prefecture_code": 26,
    "city": "京都市西京区",
    "city_kana": "キョウトシニシキョウク",
    "town": "川島六ノ坪町",
    "town_kana": "カワシマロクノツボチョウ",
    "street": null,
    "office_name": null,
    "office_name_kana": null
  },
  "8104": {
    "postcode": "6158104",
    "prefecture": "京都府",
    "prefecture_kana": "キョウトフ",
    "prefecture_code": 26,
    "city": "京都市西京区",
    "city_kana": "キョウトシニシキョウク",
    "town": "川島五反長町",
    "town_kana": "カワシマゴタンオサチョウ",
    "street": null,
    "office_name": null,
    "office_name_kana": null
  },
  "8105": {
    "postcode": "6158105",
    "prefecture": "京都府",
    "prefecture_kana": "キョウトフ",
    "prefecture_code": 26,
    "city": "京都市西京区",
    "city_kana": "キョウトシニシキョウク",
    "town": "川島莚田町",
    "town_kana": "カワシマムシロデンチョウ",
    "street": null,
    "office_name": null,
    "office_name_kana": null
  },
  "8106": {
    "postcode": "6158106",
    "prefecture": "京都府",
    "prefecture_kana": "キョウトフ",
    "prefecture_code": 26,
    "city": "京都市西京区",
    "city_kana": "キョウトシニシキョウク",
    "town": "川島滑樋町",
    "town_kana": "カワシマナメラヒチョウ",
    "street": null,
    "office_name": null,
    "office_name_kana": null
  },
  "8107": {
    "postcode": "6158107",
    "prefecture": "京都府",
    "prefecture_kana": "キョウトフ",
    "prefecture_code": 26,
    "city": "京都市西京区",
    "city_kana": "キョウトシニシキョウク",
    "town": "川島北裏町",
    "town_kana": "カワシマキタウラチョウ",
    "street": null,
    "office_name": null,
    "office_name_kana": null
  },
  "8111": {
    "postcode": "6158111",
    "prefecture": "京都府",
    "prefecture_kana": "キョウトフ",
    "prefecture_code": 26,
    "city": "京都市西京区",
    "city_kana": "キョウトシニシキョウク",
    "town": "川島松園町",
    "town_kana": "カワシママツゾノチョウ",
    "street": null,
    "office_name": null,
    "office_name_kana": null
  },
  "8112": {
    "postcode": "6158112",
    "prefecture": "京都府",
    "prefecture_kana": "キョウトフ",
    "prefecture_code": 26,
    "city": "京都市西京区",
    "city_kana": "キョウトシニシキョウク",
    "town": "川島竹園町",
    "town_kana": "カワシマタケゾノチョウ",
    "street": null,
    "office_name": null,
    "office_name_kana": null
  },
  "8113": {
    "postcode": "6158113",
    "prefecture": "京都府",
    "prefecture_kana": "キョウトフ",
    "prefecture_code": 26,
    "city": "京都市西京区",
    "city_kana": "キョウトシニシキョウク",
    "town": "川島梅園町",
    "town_kana": "カワシマウメゾノチョウ",
    "street": null,
    "office_name": null,
    "office_name_kana": null
  },
  "8114": {
    "postcode": "6158114",
    "prefecture": "京都府",
    "prefecture_kana": "キョウトフ",
    "prefecture_code": 26,
    "city": "京都市西京区",
    "city_kana": "キョウトシニシキョウク",
    "town": "川島桜園町",
    "town_kana": "カワシマサクラゾノチョウ",
    "street": null,
    "office_name": null,
    "office_name_kana": null
  },
  "8115": {
    "postcode": "6158115",
    "prefecture": "京都府",
    "prefecture_kana": "キョウトフ",
    "prefecture_code": 26,
    "city": "京都市西京区",
    "city_kana": "キョウトシニシキョウク",
    "town": "川島流田町",
    "town_kana": "カワシマナガレダチョウ",
    "street": null,
    "office_name": null,
    "office_name_kana": null
  },
  "8116": {
    "postcode": "6158116",
    "prefecture": "京都府",
    "prefecture_kana": "キョウトフ",
    "prefecture_code": 26,
    "city": "京都市西京区",
    "city_kana": "キョウトシニシキョウク",
    "town": "樫原甲水",
    "town_kana": "カタギハラコウスイ",
    "street": null,
    "office_name": null,
    "office_name_kana": null
  },
  "8117": {
    "postcode": "6158117",
    "prefecture": "京都府",
    "prefecture_kana": "キョウトフ",
    "prefecture_code": 26,
    "city": "京都市西京区",
    "city_kana": "キョウトシニシキョウク",
    "town": "樫原六反田",
    "town_kana": "カタギハラロクタンダ",
    "street": null,
    "office_name": null,
    "office_name_kana": null
  },
  "8118": {
    "postcode": "6158118",
    "prefecture": "京都府",
    "prefecture_kana": "キョウトフ",
    "prefecture_code": 26,
    "city": "京都市西京区",
    "city_kana": "キョウトシニシキョウク",
    "town": "川島三重町",
    "town_kana": "カワシマサンジュウチョウ",
    "street": null,
    "office_name": null,
    "office_name_kana": null
  },
  "8121": {
    "postcode": "6158121",
    "prefecture": "京都府",
    "prefecture_kana": "キョウトフ",
    "prefecture_code": 26,
    "city": "京都市西京区",
    "city_kana": "キョウトシニシキョウク",
    "town": "川島野田町",
    "town_kana": "カワシマノダチョウ",
    "street": null,
    "office_name": null,
    "office_name_kana": null
  },
  "8122": {
    "postcode": "6158122",
    "prefecture": "京都府",
    "prefecture_kana": "キョウトフ",
    "prefecture_code": 26,
    "city": "京都市西京区",
    "city_kana": "キョウトシニシキョウク",
    "town": "樫原八反田",
    "town_kana": "カタギハラハッタンダ",
    "street": null,
    "office_name": null,
    "office_name_kana": null
  },
  "8123": {
    "postcode": "6158123",
    "prefecture": "京都府",
    "prefecture_kana": "キョウトフ",
    "prefecture_code": 26,
    "city": "京都市西京区",
    "city_kana": "キョウトシニシキョウク",
    "town": "樫原山路",
    "town_kana": "カタギハラヤマジ",
    "street": null,
    "office_name": null,
    "office_name_kana": null
  },
  "8124": {
    "postcode": "6158124",
    "prefecture": "京都府",
    "prefecture_kana": "キョウトフ",
    "prefecture_code": 26,
    "city": "京都市西京区",
    "city_kana": "キョウトシニシキョウク",
    "town": "樫原三宅町",
    "town_kana": "カタギハラミヤケチョウ",
    "street": null,
    "office_name": null,
    "office_name_kana": null
  },
  "8125": {
    "postcode": "6158125",
    "prefecture": "京都府",
    "prefecture_kana": "キョウトフ",
    "prefecture_code": 26,
    "city": "京都市西京区",
    "city_kana": "キョウトシニシキョウク",
    "town": "川島調子町",
    "town_kana": "カワシマチョウシチョウ",
    "street": null,
    "office_name": null,
    "office_name_kana": null
  },
  "8131": {
    "postcode": "6158131",
    "prefecture": "京都府",
    "prefecture_kana": "キョウトフ",
    "prefecture_code": 26,
    "city": "京都市西京区",
    "city_kana": "キョウトシニシキョウク",
    "town": "樫原五反田",
    "town_kana": "カタギハラゴタンダ",
    "street": null,
    "office_name": null,
    "office_name_kana": null
  },
  "8132": {
    "postcode": "6158132",
    "prefecture": "京都府",
    "prefecture_kana": "キョウトフ",
    "prefecture_code": 26,
    "city": "京都市西京区",
    "city_kana": "キョウトシニシキョウク",
    "town": "樫原庭井",
    "town_kana": "カタギハラニワイ",
    "street": null,
    "office_name": null,
    "office_name_kana": null
  },
  "8133": {
    "postcode": "6158133",
    "prefecture": "京都府",
    "prefecture_kana": "キョウトフ",
    "prefecture_code": 26,
    "city": "京都市西京区",
    "city_kana": "キョウトシニシキョウク",
    "town": "樫原井戸",
    "town_kana": "カタギハライド",
    "street": null,
    "office_name": null,
    "office_name_kana": null
  },
  "8134": {
    "postcode": "6158134",
    "prefecture": "京都府",
    "prefecture_kana": "キョウトフ",
    "prefecture_code": 26,
    "city": "京都市西京区",
    "city_kana": "キョウトシニシキョウク",
    "town": "樫原比恵田町",
    "town_kana": "カタギハラヒエダチョウ",
    "street": null,
    "office_name": null,
    "office_name_kana": null
  },
  "8135": {
    "postcode": "6158135",
    "prefecture": "京都府",
    "prefecture_kana": "キョウトフ",
    "prefecture_code": 26,
    "city": "京都市西京区",
    "city_kana": "キョウトシニシキョウク",
    "town": "樫原江ノ本町",
    "town_kana": "カタギハラエノモトチョウ",
    "street": null,
    "office_name": null,
    "office_name_kana": null
  },
  "8136": {
    "postcode": "6158136",
    "prefecture": "京都府",
    "prefecture_kana": "キョウトフ",
    "prefecture_code": 26,
    "city": "京都市西京区",
    "city_kana": "キョウトシニシキョウク",
    "town": "樫原口戸",
    "town_kana": "カタギハラクチド",
    "street": null,
    "office_name": null,
    "office_name_kana": null
  },
  "8141": {
    "postcode": "6158141",
    "prefecture": "京都府",
    "prefecture_kana": "キョウトフ",
    "prefecture_code": 26,
    "city": "京都市西京区",
    "city_kana": "キョウトシニシキョウク",
    "town": "樫原平田町",
    "town_kana": "カタギハラヒラタチョウ",
    "street": null,
    "office_name": null,
    "office_name_kana": null
  },
  "8142": {
    "postcode": "6158142",
    "prefecture": "京都府",
    "prefecture_kana": "キョウトフ",
    "prefecture_code": 26,
    "city": "京都市西京区",
    "city_kana": "キョウトシニシキョウク",
    "town": "樫原畔ノ海道",
    "town_kana": "カタギハラアゼノカイドウ",
    "street": null,
    "office_name": null,
    "office_name_kana": null
  },
  "8143": {
    "postcode": "6158143",
    "prefecture": "京都府",
    "prefecture_kana": "キョウトフ",
    "prefecture_code": 26,
    "city": "京都市西京区",
    "city_kana": "キョウトシニシキョウク",
    "town": "樫原里ノ垣外町",
    "town_kana": "カタギハラサトノカイトチョウ",
    "street": null,
    "office_name": null,
    "office_name_kana": null
  },
  "8144": {
    "postcode": "6158144",
    "prefecture": "京都府",
    "prefecture_kana": "キョウトフ",
    "prefecture_code": 26,
    "city": "京都市西京区",
    "city_kana": "キョウトシニシキョウク",
    "town": "樫原釘貫",
    "town_kana": "カタギハラクギヌキ",
    "street": null,
    "office_name": null,
    "office_name_kana": null
  },
  "8145": {
    "postcode": "6158145",
    "prefecture": "京都府",
    "prefecture_kana": "キョウトフ",
    "prefecture_code": 26,
    "city": "京都市西京区",
    "city_kana": "キョウトシニシキョウク",
    "town": "樫原角田町",
    "town_kana": "カタギハラスミタチョウ",
    "street": null,
    "office_name": null,
    "office_name_kana": null
  },
  "8146": {
    "postcode": "6158146",
    "prefecture": "京都府",
    "prefecture_kana": "キョウトフ",
    "prefecture_code": 26,
    "city": "京都市西京区",
    "city_kana": "キョウトシニシキョウク",
    "town": "樫原田中町",
    "town_kana": "カタギハラタナカチョウ",
    "street": null,
    "office_name": null,
    "office_name_kana": null
  },
  "8147": {
    "postcode": "6158147",
    "prefecture": "京都府",
    "prefecture_kana": "キョウトフ",
    "prefecture_code": 26,
    "city": "京都市西京区",
    "city_kana": "キョウトシニシキョウク",
    "town": "樫原塚ノ本町",
    "town_kana": "カタギハラツカノモトチョウ",
    "street": null,
    "office_name": null,
    "office_name_kana": null
  },
  "8151": {
    "postcode": "6158151",
    "prefecture": "京都府",
    "prefecture_kana": "キョウトフ",
    "prefecture_code": 26,
    "city": "京都市西京区",
    "city_kana": "キョウトシニシキョウク",
    "town": "樫原杉原町",
    "town_kana": "カタギハラスギハラチョウ",
    "street": null,
    "office_name": null,
    "office_name_kana": null
  },
  "8152": {
    "postcode": "6158152",
    "prefecture": "京都府",
    "prefecture_kana": "キョウトフ",
    "prefecture_code": 26,
    "city": "京都市西京区",
    "city_kana": "キョウトシニシキョウク",
    "town": "樫原内垣外町",
    "town_kana": "カタギハラウチカイトチョウ",
    "street": null,
    "office_name": null,
    "office_name_kana": null
  },
  "8153": {
    "postcode": "6158153",
    "prefecture": "京都府",
    "prefecture_kana": "キョウトフ",
    "prefecture_code": 26,
    "city": "京都市西京区",
    "city_kana": "キョウトシニシキョウク",
    "town": "樫原前田町",
    "town_kana": "カタギハラマエダチョウ",
    "street": null,
    "office_name": null,
    "office_name_kana": null
  },
  "8154": {
    "postcode": "6158154",
    "prefecture": "京都府",
    "prefecture_kana": "キョウトフ",
    "prefecture_code": 26,
    "city": "京都市西京区",
    "city_kana": "キョウトシニシキョウク",
    "town": "樫原岡南ノ庄",
    "town_kana": "カタギハラオカミナミノショウ",
    "street": null,
    "office_name": null,
    "office_name_kana": null
  },
  "8155": {
    "postcode": "6158155",
    "prefecture": "京都府",
    "prefecture_kana": "キョウトフ",
    "prefecture_code": 26,
    "city": "京都市西京区",
    "city_kana": "キョウトシニシキョウク",
    "town": "樫原大亀谷",
    "town_kana": "カタギハラオオカメダニ",
    "street": null,
    "office_name": null,
    "office_name_kana": null
  },
  "8156": {
    "postcode": "6158156",
    "prefecture": "京都府",
    "prefecture_kana": "キョウトフ",
    "prefecture_code": 26,
    "city": "京都市西京区",
    "city_kana": "キョウトシニシキョウク",
    "town": "樫原百々ケ池",
    "town_kana": "カタギハラドドガイケ",
    "street": null,
    "office_name": null,
    "office_name_kana": null
  },
  "8157": {
    "postcode": "6158157",
    "prefecture": "京都府",
    "prefecture_kana": "キョウトフ",
    "prefecture_code": 26,
    "city": "京都市西京区",
    "city_kana": "キョウトシニシキョウク",
    "town": "樫原芋峠",
    "town_kana": "カタギハライモトウゲ",
    "street": null,
    "office_name": null,
    "office_name_kana": null
  },
  "8158": {
    "postcode": "6158158",
    "prefecture": "京都府",
    "prefecture_kana": "キョウトフ",
    "prefecture_code": 26,
    "city": "京都市西京区",
    "city_kana": "キョウトシニシキョウク",
    "town": "樫原秤谷町",
    "town_kana": "カタギハラハカリダニチョウ",
    "street": null,
    "office_name": null,
    "office_name_kana": null
  },
  "8161": {
    "postcode": "6158161",
    "prefecture": "京都府",
    "prefecture_kana": "キョウトフ",
    "prefecture_code": 26,
    "city": "京都市西京区",
    "city_kana": "キョウトシニシキョウク",
    "town": "樫原蛸田町",
    "town_kana": "カタギハラタコデンチョウ",
    "street": null,
    "office_name": null,
    "office_name_kana": null
  },
  "8162": {
    "postcode": "6158162",
    "prefecture": "京都府",
    "prefecture_kana": "キョウトフ",
    "prefecture_code": 26,
    "city": "京都市西京区",
    "city_kana": "キョウトシニシキョウク",
    "town": "樫原上ノ町",
    "town_kana": "カタギハラカミノチョウ",
    "street": null,
    "office_name": null,
    "office_name_kana": null
  },
  "8163": {
    "postcode": "6158163",
    "prefecture": "京都府",
    "prefecture_kana": "キョウトフ",
    "prefecture_code": 26,
    "city": "京都市西京区",
    "city_kana": "キョウトシニシキョウク",
    "town": "樫原山ノ上町",
    "town_kana": "カタギハラヤマノウエチョウ",
    "street": null,
    "office_name": null,
    "office_name_kana": null
  },
  "8164": {
    "postcode": "6158164",
    "prefecture": "京都府",
    "prefecture_kana": "キョウトフ",
    "prefecture_code": 26,
    "city": "京都市西京区",
    "city_kana": "キョウトシニシキョウク",
    "town": "樫原鴫谷",
    "town_kana": "カタギハラシギタニ",
    "street": null,
    "office_name": null,
    "office_name_kana": null
  },
  "8165": {
    "postcode": "6158165",
    "prefecture": "京都府",
    "prefecture_kana": "キョウトフ",
    "prefecture_code": 26,
    "city": "京都市西京区",
    "city_kana": "キョウトシニシキョウク",
    "town": "樫原盆山",
    "town_kana": "カタギハラボンヤマ",
    "street": null,
    "office_name": null,
    "office_name_kana": null
  },
  "8171": {
    "postcode": "6158171",
    "prefecture": "京都府",
    "prefecture_kana": "キョウトフ",
    "prefecture_code": 26,
    "city": "京都市西京区",
    "city_kana": "キョウトシニシキョウク",
    "town": "樫原久保町",
    "town_kana": "カタギハラクボチョウ",
    "street": null,
    "office_name": null,
    "office_name_kana": null
  },
  "8172": {
    "postcode": "6158172",
    "prefecture": "京都府",
    "prefecture_kana": "キョウトフ",
    "prefecture_code": 26,
    "city": "京都市西京区",
    "city_kana": "キョウトシニシキョウク",
    "town": "樫原宇治井西町",
    "town_kana": "カタギハラウジイニシチョウ",
    "street": null,
    "office_name": null,
    "office_name_kana": null
  },
  "8173": {
    "postcode": "6158173",
    "prefecture": "京都府",
    "prefecture_kana": "キョウトフ",
    "prefecture_code": 26,
    "city": "京都市西京区",
    "city_kana": "キョウトシニシキョウク",
    "town": "樫原下池田町",
    "town_kana": "カタギハラシモイケダチョウ",
    "street": null,
    "office_name": null,
    "office_name_kana": null
  },
  "8174": {
    "postcode": "6158174",
    "prefecture": "京都府",
    "prefecture_kana": "キョウトフ",
    "prefecture_code": 26,
    "city": "京都市西京区",
    "city_kana": "キョウトシニシキョウク",
    "town": "樫原中垣外",
    "town_kana": "カタギハラナカカイト",
    "street": null,
    "office_name": null,
    "office_name_kana": null
  },
  "8175": {
    "postcode": "6158175",
    "prefecture": "京都府",
    "prefecture_kana": "キョウトフ",
    "prefecture_code": 26,
    "city": "京都市西京区",
    "city_kana": "キョウトシニシキョウク",
    "town": "樫原硲町",
    "town_kana": "カタギハラハガマチョウ",
    "street": null,
    "office_name": null,
    "office_name_kana": null
  },
  "8176": {
    "postcode": "6158176",
    "prefecture": "京都府",
    "prefecture_kana": "キョウトフ",
    "prefecture_code": 26,
    "city": "京都市西京区",
    "city_kana": "キョウトシニシキョウク",
    "town": "樫原上池田町",
    "town_kana": "カタギハラカミイケダチョウ",
    "street": null,
    "office_name": null,
    "office_name_kana": null
  },
  "8177": {
    "postcode": "6158177",
    "prefecture": "京都府",
    "prefecture_kana": "キョウトフ",
    "prefecture_code": 26,
    "city": "京都市西京区",
    "city_kana": "キョウトシニシキョウク",
    "town": "樫原下ノ町",
    "town_kana": "カタギハラシモノチョウ",
    "street": null,
    "office_name": null,
    "office_name_kana": null
  },
  "8178": {
    "postcode": "6158178",
    "prefecture": "京都府",
    "prefecture_kana": "キョウトフ",
    "prefecture_code": 26,
    "city": "京都市西京区",
    "city_kana": "キョウトシニシキョウク",
    "town": "樫原池ノ上町",
    "town_kana": "カタギハライケノウエチョウ",
    "street": null,
    "office_name": null,
    "office_name_kana": null
  },
  "8181": {
    "postcode": "6158181",
    "prefecture": "京都府",
    "prefecture_kana": "キョウトフ",
    "prefecture_code": 26,
    "city": "京都市西京区",
    "city_kana": "キョウトシニシキョウク",
    "town": "樫原石畑町",
    "town_kana": "カタギハライシバタチョウ",
    "street": null,
    "office_name": null,
    "office_name_kana": null
  },
  "8182": {
    "postcode": "6158182",
    "prefecture": "京都府",
    "prefecture_kana": "キョウトフ",
    "prefecture_code": 26,
    "city": "京都市西京区",
    "city_kana": "キョウトシニシキョウク",
    "town": "樫原茶ノ木本町",
    "town_kana": "カタギハラチャノキモトチョウ",
    "street": null,
    "office_name": null,
    "office_name_kana": null
  },
  "8183": {
    "postcode": "6158183",
    "prefecture": "京都府",
    "prefecture_kana": "キョウトフ",
    "prefecture_code": 26,
    "city": "京都市西京区",
    "city_kana": "キョウトシニシキョウク",
    "town": "樫原分田",
    "town_kana": "カタギハラワケダ",
    "street": null,
    "office_name": null,
    "office_name_kana": null
  },
  "8184": {
    "postcode": "6158184",
    "prefecture": "京都府",
    "prefecture_kana": "キョウトフ",
    "prefecture_code": 26,
    "city": "京都市西京区",
    "city_kana": "キョウトシニシキョウク",
    "town": "樫原水築町",
    "town_kana": "カタギハラミズツキチョウ",
    "street": null,
    "office_name": null,
    "office_name_kana": null
  },
  "8185": {
    "postcode": "6158185",
    "prefecture": "京都府",
    "prefecture_kana": "キョウトフ",
    "prefecture_code": 26,
    "city": "京都市西京区",
    "city_kana": "キョウトシニシキョウク",
    "town": "樫原宇治井町",
    "town_kana": "カタギハラウジイチョウ",
    "street": null,
    "office_name": null,
    "office_name_kana": null
  },
  "8186": {
    "postcode": "6158186",
    "prefecture": "京都府",
    "prefecture_kana": "キョウトフ",
    "prefecture_code": 26,
    "city": "京都市西京区",
    "city_kana": "キョウトシニシキョウク",
    "town": "樫原佃",
    "town_kana": "カタギハラツクダ",
    "street": null,
    "office_name": null,
    "office_name_kana": null
  },
  "8191": {
    "postcode": "6158191",
    "prefecture": "京都府",
    "prefecture_kana": "キョウトフ",
    "prefecture_code": 26,
    "city": "京都市西京区",
    "city_kana": "キョウトシニシキョウク",
    "town": "川島有栖川町",
    "town_kana": "カワシマアリスガワチョウ",
    "street": null,
    "office_name": null,
    "office_name_kana": null
  },
  "8192": {
    "postcode": "6158192",
    "prefecture": "京都府",
    "prefecture_kana": "キョウトフ",
    "prefecture_code": 26,
    "city": "京都市西京区",
    "city_kana": "キョウトシニシキョウク",
    "town": "川島寺田町",
    "town_kana": "カワシマテラデンチョウ",
    "street": null,
    "office_name": null,
    "office_name_kana": null
  },
  "8193": {
    "postcode": "6158193",
    "prefecture": "京都府",
    "prefecture_kana": "キョウトフ",
    "prefecture_code": 26,
    "city": "京都市西京区",
    "city_kana": "キョウトシニシキョウク",
    "town": "川島玉頭町",
    "town_kana": "カワシマタマガシラチョウ",
    "street": null,
    "office_name": null,
    "office_name_kana": null
  },
  "8194": {
    "postcode": "6158194",
    "prefecture": "京都府",
    "prefecture_kana": "キョウトフ",
    "prefecture_code": 26,
    "city": "京都市西京区",
    "city_kana": "キョウトシニシキョウク",
    "town": "川島粟田町",
    "town_kana": "カワシマアワタチョウ",
    "street": null,
    "office_name": null,
    "office_name_kana": null
  },
  "8195": {
    "postcode": "6158195",
    "prefecture": "京都府",
    "prefecture_kana": "キョウトフ",
    "prefecture_code": 26,
    "city": "京都市西京区",
    "city_kana": "キョウトシニシキョウク",
    "town": "川島権田町",
    "town_kana": "カワシマゴンデンチョウ",
    "street": null,
    "office_name": null,
    "office_name_kana": null
  },
  "8196": {
    "postcode": "6158196",
    "prefecture": "京都府",
    "prefecture_kana": "キョウトフ",
    "prefecture_code": 26,
    "city": "京都市西京区",
    "city_kana": "キョウトシニシキョウク",
    "town": "川島尻堀町",
    "town_kana": "カワシマシリボリチョウ",
    "street": null,
    "office_name": null,
    "office_name_kana": null
  },
  "8201": {
    "postcode": "6158201",
    "prefecture": "京都府",
    "prefecture_kana": "キョウトフ",
    "prefecture_code": 26,
    "city": "京都市西京区",
    "city_kana": "キョウトシニシキョウク",
    "town": "上桂今井町",
    "town_kana": "カミカツライマイチョウ",
    "street": null,
    "office_name": null,
    "office_name_kana": null
  },
  "8202": {
    "postcode": "6158202",
    "prefecture": "京都府",
    "prefecture_kana": "キョウトフ",
    "prefecture_code": 26,
    "city": "京都市西京区",
    "city_kana": "キョウトシニシキョウク",
    "town": "松室吾田神町",
    "town_kana": "マツムロアタガミチョウ",
    "street": null,
    "office_name": null,
    "office_name_kana": null
  },
  "8203": {
    "postcode": "6158203",
    "prefecture": "京都府",
    "prefecture_kana": "キョウトフ",
    "prefecture_code": 26,
    "city": "京都市西京区",
    "city_kana": "キョウトシニシキョウク",
    "town": "松室荒堀町",
    "town_kana": "マツムロアラボリチョウ",
    "street": null,
    "office_name": null,
    "office_name_kana": null
  },
  "8204": {
    "postcode": "6158204",
    "prefecture": "京都府",
    "prefecture_kana": "キョウトフ",
    "prefecture_code": 26,
    "city": "京都市西京区",
    "city_kana": "キョウトシニシキョウク",
    "town": "松室北河原町",
    "town_kana": "マツムロキタカワラチョウ",
    "street": null,
    "office_name": null,
    "office_name_kana": null
  },
  "8205": {
    "postcode": "6158205",
    "prefecture": "京都府",
    "prefecture_kana": "キョウトフ",
    "prefecture_code": 26,
    "city": "京都市西京区",
    "city_kana": "キョウトシニシキョウク",
    "town": "松室中溝町",
    "town_kana": "マツムロナカミゾチョウ",
    "street": null,
    "office_name": null,
    "office_name_kana": null
  },
  "8206": {
    "postcode": "6158206",
    "prefecture": "京都府",
    "prefecture_kana": "キョウトフ",
    "prefecture_code": 26,
    "city": "京都市西京区",
    "city_kana": "キョウトシニシキョウク",
    "town": "松室追上ゲ町",
    "town_kana": "マツムロオイアゲチョウ",
    "street": null,
    "office_name": null,
    "office_name_kana": null
  },
  "8207": {
    "postcode": "6158207",
    "prefecture": "京都府",
    "prefecture_kana": "キョウトフ",
    "prefecture_code": 26,
    "city": "京都市西京区",
    "city_kana": "キョウトシニシキョウク",
    "town": "松室河原町",
    "town_kana": "マツムロカワラチョウ",
    "street": null,
    "office_name": null,
    "office_name_kana": null
  },
  "8208": {
    "postcode": "6158208",
    "prefecture": "京都府",
    "prefecture_kana": "キョウトフ",
    "prefecture_code": 26,
    "city": "京都市西京区",
    "city_kana": "キョウトシニシキョウク",
    "town": "上桂樋ノ口町",
    "town_kana": "カミカツラヒノクチチョウ",
    "street": null,
    "office_name": null,
    "office_name_kana": null
  },
  "8211": {
    "postcode": "6158211",
    "prefecture": "京都府",
    "prefecture_kana": "キョウトフ",
    "prefecture_code": 26,
    "city": "京都市西京区",
    "city_kana": "キョウトシニシキョウク",
    "town": "上桂前川町",
    "town_kana": "カミカツラマエガワチョウ",
    "street": null,
    "office_name": null,
    "office_name_kana": null
  },
  "8212": {
    "postcode": "6158212",
    "prefecture": "京都府",
    "prefecture_kana": "キョウトフ",
    "prefecture_code": 26,
    "city": "京都市西京区",
    "city_kana": "キョウトシニシキョウク",
    "town": "上桂北ノ口町",
    "town_kana": "カミカツラキタノクチチョウ",
    "street": null,
    "office_name": null,
    "office_name_kana": null
  },
  "8213": {
    "postcode": "6158213",
    "prefecture": "京都府",
    "prefecture_kana": "キョウトフ",
    "prefecture_code": 26,
    "city": "京都市西京区",
    "city_kana": "キョウトシニシキョウク",
    "town": "上桂北村町",
    "town_kana": "カミカツラキタムラチョウ",
    "street": null,
    "office_name": null,
    "office_name_kana": null
  },
  "8214": {
    "postcode": "6158214",
    "prefecture": "京都府",
    "prefecture_kana": "キョウトフ",
    "prefecture_code": 26,
    "city": "京都市西京区",
    "city_kana": "キョウトシニシキョウク",
    "town": "上桂東居町",
    "town_kana": "カミカツラヒガシイチョウ",
    "street": null,
    "office_name": null,
    "office_name_kana": null
  },
  "8215": {
    "postcode": "6158215",
    "prefecture": "京都府",
    "prefecture_kana": "キョウトフ",
    "prefecture_code": 26,
    "city": "京都市西京区",
    "city_kana": "キョウトシニシキョウク",
    "town": "上桂大野町",
    "town_kana": "カミカツラオオノチョウ",
    "street": null,
    "office_name": null,
    "office_name_kana": null
  },
  "8216": {
    "postcode": "6158216",
    "prefecture": "京都府",
    "prefecture_kana": "キョウトフ",
    "prefecture_code": 26,
    "city": "京都市西京区",
    "city_kana": "キョウトシニシキョウク",
    "town": "松尾鈴川町",
    "town_kana": "マツオスズカワチョウ",
    "street": null,
    "office_name": null,
    "office_name_kana": null
  },
  "8217": {
    "postcode": "6158217",
    "prefecture": "京都府",
    "prefecture_kana": "キョウトフ",
    "prefecture_code": 26,
    "city": "京都市西京区",
    "city_kana": "キョウトシニシキョウク",
    "town": "松尾東ノ口町",
    "town_kana": "マツオヒガシノクチチョウ",
    "street": null,
    "office_name": null,
    "office_name_kana": null
  },
  "8221": {
    "postcode": "6158221",
    "prefecture": "京都府",
    "prefecture_kana": "キョウトフ",
    "prefecture_code": 26,
    "city": "京都市西京区",
    "city_kana": "キョウトシニシキョウク",
    "town": "上桂東ノ口町",
    "town_kana": "カミカツラヒガシノクチチョウ",
    "street": null,
    "office_name": null,
    "office_name_kana": null
  },
  "8222": {
    "postcode": "6158222",
    "prefecture": "京都府",
    "prefecture_kana": "キョウトフ",
    "prefecture_code": 26,
    "city": "京都市西京区",
    "city_kana": "キョウトシニシキョウク",
    "town": "上桂御正町",
    "town_kana": "カミカツラミショウチョウ",
    "street": null,
    "office_name": null,
    "office_name_kana": null
  },
  "8223": {
    "postcode": "6158223",
    "prefecture": "京都府",
    "prefecture_kana": "キョウトフ",
    "prefecture_code": 26,
    "city": "京都市西京区",
    "city_kana": "キョウトシニシキョウク",
    "town": "上桂前田町",
    "town_kana": "カミカツラマエダチョウ",
    "street": null,
    "office_name": null,
    "office_name_kana": null
  },
  "8224": {
    "postcode": "6158224",
    "prefecture": "京都府",
    "prefecture_kana": "キョウトフ",
    "prefecture_code": 26,
    "city": "京都市西京区",
    "city_kana": "キョウトシニシキョウク",
    "town": "上桂三ノ宮町",
    "town_kana": "カミカツラサンノミヤチョウ",
    "street": null,
    "office_name": null,
    "office_name_kana": null
  },
  "8225": {
    "postcode": "6158225",
    "prefecture": "京都府",
    "prefecture_kana": "キョウトフ",
    "prefecture_code": 26,
    "city": "京都市西京区",
    "city_kana": "キョウトシニシキョウク",
    "town": "上桂森下町",
    "town_kana": "カミカツラモリシタチョウ",
    "street": null,
    "office_name": null,
    "office_name_kana": null
  },
  "8226": {
    "postcode": "6158226",
    "prefecture": "京都府",
    "prefecture_kana": "キョウトフ",
    "prefecture_code": 26,
    "city": "京都市西京区",
    "city_kana": "キョウトシニシキョウク",
    "town": "上桂森上町",
    "town_kana": "カミカツラモリカミチョウ",
    "street": null,
    "office_name": null,
    "office_name_kana": null
  },
  "8227": {
    "postcode": "6158227",
    "prefecture": "京都府",
    "prefecture_kana": "キョウトフ",
    "prefecture_code": 26,
    "city": "京都市西京区",
    "city_kana": "キョウトシニシキョウク",
    "town": "上桂宮ノ後町",
    "town_kana": "カミカツラミヤノゴチョウ",
    "street": null,
    "office_name": null,
    "office_name_kana": null
  },
  "8228": {
    "postcode": "6158228",
    "prefecture": "京都府",
    "prefecture_kana": "キョウトフ",
    "prefecture_code": 26,
    "city": "京都市西京区",
    "city_kana": "キョウトシニシキョウク",
    "town": "上桂西居町",
    "town_kana": "カミカツラニシイチョウ",
    "street": null,
    "office_name": null,
    "office_name_kana": null
  },
  "8231": {
    "postcode": "6158231",
    "prefecture": "京都府",
    "prefecture_kana": "キョウトフ",
    "prefecture_code": 26,
    "city": "京都市西京区",
    "city_kana": "キョウトシニシキョウク",
    "town": "御陵溝浦町",
    "town_kana": "ゴリョウミゾウラチョウ",
    "street": null,
    "office_name": null,
    "office_name_kana": null
  },
  "8232": {
    "postcode": "6158232",
    "prefecture": "京都府",
    "prefecture_kana": "キョウトフ",
    "prefecture_code": 26,
    "city": "京都市西京区",
    "city_kana": "キョウトシニシキョウク",
    "town": "御陵南荒木町",
    "town_kana": "ゴリョウミナミアラキチョウ",
    "street": null,
    "office_name": null,
    "office_name_kana": null
  },
  "8233": {
    "postcode": "6158233",
    "prefecture": "京都府",
    "prefecture_kana": "キョウトフ",
    "prefecture_code": 26,
    "city": "京都市西京区",
    "city_kana": "キョウトシニシキョウク",
    "town": "御陵荒木町",
    "town_kana": "ゴリョウアラキチョウ",
    "street": null,
    "office_name": null,
    "office_name_kana": null
  },
  "8234": {
    "postcode": "6158234",
    "prefecture": "京都府",
    "prefecture_kana": "キョウトフ",
    "prefecture_code": 26,
    "city": "京都市西京区",
    "city_kana": "キョウトシニシキョウク",
    "town": "御陵塚ノ越町",
    "town_kana": "ゴリョウツカノコシチョウ",
    "street": null,
    "office_name": null,
    "office_name_kana": null
  },
  "8235": {
    "postcode": "6158235",
    "prefecture": "京都府",
    "prefecture_kana": "キョウトフ",
    "prefecture_code": 26,
    "city": "京都市西京区",
    "city_kana": "キョウトシニシキョウク",
    "town": "御陵内町",
    "town_kana": "ゴリョウウチマチ",
    "street": null,
    "office_name": null,
    "office_name_kana": null
  },
  "8236": {
    "postcode": "6158236",
    "prefecture": "京都府",
    "prefecture_kana": "キョウトフ",
    "prefecture_code": 26,
    "city": "京都市西京区",
    "city_kana": "キョウトシニシキョウク",
    "town": "山田大吉見町",
    "town_kana": "ヤマダオオヨシミチョウ",
    "street": null,
    "office_name": null,
    "office_name_kana": null
  },
  "8237": {
    "postcode": "6158237",
    "prefecture": "京都府",
    "prefecture_kana": "キョウトフ",
    "prefecture_code": 26,
    "city": "京都市西京区",
    "city_kana": "キョウトシニシキョウク",
    "town": "山田中吉見町",
    "town_kana": "ヤマダナカヨシミチョウ",
    "street": null,
    "office_name": null,
    "office_name_kana": null
  },
  "8238": {
    "postcode": "6158238",
    "prefecture": "京都府",
    "prefecture_kana": "キョウトフ",
    "prefecture_code": 26,
    "city": "京都市西京区",
    "city_kana": "キョウトシニシキョウク",
    "town": "山田車塚町",
    "town_kana": "ヤマダクルマツカチョウ",
    "street": null,
    "office_name": null,
    "office_name_kana": null
  },
  "8241": {
    "postcode": "6158241",
    "prefecture": "京都府",
    "prefecture_kana": "キョウトフ",
    "prefecture_code": 26,
    "city": "京都市西京区",
    "city_kana": "キョウトシニシキョウク",
    "town": "御陵谷町",
    "town_kana": "ゴリョウタニマチ",
    "street": null,
    "office_name": null,
    "office_name_kana": null
  },
  "8242": {
    "postcode": "6158242",
    "prefecture": "京都府",
    "prefecture_kana": "キョウトフ",
    "prefecture_code": 26,
    "city": "京都市西京区",
    "city_kana": "キョウトシニシキョウク",
    "town": "御陵鴫谷",
    "town_kana": "ゴリョウシギタニ",
    "street": null,
    "office_name": null,
    "office_name_kana": null
  },
  "8243": {
    "postcode": "6158243",
    "prefecture": "京都府",
    "prefecture_kana": "キョウトフ",
    "prefecture_code": 26,
    "city": "京都市西京区",
    "city_kana": "キョウトシニシキョウク",
    "town": "御陵御茶屋山",
    "town_kana": "ゴリョウオチャヤヤマ",
    "street": null,
    "office_name": null,
    "office_name_kana": null
  },
  "8244": {
    "postcode": "6158244",
    "prefecture": "京都府",
    "prefecture_kana": "キョウトフ",
    "prefecture_code": 26,
    "city": "京都市西京区",
    "city_kana": "キョウトシニシキョウク",
    "town": "御陵池ノ谷",
    "town_kana": "ゴリョウイケノタニ",
    "street": null,
    "office_name": null,
    "office_name_kana": null
  },
  "8245": {
    "postcode": "6158245",
    "prefecture": "京都府",
    "prefecture_kana": "キョウトフ",
    "prefecture_code": 26,
    "city": "京都市西京区",
    "city_kana": "キョウトシニシキョウク",
    "town": "御陵大原",
    "town_kana": "ゴリョウオオハラ",
    "street": null,
    "office_name": null,
    "office_name_kana": null
  },
  "8246": {
    "postcode": "6158246",
    "prefecture": "京都府",
    "prefecture_kana": "キョウトフ",
    "prefecture_code": 26,
    "city": "京都市西京区",
    "city_kana": "キョウトシニシキョウク",
    "town": "京都大学桂",
    "town_kana": "キョウトダイガクカツラ",
    "street": null,
    "office_name": null,
    "office_name_kana": null
  },
  "8251": {
    "postcode": "6158251",
    "prefecture": "京都府",
    "prefecture_kana": "キョウトフ",
    "prefecture_code": 26,
    "city": "京都市西京区",
    "city_kana": "キョウトシニシキョウク",
    "town": "山田猫塚町",
    "town_kana": "ヤマダネコツカチョウ",
    "street": null,
    "office_name": null,
    "office_name_kana": null
  },
  "8252": {
    "postcode": "6158252",
    "prefecture": "京都府",
    "prefecture_kana": "キョウトフ",
    "prefecture_code": 26,
    "city": "京都市西京区",
    "city_kana": "キョウトシニシキョウク",
    "town": "御陵北山下町",
    "town_kana": "ゴリョウキタヤマシタチョウ",
    "street": null,
    "office_name": null,
    "office_name_kana": null
  },
  "8253": {
    "postcode": "6158253",
    "prefecture": "京都府",
    "prefecture_kana": "キョウトフ",
    "prefecture_code": 26,
    "city": "京都市西京区",
    "city_kana": "キョウトシニシキョウク",
    "town": "御陵北山町",
    "town_kana": "ゴリョウキタヤマチョウ",
    "street": null,
    "office_name": null,
    "office_name_kana": null
  },
  "8254": {
    "postcode": "6158254",
    "prefecture": "京都府",
    "prefecture_kana": "キョウトフ",
    "prefecture_code": 26,
    "city": "京都市西京区",
    "city_kana": "キョウトシニシキョウク",
    "town": "御陵細谷",
    "town_kana": "ゴリョウホソタニ",
    "street": null,
    "office_name": null,
    "office_name_kana": null
  },
  "8255": {
    "postcode": "6158255",
    "prefecture": "京都府",
    "prefecture_kana": "キョウトフ",
    "prefecture_code": 26,
    "city": "京都市西京区",
    "city_kana": "キョウトシニシキョウク",
    "town": "山田箱塚町",
    "town_kana": "ヤマダハコヅカチョウ",
    "street": null,
    "office_name": null,
    "office_name_kana": null
  },
  "8256": {
    "postcode": "6158256",
    "prefecture": "京都府",
    "prefecture_kana": "キョウトフ",
    "prefecture_code": 26,
    "city": "京都市西京区",
    "city_kana": "キョウトシニシキョウク",
    "town": "山田平尾町",
    "town_kana": "ヤマダヒラオチョウ",
    "street": null,
    "office_name": null,
    "office_name_kana": null
  },
  "8261": {
    "postcode": "6158261",
    "prefecture": "京都府",
    "prefecture_kana": "キョウトフ",
    "prefecture_code": 26,
    "city": "京都市西京区",
    "city_kana": "キョウトシニシキョウク",
    "town": "山田庄田町",
    "town_kana": "ヤマダショウダチョウ",
    "street": null,
    "office_name": null,
    "office_name_kana": null
  },
  "8262": {
    "postcode": "6158262",
    "prefecture": "京都府",
    "prefecture_kana": "キョウトフ",
    "prefecture_code": 26,
    "city": "京都市西京区",
    "city_kana": "キョウトシニシキョウク",
    "town": "山田四ノ坪町",
    "town_kana": "ヤマダシノツボチョウ",
    "street": null,
    "office_name": null,
    "office_name_kana": null
  },
  "8263": {
    "postcode": "6158263",
    "prefecture": "京都府",
    "prefecture_kana": "キョウトフ",
    "prefecture_code": 26,
    "city": "京都市西京区",
    "city_kana": "キョウトシニシキョウク",
    "town": "山田久田町",
    "town_kana": "ヤマダヒサダチョウ",
    "street": null,
    "office_name": null,
    "office_name_kana": null
  },
  "8264": {
    "postcode": "6158264",
    "prefecture": "京都府",
    "prefecture_kana": "キョウトフ",
    "prefecture_code": 26,
    "city": "京都市西京区",
    "city_kana": "キョウトシニシキョウク",
    "town": "山田六ノ坪町",
    "town_kana": "ヤマダロクノツボチョウ",
    "street": null,
    "office_name": null,
    "office_name_kana": null
  },
  "8265": {
    "postcode": "6158265",
    "prefecture": "京都府",
    "prefecture_kana": "キョウトフ",
    "prefecture_code": 26,
    "city": "京都市西京区",
    "city_kana": "キョウトシニシキョウク",
    "town": "山田御道路町",
    "town_kana": "ヤマダオドロチョウ",
    "street": null,
    "office_name": null,
    "office_name_kana": null
  },
  "8266": {
    "postcode": "6158266",
    "prefecture": "京都府",
    "prefecture_kana": "キョウトフ",
    "prefecture_code": 26,
    "city": "京都市西京区",
    "city_kana": "キョウトシニシキョウク",
    "town": "山田南山田町",
    "town_kana": "ヤマダミナミヤマダチョウ",
    "street": null,
    "office_name": null,
    "office_name_kana": null
  },
  "8267": {
    "postcode": "6158267",
    "prefecture": "京都府",
    "prefecture_kana": "キョウトフ",
    "prefecture_code": 26,
    "city": "京都市西京区",
    "city_kana": "キョウトシニシキョウク",
    "town": "山田北山田町",
    "town_kana": "ヤマダキタヤマダチョウ",
    "street": null,
    "office_name": null,
    "office_name_kana": null
  },
  "8271": {
    "postcode": "6158271",
    "prefecture": "京都府",
    "prefecture_kana": "キョウトフ",
    "prefecture_code": 26,
    "city": "京都市西京区",
    "city_kana": "キョウトシニシキョウク",
    "town": "山田弦馳町",
    "town_kana": "ヤマダツルハゼチョウ",
    "street": null,
    "office_name": null,
    "office_name_kana": null
  },
  "8272": {
    "postcode": "6158272",
    "prefecture": "京都府",
    "prefecture_kana": "キョウトフ",
    "prefecture_code": 26,
    "city": "京都市西京区",
    "city_kana": "キョウトシニシキョウク",
    "town": "山田畑田町",
    "town_kana": "ヤマダハタケダチョウ",
    "street": null,
    "office_name": null,
    "office_name_kana": null
  },
  "8273": {
    "postcode": "6158273",
    "prefecture": "京都府",
    "prefecture_kana": "キョウトフ",
    "prefecture_code": 26,
    "city": "京都市西京区",
    "city_kana": "キョウトシニシキョウク",
    "town": "山田出口町",
    "town_kana": "ヤマダデグチチョウ",
    "street": null,
    "office_name": null,
    "office_name_kana": null
  },
  "8274": {
    "postcode": "6158274",
    "prefecture": "京都府",
    "prefecture_kana": "キョウトフ",
    "prefecture_code": 26,
    "city": "京都市西京区",
    "city_kana": "キョウトシニシキョウク",
    "town": "山田上ノ町",
    "town_kana": "ヤマダウエノチョウ",
    "street": null,
    "office_name": null,
    "office_name_kana": null
  },
  "8275": {
    "postcode": "6158275",
    "prefecture": "京都府",
    "prefecture_kana": "キョウトフ",
    "prefecture_code": 26,
    "city": "京都市西京区",
    "city_kana": "キョウトシニシキョウク",
    "town": "山田南町",
    "town_kana": "ヤマダミナミチョウ",
    "street": null,
    "office_name": null,
    "office_name_kana": null
  },
  "8276": {
    "postcode": "6158276",
    "prefecture": "京都府",
    "prefecture_kana": "キョウトフ",
    "prefecture_code": 26,
    "city": "京都市西京区",
    "city_kana": "キョウトシニシキョウク",
    "town": "山田開キ町",
    "town_kana": "ヤマダヒラキチョウ",
    "street": null,
    "office_name": null,
    "office_name_kana": null
  },
  "8277": {
    "postcode": "6158277",
    "prefecture": "京都府",
    "prefecture_kana": "キョウトフ",
    "prefecture_code": 26,
    "city": "京都市西京区",
    "city_kana": "キョウトシニシキョウク",
    "town": "山田葉室町",
    "town_kana": "ヤマダハムロチョウ",
    "street": null,
    "office_name": null,
    "office_name_kana": null
  },
  "8281": {
    "postcode": "6158281",
    "prefecture": "京都府",
    "prefecture_kana": "キョウトフ",
    "prefecture_code": 26,
    "city": "京都市西京区",
    "city_kana": "キョウトシニシキョウク",
    "town": "松尾木ノ曽町",
    "town_kana": "マツオキノソチョウ",
    "street": null,
    "office_name": null,
    "office_name_kana": null
  },
  "8282": {
    "postcode": "6158282",
    "prefecture": "京都府",
    "prefecture_kana": "キョウトフ",
    "prefecture_code": 26,
    "city": "京都市西京区",
    "city_kana": "キョウトシニシキョウク",
    "town": "松尾大利町",
    "town_kana": "マツオダイリチョウ",
    "street": null,
    "office_name": null,
    "office_name_kana": null
  },
  "8283": {
    "postcode": "6158283",
    "prefecture": "京都府",
    "prefecture_kana": "キョウトフ",
    "prefecture_code": 26,
    "city": "京都市西京区",
    "city_kana": "キョウトシニシキョウク",
    "town": "松尾井戸町",
    "town_kana": "マツオイドチョウ",
    "street": null,
    "office_name": null,
    "office_name_kana": null
  },
  "8284": {
    "postcode": "6158284",
    "prefecture": "京都府",
    "prefecture_kana": "キョウトフ",
    "prefecture_code": 26,
    "city": "京都市西京区",
    "city_kana": "キョウトシニシキョウク",
    "town": "松尾上ノ山町",
    "town_kana": "マツオウエノヤマチョウ",
    "street": null,
    "office_name": null,
    "office_name_kana": null
  },
  "8285": {
    "postcode": "6158285",
    "prefecture": "京都府",
    "prefecture_kana": "キョウトフ",
    "prefecture_code": 26,
    "city": "京都市西京区",
    "city_kana": "キョウトシニシキョウク",
    "town": "山田北ノ町",
    "town_kana": "ヤマダキタノチョウ",
    "street": null,
    "office_name": null,
    "office_name_kana": null
  },
  "8286": {
    "postcode": "6158286",
    "prefecture": "京都府",
    "prefecture_kana": "キョウトフ",
    "prefecture_code": 26,
    "city": "京都市西京区",
    "city_kana": "キョウトシニシキョウク",
    "town": "松尾神ケ谷町",
    "town_kana": "マツオジンガタニチョウ",
    "street": null,
    "office_name": null,
    "office_name_kana": null
  },
  "8287": {
    "postcode": "6158287",
    "prefecture": "京都府",
    "prefecture_kana": "キョウトフ",
    "prefecture_code": 26,
    "city": "京都市西京区",
    "city_kana": "キョウトシニシキョウク",
    "town": "松尾万石町",
    "town_kana": "マツオマンゴクチョウ",
    "street": null,
    "office_name": null,
    "office_name_kana": null
  },
  "8291": {
    "postcode": "6158291",
    "prefecture": "京都府",
    "prefecture_kana": "キョウトフ",
    "prefecture_code": 26,
    "city": "京都市西京区",
    "city_kana": "キョウトシニシキョウク",
    "town": "松室扇田町",
    "town_kana": "マツムロオウギダチョウ",
    "street": null,
    "office_name": null,
    "office_name_kana": null
  },
  "8292": {
    "postcode": "6158292",
    "prefecture": "京都府",
    "prefecture_kana": "キョウトフ",
    "prefecture_code": 26,
    "city": "京都市西京区",
    "city_kana": "キョウトシニシキョウク",
    "town": "松室田中町",
    "town_kana": "マツムロタナカチョウ",
    "street": null,
    "office_name": null,
    "office_name_kana": null
  },
  "8293": {
    "postcode": "6158293",
    "prefecture": "京都府",
    "prefecture_kana": "キョウトフ",
    "prefecture_code": 26,
    "city": "京都市西京区",
    "city_kana": "キョウトシニシキョウク",
    "town": "松室庄田町",
    "town_kana": "マツムロショウダチョウ",
    "street": null,
    "office_name": null,
    "office_name_kana": null
  },
  "8294": {
    "postcode": "6158294",
    "prefecture": "京都府",
    "prefecture_kana": "キョウトフ",
    "prefecture_code": 26,
    "city": "京都市西京区",
    "city_kana": "キョウトシニシキョウク",
    "town": "松室地家町",
    "town_kana": "マツムロジケチョウ",
    "street": null,
    "office_name": null,
    "office_name_kana": null
  },
  "8295": {
    "postcode": "6158295",
    "prefecture": "京都府",
    "prefecture_kana": "キョウトフ",
    "prefecture_code": 26,
    "city": "京都市西京区",
    "city_kana": "キョウトシニシキョウク",
    "town": "松室地家山",
    "town_kana": "マツムロジケヤマ",
    "street": null,
    "office_name": null,
    "office_name_kana": null
  },
  "8296": {
    "postcode": "6158296",
    "prefecture": "京都府",
    "prefecture_kana": "キョウトフ",
    "prefecture_code": 26,
    "city": "京都市西京区",
    "city_kana": "キョウトシニシキョウク",
    "town": "松室山添町",
    "town_kana": "マツムロヤマゾエチョウ",
    "street": null,
    "office_name": null,
    "office_name_kana": null
  },
  "8301": {
    "postcode": "6158301",
    "prefecture": "京都府",
    "prefecture_kana": "キョウトフ",
    "prefecture_code": 26,
    "city": "京都市西京区",
    "city_kana": "キョウトシニシキョウク",
    "town": "桂徳大寺北町",
    "town_kana": "カツラトクダイジキタチョウ",
    "street": null,
    "office_name": null,
    "office_name_kana": null
  },
  "8302": {
    "postcode": "6158302",
    "prefecture": "京都府",
    "prefecture_kana": "キョウトフ",
    "prefecture_code": 26,
    "city": "京都市西京区",
    "city_kana": "キョウトシニシキョウク",
    "town": "桂徳大寺南町",
    "town_kana": "カツラトクダイジミナミチョウ",
    "street": null,
    "office_name": null,
    "office_name_kana": null
  },
  "8303": {
    "postcode": "6158303",
    "prefecture": "京都府",
    "prefecture_kana": "キョウトフ",
    "prefecture_code": 26,
    "city": "京都市西京区",
    "city_kana": "キョウトシニシキョウク",
    "town": "桂徳大寺東町",
    "town_kana": "カツラトクダイジヒガシチョウ",
    "street": null,
    "office_name": null,
    "office_name_kana": null
  },
  "8501": {
    "postcode": "6158501",
    "prefecture": "京都府",
    "prefecture_kana": "キョウトフ",
    "prefecture_code": 26,
    "city": "京都市右京区",
    "city_kana": "キョウトシウキョウク",
    "town": "西京極豆田町",
    "town_kana": "ニシキョウゴクマメダチョウ",
    "street": "２９",
    "office_name": "株式会社　たけびし",
    "office_name_kana": "カブシキガイシヤ タケビシ"
  },
  "8510": {
    "postcode": "6158510",
    "prefecture": "京都府",
    "prefecture_kana": "キョウトフ",
    "prefecture_code": 26,
    "city": "京都市西京区",
    "city_kana": "キョウトシニシキョウク",
    "town": "京都大学桂",
    "town_kana": "キョウトダイガクカツラ",
    "street": "１",
    "office_name": "京都大学　大学院　工学研究科　Ａクラスター",
    "office_name_kana": "キヨウトダイガク ダイガクイン コウガクケンキユウカ エ-クラスタ-"
  },
  "8511": {
    "postcode": "6158511",
    "prefecture": "京都府",
    "prefecture_kana": "キョウトフ",
    "prefecture_code": 26,
    "city": "京都市右京区",
    "city_kana": "キョウトシウキョウク",
    "town": "西京極南大入町",
    "town_kana": "ニシキョウゴクミナミオオイリチョウ",
    "street": "８１",
    "office_name": "京都西社会保険事務所",
    "office_name_kana": "キヨウトニシシヤカイホケンジムシヨ"
  },
  "8520": {
    "postcode": "6158520",
    "prefecture": "京都府",
    "prefecture_kana": "キョウトフ",
    "prefecture_code": 26,
    "city": "京都市西京区",
    "city_kana": "キョウトシニシキョウク",
    "town": "京都大学桂",
    "town_kana": "キョウトダイガクカツラ",
    "street": "２",
    "office_name": "京都大学　国際融合創造センター",
    "office_name_kana": "キヨウトダイガク コクサイユウゴウソウゾウセンタ-"
  },
  "8522": {
    "postcode": "6158522",
    "prefecture": "京都府",
    "prefecture_kana": "キョウトフ",
    "prefecture_code": 26,
    "city": "京都市西京区",
    "city_kana": "キョウトシニシキョウク",
    "town": "上桂森下町",
    "town_kana": "カミカツラモリシタチョウ",
    "street": "２５−１",
    "office_name": "京都市西京区役所",
    "office_name_kana": "キヨウトシニシキヨウクヤクシヨ"
  },
  "8530": {
    "postcode": "6158530",
    "prefecture": "京都府",
    "prefecture_kana": "キョウトフ",
    "prefecture_code": 26,
    "city": "京都市西京区",
    "city_kana": "キョウトシニシキョウク",
    "town": "京都大学桂",
    "town_kana": "キョウトダイガクカツラ",
    "street": "３",
    "office_name": "京都大学大学院　工学研究科Ｂクラスター",
    "office_name_kana": "キヨウトダイガクダイガクイン コウガクケンキユウカビ-クラスタ-"
  },
  "8540": {
    "postcode": "6158540",
    "prefecture": "京都府",
    "prefecture_kana": "キョウトフ",
    "prefecture_code": 26,
    "city": "京都市西京区",
    "city_kana": "キョウトシニシキョウク",
    "town": "京都大学桂",
    "town_kana": "キョウトダイガクカツラ",
    "street": "４",
    "office_name": "京都大学大学院　工学研究科Ｃクラスター",
    "office_name_kana": "キヨウトダイガクダイガクイン コウガクケンキユウカシ-クラスタ-"
  },
  "8555": {
    "postcode": "6158555",
    "prefecture": "京都府",
    "prefecture_kana": "キョウトフ",
    "prefecture_code": 26,
    "city": "京都市右京区",
    "city_kana": "キョウトシウキョウク",
    "town": "梅津西浦町",
    "town_kana": "ウメヅニシウラチョウ",
    "street": "１４",
    "office_name": "サンコール　株式会社",
    "office_name_kana": "サンコ-ル カブシキガイシヤ"
  },
  "8558": [
    {
      "postcode": "6158558",
      "prefecture": "京都府",
      "prefecture_kana": "キョウトフ",
      "prefecture_code": 26,
      "city": "京都市右京区",
      "city_kana": "キョウトシウキョウク",
      "town": "西院笠目町",
      "town_kana": "サイインカサメチョウ",
      "street": "６",
      "office_name": "株式会社　京都外大パートナーズ",
      "office_name_kana": "カブシキガイシヤ キヨウトガイダイパ-トナ-ズ"
    },
    {
      "postcode": "6158558",
      "prefecture": "京都府",
      "prefecture_kana": "キョウトフ",
      "prefecture_code": 26,
      "city": "京都市右京区",
      "city_kana": "キョウトシウキョウク",
      "town": "西院笠目町",
      "town_kana": "サイインカサメチョウ",
      "street": "６",
      "office_name": "京都外国語大学",
      "office_name_kana": "キヨウトガイコクゴダイガク"
    }
  ],
  "8577": {
    "postcode": "6158577",
    "prefecture": "京都府",
    "prefecture_kana": "キョウトフ",
    "prefecture_code": 26,
    "city": "京都市右京区",
    "city_kana": "キョウトシウキョウク",
    "town": "山ノ内五反田町",
    "town_kana": "ヤマノウチゴタンダチョウ",
    "street": "１８番地",
    "office_name": "学校法人　京都学園",
    "office_name_kana": "ガツコウホウジン キヨウトガクエン"
  },
  "8585": {
    "postcode": "6158585",
    "prefecture": "京都府",
    "prefecture_kana": "キョウトフ",
    "prefecture_code": 26,
    "city": "京都市右京区",
    "city_kana": "キョウトシウキョウク",
    "town": "西院溝崎町",
    "town_kana": "サイインミゾサキチョウ",
    "street": "２１",
    "office_name": "ローム　株式会社",
    "office_name_kana": "ロ-ム カブシキガイシヤ"
  },
  "8666": {
    "postcode": "6158666",
    "prefecture": "京都府",
    "prefecture_kana": "キョウトフ",
    "prefecture_code": 26,
    "city": "京都市右京区",
    "city_kana": "キョウトシウキョウク",
    "town": "西京極中沢町",
    "town_kana": "ニシキョウゴクナカザワチョウ",
    "street": "１",
    "office_name": "明成化学工業　株式会社",
    "office_name_kana": "メイセイカガクコウギヨウ カブシキガイシヤ"
  },
  "8686": {
    "postcode": "6158686",
    "prefecture": "京都府",
    "prefecture_kana": "キョウトフ",
    "prefecture_code": 26,
    "city": "京都市右京区",
    "city_kana": "キョウトシウキョウク",
    "town": "梅津高畝町",
    "town_kana": "ウメヅタカゼチョウ",
    "street": "４７（右京郵便局私書箱第８号）",
    "office_name": "日新電機　株式会社",
    "office_name_kana": "ニツシンデンキ カブシキガイシヤ"
  }
}