{
  "0000": {
    "postcode": "6160000",
    "prefecture": "京都府",
    "prefecture_kana": "キョウトフ",
    "prefecture_code": 26,
    "city": "京都市右京区",
    "city_kana": "キョウトシウキョウク",
    "town": "",
    "town_kana": "",
    "street": null,
    "office_name": null,
    "office_name_kana": null
  },
  "0001": {
    "postcode": "6160001",
    "prefecture": "京都府",
    "prefecture_kana": "キョウトフ",
    "prefecture_code": 26,
    "city": "京都市西京区",
    "city_kana": "キョウトシニシキョウク",
    "town": "嵐山上河原町",
    "town_kana": "アラシヤマカミカワラチョウ",
    "street": null,
    "office_name": null,
    "office_name_kana": null
  },
  "0002": {
    "postcode": "6160002",
    "prefecture": "京都府",
    "prefecture_kana": "キョウトフ",
    "prefecture_code": 26,
    "city": "京都市西京区",
    "city_kana": "キョウトシニシキョウク",
    "town": "嵐山東一川町",
    "town_kana": "アラシヤマヒガシイチカワチョウ",
    "street": null,
    "office_name": null,
    "office_name_kana": null
  },
  "0003": {
    "postcode": "6160003",
    "prefecture": "京都府",
    "prefecture_kana": "キョウトフ",
    "prefecture_code": 26,
    "city": "京都市西京区",
    "city_kana": "キョウトシニシキョウク",
    "town": "嵐山西一川町",
    "town_kana": "アラシヤマニシイチカワチョウ",
    "street": null,
    "office_name": null,
    "office_name_kana": null
  },
  "0004": {
    "postcode": "6160004",
    "prefecture": "京都府",
    "prefecture_kana": "キョウトフ",
    "prefecture_code": 26,
    "city": "京都市西京区",
    "city_kana": "キョウトシニシキョウク",
    "town": "嵐山中尾下町",
    "town_kana": "アラシヤマナカオシタチョウ",
    "street": null,
    "office_name": null,
    "office_name_kana": null
  },
  "0005": {
    "postcode": "6160005",
    "prefecture": "京都府",
    "prefecture_kana": "キョウトフ",
    "prefecture_code": 26,
    "city": "京都市西京区",
    "city_kana": "キョウトシニシキョウク",
    "town": "嵐山山田町",
    "town_kana": "アラシヤマヤマダチョウ",
    "street": null,
    "office_name": null,
    "office_name_kana": null
  },
  "0006": {
    "postcode": "6160006",
    "prefecture": "京都府",
    "prefecture_kana": "キョウトフ",
    "prefecture_code": 26,
    "city": "京都市西京区",
    "city_kana": "キョウトシニシキョウク",
    "town": "嵐山虚空蔵山町",
    "town_kana": "アラシヤマコクゾウヤマチョウ",
    "street": null,
    "office_name": null,
    "office_name_kana": null
  },
  "0007": {
    "postcode": "6160007",
    "prefecture": "京都府",
    "prefecture_kana": "キョウトフ",
    "prefecture_code": 26,
    "city": "京都市西京区",
    "city_kana": "キョウトシニシキョウク",
    "town": "嵐山元録山町",
    "town_kana": "アラシヤマゲンロクザンチョウ",
    "street": null,
    "office_name": null,
    "office_name_kana": null
  },
  "0011": {
    "postcode": "6160011",
    "prefecture": "京都府",
    "prefecture_kana": "キョウトフ",
    "prefecture_code": 26,
    "city": "京都市西京区",
    "city_kana": "キョウトシニシキョウク",
    "town": "嵐山樋ノ上町",
    "town_kana": "アラシヤマヒノカミチョウ",
    "street": null,
    "office_name": null,
    "office_name_kana": null
  },
  "0012": {
    "postcode": "6160012",
    "prefecture": "京都府",
    "prefecture_kana": "キョウトフ",
    "prefecture_code": 26,
    "city": "京都市西京区",
    "city_kana": "キョウトシニシキョウク",
    "town": "嵐山東海道町",
    "town_kana": "アラシヤマヒガシカイドウチョウ",
    "street": null,
    "office_name": null,
    "office_name_kana": null
  },
  "0013": {
    "postcode": "6160013",
    "prefecture": "京都府",
    "prefecture_kana": "キョウトフ",
    "prefecture_code": 26,
    "city": "京都市西京区",
    "city_kana": "キョウトシニシキョウク",
    "town": "嵐山風呂ノ橋町",
    "town_kana": "アラシヤマフロノハシチョウ",
    "street": null,
    "office_name": null,
    "office_name_kana": null
  },
  "0014": {
    "postcode": "6160014",
    "prefecture": "京都府",
    "prefecture_kana": "キョウトフ",
    "prefecture_code": 26,
    "city": "京都市西京区",
    "city_kana": "キョウトシニシキョウク",
    "town": "嵐山谷ケ辻子町",
    "town_kana": "アラシヤマタニガツジコチョウ",
    "street": null,
    "office_name": null,
    "office_name_kana": null
  },
  "0015": {
    "postcode": "6160015",
    "prefecture": "京都府",
    "prefecture_kana": "キョウトフ",
    "prefecture_code": 26,
    "city": "京都市西京区",
    "city_kana": "キョウトシニシキョウク",
    "town": "嵐山山ノ下町",
    "town_kana": "アラシヤマヤマノシタチョウ",
    "street": null,
    "office_name": null,
    "office_name_kana": null
  },
  "0016": {
    "postcode": "6160016",
    "prefecture": "京都府",
    "prefecture_kana": "キョウトフ",
    "prefecture_code": 26,
    "city": "京都市西京区",
    "city_kana": "キョウトシニシキョウク",
    "town": "嵐山上海道町",
    "town_kana": "アラシヤマカミカイドウチョウ",
    "street": null,
    "office_name": null,
    "office_name_kana": null
  },
  "0017": {
    "postcode": "6160017",
    "prefecture": "京都府",
    "prefecture_kana": "キョウトフ",
    "prefecture_code": 26,
    "city": "京都市西京区",
    "city_kana": "キョウトシニシキョウク",
    "town": "嵐山茶尻町",
    "town_kana": "アラシヤマチャジリチョウ",
    "street": null,
    "office_name": null,
    "office_name_kana": null
  },
  "0021": {
    "postcode": "6160021",
    "prefecture": "京都府",
    "prefecture_kana": "キョウトフ",
    "prefecture_code": 26,
    "city": "京都市西京区",
    "city_kana": "キョウトシニシキョウク",
    "town": "嵐山森ノ前町",
    "town_kana": "アラシヤマモリノマエチョウ",
    "street": null,
    "office_name": null,
    "office_name_kana": null
  },
  "0022": {
    "postcode": "6160022",
    "prefecture": "京都府",
    "prefecture_kana": "キョウトフ",
    "prefecture_code": 26,
    "city": "京都市西京区",
    "city_kana": "キョウトシニシキョウク",
    "town": "嵐山朝月町",
    "town_kana": "アラシヤマアサツキチョウ",
    "street": null,
    "office_name": null,
    "office_name_kana": null
  },
  "0023": {
    "postcode": "6160023",
    "prefecture": "京都府",
    "prefecture_kana": "キョウトフ",
    "prefecture_code": 26,
    "city": "京都市西京区",
    "city_kana": "キョウトシニシキョウク",
    "town": "嵐山宮ノ前町",
    "town_kana": "アラシヤマミヤノマエチョウ",
    "street": null,
    "office_name": null,
    "office_name_kana": null
  },
  "0024": {
    "postcode": "6160024",
    "prefecture": "京都府",
    "prefecture_kana": "キョウトフ",
    "prefecture_code": 26,
    "city": "京都市西京区",
    "city_kana": "キョウトシニシキョウク",
    "town": "嵐山宮町",
    "town_kana": "アラシヤマミヤマチ",
    "street": null,
    "office_name": null,
    "office_name_kana": null
  },
  "0025": {
    "postcode": "6160025",
    "prefecture": "京都府",
    "prefecture_kana": "キョウトフ",
    "prefecture_code": 26,
    "city": "京都市西京区",
    "city_kana": "キョウトシニシキョウク",
    "town": "嵐山宮ノ北町",
    "town_kana": "アラシヤマミヤノキタチョウ",
    "street": null,
    "office_name": null,
    "office_name_kana": null
  },
  "0026": {
    "postcode": "6160026",
    "prefecture": "京都府",
    "prefecture_kana": "キョウトフ",
    "prefecture_code": 26,
    "city": "京都市西京区",
    "city_kana": "キョウトシニシキョウク",
    "town": "嵐山薬師下町",
    "town_kana": "アラシヤマヤクシシタチョウ",
    "street": null,
    "office_name": null,
    "office_name_kana": null
  },
  "0027": {
    "postcode": "6160027",
    "prefecture": "京都府",
    "prefecture_kana": "キョウトフ",
    "prefecture_code": 26,
    "city": "京都市西京区",
    "city_kana": "キョウトシニシキョウク",
    "town": "嵐山内田町",
    "town_kana": "アラシヤマウチダチョウ",
    "street": null,
    "office_name": null,
    "office_name_kana": null
  },
  "8001": {
    "postcode": "6168001",
    "prefecture": "京都府",
    "prefecture_kana": "キョウトフ",
    "prefecture_code": 26,
    "city": "京都市右京区",
    "city_kana": "キョウトシウキョウク",
    "town": "龍安寺御陵ノ下町",
    "town_kana": "リョウアンジゴリョウノシタチョウ",
    "street": null,
    "office_name": null,
    "office_name_kana": null
  },
  "8002": {
    "postcode": "6168002",
    "prefecture": "京都府",
    "prefecture_kana": "キョウトフ",
    "prefecture_code": 26,
    "city": "京都市右京区",
    "city_kana": "キョウトシウキョウク",
    "town": "龍安寺衣笠下町",
    "town_kana": "リョウアンジキヌガサシタチョウ",
    "street": null,
    "office_name": null,
    "office_name_kana": null
  },
  "8003": {
    "postcode": "6168003",
    "prefecture": "京都府",
    "prefecture_kana": "キョウトフ",
    "prefecture_code": 26,
    "city": "京都市右京区",
    "city_kana": "キョウトシウキョウク",
    "town": "龍安寺池ノ下町",
    "town_kana": "リョウアンジイケノシタチョウ",
    "street": null,
    "office_name": null,
    "office_name_kana": null
  },
  "8004": {
    "postcode": "6168004",
    "prefecture": "京都府",
    "prefecture_kana": "キョウトフ",
    "prefecture_code": 26,
    "city": "京都市右京区",
    "city_kana": "キョウトシウキョウク",
    "town": "龍安寺玉津芝町",
    "town_kana": "リョウアンジタマツシバチョウ",
    "street": null,
    "office_name": null,
    "office_name_kana": null
  },
  "8005": {
    "postcode": "6168005",
    "prefecture": "京都府",
    "prefecture_kana": "キョウトフ",
    "prefecture_code": 26,
    "city": "京都市右京区",
    "city_kana": "キョウトシウキョウク",
    "town": "龍安寺塔ノ下町",
    "town_kana": "リョウアンジトウノシタチョウ",
    "street": null,
    "office_name": null,
    "office_name_kana": null
  },
  "8006": {
    "postcode": "6168006",
    "prefecture": "京都府",
    "prefecture_kana": "キョウトフ",
    "prefecture_code": 26,
    "city": "京都市右京区",
    "city_kana": "キョウトシウキョウク",
    "town": "龍安寺住吉町",
    "town_kana": "リョウアンジスミヨシチョウ",
    "street": null,
    "office_name": null,
    "office_name_kana": null
  },
  "8007": {
    "postcode": "6168007",
    "prefecture": "京都府",
    "prefecture_kana": "キョウトフ",
    "prefecture_code": 26,
    "city": "京都市右京区",
    "city_kana": "キョウトシウキョウク",
    "town": "龍安寺山田町",
    "town_kana": "リョウアンジヤマタチョウ",
    "street": null,
    "office_name": null,
    "office_name_kana": null
  },
  "8011": {
    "postcode": "6168011",
    "prefecture": "京都府",
    "prefecture_kana": "キョウトフ",
    "prefecture_code": 26,
    "city": "京都市右京区",
    "city_kana": "キョウトシウキョウク",
    "town": "龍安寺斎宮町",
    "town_kana": "リョウアンジサイグウチョウ",
    "street": null,
    "office_name": null,
    "office_name_kana": null
  },
  "8012": {
    "postcode": "6168012",
    "prefecture": "京都府",
    "prefecture_kana": "キョウトフ",
    "prefecture_code": 26,
    "city": "京都市右京区",
    "city_kana": "キョウトシウキョウク",
    "town": "谷口垣ノ内町",
    "town_kana": "タニグチカキノウチチョウ",
    "street": null,
    "office_name": null,
    "office_name_kana": null
  },
  "8013": {
    "postcode": "6168013",
    "prefecture": "京都府",
    "prefecture_kana": "キョウトフ",
    "prefecture_code": 26,
    "city": "京都市右京区",
    "city_kana": "キョウトシウキョウク",
    "town": "谷口唐田ノ内町",
    "town_kana": "タニグチカラタノウチチョウ",
    "street": null,
    "office_name": null,
    "office_name_kana": null
  },
  "8014": {
    "postcode": "6168014",
    "prefecture": "京都府",
    "prefecture_kana": "キョウトフ",
    "prefecture_code": 26,
    "city": "京都市右京区",
    "city_kana": "キョウトシウキョウク",
    "town": "谷口梅津間町",
    "town_kana": "タニグチウメヅマチョウ",
    "street": null,
    "office_name": null,
    "office_name_kana": null
  },
  "8015": {
    "postcode": "6168015",
    "prefecture": "京都府",
    "prefecture_kana": "キョウトフ",
    "prefecture_code": 26,
    "city": "京都市右京区",
    "city_kana": "キョウトシウキョウク",
    "town": "谷口園町",
    "town_kana": "タニグチソノマチ",
    "street": null,
    "office_name": null,
    "office_name_kana": null
  },
  "8016": {
    "postcode": "6168016",
    "prefecture": "京都府",
    "prefecture_kana": "キョウトフ",
    "prefecture_code": 26,
    "city": "京都市右京区",
    "city_kana": "キョウトシウキョウク",
    "town": "龍安寺西ノ川町",
    "town_kana": "リョウアンジニシノカワチョウ",
    "street": null,
    "office_name": null,
    "office_name_kana": null
  },
  "8017": {
    "postcode": "6168017",
    "prefecture": "京都府",
    "prefecture_kana": "キョウトフ",
    "prefecture_code": 26,
    "city": "京都市右京区",
    "city_kana": "キョウトシウキョウク",
    "town": "龍安寺五反田町",
    "town_kana": "リョウアンジゴタンダチョウ",
    "street": null,
    "office_name": null,
    "office_name_kana": null
  },
  "8021": {
    "postcode": "6168021",
    "prefecture": "京都府",
    "prefecture_kana": "キョウトフ",
    "prefecture_code": 26,
    "city": "京都市右京区",
    "city_kana": "キョウトシウキョウク",
    "town": "花園天授ケ岡町",
    "town_kana": "ハナゾノテンジュガオカチョウ",
    "street": null,
    "office_name": null,
    "office_name_kana": null
  },
  "8022": {
    "postcode": "6168022",
    "prefecture": "京都府",
    "prefecture_kana": "キョウトフ",
    "prefecture_code": 26,
    "city": "京都市右京区",
    "city_kana": "キョウトシウキョウク",
    "town": "谷口円成寺町",
    "town_kana": "タニグチエンジョウジチョウ",
    "street": null,
    "office_name": null,
    "office_name_kana": null
  },
  "8023": {
    "postcode": "6168023",
    "prefecture": "京都府",
    "prefecture_kana": "キョウトフ",
    "prefecture_code": 26,
    "city": "京都市右京区",
    "city_kana": "キョウトシウキョウク",
    "town": "花園大薮町",
    "town_kana": "ハナゾノオオヤブチョウ",
    "street": null,
    "office_name": null,
    "office_name_kana": null
  },
  "8024": {
    "postcode": "6168024",
    "prefecture": "京都府",
    "prefecture_kana": "キョウトフ",
    "prefecture_code": 26,
    "city": "京都市右京区",
    "city_kana": "キョウトシウキョウク",
    "town": "花園一条田町",
    "town_kana": "ハナゾノイチジョウデンチョウ",
    "street": null,
    "office_name": null,
    "office_name_kana": null
  },
  "8025": {
    "postcode": "6168025",
    "prefecture": "京都府",
    "prefecture_kana": "キョウトフ",
    "prefecture_code": 26,
    "city": "京都市右京区",
    "city_kana": "キョウトシウキョウク",
    "town": "花園土堂町",
    "town_kana": "ハナゾノツチドウチョウ",
    "street": null,
    "office_name": null,
    "office_name_kana": null
  },
  "8026": {
    "postcode": "6168026",
    "prefecture": "京都府",
    "prefecture_kana": "キョウトフ",
    "prefecture_code": 26,
    "city": "京都市右京区",
    "city_kana": "キョウトシウキョウク",
    "town": "花園岡ノ本町",
    "town_kana": "ハナゾノオカノモトチョウ",
    "street": null,
    "office_name": null,
    "office_name_kana": null
  },
  "8027": {
    "postcode": "6168027",
    "prefecture": "京都府",
    "prefecture_kana": "キョウトフ",
    "prefecture_code": 26,
    "city": "京都市右京区",
    "city_kana": "キョウトシウキョウク",
    "town": "花園円成寺町",
    "town_kana": "ハナゾノエンジョウジチョウ",
    "street": null,
    "office_name": null,
    "office_name_kana": null
  },
  "8031": {
    "postcode": "6168031",
    "prefecture": "京都府",
    "prefecture_kana": "キョウトフ",
    "prefecture_code": 26,
    "city": "京都市右京区",
    "city_kana": "キョウトシウキョウク",
    "town": "花園鷹司町",
    "town_kana": "ハナゾノタカツカサチョウ",
    "street": null,
    "office_name": null,
    "office_name_kana": null
  },
  "8032": {
    "postcode": "6168032",
    "prefecture": "京都府",
    "prefecture_kana": "キョウトフ",
    "prefecture_code": 26,
    "city": "京都市右京区",
    "city_kana": "キョウトシウキョウク",
    "town": "花園馬代町",
    "town_kana": "ハナゾノバダイチョウ",
    "street": null,
    "office_name": null,
    "office_name_kana": null
  },
  "8033": {
    "postcode": "6168033",
    "prefecture": "京都府",
    "prefecture_kana": "キョウトフ",
    "prefecture_code": 26,
    "city": "京都市右京区",
    "city_kana": "キョウトシウキョウク",
    "town": "花園艮北町",
    "town_kana": "ハナゾノコンボクチョウ",
    "street": null,
    "office_name": null,
    "office_name_kana": null
  },
  "8034": {
    "postcode": "6168034",
    "prefecture": "京都府",
    "prefecture_kana": "キョウトフ",
    "prefecture_code": 26,
    "city": "京都市右京区",
    "city_kana": "キョウトシウキョウク",
    "town": "花園木辻北町",
    "town_kana": "ハナゾノキツジキタマチ",
    "street": null,
    "office_name": null,
    "office_name_kana": null
  },
  "8035": {
    "postcode": "6168035",
    "prefecture": "京都府",
    "prefecture_kana": "キョウトフ",
    "prefecture_code": 26,
    "city": "京都市右京区",
    "city_kana": "キョウトシウキョウク",
    "town": "花園妙心寺町",
    "town_kana": "ハナゾノミョウシンジチョウ",
    "street": null,
    "office_name": null,
    "office_name_kana": null
  },
  "8036": {
    "postcode": "6168036",
    "prefecture": "京都府",
    "prefecture_kana": "キョウトフ",
    "prefecture_code": 26,
    "city": "京都市右京区",
    "city_kana": "キョウトシウキョウク",
    "town": "花園寺ノ中町",
    "town_kana": "ハナゾノテラノナカチョウ",
    "street": null,
    "office_name": null,
    "office_name_kana": null
  },
  "8037": {
    "postcode": "6168037",
    "prefecture": "京都府",
    "prefecture_kana": "キョウトフ",
    "prefecture_code": 26,
    "city": "京都市右京区",
    "city_kana": "キョウトシウキョウク",
    "town": "花園猪ノ毛町",
    "town_kana": "ハナゾノイノケチョウ",
    "street": null,
    "office_name": null,
    "office_name_kana": null
  },
  "8041": {
    "postcode": "6168041",
    "prefecture": "京都府",
    "prefecture_kana": "キョウトフ",
    "prefecture_code": 26,
    "city": "京都市右京区",
    "city_kana": "キョウトシウキョウク",
    "town": "花園寺ノ前町",
    "town_kana": "ハナゾノテラノマエチョウ",
    "street": null,
    "office_name": null,
    "office_name_kana": null
  },
  "8042": {
    "postcode": "6168042",
    "prefecture": "京都府",
    "prefecture_kana": "キョウトフ",
    "prefecture_code": 26,
    "city": "京都市右京区",
    "city_kana": "キョウトシウキョウク",
    "town": "花園伊町",
    "town_kana": "ハナゾノイマチ",
    "street": null,
    "office_name": null,
    "office_name_kana": null
  },
  "8043": {
    "postcode": "6168043",
    "prefecture": "京都府",
    "prefecture_kana": "キョウトフ",
    "prefecture_code": 26,
    "city": "京都市右京区",
    "city_kana": "キョウトシウキョウク",
    "town": "花園寺ノ内町",
    "town_kana": "ハナゾノテラノウチチョウ",
    "street": null,
    "office_name": null,
    "office_name_kana": null
  },
  "8044": {
    "postcode": "6168044",
    "prefecture": "京都府",
    "prefecture_kana": "キョウトフ",
    "prefecture_code": 26,
    "city": "京都市右京区",
    "city_kana": "キョウトシウキョウク",
    "town": "花園扇野町",
    "town_kana": "ハナゾノオウギノチョウ",
    "street": null,
    "office_name": null,
    "office_name_kana": null
  },
  "8045": {
    "postcode": "6168045",
    "prefecture": "京都府",
    "prefecture_kana": "キョウトフ",
    "prefecture_code": 26,
    "city": "京都市右京区",
    "city_kana": "キョウトシウキョウク",
    "town": "花園内畑町",
    "town_kana": "ハナゾノウチハタチョウ",
    "street": null,
    "office_name": null,
    "office_name_kana": null
  },
  "8046": {
    "postcode": "6168046",
    "prefecture": "京都府",
    "prefecture_kana": "キョウトフ",
    "prefecture_code": 26,
    "city": "京都市右京区",
    "city_kana": "キョウトシウキョウク",
    "town": "花園段ノ岡町",
    "town_kana": "ハナゾノダンノオカチョウ",
    "street": null,
    "office_name": null,
    "office_name_kana": null
  },
  "8047": {
    "postcode": "6168047",
    "prefecture": "京都府",
    "prefecture_kana": "キョウトフ",
    "prefecture_code": 26,
    "city": "京都市右京区",
    "city_kana": "キョウトシウキョウク",
    "town": "花園宮ノ上町",
    "town_kana": "ハナゾノミヤノカミチョウ",
    "street": null,
    "office_name": null,
    "office_name_kana": null
  },
  "8051": {
    "postcode": "6168051",
    "prefecture": "京都府",
    "prefecture_kana": "キョウトフ",
    "prefecture_code": 26,
    "city": "京都市右京区",
    "city_kana": "キョウトシウキョウク",
    "town": "花園巽南町",
    "town_kana": "ハナゾノソンナンチョウ",
    "street": null,
    "office_name": null,
    "office_name_kana": null
  },
  "8052": {
    "postcode": "6168052",
    "prefecture": "京都府",
    "prefecture_kana": "キョウトフ",
    "prefecture_code": 26,
    "city": "京都市右京区",
    "city_kana": "キョウトシウキョウク",
    "town": "花園薮ノ下町",
    "town_kana": "ハナゾノヤブノシタチョウ",
    "street": null,
    "office_name": null,
    "office_name_kana": null
  },
  "8053": {
    "postcode": "6168053",
    "prefecture": "京都府",
    "prefecture_kana": "キョウトフ",
    "prefecture_code": 26,
    "city": "京都市右京区",
    "city_kana": "キョウトシウキョウク",
    "town": "花園八ツ口町",
    "town_kana": "ハナゾノヤツクチチョウ",
    "street": null,
    "office_name": null,
    "office_name_kana": null
  },
  "8054": {
    "postcode": "6168054",
    "prefecture": "京都府",
    "prefecture_kana": "キョウトフ",
    "prefecture_code": 26,
    "city": "京都市右京区",
    "city_kana": "キョウトシウキョウク",
    "town": "花園中御門町",
    "town_kana": "ハナゾノナカミカドチョウ",
    "street": null,
    "office_name": null,
    "office_name_kana": null
  },
  "8055": {
    "postcode": "6168055",
    "prefecture": "京都府",
    "prefecture_kana": "キョウトフ",
    "prefecture_code": 26,
    "city": "京都市右京区",
    "city_kana": "キョウトシウキョウク",
    "town": "花園車道町",
    "town_kana": "ハナゾノクルマミチチョウ",
    "street": null,
    "office_name": null,
    "office_name_kana": null
  },
  "8056": {
    "postcode": "6168056",
    "prefecture": "京都府",
    "prefecture_kana": "キョウトフ",
    "prefecture_code": 26,
    "city": "京都市右京区",
    "city_kana": "キョウトシウキョウク",
    "town": "花園坤南町",
    "town_kana": "ハナゾノコンナンチョウ",
    "street": null,
    "office_name": null,
    "office_name_kana": null
  },
  "8057": {
    "postcode": "6168057",
    "prefecture": "京都府",
    "prefecture_kana": "キョウトフ",
    "prefecture_code": 26,
    "city": "京都市右京区",
    "city_kana": "キョウトシウキョウク",
    "town": "花園木辻南町",
    "town_kana": "ハナゾノキツジミナミチョウ",
    "street": null,
    "office_name": null,
    "office_name_kana": null
  },
  "8061": {
    "postcode": "6168061",
    "prefecture": "京都府",
    "prefecture_kana": "キョウトフ",
    "prefecture_code": 26,
    "city": "京都市右京区",
    "city_kana": "キョウトシウキョウク",
    "town": "花園春日町",
    "town_kana": "ハナゾノカスガチョウ",
    "street": null,
    "office_name": null,
    "office_name_kana": null
  },
  "8062": {
    "postcode": "6168062",
    "prefecture": "京都府",
    "prefecture_kana": "キョウトフ",
    "prefecture_code": 26,
    "city": "京都市右京区",
    "city_kana": "キョウトシウキョウク",
    "town": "太秦安井春日町",
    "town_kana": "ウズマサヤスイカスガチョウ",
    "street": null,
    "office_name": null,
    "office_name_kana": null
  },
  "8063": {
    "postcode": "6168063",
    "prefecture": "京都府",
    "prefecture_kana": "キョウトフ",
    "prefecture_code": 26,
    "city": "京都市右京区",
    "city_kana": "キョウトシウキョウク",
    "town": "太秦安井東裏町",
    "town_kana": "ウズマサヤスイヒガシウラチョウ",
    "street": null,
    "office_name": null,
    "office_name_kana": null
  },
  "8064": {
    "postcode": "6168064",
    "prefecture": "京都府",
    "prefecture_kana": "キョウトフ",
    "prefecture_code": 26,
    "city": "京都市右京区",
    "city_kana": "キョウトシウキョウク",
    "town": "太秦安井北御所町",
    "town_kana": "ウズマサヤスイキタゴショチョウ",
    "street": null,
    "office_name": null,
    "office_name_kana": null
  },
  "8065": {
    "postcode": "6168065",
    "prefecture": "京都府",
    "prefecture_kana": "キョウトフ",
    "prefecture_code": 26,
    "city": "京都市右京区",
    "city_kana": "キョウトシウキョウク",
    "town": "太秦安井西裏町",
    "town_kana": "ウズマサヤスイニシウラチョウ",
    "street": null,
    "office_name": null,
    "office_name_kana": null
  },
  "8066": {
    "postcode": "6168066",
    "prefecture": "京都府",
    "prefecture_kana": "キョウトフ",
    "prefecture_code": 26,
    "city": "京都市右京区",
    "city_kana": "キョウトシウキョウク",
    "town": "太秦安井車道町",
    "town_kana": "ウズマサヤスイクルマミチチョウ",
    "street": null,
    "office_name": null,
    "office_name_kana": null
  },
  "8067": {
    "postcode": "6168067",
    "prefecture": "京都府",
    "prefecture_kana": "キョウトフ",
    "prefecture_code": 26,
    "city": "京都市右京区",
    "city_kana": "キョウトシウキョウク",
    "town": "太秦安井小山町",
    "town_kana": "ウズマサヤスイコヤマチョウ",
    "street": null,
    "office_name": null,
    "office_name_kana": null
  },
  "8071": {
    "postcode": "6168071",
    "prefecture": "京都府",
    "prefecture_kana": "キョウトフ",
    "prefecture_code": 26,
    "city": "京都市右京区",
    "city_kana": "キョウトシウキョウク",
    "town": "太秦安井藤ノ木町",
    "town_kana": "ウズマサヤスイフジノキチョウ",
    "street": null,
    "office_name": null,
    "office_name_kana": null
  },
  "8072": {
    "postcode": "6168072",
    "prefecture": "京都府",
    "prefecture_kana": "キョウトフ",
    "prefecture_code": 26,
    "city": "京都市右京区",
    "city_kana": "キョウトシウキョウク",
    "town": "太秦安井辰巳町",
    "town_kana": "ウズマサヤスイタツミチョウ",
    "street": null,
    "office_name": null,
    "office_name_kana": null
  },
  "8073": {
    "postcode": "6168073",
    "prefecture": "京都府",
    "prefecture_kana": "キョウトフ",
    "prefecture_code": 26,
    "city": "京都市右京区",
    "city_kana": "キョウトシウキョウク",
    "town": "太秦安井水戸田町",
    "town_kana": "ウズマサヤスイミトデンチョウ",
    "street": null,
    "office_name": null,
    "office_name_kana": null
  },
  "8074": {
    "postcode": "6168074",
    "prefecture": "京都府",
    "prefecture_kana": "キョウトフ",
    "prefecture_code": 26,
    "city": "京都市右京区",
    "city_kana": "キョウトシウキョウク",
    "town": "太秦安井二条裏町",
    "town_kana": "ウズマサヤスイニジョウウラチョウ",
    "street": null,
    "office_name": null,
    "office_name_kana": null
  },
  "8075": {
    "postcode": "6168075",
    "prefecture": "京都府",
    "prefecture_kana": "キョウトフ",
    "prefecture_code": 26,
    "city": "京都市右京区",
    "city_kana": "キョウトシウキョウク",
    "town": "太秦安井柳通町",
    "town_kana": "ウズマサヤスイヤナギドオリチョウ",
    "street": null,
    "office_name": null,
    "office_name_kana": null
  },
  "8076": {
    "postcode": "6168076",
    "prefecture": "京都府",
    "prefecture_kana": "キョウトフ",
    "prefecture_code": 26,
    "city": "京都市右京区",
    "city_kana": "キョウトシウキョウク",
    "town": "太秦安井辻ノ内町",
    "town_kana": "ウズマサヤスイツジノウチチョウ",
    "street": null,
    "office_name": null,
    "office_name_kana": null
  },
  "8077": {
    "postcode": "6168077",
    "prefecture": "京都府",
    "prefecture_kana": "キョウトフ",
    "prefecture_code": 26,
    "city": "京都市右京区",
    "city_kana": "キョウトシウキョウク",
    "town": "太秦安井馬塚町",
    "town_kana": "ウズマサヤスイウマヅカチョウ",
    "street": null,
    "office_name": null,
    "office_name_kana": null
  },
  "8081": {
    "postcode": "6168081",
    "prefecture": "京都府",
    "prefecture_kana": "キョウトフ",
    "prefecture_code": 26,
    "city": "京都市右京区",
    "city_kana": "キョウトシウキョウク",
    "town": "太秦安井池田町",
    "town_kana": "ウズマサヤスイイケダチョウ",
    "street": null,
    "office_name": null,
    "office_name_kana": null
  },
  "8082": {
    "postcode": "6168082",
    "prefecture": "京都府",
    "prefecture_kana": "キョウトフ",
    "prefecture_code": 26,
    "city": "京都市右京区",
    "city_kana": "キョウトシウキョウク",
    "town": "太秦安井奥畑町",
    "town_kana": "ウズマサヤスイオクハタチョウ",
    "street": null,
    "office_name": null,
    "office_name_kana": null
  },
  "8083": {
    "postcode": "6168083",
    "prefecture": "京都府",
    "prefecture_kana": "キョウトフ",
    "prefecture_code": 26,
    "city": "京都市右京区",
    "city_kana": "キョウトシウキョウク",
    "town": "太秦安井西沢町",
    "town_kana": "ウズマサヤスイニシザワチョウ",
    "street": null,
    "office_name": null,
    "office_name_kana": null
  },
  "8084": {
    "postcode": "6168084",
    "prefecture": "京都府",
    "prefecture_kana": "キョウトフ",
    "prefecture_code": 26,
    "city": "京都市右京区",
    "city_kana": "キョウトシウキョウク",
    "town": "太秦安井一町田町",
    "town_kana": "ウズマサヤスイイッチョウデンチョウ",
    "street": null,
    "office_name": null,
    "office_name_kana": null
  },
  "8085": {
    "postcode": "6168085",
    "prefecture": "京都府",
    "prefecture_kana": "キョウトフ",
    "prefecture_code": 26,
    "city": "京都市右京区",
    "city_kana": "キョウトシウキョウク",
    "town": "太秦安井松本町",
    "town_kana": "ウズマサヤスイマツモトチョウ",
    "street": null,
    "office_name": null,
    "office_name_kana": null
  },
  "8091": {
    "postcode": "6168091",
    "prefecture": "京都府",
    "prefecture_kana": "キョウトフ",
    "prefecture_code": 26,
    "city": "京都市右京区",
    "city_kana": "キョウトシウキョウク",
    "town": "御室住吉山町",
    "town_kana": "オムロスミヨシヤマチョウ",
    "street": null,
    "office_name": null,
    "office_name_kana": null
  },
  "8092": {
    "postcode": "6168092",
    "prefecture": "京都府",
    "prefecture_kana": "キョウトフ",
    "prefecture_code": 26,
    "city": "京都市右京区",
    "city_kana": "キョウトシウキョウク",
    "town": "御室大内",
    "town_kana": "オムロオオウチ",
    "street": null,
    "office_name": null,
    "office_name_kana": null
  },
  "8093": {
    "postcode": "6168093",
    "prefecture": "京都府",
    "prefecture_kana": "キョウトフ",
    "prefecture_code": 26,
    "city": "京都市右京区",
    "city_kana": "キョウトシウキョウク",
    "town": "御室竪町",
    "town_kana": "オムロタテマチ",
    "street": null,
    "office_name": null,
    "office_name_kana": null
  },
  "8094": {
    "postcode": "6168094",
    "prefecture": "京都府",
    "prefecture_kana": "キョウトフ",
    "prefecture_code": 26,
    "city": "京都市右京区",
    "city_kana": "キョウトシウキョウク",
    "town": "御室小松野町",
    "town_kana": "オムロコマツノチョウ",
    "street": null,
    "office_name": null,
    "office_name_kana": null
  },
  "8095": {
    "postcode": "6168095",
    "prefecture": "京都府",
    "prefecture_kana": "キョウトフ",
    "prefecture_code": 26,
    "city": "京都市右京区",
    "city_kana": "キョウトシウキョウク",
    "town": "御室芝橋町",
    "town_kana": "オムロシバハシチョウ",
    "street": null,
    "office_name": null,
    "office_name_kana": null
  },
  "8096": {
    "postcode": "6168096",
    "prefecture": "京都府",
    "prefecture_kana": "キョウトフ",
    "prefecture_code": 26,
    "city": "京都市右京区",
    "city_kana": "キョウトシウキョウク",
    "town": "御室岡ノ裾町",
    "town_kana": "オムロオカノスソチョウ",
    "street": null,
    "office_name": null,
    "office_name_kana": null
  },
  "8097": {
    "postcode": "6168097",
    "prefecture": "京都府",
    "prefecture_kana": "キョウトフ",
    "prefecture_code": 26,
    "city": "京都市右京区",
    "city_kana": "キョウトシウキョウク",
    "town": "御室双岡町",
    "town_kana": "オムロナラビガオカチョウ",
    "street": null,
    "office_name": null,
    "office_name_kana": null
  },
  "8101": {
    "postcode": "6168101",
    "prefecture": "京都府",
    "prefecture_kana": "キョウトフ",
    "prefecture_code": 26,
    "city": "京都市右京区",
    "city_kana": "キョウトシウキョウク",
    "town": "太秦和泉式部町",
    "town_kana": "ウズマサイズミシキブチョウ",
    "street": null,
    "office_name": null,
    "office_name_kana": null
  },
  "8102": {
    "postcode": "6168102",
    "prefecture": "京都府",
    "prefecture_kana": "キョウトフ",
    "prefecture_code": 26,
    "city": "京都市右京区",
    "city_kana": "キョウトシウキョウク",
    "town": "太秦森ケ東町",
    "town_kana": "ウズマサモリガヒガシチョウ",
    "street": null,
    "office_name": null,
    "office_name_kana": null
  },
  "8103": {
    "postcode": "6168103",
    "prefecture": "京都府",
    "prefecture_kana": "キョウトフ",
    "prefecture_code": 26,
    "city": "京都市右京区",
    "city_kana": "キョウトシウキョウク",
    "town": "太秦上刑部町",
    "town_kana": "ウズマサカミケイブチョウ",
    "street": null,
    "office_name": null,
    "office_name_kana": null
  },
  "8104": {
    "postcode": "6168104",
    "prefecture": "京都府",
    "prefecture_kana": "キョウトフ",
    "prefecture_code": 26,
    "city": "京都市右京区",
    "city_kana": "キョウトシウキョウク",
    "town": "太秦下刑部町",
    "town_kana": "ウズマサシモケイブチョウ",
    "street": null,
    "office_name": null,
    "office_name_kana": null
  },
  "8105": {
    "postcode": "6168105",
    "prefecture": "京都府",
    "prefecture_kana": "キョウトフ",
    "prefecture_code": 26,
    "city": "京都市右京区",
    "city_kana": "キョウトシウキョウク",
    "town": "太秦森ケ前町",
    "town_kana": "ウズマサモリガマエチョウ",
    "street": null,
    "office_name": null,
    "office_name_kana": null
  },
  "8106": {
    "postcode": "6168106",
    "prefecture": "京都府",
    "prefecture_kana": "キョウトフ",
    "prefecture_code": 26,
    "city": "京都市右京区",
    "city_kana": "キョウトシウキョウク",
    "town": "太秦森ケ西町",
    "town_kana": "ウズマサモリガニシチョウ",
    "street": null,
    "office_name": null,
    "office_name_kana": null
  },
  "8107": {
    "postcode": "6168107",
    "prefecture": "京都府",
    "prefecture_kana": "キョウトフ",
    "prefecture_code": 26,
    "city": "京都市右京区",
    "city_kana": "キョウトシウキョウク",
    "town": "太秦一ノ井町",
    "town_kana": "ウズマサイチノイチョウ",
    "street": null,
    "office_name": null,
    "office_name_kana": null
  },
  "8111": {
    "postcode": "6168111",
    "prefecture": "京都府",
    "prefecture_kana": "キョウトフ",
    "prefecture_code": 26,
    "city": "京都市右京区",
    "city_kana": "キョウトシウキョウク",
    "town": "太秦下角田町",
    "town_kana": "ウズマサシモカクダチョウ",
    "street": null,
    "office_name": null,
    "office_name_kana": null
  },
  "8112": {
    "postcode": "6168112",
    "prefecture": "京都府",
    "prefecture_kana": "キョウトフ",
    "prefecture_code": 26,
    "city": "京都市右京区",
    "city_kana": "キョウトシウキョウク",
    "town": "太秦木ノ下町",
    "town_kana": "ウズマサキノシタチョウ",
    "street": null,
    "office_name": null,
    "office_name_kana": null
  },
  "8113": {
    "postcode": "6168113",
    "prefecture": "京都府",
    "prefecture_kana": "キョウトフ",
    "prefecture_code": 26,
    "city": "京都市右京区",
    "city_kana": "キョウトシウキョウク",
    "town": "太秦野元町",
    "town_kana": "ウズマサノモトチョウ",
    "street": null,
    "office_name": null,
    "office_name_kana": null
  },
  "8114": {
    "postcode": "6168114",
    "prefecture": "京都府",
    "prefecture_kana": "キョウトフ",
    "prefecture_code": 26,
    "city": "京都市右京区",
    "city_kana": "キョウトシウキョウク",
    "town": "太秦巽町",
    "town_kana": "ウズマサタツミチョウ",
    "street": null,
    "office_name": null,
    "office_name_kana": null
  },
  "8115": {
    "postcode": "6168115",
    "prefecture": "京都府",
    "prefecture_kana": "キョウトフ",
    "prefecture_code": 26,
    "city": "京都市右京区",
    "city_kana": "キョウトシウキョウク",
    "town": "太秦東唐渡町",
    "town_kana": "ウズマサヒガシカラトチョウ",
    "street": null,
    "office_name": null,
    "office_name_kana": null
  },
  "8116": {
    "postcode": "6168116",
    "prefecture": "京都府",
    "prefecture_kana": "キョウトフ",
    "prefecture_code": 26,
    "city": "京都市右京区",
    "city_kana": "キョウトシウキョウク",
    "town": "太秦松本町",
    "town_kana": "ウズマサマツモトチョウ",
    "street": null,
    "office_name": null,
    "office_name_kana": null
  },
  "8117": {
    "postcode": "6168117",
    "prefecture": "京都府",
    "prefecture_kana": "キョウトフ",
    "prefecture_code": 26,
    "city": "京都市右京区",
    "city_kana": "キョウトシウキョウク",
    "town": "太秦門田町",
    "town_kana": "ウズマサモンダチョウ",
    "street": null,
    "office_name": null,
    "office_name_kana": null
  },
  "8121": {
    "postcode": "6168121",
    "prefecture": "京都府",
    "prefecture_kana": "キョウトフ",
    "prefecture_code": 26,
    "city": "京都市右京区",
    "city_kana": "キョウトシウキョウク",
    "town": "太秦垣内町",
    "town_kana": "ウズマサカキウチチョウ",
    "street": null,
    "office_name": null,
    "office_name_kana": null
  },
  "8122": {
    "postcode": "6168122",
    "prefecture": "京都府",
    "prefecture_kana": "キョウトフ",
    "prefecture_code": 26,
    "city": "京都市右京区",
    "city_kana": "キョウトシウキョウク",
    "town": "太秦井戸ケ尻町",
    "town_kana": "ウズマサイドガジリチョウ",
    "street": null,
    "office_name": null,
    "office_name_kana": null
  },
  "8123": {
    "postcode": "6168123",
    "prefecture": "京都府",
    "prefecture_kana": "キョウトフ",
    "prefecture_code": 26,
    "city": "京都市右京区",
    "city_kana": "キョウトシウキョウク",
    "town": "太秦海正寺町",
    "town_kana": "ウズマサカイショウジチョウ",
    "street": null,
    "office_name": null,
    "office_name_kana": null
  },
  "8124": {
    "postcode": "6168124",
    "prefecture": "京都府",
    "prefecture_kana": "キョウトフ",
    "prefecture_code": 26,
    "city": "京都市右京区",
    "city_kana": "キョウトシウキョウク",
    "town": "太秦辻ケ本町",
    "town_kana": "ウズマサツジガモトチョウ",
    "street": null,
    "office_name": null,
    "office_name_kana": null
  },
  "8125": {
    "postcode": "6168125",
    "prefecture": "京都府",
    "prefecture_kana": "キョウトフ",
    "prefecture_code": 26,
    "city": "京都市右京区",
    "city_kana": "キョウトシウキョウク",
    "town": "太秦組石町",
    "town_kana": "ウズマサクミイシチョウ",
    "street": null,
    "office_name": null,
    "office_name_kana": null
  },
  "8126": {
    "postcode": "6168126",
    "prefecture": "京都府",
    "prefecture_kana": "キョウトフ",
    "prefecture_code": 26,
    "city": "京都市右京区",
    "city_kana": "キョウトシウキョウク",
    "town": "太秦椙ケ本町",
    "town_kana": "ウズマサスガモトチョウ",
    "street": null,
    "office_name": null,
    "office_name_kana": null
  },
  "8127": {
    "postcode": "6168127",
    "prefecture": "京都府",
    "prefecture_kana": "キョウトフ",
    "prefecture_code": 26,
    "city": "京都市右京区",
    "city_kana": "キョウトシウキョウク",
    "town": "太秦奥殿町",
    "town_kana": "ウズマサオクドノチョウ",
    "street": null,
    "office_name": null,
    "office_name_kana": null
  },
  "8131": {
    "postcode": "6168131",
    "prefecture": "京都府",
    "prefecture_kana": "キョウトフ",
    "prefecture_code": 26,
    "city": "京都市右京区",
    "city_kana": "キョウトシウキョウク",
    "town": "太秦藤ケ森町",
    "town_kana": "ウズマサフジガモリチョウ",
    "street": null,
    "office_name": null,
    "office_name_kana": null
  },
  "8132": {
    "postcode": "6168132",
    "prefecture": "京都府",
    "prefecture_kana": "キョウトフ",
    "prefecture_code": 26,
    "city": "京都市右京区",
    "city_kana": "キョウトシウキョウク",
    "town": "太秦滝ケ花町",
    "town_kana": "ウズマサタキガハナチョウ",
    "street": null,
    "office_name": null,
    "office_name_kana": null
  },
  "8133": {
    "postcode": "6168133",
    "prefecture": "京都府",
    "prefecture_kana": "キョウトフ",
    "prefecture_code": 26,
    "city": "京都市右京区",
    "city_kana": "キョウトシウキョウク",
    "town": "太秦中堤町",
    "town_kana": "ウズマサナカツツミチョウ",
    "street": null,
    "office_name": null,
    "office_name_kana": null
  },
  "8134": {
    "postcode": "6168134",
    "prefecture": "京都府",
    "prefecture_kana": "キョウトフ",
    "prefecture_code": 26,
    "city": "京都市右京区",
    "city_kana": "キョウトシウキョウク",
    "town": "太秦唐渡町",
    "town_kana": "ウズマサカラトチョウ",
    "street": null,
    "office_name": null,
    "office_name_kana": null
  },
  "8135": {
    "postcode": "6168135",
    "prefecture": "京都府",
    "prefecture_kana": "キョウトフ",
    "prefecture_code": 26,
    "city": "京都市右京区",
    "city_kana": "キョウトシウキョウク",
    "town": "太秦小手角町",
    "town_kana": "ウズマサコテスミチョウ",
    "street": null,
    "office_name": null,
    "office_name_kana": null
  },
  "8136": {
    "postcode": "6168136",
    "prefecture": "京都府",
    "prefecture_kana": "キョウトフ",
    "prefecture_code": 26,
    "city": "京都市右京区",
    "city_kana": "キョウトシウキョウク",
    "town": "太秦荒木町",
    "town_kana": "ウズマサアラキチョウ",
    "street": null,
    "office_name": null,
    "office_name_kana": null
  },
  "8137": {
    "postcode": "6168137",
    "prefecture": "京都府",
    "prefecture_kana": "キョウトフ",
    "prefecture_code": 26,
    "city": "京都市右京区",
    "city_kana": "キョウトシウキョウク",
    "town": "太秦朱雀町",
    "town_kana": "ウズマサスジャクチョウ",
    "street": null,
    "office_name": null,
    "office_name_kana": null
  },
  "8141": {
    "postcode": "6168141",
    "prefecture": "京都府",
    "prefecture_kana": "キョウトフ",
    "prefecture_code": 26,
    "city": "京都市右京区",
    "city_kana": "キョウトシウキョウク",
    "town": "太秦棚森町",
    "town_kana": "ウズマサタナモリチョウ",
    "street": null,
    "office_name": null,
    "office_name_kana": null
  },
  "8142": {
    "postcode": "6168142",
    "prefecture": "京都府",
    "prefecture_kana": "キョウトフ",
    "prefecture_code": 26,
    "city": "京都市右京区",
    "city_kana": "キョウトシウキョウク",
    "town": "太秦樋ノ内町",
    "town_kana": "ウズマサヒノウチチョウ",
    "street": null,
    "office_name": null,
    "office_name_kana": null
  },
  "8143": {
    "postcode": "6168143",
    "prefecture": "京都府",
    "prefecture_kana": "キョウトフ",
    "prefecture_code": 26,
    "city": "京都市右京区",
    "city_kana": "キョウトシウキョウク",
    "town": "太秦川所町",
    "town_kana": "ウズマサカワドコロチョウ",
    "street": null,
    "office_name": null,
    "office_name_kana": null
  },
  "8144": {
    "postcode": "6168144",
    "prefecture": "京都府",
    "prefecture_kana": "キョウトフ",
    "prefecture_code": 26,
    "city": "京都市右京区",
    "city_kana": "キョウトシウキョウク",
    "town": "太秦百合ケ本町",
    "town_kana": "ウズマサユリガモトチョウ",
    "street": null,
    "office_name": null,
    "office_name_kana": null
  },
  "8145": {
    "postcode": "6168145",
    "prefecture": "京都府",
    "prefecture_kana": "キョウトフ",
    "prefecture_code": 26,
    "city": "京都市右京区",
    "city_kana": "キョウトシウキョウク",
    "town": "太秦八反田町",
    "town_kana": "ウズマサハッタンダチョウ",
    "street": null,
    "office_name": null,
    "office_name_kana": null
  },
  "8146": {
    "postcode": "6168146",
    "prefecture": "京都府",
    "prefecture_kana": "キョウトフ",
    "prefecture_code": 26,
    "city": "京都市右京区",
    "city_kana": "キョウトシウキョウク",
    "town": "太秦前ノ田町",
    "town_kana": "ウズマサマエノダチョウ",
    "street": null,
    "office_name": null,
    "office_name_kana": null
  },
  "8147": {
    "postcode": "6168147",
    "prefecture": "京都府",
    "prefecture_kana": "キョウトフ",
    "prefecture_code": 26,
    "city": "京都市右京区",
    "city_kana": "キョウトシウキョウク",
    "town": "太秦土本町",
    "town_kana": "ウズマサツチモトチョウ",
    "street": null,
    "office_name": null,
    "office_name_kana": null
  },
  "8151": {
    "postcode": "6168151",
    "prefecture": "京都府",
    "prefecture_kana": "キョウトフ",
    "prefecture_code": 26,
    "city": "京都市右京区",
    "city_kana": "キョウトシウキョウク",
    "town": "太秦帷子ケ辻町",
    "town_kana": "ウズマサカタビラノツジチョウ",
    "street": null,
    "office_name": null,
    "office_name_kana": null
  },
  "8152": {
    "postcode": "6168152",
    "prefecture": "京都府",
    "prefecture_kana": "キョウトフ",
    "prefecture_code": 26,
    "city": "京都市右京区",
    "city_kana": "キョウトシウキョウク",
    "town": "太秦堀ケ内町",
    "town_kana": "ウズマサホリガウチチョウ",
    "street": null,
    "office_name": null,
    "office_name_kana": null
  },
  "8153": {
    "postcode": "6168153",
    "prefecture": "京都府",
    "prefecture_kana": "キョウトフ",
    "prefecture_code": 26,
    "city": "京都市右京区",
    "city_kana": "キョウトシウキョウク",
    "town": "太秦面影町",
    "town_kana": "ウズマサオモカゲチョウ",
    "street": null,
    "office_name": null,
    "office_name_kana": null
  },
  "8154": {
    "postcode": "6168154",
    "prefecture": "京都府",
    "prefecture_kana": "キョウトフ",
    "prefecture_code": 26,
    "city": "京都市右京区",
    "city_kana": "キョウトシウキョウク",
    "town": "太秦皆正寺町",
    "town_kana": "ウズマサミナセイジチョウ",
    "street": null,
    "office_name": null,
    "office_name_kana": null
  },
  "8155": {
    "postcode": "6168155",
    "prefecture": "京都府",
    "prefecture_kana": "キョウトフ",
    "prefecture_code": 26,
    "city": "京都市右京区",
    "city_kana": "キョウトシウキョウク",
    "town": "太秦袴田町",
    "town_kana": "ウズマサハカマダチョウ",
    "street": null,
    "office_name": null,
    "office_name_kana": null
  },
  "8156": {
    "postcode": "6168156",
    "prefecture": "京都府",
    "prefecture_kana": "キョウトフ",
    "prefecture_code": 26,
    "city": "京都市右京区",
    "city_kana": "キョウトシウキョウク",
    "town": "太秦西野町",
    "town_kana": "ウズマサニシノチョウ",
    "street": null,
    "office_name": null,
    "office_name_kana": null
  },
  "8157": {
    "postcode": "6168157",
    "prefecture": "京都府",
    "prefecture_kana": "キョウトフ",
    "prefecture_code": 26,
    "city": "京都市右京区",
    "city_kana": "キョウトシウキョウク",
    "town": "太秦御所ノ内町",
    "town_kana": "ウズマサゴショノウチチョウ",
    "street": null,
    "office_name": null,
    "office_name_kana": null
  },
  "8161": {
    "postcode": "6168161",
    "prefecture": "京都府",
    "prefecture_kana": "キョウトフ",
    "prefecture_code": 26,
    "city": "京都市右京区",
    "city_kana": "キョウトシウキョウク",
    "town": "太秦東蜂岡町",
    "town_kana": "ウズマサヒガシハチオカチョウ",
    "street": null,
    "office_name": null,
    "office_name_kana": null
  },
  "8162": {
    "postcode": "6168162",
    "prefecture": "京都府",
    "prefecture_kana": "キョウトフ",
    "prefecture_code": 26,
    "city": "京都市右京区",
    "city_kana": "キョウトシウキョウク",
    "town": "太秦蜂岡町",
    "town_kana": "ウズマサハチオカチョウ",
    "street": null,
    "office_name": null,
    "office_name_kana": null
  },
  "8163": {
    "postcode": "6168163",
    "prefecture": "京都府",
    "prefecture_kana": "キョウトフ",
    "prefecture_code": 26,
    "city": "京都市右京区",
    "city_kana": "キョウトシウキョウク",
    "town": "太秦西蜂岡町",
    "town_kana": "ウズマサニシハチオカチョウ",
    "street": null,
    "office_name": null,
    "office_name_kana": null
  },
  "8164": {
    "postcode": "6168164",
    "prefecture": "京都府",
    "prefecture_kana": "キョウトフ",
    "prefecture_code": 26,
    "city": "京都市右京区",
    "city_kana": "キョウトシウキョウク",
    "town": "太秦桂木町",
    "town_kana": "ウズマサカツラギチョウ",
    "street": null,
    "office_name": null,
    "office_name_kana": null
  },
  "8165": {
    "postcode": "6168165",
    "prefecture": "京都府",
    "prefecture_kana": "キョウトフ",
    "prefecture_code": 26,
    "city": "京都市右京区",
    "city_kana": "キョウトシウキョウク",
    "town": "太秦桂ケ原町",
    "town_kana": "ウズマサカツラガハラチョウ",
    "street": null,
    "office_name": null,
    "office_name_kana": null
  },
  "8166": {
    "postcode": "6168166",
    "prefecture": "京都府",
    "prefecture_kana": "キョウトフ",
    "prefecture_code": 26,
    "city": "京都市右京区",
    "city_kana": "キョウトシウキョウク",
    "town": "太秦石垣町",
    "town_kana": "ウズマサイシガキチョウ",
    "street": null,
    "office_name": null,
    "office_name_kana": null
  },
  "8167": {
    "postcode": "6168167",
    "prefecture": "京都府",
    "prefecture_kana": "キョウトフ",
    "prefecture_code": 26,
    "city": "京都市右京区",
    "city_kana": "キョウトシウキョウク",
    "town": "太秦多薮町",
    "town_kana": "ウズマサタヤブチョウ",
    "street": null,
    "office_name": null,
    "office_name_kana": null
  },
  "8171": {
    "postcode": "6168171",
    "prefecture": "京都府",
    "prefecture_kana": "キョウトフ",
    "prefecture_code": 26,
    "city": "京都市右京区",
    "city_kana": "キョウトシウキョウク",
    "town": "太秦青木ケ原町",
    "town_kana": "ウズマサアオキガハラチョウ",
    "street": null,
    "office_name": null,
    "office_name_kana": null
  },
  "8172": {
    "postcode": "6168172",
    "prefecture": "京都府",
    "prefecture_kana": "キョウトフ",
    "prefecture_code": 26,
    "city": "京都市右京区",
    "city_kana": "キョウトシウキョウク",
    "town": "太秦青木元町",
    "town_kana": "ウズマサアオキモトチョウ",
    "street": null,
    "office_name": null,
    "office_name_kana": null
  },
  "8173": {
    "postcode": "6168173",
    "prefecture": "京都府",
    "prefecture_kana": "キョウトフ",
    "prefecture_code": 26,
    "city": "京都市右京区",
    "city_kana": "キョウトシウキョウク",
    "town": "太秦上ノ段町",
    "town_kana": "ウズマサカミノダンチョウ",
    "street": null,
    "office_name": null,
    "office_name_kana": null
  },
  "8174": {
    "postcode": "6168174",
    "prefecture": "京都府",
    "prefecture_kana": "キョウトフ",
    "prefecture_code": 26,
    "city": "京都市右京区",
    "city_kana": "キョウトシウキョウク",
    "town": "太秦垂箕山町",
    "town_kana": "ウズマサタルミヤマチョウ",
    "street": null,
    "office_name": null,
    "office_name_kana": null
  },
  "8175": {
    "postcode": "6168175",
    "prefecture": "京都府",
    "prefecture_kana": "キョウトフ",
    "prefecture_code": 26,
    "city": "京都市右京区",
    "city_kana": "キョウトシウキョウク",
    "town": "太秦一町芝町",
    "town_kana": "ウズマサイッチョウシバチョウ",
    "street": null,
    "office_name": null,
    "office_name_kana": null
  },
  "8176": {
    "postcode": "6168176",
    "prefecture": "京都府",
    "prefecture_kana": "キョウトフ",
    "prefecture_code": 26,
    "city": "京都市右京区",
    "city_kana": "キョウトシウキョウク",
    "town": "太秦乾町",
    "town_kana": "ウズマサイヌイチョウ",
    "street": null,
    "office_name": null,
    "office_name_kana": null
  },
  "8177": {
    "postcode": "6168177",
    "prefecture": "京都府",
    "prefecture_kana": "キョウトフ",
    "prefecture_code": 26,
    "city": "京都市右京区",
    "city_kana": "キョウトシウキョウク",
    "town": "太秦馬塚町",
    "town_kana": "ウズマサウマヅカチョウ",
    "street": null,
    "office_name": null,
    "office_name_kana": null
  },
  "8181": {
    "postcode": "6168181",
    "prefecture": "京都府",
    "prefecture_kana": "キョウトフ",
    "prefecture_code": 26,
    "city": "京都市右京区",
    "city_kana": "キョウトシウキョウク",
    "town": "太秦京ノ道町",
    "town_kana": "ウズマサキョウノミチチョウ",
    "street": null,
    "office_name": null,
    "office_name_kana": null
  },
  "8182": {
    "postcode": "6168182",
    "prefecture": "京都府",
    "prefecture_kana": "キョウトフ",
    "prefecture_code": 26,
    "city": "京都市右京区",
    "city_kana": "キョウトシウキョウク",
    "town": "太秦北路町",
    "town_kana": "ウズマサキタロチョウ",
    "street": null,
    "office_name": null,
    "office_name_kana": null
  },
  "8183": {
    "postcode": "6168183",
    "prefecture": "京都府",
    "prefecture_kana": "キョウトフ",
    "prefecture_code": 26,
    "city": "京都市右京区",
    "city_kana": "キョウトシウキョウク",
    "town": "太秦宮ノ前町",
    "town_kana": "ウズマサミヤノマエチョウ",
    "street": null,
    "office_name": null,
    "office_name_kana": null
  },
  "8184": {
    "postcode": "6168184",
    "prefecture": "京都府",
    "prefecture_kana": "キョウトフ",
    "prefecture_code": 26,
    "city": "京都市右京区",
    "city_kana": "キョウトシウキョウク",
    "town": "太秦中筋町",
    "town_kana": "ウズマサナカスジチョウ",
    "street": null,
    "office_name": null,
    "office_name_kana": null
  },
  "8185": {
    "postcode": "6168185",
    "prefecture": "京都府",
    "prefecture_kana": "キョウトフ",
    "prefecture_code": 26,
    "city": "京都市右京区",
    "city_kana": "キョウトシウキョウク",
    "town": "太秦開日町",
    "town_kana": "ウズマサカイニチチョウ",
    "street": null,
    "office_name": null,
    "office_name_kana": null
  },
  "8186": {
    "postcode": "6168186",
    "prefecture": "京都府",
    "prefecture_kana": "キョウトフ",
    "prefecture_code": 26,
    "city": "京都市右京区",
    "city_kana": "キョウトシウキョウク",
    "town": "太秦堀池町",
    "town_kana": "ウズマサホリイケチョウ",
    "street": null,
    "office_name": null,
    "office_name_kana": null
  },
  "8187": {
    "postcode": "6168187",
    "prefecture": "京都府",
    "prefecture_kana": "キョウトフ",
    "prefecture_code": 26,
    "city": "京都市右京区",
    "city_kana": "キョウトシウキョウク",
    "town": "太秦御領田町",
    "town_kana": "ウズマサゴリョウデンチョウ",
    "street": null,
    "office_name": null,
    "office_name_kana": null
  },
  "8191": {
    "postcode": "6168191",
    "prefecture": "京都府",
    "prefecture_kana": "キョウトフ",
    "prefecture_code": 26,
    "city": "京都市右京区",
    "city_kana": "キョウトシウキョウク",
    "town": "太秦中山町",
    "town_kana": "ウズマサナカヤマチョウ",
    "street": null,
    "office_name": null,
    "office_name_kana": null
  },
  "8192": {
    "postcode": "6168192",
    "prefecture": "京都府",
    "prefecture_kana": "キョウトフ",
    "prefecture_code": 26,
    "city": "京都市右京区",
    "city_kana": "キョウトシウキョウク",
    "town": "太秦三尾町",
    "town_kana": "ウズマササンビチョウ",
    "street": null,
    "office_name": null,
    "office_name_kana": null
  },
  "8193": {
    "postcode": "6168193",
    "prefecture": "京都府",
    "prefecture_kana": "キョウトフ",
    "prefecture_code": 26,
    "city": "京都市右京区",
    "city_kana": "キョウトシウキョウク",
    "town": "山越巽町",
    "town_kana": "ヤマゴエタツミチョウ",
    "street": null,
    "office_name": null,
    "office_name_kana": null
  },
  "8194": {
    "postcode": "6168194",
    "prefecture": "京都府",
    "prefecture_kana": "キョウトフ",
    "prefecture_code": 26,
    "city": "京都市右京区",
    "city_kana": "キョウトシウキョウク",
    "town": "山越東町",
    "town_kana": "ヤマゴエヒガシチョウ",
    "street": null,
    "office_name": null,
    "office_name_kana": null
  },
  "8195": {
    "postcode": "6168195",
    "prefecture": "京都府",
    "prefecture_kana": "キョウトフ",
    "prefecture_code": 26,
    "city": "京都市右京区",
    "city_kana": "キョウトシウキョウク",
    "town": "山越中町",
    "town_kana": "ヤマゴエナカチョウ",
    "street": null,
    "office_name": null,
    "office_name_kana": null
  },
  "8196": {
    "postcode": "6168196",
    "prefecture": "京都府",
    "prefecture_kana": "キョウトフ",
    "prefecture_code": 26,
    "city": "京都市右京区",
    "city_kana": "キョウトシウキョウク",
    "town": "山越西町",
    "town_kana": "ヤマゴエニシチョウ",
    "street": null,
    "office_name": null,
    "office_name_kana": null
  },
  "8197": {
    "postcode": "6168197",
    "prefecture": "京都府",
    "prefecture_kana": "キョウトフ",
    "prefecture_code": 26,
    "city": "京都市右京区",
    "city_kana": "キョウトシウキョウク",
    "town": "山越乾町",
    "town_kana": "ヤマゴエイヌイチョウ",
    "street": null,
    "office_name": null,
    "office_name_kana": null
  },
  "8201": {
    "postcode": "6168201",
    "prefecture": "京都府",
    "prefecture_kana": "キョウトフ",
    "prefecture_code": 26,
    "city": "京都市右京区",
    "city_kana": "キョウトシウキョウク",
    "town": "宇多野北ノ院町",
    "town_kana": "ウタノキタノインチョウ",
    "street": null,
    "office_name": null,
    "office_name_kana": null
  },
  "8202": {
    "postcode": "6168202",
    "prefecture": "京都府",
    "prefecture_kana": "キョウトフ",
    "prefecture_code": 26,
    "city": "京都市右京区",
    "city_kana": "キョウトシウキョウク",
    "town": "宇多野馬場町",
    "town_kana": "ウタノババチョウ",
    "street": null,
    "office_name": null,
    "office_name_kana": null
  },
  "8203": {
    "postcode": "6168203",
    "prefecture": "京都府",
    "prefecture_kana": "キョウトフ",
    "prefecture_code": 26,
    "city": "京都市右京区",
    "city_kana": "キョウトシウキョウク",
    "town": "宇多野柴橋町",
    "town_kana": "ウタノシバハシチョウ",
    "street": null,
    "office_name": null,
    "office_name_kana": null
  },
  "8204": {
    "postcode": "6168204",
    "prefecture": "京都府",
    "prefecture_kana": "キョウトフ",
    "prefecture_code": 26,
    "city": "京都市右京区",
    "city_kana": "キョウトシウキョウク",
    "town": "宇多野御池町",
    "town_kana": "ウタノオイケチョウ",
    "street": null,
    "office_name": null,
    "office_name_kana": null
  },
  "8205": {
    "postcode": "6168205",
    "prefecture": "京都府",
    "prefecture_kana": "キョウトフ",
    "prefecture_code": 26,
    "city": "京都市右京区",
    "city_kana": "キョウトシウキョウク",
    "town": "宇多野御屋敷町",
    "town_kana": "ウタノオヤシキチョウ",
    "street": null,
    "office_name": null,
    "office_name_kana": null
  },
  "8206": {
    "postcode": "6168206",
    "prefecture": "京都府",
    "prefecture_kana": "キョウトフ",
    "prefecture_code": 26,
    "city": "京都市右京区",
    "city_kana": "キョウトシウキョウク",
    "town": "宇多野法安寺町",
    "town_kana": "ウタノホウアンジチョウ",
    "street": null,
    "office_name": null,
    "office_name_kana": null
  },
  "8207": {
    "postcode": "6168207",
    "prefecture": "京都府",
    "prefecture_kana": "キョウトフ",
    "prefecture_code": 26,
    "city": "京都市右京区",
    "city_kana": "キョウトシウキョウク",
    "town": "宇多野長尾町",
    "town_kana": "ウタノナガオチョウ",
    "street": null,
    "office_name": null,
    "office_name_kana": null
  },
  "8208": {
    "postcode": "6168208",
    "prefecture": "京都府",
    "prefecture_kana": "キョウトフ",
    "prefecture_code": 26,
    "city": "京都市右京区",
    "city_kana": "キョウトシウキョウク",
    "town": "宇多野福王子町",
    "town_kana": "ウタノフクオウジチョウ",
    "street": null,
    "office_name": null,
    "office_name_kana": null
  },
  "8209": {
    "postcode": "6168209",
    "prefecture": "京都府",
    "prefecture_kana": "キョウトフ",
    "prefecture_code": 26,
    "city": "京都市右京区",
    "city_kana": "キョウトシウキョウク",
    "town": "宇多野芝町",
    "town_kana": "ウタノシバマチ",
    "street": null,
    "office_name": null,
    "office_name_kana": null
  },
  "8211": {
    "postcode": "6168211",
    "prefecture": "京都府",
    "prefecture_kana": "キョウトフ",
    "prefecture_code": 26,
    "city": "京都市右京区",
    "city_kana": "キョウトシウキョウク",
    "town": "常盤御池町",
    "town_kana": "トキワオイケチョウ",
    "street": null,
    "office_name": null,
    "office_name_kana": null
  },
  "8212": {
    "postcode": "6168212",
    "prefecture": "京都府",
    "prefecture_kana": "キョウトフ",
    "prefecture_code": 26,
    "city": "京都市右京区",
    "city_kana": "キョウトシウキョウク",
    "town": "常盤山下町",
    "town_kana": "トキワヤマシタチョウ",
    "street": null,
    "office_name": null,
    "office_name_kana": null
  },
  "8213": {
    "postcode": "6168213",
    "prefecture": "京都府",
    "prefecture_kana": "キョウトフ",
    "prefecture_code": 26,
    "city": "京都市右京区",
    "city_kana": "キョウトシウキョウク",
    "town": "常盤音戸町",
    "town_kana": "トキワオントチョウ",
    "street": null,
    "office_name": null,
    "office_name_kana": null
  },
  "8214": {
    "postcode": "6168214",
    "prefecture": "京都府",
    "prefecture_kana": "キョウトフ",
    "prefecture_code": 26,
    "city": "京都市右京区",
    "city_kana": "キョウトシウキョウク",
    "town": "常盤古御所町",
    "town_kana": "トキワフルゴショチョウ",
    "street": null,
    "office_name": null,
    "office_name_kana": null
  },
  "8215": {
    "postcode": "6168215",
    "prefecture": "京都府",
    "prefecture_kana": "キョウトフ",
    "prefecture_code": 26,
    "city": "京都市右京区",
    "city_kana": "キョウトシウキョウク",
    "town": "常盤森町",
    "town_kana": "トキワモリマチ",
    "street": null,
    "office_name": null,
    "office_name_kana": null
  },
  "8216": {
    "postcode": "6168216",
    "prefecture": "京都府",
    "prefecture_kana": "キョウトフ",
    "prefecture_code": 26,
    "city": "京都市右京区",
    "city_kana": "キョウトシウキョウク",
    "town": "常盤一ノ井町",
    "town_kana": "トキワイチノイチョウ",
    "street": null,
    "office_name": null,
    "office_name_kana": null
  },
  "8217": {
    "postcode": "6168217",
    "prefecture": "京都府",
    "prefecture_kana": "キョウトフ",
    "prefecture_code": 26,
    "city": "京都市右京区",
    "city_kana": "キョウトシウキョウク",
    "town": "常盤東ノ町",
    "town_kana": "トキワヒガシノチョウ",
    "street": null,
    "office_name": null,
    "office_name_kana": null
  },
  "8218": {
    "postcode": "6168218",
    "prefecture": "京都府",
    "prefecture_kana": "キョウトフ",
    "prefecture_code": 26,
    "city": "京都市右京区",
    "city_kana": "キョウトシウキョウク",
    "town": "常盤出口町",
    "town_kana": "トキワデグチチョウ",
    "street": null,
    "office_name": null,
    "office_name_kana": null
  },
  "8219": {
    "postcode": "6168219",
    "prefecture": "京都府",
    "prefecture_kana": "キョウトフ",
    "prefecture_code": 26,
    "city": "京都市右京区",
    "city_kana": "キョウトシウキョウク",
    "town": "常盤神田町",
    "town_kana": "トキワカンダチョウ",
    "street": null,
    "office_name": null,
    "office_name_kana": null
  },
  "8221": {
    "postcode": "6168221",
    "prefecture": "京都府",
    "prefecture_kana": "キョウトフ",
    "prefecture_code": 26,
    "city": "京都市右京区",
    "city_kana": "キョウトシウキョウク",
    "town": "常盤村ノ内町",
    "town_kana": "トキワムラノウチチョウ",
    "street": null,
    "office_name": null,
    "office_name_kana": null
  },
  "8222": {
    "postcode": "6168222",
    "prefecture": "京都府",
    "prefecture_kana": "キョウトフ",
    "prefecture_code": 26,
    "city": "京都市右京区",
    "city_kana": "キョウトシウキョウク",
    "town": "常盤仲之町",
    "town_kana": "トキワナカノチョウ",
    "street": null,
    "office_name": null,
    "office_name_kana": null
  },
  "8223": {
    "postcode": "6168223",
    "prefecture": "京都府",
    "prefecture_kana": "キョウトフ",
    "prefecture_code": 26,
    "city": "京都市右京区",
    "city_kana": "キョウトシウキョウク",
    "town": "常盤西町",
    "town_kana": "トキワニシマチ",
    "street": null,
    "office_name": null,
    "office_name_kana": null
  },
  "8224": {
    "postcode": "6168224",
    "prefecture": "京都府",
    "prefecture_kana": "キョウトフ",
    "prefecture_code": 26,
    "city": "京都市右京区",
    "city_kana": "キョウトシウキョウク",
    "town": "常盤窪町",
    "town_kana": "トキワクボマチ",
    "street": null,
    "office_name": null,
    "office_name_kana": null
  },
  "8225": {
    "postcode": "6168225",
    "prefecture": "京都府",
    "prefecture_kana": "キョウトフ",
    "prefecture_code": 26,
    "city": "京都市右京区",
    "city_kana": "キョウトシウキョウク",
    "town": "常盤馬塚町",
    "town_kana": "トキワウマヅカチョウ",
    "street": null,
    "office_name": null,
    "office_name_kana": null
  },
  "8226": {
    "postcode": "6168226",
    "prefecture": "京都府",
    "prefecture_kana": "キョウトフ",
    "prefecture_code": 26,
    "city": "京都市右京区",
    "city_kana": "キョウトシウキョウク",
    "town": "常盤段ノ上町",
    "town_kana": "トキワダンノウエチョウ",
    "street": null,
    "office_name": null,
    "office_name_kana": null
  },
  "8227": {
    "postcode": "6168227",
    "prefecture": "京都府",
    "prefecture_kana": "キョウトフ",
    "prefecture_code": 26,
    "city": "京都市右京区",
    "city_kana": "キョウトシウキョウク",
    "town": "常盤草木町",
    "town_kana": "トキワクサキチョウ",
    "street": null,
    "office_name": null,
    "office_name_kana": null
  },
  "8228": {
    "postcode": "6168228",
    "prefecture": "京都府",
    "prefecture_kana": "キョウトフ",
    "prefecture_code": 26,
    "city": "京都市右京区",
    "city_kana": "キョウトシウキョウク",
    "town": "常盤下田町",
    "town_kana": "トキワシモダチョウ",
    "street": null,
    "office_name": null,
    "office_name_kana": null
  },
  "8229": {
    "postcode": "6168229",
    "prefecture": "京都府",
    "prefecture_kana": "キョウトフ",
    "prefecture_code": 26,
    "city": "京都市右京区",
    "city_kana": "キョウトシウキョウク",
    "town": "常盤北裏町",
    "town_kana": "トキワキタウラチョウ",
    "street": null,
    "office_name": null,
    "office_name_kana": null
  },
  "8231": {
    "postcode": "6168231",
    "prefecture": "京都府",
    "prefecture_kana": "キョウトフ",
    "prefecture_code": 26,
    "city": "京都市右京区",
    "city_kana": "キョウトシウキョウク",
    "town": "常盤柏ノ木町",
    "town_kana": "トキワカシノキチョウ",
    "street": null,
    "office_name": null,
    "office_name_kana": null
  },
  "8232": {
    "postcode": "6168232",
    "prefecture": "京都府",
    "prefecture_kana": "キョウトフ",
    "prefecture_code": 26,
    "city": "京都市右京区",
    "city_kana": "キョウトシウキョウク",
    "town": "鳴滝蓮花寺町",
    "town_kana": "ナルタキレンゲジチョウ",
    "street": null,
    "office_name": null,
    "office_name_kana": null
  },
  "8233": {
    "postcode": "6168233",
    "prefecture": "京都府",
    "prefecture_kana": "キョウトフ",
    "prefecture_code": 26,
    "city": "京都市右京区",
    "city_kana": "キョウトシウキョウク",
    "town": "鳴滝中道町",
    "town_kana": "ナルタキナカミチチョウ",
    "street": null,
    "office_name": null,
    "office_name_kana": null
  },
  "8234": {
    "postcode": "6168234",
    "prefecture": "京都府",
    "prefecture_kana": "キョウトフ",
    "prefecture_code": 26,
    "city": "京都市右京区",
    "city_kana": "キョウトシウキョウク",
    "town": "鳴滝嵯峨園町",
    "town_kana": "ナルタキサガソノチョウ",
    "street": null,
    "office_name": null,
    "office_name_kana": null
  },
  "8235": {
    "postcode": "6168235",
    "prefecture": "京都府",
    "prefecture_kana": "キョウトフ",
    "prefecture_code": 26,
    "city": "京都市右京区",
    "city_kana": "キョウトシウキョウク",
    "town": "鳴滝西嵯峨園町",
    "town_kana": "ナルタキニシサガソノチョウ",
    "street": null,
    "office_name": null,
    "office_name_kana": null
  },
  "8236": {
    "postcode": "6168236",
    "prefecture": "京都府",
    "prefecture_kana": "キョウトフ",
    "prefecture_code": 26,
    "city": "京都市右京区",
    "city_kana": "キョウトシウキョウク",
    "town": "鳴滝春木町",
    "town_kana": "ナルタキハルキチョウ",
    "street": null,
    "office_name": null,
    "office_name_kana": null
  },
  "8237": {
    "postcode": "6168237",
    "prefecture": "京都府",
    "prefecture_kana": "キョウトフ",
    "prefecture_code": 26,
    "city": "京都市右京区",
    "city_kana": "キョウトシウキョウク",
    "town": "鳴滝瑞穂町",
    "town_kana": "ナルタキミズホチョウ",
    "street": null,
    "office_name": null,
    "office_name_kana": null
  },
  "8238": {
    "postcode": "6168238",
    "prefecture": "京都府",
    "prefecture_kana": "キョウトフ",
    "prefecture_code": 26,
    "city": "京都市右京区",
    "city_kana": "キョウトシウキョウク",
    "town": "鳴滝桐ケ淵町",
    "town_kana": "ナルタキキリガフチチョウ",
    "street": null,
    "office_name": null,
    "office_name_kana": null
  },
  "8241": {
    "postcode": "6168241",
    "prefecture": "京都府",
    "prefecture_kana": "キョウトフ",
    "prefecture_code": 26,
    "city": "京都市右京区",
    "city_kana": "キョウトシウキョウク",
    "town": "鳴滝泉殿町",
    "town_kana": "ナルタキイズミデンチョウ",
    "street": null,
    "office_name": null,
    "office_name_kana": null
  },
  "8242": {
    "postcode": "6168242",
    "prefecture": "京都府",
    "prefecture_kana": "キョウトフ",
    "prefecture_code": 26,
    "city": "京都市右京区",
    "city_kana": "キョウトシウキョウク",
    "town": "鳴滝本町",
    "town_kana": "ナルタキホンマチ",
    "street": null,
    "office_name": null,
    "office_name_kana": null
  },
  "8243": {
    "postcode": "6168243",
    "prefecture": "京都府",
    "prefecture_kana": "キョウトフ",
    "prefecture_code": 26,
    "city": "京都市右京区",
    "city_kana": "キョウトシウキョウク",
    "town": "鳴滝安井殿町",
    "town_kana": "ナルタキヤスイデンチョウ",
    "street": null,
    "office_name": null,
    "office_name_kana": null
  },
  "8244": {
    "postcode": "6168244",
    "prefecture": "京都府",
    "prefecture_kana": "キョウトフ",
    "prefecture_code": 26,
    "city": "京都市右京区",
    "city_kana": "キョウトシウキョウク",
    "town": "鳴滝藤ノ木町",
    "town_kana": "ナルタキフジノキチョウ",
    "street": null,
    "office_name": null,
    "office_name_kana": null
  },
  "8245": {
    "postcode": "6168245",
    "prefecture": "京都府",
    "prefecture_kana": "キョウトフ",
    "prefecture_code": 26,
    "city": "京都市右京区",
    "city_kana": "キョウトシウキョウク",
    "town": "音戸山山ノ茶屋町",
    "town_kana": "オンドヤマヤマノチャヤチョウ",
    "street": null,
    "office_name": null,
    "office_name_kana": null
  },
  "8246": {
    "postcode": "6168246",
    "prefecture": "京都府",
    "prefecture_kana": "キョウトフ",
    "prefecture_code": 26,
    "city": "京都市右京区",
    "city_kana": "キョウトシウキョウク",
    "town": "鳴滝川西町",
    "town_kana": "ナルタキカワニシチョウ",
    "street": null,
    "office_name": null,
    "office_name_kana": null
  },
  "8247": {
    "postcode": "6168247",
    "prefecture": "京都府",
    "prefecture_kana": "キョウトフ",
    "prefecture_code": 26,
    "city": "京都市右京区",
    "city_kana": "キョウトシウキョウク",
    "town": "鳴滝蓮池町",
    "town_kana": "ナルタキハスイケチョウ",
    "street": null,
    "office_name": null,
    "office_name_kana": null
  },
  "8251": {
    "postcode": "6168251",
    "prefecture": "京都府",
    "prefecture_kana": "キョウトフ",
    "prefecture_code": 26,
    "city": "京都市右京区",
    "city_kana": "キョウトシウキョウク",
    "town": "鳴滝宇多野谷",
    "town_kana": "ナルタキウダノタニ",
    "street": null,
    "office_name": null,
    "office_name_kana": null
  },
  "8252": {
    "postcode": "6168252",
    "prefecture": "京都府",
    "prefecture_kana": "キョウトフ",
    "prefecture_code": 26,
    "city": "京都市右京区",
    "city_kana": "キョウトシウキョウク",
    "town": "宇多野上ノ谷町",
    "town_kana": "ウタノカミノタニチョウ",
    "street": null,
    "office_name": null,
    "office_name_kana": null
  },
  "8253": {
    "postcode": "6168253",
    "prefecture": "京都府",
    "prefecture_kana": "キョウトフ",
    "prefecture_code": 26,
    "city": "京都市右京区",
    "city_kana": "キョウトシウキョウク",
    "town": "鳴滝泉谷町",
    "town_kana": "ナルタキイズミタニチョウ",
    "street": null,
    "office_name": null,
    "office_name_kana": null
  },
  "8254": {
    "postcode": "6168254",
    "prefecture": "京都府",
    "prefecture_kana": "キョウトフ",
    "prefecture_code": 26,
    "city": "京都市右京区",
    "city_kana": "キョウトシウキョウク",
    "town": "鳴滝宅間町",
    "town_kana": "ナルタキタクマチョウ",
    "street": null,
    "office_name": null,
    "office_name_kana": null
  },
  "8255": {
    "postcode": "6168255",
    "prefecture": "京都府",
    "prefecture_kana": "キョウトフ",
    "prefecture_code": 26,
    "city": "京都市右京区",
    "city_kana": "キョウトシウキョウク",
    "town": "鳴滝音戸山町",
    "town_kana": "ナルタキオンドヤマチョウ",
    "street": null,
    "office_name": null,
    "office_name_kana": null
  },
  "8256": {
    "postcode": "6168256",
    "prefecture": "京都府",
    "prefecture_kana": "キョウトフ",
    "prefecture_code": 26,
    "city": "京都市右京区",
    "city_kana": "キョウトシウキョウク",
    "town": "鳴滝松本町",
    "town_kana": "ナルタキマツモトチョウ",
    "street": null,
    "office_name": null,
    "office_name_kana": null
  },
  "8257": {
    "postcode": "6168257",
    "prefecture": "京都府",
    "prefecture_kana": "キョウトフ",
    "prefecture_code": 26,
    "city": "京都市右京区",
    "city_kana": "キョウトシウキョウク",
    "town": "鳴滝白砂",
    "town_kana": "ナルタキシラスナ",
    "street": null,
    "office_name": null,
    "office_name_kana": null
  },
  "8258": {
    "postcode": "6168258",
    "prefecture": "京都府",
    "prefecture_kana": "キョウトフ",
    "prefecture_code": 26,
    "city": "京都市右京区",
    "city_kana": "キョウトシウキョウク",
    "town": "鳴滝般若寺町",
    "town_kana": "ナルタキハンニャジチョウ",
    "street": null,
    "office_name": null,
    "office_name_kana": null
  },
  "8261": {
    "postcode": "6168261",
    "prefecture": "京都府",
    "prefecture_kana": "キョウトフ",
    "prefecture_code": 26,
    "city": "京都市右京区",
    "city_kana": "キョウトシウキョウク",
    "town": "梅ケ畑高鼻町",
    "town_kana": "ウメガハタタカハナチョウ",
    "street": null,
    "office_name": null,
    "office_name_kana": null
  },
  "8262": {
    "postcode": "6168262",
    "prefecture": "京都府",
    "prefecture_kana": "キョウトフ",
    "prefecture_code": 26,
    "city": "京都市右京区",
    "city_kana": "キョウトシウキョウク",
    "town": "梅ケ畑向ノ地町",
    "town_kana": "ウメガハタムコウノチチョウ",
    "street": null,
    "office_name": null,
    "office_name_kana": null
  },
  "8263": {
    "postcode": "6168263",
    "prefecture": "京都府",
    "prefecture_kana": "キョウトフ",
    "prefecture_code": 26,
    "city": "京都市右京区",
    "city_kana": "キョウトシウキョウク",
    "town": "梅ケ畑畑ノ下町",
    "town_kana": "ウメガハタハタノシタチョウ",
    "street": null,
    "office_name": null,
    "office_name_kana": null
  },
  "8264": {
    "postcode": "6168264",
    "prefecture": "京都府",
    "prefecture_kana": "キョウトフ",
    "prefecture_code": 26,
    "city": "京都市右京区",
    "city_kana": "キョウトシウキョウク",
    "town": "梅ケ畑薮ノ下町",
    "town_kana": "ウメガハタヤブノシタチョウ",
    "street": null,
    "office_name": null,
    "office_name_kana": null
  },
  "8265": {
    "postcode": "6168265",
    "prefecture": "京都府",
    "prefecture_kana": "キョウトフ",
    "prefecture_code": 26,
    "city": "京都市右京区",
    "city_kana": "キョウトシウキョウク",
    "town": "梅ケ畑畑町",
    "town_kana": "ウメガハタハタマチ",
    "street": null,
    "office_name": null,
    "office_name_kana": null
  },
  "8266": {
    "postcode": "6168266",
    "prefecture": "京都府",
    "prefecture_kana": "キョウトフ",
    "prefecture_code": 26,
    "city": "京都市右京区",
    "city_kana": "キョウトシウキョウク",
    "town": "梅ケ畑中田町",
    "town_kana": "ウメガハタナカタチョウ",
    "street": null,
    "office_name": null,
    "office_name_kana": null
  },
  "8267": {
    "postcode": "6168267",
    "prefecture": "京都府",
    "prefecture_kana": "キョウトフ",
    "prefecture_code": 26,
    "city": "京都市右京区",
    "city_kana": "キョウトシウキョウク",
    "town": "梅ケ畑山崎町",
    "town_kana": "ウメガハタヤマサキチョウ",
    "street": null,
    "office_name": null,
    "office_name_kana": null
  },
  "8268": {
    "postcode": "6168268",
    "prefecture": "京都府",
    "prefecture_kana": "キョウトフ",
    "prefecture_code": 26,
    "city": "京都市右京区",
    "city_kana": "キョウトシウキョウク",
    "town": "梅ケ畑古田町",
    "town_kana": "ウメガハタフルタチョウ",
    "street": null,
    "office_name": null,
    "office_name_kana": null
  },
  "8271": {
    "postcode": "6168271",
    "prefecture": "京都府",
    "prefecture_kana": "キョウトフ",
    "prefecture_code": 26,
    "city": "京都市右京区",
    "city_kana": "キョウトシウキョウク",
    "town": "梅ケ畑宮ノ口町",
    "town_kana": "ウメガハタミヤノクチチョウ",
    "street": null,
    "office_name": null,
    "office_name_kana": null
  },
  "8272": {
    "postcode": "6168272",
    "prefecture": "京都府",
    "prefecture_kana": "キョウトフ",
    "prefecture_code": 26,
    "city": "京都市右京区",
    "city_kana": "キョウトシウキョウク",
    "town": "梅ケ畑猪ノ尻町",
    "town_kana": "ウメガハタイノシリチョウ",
    "street": null,
    "office_name": null,
    "office_name_kana": null
  },
  "8273": {
    "postcode": "6168273",
    "prefecture": "京都府",
    "prefecture_kana": "キョウトフ",
    "prefecture_code": 26,
    "city": "京都市右京区",
    "city_kana": "キョウトシウキョウク",
    "town": "梅ケ畑中縄手町",
    "town_kana": "ウメガハタナカナワテチョウ",
    "street": null,
    "office_name": null,
    "office_name_kana": null
  },
  "8274": {
    "postcode": "6168274",
    "prefecture": "京都府",
    "prefecture_kana": "キョウトフ",
    "prefecture_code": 26,
    "city": "京都市右京区",
    "city_kana": "キョウトシウキョウク",
    "town": "梅ケ畑上ノ町",
    "town_kana": "ウメガハタウエノチョウ",
    "street": null,
    "office_name": null,
    "office_name_kana": null
  },
  "8275": {
    "postcode": "6168275",
    "prefecture": "京都府",
    "prefecture_kana": "キョウトフ",
    "prefecture_code": 26,
    "city": "京都市右京区",
    "city_kana": "キョウトシウキョウク",
    "town": "梅ケ畑篝町",
    "town_kana": "ウメガハタカガリチョウ",
    "street": null,
    "office_name": null,
    "office_name_kana": null
  },
  "8276": {
    "postcode": "6168276",
    "prefecture": "京都府",
    "prefecture_kana": "キョウトフ",
    "prefecture_code": 26,
    "city": "京都市右京区",
    "city_kana": "キョウトシウキョウク",
    "town": "梅ケ畑清水町",
    "town_kana": "ウメガハタシミズチョウ",
    "street": null,
    "office_name": null,
    "office_name_kana": null
  },
  "8277": {
    "postcode": "6168277",
    "prefecture": "京都府",
    "prefecture_kana": "キョウトフ",
    "prefecture_code": 26,
    "city": "京都市右京区",
    "city_kana": "キョウトシウキョウク",
    "town": "梅ケ畑広芝町",
    "town_kana": "ウメガハタヒロシバチョウ",
    "street": null,
    "office_name": null,
    "office_name_kana": null
  },
  "8278": {
    "postcode": "6168278",
    "prefecture": "京都府",
    "prefecture_kana": "キョウトフ",
    "prefecture_code": 26,
    "city": "京都市右京区",
    "city_kana": "キョウトシウキョウク",
    "town": "梅ケ畑菖蒲谷",
    "town_kana": "ウメガハタショウブタニ",
    "street": null,
    "office_name": null,
    "office_name_kana": null
  },
  "8281": {
    "postcode": "6168281",
    "prefecture": "京都府",
    "prefecture_kana": "キョウトフ",
    "prefecture_code": 26,
    "city": "京都市右京区",
    "city_kana": "キョウトシウキョウク",
    "town": "梅ケ畑久保谷町",
    "town_kana": "ウメガハタクボタニチョウ",
    "street": null,
    "office_name": null,
    "office_name_kana": null
  },
  "8282": {
    "postcode": "6168282",
    "prefecture": "京都府",
    "prefecture_kana": "キョウトフ",
    "prefecture_code": 26,
    "city": "京都市右京区",
    "city_kana": "キョウトシウキョウク",
    "town": "梅ケ畑上砥町",
    "town_kana": "ウメガハタウエトチョウ",
    "street": null,
    "office_name": null,
    "office_name_kana": null
  },
  "8283": {
    "postcode": "6168283",
    "prefecture": "京都府",
    "prefecture_kana": "キョウトフ",
    "prefecture_code": 26,
    "city": "京都市右京区",
    "city_kana": "キョウトシウキョウク",
    "town": "梅ケ畑奥殿町",
    "town_kana": "ウメガハタオクトノチョウ",
    "street": null,
    "office_name": null,
    "office_name_kana": null
  },
  "8284": {
    "postcode": "6168284",
    "prefecture": "京都府",
    "prefecture_kana": "キョウトフ",
    "prefecture_code": 26,
    "city": "京都市右京区",
    "city_kana": "キョウトシウキョウク",
    "town": "梅ケ畑御経坂町",
    "town_kana": "ウメガハタミキョウサカチョウ",
    "street": null,
    "office_name": null,
    "office_name_kana": null
  },
  "8285": {
    "postcode": "6168285",
    "prefecture": "京都府",
    "prefecture_kana": "キョウトフ",
    "prefecture_code": 26,
    "city": "京都市右京区",
    "city_kana": "キョウトシウキョウク",
    "town": "梅ケ畑檜社町",
    "town_kana": "ウメガハタヒノキヤシロチョウ",
    "street": null,
    "office_name": null,
    "office_name_kana": null
  },
  "8286": {
    "postcode": "6168286",
    "prefecture": "京都府",
    "prefecture_kana": "キョウトフ",
    "prefecture_code": 26,
    "city": "京都市右京区",
    "city_kana": "キョウトシウキョウク",
    "town": "梅ケ畑御所ノ口町",
    "town_kana": "ウメガハタゴショノグチチョウ",
    "street": null,
    "office_name": null,
    "office_name_kana": null
  },
  "8287": {
    "postcode": "6168287",
    "prefecture": "京都府",
    "prefecture_kana": "キョウトフ",
    "prefecture_code": 26,
    "city": "京都市右京区",
    "city_kana": "キョウトシウキョウク",
    "town": "梅ケ畑中嶋町",
    "town_kana": "ウメガハタナカジマチョウ",
    "street": null,
    "office_name": null,
    "office_name_kana": null
  },
  "8288": {
    "postcode": "6168288",
    "prefecture": "京都府",
    "prefecture_kana": "キョウトフ",
    "prefecture_code": 26,
    "city": "京都市右京区",
    "city_kana": "キョウトシウキョウク",
    "town": "梅ケ畑笹江辺町",
    "town_kana": "ウメガハタササエベチョウ",
    "street": null,
    "office_name": null,
    "office_name_kana": null
  },
  "8289": {
    "postcode": "6168289",
    "prefecture": "京都府",
    "prefecture_kana": "キョウトフ",
    "prefecture_code": 26,
    "city": "京都市右京区",
    "city_kana": "キョウトシウキョウク",
    "town": "梅ケ畑西ノ畑町",
    "town_kana": "ウメガハタニシノハタマチ",
    "street": null,
    "office_name": null,
    "office_name_kana": null
  },
  "8291": {
    "postcode": "6168291",
    "prefecture": "京都府",
    "prefecture_kana": "キョウトフ",
    "prefecture_code": 26,
    "city": "京都市右京区",
    "city_kana": "キョウトシウキョウク",
    "town": "梅ケ畑槇尾町",
    "town_kana": "ウメガハタマキノオチョウ",
    "street": null,
    "office_name": null,
    "office_name_kana": null
  },
  "8292": {
    "postcode": "6168292",
    "prefecture": "京都府",
    "prefecture_kana": "キョウトフ",
    "prefecture_code": 26,
    "city": "京都市右京区",
    "city_kana": "キョウトシウキョウク",
    "town": "梅ケ畑高雄町",
    "town_kana": "ウメガハタタカオチョウ",
    "street": null,
    "office_name": null,
    "office_name_kana": null
  },
  "8293": {
    "postcode": "6168293",
    "prefecture": "京都府",
    "prefecture_kana": "キョウトフ",
    "prefecture_code": 26,
    "city": "京都市右京区",
    "city_kana": "キョウトシウキョウク",
    "town": "梅ケ畑殿畑町",
    "town_kana": "ウメガハタトノハタチョウ",
    "street": null,
    "office_name": null,
    "office_name_kana": null
  },
  "8294": {
    "postcode": "6168294",
    "prefecture": "京都府",
    "prefecture_kana": "キョウトフ",
    "prefecture_code": 26,
    "city": "京都市右京区",
    "city_kana": "キョウトシウキョウク",
    "town": "梅ケ畑引地町",
    "town_kana": "ウメガハタヒキジチョウ",
    "street": null,
    "office_name": null,
    "office_name_kana": null
  },
  "8295": {
    "postcode": "6168295",
    "prefecture": "京都府",
    "prefecture_kana": "キョウトフ",
    "prefecture_code": 26,
    "city": "京都市右京区",
    "city_kana": "キョウトシウキョウク",
    "town": "梅ケ畑栂尾町",
    "town_kana": "ウメガハタトガノオチョウ",
    "street": null,
    "office_name": null,
    "office_name_kana": null
  },
  "8296": {
    "postcode": "6168296",
    "prefecture": "京都府",
    "prefecture_kana": "キョウトフ",
    "prefecture_code": 26,
    "city": "京都市右京区",
    "city_kana": "キョウトシウキョウク",
    "town": "梅ケ畑川西町",
    "town_kana": "ウメガハタカワニシチョウ",
    "street": null,
    "office_name": null,
    "office_name_kana": null
  },
  "8297": {
    "postcode": "6168297",
    "prefecture": "京都府",
    "prefecture_kana": "キョウトフ",
    "prefecture_code": 26,
    "city": "京都市右京区",
    "city_kana": "キョウトシウキョウク",
    "town": "梅ケ畑亀石町",
    "town_kana": "ウメガハタカメイシチョウ",
    "street": null,
    "office_name": null,
    "office_name_kana": null
  },
  "8301": {
    "postcode": "6168301",
    "prefecture": "京都府",
    "prefecture_kana": "キョウトフ",
    "prefecture_code": 26,
    "city": "京都市右京区",
    "city_kana": "キョウトシウキョウク",
    "town": "嵯峨広沢町",
    "town_kana": "サガヒロサワチョウ",
    "street": null,
    "office_name": null,
    "office_name_kana": null
  },
  "8302": {
    "postcode": "6168302",
    "prefecture": "京都府",
    "prefecture_kana": "キョウトフ",
    "prefecture_code": 26,
    "city": "京都市右京区",
    "city_kana": "キョウトシウキョウク",
    "town": "嵯峨広沢北下馬野町",
    "town_kana": "サガヒロサワキタゲバノチョウ",
    "street": null,
    "office_name": null,
    "office_name_kana": null
  },
  "8303": {
    "postcode": "6168303",
    "prefecture": "京都府",
    "prefecture_kana": "キョウトフ",
    "prefecture_code": 26,
    "city": "京都市右京区",
    "city_kana": "キョウトシウキョウク",
    "town": "嵯峨広沢南下馬野町",
    "town_kana": "サガヒロサワミナミゲバノチョウ",
    "street": null,
    "office_name": null,
    "office_name_kana": null
  },
  "8304": {
    "postcode": "6168304",
    "prefecture": "京都府",
    "prefecture_kana": "キョウトフ",
    "prefecture_code": 26,
    "city": "京都市右京区",
    "city_kana": "キョウトシウキョウク",
    "town": "嵯峨広沢南野町",
    "town_kana": "サガヒロサワミナミノチョウ",
    "street": null,
    "office_name": null,
    "office_name_kana": null
  },
  "8305": {
    "postcode": "6168305",
    "prefecture": "京都府",
    "prefecture_kana": "キョウトフ",
    "prefecture_code": 26,
    "city": "京都市右京区",
    "city_kana": "キョウトシウキョウク",
    "town": "嵯峨広沢御所ノ内町",
    "town_kana": "サガヒロサワゴショノウチチョウ",
    "street": null,
    "office_name": null,
    "office_name_kana": null
  },
  "8306": {
    "postcode": "6168306",
    "prefecture": "京都府",
    "prefecture_kana": "キョウトフ",
    "prefecture_code": 26,
    "city": "京都市右京区",
    "city_kana": "キョウトシウキョウク",
    "town": "嵯峨広沢西裏町",
    "town_kana": "サガヒロサワニシウラチョウ",
    "street": null,
    "office_name": null,
    "office_name_kana": null
  },
  "8307": {
    "postcode": "6168307",
    "prefecture": "京都府",
    "prefecture_kana": "キョウトフ",
    "prefecture_code": 26,
    "city": "京都市右京区",
    "city_kana": "キョウトシウキョウク",
    "town": "嵯峨広沢池下町",
    "town_kana": "サガヒロサワイケシタチョウ",
    "street": null,
    "office_name": null,
    "office_name_kana": null
  },
  "8311": {
    "postcode": "6168311",
    "prefecture": "京都府",
    "prefecture_kana": "キョウトフ",
    "prefecture_code": 26,
    "city": "京都市右京区",
    "city_kana": "キョウトシウキョウク",
    "town": "嵯峨野嵯峨ノ段町",
    "town_kana": "サガノサガノダンマチ",
    "street": null,
    "office_name": null,
    "office_name_kana": null
  },
  "8312": {
    "postcode": "6168312",
    "prefecture": "京都府",
    "prefecture_kana": "キョウトフ",
    "prefecture_code": 26,
    "city": "京都市右京区",
    "city_kana": "キョウトシウキョウク",
    "town": "嵯峨野清水町",
    "town_kana": "サガノシミズチョウ",
    "street": null,
    "office_name": null,
    "office_name_kana": null
  },
  "8313": {
    "postcode": "6168313",
    "prefecture": "京都府",
    "prefecture_kana": "キョウトフ",
    "prefecture_code": 26,
    "city": "京都市右京区",
    "city_kana": "キョウトシウキョウク",
    "town": "嵯峨野開町",
    "town_kana": "サガノヒラキチョウ",
    "street": null,
    "office_name": null,
    "office_name_kana": null
  },
  "8314": {
    "postcode": "6168314",
    "prefecture": "京都府",
    "prefecture_kana": "キョウトフ",
    "prefecture_code": 26,
    "city": "京都市右京区",
    "city_kana": "キョウトシウキョウク",
    "town": "嵯峨野秋街道町",
    "town_kana": "サガノアキカイドウチョウ",
    "street": null,
    "office_name": null,
    "office_name_kana": null
  },
  "8315": {
    "postcode": "6168315",
    "prefecture": "京都府",
    "prefecture_kana": "キョウトフ",
    "prefecture_code": 26,
    "city": "京都市右京区",
    "city_kana": "キョウトシウキョウク",
    "town": "嵯峨野宮ノ元町",
    "town_kana": "サガノミヤノモトチョウ",
    "street": null,
    "office_name": null,
    "office_name_kana": null
  },
  "8316": {
    "postcode": "6168316",
    "prefecture": "京都府",
    "prefecture_kana": "キョウトフ",
    "prefecture_code": 26,
    "city": "京都市右京区",
    "city_kana": "キョウトシウキョウク",
    "town": "嵯峨野有栖川町",
    "town_kana": "サガノアリスガワチョウ",
    "street": null,
    "office_name": null,
    "office_name_kana": null
  },
  "8317": {
    "postcode": "6168317",
    "prefecture": "京都府",
    "prefecture_kana": "キョウトフ",
    "prefecture_code": 26,
    "city": "京都市右京区",
    "city_kana": "キョウトシウキョウク",
    "town": "嵯峨野神ノ木町",
    "town_kana": "サガノカミノキチョウ",
    "street": null,
    "office_name": null,
    "office_name_kana": null
  },
  "8321": {
    "postcode": "6168321",
    "prefecture": "京都府",
    "prefecture_kana": "キョウトフ",
    "prefecture_code": 26,
    "city": "京都市右京区",
    "city_kana": "キョウトシウキョウク",
    "town": "嵯峨野千代ノ道町",
    "town_kana": "サガノチヨノミチチョウ",
    "street": null,
    "office_name": null,
    "office_name_kana": null
  },
  "8322": {
    "postcode": "6168322",
    "prefecture": "京都府",
    "prefecture_kana": "キョウトフ",
    "prefecture_code": 26,
    "city": "京都市右京区",
    "city_kana": "キョウトシウキョウク",
    "town": "嵯峨野芝野町",
    "town_kana": "サガノシバノチョウ",
    "street": null,
    "office_name": null,
    "office_name_kana": null
  },
  "8323": {
    "postcode": "6168323",
    "prefecture": "京都府",
    "prefecture_kana": "キョウトフ",
    "prefecture_code": 26,
    "city": "京都市右京区",
    "city_kana": "キョウトシウキョウク",
    "town": "嵯峨野投渕町",
    "town_kana": "サガノナゲブチチョウ",
    "street": null,
    "office_name": null,
    "office_name_kana": null
  },
  "8324": {
    "postcode": "6168324",
    "prefecture": "京都府",
    "prefecture_kana": "キョウトフ",
    "prefecture_code": 26,
    "city": "京都市右京区",
    "city_kana": "キョウトシウキョウク",
    "town": "嵯峨野南浦町",
    "town_kana": "サガノミナミウラチョウ",
    "street": null,
    "office_name": null,
    "office_name_kana": null
  },
  "8325": {
    "postcode": "6168325",
    "prefecture": "京都府",
    "prefecture_kana": "キョウトフ",
    "prefecture_code": 26,
    "city": "京都市右京区",
    "city_kana": "キョウトシウキョウク",
    "town": "嵯峨野高田町",
    "town_kana": "サガノタカダチョウ",
    "street": null,
    "office_name": null,
    "office_name_kana": null
  },
  "8326": {
    "postcode": "6168326",
    "prefecture": "京都府",
    "prefecture_kana": "キョウトフ",
    "prefecture_code": 26,
    "city": "京都市右京区",
    "city_kana": "キョウトシウキョウク",
    "town": "嵯峨野東田町",
    "town_kana": "サガノヒガシダチョウ",
    "street": null,
    "office_name": null,
    "office_name_kana": null
  },
  "8327": {
    "postcode": "6168327",
    "prefecture": "京都府",
    "prefecture_kana": "キョウトフ",
    "prefecture_code": 26,
    "city": "京都市右京区",
    "city_kana": "キョウトシウキョウク",
    "town": "嵯峨野六反田町",
    "town_kana": "サガノロクタンダチョウ",
    "street": null,
    "office_name": null,
    "office_name_kana": null
  },
  "8331": {
    "postcode": "6168331",
    "prefecture": "京都府",
    "prefecture_kana": "キョウトフ",
    "prefecture_code": 26,
    "city": "京都市右京区",
    "city_kana": "キョウトシウキョウク",
    "town": "嵯峨野内田町",
    "town_kana": "サガノウチダチョウ",
    "street": null,
    "office_name": null,
    "office_name_kana": null
  },
  "8332": {
    "postcode": "6168332",
    "prefecture": "京都府",
    "prefecture_kana": "キョウトフ",
    "prefecture_code": 26,
    "city": "京都市右京区",
    "city_kana": "キョウトシウキョウク",
    "town": "嵯峨野北野町",
    "town_kana": "サガノキタノチョウ",
    "street": null,
    "office_name": null,
    "office_name_kana": null
  },
  "8333": {
    "postcode": "6168333",
    "prefecture": "京都府",
    "prefecture_kana": "キョウトフ",
    "prefecture_code": 26,
    "city": "京都市右京区",
    "city_kana": "キョウトシウキョウク",
    "town": "嵯峨野西ノ藤町",
    "town_kana": "サガノニシノフジチョウ",
    "street": null,
    "office_name": null,
    "office_name_kana": null
  },
  "8334": {
    "postcode": "6168334",
    "prefecture": "京都府",
    "prefecture_kana": "キョウトフ",
    "prefecture_code": 26,
    "city": "京都市右京区",
    "city_kana": "キョウトシウキョウク",
    "town": "嵯峨罧原町",
    "town_kana": "サガフシハラチョウ",
    "street": null,
    "office_name": null,
    "office_name_kana": null
  },
  "8335": {
    "postcode": "6168335",
    "prefecture": "京都府",
    "prefecture_kana": "キョウトフ",
    "prefecture_code": 26,
    "city": "京都市右京区",
    "city_kana": "キョウトシウキョウク",
    "town": "嵯峨石ケ坪町",
    "town_kana": "サガイシガツボチョウ",
    "street": null,
    "office_name": null,
    "office_name_kana": null
  },
  "8336": {
    "postcode": "6168336",
    "prefecture": "京都府",
    "prefecture_kana": "キョウトフ",
    "prefecture_code": 26,
    "city": "京都市右京区",
    "city_kana": "キョウトシウキョウク",
    "town": "嵯峨蜻蛉尻町",
    "town_kana": "サガトンボジリチョウ",
    "street": null,
    "office_name": null,
    "office_name_kana": null
  },
  "8337": {
    "postcode": "6168337",
    "prefecture": "京都府",
    "prefecture_kana": "キョウトフ",
    "prefecture_code": 26,
    "city": "京都市右京区",
    "city_kana": "キョウトシウキョウク",
    "town": "嵯峨明星町",
    "town_kana": "サガミョウジョウチョウ",
    "street": null,
    "office_name": null,
    "office_name_kana": null
  },
  "8341": {
    "postcode": "6168341",
    "prefecture": "京都府",
    "prefecture_kana": "キョウトフ",
    "prefecture_code": 26,
    "city": "京都市右京区",
    "city_kana": "キョウトシウキョウク",
    "town": "嵯峨甲塚町",
    "town_kana": "サガカブトヅカチョウ",
    "street": null,
    "office_name": null,
    "office_name_kana": null
  },
  "8342": {
    "postcode": "6168342",
    "prefecture": "京都府",
    "prefecture_kana": "キョウトフ",
    "prefecture_code": 26,
    "city": "京都市右京区",
    "city_kana": "キョウトシウキョウク",
    "town": "嵯峨苅分町",
    "town_kana": "サガカリワケチョウ",
    "street": null,
    "office_name": null,
    "office_name_kana": null
  },
  "8343": {
    "postcode": "6168343",
    "prefecture": "京都府",
    "prefecture_kana": "キョウトフ",
    "prefecture_code": 26,
    "city": "京都市右京区",
    "city_kana": "キョウトシウキョウク",
    "town": "嵯峨朝日町",
    "town_kana": "サガアサヒチョウ",
    "street": null,
    "office_name": null,
    "office_name_kana": null
  },
  "8344": {
    "postcode": "6168344",
    "prefecture": "京都府",
    "prefecture_kana": "キョウトフ",
    "prefecture_code": 26,
    "city": "京都市右京区",
    "city_kana": "キョウトシウキョウク",
    "town": "嵯峨梅ノ木町",
    "town_kana": "サガウメノキチョウ",
    "street": null,
    "office_name": null,
    "office_name_kana": null
  },
  "8345": {
    "postcode": "6168345",
    "prefecture": "京都府",
    "prefecture_kana": "キョウトフ",
    "prefecture_code": 26,
    "city": "京都市右京区",
    "city_kana": "キョウトシウキョウク",
    "town": "嵯峨折戸町",
    "town_kana": "サガオリトチョウ",
    "street": null,
    "office_name": null,
    "office_name_kana": null
  },
  "8346": {
    "postcode": "6168346",
    "prefecture": "京都府",
    "prefecture_kana": "キョウトフ",
    "prefecture_code": 26,
    "city": "京都市右京区",
    "city_kana": "キョウトシウキョウク",
    "town": "嵯峨天龍寺油掛町",
    "town_kana": "サガテンリュウジアブラカケチョウ",
    "street": null,
    "office_name": null,
    "office_name_kana": null
  },
  "8347": {
    "postcode": "6168347",
    "prefecture": "京都府",
    "prefecture_kana": "キョウトフ",
    "prefecture_code": 26,
    "city": "京都市右京区",
    "city_kana": "キョウトシウキョウク",
    "town": "嵯峨中又町",
    "town_kana": "サガナカマタチョウ",
    "street": null,
    "office_name": null,
    "office_name_kana": null
  },
  "8351": {
    "postcode": "6168351",
    "prefecture": "京都府",
    "prefecture_kana": "キョウトフ",
    "prefecture_code": 26,
    "city": "京都市右京区",
    "city_kana": "キョウトシウキョウク",
    "town": "嵯峨釣殿町",
    "town_kana": "サガツリドノチョウ",
    "street": null,
    "office_name": null,
    "office_name_kana": null
  },
  "8352": {
    "postcode": "6168352",
    "prefecture": "京都府",
    "prefecture_kana": "キョウトフ",
    "prefecture_code": 26,
    "city": "京都市右京区",
    "city_kana": "キョウトシウキョウク",
    "town": "嵯峨大沢落久保町",
    "town_kana": "サガオオサワオチクボチョウ",
    "street": null,
    "office_name": null,
    "office_name_kana": null
  },
  "8353": {
    "postcode": "6168353",
    "prefecture": "京都府",
    "prefecture_kana": "キョウトフ",
    "prefecture_code": 26,
    "city": "京都市右京区",
    "city_kana": "キョウトシウキョウク",
    "town": "嵯峨大沢柳井手町",
    "town_kana": "サガオオサワヤナギイデチョウ",
    "street": null,
    "office_name": null,
    "office_name_kana": null
  },
  "8354": {
    "postcode": "6168354",
    "prefecture": "京都府",
    "prefecture_kana": "キョウトフ",
    "prefecture_code": 26,
    "city": "京都市右京区",
    "city_kana": "キョウトシウキョウク",
    "town": "嵯峨一本木町",
    "town_kana": "サガイッポンギチョウ",
    "street": null,
    "office_name": null,
    "office_name_kana": null
  },
  "8355": {
    "postcode": "6168355",
    "prefecture": "京都府",
    "prefecture_kana": "キョウトフ",
    "prefecture_code": 26,
    "city": "京都市右京区",
    "city_kana": "キョウトシウキョウク",
    "town": "嵯峨新宮町",
    "town_kana": "サガシングウチョウ",
    "street": null,
    "office_name": null,
    "office_name_kana": null
  },
  "8356": {
    "postcode": "6168356",
    "prefecture": "京都府",
    "prefecture_kana": "キョウトフ",
    "prefecture_code": 26,
    "city": "京都市右京区",
    "city_kana": "キョウトシウキョウク",
    "town": "嵯峨天龍寺中島町",
    "town_kana": "サガテンリュウジナカジマチョウ",
    "street": null,
    "office_name": null,
    "office_name_kana": null
  },
  "8357": {
    "postcode": "6168357",
    "prefecture": "京都府",
    "prefecture_kana": "キョウトフ",
    "prefecture_code": 26,
    "city": "京都市右京区",
    "city_kana": "キョウトシウキョウク",
    "town": "嵯峨天龍寺椎野町",
    "town_kana": "サガテンリュウジシイノチョウ",
    "street": null,
    "office_name": null,
    "office_name_kana": null
  },
  "8361": {
    "postcode": "6168361",
    "prefecture": "京都府",
    "prefecture_kana": "キョウトフ",
    "prefecture_code": 26,
    "city": "京都市右京区",
    "city_kana": "キョウトシウキョウク",
    "town": "嵯峨中通町",
    "town_kana": "サガナカドオリチョウ",
    "street": null,
    "office_name": null,
    "office_name_kana": null
  },
  "8362": {
    "postcode": "6168362",
    "prefecture": "京都府",
    "prefecture_kana": "キョウトフ",
    "prefecture_code": 26,
    "city": "京都市右京区",
    "city_kana": "キョウトシウキョウク",
    "town": "嵯峨五島町",
    "town_kana": "サガゴトウチョウ",
    "street": null,
    "office_name": null,
    "office_name_kana": null
  },
  "8363": {
    "postcode": "6168363",
    "prefecture": "京都府",
    "prefecture_kana": "キョウトフ",
    "prefecture_code": 26,
    "city": "京都市右京区",
    "city_kana": "キョウトシウキョウク",
    "town": "嵯峨柳田町",
    "town_kana": "サガヤナギダチョウ",
    "street": null,
    "office_name": null,
    "office_name_kana": null
  },
  "8364": {
    "postcode": "6168364",
    "prefecture": "京都府",
    "prefecture_kana": "キョウトフ",
    "prefecture_code": 26,
    "city": "京都市右京区",
    "city_kana": "キョウトシウキョウク",
    "town": "嵯峨中山町",
    "town_kana": "サガナカヤマチョウ",
    "street": null,
    "office_name": null,
    "office_name_kana": null
  },
  "8365": {
    "postcode": "6168365",
    "prefecture": "京都府",
    "prefecture_kana": "キョウトフ",
    "prefecture_code": 26,
    "city": "京都市右京区",
    "city_kana": "キョウトシウキョウク",
    "town": "嵯峨伊勢ノ上町",
    "town_kana": "サガイセノカミチョウ",
    "street": null,
    "office_name": null,
    "office_name_kana": null
  },
  "8366": {
    "postcode": "6168366",
    "prefecture": "京都府",
    "prefecture_kana": "キョウトフ",
    "prefecture_code": 26,
    "city": "京都市右京区",
    "city_kana": "キョウトシウキョウク",
    "town": "嵯峨天龍寺今堀町",
    "town_kana": "サガテンリュウジイマホリチョウ",
    "street": null,
    "office_name": null,
    "office_name_kana": null
  },
  "8367": {
    "postcode": "6168367",
    "prefecture": "京都府",
    "prefecture_kana": "キョウトフ",
    "prefecture_code": 26,
    "city": "京都市右京区",
    "city_kana": "キョウトシウキョウク",
    "town": "嵯峨北堀町",
    "town_kana": "サガキタボリチョウ",
    "street": null,
    "office_name": null,
    "office_name_kana": null
  },
  "8371": {
    "postcode": "6168371",
    "prefecture": "京都府",
    "prefecture_kana": "キョウトフ",
    "prefecture_code": 26,
    "city": "京都市右京区",
    "city_kana": "キョウトシウキョウク",
    "town": "嵯峨天龍寺若宮町",
    "town_kana": "サガテンリュウジワカミヤチョウ",
    "street": null,
    "office_name": null,
    "office_name_kana": null
  },
  "8372": {
    "postcode": "6168372",
    "prefecture": "京都府",
    "prefecture_kana": "キョウトフ",
    "prefecture_code": 26,
    "city": "京都市右京区",
    "city_kana": "キョウトシウキョウク",
    "town": "嵯峨天龍寺広道町",
    "town_kana": "サガテンリュウジヒロミチチョウ",
    "street": null,
    "office_name": null,
    "office_name_kana": null
  },
  "8373": {
    "postcode": "6168373",
    "prefecture": "京都府",
    "prefecture_kana": "キョウトフ",
    "prefecture_code": 26,
    "city": "京都市右京区",
    "city_kana": "キョウトシウキョウク",
    "town": "嵯峨天龍寺車道町",
    "town_kana": "サガテンリュウジクルマミチチョウ",
    "street": null,
    "office_name": null,
    "office_name_kana": null
  },
  "8374": {
    "postcode": "6168374",
    "prefecture": "京都府",
    "prefecture_kana": "キョウトフ",
    "prefecture_code": 26,
    "city": "京都市右京区",
    "city_kana": "キョウトシウキョウク",
    "town": "嵯峨天龍寺北造路町",
    "town_kana": "サガテンリュウジキタツクリミチチョウ",
    "street": null,
    "office_name": null,
    "office_name_kana": null
  },
  "8375": {
    "postcode": "6168375",
    "prefecture": "京都府",
    "prefecture_kana": "キョウトフ",
    "prefecture_code": 26,
    "city": "京都市右京区",
    "city_kana": "キョウトシウキョウク",
    "town": "嵯峨天龍寺立石町",
    "town_kana": "サガテンリュウジタテイシチョウ",
    "street": null,
    "office_name": null,
    "office_name_kana": null
  },
  "8376": {
    "postcode": "6168376",
    "prefecture": "京都府",
    "prefecture_kana": "キョウトフ",
    "prefecture_code": 26,
    "city": "京都市右京区",
    "city_kana": "キョウトシウキョウク",
    "town": "嵯峨天龍寺瀬戸川町",
    "town_kana": "サガテンリュウジセトガワチョウ",
    "street": null,
    "office_name": null,
    "office_name_kana": null
  },
  "8381": {
    "postcode": "6168381",
    "prefecture": "京都府",
    "prefecture_kana": "キョウトフ",
    "prefecture_code": 26,
    "city": "京都市右京区",
    "city_kana": "キョウトシウキョウク",
    "town": "嵯峨天龍寺龍門町",
    "town_kana": "サガテンリュウジリュウモンチョウ",
    "street": null,
    "office_name": null,
    "office_name_kana": null
  },
  "8382": {
    "postcode": "6168382",
    "prefecture": "京都府",
    "prefecture_kana": "キョウトフ",
    "prefecture_code": 26,
    "city": "京都市右京区",
    "city_kana": "キョウトシウキョウク",
    "town": "嵯峨天龍寺角倉町",
    "town_kana": "サガテンリュウジスミノクラチョウ",
    "street": null,
    "office_name": null,
    "office_name_kana": null
  },
  "8383": {
    "postcode": "6168383",
    "prefecture": "京都府",
    "prefecture_kana": "キョウトフ",
    "prefecture_code": 26,
    "city": "京都市右京区",
    "city_kana": "キョウトシウキョウク",
    "town": "嵯峨中之島町",
    "town_kana": "サガナカノシマチョウ",
    "street": null,
    "office_name": null,
    "office_name_kana": null
  },
  "8384": {
    "postcode": "6168384",
    "prefecture": "京都府",
    "prefecture_kana": "キョウトフ",
    "prefecture_code": 26,
    "city": "京都市右京区",
    "city_kana": "キョウトシウキョウク",
    "town": "嵯峨天龍寺造路町",
    "town_kana": "サガテンリュウジツクリミチチョウ",
    "street": null,
    "office_name": null,
    "office_name_kana": null
  },
  "8385": {
    "postcode": "6168385",
    "prefecture": "京都府",
    "prefecture_kana": "キョウトフ",
    "prefecture_code": 26,
    "city": "京都市右京区",
    "city_kana": "キョウトシウキョウク",
    "town": "嵯峨天龍寺芒ノ馬場町",
    "town_kana": "サガテンリュウジススキノババチョウ",
    "street": null,
    "office_name": null,
    "office_name_kana": null
  },
  "8386": {
    "postcode": "6168386",
    "prefecture": "京都府",
    "prefecture_kana": "キョウトフ",
    "prefecture_code": 26,
    "city": "京都市右京区",
    "city_kana": "キョウトシウキョウク",
    "town": "嵯峨亀ノ尾町",
    "town_kana": "サガカメノオチョウ",
    "street": null,
    "office_name": null,
    "office_name_kana": null
  },
  "8387": {
    "postcode": "6168387",
    "prefecture": "京都府",
    "prefecture_kana": "キョウトフ",
    "prefecture_code": 26,
    "city": "京都市右京区",
    "city_kana": "キョウトシウキョウク",
    "town": "嵯峨亀山町",
    "town_kana": "サガカメヤマチョウ",
    "street": null,
    "office_name": null,
    "office_name_kana": null
  },
  "8391": {
    "postcode": "6168391",
    "prefecture": "京都府",
    "prefecture_kana": "キョウトフ",
    "prefecture_code": 26,
    "city": "京都市右京区",
    "city_kana": "キョウトシウキョウク",
    "town": "嵯峨小倉山緋明神町",
    "town_kana": "サガオグラヤマヒノミョウジンチョウ",
    "street": null,
    "office_name": null,
    "office_name_kana": null
  },
  "8392": {
    "postcode": "6168392",
    "prefecture": "京都府",
    "prefecture_kana": "キョウトフ",
    "prefecture_code": 26,
    "city": "京都市右京区",
    "city_kana": "キョウトシウキョウク",
    "town": "嵯峨小倉山堂ノ前町",
    "town_kana": "サガオグラヤマドウノマエチョウ",
    "street": null,
    "office_name": null,
    "office_name_kana": null
  },
  "8393": {
    "postcode": "6168393",
    "prefecture": "京都府",
    "prefecture_kana": "キョウトフ",
    "prefecture_code": 26,
    "city": "京都市右京区",
    "city_kana": "キョウトシウキョウク",
    "town": "嵯峨野々宮町",
    "town_kana": "サガノノミヤチョウ",
    "street": null,
    "office_name": null,
    "office_name_kana": null
  },
  "8394": {
    "postcode": "6168394",
    "prefecture": "京都府",
    "prefecture_kana": "キョウトフ",
    "prefecture_code": 26,
    "city": "京都市右京区",
    "city_kana": "キョウトシウキョウク",
    "town": "嵯峨小倉山田渕山町",
    "town_kana": "サガオグラヤマタブチヤマチョウ",
    "street": null,
    "office_name": null,
    "office_name_kana": null
  },
  "8395": {
    "postcode": "6168395",
    "prefecture": "京都府",
    "prefecture_kana": "キョウトフ",
    "prefecture_code": 26,
    "city": "京都市右京区",
    "city_kana": "キョウトシウキョウク",
    "town": "嵯峨小倉山町",
    "town_kana": "サガオグラヤマチョウ",
    "street": null,
    "office_name": null,
    "office_name_kana": null
  },
  "8396": {
    "postcode": "6168396",
    "prefecture": "京都府",
    "prefecture_kana": "キョウトフ",
    "prefecture_code": 26,
    "city": "京都市右京区",
    "city_kana": "キョウトシウキョウク",
    "town": "嵯峨小倉山山本町",
    "town_kana": "サガオグラヤマヤマモトチョウ",
    "street": null,
    "office_name": null,
    "office_name_kana": null
  },
  "8397": {
    "postcode": "6168397",
    "prefecture": "京都府",
    "prefecture_kana": "キョウトフ",
    "prefecture_code": 26,
    "city": "京都市右京区",
    "city_kana": "キョウトシウキョウク",
    "town": "嵯峨小倉山小倉町",
    "town_kana": "サガオグラヤマオグラチョウ",
    "street": null,
    "office_name": null,
    "office_name_kana": null
  },
  "8401": {
    "postcode": "6168401",
    "prefecture": "京都府",
    "prefecture_kana": "キョウトフ",
    "prefecture_code": 26,
    "city": "京都市右京区",
    "city_kana": "キョウトシウキョウク",
    "town": "北嵯峨長刀坂町",
    "town_kana": "キタサガナギナタザカチョウ",
    "street": null,
    "office_name": null,
    "office_name_kana": null
  },
  "8402": {
    "postcode": "6168402",
    "prefecture": "京都府",
    "prefecture_kana": "キョウトフ",
    "prefecture_code": 26,
    "city": "京都市右京区",
    "city_kana": "キョウトシウキョウク",
    "town": "北嵯峨六代芝町",
    "town_kana": "キタサガロクダイシバチョウ",
    "street": null,
    "office_name": null,
    "office_name_kana": null
  },
  "8403": {
    "postcode": "6168403",
    "prefecture": "京都府",
    "prefecture_kana": "キョウトフ",
    "prefecture_code": 26,
    "city": "京都市右京区",
    "city_kana": "キョウトシウキョウク",
    "town": "北嵯峨洞ノ内町",
    "town_kana": "キタサガホラノウチチョウ",
    "street": null,
    "office_name": null,
    "office_name_kana": null
  },
  "8404": {
    "postcode": "6168404",
    "prefecture": "京都府",
    "prefecture_kana": "キョウトフ",
    "prefecture_code": 26,
    "city": "京都市右京区",
    "city_kana": "キョウトシウキョウク",
    "town": "北嵯峨八丈町",
    "town_kana": "キタサガハチジョウチョウ",
    "street": null,
    "office_name": null,
    "office_name_kana": null
  },
  "8405": {
    "postcode": "6168405",
    "prefecture": "京都府",
    "prefecture_kana": "キョウトフ",
    "prefecture_code": 26,
    "city": "京都市右京区",
    "city_kana": "キョウトシウキョウク",
    "town": "北嵯峨名古曽町",
    "town_kana": "キタサガナコソチョウ",
    "street": null,
    "office_name": null,
    "office_name_kana": null
  },
  "8406": {
    "postcode": "6168406",
    "prefecture": "京都府",
    "prefecture_kana": "キョウトフ",
    "prefecture_code": 26,
    "city": "京都市右京区",
    "city_kana": "キョウトシウキョウク",
    "town": "北嵯峨山王町",
    "town_kana": "キタサガサンオウチョウ",
    "street": null,
    "office_name": null,
    "office_name_kana": null
  },
  "8407": {
    "postcode": "6168407",
    "prefecture": "京都府",
    "prefecture_kana": "キョウトフ",
    "prefecture_code": 26,
    "city": "京都市右京区",
    "city_kana": "キョウトシウキョウク",
    "town": "北嵯峨赤坂町",
    "town_kana": "キタサガアカサカチョウ",
    "street": null,
    "office_name": null,
    "office_name_kana": null
  },
  "8411": {
    "postcode": "6168411",
    "prefecture": "京都府",
    "prefecture_kana": "キョウトフ",
    "prefecture_code": 26,
    "city": "京都市右京区",
    "city_kana": "キョウトシウキョウク",
    "town": "嵯峨大沢町",
    "town_kana": "サガオオサワチョウ",
    "street": null,
    "office_name": null,
    "office_name_kana": null
  },
  "8412": {
    "postcode": "6168412",
    "prefecture": "京都府",
    "prefecture_kana": "キョウトフ",
    "prefecture_code": 26,
    "city": "京都市右京区",
    "city_kana": "キョウトシウキョウク",
    "town": "嵯峨大覚寺門前登り町",
    "town_kana": "サガダイカクジモンゼンノボリチョウ",
    "street": null,
    "office_name": null,
    "office_name_kana": null
  },
  "8413": {
    "postcode": "6168413",
    "prefecture": "京都府",
    "prefecture_kana": "キョウトフ",
    "prefecture_code": 26,
    "city": "京都市右京区",
    "city_kana": "キョウトシウキョウク",
    "town": "嵯峨大覚寺門前堂ノ前町",
    "town_kana": "サガダイカクジモンゼンドウノマエチョウ",
    "street": null,
    "office_name": null,
    "office_name_kana": null
  },
  "8414": {
    "postcode": "6168414",
    "prefecture": "京都府",
    "prefecture_kana": "キョウトフ",
    "prefecture_code": 26,
    "city": "京都市右京区",
    "city_kana": "キョウトシウキョウク",
    "town": "嵯峨大覚寺門前八軒町",
    "town_kana": "サガダイカクジモンゼンハッケンチョウ",
    "street": null,
    "office_name": null,
    "office_name_kana": null
  },
  "8415": {
    "postcode": "6168415",
    "prefecture": "京都府",
    "prefecture_kana": "キョウトフ",
    "prefecture_code": 26,
    "city": "京都市右京区",
    "city_kana": "キョウトシウキョウク",
    "town": "嵯峨大覚寺門前宮ノ下町",
    "town_kana": "サガダイカクジモンゼンミヤノシタチョウ",
    "street": null,
    "office_name": null,
    "office_name_kana": null
  },
  "8416": {
    "postcode": "6168416",
    "prefecture": "京都府",
    "prefecture_kana": "キョウトフ",
    "prefecture_code": 26,
    "city": "京都市右京区",
    "city_kana": "キョウトシウキョウク",
    "town": "嵯峨大覚寺門前井頭町",
    "town_kana": "サガダイカクジモンゼンイトウチョウ",
    "street": null,
    "office_name": null,
    "office_name_kana": null
  },
  "8417": {
    "postcode": "6168417",
    "prefecture": "京都府",
    "prefecture_kana": "キョウトフ",
    "prefecture_code": 26,
    "city": "京都市右京区",
    "city_kana": "キョウトシウキョウク",
    "town": "嵯峨大覚寺門前六道町",
    "town_kana": "サガダイカクジモンゼンロクドウチョウ",
    "street": null,
    "office_name": null,
    "office_name_kana": null
  },
  "8421": {
    "postcode": "6168421",
    "prefecture": "京都府",
    "prefecture_kana": "キョウトフ",
    "prefecture_code": 26,
    "city": "京都市右京区",
    "city_kana": "キョウトシウキョウク",
    "town": "嵯峨釈迦堂門前瀬戸川町",
    "town_kana": "サガシャカドウモンゼンセトガワチョウ",
    "street": null,
    "office_name": null,
    "office_name_kana": null
  },
  "8422": {
    "postcode": "6168422",
    "prefecture": "京都府",
    "prefecture_kana": "キョウトフ",
    "prefecture_code": 26,
    "city": "京都市右京区",
    "city_kana": "キョウトシウキョウク",
    "town": "嵯峨釈迦堂大門町",
    "town_kana": "サガシャカドウダイモンチョウ",
    "street": null,
    "office_name": null,
    "office_name_kana": null
  },
  "8423": {
    "postcode": "6168423",
    "prefecture": "京都府",
    "prefecture_kana": "キョウトフ",
    "prefecture_code": 26,
    "city": "京都市右京区",
    "city_kana": "キョウトシウキョウク",
    "town": "嵯峨釈迦堂門前裏柳町",
    "town_kana": "サガシャカドウモンゼンウラヤナギチョウ",
    "street": null,
    "office_name": null,
    "office_name_kana": null
  },
  "8424": {
    "postcode": "6168424",
    "prefecture": "京都府",
    "prefecture_kana": "キョウトフ",
    "prefecture_code": 26,
    "city": "京都市右京区",
    "city_kana": "キョウトシウキョウク",
    "town": "嵯峨釈迦堂門前南中院町",
    "town_kana": "サガシャカドウモンゼンミナミチュウインチョウ",
    "street": null,
    "office_name": null,
    "office_name_kana": null
  },
  "8425": {
    "postcode": "6168425",
    "prefecture": "京都府",
    "prefecture_kana": "キョウトフ",
    "prefecture_code": 26,
    "city": "京都市右京区",
    "city_kana": "キョウトシウキョウク",
    "town": "嵯峨二尊院門前長神町",
    "town_kana": "サガニソンインモンゼンチョウジンチョウ",
    "street": null,
    "office_name": null,
    "office_name_kana": null
  },
  "8426": {
    "postcode": "6168426",
    "prefecture": "京都府",
    "prefecture_kana": "キョウトフ",
    "prefecture_code": 26,
    "city": "京都市右京区",
    "city_kana": "キョウトシウキョウク",
    "town": "嵯峨二尊院門前往生院町",
    "town_kana": "サガニソンインモンゼンオウジョウインチョウ",
    "street": null,
    "office_name": null,
    "office_name_kana": null
  },
  "8427": {
    "postcode": "6168427",
    "prefecture": "京都府",
    "prefecture_kana": "キョウトフ",
    "prefecture_code": 26,
    "city": "京都市右京区",
    "city_kana": "キョウトシウキョウク",
    "town": "嵯峨二尊院門前善光寺山町",
    "town_kana": "サガニソンインモンゼンゼンコウジヤマチョウ",
    "street": null,
    "office_name": null,
    "office_name_kana": null
  },
  "8428": {
    "postcode": "6168428",
    "prefecture": "京都府",
    "prefecture_kana": "キョウトフ",
    "prefecture_code": 26,
    "city": "京都市右京区",
    "city_kana": "キョウトシウキョウク",
    "town": "嵯峨二尊院門前北中院町",
    "town_kana": "サガニソンインモンゼンキタチュウインチョウ",
    "street": null,
    "office_name": null,
    "office_name_kana": null
  },
  "8431": {
    "postcode": "6168431",
    "prefecture": "京都府",
    "prefecture_kana": "キョウトフ",
    "prefecture_code": 26,
    "city": "京都市右京区",
    "city_kana": "キョウトシウキョウク",
    "town": "嵯峨鳥居本一華表町",
    "town_kana": "サガトリイモトイッカヒョウチョウ",
    "street": null,
    "office_name": null,
    "office_name_kana": null
  },
  "8432": {
    "postcode": "6168432",
    "prefecture": "京都府",
    "prefecture_kana": "キョウトフ",
    "prefecture_code": 26,
    "city": "京都市右京区",
    "city_kana": "キョウトシウキョウク",
    "town": "嵯峨鳥居本北代町",
    "town_kana": "サガトリイモトキタダイチョウ",
    "street": null,
    "office_name": null,
    "office_name_kana": null
  },
  "8433": {
    "postcode": "6168433",
    "prefecture": "京都府",
    "prefecture_kana": "キョウトフ",
    "prefecture_code": 26,
    "city": "京都市右京区",
    "city_kana": "キョウトシウキョウク",
    "town": "嵯峨鳥居本中筋町",
    "town_kana": "サガトリイモトナカスジチョウ",
    "street": null,
    "office_name": null,
    "office_name_kana": null
  },
  "8434": {
    "postcode": "6168434",
    "prefecture": "京都府",
    "prefecture_kana": "キョウトフ",
    "prefecture_code": 26,
    "city": "京都市右京区",
    "city_kana": "キョウトシウキョウク",
    "town": "嵯峨鳥居本仏餉田町",
    "town_kana": "サガトリイモトブツショウデンチョウ",
    "street": null,
    "office_name": null,
    "office_name_kana": null
  },
  "8435": {
    "postcode": "6168435",
    "prefecture": "京都府",
    "prefecture_kana": "キョウトフ",
    "prefecture_code": 26,
    "city": "京都市右京区",
    "city_kana": "キョウトシウキョウク",
    "town": "嵯峨鳥居本小坂町",
    "town_kana": "サガトリイモトコザカチョウ",
    "street": null,
    "office_name": null,
    "office_name_kana": null
  },
  "8436": {
    "postcode": "6168436",
    "prefecture": "京都府",
    "prefecture_kana": "キョウトフ",
    "prefecture_code": 26,
    "city": "京都市右京区",
    "city_kana": "キョウトシウキョウク",
    "town": "嵯峨鳥居本化野町",
    "town_kana": "サガトリイモトアダシノチョウ",
    "street": null,
    "office_name": null,
    "office_name_kana": null
  },
  "8437": {
    "postcode": "6168437",
    "prefecture": "京都府",
    "prefecture_kana": "キョウトフ",
    "prefecture_code": 26,
    "city": "京都市右京区",
    "city_kana": "キョウトシウキョウク",
    "town": "嵯峨鳥居本仙翁町",
    "town_kana": "サガトリイモトセンノウチョウ",
    "street": null,
    "office_name": null,
    "office_name_kana": null
  },
  "8438": {
    "postcode": "6168438",
    "prefecture": "京都府",
    "prefecture_kana": "キョウトフ",
    "prefecture_code": 26,
    "city": "京都市右京区",
    "city_kana": "キョウトシウキョウク",
    "town": "嵯峨鳥居本六反町",
    "town_kana": "サガトリイモトロクタンチョウ",
    "street": null,
    "office_name": null,
    "office_name_kana": null
  },
  "8439": {
    "postcode": "6168439",
    "prefecture": "京都府",
    "prefecture_kana": "キョウトフ",
    "prefecture_code": 26,
    "city": "京都市右京区",
    "city_kana": "キョウトシウキョウク",
    "town": "嵯峨鳥居本深谷町",
    "town_kana": "サガトリイモトフカタニチョウ",
    "street": null,
    "office_name": null,
    "office_name_kana": null
  },
  "8441": {
    "postcode": "6168441",
    "prefecture": "京都府",
    "prefecture_kana": "キョウトフ",
    "prefecture_code": 26,
    "city": "京都市右京区",
    "city_kana": "キョウトシウキョウク",
    "town": "北嵯峨北ノ段町",
    "town_kana": "キタサガキタノダンチョウ",
    "street": null,
    "office_name": null,
    "office_name_kana": null
  },
  "8442": {
    "postcode": "6168442",
    "prefecture": "京都府",
    "prefecture_kana": "キョウトフ",
    "prefecture_code": 26,
    "city": "京都市右京区",
    "city_kana": "キョウトシウキョウク",
    "town": "北嵯峨気比社町",
    "town_kana": "キタサガキビシャチョウ",
    "street": null,
    "office_name": null,
    "office_name_kana": null
  },
  "8443": {
    "postcode": "6168443",
    "prefecture": "京都府",
    "prefecture_kana": "キョウトフ",
    "prefecture_code": 26,
    "city": "京都市右京区",
    "city_kana": "キョウトシウキョウク",
    "town": "嵯峨観空寺明水町",
    "town_kana": "サガカンクウジミョウズイチョウ",
    "street": null,
    "office_name": null,
    "office_name_kana": null
  },
  "8444": {
    "postcode": "6168444",
    "prefecture": "京都府",
    "prefecture_kana": "キョウトフ",
    "prefecture_code": 26,
    "city": "京都市右京区",
    "city_kana": "キョウトシウキョウク",
    "town": "嵯峨観空寺久保殿町",
    "town_kana": "サガカンクウジクボデンチョウ",
    "street": null,
    "office_name": null,
    "office_name_kana": null
  },
  "8445": {
    "postcode": "6168445",
    "prefecture": "京都府",
    "prefecture_kana": "キョウトフ",
    "prefecture_code": 26,
    "city": "京都市右京区",
    "city_kana": "キョウトシウキョウク",
    "town": "嵯峨観空寺岡崎町",
    "town_kana": "サガカンクウジオカザキチョウ",
    "street": null,
    "office_name": null,
    "office_name_kana": null
  },
  "8446": {
    "postcode": "6168446",
    "prefecture": "京都府",
    "prefecture_kana": "キョウトフ",
    "prefecture_code": 26,
    "city": "京都市右京区",
    "city_kana": "キョウトシウキョウク",
    "town": "嵯峨観空寺谷町",
    "town_kana": "サガカンクウジダニチョウ",
    "street": null,
    "office_name": null,
    "office_name_kana": null
  },
  "8447": {
    "postcode": "6168447",
    "prefecture": "京都府",
    "prefecture_kana": "キョウトフ",
    "prefecture_code": 26,
    "city": "京都市右京区",
    "city_kana": "キョウトシウキョウク",
    "town": "嵯峨釈迦堂藤ノ木町",
    "town_kana": "サガシャカドウフジノキチョウ",
    "street": null,
    "office_name": null,
    "office_name_kana": null
  },
  "8451": {
    "postcode": "6168451",
    "prefecture": "京都府",
    "prefecture_kana": "キョウトフ",
    "prefecture_code": 26,
    "city": "京都市右京区",
    "city_kana": "キョウトシウキョウク",
    "town": "嵯峨清滝一華表町",
    "town_kana": "サガキヨタキイッカヒョウチョウ",
    "street": null,
    "office_name": null,
    "office_name_kana": null
  },
  "8452": {
    "postcode": "6168452",
    "prefecture": "京都府",
    "prefecture_kana": "キョウトフ",
    "prefecture_code": 26,
    "city": "京都市右京区",
    "city_kana": "キョウトシウキョウク",
    "town": "嵯峨清滝町",
    "town_kana": "サガキヨタキチョウ",
    "street": null,
    "office_name": null,
    "office_name_kana": null
  },
  "8453": {
    "postcode": "6168453",
    "prefecture": "京都府",
    "prefecture_kana": "キョウトフ",
    "prefecture_code": 26,
    "city": "京都市右京区",
    "city_kana": "キョウトシウキョウク",
    "town": "嵯峨清滝大谷町",
    "town_kana": "サガキヨタキオオタニチョウ",
    "street": null,
    "office_name": null,
    "office_name_kana": null
  },
  "8454": {
    "postcode": "6168454",
    "prefecture": "京都府",
    "prefecture_kana": "キョウトフ",
    "prefecture_code": 26,
    "city": "京都市右京区",
    "city_kana": "キョウトシウキョウク",
    "town": "嵯峨清滝深谷町",
    "town_kana": "サガキヨタキフカタニチョウ",
    "street": null,
    "office_name": null,
    "office_name_kana": null
  },
  "8455": {
    "postcode": "6168455",
    "prefecture": "京都府",
    "prefecture_kana": "キョウトフ",
    "prefecture_code": 26,
    "city": "京都市右京区",
    "city_kana": "キョウトシウキョウク",
    "town": "嵯峨清滝田鶴原町",
    "town_kana": "サガキヨタキタヅハラチョウ",
    "street": null,
    "office_name": null,
    "office_name_kana": null
  },
  "8456": {
    "postcode": "6168456",
    "prefecture": "京都府",
    "prefecture_kana": "キョウトフ",
    "prefecture_code": 26,
    "city": "京都市右京区",
    "city_kana": "キョウトシウキョウク",
    "town": "嵯峨清滝月ノ輪町",
    "town_kana": "サガキヨタキツキノワチョウ",
    "street": null,
    "office_name": null,
    "office_name_kana": null
  },
  "8457": {
    "postcode": "6168457",
    "prefecture": "京都府",
    "prefecture_kana": "キョウトフ",
    "prefecture_code": 26,
    "city": "京都市右京区",
    "city_kana": "キョウトシウキョウク",
    "town": "嵯峨清滝空也滝町",
    "town_kana": "サガキヨタキクウヤダキチョウ",
    "street": null,
    "office_name": null,
    "office_name_kana": null
  },
  "8458": {
    "postcode": "6168458",
    "prefecture": "京都府",
    "prefecture_kana": "キョウトフ",
    "prefecture_code": 26,
    "city": "京都市右京区",
    "city_kana": "キョウトシウキョウク",
    "town": "嵯峨愛宕町",
    "town_kana": "サガアタゴチョウ",
    "street": null,
    "office_name": null,
    "office_name_kana": null
  },
  "8461": {
    "postcode": "6168461",
    "prefecture": "京都府",
    "prefecture_kana": "キョウトフ",
    "prefecture_code": 26,
    "city": "京都市右京区",
    "city_kana": "キョウトシウキョウク",
    "town": "嵯峨水尾鳩ケ巣",
    "town_kana": "サガミズオハトガス",
    "street": null,
    "office_name": null,
    "office_name_kana": null
  },
  "8462": {
    "postcode": "6168462",
    "prefecture": "京都府",
    "prefecture_kana": "キョウトフ",
    "prefecture_code": 26,
    "city": "京都市右京区",
    "city_kana": "キョウトシウキョウク",
    "town": "嵯峨水尾岡ノ窪町",
    "town_kana": "サガミズオオカノクボチョウ",
    "street": null,
    "office_name": null,
    "office_name_kana": null
  },
  "8463": {
    "postcode": "6168463",
    "prefecture": "京都府",
    "prefecture_kana": "キョウトフ",
    "prefecture_code": 26,
    "city": "京都市右京区",
    "city_kana": "キョウトシウキョウク",
    "town": "嵯峨水尾竹ノ尻町",
    "town_kana": "サガミズオタケノシリチョウ",
    "street": null,
    "office_name": null,
    "office_name_kana": null
  },
  "8464": {
    "postcode": "6168464",
    "prefecture": "京都府",
    "prefecture_kana": "キョウトフ",
    "prefecture_code": 26,
    "city": "京都市右京区",
    "city_kana": "キョウトシウキョウク",
    "town": "嵯峨水尾武蔵嶋町",
    "town_kana": "サガミズオムサシジマチョウ",
    "street": null,
    "office_name": null,
    "office_name_kana": null
  },
  "8465": {
    "postcode": "6168465",
    "prefecture": "京都府",
    "prefecture_kana": "キョウトフ",
    "prefecture_code": 26,
    "city": "京都市右京区",
    "city_kana": "キョウトシウキョウク",
    "town": "嵯峨水尾宮ノ脇町",
    "town_kana": "サガミズオミヤノワキチョウ",
    "street": null,
    "office_name": null,
    "office_name_kana": null
  },
  "8466": {
    "postcode": "6168466",
    "prefecture": "京都府",
    "prefecture_kana": "キョウトフ",
    "prefecture_code": 26,
    "city": "京都市右京区",
    "city_kana": "キョウトシウキョウク",
    "town": "嵯峨水尾清和",
    "town_kana": "サガミズオセイワ",
    "street": null,
    "office_name": null,
    "office_name_kana": null
  },
  "8467": {
    "postcode": "6168467",
    "prefecture": "京都府",
    "prefecture_kana": "キョウトフ",
    "prefecture_code": 26,
    "city": "京都市右京区",
    "city_kana": "キョウトシウキョウク",
    "town": "嵯峨水尾大岩",
    "town_kana": "サガミズオオオイワ",
    "street": null,
    "office_name": null,
    "office_name_kana": null
  },
  "8468": {
    "postcode": "6168468",
    "prefecture": "京都府",
    "prefecture_kana": "キョウトフ",
    "prefecture_code": 26,
    "city": "京都市右京区",
    "city_kana": "キョウトシウキョウク",
    "town": "嵯峨水尾北垣内町",
    "town_kana": "サガミズオキタガイチチョウ",
    "street": null,
    "office_name": null,
    "office_name_kana": null
  },
  "8471": {
    "postcode": "6168471",
    "prefecture": "京都府",
    "prefecture_kana": "キョウトフ",
    "prefecture_code": 26,
    "city": "京都市右京区",
    "city_kana": "キョウトシウキョウク",
    "town": "嵯峨樒原稲荷元町",
    "town_kana": "サガシキミガハライナリモトチョウ",
    "street": null,
    "office_name": null,
    "office_name_kana": null
  },
  "8472": {
    "postcode": "6168472",
    "prefecture": "京都府",
    "prefecture_kana": "キョウトフ",
    "prefecture_code": 26,
    "city": "京都市右京区",
    "city_kana": "キョウトシウキョウク",
    "town": "嵯峨樒原高見町",
    "town_kana": "サガシキミガハラタカミチョウ",
    "street": null,
    "office_name": null,
    "office_name_kana": null
  },
  "8473": {
    "postcode": "6168473",
    "prefecture": "京都府",
    "prefecture_kana": "キョウトフ",
    "prefecture_code": 26,
    "city": "京都市右京区",
    "city_kana": "キョウトシウキョウク",
    "town": "嵯峨樒原若宮下町",
    "town_kana": "サガシキミガハラワカミヤシタチョウ",
    "street": null,
    "office_name": null,
    "office_name_kana": null
  },
  "8474": {
    "postcode": "6168474",
    "prefecture": "京都府",
    "prefecture_kana": "キョウトフ",
    "prefecture_code": 26,
    "city": "京都市右京区",
    "city_kana": "キョウトシウキョウク",
    "town": "嵯峨樒原清水町",
    "town_kana": "サガシキミガハラシミズチョウ",
    "street": null,
    "office_name": null,
    "office_name_kana": null
  },
  "8475": {
    "postcode": "6168475",
    "prefecture": "京都府",
    "prefecture_kana": "キョウトフ",
    "prefecture_code": 26,
    "city": "京都市右京区",
    "city_kana": "キョウトシウキョウク",
    "town": "嵯峨樒原宮ノ上町",
    "town_kana": "サガシキミガハラミヤノウエチョウ",
    "street": null,
    "office_name": null,
    "office_name_kana": null
  },
  "8481": {
    "postcode": "6168481",
    "prefecture": "京都府",
    "prefecture_kana": "キョウトフ",
    "prefecture_code": 26,
    "city": "京都市右京区",
    "city_kana": "キョウトシウキョウク",
    "town": "嵯峨越畑桃原",
    "town_kana": "サガコシハタモモハラ",
    "street": null,
    "office_name": null,
    "office_name_kana": null
  },
  "8482": {
    "postcode": "6168482",
    "prefecture": "京都府",
    "prefecture_kana": "キョウトフ",
    "prefecture_code": 26,
    "city": "京都市右京区",
    "city_kana": "キョウトシウキョウク",
    "town": "嵯峨越畑正権条",
    "town_kana": "サガコシハタショウゴンジョウ",
    "street": null,
    "office_name": null,
    "office_name_kana": null
  },
  "8483": {
    "postcode": "6168483",
    "prefecture": "京都府",
    "prefecture_kana": "キョウトフ",
    "prefecture_code": 26,
    "city": "京都市右京区",
    "city_kana": "キョウトシウキョウク",
    "town": "嵯峨越畑鍋浦",
    "town_kana": "サガコシハタナベウラ",
    "street": null,
    "office_name": null,
    "office_name_kana": null
  },
  "8484": {
    "postcode": "6168484",
    "prefecture": "京都府",
    "prefecture_kana": "キョウトフ",
    "prefecture_code": 26,
    "city": "京都市右京区",
    "city_kana": "キョウトシウキョウク",
    "town": "嵯峨越畑筋違",
    "town_kana": "サガコシハタスジチガイ",
    "street": null,
    "office_name": null,
    "office_name_kana": null
  },
  "8485": {
    "postcode": "6168485",
    "prefecture": "京都府",
    "prefecture_kana": "キョウトフ",
    "prefecture_code": 26,
    "city": "京都市右京区",
    "city_kana": "キョウトシウキョウク",
    "town": "嵯峨越畑兵庫前町",
    "town_kana": "サガコシハタヒョウゴマエチョウ",
    "street": null,
    "office_name": null,
    "office_name_kana": null
  },
  "8486": {
    "postcode": "6168486",
    "prefecture": "京都府",
    "prefecture_kana": "キョウトフ",
    "prefecture_code": 26,
    "city": "京都市右京区",
    "city_kana": "キョウトシウキョウク",
    "town": "嵯峨越畑南ノ町",
    "town_kana": "サガコシハタミナミノチョウ",
    "street": null,
    "office_name": null,
    "office_name_kana": null
  },
  "8487": {
    "postcode": "6168487",
    "prefecture": "京都府",
    "prefecture_kana": "キョウトフ",
    "prefecture_code": 26,
    "city": "京都市右京区",
    "city_kana": "キョウトシウキョウク",
    "town": "嵯峨越畑中ノ町",
    "town_kana": "サガコシハタナカノチョウ",
    "street": null,
    "office_name": null,
    "office_name_kana": null
  },
  "8491": {
    "postcode": "6168491",
    "prefecture": "京都府",
    "prefecture_kana": "キョウトフ",
    "prefecture_code": 26,
    "city": "京都市右京区",
    "city_kana": "キョウトシウキョウク",
    "town": "嵯峨越畑北ノ町",
    "town_kana": "サガコシハタキタノチョウ",
    "street": null,
    "office_name": null,
    "office_name_kana": null
  },
  "8492": {
    "postcode": "6168492",
    "prefecture": "京都府",
    "prefecture_kana": "キョウトフ",
    "prefecture_code": 26,
    "city": "京都市右京区",
    "city_kana": "キョウトシウキョウク",
    "town": "嵯峨越畑天慶",
    "town_kana": "サガコシハタテンケイ",
    "street": null,
    "office_name": null,
    "office_name_kana": null
  },
  "8493": {
    "postcode": "6168493",
    "prefecture": "京都府",
    "prefecture_kana": "キョウトフ",
    "prefecture_code": 26,
    "city": "京都市右京区",
    "city_kana": "キョウトシウキョウク",
    "town": "嵯峨越畑桃原垣内",
    "town_kana": "サガコシハタモモハラガイチ",
    "street": null,
    "office_name": null,
    "office_name_kana": null
  },
  "8494": {
    "postcode": "6168494",
    "prefecture": "京都府",
    "prefecture_kana": "キョウトフ",
    "prefecture_code": 26,
    "city": "京都市右京区",
    "city_kana": "キョウトシウキョウク",
    "town": "嵯峨越畑尻谷",
    "town_kana": "サガコシハタシリタニ",
    "street": null,
    "office_name": null,
    "office_name_kana": null
  },
  "8501": {
    "postcode": "6168501",
    "prefecture": "京都府",
    "prefecture_kana": "キョウトフ",
    "prefecture_code": 26,
    "city": "京都市右京区",
    "city_kana": "キョウトシウキョウク",
    "town": "太秦巽町",
    "town_kana": "ウズマサタツミチョウ",
    "street": "１",
    "office_name": "三菱自動車工業　株式会社　パワートレイン製作所",
    "office_name_kana": "ミツビシジドウシヤコウギヨウ カブシキガイシヤ パワ-トレインセイサクシヨ"
  },
  "8511": {
    "postcode": "6168511",
    "prefecture": "京都府",
    "prefecture_kana": "キョウトフ",
    "prefecture_code": 26,
    "city": "京都市右京区",
    "city_kana": "キョウトシウキョウク",
    "town": "太秦下刑部町",
    "town_kana": "ウズマサシモケイブチョウ",
    "street": "１２",
    "office_name": "京都市右京区役所",
    "office_name_kana": "キヨウトシウキヨウクヤクシヨ"
  },
  "8533": {
    "postcode": "6168533",
    "prefecture": "京都府",
    "prefecture_kana": "キョウトフ",
    "prefecture_code": 26,
    "city": "京都市右京区",
    "city_kana": "キョウトシウキョウク",
    "town": "太秦上刑部町",
    "town_kana": "ウズマサカミケイブチョウ",
    "street": "１０",
    "office_name": "大日本印刷　株式会社　京都工場",
    "office_name_kana": "ダイニホンインサツ カブシキガイシヤ キヨウトコウジヨウ"
  },
  "8555": {
    "postcode": "6168555",
    "prefecture": "京都府",
    "prefecture_kana": "キョウトフ",
    "prefecture_code": 26,
    "city": "京都市右京区",
    "city_kana": "キョウトシウキョウク",
    "town": "太秦開日町",
    "town_kana": "ウズマサカイニチチョウ",
    "street": "１０−１",
    "office_name": "日本クリニック　株式会社",
    "office_name_kana": "ニホンクリニツク (カ"
  },
  "8566": {
    "postcode": "6168566",
    "prefecture": "京都府",
    "prefecture_kana": "キョウトフ",
    "prefecture_code": 26,
    "city": "京都市右京区",
    "city_kana": "キョウトシウキョウク",
    "town": "嵯峨天龍寺芒ノ馬場町",
    "town_kana": "サガテンリュウジススキノババチョウ",
    "street": "３−２５",
    "office_name": "美空ひばり館",
    "office_name_kana": "ミソラヒバリカン"
  },
  "8585": {
    "postcode": "6168585",
    "prefecture": "京都府",
    "prefecture_kana": "キョウトフ",
    "prefecture_code": 26,
    "city": "京都市右京区",
    "city_kana": "キョウトシウキョウク",
    "town": "花園薮ノ下町",
    "town_kana": "ハナゾノヤブノシタチョウ",
    "street": "２−３",
    "office_name": "ハマナカ　株式会社",
    "office_name_kana": "ハマナカ カブシキガイシヤ"
  },
  "8586": {
    "postcode": "6168586",
    "prefecture": "京都府",
    "prefecture_kana": "キョウトフ",
    "prefecture_code": 26,
    "city": "京都市右京区",
    "city_kana": "キョウトシウキョウク",
    "town": "太秦東蜂岡町",
    "town_kana": "ウズマサヒガシハチオカチョウ",
    "street": "１０",
    "office_name": "東映太秦映画村",
    "office_name_kana": "トウエイウズマサエイガムラ"
  },
  "8666": {
    "postcode": "6168666",
    "prefecture": "京都府",
    "prefecture_kana": "キョウトフ",
    "prefecture_code": 26,
    "city": "京都市右京区",
    "city_kana": "キョウトシウキョウク",
    "town": "太秦下刑部町",
    "town_kana": "ウズマサシモケイブチョウ",
    "street": "１２番地サンサ右京２階",
    "office_name": "京都市証明郵送センター",
    "office_name_kana": "キヨウトシシヨウメイユウソウセンタ-"
  }
}