{
  "0000": [
    {
      "postcode": "6180000",
      "prefecture": "京都府",
      "prefecture_kana": "キョウトフ",
      "prefecture_code": 26,
      "city": "乙訓郡大山崎町",
      "city_kana": "オトクニグンオオヤマザキチョウ",
      "town": "",
      "town_kana": "",
      "street": null,
      "office_name": null,
      "office_name_kana": null
    },
    {
      "postcode": "6180000",
      "prefecture": "大阪府",
      "prefecture_kana": "オオサカフ",
      "prefecture_code": 27,
      "city": "三島郡島本町",
      "city_kana": "ミシマグンシマモトチョウ",
      "town": "",
      "town_kana": "",
      "street": null,
      "office_name": null,
      "office_name_kana": null
    }
  ],
  "0001": {
    "postcode": "6180001",
    "prefecture": "大阪府",
    "prefecture_kana": "オオサカフ",
    "prefecture_code": 27,
    "city": "三島郡島本町",
    "city_kana": "ミシマグンシマモトチョウ",
    "town": "山崎",
    "town_kana": "ヤマザキ",
    "street": null,
    "office_name": null,
    "office_name_kana": null
  },
  "0002": {
    "postcode": "6180002",
    "prefecture": "大阪府",
    "prefecture_kana": "オオサカフ",
    "prefecture_code": 27,
    "city": "三島郡島本町",
    "city_kana": "ミシマグンシマモトチョウ",
    "town": "東大寺",
    "town_kana": "トウダイジ",
    "street": null,
    "office_name": null,
    "office_name_kana": null
  },
  "0003": {
    "postcode": "6180003",
    "prefecture": "大阪府",
    "prefecture_kana": "オオサカフ",
    "prefecture_code": 27,
    "city": "三島郡島本町",
    "city_kana": "ミシマグンシマモトチョウ",
    "town": "尺代",
    "town_kana": "シャクダイ",
    "street": null,
    "office_name": null,
    "office_name_kana": null
  },
  "0004": {
    "postcode": "6180004",
    "prefecture": "大阪府",
    "prefecture_kana": "オオサカフ",
    "prefecture_code": 27,
    "city": "三島郡島本町",
    "city_kana": "ミシマグンシマモトチョウ",
    "town": "大沢",
    "town_kana": "オオサワ",
    "street": null,
    "office_name": null,
    "office_name_kana": null
  },
  "0011": {
    "postcode": "6180011",
    "prefecture": "大阪府",
    "prefecture_kana": "オオサカフ",
    "prefecture_code": 27,
    "city": "三島郡島本町",
    "city_kana": "ミシマグンシマモトチョウ",
    "town": "広瀬",
    "town_kana": "ヒロセ",
    "street": null,
    "office_name": null,
    "office_name_kana": null
  },
  "0012": {
    "postcode": "6180012",
    "prefecture": "大阪府",
    "prefecture_kana": "オオサカフ",
    "prefecture_code": 27,
    "city": "三島郡島本町",
    "city_kana": "ミシマグンシマモトチョウ",
    "town": "高浜",
    "town_kana": "タカハマ",
    "street": null,
    "office_name": null,
    "office_name_kana": null
  },
  "0013": {
    "postcode": "6180013",
    "prefecture": "大阪府",
    "prefecture_kana": "オオサカフ",
    "prefecture_code": 27,
    "city": "三島郡島本町",
    "city_kana": "ミシマグンシマモトチョウ",
    "town": "江川",
    "town_kana": "エガワ",
    "street": null,
    "office_name": null,
    "office_name_kana": null
  },
  "0014": {
    "postcode": "6180014",
    "prefecture": "大阪府",
    "prefecture_kana": "オオサカフ",
    "prefecture_code": 27,
    "city": "三島郡島本町",
    "city_kana": "ミシマグンシマモトチョウ",
    "town": "水無瀬",
    "town_kana": "ミナセ",
    "street": null,
    "office_name": null,
    "office_name_kana": null
  },
  "0015": {
    "postcode": "6180015",
    "prefecture": "大阪府",
    "prefecture_kana": "オオサカフ",
    "prefecture_code": 27,
    "city": "三島郡島本町",
    "city_kana": "ミシマグンシマモトチョウ",
    "town": "青葉",
    "town_kana": "アオバ",
    "street": null,
    "office_name": null,
    "office_name_kana": null
  },
  "0021": {
    "postcode": "6180021",
    "prefecture": "大阪府",
    "prefecture_kana": "オオサカフ",
    "prefecture_code": 27,
    "city": "三島郡島本町",
    "city_kana": "ミシマグンシマモトチョウ",
    "town": "百山",
    "town_kana": "ヒャクヤマ",
    "street": null,
    "office_name": null,
    "office_name_kana": null
  },
  "0022": {
    "postcode": "6180022",
    "prefecture": "大阪府",
    "prefecture_kana": "オオサカフ",
    "prefecture_code": 27,
    "city": "三島郡島本町",
    "city_kana": "ミシマグンシマモトチョウ",
    "town": "桜井",
    "town_kana": "サクライ",
    "street": null,
    "office_name": null,
    "office_name_kana": null
  },
  "0023": {
    "postcode": "6180023",
    "prefecture": "大阪府",
    "prefecture_kana": "オオサカフ",
    "prefecture_code": 27,
    "city": "三島郡島本町",
    "city_kana": "ミシマグンシマモトチョウ",
    "town": "桜井台",
    "town_kana": "サクライダイ",
    "street": null,
    "office_name": null,
    "office_name_kana": null
  },
  "0024": {
    "postcode": "6180024",
    "prefecture": "大阪府",
    "prefecture_kana": "オオサカフ",
    "prefecture_code": 27,
    "city": "三島郡島本町",
    "city_kana": "ミシマグンシマモトチョウ",
    "town": "若山台",
    "town_kana": "ワカヤマダイ",
    "street": null,
    "office_name": null,
    "office_name_kana": null
  },
  "0071": {
    "postcode": "6180071",
    "prefecture": "京都府",
    "prefecture_kana": "キョウトフ",
    "prefecture_code": 26,
    "city": "乙訓郡大山崎町",
    "city_kana": "オトクニグンオオヤマザキチョウ",
    "town": "大山崎",
    "town_kana": "オオヤマザキ",
    "street": null,
    "office_name": null,
    "office_name_kana": null
  },
  "0081": {
    "postcode": "6180081",
    "prefecture": "京都府",
    "prefecture_kana": "キョウトフ",
    "prefecture_code": 26,
    "city": "乙訓郡大山崎町",
    "city_kana": "オトクニグンオオヤマザキチョウ",
    "town": "下植野",
    "town_kana": "シモウエノ",
    "street": null,
    "office_name": null,
    "office_name_kana": null
  },
  "0091": {
    "postcode": "6180091",
    "prefecture": "京都府",
    "prefecture_kana": "キョウトフ",
    "prefecture_code": 26,
    "city": "乙訓郡大山崎町",
    "city_kana": "オトクニグンオオヤマザキチョウ",
    "town": "円明寺",
    "town_kana": "エンミョウジ",
    "street": null,
    "office_name": null,
    "office_name_kana": null
  },
  "8501": {
    "postcode": "6188501",
    "prefecture": "京都府",
    "prefecture_kana": "キョウトフ",
    "prefecture_code": 26,
    "city": "乙訓郡大山崎町",
    "city_kana": "オトクニグンオオヤマザキチョウ",
    "town": "字円明寺",
    "town_kana": null,
    "street": "小字夏目３",
    "office_name": "大山崎町役場",
    "office_name_kana": "オオヤマザキチヨウヤクバ"
  },
  "8502": {
    "postcode": "6188502",
    "prefecture": "大阪府",
    "prefecture_kana": "オオサカフ",
    "prefecture_code": 27,
    "city": "三島郡島本町",
    "city_kana": "ミシマグンシマモトチョウ",
    "town": "若山台",
    "town_kana": "ワカヤマダイ",
    "street": "１丁目１−１",
    "office_name": "大阪青凌中学校・高等学校",
    "office_name_kana": "オオサカセイリヨウチユウガツコウ・コウトウガツコウ"
  },
  "8511": {
    "postcode": "6188511",
    "prefecture": "京都府",
    "prefecture_kana": "キョウトフ",
    "prefecture_code": 26,
    "city": "乙訓郡大山崎町",
    "city_kana": "オトクニグンオオヤマザキチョウ",
    "town": "字大山崎",
    "town_kana": null,
    "street": "小字岸畑２２",
    "office_name": "日立建機　株式会社　西日本事業部",
    "office_name_kana": "ヒタチケンキ カブシキガイシヤ ニシニホンジギヨウブ"
  },
  "8518": {
    "postcode": "6188518",
    "prefecture": "大阪府",
    "prefecture_kana": "オオサカフ",
    "prefecture_code": 27,
    "city": "三島郡島本町",
    "city_kana": "ミシマグンシマモトチョウ",
    "town": "大字山崎",
    "town_kana": null,
    "street": "５丁目３番１８号",
    "office_name": "社会福祉法人　大阪水上隣保館",
    "office_name_kana": "シヤカイフクシホウジン オオサカスイジヨウリンポカン"
  },
  "8525": {
    "postcode": "6188525",
    "prefecture": "京都府",
    "prefecture_kana": "キョウトフ",
    "prefecture_code": 26,
    "city": "乙訓郡大山崎町",
    "city_kana": "オトクニグンオオヤマザキチョウ",
    "town": "字大山崎",
    "town_kana": null,
    "street": "小字小泉２",
    "office_name": "日立マクセル　株式会社　アドバンスドテープ事業部・二次電池事業部",
    "office_name_kana": "ヒタチマクセル カブシキガイシヤ アドバンスドテ-プジギヨウブ・ニジデンチジギヨウブ"
  },
  "8555": {
    "postcode": "6188555",
    "prefecture": "大阪府",
    "prefecture_kana": "オオサカフ",
    "prefecture_code": 27,
    "city": "三島郡島本町",
    "city_kana": "ミシマグンシマモトチョウ",
    "town": "江川",
    "town_kana": "エガワ",
    "street": "２丁目１５−１７",
    "office_name": "株式会社　ＮＥＯＭＡＸ",
    "office_name_kana": "カブシキガイシヤ ネオマツクス"
  },
  "8558": {
    "postcode": "6188558",
    "prefecture": "京都府",
    "prefecture_kana": "キョウトフ",
    "prefecture_code": 26,
    "city": "乙訓郡大山崎町",
    "city_kana": "オトクニグンオオヤマザキチョウ",
    "town": "字大山崎",
    "town_kana": null,
    "street": "小字鏡田４５−１０１",
    "office_name": "マクセル精器　株式会社",
    "office_name_kana": "マクセルセイキ カブシキガイシヤ"
  },
  "8567": {
    "postcode": "6188567",
    "prefecture": "京都府",
    "prefecture_kana": "キョウトフ",
    "prefecture_code": 26,
    "city": "乙訓郡大山崎町",
    "city_kana": "オトクニグンオオヤマザキチョウ",
    "town": "字下植野",
    "town_kana": null,
    "street": "小字二階下１３",
    "office_name": "株式会社　東亜セイコー",
    "office_name_kana": "カブシキガイシヤ トウアセイコ-"
  },
  "8570": {
    "postcode": "6188570",
    "prefecture": "大阪府",
    "prefecture_kana": "オオサカフ",
    "prefecture_code": 27,
    "city": "三島郡島本町",
    "city_kana": "ミシマグンシマモトチョウ",
    "town": "桜井",
    "town_kana": "サクライ",
    "street": "２丁目１−１",
    "office_name": "島本町役場",
    "office_name_kana": "シマモトチヨウヤクバ"
  },
  "8585": {
    "postcode": "6188585",
    "prefecture": "大阪府",
    "prefecture_kana": "オオサカフ",
    "prefecture_code": 27,
    "city": "三島郡島本町",
    "city_kana": "ミシマグンシマモトチョウ",
    "town": "桜井",
    "town_kana": "サクライ",
    "street": "３丁目１−１",
    "office_name": "小野薬品工業　株式会社　水無瀬総合研究所",
    "office_name_kana": "オノヤクヒンコウギヨウ カブシキガイシヤ ミナセソウゴウケンキユウシヨ"
  }
}