{
  "0200": [
    {
      "postcode": "6190200",
      "prefecture": "京都府",
      "prefecture_kana": "キョウトフ",
      "prefecture_code": 26,
      "city": "木津川市",
      "city_kana": "キヅガワシ",
      "town": "",
      "town_kana": "",
      "street": null,
      "office_name": null,
      "office_name_kana": null
    },
    {
      "postcode": "6190200",
      "prefecture": "京都府",
      "prefecture_kana": "キョウトフ",
      "prefecture_code": 26,
      "city": "相楽郡精華町",
      "city_kana": "ソウラクグンセイカチョウ",
      "town": "",
      "town_kana": "",
      "street": null,
      "office_name": null,
      "office_name_kana": null
    }
  ],
  "0201": {
    "postcode": "6190201",
    "prefecture": "京都府",
    "prefecture_kana": "キョウトフ",
    "prefecture_code": 26,
    "city": "木津川市",
    "city_kana": "キヅガワシ",
    "town": "山城町綺田",
    "town_kana": "ヤマシロチョウカバタ",
    "street": null,
    "office_name": null,
    "office_name_kana": null
  },
  "0202": {
    "postcode": "6190202",
    "prefecture": "京都府",
    "prefecture_kana": "キョウトフ",
    "prefecture_code": 26,
    "city": "木津川市",
    "city_kana": "キヅガワシ",
    "town": "山城町平尾",
    "town_kana": "ヤマシロチョウヒラオ",
    "street": null,
    "office_name": null,
    "office_name_kana": null
  },
  "0203": {
    "postcode": "6190203",
    "prefecture": "京都府",
    "prefecture_kana": "キョウトフ",
    "prefecture_code": 26,
    "city": "木津川市",
    "city_kana": "キヅガワシ",
    "town": "山城町神童子",
    "town_kana": "ヤマシロチョウジンドウジ",
    "street": null,
    "office_name": null,
    "office_name_kana": null
  },
  "0204": {
    "postcode": "6190204",
    "prefecture": "京都府",
    "prefecture_kana": "キョウトフ",
    "prefecture_code": 26,
    "city": "木津川市",
    "city_kana": "キヅガワシ",
    "town": "山城町上狛",
    "town_kana": "ヤマシロチョウカミコマ",
    "street": null,
    "office_name": null,
    "office_name_kana": null
  },
  "0205": {
    "postcode": "6190205",
    "prefecture": "京都府",
    "prefecture_kana": "キョウトフ",
    "prefecture_code": 26,
    "city": "木津川市",
    "city_kana": "キヅガワシ",
    "town": "山城町椿井",
    "town_kana": "ヤマシロチョウツバイ",
    "street": null,
    "office_name": null,
    "office_name_kana": null
  },
  "0206": {
    "postcode": "6190206",
    "prefecture": "京都府",
    "prefecture_kana": "キョウトフ",
    "prefecture_code": 26,
    "city": "木津川市",
    "city_kana": "キヅガワシ",
    "town": "山城町北河原",
    "town_kana": "ヤマシロチョウキタガワラ",
    "street": null,
    "office_name": null,
    "office_name_kana": null
  },
  "0211": {
    "postcode": "6190211",
    "prefecture": "京都府",
    "prefecture_kana": "キョウトフ",
    "prefecture_code": 26,
    "city": "木津川市",
    "city_kana": "キヅガワシ",
    "town": "鹿背山",
    "town_kana": "カセヤマ",
    "street": null,
    "office_name": null,
    "office_name_kana": null
  },
  "0212": {
    "postcode": "6190212",
    "prefecture": "京都府",
    "prefecture_kana": "キョウトフ",
    "prefecture_code": 26,
    "city": "木津川市",
    "city_kana": "キヅガワシ",
    "town": "梅谷",
    "town_kana": "ウメダニ",
    "street": null,
    "office_name": null,
    "office_name_kana": null
  },
  "0213": {
    "postcode": "6190213",
    "prefecture": "京都府",
    "prefecture_kana": "キョウトフ",
    "prefecture_code": 26,
    "city": "木津川市",
    "city_kana": "キヅガワシ",
    "town": "市坂",
    "town_kana": "イチサカ",
    "street": null,
    "office_name": null,
    "office_name_kana": null
  },
  "0214": [
    {
      "postcode": "6190214",
      "prefecture": "京都府",
      "prefecture_kana": "キョウトフ",
      "prefecture_code": 26,
      "city": "木津川市",
      "city_kana": "キヅガワシ",
      "town": "木津",
      "town_kana": "キヅ",
      "street": null,
      "office_name": null,
      "office_name_kana": null
    },
    {
      "postcode": "6190214",
      "prefecture": "京都府",
      "prefecture_kana": "キョウトフ",
      "prefecture_code": 26,
      "city": "木津川市",
      "city_kana": "キヅガワシ",
      "town": "木津駅前",
      "town_kana": "キヅエキマエ",
      "street": null,
      "office_name": null,
      "office_name_kana": null
    }
  ],
  "0215": {
    "postcode": "6190215",
    "prefecture": "京都府",
    "prefecture_kana": "キョウトフ",
    "prefecture_code": 26,
    "city": "木津川市",
    "city_kana": "キヅガワシ",
    "town": "梅美台",
    "town_kana": "ウメミダイ",
    "street": null,
    "office_name": null,
    "office_name_kana": null
  },
  "0216": {
    "postcode": "6190216",
    "prefecture": "京都府",
    "prefecture_kana": "キョウトフ",
    "prefecture_code": 26,
    "city": "木津川市",
    "city_kana": "キヅガワシ",
    "town": "州見台",
    "town_kana": "クニミダイ",
    "street": null,
    "office_name": null,
    "office_name_kana": null
  },
  "0217": {
    "postcode": "6190217",
    "prefecture": "京都府",
    "prefecture_kana": "キョウトフ",
    "prefecture_code": 26,
    "city": "木津川市",
    "city_kana": "キヅガワシ",
    "town": "木津町",
    "town_kana": "キヅマチ",
    "street": null,
    "office_name": null,
    "office_name_kana": null
  },
  "0218": {
    "postcode": "6190218",
    "prefecture": "京都府",
    "prefecture_kana": "キョウトフ",
    "prefecture_code": 26,
    "city": "木津川市",
    "city_kana": "キヅガワシ",
    "town": "城山台",
    "town_kana": "シロヤマダイ",
    "street": null,
    "office_name": null,
    "office_name_kana": null
  },
  "0221": {
    "postcode": "6190221",
    "prefecture": "京都府",
    "prefecture_kana": "キョウトフ",
    "prefecture_code": 26,
    "city": "木津川市",
    "city_kana": "キヅガワシ",
    "town": "吐師",
    "town_kana": "ハゼ",
    "street": null,
    "office_name": null,
    "office_name_kana": null
  },
  "0222": {
    "postcode": "6190222",
    "prefecture": "京都府",
    "prefecture_kana": "キョウトフ",
    "prefecture_code": 26,
    "city": "木津川市",
    "city_kana": "キヅガワシ",
    "town": "相楽",
    "town_kana": "サガナカ",
    "street": null,
    "office_name": null,
    "office_name_kana": null
  },
  "0223": {
    "postcode": "6190223",
    "prefecture": "京都府",
    "prefecture_kana": "キョウトフ",
    "prefecture_code": 26,
    "city": "木津川市",
    "city_kana": "キヅガワシ",
    "town": "相楽台",
    "town_kana": "サガナカダイ",
    "street": null,
    "office_name": null,
    "office_name_kana": null
  },
  "0224": {
    "postcode": "6190224",
    "prefecture": "京都府",
    "prefecture_kana": "キョウトフ",
    "prefecture_code": 26,
    "city": "木津川市",
    "city_kana": "キヅガワシ",
    "town": "兜台",
    "town_kana": "カブトダイ",
    "street": null,
    "office_name": null,
    "office_name_kana": null
  },
  "0225": {
    "postcode": "6190225",
    "prefecture": "京都府",
    "prefecture_kana": "キョウトフ",
    "prefecture_code": 26,
    "city": "木津川市",
    "city_kana": "キヅガワシ",
    "town": "木津川台",
    "town_kana": "キヅガワダイ",
    "street": null,
    "office_name": null,
    "office_name_kana": null
  },
  "0231": {
    "postcode": "6190231",
    "prefecture": "京都府",
    "prefecture_kana": "キョウトフ",
    "prefecture_code": 26,
    "city": "相楽郡精華町",
    "city_kana": "ソウラクグンセイカチョウ",
    "town": "山田",
    "town_kana": "ヤマダ",
    "street": null,
    "office_name": null,
    "office_name_kana": null
  },
  "0232": {
    "postcode": "6190232",
    "prefecture": "京都府",
    "prefecture_kana": "キョウトフ",
    "prefecture_code": 26,
    "city": "相楽郡精華町",
    "city_kana": "ソウラクグンセイカチョウ",
    "town": "桜が丘",
    "town_kana": "サクラガオカ",
    "street": null,
    "office_name": null,
    "office_name_kana": null
  },
  "0233": {
    "postcode": "6190233",
    "prefecture": "京都府",
    "prefecture_kana": "キョウトフ",
    "prefecture_code": 26,
    "city": "相楽郡精華町",
    "city_kana": "ソウラクグンセイカチョウ",
    "town": "乾谷",
    "town_kana": "イヌイダニ",
    "street": null,
    "office_name": null,
    "office_name_kana": null
  },
  "0234": {
    "postcode": "6190234",
    "prefecture": "京都府",
    "prefecture_kana": "キョウトフ",
    "prefecture_code": 26,
    "city": "相楽郡精華町",
    "city_kana": "ソウラクグンセイカチョウ",
    "town": "柘榴",
    "town_kana": "ザクロ",
    "street": null,
    "office_name": null,
    "office_name_kana": null
  },
  "0235": {
    "postcode": "6190235",
    "prefecture": "京都府",
    "prefecture_kana": "キョウトフ",
    "prefecture_code": 26,
    "city": "相楽郡精華町",
    "city_kana": "ソウラクグンセイカチョウ",
    "town": "東畑",
    "town_kana": "ヒガシバタ",
    "street": null,
    "office_name": null,
    "office_name_kana": null
  },
  "0236": {
    "postcode": "6190236",
    "prefecture": "京都府",
    "prefecture_kana": "キョウトフ",
    "prefecture_code": 26,
    "city": "相楽郡精華町",
    "city_kana": "ソウラクグンセイカチョウ",
    "town": "植田",
    "town_kana": "ウエダ",
    "street": null,
    "office_name": null,
    "office_name_kana": null
  },
  "0237": {
    "postcode": "6190237",
    "prefecture": "京都府",
    "prefecture_kana": "キョウトフ",
    "prefecture_code": 26,
    "city": "相楽郡精華町",
    "city_kana": "ソウラクグンセイカチョウ",
    "town": "光台",
    "town_kana": "ヒカリダイ",
    "street": null,
    "office_name": null,
    "office_name_kana": null
  },
  "0238": {
    "postcode": "6190238",
    "prefecture": "京都府",
    "prefecture_kana": "キョウトフ",
    "prefecture_code": 26,
    "city": "相楽郡精華町",
    "city_kana": "ソウラクグンセイカチョウ",
    "town": "精華台",
    "town_kana": "セイカダイ",
    "street": null,
    "office_name": null,
    "office_name_kana": null
  },
  "0240": {
    "postcode": "6190240",
    "prefecture": "京都府",
    "prefecture_kana": "キョウトフ",
    "prefecture_code": 26,
    "city": "相楽郡精華町",
    "city_kana": "ソウラクグンセイカチョウ",
    "town": "祝園西",
    "town_kana": "ホウソノニシ",
    "street": null,
    "office_name": null,
    "office_name_kana": null
  },
  "0241": {
    "postcode": "6190241",
    "prefecture": "京都府",
    "prefecture_kana": "キョウトフ",
    "prefecture_code": 26,
    "city": "相楽郡精華町",
    "city_kana": "ソウラクグンセイカチョウ",
    "town": "祝園",
    "town_kana": "ホウソノ",
    "street": null,
    "office_name": null,
    "office_name_kana": null
  },
  "0242": {
    "postcode": "6190242",
    "prefecture": "京都府",
    "prefecture_kana": "キョウトフ",
    "prefecture_code": 26,
    "city": "相楽郡精華町",
    "city_kana": "ソウラクグンセイカチョウ",
    "town": "菅井",
    "town_kana": "スガイ",
    "street": null,
    "office_name": null,
    "office_name_kana": null
  },
  "0243": {
    "postcode": "6190243",
    "prefecture": "京都府",
    "prefecture_kana": "キョウトフ",
    "prefecture_code": 26,
    "city": "相楽郡精華町",
    "city_kana": "ソウラクグンセイカチョウ",
    "town": "南稲八妻",
    "town_kana": "ミナミイナヤヅマ",
    "street": null,
    "office_name": null,
    "office_name_kana": null
  },
  "0244": {
    "postcode": "6190244",
    "prefecture": "京都府",
    "prefecture_kana": "キョウトフ",
    "prefecture_code": 26,
    "city": "相楽郡精華町",
    "city_kana": "ソウラクグンセイカチョウ",
    "town": "北稲八間",
    "town_kana": "キタイナヤヅマ",
    "street": null,
    "office_name": null,
    "office_name_kana": null
  },
  "0245": {
    "postcode": "6190245",
    "prefecture": "京都府",
    "prefecture_kana": "キョウトフ",
    "prefecture_code": 26,
    "city": "相楽郡精華町",
    "city_kana": "ソウラクグンセイカチョウ",
    "town": "下狛",
    "town_kana": "シモコマ",
    "street": null,
    "office_name": null,
    "office_name_kana": null
  },
  "0246": {
    "postcode": "6190246",
    "prefecture": "京都府",
    "prefecture_kana": "キョウトフ",
    "prefecture_code": 26,
    "city": "相楽郡精華町",
    "city_kana": "ソウラクグンセイカチョウ",
    "town": "菱田",
    "town_kana": "ヒシダ",
    "street": null,
    "office_name": null,
    "office_name_kana": null
  },
  "0247": {
    "postcode": "6190247",
    "prefecture": "京都府",
    "prefecture_kana": "キョウトフ",
    "prefecture_code": 26,
    "city": "相楽郡精華町",
    "city_kana": "ソウラクグンセイカチョウ",
    "town": "狛田",
    "town_kana": "コマダ",
    "street": null,
    "office_name": null,
    "office_name_kana": null
  },
  "0280": {
    "postcode": "6190280",
    "prefecture": "京都府",
    "prefecture_kana": "キョウトフ",
    "prefecture_code": 26,
    "city": "木津川市",
    "city_kana": "キヅガワシ",
    "town": "山城町上狛",
    "town_kana": "ヤマシロチョウカミコマ",
    "street": "北的場３番地の１",
    "office_name": "木津川市役所　山城支所",
    "office_name_kana": "キヅガワシヤクシヨ ヤマシロシシヨ"
  },
  "0282": {
    "postcode": "6190282",
    "prefecture": "京都府",
    "prefecture_kana": "キョウトフ",
    "prefecture_code": 26,
    "city": "相楽郡精華町",
    "city_kana": "ソウラクグンセイカチョウ",
    "town": "精華台",
    "town_kana": "セイカダイ",
    "street": "７丁目５番１号",
    "office_name": "私のしごと館",
    "office_name_kana": "ワタシノシゴトカン"
  },
  "0283": {
    "postcode": "6190283",
    "prefecture": "京都府",
    "prefecture_kana": "キョウトフ",
    "prefecture_code": 26,
    "city": "木津川市",
    "city_kana": "キヅガワシ",
    "town": "木津川台",
    "town_kana": "キヅガワダイ",
    "street": "９丁目１番",
    "office_name": "オムロン　株式会社　京阪奈イノベーションセンタ",
    "office_name_kana": "オムロン カブシキガイシヤ ケイハンナイノベ-シヨンセンタ"
  },
  "0284": {
    "postcode": "6190284",
    "prefecture": "京都府",
    "prefecture_kana": "キョウトフ",
    "prefecture_code": 26,
    "city": "相楽郡精華町",
    "city_kana": "ソウラクグンセイカチョウ",
    "town": "精華台",
    "town_kana": "セイカダイ",
    "street": "８丁目１−１",
    "office_name": "サントリーワールドリサーチセンター",
    "office_name_kana": "サントリ-ワ-ルドリサ-チセンタ-"
  },
  "0285": {
    "postcode": "6190285",
    "prefecture": "京都府",
    "prefecture_kana": "キョウトフ",
    "prefecture_code": 26,
    "city": "相楽郡精華町",
    "city_kana": "ソウラクグンセイカチョウ",
    "town": "大字南稲八妻",
    "town_kana": null,
    "street": "小字北尻７０番地",
    "office_name": "精華町役場",
    "office_name_kana": "セイカチヨウヤクバ"
  },
  "0286": {
    "postcode": "6190286",
    "prefecture": "京都府",
    "prefecture_kana": "キョウトフ",
    "prefecture_code": 26,
    "city": "木津川市",
    "city_kana": "キヅガワシ",
    "town": "木津",
    "town_kana": "キヅ",
    "street": "南垣外１１０−９",
    "office_name": "木津川市役所",
    "office_name_kana": "キヅガワシヤクシヨ"
  },
  "0287": {
    "postcode": "6190287",
    "prefecture": "京都府",
    "prefecture_kana": "キョウトフ",
    "prefecture_code": 26,
    "city": "相楽郡精華町",
    "city_kana": "ソウラクグンセイカチョウ",
    "town": "精華台",
    "town_kana": "セイカダイ",
    "street": "８丁目１−３",
    "office_name": "国立国会図書館　関西館",
    "office_name_kana": "コクリツコツカイトシヨカン カンサイカン"
  },
  "0288": {
    "postcode": "6190288",
    "prefecture": "京都府",
    "prefecture_kana": "キョウトフ",
    "prefecture_code": 26,
    "city": "相楽郡精華町",
    "city_kana": "ソウラクグンセイカチョウ",
    "town": "光台",
    "town_kana": "ヒカリダイ",
    "street": "２丁目２−２",
    "office_name": "（株）　国際電気通信基礎技術研究所",
    "office_name_kana": "(カブ) コクサイデンキツウシンキソギジユツケンキユウシヨ"
  },
  "0289": {
    "postcode": "6190289",
    "prefecture": "京都府",
    "prefecture_kana": "キョウトフ",
    "prefecture_code": 26,
    "city": "相楽郡精華町",
    "city_kana": "ソウラクグンセイカチョウ",
    "town": "光台",
    "town_kana": "ヒカリダイ",
    "street": "３丁目５",
    "office_name": "独立行政法人　情報通信研究機構",
    "office_name_kana": "ドクリツギヨウセイホウジン ジヨウホウツウシンケンキユウキコウ"
  },
  "0292": {
    "postcode": "6190292",
    "prefecture": "京都府",
    "prefecture_kana": "キョウトフ",
    "prefecture_code": 26,
    "city": "木津川市",
    "city_kana": "キヅガワシ",
    "town": "木津川台",
    "town_kana": "キヅガワダイ",
    "street": "９丁目２番地",
    "office_name": "財団法人　地球環境産業技術研究機構",
    "office_name_kana": "ザイダンホウジン チキユウカンキヨウサンギヨウギジユツケンキユウキコウ"
  },
  "0294": {
    "postcode": "6190294",
    "prefecture": "京都府",
    "prefecture_kana": "キョウトフ",
    "prefecture_code": 26,
    "city": "相楽郡精華町",
    "city_kana": "ソウラクグンセイカチョウ",
    "town": "精華台",
    "town_kana": "セイカダイ",
    "street": "７丁目５番地の１",
    "office_name": "関西文化学術研究都市（京都府精華・西木津地区）けいはんなオープンイノベーションセンター（ＫＩＣＫ）",
    "office_name_kana": "カンサイブンカガクジユツケンキユウトシ(キヨウトフセイカ・ニシキヅチク)ケイハンナオ-プンイノベ-シヨンセンタ-(キツク)"
  },
  "0295": {
    "postcode": "6190295",
    "prefecture": "京都府",
    "prefecture_kana": "キョウトフ",
    "prefecture_code": 26,
    "city": "木津川市",
    "city_kana": "キヅガワシ",
    "town": "山城町上狛",
    "town_kana": "ヤマシロチョウカミコマ",
    "street": "東作り道１１−１",
    "office_name": "株式会社　福寿園",
    "office_name_kana": "カブシキガイシヤ フクジユエン"
  },
  "1101": {
    "postcode": "6191101",
    "prefecture": "京都府",
    "prefecture_kana": "キョウトフ",
    "prefecture_code": 26,
    "city": "木津川市",
    "city_kana": "キヅガワシ",
    "town": "加茂町銭司",
    "town_kana": "カモチョウゼズ",
    "street": null,
    "office_name": null,
    "office_name_kana": null
  },
  "1102": {
    "postcode": "6191102",
    "prefecture": "京都府",
    "prefecture_kana": "キョウトフ",
    "prefecture_code": 26,
    "city": "木津川市",
    "city_kana": "キヅガワシ",
    "town": "加茂町井平尾",
    "town_kana": "カモチョウイビラオ",
    "street": null,
    "office_name": null,
    "office_name_kana": null
  },
  "1103": {
    "postcode": "6191103",
    "prefecture": "京都府",
    "prefecture_kana": "キョウトフ",
    "prefecture_code": 26,
    "city": "木津川市",
    "city_kana": "キヅガワシ",
    "town": "加茂町岡崎",
    "town_kana": "カモチョウオカザキ",
    "street": null,
    "office_name": null,
    "office_name_kana": null
  },
  "1104": {
    "postcode": "6191104",
    "prefecture": "京都府",
    "prefecture_kana": "キョウトフ",
    "prefecture_code": 26,
    "city": "木津川市",
    "city_kana": "キヅガワシ",
    "town": "加茂町河原",
    "town_kana": "カモチョウカワラ",
    "street": null,
    "office_name": null,
    "office_name_kana": null
  },
  "1105": {
    "postcode": "6191105",
    "prefecture": "京都府",
    "prefecture_kana": "キョウトフ",
    "prefecture_code": 26,
    "city": "木津川市",
    "city_kana": "キヅガワシ",
    "town": "加茂町西",
    "town_kana": "カモチョウニシ",
    "street": null,
    "office_name": null,
    "office_name_kana": null
  },
  "1106": {
    "postcode": "6191106",
    "prefecture": "京都府",
    "prefecture_kana": "キョウトフ",
    "prefecture_code": 26,
    "city": "木津川市",
    "city_kana": "キヅガワシ",
    "town": "加茂町例幣",
    "town_kana": "カモチョウレイヘイ",
    "street": null,
    "office_name": null,
    "office_name_kana": null
  },
  "1107": {
    "postcode": "6191107",
    "prefecture": "京都府",
    "prefecture_kana": "キョウトフ",
    "prefecture_code": 26,
    "city": "木津川市",
    "city_kana": "キヅガワシ",
    "town": "加茂町奥畑",
    "town_kana": "カモチョウオクハタ",
    "street": null,
    "office_name": null,
    "office_name_kana": null
  },
  "1111": {
    "postcode": "6191111",
    "prefecture": "京都府",
    "prefecture_kana": "キョウトフ",
    "prefecture_code": 26,
    "city": "木津川市",
    "city_kana": "キヅガワシ",
    "town": "加茂町山田",
    "town_kana": "カモチョウヤマダ",
    "street": null,
    "office_name": null,
    "office_name_kana": null
  },
  "1112": {
    "postcode": "6191112",
    "prefecture": "京都府",
    "prefecture_kana": "キョウトフ",
    "prefecture_code": 26,
    "city": "木津川市",
    "city_kana": "キヅガワシ",
    "town": "加茂町兎並",
    "town_kana": "カモチョウウナミ",
    "street": null,
    "office_name": null,
    "office_name_kana": null
  },
  "1113": {
    "postcode": "6191113",
    "prefecture": "京都府",
    "prefecture_kana": "キョウトフ",
    "prefecture_code": 26,
    "city": "木津川市",
    "city_kana": "キヅガワシ",
    "town": "加茂町北",
    "town_kana": "カモチョウキタ",
    "street": null,
    "office_name": null,
    "office_name_kana": null
  },
  "1121": {
    "postcode": "6191121",
    "prefecture": "京都府",
    "prefecture_kana": "キョウトフ",
    "prefecture_code": 26,
    "city": "木津川市",
    "city_kana": "キヅガワシ",
    "town": "加茂町北下手",
    "town_kana": "カモチョウキタシモデ",
    "street": null,
    "office_name": null,
    "office_name_kana": null
  },
  "1122": {
    "postcode": "6191122",
    "prefecture": "京都府",
    "prefecture_kana": "キョウトフ",
    "prefecture_code": 26,
    "city": "木津川市",
    "city_kana": "キヅガワシ",
    "town": "加茂町南下手",
    "town_kana": "カモチョウミナミシモデ",
    "street": null,
    "office_name": null,
    "office_name_kana": null
  },
  "1123": {
    "postcode": "6191123",
    "prefecture": "京都府",
    "prefecture_kana": "キョウトフ",
    "prefecture_code": 26,
    "city": "木津川市",
    "city_kana": "キヅガワシ",
    "town": "加茂町森",
    "town_kana": "カモチョウモリ",
    "street": null,
    "office_name": null,
    "office_name_kana": null
  },
  "1124": {
    "postcode": "6191124",
    "prefecture": "京都府",
    "prefecture_kana": "キョウトフ",
    "prefecture_code": 26,
    "city": "木津川市",
    "city_kana": "キヅガワシ",
    "town": "加茂町勝風",
    "town_kana": "カモチョウショウブ",
    "street": null,
    "office_name": null,
    "office_name_kana": null
  },
  "1125": {
    "postcode": "6191125",
    "prefecture": "京都府",
    "prefecture_kana": "キョウトフ",
    "prefecture_code": 26,
    "city": "木津川市",
    "city_kana": "キヅガワシ",
    "town": "加茂町高去",
    "town_kana": "カモチョウタカサリ",
    "street": null,
    "office_name": null,
    "office_name_kana": null
  },
  "1126": {
    "postcode": "6191126",
    "prefecture": "京都府",
    "prefecture_kana": "キョウトフ",
    "prefecture_code": 26,
    "city": "木津川市",
    "city_kana": "キヅガワシ",
    "town": "加茂町尻枝",
    "town_kana": "カモチョウシリエダ",
    "street": null,
    "office_name": null,
    "office_name_kana": null
  },
  "1127": {
    "postcode": "6191127",
    "prefecture": "京都府",
    "prefecture_kana": "キョウトフ",
    "prefecture_code": 26,
    "city": "木津川市",
    "city_kana": "キヅガワシ",
    "town": "南加茂台",
    "town_kana": "ナガモダイ",
    "street": null,
    "office_name": null,
    "office_name_kana": null
  },
  "1131": {
    "postcode": "6191131",
    "prefecture": "京都府",
    "prefecture_kana": "キョウトフ",
    "prefecture_code": 26,
    "city": "木津川市",
    "city_kana": "キヅガワシ",
    "town": "加茂町辻",
    "town_kana": "カモチョウツジ",
    "street": null,
    "office_name": null,
    "office_name_kana": null
  },
  "1132": {
    "postcode": "6191132",
    "prefecture": "京都府",
    "prefecture_kana": "キョウトフ",
    "prefecture_code": 26,
    "city": "木津川市",
    "city_kana": "キヅガワシ",
    "town": "加茂町大畑",
    "town_kana": "カモチョウオオハタ",
    "street": null,
    "office_name": null,
    "office_name_kana": null
  },
  "1133": {
    "postcode": "6191133",
    "prefecture": "京都府",
    "prefecture_kana": "キョウトフ",
    "prefecture_code": 26,
    "city": "木津川市",
    "city_kana": "キヅガワシ",
    "town": "加茂町岩船",
    "town_kana": "カモチョウイワフネ",
    "street": null,
    "office_name": null,
    "office_name_kana": null
  },
  "1134": [
    {
      "postcode": "6191134",
      "prefecture": "京都府",
      "prefecture_kana": "キョウトフ",
      "prefecture_code": 26,
      "city": "木津川市",
      "city_kana": "キヅガワシ",
      "town": "加茂町東小上",
      "town_kana": "カモチョウヒガシオカミ",
      "street": null,
      "office_name": null,
      "office_name_kana": null
    },
    {
      "postcode": "6191134",
      "prefecture": "京都府",
      "prefecture_kana": "キョウトフ",
      "prefecture_code": 26,
      "city": "木津川市",
      "city_kana": "キヅガワシ",
      "town": "加茂町東小下",
      "town_kana": "カモチョウヒガシオシタ",
      "street": null,
      "office_name": null,
      "office_name_kana": null
    }
  ],
  "1135": {
    "postcode": "6191135",
    "prefecture": "京都府",
    "prefecture_kana": "キョウトフ",
    "prefecture_code": 26,
    "city": "木津川市",
    "city_kana": "キヅガワシ",
    "town": "加茂町西小",
    "town_kana": "カモチョウニシオ",
    "street": null,
    "office_name": null,
    "office_name_kana": null
  },
  "1136": [
    {
      "postcode": "6191136",
      "prefecture": "京都府",
      "prefecture_kana": "キョウトフ",
      "prefecture_code": 26,
      "city": "木津川市",
      "city_kana": "キヅガワシ",
      "town": "加茂町北大門",
      "town_kana": "カモチョウキタダイモン",
      "street": null,
      "office_name": null,
      "office_name_kana": null
    },
    {
      "postcode": "6191136",
      "prefecture": "京都府",
      "prefecture_kana": "キョウトフ",
      "prefecture_code": 26,
      "city": "木津川市",
      "city_kana": "キヅガワシ",
      "town": "加茂町南大門",
      "town_kana": "カモチョウミナミダイモン",
      "street": null,
      "office_name": null,
      "office_name_kana": null
    }
  ],
  "1141": {
    "postcode": "6191141",
    "prefecture": "京都府",
    "prefecture_kana": "キョウトフ",
    "prefecture_code": 26,
    "city": "木津川市",
    "city_kana": "キヅガワシ",
    "town": "加茂町法花寺野",
    "town_kana": "カモチョウホッケジノ",
    "street": null,
    "office_name": null,
    "office_name_kana": null
  },
  "1142": {
    "postcode": "6191142",
    "prefecture": "京都府",
    "prefecture_kana": "キョウトフ",
    "prefecture_code": 26,
    "city": "木津川市",
    "city_kana": "キヅガワシ",
    "town": "加茂町大野",
    "town_kana": "カモチョウオオノ",
    "street": null,
    "office_name": null,
    "office_name_kana": null
  },
  "1143": {
    "postcode": "6191143",
    "prefecture": "京都府",
    "prefecture_kana": "キョウトフ",
    "prefecture_code": 26,
    "city": "木津川市",
    "city_kana": "キヅガワシ",
    "town": "加茂町観音寺",
    "town_kana": "カモチョウカンオンジ",
    "street": null,
    "office_name": null,
    "office_name_kana": null
  },
  "1144": {
    "postcode": "6191144",
    "prefecture": "京都府",
    "prefecture_kana": "キョウトフ",
    "prefecture_code": 26,
    "city": "木津川市",
    "city_kana": "キヅガワシ",
    "town": "加茂町高田",
    "town_kana": "カモチョウタカタ",
    "street": null,
    "office_name": null,
    "office_name_kana": null
  },
  "1151": {
    "postcode": "6191151",
    "prefecture": "京都府",
    "prefecture_kana": "キョウトフ",
    "prefecture_code": 26,
    "city": "木津川市",
    "city_kana": "キヅガワシ",
    "town": "加茂町美浪",
    "town_kana": "カモチョウミナミ",
    "street": null,
    "office_name": null,
    "office_name_kana": null
  },
  "1152": {
    "postcode": "6191152",
    "prefecture": "京都府",
    "prefecture_kana": "キョウトフ",
    "prefecture_code": 26,
    "city": "木津川市",
    "city_kana": "キヅガワシ",
    "town": "加茂町里",
    "town_kana": "カモチョウサト",
    "street": null,
    "office_name": null,
    "office_name_kana": null
  },
  "1153": {
    "postcode": "6191153",
    "prefecture": "京都府",
    "prefecture_kana": "キョウトフ",
    "prefecture_code": 26,
    "city": "木津川市",
    "city_kana": "キヅガワシ",
    "town": "加茂町駅西",
    "town_kana": "カモチョウエキニシ",
    "street": null,
    "office_name": null,
    "office_name_kana": null
  },
  "1154": {
    "postcode": "6191154",
    "prefecture": "京都府",
    "prefecture_kana": "キョウトフ",
    "prefecture_code": 26,
    "city": "木津川市",
    "city_kana": "キヅガワシ",
    "town": "加茂町駅東",
    "town_kana": "カモチョウエキヒガシ",
    "street": null,
    "office_name": null,
    "office_name_kana": null
  },
  "1195": {
    "postcode": "6191195",
    "prefecture": "京都府",
    "prefecture_kana": "キョウトフ",
    "prefecture_code": 26,
    "city": "木津川市",
    "city_kana": "キヅガワシ",
    "town": "加茂町里",
    "town_kana": "カモチョウサト",
    "street": "南古田１５６",
    "office_name": "木津川市役所　加茂支所",
    "office_name_kana": "キヅガワシヤクシヨ カモシシヨ"
  },
  "1200": {
    "postcode": "6191200",
    "prefecture": "京都府",
    "prefecture_kana": "キョウトフ",
    "prefecture_code": 26,
    "city": "相楽郡和束町",
    "city_kana": "ソウラクグンワヅカチョウ",
    "town": "",
    "town_kana": "",
    "street": null,
    "office_name": null,
    "office_name_kana": null
  },
  "1201": {
    "postcode": "6191201",
    "prefecture": "京都府",
    "prefecture_kana": "キョウトフ",
    "prefecture_code": 26,
    "city": "相楽郡和束町",
    "city_kana": "ソウラクグンワヅカチョウ",
    "town": "園",
    "town_kana": "ソノ",
    "street": null,
    "office_name": null,
    "office_name_kana": null
  },
  "1202": {
    "postcode": "6191202",
    "prefecture": "京都府",
    "prefecture_kana": "キョウトフ",
    "prefecture_code": 26,
    "city": "相楽郡和束町",
    "city_kana": "ソウラクグンワヅカチョウ",
    "town": "原山",
    "town_kana": "ハラヤマ",
    "street": null,
    "office_name": null,
    "office_name_kana": null
  },
  "1203": {
    "postcode": "6191203",
    "prefecture": "京都府",
    "prefecture_kana": "キョウトフ",
    "prefecture_code": 26,
    "city": "相楽郡和束町",
    "city_kana": "ソウラクグンワヅカチョウ",
    "town": "湯船",
    "town_kana": "ユブネ",
    "street": null,
    "office_name": null,
    "office_name_kana": null
  },
  "1204": {
    "postcode": "6191204",
    "prefecture": "京都府",
    "prefecture_kana": "キョウトフ",
    "prefecture_code": 26,
    "city": "相楽郡和束町",
    "city_kana": "ソウラクグンワヅカチョウ",
    "town": "門前",
    "town_kana": "モンゼン",
    "street": null,
    "office_name": null,
    "office_name_kana": null
  },
  "1205": {
    "postcode": "6191205",
    "prefecture": "京都府",
    "prefecture_kana": "キョウトフ",
    "prefecture_code": 26,
    "city": "相楽郡和束町",
    "city_kana": "ソウラクグンワヅカチョウ",
    "town": "中",
    "town_kana": "ナカ",
    "street": null,
    "office_name": null,
    "office_name_kana": null
  },
  "1211": {
    "postcode": "6191211",
    "prefecture": "京都府",
    "prefecture_kana": "キョウトフ",
    "prefecture_code": 26,
    "city": "相楽郡和束町",
    "city_kana": "ソウラクグンワヅカチョウ",
    "town": "別所",
    "town_kana": "ベッショ",
    "street": null,
    "office_name": null,
    "office_name_kana": null
  },
  "1212": {
    "postcode": "6191212",
    "prefecture": "京都府",
    "prefecture_kana": "キョウトフ",
    "prefecture_code": 26,
    "city": "相楽郡和束町",
    "city_kana": "ソウラクグンワヅカチョウ",
    "town": "釜塚",
    "town_kana": "カマツカ",
    "street": null,
    "office_name": null,
    "office_name_kana": null
  },
  "1213": {
    "postcode": "6191213",
    "prefecture": "京都府",
    "prefecture_kana": "キョウトフ",
    "prefecture_code": 26,
    "city": "相楽郡和束町",
    "city_kana": "ソウラクグンワヅカチョウ",
    "town": "南",
    "town_kana": "ミナミ",
    "street": null,
    "office_name": null,
    "office_name_kana": null
  },
  "1221": {
    "postcode": "6191221",
    "prefecture": "京都府",
    "prefecture_kana": "キョウトフ",
    "prefecture_code": 26,
    "city": "相楽郡和束町",
    "city_kana": "ソウラクグンワヅカチョウ",
    "town": "石寺",
    "town_kana": "イシテラ",
    "street": null,
    "office_name": null,
    "office_name_kana": null
  },
  "1222": {
    "postcode": "6191222",
    "prefecture": "京都府",
    "prefecture_kana": "キョウトフ",
    "prefecture_code": 26,
    "city": "相楽郡和束町",
    "city_kana": "ソウラクグンワヅカチョウ",
    "town": "白栖",
    "town_kana": "シラス",
    "street": null,
    "office_name": null,
    "office_name_kana": null
  },
  "1223": {
    "postcode": "6191223",
    "prefecture": "京都府",
    "prefecture_kana": "キョウトフ",
    "prefecture_code": 26,
    "city": "相楽郡和束町",
    "city_kana": "ソウラクグンワヅカチョウ",
    "town": "杣田",
    "town_kana": "ソマダ",
    "street": null,
    "office_name": null,
    "office_name_kana": null
  },
  "1224": {
    "postcode": "6191224",
    "prefecture": "京都府",
    "prefecture_kana": "キョウトフ",
    "prefecture_code": 26,
    "city": "相楽郡和束町",
    "city_kana": "ソウラクグンワヅカチョウ",
    "town": "木屋",
    "town_kana": "コヤ",
    "street": null,
    "office_name": null,
    "office_name_kana": null
  },
  "1225": {
    "postcode": "6191225",
    "prefecture": "京都府",
    "prefecture_kana": "キョウトフ",
    "prefecture_code": 26,
    "city": "相楽郡和束町",
    "city_kana": "ソウラクグンワヅカチョウ",
    "town": "撰原",
    "town_kana": "エリハラ",
    "street": null,
    "office_name": null,
    "office_name_kana": null
  },
  "1226": {
    "postcode": "6191226",
    "prefecture": "京都府",
    "prefecture_kana": "キョウトフ",
    "prefecture_code": 26,
    "city": "相楽郡和束町",
    "city_kana": "ソウラクグンワヅカチョウ",
    "town": "下島",
    "town_kana": "シモジマ",
    "street": null,
    "office_name": null,
    "office_name_kana": null
  },
  "1295": {
    "postcode": "6191295",
    "prefecture": "京都府",
    "prefecture_kana": "キョウトフ",
    "prefecture_code": 26,
    "city": "相楽郡和束町",
    "city_kana": "ソウラクグンワヅカチョウ",
    "town": "大字釜塚",
    "town_kana": null,
    "street": "小字生水１４−２",
    "office_name": "和束町役場",
    "office_name_kana": "ワヅカチヨウヤクバ"
  },
  "1300": {
    "postcode": "6191300",
    "prefecture": "京都府",
    "prefecture_kana": "キョウトフ",
    "prefecture_code": 26,
    "city": "相楽郡笠置町",
    "city_kana": "ソウラクグンカサギチョウ",
    "town": "",
    "town_kana": "",
    "street": null,
    "office_name": null,
    "office_name_kana": null
  },
  "1301": {
    "postcode": "6191301",
    "prefecture": "京都府",
    "prefecture_kana": "キョウトフ",
    "prefecture_code": 26,
    "city": "相楽郡笠置町",
    "city_kana": "ソウラクグンカサギチョウ",
    "town": "有市",
    "town_kana": "アリイチ",
    "street": null,
    "office_name": null,
    "office_name_kana": null
  },
  "1302": {
    "postcode": "6191302",
    "prefecture": "京都府",
    "prefecture_kana": "キョウトフ",
    "prefecture_code": 26,
    "city": "相楽郡笠置町",
    "city_kana": "ソウラクグンカサギチョウ",
    "town": "飛鳥路",
    "town_kana": "アスカジ",
    "street": null,
    "office_name": null,
    "office_name_kana": null
  },
  "1303": {
    "postcode": "6191303",
    "prefecture": "京都府",
    "prefecture_kana": "キョウトフ",
    "prefecture_code": 26,
    "city": "相楽郡笠置町",
    "city_kana": "ソウラクグンカサギチョウ",
    "town": "笠置",
    "town_kana": "カサギ",
    "street": null,
    "office_name": null,
    "office_name_kana": null
  },
  "1304": {
    "postcode": "6191304",
    "prefecture": "京都府",
    "prefecture_kana": "キョウトフ",
    "prefecture_code": 26,
    "city": "相楽郡笠置町",
    "city_kana": "ソウラクグンカサギチョウ",
    "town": "切山",
    "town_kana": "キリヤマ",
    "street": null,
    "office_name": null,
    "office_name_kana": null
  },
  "1393": {
    "postcode": "6191393",
    "prefecture": "京都府",
    "prefecture_kana": "キョウトフ",
    "prefecture_code": 26,
    "city": "相楽郡笠置町",
    "city_kana": "ソウラクグンカサギチョウ",
    "town": "大字笠置",
    "town_kana": null,
    "street": "小字西通９０番地の１",
    "office_name": "笠置町役場",
    "office_name_kana": "カサギチヨウヤクバ"
  },
  "1400": {
    "postcode": "6191400",
    "prefecture": "京都府",
    "prefecture_kana": "キョウトフ",
    "prefecture_code": 26,
    "city": "相楽郡南山城村",
    "city_kana": "ソウラクグンミナミヤマシロムラ",
    "town": "",
    "town_kana": "",
    "street": null,
    "office_name": null,
    "office_name_kana": null
  },
  "1401": {
    "postcode": "6191401",
    "prefecture": "京都府",
    "prefecture_kana": "キョウトフ",
    "prefecture_code": 26,
    "city": "相楽郡南山城村",
    "city_kana": "ソウラクグンミナミヤマシロムラ",
    "town": "童仙房",
    "town_kana": "ドウセンボウ",
    "street": null,
    "office_name": null,
    "office_name_kana": null
  },
  "1402": {
    "postcode": "6191402",
    "prefecture": "京都府",
    "prefecture_kana": "キョウトフ",
    "prefecture_code": 26,
    "city": "相楽郡南山城村",
    "city_kana": "ソウラクグンミナミヤマシロムラ",
    "town": "野殿",
    "town_kana": "ノドノ",
    "street": null,
    "office_name": null,
    "office_name_kana": null
  },
  "1411": {
    "postcode": "6191411",
    "prefecture": "京都府",
    "prefecture_kana": "キョウトフ",
    "prefecture_code": 26,
    "city": "相楽郡南山城村",
    "city_kana": "ソウラクグンミナミヤマシロムラ",
    "town": "北大河原",
    "town_kana": "キタオオカワラ",
    "street": null,
    "office_name": null,
    "office_name_kana": null
  },
  "1412": {
    "postcode": "6191412",
    "prefecture": "京都府",
    "prefecture_kana": "キョウトフ",
    "prefecture_code": 26,
    "city": "相楽郡南山城村",
    "city_kana": "ソウラクグンミナミヤマシロムラ",
    "town": "南大河原",
    "town_kana": "ミナミオオカワラ",
    "street": null,
    "office_name": null,
    "office_name_kana": null
  },
  "1421": {
    "postcode": "6191421",
    "prefecture": "京都府",
    "prefecture_kana": "キョウトフ",
    "prefecture_code": 26,
    "city": "相楽郡南山城村",
    "city_kana": "ソウラクグンミナミヤマシロムラ",
    "town": "田山",
    "town_kana": "タヤマ",
    "street": null,
    "office_name": null,
    "office_name_kana": null
  },
  "1422": {
    "postcode": "6191422",
    "prefecture": "京都府",
    "prefecture_kana": "キョウトフ",
    "prefecture_code": 26,
    "city": "相楽郡南山城村",
    "city_kana": "ソウラクグンミナミヤマシロムラ",
    "town": "高尾",
    "town_kana": "タカオ",
    "street": null,
    "office_name": null,
    "office_name_kana": null
  }
}