{
  "0000": {
    "postcode": "6250000",
    "prefecture": "京都府",
    "prefecture_kana": "キョウトフ",
    "prefecture_code": 26,
    "city": "舞鶴市",
    "city_kana": "マイヅルシ",
    "town": "",
    "town_kana": "",
    "street": null,
    "office_name": null,
    "office_name_kana": null
  },
  "0001": {
    "postcode": "6250001",
    "prefecture": "京都府",
    "prefecture_kana": "キョウトフ",
    "prefecture_code": 26,
    "city": "舞鶴市",
    "city_kana": "マイヅルシ",
    "town": "杉山",
    "town_kana": "スギヤマ",
    "street": null,
    "office_name": null,
    "office_name_kana": null
  },
  "0002": {
    "postcode": "6250002",
    "prefecture": "京都府",
    "prefecture_kana": "キョウトフ",
    "prefecture_code": 26,
    "city": "舞鶴市",
    "city_kana": "マイヅルシ",
    "town": "登尾",
    "town_kana": "ノボリオ",
    "street": null,
    "office_name": null,
    "office_name_kana": null
  },
  "0003": {
    "postcode": "6250003",
    "prefecture": "京都府",
    "prefecture_kana": "キョウトフ",
    "prefecture_code": 26,
    "city": "舞鶴市",
    "city_kana": "マイヅルシ",
    "town": "吉野",
    "town_kana": "ヨシノ",
    "street": null,
    "office_name": null,
    "office_name_kana": null
  },
  "0004": {
    "postcode": "6250004",
    "prefecture": "京都府",
    "prefecture_kana": "キョウトフ",
    "prefecture_code": 26,
    "city": "舞鶴市",
    "city_kana": "マイヅルシ",
    "town": "朝来西町",
    "town_kana": "アセクニシマチ",
    "street": null,
    "office_name": null,
    "office_name_kana": null
  },
  "0005": {
    "postcode": "6250005",
    "prefecture": "京都府",
    "prefecture_kana": "キョウトフ",
    "prefecture_code": 26,
    "city": "舞鶴市",
    "city_kana": "マイヅルシ",
    "town": "朝来中",
    "town_kana": "アセクナカ",
    "street": null,
    "office_name": null,
    "office_name_kana": null
  },
  "0006": {
    "postcode": "6250006",
    "prefecture": "京都府",
    "prefecture_kana": "キョウトフ",
    "prefecture_code": 26,
    "city": "舞鶴市",
    "city_kana": "マイヅルシ",
    "town": "大波上",
    "town_kana": "オオバカミ",
    "street": null,
    "office_name": null,
    "office_name_kana": null
  },
  "0007": {
    "postcode": "6250007",
    "prefecture": "京都府",
    "prefecture_kana": "キョウトフ",
    "prefecture_code": 26,
    "city": "舞鶴市",
    "city_kana": "マイヅルシ",
    "town": "大波下",
    "town_kana": "オオバシモ",
    "street": null,
    "office_name": null,
    "office_name_kana": null
  },
  "0010": {
    "postcode": "6250010",
    "prefecture": "京都府",
    "prefecture_kana": "キョウトフ",
    "prefecture_code": 26,
    "city": "舞鶴市",
    "city_kana": "マイヅルシ",
    "town": "松尾",
    "town_kana": "マツオ",
    "street": null,
    "office_name": null,
    "office_name_kana": null
  },
  "0011": {
    "postcode": "6250011",
    "prefecture": "京都府",
    "prefecture_kana": "キョウトフ",
    "prefecture_code": 26,
    "city": "舞鶴市",
    "city_kana": "マイヅルシ",
    "town": "吉坂",
    "town_kana": "キチサカ",
    "street": null,
    "office_name": null,
    "office_name_kana": null
  },
  "0012": {
    "postcode": "6250012",
    "prefecture": "京都府",
    "prefecture_kana": "キョウトフ",
    "prefecture_code": 26,
    "city": "舞鶴市",
    "city_kana": "マイヅルシ",
    "town": "白屋町",
    "town_kana": "シロヤチョウ",
    "street": null,
    "office_name": null,
    "office_name_kana": null
  },
  "0013": {
    "postcode": "6250013",
    "prefecture": "京都府",
    "prefecture_kana": "キョウトフ",
    "prefecture_code": 26,
    "city": "舞鶴市",
    "city_kana": "マイヅルシ",
    "town": "鹿原西町",
    "town_kana": "カハラニシマチ",
    "street": null,
    "office_name": null,
    "office_name_kana": null
  },
  "0014": {
    "postcode": "6250014",
    "prefecture": "京都府",
    "prefecture_kana": "キョウトフ",
    "prefecture_code": 26,
    "city": "舞鶴市",
    "city_kana": "マイヅルシ",
    "town": "鹿原",
    "town_kana": "カハラ",
    "street": null,
    "office_name": null,
    "office_name_kana": null
  },
  "0015": {
    "postcode": "6250015",
    "prefecture": "京都府",
    "prefecture_kana": "キョウトフ",
    "prefecture_code": 26,
    "city": "舞鶴市",
    "city_kana": "マイヅルシ",
    "town": "岡安",
    "town_kana": "オカヤス",
    "street": null,
    "office_name": null,
    "office_name_kana": null
  },
  "0016": {
    "postcode": "6250016",
    "prefecture": "京都府",
    "prefecture_kana": "キョウトフ",
    "prefecture_code": 26,
    "city": "舞鶴市",
    "city_kana": "マイヅルシ",
    "town": "白屋",
    "town_kana": "シロヤ",
    "street": null,
    "office_name": null,
    "office_name_kana": null
  },
  "0020": {
    "postcode": "6250020",
    "prefecture": "京都府",
    "prefecture_kana": "キョウトフ",
    "prefecture_code": 26,
    "city": "舞鶴市",
    "city_kana": "マイヅルシ",
    "town": "小倉",
    "town_kana": "オグラ",
    "street": null,
    "office_name": null,
    "office_name_kana": null
  },
  "0021": {
    "postcode": "6250021",
    "prefecture": "京都府",
    "prefecture_kana": "キョウトフ",
    "prefecture_code": 26,
    "city": "舞鶴市",
    "city_kana": "マイヅルシ",
    "town": "安岡",
    "town_kana": "ヤスオカ",
    "street": null,
    "office_name": null,
    "office_name_kana": null
  },
  "0022": {
    "postcode": "6250022",
    "prefecture": "京都府",
    "prefecture_kana": "キョウトフ",
    "prefecture_code": 26,
    "city": "舞鶴市",
    "city_kana": "マイヅルシ",
    "town": "安岡町",
    "town_kana": "ヤスオカチョウ",
    "street": null,
    "office_name": null,
    "office_name_kana": null
  },
  "0023": {
    "postcode": "6250023",
    "prefecture": "京都府",
    "prefecture_kana": "キョウトフ",
    "prefecture_code": 26,
    "city": "舞鶴市",
    "city_kana": "マイヅルシ",
    "town": "田中",
    "town_kana": "タナカ",
    "street": null,
    "office_name": null,
    "office_name_kana": null
  },
  "0024": {
    "postcode": "6250024",
    "prefecture": "京都府",
    "prefecture_kana": "キョウトフ",
    "prefecture_code": 26,
    "city": "舞鶴市",
    "city_kana": "マイヅルシ",
    "town": "田中町",
    "town_kana": "タナカチョウ",
    "street": null,
    "office_name": null,
    "office_name_kana": null
  },
  "0025": {
    "postcode": "6250025",
    "prefecture": "京都府",
    "prefecture_kana": "キョウトフ",
    "prefecture_code": 26,
    "city": "舞鶴市",
    "city_kana": "マイヅルシ",
    "town": "市場",
    "town_kana": "イチバ",
    "street": null,
    "office_name": null,
    "office_name_kana": null
  },
  "0026": {
    "postcode": "6250026",
    "prefecture": "京都府",
    "prefecture_kana": "キョウトフ",
    "prefecture_code": 26,
    "city": "舞鶴市",
    "city_kana": "マイヅルシ",
    "town": "泉源寺",
    "town_kana": "センゲンジ",
    "street": null,
    "office_name": null,
    "office_name_kana": null
  },
  "0027": {
    "postcode": "6250027",
    "prefecture": "京都府",
    "prefecture_kana": "キョウトフ",
    "prefecture_code": 26,
    "city": "舞鶴市",
    "city_kana": "マイヅルシ",
    "town": "田園町",
    "town_kana": "デンエンチョウ",
    "street": null,
    "office_name": null,
    "office_name_kana": null
  },
  "0030": {
    "postcode": "6250030",
    "prefecture": "京都府",
    "prefecture_kana": "キョウトフ",
    "prefecture_code": 26,
    "city": "舞鶴市",
    "city_kana": "マイヅルシ",
    "town": "愛宕上町",
    "town_kana": "アタゴカミマチ",
    "street": null,
    "office_name": null,
    "office_name_kana": null
  },
  "0031": {
    "postcode": "6250031",
    "prefecture": "京都府",
    "prefecture_kana": "キョウトフ",
    "prefecture_code": 26,
    "city": "舞鶴市",
    "city_kana": "マイヅルシ",
    "town": "愛宕中町",
    "town_kana": "アタゴナカマチ",
    "street": null,
    "office_name": null,
    "office_name_kana": null
  },
  "0032": {
    "postcode": "6250032",
    "prefecture": "京都府",
    "prefecture_kana": "キョウトフ",
    "prefecture_code": 26,
    "city": "舞鶴市",
    "city_kana": "マイヅルシ",
    "town": "愛宕下町",
    "town_kana": "アタゴシモマチ",
    "street": null,
    "office_name": null,
    "office_name_kana": null
  },
  "0033": {
    "postcode": "6250033",
    "prefecture": "京都府",
    "prefecture_kana": "キョウトフ",
    "prefecture_code": 26,
    "city": "舞鶴市",
    "city_kana": "マイヅルシ",
    "town": "愛宕浜町",
    "town_kana": "アタゴハママチ",
    "street": null,
    "office_name": null,
    "office_name_kana": null
  },
  "0034": {
    "postcode": "6250034",
    "prefecture": "京都府",
    "prefecture_kana": "キョウトフ",
    "prefecture_code": 26,
    "city": "舞鶴市",
    "city_kana": "マイヅルシ",
    "town": "竜宮町",
    "town_kana": "リュウグウチョウ",
    "street": null,
    "office_name": null,
    "office_name_kana": null
  },
  "0035": {
    "postcode": "6250035",
    "prefecture": "京都府",
    "prefecture_kana": "キョウトフ",
    "prefecture_code": 26,
    "city": "舞鶴市",
    "city_kana": "マイヅルシ",
    "town": "溝尻",
    "town_kana": "ミゾシリ",
    "street": null,
    "office_name": null,
    "office_name_kana": null
  },
  "0036": {
    "postcode": "6250036",
    "prefecture": "京都府",
    "prefecture_kana": "キョウトフ",
    "prefecture_code": 26,
    "city": "舞鶴市",
    "city_kana": "マイヅルシ",
    "town": "浜",
    "town_kana": "ハマ",
    "street": null,
    "office_name": null,
    "office_name_kana": null
  },
  "0037": {
    "postcode": "6250037",
    "prefecture": "京都府",
    "prefecture_kana": "キョウトフ",
    "prefecture_code": 26,
    "city": "舞鶴市",
    "city_kana": "マイヅルシ",
    "town": "浜町",
    "town_kana": "ハママチ",
    "street": null,
    "office_name": null,
    "office_name_kana": null
  },
  "0040": {
    "postcode": "6250040",
    "prefecture": "京都府",
    "prefecture_kana": "キョウトフ",
    "prefecture_code": 26,
    "city": "舞鶴市",
    "city_kana": "マイヅルシ",
    "town": "矢之助町",
    "town_kana": "ヤノスケチョウ",
    "street": null,
    "office_name": null,
    "office_name_kana": null
  },
  "0041": {
    "postcode": "6250041",
    "prefecture": "京都府",
    "prefecture_kana": "キョウトフ",
    "prefecture_code": 26,
    "city": "舞鶴市",
    "city_kana": "マイヅルシ",
    "town": "溝尻中町",
    "town_kana": "ミゾシリナカマチ",
    "street": null,
    "office_name": null,
    "office_name_kana": null
  },
  "0042": {
    "postcode": "6250042",
    "prefecture": "京都府",
    "prefecture_kana": "キョウトフ",
    "prefecture_code": 26,
    "city": "舞鶴市",
    "city_kana": "マイヅルシ",
    "town": "溝尻町",
    "town_kana": "ミゾシリチョウ",
    "street": null,
    "office_name": null,
    "office_name_kana": null
  },
  "0043": {
    "postcode": "6250043",
    "prefecture": "京都府",
    "prefecture_kana": "キョウトフ",
    "prefecture_code": 26,
    "city": "舞鶴市",
    "city_kana": "マイヅルシ",
    "town": "梅ケ谷",
    "town_kana": "ウメガタニ",
    "street": null,
    "office_name": null,
    "office_name_kana": null
  },
  "0044": {
    "postcode": "6250044",
    "prefecture": "京都府",
    "prefecture_kana": "キョウトフ",
    "prefecture_code": 26,
    "city": "舞鶴市",
    "city_kana": "マイヅルシ",
    "town": "堂奥",
    "town_kana": "ドウノオク",
    "street": null,
    "office_name": null,
    "office_name_kana": null
  },
  "0045": {
    "postcode": "6250045",
    "prefecture": "京都府",
    "prefecture_kana": "キョウトフ",
    "prefecture_code": 26,
    "city": "舞鶴市",
    "city_kana": "マイヅルシ",
    "town": "多門院",
    "town_kana": "タモンイン",
    "street": null,
    "office_name": null,
    "office_name_kana": null
  },
  "0050": {
    "postcode": "6250050",
    "prefecture": "京都府",
    "prefecture_kana": "キョウトフ",
    "prefecture_code": 26,
    "city": "舞鶴市",
    "city_kana": "マイヅルシ",
    "town": "北浜町",
    "town_kana": "キタハマチョウ",
    "street": null,
    "office_name": null,
    "office_name_kana": null
  },
  "0051": {
    "postcode": "6250051",
    "prefecture": "京都府",
    "prefecture_kana": "キョウトフ",
    "prefecture_code": 26,
    "city": "舞鶴市",
    "city_kana": "マイヅルシ",
    "town": "行永東町",
    "town_kana": "ユキナガヒガシマチ",
    "street": null,
    "office_name": null,
    "office_name_kana": null
  },
  "0052": {
    "postcode": "6250052",
    "prefecture": "京都府",
    "prefecture_kana": "キョウトフ",
    "prefecture_code": 26,
    "city": "舞鶴市",
    "city_kana": "マイヅルシ",
    "town": "行永",
    "town_kana": "ユキナガ",
    "street": null,
    "office_name": null,
    "office_name_kana": null
  },
  "0053": {
    "postcode": "6250053",
    "prefecture": "京都府",
    "prefecture_kana": "キョウトフ",
    "prefecture_code": 26,
    "city": "舞鶴市",
    "city_kana": "マイヅルシ",
    "town": "金屋町",
    "town_kana": "カナヤチョウ",
    "street": null,
    "office_name": null,
    "office_name_kana": null
  },
  "0054": {
    "postcode": "6250054",
    "prefecture": "京都府",
    "prefecture_kana": "キョウトフ",
    "prefecture_code": 26,
    "city": "舞鶴市",
    "city_kana": "マイヅルシ",
    "town": "七条中町",
    "town_kana": "シチジョウナカマチ",
    "street": null,
    "office_name": null,
    "office_name_kana": null
  },
  "0055": {
    "postcode": "6250055",
    "prefecture": "京都府",
    "prefecture_kana": "キョウトフ",
    "prefecture_code": 26,
    "city": "舞鶴市",
    "city_kana": "マイヅルシ",
    "town": "倉梯中町",
    "town_kana": "クラハシナカマチ",
    "street": null,
    "office_name": null,
    "office_name_kana": null
  },
  "0056": {
    "postcode": "6250056",
    "prefecture": "京都府",
    "prefecture_kana": "キョウトフ",
    "prefecture_code": 26,
    "city": "舞鶴市",
    "city_kana": "マイヅルシ",
    "town": "倉梯町",
    "town_kana": "クラハシチョウ",
    "street": null,
    "office_name": null,
    "office_name_kana": null
  },
  "0057": {
    "postcode": "6250057",
    "prefecture": "京都府",
    "prefecture_kana": "キョウトフ",
    "prefecture_code": 26,
    "city": "舞鶴市",
    "city_kana": "マイヅルシ",
    "town": "南浜町",
    "town_kana": "ミナミハマチョウ",
    "street": null,
    "office_name": null,
    "office_name_kana": null
  },
  "0058": {
    "postcode": "6250058",
    "prefecture": "京都府",
    "prefecture_kana": "キョウトフ",
    "prefecture_code": 26,
    "city": "舞鶴市",
    "city_kana": "マイヅルシ",
    "town": "行永桜通り",
    "town_kana": "ユキナガサクラドオリ",
    "street": null,
    "office_name": null,
    "office_name_kana": null
  },
  "0060": {
    "postcode": "6250060",
    "prefecture": "京都府",
    "prefecture_kana": "キョウトフ",
    "prefecture_code": 26,
    "city": "舞鶴市",
    "city_kana": "マイヅルシ",
    "town": "桃山町",
    "town_kana": "モモヤマチョウ",
    "street": null,
    "office_name": null,
    "office_name_kana": null
  },
  "0061": {
    "postcode": "6250061",
    "prefecture": "京都府",
    "prefecture_kana": "キョウトフ",
    "prefecture_code": 26,
    "city": "舞鶴市",
    "city_kana": "マイヅルシ",
    "town": "森町",
    "town_kana": "モリチョウ",
    "street": null,
    "office_name": null,
    "office_name_kana": null
  },
  "0062": {
    "postcode": "6250062",
    "prefecture": "京都府",
    "prefecture_kana": "キョウトフ",
    "prefecture_code": 26,
    "city": "舞鶴市",
    "city_kana": "マイヅルシ",
    "town": "森",
    "town_kana": "モリ",
    "street": null,
    "office_name": null,
    "office_name_kana": null
  },
  "0063": {
    "postcode": "6250063",
    "prefecture": "京都府",
    "prefecture_kana": "キョウトフ",
    "prefecture_code": 26,
    "city": "舞鶴市",
    "city_kana": "マイヅルシ",
    "town": "丸山町",
    "town_kana": "マルヤマチョウ",
    "street": null,
    "office_name": null,
    "office_name_kana": null
  },
  "0064": {
    "postcode": "6250064",
    "prefecture": "京都府",
    "prefecture_kana": "キョウトフ",
    "prefecture_code": 26,
    "city": "舞鶴市",
    "city_kana": "マイヅルシ",
    "town": "丸山西町",
    "town_kana": "マルヤマニシマチ",
    "street": null,
    "office_name": null,
    "office_name_kana": null
  },
  "0065": {
    "postcode": "6250065",
    "prefecture": "京都府",
    "prefecture_kana": "キョウトフ",
    "prefecture_code": 26,
    "city": "舞鶴市",
    "city_kana": "マイヅルシ",
    "town": "丸山中町",
    "town_kana": "マルヤマナカマチ",
    "street": null,
    "office_name": null,
    "office_name_kana": null
  },
  "0066": {
    "postcode": "6250066",
    "prefecture": "京都府",
    "prefecture_kana": "キョウトフ",
    "prefecture_code": 26,
    "city": "舞鶴市",
    "city_kana": "マイヅルシ",
    "town": "丸山口町",
    "town_kana": "マルヤマグチチョウ",
    "street": null,
    "office_name": null,
    "office_name_kana": null
  },
  "0067": {
    "postcode": "6250067",
    "prefecture": "京都府",
    "prefecture_kana": "キョウトフ",
    "prefecture_code": 26,
    "city": "舞鶴市",
    "city_kana": "マイヅルシ",
    "town": "森本町",
    "town_kana": "モリホンマチ",
    "street": null,
    "office_name": null,
    "office_name_kana": null
  },
  "0070": {
    "postcode": "6250070",
    "prefecture": "京都府",
    "prefecture_kana": "キョウトフ",
    "prefecture_code": 26,
    "city": "舞鶴市",
    "city_kana": "マイヅルシ",
    "town": "八反田北町",
    "town_kana": "ハッタンダキタマチ",
    "street": null,
    "office_name": null,
    "office_name_kana": null
  },
  "0071": {
    "postcode": "6250071",
    "prefecture": "京都府",
    "prefecture_kana": "キョウトフ",
    "prefecture_code": 26,
    "city": "舞鶴市",
    "city_kana": "マイヅルシ",
    "town": "常新町",
    "town_kana": "ツネシンマチ",
    "street": null,
    "office_name": null,
    "office_name_kana": null
  },
  "0072": {
    "postcode": "6250072",
    "prefecture": "京都府",
    "prefecture_kana": "キョウトフ",
    "prefecture_code": 26,
    "city": "舞鶴市",
    "city_kana": "マイヅルシ",
    "town": "常",
    "town_kana": "ツネ",
    "street": null,
    "office_name": null,
    "office_name_kana": null
  },
  "0073": {
    "postcode": "6250073",
    "prefecture": "京都府",
    "prefecture_kana": "キョウトフ",
    "prefecture_code": 26,
    "city": "舞鶴市",
    "city_kana": "マイヅルシ",
    "town": "木ノ下",
    "town_kana": "キノシタ",
    "street": null,
    "office_name": null,
    "office_name_kana": null
  },
  "0074": {
    "postcode": "6250074",
    "prefecture": "京都府",
    "prefecture_kana": "キョウトフ",
    "prefecture_code": 26,
    "city": "舞鶴市",
    "city_kana": "マイヅルシ",
    "town": "与保呂",
    "town_kana": "ヨホロ",
    "street": null,
    "office_name": null,
    "office_name_kana": null
  },
  "0075": {
    "postcode": "6250075",
    "prefecture": "京都府",
    "prefecture_kana": "キョウトフ",
    "prefecture_code": 26,
    "city": "舞鶴市",
    "city_kana": "マイヅルシ",
    "town": "京月東町",
    "town_kana": "キョウゲツヒガシマチ",
    "street": null,
    "office_name": null,
    "office_name_kana": null
  },
  "0076": {
    "postcode": "6250076",
    "prefecture": "京都府",
    "prefecture_kana": "キョウトフ",
    "prefecture_code": 26,
    "city": "舞鶴市",
    "city_kana": "マイヅルシ",
    "town": "京月町",
    "town_kana": "キョウゲツチョウ",
    "street": null,
    "office_name": null,
    "office_name_kana": null
  },
  "0077": {
    "postcode": "6250077",
    "prefecture": "京都府",
    "prefecture_kana": "キョウトフ",
    "prefecture_code": 26,
    "city": "舞鶴市",
    "city_kana": "マイヅルシ",
    "town": "亀岩町",
    "town_kana": "カメイワチョウ",
    "street": null,
    "office_name": null,
    "office_name_kana": null
  },
  "0078": {
    "postcode": "6250078",
    "prefecture": "京都府",
    "prefecture_kana": "キョウトフ",
    "prefecture_code": 26,
    "city": "舞鶴市",
    "city_kana": "マイヅルシ",
    "town": "八反田南町",
    "town_kana": "ハッタンダミナミマチ",
    "street": null,
    "office_name": null,
    "office_name_kana": null
  },
  "0080": {
    "postcode": "6250080",
    "prefecture": "京都府",
    "prefecture_kana": "キョウトフ",
    "prefecture_code": 26,
    "city": "舞鶴市",
    "city_kana": "マイヅルシ",
    "town": "北吸",
    "town_kana": "キタスイ",
    "street": null,
    "office_name": null,
    "office_name_kana": null
  },
  "0081": {
    "postcode": "6250081",
    "prefecture": "京都府",
    "prefecture_kana": "キョウトフ",
    "prefecture_code": 26,
    "city": "舞鶴市",
    "city_kana": "マイヅルシ",
    "town": "三宅",
    "town_kana": "ミヤケ",
    "street": null,
    "office_name": null,
    "office_name_kana": null
  },
  "0082": {
    "postcode": "6250082",
    "prefecture": "京都府",
    "prefecture_kana": "キョウトフ",
    "prefecture_code": 26,
    "city": "舞鶴市",
    "city_kana": "マイヅルシ",
    "town": "つつじケ丘",
    "town_kana": "ツツジガオカ",
    "street": null,
    "office_name": null,
    "office_name_kana": null
  },
  "0083": {
    "postcode": "6250083",
    "prefecture": "京都府",
    "prefecture_kana": "キョウトフ",
    "prefecture_code": 26,
    "city": "舞鶴市",
    "city_kana": "マイヅルシ",
    "town": "余部上",
    "town_kana": "アマルベカミ",
    "street": null,
    "office_name": null,
    "office_name_kana": null
  },
  "0084": {
    "postcode": "6250084",
    "prefecture": "京都府",
    "prefecture_kana": "キョウトフ",
    "prefecture_code": 26,
    "city": "舞鶴市",
    "city_kana": "マイヅルシ",
    "town": "白浜台",
    "town_kana": "シラハマダイ",
    "street": null,
    "office_name": null,
    "office_name_kana": null
  },
  "0085": {
    "postcode": "6250085",
    "prefecture": "京都府",
    "prefecture_kana": "キョウトフ",
    "prefecture_code": 26,
    "city": "舞鶴市",
    "city_kana": "マイヅルシ",
    "town": "和田",
    "town_kana": "ワダ",
    "street": null,
    "office_name": null,
    "office_name_kana": null
  },
  "0086": {
    "postcode": "6250086",
    "prefecture": "京都府",
    "prefecture_kana": "キョウトフ",
    "prefecture_code": 26,
    "city": "舞鶴市",
    "city_kana": "マイヅルシ",
    "town": "長浜",
    "town_kana": "ナガハマ",
    "street": null,
    "office_name": null,
    "office_name_kana": null
  },
  "0087": {
    "postcode": "6250087",
    "prefecture": "京都府",
    "prefecture_kana": "キョウトフ",
    "prefecture_code": 26,
    "city": "舞鶴市",
    "city_kana": "マイヅルシ",
    "town": "余部下",
    "town_kana": "アマルベシモ",
    "street": null,
    "office_name": null,
    "office_name_kana": null
  },
  "0131": {
    "postcode": "6250131",
    "prefecture": "京都府",
    "prefecture_kana": "キョウトフ",
    "prefecture_code": 26,
    "city": "舞鶴市",
    "city_kana": "マイヅルシ",
    "town": "中田町",
    "town_kana": "ナカダチョウ",
    "street": null,
    "office_name": null,
    "office_name_kana": null
  },
  "0132": {
    "postcode": "6250132",
    "prefecture": "京都府",
    "prefecture_kana": "キョウトフ",
    "prefecture_code": 26,
    "city": "舞鶴市",
    "city_kana": "マイヅルシ",
    "town": "中田",
    "town_kana": "ナカダ",
    "street": null,
    "office_name": null,
    "office_name_kana": null
  },
  "0133": {
    "postcode": "6250133",
    "prefecture": "京都府",
    "prefecture_kana": "キョウトフ",
    "prefecture_code": 26,
    "city": "舞鶴市",
    "city_kana": "マイヅルシ",
    "town": "平",
    "town_kana": "タイラ",
    "street": null,
    "office_name": null,
    "office_name_kana": null
  },
  "0134": {
    "postcode": "6250134",
    "prefecture": "京都府",
    "prefecture_kana": "キョウトフ",
    "prefecture_code": 26,
    "city": "舞鶴市",
    "city_kana": "マイヅルシ",
    "town": "佐波賀",
    "town_kana": "サバカ",
    "street": null,
    "office_name": null,
    "office_name_kana": null
  },
  "0135": {
    "postcode": "6250135",
    "prefecture": "京都府",
    "prefecture_kana": "キョウトフ",
    "prefecture_code": 26,
    "city": "舞鶴市",
    "city_kana": "マイヅルシ",
    "town": "千歳",
    "town_kana": "チトセ",
    "street": null,
    "office_name": null,
    "office_name_kana": null
  },
  "0136": {
    "postcode": "6250136",
    "prefecture": "京都府",
    "prefecture_kana": "キョウトフ",
    "prefecture_code": 26,
    "city": "舞鶴市",
    "city_kana": "マイヅルシ",
    "town": "大丹生",
    "town_kana": "オオニュウ",
    "street": null,
    "office_name": null,
    "office_name_kana": null
  },
  "0137": {
    "postcode": "6250137",
    "prefecture": "京都府",
    "prefecture_kana": "キョウトフ",
    "prefecture_code": 26,
    "city": "舞鶴市",
    "city_kana": "マイヅルシ",
    "town": "瀬崎",
    "town_kana": "セザキ",
    "street": null,
    "office_name": null,
    "office_name_kana": null
  },
  "0141": {
    "postcode": "6250141",
    "prefecture": "京都府",
    "prefecture_kana": "キョウトフ",
    "prefecture_code": 26,
    "city": "舞鶴市",
    "city_kana": "マイヅルシ",
    "town": "河辺中",
    "town_kana": "カワベナカ",
    "street": null,
    "office_name": null,
    "office_name_kana": null
  },
  "0142": {
    "postcode": "6250142",
    "prefecture": "京都府",
    "prefecture_kana": "キョウトフ",
    "prefecture_code": 26,
    "city": "舞鶴市",
    "city_kana": "マイヅルシ",
    "town": "西屋",
    "town_kana": "ニシヤ",
    "street": null,
    "office_name": null,
    "office_name_kana": null
  },
  "0143": {
    "postcode": "6250143",
    "prefecture": "京都府",
    "prefecture_kana": "キョウトフ",
    "prefecture_code": 26,
    "city": "舞鶴市",
    "city_kana": "マイヅルシ",
    "town": "室牛",
    "town_kana": "ムロジ",
    "street": null,
    "office_name": null,
    "office_name_kana": null
  },
  "0144": {
    "postcode": "6250144",
    "prefecture": "京都府",
    "prefecture_kana": "キョウトフ",
    "prefecture_code": 26,
    "city": "舞鶴市",
    "city_kana": "マイヅルシ",
    "town": "河辺由里",
    "town_kana": "カワベユリ",
    "street": null,
    "office_name": null,
    "office_name_kana": null
  },
  "0145": {
    "postcode": "6250145",
    "prefecture": "京都府",
    "prefecture_kana": "キョウトフ",
    "prefecture_code": 26,
    "city": "舞鶴市",
    "city_kana": "マイヅルシ",
    "town": "観音寺",
    "town_kana": "カンノンジ",
    "street": null,
    "office_name": null,
    "office_name_kana": null
  },
  "0146": {
    "postcode": "6250146",
    "prefecture": "京都府",
    "prefecture_kana": "キョウトフ",
    "prefecture_code": 26,
    "city": "舞鶴市",
    "city_kana": "マイヅルシ",
    "town": "河辺原",
    "town_kana": "カワベハラ",
    "street": null,
    "office_name": null,
    "office_name_kana": null
  },
  "0147": {
    "postcode": "6250147",
    "prefecture": "京都府",
    "prefecture_kana": "キョウトフ",
    "prefecture_code": 26,
    "city": "舞鶴市",
    "city_kana": "マイヅルシ",
    "town": "栃尾",
    "town_kana": "トチオ",
    "street": null,
    "office_name": null,
    "office_name_kana": null
  },
  "0151": {
    "postcode": "6250151",
    "prefecture": "京都府",
    "prefecture_kana": "キョウトフ",
    "prefecture_code": 26,
    "city": "舞鶴市",
    "city_kana": "マイヅルシ",
    "town": "赤野",
    "town_kana": "アカノ",
    "street": null,
    "office_name": null,
    "office_name_kana": null
  },
  "0152": {
    "postcode": "6250152",
    "prefecture": "京都府",
    "prefecture_kana": "キョウトフ",
    "prefecture_code": 26,
    "city": "舞鶴市",
    "city_kana": "マイヅルシ",
    "town": "多祢寺",
    "town_kana": "タネジ",
    "street": null,
    "office_name": null,
    "office_name_kana": null
  },
  "0153": {
    "postcode": "6250153",
    "prefecture": "京都府",
    "prefecture_kana": "キョウトフ",
    "prefecture_code": 26,
    "city": "舞鶴市",
    "city_kana": "マイヅルシ",
    "town": "三浜",
    "town_kana": "ミハマ",
    "street": null,
    "office_name": null,
    "office_name_kana": null
  },
  "0154": {
    "postcode": "6250154",
    "prefecture": "京都府",
    "prefecture_kana": "キョウトフ",
    "prefecture_code": 26,
    "city": "舞鶴市",
    "city_kana": "マイヅルシ",
    "town": "小橋",
    "town_kana": "オバセ",
    "street": null,
    "office_name": null,
    "office_name_kana": null
  },
  "0155": {
    "postcode": "6250155",
    "prefecture": "京都府",
    "prefecture_kana": "キョウトフ",
    "prefecture_code": 26,
    "city": "舞鶴市",
    "city_kana": "マイヅルシ",
    "town": "野原",
    "town_kana": "ノハラ",
    "street": null,
    "office_name": null,
    "office_name_kana": null
  },
  "0156": {
    "postcode": "6250156",
    "prefecture": "京都府",
    "prefecture_kana": "キョウトフ",
    "prefecture_code": 26,
    "city": "舞鶴市",
    "city_kana": "マイヅルシ",
    "town": "成生",
    "town_kana": "ナリウ",
    "street": null,
    "office_name": null,
    "office_name_kana": null
  },
  "0157": {
    "postcode": "6250157",
    "prefecture": "京都府",
    "prefecture_kana": "キョウトフ",
    "prefecture_code": 26,
    "city": "舞鶴市",
    "city_kana": "マイヅルシ",
    "town": "田井",
    "town_kana": "タイ",
    "street": null,
    "office_name": null,
    "office_name_kana": null
  },
  "0158": {
    "postcode": "6250158",
    "prefecture": "京都府",
    "prefecture_kana": "キョウトフ",
    "prefecture_code": 26,
    "city": "舞鶴市",
    "city_kana": "マイヅルシ",
    "town": "大山",
    "town_kana": "オオヤマ",
    "street": null,
    "office_name": null,
    "office_name_kana": null
  },
  "8501": {
    "postcode": "6258501",
    "prefecture": "京都府",
    "prefecture_kana": "キョウトフ",
    "prefecture_code": 26,
    "city": "舞鶴市",
    "city_kana": "マイヅルシ",
    "town": "字余部下",
    "town_kana": null,
    "street": "１１８０",
    "office_name": "日立造船　株式会社　舞鶴工場",
    "office_name_kana": "ヒタチゾウセン カブシキガイシヤ マイズルコウジヨウ"
  },
  "8502": {
    "postcode": "6258502",
    "prefecture": "京都府",
    "prefecture_kana": "キョウトフ",
    "prefecture_code": 26,
    "city": "舞鶴市",
    "city_kana": "マイヅルシ",
    "town": "字行永",
    "town_kana": null,
    "street": "２４１０",
    "office_name": "独立行政法人　国立病院機構　舞鶴医療センター",
    "office_name_kana": "ドクリツギヨウセイホウジン コクリツビヨウインキコウ マイヅルイリヨウセンタ-"
  },
  "8503": {
    "postcode": "6258503",
    "prefecture": "京都府",
    "prefecture_kana": "キョウトフ",
    "prefecture_code": 26,
    "city": "舞鶴市",
    "city_kana": "マイヅルシ",
    "town": "字長浜",
    "town_kana": null,
    "street": "２００１番地",
    "office_name": "海上保安学校",
    "office_name_kana": "カイジヨウホアンガツコウ"
  },
  "8510": {
    "postcode": "6258510",
    "prefecture": "京都府",
    "prefecture_kana": "キョウトフ",
    "prefecture_code": 26,
    "city": "舞鶴市",
    "city_kana": "マイヅルシ",
    "town": "字余部下",
    "town_kana": null,
    "street": "１１９０",
    "office_name": "海上自衛隊　舞鶴地方総監部",
    "office_name_kana": "カイジヨウジエイタイ マイズルチホウソウカンブ"
  },
  "8511": {
    "postcode": "6258511",
    "prefecture": "京都府",
    "prefecture_kana": "キョウトフ",
    "prefecture_code": 26,
    "city": "舞鶴市",
    "city_kana": "マイヅルシ",
    "town": "字白屋",
    "town_kana": null,
    "street": "２３４",
    "office_name": "舞鶴工業高等専門学校",
    "office_name_kana": "マイズルコウギヨウコウトウセンモンガツコウ"
  },
  "8555": {
    "postcode": "6258555",
    "prefecture": "京都府",
    "prefecture_kana": "キョウトフ",
    "prefecture_code": 26,
    "city": "舞鶴市",
    "city_kana": "マイヅルシ",
    "town": "字北吸",
    "town_kana": null,
    "street": "１０４４",
    "office_name": "舞鶴市役所",
    "office_name_kana": "マイヅルシヤクシヨ"
  },
  "8585": {
    "postcode": "6258585",
    "prefecture": "京都府",
    "prefecture_kana": "キョウトフ",
    "prefecture_code": 26,
    "city": "舞鶴市",
    "city_kana": "マイヅルシ",
    "town": "字浜",
    "town_kana": null,
    "street": "１０３５",
    "office_name": "舞鶴共済病院",
    "office_name_kana": "マイズルキヨウサイビヨウイン"
  },
  "8666": {
    "postcode": "6258666",
    "prefecture": "京都府",
    "prefecture_kana": "キョウトフ",
    "prefecture_code": 26,
    "city": "舞鶴市",
    "city_kana": "マイヅルシ",
    "town": "字大波下",
    "town_kana": null,
    "street": "浜田２５５",
    "office_name": "日本板硝子　株式会社　舞鶴工場",
    "office_name_kana": "ニホンイタガラス カブシキガイシヤ マイズルコウジヨウ"
  }
}