{
  "0000": {
    "postcode": "6260000",
    "prefecture": "京都府",
    "prefecture_kana": "キョウトフ",
    "prefecture_code": 26,
    "city": "宮津市",
    "city_kana": "ミヤヅシ",
    "town": "",
    "town_kana": "",
    "street": null,
    "office_name": null,
    "office_name_kana": null
  },
  "0001": {
    "postcode": "6260001",
    "prefecture": "京都府",
    "prefecture_kana": "キョウトフ",
    "prefecture_code": 26,
    "city": "宮津市",
    "city_kana": "ミヤヅシ",
    "town": "文珠",
    "town_kana": "モンジュ",
    "street": null,
    "office_name": null,
    "office_name_kana": null
  },
  "0002": {
    "postcode": "6260002",
    "prefecture": "京都府",
    "prefecture_kana": "キョウトフ",
    "prefecture_code": 26,
    "city": "宮津市",
    "city_kana": "ミヤヅシ",
    "town": "杉末",
    "town_kana": "スギノスエ",
    "street": null,
    "office_name": null,
    "office_name_kana": null
  },
  "0003": {
    "postcode": "6260003",
    "prefecture": "京都府",
    "prefecture_kana": "キョウトフ",
    "prefecture_code": 26,
    "city": "宮津市",
    "city_kana": "ミヤヅシ",
    "town": "漁師",
    "town_kana": "リョウシ",
    "street": null,
    "office_name": null,
    "office_name_kana": null
  },
  "0004": {
    "postcode": "6260004",
    "prefecture": "京都府",
    "prefecture_kana": "キョウトフ",
    "prefecture_code": 26,
    "city": "宮津市",
    "city_kana": "ミヤヅシ",
    "town": "川向",
    "town_kana": "カワムカイ",
    "street": null,
    "office_name": null,
    "office_name_kana": null
  },
  "0005": {
    "postcode": "6260005",
    "prefecture": "京都府",
    "prefecture_kana": "キョウトフ",
    "prefecture_code": 26,
    "city": "宮津市",
    "city_kana": "ミヤヅシ",
    "town": "宮町",
    "town_kana": "ミヤマチ",
    "street": null,
    "office_name": null,
    "office_name_kana": null
  },
  "0006": {
    "postcode": "6260006",
    "prefecture": "京都府",
    "prefecture_kana": "キョウトフ",
    "prefecture_code": 26,
    "city": "宮津市",
    "city_kana": "ミヤヅシ",
    "town": "蛭子",
    "town_kana": "エビス",
    "street": null,
    "office_name": null,
    "office_name_kana": null
  },
  "0007": {
    "postcode": "6260007",
    "prefecture": "京都府",
    "prefecture_kana": "キョウトフ",
    "prefecture_code": 26,
    "city": "宮津市",
    "city_kana": "ミヤヅシ",
    "town": "池ノ谷",
    "town_kana": "イケノタニ",
    "street": null,
    "office_name": null,
    "office_name_kana": null
  },
  "0008": {
    "postcode": "6260008",
    "prefecture": "京都府",
    "prefecture_kana": "キョウトフ",
    "prefecture_code": 26,
    "city": "宮津市",
    "city_kana": "ミヤヅシ",
    "town": "万年",
    "town_kana": "マンネン",
    "street": null,
    "office_name": null,
    "office_name_kana": null
  },
  "0011": {
    "postcode": "6260011",
    "prefecture": "京都府",
    "prefecture_kana": "キョウトフ",
    "prefecture_code": 26,
    "city": "宮津市",
    "city_kana": "ミヤヅシ",
    "town": "白柏",
    "town_kana": "シラカセ",
    "street": null,
    "office_name": null,
    "office_name_kana": null
  },
  "0012": {
    "postcode": "6260012",
    "prefecture": "京都府",
    "prefecture_kana": "キョウトフ",
    "prefecture_code": 26,
    "city": "宮津市",
    "city_kana": "ミヤヅシ",
    "town": "浜町",
    "town_kana": "ハママチ",
    "street": null,
    "office_name": null,
    "office_name_kana": null
  },
  "0013": {
    "postcode": "6260013",
    "prefecture": "京都府",
    "prefecture_kana": "キョウトフ",
    "prefecture_code": 26,
    "city": "宮津市",
    "city_kana": "ミヤヅシ",
    "town": "住吉",
    "town_kana": "スミヨシ",
    "street": null,
    "office_name": null,
    "office_name_kana": null
  },
  "0014": {
    "postcode": "6260014",
    "prefecture": "京都府",
    "prefecture_kana": "キョウトフ",
    "prefecture_code": 26,
    "city": "宮津市",
    "city_kana": "ミヤヅシ",
    "town": "河原",
    "town_kana": "カワラ",
    "street": null,
    "office_name": null,
    "office_name_kana": null
  },
  "0015": {
    "postcode": "6260015",
    "prefecture": "京都府",
    "prefecture_kana": "キョウトフ",
    "prefecture_code": 26,
    "city": "宮津市",
    "city_kana": "ミヤヅシ",
    "town": "魚屋",
    "town_kana": "ウオヤ",
    "street": null,
    "office_name": null,
    "office_name_kana": null
  },
  "0016": {
    "postcode": "6260016",
    "prefecture": "京都府",
    "prefecture_kana": "キョウトフ",
    "prefecture_code": 26,
    "city": "宮津市",
    "city_kana": "ミヤヅシ",
    "town": "新浜",
    "town_kana": "シンハマ",
    "street": null,
    "office_name": null,
    "office_name_kana": null
  },
  "0017": {
    "postcode": "6260017",
    "prefecture": "京都府",
    "prefecture_kana": "キョウトフ",
    "prefecture_code": 26,
    "city": "宮津市",
    "city_kana": "ミヤヅシ",
    "town": "島崎",
    "town_kana": "シマサキ",
    "street": null,
    "office_name": null,
    "office_name_kana": null
  },
  "0018": {
    "postcode": "6260018",
    "prefecture": "京都府",
    "prefecture_kana": "キョウトフ",
    "prefecture_code": 26,
    "city": "宮津市",
    "city_kana": "ミヤヅシ",
    "town": "本町",
    "town_kana": "ホンマチ",
    "street": null,
    "office_name": null,
    "office_name_kana": null
  },
  "0019": {
    "postcode": "6260019",
    "prefecture": "京都府",
    "prefecture_kana": "キョウトフ",
    "prefecture_code": 26,
    "city": "宮津市",
    "city_kana": "ミヤヅシ",
    "town": "万年新地",
    "town_kana": "マンネンシンチ",
    "street": null,
    "office_name": null,
    "office_name_kana": null
  },
  "0020": {
    "postcode": "6260020",
    "prefecture": "京都府",
    "prefecture_kana": "キョウトフ",
    "prefecture_code": 26,
    "city": "宮津市",
    "city_kana": "ミヤヅシ",
    "town": "猟師",
    "town_kana": "リョウシ",
    "street": null,
    "office_name": null,
    "office_name_kana": null
  },
  "0021": {
    "postcode": "6260021",
    "prefecture": "京都府",
    "prefecture_kana": "キョウトフ",
    "prefecture_code": 26,
    "city": "宮津市",
    "city_kana": "ミヤヅシ",
    "town": "小川",
    "town_kana": "オガワ",
    "street": null,
    "office_name": null,
    "office_name_kana": null
  },
  "0022": {
    "postcode": "6260022",
    "prefecture": "京都府",
    "prefecture_kana": "キョウトフ",
    "prefecture_code": 26,
    "city": "宮津市",
    "city_kana": "ミヤヅシ",
    "town": "万町",
    "town_kana": "ヨロズマチ",
    "street": null,
    "office_name": null,
    "office_name_kana": null
  },
  "0023": {
    "postcode": "6260023",
    "prefecture": "京都府",
    "prefecture_kana": "キョウトフ",
    "prefecture_code": 26,
    "city": "宮津市",
    "city_kana": "ミヤヅシ",
    "town": "宮本",
    "town_kana": "ミヤモト",
    "street": null,
    "office_name": null,
    "office_name_kana": null
  },
  "0024": {
    "postcode": "6260024",
    "prefecture": "京都府",
    "prefecture_kana": "キョウトフ",
    "prefecture_code": 26,
    "city": "宮津市",
    "city_kana": "ミヤヅシ",
    "town": "柳縄手",
    "town_kana": "ヤナギナワテ",
    "street": null,
    "office_name": null,
    "office_name_kana": null
  },
  "0025": {
    "postcode": "6260025",
    "prefecture": "京都府",
    "prefecture_kana": "キョウトフ",
    "prefecture_code": 26,
    "city": "宮津市",
    "city_kana": "ミヤヅシ",
    "town": "木ノ部",
    "town_kana": "キノベ",
    "street": null,
    "office_name": null,
    "office_name_kana": null
  },
  "0026": {
    "postcode": "6260026",
    "prefecture": "京都府",
    "prefecture_kana": "キョウトフ",
    "prefecture_code": 26,
    "city": "宮津市",
    "city_kana": "ミヤヅシ",
    "town": "京口町",
    "town_kana": "キョウグチマチ",
    "street": null,
    "office_name": null,
    "office_name_kana": null
  },
  "0027": {
    "postcode": "6260027",
    "prefecture": "京都府",
    "prefecture_kana": "キョウトフ",
    "prefecture_code": 26,
    "city": "宮津市",
    "city_kana": "ミヤヅシ",
    "town": "京街道",
    "town_kana": "キョウカイドウ",
    "street": null,
    "office_name": null,
    "office_name_kana": null
  },
  "0028": {
    "postcode": "6260028",
    "prefecture": "京都府",
    "prefecture_kana": "キョウトフ",
    "prefecture_code": 26,
    "city": "宮津市",
    "city_kana": "ミヤヅシ",
    "town": "大久保",
    "town_kana": "オオクボ",
    "street": null,
    "office_name": null,
    "office_name_kana": null
  },
  "0029": {
    "postcode": "6260029",
    "prefecture": "京都府",
    "prefecture_kana": "キョウトフ",
    "prefecture_code": 26,
    "city": "宮津市",
    "city_kana": "ミヤヅシ",
    "town": "金屋谷",
    "town_kana": "カナヤダニ",
    "street": null,
    "office_name": null,
    "office_name_kana": null
  },
  "0031": {
    "postcode": "6260031",
    "prefecture": "京都府",
    "prefecture_kana": "キョウトフ",
    "prefecture_code": 26,
    "city": "宮津市",
    "city_kana": "ミヤヅシ",
    "town": "京口",
    "town_kana": "キョウグチ",
    "street": null,
    "office_name": null,
    "office_name_kana": null
  },
  "0032": {
    "postcode": "6260032",
    "prefecture": "京都府",
    "prefecture_kana": "キョウトフ",
    "prefecture_code": 26,
    "city": "宮津市",
    "city_kana": "ミヤヅシ",
    "town": "松原",
    "town_kana": "マツバラ",
    "street": null,
    "office_name": null,
    "office_name_kana": null
  },
  "0033": {
    "postcode": "6260033",
    "prefecture": "京都府",
    "prefecture_kana": "キョウトフ",
    "prefecture_code": 26,
    "city": "宮津市",
    "city_kana": "ミヤヅシ",
    "town": "宮村",
    "town_kana": "ミヤムラ",
    "street": null,
    "office_name": null,
    "office_name_kana": null
  },
  "0034": {
    "postcode": "6260034",
    "prefecture": "京都府",
    "prefecture_kana": "キョウトフ",
    "prefecture_code": 26,
    "city": "宮津市",
    "city_kana": "ミヤヅシ",
    "town": "滝馬",
    "town_kana": "タキバ",
    "street": null,
    "office_name": null,
    "office_name_kana": null
  },
  "0035": {
    "postcode": "6260035",
    "prefecture": "京都府",
    "prefecture_kana": "キョウトフ",
    "prefecture_code": 26,
    "city": "宮津市",
    "city_kana": "ミヤヅシ",
    "town": "喜多",
    "town_kana": "キタ",
    "street": null,
    "office_name": null,
    "office_name_kana": null
  },
  "0036": {
    "postcode": "6260036",
    "prefecture": "京都府",
    "prefecture_kana": "キョウトフ",
    "prefecture_code": 26,
    "city": "宮津市",
    "city_kana": "ミヤヅシ",
    "town": "今福",
    "town_kana": "イマフク",
    "street": null,
    "office_name": null,
    "office_name_kana": null
  },
  "0037": {
    "postcode": "6260037",
    "prefecture": "京都府",
    "prefecture_kana": "キョウトフ",
    "prefecture_code": 26,
    "city": "宮津市",
    "city_kana": "ミヤヅシ",
    "town": "小田",
    "town_kana": "オダ",
    "street": null,
    "office_name": null,
    "office_name_kana": null
  },
  "0041": {
    "postcode": "6260041",
    "prefecture": "京都府",
    "prefecture_kana": "キョウトフ",
    "prefecture_code": 26,
    "city": "宮津市",
    "city_kana": "ミヤヅシ",
    "town": "鶴賀",
    "town_kana": "ツルガ",
    "street": null,
    "office_name": null,
    "office_name_kana": null
  },
  "0042": {
    "postcode": "6260042",
    "prefecture": "京都府",
    "prefecture_kana": "キョウトフ",
    "prefecture_code": 26,
    "city": "宮津市",
    "city_kana": "ミヤヅシ",
    "town": "安智",
    "town_kana": "アンチ",
    "street": null,
    "office_name": null,
    "office_name_kana": null
  },
  "0043": {
    "postcode": "6260043",
    "prefecture": "京都府",
    "prefecture_kana": "キョウトフ",
    "prefecture_code": 26,
    "city": "宮津市",
    "city_kana": "ミヤヅシ",
    "town": "惣",
    "town_kana": "ソウ",
    "street": null,
    "office_name": null,
    "office_name_kana": null
  },
  "0044": {
    "postcode": "6260044",
    "prefecture": "京都府",
    "prefecture_kana": "キョウトフ",
    "prefecture_code": 26,
    "city": "宮津市",
    "city_kana": "ミヤヅシ",
    "town": "吉原",
    "town_kana": "ヨシハラ",
    "street": null,
    "office_name": null,
    "office_name_kana": null
  },
  "0045": {
    "postcode": "6260045",
    "prefecture": "京都府",
    "prefecture_kana": "キョウトフ",
    "prefecture_code": 26,
    "city": "宮津市",
    "city_kana": "ミヤヅシ",
    "town": "馬場先",
    "town_kana": "ババサキ",
    "street": null,
    "office_name": null,
    "office_name_kana": null
  },
  "0046": {
    "postcode": "6260046",
    "prefecture": "京都府",
    "prefecture_kana": "キョウトフ",
    "prefecture_code": 26,
    "city": "宮津市",
    "city_kana": "ミヤヅシ",
    "town": "中ノ丁",
    "town_kana": "ナカノチョウ",
    "street": null,
    "office_name": null,
    "office_name_kana": null
  },
  "0047": {
    "postcode": "6260047",
    "prefecture": "京都府",
    "prefecture_kana": "キョウトフ",
    "prefecture_code": 26,
    "city": "宮津市",
    "city_kana": "ミヤヅシ",
    "town": "外側",
    "town_kana": "ソトガワ",
    "street": null,
    "office_name": null,
    "office_name_kana": null
  },
  "0051": {
    "postcode": "6260051",
    "prefecture": "京都府",
    "prefecture_kana": "キョウトフ",
    "prefecture_code": 26,
    "city": "宮津市",
    "city_kana": "ミヤヅシ",
    "town": "島陰",
    "town_kana": "シマカゲ",
    "street": null,
    "office_name": null,
    "office_name_kana": null
  },
  "0052": {
    "postcode": "6260052",
    "prefecture": "京都府",
    "prefecture_kana": "キョウトフ",
    "prefecture_code": 26,
    "city": "宮津市",
    "city_kana": "ミヤヅシ",
    "town": "小田宿野",
    "town_kana": "オダシュクノ",
    "street": null,
    "office_name": null,
    "office_name_kana": null
  },
  "0053": {
    "postcode": "6260053",
    "prefecture": "京都府",
    "prefecture_kana": "キョウトフ",
    "prefecture_code": 26,
    "city": "宮津市",
    "city_kana": "ミヤヅシ",
    "town": "中津",
    "town_kana": "ナカツ",
    "street": null,
    "office_name": null,
    "office_name_kana": null
  },
  "0054": {
    "postcode": "6260054",
    "prefecture": "京都府",
    "prefecture_kana": "キョウトフ",
    "prefecture_code": 26,
    "city": "宮津市",
    "city_kana": "ミヤヅシ",
    "town": "銀丘",
    "town_kana": "ギンガオカ",
    "street": null,
    "office_name": null,
    "office_name_kana": null
  },
  "0055": {
    "postcode": "6260055",
    "prefecture": "京都府",
    "prefecture_kana": "キョウトフ",
    "prefecture_code": 26,
    "city": "宮津市",
    "city_kana": "ミヤヅシ",
    "town": "鏡ケ浦",
    "town_kana": "カガミガウラ",
    "street": null,
    "office_name": null,
    "office_name_kana": null
  },
  "0061": {
    "postcode": "6260061",
    "prefecture": "京都府",
    "prefecture_kana": "キョウトフ",
    "prefecture_code": 26,
    "city": "宮津市",
    "city_kana": "ミヤヅシ",
    "town": "波路",
    "town_kana": "ハジ",
    "street": null,
    "office_name": null,
    "office_name_kana": null
  },
  "0062": {
    "postcode": "6260062",
    "prefecture": "京都府",
    "prefecture_kana": "キョウトフ",
    "prefecture_code": 26,
    "city": "宮津市",
    "city_kana": "ミヤヅシ",
    "town": "山中",
    "town_kana": "ヤマナカ",
    "street": null,
    "office_name": null,
    "office_name_kana": null
  },
  "0063": {
    "postcode": "6260063",
    "prefecture": "京都府",
    "prefecture_kana": "キョウトフ",
    "prefecture_code": 26,
    "city": "宮津市",
    "city_kana": "ミヤヅシ",
    "town": "皆原",
    "town_kana": "カイバラ",
    "street": null,
    "office_name": null,
    "office_name_kana": null
  },
  "0064": {
    "postcode": "6260064",
    "prefecture": "京都府",
    "prefecture_kana": "キョウトフ",
    "prefecture_code": 26,
    "city": "宮津市",
    "city_kana": "ミヤヅシ",
    "town": "波路町",
    "town_kana": "ハジマチ",
    "street": null,
    "office_name": null,
    "office_name_kana": null
  },
  "0065": {
    "postcode": "6260065",
    "prefecture": "京都府",
    "prefecture_kana": "キョウトフ",
    "prefecture_code": 26,
    "city": "宮津市",
    "city_kana": "ミヤヅシ",
    "town": "獅子崎",
    "town_kana": "シシザキ",
    "street": null,
    "office_name": null,
    "office_name_kana": null
  },
  "0066": {
    "postcode": "6260066",
    "prefecture": "京都府",
    "prefecture_kana": "キョウトフ",
    "prefecture_code": 26,
    "city": "宮津市",
    "city_kana": "ミヤヅシ",
    "town": "獅子",
    "town_kana": "チシ",
    "street": null,
    "office_name": null,
    "office_name_kana": null
  },
  "0067": {
    "postcode": "6260067",
    "prefecture": "京都府",
    "prefecture_kana": "キョウトフ",
    "prefecture_code": 26,
    "city": "宮津市",
    "city_kana": "ミヤヅシ",
    "town": "矢原",
    "town_kana": "ヤワラ",
    "street": null,
    "office_name": null,
    "office_name_kana": null
  },
  "0068": {
    "postcode": "6260068",
    "prefecture": "京都府",
    "prefecture_kana": "キョウトフ",
    "prefecture_code": 26,
    "city": "宮津市",
    "city_kana": "ミヤヅシ",
    "town": "田井",
    "town_kana": "タイ",
    "street": null,
    "office_name": null,
    "office_name_kana": null
  },
  "0071": {
    "postcode": "6260071",
    "prefecture": "京都府",
    "prefecture_kana": "キョウトフ",
    "prefecture_code": 26,
    "city": "宮津市",
    "city_kana": "ミヤヅシ",
    "town": "由良",
    "town_kana": "ユラ",
    "street": null,
    "office_name": null,
    "office_name_kana": null
  },
  "0072": {
    "postcode": "6260072",
    "prefecture": "京都府",
    "prefecture_kana": "キョウトフ",
    "prefecture_code": 26,
    "city": "宮津市",
    "city_kana": "ミヤヅシ",
    "town": "石浦",
    "town_kana": "イシウラ",
    "street": null,
    "office_name": null,
    "office_name_kana": null
  },
  "0073": {
    "postcode": "6260073",
    "prefecture": "京都府",
    "prefecture_kana": "キョウトフ",
    "prefecture_code": 26,
    "city": "宮津市",
    "city_kana": "ミヤヅシ",
    "town": "新宮",
    "town_kana": "シングウ",
    "street": null,
    "office_name": null,
    "office_name_kana": null
  },
  "0074": {
    "postcode": "6260074",
    "prefecture": "京都府",
    "prefecture_kana": "キョウトフ",
    "prefecture_code": 26,
    "city": "宮津市",
    "city_kana": "ミヤヅシ",
    "town": "上司",
    "town_kana": "ジョウシ",
    "street": null,
    "office_name": null,
    "office_name_kana": null
  },
  "0075": {
    "postcode": "6260075",
    "prefecture": "京都府",
    "prefecture_kana": "キョウトフ",
    "prefecture_code": 26,
    "city": "宮津市",
    "city_kana": "ミヤヅシ",
    "town": "小寺",
    "town_kana": "コデラ",
    "street": null,
    "office_name": null,
    "office_name_kana": null
  },
  "0076": {
    "postcode": "6260076",
    "prefecture": "京都府",
    "prefecture_kana": "キョウトフ",
    "prefecture_code": 26,
    "city": "宮津市",
    "city_kana": "ミヤヅシ",
    "town": "中村",
    "town_kana": "ナカムラ",
    "street": null,
    "office_name": null,
    "office_name_kana": null
  },
  "0077": {
    "postcode": "6260077",
    "prefecture": "京都府",
    "prefecture_kana": "キョウトフ",
    "prefecture_code": 26,
    "city": "宮津市",
    "city_kana": "ミヤヅシ",
    "town": "脇",
    "town_kana": "ワキ",
    "street": null,
    "office_name": null,
    "office_name_kana": null
  },
  "0201": {
    "postcode": "6260201",
    "prefecture": "京都府",
    "prefecture_kana": "キョウトフ",
    "prefecture_code": 26,
    "city": "宮津市",
    "city_kana": "ミヤヅシ",
    "town": "田原",
    "town_kana": "タワラ",
    "street": null,
    "office_name": null,
    "office_name_kana": null
  },
  "0202": {
    "postcode": "6260202",
    "prefecture": "京都府",
    "prefecture_kana": "キョウトフ",
    "prefecture_code": 26,
    "city": "宮津市",
    "city_kana": "ミヤヅシ",
    "town": "大島",
    "town_kana": "オオシマ",
    "street": null,
    "office_name": null,
    "office_name_kana": null
  },
  "0203": {
    "postcode": "6260203",
    "prefecture": "京都府",
    "prefecture_kana": "キョウトフ",
    "prefecture_code": 26,
    "city": "宮津市",
    "city_kana": "ミヤヅシ",
    "town": "岩ケ鼻",
    "town_kana": "イワガハナ",
    "street": null,
    "office_name": null,
    "office_name_kana": null
  },
  "0204": {
    "postcode": "6260204",
    "prefecture": "京都府",
    "prefecture_kana": "キョウトフ",
    "prefecture_code": 26,
    "city": "宮津市",
    "city_kana": "ミヤヅシ",
    "town": "長江",
    "town_kana": "ナガエ",
    "street": null,
    "office_name": null,
    "office_name_kana": null
  },
  "0205": {
    "postcode": "6260205",
    "prefecture": "京都府",
    "prefecture_kana": "キョウトフ",
    "prefecture_code": 26,
    "city": "宮津市",
    "city_kana": "ミヤヅシ",
    "town": "外垣",
    "town_kana": "トノガキ",
    "street": null,
    "office_name": null,
    "office_name_kana": null
  },
  "0206": {
    "postcode": "6260206",
    "prefecture": "京都府",
    "prefecture_kana": "キョウトフ",
    "prefecture_code": 26,
    "city": "宮津市",
    "city_kana": "ミヤヅシ",
    "town": "日ケ谷",
    "town_kana": "ヒガタニ",
    "street": null,
    "office_name": null,
    "office_name_kana": null
  },
  "0211": {
    "postcode": "6260211",
    "prefecture": "京都府",
    "prefecture_kana": "キョウトフ",
    "prefecture_code": 26,
    "city": "宮津市",
    "city_kana": "ミヤヅシ",
    "town": "里波見",
    "town_kana": "サトハミ",
    "street": null,
    "office_name": null,
    "office_name_kana": null
  },
  "0212": {
    "postcode": "6260212",
    "prefecture": "京都府",
    "prefecture_kana": "キョウトフ",
    "prefecture_code": 26,
    "city": "宮津市",
    "city_kana": "ミヤヅシ",
    "town": "中波見",
    "town_kana": "ナカハミ",
    "street": null,
    "office_name": null,
    "office_name_kana": null
  },
  "0213": {
    "postcode": "6260213",
    "prefecture": "京都府",
    "prefecture_kana": "キョウトフ",
    "prefecture_code": 26,
    "city": "宮津市",
    "city_kana": "ミヤヅシ",
    "town": "奥波見",
    "town_kana": "オクハミ",
    "street": null,
    "office_name": null,
    "office_name_kana": null
  },
  "0221": {
    "postcode": "6260221",
    "prefecture": "京都府",
    "prefecture_kana": "キョウトフ",
    "prefecture_code": 26,
    "city": "宮津市",
    "city_kana": "ミヤヅシ",
    "town": "木子",
    "town_kana": "キゴ",
    "street": null,
    "office_name": null,
    "office_name_kana": null
  },
  "0222": {
    "postcode": "6260222",
    "prefecture": "京都府",
    "prefecture_kana": "キョウトフ",
    "prefecture_code": 26,
    "city": "宮津市",
    "city_kana": "ミヤヅシ",
    "town": "東野",
    "town_kana": "ヒガシノ",
    "street": null,
    "office_name": null,
    "office_name_kana": null
  },
  "0223": {
    "postcode": "6260223",
    "prefecture": "京都府",
    "prefecture_kana": "キョウトフ",
    "prefecture_code": 26,
    "city": "宮津市",
    "city_kana": "ミヤヅシ",
    "town": "松尾",
    "town_kana": "マツオ",
    "street": null,
    "office_name": null,
    "office_name_kana": null
  },
  "0224": {
    "postcode": "6260224",
    "prefecture": "京都府",
    "prefecture_kana": "キョウトフ",
    "prefecture_code": 26,
    "city": "宮津市",
    "city_kana": "ミヤヅシ",
    "town": "下世屋",
    "town_kana": "シモセヤ",
    "street": null,
    "office_name": null,
    "office_name_kana": null
  },
  "0225": {
    "postcode": "6260225",
    "prefecture": "京都府",
    "prefecture_kana": "キョウトフ",
    "prefecture_code": 26,
    "city": "宮津市",
    "city_kana": "ミヤヅシ",
    "town": "日置",
    "town_kana": "ヒオキ",
    "street": null,
    "office_name": null,
    "office_name_kana": null
  },
  "0226": {
    "postcode": "6260226",
    "prefecture": "京都府",
    "prefecture_kana": "キョウトフ",
    "prefecture_code": 26,
    "city": "宮津市",
    "city_kana": "ミヤヅシ",
    "town": "畑",
    "town_kana": "ハタ",
    "street": null,
    "office_name": null,
    "office_name_kana": null
  },
  "0227": {
    "postcode": "6260227",
    "prefecture": "京都府",
    "prefecture_kana": "キョウトフ",
    "prefecture_code": 26,
    "city": "宮津市",
    "city_kana": "ミヤヅシ",
    "town": "上世屋",
    "town_kana": "カミセヤ",
    "street": null,
    "office_name": null,
    "office_name_kana": null
  },
  "0400": {
    "postcode": "6260400",
    "prefecture": "京都府",
    "prefecture_kana": "キョウトフ",
    "prefecture_code": 26,
    "city": "与謝郡伊根町",
    "city_kana": "ヨサグンイネチョウ",
    "town": "",
    "town_kana": "",
    "street": null,
    "office_name": null,
    "office_name_kana": null
  },
  "0401": {
    "postcode": "6260401",
    "prefecture": "京都府",
    "prefecture_kana": "キョウトフ",
    "prefecture_code": 26,
    "city": "与謝郡伊根町",
    "city_kana": "ヨサグンイネチョウ",
    "town": "蒲入",
    "town_kana": "カマニュウ",
    "street": null,
    "office_name": null,
    "office_name_kana": null
  },
  "0402": {
    "postcode": "6260402",
    "prefecture": "京都府",
    "prefecture_kana": "キョウトフ",
    "prefecture_code": 26,
    "city": "与謝郡伊根町",
    "city_kana": "ヨサグンイネチョウ",
    "town": "長延",
    "town_kana": "チョウエン",
    "street": null,
    "office_name": null,
    "office_name_kana": null
  },
  "0403": {
    "postcode": "6260403",
    "prefecture": "京都府",
    "prefecture_kana": "キョウトフ",
    "prefecture_code": 26,
    "city": "与謝郡伊根町",
    "city_kana": "ヨサグンイネチョウ",
    "town": "本庄浜",
    "town_kana": "ホンジョウハマ",
    "street": null,
    "office_name": null,
    "office_name_kana": null
  },
  "0404": {
    "postcode": "6260404",
    "prefecture": "京都府",
    "prefecture_kana": "キョウトフ",
    "prefecture_code": 26,
    "city": "与謝郡伊根町",
    "city_kana": "ヨサグンイネチョウ",
    "town": "本庄宇治",
    "town_kana": "ホンジョウウジ",
    "street": null,
    "office_name": null,
    "office_name_kana": null
  },
  "0405": {
    "postcode": "6260405",
    "prefecture": "京都府",
    "prefecture_kana": "キョウトフ",
    "prefecture_code": 26,
    "city": "与謝郡伊根町",
    "city_kana": "ヨサグンイネチョウ",
    "town": "本庄上",
    "town_kana": "ホンジョウアゲ",
    "street": null,
    "office_name": null,
    "office_name_kana": null
  },
  "0411": {
    "postcode": "6260411",
    "prefecture": "京都府",
    "prefecture_kana": "キョウトフ",
    "prefecture_code": 26,
    "city": "与謝郡伊根町",
    "city_kana": "ヨサグンイネチョウ",
    "town": "野室",
    "town_kana": "ノムロ",
    "street": null,
    "office_name": null,
    "office_name_kana": null
  },
  "0412": {
    "postcode": "6260412",
    "prefecture": "京都府",
    "prefecture_kana": "キョウトフ",
    "prefecture_code": 26,
    "city": "与謝郡伊根町",
    "city_kana": "ヨサグンイネチョウ",
    "town": "津母",
    "town_kana": "ツモ",
    "street": null,
    "office_name": null,
    "office_name_kana": null
  },
  "0413": {
    "postcode": "6260413",
    "prefecture": "京都府",
    "prefecture_kana": "キョウトフ",
    "prefecture_code": 26,
    "city": "与謝郡伊根町",
    "city_kana": "ヨサグンイネチョウ",
    "town": "泊",
    "town_kana": "トマリ",
    "street": null,
    "office_name": null,
    "office_name_kana": null
  },
  "0414": {
    "postcode": "6260414",
    "prefecture": "京都府",
    "prefecture_kana": "キョウトフ",
    "prefecture_code": 26,
    "city": "与謝郡伊根町",
    "city_kana": "ヨサグンイネチョウ",
    "town": "六万部",
    "town_kana": "ロクマンブ",
    "street": null,
    "office_name": null,
    "office_name_kana": null
  },
  "0415": {
    "postcode": "6260415",
    "prefecture": "京都府",
    "prefecture_kana": "キョウトフ",
    "prefecture_code": 26,
    "city": "与謝郡伊根町",
    "city_kana": "ヨサグンイネチョウ",
    "town": "井室",
    "town_kana": "イムロ",
    "street": null,
    "office_name": null,
    "office_name_kana": null
  },
  "0416": {
    "postcode": "6260416",
    "prefecture": "京都府",
    "prefecture_kana": "キョウトフ",
    "prefecture_code": 26,
    "city": "与謝郡伊根町",
    "city_kana": "ヨサグンイネチョウ",
    "town": "畑谷",
    "town_kana": "ハタダニ",
    "street": null,
    "office_name": null,
    "office_name_kana": null
  },
  "0417": {
    "postcode": "6260417",
    "prefecture": "京都府",
    "prefecture_kana": "キョウトフ",
    "prefecture_code": 26,
    "city": "与謝郡伊根町",
    "city_kana": "ヨサグンイネチョウ",
    "town": "峠",
    "town_kana": "トウゲ",
    "street": null,
    "office_name": null,
    "office_name_kana": null
  },
  "0421": {
    "postcode": "6260421",
    "prefecture": "京都府",
    "prefecture_kana": "キョウトフ",
    "prefecture_code": 26,
    "city": "与謝郡伊根町",
    "city_kana": "ヨサグンイネチョウ",
    "town": "新井",
    "town_kana": "ニイ",
    "street": null,
    "office_name": null,
    "office_name_kana": null
  },
  "0422": {
    "postcode": "6260422",
    "prefecture": "京都府",
    "prefecture_kana": "キョウトフ",
    "prefecture_code": 26,
    "city": "与謝郡伊根町",
    "city_kana": "ヨサグンイネチョウ",
    "town": "大原",
    "town_kana": "オオハラ",
    "street": null,
    "office_name": null,
    "office_name_kana": null
  },
  "0423": {
    "postcode": "6260423",
    "prefecture": "京都府",
    "prefecture_kana": "キョウトフ",
    "prefecture_code": 26,
    "city": "与謝郡伊根町",
    "city_kana": "ヨサグンイネチョウ",
    "town": "平田",
    "town_kana": "ヒラタ",
    "street": null,
    "office_name": null,
    "office_name_kana": null
  },
  "0424": {
    "postcode": "6260424",
    "prefecture": "京都府",
    "prefecture_kana": "キョウトフ",
    "prefecture_code": 26,
    "city": "与謝郡伊根町",
    "city_kana": "ヨサグンイネチョウ",
    "town": "亀島",
    "town_kana": "カメシマ",
    "street": null,
    "office_name": null,
    "office_name_kana": null
  },
  "0425": {
    "postcode": "6260425",
    "prefecture": "京都府",
    "prefecture_kana": "キョウトフ",
    "prefecture_code": 26,
    "city": "与謝郡伊根町",
    "city_kana": "ヨサグンイネチョウ",
    "town": "日出",
    "town_kana": "ヒデ",
    "street": null,
    "office_name": null,
    "office_name_kana": null
  },
  "0431": {
    "postcode": "6260431",
    "prefecture": "京都府",
    "prefecture_kana": "キョウトフ",
    "prefecture_code": 26,
    "city": "与謝郡伊根町",
    "city_kana": "ヨサグンイネチョウ",
    "town": "菅野",
    "town_kana": "スガノ",
    "street": null,
    "office_name": null,
    "office_name_kana": null
  },
  "0432": {
    "postcode": "6260432",
    "prefecture": "京都府",
    "prefecture_kana": "キョウトフ",
    "prefecture_code": 26,
    "city": "与謝郡伊根町",
    "city_kana": "ヨサグンイネチョウ",
    "town": "本坂",
    "town_kana": "ホンザカ",
    "street": null,
    "office_name": null,
    "office_name_kana": null
  },
  "0433": {
    "postcode": "6260433",
    "prefecture": "京都府",
    "prefecture_kana": "キョウトフ",
    "prefecture_code": 26,
    "city": "与謝郡伊根町",
    "city_kana": "ヨサグンイネチョウ",
    "town": "野村",
    "town_kana": "ノムラ",
    "street": null,
    "office_name": null,
    "office_name_kana": null
  },
  "0493": {
    "postcode": "6260493",
    "prefecture": "京都府",
    "prefecture_kana": "キョウトフ",
    "prefecture_code": 26,
    "city": "与謝郡伊根町",
    "city_kana": "ヨサグンイネチョウ",
    "town": "字日出",
    "town_kana": null,
    "street": "６５１",
    "office_name": "伊根町役場",
    "office_name_kana": "イネチヨウヤクバ"
  },
  "8501": {
    "postcode": "6268501",
    "prefecture": "京都府",
    "prefecture_kana": "キョウトフ",
    "prefecture_code": 26,
    "city": "宮津市",
    "city_kana": "ミヤヅシ",
    "town": "字柳縄手",
    "town_kana": null,
    "street": "３４５−１",
    "office_name": "宮津市役所",
    "office_name_kana": "ミヤヅシヤクシヨ"
  },
  "8510": {
    "postcode": "6268510",
    "prefecture": "京都府",
    "prefecture_kana": "キョウトフ",
    "prefecture_code": 26,
    "city": "宮津市",
    "city_kana": "ミヤヅシ",
    "town": "字田井",
    "town_kana": null,
    "street": "小字岩本５８",
    "office_name": "宮津ロイヤルホテル",
    "office_name_kana": "ミヤヅロイヤルホテル"
  },
  "8571": {
    "postcode": "6268571",
    "prefecture": "京都府",
    "prefecture_kana": "キョウトフ",
    "prefecture_code": 26,
    "city": "宮津市",
    "city_kana": "ミヤヅシ",
    "town": "字鶴賀",
    "town_kana": null,
    "street": "２０７０−１４",
    "office_name": "宮津　税務署",
    "office_name_kana": "ミヤヅ ゼイムシヨ"
  }
}