{
  "0000": {
    "postcode": "6270000",
    "prefecture": "京都府",
    "prefecture_kana": "キョウトフ",
    "prefecture_code": 26,
    "city": "京丹後市",
    "city_kana": "キョウタンゴシ",
    "town": "",
    "town_kana": "",
    "street": null,
    "office_name": null,
    "office_name_kana": null
  },
  "0001": {
    "postcode": "6270001",
    "prefecture": "京都府",
    "prefecture_kana": "キョウトフ",
    "prefecture_code": 26,
    "city": "京丹後市",
    "city_kana": "キョウタンゴシ",
    "town": "峰山町橋木",
    "town_kana": "ミネヤマチョウハシギ",
    "street": null,
    "office_name": null,
    "office_name_kana": null
  },
  "0002": {
    "postcode": "6270002",
    "prefecture": "京都府",
    "prefecture_kana": "キョウトフ",
    "prefecture_code": 26,
    "city": "京丹後市",
    "city_kana": "キョウタンゴシ",
    "town": "峰山町矢田",
    "town_kana": "ミネヤマチョウヤタ",
    "street": null,
    "office_name": null,
    "office_name_kana": null
  },
  "0003": {
    "postcode": "6270003",
    "prefecture": "京都府",
    "prefecture_kana": "キョウトフ",
    "prefecture_code": 26,
    "city": "京丹後市",
    "city_kana": "キョウタンゴシ",
    "town": "峰山町内記",
    "town_kana": "ミネヤマチョウナイキ",
    "street": null,
    "office_name": null,
    "office_name_kana": null
  },
  "0004": {
    "postcode": "6270004",
    "prefecture": "京都府",
    "prefecture_kana": "キョウトフ",
    "prefecture_code": 26,
    "city": "京丹後市",
    "city_kana": "キョウタンゴシ",
    "town": "峰山町荒山",
    "town_kana": "ミネヤマチョウアラヤマ",
    "street": null,
    "office_name": null,
    "office_name_kana": null
  },
  "0005": {
    "postcode": "6270005",
    "prefecture": "京都府",
    "prefecture_kana": "キョウトフ",
    "prefecture_code": 26,
    "city": "京丹後市",
    "city_kana": "キョウタンゴシ",
    "town": "峰山町新町",
    "town_kana": "ミネヤマチョウシンマチ",
    "street": null,
    "office_name": null,
    "office_name_kana": null
  },
  "0006": {
    "postcode": "6270006",
    "prefecture": "京都府",
    "prefecture_kana": "キョウトフ",
    "prefecture_code": 26,
    "city": "京丹後市",
    "city_kana": "キョウタンゴシ",
    "town": "峰山町赤坂",
    "town_kana": "ミネヤマチョウアカサカ",
    "street": null,
    "office_name": null,
    "office_name_kana": null
  },
  "0007": {
    "postcode": "6270007",
    "prefecture": "京都府",
    "prefecture_kana": "キョウトフ",
    "prefecture_code": 26,
    "city": "京丹後市",
    "city_kana": "キョウタンゴシ",
    "town": "峰山町石丸",
    "town_kana": "ミネヤマチョウイシマル",
    "street": null,
    "office_name": null,
    "office_name_kana": null
  },
  "0011": {
    "postcode": "6270011",
    "prefecture": "京都府",
    "prefecture_kana": "キョウトフ",
    "prefecture_code": 26,
    "city": "京丹後市",
    "city_kana": "キョウタンゴシ",
    "town": "峰山町丹波",
    "town_kana": "ミネヤマチョウタンバ",
    "street": null,
    "office_name": null,
    "office_name_kana": null
  },
  "0012": {
    "postcode": "6270012",
    "prefecture": "京都府",
    "prefecture_kana": "キョウトフ",
    "prefecture_code": 26,
    "city": "京丹後市",
    "city_kana": "キョウタンゴシ",
    "town": "峰山町杉谷",
    "town_kana": "ミネヤマチョウスギタニ",
    "street": null,
    "office_name": null,
    "office_name_kana": null
  },
  "0013": {
    "postcode": "6270013",
    "prefecture": "京都府",
    "prefecture_kana": "キョウトフ",
    "prefecture_code": 26,
    "city": "京丹後市",
    "city_kana": "キョウタンゴシ",
    "town": "峰山町不断",
    "town_kana": "ミネヤマチョウフダン",
    "street": null,
    "office_name": null,
    "office_name_kana": null
  },
  "0014": {
    "postcode": "6270014",
    "prefecture": "京都府",
    "prefecture_kana": "キョウトフ",
    "prefecture_code": 26,
    "city": "京丹後市",
    "city_kana": "キョウタンゴシ",
    "town": "峰山町四軒",
    "town_kana": "ミネヤマチョウシケン",
    "street": null,
    "office_name": null,
    "office_name_kana": null
  },
  "0021": {
    "postcode": "6270021",
    "prefecture": "京都府",
    "prefecture_kana": "キョウトフ",
    "prefecture_code": 26,
    "city": "京丹後市",
    "city_kana": "キョウタンゴシ",
    "town": "峰山町吉原",
    "town_kana": "ミネヤマチョウヨシワラ",
    "street": null,
    "office_name": null,
    "office_name_kana": null
  },
  "0022": {
    "postcode": "6270022",
    "prefecture": "京都府",
    "prefecture_kana": "キョウトフ",
    "prefecture_code": 26,
    "city": "京丹後市",
    "city_kana": "キョウタンゴシ",
    "town": "峰山町上",
    "town_kana": "ミネヤマチョウカミ",
    "street": null,
    "office_name": null,
    "office_name_kana": null
  },
  "0023": {
    "postcode": "6270023",
    "prefecture": "京都府",
    "prefecture_kana": "キョウトフ",
    "prefecture_code": 26,
    "city": "京丹後市",
    "city_kana": "キョウタンゴシ",
    "town": "峰山町織元",
    "town_kana": "ミネヤマチョウオリモト",
    "street": null,
    "office_name": null,
    "office_name_kana": null
  },
  "0024": {
    "postcode": "6270024",
    "prefecture": "京都府",
    "prefecture_kana": "キョウトフ",
    "prefecture_code": 26,
    "city": "京丹後市",
    "city_kana": "キョウタンゴシ",
    "town": "峰山町室",
    "town_kana": "ミネヤマチョウムロ",
    "street": null,
    "office_name": null,
    "office_name_kana": null
  },
  "0025": {
    "postcode": "6270025",
    "prefecture": "京都府",
    "prefecture_kana": "キョウトフ",
    "prefecture_code": 26,
    "city": "京丹後市",
    "city_kana": "キョウタンゴシ",
    "town": "峰山町堺",
    "town_kana": "ミネヤマチョウサカイ",
    "street": null,
    "office_name": null,
    "office_name_kana": null
  },
  "0026": {
    "postcode": "6270026",
    "prefecture": "京都府",
    "prefecture_kana": "キョウトフ",
    "prefecture_code": 26,
    "city": "京丹後市",
    "city_kana": "キョウタンゴシ",
    "town": "峰山町古殿",
    "town_kana": "ミネヤマチョウフルドノ",
    "street": null,
    "office_name": null,
    "office_name_kana": null
  },
  "0027": {
    "postcode": "6270027",
    "prefecture": "京都府",
    "prefecture_kana": "キョウトフ",
    "prefecture_code": 26,
    "city": "京丹後市",
    "city_kana": "キョウタンゴシ",
    "town": "峰山町安",
    "town_kana": "ミネヤマチョウヤス",
    "street": null,
    "office_name": null,
    "office_name_kana": null
  },
  "0031": {
    "postcode": "6270031",
    "prefecture": "京都府",
    "prefecture_kana": "キョウトフ",
    "prefecture_code": 26,
    "city": "京丹後市",
    "city_kana": "キョウタンゴシ",
    "town": "峰山町呉服",
    "town_kana": "ミネヤマチョウゴフク",
    "street": null,
    "office_name": null,
    "office_name_kana": null
  },
  "0032": {
    "postcode": "6270032",
    "prefecture": "京都府",
    "prefecture_kana": "キョウトフ",
    "prefecture_code": 26,
    "city": "京丹後市",
    "city_kana": "キョウタンゴシ",
    "town": "峰山町浪花",
    "town_kana": "ミネヤマチョウナニワ",
    "street": null,
    "office_name": null,
    "office_name_kana": null
  },
  "0033": {
    "postcode": "6270033",
    "prefecture": "京都府",
    "prefecture_kana": "キョウトフ",
    "prefecture_code": 26,
    "city": "京丹後市",
    "city_kana": "キョウタンゴシ",
    "town": "峰山町白銀",
    "town_kana": "ミネヤマチョウシラガネ",
    "street": null,
    "office_name": null,
    "office_name_kana": null
  },
  "0034": {
    "postcode": "6270034",
    "prefecture": "京都府",
    "prefecture_kana": "キョウトフ",
    "prefecture_code": 26,
    "city": "京丹後市",
    "city_kana": "キョウタンゴシ",
    "town": "峰山町泉",
    "town_kana": "ミネヤマチョウイズミ",
    "street": null,
    "office_name": null,
    "office_name_kana": null
  },
  "0035": {
    "postcode": "6270035",
    "prefecture": "京都府",
    "prefecture_kana": "キョウトフ",
    "prefecture_code": 26,
    "city": "京丹後市",
    "city_kana": "キョウタンゴシ",
    "town": "峰山町光明寺",
    "town_kana": "ミネヤマチョウコウミョウジ",
    "street": null,
    "office_name": null,
    "office_name_kana": null
  },
  "0036": {
    "postcode": "6270036",
    "prefecture": "京都府",
    "prefecture_kana": "キョウトフ",
    "prefecture_code": 26,
    "city": "京丹後市",
    "city_kana": "キョウタンゴシ",
    "town": "峰山町御旅",
    "town_kana": "ミネヤマチョウオタビ",
    "street": null,
    "office_name": null,
    "office_name_kana": null
  },
  "0037": {
    "postcode": "6270037",
    "prefecture": "京都府",
    "prefecture_kana": "キョウトフ",
    "prefecture_code": 26,
    "city": "京丹後市",
    "city_kana": "キョウタンゴシ",
    "town": "峰山町千歳",
    "town_kana": "ミネヤマチョウチトセ",
    "street": null,
    "office_name": null,
    "office_name_kana": null
  },
  "0038": {
    "postcode": "6270038",
    "prefecture": "京都府",
    "prefecture_kana": "キョウトフ",
    "prefecture_code": 26,
    "city": "京丹後市",
    "city_kana": "キョウタンゴシ",
    "town": "峰山町富貴屋",
    "town_kana": "ミネヤマチョウフキヤ",
    "street": null,
    "office_name": null,
    "office_name_kana": null
  },
  "0041": {
    "postcode": "6270041",
    "prefecture": "京都府",
    "prefecture_kana": "キョウトフ",
    "prefecture_code": 26,
    "city": "京丹後市",
    "city_kana": "キョウタンゴシ",
    "town": "峰山町菅",
    "town_kana": "ミネヤマチョウスゲ",
    "street": null,
    "office_name": null,
    "office_name_kana": null
  },
  "0042": {
    "postcode": "6270042",
    "prefecture": "京都府",
    "prefecture_kana": "キョウトフ",
    "prefecture_code": 26,
    "city": "京丹後市",
    "city_kana": "キョウタンゴシ",
    "town": "峰山町長岡",
    "town_kana": "ミネヤマチョウナガオカ",
    "street": null,
    "office_name": null,
    "office_name_kana": null
  },
  "0043": {
    "postcode": "6270043",
    "prefecture": "京都府",
    "prefecture_kana": "キョウトフ",
    "prefecture_code": 26,
    "city": "京丹後市",
    "city_kana": "キョウタンゴシ",
    "town": "峰山町新治",
    "town_kana": "ミネヤマチョウニンバリ",
    "street": null,
    "office_name": null,
    "office_name_kana": null
  },
  "0044": {
    "postcode": "6270044",
    "prefecture": "京都府",
    "prefecture_kana": "キョウトフ",
    "prefecture_code": 26,
    "city": "京丹後市",
    "city_kana": "キョウタンゴシ",
    "town": "峰山町小西",
    "town_kana": "ミネヤマチョウコニシ",
    "street": null,
    "office_name": null,
    "office_name_kana": null
  },
  "0045": {
    "postcode": "6270045",
    "prefecture": "京都府",
    "prefecture_kana": "キョウトフ",
    "prefecture_code": 26,
    "city": "京丹後市",
    "city_kana": "キョウタンゴシ",
    "town": "峰山町西山",
    "town_kana": "ミネヤマチョウニシヤマ",
    "street": null,
    "office_name": null,
    "office_name_kana": null
  },
  "0051": {
    "postcode": "6270051",
    "prefecture": "京都府",
    "prefecture_kana": "キョウトフ",
    "prefecture_code": 26,
    "city": "京丹後市",
    "city_kana": "キョウタンゴシ",
    "town": "峰山町二箇",
    "town_kana": "ミネヤマチョウニカ",
    "street": null,
    "office_name": null,
    "office_name_kana": null
  },
  "0052": {
    "postcode": "6270052",
    "prefecture": "京都府",
    "prefecture_kana": "キョウトフ",
    "prefecture_code": 26,
    "city": "京丹後市",
    "city_kana": "キョウタンゴシ",
    "town": "峰山町五箇",
    "town_kana": "ミネヤマチョウゴカ",
    "street": null,
    "office_name": null,
    "office_name_kana": null
  },
  "0053": {
    "postcode": "6270053",
    "prefecture": "京都府",
    "prefecture_kana": "キョウトフ",
    "prefecture_code": 26,
    "city": "京丹後市",
    "city_kana": "キョウタンゴシ",
    "town": "峰山町鱒留",
    "town_kana": "ミネヤマチョウマスドメ",
    "street": null,
    "office_name": null,
    "office_name_kana": null
  },
  "0054": {
    "postcode": "6270054",
    "prefecture": "京都府",
    "prefecture_kana": "キョウトフ",
    "prefecture_code": 26,
    "city": "京丹後市",
    "city_kana": "キョウタンゴシ",
    "town": "峰山町久次",
    "town_kana": "ミネヤマチョウヒサツギ",
    "street": null,
    "office_name": null,
    "office_name_kana": null
  },
  "0101": {
    "postcode": "6270101",
    "prefecture": "京都府",
    "prefecture_kana": "キョウトフ",
    "prefecture_code": 26,
    "city": "京丹後市",
    "city_kana": "キョウタンゴシ",
    "town": "弥栄町野中",
    "town_kana": "ヤサカチョウノナカ",
    "street": null,
    "office_name": null,
    "office_name_kana": null
  },
  "0102": {
    "postcode": "6270102",
    "prefecture": "京都府",
    "prefecture_kana": "キョウトフ",
    "prefecture_code": 26,
    "city": "京丹後市",
    "city_kana": "キョウタンゴシ",
    "town": "弥栄町須川",
    "town_kana": "ヤサカチョウスガワ",
    "street": null,
    "office_name": null,
    "office_name_kana": null
  },
  "0111": {
    "postcode": "6270111",
    "prefecture": "京都府",
    "prefecture_kana": "キョウトフ",
    "prefecture_code": 26,
    "city": "京丹後市",
    "city_kana": "キョウタンゴシ",
    "town": "弥栄町溝谷",
    "town_kana": "ヤサカチョウミゾタニ",
    "street": null,
    "office_name": null,
    "office_name_kana": null
  },
  "0112": {
    "postcode": "6270112",
    "prefecture": "京都府",
    "prefecture_kana": "キョウトフ",
    "prefecture_code": 26,
    "city": "京丹後市",
    "city_kana": "キョウタンゴシ",
    "town": "弥栄町等楽寺",
    "town_kana": "ヤサカチョウトウラクジ",
    "street": null,
    "office_name": null,
    "office_name_kana": null
  },
  "0121": {
    "postcode": "6270121",
    "prefecture": "京都府",
    "prefecture_kana": "キョウトフ",
    "prefecture_code": 26,
    "city": "京丹後市",
    "city_kana": "キョウタンゴシ",
    "town": "弥栄町堤",
    "town_kana": "ヤサカチョウツツミ",
    "street": null,
    "office_name": null,
    "office_name_kana": null
  },
  "0122": {
    "postcode": "6270122",
    "prefecture": "京都府",
    "prefecture_kana": "キョウトフ",
    "prefecture_code": 26,
    "city": "京丹後市",
    "city_kana": "キョウタンゴシ",
    "town": "弥栄町芋野",
    "town_kana": "ヤサカチョウイモノ",
    "street": null,
    "office_name": null,
    "office_name_kana": null
  },
  "0123": {
    "postcode": "6270123",
    "prefecture": "京都府",
    "prefecture_kana": "キョウトフ",
    "prefecture_code": 26,
    "city": "京丹後市",
    "city_kana": "キョウタンゴシ",
    "town": "弥栄町吉沢",
    "town_kana": "ヤサカチョウヨシサワ",
    "street": null,
    "office_name": null,
    "office_name_kana": null
  },
  "0131": {
    "postcode": "6270131",
    "prefecture": "京都府",
    "prefecture_kana": "キョウトフ",
    "prefecture_code": 26,
    "city": "京丹後市",
    "city_kana": "キョウタンゴシ",
    "town": "弥栄町和田野",
    "town_kana": "ヤサカチョウワダノ",
    "street": null,
    "office_name": null,
    "office_name_kana": null
  },
  "0132": {
    "postcode": "6270132",
    "prefecture": "京都府",
    "prefecture_kana": "キョウトフ",
    "prefecture_code": 26,
    "city": "京丹後市",
    "city_kana": "キョウタンゴシ",
    "town": "弥栄町木橋",
    "town_kana": "ヤサカチョウキバシ",
    "street": null,
    "office_name": null,
    "office_name_kana": null
  },
  "0133": {
    "postcode": "6270133",
    "prefecture": "京都府",
    "prefecture_kana": "キョウトフ",
    "prefecture_code": 26,
    "city": "京丹後市",
    "city_kana": "キョウタンゴシ",
    "town": "弥栄町鳥取",
    "town_kana": "ヤサカチョウトットリ",
    "street": null,
    "office_name": null,
    "office_name_kana": null
  },
  "0141": {
    "postcode": "6270141",
    "prefecture": "京都府",
    "prefecture_kana": "キョウトフ",
    "prefecture_code": 26,
    "city": "京丹後市",
    "city_kana": "キョウタンゴシ",
    "town": "弥栄町小田",
    "town_kana": "ヤサカチョウコダ",
    "street": null,
    "office_name": null,
    "office_name_kana": null
  },
  "0142": {
    "postcode": "6270142",
    "prefecture": "京都府",
    "prefecture_kana": "キョウトフ",
    "prefecture_code": 26,
    "city": "京丹後市",
    "city_kana": "キョウタンゴシ",
    "town": "弥栄町黒部",
    "town_kana": "ヤサカチョウクロベ",
    "street": null,
    "office_name": null,
    "office_name_kana": null
  },
  "0143": {
    "postcode": "6270143",
    "prefecture": "京都府",
    "prefecture_kana": "キョウトフ",
    "prefecture_code": 26,
    "city": "京丹後市",
    "city_kana": "キョウタンゴシ",
    "town": "弥栄町船木",
    "town_kana": "ヤサカチョウフナキ",
    "street": null,
    "office_name": null,
    "office_name_kana": null
  },
  "0144": {
    "postcode": "6270144",
    "prefecture": "京都府",
    "prefecture_kana": "キョウトフ",
    "prefecture_code": 26,
    "city": "京丹後市",
    "city_kana": "キョウタンゴシ",
    "town": "弥栄町井辺",
    "town_kana": "ヤサカチョウイノベ",
    "street": null,
    "office_name": null,
    "office_name_kana": null
  },
  "0145": {
    "postcode": "6270145",
    "prefecture": "京都府",
    "prefecture_kana": "キョウトフ",
    "prefecture_code": 26,
    "city": "京丹後市",
    "city_kana": "キョウタンゴシ",
    "town": "弥栄町国久",
    "town_kana": "ヤサカチョウクニヒサ",
    "street": null,
    "office_name": null,
    "office_name_kana": null
  },
  "0201": {
    "postcode": "6270201",
    "prefecture": "京都府",
    "prefecture_kana": "キョウトフ",
    "prefecture_code": 26,
    "city": "京丹後市",
    "city_kana": "キョウタンゴシ",
    "town": "丹後町間人",
    "town_kana": "タンゴチョウタイザ",
    "street": null,
    "office_name": null,
    "office_name_kana": null
  },
  "0202": {
    "postcode": "6270202",
    "prefecture": "京都府",
    "prefecture_kana": "キョウトフ",
    "prefecture_code": 26,
    "city": "京丹後市",
    "city_kana": "キョウタンゴシ",
    "town": "丹後町砂方",
    "town_kana": "タンゴチョウスナガタ",
    "street": null,
    "office_name": null,
    "office_name_kana": null
  },
  "0211": {
    "postcode": "6270211",
    "prefecture": "京都府",
    "prefecture_kana": "キョウトフ",
    "prefecture_code": 26,
    "city": "京丹後市",
    "city_kana": "キョウタンゴシ",
    "town": "丹後町大山",
    "town_kana": "タンゴチョウオオヤマ",
    "street": null,
    "office_name": null,
    "office_name_kana": null
  },
  "0212": {
    "postcode": "6270212",
    "prefecture": "京都府",
    "prefecture_kana": "キョウトフ",
    "prefecture_code": 26,
    "city": "京丹後市",
    "city_kana": "キョウタンゴシ",
    "town": "丹後町三宅",
    "town_kana": "タンゴチョウミヤケ",
    "street": null,
    "office_name": null,
    "office_name_kana": null
  },
  "0213": {
    "postcode": "6270213",
    "prefecture": "京都府",
    "prefecture_kana": "キョウトフ",
    "prefecture_code": 26,
    "city": "京丹後市",
    "city_kana": "キョウタンゴシ",
    "town": "丹後町吉永",
    "town_kana": "タンゴチョウヨシナガ",
    "street": null,
    "office_name": null,
    "office_name_kana": null
  },
  "0214": {
    "postcode": "6270214",
    "prefecture": "京都府",
    "prefecture_kana": "キョウトフ",
    "prefecture_code": 26,
    "city": "京丹後市",
    "city_kana": "キョウタンゴシ",
    "town": "丹後町是安",
    "town_kana": "タンゴチョウコレヤス",
    "street": null,
    "office_name": null,
    "office_name_kana": null
  },
  "0215": {
    "postcode": "6270215",
    "prefecture": "京都府",
    "prefecture_kana": "キョウトフ",
    "prefecture_code": 26,
    "city": "京丹後市",
    "city_kana": "キョウタンゴシ",
    "town": "丹後町成願寺",
    "town_kana": "タンゴチョウジョウガンジ",
    "street": null,
    "office_name": null,
    "office_name_kana": null
  },
  "0216": {
    "postcode": "6270216",
    "prefecture": "京都府",
    "prefecture_kana": "キョウトフ",
    "prefecture_code": 26,
    "city": "京丹後市",
    "city_kana": "キョウタンゴシ",
    "town": "丹後町徳光",
    "town_kana": "タンゴチョウトクミツ",
    "street": null,
    "office_name": null,
    "office_name_kana": null
  },
  "0221": {
    "postcode": "6270221",
    "prefecture": "京都府",
    "prefecture_kana": "キョウトフ",
    "prefecture_code": 26,
    "city": "京丹後市",
    "city_kana": "キョウタンゴシ",
    "town": "丹後町竹野",
    "town_kana": "タンゴチョウタカノ",
    "street": null,
    "office_name": null,
    "office_name_kana": null
  },
  "0222": {
    "postcode": "6270222",
    "prefecture": "京都府",
    "prefecture_kana": "キョウトフ",
    "prefecture_code": 26,
    "city": "京丹後市",
    "city_kana": "キョウタンゴシ",
    "town": "丹後町筆石",
    "town_kana": "タンゴチョウフデシ",
    "street": null,
    "office_name": null,
    "office_name_kana": null
  },
  "0223": {
    "postcode": "6270223",
    "prefecture": "京都府",
    "prefecture_kana": "キョウトフ",
    "prefecture_code": 26,
    "city": "京丹後市",
    "city_kana": "キョウタンゴシ",
    "town": "丹後町矢畑",
    "town_kana": "タンゴチョウヤバタ",
    "street": null,
    "office_name": null,
    "office_name_kana": null
  },
  "0224": {
    "postcode": "6270224",
    "prefecture": "京都府",
    "prefecture_kana": "キョウトフ",
    "prefecture_code": 26,
    "city": "京丹後市",
    "city_kana": "キョウタンゴシ",
    "town": "丹後町岩木",
    "town_kana": "タンゴチョウイワキ",
    "street": null,
    "office_name": null,
    "office_name_kana": null
  },
  "0225": {
    "postcode": "6270225",
    "prefecture": "京都府",
    "prefecture_kana": "キョウトフ",
    "prefecture_code": 26,
    "city": "京丹後市",
    "city_kana": "キョウタンゴシ",
    "town": "丹後町願興寺",
    "town_kana": "タンゴチョウガンゴウジ",
    "street": null,
    "office_name": null,
    "office_name_kana": null
  },
  "0226": {
    "postcode": "6270226",
    "prefecture": "京都府",
    "prefecture_kana": "キョウトフ",
    "prefecture_code": 26,
    "city": "京丹後市",
    "city_kana": "キョウタンゴシ",
    "town": "丹後町牧ノ谷",
    "town_kana": "タンゴチョウマキノタニ",
    "street": null,
    "office_name": null,
    "office_name_kana": null
  },
  "0227": {
    "postcode": "6270227",
    "prefecture": "京都府",
    "prefecture_kana": "キョウトフ",
    "prefecture_code": 26,
    "city": "京丹後市",
    "city_kana": "キョウタンゴシ",
    "town": "丹後町家ノ谷",
    "town_kana": "タンゴチョウイエノタニ",
    "street": null,
    "office_name": null,
    "office_name_kana": null
  },
  "0228": {
    "postcode": "6270228",
    "prefecture": "京都府",
    "prefecture_kana": "キョウトフ",
    "prefecture_code": 26,
    "city": "京丹後市",
    "city_kana": "キョウタンゴシ",
    "town": "丹後町宮",
    "town_kana": "タンゴチョウミヤ",
    "street": null,
    "office_name": null,
    "office_name_kana": null
  },
  "0231": {
    "postcode": "6270231",
    "prefecture": "京都府",
    "prefecture_kana": "キョウトフ",
    "prefecture_code": 26,
    "city": "京丹後市",
    "city_kana": "キョウタンゴシ",
    "town": "丹後町乗原",
    "town_kana": "タンゴチョウノンバラ",
    "street": null,
    "office_name": null,
    "office_name_kana": null
  },
  "0232": {
    "postcode": "6270232",
    "prefecture": "京都府",
    "prefecture_kana": "キョウトフ",
    "prefecture_code": 26,
    "city": "京丹後市",
    "city_kana": "キョウタンゴシ",
    "town": "丹後町此代",
    "town_kana": "タンゴチョウコノシロ",
    "street": null,
    "office_name": null,
    "office_name_kana": null
  },
  "0233": {
    "postcode": "6270233",
    "prefecture": "京都府",
    "prefecture_kana": "キョウトフ",
    "prefecture_code": 26,
    "city": "京丹後市",
    "city_kana": "キョウタンゴシ",
    "town": "丹後町平",
    "town_kana": "タンゴチョウヘイ",
    "street": null,
    "office_name": null,
    "office_name_kana": null
  },
  "0234": {
    "postcode": "6270234",
    "prefecture": "京都府",
    "prefecture_kana": "キョウトフ",
    "prefecture_code": 26,
    "city": "京丹後市",
    "city_kana": "キョウタンゴシ",
    "town": "丹後町中野",
    "town_kana": "タンゴチョウナカノ",
    "street": null,
    "office_name": null,
    "office_name_kana": null
  },
  "0235": {
    "postcode": "6270235",
    "prefecture": "京都府",
    "prefecture_kana": "キョウトフ",
    "prefecture_code": 26,
    "city": "京丹後市",
    "city_kana": "キョウタンゴシ",
    "town": "丹後町井上",
    "town_kana": "タンゴチョウイノウエ",
    "street": null,
    "office_name": null,
    "office_name_kana": null
  },
  "0236": {
    "postcode": "6270236",
    "prefecture": "京都府",
    "prefecture_kana": "キョウトフ",
    "prefecture_code": 26,
    "city": "京丹後市",
    "city_kana": "キョウタンゴシ",
    "town": "丹後町畑",
    "town_kana": "タンゴチョウハタ",
    "street": null,
    "office_name": null,
    "office_name_kana": null
  },
  "0237": {
    "postcode": "6270237",
    "prefecture": "京都府",
    "prefecture_kana": "キョウトフ",
    "prefecture_code": 26,
    "city": "京丹後市",
    "city_kana": "キョウタンゴシ",
    "town": "丹後町井谷",
    "town_kana": "タンゴチョウイダニ",
    "street": null,
    "office_name": null,
    "office_name_kana": null
  },
  "0238": {
    "postcode": "6270238",
    "prefecture": "京都府",
    "prefecture_kana": "キョウトフ",
    "prefecture_code": 26,
    "city": "京丹後市",
    "city_kana": "キョウタンゴシ",
    "town": "丹後町鞍内",
    "town_kana": "タンゴチョウクラウチ",
    "street": null,
    "office_name": null,
    "office_name_kana": null
  },
  "0239": {
    "postcode": "6270239",
    "prefecture": "京都府",
    "prefecture_kana": "キョウトフ",
    "prefecture_code": 26,
    "city": "京丹後市",
    "city_kana": "キョウタンゴシ",
    "town": "丹後町遠下",
    "town_kana": "タンゴチョウオンゲ",
    "street": null,
    "office_name": null,
    "office_name_kana": null
  },
  "0241": {
    "postcode": "6270241",
    "prefecture": "京都府",
    "prefecture_kana": "キョウトフ",
    "prefecture_code": 26,
    "city": "京丹後市",
    "city_kana": "キョウタンゴシ",
    "town": "丹後町上野",
    "town_kana": "タンゴチョウウエノ",
    "street": null,
    "office_name": null,
    "office_name_kana": null
  },
  "0242": {
    "postcode": "6270242",
    "prefecture": "京都府",
    "prefecture_kana": "キョウトフ",
    "prefecture_code": 26,
    "city": "京丹後市",
    "city_kana": "キョウタンゴシ",
    "town": "丹後町久僧",
    "town_kana": "タンゴチョウキュウソ",
    "street": null,
    "office_name": null,
    "office_name_kana": null
  },
  "0243": {
    "postcode": "6270243",
    "prefecture": "京都府",
    "prefecture_kana": "キョウトフ",
    "prefecture_code": 26,
    "city": "京丹後市",
    "city_kana": "キョウタンゴシ",
    "town": "丹後町中浜",
    "town_kana": "タンゴチョウナカハマ",
    "street": null,
    "office_name": null,
    "office_name_kana": null
  },
  "0244": {
    "postcode": "6270244",
    "prefecture": "京都府",
    "prefecture_kana": "キョウトフ",
    "prefecture_code": 26,
    "city": "京丹後市",
    "city_kana": "キョウタンゴシ",
    "town": "丹後町尾和",
    "town_kana": "タンゴチョウオワ",
    "street": null,
    "office_name": null,
    "office_name_kana": null
  },
  "0245": {
    "postcode": "6270245",
    "prefecture": "京都府",
    "prefecture_kana": "キョウトフ",
    "prefecture_code": 26,
    "city": "京丹後市",
    "city_kana": "キョウタンゴシ",
    "town": "丹後町袖志",
    "town_kana": "タンゴチョウソデシ",
    "street": null,
    "office_name": null,
    "office_name_kana": null
  },
  "0246": {
    "postcode": "6270246",
    "prefecture": "京都府",
    "prefecture_kana": "キョウトフ",
    "prefecture_code": 26,
    "city": "京丹後市",
    "city_kana": "キョウタンゴシ",
    "town": "丹後町谷内",
    "town_kana": "タンゴチョウタニウチ",
    "street": null,
    "office_name": null,
    "office_name_kana": null
  },
  "0247": {
    "postcode": "6270247",
    "prefecture": "京都府",
    "prefecture_kana": "キョウトフ",
    "prefecture_code": 26,
    "city": "京丹後市",
    "city_kana": "キョウタンゴシ",
    "town": "丹後町上山",
    "town_kana": "タンゴチョウウエヤマ",
    "street": null,
    "office_name": null,
    "office_name_kana": null
  },
  "0248": {
    "postcode": "6270248",
    "prefecture": "京都府",
    "prefecture_kana": "キョウトフ",
    "prefecture_code": 26,
    "city": "京丹後市",
    "city_kana": "キョウタンゴシ",
    "town": "丹後町碇",
    "town_kana": "タンゴチョウイカリ",
    "street": null,
    "office_name": null,
    "office_name_kana": null
  },
  "0249": {
    "postcode": "6270249",
    "prefecture": "京都府",
    "prefecture_kana": "キョウトフ",
    "prefecture_code": 26,
    "city": "京丹後市",
    "city_kana": "キョウタンゴシ",
    "town": "丹後町三山",
    "town_kana": "タンゴチョウミヤマ",
    "street": null,
    "office_name": null,
    "office_name_kana": null
  },
  "8555": {
    "postcode": "6278555",
    "prefecture": "京都府",
    "prefecture_kana": "キョウトフ",
    "prefecture_code": 26,
    "city": "京丹後市",
    "city_kana": "キョウタンゴシ",
    "town": "峰山町杉谷",
    "town_kana": "ミネヤマチョウスギタニ",
    "street": "１５８−１",
    "office_name": "財団法人　丹後中央病院",
    "office_name_kana": "ザイダンホウジン タンゴチユウオウビヨウイン"
  },
  "8567": {
    "postcode": "6278567",
    "prefecture": "京都府",
    "prefecture_kana": "キョウトフ",
    "prefecture_code": 26,
    "city": "京丹後市",
    "city_kana": "キョウタンゴシ",
    "town": "峰山町杉谷",
    "town_kana": "ミネヤマチョウスギタニ",
    "street": "８８９",
    "office_name": "京丹後市役所",
    "office_name_kana": "キヨウタンゴシヤクシヨ"
  },
  "8570": {
    "postcode": "6278570",
    "prefecture": "京都府",
    "prefecture_kana": "キョウトフ",
    "prefecture_code": 26,
    "city": "京丹後市",
    "city_kana": "キョウタンゴシ",
    "town": "峰山町丹波",
    "town_kana": "ミネヤマチョウタンバ",
    "street": "８５５",
    "office_name": "京都府　丹後広域振興局",
    "office_name_kana": "キヨウトフ タンゴコウイキシンコウキヨク"
  },
  "8688": {
    "postcode": "6278688",
    "prefecture": "京都府",
    "prefecture_kana": "キョウトフ",
    "prefecture_code": 26,
    "city": "京丹後市",
    "city_kana": "キョウタンゴシ",
    "town": "峰山町古殿",
    "town_kana": "ミネヤマチョウフルドノ",
    "street": "１１８５",
    "office_name": "京都府立　峰山高等学校",
    "office_name_kana": "キヨウトフリツ ミネヤマコウトウガツコウ"
  }
}