{
  "0000": [
    {
      "postcode": "6360000",
      "prefecture": "奈良県",
      "prefecture_kana": "ナラケン",
      "prefecture_code": 29,
      "city": "生駒郡平群町",
      "city_kana": "イコマグンヘグリチョウ",
      "town": "",
      "town_kana": "",
      "street": null,
      "office_name": null,
      "office_name_kana": null
    },
    {
      "postcode": "6360000",
      "prefecture": "奈良県",
      "prefecture_kana": "ナラケン",
      "prefecture_code": 29,
      "city": "生駒郡三郷町",
      "city_kana": "イコマグンサンゴウチョウ",
      "town": "",
      "town_kana": "",
      "street": null,
      "office_name": null,
      "office_name_kana": null
    },
    {
      "postcode": "6360000",
      "prefecture": "奈良県",
      "prefecture_kana": "ナラケン",
      "prefecture_code": 29,
      "city": "北葛城郡王寺町",
      "city_kana": "キタカツラギグンオウジチョウ",
      "town": "",
      "town_kana": "",
      "street": null,
      "office_name": null,
      "office_name_kana": null
    },
    {
      "postcode": "6360000",
      "prefecture": "奈良県",
      "prefecture_kana": "ナラケン",
      "prefecture_code": 29,
      "city": "北葛城郡河合町",
      "city_kana": "キタカツラギグンカワイチョウ",
      "town": "",
      "town_kana": "",
      "street": null,
      "office_name": null,
      "office_name_kana": null
    }
  ],
  "0001": {
    "postcode": "6360001",
    "prefecture": "奈良県",
    "prefecture_kana": "ナラケン",
    "prefecture_code": 29,
    "city": "北葛城郡王寺町",
    "city_kana": "キタカツラギグンオウジチョウ",
    "town": "舟戸",
    "town_kana": "フナト",
    "street": null,
    "office_name": null,
    "office_name_kana": null
  },
  "0002": {
    "postcode": "6360002",
    "prefecture": "奈良県",
    "prefecture_kana": "ナラケン",
    "prefecture_code": 29,
    "city": "北葛城郡王寺町",
    "city_kana": "キタカツラギグンオウジチョウ",
    "town": "王寺",
    "town_kana": "オウジ",
    "street": null,
    "office_name": null,
    "office_name_kana": null
  },
  "0003": {
    "postcode": "6360003",
    "prefecture": "奈良県",
    "prefecture_kana": "ナラケン",
    "prefecture_code": 29,
    "city": "北葛城郡王寺町",
    "city_kana": "キタカツラギグンオウジチョウ",
    "town": "久度",
    "town_kana": "クド",
    "street": null,
    "office_name": null,
    "office_name_kana": null
  },
  "0011": {
    "postcode": "6360011",
    "prefecture": "奈良県",
    "prefecture_kana": "ナラケン",
    "prefecture_code": 29,
    "city": "北葛城郡王寺町",
    "city_kana": "キタカツラギグンオウジチョウ",
    "town": "葛下",
    "town_kana": "カツシモ",
    "street": null,
    "office_name": null,
    "office_name_kana": null
  },
  "0012": {
    "postcode": "6360012",
    "prefecture": "奈良県",
    "prefecture_kana": "ナラケン",
    "prefecture_code": 29,
    "city": "北葛城郡王寺町",
    "city_kana": "キタカツラギグンオウジチョウ",
    "town": "本町",
    "town_kana": "ホンマチ",
    "street": null,
    "office_name": null,
    "office_name_kana": null
  },
  "0013": {
    "postcode": "6360013",
    "prefecture": "奈良県",
    "prefecture_kana": "ナラケン",
    "prefecture_code": 29,
    "city": "北葛城郡王寺町",
    "city_kana": "キタカツラギグンオウジチョウ",
    "town": "元町",
    "town_kana": "モトマチ",
    "street": null,
    "office_name": null,
    "office_name_kana": null
  },
  "0014": {
    "postcode": "6360014",
    "prefecture": "奈良県",
    "prefecture_kana": "ナラケン",
    "prefecture_code": 29,
    "city": "北葛城郡王寺町",
    "city_kana": "キタカツラギグンオウジチョウ",
    "town": "藤井",
    "town_kana": "フジイ",
    "street": null,
    "office_name": null,
    "office_name_kana": null
  },
  "0015": {
    "postcode": "6360015",
    "prefecture": "奈良県",
    "prefecture_kana": "ナラケン",
    "prefecture_code": 29,
    "city": "北葛城郡王寺町",
    "city_kana": "キタカツラギグンオウジチョウ",
    "town": "南元町",
    "town_kana": "ミナミモトマチ",
    "street": null,
    "office_name": null,
    "office_name_kana": null
  },
  "0021": {
    "postcode": "6360021",
    "prefecture": "奈良県",
    "prefecture_kana": "ナラケン",
    "prefecture_code": 29,
    "city": "北葛城郡王寺町",
    "city_kana": "キタカツラギグンオウジチョウ",
    "town": "畠田",
    "town_kana": "ハタケダ",
    "street": null,
    "office_name": null,
    "office_name_kana": null
  },
  "0022": {
    "postcode": "6360022",
    "prefecture": "奈良県",
    "prefecture_kana": "ナラケン",
    "prefecture_code": 29,
    "city": "北葛城郡王寺町",
    "city_kana": "キタカツラギグンオウジチョウ",
    "town": "明神",
    "town_kana": "ミョウジン",
    "street": null,
    "office_name": null,
    "office_name_kana": null
  },
  "0023": {
    "postcode": "6360023",
    "prefecture": "奈良県",
    "prefecture_kana": "ナラケン",
    "prefecture_code": 29,
    "city": "北葛城郡王寺町",
    "city_kana": "キタカツラギグンオウジチョウ",
    "town": "太子",
    "town_kana": "タイシ",
    "street": null,
    "office_name": null,
    "office_name_kana": null
  },
  "0051": {
    "postcode": "6360051",
    "prefecture": "奈良県",
    "prefecture_kana": "ナラケン",
    "prefecture_code": 29,
    "city": "北葛城郡河合町",
    "city_kana": "キタカツラギグンカワイチョウ",
    "town": "川合",
    "town_kana": "カワイ",
    "street": null,
    "office_name": null,
    "office_name_kana": null
  },
  "0052": {
    "postcode": "6360052",
    "prefecture": "奈良県",
    "prefecture_kana": "ナラケン",
    "prefecture_code": 29,
    "city": "北葛城郡河合町",
    "city_kana": "キタカツラギグンカワイチョウ",
    "town": "長楽",
    "town_kana": "チョウラク",
    "street": null,
    "office_name": null,
    "office_name_kana": null
  },
  "0053": {
    "postcode": "6360053",
    "prefecture": "奈良県",
    "prefecture_kana": "ナラケン",
    "prefecture_code": 29,
    "city": "北葛城郡河合町",
    "city_kana": "キタカツラギグンカワイチョウ",
    "town": "池部",
    "town_kana": "イケベ",
    "street": null,
    "office_name": null,
    "office_name_kana": null
  },
  "0054": {
    "postcode": "6360054",
    "prefecture": "奈良県",
    "prefecture_kana": "ナラケン",
    "prefecture_code": 29,
    "city": "北葛城郡河合町",
    "city_kana": "キタカツラギグンカワイチョウ",
    "town": "穴闇",
    "town_kana": "ナグラ",
    "street": null,
    "office_name": null,
    "office_name_kana": null
  },
  "0055": {
    "postcode": "6360055",
    "prefecture": "奈良県",
    "prefecture_kana": "ナラケン",
    "prefecture_code": 29,
    "city": "北葛城郡河合町",
    "city_kana": "キタカツラギグンカワイチョウ",
    "town": "西穴闇",
    "town_kana": "ニシナグラ",
    "street": null,
    "office_name": null,
    "office_name_kana": null
  },
  "0056": {
    "postcode": "6360056",
    "prefecture": "奈良県",
    "prefecture_kana": "ナラケン",
    "prefecture_code": 29,
    "city": "北葛城郡河合町",
    "city_kana": "キタカツラギグンカワイチョウ",
    "town": "西山台",
    "town_kana": "ニシヤマダイ",
    "street": null,
    "office_name": null,
    "office_name_kana": null
  },
  "0057": {
    "postcode": "6360057",
    "prefecture": "奈良県",
    "prefecture_kana": "ナラケン",
    "prefecture_code": 29,
    "city": "北葛城郡河合町",
    "city_kana": "キタカツラギグンカワイチョウ",
    "town": "彩りの杜",
    "town_kana": "イロドリノモリ",
    "street": null,
    "office_name": null,
    "office_name_kana": null
  },
  "0061": {
    "postcode": "6360061",
    "prefecture": "奈良県",
    "prefecture_kana": "ナラケン",
    "prefecture_code": 29,
    "city": "北葛城郡河合町",
    "city_kana": "キタカツラギグンカワイチョウ",
    "town": "山坊",
    "town_kana": "ヤマノボウ",
    "street": null,
    "office_name": null,
    "office_name_kana": null
  },
  "0062": {
    "postcode": "6360062",
    "prefecture": "奈良県",
    "prefecture_kana": "ナラケン",
    "prefecture_code": 29,
    "city": "北葛城郡河合町",
    "city_kana": "キタカツラギグンカワイチョウ",
    "town": "佐味田",
    "town_kana": "サミタ",
    "street": null,
    "office_name": null,
    "office_name_kana": null
  },
  "0063": {
    "postcode": "6360063",
    "prefecture": "奈良県",
    "prefecture_kana": "ナラケン",
    "prefecture_code": 29,
    "city": "北葛城郡河合町",
    "city_kana": "キタカツラギグンカワイチョウ",
    "town": "久美ケ丘",
    "town_kana": "クミガオカ",
    "street": null,
    "office_name": null,
    "office_name_kana": null
  },
  "0071": {
    "postcode": "6360071",
    "prefecture": "奈良県",
    "prefecture_kana": "ナラケン",
    "prefecture_code": 29,
    "city": "北葛城郡河合町",
    "city_kana": "キタカツラギグンカワイチョウ",
    "town": "高塚台",
    "town_kana": "タカツカダイ",
    "street": null,
    "office_name": null,
    "office_name_kana": null
  },
  "0072": {
    "postcode": "6360072",
    "prefecture": "奈良県",
    "prefecture_kana": "ナラケン",
    "prefecture_code": 29,
    "city": "北葛城郡河合町",
    "city_kana": "キタカツラギグンカワイチョウ",
    "town": "中山台",
    "town_kana": "ナカヤマダイ",
    "street": null,
    "office_name": null,
    "office_name_kana": null
  },
  "0073": {
    "postcode": "6360073",
    "prefecture": "奈良県",
    "prefecture_kana": "ナラケン",
    "prefecture_code": 29,
    "city": "北葛城郡河合町",
    "city_kana": "キタカツラギグンカワイチョウ",
    "town": "広瀬台",
    "town_kana": "ヒロセダイ",
    "street": null,
    "office_name": null,
    "office_name_kana": null
  },
  "0081": {
    "postcode": "6360081",
    "prefecture": "奈良県",
    "prefecture_kana": "ナラケン",
    "prefecture_code": 29,
    "city": "北葛城郡河合町",
    "city_kana": "キタカツラギグンカワイチョウ",
    "town": "星和台",
    "town_kana": "セイワダイ",
    "street": null,
    "office_name": null,
    "office_name_kana": null
  },
  "0082": {
    "postcode": "6360082",
    "prefecture": "奈良県",
    "prefecture_kana": "ナラケン",
    "prefecture_code": 29,
    "city": "北葛城郡河合町",
    "city_kana": "キタカツラギグンカワイチョウ",
    "town": "薬井",
    "town_kana": "クスリイ",
    "street": null,
    "office_name": null,
    "office_name_kana": null
  },
  "0091": {
    "postcode": "6360091",
    "prefecture": "奈良県",
    "prefecture_kana": "ナラケン",
    "prefecture_code": 29,
    "city": "北葛城郡河合町",
    "city_kana": "キタカツラギグンカワイチョウ",
    "town": "泉台",
    "town_kana": "イズミダイ",
    "street": null,
    "office_name": null,
    "office_name_kana": null
  },
  "0092": {
    "postcode": "6360092",
    "prefecture": "奈良県",
    "prefecture_kana": "ナラケン",
    "prefecture_code": 29,
    "city": "北葛城郡河合町",
    "city_kana": "キタカツラギグンカワイチョウ",
    "town": "城内",
    "town_kana": "ジョウナイ",
    "street": null,
    "office_name": null,
    "office_name_kana": null
  },
  "0093": {
    "postcode": "6360093",
    "prefecture": "奈良県",
    "prefecture_kana": "ナラケン",
    "prefecture_code": 29,
    "city": "北葛城郡河合町",
    "city_kana": "キタカツラギグンカワイチョウ",
    "town": "大輪田",
    "town_kana": "オオワダ",
    "street": null,
    "office_name": null,
    "office_name_kana": null
  },
  "0100": {
    "postcode": "6360100",
    "prefecture": "奈良県",
    "prefecture_kana": "ナラケン",
    "prefecture_code": 29,
    "city": "生駒郡斑鳩町",
    "city_kana": "イコマグンイカルガチョウ",
    "town": "",
    "town_kana": "",
    "street": null,
    "office_name": null,
    "office_name_kana": null
  },
  "0101": {
    "postcode": "6360101",
    "prefecture": "奈良県",
    "prefecture_kana": "ナラケン",
    "prefecture_code": 29,
    "city": "生駒郡斑鳩町",
    "city_kana": "イコマグンイカルガチョウ",
    "town": "三井",
    "town_kana": "ミイ",
    "street": null,
    "office_name": null,
    "office_name_kana": null
  },
  "0102": {
    "postcode": "6360102",
    "prefecture": "奈良県",
    "prefecture_kana": "ナラケン",
    "prefecture_code": 29,
    "city": "生駒郡斑鳩町",
    "city_kana": "イコマグンイカルガチョウ",
    "town": "岡本",
    "town_kana": "オカモト",
    "street": null,
    "office_name": null,
    "office_name_kana": null
  },
  "0103": {
    "postcode": "6360103",
    "prefecture": "奈良県",
    "prefecture_kana": "ナラケン",
    "prefecture_code": 29,
    "city": "生駒郡斑鳩町",
    "city_kana": "イコマグンイカルガチョウ",
    "town": "幸前",
    "town_kana": "コウゼン",
    "street": null,
    "office_name": null,
    "office_name_kana": null
  },
  "0104": {
    "postcode": "6360104",
    "prefecture": "奈良県",
    "prefecture_kana": "ナラケン",
    "prefecture_code": 29,
    "city": "生駒郡斑鳩町",
    "city_kana": "イコマグンイカルガチョウ",
    "town": "高安",
    "town_kana": "タカヤス",
    "street": null,
    "office_name": null,
    "office_name_kana": null
  },
  "0105": {
    "postcode": "6360105",
    "prefecture": "奈良県",
    "prefecture_kana": "ナラケン",
    "prefecture_code": 29,
    "city": "生駒郡斑鳩町",
    "city_kana": "イコマグンイカルガチョウ",
    "town": "東福寺",
    "town_kana": "トウフクジ",
    "street": null,
    "office_name": null,
    "office_name_kana": null
  },
  "0106": {
    "postcode": "6360106",
    "prefecture": "奈良県",
    "prefecture_kana": "ナラケン",
    "prefecture_code": 29,
    "city": "生駒郡斑鳩町",
    "city_kana": "イコマグンイカルガチョウ",
    "town": "高安西",
    "town_kana": "タカヤスニシ",
    "street": null,
    "office_name": null,
    "office_name_kana": null
  },
  "0111": {
    "postcode": "6360111",
    "prefecture": "奈良県",
    "prefecture_kana": "ナラケン",
    "prefecture_code": 29,
    "city": "生駒郡斑鳩町",
    "city_kana": "イコマグンイカルガチョウ",
    "town": "法隆寺北",
    "town_kana": "ホウリュウジキタ",
    "street": null,
    "office_name": null,
    "office_name_kana": null
  },
  "0112": {
    "postcode": "6360112",
    "prefecture": "奈良県",
    "prefecture_kana": "ナラケン",
    "prefecture_code": 29,
    "city": "生駒郡斑鳩町",
    "city_kana": "イコマグンイカルガチョウ",
    "town": "法隆寺東",
    "town_kana": "ホウリュウジヒガシ",
    "street": null,
    "office_name": null,
    "office_name_kana": null
  },
  "0113": {
    "postcode": "6360113",
    "prefecture": "奈良県",
    "prefecture_kana": "ナラケン",
    "prefecture_code": 29,
    "city": "生駒郡斑鳩町",
    "city_kana": "イコマグンイカルガチョウ",
    "town": "法隆寺南",
    "town_kana": "ホウリュウジミナミ",
    "street": null,
    "office_name": null,
    "office_name_kana": null
  },
  "0114": {
    "postcode": "6360114",
    "prefecture": "奈良県",
    "prefecture_kana": "ナラケン",
    "prefecture_code": 29,
    "city": "生駒郡斑鳩町",
    "city_kana": "イコマグンイカルガチョウ",
    "town": "法隆寺西",
    "town_kana": "ホウリュウジニシ",
    "street": null,
    "office_name": null,
    "office_name_kana": null
  },
  "0115": {
    "postcode": "6360115",
    "prefecture": "奈良県",
    "prefecture_kana": "ナラケン",
    "prefecture_code": 29,
    "city": "生駒郡斑鳩町",
    "city_kana": "イコマグンイカルガチョウ",
    "town": "法隆寺山内",
    "town_kana": "ホウリュウジサンナイ",
    "street": null,
    "office_name": null,
    "office_name_kana": null
  },
  "0116": {
    "postcode": "6360116",
    "prefecture": "奈良県",
    "prefecture_kana": "ナラケン",
    "prefecture_code": 29,
    "city": "生駒郡斑鳩町",
    "city_kana": "イコマグンイカルガチョウ",
    "town": "法隆寺",
    "town_kana": "ホウリュウジ",
    "street": null,
    "office_name": null,
    "office_name_kana": null
  },
  "0121": {
    "postcode": "6360121",
    "prefecture": "奈良県",
    "prefecture_kana": "ナラケン",
    "prefecture_code": 29,
    "city": "生駒郡斑鳩町",
    "city_kana": "イコマグンイカルガチョウ",
    "town": "興留東",
    "town_kana": "オキドメヒガシ",
    "street": null,
    "office_name": null,
    "office_name_kana": null
  },
  "0122": {
    "postcode": "6360122",
    "prefecture": "奈良県",
    "prefecture_kana": "ナラケン",
    "prefecture_code": 29,
    "city": "生駒郡斑鳩町",
    "city_kana": "イコマグンイカルガチョウ",
    "town": "阿波",
    "town_kana": "アワ",
    "street": null,
    "office_name": null,
    "office_name_kana": null
  },
  "0123": {
    "postcode": "6360123",
    "prefecture": "奈良県",
    "prefecture_kana": "ナラケン",
    "prefecture_code": 29,
    "city": "生駒郡斑鳩町",
    "city_kana": "イコマグンイカルガチョウ",
    "town": "興留",
    "town_kana": "オキドメ",
    "street": null,
    "office_name": null,
    "office_name_kana": null
  },
  "0124": {
    "postcode": "6360124",
    "prefecture": "奈良県",
    "prefecture_kana": "ナラケン",
    "prefecture_code": 29,
    "city": "生駒郡斑鳩町",
    "city_kana": "イコマグンイカルガチョウ",
    "town": "五百井",
    "town_kana": "イオイ",
    "street": null,
    "office_name": null,
    "office_name_kana": null
  },
  "0131": {
    "postcode": "6360131",
    "prefecture": "奈良県",
    "prefecture_kana": "ナラケン",
    "prefecture_code": 29,
    "city": "生駒郡斑鳩町",
    "city_kana": "イコマグンイカルガチョウ",
    "town": "服部",
    "town_kana": "ハットリ",
    "street": null,
    "office_name": null,
    "office_name_kana": null
  },
  "0132": {
    "postcode": "6360132",
    "prefecture": "奈良県",
    "prefecture_kana": "ナラケン",
    "prefecture_code": 29,
    "city": "生駒郡斑鳩町",
    "city_kana": "イコマグンイカルガチョウ",
    "town": "目安",
    "town_kana": "メヤス",
    "street": null,
    "office_name": null,
    "office_name_kana": null
  },
  "0133": {
    "postcode": "6360133",
    "prefecture": "奈良県",
    "prefecture_kana": "ナラケン",
    "prefecture_code": 29,
    "city": "生駒郡斑鳩町",
    "city_kana": "イコマグンイカルガチョウ",
    "town": "目安北",
    "town_kana": "メヤスキタ",
    "street": null,
    "office_name": null,
    "office_name_kana": null
  },
  "0141": {
    "postcode": "6360141",
    "prefecture": "奈良県",
    "prefecture_kana": "ナラケン",
    "prefecture_code": 29,
    "city": "生駒郡斑鳩町",
    "city_kana": "イコマグンイカルガチョウ",
    "town": "稲葉車瀬",
    "town_kana": "イナバクルマセ",
    "street": null,
    "office_name": null,
    "office_name_kana": null
  },
  "0142": {
    "postcode": "6360142",
    "prefecture": "奈良県",
    "prefecture_kana": "ナラケン",
    "prefecture_code": 29,
    "city": "生駒郡斑鳩町",
    "city_kana": "イコマグンイカルガチョウ",
    "town": "小吉田",
    "town_kana": "コヨシダ",
    "street": null,
    "office_name": null,
    "office_name_kana": null
  },
  "0143": {
    "postcode": "6360143",
    "prefecture": "奈良県",
    "prefecture_kana": "ナラケン",
    "prefecture_code": 29,
    "city": "生駒郡斑鳩町",
    "city_kana": "イコマグンイカルガチョウ",
    "town": "神南",
    "town_kana": "ジンナン",
    "street": null,
    "office_name": null,
    "office_name_kana": null
  },
  "0144": {
    "postcode": "6360144",
    "prefecture": "奈良県",
    "prefecture_kana": "ナラケン",
    "prefecture_code": 29,
    "city": "生駒郡斑鳩町",
    "city_kana": "イコマグンイカルガチョウ",
    "town": "稲葉西",
    "town_kana": "イナバニシ",
    "street": null,
    "office_name": null,
    "office_name_kana": null
  },
  "0151": {
    "postcode": "6360151",
    "prefecture": "奈良県",
    "prefecture_kana": "ナラケン",
    "prefecture_code": 29,
    "city": "生駒郡斑鳩町",
    "city_kana": "イコマグンイカルガチョウ",
    "town": "龍田北",
    "town_kana": "タツタキタ",
    "street": null,
    "office_name": null,
    "office_name_kana": null
  },
  "0152": {
    "postcode": "6360152",
    "prefecture": "奈良県",
    "prefecture_kana": "ナラケン",
    "prefecture_code": 29,
    "city": "生駒郡斑鳩町",
    "city_kana": "イコマグンイカルガチョウ",
    "town": "龍田",
    "town_kana": "タツタ",
    "street": null,
    "office_name": null,
    "office_name_kana": null
  },
  "0153": {
    "postcode": "6360153",
    "prefecture": "奈良県",
    "prefecture_kana": "ナラケン",
    "prefecture_code": 29,
    "city": "生駒郡斑鳩町",
    "city_kana": "イコマグンイカルガチョウ",
    "town": "龍田南",
    "town_kana": "タツタミナミ",
    "street": null,
    "office_name": null,
    "office_name_kana": null
  },
  "0154": {
    "postcode": "6360154",
    "prefecture": "奈良県",
    "prefecture_kana": "ナラケン",
    "prefecture_code": 29,
    "city": "生駒郡斑鳩町",
    "city_kana": "イコマグンイカルガチョウ",
    "town": "龍田西",
    "town_kana": "タツタニシ",
    "street": null,
    "office_name": null,
    "office_name_kana": null
  },
  "0192": {
    "postcode": "6360192",
    "prefecture": "奈良県",
    "prefecture_kana": "ナラケン",
    "prefecture_code": 29,
    "city": "生駒郡斑鳩町",
    "city_kana": "イコマグンイカルガチョウ",
    "town": "法隆寺南",
    "town_kana": "ホウリュウジミナミ",
    "street": "３丁目８−１",
    "office_name": "東洋シール工業　株式会社",
    "office_name_kana": "トウヨウシ-ルコウギヨウ カブシキガイシヤ"
  },
  "0193": {
    "postcode": "6360193",
    "prefecture": "奈良県",
    "prefecture_kana": "ナラケン",
    "prefecture_code": 29,
    "city": "生駒郡斑鳩町",
    "city_kana": "イコマグンイカルガチョウ",
    "town": "龍田",
    "town_kana": "タツタ",
    "street": "２丁目２−１１",
    "office_name": "株式会社　植嶋",
    "office_name_kana": "カブシキガイシヤ ウエシマ"
  },
  "0198": {
    "postcode": "6360198",
    "prefecture": "奈良県",
    "prefecture_kana": "ナラケン",
    "prefecture_code": 29,
    "city": "生駒郡斑鳩町",
    "city_kana": "イコマグンイカルガチョウ",
    "town": "法隆寺西",
    "town_kana": "ホウリュウジニシ",
    "street": "３丁目７番１２号",
    "office_name": "斑鳩町役場",
    "office_name_kana": "イカルガチヨウヤクバ"
  },
  "0201": {
    "postcode": "6360201",
    "prefecture": "奈良県",
    "prefecture_kana": "ナラケン",
    "prefecture_code": 29,
    "city": "磯城郡川西町",
    "city_kana": "シキグンカワニシチョウ",
    "town": "下永",
    "town_kana": "シモナガ",
    "street": null,
    "office_name": null,
    "office_name_kana": null
  },
  "0202": {
    "postcode": "6360202",
    "prefecture": "奈良県",
    "prefecture_kana": "ナラケン",
    "prefecture_code": 29,
    "city": "磯城郡川西町",
    "city_kana": "シキグンカワニシチョウ",
    "town": "結崎",
    "town_kana": "ユウザキ",
    "street": null,
    "office_name": null,
    "office_name_kana": null
  },
  "0203": {
    "postcode": "6360203",
    "prefecture": "奈良県",
    "prefecture_kana": "ナラケン",
    "prefecture_code": 29,
    "city": "磯城郡川西町",
    "city_kana": "シキグンカワニシチョウ",
    "town": "梅戸",
    "town_kana": "ウメド",
    "street": null,
    "office_name": null,
    "office_name_kana": null
  },
  "0204": {
    "postcode": "6360204",
    "prefecture": "奈良県",
    "prefecture_kana": "ナラケン",
    "prefecture_code": 29,
    "city": "磯城郡川西町",
    "city_kana": "シキグンカワニシチョウ",
    "town": "唐院",
    "town_kana": "トウイン",
    "street": null,
    "office_name": null,
    "office_name_kana": null
  },
  "0205": {
    "postcode": "6360205",
    "prefecture": "奈良県",
    "prefecture_kana": "ナラケン",
    "prefecture_code": 29,
    "city": "磯城郡川西町",
    "city_kana": "シキグンカワニシチョウ",
    "town": "保田",
    "town_kana": "ホタ",
    "street": null,
    "office_name": null,
    "office_name_kana": null
  },
  "0206": {
    "postcode": "6360206",
    "prefecture": "奈良県",
    "prefecture_kana": "ナラケン",
    "prefecture_code": 29,
    "city": "磯城郡川西町",
    "city_kana": "シキグンカワニシチョウ",
    "town": "吐田",
    "town_kana": "ハンダ",
    "street": null,
    "office_name": null,
    "office_name_kana": null
  },
  "0211": {
    "postcode": "6360211",
    "prefecture": "奈良県",
    "prefecture_kana": "ナラケン",
    "prefecture_code": 29,
    "city": "磯城郡三宅町",
    "city_kana": "シキグンミヤケチョウ",
    "town": "三河",
    "town_kana": "ミカワ",
    "street": null,
    "office_name": null,
    "office_name_kana": null
  },
  "0212": {
    "postcode": "6360212",
    "prefecture": "奈良県",
    "prefecture_kana": "ナラケン",
    "prefecture_code": 29,
    "city": "磯城郡三宅町",
    "city_kana": "シキグンミヤケチョウ",
    "town": "石見",
    "town_kana": "イワミ",
    "street": null,
    "office_name": null,
    "office_name_kana": null
  },
  "0213": {
    "postcode": "6360213",
    "prefecture": "奈良県",
    "prefecture_kana": "ナラケン",
    "prefecture_code": 29,
    "city": "磯城郡三宅町",
    "city_kana": "シキグンミヤケチョウ",
    "town": "伴堂",
    "town_kana": "トモンドウ",
    "street": null,
    "office_name": null,
    "office_name_kana": null
  },
  "0214": {
    "postcode": "6360214",
    "prefecture": "奈良県",
    "prefecture_kana": "ナラケン",
    "prefecture_code": 29,
    "city": "磯城郡三宅町",
    "city_kana": "シキグンミヤケチョウ",
    "town": "但馬",
    "town_kana": "タジマ",
    "street": null,
    "office_name": null,
    "office_name_kana": null
  },
  "0215": {
    "postcode": "6360215",
    "prefecture": "奈良県",
    "prefecture_kana": "ナラケン",
    "prefecture_code": 29,
    "city": "磯城郡三宅町",
    "city_kana": "シキグンミヤケチョウ",
    "town": "上但馬",
    "town_kana": "カミタジマ",
    "street": null,
    "office_name": null,
    "office_name_kana": null
  },
  "0216": {
    "postcode": "6360216",
    "prefecture": "奈良県",
    "prefecture_kana": "ナラケン",
    "prefecture_code": 29,
    "city": "磯城郡三宅町",
    "city_kana": "シキグンミヤケチョウ",
    "town": "小柳",
    "town_kana": "オヤナギ",
    "street": null,
    "office_name": null,
    "office_name_kana": null
  },
  "0217": {
    "postcode": "6360217",
    "prefecture": "奈良県",
    "prefecture_kana": "ナラケン",
    "prefecture_code": 29,
    "city": "磯城郡三宅町",
    "city_kana": "シキグンミヤケチョウ",
    "town": "屏風",
    "town_kana": "ビョウブ",
    "street": null,
    "office_name": null,
    "office_name_kana": null
  },
  "0221": {
    "postcode": "6360221",
    "prefecture": "奈良県",
    "prefecture_kana": "ナラケン",
    "prefecture_code": 29,
    "city": "磯城郡田原本町",
    "city_kana": "シキグンタワラモトチョウ",
    "town": "八田",
    "town_kana": "ハッタ",
    "street": null,
    "office_name": null,
    "office_name_kana": null
  },
  "0222": {
    "postcode": "6360222",
    "prefecture": "奈良県",
    "prefecture_kana": "ナラケン",
    "prefecture_code": 29,
    "city": "磯城郡田原本町",
    "city_kana": "シキグンタワラモトチョウ",
    "town": "法貴寺",
    "town_kana": "ホウキジ",
    "street": null,
    "office_name": null,
    "office_name_kana": null
  },
  "0223": {
    "postcode": "6360223",
    "prefecture": "奈良県",
    "prefecture_kana": "ナラケン",
    "prefecture_code": 29,
    "city": "磯城郡田原本町",
    "city_kana": "シキグンタワラモトチョウ",
    "town": "鍵",
    "town_kana": "カギ",
    "street": null,
    "office_name": null,
    "office_name_kana": null
  },
  "0224": {
    "postcode": "6360224",
    "prefecture": "奈良県",
    "prefecture_kana": "ナラケン",
    "prefecture_code": 29,
    "city": "磯城郡田原本町",
    "city_kana": "シキグンタワラモトチョウ",
    "town": "今里",
    "town_kana": "イマザト",
    "street": null,
    "office_name": null,
    "office_name_kana": null
  },
  "0225": {
    "postcode": "6360225",
    "prefecture": "奈良県",
    "prefecture_kana": "ナラケン",
    "prefecture_code": 29,
    "city": "磯城郡田原本町",
    "city_kana": "シキグンタワラモトチョウ",
    "town": "西代",
    "town_kana": "ニシンダイ",
    "street": null,
    "office_name": null,
    "office_name_kana": null
  },
  "0226": {
    "postcode": "6360226",
    "prefecture": "奈良県",
    "prefecture_kana": "ナラケン",
    "prefecture_code": 29,
    "city": "磯城郡田原本町",
    "city_kana": "シキグンタワラモトチョウ",
    "town": "唐古",
    "town_kana": "カラコ",
    "street": null,
    "office_name": null,
    "office_name_kana": null
  },
  "0231": {
    "postcode": "6360231",
    "prefecture": "奈良県",
    "prefecture_kana": "ナラケン",
    "prefecture_code": 29,
    "city": "磯城郡田原本町",
    "city_kana": "シキグンタワラモトチョウ",
    "town": "為川北方",
    "town_kana": "タメガワホッポウ",
    "street": null,
    "office_name": null,
    "office_name_kana": null
  },
  "0232": {
    "postcode": "6360232",
    "prefecture": "奈良県",
    "prefecture_kana": "ナラケン",
    "prefecture_code": 29,
    "city": "磯城郡田原本町",
    "city_kana": "シキグンタワラモトチョウ",
    "town": "金沢",
    "town_kana": "カナザワ",
    "street": null,
    "office_name": null,
    "office_name_kana": null
  },
  "0233": {
    "postcode": "6360233",
    "prefecture": "奈良県",
    "prefecture_kana": "ナラケン",
    "prefecture_code": 29,
    "city": "磯城郡田原本町",
    "city_kana": "シキグンタワラモトチョウ",
    "town": "為川南方",
    "town_kana": "タメガワナンポウ",
    "street": null,
    "office_name": null,
    "office_name_kana": null
  },
  "0234": {
    "postcode": "6360234",
    "prefecture": "奈良県",
    "prefecture_kana": "ナラケン",
    "prefecture_code": 29,
    "city": "磯城郡田原本町",
    "city_kana": "シキグンタワラモトチョウ",
    "town": "蔵堂",
    "town_kana": "クラドウ",
    "street": null,
    "office_name": null,
    "office_name_kana": null
  },
  "0235": {
    "postcode": "6360235",
    "prefecture": "奈良県",
    "prefecture_kana": "ナラケン",
    "prefecture_code": 29,
    "city": "磯城郡田原本町",
    "city_kana": "シキグンタワラモトチョウ",
    "town": "東井上",
    "town_kana": "ヒガシイネ",
    "street": null,
    "office_name": null,
    "office_name_kana": null
  },
  "0236": {
    "postcode": "6360236",
    "prefecture": "奈良県",
    "prefecture_kana": "ナラケン",
    "prefecture_code": 29,
    "city": "磯城郡田原本町",
    "city_kana": "シキグンタワラモトチョウ",
    "town": "西井上",
    "town_kana": "ニシイネ",
    "street": null,
    "office_name": null,
    "office_name_kana": null
  },
  "0237": {
    "postcode": "6360237",
    "prefecture": "奈良県",
    "prefecture_kana": "ナラケン",
    "prefecture_code": 29,
    "city": "磯城郡田原本町",
    "city_kana": "シキグンタワラモトチョウ",
    "town": "小阪",
    "town_kana": "コサカ",
    "street": null,
    "office_name": null,
    "office_name_kana": null
  },
  "0241": {
    "postcode": "6360241",
    "prefecture": "奈良県",
    "prefecture_kana": "ナラケン",
    "prefecture_code": 29,
    "city": "磯城郡田原本町",
    "city_kana": "シキグンタワラモトチョウ",
    "town": "平田",
    "town_kana": "ヒラタ",
    "street": null,
    "office_name": null,
    "office_name_kana": null
  },
  "0242": {
    "postcode": "6360242",
    "prefecture": "奈良県",
    "prefecture_kana": "ナラケン",
    "prefecture_code": 29,
    "city": "磯城郡田原本町",
    "city_kana": "シキグンタワラモトチョウ",
    "town": "大木",
    "town_kana": "オオギ",
    "street": null,
    "office_name": null,
    "office_name_kana": null
  },
  "0243": {
    "postcode": "6360243",
    "prefecture": "奈良県",
    "prefecture_kana": "ナラケン",
    "prefecture_code": 29,
    "city": "磯城郡田原本町",
    "city_kana": "シキグンタワラモトチョウ",
    "town": "伊与戸",
    "town_kana": "イヨド",
    "street": null,
    "office_name": null,
    "office_name_kana": null
  },
  "0244": {
    "postcode": "6360244",
    "prefecture": "奈良県",
    "prefecture_kana": "ナラケン",
    "prefecture_code": 29,
    "city": "磯城郡田原本町",
    "city_kana": "シキグンタワラモトチョウ",
    "town": "笠形",
    "town_kana": "カサガタ",
    "street": null,
    "office_name": null,
    "office_name_kana": null
  },
  "0245": {
    "postcode": "6360245",
    "prefecture": "奈良県",
    "prefecture_kana": "ナラケン",
    "prefecture_code": 29,
    "city": "磯城郡田原本町",
    "city_kana": "シキグンタワラモトチョウ",
    "town": "味間",
    "town_kana": "アジマ",
    "street": null,
    "office_name": null,
    "office_name_kana": null
  },
  "0246": {
    "postcode": "6360246",
    "prefecture": "奈良県",
    "prefecture_kana": "ナラケン",
    "prefecture_code": 29,
    "city": "磯城郡田原本町",
    "city_kana": "シキグンタワラモトチョウ",
    "town": "千代",
    "town_kana": "チシロ",
    "street": null,
    "office_name": null,
    "office_name_kana": null
  },
  "0247": {
    "postcode": "6360247",
    "prefecture": "奈良県",
    "prefecture_kana": "ナラケン",
    "prefecture_code": 29,
    "city": "磯城郡田原本町",
    "city_kana": "シキグンタワラモトチョウ",
    "town": "阪手",
    "town_kana": "サカテ",
    "street": null,
    "office_name": null,
    "office_name_kana": null
  },
  "0248": {
    "postcode": "6360248",
    "prefecture": "奈良県",
    "prefecture_kana": "ナラケン",
    "prefecture_code": 29,
    "city": "磯城郡田原本町",
    "city_kana": "シキグンタワラモトチョウ",
    "town": "大安寺",
    "town_kana": "ダイアンジ",
    "street": null,
    "office_name": null,
    "office_name_kana": null
  },
  "0292": {
    "postcode": "6360292",
    "prefecture": "奈良県",
    "prefecture_kana": "ナラケン",
    "prefecture_code": 29,
    "city": "磯城郡田原本町",
    "city_kana": "シキグンタワラモトチョウ",
    "town": "大字唐古",
    "town_kana": null,
    "street": "２９６",
    "office_name": "奈良トヨタ自動車　株式会社",
    "office_name_kana": "ナラトヨタジトウシヤ カブシキガイシヤ"
  },
  "0293": {
    "postcode": "6360293",
    "prefecture": "奈良県",
    "prefecture_kana": "ナラケン",
    "prefecture_code": 29,
    "city": "磯城郡川西町",
    "city_kana": "シキグンカワニシチョウ",
    "town": "唐院",
    "town_kana": "トウイン",
    "street": "７１２−１０",
    "office_name": "株式会社　ＤＮＰデータテクノ",
    "office_name_kana": "カブシキガイシヤ デイ-エヌピ-デ-タテクノ"
  },
  "0294": {
    "postcode": "6360294",
    "prefecture": "奈良県",
    "prefecture_kana": "ナラケン",
    "prefecture_code": 29,
    "city": "磯城郡田原本町",
    "city_kana": "シキグンタワラモトチョウ",
    "town": "大字小阪",
    "town_kana": null,
    "street": "２３０−３",
    "office_name": "旭食品　株式会社　阪奈支店",
    "office_name_kana": "アサヒシヨクヒン カブシキガイシヤ ハンナシテン"
  },
  "0295": {
    "postcode": "6360295",
    "prefecture": "奈良県",
    "prefecture_kana": "ナラケン",
    "prefecture_code": 29,
    "city": "磯城郡川西町",
    "city_kana": "シキグンカワニシチョウ",
    "town": "大字吐田",
    "town_kana": null,
    "street": "１５０−３",
    "office_name": "株式会社　ＧＭＢ",
    "office_name_kana": "カブシキガイシヤ ジ-エムビ"
  },
  "0298": {
    "postcode": "6360298",
    "prefecture": "奈良県",
    "prefecture_kana": "ナラケン",
    "prefecture_code": 29,
    "city": "磯城郡田原本町",
    "city_kana": "シキグンタワラモトチョウ",
    "town": "大字阪手",
    "town_kana": null,
    "street": "６５８−１",
    "office_name": "株式会社　カギオカ",
    "office_name_kana": "カブシキガイシヤ カギオカ"
  },
  "0300": [
    {
      "postcode": "6360300",
      "prefecture": "奈良県",
      "prefecture_kana": "ナラケン",
      "prefecture_code": 29,
      "city": "磯城郡川西町",
      "city_kana": "シキグンカワニシチョウ",
      "town": "",
      "town_kana": "",
      "street": null,
      "office_name": null,
      "office_name_kana": null
    },
    {
      "postcode": "6360300",
      "prefecture": "奈良県",
      "prefecture_kana": "ナラケン",
      "prefecture_code": 29,
      "city": "磯城郡三宅町",
      "city_kana": "シキグンミヤケチョウ",
      "town": "",
      "town_kana": "",
      "street": null,
      "office_name": null,
      "office_name_kana": null
    },
    {
      "postcode": "6360300",
      "prefecture": "奈良県",
      "prefecture_kana": "ナラケン",
      "prefecture_code": 29,
      "city": "磯城郡田原本町",
      "city_kana": "シキグンタワラモトチョウ",
      "town": "",
      "town_kana": "",
      "street": null,
      "office_name": null,
      "office_name_kana": null
    }
  ],
  "0301": {
    "postcode": "6360301",
    "prefecture": "奈良県",
    "prefecture_kana": "ナラケン",
    "prefecture_code": 29,
    "city": "磯城郡田原本町",
    "city_kana": "シキグンタワラモトチョウ",
    "town": "黒田",
    "town_kana": "クロダ",
    "street": null,
    "office_name": null,
    "office_name_kana": null
  },
  "0302": {
    "postcode": "6360302",
    "prefecture": "奈良県",
    "prefecture_kana": "ナラケン",
    "prefecture_code": 29,
    "city": "磯城郡田原本町",
    "city_kana": "シキグンタワラモトチョウ",
    "town": "宮古",
    "town_kana": "ミヤコ",
    "street": null,
    "office_name": null,
    "office_name_kana": null
  },
  "0303": {
    "postcode": "6360303",
    "prefecture": "奈良県",
    "prefecture_kana": "ナラケン",
    "prefecture_code": 29,
    "city": "磯城郡田原本町",
    "city_kana": "シキグンタワラモトチョウ",
    "town": "保津",
    "town_kana": "ホツ",
    "street": null,
    "office_name": null,
    "office_name_kana": null
  },
  "0304": {
    "postcode": "6360304",
    "prefecture": "奈良県",
    "prefecture_kana": "ナラケン",
    "prefecture_code": 29,
    "city": "磯城郡田原本町",
    "city_kana": "シキグンタワラモトチョウ",
    "town": "十六面",
    "town_kana": "ジュウロクセン",
    "street": null,
    "office_name": null,
    "office_name_kana": null
  },
  "0305": {
    "postcode": "6360305",
    "prefecture": "奈良県",
    "prefecture_kana": "ナラケン",
    "prefecture_code": 29,
    "city": "磯城郡田原本町",
    "city_kana": "シキグンタワラモトチョウ",
    "town": "平野",
    "town_kana": "ヒラノ",
    "street": null,
    "office_name": null,
    "office_name_kana": null
  },
  "0306": {
    "postcode": "6360306",
    "prefecture": "奈良県",
    "prefecture_kana": "ナラケン",
    "prefecture_code": 29,
    "city": "磯城郡田原本町",
    "city_kana": "シキグンタワラモトチョウ",
    "town": "西竹田",
    "town_kana": "ニシタケダ",
    "street": null,
    "office_name": null,
    "office_name_kana": null
  },
  "0307": {
    "postcode": "6360307",
    "prefecture": "奈良県",
    "prefecture_kana": "ナラケン",
    "prefecture_code": 29,
    "city": "磯城郡田原本町",
    "city_kana": "シキグンタワラモトチョウ",
    "town": "富本",
    "town_kana": "トンモト",
    "street": null,
    "office_name": null,
    "office_name_kana": null
  },
  "0311": {
    "postcode": "6360311",
    "prefecture": "奈良県",
    "prefecture_kana": "ナラケン",
    "prefecture_code": 29,
    "city": "磯城郡田原本町",
    "city_kana": "シキグンタワラモトチョウ",
    "town": "八尾",
    "town_kana": "ヤオ",
    "street": null,
    "office_name": null,
    "office_name_kana": null
  },
  "0312": {
    "postcode": "6360312",
    "prefecture": "奈良県",
    "prefecture_kana": "ナラケン",
    "prefecture_code": 29,
    "city": "磯城郡田原本町",
    "city_kana": "シキグンタワラモトチョウ",
    "town": "新町",
    "town_kana": "シンマチ",
    "street": null,
    "office_name": null,
    "office_name_kana": null
  },
  "0313": {
    "postcode": "6360313",
    "prefecture": "奈良県",
    "prefecture_kana": "ナラケン",
    "prefecture_code": 29,
    "city": "磯城郡田原本町",
    "city_kana": "シキグンタワラモトチョウ",
    "town": "旭町",
    "town_kana": "アサヒマチ",
    "street": null,
    "office_name": null,
    "office_name_kana": null
  },
  "0314": {
    "postcode": "6360314",
    "prefecture": "奈良県",
    "prefecture_kana": "ナラケン",
    "prefecture_code": 29,
    "city": "磯城郡田原本町",
    "city_kana": "シキグンタワラモトチョウ",
    "town": "戎通",
    "town_kana": "エビスドオリ",
    "street": null,
    "office_name": null,
    "office_name_kana": null
  },
  "0315": {
    "postcode": "6360315",
    "prefecture": "奈良県",
    "prefecture_kana": "ナラケン",
    "prefecture_code": 29,
    "city": "磯城郡田原本町",
    "city_kana": "シキグンタワラモトチョウ",
    "town": "幸町",
    "town_kana": "サイワイマチ",
    "street": null,
    "office_name": null,
    "office_name_kana": null
  },
  "0316": {
    "postcode": "6360316",
    "prefecture": "奈良県",
    "prefecture_kana": "ナラケン",
    "prefecture_code": 29,
    "city": "磯城郡田原本町",
    "city_kana": "シキグンタワラモトチョウ",
    "town": "室町",
    "town_kana": "ムロマチ",
    "street": null,
    "office_name": null,
    "office_name_kana": null
  },
  "0317": {
    "postcode": "6360317",
    "prefecture": "奈良県",
    "prefecture_kana": "ナラケン",
    "prefecture_code": 29,
    "city": "磯城郡田原本町",
    "city_kana": "シキグンタワラモトチョウ",
    "town": "殿町",
    "town_kana": "トノマチ",
    "street": null,
    "office_name": null,
    "office_name_kana": null
  },
  "0321": {
    "postcode": "6360321",
    "prefecture": "奈良県",
    "prefecture_kana": "ナラケン",
    "prefecture_code": 29,
    "city": "磯城郡田原本町",
    "city_kana": "シキグンタワラモトチョウ",
    "town": "八幡町",
    "town_kana": "ヤハタマチ",
    "street": null,
    "office_name": null,
    "office_name_kana": null
  },
  "0322": {
    "postcode": "6360322",
    "prefecture": "奈良県",
    "prefecture_kana": "ナラケン",
    "prefecture_code": 29,
    "city": "磯城郡田原本町",
    "city_kana": "シキグンタワラモトチョウ",
    "town": "郭内",
    "town_kana": "カクナイ",
    "street": null,
    "office_name": null,
    "office_name_kana": null
  },
  "0323": {
    "postcode": "6360323",
    "prefecture": "奈良県",
    "prefecture_kana": "ナラケン",
    "prefecture_code": 29,
    "city": "磯城郡田原本町",
    "city_kana": "シキグンタワラモトチョウ",
    "town": "根太口",
    "town_kana": "ネブトグチ",
    "street": null,
    "office_name": null,
    "office_name_kana": null
  },
  "0324": {
    "postcode": "6360324",
    "prefecture": "奈良県",
    "prefecture_kana": "ナラケン",
    "prefecture_code": 29,
    "city": "磯城郡田原本町",
    "city_kana": "シキグンタワラモトチョウ",
    "town": "三輪町",
    "town_kana": "ミワマチ",
    "street": null,
    "office_name": null,
    "office_name_kana": null
  },
  "0325": {
    "postcode": "6360325",
    "prefecture": "奈良県",
    "prefecture_kana": "ナラケン",
    "prefecture_code": 29,
    "city": "磯城郡田原本町",
    "city_kana": "シキグンタワラモトチョウ",
    "town": "南町",
    "town_kana": "ミナミマチ",
    "street": null,
    "office_name": null,
    "office_name_kana": null
  },
  "0326": {
    "postcode": "6360326",
    "prefecture": "奈良県",
    "prefecture_kana": "ナラケン",
    "prefecture_code": 29,
    "city": "磯城郡田原本町",
    "city_kana": "シキグンタワラモトチョウ",
    "town": "新地",
    "town_kana": "シンチ",
    "street": null,
    "office_name": null,
    "office_name_kana": null
  },
  "0327": {
    "postcode": "6360327",
    "prefecture": "奈良県",
    "prefecture_kana": "ナラケン",
    "prefecture_code": 29,
    "city": "磯城郡田原本町",
    "city_kana": "シキグンタワラモトチョウ",
    "town": "堺町",
    "town_kana": "サカイマチ",
    "street": null,
    "office_name": null,
    "office_name_kana": null
  },
  "0328": {
    "postcode": "6360328",
    "prefecture": "奈良県",
    "prefecture_kana": "ナラケン",
    "prefecture_code": 29,
    "city": "磯城郡田原本町",
    "city_kana": "シキグンタワラモトチョウ",
    "town": "材木町",
    "town_kana": "ザイモクマチ",
    "street": null,
    "office_name": null,
    "office_name_kana": null
  },
  "0329": {
    "postcode": "6360329",
    "prefecture": "奈良県",
    "prefecture_kana": "ナラケン",
    "prefecture_code": 29,
    "city": "磯城郡田原本町",
    "city_kana": "シキグンタワラモトチョウ",
    "town": "味間町",
    "town_kana": "アジママチ",
    "street": null,
    "office_name": null,
    "office_name_kana": null
  },
  "0331": {
    "postcode": "6360331",
    "prefecture": "奈良県",
    "prefecture_kana": "ナラケン",
    "prefecture_code": 29,
    "city": "磯城郡田原本町",
    "city_kana": "シキグンタワラモトチョウ",
    "town": "魚町",
    "town_kana": "ウオマチ",
    "street": null,
    "office_name": null,
    "office_name_kana": null
  },
  "0332": {
    "postcode": "6360332",
    "prefecture": "奈良県",
    "prefecture_kana": "ナラケン",
    "prefecture_code": 29,
    "city": "磯城郡田原本町",
    "city_kana": "シキグンタワラモトチョウ",
    "town": "市町",
    "town_kana": "イチマチ",
    "street": null,
    "office_name": null,
    "office_name_kana": null
  },
  "0333": {
    "postcode": "6360333",
    "prefecture": "奈良県",
    "prefecture_kana": "ナラケン",
    "prefecture_code": 29,
    "city": "磯城郡田原本町",
    "city_kana": "シキグンタワラモトチョウ",
    "town": "祗園町",
    "town_kana": "ギオンマチ",
    "street": null,
    "office_name": null,
    "office_name_kana": null
  },
  "0334": {
    "postcode": "6360334",
    "prefecture": "奈良県",
    "prefecture_kana": "ナラケン",
    "prefecture_code": 29,
    "city": "磯城郡田原本町",
    "city_kana": "シキグンタワラモトチョウ",
    "town": "本町",
    "town_kana": "ホンマチ",
    "street": null,
    "office_name": null,
    "office_name_kana": null
  },
  "0335": {
    "postcode": "6360335",
    "prefecture": "奈良県",
    "prefecture_kana": "ナラケン",
    "prefecture_code": 29,
    "city": "磯城郡田原本町",
    "city_kana": "シキグンタワラモトチョウ",
    "town": "大門東",
    "town_kana": "ダイモンヒガシ",
    "street": null,
    "office_name": null,
    "office_name_kana": null
  },
  "0336": {
    "postcode": "6360336",
    "prefecture": "奈良県",
    "prefecture_kana": "ナラケン",
    "prefecture_code": 29,
    "city": "磯城郡田原本町",
    "city_kana": "シキグンタワラモトチョウ",
    "town": "大門中",
    "town_kana": "ダイモンナカ",
    "street": null,
    "office_name": null,
    "office_name_kana": null
  },
  "0337": {
    "postcode": "6360337",
    "prefecture": "奈良県",
    "prefecture_kana": "ナラケン",
    "prefecture_code": 29,
    "city": "磯城郡田原本町",
    "city_kana": "シキグンタワラモトチョウ",
    "town": "大門西",
    "town_kana": "ダイモンニシ",
    "street": null,
    "office_name": null,
    "office_name_kana": null
  },
  "0338": {
    "postcode": "6360338",
    "prefecture": "奈良県",
    "prefecture_kana": "ナラケン",
    "prefecture_code": 29,
    "city": "磯城郡田原本町",
    "city_kana": "シキグンタワラモトチョウ",
    "town": "茶町",
    "town_kana": "チャマチ",
    "street": null,
    "office_name": null,
    "office_name_kana": null
  },
  "0339": {
    "postcode": "6360339",
    "prefecture": "奈良県",
    "prefecture_kana": "ナラケン",
    "prefecture_code": 29,
    "city": "磯城郡田原本町",
    "city_kana": "シキグンタワラモトチョウ",
    "town": "小室",
    "town_kana": "コムロ",
    "street": null,
    "office_name": null,
    "office_name_kana": null
  },
  "0341": {
    "postcode": "6360341",
    "prefecture": "奈良県",
    "prefecture_kana": "ナラケン",
    "prefecture_code": 29,
    "city": "磯城郡田原本町",
    "city_kana": "シキグンタワラモトチョウ",
    "town": "薬王寺",
    "town_kana": "ヤクオウジ",
    "street": null,
    "office_name": null,
    "office_name_kana": null
  },
  "0342": {
    "postcode": "6360342",
    "prefecture": "奈良県",
    "prefecture_kana": "ナラケン",
    "prefecture_code": 29,
    "city": "磯城郡田原本町",
    "city_kana": "シキグンタワラモトチョウ",
    "town": "三笠",
    "town_kana": "ミカサ",
    "street": null,
    "office_name": null,
    "office_name_kana": null
  },
  "0343": {
    "postcode": "6360343",
    "prefecture": "奈良県",
    "prefecture_kana": "ナラケン",
    "prefecture_code": 29,
    "city": "磯城郡田原本町",
    "city_kana": "シキグンタワラモトチョウ",
    "town": "秦庄",
    "town_kana": "ハタノショウ",
    "street": null,
    "office_name": null,
    "office_name_kana": null
  },
  "0344": {
    "postcode": "6360344",
    "prefecture": "奈良県",
    "prefecture_kana": "ナラケン",
    "prefecture_code": 29,
    "city": "磯城郡田原本町",
    "city_kana": "シキグンタワラモトチョウ",
    "town": "宮森",
    "town_kana": "ミヤノモリ",
    "street": null,
    "office_name": null,
    "office_name_kana": null
  },
  "0345": {
    "postcode": "6360345",
    "prefecture": "奈良県",
    "prefecture_kana": "ナラケン",
    "prefecture_code": 29,
    "city": "磯城郡田原本町",
    "city_kana": "シキグンタワラモトチョウ",
    "town": "多",
    "town_kana": "オオ",
    "street": null,
    "office_name": null,
    "office_name_kana": null
  },
  "0346": {
    "postcode": "6360346",
    "prefecture": "奈良県",
    "prefecture_kana": "ナラケン",
    "prefecture_code": 29,
    "city": "磯城郡田原本町",
    "city_kana": "シキグンタワラモトチョウ",
    "town": "矢部",
    "town_kana": "ヤベ",
    "street": null,
    "office_name": null,
    "office_name_kana": null
  },
  "0347": {
    "postcode": "6360347",
    "prefecture": "奈良県",
    "prefecture_kana": "ナラケン",
    "prefecture_code": 29,
    "city": "磯城郡田原本町",
    "city_kana": "シキグンタワラモトチョウ",
    "town": "新木",
    "town_kana": "ニキ",
    "street": null,
    "office_name": null,
    "office_name_kana": null
  },
  "0351": {
    "postcode": "6360351",
    "prefecture": "奈良県",
    "prefecture_kana": "ナラケン",
    "prefecture_code": 29,
    "city": "磯城郡田原本町",
    "city_kana": "シキグンタワラモトチョウ",
    "town": "松本",
    "town_kana": "マツモト",
    "street": null,
    "office_name": null,
    "office_name_kana": null
  },
  "0352": {
    "postcode": "6360352",
    "prefecture": "奈良県",
    "prefecture_kana": "ナラケン",
    "prefecture_code": 29,
    "city": "磯城郡田原本町",
    "city_kana": "シキグンタワラモトチョウ",
    "town": "金剛寺",
    "town_kana": "コンゴウジ",
    "street": null,
    "office_name": null,
    "office_name_kana": null
  },
  "0353": {
    "postcode": "6360353",
    "prefecture": "奈良県",
    "prefecture_kana": "ナラケン",
    "prefecture_code": 29,
    "city": "磯城郡田原本町",
    "city_kana": "シキグンタワラモトチョウ",
    "town": "大網",
    "town_kana": "オオアミ",
    "street": null,
    "office_name": null,
    "office_name_kana": null
  },
  "0354": {
    "postcode": "6360354",
    "prefecture": "奈良県",
    "prefecture_kana": "ナラケン",
    "prefecture_code": 29,
    "city": "磯城郡田原本町",
    "city_kana": "シキグンタワラモトチョウ",
    "town": "満田",
    "town_kana": "マンダ",
    "street": null,
    "office_name": null,
    "office_name_kana": null
  },
  "0355": {
    "postcode": "6360355",
    "prefecture": "奈良県",
    "prefecture_kana": "ナラケン",
    "prefecture_code": 29,
    "city": "磯城郡田原本町",
    "city_kana": "シキグンタワラモトチョウ",
    "town": "佐味",
    "town_kana": "サミ",
    "street": null,
    "office_name": null,
    "office_name_kana": null
  },
  "0392": {
    "postcode": "6360392",
    "prefecture": "奈良県",
    "prefecture_kana": "ナラケン",
    "prefecture_code": 29,
    "city": "磯城郡田原本町",
    "city_kana": "シキグンタワラモトチョウ",
    "town": "",
    "town_kana": "",
    "street": "８９０−１",
    "office_name": "田原本町役場",
    "office_name_kana": "タワラモトチヨウヤクバ"
  },
  "0393": {
    "postcode": "6360393",
    "prefecture": "奈良県",
    "prefecture_kana": "ナラケン",
    "prefecture_code": 29,
    "city": "磯城郡田原本町",
    "city_kana": "シキグンタワラモトチョウ",
    "town": "大字多",
    "town_kana": null,
    "street": "７２２",
    "office_name": "社会福祉法人　奈良県社会福祉事業団　奈良県心身障害者リハビリテーションセンター",
    "office_name_kana": "シヤカイフクシホウジン ナラケンシヤカイフクシジギヨウダン ナラケンシンシンシヨウガイシヤリハビリテ-シヨンセンタ-"
  },
  "0398": {
    "postcode": "6360398",
    "prefecture": "奈良県",
    "prefecture_kana": "ナラケン",
    "prefecture_code": 29,
    "city": "磯城郡田原本町",
    "city_kana": "シキグンタワラモトチョウ",
    "town": "",
    "town_kana": "",
    "street": "１３２−１０（田原本郵便局私書箱第６号）",
    "office_name": "奈良中央信用金庫",
    "office_name_kana": "ナラチユウオウシンヨウキンコ"
  },
  "0801": {
    "postcode": "6360801",
    "prefecture": "奈良県",
    "prefecture_kana": "ナラケン",
    "prefecture_code": 29,
    "city": "生駒郡三郷町",
    "city_kana": "イコマグンサンゴウチョウ",
    "town": "夕陽ケ丘",
    "town_kana": "ユウヒガオカ",
    "street": null,
    "office_name": null,
    "office_name_kana": null
  },
  "0802": {
    "postcode": "6360802",
    "prefecture": "奈良県",
    "prefecture_kana": "ナラケン",
    "prefecture_code": 29,
    "city": "生駒郡三郷町",
    "city_kana": "イコマグンサンゴウチョウ",
    "town": "三室",
    "town_kana": "ミムロ",
    "street": null,
    "office_name": null,
    "office_name_kana": null
  },
  "0803": {
    "postcode": "6360803",
    "prefecture": "奈良県",
    "prefecture_kana": "ナラケン",
    "prefecture_code": 29,
    "city": "生駒郡三郷町",
    "city_kana": "イコマグンサンゴウチョウ",
    "town": "東信貴ケ丘",
    "town_kana": "ヒガシシギガオカ",
    "street": null,
    "office_name": null,
    "office_name_kana": null
  },
  "0804": {
    "postcode": "6360804",
    "prefecture": "奈良県",
    "prefecture_kana": "ナラケン",
    "prefecture_code": 29,
    "city": "生駒郡三郷町",
    "city_kana": "イコマグンサンゴウチョウ",
    "town": "美松ケ丘西",
    "town_kana": "ミマツガオカニシ",
    "street": null,
    "office_name": null,
    "office_name_kana": null
  },
  "0805": {
    "postcode": "6360805",
    "prefecture": "奈良県",
    "prefecture_kana": "ナラケン",
    "prefecture_code": 29,
    "city": "生駒郡三郷町",
    "city_kana": "イコマグンサンゴウチョウ",
    "town": "美松ケ丘東",
    "town_kana": "ミマツガオカヒガシ",
    "street": null,
    "office_name": null,
    "office_name_kana": null
  },
  "0811": {
    "postcode": "6360811",
    "prefecture": "奈良県",
    "prefecture_kana": "ナラケン",
    "prefecture_code": 29,
    "city": "生駒郡三郷町",
    "city_kana": "イコマグンサンゴウチョウ",
    "town": "勢野東",
    "town_kana": "セヤヒガシ",
    "street": null,
    "office_name": null,
    "office_name_kana": null
  },
  "0812": {
    "postcode": "6360812",
    "prefecture": "奈良県",
    "prefecture_kana": "ナラケン",
    "prefecture_code": 29,
    "city": "生駒郡三郷町",
    "city_kana": "イコマグンサンゴウチョウ",
    "town": "勢野西",
    "town_kana": "セヤニシ",
    "street": null,
    "office_name": null,
    "office_name_kana": null
  },
  "0813": {
    "postcode": "6360813",
    "prefecture": "奈良県",
    "prefecture_kana": "ナラケン",
    "prefecture_code": 29,
    "city": "生駒郡三郷町",
    "city_kana": "イコマグンサンゴウチョウ",
    "town": "信貴ケ丘",
    "town_kana": "シギガオカ",
    "street": null,
    "office_name": null,
    "office_name_kana": null
  },
  "0814": {
    "postcode": "6360814",
    "prefecture": "奈良県",
    "prefecture_kana": "ナラケン",
    "prefecture_code": 29,
    "city": "生駒郡三郷町",
    "city_kana": "イコマグンサンゴウチョウ",
    "town": "勢野",
    "town_kana": "セヤ",
    "street": null,
    "office_name": null,
    "office_name_kana": null
  },
  "0815": {
    "postcode": "6360815",
    "prefecture": "奈良県",
    "prefecture_kana": "ナラケン",
    "prefecture_code": 29,
    "city": "生駒郡三郷町",
    "city_kana": "イコマグンサンゴウチョウ",
    "town": "勢野北",
    "town_kana": "セヤキタ",
    "street": null,
    "office_name": null,
    "office_name_kana": null
  },
  "0821": {
    "postcode": "6360821",
    "prefecture": "奈良県",
    "prefecture_kana": "ナラケン",
    "prefecture_code": 29,
    "city": "生駒郡三郷町",
    "city_kana": "イコマグンサンゴウチョウ",
    "town": "立野北",
    "town_kana": "タツノキタ",
    "street": null,
    "office_name": null,
    "office_name_kana": null
  },
  "0822": {
    "postcode": "6360822",
    "prefecture": "奈良県",
    "prefecture_kana": "ナラケン",
    "prefecture_code": 29,
    "city": "生駒郡三郷町",
    "city_kana": "イコマグンサンゴウチョウ",
    "town": "立野南",
    "town_kana": "タツノミナミ",
    "street": null,
    "office_name": null,
    "office_name_kana": null
  },
  "0823": {
    "postcode": "6360823",
    "prefecture": "奈良県",
    "prefecture_kana": "ナラケン",
    "prefecture_code": 29,
    "city": "生駒郡三郷町",
    "city_kana": "イコマグンサンゴウチョウ",
    "town": "立野",
    "town_kana": "タツノ",
    "street": null,
    "office_name": null,
    "office_name_kana": null
  },
  "0824": {
    "postcode": "6360824",
    "prefecture": "奈良県",
    "prefecture_kana": "ナラケン",
    "prefecture_code": 29,
    "city": "生駒郡三郷町",
    "city_kana": "イコマグンサンゴウチョウ",
    "town": "城山台",
    "town_kana": "シロヤマダイ",
    "street": null,
    "office_name": null,
    "office_name_kana": null
  },
  "0831": {
    "postcode": "6360831",
    "prefecture": "奈良県",
    "prefecture_kana": "ナラケン",
    "prefecture_code": 29,
    "city": "生駒郡三郷町",
    "city_kana": "イコマグンサンゴウチョウ",
    "town": "信貴山東",
    "town_kana": "シギサンヒガシ",
    "street": null,
    "office_name": null,
    "office_name_kana": null
  },
  "0832": {
    "postcode": "6360832",
    "prefecture": "奈良県",
    "prefecture_kana": "ナラケン",
    "prefecture_code": 29,
    "city": "生駒郡三郷町",
    "city_kana": "イコマグンサンゴウチョウ",
    "town": "信貴山西",
    "town_kana": "シギサンニシ",
    "street": null,
    "office_name": null,
    "office_name_kana": null
  },
  "0833": {
    "postcode": "6360833",
    "prefecture": "奈良県",
    "prefecture_kana": "ナラケン",
    "prefecture_code": 29,
    "city": "生駒郡三郷町",
    "city_kana": "イコマグンサンゴウチョウ",
    "town": "信貴南畑",
    "town_kana": "シギミナミハタ",
    "street": null,
    "office_name": null,
    "office_name_kana": null
  },
  "0834": {
    "postcode": "6360834",
    "prefecture": "奈良県",
    "prefecture_kana": "ナラケン",
    "prefecture_code": 29,
    "city": "生駒郡三郷町",
    "city_kana": "イコマグンサンゴウチョウ",
    "town": "南畑",
    "town_kana": "ミナミハタ",
    "street": null,
    "office_name": null,
    "office_name_kana": null
  },
  "0901": {
    "postcode": "6360901",
    "prefecture": "奈良県",
    "prefecture_kana": "ナラケン",
    "prefecture_code": 29,
    "city": "生駒郡平群町",
    "city_kana": "イコマグンヘグリチョウ",
    "town": "椣原",
    "town_kana": "シデハラ",
    "street": null,
    "office_name": null,
    "office_name_kana": null
  },
  "0902": {
    "postcode": "6360902",
    "prefecture": "奈良県",
    "prefecture_kana": "ナラケン",
    "prefecture_code": 29,
    "city": "生駒郡平群町",
    "city_kana": "イコマグンヘグリチョウ",
    "town": "白石畑",
    "town_kana": "シライシバタ",
    "street": null,
    "office_name": null,
    "office_name_kana": null
  },
  "0903": {
    "postcode": "6360903",
    "prefecture": "奈良県",
    "prefecture_kana": "ナラケン",
    "prefecture_code": 29,
    "city": "生駒郡平群町",
    "city_kana": "イコマグンヘグリチョウ",
    "town": "平等寺",
    "town_kana": "ビョウドウジ",
    "street": null,
    "office_name": null,
    "office_name_kana": null
  },
  "0904": {
    "postcode": "6360904",
    "prefecture": "奈良県",
    "prefecture_kana": "ナラケン",
    "prefecture_code": 29,
    "city": "生駒郡平群町",
    "city_kana": "イコマグンヘグリチョウ",
    "town": "三里",
    "town_kana": "ミサト",
    "street": null,
    "office_name": null,
    "office_name_kana": null
  },
  "0905": {
    "postcode": "6360905",
    "prefecture": "奈良県",
    "prefecture_kana": "ナラケン",
    "prefecture_code": 29,
    "city": "生駒郡平群町",
    "city_kana": "イコマグンヘグリチョウ",
    "town": "上庄",
    "town_kana": "カミショウ",
    "street": null,
    "office_name": null,
    "office_name_kana": null
  },
  "0906": {
    "postcode": "6360906",
    "prefecture": "奈良県",
    "prefecture_kana": "ナラケン",
    "prefecture_code": 29,
    "city": "生駒郡平群町",
    "city_kana": "イコマグンヘグリチョウ",
    "town": "菊美台",
    "town_kana": "キクミダイ",
    "street": null,
    "office_name": null,
    "office_name_kana": null
  },
  "0911": {
    "postcode": "6360911",
    "prefecture": "奈良県",
    "prefecture_kana": "ナラケン",
    "prefecture_code": 29,
    "city": "生駒郡平群町",
    "city_kana": "イコマグンヘグリチョウ",
    "town": "椿井",
    "town_kana": "ツバイ",
    "street": null,
    "office_name": null,
    "office_name_kana": null
  },
  "0912": {
    "postcode": "6360912",
    "prefecture": "奈良県",
    "prefecture_kana": "ナラケン",
    "prefecture_code": 29,
    "city": "生駒郡平群町",
    "city_kana": "イコマグンヘグリチョウ",
    "town": "竜田川",
    "town_kana": "タツタガワ",
    "street": null,
    "office_name": null,
    "office_name_kana": null
  },
  "0913": {
    "postcode": "6360913",
    "prefecture": "奈良県",
    "prefecture_kana": "ナラケン",
    "prefecture_code": 29,
    "city": "生駒郡平群町",
    "city_kana": "イコマグンヘグリチョウ",
    "town": "北信貴ケ丘",
    "town_kana": "キタシギガオカ",
    "street": null,
    "office_name": null,
    "office_name_kana": null
  },
  "0914": {
    "postcode": "6360914",
    "prefecture": "奈良県",
    "prefecture_kana": "ナラケン",
    "prefecture_code": 29,
    "city": "生駒郡平群町",
    "city_kana": "イコマグンヘグリチョウ",
    "town": "西宮",
    "town_kana": "ニシノミヤ",
    "street": null,
    "office_name": null,
    "office_name_kana": null
  },
  "0915": {
    "postcode": "6360915",
    "prefecture": "奈良県",
    "prefecture_kana": "ナラケン",
    "prefecture_code": 29,
    "city": "生駒郡平群町",
    "city_kana": "イコマグンヘグリチョウ",
    "town": "春日丘",
    "town_kana": "カスガオカ",
    "street": null,
    "office_name": null,
    "office_name_kana": null
  },
  "0916": {
    "postcode": "6360916",
    "prefecture": "奈良県",
    "prefecture_kana": "ナラケン",
    "prefecture_code": 29,
    "city": "生駒郡平群町",
    "city_kana": "イコマグンヘグリチョウ",
    "town": "若井",
    "town_kana": "ワカイ",
    "street": null,
    "office_name": null,
    "office_name_kana": null
  },
  "0921": {
    "postcode": "6360921",
    "prefecture": "奈良県",
    "prefecture_kana": "ナラケン",
    "prefecture_code": 29,
    "city": "生駒郡平群町",
    "city_kana": "イコマグンヘグリチョウ",
    "town": "椹原",
    "town_kana": "フシハラ",
    "street": null,
    "office_name": null,
    "office_name_kana": null
  },
  "0922": {
    "postcode": "6360922",
    "prefecture": "奈良県",
    "prefecture_kana": "ナラケン",
    "prefecture_code": 29,
    "city": "生駒郡平群町",
    "city_kana": "イコマグンヘグリチョウ",
    "town": "信貴畑",
    "town_kana": "シギハタ",
    "street": null,
    "office_name": null,
    "office_name_kana": null
  },
  "0923": {
    "postcode": "6360923",
    "prefecture": "奈良県",
    "prefecture_kana": "ナラケン",
    "prefecture_code": 29,
    "city": "生駒郡平群町",
    "city_kana": "イコマグンヘグリチョウ",
    "town": "信貴山",
    "town_kana": "シギサン",
    "street": null,
    "office_name": null,
    "office_name_kana": null
  },
  "0924": {
    "postcode": "6360924",
    "prefecture": "奈良県",
    "prefecture_kana": "ナラケン",
    "prefecture_code": 29,
    "city": "生駒郡平群町",
    "city_kana": "イコマグンヘグリチョウ",
    "town": "久安寺",
    "town_kana": "キュウアンジ",
    "street": null,
    "office_name": null,
    "office_name_kana": null
  },
  "0925": {
    "postcode": "6360925",
    "prefecture": "奈良県",
    "prefecture_kana": "ナラケン",
    "prefecture_code": 29,
    "city": "生駒郡平群町",
    "city_kana": "イコマグンヘグリチョウ",
    "town": "越木塚",
    "town_kana": "コシキヅカ",
    "street": null,
    "office_name": null,
    "office_name_kana": null
  },
  "0931": {
    "postcode": "6360931",
    "prefecture": "奈良県",
    "prefecture_kana": "ナラケン",
    "prefecture_code": 29,
    "city": "生駒郡平群町",
    "city_kana": "イコマグンヘグリチョウ",
    "town": "梨本",
    "town_kana": "ナシモト",
    "street": null,
    "office_name": null,
    "office_name_kana": null
  },
  "0932": {
    "postcode": "6360932",
    "prefecture": "奈良県",
    "prefecture_kana": "ナラケン",
    "prefecture_code": 29,
    "city": "生駒郡平群町",
    "city_kana": "イコマグンヘグリチョウ",
    "town": "吉新",
    "town_kana": "ヨシシン",
    "street": null,
    "office_name": null,
    "office_name_kana": null
  },
  "0933": {
    "postcode": "6360933",
    "prefecture": "奈良県",
    "prefecture_kana": "ナラケン",
    "prefecture_code": 29,
    "city": "生駒郡平群町",
    "city_kana": "イコマグンヘグリチョウ",
    "town": "下垣内",
    "town_kana": "シモガイト",
    "street": null,
    "office_name": null,
    "office_name_kana": null
  },
  "0934": {
    "postcode": "6360934",
    "prefecture": "奈良県",
    "prefecture_kana": "ナラケン",
    "prefecture_code": 29,
    "city": "生駒郡平群町",
    "city_kana": "イコマグンヘグリチョウ",
    "town": "初香台",
    "town_kana": "ハツカダイ",
    "street": null,
    "office_name": null,
    "office_name_kana": null
  },
  "0935": {
    "postcode": "6360935",
    "prefecture": "奈良県",
    "prefecture_kana": "ナラケン",
    "prefecture_code": 29,
    "city": "生駒郡平群町",
    "city_kana": "イコマグンヘグリチョウ",
    "town": "光ケ丘",
    "town_kana": "ヒカリガオカ",
    "street": null,
    "office_name": null,
    "office_name_kana": null
  },
  "0936": {
    "postcode": "6360936",
    "prefecture": "奈良県",
    "prefecture_kana": "ナラケン",
    "prefecture_code": 29,
    "city": "生駒郡平群町",
    "city_kana": "イコマグンヘグリチョウ",
    "town": "福貴",
    "town_kana": "フキ",
    "street": null,
    "office_name": null,
    "office_name_kana": null
  },
  "0937": {
    "postcode": "6360937",
    "prefecture": "奈良県",
    "prefecture_kana": "ナラケン",
    "prefecture_code": 29,
    "city": "生駒郡平群町",
    "city_kana": "イコマグンヘグリチョウ",
    "town": "福貴畑",
    "town_kana": "フキハタ",
    "street": null,
    "office_name": null,
    "office_name_kana": null
  },
  "0938": {
    "postcode": "6360938",
    "prefecture": "奈良県",
    "prefecture_kana": "ナラケン",
    "prefecture_code": 29,
    "city": "生駒郡平群町",
    "city_kana": "イコマグンヘグリチョウ",
    "town": "若葉台",
    "town_kana": "ワカバダイ",
    "street": null,
    "office_name": null,
    "office_name_kana": null
  },
  "0941": {
    "postcode": "6360941",
    "prefecture": "奈良県",
    "prefecture_kana": "ナラケン",
    "prefecture_code": 29,
    "city": "生駒郡平群町",
    "city_kana": "イコマグンヘグリチョウ",
    "town": "緑ケ丘",
    "town_kana": "ミドリガオカ",
    "street": null,
    "office_name": null,
    "office_name_kana": null
  },
  "0942": {
    "postcode": "6360942",
    "prefecture": "奈良県",
    "prefecture_kana": "ナラケン",
    "prefecture_code": 29,
    "city": "生駒郡平群町",
    "city_kana": "イコマグンヘグリチョウ",
    "town": "西向",
    "town_kana": "ニシムカイ",
    "street": null,
    "office_name": null,
    "office_name_kana": null
  },
  "0943": {
    "postcode": "6360943",
    "prefecture": "奈良県",
    "prefecture_kana": "ナラケン",
    "prefecture_code": 29,
    "city": "生駒郡平群町",
    "city_kana": "イコマグンヘグリチョウ",
    "town": "椿台",
    "town_kana": "ツバキダイ",
    "street": null,
    "office_name": null,
    "office_name_kana": null
  },
  "0944": {
    "postcode": "6360944",
    "prefecture": "奈良県",
    "prefecture_kana": "ナラケン",
    "prefecture_code": 29,
    "city": "生駒郡平群町",
    "city_kana": "イコマグンヘグリチョウ",
    "town": "櫟原",
    "town_kana": "イチハラ",
    "street": null,
    "office_name": null,
    "office_name_kana": null
  },
  "0945": {
    "postcode": "6360945",
    "prefecture": "奈良県",
    "prefecture_kana": "ナラケン",
    "prefecture_code": 29,
    "city": "生駒郡平群町",
    "city_kana": "イコマグンヘグリチョウ",
    "town": "鳴川",
    "town_kana": "ナルカワ",
    "street": null,
    "office_name": null,
    "office_name_kana": null
  },
  "8501": {
    "postcode": "6368501",
    "prefecture": "奈良県",
    "prefecture_kana": "ナラケン",
    "prefecture_code": 29,
    "city": "北葛城郡河合町",
    "city_kana": "キタカツラギグンカワイチョウ",
    "town": "池部",
    "town_kana": "イケベ",
    "street": "１丁目１−１",
    "office_name": "河合町役場",
    "office_name_kana": "カワイチヨウヤクバ"
  },
  "8503": {
    "postcode": "6368503",
    "prefecture": "奈良県",
    "prefecture_kana": "ナラケン",
    "prefecture_code": 29,
    "city": "生駒郡三郷町",
    "city_kana": "イコマグンサンゴウチョウ",
    "town": "立野北",
    "town_kana": "タツノキタ",
    "street": "３丁目１２−１",
    "office_name": "奈良産業大学",
    "office_name_kana": "ナラサンギヨウダイガク"
  },
  "8511": {
    "postcode": "6368511",
    "prefecture": "奈良県",
    "prefecture_kana": "ナラケン",
    "prefecture_code": 29,
    "city": "北葛城郡王寺町",
    "city_kana": "キタカツラギグンオウジチョウ",
    "town": "王寺",
    "town_kana": "オウジ",
    "street": "２丁目１−２３",
    "office_name": "王寺町役場",
    "office_name_kana": "オウジチヨウヤクバ"
  },
  "8535": {
    "postcode": "6368535",
    "prefecture": "奈良県",
    "prefecture_kana": "ナラケン",
    "prefecture_code": 29,
    "city": "生駒郡三郷町",
    "city_kana": "イコマグンサンゴウチョウ",
    "town": "勢野西",
    "town_kana": "セヤニシ",
    "street": "１丁目１−１",
    "office_name": "三郷町役場",
    "office_name_kana": "サンゴウチヨウヤクバ"
  },
  "8555": {
    "postcode": "6368555",
    "prefecture": "奈良県",
    "prefecture_kana": "ナラケン",
    "prefecture_code": 29,
    "city": "北葛城郡王寺町",
    "city_kana": "キタカツラギグンオウジチョウ",
    "town": "葛下",
    "town_kana": "カツシモ",
    "street": "１丁目７−１５",
    "office_name": "ＦＭ西大和　（株）　・ＦＭハイホー",
    "office_name_kana": "エフエムニシヤマト (カブ) ・エフエムハイホ-"
  },
  "8585": {
    "postcode": "6368585",
    "prefecture": "奈良県",
    "prefecture_kana": "ナラケン",
    "prefecture_code": 29,
    "city": "生駒郡平群町",
    "city_kana": "イコマグンヘグリチョウ",
    "town": "吉新",
    "town_kana": "ヨシシン",
    "street": "１丁目１−１",
    "office_name": "平群町役場",
    "office_name_kana": "ヘグリチヨウヤクバ"
  },
  "8798": {
    "postcode": "6368798",
    "prefecture": "奈良県",
    "prefecture_kana": "ナラケン",
    "prefecture_code": 29,
    "city": "北葛城郡河合町",
    "city_kana": "キタカツラギグンカワイチョウ",
    "town": "高塚台",
    "town_kana": "タカツカダイ",
    "street": "３丁目４−１",
    "office_name": "近畿郵政研修センター",
    "office_name_kana": "キンキユウセイケンシユウセンタ-"
  }
}