{
  "0000": {
    "postcode": "6370000",
    "prefecture": "奈良県",
    "prefecture_kana": "ナラケン",
    "prefecture_code": 29,
    "city": "五條市",
    "city_kana": "ゴジョウシ",
    "town": "",
    "town_kana": "",
    "street": null,
    "office_name": null,
    "office_name_kana": null
  },
  "0001": {
    "postcode": "6370001",
    "prefecture": "奈良県",
    "prefecture_kana": "ナラケン",
    "prefecture_code": 29,
    "city": "五條市",
    "city_kana": "ゴジョウシ",
    "town": "西河内町",
    "town_kana": "ニシカワチチョウ",
    "street": null,
    "office_name": null,
    "office_name_kana": null
  },
  "0002": {
    "postcode": "6370002",
    "prefecture": "奈良県",
    "prefecture_kana": "ナラケン",
    "prefecture_code": 29,
    "city": "五條市",
    "city_kana": "ゴジョウシ",
    "town": "三在町",
    "town_kana": "サンザイチョウ",
    "street": null,
    "office_name": null,
    "office_name_kana": null
  },
  "0003": {
    "postcode": "6370003",
    "prefecture": "奈良県",
    "prefecture_kana": "ナラケン",
    "prefecture_code": 29,
    "city": "五條市",
    "city_kana": "ゴジョウシ",
    "town": "宇野町",
    "town_kana": "ウノチョウ",
    "street": null,
    "office_name": null,
    "office_name_kana": null
  },
  "0004": [
    {
      "postcode": "6370004",
      "prefecture": "奈良県",
      "prefecture_kana": "ナラケン",
      "prefecture_code": 29,
      "city": "五條市",
      "city_kana": "ゴジョウシ",
      "town": "今井",
      "town_kana": "イマイ",
      "street": null,
      "office_name": null,
      "office_name_kana": null
    },
    {
      "postcode": "6370004",
      "prefecture": "奈良県",
      "prefecture_kana": "ナラケン",
      "prefecture_code": 29,
      "city": "五條市",
      "city_kana": "ゴジョウシ",
      "town": "今井町",
      "town_kana": "イマイチョウ",
      "street": null,
      "office_name": null,
      "office_name_kana": null
    }
  ],
  "0005": {
    "postcode": "6370005",
    "prefecture": "奈良県",
    "prefecture_kana": "ナラケン",
    "prefecture_code": 29,
    "city": "五條市",
    "city_kana": "ゴジョウシ",
    "town": "須恵",
    "town_kana": "スエ",
    "street": null,
    "office_name": null,
    "office_name_kana": null
  },
  "0006": {
    "postcode": "6370006",
    "prefecture": "奈良県",
    "prefecture_kana": "ナラケン",
    "prefecture_code": 29,
    "city": "五條市",
    "city_kana": "ゴジョウシ",
    "town": "岡口",
    "town_kana": "オカグチ",
    "street": null,
    "office_name": null,
    "office_name_kana": null
  },
  "0011": {
    "postcode": "6370011",
    "prefecture": "奈良県",
    "prefecture_kana": "ナラケン",
    "prefecture_code": 29,
    "city": "五條市",
    "city_kana": "ゴジョウシ",
    "town": "出屋敷町",
    "town_kana": "デヤシキチョウ",
    "street": null,
    "office_name": null,
    "office_name_kana": null
  },
  "0012": {
    "postcode": "6370012",
    "prefecture": "奈良県",
    "prefecture_kana": "ナラケン",
    "prefecture_code": 29,
    "city": "五條市",
    "city_kana": "ゴジョウシ",
    "town": "小山町",
    "town_kana": "コヤマチョウ",
    "street": null,
    "office_name": null,
    "office_name_kana": null
  },
  "0013": {
    "postcode": "6370013",
    "prefecture": "奈良県",
    "prefecture_kana": "ナラケン",
    "prefecture_code": 29,
    "city": "五條市",
    "city_kana": "ゴジョウシ",
    "town": "居伝町",
    "town_kana": "イデチョウ",
    "street": null,
    "office_name": null,
    "office_name_kana": null
  },
  "0014": {
    "postcode": "6370014",
    "prefecture": "奈良県",
    "prefecture_kana": "ナラケン",
    "prefecture_code": 29,
    "city": "五條市",
    "city_kana": "ゴジョウシ",
    "town": "住川町",
    "town_kana": "スガワチョウ",
    "street": null,
    "office_name": null,
    "office_name_kana": null
  },
  "0015": {
    "postcode": "6370015",
    "prefecture": "奈良県",
    "prefecture_kana": "ナラケン",
    "prefecture_code": 29,
    "city": "五條市",
    "city_kana": "ゴジョウシ",
    "town": "大野新田町",
    "town_kana": "オオノシンデンチョウ",
    "street": null,
    "office_name": null,
    "office_name_kana": null
  },
  "0016": {
    "postcode": "6370016",
    "prefecture": "奈良県",
    "prefecture_kana": "ナラケン",
    "prefecture_code": 29,
    "city": "五條市",
    "city_kana": "ゴジョウシ",
    "town": "近内町",
    "town_kana": "チカウチチョウ",
    "street": null,
    "office_name": null,
    "office_name_kana": null
  },
  "0017": {
    "postcode": "6370017",
    "prefecture": "奈良県",
    "prefecture_kana": "ナラケン",
    "prefecture_code": 29,
    "city": "五條市",
    "city_kana": "ゴジョウシ",
    "town": "西久留野町",
    "town_kana": "ニシクルノチョウ",
    "street": null,
    "office_name": null,
    "office_name_kana": null
  },
  "0018": {
    "postcode": "6370018",
    "prefecture": "奈良県",
    "prefecture_kana": "ナラケン",
    "prefecture_code": 29,
    "city": "五條市",
    "city_kana": "ゴジョウシ",
    "town": "久留野町",
    "town_kana": "クルノチョウ",
    "street": null,
    "office_name": null,
    "office_name_kana": null
  },
  "0019": {
    "postcode": "6370019",
    "prefecture": "奈良県",
    "prefecture_kana": "ナラケン",
    "prefecture_code": 29,
    "city": "五條市",
    "city_kana": "ゴジョウシ",
    "town": "小和町",
    "town_kana": "オワチョウ",
    "street": null,
    "office_name": null,
    "office_name_kana": null
  },
  "0020": {
    "postcode": "6370020",
    "prefecture": "奈良県",
    "prefecture_kana": "ナラケン",
    "prefecture_code": 29,
    "city": "五條市",
    "city_kana": "ゴジョウシ",
    "town": "西阿田町",
    "town_kana": "ニシアダチョウ",
    "street": null,
    "office_name": null,
    "office_name_kana": null
  },
  "0021": {
    "postcode": "6370021",
    "prefecture": "奈良県",
    "prefecture_kana": "ナラケン",
    "prefecture_code": 29,
    "city": "五條市",
    "city_kana": "ゴジョウシ",
    "town": "東阿田町",
    "town_kana": "ヒガシアダチョウ",
    "street": null,
    "office_name": null,
    "office_name_kana": null
  },
  "0022": {
    "postcode": "6370022",
    "prefecture": "奈良県",
    "prefecture_kana": "ナラケン",
    "prefecture_code": 29,
    "city": "五條市",
    "city_kana": "ゴジョウシ",
    "town": "八田町",
    "town_kana": "ハッタチョウ",
    "street": null,
    "office_name": null,
    "office_name_kana": null
  },
  "0023": {
    "postcode": "6370023",
    "prefecture": "奈良県",
    "prefecture_kana": "ナラケン",
    "prefecture_code": 29,
    "city": "五條市",
    "city_kana": "ゴジョウシ",
    "town": "南阿田町",
    "town_kana": "ミナミアダチョウ",
    "street": null,
    "office_name": null,
    "office_name_kana": null
  },
  "0024": {
    "postcode": "6370024",
    "prefecture": "奈良県",
    "prefecture_kana": "ナラケン",
    "prefecture_code": 29,
    "city": "五條市",
    "city_kana": "ゴジョウシ",
    "town": "滝町",
    "town_kana": "タキチョウ",
    "street": null,
    "office_name": null,
    "office_name_kana": null
  },
  "0025": {
    "postcode": "6370025",
    "prefecture": "奈良県",
    "prefecture_kana": "ナラケン",
    "prefecture_code": 29,
    "city": "五條市",
    "city_kana": "ゴジョウシ",
    "town": "車谷町",
    "town_kana": "クルマダニチョウ",
    "street": null,
    "office_name": null,
    "office_name_kana": null
  },
  "0026": {
    "postcode": "6370026",
    "prefecture": "奈良県",
    "prefecture_kana": "ナラケン",
    "prefecture_code": 29,
    "city": "五條市",
    "city_kana": "ゴジョウシ",
    "town": "湯谷市塚町",
    "town_kana": "ユタニイチヅカチョウ",
    "street": null,
    "office_name": null,
    "office_name_kana": null
  },
  "0027": {
    "postcode": "6370027",
    "prefecture": "奈良県",
    "prefecture_kana": "ナラケン",
    "prefecture_code": 29,
    "city": "五條市",
    "city_kana": "ゴジョウシ",
    "town": "島野町",
    "town_kana": "シマノチョウ",
    "street": null,
    "office_name": null,
    "office_name_kana": null
  },
  "0028": {
    "postcode": "6370028",
    "prefecture": "奈良県",
    "prefecture_kana": "ナラケン",
    "prefecture_code": 29,
    "city": "五條市",
    "city_kana": "ゴジョウシ",
    "town": "原町",
    "town_kana": "ハラチョウ",
    "street": null,
    "office_name": null,
    "office_name_kana": null
  },
  "0029": {
    "postcode": "6370029",
    "prefecture": "奈良県",
    "prefecture_kana": "ナラケン",
    "prefecture_code": 29,
    "city": "五條市",
    "city_kana": "ゴジョウシ",
    "town": "山田町",
    "town_kana": "ヤマダチョウ",
    "street": null,
    "office_name": null,
    "office_name_kana": null
  },
  "0031": {
    "postcode": "6370031",
    "prefecture": "奈良県",
    "prefecture_kana": "ナラケン",
    "prefecture_code": 29,
    "city": "五條市",
    "city_kana": "ゴジョウシ",
    "town": "小島町",
    "town_kana": "コジマチョウ",
    "street": null,
    "office_name": null,
    "office_name_kana": null
  },
  "0032": {
    "postcode": "6370032",
    "prefecture": "奈良県",
    "prefecture_kana": "ナラケン",
    "prefecture_code": 29,
    "city": "五條市",
    "city_kana": "ゴジョウシ",
    "town": "六倉町",
    "town_kana": "ムツクラチョウ",
    "street": null,
    "office_name": null,
    "office_name_kana": null
  },
  "0033": {
    "postcode": "6370033",
    "prefecture": "奈良県",
    "prefecture_kana": "ナラケン",
    "prefecture_code": 29,
    "city": "五條市",
    "city_kana": "ゴジョウシ",
    "town": "牧町",
    "town_kana": "マキチョウ",
    "street": null,
    "office_name": null,
    "office_name_kana": null
  },
  "0034": {
    "postcode": "6370034",
    "prefecture": "奈良県",
    "prefecture_kana": "ナラケン",
    "prefecture_code": 29,
    "city": "五條市",
    "city_kana": "ゴジョウシ",
    "town": "野原町",
    "town_kana": "ノハラチョウ",
    "street": null,
    "office_name": null,
    "office_name_kana": null
  },
  "0035": {
    "postcode": "6370035",
    "prefecture": "奈良県",
    "prefecture_kana": "ナラケン",
    "prefecture_code": 29,
    "city": "五條市",
    "city_kana": "ゴジョウシ",
    "town": "霊安寺町",
    "town_kana": "リョウアンジチョウ",
    "street": null,
    "office_name": null,
    "office_name_kana": null
  },
  "0036": {
    "postcode": "6370036",
    "prefecture": "奈良県",
    "prefecture_kana": "ナラケン",
    "prefecture_code": 29,
    "city": "五條市",
    "city_kana": "ゴジョウシ",
    "town": "野原西",
    "town_kana": "ノハラニシ",
    "street": null,
    "office_name": null,
    "office_name_kana": null
  },
  "0037": {
    "postcode": "6370037",
    "prefecture": "奈良県",
    "prefecture_kana": "ナラケン",
    "prefecture_code": 29,
    "city": "五條市",
    "city_kana": "ゴジョウシ",
    "town": "野原中",
    "town_kana": "ノハラナカ",
    "street": null,
    "office_name": null,
    "office_name_kana": null
  },
  "0038": {
    "postcode": "6370038",
    "prefecture": "奈良県",
    "prefecture_kana": "ナラケン",
    "prefecture_code": 29,
    "city": "五條市",
    "city_kana": "ゴジョウシ",
    "town": "野原東",
    "town_kana": "ノハラヒガシ",
    "street": null,
    "office_name": null,
    "office_name_kana": null
  },
  "0041": {
    "postcode": "6370041",
    "prefecture": "奈良県",
    "prefecture_kana": "ナラケン",
    "prefecture_code": 29,
    "city": "五條市",
    "city_kana": "ゴジョウシ",
    "town": "本町",
    "town_kana": "ホンマチ",
    "street": null,
    "office_name": null,
    "office_name_kana": null
  },
  "0042": {
    "postcode": "6370042",
    "prefecture": "奈良県",
    "prefecture_kana": "ナラケン",
    "prefecture_code": 29,
    "city": "五條市",
    "city_kana": "ゴジョウシ",
    "town": "五條",
    "town_kana": "ゴジョウ",
    "street": null,
    "office_name": null,
    "office_name_kana": null
  },
  "0043": {
    "postcode": "6370043",
    "prefecture": "奈良県",
    "prefecture_kana": "ナラケン",
    "prefecture_code": 29,
    "city": "五條市",
    "city_kana": "ゴジョウシ",
    "town": "新町",
    "town_kana": "シンマチ",
    "street": null,
    "office_name": null,
    "office_name_kana": null
  },
  "0051": {
    "postcode": "6370051",
    "prefecture": "奈良県",
    "prefecture_kana": "ナラケン",
    "prefecture_code": 29,
    "city": "五條市",
    "city_kana": "ゴジョウシ",
    "town": "御山町",
    "town_kana": "ミヤマチョウ",
    "street": null,
    "office_name": null,
    "office_name_kana": null
  },
  "0052": {
    "postcode": "6370052",
    "prefecture": "奈良県",
    "prefecture_kana": "ナラケン",
    "prefecture_code": 29,
    "city": "五條市",
    "city_kana": "ゴジョウシ",
    "town": "丹原町",
    "town_kana": "タンバラチョウ",
    "street": null,
    "office_name": null,
    "office_name_kana": null
  },
  "0053": {
    "postcode": "6370053",
    "prefecture": "奈良県",
    "prefecture_kana": "ナラケン",
    "prefecture_code": 29,
    "city": "五條市",
    "city_kana": "ゴジョウシ",
    "town": "生子町",
    "town_kana": "オブスチョウ",
    "street": null,
    "office_name": null,
    "office_name_kana": null
  },
  "0054": {
    "postcode": "6370054",
    "prefecture": "奈良県",
    "prefecture_kana": "ナラケン",
    "prefecture_code": 29,
    "city": "五條市",
    "city_kana": "ゴジョウシ",
    "town": "樫辻町",
    "town_kana": "カシツジチョウ",
    "street": null,
    "office_name": null,
    "office_name_kana": null
  },
  "0060": {
    "postcode": "6370060",
    "prefecture": "奈良県",
    "prefecture_kana": "ナラケン",
    "prefecture_code": 29,
    "city": "五條市",
    "city_kana": "ゴジョウシ",
    "town": "大津町",
    "town_kana": "オオヅチョウ",
    "street": null,
    "office_name": null,
    "office_name_kana": null
  },
  "0061": {
    "postcode": "6370061",
    "prefecture": "奈良県",
    "prefecture_kana": "ナラケン",
    "prefecture_code": 29,
    "city": "五條市",
    "city_kana": "ゴジョウシ",
    "town": "中町",
    "town_kana": "ナカチョウ",
    "street": null,
    "office_name": null,
    "office_name_kana": null
  },
  "0062": {
    "postcode": "6370062",
    "prefecture": "奈良県",
    "prefecture_kana": "ナラケン",
    "prefecture_code": 29,
    "city": "五條市",
    "city_kana": "ゴジョウシ",
    "town": "黒駒町",
    "town_kana": "クロマチョウ",
    "street": null,
    "office_name": null,
    "office_name_kana": null
  },
  "0063": {
    "postcode": "6370063",
    "prefecture": "奈良県",
    "prefecture_kana": "ナラケン",
    "prefecture_code": 29,
    "city": "五條市",
    "city_kana": "ゴジョウシ",
    "town": "大野町",
    "town_kana": "オオノチョウ",
    "street": null,
    "office_name": null,
    "office_name_kana": null
  },
  "0064": {
    "postcode": "6370064",
    "prefecture": "奈良県",
    "prefecture_kana": "ナラケン",
    "prefecture_code": 29,
    "city": "五條市",
    "city_kana": "ゴジョウシ",
    "town": "山陰町",
    "town_kana": "ヤマカゲチョウ",
    "street": null,
    "office_name": null,
    "office_name_kana": null
  },
  "0065": {
    "postcode": "6370065",
    "prefecture": "奈良県",
    "prefecture_kana": "ナラケン",
    "prefecture_code": 29,
    "city": "五條市",
    "city_kana": "ゴジョウシ",
    "town": "阪合部新田町",
    "town_kana": "サカアイベシンデンチョウ",
    "street": null,
    "office_name": null,
    "office_name_kana": null
  },
  "0066": {
    "postcode": "6370066",
    "prefecture": "奈良県",
    "prefecture_kana": "ナラケン",
    "prefecture_code": 29,
    "city": "五條市",
    "city_kana": "ゴジョウシ",
    "town": "大深町",
    "town_kana": "オオブカチョウ",
    "street": null,
    "office_name": null,
    "office_name_kana": null
  },
  "0067": {
    "postcode": "6370067",
    "prefecture": "奈良県",
    "prefecture_kana": "ナラケン",
    "prefecture_code": 29,
    "city": "五條市",
    "city_kana": "ゴジョウシ",
    "town": "田殿町",
    "town_kana": "タドノチョウ",
    "street": null,
    "office_name": null,
    "office_name_kana": null
  },
  "0068": {
    "postcode": "6370068",
    "prefecture": "奈良県",
    "prefecture_kana": "ナラケン",
    "prefecture_code": 29,
    "city": "五條市",
    "city_kana": "ゴジョウシ",
    "town": "火打町",
    "town_kana": "ヒウチチョウ",
    "street": null,
    "office_name": null,
    "office_name_kana": null
  },
  "0069": {
    "postcode": "6370069",
    "prefecture": "奈良県",
    "prefecture_kana": "ナラケン",
    "prefecture_code": 29,
    "city": "五條市",
    "city_kana": "ゴジョウシ",
    "town": "表野町",
    "town_kana": "ヒョウノチョウ",
    "street": null,
    "office_name": null,
    "office_name_kana": null
  },
  "0071": {
    "postcode": "6370071",
    "prefecture": "奈良県",
    "prefecture_kana": "ナラケン",
    "prefecture_code": 29,
    "city": "五條市",
    "city_kana": "ゴジョウシ",
    "town": "二見",
    "town_kana": "フタミ",
    "street": null,
    "office_name": null,
    "office_name_kana": null
  },
  "0072": {
    "postcode": "6370072",
    "prefecture": "奈良県",
    "prefecture_kana": "ナラケン",
    "prefecture_code": 29,
    "city": "五條市",
    "city_kana": "ゴジョウシ",
    "town": "犬飼町",
    "town_kana": "イヌカイチョウ",
    "street": null,
    "office_name": null,
    "office_name_kana": null
  },
  "0073": {
    "postcode": "6370073",
    "prefecture": "奈良県",
    "prefecture_kana": "ナラケン",
    "prefecture_code": 29,
    "city": "五條市",
    "city_kana": "ゴジョウシ",
    "town": "上野町",
    "town_kana": "コウヅケチョウ",
    "street": null,
    "office_name": null,
    "office_name_kana": null
  },
  "0074": {
    "postcode": "6370074",
    "prefecture": "奈良県",
    "prefecture_kana": "ナラケン",
    "prefecture_code": 29,
    "city": "五條市",
    "city_kana": "ゴジョウシ",
    "town": "相谷町",
    "town_kana": "アイタニチョウ",
    "street": null,
    "office_name": null,
    "office_name_kana": null
  },
  "0075": {
    "postcode": "6370075",
    "prefecture": "奈良県",
    "prefecture_kana": "ナラケン",
    "prefecture_code": 29,
    "city": "五條市",
    "city_kana": "ゴジョウシ",
    "town": "畑田町",
    "town_kana": "ハタケダチョウ",
    "street": null,
    "office_name": null,
    "office_name_kana": null
  },
  "0076": {
    "postcode": "6370076",
    "prefecture": "奈良県",
    "prefecture_kana": "ナラケン",
    "prefecture_code": 29,
    "city": "五條市",
    "city_kana": "ゴジョウシ",
    "town": "木ノ原町",
    "town_kana": "キノハラチョウ",
    "street": null,
    "office_name": null,
    "office_name_kana": null
  },
  "0077": {
    "postcode": "6370077",
    "prefecture": "奈良県",
    "prefecture_kana": "ナラケン",
    "prefecture_code": 29,
    "city": "五條市",
    "city_kana": "ゴジョウシ",
    "town": "大沢町",
    "town_kana": "オオザワチョウ",
    "street": null,
    "office_name": null,
    "office_name_kana": null
  },
  "0078": {
    "postcode": "6370078",
    "prefecture": "奈良県",
    "prefecture_kana": "ナラケン",
    "prefecture_code": 29,
    "city": "五條市",
    "city_kana": "ゴジョウシ",
    "town": "なつみ台",
    "town_kana": "ナツミダイ",
    "street": null,
    "office_name": null,
    "office_name_kana": null
  },
  "0081": {
    "postcode": "6370081",
    "prefecture": "奈良県",
    "prefecture_kana": "ナラケン",
    "prefecture_code": 29,
    "city": "五條市",
    "city_kana": "ゴジョウシ",
    "town": "上之町",
    "town_kana": "カミノチョウ",
    "street": null,
    "office_name": null,
    "office_name_kana": null
  },
  "0082": {
    "postcode": "6370082",
    "prefecture": "奈良県",
    "prefecture_kana": "ナラケン",
    "prefecture_code": 29,
    "city": "五條市",
    "city_kana": "ゴジョウシ",
    "town": "中之町",
    "town_kana": "ナカノチョウ",
    "street": null,
    "office_name": null,
    "office_name_kana": null
  },
  "0083": {
    "postcode": "6370083",
    "prefecture": "奈良県",
    "prefecture_kana": "ナラケン",
    "prefecture_code": 29,
    "city": "五條市",
    "city_kana": "ゴジョウシ",
    "town": "下之町",
    "town_kana": "シモノチョウ",
    "street": null,
    "office_name": null,
    "office_name_kana": null
  },
  "0084": {
    "postcode": "6370084",
    "prefecture": "奈良県",
    "prefecture_kana": "ナラケン",
    "prefecture_code": 29,
    "city": "五條市",
    "city_kana": "ゴジョウシ",
    "town": "釜窪町",
    "town_kana": "カマノクボチョウ",
    "street": null,
    "office_name": null,
    "office_name_kana": null
  },
  "0091": {
    "postcode": "6370091",
    "prefecture": "奈良県",
    "prefecture_kana": "ナラケン",
    "prefecture_code": 29,
    "city": "五條市",
    "city_kana": "ゴジョウシ",
    "town": "北山町",
    "town_kana": "キタヤマチョウ",
    "street": null,
    "office_name": null,
    "office_name_kana": null
  },
  "0092": {
    "postcode": "6370092",
    "prefecture": "奈良県",
    "prefecture_kana": "ナラケン",
    "prefecture_code": 29,
    "city": "五條市",
    "city_kana": "ゴジョウシ",
    "town": "岡町",
    "town_kana": "オカチョウ",
    "street": null,
    "office_name": null,
    "office_name_kana": null
  },
  "0093": {
    "postcode": "6370093",
    "prefecture": "奈良県",
    "prefecture_kana": "ナラケン",
    "prefecture_code": 29,
    "city": "五條市",
    "city_kana": "ゴジョウシ",
    "town": "田園",
    "town_kana": "デンエン",
    "street": null,
    "office_name": null,
    "office_name_kana": null
  },
  "0101": {
    "postcode": "6370101",
    "prefecture": "奈良県",
    "prefecture_kana": "ナラケン",
    "prefecture_code": 29,
    "city": "五條市",
    "city_kana": "ゴジョウシ",
    "town": "西吉野町大日川",
    "town_kana": "ニシヨシノチョウオビカワ",
    "street": null,
    "office_name": null,
    "office_name_kana": null
  },
  "0102": {
    "postcode": "6370102",
    "prefecture": "奈良県",
    "prefecture_kana": "ナラケン",
    "prefecture_code": 29,
    "city": "五條市",
    "city_kana": "ゴジョウシ",
    "town": "西吉野町黒淵",
    "town_kana": "ニシヨシノチョウクロブチ",
    "street": null,
    "office_name": null,
    "office_name_kana": null
  },
  "0103": {
    "postcode": "6370103",
    "prefecture": "奈良県",
    "prefecture_kana": "ナラケン",
    "prefecture_code": 29,
    "city": "五條市",
    "city_kana": "ゴジョウシ",
    "town": "西吉野町向加名生",
    "town_kana": "ニシヨシノチョウムカイアノウ",
    "street": null,
    "office_name": null,
    "office_name_kana": null
  },
  "0104": {
    "postcode": "6370104",
    "prefecture": "奈良県",
    "prefecture_kana": "ナラケン",
    "prefecture_code": 29,
    "city": "五條市",
    "city_kana": "ゴジョウシ",
    "town": "西吉野町屋那瀬",
    "town_kana": "ニシヨシノチョウヤナセ",
    "street": null,
    "office_name": null,
    "office_name_kana": null
  },
  "0105": {
    "postcode": "6370105",
    "prefecture": "奈良県",
    "prefecture_kana": "ナラケン",
    "prefecture_code": 29,
    "city": "五條市",
    "city_kana": "ゴジョウシ",
    "town": "西吉野町湯塩",
    "town_kana": "ニシヨシノチョウユシオ",
    "street": null,
    "office_name": null,
    "office_name_kana": null
  },
  "0111": {
    "postcode": "6370111",
    "prefecture": "奈良県",
    "prefecture_kana": "ナラケン",
    "prefecture_code": 29,
    "city": "五條市",
    "city_kana": "ゴジョウシ",
    "town": "西吉野町江出",
    "town_kana": "ニシヨシノチョウエズル",
    "street": null,
    "office_name": null,
    "office_name_kana": null
  },
  "0112": {
    "postcode": "6370112",
    "prefecture": "奈良県",
    "prefecture_kana": "ナラケン",
    "prefecture_code": 29,
    "city": "五條市",
    "city_kana": "ゴジョウシ",
    "town": "西吉野町老野",
    "town_kana": "ニシヨシノチョウオイノ",
    "street": null,
    "office_name": null,
    "office_name_kana": null
  },
  "0113": {
    "postcode": "6370113",
    "prefecture": "奈良県",
    "prefecture_kana": "ナラケン",
    "prefecture_code": 29,
    "city": "五條市",
    "city_kana": "ゴジョウシ",
    "town": "西吉野町神野",
    "town_kana": "ニシヨシノチョウコウノ",
    "street": null,
    "office_name": null,
    "office_name_kana": null
  },
  "0114": {
    "postcode": "6370114",
    "prefecture": "奈良県",
    "prefecture_kana": "ナラケン",
    "prefecture_code": 29,
    "city": "五條市",
    "city_kana": "ゴジョウシ",
    "town": "西吉野町滝",
    "town_kana": "ニシヨシノチョウタキ",
    "street": null,
    "office_name": null,
    "office_name_kana": null
  },
  "0115": {
    "postcode": "6370115",
    "prefecture": "奈良県",
    "prefecture_kana": "ナラケン",
    "prefecture_code": 29,
    "city": "五條市",
    "city_kana": "ゴジョウシ",
    "town": "西吉野町北曽木",
    "town_kana": "ニシヨシノチョウホクソギ",
    "street": null,
    "office_name": null,
    "office_name_kana": null
  },
  "0116": {
    "postcode": "6370116",
    "prefecture": "奈良県",
    "prefecture_kana": "ナラケン",
    "prefecture_code": 29,
    "city": "五條市",
    "city_kana": "ゴジョウシ",
    "town": "西吉野町和田",
    "town_kana": "ニシヨシノチョウワダ",
    "street": null,
    "office_name": null,
    "office_name_kana": null
  },
  "0117": {
    "postcode": "6370117",
    "prefecture": "奈良県",
    "prefecture_kana": "ナラケン",
    "prefecture_code": 29,
    "city": "五條市",
    "city_kana": "ゴジョウシ",
    "town": "西吉野町賀名生",
    "town_kana": "ニシヨシノチョウアノウ",
    "street": null,
    "office_name": null,
    "office_name_kana": null
  },
  "0221": {
    "postcode": "6370221",
    "prefecture": "奈良県",
    "prefecture_kana": "ナラケン",
    "prefecture_code": 29,
    "city": "五條市",
    "city_kana": "ゴジョウシ",
    "town": "西吉野町永谷",
    "town_kana": "ニシヨシノチョウエイタニ",
    "street": null,
    "office_name": null,
    "office_name_kana": null
  },
  "0222": {
    "postcode": "6370222",
    "prefecture": "奈良県",
    "prefecture_kana": "ナラケン",
    "prefecture_code": 29,
    "city": "五條市",
    "city_kana": "ゴジョウシ",
    "town": "西吉野町立川渡",
    "town_kana": "ニシヨシノチョウタテカワド",
    "street": null,
    "office_name": null,
    "office_name_kana": null
  },
  "0223": {
    "postcode": "6370223",
    "prefecture": "奈良県",
    "prefecture_kana": "ナラケン",
    "prefecture_code": 29,
    "city": "五條市",
    "city_kana": "ゴジョウシ",
    "town": "西吉野町本谷",
    "town_kana": "ニシヨシノチョウモトダニ",
    "street": null,
    "office_name": null,
    "office_name_kana": null
  },
  "0224": {
    "postcode": "6370224",
    "prefecture": "奈良県",
    "prefecture_kana": "ナラケン",
    "prefecture_code": 29,
    "city": "五條市",
    "city_kana": "ゴジョウシ",
    "town": "西吉野町茄子原",
    "town_kana": "ニシヨシノチョウナスハラ",
    "street": null,
    "office_name": null,
    "office_name_kana": null
  },
  "0225": {
    "postcode": "6370225",
    "prefecture": "奈良県",
    "prefecture_kana": "ナラケン",
    "prefecture_code": 29,
    "city": "五條市",
    "city_kana": "ゴジョウシ",
    "town": "西吉野町川股",
    "town_kana": "ニシヨシノチョウカワマタ",
    "street": null,
    "office_name": null,
    "office_name_kana": null
  },
  "0226": {
    "postcode": "6370226",
    "prefecture": "奈良県",
    "prefecture_kana": "ナラケン",
    "prefecture_code": 29,
    "city": "五條市",
    "city_kana": "ゴジョウシ",
    "town": "西吉野町西日裏",
    "town_kana": "ニシヨシノチョウニシヒウラ",
    "street": null,
    "office_name": null,
    "office_name_kana": null
  },
  "0227": {
    "postcode": "6370227",
    "prefecture": "奈良県",
    "prefecture_kana": "ナラケン",
    "prefecture_code": 29,
    "city": "五條市",
    "city_kana": "ゴジョウシ",
    "town": "西吉野町勢井",
    "town_kana": "ニシヨシノチョウセイ",
    "street": null,
    "office_name": null,
    "office_name_kana": null
  },
  "0230": {
    "postcode": "6370230",
    "prefecture": "奈良県",
    "prefecture_kana": "ナラケン",
    "prefecture_code": 29,
    "city": "五條市",
    "city_kana": "ゴジョウシ",
    "town": "西吉野町城戸",
    "town_kana": "ニシヨシノチョウジョウド",
    "street": null,
    "office_name": null,
    "office_name_kana": null
  },
  "0231": {
    "postcode": "6370231",
    "prefecture": "奈良県",
    "prefecture_kana": "ナラケン",
    "prefecture_code": 29,
    "city": "五條市",
    "city_kana": "ゴジョウシ",
    "town": "西吉野町川岸",
    "town_kana": "ニシヨシノチョウカワギシ",
    "street": null,
    "office_name": null,
    "office_name_kana": null
  },
  "0232": {
    "postcode": "6370232",
    "prefecture": "奈良県",
    "prefecture_kana": "ナラケン",
    "prefecture_code": 29,
    "city": "五條市",
    "city_kana": "ゴジョウシ",
    "town": "西吉野町津越",
    "town_kana": "ニシヨシノチョウツゴシ",
    "street": null,
    "office_name": null,
    "office_name_kana": null
  },
  "0233": {
    "postcode": "6370233",
    "prefecture": "奈良県",
    "prefecture_kana": "ナラケン",
    "prefecture_code": 29,
    "city": "五條市",
    "city_kana": "ゴジョウシ",
    "town": "西吉野町桧川迫",
    "town_kana": "ニシヨシノチョウヒカワセ",
    "street": null,
    "office_name": null,
    "office_name_kana": null
  },
  "0234": {
    "postcode": "6370234",
    "prefecture": "奈良県",
    "prefecture_kana": "ナラケン",
    "prefecture_code": 29,
    "city": "五條市",
    "city_kana": "ゴジョウシ",
    "town": "西吉野町大峯",
    "town_kana": "ニシヨシノチョウオオミネ",
    "street": null,
    "office_name": null,
    "office_name_kana": null
  },
  "0235": {
    "postcode": "6370235",
    "prefecture": "奈良県",
    "prefecture_kana": "ナラケン",
    "prefecture_code": 29,
    "city": "五條市",
    "city_kana": "ゴジョウシ",
    "town": "西吉野町平雄",
    "town_kana": "ニシヨシノチョウヒラオ",
    "street": null,
    "office_name": null,
    "office_name_kana": null
  },
  "0236": {
    "postcode": "6370236",
    "prefecture": "奈良県",
    "prefecture_kana": "ナラケン",
    "prefecture_code": 29,
    "city": "五條市",
    "city_kana": "ゴジョウシ",
    "town": "西吉野町阪巻",
    "town_kana": "ニシヨシノチョウサカマキ",
    "street": null,
    "office_name": null,
    "office_name_kana": null
  },
  "0237": {
    "postcode": "6370237",
    "prefecture": "奈良県",
    "prefecture_kana": "ナラケン",
    "prefecture_code": 29,
    "city": "五條市",
    "city_kana": "ゴジョウシ",
    "town": "西吉野町宗川野",
    "town_kana": "ニシヨシノチョウムネガワノ",
    "street": null,
    "office_name": null,
    "office_name_kana": null
  },
  "0238": {
    "postcode": "6370238",
    "prefecture": "奈良県",
    "prefecture_kana": "ナラケン",
    "prefecture_code": 29,
    "city": "五條市",
    "city_kana": "ゴジョウシ",
    "town": "西吉野町西野",
    "town_kana": "ニシヨシノチョウニシノ",
    "street": null,
    "office_name": null,
    "office_name_kana": null
  },
  "0239": {
    "postcode": "6370239",
    "prefecture": "奈良県",
    "prefecture_kana": "ナラケン",
    "prefecture_code": 29,
    "city": "五條市",
    "city_kana": "ゴジョウシ",
    "town": "西吉野町陰地",
    "town_kana": "ニシヨシノチョウオンジ",
    "street": null,
    "office_name": null,
    "office_name_kana": null
  },
  "0401": {
    "postcode": "6370401",
    "prefecture": "奈良県",
    "prefecture_kana": "ナラケン",
    "prefecture_code": 29,
    "city": "五條市",
    "city_kana": "ゴジョウシ",
    "town": "大塔町篠原",
    "town_kana": "オオトウチョウシノハラ",
    "street": null,
    "office_name": null,
    "office_name_kana": null
  },
  "0402": {
    "postcode": "6370402",
    "prefecture": "奈良県",
    "prefecture_kana": "ナラケン",
    "prefecture_code": 29,
    "city": "五條市",
    "city_kana": "ゴジョウシ",
    "town": "大塔町惣谷",
    "town_kana": "オオトウチョウソウタニ",
    "street": null,
    "office_name": null,
    "office_name_kana": null
  },
  "0403": {
    "postcode": "6370403",
    "prefecture": "奈良県",
    "prefecture_kana": "ナラケン",
    "prefecture_code": 29,
    "city": "五條市",
    "city_kana": "ゴジョウシ",
    "town": "大塔町中井傍示",
    "town_kana": "オオトウチョウナカイホウジ",
    "street": null,
    "office_name": null,
    "office_name_kana": null
  },
  "0404": {
    "postcode": "6370404",
    "prefecture": "奈良県",
    "prefecture_kana": "ナラケン",
    "prefecture_code": 29,
    "city": "五條市",
    "city_kana": "ゴジョウシ",
    "town": "大塔町中峯",
    "town_kana": "オオトウチョウナカミネ",
    "street": null,
    "office_name": null,
    "office_name_kana": null
  },
  "0405": {
    "postcode": "6370405",
    "prefecture": "奈良県",
    "prefecture_kana": "ナラケン",
    "prefecture_code": 29,
    "city": "五條市",
    "city_kana": "ゴジョウシ",
    "town": "大塔町宇井",
    "town_kana": "オオトウチョウウイ",
    "street": null,
    "office_name": null,
    "office_name_kana": null
  },
  "0406": {
    "postcode": "6370406",
    "prefecture": "奈良県",
    "prefecture_kana": "ナラケン",
    "prefecture_code": 29,
    "city": "五條市",
    "city_kana": "ゴジョウシ",
    "town": "大塔町清水",
    "town_kana": "オオトウチョウシミズ",
    "street": null,
    "office_name": null,
    "office_name_kana": null
  },
  "0407": {
    "postcode": "6370407",
    "prefecture": "奈良県",
    "prefecture_kana": "ナラケン",
    "prefecture_code": 29,
    "city": "五條市",
    "city_kana": "ゴジョウシ",
    "town": "大塔町閉君",
    "town_kana": "オオトウチョウトジキミ",
    "street": null,
    "office_name": null,
    "office_name_kana": null
  },
  "0408": {
    "postcode": "6370408",
    "prefecture": "奈良県",
    "prefecture_kana": "ナラケン",
    "prefecture_code": 29,
    "city": "五條市",
    "city_kana": "ゴジョウシ",
    "town": "大塔町辻堂",
    "town_kana": "オオトウチョウツジドウ",
    "street": null,
    "office_name": null,
    "office_name_kana": null
  },
  "0409": {
    "postcode": "6370409",
    "prefecture": "奈良県",
    "prefecture_kana": "ナラケン",
    "prefecture_code": 29,
    "city": "五條市",
    "city_kana": "ゴジョウシ",
    "town": "大塔町殿野",
    "town_kana": "オオトウチョウトノノ",
    "street": null,
    "office_name": null,
    "office_name_kana": null
  },
  "0411": {
    "postcode": "6370411",
    "prefecture": "奈良県",
    "prefecture_kana": "ナラケン",
    "prefecture_code": 29,
    "city": "五條市",
    "city_kana": "ゴジョウシ",
    "town": "大塔町堂平",
    "town_kana": "オオトウチョウドウヒラ",
    "street": null,
    "office_name": null,
    "office_name_kana": null
  },
  "0412": {
    "postcode": "6370412",
    "prefecture": "奈良県",
    "prefecture_kana": "ナラケン",
    "prefecture_code": 29,
    "city": "五條市",
    "city_kana": "ゴジョウシ",
    "town": "大塔町飛養曽",
    "town_kana": "オオトウチョウヒヨソ",
    "street": null,
    "office_name": null,
    "office_name_kana": null
  },
  "0413": {
    "postcode": "6370413",
    "prefecture": "奈良県",
    "prefecture_kana": "ナラケン",
    "prefecture_code": 29,
    "city": "五條市",
    "city_kana": "ゴジョウシ",
    "town": "大塔町引土",
    "town_kana": "オオトウチョウヒキツチ",
    "street": null,
    "office_name": null,
    "office_name_kana": null
  },
  "0414": {
    "postcode": "6370414",
    "prefecture": "奈良県",
    "prefecture_kana": "ナラケン",
    "prefecture_code": 29,
    "city": "五條市",
    "city_kana": "ゴジョウシ",
    "town": "大塔町猿谷",
    "town_kana": "オオトウチョウサルタニ",
    "street": null,
    "office_name": null,
    "office_name_kana": null
  },
  "0415": {
    "postcode": "6370415",
    "prefecture": "奈良県",
    "prefecture_kana": "ナラケン",
    "prefecture_code": 29,
    "city": "五條市",
    "city_kana": "ゴジョウシ",
    "town": "大塔町中原",
    "town_kana": "オオトウチョウナカバラ",
    "street": null,
    "office_name": null,
    "office_name_kana": null
  },
  "0416": {
    "postcode": "6370416",
    "prefecture": "奈良県",
    "prefecture_kana": "ナラケン",
    "prefecture_code": 29,
    "city": "五條市",
    "city_kana": "ゴジョウシ",
    "town": "大塔町小代",
    "town_kana": "オオトウチョウコダイ",
    "street": null,
    "office_name": null,
    "office_name_kana": null
  },
  "0417": {
    "postcode": "6370417",
    "prefecture": "奈良県",
    "prefecture_kana": "ナラケン",
    "prefecture_code": 29,
    "city": "五條市",
    "city_kana": "ゴジョウシ",
    "town": "大塔町阪本",
    "town_kana": "オオトウチョウサカモト",
    "street": null,
    "office_name": null,
    "office_name_kana": null
  },
  "0419": {
    "postcode": "6370419",
    "prefecture": "奈良県",
    "prefecture_kana": "ナラケン",
    "prefecture_code": 29,
    "city": "五條市",
    "city_kana": "ゴジョウシ",
    "town": "大塔町簾",
    "town_kana": "オオトウチョウスダレ",
    "street": null,
    "office_name": null,
    "office_name_kana": null
  },
  "0421": {
    "postcode": "6370421",
    "prefecture": "奈良県",
    "prefecture_kana": "ナラケン",
    "prefecture_code": 29,
    "city": "吉野郡野迫川村",
    "city_kana": "ヨシノグンノセガワムラ",
    "town": "今井",
    "town_kana": "イマイ",
    "street": null,
    "office_name": null,
    "office_name_kana": null
  },
  "0422": {
    "postcode": "6370422",
    "prefecture": "奈良県",
    "prefecture_kana": "ナラケン",
    "prefecture_code": 29,
    "city": "吉野郡野迫川村",
    "city_kana": "ヨシノグンノセガワムラ",
    "town": "平川",
    "town_kana": "ヒラカワ",
    "street": null,
    "office_name": null,
    "office_name_kana": null
  },
  "0423": {
    "postcode": "6370423",
    "prefecture": "奈良県",
    "prefecture_kana": "ナラケン",
    "prefecture_code": 29,
    "city": "吉野郡野迫川村",
    "city_kana": "ヨシノグンノセガワムラ",
    "town": "柞原",
    "town_kana": "ホソハラ",
    "street": null,
    "office_name": null,
    "office_name_kana": null
  },
  "0424": {
    "postcode": "6370424",
    "prefecture": "奈良県",
    "prefecture_kana": "ナラケン",
    "prefecture_code": 29,
    "city": "吉野郡野迫川村",
    "city_kana": "ヨシノグンノセガワムラ",
    "town": "中",
    "town_kana": "ナカ",
    "street": null,
    "office_name": null,
    "office_name_kana": null
  },
  "0425": {
    "postcode": "6370425",
    "prefecture": "奈良県",
    "prefecture_kana": "ナラケン",
    "prefecture_code": 29,
    "city": "吉野郡野迫川村",
    "city_kana": "ヨシノグンノセガワムラ",
    "town": "上",
    "town_kana": "カミ",
    "street": null,
    "office_name": null,
    "office_name_kana": null
  },
  "1101": {
    "postcode": "6371101",
    "prefecture": "奈良県",
    "prefecture_kana": "ナラケン",
    "prefecture_code": 29,
    "city": "吉野郡十津川村",
    "city_kana": "ヨシノグントツカワムラ",
    "town": "沼田原",
    "town_kana": "ヌタノハラ",
    "street": null,
    "office_name": null,
    "office_name_kana": null
  },
  "1102": {
    "postcode": "6371102",
    "prefecture": "奈良県",
    "prefecture_kana": "ナラケン",
    "prefecture_code": 29,
    "city": "吉野郡十津川村",
    "city_kana": "ヨシノグントツカワムラ",
    "town": "旭",
    "town_kana": "アサヒ",
    "street": null,
    "office_name": null,
    "office_name_kana": null
  },
  "1103": {
    "postcode": "6371103",
    "prefecture": "奈良県",
    "prefecture_kana": "ナラケン",
    "prefecture_code": 29,
    "city": "吉野郡十津川村",
    "city_kana": "ヨシノグントツカワムラ",
    "town": "上野地",
    "town_kana": "ウエノジ",
    "street": null,
    "office_name": null,
    "office_name_kana": null
  },
  "1104": {
    "postcode": "6371104",
    "prefecture": "奈良県",
    "prefecture_kana": "ナラケン",
    "prefecture_code": 29,
    "city": "吉野郡十津川村",
    "city_kana": "ヨシノグントツカワムラ",
    "town": "高津",
    "town_kana": "タコウツ",
    "street": null,
    "office_name": null,
    "office_name_kana": null
  },
  "1105": {
    "postcode": "6371105",
    "prefecture": "奈良県",
    "prefecture_kana": "ナラケン",
    "prefecture_code": 29,
    "city": "吉野郡十津川村",
    "city_kana": "ヨシノグントツカワムラ",
    "town": "林",
    "town_kana": "ハヤシ",
    "street": null,
    "office_name": null,
    "office_name_kana": null
  },
  "1106": {
    "postcode": "6371106",
    "prefecture": "奈良県",
    "prefecture_kana": "ナラケン",
    "prefecture_code": 29,
    "city": "吉野郡十津川村",
    "city_kana": "ヨシノグントツカワムラ",
    "town": "谷瀬",
    "town_kana": "タニゼ",
    "street": null,
    "office_name": null,
    "office_name_kana": null
  },
  "1107": {
    "postcode": "6371107",
    "prefecture": "奈良県",
    "prefecture_kana": "ナラケン",
    "prefecture_code": 29,
    "city": "吉野郡十津川村",
    "city_kana": "ヨシノグントツカワムラ",
    "town": "宇宮原",
    "town_kana": "ウグハラ",
    "street": null,
    "office_name": null,
    "office_name_kana": null
  },
  "1108": {
    "postcode": "6371108",
    "prefecture": "奈良県",
    "prefecture_kana": "ナラケン",
    "prefecture_code": 29,
    "city": "吉野郡十津川村",
    "city_kana": "ヨシノグントツカワムラ",
    "town": "長殿",
    "town_kana": "ナガトノ",
    "street": null,
    "office_name": null,
    "office_name_kana": null
  },
  "1211": {
    "postcode": "6371211",
    "prefecture": "奈良県",
    "prefecture_kana": "ナラケン",
    "prefecture_code": 29,
    "city": "吉野郡十津川村",
    "city_kana": "ヨシノグントツカワムラ",
    "town": "滝川",
    "town_kana": "タキガワ",
    "street": null,
    "office_name": null,
    "office_name_kana": null
  },
  "1212": {
    "postcode": "6371212",
    "prefecture": "奈良県",
    "prefecture_kana": "ナラケン",
    "prefecture_code": 29,
    "city": "吉野郡十津川村",
    "city_kana": "ヨシノグントツカワムラ",
    "town": "内原",
    "town_kana": "ナイバラ",
    "street": null,
    "office_name": null,
    "office_name_kana": null
  },
  "1213": {
    "postcode": "6371213",
    "prefecture": "奈良県",
    "prefecture_kana": "ナラケン",
    "prefecture_code": 29,
    "city": "吉野郡十津川村",
    "city_kana": "ヨシノグントツカワムラ",
    "town": "野尻",
    "town_kana": "ノジリ",
    "street": null,
    "office_name": null,
    "office_name_kana": null
  },
  "1214": {
    "postcode": "6371214",
    "prefecture": "奈良県",
    "prefecture_kana": "ナラケン",
    "prefecture_code": 29,
    "city": "吉野郡十津川村",
    "city_kana": "ヨシノグントツカワムラ",
    "town": "山崎",
    "town_kana": "ヤマサキ",
    "street": null,
    "office_name": null,
    "office_name_kana": null
  },
  "1215": {
    "postcode": "6371215",
    "prefecture": "奈良県",
    "prefecture_kana": "ナラケン",
    "prefecture_code": 29,
    "city": "吉野郡十津川村",
    "city_kana": "ヨシノグントツカワムラ",
    "town": "池穴",
    "town_kana": "イケアナ",
    "street": null,
    "office_name": null,
    "office_name_kana": null
  },
  "1216": {
    "postcode": "6371216",
    "prefecture": "奈良県",
    "prefecture_kana": "ナラケン",
    "prefecture_code": 29,
    "city": "吉野郡十津川村",
    "city_kana": "ヨシノグントツカワムラ",
    "town": "川津",
    "town_kana": "カワツ",
    "street": null,
    "office_name": null,
    "office_name_kana": null
  },
  "1217": {
    "postcode": "6371217",
    "prefecture": "奈良県",
    "prefecture_kana": "ナラケン",
    "prefecture_code": 29,
    "city": "吉野郡十津川村",
    "city_kana": "ヨシノグントツカワムラ",
    "town": "風屋",
    "town_kana": "カゼヤ",
    "street": null,
    "office_name": null,
    "office_name_kana": null
  },
  "1221": {
    "postcode": "6371221",
    "prefecture": "奈良県",
    "prefecture_kana": "ナラケン",
    "prefecture_code": 29,
    "city": "吉野郡十津川村",
    "city_kana": "ヨシノグントツカワムラ",
    "town": "内野",
    "town_kana": "ウチノ",
    "street": null,
    "office_name": null,
    "office_name_kana": null
  },
  "1222": {
    "postcode": "6371222",
    "prefecture": "奈良県",
    "prefecture_kana": "ナラケン",
    "prefecture_code": 29,
    "city": "吉野郡十津川村",
    "city_kana": "ヨシノグントツカワムラ",
    "town": "山天",
    "town_kana": "ヤマテン",
    "street": null,
    "office_name": null,
    "office_name_kana": null
  },
  "1223": {
    "postcode": "6371223",
    "prefecture": "奈良県",
    "prefecture_kana": "ナラケン",
    "prefecture_code": 29,
    "city": "吉野郡十津川村",
    "city_kana": "ヨシノグントツカワムラ",
    "town": "三浦",
    "town_kana": "ミウラ",
    "street": null,
    "office_name": null,
    "office_name_kana": null
  },
  "1224": {
    "postcode": "6371224",
    "prefecture": "奈良県",
    "prefecture_kana": "ナラケン",
    "prefecture_code": 29,
    "city": "吉野郡十津川村",
    "city_kana": "ヨシノグントツカワムラ",
    "town": "五百瀬",
    "town_kana": "イモゼ",
    "street": null,
    "office_name": null,
    "office_name_kana": null
  },
  "1225": {
    "postcode": "6371225",
    "prefecture": "奈良県",
    "prefecture_kana": "ナラケン",
    "prefecture_code": 29,
    "city": "吉野郡十津川村",
    "city_kana": "ヨシノグントツカワムラ",
    "town": "杉清",
    "town_kana": "スギセ",
    "street": null,
    "office_name": null,
    "office_name_kana": null
  },
  "1331": {
    "postcode": "6371331",
    "prefecture": "奈良県",
    "prefecture_kana": "ナラケン",
    "prefecture_code": 29,
    "city": "吉野郡十津川村",
    "city_kana": "ヨシノグントツカワムラ",
    "town": "大野",
    "town_kana": "オオノ",
    "street": null,
    "office_name": null,
    "office_name_kana": null
  },
  "1332": {
    "postcode": "6371332",
    "prefecture": "奈良県",
    "prefecture_kana": "ナラケン",
    "prefecture_code": 29,
    "city": "吉野郡十津川村",
    "city_kana": "ヨシノグントツカワムラ",
    "town": "武蔵",
    "town_kana": "ムサシ",
    "street": null,
    "office_name": null,
    "office_name_kana": null
  },
  "1333": {
    "postcode": "6371333",
    "prefecture": "奈良県",
    "prefecture_kana": "ナラケン",
    "prefecture_code": 29,
    "city": "吉野郡十津川村",
    "city_kana": "ヨシノグントツカワムラ",
    "town": "小原",
    "town_kana": "オハラ",
    "street": null,
    "office_name": null,
    "office_name_kana": null
  },
  "1334": {
    "postcode": "6371334",
    "prefecture": "奈良県",
    "prefecture_kana": "ナラケン",
    "prefecture_code": 29,
    "city": "吉野郡十津川村",
    "city_kana": "ヨシノグントツカワムラ",
    "town": "小森",
    "town_kana": "コモリ",
    "street": null,
    "office_name": null,
    "office_name_kana": null
  },
  "1335": {
    "postcode": "6371335",
    "prefecture": "奈良県",
    "prefecture_kana": "ナラケン",
    "prefecture_code": 29,
    "city": "吉野郡十津川村",
    "city_kana": "ヨシノグントツカワムラ",
    "town": "湯之原",
    "town_kana": "ユノハラ",
    "street": null,
    "office_name": null,
    "office_name_kana": null
  },
  "1336": {
    "postcode": "6371336",
    "prefecture": "奈良県",
    "prefecture_kana": "ナラケン",
    "prefecture_code": 29,
    "city": "吉野郡十津川村",
    "city_kana": "ヨシノグントツカワムラ",
    "town": "小井",
    "town_kana": "コイ",
    "street": null,
    "office_name": null,
    "office_name_kana": null
  },
  "1441": {
    "postcode": "6371441",
    "prefecture": "奈良県",
    "prefecture_kana": "ナラケン",
    "prefecture_code": 29,
    "city": "吉野郡十津川村",
    "city_kana": "ヨシノグントツカワムラ",
    "town": "小川",
    "town_kana": "オガワ",
    "street": null,
    "office_name": null,
    "office_name_kana": null
  },
  "1442": {
    "postcode": "6371442",
    "prefecture": "奈良県",
    "prefecture_kana": "ナラケン",
    "prefecture_code": 29,
    "city": "吉野郡十津川村",
    "city_kana": "ヨシノグントツカワムラ",
    "town": "高滝",
    "town_kana": "タカタキ",
    "street": null,
    "office_name": null,
    "office_name_kana": null
  },
  "1443": {
    "postcode": "6371443",
    "prefecture": "奈良県",
    "prefecture_kana": "ナラケン",
    "prefecture_code": 29,
    "city": "吉野郡十津川村",
    "city_kana": "ヨシノグントツカワムラ",
    "town": "折立",
    "town_kana": "オリタチ",
    "street": null,
    "office_name": null,
    "office_name_kana": null
  },
  "1444": {
    "postcode": "6371444",
    "prefecture": "奈良県",
    "prefecture_kana": "ナラケン",
    "prefecture_code": 29,
    "city": "吉野郡十津川村",
    "city_kana": "ヨシノグントツカワムラ",
    "town": "山手谷",
    "town_kana": "ヤマテダニ",
    "street": null,
    "office_name": null,
    "office_name_kana": null
  },
  "1445": {
    "postcode": "6371445",
    "prefecture": "奈良県",
    "prefecture_kana": "ナラケン",
    "prefecture_code": 29,
    "city": "吉野郡十津川村",
    "city_kana": "ヨシノグントツカワムラ",
    "town": "込之上",
    "town_kana": "コミノウエ",
    "street": null,
    "office_name": null,
    "office_name_kana": null
  },
  "1446": {
    "postcode": "6371446",
    "prefecture": "奈良県",
    "prefecture_kana": "ナラケン",
    "prefecture_code": 29,
    "city": "吉野郡十津川村",
    "city_kana": "ヨシノグントツカワムラ",
    "town": "樫原",
    "town_kana": "カシワラ",
    "street": null,
    "office_name": null,
    "office_name_kana": null
  },
  "1500": {
    "postcode": "6371500",
    "prefecture": "奈良県",
    "prefecture_kana": "ナラケン",
    "prefecture_code": 29,
    "city": "吉野郡十津川村",
    "city_kana": "ヨシノグントツカワムラ",
    "town": "",
    "town_kana": "",
    "street": null,
    "office_name": null,
    "office_name_kana": null
  },
  "1551": {
    "postcode": "6371551",
    "prefecture": "奈良県",
    "prefecture_kana": "ナラケン",
    "prefecture_code": 29,
    "city": "吉野郡十津川村",
    "city_kana": "ヨシノグントツカワムラ",
    "town": "那知合",
    "town_kana": "ナチアイ",
    "street": null,
    "office_name": null,
    "office_name_kana": null
  },
  "1552": {
    "postcode": "6371552",
    "prefecture": "奈良県",
    "prefecture_kana": "ナラケン",
    "prefecture_code": 29,
    "city": "吉野郡十津川村",
    "city_kana": "ヨシノグントツカワムラ",
    "town": "谷垣内",
    "town_kana": "タニガイト",
    "street": null,
    "office_name": null,
    "office_name_kana": null
  },
  "1553": {
    "postcode": "6371553",
    "prefecture": "奈良県",
    "prefecture_kana": "ナラケン",
    "prefecture_code": 29,
    "city": "吉野郡十津川村",
    "city_kana": "ヨシノグントツカワムラ",
    "town": "山手",
    "town_kana": "ヤマテ",
    "street": null,
    "office_name": null,
    "office_name_kana": null
  },
  "1554": {
    "postcode": "6371554",
    "prefecture": "奈良県",
    "prefecture_kana": "ナラケン",
    "prefecture_code": 29,
    "city": "吉野郡十津川村",
    "city_kana": "ヨシノグントツカワムラ",
    "town": "平谷",
    "town_kana": "ヒラタニ",
    "street": null,
    "office_name": null,
    "office_name_kana": null
  },
  "1555": {
    "postcode": "6371555",
    "prefecture": "奈良県",
    "prefecture_kana": "ナラケン",
    "prefecture_code": 29,
    "city": "吉野郡十津川村",
    "city_kana": "ヨシノグントツカワムラ",
    "town": "猿飼",
    "town_kana": "サルカイ",
    "street": null,
    "office_name": null,
    "office_name_kana": null
  },
  "1556": {
    "postcode": "6371556",
    "prefecture": "奈良県",
    "prefecture_kana": "ナラケン",
    "prefecture_code": 29,
    "city": "吉野郡十津川村",
    "city_kana": "ヨシノグントツカワムラ",
    "town": "桑畑",
    "town_kana": "クワハタ",
    "street": null,
    "office_name": null,
    "office_name_kana": null
  },
  "1557": {
    "postcode": "6371557",
    "prefecture": "奈良県",
    "prefecture_kana": "ナラケン",
    "prefecture_code": 29,
    "city": "吉野郡十津川村",
    "city_kana": "ヨシノグントツカワムラ",
    "town": "七色",
    "town_kana": "ナナイロ",
    "street": null,
    "office_name": null,
    "office_name_kana": null
  },
  "1558": {
    "postcode": "6371558",
    "prefecture": "奈良県",
    "prefecture_kana": "ナラケン",
    "prefecture_code": 29,
    "city": "吉野郡十津川村",
    "city_kana": "ヨシノグントツカワムラ",
    "town": "出谷",
    "town_kana": "デタニ",
    "street": null,
    "office_name": null,
    "office_name_kana": null
  },
  "1559": {
    "postcode": "6371559",
    "prefecture": "奈良県",
    "prefecture_kana": "ナラケン",
    "prefecture_code": 29,
    "city": "吉野郡十津川村",
    "city_kana": "ヨシノグントツカワムラ",
    "town": "上湯川",
    "town_kana": "カミユカワ",
    "street": null,
    "office_name": null,
    "office_name_kana": null
  },
  "1661": {
    "postcode": "6371661",
    "prefecture": "奈良県",
    "prefecture_kana": "ナラケン",
    "prefecture_code": 29,
    "city": "吉野郡十津川村",
    "city_kana": "ヨシノグントツカワムラ",
    "town": "重里",
    "town_kana": "シゲサト",
    "street": null,
    "office_name": null,
    "office_name_kana": null
  },
  "1662": {
    "postcode": "6371662",
    "prefecture": "奈良県",
    "prefecture_kana": "ナラケン",
    "prefecture_code": 29,
    "city": "吉野郡十津川村",
    "city_kana": "ヨシノグントツカワムラ",
    "town": "永井",
    "town_kana": "ナガイ",
    "street": null,
    "office_name": null,
    "office_name_kana": null
  },
  "1663": {
    "postcode": "6371663",
    "prefecture": "奈良県",
    "prefecture_kana": "ナラケン",
    "prefecture_code": 29,
    "city": "吉野郡十津川村",
    "city_kana": "ヨシノグントツカワムラ",
    "town": "玉垣内",
    "town_kana": "タマガイト",
    "street": null,
    "office_name": null,
    "office_name_kana": null
  },
  "1664": {
    "postcode": "6371664",
    "prefecture": "奈良県",
    "prefecture_kana": "ナラケン",
    "prefecture_code": 29,
    "city": "吉野郡十津川村",
    "city_kana": "ヨシノグントツカワムラ",
    "town": "今西",
    "town_kana": "イマニシ",
    "street": null,
    "office_name": null,
    "office_name_kana": null
  },
  "1665": {
    "postcode": "6371665",
    "prefecture": "奈良県",
    "prefecture_kana": "ナラケン",
    "prefecture_code": 29,
    "city": "吉野郡十津川村",
    "city_kana": "ヨシノグントツカワムラ",
    "town": "西中",
    "town_kana": "ニシナカ",
    "street": null,
    "office_name": null,
    "office_name_kana": null
  },
  "1666": {
    "postcode": "6371666",
    "prefecture": "奈良県",
    "prefecture_kana": "ナラケン",
    "prefecture_code": 29,
    "city": "吉野郡十津川村",
    "city_kana": "ヨシノグントツカワムラ",
    "town": "小山手",
    "town_kana": "コヤマテ",
    "street": null,
    "office_name": null,
    "office_name_kana": null
  },
  "1667": {
    "postcode": "6371667",
    "prefecture": "奈良県",
    "prefecture_kana": "ナラケン",
    "prefecture_code": 29,
    "city": "吉野郡十津川村",
    "city_kana": "ヨシノグントツカワムラ",
    "town": "小坪瀬",
    "town_kana": "コツボセ",
    "street": null,
    "office_name": null,
    "office_name_kana": null
  },
  "1668": {
    "postcode": "6371668",
    "prefecture": "奈良県",
    "prefecture_kana": "ナラケン",
    "prefecture_code": 29,
    "city": "吉野郡十津川村",
    "city_kana": "ヨシノグントツカワムラ",
    "town": "迫西川",
    "town_kana": "セニシガワ",
    "street": null,
    "office_name": null,
    "office_name_kana": null
  },
  "8501": {
    "postcode": "6378501",
    "prefecture": "奈良県",
    "prefecture_kana": "ナラケン",
    "prefecture_code": 29,
    "city": "五條市",
    "city_kana": "ゴジョウシ",
    "town": "岡口",
    "town_kana": "オカグチ",
    "street": "１丁目３番１号",
    "office_name": "五條市役所",
    "office_name_kana": "ゴジヨウシヤクシヨ"
  },
  "8511": {
    "postcode": "6378511",
    "prefecture": "奈良県",
    "prefecture_kana": "ナラケン",
    "prefecture_code": 29,
    "city": "五條市",
    "city_kana": "ゴジョウシ",
    "town": "野原町",
    "town_kana": "ノハラチョウ",
    "street": "１９７",
    "office_name": "五條病院",
    "office_name_kana": "ゴジヨウビヨウイン"
  }
}