{
  "0000": [
    {
      "postcode": "6380000",
      "prefecture": "奈良県",
      "prefecture_kana": "ナラケン",
      "prefecture_code": 29,
      "city": "吉野郡大淀町",
      "city_kana": "ヨシノグンオオヨドチョウ",
      "town": "",
      "town_kana": "",
      "street": null,
      "office_name": null,
      "office_name_kana": null
    },
    {
      "postcode": "6380000",
      "prefecture": "奈良県",
      "prefecture_kana": "ナラケン",
      "prefecture_code": 29,
      "city": "吉野郡下市町",
      "city_kana": "ヨシノグンシモイチチョウ",
      "town": "",
      "town_kana": "",
      "street": null,
      "office_name": null,
      "office_name_kana": null
    }
  ],
  "0001": {
    "postcode": "6380001",
    "prefecture": "奈良県",
    "prefecture_kana": "ナラケン",
    "prefecture_code": 29,
    "city": "吉野郡下市町",
    "city_kana": "ヨシノグンシモイチチョウ",
    "town": "阿知賀",
    "town_kana": "アチガ",
    "street": null,
    "office_name": null,
    "office_name_kana": null
  },
  "0002": {
    "postcode": "6380002",
    "prefecture": "奈良県",
    "prefecture_kana": "ナラケン",
    "prefecture_code": 29,
    "city": "吉野郡下市町",
    "city_kana": "ヨシノグンシモイチチョウ",
    "town": "小路",
    "town_kana": "ショウジ",
    "street": null,
    "office_name": null,
    "office_name_kana": null
  },
  "0003": {
    "postcode": "6380003",
    "prefecture": "奈良県",
    "prefecture_kana": "ナラケン",
    "prefecture_code": 29,
    "city": "吉野郡下市町",
    "city_kana": "ヨシノグンシモイチチョウ",
    "town": "善城",
    "town_kana": "ゼンギ",
    "street": null,
    "office_name": null,
    "office_name_kana": null
  },
  "0011": {
    "postcode": "6380011",
    "prefecture": "奈良県",
    "prefecture_kana": "ナラケン",
    "prefecture_code": 29,
    "city": "吉野郡下市町",
    "city_kana": "ヨシノグンシモイチチョウ",
    "town": "よ邑",
    "town_kana": "ヨムラ",
    "street": null,
    "office_name": null,
    "office_name_kana": null
  },
  "0012": {
    "postcode": "6380012",
    "prefecture": "奈良県",
    "prefecture_kana": "ナラケン",
    "prefecture_code": 29,
    "city": "吉野郡下市町",
    "city_kana": "ヨシノグンシモイチチョウ",
    "town": "岩森",
    "town_kana": "イワモリ",
    "street": null,
    "office_name": null,
    "office_name_kana": null
  },
  "0013": {
    "postcode": "6380013",
    "prefecture": "奈良県",
    "prefecture_kana": "ナラケン",
    "prefecture_code": 29,
    "city": "吉野郡下市町",
    "city_kana": "ヨシノグンシモイチチョウ",
    "town": "立石",
    "town_kana": "タテイシ",
    "street": null,
    "office_name": null,
    "office_name_kana": null
  },
  "0014": {
    "postcode": "6380014",
    "prefecture": "奈良県",
    "prefecture_kana": "ナラケン",
    "prefecture_code": 29,
    "city": "吉野郡下市町",
    "city_kana": "ヨシノグンシモイチチョウ",
    "town": "才谷",
    "town_kana": "サイタニ",
    "street": null,
    "office_name": null,
    "office_name_kana": null
  },
  "0015": {
    "postcode": "6380015",
    "prefecture": "奈良県",
    "prefecture_kana": "ナラケン",
    "prefecture_code": 29,
    "city": "吉野郡下市町",
    "city_kana": "ヨシノグンシモイチチョウ",
    "town": "広橋",
    "town_kana": "ヒロハシ",
    "street": null,
    "office_name": null,
    "office_name_kana": null
  },
  "0021": {
    "postcode": "6380021",
    "prefecture": "奈良県",
    "prefecture_kana": "ナラケン",
    "prefecture_code": 29,
    "city": "吉野郡下市町",
    "city_kana": "ヨシノグンシモイチチョウ",
    "town": "長谷",
    "town_kana": "ナガタニ",
    "street": null,
    "office_name": null,
    "office_name_kana": null
  },
  "0022": {
    "postcode": "6380022",
    "prefecture": "奈良県",
    "prefecture_kana": "ナラケン",
    "prefecture_code": 29,
    "city": "吉野郡下市町",
    "city_kana": "ヨシノグンシモイチチョウ",
    "town": "丹生",
    "town_kana": "ニウ",
    "street": null,
    "office_name": null,
    "office_name_kana": null
  },
  "0023": {
    "postcode": "6380023",
    "prefecture": "奈良県",
    "prefecture_kana": "ナラケン",
    "prefecture_code": 29,
    "city": "吉野郡下市町",
    "city_kana": "ヨシノグンシモイチチョウ",
    "town": "黒木",
    "town_kana": "クロギ",
    "street": null,
    "office_name": null,
    "office_name_kana": null
  },
  "0024": {
    "postcode": "6380024",
    "prefecture": "奈良県",
    "prefecture_kana": "ナラケン",
    "prefecture_code": 29,
    "city": "吉野郡下市町",
    "city_kana": "ヨシノグンシモイチチョウ",
    "town": "貝原",
    "town_kana": "カイバラ",
    "street": null,
    "office_name": null,
    "office_name_kana": null
  },
  "0025": {
    "postcode": "6380025",
    "prefecture": "奈良県",
    "prefecture_kana": "ナラケン",
    "prefecture_code": 29,
    "city": "吉野郡下市町",
    "city_kana": "ヨシノグンシモイチチョウ",
    "town": "谷",
    "town_kana": "タニ",
    "street": null,
    "office_name": null,
    "office_name_kana": null
  },
  "0026": {
    "postcode": "6380026",
    "prefecture": "奈良県",
    "prefecture_kana": "ナラケン",
    "prefecture_code": 29,
    "city": "吉野郡下市町",
    "city_kana": "ヨシノグンシモイチチョウ",
    "town": "西山",
    "town_kana": "ニシヤマ",
    "street": null,
    "office_name": null,
    "office_name_kana": null
  },
  "0031": {
    "postcode": "6380031",
    "prefecture": "奈良県",
    "prefecture_kana": "ナラケン",
    "prefecture_code": 29,
    "city": "吉野郡下市町",
    "city_kana": "ヨシノグンシモイチチョウ",
    "town": "栃本",
    "town_kana": "トチモト",
    "street": null,
    "office_name": null,
    "office_name_kana": null
  },
  "0032": {
    "postcode": "6380032",
    "prefecture": "奈良県",
    "prefecture_kana": "ナラケン",
    "prefecture_code": 29,
    "city": "吉野郡下市町",
    "city_kana": "ヨシノグンシモイチチョウ",
    "town": "原谷",
    "town_kana": "ハラダニ",
    "street": null,
    "office_name": null,
    "office_name_kana": null
  },
  "0033": {
    "postcode": "6380033",
    "prefecture": "奈良県",
    "prefecture_kana": "ナラケン",
    "prefecture_code": 29,
    "city": "吉野郡下市町",
    "city_kana": "ヨシノグンシモイチチョウ",
    "town": "梨子堂",
    "town_kana": "ナシドウ",
    "street": null,
    "office_name": null,
    "office_name_kana": null
  },
  "0034": {
    "postcode": "6380034",
    "prefecture": "奈良県",
    "prefecture_kana": "ナラケン",
    "prefecture_code": 29,
    "city": "吉野郡下市町",
    "city_kana": "ヨシノグンシモイチチョウ",
    "town": "平原",
    "town_kana": "ヘイバラ",
    "street": null,
    "office_name": null,
    "office_name_kana": null
  },
  "0035": {
    "postcode": "6380035",
    "prefecture": "奈良県",
    "prefecture_kana": "ナラケン",
    "prefecture_code": 29,
    "city": "吉野郡下市町",
    "city_kana": "ヨシノグンシモイチチョウ",
    "town": "栃原",
    "town_kana": "トチハラ",
    "street": null,
    "office_name": null,
    "office_name_kana": null
  },
  "0041": {
    "postcode": "6380041",
    "prefecture": "奈良県",
    "prefecture_kana": "ナラケン",
    "prefecture_code": 29,
    "city": "吉野郡下市町",
    "city_kana": "ヨシノグンシモイチチョウ",
    "town": "下市",
    "town_kana": "シモイチ",
    "street": null,
    "office_name": null,
    "office_name_kana": null
  },
  "0042": {
    "postcode": "6380042",
    "prefecture": "奈良県",
    "prefecture_kana": "ナラケン",
    "prefecture_code": 29,
    "city": "吉野郡下市町",
    "city_kana": "ヨシノグンシモイチチョウ",
    "town": "栄町",
    "town_kana": "サカエチョウ",
    "street": null,
    "office_name": null,
    "office_name_kana": null
  },
  "0043": {
    "postcode": "6380043",
    "prefecture": "奈良県",
    "prefecture_kana": "ナラケン",
    "prefecture_code": 29,
    "city": "吉野郡下市町",
    "city_kana": "ヨシノグンシモイチチョウ",
    "town": "大峯",
    "town_kana": "オオミネ",
    "street": null,
    "office_name": null,
    "office_name_kana": null
  },
  "0044": {
    "postcode": "6380044",
    "prefecture": "奈良県",
    "prefecture_kana": "ナラケン",
    "prefecture_code": 29,
    "city": "吉野郡下市町",
    "city_kana": "ヨシノグンシモイチチョウ",
    "town": "田中",
    "town_kana": "タナカ",
    "street": null,
    "office_name": null,
    "office_name_kana": null
  },
  "0045": {
    "postcode": "6380045",
    "prefecture": "奈良県",
    "prefecture_kana": "ナラケン",
    "prefecture_code": 29,
    "city": "吉野郡下市町",
    "city_kana": "ヨシノグンシモイチチョウ",
    "town": "新住",
    "town_kana": "アタラスミ",
    "street": null,
    "office_name": null,
    "office_name_kana": null
  },
  "0200": {
    "postcode": "6380200",
    "prefecture": "奈良県",
    "prefecture_kana": "ナラケン",
    "prefecture_code": 29,
    "city": "吉野郡黒滝村",
    "city_kana": "ヨシノグンクロタキムラ",
    "town": "",
    "town_kana": "",
    "street": null,
    "office_name": null,
    "office_name_kana": null
  },
  "0201": {
    "postcode": "6380201",
    "prefecture": "奈良県",
    "prefecture_kana": "ナラケン",
    "prefecture_code": 29,
    "city": "吉野郡黒滝村",
    "city_kana": "ヨシノグンクロタキムラ",
    "town": "槇尾",
    "town_kana": "マキオ",
    "street": null,
    "office_name": null,
    "office_name_kana": null
  },
  "0202": {
    "postcode": "6380202",
    "prefecture": "奈良県",
    "prefecture_kana": "ナラケン",
    "prefecture_code": 29,
    "city": "吉野郡黒滝村",
    "city_kana": "ヨシノグンクロタキムラ",
    "town": "脇川",
    "town_kana": "ワキガワ",
    "street": null,
    "office_name": null,
    "office_name_kana": null
  },
  "0203": {
    "postcode": "6380203",
    "prefecture": "奈良県",
    "prefecture_kana": "ナラケン",
    "prefecture_code": 29,
    "city": "吉野郡黒滝村",
    "city_kana": "ヨシノグンクロタキムラ",
    "town": "鳥住",
    "town_kana": "トリスミ",
    "street": null,
    "office_name": null,
    "office_name_kana": null
  },
  "0211": {
    "postcode": "6380211",
    "prefecture": "奈良県",
    "prefecture_kana": "ナラケン",
    "prefecture_code": 29,
    "city": "吉野郡黒滝村",
    "city_kana": "ヨシノグンクロタキムラ",
    "town": "赤滝",
    "town_kana": "アカタキ",
    "street": null,
    "office_name": null,
    "office_name_kana": null
  },
  "0221": {
    "postcode": "6380221",
    "prefecture": "奈良県",
    "prefecture_kana": "ナラケン",
    "prefecture_code": 29,
    "city": "吉野郡黒滝村",
    "city_kana": "ヨシノグンクロタキムラ",
    "town": "中戸",
    "town_kana": "ナカト",
    "street": null,
    "office_name": null,
    "office_name_kana": null
  },
  "0231": {
    "postcode": "6380231",
    "prefecture": "奈良県",
    "prefecture_kana": "ナラケン",
    "prefecture_code": 29,
    "city": "吉野郡黒滝村",
    "city_kana": "ヨシノグンクロタキムラ",
    "town": "笠木",
    "town_kana": "カサギ",
    "street": null,
    "office_name": null,
    "office_name_kana": null
  },
  "0232": {
    "postcode": "6380232",
    "prefecture": "奈良県",
    "prefecture_kana": "ナラケン",
    "prefecture_code": 29,
    "city": "吉野郡黒滝村",
    "city_kana": "ヨシノグンクロタキムラ",
    "town": "桂原",
    "town_kana": "カツラハラ",
    "street": null,
    "office_name": null,
    "office_name_kana": null
  },
  "0233": {
    "postcode": "6380233",
    "prefecture": "奈良県",
    "prefecture_kana": "ナラケン",
    "prefecture_code": 29,
    "city": "吉野郡黒滝村",
    "city_kana": "ヨシノグンクロタキムラ",
    "town": "長瀬",
    "town_kana": "ナガセ",
    "street": null,
    "office_name": null,
    "office_name_kana": null
  },
  "0241": {
    "postcode": "6380241",
    "prefecture": "奈良県",
    "prefecture_kana": "ナラケン",
    "prefecture_code": 29,
    "city": "吉野郡黒滝村",
    "city_kana": "ヨシノグンクロタキムラ",
    "town": "粟飯谷",
    "town_kana": "アワイダニ",
    "street": null,
    "office_name": null,
    "office_name_kana": null
  },
  "0242": {
    "postcode": "6380242",
    "prefecture": "奈良県",
    "prefecture_kana": "ナラケン",
    "prefecture_code": 29,
    "city": "吉野郡黒滝村",
    "city_kana": "ヨシノグンクロタキムラ",
    "town": "御吉野",
    "town_kana": "ミヨシノ",
    "street": null,
    "office_name": null,
    "office_name_kana": null
  },
  "0243": {
    "postcode": "6380243",
    "prefecture": "奈良県",
    "prefecture_kana": "ナラケン",
    "prefecture_code": 29,
    "city": "吉野郡黒滝村",
    "city_kana": "ヨシノグンクロタキムラ",
    "town": "堂原",
    "town_kana": "ドウバラ",
    "street": null,
    "office_name": null,
    "office_name_kana": null
  },
  "0251": {
    "postcode": "6380251",
    "prefecture": "奈良県",
    "prefecture_kana": "ナラケン",
    "prefecture_code": 29,
    "city": "吉野郡黒滝村",
    "city_kana": "ヨシノグンクロタキムラ",
    "town": "寺戸",
    "town_kana": "テラド",
    "street": null,
    "office_name": null,
    "office_name_kana": null
  },
  "0292": {
    "postcode": "6380292",
    "prefecture": "奈良県",
    "prefecture_kana": "ナラケン",
    "prefecture_code": 29,
    "city": "吉野郡黒滝村",
    "city_kana": "ヨシノグンクロタキムラ",
    "town": "大字寺戸",
    "town_kana": null,
    "street": "７７",
    "office_name": "黒滝村役場",
    "office_name_kana": "クロタキムラヤクバ"
  },
  "0300": {
    "postcode": "6380300",
    "prefecture": "奈良県",
    "prefecture_kana": "ナラケン",
    "prefecture_code": 29,
    "city": "吉野郡天川村",
    "city_kana": "ヨシノグンテンカワムラ",
    "town": "",
    "town_kana": "",
    "street": null,
    "office_name": null,
    "office_name_kana": null
  },
  "0301": {
    "postcode": "6380301",
    "prefecture": "奈良県",
    "prefecture_kana": "ナラケン",
    "prefecture_code": 29,
    "city": "吉野郡天川村",
    "city_kana": "ヨシノグンテンカワムラ",
    "town": "川合",
    "town_kana": "カワアイ",
    "street": null,
    "office_name": null,
    "office_name_kana": null
  },
  "0302": {
    "postcode": "6380302",
    "prefecture": "奈良県",
    "prefecture_kana": "ナラケン",
    "prefecture_code": 29,
    "city": "吉野郡天川村",
    "city_kana": "ヨシノグンテンカワムラ",
    "town": "中越",
    "town_kana": "ナカゴシ",
    "street": null,
    "office_name": null,
    "office_name_kana": null
  },
  "0303": {
    "postcode": "6380303",
    "prefecture": "奈良県",
    "prefecture_kana": "ナラケン",
    "prefecture_code": 29,
    "city": "吉野郡天川村",
    "city_kana": "ヨシノグンテンカワムラ",
    "town": "北角",
    "town_kana": "キトズミ",
    "street": null,
    "office_name": null,
    "office_name_kana": null
  },
  "0304": {
    "postcode": "6380304",
    "prefecture": "奈良県",
    "prefecture_kana": "ナラケン",
    "prefecture_code": 29,
    "city": "吉野郡天川村",
    "city_kana": "ヨシノグンテンカワムラ",
    "town": "南角",
    "town_kana": "ミノズミ",
    "street": null,
    "office_name": null,
    "office_name_kana": null
  },
  "0305": {
    "postcode": "6380305",
    "prefecture": "奈良県",
    "prefecture_kana": "ナラケン",
    "prefecture_code": 29,
    "city": "吉野郡天川村",
    "city_kana": "ヨシノグンテンカワムラ",
    "town": "沢谷",
    "town_kana": "サワタニ",
    "street": null,
    "office_name": null,
    "office_name_kana": null
  },
  "0311": {
    "postcode": "6380311",
    "prefecture": "奈良県",
    "prefecture_kana": "ナラケン",
    "prefecture_code": 29,
    "city": "吉野郡天川村",
    "city_kana": "ヨシノグンテンカワムラ",
    "town": "沖金",
    "town_kana": "オキガネ",
    "street": null,
    "office_name": null,
    "office_name_kana": null
  },
  "0312": {
    "postcode": "6380312",
    "prefecture": "奈良県",
    "prefecture_kana": "ナラケン",
    "prefecture_code": 29,
    "city": "吉野郡天川村",
    "city_kana": "ヨシノグンテンカワムラ",
    "town": "中谷",
    "town_kana": "ナカタニ",
    "street": null,
    "office_name": null,
    "office_name_kana": null
  },
  "0313": {
    "postcode": "6380313",
    "prefecture": "奈良県",
    "prefecture_kana": "ナラケン",
    "prefecture_code": 29,
    "city": "吉野郡天川村",
    "city_kana": "ヨシノグンテンカワムラ",
    "town": "北小原",
    "town_kana": "キタコバラ",
    "street": null,
    "office_name": null,
    "office_name_kana": null
  },
  "0314": {
    "postcode": "6380314",
    "prefecture": "奈良県",
    "prefecture_kana": "ナラケン",
    "prefecture_code": 29,
    "city": "吉野郡天川村",
    "city_kana": "ヨシノグンテンカワムラ",
    "town": "五色",
    "town_kana": "ゴシキ",
    "street": null,
    "office_name": null,
    "office_name_kana": null
  },
  "0315": {
    "postcode": "6380315",
    "prefecture": "奈良県",
    "prefecture_kana": "ナラケン",
    "prefecture_code": 29,
    "city": "吉野郡天川村",
    "city_kana": "ヨシノグンテンカワムラ",
    "town": "沢原",
    "town_kana": "サワバラ",
    "street": null,
    "office_name": null,
    "office_name_kana": null
  },
  "0321": {
    "postcode": "6380321",
    "prefecture": "奈良県",
    "prefecture_kana": "ナラケン",
    "prefecture_code": 29,
    "city": "吉野郡天川村",
    "city_kana": "ヨシノグンテンカワムラ",
    "town": "坪内",
    "town_kana": "ツボノウチ",
    "street": null,
    "office_name": null,
    "office_name_kana": null
  },
  "0322": {
    "postcode": "6380322",
    "prefecture": "奈良県",
    "prefecture_kana": "ナラケン",
    "prefecture_code": 29,
    "city": "吉野郡天川村",
    "city_kana": "ヨシノグンテンカワムラ",
    "town": "南日裏",
    "town_kana": "ミナミヒウラ",
    "street": null,
    "office_name": null,
    "office_name_kana": null
  },
  "0392": {
    "postcode": "6380392",
    "prefecture": "奈良県",
    "prefecture_kana": "ナラケン",
    "prefecture_code": 29,
    "city": "吉野郡天川村",
    "city_kana": "ヨシノグンテンカワムラ",
    "town": "大字沢谷",
    "town_kana": null,
    "street": "６０",
    "office_name": "天川村役場",
    "office_name_kana": "テンカワムラヤクバ"
  },
  "0431": {
    "postcode": "6380431",
    "prefecture": "奈良県",
    "prefecture_kana": "ナラケン",
    "prefecture_code": 29,
    "city": "吉野郡天川村",
    "city_kana": "ヨシノグンテンカワムラ",
    "town": "洞川",
    "town_kana": "ドロガワ",
    "street": null,
    "office_name": null,
    "office_name_kana": null
  },
  "0541": {
    "postcode": "6380541",
    "prefecture": "奈良県",
    "prefecture_kana": "ナラケン",
    "prefecture_code": 29,
    "city": "吉野郡天川村",
    "city_kana": "ヨシノグンテンカワムラ",
    "town": "九尾",
    "town_kana": "ツヅラオ",
    "street": null,
    "office_name": null,
    "office_name_kana": null
  },
  "0542": {
    "postcode": "6380542",
    "prefecture": "奈良県",
    "prefecture_kana": "ナラケン",
    "prefecture_code": 29,
    "city": "吉野郡天川村",
    "city_kana": "ヨシノグンテンカワムラ",
    "town": "栃尾",
    "town_kana": "トチオ",
    "street": null,
    "office_name": null,
    "office_name_kana": null
  },
  "0543": {
    "postcode": "6380543",
    "prefecture": "奈良県",
    "prefecture_kana": "ナラケン",
    "prefecture_code": 29,
    "city": "吉野郡天川村",
    "city_kana": "ヨシノグンテンカワムラ",
    "town": "和田",
    "town_kana": "ワダ",
    "street": null,
    "office_name": null,
    "office_name_kana": null
  },
  "0551": {
    "postcode": "6380551",
    "prefecture": "奈良県",
    "prefecture_kana": "ナラケン",
    "prefecture_code": 29,
    "city": "吉野郡天川村",
    "city_kana": "ヨシノグンテンカワムラ",
    "town": "籠山",
    "town_kana": "コモリヤマ",
    "street": null,
    "office_name": null,
    "office_name_kana": null
  },
  "0552": {
    "postcode": "6380552",
    "prefecture": "奈良県",
    "prefecture_kana": "ナラケン",
    "prefecture_code": 29,
    "city": "吉野郡天川村",
    "city_kana": "ヨシノグンテンカワムラ",
    "town": "庵住",
    "town_kana": "イオスミ",
    "street": null,
    "office_name": null,
    "office_name_kana": null
  },
  "0553": {
    "postcode": "6380553",
    "prefecture": "奈良県",
    "prefecture_kana": "ナラケン",
    "prefecture_code": 29,
    "city": "吉野郡天川村",
    "city_kana": "ヨシノグンテンカワムラ",
    "town": "山西",
    "town_kana": "ヤマニシ",
    "street": null,
    "office_name": null,
    "office_name_kana": null
  },
  "0561": {
    "postcode": "6380561",
    "prefecture": "奈良県",
    "prefecture_kana": "ナラケン",
    "prefecture_code": 29,
    "city": "吉野郡天川村",
    "city_kana": "ヨシノグンテンカワムラ",
    "town": "広瀬",
    "town_kana": "ヒロセ",
    "street": null,
    "office_name": null,
    "office_name_kana": null
  },
  "0562": {
    "postcode": "6380562",
    "prefecture": "奈良県",
    "prefecture_kana": "ナラケン",
    "prefecture_code": 29,
    "city": "吉野郡天川村",
    "city_kana": "ヨシノグンテンカワムラ",
    "town": "滝尾",
    "town_kana": "タキオ",
    "street": null,
    "office_name": null,
    "office_name_kana": null
  },
  "0563": {
    "postcode": "6380563",
    "prefecture": "奈良県",
    "prefecture_kana": "ナラケン",
    "prefecture_code": 29,
    "city": "吉野郡天川村",
    "city_kana": "ヨシノグンテンカワムラ",
    "town": "塩野",
    "town_kana": "シオノ",
    "street": null,
    "office_name": null,
    "office_name_kana": null
  },
  "0564": {
    "postcode": "6380564",
    "prefecture": "奈良県",
    "prefecture_kana": "ナラケン",
    "prefecture_code": 29,
    "city": "吉野郡天川村",
    "city_kana": "ヨシノグンテンカワムラ",
    "town": "塩谷",
    "town_kana": "シオダニ",
    "street": null,
    "office_name": null,
    "office_name_kana": null
  },
  "0641": {
    "postcode": "6380641",
    "prefecture": "奈良県",
    "prefecture_kana": "ナラケン",
    "prefecture_code": 29,
    "city": "五條市",
    "city_kana": "ゴジョウシ",
    "town": "西吉野町百谷",
    "town_kana": "ニシヨシノチョウモモダニ",
    "street": null,
    "office_name": null,
    "office_name_kana": null
  },
  "0642": {
    "postcode": "6380642",
    "prefecture": "奈良県",
    "prefecture_kana": "ナラケン",
    "prefecture_code": 29,
    "city": "五條市",
    "city_kana": "ゴジョウシ",
    "town": "西吉野町平沼田",
    "town_kana": "ニシヨシノチョウヒラヌマタ",
    "street": null,
    "office_name": null,
    "office_name_kana": null
  },
  "0643": {
    "postcode": "6380643",
    "prefecture": "奈良県",
    "prefecture_kana": "ナラケン",
    "prefecture_code": 29,
    "city": "五條市",
    "city_kana": "ゴジョウシ",
    "town": "西吉野町赤松",
    "town_kana": "ニシヨシノチョウアカマツ",
    "street": null,
    "office_name": null,
    "office_name_kana": null
  },
  "0644": {
    "postcode": "6380644",
    "prefecture": "奈良県",
    "prefecture_kana": "ナラケン",
    "prefecture_code": 29,
    "city": "五條市",
    "city_kana": "ゴジョウシ",
    "town": "西吉野町湯川",
    "town_kana": "ニシヨシノチョウユカワ",
    "street": null,
    "office_name": null,
    "office_name_kana": null
  },
  "0651": {
    "postcode": "6380651",
    "prefecture": "奈良県",
    "prefecture_kana": "ナラケン",
    "prefecture_code": 29,
    "city": "五條市",
    "city_kana": "ゴジョウシ",
    "town": "西吉野町唐戸",
    "town_kana": "ニシヨシノチョウカラト",
    "street": null,
    "office_name": null,
    "office_name_kana": null
  },
  "0652": {
    "postcode": "6380652",
    "prefecture": "奈良県",
    "prefecture_kana": "ナラケン",
    "prefecture_code": 29,
    "city": "五條市",
    "city_kana": "ゴジョウシ",
    "town": "西吉野町尼ケ生",
    "town_kana": "ニシヨシノチョウアマガショウ",
    "street": null,
    "office_name": null,
    "office_name_kana": null
  },
  "0653": {
    "postcode": "6380653",
    "prefecture": "奈良県",
    "prefecture_kana": "ナラケン",
    "prefecture_code": 29,
    "city": "五條市",
    "city_kana": "ゴジョウシ",
    "town": "西吉野町十日市",
    "town_kana": "ニシヨシノチョウトオカイチ",
    "street": null,
    "office_name": null,
    "office_name_kana": null
  },
  "0654": {
    "postcode": "6380654",
    "prefecture": "奈良県",
    "prefecture_kana": "ナラケン",
    "prefecture_code": 29,
    "city": "五條市",
    "city_kana": "ゴジョウシ",
    "town": "西吉野町南山",
    "town_kana": "ニシヨシノチョウミナミヤマ",
    "street": null,
    "office_name": null,
    "office_name_kana": null
  },
  "0655": {
    "postcode": "6380655",
    "prefecture": "奈良県",
    "prefecture_kana": "ナラケン",
    "prefecture_code": 29,
    "city": "五條市",
    "city_kana": "ゴジョウシ",
    "town": "西吉野町小古田",
    "town_kana": "ニシヨシノチョウオブルタ",
    "street": null,
    "office_name": null,
    "office_name_kana": null
  },
  "0656": {
    "postcode": "6380656",
    "prefecture": "奈良県",
    "prefecture_kana": "ナラケン",
    "prefecture_code": 29,
    "city": "五條市",
    "city_kana": "ゴジョウシ",
    "town": "西吉野町鹿場",
    "town_kana": "ニシヨシノチョウシシバ",
    "street": null,
    "office_name": null,
    "office_name_kana": null
  },
  "0657": {
    "postcode": "6380657",
    "prefecture": "奈良県",
    "prefecture_kana": "ナラケン",
    "prefecture_code": 29,
    "city": "五條市",
    "city_kana": "ゴジョウシ",
    "town": "西吉野町八ツ川",
    "town_kana": "ニシヨシノチョウヤツカワ",
    "street": null,
    "office_name": null,
    "office_name_kana": null
  },
  "0661": {
    "postcode": "6380661",
    "prefecture": "奈良県",
    "prefecture_kana": "ナラケン",
    "prefecture_code": 29,
    "city": "五條市",
    "city_kana": "ゴジョウシ",
    "town": "西吉野町西新子",
    "town_kana": "ニシヨシノチョウニシアタラシ",
    "street": null,
    "office_name": null,
    "office_name_kana": null
  },
  "0662": {
    "postcode": "6380662",
    "prefecture": "奈良県",
    "prefecture_kana": "ナラケン",
    "prefecture_code": 29,
    "city": "五條市",
    "city_kana": "ゴジョウシ",
    "town": "西吉野町夜中",
    "town_kana": "ニシヨシノチョウヨナカ",
    "street": null,
    "office_name": null,
    "office_name_kana": null
  },
  "0663": {
    "postcode": "6380663",
    "prefecture": "奈良県",
    "prefecture_kana": "ナラケン",
    "prefecture_code": 29,
    "city": "五條市",
    "city_kana": "ゴジョウシ",
    "town": "西吉野町奥谷",
    "town_kana": "ニシヨシノチョウオクダニ",
    "street": null,
    "office_name": null,
    "office_name_kana": null
  },
  "0801": {
    "postcode": "6380801",
    "prefecture": "奈良県",
    "prefecture_kana": "ナラケン",
    "prefecture_code": 29,
    "city": "吉野郡大淀町",
    "city_kana": "ヨシノグンオオヨドチョウ",
    "town": "芦原",
    "town_kana": "アシハラ",
    "street": null,
    "office_name": null,
    "office_name_kana": null
  },
  "0802": {
    "postcode": "6380802",
    "prefecture": "奈良県",
    "prefecture_kana": "ナラケン",
    "prefecture_code": 29,
    "city": "吉野郡大淀町",
    "city_kana": "ヨシノグンオオヨドチョウ",
    "town": "畑屋",
    "town_kana": "ハタヤ",
    "street": null,
    "office_name": null,
    "office_name_kana": null
  },
  "0803": {
    "postcode": "6380803",
    "prefecture": "奈良県",
    "prefecture_kana": "ナラケン",
    "prefecture_code": 29,
    "city": "吉野郡大淀町",
    "city_kana": "ヨシノグンオオヨドチョウ",
    "town": "越部",
    "town_kana": "コシベ",
    "street": null,
    "office_name": null,
    "office_name_kana": null
  },
  "0811": {
    "postcode": "6380811",
    "prefecture": "奈良県",
    "prefecture_kana": "ナラケン",
    "prefecture_code": 29,
    "city": "吉野郡大淀町",
    "city_kana": "ヨシノグンオオヨドチョウ",
    "town": "土田",
    "town_kana": "ツチダ",
    "street": null,
    "office_name": null,
    "office_name_kana": null
  },
  "0812": {
    "postcode": "6380812",
    "prefecture": "奈良県",
    "prefecture_kana": "ナラケン",
    "prefecture_code": 29,
    "city": "吉野郡大淀町",
    "city_kana": "ヨシノグンオオヨドチョウ",
    "town": "桧垣本",
    "town_kana": "ヒガイモト",
    "street": null,
    "office_name": null,
    "office_name_kana": null
  },
  "0821": {
    "postcode": "6380821",
    "prefecture": "奈良県",
    "prefecture_kana": "ナラケン",
    "prefecture_code": 29,
    "city": "吉野郡大淀町",
    "city_kana": "ヨシノグンオオヨドチョウ",
    "town": "下渕",
    "town_kana": "シモブチ",
    "street": null,
    "office_name": null,
    "office_name_kana": null
  },
  "0831": {
    "postcode": "6380831",
    "prefecture": "奈良県",
    "prefecture_kana": "ナラケン",
    "prefecture_code": 29,
    "city": "吉野郡大淀町",
    "city_kana": "ヨシノグンオオヨドチョウ",
    "town": "佐名伝",
    "town_kana": "サナテ",
    "street": null,
    "office_name": null,
    "office_name_kana": null
  },
  "0832": {
    "postcode": "6380832",
    "prefecture": "奈良県",
    "prefecture_kana": "ナラケン",
    "prefecture_code": 29,
    "city": "吉野郡大淀町",
    "city_kana": "ヨシノグンオオヨドチョウ",
    "town": "薬水",
    "town_kana": "クスリミズ",
    "street": null,
    "office_name": null,
    "office_name_kana": null
  },
  "0833": {
    "postcode": "6380833",
    "prefecture": "奈良県",
    "prefecture_kana": "ナラケン",
    "prefecture_code": 29,
    "city": "吉野郡大淀町",
    "city_kana": "ヨシノグンオオヨドチョウ",
    "town": "福神",
    "town_kana": "フクガミ",
    "street": null,
    "office_name": null,
    "office_name_kana": null
  },
  "0841": {
    "postcode": "6380841",
    "prefecture": "奈良県",
    "prefecture_kana": "ナラケン",
    "prefecture_code": 29,
    "city": "吉野郡大淀町",
    "city_kana": "ヨシノグンオオヨドチョウ",
    "town": "今木",
    "town_kana": "イマキ",
    "street": null,
    "office_name": null,
    "office_name_kana": null
  },
  "0842": {
    "postcode": "6380842",
    "prefecture": "奈良県",
    "prefecture_kana": "ナラケン",
    "prefecture_code": 29,
    "city": "吉野郡大淀町",
    "city_kana": "ヨシノグンオオヨドチョウ",
    "town": "大岩",
    "town_kana": "オオイワ",
    "street": null,
    "office_name": null,
    "office_name_kana": null
  },
  "0843": {
    "postcode": "6380843",
    "prefecture": "奈良県",
    "prefecture_kana": "ナラケン",
    "prefecture_code": 29,
    "city": "吉野郡大淀町",
    "city_kana": "ヨシノグンオオヨドチョウ",
    "town": "鉾立",
    "town_kana": "ホコタテ",
    "street": null,
    "office_name": null,
    "office_name_kana": null
  },
  "0851": {
    "postcode": "6380851",
    "prefecture": "奈良県",
    "prefecture_kana": "ナラケン",
    "prefecture_code": 29,
    "city": "吉野郡大淀町",
    "city_kana": "ヨシノグンオオヨドチョウ",
    "town": "岩壺",
    "town_kana": "イワツボ",
    "street": null,
    "office_name": null,
    "office_name_kana": null
  },
  "0852": {
    "postcode": "6380852",
    "prefecture": "奈良県",
    "prefecture_kana": "ナラケン",
    "prefecture_code": 29,
    "city": "吉野郡大淀町",
    "city_kana": "ヨシノグンオオヨドチョウ",
    "town": "持尾",
    "town_kana": "モチオ",
    "street": null,
    "office_name": null,
    "office_name_kana": null
  },
  "0853": {
    "postcode": "6380853",
    "prefecture": "奈良県",
    "prefecture_kana": "ナラケン",
    "prefecture_code": 29,
    "city": "吉野郡大淀町",
    "city_kana": "ヨシノグンオオヨドチョウ",
    "town": "矢走",
    "town_kana": "ヤバセ",
    "street": null,
    "office_name": null,
    "office_name_kana": null
  },
  "8501": {
    "postcode": "6388501",
    "prefecture": "奈良県",
    "prefecture_kana": "ナラケン",
    "prefecture_code": 29,
    "city": "吉野郡大淀町",
    "city_kana": "ヨシノグンオオヨドチョウ",
    "town": "大字桧垣本",
    "town_kana": null,
    "street": "２０９０",
    "office_name": "大淀町役場",
    "office_name_kana": "オオヨドチヨウヤクバ"
  },
  "8510": {
    "postcode": "6388510",
    "prefecture": "奈良県",
    "prefecture_kana": "ナラケン",
    "prefecture_code": 29,
    "city": "吉野郡下市町",
    "city_kana": "ヨシノグンシモイチチョウ",
    "town": "大字下市",
    "town_kana": null,
    "street": "１９６０",
    "office_name": "下市町役場",
    "office_name_kana": "シモイチチヨウヤクバ"
  },
  "8521": {
    "postcode": "6388521",
    "prefecture": "奈良県",
    "prefecture_kana": "ナラケン",
    "prefecture_code": 29,
    "city": "吉野郡大淀町",
    "city_kana": "ヨシノグンオオヨドチョウ",
    "town": "大字下渕",
    "town_kana": null,
    "street": "３５３番地の１",
    "office_name": "町立大淀病院",
    "office_name_kana": "チヨウリツオオヨドビヨウイン"
  },
  "8551": {
    "postcode": "6388551",
    "prefecture": "奈良県",
    "prefecture_kana": "ナラケン",
    "prefecture_code": 29,
    "city": "吉野郡大淀町",
    "city_kana": "ヨシノグンオオヨドチョウ",
    "town": "大字福神",
    "town_kana": null,
    "street": "８番１",
    "office_name": "南和広域医療組合南奈良総合医療センター",
    "office_name_kana": "ナンワコウイキイリヨウクミアイミナミナラソウゴウイリヨウセンタ-"
  },
  "8561": {
    "postcode": "6388561",
    "prefecture": "奈良県",
    "prefecture_kana": "ナラケン",
    "prefecture_code": 29,
    "city": "吉野郡大淀町",
    "city_kana": "ヨシノグンオオヨドチョウ",
    "town": "大字福神",
    "town_kana": null,
    "street": "７番１",
    "office_name": "南和広域医療組合南奈良看護専門学校",
    "office_name_kana": "ナンワコウイキイリヨウクミアイミナミナラカンゴセンモンガツコウ"
  }
}