{
  "0001": {
    "postcode": "6410001",
    "prefecture": "和歌山県",
    "prefecture_kana": "ワカヤマケン",
    "prefecture_code": 30,
    "city": "和歌山市",
    "city_kana": "ワカヤマシ",
    "town": "杭ノ瀬",
    "town_kana": "クイノセ",
    "street": null,
    "office_name": null,
    "office_name_kana": null
  },
  "0002": {
    "postcode": "6410002",
    "prefecture": "和歌山県",
    "prefecture_kana": "ワカヤマケン",
    "prefecture_code": 30,
    "city": "和歌山市",
    "city_kana": "ワカヤマシ",
    "town": "新中島",
    "town_kana": "シンナカジマ",
    "street": null,
    "office_name": null,
    "office_name_kana": null
  },
  "0003": {
    "postcode": "6410003",
    "prefecture": "和歌山県",
    "prefecture_kana": "ワカヤマケン",
    "prefecture_code": 30,
    "city": "和歌山市",
    "city_kana": "ワカヤマシ",
    "town": "坂田",
    "town_kana": "サカダ",
    "street": null,
    "office_name": null,
    "office_name_kana": null
  },
  "0004": {
    "postcode": "6410004",
    "prefecture": "和歌山県",
    "prefecture_kana": "ワカヤマケン",
    "prefecture_code": 30,
    "city": "和歌山市",
    "city_kana": "ワカヤマシ",
    "town": "和田",
    "town_kana": "ワダ",
    "street": null,
    "office_name": null,
    "office_name_kana": null
  },
  "0005": {
    "postcode": "6410005",
    "prefecture": "和歌山県",
    "prefecture_kana": "ワカヤマケン",
    "prefecture_code": 30,
    "city": "和歌山市",
    "city_kana": "ワカヤマシ",
    "town": "田尻",
    "town_kana": "タジリ",
    "street": null,
    "office_name": null,
    "office_name_kana": null
  },
  "0006": {
    "postcode": "6410006",
    "prefecture": "和歌山県",
    "prefecture_kana": "ワカヤマケン",
    "prefecture_code": 30,
    "city": "和歌山市",
    "city_kana": "ワカヤマシ",
    "town": "中島",
    "town_kana": "ナカジマ",
    "street": null,
    "office_name": null,
    "office_name_kana": null
  },
  "0007": {
    "postcode": "6410007",
    "prefecture": "和歌山県",
    "prefecture_kana": "ワカヤマケン",
    "prefecture_code": 30,
    "city": "和歌山市",
    "city_kana": "ワカヤマシ",
    "town": "小雑賀",
    "town_kana": "コザイカ",
    "street": null,
    "office_name": null,
    "office_name_kana": null
  },
  "0008": {
    "postcode": "6410008",
    "prefecture": "和歌山県",
    "prefecture_kana": "ワカヤマケン",
    "prefecture_code": 30,
    "city": "和歌山市",
    "city_kana": "ワカヤマシ",
    "town": "北中島",
    "town_kana": "キタナカジマ",
    "street": null,
    "office_name": null,
    "office_name_kana": null
  },
  "0011": {
    "postcode": "6410011",
    "prefecture": "和歌山県",
    "prefecture_kana": "ワカヤマケン",
    "prefecture_code": 30,
    "city": "和歌山市",
    "city_kana": "ワカヤマシ",
    "town": "三葛",
    "town_kana": "ミカズラ",
    "street": null,
    "office_name": null,
    "office_name_kana": null
  },
  "0012": {
    "postcode": "6410012",
    "prefecture": "和歌山県",
    "prefecture_kana": "ワカヤマケン",
    "prefecture_code": 30,
    "city": "和歌山市",
    "city_kana": "ワカヤマシ",
    "town": "紀三井寺",
    "town_kana": "キミイデラ",
    "street": null,
    "office_name": null,
    "office_name_kana": null
  },
  "0013": {
    "postcode": "6410013",
    "prefecture": "和歌山県",
    "prefecture_kana": "ワカヤマケン",
    "prefecture_code": 30,
    "city": "和歌山市",
    "city_kana": "ワカヤマシ",
    "town": "内原",
    "town_kana": "ウチハラ",
    "street": null,
    "office_name": null,
    "office_name_kana": null
  },
  "0014": {
    "postcode": "6410014",
    "prefecture": "和歌山県",
    "prefecture_kana": "ワカヤマケン",
    "prefecture_code": 30,
    "city": "和歌山市",
    "city_kana": "ワカヤマシ",
    "town": "毛見",
    "town_kana": "ケミ",
    "street": null,
    "office_name": null,
    "office_name_kana": null
  },
  "0015": {
    "postcode": "6410015",
    "prefecture": "和歌山県",
    "prefecture_kana": "ワカヤマケン",
    "prefecture_code": 30,
    "city": "和歌山市",
    "city_kana": "ワカヤマシ",
    "town": "布引",
    "town_kana": "ヌノヒキ",
    "street": null,
    "office_name": null,
    "office_name_kana": null
  },
  "0021": {
    "postcode": "6410021",
    "prefecture": "和歌山県",
    "prefecture_kana": "ワカヤマケン",
    "prefecture_code": 30,
    "city": "和歌山市",
    "city_kana": "ワカヤマシ",
    "town": "和歌浦東",
    "town_kana": "ワカウラヒガシ",
    "street": null,
    "office_name": null,
    "office_name_kana": null
  },
  "0022": {
    "postcode": "6410022",
    "prefecture": "和歌山県",
    "prefecture_kana": "ワカヤマケン",
    "prefecture_code": 30,
    "city": "和歌山市",
    "city_kana": "ワカヤマシ",
    "town": "和歌浦南",
    "town_kana": "ワカウラミナミ",
    "street": null,
    "office_name": null,
    "office_name_kana": null
  },
  "0023": {
    "postcode": "6410023",
    "prefecture": "和歌山県",
    "prefecture_kana": "ワカヤマケン",
    "prefecture_code": 30,
    "city": "和歌山市",
    "city_kana": "ワカヤマシ",
    "town": "新和歌浦",
    "town_kana": "シンワカウラ",
    "street": null,
    "office_name": null,
    "office_name_kana": null
  },
  "0024": {
    "postcode": "6410024",
    "prefecture": "和歌山県",
    "prefecture_kana": "ワカヤマケン",
    "prefecture_code": 30,
    "city": "和歌山市",
    "city_kana": "ワカヤマシ",
    "town": "和歌浦西",
    "town_kana": "ワカウラニシ",
    "street": null,
    "office_name": null,
    "office_name_kana": null
  },
  "0025": {
    "postcode": "6410025",
    "prefecture": "和歌山県",
    "prefecture_kana": "ワカヤマケン",
    "prefecture_code": 30,
    "city": "和歌山市",
    "city_kana": "ワカヤマシ",
    "town": "和歌浦中",
    "town_kana": "ワカウラナカ",
    "street": null,
    "office_name": null,
    "office_name_kana": null
  },
  "0031": {
    "postcode": "6410031",
    "prefecture": "和歌山県",
    "prefecture_kana": "ワカヤマケン",
    "prefecture_code": 30,
    "city": "和歌山市",
    "city_kana": "ワカヤマシ",
    "town": "西小二里",
    "town_kana": "ニシコニリ",
    "street": null,
    "office_name": null,
    "office_name_kana": null
  },
  "0032": {
    "postcode": "6410032",
    "prefecture": "和歌山県",
    "prefecture_kana": "ワカヤマケン",
    "prefecture_code": 30,
    "city": "和歌山市",
    "city_kana": "ワカヤマシ",
    "town": "東小二里町",
    "town_kana": "ヒガシコニリチョウ",
    "street": null,
    "office_name": null,
    "office_name_kana": null
  },
  "0033": {
    "postcode": "6410033",
    "prefecture": "和歌山県",
    "prefecture_kana": "ワカヤマケン",
    "prefecture_code": 30,
    "city": "和歌山市",
    "city_kana": "ワカヤマシ",
    "town": "松ケ丘",
    "town_kana": "マツガオカ",
    "street": null,
    "office_name": null,
    "office_name_kana": null
  },
  "0034": {
    "postcode": "6410034",
    "prefecture": "和歌山県",
    "prefecture_kana": "ワカヤマケン",
    "prefecture_code": 30,
    "city": "和歌山市",
    "city_kana": "ワカヤマシ",
    "town": "新高町",
    "town_kana": "ニイタカチョウ",
    "street": null,
    "office_name": null,
    "office_name_kana": null
  },
  "0035": {
    "postcode": "6410035",
    "prefecture": "和歌山県",
    "prefecture_kana": "ワカヤマケン",
    "prefecture_code": 30,
    "city": "和歌山市",
    "city_kana": "ワカヤマシ",
    "town": "関戸",
    "town_kana": "セキド",
    "street": null,
    "office_name": null,
    "office_name_kana": null
  },
  "0036": {
    "postcode": "6410036",
    "prefecture": "和歌山県",
    "prefecture_kana": "ワカヤマケン",
    "prefecture_code": 30,
    "city": "和歌山市",
    "city_kana": "ワカヤマシ",
    "town": "西浜",
    "town_kana": "ニシハマ",
    "street": null,
    "office_name": null,
    "office_name_kana": null
  },
  "0041": {
    "postcode": "6410041",
    "prefecture": "和歌山県",
    "prefecture_kana": "ワカヤマケン",
    "prefecture_code": 30,
    "city": "和歌山市",
    "city_kana": "ワカヤマシ",
    "town": "堀止南ノ丁",
    "town_kana": "ホリドメミナミノチョウ",
    "street": null,
    "office_name": null,
    "office_name_kana": null
  },
  "0042": {
    "postcode": "6410042",
    "prefecture": "和歌山県",
    "prefecture_kana": "ワカヤマケン",
    "prefecture_code": 30,
    "city": "和歌山市",
    "city_kana": "ワカヤマシ",
    "town": "新堀東",
    "town_kana": "シンボリヒガシ",
    "street": null,
    "office_name": null,
    "office_name_kana": null
  },
  "0043": {
    "postcode": "6410043",
    "prefecture": "和歌山県",
    "prefecture_kana": "ワカヤマケン",
    "prefecture_code": 30,
    "city": "和歌山市",
    "city_kana": "ワカヤマシ",
    "town": "宇須",
    "town_kana": "ウズ",
    "street": null,
    "office_name": null,
    "office_name_kana": null
  },
  "0044": {
    "postcode": "6410044",
    "prefecture": "和歌山県",
    "prefecture_kana": "ワカヤマケン",
    "prefecture_code": 30,
    "city": "和歌山市",
    "city_kana": "ワカヤマシ",
    "town": "今福",
    "town_kana": "イマブク",
    "street": null,
    "office_name": null,
    "office_name_kana": null
  },
  "0045": {
    "postcode": "6410045",
    "prefecture": "和歌山県",
    "prefecture_kana": "ワカヤマケン",
    "prefecture_code": 30,
    "city": "和歌山市",
    "city_kana": "ワカヤマシ",
    "town": "堀止西",
    "town_kana": "ホリドメニシ",
    "street": null,
    "office_name": null,
    "office_name_kana": null
  },
  "0051": {
    "postcode": "6410051",
    "prefecture": "和歌山県",
    "prefecture_kana": "ワカヤマケン",
    "prefecture_code": 30,
    "city": "和歌山市",
    "city_kana": "ワカヤマシ",
    "town": "西高松",
    "town_kana": "ニシタカマツ",
    "street": null,
    "office_name": null,
    "office_name_kana": null
  },
  "0052": {
    "postcode": "6410052",
    "prefecture": "和歌山県",
    "prefecture_kana": "ワカヤマケン",
    "prefecture_code": 30,
    "city": "和歌山市",
    "city_kana": "ワカヤマシ",
    "town": "東高松",
    "town_kana": "ヒガシタカマツ",
    "street": null,
    "office_name": null,
    "office_name_kana": null
  },
  "0053": {
    "postcode": "6410053",
    "prefecture": "和歌山県",
    "prefecture_kana": "ワカヤマケン",
    "prefecture_code": 30,
    "city": "和歌山市",
    "city_kana": "ワカヤマシ",
    "town": "打越町",
    "town_kana": "ウチコシチョウ",
    "street": null,
    "office_name": null,
    "office_name_kana": null
  },
  "0054": {
    "postcode": "6410054",
    "prefecture": "和歌山県",
    "prefecture_kana": "ワカヤマケン",
    "prefecture_code": 30,
    "city": "和歌山市",
    "city_kana": "ワカヤマシ",
    "town": "塩屋",
    "town_kana": "シオヤ",
    "street": null,
    "office_name": null,
    "office_name_kana": null
  },
  "0055": {
    "postcode": "6410055",
    "prefecture": "和歌山県",
    "prefecture_kana": "ワカヤマケン",
    "prefecture_code": 30,
    "city": "和歌山市",
    "city_kana": "ワカヤマシ",
    "town": "和歌川町",
    "town_kana": "ワカガワチョウ",
    "street": null,
    "office_name": null,
    "office_name_kana": null
  },
  "0056": {
    "postcode": "6410056",
    "prefecture": "和歌山県",
    "prefecture_kana": "ワカヤマケン",
    "prefecture_code": 30,
    "city": "和歌山市",
    "city_kana": "ワカヤマシ",
    "town": "秋葉町",
    "town_kana": "アキバチョウ",
    "street": null,
    "office_name": null,
    "office_name_kana": null
  },
  "0061": {
    "postcode": "6410061",
    "prefecture": "和歌山県",
    "prefecture_kana": "ワカヤマケン",
    "prefecture_code": 30,
    "city": "和歌山市",
    "city_kana": "ワカヤマシ",
    "town": "田野",
    "town_kana": "タノ",
    "street": null,
    "office_name": null,
    "office_name_kana": null
  },
  "0062": {
    "postcode": "6410062",
    "prefecture": "和歌山県",
    "prefecture_kana": "ワカヤマケン",
    "prefecture_code": 30,
    "city": "和歌山市",
    "city_kana": "ワカヤマシ",
    "town": "雑賀崎",
    "town_kana": "サイカザキ",
    "street": null,
    "office_name": null,
    "office_name_kana": null
  },
  "8501": {
    "postcode": "6418501",
    "prefecture": "和歌山県",
    "prefecture_kana": "ワカヤマケン",
    "prefecture_code": 30,
    "city": "和歌山市",
    "city_kana": "ワカヤマシ",
    "town": "中島",
    "town_kana": "ナカジマ",
    "street": "１８５−３",
    "office_name": "株式会社　オークワ本社",
    "office_name_kana": "カブシキガイシヤ オ-クワホンシヤ"
  },
  "8508": {
    "postcode": "6418508",
    "prefecture": "和歌山県",
    "prefecture_kana": "ワカヤマケン",
    "prefecture_code": 30,
    "city": "和歌山市",
    "city_kana": "ワカヤマシ",
    "town": "毛見",
    "town_kana": "ケミ",
    "street": "１５２０",
    "office_name": "ｈｉ−ｈｏインフォメーションデスク",
    "office_name_kana": "ハイホ-インフオメ-シヨンデスク"
  },
  "8509": {
    "postcode": "6418509",
    "prefecture": "和歌山県",
    "prefecture_kana": "ワカヤマケン",
    "prefecture_code": 30,
    "city": "和歌山市",
    "city_kana": "ワカヤマシ",
    "town": "紀三井寺",
    "town_kana": "キミイデラ",
    "street": "８１１−１",
    "office_name": "公立大学法人　和歌山県立　医科大学",
    "office_name_kana": "コウリツダイガクホウジン ワカヤマケンリツ イカダイガク"
  },
  "8510": {
    "postcode": "6418510",
    "prefecture": "和歌山県",
    "prefecture_kana": "ワカヤマケン",
    "prefecture_code": 30,
    "city": "和歌山市",
    "city_kana": "ワカヤマシ",
    "town": "紀三井寺",
    "town_kana": "キミイデラ",
    "street": "８１１−１",
    "office_name": "和歌山県立　医科大学付属病院",
    "office_name_kana": "ワカヤマケンリツ イカダイガクフゾクビヨウイン"
  },
  "8511": {
    "postcode": "6418511",
    "prefecture": "和歌山県",
    "prefecture_kana": "ワカヤマケン",
    "prefecture_code": 30,
    "city": "和歌山市",
    "city_kana": "ワカヤマシ",
    "town": "坂田",
    "town_kana": "サカダ",
    "street": "８５",
    "office_name": "株式会社　島精機製作所",
    "office_name_kana": "カブシキガイシヤ シマセイキセイサクシヨ"
  },
  "8770": {
    "postcode": "6418770",
    "prefecture": "和歌山県",
    "prefecture_kana": "ワカヤマケン",
    "prefecture_code": 30,
    "city": "和歌山市",
    "city_kana": "ワカヤマシ",
    "town": "塩屋",
    "town_kana": "シオヤ",
    "street": "５丁目５−４３",
    "office_name": "エフエム和歌山",
    "office_name_kana": "エフエムワカヤマ"
  }
}