{
  "0000": [
    {
      "postcode": "6430000",
      "prefecture": "和歌山県",
      "prefecture_kana": "ワカヤマケン",
      "prefecture_code": 30,
      "city": "有田郡湯浅町",
      "city_kana": "アリダグンユアサチョウ",
      "town": "",
      "town_kana": "",
      "street": null,
      "office_name": null,
      "office_name_kana": null
    },
    {
      "postcode": "6430000",
      "prefecture": "和歌山県",
      "prefecture_kana": "ワカヤマケン",
      "prefecture_code": 30,
      "city": "有田郡広川町",
      "city_kana": "アリダグンヒロガワチョウ",
      "town": "",
      "town_kana": "",
      "street": null,
      "office_name": null,
      "office_name_kana": null
    },
    {
      "postcode": "6430000",
      "prefecture": "和歌山県",
      "prefecture_kana": "ワカヤマケン",
      "prefecture_code": 30,
      "city": "有田郡有田川町",
      "city_kana": "アリダグンアリダガワチョウ",
      "town": "",
      "town_kana": "",
      "street": null,
      "office_name": null,
      "office_name_kana": null
    }
  ],
  "0001": {
    "postcode": "6430001",
    "prefecture": "和歌山県",
    "prefecture_kana": "ワカヤマケン",
    "prefecture_code": 30,
    "city": "有田郡湯浅町",
    "city_kana": "アリダグンユアサチョウ",
    "town": "山田",
    "town_kana": "ヤマダ",
    "street": null,
    "office_name": null,
    "office_name_kana": null
  },
  "0002": {
    "postcode": "6430002",
    "prefecture": "和歌山県",
    "prefecture_kana": "ワカヤマケン",
    "prefecture_code": 30,
    "city": "有田郡湯浅町",
    "city_kana": "アリダグンユアサチョウ",
    "town": "青木",
    "town_kana": "アオキ",
    "street": null,
    "office_name": null,
    "office_name_kana": null
  },
  "0003": {
    "postcode": "6430003",
    "prefecture": "和歌山県",
    "prefecture_kana": "ワカヤマケン",
    "prefecture_code": 30,
    "city": "有田郡湯浅町",
    "city_kana": "アリダグンユアサチョウ",
    "town": "別所",
    "town_kana": "ベッシヨ",
    "street": null,
    "office_name": null,
    "office_name_kana": null
  },
  "0004": {
    "postcode": "6430004",
    "prefecture": "和歌山県",
    "prefecture_kana": "ワカヤマケン",
    "prefecture_code": 30,
    "city": "有田郡湯浅町",
    "city_kana": "アリダグンユアサチョウ",
    "town": "湯浅",
    "town_kana": "ユアサ",
    "street": null,
    "office_name": null,
    "office_name_kana": null
  },
  "0005": {
    "postcode": "6430005",
    "prefecture": "和歌山県",
    "prefecture_kana": "ワカヤマケン",
    "prefecture_code": 30,
    "city": "有田郡湯浅町",
    "city_kana": "アリダグンユアサチョウ",
    "town": "栖原",
    "town_kana": "スハラ",
    "street": null,
    "office_name": null,
    "office_name_kana": null
  },
  "0006": {
    "postcode": "6430006",
    "prefecture": "和歌山県",
    "prefecture_kana": "ワカヤマケン",
    "prefecture_code": 30,
    "city": "有田郡湯浅町",
    "city_kana": "アリダグンユアサチョウ",
    "town": "田",
    "town_kana": "タ",
    "street": null,
    "office_name": null,
    "office_name_kana": null
  },
  "0007": {
    "postcode": "6430007",
    "prefecture": "和歌山県",
    "prefecture_kana": "ワカヤマケン",
    "prefecture_code": 30,
    "city": "有田郡湯浅町",
    "city_kana": "アリダグンユアサチョウ",
    "town": "吉川",
    "town_kana": "ヨシカワ",
    "street": null,
    "office_name": null,
    "office_name_kana": null
  },
  "0021": {
    "postcode": "6430021",
    "prefecture": "和歌山県",
    "prefecture_kana": "ワカヤマケン",
    "prefecture_code": 30,
    "city": "有田郡有田川町",
    "city_kana": "アリダグンアリダガワチョウ",
    "town": "下津野",
    "town_kana": "シモツノ",
    "street": null,
    "office_name": null,
    "office_name_kana": null
  },
  "0022": {
    "postcode": "6430022",
    "prefecture": "和歌山県",
    "prefecture_kana": "ワカヤマケン",
    "prefecture_code": 30,
    "city": "有田郡有田川町",
    "city_kana": "アリダグンアリダガワチョウ",
    "town": "奥",
    "town_kana": "オキ",
    "street": null,
    "office_name": null,
    "office_name_kana": null
  },
  "0023": {
    "postcode": "6430023",
    "prefecture": "和歌山県",
    "prefecture_kana": "ワカヤマケン",
    "prefecture_code": 30,
    "city": "有田郡有田川町",
    "city_kana": "アリダグンアリダガワチョウ",
    "town": "熊井",
    "town_kana": "クマイ",
    "street": null,
    "office_name": null,
    "office_name_kana": null
  },
  "0024": {
    "postcode": "6430024",
    "prefecture": "和歌山県",
    "prefecture_kana": "ワカヤマケン",
    "prefecture_code": 30,
    "city": "有田郡有田川町",
    "city_kana": "アリダグンアリダガワチョウ",
    "town": "水尻",
    "town_kana": "ミズシリ",
    "street": null,
    "office_name": null,
    "office_name_kana": null
  },
  "0025": {
    "postcode": "6430025",
    "prefecture": "和歌山県",
    "prefecture_kana": "ワカヤマケン",
    "prefecture_code": 30,
    "city": "有田郡有田川町",
    "city_kana": "アリダグンアリダガワチョウ",
    "town": "土生",
    "town_kana": "ハブ",
    "street": null,
    "office_name": null,
    "office_name_kana": null
  },
  "0026": {
    "postcode": "6430026",
    "prefecture": "和歌山県",
    "prefecture_kana": "ワカヤマケン",
    "prefecture_code": 30,
    "city": "有田郡有田川町",
    "city_kana": "アリダグンアリダガワチョウ",
    "town": "植野",
    "town_kana": "ウエノ",
    "street": null,
    "office_name": null,
    "office_name_kana": null
  },
  "0031": {
    "postcode": "6430031",
    "prefecture": "和歌山県",
    "prefecture_kana": "ワカヤマケン",
    "prefecture_code": 30,
    "city": "有田郡有田川町",
    "city_kana": "アリダグンアリダガワチョウ",
    "town": "野田",
    "town_kana": "ノダ",
    "street": null,
    "office_name": null,
    "office_name_kana": null
  },
  "0032": {
    "postcode": "6430032",
    "prefecture": "和歌山県",
    "prefecture_kana": "ワカヤマケン",
    "prefecture_code": 30,
    "city": "有田郡有田川町",
    "city_kana": "アリダグンアリダガワチョウ",
    "town": "天満",
    "town_kana": "テンマ",
    "street": null,
    "office_name": null,
    "office_name_kana": null
  },
  "0033": {
    "postcode": "6430033",
    "prefecture": "和歌山県",
    "prefecture_kana": "ワカヤマケン",
    "prefecture_code": 30,
    "city": "有田郡有田川町",
    "city_kana": "アリダグンアリダガワチョウ",
    "town": "明王寺",
    "town_kana": "ミョウジ",
    "street": null,
    "office_name": null,
    "office_name_kana": null
  },
  "0034": {
    "postcode": "6430034",
    "prefecture": "和歌山県",
    "prefecture_kana": "ワカヤマケン",
    "prefecture_code": 30,
    "city": "有田郡有田川町",
    "city_kana": "アリダグンアリダガワチョウ",
    "town": "小島",
    "town_kana": "オシマ",
    "street": null,
    "office_name": null,
    "office_name_kana": null
  },
  "0051": {
    "postcode": "6430051",
    "prefecture": "和歌山県",
    "prefecture_kana": "ワカヤマケン",
    "prefecture_code": 30,
    "city": "有田郡広川町",
    "city_kana": "アリダグンヒロガワチョウ",
    "town": "下津木",
    "town_kana": "シモツギ",
    "street": null,
    "office_name": null,
    "office_name_kana": null
  },
  "0052": {
    "postcode": "6430052",
    "prefecture": "和歌山県",
    "prefecture_kana": "ワカヤマケン",
    "prefecture_code": 30,
    "city": "有田郡広川町",
    "city_kana": "アリダグンヒロガワチョウ",
    "town": "上津木",
    "town_kana": "カミツギ",
    "street": null,
    "office_name": null,
    "office_name_kana": null
  },
  "0053": {
    "postcode": "6430053",
    "prefecture": "和歌山県",
    "prefecture_kana": "ワカヤマケン",
    "prefecture_code": 30,
    "city": "有田郡広川町",
    "city_kana": "アリダグンヒロガワチョウ",
    "town": "河瀬",
    "town_kana": "ゴノセ",
    "street": null,
    "office_name": null,
    "office_name_kana": null
  },
  "0054": {
    "postcode": "6430054",
    "prefecture": "和歌山県",
    "prefecture_kana": "ワカヤマケン",
    "prefecture_code": 30,
    "city": "有田郡広川町",
    "city_kana": "アリダグンヒロガワチョウ",
    "town": "前田",
    "town_kana": "マエダ",
    "street": null,
    "office_name": null,
    "office_name_kana": null
  },
  "0055": {
    "postcode": "6430055",
    "prefecture": "和歌山県",
    "prefecture_kana": "ワカヤマケン",
    "prefecture_code": 30,
    "city": "有田郡広川町",
    "city_kana": "アリダグンヒロガワチョウ",
    "town": "井関",
    "town_kana": "イセキ",
    "street": null,
    "office_name": null,
    "office_name_kana": null
  },
  "0061": {
    "postcode": "6430061",
    "prefecture": "和歌山県",
    "prefecture_kana": "ワカヤマケン",
    "prefecture_code": 30,
    "city": "有田郡広川町",
    "city_kana": "アリダグンヒロガワチョウ",
    "town": "柳瀬",
    "town_kana": "ヤナセ",
    "street": null,
    "office_name": null,
    "office_name_kana": null
  },
  "0062": {
    "postcode": "6430062",
    "prefecture": "和歌山県",
    "prefecture_kana": "ワカヤマケン",
    "prefecture_code": 30,
    "city": "有田郡広川町",
    "city_kana": "アリダグンヒロガワチョウ",
    "town": "殿",
    "town_kana": "トノ",
    "street": null,
    "office_name": null,
    "office_name_kana": null
  },
  "0063": {
    "postcode": "6430063",
    "prefecture": "和歌山県",
    "prefecture_kana": "ワカヤマケン",
    "prefecture_code": 30,
    "city": "有田郡広川町",
    "city_kana": "アリダグンヒロガワチョウ",
    "town": "南金屋",
    "town_kana": "ミナミカナヤ",
    "street": null,
    "office_name": null,
    "office_name_kana": null
  },
  "0064": {
    "postcode": "6430064",
    "prefecture": "和歌山県",
    "prefecture_kana": "ワカヤマケン",
    "prefecture_code": 30,
    "city": "有田郡広川町",
    "city_kana": "アリダグンヒロガワチョウ",
    "town": "上中野",
    "town_kana": "カミナカノ",
    "street": null,
    "office_name": null,
    "office_name_kana": null
  },
  "0065": {
    "postcode": "6430065",
    "prefecture": "和歌山県",
    "prefecture_kana": "ワカヤマケン",
    "prefecture_code": 30,
    "city": "有田郡広川町",
    "city_kana": "アリダグンヒロガワチョウ",
    "town": "東中",
    "town_kana": "ヒガシナカ",
    "street": null,
    "office_name": null,
    "office_name_kana": null
  },
  "0066": {
    "postcode": "6430066",
    "prefecture": "和歌山県",
    "prefecture_kana": "ワカヤマケン",
    "prefecture_code": 30,
    "city": "有田郡広川町",
    "city_kana": "アリダグンヒロガワチョウ",
    "town": "名島",
    "town_kana": "ナシマ",
    "street": null,
    "office_name": null,
    "office_name_kana": null
  },
  "0071": {
    "postcode": "6430071",
    "prefecture": "和歌山県",
    "prefecture_kana": "ワカヤマケン",
    "prefecture_code": 30,
    "city": "有田郡広川町",
    "city_kana": "アリダグンヒロガワチョウ",
    "town": "広",
    "town_kana": "ヒロ",
    "street": null,
    "office_name": null,
    "office_name_kana": null
  },
  "0072": {
    "postcode": "6430072",
    "prefecture": "和歌山県",
    "prefecture_kana": "ワカヤマケン",
    "prefecture_code": 30,
    "city": "有田郡広川町",
    "city_kana": "アリダグンヒロガワチョウ",
    "town": "山本",
    "town_kana": "ヤマモト",
    "street": null,
    "office_name": null,
    "office_name_kana": null
  },
  "0073": {
    "postcode": "6430073",
    "prefecture": "和歌山県",
    "prefecture_kana": "ワカヤマケン",
    "prefecture_code": 30,
    "city": "有田郡広川町",
    "city_kana": "アリダグンヒロガワチョウ",
    "town": "唐尾",
    "town_kana": "カロ",
    "street": null,
    "office_name": null,
    "office_name_kana": null
  },
  "0074": {
    "postcode": "6430074",
    "prefecture": "和歌山県",
    "prefecture_kana": "ワカヤマケン",
    "prefecture_code": 30,
    "city": "有田郡広川町",
    "city_kana": "アリダグンヒロガワチョウ",
    "town": "西広",
    "town_kana": "ニシヒロ",
    "street": null,
    "office_name": null,
    "office_name_kana": null
  },
  "0075": {
    "postcode": "6430075",
    "prefecture": "和歌山県",
    "prefecture_kana": "ワカヤマケン",
    "prefecture_code": 30,
    "city": "有田郡広川町",
    "city_kana": "アリダグンヒロガワチョウ",
    "town": "和田",
    "town_kana": "ワダ",
    "street": null,
    "office_name": null,
    "office_name_kana": null
  },
  "0121": {
    "postcode": "6430121",
    "prefecture": "和歌山県",
    "prefecture_kana": "ワカヤマケン",
    "prefecture_code": 30,
    "city": "有田郡有田川町",
    "city_kana": "アリダグンアリダガワチョウ",
    "town": "彦ケ瀬",
    "town_kana": "ヒコガセ",
    "street": null,
    "office_name": null,
    "office_name_kana": null
  },
  "0122": {
    "postcode": "6430122",
    "prefecture": "和歌山県",
    "prefecture_kana": "ワカヤマケン",
    "prefecture_code": 30,
    "city": "有田郡有田川町",
    "city_kana": "アリダグンアリダガワチョウ",
    "town": "瀬井",
    "town_kana": "セイ",
    "street": null,
    "office_name": null,
    "office_name_kana": null
  },
  "0123": {
    "postcode": "6430123",
    "prefecture": "和歌山県",
    "prefecture_kana": "ワカヤマケン",
    "prefecture_code": 30,
    "city": "有田郡有田川町",
    "city_kana": "アリダグンアリダガワチョウ",
    "town": "中",
    "town_kana": "ナカ",
    "street": null,
    "office_name": null,
    "office_name_kana": null
  },
  "0124": {
    "postcode": "6430124",
    "prefecture": "和歌山県",
    "prefecture_kana": "ワカヤマケン",
    "prefecture_code": 30,
    "city": "有田郡有田川町",
    "city_kana": "アリダグンアリダガワチョウ",
    "town": "中峯",
    "town_kana": "ナカミネ",
    "street": null,
    "office_name": null,
    "office_name_kana": null
  },
  "0125": {
    "postcode": "6430125",
    "prefecture": "和歌山県",
    "prefecture_kana": "ワカヤマケン",
    "prefecture_code": 30,
    "city": "有田郡有田川町",
    "city_kana": "アリダグンアリダガワチョウ",
    "town": "沼田",
    "town_kana": "ヌタダ",
    "street": null,
    "office_name": null,
    "office_name_kana": null
  },
  "0126": {
    "postcode": "6430126",
    "prefecture": "和歌山県",
    "prefecture_kana": "ワカヤマケン",
    "prefecture_code": 30,
    "city": "有田郡有田川町",
    "city_kana": "アリダグンアリダガワチョウ",
    "town": "本堂",
    "town_kana": "ホンドウ",
    "street": null,
    "office_name": null,
    "office_name_kana": null
  },
  "0127": {
    "postcode": "6430127",
    "prefecture": "和歌山県",
    "prefecture_kana": "ワカヤマケン",
    "prefecture_code": 30,
    "city": "有田郡有田川町",
    "city_kana": "アリダグンアリダガワチョウ",
    "town": "有原",
    "town_kana": "アリハラ",
    "street": null,
    "office_name": null,
    "office_name_kana": null
  },
  "0128": {
    "postcode": "6430128",
    "prefecture": "和歌山県",
    "prefecture_kana": "ワカヤマケン",
    "prefecture_code": 30,
    "city": "有田郡有田川町",
    "city_kana": "アリダグンアリダガワチョウ",
    "town": "西ケ峯",
    "town_kana": "ニシガミネ",
    "street": null,
    "office_name": null,
    "office_name_kana": null
  },
  "0129": {
    "postcode": "6430129",
    "prefecture": "和歌山県",
    "prefecture_kana": "ワカヤマケン",
    "prefecture_code": 30,
    "city": "有田郡有田川町",
    "city_kana": "アリダグンアリダガワチョウ",
    "town": "畦田",
    "town_kana": "アゼタ",
    "street": null,
    "office_name": null,
    "office_name_kana": null
  },
  "0131": {
    "postcode": "6430131",
    "prefecture": "和歌山県",
    "prefecture_kana": "ワカヤマケン",
    "prefecture_code": 30,
    "city": "有田郡有田川町",
    "city_kana": "アリダグンアリダガワチョウ",
    "town": "生石",
    "town_kana": "オイシ",
    "street": null,
    "office_name": null,
    "office_name_kana": null
  },
  "0132": {
    "postcode": "6430132",
    "prefecture": "和歌山県",
    "prefecture_kana": "ワカヤマケン",
    "prefecture_code": 30,
    "city": "有田郡有田川町",
    "city_kana": "アリダグンアリダガワチョウ",
    "town": "小原",
    "town_kana": "オハラ",
    "street": null,
    "office_name": null,
    "office_name_kana": null
  },
  "0133": {
    "postcode": "6430133",
    "prefecture": "和歌山県",
    "prefecture_kana": "ワカヤマケン",
    "prefecture_code": 30,
    "city": "有田郡有田川町",
    "city_kana": "アリダグンアリダガワチョウ",
    "town": "尾上",
    "town_kana": "オノウエ",
    "street": null,
    "office_name": null,
    "office_name_kana": null
  },
  "0134": {
    "postcode": "6430134",
    "prefecture": "和歌山県",
    "prefecture_kana": "ワカヤマケン",
    "prefecture_code": 30,
    "city": "有田郡有田川町",
    "city_kana": "アリダグンアリダガワチョウ",
    "town": "大薗",
    "town_kana": "オオソノ",
    "street": null,
    "office_name": null,
    "office_name_kana": null
  },
  "0135": {
    "postcode": "6430135",
    "prefecture": "和歌山県",
    "prefecture_kana": "ワカヤマケン",
    "prefecture_code": 30,
    "city": "有田郡有田川町",
    "city_kana": "アリダグンアリダガワチョウ",
    "town": "大西",
    "town_kana": "オオニシ",
    "street": null,
    "office_name": null,
    "office_name_kana": null
  },
  "0136": {
    "postcode": "6430136",
    "prefecture": "和歌山県",
    "prefecture_kana": "ワカヤマケン",
    "prefecture_code": 30,
    "city": "有田郡有田川町",
    "city_kana": "アリダグンアリダガワチョウ",
    "town": "青田",
    "town_kana": "アオタ",
    "street": null,
    "office_name": null,
    "office_name_kana": null
  },
  "0137": {
    "postcode": "6430137",
    "prefecture": "和歌山県",
    "prefecture_kana": "ワカヤマケン",
    "prefecture_code": 30,
    "city": "有田郡有田川町",
    "city_kana": "アリダグンアリダガワチョウ",
    "town": "延坂",
    "town_kana": "ノブサカ",
    "street": null,
    "office_name": null,
    "office_name_kana": null
  },
  "0141": {
    "postcode": "6430141",
    "prefecture": "和歌山県",
    "prefecture_kana": "ワカヤマケン",
    "prefecture_code": 30,
    "city": "有田郡有田川町",
    "city_kana": "アリダグンアリダガワチョウ",
    "town": "伏羊",
    "town_kana": "ブヨウ",
    "street": null,
    "office_name": null,
    "office_name_kana": null
  },
  "0142": {
    "postcode": "6430142",
    "prefecture": "和歌山県",
    "prefecture_kana": "ワカヤマケン",
    "prefecture_code": 30,
    "city": "有田郡有田川町",
    "city_kana": "アリダグンアリダガワチョウ",
    "town": "小川",
    "town_kana": "オガワ",
    "street": null,
    "office_name": null,
    "office_name_kana": null
  },
  "0143": {
    "postcode": "6430143",
    "prefecture": "和歌山県",
    "prefecture_kana": "ワカヤマケン",
    "prefecture_code": 30,
    "city": "有田郡有田川町",
    "city_kana": "アリダグンアリダガワチョウ",
    "town": "中野",
    "town_kana": "ナカノ",
    "street": null,
    "office_name": null,
    "office_name_kana": null
  },
  "0144": {
    "postcode": "6430144",
    "prefecture": "和歌山県",
    "prefecture_kana": "ワカヤマケン",
    "prefecture_code": 30,
    "city": "有田郡有田川町",
    "city_kana": "アリダグンアリダガワチョウ",
    "town": "市場",
    "town_kana": "イチバ",
    "street": null,
    "office_name": null,
    "office_name_kana": null
  },
  "0151": {
    "postcode": "6430151",
    "prefecture": "和歌山県",
    "prefecture_kana": "ワカヤマケン",
    "prefecture_code": 30,
    "city": "有田郡有田川町",
    "city_kana": "アリダグンアリダガワチョウ",
    "town": "長谷川",
    "town_kana": "ハセガワ",
    "street": null,
    "office_name": null,
    "office_name_kana": null
  },
  "0152": {
    "postcode": "6430152",
    "prefecture": "和歌山県",
    "prefecture_kana": "ワカヤマケン",
    "prefecture_code": 30,
    "city": "有田郡有田川町",
    "city_kana": "アリダグンアリダガワチョウ",
    "town": "金屋",
    "town_kana": "カナヤ",
    "street": null,
    "office_name": null,
    "office_name_kana": null
  },
  "0153": {
    "postcode": "6430153",
    "prefecture": "和歌山県",
    "prefecture_kana": "ワカヤマケン",
    "prefecture_code": 30,
    "city": "有田郡有田川町",
    "city_kana": "アリダグンアリダガワチョウ",
    "town": "中井原",
    "town_kana": "ナカイバラ",
    "street": null,
    "office_name": null,
    "office_name_kana": null
  },
  "0161": {
    "postcode": "6430161",
    "prefecture": "和歌山県",
    "prefecture_kana": "ワカヤマケン",
    "prefecture_code": 30,
    "city": "有田郡有田川町",
    "city_kana": "アリダグンアリダガワチョウ",
    "town": "歓喜寺",
    "town_kana": "カンギジ",
    "street": null,
    "office_name": null,
    "office_name_kana": null
  },
  "0162": {
    "postcode": "6430162",
    "prefecture": "和歌山県",
    "prefecture_kana": "ワカヤマケン",
    "prefecture_code": 30,
    "city": "有田郡有田川町",
    "city_kana": "アリダグンアリダガワチョウ",
    "town": "松原",
    "town_kana": "マツバラ",
    "street": null,
    "office_name": null,
    "office_name_kana": null
  },
  "0163": {
    "postcode": "6430163",
    "prefecture": "和歌山県",
    "prefecture_kana": "ワカヤマケン",
    "prefecture_code": 30,
    "city": "有田郡有田川町",
    "city_kana": "アリダグンアリダガワチョウ",
    "town": "修理川",
    "town_kana": "スリガワ",
    "street": null,
    "office_name": null,
    "office_name_kana": null
  },
  "0164": {
    "postcode": "6430164",
    "prefecture": "和歌山県",
    "prefecture_kana": "ワカヤマケン",
    "prefecture_code": 30,
    "city": "有田郡有田川町",
    "city_kana": "アリダグンアリダガワチョウ",
    "town": "宇井苔",
    "town_kana": "ウイゴケ",
    "street": null,
    "office_name": null,
    "office_name_kana": null
  },
  "0165": {
    "postcode": "6430165",
    "prefecture": "和歌山県",
    "prefecture_kana": "ワカヤマケン",
    "prefecture_code": 30,
    "city": "有田郡有田川町",
    "city_kana": "アリダグンアリダガワチョウ",
    "town": "糸川",
    "town_kana": "イトガワ",
    "street": null,
    "office_name": null,
    "office_name_kana": null
  },
  "0166": {
    "postcode": "6430166",
    "prefecture": "和歌山県",
    "prefecture_kana": "ワカヤマケン",
    "prefecture_code": 30,
    "city": "有田郡有田川町",
    "city_kana": "アリダグンアリダガワチョウ",
    "town": "吉原",
    "town_kana": "ヨシハラ",
    "street": null,
    "office_name": null,
    "office_name_kana": null
  },
  "0171": {
    "postcode": "6430171",
    "prefecture": "和歌山県",
    "prefecture_kana": "ワカヤマケン",
    "prefecture_code": 30,
    "city": "有田郡有田川町",
    "city_kana": "アリダグンアリダガワチョウ",
    "town": "上六川",
    "town_kana": "カミムツガワ",
    "street": null,
    "office_name": null,
    "office_name_kana": null
  },
  "0172": {
    "postcode": "6430172",
    "prefecture": "和歌山県",
    "prefecture_kana": "ワカヤマケン",
    "prefecture_code": 30,
    "city": "有田郡有田川町",
    "city_kana": "アリダグンアリダガワチョウ",
    "town": "黒松",
    "town_kana": "クロマツ",
    "street": null,
    "office_name": null,
    "office_name_kana": null
  },
  "0173": {
    "postcode": "6430173",
    "prefecture": "和歌山県",
    "prefecture_kana": "ワカヤマケン",
    "prefecture_code": 30,
    "city": "有田郡有田川町",
    "city_kana": "アリダグンアリダガワチョウ",
    "town": "下六川",
    "town_kana": "シモムツガワ",
    "street": null,
    "office_name": null,
    "office_name_kana": null
  },
  "0174": {
    "postcode": "6430174",
    "prefecture": "和歌山県",
    "prefecture_kana": "ワカヤマケン",
    "prefecture_code": 30,
    "city": "有田郡有田川町",
    "city_kana": "アリダグンアリダガワチョウ",
    "town": "糸野",
    "town_kana": "イトノ",
    "street": null,
    "office_name": null,
    "office_name_kana": null
  },
  "0175": {
    "postcode": "6430175",
    "prefecture": "和歌山県",
    "prefecture_kana": "ワカヤマケン",
    "prefecture_code": 30,
    "city": "有田郡有田川町",
    "city_kana": "アリダグンアリダガワチョウ",
    "town": "丹生",
    "town_kana": "ニウ",
    "street": null,
    "office_name": null,
    "office_name_kana": null
  },
  "0176": {
    "postcode": "6430176",
    "prefecture": "和歌山県",
    "prefecture_kana": "ワカヤマケン",
    "prefecture_code": 30,
    "city": "有田郡有田川町",
    "city_kana": "アリダグンアリダガワチョウ",
    "town": "釜中",
    "town_kana": "カマナカ",
    "street": null,
    "office_name": null,
    "office_name_kana": null
  },
  "0311": {
    "postcode": "6430311",
    "prefecture": "和歌山県",
    "prefecture_kana": "ワカヤマケン",
    "prefecture_code": 30,
    "city": "有田郡有田川町",
    "city_kana": "アリダグンアリダガワチョウ",
    "town": "谷",
    "town_kana": "タニ",
    "street": null,
    "office_name": null,
    "office_name_kana": null
  },
  "0312": {
    "postcode": "6430312",
    "prefecture": "和歌山県",
    "prefecture_kana": "ワカヤマケン",
    "prefecture_code": 30,
    "city": "有田郡有田川町",
    "city_kana": "アリダグンアリダガワチョウ",
    "town": "岩野河",
    "town_kana": "イワノガワ",
    "street": null,
    "office_name": null,
    "office_name_kana": null
  },
  "0313": {
    "postcode": "6430313",
    "prefecture": "和歌山県",
    "prefecture_kana": "ワカヤマケン",
    "prefecture_code": 30,
    "city": "有田郡有田川町",
    "city_kana": "アリダグンアリダガワチョウ",
    "town": "川口",
    "town_kana": "カワグチ",
    "street": null,
    "office_name": null,
    "office_name_kana": null
  },
  "0314": {
    "postcode": "6430314",
    "prefecture": "和歌山県",
    "prefecture_kana": "ワカヤマケン",
    "prefecture_code": 30,
    "city": "有田郡有田川町",
    "city_kana": "アリダグンアリダガワチョウ",
    "town": "立石",
    "town_kana": "タテイシ",
    "street": null,
    "office_name": null,
    "office_name_kana": null
  },
  "0361": {
    "postcode": "6430361",
    "prefecture": "和歌山県",
    "prefecture_kana": "ワカヤマケン",
    "prefecture_code": 30,
    "city": "有田郡有田川町",
    "city_kana": "アリダグンアリダガワチョウ",
    "town": "三瀬川",
    "town_kana": "ミセガワ",
    "street": null,
    "office_name": null,
    "office_name_kana": null
  },
  "0362": {
    "postcode": "6430362",
    "prefecture": "和歌山県",
    "prefecture_kana": "ワカヤマケン",
    "prefecture_code": 30,
    "city": "有田郡有田川町",
    "city_kana": "アリダグンアリダガワチョウ",
    "town": "北野川",
    "town_kana": "キタノカワ",
    "street": null,
    "office_name": null,
    "office_name_kana": null
  },
  "0363": {
    "postcode": "6430363",
    "prefecture": "和歌山県",
    "prefecture_kana": "ワカヤマケン",
    "prefecture_code": 30,
    "city": "有田郡有田川町",
    "city_kana": "アリダグンアリダガワチョウ",
    "town": "二沢",
    "town_kana": "ニサワ",
    "street": null,
    "office_name": null,
    "office_name_kana": null
  },
  "0364": {
    "postcode": "6430364",
    "prefecture": "和歌山県",
    "prefecture_kana": "ワカヤマケン",
    "prefecture_code": 30,
    "city": "有田郡有田川町",
    "city_kana": "アリダグンアリダガワチョウ",
    "town": "川合",
    "town_kana": "カワイ",
    "street": null,
    "office_name": null,
    "office_name_kana": null
  },
  "0365": {
    "postcode": "6430365",
    "prefecture": "和歌山県",
    "prefecture_kana": "ワカヤマケン",
    "prefecture_code": 30,
    "city": "有田郡有田川町",
    "city_kana": "アリダグンアリダガワチョウ",
    "town": "中原",
    "town_kana": "ナカハラ",
    "street": null,
    "office_name": null,
    "office_name_kana": null
  },
  "0366": {
    "postcode": "6430366",
    "prefecture": "和歌山県",
    "prefecture_kana": "ワカヤマケン",
    "prefecture_code": 30,
    "city": "有田郡有田川町",
    "city_kana": "アリダグンアリダガワチョウ",
    "town": "粟生",
    "town_kana": "アオ",
    "street": null,
    "office_name": null,
    "office_name_kana": null
  },
  "0511": {
    "postcode": "6430511",
    "prefecture": "和歌山県",
    "prefecture_kana": "ワカヤマケン",
    "prefecture_code": 30,
    "city": "有田郡有田川町",
    "city_kana": "アリダグンアリダガワチョウ",
    "town": "三田",
    "town_kana": "ミタ",
    "street": null,
    "office_name": null,
    "office_name_kana": null
  },
  "0512": {
    "postcode": "6430512",
    "prefecture": "和歌山県",
    "prefecture_kana": "ワカヤマケン",
    "prefecture_code": 30,
    "city": "有田郡有田川町",
    "city_kana": "アリダグンアリダガワチョウ",
    "town": "宮川",
    "town_kana": "ミヤガワ",
    "street": null,
    "office_name": null,
    "office_name_kana": null
  },
  "0513": {
    "postcode": "6430513",
    "prefecture": "和歌山県",
    "prefecture_kana": "ワカヤマケン",
    "prefecture_code": 30,
    "city": "有田郡有田川町",
    "city_kana": "アリダグンアリダガワチョウ",
    "town": "大蔵",
    "town_kana": "オオゾウ",
    "street": null,
    "office_name": null,
    "office_name_kana": null
  },
  "0514": {
    "postcode": "6430514",
    "prefecture": "和歌山県",
    "prefecture_kana": "ワカヤマケン",
    "prefecture_code": 30,
    "city": "有田郡有田川町",
    "city_kana": "アリダグンアリダガワチョウ",
    "town": "久野原",
    "town_kana": "クノハラ",
    "street": null,
    "office_name": null,
    "office_name_kana": null
  },
  "0515": {
    "postcode": "6430515",
    "prefecture": "和歌山県",
    "prefecture_kana": "ワカヤマケン",
    "prefecture_code": 30,
    "city": "有田郡有田川町",
    "city_kana": "アリダグンアリダガワチョウ",
    "town": "室川",
    "town_kana": "ムロガワ",
    "street": null,
    "office_name": null,
    "office_name_kana": null
  },
  "0521": {
    "postcode": "6430521",
    "prefecture": "和歌山県",
    "prefecture_kana": "ワカヤマケン",
    "prefecture_code": 30,
    "city": "有田郡有田川町",
    "city_kana": "アリダグンアリダガワチョウ",
    "town": "清水",
    "town_kana": "シミズ",
    "street": null,
    "office_name": null,
    "office_name_kana": null
  },
  "0522": {
    "postcode": "6430522",
    "prefecture": "和歌山県",
    "prefecture_kana": "ワカヤマケン",
    "prefecture_code": 30,
    "city": "有田郡有田川町",
    "city_kana": "アリダグンアリダガワチョウ",
    "town": "下湯川",
    "town_kana": "シモユカワ",
    "street": null,
    "office_name": null,
    "office_name_kana": null
  },
  "0531": {
    "postcode": "6430531",
    "prefecture": "和歌山県",
    "prefecture_kana": "ワカヤマケン",
    "prefecture_code": 30,
    "city": "有田郡有田川町",
    "city_kana": "アリダグンアリダガワチョウ",
    "town": "楠本",
    "town_kana": "クスモト",
    "street": null,
    "office_name": null,
    "office_name_kana": null
  },
  "0532": {
    "postcode": "6430532",
    "prefecture": "和歌山県",
    "prefecture_kana": "ワカヤマケン",
    "prefecture_code": 30,
    "city": "有田郡有田川町",
    "city_kana": "アリダグンアリダガワチョウ",
    "town": "沼",
    "town_kana": "ヌマ",
    "street": null,
    "office_name": null,
    "office_name_kana": null
  },
  "0533": {
    "postcode": "6430533",
    "prefecture": "和歌山県",
    "prefecture_kana": "ワカヤマケン",
    "prefecture_code": 30,
    "city": "有田郡有田川町",
    "city_kana": "アリダグンアリダガワチョウ",
    "town": "遠井",
    "town_kana": "トイ",
    "street": null,
    "office_name": null,
    "office_name_kana": null
  },
  "0541": {
    "postcode": "6430541",
    "prefecture": "和歌山県",
    "prefecture_kana": "ワカヤマケン",
    "prefecture_code": 30,
    "city": "有田郡有田川町",
    "city_kana": "アリダグンアリダガワチョウ",
    "town": "東大谷",
    "town_kana": "ヒガシオオダニ",
    "street": null,
    "office_name": null,
    "office_name_kana": null
  },
  "0542": {
    "postcode": "6430542",
    "prefecture": "和歌山県",
    "prefecture_kana": "ワカヤマケン",
    "prefecture_code": 30,
    "city": "有田郡有田川町",
    "city_kana": "アリダグンアリダガワチョウ",
    "town": "二川",
    "town_kana": "フタガワ",
    "street": null,
    "office_name": null,
    "office_name_kana": null
  },
  "0543": {
    "postcode": "6430543",
    "prefecture": "和歌山県",
    "prefecture_kana": "ワカヤマケン",
    "prefecture_code": 30,
    "city": "有田郡有田川町",
    "city_kana": "アリダグンアリダガワチョウ",
    "town": "日物川",
    "town_kana": "ヒモノガワ",
    "street": null,
    "office_name": null,
    "office_name_kana": null
  },
  "0544": {
    "postcode": "6430544",
    "prefecture": "和歌山県",
    "prefecture_kana": "ワカヤマケン",
    "prefecture_code": 30,
    "city": "有田郡有田川町",
    "city_kana": "アリダグンアリダガワチョウ",
    "town": "境川",
    "town_kana": "サカイガワ",
    "street": null,
    "office_name": null,
    "office_name_kana": null
  },
  "0551": {
    "postcode": "6430551",
    "prefecture": "和歌山県",
    "prefecture_kana": "ワカヤマケン",
    "prefecture_code": 30,
    "city": "有田郡有田川町",
    "city_kana": "アリダグンアリダガワチョウ",
    "town": "上湯川",
    "town_kana": "カミユカワ",
    "street": null,
    "office_name": null,
    "office_name_kana": null
  },
  "0601": {
    "postcode": "6430601",
    "prefecture": "和歌山県",
    "prefecture_kana": "ワカヤマケン",
    "prefecture_code": 30,
    "city": "有田郡有田川町",
    "city_kana": "アリダグンアリダガワチョウ",
    "town": "押手",
    "town_kana": "オシテ",
    "street": null,
    "office_name": null,
    "office_name_kana": null
  },
  "0602": {
    "postcode": "6430602",
    "prefecture": "和歌山県",
    "prefecture_kana": "ワカヤマケン",
    "prefecture_code": 30,
    "city": "有田郡有田川町",
    "city_kana": "アリダグンアリダガワチョウ",
    "town": "杉野原",
    "town_kana": "スギノハラ",
    "street": null,
    "office_name": null,
    "office_name_kana": null
  },
  "0603": {
    "postcode": "6430603",
    "prefecture": "和歌山県",
    "prefecture_kana": "ワカヤマケン",
    "prefecture_code": 30,
    "city": "有田郡有田川町",
    "city_kana": "アリダグンアリダガワチョウ",
    "town": "板尾",
    "town_kana": "イタオ",
    "street": null,
    "office_name": null,
    "office_name_kana": null
  },
  "0604": {
    "postcode": "6430604",
    "prefecture": "和歌山県",
    "prefecture_kana": "ワカヤマケン",
    "prefecture_code": 30,
    "city": "有田郡有田川町",
    "city_kana": "アリダグンアリダガワチョウ",
    "town": "井谷",
    "town_kana": "イダニ",
    "street": null,
    "office_name": null,
    "office_name_kana": null
  },
  "0605": {
    "postcode": "6430605",
    "prefecture": "和歌山県",
    "prefecture_kana": "ワカヤマケン",
    "prefecture_code": 30,
    "city": "有田郡有田川町",
    "city_kana": "アリダグンアリダガワチョウ",
    "town": "沼谷",
    "town_kana": "ヌマタニ",
    "street": null,
    "office_name": null,
    "office_name_kana": null
  },
  "0611": {
    "postcode": "6430611",
    "prefecture": "和歌山県",
    "prefecture_kana": "ワカヤマケン",
    "prefecture_code": 30,
    "city": "伊都郡かつらぎ町",
    "city_kana": "イトグンカツラギチョウ",
    "town": "花園梁瀬",
    "town_kana": "ハナゾノヤナセ",
    "street": null,
    "office_name": null,
    "office_name_kana": null
  },
  "0612": {
    "postcode": "6430612",
    "prefecture": "和歌山県",
    "prefecture_kana": "ワカヤマケン",
    "prefecture_code": 30,
    "city": "伊都郡かつらぎ町",
    "city_kana": "イトグンカツラギチョウ",
    "town": "花園北寺",
    "town_kana": "ハナゾノキタデラ",
    "street": null,
    "office_name": null,
    "office_name_kana": null
  },
  "0613": {
    "postcode": "6430613",
    "prefecture": "和歌山県",
    "prefecture_kana": "ワカヤマケン",
    "prefecture_code": 30,
    "city": "伊都郡かつらぎ町",
    "city_kana": "イトグンカツラギチョウ",
    "town": "花園池ノ窪",
    "town_kana": "ハナゾノイケノクボ",
    "street": null,
    "office_name": null,
    "office_name_kana": null
  },
  "0614": {
    "postcode": "6430614",
    "prefecture": "和歌山県",
    "prefecture_kana": "ワカヤマケン",
    "prefecture_code": 30,
    "city": "伊都郡かつらぎ町",
    "city_kana": "イトグンカツラギチョウ",
    "town": "花園新子",
    "town_kana": "ハナゾノアタラシ",
    "street": null,
    "office_name": null,
    "office_name_kana": null
  },
  "0801": {
    "postcode": "6430801",
    "prefecture": "和歌山県",
    "prefecture_kana": "ワカヤマケン",
    "prefecture_code": 30,
    "city": "有田郡有田川町",
    "city_kana": "アリダグンアリダガワチョウ",
    "town": "徳田",
    "town_kana": "トクダ",
    "street": null,
    "office_name": null,
    "office_name_kana": null
  },
  "0802": {
    "postcode": "6430802",
    "prefecture": "和歌山県",
    "prefecture_kana": "ワカヤマケン",
    "prefecture_code": 30,
    "city": "有田郡有田川町",
    "city_kana": "アリダグンアリダガワチョウ",
    "town": "吉見",
    "town_kana": "ヨシミ",
    "street": null,
    "office_name": null,
    "office_name_kana": null
  },
  "0803": {
    "postcode": "6430803",
    "prefecture": "和歌山県",
    "prefecture_kana": "ワカヤマケン",
    "prefecture_code": 30,
    "city": "有田郡有田川町",
    "city_kana": "アリダグンアリダガワチョウ",
    "town": "東丹生図",
    "town_kana": "ヒガシニュウノズ",
    "street": null,
    "office_name": null,
    "office_name_kana": null
  },
  "0811": {
    "postcode": "6430811",
    "prefecture": "和歌山県",
    "prefecture_kana": "ワカヤマケン",
    "prefecture_code": 30,
    "city": "有田郡有田川町",
    "city_kana": "アリダグンアリダガワチョウ",
    "town": "庄",
    "town_kana": "ショウ",
    "street": null,
    "office_name": null,
    "office_name_kana": null
  },
  "0812": {
    "postcode": "6430812",
    "prefecture": "和歌山県",
    "prefecture_kana": "ワカヤマケン",
    "prefecture_code": 30,
    "city": "有田郡有田川町",
    "city_kana": "アリダグンアリダガワチョウ",
    "town": "垣倉",
    "town_kana": "カイグラ",
    "street": null,
    "office_name": null,
    "office_name_kana": null
  },
  "0813": {
    "postcode": "6430813",
    "prefecture": "和歌山県",
    "prefecture_kana": "ワカヤマケン",
    "prefecture_code": 30,
    "city": "有田郡有田川町",
    "city_kana": "アリダグンアリダガワチョウ",
    "town": "西丹生図",
    "town_kana": "ニシニュウノズ",
    "street": null,
    "office_name": null,
    "office_name_kana": null
  },
  "0841": {
    "postcode": "6430841",
    "prefecture": "和歌山県",
    "prefecture_kana": "ワカヤマケン",
    "prefecture_code": 30,
    "city": "有田郡有田川町",
    "city_kana": "アリダグンアリダガワチョウ",
    "town": "長谷",
    "town_kana": "ナガタニ",
    "street": null,
    "office_name": null,
    "office_name_kana": null
  },
  "0842": {
    "postcode": "6430842",
    "prefecture": "和歌山県",
    "prefecture_kana": "ワカヤマケン",
    "prefecture_code": 30,
    "city": "有田郡有田川町",
    "city_kana": "アリダグンアリダガワチョウ",
    "town": "船坂",
    "town_kana": "フナサカ",
    "street": null,
    "office_name": null,
    "office_name_kana": null
  },
  "0843": {
    "postcode": "6430843",
    "prefecture": "和歌山県",
    "prefecture_kana": "ワカヤマケン",
    "prefecture_code": 30,
    "city": "有田郡有田川町",
    "city_kana": "アリダグンアリダガワチョウ",
    "town": "賢",
    "town_kana": "カシコ",
    "street": null,
    "office_name": null,
    "office_name_kana": null
  },
  "0844": {
    "postcode": "6430844",
    "prefecture": "和歌山県",
    "prefecture_kana": "ワカヤマケン",
    "prefecture_code": 30,
    "city": "有田郡有田川町",
    "city_kana": "アリダグンアリダガワチョウ",
    "town": "井口",
    "town_kana": "イノクチ",
    "street": null,
    "office_name": null,
    "office_name_kana": null
  },
  "0845": {
    "postcode": "6430845",
    "prefecture": "和歌山県",
    "prefecture_kana": "ワカヤマケン",
    "prefecture_code": 30,
    "city": "有田郡有田川町",
    "city_kana": "アリダグンアリダガワチョウ",
    "town": "大谷",
    "town_kana": "オオタニ",
    "street": null,
    "office_name": null,
    "office_name_kana": null
  },
  "0846": {
    "postcode": "6430846",
    "prefecture": "和歌山県",
    "prefecture_kana": "ワカヤマケン",
    "prefecture_code": 30,
    "city": "有田郡有田川町",
    "city_kana": "アリダグンアリダガワチョウ",
    "town": "田口",
    "town_kana": "タグチ",
    "street": null,
    "office_name": null,
    "office_name_kana": null
  },
  "0847": {
    "postcode": "6430847",
    "prefecture": "和歌山県",
    "prefecture_kana": "ワカヤマケン",
    "prefecture_code": 30,
    "city": "有田郡有田川町",
    "city_kana": "アリダグンアリダガワチョウ",
    "town": "大賀畑",
    "town_kana": "オオカハタ",
    "street": null,
    "office_name": null,
    "office_name_kana": null
  },
  "0848": {
    "postcode": "6430848",
    "prefecture": "和歌山県",
    "prefecture_kana": "ワカヤマケン",
    "prefecture_code": 30,
    "city": "有田郡有田川町",
    "city_kana": "アリダグンアリダガワチョウ",
    "town": "田角",
    "town_kana": "タズミ",
    "street": null,
    "office_name": null,
    "office_name_kana": null
  },
  "0851": {
    "postcode": "6430851",
    "prefecture": "和歌山県",
    "prefecture_kana": "ワカヤマケン",
    "prefecture_code": 30,
    "city": "有田郡有田川町",
    "city_kana": "アリダグンアリダガワチョウ",
    "town": "出",
    "town_kana": "イデ",
    "street": null,
    "office_name": null,
    "office_name_kana": null
  },
  "0852": {
    "postcode": "6430852",
    "prefecture": "和歌山県",
    "prefecture_kana": "ワカヤマケン",
    "prefecture_code": 30,
    "city": "有田郡有田川町",
    "city_kana": "アリダグンアリダガワチョウ",
    "town": "尾中",
    "town_kana": "オナカ",
    "street": null,
    "office_name": null,
    "office_name_kana": null
  },
  "0853": {
    "postcode": "6430853",
    "prefecture": "和歌山県",
    "prefecture_kana": "ワカヤマケン",
    "prefecture_code": 30,
    "city": "有田郡有田川町",
    "city_kana": "アリダグンアリダガワチョウ",
    "town": "角",
    "town_kana": "スミ",
    "street": null,
    "office_name": null,
    "office_name_kana": null
  },
  "0854": {
    "postcode": "6430854",
    "prefecture": "和歌山県",
    "prefecture_kana": "ワカヤマケン",
    "prefecture_code": 30,
    "city": "有田郡有田川町",
    "city_kana": "アリダグンアリダガワチョウ",
    "town": "長田",
    "town_kana": "ナガタ",
    "street": null,
    "office_name": null,
    "office_name_kana": null
  },
  "0855": {
    "postcode": "6430855",
    "prefecture": "和歌山県",
    "prefecture_kana": "ワカヤマケン",
    "prefecture_code": 30,
    "city": "有田郡有田川町",
    "city_kana": "アリダグンアリダガワチョウ",
    "town": "上中島",
    "town_kana": "カミナカシマ",
    "street": null,
    "office_name": null,
    "office_name_kana": null
  },
  "8501": {
    "postcode": "6438501",
    "prefecture": "和歌山県",
    "prefecture_kana": "ワカヤマケン",
    "prefecture_code": 30,
    "city": "有田郡有田川町",
    "city_kana": "アリダグンアリダガワチョウ",
    "town": "大字大谷",
    "town_kana": null,
    "street": "１１４番地",
    "office_name": "海南高原被害者の会",
    "office_name_kana": "カイナンコウゲンヒガイシヤノカイ"
  }
}