{
  "0000": [
    {
      "postcode": "6440000",
      "prefecture": "和歌山県",
      "prefecture_kana": "ワカヤマケン",
      "prefecture_code": 30,
      "city": "御坊市",
      "city_kana": "ゴボウシ",
      "town": "",
      "town_kana": "",
      "street": null,
      "office_name": null,
      "office_name_kana": null
    },
    {
      "postcode": "6440000",
      "prefecture": "和歌山県",
      "prefecture_kana": "ワカヤマケン",
      "prefecture_code": 30,
      "city": "日高郡美浜町",
      "city_kana": "ヒダカグンミハマチョウ",
      "town": "",
      "town_kana": "",
      "street": null,
      "office_name": null,
      "office_name_kana": null
    }
  ],
  "0001": {
    "postcode": "6440001",
    "prefecture": "和歌山県",
    "prefecture_kana": "ワカヤマケン",
    "prefecture_code": 30,
    "city": "御坊市",
    "city_kana": "ゴボウシ",
    "town": "御坊",
    "town_kana": "ゴボウ",
    "street": null,
    "office_name": null,
    "office_name_kana": null
  },
  "0002": {
    "postcode": "6440002",
    "prefecture": "和歌山県",
    "prefecture_kana": "ワカヤマケン",
    "prefecture_code": 30,
    "city": "御坊市",
    "city_kana": "ゴボウシ",
    "town": "薗",
    "town_kana": "ソノ",
    "street": null,
    "office_name": null,
    "office_name_kana": null
  },
  "0003": {
    "postcode": "6440003",
    "prefecture": "和歌山県",
    "prefecture_kana": "ワカヤマケン",
    "prefecture_code": 30,
    "city": "御坊市",
    "city_kana": "ゴボウシ",
    "town": "島",
    "town_kana": "シマ",
    "street": null,
    "office_name": null,
    "office_name_kana": null
  },
  "0004": {
    "postcode": "6440004",
    "prefecture": "和歌山県",
    "prefecture_kana": "ワカヤマケン",
    "prefecture_code": 30,
    "city": "御坊市",
    "city_kana": "ゴボウシ",
    "town": "名屋",
    "town_kana": "ナヤ",
    "street": null,
    "office_name": null,
    "office_name_kana": null
  },
  "0005": {
    "postcode": "6440005",
    "prefecture": "和歌山県",
    "prefecture_kana": "ワカヤマケン",
    "prefecture_code": 30,
    "city": "御坊市",
    "city_kana": "ゴボウシ",
    "town": "名屋町",
    "town_kana": "ナヤチョウ",
    "street": null,
    "office_name": null,
    "office_name_kana": null
  },
  "0011": {
    "postcode": "6440011",
    "prefecture": "和歌山県",
    "prefecture_kana": "ワカヤマケン",
    "prefecture_code": 30,
    "city": "御坊市",
    "city_kana": "ゴボウシ",
    "town": "湯川町財部",
    "town_kana": "ユカワチョウタカラ",
    "street": null,
    "office_name": null,
    "office_name_kana": null
  },
  "0012": {
    "postcode": "6440012",
    "prefecture": "和歌山県",
    "prefecture_kana": "ワカヤマケン",
    "prefecture_code": 30,
    "city": "御坊市",
    "city_kana": "ゴボウシ",
    "town": "湯川町小松原",
    "town_kana": "ユカワチョウコマツバラ",
    "street": null,
    "office_name": null,
    "office_name_kana": null
  },
  "0013": {
    "postcode": "6440013",
    "prefecture": "和歌山県",
    "prefecture_kana": "ワカヤマケン",
    "prefecture_code": 30,
    "city": "御坊市",
    "city_kana": "ゴボウシ",
    "town": "湯川町丸山",
    "town_kana": "ユカワチョウマルヤマ",
    "street": null,
    "office_name": null,
    "office_name_kana": null
  },
  "0014": {
    "postcode": "6440014",
    "prefecture": "和歌山県",
    "prefecture_kana": "ワカヤマケン",
    "prefecture_code": 30,
    "city": "御坊市",
    "city_kana": "ゴボウシ",
    "town": "湯川町富安",
    "town_kana": "ユカワチョウトミヤス",
    "street": null,
    "office_name": null,
    "office_name_kana": null
  },
  "0015": {
    "postcode": "6440015",
    "prefecture": "和歌山県",
    "prefecture_kana": "ワカヤマケン",
    "prefecture_code": 30,
    "city": "御坊市",
    "city_kana": "ゴボウシ",
    "town": "荊木",
    "town_kana": "イバラキ",
    "street": null,
    "office_name": null,
    "office_name_kana": null
  },
  "0021": {
    "postcode": "6440021",
    "prefecture": "和歌山県",
    "prefecture_kana": "ワカヤマケン",
    "prefecture_code": 30,
    "city": "御坊市",
    "city_kana": "ゴボウシ",
    "town": "名田町楠井",
    "town_kana": "ナダチョウクスイ",
    "street": null,
    "office_name": null,
    "office_name_kana": null
  },
  "0022": {
    "postcode": "6440022",
    "prefecture": "和歌山県",
    "prefecture_kana": "ワカヤマケン",
    "prefecture_code": 30,
    "city": "御坊市",
    "city_kana": "ゴボウシ",
    "town": "名田町上野",
    "town_kana": "ナダチョウウエノ",
    "street": null,
    "office_name": null,
    "office_name_kana": null
  },
  "0023": {
    "postcode": "6440023",
    "prefecture": "和歌山県",
    "prefecture_kana": "ワカヤマケン",
    "prefecture_code": 30,
    "city": "御坊市",
    "city_kana": "ゴボウシ",
    "town": "名田町野島",
    "town_kana": "ナダチョウノシマ",
    "street": null,
    "office_name": null,
    "office_name_kana": null
  },
  "0024": {
    "postcode": "6440024",
    "prefecture": "和歌山県",
    "prefecture_kana": "ワカヤマケン",
    "prefecture_code": 30,
    "city": "御坊市",
    "city_kana": "ゴボウシ",
    "town": "塩屋町南塩屋",
    "town_kana": "シオヤチョウミナミシオヤ",
    "street": null,
    "office_name": null,
    "office_name_kana": null
  },
  "0025": {
    "postcode": "6440025",
    "prefecture": "和歌山県",
    "prefecture_kana": "ワカヤマケン",
    "prefecture_code": 30,
    "city": "御坊市",
    "city_kana": "ゴボウシ",
    "town": "塩屋町北塩屋",
    "town_kana": "シオヤチョウキタシオヤ",
    "street": null,
    "office_name": null,
    "office_name_kana": null
  },
  "0031": {
    "postcode": "6440031",
    "prefecture": "和歌山県",
    "prefecture_kana": "ワカヤマケン",
    "prefecture_code": 30,
    "city": "御坊市",
    "city_kana": "ゴボウシ",
    "town": "野口",
    "town_kana": "ノグチ",
    "street": null,
    "office_name": null,
    "office_name_kana": null
  },
  "0032": {
    "postcode": "6440032",
    "prefecture": "和歌山県",
    "prefecture_kana": "ワカヤマケン",
    "prefecture_code": 30,
    "city": "御坊市",
    "city_kana": "ゴボウシ",
    "town": "岩内",
    "town_kana": "イワウチ",
    "street": null,
    "office_name": null,
    "office_name_kana": null
  },
  "0033": {
    "postcode": "6440033",
    "prefecture": "和歌山県",
    "prefecture_kana": "ワカヤマケン",
    "prefecture_code": 30,
    "city": "御坊市",
    "city_kana": "ゴボウシ",
    "town": "熊野",
    "town_kana": "イヤ",
    "street": null,
    "office_name": null,
    "office_name_kana": null
  },
  "0034": {
    "postcode": "6440034",
    "prefecture": "和歌山県",
    "prefecture_kana": "ワカヤマケン",
    "prefecture_code": 30,
    "city": "御坊市",
    "city_kana": "ゴボウシ",
    "town": "明神川",
    "town_kana": "ミョウジンガワ",
    "street": null,
    "office_name": null,
    "office_name_kana": null
  },
  "0041": {
    "postcode": "6440041",
    "prefecture": "和歌山県",
    "prefecture_kana": "ワカヤマケン",
    "prefecture_code": 30,
    "city": "日高郡美浜町",
    "city_kana": "ヒダカグンミハマチョウ",
    "town": "田井",
    "town_kana": "タイ",
    "street": null,
    "office_name": null,
    "office_name_kana": null
  },
  "0042": {
    "postcode": "6440042",
    "prefecture": "和歌山県",
    "prefecture_kana": "ワカヤマケン",
    "prefecture_code": 30,
    "city": "日高郡美浜町",
    "city_kana": "ヒダカグンミハマチョウ",
    "town": "浜ノ瀬",
    "town_kana": "ハマノセ",
    "street": null,
    "office_name": null,
    "office_name_kana": null
  },
  "0043": {
    "postcode": "6440043",
    "prefecture": "和歌山県",
    "prefecture_kana": "ワカヤマケン",
    "prefecture_code": 30,
    "city": "日高郡美浜町",
    "city_kana": "ヒダカグンミハマチョウ",
    "town": "吉原",
    "town_kana": "ヨシハラ",
    "street": null,
    "office_name": null,
    "office_name_kana": null
  },
  "0044": {
    "postcode": "6440044",
    "prefecture": "和歌山県",
    "prefecture_kana": "ワカヤマケン",
    "prefecture_code": 30,
    "city": "日高郡美浜町",
    "city_kana": "ヒダカグンミハマチョウ",
    "town": "和田",
    "town_kana": "ワダ",
    "street": null,
    "office_name": null,
    "office_name_kana": null
  },
  "0045": {
    "postcode": "6440045",
    "prefecture": "和歌山県",
    "prefecture_kana": "ワカヤマケン",
    "prefecture_code": 30,
    "city": "日高郡美浜町",
    "city_kana": "ヒダカグンミハマチョウ",
    "town": "三尾",
    "town_kana": "ミオ",
    "street": null,
    "office_name": null,
    "office_name_kana": null
  },
  "0201": {
    "postcode": "6440201",
    "prefecture": "和歌山県",
    "prefecture_kana": "ワカヤマケン",
    "prefecture_code": 30,
    "city": "日高郡印南町",
    "city_kana": "ヒダカグンイナミチョウ",
    "town": "川又",
    "town_kana": "カワマタ",
    "street": null,
    "office_name": null,
    "office_name_kana": null
  },
  "0202": {
    "postcode": "6440202",
    "prefecture": "和歌山県",
    "prefecture_kana": "ワカヤマケン",
    "prefecture_code": 30,
    "city": "日高郡印南町",
    "city_kana": "ヒダカグンイナミチョウ",
    "town": "上洞",
    "town_kana": "カボラ",
    "street": null,
    "office_name": null,
    "office_name_kana": null
  },
  "0211": {
    "postcode": "6440211",
    "prefecture": "和歌山県",
    "prefecture_kana": "ワカヤマケン",
    "prefecture_code": 30,
    "city": "日高郡印南町",
    "city_kana": "ヒダカグンイナミチョウ",
    "town": "高串",
    "town_kana": "タカクシ",
    "street": null,
    "office_name": null,
    "office_name_kana": null
  },
  "0212": {
    "postcode": "6440212",
    "prefecture": "和歌山県",
    "prefecture_kana": "ワカヤマケン",
    "prefecture_code": 30,
    "city": "日高郡印南町",
    "city_kana": "ヒダカグンイナミチョウ",
    "town": "田ノ垣内",
    "town_kana": "タノカイト",
    "street": null,
    "office_name": null,
    "office_name_kana": null
  },
  "0213": {
    "postcode": "6440213",
    "prefecture": "和歌山県",
    "prefecture_kana": "ワカヤマケン",
    "prefecture_code": 30,
    "city": "日高郡印南町",
    "city_kana": "ヒダカグンイナミチョウ",
    "town": "西神ノ川",
    "town_kana": "ニシコウノガワ",
    "street": null,
    "office_name": null,
    "office_name_kana": null
  },
  "0214": {
    "postcode": "6440214",
    "prefecture": "和歌山県",
    "prefecture_kana": "ワカヤマケン",
    "prefecture_code": 30,
    "city": "日高郡印南町",
    "city_kana": "ヒダカグンイナミチョウ",
    "town": "小原",
    "town_kana": "コバラ",
    "street": null,
    "office_name": null,
    "office_name_kana": null
  },
  "0215": {
    "postcode": "6440215",
    "prefecture": "和歌山県",
    "prefecture_kana": "ワカヤマケン",
    "prefecture_code": 30,
    "city": "日高郡印南町",
    "city_kana": "ヒダカグンイナミチョウ",
    "town": "皆瀬川",
    "town_kana": "カイゼガワ",
    "street": null,
    "office_name": null,
    "office_name_kana": null
  },
  "0216": {
    "postcode": "6440216",
    "prefecture": "和歌山県",
    "prefecture_kana": "ワカヤマケン",
    "prefecture_code": 30,
    "city": "日高郡印南町",
    "city_kana": "ヒダカグンイナミチョウ",
    "town": "崎ノ原",
    "town_kana": "サキノハラ",
    "street": null,
    "office_name": null,
    "office_name_kana": null
  },
  "0217": {
    "postcode": "6440217",
    "prefecture": "和歌山県",
    "prefecture_kana": "ワカヤマケン",
    "prefecture_code": 30,
    "city": "日高郡印南町",
    "city_kana": "ヒダカグンイナミチョウ",
    "town": "丹生",
    "town_kana": "ニュウ",
    "street": null,
    "office_name": null,
    "office_name_kana": null
  },
  "0218": {
    "postcode": "6440218",
    "prefecture": "和歌山県",
    "prefecture_kana": "ワカヤマケン",
    "prefecture_code": 30,
    "city": "日高郡印南町",
    "city_kana": "ヒダカグンイナミチョウ",
    "town": "松原",
    "town_kana": "マツバラ",
    "street": null,
    "office_name": null,
    "office_name_kana": null
  },
  "1101": {
    "postcode": "6441101",
    "prefecture": "和歌山県",
    "prefecture_kana": "ワカヤマケン",
    "prefecture_code": 30,
    "city": "日高郡日高川町",
    "city_kana": "ヒダカグンヒダカガワチョウ",
    "town": "藤野川",
    "town_kana": "トウノガワ",
    "street": null,
    "office_name": null,
    "office_name_kana": null
  },
  "1111": {
    "postcode": "6441111",
    "prefecture": "和歌山県",
    "prefecture_kana": "ワカヤマケン",
    "prefecture_code": 30,
    "city": "日高郡日高川町",
    "city_kana": "ヒダカグンヒダカガワチョウ",
    "town": "船津",
    "town_kana": "フナツ",
    "street": null,
    "office_name": null,
    "office_name_kana": null
  },
  "1121": {
    "postcode": "6441121",
    "prefecture": "和歌山県",
    "prefecture_kana": "ワカヤマケン",
    "prefecture_code": 30,
    "city": "日高郡日高川町",
    "city_kana": "ヒダカグンヒダカガワチョウ",
    "town": "西原",
    "town_kana": "ニシハラ",
    "street": null,
    "office_name": null,
    "office_name_kana": null
  },
  "1122": {
    "postcode": "6441122",
    "prefecture": "和歌山県",
    "prefecture_kana": "ワカヤマケン",
    "prefecture_code": 30,
    "city": "日高郡日高川町",
    "city_kana": "ヒダカグンヒダカガワチョウ",
    "town": "高津尾",
    "town_kana": "タカツオ",
    "street": null,
    "office_name": null,
    "office_name_kana": null
  },
  "1123": {
    "postcode": "6441123",
    "prefecture": "和歌山県",
    "prefecture_kana": "ワカヤマケン",
    "prefecture_code": 30,
    "city": "日高郡日高川町",
    "city_kana": "ヒダカグンヒダカガワチョウ",
    "town": "高津尾川",
    "town_kana": "タカツオガワ",
    "street": null,
    "office_name": null,
    "office_name_kana": null
  },
  "1131": {
    "postcode": "6441131",
    "prefecture": "和歌山県",
    "prefecture_kana": "ワカヤマケン",
    "prefecture_code": 30,
    "city": "日高郡日高川町",
    "city_kana": "ヒダカグンヒダカガワチョウ",
    "town": "三十井川",
    "town_kana": "ミソイガワ",
    "street": null,
    "office_name": null,
    "office_name_kana": null
  },
  "1132": {
    "postcode": "6441132",
    "prefecture": "和歌山県",
    "prefecture_kana": "ワカヤマケン",
    "prefecture_code": 30,
    "city": "日高郡日高川町",
    "city_kana": "ヒダカグンヒダカガワチョウ",
    "town": "姉子",
    "town_kana": "アネコ",
    "street": null,
    "office_name": null,
    "office_name_kana": null
  },
  "1133": {
    "postcode": "6441133",
    "prefecture": "和歌山県",
    "prefecture_kana": "ワカヤマケン",
    "prefecture_code": 30,
    "city": "日高郡日高川町",
    "city_kana": "ヒダカグンヒダカガワチョウ",
    "town": "原日浦",
    "town_kana": "ハラビウラ",
    "street": null,
    "office_name": null,
    "office_name_kana": null
  },
  "1134": {
    "postcode": "6441134",
    "prefecture": "和歌山県",
    "prefecture_kana": "ワカヤマケン",
    "prefecture_code": 30,
    "city": "日高郡日高川町",
    "city_kana": "ヒダカグンヒダカガワチョウ",
    "town": "三十木",
    "town_kana": "ミソギ",
    "street": null,
    "office_name": null,
    "office_name_kana": null
  },
  "1141": {
    "postcode": "6441141",
    "prefecture": "和歌山県",
    "prefecture_kana": "ワカヤマケン",
    "prefecture_code": 30,
    "city": "日高郡日高川町",
    "city_kana": "ヒダカグンヒダカガワチョウ",
    "town": "上田原",
    "town_kana": "カミタハラ",
    "street": null,
    "office_name": null,
    "office_name_kana": null
  },
  "1142": {
    "postcode": "6441142",
    "prefecture": "和歌山県",
    "prefecture_kana": "ワカヤマケン",
    "prefecture_code": 30,
    "city": "日高郡日高川町",
    "city_kana": "ヒダカグンヒダカガワチョウ",
    "town": "下田原",
    "town_kana": "シモタハラ",
    "street": null,
    "office_name": null,
    "office_name_kana": null
  },
  "1143": {
    "postcode": "6441143",
    "prefecture": "和歌山県",
    "prefecture_kana": "ワカヤマケン",
    "prefecture_code": 30,
    "city": "日高郡日高川町",
    "city_kana": "ヒダカグンヒダカガワチョウ",
    "town": "小釜本",
    "town_kana": "コカモト",
    "street": null,
    "office_name": null,
    "office_name_kana": null
  },
  "1151": {
    "postcode": "6441151",
    "prefecture": "和歌山県",
    "prefecture_kana": "ワカヤマケン",
    "prefecture_code": 30,
    "city": "日高郡日高川町",
    "city_kana": "ヒダカグンヒダカガワチョウ",
    "town": "田尻",
    "town_kana": "タジリ",
    "street": null,
    "office_name": null,
    "office_name_kana": null
  },
  "1152": {
    "postcode": "6441152",
    "prefecture": "和歌山県",
    "prefecture_kana": "ワカヤマケン",
    "prefecture_code": 30,
    "city": "日高郡日高川町",
    "city_kana": "ヒダカグンヒダカガワチョウ",
    "town": "三佐",
    "town_kana": "ミザ",
    "street": null,
    "office_name": null,
    "office_name_kana": null
  },
  "1161": {
    "postcode": "6441161",
    "prefecture": "和歌山県",
    "prefecture_kana": "ワカヤマケン",
    "prefecture_code": 30,
    "city": "日高郡日高川町",
    "city_kana": "ヒダカグンヒダカガワチョウ",
    "town": "坂野川",
    "town_kana": "サカノガワ",
    "street": null,
    "office_name": null,
    "office_name_kana": null
  },
  "1162": {
    "postcode": "6441162",
    "prefecture": "和歌山県",
    "prefecture_kana": "ワカヤマケン",
    "prefecture_code": 30,
    "city": "日高郡日高川町",
    "city_kana": "ヒダカグンヒダカガワチョウ",
    "town": "老星",
    "town_kana": "オイボシ",
    "street": null,
    "office_name": null,
    "office_name_kana": null
  },
  "1163": {
    "postcode": "6441163",
    "prefecture": "和歌山県",
    "prefecture_kana": "ワカヤマケン",
    "prefecture_code": 30,
    "city": "日高郡日高川町",
    "city_kana": "ヒダカグンヒダカガワチョウ",
    "town": "大又",
    "town_kana": "オオマタ",
    "street": null,
    "office_name": null,
    "office_name_kana": null
  },
  "1164": {
    "postcode": "6441164",
    "prefecture": "和歌山県",
    "prefecture_kana": "ワカヤマケン",
    "prefecture_code": 30,
    "city": "日高郡日高川町",
    "city_kana": "ヒダカグンヒダカガワチョウ",
    "town": "佐井",
    "town_kana": "サイ",
    "street": null,
    "office_name": null,
    "office_name_kana": null
  },
  "1201": {
    "postcode": "6441201",
    "prefecture": "和歌山県",
    "prefecture_kana": "ワカヤマケン",
    "prefecture_code": 30,
    "city": "日高郡日高川町",
    "city_kana": "ヒダカグンヒダカガワチョウ",
    "town": "川原河",
    "town_kana": "カワハラゴウ",
    "street": null,
    "office_name": null,
    "office_name_kana": null
  },
  "1211": {
    "postcode": "6441211",
    "prefecture": "和歌山県",
    "prefecture_kana": "ワカヤマケン",
    "prefecture_code": 30,
    "city": "日高郡日高川町",
    "city_kana": "ヒダカグンヒダカガワチョウ",
    "town": "弥谷",
    "town_kana": "イヤダニ",
    "street": null,
    "office_name": null,
    "office_name_kana": null
  },
  "1212": {
    "postcode": "6441212",
    "prefecture": "和歌山県",
    "prefecture_kana": "ワカヤマケン",
    "prefecture_code": 30,
    "city": "日高郡日高川町",
    "city_kana": "ヒダカグンヒダカガワチョウ",
    "town": "皆瀬",
    "town_kana": "カイゼ",
    "street": null,
    "office_name": null,
    "office_name_kana": null
  },
  "1213": {
    "postcode": "6441213",
    "prefecture": "和歌山県",
    "prefecture_kana": "ワカヤマケン",
    "prefecture_code": 30,
    "city": "日高郡日高川町",
    "city_kana": "ヒダカグンヒダカガワチョウ",
    "town": "愛川",
    "town_kana": "アタイガワ",
    "street": null,
    "office_name": null,
    "office_name_kana": null
  },
  "1214": {
    "postcode": "6441214",
    "prefecture": "和歌山県",
    "prefecture_kana": "ワカヤマケン",
    "prefecture_code": 30,
    "city": "日高郡日高川町",
    "city_kana": "ヒダカグンヒダカガワチョウ",
    "town": "上初湯川",
    "town_kana": "カミウブユガワ",
    "street": null,
    "office_name": null,
    "office_name_kana": null
  },
  "1221": {
    "postcode": "6441221",
    "prefecture": "和歌山県",
    "prefecture_kana": "ワカヤマケン",
    "prefecture_code": 30,
    "city": "日高郡日高川町",
    "city_kana": "ヒダカグンヒダカガワチョウ",
    "town": "寒川",
    "town_kana": "ソウガワ",
    "street": null,
    "office_name": null,
    "office_name_kana": null
  },
  "1222": {
    "postcode": "6441222",
    "prefecture": "和歌山県",
    "prefecture_kana": "ワカヤマケン",
    "prefecture_code": 30,
    "city": "日高郡日高川町",
    "city_kana": "ヒダカグンヒダカガワチョウ",
    "town": "串本",
    "town_kana": "クシモト",
    "street": null,
    "office_name": null,
    "office_name_kana": null
  },
  "1231": {
    "postcode": "6441231",
    "prefecture": "和歌山県",
    "prefecture_kana": "ワカヤマケン",
    "prefecture_code": 30,
    "city": "日高郡日高川町",
    "city_kana": "ヒダカグンヒダカガワチョウ",
    "town": "初湯川",
    "town_kana": "ウブユガワ",
    "street": null,
    "office_name": null,
    "office_name_kana": null
  },
  "1241": {
    "postcode": "6441241",
    "prefecture": "和歌山県",
    "prefecture_kana": "ワカヤマケン",
    "prefecture_code": 30,
    "city": "日高郡日高川町",
    "city_kana": "ヒダカグンヒダカガワチョウ",
    "town": "滝頭",
    "town_kana": "タキガシラ",
    "street": null,
    "office_name": null,
    "office_name_kana": null
  },
  "1242": {
    "postcode": "6441242",
    "prefecture": "和歌山県",
    "prefecture_kana": "ワカヤマケン",
    "prefecture_code": 30,
    "city": "日高郡日高川町",
    "city_kana": "ヒダカグンヒダカガワチョウ",
    "town": "熊野川",
    "town_kana": "クマノガワ",
    "street": null,
    "office_name": null,
    "office_name_kana": null
  },
  "1243": {
    "postcode": "6441243",
    "prefecture": "和歌山県",
    "prefecture_kana": "ワカヤマケン",
    "prefecture_code": 30,
    "city": "日高郡日高川町",
    "city_kana": "ヒダカグンヒダカガワチョウ",
    "town": "浅間",
    "town_kana": "アサマ",
    "street": null,
    "office_name": null,
    "office_name_kana": null
  },
  "1244": {
    "postcode": "6441244",
    "prefecture": "和歌山県",
    "prefecture_kana": "ワカヤマケン",
    "prefecture_code": 30,
    "city": "日高郡日高川町",
    "city_kana": "ヒダカグンヒダカガワチョウ",
    "town": "上越方",
    "town_kana": "カミコシカタ",
    "street": null,
    "office_name": null,
    "office_name_kana": null
  },
  "1292": {
    "postcode": "6441292",
    "prefecture": "和歌山県",
    "prefecture_kana": "ワカヤマケン",
    "prefecture_code": 30,
    "city": "日高郡日高川町",
    "city_kana": "ヒダカグンヒダカガワチョウ",
    "town": "大字川原河",
    "town_kana": null,
    "street": "２０２",
    "office_name": "日高川町役場　美山支所",
    "office_name_kana": "ヒダカガワチヨウヤクバ ミヤマシシヨ"
  },
  "8655": {
    "postcode": "6448655",
    "prefecture": "和歌山県",
    "prefecture_kana": "ワカヤマケン",
    "prefecture_code": 30,
    "city": "御坊市",
    "city_kana": "ゴボウシ",
    "town": "薗",
    "town_kana": "ソノ",
    "street": "１１６−２（御坊郵便局私書箱第１１号）",
    "office_name": "国保日高総合病院",
    "office_name_kana": "コクホヒダカソウゴウビヨウイン"
  },
  "8686": {
    "postcode": "6448686",
    "prefecture": "和歌山県",
    "prefecture_kana": "ワカヤマケン",
    "prefecture_code": 30,
    "city": "御坊市",
    "city_kana": "ゴボウシ",
    "town": "薗",
    "town_kana": "ソノ",
    "street": "３５０（御坊郵便局私書箱第４号）",
    "office_name": "御坊市役所",
    "office_name_kana": "ゴボウシヤクシヨ"
  }
}