{
  "0000": {
    "postcode": "6470000",
    "prefecture": "和歌山県",
    "prefecture_kana": "ワカヤマケン",
    "prefecture_code": 30,
    "city": "新宮市",
    "city_kana": "シングウシ",
    "town": "",
    "town_kana": "",
    "street": null,
    "office_name": null,
    "office_name_kana": null
  },
  "0001": {
    "postcode": "6470001",
    "prefecture": "和歌山県",
    "prefecture_kana": "ワカヤマケン",
    "prefecture_code": 30,
    "city": "新宮市",
    "city_kana": "シングウシ",
    "town": "相筋",
    "town_kana": "アイスジ",
    "street": null,
    "office_name": null,
    "office_name_kana": null
  },
  "0002": {
    "postcode": "6470002",
    "prefecture": "和歌山県",
    "prefecture_kana": "ワカヤマケン",
    "prefecture_code": 30,
    "city": "新宮市",
    "city_kana": "シングウシ",
    "town": "船町",
    "town_kana": "フナマチ",
    "street": null,
    "office_name": null,
    "office_name_kana": null
  },
  "0003": {
    "postcode": "6470003",
    "prefecture": "和歌山県",
    "prefecture_kana": "ワカヤマケン",
    "prefecture_code": 30,
    "city": "新宮市",
    "city_kana": "シングウシ",
    "town": "上本町",
    "town_kana": "カミホンマチ",
    "street": null,
    "office_name": null,
    "office_name_kana": null
  },
  "0004": {
    "postcode": "6470004",
    "prefecture": "和歌山県",
    "prefecture_kana": "ワカヤマケン",
    "prefecture_code": 30,
    "city": "新宮市",
    "city_kana": "シングウシ",
    "town": "大橋通",
    "town_kana": "オオハシドオリ",
    "street": null,
    "office_name": null,
    "office_name_kana": null
  },
  "0005": {
    "postcode": "6470005",
    "prefecture": "和歌山県",
    "prefecture_kana": "ワカヤマケン",
    "prefecture_code": 30,
    "city": "新宮市",
    "city_kana": "シングウシ",
    "town": "元鍛治町",
    "town_kana": "モトカジチョウ",
    "street": null,
    "office_name": null,
    "office_name_kana": null
  },
  "0006": {
    "postcode": "6470006",
    "prefecture": "和歌山県",
    "prefecture_kana": "ワカヤマケン",
    "prefecture_code": 30,
    "city": "新宮市",
    "city_kana": "シングウシ",
    "town": "薬師町",
    "town_kana": "ヤクシマチ",
    "street": null,
    "office_name": null,
    "office_name_kana": null
  },
  "0007": {
    "postcode": "6470007",
    "prefecture": "和歌山県",
    "prefecture_kana": "ワカヤマケン",
    "prefecture_code": 30,
    "city": "新宮市",
    "city_kana": "シングウシ",
    "town": "別当屋敷町",
    "town_kana": "ベットウヤシキチョウ",
    "street": null,
    "office_name": null,
    "office_name_kana": null
  },
  "0008": {
    "postcode": "6470008",
    "prefecture": "和歌山県",
    "prefecture_kana": "ワカヤマケン",
    "prefecture_code": 30,
    "city": "新宮市",
    "city_kana": "シングウシ",
    "town": "馬町",
    "town_kana": "ウママチ",
    "street": null,
    "office_name": null,
    "office_name_kana": null
  },
  "0010": {
    "postcode": "6470010",
    "prefecture": "和歌山県",
    "prefecture_kana": "ワカヤマケン",
    "prefecture_code": 30,
    "city": "新宮市",
    "city_kana": "シングウシ",
    "town": "丹鶴",
    "town_kana": "タンカク",
    "street": null,
    "office_name": null,
    "office_name_kana": null
  },
  "0011": {
    "postcode": "6470011",
    "prefecture": "和歌山県",
    "prefecture_kana": "ワカヤマケン",
    "prefecture_code": 30,
    "city": "新宮市",
    "city_kana": "シングウシ",
    "town": "下本町",
    "town_kana": "シモホンマチ",
    "street": null,
    "office_name": null,
    "office_name_kana": null
  },
  "0012": {
    "postcode": "6470012",
    "prefecture": "和歌山県",
    "prefecture_kana": "ワカヤマケン",
    "prefecture_code": 30,
    "city": "新宮市",
    "city_kana": "シングウシ",
    "town": "伊佐田町",
    "town_kana": "イサダチョウ",
    "street": null,
    "office_name": null,
    "office_name_kana": null
  },
  "0013": {
    "postcode": "6470013",
    "prefecture": "和歌山県",
    "prefecture_kana": "ワカヤマケン",
    "prefecture_code": 30,
    "city": "新宮市",
    "city_kana": "シングウシ",
    "town": "春日",
    "town_kana": "カスガ",
    "street": null,
    "office_name": null,
    "office_name_kana": null
  },
  "0014": {
    "postcode": "6470014",
    "prefecture": "和歌山県",
    "prefecture_kana": "ワカヤマケン",
    "prefecture_code": 30,
    "city": "新宮市",
    "city_kana": "シングウシ",
    "town": "浮島",
    "town_kana": "ウキジマ",
    "street": null,
    "office_name": null,
    "office_name_kana": null
  },
  "0015": {
    "postcode": "6470015",
    "prefecture": "和歌山県",
    "prefecture_kana": "ワカヤマケン",
    "prefecture_code": 30,
    "city": "新宮市",
    "city_kana": "シングウシ",
    "town": "千穂",
    "town_kana": "チホ",
    "street": null,
    "office_name": null,
    "office_name_kana": null
  },
  "0016": {
    "postcode": "6470016",
    "prefecture": "和歌山県",
    "prefecture_kana": "ワカヤマケン",
    "prefecture_code": 30,
    "city": "新宮市",
    "city_kana": "シングウシ",
    "town": "谷王子町",
    "town_kana": "タニオウジチョウ",
    "street": null,
    "office_name": null,
    "office_name_kana": null
  },
  "0017": {
    "postcode": "6470017",
    "prefecture": "和歌山県",
    "prefecture_kana": "ワカヤマケン",
    "prefecture_code": 30,
    "city": "新宮市",
    "city_kana": "シングウシ",
    "town": "横町",
    "town_kana": "ヨコマチ",
    "street": null,
    "office_name": null,
    "office_name_kana": null
  },
  "0018": {
    "postcode": "6470018",
    "prefecture": "和歌山県",
    "prefecture_kana": "ワカヤマケン",
    "prefecture_code": 30,
    "city": "新宮市",
    "city_kana": "シングウシ",
    "town": "仲之町",
    "town_kana": "ナカノチョウ",
    "street": null,
    "office_name": null,
    "office_name_kana": null
  },
  "0019": {
    "postcode": "6470019",
    "prefecture": "和歌山県",
    "prefecture_kana": "ワカヤマケン",
    "prefecture_code": 30,
    "city": "新宮市",
    "city_kana": "シングウシ",
    "town": "新町",
    "town_kana": "シンマチ",
    "street": null,
    "office_name": null,
    "office_name_kana": null
  },
  "0020": {
    "postcode": "6470020",
    "prefecture": "和歌山県",
    "prefecture_kana": "ワカヤマケン",
    "prefecture_code": 30,
    "city": "新宮市",
    "city_kana": "シングウシ",
    "town": "徐福",
    "town_kana": "ジョフク",
    "street": null,
    "office_name": null,
    "office_name_kana": null
  },
  "0021": {
    "postcode": "6470021",
    "prefecture": "和歌山県",
    "prefecture_kana": "ワカヤマケン",
    "prefecture_code": 30,
    "city": "新宮市",
    "city_kana": "シングウシ",
    "town": "池田",
    "town_kana": "イケダ",
    "street": null,
    "office_name": null,
    "office_name_kana": null
  },
  "0022": {
    "postcode": "6470022",
    "prefecture": "和歌山県",
    "prefecture_kana": "ワカヤマケン",
    "prefecture_code": 30,
    "city": "新宮市",
    "city_kana": "シングウシ",
    "town": "阿須賀",
    "town_kana": "アスカ",
    "street": null,
    "office_name": null,
    "office_name_kana": null
  },
  "0023": {
    "postcode": "6470023",
    "prefecture": "和歌山県",
    "prefecture_kana": "ワカヤマケン",
    "prefecture_code": 30,
    "city": "新宮市",
    "city_kana": "シングウシ",
    "town": "蓬莱",
    "town_kana": "ホウライ",
    "street": null,
    "office_name": null,
    "office_name_kana": null
  },
  "0024": {
    "postcode": "6470024",
    "prefecture": "和歌山県",
    "prefecture_kana": "ワカヤマケン",
    "prefecture_code": 30,
    "city": "新宮市",
    "city_kana": "シングウシ",
    "town": "熊野地",
    "town_kana": "クマノジ",
    "street": null,
    "office_name": null,
    "office_name_kana": null
  },
  "0025": {
    "postcode": "6470025",
    "prefecture": "和歌山県",
    "prefecture_kana": "ワカヤマケン",
    "prefecture_code": 30,
    "city": "新宮市",
    "city_kana": "シングウシ",
    "town": "あけぼの",
    "town_kana": "アケボノ",
    "street": null,
    "office_name": null,
    "office_name_kana": null
  },
  "0031": {
    "postcode": "6470031",
    "prefecture": "和歌山県",
    "prefecture_kana": "ワカヤマケン",
    "prefecture_code": 30,
    "city": "新宮市",
    "city_kana": "シングウシ",
    "town": "田鶴原町",
    "town_kana": "タズハラチョウ",
    "street": null,
    "office_name": null,
    "office_name_kana": null
  },
  "0032": {
    "postcode": "6470032",
    "prefecture": "和歌山県",
    "prefecture_kana": "ワカヤマケン",
    "prefecture_code": 30,
    "city": "新宮市",
    "city_kana": "シングウシ",
    "town": "王子町",
    "town_kana": "オウジチョウ",
    "street": null,
    "office_name": null,
    "office_name_kana": null
  },
  "0033": {
    "postcode": "6470033",
    "prefecture": "和歌山県",
    "prefecture_kana": "ワカヤマケン",
    "prefecture_code": 30,
    "city": "新宮市",
    "city_kana": "シングウシ",
    "town": "清水元",
    "town_kana": "シミズモト",
    "street": null,
    "office_name": null,
    "office_name_kana": null
  },
  "0034": {
    "postcode": "6470034",
    "prefecture": "和歌山県",
    "prefecture_kana": "ワカヤマケン",
    "prefecture_code": 30,
    "city": "新宮市",
    "city_kana": "シングウシ",
    "town": "丸山",
    "town_kana": "マルヤマ",
    "street": null,
    "office_name": null,
    "office_name_kana": null
  },
  "0041": {
    "postcode": "6470041",
    "prefecture": "和歌山県",
    "prefecture_kana": "ワカヤマケン",
    "prefecture_code": 30,
    "city": "新宮市",
    "city_kana": "シングウシ",
    "town": "野田",
    "town_kana": "ノダ",
    "street": null,
    "office_name": null,
    "office_name_kana": null
  },
  "0042": {
    "postcode": "6470042",
    "prefecture": "和歌山県",
    "prefecture_kana": "ワカヤマケン",
    "prefecture_code": 30,
    "city": "新宮市",
    "city_kana": "シングウシ",
    "town": "下田",
    "town_kana": "シモダ",
    "street": null,
    "office_name": null,
    "office_name_kana": null
  },
  "0043": {
    "postcode": "6470043",
    "prefecture": "和歌山県",
    "prefecture_kana": "ワカヤマケン",
    "prefecture_code": 30,
    "city": "新宮市",
    "city_kana": "シングウシ",
    "town": "緑ケ丘",
    "town_kana": "ミドリガオカ",
    "street": null,
    "office_name": null,
    "office_name_kana": null
  },
  "0044": {
    "postcode": "6470044",
    "prefecture": "和歌山県",
    "prefecture_kana": "ワカヤマケン",
    "prefecture_code": 30,
    "city": "新宮市",
    "city_kana": "シングウシ",
    "town": "神倉",
    "town_kana": "カミクラ",
    "street": null,
    "office_name": null,
    "office_name_kana": null
  },
  "0045": {
    "postcode": "6470045",
    "prefecture": "和歌山県",
    "prefecture_kana": "ワカヤマケン",
    "prefecture_code": 30,
    "city": "新宮市",
    "city_kana": "シングウシ",
    "town": "井の沢",
    "town_kana": "イノサワ",
    "street": null,
    "office_name": null,
    "office_name_kana": null
  },
  "0051": {
    "postcode": "6470051",
    "prefecture": "和歌山県",
    "prefecture_kana": "ワカヤマケン",
    "prefecture_code": 30,
    "city": "新宮市",
    "city_kana": "シングウシ",
    "town": "磐盾",
    "town_kana": "イワタテ",
    "street": null,
    "office_name": null,
    "office_name_kana": null
  },
  "0052": {
    "postcode": "6470052",
    "prefecture": "和歌山県",
    "prefecture_kana": "ワカヤマケン",
    "prefecture_code": 30,
    "city": "新宮市",
    "city_kana": "シングウシ",
    "town": "橋本",
    "town_kana": "ハシモト",
    "street": null,
    "office_name": null,
    "office_name_kana": null
  },
  "0053": {
    "postcode": "6470053",
    "prefecture": "和歌山県",
    "prefecture_kana": "ワカヤマケン",
    "prefecture_code": 30,
    "city": "新宮市",
    "city_kana": "シングウシ",
    "town": "五新",
    "town_kana": "ゴシン",
    "street": null,
    "office_name": null,
    "office_name_kana": null
  },
  "0054": {
    "postcode": "6470054",
    "prefecture": "和歌山県",
    "prefecture_kana": "ワカヤマケン",
    "prefecture_code": 30,
    "city": "新宮市",
    "city_kana": "シングウシ",
    "town": "南檜杖",
    "town_kana": "ミナミヒヅエ",
    "street": null,
    "office_name": null,
    "office_name_kana": null
  },
  "0061": {
    "postcode": "6470061",
    "prefecture": "和歌山県",
    "prefecture_kana": "ワカヤマケン",
    "prefecture_code": 30,
    "city": "新宮市",
    "city_kana": "シングウシ",
    "town": "三輪崎",
    "town_kana": "ミワサキ",
    "street": null,
    "office_name": null,
    "office_name_kana": null
  },
  "0071": {
    "postcode": "6470071",
    "prefecture": "和歌山県",
    "prefecture_kana": "ワカヤマケン",
    "prefecture_code": 30,
    "city": "新宮市",
    "city_kana": "シングウシ",
    "town": "佐野",
    "town_kana": "サノ",
    "street": null,
    "office_name": null,
    "office_name_kana": null
  },
  "0072": {
    "postcode": "6470072",
    "prefecture": "和歌山県",
    "prefecture_kana": "ワカヤマケン",
    "prefecture_code": 30,
    "city": "新宮市",
    "city_kana": "シングウシ",
    "town": "蜂伏",
    "town_kana": "ハチブセ",
    "street": null,
    "office_name": null,
    "office_name_kana": null
  },
  "0073": {
    "postcode": "6470073",
    "prefecture": "和歌山県",
    "prefecture_kana": "ワカヤマケン",
    "prefecture_code": 30,
    "city": "新宮市",
    "city_kana": "シングウシ",
    "town": "木ノ川",
    "town_kana": "キノカワ",
    "street": null,
    "office_name": null,
    "office_name_kana": null
  },
  "0081": {
    "postcode": "6470081",
    "prefecture": "和歌山県",
    "prefecture_kana": "ワカヤマケン",
    "prefecture_code": 30,
    "city": "新宮市",
    "city_kana": "シングウシ",
    "town": "新宮",
    "town_kana": "シングウ",
    "street": null,
    "office_name": null,
    "office_name_kana": null
  },
  "0082": {
    "postcode": "6470082",
    "prefecture": "和歌山県",
    "prefecture_kana": "ワカヤマケン",
    "prefecture_code": 30,
    "city": "新宮市",
    "city_kana": "シングウシ",
    "town": "鴻田",
    "town_kana": "コウダ",
    "street": null,
    "office_name": null,
    "office_name_kana": null
  },
  "1101": {
    "postcode": "6471101",
    "prefecture": "和歌山県",
    "prefecture_kana": "ワカヤマケン",
    "prefecture_code": 30,
    "city": "新宮市",
    "city_kana": "シングウシ",
    "town": "高田",
    "town_kana": "タカタ",
    "street": null,
    "office_name": null,
    "office_name_kana": null
  },
  "1102": {
    "postcode": "6471102",
    "prefecture": "和歌山県",
    "prefecture_kana": "ワカヤマケン",
    "prefecture_code": 30,
    "city": "新宮市",
    "city_kana": "シングウシ",
    "town": "相賀",
    "town_kana": "オウガ",
    "street": null,
    "office_name": null,
    "office_name_kana": null
  },
  "1103": [
    {
      "postcode": "6471103",
      "prefecture": "和歌山県",
      "prefecture_kana": "ワカヤマケン",
      "prefecture_code": 30,
      "city": "新宮市",
      "city_kana": "シングウシ",
      "town": "南檜杖",
      "town_kana": "ミナミヒヅエ",
      "street": null,
      "office_name": null,
      "office_name_kana": null
    },
    {
      "postcode": "6471103",
      "prefecture": "和歌山県",
      "prefecture_kana": "ワカヤマケン",
      "prefecture_code": 30,
      "city": "新宮市",
      "city_kana": "シングウシ",
      "town": "南檜杖土ノ河",
      "town_kana": "ミナミヒヅエツチノコ",
      "street": null,
      "office_name": null,
      "office_name_kana": null
    }
  ],
  "1201": {
    "postcode": "6471201",
    "prefecture": "和歌山県",
    "prefecture_kana": "ワカヤマケン",
    "prefecture_code": 30,
    "city": "新宮市",
    "city_kana": "シングウシ",
    "town": "熊野川町上長井",
    "town_kana": "クマノガワチョウカミナガイ",
    "street": null,
    "office_name": null,
    "office_name_kana": null
  },
  "1202": {
    "postcode": "6471202",
    "prefecture": "和歌山県",
    "prefecture_kana": "ワカヤマケン",
    "prefecture_code": 30,
    "city": "新宮市",
    "city_kana": "シングウシ",
    "town": "熊野川町東",
    "town_kana": "クマノガワチョウヒガシ",
    "street": null,
    "office_name": null,
    "office_name_kana": null
  },
  "1203": {
    "postcode": "6471203",
    "prefecture": "和歌山県",
    "prefecture_kana": "ワカヤマケン",
    "prefecture_code": 30,
    "city": "新宮市",
    "city_kana": "シングウシ",
    "town": "熊野川町大山",
    "town_kana": "クマノガワチョウオオヤマ",
    "street": null,
    "office_name": null,
    "office_name_kana": null
  },
  "1204": {
    "postcode": "6471204",
    "prefecture": "和歌山県",
    "prefecture_kana": "ワカヤマケン",
    "prefecture_code": 30,
    "city": "新宮市",
    "city_kana": "シングウシ",
    "town": "熊野川町鎌塚",
    "town_kana": "クマノガワチョウカマヅカ",
    "street": null,
    "office_name": null,
    "office_name_kana": null
  },
  "1205": {
    "postcode": "6471205",
    "prefecture": "和歌山県",
    "prefecture_kana": "ワカヤマケン",
    "prefecture_code": 30,
    "city": "新宮市",
    "city_kana": "シングウシ",
    "town": "熊野川町滝本",
    "town_kana": "クマノガワチョウタキモト",
    "street": null,
    "office_name": null,
    "office_name_kana": null
  },
  "1206": {
    "postcode": "6471206",
    "prefecture": "和歌山県",
    "prefecture_kana": "ワカヤマケン",
    "prefecture_code": 30,
    "city": "新宮市",
    "city_kana": "シングウシ",
    "town": "熊野川町西",
    "town_kana": "クマノガワチョウニシ",
    "street": null,
    "office_name": null,
    "office_name_kana": null
  },
  "1207": {
    "postcode": "6471207",
    "prefecture": "和歌山県",
    "prefecture_kana": "ワカヤマケン",
    "prefecture_code": 30,
    "city": "新宮市",
    "city_kana": "シングウシ",
    "town": "熊野川町畝畑",
    "town_kana": "クマノガワチョウウネハタ",
    "street": null,
    "office_name": null,
    "office_name_kana": null
  },
  "1211": {
    "postcode": "6471211",
    "prefecture": "和歌山県",
    "prefecture_kana": "ワカヤマケン",
    "prefecture_code": 30,
    "city": "新宮市",
    "city_kana": "シングウシ",
    "town": "熊野川町日足",
    "town_kana": "クマノガワチョウヒタリ",
    "street": null,
    "office_name": null,
    "office_name_kana": null
  },
  "1212": {
    "postcode": "6471212",
    "prefecture": "和歌山県",
    "prefecture_kana": "ワカヤマケン",
    "prefecture_code": 30,
    "city": "新宮市",
    "city_kana": "シングウシ",
    "town": "熊野川町田長",
    "town_kana": "クマノガワチョウタナゴ",
    "street": null,
    "office_name": null,
    "office_name_kana": null
  },
  "1213": {
    "postcode": "6471213",
    "prefecture": "和歌山県",
    "prefecture_kana": "ワカヤマケン",
    "prefecture_code": 30,
    "city": "新宮市",
    "city_kana": "シングウシ",
    "town": "熊野川町能城山本",
    "town_kana": "クマノガワチョウノキヤマモト",
    "street": null,
    "office_name": null,
    "office_name_kana": null
  },
  "1214": {
    "postcode": "6471214",
    "prefecture": "和歌山県",
    "prefecture_kana": "ワカヤマケン",
    "prefecture_code": 30,
    "city": "新宮市",
    "city_kana": "シングウシ",
    "town": "熊野川町赤木",
    "town_kana": "クマノガワチョウアカギ",
    "street": null,
    "office_name": null,
    "office_name_kana": null
  },
  "1215": {
    "postcode": "6471215",
    "prefecture": "和歌山県",
    "prefecture_kana": "ワカヤマケン",
    "prefecture_code": 30,
    "city": "新宮市",
    "city_kana": "シングウシ",
    "town": "熊野川町椋井",
    "town_kana": "クマノガワチョウムクノイ",
    "street": null,
    "office_name": null,
    "office_name_kana": null
  },
  "1216": {
    "postcode": "6471216",
    "prefecture": "和歌山県",
    "prefecture_kana": "ワカヤマケン",
    "prefecture_code": 30,
    "city": "新宮市",
    "city_kana": "シングウシ",
    "town": "熊野川町相須",
    "town_kana": "クマノガワチョウアイス",
    "street": null,
    "office_name": null,
    "office_name_kana": null
  },
  "1221": {
    "postcode": "6471221",
    "prefecture": "和歌山県",
    "prefecture_kana": "ワカヤマケン",
    "prefecture_code": 30,
    "city": "新宮市",
    "city_kana": "シングウシ",
    "town": "熊野川町西敷屋",
    "town_kana": "クマノガワチョウニシシキヤ",
    "street": null,
    "office_name": null,
    "office_name_kana": null
  },
  "1222": {
    "postcode": "6471222",
    "prefecture": "和歌山県",
    "prefecture_kana": "ワカヤマケン",
    "prefecture_code": 30,
    "city": "新宮市",
    "city_kana": "シングウシ",
    "town": "熊野川町東敷屋",
    "town_kana": "クマノガワチョウヒガシシキヤ",
    "street": null,
    "office_name": null,
    "office_name_kana": null
  },
  "1223": {
    "postcode": "6471223",
    "prefecture": "和歌山県",
    "prefecture_kana": "ワカヤマケン",
    "prefecture_code": 30,
    "city": "新宮市",
    "city_kana": "シングウシ",
    "town": "熊野川町篠尾",
    "town_kana": "クマノガワチョウササビ",
    "street": null,
    "office_name": null,
    "office_name_kana": null
  },
  "1231": {
    "postcode": "6471231",
    "prefecture": "和歌山県",
    "prefecture_kana": "ワカヤマケン",
    "prefecture_code": 30,
    "city": "新宮市",
    "city_kana": "シングウシ",
    "town": "熊野川町玉置口",
    "town_kana": "クマノガワチョウタマキグチ",
    "street": null,
    "office_name": null,
    "office_name_kana": null
  },
  "1232": {
    "postcode": "6471232",
    "prefecture": "和歌山県",
    "prefecture_kana": "ワカヤマケン",
    "prefecture_code": 30,
    "city": "新宮市",
    "city_kana": "シングウシ",
    "town": "熊野川町嶋津",
    "town_kana": "クマノガワチョウシマヅ",
    "street": null,
    "office_name": null,
    "office_name_kana": null
  },
  "1233": {
    "postcode": "6471233",
    "prefecture": "和歌山県",
    "prefecture_kana": "ワカヤマケン",
    "prefecture_code": 30,
    "city": "新宮市",
    "city_kana": "シングウシ",
    "town": "熊野川町九重",
    "town_kana": "クマノガワチョウクジュウ",
    "street": null,
    "office_name": null,
    "office_name_kana": null
  },
  "1234": {
    "postcode": "6471234",
    "prefecture": "和歌山県",
    "prefecture_kana": "ワカヤマケン",
    "prefecture_code": 30,
    "city": "新宮市",
    "city_kana": "シングウシ",
    "town": "熊野川町四滝",
    "town_kana": "クマノガワチョウシタキ",
    "street": null,
    "office_name": null,
    "office_name_kana": null
  },
  "1235": {
    "postcode": "6471235",
    "prefecture": "和歌山県",
    "prefecture_kana": "ワカヤマケン",
    "prefecture_code": 30,
    "city": "新宮市",
    "city_kana": "シングウシ",
    "town": "熊野川町宮井",
    "town_kana": "クマノガワチョウミヤイ",
    "street": null,
    "office_name": null,
    "office_name_kana": null
  },
  "1271": {
    "postcode": "6471271",
    "prefecture": "奈良県",
    "prefecture_kana": "ナラケン",
    "prefecture_code": 29,
    "city": "吉野郡十津川村",
    "city_kana": "ヨシノグントツカワムラ",
    "town": "竹筒",
    "town_kana": "タケトウ",
    "street": null,
    "office_name": null,
    "office_name_kana": null
  },
  "1294": {
    "postcode": "6471294",
    "prefecture": "和歌山県",
    "prefecture_kana": "ワカヤマケン",
    "prefecture_code": 30,
    "city": "新宮市",
    "city_kana": "シングウシ",
    "town": "熊野川町日足",
    "town_kana": "クマノガワチョウヒタリ",
    "street": "３２４番地",
    "office_name": "新宮市役所　熊野川行政局",
    "office_name_kana": "シングウシヤクシヨ クマノガワギヨウセイキヨク"
  },
  "1321": {
    "postcode": "6471321",
    "prefecture": "三重県",
    "prefecture_kana": "ミエケン",
    "prefecture_code": 24,
    "city": "熊野市",
    "city_kana": "クマノシ",
    "town": "紀和町花井",
    "town_kana": "キワチョウケイ",
    "street": null,
    "office_name": null,
    "office_name_kana": null
  },
  "1322": {
    "postcode": "6471322",
    "prefecture": "三重県",
    "prefecture_kana": "ミエケン",
    "prefecture_code": 24,
    "city": "熊野市",
    "city_kana": "クマノシ",
    "town": "紀和町小船",
    "town_kana": "キワチョウコブネ",
    "street": null,
    "office_name": null,
    "office_name_kana": null
  },
  "1323": {
    "postcode": "6471323",
    "prefecture": "三重県",
    "prefecture_kana": "ミエケン",
    "prefecture_code": 24,
    "city": "熊野市",
    "city_kana": "クマノシ",
    "town": "紀和町楊枝川",
    "town_kana": "キワチョウヨウジガワ",
    "street": null,
    "office_name": null,
    "office_name_kana": null
  },
  "1324": {
    "postcode": "6471324",
    "prefecture": "三重県",
    "prefecture_kana": "ミエケン",
    "prefecture_code": 24,
    "city": "熊野市",
    "city_kana": "クマノシ",
    "town": "紀和町和気",
    "town_kana": "キワチョウワケ",
    "street": null,
    "office_name": null,
    "office_name_kana": null
  },
  "1325": {
    "postcode": "6471325",
    "prefecture": "三重県",
    "prefecture_kana": "ミエケン",
    "prefecture_code": 24,
    "city": "熊野市",
    "city_kana": "クマノシ",
    "town": "紀和町楊枝",
    "town_kana": "キワチョウヨウジ",
    "street": null,
    "office_name": null,
    "office_name_kana": null
  },
  "1581": {
    "postcode": "6471581",
    "prefecture": "奈良県",
    "prefecture_kana": "ナラケン",
    "prefecture_code": 29,
    "city": "吉野郡十津川村",
    "city_kana": "ヨシノグントツカワムラ",
    "town": "神下",
    "town_kana": "コウカ",
    "street": null,
    "office_name": null,
    "office_name_kana": null
  },
  "1582": {
    "postcode": "6471582",
    "prefecture": "奈良県",
    "prefecture_kana": "ナラケン",
    "prefecture_code": 29,
    "city": "吉野郡十津川村",
    "city_kana": "ヨシノグントツカワムラ",
    "town": "玉置川",
    "town_kana": "タマイガワ",
    "street": null,
    "office_name": null,
    "office_name_kana": null
  },
  "1583": {
    "postcode": "6471583",
    "prefecture": "奈良県",
    "prefecture_kana": "ナラケン",
    "prefecture_code": 29,
    "city": "吉野郡十津川村",
    "city_kana": "ヨシノグントツカワムラ",
    "town": "東中",
    "town_kana": "ヒガシナカ",
    "street": null,
    "office_name": null,
    "office_name_kana": null
  },
  "1584": {
    "postcode": "6471584",
    "prefecture": "奈良県",
    "prefecture_kana": "ナラケン",
    "prefecture_code": 29,
    "city": "吉野郡十津川村",
    "city_kana": "ヨシノグントツカワムラ",
    "town": "上葛川",
    "town_kana": "カミクズガワ",
    "street": null,
    "office_name": null,
    "office_name_kana": null
  },
  "1600": {
    "postcode": "6471600",
    "prefecture": "和歌山県",
    "prefecture_kana": "ワカヤマケン",
    "prefecture_code": 30,
    "city": "東牟婁郡北山村",
    "city_kana": "ヒガシムログンキタヤマムラ",
    "town": "",
    "town_kana": "",
    "street": null,
    "office_name": null,
    "office_name_kana": null
  },
  "1601": {
    "postcode": "6471601",
    "prefecture": "和歌山県",
    "prefecture_kana": "ワカヤマケン",
    "prefecture_code": 30,
    "city": "東牟婁郡北山村",
    "city_kana": "ヒガシムログンキタヤマムラ",
    "town": "七色",
    "town_kana": "ナナイロ",
    "street": null,
    "office_name": null,
    "office_name_kana": null
  },
  "1602": {
    "postcode": "6471602",
    "prefecture": "和歌山県",
    "prefecture_kana": "ワカヤマケン",
    "prefecture_code": 30,
    "city": "東牟婁郡北山村",
    "city_kana": "ヒガシムログンキタヤマムラ",
    "town": "竹原",
    "town_kana": "タケハラ",
    "street": null,
    "office_name": null,
    "office_name_kana": null
  },
  "1603": {
    "postcode": "6471603",
    "prefecture": "和歌山県",
    "prefecture_kana": "ワカヤマケン",
    "prefecture_code": 30,
    "city": "東牟婁郡北山村",
    "city_kana": "ヒガシムログンキタヤマムラ",
    "town": "大沼",
    "town_kana": "オオヌマ",
    "street": null,
    "office_name": null,
    "office_name_kana": null
  },
  "1604": {
    "postcode": "6471604",
    "prefecture": "和歌山県",
    "prefecture_kana": "ワカヤマケン",
    "prefecture_code": 30,
    "city": "東牟婁郡北山村",
    "city_kana": "ヒガシムログンキタヤマムラ",
    "town": "下尾井",
    "town_kana": "シモオイ",
    "street": null,
    "office_name": null,
    "office_name_kana": null
  },
  "1605": {
    "postcode": "6471605",
    "prefecture": "和歌山県",
    "prefecture_kana": "ワカヤマケン",
    "prefecture_code": 30,
    "city": "東牟婁郡北山村",
    "city_kana": "ヒガシムログンキタヤマムラ",
    "town": "小松",
    "town_kana": "コマツ",
    "street": null,
    "office_name": null,
    "office_name_kana": null
  },
  "1701": {
    "postcode": "6471701",
    "prefecture": "和歌山県",
    "prefecture_kana": "ワカヤマケン",
    "prefecture_code": 30,
    "city": "田辺市",
    "city_kana": "タナベシ",
    "town": "本宮町小津荷",
    "town_kana": "ホングウチョウコツガ",
    "street": null,
    "office_name": null,
    "office_name_kana": null
  },
  "1702": {
    "postcode": "6471702",
    "prefecture": "和歌山県",
    "prefecture_kana": "ワカヤマケン",
    "prefecture_code": 30,
    "city": "田辺市",
    "city_kana": "タナベシ",
    "town": "本宮町大津荷",
    "town_kana": "ホングウチョウオオツガ",
    "street": null,
    "office_name": null,
    "office_name_kana": null
  },
  "1703": {
    "postcode": "6471703",
    "prefecture": "和歌山県",
    "prefecture_kana": "ワカヤマケン",
    "prefecture_code": 30,
    "city": "田辺市",
    "city_kana": "タナベシ",
    "town": "本宮町請川",
    "town_kana": "ホングウチョウウケガワ",
    "street": null,
    "office_name": null,
    "office_name_kana": null
  },
  "1704": {
    "postcode": "6471704",
    "prefecture": "和歌山県",
    "prefecture_kana": "ワカヤマケン",
    "prefecture_code": 30,
    "city": "田辺市",
    "city_kana": "タナベシ",
    "town": "本宮町耳打",
    "town_kana": "ホングウチョウミミウチ",
    "street": null,
    "office_name": null,
    "office_name_kana": null
  },
  "1705": {
    "postcode": "6471705",
    "prefecture": "和歌山県",
    "prefecture_kana": "ワカヤマケン",
    "prefecture_code": 30,
    "city": "田辺市",
    "city_kana": "タナベシ",
    "town": "本宮町高山",
    "town_kana": "ホングウチョウタカヤマ",
    "street": null,
    "office_name": null,
    "office_name_kana": null
  },
  "1711": {
    "postcode": "6471711",
    "prefecture": "和歌山県",
    "prefecture_kana": "ワカヤマケン",
    "prefecture_code": 30,
    "city": "田辺市",
    "city_kana": "タナベシ",
    "town": "本宮町皆瀬川",
    "town_kana": "ホングウチョウミナセガワ",
    "street": null,
    "office_name": null,
    "office_name_kana": null
  },
  "1712": {
    "postcode": "6471712",
    "prefecture": "和歌山県",
    "prefecture_kana": "ワカヤマケン",
    "prefecture_code": 30,
    "city": "田辺市",
    "city_kana": "タナベシ",
    "town": "本宮町田代",
    "town_kana": "ホングウチョウタシロ",
    "street": null,
    "office_name": null,
    "office_name_kana": null
  },
  "1713": {
    "postcode": "6471713",
    "prefecture": "和歌山県",
    "prefecture_kana": "ワカヤマケン",
    "prefecture_code": 30,
    "city": "田辺市",
    "city_kana": "タナベシ",
    "town": "本宮町簑尾谷",
    "town_kana": "ホングウチョウミノオダニ",
    "street": null,
    "office_name": null,
    "office_name_kana": null
  },
  "1714": {
    "postcode": "6471714",
    "prefecture": "和歌山県",
    "prefecture_kana": "ワカヤマケン",
    "prefecture_code": 30,
    "city": "田辺市",
    "city_kana": "タナベシ",
    "town": "本宮町静川",
    "town_kana": "ホングウチョウシズカワ",
    "street": null,
    "office_name": null,
    "office_name_kana": null
  },
  "1715": {
    "postcode": "6471715",
    "prefecture": "和歌山県",
    "prefecture_kana": "ワカヤマケン",
    "prefecture_code": 30,
    "city": "田辺市",
    "city_kana": "タナベシ",
    "town": "本宮町東和田",
    "town_kana": "ホングウチョウヒガシワダ",
    "street": null,
    "office_name": null,
    "office_name_kana": null
  },
  "1716": {
    "postcode": "6471716",
    "prefecture": "和歌山県",
    "prefecture_kana": "ワカヤマケン",
    "prefecture_code": 30,
    "city": "田辺市",
    "city_kana": "タナベシ",
    "town": "本宮町上大野",
    "town_kana": "ホングウチョウカミオオノ",
    "street": null,
    "office_name": null,
    "office_name_kana": null
  },
  "1717": {
    "postcode": "6471717",
    "prefecture": "和歌山県",
    "prefecture_kana": "ワカヤマケン",
    "prefecture_code": 30,
    "city": "田辺市",
    "city_kana": "タナベシ",
    "town": "本宮町川湯",
    "town_kana": "ホングウチョウカワユ",
    "street": null,
    "office_name": null,
    "office_name_kana": null
  },
  "1721": {
    "postcode": "6471721",
    "prefecture": "和歌山県",
    "prefecture_kana": "ワカヤマケン",
    "prefecture_code": 30,
    "city": "田辺市",
    "city_kana": "タナベシ",
    "town": "本宮町檜葉",
    "town_kana": "ホングウチョウヒバ",
    "street": null,
    "office_name": null,
    "office_name_kana": null
  },
  "1722": {
    "postcode": "6471722",
    "prefecture": "和歌山県",
    "prefecture_kana": "ワカヤマケン",
    "prefecture_code": 30,
    "city": "田辺市",
    "city_kana": "タナベシ",
    "town": "本宮町小々森",
    "town_kana": "ホングウチョウコゴモリ",
    "street": null,
    "office_name": null,
    "office_name_kana": null
  },
  "1723": {
    "postcode": "6471723",
    "prefecture": "和歌山県",
    "prefecture_kana": "ワカヤマケン",
    "prefecture_code": 30,
    "city": "田辺市",
    "city_kana": "タナベシ",
    "town": "本宮町皆地",
    "town_kana": "ホングウチョウミナチ",
    "street": null,
    "office_name": null,
    "office_name_kana": null
  },
  "1724": {
    "postcode": "6471724",
    "prefecture": "和歌山県",
    "prefecture_kana": "ワカヤマケン",
    "prefecture_code": 30,
    "city": "田辺市",
    "city_kana": "タナベシ",
    "town": "本宮町野竹",
    "town_kana": "ホングウチョウノダケ",
    "street": null,
    "office_name": null,
    "office_name_kana": null
  },
  "1725": {
    "postcode": "6471725",
    "prefecture": "和歌山県",
    "prefecture_kana": "ワカヤマケン",
    "prefecture_code": 30,
    "city": "田辺市",
    "city_kana": "タナベシ",
    "town": "本宮町大瀬",
    "town_kana": "ホングウチョウオオゼ",
    "street": null,
    "office_name": null,
    "office_name_kana": null
  },
  "1726": {
    "postcode": "6471726",
    "prefecture": "和歌山県",
    "prefecture_kana": "ワカヤマケン",
    "prefecture_code": 30,
    "city": "田辺市",
    "city_kana": "タナベシ",
    "town": "本宮町武住",
    "town_kana": "ホングウチョウブジュウ",
    "street": null,
    "office_name": null,
    "office_name_kana": null
  },
  "1731": {
    "postcode": "6471731",
    "prefecture": "和歌山県",
    "prefecture_kana": "ワカヤマケン",
    "prefecture_code": 30,
    "city": "田辺市",
    "city_kana": "タナベシ",
    "town": "本宮町本宮",
    "town_kana": "ホングウチョウホングウ",
    "street": null,
    "office_name": null,
    "office_name_kana": null
  },
  "1732": {
    "postcode": "6471732",
    "prefecture": "和歌山県",
    "prefecture_kana": "ワカヤマケン",
    "prefecture_code": 30,
    "city": "田辺市",
    "city_kana": "タナベシ",
    "town": "本宮町湯峯",
    "town_kana": "ホングウチョウユノミネ",
    "street": null,
    "office_name": null,
    "office_name_kana": null
  },
  "1733": {
    "postcode": "6471733",
    "prefecture": "和歌山県",
    "prefecture_kana": "ワカヤマケン",
    "prefecture_code": 30,
    "city": "田辺市",
    "city_kana": "タナベシ",
    "town": "本宮町渡瀬",
    "town_kana": "ホングウチョウワタゼ",
    "street": null,
    "office_name": null,
    "office_name_kana": null
  },
  "1734": {
    "postcode": "6471734",
    "prefecture": "和歌山県",
    "prefecture_kana": "ワカヤマケン",
    "prefecture_code": 30,
    "city": "田辺市",
    "city_kana": "タナベシ",
    "town": "本宮町下湯川",
    "town_kana": "ホングウチョウシモユカワ",
    "street": null,
    "office_name": null,
    "office_name_kana": null
  },
  "1735": {
    "postcode": "6471735",
    "prefecture": "和歌山県",
    "prefecture_kana": "ワカヤマケン",
    "prefecture_code": 30,
    "city": "田辺市",
    "city_kana": "タナベシ",
    "town": "本宮町曲川",
    "town_kana": "ホングウチョウマガリカワ",
    "street": null,
    "office_name": null,
    "office_name_kana": null
  },
  "1736": {
    "postcode": "6471736",
    "prefecture": "和歌山県",
    "prefecture_kana": "ワカヤマケン",
    "prefecture_code": 30,
    "city": "田辺市",
    "city_kana": "タナベシ",
    "town": "本宮町久保野",
    "town_kana": "ホングウチョウクボノ",
    "street": null,
    "office_name": null,
    "office_name_kana": null
  },
  "1741": {
    "postcode": "6471741",
    "prefecture": "和歌山県",
    "prefecture_kana": "ワカヤマケン",
    "prefecture_code": 30,
    "city": "田辺市",
    "city_kana": "タナベシ",
    "town": "本宮町大居",
    "town_kana": "ホングウチョウオオイ",
    "street": null,
    "office_name": null,
    "office_name_kana": null
  },
  "1742": {
    "postcode": "6471742",
    "prefecture": "和歌山県",
    "prefecture_kana": "ワカヤマケン",
    "prefecture_code": 30,
    "city": "田辺市",
    "city_kana": "タナベシ",
    "town": "本宮町一本松",
    "town_kana": "ホングウチョウイッポンマツ",
    "street": null,
    "office_name": null,
    "office_name_kana": null
  },
  "1743": {
    "postcode": "6471743",
    "prefecture": "和歌山県",
    "prefecture_kana": "ワカヤマケン",
    "prefecture_code": 30,
    "city": "田辺市",
    "city_kana": "タナベシ",
    "town": "本宮町伏拝",
    "town_kana": "ホングウチョウフシオガミ",
    "street": null,
    "office_name": null,
    "office_name_kana": null
  },
  "1744": {
    "postcode": "6471744",
    "prefecture": "和歌山県",
    "prefecture_kana": "ワカヤマケン",
    "prefecture_code": 30,
    "city": "田辺市",
    "city_kana": "タナベシ",
    "town": "本宮町三越",
    "town_kana": "ホングウチョウミコシ",
    "street": null,
    "office_name": null,
    "office_name_kana": null
  },
  "1751": {
    "postcode": "6471751",
    "prefecture": "和歌山県",
    "prefecture_kana": "ワカヤマケン",
    "prefecture_code": 30,
    "city": "田辺市",
    "city_kana": "タナベシ",
    "town": "本宮町上切原",
    "town_kana": "ホングウチョウカミキリバラ",
    "street": null,
    "office_name": null,
    "office_name_kana": null
  },
  "1752": {
    "postcode": "6471752",
    "prefecture": "和歌山県",
    "prefecture_kana": "ワカヤマケン",
    "prefecture_code": 30,
    "city": "田辺市",
    "city_kana": "タナベシ",
    "town": "本宮町切畑",
    "town_kana": "ホングウチョウキリハタ",
    "street": null,
    "office_name": null,
    "office_name_kana": null
  },
  "1753": {
    "postcode": "6471753",
    "prefecture": "和歌山県",
    "prefecture_kana": "ワカヤマケン",
    "prefecture_code": 30,
    "city": "田辺市",
    "city_kana": "タナベシ",
    "town": "本宮町土河屋",
    "town_kana": "ホングウチョウツチゴヤ",
    "street": null,
    "office_name": null,
    "office_name_kana": null
  },
  "1792": {
    "postcode": "6471792",
    "prefecture": "和歌山県",
    "prefecture_kana": "ワカヤマケン",
    "prefecture_code": 30,
    "city": "田辺市",
    "city_kana": "タナベシ",
    "town": "本宮町本宮",
    "town_kana": "ホングウチョウホングウ",
    "street": "２１９",
    "office_name": "田辺市　本宮行政局",
    "office_name_kana": "タナベシ ホングウギヨウセイキヨク"
  },
  "8551": {
    "postcode": "6478551",
    "prefecture": "和歌山県",
    "prefecture_kana": "ワカヤマケン",
    "prefecture_code": 30,
    "city": "新宮市",
    "city_kana": "シングウシ",
    "town": "緑ケ丘",
    "town_kana": "ミドリガオカ",
    "street": "２丁目４番８号",
    "office_name": "東牟婁振興局",
    "office_name_kana": "ヒガシムロシンコウキヨウ"
  },
  "8555": {
    "postcode": "6478555",
    "prefecture": "和歌山県",
    "prefecture_kana": "ワカヤマケン",
    "prefecture_code": 30,
    "city": "新宮市",
    "city_kana": "シングウシ",
    "town": "春日",
    "town_kana": "カスガ",
    "street": "１番１号",
    "office_name": "新宮市役所",
    "office_name_kana": "シングウシヤクシヨ"
  }
}