{
  "0000": {
    "postcode": "6480000",
    "prefecture": "和歌山県",
    "prefecture_kana": "ワカヤマケン",
    "prefecture_code": 30,
    "city": "橋本市",
    "city_kana": "ハシモトシ",
    "town": "",
    "town_kana": "",
    "street": null,
    "office_name": null,
    "office_name_kana": null
  },
  "0001": {
    "postcode": "6480001",
    "prefecture": "和歌山県",
    "prefecture_kana": "ワカヤマケン",
    "prefecture_code": 30,
    "city": "橋本市",
    "city_kana": "ハシモトシ",
    "town": "杉尾",
    "town_kana": "スギオ",
    "street": null,
    "office_name": null,
    "office_name_kana": null
  },
  "0002": {
    "postcode": "6480002",
    "prefecture": "和歌山県",
    "prefecture_kana": "ワカヤマケン",
    "prefecture_code": 30,
    "city": "橋本市",
    "city_kana": "ハシモトシ",
    "town": "隅田町平野",
    "town_kana": "スダチョウヒラノ",
    "street": null,
    "office_name": null,
    "office_name_kana": null
  },
  "0003": {
    "postcode": "6480003",
    "prefecture": "和歌山県",
    "prefecture_kana": "ワカヤマケン",
    "prefecture_code": 30,
    "city": "橋本市",
    "city_kana": "ハシモトシ",
    "town": "隅田町山内",
    "town_kana": "スダチョウヤマウチ",
    "street": null,
    "office_name": null,
    "office_name_kana": null
  },
  "0004": {
    "postcode": "6480004",
    "prefecture": "和歌山県",
    "prefecture_kana": "ワカヤマケン",
    "prefecture_code": 30,
    "city": "橋本市",
    "city_kana": "ハシモトシ",
    "town": "隅田町霜草",
    "town_kana": "スダチョウシモクサ",
    "street": null,
    "office_name": null,
    "office_name_kana": null
  },
  "0005": {
    "postcode": "6480005",
    "prefecture": "和歌山県",
    "prefecture_kana": "ワカヤマケン",
    "prefecture_code": 30,
    "city": "橋本市",
    "city_kana": "ハシモトシ",
    "town": "小峰台",
    "town_kana": "オミネダイ",
    "street": null,
    "office_name": null,
    "office_name_kana": null
  },
  "0006": {
    "postcode": "6480006",
    "prefecture": "和歌山県",
    "prefecture_kana": "ワカヤマケン",
    "prefecture_code": 30,
    "city": "橋本市",
    "city_kana": "ハシモトシ",
    "town": "境原",
    "town_kana": "サカイハラ",
    "street": null,
    "office_name": null,
    "office_name_kana": null
  },
  "0007": {
    "postcode": "6480007",
    "prefecture": "和歌山県",
    "prefecture_kana": "ワカヤマケン",
    "prefecture_code": 30,
    "city": "橋本市",
    "city_kana": "ハシモトシ",
    "town": "紀ノ光台",
    "town_kana": "キノヒカリダイ",
    "street": null,
    "office_name": null,
    "office_name_kana": null
  },
  "0011": {
    "postcode": "6480011",
    "prefecture": "和歌山県",
    "prefecture_kana": "ワカヤマケン",
    "prefecture_code": 30,
    "city": "橋本市",
    "city_kana": "ハシモトシ",
    "town": "隅田町真土",
    "town_kana": "スダチョウマツチ",
    "street": null,
    "office_name": null,
    "office_name_kana": null
  },
  "0012": {
    "postcode": "6480012",
    "prefecture": "和歌山県",
    "prefecture_kana": "ワカヤマケン",
    "prefecture_code": 30,
    "city": "橋本市",
    "city_kana": "ハシモトシ",
    "town": "隅田町芋生",
    "town_kana": "スダチョウイモウ",
    "street": null,
    "office_name": null,
    "office_name_kana": null
  },
  "0013": {
    "postcode": "6480013",
    "prefecture": "和歌山県",
    "prefecture_kana": "ワカヤマケン",
    "prefecture_code": 30,
    "city": "橋本市",
    "city_kana": "ハシモトシ",
    "town": "隅田町中下",
    "town_kana": "スダチョウチュウゲ",
    "street": null,
    "office_name": null,
    "office_name_kana": null
  },
  "0014": {
    "postcode": "6480014",
    "prefecture": "和歌山県",
    "prefecture_kana": "ワカヤマケン",
    "prefecture_code": 30,
    "city": "橋本市",
    "city_kana": "ハシモトシ",
    "town": "隅田町上兵庫",
    "town_kana": "スダチョウカミヒョウゴ",
    "street": null,
    "office_name": null,
    "office_name_kana": null
  },
  "0015": {
    "postcode": "6480015",
    "prefecture": "和歌山県",
    "prefecture_kana": "ワカヤマケン",
    "prefecture_code": 30,
    "city": "橋本市",
    "city_kana": "ハシモトシ",
    "town": "隅田町河瀬",
    "town_kana": "スダチョウコウゼ",
    "street": null,
    "office_name": null,
    "office_name_kana": null
  },
  "0016": {
    "postcode": "6480016",
    "prefecture": "和歌山県",
    "prefecture_kana": "ワカヤマケン",
    "prefecture_code": 30,
    "city": "橋本市",
    "city_kana": "ハシモトシ",
    "town": "隅田町下兵庫",
    "town_kana": "スダチョウシモヒョウゴ",
    "street": null,
    "office_name": null,
    "office_name_kana": null
  },
  "0017": {
    "postcode": "6480017",
    "prefecture": "和歌山県",
    "prefecture_kana": "ワカヤマケン",
    "prefecture_code": 30,
    "city": "橋本市",
    "city_kana": "ハシモトシ",
    "town": "隅田町中島",
    "town_kana": "スダチョウナカジマ",
    "street": null,
    "office_name": null,
    "office_name_kana": null
  },
  "0018": {
    "postcode": "6480018",
    "prefecture": "和歌山県",
    "prefecture_kana": "ワカヤマケン",
    "prefecture_code": 30,
    "city": "橋本市",
    "city_kana": "ハシモトシ",
    "town": "隅田町垂井",
    "town_kana": "スダチョウタルイ",
    "street": null,
    "office_name": null,
    "office_name_kana": null
  },
  "0019": {
    "postcode": "6480019",
    "prefecture": "和歌山県",
    "prefecture_kana": "ワカヤマケン",
    "prefecture_code": 30,
    "city": "橋本市",
    "city_kana": "ハシモトシ",
    "town": "あやの台",
    "town_kana": "アヤノダイ",
    "street": null,
    "office_name": null,
    "office_name_kana": null
  },
  "0021": {
    "postcode": "6480021",
    "prefecture": "和歌山県",
    "prefecture_kana": "ワカヤマケン",
    "prefecture_code": 30,
    "city": "橋本市",
    "city_kana": "ハシモトシ",
    "town": "恋野",
    "town_kana": "コイノ",
    "street": null,
    "office_name": null,
    "office_name_kana": null
  },
  "0022": {
    "postcode": "6480022",
    "prefecture": "和歌山県",
    "prefecture_kana": "ワカヤマケン",
    "prefecture_code": 30,
    "city": "橋本市",
    "city_kana": "ハシモトシ",
    "town": "赤塚",
    "town_kana": "アカツカ",
    "street": null,
    "office_name": null,
    "office_name_kana": null
  },
  "0023": {
    "postcode": "6480023",
    "prefecture": "和歌山県",
    "prefecture_kana": "ワカヤマケン",
    "prefecture_code": 30,
    "city": "橋本市",
    "city_kana": "ハシモトシ",
    "town": "中道",
    "town_kana": "ナカドウ",
    "street": null,
    "office_name": null,
    "office_name_kana": null
  },
  "0024": {
    "postcode": "6480024",
    "prefecture": "和歌山県",
    "prefecture_kana": "ワカヤマケン",
    "prefecture_code": 30,
    "city": "橋本市",
    "city_kana": "ハシモトシ",
    "town": "上田",
    "town_kana": "ウエダ",
    "street": null,
    "office_name": null,
    "office_name_kana": null
  },
  "0025": {
    "postcode": "6480025",
    "prefecture": "和歌山県",
    "prefecture_kana": "ワカヤマケン",
    "prefecture_code": 30,
    "city": "橋本市",
    "city_kana": "ハシモトシ",
    "town": "向副",
    "town_kana": "ムカソイ",
    "street": null,
    "office_name": null,
    "office_name_kana": null
  },
  "0031": {
    "postcode": "6480031",
    "prefecture": "和歌山県",
    "prefecture_kana": "ワカヤマケン",
    "prefecture_code": 30,
    "city": "橋本市",
    "city_kana": "ハシモトシ",
    "town": "只野",
    "town_kana": "タダノ",
    "street": null,
    "office_name": null,
    "office_name_kana": null
  },
  "0032": {
    "postcode": "6480032",
    "prefecture": "和歌山県",
    "prefecture_kana": "ワカヤマケン",
    "prefecture_code": 30,
    "city": "橋本市",
    "city_kana": "ハシモトシ",
    "town": "谷奥深",
    "town_kana": "タニオブカ",
    "street": null,
    "office_name": null,
    "office_name_kana": null
  },
  "0033": {
    "postcode": "6480033",
    "prefecture": "和歌山県",
    "prefecture_kana": "ワカヤマケン",
    "prefecture_code": 30,
    "city": "橋本市",
    "city_kana": "ハシモトシ",
    "town": "北宿",
    "town_kana": "キタヤドリ",
    "street": null,
    "office_name": null,
    "office_name_kana": null
  },
  "0034": {
    "postcode": "6480034",
    "prefecture": "和歌山県",
    "prefecture_kana": "ワカヤマケン",
    "prefecture_code": 30,
    "city": "橋本市",
    "city_kana": "ハシモトシ",
    "town": "南宿",
    "town_kana": "ミナミヤドリ",
    "street": null,
    "office_name": null,
    "office_name_kana": null
  },
  "0035": {
    "postcode": "6480035",
    "prefecture": "和歌山県",
    "prefecture_kana": "ワカヤマケン",
    "prefecture_code": 30,
    "city": "橋本市",
    "city_kana": "ハシモトシ",
    "town": "彦谷",
    "town_kana": "ヒコタニ",
    "street": null,
    "office_name": null,
    "office_name_kana": null
  },
  "0036": {
    "postcode": "6480036",
    "prefecture": "和歌山県",
    "prefecture_kana": "ワカヤマケン",
    "prefecture_code": 30,
    "city": "橋本市",
    "city_kana": "ハシモトシ",
    "town": "横座",
    "town_kana": "ヨコザ",
    "street": null,
    "office_name": null,
    "office_name_kana": null
  },
  "0037": {
    "postcode": "6480037",
    "prefecture": "和歌山県",
    "prefecture_kana": "ワカヤマケン",
    "prefecture_code": 30,
    "city": "橋本市",
    "city_kana": "ハシモトシ",
    "town": "賢堂",
    "town_kana": "カシコド",
    "street": null,
    "office_name": null,
    "office_name_kana": null
  },
  "0038": {
    "postcode": "6480038",
    "prefecture": "和歌山県",
    "prefecture_kana": "ワカヤマケン",
    "prefecture_code": 30,
    "city": "橋本市",
    "city_kana": "ハシモトシ",
    "town": "須河",
    "town_kana": "スゴウ",
    "street": null,
    "office_name": null,
    "office_name_kana": null
  },
  "0041": {
    "postcode": "6480041",
    "prefecture": "和歌山県",
    "prefecture_kana": "ワカヤマケン",
    "prefecture_code": 30,
    "city": "橋本市",
    "city_kana": "ハシモトシ",
    "town": "清水",
    "town_kana": "シミズ",
    "street": null,
    "office_name": null,
    "office_name_kana": null
  },
  "0042": {
    "postcode": "6480042",
    "prefecture": "和歌山県",
    "prefecture_kana": "ワカヤマケン",
    "prefecture_code": 30,
    "city": "橋本市",
    "city_kana": "ハシモトシ",
    "town": "西畑",
    "town_kana": "ニシハタ",
    "street": null,
    "office_name": null,
    "office_name_kana": null
  },
  "0043": {
    "postcode": "6480043",
    "prefecture": "和歌山県",
    "prefecture_kana": "ワカヤマケン",
    "prefecture_code": 30,
    "city": "橋本市",
    "city_kana": "ハシモトシ",
    "town": "学文路",
    "town_kana": "カムロ",
    "street": null,
    "office_name": null,
    "office_name_kana": null
  },
  "0044": {
    "postcode": "6480044",
    "prefecture": "和歌山県",
    "prefecture_kana": "ワカヤマケン",
    "prefecture_code": 30,
    "city": "橋本市",
    "city_kana": "ハシモトシ",
    "town": "南馬場",
    "town_kana": "ミナミババ",
    "street": null,
    "office_name": null,
    "office_name_kana": null
  },
  "0051": {
    "postcode": "6480051",
    "prefecture": "和歌山県",
    "prefecture_kana": "ワカヤマケン",
    "prefecture_code": 30,
    "city": "橋本市",
    "city_kana": "ハシモトシ",
    "town": "細川",
    "town_kana": "ホソカワ",
    "street": null,
    "office_name": null,
    "office_name_kana": null
  },
  "0052": {
    "postcode": "6480052",
    "prefecture": "和歌山県",
    "prefecture_kana": "ワカヤマケン",
    "prefecture_code": 30,
    "city": "橋本市",
    "city_kana": "ハシモトシ",
    "town": "紀見",
    "town_kana": "キミ",
    "street": null,
    "office_name": null,
    "office_name_kana": null
  },
  "0053": {
    "postcode": "6480053",
    "prefecture": "和歌山県",
    "prefecture_kana": "ワカヤマケン",
    "prefecture_code": 30,
    "city": "橋本市",
    "city_kana": "ハシモトシ",
    "town": "しらさぎ台",
    "town_kana": "シラサギダイ",
    "street": null,
    "office_name": null,
    "office_name_kana": null
  },
  "0054": {
    "postcode": "6480054",
    "prefecture": "和歌山県",
    "prefecture_kana": "ワカヤマケン",
    "prefecture_code": 30,
    "city": "橋本市",
    "city_kana": "ハシモトシ",
    "town": "城山台",
    "town_kana": "シロヤマダイ",
    "street": null,
    "office_name": null,
    "office_name_kana": null
  },
  "0061": {
    "postcode": "6480061",
    "prefecture": "和歌山県",
    "prefecture_kana": "ワカヤマケン",
    "prefecture_code": 30,
    "city": "橋本市",
    "city_kana": "ハシモトシ",
    "town": "北馬場",
    "town_kana": "キタババ",
    "street": null,
    "office_name": null,
    "office_name_kana": null
  },
  "0062": {
    "postcode": "6480062",
    "prefecture": "和歌山県",
    "prefecture_kana": "ワカヤマケン",
    "prefecture_code": 30,
    "city": "橋本市",
    "city_kana": "ハシモトシ",
    "town": "妻",
    "town_kana": "ツマ",
    "street": null,
    "office_name": null,
    "office_name_kana": null
  },
  "0063": {
    "postcode": "6480063",
    "prefecture": "和歌山県",
    "prefecture_kana": "ワカヤマケン",
    "prefecture_code": 30,
    "city": "橋本市",
    "city_kana": "ハシモトシ",
    "town": "原田",
    "town_kana": "ハラダ",
    "street": null,
    "office_name": null,
    "office_name_kana": null
  },
  "0064": {
    "postcode": "6480064",
    "prefecture": "和歌山県",
    "prefecture_kana": "ワカヤマケン",
    "prefecture_code": 30,
    "city": "橋本市",
    "city_kana": "ハシモトシ",
    "town": "橋本",
    "town_kana": "ハシモト",
    "street": null,
    "office_name": null,
    "office_name_kana": null
  },
  "0065": {
    "postcode": "6480065",
    "prefecture": "和歌山県",
    "prefecture_kana": "ワカヤマケン",
    "prefecture_code": 30,
    "city": "橋本市",
    "city_kana": "ハシモトシ",
    "town": "古佐田",
    "town_kana": "コサダ",
    "street": null,
    "office_name": null,
    "office_name_kana": null
  },
  "0066": {
    "postcode": "6480066",
    "prefecture": "和歌山県",
    "prefecture_kana": "ワカヤマケン",
    "prefecture_code": 30,
    "city": "橋本市",
    "city_kana": "ハシモトシ",
    "town": "胡麻生",
    "town_kana": "ゴモウ",
    "street": null,
    "office_name": null,
    "office_name_kana": null
  },
  "0071": {
    "postcode": "6480071",
    "prefecture": "和歌山県",
    "prefecture_kana": "ワカヤマケン",
    "prefecture_code": 30,
    "city": "橋本市",
    "city_kana": "ハシモトシ",
    "town": "小原田",
    "town_kana": "オハラタ",
    "street": null,
    "office_name": null,
    "office_name_kana": null
  },
  "0072": {
    "postcode": "6480072",
    "prefecture": "和歌山県",
    "prefecture_kana": "ワカヤマケン",
    "prefecture_code": 30,
    "city": "橋本市",
    "city_kana": "ハシモトシ",
    "town": "東家",
    "town_kana": "トウゲ",
    "street": null,
    "office_name": null,
    "office_name_kana": null
  },
  "0073": {
    "postcode": "6480073",
    "prefecture": "和歌山県",
    "prefecture_kana": "ワカヤマケン",
    "prefecture_code": 30,
    "city": "橋本市",
    "city_kana": "ハシモトシ",
    "town": "市脇",
    "town_kana": "イチワキ",
    "street": null,
    "office_name": null,
    "office_name_kana": null
  },
  "0074": {
    "postcode": "6480074",
    "prefecture": "和歌山県",
    "prefecture_kana": "ワカヤマケン",
    "prefecture_code": 30,
    "city": "橋本市",
    "city_kana": "ハシモトシ",
    "town": "野",
    "town_kana": "ノ",
    "street": null,
    "office_name": null,
    "office_name_kana": null
  },
  "0075": {
    "postcode": "6480075",
    "prefecture": "和歌山県",
    "prefecture_kana": "ワカヤマケン",
    "prefecture_code": 30,
    "city": "橋本市",
    "city_kana": "ハシモトシ",
    "town": "さつき台",
    "town_kana": "サツキダイ",
    "street": null,
    "office_name": null,
    "office_name_kana": null
  },
  "0081": {
    "postcode": "6480081",
    "prefecture": "和歌山県",
    "prefecture_kana": "ワカヤマケン",
    "prefecture_code": 30,
    "city": "橋本市",
    "city_kana": "ハシモトシ",
    "town": "山田",
    "town_kana": "ヤマダ",
    "street": null,
    "office_name": null,
    "office_name_kana": null
  },
  "0082": {
    "postcode": "6480082",
    "prefecture": "和歌山県",
    "prefecture_kana": "ワカヤマケン",
    "prefecture_code": 30,
    "city": "橋本市",
    "city_kana": "ハシモトシ",
    "town": "菖蒲谷",
    "town_kana": "ショウブタニ",
    "street": null,
    "office_name": null,
    "office_name_kana": null
  },
  "0083": {
    "postcode": "6480083",
    "prefecture": "和歌山県",
    "prefecture_kana": "ワカヤマケン",
    "prefecture_code": 30,
    "city": "橋本市",
    "city_kana": "ハシモトシ",
    "town": "出塔",
    "town_kana": "デトウ",
    "street": null,
    "office_name": null,
    "office_name_kana": null
  },
  "0084": {
    "postcode": "6480084",
    "prefecture": "和歌山県",
    "prefecture_kana": "ワカヤマケン",
    "prefecture_code": 30,
    "city": "橋本市",
    "city_kana": "ハシモトシ",
    "town": "柏原",
    "town_kana": "カセバラ",
    "street": null,
    "office_name": null,
    "office_name_kana": null
  },
  "0085": {
    "postcode": "6480085",
    "prefecture": "和歌山県",
    "prefecture_kana": "ワカヤマケン",
    "prefecture_code": 30,
    "city": "橋本市",
    "city_kana": "ハシモトシ",
    "town": "岸上",
    "town_kana": "キシカミ",
    "street": null,
    "office_name": null,
    "office_name_kana": null
  },
  "0086": {
    "postcode": "6480086",
    "prefecture": "和歌山県",
    "prefecture_kana": "ワカヤマケン",
    "prefecture_code": 30,
    "city": "橋本市",
    "city_kana": "ハシモトシ",
    "town": "神野々",
    "town_kana": "コノノ",
    "street": null,
    "office_name": null,
    "office_name_kana": null
  },
  "0087": {
    "postcode": "6480087",
    "prefecture": "和歌山県",
    "prefecture_kana": "ワカヤマケン",
    "prefecture_code": 30,
    "city": "橋本市",
    "city_kana": "ハシモトシ",
    "town": "吉原",
    "town_kana": "ヨシハラ",
    "street": null,
    "office_name": null,
    "office_name_kana": null
  },
  "0088": {
    "postcode": "6480088",
    "prefecture": "和歌山県",
    "prefecture_kana": "ワカヤマケン",
    "prefecture_code": 30,
    "city": "橋本市",
    "city_kana": "ハシモトシ",
    "town": "みゆき台",
    "town_kana": "ミユキダイ",
    "street": null,
    "office_name": null,
    "office_name_kana": null
  },
  "0091": {
    "postcode": "6480091",
    "prefecture": "和歌山県",
    "prefecture_kana": "ワカヤマケン",
    "prefecture_code": 30,
    "city": "橋本市",
    "city_kana": "ハシモトシ",
    "town": "柱本",
    "town_kana": "ハシラモト",
    "street": null,
    "office_name": null,
    "office_name_kana": null
  },
  "0092": {
    "postcode": "6480092",
    "prefecture": "和歌山県",
    "prefecture_kana": "ワカヤマケン",
    "prefecture_code": 30,
    "city": "橋本市",
    "city_kana": "ハシモトシ",
    "town": "紀見ケ丘",
    "town_kana": "キミガオカ",
    "street": null,
    "office_name": null,
    "office_name_kana": null
  },
  "0093": {
    "postcode": "6480093",
    "prefecture": "和歌山県",
    "prefecture_kana": "ワカヤマケン",
    "prefecture_code": 30,
    "city": "橋本市",
    "city_kana": "ハシモトシ",
    "town": "慶賀野",
    "town_kana": "ケガノ",
    "street": null,
    "office_name": null,
    "office_name_kana": null
  },
  "0094": {
    "postcode": "6480094",
    "prefecture": "和歌山県",
    "prefecture_kana": "ワカヤマケン",
    "prefecture_code": 30,
    "city": "橋本市",
    "city_kana": "ハシモトシ",
    "town": "三石台",
    "town_kana": "ミツイシダイ",
    "street": null,
    "office_name": null,
    "office_name_kana": null
  },
  "0095": {
    "postcode": "6480095",
    "prefecture": "和歌山県",
    "prefecture_kana": "ワカヤマケン",
    "prefecture_code": 30,
    "city": "橋本市",
    "city_kana": "ハシモトシ",
    "town": "橋谷",
    "town_kana": "ハシタニ",
    "street": null,
    "office_name": null,
    "office_name_kana": null
  },
  "0096": {
    "postcode": "6480096",
    "prefecture": "和歌山県",
    "prefecture_kana": "ワカヤマケン",
    "prefecture_code": 30,
    "city": "橋本市",
    "city_kana": "ハシモトシ",
    "town": "御幸辻",
    "town_kana": "ミユキツジ",
    "street": null,
    "office_name": null,
    "office_name_kana": null
  },
  "0097": {
    "postcode": "6480097",
    "prefecture": "和歌山県",
    "prefecture_kana": "ワカヤマケン",
    "prefecture_code": 30,
    "city": "橋本市",
    "city_kana": "ハシモトシ",
    "town": "柿の木坂",
    "town_kana": "カキノキザカ",
    "street": null,
    "office_name": null,
    "office_name_kana": null
  },
  "0098": {
    "postcode": "6480098",
    "prefecture": "和歌山県",
    "prefecture_kana": "ワカヤマケン",
    "prefecture_code": 30,
    "city": "橋本市",
    "city_kana": "ハシモトシ",
    "town": "矢倉脇",
    "town_kana": "ヤグラワキ",
    "street": null,
    "office_name": null,
    "office_name_kana": null
  },
  "0099": {
    "postcode": "6480099",
    "prefecture": "和歌山県",
    "prefecture_kana": "ワカヤマケン",
    "prefecture_code": 30,
    "city": "橋本市",
    "city_kana": "ハシモトシ",
    "town": "光陽台",
    "town_kana": "コウヨウダイ",
    "street": null,
    "office_name": null,
    "office_name_kana": null
  },
  "0100": {
    "postcode": "6480100",
    "prefecture": "和歌山県",
    "prefecture_kana": "ワカヤマケン",
    "prefecture_code": 30,
    "city": "伊都郡九度山町",
    "city_kana": "イトグンクドヤマチョウ",
    "town": "",
    "town_kana": "",
    "street": null,
    "office_name": null,
    "office_name_kana": null
  },
  "0101": {
    "postcode": "6480101",
    "prefecture": "和歌山県",
    "prefecture_kana": "ワカヤマケン",
    "prefecture_code": 30,
    "city": "伊都郡九度山町",
    "city_kana": "イトグンクドヤマチョウ",
    "town": "九度山",
    "town_kana": "クドヤマ",
    "street": null,
    "office_name": null,
    "office_name_kana": null
  },
  "0111": {
    "postcode": "6480111",
    "prefecture": "和歌山県",
    "prefecture_kana": "ワカヤマケン",
    "prefecture_code": 30,
    "city": "伊都郡九度山町",
    "city_kana": "イトグンクドヤマチョウ",
    "town": "河根",
    "town_kana": "カネ",
    "street": null,
    "office_name": null,
    "office_name_kana": null
  },
  "0121": {
    "postcode": "6480121",
    "prefecture": "和歌山県",
    "prefecture_kana": "ワカヤマケン",
    "prefecture_code": 30,
    "city": "伊都郡九度山町",
    "city_kana": "イトグンクドヤマチョウ",
    "town": "丹生川",
    "town_kana": "ニュウカワ",
    "street": null,
    "office_name": null,
    "office_name_kana": null
  },
  "0131": {
    "postcode": "6480131",
    "prefecture": "和歌山県",
    "prefecture_kana": "ワカヤマケン",
    "prefecture_code": 30,
    "city": "伊都郡九度山町",
    "city_kana": "イトグンクドヤマチョウ",
    "town": "市平",
    "town_kana": "イチタイラ",
    "street": null,
    "office_name": null,
    "office_name_kana": null
  },
  "0132": {
    "postcode": "6480132",
    "prefecture": "和歌山県",
    "prefecture_kana": "ワカヤマケン",
    "prefecture_code": 30,
    "city": "伊都郡九度山町",
    "city_kana": "イトグンクドヤマチョウ",
    "town": "北又",
    "town_kana": "キタマタ",
    "street": null,
    "office_name": null,
    "office_name_kana": null
  },
  "0133": {
    "postcode": "6480133",
    "prefecture": "和歌山県",
    "prefecture_kana": "ワカヤマケン",
    "prefecture_code": 30,
    "city": "伊都郡九度山町",
    "city_kana": "イトグンクドヤマチョウ",
    "town": "東郷",
    "town_kana": "ヒガシゴウ",
    "street": null,
    "office_name": null,
    "office_name_kana": null
  },
  "0141": {
    "postcode": "6480141",
    "prefecture": "和歌山県",
    "prefecture_kana": "ワカヤマケン",
    "prefecture_code": 30,
    "city": "伊都郡九度山町",
    "city_kana": "イトグンクドヤマチョウ",
    "town": "椎出",
    "town_kana": "シイデ",
    "street": null,
    "office_name": null,
    "office_name_kana": null
  },
  "0142": {
    "postcode": "6480142",
    "prefecture": "和歌山県",
    "prefecture_kana": "ワカヤマケン",
    "prefecture_code": 30,
    "city": "伊都郡九度山町",
    "city_kana": "イトグンクドヤマチョウ",
    "town": "笠木",
    "town_kana": "カサギ",
    "street": null,
    "office_name": null,
    "office_name_kana": null
  },
  "0143": {
    "postcode": "6480143",
    "prefecture": "和歌山県",
    "prefecture_kana": "ワカヤマケン",
    "prefecture_code": 30,
    "city": "伊都郡九度山町",
    "city_kana": "イトグンクドヤマチョウ",
    "town": "上古沢",
    "town_kana": "カミコサワ",
    "street": null,
    "office_name": null,
    "office_name_kana": null
  },
  "0144": {
    "postcode": "6480144",
    "prefecture": "和歌山県",
    "prefecture_kana": "ワカヤマケン",
    "prefecture_code": 30,
    "city": "伊都郡九度山町",
    "city_kana": "イトグンクドヤマチョウ",
    "town": "中古沢",
    "town_kana": "ナカコサワ",
    "street": null,
    "office_name": null,
    "office_name_kana": null
  },
  "0145": {
    "postcode": "6480145",
    "prefecture": "和歌山県",
    "prefecture_kana": "ワカヤマケン",
    "prefecture_code": 30,
    "city": "伊都郡九度山町",
    "city_kana": "イトグンクドヤマチョウ",
    "town": "下古沢",
    "town_kana": "シモコサワ",
    "street": null,
    "office_name": null,
    "office_name_kana": null
  },
  "0151": {
    "postcode": "6480151",
    "prefecture": "和歌山県",
    "prefecture_kana": "ワカヤマケン",
    "prefecture_code": 30,
    "city": "伊都郡九度山町",
    "city_kana": "イトグンクドヤマチョウ",
    "town": "慈尊院",
    "town_kana": "ジソンイン",
    "street": null,
    "office_name": null,
    "office_name_kana": null
  },
  "0161": {
    "postcode": "6480161",
    "prefecture": "和歌山県",
    "prefecture_kana": "ワカヤマケン",
    "prefecture_code": 30,
    "city": "伊都郡九度山町",
    "city_kana": "イトグンクドヤマチョウ",
    "town": "入郷",
    "town_kana": "ニュウゴウ",
    "street": null,
    "office_name": null,
    "office_name_kana": null
  },
  "0171": {
    "postcode": "6480171",
    "prefecture": "和歌山県",
    "prefecture_kana": "ワカヤマケン",
    "prefecture_code": 30,
    "city": "伊都郡高野町",
    "city_kana": "イトグンコウヤチョウ",
    "town": "西郷",
    "town_kana": "ニシゴウ",
    "street": null,
    "office_name": null,
    "office_name_kana": null
  },
  "0198": {
    "postcode": "6480198",
    "prefecture": "和歌山県",
    "prefecture_kana": "ワカヤマケン",
    "prefecture_code": 30,
    "city": "伊都郡九度山町",
    "city_kana": "イトグンクドヤマチョウ",
    "town": "大字九度山",
    "town_kana": null,
    "street": "１１９０",
    "office_name": "九度山町役場",
    "office_name_kana": "クドヤマチヨウヤクバ"
  },
  "0200": {
    "postcode": "6480200",
    "prefecture": "和歌山県",
    "prefecture_kana": "ワカヤマケン",
    "prefecture_code": 30,
    "city": "伊都郡高野町",
    "city_kana": "イトグンコウヤチョウ",
    "town": "",
    "town_kana": "",
    "street": null,
    "office_name": null,
    "office_name_kana": null
  },
  "0201": {
    "postcode": "6480201",
    "prefecture": "和歌山県",
    "prefecture_kana": "ワカヤマケン",
    "prefecture_code": 30,
    "city": "伊都郡かつらぎ町",
    "city_kana": "イトグンカツラギチョウ",
    "town": "花園久木",
    "town_kana": "ハナゾノクキ",
    "street": null,
    "office_name": null,
    "office_name_kana": null
  },
  "0202": {
    "postcode": "6480202",
    "prefecture": "和歌山県",
    "prefecture_kana": "ワカヤマケン",
    "prefecture_code": 30,
    "city": "伊都郡かつらぎ町",
    "city_kana": "イトグンカツラギチョウ",
    "town": "花園中南",
    "town_kana": "ハナゾノナカミナミ",
    "street": null,
    "office_name": null,
    "office_name_kana": null
  },
  "0211": {
    "postcode": "6480211",
    "prefecture": "和歌山県",
    "prefecture_kana": "ワカヤマケン",
    "prefecture_code": 30,
    "city": "伊都郡高野町",
    "city_kana": "イトグンコウヤチョウ",
    "town": "高野山",
    "town_kana": "コウヤサン",
    "street": null,
    "office_name": null,
    "office_name_kana": null
  },
  "0221": {
    "postcode": "6480221",
    "prefecture": "和歌山県",
    "prefecture_kana": "ワカヤマケン",
    "prefecture_code": 30,
    "city": "伊都郡高野町",
    "city_kana": "イトグンコウヤチョウ",
    "town": "西ケ峰",
    "town_kana": "ニシガミネ",
    "street": null,
    "office_name": null,
    "office_name_kana": null
  },
  "0222": {
    "postcode": "6480222",
    "prefecture": "和歌山県",
    "prefecture_kana": "ワカヤマケン",
    "prefecture_code": 30,
    "city": "伊都郡高野町",
    "city_kana": "イトグンコウヤチョウ",
    "town": "南",
    "town_kana": "ミナミ",
    "street": null,
    "office_name": null,
    "office_name_kana": null
  },
  "0223": {
    "postcode": "6480223",
    "prefecture": "和歌山県",
    "prefecture_kana": "ワカヤマケン",
    "prefecture_code": 30,
    "city": "伊都郡高野町",
    "city_kana": "イトグンコウヤチョウ",
    "town": "林",
    "town_kana": "ハヤシ",
    "street": null,
    "office_name": null,
    "office_name_kana": null
  },
  "0224": {
    "postcode": "6480224",
    "prefecture": "和歌山県",
    "prefecture_kana": "ワカヤマケン",
    "prefecture_code": 30,
    "city": "伊都郡高野町",
    "city_kana": "イトグンコウヤチョウ",
    "town": "平原",
    "town_kana": "ヒラハラ",
    "street": null,
    "office_name": null,
    "office_name_kana": null
  },
  "0225": {
    "postcode": "6480225",
    "prefecture": "和歌山県",
    "prefecture_kana": "ワカヤマケン",
    "prefecture_code": 30,
    "city": "伊都郡高野町",
    "city_kana": "イトグンコウヤチョウ",
    "town": "杖ケ薮",
    "town_kana": "ツエガヤブ",
    "street": null,
    "office_name": null,
    "office_name_kana": null
  },
  "0226": {
    "postcode": "6480226",
    "prefecture": "和歌山県",
    "prefecture_kana": "ワカヤマケン",
    "prefecture_code": 30,
    "city": "伊都郡高野町",
    "city_kana": "イトグンコウヤチョウ",
    "town": "東又",
    "town_kana": "ヒガシマタ",
    "street": null,
    "office_name": null,
    "office_name_kana": null
  },
  "0227": {
    "postcode": "6480227",
    "prefecture": "和歌山県",
    "prefecture_kana": "ワカヤマケン",
    "prefecture_code": 30,
    "city": "伊都郡高野町",
    "city_kana": "イトグンコウヤチョウ",
    "town": "樫原",
    "town_kana": "カシハラ",
    "street": null,
    "office_name": null,
    "office_name_kana": null
  },
  "0231": {
    "postcode": "6480231",
    "prefecture": "和歌山県",
    "prefecture_kana": "ワカヤマケン",
    "prefecture_code": 30,
    "city": "伊都郡高野町",
    "city_kana": "イトグンコウヤチョウ",
    "town": "大滝",
    "town_kana": "オオタキ",
    "street": null,
    "office_name": null,
    "office_name_kana": null
  },
  "0241": {
    "postcode": "6480241",
    "prefecture": "和歌山県",
    "prefecture_kana": "ワカヤマケン",
    "prefecture_code": 30,
    "city": "伊都郡高野町",
    "city_kana": "イトグンコウヤチョウ",
    "town": "相ノ浦",
    "town_kana": "アイノウラ",
    "street": null,
    "office_name": null,
    "office_name_kana": null
  },
  "0251": {
    "postcode": "6480251",
    "prefecture": "和歌山県",
    "prefecture_kana": "ワカヤマケン",
    "prefecture_code": 30,
    "city": "伊都郡高野町",
    "city_kana": "イトグンコウヤチョウ",
    "town": "湯川",
    "town_kana": "ユカワ",
    "street": null,
    "office_name": null,
    "office_name_kana": null
  },
  "0261": [
    {
      "postcode": "6480261",
      "prefecture": "和歌山県",
      "prefecture_kana": "ワカヤマケン",
      "prefecture_code": 30,
      "city": "伊都郡高野町",
      "city_kana": "イトグンコウヤチョウ",
      "town": "西郷",
      "town_kana": "ニシゴウ",
      "street": null,
      "office_name": null,
      "office_name_kana": null
    },
    {
      "postcode": "6480261",
      "prefecture": "和歌山県",
      "prefecture_kana": "ワカヤマケン",
      "prefecture_code": 30,
      "city": "伊都郡高野町",
      "city_kana": "イトグンコウヤチョウ",
      "town": "西郷神谷",
      "town_kana": "ニシゴウカミヤ",
      "street": null,
      "office_name": null,
      "office_name_kana": null
    }
  ],
  "0262": {
    "postcode": "6480262",
    "prefecture": "和歌山県",
    "prefecture_kana": "ワカヤマケン",
    "prefecture_code": 30,
    "city": "伊都郡高野町",
    "city_kana": "イトグンコウヤチョウ",
    "town": "細川",
    "town_kana": "ホソカワ",
    "street": null,
    "office_name": null,
    "office_name_kana": null
  },
  "0263": {
    "postcode": "6480263",
    "prefecture": "和歌山県",
    "prefecture_kana": "ワカヤマケン",
    "prefecture_code": 30,
    "city": "伊都郡高野町",
    "city_kana": "イトグンコウヤチョウ",
    "town": "花坂",
    "town_kana": "ハナサカ",
    "street": null,
    "office_name": null,
    "office_name_kana": null
  },
  "0280": {
    "postcode": "6480280",
    "prefecture": "和歌山県",
    "prefecture_kana": "ワカヤマケン",
    "prefecture_code": 30,
    "city": "伊都郡高野町",
    "city_kana": "イトグンコウヤチョウ",
    "town": "大字高野山",
    "town_kana": null,
    "street": "３８５",
    "office_name": "学校法人　高野山学園　高野山大学",
    "office_name_kana": "ガツコウホウジン コウヤサンガクエン コウヤサンダイガク"
  },
  "0281": {
    "postcode": "6480281",
    "prefecture": "和歌山県",
    "prefecture_kana": "ワカヤマケン",
    "prefecture_code": 30,
    "city": "伊都郡高野町",
    "city_kana": "イトグンコウヤチョウ",
    "town": "大字高野山",
    "town_kana": null,
    "street": "６３６",
    "office_name": "高野町役場",
    "office_name_kana": "コウヤチヨウヤクバ"
  },
  "0282": {
    "postcode": "6480282",
    "prefecture": "和歌山県",
    "prefecture_kana": "ワカヤマケン",
    "prefecture_code": 30,
    "city": "伊都郡高野町",
    "city_kana": "イトグンコウヤチョウ",
    "town": "大字高野山",
    "town_kana": null,
    "street": "５９４",
    "office_name": "宗教法人　宿坊大円院",
    "office_name_kana": "シユウキヨウホウジン シユクボダイエンイン"
  },
  "0283": {
    "postcode": "6480283",
    "prefecture": "和歌山県",
    "prefecture_kana": "ワカヤマケン",
    "prefecture_code": 30,
    "city": "伊都郡高野町",
    "city_kana": "イトグンコウヤチョウ",
    "town": "大字高野山",
    "town_kana": null,
    "street": "４５５",
    "office_name": "持明院",
    "office_name_kana": "ジミヨウイン"
  },
  "0284": {
    "postcode": "6480284",
    "prefecture": "和歌山県",
    "prefecture_kana": "ワカヤマケン",
    "prefecture_code": 30,
    "city": "伊都郡高野町",
    "city_kana": "イトグンコウヤチョウ",
    "town": "大字高野山",
    "town_kana": null,
    "street": "４５６",
    "office_name": "高野山不動院",
    "office_name_kana": "コウヤサンフドウイン"
  },
  "0285": {
    "postcode": "6480285",
    "prefecture": "和歌山県",
    "prefecture_kana": "ワカヤマケン",
    "prefecture_code": 30,
    "city": "伊都郡高野町",
    "city_kana": "イトグンコウヤチョウ",
    "town": "大字高野山",
    "town_kana": null,
    "street": "４７８",
    "office_name": "高野山苅萱堂　密厳院",
    "office_name_kana": "コウヤサンカルカヤドウ ミツゴンイン"
  },
  "0286": {
    "postcode": "6480286",
    "prefecture": "和歌山県",
    "prefecture_kana": "ワカヤマケン",
    "prefecture_code": 30,
    "city": "伊都郡高野町",
    "city_kana": "イトグンコウヤチョウ",
    "town": "大字高野山",
    "town_kana": null,
    "street": "６４７",
    "office_name": "竜泉院",
    "office_name_kana": "リユウセンイン"
  },
  "0287": {
    "postcode": "6480287",
    "prefecture": "和歌山県",
    "prefecture_kana": "ワカヤマケン",
    "prefecture_code": 30,
    "city": "伊都郡高野町",
    "city_kana": "イトグンコウヤチョウ",
    "town": "大字高野山",
    "town_kana": null,
    "street": "２４９（高野郵便局私書箱第３号）",
    "office_name": "西南院",
    "office_name_kana": "サイナンイン"
  },
  "0288": {
    "postcode": "6480288",
    "prefecture": "和歌山県",
    "prefecture_kana": "ワカヤマケン",
    "prefecture_code": 30,
    "city": "伊都郡高野町",
    "city_kana": "イトグンコウヤチョウ",
    "town": "大字高野山",
    "town_kana": null,
    "street": "２１２",
    "office_name": "高野山高等学校",
    "office_name_kana": "コウヤサンコウトウガツコウ"
  },
  "0289": {
    "postcode": "6480289",
    "prefecture": "和歌山県",
    "prefecture_kana": "ワカヤマケン",
    "prefecture_code": 30,
    "city": "伊都郡高野町",
    "city_kana": "イトグンコウヤチョウ",
    "town": "大字高野山",
    "town_kana": null,
    "street": "１５４",
    "office_name": "西禅院",
    "office_name_kana": "サイゼンイン"
  },
  "0292": {
    "postcode": "6480292",
    "prefecture": "和歌山県",
    "prefecture_kana": "ワカヤマケン",
    "prefecture_code": 30,
    "city": "伊都郡高野町",
    "city_kana": "イトグンコウヤチョウ",
    "town": "大字高野山",
    "town_kana": null,
    "street": "１５９",
    "office_name": "正智院",
    "office_name_kana": "シヨウチイン"
  },
  "0293": {
    "postcode": "6480293",
    "prefecture": "和歌山県",
    "prefecture_kana": "ワカヤマケン",
    "prefecture_code": 30,
    "city": "伊都郡高野町",
    "city_kana": "イトグンコウヤチョウ",
    "town": "大字高野山",
    "town_kana": null,
    "street": "６０５（高野郵便局私書箱第１１号）",
    "office_name": "普賢院",
    "office_name_kana": "フゲンイン"
  },
  "0294": {
    "postcode": "6480294",
    "prefecture": "和歌山県",
    "prefecture_kana": "ワカヤマケン",
    "prefecture_code": 30,
    "city": "伊都郡高野町",
    "city_kana": "イトグンコウヤチョウ",
    "town": "大字高野山",
    "town_kana": null,
    "street": "１３２（高野郵便局私書箱第１２号）",
    "office_name": "総本山金剛峯寺",
    "office_name_kana": "ソウホンザンコンゴウブジ"
  },
  "0295": {
    "postcode": "6480295",
    "prefecture": "和歌山県",
    "prefecture_kana": "ワカヤマケン",
    "prefecture_code": 30,
    "city": "伊都郡高野町",
    "city_kana": "イトグンコウヤチョウ",
    "town": "大字高野山",
    "town_kana": null,
    "street": "２５８（高野郵便局私書箱第１６号）",
    "office_name": "大師陀羅尼製薬",
    "office_name_kana": "ダイシダラニセイヤク"
  },
  "0296": {
    "postcode": "6480296",
    "prefecture": "和歌山県",
    "prefecture_kana": "ワカヤマケン",
    "prefecture_code": 30,
    "city": "伊都郡高野町",
    "city_kana": "イトグンコウヤチョウ",
    "town": "大字高野山",
    "town_kana": null,
    "street": "１４３（高野郵便局私書箱第２０号）",
    "office_name": "総持院",
    "office_name_kana": "ソウジイン"
  },
  "0297": {
    "postcode": "6480297",
    "prefecture": "和歌山県",
    "prefecture_kana": "ワカヤマケン",
    "prefecture_code": 30,
    "city": "伊都郡高野町",
    "city_kana": "イトグンコウヤチョウ",
    "town": "大字高野山",
    "town_kana": null,
    "street": "３０３（高野郵便局私書箱第２６号）",
    "office_name": "遍照尊院",
    "office_name_kana": "ヘンジヨウソンイン"
  },
  "0298": {
    "postcode": "6480298",
    "prefecture": "和歌山県",
    "prefecture_kana": "ワカヤマケン",
    "prefecture_code": 30,
    "city": "伊都郡高野町",
    "city_kana": "イトグンコウヤチョウ",
    "town": "大字高野山",
    "town_kana": null,
    "street": "５６８",
    "office_name": "宝善院",
    "office_name_kana": "ホウゼンイン"
  },
  "0300": {
    "postcode": "6480300",
    "prefecture": "奈良県",
    "prefecture_kana": "ナラケン",
    "prefecture_code": 29,
    "city": "吉野郡野迫川村",
    "city_kana": "ヨシノグンノセガワムラ",
    "town": "",
    "town_kana": "",
    "street": null,
    "office_name": null,
    "office_name_kana": null
  },
  "0301": {
    "postcode": "6480301",
    "prefecture": "奈良県",
    "prefecture_kana": "ナラケン",
    "prefecture_code": 29,
    "city": "吉野郡野迫川村",
    "city_kana": "ヨシノグンノセガワムラ",
    "town": "池津川",
    "town_kana": "イケツカワ",
    "street": null,
    "office_name": null,
    "office_name_kana": null
  },
  "0302": {
    "postcode": "6480302",
    "prefecture": "奈良県",
    "prefecture_kana": "ナラケン",
    "prefecture_code": 29,
    "city": "吉野郡野迫川村",
    "city_kana": "ヨシノグンノセガワムラ",
    "town": "紫園",
    "town_kana": "シオン",
    "street": null,
    "office_name": null,
    "office_name_kana": null
  },
  "0303": {
    "postcode": "6480303",
    "prefecture": "奈良県",
    "prefecture_kana": "ナラケン",
    "prefecture_code": 29,
    "city": "吉野郡野迫川村",
    "city_kana": "ヨシノグンノセガワムラ",
    "town": "中津川",
    "town_kana": "ナカツガワ",
    "street": null,
    "office_name": null,
    "office_name_kana": null
  },
  "0304": {
    "postcode": "6480304",
    "prefecture": "奈良県",
    "prefecture_kana": "ナラケン",
    "prefecture_code": 29,
    "city": "吉野郡野迫川村",
    "city_kana": "ヨシノグンノセガワムラ",
    "town": "立里",
    "town_kana": "タテリ",
    "street": null,
    "office_name": null,
    "office_name_kana": null
  },
  "0305": {
    "postcode": "6480305",
    "prefecture": "奈良県",
    "prefecture_kana": "ナラケン",
    "prefecture_code": 29,
    "city": "吉野郡野迫川村",
    "city_kana": "ヨシノグンノセガワムラ",
    "town": "北股",
    "town_kana": "キタマタ",
    "street": null,
    "office_name": null,
    "office_name_kana": null
  },
  "0306": {
    "postcode": "6480306",
    "prefecture": "奈良県",
    "prefecture_kana": "ナラケン",
    "prefecture_code": 29,
    "city": "吉野郡野迫川村",
    "city_kana": "ヨシノグンノセガワムラ",
    "town": "平",
    "town_kana": "タイラ",
    "street": null,
    "office_name": null,
    "office_name_kana": null
  },
  "0307": {
    "postcode": "6480307",
    "prefecture": "奈良県",
    "prefecture_kana": "ナラケン",
    "prefecture_code": 29,
    "city": "吉野郡野迫川村",
    "city_kana": "ヨシノグンノセガワムラ",
    "town": "北今西",
    "town_kana": "キタイマニシ",
    "street": null,
    "office_name": null,
    "office_name_kana": null
  },
  "0308": {
    "postcode": "6480308",
    "prefecture": "奈良県",
    "prefecture_kana": "ナラケン",
    "prefecture_code": 29,
    "city": "吉野郡野迫川村",
    "city_kana": "ヨシノグンノセガワムラ",
    "town": "桧股",
    "town_kana": "ヒノキマタ",
    "street": null,
    "office_name": null,
    "office_name_kana": null
  },
  "0309": {
    "postcode": "6480309",
    "prefecture": "奈良県",
    "prefecture_kana": "ナラケン",
    "prefecture_code": 29,
    "city": "吉野郡野迫川村",
    "city_kana": "ヨシノグンノセガワムラ",
    "town": "弓手原",
    "town_kana": "ユミテハラ",
    "street": null,
    "office_name": null,
    "office_name_kana": null
  },
  "0392": {
    "postcode": "6480392",
    "prefecture": "奈良県",
    "prefecture_kana": "ナラケン",
    "prefecture_code": 29,
    "city": "吉野郡野迫川村",
    "city_kana": "ヨシノグンノセガワムラ",
    "town": "大字北股",
    "town_kana": null,
    "street": "８４",
    "office_name": "野迫川村役場",
    "office_name_kana": "ノセガワムラヤクバ"
  },
  "0401": {
    "postcode": "6480401",
    "prefecture": "和歌山県",
    "prefecture_kana": "ワカヤマケン",
    "prefecture_code": 30,
    "city": "伊都郡高野町",
    "city_kana": "イトグンコウヤチョウ",
    "town": "西富貴",
    "town_kana": "ニシフキ",
    "street": null,
    "office_name": null,
    "office_name_kana": null
  },
  "0402": {
    "postcode": "6480402",
    "prefecture": "和歌山県",
    "prefecture_kana": "ワカヤマケン",
    "prefecture_code": 30,
    "city": "伊都郡高野町",
    "city_kana": "イトグンコウヤチョウ",
    "town": "東富貴",
    "town_kana": "ヒガシフキ",
    "street": null,
    "office_name": null,
    "office_name_kana": null
  },
  "0403": {
    "postcode": "6480403",
    "prefecture": "和歌山県",
    "prefecture_kana": "ワカヤマケン",
    "prefecture_code": 30,
    "city": "伊都郡高野町",
    "city_kana": "イトグンコウヤチョウ",
    "town": "上筒香",
    "town_kana": "カミツツガ",
    "street": null,
    "office_name": null,
    "office_name_kana": null
  },
  "0404": {
    "postcode": "6480404",
    "prefecture": "和歌山県",
    "prefecture_kana": "ワカヤマケン",
    "prefecture_code": 30,
    "city": "伊都郡高野町",
    "city_kana": "イトグンコウヤチョウ",
    "town": "中筒香",
    "town_kana": "ナカツツガ",
    "street": null,
    "office_name": null,
    "office_name_kana": null
  },
  "0405": {
    "postcode": "6480405",
    "prefecture": "和歌山県",
    "prefecture_kana": "ワカヤマケン",
    "prefecture_code": 30,
    "city": "伊都郡高野町",
    "city_kana": "イトグンコウヤチョウ",
    "town": "下筒香",
    "town_kana": "シモツツガ",
    "street": null,
    "office_name": null,
    "office_name_kana": null
  },
  "8541": {
    "postcode": "6488541",
    "prefecture": "和歌山県",
    "prefecture_kana": "ワカヤマケン",
    "prefecture_code": 30,
    "city": "橋本市",
    "city_kana": "ハシモトシ",
    "town": "市脇",
    "town_kana": "イチワキ",
    "street": "４丁目５−８",
    "office_name": "伊都県事務所",
    "office_name_kana": "イトケンジムシヨ"
  },
  "8585": {
    "postcode": "6488585",
    "prefecture": "和歌山県",
    "prefecture_kana": "ワカヤマケン",
    "prefecture_code": 30,
    "city": "橋本市",
    "city_kana": "ハシモトシ",
    "town": "東家",
    "town_kana": "トウゲ",
    "street": "１丁目１−１",
    "office_name": "橋本市役所",
    "office_name_kana": "ハシモトシヤクシヨ"
  }
}