{
  "0101": {
    "postcode": "6490101",
    "prefecture": "和歌山県",
    "prefecture_kana": "ワカヤマケン",
    "prefecture_code": 30,
    "city": "海南市",
    "city_kana": "カイナンシ",
    "town": "下津町下津",
    "town_kana": "シモツチョウシモツ",
    "street": null,
    "office_name": null,
    "office_name_kana": null
  },
  "0111": {
    "postcode": "6490111",
    "prefecture": "和歌山県",
    "prefecture_kana": "ワカヤマケン",
    "prefecture_code": 30,
    "city": "海南市",
    "city_kana": "カイナンシ",
    "town": "下津町方",
    "town_kana": "シモツチョウカタ",
    "street": null,
    "office_name": null,
    "office_name_kana": null
  },
  "0112": {
    "postcode": "6490112",
    "prefecture": "和歌山県",
    "prefecture_kana": "ワカヤマケン",
    "prefecture_code": 30,
    "city": "海南市",
    "city_kana": "カイナンシ",
    "town": "下津町大崎",
    "town_kana": "シモツチョウオオサキ",
    "street": null,
    "office_name": null,
    "office_name_kana": null
  },
  "0121": {
    "postcode": "6490121",
    "prefecture": "和歌山県",
    "prefecture_kana": "ワカヤマケン",
    "prefecture_code": 30,
    "city": "海南市",
    "city_kana": "カイナンシ",
    "town": "下津町丸田",
    "town_kana": "シモツチョウマルダ",
    "street": null,
    "office_name": null,
    "office_name_kana": null
  },
  "0122": {
    "postcode": "6490122",
    "prefecture": "和歌山県",
    "prefecture_kana": "ワカヤマケン",
    "prefecture_code": 30,
    "city": "海南市",
    "city_kana": "カイナンシ",
    "town": "下津町黒田",
    "town_kana": "シモツチョウクロダ",
    "street": null,
    "office_name": null,
    "office_name_kana": null
  },
  "0123": {
    "postcode": "6490123",
    "prefecture": "和歌山県",
    "prefecture_kana": "ワカヤマケン",
    "prefecture_code": 30,
    "city": "海南市",
    "city_kana": "カイナンシ",
    "town": "下津町丁",
    "town_kana": "シモツチョウヨロ",
    "street": null,
    "office_name": null,
    "office_name_kana": null
  },
  "0131": {
    "postcode": "6490131",
    "prefecture": "和歌山県",
    "prefecture_kana": "ワカヤマケン",
    "prefecture_code": 30,
    "city": "海南市",
    "city_kana": "カイナンシ",
    "town": "下津町塩津",
    "town_kana": "シモツチョウシオツ",
    "street": null,
    "office_name": null,
    "office_name_kana": null
  },
  "0132": {
    "postcode": "6490132",
    "prefecture": "和歌山県",
    "prefecture_kana": "ワカヤマケン",
    "prefecture_code": 30,
    "city": "海南市",
    "city_kana": "カイナンシ",
    "town": "下津町梅田",
    "town_kana": "シモツチョウウメダ",
    "street": null,
    "office_name": null,
    "office_name_kana": null
  },
  "0133": {
    "postcode": "6490133",
    "prefecture": "和歌山県",
    "prefecture_kana": "ワカヤマケン",
    "prefecture_code": 30,
    "city": "海南市",
    "city_kana": "カイナンシ",
    "town": "下津町下",
    "town_kana": "シモツチョウシモ",
    "street": null,
    "office_name": null,
    "office_name_kana": null
  },
  "0141": {
    "postcode": "6490141",
    "prefecture": "和歌山県",
    "prefecture_kana": "ワカヤマケン",
    "prefecture_code": 30,
    "city": "海南市",
    "city_kana": "カイナンシ",
    "town": "下津町小南",
    "town_kana": "シモツチョウコミナミ",
    "street": null,
    "office_name": null,
    "office_name_kana": null
  },
  "0142": {
    "postcode": "6490142",
    "prefecture": "和歌山県",
    "prefecture_kana": "ワカヤマケン",
    "prefecture_code": 30,
    "city": "海南市",
    "city_kana": "カイナンシ",
    "town": "下津町中",
    "town_kana": "シモツチョウナカ",
    "street": null,
    "office_name": null,
    "office_name_kana": null
  },
  "0143": {
    "postcode": "6490143",
    "prefecture": "和歌山県",
    "prefecture_kana": "ワカヤマケン",
    "prefecture_code": 30,
    "city": "海南市",
    "city_kana": "カイナンシ",
    "town": "下津町小松原",
    "town_kana": "シモツチョウコマツバラ",
    "street": null,
    "office_name": null,
    "office_name_kana": null
  },
  "0144": {
    "postcode": "6490144",
    "prefecture": "和歌山県",
    "prefecture_kana": "ワカヤマケン",
    "prefecture_code": 30,
    "city": "海南市",
    "city_kana": "カイナンシ",
    "town": "下津町橘本",
    "town_kana": "シモツチョウキツモト",
    "street": null,
    "office_name": null,
    "office_name_kana": null
  },
  "0145": {
    "postcode": "6490145",
    "prefecture": "和歌山県",
    "prefecture_kana": "ワカヤマケン",
    "prefecture_code": 30,
    "city": "海南市",
    "city_kana": "カイナンシ",
    "town": "下津町市坪",
    "town_kana": "シモツチョウイチツボ",
    "street": null,
    "office_name": null,
    "office_name_kana": null
  },
  "0146": {
    "postcode": "6490146",
    "prefecture": "和歌山県",
    "prefecture_kana": "ワカヤマケン",
    "prefecture_code": 30,
    "city": "海南市",
    "city_kana": "カイナンシ",
    "town": "下津町沓掛",
    "town_kana": "シモツチョウクツカケ",
    "street": null,
    "office_name": null,
    "office_name_kana": null
  },
  "0147": {
    "postcode": "6490147",
    "prefecture": "和歌山県",
    "prefecture_kana": "ワカヤマケン",
    "prefecture_code": 30,
    "city": "海南市",
    "city_kana": "カイナンシ",
    "town": "下津町青枝",
    "town_kana": "シモツチョウアオシ",
    "street": null,
    "office_name": null,
    "office_name_kana": null
  },
  "0151": {
    "postcode": "6490151",
    "prefecture": "和歌山県",
    "prefecture_kana": "ワカヤマケン",
    "prefecture_code": 30,
    "city": "海南市",
    "city_kana": "カイナンシ",
    "town": "下津町曽根田",
    "town_kana": "シモツチョウソネダ",
    "street": null,
    "office_name": null,
    "office_name_kana": null
  },
  "0152": {
    "postcode": "6490152",
    "prefecture": "和歌山県",
    "prefecture_kana": "ワカヤマケン",
    "prefecture_code": 30,
    "city": "海南市",
    "city_kana": "カイナンシ",
    "town": "下津町引尾",
    "town_kana": "シモツチョウヒキオ",
    "street": null,
    "office_name": null,
    "office_name_kana": null
  },
  "0153": {
    "postcode": "6490153",
    "prefecture": "和歌山県",
    "prefecture_kana": "ワカヤマケン",
    "prefecture_code": 30,
    "city": "海南市",
    "city_kana": "カイナンシ",
    "town": "下津町興",
    "town_kana": "シモツチョウオキ",
    "street": null,
    "office_name": null,
    "office_name_kana": null
  },
  "0154": {
    "postcode": "6490154",
    "prefecture": "和歌山県",
    "prefecture_kana": "ワカヤマケン",
    "prefecture_code": 30,
    "city": "海南市",
    "city_kana": "カイナンシ",
    "town": "下津町笠畑",
    "town_kana": "シモツチョウカサバタ",
    "street": null,
    "office_name": null,
    "office_name_kana": null
  },
  "0155": {
    "postcode": "6490155",
    "prefecture": "和歌山県",
    "prefecture_kana": "ワカヤマケン",
    "prefecture_code": 30,
    "city": "海南市",
    "city_kana": "カイナンシ",
    "town": "下津町大窪",
    "town_kana": "シモツチョウオオクボ",
    "street": null,
    "office_name": null,
    "office_name_kana": null
  },
  "0156": {
    "postcode": "6490156",
    "prefecture": "和歌山県",
    "prefecture_kana": "ワカヤマケン",
    "prefecture_code": 30,
    "city": "海南市",
    "city_kana": "カイナンシ",
    "town": "下津町百垣内",
    "town_kana": "シモツチョウモモガイト",
    "street": null,
    "office_name": null,
    "office_name_kana": null
  },
  "0161": {
    "postcode": "6490161",
    "prefecture": "和歌山県",
    "prefecture_kana": "ワカヤマケン",
    "prefecture_code": 30,
    "city": "海南市",
    "city_kana": "カイナンシ",
    "town": "下津町小畑",
    "town_kana": "シモツチョウコバタ",
    "street": null,
    "office_name": null,
    "office_name_kana": null
  },
  "0162": {
    "postcode": "6490162",
    "prefecture": "和歌山県",
    "prefecture_kana": "ワカヤマケン",
    "prefecture_code": 30,
    "city": "海南市",
    "city_kana": "カイナンシ",
    "town": "下津町小原",
    "town_kana": "シモツチョウオバラ",
    "street": null,
    "office_name": null,
    "office_name_kana": null
  },
  "0163": {
    "postcode": "6490163",
    "prefecture": "和歌山県",
    "prefecture_kana": "ワカヤマケン",
    "prefecture_code": 30,
    "city": "海南市",
    "city_kana": "カイナンシ",
    "town": "下津町鰈川",
    "town_kana": "シモツチョウカレガワ",
    "street": null,
    "office_name": null,
    "office_name_kana": null
  },
  "0164": {
    "postcode": "6490164",
    "prefecture": "和歌山県",
    "prefecture_kana": "ワカヤマケン",
    "prefecture_code": 30,
    "city": "海南市",
    "city_kana": "カイナンシ",
    "town": "下津町上",
    "town_kana": "シモツチョウカミ",
    "street": null,
    "office_name": null,
    "office_name_kana": null
  },
  "0192": {
    "postcode": "6490192",
    "prefecture": "和歌山県",
    "prefecture_kana": "ワカヤマケン",
    "prefecture_code": 30,
    "city": "海南市",
    "city_kana": "カイナンシ",
    "town": "下津町丸田",
    "town_kana": "シモツチョウマルダ",
    "street": "２１７−１",
    "office_name": "海南市　下津行政局",
    "office_name_kana": "カイナンシ シモツギヨウセイキヨク"
  },
  "0300": {
    "postcode": "6490300",
    "prefecture": "和歌山県",
    "prefecture_kana": "ワカヤマケン",
    "prefecture_code": 30,
    "city": "有田市",
    "city_kana": "アリダシ",
    "town": "",
    "town_kana": "",
    "street": null,
    "office_name": null,
    "office_name_kana": null
  },
  "0301": {
    "postcode": "6490301",
    "prefecture": "和歌山県",
    "prefecture_kana": "ワカヤマケン",
    "prefecture_code": 30,
    "city": "有田市",
    "city_kana": "アリダシ",
    "town": "下中島",
    "town_kana": "シモナカシマ",
    "street": null,
    "office_name": null,
    "office_name_kana": null
  },
  "0302": {
    "postcode": "6490302",
    "prefecture": "和歌山県",
    "prefecture_kana": "ワカヤマケン",
    "prefecture_code": 30,
    "city": "有田市",
    "city_kana": "アリダシ",
    "town": "山田原",
    "town_kana": "ヤマダハラ",
    "street": null,
    "office_name": null,
    "office_name_kana": null
  },
  "0303": {
    "postcode": "6490303",
    "prefecture": "和歌山県",
    "prefecture_kana": "ワカヤマケン",
    "prefecture_code": 30,
    "city": "有田市",
    "city_kana": "アリダシ",
    "town": "新堂",
    "town_kana": "シンドウ",
    "street": null,
    "office_name": null,
    "office_name_kana": null
  },
  "0304": {
    "postcode": "6490304",
    "prefecture": "和歌山県",
    "prefecture_kana": "ワカヤマケン",
    "prefecture_code": 30,
    "city": "有田市",
    "city_kana": "アリダシ",
    "town": "箕島",
    "town_kana": "ミノシマ",
    "street": null,
    "office_name": null,
    "office_name_kana": null
  },
  "0305": {
    "postcode": "6490305",
    "prefecture": "和歌山県",
    "prefecture_kana": "ワカヤマケン",
    "prefecture_code": 30,
    "city": "有田市",
    "city_kana": "アリダシ",
    "town": "港町",
    "town_kana": "ミナトマチ",
    "street": null,
    "office_name": null,
    "office_name_kana": null
  },
  "0306": {
    "postcode": "6490306",
    "prefecture": "和歌山県",
    "prefecture_kana": "ワカヤマケン",
    "prefecture_code": 30,
    "city": "有田市",
    "city_kana": "アリダシ",
    "town": "初島町浜",
    "town_kana": "ハツシマチョウハマ",
    "street": null,
    "office_name": null,
    "office_name_kana": null
  },
  "0307": {
    "postcode": "6490307",
    "prefecture": "和歌山県",
    "prefecture_kana": "ワカヤマケン",
    "prefecture_code": 30,
    "city": "有田市",
    "city_kana": "アリダシ",
    "town": "初島町里",
    "town_kana": "ハツシマチョウサト",
    "street": null,
    "office_name": null,
    "office_name_kana": null
  },
  "0311": {
    "postcode": "6490311",
    "prefecture": "和歌山県",
    "prefecture_kana": "ワカヤマケン",
    "prefecture_code": 30,
    "city": "有田市",
    "city_kana": "アリダシ",
    "town": "辻堂",
    "town_kana": "ツジドウ",
    "street": null,
    "office_name": null,
    "office_name_kana": null
  },
  "0312": {
    "postcode": "6490312",
    "prefecture": "和歌山県",
    "prefecture_kana": "ワカヤマケン",
    "prefecture_code": 30,
    "city": "有田市",
    "city_kana": "アリダシ",
    "town": "星尾",
    "town_kana": "ホシオ",
    "street": null,
    "office_name": null,
    "office_name_kana": null
  },
  "0313": {
    "postcode": "6490313",
    "prefecture": "和歌山県",
    "prefecture_kana": "ワカヤマケン",
    "prefecture_code": 30,
    "city": "有田市",
    "city_kana": "アリダシ",
    "town": "千田",
    "town_kana": "チダ",
    "street": null,
    "office_name": null,
    "office_name_kana": null
  },
  "0314": {
    "postcode": "6490314",
    "prefecture": "和歌山県",
    "prefecture_kana": "ワカヤマケン",
    "prefecture_code": 30,
    "city": "有田市",
    "city_kana": "アリダシ",
    "town": "野",
    "town_kana": "ノ",
    "street": null,
    "office_name": null,
    "office_name_kana": null
  },
  "0315": {
    "postcode": "6490315",
    "prefecture": "和歌山県",
    "prefecture_kana": "ワカヤマケン",
    "prefecture_code": 30,
    "city": "有田市",
    "city_kana": "アリダシ",
    "town": "山地",
    "town_kana": "ヤマチ",
    "street": null,
    "office_name": null,
    "office_name_kana": null
  },
  "0316": {
    "postcode": "6490316",
    "prefecture": "和歌山県",
    "prefecture_kana": "ワカヤマケン",
    "prefecture_code": 30,
    "city": "有田市",
    "city_kana": "アリダシ",
    "town": "宮崎町",
    "town_kana": "ミヤザキチョウ",
    "street": null,
    "office_name": null,
    "office_name_kana": null
  },
  "0317": {
    "postcode": "6490317",
    "prefecture": "和歌山県",
    "prefecture_kana": "ワカヤマケン",
    "prefecture_code": 30,
    "city": "有田市",
    "city_kana": "アリダシ",
    "town": "古江見",
    "town_kana": "コエミ",
    "street": null,
    "office_name": null,
    "office_name_kana": null
  },
  "0421": {
    "postcode": "6490421",
    "prefecture": "和歌山県",
    "prefecture_kana": "ワカヤマケン",
    "prefecture_code": 30,
    "city": "有田市",
    "city_kana": "アリダシ",
    "town": "糸我町中番",
    "town_kana": "イトガチョウナカバン",
    "street": null,
    "office_name": null,
    "office_name_kana": null
  },
  "0422": {
    "postcode": "6490422",
    "prefecture": "和歌山県",
    "prefecture_kana": "ワカヤマケン",
    "prefecture_code": 30,
    "city": "有田市",
    "city_kana": "アリダシ",
    "town": "糸我町西",
    "town_kana": "イトガチョウニシ",
    "street": null,
    "office_name": null,
    "office_name_kana": null
  },
  "0431": {
    "postcode": "6490431",
    "prefecture": "和歌山県",
    "prefecture_kana": "ワカヤマケン",
    "prefecture_code": 30,
    "city": "有田市",
    "city_kana": "アリダシ",
    "town": "宮原町畑",
    "town_kana": "ミヤハラチョウハタ",
    "street": null,
    "office_name": null,
    "office_name_kana": null
  },
  "0432": {
    "postcode": "6490432",
    "prefecture": "和歌山県",
    "prefecture_kana": "ワカヤマケン",
    "prefecture_code": 30,
    "city": "有田市",
    "city_kana": "アリダシ",
    "town": "宮原町東",
    "town_kana": "ミヤハラチョウヒガシ",
    "street": null,
    "office_name": null,
    "office_name_kana": null
  },
  "0433": {
    "postcode": "6490433",
    "prefecture": "和歌山県",
    "prefecture_kana": "ワカヤマケン",
    "prefecture_code": 30,
    "city": "有田市",
    "city_kana": "アリダシ",
    "town": "宮原町須谷",
    "town_kana": "ミヤハラチョウスガイ",
    "street": null,
    "office_name": null,
    "office_name_kana": null
  },
  "0434": {
    "postcode": "6490434",
    "prefecture": "和歌山県",
    "prefecture_kana": "ワカヤマケン",
    "prefecture_code": 30,
    "city": "有田市",
    "city_kana": "アリダシ",
    "town": "宮原町新町",
    "town_kana": "ミヤハラチョウシンマチ",
    "street": null,
    "office_name": null,
    "office_name_kana": null
  },
  "0435": {
    "postcode": "6490435",
    "prefecture": "和歌山県",
    "prefecture_kana": "ワカヤマケン",
    "prefecture_code": 30,
    "city": "有田市",
    "city_kana": "アリダシ",
    "town": "宮原町滝川原",
    "town_kana": "ミヤハラチョウタキガハラ",
    "street": null,
    "office_name": null,
    "office_name_kana": null
  },
  "0436": {
    "postcode": "6490436",
    "prefecture": "和歌山県",
    "prefecture_kana": "ワカヤマケン",
    "prefecture_code": 30,
    "city": "有田市",
    "city_kana": "アリダシ",
    "town": "宮原町道",
    "town_kana": "ミヤハラチョウドウ",
    "street": null,
    "office_name": null,
    "office_name_kana": null
  },
  "0437": {
    "postcode": "6490437",
    "prefecture": "和歌山県",
    "prefecture_kana": "ワカヤマケン",
    "prefecture_code": 30,
    "city": "有田市",
    "city_kana": "アリダシ",
    "town": "宮原町滝",
    "town_kana": "ミヤハラチョウタキ",
    "street": null,
    "office_name": null,
    "office_name_kana": null
  },
  "1100": {
    "postcode": "6491100",
    "prefecture": "和歌山県",
    "prefecture_kana": "ワカヤマケン",
    "prefecture_code": 30,
    "city": "日高郡由良町",
    "city_kana": "ヒダカグンユラチョウ",
    "town": "",
    "town_kana": "",
    "street": null,
    "office_name": null,
    "office_name_kana": null
  },
  "1101": {
    "postcode": "6491101",
    "prefecture": "和歌山県",
    "prefecture_kana": "ワカヤマケン",
    "prefecture_code": 30,
    "city": "日高郡由良町",
    "city_kana": "ヒダカグンユラチョウ",
    "town": "畑",
    "town_kana": "ハタ",
    "street": null,
    "office_name": null,
    "office_name_kana": null
  },
  "1102": {
    "postcode": "6491102",
    "prefecture": "和歌山県",
    "prefecture_kana": "ワカヤマケン",
    "prefecture_code": 30,
    "city": "日高郡由良町",
    "city_kana": "ヒダカグンユラチョウ",
    "town": "中",
    "town_kana": "ナカ",
    "street": null,
    "office_name": null,
    "office_name_kana": null
  },
  "1103": {
    "postcode": "6491103",
    "prefecture": "和歌山県",
    "prefecture_kana": "ワカヤマケン",
    "prefecture_code": 30,
    "city": "日高郡由良町",
    "city_kana": "ヒダカグンユラチョウ",
    "town": "門前",
    "town_kana": "モンゼン",
    "street": null,
    "office_name": null,
    "office_name_kana": null
  },
  "1104": {
    "postcode": "6491104",
    "prefecture": "和歌山県",
    "prefecture_kana": "ワカヤマケン",
    "prefecture_code": 30,
    "city": "日高郡由良町",
    "city_kana": "ヒダカグンユラチョウ",
    "town": "江ノ駒",
    "town_kana": "エノコマ",
    "street": null,
    "office_name": null,
    "office_name_kana": null
  },
  "1111": {
    "postcode": "6491111",
    "prefecture": "和歌山県",
    "prefecture_kana": "ワカヤマケン",
    "prefecture_code": 30,
    "city": "日高郡由良町",
    "city_kana": "ヒダカグンユラチョウ",
    "town": "里",
    "town_kana": "サト",
    "street": null,
    "office_name": null,
    "office_name_kana": null
  },
  "1112": {
    "postcode": "6491112",
    "prefecture": "和歌山県",
    "prefecture_kana": "ワカヤマケン",
    "prefecture_code": 30,
    "city": "日高郡由良町",
    "city_kana": "ヒダカグンユラチョウ",
    "town": "網代",
    "town_kana": "アジロ",
    "street": null,
    "office_name": null,
    "office_name_kana": null
  },
  "1113": {
    "postcode": "6491113",
    "prefecture": "和歌山県",
    "prefecture_kana": "ワカヤマケン",
    "prefecture_code": 30,
    "city": "日高郡由良町",
    "city_kana": "ヒダカグンユラチョウ",
    "town": "阿戸",
    "town_kana": "アト",
    "street": null,
    "office_name": null,
    "office_name_kana": null
  },
  "1121": {
    "postcode": "6491121",
    "prefecture": "和歌山県",
    "prefecture_kana": "ワカヤマケン",
    "prefecture_code": 30,
    "city": "日高郡由良町",
    "city_kana": "ヒダカグンユラチョウ",
    "town": "吹井",
    "town_kana": "フケイ",
    "street": null,
    "office_name": null,
    "office_name_kana": null
  },
  "1122": {
    "postcode": "6491122",
    "prefecture": "和歌山県",
    "prefecture_kana": "ワカヤマケン",
    "prefecture_code": 30,
    "city": "日高郡由良町",
    "city_kana": "ヒダカグンユラチョウ",
    "town": "神谷",
    "town_kana": "カミヤ",
    "street": null,
    "office_name": null,
    "office_name_kana": null
  },
  "1123": {
    "postcode": "6491123",
    "prefecture": "和歌山県",
    "prefecture_kana": "ワカヤマケン",
    "prefecture_code": 30,
    "city": "日高郡由良町",
    "city_kana": "ヒダカグンユラチョウ",
    "town": "大引",
    "town_kana": "オオビキ",
    "street": null,
    "office_name": null,
    "office_name_kana": null
  },
  "1131": {
    "postcode": "6491131",
    "prefecture": "和歌山県",
    "prefecture_kana": "ワカヤマケン",
    "prefecture_code": 30,
    "city": "日高郡由良町",
    "city_kana": "ヒダカグンユラチョウ",
    "town": "小引",
    "town_kana": "コビキ",
    "street": null,
    "office_name": null,
    "office_name_kana": null
  },
  "1132": {
    "postcode": "6491132",
    "prefecture": "和歌山県",
    "prefecture_kana": "ワカヤマケン",
    "prefecture_code": 30,
    "city": "日高郡由良町",
    "city_kana": "ヒダカグンユラチョウ",
    "town": "衣奈",
    "town_kana": "エナ",
    "street": null,
    "office_name": null,
    "office_name_kana": null
  },
  "1133": {
    "postcode": "6491133",
    "prefecture": "和歌山県",
    "prefecture_kana": "ワカヤマケン",
    "prefecture_code": 30,
    "city": "日高郡由良町",
    "city_kana": "ヒダカグンユラチョウ",
    "town": "三尾川",
    "town_kana": "ミオガワ",
    "street": null,
    "office_name": null,
    "office_name_kana": null
  },
  "1134": {
    "postcode": "6491134",
    "prefecture": "和歌山県",
    "prefecture_kana": "ワカヤマケン",
    "prefecture_code": 30,
    "city": "日高郡由良町",
    "city_kana": "ヒダカグンユラチョウ",
    "town": "戸津井",
    "town_kana": "トツイ",
    "street": null,
    "office_name": null,
    "office_name_kana": null
  },
  "1200": {
    "postcode": "6491200",
    "prefecture": "和歌山県",
    "prefecture_kana": "ワカヤマケン",
    "prefecture_code": 30,
    "city": "日高郡日高町",
    "city_kana": "ヒダカグンヒダカチョウ",
    "town": "",
    "town_kana": "",
    "street": null,
    "office_name": null,
    "office_name_kana": null
  },
  "1201": {
    "postcode": "6491201",
    "prefecture": "和歌山県",
    "prefecture_kana": "ワカヤマケン",
    "prefecture_code": 30,
    "city": "日高郡日高町",
    "city_kana": "ヒダカグンヒダカチョウ",
    "town": "原谷",
    "town_kana": "ハラダニ",
    "street": null,
    "office_name": null,
    "office_name_kana": null
  },
  "1202": {
    "postcode": "6491202",
    "prefecture": "和歌山県",
    "prefecture_kana": "ワカヤマケン",
    "prefecture_code": 30,
    "city": "日高郡日高町",
    "city_kana": "ヒダカグンヒダカチョウ",
    "town": "萩原",
    "town_kana": "ハギワラ",
    "street": null,
    "office_name": null,
    "office_name_kana": null
  },
  "1203": {
    "postcode": "6491203",
    "prefecture": "和歌山県",
    "prefecture_kana": "ワカヤマケン",
    "prefecture_code": 30,
    "city": "日高郡日高町",
    "city_kana": "ヒダカグンヒダカチョウ",
    "town": "池田",
    "town_kana": "イケダ",
    "street": null,
    "office_name": null,
    "office_name_kana": null
  },
  "1211": {
    "postcode": "6491211",
    "prefecture": "和歌山県",
    "prefecture_kana": "ワカヤマケン",
    "prefecture_code": 30,
    "city": "日高郡日高町",
    "city_kana": "ヒダカグンヒダカチョウ",
    "town": "荊木",
    "town_kana": "イバラキ",
    "street": null,
    "office_name": null,
    "office_name_kana": null
  },
  "1212": {
    "postcode": "6491212",
    "prefecture": "和歌山県",
    "prefecture_kana": "ワカヤマケン",
    "prefecture_code": 30,
    "city": "日高郡日高町",
    "city_kana": "ヒダカグンヒダカチョウ",
    "town": "小中",
    "town_kana": "オナカ",
    "street": null,
    "office_name": null,
    "office_name_kana": null
  },
  "1213": {
    "postcode": "6491213",
    "prefecture": "和歌山県",
    "prefecture_kana": "ワカヤマケン",
    "prefecture_code": 30,
    "city": "日高郡日高町",
    "city_kana": "ヒダカグンヒダカチョウ",
    "town": "高家",
    "town_kana": "タイエ",
    "street": null,
    "office_name": null,
    "office_name_kana": null
  },
  "1221": {
    "postcode": "6491221",
    "prefecture": "和歌山県",
    "prefecture_kana": "ワカヤマケン",
    "prefecture_code": 30,
    "city": "日高郡日高町",
    "city_kana": "ヒダカグンヒダカチョウ",
    "town": "志賀",
    "town_kana": "シガ",
    "street": null,
    "office_name": null,
    "office_name_kana": null
  },
  "1222": {
    "postcode": "6491222",
    "prefecture": "和歌山県",
    "prefecture_kana": "ワカヤマケン",
    "prefecture_code": 30,
    "city": "日高郡日高町",
    "city_kana": "ヒダカグンヒダカチョウ",
    "town": "小池",
    "town_kana": "オイケ",
    "street": null,
    "office_name": null,
    "office_name_kana": null
  },
  "1223": {
    "postcode": "6491223",
    "prefecture": "和歌山県",
    "prefecture_kana": "ワカヤマケン",
    "prefecture_code": 30,
    "city": "日高郡日高町",
    "city_kana": "ヒダカグンヒダカチョウ",
    "town": "小浦",
    "town_kana": "オウラ",
    "street": null,
    "office_name": null,
    "office_name_kana": null
  },
  "1224": {
    "postcode": "6491224",
    "prefecture": "和歌山県",
    "prefecture_kana": "ワカヤマケン",
    "prefecture_code": 30,
    "city": "日高郡日高町",
    "city_kana": "ヒダカグンヒダカチョウ",
    "town": "津久野",
    "town_kana": "ツクノ",
    "street": null,
    "office_name": null,
    "office_name_kana": null
  },
  "1225": {
    "postcode": "6491225",
    "prefecture": "和歌山県",
    "prefecture_kana": "ワカヤマケン",
    "prefecture_code": 30,
    "city": "日高郡日高町",
    "city_kana": "ヒダカグンヒダカチョウ",
    "town": "方杭",
    "town_kana": "カタクイ",
    "street": null,
    "office_name": null,
    "office_name_kana": null
  },
  "1231": {
    "postcode": "6491231",
    "prefecture": "和歌山県",
    "prefecture_kana": "ワカヤマケン",
    "prefecture_code": 30,
    "city": "日高郡日高町",
    "city_kana": "ヒダカグンヒダカチョウ",
    "town": "小坂",
    "town_kana": "オサカ",
    "street": null,
    "office_name": null,
    "office_name_kana": null
  },
  "1232": {
    "postcode": "6491232",
    "prefecture": "和歌山県",
    "prefecture_kana": "ワカヤマケン",
    "prefecture_code": 30,
    "city": "日高郡日高町",
    "city_kana": "ヒダカグンヒダカチョウ",
    "town": "阿尾",
    "town_kana": "アオ",
    "street": null,
    "office_name": null,
    "office_name_kana": null
  },
  "1233": {
    "postcode": "6491233",
    "prefecture": "和歌山県",
    "prefecture_kana": "ワカヤマケン",
    "prefecture_code": 30,
    "city": "日高郡日高町",
    "city_kana": "ヒダカグンヒダカチョウ",
    "town": "産湯",
    "town_kana": "ウブユ",
    "street": null,
    "office_name": null,
    "office_name_kana": null
  },
  "1234": {
    "postcode": "6491234",
    "prefecture": "和歌山県",
    "prefecture_kana": "ワカヤマケン",
    "prefecture_code": 30,
    "city": "日高郡日高町",
    "city_kana": "ヒダカグンヒダカチョウ",
    "town": "比井",
    "town_kana": "ヒイ",
    "street": null,
    "office_name": null,
    "office_name_kana": null
  },
  "1300": {
    "postcode": "6491300",
    "prefecture": "和歌山県",
    "prefecture_kana": "ワカヤマケン",
    "prefecture_code": 30,
    "city": "日高郡日高川町",
    "city_kana": "ヒダカグンヒダカガワチョウ",
    "town": "",
    "town_kana": "",
    "street": null,
    "office_name": null,
    "office_name_kana": null
  },
  "1311": {
    "postcode": "6491311",
    "prefecture": "和歌山県",
    "prefecture_kana": "ワカヤマケン",
    "prefecture_code": 30,
    "city": "日高郡日高川町",
    "city_kana": "ヒダカグンヒダカガワチョウ",
    "town": "平川",
    "town_kana": "ヒュウガワ",
    "street": null,
    "office_name": null,
    "office_name_kana": null
  },
  "1312": {
    "postcode": "6491312",
    "prefecture": "和歌山県",
    "prefecture_kana": "ワカヤマケン",
    "prefecture_code": 30,
    "city": "日高郡日高川町",
    "city_kana": "ヒダカグンヒダカガワチョウ",
    "town": "三百瀬",
    "town_kana": "ミヨセ",
    "street": null,
    "office_name": null,
    "office_name_kana": null
  },
  "1313": {
    "postcode": "6491313",
    "prefecture": "和歌山県",
    "prefecture_kana": "ワカヤマケン",
    "prefecture_code": 30,
    "city": "日高郡日高川町",
    "city_kana": "ヒダカグンヒダカガワチョウ",
    "town": "伊藤川",
    "town_kana": "イトゴ",
    "street": null,
    "office_name": null,
    "office_name_kana": null
  },
  "1314": {
    "postcode": "6491314",
    "prefecture": "和歌山県",
    "prefecture_kana": "ワカヤマケン",
    "prefecture_code": 30,
    "city": "日高郡日高川町",
    "city_kana": "ヒダカグンヒダカガワチョウ",
    "town": "早藤",
    "town_kana": "ハイクズ",
    "street": null,
    "office_name": null,
    "office_name_kana": null
  },
  "1315": {
    "postcode": "6491315",
    "prefecture": "和歌山県",
    "prefecture_kana": "ワカヤマケン",
    "prefecture_code": 30,
    "city": "日高郡日高川町",
    "city_kana": "ヒダカグンヒダカガワチョウ",
    "town": "玄子",
    "town_kana": "ゲンゴ",
    "street": null,
    "office_name": null,
    "office_name_kana": null
  },
  "1316": {
    "postcode": "6491316",
    "prefecture": "和歌山県",
    "prefecture_kana": "ワカヤマケン",
    "prefecture_code": 30,
    "city": "日高郡日高川町",
    "city_kana": "ヒダカグンヒダカガワチョウ",
    "town": "蛇尾",
    "town_kana": "ヘビオ",
    "street": null,
    "office_name": null,
    "office_name_kana": null
  },
  "1321": {
    "postcode": "6491321",
    "prefecture": "和歌山県",
    "prefecture_kana": "ワカヤマケン",
    "prefecture_code": 30,
    "city": "日高郡日高川町",
    "city_kana": "ヒダカグンヒダカガワチョウ",
    "town": "入野",
    "town_kana": "ニュウノ",
    "street": null,
    "office_name": null,
    "office_name_kana": null
  },
  "1322": {
    "postcode": "6491322",
    "prefecture": "和歌山県",
    "prefecture_kana": "ワカヤマケン",
    "prefecture_code": 30,
    "city": "日高郡日高川町",
    "city_kana": "ヒダカグンヒダカガワチョウ",
    "town": "若野",
    "town_kana": "ワカノ",
    "street": null,
    "office_name": null,
    "office_name_kana": null
  },
  "1323": {
    "postcode": "6491323",
    "prefecture": "和歌山県",
    "prefecture_kana": "ワカヤマケン",
    "prefecture_code": 30,
    "city": "日高郡日高川町",
    "city_kana": "ヒダカグンヒダカガワチョウ",
    "town": "小熊",
    "town_kana": "コグマ",
    "street": null,
    "office_name": null,
    "office_name_kana": null
  },
  "1324": {
    "postcode": "6491324",
    "prefecture": "和歌山県",
    "prefecture_kana": "ワカヤマケン",
    "prefecture_code": 30,
    "city": "日高郡日高川町",
    "city_kana": "ヒダカグンヒダカガワチョウ",
    "town": "土生",
    "town_kana": "ハブ",
    "street": null,
    "office_name": null,
    "office_name_kana": null
  },
  "1325": {
    "postcode": "6491325",
    "prefecture": "和歌山県",
    "prefecture_kana": "ワカヤマケン",
    "prefecture_code": 30,
    "city": "日高郡日高川町",
    "city_kana": "ヒダカグンヒダカガワチョウ",
    "town": "中津川",
    "town_kana": "ナカツカワ",
    "street": null,
    "office_name": null,
    "office_name_kana": null
  },
  "1331": {
    "postcode": "6491331",
    "prefecture": "和歌山県",
    "prefecture_kana": "ワカヤマケン",
    "prefecture_code": 30,
    "city": "日高郡日高川町",
    "city_kana": "ヒダカグンヒダカガワチョウ",
    "town": "鐘巻",
    "town_kana": "カネマキ",
    "street": null,
    "office_name": null,
    "office_name_kana": null
  },
  "1332": {
    "postcode": "6491332",
    "prefecture": "和歌山県",
    "prefecture_kana": "ワカヤマケン",
    "prefecture_code": 30,
    "city": "日高郡日高川町",
    "city_kana": "ヒダカグンヒダカガワチョウ",
    "town": "千津川",
    "town_kana": "センヅガワ",
    "street": null,
    "office_name": null,
    "office_name_kana": null
  },
  "1341": {
    "postcode": "6491341",
    "prefecture": "和歌山県",
    "prefecture_kana": "ワカヤマケン",
    "prefecture_code": 30,
    "city": "御坊市",
    "city_kana": "ゴボウシ",
    "town": "藤田町藤井",
    "town_kana": "フジタチョウフジイ",
    "street": null,
    "office_name": null,
    "office_name_kana": null
  },
  "1342": {
    "postcode": "6491342",
    "prefecture": "和歌山県",
    "prefecture_kana": "ワカヤマケン",
    "prefecture_code": 30,
    "city": "御坊市",
    "city_kana": "ゴボウシ",
    "town": "藤田町吉田",
    "town_kana": "フジタチョウヨシダ",
    "street": null,
    "office_name": null,
    "office_name_kana": null
  },
  "1441": {
    "postcode": "6491441",
    "prefecture": "和歌山県",
    "prefecture_kana": "ワカヤマケン",
    "prefecture_code": 30,
    "city": "日高郡日高川町",
    "city_kana": "ヒダカグンヒダカガワチョウ",
    "town": "山野",
    "town_kana": "サンヤ",
    "street": null,
    "office_name": null,
    "office_name_kana": null
  },
  "1442": {
    "postcode": "6491442",
    "prefecture": "和歌山県",
    "prefecture_kana": "ワカヤマケン",
    "prefecture_code": 30,
    "city": "日高郡日高川町",
    "city_kana": "ヒダカグンヒダカガワチョウ",
    "town": "江川",
    "town_kana": "エカワ",
    "street": null,
    "office_name": null,
    "office_name_kana": null
  },
  "1443": {
    "postcode": "6491443",
    "prefecture": "和歌山県",
    "prefecture_kana": "ワカヤマケン",
    "prefecture_code": 30,
    "city": "日高郡日高川町",
    "city_kana": "ヒダカグンヒダカガワチョウ",
    "town": "和佐",
    "town_kana": "ワサ",
    "street": null,
    "office_name": null,
    "office_name_kana": null
  },
  "1444": {
    "postcode": "6491444",
    "prefecture": "和歌山県",
    "prefecture_kana": "ワカヤマケン",
    "prefecture_code": 30,
    "city": "日高郡日高川町",
    "city_kana": "ヒダカグンヒダカガワチョウ",
    "town": "松瀬",
    "town_kana": "マツセ",
    "street": null,
    "office_name": null,
    "office_name_kana": null
  },
  "1500": {
    "postcode": "6491500",
    "prefecture": "和歌山県",
    "prefecture_kana": "ワカヤマケン",
    "prefecture_code": 30,
    "city": "日高郡印南町",
    "city_kana": "ヒダカグンイナミチョウ",
    "town": "",
    "town_kana": "",
    "street": null,
    "office_name": null,
    "office_name_kana": null
  },
  "1521": {
    "postcode": "6491521",
    "prefecture": "和歌山県",
    "prefecture_kana": "ワカヤマケン",
    "prefecture_code": 30,
    "city": "日高郡印南町",
    "city_kana": "ヒダカグンイナミチョウ",
    "town": "美里",
    "town_kana": "ミサト",
    "street": null,
    "office_name": null,
    "office_name_kana": null
  },
  "1522": {
    "postcode": "6491522",
    "prefecture": "和歌山県",
    "prefecture_kana": "ワカヤマケン",
    "prefecture_code": 30,
    "city": "日高郡印南町",
    "city_kana": "ヒダカグンイナミチョウ",
    "town": "古井",
    "town_kana": "フルイ",
    "street": null,
    "office_name": null,
    "office_name_kana": null
  },
  "1523": {
    "postcode": "6491523",
    "prefecture": "和歌山県",
    "prefecture_kana": "ワカヤマケン",
    "prefecture_code": 30,
    "city": "日高郡印南町",
    "city_kana": "ヒダカグンイナミチョウ",
    "town": "樮川",
    "town_kana": "ホクソガワ",
    "street": null,
    "office_name": null,
    "office_name_kana": null
  },
  "1524": {
    "postcode": "6491524",
    "prefecture": "和歌山県",
    "prefecture_kana": "ワカヤマケン",
    "prefecture_code": 30,
    "city": "日高郡印南町",
    "city_kana": "ヒダカグンイナミチョウ",
    "town": "羽六",
    "town_kana": "ハロク",
    "street": null,
    "office_name": null,
    "office_name_kana": null
  },
  "1525": {
    "postcode": "6491525",
    "prefecture": "和歌山県",
    "prefecture_kana": "ワカヤマケン",
    "prefecture_code": 30,
    "city": "日高郡印南町",
    "city_kana": "ヒダカグンイナミチョウ",
    "town": "古屋",
    "town_kana": "フルヤ",
    "street": null,
    "office_name": null,
    "office_name_kana": null
  },
  "1526": {
    "postcode": "6491526",
    "prefecture": "和歌山県",
    "prefecture_kana": "ワカヤマケン",
    "prefecture_code": 30,
    "city": "日高郡印南町",
    "city_kana": "ヒダカグンイナミチョウ",
    "town": "宮ノ前",
    "town_kana": "ミヤノマエ",
    "street": null,
    "office_name": null,
    "office_name_kana": null
  },
  "1527": {
    "postcode": "6491527",
    "prefecture": "和歌山県",
    "prefecture_kana": "ワカヤマケン",
    "prefecture_code": 30,
    "city": "日高郡印南町",
    "city_kana": "ヒダカグンイナミチョウ",
    "town": "島田",
    "town_kana": "シマダ",
    "street": null,
    "office_name": null,
    "office_name_kana": null
  },
  "1528": {
    "postcode": "6491528",
    "prefecture": "和歌山県",
    "prefecture_kana": "ワカヤマケン",
    "prefecture_code": 30,
    "city": "日高郡印南町",
    "city_kana": "ヒダカグンイナミチョウ",
    "town": "西ノ地",
    "town_kana": "ニシノジ",
    "street": null,
    "office_name": null,
    "office_name_kana": null
  },
  "1531": {
    "postcode": "6491531",
    "prefecture": "和歌山県",
    "prefecture_kana": "ワカヤマケン",
    "prefecture_code": 30,
    "city": "日高郡印南町",
    "city_kana": "ヒダカグンイナミチョウ",
    "town": "立石",
    "town_kana": "タテイシ",
    "street": null,
    "office_name": null,
    "office_name_kana": null
  },
  "1532": {
    "postcode": "6491532",
    "prefecture": "和歌山県",
    "prefecture_kana": "ワカヤマケン",
    "prefecture_code": 30,
    "city": "日高郡印南町",
    "city_kana": "ヒダカグンイナミチョウ",
    "town": "印南原",
    "town_kana": "イナンバラ",
    "street": null,
    "office_name": null,
    "office_name_kana": null
  },
  "1533": {
    "postcode": "6491533",
    "prefecture": "和歌山県",
    "prefecture_kana": "ワカヤマケン",
    "prefecture_code": 30,
    "city": "日高郡印南町",
    "city_kana": "ヒダカグンイナミチョウ",
    "town": "山口",
    "town_kana": "ヤマグチ",
    "street": null,
    "office_name": null,
    "office_name_kana": null
  },
  "1534": {
    "postcode": "6491534",
    "prefecture": "和歌山県",
    "prefecture_kana": "ワカヤマケン",
    "prefecture_code": 30,
    "city": "日高郡印南町",
    "city_kana": "ヒダカグンイナミチョウ",
    "town": "印南",
    "town_kana": "イナミ",
    "street": null,
    "office_name": null,
    "office_name_kana": null
  },
  "1535": {
    "postcode": "6491535",
    "prefecture": "和歌山県",
    "prefecture_kana": "ワカヤマケン",
    "prefecture_code": 30,
    "city": "日高郡印南町",
    "city_kana": "ヒダカグンイナミチョウ",
    "town": "津井",
    "town_kana": "ツイ",
    "street": null,
    "office_name": null,
    "office_name_kana": null
  },
  "1536": {
    "postcode": "6491536",
    "prefecture": "和歌山県",
    "prefecture_kana": "ワカヤマケン",
    "prefecture_code": 30,
    "city": "日高郡印南町",
    "city_kana": "ヒダカグンイナミチョウ",
    "town": "南谷",
    "town_kana": "ミナミダニ",
    "street": null,
    "office_name": null,
    "office_name_kana": null
  },
  "1537": {
    "postcode": "6491537",
    "prefecture": "和歌山県",
    "prefecture_kana": "ワカヤマケン",
    "prefecture_code": 30,
    "city": "日高郡印南町",
    "city_kana": "ヒダカグンイナミチョウ",
    "town": "明神川",
    "town_kana": "ミョウジンガワ",
    "street": null,
    "office_name": null,
    "office_name_kana": null
  },
  "2100": {
    "postcode": "6492100",
    "prefecture": "和歌山県",
    "prefecture_kana": "ワカヤマケン",
    "prefecture_code": 30,
    "city": "西牟婁郡上富田町",
    "city_kana": "ニシムログンカミトンダチョウ",
    "town": "",
    "town_kana": "",
    "street": null,
    "office_name": null,
    "office_name_kana": null
  },
  "2101": {
    "postcode": "6492101",
    "prefecture": "和歌山県",
    "prefecture_kana": "ワカヤマケン",
    "prefecture_code": 30,
    "city": "西牟婁郡上富田町",
    "city_kana": "ニシムログンカミトンダチョウ",
    "town": "岡",
    "town_kana": "オカ",
    "street": null,
    "office_name": null,
    "office_name_kana": null
  },
  "2102": {
    "postcode": "6492102",
    "prefecture": "和歌山県",
    "prefecture_kana": "ワカヤマケン",
    "prefecture_code": 30,
    "city": "西牟婁郡上富田町",
    "city_kana": "ニシムログンカミトンダチョウ",
    "town": "岩田",
    "town_kana": "イワダ",
    "street": null,
    "office_name": null,
    "office_name_kana": null
  },
  "2103": {
    "postcode": "6492103",
    "prefecture": "和歌山県",
    "prefecture_kana": "ワカヤマケン",
    "prefecture_code": 30,
    "city": "西牟婁郡上富田町",
    "city_kana": "ニシムログンカミトンダチョウ",
    "town": "生馬",
    "town_kana": "イクマ",
    "street": null,
    "office_name": null,
    "office_name_kana": null
  },
  "2104": {
    "postcode": "6492104",
    "prefecture": "和歌山県",
    "prefecture_kana": "ワカヤマケン",
    "prefecture_code": 30,
    "city": "西牟婁郡上富田町",
    "city_kana": "ニシムログンカミトンダチョウ",
    "town": "岩崎",
    "town_kana": "イワサキ",
    "street": null,
    "office_name": null,
    "office_name_kana": null
  },
  "2105": {
    "postcode": "6492105",
    "prefecture": "和歌山県",
    "prefecture_kana": "ワカヤマケン",
    "prefecture_code": 30,
    "city": "西牟婁郡上富田町",
    "city_kana": "ニシムログンカミトンダチョウ",
    "town": "朝来",
    "town_kana": "アッソ",
    "street": null,
    "office_name": null,
    "office_name_kana": null
  },
  "2106": {
    "postcode": "6492106",
    "prefecture": "和歌山県",
    "prefecture_kana": "ワカヤマケン",
    "prefecture_code": 30,
    "city": "西牟婁郡上富田町",
    "city_kana": "ニシムログンカミトンダチョウ",
    "town": "南紀の台",
    "town_kana": "ナンキノダイ",
    "street": null,
    "office_name": null,
    "office_name_kana": null
  },
  "2107": {
    "postcode": "6492107",
    "prefecture": "和歌山県",
    "prefecture_kana": "ワカヤマケン",
    "prefecture_code": 30,
    "city": "西牟婁郡上富田町",
    "city_kana": "ニシムログンカミトンダチョウ",
    "town": "市ノ瀬",
    "town_kana": "イチノセ",
    "street": null,
    "office_name": null,
    "office_name_kana": null
  },
  "2108": {
    "postcode": "6492108",
    "prefecture": "和歌山県",
    "prefecture_kana": "ワカヤマケン",
    "prefecture_code": 30,
    "city": "西牟婁郡上富田町",
    "city_kana": "ニシムログンカミトンダチョウ",
    "town": "下鮎川",
    "town_kana": "シモアユカワ",
    "street": null,
    "office_name": null,
    "office_name_kana": null
  },
  "2192": {
    "postcode": "6492192",
    "prefecture": "和歌山県",
    "prefecture_kana": "ワカヤマケン",
    "prefecture_code": 30,
    "city": "西牟婁郡上富田町",
    "city_kana": "ニシムログンカミトンダチョウ",
    "town": "朝来",
    "town_kana": "アッソ",
    "street": "７６３",
    "office_name": "上富田町役場",
    "office_name_kana": "カミトンダチヨウヤクバ"
  },
  "2193": {
    "postcode": "6492193",
    "prefecture": "和歌山県",
    "prefecture_kana": "ワカヤマケン",
    "prefecture_code": 30,
    "city": "西牟婁郡上富田町",
    "city_kana": "ニシムログンカミトンダチョウ",
    "town": "岩田",
    "town_kana": "イワダ",
    "street": "４５４",
    "office_name": "有限会社　紀の里食品",
    "office_name_kana": "ユウゲンガイシヤ キノサトシヨクヒン"
  },
  "2195": {
    "postcode": "6492195",
    "prefecture": "和歌山県",
    "prefecture_kana": "ワカヤマケン",
    "prefecture_code": 30,
    "city": "西牟婁郡上富田町",
    "city_kana": "ニシムログンカミトンダチョウ",
    "town": "朝来",
    "town_kana": "アッソ",
    "street": "６７０",
    "office_name": "熊野高等学校",
    "office_name_kana": "クマノコウトウガツコウ"
  },
  "2198": {
    "postcode": "6492198",
    "prefecture": "和歌山県",
    "prefecture_kana": "ワカヤマケン",
    "prefecture_code": 30,
    "city": "西牟婁郡上富田町",
    "city_kana": "ニシムログンカミトンダチョウ",
    "town": "岩田",
    "town_kana": "イワダ",
    "street": "２４８３−１",
    "office_name": "有限会社　深見梅店",
    "office_name_kana": "ユウゲンガイシヤ フカミウメテン"
  },
  "2200": {
    "postcode": "6492200",
    "prefecture": "和歌山県",
    "prefecture_kana": "ワカヤマケン",
    "prefecture_code": 30,
    "city": "西牟婁郡白浜町",
    "city_kana": "ニシムログンシラハマチョウ",
    "town": "",
    "town_kana": "",
    "street": null,
    "office_name": null,
    "office_name_kana": null
  },
  "2201": {
    "postcode": "6492201",
    "prefecture": "和歌山県",
    "prefecture_kana": "ワカヤマケン",
    "prefecture_code": 30,
    "city": "西牟婁郡白浜町",
    "city_kana": "ニシムログンシラハマチョウ",
    "town": "堅田",
    "town_kana": "カタタ",
    "street": null,
    "office_name": null,
    "office_name_kana": null
  },
  "2211": {
    "postcode": "6492211",
    "prefecture": "和歌山県",
    "prefecture_kana": "ワカヤマケン",
    "prefecture_code": 30,
    "city": "西牟婁郡白浜町",
    "city_kana": "ニシムログンシラハマチョウ",
    "town": "",
    "town_kana": "",
    "street": null,
    "office_name": null,
    "office_name_kana": null
  },
  "2321": {
    "postcode": "6492321",
    "prefecture": "和歌山県",
    "prefecture_kana": "ワカヤマケン",
    "prefecture_code": 30,
    "city": "西牟婁郡白浜町",
    "city_kana": "ニシムログンシラハマチョウ",
    "town": "保呂",
    "town_kana": "ホロ",
    "street": null,
    "office_name": null,
    "office_name_kana": null
  },
  "2322": {
    "postcode": "6492322",
    "prefecture": "和歌山県",
    "prefecture_kana": "ワカヤマケン",
    "prefecture_code": 30,
    "city": "西牟婁郡白浜町",
    "city_kana": "ニシムログンシラハマチョウ",
    "town": "内ノ川",
    "town_kana": "ウチノカワ",
    "street": null,
    "office_name": null,
    "office_name_kana": null
  },
  "2323": {
    "postcode": "6492323",
    "prefecture": "和歌山県",
    "prefecture_kana": "ワカヤマケン",
    "prefecture_code": 30,
    "city": "西牟婁郡白浜町",
    "city_kana": "ニシムログンシラハマチョウ",
    "town": "庄川",
    "town_kana": "シャガワ",
    "street": null,
    "office_name": null,
    "office_name_kana": null
  },
  "2324": {
    "postcode": "6492324",
    "prefecture": "和歌山県",
    "prefecture_kana": "ワカヤマケン",
    "prefecture_code": 30,
    "city": "西牟婁郡白浜町",
    "city_kana": "ニシムログンシラハマチョウ",
    "town": "十九渕",
    "town_kana": "ツヅラフチ",
    "street": null,
    "office_name": null,
    "office_name_kana": null
  },
  "2325": {
    "postcode": "6492325",
    "prefecture": "和歌山県",
    "prefecture_kana": "ワカヤマケン",
    "prefecture_code": 30,
    "city": "西牟婁郡白浜町",
    "city_kana": "ニシムログンシラハマチョウ",
    "town": "富田",
    "town_kana": "トンダ",
    "street": null,
    "office_name": null,
    "office_name_kana": null
  },
  "2326": {
    "postcode": "6492326",
    "prefecture": "和歌山県",
    "prefecture_kana": "ワカヤマケン",
    "prefecture_code": 30,
    "city": "西牟婁郡白浜町",
    "city_kana": "ニシムログンシラハマチョウ",
    "town": "椿",
    "town_kana": "ツバキ",
    "street": null,
    "office_name": null,
    "office_name_kana": null
  },
  "2331": {
    "postcode": "6492331",
    "prefecture": "和歌山県",
    "prefecture_kana": "ワカヤマケン",
    "prefecture_code": 30,
    "city": "西牟婁郡白浜町",
    "city_kana": "ニシムログンシラハマチョウ",
    "town": "平",
    "town_kana": "タイラ",
    "street": null,
    "office_name": null,
    "office_name_kana": null
  },
  "2332": {
    "postcode": "6492332",
    "prefecture": "和歌山県",
    "prefecture_kana": "ワカヤマケン",
    "prefecture_code": 30,
    "city": "西牟婁郡白浜町",
    "city_kana": "ニシムログンシラハマチョウ",
    "town": "栄",
    "town_kana": "サカエ",
    "street": null,
    "office_name": null,
    "office_name_kana": null
  },
  "2333": {
    "postcode": "6492333",
    "prefecture": "和歌山県",
    "prefecture_kana": "ワカヤマケン",
    "prefecture_code": 30,
    "city": "西牟婁郡白浜町",
    "city_kana": "ニシムログンシラハマチョウ",
    "town": "中",
    "town_kana": "ナカ",
    "street": null,
    "office_name": null,
    "office_name_kana": null
  },
  "2334": {
    "postcode": "6492334",
    "prefecture": "和歌山県",
    "prefecture_kana": "ワカヤマケン",
    "prefecture_code": 30,
    "city": "西牟婁郡白浜町",
    "city_kana": "ニシムログンシラハマチョウ",
    "town": "才野",
    "town_kana": "サイノ",
    "street": null,
    "office_name": null,
    "office_name_kana": null
  },
  "2511": {
    "postcode": "6492511",
    "prefecture": "和歌山県",
    "prefecture_kana": "ワカヤマケン",
    "prefecture_code": 30,
    "city": "西牟婁郡白浜町",
    "city_kana": "ニシムログンシラハマチョウ",
    "town": "日置",
    "town_kana": "ヒキ",
    "street": null,
    "office_name": null,
    "office_name_kana": null
  },
  "2521": {
    "postcode": "6492521",
    "prefecture": "和歌山県",
    "prefecture_kana": "ワカヤマケン",
    "prefecture_code": 30,
    "city": "西牟婁郡白浜町",
    "city_kana": "ニシムログンシラハマチョウ",
    "town": "大古",
    "town_kana": "オオフル",
    "street": null,
    "office_name": null,
    "office_name_kana": null
  },
  "2522": {
    "postcode": "6492522",
    "prefecture": "和歌山県",
    "prefecture_kana": "ワカヤマケン",
    "prefecture_code": 30,
    "city": "西牟婁郡白浜町",
    "city_kana": "ニシムログンシラハマチョウ",
    "town": "矢田",
    "town_kana": "ヤタ",
    "street": null,
    "office_name": null,
    "office_name_kana": null
  },
  "2523": {
    "postcode": "6492523",
    "prefecture": "和歌山県",
    "prefecture_kana": "ワカヤマケン",
    "prefecture_code": 30,
    "city": "西牟婁郡白浜町",
    "city_kana": "ニシムログンシラハマチョウ",
    "town": "田野井",
    "town_kana": "タノイ",
    "street": null,
    "office_name": null,
    "office_name_kana": null
  },
  "2524": {
    "postcode": "6492524",
    "prefecture": "和歌山県",
    "prefecture_kana": "ワカヤマケン",
    "prefecture_code": 30,
    "city": "西牟婁郡白浜町",
    "city_kana": "ニシムログンシラハマチョウ",
    "town": "安宅",
    "town_kana": "アタギ",
    "street": null,
    "office_name": null,
    "office_name_kana": null
  },
  "2525": {
    "postcode": "6492525",
    "prefecture": "和歌山県",
    "prefecture_kana": "ワカヤマケン",
    "prefecture_code": 30,
    "city": "西牟婁郡白浜町",
    "city_kana": "ニシムログンシラハマチョウ",
    "town": "塩野",
    "town_kana": "シオノ",
    "street": null,
    "office_name": null,
    "office_name_kana": null
  },
  "2531": {
    "postcode": "6492531",
    "prefecture": "和歌山県",
    "prefecture_kana": "ワカヤマケン",
    "prefecture_code": 30,
    "city": "西牟婁郡白浜町",
    "city_kana": "ニシムログンシラハマチョウ",
    "town": "口ケ谷",
    "town_kana": "クチガタニ",
    "street": null,
    "office_name": null,
    "office_name_kana": null
  },
  "2532": {
    "postcode": "6492532",
    "prefecture": "和歌山県",
    "prefecture_kana": "ワカヤマケン",
    "prefecture_code": 30,
    "city": "西牟婁郡白浜町",
    "city_kana": "ニシムログンシラハマチョウ",
    "town": "安居",
    "town_kana": "アゴ",
    "street": null,
    "office_name": null,
    "office_name_kana": null
  },
  "2533": {
    "postcode": "6492533",
    "prefecture": "和歌山県",
    "prefecture_kana": "ワカヤマケン",
    "prefecture_code": 30,
    "city": "西牟婁郡白浜町",
    "city_kana": "ニシムログンシラハマチョウ",
    "town": "中嶋",
    "town_kana": "ナカジマ",
    "street": null,
    "office_name": null,
    "office_name_kana": null
  },
  "2534": {
    "postcode": "6492534",
    "prefecture": "和歌山県",
    "prefecture_kana": "ワカヤマケン",
    "prefecture_code": 30,
    "city": "西牟婁郡白浜町",
    "city_kana": "ニシムログンシラハマチョウ",
    "town": "寺山",
    "town_kana": "テラヤマ",
    "street": null,
    "office_name": null,
    "office_name_kana": null
  },
  "2535": {
    "postcode": "6492535",
    "prefecture": "和歌山県",
    "prefecture_kana": "ワカヤマケン",
    "prefecture_code": 30,
    "city": "西牟婁郡白浜町",
    "city_kana": "ニシムログンシラハマチョウ",
    "town": "向平",
    "town_kana": "ムカイダイラ",
    "street": null,
    "office_name": null,
    "office_name_kana": null
  },
  "2536": {
    "postcode": "6492536",
    "prefecture": "和歌山県",
    "prefecture_kana": "ワカヤマケン",
    "prefecture_code": 30,
    "city": "西牟婁郡白浜町",
    "city_kana": "ニシムログンシラハマチョウ",
    "town": "久木",
    "town_kana": "ヒサギ",
    "street": null,
    "office_name": null,
    "office_name_kana": null
  },
  "2537": {
    "postcode": "6492537",
    "prefecture": "和歌山県",
    "prefecture_kana": "ワカヤマケン",
    "prefecture_code": 30,
    "city": "西牟婁郡白浜町",
    "city_kana": "ニシムログンシラハマチョウ",
    "town": "宇津木",
    "town_kana": "ウツギ",
    "street": null,
    "office_name": null,
    "office_name_kana": null
  },
  "2538": {
    "postcode": "6492538",
    "prefecture": "和歌山県",
    "prefecture_kana": "ワカヤマケン",
    "prefecture_code": 30,
    "city": "西牟婁郡白浜町",
    "city_kana": "ニシムログンシラハマチョウ",
    "town": "小川",
    "town_kana": "コガワ",
    "street": null,
    "office_name": null,
    "office_name_kana": null
  },
  "2539": {
    "postcode": "6492539",
    "prefecture": "和歌山県",
    "prefecture_kana": "ワカヤマケン",
    "prefecture_code": 30,
    "city": "西牟婁郡白浜町",
    "city_kana": "ニシムログンシラハマチョウ",
    "town": "城",
    "town_kana": "ジョウ",
    "street": null,
    "office_name": null,
    "office_name_kana": null
  },
  "2600": {
    "postcode": "6492600",
    "prefecture": "和歌山県",
    "prefecture_kana": "ワカヤマケン",
    "prefecture_code": 30,
    "city": "西牟婁郡すさみ町",
    "city_kana": "ニシムログンスサミチョウ",
    "town": "",
    "town_kana": "",
    "street": null,
    "office_name": null,
    "office_name_kana": null
  },
  "2601": {
    "postcode": "6492601",
    "prefecture": "和歌山県",
    "prefecture_kana": "ワカヤマケン",
    "prefecture_code": 30,
    "city": "西牟婁郡すさみ町",
    "city_kana": "ニシムログンスサミチョウ",
    "town": "小附",
    "town_kana": "コツキ",
    "street": null,
    "office_name": null,
    "office_name_kana": null
  },
  "2602": {
    "postcode": "6492602",
    "prefecture": "和歌山県",
    "prefecture_kana": "ワカヤマケン",
    "prefecture_code": 30,
    "city": "西牟婁郡すさみ町",
    "city_kana": "ニシムログンスサミチョウ",
    "town": "大附",
    "town_kana": "オオツキ",
    "street": null,
    "office_name": null,
    "office_name_kana": null
  },
  "2603": {
    "postcode": "6492603",
    "prefecture": "和歌山県",
    "prefecture_kana": "ワカヤマケン",
    "prefecture_code": 30,
    "city": "西牟婁郡すさみ町",
    "city_kana": "ニシムログンスサミチョウ",
    "town": "小河内",
    "town_kana": "オカウチ",
    "street": null,
    "office_name": null,
    "office_name_kana": null
  },
  "2604": {
    "postcode": "6492604",
    "prefecture": "和歌山県",
    "prefecture_kana": "ワカヤマケン",
    "prefecture_code": 30,
    "city": "西牟婁郡すさみ町",
    "city_kana": "ニシムログンスサミチョウ",
    "town": "矢野口",
    "town_kana": "ヤノクチ",
    "street": null,
    "office_name": null,
    "office_name_kana": null
  },
  "2611": {
    "postcode": "6492611",
    "prefecture": "和歌山県",
    "prefecture_kana": "ワカヤマケン",
    "prefecture_code": 30,
    "city": "西牟婁郡すさみ町",
    "city_kana": "ニシムログンスサミチョウ",
    "town": "和深川",
    "town_kana": "ワブカガワ",
    "street": null,
    "office_name": null,
    "office_name_kana": null
  },
  "2612": {
    "postcode": "6492612",
    "prefecture": "和歌山県",
    "prefecture_kana": "ワカヤマケン",
    "prefecture_code": 30,
    "city": "西牟婁郡すさみ町",
    "city_kana": "ニシムログンスサミチョウ",
    "town": "口和深",
    "town_kana": "クチワブカ",
    "street": null,
    "office_name": null,
    "office_name_kana": null
  },
  "2621": {
    "postcode": "6492621",
    "prefecture": "和歌山県",
    "prefecture_kana": "ワカヤマケン",
    "prefecture_code": 30,
    "city": "西牟婁郡すさみ町",
    "city_kana": "ニシムログンスサミチョウ",
    "town": "周参見",
    "town_kana": "スサミ",
    "street": null,
    "office_name": null,
    "office_name_kana": null
  },
  "2631": {
    "postcode": "6492631",
    "prefecture": "和歌山県",
    "prefecture_kana": "ワカヤマケン",
    "prefecture_code": 30,
    "city": "西牟婁郡すさみ町",
    "city_kana": "ニシムログンスサミチョウ",
    "town": "太間川",
    "town_kana": "タイマガワ",
    "street": null,
    "office_name": null,
    "office_name_kana": null
  },
  "3141": {
    "postcode": "6493141",
    "prefecture": "和歌山県",
    "prefecture_kana": "ワカヤマケン",
    "prefecture_code": 30,
    "city": "西牟婁郡すさみ町",
    "city_kana": "ニシムログンスサミチョウ",
    "town": "見老津",
    "town_kana": "ミロヅ",
    "street": null,
    "office_name": null,
    "office_name_kana": null
  },
  "3142": {
    "postcode": "6493142",
    "prefecture": "和歌山県",
    "prefecture_kana": "ワカヤマケン",
    "prefecture_code": 30,
    "city": "西牟婁郡すさみ町",
    "city_kana": "ニシムログンスサミチョウ",
    "town": "江住",
    "town_kana": "エスミ",
    "street": null,
    "office_name": null,
    "office_name_kana": null
  },
  "3143": {
    "postcode": "6493143",
    "prefecture": "和歌山県",
    "prefecture_kana": "ワカヤマケン",
    "prefecture_code": 30,
    "city": "西牟婁郡すさみ町",
    "city_kana": "ニシムログンスサミチョウ",
    "town": "里野",
    "town_kana": "サトノ",
    "street": null,
    "office_name": null,
    "office_name_kana": null
  },
  "3151": {
    "postcode": "6493151",
    "prefecture": "和歌山県",
    "prefecture_kana": "ワカヤマケン",
    "prefecture_code": 30,
    "city": "西牟婁郡すさみ町",
    "city_kana": "ニシムログンスサミチョウ",
    "town": "大鎌",
    "town_kana": "オオガマ",
    "street": null,
    "office_name": null,
    "office_name_kana": null
  },
  "3152": {
    "postcode": "6493152",
    "prefecture": "和歌山県",
    "prefecture_kana": "ワカヤマケン",
    "prefecture_code": 30,
    "city": "西牟婁郡すさみ町",
    "city_kana": "ニシムログンスサミチョウ",
    "town": "防己",
    "town_kana": "ツヅラ",
    "street": null,
    "office_name": null,
    "office_name_kana": null
  },
  "3153": {
    "postcode": "6493153",
    "prefecture": "和歌山県",
    "prefecture_kana": "ワカヤマケン",
    "prefecture_code": 30,
    "city": "西牟婁郡すさみ町",
    "city_kana": "ニシムログンスサミチョウ",
    "town": "大谷",
    "town_kana": "オオタニ",
    "street": null,
    "office_name": null,
    "office_name_kana": null
  },
  "3161": {
    "postcode": "6493161",
    "prefecture": "和歌山県",
    "prefecture_kana": "ワカヤマケン",
    "prefecture_code": 30,
    "city": "西牟婁郡すさみ町",
    "city_kana": "ニシムログンスサミチョウ",
    "town": "佐本中",
    "town_kana": "サモトナカ",
    "street": null,
    "office_name": null,
    "office_name_kana": null
  },
  "3162": {
    "postcode": "6493162",
    "prefecture": "和歌山県",
    "prefecture_kana": "ワカヤマケン",
    "prefecture_code": 30,
    "city": "西牟婁郡すさみ町",
    "city_kana": "ニシムログンスサミチョウ",
    "town": "佐本追川",
    "town_kana": "サモトオイガワ",
    "street": null,
    "office_name": null,
    "office_name_kana": null
  },
  "3163": {
    "postcode": "6493163",
    "prefecture": "和歌山県",
    "prefecture_kana": "ワカヤマケン",
    "prefecture_code": 30,
    "city": "西牟婁郡すさみ町",
    "city_kana": "ニシムログンスサミチョウ",
    "town": "佐本西栗垣内",
    "town_kana": "サモトニシクリガイト",
    "street": null,
    "office_name": null,
    "office_name_kana": null
  },
  "3164": {
    "postcode": "6493164",
    "prefecture": "和歌山県",
    "prefecture_kana": "ワカヤマケン",
    "prefecture_code": 30,
    "city": "西牟婁郡すさみ町",
    "city_kana": "ニシムログンスサミチョウ",
    "town": "佐本東栗垣内",
    "town_kana": "サモトヒガシクリガイト",
    "street": null,
    "office_name": null,
    "office_name_kana": null
  },
  "3165": {
    "postcode": "6493165",
    "prefecture": "和歌山県",
    "prefecture_kana": "ワカヤマケン",
    "prefecture_code": 30,
    "city": "西牟婁郡すさみ町",
    "city_kana": "ニシムログンスサミチョウ",
    "town": "佐本中野",
    "town_kana": "サモトナカノ",
    "street": null,
    "office_name": null,
    "office_name_kana": null
  },
  "3166": {
    "postcode": "6493166",
    "prefecture": "和歌山県",
    "prefecture_kana": "ワカヤマケン",
    "prefecture_code": 30,
    "city": "西牟婁郡すさみ町",
    "city_kana": "ニシムログンスサミチョウ",
    "town": "佐本西野川",
    "town_kana": "サモトニシノカワ",
    "street": null,
    "office_name": null,
    "office_name_kana": null
  },
  "3167": {
    "postcode": "6493167",
    "prefecture": "和歌山県",
    "prefecture_kana": "ワカヤマケン",
    "prefecture_code": 30,
    "city": "西牟婁郡すさみ町",
    "city_kana": "ニシムログンスサミチョウ",
    "town": "佐本平野",
    "town_kana": "サモトヒラノ",
    "street": null,
    "office_name": null,
    "office_name_kana": null
  },
  "3168": {
    "postcode": "6493168",
    "prefecture": "和歌山県",
    "prefecture_kana": "ワカヤマケン",
    "prefecture_code": 30,
    "city": "西牟婁郡すさみ町",
    "city_kana": "ニシムログンスサミチョウ",
    "town": "佐本根倉",
    "town_kana": "サモトネクラ",
    "street": null,
    "office_name": null,
    "office_name_kana": null
  },
  "3169": {
    "postcode": "6493169",
    "prefecture": "和歌山県",
    "prefecture_kana": "ワカヤマケン",
    "prefecture_code": 30,
    "city": "西牟婁郡すさみ町",
    "city_kana": "ニシムログンスサミチョウ",
    "town": "佐本深谷",
    "town_kana": "サモトフカタニ",
    "street": null,
    "office_name": null,
    "office_name_kana": null
  },
  "3500": {
    "postcode": "6493500",
    "prefecture": "和歌山県",
    "prefecture_kana": "ワカヤマケン",
    "prefecture_code": 30,
    "city": "東牟婁郡串本町",
    "city_kana": "ヒガシムログンクシモトチョウ",
    "town": "",
    "town_kana": "",
    "street": null,
    "office_name": null,
    "office_name_kana": null
  },
  "3501": {
    "postcode": "6493501",
    "prefecture": "和歌山県",
    "prefecture_kana": "ワカヤマケン",
    "prefecture_code": 30,
    "city": "東牟婁郡串本町",
    "city_kana": "ヒガシムログンクシモトチョウ",
    "town": "出雲",
    "town_kana": "イツモ",
    "street": null,
    "office_name": null,
    "office_name_kana": null
  },
  "3502": {
    "postcode": "6493502",
    "prefecture": "和歌山県",
    "prefecture_kana": "ワカヤマケン",
    "prefecture_code": 30,
    "city": "東牟婁郡串本町",
    "city_kana": "ヒガシムログンクシモトチョウ",
    "town": "潮岬",
    "town_kana": "シオノミサキ",
    "street": null,
    "office_name": null,
    "office_name_kana": null
  },
  "3503": {
    "postcode": "6493503",
    "prefecture": "和歌山県",
    "prefecture_kana": "ワカヤマケン",
    "prefecture_code": 30,
    "city": "東牟婁郡串本町",
    "city_kana": "ヒガシムログンクシモトチョウ",
    "town": "串本",
    "town_kana": "クシモト",
    "street": null,
    "office_name": null,
    "office_name_kana": null
  },
  "3510": {
    "postcode": "6493510",
    "prefecture": "和歌山県",
    "prefecture_kana": "ワカヤマケン",
    "prefecture_code": 30,
    "city": "東牟婁郡串本町",
    "city_kana": "ヒガシムログンクシモトチョウ",
    "town": "サンゴ台",
    "town_kana": "サンゴダイ",
    "street": null,
    "office_name": null,
    "office_name_kana": null
  },
  "3511": {
    "postcode": "6493511",
    "prefecture": "和歌山県",
    "prefecture_kana": "ワカヤマケン",
    "prefecture_code": 30,
    "city": "東牟婁郡串本町",
    "city_kana": "ヒガシムログンクシモトチョウ",
    "town": "鬮野川",
    "town_kana": "クジノカワ",
    "street": null,
    "office_name": null,
    "office_name_kana": null
  },
  "3512": {
    "postcode": "6493512",
    "prefecture": "和歌山県",
    "prefecture_kana": "ワカヤマケン",
    "prefecture_code": 30,
    "city": "東牟婁郡串本町",
    "city_kana": "ヒガシムログンクシモトチョウ",
    "town": "二色",
    "town_kana": "ニシキ",
    "street": null,
    "office_name": null,
    "office_name_kana": null
  },
  "3513": {
    "postcode": "6493513",
    "prefecture": "和歌山県",
    "prefecture_kana": "ワカヤマケン",
    "prefecture_code": 30,
    "city": "東牟婁郡串本町",
    "city_kana": "ヒガシムログンクシモトチョウ",
    "town": "高富",
    "town_kana": "タカトミ",
    "street": null,
    "office_name": null,
    "office_name_kana": null
  },
  "3514": {
    "postcode": "6493514",
    "prefecture": "和歌山県",
    "prefecture_kana": "ワカヤマケン",
    "prefecture_code": 30,
    "city": "東牟婁郡串本町",
    "city_kana": "ヒガシムログンクシモトチョウ",
    "town": "有田",
    "town_kana": "アリダ",
    "street": null,
    "office_name": null,
    "office_name_kana": null
  },
  "3515": {
    "postcode": "6493515",
    "prefecture": "和歌山県",
    "prefecture_kana": "ワカヤマケン",
    "prefecture_code": 30,
    "city": "東牟婁郡串本町",
    "city_kana": "ヒガシムログンクシモトチョウ",
    "town": "田並",
    "town_kana": "タナミ",
    "street": null,
    "office_name": null,
    "office_name_kana": null
  },
  "3516": {
    "postcode": "6493516",
    "prefecture": "和歌山県",
    "prefecture_kana": "ワカヤマケン",
    "prefecture_code": 30,
    "city": "東牟婁郡串本町",
    "city_kana": "ヒガシムログンクシモトチョウ",
    "town": "田並上",
    "town_kana": "タナミカミ",
    "street": null,
    "office_name": null,
    "office_name_kana": null
  },
  "3517": {
    "postcode": "6493517",
    "prefecture": "和歌山県",
    "prefecture_kana": "ワカヤマケン",
    "prefecture_code": 30,
    "city": "東牟婁郡串本町",
    "city_kana": "ヒガシムログンクシモトチョウ",
    "town": "吐生",
    "town_kana": "ハブ",
    "street": null,
    "office_name": null,
    "office_name_kana": null
  },
  "3518": {
    "postcode": "6493518",
    "prefecture": "和歌山県",
    "prefecture_kana": "ワカヤマケン",
    "prefecture_code": 30,
    "city": "東牟婁郡串本町",
    "city_kana": "ヒガシムログンクシモトチョウ",
    "town": "有田上",
    "town_kana": "アリダカミ",
    "street": null,
    "office_name": null,
    "office_name_kana": null
  },
  "3521": {
    "postcode": "6493521",
    "prefecture": "和歌山県",
    "prefecture_kana": "ワカヤマケン",
    "prefecture_code": 30,
    "city": "東牟婁郡串本町",
    "city_kana": "ヒガシムログンクシモトチョウ",
    "town": "江田",
    "town_kana": "エダ",
    "street": null,
    "office_name": null,
    "office_name_kana": null
  },
  "3522": {
    "postcode": "6493522",
    "prefecture": "和歌山県",
    "prefecture_kana": "ワカヤマケン",
    "prefecture_code": 30,
    "city": "東牟婁郡串本町",
    "city_kana": "ヒガシムログンクシモトチョウ",
    "town": "田子",
    "town_kana": "タコ",
    "street": null,
    "office_name": null,
    "office_name_kana": null
  },
  "3523": {
    "postcode": "6493523",
    "prefecture": "和歌山県",
    "prefecture_kana": "ワカヤマケン",
    "prefecture_code": 30,
    "city": "東牟婁郡串本町",
    "city_kana": "ヒガシムログンクシモトチョウ",
    "town": "和深",
    "town_kana": "ワブカ",
    "street": null,
    "office_name": null,
    "office_name_kana": null
  },
  "3524": {
    "postcode": "6493524",
    "prefecture": "和歌山県",
    "prefecture_kana": "ワカヤマケン",
    "prefecture_code": 30,
    "city": "東牟婁郡串本町",
    "city_kana": "ヒガシムログンクシモトチョウ",
    "town": "里川",
    "town_kana": "サトガワ",
    "street": null,
    "office_name": null,
    "office_name_kana": null
  },
  "3592": {
    "postcode": "6493592",
    "prefecture": "和歌山県",
    "prefecture_kana": "ワカヤマケン",
    "prefecture_code": 30,
    "city": "東牟婁郡串本町",
    "city_kana": "ヒガシムログンクシモトチョウ",
    "town": "串本",
    "town_kana": "クシモト",
    "street": "１８００（串本郵便局私書箱第１５号）",
    "office_name": "串本町役場",
    "office_name_kana": "クシモトチヨウヤクバ"
  },
  "3631": {
    "postcode": "6493631",
    "prefecture": "和歌山県",
    "prefecture_kana": "ワカヤマケン",
    "prefecture_code": 30,
    "city": "東牟婁郡串本町",
    "city_kana": "ヒガシムログンクシモトチョウ",
    "town": "樫野",
    "town_kana": "カシノ",
    "street": null,
    "office_name": null,
    "office_name_kana": null
  },
  "3632": {
    "postcode": "6493632",
    "prefecture": "和歌山県",
    "prefecture_kana": "ワカヤマケン",
    "prefecture_code": 30,
    "city": "東牟婁郡串本町",
    "city_kana": "ヒガシムログンクシモトチョウ",
    "town": "須江",
    "town_kana": "スエ",
    "street": null,
    "office_name": null,
    "office_name_kana": null
  },
  "3633": {
    "postcode": "6493633",
    "prefecture": "和歌山県",
    "prefecture_kana": "ワカヤマケン",
    "prefecture_code": 30,
    "city": "東牟婁郡串本町",
    "city_kana": "ヒガシムログンクシモトチョウ",
    "town": "大島",
    "town_kana": "オオシマ",
    "street": null,
    "office_name": null,
    "office_name_kana": null
  },
  "4100": {
    "postcode": "6494100",
    "prefecture": "和歌山県",
    "prefecture_kana": "ワカヤマケン",
    "prefecture_code": 30,
    "city": "東牟婁郡古座川町",
    "city_kana": "ヒガシムログンコザガワチョウ",
    "town": "",
    "town_kana": "",
    "street": null,
    "office_name": null,
    "office_name_kana": null
  },
  "4101": {
    "postcode": "6494101",
    "prefecture": "和歌山県",
    "prefecture_kana": "ワカヤマケン",
    "prefecture_code": 30,
    "city": "東牟婁郡古座川町",
    "city_kana": "ヒガシムログンコザガワチョウ",
    "town": "樫山",
    "town_kana": "カシヤマ",
    "street": null,
    "office_name": null,
    "office_name_kana": null
  },
  "4102": {
    "postcode": "6494102",
    "prefecture": "和歌山県",
    "prefecture_kana": "ワカヤマケン",
    "prefecture_code": 30,
    "city": "東牟婁郡古座川町",
    "city_kana": "ヒガシムログンコザガワチョウ",
    "town": "楠",
    "town_kana": "クス",
    "street": null,
    "office_name": null,
    "office_name_kana": null
  },
  "4103": {
    "postcode": "6494103",
    "prefecture": "和歌山県",
    "prefecture_kana": "ワカヤマケン",
    "prefecture_code": 30,
    "city": "東牟婁郡古座川町",
    "city_kana": "ヒガシムログンコザガワチョウ",
    "town": "池野山",
    "town_kana": "イケノヤマ",
    "street": null,
    "office_name": null,
    "office_name_kana": null
  },
  "4104": {
    "postcode": "6494104",
    "prefecture": "和歌山県",
    "prefecture_kana": "ワカヤマケン",
    "prefecture_code": 30,
    "city": "東牟婁郡古座川町",
    "city_kana": "ヒガシムログンコザガワチョウ",
    "town": "高池",
    "town_kana": "タカイケ",
    "street": null,
    "office_name": null,
    "office_name_kana": null
  },
  "4105": {
    "postcode": "6494105",
    "prefecture": "和歌山県",
    "prefecture_kana": "ワカヤマケン",
    "prefecture_code": 30,
    "city": "東牟婁郡古座川町",
    "city_kana": "ヒガシムログンコザガワチョウ",
    "town": "宇津木",
    "town_kana": "ウツギ",
    "street": null,
    "office_name": null,
    "office_name_kana": null
  },
  "4106": {
    "postcode": "6494106",
    "prefecture": "和歌山県",
    "prefecture_kana": "ワカヤマケン",
    "prefecture_code": 30,
    "city": "東牟婁郡古座川町",
    "city_kana": "ヒガシムログンコザガワチョウ",
    "town": "月野瀬",
    "town_kana": "ツキノセ",
    "street": null,
    "office_name": null,
    "office_name_kana": null
  },
  "4111": {
    "postcode": "6494111",
    "prefecture": "和歌山県",
    "prefecture_kana": "ワカヤマケン",
    "prefecture_code": 30,
    "city": "東牟婁郡串本町",
    "city_kana": "ヒガシムログンクシモトチョウ",
    "town": "上田原",
    "town_kana": "カミタワラ",
    "street": null,
    "office_name": null,
    "office_name_kana": null
  },
  "4112": {
    "postcode": "6494112",
    "prefecture": "和歌山県",
    "prefecture_kana": "ワカヤマケン",
    "prefecture_code": 30,
    "city": "東牟婁郡串本町",
    "city_kana": "ヒガシムログンクシモトチョウ",
    "town": "田原",
    "town_kana": "タワラ",
    "street": null,
    "office_name": null,
    "office_name_kana": null
  },
  "4113": {
    "postcode": "6494113",
    "prefecture": "和歌山県",
    "prefecture_kana": "ワカヤマケン",
    "prefecture_code": 30,
    "city": "東牟婁郡串本町",
    "city_kana": "ヒガシムログンクシモトチョウ",
    "town": "津荷",
    "town_kana": "ツガ",
    "street": null,
    "office_name": null,
    "office_name_kana": null
  },
  "4114": {
    "postcode": "6494114",
    "prefecture": "和歌山県",
    "prefecture_kana": "ワカヤマケン",
    "prefecture_code": 30,
    "city": "東牟婁郡串本町",
    "city_kana": "ヒガシムログンクシモトチョウ",
    "town": "上野山",
    "town_kana": "ウエノヤマ",
    "street": null,
    "office_name": null,
    "office_name_kana": null
  },
  "4115": {
    "postcode": "6494115",
    "prefecture": "和歌山県",
    "prefecture_kana": "ワカヤマケン",
    "prefecture_code": 30,
    "city": "東牟婁郡串本町",
    "city_kana": "ヒガシムログンクシモトチョウ",
    "town": "古座",
    "town_kana": "コザ",
    "street": null,
    "office_name": null,
    "office_name_kana": null
  },
  "4116": {
    "postcode": "6494116",
    "prefecture": "和歌山県",
    "prefecture_kana": "ワカヤマケン",
    "prefecture_code": 30,
    "city": "東牟婁郡串本町",
    "city_kana": "ヒガシムログンクシモトチョウ",
    "town": "中湊",
    "town_kana": "ナカミナト",
    "street": null,
    "office_name": null,
    "office_name_kana": null
  },
  "4117": {
    "postcode": "6494117",
    "prefecture": "和歌山県",
    "prefecture_kana": "ワカヤマケン",
    "prefecture_code": 30,
    "city": "東牟婁郡串本町",
    "city_kana": "ヒガシムログンクシモトチョウ",
    "town": "佐部",
    "town_kana": "サベ",
    "street": null,
    "office_name": null,
    "office_name_kana": null
  },
  "4121": {
    "postcode": "6494121",
    "prefecture": "和歌山県",
    "prefecture_kana": "ワカヤマケン",
    "prefecture_code": 30,
    "city": "東牟婁郡串本町",
    "city_kana": "ヒガシムログンクシモトチョウ",
    "town": "古田",
    "town_kana": "フルタ",
    "street": null,
    "office_name": null,
    "office_name_kana": null
  },
  "4122": {
    "postcode": "6494122",
    "prefecture": "和歌山県",
    "prefecture_kana": "ワカヤマケン",
    "prefecture_code": 30,
    "city": "東牟婁郡串本町",
    "city_kana": "ヒガシムログンクシモトチョウ",
    "town": "西向",
    "town_kana": "ニシムカイ",
    "street": null,
    "office_name": null,
    "office_name_kana": null
  },
  "4123": {
    "postcode": "6494123",
    "prefecture": "和歌山県",
    "prefecture_kana": "ワカヤマケン",
    "prefecture_code": 30,
    "city": "東牟婁郡串本町",
    "city_kana": "ヒガシムログンクシモトチョウ",
    "town": "神野川",
    "town_kana": "コノガワ",
    "street": null,
    "office_name": null,
    "office_name_kana": null
  },
  "4124": {
    "postcode": "6494124",
    "prefecture": "和歌山県",
    "prefecture_kana": "ワカヤマケン",
    "prefecture_code": 30,
    "city": "東牟婁郡串本町",
    "city_kana": "ヒガシムログンクシモトチョウ",
    "town": "伊串",
    "town_kana": "イクシ",
    "street": null,
    "office_name": null,
    "office_name_kana": null
  },
  "4125": {
    "postcode": "6494125",
    "prefecture": "和歌山県",
    "prefecture_kana": "ワカヤマケン",
    "prefecture_code": 30,
    "city": "東牟婁郡串本町",
    "city_kana": "ヒガシムログンクシモトチョウ",
    "town": "姫",
    "town_kana": "ヒメ",
    "street": null,
    "office_name": null,
    "office_name_kana": null
  },
  "4126": {
    "postcode": "6494126",
    "prefecture": "和歌山県",
    "prefecture_kana": "ワカヤマケン",
    "prefecture_code": 30,
    "city": "東牟婁郡串本町",
    "city_kana": "ヒガシムログンクシモトチョウ",
    "town": "姫川",
    "town_kana": "ヒメガワ",
    "street": null,
    "office_name": null,
    "office_name_kana": null
  },
  "4192": {
    "postcode": "6494192",
    "prefecture": "和歌山県",
    "prefecture_kana": "ワカヤマケン",
    "prefecture_code": 30,
    "city": "東牟婁郡串本町",
    "city_kana": "ヒガシムログンクシモトチョウ",
    "town": "西向",
    "town_kana": "ニシムカイ",
    "street": "３５９番地",
    "office_name": "串本町役場　古座分庁舎",
    "office_name_kana": "クシモトチヨウヤクバ コザブンチヨウシヤ"
  },
  "4211": {
    "postcode": "6494211",
    "prefecture": "和歌山県",
    "prefecture_kana": "ワカヤマケン",
    "prefecture_code": 30,
    "city": "東牟婁郡古座川町",
    "city_kana": "ヒガシムログンコザガワチョウ",
    "town": "小森川",
    "town_kana": "コモリガワ",
    "street": null,
    "office_name": null,
    "office_name_kana": null
  },
  "4212": {
    "postcode": "6494212",
    "prefecture": "和歌山県",
    "prefecture_kana": "ワカヤマケン",
    "prefecture_code": 30,
    "city": "東牟婁郡古座川町",
    "city_kana": "ヒガシムログンコザガワチョウ",
    "town": "田川",
    "town_kana": "タガワ",
    "street": null,
    "office_name": null,
    "office_name_kana": null
  },
  "4213": {
    "postcode": "6494213",
    "prefecture": "和歌山県",
    "prefecture_kana": "ワカヤマケン",
    "prefecture_code": 30,
    "city": "東牟婁郡古座川町",
    "city_kana": "ヒガシムログンコザガワチョウ",
    "town": "西赤木",
    "town_kana": "ニシアカギ",
    "street": null,
    "office_name": null,
    "office_name_kana": null
  },
  "4214": {
    "postcode": "6494214",
    "prefecture": "和歌山県",
    "prefecture_kana": "ワカヤマケン",
    "prefecture_code": 30,
    "city": "東牟婁郡古座川町",
    "city_kana": "ヒガシムログンコザガワチョウ",
    "town": "宇筒井",
    "town_kana": "ウヅツイ",
    "street": null,
    "office_name": null,
    "office_name_kana": null
  },
  "4215": {
    "postcode": "6494215",
    "prefecture": "和歌山県",
    "prefecture_kana": "ワカヤマケン",
    "prefecture_code": 30,
    "city": "東牟婁郡古座川町",
    "city_kana": "ヒガシムログンコザガワチョウ",
    "town": "大桑",
    "town_kana": "オオグワ",
    "street": null,
    "office_name": null,
    "office_name_kana": null
  },
  "4216": {
    "postcode": "6494216",
    "prefecture": "和歌山県",
    "prefecture_kana": "ワカヤマケン",
    "prefecture_code": 30,
    "city": "東牟婁郡古座川町",
    "city_kana": "ヒガシムログンコザガワチョウ",
    "town": "小川",
    "town_kana": "コガワ",
    "street": null,
    "office_name": null,
    "office_name_kana": null
  },
  "4217": {
    "postcode": "6494217",
    "prefecture": "和歌山県",
    "prefecture_kana": "ワカヤマケン",
    "prefecture_code": 30,
    "city": "東牟婁郡古座川町",
    "city_kana": "ヒガシムログンコザガワチョウ",
    "town": "山手",
    "town_kana": "ヤマテ",
    "street": null,
    "office_name": null,
    "office_name_kana": null
  },
  "4221": {
    "postcode": "6494221",
    "prefecture": "和歌山県",
    "prefecture_kana": "ワカヤマケン",
    "prefecture_code": 30,
    "city": "東牟婁郡古座川町",
    "city_kana": "ヒガシムログンコザガワチョウ",
    "town": "中崎",
    "town_kana": "ナカザキ",
    "street": null,
    "office_name": null,
    "office_name_kana": null
  },
  "4222": {
    "postcode": "6494222",
    "prefecture": "和歌山県",
    "prefecture_kana": "ワカヤマケン",
    "prefecture_code": 30,
    "city": "東牟婁郡古座川町",
    "city_kana": "ヒガシムログンコザガワチョウ",
    "town": "直見",
    "town_kana": "ヌクミ",
    "street": null,
    "office_name": null,
    "office_name_kana": null
  },
  "4223": {
    "postcode": "6494223",
    "prefecture": "和歌山県",
    "prefecture_kana": "ワカヤマケン",
    "prefecture_code": 30,
    "city": "東牟婁郡古座川町",
    "city_kana": "ヒガシムログンコザガワチョウ",
    "town": "川口",
    "town_kana": "カワグチ",
    "street": null,
    "office_name": null,
    "office_name_kana": null
  },
  "4224": {
    "postcode": "6494224",
    "prefecture": "和歌山県",
    "prefecture_kana": "ワカヤマケン",
    "prefecture_code": 30,
    "city": "東牟婁郡古座川町",
    "city_kana": "ヒガシムログンコザガワチョウ",
    "town": "高瀬",
    "town_kana": "タカセ",
    "street": null,
    "office_name": null,
    "office_name_kana": null
  },
  "4225": {
    "postcode": "6494225",
    "prefecture": "和歌山県",
    "prefecture_kana": "ワカヤマケン",
    "prefecture_code": 30,
    "city": "東牟婁郡古座川町",
    "city_kana": "ヒガシムログンコザガワチョウ",
    "town": "潤野",
    "town_kana": "ウルノ",
    "street": null,
    "office_name": null,
    "office_name_kana": null
  },
  "4226": {
    "postcode": "6494226",
    "prefecture": "和歌山県",
    "prefecture_kana": "ワカヤマケン",
    "prefecture_code": 30,
    "city": "東牟婁郡古座川町",
    "city_kana": "ヒガシムログンコザガワチョウ",
    "town": "明神",
    "town_kana": "ミョウジン",
    "street": null,
    "office_name": null,
    "office_name_kana": null
  },
  "4227": {
    "postcode": "6494227",
    "prefecture": "和歌山県",
    "prefecture_kana": "ワカヤマケン",
    "prefecture_code": 30,
    "city": "東牟婁郡古座川町",
    "city_kana": "ヒガシムログンコザガワチョウ",
    "town": "大柳",
    "town_kana": "オオヤナギ",
    "street": null,
    "office_name": null,
    "office_name_kana": null
  },
  "4231": {
    "postcode": "6494231",
    "prefecture": "和歌山県",
    "prefecture_kana": "ワカヤマケン",
    "prefecture_code": 30,
    "city": "東牟婁郡古座川町",
    "city_kana": "ヒガシムログンコザガワチョウ",
    "town": "鶴川",
    "town_kana": "ツルガワ",
    "street": null,
    "office_name": null,
    "office_name_kana": null
  },
  "4232": {
    "postcode": "6494232",
    "prefecture": "和歌山県",
    "prefecture_kana": "ワカヤマケン",
    "prefecture_code": 30,
    "city": "東牟婁郡古座川町",
    "city_kana": "ヒガシムログンコザガワチョウ",
    "town": "一雨",
    "town_kana": "イチブリ",
    "street": null,
    "office_name": null,
    "office_name_kana": null
  },
  "4233": {
    "postcode": "6494233",
    "prefecture": "和歌山県",
    "prefecture_kana": "ワカヤマケン",
    "prefecture_code": 30,
    "city": "東牟婁郡古座川町",
    "city_kana": "ヒガシムログンコザガワチョウ",
    "town": "立合",
    "town_kana": "タチアイ",
    "street": null,
    "office_name": null,
    "office_name_kana": null
  },
  "4234": {
    "postcode": "6494234",
    "prefecture": "和歌山県",
    "prefecture_kana": "ワカヤマケン",
    "prefecture_code": 30,
    "city": "東牟婁郡古座川町",
    "city_kana": "ヒガシムログンコザガワチョウ",
    "town": "峰",
    "town_kana": "ミネ",
    "street": null,
    "office_name": null,
    "office_name_kana": null
  },
  "4235": {
    "postcode": "6494235",
    "prefecture": "和歌山県",
    "prefecture_kana": "ワカヤマケン",
    "prefecture_code": 30,
    "city": "東牟婁郡古座川町",
    "city_kana": "ヒガシムログンコザガワチョウ",
    "town": "相瀬",
    "town_kana": "アイセ",
    "street": null,
    "office_name": null,
    "office_name_kana": null
  },
  "4236": {
    "postcode": "6494236",
    "prefecture": "和歌山県",
    "prefecture_kana": "ワカヤマケン",
    "prefecture_code": 30,
    "city": "東牟婁郡古座川町",
    "city_kana": "ヒガシムログンコザガワチョウ",
    "town": "立合川",
    "town_kana": "タチアイガワ",
    "street": null,
    "office_name": null,
    "office_name_kana": null
  },
  "4441": {
    "postcode": "6494441",
    "prefecture": "和歌山県",
    "prefecture_kana": "ワカヤマケン",
    "prefecture_code": 30,
    "city": "東牟婁郡古座川町",
    "city_kana": "ヒガシムログンコザガワチョウ",
    "town": "添野川",
    "town_kana": "ソイノガワ",
    "street": null,
    "office_name": null,
    "office_name_kana": null
  },
  "4442": {
    "postcode": "6494442",
    "prefecture": "和歌山県",
    "prefecture_kana": "ワカヤマケン",
    "prefecture_code": 30,
    "city": "東牟婁郡古座川町",
    "city_kana": "ヒガシムログンコザガワチョウ",
    "town": "佐田",
    "town_kana": "サダ",
    "street": null,
    "office_name": null,
    "office_name_kana": null
  },
  "4443": {
    "postcode": "6494443",
    "prefecture": "和歌山県",
    "prefecture_kana": "ワカヤマケン",
    "prefecture_code": 30,
    "city": "東牟婁郡古座川町",
    "city_kana": "ヒガシムログンコザガワチョウ",
    "town": "真砂",
    "town_kana": "マナゴ",
    "street": null,
    "office_name": null,
    "office_name_kana": null
  },
  "4444": {
    "postcode": "6494444",
    "prefecture": "和歌山県",
    "prefecture_kana": "ワカヤマケン",
    "prefecture_code": 30,
    "city": "東牟婁郡古座川町",
    "city_kana": "ヒガシムログンコザガワチョウ",
    "town": "長追",
    "town_kana": "ナガオイ",
    "street": null,
    "office_name": null,
    "office_name_kana": null
  },
  "4451": {
    "postcode": "6494451",
    "prefecture": "和歌山県",
    "prefecture_kana": "ワカヤマケン",
    "prefecture_code": 30,
    "city": "東牟婁郡古座川町",
    "city_kana": "ヒガシムログンコザガワチョウ",
    "town": "大川",
    "town_kana": "オオカワ",
    "street": null,
    "office_name": null,
    "office_name_kana": null
  },
  "4452": {
    "postcode": "6494452",
    "prefecture": "和歌山県",
    "prefecture_kana": "ワカヤマケン",
    "prefecture_code": 30,
    "city": "東牟婁郡古座川町",
    "city_kana": "ヒガシムログンコザガワチョウ",
    "town": "蔵土",
    "town_kana": "クロズ",
    "street": null,
    "office_name": null,
    "office_name_kana": null
  },
  "4453": {
    "postcode": "6494453",
    "prefecture": "和歌山県",
    "prefecture_kana": "ワカヤマケン",
    "prefecture_code": 30,
    "city": "東牟婁郡古座川町",
    "city_kana": "ヒガシムログンコザガワチョウ",
    "town": "洞尾",
    "town_kana": "ウツオ",
    "street": null,
    "office_name": null,
    "office_name_kana": null
  },
  "4454": {
    "postcode": "6494454",
    "prefecture": "和歌山県",
    "prefecture_kana": "ワカヤマケン",
    "prefecture_code": 30,
    "city": "東牟婁郡古座川町",
    "city_kana": "ヒガシムログンコザガワチョウ",
    "town": "南平",
    "town_kana": "ナベラ",
    "street": null,
    "office_name": null,
    "office_name_kana": null
  },
  "4455": {
    "postcode": "6494455",
    "prefecture": "和歌山県",
    "prefecture_kana": "ワカヤマケン",
    "prefecture_code": 30,
    "city": "東牟婁郡古座川町",
    "city_kana": "ヒガシムログンコザガワチョウ",
    "town": "三尾川",
    "town_kana": "ミトガワ",
    "street": null,
    "office_name": null,
    "office_name_kana": null
  },
  "4561": {
    "postcode": "6494561",
    "prefecture": "和歌山県",
    "prefecture_kana": "ワカヤマケン",
    "prefecture_code": 30,
    "city": "東牟婁郡古座川町",
    "city_kana": "ヒガシムログンコザガワチョウ",
    "town": "西川",
    "town_kana": "ニシカワ",
    "street": null,
    "office_name": null,
    "office_name_kana": null
  },
  "4562": {
    "postcode": "6494562",
    "prefecture": "和歌山県",
    "prefecture_kana": "ワカヤマケン",
    "prefecture_code": 30,
    "city": "東牟婁郡古座川町",
    "city_kana": "ヒガシムログンコザガワチョウ",
    "town": "下露",
    "town_kana": "シモツユ",
    "street": null,
    "office_name": null,
    "office_name_kana": null
  },
  "4563": {
    "postcode": "6494563",
    "prefecture": "和歌山県",
    "prefecture_kana": "ワカヤマケン",
    "prefecture_code": 30,
    "city": "東牟婁郡古座川町",
    "city_kana": "ヒガシムログンコザガワチョウ",
    "town": "平井",
    "town_kana": "ヒライ",
    "street": null,
    "office_name": null,
    "office_name_kana": null
  },
  "4564": {
    "postcode": "6494564",
    "prefecture": "和歌山県",
    "prefecture_kana": "ワカヤマケン",
    "prefecture_code": 30,
    "city": "東牟婁郡古座川町",
    "city_kana": "ヒガシムログンコザガワチョウ",
    "town": "松根",
    "town_kana": "マツネ",
    "street": null,
    "office_name": null,
    "office_name_kana": null
  },
  "4565": {
    "postcode": "6494565",
    "prefecture": "和歌山県",
    "prefecture_kana": "ワカヤマケン",
    "prefecture_code": 30,
    "city": "東牟婁郡古座川町",
    "city_kana": "ヒガシムログンコザガワチョウ",
    "town": "成川",
    "town_kana": "ナルカワ",
    "street": null,
    "office_name": null,
    "office_name_kana": null
  },
  "5100": {
    "postcode": "6495100",
    "prefecture": "和歌山県",
    "prefecture_kana": "ワカヤマケン",
    "prefecture_code": 30,
    "city": "東牟婁郡太地町",
    "city_kana": "ヒガシムログンタイジチョウ",
    "town": "",
    "town_kana": "",
    "street": null,
    "office_name": null,
    "office_name_kana": null
  },
  "5131": {
    "postcode": "6495131",
    "prefecture": "和歌山県",
    "prefecture_kana": "ワカヤマケン",
    "prefecture_code": 30,
    "city": "東牟婁郡那智勝浦町",
    "city_kana": "ヒガシムログンナチカツウラチョウ",
    "town": "西中野川",
    "town_kana": "ニシナカノカワ",
    "street": null,
    "office_name": null,
    "office_name_kana": null
  },
  "5132": {
    "postcode": "6495132",
    "prefecture": "和歌山県",
    "prefecture_kana": "ワカヤマケン",
    "prefecture_code": 30,
    "city": "東牟婁郡那智勝浦町",
    "city_kana": "ヒガシムログンナチカツウラチョウ",
    "town": "中ノ川",
    "town_kana": "ナカノカワ",
    "street": null,
    "office_name": null,
    "office_name_kana": null
  },
  "5133": {
    "postcode": "6495133",
    "prefecture": "和歌山県",
    "prefecture_kana": "ワカヤマケン",
    "prefecture_code": 30,
    "city": "東牟婁郡那智勝浦町",
    "city_kana": "ヒガシムログンナチカツウラチョウ",
    "town": "井鹿",
    "town_kana": "イジシ",
    "street": null,
    "office_name": null,
    "office_name_kana": null
  },
  "5134": {
    "postcode": "6495134",
    "prefecture": "和歌山県",
    "prefecture_kana": "ワカヤマケン",
    "prefecture_code": 30,
    "city": "東牟婁郡那智勝浦町",
    "city_kana": "ヒガシムログンナチカツウラチョウ",
    "town": "南大居",
    "town_kana": "ミナミオオイ",
    "street": null,
    "office_name": null,
    "office_name_kana": null
  },
  "5135": {
    "postcode": "6495135",
    "prefecture": "和歌山県",
    "prefecture_kana": "ワカヤマケン",
    "prefecture_code": 30,
    "city": "東牟婁郡那智勝浦町",
    "city_kana": "ヒガシムログンナチカツウラチョウ",
    "town": "高遠井",
    "town_kana": "コウドオイ",
    "street": null,
    "office_name": null,
    "office_name_kana": null
  },
  "5136": {
    "postcode": "6495136",
    "prefecture": "和歌山県",
    "prefecture_kana": "ワカヤマケン",
    "prefecture_code": 30,
    "city": "東牟婁郡那智勝浦町",
    "city_kana": "ヒガシムログンナチカツウラチョウ",
    "town": "長井",
    "town_kana": "ナガイ",
    "street": null,
    "office_name": null,
    "office_name_kana": null
  },
  "5137": {
    "postcode": "6495137",
    "prefecture": "和歌山県",
    "prefecture_kana": "ワカヤマケン",
    "prefecture_code": 30,
    "city": "東牟婁郡那智勝浦町",
    "city_kana": "ヒガシムログンナチカツウラチョウ",
    "town": "小匠",
    "town_kana": "コダクミ",
    "street": null,
    "office_name": null,
    "office_name_kana": null
  },
  "5141": {
    "postcode": "6495141",
    "prefecture": "和歌山県",
    "prefecture_kana": "ワカヤマケン",
    "prefecture_code": 30,
    "city": "東牟婁郡那智勝浦町",
    "city_kana": "ヒガシムログンナチカツウラチョウ",
    "town": "市屋",
    "town_kana": "イチヤ",
    "street": null,
    "office_name": null,
    "office_name_kana": null
  },
  "5142": {
    "postcode": "6495142",
    "prefecture": "和歌山県",
    "prefecture_kana": "ワカヤマケン",
    "prefecture_code": 30,
    "city": "東牟婁郡那智勝浦町",
    "city_kana": "ヒガシムログンナチカツウラチョウ",
    "town": "下里",
    "town_kana": "シモサト",
    "street": null,
    "office_name": null,
    "office_name_kana": null
  },
  "5143": {
    "postcode": "6495143",
    "prefecture": "和歌山県",
    "prefecture_kana": "ワカヤマケン",
    "prefecture_code": 30,
    "city": "東牟婁郡那智勝浦町",
    "city_kana": "ヒガシムログンナチカツウラチョウ",
    "town": "八尺鏡野",
    "town_kana": "ヤタガノ",
    "street": null,
    "office_name": null,
    "office_name_kana": null
  },
  "5144": {
    "postcode": "6495144",
    "prefecture": "和歌山県",
    "prefecture_kana": "ワカヤマケン",
    "prefecture_code": 30,
    "city": "東牟婁郡那智勝浦町",
    "city_kana": "ヒガシムログンナチカツウラチョウ",
    "town": "粉白",
    "town_kana": "コノシロ",
    "street": null,
    "office_name": null,
    "office_name_kana": null
  },
  "5145": {
    "postcode": "6495145",
    "prefecture": "和歌山県",
    "prefecture_kana": "ワカヤマケン",
    "prefecture_code": 30,
    "city": "東牟婁郡那智勝浦町",
    "city_kana": "ヒガシムログンナチカツウラチョウ",
    "town": "浦神",
    "town_kana": "ウラガミ",
    "street": null,
    "office_name": null,
    "office_name_kana": null
  },
  "5146": {
    "postcode": "6495146",
    "prefecture": "和歌山県",
    "prefecture_kana": "ワカヤマケン",
    "prefecture_code": 30,
    "city": "東牟婁郡那智勝浦町",
    "city_kana": "ヒガシムログンナチカツウラチョウ",
    "town": "中里",
    "town_kana": "ナカサト",
    "street": null,
    "office_name": null,
    "office_name_kana": null
  },
  "5147": {
    "postcode": "6495147",
    "prefecture": "和歌山県",
    "prefecture_kana": "ワカヤマケン",
    "prefecture_code": 30,
    "city": "東牟婁郡那智勝浦町",
    "city_kana": "ヒガシムログンナチカツウラチョウ",
    "town": "庄",
    "town_kana": "ショウ",
    "street": null,
    "office_name": null,
    "office_name_kana": null
  },
  "5148": {
    "postcode": "6495148",
    "prefecture": "和歌山県",
    "prefecture_kana": "ワカヤマケン",
    "prefecture_code": 30,
    "city": "東牟婁郡那智勝浦町",
    "city_kana": "ヒガシムログンナチカツウラチョウ",
    "town": "下和田",
    "town_kana": "シモワダ",
    "street": null,
    "office_name": null,
    "office_name_kana": null
  },
  "5171": {
    "postcode": "6495171",
    "prefecture": "和歌山県",
    "prefecture_kana": "ワカヤマケン",
    "prefecture_code": 30,
    "city": "東牟婁郡太地町",
    "city_kana": "ヒガシムログンタイジチョウ",
    "town": "太地",
    "town_kana": "タイジ",
    "street": null,
    "office_name": null,
    "office_name_kana": null
  },
  "5172": {
    "postcode": "6495172",
    "prefecture": "和歌山県",
    "prefecture_kana": "ワカヤマケン",
    "prefecture_code": 30,
    "city": "東牟婁郡太地町",
    "city_kana": "ヒガシムログンタイジチョウ",
    "town": "森浦",
    "town_kana": "モリウラ",
    "street": null,
    "office_name": null,
    "office_name_kana": null
  },
  "5300": {
    "postcode": "6495300",
    "prefecture": "和歌山県",
    "prefecture_kana": "ワカヤマケン",
    "prefecture_code": 30,
    "city": "東牟婁郡那智勝浦町",
    "city_kana": "ヒガシムログンナチカツウラチョウ",
    "town": "",
    "town_kana": "",
    "street": null,
    "office_name": null,
    "office_name_kana": null
  },
  "5301": {
    "postcode": "6495301",
    "prefecture": "和歌山県",
    "prefecture_kana": "ワカヤマケン",
    "prefecture_code": 30,
    "city": "東牟婁郡那智勝浦町",
    "city_kana": "ヒガシムログンナチカツウラチョウ",
    "town": "那智山",
    "town_kana": "ナチサン",
    "street": null,
    "office_name": null,
    "office_name_kana": null
  },
  "5302": {
    "postcode": "6495302",
    "prefecture": "和歌山県",
    "prefecture_kana": "ワカヤマケン",
    "prefecture_code": 30,
    "city": "東牟婁郡那智勝浦町",
    "city_kana": "ヒガシムログンナチカツウラチョウ",
    "town": "市野々",
    "town_kana": "イチノノ",
    "street": null,
    "office_name": null,
    "office_name_kana": null
  },
  "5303": {
    "postcode": "6495303",
    "prefecture": "和歌山県",
    "prefecture_kana": "ワカヤマケン",
    "prefecture_code": 30,
    "city": "東牟婁郡那智勝浦町",
    "city_kana": "ヒガシムログンナチカツウラチョウ",
    "town": "井関",
    "town_kana": "イセキ",
    "street": null,
    "office_name": null,
    "office_name_kana": null
  },
  "5304": {
    "postcode": "6495304",
    "prefecture": "和歌山県",
    "prefecture_kana": "ワカヤマケン",
    "prefecture_code": 30,
    "city": "東牟婁郡那智勝浦町",
    "city_kana": "ヒガシムログンナチカツウラチョウ",
    "town": "川関",
    "town_kana": "カワセキ",
    "street": null,
    "office_name": null,
    "office_name_kana": null
  },
  "5311": {
    "postcode": "6495311",
    "prefecture": "和歌山県",
    "prefecture_kana": "ワカヤマケン",
    "prefecture_code": 30,
    "city": "東牟婁郡那智勝浦町",
    "city_kana": "ヒガシムログンナチカツウラチョウ",
    "town": "高津気",
    "town_kana": "コウヅケ",
    "street": null,
    "office_name": null,
    "office_name_kana": null
  },
  "5312": {
    "postcode": "6495312",
    "prefecture": "和歌山県",
    "prefecture_kana": "ワカヤマケン",
    "prefecture_code": 30,
    "city": "東牟婁郡那智勝浦町",
    "city_kana": "ヒガシムログンナチカツウラチョウ",
    "town": "宇久井",
    "town_kana": "ウグイ",
    "street": null,
    "office_name": null,
    "office_name_kana": null
  },
  "5313": {
    "postcode": "6495313",
    "prefecture": "和歌山県",
    "prefecture_kana": "ワカヤマケン",
    "prefecture_code": 30,
    "city": "東牟婁郡那智勝浦町",
    "city_kana": "ヒガシムログンナチカツウラチョウ",
    "town": "狗子ノ川",
    "town_kana": "クジノカワ",
    "street": null,
    "office_name": null,
    "office_name_kana": null
  },
  "5314": {
    "postcode": "6495314",
    "prefecture": "和歌山県",
    "prefecture_kana": "ワカヤマケン",
    "prefecture_code": 30,
    "city": "東牟婁郡那智勝浦町",
    "city_kana": "ヒガシムログンナチカツウラチョウ",
    "town": "浜ノ宮",
    "town_kana": "ハマノミヤ",
    "street": null,
    "office_name": null,
    "office_name_kana": null
  },
  "5331": {
    "postcode": "6495331",
    "prefecture": "和歌山県",
    "prefecture_kana": "ワカヤマケン",
    "prefecture_code": 30,
    "city": "東牟婁郡那智勝浦町",
    "city_kana": "ヒガシムログンナチカツウラチョウ",
    "town": "天満",
    "town_kana": "テンマ",
    "street": null,
    "office_name": null,
    "office_name_kana": null
  },
  "5332": {
    "postcode": "6495332",
    "prefecture": "和歌山県",
    "prefecture_kana": "ワカヤマケン",
    "prefecture_code": 30,
    "city": "東牟婁郡那智勝浦町",
    "city_kana": "ヒガシムログンナチカツウラチョウ",
    "town": "朝日",
    "town_kana": "アサヒ",
    "street": null,
    "office_name": null,
    "office_name_kana": null
  },
  "5333": {
    "postcode": "6495333",
    "prefecture": "和歌山県",
    "prefecture_kana": "ワカヤマケン",
    "prefecture_code": 30,
    "city": "東牟婁郡那智勝浦町",
    "city_kana": "ヒガシムログンナチカツウラチョウ",
    "town": "北浜",
    "town_kana": "キタハマ",
    "street": null,
    "office_name": null,
    "office_name_kana": null
  },
  "5334": {
    "postcode": "6495334",
    "prefecture": "和歌山県",
    "prefecture_kana": "ワカヤマケン",
    "prefecture_code": 30,
    "city": "東牟婁郡那智勝浦町",
    "city_kana": "ヒガシムログンナチカツウラチョウ",
    "town": "勝浦",
    "town_kana": "カツウラ",
    "street": null,
    "office_name": null,
    "office_name_kana": null
  },
  "5335": {
    "postcode": "6495335",
    "prefecture": "和歌山県",
    "prefecture_kana": "ワカヤマケン",
    "prefecture_code": 30,
    "city": "東牟婁郡那智勝浦町",
    "city_kana": "ヒガシムログンナチカツウラチョウ",
    "town": "築地",
    "town_kana": "ツキジ",
    "street": null,
    "office_name": null,
    "office_name_kana": null
  },
  "5336": {
    "postcode": "6495336",
    "prefecture": "和歌山県",
    "prefecture_kana": "ワカヤマケン",
    "prefecture_code": 30,
    "city": "東牟婁郡那智勝浦町",
    "city_kana": "ヒガシムログンナチカツウラチョウ",
    "town": "湯川",
    "town_kana": "ユカワ",
    "street": null,
    "office_name": null,
    "office_name_kana": null
  },
  "5337": {
    "postcode": "6495337",
    "prefecture": "和歌山県",
    "prefecture_kana": "ワカヤマケン",
    "prefecture_code": 30,
    "city": "東牟婁郡那智勝浦町",
    "city_kana": "ヒガシムログンナチカツウラチョウ",
    "town": "橋ノ川",
    "town_kana": "ハシノカワ",
    "street": null,
    "office_name": null,
    "office_name_kana": null
  },
  "5338": {
    "postcode": "6495338",
    "prefecture": "和歌山県",
    "prefecture_kana": "ワカヤマケン",
    "prefecture_code": 30,
    "city": "東牟婁郡那智勝浦町",
    "city_kana": "ヒガシムログンナチカツウラチョウ",
    "town": "二河",
    "town_kana": "ニコウ",
    "street": null,
    "office_name": null,
    "office_name_kana": null
  },
  "5339": [
    {
      "postcode": "6495339",
      "prefecture": "和歌山県",
      "prefecture_kana": "ワカヤマケン",
      "prefecture_code": 30,
      "city": "東牟婁郡那智勝浦町",
      "city_kana": "ヒガシムログンナチカツウラチョウ",
      "town": "市屋",
      "town_kana": "イチヤ",
      "street": null,
      "office_name": null,
      "office_name_kana": null
    },
    {
      "postcode": "6495339",
      "prefecture": "和歌山県",
      "prefecture_kana": "ワカヤマケン",
      "prefecture_code": 30,
      "city": "東牟婁郡那智勝浦町",
      "city_kana": "ヒガシムログンナチカツウラチョウ",
      "town": "市屋大浦",
      "town_kana": "イチヤオオウラ",
      "street": null,
      "office_name": null,
      "office_name_kana": null
    }
  ],
  "5371": {
    "postcode": "6495371",
    "prefecture": "和歌山県",
    "prefecture_kana": "ワカヤマケン",
    "prefecture_code": 30,
    "city": "東牟婁郡太地町",
    "city_kana": "ヒガシムログンタイジチョウ",
    "town": "太地",
    "town_kana": "タイジ",
    "street": null,
    "office_name": null,
    "office_name_kana": null
  },
  "5451": {
    "postcode": "6495451",
    "prefecture": "和歌山県",
    "prefecture_kana": "ワカヤマケン",
    "prefecture_code": 30,
    "city": "東牟婁郡那智勝浦町",
    "city_kana": "ヒガシムログンナチカツウラチョウ",
    "town": "口色川",
    "town_kana": "クチイロカワ",
    "street": null,
    "office_name": null,
    "office_name_kana": null
  },
  "5452": {
    "postcode": "6495452",
    "prefecture": "和歌山県",
    "prefecture_kana": "ワカヤマケン",
    "prefecture_code": 30,
    "city": "東牟婁郡那智勝浦町",
    "city_kana": "ヒガシムログンナチカツウラチョウ",
    "town": "小阪",
    "town_kana": "コサカ",
    "street": null,
    "office_name": null,
    "office_name_kana": null
  },
  "5453": {
    "postcode": "6495453",
    "prefecture": "和歌山県",
    "prefecture_kana": "ワカヤマケン",
    "prefecture_code": 30,
    "city": "東牟婁郡那智勝浦町",
    "city_kana": "ヒガシムログンナチカツウラチョウ",
    "town": "南平野",
    "town_kana": "ミナミヒラノ",
    "street": null,
    "office_name": null,
    "office_name_kana": null
  },
  "5454": {
    "postcode": "6495454",
    "prefecture": "和歌山県",
    "prefecture_kana": "ワカヤマケン",
    "prefecture_code": 30,
    "city": "東牟婁郡那智勝浦町",
    "city_kana": "ヒガシムログンナチカツウラチョウ",
    "town": "熊瀬川",
    "town_kana": "クマセガワ",
    "street": null,
    "office_name": null,
    "office_name_kana": null
  },
  "5461": {
    "postcode": "6495461",
    "prefecture": "和歌山県",
    "prefecture_kana": "ワカヤマケン",
    "prefecture_code": 30,
    "city": "東牟婁郡那智勝浦町",
    "city_kana": "ヒガシムログンナチカツウラチョウ",
    "town": "大野",
    "town_kana": "オオノ",
    "street": null,
    "office_name": null,
    "office_name_kana": null
  },
  "5462": {
    "postcode": "6495462",
    "prefecture": "和歌山県",
    "prefecture_kana": "ワカヤマケン",
    "prefecture_code": 30,
    "city": "東牟婁郡那智勝浦町",
    "city_kana": "ヒガシムログンナチカツウラチョウ",
    "town": "田垣内",
    "town_kana": "タガイト",
    "street": null,
    "office_name": null,
    "office_name_kana": null
  },
  "5463": {
    "postcode": "6495463",
    "prefecture": "和歌山県",
    "prefecture_kana": "ワカヤマケン",
    "prefecture_code": 30,
    "city": "東牟婁郡那智勝浦町",
    "city_kana": "ヒガシムログンナチカツウラチョウ",
    "town": "高野",
    "town_kana": "タカノ",
    "street": null,
    "office_name": null,
    "office_name_kana": null
  },
  "5464": {
    "postcode": "6495464",
    "prefecture": "和歌山県",
    "prefecture_kana": "ワカヤマケン",
    "prefecture_code": 30,
    "city": "東牟婁郡那智勝浦町",
    "city_kana": "ヒガシムログンナチカツウラチョウ",
    "town": "直柱",
    "town_kana": "ヒタハシラ",
    "street": null,
    "office_name": null,
    "office_name_kana": null
  },
  "5465": {
    "postcode": "6495465",
    "prefecture": "和歌山県",
    "prefecture_kana": "ワカヤマケン",
    "prefecture_code": 30,
    "city": "東牟婁郡那智勝浦町",
    "city_kana": "ヒガシムログンナチカツウラチョウ",
    "town": "坂足",
    "town_kana": "サカアシ",
    "street": null,
    "office_name": null,
    "office_name_kana": null
  },
  "5466": {
    "postcode": "6495466",
    "prefecture": "和歌山県",
    "prefecture_kana": "ワカヤマケン",
    "prefecture_code": 30,
    "city": "東牟婁郡那智勝浦町",
    "city_kana": "ヒガシムログンナチカツウラチョウ",
    "town": "樫原",
    "town_kana": "カシワラ",
    "street": null,
    "office_name": null,
    "office_name_kana": null
  },
  "6101": {
    "postcode": "6496101",
    "prefecture": "和歌山県",
    "prefecture_kana": "ワカヤマケン",
    "prefecture_code": 30,
    "city": "紀の川市",
    "city_kana": "キノカワシ",
    "town": "桃山町善田",
    "town_kana": "モモヤマチョウゼンダ",
    "street": null,
    "office_name": null,
    "office_name_kana": null
  },
  "6102": {
    "postcode": "6496102",
    "prefecture": "和歌山県",
    "prefecture_kana": "ワカヤマケン",
    "prefecture_code": 30,
    "city": "紀の川市",
    "city_kana": "キノカワシ",
    "town": "桃山町黒川",
    "town_kana": "モモヤマチョウクロカワ",
    "street": null,
    "office_name": null,
    "office_name_kana": null
  },
  "6103": {
    "postcode": "6496103",
    "prefecture": "和歌山県",
    "prefecture_kana": "ワカヤマケン",
    "prefecture_code": 30,
    "city": "紀の川市",
    "city_kana": "キノカワシ",
    "town": "桃山町野田原",
    "town_kana": "モモヤマチョウノタハラ",
    "street": null,
    "office_name": null,
    "office_name_kana": null
  },
  "6104": {
    "postcode": "6496104",
    "prefecture": "和歌山県",
    "prefecture_kana": "ワカヤマケン",
    "prefecture_code": 30,
    "city": "紀の川市",
    "city_kana": "キノカワシ",
    "town": "桃山町脇谷",
    "town_kana": "モモヤマチョウワキダニ",
    "street": null,
    "office_name": null,
    "office_name_kana": null
  },
  "6105": {
    "postcode": "6496105",
    "prefecture": "和歌山県",
    "prefecture_kana": "ワカヤマケン",
    "prefecture_code": 30,
    "city": "紀の川市",
    "city_kana": "キノカワシ",
    "town": "桃山町大原",
    "town_kana": "モモヤマチョウオオバラ",
    "street": null,
    "office_name": null,
    "office_name_kana": null
  },
  "6111": {
    "postcode": "6496111",
    "prefecture": "和歌山県",
    "prefecture_kana": "ワカヤマケン",
    "prefecture_code": 30,
    "city": "紀の川市",
    "city_kana": "キノカワシ",
    "town": "桃山町最上",
    "town_kana": "モモヤマチョウモガミ",
    "street": null,
    "office_name": null,
    "office_name_kana": null
  },
  "6112": {
    "postcode": "6496112",
    "prefecture": "和歌山県",
    "prefecture_kana": "ワカヤマケン",
    "prefecture_code": 30,
    "city": "紀の川市",
    "city_kana": "キノカワシ",
    "town": "桃山町調月",
    "town_kana": "モモヤマチョウツカツキ",
    "street": null,
    "office_name": null,
    "office_name_kana": null
  },
  "6121": {
    "postcode": "6496121",
    "prefecture": "和歌山県",
    "prefecture_kana": "ワカヤマケン",
    "prefecture_code": 30,
    "city": "紀の川市",
    "city_kana": "キノカワシ",
    "town": "桃山町段新田",
    "town_kana": "モモヤマチョウダンシンデン",
    "street": null,
    "office_name": null,
    "office_name_kana": null
  },
  "6122": {
    "postcode": "6496122",
    "prefecture": "和歌山県",
    "prefecture_kana": "ワカヤマケン",
    "prefecture_code": 30,
    "city": "紀の川市",
    "city_kana": "キノカワシ",
    "town": "桃山町元",
    "town_kana": "モモヤマチョウモト",
    "street": null,
    "office_name": null,
    "office_name_kana": null
  },
  "6123": {
    "postcode": "6496123",
    "prefecture": "和歌山県",
    "prefecture_kana": "ワカヤマケン",
    "prefecture_code": 30,
    "city": "紀の川市",
    "city_kana": "キノカワシ",
    "town": "桃山町神田",
    "town_kana": "モモヤマチョウコウダ",
    "street": null,
    "office_name": null,
    "office_name_kana": null
  },
  "6124": {
    "postcode": "6496124",
    "prefecture": "和歌山県",
    "prefecture_kana": "ワカヤマケン",
    "prefecture_code": 30,
    "city": "紀の川市",
    "city_kana": "キノカワシ",
    "town": "桃山町市場",
    "town_kana": "モモヤマチョウイチバ",
    "street": null,
    "office_name": null,
    "office_name_kana": null
  },
  "6125": {
    "postcode": "6496125",
    "prefecture": "和歌山県",
    "prefecture_kana": "ワカヤマケン",
    "prefecture_code": 30,
    "city": "紀の川市",
    "city_kana": "キノカワシ",
    "town": "桃山町段",
    "town_kana": "モモヤマチョウダン",
    "street": null,
    "office_name": null,
    "office_name_kana": null
  },
  "6161": {
    "postcode": "6496161",
    "prefecture": "和歌山県",
    "prefecture_kana": "ワカヤマケン",
    "prefecture_code": 30,
    "city": "紀の川市",
    "city_kana": "キノカワシ",
    "town": "高野",
    "town_kana": "タカノ",
    "street": null,
    "office_name": null,
    "office_name_kana": null
  },
  "6162": {
    "postcode": "6496162",
    "prefecture": "和歌山県",
    "prefecture_kana": "ワカヤマケン",
    "prefecture_code": 30,
    "city": "紀の川市",
    "city_kana": "キノカワシ",
    "town": "竹房",
    "town_kana": "タケブサ",
    "street": null,
    "office_name": null,
    "office_name_kana": null
  },
  "6192": {
    "postcode": "6496192",
    "prefecture": "和歌山県",
    "prefecture_kana": "ワカヤマケン",
    "prefecture_code": 30,
    "city": "紀の川市",
    "city_kana": "キノカワシ",
    "town": "桃山町元",
    "town_kana": "モモヤマチョウモト",
    "street": "３７６番地",
    "office_name": "紀の川市役所　桃山支所",
    "office_name_kana": "キノカワシヤクシヨ モモヤマシシヨ"
  },
  "6200": {
    "postcode": "6496200",
    "prefecture": "和歌山県",
    "prefecture_kana": "ワカヤマケン",
    "prefecture_code": 30,
    "city": "岩出市",
    "city_kana": "イワデシ",
    "town": "",
    "town_kana": "",
    "street": null,
    "office_name": null,
    "office_name_kana": null
  },
  "6201": {
    "postcode": "6496201",
    "prefecture": "和歌山県",
    "prefecture_kana": "ワカヤマケン",
    "prefecture_code": 30,
    "city": "岩出市",
    "city_kana": "イワデシ",
    "town": "押川",
    "town_kana": "オシガワ",
    "street": null,
    "office_name": null,
    "office_name_kana": null
  },
  "6202": {
    "postcode": "6496202",
    "prefecture": "和歌山県",
    "prefecture_kana": "ワカヤマケン",
    "prefecture_code": 30,
    "city": "岩出市",
    "city_kana": "イワデシ",
    "town": "根来",
    "town_kana": "ネゴロ",
    "street": null,
    "office_name": null,
    "office_name_kana": null
  },
  "6203": {
    "postcode": "6496203",
    "prefecture": "和歌山県",
    "prefecture_kana": "ワカヤマケン",
    "prefecture_code": 30,
    "city": "岩出市",
    "city_kana": "イワデシ",
    "town": "桜台",
    "town_kana": "サクラダイ",
    "street": null,
    "office_name": null,
    "office_name_kana": null
  },
  "6204": {
    "postcode": "6496204",
    "prefecture": "和歌山県",
    "prefecture_kana": "ワカヤマケン",
    "prefecture_code": 30,
    "city": "岩出市",
    "city_kana": "イワデシ",
    "town": "今中",
    "town_kana": "イマナカ",
    "street": null,
    "office_name": null,
    "office_name_kana": null
  },
  "6205": {
    "postcode": "6496205",
    "prefecture": "和歌山県",
    "prefecture_kana": "ワカヤマケン",
    "prefecture_code": 30,
    "city": "岩出市",
    "city_kana": "イワデシ",
    "town": "森",
    "town_kana": "モリ",
    "street": null,
    "office_name": null,
    "office_name_kana": null
  },
  "6206": {
    "postcode": "6496206",
    "prefecture": "和歌山県",
    "prefecture_kana": "ワカヤマケン",
    "prefecture_code": 30,
    "city": "岩出市",
    "city_kana": "イワデシ",
    "town": "堀口",
    "town_kana": "ホリグチ",
    "street": null,
    "office_name": null,
    "office_name_kana": null
  },
  "6207": {
    "postcode": "6496207",
    "prefecture": "和歌山県",
    "prefecture_kana": "ワカヤマケン",
    "prefecture_code": 30,
    "city": "岩出市",
    "city_kana": "イワデシ",
    "town": "尼ケ辻",
    "town_kana": "アマガツジ",
    "street": null,
    "office_name": null,
    "office_name_kana": null
  },
  "6208": {
    "postcode": "6496208",
    "prefecture": "和歌山県",
    "prefecture_kana": "ワカヤマケン",
    "prefecture_code": 30,
    "city": "岩出市",
    "city_kana": "イワデシ",
    "town": "今畑",
    "town_kana": "イマハタ",
    "street": null,
    "office_name": null,
    "office_name_kana": null
  },
  "6211": {
    "postcode": "6496211",
    "prefecture": "和歌山県",
    "prefecture_kana": "ワカヤマケン",
    "prefecture_code": 30,
    "city": "岩出市",
    "city_kana": "イワデシ",
    "town": "東坂本",
    "town_kana": "ヒガシサカモト",
    "street": null,
    "office_name": null,
    "office_name_kana": null
  },
  "6212": {
    "postcode": "6496212",
    "prefecture": "和歌山県",
    "prefecture_kana": "ワカヤマケン",
    "prefecture_code": 30,
    "city": "岩出市",
    "city_kana": "イワデシ",
    "town": "新田広芝",
    "town_kana": "シンデンヒロシバ",
    "street": null,
    "office_name": null,
    "office_name_kana": null
  },
  "6213": {
    "postcode": "6496213",
    "prefecture": "和歌山県",
    "prefecture_kana": "ワカヤマケン",
    "prefecture_code": 30,
    "city": "岩出市",
    "city_kana": "イワデシ",
    "town": "西国分",
    "town_kana": "ニシコクブ",
    "street": null,
    "office_name": null,
    "office_name_kana": null
  },
  "6214": {
    "postcode": "6496214",
    "prefecture": "和歌山県",
    "prefecture_kana": "ワカヤマケン",
    "prefecture_code": 30,
    "city": "岩出市",
    "city_kana": "イワデシ",
    "town": "水栖",
    "town_kana": "ミズス",
    "street": null,
    "office_name": null,
    "office_name_kana": null
  },
  "6215": {
    "postcode": "6496215",
    "prefecture": "和歌山県",
    "prefecture_kana": "ワカヤマケン",
    "prefecture_code": 30,
    "city": "岩出市",
    "city_kana": "イワデシ",
    "town": "中迫",
    "town_kana": "ナカブサ",
    "street": null,
    "office_name": null,
    "office_name_kana": null
  },
  "6216": {
    "postcode": "6496216",
    "prefecture": "和歌山県",
    "prefecture_kana": "ワカヤマケン",
    "prefecture_code": 30,
    "city": "岩出市",
    "city_kana": "イワデシ",
    "town": "野上野",
    "town_kana": "ノジョノ",
    "street": null,
    "office_name": null,
    "office_name_kana": null
  },
  "6217": {
    "postcode": "6496217",
    "prefecture": "和歌山県",
    "prefecture_kana": "ワカヤマケン",
    "prefecture_code": 30,
    "city": "岩出市",
    "city_kana": "イワデシ",
    "town": "山田",
    "town_kana": "ヤマダ",
    "street": null,
    "office_name": null,
    "office_name_kana": null
  },
  "6218": {
    "postcode": "6496218",
    "prefecture": "和歌山県",
    "prefecture_kana": "ワカヤマケン",
    "prefecture_code": 30,
    "city": "岩出市",
    "city_kana": "イワデシ",
    "town": "南大池",
    "town_kana": "ミナミオイケ",
    "street": null,
    "office_name": null,
    "office_name_kana": null
  },
  "6219": {
    "postcode": "6496219",
    "prefecture": "和歌山県",
    "prefecture_kana": "ワカヤマケン",
    "prefecture_code": 30,
    "city": "岩出市",
    "city_kana": "イワデシ",
    "town": "北大池",
    "town_kana": "キタオイケ",
    "street": null,
    "office_name": null,
    "office_name_kana": null
  },
  "6221": {
    "postcode": "6496221",
    "prefecture": "和歌山県",
    "prefecture_kana": "ワカヤマケン",
    "prefecture_code": 30,
    "city": "岩出市",
    "city_kana": "イワデシ",
    "town": "溝川",
    "town_kana": "ミゾカワ",
    "street": null,
    "office_name": null,
    "office_name_kana": null
  },
  "6222": {
    "postcode": "6496222",
    "prefecture": "和歌山県",
    "prefecture_kana": "ワカヤマケン",
    "prefecture_code": 30,
    "city": "岩出市",
    "city_kana": "イワデシ",
    "town": "岡田",
    "town_kana": "オカダ",
    "street": null,
    "office_name": null,
    "office_name_kana": null
  },
  "6223": {
    "postcode": "6496223",
    "prefecture": "和歌山県",
    "prefecture_kana": "ワカヤマケン",
    "prefecture_code": 30,
    "city": "岩出市",
    "city_kana": "イワデシ",
    "town": "高塚",
    "town_kana": "タカツカ",
    "street": null,
    "office_name": null,
    "office_name_kana": null
  },
  "6224": {
    "postcode": "6496224",
    "prefecture": "和歌山県",
    "prefecture_kana": "ワカヤマケン",
    "prefecture_code": 30,
    "city": "岩出市",
    "city_kana": "イワデシ",
    "town": "山崎",
    "town_kana": "ヤマサキ",
    "street": null,
    "office_name": null,
    "office_name_kana": null
  },
  "6225": {
    "postcode": "6496225",
    "prefecture": "和歌山県",
    "prefecture_kana": "ワカヤマケン",
    "prefecture_code": 30,
    "city": "岩出市",
    "city_kana": "イワデシ",
    "town": "船戸",
    "town_kana": "フナト",
    "street": null,
    "office_name": null,
    "office_name_kana": null
  },
  "6226": {
    "postcode": "6496226",
    "prefecture": "和歌山県",
    "prefecture_kana": "ワカヤマケン",
    "prefecture_code": 30,
    "city": "岩出市",
    "city_kana": "イワデシ",
    "town": "宮",
    "town_kana": "ミヤ",
    "street": null,
    "office_name": null,
    "office_name_kana": null
  },
  "6227": {
    "postcode": "6496227",
    "prefecture": "和歌山県",
    "prefecture_kana": "ワカヤマケン",
    "prefecture_code": 30,
    "city": "岩出市",
    "city_kana": "イワデシ",
    "town": "清水",
    "town_kana": "シミズ",
    "street": null,
    "office_name": null,
    "office_name_kana": null
  },
  "6228": {
    "postcode": "6496228",
    "prefecture": "和歌山県",
    "prefecture_kana": "ワカヤマケン",
    "prefecture_code": 30,
    "city": "岩出市",
    "city_kana": "イワデシ",
    "town": "大町",
    "town_kana": "オオマチ",
    "street": null,
    "office_name": null,
    "office_name_kana": null
  },
  "6231": {
    "postcode": "6496231",
    "prefecture": "和歌山県",
    "prefecture_kana": "ワカヤマケン",
    "prefecture_code": 30,
    "city": "岩出市",
    "city_kana": "イワデシ",
    "town": "川尻",
    "town_kana": "カワシリ",
    "street": null,
    "office_name": null,
    "office_name_kana": null
  },
  "6232": {
    "postcode": "6496232",
    "prefecture": "和歌山県",
    "prefecture_kana": "ワカヤマケン",
    "prefecture_code": 30,
    "city": "岩出市",
    "city_kana": "イワデシ",
    "town": "荊本",
    "town_kana": "イバラモト",
    "street": null,
    "office_name": null,
    "office_name_kana": null
  },
  "6233": {
    "postcode": "6496233",
    "prefecture": "和歌山県",
    "prefecture_kana": "ワカヤマケン",
    "prefecture_code": 30,
    "city": "岩出市",
    "city_kana": "イワデシ",
    "town": "備前",
    "town_kana": "ビゼン",
    "street": null,
    "office_name": null,
    "office_name_kana": null
  },
  "6234": {
    "postcode": "6496234",
    "prefecture": "和歌山県",
    "prefecture_kana": "ワカヤマケン",
    "prefecture_code": 30,
    "city": "岩出市",
    "city_kana": "イワデシ",
    "town": "高瀬",
    "town_kana": "タカセ",
    "street": null,
    "office_name": null,
    "office_name_kana": null
  },
  "6235": {
    "postcode": "6496235",
    "prefecture": "和歌山県",
    "prefecture_kana": "ワカヤマケン",
    "prefecture_code": 30,
    "city": "岩出市",
    "city_kana": "イワデシ",
    "town": "西野",
    "town_kana": "ニシノ",
    "street": null,
    "office_name": null,
    "office_name_kana": null
  },
  "6236": {
    "postcode": "6496236",
    "prefecture": "和歌山県",
    "prefecture_kana": "ワカヤマケン",
    "prefecture_code": 30,
    "city": "岩出市",
    "city_kana": "イワデシ",
    "town": "曽屋",
    "town_kana": "ソウヤ",
    "street": null,
    "office_name": null,
    "office_name_kana": null
  },
  "6241": {
    "postcode": "6496241",
    "prefecture": "和歌山県",
    "prefecture_kana": "ワカヤマケン",
    "prefecture_code": 30,
    "city": "岩出市",
    "city_kana": "イワデシ",
    "town": "波分",
    "town_kana": "ハブ",
    "street": null,
    "office_name": null,
    "office_name_kana": null
  },
  "6242": {
    "postcode": "6496242",
    "prefecture": "和歌山県",
    "prefecture_kana": "ワカヤマケン",
    "prefecture_code": 30,
    "city": "岩出市",
    "city_kana": "イワデシ",
    "town": "赤垣内",
    "town_kana": "アカガイト",
    "street": null,
    "office_name": null,
    "office_name_kana": null
  },
  "6243": {
    "postcode": "6496243",
    "prefecture": "和歌山県",
    "prefecture_kana": "ワカヤマケン",
    "prefecture_code": 30,
    "city": "岩出市",
    "city_kana": "イワデシ",
    "town": "金屋",
    "town_kana": "カナヤ",
    "street": null,
    "office_name": null,
    "office_name_kana": null
  },
  "6244": {
    "postcode": "6496244",
    "prefecture": "和歌山県",
    "prefecture_kana": "ワカヤマケン",
    "prefecture_code": 30,
    "city": "岩出市",
    "city_kana": "イワデシ",
    "town": "畑毛",
    "town_kana": "ハタケ",
    "street": null,
    "office_name": null,
    "office_name_kana": null
  },
  "6245": {
    "postcode": "6496245",
    "prefecture": "和歌山県",
    "prefecture_kana": "ワカヤマケン",
    "prefecture_code": 30,
    "city": "岩出市",
    "city_kana": "イワデシ",
    "town": "中島",
    "town_kana": "ナカジマ",
    "street": null,
    "office_name": null,
    "office_name_kana": null
  },
  "6246": {
    "postcode": "6496246",
    "prefecture": "和歌山県",
    "prefecture_kana": "ワカヤマケン",
    "prefecture_code": 30,
    "city": "岩出市",
    "city_kana": "イワデシ",
    "town": "吉田",
    "town_kana": "ヨシダ",
    "street": null,
    "office_name": null,
    "office_name_kana": null
  },
  "6248": [
    {
      "postcode": "6496248",
      "prefecture": "和歌山県",
      "prefecture_kana": "ワカヤマケン",
      "prefecture_code": 30,
      "city": "岩出市",
      "city_kana": "イワデシ",
      "town": "中黒",
      "town_kana": "ナカクロ",
      "street": null,
      "office_name": null,
      "office_name_kana": null
    },
    {
      "postcode": "6496248",
      "prefecture": "和歌山県",
      "prefecture_kana": "ワカヤマケン",
      "prefecture_code": 30,
      "city": "岩出市",
      "city_kana": "イワデシ",
      "town": "湯窪",
      "town_kana": "ユクボ",
      "street": null,
      "office_name": null,
      "office_name_kana": null
    }
  ],
  "6251": {
    "postcode": "6496251",
    "prefecture": "和歌山県",
    "prefecture_kana": "ワカヤマケン",
    "prefecture_code": 30,
    "city": "岩出市",
    "city_kana": "イワデシ",
    "town": "境谷",
    "town_kana": "サカイダニ",
    "street": null,
    "office_name": null,
    "office_name_kana": null
  },
  "6252": {
    "postcode": "6496252",
    "prefecture": "和歌山県",
    "prefecture_kana": "ワカヤマケン",
    "prefecture_code": 30,
    "city": "岩出市",
    "city_kana": "イワデシ",
    "town": "安上",
    "town_kana": "アンジョウ",
    "street": null,
    "office_name": null,
    "office_name_kana": null
  },
  "6253": {
    "postcode": "6496253",
    "prefecture": "和歌山県",
    "prefecture_kana": "ワカヤマケン",
    "prefecture_code": 30,
    "city": "岩出市",
    "city_kana": "イワデシ",
    "town": "紀泉台",
    "town_kana": "キセンダイ",
    "street": null,
    "office_name": null,
    "office_name_kana": null
  },
  "6254": {
    "postcode": "6496254",
    "prefecture": "和歌山県",
    "prefecture_kana": "ワカヤマケン",
    "prefecture_code": 30,
    "city": "岩出市",
    "city_kana": "イワデシ",
    "town": "原",
    "town_kana": "ハラ",
    "street": null,
    "office_name": null,
    "office_name_kana": null
  },
  "6255": {
    "postcode": "6496255",
    "prefecture": "和歌山県",
    "prefecture_kana": "ワカヤマケン",
    "prefecture_code": 30,
    "city": "岩出市",
    "city_kana": "イワデシ",
    "town": "西安上",
    "town_kana": "ニシアンジョウ",
    "street": null,
    "office_name": null,
    "office_name_kana": null
  },
  "6256": {
    "postcode": "6496256",
    "prefecture": "和歌山県",
    "prefecture_kana": "ワカヤマケン",
    "prefecture_code": 30,
    "city": "岩出市",
    "city_kana": "イワデシ",
    "town": "金池",
    "town_kana": "カナイケ",
    "street": null,
    "office_name": null,
    "office_name_kana": null
  },
  "6257": {
    "postcode": "6496257",
    "prefecture": "和歌山県",
    "prefecture_kana": "ワカヤマケン",
    "prefecture_code": 30,
    "city": "岩出市",
    "city_kana": "イワデシ",
    "town": "相谷",
    "town_kana": "アイダニ",
    "street": null,
    "office_name": null,
    "office_name_kana": null
  },
  "6258": {
    "postcode": "6496258",
    "prefecture": "和歌山県",
    "prefecture_kana": "ワカヤマケン",
    "prefecture_code": 30,
    "city": "岩出市",
    "city_kana": "イワデシ",
    "town": "山",
    "town_kana": "ヤマ",
    "street": null,
    "office_name": null,
    "office_name_kana": null
  },
  "6261": {
    "postcode": "6496261",
    "prefecture": "和歌山県",
    "prefecture_kana": "ワカヤマケン",
    "prefecture_code": 30,
    "city": "和歌山市",
    "city_kana": "ワカヤマシ",
    "town": "小倉",
    "town_kana": "オグラ",
    "street": null,
    "office_name": null,
    "office_name_kana": null
  },
  "6262": {
    "postcode": "6496262",
    "prefecture": "和歌山県",
    "prefecture_kana": "ワカヤマケン",
    "prefecture_code": 30,
    "city": "和歌山市",
    "city_kana": "ワカヤマシ",
    "town": "上三毛",
    "town_kana": "カミミケ",
    "street": null,
    "office_name": null,
    "office_name_kana": null
  },
  "6263": {
    "postcode": "6496263",
    "prefecture": "和歌山県",
    "prefecture_kana": "ワカヤマケン",
    "prefecture_code": 30,
    "city": "和歌山市",
    "city_kana": "ワカヤマシ",
    "town": "下三毛",
    "town_kana": "シモミケ",
    "street": null,
    "office_name": null,
    "office_name_kana": null
  },
  "6264": {
    "postcode": "6496264",
    "prefecture": "和歌山県",
    "prefecture_kana": "ワカヤマケン",
    "prefecture_code": 30,
    "city": "和歌山市",
    "city_kana": "ワカヤマシ",
    "town": "新庄",
    "town_kana": "シンジョウ",
    "street": null,
    "office_name": null,
    "office_name_kana": null
  },
  "6271": {
    "postcode": "6496271",
    "prefecture": "和歌山県",
    "prefecture_kana": "ワカヤマケン",
    "prefecture_code": 30,
    "city": "和歌山市",
    "city_kana": "ワカヤマシ",
    "town": "満屋",
    "town_kana": "ミツヤ",
    "street": null,
    "office_name": null,
    "office_name_kana": null
  },
  "6272": {
    "postcode": "6496272",
    "prefecture": "和歌山県",
    "prefecture_kana": "ワカヤマケン",
    "prefecture_code": 30,
    "city": "和歌山市",
    "city_kana": "ワカヤマシ",
    "town": "大垣内",
    "town_kana": "オオガイト",
    "street": null,
    "office_name": null,
    "office_name_kana": null
  },
  "6273": {
    "postcode": "6496273",
    "prefecture": "和歌山県",
    "prefecture_kana": "ワカヤマケン",
    "prefecture_code": 30,
    "city": "和歌山市",
    "city_kana": "ワカヤマシ",
    "town": "東田中",
    "town_kana": "ヒガシタナカ",
    "street": null,
    "office_name": null,
    "office_name_kana": null
  },
  "6274": {
    "postcode": "6496274",
    "prefecture": "和歌山県",
    "prefecture_kana": "ワカヤマケン",
    "prefecture_code": 30,
    "city": "和歌山市",
    "city_kana": "ワカヤマシ",
    "town": "金谷",
    "town_kana": "カナヤ",
    "street": null,
    "office_name": null,
    "office_name_kana": null
  },
  "6275": {
    "postcode": "6496275",
    "prefecture": "和歌山県",
    "prefecture_kana": "ワカヤマケン",
    "prefecture_code": 30,
    "city": "和歌山市",
    "city_kana": "ワカヤマシ",
    "town": "吐前",
    "town_kana": "ハンザキ",
    "street": null,
    "office_name": null,
    "office_name_kana": null
  },
  "6292": {
    "postcode": "6496292",
    "prefecture": "和歌山県",
    "prefecture_kana": "ワカヤマケン",
    "prefecture_code": 30,
    "city": "岩出市",
    "city_kana": "イワデシ",
    "town": "西野",
    "town_kana": "ニシノ",
    "street": "２０９",
    "office_name": "岩出市役所",
    "office_name_kana": "イワデシヤクシヨ"
  },
  "6301": {
    "postcode": "6496301",
    "prefecture": "和歌山県",
    "prefecture_kana": "ワカヤマケン",
    "prefecture_code": 30,
    "city": "和歌山市",
    "city_kana": "ワカヤマシ",
    "town": "滝畑",
    "town_kana": "タキハタ",
    "street": null,
    "office_name": null,
    "office_name_kana": null
  },
  "6302": {
    "postcode": "6496302",
    "prefecture": "和歌山県",
    "prefecture_kana": "ワカヤマケン",
    "prefecture_code": 30,
    "city": "和歌山市",
    "city_kana": "ワカヤマシ",
    "town": "湯屋谷",
    "town_kana": "ユヤダニ",
    "street": null,
    "office_name": null,
    "office_name_kana": null
  },
  "6303": {
    "postcode": "6496303",
    "prefecture": "和歌山県",
    "prefecture_kana": "ワカヤマケン",
    "prefecture_code": 30,
    "city": "和歌山市",
    "city_kana": "ワカヤマシ",
    "town": "平岡",
    "town_kana": "ヒラオカ",
    "street": null,
    "office_name": null,
    "office_name_kana": null
  },
  "6304": {
    "postcode": "6496304",
    "prefecture": "和歌山県",
    "prefecture_kana": "ワカヤマケン",
    "prefecture_code": 30,
    "city": "和歌山市",
    "city_kana": "ワカヤマシ",
    "town": "中筋日延",
    "town_kana": "ナカスジヒノベ",
    "street": null,
    "office_name": null,
    "office_name_kana": null
  },
  "6305": {
    "postcode": "6496305",
    "prefecture": "和歌山県",
    "prefecture_kana": "ワカヤマケン",
    "prefecture_code": 30,
    "city": "和歌山市",
    "city_kana": "ワカヤマシ",
    "town": "谷",
    "town_kana": "タニ",
    "street": null,
    "office_name": null,
    "office_name_kana": null
  },
  "6306": {
    "postcode": "6496306",
    "prefecture": "和歌山県",
    "prefecture_kana": "ワカヤマケン",
    "prefecture_code": 30,
    "city": "和歌山市",
    "city_kana": "ワカヤマシ",
    "town": "上黒谷",
    "town_kana": "カミクロダニ",
    "street": null,
    "office_name": null,
    "office_name_kana": null
  },
  "6307": {
    "postcode": "6496307",
    "prefecture": "和歌山県",
    "prefecture_kana": "ワカヤマケン",
    "prefecture_code": 30,
    "city": "和歌山市",
    "city_kana": "ワカヤマシ",
    "town": "北別所",
    "town_kana": "キタベッシヨ",
    "street": null,
    "office_name": null,
    "office_name_kana": null
  },
  "6308": {
    "postcode": "6496308",
    "prefecture": "和歌山県",
    "prefecture_kana": "ワカヤマケン",
    "prefecture_code": 30,
    "city": "和歌山市",
    "city_kana": "ワカヤマシ",
    "town": "落合",
    "town_kana": "オチアイ",
    "street": null,
    "office_name": null,
    "office_name_kana": null
  },
  "6311": {
    "postcode": "6496311",
    "prefecture": "和歌山県",
    "prefecture_kana": "ワカヤマケン",
    "prefecture_code": 30,
    "city": "和歌山市",
    "city_kana": "ワカヤマシ",
    "town": "里",
    "town_kana": "サト",
    "street": null,
    "office_name": null,
    "office_name_kana": null
  },
  "6312": {
    "postcode": "6496312",
    "prefecture": "和歌山県",
    "prefecture_kana": "ワカヤマケン",
    "prefecture_code": 30,
    "city": "和歌山市",
    "city_kana": "ワカヤマシ",
    "town": "川辺",
    "town_kana": "カワナベ",
    "street": null,
    "office_name": null,
    "office_name_kana": null
  },
  "6313": {
    "postcode": "6496313",
    "prefecture": "和歌山県",
    "prefecture_kana": "ワカヤマケン",
    "prefecture_code": 30,
    "city": "和歌山市",
    "city_kana": "ワカヤマシ",
    "town": "楠本",
    "town_kana": "クスモト",
    "street": null,
    "office_name": null,
    "office_name_kana": null
  },
  "6314": {
    "postcode": "6496314",
    "prefecture": "和歌山県",
    "prefecture_kana": "ワカヤマケン",
    "prefecture_code": 30,
    "city": "和歌山市",
    "city_kana": "ワカヤマシ",
    "town": "島",
    "town_kana": "シマ",
    "street": null,
    "office_name": null,
    "office_name_kana": null
  },
  "6315": {
    "postcode": "6496315",
    "prefecture": "和歌山県",
    "prefecture_kana": "ワカヤマケン",
    "prefecture_code": 30,
    "city": "和歌山市",
    "city_kana": "ワカヤマシ",
    "town": "神波",
    "town_kana": "コウナミ",
    "street": null,
    "office_name": null,
    "office_name_kana": null
  },
  "6316": {
    "postcode": "6496316",
    "prefecture": "和歌山県",
    "prefecture_kana": "ワカヤマケン",
    "prefecture_code": 30,
    "city": "和歌山市",
    "city_kana": "ワカヤマシ",
    "town": "上野",
    "town_kana": "ウエノ",
    "street": null,
    "office_name": null,
    "office_name_kana": null
  },
  "6317": {
    "postcode": "6496317",
    "prefecture": "和歌山県",
    "prefecture_kana": "ワカヤマケン",
    "prefecture_code": 30,
    "city": "和歌山市",
    "city_kana": "ワカヤマシ",
    "town": "山口西",
    "town_kana": "ヤマグチニシ",
    "street": null,
    "office_name": null,
    "office_name_kana": null
  },
  "6318": {
    "postcode": "6496318",
    "prefecture": "和歌山県",
    "prefecture_kana": "ワカヤマケン",
    "prefecture_code": 30,
    "city": "和歌山市",
    "city_kana": "ワカヤマシ",
    "town": "藤田",
    "town_kana": "フジタ",
    "street": null,
    "office_name": null,
    "office_name_kana": null
  },
  "6321": {
    "postcode": "6496321",
    "prefecture": "和歌山県",
    "prefecture_kana": "ワカヤマケン",
    "prefecture_code": 30,
    "city": "和歌山市",
    "city_kana": "ワカヤマシ",
    "town": "布施屋",
    "town_kana": "ホシヤ",
    "street": null,
    "office_name": null,
    "office_name_kana": null
  },
  "6322": {
    "postcode": "6496322",
    "prefecture": "和歌山県",
    "prefecture_kana": "ワカヤマケン",
    "prefecture_code": 30,
    "city": "和歌山市",
    "city_kana": "ワカヤマシ",
    "town": "和佐関戸",
    "town_kana": "ワサセキド",
    "street": null,
    "office_name": null,
    "office_name_kana": null
  },
  "6323": {
    "postcode": "6496323",
    "prefecture": "和歌山県",
    "prefecture_kana": "ワカヤマケン",
    "prefecture_code": 30,
    "city": "和歌山市",
    "city_kana": "ワカヤマシ",
    "town": "井ノ口",
    "town_kana": "イノクチ",
    "street": null,
    "office_name": null,
    "office_name_kana": null
  },
  "6324": {
    "postcode": "6496324",
    "prefecture": "和歌山県",
    "prefecture_kana": "ワカヤマケン",
    "prefecture_code": 30,
    "city": "和歌山市",
    "city_kana": "ワカヤマシ",
    "town": "祢宜",
    "town_kana": "ネギ",
    "street": null,
    "office_name": null,
    "office_name_kana": null
  },
  "6325": {
    "postcode": "6496325",
    "prefecture": "和歌山県",
    "prefecture_kana": "ワカヤマケン",
    "prefecture_code": 30,
    "city": "和歌山市",
    "city_kana": "ワカヤマシ",
    "town": "下和佐",
    "town_kana": "シモワサ",
    "street": null,
    "office_name": null,
    "office_name_kana": null
  },
  "6326": {
    "postcode": "6496326",
    "prefecture": "和歌山県",
    "prefecture_kana": "ワカヤマケン",
    "prefecture_code": 30,
    "city": "和歌山市",
    "city_kana": "ワカヤマシ",
    "town": "和佐中",
    "town_kana": "ワサナカ",
    "street": null,
    "office_name": null,
    "office_name_kana": null
  },
  "6331": {
    "postcode": "6496331",
    "prefecture": "和歌山県",
    "prefecture_kana": "ワカヤマケン",
    "prefecture_code": 30,
    "city": "和歌山市",
    "city_kana": "ワカヤマシ",
    "town": "北野",
    "town_kana": "キタノ",
    "street": null,
    "office_name": null,
    "office_name_kana": null
  },
  "6332": {
    "postcode": "6496332",
    "prefecture": "和歌山県",
    "prefecture_kana": "ワカヤマケン",
    "prefecture_code": 30,
    "city": "和歌山市",
    "city_kana": "ワカヤマシ",
    "town": "宇田森",
    "town_kana": "ウダモリ",
    "street": null,
    "office_name": null,
    "office_name_kana": null
  },
  "6333": {
    "postcode": "6496333",
    "prefecture": "和歌山県",
    "prefecture_kana": "ワカヤマケン",
    "prefecture_code": 30,
    "city": "和歌山市",
    "city_kana": "ワカヤマシ",
    "town": "永穂",
    "town_kana": "ナンゴ",
    "street": null,
    "office_name": null,
    "office_name_kana": null
  },
  "6334": {
    "postcode": "6496334",
    "prefecture": "和歌山県",
    "prefecture_kana": "ワカヤマケン",
    "prefecture_code": 30,
    "city": "和歌山市",
    "city_kana": "ワカヤマシ",
    "town": "北",
    "town_kana": "キタ",
    "street": null,
    "office_name": null,
    "office_name_kana": null
  },
  "6335": {
    "postcode": "6496335",
    "prefecture": "和歌山県",
    "prefecture_kana": "ワカヤマケン",
    "prefecture_code": 30,
    "city": "和歌山市",
    "city_kana": "ワカヤマシ",
    "town": "西田井",
    "town_kana": "ニシタイ",
    "street": null,
    "office_name": null,
    "office_name_kana": null
  },
  "6336": {
    "postcode": "6496336",
    "prefecture": "和歌山県",
    "prefecture_kana": "ワカヤマケン",
    "prefecture_code": 30,
    "city": "和歌山市",
    "city_kana": "ワカヤマシ",
    "town": "小豆島",
    "town_kana": "アズシマ",
    "street": null,
    "office_name": null,
    "office_name_kana": null
  },
  "6337": {
    "postcode": "6496337",
    "prefecture": "和歌山県",
    "prefecture_kana": "ワカヤマケン",
    "prefecture_code": 30,
    "city": "和歌山市",
    "city_kana": "ワカヤマシ",
    "town": "田屋",
    "town_kana": "タヤ",
    "street": null,
    "office_name": null,
    "office_name_kana": null
  },
  "6338": {
    "postcode": "6496338",
    "prefecture": "和歌山県",
    "prefecture_kana": "ワカヤマケン",
    "prefecture_code": 30,
    "city": "和歌山市",
    "city_kana": "ワカヤマシ",
    "town": "府中",
    "town_kana": "フチュウ",
    "street": null,
    "office_name": null,
    "office_name_kana": null
  },
  "6339": {
    "postcode": "6496339",
    "prefecture": "和歌山県",
    "prefecture_kana": "ワカヤマケン",
    "prefecture_code": 30,
    "city": "和歌山市",
    "city_kana": "ワカヤマシ",
    "town": "弘西",
    "town_kana": "ヒロニシ",
    "street": null,
    "office_name": null,
    "office_name_kana": null
  },
  "6400": {
    "postcode": "6496400",
    "prefecture": "和歌山県",
    "prefecture_kana": "ワカヤマケン",
    "prefecture_code": 30,
    "city": "紀の川市",
    "city_kana": "キノカワシ",
    "town": "",
    "town_kana": "",
    "street": null,
    "office_name": null,
    "office_name_kana": null
  },
  "6401": {
    "postcode": "6496401",
    "prefecture": "和歌山県",
    "prefecture_kana": "ワカヤマケン",
    "prefecture_code": 30,
    "city": "紀の川市",
    "city_kana": "キノカワシ",
    "town": "重行",
    "town_kana": "シゲキ",
    "street": null,
    "office_name": null,
    "office_name_kana": null
  },
  "6402": {
    "postcode": "6496402",
    "prefecture": "和歌山県",
    "prefecture_kana": "ワカヤマケン",
    "prefecture_code": 30,
    "city": "紀の川市",
    "city_kana": "キノカワシ",
    "town": "北勢田",
    "town_kana": "キタセイダ",
    "street": null,
    "office_name": null,
    "office_name_kana": null
  },
  "6403": {
    "postcode": "6496403",
    "prefecture": "和歌山県",
    "prefecture_kana": "ワカヤマケン",
    "prefecture_code": 30,
    "city": "紀の川市",
    "city_kana": "キノカワシ",
    "town": "南勢田",
    "town_kana": "ミナミセイダ",
    "street": null,
    "office_name": null,
    "office_name_kana": null
  },
  "6404": {
    "postcode": "6496404",
    "prefecture": "和歌山県",
    "prefecture_kana": "ワカヤマケン",
    "prefecture_code": 30,
    "city": "紀の川市",
    "city_kana": "キノカワシ",
    "town": "赤尾",
    "town_kana": "アカオ",
    "street": null,
    "office_name": null,
    "office_name_kana": null
  },
  "6405": {
    "postcode": "6496405",
    "prefecture": "和歌山県",
    "prefecture_kana": "ワカヤマケン",
    "prefecture_code": 30,
    "city": "紀の川市",
    "city_kana": "キノカワシ",
    "town": "東大井",
    "town_kana": "ヒガシオオイ",
    "street": null,
    "office_name": null,
    "office_name_kana": null
  },
  "6406": {
    "postcode": "6496406",
    "prefecture": "和歌山県",
    "prefecture_kana": "ワカヤマケン",
    "prefecture_code": 30,
    "city": "紀の川市",
    "city_kana": "キノカワシ",
    "town": "北大井",
    "town_kana": "キタオオイ",
    "street": null,
    "office_name": null,
    "office_name_kana": null
  },
  "6407": {
    "postcode": "6496407",
    "prefecture": "和歌山県",
    "prefecture_kana": "ワカヤマケン",
    "prefecture_code": 30,
    "city": "紀の川市",
    "city_kana": "キノカワシ",
    "town": "池田新",
    "town_kana": "イケダシン",
    "street": null,
    "office_name": null,
    "office_name_kana": null
  },
  "6411": {
    "postcode": "6496411",
    "prefecture": "和歌山県",
    "prefecture_kana": "ワカヤマケン",
    "prefecture_code": 30,
    "city": "紀の川市",
    "city_kana": "キノカワシ",
    "town": "広野",
    "town_kana": "ヒロノ",
    "street": null,
    "office_name": null,
    "office_name_kana": null
  },
  "6412": {
    "postcode": "6496412",
    "prefecture": "和歌山県",
    "prefecture_kana": "ワカヤマケン",
    "prefecture_code": 30,
    "city": "紀の川市",
    "city_kana": "キノカワシ",
    "town": "黒土",
    "town_kana": "クロツチ",
    "street": null,
    "office_name": null,
    "office_name_kana": null
  },
  "6413": {
    "postcode": "6496413",
    "prefecture": "和歌山県",
    "prefecture_kana": "ワカヤマケン",
    "prefecture_code": 30,
    "city": "紀の川市",
    "city_kana": "キノカワシ",
    "town": "竹房",
    "town_kana": "タケブサ",
    "street": null,
    "office_name": null,
    "office_name_kana": null
  },
  "6414": {
    "postcode": "6496414",
    "prefecture": "和歌山県",
    "prefecture_kana": "ワカヤマケン",
    "prefecture_code": 30,
    "city": "紀の川市",
    "city_kana": "キノカワシ",
    "town": "打田",
    "town_kana": "ウチタ",
    "street": null,
    "office_name": null,
    "office_name_kana": null
  },
  "6415": {
    "postcode": "6496415",
    "prefecture": "和歌山県",
    "prefecture_kana": "ワカヤマケン",
    "prefecture_code": 30,
    "city": "紀の川市",
    "city_kana": "キノカワシ",
    "town": "窪",
    "town_kana": "クボ",
    "street": null,
    "office_name": null,
    "office_name_kana": null
  },
  "6416": {
    "postcode": "6496416",
    "prefecture": "和歌山県",
    "prefecture_kana": "ワカヤマケン",
    "prefecture_code": 30,
    "city": "紀の川市",
    "city_kana": "キノカワシ",
    "town": "上野",
    "town_kana": "ウエノ",
    "street": null,
    "office_name": null,
    "office_name_kana": null
  },
  "6417": {
    "postcode": "6496417",
    "prefecture": "和歌山県",
    "prefecture_kana": "ワカヤマケン",
    "prefecture_code": 30,
    "city": "紀の川市",
    "city_kana": "キノカワシ",
    "town": "西大井",
    "town_kana": "ニシオオイ",
    "street": null,
    "office_name": null,
    "office_name_kana": null
  },
  "6418": {
    "postcode": "6496418",
    "prefecture": "和歌山県",
    "prefecture_kana": "ワカヤマケン",
    "prefecture_code": 30,
    "city": "紀の川市",
    "city_kana": "キノカワシ",
    "town": "久留壁",
    "town_kana": "クルベキ",
    "street": null,
    "office_name": null,
    "office_name_kana": null
  },
  "6421": {
    "postcode": "6496421",
    "prefecture": "和歌山県",
    "prefecture_kana": "ワカヤマケン",
    "prefecture_code": 30,
    "city": "紀の川市",
    "city_kana": "キノカワシ",
    "town": "田中馬場",
    "town_kana": "タナカババ",
    "street": null,
    "office_name": null,
    "office_name_kana": null
  },
  "6422": {
    "postcode": "6496422",
    "prefecture": "和歌山県",
    "prefecture_kana": "ワカヤマケン",
    "prefecture_code": 30,
    "city": "紀の川市",
    "city_kana": "キノカワシ",
    "town": "花野",
    "town_kana": "ケヤ",
    "street": null,
    "office_name": null,
    "office_name_kana": null
  },
  "6423": {
    "postcode": "6496423",
    "prefecture": "和歌山県",
    "prefecture_kana": "ワカヤマケン",
    "prefecture_code": 30,
    "city": "紀の川市",
    "city_kana": "キノカワシ",
    "town": "尾崎",
    "town_kana": "オザキ",
    "street": null,
    "office_name": null,
    "office_name_kana": null
  },
  "6424": {
    "postcode": "6496424",
    "prefecture": "和歌山県",
    "prefecture_kana": "ワカヤマケン",
    "prefecture_code": 30,
    "city": "紀の川市",
    "city_kana": "キノカワシ",
    "town": "畑野上",
    "town_kana": "ハタノウエ",
    "street": null,
    "office_name": null,
    "office_name_kana": null
  },
  "6425": {
    "postcode": "6496425",
    "prefecture": "和歌山県",
    "prefecture_kana": "ワカヤマケン",
    "prefecture_code": 30,
    "city": "紀の川市",
    "city_kana": "キノカワシ",
    "town": "中井阪",
    "town_kana": "ナカイサカ",
    "street": null,
    "office_name": null,
    "office_name_kana": null
  },
  "6426": {
    "postcode": "6496426",
    "prefecture": "和歌山県",
    "prefecture_kana": "ワカヤマケン",
    "prefecture_code": 30,
    "city": "紀の川市",
    "city_kana": "キノカワシ",
    "town": "下井阪",
    "town_kana": "シモイサカ",
    "street": null,
    "office_name": null,
    "office_name_kana": null
  },
  "6427": {
    "postcode": "6496427",
    "prefecture": "和歌山県",
    "prefecture_kana": "ワカヤマケン",
    "prefecture_code": 30,
    "city": "紀の川市",
    "city_kana": "キノカワシ",
    "town": "西井阪",
    "town_kana": "ニシイサカ",
    "street": null,
    "office_name": null,
    "office_name_kana": null
  },
  "6428": {
    "postcode": "6496428",
    "prefecture": "和歌山県",
    "prefecture_kana": "ワカヤマケン",
    "prefecture_code": 30,
    "city": "紀の川市",
    "city_kana": "キノカワシ",
    "town": "東国分",
    "town_kana": "ヒガシコクブ",
    "street": null,
    "office_name": null,
    "office_name_kana": null
  },
  "6431": {
    "postcode": "6496431",
    "prefecture": "和歌山県",
    "prefecture_kana": "ワカヤマケン",
    "prefecture_code": 30,
    "city": "紀の川市",
    "city_kana": "キノカワシ",
    "town": "南中",
    "town_kana": "ミナミナカ",
    "street": null,
    "office_name": null,
    "office_name_kana": null
  },
  "6432": {
    "postcode": "6496432",
    "prefecture": "和歌山県",
    "prefecture_kana": "ワカヤマケン",
    "prefecture_code": 30,
    "city": "紀の川市",
    "city_kana": "キノカワシ",
    "town": "古和田",
    "town_kana": "フルワダ",
    "street": null,
    "office_name": null,
    "office_name_kana": null
  },
  "6433": {
    "postcode": "6496433",
    "prefecture": "和歌山県",
    "prefecture_kana": "ワカヤマケン",
    "prefecture_code": 30,
    "city": "紀の川市",
    "city_kana": "キノカワシ",
    "town": "西三谷",
    "town_kana": "ニシミタニ",
    "street": null,
    "office_name": null,
    "office_name_kana": null
  },
  "6434": {
    "postcode": "6496434",
    "prefecture": "和歌山県",
    "prefecture_kana": "ワカヤマケン",
    "prefecture_code": 30,
    "city": "紀の川市",
    "city_kana": "キノカワシ",
    "town": "中三谷",
    "town_kana": "ナカミタニ",
    "street": null,
    "office_name": null,
    "office_name_kana": null
  },
  "6435": {
    "postcode": "6496435",
    "prefecture": "和歌山県",
    "prefecture_kana": "ワカヤマケン",
    "prefecture_code": 30,
    "city": "紀の川市",
    "city_kana": "キノカワシ",
    "town": "東三谷",
    "town_kana": "ヒガシミタニ",
    "street": null,
    "office_name": null,
    "office_name_kana": null
  },
  "6441": {
    "postcode": "6496441",
    "prefecture": "和歌山県",
    "prefecture_kana": "ワカヤマケン",
    "prefecture_code": 30,
    "city": "紀の川市",
    "city_kana": "キノカワシ",
    "town": "東山田",
    "town_kana": "ヒガシヤマダ",
    "street": null,
    "office_name": null,
    "office_name_kana": null
  },
  "6442": {
    "postcode": "6496442",
    "prefecture": "和歌山県",
    "prefecture_kana": "ワカヤマケン",
    "prefecture_code": 30,
    "city": "紀の川市",
    "city_kana": "キノカワシ",
    "town": "神領",
    "town_kana": "ジンリョウ",
    "street": null,
    "office_name": null,
    "office_name_kana": null
  },
  "6443": {
    "postcode": "6496443",
    "prefecture": "和歌山県",
    "prefecture_kana": "ワカヤマケン",
    "prefecture_code": 30,
    "city": "紀の川市",
    "city_kana": "キノカワシ",
    "town": "北中",
    "town_kana": "キタナカ",
    "street": null,
    "office_name": null,
    "office_name_kana": null
  },
  "6444": {
    "postcode": "6496444",
    "prefecture": "和歌山県",
    "prefecture_kana": "ワカヤマケン",
    "prefecture_code": 30,
    "city": "紀の川市",
    "city_kana": "キノカワシ",
    "town": "登尾",
    "town_kana": "ノボリオ",
    "street": null,
    "office_name": null,
    "office_name_kana": null
  },
  "6445": {
    "postcode": "6496445",
    "prefecture": "和歌山県",
    "prefecture_kana": "ワカヤマケン",
    "prefecture_code": 30,
    "city": "紀の川市",
    "city_kana": "キノカワシ",
    "town": "豊田",
    "town_kana": "トヨダ",
    "street": null,
    "office_name": null,
    "office_name_kana": null
  },
  "6446": {
    "postcode": "6496446",
    "prefecture": "和歌山県",
    "prefecture_kana": "ワカヤマケン",
    "prefecture_code": 30,
    "city": "紀の川市",
    "city_kana": "キノカワシ",
    "town": "枇杷谷",
    "town_kana": "ビワダニ",
    "street": null,
    "office_name": null,
    "office_name_kana": null
  },
  "6447": {
    "postcode": "6496447",
    "prefecture": "和歌山県",
    "prefecture_kana": "ワカヤマケン",
    "prefecture_code": 30,
    "city": "紀の川市",
    "city_kana": "キノカワシ",
    "town": "西山田",
    "town_kana": "ニシヤマダ",
    "street": null,
    "office_name": null,
    "office_name_kana": null
  },
  "6451": {
    "postcode": "6496451",
    "prefecture": "和歌山県",
    "prefecture_kana": "ワカヤマケン",
    "prefecture_code": 30,
    "city": "紀の川市",
    "city_kana": "キノカワシ",
    "town": "神通",
    "town_kana": "ジンヅウ",
    "street": null,
    "office_name": null,
    "office_name_kana": null
  },
  "6452": {
    "postcode": "6496452",
    "prefecture": "和歌山県",
    "prefecture_kana": "ワカヤマケン",
    "prefecture_code": 30,
    "city": "紀の川市",
    "city_kana": "キノカワシ",
    "town": "中畑",
    "town_kana": "ナカハタ",
    "street": null,
    "office_name": null,
    "office_name_kana": null
  },
  "6492": {
    "postcode": "6496492",
    "prefecture": "和歌山県",
    "prefecture_kana": "ワカヤマケン",
    "prefecture_code": 30,
    "city": "紀の川市",
    "city_kana": "キノカワシ",
    "town": "西大井",
    "town_kana": "ニシオオイ",
    "street": "３３８",
    "office_name": "紀の川市役所",
    "office_name_kana": "キノカワシヤクシヨ"
  },
  "6493": {
    "postcode": "6496493",
    "prefecture": "和歌山県",
    "prefecture_kana": "ワカヤマケン",
    "prefecture_code": 30,
    "city": "紀の川市",
    "city_kana": "キノカワシ",
    "town": "西三谷",
    "town_kana": "ニシミタニ",
    "street": "９３０",
    "office_name": "近畿大学　生物理工学部",
    "office_name_kana": "キンキダイガク セイブツリコウガクブ"
  },
  "6494": {
    "postcode": "6496494",
    "prefecture": "和歌山県",
    "prefecture_kana": "ワカヤマケン",
    "prefecture_code": 30,
    "city": "紀の川市",
    "city_kana": "キノカワシ",
    "town": "上野",
    "town_kana": "ウエノ",
    "street": "１２−５",
    "office_name": "紀の里　農業協同組合",
    "office_name_kana": "キノサト ノウギヨウキヨウドウクミアイ"
  },
  "6501": {
    "postcode": "6496501",
    "prefecture": "和歌山県",
    "prefecture_kana": "ワカヤマケン",
    "prefecture_code": 30,
    "city": "紀の川市",
    "city_kana": "キノカワシ",
    "town": "北志野",
    "town_kana": "キタシノ",
    "street": null,
    "office_name": null,
    "office_name_kana": null
  },
  "6502": {
    "postcode": "6496502",
    "prefecture": "和歌山県",
    "prefecture_kana": "ワカヤマケン",
    "prefecture_code": 30,
    "city": "紀の川市",
    "city_kana": "キノカワシ",
    "town": "北長田",
    "town_kana": "キタナガタ",
    "street": null,
    "office_name": null,
    "office_name_kana": null
  },
  "6503": {
    "postcode": "6496503",
    "prefecture": "和歌山県",
    "prefecture_kana": "ワカヤマケン",
    "prefecture_code": 30,
    "city": "紀の川市",
    "city_kana": "キノカワシ",
    "town": "長田中",
    "town_kana": "ナガタナカ",
    "street": null,
    "office_name": null,
    "office_name_kana": null
  },
  "6504": {
    "postcode": "6496504",
    "prefecture": "和歌山県",
    "prefecture_kana": "ワカヤマケン",
    "prefecture_code": 30,
    "city": "紀の川市",
    "city_kana": "キノカワシ",
    "town": "南志野",
    "town_kana": "ミナミシノ",
    "street": null,
    "office_name": null,
    "office_name_kana": null
  },
  "6511": {
    "postcode": "6496511",
    "prefecture": "和歌山県",
    "prefecture_kana": "ワカヤマケン",
    "prefecture_code": 30,
    "city": "紀の川市",
    "city_kana": "キノカワシ",
    "town": "猪垣",
    "town_kana": "イノカケ",
    "street": null,
    "office_name": null,
    "office_name_kana": null
  },
  "6512": {
    "postcode": "6496512",
    "prefecture": "和歌山県",
    "prefecture_kana": "ワカヤマケン",
    "prefecture_code": 30,
    "city": "紀の川市",
    "city_kana": "キノカワシ",
    "town": "東毛",
    "town_kana": "トウゲ",
    "street": null,
    "office_name": null,
    "office_name_kana": null
  },
  "6513": {
    "postcode": "6496513",
    "prefecture": "和歌山県",
    "prefecture_kana": "ワカヤマケン",
    "prefecture_code": 30,
    "city": "紀の川市",
    "city_kana": "キノカワシ",
    "town": "中津川",
    "town_kana": "ナカツガワ",
    "street": null,
    "office_name": null,
    "office_name_kana": null
  },
  "6514": {
    "postcode": "6496514",
    "prefecture": "和歌山県",
    "prefecture_kana": "ワカヤマケン",
    "prefecture_code": 30,
    "city": "紀の川市",
    "city_kana": "キノカワシ",
    "town": "藤井",
    "town_kana": "フジイ",
    "street": null,
    "office_name": null,
    "office_name_kana": null
  },
  "6521": {
    "postcode": "6496521",
    "prefecture": "和歌山県",
    "prefecture_kana": "ワカヤマケン",
    "prefecture_code": 30,
    "city": "紀の川市",
    "city_kana": "キノカワシ",
    "town": "馬宿",
    "town_kana": "ウマヤド",
    "street": null,
    "office_name": null,
    "office_name_kana": null
  },
  "6522": {
    "postcode": "6496522",
    "prefecture": "和歌山県",
    "prefecture_kana": "ワカヤマケン",
    "prefecture_code": 30,
    "city": "紀の川市",
    "city_kana": "キノカワシ",
    "town": "上丹生谷",
    "town_kana": "カミニュウヤ",
    "street": null,
    "office_name": null,
    "office_name_kana": null
  },
  "6523": {
    "postcode": "6496523",
    "prefecture": "和歌山県",
    "prefecture_kana": "ワカヤマケン",
    "prefecture_code": 30,
    "city": "紀の川市",
    "city_kana": "キノカワシ",
    "town": "下丹生谷",
    "town_kana": "シモニュウヤ",
    "street": null,
    "office_name": null,
    "office_name_kana": null
  },
  "6524": {
    "postcode": "6496524",
    "prefecture": "和歌山県",
    "prefecture_kana": "ワカヤマケン",
    "prefecture_code": 30,
    "city": "紀の川市",
    "city_kana": "キノカワシ",
    "town": "西川原",
    "town_kana": "ニシカワハラ",
    "street": null,
    "office_name": null,
    "office_name_kana": null
  },
  "6525": {
    "postcode": "6496525",
    "prefecture": "和歌山県",
    "prefecture_kana": "ワカヤマケン",
    "prefecture_code": 30,
    "city": "紀の川市",
    "city_kana": "キノカワシ",
    "town": "野上",
    "town_kana": "ノガミ",
    "street": null,
    "office_name": null,
    "office_name_kana": null
  },
  "6526": {
    "postcode": "6496526",
    "prefecture": "和歌山県",
    "prefecture_kana": "ワカヤマケン",
    "prefecture_code": 30,
    "city": "紀の川市",
    "city_kana": "キノカワシ",
    "town": "東川原",
    "town_kana": "ヒガシカワハラ",
    "street": null,
    "office_name": null,
    "office_name_kana": null
  },
  "6531": {
    "postcode": "6496531",
    "prefecture": "和歌山県",
    "prefecture_kana": "ワカヤマケン",
    "prefecture_code": 30,
    "city": "紀の川市",
    "city_kana": "キノカワシ",
    "town": "粉河",
    "town_kana": "コカワ",
    "street": null,
    "office_name": null,
    "office_name_kana": null
  },
  "6532": {
    "postcode": "6496532",
    "prefecture": "和歌山県",
    "prefecture_kana": "ワカヤマケン",
    "prefecture_code": 30,
    "city": "紀の川市",
    "city_kana": "キノカワシ",
    "town": "中山",
    "town_kana": "ナカヤマ",
    "street": null,
    "office_name": null,
    "office_name_kana": null
  },
  "6541": {
    "postcode": "6496541",
    "prefecture": "和歌山県",
    "prefecture_kana": "ワカヤマケン",
    "prefecture_code": 30,
    "city": "紀の川市",
    "city_kana": "キノカワシ",
    "town": "井田",
    "town_kana": "イダ",
    "street": null,
    "office_name": null,
    "office_name_kana": null
  },
  "6542": {
    "postcode": "6496542",
    "prefecture": "和歌山県",
    "prefecture_kana": "ワカヤマケン",
    "prefecture_code": 30,
    "city": "紀の川市",
    "city_kana": "キノカワシ",
    "town": "東野",
    "town_kana": "ヒガシノ",
    "street": null,
    "office_name": null,
    "office_name_kana": null
  },
  "6551": {
    "postcode": "6496551",
    "prefecture": "和歌山県",
    "prefecture_kana": "ワカヤマケン",
    "prefecture_code": 30,
    "city": "紀の川市",
    "city_kana": "キノカワシ",
    "town": "上田井",
    "town_kana": "コウダイ",
    "street": null,
    "office_name": null,
    "office_name_kana": null
  },
  "6552": {
    "postcode": "6496552",
    "prefecture": "和歌山県",
    "prefecture_kana": "ワカヤマケン",
    "prefecture_code": 30,
    "city": "紀の川市",
    "city_kana": "キノカワシ",
    "town": "嶋",
    "town_kana": "シマ",
    "street": null,
    "office_name": null,
    "office_name_kana": null
  },
  "6553": {
    "postcode": "6496553",
    "prefecture": "和歌山県",
    "prefecture_kana": "ワカヤマケン",
    "prefecture_code": 30,
    "city": "紀の川市",
    "city_kana": "キノカワシ",
    "town": "深田",
    "town_kana": "フケダ",
    "street": null,
    "office_name": null,
    "office_name_kana": null
  },
  "6554": {
    "postcode": "6496554",
    "prefecture": "和歌山県",
    "prefecture_kana": "ワカヤマケン",
    "prefecture_code": 30,
    "city": "紀の川市",
    "city_kana": "キノカワシ",
    "town": "別所",
    "town_kana": "ベッシヨ",
    "street": null,
    "office_name": null,
    "office_name_kana": null
  },
  "6555": {
    "postcode": "6496555",
    "prefecture": "和歌山県",
    "prefecture_kana": "ワカヤマケン",
    "prefecture_code": 30,
    "city": "紀の川市",
    "city_kana": "キノカワシ",
    "town": "松井",
    "town_kana": "マツイ",
    "street": null,
    "office_name": null,
    "office_name_kana": null
  },
  "6561": {
    "postcode": "6496561",
    "prefecture": "和歌山県",
    "prefecture_kana": "ワカヤマケン",
    "prefecture_code": 30,
    "city": "紀の川市",
    "city_kana": "キノカワシ",
    "town": "荒見",
    "town_kana": "アラミ",
    "street": null,
    "office_name": null,
    "office_name_kana": null
  },
  "6562": {
    "postcode": "6496562",
    "prefecture": "和歌山県",
    "prefecture_kana": "ワカヤマケン",
    "prefecture_code": 30,
    "city": "紀の川市",
    "city_kana": "キノカワシ",
    "town": "遠方",
    "town_kana": "オチカタ",
    "street": null,
    "office_name": null,
    "office_name_kana": null
  },
  "6563": {
    "postcode": "6496563",
    "prefecture": "和歌山県",
    "prefecture_kana": "ワカヤマケン",
    "prefecture_code": 30,
    "city": "紀の川市",
    "city_kana": "キノカワシ",
    "town": "風市",
    "town_kana": "カザシ",
    "street": null,
    "office_name": null,
    "office_name_kana": null
  },
  "6564": {
    "postcode": "6496564",
    "prefecture": "和歌山県",
    "prefecture_kana": "ワカヤマケン",
    "prefecture_code": 30,
    "city": "紀の川市",
    "city_kana": "キノカワシ",
    "town": "勝神",
    "town_kana": "カスカミ",
    "street": null,
    "office_name": null,
    "office_name_kana": null
  },
  "6565": {
    "postcode": "6496565",
    "prefecture": "和歌山県",
    "prefecture_kana": "ワカヤマケン",
    "prefecture_code": 30,
    "city": "紀の川市",
    "city_kana": "キノカワシ",
    "town": "杉原",
    "town_kana": "スイバラ",
    "street": null,
    "office_name": null,
    "office_name_kana": null
  },
  "6571": {
    "postcode": "6496571",
    "prefecture": "和歌山県",
    "prefecture_kana": "ワカヤマケン",
    "prefecture_code": 30,
    "city": "紀の川市",
    "city_kana": "キノカワシ",
    "town": "上鞆渕",
    "town_kana": "カミトモブチ",
    "street": null,
    "office_name": null,
    "office_name_kana": null
  },
  "6572": {
    "postcode": "6496572",
    "prefecture": "和歌山県",
    "prefecture_kana": "ワカヤマケン",
    "prefecture_code": 30,
    "city": "紀の川市",
    "city_kana": "キノカワシ",
    "town": "下鞆渕",
    "town_kana": "シモトモブチ",
    "street": null,
    "office_name": null,
    "office_name_kana": null
  },
  "6573": {
    "postcode": "6496573",
    "prefecture": "和歌山県",
    "prefecture_kana": "ワカヤマケン",
    "prefecture_code": 30,
    "city": "紀の川市",
    "city_kana": "キノカワシ",
    "town": "中鞆渕",
    "town_kana": "ナカトモブチ",
    "street": null,
    "office_name": null,
    "office_name_kana": null
  },
  "6592": {
    "postcode": "6496592",
    "prefecture": "和歌山県",
    "prefecture_kana": "ワカヤマケン",
    "prefecture_code": 30,
    "city": "紀の川市",
    "city_kana": "キノカワシ",
    "town": "粉河",
    "town_kana": "コカワ",
    "street": "８０７",
    "office_name": "粉河税務署",
    "office_name_kana": "コカワゼイムシヨ"
  },
  "6593": {
    "postcode": "6496593",
    "prefecture": "和歌山県",
    "prefecture_kana": "ワカヤマケン",
    "prefecture_code": 30,
    "city": "紀の川市",
    "city_kana": "キノカワシ",
    "town": "粉河",
    "town_kana": "コカワ",
    "street": "５８０",
    "office_name": "紀の川市役所　粉河支所",
    "office_name_kana": "キノカワシヤクシヨ コカワシシヨ"
  },
  "6595": {
    "postcode": "6496595",
    "prefecture": "和歌山県",
    "prefecture_kana": "ワカヤマケン",
    "prefecture_code": 30,
    "city": "紀の川市",
    "city_kana": "キノカワシ",
    "town": "粉河",
    "town_kana": "コカワ",
    "street": "４６３２",
    "office_name": "粉河高等学校",
    "office_name_kana": "コカワコウトウガツコウ"
  },
  "6601": {
    "postcode": "6496601",
    "prefecture": "和歌山県",
    "prefecture_kana": "ワカヤマケン",
    "prefecture_code": 30,
    "city": "紀の川市",
    "city_kana": "キノカワシ",
    "town": "名手上",
    "town_kana": "ナテカミ",
    "street": null,
    "office_name": null,
    "office_name_kana": null
  },
  "6602": {
    "postcode": "6496602",
    "prefecture": "和歌山県",
    "prefecture_kana": "ワカヤマケン",
    "prefecture_code": 30,
    "city": "紀の川市",
    "city_kana": "キノカワシ",
    "town": "平野",
    "town_kana": "ヒラノ",
    "street": null,
    "office_name": null,
    "office_name_kana": null
  },
  "6603": {
    "postcode": "6496603",
    "prefecture": "和歌山県",
    "prefecture_kana": "ワカヤマケン",
    "prefecture_code": 30,
    "city": "紀の川市",
    "city_kana": "キノカワシ",
    "town": "名手下",
    "town_kana": "ナテシモ",
    "street": null,
    "office_name": null,
    "office_name_kana": null
  },
  "6604": {
    "postcode": "6496604",
    "prefecture": "和歌山県",
    "prefecture_kana": "ワカヤマケン",
    "prefecture_code": 30,
    "city": "紀の川市",
    "city_kana": "キノカワシ",
    "town": "西野山",
    "town_kana": "ニシノヤマ",
    "street": null,
    "office_name": null,
    "office_name_kana": null
  },
  "6605": {
    "postcode": "6496605",
    "prefecture": "和歌山県",
    "prefecture_kana": "ワカヤマケン",
    "prefecture_code": 30,
    "city": "紀の川市",
    "city_kana": "キノカワシ",
    "town": "江川中",
    "town_kana": "エカワナカ",
    "street": null,
    "office_name": null,
    "office_name_kana": null
  },
  "6606": {
    "postcode": "6496606",
    "prefecture": "和歌山県",
    "prefecture_kana": "ワカヤマケン",
    "prefecture_code": 30,
    "city": "紀の川市",
    "city_kana": "キノカワシ",
    "town": "切畑",
    "town_kana": "キリハタ",
    "street": null,
    "office_name": null,
    "office_name_kana": null
  },
  "6611": {
    "postcode": "6496611",
    "prefecture": "和歌山県",
    "prefecture_kana": "ワカヤマケン",
    "prefecture_code": 30,
    "city": "紀の川市",
    "city_kana": "キノカワシ",
    "town": "穴伏",
    "town_kana": "アナブシ",
    "street": null,
    "office_name": null,
    "office_name_kana": null
  },
  "6612": {
    "postcode": "6496612",
    "prefecture": "和歌山県",
    "prefecture_kana": "ワカヤマケン",
    "prefecture_code": 30,
    "city": "紀の川市",
    "city_kana": "キノカワシ",
    "town": "北涌",
    "town_kana": "キタワキ",
    "street": null,
    "office_name": null,
    "office_name_kana": null
  },
  "6613": {
    "postcode": "6496613",
    "prefecture": "和歌山県",
    "prefecture_kana": "ワカヤマケン",
    "prefecture_code": 30,
    "city": "紀の川市",
    "city_kana": "キノカワシ",
    "town": "横谷",
    "town_kana": "ヨコダニ",
    "street": null,
    "office_name": null,
    "office_name_kana": null
  },
  "6614": {
    "postcode": "6496614",
    "prefecture": "和歌山県",
    "prefecture_kana": "ワカヤマケン",
    "prefecture_code": 30,
    "city": "紀の川市",
    "city_kana": "キノカワシ",
    "town": "赤沼田",
    "town_kana": "アカンタ",
    "street": null,
    "office_name": null,
    "office_name_kana": null
  },
  "6615": {
    "postcode": "6496615",
    "prefecture": "和歌山県",
    "prefecture_kana": "ワカヤマケン",
    "prefecture_code": 30,
    "city": "紀の川市",
    "city_kana": "キノカワシ",
    "town": "麻生津中",
    "town_kana": "オウヅナカ",
    "street": null,
    "office_name": null,
    "office_name_kana": null
  },
  "6616": {
    "postcode": "6496616",
    "prefecture": "和歌山県",
    "prefecture_kana": "ワカヤマケン",
    "prefecture_code": 30,
    "city": "紀の川市",
    "city_kana": "キノカワシ",
    "town": "西脇",
    "town_kana": "ニシワキ",
    "street": null,
    "office_name": null,
    "office_name_kana": null
  },
  "6621": {
    "postcode": "6496621",
    "prefecture": "和歌山県",
    "prefecture_kana": "ワカヤマケン",
    "prefecture_code": 30,
    "city": "紀の川市",
    "city_kana": "キノカワシ",
    "town": "名手西野",
    "town_kana": "ナテニシノ",
    "street": null,
    "office_name": null,
    "office_name_kana": null
  },
  "6622": {
    "postcode": "6496622",
    "prefecture": "和歌山県",
    "prefecture_kana": "ワカヤマケン",
    "prefecture_code": 30,
    "city": "紀の川市",
    "city_kana": "キノカワシ",
    "town": "後田",
    "town_kana": "シレダ",
    "street": null,
    "office_name": null,
    "office_name_kana": null
  },
  "6623": {
    "postcode": "6496623",
    "prefecture": "和歌山県",
    "prefecture_kana": "ワカヤマケン",
    "prefecture_code": 30,
    "city": "紀の川市",
    "city_kana": "キノカワシ",
    "town": "藤崎",
    "town_kana": "フジサキ",
    "street": null,
    "office_name": null,
    "office_name_kana": null
  },
  "6624": {
    "postcode": "6496624",
    "prefecture": "和歌山県",
    "prefecture_kana": "ワカヤマケン",
    "prefecture_code": 30,
    "city": "紀の川市",
    "city_kana": "キノカワシ",
    "town": "王子",
    "town_kana": "オウジ",
    "street": null,
    "office_name": null,
    "office_name_kana": null
  },
  "6631": {
    "postcode": "6496631",
    "prefecture": "和歌山県",
    "prefecture_kana": "ワカヤマケン",
    "prefecture_code": 30,
    "city": "紀の川市",
    "city_kana": "キノカワシ",
    "town": "名手市場",
    "town_kana": "ナテイチバ",
    "street": null,
    "office_name": null,
    "office_name_kana": null
  },
  "6692": {
    "postcode": "6496692",
    "prefecture": "和歌山県",
    "prefecture_kana": "ワカヤマケン",
    "prefecture_code": 30,
    "city": "紀の川市",
    "city_kana": "キノカワシ",
    "town": "名手市場",
    "town_kana": "ナテイチバ",
    "street": "１４４−１",
    "office_name": "紀の川市役所　那賀支所",
    "office_name_kana": "キノカワシヤクシヨ ナガシシヨ"
  },
  "7100": {
    "postcode": "6497100",
    "prefecture": "和歌山県",
    "prefecture_kana": "ワカヤマケン",
    "prefecture_code": 30,
    "city": "伊都郡かつらぎ町",
    "city_kana": "イトグンカツラギチョウ",
    "town": "",
    "town_kana": "",
    "street": null,
    "office_name": null,
    "office_name_kana": null
  },
  "7101": {
    "postcode": "6497101",
    "prefecture": "和歌山県",
    "prefecture_kana": "ワカヤマケン",
    "prefecture_code": 30,
    "city": "伊都郡かつらぎ町",
    "city_kana": "イトグンカツラギチョウ",
    "town": "東谷",
    "town_kana": "ヒガシタニ",
    "street": null,
    "office_name": null,
    "office_name_kana": null
  },
  "7102": {
    "postcode": "6497102",
    "prefecture": "和歌山県",
    "prefecture_kana": "ワカヤマケン",
    "prefecture_code": 30,
    "city": "伊都郡かつらぎ町",
    "city_kana": "イトグンカツラギチョウ",
    "town": "滝",
    "town_kana": "タキ",
    "street": null,
    "office_name": null,
    "office_name_kana": null
  },
  "7103": {
    "postcode": "6497103",
    "prefecture": "和歌山県",
    "prefecture_kana": "ワカヤマケン",
    "prefecture_code": 30,
    "city": "伊都郡かつらぎ町",
    "city_kana": "イトグンカツラギチョウ",
    "town": "広口",
    "town_kana": "ヒロクチ",
    "street": null,
    "office_name": null,
    "office_name_kana": null
  },
  "7104": {
    "postcode": "6497104",
    "prefecture": "和歌山県",
    "prefecture_kana": "ワカヤマケン",
    "prefecture_code": 30,
    "city": "伊都郡かつらぎ町",
    "city_kana": "イトグンカツラギチョウ",
    "town": "平",
    "town_kana": "タイラ",
    "street": null,
    "office_name": null,
    "office_name_kana": null
  },
  "7111": {
    "postcode": "6497111",
    "prefecture": "和歌山県",
    "prefecture_kana": "ワカヤマケン",
    "prefecture_code": 30,
    "city": "伊都郡かつらぎ町",
    "city_kana": "イトグンカツラギチョウ",
    "town": "大畑",
    "town_kana": "オオハタ",
    "street": null,
    "office_name": null,
    "office_name_kana": null
  },
  "7112": {
    "postcode": "6497112",
    "prefecture": "和歌山県",
    "prefecture_kana": "ワカヤマケン",
    "prefecture_code": 30,
    "city": "伊都郡かつらぎ町",
    "city_kana": "イトグンカツラギチョウ",
    "town": "中飯降",
    "town_kana": "ナカイブリ",
    "street": null,
    "office_name": null,
    "office_name_kana": null
  },
  "7113": {
    "postcode": "6497113",
    "prefecture": "和歌山県",
    "prefecture_kana": "ワカヤマケン",
    "prefecture_code": 30,
    "city": "伊都郡かつらぎ町",
    "city_kana": "イトグンカツラギチョウ",
    "town": "妙寺",
    "town_kana": "ミョウジ",
    "street": null,
    "office_name": null,
    "office_name_kana": null
  },
  "7114": {
    "postcode": "6497114",
    "prefecture": "和歌山県",
    "prefecture_kana": "ワカヤマケン",
    "prefecture_code": 30,
    "city": "伊都郡かつらぎ町",
    "city_kana": "イトグンカツラギチョウ",
    "town": "西飯降",
    "town_kana": "ニシイブリ",
    "street": null,
    "office_name": null,
    "office_name_kana": null
  },
  "7115": {
    "postcode": "6497115",
    "prefecture": "和歌山県",
    "prefecture_kana": "ワカヤマケン",
    "prefecture_code": 30,
    "city": "伊都郡かつらぎ町",
    "city_kana": "イトグンカツラギチョウ",
    "town": "短野",
    "town_kana": "ミジカノ",
    "street": null,
    "office_name": null,
    "office_name_kana": null
  },
  "7121": {
    "postcode": "6497121",
    "prefecture": "和歌山県",
    "prefecture_kana": "ワカヤマケン",
    "prefecture_code": 30,
    "city": "伊都郡かつらぎ町",
    "city_kana": "イトグンカツラギチョウ",
    "town": "丁ノ町",
    "town_kana": "チョウノマチ",
    "street": null,
    "office_name": null,
    "office_name_kana": null
  },
  "7122": {
    "postcode": "6497122",
    "prefecture": "和歌山県",
    "prefecture_kana": "ワカヤマケン",
    "prefecture_code": 30,
    "city": "伊都郡かつらぎ町",
    "city_kana": "イトグンカツラギチョウ",
    "town": "新田",
    "town_kana": "シンデン",
    "street": null,
    "office_name": null,
    "office_name_kana": null
  },
  "7123": {
    "postcode": "6497123",
    "prefecture": "和歌山県",
    "prefecture_kana": "ワカヤマケン",
    "prefecture_code": 30,
    "city": "伊都郡かつらぎ町",
    "city_kana": "イトグンカツラギチョウ",
    "town": "柏木",
    "town_kana": "カシワギ",
    "street": null,
    "office_name": null,
    "office_name_kana": null
  },
  "7131": {
    "postcode": "6497131",
    "prefecture": "和歌山県",
    "prefecture_kana": "ワカヤマケン",
    "prefecture_code": 30,
    "city": "伊都郡かつらぎ町",
    "city_kana": "イトグンカツラギチョウ",
    "town": "山崎",
    "town_kana": "ヤマサキ",
    "street": null,
    "office_name": null,
    "office_name_kana": null
  },
  "7132": {
    "postcode": "6497132",
    "prefecture": "和歌山県",
    "prefecture_kana": "ワカヤマケン",
    "prefecture_code": 30,
    "city": "伊都郡かつらぎ町",
    "city_kana": "イトグンカツラギチョウ",
    "town": "教良寺",
    "town_kana": "キョウラジ",
    "street": null,
    "office_name": null,
    "office_name_kana": null
  },
  "7133": {
    "postcode": "6497133",
    "prefecture": "和歌山県",
    "prefecture_kana": "ワカヤマケン",
    "prefecture_code": 30,
    "city": "伊都郡かつらぎ町",
    "city_kana": "イトグンカツラギチョウ",
    "town": "三谷",
    "town_kana": "ミタニ",
    "street": null,
    "office_name": null,
    "office_name_kana": null
  },
  "7134": {
    "postcode": "6497134",
    "prefecture": "和歌山県",
    "prefecture_kana": "ワカヤマケン",
    "prefecture_code": 30,
    "city": "伊都郡かつらぎ町",
    "city_kana": "イトグンカツラギチョウ",
    "town": "宮本",
    "town_kana": "ミヤモト",
    "street": null,
    "office_name": null,
    "office_name_kana": null
  },
  "7135": {
    "postcode": "6497135",
    "prefecture": "和歌山県",
    "prefecture_kana": "ワカヤマケン",
    "prefecture_code": 30,
    "city": "伊都郡かつらぎ町",
    "city_kana": "イトグンカツラギチョウ",
    "town": "平沼田",
    "town_kana": "ヒランタ",
    "street": null,
    "office_name": null,
    "office_name_kana": null
  },
  "7136": {
    "postcode": "6497136",
    "prefecture": "和歌山県",
    "prefecture_kana": "ワカヤマケン",
    "prefecture_code": 30,
    "city": "伊都郡かつらぎ町",
    "city_kana": "イトグンカツラギチョウ",
    "town": "寺尾",
    "town_kana": "テラオ",
    "street": null,
    "office_name": null,
    "office_name_kana": null
  },
  "7137": {
    "postcode": "6497137",
    "prefecture": "和歌山県",
    "prefecture_kana": "ワカヤマケン",
    "prefecture_code": 30,
    "city": "伊都郡かつらぎ町",
    "city_kana": "イトグンカツラギチョウ",
    "town": "兄井",
    "town_kana": "アニイ",
    "street": null,
    "office_name": null,
    "office_name_kana": null
  },
  "7141": {
    "postcode": "6497141",
    "prefecture": "和歌山県",
    "prefecture_kana": "ワカヤマケン",
    "prefecture_code": 30,
    "city": "伊都郡かつらぎ町",
    "city_kana": "イトグンカツラギチョウ",
    "town": "上天野",
    "town_kana": "カミアマノ",
    "street": null,
    "office_name": null,
    "office_name_kana": null
  },
  "7142": {
    "postcode": "6497142",
    "prefecture": "和歌山県",
    "prefecture_kana": "ワカヤマケン",
    "prefecture_code": 30,
    "city": "伊都郡かつらぎ町",
    "city_kana": "イトグンカツラギチョウ",
    "town": "下天野",
    "town_kana": "シモアマノ",
    "street": null,
    "office_name": null,
    "office_name_kana": null
  },
  "7143": {
    "postcode": "6497143",
    "prefecture": "和歌山県",
    "prefecture_kana": "ワカヤマケン",
    "prefecture_code": 30,
    "city": "伊都郡かつらぎ町",
    "city_kana": "イトグンカツラギチョウ",
    "town": "神田",
    "town_kana": "コウダ",
    "street": null,
    "office_name": null,
    "office_name_kana": null
  },
  "7144": {
    "postcode": "6497144",
    "prefecture": "和歌山県",
    "prefecture_kana": "ワカヤマケン",
    "prefecture_code": 30,
    "city": "伊都郡かつらぎ町",
    "city_kana": "イトグンカツラギチョウ",
    "town": "志賀",
    "town_kana": "シガ",
    "street": null,
    "office_name": null,
    "office_name_kana": null
  },
  "7145": {
    "postcode": "6497145",
    "prefecture": "和歌山県",
    "prefecture_kana": "ワカヤマケン",
    "prefecture_code": 30,
    "city": "伊都郡かつらぎ町",
    "city_kana": "イトグンカツラギチョウ",
    "town": "日高",
    "town_kana": "ヒダカ",
    "street": null,
    "office_name": null,
    "office_name_kana": null
  },
  "7146": {
    "postcode": "6497146",
    "prefecture": "和歌山県",
    "prefecture_kana": "ワカヤマケン",
    "prefecture_code": 30,
    "city": "伊都郡かつらぎ町",
    "city_kana": "イトグンカツラギチョウ",
    "town": "星山",
    "town_kana": "ホシヤマ",
    "street": null,
    "office_name": null,
    "office_name_kana": null
  },
  "7151": {
    "postcode": "6497151",
    "prefecture": "和歌山県",
    "prefecture_kana": "ワカヤマケン",
    "prefecture_code": 30,
    "city": "伊都郡かつらぎ町",
    "city_kana": "イトグンカツラギチョウ",
    "town": "東渋田",
    "town_kana": "ヒガシシブタ",
    "street": null,
    "office_name": null,
    "office_name_kana": null
  },
  "7152": {
    "postcode": "6497152",
    "prefecture": "和歌山県",
    "prefecture_kana": "ワカヤマケン",
    "prefecture_code": 30,
    "city": "伊都郡かつらぎ町",
    "city_kana": "イトグンカツラギチョウ",
    "town": "星川",
    "town_kana": "ホシカワ",
    "street": null,
    "office_name": null,
    "office_name_kana": null
  },
  "7153": {
    "postcode": "6497153",
    "prefecture": "和歌山県",
    "prefecture_kana": "ワカヤマケン",
    "prefecture_code": 30,
    "city": "伊都郡かつらぎ町",
    "city_kana": "イトグンカツラギチョウ",
    "town": "御所",
    "town_kana": "ゴセ",
    "street": null,
    "office_name": null,
    "office_name_kana": null
  },
  "7154": {
    "postcode": "6497154",
    "prefecture": "和歌山県",
    "prefecture_kana": "ワカヤマケン",
    "prefecture_code": 30,
    "city": "伊都郡かつらぎ町",
    "city_kana": "イトグンカツラギチョウ",
    "town": "西渋田",
    "town_kana": "ニシシブタ",
    "street": null,
    "office_name": null,
    "office_name_kana": null
  },
  "7155": {
    "postcode": "6497155",
    "prefecture": "和歌山県",
    "prefecture_kana": "ワカヤマケン",
    "prefecture_code": 30,
    "city": "伊都郡かつらぎ町",
    "city_kana": "イトグンカツラギチョウ",
    "town": "島",
    "town_kana": "シマ",
    "street": null,
    "office_name": null,
    "office_name_kana": null
  },
  "7161": {
    "postcode": "6497161",
    "prefecture": "和歌山県",
    "prefecture_kana": "ワカヤマケン",
    "prefecture_code": 30,
    "city": "伊都郡かつらぎ町",
    "city_kana": "イトグンカツラギチョウ",
    "town": "笠田東",
    "town_kana": "カセダヒガシ",
    "street": null,
    "office_name": null,
    "office_name_kana": null
  },
  "7162": {
    "postcode": "6497162",
    "prefecture": "和歌山県",
    "prefecture_kana": "ワカヤマケン",
    "prefecture_code": 30,
    "city": "伊都郡かつらぎ町",
    "city_kana": "イトグンカツラギチョウ",
    "town": "笠田中",
    "town_kana": "カセダナカ",
    "street": null,
    "office_name": null,
    "office_name_kana": null
  },
  "7163": {
    "postcode": "6497163",
    "prefecture": "和歌山県",
    "prefecture_kana": "ワカヤマケン",
    "prefecture_code": 30,
    "city": "伊都郡かつらぎ町",
    "city_kana": "イトグンカツラギチョウ",
    "town": "萩原",
    "town_kana": "ハギハラ",
    "street": null,
    "office_name": null,
    "office_name_kana": null
  },
  "7164": {
    "postcode": "6497164",
    "prefecture": "和歌山県",
    "prefecture_kana": "ワカヤマケン",
    "prefecture_code": 30,
    "city": "伊都郡かつらぎ町",
    "city_kana": "イトグンカツラギチョウ",
    "town": "窪",
    "town_kana": "クボ",
    "street": null,
    "office_name": null,
    "office_name_kana": null
  },
  "7165": {
    "postcode": "6497165",
    "prefecture": "和歌山県",
    "prefecture_kana": "ワカヤマケン",
    "prefecture_code": 30,
    "city": "伊都郡かつらぎ町",
    "city_kana": "イトグンカツラギチョウ",
    "town": "背ノ山",
    "town_kana": "セノヤマ",
    "street": null,
    "office_name": null,
    "office_name_kana": null
  },
  "7166": {
    "postcode": "6497166",
    "prefecture": "和歌山県",
    "prefecture_kana": "ワカヤマケン",
    "prefecture_code": 30,
    "city": "伊都郡かつらぎ町",
    "city_kana": "イトグンカツラギチョウ",
    "town": "高田",
    "town_kana": "タカダ",
    "street": null,
    "office_name": null,
    "office_name_kana": null
  },
  "7167": {
    "postcode": "6497167",
    "prefecture": "和歌山県",
    "prefecture_kana": "ワカヤマケン",
    "prefecture_code": 30,
    "city": "伊都郡かつらぎ町",
    "city_kana": "イトグンカツラギチョウ",
    "town": "移",
    "town_kana": "ウツリ",
    "street": null,
    "office_name": null,
    "office_name_kana": null
  },
  "7171": {
    "postcode": "6497171",
    "prefecture": "和歌山県",
    "prefecture_kana": "ワカヤマケン",
    "prefecture_code": 30,
    "city": "伊都郡かつらぎ町",
    "city_kana": "イトグンカツラギチョウ",
    "town": "大薮",
    "town_kana": "オオヤブ",
    "street": null,
    "office_name": null,
    "office_name_kana": null
  },
  "7172": {
    "postcode": "6497172",
    "prefecture": "和歌山県",
    "prefecture_kana": "ワカヤマケン",
    "prefecture_code": 30,
    "city": "伊都郡かつらぎ町",
    "city_kana": "イトグンカツラギチョウ",
    "town": "蛭子",
    "town_kana": "エビス",
    "street": null,
    "office_name": null,
    "office_name_kana": null
  },
  "7173": {
    "postcode": "6497173",
    "prefecture": "和歌山県",
    "prefecture_kana": "ワカヤマケン",
    "prefecture_code": 30,
    "city": "伊都郡かつらぎ町",
    "city_kana": "イトグンカツラギチョウ",
    "town": "大谷",
    "town_kana": "オオタニ",
    "street": null,
    "office_name": null,
    "office_name_kana": null
  },
  "7174": {
    "postcode": "6497174",
    "prefecture": "和歌山県",
    "prefecture_kana": "ワカヤマケン",
    "prefecture_code": 30,
    "city": "伊都郡かつらぎ町",
    "city_kana": "イトグンカツラギチョウ",
    "town": "佐野",
    "town_kana": "サヤ",
    "street": null,
    "office_name": null,
    "office_name_kana": null
  },
  "7175": {
    "postcode": "6497175",
    "prefecture": "和歌山県",
    "prefecture_kana": "ワカヤマケン",
    "prefecture_code": 30,
    "city": "伊都郡かつらぎ町",
    "city_kana": "イトグンカツラギチョウ",
    "town": "広浦",
    "town_kana": "ヒロウラ",
    "street": null,
    "office_name": null,
    "office_name_kana": null
  },
  "7192": {
    "postcode": "6497192",
    "prefecture": "和歌山県",
    "prefecture_kana": "ワカヤマケン",
    "prefecture_code": 30,
    "city": "伊都郡かつらぎ町",
    "city_kana": "イトグンカツラギチョウ",
    "town": "大字丁ノ町",
    "town_kana": null,
    "street": "２１６０",
    "office_name": "かつらぎ町役場",
    "office_name_kana": "カツラギチヨウヤクバ"
  },
  "7194": {
    "postcode": "6497194",
    "prefecture": "和歌山県",
    "prefecture_kana": "ワカヤマケン",
    "prefecture_code": 30,
    "city": "伊都郡かつらぎ町",
    "city_kana": "イトグンカツラギチョウ",
    "town": "大字新田",
    "town_kana": null,
    "street": "９４",
    "office_name": "築野食品工業　株式会社",
    "office_name_kana": "ツキノシヨクヒンコウギヨウ カブシキカイシヤ"
  },
  "7195": {
    "postcode": "6497195",
    "prefecture": "和歌山県",
    "prefecture_kana": "ワカヤマケン",
    "prefecture_code": 30,
    "city": "伊都郡かつらぎ町",
    "city_kana": "イトグンカツラギチョウ",
    "town": "大字妙寺",
    "town_kana": null,
    "street": "４６４（かつらぎ郵便局私書箱第１号）",
    "office_name": "溝端紙工印刷　株式会社",
    "office_name_kana": "ミゾバタシコウインサツ カブシキガイシヤ"
  },
  "7201": {
    "postcode": "6497201",
    "prefecture": "和歌山県",
    "prefecture_kana": "ワカヤマケン",
    "prefecture_code": 30,
    "city": "橋本市",
    "city_kana": "ハシモトシ",
    "town": "高野口町応其",
    "town_kana": "コウヤグチチョウオウゴ",
    "street": null,
    "office_name": null,
    "office_name_kana": null
  },
  "7202": {
    "postcode": "6497202",
    "prefecture": "和歌山県",
    "prefecture_kana": "ワカヤマケン",
    "prefecture_code": 30,
    "city": "橋本市",
    "city_kana": "ハシモトシ",
    "town": "高野口町伏原",
    "town_kana": "コウヤグチチョウフシハラ",
    "street": null,
    "office_name": null,
    "office_name_kana": null
  },
  "7203": {
    "postcode": "6497203",
    "prefecture": "和歌山県",
    "prefecture_kana": "ワカヤマケン",
    "prefecture_code": 30,
    "city": "橋本市",
    "city_kana": "ハシモトシ",
    "town": "高野口町名古曽",
    "town_kana": "コウヤグチチョウナゴソ",
    "street": null,
    "office_name": null,
    "office_name_kana": null
  },
  "7204": {
    "postcode": "6497204",
    "prefecture": "和歌山県",
    "prefecture_kana": "ワカヤマケン",
    "prefecture_code": 30,
    "city": "橋本市",
    "city_kana": "ハシモトシ",
    "town": "高野口町小田",
    "town_kana": "コウヤグチチョウオダ",
    "street": null,
    "office_name": null,
    "office_name_kana": null
  },
  "7205": {
    "postcode": "6497205",
    "prefecture": "和歌山県",
    "prefecture_kana": "ワカヤマケン",
    "prefecture_code": 30,
    "city": "橋本市",
    "city_kana": "ハシモトシ",
    "town": "高野口町名倉",
    "town_kana": "コウヤグチチョウナグラ",
    "street": null,
    "office_name": null,
    "office_name_kana": null
  },
  "7206": {
    "postcode": "6497206",
    "prefecture": "和歌山県",
    "prefecture_kana": "ワカヤマケン",
    "prefecture_code": 30,
    "city": "橋本市",
    "city_kana": "ハシモトシ",
    "town": "高野口町向島",
    "town_kana": "コウヤグチチョウムコウジマ",
    "street": null,
    "office_name": null,
    "office_name_kana": null
  },
  "7207": {
    "postcode": "6497207",
    "prefecture": "和歌山県",
    "prefecture_kana": "ワカヤマケン",
    "prefecture_code": 30,
    "city": "橋本市",
    "city_kana": "ハシモトシ",
    "town": "高野口町大野",
    "town_kana": "コウヤグチチョウオオノ",
    "street": null,
    "office_name": null,
    "office_name_kana": null
  },
  "7211": {
    "postcode": "6497211",
    "prefecture": "和歌山県",
    "prefecture_kana": "ワカヤマケン",
    "prefecture_code": 30,
    "city": "橋本市",
    "city_kana": "ハシモトシ",
    "town": "高野口町下中",
    "town_kana": "コウヤグチチョウシモナカ",
    "street": null,
    "office_name": null,
    "office_name_kana": null
  },
  "7212": {
    "postcode": "6497212",
    "prefecture": "和歌山県",
    "prefecture_kana": "ワカヤマケン",
    "prefecture_code": 30,
    "city": "橋本市",
    "city_kana": "ハシモトシ",
    "town": "高野口町上中",
    "town_kana": "コウヤグチチョウカミナカ",
    "street": null,
    "office_name": null,
    "office_name_kana": null
  },
  "7213": {
    "postcode": "6497213",
    "prefecture": "和歌山県",
    "prefecture_kana": "ワカヤマケン",
    "prefecture_code": 30,
    "city": "橋本市",
    "city_kana": "ハシモトシ",
    "town": "高野口町嵯峨谷",
    "town_kana": "コウヤグチチョウサガタニ",
    "street": null,
    "office_name": null,
    "office_name_kana": null
  },
  "7214": {
    "postcode": "6497214",
    "prefecture": "和歌山県",
    "prefecture_kana": "ワカヤマケン",
    "prefecture_code": 30,
    "city": "橋本市",
    "city_kana": "ハシモトシ",
    "town": "高野口町竹尾",
    "town_kana": "コウヤグチチョウタケオ",
    "street": null,
    "office_name": null,
    "office_name_kana": null
  },
  "7215": {
    "postcode": "6497215",
    "prefecture": "和歌山県",
    "prefecture_kana": "ワカヤマケン",
    "prefecture_code": 30,
    "city": "橋本市",
    "city_kana": "ハシモトシ",
    "town": "高野口町九重",
    "town_kana": "コウヤグチチョウクジュウ",
    "street": null,
    "office_name": null,
    "office_name_kana": null
  },
  "7216": {
    "postcode": "6497216",
    "prefecture": "和歌山県",
    "prefecture_kana": "ワカヤマケン",
    "prefecture_code": 30,
    "city": "橋本市",
    "city_kana": "ハシモトシ",
    "town": "高野口町田原",
    "town_kana": "コウヤグチチョウタハラ",
    "street": null,
    "office_name": null,
    "office_name_kana": null
  }
}