{
  "0000": [
    {
      "postcode": "6500000",
      "prefecture": "兵庫県",
      "prefecture_kana": "ヒョウゴケン",
      "prefecture_code": 28,
      "city": "神戸市中央区",
      "city_kana": "コウベシチュウオウク",
      "town": "",
      "town_kana": "",
      "street": null,
      "office_name": null,
      "office_name_kana": null
    },
    {
      "postcode": "6500000",
      "prefecture": "兵庫県",
      "prefecture_kana": "ヒョウゴケン",
      "prefecture_code": 28,
      "city": "神戸市西区",
      "city_kana": "コウベシニシク",
      "town": "",
      "town_kana": "",
      "street": null,
      "office_name": null,
      "office_name_kana": null
    }
  ],
  "0001": {
    "postcode": "6500001",
    "prefecture": "兵庫県",
    "prefecture_kana": "ヒョウゴケン",
    "prefecture_code": 28,
    "city": "神戸市中央区",
    "city_kana": "コウベシチュウオウク",
    "town": "加納町",
    "town_kana": "カノウチョウ",
    "street": null,
    "office_name": null,
    "office_name_kana": null
  },
  "0002": {
    "postcode": "6500002",
    "prefecture": "兵庫県",
    "prefecture_kana": "ヒョウゴケン",
    "prefecture_code": 28,
    "city": "神戸市中央区",
    "city_kana": "コウベシチュウオウク",
    "town": "北野町",
    "town_kana": "キタノチョウ",
    "street": null,
    "office_name": null,
    "office_name_kana": null
  },
  "0003": {
    "postcode": "6500003",
    "prefecture": "兵庫県",
    "prefecture_kana": "ヒョウゴケン",
    "prefecture_code": 28,
    "city": "神戸市中央区",
    "city_kana": "コウベシチュウオウク",
    "town": "山本通",
    "town_kana": "ヤマモトドオリ",
    "street": null,
    "office_name": null,
    "office_name_kana": null
  },
  "0004": {
    "postcode": "6500004",
    "prefecture": "兵庫県",
    "prefecture_kana": "ヒョウゴケン",
    "prefecture_code": 28,
    "city": "神戸市中央区",
    "city_kana": "コウベシチュウオウク",
    "town": "中山手通",
    "town_kana": "ナカヤマテドオリ",
    "street": null,
    "office_name": null,
    "office_name_kana": null
  },
  "0005": {
    "postcode": "6500005",
    "prefecture": "兵庫県",
    "prefecture_kana": "ヒョウゴケン",
    "prefecture_code": 28,
    "city": "神戸市中央区",
    "city_kana": "コウベシチュウオウク",
    "town": "再度筋町",
    "town_kana": "フタタビスジチョウ",
    "street": null,
    "office_name": null,
    "office_name_kana": null
  },
  "0006": {
    "postcode": "6500006",
    "prefecture": "兵庫県",
    "prefecture_kana": "ヒョウゴケン",
    "prefecture_code": 28,
    "city": "神戸市中央区",
    "city_kana": "コウベシチュウオウク",
    "town": "諏訪山町",
    "town_kana": "スワヤマチョウ",
    "street": null,
    "office_name": null,
    "office_name_kana": null
  },
  "0007": {
    "postcode": "6500007",
    "prefecture": "兵庫県",
    "prefecture_kana": "ヒョウゴケン",
    "prefecture_code": 28,
    "city": "神戸市中央区",
    "city_kana": "コウベシチュウオウク",
    "town": "神戸港地方",
    "town_kana": "コウベコウジカタ",
    "street": null,
    "office_name": null,
    "office_name_kana": null
  },
  "0011": {
    "postcode": "6500011",
    "prefecture": "兵庫県",
    "prefecture_kana": "ヒョウゴケン",
    "prefecture_code": 28,
    "city": "神戸市中央区",
    "city_kana": "コウベシチュウオウク",
    "town": "下山手通",
    "town_kana": "シモヤマテドオリ",
    "street": null,
    "office_name": null,
    "office_name_kana": null
  },
  "0012": {
    "postcode": "6500012",
    "prefecture": "兵庫県",
    "prefecture_kana": "ヒョウゴケン",
    "prefecture_code": 28,
    "city": "神戸市中央区",
    "city_kana": "コウベシチュウオウク",
    "town": "北長狭通",
    "town_kana": "キタナガサドオリ",
    "street": null,
    "office_name": null,
    "office_name_kana": null
  },
  "0013": {
    "postcode": "6500013",
    "prefecture": "兵庫県",
    "prefecture_kana": "ヒョウゴケン",
    "prefecture_code": 28,
    "city": "神戸市中央区",
    "city_kana": "コウベシチュウオウク",
    "town": "花隈町",
    "town_kana": "ハナクマチョウ",
    "street": null,
    "office_name": null,
    "office_name_kana": null
  },
  "0014": {
    "postcode": "6500014",
    "prefecture": "兵庫県",
    "prefecture_kana": "ヒョウゴケン",
    "prefecture_code": 28,
    "city": "神戸市中央区",
    "city_kana": "コウベシチュウオウク",
    "town": "元町高架通",
    "town_kana": "モトマチコウカドオリ",
    "street": null,
    "office_name": null,
    "office_name_kana": null
  },
  "0015": {
    "postcode": "6500015",
    "prefecture": "兵庫県",
    "prefecture_kana": "ヒョウゴケン",
    "prefecture_code": 28,
    "city": "神戸市中央区",
    "city_kana": "コウベシチュウオウク",
    "town": "多聞通",
    "town_kana": "タモンドオリ",
    "street": null,
    "office_name": null,
    "office_name_kana": null
  },
  "0016": {
    "postcode": "6500016",
    "prefecture": "兵庫県",
    "prefecture_kana": "ヒョウゴケン",
    "prefecture_code": 28,
    "city": "神戸市中央区",
    "city_kana": "コウベシチュウオウク",
    "town": "橘通",
    "town_kana": "タチバナドオリ",
    "street": null,
    "office_name": null,
    "office_name_kana": null
  },
  "0017": {
    "postcode": "6500017",
    "prefecture": "兵庫県",
    "prefecture_kana": "ヒョウゴケン",
    "prefecture_code": 28,
    "city": "神戸市中央区",
    "city_kana": "コウベシチュウオウク",
    "town": "楠町",
    "town_kana": "クスノキチョウ",
    "street": null,
    "office_name": null,
    "office_name_kana": null
  },
  "0021": {
    "postcode": "6500021",
    "prefecture": "兵庫県",
    "prefecture_kana": "ヒョウゴケン",
    "prefecture_code": 28,
    "city": "神戸市中央区",
    "city_kana": "コウベシチュウオウク",
    "town": "三宮町",
    "town_kana": "サンノミヤチョウ",
    "street": null,
    "office_name": null,
    "office_name_kana": null
  },
  "0022": {
    "postcode": "6500022",
    "prefecture": "兵庫県",
    "prefecture_kana": "ヒョウゴケン",
    "prefecture_code": 28,
    "city": "神戸市中央区",
    "city_kana": "コウベシチュウオウク",
    "town": "元町通",
    "town_kana": "モトマチドオリ",
    "street": null,
    "office_name": null,
    "office_name_kana": null
  },
  "0023": {
    "postcode": "6500023",
    "prefecture": "兵庫県",
    "prefecture_kana": "ヒョウゴケン",
    "prefecture_code": 28,
    "city": "神戸市中央区",
    "city_kana": "コウベシチュウオウク",
    "town": "栄町通",
    "town_kana": "サカエマチドオリ",
    "street": null,
    "office_name": null,
    "office_name_kana": null
  },
  "0024": {
    "postcode": "6500024",
    "prefecture": "兵庫県",
    "prefecture_kana": "ヒョウゴケン",
    "prefecture_code": 28,
    "city": "神戸市中央区",
    "city_kana": "コウベシチュウオウク",
    "town": "海岸通",
    "town_kana": "カイガンドオリ",
    "street": null,
    "office_name": null,
    "office_name_kana": null
  },
  "0025": {
    "postcode": "6500025",
    "prefecture": "兵庫県",
    "prefecture_kana": "ヒョウゴケン",
    "prefecture_code": 28,
    "city": "神戸市中央区",
    "city_kana": "コウベシチュウオウク",
    "town": "相生町",
    "town_kana": "アイオイチョウ",
    "street": null,
    "office_name": null,
    "office_name_kana": null
  },
  "0026": {
    "postcode": "6500026",
    "prefecture": "兵庫県",
    "prefecture_kana": "ヒョウゴケン",
    "prefecture_code": 28,
    "city": "神戸市中央区",
    "city_kana": "コウベシチュウオウク",
    "town": "古湊通",
    "town_kana": "コミナトドオリ",
    "street": null,
    "office_name": null,
    "office_name_kana": null
  },
  "0027": {
    "postcode": "6500027",
    "prefecture": "兵庫県",
    "prefecture_kana": "ヒョウゴケン",
    "prefecture_code": 28,
    "city": "神戸市中央区",
    "city_kana": "コウベシチュウオウク",
    "town": "中町通",
    "town_kana": "ナカマチドオリ",
    "street": null,
    "office_name": null,
    "office_name_kana": null
  },
  "0031": {
    "postcode": "6500031",
    "prefecture": "兵庫県",
    "prefecture_kana": "ヒョウゴケン",
    "prefecture_code": 28,
    "city": "神戸市中央区",
    "city_kana": "コウベシチュウオウク",
    "town": "東町",
    "town_kana": "ヒガシマチ",
    "street": null,
    "office_name": null,
    "office_name_kana": null
  },
  "0032": {
    "postcode": "6500032",
    "prefecture": "兵庫県",
    "prefecture_kana": "ヒョウゴケン",
    "prefecture_code": 28,
    "city": "神戸市中央区",
    "city_kana": "コウベシチュウオウク",
    "town": "伊藤町",
    "town_kana": "イトウマチ",
    "street": null,
    "office_name": null,
    "office_name_kana": null
  },
  "0033": {
    "postcode": "6500033",
    "prefecture": "兵庫県",
    "prefecture_kana": "ヒョウゴケン",
    "prefecture_code": 28,
    "city": "神戸市中央区",
    "city_kana": "コウベシチュウオウク",
    "town": "江戸町",
    "town_kana": "エドマチ",
    "street": null,
    "office_name": null,
    "office_name_kana": null
  },
  "0034": {
    "postcode": "6500034",
    "prefecture": "兵庫県",
    "prefecture_kana": "ヒョウゴケン",
    "prefecture_code": 28,
    "city": "神戸市中央区",
    "city_kana": "コウベシチュウオウク",
    "town": "京町",
    "town_kana": "キョウマチ",
    "street": null,
    "office_name": null,
    "office_name_kana": null
  },
  "0035": {
    "postcode": "6500035",
    "prefecture": "兵庫県",
    "prefecture_kana": "ヒョウゴケン",
    "prefecture_code": 28,
    "city": "神戸市中央区",
    "city_kana": "コウベシチュウオウク",
    "town": "浪花町",
    "town_kana": "ナニワマチ",
    "street": null,
    "office_name": null,
    "office_name_kana": null
  },
  "0036": {
    "postcode": "6500036",
    "prefecture": "兵庫県",
    "prefecture_kana": "ヒョウゴケン",
    "prefecture_code": 28,
    "city": "神戸市中央区",
    "city_kana": "コウベシチュウオウク",
    "town": "播磨町",
    "town_kana": "ハリママチ",
    "street": null,
    "office_name": null,
    "office_name_kana": null
  },
  "0037": {
    "postcode": "6500037",
    "prefecture": "兵庫県",
    "prefecture_kana": "ヒョウゴケン",
    "prefecture_code": 28,
    "city": "神戸市中央区",
    "city_kana": "コウベシチュウオウク",
    "town": "明石町",
    "town_kana": "アカシマチ",
    "street": null,
    "office_name": null,
    "office_name_kana": null
  },
  "0038": {
    "postcode": "6500038",
    "prefecture": "兵庫県",
    "prefecture_kana": "ヒョウゴケン",
    "prefecture_code": 28,
    "city": "神戸市中央区",
    "city_kana": "コウベシチュウオウク",
    "town": "西町",
    "town_kana": "ニシマチ",
    "street": null,
    "office_name": null,
    "office_name_kana": null
  },
  "0039": {
    "postcode": "6500039",
    "prefecture": "兵庫県",
    "prefecture_kana": "ヒョウゴケン",
    "prefecture_code": 28,
    "city": "神戸市中央区",
    "city_kana": "コウベシチュウオウク",
    "town": "前町",
    "town_kana": "マエマチ",
    "street": null,
    "office_name": null,
    "office_name_kana": null
  },
  "0041": {
    "postcode": "6500041",
    "prefecture": "兵庫県",
    "prefecture_kana": "ヒョウゴケン",
    "prefecture_code": 28,
    "city": "神戸市中央区",
    "city_kana": "コウベシチュウオウク",
    "town": "新港町",
    "town_kana": "シンコウチョウ",
    "street": null,
    "office_name": null,
    "office_name_kana": null
  },
  "0042": {
    "postcode": "6500042",
    "prefecture": "兵庫県",
    "prefecture_kana": "ヒョウゴケン",
    "prefecture_code": 28,
    "city": "神戸市中央区",
    "city_kana": "コウベシチュウオウク",
    "town": "波止場町",
    "town_kana": "ハトバチョウ",
    "street": null,
    "office_name": null,
    "office_name_kana": null
  },
  "0043": {
    "postcode": "6500043",
    "prefecture": "兵庫県",
    "prefecture_kana": "ヒョウゴケン",
    "prefecture_code": 28,
    "city": "神戸市中央区",
    "city_kana": "コウベシチュウオウク",
    "town": "弁天町",
    "town_kana": "ベンテンチョウ",
    "street": null,
    "office_name": null,
    "office_name_kana": null
  },
  "0044": {
    "postcode": "6500044",
    "prefecture": "兵庫県",
    "prefecture_kana": "ヒョウゴケン",
    "prefecture_code": 28,
    "city": "神戸市中央区",
    "city_kana": "コウベシチュウオウク",
    "town": "東川崎町",
    "town_kana": "ヒガシカワサキチョウ",
    "street": null,
    "office_name": null,
    "office_name_kana": null
  },
  "0045": {
    "postcode": "6500045",
    "prefecture": "兵庫県",
    "prefecture_kana": "ヒョウゴケン",
    "prefecture_code": 28,
    "city": "神戸市中央区",
    "city_kana": "コウベシチュウオウク",
    "town": "港島",
    "town_kana": "ミナトジマ",
    "street": null,
    "office_name": null,
    "office_name_kana": null
  },
  "0046": {
    "postcode": "6500046",
    "prefecture": "兵庫県",
    "prefecture_kana": "ヒョウゴケン",
    "prefecture_code": 28,
    "city": "神戸市中央区",
    "city_kana": "コウベシチュウオウク",
    "town": "港島中町",
    "town_kana": "ミナトジマナカマチ",
    "street": null,
    "office_name": null,
    "office_name_kana": null
  },
  "0047": {
    "postcode": "6500047",
    "prefecture": "兵庫県",
    "prefecture_kana": "ヒョウゴケン",
    "prefecture_code": 28,
    "city": "神戸市中央区",
    "city_kana": "コウベシチュウオウク",
    "town": "港島南町",
    "town_kana": "ミナトジマミナミマチ",
    "street": null,
    "office_name": null,
    "office_name_kana": null
  },
  "0048": {
    "postcode": "6500048",
    "prefecture": "兵庫県",
    "prefecture_kana": "ヒョウゴケン",
    "prefecture_code": 28,
    "city": "神戸市中央区",
    "city_kana": "コウベシチュウオウク",
    "town": "神戸空港",
    "town_kana": "コウベクウコウ",
    "street": null,
    "office_name": null,
    "office_name_kana": null
  },
  "8501": {
    "postcode": "6508501",
    "prefecture": "兵庫県",
    "prefecture_kana": "ヒョウゴケン",
    "prefecture_code": 28,
    "city": "神戸市中央区",
    "city_kana": "コウベシチュウオウク",
    "town": "栄町通",
    "town_kana": "サカエマチドオリ",
    "street": "３丁目３番１７号損保ジャパン日本興亜神戸ビル",
    "office_name": "損害保険ジャパン日本興亜　株式会社",
    "office_name_kana": "ソンガイホケンジヤパンニツポンコウア カブシキガイシヤ"
  },
  "8502": {
    "postcode": "6508502",
    "prefecture": "兵庫県",
    "prefecture_kana": "ヒョウゴケン",
    "prefecture_code": 28,
    "city": "神戸市中央区",
    "city_kana": "コウベシチュウオウク",
    "town": "中山手通",
    "town_kana": "ナカヤマテドオリ",
    "street": "６丁目１−１",
    "office_name": "神戸県税事務所",
    "office_name_kana": "コウベケンゼイジムシヨ"
  },
  "8503": {
    "postcode": "6508503",
    "prefecture": "兵庫県",
    "prefecture_kana": "ヒョウゴケン",
    "prefecture_code": 28,
    "city": "神戸市中央区",
    "city_kana": "コウベシチュウオウク",
    "town": "山本通",
    "town_kana": "ヤマモトドオリ",
    "street": "２丁目１４−１",
    "office_name": "株式会社　メディセオ",
    "office_name_kana": "カブシキガイシヤ メデイセオ"
  },
  "8505": {
    "postcode": "6508505",
    "prefecture": "兵庫県",
    "prefecture_kana": "ヒョウゴケン",
    "prefecture_code": 28,
    "city": "神戸市中央区",
    "city_kana": "コウベシチュウオウク",
    "town": "磯上通",
    "town_kana": "イソガミドオリ",
    "street": "４−３−１０",
    "office_name": "株式会社　ファミリア",
    "office_name_kana": "カブシキガイシヤ フアミリア"
  },
  "8506": {
    "postcode": "6508506",
    "prefecture": "兵庫県",
    "prefecture_kana": "ヒョウゴケン",
    "prefecture_code": 28,
    "city": "神戸市中央区",
    "city_kana": "コウベシチュウオウク",
    "town": "加納町",
    "town_kana": "カノウチョウ",
    "street": "６丁目２番１号",
    "office_name": "関西電力　株式会社",
    "office_name_kana": "カンサイデンリヨク カブシキガイシヤ"
  },
  "8510": {
    "postcode": "6508510",
    "prefecture": "兵庫県",
    "prefecture_kana": "ヒョウゴケン",
    "prefecture_code": 28,
    "city": "神戸市中央区",
    "city_kana": "コウベシチュウオウク",
    "town": "下山手通",
    "town_kana": "シモヤマテドオリ",
    "street": "５丁目４−１",
    "office_name": "兵庫県　警察本部",
    "office_name_kana": "ヒヨウゴケン ケイサツホンブ"
  },
  "8511": {
    "postcode": "6508511",
    "prefecture": "兵庫県",
    "prefecture_kana": "ヒョウゴケン",
    "prefecture_code": 28,
    "city": "神戸市中央区",
    "city_kana": "コウベシチュウオウク",
    "town": "中山手通",
    "town_kana": "ナカヤマテドオリ",
    "street": "２丁目２−２０",
    "office_name": "神戸税務署",
    "office_name_kana": "コウベゼイムシヨ"
  },
  "8515": {
    "postcode": "6508515",
    "prefecture": "兵庫県",
    "prefecture_kana": "ヒョウゴケン",
    "prefecture_code": 28,
    "city": "神戸市中央区",
    "city_kana": "コウベシチュウオウク",
    "town": "中山手通",
    "town_kana": "ナカヤマテドオリ",
    "street": "２丁目２４番地７号",
    "office_name": "ＮＨＫ　神戸放送局",
    "office_name_kana": "エヌエイチケイ コウベホウソウキヨク"
  },
  "8520": {
    "postcode": "6508520",
    "prefecture": "兵庫県",
    "prefecture_kana": "ヒョウゴケン",
    "prefecture_code": 28,
    "city": "神戸市中央区",
    "city_kana": "コウベシチュウオウク",
    "town": "東川崎町",
    "town_kana": "ヒガシカワサキチョウ",
    "street": "１丁目８−２",
    "office_name": "大阪ガス　株式会社　兵庫リビング営業部",
    "office_name_kana": "オオサカガス カブシキガイシヤ ヒヨウゴリビングエイギヨウブ"
  },
  "8521": {
    "postcode": "6508521",
    "prefecture": "兵庫県",
    "prefecture_kana": "ヒョウゴケン",
    "prefecture_code": 28,
    "city": "神戸市中央区",
    "city_kana": "コウベシチュウオウク",
    "town": "港島中町",
    "town_kana": "ミナトジマナカマチ",
    "street": "６丁目１３−１",
    "office_name": "株式会社　ノエビア",
    "office_name_kana": "カブシキガイシヤ ノエビア"
  },
  "8522": {
    "postcode": "6508522",
    "prefecture": "兵庫県",
    "prefecture_kana": "ヒョウゴケン",
    "prefecture_code": 28,
    "city": "神戸市中央区",
    "city_kana": "コウベシチュウオウク",
    "town": "明石町",
    "town_kana": "アカシマチ",
    "street": "４４",
    "office_name": "あいおい損害保険　株式会社",
    "office_name_kana": "アイオイソンガイホケン カブシキガイシヤ"
  },
  "8525": {
    "postcode": "6508525",
    "prefecture": "兵庫県",
    "prefecture_kana": "ヒョウゴケン",
    "prefecture_code": 28,
    "city": "神戸市中央区",
    "city_kana": "コウベシチュウオウク",
    "town": "浪花町",
    "town_kana": "ナニワマチ",
    "street": "５９",
    "office_name": "株式会社　フェリシモ",
    "office_name_kana": "カブシキガイシヤ フエリシモ"
  },
  "8528": {
    "postcode": "6508528",
    "prefecture": "兵庫県",
    "prefecture_kana": "ヒョウゴケン",
    "prefecture_code": 28,
    "city": "神戸市中央区",
    "city_kana": "コウベシチュウオウク",
    "town": "港島中町",
    "town_kana": "ミナトジマナカマチ",
    "street": "４丁目４−４",
    "office_name": "兵庫県　社会保険診療報酬支払基金",
    "office_name_kana": "ヒヨウゴケン シヤカイホケンシンリヨウホウシユウシハライキキン"
  },
  "8530": {
    "postcode": "6508530",
    "prefecture": "兵庫県",
    "prefecture_kana": "ヒョウゴケン",
    "prefecture_code": 28,
    "city": "神戸市中央区",
    "city_kana": "コウベシチュウオウク",
    "town": "港島",
    "town_kana": "ミナトジマ",
    "street": "１丁目３番６",
    "office_name": "兵庫医療大学",
    "office_name_kana": "ヒヨウゴイリヨウダイガク"
  },
  "8533": {
    "postcode": "6508533",
    "prefecture": "兵庫県",
    "prefecture_kana": "ヒョウゴケン",
    "prefecture_code": 28,
    "city": "神戸市中央区",
    "city_kana": "コウベシチュウオウク",
    "town": "栄町通",
    "town_kana": "サカエマチドオリ",
    "street": "４丁目２−１６",
    "office_name": "損害保険ジャパン日本興亜　株式会社",
    "office_name_kana": "ソンガイホケンジヤパンニツポンコウア カブシキガイシヤ"
  },
  "8536": {
    "postcode": "6508536",
    "prefecture": "兵庫県",
    "prefecture_kana": "ヒョウゴケン",
    "prefecture_code": 28,
    "city": "神戸市中央区",
    "city_kana": "コウベシチュウオウク",
    "town": "東川崎町",
    "town_kana": "ヒガシカワサキチョウ",
    "street": "一丁目１番１号",
    "office_name": "株式会社　サンテレビジョン",
    "office_name_kana": "カブシキガイシヤ サンテレビジヨン"
  },
  "8539": {
    "postcode": "6508539",
    "prefecture": "兵庫県",
    "prefecture_kana": "ヒョウゴケン",
    "prefecture_code": 28,
    "city": "神戸市中央区",
    "city_kana": "コウベシチュウオウク",
    "town": "三宮町",
    "town_kana": "サンノミヤチョウ",
    "street": "１丁目９−１−９０８",
    "office_name": "神戸親和女子大学　通信教育部事務室",
    "office_name_kana": "コウベシンワジヨシダイガク ツウシンキヨウイクブジムシツ"
  },
  "8543": {
    "postcode": "6508543",
    "prefecture": "兵庫県",
    "prefecture_kana": "ヒョウゴケン",
    "prefecture_code": 28,
    "city": "神戸市中央区",
    "city_kana": "コウベシチュウオウク",
    "town": "港島中町",
    "town_kana": "ミナトジマナカマチ",
    "street": "６丁目１",
    "office_name": "神戸商工会議所",
    "office_name_kana": "コウベシヨウコウカイギシヨ"
  },
  "8546": {
    "postcode": "6508546",
    "prefecture": "兵庫県",
    "prefecture_kana": "ヒョウゴケン",
    "prefecture_code": 28,
    "city": "神戸市中央区",
    "city_kana": "コウベシチュウオウク",
    "town": "港島中町",
    "town_kana": "ミナトジマナカマチ",
    "street": "１丁目３−５",
    "office_name": "トラスコ中山　株式会社　プラネット神戸",
    "office_name_kana": "トラスコナカヤマ カブシキガイシヤ プラネツトコウベ"
  },
  "8550": {
    "postcode": "6508550",
    "prefecture": "兵庫県",
    "prefecture_kana": "ヒョウゴケン",
    "prefecture_code": 28,
    "city": "神戸市中央区",
    "city_kana": "コウベシチュウオウク",
    "town": "港島中町",
    "town_kana": "ミナトジマナカマチ",
    "street": "６丁目３−２",
    "office_name": "田崎真珠　株式会社",
    "office_name_kana": "タサキシンジユ カブシキガイシヤ"
  },
  "8551": {
    "postcode": "6508551",
    "prefecture": "兵庫県",
    "prefecture_kana": "ヒョウゴケン",
    "prefecture_code": 28,
    "city": "神戸市中央区",
    "city_kana": "コウベシチュウオウク",
    "town": "波止場町",
    "town_kana": "ハトバチョウ",
    "street": "１番１号",
    "office_name": "第五管区海上保安本部",
    "office_name_kana": "ダイゴカンクカイジヨウホアンホンブ"
  },
  "8555": {
    "postcode": "6508555",
    "prefecture": "兵庫県",
    "prefecture_kana": "ヒョウゴケン",
    "prefecture_code": 28,
    "city": "神戸市中央区",
    "city_kana": "コウベシチュウオウク",
    "town": "港島中町",
    "town_kana": "ミナトジマナカマチ",
    "street": "７丁目１−１",
    "office_name": "株式会社　アシックス",
    "office_name_kana": "カブシキガイシヤ アシツクス"
  },
  "8558": {
    "postcode": "6508558",
    "prefecture": "兵庫県",
    "prefecture_kana": "ヒョウゴケン",
    "prefecture_code": 28,
    "city": "神戸市中央区",
    "city_kana": "コウベシチュウオウク",
    "town": "港島中町",
    "town_kana": "ミナトジマナカマチ",
    "street": "６丁目１３番４号",
    "office_name": "フジッコ　株式会社",
    "office_name_kana": "フジツコ カブシキガイシヤ"
  },
  "8559": {
    "postcode": "6508559",
    "prefecture": "兵庫県",
    "prefecture_kana": "ヒョウゴケン",
    "prefecture_code": 28,
    "city": "神戸市中央区",
    "city_kana": "コウベシチュウオウク",
    "town": "港島中町",
    "town_kana": "ミナトジマナカマチ",
    "street": "６丁目１３−４",
    "office_name": "フジッコ　株式会社　ウェルネス倶楽部",
    "office_name_kana": "フジツコ カブシキガイシヤ ウエルネスクラブ"
  },
  "8560": {
    "postcode": "6508560",
    "prefecture": "兵庫県",
    "prefecture_kana": "ヒョウゴケン",
    "prefecture_code": 28,
    "city": "神戸市中央区",
    "city_kana": "コウベシチュウオウク",
    "town": "波止場町",
    "town_kana": "ハトバチョウ",
    "street": "２−１",
    "office_name": "株式会社　ホテルオークラ神戸",
    "office_name_kana": "カブシキガイシヤ ホテルオ-クラコウベ"
  },
  "8565": {
    "postcode": "6508565",
    "prefecture": "兵庫県",
    "prefecture_kana": "ヒョウゴケン",
    "prefecture_code": 28,
    "city": "神戸市中央区",
    "city_kana": "コウベシチュウオウク",
    "town": "橘通",
    "town_kana": "タチバナドオリ",
    "street": "２丁目２−１",
    "office_name": "神戸簡易裁判所",
    "office_name_kana": "コウベカンイサイバンシヨ"
  },
  "8566": {
    "postcode": "6508566",
    "prefecture": "兵庫県",
    "prefecture_kana": "ヒョウゴケン",
    "prefecture_code": 28,
    "city": "神戸市中央区",
    "city_kana": "コウベシチュウオウク",
    "town": "山本通",
    "town_kana": "ヤマモトドオリ",
    "street": "２丁目１４−１北野坂ビル４階",
    "office_name": "株式会社　メディセオ　買掛管理グループ",
    "office_name_kana": "カブシキガイシヤ メデイセオ カイカケカンリグル-プ"
  },
  "8567": {
    "postcode": "6508567",
    "prefecture": "兵庫県",
    "prefecture_kana": "ヒョウゴケン",
    "prefecture_code": 28,
    "city": "神戸市中央区",
    "city_kana": "コウベシチュウオウク",
    "town": "下山手通",
    "town_kana": "シモヤマテドオリ",
    "street": "５丁目１０−１",
    "office_name": "兵庫県庁",
    "office_name_kana": "ヒヨウゴケンチヨウ"
  },
  "8570": {
    "postcode": "6508570",
    "prefecture": "兵庫県",
    "prefecture_kana": "ヒョウゴケン",
    "prefecture_code": 28,
    "city": "神戸市中央区",
    "city_kana": "コウベシチュウオウク",
    "town": "加納町",
    "town_kana": "カノウチョウ",
    "street": "６丁目５−１",
    "office_name": "神戸市役所",
    "office_name_kana": "コウベシヤクシヨ"
  },
  "8571": {
    "postcode": "6508571",
    "prefecture": "兵庫県",
    "prefecture_kana": "ヒョウゴケン",
    "prefecture_code": 28,
    "city": "神戸市中央区",
    "city_kana": "コウベシチュウオウク",
    "town": "東川崎町",
    "town_kana": "ヒガシカワサキチョウ",
    "street": "１丁目５−７",
    "office_name": "株式会社　神戸新聞社",
    "office_name_kana": "カブシキガイシヤ コウベシンブンシヤ"
  },
  "8575": {
    "postcode": "6508575",
    "prefecture": "兵庫県",
    "prefecture_kana": "ヒョウゴケン",
    "prefecture_code": 28,
    "city": "神戸市中央区",
    "city_kana": "コウベシチュウオウク",
    "town": "橘通",
    "town_kana": "タチバナドオリ",
    "street": "２丁目２−１",
    "office_name": "神戸地方裁判所",
    "office_name_kana": "コウベチホウサイバンシヨ"
  },
  "8576": {
    "postcode": "6508576",
    "prefecture": "兵庫県",
    "prefecture_kana": "ヒョウゴケン",
    "prefecture_code": 28,
    "city": "神戸市中央区",
    "city_kana": "コウベシチュウオウク",
    "town": "元町通",
    "town_kana": "モトマチドオリ",
    "street": "６−１−８東栄ビルディング５０２Ｂ号",
    "office_name": "株式会社　リーフ・パブリケーションズ　神戸支局　ぱど事業部",
    "office_name_kana": "カブシキガイシヤ リ-フ・パブリケ-シヨンズ コウベシキヨク パドジギヨウブ"
  },
  "8577": {
    "postcode": "6508577",
    "prefecture": "兵庫県",
    "prefecture_kana": "ヒョウゴケン",
    "prefecture_code": 28,
    "city": "神戸市中央区",
    "city_kana": "コウベシチュウオウク",
    "town": "港島中町",
    "town_kana": "ミナトジマナカマチ",
    "street": "７丁目７−７",
    "office_name": "ＵＣＣ上島珈琲　株式会社",
    "office_name_kana": "ユ-シ-シ-ウエシマコ-ヒ- カブシキガイシヤ"
  },
  "8580": {
    "postcode": "6508580",
    "prefecture": "兵庫県",
    "prefecture_kana": "ヒョウゴケン",
    "prefecture_code": 28,
    "city": "神戸市中央区",
    "city_kana": "コウベシチュウオウク",
    "town": "東川崎町",
    "town_kana": "ヒガシカワサキチョウ",
    "street": "１丁目５−７",
    "office_name": "株式会社　ラジオ関西",
    "office_name_kana": "カブシキガイシヤ ラジオカンサイ"
  },
  "8584": {
    "postcode": "6508584",
    "prefecture": "兵庫県",
    "prefecture_kana": "ヒョウゴケン",
    "prefecture_code": 28,
    "city": "神戸市中央区",
    "city_kana": "コウベシチュウオウク",
    "town": "江戸町",
    "town_kana": "エドマチ",
    "street": "９５井門神戸ビル１２Ｆ",
    "office_name": "株式会社　リクルート　ホットペッパー神戸版編集部",
    "office_name_kana": "カブシキガイシヤ リクル-ト ホツトペツパ-コウベバンヘンシユウブ"
  },
  "8585": {
    "postcode": "6508585",
    "prefecture": "兵庫県",
    "prefecture_kana": "ヒョウゴケン",
    "prefecture_code": 28,
    "city": "神戸市中央区",
    "city_kana": "コウベシチュウオウク",
    "town": "港島中町",
    "town_kana": "ミナトジマナカマチ",
    "street": "６丁目８−１",
    "office_name": "株式会社　ワールド",
    "office_name_kana": "カブシキガイシヤ ワ-ルド"
  },
  "8586": {
    "postcode": "6508586",
    "prefecture": "兵庫県",
    "prefecture_kana": "ヒョウゴケン",
    "prefecture_code": 28,
    "city": "神戸市中央区",
    "city_kana": "コウベシチュウオウク",
    "town": "港島",
    "town_kana": "ミナトジマ",
    "street": "１丁目１番３",
    "office_name": "神戸学院大学　ポートアイランド　キャンパス",
    "office_name_kana": "コウベガクインダイガク ポ-トアイランド キヤンパス"
  },
  "8588": {
    "postcode": "6508588",
    "prefecture": "兵庫県",
    "prefecture_kana": "ヒョウゴケン",
    "prefecture_code": 28,
    "city": "神戸市中央区",
    "city_kana": "コウベシチュウオウク",
    "town": "東川崎町",
    "town_kana": "ヒガシカワサキチョウ",
    "street": "１丁目３−３神戸ハーバーランドセンタービル１６Ｆ",
    "office_name": "株式会社　Ｊコンテンツ",
    "office_name_kana": "カブシキガイシヤ ジエイコンテンツ"
  },
  "8589": {
    "postcode": "6508589",
    "prefecture": "兵庫県",
    "prefecture_kana": "ヒョウゴケン",
    "prefecture_code": 28,
    "city": "神戸市中央区",
    "city_kana": "コウベシチュウオウク",
    "town": "波止場町",
    "town_kana": "ハトバチョウ",
    "street": "５番６号",
    "office_name": "兵庫エフエム放送　株式会社",
    "office_name_kana": "ヒヨウゴエフエムホウソウ カブシキガイシヤ"
  },
  "8660": {
    "postcode": "6508660",
    "prefecture": "兵庫県",
    "prefecture_kana": "ヒョウゴケン",
    "prefecture_code": 28,
    "city": "神戸市中央区",
    "city_kana": "コウベシチュウオウク",
    "town": "浪花町",
    "town_kana": "ナニワマチ",
    "street": "５６（神戸中央郵便局私書箱第１２３４号）",
    "office_name": "株式会社　三井住友銀行",
    "office_name_kana": "カブシキガイシヤ ミツイスミトモギンコウ"
  },
  "8666": {
    "postcode": "6508666",
    "prefecture": "兵庫県",
    "prefecture_kana": "ヒョウゴケン",
    "prefecture_code": 28,
    "city": "神戸市中央区",
    "city_kana": "コウベシチュウオウク",
    "town": "海岸通",
    "town_kana": "カイガンドオリ",
    "street": "１番地（神戸中央郵便局私書箱第１２３０号）",
    "office_name": "全国農業協同組合連合会　兵庫県本部",
    "office_name_kana": "ゼンコクノウギヨウキヨウドウクミアイレンゴウカイ ヒヨウゴケンホンブ"
  },
  "8670": {
    "postcode": "6508670",
    "prefecture": "兵庫県",
    "prefecture_kana": "ヒョウゴケン",
    "prefecture_code": 28,
    "city": "神戸市中央区",
    "city_kana": "コウベシチュウオウク",
    "town": "東川崎町",
    "town_kana": "ヒガシカワサキチョウ",
    "street": "３丁目１−１（神戸中央郵便局私書箱第１０３３号）",
    "office_name": "川崎重工業　株式会社　神戸工場",
    "office_name_kana": "カワサキジユウコウギヨウ カブシキガイシヤ コウベコウジヨウ"
  },
  "8677": {
    "postcode": "6508677",
    "prefecture": "兵庫県",
    "prefecture_kana": "ヒョウゴケン",
    "prefecture_code": 28,
    "city": "神戸市中央区",
    "city_kana": "コウベシチュウオウク",
    "town": "楠町",
    "town_kana": "クスノキチョウ",
    "street": "５丁目４−８（神戸中央郵便局私書箱第１２５１号）",
    "office_name": "宮野医療器　株式会社",
    "office_name_kana": "ミヤノイリヨウキ カブシキガイシヤ"
  },
  "8680": {
    "postcode": "6508680",
    "prefecture": "兵庫県",
    "prefecture_kana": "ヒョウゴケン",
    "prefecture_code": 28,
    "city": "神戸市中央区",
    "city_kana": "コウベシチュウオウク",
    "town": "東川崎町",
    "town_kana": "ヒガシカワサキチョウ",
    "street": "１丁目１−３（神戸中央郵便局私書箱第１１４０号）",
    "office_name": "川崎重工業　株式会社　神戸本社",
    "office_name_kana": "カワサキジユウコウギヨウ カブシキガイシヤ コウベホンシヤ"
  },
  "8686": {
    "postcode": "6508686",
    "prefecture": "兵庫県",
    "prefecture_kana": "ヒョウゴケン",
    "prefecture_code": 28,
    "city": "神戸市中央区",
    "city_kana": "コウベシチュウオウク",
    "town": "浪花町",
    "town_kana": "ナニワマチ",
    "street": "６１（神戸中央郵便局私書箱第１２８１号）",
    "office_name": "神戸信用金庫",
    "office_name_kana": "コウベシンヨウキンコ"
  },
  "8787": {
    "postcode": "6508787",
    "prefecture": "兵庫県",
    "prefecture_kana": "ヒョウゴケン",
    "prefecture_code": 28,
    "city": "神戸市中央区",
    "city_kana": "コウベシチュウオウク",
    "town": "栄町通",
    "town_kana": "サカエマチドオリ",
    "street": "６丁目２−１（神戸中央郵便局私書箱第１３６０号）",
    "office_name": "株式会社　ゆうちょ銀行　兵庫地域センター",
    "office_name_kana": "カブシキガイシヤ ユウチヨギンコウ ヒヨウゴチイキセンタ-"
  },
  "8794": {
    "postcode": "6508794",
    "prefecture": "兵庫県",
    "prefecture_kana": "ヒョウゴケン",
    "prefecture_code": 28,
    "city": "神戸市中央区",
    "city_kana": "コウベシチュウオウク",
    "town": "栄町通",
    "town_kana": "サカエマチドオリ",
    "street": "７丁目１−１",
    "office_name": "大阪貯金事務センター　神戸分館",
    "office_name_kana": "コウベチヨキンジムセンタ- コウベブンカン"
  }
}