{
  "0000": {
    "postcode": "6520000",
    "prefecture": "兵庫県",
    "prefecture_kana": "ヒョウゴケン",
    "prefecture_code": 28,
    "city": "神戸市兵庫区",
    "city_kana": "コウベシヒョウゴク",
    "town": "",
    "town_kana": "",
    "street": null,
    "office_name": null,
    "office_name_kana": null
  },
  "0001": {
    "postcode": "6520001",
    "prefecture": "兵庫県",
    "prefecture_kana": "ヒョウゴケン",
    "prefecture_code": 28,
    "city": "神戸市兵庫区",
    "city_kana": "コウベシヒョウゴク",
    "town": "烏原町",
    "town_kana": "カラスハラチョウ",
    "street": null,
    "office_name": null,
    "office_name_kana": null
  },
  "0002": {
    "postcode": "6520002",
    "prefecture": "兵庫県",
    "prefecture_kana": "ヒョウゴケン",
    "prefecture_code": 28,
    "city": "神戸市兵庫区",
    "city_kana": "コウベシヒョウゴク",
    "town": "平野町",
    "town_kana": "ヒラノチョウ",
    "street": null,
    "office_name": null,
    "office_name_kana": null
  },
  "0003": {
    "postcode": "6520003",
    "prefecture": "兵庫県",
    "prefecture_kana": "ヒョウゴケン",
    "prefecture_code": 28,
    "city": "神戸市兵庫区",
    "city_kana": "コウベシヒョウゴク",
    "town": "梅元町",
    "town_kana": "ウメモトチョウ",
    "street": null,
    "office_name": null,
    "office_name_kana": null
  },
  "0004": {
    "postcode": "6520004",
    "prefecture": "兵庫県",
    "prefecture_kana": "ヒョウゴケン",
    "prefecture_code": 28,
    "city": "神戸市兵庫区",
    "city_kana": "コウベシヒョウゴク",
    "town": "楠谷町",
    "town_kana": "クスダニチョウ",
    "street": null,
    "office_name": null,
    "office_name_kana": null
  },
  "0005": {
    "postcode": "6520005",
    "prefecture": "兵庫県",
    "prefecture_kana": "ヒョウゴケン",
    "prefecture_code": 28,
    "city": "神戸市兵庫区",
    "city_kana": "コウベシヒョウゴク",
    "town": "矢部町",
    "town_kana": "ヤベチョウ",
    "street": null,
    "office_name": null,
    "office_name_kana": null
  },
  "0006": {
    "postcode": "6520006",
    "prefecture": "兵庫県",
    "prefecture_kana": "ヒョウゴケン",
    "prefecture_code": 28,
    "city": "神戸市兵庫区",
    "city_kana": "コウベシヒョウゴク",
    "town": "神田町",
    "town_kana": "カンダチョウ",
    "street": null,
    "office_name": null,
    "office_name_kana": null
  },
  "0007": {
    "postcode": "6520007",
    "prefecture": "兵庫県",
    "prefecture_kana": "ヒョウゴケン",
    "prefecture_code": 28,
    "city": "神戸市兵庫区",
    "city_kana": "コウベシヒョウゴク",
    "town": "五宮町",
    "town_kana": "ゴノミヤチョウ",
    "street": null,
    "office_name": null,
    "office_name_kana": null
  },
  "0008": {
    "postcode": "6520008",
    "prefecture": "兵庫県",
    "prefecture_kana": "ヒョウゴケン",
    "prefecture_code": 28,
    "city": "神戸市兵庫区",
    "city_kana": "コウベシヒョウゴク",
    "town": "上祇園町",
    "town_kana": "カミギオンチョウ",
    "street": null,
    "office_name": null,
    "office_name_kana": null
  },
  "0011": {
    "postcode": "6520011",
    "prefecture": "兵庫県",
    "prefecture_kana": "ヒョウゴケン",
    "prefecture_code": 28,
    "city": "神戸市兵庫区",
    "city_kana": "コウベシヒョウゴク",
    "town": "山王町",
    "town_kana": "サンノウチョウ",
    "street": null,
    "office_name": null,
    "office_name_kana": null
  },
  "0012": {
    "postcode": "6520012",
    "prefecture": "兵庫県",
    "prefecture_kana": "ヒョウゴケン",
    "prefecture_code": 28,
    "city": "神戸市兵庫区",
    "city_kana": "コウベシヒョウゴク",
    "town": "湊山町",
    "town_kana": "ミナトヤマチョウ",
    "street": null,
    "office_name": null,
    "office_name_kana": null
  },
  "0013": {
    "postcode": "6520013",
    "prefecture": "兵庫県",
    "prefecture_kana": "ヒョウゴケン",
    "prefecture_code": 28,
    "city": "神戸市兵庫区",
    "city_kana": "コウベシヒョウゴク",
    "town": "上三条町",
    "town_kana": "カミサンジョウチョウ",
    "street": null,
    "office_name": null,
    "office_name_kana": null
  },
  "0014": {
    "postcode": "6520014",
    "prefecture": "兵庫県",
    "prefecture_kana": "ヒョウゴケン",
    "prefecture_code": 28,
    "city": "神戸市兵庫区",
    "city_kana": "コウベシヒョウゴク",
    "town": "下三条町",
    "town_kana": "シモサンジョウチョウ",
    "street": null,
    "office_name": null,
    "office_name_kana": null
  },
  "0015": {
    "postcode": "6520015",
    "prefecture": "兵庫県",
    "prefecture_kana": "ヒョウゴケン",
    "prefecture_code": 28,
    "city": "神戸市兵庫区",
    "city_kana": "コウベシヒョウゴク",
    "town": "下祇園町",
    "town_kana": "シモギオンチョウ",
    "street": null,
    "office_name": null,
    "office_name_kana": null
  },
  "0016": {
    "postcode": "6520016",
    "prefecture": "兵庫県",
    "prefecture_kana": "ヒョウゴケン",
    "prefecture_code": 28,
    "city": "神戸市兵庫区",
    "city_kana": "コウベシヒョウゴク",
    "town": "馬場町",
    "town_kana": "ババチョウ",
    "street": null,
    "office_name": null,
    "office_name_kana": null
  },
  "0021": {
    "postcode": "6520021",
    "prefecture": "兵庫県",
    "prefecture_kana": "ヒョウゴケン",
    "prefecture_code": 28,
    "city": "神戸市兵庫区",
    "city_kana": "コウベシヒョウゴク",
    "town": "天王町",
    "town_kana": "テンノウチョウ",
    "street": null,
    "office_name": null,
    "office_name_kana": null
  },
  "0022": {
    "postcode": "6520022",
    "prefecture": "兵庫県",
    "prefecture_kana": "ヒョウゴケン",
    "prefecture_code": 28,
    "city": "神戸市兵庫区",
    "city_kana": "コウベシヒョウゴク",
    "town": "千鳥町",
    "town_kana": "チドリチョウ",
    "street": null,
    "office_name": null,
    "office_name_kana": null
  },
  "0023": {
    "postcode": "6520023",
    "prefecture": "兵庫県",
    "prefecture_kana": "ヒョウゴケン",
    "prefecture_code": 28,
    "city": "神戸市兵庫区",
    "city_kana": "コウベシヒョウゴク",
    "town": "都由乃町",
    "town_kana": "ツユノチョウ",
    "street": null,
    "office_name": null,
    "office_name_kana": null
  },
  "0031": {
    "postcode": "6520031",
    "prefecture": "兵庫県",
    "prefecture_kana": "ヒョウゴケン",
    "prefecture_code": 28,
    "city": "神戸市兵庫区",
    "city_kana": "コウベシヒョウゴク",
    "town": "雪御所町",
    "town_kana": "ユキノゴショチョウ",
    "street": null,
    "office_name": null,
    "office_name_kana": null
  },
  "0032": {
    "postcode": "6520032",
    "prefecture": "兵庫県",
    "prefecture_kana": "ヒョウゴケン",
    "prefecture_code": 28,
    "city": "神戸市兵庫区",
    "city_kana": "コウベシヒョウゴク",
    "town": "荒田町",
    "town_kana": "アラタチョウ",
    "street": null,
    "office_name": null,
    "office_name_kana": null
  },
  "0033": {
    "postcode": "6520033",
    "prefecture": "兵庫県",
    "prefecture_kana": "ヒョウゴケン",
    "prefecture_code": 28,
    "city": "神戸市兵庫区",
    "city_kana": "コウベシヒョウゴク",
    "town": "西上橘通",
    "town_kana": "ニシカミタチバナドオリ",
    "street": null,
    "office_name": null,
    "office_name_kana": null
  },
  "0034": {
    "postcode": "6520034",
    "prefecture": "兵庫県",
    "prefecture_kana": "ヒョウゴケン",
    "prefecture_code": 28,
    "city": "神戸市兵庫区",
    "city_kana": "コウベシヒョウゴク",
    "town": "西橘通",
    "town_kana": "ニシタチバナドオリ",
    "street": null,
    "office_name": null,
    "office_name_kana": null
  },
  "0035": {
    "postcode": "6520035",
    "prefecture": "兵庫県",
    "prefecture_kana": "ヒョウゴケン",
    "prefecture_code": 28,
    "city": "神戸市兵庫区",
    "city_kana": "コウベシヒョウゴク",
    "town": "西多聞通",
    "town_kana": "ニシタモンドオリ",
    "street": null,
    "office_name": null,
    "office_name_kana": null
  },
  "0036": {
    "postcode": "6520036",
    "prefecture": "兵庫県",
    "prefecture_kana": "ヒョウゴケン",
    "prefecture_code": 28,
    "city": "神戸市兵庫区",
    "city_kana": "コウベシヒョウゴク",
    "town": "福原町",
    "town_kana": "フクワラチョウ",
    "street": null,
    "office_name": null,
    "office_name_kana": null
  },
  "0041": {
    "postcode": "6520041",
    "prefecture": "兵庫県",
    "prefecture_kana": "ヒョウゴケン",
    "prefecture_code": 28,
    "city": "神戸市兵庫区",
    "city_kana": "コウベシヒョウゴク",
    "town": "湊川町",
    "town_kana": "ミナトガワチョウ",
    "street": null,
    "office_name": null,
    "office_name_kana": null
  },
  "0042": {
    "postcode": "6520042",
    "prefecture": "兵庫県",
    "prefecture_kana": "ヒョウゴケン",
    "prefecture_code": 28,
    "city": "神戸市兵庫区",
    "city_kana": "コウベシヒョウゴク",
    "town": "東山町",
    "town_kana": "ヒガシヤマチョウ",
    "street": null,
    "office_name": null,
    "office_name_kana": null
  },
  "0043": {
    "postcode": "6520043",
    "prefecture": "兵庫県",
    "prefecture_kana": "ヒョウゴケン",
    "prefecture_code": 28,
    "city": "神戸市兵庫区",
    "city_kana": "コウベシヒョウゴク",
    "town": "会下山町",
    "town_kana": "エゲヤマチョウ",
    "street": null,
    "office_name": null,
    "office_name_kana": null
  },
  "0044": {
    "postcode": "6520044",
    "prefecture": "兵庫県",
    "prefecture_kana": "ヒョウゴケン",
    "prefecture_code": 28,
    "city": "神戸市兵庫区",
    "city_kana": "コウベシヒョウゴク",
    "town": "大井通",
    "town_kana": "オオイドオリ",
    "street": null,
    "office_name": null,
    "office_name_kana": null
  },
  "0045": {
    "postcode": "6520045",
    "prefecture": "兵庫県",
    "prefecture_kana": "ヒョウゴケン",
    "prefecture_code": 28,
    "city": "神戸市兵庫区",
    "city_kana": "コウベシヒョウゴク",
    "town": "松本通",
    "town_kana": "マツモトドオリ",
    "street": null,
    "office_name": null,
    "office_name_kana": null
  },
  "0046": {
    "postcode": "6520046",
    "prefecture": "兵庫県",
    "prefecture_kana": "ヒョウゴケン",
    "prefecture_code": 28,
    "city": "神戸市兵庫区",
    "city_kana": "コウベシヒョウゴク",
    "town": "上沢通",
    "town_kana": "カミサワドオリ",
    "street": null,
    "office_name": null,
    "office_name_kana": null
  },
  "0047": {
    "postcode": "6520047",
    "prefecture": "兵庫県",
    "prefecture_kana": "ヒョウゴケン",
    "prefecture_code": 28,
    "city": "神戸市兵庫区",
    "city_kana": "コウベシヒョウゴク",
    "town": "下沢通",
    "town_kana": "シモサワドオリ",
    "street": null,
    "office_name": null,
    "office_name_kana": null
  },
  "0051": {
    "postcode": "6520051",
    "prefecture": "兵庫県",
    "prefecture_kana": "ヒョウゴケン",
    "prefecture_code": 28,
    "city": "神戸市兵庫区",
    "city_kana": "コウベシヒョウゴク",
    "town": "里山町",
    "town_kana": "サトヤマチョウ",
    "street": null,
    "office_name": null,
    "office_name_kana": null
  },
  "0052": {
    "postcode": "6520052",
    "prefecture": "兵庫県",
    "prefecture_kana": "ヒョウゴケン",
    "prefecture_code": 28,
    "city": "神戸市兵庫区",
    "city_kana": "コウベシヒョウゴク",
    "town": "鵯越筋",
    "town_kana": "ヒヨドリゴエスジ",
    "street": null,
    "office_name": null,
    "office_name_kana": null
  },
  "0053": {
    "postcode": "6520053",
    "prefecture": "兵庫県",
    "prefecture_kana": "ヒョウゴケン",
    "prefecture_code": 28,
    "city": "神戸市兵庫区",
    "city_kana": "コウベシヒョウゴク",
    "town": "北山町",
    "town_kana": "キタヤマチョウ",
    "street": null,
    "office_name": null,
    "office_name_kana": null
  },
  "0054": {
    "postcode": "6520054",
    "prefecture": "兵庫県",
    "prefecture_kana": "ヒョウゴケン",
    "prefecture_code": 28,
    "city": "神戸市兵庫区",
    "city_kana": "コウベシヒョウゴク",
    "town": "氷室町",
    "town_kana": "ヒムロチョウ",
    "street": null,
    "office_name": null,
    "office_name_kana": null
  },
  "0055": {
    "postcode": "6520055",
    "prefecture": "兵庫県",
    "prefecture_kana": "ヒョウゴケン",
    "prefecture_code": 28,
    "city": "神戸市兵庫区",
    "city_kana": "コウベシヒョウゴク",
    "town": "小山町",
    "town_kana": "コヤマチョウ",
    "street": null,
    "office_name": null,
    "office_name_kana": null
  },
  "0056": {
    "postcode": "6520056",
    "prefecture": "兵庫県",
    "prefecture_kana": "ヒョウゴケン",
    "prefecture_code": 28,
    "city": "神戸市兵庫区",
    "city_kana": "コウベシヒョウゴク",
    "town": "滝山町",
    "town_kana": "タキヤマチョウ",
    "street": null,
    "office_name": null,
    "office_name_kana": null
  },
  "0057": {
    "postcode": "6520057",
    "prefecture": "兵庫県",
    "prefecture_kana": "ヒョウゴケン",
    "prefecture_code": 28,
    "city": "神戸市兵庫区",
    "city_kana": "コウベシヒョウゴク",
    "town": "鵯越町",
    "town_kana": "ヒヨドリゴエチョウ",
    "street": null,
    "office_name": null,
    "office_name_kana": null
  },
  "0058": {
    "postcode": "6520058",
    "prefecture": "兵庫県",
    "prefecture_kana": "ヒョウゴケン",
    "prefecture_code": 28,
    "city": "神戸市兵庫区",
    "city_kana": "コウベシヒョウゴク",
    "town": "菊水町",
    "town_kana": "キクスイチョウ",
    "street": null,
    "office_name": null,
    "office_name_kana": null
  },
  "0061": {
    "postcode": "6520061",
    "prefecture": "兵庫県",
    "prefecture_kana": "ヒョウゴケン",
    "prefecture_code": 28,
    "city": "神戸市兵庫区",
    "city_kana": "コウベシヒョウゴク",
    "town": "石井町",
    "town_kana": "イシイチョウ",
    "street": null,
    "office_name": null,
    "office_name_kana": null
  },
  "0062": {
    "postcode": "6520062",
    "prefecture": "兵庫県",
    "prefecture_kana": "ヒョウゴケン",
    "prefecture_code": 28,
    "city": "神戸市兵庫区",
    "city_kana": "コウベシヒョウゴク",
    "town": "大同町",
    "town_kana": "ダイドウチョウ",
    "street": null,
    "office_name": null,
    "office_name_kana": null
  },
  "0063": {
    "postcode": "6520063",
    "prefecture": "兵庫県",
    "prefecture_kana": "ヒョウゴケン",
    "prefecture_code": 28,
    "city": "神戸市兵庫区",
    "city_kana": "コウベシヒョウゴク",
    "town": "夢野町",
    "town_kana": "ユメノチョウ",
    "street": null,
    "office_name": null,
    "office_name_kana": null
  },
  "0064": {
    "postcode": "6520064",
    "prefecture": "兵庫県",
    "prefecture_kana": "ヒョウゴケン",
    "prefecture_code": 28,
    "city": "神戸市兵庫区",
    "city_kana": "コウベシヒョウゴク",
    "town": "熊野町",
    "town_kana": "クマノチョウ",
    "street": null,
    "office_name": null,
    "office_name_kana": null
  },
  "0065": {
    "postcode": "6520065",
    "prefecture": "兵庫県",
    "prefecture_kana": "ヒョウゴケン",
    "prefecture_code": 28,
    "city": "神戸市兵庫区",
    "city_kana": "コウベシヒョウゴク",
    "town": "清水町",
    "town_kana": "シミズチョウ",
    "street": null,
    "office_name": null,
    "office_name_kana": null
  },
  "0071": [
    {
      "postcode": "6520071",
      "prefecture": "兵庫県",
      "prefecture_kana": "ヒョウゴケン",
      "prefecture_code": 28,
      "city": "神戸市北区",
      "city_kana": "コウベシキタク",
      "town": "山田町下谷上",
      "town_kana": "ヤマダチョウシモタニガミ",
      "street": null,
      "office_name": null,
      "office_name_kana": null
    },
    {
      "postcode": "6520071",
      "prefecture": "兵庫県",
      "prefecture_kana": "ヒョウゴケン",
      "prefecture_code": 28,
      "city": "神戸市北区",
      "city_kana": "コウベシキタク",
      "town": "山田町下谷上菊水山",
      "town_kana": "ヤマダチョウシモタニガミキクスイヤマ",
      "street": null,
      "office_name": null,
      "office_name_kana": null
    },
    {
      "postcode": "6520071",
      "prefecture": "兵庫県",
      "prefecture_kana": "ヒョウゴケン",
      "prefecture_code": 28,
      "city": "神戸市北区",
      "city_kana": "コウベシキタク",
      "town": "山田町下谷上高座川向",
      "town_kana": "ヤマダチョウシモタニガミコウザカワムカイ",
      "street": null,
      "office_name": null,
      "office_name_kana": null
    },
    {
      "postcode": "6520071",
      "prefecture": "兵庫県",
      "prefecture_kana": "ヒョウゴケン",
      "prefecture_code": 28,
      "city": "神戸市北区",
      "city_kana": "コウベシキタク",
      "town": "山田町下谷上念仏堂",
      "town_kana": "ヤマダチョウシモタニガミネンブツドウ",
      "street": null,
      "office_name": null,
      "office_name_kana": null
    },
    {
      "postcode": "6520071",
      "prefecture": "兵庫県",
      "prefecture_kana": "ヒョウゴケン",
      "prefecture_code": 28,
      "city": "神戸市北区",
      "city_kana": "コウベシキタク",
      "town": "山田町下谷上ひよどり越",
      "town_kana": "ヤマダチョウシモタニガミヒヨドリゴエ",
      "street": null,
      "office_name": null,
      "office_name_kana": null
    }
  ],
  "0801": {
    "postcode": "6520801",
    "prefecture": "兵庫県",
    "prefecture_kana": "ヒョウゴケン",
    "prefecture_code": 28,
    "city": "神戸市兵庫区",
    "city_kana": "コウベシヒョウゴク",
    "town": "中道通",
    "town_kana": "ナカミチドオリ",
    "street": null,
    "office_name": null,
    "office_name_kana": null
  },
  "0802": {
    "postcode": "6520802",
    "prefecture": "兵庫県",
    "prefecture_kana": "ヒョウゴケン",
    "prefecture_code": 28,
    "city": "神戸市兵庫区",
    "city_kana": "コウベシヒョウゴク",
    "town": "水木通",
    "town_kana": "ミズキドオリ",
    "street": null,
    "office_name": null,
    "office_name_kana": null
  },
  "0803": {
    "postcode": "6520803",
    "prefecture": "兵庫県",
    "prefecture_kana": "ヒョウゴケン",
    "prefecture_code": 28,
    "city": "神戸市兵庫区",
    "city_kana": "コウベシヒョウゴク",
    "town": "大開通",
    "town_kana": "ダイカイドオリ",
    "street": null,
    "office_name": null,
    "office_name_kana": null
  },
  "0804": {
    "postcode": "6520804",
    "prefecture": "兵庫県",
    "prefecture_kana": "ヒョウゴケン",
    "prefecture_code": 28,
    "city": "神戸市兵庫区",
    "city_kana": "コウベシヒョウゴク",
    "town": "塚本通",
    "town_kana": "ツカモトドオリ",
    "street": null,
    "office_name": null,
    "office_name_kana": null
  },
  "0805": {
    "postcode": "6520805",
    "prefecture": "兵庫県",
    "prefecture_kana": "ヒョウゴケン",
    "prefecture_code": 28,
    "city": "神戸市兵庫区",
    "city_kana": "コウベシヒョウゴク",
    "town": "羽坂通",
    "town_kana": "ハサカドオリ",
    "street": null,
    "office_name": null,
    "office_name_kana": null
  },
  "0806": {
    "postcode": "6520806",
    "prefecture": "兵庫県",
    "prefecture_kana": "ヒョウゴケン",
    "prefecture_code": 28,
    "city": "神戸市兵庫区",
    "city_kana": "コウベシヒョウゴク",
    "town": "西柳原町",
    "town_kana": "ニシヤナギワラチョウ",
    "street": null,
    "office_name": null,
    "office_name_kana": null
  },
  "0807": {
    "postcode": "6520807",
    "prefecture": "兵庫県",
    "prefecture_kana": "ヒョウゴケン",
    "prefecture_code": 28,
    "city": "神戸市兵庫区",
    "city_kana": "コウベシヒョウゴク",
    "town": "浜崎通",
    "town_kana": "ハマサキドオリ",
    "street": null,
    "office_name": null,
    "office_name_kana": null
  },
  "0811": {
    "postcode": "6520811",
    "prefecture": "兵庫県",
    "prefecture_kana": "ヒョウゴケン",
    "prefecture_code": 28,
    "city": "神戸市兵庫区",
    "city_kana": "コウベシヒョウゴク",
    "town": "新開地",
    "town_kana": "シンカイチ",
    "street": null,
    "office_name": null,
    "office_name_kana": null
  },
  "0812": {
    "postcode": "6520812",
    "prefecture": "兵庫県",
    "prefecture_kana": "ヒョウゴケン",
    "prefecture_code": 28,
    "city": "神戸市兵庫区",
    "city_kana": "コウベシヒョウゴク",
    "town": "湊町",
    "town_kana": "ミナトチョウ",
    "street": null,
    "office_name": null,
    "office_name_kana": null
  },
  "0813": {
    "postcode": "6520813",
    "prefecture": "兵庫県",
    "prefecture_kana": "ヒョウゴケン",
    "prefecture_code": 28,
    "city": "神戸市兵庫区",
    "city_kana": "コウベシヒョウゴク",
    "town": "兵庫町",
    "town_kana": "ヒョウゴチョウ",
    "street": null,
    "office_name": null,
    "office_name_kana": null
  },
  "0814": {
    "postcode": "6520814",
    "prefecture": "兵庫県",
    "prefecture_kana": "ヒョウゴケン",
    "prefecture_code": 28,
    "city": "神戸市兵庫区",
    "city_kana": "コウベシヒョウゴク",
    "town": "門口町",
    "town_kana": "モングチチョウ",
    "street": null,
    "office_name": null,
    "office_name_kana": null
  },
  "0815": {
    "postcode": "6520815",
    "prefecture": "兵庫県",
    "prefecture_kana": "ヒョウゴケン",
    "prefecture_code": 28,
    "city": "神戸市兵庫区",
    "city_kana": "コウベシヒョウゴク",
    "town": "三川口町",
    "town_kana": "ミカワグチチョウ",
    "street": null,
    "office_name": null,
    "office_name_kana": null
  },
  "0816": {
    "postcode": "6520816",
    "prefecture": "兵庫県",
    "prefecture_kana": "ヒョウゴケン",
    "prefecture_code": 28,
    "city": "神戸市兵庫区",
    "city_kana": "コウベシヒョウゴク",
    "town": "永沢町",
    "town_kana": "エイザワチョウ",
    "street": null,
    "office_name": null,
    "office_name_kana": null
  },
  "0821": {
    "postcode": "6520821",
    "prefecture": "兵庫県",
    "prefecture_kana": "ヒョウゴケン",
    "prefecture_code": 28,
    "city": "神戸市兵庫区",
    "city_kana": "コウベシヒョウゴク",
    "town": "佐比江町",
    "town_kana": "サビエチョウ",
    "street": null,
    "office_name": null,
    "office_name_kana": null
  },
  "0822": {
    "postcode": "6520822",
    "prefecture": "兵庫県",
    "prefecture_kana": "ヒョウゴケン",
    "prefecture_code": 28,
    "city": "神戸市兵庫区",
    "city_kana": "コウベシヒョウゴク",
    "town": "西出町",
    "town_kana": "ニシデマチ",
    "street": null,
    "office_name": null,
    "office_name_kana": null
  },
  "0823": {
    "postcode": "6520823",
    "prefecture": "兵庫県",
    "prefecture_kana": "ヒョウゴケン",
    "prefecture_code": 28,
    "city": "神戸市兵庫区",
    "city_kana": "コウベシヒョウゴク",
    "town": "東出町",
    "town_kana": "ヒガシデマチ",
    "street": null,
    "office_name": null,
    "office_name_kana": null
  },
  "0831": {
    "postcode": "6520831",
    "prefecture": "兵庫県",
    "prefecture_kana": "ヒョウゴケン",
    "prefecture_code": 28,
    "city": "神戸市兵庫区",
    "city_kana": "コウベシヒョウゴク",
    "town": "七宮町",
    "town_kana": "シチノミヤチョウ",
    "street": null,
    "office_name": null,
    "office_name_kana": null
  },
  "0832": {
    "postcode": "6520832",
    "prefecture": "兵庫県",
    "prefecture_kana": "ヒョウゴケン",
    "prefecture_code": 28,
    "city": "神戸市兵庫区",
    "city_kana": "コウベシヒョウゴク",
    "town": "鍛冶屋町",
    "town_kana": "カジヤチョウ",
    "street": null,
    "office_name": null,
    "office_name_kana": null
  },
  "0833": {
    "postcode": "6520833",
    "prefecture": "兵庫県",
    "prefecture_kana": "ヒョウゴケン",
    "prefecture_code": 28,
    "city": "神戸市兵庫区",
    "city_kana": "コウベシヒョウゴク",
    "town": "島上町",
    "town_kana": "シマガミチョウ",
    "street": null,
    "office_name": null,
    "office_name_kana": null
  },
  "0834": {
    "postcode": "6520834",
    "prefecture": "兵庫県",
    "prefecture_kana": "ヒョウゴケン",
    "prefecture_code": 28,
    "city": "神戸市兵庫区",
    "city_kana": "コウベシヒョウゴク",
    "town": "本町",
    "town_kana": "ホンマチ",
    "street": null,
    "office_name": null,
    "office_name_kana": null
  },
  "0835": {
    "postcode": "6520835",
    "prefecture": "兵庫県",
    "prefecture_kana": "ヒョウゴケン",
    "prefecture_code": 28,
    "city": "神戸市兵庫区",
    "city_kana": "コウベシヒョウゴク",
    "town": "西仲町",
    "town_kana": "ニシナカマチ",
    "street": null,
    "office_name": null,
    "office_name_kana": null
  },
  "0836": {
    "postcode": "6520836",
    "prefecture": "兵庫県",
    "prefecture_kana": "ヒョウゴケン",
    "prefecture_code": 28,
    "city": "神戸市兵庫区",
    "city_kana": "コウベシヒョウゴク",
    "town": "神明町",
    "town_kana": "シンメイチョウ",
    "street": null,
    "office_name": null,
    "office_name_kana": null
  },
  "0837": {
    "postcode": "6520837",
    "prefecture": "兵庫県",
    "prefecture_kana": "ヒョウゴケン",
    "prefecture_code": 28,
    "city": "神戸市兵庫区",
    "city_kana": "コウベシヒョウゴク",
    "town": "北逆瀬川町",
    "town_kana": "キタサカセガワチョウ",
    "street": null,
    "office_name": null,
    "office_name_kana": null
  },
  "0841": {
    "postcode": "6520841",
    "prefecture": "兵庫県",
    "prefecture_kana": "ヒョウゴケン",
    "prefecture_code": 28,
    "city": "神戸市兵庫区",
    "city_kana": "コウベシヒョウゴク",
    "town": "南仲町",
    "town_kana": "ミナミナカマチ",
    "street": null,
    "office_name": null,
    "office_name_kana": null
  },
  "0842": {
    "postcode": "6520842",
    "prefecture": "兵庫県",
    "prefecture_kana": "ヒョウゴケン",
    "prefecture_code": 28,
    "city": "神戸市兵庫区",
    "city_kana": "コウベシヒョウゴク",
    "town": "磯之町",
    "town_kana": "イソノチョウ",
    "street": null,
    "office_name": null,
    "office_name_kana": null
  },
  "0843": {
    "postcode": "6520843",
    "prefecture": "兵庫県",
    "prefecture_kana": "ヒョウゴケン",
    "prefecture_code": 28,
    "city": "神戸市兵庫区",
    "city_kana": "コウベシヒョウゴク",
    "town": "船大工町",
    "town_kana": "フナダイクチョウ",
    "street": null,
    "office_name": null,
    "office_name_kana": null
  },
  "0844": {
    "postcode": "6520844",
    "prefecture": "兵庫県",
    "prefecture_kana": "ヒョウゴケン",
    "prefecture_code": 28,
    "city": "神戸市兵庫区",
    "city_kana": "コウベシヒョウゴク",
    "town": "中之島",
    "town_kana": "ナカノシマ",
    "street": null,
    "office_name": null,
    "office_name_kana": null
  },
  "0845": {
    "postcode": "6520845",
    "prefecture": "兵庫県",
    "prefecture_kana": "ヒョウゴケン",
    "prefecture_code": 28,
    "city": "神戸市兵庫区",
    "city_kana": "コウベシヒョウゴク",
    "town": "築地町",
    "town_kana": "ツキジチョウ",
    "street": null,
    "office_name": null,
    "office_name_kana": null
  },
  "0846": {
    "postcode": "6520846",
    "prefecture": "兵庫県",
    "prefecture_kana": "ヒョウゴケン",
    "prefecture_code": 28,
    "city": "神戸市兵庫区",
    "city_kana": "コウベシヒョウゴク",
    "town": "出在家町",
    "town_kana": "デザイケチョウ",
    "street": null,
    "office_name": null,
    "office_name_kana": null
  },
  "0847": {
    "postcode": "6520847",
    "prefecture": "兵庫県",
    "prefecture_kana": "ヒョウゴケン",
    "prefecture_code": 28,
    "city": "神戸市兵庫区",
    "city_kana": "コウベシヒョウゴク",
    "town": "切戸町",
    "town_kana": "キレトチョウ",
    "street": null,
    "office_name": null,
    "office_name_kana": null
  },
  "0851": {
    "postcode": "6520851",
    "prefecture": "兵庫県",
    "prefecture_kana": "ヒョウゴケン",
    "prefecture_code": 28,
    "city": "神戸市兵庫区",
    "city_kana": "コウベシヒョウゴク",
    "town": "材木町",
    "town_kana": "ザイモクチョウ",
    "street": null,
    "office_name": null,
    "office_name_kana": null
  },
  "0852": {
    "postcode": "6520852",
    "prefecture": "兵庫県",
    "prefecture_kana": "ヒョウゴケン",
    "prefecture_code": 28,
    "city": "神戸市兵庫区",
    "city_kana": "コウベシヒョウゴク",
    "town": "御崎本町",
    "town_kana": "ミサキホンマチ",
    "street": null,
    "office_name": null,
    "office_name_kana": null
  },
  "0853": {
    "postcode": "6520853",
    "prefecture": "兵庫県",
    "prefecture_kana": "ヒョウゴケン",
    "prefecture_code": 28,
    "city": "神戸市兵庫区",
    "city_kana": "コウベシヒョウゴク",
    "town": "今出在家町",
    "town_kana": "イマデザイケチョウ",
    "street": null,
    "office_name": null,
    "office_name_kana": null
  },
  "0854": {
    "postcode": "6520854",
    "prefecture": "兵庫県",
    "prefecture_kana": "ヒョウゴケン",
    "prefecture_code": 28,
    "city": "神戸市兵庫区",
    "city_kana": "コウベシヒョウゴク",
    "town": "和田崎町",
    "town_kana": "ワダサキチョウ",
    "street": null,
    "office_name": null,
    "office_name_kana": null
  },
  "0855": {
    "postcode": "6520855",
    "prefecture": "兵庫県",
    "prefecture_kana": "ヒョウゴケン",
    "prefecture_code": 28,
    "city": "神戸市兵庫区",
    "city_kana": "コウベシヒョウゴク",
    "town": "御崎町",
    "town_kana": "ミサキチョウ",
    "street": null,
    "office_name": null,
    "office_name_kana": null
  },
  "0861": {
    "postcode": "6520861",
    "prefecture": "兵庫県",
    "prefecture_kana": "ヒョウゴケン",
    "prefecture_code": 28,
    "city": "神戸市兵庫区",
    "city_kana": "コウベシヒョウゴク",
    "town": "三石通",
    "town_kana": "ミツイシドオリ",
    "street": null,
    "office_name": null,
    "office_name_kana": null
  },
  "0862": {
    "postcode": "6520862",
    "prefecture": "兵庫県",
    "prefecture_kana": "ヒョウゴケン",
    "prefecture_code": 28,
    "city": "神戸市兵庫区",
    "city_kana": "コウベシヒョウゴク",
    "town": "上庄通",
    "town_kana": "カミショウドオリ",
    "street": null,
    "office_name": null,
    "office_name_kana": null
  },
  "0863": {
    "postcode": "6520863",
    "prefecture": "兵庫県",
    "prefecture_kana": "ヒョウゴケン",
    "prefecture_code": 28,
    "city": "神戸市兵庫区",
    "city_kana": "コウベシヒョウゴク",
    "town": "和田宮通",
    "town_kana": "ワダミヤドオリ",
    "street": null,
    "office_name": null,
    "office_name_kana": null
  },
  "0864": {
    "postcode": "6520864",
    "prefecture": "兵庫県",
    "prefecture_kana": "ヒョウゴケン",
    "prefecture_code": 28,
    "city": "神戸市兵庫区",
    "city_kana": "コウベシヒョウゴク",
    "town": "笠松通",
    "town_kana": "カサマツドオリ",
    "street": null,
    "office_name": null,
    "office_name_kana": null
  },
  "0865": {
    "postcode": "6520865",
    "prefecture": "兵庫県",
    "prefecture_kana": "ヒョウゴケン",
    "prefecture_code": 28,
    "city": "神戸市兵庫区",
    "city_kana": "コウベシヒョウゴク",
    "town": "小松通",
    "town_kana": "コマツドオリ",
    "street": null,
    "office_name": null,
    "office_name_kana": null
  },
  "0866": {
    "postcode": "6520866",
    "prefecture": "兵庫県",
    "prefecture_kana": "ヒョウゴケン",
    "prefecture_code": 28,
    "city": "神戸市兵庫区",
    "city_kana": "コウベシヒョウゴク",
    "town": "遠矢浜町",
    "town_kana": "トオヤハマチョウ",
    "street": null,
    "office_name": null,
    "office_name_kana": null
  },
  "0871": {
    "postcode": "6520871",
    "prefecture": "兵庫県",
    "prefecture_kana": "ヒョウゴケン",
    "prefecture_code": 28,
    "city": "神戸市兵庫区",
    "city_kana": "コウベシヒョウゴク",
    "town": "浜山通",
    "town_kana": "ハマヤマドオリ",
    "street": null,
    "office_name": null,
    "office_name_kana": null
  },
  "0872": {
    "postcode": "6520872",
    "prefecture": "兵庫県",
    "prefecture_kana": "ヒョウゴケン",
    "prefecture_code": 28,
    "city": "神戸市兵庫区",
    "city_kana": "コウベシヒョウゴク",
    "town": "吉田町",
    "town_kana": "ヨシダチョウ",
    "street": null,
    "office_name": null,
    "office_name_kana": null
  },
  "0873": {
    "postcode": "6520873",
    "prefecture": "兵庫県",
    "prefecture_kana": "ヒョウゴケン",
    "prefecture_code": 28,
    "city": "神戸市兵庫区",
    "city_kana": "コウベシヒョウゴク",
    "town": "金平町",
    "town_kana": "キンペイチョウ",
    "street": null,
    "office_name": null,
    "office_name_kana": null
  },
  "0874": {
    "postcode": "6520874",
    "prefecture": "兵庫県",
    "prefecture_kana": "ヒョウゴケン",
    "prefecture_code": 28,
    "city": "神戸市兵庫区",
    "city_kana": "コウベシヒョウゴク",
    "town": "高松町",
    "town_kana": "タカマツチョウ",
    "street": null,
    "office_name": null,
    "office_name_kana": null
  },
  "0875": {
    "postcode": "6520875",
    "prefecture": "兵庫県",
    "prefecture_kana": "ヒョウゴケン",
    "prefecture_code": 28,
    "city": "神戸市兵庫区",
    "city_kana": "コウベシヒョウゴク",
    "town": "浜中町",
    "town_kana": "ハマナカチョウ",
    "street": null,
    "office_name": null,
    "office_name_kana": null
  },
  "0881": {
    "postcode": "6520881",
    "prefecture": "兵庫県",
    "prefecture_kana": "ヒョウゴケン",
    "prefecture_code": 28,
    "city": "神戸市兵庫区",
    "city_kana": "コウベシヒョウゴク",
    "town": "松原通",
    "town_kana": "マツバラドオリ",
    "street": null,
    "office_name": null,
    "office_name_kana": null
  },
  "0882": {
    "postcode": "6520882",
    "prefecture": "兵庫県",
    "prefecture_kana": "ヒョウゴケン",
    "prefecture_code": 28,
    "city": "神戸市兵庫区",
    "city_kana": "コウベシヒョウゴク",
    "town": "芦原通",
    "town_kana": "アシハラドオリ",
    "street": null,
    "office_name": null,
    "office_name_kana": null
  },
  "0883": {
    "postcode": "6520883",
    "prefecture": "兵庫県",
    "prefecture_kana": "ヒョウゴケン",
    "prefecture_code": 28,
    "city": "神戸市兵庫区",
    "city_kana": "コウベシヒョウゴク",
    "town": "明和通",
    "town_kana": "メイワドオリ",
    "street": null,
    "office_name": null,
    "office_name_kana": null
  },
  "0884": {
    "postcode": "6520884",
    "prefecture": "兵庫県",
    "prefecture_kana": "ヒョウゴケン",
    "prefecture_code": 28,
    "city": "神戸市兵庫区",
    "city_kana": "コウベシヒョウゴク",
    "town": "和田山通",
    "town_kana": "ワダヤマドオリ",
    "street": null,
    "office_name": null,
    "office_name_kana": null
  },
  "0885": {
    "postcode": "6520885",
    "prefecture": "兵庫県",
    "prefecture_kana": "ヒョウゴケン",
    "prefecture_code": 28,
    "city": "神戸市兵庫区",
    "city_kana": "コウベシヒョウゴク",
    "town": "御所通",
    "town_kana": "ゴショドオリ",
    "street": null,
    "office_name": null,
    "office_name_kana": null
  },
  "0891": {
    "postcode": "6520891",
    "prefecture": "兵庫県",
    "prefecture_kana": "ヒョウゴケン",
    "prefecture_code": 28,
    "city": "神戸市兵庫区",
    "city_kana": "コウベシヒョウゴク",
    "town": "西宮内町",
    "town_kana": "ニシミヤウチチョウ",
    "street": null,
    "office_name": null,
    "office_name_kana": null
  },
  "0892": {
    "postcode": "6520892",
    "prefecture": "兵庫県",
    "prefecture_kana": "ヒョウゴケン",
    "prefecture_code": 28,
    "city": "神戸市兵庫区",
    "city_kana": "コウベシヒョウゴク",
    "town": "東柳原町",
    "town_kana": "ヒガシヤナギワラチョウ",
    "street": null,
    "office_name": null,
    "office_name_kana": null
  },
  "0893": {
    "postcode": "6520893",
    "prefecture": "兵庫県",
    "prefecture_kana": "ヒョウゴケン",
    "prefecture_code": 28,
    "city": "神戸市兵庫区",
    "city_kana": "コウベシヒョウゴク",
    "town": "南逆瀬川町",
    "town_kana": "ミナミサカセガワチョウ",
    "street": null,
    "office_name": null,
    "office_name_kana": null
  },
  "0894": {
    "postcode": "6520894",
    "prefecture": "兵庫県",
    "prefecture_kana": "ヒョウゴケン",
    "prefecture_code": 28,
    "city": "神戸市兵庫区",
    "city_kana": "コウベシヒョウゴク",
    "town": "入江通",
    "town_kana": "イリエドオリ",
    "street": null,
    "office_name": null,
    "office_name_kana": null
  },
  "0895": {
    "postcode": "6520895",
    "prefecture": "兵庫県",
    "prefecture_kana": "ヒョウゴケン",
    "prefecture_code": 28,
    "city": "神戸市兵庫区",
    "city_kana": "コウベシヒョウゴク",
    "town": "小河通",
    "town_kana": "オガワドオリ",
    "street": null,
    "office_name": null,
    "office_name_kana": null
  },
  "0896": {
    "postcode": "6520896",
    "prefecture": "兵庫県",
    "prefecture_kana": "ヒョウゴケン",
    "prefecture_code": 28,
    "city": "神戸市兵庫区",
    "city_kana": "コウベシヒョウゴク",
    "town": "須佐野通",
    "town_kana": "スサノドオリ",
    "street": null,
    "office_name": null,
    "office_name_kana": null
  },
  "0897": {
    "postcode": "6520897",
    "prefecture": "兵庫県",
    "prefecture_kana": "ヒョウゴケン",
    "prefecture_code": 28,
    "city": "神戸市兵庫区",
    "city_kana": "コウベシヒョウゴク",
    "town": "駅南通",
    "town_kana": "エキミナミドオリ",
    "street": null,
    "office_name": null,
    "office_name_kana": null
  },
  "0898": {
    "postcode": "6520898",
    "prefecture": "兵庫県",
    "prefecture_kana": "ヒョウゴケン",
    "prefecture_code": 28,
    "city": "神戸市兵庫区",
    "city_kana": "コウベシヒョウゴク",
    "town": "駅前通",
    "town_kana": "エキマエドオリ",
    "street": null,
    "office_name": null,
    "office_name_kana": null
  },
  "8501": {
    "postcode": "6528501",
    "prefecture": "兵庫県",
    "prefecture_kana": "ヒョウゴケン",
    "prefecture_code": 28,
    "city": "神戸市兵庫区",
    "city_kana": "コウベシヒョウゴク",
    "town": "水木通",
    "town_kana": "ミズキドオリ",
    "street": "２丁目１−１",
    "office_name": "神戸トヨペット　（株）",
    "office_name_kana": "コウベトヨペツト (カブ)"
  },
  "8510": {
    "postcode": "6528510",
    "prefecture": "兵庫県",
    "prefecture_kana": "ヒョウゴケン",
    "prefecture_code": 28,
    "city": "神戸市兵庫区",
    "city_kana": "コウベシヒョウゴク",
    "town": "御所通",
    "town_kana": "ゴショドオリ",
    "street": "１丁目２−２８",
    "office_name": "株式会社　デンソーテン",
    "office_name_kana": "カブシキガイシヤ デンソ-テン"
  },
  "8550": {
    "postcode": "6528550",
    "prefecture": "兵庫県",
    "prefecture_kana": "ヒョウゴケン",
    "prefecture_code": 28,
    "city": "神戸市兵庫区",
    "city_kana": "コウベシヒョウゴク",
    "town": "水木通",
    "town_kana": "ミズキドオリ",
    "street": "２丁目１−４",
    "office_name": "兵庫税務署",
    "office_name_kana": "ヒヨウゴゼイムシヨ"
  },
  "8555": {
    "postcode": "6528555",
    "prefecture": "兵庫県",
    "prefecture_kana": "ヒョウゴケン",
    "prefecture_code": 28,
    "city": "神戸市兵庫区",
    "city_kana": "コウベシヒョウゴク",
    "town": "和田崎町",
    "town_kana": "ワダサキチョウ",
    "street": "１丁目１−２",
    "office_name": "三菱電機　株式会社　電力産業システム事業所",
    "office_name_kana": "ミツビシデンキ カブシキガイシヤ デンリヨクサンギヨウシステムジギヨウシヨ"
  },
  "8570": {
    "postcode": "6528570",
    "prefecture": "兵庫県",
    "prefecture_kana": "ヒョウゴケン",
    "prefecture_code": 28,
    "city": "神戸市兵庫区",
    "city_kana": "コウベシヒョウゴク",
    "town": "荒田町",
    "town_kana": "アラタチョウ",
    "street": "１丁目２１−１",
    "office_name": "兵庫区役所",
    "office_name_kana": "ヒヨウゴクヤクシヨ"
  },
  "8585": {
    "postcode": "6528585",
    "prefecture": "兵庫県",
    "prefecture_kana": "ヒョウゴケン",
    "prefecture_code": 28,
    "city": "神戸市兵庫区",
    "city_kana": "コウベシヒョウゴク",
    "town": "和田崎町",
    "town_kana": "ワダサキチョウ",
    "street": "１丁目１−１",
    "office_name": "三菱重工業　（株）　神戸造船所",
    "office_name_kana": "ミツビシジユウコウギヨウ (カブ) コウベゾウセンシヨ"
  }
}