{
  "0000": {
    "postcode": "6550000",
    "prefecture": "兵庫県",
    "prefecture_kana": "ヒョウゴケン",
    "prefecture_code": 28,
    "city": "神戸市垂水区",
    "city_kana": "コウベシタルミク",
    "town": "",
    "town_kana": "",
    "street": null,
    "office_name": null,
    "office_name_kana": null
  },
  "0001": {
    "postcode": "6550001",
    "prefecture": "兵庫県",
    "prefecture_kana": "ヒョウゴケン",
    "prefecture_code": 28,
    "city": "神戸市垂水区",
    "city_kana": "コウベシタルミク",
    "town": "多聞町",
    "town_kana": "タモンチョウ",
    "street": null,
    "office_name": null,
    "office_name_kana": null
  },
  "0002": {
    "postcode": "6550002",
    "prefecture": "兵庫県",
    "prefecture_kana": "ヒョウゴケン",
    "prefecture_code": 28,
    "city": "神戸市垂水区",
    "city_kana": "コウベシタルミク",
    "town": "小束山",
    "town_kana": "コヅカヤマ",
    "street": null,
    "office_name": null,
    "office_name_kana": null
  },
  "0003": {
    "postcode": "6550003",
    "prefecture": "兵庫県",
    "prefecture_kana": "ヒョウゴケン",
    "prefecture_code": 28,
    "city": "神戸市垂水区",
    "city_kana": "コウベシタルミク",
    "town": "小束山本町",
    "town_kana": "コヅカヤマホンマチ",
    "street": null,
    "office_name": null,
    "office_name_kana": null
  },
  "0004": {
    "postcode": "6550004",
    "prefecture": "兵庫県",
    "prefecture_kana": "ヒョウゴケン",
    "prefecture_code": 28,
    "city": "神戸市垂水区",
    "city_kana": "コウベシタルミク",
    "town": "学が丘",
    "town_kana": "マナビガオカ",
    "street": null,
    "office_name": null,
    "office_name_kana": null
  },
  "0005": {
    "postcode": "6550005",
    "prefecture": "兵庫県",
    "prefecture_kana": "ヒョウゴケン",
    "prefecture_code": 28,
    "city": "神戸市垂水区",
    "city_kana": "コウベシタルミク",
    "town": "潮見が丘",
    "town_kana": "シオミガオカ",
    "street": null,
    "office_name": null,
    "office_name_kana": null
  },
  "0006": {
    "postcode": "6550006",
    "prefecture": "兵庫県",
    "prefecture_kana": "ヒョウゴケン",
    "prefecture_code": 28,
    "city": "神戸市垂水区",
    "city_kana": "コウベシタルミク",
    "town": "本多聞",
    "town_kana": "ホンタモン",
    "street": null,
    "office_name": null,
    "office_name_kana": null
  },
  "0007": {
    "postcode": "6550007",
    "prefecture": "兵庫県",
    "prefecture_kana": "ヒョウゴケン",
    "prefecture_code": 28,
    "city": "神戸市垂水区",
    "city_kana": "コウベシタルミク",
    "town": "多聞台",
    "town_kana": "タモンダイ",
    "street": null,
    "office_name": null,
    "office_name_kana": null
  },
  "0008": {
    "postcode": "6550008",
    "prefecture": "兵庫県",
    "prefecture_kana": "ヒョウゴケン",
    "prefecture_code": 28,
    "city": "神戸市垂水区",
    "city_kana": "コウベシタルミク",
    "town": "小束台",
    "town_kana": "コヅカダイ",
    "street": null,
    "office_name": null,
    "office_name_kana": null
  },
  "0009": {
    "postcode": "6550009",
    "prefecture": "兵庫県",
    "prefecture_kana": "ヒョウゴケン",
    "prefecture_code": 28,
    "city": "神戸市垂水区",
    "city_kana": "コウベシタルミク",
    "town": "小束山手",
    "town_kana": "コヅカヤマテ",
    "street": null,
    "office_name": null,
    "office_name_kana": null
  },
  "0011": {
    "postcode": "6550011",
    "prefecture": "兵庫県",
    "prefecture_kana": "ヒョウゴケン",
    "prefecture_code": 28,
    "city": "神戸市垂水区",
    "city_kana": "コウベシタルミク",
    "town": "千鳥が丘",
    "town_kana": "チドリガオカ",
    "street": null,
    "office_name": null,
    "office_name_kana": null
  },
  "0012": {
    "postcode": "6550012",
    "prefecture": "兵庫県",
    "prefecture_kana": "ヒョウゴケン",
    "prefecture_code": 28,
    "city": "神戸市垂水区",
    "city_kana": "コウベシタルミク",
    "town": "向陽",
    "town_kana": "コウヨウ",
    "street": null,
    "office_name": null,
    "office_name_kana": null
  },
  "0013": {
    "postcode": "6550013",
    "prefecture": "兵庫県",
    "prefecture_kana": "ヒョウゴケン",
    "prefecture_code": 28,
    "city": "神戸市垂水区",
    "city_kana": "コウベシタルミク",
    "town": "福田",
    "town_kana": "フクダ",
    "street": null,
    "office_name": null,
    "office_name_kana": null
  },
  "0014": {
    "postcode": "6550014",
    "prefecture": "兵庫県",
    "prefecture_kana": "ヒョウゴケン",
    "prefecture_code": 28,
    "city": "神戸市垂水区",
    "city_kana": "コウベシタルミク",
    "town": "大町",
    "town_kana": "オオマチ",
    "street": null,
    "office_name": null,
    "office_name_kana": null
  },
  "0015": {
    "postcode": "6550015",
    "prefecture": "兵庫県",
    "prefecture_kana": "ヒョウゴケン",
    "prefecture_code": 28,
    "city": "神戸市垂水区",
    "city_kana": "コウベシタルミク",
    "town": "野田通",
    "town_kana": "ノダドオリ",
    "street": null,
    "office_name": null,
    "office_name_kana": null
  },
  "0016": {
    "postcode": "6550016",
    "prefecture": "兵庫県",
    "prefecture_kana": "ヒョウゴケン",
    "prefecture_code": 28,
    "city": "神戸市垂水区",
    "city_kana": "コウベシタルミク",
    "town": "高丸",
    "town_kana": "タカマル",
    "street": null,
    "office_name": null,
    "office_name_kana": null
  },
  "0017": {
    "postcode": "6550017",
    "prefecture": "兵庫県",
    "prefecture_kana": "ヒョウゴケン",
    "prefecture_code": 28,
    "city": "神戸市垂水区",
    "city_kana": "コウベシタルミク",
    "town": "上高丸",
    "town_kana": "カミタカマル",
    "street": null,
    "office_name": null,
    "office_name_kana": null
  },
  "0018": {
    "postcode": "6550018",
    "prefecture": "兵庫県",
    "prefecture_kana": "ヒョウゴケン",
    "prefecture_code": 28,
    "city": "神戸市垂水区",
    "city_kana": "コウベシタルミク",
    "town": "千代が丘",
    "town_kana": "チヨガオカ",
    "street": null,
    "office_name": null,
    "office_name_kana": null
  },
  "0021": {
    "postcode": "6550021",
    "prefecture": "兵庫県",
    "prefecture_kana": "ヒョウゴケン",
    "prefecture_code": 28,
    "city": "神戸市垂水区",
    "city_kana": "コウベシタルミク",
    "town": "馬場通",
    "town_kana": "ババドオリ",
    "street": null,
    "office_name": null,
    "office_name_kana": null
  },
  "0022": {
    "postcode": "6550022",
    "prefecture": "兵庫県",
    "prefecture_kana": "ヒョウゴケン",
    "prefecture_code": 28,
    "city": "神戸市垂水区",
    "city_kana": "コウベシタルミク",
    "town": "瑞穂通",
    "town_kana": "ミズホドオリ",
    "street": null,
    "office_name": null,
    "office_name_kana": null
  },
  "0023": {
    "postcode": "6550023",
    "prefecture": "兵庫県",
    "prefecture_kana": "ヒョウゴケン",
    "prefecture_code": 28,
    "city": "神戸市垂水区",
    "city_kana": "コウベシタルミク",
    "town": "清水通",
    "town_kana": "シミズドオリ",
    "street": null,
    "office_name": null,
    "office_name_kana": null
  },
  "0024": {
    "postcode": "6550024",
    "prefecture": "兵庫県",
    "prefecture_kana": "ヒョウゴケン",
    "prefecture_code": 28,
    "city": "神戸市垂水区",
    "city_kana": "コウベシタルミク",
    "town": "御霊町",
    "town_kana": "ゴリョウチョウ",
    "street": null,
    "office_name": null,
    "office_name_kana": null
  },
  "0025": {
    "postcode": "6550025",
    "prefecture": "兵庫県",
    "prefecture_kana": "ヒョウゴケン",
    "prefecture_code": 28,
    "city": "神戸市垂水区",
    "city_kana": "コウベシタルミク",
    "town": "瑞ケ丘",
    "town_kana": "ミズガオカ",
    "street": null,
    "office_name": null,
    "office_name_kana": null
  },
  "0026": {
    "postcode": "6550026",
    "prefecture": "兵庫県",
    "prefecture_kana": "ヒョウゴケン",
    "prefecture_code": 28,
    "city": "神戸市垂水区",
    "city_kana": "コウベシタルミク",
    "town": "陸ノ町",
    "town_kana": "クガノチョウ",
    "street": null,
    "office_name": null,
    "office_name_kana": null
  },
  "0027": {
    "postcode": "6550027",
    "prefecture": "兵庫県",
    "prefecture_kana": "ヒョウゴケン",
    "prefecture_code": 28,
    "city": "神戸市垂水区",
    "city_kana": "コウベシタルミク",
    "town": "神田町",
    "town_kana": "カンダチョウ",
    "street": null,
    "office_name": null,
    "office_name_kana": null
  },
  "0028": {
    "postcode": "6550028",
    "prefecture": "兵庫県",
    "prefecture_kana": "ヒョウゴケン",
    "prefecture_code": 28,
    "city": "神戸市垂水区",
    "city_kana": "コウベシタルミク",
    "town": "宮本町",
    "town_kana": "ミヤモトチョウ",
    "street": null,
    "office_name": null,
    "office_name_kana": null
  },
  "0029": {
    "postcode": "6550029",
    "prefecture": "兵庫県",
    "prefecture_kana": "ヒョウゴケン",
    "prefecture_code": 28,
    "city": "神戸市垂水区",
    "city_kana": "コウベシタルミク",
    "town": "天ノ下町",
    "town_kana": "テンノシタチョウ",
    "street": null,
    "office_name": null,
    "office_name_kana": null
  },
  "0031": {
    "postcode": "6550031",
    "prefecture": "兵庫県",
    "prefecture_kana": "ヒョウゴケン",
    "prefecture_code": 28,
    "city": "神戸市垂水区",
    "city_kana": "コウベシタルミク",
    "town": "清水が丘",
    "town_kana": "シミズガオカ",
    "street": null,
    "office_name": null,
    "office_name_kana": null
  },
  "0032": {
    "postcode": "6550032",
    "prefecture": "兵庫県",
    "prefecture_kana": "ヒョウゴケン",
    "prefecture_code": 28,
    "city": "神戸市垂水区",
    "city_kana": "コウベシタルミク",
    "town": "星が丘",
    "town_kana": "ホシガオカ",
    "street": null,
    "office_name": null,
    "office_name_kana": null
  },
  "0033": {
    "postcode": "6550033",
    "prefecture": "兵庫県",
    "prefecture_kana": "ヒョウゴケン",
    "prefecture_code": 28,
    "city": "神戸市垂水区",
    "city_kana": "コウベシタルミク",
    "town": "旭が丘",
    "town_kana": "アサヒガオカ",
    "street": null,
    "office_name": null,
    "office_name_kana": null
  },
  "0034": {
    "postcode": "6550034",
    "prefecture": "兵庫県",
    "prefecture_kana": "ヒョウゴケン",
    "prefecture_code": 28,
    "city": "神戸市垂水区",
    "city_kana": "コウベシタルミク",
    "town": "仲田",
    "town_kana": "ナカタ",
    "street": null,
    "office_name": null,
    "office_name_kana": null
  },
  "0035": {
    "postcode": "6550035",
    "prefecture": "兵庫県",
    "prefecture_kana": "ヒョウゴケン",
    "prefecture_code": 28,
    "city": "神戸市垂水区",
    "city_kana": "コウベシタルミク",
    "town": "五色山",
    "town_kana": "ゴシキヤマ",
    "street": null,
    "office_name": null,
    "office_name_kana": null
  },
  "0036": {
    "postcode": "6550036",
    "prefecture": "兵庫県",
    "prefecture_kana": "ヒョウゴケン",
    "prefecture_code": 28,
    "city": "神戸市垂水区",
    "city_kana": "コウベシタルミク",
    "town": "海岸通",
    "town_kana": "カイガンドオリ",
    "street": null,
    "office_name": null,
    "office_name_kana": null
  },
  "0037": {
    "postcode": "6550037",
    "prefecture": "兵庫県",
    "prefecture_kana": "ヒョウゴケン",
    "prefecture_code": 28,
    "city": "神戸市垂水区",
    "city_kana": "コウベシタルミク",
    "town": "歌敷山",
    "town_kana": "ウタシキヤマ",
    "street": null,
    "office_name": null,
    "office_name_kana": null
  },
  "0038": {
    "postcode": "6550038",
    "prefecture": "兵庫県",
    "prefecture_kana": "ヒョウゴケン",
    "prefecture_code": 28,
    "city": "神戸市垂水区",
    "city_kana": "コウベシタルミク",
    "town": "星陵台",
    "town_kana": "セイリョウダイ",
    "street": null,
    "office_name": null,
    "office_name_kana": null
  },
  "0039": {
    "postcode": "6550039",
    "prefecture": "兵庫県",
    "prefecture_kana": "ヒョウゴケン",
    "prefecture_code": 28,
    "city": "神戸市垂水区",
    "city_kana": "コウベシタルミク",
    "town": "霞ケ丘",
    "town_kana": "カスミガオカ",
    "street": null,
    "office_name": null,
    "office_name_kana": null
  },
  "0041": {
    "postcode": "6550041",
    "prefecture": "兵庫県",
    "prefecture_kana": "ヒョウゴケン",
    "prefecture_code": 28,
    "city": "神戸市垂水区",
    "city_kana": "コウベシタルミク",
    "town": "神陵台",
    "town_kana": "シンリョウダイ",
    "street": null,
    "office_name": null,
    "office_name_kana": null
  },
  "0042": {
    "postcode": "6550042",
    "prefecture": "兵庫県",
    "prefecture_kana": "ヒョウゴケン",
    "prefecture_code": 28,
    "city": "神戸市垂水区",
    "city_kana": "コウベシタルミク",
    "town": "西脇",
    "town_kana": "ニシワキ",
    "street": null,
    "office_name": null,
    "office_name_kana": null
  },
  "0043": {
    "postcode": "6550043",
    "prefecture": "兵庫県",
    "prefecture_kana": "ヒョウゴケン",
    "prefecture_code": 28,
    "city": "神戸市垂水区",
    "city_kana": "コウベシタルミク",
    "town": "南多聞台",
    "town_kana": "ミナミタモンダイ",
    "street": null,
    "office_name": null,
    "office_name_kana": null
  },
  "0044": {
    "postcode": "6550044",
    "prefecture": "兵庫県",
    "prefecture_kana": "ヒョウゴケン",
    "prefecture_code": 28,
    "city": "神戸市垂水区",
    "city_kana": "コウベシタルミク",
    "town": "舞子坂",
    "town_kana": "マイコザカ",
    "street": null,
    "office_name": null,
    "office_name_kana": null
  },
  "0045": {
    "postcode": "6550045",
    "prefecture": "兵庫県",
    "prefecture_kana": "ヒョウゴケン",
    "prefecture_code": 28,
    "city": "神戸市垂水区",
    "city_kana": "コウベシタルミク",
    "town": "北舞子",
    "town_kana": "キタマイコ",
    "street": null,
    "office_name": null,
    "office_name_kana": null
  },
  "0046": {
    "postcode": "6550046",
    "prefecture": "兵庫県",
    "prefecture_kana": "ヒョウゴケン",
    "prefecture_code": 28,
    "city": "神戸市垂水区",
    "city_kana": "コウベシタルミク",
    "town": "舞子台",
    "town_kana": "マイコダイ",
    "street": null,
    "office_name": null,
    "office_name_kana": null
  },
  "0047": {
    "postcode": "6550047",
    "prefecture": "兵庫県",
    "prefecture_kana": "ヒョウゴケン",
    "prefecture_code": 28,
    "city": "神戸市垂水区",
    "city_kana": "コウベシタルミク",
    "town": "東舞子町",
    "town_kana": "ヒガシマイコチョウ",
    "street": null,
    "office_name": null,
    "office_name_kana": null
  },
  "0048": {
    "postcode": "6550048",
    "prefecture": "兵庫県",
    "prefecture_kana": "ヒョウゴケン",
    "prefecture_code": 28,
    "city": "神戸市垂水区",
    "city_kana": "コウベシタルミク",
    "town": "西舞子",
    "town_kana": "ニシマイコ",
    "street": null,
    "office_name": null,
    "office_name_kana": null
  },
  "0049": {
    "postcode": "6550049",
    "prefecture": "兵庫県",
    "prefecture_kana": "ヒョウゴケン",
    "prefecture_code": 28,
    "city": "神戸市垂水区",
    "city_kana": "コウベシタルミク",
    "town": "狩口台",
    "town_kana": "カリグチダイ",
    "street": null,
    "office_name": null,
    "office_name_kana": null
  },
  "0051": {
    "postcode": "6550051",
    "prefecture": "兵庫県",
    "prefecture_kana": "ヒョウゴケン",
    "prefecture_code": 28,
    "city": "神戸市垂水区",
    "city_kana": "コウベシタルミク",
    "town": "舞多聞西",
    "town_kana": "マイタモンニシ",
    "street": null,
    "office_name": null,
    "office_name_kana": null
  },
  "0052": {
    "postcode": "6550052",
    "prefecture": "兵庫県",
    "prefecture_kana": "ヒョウゴケン",
    "prefecture_code": 28,
    "city": "神戸市垂水区",
    "city_kana": "コウベシタルミク",
    "town": "舞多聞東",
    "town_kana": "マイタモンヒガシ",
    "street": null,
    "office_name": null,
    "office_name_kana": null
  },
  "0061": {
    "postcode": "6550061",
    "prefecture": "兵庫県",
    "prefecture_kana": "ヒョウゴケン",
    "prefecture_code": 28,
    "city": "神戸市垂水区",
    "city_kana": "コウベシタルミク",
    "town": "小束台東",
    "town_kana": "コヅカダイヒガシ",
    "street": null,
    "office_name": null,
    "office_name_kana": null
  },
  "0851": {
    "postcode": "6550851",
    "prefecture": "兵庫県",
    "prefecture_kana": "ヒョウゴケン",
    "prefecture_code": 28,
    "city": "神戸市垂水区",
    "city_kana": "コウベシタルミク",
    "town": "神和台",
    "town_kana": "シンワダイ",
    "street": null,
    "office_name": null,
    "office_name_kana": null
  },
  "0852": {
    "postcode": "6550852",
    "prefecture": "兵庫県",
    "prefecture_kana": "ヒョウゴケン",
    "prefecture_code": 28,
    "city": "神戸市垂水区",
    "city_kana": "コウベシタルミク",
    "town": "名谷町",
    "town_kana": "ミョウダニチョウ",
    "street": null,
    "office_name": null,
    "office_name_kana": null
  },
  "0853": {
    "postcode": "6550853",
    "prefecture": "兵庫県",
    "prefecture_kana": "ヒョウゴケン",
    "prefecture_code": 28,
    "city": "神戸市垂水区",
    "city_kana": "コウベシタルミク",
    "town": "つつじが丘",
    "town_kana": "ツツジガオカ",
    "street": null,
    "office_name": null,
    "office_name_kana": null
  },
  "0854": {
    "postcode": "6550854",
    "prefecture": "兵庫県",
    "prefecture_kana": "ヒョウゴケン",
    "prefecture_code": 28,
    "city": "神戸市垂水区",
    "city_kana": "コウベシタルミク",
    "town": "桃山台",
    "town_kana": "モモヤマダイ",
    "street": null,
    "office_name": null,
    "office_name_kana": null
  },
  "0855": {
    "postcode": "6550855",
    "prefecture": "兵庫県",
    "prefecture_kana": "ヒョウゴケン",
    "prefecture_code": 28,
    "city": "神戸市垂水区",
    "city_kana": "コウベシタルミク",
    "town": "みずき台",
    "town_kana": "ミズキダイ",
    "street": null,
    "office_name": null,
    "office_name_kana": null
  },
  "0861": {
    "postcode": "6550861",
    "prefecture": "兵庫県",
    "prefecture_kana": "ヒョウゴケン",
    "prefecture_code": 28,
    "city": "神戸市垂水区",
    "city_kana": "コウベシタルミク",
    "town": "下畑町",
    "town_kana": "シモハタチョウ",
    "street": null,
    "office_name": null,
    "office_name_kana": null
  },
  "0862": {
    "postcode": "6550862",
    "prefecture": "兵庫県",
    "prefecture_kana": "ヒョウゴケン",
    "prefecture_code": 28,
    "city": "神戸市垂水区",
    "city_kana": "コウベシタルミク",
    "town": "朝谷町",
    "town_kana": "アサタニチョウ",
    "street": null,
    "office_name": null,
    "office_name_kana": null
  },
  "0863": {
    "postcode": "6550863",
    "prefecture": "兵庫県",
    "prefecture_kana": "ヒョウゴケン",
    "prefecture_code": 28,
    "city": "神戸市垂水区",
    "city_kana": "コウベシタルミク",
    "town": "塩屋北町",
    "town_kana": "シオヤキタマチ",
    "street": null,
    "office_name": null,
    "office_name_kana": null
  },
  "0864": {
    "postcode": "6550864",
    "prefecture": "兵庫県",
    "prefecture_kana": "ヒョウゴケン",
    "prefecture_code": 28,
    "city": "神戸市垂水区",
    "city_kana": "コウベシタルミク",
    "town": "塩屋台",
    "town_kana": "シオヤダイ",
    "street": null,
    "office_name": null,
    "office_name_kana": null
  },
  "0865": {
    "postcode": "6550865",
    "prefecture": "兵庫県",
    "prefecture_kana": "ヒョウゴケン",
    "prefecture_code": 28,
    "city": "神戸市垂水区",
    "city_kana": "コウベシタルミク",
    "town": "清玄町",
    "town_kana": "セイゲンチョウ",
    "street": null,
    "office_name": null,
    "office_name_kana": null
  },
  "0871": {
    "postcode": "6550871",
    "prefecture": "兵庫県",
    "prefecture_kana": "ヒョウゴケン",
    "prefecture_code": 28,
    "city": "神戸市垂水区",
    "city_kana": "コウベシタルミク",
    "town": "松風台",
    "town_kana": "ショウフウダイ",
    "street": null,
    "office_name": null,
    "office_name_kana": null
  },
  "0872": {
    "postcode": "6550872",
    "prefecture": "兵庫県",
    "prefecture_kana": "ヒョウゴケン",
    "prefecture_code": 28,
    "city": "神戸市垂水区",
    "city_kana": "コウベシタルミク",
    "town": "塩屋町",
    "town_kana": "シオヤチョウ",
    "street": null,
    "office_name": null,
    "office_name_kana": null
  },
  "0873": {
    "postcode": "6550873",
    "prefecture": "兵庫県",
    "prefecture_kana": "ヒョウゴケン",
    "prefecture_code": 28,
    "city": "神戸市垂水区",
    "city_kana": "コウベシタルミク",
    "town": "青山台",
    "town_kana": "アオヤマダイ",
    "street": null,
    "office_name": null,
    "office_name_kana": null
  },
  "0874": {
    "postcode": "6550874",
    "prefecture": "兵庫県",
    "prefecture_kana": "ヒョウゴケン",
    "prefecture_code": 28,
    "city": "神戸市垂水区",
    "city_kana": "コウベシタルミク",
    "town": "美山台",
    "town_kana": "ミヤマダイ",
    "street": null,
    "office_name": null,
    "office_name_kana": null
  },
  "0881": {
    "postcode": "6550881",
    "prefecture": "兵庫県",
    "prefecture_kana": "ヒョウゴケン",
    "prefecture_code": 28,
    "city": "神戸市垂水区",
    "city_kana": "コウベシタルミク",
    "town": "東垂水町",
    "town_kana": "ヒガシタルミチョウ",
    "street": null,
    "office_name": null,
    "office_name_kana": null
  },
  "0882": {
    "postcode": "6550882",
    "prefecture": "兵庫県",
    "prefecture_kana": "ヒョウゴケン",
    "prefecture_code": 28,
    "city": "神戸市垂水区",
    "city_kana": "コウベシタルミク",
    "town": "乙木",
    "town_kana": "オトギ",
    "street": null,
    "office_name": null,
    "office_name_kana": null
  },
  "0883": {
    "postcode": "6550883",
    "prefecture": "兵庫県",
    "prefecture_kana": "ヒョウゴケン",
    "prefecture_code": 28,
    "city": "神戸市垂水区",
    "city_kana": "コウベシタルミク",
    "town": "王居殿",
    "town_kana": "オウイデン",
    "street": null,
    "office_name": null,
    "office_name_kana": null
  },
  "0884": {
    "postcode": "6550884",
    "prefecture": "兵庫県",
    "prefecture_kana": "ヒョウゴケン",
    "prefecture_code": 28,
    "city": "神戸市垂水区",
    "city_kana": "コウベシタルミク",
    "town": "城が山",
    "town_kana": "シロガヤマ",
    "street": null,
    "office_name": null,
    "office_name_kana": null
  },
  "0885": {
    "postcode": "6550885",
    "prefecture": "兵庫県",
    "prefecture_kana": "ヒョウゴケン",
    "prefecture_code": 28,
    "city": "神戸市垂水区",
    "city_kana": "コウベシタルミク",
    "town": "泉が丘",
    "town_kana": "イズミガオカ",
    "street": null,
    "office_name": null,
    "office_name_kana": null
  },
  "0886": {
    "postcode": "6550886",
    "prefecture": "兵庫県",
    "prefecture_kana": "ヒョウゴケン",
    "prefecture_code": 28,
    "city": "神戸市垂水区",
    "city_kana": "コウベシタルミク",
    "town": "東垂水",
    "town_kana": "ヒガシタルミ",
    "street": null,
    "office_name": null,
    "office_name_kana": null
  },
  "0891": {
    "postcode": "6550891",
    "prefecture": "兵庫県",
    "prefecture_kana": "ヒョウゴケン",
    "prefecture_code": 28,
    "city": "神戸市垂水区",
    "city_kana": "コウベシタルミク",
    "town": "山手",
    "town_kana": "ヤマテ",
    "street": null,
    "office_name": null,
    "office_name_kana": null
  },
  "0892": {
    "postcode": "6550892",
    "prefecture": "兵庫県",
    "prefecture_kana": "ヒョウゴケン",
    "prefecture_code": 28,
    "city": "神戸市垂水区",
    "city_kana": "コウベシタルミク",
    "town": "平磯",
    "town_kana": "ヒライソ",
    "street": null,
    "office_name": null,
    "office_name_kana": null
  },
  "0893": {
    "postcode": "6550893",
    "prefecture": "兵庫県",
    "prefecture_kana": "ヒョウゴケン",
    "prefecture_code": 28,
    "city": "神戸市垂水区",
    "city_kana": "コウベシタルミク",
    "town": "日向",
    "town_kana": "ヒュウガ",
    "street": null,
    "office_name": null,
    "office_name_kana": null
  },
  "0894": {
    "postcode": "6550894",
    "prefecture": "兵庫県",
    "prefecture_kana": "ヒョウゴケン",
    "prefecture_code": 28,
    "city": "神戸市垂水区",
    "city_kana": "コウベシタルミク",
    "town": "川原",
    "town_kana": "カワハラ",
    "street": null,
    "office_name": null,
    "office_name_kana": null
  },
  "0895": {
    "postcode": "6550895",
    "prefecture": "兵庫県",
    "prefecture_kana": "ヒョウゴケン",
    "prefecture_code": 28,
    "city": "神戸市垂水区",
    "city_kana": "コウベシタルミク",
    "town": "坂上",
    "town_kana": "サカガミ",
    "street": null,
    "office_name": null,
    "office_name_kana": null
  },
  "0896": {
    "postcode": "6550896",
    "prefecture": "兵庫県",
    "prefecture_kana": "ヒョウゴケン",
    "prefecture_code": 28,
    "city": "神戸市垂水区",
    "city_kana": "コウベシタルミク",
    "town": "中道",
    "town_kana": "ナカミチ",
    "street": null,
    "office_name": null,
    "office_name_kana": null
  },
  "8570": {
    "postcode": "6558570",
    "prefecture": "兵庫県",
    "prefecture_kana": "ヒョウゴケン",
    "prefecture_code": 28,
    "city": "神戸市垂水区",
    "city_kana": "コウベシタルミク",
    "town": "日向",
    "town_kana": "ヒュウガ",
    "street": "１丁目５−１",
    "office_name": "垂水区役所",
    "office_name_kana": "タルミクヤクシヨ"
  }
}