{
  "0000": {
    "postcode": "6570000",
    "prefecture": "兵庫県",
    "prefecture_kana": "ヒョウゴケン",
    "prefecture_code": 28,
    "city": "神戸市灘区",
    "city_kana": "コウベシナダク",
    "town": "",
    "town_kana": "",
    "street": null,
    "office_name": null,
    "office_name_kana": null
  },
  "0001": {
    "postcode": "6570001",
    "prefecture": "兵庫県",
    "prefecture_kana": "ヒョウゴケン",
    "prefecture_code": 28,
    "city": "神戸市灘区",
    "city_kana": "コウベシナダク",
    "town": "高羽",
    "town_kana": "タカハ",
    "street": null,
    "office_name": null,
    "office_name_kana": null
  },
  "0002": {
    "postcode": "6570002",
    "prefecture": "兵庫県",
    "prefecture_kana": "ヒョウゴケン",
    "prefecture_code": 28,
    "city": "神戸市灘区",
    "city_kana": "コウベシナダク",
    "town": "篠原",
    "town_kana": "シノハラ",
    "street": null,
    "office_name": null,
    "office_name_kana": null
  },
  "0011": {
    "postcode": "6570011",
    "prefecture": "兵庫県",
    "prefecture_kana": "ヒョウゴケン",
    "prefecture_code": 28,
    "city": "神戸市灘区",
    "city_kana": "コウベシナダク",
    "town": "鶴甲",
    "town_kana": "ツルカブト",
    "street": null,
    "office_name": null,
    "office_name_kana": null
  },
  "0012": {
    "postcode": "6570012",
    "prefecture": "兵庫県",
    "prefecture_kana": "ヒョウゴケン",
    "prefecture_code": 28,
    "city": "神戸市灘区",
    "city_kana": "コウベシナダク",
    "town": "一王山町",
    "town_kana": "イチノウサンチョウ",
    "street": null,
    "office_name": null,
    "office_name_kana": null
  },
  "0013": {
    "postcode": "6570013",
    "prefecture": "兵庫県",
    "prefecture_kana": "ヒョウゴケン",
    "prefecture_code": 28,
    "city": "神戸市灘区",
    "city_kana": "コウベシナダク",
    "town": "六甲台町",
    "town_kana": "ロッコウダイチョウ",
    "street": null,
    "office_name": null,
    "office_name_kana": null
  },
  "0014": {
    "postcode": "6570014",
    "prefecture": "兵庫県",
    "prefecture_kana": "ヒョウゴケン",
    "prefecture_code": 28,
    "city": "神戸市灘区",
    "city_kana": "コウベシナダク",
    "town": "大土平町",
    "town_kana": "オオドガヒラチョウ",
    "street": null,
    "office_name": null,
    "office_name_kana": null
  },
  "0015": {
    "postcode": "6570015",
    "prefecture": "兵庫県",
    "prefecture_kana": "ヒョウゴケン",
    "prefecture_code": 28,
    "city": "神戸市灘区",
    "city_kana": "コウベシナダク",
    "town": "篠原伯母野山町",
    "town_kana": "シノハラオバノヤマチョウ",
    "street": null,
    "office_name": null,
    "office_name_kana": null
  },
  "0016": {
    "postcode": "6570016",
    "prefecture": "兵庫県",
    "prefecture_kana": "ヒョウゴケン",
    "prefecture_code": 28,
    "city": "神戸市灘区",
    "city_kana": "コウベシナダク",
    "town": "篠原台",
    "town_kana": "シノハラダイ",
    "street": null,
    "office_name": null,
    "office_name_kana": null
  },
  "0017": {
    "postcode": "6570017",
    "prefecture": "兵庫県",
    "prefecture_kana": "ヒョウゴケン",
    "prefecture_code": 28,
    "city": "神戸市灘区",
    "city_kana": "コウベシナダク",
    "town": "大月台",
    "town_kana": "オオツキダイ",
    "street": null,
    "office_name": null,
    "office_name_kana": null
  },
  "0018": {
    "postcode": "6570018",
    "prefecture": "兵庫県",
    "prefecture_kana": "ヒョウゴケン",
    "prefecture_code": 28,
    "city": "神戸市灘区",
    "city_kana": "コウベシナダク",
    "town": "水車新田",
    "town_kana": "スイシャシンデン",
    "street": null,
    "office_name": null,
    "office_name_kana": null
  },
  "0021": {
    "postcode": "6570021",
    "prefecture": "兵庫県",
    "prefecture_kana": "ヒョウゴケン",
    "prefecture_code": 28,
    "city": "神戸市灘区",
    "city_kana": "コウベシナダク",
    "town": "桜ケ丘町",
    "town_kana": "サクラガオカチョウ",
    "street": null,
    "office_name": null,
    "office_name_kana": null
  },
  "0022": {
    "postcode": "6570022",
    "prefecture": "兵庫県",
    "prefecture_kana": "ヒョウゴケン",
    "prefecture_code": 28,
    "city": "神戸市灘区",
    "city_kana": "コウベシナダク",
    "town": "土山町",
    "town_kana": "ツチヤマチョウ",
    "street": null,
    "office_name": null,
    "office_name_kana": null
  },
  "0023": {
    "postcode": "6570023",
    "prefecture": "兵庫県",
    "prefecture_kana": "ヒョウゴケン",
    "prefecture_code": 28,
    "city": "神戸市灘区",
    "city_kana": "コウベシナダク",
    "town": "高羽町",
    "town_kana": "タカハチョウ",
    "street": null,
    "office_name": null,
    "office_name_kana": null
  },
  "0024": {
    "postcode": "6570024",
    "prefecture": "兵庫県",
    "prefecture_kana": "ヒョウゴケン",
    "prefecture_code": 28,
    "city": "神戸市灘区",
    "city_kana": "コウベシナダク",
    "town": "楠丘町",
    "town_kana": "クスガオカチョウ",
    "street": null,
    "office_name": null,
    "office_name_kana": null
  },
  "0025": {
    "postcode": "6570025",
    "prefecture": "兵庫県",
    "prefecture_kana": "ヒョウゴケン",
    "prefecture_code": 28,
    "city": "神戸市灘区",
    "city_kana": "コウベシナダク",
    "town": "高徳町",
    "town_kana": "コウトクチョウ",
    "street": null,
    "office_name": null,
    "office_name_kana": null
  },
  "0026": {
    "postcode": "6570026",
    "prefecture": "兵庫県",
    "prefecture_kana": "ヒョウゴケン",
    "prefecture_code": 28,
    "city": "神戸市灘区",
    "city_kana": "コウベシナダク",
    "town": "弓木町",
    "town_kana": "ユミノキチョウ",
    "street": null,
    "office_name": null,
    "office_name_kana": null
  },
  "0027": {
    "postcode": "6570027",
    "prefecture": "兵庫県",
    "prefecture_kana": "ヒョウゴケン",
    "prefecture_code": 28,
    "city": "神戸市灘区",
    "city_kana": "コウベシナダク",
    "town": "永手町",
    "town_kana": "ナガテチョウ",
    "street": null,
    "office_name": null,
    "office_name_kana": null
  },
  "0028": {
    "postcode": "6570028",
    "prefecture": "兵庫県",
    "prefecture_kana": "ヒョウゴケン",
    "prefecture_code": 28,
    "city": "神戸市灘区",
    "city_kana": "コウベシナダク",
    "town": "森後町",
    "town_kana": "モリゴチョウ",
    "street": null,
    "office_name": null,
    "office_name_kana": null
  },
  "0029": {
    "postcode": "6570029",
    "prefecture": "兵庫県",
    "prefecture_kana": "ヒョウゴケン",
    "prefecture_code": 28,
    "city": "神戸市灘区",
    "city_kana": "コウベシナダク",
    "town": "日尾町",
    "town_kana": "ヒオチョウ",
    "street": null,
    "office_name": null,
    "office_name_kana": null
  },
  "0031": {
    "postcode": "6570031",
    "prefecture": "兵庫県",
    "prefecture_kana": "ヒョウゴケン",
    "prefecture_code": 28,
    "city": "神戸市灘区",
    "city_kana": "コウベシナダク",
    "town": "大和町",
    "town_kana": "ヤマトチョウ",
    "street": null,
    "office_name": null,
    "office_name_kana": null
  },
  "0032": {
    "postcode": "6570032",
    "prefecture": "兵庫県",
    "prefecture_kana": "ヒョウゴケン",
    "prefecture_code": 28,
    "city": "神戸市灘区",
    "city_kana": "コウベシナダク",
    "town": "中郷町",
    "town_kana": "ナカゴウチョウ",
    "street": null,
    "office_name": null,
    "office_name_kana": null
  },
  "0033": {
    "postcode": "6570033",
    "prefecture": "兵庫県",
    "prefecture_kana": "ヒョウゴケン",
    "prefecture_code": 28,
    "city": "神戸市灘区",
    "city_kana": "コウベシナダク",
    "town": "徳井町",
    "town_kana": "トクイチョウ",
    "street": null,
    "office_name": null,
    "office_name_kana": null
  },
  "0034": {
    "postcode": "6570034",
    "prefecture": "兵庫県",
    "prefecture_kana": "ヒョウゴケン",
    "prefecture_code": 28,
    "city": "神戸市灘区",
    "city_kana": "コウベシナダク",
    "town": "記田町",
    "town_kana": "キダチョウ",
    "street": null,
    "office_name": null,
    "office_name_kana": null
  },
  "0035": {
    "postcode": "6570035",
    "prefecture": "兵庫県",
    "prefecture_kana": "ヒョウゴケン",
    "prefecture_code": 28,
    "city": "神戸市灘区",
    "city_kana": "コウベシナダク",
    "town": "友田町",
    "town_kana": "トモダチョウ",
    "street": null,
    "office_name": null,
    "office_name_kana": null
  },
  "0036": {
    "postcode": "6570036",
    "prefecture": "兵庫県",
    "prefecture_kana": "ヒョウゴケン",
    "prefecture_code": 28,
    "city": "神戸市灘区",
    "city_kana": "コウベシナダク",
    "town": "桜口町",
    "town_kana": "サクラグチチョウ",
    "street": null,
    "office_name": null,
    "office_name_kana": null
  },
  "0037": {
    "postcode": "6570037",
    "prefecture": "兵庫県",
    "prefecture_kana": "ヒョウゴケン",
    "prefecture_code": 28,
    "city": "神戸市灘区",
    "city_kana": "コウベシナダク",
    "town": "備後町",
    "town_kana": "ビンゴチョウ",
    "street": null,
    "office_name": null,
    "office_name_kana": null
  },
  "0038": {
    "postcode": "6570038",
    "prefecture": "兵庫県",
    "prefecture_kana": "ヒョウゴケン",
    "prefecture_code": 28,
    "city": "神戸市灘区",
    "city_kana": "コウベシナダク",
    "town": "深田町",
    "town_kana": "フカダチョウ",
    "street": null,
    "office_name": null,
    "office_name_kana": null
  },
  "0041": {
    "postcode": "6570041",
    "prefecture": "兵庫県",
    "prefecture_kana": "ヒョウゴケン",
    "prefecture_code": 28,
    "city": "神戸市灘区",
    "city_kana": "コウベシナダク",
    "town": "琵琶町",
    "town_kana": "ビワチョウ",
    "street": null,
    "office_name": null,
    "office_name_kana": null
  },
  "0042": {
    "postcode": "6570042",
    "prefecture": "兵庫県",
    "prefecture_kana": "ヒョウゴケン",
    "prefecture_code": 28,
    "city": "神戸市灘区",
    "city_kana": "コウベシナダク",
    "town": "烏帽子町",
    "town_kana": "エボシチョウ",
    "street": null,
    "office_name": null,
    "office_name_kana": null
  },
  "0043": {
    "postcode": "6570043",
    "prefecture": "兵庫県",
    "prefecture_kana": "ヒョウゴケン",
    "prefecture_code": 28,
    "city": "神戸市灘区",
    "city_kana": "コウベシナダク",
    "town": "大石東町",
    "town_kana": "オオイシヒガシマチ",
    "street": null,
    "office_name": null,
    "office_name_kana": null
  },
  "0044": {
    "postcode": "6570044",
    "prefecture": "兵庫県",
    "prefecture_kana": "ヒョウゴケン",
    "prefecture_code": 28,
    "city": "神戸市灘区",
    "city_kana": "コウベシナダク",
    "town": "鹿ノ下通",
    "town_kana": "シカノシタドオリ",
    "street": null,
    "office_name": null,
    "office_name_kana": null
  },
  "0045": {
    "postcode": "6570045",
    "prefecture": "兵庫県",
    "prefecture_kana": "ヒョウゴケン",
    "prefecture_code": 28,
    "city": "神戸市灘区",
    "city_kana": "コウベシナダク",
    "town": "下河原通",
    "town_kana": "シモガワラドオリ",
    "street": null,
    "office_name": null,
    "office_name_kana": null
  },
  "0051": {
    "postcode": "6570051",
    "prefecture": "兵庫県",
    "prefecture_kana": "ヒョウゴケン",
    "prefecture_code": 28,
    "city": "神戸市灘区",
    "city_kana": "コウベシナダク",
    "town": "八幡町",
    "town_kana": "ヤハタチョウ",
    "street": null,
    "office_name": null,
    "office_name_kana": null
  },
  "0052": {
    "postcode": "6570052",
    "prefecture": "兵庫県",
    "prefecture_kana": "ヒョウゴケン",
    "prefecture_code": 28,
    "city": "神戸市灘区",
    "city_kana": "コウベシナダク",
    "town": "神前町",
    "town_kana": "カミマエチョウ",
    "street": null,
    "office_name": null,
    "office_name_kana": null
  },
  "0053": {
    "postcode": "6570053",
    "prefecture": "兵庫県",
    "prefecture_kana": "ヒョウゴケン",
    "prefecture_code": 28,
    "city": "神戸市灘区",
    "city_kana": "コウベシナダク",
    "town": "六甲町",
    "town_kana": "ロッコウチョウ",
    "street": null,
    "office_name": null,
    "office_name_kana": null
  },
  "0054": {
    "postcode": "6570054",
    "prefecture": "兵庫県",
    "prefecture_kana": "ヒョウゴケン",
    "prefecture_code": 28,
    "city": "神戸市灘区",
    "city_kana": "コウベシナダク",
    "town": "稗原町",
    "town_kana": "ヒエハラチョウ",
    "street": null,
    "office_name": null,
    "office_name_kana": null
  },
  "0055": {
    "postcode": "6570055",
    "prefecture": "兵庫県",
    "prefecture_kana": "ヒョウゴケン",
    "prefecture_code": 28,
    "city": "神戸市灘区",
    "city_kana": "コウベシナダク",
    "town": "上河原通",
    "town_kana": "カミガワラドオリ",
    "street": null,
    "office_name": null,
    "office_name_kana": null
  },
  "0056": {
    "postcode": "6570056",
    "prefecture": "兵庫県",
    "prefecture_kana": "ヒョウゴケン",
    "prefecture_code": 28,
    "city": "神戸市灘区",
    "city_kana": "コウベシナダク",
    "town": "千旦通",
    "town_kana": "センタンドオリ",
    "street": null,
    "office_name": null,
    "office_name_kana": null
  },
  "0057": {
    "postcode": "6570057",
    "prefecture": "兵庫県",
    "prefecture_kana": "ヒョウゴケン",
    "prefecture_code": 28,
    "city": "神戸市灘区",
    "city_kana": "コウベシナダク",
    "town": "神ノ木通",
    "town_kana": "カミノキドオリ",
    "street": null,
    "office_name": null,
    "office_name_kana": null
  },
  "0058": {
    "postcode": "6570058",
    "prefecture": "兵庫県",
    "prefecture_kana": "ヒョウゴケン",
    "prefecture_code": 28,
    "city": "神戸市灘区",
    "city_kana": "コウベシナダク",
    "town": "将軍通",
    "town_kana": "ショウグンドオリ",
    "street": null,
    "office_name": null,
    "office_name_kana": null
  },
  "0059": {
    "postcode": "6570059",
    "prefecture": "兵庫県",
    "prefecture_kana": "ヒョウゴケン",
    "prefecture_code": 28,
    "city": "神戸市灘区",
    "city_kana": "コウベシナダク",
    "town": "篠原南町",
    "town_kana": "シノハラミナミマチ",
    "street": null,
    "office_name": null,
    "office_name_kana": null
  },
  "0061": {
    "postcode": "6570061",
    "prefecture": "兵庫県",
    "prefecture_kana": "ヒョウゴケン",
    "prefecture_code": 28,
    "city": "神戸市灘区",
    "city_kana": "コウベシナダク",
    "town": "赤松町",
    "town_kana": "アカマツチョウ",
    "street": null,
    "office_name": null,
    "office_name_kana": null
  },
  "0062": {
    "postcode": "6570062",
    "prefecture": "兵庫県",
    "prefecture_kana": "ヒョウゴケン",
    "prefecture_code": 28,
    "city": "神戸市灘区",
    "city_kana": "コウベシナダク",
    "town": "寺口町",
    "town_kana": "テラグチチョウ",
    "street": null,
    "office_name": null,
    "office_name_kana": null
  },
  "0063": {
    "postcode": "6570063",
    "prefecture": "兵庫県",
    "prefecture_kana": "ヒョウゴケン",
    "prefecture_code": 28,
    "city": "神戸市灘区",
    "city_kana": "コウベシナダク",
    "town": "曾和町",
    "town_kana": "ソワチョウ",
    "street": null,
    "office_name": null,
    "office_name_kana": null
  },
  "0064": {
    "postcode": "6570064",
    "prefecture": "兵庫県",
    "prefecture_kana": "ヒョウゴケン",
    "prefecture_code": 28,
    "city": "神戸市灘区",
    "city_kana": "コウベシナダク",
    "town": "山田町",
    "town_kana": "ヤマダチョウ",
    "street": null,
    "office_name": null,
    "office_name_kana": null
  },
  "0065": {
    "postcode": "6570065",
    "prefecture": "兵庫県",
    "prefecture_kana": "ヒョウゴケン",
    "prefecture_code": 28,
    "city": "神戸市灘区",
    "city_kana": "コウベシナダク",
    "town": "宮山町",
    "town_kana": "ミヤヤマチョウ",
    "street": null,
    "office_name": null,
    "office_name_kana": null
  },
  "0066": {
    "postcode": "6570066",
    "prefecture": "兵庫県",
    "prefecture_kana": "ヒョウゴケン",
    "prefecture_code": 28,
    "city": "神戸市灘区",
    "city_kana": "コウベシナダク",
    "town": "篠原中町",
    "town_kana": "シノハラナカマチ",
    "street": null,
    "office_name": null,
    "office_name_kana": null
  },
  "0067": {
    "postcode": "6570067",
    "prefecture": "兵庫県",
    "prefecture_kana": "ヒョウゴケン",
    "prefecture_code": 28,
    "city": "神戸市灘区",
    "city_kana": "コウベシナダク",
    "town": "篠原本町",
    "town_kana": "シノハラホンマチ",
    "street": null,
    "office_name": null,
    "office_name_kana": null
  },
  "0068": {
    "postcode": "6570068",
    "prefecture": "兵庫県",
    "prefecture_kana": "ヒョウゴケン",
    "prefecture_code": 28,
    "city": "神戸市灘区",
    "city_kana": "コウベシナダク",
    "town": "篠原北町",
    "town_kana": "シノハラキタマチ",
    "street": null,
    "office_name": null,
    "office_name_kana": null
  },
  "0101": {
    "postcode": "6570101",
    "prefecture": "兵庫県",
    "prefecture_kana": "ヒョウゴケン",
    "prefecture_code": 28,
    "city": "神戸市灘区",
    "city_kana": "コウベシナダク",
    "town": "六甲山町",
    "town_kana": "ロッコウサンチョウ",
    "street": null,
    "office_name": null,
    "office_name_kana": null
  },
  "0102": [
    {
      "postcode": "6570102",
      "prefecture": "兵庫県",
      "prefecture_kana": "ヒョウゴケン",
      "prefecture_code": 28,
      "city": "神戸市灘区",
      "city_kana": "コウベシナダク",
      "town": "畑原",
      "town_kana": "ハタハラ",
      "street": null,
      "office_name": null,
      "office_name_kana": null
    },
    {
      "postcode": "6570102",
      "prefecture": "兵庫県",
      "prefecture_kana": "ヒョウゴケン",
      "prefecture_code": 28,
      "city": "神戸市灘区",
      "city_kana": "コウベシナダク",
      "town": "畑原ノタ山",
      "town_kana": "ハタハラノタヤマ",
      "street": null,
      "office_name": null,
      "office_name_kana": null
    }
  ],
  "0103": [
    {
      "postcode": "6570103",
      "prefecture": "兵庫県",
      "prefecture_kana": "ヒョウゴケン",
      "prefecture_code": 28,
      "city": "神戸市灘区",
      "city_kana": "コウベシナダク",
      "town": "上野",
      "town_kana": "ウエノ",
      "street": null,
      "office_name": null,
      "office_name_kana": null
    },
    {
      "postcode": "6570103",
      "prefecture": "兵庫県",
      "prefecture_kana": "ヒョウゴケン",
      "prefecture_code": 28,
      "city": "神戸市灘区",
      "city_kana": "コウベシナダク",
      "town": "上野小ヤバ三ノ休原",
      "town_kana": "ウエノコヤバサンノヤスミガハラ",
      "street": null,
      "office_name": null,
      "office_name_kana": null
    }
  ],
  "0104": {
    "postcode": "6570104",
    "prefecture": "兵庫県",
    "prefecture_kana": "ヒョウゴケン",
    "prefecture_code": 28,
    "city": "神戸市灘区",
    "city_kana": "コウベシナダク",
    "town": "摩耶山",
    "town_kana": "マヤサン",
    "street": null,
    "office_name": null,
    "office_name_kana": null
  },
  "0105": {
    "postcode": "6570105",
    "prefecture": "兵庫県",
    "prefecture_kana": "ヒョウゴケン",
    "prefecture_code": 28,
    "city": "神戸市灘区",
    "city_kana": "コウベシナダク",
    "town": "摩耶山町",
    "town_kana": "マヤサンチョウ",
    "street": null,
    "office_name": null,
    "office_name_kana": null
  },
  "0111": {
    "postcode": "6570111",
    "prefecture": "兵庫県",
    "prefecture_kana": "ヒョウゴケン",
    "prefecture_code": 28,
    "city": "神戸市東灘区",
    "city_kana": "コウベシヒガシナダク",
    "town": "本山町森",
    "town_kana": "モトヤマチョウモリ",
    "street": null,
    "office_name": null,
    "office_name_kana": null
  },
  "0801": {
    "postcode": "6570801",
    "prefecture": "兵庫県",
    "prefecture_kana": "ヒョウゴケン",
    "prefecture_code": 28,
    "city": "神戸市灘区",
    "city_kana": "コウベシナダク",
    "town": "五毛",
    "town_kana": "ゴモウ",
    "street": null,
    "office_name": null,
    "office_name_kana": null
  },
  "0802": {
    "postcode": "6570802",
    "prefecture": "兵庫県",
    "prefecture_kana": "ヒョウゴケン",
    "prefecture_code": 28,
    "city": "神戸市灘区",
    "city_kana": "コウベシナダク",
    "town": "原田",
    "town_kana": "ハラダ",
    "street": null,
    "office_name": null,
    "office_name_kana": null
  },
  "0803": {
    "postcode": "6570803",
    "prefecture": "兵庫県",
    "prefecture_kana": "ヒョウゴケン",
    "prefecture_code": 28,
    "city": "神戸市灘区",
    "city_kana": "コウベシナダク",
    "town": "岩屋",
    "town_kana": "イワヤ",
    "street": null,
    "office_name": null,
    "office_name_kana": null
  },
  "0804": {
    "postcode": "6570804",
    "prefecture": "兵庫県",
    "prefecture_kana": "ヒョウゴケン",
    "prefecture_code": 28,
    "city": "神戸市灘区",
    "city_kana": "コウベシナダク",
    "town": "城の下通",
    "town_kana": "シロノシタドオリ",
    "street": null,
    "office_name": null,
    "office_name_kana": null
  },
  "0805": {
    "postcode": "6570805",
    "prefecture": "兵庫県",
    "prefecture_kana": "ヒョウゴケン",
    "prefecture_code": 28,
    "city": "神戸市灘区",
    "city_kana": "コウベシナダク",
    "town": "青谷町",
    "town_kana": "アオタニチョウ",
    "street": null,
    "office_name": null,
    "office_name_kana": null
  },
  "0811": {
    "postcode": "6570811",
    "prefecture": "兵庫県",
    "prefecture_kana": "ヒョウゴケン",
    "prefecture_code": 28,
    "city": "神戸市灘区",
    "city_kana": "コウベシナダク",
    "town": "長峰台",
    "town_kana": "ナガミネダイ",
    "street": null,
    "office_name": null,
    "office_name_kana": null
  },
  "0812": {
    "postcode": "6570812",
    "prefecture": "兵庫県",
    "prefecture_kana": "ヒョウゴケン",
    "prefecture_code": 28,
    "city": "神戸市灘区",
    "city_kana": "コウベシナダク",
    "town": "箕岡通",
    "town_kana": "ミノオカドオリ",
    "street": null,
    "office_name": null,
    "office_name_kana": null
  },
  "0813": {
    "postcode": "6570813",
    "prefecture": "兵庫県",
    "prefecture_kana": "ヒョウゴケン",
    "prefecture_code": 28,
    "city": "神戸市灘区",
    "city_kana": "コウベシナダク",
    "town": "高尾通",
    "town_kana": "タカオドオリ",
    "street": null,
    "office_name": null,
    "office_name_kana": null
  },
  "0814": {
    "postcode": "6570814",
    "prefecture": "兵庫県",
    "prefecture_kana": "ヒョウゴケン",
    "prefecture_code": 28,
    "city": "神戸市灘区",
    "city_kana": "コウベシナダク",
    "town": "五毛通",
    "town_kana": "ゴモウドオリ",
    "street": null,
    "office_name": null,
    "office_name_kana": null
  },
  "0815": {
    "postcode": "6570815",
    "prefecture": "兵庫県",
    "prefecture_kana": "ヒョウゴケン",
    "prefecture_code": 28,
    "city": "神戸市灘区",
    "city_kana": "コウベシナダク",
    "town": "薬師通",
    "town_kana": "ヤクシドオリ",
    "street": null,
    "office_name": null,
    "office_name_kana": null
  },
  "0816": {
    "postcode": "6570816",
    "prefecture": "兵庫県",
    "prefecture_kana": "ヒョウゴケン",
    "prefecture_code": 28,
    "city": "神戸市灘区",
    "city_kana": "コウベシナダク",
    "town": "国玉通",
    "town_kana": "クニタマドオリ",
    "street": null,
    "office_name": null,
    "office_name_kana": null
  },
  "0817": {
    "postcode": "6570817",
    "prefecture": "兵庫県",
    "prefecture_kana": "ヒョウゴケン",
    "prefecture_code": 28,
    "city": "神戸市灘区",
    "city_kana": "コウベシナダク",
    "town": "上野通",
    "town_kana": "ウエノドオリ",
    "street": null,
    "office_name": null,
    "office_name_kana": null
  },
  "0821": {
    "postcode": "6570821",
    "prefecture": "兵庫県",
    "prefecture_kana": "ヒョウゴケン",
    "prefecture_code": 28,
    "city": "神戸市灘区",
    "city_kana": "コウベシナダク",
    "town": "赤坂通",
    "town_kana": "アカサカドオリ",
    "street": null,
    "office_name": null,
    "office_name_kana": null
  },
  "0822": {
    "postcode": "6570822",
    "prefecture": "兵庫県",
    "prefecture_kana": "ヒョウゴケン",
    "prefecture_code": 28,
    "city": "神戸市灘区",
    "city_kana": "コウベシナダク",
    "town": "畑原通",
    "town_kana": "ハタハラドオリ",
    "street": null,
    "office_name": null,
    "office_name_kana": null
  },
  "0823": {
    "postcode": "6570823",
    "prefecture": "兵庫県",
    "prefecture_kana": "ヒョウゴケン",
    "prefecture_code": 28,
    "city": "神戸市灘区",
    "city_kana": "コウベシナダク",
    "town": "天城通",
    "town_kana": "アマギドオリ",
    "street": null,
    "office_name": null,
    "office_name_kana": null
  },
  "0824": {
    "postcode": "6570824",
    "prefecture": "兵庫県",
    "prefecture_kana": "ヒョウゴケン",
    "prefecture_code": 28,
    "city": "神戸市灘区",
    "city_kana": "コウベシナダク",
    "town": "福住通",
    "town_kana": "フクズミドオリ",
    "street": null,
    "office_name": null,
    "office_name_kana": null
  },
  "0825": {
    "postcode": "6570825",
    "prefecture": "兵庫県",
    "prefecture_kana": "ヒョウゴケン",
    "prefecture_code": 28,
    "city": "神戸市灘区",
    "city_kana": "コウベシナダク",
    "town": "中原通",
    "town_kana": "ナカハラドオリ",
    "street": null,
    "office_name": null,
    "office_name_kana": null
  },
  "0826": {
    "postcode": "6570826",
    "prefecture": "兵庫県",
    "prefecture_kana": "ヒョウゴケン",
    "prefecture_code": 28,
    "city": "神戸市灘区",
    "city_kana": "コウベシナダク",
    "town": "倉石通",
    "town_kana": "クライシドオリ",
    "street": null,
    "office_name": null,
    "office_name_kana": null
  },
  "0831": {
    "postcode": "6570831",
    "prefecture": "兵庫県",
    "prefecture_kana": "ヒョウゴケン",
    "prefecture_code": 28,
    "city": "神戸市灘区",
    "city_kana": "コウベシナダク",
    "town": "水道筋",
    "town_kana": "スイドウスジ",
    "street": null,
    "office_name": null,
    "office_name_kana": null
  },
  "0832": {
    "postcode": "6570832",
    "prefecture": "兵庫県",
    "prefecture_kana": "ヒョウゴケン",
    "prefecture_code": 28,
    "city": "神戸市灘区",
    "city_kana": "コウベシナダク",
    "town": "岸地通",
    "town_kana": "キシチドオリ",
    "street": null,
    "office_name": null,
    "office_name_kana": null
  },
  "0833": {
    "postcode": "6570833",
    "prefecture": "兵庫県",
    "prefecture_kana": "ヒョウゴケン",
    "prefecture_code": 28,
    "city": "神戸市灘区",
    "city_kana": "コウベシナダク",
    "town": "大内通",
    "town_kana": "オオウチドオリ",
    "street": null,
    "office_name": null,
    "office_name_kana": null
  },
  "0834": {
    "postcode": "6570834",
    "prefecture": "兵庫県",
    "prefecture_kana": "ヒョウゴケン",
    "prefecture_code": 28,
    "city": "神戸市灘区",
    "city_kana": "コウベシナダク",
    "town": "泉通",
    "town_kana": "イズミドオリ",
    "street": null,
    "office_name": null,
    "office_name_kana": null
  },
  "0835": {
    "postcode": "6570835",
    "prefecture": "兵庫県",
    "prefecture_kana": "ヒョウゴケン",
    "prefecture_code": 28,
    "city": "神戸市灘区",
    "city_kana": "コウベシナダク",
    "town": "灘北通",
    "town_kana": "ナダキタドオリ",
    "street": null,
    "office_name": null,
    "office_name_kana": null
  },
  "0836": {
    "postcode": "6570836",
    "prefecture": "兵庫県",
    "prefecture_kana": "ヒョウゴケン",
    "prefecture_code": 28,
    "city": "神戸市灘区",
    "city_kana": "コウベシナダク",
    "town": "城内通",
    "town_kana": "シロノウチドオリ",
    "street": null,
    "office_name": null,
    "office_name_kana": null
  },
  "0837": {
    "postcode": "6570837",
    "prefecture": "兵庫県",
    "prefecture_kana": "ヒョウゴケン",
    "prefecture_code": 28,
    "city": "神戸市灘区",
    "city_kana": "コウベシナダク",
    "town": "原田通",
    "town_kana": "ハラダドオリ",
    "street": null,
    "office_name": null,
    "office_name_kana": null
  },
  "0838": {
    "postcode": "6570838",
    "prefecture": "兵庫県",
    "prefecture_kana": "ヒョウゴケン",
    "prefecture_code": 28,
    "city": "神戸市灘区",
    "city_kana": "コウベシナダク",
    "town": "王子町",
    "town_kana": "オウジチョウ",
    "street": null,
    "office_name": null,
    "office_name_kana": null
  },
  "0841": {
    "postcode": "6570841",
    "prefecture": "兵庫県",
    "prefecture_kana": "ヒョウゴケン",
    "prefecture_code": 28,
    "city": "神戸市灘区",
    "city_kana": "コウベシナダク",
    "town": "灘南通",
    "town_kana": "ナダミナミドオリ",
    "street": null,
    "office_name": null,
    "office_name_kana": null
  },
  "0842": {
    "postcode": "6570842",
    "prefecture": "兵庫県",
    "prefecture_kana": "ヒョウゴケン",
    "prefecture_code": 28,
    "city": "神戸市灘区",
    "city_kana": "コウベシナダク",
    "town": "船寺通",
    "town_kana": "フナデラドオリ",
    "street": null,
    "office_name": null,
    "office_name_kana": null
  },
  "0843": {
    "postcode": "6570843",
    "prefecture": "兵庫県",
    "prefecture_kana": "ヒョウゴケン",
    "prefecture_code": 28,
    "city": "神戸市灘区",
    "city_kana": "コウベシナダク",
    "town": "大石北町",
    "town_kana": "オオイシキタマチ",
    "street": null,
    "office_name": null,
    "office_name_kana": null
  },
  "0844": {
    "postcode": "6570844",
    "prefecture": "兵庫県",
    "prefecture_kana": "ヒョウゴケン",
    "prefecture_code": 28,
    "city": "神戸市灘区",
    "city_kana": "コウベシナダク",
    "town": "都通",
    "town_kana": "ミヤコドオリ",
    "street": null,
    "office_name": null,
    "office_name_kana": null
  },
  "0845": {
    "postcode": "6570845",
    "prefecture": "兵庫県",
    "prefecture_kana": "ヒョウゴケン",
    "prefecture_code": 28,
    "city": "神戸市灘区",
    "city_kana": "コウベシナダク",
    "town": "岩屋中町",
    "town_kana": "イワヤナカマチ",
    "street": null,
    "office_name": null,
    "office_name_kana": null
  },
  "0846": {
    "postcode": "6570846",
    "prefecture": "兵庫県",
    "prefecture_kana": "ヒョウゴケン",
    "prefecture_code": 28,
    "city": "神戸市灘区",
    "city_kana": "コウベシナダク",
    "town": "岩屋北町",
    "town_kana": "イワヤキタマチ",
    "street": null,
    "office_name": null,
    "office_name_kana": null
  },
  "0851": {
    "postcode": "6570851",
    "prefecture": "兵庫県",
    "prefecture_kana": "ヒョウゴケン",
    "prefecture_code": 28,
    "city": "神戸市灘区",
    "city_kana": "コウベシナダク",
    "town": "味泥町",
    "town_kana": "ミドロチョウ",
    "street": null,
    "office_name": null,
    "office_name_kana": null
  },
  "0852": {
    "postcode": "6570852",
    "prefecture": "兵庫県",
    "prefecture_kana": "ヒョウゴケン",
    "prefecture_code": 28,
    "city": "神戸市灘区",
    "city_kana": "コウベシナダク",
    "town": "大石南町",
    "town_kana": "オオイシミナミマチ",
    "street": null,
    "office_name": null,
    "office_name_kana": null
  },
  "0853": {
    "postcode": "6570853",
    "prefecture": "兵庫県",
    "prefecture_kana": "ヒョウゴケン",
    "prefecture_code": 28,
    "city": "神戸市灘区",
    "city_kana": "コウベシナダク",
    "town": "灘浜町",
    "town_kana": "ナダハマチョウ",
    "street": null,
    "office_name": null,
    "office_name_kana": null
  },
  "0854": {
    "postcode": "6570854",
    "prefecture": "兵庫県",
    "prefecture_kana": "ヒョウゴケン",
    "prefecture_code": 28,
    "city": "神戸市灘区",
    "city_kana": "コウベシナダク",
    "town": "摩耶埠頭",
    "town_kana": "マヤフトウ",
    "street": null,
    "office_name": null,
    "office_name_kana": null
  },
  "0855": {
    "postcode": "6570855",
    "prefecture": "兵庫県",
    "prefecture_kana": "ヒョウゴケン",
    "prefecture_code": 28,
    "city": "神戸市灘区",
    "city_kana": "コウベシナダク",
    "town": "摩耶海岸通",
    "town_kana": "マヤカイガンドオリ",
    "street": null,
    "office_name": null,
    "office_name_kana": null
  },
  "0856": {
    "postcode": "6570856",
    "prefecture": "兵庫県",
    "prefecture_kana": "ヒョウゴケン",
    "prefecture_code": 28,
    "city": "神戸市灘区",
    "city_kana": "コウベシナダク",
    "town": "岩屋南町",
    "town_kana": "イワヤミナミマチ",
    "street": null,
    "office_name": null,
    "office_name_kana": null
  },
  "0861": {
    "postcode": "6570861",
    "prefecture": "兵庫県",
    "prefecture_kana": "ヒョウゴケン",
    "prefecture_code": 28,
    "city": "神戸市灘区",
    "city_kana": "コウベシナダク",
    "town": "新在家北町",
    "town_kana": "シンザイケキタマチ",
    "street": null,
    "office_name": null,
    "office_name_kana": null
  },
  "0862": {
    "postcode": "6570862",
    "prefecture": "兵庫県",
    "prefecture_kana": "ヒョウゴケン",
    "prefecture_code": 28,
    "city": "神戸市灘区",
    "city_kana": "コウベシナダク",
    "town": "浜田町",
    "town_kana": "ハマダチョウ",
    "street": null,
    "office_name": null,
    "office_name_kana": null
  },
  "0863": {
    "postcode": "6570863",
    "prefecture": "兵庫県",
    "prefecture_kana": "ヒョウゴケン",
    "prefecture_code": 28,
    "city": "神戸市灘区",
    "city_kana": "コウベシナダク",
    "town": "灘浜東町",
    "town_kana": "ナダハマヒガシチョウ",
    "street": null,
    "office_name": null,
    "office_name_kana": null
  },
  "0864": {
    "postcode": "6570864",
    "prefecture": "兵庫県",
    "prefecture_kana": "ヒョウゴケン",
    "prefecture_code": 28,
    "city": "神戸市灘区",
    "city_kana": "コウベシナダク",
    "town": "新在家南町",
    "town_kana": "シンザイケミナミマチ",
    "street": null,
    "office_name": null,
    "office_name_kana": null
  },
  "8501": {
    "postcode": "6578501",
    "prefecture": "兵庫県",
    "prefecture_kana": "ヒョウゴケン",
    "prefecture_code": 28,
    "city": "神戸市灘区",
    "city_kana": "コウベシナダク",
    "town": "六甲台町",
    "town_kana": "ロッコウダイチョウ",
    "street": "１−１",
    "office_name": "神戸大学",
    "office_name_kana": "コウベダイガク"
  },
  "8570": {
    "postcode": "6578570",
    "prefecture": "兵庫県",
    "prefecture_kana": "ヒョウゴケン",
    "prefecture_code": 28,
    "city": "神戸市灘区",
    "city_kana": "コウベシナダク",
    "town": "桜口町",
    "town_kana": "サクラグチチョウ",
    "street": "４丁目２−１",
    "office_name": "灘区役所",
    "office_name_kana": "ナダクヤクシヨ"
  }
}