{
  "0000": {
    "postcode": "6580000",
    "prefecture": "兵庫県",
    "prefecture_kana": "ヒョウゴケン",
    "prefecture_code": 28,
    "city": "神戸市東灘区",
    "city_kana": "コウベシヒガシナダク",
    "town": "",
    "town_kana": "",
    "street": null,
    "office_name": null,
    "office_name_kana": null
  },
  "0001": {
    "postcode": "6580001",
    "prefecture": "兵庫県",
    "prefecture_kana": "ヒョウゴケン",
    "prefecture_code": 28,
    "city": "神戸市東灘区",
    "city_kana": "コウベシヒガシナダク",
    "town": "森北町",
    "town_kana": "モリキタマチ",
    "street": null,
    "office_name": null,
    "office_name_kana": null
  },
  "0002": {
    "postcode": "6580002",
    "prefecture": "兵庫県",
    "prefecture_kana": "ヒョウゴケン",
    "prefecture_code": 28,
    "city": "神戸市東灘区",
    "city_kana": "コウベシヒガシナダク",
    "town": "甲南台",
    "town_kana": "コウナンダイ",
    "street": null,
    "office_name": null,
    "office_name_kana": null
  },
  "0003": {
    "postcode": "6580003",
    "prefecture": "兵庫県",
    "prefecture_kana": "ヒョウゴケン",
    "prefecture_code": 28,
    "city": "神戸市東灘区",
    "city_kana": "コウベシヒガシナダク",
    "town": "本山北町",
    "town_kana": "モトヤマキタマチ",
    "street": null,
    "office_name": null,
    "office_name_kana": null
  },
  "0004": {
    "postcode": "6580004",
    "prefecture": "兵庫県",
    "prefecture_kana": "ヒョウゴケン",
    "prefecture_code": 28,
    "city": "神戸市東灘区",
    "city_kana": "コウベシヒガシナダク",
    "town": "本山町田辺",
    "town_kana": "モトヤマチョウタナベ",
    "street": null,
    "office_name": null,
    "office_name_kana": null
  },
  "0005": {
    "postcode": "6580005",
    "prefecture": "兵庫県",
    "prefecture_kana": "ヒョウゴケン",
    "prefecture_code": 28,
    "city": "神戸市東灘区",
    "city_kana": "コウベシヒガシナダク",
    "town": "本山町北畑",
    "town_kana": "モトヤマチョウキタハタ",
    "street": null,
    "office_name": null,
    "office_name_kana": null
  },
  "0011": {
    "postcode": "6580011",
    "prefecture": "兵庫県",
    "prefecture_kana": "ヒョウゴケン",
    "prefecture_code": 28,
    "city": "神戸市東灘区",
    "city_kana": "コウベシヒガシナダク",
    "town": "森南町",
    "town_kana": "モリミナミマチ",
    "street": null,
    "office_name": null,
    "office_name_kana": null
  },
  "0012": {
    "postcode": "6580012",
    "prefecture": "兵庫県",
    "prefecture_kana": "ヒョウゴケン",
    "prefecture_code": 28,
    "city": "神戸市東灘区",
    "city_kana": "コウベシヒガシナダク",
    "town": "本庄町",
    "town_kana": "ホンジョウチョウ",
    "street": null,
    "office_name": null,
    "office_name_kana": null
  },
  "0013": {
    "postcode": "6580013",
    "prefecture": "兵庫県",
    "prefecture_kana": "ヒョウゴケン",
    "prefecture_code": 28,
    "city": "神戸市東灘区",
    "city_kana": "コウベシヒガシナダク",
    "town": "深江北町",
    "town_kana": "フカエキタマチ",
    "street": null,
    "office_name": null,
    "office_name_kana": null
  },
  "0014": {
    "postcode": "6580014",
    "prefecture": "兵庫県",
    "prefecture_kana": "ヒョウゴケン",
    "prefecture_code": 28,
    "city": "神戸市東灘区",
    "city_kana": "コウベシヒガシナダク",
    "town": "北青木",
    "town_kana": "キタオウギ",
    "street": null,
    "office_name": null,
    "office_name_kana": null
  },
  "0015": {
    "postcode": "6580015",
    "prefecture": "兵庫県",
    "prefecture_kana": "ヒョウゴケン",
    "prefecture_code": 28,
    "city": "神戸市東灘区",
    "city_kana": "コウベシヒガシナダク",
    "town": "本山南町",
    "town_kana": "モトヤマミナミマチ",
    "street": null,
    "office_name": null,
    "office_name_kana": null
  },
  "0016": {
    "postcode": "6580016",
    "prefecture": "兵庫県",
    "prefecture_kana": "ヒョウゴケン",
    "prefecture_code": 28,
    "city": "神戸市東灘区",
    "city_kana": "コウベシヒガシナダク",
    "town": "本山中町",
    "town_kana": "モトヤマナカマチ",
    "street": null,
    "office_name": null,
    "office_name_kana": null
  },
  "0021": {
    "postcode": "6580021",
    "prefecture": "兵庫県",
    "prefecture_kana": "ヒョウゴケン",
    "prefecture_code": 28,
    "city": "神戸市東灘区",
    "city_kana": "コウベシヒガシナダク",
    "town": "深江本町",
    "town_kana": "フカエホンマチ",
    "street": null,
    "office_name": null,
    "office_name_kana": null
  },
  "0022": {
    "postcode": "6580022",
    "prefecture": "兵庫県",
    "prefecture_kana": "ヒョウゴケン",
    "prefecture_code": 28,
    "city": "神戸市東灘区",
    "city_kana": "コウベシヒガシナダク",
    "town": "深江南町",
    "town_kana": "フカエミナミマチ",
    "street": null,
    "office_name": null,
    "office_name_kana": null
  },
  "0023": {
    "postcode": "6580023",
    "prefecture": "兵庫県",
    "prefecture_kana": "ヒョウゴケン",
    "prefecture_code": 28,
    "city": "神戸市東灘区",
    "city_kana": "コウベシヒガシナダク",
    "town": "深江浜町",
    "town_kana": "フカエハママチ",
    "street": null,
    "office_name": null,
    "office_name_kana": null
  },
  "0024": {
    "postcode": "6580024",
    "prefecture": "兵庫県",
    "prefecture_kana": "ヒョウゴケン",
    "prefecture_code": 28,
    "city": "神戸市東灘区",
    "city_kana": "コウベシヒガシナダク",
    "town": "魚崎浜町",
    "town_kana": "ウオザキハママチ",
    "street": null,
    "office_name": null,
    "office_name_kana": null
  },
  "0025": {
    "postcode": "6580025",
    "prefecture": "兵庫県",
    "prefecture_kana": "ヒョウゴケン",
    "prefecture_code": 28,
    "city": "神戸市東灘区",
    "city_kana": "コウベシヒガシナダク",
    "town": "魚崎南町",
    "town_kana": "ウオザキミナミマチ",
    "street": null,
    "office_name": null,
    "office_name_kana": null
  },
  "0026": {
    "postcode": "6580026",
    "prefecture": "兵庫県",
    "prefecture_kana": "ヒョウゴケン",
    "prefecture_code": 28,
    "city": "神戸市東灘区",
    "city_kana": "コウベシヒガシナダク",
    "town": "魚崎西町",
    "town_kana": "ウオザキニシマチ",
    "street": null,
    "office_name": null,
    "office_name_kana": null
  },
  "0027": {
    "postcode": "6580027",
    "prefecture": "兵庫県",
    "prefecture_kana": "ヒョウゴケン",
    "prefecture_code": 28,
    "city": "神戸市東灘区",
    "city_kana": "コウベシヒガシナダク",
    "town": "青木",
    "town_kana": "オウギ",
    "street": null,
    "office_name": null,
    "office_name_kana": null
  },
  "0031": {
    "postcode": "6580031",
    "prefecture": "兵庫県",
    "prefecture_kana": "ヒョウゴケン",
    "prefecture_code": 28,
    "city": "神戸市東灘区",
    "city_kana": "コウベシヒガシナダク",
    "town": "向洋町東",
    "town_kana": "コウヨウチョウヒガシ",
    "street": null,
    "office_name": null,
    "office_name_kana": null
  },
  "0032": {
    "postcode": "6580032",
    "prefecture": "兵庫県",
    "prefecture_kana": "ヒョウゴケン",
    "prefecture_code": 28,
    "city": "神戸市東灘区",
    "city_kana": "コウベシヒガシナダク",
    "town": "向洋町中",
    "town_kana": "コウヨウチョウナカ",
    "street": null,
    "office_name": null,
    "office_name_kana": null
  },
  "0033": {
    "postcode": "6580033",
    "prefecture": "兵庫県",
    "prefecture_kana": "ヒョウゴケン",
    "prefecture_code": 28,
    "city": "神戸市東灘区",
    "city_kana": "コウベシヒガシナダク",
    "town": "向洋町西",
    "town_kana": "コウヨウチョウニシ",
    "street": null,
    "office_name": null,
    "office_name_kana": null
  },
  "0041": {
    "postcode": "6580041",
    "prefecture": "兵庫県",
    "prefecture_kana": "ヒョウゴケン",
    "prefecture_code": 28,
    "city": "神戸市東灘区",
    "city_kana": "コウベシヒガシナダク",
    "town": "住吉南町",
    "town_kana": "スミヨシミナミマチ",
    "street": null,
    "office_name": null,
    "office_name_kana": null
  },
  "0042": {
    "postcode": "6580042",
    "prefecture": "兵庫県",
    "prefecture_kana": "ヒョウゴケン",
    "prefecture_code": 28,
    "city": "神戸市東灘区",
    "city_kana": "コウベシヒガシナダク",
    "town": "住吉浜町",
    "town_kana": "スミヨシハママチ",
    "street": null,
    "office_name": null,
    "office_name_kana": null
  },
  "0043": {
    "postcode": "6580043",
    "prefecture": "兵庫県",
    "prefecture_kana": "ヒョウゴケン",
    "prefecture_code": 28,
    "city": "神戸市東灘区",
    "city_kana": "コウベシヒガシナダク",
    "town": "御影浜町",
    "town_kana": "ミカゲハママチ",
    "street": null,
    "office_name": null,
    "office_name_kana": null
  },
  "0044": {
    "postcode": "6580044",
    "prefecture": "兵庫県",
    "prefecture_kana": "ヒョウゴケン",
    "prefecture_code": 28,
    "city": "神戸市東灘区",
    "city_kana": "コウベシヒガシナダク",
    "town": "御影塚町",
    "town_kana": "ミカゲツカマチ",
    "street": null,
    "office_name": null,
    "office_name_kana": null
  },
  "0045": {
    "postcode": "6580045",
    "prefecture": "兵庫県",
    "prefecture_kana": "ヒョウゴケン",
    "prefecture_code": 28,
    "city": "神戸市東灘区",
    "city_kana": "コウベシヒガシナダク",
    "town": "御影石町",
    "town_kana": "ミカゲイシマチ",
    "street": null,
    "office_name": null,
    "office_name_kana": null
  },
  "0046": {
    "postcode": "6580046",
    "prefecture": "兵庫県",
    "prefecture_kana": "ヒョウゴケン",
    "prefecture_code": 28,
    "city": "神戸市東灘区",
    "city_kana": "コウベシヒガシナダク",
    "town": "御影本町",
    "town_kana": "ミカゲホンマチ",
    "street": null,
    "office_name": null,
    "office_name_kana": null
  },
  "0047": {
    "postcode": "6580047",
    "prefecture": "兵庫県",
    "prefecture_kana": "ヒョウゴケン",
    "prefecture_code": 28,
    "city": "神戸市東灘区",
    "city_kana": "コウベシヒガシナダク",
    "town": "御影",
    "town_kana": "ミカゲ",
    "street": null,
    "office_name": null,
    "office_name_kana": null
  },
  "0048": {
    "postcode": "6580048",
    "prefecture": "兵庫県",
    "prefecture_kana": "ヒョウゴケン",
    "prefecture_code": 28,
    "city": "神戸市東灘区",
    "city_kana": "コウベシヒガシナダク",
    "town": "御影郡家",
    "town_kana": "ミカゲグンゲ",
    "street": null,
    "office_name": null,
    "office_name_kana": null
  },
  "0051": {
    "postcode": "6580051",
    "prefecture": "兵庫県",
    "prefecture_kana": "ヒョウゴケン",
    "prefecture_code": 28,
    "city": "神戸市東灘区",
    "city_kana": "コウベシヒガシナダク",
    "town": "住吉本町",
    "town_kana": "スミヨシホンマチ",
    "street": null,
    "office_name": null,
    "office_name_kana": null
  },
  "0052": {
    "postcode": "6580052",
    "prefecture": "兵庫県",
    "prefecture_kana": "ヒョウゴケン",
    "prefecture_code": 28,
    "city": "神戸市東灘区",
    "city_kana": "コウベシヒガシナダク",
    "town": "住吉東町",
    "town_kana": "スミヨシヒガシマチ",
    "street": null,
    "office_name": null,
    "office_name_kana": null
  },
  "0053": {
    "postcode": "6580053",
    "prefecture": "兵庫県",
    "prefecture_kana": "ヒョウゴケン",
    "prefecture_code": 28,
    "city": "神戸市東灘区",
    "city_kana": "コウベシヒガシナダク",
    "town": "住吉宮町",
    "town_kana": "スミヨシミヤマチ",
    "street": null,
    "office_name": null,
    "office_name_kana": null
  },
  "0054": {
    "postcode": "6580054",
    "prefecture": "兵庫県",
    "prefecture_kana": "ヒョウゴケン",
    "prefecture_code": 28,
    "city": "神戸市東灘区",
    "city_kana": "コウベシヒガシナダク",
    "town": "御影中町",
    "town_kana": "ミカゲナカマチ",
    "street": null,
    "office_name": null,
    "office_name_kana": null
  },
  "0061": {
    "postcode": "6580061",
    "prefecture": "兵庫県",
    "prefecture_kana": "ヒョウゴケン",
    "prefecture_code": 28,
    "city": "神戸市東灘区",
    "city_kana": "コウベシヒガシナダク",
    "town": "本山町田中",
    "town_kana": "モトヤマチョウタナカ",
    "street": null,
    "office_name": null,
    "office_name_kana": null
  },
  "0062": {
    "postcode": "6580062",
    "prefecture": "兵庫県",
    "prefecture_kana": "ヒョウゴケン",
    "prefecture_code": 28,
    "city": "神戸市東灘区",
    "city_kana": "コウベシヒガシナダク",
    "town": "住吉台",
    "town_kana": "スミヨシダイ",
    "street": null,
    "office_name": null,
    "office_name_kana": null
  },
  "0063": {
    "postcode": "6580063",
    "prefecture": "兵庫県",
    "prefecture_kana": "ヒョウゴケン",
    "prefecture_code": 28,
    "city": "神戸市東灘区",
    "city_kana": "コウベシヒガシナダク",
    "town": "住吉山手",
    "town_kana": "スミヨシヤマテ",
    "street": null,
    "office_name": null,
    "office_name_kana": null
  },
  "0064": {
    "postcode": "6580064",
    "prefecture": "兵庫県",
    "prefecture_kana": "ヒョウゴケン",
    "prefecture_code": 28,
    "city": "神戸市東灘区",
    "city_kana": "コウベシヒガシナダク",
    "town": "鴨子ケ原",
    "town_kana": "カモコガハラ",
    "street": null,
    "office_name": null,
    "office_name_kana": null
  },
  "0065": {
    "postcode": "6580065",
    "prefecture": "兵庫県",
    "prefecture_kana": "ヒョウゴケン",
    "prefecture_code": 28,
    "city": "神戸市東灘区",
    "city_kana": "コウベシヒガシナダク",
    "town": "御影山手",
    "town_kana": "ミカゲヤマテ",
    "street": null,
    "office_name": null,
    "office_name_kana": null
  },
  "0066": {
    "postcode": "6580066",
    "prefecture": "兵庫県",
    "prefecture_kana": "ヒョウゴケン",
    "prefecture_code": 28,
    "city": "神戸市東灘区",
    "city_kana": "コウベシヒガシナダク",
    "town": "渦森台",
    "town_kana": "ウズモリダイ",
    "street": null,
    "office_name": null,
    "office_name_kana": null
  },
  "0071": {
    "postcode": "6580071",
    "prefecture": "兵庫県",
    "prefecture_kana": "ヒョウゴケン",
    "prefecture_code": 28,
    "city": "神戸市東灘区",
    "city_kana": "コウベシヒガシナダク",
    "town": "本山町岡本",
    "town_kana": "モトヤマチョウオカモト",
    "street": null,
    "office_name": null,
    "office_name_kana": null
  },
  "0072": {
    "postcode": "6580072",
    "prefecture": "兵庫県",
    "prefecture_kana": "ヒョウゴケン",
    "prefecture_code": 28,
    "city": "神戸市東灘区",
    "city_kana": "コウベシヒガシナダク",
    "town": "岡本",
    "town_kana": "オカモト",
    "street": null,
    "office_name": null,
    "office_name_kana": null
  },
  "0073": {
    "postcode": "6580073",
    "prefecture": "兵庫県",
    "prefecture_kana": "ヒョウゴケン",
    "prefecture_code": 28,
    "city": "神戸市東灘区",
    "city_kana": "コウベシヒガシナダク",
    "town": "西岡本",
    "town_kana": "ニシオカモト",
    "street": null,
    "office_name": null,
    "office_name_kana": null
  },
  "0081": {
    "postcode": "6580081",
    "prefecture": "兵庫県",
    "prefecture_kana": "ヒョウゴケン",
    "prefecture_code": 28,
    "city": "神戸市東灘区",
    "city_kana": "コウベシヒガシナダク",
    "town": "田中町",
    "town_kana": "タナカチョウ",
    "street": null,
    "office_name": null,
    "office_name_kana": null
  },
  "0082": {
    "postcode": "6580082",
    "prefecture": "兵庫県",
    "prefecture_kana": "ヒョウゴケン",
    "prefecture_code": 28,
    "city": "神戸市東灘区",
    "city_kana": "コウベシヒガシナダク",
    "town": "魚崎北町",
    "town_kana": "ウオザキキタマチ",
    "street": null,
    "office_name": null,
    "office_name_kana": null
  },
  "0083": {
    "postcode": "6580083",
    "prefecture": "兵庫県",
    "prefecture_kana": "ヒョウゴケン",
    "prefecture_code": 28,
    "city": "神戸市東灘区",
    "city_kana": "コウベシヒガシナダク",
    "town": "魚崎中町",
    "town_kana": "ウオザキナカマチ",
    "street": null,
    "office_name": null,
    "office_name_kana": null
  },
  "0084": {
    "postcode": "6580084",
    "prefecture": "兵庫県",
    "prefecture_kana": "ヒョウゴケン",
    "prefecture_code": 28,
    "city": "神戸市東灘区",
    "city_kana": "コウベシヒガシナダク",
    "town": "甲南町",
    "town_kana": "コウナンチョウ",
    "street": null,
    "office_name": null,
    "office_name_kana": null
  },
  "8501": {
    "postcode": "6588501",
    "prefecture": "兵庫県",
    "prefecture_kana": "ヒョウゴケン",
    "prefecture_code": 28,
    "city": "神戸市東灘区",
    "city_kana": "コウベシヒガシナダク",
    "town": "岡本",
    "town_kana": "オカモト",
    "street": "８丁目９−１",
    "office_name": "甲南学園",
    "office_name_kana": "コウナンガクエン"
  },
  "8555": {
    "postcode": "6588555",
    "prefecture": "兵庫県",
    "prefecture_kana": "ヒョウゴケン",
    "prefecture_code": 28,
    "city": "神戸市東灘区",
    "city_kana": "コウベシヒガシナダク",
    "town": "住吉本町",
    "town_kana": "スミヨシホンマチ",
    "street": "１丁目３−１９",
    "office_name": "生活協同組合　コープこうべ",
    "office_name_kana": "セイカツキヨウドウクミアイ コ-プコウベ"
  },
  "8558": {
    "postcode": "6588558",
    "prefecture": "兵庫県",
    "prefecture_kana": "ヒョウゴケン",
    "prefecture_code": 28,
    "city": "神戸市東灘区",
    "city_kana": "コウベシヒガシナダク",
    "town": "本山北町",
    "town_kana": "モトヤマキタマチ",
    "street": "４丁目１９−１",
    "office_name": "神戸薬科大学",
    "office_name_kana": "コウベヤツカダイガク"
  },
  "8570": {
    "postcode": "6588570",
    "prefecture": "兵庫県",
    "prefecture_kana": "ヒョウゴケン",
    "prefecture_code": 28,
    "city": "神戸市東灘区",
    "city_kana": "コウベシヒガシナダク",
    "town": "住吉東町",
    "town_kana": "スミヨシヒガシマチ",
    "street": "５丁目２−１",
    "office_name": "東灘区役所",
    "office_name_kana": "ヒガシナダクヤクシヨ"
  }
}