{
  "0001": {
    "postcode": "6610001",
    "prefecture": "兵庫県",
    "prefecture_kana": "ヒョウゴケン",
    "prefecture_code": 28,
    "city": "尼崎市",
    "city_kana": "アマガサキシ",
    "town": "塚口本町",
    "town_kana": "ツカグチホンマチ",
    "street": null,
    "office_name": null,
    "office_name_kana": null
  },
  "0002": {
    "postcode": "6610002",
    "prefecture": "兵庫県",
    "prefecture_kana": "ヒョウゴケン",
    "prefecture_code": 28,
    "city": "尼崎市",
    "city_kana": "アマガサキシ",
    "town": "塚口町",
    "town_kana": "ツカグチチョウ",
    "street": null,
    "office_name": null,
    "office_name_kana": null
  },
  "0003": {
    "postcode": "6610003",
    "prefecture": "兵庫県",
    "prefecture_kana": "ヒョウゴケン",
    "prefecture_code": 28,
    "city": "尼崎市",
    "city_kana": "アマガサキシ",
    "town": "富松町",
    "town_kana": "トマツチョウ",
    "street": null,
    "office_name": null,
    "office_name_kana": null
  },
  "0011": {
    "postcode": "6610011",
    "prefecture": "兵庫県",
    "prefecture_kana": "ヒョウゴケン",
    "prefecture_code": 28,
    "city": "尼崎市",
    "city_kana": "アマガサキシ",
    "town": "東塚口町",
    "town_kana": "ヒガシツカグチチョウ",
    "street": null,
    "office_name": null,
    "office_name_kana": null
  },
  "0012": {
    "postcode": "6610012",
    "prefecture": "兵庫県",
    "prefecture_kana": "ヒョウゴケン",
    "prefecture_code": 28,
    "city": "尼崎市",
    "city_kana": "アマガサキシ",
    "town": "南塚口町",
    "town_kana": "ミナミツカグチチョウ",
    "street": null,
    "office_name": null,
    "office_name_kana": null
  },
  "0013": {
    "postcode": "6610013",
    "prefecture": "兵庫県",
    "prefecture_kana": "ヒョウゴケン",
    "prefecture_code": 28,
    "city": "尼崎市",
    "city_kana": "アマガサキシ",
    "town": "栗山町",
    "town_kana": "クリヤマチョウ",
    "street": null,
    "office_name": null,
    "office_name_kana": null
  },
  "0014": {
    "postcode": "6610014",
    "prefecture": "兵庫県",
    "prefecture_kana": "ヒョウゴケン",
    "prefecture_code": 28,
    "city": "尼崎市",
    "city_kana": "アマガサキシ",
    "town": "上ノ島町",
    "town_kana": "カミノシマチョウ",
    "street": null,
    "office_name": null,
    "office_name_kana": null
  },
  "0021": {
    "postcode": "6610021",
    "prefecture": "兵庫県",
    "prefecture_kana": "ヒョウゴケン",
    "prefecture_code": 28,
    "city": "尼崎市",
    "city_kana": "アマガサキシ",
    "town": "名神町",
    "town_kana": "メイシンチョウ",
    "street": null,
    "office_name": null,
    "office_name_kana": null
  },
  "0022": {
    "postcode": "6610022",
    "prefecture": "兵庫県",
    "prefecture_kana": "ヒョウゴケン",
    "prefecture_code": 28,
    "city": "尼崎市",
    "city_kana": "アマガサキシ",
    "town": "尾浜町",
    "town_kana": "オハマチョウ",
    "street": null,
    "office_name": null,
    "office_name_kana": null
  },
  "0023": {
    "postcode": "6610023",
    "prefecture": "兵庫県",
    "prefecture_kana": "ヒョウゴケン",
    "prefecture_code": 28,
    "city": "尼崎市",
    "city_kana": "アマガサキシ",
    "town": "大西町",
    "town_kana": "オオニシチョウ",
    "street": null,
    "office_name": null,
    "office_name_kana": null
  },
  "0024": {
    "postcode": "6610024",
    "prefecture": "兵庫県",
    "prefecture_kana": "ヒョウゴケン",
    "prefecture_code": 28,
    "city": "尼崎市",
    "city_kana": "アマガサキシ",
    "town": "三反田町",
    "town_kana": "サンタンダチョウ",
    "street": null,
    "office_name": null,
    "office_name_kana": null
  },
  "0025": {
    "postcode": "6610025",
    "prefecture": "兵庫県",
    "prefecture_kana": "ヒョウゴケン",
    "prefecture_code": 28,
    "city": "尼崎市",
    "city_kana": "アマガサキシ",
    "town": "立花町",
    "town_kana": "タチバナチョウ",
    "street": null,
    "office_name": null,
    "office_name_kana": null
  },
  "0026": {
    "postcode": "6610026",
    "prefecture": "兵庫県",
    "prefecture_kana": "ヒョウゴケン",
    "prefecture_code": 28,
    "city": "尼崎市",
    "city_kana": "アマガサキシ",
    "town": "水堂町",
    "town_kana": "ミズドウチョウ",
    "street": null,
    "office_name": null,
    "office_name_kana": null
  },
  "0031": {
    "postcode": "6610031",
    "prefecture": "兵庫県",
    "prefecture_kana": "ヒョウゴケン",
    "prefecture_code": 28,
    "city": "尼崎市",
    "city_kana": "アマガサキシ",
    "town": "武庫之荘本町",
    "town_kana": "ムコノソウホンマチ",
    "street": null,
    "office_name": null,
    "office_name_kana": null
  },
  "0032": {
    "postcode": "6610032",
    "prefecture": "兵庫県",
    "prefecture_kana": "ヒョウゴケン",
    "prefecture_code": 28,
    "city": "尼崎市",
    "city_kana": "アマガサキシ",
    "town": "武庫之荘東",
    "town_kana": "ムコノソウヒガシ",
    "street": null,
    "office_name": null,
    "office_name_kana": null
  },
  "0033": {
    "postcode": "6610033",
    "prefecture": "兵庫県",
    "prefecture_kana": "ヒョウゴケン",
    "prefecture_code": 28,
    "city": "尼崎市",
    "city_kana": "アマガサキシ",
    "town": "南武庫之荘",
    "town_kana": "ミナミムコノソウ",
    "street": null,
    "office_name": null,
    "office_name_kana": null
  },
  "0034": {
    "postcode": "6610034",
    "prefecture": "兵庫県",
    "prefecture_kana": "ヒョウゴケン",
    "prefecture_code": 28,
    "city": "尼崎市",
    "city_kana": "アマガサキシ",
    "town": "武庫之荘西",
    "town_kana": "ムコノソウニシ",
    "street": null,
    "office_name": null,
    "office_name_kana": null
  },
  "0035": {
    "postcode": "6610035",
    "prefecture": "兵庫県",
    "prefecture_kana": "ヒョウゴケン",
    "prefecture_code": 28,
    "city": "尼崎市",
    "city_kana": "アマガサキシ",
    "town": "武庫之荘",
    "town_kana": "ムコノソウ",
    "street": null,
    "office_name": null,
    "office_name_kana": null
  },
  "0041": {
    "postcode": "6610041",
    "prefecture": "兵庫県",
    "prefecture_kana": "ヒョウゴケン",
    "prefecture_code": 28,
    "city": "尼崎市",
    "city_kana": "アマガサキシ",
    "town": "武庫の里",
    "town_kana": "ムコノサト",
    "street": null,
    "office_name": null,
    "office_name_kana": null
  },
  "0042": {
    "postcode": "6610042",
    "prefecture": "兵庫県",
    "prefecture_kana": "ヒョウゴケン",
    "prefecture_code": 28,
    "city": "尼崎市",
    "city_kana": "アマガサキシ",
    "town": "常吉",
    "town_kana": "ツネヨシ",
    "street": null,
    "office_name": null,
    "office_name_kana": null
  },
  "0043": {
    "postcode": "6610043",
    "prefecture": "兵庫県",
    "prefecture_kana": "ヒョウゴケン",
    "prefecture_code": 28,
    "city": "尼崎市",
    "city_kana": "アマガサキシ",
    "town": "武庫元町",
    "town_kana": "ムコモトマチ",
    "street": null,
    "office_name": null,
    "office_name_kana": null
  },
  "0044": {
    "postcode": "6610044",
    "prefecture": "兵庫県",
    "prefecture_kana": "ヒョウゴケン",
    "prefecture_code": 28,
    "city": "尼崎市",
    "city_kana": "アマガサキシ",
    "town": "武庫町",
    "town_kana": "ムコチョウ",
    "street": null,
    "office_name": null,
    "office_name_kana": null
  },
  "0045": {
    "postcode": "6610045",
    "prefecture": "兵庫県",
    "prefecture_kana": "ヒョウゴケン",
    "prefecture_code": 28,
    "city": "尼崎市",
    "city_kana": "アマガサキシ",
    "town": "武庫豊町",
    "town_kana": "ムコユタカマチ",
    "street": null,
    "office_name": null,
    "office_name_kana": null
  },
  "0046": {
    "postcode": "6610046",
    "prefecture": "兵庫県",
    "prefecture_kana": "ヒョウゴケン",
    "prefecture_code": 28,
    "city": "尼崎市",
    "city_kana": "アマガサキシ",
    "town": "常松",
    "town_kana": "ツネマツ",
    "street": null,
    "office_name": null,
    "office_name_kana": null
  },
  "0047": {
    "postcode": "6610047",
    "prefecture": "兵庫県",
    "prefecture_kana": "ヒョウゴケン",
    "prefecture_code": 28,
    "city": "尼崎市",
    "city_kana": "アマガサキシ",
    "town": "西昆陽",
    "town_kana": "ニシコヤ",
    "street": null,
    "office_name": null,
    "office_name_kana": null
  },
  "0951": {
    "postcode": "6610951",
    "prefecture": "兵庫県",
    "prefecture_kana": "ヒョウゴケン",
    "prefecture_code": 28,
    "city": "尼崎市",
    "city_kana": "アマガサキシ",
    "town": "田能",
    "town_kana": "タノウ",
    "street": null,
    "office_name": null,
    "office_name_kana": null
  },
  "0952": {
    "postcode": "6610952",
    "prefecture": "兵庫県",
    "prefecture_kana": "ヒョウゴケン",
    "prefecture_code": 28,
    "city": "尼崎市",
    "city_kana": "アマガサキシ",
    "town": "椎堂",
    "town_kana": "シドウ",
    "street": null,
    "office_name": null,
    "office_name_kana": null
  },
  "0953": {
    "postcode": "6610953",
    "prefecture": "兵庫県",
    "prefecture_kana": "ヒョウゴケン",
    "prefecture_code": 28,
    "city": "尼崎市",
    "city_kana": "アマガサキシ",
    "town": "東園田町",
    "town_kana": "ヒガシソノダチョウ",
    "street": null,
    "office_name": null,
    "office_name_kana": null
  },
  "0961": {
    "postcode": "6610961",
    "prefecture": "兵庫県",
    "prefecture_kana": "ヒョウゴケン",
    "prefecture_code": 28,
    "city": "尼崎市",
    "city_kana": "アマガサキシ",
    "town": "戸ノ内町",
    "town_kana": "トノウチチョウ",
    "street": null,
    "office_name": null,
    "office_name_kana": null
  },
  "0962": {
    "postcode": "6610962",
    "prefecture": "兵庫県",
    "prefecture_kana": "ヒョウゴケン",
    "prefecture_code": 28,
    "city": "尼崎市",
    "city_kana": "アマガサキシ",
    "town": "額田町",
    "town_kana": "ヌカタチョウ",
    "street": null,
    "office_name": null,
    "office_name_kana": null
  },
  "0963": {
    "postcode": "6610963",
    "prefecture": "兵庫県",
    "prefecture_kana": "ヒョウゴケン",
    "prefecture_code": 28,
    "city": "尼崎市",
    "city_kana": "アマガサキシ",
    "town": "高田町",
    "town_kana": "タカタチョウ",
    "street": null,
    "office_name": null,
    "office_name_kana": null
  },
  "0964": {
    "postcode": "6610964",
    "prefecture": "兵庫県",
    "prefecture_kana": "ヒョウゴケン",
    "prefecture_code": 28,
    "city": "尼崎市",
    "city_kana": "アマガサキシ",
    "town": "神崎町",
    "town_kana": "カンザキチョウ",
    "street": null,
    "office_name": null,
    "office_name_kana": null
  },
  "0965": {
    "postcode": "6610965",
    "prefecture": "兵庫県",
    "prefecture_kana": "ヒョウゴケン",
    "prefecture_code": 28,
    "city": "尼崎市",
    "city_kana": "アマガサキシ",
    "town": "次屋",
    "town_kana": "ツギヤ",
    "street": null,
    "office_name": null,
    "office_name_kana": null
  },
  "0966": {
    "postcode": "6610966",
    "prefecture": "兵庫県",
    "prefecture_kana": "ヒョウゴケン",
    "prefecture_code": 28,
    "city": "尼崎市",
    "city_kana": "アマガサキシ",
    "town": "西川",
    "town_kana": "ニシカワ",
    "street": null,
    "office_name": null,
    "office_name_kana": null
  },
  "0967": {
    "postcode": "6610967",
    "prefecture": "兵庫県",
    "prefecture_kana": "ヒョウゴケン",
    "prefecture_code": 28,
    "city": "尼崎市",
    "city_kana": "アマガサキシ",
    "town": "浜",
    "town_kana": "ハマ",
    "street": null,
    "office_name": null,
    "office_name_kana": null
  },
  "0970": {
    "postcode": "6610970",
    "prefecture": "兵庫県",
    "prefecture_kana": "ヒョウゴケン",
    "prefecture_code": 28,
    "city": "尼崎市",
    "city_kana": "アマガサキシ",
    "town": "弥生ケ丘町",
    "town_kana": "ヤヨイガオカチョウ",
    "street": null,
    "office_name": null,
    "office_name_kana": null
  },
  "0971": {
    "postcode": "6610971",
    "prefecture": "兵庫県",
    "prefecture_kana": "ヒョウゴケン",
    "prefecture_code": 28,
    "city": "尼崎市",
    "city_kana": "アマガサキシ",
    "town": "瓦宮",
    "town_kana": "カワラノミヤ",
    "street": null,
    "office_name": null,
    "office_name_kana": null
  },
  "0972": {
    "postcode": "6610972",
    "prefecture": "兵庫県",
    "prefecture_kana": "ヒョウゴケン",
    "prefecture_code": 28,
    "city": "尼崎市",
    "city_kana": "アマガサキシ",
    "town": "小中島",
    "town_kana": "コナカジマ",
    "street": null,
    "office_name": null,
    "office_name_kana": null
  },
  "0973": {
    "postcode": "6610973",
    "prefecture": "兵庫県",
    "prefecture_kana": "ヒョウゴケン",
    "prefecture_code": 28,
    "city": "尼崎市",
    "city_kana": "アマガサキシ",
    "town": "善法寺町",
    "town_kana": "ゼンポウジチョウ",
    "street": null,
    "office_name": null,
    "office_name_kana": null
  },
  "0974": {
    "postcode": "6610974",
    "prefecture": "兵庫県",
    "prefecture_kana": "ヒョウゴケン",
    "prefecture_code": 28,
    "city": "尼崎市",
    "city_kana": "アマガサキシ",
    "town": "若王寺",
    "town_kana": "ナコウジ",
    "street": null,
    "office_name": null,
    "office_name_kana": null
  },
  "0975": {
    "postcode": "6610975",
    "prefecture": "兵庫県",
    "prefecture_kana": "ヒョウゴケン",
    "prefecture_code": 28,
    "city": "尼崎市",
    "city_kana": "アマガサキシ",
    "town": "下坂部",
    "town_kana": "シモサカベ",
    "street": null,
    "office_name": null,
    "office_name_kana": null
  },
  "0976": {
    "postcode": "6610976",
    "prefecture": "兵庫県",
    "prefecture_kana": "ヒョウゴケン",
    "prefecture_code": 28,
    "city": "尼崎市",
    "city_kana": "アマガサキシ",
    "town": "潮江",
    "town_kana": "シオエ",
    "street": null,
    "office_name": null,
    "office_name_kana": null
  },
  "0977": {
    "postcode": "6610977",
    "prefecture": "兵庫県",
    "prefecture_kana": "ヒョウゴケン",
    "prefecture_code": 28,
    "city": "尼崎市",
    "city_kana": "アマガサキシ",
    "town": "久々知",
    "town_kana": "ククチ",
    "street": null,
    "office_name": null,
    "office_name_kana": null
  },
  "0978": {
    "postcode": "6610978",
    "prefecture": "兵庫県",
    "prefecture_kana": "ヒョウゴケン",
    "prefecture_code": 28,
    "city": "尼崎市",
    "city_kana": "アマガサキシ",
    "town": "久々知西町",
    "town_kana": "ククチニシマチ",
    "street": null,
    "office_name": null,
    "office_name_kana": null
  },
  "0979": {
    "postcode": "6610979",
    "prefecture": "兵庫県",
    "prefecture_kana": "ヒョウゴケン",
    "prefecture_code": 28,
    "city": "尼崎市",
    "city_kana": "アマガサキシ",
    "town": "上坂部",
    "town_kana": "カミサカベ",
    "street": null,
    "office_name": null,
    "office_name_kana": null
  },
  "0981": {
    "postcode": "6610981",
    "prefecture": "兵庫県",
    "prefecture_kana": "ヒョウゴケン",
    "prefecture_code": 28,
    "city": "尼崎市",
    "city_kana": "アマガサキシ",
    "town": "猪名寺",
    "town_kana": "イナデラ",
    "street": null,
    "office_name": null,
    "office_name_kana": null
  },
  "0982": {
    "postcode": "6610982",
    "prefecture": "兵庫県",
    "prefecture_kana": "ヒョウゴケン",
    "prefecture_code": 28,
    "city": "尼崎市",
    "city_kana": "アマガサキシ",
    "town": "食満",
    "town_kana": "ケマ",
    "street": null,
    "office_name": null,
    "office_name_kana": null
  },
  "0983": {
    "postcode": "6610983",
    "prefecture": "兵庫県",
    "prefecture_kana": "ヒョウゴケン",
    "prefecture_code": 28,
    "city": "尼崎市",
    "city_kana": "アマガサキシ",
    "town": "口田中",
    "town_kana": "クチタナカ",
    "street": null,
    "office_name": null,
    "office_name_kana": null
  },
  "0984": {
    "postcode": "6610984",
    "prefecture": "兵庫県",
    "prefecture_kana": "ヒョウゴケン",
    "prefecture_code": 28,
    "city": "尼崎市",
    "city_kana": "アマガサキシ",
    "town": "御園",
    "town_kana": "ミソノ",
    "street": null,
    "office_name": null,
    "office_name_kana": null
  },
  "0985": {
    "postcode": "6610985",
    "prefecture": "兵庫県",
    "prefecture_kana": "ヒョウゴケン",
    "prefecture_code": 28,
    "city": "尼崎市",
    "city_kana": "アマガサキシ",
    "town": "南清水",
    "town_kana": "ミナミシミズ",
    "street": null,
    "office_name": null,
    "office_name_kana": null
  },
  "8501": {
    "postcode": "6618501",
    "prefecture": "兵庫県",
    "prefecture_kana": "ヒョウゴケン",
    "prefecture_code": 28,
    "city": "尼崎市",
    "city_kana": "アマガサキシ",
    "town": "下坂部",
    "town_kana": "シモサカベ",
    "street": "３丁目４−１",
    "office_name": "株式会社　日立プラントテクノロジー尼崎事業所",
    "office_name_kana": "カブシキガイシヤ ヒタチプラントテクノロジ-アマガサキジギヨウシヨ"
  },
  "8510": {
    "postcode": "6618510",
    "prefecture": "兵庫県",
    "prefecture_kana": "ヒョウゴケン",
    "prefecture_code": 28,
    "city": "尼崎市",
    "city_kana": "アマガサキシ",
    "town": "潮江",
    "town_kana": "シオエ",
    "street": "４丁目２−３０",
    "office_name": "日本スピンドル製造　株式会社",
    "office_name_kana": "ニホンスピンドルセイゾウ カブシキカイシヤ"
  },
  "8511": {
    "postcode": "6618511",
    "prefecture": "兵庫県",
    "prefecture_kana": "ヒョウゴケン",
    "prefecture_code": 28,
    "city": "尼崎市",
    "city_kana": "アマガサキシ",
    "town": "南塚口町",
    "town_kana": "ミナミツカグチチョウ",
    "street": "６丁目１０−７３",
    "office_name": "神東塗料　株式会社",
    "office_name_kana": "シントウトリヨウ カブシキカイシヤ"
  },
  "8520": {
    "postcode": "6618520",
    "prefecture": "兵庫県",
    "prefecture_kana": "ヒョウゴケン",
    "prefecture_code": 28,
    "city": "尼崎市",
    "city_kana": "アマガサキシ",
    "town": "南塚口町",
    "town_kana": "ミナミツカグチチョウ",
    "street": "７丁目２９−１",
    "office_name": "園田学園女子大学・短期大学部",
    "office_name_kana": "ソノダガクエンジヨシダイガク・タンキダイガクブ"
  },
  "8530": {
    "postcode": "6618530",
    "prefecture": "兵庫県",
    "prefecture_kana": "ヒョウゴケン",
    "prefecture_code": 28,
    "city": "尼崎市",
    "city_kana": "アマガサキシ",
    "town": "若王寺",
    "town_kana": "ナコウジ",
    "street": "２丁目１８−１",
    "office_name": "学校法人　英知大学",
    "office_name_kana": "ガツコウホウジン エイチダイガク"
  },
  "8550": {
    "postcode": "6618550",
    "prefecture": "兵庫県",
    "prefecture_kana": "ヒョウゴケン",
    "prefecture_code": 28,
    "city": "尼崎市",
    "city_kana": "アマガサキシ",
    "town": "猪名寺",
    "town_kana": "イナデラ",
    "street": "３丁目５−１３",
    "office_name": "技研化成　株式会社",
    "office_name_kana": "ギケンカセイ カブシキカイシヤ"
  },
  "8555": {
    "postcode": "6618555",
    "prefecture": "兵庫県",
    "prefecture_kana": "ヒョウゴケン",
    "prefecture_code": 28,
    "city": "尼崎市",
    "city_kana": "アマガサキシ",
    "town": "神崎町",
    "town_kana": "カンザキチョウ",
    "street": "３３−１",
    "office_name": "関西ペイント　株式会社　尼崎工場",
    "office_name_kana": "カンサイペイント カブシキカイシヤ アマガサキコウジヨウ"
  },
  "8558": {
    "postcode": "6618558",
    "prefecture": "兵庫県",
    "prefecture_kana": "ヒョウゴケン",
    "prefecture_code": 28,
    "city": "尼崎市",
    "city_kana": "アマガサキシ",
    "town": "南塚口町",
    "town_kana": "ミナミツカグチチョウ",
    "street": "４丁目３−２３",
    "office_name": "ジャパン・エア・ガシズ　株式会社",
    "office_name_kana": "ジヤパン・エア・ガシズ カブシキガイシヤ"
  },
  "8564": {
    "postcode": "6618564",
    "prefecture": "兵庫県",
    "prefecture_kana": "ヒョウゴケン",
    "prefecture_code": 28,
    "city": "尼崎市",
    "city_kana": "アマガサキシ",
    "town": "潮江",
    "town_kana": "シオエ",
    "street": "５−８−１１",
    "office_name": "トーヨーケム　株式会社　尼崎工場",
    "office_name_kana": "ト-ヨ-ケム カブシキカイシヤ アマガサキコウジヨウ"
  },
  "8567": {
    "postcode": "6618567",
    "prefecture": "兵庫県",
    "prefecture_kana": "ヒョウゴケン",
    "prefecture_code": 28,
    "city": "尼崎市",
    "city_kana": "アマガサキシ",
    "town": "浜",
    "town_kana": "ハマ",
    "street": "１丁目１−１",
    "office_name": "株式会社　クボタ　本社阪神事務所",
    "office_name_kana": "カブシキガイシヤ クボタ ホンシヤハンシンジムシヨ"
  },
  "8577": {
    "postcode": "6618577",
    "prefecture": "兵庫県",
    "prefecture_kana": "ヒョウゴケン",
    "prefecture_code": 28,
    "city": "尼崎市",
    "city_kana": "アマガサキシ",
    "town": "潮江",
    "town_kana": "シオエ",
    "street": "１丁目３番２８号",
    "office_name": "株式会社　アシックス　関西支社",
    "office_name_kana": "カブシキガイシヤ アシツクス カンサイシシヤ"
  },
  "8585": {
    "postcode": "6618585",
    "prefecture": "兵庫県",
    "prefecture_kana": "ヒョウゴケン",
    "prefecture_code": 28,
    "city": "尼崎市",
    "city_kana": "アマガサキシ",
    "town": "猪名寺",
    "town_kana": "イナデラ",
    "street": "２丁目１９−１",
    "office_name": "第一電工　株式会社　尼崎工場",
    "office_name_kana": "ダイイチデンコウ カブシキカイシヤ アマガサキコウジヨウ"
  },
  "8588": {
    "postcode": "6618588",
    "prefecture": "兵庫県",
    "prefecture_kana": "ヒョウゴケン",
    "prefecture_code": 28,
    "city": "尼崎市",
    "city_kana": "アマガサキシ",
    "town": "東塚口町",
    "town_kana": "ヒガシツカグチチョウ",
    "street": "２丁目３番４７号",
    "office_name": "住友ベークライト　株式会社　尼崎工場",
    "office_name_kana": "スミトモベ-クライト カブシキガイシヤ アマガサキコウジヨウ"
  },
  "8661": {
    "postcode": "6618661",
    "prefecture": "兵庫県",
    "prefecture_kana": "ヒョウゴケン",
    "prefecture_code": 28,
    "city": "尼崎市",
    "city_kana": "アマガサキシ",
    "town": "塚口本町",
    "town_kana": "ツカグチホンマチ",
    "street": "８丁目１−１（尼崎北郵便局私書箱第２号）",
    "office_name": "三菱電機　株式会社",
    "office_name_kana": "ミツビシデンキ カブシキガイシヤ"
  }
}