{
  "0000": {
    "postcode": "6620000",
    "prefecture": "兵庫県",
    "prefecture_kana": "ヒョウゴケン",
    "prefecture_code": 28,
    "city": "西宮市",
    "city_kana": "ニシノミヤシ",
    "town": "",
    "town_kana": "",
    "street": null,
    "office_name": null,
    "office_name_kana": null
  },
  "0001": {
    "postcode": "6620001",
    "prefecture": "兵庫県",
    "prefecture_kana": "ヒョウゴケン",
    "prefecture_code": 28,
    "city": "西宮市",
    "city_kana": "ニシノミヤシ",
    "town": "甲山町",
    "town_kana": "カブトヤマチョウ",
    "street": null,
    "office_name": null,
    "office_name_kana": null
  },
  "0002": {
    "postcode": "6620002",
    "prefecture": "兵庫県",
    "prefecture_kana": "ヒョウゴケン",
    "prefecture_code": 28,
    "city": "西宮市",
    "city_kana": "ニシノミヤシ",
    "town": "鷲林寺南町",
    "town_kana": "ジュウリンジミナミマチ",
    "street": null,
    "office_name": null,
    "office_name_kana": null
  },
  "0003": {
    "postcode": "6620003",
    "prefecture": "兵庫県",
    "prefecture_kana": "ヒョウゴケン",
    "prefecture_code": 28,
    "city": "西宮市",
    "city_kana": "ニシノミヤシ",
    "town": "鷲林寺町",
    "town_kana": "ジュウリンジチョウ",
    "street": null,
    "office_name": null,
    "office_name_kana": null
  },
  "0004": {
    "postcode": "6620004",
    "prefecture": "兵庫県",
    "prefecture_kana": "ヒョウゴケン",
    "prefecture_code": 28,
    "city": "西宮市",
    "city_kana": "ニシノミヤシ",
    "town": "鷲林寺",
    "town_kana": "ジュウリンジ",
    "street": null,
    "office_name": null,
    "office_name_kana": null
  },
  "0005": {
    "postcode": "6620005",
    "prefecture": "兵庫県",
    "prefecture_kana": "ヒョウゴケン",
    "prefecture_code": 28,
    "city": "西宮市",
    "city_kana": "ニシノミヤシ",
    "town": "湯元町",
    "town_kana": "ユノモトチョウ",
    "street": null,
    "office_name": null,
    "office_name_kana": null
  },
  "0006": {
    "postcode": "6620006",
    "prefecture": "兵庫県",
    "prefecture_kana": "ヒョウゴケン",
    "prefecture_code": 28,
    "city": "西宮市",
    "city_kana": "ニシノミヤシ",
    "town": "越水社家郷山",
    "town_kana": "コシミズシャケゴウヤマ",
    "street": null,
    "office_name": null,
    "office_name_kana": null
  },
  "0011": {
    "postcode": "6620011",
    "prefecture": "兵庫県",
    "prefecture_kana": "ヒョウゴケン",
    "prefecture_code": 28,
    "city": "西宮市",
    "city_kana": "ニシノミヤシ",
    "town": "甲陽園目神山町",
    "town_kana": "コウヨウエンメガミヤマチョウ",
    "street": null,
    "office_name": null,
    "office_name_kana": null
  },
  "0012": {
    "postcode": "6620012",
    "prefecture": "兵庫県",
    "prefecture_kana": "ヒョウゴケン",
    "prefecture_code": 28,
    "city": "西宮市",
    "city_kana": "ニシノミヤシ",
    "town": "甲陽園東山町",
    "town_kana": "コウヨウエンヒガシヤマチョウ",
    "street": null,
    "office_name": null,
    "office_name_kana": null
  },
  "0013": {
    "postcode": "6620013",
    "prefecture": "兵庫県",
    "prefecture_kana": "ヒョウゴケン",
    "prefecture_code": 28,
    "city": "西宮市",
    "city_kana": "ニシノミヤシ",
    "town": "新甲陽町",
    "town_kana": "シンコウヨウチョウ",
    "street": null,
    "office_name": null,
    "office_name_kana": null
  },
  "0014": {
    "postcode": "6620014",
    "prefecture": "兵庫県",
    "prefecture_kana": "ヒョウゴケン",
    "prefecture_code": 28,
    "city": "西宮市",
    "city_kana": "ニシノミヤシ",
    "town": "甲陽園日之出町",
    "town_kana": "コウヨウエンヒノデチョウ",
    "street": null,
    "office_name": null,
    "office_name_kana": null
  },
  "0015": {
    "postcode": "6620015",
    "prefecture": "兵庫県",
    "prefecture_kana": "ヒョウゴケン",
    "prefecture_code": 28,
    "city": "西宮市",
    "city_kana": "ニシノミヤシ",
    "town": "甲陽園本庄町",
    "town_kana": "コウヨウエンホンジョウチョウ",
    "street": null,
    "office_name": null,
    "office_name_kana": null
  },
  "0016": {
    "postcode": "6620016",
    "prefecture": "兵庫県",
    "prefecture_kana": "ヒョウゴケン",
    "prefecture_code": 28,
    "city": "西宮市",
    "city_kana": "ニシノミヤシ",
    "town": "甲陽園若江町",
    "town_kana": "コウヨウエンワカエチョウ",
    "street": null,
    "office_name": null,
    "office_name_kana": null
  },
  "0017": {
    "postcode": "6620017",
    "prefecture": "兵庫県",
    "prefecture_kana": "ヒョウゴケン",
    "prefecture_code": 28,
    "city": "西宮市",
    "city_kana": "ニシノミヤシ",
    "town": "甲陽園西山町",
    "town_kana": "コウヨウエンニシヤマチョウ",
    "street": null,
    "office_name": null,
    "office_name_kana": null
  },
  "0018": {
    "postcode": "6620018",
    "prefecture": "兵庫県",
    "prefecture_kana": "ヒョウゴケン",
    "prefecture_code": 28,
    "city": "西宮市",
    "city_kana": "ニシノミヤシ",
    "town": "甲陽園山王町",
    "town_kana": "コウヨウエンサンノウチョウ",
    "street": null,
    "office_name": null,
    "office_name_kana": null
  },
  "0021": {
    "postcode": "6620021",
    "prefecture": "兵庫県",
    "prefecture_kana": "ヒョウゴケン",
    "prefecture_code": 28,
    "city": "西宮市",
    "city_kana": "ニシノミヤシ",
    "town": "神原",
    "town_kana": "カンバラ",
    "street": null,
    "office_name": null,
    "office_name_kana": null
  },
  "0022": {
    "postcode": "6620022",
    "prefecture": "兵庫県",
    "prefecture_kana": "ヒョウゴケン",
    "prefecture_code": 28,
    "city": "西宮市",
    "city_kana": "ニシノミヤシ",
    "town": "奥畑",
    "town_kana": "オクハタ",
    "street": null,
    "office_name": null,
    "office_name_kana": null
  },
  "0023": {
    "postcode": "6620023",
    "prefecture": "兵庫県",
    "prefecture_kana": "ヒョウゴケン",
    "prefecture_code": 28,
    "city": "西宮市",
    "city_kana": "ニシノミヤシ",
    "town": "城山",
    "town_kana": "シロヤマ",
    "street": null,
    "office_name": null,
    "office_name_kana": null
  },
  "0024": {
    "postcode": "6620024",
    "prefecture": "兵庫県",
    "prefecture_kana": "ヒョウゴケン",
    "prefecture_code": 28,
    "city": "西宮市",
    "city_kana": "ニシノミヤシ",
    "town": "名次町",
    "town_kana": "ナツギチョウ",
    "street": null,
    "office_name": null,
    "office_name_kana": null
  },
  "0025": {
    "postcode": "6620025",
    "prefecture": "兵庫県",
    "prefecture_kana": "ヒョウゴケン",
    "prefecture_code": 28,
    "city": "西宮市",
    "city_kana": "ニシノミヤシ",
    "town": "北名次町",
    "town_kana": "キタナツギチョウ",
    "street": null,
    "office_name": null,
    "office_name_kana": null
  },
  "0026": {
    "postcode": "6620026",
    "prefecture": "兵庫県",
    "prefecture_kana": "ヒョウゴケン",
    "prefecture_code": 28,
    "city": "西宮市",
    "city_kana": "ニシノミヤシ",
    "town": "獅子ケ口町",
    "town_kana": "シシガグチチョウ",
    "street": null,
    "office_name": null,
    "office_name_kana": null
  },
  "0027": {
    "postcode": "6620027",
    "prefecture": "兵庫県",
    "prefecture_kana": "ヒョウゴケン",
    "prefecture_code": 28,
    "city": "西宮市",
    "city_kana": "ニシノミヤシ",
    "town": "神園町",
    "town_kana": "カミゾノチョウ",
    "street": null,
    "office_name": null,
    "office_name_kana": null
  },
  "0031": {
    "postcode": "6620031",
    "prefecture": "兵庫県",
    "prefecture_kana": "ヒョウゴケン",
    "prefecture_code": 28,
    "city": "西宮市",
    "city_kana": "ニシノミヤシ",
    "town": "満池谷町",
    "town_kana": "マンチダニチョウ",
    "street": null,
    "office_name": null,
    "office_name_kana": null
  },
  "0032": {
    "postcode": "6620032",
    "prefecture": "兵庫県",
    "prefecture_kana": "ヒョウゴケン",
    "prefecture_code": 28,
    "city": "西宮市",
    "city_kana": "ニシノミヤシ",
    "town": "桜谷町",
    "town_kana": "サクラダニチョウ",
    "street": null,
    "office_name": null,
    "office_name_kana": null
  },
  "0033": {
    "postcode": "6620033",
    "prefecture": "兵庫県",
    "prefecture_kana": "ヒョウゴケン",
    "prefecture_code": 28,
    "city": "西宮市",
    "city_kana": "ニシノミヤシ",
    "town": "清水町",
    "town_kana": "シミズチョウ",
    "street": null,
    "office_name": null,
    "office_name_kana": null
  },
  "0034": {
    "postcode": "6620034",
    "prefecture": "兵庫県",
    "prefecture_kana": "ヒョウゴケン",
    "prefecture_code": 28,
    "city": "西宮市",
    "city_kana": "ニシノミヤシ",
    "town": "西田町",
    "town_kana": "ニシダチョウ",
    "street": null,
    "office_name": null,
    "office_name_kana": null
  },
  "0035": {
    "postcode": "6620035",
    "prefecture": "兵庫県",
    "prefecture_kana": "ヒョウゴケン",
    "prefecture_code": 28,
    "city": "西宮市",
    "city_kana": "ニシノミヤシ",
    "town": "若松町",
    "town_kana": "ワカマツチョウ",
    "street": null,
    "office_name": null,
    "office_name_kana": null
  },
  "0036": {
    "postcode": "6620036",
    "prefecture": "兵庫県",
    "prefecture_kana": "ヒョウゴケン",
    "prefecture_code": 28,
    "city": "西宮市",
    "city_kana": "ニシノミヤシ",
    "town": "大井手町",
    "town_kana": "オオイデチョウ",
    "street": null,
    "office_name": null,
    "office_name_kana": null
  },
  "0037": {
    "postcode": "6620037",
    "prefecture": "兵庫県",
    "prefecture_kana": "ヒョウゴケン",
    "prefecture_code": 28,
    "city": "西宮市",
    "city_kana": "ニシノミヤシ",
    "town": "結善町",
    "town_kana": "ケツゼンチョウ",
    "street": null,
    "office_name": null,
    "office_name_kana": null
  },
  "0038": {
    "postcode": "6620038",
    "prefecture": "兵庫県",
    "prefecture_kana": "ヒョウゴケン",
    "prefecture_code": 28,
    "city": "西宮市",
    "city_kana": "ニシノミヤシ",
    "town": "南郷町",
    "town_kana": "ナンゴウチョウ",
    "street": null,
    "office_name": null,
    "office_name_kana": null
  },
  "0041": {
    "postcode": "6620041",
    "prefecture": "兵庫県",
    "prefecture_kana": "ヒョウゴケン",
    "prefecture_code": 28,
    "city": "西宮市",
    "city_kana": "ニシノミヤシ",
    "town": "末広町",
    "town_kana": "スエヒロチョウ",
    "street": null,
    "office_name": null,
    "office_name_kana": null
  },
  "0042": {
    "postcode": "6620042",
    "prefecture": "兵庫県",
    "prefecture_kana": "ヒョウゴケン",
    "prefecture_code": 28,
    "city": "西宮市",
    "city_kana": "ニシノミヤシ",
    "town": "分銅町",
    "town_kana": "ブンドウチョウ",
    "street": null,
    "office_name": null,
    "office_name_kana": null
  },
  "0043": {
    "postcode": "6620043",
    "prefecture": "兵庫県",
    "prefecture_kana": "ヒョウゴケン",
    "prefecture_code": 28,
    "city": "西宮市",
    "city_kana": "ニシノミヤシ",
    "town": "常磐町",
    "town_kana": "トキワチョウ",
    "street": null,
    "office_name": null,
    "office_name_kana": null
  },
  "0044": {
    "postcode": "6620044",
    "prefecture": "兵庫県",
    "prefecture_kana": "ヒョウゴケン",
    "prefecture_code": 28,
    "city": "西宮市",
    "city_kana": "ニシノミヤシ",
    "town": "平松町",
    "town_kana": "ヒラマツチョウ",
    "street": null,
    "office_name": null,
    "office_name_kana": null
  },
  "0045": {
    "postcode": "6620045",
    "prefecture": "兵庫県",
    "prefecture_kana": "ヒョウゴケン",
    "prefecture_code": 28,
    "city": "西宮市",
    "city_kana": "ニシノミヤシ",
    "town": "安井町",
    "town_kana": "ヤスイチョウ",
    "street": null,
    "office_name": null,
    "office_name_kana": null
  },
  "0046": {
    "postcode": "6620046",
    "prefecture": "兵庫県",
    "prefecture_kana": "ヒョウゴケン",
    "prefecture_code": 28,
    "city": "西宮市",
    "city_kana": "ニシノミヤシ",
    "town": "千歳町",
    "town_kana": "チトセチョウ",
    "street": null,
    "office_name": null,
    "office_name_kana": null
  },
  "0047": {
    "postcode": "6620047",
    "prefecture": "兵庫県",
    "prefecture_kana": "ヒョウゴケン",
    "prefecture_code": 28,
    "city": "西宮市",
    "city_kana": "ニシノミヤシ",
    "town": "寿町",
    "town_kana": "コトブキチョウ",
    "street": null,
    "office_name": null,
    "office_name_kana": null
  },
  "0051": {
    "postcode": "6620051",
    "prefecture": "兵庫県",
    "prefecture_kana": "ヒョウゴケン",
    "prefecture_code": 28,
    "city": "西宮市",
    "city_kana": "ニシノミヤシ",
    "town": "羽衣町",
    "town_kana": "ハゴロモチョウ",
    "street": null,
    "office_name": null,
    "office_name_kana": null
  },
  "0052": {
    "postcode": "6620052",
    "prefecture": "兵庫県",
    "prefecture_kana": "ヒョウゴケン",
    "prefecture_code": 28,
    "city": "西宮市",
    "city_kana": "ニシノミヤシ",
    "town": "霞町",
    "town_kana": "カスミチョウ",
    "street": null,
    "office_name": null,
    "office_name_kana": null
  },
  "0053": {
    "postcode": "6620053",
    "prefecture": "兵庫県",
    "prefecture_kana": "ヒョウゴケン",
    "prefecture_code": 28,
    "city": "西宮市",
    "city_kana": "ニシノミヤシ",
    "town": "松園町",
    "town_kana": "マツゾノチョウ",
    "street": null,
    "office_name": null,
    "office_name_kana": null
  },
  "0054": {
    "postcode": "6620054",
    "prefecture": "兵庫県",
    "prefecture_kana": "ヒョウゴケン",
    "prefecture_code": 28,
    "city": "西宮市",
    "city_kana": "ニシノミヤシ",
    "town": "大谷町",
    "town_kana": "オオタニチョウ",
    "street": null,
    "office_name": null,
    "office_name_kana": null
  },
  "0061": {
    "postcode": "6620061",
    "prefecture": "兵庫県",
    "prefecture_kana": "ヒョウゴケン",
    "prefecture_code": 28,
    "city": "西宮市",
    "city_kana": "ニシノミヤシ",
    "town": "松ケ丘町",
    "town_kana": "マツガオカチョウ",
    "street": null,
    "office_name": null,
    "office_name_kana": null
  },
  "0062": {
    "postcode": "6620062",
    "prefecture": "兵庫県",
    "prefecture_kana": "ヒョウゴケン",
    "prefecture_code": 28,
    "city": "西宮市",
    "city_kana": "ニシノミヤシ",
    "town": "木津山町",
    "town_kana": "キズヤマチョウ",
    "street": null,
    "office_name": null,
    "office_name_kana": null
  },
  "0063": {
    "postcode": "6620063",
    "prefecture": "兵庫県",
    "prefecture_kana": "ヒョウゴケン",
    "prefecture_code": 28,
    "city": "西宮市",
    "city_kana": "ニシノミヤシ",
    "town": "相生町",
    "town_kana": "アイオイチョウ",
    "street": null,
    "office_name": null,
    "office_name_kana": null
  },
  "0064": {
    "postcode": "6620064",
    "prefecture": "兵庫県",
    "prefecture_kana": "ヒョウゴケン",
    "prefecture_code": 28,
    "city": "西宮市",
    "city_kana": "ニシノミヤシ",
    "town": "雲井町",
    "town_kana": "クモイチョウ",
    "street": null,
    "office_name": null,
    "office_name_kana": null
  },
  "0065": {
    "postcode": "6620065",
    "prefecture": "兵庫県",
    "prefecture_kana": "ヒョウゴケン",
    "prefecture_code": 28,
    "city": "西宮市",
    "city_kana": "ニシノミヤシ",
    "town": "殿山町",
    "town_kana": "トノヤマチョウ",
    "street": null,
    "office_name": null,
    "office_name_kana": null
  },
  "0066": {
    "postcode": "6620066",
    "prefecture": "兵庫県",
    "prefecture_kana": "ヒョウゴケン",
    "prefecture_code": 28,
    "city": "西宮市",
    "city_kana": "ニシノミヤシ",
    "town": "高塚町",
    "town_kana": "タカツカチョウ",
    "street": null,
    "office_name": null,
    "office_name_kana": null
  },
  "0067": {
    "postcode": "6620067",
    "prefecture": "兵庫県",
    "prefecture_kana": "ヒョウゴケン",
    "prefecture_code": 28,
    "city": "西宮市",
    "city_kana": "ニシノミヤシ",
    "town": "深谷町",
    "town_kana": "フカタニチョウ",
    "street": null,
    "office_name": null,
    "office_name_kana": null
  },
  "0071": {
    "postcode": "6620071",
    "prefecture": "兵庫県",
    "prefecture_kana": "ヒョウゴケン",
    "prefecture_code": 28,
    "city": "西宮市",
    "city_kana": "ニシノミヤシ",
    "town": "桜町",
    "town_kana": "サクラマチ",
    "street": null,
    "office_name": null,
    "office_name_kana": null
  },
  "0072": {
    "postcode": "6620072",
    "prefecture": "兵庫県",
    "prefecture_kana": "ヒョウゴケン",
    "prefecture_code": 28,
    "city": "西宮市",
    "city_kana": "ニシノミヤシ",
    "town": "豊楽町",
    "town_kana": "ホウラクチョウ",
    "street": null,
    "office_name": null,
    "office_name_kana": null
  },
  "0073": {
    "postcode": "6620073",
    "prefecture": "兵庫県",
    "prefecture_kana": "ヒョウゴケン",
    "prefecture_code": 28,
    "city": "西宮市",
    "city_kana": "ニシノミヤシ",
    "town": "松風町",
    "town_kana": "マツカゼチョウ",
    "street": null,
    "office_name": null,
    "office_name_kana": null
  },
  "0074": {
    "postcode": "6620074",
    "prefecture": "兵庫県",
    "prefecture_kana": "ヒョウゴケン",
    "prefecture_code": 28,
    "city": "西宮市",
    "city_kana": "ニシノミヤシ",
    "town": "石刎町",
    "town_kana": "イシバネチョウ",
    "street": null,
    "office_name": null,
    "office_name_kana": null
  },
  "0075": {
    "postcode": "6620075",
    "prefecture": "兵庫県",
    "prefecture_kana": "ヒョウゴケン",
    "prefecture_code": 28,
    "city": "西宮市",
    "city_kana": "ニシノミヤシ",
    "town": "南越木岩町",
    "town_kana": "ミナミコシキイワチョウ",
    "street": null,
    "office_name": null,
    "office_name_kana": null
  },
  "0076": {
    "postcode": "6620076",
    "prefecture": "兵庫県",
    "prefecture_kana": "ヒョウゴケン",
    "prefecture_code": 28,
    "city": "西宮市",
    "city_kana": "ニシノミヤシ",
    "town": "松生町",
    "town_kana": "マツオイチョウ",
    "street": null,
    "office_name": null,
    "office_name_kana": null
  },
  "0077": {
    "postcode": "6620077",
    "prefecture": "兵庫県",
    "prefecture_kana": "ヒョウゴケン",
    "prefecture_code": 28,
    "city": "西宮市",
    "city_kana": "ニシノミヤシ",
    "town": "久出ケ谷町",
    "town_kana": "クデガヤチョウ",
    "street": null,
    "office_name": null,
    "office_name_kana": null
  },
  "0078": {
    "postcode": "6620078",
    "prefecture": "兵庫県",
    "prefecture_kana": "ヒョウゴケン",
    "prefecture_code": 28,
    "city": "西宮市",
    "city_kana": "ニシノミヤシ",
    "town": "菊谷町",
    "town_kana": "キクタニチョウ",
    "street": null,
    "office_name": null,
    "office_name_kana": null
  },
  "0081": {
    "postcode": "6620081",
    "prefecture": "兵庫県",
    "prefecture_kana": "ヒョウゴケン",
    "prefecture_code": 28,
    "city": "西宮市",
    "city_kana": "ニシノミヤシ",
    "town": "苦楽園三番町",
    "town_kana": "クラクエン3バンチョウ",
    "street": null,
    "office_name": null,
    "office_name_kana": null
  },
  "0082": {
    "postcode": "6620082",
    "prefecture": "兵庫県",
    "prefecture_kana": "ヒョウゴケン",
    "prefecture_code": 28,
    "city": "西宮市",
    "city_kana": "ニシノミヤシ",
    "town": "苦楽園二番町",
    "town_kana": "クラクエン2バンチョウ",
    "street": null,
    "office_name": null,
    "office_name_kana": null
  },
  "0083": {
    "postcode": "6620083",
    "prefecture": "兵庫県",
    "prefecture_kana": "ヒョウゴケン",
    "prefecture_code": 28,
    "city": "西宮市",
    "city_kana": "ニシノミヤシ",
    "town": "苦楽園一番町",
    "town_kana": "クラクエン1バンチョウ",
    "street": null,
    "office_name": null,
    "office_name_kana": null
  },
  "0084": {
    "postcode": "6620084",
    "prefecture": "兵庫県",
    "prefecture_kana": "ヒョウゴケン",
    "prefecture_code": 28,
    "city": "西宮市",
    "city_kana": "ニシノミヤシ",
    "town": "樋之池町",
    "town_kana": "ヒノイケチョウ",
    "street": null,
    "office_name": null,
    "office_name_kana": null
  },
  "0085": {
    "postcode": "6620085",
    "prefecture": "兵庫県",
    "prefecture_kana": "ヒョウゴケン",
    "prefecture_code": 28,
    "city": "西宮市",
    "city_kana": "ニシノミヤシ",
    "town": "老松町",
    "town_kana": "オイマツチョウ",
    "street": null,
    "office_name": null,
    "office_name_kana": null
  },
  "0086": {
    "postcode": "6620086",
    "prefecture": "兵庫県",
    "prefecture_kana": "ヒョウゴケン",
    "prefecture_code": 28,
    "city": "西宮市",
    "city_kana": "ニシノミヤシ",
    "town": "苦楽園六番町",
    "town_kana": "クラクエン6バンチョウ",
    "street": null,
    "office_name": null,
    "office_name_kana": null
  },
  "0087": {
    "postcode": "6620087",
    "prefecture": "兵庫県",
    "prefecture_kana": "ヒョウゴケン",
    "prefecture_code": 28,
    "city": "西宮市",
    "city_kana": "ニシノミヤシ",
    "town": "苦楽園五番町",
    "town_kana": "クラクエン5バンチョウ",
    "street": null,
    "office_name": null,
    "office_name_kana": null
  },
  "0088": {
    "postcode": "6620088",
    "prefecture": "兵庫県",
    "prefecture_kana": "ヒョウゴケン",
    "prefecture_code": 28,
    "city": "西宮市",
    "city_kana": "ニシノミヤシ",
    "town": "苦楽園四番町",
    "town_kana": "クラクエン4バンチョウ",
    "street": null,
    "office_name": null,
    "office_name_kana": null
  },
  "0091": {
    "postcode": "6620091",
    "prefecture": "兵庫県",
    "prefecture_kana": "ヒョウゴケン",
    "prefecture_code": 28,
    "city": "西宮市",
    "city_kana": "ニシノミヤシ",
    "town": "北山町",
    "town_kana": "キタヤマチョウ",
    "street": null,
    "office_name": null,
    "office_name_kana": null
  },
  "0092": {
    "postcode": "6620092",
    "prefecture": "兵庫県",
    "prefecture_kana": "ヒョウゴケン",
    "prefecture_code": 28,
    "city": "西宮市",
    "city_kana": "ニシノミヤシ",
    "town": "甑岩町",
    "town_kana": "コシキイワチョウ",
    "street": null,
    "office_name": null,
    "office_name_kana": null
  },
  "0093": {
    "postcode": "6620093",
    "prefecture": "兵庫県",
    "prefecture_kana": "ヒョウゴケン",
    "prefecture_code": 28,
    "city": "西宮市",
    "city_kana": "ニシノミヤシ",
    "town": "西平町",
    "town_kana": "ニシヒラチョウ",
    "street": null,
    "office_name": null,
    "office_name_kana": null
  },
  "0094": {
    "postcode": "6620094",
    "prefecture": "兵庫県",
    "prefecture_kana": "ヒョウゴケン",
    "prefecture_code": 28,
    "city": "西宮市",
    "city_kana": "ニシノミヤシ",
    "town": "毘沙門町",
    "town_kana": "ビシャモンチョウ",
    "street": null,
    "office_name": null,
    "office_name_kana": null
  },
  "0095": {
    "postcode": "6620095",
    "prefecture": "兵庫県",
    "prefecture_kana": "ヒョウゴケン",
    "prefecture_code": 28,
    "city": "西宮市",
    "city_kana": "ニシノミヤシ",
    "town": "美作町",
    "town_kana": "ミサクチョウ",
    "street": null,
    "office_name": null,
    "office_name_kana": null
  },
  "0096": {
    "postcode": "6620096",
    "prefecture": "兵庫県",
    "prefecture_kana": "ヒョウゴケン",
    "prefecture_code": 28,
    "city": "西宮市",
    "city_kana": "ニシノミヤシ",
    "town": "角石町",
    "town_kana": "スミイシチョウ",
    "street": null,
    "office_name": null,
    "office_name_kana": null
  },
  "0097": {
    "postcode": "6620097",
    "prefecture": "兵庫県",
    "prefecture_kana": "ヒョウゴケン",
    "prefecture_code": 28,
    "city": "西宮市",
    "city_kana": "ニシノミヤシ",
    "town": "柏堂町",
    "town_kana": "カヤンドウチョウ",
    "street": null,
    "office_name": null,
    "office_name_kana": null
  },
  "0098": {
    "postcode": "6620098",
    "prefecture": "兵庫県",
    "prefecture_kana": "ヒョウゴケン",
    "prefecture_code": 28,
    "city": "西宮市",
    "city_kana": "ニシノミヤシ",
    "town": "柏堂西町",
    "town_kana": "カヤンドウニシマチ",
    "street": null,
    "office_name": null,
    "office_name_kana": null
  },
  "0099": {
    "postcode": "6620099",
    "prefecture": "兵庫県",
    "prefecture_kana": "ヒョウゴケン",
    "prefecture_code": 28,
    "city": "西宮市",
    "city_kana": "ニシノミヤシ",
    "town": "剣谷町",
    "town_kana": "ケンダニチョウ",
    "street": null,
    "office_name": null,
    "office_name_kana": null
  },
  "0811": {
    "postcode": "6620811",
    "prefecture": "兵庫県",
    "prefecture_kana": "ヒョウゴケン",
    "prefecture_code": 28,
    "city": "西宮市",
    "city_kana": "ニシノミヤシ",
    "town": "仁川町",
    "town_kana": "ニガワチョウ",
    "street": null,
    "office_name": null,
    "office_name_kana": null
  },
  "0812": {
    "postcode": "6620812",
    "prefecture": "兵庫県",
    "prefecture_kana": "ヒョウゴケン",
    "prefecture_code": 28,
    "city": "西宮市",
    "city_kana": "ニシノミヤシ",
    "town": "甲東園",
    "town_kana": "コウトウエン",
    "street": null,
    "office_name": null,
    "office_name_kana": null
  },
  "0813": {
    "postcode": "6620813",
    "prefecture": "兵庫県",
    "prefecture_kana": "ヒョウゴケン",
    "prefecture_code": 28,
    "city": "西宮市",
    "city_kana": "ニシノミヤシ",
    "town": "上甲東園",
    "town_kana": "カミコウトウエン",
    "street": null,
    "office_name": null,
    "office_name_kana": null
  },
  "0814": {
    "postcode": "6620814",
    "prefecture": "兵庫県",
    "prefecture_kana": "ヒョウゴケン",
    "prefecture_code": 28,
    "city": "西宮市",
    "city_kana": "ニシノミヤシ",
    "town": "仁川五ケ山町",
    "town_kana": "ニガワゴカヤマチョウ",
    "street": null,
    "office_name": null,
    "office_name_kana": null
  },
  "0815": {
    "postcode": "6620815",
    "prefecture": "兵庫県",
    "prefecture_kana": "ヒョウゴケン",
    "prefecture_code": 28,
    "city": "西宮市",
    "city_kana": "ニシノミヤシ",
    "town": "仁川百合野町",
    "town_kana": "ニガワユリノチョウ",
    "street": null,
    "office_name": null,
    "office_name_kana": null
  },
  "0822": {
    "postcode": "6620822",
    "prefecture": "兵庫県",
    "prefecture_kana": "ヒョウゴケン",
    "prefecture_code": 28,
    "city": "西宮市",
    "city_kana": "ニシノミヤシ",
    "town": "松籟荘",
    "town_kana": "ショウライソウ",
    "street": null,
    "office_name": null,
    "office_name_kana": null
  },
  "0823": {
    "postcode": "6620823",
    "prefecture": "兵庫県",
    "prefecture_kana": "ヒョウゴケン",
    "prefecture_code": 28,
    "city": "西宮市",
    "city_kana": "ニシノミヤシ",
    "town": "神呪町",
    "town_kana": "カンノウチョウ",
    "street": null,
    "office_name": null,
    "office_name_kana": null
  },
  "0824": {
    "postcode": "6620824",
    "prefecture": "兵庫県",
    "prefecture_kana": "ヒョウゴケン",
    "prefecture_code": 28,
    "city": "西宮市",
    "city_kana": "ニシノミヤシ",
    "town": "門戸東町",
    "town_kana": "モンドヒガシマチ",
    "street": null,
    "office_name": null,
    "office_name_kana": null
  },
  "0825": {
    "postcode": "6620825",
    "prefecture": "兵庫県",
    "prefecture_kana": "ヒョウゴケン",
    "prefecture_code": 28,
    "city": "西宮市",
    "city_kana": "ニシノミヤシ",
    "town": "門戸荘",
    "town_kana": "モンドソウ",
    "street": null,
    "office_name": null,
    "office_name_kana": null
  },
  "0826": {
    "postcode": "6620826",
    "prefecture": "兵庫県",
    "prefecture_kana": "ヒョウゴケン",
    "prefecture_code": 28,
    "city": "西宮市",
    "city_kana": "ニシノミヤシ",
    "town": "門戸岡田町",
    "town_kana": "モンドオカダチョウ",
    "street": null,
    "office_name": null,
    "office_name_kana": null
  },
  "0827": {
    "postcode": "6620827",
    "prefecture": "兵庫県",
    "prefecture_kana": "ヒョウゴケン",
    "prefecture_code": 28,
    "city": "西宮市",
    "city_kana": "ニシノミヤシ",
    "town": "岡田山",
    "town_kana": "オカダヤマ",
    "street": null,
    "office_name": null,
    "office_name_kana": null
  },
  "0828": {
    "postcode": "6620828",
    "prefecture": "兵庫県",
    "prefecture_kana": "ヒョウゴケン",
    "prefecture_code": 28,
    "city": "西宮市",
    "city_kana": "ニシノミヤシ",
    "town": "門戸西町",
    "town_kana": "モンドニシマチ",
    "street": null,
    "office_name": null,
    "office_name_kana": null
  },
  "0831": {
    "postcode": "6620831",
    "prefecture": "兵庫県",
    "prefecture_kana": "ヒョウゴケン",
    "prefecture_code": 28,
    "city": "西宮市",
    "city_kana": "ニシノミヤシ",
    "town": "丸橋町",
    "town_kana": "マルハシチョウ",
    "street": null,
    "office_name": null,
    "office_name_kana": null
  },
  "0832": {
    "postcode": "6620832",
    "prefecture": "兵庫県",
    "prefecture_kana": "ヒョウゴケン",
    "prefecture_code": 28,
    "city": "西宮市",
    "city_kana": "ニシノミヤシ",
    "town": "甲風園",
    "town_kana": "コウフウエン",
    "street": null,
    "office_name": null,
    "office_name_kana": null
  },
  "0833": {
    "postcode": "6620833",
    "prefecture": "兵庫県",
    "prefecture_kana": "ヒョウゴケン",
    "prefecture_code": 28,
    "city": "西宮市",
    "city_kana": "ニシノミヤシ",
    "town": "北昭和町",
    "town_kana": "キタショウワチョウ",
    "street": null,
    "office_name": null,
    "office_name_kana": null
  },
  "0834": {
    "postcode": "6620834",
    "prefecture": "兵庫県",
    "prefecture_kana": "ヒョウゴケン",
    "prefecture_code": 28,
    "city": "西宮市",
    "city_kana": "ニシノミヤシ",
    "town": "南昭和町",
    "town_kana": "ミナミショウワチョウ",
    "street": null,
    "office_name": null,
    "office_name_kana": null
  },
  "0835": {
    "postcode": "6620835",
    "prefecture": "兵庫県",
    "prefecture_kana": "ヒョウゴケン",
    "prefecture_code": 28,
    "city": "西宮市",
    "city_kana": "ニシノミヤシ",
    "town": "平木町",
    "town_kana": "ヒラキチョウ",
    "street": null,
    "office_name": null,
    "office_name_kana": null
  },
  "0836": {
    "postcode": "6620836",
    "prefecture": "兵庫県",
    "prefecture_kana": "ヒョウゴケン",
    "prefecture_code": 28,
    "city": "西宮市",
    "city_kana": "ニシノミヤシ",
    "town": "大畑町",
    "town_kana": "オオハタチョウ",
    "street": null,
    "office_name": null,
    "office_name_kana": null
  },
  "0837": {
    "postcode": "6620837",
    "prefecture": "兵庫県",
    "prefecture_kana": "ヒョウゴケン",
    "prefecture_code": 28,
    "city": "西宮市",
    "city_kana": "ニシノミヤシ",
    "town": "広田町",
    "town_kana": "ヒロタチョウ",
    "street": null,
    "office_name": null,
    "office_name_kana": null
  },
  "0838": {
    "postcode": "6620838",
    "prefecture": "兵庫県",
    "prefecture_kana": "ヒョウゴケン",
    "prefecture_code": 28,
    "city": "西宮市",
    "city_kana": "ニシノミヤシ",
    "town": "能登町",
    "town_kana": "ノトチョウ",
    "street": null,
    "office_name": null,
    "office_name_kana": null
  },
  "0841": {
    "postcode": "6620841",
    "prefecture": "兵庫県",
    "prefecture_kana": "ヒョウゴケン",
    "prefecture_code": 28,
    "city": "西宮市",
    "city_kana": "ニシノミヤシ",
    "town": "両度町",
    "town_kana": "リョウドチョウ",
    "street": null,
    "office_name": null,
    "office_name_kana": null
  },
  "0842": {
    "postcode": "6620842",
    "prefecture": "兵庫県",
    "prefecture_kana": "ヒョウゴケン",
    "prefecture_code": 28,
    "city": "西宮市",
    "city_kana": "ニシノミヤシ",
    "town": "芦原町",
    "town_kana": "アシハラチョウ",
    "street": null,
    "office_name": null,
    "office_name_kana": null
  },
  "0843": {
    "postcode": "6620843",
    "prefecture": "兵庫県",
    "prefecture_kana": "ヒョウゴケン",
    "prefecture_code": 28,
    "city": "西宮市",
    "city_kana": "ニシノミヤシ",
    "town": "神祇官町",
    "town_kana": "ジンギカンチョウ",
    "street": null,
    "office_name": null,
    "office_name_kana": null
  },
  "0844": {
    "postcode": "6620844",
    "prefecture": "兵庫県",
    "prefecture_kana": "ヒョウゴケン",
    "prefecture_code": 28,
    "city": "西宮市",
    "city_kana": "ニシノミヤシ",
    "town": "西福町",
    "town_kana": "サイフクチョウ",
    "street": null,
    "office_name": null,
    "office_name_kana": null
  },
  "0845": {
    "postcode": "6620845",
    "prefecture": "兵庫県",
    "prefecture_kana": "ヒョウゴケン",
    "prefecture_code": 28,
    "city": "西宮市",
    "city_kana": "ニシノミヤシ",
    "town": "神明町",
    "town_kana": "シンメイチョウ",
    "street": null,
    "office_name": null,
    "office_name_kana": null
  },
  "0846": {
    "postcode": "6620846",
    "prefecture": "兵庫県",
    "prefecture_kana": "ヒョウゴケン",
    "prefecture_code": 28,
    "city": "西宮市",
    "city_kana": "ニシノミヤシ",
    "town": "森下町",
    "town_kana": "モリシタチョウ",
    "street": null,
    "office_name": null,
    "office_name_kana": null
  },
  "0851": {
    "postcode": "6620851",
    "prefecture": "兵庫県",
    "prefecture_kana": "ヒョウゴケン",
    "prefecture_code": 28,
    "city": "西宮市",
    "city_kana": "ニシノミヤシ",
    "town": "中須佐町",
    "town_kana": "ナカスサチョウ",
    "street": null,
    "office_name": null,
    "office_name_kana": null
  },
  "0852": {
    "postcode": "6620852",
    "prefecture": "兵庫県",
    "prefecture_kana": "ヒョウゴケン",
    "prefecture_code": 28,
    "city": "西宮市",
    "city_kana": "ニシノミヤシ",
    "town": "中殿町",
    "town_kana": "ナカドノチョウ",
    "street": null,
    "office_name": null,
    "office_name_kana": null
  },
  "0853": {
    "postcode": "6620853",
    "prefecture": "兵庫県",
    "prefecture_kana": "ヒョウゴケン",
    "prefecture_code": 28,
    "city": "西宮市",
    "city_kana": "ニシノミヤシ",
    "town": "津田町",
    "town_kana": "ツダチョウ",
    "street": null,
    "office_name": null,
    "office_name_kana": null
  },
  "0854": {
    "postcode": "6620854",
    "prefecture": "兵庫県",
    "prefecture_kana": "ヒョウゴケン",
    "prefecture_code": 28,
    "city": "西宮市",
    "city_kana": "ニシノミヤシ",
    "town": "櫨塚町",
    "town_kana": "ハゼツカチョウ",
    "street": null,
    "office_name": null,
    "office_name_kana": null
  },
  "0855": {
    "postcode": "6620855",
    "prefecture": "兵庫県",
    "prefecture_kana": "ヒョウゴケン",
    "prefecture_code": 28,
    "city": "西宮市",
    "city_kana": "ニシノミヤシ",
    "town": "江上町",
    "town_kana": "エガミチョウ",
    "street": null,
    "office_name": null,
    "office_name_kana": null
  },
  "0856": {
    "postcode": "6620856",
    "prefecture": "兵庫県",
    "prefecture_kana": "ヒョウゴケン",
    "prefecture_code": 28,
    "city": "西宮市",
    "city_kana": "ニシノミヤシ",
    "town": "城ケ堀町",
    "town_kana": "ジョウガボリチョウ",
    "street": null,
    "office_name": null,
    "office_name_kana": null
  },
  "0857": {
    "postcode": "6620857",
    "prefecture": "兵庫県",
    "prefecture_kana": "ヒョウゴケン",
    "prefecture_code": 28,
    "city": "西宮市",
    "city_kana": "ニシノミヤシ",
    "town": "中前田町",
    "town_kana": "ナカマエダチョウ",
    "street": null,
    "office_name": null,
    "office_name_kana": null
  },
  "0861": {
    "postcode": "6620861",
    "prefecture": "兵庫県",
    "prefecture_kana": "ヒョウゴケン",
    "prefecture_code": 28,
    "city": "西宮市",
    "city_kana": "ニシノミヤシ",
    "town": "河原町",
    "town_kana": "カワハラチョウ",
    "street": null,
    "office_name": null,
    "office_name_kana": null
  },
  "0862": {
    "postcode": "6620862",
    "prefecture": "兵庫県",
    "prefecture_kana": "ヒョウゴケン",
    "prefecture_code": 28,
    "city": "西宮市",
    "city_kana": "ニシノミヤシ",
    "town": "青木町",
    "town_kana": "アオキチョウ",
    "street": null,
    "office_name": null,
    "office_name_kana": null
  },
  "0863": {
    "postcode": "6620863",
    "prefecture": "兵庫県",
    "prefecture_kana": "ヒョウゴケン",
    "prefecture_code": 28,
    "city": "西宮市",
    "city_kana": "ニシノミヤシ",
    "town": "室川町",
    "town_kana": "ムロカワチョウ",
    "street": null,
    "office_name": null,
    "office_name_kana": null
  },
  "0864": {
    "postcode": "6620864",
    "prefecture": "兵庫県",
    "prefecture_kana": "ヒョウゴケン",
    "prefecture_code": 28,
    "city": "西宮市",
    "city_kana": "ニシノミヤシ",
    "town": "越水町",
    "town_kana": "コシミズチョウ",
    "street": null,
    "office_name": null,
    "office_name_kana": null
  },
  "0865": {
    "postcode": "6620865",
    "prefecture": "兵庫県",
    "prefecture_kana": "ヒョウゴケン",
    "prefecture_code": 28,
    "city": "西宮市",
    "city_kana": "ニシノミヤシ",
    "town": "神垣町",
    "town_kana": "カミガキチョウ",
    "street": null,
    "office_name": null,
    "office_name_kana": null
  },
  "0866": {
    "postcode": "6620866",
    "prefecture": "兵庫県",
    "prefecture_kana": "ヒョウゴケン",
    "prefecture_code": 28,
    "city": "西宮市",
    "city_kana": "ニシノミヤシ",
    "town": "柳本町",
    "town_kana": "ヤナギモトチョウ",
    "street": null,
    "office_name": null,
    "office_name_kana": null
  },
  "0867": {
    "postcode": "6620867",
    "prefecture": "兵庫県",
    "prefecture_kana": "ヒョウゴケン",
    "prefecture_code": 28,
    "city": "西宮市",
    "city_kana": "ニシノミヤシ",
    "town": "大社町",
    "town_kana": "タイシャチョウ",
    "street": null,
    "office_name": null,
    "office_name_kana": null
  },
  "0868": {
    "postcode": "6620868",
    "prefecture": "兵庫県",
    "prefecture_kana": "ヒョウゴケン",
    "prefecture_code": 28,
    "city": "西宮市",
    "city_kana": "ニシノミヤシ",
    "town": "中屋町",
    "town_kana": "ナカヤチョウ",
    "street": null,
    "office_name": null,
    "office_name_kana": null
  },
  "0871": {
    "postcode": "6620871",
    "prefecture": "兵庫県",
    "prefecture_kana": "ヒョウゴケン",
    "prefecture_code": 28,
    "city": "西宮市",
    "city_kana": "ニシノミヤシ",
    "town": "愛宕山",
    "town_kana": "アタゴヤマ",
    "street": null,
    "office_name": null,
    "office_name_kana": null
  },
  "0872": {
    "postcode": "6620872",
    "prefecture": "兵庫県",
    "prefecture_kana": "ヒョウゴケン",
    "prefecture_code": 28,
    "city": "西宮市",
    "city_kana": "ニシノミヤシ",
    "town": "高座町",
    "town_kana": "タカクラチョウ",
    "street": null,
    "office_name": null,
    "office_name_kana": null
  },
  "0873": {
    "postcode": "6620873",
    "prefecture": "兵庫県",
    "prefecture_kana": "ヒョウゴケン",
    "prefecture_code": 28,
    "city": "西宮市",
    "city_kana": "ニシノミヤシ",
    "town": "一ケ谷町",
    "town_kana": "イチガヤチョウ",
    "street": null,
    "office_name": null,
    "office_name_kana": null
  },
  "0874": {
    "postcode": "6620874",
    "prefecture": "兵庫県",
    "prefecture_kana": "ヒョウゴケン",
    "prefecture_code": 28,
    "city": "西宮市",
    "city_kana": "ニシノミヤシ",
    "town": "六軒町",
    "town_kana": "ロッケンチョウ",
    "street": null,
    "office_name": null,
    "office_name_kana": null
  },
  "0875": {
    "postcode": "6620875",
    "prefecture": "兵庫県",
    "prefecture_kana": "ヒョウゴケン",
    "prefecture_code": 28,
    "city": "西宮市",
    "city_kana": "ニシノミヤシ",
    "town": "五月ケ丘",
    "town_kana": "サツキガオカ",
    "street": null,
    "office_name": null,
    "office_name_kana": null
  },
  "0881": {
    "postcode": "6620881",
    "prefecture": "兵庫県",
    "prefecture_kana": "ヒョウゴケン",
    "prefecture_code": 28,
    "city": "西宮市",
    "city_kana": "ニシノミヤシ",
    "town": "上ケ原七番町",
    "town_kana": "ウエガハラ7バンチョウ",
    "street": null,
    "office_name": null,
    "office_name_kana": null
  },
  "0882": {
    "postcode": "6620882",
    "prefecture": "兵庫県",
    "prefecture_kana": "ヒョウゴケン",
    "prefecture_code": 28,
    "city": "西宮市",
    "city_kana": "ニシノミヤシ",
    "town": "上ケ原八番町",
    "town_kana": "ウエガハラ8バンチョウ",
    "street": null,
    "office_name": null,
    "office_name_kana": null
  },
  "0883": {
    "postcode": "6620883",
    "prefecture": "兵庫県",
    "prefecture_kana": "ヒョウゴケン",
    "prefecture_code": 28,
    "city": "西宮市",
    "city_kana": "ニシノミヤシ",
    "town": "上ケ原九番町",
    "town_kana": "ウエガハラ9バンチョウ",
    "street": null,
    "office_name": null,
    "office_name_kana": null
  },
  "0884": {
    "postcode": "6620884",
    "prefecture": "兵庫県",
    "prefecture_kana": "ヒョウゴケン",
    "prefecture_code": 28,
    "city": "西宮市",
    "city_kana": "ニシノミヤシ",
    "town": "上ケ原十番町",
    "town_kana": "ウエガハラ10バンチョウ",
    "street": null,
    "office_name": null,
    "office_name_kana": null
  },
  "0885": {
    "postcode": "6620885",
    "prefecture": "兵庫県",
    "prefecture_kana": "ヒョウゴケン",
    "prefecture_code": 28,
    "city": "西宮市",
    "city_kana": "ニシノミヤシ",
    "town": "上ケ原山手町",
    "town_kana": "ウエガハラヤマテチョウ",
    "street": null,
    "office_name": null,
    "office_name_kana": null
  },
  "0886": {
    "postcode": "6620886",
    "prefecture": "兵庫県",
    "prefecture_kana": "ヒョウゴケン",
    "prefecture_code": 28,
    "city": "西宮市",
    "city_kana": "ニシノミヤシ",
    "town": "上ケ原山田町",
    "town_kana": "ウエガハラヤマダチョウ",
    "street": null,
    "office_name": null,
    "office_name_kana": null
  },
  "0891": {
    "postcode": "6620891",
    "prefecture": "兵庫県",
    "prefecture_kana": "ヒョウゴケン",
    "prefecture_code": 28,
    "city": "西宮市",
    "city_kana": "ニシノミヤシ",
    "town": "上ケ原一番町",
    "town_kana": "ウエガハラ1バンチョウ",
    "street": null,
    "office_name": null,
    "office_name_kana": null
  },
  "0892": {
    "postcode": "6620892",
    "prefecture": "兵庫県",
    "prefecture_kana": "ヒョウゴケン",
    "prefecture_code": 28,
    "city": "西宮市",
    "city_kana": "ニシノミヤシ",
    "town": "上ケ原二番町",
    "town_kana": "ウエガハラ2バンチョウ",
    "street": null,
    "office_name": null,
    "office_name_kana": null
  },
  "0893": {
    "postcode": "6620893",
    "prefecture": "兵庫県",
    "prefecture_kana": "ヒョウゴケン",
    "prefecture_code": 28,
    "city": "西宮市",
    "city_kana": "ニシノミヤシ",
    "town": "上ケ原三番町",
    "town_kana": "ウエガハラ3バンチョウ",
    "street": null,
    "office_name": null,
    "office_name_kana": null
  },
  "0894": {
    "postcode": "6620894",
    "prefecture": "兵庫県",
    "prefecture_kana": "ヒョウゴケン",
    "prefecture_code": 28,
    "city": "西宮市",
    "city_kana": "ニシノミヤシ",
    "town": "上ケ原四番町",
    "town_kana": "ウエガハラ4バンチョウ",
    "street": null,
    "office_name": null,
    "office_name_kana": null
  },
  "0895": {
    "postcode": "6620895",
    "prefecture": "兵庫県",
    "prefecture_kana": "ヒョウゴケン",
    "prefecture_code": 28,
    "city": "西宮市",
    "city_kana": "ニシノミヤシ",
    "town": "上ケ原五番町",
    "town_kana": "ウエガハラ5バンチョウ",
    "street": null,
    "office_name": null,
    "office_name_kana": null
  },
  "0896": {
    "postcode": "6620896",
    "prefecture": "兵庫県",
    "prefecture_kana": "ヒョウゴケン",
    "prefecture_code": 28,
    "city": "西宮市",
    "city_kana": "ニシノミヤシ",
    "town": "上ケ原六番町",
    "town_kana": "ウエガハラ6バンチョウ",
    "street": null,
    "office_name": null,
    "office_name_kana": null
  },
  "0911": {
    "postcode": "6620911",
    "prefecture": "兵庫県",
    "prefecture_kana": "ヒョウゴケン",
    "prefecture_code": 28,
    "city": "西宮市",
    "city_kana": "ニシノミヤシ",
    "town": "池田町",
    "town_kana": "イケダチョウ",
    "street": null,
    "office_name": null,
    "office_name_kana": null
  },
  "0912": {
    "postcode": "6620912",
    "prefecture": "兵庫県",
    "prefecture_kana": "ヒョウゴケン",
    "prefecture_code": 28,
    "city": "西宮市",
    "city_kana": "ニシノミヤシ",
    "town": "松原町",
    "town_kana": "マツバラチョウ",
    "street": null,
    "office_name": null,
    "office_name_kana": null
  },
  "0913": {
    "postcode": "6620913",
    "prefecture": "兵庫県",
    "prefecture_kana": "ヒョウゴケン",
    "prefecture_code": 28,
    "city": "西宮市",
    "city_kana": "ニシノミヤシ",
    "town": "染殿町",
    "town_kana": "ソメドノチョウ",
    "street": null,
    "office_name": null,
    "office_name_kana": null
  },
  "0914": {
    "postcode": "6620914",
    "prefecture": "兵庫県",
    "prefecture_kana": "ヒョウゴケン",
    "prefecture_code": 28,
    "city": "西宮市",
    "city_kana": "ニシノミヤシ",
    "town": "本町",
    "town_kana": "ホンマチ",
    "street": null,
    "office_name": null,
    "office_name_kana": null
  },
  "0915": {
    "postcode": "6620915",
    "prefecture": "兵庫県",
    "prefecture_kana": "ヒョウゴケン",
    "prefecture_code": 28,
    "city": "西宮市",
    "city_kana": "ニシノミヤシ",
    "town": "馬場町",
    "town_kana": "ババチョウ",
    "street": null,
    "office_name": null,
    "office_name_kana": null
  },
  "0916": {
    "postcode": "6620916",
    "prefecture": "兵庫県",
    "prefecture_kana": "ヒョウゴケン",
    "prefecture_code": 28,
    "city": "西宮市",
    "city_kana": "ニシノミヤシ",
    "town": "戸田町",
    "town_kana": "トダチョウ",
    "street": null,
    "office_name": null,
    "office_name_kana": null
  },
  "0917": {
    "postcode": "6620917",
    "prefecture": "兵庫県",
    "prefecture_kana": "ヒョウゴケン",
    "prefecture_code": 28,
    "city": "西宮市",
    "city_kana": "ニシノミヤシ",
    "town": "与古道町",
    "town_kana": "ヨコミチチョウ",
    "street": null,
    "office_name": null,
    "office_name_kana": null
  },
  "0918": {
    "postcode": "6620918",
    "prefecture": "兵庫県",
    "prefecture_kana": "ヒョウゴケン",
    "prefecture_code": 28,
    "city": "西宮市",
    "city_kana": "ニシノミヤシ",
    "town": "六湛寺町",
    "town_kana": "ロクタンジチョウ",
    "street": null,
    "office_name": null,
    "office_name_kana": null
  },
  "0921": {
    "postcode": "6620921",
    "prefecture": "兵庫県",
    "prefecture_kana": "ヒョウゴケン",
    "prefecture_code": 28,
    "city": "西宮市",
    "city_kana": "ニシノミヤシ",
    "town": "用海町",
    "town_kana": "ヨウガイチョウ",
    "street": null,
    "office_name": null,
    "office_name_kana": null
  },
  "0922": {
    "postcode": "6620922",
    "prefecture": "兵庫県",
    "prefecture_kana": "ヒョウゴケン",
    "prefecture_code": 28,
    "city": "西宮市",
    "city_kana": "ニシノミヤシ",
    "town": "東町",
    "town_kana": "ヒガシマチ",
    "street": null,
    "office_name": null,
    "office_name_kana": null
  },
  "0923": {
    "postcode": "6620923",
    "prefecture": "兵庫県",
    "prefecture_kana": "ヒョウゴケン",
    "prefecture_code": 28,
    "city": "西宮市",
    "city_kana": "ニシノミヤシ",
    "town": "浜松原町",
    "town_kana": "ハママツバラチョウ",
    "street": null,
    "office_name": null,
    "office_name_kana": null
  },
  "0924": {
    "postcode": "6620924",
    "prefecture": "兵庫県",
    "prefecture_kana": "ヒョウゴケン",
    "prefecture_code": 28,
    "city": "西宮市",
    "city_kana": "ニシノミヤシ",
    "town": "東浜町",
    "town_kana": "ヒガシハマチョウ",
    "street": null,
    "office_name": null,
    "office_name_kana": null
  },
  "0925": {
    "postcode": "6620925",
    "prefecture": "兵庫県",
    "prefecture_kana": "ヒョウゴケン",
    "prefecture_code": 28,
    "city": "西宮市",
    "city_kana": "ニシノミヤシ",
    "town": "朝凪町",
    "town_kana": "アサナギチョウ",
    "street": null,
    "office_name": null,
    "office_name_kana": null
  },
  "0926": {
    "postcode": "6620926",
    "prefecture": "兵庫県",
    "prefecture_kana": "ヒョウゴケン",
    "prefecture_code": 28,
    "city": "西宮市",
    "city_kana": "ニシノミヤシ",
    "town": "鞍掛町",
    "town_kana": "クラカケチョウ",
    "street": null,
    "office_name": null,
    "office_name_kana": null
  },
  "0927": {
    "postcode": "6620927",
    "prefecture": "兵庫県",
    "prefecture_kana": "ヒョウゴケン",
    "prefecture_code": 28,
    "city": "西宮市",
    "city_kana": "ニシノミヤシ",
    "town": "久保町",
    "town_kana": "クボチョウ",
    "street": null,
    "office_name": null,
    "office_name_kana": null
  },
  "0928": {
    "postcode": "6620928",
    "prefecture": "兵庫県",
    "prefecture_kana": "ヒョウゴケン",
    "prefecture_code": 28,
    "city": "西宮市",
    "city_kana": "ニシノミヤシ",
    "town": "石在町",
    "town_kana": "イシザイチョウ",
    "street": null,
    "office_name": null,
    "office_name_kana": null
  },
  "0931": {
    "postcode": "6620931",
    "prefecture": "兵庫県",
    "prefecture_kana": "ヒョウゴケン",
    "prefecture_code": 28,
    "city": "西宮市",
    "city_kana": "ニシノミヤシ",
    "town": "前浜町",
    "town_kana": "マエハマチョウ",
    "street": null,
    "office_name": null,
    "office_name_kana": null
  },
  "0932": {
    "postcode": "6620932",
    "prefecture": "兵庫県",
    "prefecture_kana": "ヒョウゴケン",
    "prefecture_code": 28,
    "city": "西宮市",
    "city_kana": "ニシノミヤシ",
    "town": "泉町",
    "town_kana": "イズミチョウ",
    "street": null,
    "office_name": null,
    "office_name_kana": null
  },
  "0933": {
    "postcode": "6620933",
    "prefecture": "兵庫県",
    "prefecture_kana": "ヒョウゴケン",
    "prefecture_code": 28,
    "city": "西宮市",
    "city_kana": "ニシノミヤシ",
    "town": "西波止町",
    "town_kana": "ニシハトチョウ",
    "street": null,
    "office_name": null,
    "office_name_kana": null
  },
  "0934": {
    "postcode": "6620934",
    "prefecture": "兵庫県",
    "prefecture_kana": "ヒョウゴケン",
    "prefecture_code": 28,
    "city": "西宮市",
    "city_kana": "ニシノミヤシ",
    "town": "西宮浜",
    "town_kana": "ニシノミヤハマ",
    "street": null,
    "office_name": null,
    "office_name_kana": null
  },
  "0941": {
    "postcode": "6620941",
    "prefecture": "兵庫県",
    "prefecture_kana": "ヒョウゴケン",
    "prefecture_code": 28,
    "city": "西宮市",
    "city_kana": "ニシノミヤシ",
    "town": "浜脇町",
    "town_kana": "ハマワキチョウ",
    "street": null,
    "office_name": null,
    "office_name_kana": null
  },
  "0942": {
    "postcode": "6620942",
    "prefecture": "兵庫県",
    "prefecture_kana": "ヒョウゴケン",
    "prefecture_code": 28,
    "city": "西宮市",
    "city_kana": "ニシノミヤシ",
    "town": "浜町",
    "town_kana": "ハマチョウ",
    "street": null,
    "office_name": null,
    "office_name_kana": null
  },
  "0943": {
    "postcode": "6620943",
    "prefecture": "兵庫県",
    "prefecture_kana": "ヒョウゴケン",
    "prefecture_code": 28,
    "city": "西宮市",
    "city_kana": "ニシノミヤシ",
    "town": "建石町",
    "town_kana": "タテイシチョウ",
    "street": null,
    "office_name": null,
    "office_name_kana": null
  },
  "0944": {
    "postcode": "6620944",
    "prefecture": "兵庫県",
    "prefecture_kana": "ヒョウゴケン",
    "prefecture_code": 28,
    "city": "西宮市",
    "city_kana": "ニシノミヤシ",
    "town": "川添町",
    "town_kana": "カワゾエチョウ",
    "street": null,
    "office_name": null,
    "office_name_kana": null
  },
  "0945": {
    "postcode": "6620945",
    "prefecture": "兵庫県",
    "prefecture_kana": "ヒョウゴケン",
    "prefecture_code": 28,
    "city": "西宮市",
    "city_kana": "ニシノミヤシ",
    "town": "川東町",
    "town_kana": "カワヒガシチョウ",
    "street": null,
    "office_name": null,
    "office_name_kana": null
  },
  "0946": {
    "postcode": "6620946",
    "prefecture": "兵庫県",
    "prefecture_kana": "ヒョウゴケン",
    "prefecture_code": 28,
    "city": "西宮市",
    "city_kana": "ニシノミヤシ",
    "town": "荒戎町",
    "town_kana": "アラエビスチョウ",
    "street": null,
    "office_name": null,
    "office_name_kana": null
  },
  "0947": {
    "postcode": "6620947",
    "prefecture": "兵庫県",
    "prefecture_kana": "ヒョウゴケン",
    "prefecture_code": 28,
    "city": "西宮市",
    "city_kana": "ニシノミヤシ",
    "town": "宮前町",
    "town_kana": "ミヤマエチョウ",
    "street": null,
    "office_name": null,
    "office_name_kana": null
  },
  "0951": {
    "postcode": "6620951",
    "prefecture": "兵庫県",
    "prefecture_kana": "ヒョウゴケン",
    "prefecture_code": 28,
    "city": "西宮市",
    "city_kana": "ニシノミヤシ",
    "town": "川西町",
    "town_kana": "カワニシチョウ",
    "street": null,
    "office_name": null,
    "office_name_kana": null
  },
  "0952": {
    "postcode": "6620952",
    "prefecture": "兵庫県",
    "prefecture_kana": "ヒョウゴケン",
    "prefecture_code": 28,
    "city": "西宮市",
    "city_kana": "ニシノミヤシ",
    "town": "中浜町",
    "town_kana": "ナカハマチョウ",
    "street": null,
    "office_name": null,
    "office_name_kana": null
  },
  "0953": {
    "postcode": "6620953",
    "prefecture": "兵庫県",
    "prefecture_kana": "ヒョウゴケン",
    "prefecture_code": 28,
    "city": "西宮市",
    "city_kana": "ニシノミヤシ",
    "town": "堀切町",
    "town_kana": "ホリキリチョウ",
    "street": null,
    "office_name": null,
    "office_name_kana": null
  },
  "0954": {
    "postcode": "6620954",
    "prefecture": "兵庫県",
    "prefecture_kana": "ヒョウゴケン",
    "prefecture_code": 28,
    "city": "西宮市",
    "city_kana": "ニシノミヤシ",
    "town": "上葭原町",
    "town_kana": "カミヨシハラチョウ",
    "street": null,
    "office_name": null,
    "office_name_kana": null
  },
  "0955": {
    "postcode": "6620955",
    "prefecture": "兵庫県",
    "prefecture_kana": "ヒョウゴケン",
    "prefecture_code": 28,
    "city": "西宮市",
    "city_kana": "ニシノミヤシ",
    "town": "中葭原町",
    "town_kana": "ナカヨシハラチョウ",
    "street": null,
    "office_name": null,
    "office_name_kana": null
  },
  "0956": {
    "postcode": "6620956",
    "prefecture": "兵庫県",
    "prefecture_kana": "ヒョウゴケン",
    "prefecture_code": 28,
    "city": "西宮市",
    "city_kana": "ニシノミヤシ",
    "town": "下葭原町",
    "town_kana": "シモヨシハラチョウ",
    "street": null,
    "office_name": null,
    "office_name_kana": null
  },
  "0957": {
    "postcode": "6620957",
    "prefecture": "兵庫県",
    "prefecture_kana": "ヒョウゴケン",
    "prefecture_code": 28,
    "city": "西宮市",
    "city_kana": "ニシノミヤシ",
    "town": "大浜町",
    "town_kana": "オオハマチョウ",
    "street": null,
    "office_name": null,
    "office_name_kana": null
  },
  "0961": {
    "postcode": "6620961",
    "prefecture": "兵庫県",
    "prefecture_kana": "ヒョウゴケン",
    "prefecture_code": 28,
    "city": "西宮市",
    "city_kana": "ニシノミヤシ",
    "town": "御茶家所町",
    "town_kana": "オチャヤショチョウ",
    "street": null,
    "office_name": null,
    "office_name_kana": null
  },
  "0962": {
    "postcode": "6620962",
    "prefecture": "兵庫県",
    "prefecture_kana": "ヒョウゴケン",
    "prefecture_code": 28,
    "city": "西宮市",
    "city_kana": "ニシノミヤシ",
    "town": "松下町",
    "town_kana": "マツシタチョウ",
    "street": null,
    "office_name": null,
    "office_name_kana": null
  },
  "0963": {
    "postcode": "6620963",
    "prefecture": "兵庫県",
    "prefecture_kana": "ヒョウゴケン",
    "prefecture_code": 28,
    "city": "西宮市",
    "city_kana": "ニシノミヤシ",
    "town": "屋敷町",
    "town_kana": "ヤシキチョウ",
    "street": null,
    "office_name": null,
    "office_name_kana": null
  },
  "0964": {
    "postcode": "6620964",
    "prefecture": "兵庫県",
    "prefecture_kana": "ヒョウゴケン",
    "prefecture_code": 28,
    "city": "西宮市",
    "city_kana": "ニシノミヤシ",
    "town": "弓場町",
    "town_kana": "ユバチョウ",
    "street": null,
    "office_name": null,
    "office_name_kana": null
  },
  "0965": {
    "postcode": "6620965",
    "prefecture": "兵庫県",
    "prefecture_kana": "ヒョウゴケン",
    "prefecture_code": 28,
    "city": "西宮市",
    "city_kana": "ニシノミヤシ",
    "town": "郷免町",
    "town_kana": "ゴウメンチョウ",
    "street": null,
    "office_name": null,
    "office_name_kana": null
  },
  "0971": {
    "postcode": "6620971",
    "prefecture": "兵庫県",
    "prefecture_kana": "ヒョウゴケン",
    "prefecture_code": 28,
    "city": "西宮市",
    "city_kana": "ニシノミヤシ",
    "town": "和上町",
    "town_kana": "ワジョウチョウ",
    "street": null,
    "office_name": null,
    "office_name_kana": null
  },
  "0972": {
    "postcode": "6620972",
    "prefecture": "兵庫県",
    "prefecture_kana": "ヒョウゴケン",
    "prefecture_code": 28,
    "city": "西宮市",
    "city_kana": "ニシノミヤシ",
    "town": "今在家町",
    "town_kana": "イマザイケチョウ",
    "street": null,
    "office_name": null,
    "office_name_kana": null
  },
  "0973": {
    "postcode": "6620973",
    "prefecture": "兵庫県",
    "prefecture_kana": "ヒョウゴケン",
    "prefecture_code": 28,
    "city": "西宮市",
    "city_kana": "ニシノミヤシ",
    "town": "田中町",
    "town_kana": "タナカチョウ",
    "street": null,
    "office_name": null,
    "office_name_kana": null
  },
  "0974": {
    "postcode": "6620974",
    "prefecture": "兵庫県",
    "prefecture_kana": "ヒョウゴケン",
    "prefecture_code": 28,
    "city": "西宮市",
    "city_kana": "ニシノミヤシ",
    "town": "社家町",
    "town_kana": "シャケチョウ",
    "street": null,
    "office_name": null,
    "office_name_kana": null
  },
  "0975": {
    "postcode": "6620975",
    "prefecture": "兵庫県",
    "prefecture_kana": "ヒョウゴケン",
    "prefecture_code": 28,
    "city": "西宮市",
    "city_kana": "ニシノミヤシ",
    "town": "市庭町",
    "town_kana": "イチニワチョウ",
    "street": null,
    "office_name": null,
    "office_name_kana": null
  },
  "0976": {
    "postcode": "6620976",
    "prefecture": "兵庫県",
    "prefecture_kana": "ヒョウゴケン",
    "prefecture_code": 28,
    "city": "西宮市",
    "city_kana": "ニシノミヤシ",
    "town": "宮西町",
    "town_kana": "ミヤニシチョウ",
    "street": null,
    "office_name": null,
    "office_name_kana": null
  },
  "0977": {
    "postcode": "6620977",
    "prefecture": "兵庫県",
    "prefecture_kana": "ヒョウゴケン",
    "prefecture_code": 28,
    "city": "西宮市",
    "city_kana": "ニシノミヤシ",
    "town": "神楽町",
    "town_kana": "カグラチョウ",
    "street": null,
    "office_name": null,
    "office_name_kana": null
  },
  "0978": {
    "postcode": "6620978",
    "prefecture": "兵庫県",
    "prefecture_kana": "ヒョウゴケン",
    "prefecture_code": 28,
    "city": "西宮市",
    "city_kana": "ニシノミヤシ",
    "town": "産所町",
    "town_kana": "サンショチョウ",
    "street": null,
    "office_name": null,
    "office_name_kana": null
  },
  "8501": {
    "postcode": "6628501",
    "prefecture": "兵庫県",
    "prefecture_kana": "ヒョウゴケン",
    "prefecture_code": 28,
    "city": "西宮市",
    "city_kana": "ニシノミヤシ",
    "town": "上ケ原一番町",
    "town_kana": "ウエガハラ1バンチョウ",
    "street": "１−１５５",
    "office_name": "学校法人　関西学院　（西宮上ケ原キャンパス）",
    "office_name_kana": "ガツコウホウジン カンセイガクイン (ニシノミヤウエガハラキヤンパス)"
  },
  "8502": {
    "postcode": "6628502",
    "prefecture": "兵庫県",
    "prefecture_kana": "ヒョウゴケン",
    "prefecture_code": 28,
    "city": "西宮市",
    "city_kana": "ニシノミヤシ",
    "town": "池田町",
    "town_kana": "イケダチョウ",
    "street": "１２−２０",
    "office_name": "株式会社　新井組",
    "office_name_kana": "カブシキガイシヤ アライグミ"
  },
  "8503": {
    "postcode": "6628503",
    "prefecture": "兵庫県",
    "prefecture_kana": "ヒョウゴケン",
    "prefecture_code": 28,
    "city": "西宮市",
    "city_kana": "ニシノミヤシ",
    "town": "櫨塚町",
    "town_kana": "ハゼツカチョウ",
    "street": "２−２８",
    "office_name": "阪神南県民局　西宮県税事務所",
    "office_name_kana": "ハンシンミナミケンミンキヨク ニシノミヤケンゼイジムシヨ"
  },
  "8505": {
    "postcode": "6628505",
    "prefecture": "兵庫県",
    "prefecture_kana": "ヒョウゴケン",
    "prefecture_code": 28,
    "city": "西宮市",
    "city_kana": "ニシノミヤシ",
    "town": "岡田山",
    "town_kana": "オカダヤマ",
    "street": "４−１",
    "office_name": "学校法人　神戸女学院",
    "office_name_kana": "ガツコウホウジン コウベジヨガクイン"
  },
  "8510": {
    "postcode": "6628510",
    "prefecture": "兵庫県",
    "prefecture_kana": "ヒョウゴケン",
    "prefecture_code": 28,
    "city": "西宮市",
    "city_kana": "ニシノミヤシ",
    "town": "建石町",
    "town_kana": "タテイシチョウ",
    "street": "２−１０",
    "office_name": "辰馬本家酒造　株式会社",
    "office_name_kana": "タツウマホンケシユゾウ カブシキガイシヤ"
  },
  "8521": {
    "postcode": "6628521",
    "prefecture": "兵庫県",
    "prefecture_kana": "ヒョウゴケン",
    "prefecture_code": 28,
    "city": "西宮市",
    "city_kana": "ニシノミヤシ",
    "town": "用海町",
    "town_kana": "ヨウガイチョウ",
    "street": "４−５７",
    "office_name": "日本盛　株式会社",
    "office_name_kana": "ニホンサカリ カブシキガイシヤ"
  },
  "8533": {
    "postcode": "6628533",
    "prefecture": "兵庫県",
    "prefecture_kana": "ヒョウゴケン",
    "prefecture_code": 28,
    "city": "西宮市",
    "city_kana": "ニシノミヤシ",
    "town": "北昭和町",
    "town_kana": "キタショウワチョウ",
    "street": "９−３２",
    "office_name": "兵庫栄養専門学校",
    "office_name_kana": "ヒヨウゴエイヨウセンモンガツコウ"
  },
  "8543": {
    "postcode": "6628543",
    "prefecture": "兵庫県",
    "prefecture_kana": "ヒョウゴケン",
    "prefecture_code": 28,
    "city": "西宮市",
    "city_kana": "ニシノミヤシ",
    "town": "松原町",
    "town_kana": "マツバラチョウ",
    "street": "９−２０",
    "office_name": "加藤産業　株式会社",
    "office_name_kana": "カトウサンギヨウ カブシキガイシヤ"
  },
  "8552": {
    "postcode": "6628552",
    "prefecture": "兵庫県",
    "prefecture_kana": "ヒョウゴケン",
    "prefecture_code": 28,
    "city": "西宮市",
    "city_kana": "ニシノミヤシ",
    "town": "御茶家所町",
    "town_kana": "オチャヤショチョウ",
    "street": "６−４２",
    "office_name": "大手前大学",
    "office_name_kana": "オオテマエダイガク"
  },
  "8555": {
    "postcode": "6628555",
    "prefecture": "兵庫県",
    "prefecture_kana": "ヒョウゴケン",
    "prefecture_code": 28,
    "city": "西宮市",
    "city_kana": "ニシノミヤシ",
    "town": "甑岩町",
    "town_kana": "コシキイワチョウ",
    "street": "６−５８",
    "office_name": "夙川学院短期大学",
    "office_name_kana": "シユクガワガクインタンキダイガク"
  },
  "8558": {
    "postcode": "6628558",
    "prefecture": "兵庫県",
    "prefecture_kana": "ヒョウゴケン",
    "prefecture_code": 28,
    "city": "西宮市",
    "city_kana": "ニシノミヤシ",
    "town": "西宮浜",
    "town_kana": "ニシノミヤハマ",
    "street": "３丁目２−４",
    "office_name": "アサヒパーツ　株式会社",
    "office_name_kana": "アサヒパ-ツ カブシキガイシヤ"
  },
  "8567": {
    "postcode": "6628567",
    "prefecture": "兵庫県",
    "prefecture_kana": "ヒョウゴケン",
    "prefecture_code": 28,
    "city": "西宮市",
    "city_kana": "ニシノミヤシ",
    "town": "六湛寺町",
    "town_kana": "ロクタンジチョウ",
    "street": "１０−３",
    "office_name": "西宮市役所",
    "office_name_kana": "ニシノミヤシヤクシヨ"
  },
  "8580": {
    "postcode": "6628580",
    "prefecture": "兵庫県",
    "prefecture_kana": "ヒョウゴケン",
    "prefecture_code": 28,
    "city": "西宮市",
    "city_kana": "ニシノミヤシ",
    "town": "芦原町",
    "town_kana": "アシハラチョウ",
    "street": "９−５２",
    "office_name": "古野電気　株式会社",
    "office_name_kana": "フルノデンキ カブシキガイシヤ"
  },
  "8585": {
    "postcode": "6628585",
    "prefecture": "兵庫県",
    "prefecture_kana": "ヒョウゴケン",
    "prefecture_code": 28,
    "city": "西宮市",
    "city_kana": "ニシノミヤシ",
    "town": "江上町",
    "town_kana": "エガミチョウ",
    "street": "３−３５",
    "office_name": "西宮税務署",
    "office_name_kana": "ニシノミヤゼイムシヨ"
  },
  "8586": {
    "postcode": "6628586",
    "prefecture": "兵庫県",
    "prefecture_kana": "ヒョウゴケン",
    "prefecture_code": 28,
    "city": "西宮市",
    "city_kana": "ニシノミヤシ",
    "town": "浜松原町",
    "town_kana": "ハママツバラチョウ",
    "street": "２−２１",
    "office_name": "山村硝子　株式会社",
    "office_name_kana": "ヤマムラガラス カブシキガイシヤ"
  }
}