{
  "0000": {
    "postcode": "6650000",
    "prefecture": "兵庫県",
    "prefecture_kana": "ヒョウゴケン",
    "prefecture_code": 28,
    "city": "宝塚市",
    "city_kana": "タカラヅカシ",
    "town": "",
    "town_kana": "",
    "street": null,
    "office_name": null,
    "office_name_kana": null
  },
  "0001": {
    "postcode": "6650001",
    "prefecture": "兵庫県",
    "prefecture_kana": "ヒョウゴケン",
    "prefecture_code": 28,
    "city": "宝塚市",
    "city_kana": "タカラヅカシ",
    "town": "長寿ガ丘",
    "town_kana": "チョウジュガオカ",
    "street": null,
    "office_name": null,
    "office_name_kana": null
  },
  "0002": {
    "postcode": "6650002",
    "prefecture": "兵庫県",
    "prefecture_kana": "ヒョウゴケン",
    "prefecture_code": 28,
    "city": "宝塚市",
    "city_kana": "タカラヅカシ",
    "town": "月見山",
    "town_kana": "ツキミヤマ",
    "street": null,
    "office_name": null,
    "office_name_kana": null
  },
  "0003": {
    "postcode": "6650003",
    "prefecture": "兵庫県",
    "prefecture_kana": "ヒョウゴケン",
    "prefecture_code": 28,
    "city": "宝塚市",
    "city_kana": "タカラヅカシ",
    "town": "湯本町",
    "town_kana": "ユモトチョウ",
    "street": null,
    "office_name": null,
    "office_name_kana": null
  },
  "0004": {
    "postcode": "6650004",
    "prefecture": "兵庫県",
    "prefecture_kana": "ヒョウゴケン",
    "prefecture_code": 28,
    "city": "宝塚市",
    "city_kana": "タカラヅカシ",
    "town": "梅野町",
    "town_kana": "ウメノチョウ",
    "street": null,
    "office_name": null,
    "office_name_kana": null
  },
  "0005": {
    "postcode": "6650005",
    "prefecture": "兵庫県",
    "prefecture_kana": "ヒョウゴケン",
    "prefecture_code": 28,
    "city": "宝塚市",
    "city_kana": "タカラヅカシ",
    "town": "武庫山",
    "town_kana": "ムコヤマ",
    "street": null,
    "office_name": null,
    "office_name_kana": null
  },
  "0006": {
    "postcode": "6650006",
    "prefecture": "兵庫県",
    "prefecture_kana": "ヒョウゴケン",
    "prefecture_code": 28,
    "city": "宝塚市",
    "city_kana": "タカラヅカシ",
    "town": "紅葉ガ丘",
    "town_kana": "モミジガオカ",
    "street": null,
    "office_name": null,
    "office_name_kana": null
  },
  "0007": [
    {
      "postcode": "6650007",
      "prefecture": "兵庫県",
      "prefecture_kana": "ヒョウゴケン",
      "prefecture_code": 28,
      "city": "宝塚市",
      "city_kana": "タカラヅカシ",
      "town": "伊孑志",
      "town_kana": "イソシ",
      "street": null,
      "office_name": null,
      "office_name_kana": null
    },
    {
      "postcode": "6650007",
      "prefecture": "兵庫県",
      "prefecture_kana": "ヒョウゴケン",
      "prefecture_code": 28,
      "city": "宝塚市",
      "city_kana": "タカラヅカシ",
      "town": "伊孑志武庫山",
      "town_kana": "イソシムコヤマ",
      "street": null,
      "office_name": null,
      "office_name_kana": null
    }
  ],
  "0011": {
    "postcode": "6650011",
    "prefecture": "兵庫県",
    "prefecture_kana": "ヒョウゴケン",
    "prefecture_code": 28,
    "city": "宝塚市",
    "city_kana": "タカラヅカシ",
    "town": "南口",
    "town_kana": "ミナミグチ",
    "street": null,
    "office_name": null,
    "office_name_kana": null
  },
  "0012": {
    "postcode": "6650012",
    "prefecture": "兵庫県",
    "prefecture_kana": "ヒョウゴケン",
    "prefecture_code": 28,
    "city": "宝塚市",
    "city_kana": "タカラヅカシ",
    "town": "寿楽荘",
    "town_kana": "ジュラクソウ",
    "street": null,
    "office_name": null,
    "office_name_kana": null
  },
  "0013": {
    "postcode": "6650013",
    "prefecture": "兵庫県",
    "prefecture_kana": "ヒョウゴケン",
    "prefecture_code": 28,
    "city": "宝塚市",
    "city_kana": "タカラヅカシ",
    "town": "宝梅",
    "town_kana": "ホウバイ",
    "street": null,
    "office_name": null,
    "office_name_kana": null
  },
  "0014": {
    "postcode": "6650014",
    "prefecture": "兵庫県",
    "prefecture_kana": "ヒョウゴケン",
    "prefecture_code": 28,
    "city": "宝塚市",
    "city_kana": "タカラヅカシ",
    "town": "青葉台",
    "town_kana": "アオバダイ",
    "street": null,
    "office_name": null,
    "office_name_kana": null
  },
  "0015": {
    "postcode": "6650015",
    "prefecture": "兵庫県",
    "prefecture_kana": "ヒョウゴケン",
    "prefecture_code": 28,
    "city": "宝塚市",
    "city_kana": "タカラヅカシ",
    "town": "光ガ丘",
    "town_kana": "ヒカリガオカ",
    "street": null,
    "office_name": null,
    "office_name_kana": null
  },
  "0016": {
    "postcode": "6650016",
    "prefecture": "兵庫県",
    "prefecture_kana": "ヒョウゴケン",
    "prefecture_code": 28,
    "city": "宝塚市",
    "city_kana": "タカラヅカシ",
    "town": "宝松苑",
    "town_kana": "ホウショウエン",
    "street": null,
    "office_name": null,
    "office_name_kana": null
  },
  "0017": {
    "postcode": "6650017",
    "prefecture": "兵庫県",
    "prefecture_kana": "ヒョウゴケン",
    "prefecture_code": 28,
    "city": "宝塚市",
    "city_kana": "タカラヅカシ",
    "town": "小林西山",
    "town_kana": "オバヤシニシヤマ",
    "street": null,
    "office_name": null,
    "office_name_kana": null
  },
  "0021": {
    "postcode": "6650021",
    "prefecture": "兵庫県",
    "prefecture_kana": "ヒョウゴケン",
    "prefecture_code": 28,
    "city": "宝塚市",
    "city_kana": "タカラヅカシ",
    "town": "中州",
    "town_kana": "ナカス",
    "street": null,
    "office_name": null,
    "office_name_kana": null
  },
  "0022": {
    "postcode": "6650022",
    "prefecture": "兵庫県",
    "prefecture_kana": "ヒョウゴケン",
    "prefecture_code": 28,
    "city": "宝塚市",
    "city_kana": "タカラヅカシ",
    "town": "野上",
    "town_kana": "ノガミ",
    "street": null,
    "office_name": null,
    "office_name_kana": null
  },
  "0023": {
    "postcode": "6650023",
    "prefecture": "兵庫県",
    "prefecture_kana": "ヒョウゴケン",
    "prefecture_code": 28,
    "city": "宝塚市",
    "city_kana": "タカラヅカシ",
    "town": "蔵人",
    "town_kana": "クランド",
    "street": null,
    "office_name": null,
    "office_name_kana": null
  },
  "0024": {
    "postcode": "6650024",
    "prefecture": "兵庫県",
    "prefecture_kana": "ヒョウゴケン",
    "prefecture_code": 28,
    "city": "宝塚市",
    "city_kana": "タカラヅカシ",
    "town": "逆瀬台",
    "town_kana": "サカセダイ",
    "street": null,
    "office_name": null,
    "office_name_kana": null
  },
  "0025": {
    "postcode": "6650025",
    "prefecture": "兵庫県",
    "prefecture_kana": "ヒョウゴケン",
    "prefecture_code": 28,
    "city": "宝塚市",
    "city_kana": "タカラヅカシ",
    "town": "ゆずり葉台",
    "town_kana": "ユズリハダイ",
    "street": null,
    "office_name": null,
    "office_name_kana": null
  },
  "0031": {
    "postcode": "6650031",
    "prefecture": "兵庫県",
    "prefecture_kana": "ヒョウゴケン",
    "prefecture_code": 28,
    "city": "宝塚市",
    "city_kana": "タカラヅカシ",
    "town": "末広町",
    "town_kana": "スエヒロチョウ",
    "street": null,
    "office_name": null,
    "office_name_kana": null
  },
  "0032": {
    "postcode": "6650032",
    "prefecture": "兵庫県",
    "prefecture_kana": "ヒョウゴケン",
    "prefecture_code": 28,
    "city": "宝塚市",
    "city_kana": "タカラヅカシ",
    "town": "東洋町",
    "town_kana": "トウヨウチョウ",
    "street": null,
    "office_name": null,
    "office_name_kana": null
  },
  "0033": {
    "postcode": "6650033",
    "prefecture": "兵庫県",
    "prefecture_kana": "ヒョウゴケン",
    "prefecture_code": 28,
    "city": "宝塚市",
    "city_kana": "タカラヅカシ",
    "town": "伊孑志",
    "town_kana": "イソシ",
    "street": null,
    "office_name": null,
    "office_name_kana": null
  },
  "0034": {
    "postcode": "6650034",
    "prefecture": "兵庫県",
    "prefecture_kana": "ヒョウゴケン",
    "prefecture_code": 28,
    "city": "宝塚市",
    "city_kana": "タカラヅカシ",
    "town": "小林",
    "town_kana": "オバヤシ",
    "street": null,
    "office_name": null,
    "office_name_kana": null
  },
  "0035": {
    "postcode": "6650035",
    "prefecture": "兵庫県",
    "prefecture_kana": "ヒョウゴケン",
    "prefecture_code": 28,
    "city": "宝塚市",
    "city_kana": "タカラヅカシ",
    "town": "逆瀬川",
    "town_kana": "サカセガワ",
    "street": null,
    "office_name": null,
    "office_name_kana": null
  },
  "0041": {
    "postcode": "6650041",
    "prefecture": "兵庫県",
    "prefecture_kana": "ヒョウゴケン",
    "prefecture_code": 28,
    "city": "宝塚市",
    "city_kana": "タカラヅカシ",
    "town": "御所の前町",
    "town_kana": "ゴショノマエチョウ",
    "street": null,
    "office_name": null,
    "office_name_kana": null
  },
  "0042": {
    "postcode": "6650042",
    "prefecture": "兵庫県",
    "prefecture_kana": "ヒョウゴケン",
    "prefecture_code": 28,
    "city": "宝塚市",
    "city_kana": "タカラヅカシ",
    "town": "美幸町",
    "town_kana": "ミユキチョウ",
    "street": null,
    "office_name": null,
    "office_name_kana": null
  },
  "0043": {
    "postcode": "6650043",
    "prefecture": "兵庫県",
    "prefecture_kana": "ヒョウゴケン",
    "prefecture_code": 28,
    "city": "宝塚市",
    "city_kana": "タカラヅカシ",
    "town": "高松町",
    "town_kana": "タカマツチョウ",
    "street": null,
    "office_name": null,
    "office_name_kana": null
  },
  "0044": {
    "postcode": "6650044",
    "prefecture": "兵庫県",
    "prefecture_kana": "ヒョウゴケン",
    "prefecture_code": 28,
    "city": "宝塚市",
    "city_kana": "タカラヅカシ",
    "town": "末成町",
    "town_kana": "スエナリチョウ",
    "street": null,
    "office_name": null,
    "office_name_kana": null
  },
  "0045": {
    "postcode": "6650045",
    "prefecture": "兵庫県",
    "prefecture_kana": "ヒョウゴケン",
    "prefecture_code": 28,
    "city": "宝塚市",
    "city_kana": "タカラヅカシ",
    "town": "光明町",
    "town_kana": "コウミョウチョウ",
    "street": null,
    "office_name": null,
    "office_name_kana": null
  },
  "0046": {
    "postcode": "6650046",
    "prefecture": "兵庫県",
    "prefecture_kana": "ヒョウゴケン",
    "prefecture_code": 28,
    "city": "宝塚市",
    "city_kana": "タカラヅカシ",
    "town": "福井町",
    "town_kana": "フクイチョウ",
    "street": null,
    "office_name": null,
    "office_name_kana": null
  },
  "0047": {
    "postcode": "6650047",
    "prefecture": "兵庫県",
    "prefecture_kana": "ヒョウゴケン",
    "prefecture_code": 28,
    "city": "宝塚市",
    "city_kana": "タカラヅカシ",
    "town": "亀井町",
    "town_kana": "カメイチョウ",
    "street": null,
    "office_name": null,
    "office_name_kana": null
  },
  "0051": {
    "postcode": "6650051",
    "prefecture": "兵庫県",
    "prefecture_kana": "ヒョウゴケン",
    "prefecture_code": 28,
    "city": "宝塚市",
    "city_kana": "タカラヅカシ",
    "town": "高司",
    "town_kana": "タカツカサ",
    "street": null,
    "office_name": null,
    "office_name_kana": null
  },
  "0052": {
    "postcode": "6650052",
    "prefecture": "兵庫県",
    "prefecture_kana": "ヒョウゴケン",
    "prefecture_code": 28,
    "city": "宝塚市",
    "city_kana": "タカラヅカシ",
    "town": "新明和町",
    "town_kana": "シンメイワチョウ",
    "street": null,
    "office_name": null,
    "office_name_kana": null
  },
  "0053": {
    "postcode": "6650053",
    "prefecture": "兵庫県",
    "prefecture_kana": "ヒョウゴケン",
    "prefecture_code": 28,
    "city": "宝塚市",
    "city_kana": "タカラヅカシ",
    "town": "駒の町",
    "town_kana": "コマノチョウ",
    "street": null,
    "office_name": null,
    "office_name_kana": null
  },
  "0054": {
    "postcode": "6650054",
    "prefecture": "兵庫県",
    "prefecture_kana": "ヒョウゴケン",
    "prefecture_code": 28,
    "city": "宝塚市",
    "city_kana": "タカラヅカシ",
    "town": "鹿塩",
    "town_kana": "カシオ",
    "street": null,
    "office_name": null,
    "office_name_kana": null
  },
  "0055": {
    "postcode": "6650055",
    "prefecture": "兵庫県",
    "prefecture_kana": "ヒョウゴケン",
    "prefecture_code": 28,
    "city": "宝塚市",
    "city_kana": "タカラヅカシ",
    "town": "大成町",
    "town_kana": "タイセイチョウ",
    "street": null,
    "office_name": null,
    "office_name_kana": null
  },
  "0056": {
    "postcode": "6650056",
    "prefecture": "兵庫県",
    "prefecture_kana": "ヒョウゴケン",
    "prefecture_code": 28,
    "city": "宝塚市",
    "city_kana": "タカラヅカシ",
    "town": "中野町",
    "town_kana": "ナカノチョウ",
    "street": null,
    "office_name": null,
    "office_name_kana": null
  },
  "0057": {
    "postcode": "6650057",
    "prefecture": "兵庫県",
    "prefecture_kana": "ヒョウゴケン",
    "prefecture_code": 28,
    "city": "宝塚市",
    "city_kana": "タカラヅカシ",
    "town": "大吹町",
    "town_kana": "オオブキチョウ",
    "street": null,
    "office_name": null,
    "office_name_kana": null
  },
  "0061": {
    "postcode": "6650061",
    "prefecture": "兵庫県",
    "prefecture_kana": "ヒョウゴケン",
    "prefecture_code": 28,
    "city": "宝塚市",
    "city_kana": "タカラヅカシ",
    "town": "仁川北",
    "town_kana": "ニガワキタ",
    "street": null,
    "office_name": null,
    "office_name_kana": null
  },
  "0062": {
    "postcode": "6650062",
    "prefecture": "兵庫県",
    "prefecture_kana": "ヒョウゴケン",
    "prefecture_code": 28,
    "city": "宝塚市",
    "city_kana": "タカラヅカシ",
    "town": "仁川高台",
    "town_kana": "ニガワタカダイ",
    "street": null,
    "office_name": null,
    "office_name_kana": null
  },
  "0063": {
    "postcode": "6650063",
    "prefecture": "兵庫県",
    "prefecture_kana": "ヒョウゴケン",
    "prefecture_code": 28,
    "city": "宝塚市",
    "city_kana": "タカラヅカシ",
    "town": "仁川高丸",
    "town_kana": "ニガワタカマル",
    "street": null,
    "office_name": null,
    "office_name_kana": null
  },
  "0064": {
    "postcode": "6650064",
    "prefecture": "兵庫県",
    "prefecture_kana": "ヒョウゴケン",
    "prefecture_code": 28,
    "city": "宝塚市",
    "city_kana": "タカラヅカシ",
    "town": "仁川うぐいす台",
    "town_kana": "ニガワウグイスダイ",
    "street": null,
    "office_name": null,
    "office_name_kana": null
  },
  "0065": {
    "postcode": "6650065",
    "prefecture": "兵庫県",
    "prefecture_kana": "ヒョウゴケン",
    "prefecture_code": 28,
    "city": "宝塚市",
    "city_kana": "タカラヅカシ",
    "town": "仁川旭ガ丘",
    "town_kana": "ニガワアサヒガオカ",
    "street": null,
    "office_name": null,
    "office_name_kana": null
  },
  "0066": {
    "postcode": "6650066",
    "prefecture": "兵庫県",
    "prefecture_kana": "ヒョウゴケン",
    "prefecture_code": 28,
    "city": "宝塚市",
    "city_kana": "タカラヅカシ",
    "town": "仁川団地",
    "town_kana": "ニガワダンチ",
    "street": null,
    "office_name": null,
    "office_name_kana": null
  },
  "0067": {
    "postcode": "6650067",
    "prefecture": "兵庫県",
    "prefecture_kana": "ヒョウゴケン",
    "prefecture_code": 28,
    "city": "宝塚市",
    "city_kana": "タカラヅカシ",
    "town": "仁川月見ガ丘",
    "town_kana": "ニガワツキミガオカ",
    "street": null,
    "office_name": null,
    "office_name_kana": null
  },
  "0068": {
    "postcode": "6650068",
    "prefecture": "兵庫県",
    "prefecture_kana": "ヒョウゴケン",
    "prefecture_code": 28,
    "city": "宝塚市",
    "city_kana": "タカラヅカシ",
    "town": "仁川清風台",
    "town_kana": "ニガワセイフウダイ",
    "street": null,
    "office_name": null,
    "office_name_kana": null
  },
  "0071": {
    "postcode": "6650071",
    "prefecture": "兵庫県",
    "prefecture_kana": "ヒョウゴケン",
    "prefecture_code": 28,
    "city": "宝塚市",
    "city_kana": "タカラヅカシ",
    "town": "社町",
    "town_kana": "ヤシロチョウ",
    "street": null,
    "office_name": null,
    "office_name_kana": null
  },
  "0072": {
    "postcode": "6650072",
    "prefecture": "兵庫県",
    "prefecture_kana": "ヒョウゴケン",
    "prefecture_code": 28,
    "city": "宝塚市",
    "city_kana": "タカラヅカシ",
    "town": "千種",
    "town_kana": "チグサ",
    "street": null,
    "office_name": null,
    "office_name_kana": null
  },
  "0073": {
    "postcode": "6650073",
    "prefecture": "兵庫県",
    "prefecture_kana": "ヒョウゴケン",
    "prefecture_code": 28,
    "city": "宝塚市",
    "city_kana": "タカラヅカシ",
    "town": "塔の町",
    "town_kana": "トウノチョウ",
    "street": null,
    "office_name": null,
    "office_name_kana": null
  },
  "0074": {
    "postcode": "6650074",
    "prefecture": "兵庫県",
    "prefecture_kana": "ヒョウゴケン",
    "prefecture_code": 28,
    "city": "宝塚市",
    "city_kana": "タカラヅカシ",
    "town": "仁川台",
    "town_kana": "ニガワダイ",
    "street": null,
    "office_name": null,
    "office_name_kana": null
  },
  "0075": {
    "postcode": "6650075",
    "prefecture": "兵庫県",
    "prefecture_kana": "ヒョウゴケン",
    "prefecture_code": 28,
    "city": "宝塚市",
    "city_kana": "タカラヅカシ",
    "town": "仁川宮西町",
    "town_kana": "ニガワミヤニシチョウ",
    "street": null,
    "office_name": null,
    "office_name_kana": null
  },
  "0076": {
    "postcode": "6650076",
    "prefecture": "兵庫県",
    "prefecture_kana": "ヒョウゴケン",
    "prefecture_code": 28,
    "city": "宝塚市",
    "city_kana": "タカラヅカシ",
    "town": "谷口町",
    "town_kana": "タニグチチョウ",
    "street": null,
    "office_name": null,
    "office_name_kana": null
  },
  "0801": {
    "postcode": "6650801",
    "prefecture": "兵庫県",
    "prefecture_kana": "ヒョウゴケン",
    "prefecture_code": 28,
    "city": "宝塚市",
    "city_kana": "タカラヅカシ",
    "town": "花屋敷松ガ丘",
    "town_kana": "ハナヤシキマツガオカ",
    "street": null,
    "office_name": null,
    "office_name_kana": null
  },
  "0802": {
    "postcode": "6650802",
    "prefecture": "兵庫県",
    "prefecture_kana": "ヒョウゴケン",
    "prefecture_code": 28,
    "city": "宝塚市",
    "city_kana": "タカラヅカシ",
    "town": "花屋敷荘園",
    "town_kana": "ハナヤシキソウエン",
    "street": null,
    "office_name": null,
    "office_name_kana": null
  },
  "0803": {
    "postcode": "6650803",
    "prefecture": "兵庫県",
    "prefecture_kana": "ヒョウゴケン",
    "prefecture_code": 28,
    "city": "宝塚市",
    "city_kana": "タカラヅカシ",
    "town": "花屋敷つつじガ丘",
    "town_kana": "ハナヤシキツツジガオカ",
    "street": null,
    "office_name": null,
    "office_name_kana": null
  },
  "0804": {
    "postcode": "6650804",
    "prefecture": "兵庫県",
    "prefecture_kana": "ヒョウゴケン",
    "prefecture_code": 28,
    "city": "宝塚市",
    "city_kana": "タカラヅカシ",
    "town": "雲雀丘山手",
    "town_kana": "ヒバリガオカヤマテ",
    "street": null,
    "office_name": null,
    "office_name_kana": null
  },
  "0805": {
    "postcode": "6650805",
    "prefecture": "兵庫県",
    "prefecture_kana": "ヒョウゴケン",
    "prefecture_code": 28,
    "city": "宝塚市",
    "city_kana": "タカラヅカシ",
    "town": "雲雀丘",
    "town_kana": "ヒバリガオカ",
    "street": null,
    "office_name": null,
    "office_name_kana": null
  },
  "0806": {
    "postcode": "6650806",
    "prefecture": "兵庫県",
    "prefecture_kana": "ヒョウゴケン",
    "prefecture_code": 28,
    "city": "宝塚市",
    "city_kana": "タカラヅカシ",
    "town": "ふじガ丘",
    "town_kana": "フジガオカ",
    "street": null,
    "office_name": null,
    "office_name_kana": null
  },
  "0807": {
    "postcode": "6650807",
    "prefecture": "兵庫県",
    "prefecture_kana": "ヒョウゴケン",
    "prefecture_code": 28,
    "city": "宝塚市",
    "city_kana": "タカラヅカシ",
    "town": "長尾台",
    "town_kana": "ナガオダイ",
    "street": null,
    "office_name": null,
    "office_name_kana": null
  },
  "0808": {
    "postcode": "6650808",
    "prefecture": "兵庫県",
    "prefecture_kana": "ヒョウゴケン",
    "prefecture_code": 28,
    "city": "宝塚市",
    "city_kana": "タカラヅカシ",
    "town": "切畑",
    "town_kana": "キリハタ",
    "street": null,
    "office_name": null,
    "office_name_kana": null
  },
  "0811": {
    "postcode": "6650811",
    "prefecture": "兵庫県",
    "prefecture_kana": "ヒョウゴケン",
    "prefecture_code": 28,
    "city": "宝塚市",
    "city_kana": "タカラヅカシ",
    "town": "南ひばりガ丘",
    "town_kana": "ミナミヒバリガオカ",
    "street": null,
    "office_name": null,
    "office_name_kana": null
  },
  "0812": {
    "postcode": "6650812",
    "prefecture": "兵庫県",
    "prefecture_kana": "ヒョウゴケン",
    "prefecture_code": 28,
    "city": "宝塚市",
    "city_kana": "タカラヅカシ",
    "town": "口谷東",
    "town_kana": "クチタニヒガシ",
    "street": null,
    "office_name": null,
    "office_name_kana": null
  },
  "0813": {
    "postcode": "6650813",
    "prefecture": "兵庫県",
    "prefecture_kana": "ヒョウゴケン",
    "prefecture_code": 28,
    "city": "宝塚市",
    "city_kana": "タカラヅカシ",
    "town": "口谷西",
    "town_kana": "クチタニニシ",
    "street": null,
    "office_name": null,
    "office_name_kana": null
  },
  "0814": {
    "postcode": "6650814",
    "prefecture": "兵庫県",
    "prefecture_kana": "ヒョウゴケン",
    "prefecture_code": 28,
    "city": "宝塚市",
    "city_kana": "タカラヅカシ",
    "town": "山本野里",
    "town_kana": "ヤマモトノザト",
    "street": null,
    "office_name": null,
    "office_name_kana": null
  },
  "0815": {
    "postcode": "6650815",
    "prefecture": "兵庫県",
    "prefecture_kana": "ヒョウゴケン",
    "prefecture_code": 28,
    "city": "宝塚市",
    "city_kana": "タカラヅカシ",
    "town": "山本丸橋",
    "town_kana": "ヤマモトマルハシ",
    "street": null,
    "office_name": null,
    "office_name_kana": null
  },
  "0816": {
    "postcode": "6650816",
    "prefecture": "兵庫県",
    "prefecture_kana": "ヒョウゴケン",
    "prefecture_code": 28,
    "city": "宝塚市",
    "city_kana": "タカラヅカシ",
    "town": "平井",
    "town_kana": "ヒライ",
    "street": null,
    "office_name": null,
    "office_name_kana": null
  },
  "0817": {
    "postcode": "6650817",
    "prefecture": "兵庫県",
    "prefecture_kana": "ヒョウゴケン",
    "prefecture_code": 28,
    "city": "宝塚市",
    "city_kana": "タカラヅカシ",
    "town": "平井山荘",
    "town_kana": "ヒライサンソウ",
    "street": null,
    "office_name": null,
    "office_name_kana": null
  },
  "0821": {
    "postcode": "6650821",
    "prefecture": "兵庫県",
    "prefecture_kana": "ヒョウゴケン",
    "prefecture_code": 28,
    "city": "宝塚市",
    "city_kana": "タカラヅカシ",
    "town": "安倉北",
    "town_kana": "アクラキタ",
    "street": null,
    "office_name": null,
    "office_name_kana": null
  },
  "0822": {
    "postcode": "6650822",
    "prefecture": "兵庫県",
    "prefecture_kana": "ヒョウゴケン",
    "prefecture_code": 28,
    "city": "宝塚市",
    "city_kana": "タカラヅカシ",
    "town": "安倉中",
    "town_kana": "アクラナカ",
    "street": null,
    "office_name": null,
    "office_name_kana": null
  },
  "0823": {
    "postcode": "6650823",
    "prefecture": "兵庫県",
    "prefecture_kana": "ヒョウゴケン",
    "prefecture_code": 28,
    "city": "宝塚市",
    "city_kana": "タカラヅカシ",
    "town": "安倉南",
    "town_kana": "アクラミナミ",
    "street": null,
    "office_name": null,
    "office_name_kana": null
  },
  "0824": {
    "postcode": "6650824",
    "prefecture": "兵庫県",
    "prefecture_kana": "ヒョウゴケン",
    "prefecture_code": 28,
    "city": "宝塚市",
    "city_kana": "タカラヅカシ",
    "town": "金井町",
    "town_kana": "カナイチョウ",
    "street": null,
    "office_name": null,
    "office_name_kana": null
  },
  "0825": {
    "postcode": "6650825",
    "prefecture": "兵庫県",
    "prefecture_kana": "ヒョウゴケン",
    "prefecture_code": 28,
    "city": "宝塚市",
    "city_kana": "タカラヅカシ",
    "town": "安倉西",
    "town_kana": "アクラニシ",
    "street": null,
    "office_name": null,
    "office_name_kana": null
  },
  "0826": {
    "postcode": "6650826",
    "prefecture": "兵庫県",
    "prefecture_kana": "ヒョウゴケン",
    "prefecture_code": 28,
    "city": "宝塚市",
    "city_kana": "タカラヅカシ",
    "town": "弥生町",
    "town_kana": "ヤヨイチョウ",
    "street": null,
    "office_name": null,
    "office_name_kana": null
  },
  "0827": {
    "postcode": "6650827",
    "prefecture": "兵庫県",
    "prefecture_kana": "ヒョウゴケン",
    "prefecture_code": 28,
    "city": "宝塚市",
    "city_kana": "タカラヅカシ",
    "town": "小浜",
    "town_kana": "コハマ",
    "street": null,
    "office_name": null,
    "office_name_kana": null
  },
  "0831": {
    "postcode": "6650831",
    "prefecture": "兵庫県",
    "prefecture_kana": "ヒョウゴケン",
    "prefecture_code": 28,
    "city": "宝塚市",
    "city_kana": "タカラヅカシ",
    "town": "米谷",
    "town_kana": "マイタニ",
    "street": null,
    "office_name": null,
    "office_name_kana": null
  },
  "0832": {
    "postcode": "6650832",
    "prefecture": "兵庫県",
    "prefecture_kana": "ヒョウゴケン",
    "prefecture_code": 28,
    "city": "宝塚市",
    "city_kana": "タカラヅカシ",
    "town": "向月町",
    "town_kana": "コウゲツチョウ",
    "street": null,
    "office_name": null,
    "office_name_kana": null
  },
  "0833": {
    "postcode": "6650833",
    "prefecture": "兵庫県",
    "prefecture_kana": "ヒョウゴケン",
    "prefecture_code": 28,
    "city": "宝塚市",
    "city_kana": "タカラヅカシ",
    "town": "鶴の荘",
    "town_kana": "ツルノソウ",
    "street": null,
    "office_name": null,
    "office_name_kana": null
  },
  "0834": {
    "postcode": "6650834",
    "prefecture": "兵庫県",
    "prefecture_kana": "ヒョウゴケン",
    "prefecture_code": 28,
    "city": "宝塚市",
    "city_kana": "タカラヅカシ",
    "town": "美座",
    "town_kana": "ミザ",
    "street": null,
    "office_name": null,
    "office_name_kana": null
  },
  "0835": {
    "postcode": "6650835",
    "prefecture": "兵庫県",
    "prefecture_kana": "ヒョウゴケン",
    "prefecture_code": 28,
    "city": "宝塚市",
    "city_kana": "タカラヅカシ",
    "town": "旭町",
    "town_kana": "アサヒマチ",
    "street": null,
    "office_name": null,
    "office_name_kana": null
  },
  "0836": {
    "postcode": "6650836",
    "prefecture": "兵庫県",
    "prefecture_kana": "ヒョウゴケン",
    "prefecture_code": 28,
    "city": "宝塚市",
    "city_kana": "タカラヅカシ",
    "town": "清荒神",
    "town_kana": "キヨシコウジン",
    "street": null,
    "office_name": null,
    "office_name_kana": null
  },
  "0837": {
    "postcode": "6650837",
    "prefecture": "兵庫県",
    "prefecture_kana": "ヒョウゴケン",
    "prefecture_code": 28,
    "city": "宝塚市",
    "city_kana": "タカラヅカシ",
    "town": "米谷清",
    "town_kana": "マイタニキヨシ",
    "street": null,
    "office_name": null,
    "office_name_kana": null
  },
  "0841": {
    "postcode": "6650841",
    "prefecture": "兵庫県",
    "prefecture_kana": "ヒョウゴケン",
    "prefecture_code": 28,
    "city": "宝塚市",
    "city_kana": "タカラヅカシ",
    "town": "御殿山",
    "town_kana": "ゴテンヤマ",
    "street": null,
    "office_name": null,
    "office_name_kana": null
  },
  "0842": {
    "postcode": "6650842",
    "prefecture": "兵庫県",
    "prefecture_kana": "ヒョウゴケン",
    "prefecture_code": 28,
    "city": "宝塚市",
    "city_kana": "タカラヅカシ",
    "town": "川面",
    "town_kana": "カワモ",
    "street": null,
    "office_name": null,
    "office_name_kana": null
  },
  "0843": {
    "postcode": "6650843",
    "prefecture": "兵庫県",
    "prefecture_kana": "ヒョウゴケン",
    "prefecture_code": 28,
    "city": "宝塚市",
    "city_kana": "タカラヅカシ",
    "town": "宮の町",
    "town_kana": "ミヤノチョウ",
    "street": null,
    "office_name": null,
    "office_name_kana": null
  },
  "0844": {
    "postcode": "6650844",
    "prefecture": "兵庫県",
    "prefecture_kana": "ヒョウゴケン",
    "prefecture_code": 28,
    "city": "宝塚市",
    "city_kana": "タカラヅカシ",
    "town": "武庫川町",
    "town_kana": "ムコガワチョウ",
    "street": null,
    "office_name": null,
    "office_name_kana": null
  },
  "0845": {
    "postcode": "6650845",
    "prefecture": "兵庫県",
    "prefecture_kana": "ヒョウゴケン",
    "prefecture_code": 28,
    "city": "宝塚市",
    "city_kana": "タカラヅカシ",
    "town": "栄町",
    "town_kana": "サカエマチ",
    "street": null,
    "office_name": null,
    "office_name_kana": null
  },
  "0846": {
    "postcode": "6650846",
    "prefecture": "兵庫県",
    "prefecture_kana": "ヒョウゴケン",
    "prefecture_code": 28,
    "city": "宝塚市",
    "city_kana": "タカラヅカシ",
    "town": "桜ガ丘",
    "town_kana": "サクラガオカ",
    "street": null,
    "office_name": null,
    "office_name_kana": null
  },
  "0847": {
    "postcode": "6650847",
    "prefecture": "兵庫県",
    "prefecture_kana": "ヒョウゴケン",
    "prefecture_code": 28,
    "city": "宝塚市",
    "city_kana": "タカラヅカシ",
    "town": "すみれガ丘",
    "town_kana": "スミレガオカ",
    "street": null,
    "office_name": null,
    "office_name_kana": null
  },
  "0848": [
    {
      "postcode": "6650848",
      "prefecture": "兵庫県",
      "prefecture_kana": "ヒョウゴケン",
      "prefecture_code": 28,
      "city": "宝塚市",
      "city_kana": "タカラヅカシ",
      "town": "川面",
      "town_kana": "カワモ",
      "street": null,
      "office_name": null,
      "office_name_kana": null
    },
    {
      "postcode": "6650848",
      "prefecture": "兵庫県",
      "prefecture_kana": "ヒョウゴケン",
      "prefecture_code": 28,
      "city": "宝塚市",
      "city_kana": "タカラヅカシ",
      "town": "川面長尾山",
      "town_kana": "カワモナガオヤマ",
      "street": null,
      "office_name": null,
      "office_name_kana": null
    }
  ],
  "0851": {
    "postcode": "6650851",
    "prefecture": "兵庫県",
    "prefecture_kana": "ヒョウゴケン",
    "prefecture_code": 28,
    "city": "宝塚市",
    "city_kana": "タカラヅカシ",
    "town": "泉ガ丘",
    "town_kana": "イズミガオカ",
    "street": null,
    "office_name": null,
    "office_name_kana": null
  },
  "0852": {
    "postcode": "6650852",
    "prefecture": "兵庫県",
    "prefecture_kana": "ヒョウゴケン",
    "prefecture_code": 28,
    "city": "宝塚市",
    "city_kana": "タカラヅカシ",
    "town": "売布",
    "town_kana": "メフ",
    "street": null,
    "office_name": null,
    "office_name_kana": null
  },
  "0853": {
    "postcode": "6650853",
    "prefecture": "兵庫県",
    "prefecture_kana": "ヒョウゴケン",
    "prefecture_code": 28,
    "city": "宝塚市",
    "city_kana": "タカラヅカシ",
    "town": "売布ガ丘",
    "town_kana": "メフガオカ",
    "street": null,
    "office_name": null,
    "office_name_kana": null
  },
  "0854": {
    "postcode": "6650854",
    "prefecture": "兵庫県",
    "prefecture_kana": "ヒョウゴケン",
    "prefecture_code": 28,
    "city": "宝塚市",
    "city_kana": "タカラヅカシ",
    "town": "売布山手町",
    "town_kana": "メフヤマテチョウ",
    "street": null,
    "office_name": null,
    "office_name_kana": null
  },
  "0855": {
    "postcode": "6650855",
    "prefecture": "兵庫県",
    "prefecture_kana": "ヒョウゴケン",
    "prefecture_code": 28,
    "city": "宝塚市",
    "city_kana": "タカラヅカシ",
    "town": "売布きよしガ丘",
    "town_kana": "メフキヨシガオカ",
    "street": null,
    "office_name": null,
    "office_name_kana": null
  },
  "0856": {
    "postcode": "6650856",
    "prefecture": "兵庫県",
    "prefecture_kana": "ヒョウゴケン",
    "prefecture_code": 28,
    "city": "宝塚市",
    "city_kana": "タカラヅカシ",
    "town": "売布自由ガ丘",
    "town_kana": "メフジユウガオカ",
    "street": null,
    "office_name": null,
    "office_name_kana": null
  },
  "0861": {
    "postcode": "6650861",
    "prefecture": "兵庫県",
    "prefecture_kana": "ヒョウゴケン",
    "prefecture_code": 28,
    "city": "宝塚市",
    "city_kana": "タカラヅカシ",
    "town": "中山寺",
    "town_kana": "ナカヤマデラ",
    "street": null,
    "office_name": null,
    "office_name_kana": null
  },
  "0862": {
    "postcode": "6650862",
    "prefecture": "兵庫県",
    "prefecture_kana": "ヒョウゴケン",
    "prefecture_code": 28,
    "city": "宝塚市",
    "city_kana": "タカラヅカシ",
    "town": "今里町",
    "town_kana": "イマザトチョウ",
    "street": null,
    "office_name": null,
    "office_name_kana": null
  },
  "0863": {
    "postcode": "6650863",
    "prefecture": "兵庫県",
    "prefecture_kana": "ヒョウゴケン",
    "prefecture_code": 28,
    "city": "宝塚市",
    "city_kana": "タカラヅカシ",
    "town": "三笠町",
    "town_kana": "ミカサチョウ",
    "street": null,
    "office_name": null,
    "office_name_kana": null
  },
  "0864": {
    "postcode": "6650864",
    "prefecture": "兵庫県",
    "prefecture_kana": "ヒョウゴケン",
    "prefecture_code": 28,
    "city": "宝塚市",
    "city_kana": "タカラヅカシ",
    "town": "泉町",
    "town_kana": "イズミチョウ",
    "street": null,
    "office_name": null,
    "office_name_kana": null
  },
  "0865": {
    "postcode": "6650865",
    "prefecture": "兵庫県",
    "prefecture_kana": "ヒョウゴケン",
    "prefecture_code": 28,
    "city": "宝塚市",
    "city_kana": "タカラヅカシ",
    "town": "寿町",
    "town_kana": "コトブキチョウ",
    "street": null,
    "office_name": null,
    "office_name_kana": null
  },
  "0866": {
    "postcode": "6650866",
    "prefecture": "兵庫県",
    "prefecture_kana": "ヒョウゴケン",
    "prefecture_code": 28,
    "city": "宝塚市",
    "city_kana": "タカラヅカシ",
    "town": "星の荘",
    "town_kana": "ホシノソウ",
    "street": null,
    "office_name": null,
    "office_name_kana": null
  },
  "0867": {
    "postcode": "6650867",
    "prefecture": "兵庫県",
    "prefecture_kana": "ヒョウゴケン",
    "prefecture_code": 28,
    "city": "宝塚市",
    "city_kana": "タカラヅカシ",
    "town": "売布東の町",
    "town_kana": "メフヒガシノチョウ",
    "street": null,
    "office_name": null,
    "office_name_kana": null
  },
  "0868": {
    "postcode": "6650868",
    "prefecture": "兵庫県",
    "prefecture_kana": "ヒョウゴケン",
    "prefecture_code": 28,
    "city": "宝塚市",
    "city_kana": "タカラヅカシ",
    "town": "中山荘園",
    "town_kana": "ナカヤマソウエン",
    "street": null,
    "office_name": null,
    "office_name_kana": null
  },
  "0871": {
    "postcode": "6650871",
    "prefecture": "兵庫県",
    "prefecture_kana": "ヒョウゴケン",
    "prefecture_code": 28,
    "city": "宝塚市",
    "city_kana": "タカラヅカシ",
    "town": "中山五月台",
    "town_kana": "ナカヤマサツキダイ",
    "street": null,
    "office_name": null,
    "office_name_kana": null
  },
  "0872": [
    {
      "postcode": "6650872",
      "prefecture": "兵庫県",
      "prefecture_kana": "ヒョウゴケン",
      "prefecture_code": 28,
      "city": "宝塚市",
      "city_kana": "タカラヅカシ",
      "town": "中筋",
      "town_kana": "ナカスジ",
      "street": null,
      "office_name": null,
      "office_name_kana": null
    },
    {
      "postcode": "6650872",
      "prefecture": "兵庫県",
      "prefecture_kana": "ヒョウゴケン",
      "prefecture_code": 28,
      "city": "宝塚市",
      "city_kana": "タカラヅカシ",
      "town": "中筋平井",
      "town_kana": "ナカスジヒライ",
      "street": null,
      "office_name": null,
      "office_name_kana": null
    }
  ],
  "0873": {
    "postcode": "6650873",
    "prefecture": "兵庫県",
    "prefecture_kana": "ヒョウゴケン",
    "prefecture_code": 28,
    "city": "宝塚市",
    "city_kana": "タカラヅカシ",
    "town": "長尾町",
    "town_kana": "ナガオチョウ",
    "street": null,
    "office_name": null,
    "office_name_kana": null
  },
  "0874": {
    "postcode": "6650874",
    "prefecture": "兵庫県",
    "prefecture_kana": "ヒョウゴケン",
    "prefecture_code": 28,
    "city": "宝塚市",
    "city_kana": "タカラヅカシ",
    "town": "中筋",
    "town_kana": "ナカスジ",
    "street": null,
    "office_name": null,
    "office_name_kana": null
  },
  "0875": {
    "postcode": "6650875",
    "prefecture": "兵庫県",
    "prefecture_kana": "ヒョウゴケン",
    "prefecture_code": 28,
    "city": "宝塚市",
    "city_kana": "タカラヅカシ",
    "town": "中筋山手",
    "town_kana": "ナカスジヤマテ",
    "street": null,
    "office_name": null,
    "office_name_kana": null
  },
  "0876": {
    "postcode": "6650876",
    "prefecture": "兵庫県",
    "prefecture_kana": "ヒョウゴケン",
    "prefecture_code": 28,
    "city": "宝塚市",
    "city_kana": "タカラヅカシ",
    "town": "中山台",
    "town_kana": "ナカヤマダイ",
    "street": null,
    "office_name": null,
    "office_name_kana": null
  },
  "0877": {
    "postcode": "6650877",
    "prefecture": "兵庫県",
    "prefecture_kana": "ヒョウゴケン",
    "prefecture_code": 28,
    "city": "宝塚市",
    "city_kana": "タカラヅカシ",
    "town": "中山桜台",
    "town_kana": "ナカヤマサクラダイ",
    "street": null,
    "office_name": null,
    "office_name_kana": null
  },
  "0881": {
    "postcode": "6650881",
    "prefecture": "兵庫県",
    "prefecture_kana": "ヒョウゴケン",
    "prefecture_code": 28,
    "city": "宝塚市",
    "city_kana": "タカラヅカシ",
    "town": "山本東",
    "town_kana": "ヤマモトヒガシ",
    "street": null,
    "office_name": null,
    "office_name_kana": null
  },
  "0882": {
    "postcode": "6650882",
    "prefecture": "兵庫県",
    "prefecture_kana": "ヒョウゴケン",
    "prefecture_code": 28,
    "city": "宝塚市",
    "city_kana": "タカラヅカシ",
    "town": "山本南",
    "town_kana": "ヤマモトミナミ",
    "street": null,
    "office_name": null,
    "office_name_kana": null
  },
  "0883": {
    "postcode": "6650883",
    "prefecture": "兵庫県",
    "prefecture_kana": "ヒョウゴケン",
    "prefecture_code": 28,
    "city": "宝塚市",
    "city_kana": "タカラヅカシ",
    "town": "山本中",
    "town_kana": "ヤマモトナカ",
    "street": null,
    "office_name": null,
    "office_name_kana": null
  },
  "0884": {
    "postcode": "6650884",
    "prefecture": "兵庫県",
    "prefecture_kana": "ヒョウゴケン",
    "prefecture_code": 28,
    "city": "宝塚市",
    "city_kana": "タカラヅカシ",
    "town": "山本西",
    "town_kana": "ヤマモトニシ",
    "street": null,
    "office_name": null,
    "office_name_kana": null
  },
  "0885": {
    "postcode": "6650885",
    "prefecture": "兵庫県",
    "prefecture_kana": "ヒョウゴケン",
    "prefecture_code": 28,
    "city": "宝塚市",
    "city_kana": "タカラヅカシ",
    "town": "山本台",
    "town_kana": "ヤマモトダイ",
    "street": null,
    "office_name": null,
    "office_name_kana": null
  },
  "0886": {
    "postcode": "6650886",
    "prefecture": "兵庫県",
    "prefecture_kana": "ヒョウゴケン",
    "prefecture_code": 28,
    "city": "宝塚市",
    "city_kana": "タカラヅカシ",
    "town": "山手台西",
    "town_kana": "ヤマテダイニシ",
    "street": null,
    "office_name": null,
    "office_name_kana": null
  },
  "0887": {
    "postcode": "6650887",
    "prefecture": "兵庫県",
    "prefecture_kana": "ヒョウゴケン",
    "prefecture_code": 28,
    "city": "宝塚市",
    "city_kana": "タカラヅカシ",
    "town": "山手台東",
    "town_kana": "ヤマテダイヒガシ",
    "street": null,
    "office_name": null,
    "office_name_kana": null
  },
  "0891": {
    "postcode": "6650891",
    "prefecture": "兵庫県",
    "prefecture_kana": "ヒョウゴケン",
    "prefecture_code": 28,
    "city": "川西市",
    "city_kana": "カワニシシ",
    "town": "満願寺町",
    "town_kana": "マンガンジチョウ",
    "street": null,
    "office_name": null,
    "office_name_kana": null
  },
  "8501": {
    "postcode": "6658501",
    "prefecture": "兵庫県",
    "prefecture_kana": "ヒョウゴケン",
    "prefecture_code": 28,
    "city": "宝塚市",
    "city_kana": "タカラヅカシ",
    "town": "栄町",
    "town_kana": "サカエマチ",
    "street": "１丁目１２番２８号",
    "office_name": "株式会社　ハイレックスコーポレーション",
    "office_name_kana": "カブシキガイシヤ ハイレツクスコ-ポレ-シヨン"
  },
  "8543": {
    "postcode": "6658543",
    "prefecture": "兵庫県",
    "prefecture_kana": "ヒョウゴケン",
    "prefecture_code": 28,
    "city": "宝塚市",
    "city_kana": "タカラヅカシ",
    "town": "逆瀬川",
    "town_kana": "サカセガワ",
    "street": "１丁目１１番１号アピア２",
    "office_name": "株式会社　エフエム宝塚",
    "office_name_kana": "カブシキガイシヤ エフエムタカラヅカ"
  },
  "8550": {
    "postcode": "6658550",
    "prefecture": "兵庫県",
    "prefecture_kana": "ヒョウゴケン",
    "prefecture_code": 28,
    "city": "宝塚市",
    "city_kana": "タカラヅカシ",
    "town": "新明和町",
    "town_kana": "シンメイワチョウ",
    "street": "１−１",
    "office_name": "新明和工業　株式会社　本社",
    "office_name_kana": "シンメイワコウギヨウ カブシキガイシヤ ホンシヤ"
  },
  "8555": {
    "postcode": "6658555",
    "prefecture": "兵庫県",
    "prefecture_kana": "ヒョウゴケン",
    "prefecture_code": 28,
    "city": "宝塚市",
    "city_kana": "タカラヅカシ",
    "town": "高司",
    "town_kana": "タカツカサ",
    "street": "４丁目２番１号",
    "office_name": "住友化学工業　（株）　農業化学品研究所",
    "office_name_kana": "スミトモカガクコウギヨウ カブシキガイシヤ ノウギヨウカガクヒンケンキユウシヨ"
  },
  "8558": {
    "postcode": "6658558",
    "prefecture": "兵庫県",
    "prefecture_kana": "ヒョウゴケン",
    "prefecture_code": 28,
    "city": "宝塚市",
    "city_kana": "タカラヅカシ",
    "town": "栄町",
    "town_kana": "サカエマチ",
    "street": "１丁目１−５７",
    "office_name": "阪急電鉄　（株）　宝塚大劇場",
    "office_name_kana": "ハンキユウデンテツ カブシキガイシヤ タカラヅカダイゲキジヨウ"
  },
  "8567": {
    "postcode": "6658567",
    "prefecture": "兵庫県",
    "prefecture_kana": "ヒョウゴケン",
    "prefecture_code": 28,
    "city": "宝塚市",
    "city_kana": "タカラヅカシ",
    "town": "旭町",
    "town_kana": "アサヒマチ",
    "street": "２丁目４番１５号",
    "office_name": "阪神北県民局",
    "office_name_kana": "ハンシンキタケンミンキヨク"
  },
  "8585": {
    "postcode": "6658585",
    "prefecture": "兵庫県",
    "prefecture_kana": "ヒョウゴケン",
    "prefecture_code": 28,
    "city": "宝塚市",
    "city_kana": "タカラヅカシ",
    "town": "栄町",
    "town_kana": "サカエマチ",
    "street": "１丁目１−５７",
    "office_name": "宝塚歌劇団",
    "office_name_kana": "タカラヅカカゲキダン"
  },
  "8588": {
    "postcode": "6658588",
    "prefecture": "兵庫県",
    "prefecture_kana": "ヒョウゴケン",
    "prefecture_code": 28,
    "city": "宝塚市",
    "city_kana": "タカラヅカシ",
    "town": "中山寺",
    "town_kana": "ナカヤマデラ",
    "street": "２丁目１１−１",
    "office_name": "大本山　中山寺",
    "office_name_kana": "ダイホンザン ナカヤマデラ"
  },
  "8665": {
    "postcode": "6658665",
    "prefecture": "兵庫県",
    "prefecture_kana": "ヒョウゴケン",
    "prefecture_code": 28,
    "city": "宝塚市",
    "city_kana": "タカラヅカシ",
    "town": "東洋町",
    "town_kana": "トウヨウチョウ",
    "street": "１番１号（宝塚郵便局私書箱第１１号）",
    "office_name": "宝塚市役所",
    "office_name_kana": "タカラヅカシヤクシヨ"
  }
}