{
  "0000": {
    "postcode": "6670000",
    "prefecture": "兵庫県",
    "prefecture_kana": "ヒョウゴケン",
    "prefecture_code": 28,
    "city": "養父市",
    "city_kana": "ヤブシ",
    "town": "",
    "town_kana": "",
    "street": null,
    "office_name": null,
    "office_name_kana": null
  },
  "0001": {
    "postcode": "6670001",
    "prefecture": "兵庫県",
    "prefecture_kana": "ヒョウゴケン",
    "prefecture_code": 28,
    "city": "養父市",
    "city_kana": "ヤブシ",
    "town": "八鹿町青山",
    "town_kana": "ヨウカチョウアオヤマ",
    "street": null,
    "office_name": null,
    "office_name_kana": null
  },
  "0002": {
    "postcode": "6670002",
    "prefecture": "兵庫県",
    "prefecture_kana": "ヒョウゴケン",
    "prefecture_code": 28,
    "city": "養父市",
    "city_kana": "ヤブシ",
    "town": "八鹿町三谷",
    "town_kana": "ヨウカチョウミタニ",
    "street": null,
    "office_name": null,
    "office_name_kana": null
  },
  "0003": {
    "postcode": "6670003",
    "prefecture": "兵庫県",
    "prefecture_kana": "ヒョウゴケン",
    "prefecture_code": 28,
    "city": "養父市",
    "city_kana": "ヤブシ",
    "town": "八鹿町宿南",
    "town_kana": "ヨウカチョウシュクナミ",
    "street": null,
    "office_name": null,
    "office_name_kana": null
  },
  "0004": {
    "postcode": "6670004",
    "prefecture": "兵庫県",
    "prefecture_kana": "ヒョウゴケン",
    "prefecture_code": 28,
    "city": "養父市",
    "city_kana": "ヤブシ",
    "town": "八鹿町上小田",
    "town_kana": "ヨウカチョウカミオダ",
    "street": null,
    "office_name": null,
    "office_name_kana": null
  },
  "0005": {
    "postcode": "6670005",
    "prefecture": "兵庫県",
    "prefecture_kana": "ヒョウゴケン",
    "prefecture_code": 28,
    "city": "養父市",
    "city_kana": "ヤブシ",
    "town": "八鹿町下小田",
    "town_kana": "ヨウカチョウシモオダ",
    "street": null,
    "office_name": null,
    "office_name_kana": null
  },
  "0011": {
    "postcode": "6670011",
    "prefecture": "兵庫県",
    "prefecture_kana": "ヒョウゴケン",
    "prefecture_code": 28,
    "city": "養父市",
    "city_kana": "ヤブシ",
    "town": "八鹿町浅間",
    "town_kana": "ヨウカチョウアサマ",
    "street": null,
    "office_name": null,
    "office_name_kana": null
  },
  "0012": {
    "postcode": "6670012",
    "prefecture": "兵庫県",
    "prefecture_kana": "ヒョウゴケン",
    "prefecture_code": 28,
    "city": "養父市",
    "city_kana": "ヤブシ",
    "town": "八鹿町伊佐",
    "town_kana": "ヨウカチョウイザ",
    "street": null,
    "office_name": null,
    "office_name_kana": null
  },
  "0013": {
    "postcode": "6670013",
    "prefecture": "兵庫県",
    "prefecture_kana": "ヒョウゴケン",
    "prefecture_code": 28,
    "city": "養父市",
    "city_kana": "ヤブシ",
    "town": "八鹿町坂本",
    "town_kana": "ヨウカチョウサカモト",
    "street": null,
    "office_name": null,
    "office_name_kana": null
  },
  "0014": {
    "postcode": "6670014",
    "prefecture": "兵庫県",
    "prefecture_kana": "ヒョウゴケン",
    "prefecture_code": 28,
    "city": "養父市",
    "city_kana": "ヤブシ",
    "town": "八鹿町岩崎",
    "town_kana": "ヨウカチョウイワサイ",
    "street": null,
    "office_name": null,
    "office_name_kana": null
  },
  "0015": {
    "postcode": "6670015",
    "prefecture": "兵庫県",
    "prefecture_kana": "ヒョウゴケン",
    "prefecture_code": 28,
    "city": "養父市",
    "city_kana": "ヤブシ",
    "town": "八鹿町大江",
    "town_kana": "ヨウカチョウオオエ",
    "street": null,
    "office_name": null,
    "office_name_kana": null
  },
  "0016": {
    "postcode": "6670016",
    "prefecture": "兵庫県",
    "prefecture_kana": "ヒョウゴケン",
    "prefecture_code": 28,
    "city": "養父市",
    "city_kana": "ヤブシ",
    "town": "八鹿町舞狂",
    "town_kana": "ヨウカチョウブキョウ",
    "street": null,
    "office_name": null,
    "office_name_kana": null
  },
  "0021": {
    "postcode": "6670021",
    "prefecture": "兵庫県",
    "prefecture_kana": "ヒョウゴケン",
    "prefecture_code": 28,
    "city": "養父市",
    "city_kana": "ヤブシ",
    "town": "八鹿町八鹿",
    "town_kana": "ヨウカチョウヨウカ",
    "street": null,
    "office_name": null,
    "office_name_kana": null
  },
  "0022": {
    "postcode": "6670022",
    "prefecture": "兵庫県",
    "prefecture_kana": "ヒョウゴケン",
    "prefecture_code": 28,
    "city": "養父市",
    "city_kana": "ヤブシ",
    "town": "八鹿町下網場",
    "town_kana": "ヨウカチョウシモナンバ",
    "street": null,
    "office_name": null,
    "office_name_kana": null
  },
  "0023": {
    "postcode": "6670023",
    "prefecture": "兵庫県",
    "prefecture_kana": "ヒョウゴケン",
    "prefecture_code": 28,
    "city": "養父市",
    "city_kana": "ヤブシ",
    "town": "八鹿町上網場",
    "town_kana": "ヨウカチョウカミナンバ",
    "street": null,
    "office_name": null,
    "office_name_kana": null
  },
  "0024": {
    "postcode": "6670024",
    "prefecture": "兵庫県",
    "prefecture_kana": "ヒョウゴケン",
    "prefecture_code": 28,
    "city": "養父市",
    "city_kana": "ヤブシ",
    "town": "八鹿町朝倉",
    "town_kana": "ヨウカチョウアサクラ",
    "street": null,
    "office_name": null,
    "office_name_kana": null
  },
  "0031": {
    "postcode": "6670031",
    "prefecture": "兵庫県",
    "prefecture_kana": "ヒョウゴケン",
    "prefecture_code": 28,
    "city": "養父市",
    "city_kana": "ヤブシ",
    "town": "八鹿町九鹿",
    "town_kana": "ヨウカチョウクロク",
    "street": null,
    "office_name": null,
    "office_name_kana": null
  },
  "0032": {
    "postcode": "6670032",
    "prefecture": "兵庫県",
    "prefecture_kana": "ヒョウゴケン",
    "prefecture_code": 28,
    "city": "養父市",
    "city_kana": "ヤブシ",
    "town": "八鹿町小山",
    "town_kana": "ヨウカチョウコヤマ",
    "street": null,
    "office_name": null,
    "office_name_kana": null
  },
  "0041": {
    "postcode": "6670041",
    "prefecture": "兵庫県",
    "prefecture_kana": "ヒョウゴケン",
    "prefecture_code": 28,
    "city": "養父市",
    "city_kana": "ヤブシ",
    "town": "八鹿町八木",
    "town_kana": "ヨウカチョウヤギ",
    "street": null,
    "office_name": null,
    "office_name_kana": null
  },
  "0042": {
    "postcode": "6670042",
    "prefecture": "兵庫県",
    "prefecture_kana": "ヒョウゴケン",
    "prefecture_code": 28,
    "city": "養父市",
    "city_kana": "ヤブシ",
    "town": "八鹿町今滝寺",
    "town_kana": "ヨウカチョウコンリュウジ",
    "street": null,
    "office_name": null,
    "office_name_kana": null
  },
  "0043": {
    "postcode": "6670043",
    "prefecture": "兵庫県",
    "prefecture_kana": "ヒョウゴケン",
    "prefecture_code": 28,
    "city": "養父市",
    "city_kana": "ヤブシ",
    "town": "八鹿町高柳",
    "town_kana": "ヨウカチョウタカヤナギ",
    "street": null,
    "office_name": null,
    "office_name_kana": null
  },
  "0044": {
    "postcode": "6670044",
    "prefecture": "兵庫県",
    "prefecture_kana": "ヒョウゴケン",
    "prefecture_code": 28,
    "city": "養父市",
    "city_kana": "ヤブシ",
    "town": "八鹿町国木",
    "town_kana": "ヨウカチョウクヌギ",
    "street": null,
    "office_name": null,
    "office_name_kana": null
  },
  "0045": {
    "postcode": "6670045",
    "prefecture": "兵庫県",
    "prefecture_kana": "ヒョウゴケン",
    "prefecture_code": 28,
    "city": "養父市",
    "city_kana": "ヤブシ",
    "town": "八鹿町米里",
    "town_kana": "ヨウカチョウメイリ",
    "street": null,
    "office_name": null,
    "office_name_kana": null
  },
  "0051": {
    "postcode": "6670051",
    "prefecture": "兵庫県",
    "prefecture_kana": "ヒョウゴケン",
    "prefecture_code": 28,
    "city": "養父市",
    "city_kana": "ヤブシ",
    "town": "八鹿町石原",
    "town_kana": "ヨウカチョウイシハラ",
    "street": null,
    "office_name": null,
    "office_name_kana": null
  },
  "0052": {
    "postcode": "6670052",
    "prefecture": "兵庫県",
    "prefecture_kana": "ヒョウゴケン",
    "prefecture_code": 28,
    "city": "養父市",
    "city_kana": "ヤブシ",
    "town": "八鹿町日畑",
    "town_kana": "ヨウカチョウヒバタ",
    "street": null,
    "office_name": null,
    "office_name_kana": null
  },
  "0053": {
    "postcode": "6670053",
    "prefecture": "兵庫県",
    "prefecture_kana": "ヒョウゴケン",
    "prefecture_code": 28,
    "city": "養父市",
    "city_kana": "ヤブシ",
    "town": "八鹿町小佐",
    "town_kana": "ヨウカチョウオサ",
    "street": null,
    "office_name": null,
    "office_name_kana": null
  },
  "0101": {
    "postcode": "6670101",
    "prefecture": "兵庫県",
    "prefecture_kana": "ヒョウゴケン",
    "prefecture_code": 28,
    "city": "養父市",
    "city_kana": "ヤブシ",
    "town": "広谷",
    "town_kana": "ヒロタニ",
    "street": null,
    "office_name": null,
    "office_name_kana": null
  },
  "0102": {
    "postcode": "6670102",
    "prefecture": "兵庫県",
    "prefecture_kana": "ヒョウゴケン",
    "prefecture_code": 28,
    "city": "養父市",
    "city_kana": "ヤブシ",
    "town": "十二所",
    "town_kana": "ジュウニショ",
    "street": null,
    "office_name": null,
    "office_name_kana": null
  },
  "0103": {
    "postcode": "6670103",
    "prefecture": "兵庫県",
    "prefecture_kana": "ヒョウゴケン",
    "prefecture_code": 28,
    "city": "養父市",
    "city_kana": "ヤブシ",
    "town": "浅野",
    "town_kana": "アザノ",
    "street": null,
    "office_name": null,
    "office_name_kana": null
  },
  "0104": {
    "postcode": "6670104",
    "prefecture": "兵庫県",
    "prefecture_kana": "ヒョウゴケン",
    "prefecture_code": 28,
    "city": "養父市",
    "city_kana": "ヤブシ",
    "town": "伊豆",
    "town_kana": "イズ",
    "street": null,
    "office_name": null,
    "office_name_kana": null
  },
  "0105": {
    "postcode": "6670105",
    "prefecture": "兵庫県",
    "prefecture_kana": "ヒョウゴケン",
    "prefecture_code": 28,
    "city": "養父市",
    "city_kana": "ヤブシ",
    "town": "左近山",
    "town_kana": "サコヤマ",
    "street": null,
    "office_name": null,
    "office_name_kana": null
  },
  "0106": {
    "postcode": "6670106",
    "prefecture": "兵庫県",
    "prefecture_kana": "ヒョウゴケン",
    "prefecture_code": 28,
    "city": "養父市",
    "city_kana": "ヤブシ",
    "town": "玉見",
    "town_kana": "タマミ",
    "street": null,
    "office_name": null,
    "office_name_kana": null
  },
  "0107": {
    "postcode": "6670107",
    "prefecture": "兵庫県",
    "prefecture_kana": "ヒョウゴケン",
    "prefecture_code": 28,
    "city": "養父市",
    "city_kana": "ヤブシ",
    "town": "新津",
    "town_kana": "シンヅ",
    "street": null,
    "office_name": null,
    "office_name_kana": null
  },
  "0111": {
    "postcode": "6670111",
    "prefecture": "兵庫県",
    "prefecture_kana": "ヒョウゴケン",
    "prefecture_code": 28,
    "city": "養父市",
    "city_kana": "ヤブシ",
    "town": "大薮",
    "town_kana": "オオヤブ",
    "street": null,
    "office_name": null,
    "office_name_kana": null
  },
  "0112": {
    "postcode": "6670112",
    "prefecture": "兵庫県",
    "prefecture_kana": "ヒョウゴケン",
    "prefecture_code": 28,
    "city": "養父市",
    "city_kana": "ヤブシ",
    "town": "養父市場",
    "town_kana": "ヤブイチバ",
    "street": null,
    "office_name": null,
    "office_name_kana": null
  },
  "0113": {
    "postcode": "6670113",
    "prefecture": "兵庫県",
    "prefecture_kana": "ヒョウゴケン",
    "prefecture_code": 28,
    "city": "養父市",
    "city_kana": "ヤブシ",
    "town": "薮崎",
    "town_kana": "ヤブサキ",
    "street": null,
    "office_name": null,
    "office_name_kana": null
  },
  "0114": {
    "postcode": "6670114",
    "prefecture": "兵庫県",
    "prefecture_kana": "ヒョウゴケン",
    "prefecture_code": 28,
    "city": "養父市",
    "city_kana": "ヤブシ",
    "town": "小城",
    "town_kana": "コジョウ",
    "street": null,
    "office_name": null,
    "office_name_kana": null
  },
  "0115": {
    "postcode": "6670115",
    "prefecture": "兵庫県",
    "prefecture_kana": "ヒョウゴケン",
    "prefecture_code": 28,
    "city": "養父市",
    "city_kana": "ヤブシ",
    "town": "上箇",
    "town_kana": "アゲ",
    "street": null,
    "office_name": null,
    "office_name_kana": null
  },
  "0121": {
    "postcode": "6670121",
    "prefecture": "兵庫県",
    "prefecture_kana": "ヒョウゴケン",
    "prefecture_code": 28,
    "city": "養父市",
    "city_kana": "ヤブシ",
    "town": "奥米地",
    "town_kana": "オクメイジ",
    "street": null,
    "office_name": null,
    "office_name_kana": null
  },
  "0122": {
    "postcode": "6670122",
    "prefecture": "兵庫県",
    "prefecture_kana": "ヒョウゴケン",
    "prefecture_code": 28,
    "city": "養父市",
    "city_kana": "ヤブシ",
    "town": "中米地",
    "town_kana": "ナカメイジ",
    "street": null,
    "office_name": null,
    "office_name_kana": null
  },
  "0123": {
    "postcode": "6670123",
    "prefecture": "兵庫県",
    "prefecture_kana": "ヒョウゴケン",
    "prefecture_code": 28,
    "city": "養父市",
    "city_kana": "ヤブシ",
    "town": "鉄屋米地",
    "town_kana": "カナヤメイジ",
    "street": null,
    "office_name": null,
    "office_name_kana": null
  },
  "0124": {
    "postcode": "6670124",
    "prefecture": "兵庫県",
    "prefecture_kana": "ヒョウゴケン",
    "prefecture_code": 28,
    "city": "養父市",
    "city_kana": "ヤブシ",
    "town": "口米地",
    "town_kana": "クチメイジ",
    "street": null,
    "office_name": null,
    "office_name_kana": null
  },
  "0125": {
    "postcode": "6670125",
    "prefecture": "兵庫県",
    "prefecture_kana": "ヒョウゴケン",
    "prefecture_code": 28,
    "city": "養父市",
    "city_kana": "ヤブシ",
    "town": "大塚",
    "town_kana": "オオツカ",
    "street": null,
    "office_name": null,
    "office_name_kana": null
  },
  "0126": {
    "postcode": "6670126",
    "prefecture": "兵庫県",
    "prefecture_kana": "ヒョウゴケン",
    "prefecture_code": 28,
    "city": "養父市",
    "city_kana": "ヤブシ",
    "town": "堀畑",
    "town_kana": "ホリハタ",
    "street": null,
    "office_name": null,
    "office_name_kana": null
  },
  "0131": {
    "postcode": "6670131",
    "prefecture": "兵庫県",
    "prefecture_kana": "ヒョウゴケン",
    "prefecture_code": 28,
    "city": "養父市",
    "city_kana": "ヤブシ",
    "town": "上野",
    "town_kana": "ウエノ",
    "street": null,
    "office_name": null,
    "office_name_kana": null
  },
  "0132": {
    "postcode": "6670132",
    "prefecture": "兵庫県",
    "prefecture_kana": "ヒョウゴケン",
    "prefecture_code": 28,
    "city": "養父市",
    "city_kana": "ヤブシ",
    "town": "稲津",
    "town_kana": "イナヅ",
    "street": null,
    "office_name": null,
    "office_name_kana": null
  },
  "0133": {
    "postcode": "6670133",
    "prefecture": "兵庫県",
    "prefecture_kana": "ヒョウゴケン",
    "prefecture_code": 28,
    "city": "養父市",
    "city_kana": "ヤブシ",
    "town": "畑",
    "town_kana": "ハタ",
    "street": null,
    "office_name": null,
    "office_name_kana": null
  },
  "0134": {
    "postcode": "6670134",
    "prefecture": "兵庫県",
    "prefecture_kana": "ヒョウゴケン",
    "prefecture_code": 28,
    "city": "養父市",
    "city_kana": "ヤブシ",
    "town": "大坪",
    "town_kana": "オオツボ",
    "street": null,
    "office_name": null,
    "office_name_kana": null
  },
  "0135": {
    "postcode": "6670135",
    "prefecture": "兵庫県",
    "prefecture_kana": "ヒョウゴケン",
    "prefecture_code": 28,
    "city": "養父市",
    "city_kana": "ヤブシ",
    "town": "船谷",
    "town_kana": "フネダニ",
    "street": null,
    "office_name": null,
    "office_name_kana": null
  },
  "0136": {
    "postcode": "6670136",
    "prefecture": "兵庫県",
    "prefecture_kana": "ヒョウゴケン",
    "prefecture_code": 28,
    "city": "養父市",
    "city_kana": "ヤブシ",
    "town": "三谷",
    "town_kana": "ミタニ",
    "street": null,
    "office_name": null,
    "office_name_kana": null
  },
  "0141": {
    "postcode": "6670141",
    "prefecture": "兵庫県",
    "prefecture_kana": "ヒョウゴケン",
    "prefecture_code": 28,
    "city": "養父市",
    "city_kana": "ヤブシ",
    "town": "森",
    "town_kana": "モリ",
    "street": null,
    "office_name": null,
    "office_name_kana": null
  },
  "0142": {
    "postcode": "6670142",
    "prefecture": "兵庫県",
    "prefecture_kana": "ヒョウゴケン",
    "prefecture_code": 28,
    "city": "養父市",
    "city_kana": "ヤブシ",
    "town": "建屋",
    "town_kana": "タキノヤ",
    "street": null,
    "office_name": null,
    "office_name_kana": null
  },
  "0143": {
    "postcode": "6670143",
    "prefecture": "兵庫県",
    "prefecture_kana": "ヒョウゴケン",
    "prefecture_code": 28,
    "city": "養父市",
    "city_kana": "ヤブシ",
    "town": "能座",
    "town_kana": "ノウザ",
    "street": null,
    "office_name": null,
    "office_name_kana": null
  },
  "0144": {
    "postcode": "6670144",
    "prefecture": "兵庫県",
    "prefecture_kana": "ヒョウゴケン",
    "prefecture_code": 28,
    "city": "養父市",
    "city_kana": "ヤブシ",
    "town": "餅耕地",
    "town_kana": "モチゴウチ",
    "street": null,
    "office_name": null,
    "office_name_kana": null
  },
  "0145": {
    "postcode": "6670145",
    "prefecture": "兵庫県",
    "prefecture_kana": "ヒョウゴケン",
    "prefecture_code": 28,
    "city": "養父市",
    "city_kana": "ヤブシ",
    "town": "長野",
    "town_kana": "ナガノ",
    "street": null,
    "office_name": null,
    "office_name_kana": null
  },
  "0198": {
    "postcode": "6670198",
    "prefecture": "兵庫県",
    "prefecture_kana": "ヒョウゴケン",
    "prefecture_code": 28,
    "city": "養父市",
    "city_kana": "ヤブシ",
    "town": "広谷",
    "town_kana": "ヒロタニ",
    "street": "２５０−１",
    "office_name": "養父市　養父地域局",
    "office_name_kana": "ヤブシ ヤブチイキキヨク"
  },
  "0301": {
    "postcode": "6670301",
    "prefecture": "兵庫県",
    "prefecture_kana": "ヒョウゴケン",
    "prefecture_code": 28,
    "city": "養父市",
    "city_kana": "ヤブシ",
    "town": "大屋町上山",
    "town_kana": "オオヤチョウウヤマ",
    "street": null,
    "office_name": null,
    "office_name_kana": null
  },
  "0302": {
    "postcode": "6670302",
    "prefecture": "兵庫県",
    "prefecture_kana": "ヒョウゴケン",
    "prefecture_code": 28,
    "city": "養父市",
    "city_kana": "ヤブシ",
    "town": "大屋町樽見",
    "town_kana": "オオヤチョウタルミ",
    "street": null,
    "office_name": null,
    "office_name_kana": null
  },
  "0303": {
    "postcode": "6670303",
    "prefecture": "兵庫県",
    "prefecture_kana": "ヒョウゴケン",
    "prefecture_code": 28,
    "city": "養父市",
    "city_kana": "ヤブシ",
    "town": "大屋町おうみ",
    "town_kana": "オオヤチョウオウミ",
    "street": null,
    "office_name": null,
    "office_name_kana": null
  },
  "0304": [
    {
      "postcode": "6670304",
      "prefecture": "兵庫県",
      "prefecture_kana": "ヒョウゴケン",
      "prefecture_code": 28,
      "city": "養父市",
      "city_kana": "ヤブシ",
      "town": "大屋町中",
      "town_kana": "オオヤチョウナカ",
      "street": null,
      "office_name": null,
      "office_name_kana": null
    },
    {
      "postcode": "6670304",
      "prefecture": "兵庫県",
      "prefecture_kana": "ヒョウゴケン",
      "prefecture_code": 28,
      "city": "養父市",
      "city_kana": "ヤブシ",
      "town": "大屋町由良",
      "town_kana": "オオヤチョウユラ",
      "street": null,
      "office_name": null,
      "office_name_kana": null
    }
  ],
  "0305": {
    "postcode": "6670305",
    "prefecture": "兵庫県",
    "prefecture_kana": "ヒョウゴケン",
    "prefecture_code": 28,
    "city": "養父市",
    "city_kana": "ヤブシ",
    "town": "大屋町夏梅",
    "town_kana": "オオヤチョウナツメ",
    "street": null,
    "office_name": null,
    "office_name_kana": null
  },
  "0306": {
    "postcode": "6670306",
    "prefecture": "兵庫県",
    "prefecture_kana": "ヒョウゴケン",
    "prefecture_code": 28,
    "city": "養父市",
    "city_kana": "ヤブシ",
    "town": "大屋町宮垣",
    "town_kana": "オオヤチョウミヤガキ",
    "street": null,
    "office_name": null,
    "office_name_kana": null
  },
  "0311": {
    "postcode": "6670311",
    "prefecture": "兵庫県",
    "prefecture_kana": "ヒョウゴケン",
    "prefecture_code": 28,
    "city": "養父市",
    "city_kana": "ヤブシ",
    "town": "大屋町大屋市場",
    "town_kana": "オオヤチョウオオヤイチバ",
    "street": null,
    "office_name": null,
    "office_name_kana": null
  },
  "0312": {
    "postcode": "6670312",
    "prefecture": "兵庫県",
    "prefecture_kana": "ヒョウゴケン",
    "prefecture_code": 28,
    "city": "養父市",
    "city_kana": "ヤブシ",
    "town": "大屋町山路",
    "town_kana": "オオヤチョウヤマジ",
    "street": null,
    "office_name": null,
    "office_name_kana": null
  },
  "0313": {
    "postcode": "6670313",
    "prefecture": "兵庫県",
    "prefecture_kana": "ヒョウゴケン",
    "prefecture_code": 28,
    "city": "養父市",
    "city_kana": "ヤブシ",
    "town": "大屋町笠谷",
    "town_kana": "オオヤチョウカサダニ",
    "street": null,
    "office_name": null,
    "office_name_kana": null
  },
  "0314": {
    "postcode": "6670314",
    "prefecture": "兵庫県",
    "prefecture_kana": "ヒョウゴケン",
    "prefecture_code": 28,
    "city": "養父市",
    "city_kana": "ヤブシ",
    "town": "大屋町大杉",
    "town_kana": "オオヤチョウオオスギ",
    "street": null,
    "office_name": null,
    "office_name_kana": null
  },
  "0315": {
    "postcode": "6670315",
    "prefecture": "兵庫県",
    "prefecture_kana": "ヒョウゴケン",
    "prefecture_code": 28,
    "city": "養父市",
    "city_kana": "ヤブシ",
    "town": "大屋町加保",
    "town_kana": "オオヤチョウカボ",
    "street": null,
    "office_name": null,
    "office_name_kana": null
  },
  "0321": {
    "postcode": "6670321",
    "prefecture": "兵庫県",
    "prefecture_kana": "ヒョウゴケン",
    "prefecture_code": 28,
    "city": "養父市",
    "city_kana": "ヤブシ",
    "town": "大屋町蔵垣",
    "town_kana": "オオヤチョウクラガキ",
    "street": null,
    "office_name": null,
    "office_name_kana": null
  },
  "0322": {
    "postcode": "6670322",
    "prefecture": "兵庫県",
    "prefecture_kana": "ヒョウゴケン",
    "prefecture_code": 28,
    "city": "養父市",
    "city_kana": "ヤブシ",
    "town": "大屋町筏",
    "town_kana": "オオヤチョウイカダ",
    "street": null,
    "office_name": null,
    "office_name_kana": null
  },
  "0323": {
    "postcode": "6670323",
    "prefecture": "兵庫県",
    "prefecture_kana": "ヒョウゴケン",
    "prefecture_code": 28,
    "city": "養父市",
    "city_kana": "ヤブシ",
    "town": "大屋町若杉",
    "town_kana": "オオヤチョウワカス",
    "street": null,
    "office_name": null,
    "office_name_kana": null
  },
  "0324": {
    "postcode": "6670324",
    "prefecture": "兵庫県",
    "prefecture_kana": "ヒョウゴケン",
    "prefecture_code": 28,
    "city": "養父市",
    "city_kana": "ヤブシ",
    "town": "大屋町横行",
    "town_kana": "オオヤチョウヨコイキ",
    "street": null,
    "office_name": null,
    "office_name_kana": null
  },
  "0325": [
    {
      "postcode": "6670325",
      "prefecture": "兵庫県",
      "prefecture_kana": "ヒョウゴケン",
      "prefecture_code": 28,
      "city": "養父市",
      "city_kana": "ヤブシ",
      "town": "大屋町栗ノ下",
      "town_kana": "オオヤチョウクリノシタ",
      "street": null,
      "office_name": null,
      "office_name_kana": null
    },
    {
      "postcode": "6670325",
      "prefecture": "兵庫県",
      "prefecture_kana": "ヒョウゴケン",
      "prefecture_code": 28,
      "city": "養父市",
      "city_kana": "ヤブシ",
      "town": "大屋町中間",
      "town_kana": "オオヤチョウナカマ",
      "street": null,
      "office_name": null,
      "office_name_kana": null
    }
  ],
  "0431": {
    "postcode": "6670431",
    "prefecture": "兵庫県",
    "prefecture_kana": "ヒョウゴケン",
    "prefecture_code": 28,
    "city": "養父市",
    "city_kana": "ヤブシ",
    "town": "大屋町糸原",
    "town_kana": "オオヤチョウイトワラ",
    "street": null,
    "office_name": null,
    "office_name_kana": null
  },
  "0432": {
    "postcode": "6670432",
    "prefecture": "兵庫県",
    "prefecture_kana": "ヒョウゴケン",
    "prefecture_code": 28,
    "city": "養父市",
    "city_kana": "ヤブシ",
    "town": "大屋町宮本",
    "town_kana": "オオヤチョウミヤモト",
    "street": null,
    "office_name": null,
    "office_name_kana": null
  },
  "0433": {
    "postcode": "6670433",
    "prefecture": "兵庫県",
    "prefecture_kana": "ヒョウゴケン",
    "prefecture_code": 28,
    "city": "養父市",
    "city_kana": "ヤブシ",
    "town": "大屋町門野",
    "town_kana": "オオヤチョウカドノ",
    "street": null,
    "office_name": null,
    "office_name_kana": null
  },
  "0434": {
    "postcode": "6670434",
    "prefecture": "兵庫県",
    "prefecture_kana": "ヒョウゴケン",
    "prefecture_code": 28,
    "city": "養父市",
    "city_kana": "ヤブシ",
    "town": "大屋町須西",
    "town_kana": "オオヤチョウスサイ",
    "street": null,
    "office_name": null,
    "office_name_kana": null
  },
  "0435": {
    "postcode": "6670435",
    "prefecture": "兵庫県",
    "prefecture_kana": "ヒョウゴケン",
    "prefecture_code": 28,
    "city": "養父市",
    "city_kana": "ヤブシ",
    "town": "大屋町和田",
    "town_kana": "オオヤチョウワダ",
    "street": null,
    "office_name": null,
    "office_name_kana": null
  },
  "0436": {
    "postcode": "6670436",
    "prefecture": "兵庫県",
    "prefecture_kana": "ヒョウゴケン",
    "prefecture_code": 28,
    "city": "養父市",
    "city_kana": "ヤブシ",
    "town": "大屋町明延",
    "town_kana": "オオヤチョウアケノベ",
    "street": null,
    "office_name": null,
    "office_name_kana": null
  },
  "1101": {
    "postcode": "6671101",
    "prefecture": "兵庫県",
    "prefecture_kana": "ヒョウゴケン",
    "prefecture_code": 28,
    "city": "養父市",
    "city_kana": "ヤブシ",
    "town": "三宅",
    "town_kana": "ミヤケ",
    "street": null,
    "office_name": null,
    "office_name_kana": null
  },
  "1102": {
    "postcode": "6671102",
    "prefecture": "兵庫県",
    "prefecture_kana": "ヒョウゴケン",
    "prefecture_code": 28,
    "city": "養父市",
    "city_kana": "ヤブシ",
    "town": "大谷",
    "town_kana": "オオタニ",
    "street": null,
    "office_name": null,
    "office_name_kana": null
  },
  "1103": {
    "postcode": "6671103",
    "prefecture": "兵庫県",
    "prefecture_kana": "ヒョウゴケン",
    "prefecture_code": 28,
    "city": "養父市",
    "city_kana": "ヤブシ",
    "town": "万久里",
    "town_kana": "マクリ",
    "street": null,
    "office_name": null,
    "office_name_kana": null
  },
  "1104": {
    "postcode": "6671104",
    "prefecture": "兵庫県",
    "prefecture_kana": "ヒョウゴケン",
    "prefecture_code": 28,
    "city": "養父市",
    "city_kana": "ヤブシ",
    "town": "尾崎",
    "town_kana": "オサキ",
    "street": null,
    "office_name": null,
    "office_name_kana": null
  },
  "1105": {
    "postcode": "6671105",
    "prefecture": "兵庫県",
    "prefecture_kana": "ヒョウゴケン",
    "prefecture_code": 28,
    "city": "養父市",
    "city_kana": "ヤブシ",
    "town": "関宮",
    "town_kana": "セキノミヤ",
    "street": null,
    "office_name": null,
    "office_name_kana": null
  },
  "1111": {
    "postcode": "6671111",
    "prefecture": "兵庫県",
    "prefecture_kana": "ヒョウゴケン",
    "prefecture_code": 28,
    "city": "養父市",
    "city_kana": "ヤブシ",
    "town": "吉井",
    "town_kana": "ヨシイ",
    "street": null,
    "office_name": null,
    "office_name_kana": null
  },
  "1112": {
    "postcode": "6671112",
    "prefecture": "兵庫県",
    "prefecture_kana": "ヒョウゴケン",
    "prefecture_code": 28,
    "city": "養父市",
    "city_kana": "ヤブシ",
    "town": "出合",
    "town_kana": "デアイ",
    "street": null,
    "office_name": null,
    "office_name_kana": null
  },
  "1113": {
    "postcode": "6671113",
    "prefecture": "兵庫県",
    "prefecture_kana": "ヒョウゴケン",
    "prefecture_code": 28,
    "city": "養父市",
    "city_kana": "ヤブシ",
    "town": "川原場",
    "town_kana": "カワラバ",
    "street": null,
    "office_name": null,
    "office_name_kana": null
  },
  "1114": {
    "postcode": "6671114",
    "prefecture": "兵庫県",
    "prefecture_kana": "ヒョウゴケン",
    "prefecture_code": 28,
    "city": "養父市",
    "city_kana": "ヤブシ",
    "town": "小路頃",
    "town_kana": "オジコロ",
    "street": null,
    "office_name": null,
    "office_name_kana": null
  },
  "1115": {
    "postcode": "6671115",
    "prefecture": "兵庫県",
    "prefecture_kana": "ヒョウゴケン",
    "prefecture_code": 28,
    "city": "養父市",
    "city_kana": "ヤブシ",
    "town": "葛畑",
    "town_kana": "カズラハタ",
    "street": null,
    "office_name": null,
    "office_name_kana": null
  },
  "1116": {
    "postcode": "6671116",
    "prefecture": "兵庫県",
    "prefecture_kana": "ヒョウゴケン",
    "prefecture_code": 28,
    "city": "養父市",
    "city_kana": "ヤブシ",
    "town": "中瀬",
    "town_kana": "ナカゼ",
    "street": null,
    "office_name": null,
    "office_name_kana": null
  },
  "1117": {
    "postcode": "6671117",
    "prefecture": "兵庫県",
    "prefecture_kana": "ヒョウゴケン",
    "prefecture_code": 28,
    "city": "養父市",
    "city_kana": "ヤブシ",
    "town": "轟",
    "town_kana": "トドロキ",
    "street": null,
    "office_name": null,
    "office_name_kana": null
  },
  "1118": {
    "postcode": "6671118",
    "prefecture": "兵庫県",
    "prefecture_kana": "ヒョウゴケン",
    "prefecture_code": 28,
    "city": "養父市",
    "city_kana": "ヤブシ",
    "town": "安井",
    "town_kana": "ヤスイ",
    "street": null,
    "office_name": null,
    "office_name_kana": null
  },
  "1119": {
    "postcode": "6671119",
    "prefecture": "兵庫県",
    "prefecture_kana": "ヒョウゴケン",
    "prefecture_code": 28,
    "city": "養父市",
    "city_kana": "ヤブシ",
    "town": "鵜縄",
    "town_kana": "ウナワ",
    "street": null,
    "office_name": null,
    "office_name_kana": null
  },
  "1121": {
    "postcode": "6671121",
    "prefecture": "兵庫県",
    "prefecture_kana": "ヒョウゴケン",
    "prefecture_code": 28,
    "city": "養父市",
    "city_kana": "ヤブシ",
    "town": "外野",
    "town_kana": "トノ",
    "street": null,
    "office_name": null,
    "office_name_kana": null
  },
  "1122": {
    "postcode": "6671122",
    "prefecture": "兵庫県",
    "prefecture_kana": "ヒョウゴケン",
    "prefecture_code": 28,
    "city": "養父市",
    "city_kana": "ヤブシ",
    "town": "草出",
    "town_kana": "クサイデ",
    "street": null,
    "office_name": null,
    "office_name_kana": null
  },
  "1123": {
    "postcode": "6671123",
    "prefecture": "兵庫県",
    "prefecture_kana": "ヒョウゴケン",
    "prefecture_code": 28,
    "city": "養父市",
    "city_kana": "ヤブシ",
    "town": "梨ケ原",
    "town_kana": "ナシガハラ",
    "street": null,
    "office_name": null,
    "office_name_kana": null
  },
  "1124": {
    "postcode": "6671124",
    "prefecture": "兵庫県",
    "prefecture_kana": "ヒョウゴケン",
    "prefecture_code": 28,
    "city": "養父市",
    "city_kana": "ヤブシ",
    "town": "丹戸",
    "town_kana": "タンド",
    "street": null,
    "office_name": null,
    "office_name_kana": null
  },
  "1125": {
    "postcode": "6671125",
    "prefecture": "兵庫県",
    "prefecture_kana": "ヒョウゴケン",
    "prefecture_code": 28,
    "city": "養父市",
    "city_kana": "ヤブシ",
    "town": "奈良尾",
    "town_kana": "ナラオ",
    "street": null,
    "office_name": null,
    "office_name_kana": null
  },
  "1126": {
    "postcode": "6671126",
    "prefecture": "兵庫県",
    "prefecture_kana": "ヒョウゴケン",
    "prefecture_code": 28,
    "city": "養父市",
    "city_kana": "ヤブシ",
    "town": "福定",
    "town_kana": "フクサダ",
    "street": null,
    "office_name": null,
    "office_name_kana": null
  },
  "1127": {
    "postcode": "6671127",
    "prefecture": "兵庫県",
    "prefecture_kana": "ヒョウゴケン",
    "prefecture_code": 28,
    "city": "養父市",
    "city_kana": "ヤブシ",
    "town": "大久保",
    "town_kana": "オオクボ",
    "street": null,
    "office_name": null,
    "office_name_kana": null
  },
  "1128": {
    "postcode": "6671128",
    "prefecture": "兵庫県",
    "prefecture_kana": "ヒョウゴケン",
    "prefecture_code": 28,
    "city": "養父市",
    "city_kana": "ヤブシ",
    "town": "別宮",
    "town_kana": "ベックウ",
    "street": null,
    "office_name": null,
    "office_name_kana": null
  },
  "1301": {
    "postcode": "6671301",
    "prefecture": "兵庫県",
    "prefecture_kana": "ヒョウゴケン",
    "prefecture_code": 28,
    "city": "美方郡香美町",
    "city_kana": "ミカタグンカミチョウ",
    "town": "村岡区境",
    "town_kana": "ムラオカクサカイ",
    "street": null,
    "office_name": null,
    "office_name_kana": null
  },
  "1302": {
    "postcode": "6671302",
    "prefecture": "兵庫県",
    "prefecture_kana": "ヒョウゴケン",
    "prefecture_code": 28,
    "city": "美方郡香美町",
    "city_kana": "ミカタグンカミチョウ",
    "town": "村岡区山田",
    "town_kana": "ムラオカクヤマダ",
    "street": null,
    "office_name": null,
    "office_name_kana": null
  },
  "1303": {
    "postcode": "6671303",
    "prefecture": "兵庫県",
    "prefecture_kana": "ヒョウゴケン",
    "prefecture_code": 28,
    "city": "美方郡香美町",
    "city_kana": "ミカタグンカミチョウ",
    "town": "村岡区小城",
    "town_kana": "ムラオカクコジョウ",
    "street": null,
    "office_name": null,
    "office_name_kana": null
  },
  "1304": {
    "postcode": "6671304",
    "prefecture": "兵庫県",
    "prefecture_kana": "ヒョウゴケン",
    "prefecture_code": 28,
    "city": "美方郡香美町",
    "city_kana": "ミカタグンカミチョウ",
    "town": "村岡区和佐父",
    "town_kana": "ムラオカクワサブ",
    "street": null,
    "office_name": null,
    "office_name_kana": null
  },
  "1311": {
    "postcode": "6671311",
    "prefecture": "兵庫県",
    "prefecture_kana": "ヒョウゴケン",
    "prefecture_code": 28,
    "city": "美方郡香美町",
    "city_kana": "ミカタグンカミチョウ",
    "town": "村岡区村岡",
    "town_kana": "ムラオカクムラオカ",
    "street": null,
    "office_name": null,
    "office_name_kana": null
  },
  "1312": {
    "postcode": "6671312",
    "prefecture": "兵庫県",
    "prefecture_kana": "ヒョウゴケン",
    "prefecture_code": 28,
    "city": "美方郡香美町",
    "city_kana": "ミカタグンカミチョウ",
    "town": "村岡区相田",
    "town_kana": "ムラオカクアイダ",
    "street": null,
    "office_name": null,
    "office_name_kana": null
  },
  "1313": {
    "postcode": "6671313",
    "prefecture": "兵庫県",
    "prefecture_kana": "ヒョウゴケン",
    "prefecture_code": 28,
    "city": "美方郡香美町",
    "city_kana": "ミカタグンカミチョウ",
    "town": "村岡区神坂",
    "town_kana": "ムラオカクカンザカ",
    "street": null,
    "office_name": null,
    "office_name_kana": null
  },
  "1314": {
    "postcode": "6671314",
    "prefecture": "兵庫県",
    "prefecture_kana": "ヒョウゴケン",
    "prefecture_code": 28,
    "city": "美方郡香美町",
    "city_kana": "ミカタグンカミチョウ",
    "town": "村岡区萩山",
    "town_kana": "ムラオカクハギヤマ",
    "street": null,
    "office_name": null,
    "office_name_kana": null
  },
  "1315": {
    "postcode": "6671315",
    "prefecture": "兵庫県",
    "prefecture_kana": "ヒョウゴケン",
    "prefecture_code": 28,
    "city": "美方郡香美町",
    "city_kana": "ミカタグンカミチョウ",
    "town": "村岡区板仕野",
    "town_kana": "ムラオカクイタシノ",
    "street": null,
    "office_name": null,
    "office_name_kana": null
  },
  "1316": {
    "postcode": "6671316",
    "prefecture": "兵庫県",
    "prefecture_kana": "ヒョウゴケン",
    "prefecture_code": 28,
    "city": "美方郡香美町",
    "city_kana": "ミカタグンカミチョウ",
    "town": "村岡区鹿田",
    "town_kana": "ムラオカクシカダ",
    "street": null,
    "office_name": null,
    "office_name_kana": null
  },
  "1317": {
    "postcode": "6671317",
    "prefecture": "兵庫県",
    "prefecture_kana": "ヒョウゴケン",
    "prefecture_code": 28,
    "city": "美方郡香美町",
    "city_kana": "ミカタグンカミチョウ",
    "town": "村岡区用野",
    "town_kana": "ムラオカクヨウノ",
    "street": null,
    "office_name": null,
    "office_name_kana": null
  },
  "1321": {
    "postcode": "6671321",
    "prefecture": "兵庫県",
    "prefecture_kana": "ヒョウゴケン",
    "prefecture_code": 28,
    "city": "美方郡香美町",
    "city_kana": "ミカタグンカミチョウ",
    "town": "村岡区大糠",
    "town_kana": "ムラオカクオオヌカ",
    "street": null,
    "office_name": null,
    "office_name_kana": null
  },
  "1322": {
    "postcode": "6671322",
    "prefecture": "兵庫県",
    "prefecture_kana": "ヒョウゴケン",
    "prefecture_code": 28,
    "city": "美方郡香美町",
    "city_kana": "ミカタグンカミチョウ",
    "town": "村岡区寺河内",
    "town_kana": "ムラオカクテラガワウチ",
    "street": null,
    "office_name": null,
    "office_name_kana": null
  },
  "1323": {
    "postcode": "6671323",
    "prefecture": "兵庫県",
    "prefecture_kana": "ヒョウゴケン",
    "prefecture_code": 28,
    "city": "美方郡香美町",
    "city_kana": "ミカタグンカミチョウ",
    "town": "村岡区耀山",
    "town_kana": "ムラオカクカカヤマ",
    "street": null,
    "office_name": null,
    "office_name_kana": null
  },
  "1324": {
    "postcode": "6671324",
    "prefecture": "兵庫県",
    "prefecture_kana": "ヒョウゴケン",
    "prefecture_code": 28,
    "city": "美方郡香美町",
    "city_kana": "ミカタグンカミチョウ",
    "town": "村岡区市原",
    "town_kana": "ムラオカクイチバラ",
    "street": null,
    "office_name": null,
    "office_name_kana": null
  },
  "1325": {
    "postcode": "6671325",
    "prefecture": "兵庫県",
    "prefecture_kana": "ヒョウゴケン",
    "prefecture_code": 28,
    "city": "美方郡香美町",
    "city_kana": "ミカタグンカミチョウ",
    "town": "村岡区高井",
    "town_kana": "ムラオカクタカイ",
    "street": null,
    "office_name": null,
    "office_name_kana": null
  },
  "1326": {
    "postcode": "6671326",
    "prefecture": "兵庫県",
    "prefecture_kana": "ヒョウゴケン",
    "prefecture_code": 28,
    "city": "美方郡香美町",
    "city_kana": "ミカタグンカミチョウ",
    "town": "村岡区光陽",
    "town_kana": "ムラオカクコウヨウ",
    "street": null,
    "office_name": null,
    "office_name_kana": null
  },
  "1331": {
    "postcode": "6671331",
    "prefecture": "兵庫県",
    "prefecture_kana": "ヒョウゴケン",
    "prefecture_code": 28,
    "city": "美方郡香美町",
    "city_kana": "ミカタグンカミチョウ",
    "town": "村岡区作山",
    "town_kana": "ムラオカクツクリヤマ",
    "street": null,
    "office_name": null,
    "office_name_kana": null
  },
  "1332": {
    "postcode": "6671332",
    "prefecture": "兵庫県",
    "prefecture_kana": "ヒョウゴケン",
    "prefecture_code": 28,
    "city": "美方郡香美町",
    "city_kana": "ミカタグンカミチョウ",
    "town": "村岡区八井谷",
    "town_kana": "ムラオカクヤイダニ",
    "street": null,
    "office_name": null,
    "office_name_kana": null
  },
  "1333": {
    "postcode": "6671333",
    "prefecture": "兵庫県",
    "prefecture_kana": "ヒョウゴケン",
    "prefecture_code": 28,
    "city": "美方郡香美町",
    "city_kana": "ミカタグンカミチョウ",
    "town": "村岡区大野",
    "town_kana": "ムラオカクオオノ",
    "street": null,
    "office_name": null,
    "office_name_kana": null
  },
  "1334": {
    "postcode": "6671334",
    "prefecture": "兵庫県",
    "prefecture_kana": "ヒョウゴケン",
    "prefecture_code": 28,
    "city": "美方郡香美町",
    "city_kana": "ミカタグンカミチョウ",
    "town": "村岡区福岡",
    "town_kana": "ムラオカクフクオカ",
    "street": null,
    "office_name": null,
    "office_name_kana": null
  },
  "1335": {
    "postcode": "6671335",
    "prefecture": "兵庫県",
    "prefecture_kana": "ヒョウゴケン",
    "prefecture_code": 28,
    "city": "美方郡香美町",
    "city_kana": "ミカタグンカミチョウ",
    "town": "村岡区黒田",
    "town_kana": "ムラオカククロダ",
    "street": null,
    "office_name": null,
    "office_name_kana": null
  },
  "1336": {
    "postcode": "6671336",
    "prefecture": "兵庫県",
    "prefecture_kana": "ヒョウゴケン",
    "prefecture_code": 28,
    "city": "美方郡香美町",
    "city_kana": "ミカタグンカミチョウ",
    "town": "村岡区宿",
    "town_kana": "ムラオカクヤド",
    "street": null,
    "office_name": null,
    "office_name_kana": null
  },
  "1337": {
    "postcode": "6671337",
    "prefecture": "兵庫県",
    "prefecture_kana": "ヒョウゴケン",
    "prefecture_code": 28,
    "city": "美方郡香美町",
    "city_kana": "ミカタグンカミチョウ",
    "town": "村岡区日影",
    "town_kana": "ムラオカクヒカゲ",
    "street": null,
    "office_name": null,
    "office_name_kana": null
  },
  "1341": {
    "postcode": "6671341",
    "prefecture": "兵庫県",
    "prefecture_kana": "ヒョウゴケン",
    "prefecture_code": 28,
    "city": "美方郡香美町",
    "city_kana": "ミカタグンカミチョウ",
    "town": "村岡区森脇",
    "town_kana": "ムラオカクモリワキ",
    "street": null,
    "office_name": null,
    "office_name_kana": null
  },
  "1342": {
    "postcode": "6671342",
    "prefecture": "兵庫県",
    "prefecture_kana": "ヒョウゴケン",
    "prefecture_code": 28,
    "city": "美方郡香美町",
    "city_kana": "ミカタグンカミチョウ",
    "town": "村岡区口大谷",
    "town_kana": "ムラオカククチオオタニ",
    "street": null,
    "office_name": null,
    "office_name_kana": null
  },
  "1343": {
    "postcode": "6671343",
    "prefecture": "兵庫県",
    "prefecture_kana": "ヒョウゴケン",
    "prefecture_code": 28,
    "city": "美方郡香美町",
    "city_kana": "ミカタグンカミチョウ",
    "town": "村岡区中大谷",
    "town_kana": "ムラオカクナカオオタニ",
    "street": null,
    "office_name": null,
    "office_name_kana": null
  },
  "1344": {
    "postcode": "6671344",
    "prefecture": "兵庫県",
    "prefecture_kana": "ヒョウゴケン",
    "prefecture_code": 28,
    "city": "美方郡香美町",
    "city_kana": "ミカタグンカミチョウ",
    "town": "村岡区大笹",
    "town_kana": "ムラオカクオオササ",
    "street": null,
    "office_name": null,
    "office_name_kana": null
  },
  "1345": {
    "postcode": "6671345",
    "prefecture": "兵庫県",
    "prefecture_kana": "ヒョウゴケン",
    "prefecture_code": 28,
    "city": "美方郡香美町",
    "city_kana": "ミカタグンカミチョウ",
    "town": "村岡区高坂",
    "town_kana": "ムラオカクタカサカ",
    "street": null,
    "office_name": null,
    "office_name_kana": null
  },
  "1346": {
    "postcode": "6671346",
    "prefecture": "兵庫県",
    "prefecture_kana": "ヒョウゴケン",
    "prefecture_code": 28,
    "city": "美方郡香美町",
    "city_kana": "ミカタグンカミチョウ",
    "town": "村岡区池ケ平",
    "town_kana": "ムラオカクイケガナル",
    "street": null,
    "office_name": null,
    "office_name_kana": null
  },
  "1347": {
    "postcode": "6671347",
    "prefecture": "兵庫県",
    "prefecture_kana": "ヒョウゴケン",
    "prefecture_code": 28,
    "city": "美方郡香美町",
    "city_kana": "ミカタグンカミチョウ",
    "town": "村岡区和池",
    "town_kana": "ムラオカクワチ",
    "street": null,
    "office_name": null,
    "office_name_kana": null
  },
  "1351": {
    "postcode": "6671351",
    "prefecture": "兵庫県",
    "prefecture_kana": "ヒョウゴケン",
    "prefecture_code": 28,
    "city": "美方郡香美町",
    "city_kana": "ミカタグンカミチョウ",
    "town": "村岡区丸味",
    "town_kana": "ムラオカクマルミ",
    "street": null,
    "office_name": null,
    "office_name_kana": null
  },
  "1352": {
    "postcode": "6671352",
    "prefecture": "兵庫県",
    "prefecture_kana": "ヒョウゴケン",
    "prefecture_code": 28,
    "city": "美方郡香美町",
    "city_kana": "ミカタグンカミチョウ",
    "town": "村岡区長板",
    "town_kana": "ムラオカクナガイタ",
    "street": null,
    "office_name": null,
    "office_name_kana": null
  },
  "1353": {
    "postcode": "6671353",
    "prefecture": "兵庫県",
    "prefecture_kana": "ヒョウゴケン",
    "prefecture_code": 28,
    "city": "美方郡香美町",
    "city_kana": "ミカタグンカミチョウ",
    "town": "村岡区熊波",
    "town_kana": "ムラオカククマナミ",
    "street": null,
    "office_name": null,
    "office_name_kana": null
  },
  "1354": {
    "postcode": "6671354",
    "prefecture": "兵庫県",
    "prefecture_kana": "ヒョウゴケン",
    "prefecture_code": 28,
    "city": "美方郡香美町",
    "city_kana": "ミカタグンカミチョウ",
    "town": "村岡区柤岡",
    "town_kana": "ムラオカクケビオカ",
    "street": null,
    "office_name": null,
    "office_name_kana": null
  },
  "1361": {
    "postcode": "6671361",
    "prefecture": "兵庫県",
    "prefecture_kana": "ヒョウゴケン",
    "prefecture_code": 28,
    "city": "美方郡香美町",
    "city_kana": "ミカタグンカミチョウ",
    "town": "村岡区長瀬",
    "town_kana": "ムラオカクナガセ",
    "street": null,
    "office_name": null,
    "office_name_kana": null
  },
  "1362": {
    "postcode": "6671362",
    "prefecture": "兵庫県",
    "prefecture_kana": "ヒョウゴケン",
    "prefecture_code": 28,
    "city": "美方郡香美町",
    "city_kana": "ミカタグンカミチョウ",
    "town": "村岡区原",
    "town_kana": "ムラオカクハラ",
    "street": null,
    "office_name": null,
    "office_name_kana": null
  },
  "1363": {
    "postcode": "6671363",
    "prefecture": "兵庫県",
    "prefecture_kana": "ヒョウゴケン",
    "prefecture_code": 28,
    "city": "美方郡香美町",
    "city_kana": "ミカタグンカミチョウ",
    "town": "村岡区味取",
    "town_kana": "ムラオカクミドリ",
    "street": null,
    "office_name": null,
    "office_name_kana": null
  },
  "1364": {
    "postcode": "6671364",
    "prefecture": "兵庫県",
    "prefecture_kana": "ヒョウゴケン",
    "prefecture_code": 28,
    "city": "美方郡香美町",
    "city_kana": "ミカタグンカミチョウ",
    "town": "村岡区長須",
    "town_kana": "ムラオカクナガス",
    "street": null,
    "office_name": null,
    "office_name_kana": null
  },
  "1365": {
    "postcode": "6671365",
    "prefecture": "兵庫県",
    "prefecture_kana": "ヒョウゴケン",
    "prefecture_code": 28,
    "city": "美方郡香美町",
    "city_kana": "ミカタグンカミチョウ",
    "town": "村岡区高津",
    "town_kana": "ムラオカクタカヅ",
    "street": null,
    "office_name": null,
    "office_name_kana": null
  },
  "1366": {
    "postcode": "6671366",
    "prefecture": "兵庫県",
    "prefecture_kana": "ヒョウゴケン",
    "prefecture_code": 28,
    "city": "美方郡香美町",
    "city_kana": "ミカタグンカミチョウ",
    "town": "村岡区川会",
    "town_kana": "ムラオカクカワイ",
    "street": null,
    "office_name": null,
    "office_name_kana": null
  },
  "1367": {
    "postcode": "6671367",
    "prefecture": "兵庫県",
    "prefecture_kana": "ヒョウゴケン",
    "prefecture_code": 28,
    "city": "美方郡香美町",
    "city_kana": "ミカタグンカミチョウ",
    "town": "村岡区和田",
    "town_kana": "ムラオカクワダ",
    "street": null,
    "office_name": null,
    "office_name_kana": null
  },
  "1368": {
    "postcode": "6671368",
    "prefecture": "兵庫県",
    "prefecture_kana": "ヒョウゴケン",
    "prefecture_code": 28,
    "city": "美方郡香美町",
    "city_kana": "ミカタグンカミチョウ",
    "town": "村岡区入江",
    "town_kana": "ムラオカクイリエ",
    "street": null,
    "office_name": null,
    "office_name_kana": null
  },
  "1501": {
    "postcode": "6671501",
    "prefecture": "兵庫県",
    "prefecture_kana": "ヒョウゴケン",
    "prefecture_code": 28,
    "city": "美方郡香美町",
    "city_kana": "ミカタグンカミチョウ",
    "town": "小代区久須部",
    "town_kana": "オジロククスベ",
    "street": null,
    "office_name": null,
    "office_name_kana": null
  },
  "1502": {
    "postcode": "6671502",
    "prefecture": "兵庫県",
    "prefecture_kana": "ヒョウゴケン",
    "prefecture_code": 28,
    "city": "美方郡香美町",
    "city_kana": "ミカタグンカミチョウ",
    "town": "小代区城山",
    "town_kana": "オジロクジョウヤマ",
    "street": null,
    "office_name": null,
    "office_name_kana": null
  },
  "1503": {
    "postcode": "6671503",
    "prefecture": "兵庫県",
    "prefecture_kana": "ヒョウゴケン",
    "prefecture_code": 28,
    "city": "美方郡香美町",
    "city_kana": "ミカタグンカミチョウ",
    "town": "小代区大谷",
    "town_kana": "オジロクオオタニ",
    "street": null,
    "office_name": null,
    "office_name_kana": null
  },
  "1511": {
    "postcode": "6671511",
    "prefecture": "兵庫県",
    "prefecture_kana": "ヒョウゴケン",
    "prefecture_code": 28,
    "city": "美方郡香美町",
    "city_kana": "ミカタグンカミチョウ",
    "town": "小代区神水",
    "town_kana": "オジロクカンズイ",
    "street": null,
    "office_name": null,
    "office_name_kana": null
  },
  "1512": {
    "postcode": "6671512",
    "prefecture": "兵庫県",
    "prefecture_kana": "ヒョウゴケン",
    "prefecture_code": 28,
    "city": "美方郡香美町",
    "city_kana": "ミカタグンカミチョウ",
    "town": "小代区石寺",
    "town_kana": "オジロクイシデラ",
    "street": null,
    "office_name": null,
    "office_name_kana": null
  },
  "1513": {
    "postcode": "6671513",
    "prefecture": "兵庫県",
    "prefecture_kana": "ヒョウゴケン",
    "prefecture_code": 28,
    "city": "美方郡香美町",
    "city_kana": "ミカタグンカミチョウ",
    "town": "小代区広井",
    "town_kana": "オジロクヒロイ",
    "street": null,
    "office_name": null,
    "office_name_kana": null
  },
  "1514": {
    "postcode": "6671514",
    "prefecture": "兵庫県",
    "prefecture_kana": "ヒョウゴケン",
    "prefecture_code": 28,
    "city": "美方郡香美町",
    "city_kana": "ミカタグンカミチョウ",
    "town": "小代区神場",
    "town_kana": "オジロクカンバ",
    "street": null,
    "office_name": null,
    "office_name_kana": null
  },
  "1515": {
    "postcode": "6671515",
    "prefecture": "兵庫県",
    "prefecture_kana": "ヒョウゴケン",
    "prefecture_code": 28,
    "city": "美方郡香美町",
    "city_kana": "ミカタグンカミチョウ",
    "town": "小代区水間",
    "town_kana": "オジロクミズマ",
    "street": null,
    "office_name": null,
    "office_name_kana": null
  },
  "1521": {
    "postcode": "6671521",
    "prefecture": "兵庫県",
    "prefecture_kana": "ヒョウゴケン",
    "prefecture_code": 28,
    "city": "美方郡香美町",
    "city_kana": "ミカタグンカミチョウ",
    "town": "小代区野間谷",
    "town_kana": "オジロクノマタニ",
    "street": null,
    "office_name": null,
    "office_name_kana": null
  },
  "1522": {
    "postcode": "6671522",
    "prefecture": "兵庫県",
    "prefecture_kana": "ヒョウゴケン",
    "prefecture_code": 28,
    "city": "美方郡香美町",
    "city_kana": "ミカタグンカミチョウ",
    "town": "小代区実山",
    "town_kana": "オジロクサネヤマ",
    "street": null,
    "office_name": null,
    "office_name_kana": null
  },
  "1523": {
    "postcode": "6671523",
    "prefecture": "兵庫県",
    "prefecture_kana": "ヒョウゴケン",
    "prefecture_code": 28,
    "city": "美方郡香美町",
    "city_kana": "ミカタグンカミチョウ",
    "town": "小代区平野",
    "town_kana": "オジロクヒラノ",
    "street": null,
    "office_name": null,
    "office_name_kana": null
  },
  "1531": {
    "postcode": "6671531",
    "prefecture": "兵庫県",
    "prefecture_kana": "ヒョウゴケン",
    "prefecture_code": 28,
    "city": "美方郡香美町",
    "city_kana": "ミカタグンカミチョウ",
    "town": "小代区茅野",
    "town_kana": "オジロクカヤノ",
    "street": null,
    "office_name": null,
    "office_name_kana": null
  },
  "1532": {
    "postcode": "6671532",
    "prefecture": "兵庫県",
    "prefecture_kana": "ヒョウゴケン",
    "prefecture_code": 28,
    "city": "美方郡香美町",
    "city_kana": "ミカタグンカミチョウ",
    "town": "小代区新屋",
    "town_kana": "オジロクニイヤ",
    "street": null,
    "office_name": null,
    "office_name_kana": null
  },
  "1533": {
    "postcode": "6671533",
    "prefecture": "兵庫県",
    "prefecture_kana": "ヒョウゴケン",
    "prefecture_code": 28,
    "city": "美方郡香美町",
    "city_kana": "ミカタグンカミチョウ",
    "town": "小代区秋岡",
    "town_kana": "オジロクアキオカ",
    "street": null,
    "office_name": null,
    "office_name_kana": null
  },
  "1541": {
    "postcode": "6671541",
    "prefecture": "兵庫県",
    "prefecture_kana": "ヒョウゴケン",
    "prefecture_code": 28,
    "city": "美方郡香美町",
    "city_kana": "ミカタグンカミチョウ",
    "town": "小代区佐坊",
    "town_kana": "オジロクサボウ",
    "street": null,
    "office_name": null,
    "office_name_kana": null
  },
  "1542": {
    "postcode": "6671542",
    "prefecture": "兵庫県",
    "prefecture_kana": "ヒョウゴケン",
    "prefecture_code": 28,
    "city": "美方郡香美町",
    "city_kana": "ミカタグンカミチョウ",
    "town": "小代区鍛治屋",
    "town_kana": "オジロクカジヤ",
    "street": null,
    "office_name": null,
    "office_name_kana": null
  },
  "1543": {
    "postcode": "6671543",
    "prefecture": "兵庫県",
    "prefecture_kana": "ヒョウゴケン",
    "prefecture_code": 28,
    "city": "美方郡香美町",
    "city_kana": "ミカタグンカミチョウ",
    "town": "小代区忠宮",
    "town_kana": "オジロクタダノミヤ",
    "street": null,
    "office_name": null,
    "office_name_kana": null
  },
  "1544": {
    "postcode": "6671544",
    "prefecture": "兵庫県",
    "prefecture_kana": "ヒョウゴケン",
    "prefecture_code": 28,
    "city": "美方郡香美町",
    "city_kana": "ミカタグンカミチョウ",
    "town": "小代区貫田",
    "town_kana": "オジロクヌキダ",
    "street": null,
    "office_name": null,
    "office_name_kana": null
  },
  "1545": {
    "postcode": "6671545",
    "prefecture": "兵庫県",
    "prefecture_kana": "ヒョウゴケン",
    "prefecture_code": 28,
    "city": "美方郡香美町",
    "city_kana": "ミカタグンカミチョウ",
    "town": "小代区東垣",
    "town_kana": "オジロクヒガシガキ",
    "street": null,
    "office_name": null,
    "office_name_kana": null
  },
  "8555": {
    "postcode": "6678555",
    "prefecture": "兵庫県",
    "prefecture_kana": "ヒョウゴケン",
    "prefecture_code": 28,
    "city": "養父市",
    "city_kana": "ヤブシ",
    "town": "八鹿町八鹿",
    "town_kana": "ヨウカチョウヨウカ",
    "street": "１８７８−１",
    "office_name": "公立八鹿病院",
    "office_name_kana": "コウリツヨウカビヨウイン"
  },
  "8651": {
    "postcode": "6678651",
    "prefecture": "兵庫県",
    "prefecture_kana": "ヒョウゴケン",
    "prefecture_code": 28,
    "city": "養父市",
    "city_kana": "ヤブシ",
    "town": "八鹿町八鹿",
    "town_kana": "ヨウカチョウヨウカ",
    "street": "１６７５（八鹿郵便局私書箱第６号）",
    "office_name": "養父市役所",
    "office_name_kana": "ヤブシヤクシヨ"
  }
}