{
  "0000": {
    "postcode": "6700000",
    "prefecture": "兵庫県",
    "prefecture_kana": "ヒョウゴケン",
    "prefecture_code": 28,
    "city": "姫路市",
    "city_kana": "ヒメジシ",
    "town": "",
    "town_kana": "",
    "street": null,
    "office_name": null,
    "office_name_kana": null
  },
  "0001": {
    "postcode": "6700001",
    "prefecture": "兵庫県",
    "prefecture_kana": "ヒョウゴケン",
    "prefecture_code": 28,
    "city": "姫路市",
    "city_kana": "ヒメジシ",
    "town": "河間町",
    "town_kana": "コバサマチョウ",
    "street": null,
    "office_name": null,
    "office_name_kana": null
  },
  "0002": {
    "postcode": "6700002",
    "prefecture": "兵庫県",
    "prefecture_kana": "ヒョウゴケン",
    "prefecture_code": 28,
    "city": "姫路市",
    "city_kana": "ヒメジシ",
    "town": "鍛冶町",
    "town_kana": "カジマチ",
    "street": null,
    "office_name": null,
    "office_name_kana": null
  },
  "0003": {
    "postcode": "6700003",
    "prefecture": "兵庫県",
    "prefecture_kana": "ヒョウゴケン",
    "prefecture_code": 28,
    "city": "姫路市",
    "city_kana": "ヒメジシ",
    "town": "米屋町",
    "town_kana": "コメヤマチ",
    "street": null,
    "office_name": null,
    "office_name_kana": null
  },
  "0004": {
    "postcode": "6700004",
    "prefecture": "兵庫県",
    "prefecture_kana": "ヒョウゴケン",
    "prefecture_code": 28,
    "city": "姫路市",
    "city_kana": "ヒメジシ",
    "town": "福本町",
    "town_kana": "フクモトマチ",
    "street": null,
    "office_name": null,
    "office_name_kana": null
  },
  "0005": {
    "postcode": "6700005",
    "prefecture": "兵庫県",
    "prefecture_kana": "ヒョウゴケン",
    "prefecture_code": 28,
    "city": "姫路市",
    "city_kana": "ヒメジシ",
    "town": "金屋町",
    "town_kana": "カナヤマチ",
    "street": null,
    "office_name": null,
    "office_name_kana": null
  },
  "0006": {
    "postcode": "6700006",
    "prefecture": "兵庫県",
    "prefecture_kana": "ヒョウゴケン",
    "prefecture_code": 28,
    "city": "姫路市",
    "city_kana": "ヒメジシ",
    "town": "八木町",
    "town_kana": "ヤギマチ",
    "street": null,
    "office_name": null,
    "office_name_kana": null
  },
  "0007": {
    "postcode": "6700007",
    "prefecture": "兵庫県",
    "prefecture_kana": "ヒョウゴケン",
    "prefecture_code": 28,
    "city": "姫路市",
    "city_kana": "ヒメジシ",
    "town": "生野町",
    "town_kana": "イクノマチ",
    "street": null,
    "office_name": null,
    "office_name_kana": null
  },
  "0008": {
    "postcode": "6700008",
    "prefecture": "兵庫県",
    "prefecture_kana": "ヒョウゴケン",
    "prefecture_code": 28,
    "city": "姫路市",
    "city_kana": "ヒメジシ",
    "town": "橋之町",
    "town_kana": "ハシノマチ",
    "street": null,
    "office_name": null,
    "office_name_kana": null
  },
  "0009": {
    "postcode": "6700009",
    "prefecture": "兵庫県",
    "prefecture_kana": "ヒョウゴケン",
    "prefecture_code": 28,
    "city": "姫路市",
    "city_kana": "ヒメジシ",
    "town": "鍵町",
    "town_kana": "カギマチ",
    "street": null,
    "office_name": null,
    "office_name_kana": null
  },
  "0011": {
    "postcode": "6700011",
    "prefecture": "兵庫県",
    "prefecture_kana": "ヒョウゴケン",
    "prefecture_code": 28,
    "city": "姫路市",
    "city_kana": "ヒメジシ",
    "town": "坊主町",
    "town_kana": "ボウズマチ",
    "street": null,
    "office_name": null,
    "office_name_kana": null
  },
  "0012": {
    "postcode": "6700012",
    "prefecture": "兵庫県",
    "prefecture_kana": "ヒョウゴケン",
    "prefecture_code": 28,
    "city": "姫路市",
    "city_kana": "ヒメジシ",
    "town": "本町",
    "town_kana": "ホンマチ",
    "street": null,
    "office_name": null,
    "office_name_kana": null
  },
  "0013": {
    "postcode": "6700013",
    "prefecture": "兵庫県",
    "prefecture_kana": "ヒョウゴケン",
    "prefecture_code": 28,
    "city": "姫路市",
    "city_kana": "ヒメジシ",
    "town": "竹田町",
    "town_kana": "タケダマチ",
    "street": null,
    "office_name": null,
    "office_name_kana": null
  },
  "0014": {
    "postcode": "6700014",
    "prefecture": "兵庫県",
    "prefecture_kana": "ヒョウゴケン",
    "prefecture_code": 28,
    "city": "姫路市",
    "city_kana": "ヒメジシ",
    "town": "堺町",
    "town_kana": "サカイマチ",
    "street": null,
    "office_name": null,
    "office_name_kana": null
  },
  "0015": {
    "postcode": "6700015",
    "prefecture": "兵庫県",
    "prefecture_kana": "ヒョウゴケン",
    "prefecture_code": 28,
    "city": "姫路市",
    "city_kana": "ヒメジシ",
    "town": "総社本町",
    "town_kana": "ソウシャホンマチ",
    "street": null,
    "office_name": null,
    "office_name_kana": null
  },
  "0016": {
    "postcode": "6700016",
    "prefecture": "兵庫県",
    "prefecture_kana": "ヒョウゴケン",
    "prefecture_code": 28,
    "city": "姫路市",
    "city_kana": "ヒメジシ",
    "town": "坂元町",
    "town_kana": "サカモトマチ",
    "street": null,
    "office_name": null,
    "office_name_kana": null
  },
  "0017": {
    "postcode": "6700017",
    "prefecture": "兵庫県",
    "prefecture_kana": "ヒョウゴケン",
    "prefecture_code": 28,
    "city": "姫路市",
    "city_kana": "ヒメジシ",
    "town": "福中町",
    "town_kana": "フクナカマチ",
    "street": null,
    "office_name": null,
    "office_name_kana": null
  },
  "0021": {
    "postcode": "6700021",
    "prefecture": "兵庫県",
    "prefecture_kana": "ヒョウゴケン",
    "prefecture_code": 28,
    "city": "姫路市",
    "city_kana": "ヒメジシ",
    "town": "山野井町",
    "town_kana": "ヤマノイチョウ",
    "street": null,
    "office_name": null,
    "office_name_kana": null
  },
  "0022": {
    "postcode": "6700022",
    "prefecture": "兵庫県",
    "prefecture_kana": "ヒョウゴケン",
    "prefecture_code": 28,
    "city": "姫路市",
    "city_kana": "ヒメジシ",
    "town": "小利木町",
    "town_kana": "コリキマチ",
    "street": null,
    "office_name": null,
    "office_name_kana": null
  },
  "0023": {
    "postcode": "6700023",
    "prefecture": "兵庫県",
    "prefecture_kana": "ヒョウゴケン",
    "prefecture_code": 28,
    "city": "姫路市",
    "city_kana": "ヒメジシ",
    "town": "柳町",
    "town_kana": "ヤナギマチ",
    "street": null,
    "office_name": null,
    "office_name_kana": null
  },
  "0024": {
    "postcode": "6700024",
    "prefecture": "兵庫県",
    "prefecture_kana": "ヒョウゴケン",
    "prefecture_code": 28,
    "city": "姫路市",
    "city_kana": "ヒメジシ",
    "town": "鷹匠町",
    "town_kana": "タカジョウチョウ",
    "street": null,
    "office_name": null,
    "office_name_kana": null
  },
  "0025": {
    "postcode": "6700025",
    "prefecture": "兵庫県",
    "prefecture_kana": "ヒョウゴケン",
    "prefecture_code": 28,
    "city": "姫路市",
    "city_kana": "ヒメジシ",
    "town": "材木町",
    "town_kana": "ザイモクマチ",
    "street": null,
    "office_name": null,
    "office_name_kana": null
  },
  "0026": {
    "postcode": "6700026",
    "prefecture": "兵庫県",
    "prefecture_kana": "ヒョウゴケン",
    "prefecture_code": 28,
    "city": "姫路市",
    "city_kana": "ヒメジシ",
    "town": "岡町",
    "town_kana": "オカマチ",
    "street": null,
    "office_name": null,
    "office_name_kana": null
  },
  "0027": {
    "postcode": "6700027",
    "prefecture": "兵庫県",
    "prefecture_kana": "ヒョウゴケン",
    "prefecture_code": 28,
    "city": "姫路市",
    "city_kana": "ヒメジシ",
    "town": "景福寺前",
    "town_kana": "ケイフクジマエ",
    "street": null,
    "office_name": null,
    "office_name_kana": null
  },
  "0028": {
    "postcode": "6700028",
    "prefecture": "兵庫県",
    "prefecture_kana": "ヒョウゴケン",
    "prefecture_code": 28,
    "city": "姫路市",
    "city_kana": "ヒメジシ",
    "town": "岩端町",
    "town_kana": "イワバナチョウ",
    "street": null,
    "office_name": null,
    "office_name_kana": null
  },
  "0029": {
    "postcode": "6700029",
    "prefecture": "兵庫県",
    "prefecture_kana": "ヒョウゴケン",
    "prefecture_code": 28,
    "city": "姫路市",
    "city_kana": "ヒメジシ",
    "town": "嵐山町",
    "town_kana": "アラシヤマチョウ",
    "street": null,
    "office_name": null,
    "office_name_kana": null
  },
  "0031": {
    "postcode": "6700031",
    "prefecture": "兵庫県",
    "prefecture_kana": "ヒョウゴケン",
    "prefecture_code": 28,
    "city": "姫路市",
    "city_kana": "ヒメジシ",
    "town": "吉田町",
    "town_kana": "ヨシダマチ",
    "street": null,
    "office_name": null,
    "office_name_kana": null
  },
  "0032": {
    "postcode": "6700032",
    "prefecture": "兵庫県",
    "prefecture_kana": "ヒョウゴケン",
    "prefecture_code": 28,
    "city": "姫路市",
    "city_kana": "ヒメジシ",
    "town": "龍野町",
    "town_kana": "タツノマチ",
    "street": null,
    "office_name": null,
    "office_name_kana": null
  },
  "0033": {
    "postcode": "6700033",
    "prefecture": "兵庫県",
    "prefecture_kana": "ヒョウゴケン",
    "prefecture_code": 28,
    "city": "姫路市",
    "city_kana": "ヒメジシ",
    "town": "西新町",
    "town_kana": "ニシシンマチ",
    "street": null,
    "office_name": null,
    "office_name_kana": null
  },
  "0034": {
    "postcode": "6700034",
    "prefecture": "兵庫県",
    "prefecture_kana": "ヒョウゴケン",
    "prefecture_code": 28,
    "city": "姫路市",
    "city_kana": "ヒメジシ",
    "town": "船丘町",
    "town_kana": "フナオカチョウ",
    "street": null,
    "office_name": null,
    "office_name_kana": null
  },
  "0035": {
    "postcode": "6700035",
    "prefecture": "兵庫県",
    "prefecture_kana": "ヒョウゴケン",
    "prefecture_code": 28,
    "city": "姫路市",
    "city_kana": "ヒメジシ",
    "town": "琴岡町",
    "town_kana": "コトオカチョウ",
    "street": null,
    "office_name": null,
    "office_name_kana": null
  },
  "0036": {
    "postcode": "6700036",
    "prefecture": "兵庫県",
    "prefecture_kana": "ヒョウゴケン",
    "prefecture_code": 28,
    "city": "姫路市",
    "city_kana": "ヒメジシ",
    "town": "山畑新田",
    "town_kana": "ヤマハタシンデン",
    "street": null,
    "office_name": null,
    "office_name_kana": null
  },
  "0037": {
    "postcode": "6700037",
    "prefecture": "兵庫県",
    "prefecture_kana": "ヒョウゴケン",
    "prefecture_code": 28,
    "city": "姫路市",
    "city_kana": "ヒメジシ",
    "town": "柿山伏",
    "town_kana": "カキヤマブシ",
    "street": null,
    "office_name": null,
    "office_name_kana": null
  },
  "0038": {
    "postcode": "6700038",
    "prefecture": "兵庫県",
    "prefecture_kana": "ヒョウゴケン",
    "prefecture_code": 28,
    "city": "姫路市",
    "city_kana": "ヒメジシ",
    "town": "農人町",
    "town_kana": "ノウニンマチ",
    "street": null,
    "office_name": null,
    "office_name_kana": null
  },
  "0041": {
    "postcode": "6700041",
    "prefecture": "兵庫県",
    "prefecture_kana": "ヒョウゴケン",
    "prefecture_code": 28,
    "city": "姫路市",
    "city_kana": "ヒメジシ",
    "town": "上片町",
    "town_kana": "カミカタマチ",
    "street": null,
    "office_name": null,
    "office_name_kana": null
  },
  "0042": {
    "postcode": "6700042",
    "prefecture": "兵庫県",
    "prefecture_kana": "ヒョウゴケン",
    "prefecture_code": 28,
    "city": "姫路市",
    "city_kana": "ヒメジシ",
    "town": "米田町",
    "town_kana": "ヨネダマチ",
    "street": null,
    "office_name": null,
    "office_name_kana": null
  },
  "0043": {
    "postcode": "6700043",
    "prefecture": "兵庫県",
    "prefecture_kana": "ヒョウゴケン",
    "prefecture_code": 28,
    "city": "姫路市",
    "city_kana": "ヒメジシ",
    "town": "小姓町",
    "town_kana": "コショウマチ",
    "street": null,
    "office_name": null,
    "office_name_kana": null
  },
  "0044": {
    "postcode": "6700044",
    "prefecture": "兵庫県",
    "prefecture_kana": "ヒョウゴケン",
    "prefecture_code": 28,
    "city": "姫路市",
    "city_kana": "ヒメジシ",
    "town": "地内町",
    "town_kana": "ジナイマチ",
    "street": null,
    "office_name": null,
    "office_name_kana": null
  },
  "0045": {
    "postcode": "6700045",
    "prefecture": "兵庫県",
    "prefecture_kana": "ヒョウゴケン",
    "prefecture_code": 28,
    "city": "姫路市",
    "city_kana": "ヒメジシ",
    "town": "片田町",
    "town_kana": "カタダマチ",
    "street": null,
    "office_name": null,
    "office_name_kana": null
  },
  "0046": {
    "postcode": "6700046",
    "prefecture": "兵庫県",
    "prefecture_kana": "ヒョウゴケン",
    "prefecture_code": 28,
    "city": "姫路市",
    "city_kana": "ヒメジシ",
    "town": "東雲町",
    "town_kana": "シノノメチョウ",
    "street": null,
    "office_name": null,
    "office_name_kana": null
  },
  "0047": {
    "postcode": "6700047",
    "prefecture": "兵庫県",
    "prefecture_kana": "ヒョウゴケン",
    "prefecture_code": 28,
    "city": "姫路市",
    "city_kana": "ヒメジシ",
    "town": "花影町",
    "town_kana": "ハナカゲチョウ",
    "street": null,
    "office_name": null,
    "office_name_kana": null
  },
  "0048": {
    "postcode": "6700048",
    "prefecture": "兵庫県",
    "prefecture_kana": "ヒョウゴケン",
    "prefecture_code": 28,
    "city": "姫路市",
    "city_kana": "ヒメジシ",
    "town": "船橋町",
    "town_kana": "フナハシチョウ",
    "street": null,
    "office_name": null,
    "office_name_kana": null
  },
  "0049": {
    "postcode": "6700049",
    "prefecture": "兵庫県",
    "prefecture_kana": "ヒョウゴケン",
    "prefecture_code": 28,
    "city": "姫路市",
    "city_kana": "ヒメジシ",
    "town": "元町",
    "town_kana": "モトマチ",
    "street": null,
    "office_name": null,
    "office_name_kana": null
  },
  "0051": {
    "postcode": "6700051",
    "prefecture": "兵庫県",
    "prefecture_kana": "ヒョウゴケン",
    "prefecture_code": 28,
    "city": "姫路市",
    "city_kana": "ヒメジシ",
    "town": "名古山町",
    "town_kana": "ナゴヤマチョウ",
    "street": null,
    "office_name": null,
    "office_name_kana": null
  },
  "0052": {
    "postcode": "6700052",
    "prefecture": "兵庫県",
    "prefecture_kana": "ヒョウゴケン",
    "prefecture_code": 28,
    "city": "姫路市",
    "city_kana": "ヒメジシ",
    "town": "今宿",
    "town_kana": "イマジュク",
    "street": null,
    "office_name": null,
    "office_name_kana": null
  },
  "0053": {
    "postcode": "6700053",
    "prefecture": "兵庫県",
    "prefecture_kana": "ヒョウゴケン",
    "prefecture_code": 28,
    "city": "姫路市",
    "city_kana": "ヒメジシ",
    "town": "南車崎",
    "town_kana": "ミナミクルマザキ",
    "street": null,
    "office_name": null,
    "office_name_kana": null
  },
  "0054": {
    "postcode": "6700054",
    "prefecture": "兵庫県",
    "prefecture_kana": "ヒョウゴケン",
    "prefecture_code": 28,
    "city": "姫路市",
    "city_kana": "ヒメジシ",
    "town": "南今宿",
    "town_kana": "ミナミイマジュク",
    "street": null,
    "office_name": null,
    "office_name_kana": null
  },
  "0055": {
    "postcode": "6700055",
    "prefecture": "兵庫県",
    "prefecture_kana": "ヒョウゴケン",
    "prefecture_code": 28,
    "city": "姫路市",
    "city_kana": "ヒメジシ",
    "town": "神子岡前",
    "town_kana": "ミコオカマエ",
    "street": null,
    "office_name": null,
    "office_name_kana": null
  },
  "0056": {
    "postcode": "6700056",
    "prefecture": "兵庫県",
    "prefecture_kana": "ヒョウゴケン",
    "prefecture_code": 28,
    "city": "姫路市",
    "city_kana": "ヒメジシ",
    "town": "東今宿",
    "town_kana": "ヒガシイマジュク",
    "street": null,
    "office_name": null,
    "office_name_kana": null
  },
  "0057": {
    "postcode": "6700057",
    "prefecture": "兵庫県",
    "prefecture_kana": "ヒョウゴケン",
    "prefecture_code": 28,
    "city": "姫路市",
    "city_kana": "ヒメジシ",
    "town": "北今宿",
    "town_kana": "キタイマジュク",
    "street": null,
    "office_name": null,
    "office_name_kana": null
  },
  "0058": {
    "postcode": "6700058",
    "prefecture": "兵庫県",
    "prefecture_kana": "ヒョウゴケン",
    "prefecture_code": 28,
    "city": "姫路市",
    "city_kana": "ヒメジシ",
    "town": "車崎",
    "town_kana": "クルマザキ",
    "street": null,
    "office_name": null,
    "office_name_kana": null
  },
  "0061": {
    "postcode": "6700061",
    "prefecture": "兵庫県",
    "prefecture_kana": "ヒョウゴケン",
    "prefecture_code": 28,
    "city": "姫路市",
    "city_kana": "ヒメジシ",
    "town": "西今宿",
    "town_kana": "ニシイマジュク",
    "street": null,
    "office_name": null,
    "office_name_kana": null
  },
  "0062": {
    "postcode": "6700062",
    "prefecture": "兵庫県",
    "prefecture_kana": "ヒョウゴケン",
    "prefecture_code": 28,
    "city": "姫路市",
    "city_kana": "ヒメジシ",
    "town": "高岡新町",
    "town_kana": "タカオカシンマチ",
    "street": null,
    "office_name": null,
    "office_name_kana": null
  },
  "0063": {
    "postcode": "6700063",
    "prefecture": "兵庫県",
    "prefecture_kana": "ヒョウゴケン",
    "prefecture_code": 28,
    "city": "姫路市",
    "city_kana": "ヒメジシ",
    "town": "下手野",
    "town_kana": "シモテノ",
    "street": null,
    "office_name": null,
    "office_name_kana": null
  },
  "0064": {
    "postcode": "6700064",
    "prefecture": "兵庫県",
    "prefecture_kana": "ヒョウゴケン",
    "prefecture_code": 28,
    "city": "姫路市",
    "city_kana": "ヒメジシ",
    "town": "東夢前台",
    "town_kana": "ヒガシユメサキダイ",
    "street": null,
    "office_name": null,
    "office_name_kana": null
  },
  "0065": {
    "postcode": "6700065",
    "prefecture": "兵庫県",
    "prefecture_kana": "ヒョウゴケン",
    "prefecture_code": 28,
    "city": "姫路市",
    "city_kana": "ヒメジシ",
    "town": "上手野",
    "town_kana": "カミテノ",
    "street": null,
    "office_name": null,
    "office_name_kana": null
  },
  "0066": {
    "postcode": "6700066",
    "prefecture": "兵庫県",
    "prefecture_kana": "ヒョウゴケン",
    "prefecture_code": 28,
    "city": "姫路市",
    "city_kana": "ヒメジシ",
    "town": "藤ケ台",
    "town_kana": "フジガダイ",
    "street": null,
    "office_name": null,
    "office_name_kana": null
  },
  "0071": {
    "postcode": "6700071",
    "prefecture": "兵庫県",
    "prefecture_kana": "ヒョウゴケン",
    "prefecture_code": 28,
    "city": "姫路市",
    "city_kana": "ヒメジシ",
    "town": "御立北",
    "town_kana": "ミタチキタ",
    "street": null,
    "office_name": null,
    "office_name_kana": null
  },
  "0072": {
    "postcode": "6700072",
    "prefecture": "兵庫県",
    "prefecture_kana": "ヒョウゴケン",
    "prefecture_code": 28,
    "city": "姫路市",
    "city_kana": "ヒメジシ",
    "town": "御立東",
    "town_kana": "ミタチヒガシ",
    "street": null,
    "office_name": null,
    "office_name_kana": null
  },
  "0073": {
    "postcode": "6700073",
    "prefecture": "兵庫県",
    "prefecture_kana": "ヒョウゴケン",
    "prefecture_code": 28,
    "city": "姫路市",
    "city_kana": "ヒメジシ",
    "town": "御立中",
    "town_kana": "ミタチナカ",
    "street": null,
    "office_name": null,
    "office_name_kana": null
  },
  "0074": {
    "postcode": "6700074",
    "prefecture": "兵庫県",
    "prefecture_kana": "ヒョウゴケン",
    "prefecture_code": 28,
    "city": "姫路市",
    "city_kana": "ヒメジシ",
    "town": "御立西",
    "town_kana": "ミタチニシ",
    "street": null,
    "office_name": null,
    "office_name_kana": null
  },
  "0075": {
    "postcode": "6700075",
    "prefecture": "兵庫県",
    "prefecture_kana": "ヒョウゴケン",
    "prefecture_code": 28,
    "city": "姫路市",
    "city_kana": "ヒメジシ",
    "town": "北夢前台",
    "town_kana": "キタユメサキダイ",
    "street": null,
    "office_name": null,
    "office_name_kana": null
  },
  "0081": {
    "postcode": "6700081",
    "prefecture": "兵庫県",
    "prefecture_kana": "ヒョウゴケン",
    "prefecture_code": 28,
    "city": "姫路市",
    "city_kana": "ヒメジシ",
    "town": "田寺東",
    "town_kana": "タデラヒガシ",
    "street": null,
    "office_name": null,
    "office_name_kana": null
  },
  "0082": {
    "postcode": "6700082",
    "prefecture": "兵庫県",
    "prefecture_kana": "ヒョウゴケン",
    "prefecture_code": 28,
    "city": "姫路市",
    "city_kana": "ヒメジシ",
    "town": "田寺山手町",
    "town_kana": "タデラヤマテチョウ",
    "street": null,
    "office_name": null,
    "office_name_kana": null
  },
  "0083": {
    "postcode": "6700083",
    "prefecture": "兵庫県",
    "prefecture_kana": "ヒョウゴケン",
    "prefecture_code": 28,
    "city": "姫路市",
    "city_kana": "ヒメジシ",
    "town": "辻井",
    "town_kana": "ツジイ",
    "street": null,
    "office_name": null,
    "office_name_kana": null
  },
  "0084": {
    "postcode": "6700084",
    "prefecture": "兵庫県",
    "prefecture_kana": "ヒョウゴケン",
    "prefecture_code": 28,
    "city": "姫路市",
    "city_kana": "ヒメジシ",
    "town": "東辻井",
    "town_kana": "ヒガシツジイ",
    "street": null,
    "office_name": null,
    "office_name_kana": null
  },
  "0085": {
    "postcode": "6700085",
    "prefecture": "兵庫県",
    "prefecture_kana": "ヒョウゴケン",
    "prefecture_code": 28,
    "city": "姫路市",
    "city_kana": "ヒメジシ",
    "town": "山吹",
    "town_kana": "ヤマブキ",
    "street": null,
    "office_name": null,
    "office_name_kana": null
  },
  "0086": {
    "postcode": "6700086",
    "prefecture": "兵庫県",
    "prefecture_kana": "ヒョウゴケン",
    "prefecture_code": 28,
    "city": "姫路市",
    "city_kana": "ヒメジシ",
    "town": "田寺",
    "town_kana": "タデラ",
    "street": null,
    "office_name": null,
    "office_name_kana": null
  },
  "0091": {
    "postcode": "6700091",
    "prefecture": "兵庫県",
    "prefecture_kana": "ヒョウゴケン",
    "prefecture_code": 28,
    "city": "姫路市",
    "city_kana": "ヒメジシ",
    "town": "北新在家",
    "town_kana": "キタシンザイケ",
    "street": null,
    "office_name": null,
    "office_name_kana": null
  },
  "0092": {
    "postcode": "6700092",
    "prefecture": "兵庫県",
    "prefecture_kana": "ヒョウゴケン",
    "prefecture_code": 28,
    "city": "姫路市",
    "city_kana": "ヒメジシ",
    "town": "新在家本町",
    "town_kana": "シンザイケホンチョウ",
    "street": null,
    "office_name": null,
    "office_name_kana": null
  },
  "0093": {
    "postcode": "6700093",
    "prefecture": "兵庫県",
    "prefecture_kana": "ヒョウゴケン",
    "prefecture_code": 28,
    "city": "姫路市",
    "city_kana": "ヒメジシ",
    "town": "南新在家",
    "town_kana": "ミナミシンザイケ",
    "street": null,
    "office_name": null,
    "office_name_kana": null
  },
  "0094": {
    "postcode": "6700094",
    "prefecture": "兵庫県",
    "prefecture_kana": "ヒョウゴケン",
    "prefecture_code": 28,
    "city": "姫路市",
    "city_kana": "ヒメジシ",
    "town": "新在家中の町",
    "town_kana": "シンザイケナカノチョウ",
    "street": null,
    "office_name": null,
    "office_name_kana": null
  },
  "0095": {
    "postcode": "6700095",
    "prefecture": "兵庫県",
    "prefecture_kana": "ヒョウゴケン",
    "prefecture_code": 28,
    "city": "姫路市",
    "city_kana": "ヒメジシ",
    "town": "新在家",
    "town_kana": "シンザイケ",
    "street": null,
    "office_name": null,
    "office_name_kana": null
  },
  "0096": {
    "postcode": "6700096",
    "prefecture": "兵庫県",
    "prefecture_kana": "ヒョウゴケン",
    "prefecture_code": 28,
    "city": "姫路市",
    "city_kana": "ヒメジシ",
    "town": "西新在家",
    "town_kana": "ニシシンザイケ",
    "street": null,
    "office_name": null,
    "office_name_kana": null
  },
  "0801": {
    "postcode": "6700801",
    "prefecture": "兵庫県",
    "prefecture_kana": "ヒョウゴケン",
    "prefecture_code": 28,
    "city": "姫路市",
    "city_kana": "ヒメジシ",
    "town": "仁豊野",
    "town_kana": "ニブノ",
    "street": null,
    "office_name": null,
    "office_name_kana": null
  },
  "0802": {
    "postcode": "6700802",
    "prefecture": "兵庫県",
    "prefecture_kana": "ヒョウゴケン",
    "prefecture_code": 28,
    "city": "姫路市",
    "city_kana": "ヒメジシ",
    "town": "砥堀",
    "town_kana": "トホリ",
    "street": null,
    "office_name": null,
    "office_name_kana": null
  },
  "0803": {
    "postcode": "6700803",
    "prefecture": "兵庫県",
    "prefecture_kana": "ヒョウゴケン",
    "prefecture_code": 28,
    "city": "姫路市",
    "city_kana": "ヒメジシ",
    "town": "城見台",
    "town_kana": "シロミダイ",
    "street": null,
    "office_name": null,
    "office_name_kana": null
  },
  "0804": {
    "postcode": "6700804",
    "prefecture": "兵庫県",
    "prefecture_kana": "ヒョウゴケン",
    "prefecture_code": 28,
    "city": "姫路市",
    "city_kana": "ヒメジシ",
    "town": "保城",
    "town_kana": "ホウシロ",
    "street": null,
    "office_name": null,
    "office_name_kana": null
  },
  "0805": {
    "postcode": "6700805",
    "prefecture": "兵庫県",
    "prefecture_kana": "ヒョウゴケン",
    "prefecture_code": 28,
    "city": "姫路市",
    "city_kana": "ヒメジシ",
    "town": "西中島",
    "town_kana": "ニシナカジマ",
    "street": null,
    "office_name": null,
    "office_name_kana": null
  },
  "0806": {
    "postcode": "6700806",
    "prefecture": "兵庫県",
    "prefecture_kana": "ヒョウゴケン",
    "prefecture_code": 28,
    "city": "姫路市",
    "city_kana": "ヒメジシ",
    "town": "増位新町",
    "town_kana": "マスイシンマチ",
    "street": null,
    "office_name": null,
    "office_name_kana": null
  },
  "0807": {
    "postcode": "6700807",
    "prefecture": "兵庫県",
    "prefecture_kana": "ヒョウゴケン",
    "prefecture_code": 28,
    "city": "姫路市",
    "city_kana": "ヒメジシ",
    "town": "増位本町",
    "town_kana": "マスイホンマチ",
    "street": null,
    "office_name": null,
    "office_name_kana": null
  },
  "0808": {
    "postcode": "6700808",
    "prefecture": "兵庫県",
    "prefecture_kana": "ヒョウゴケン",
    "prefecture_code": 28,
    "city": "姫路市",
    "city_kana": "ヒメジシ",
    "town": "白国",
    "town_kana": "シラクニ",
    "street": null,
    "office_name": null,
    "office_name_kana": null
  },
  "0811": {
    "postcode": "6700811",
    "prefecture": "兵庫県",
    "prefecture_kana": "ヒョウゴケン",
    "prefecture_code": 28,
    "city": "姫路市",
    "city_kana": "ヒメジシ",
    "town": "野里",
    "town_kana": "ノザト",
    "street": null,
    "office_name": null,
    "office_name_kana": null
  },
  "0812": {
    "postcode": "6700812",
    "prefecture": "兵庫県",
    "prefecture_kana": "ヒョウゴケン",
    "prefecture_code": 28,
    "city": "姫路市",
    "city_kana": "ヒメジシ",
    "town": "睦町",
    "town_kana": "ムツミチョウ",
    "street": null,
    "office_name": null,
    "office_name_kana": null
  },
  "0813": {
    "postcode": "6700813",
    "prefecture": "兵庫県",
    "prefecture_kana": "ヒョウゴケン",
    "prefecture_code": 28,
    "city": "姫路市",
    "city_kana": "ヒメジシ",
    "town": "野里慶雲寺前町",
    "town_kana": "ノザトケイウンジマエチョウ",
    "street": null,
    "office_name": null,
    "office_name_kana": null
  },
  "0814": {
    "postcode": "6700814",
    "prefecture": "兵庫県",
    "prefecture_kana": "ヒョウゴケン",
    "prefecture_code": 28,
    "city": "姫路市",
    "city_kana": "ヒメジシ",
    "town": "野里上野町",
    "town_kana": "ノザトウエノチョウ",
    "street": null,
    "office_name": null,
    "office_name_kana": null
  },
  "0815": {
    "postcode": "6700815",
    "prefecture": "兵庫県",
    "prefecture_kana": "ヒョウゴケン",
    "prefecture_code": 28,
    "city": "姫路市",
    "city_kana": "ヒメジシ",
    "town": "野里大和町",
    "town_kana": "ノザトヤマトチョウ",
    "street": null,
    "office_name": null,
    "office_name_kana": null
  },
  "0816": {
    "postcode": "6700816",
    "prefecture": "兵庫県",
    "prefecture_kana": "ヒョウゴケン",
    "prefecture_code": 28,
    "city": "姫路市",
    "city_kana": "ヒメジシ",
    "town": "威徳寺町",
    "town_kana": "イトクジマチ",
    "street": null,
    "office_name": null,
    "office_name_kana": null
  },
  "0817": {
    "postcode": "6700817",
    "prefecture": "兵庫県",
    "prefecture_kana": "ヒョウゴケン",
    "prefecture_code": 28,
    "city": "姫路市",
    "city_kana": "ヒメジシ",
    "town": "梅ケ枝町",
    "town_kana": "ウメガエチョウ",
    "street": null,
    "office_name": null,
    "office_name_kana": null
  },
  "0821": {
    "postcode": "6700821",
    "prefecture": "兵庫県",
    "prefecture_kana": "ヒョウゴケン",
    "prefecture_code": 28,
    "city": "姫路市",
    "city_kana": "ヒメジシ",
    "town": "東郷町",
    "town_kana": "トウゴウチョウ",
    "street": null,
    "office_name": null,
    "office_name_kana": null
  },
  "0822": {
    "postcode": "6700822",
    "prefecture": "兵庫県",
    "prefecture_kana": "ヒョウゴケン",
    "prefecture_code": 28,
    "city": "姫路市",
    "city_kana": "ヒメジシ",
    "town": "市川台",
    "town_kana": "イチカワダイ",
    "street": null,
    "office_name": null,
    "office_name_kana": null
  },
  "0823": {
    "postcode": "6700823",
    "prefecture": "兵庫県",
    "prefecture_kana": "ヒョウゴケン",
    "prefecture_code": 28,
    "city": "姫路市",
    "city_kana": "ヒメジシ",
    "town": "宮上町",
    "town_kana": "ミヤウエチョウ",
    "street": null,
    "office_name": null,
    "office_name_kana": null
  },
  "0824": {
    "postcode": "6700824",
    "prefecture": "兵庫県",
    "prefecture_kana": "ヒョウゴケン",
    "prefecture_code": 28,
    "city": "姫路市",
    "city_kana": "ヒメジシ",
    "town": "京町",
    "town_kana": "キョウマチ",
    "street": null,
    "office_name": null,
    "office_name_kana": null
  },
  "0825": {
    "postcode": "6700825",
    "prefecture": "兵庫県",
    "prefecture_kana": "ヒョウゴケン",
    "prefecture_code": 28,
    "city": "姫路市",
    "city_kana": "ヒメジシ",
    "town": "市川橋通",
    "town_kana": "イチカワバシドオリ",
    "street": null,
    "office_name": null,
    "office_name_kana": null
  },
  "0826": {
    "postcode": "6700826",
    "prefecture": "兵庫県",
    "prefecture_kana": "ヒョウゴケン",
    "prefecture_code": 28,
    "city": "姫路市",
    "city_kana": "ヒメジシ",
    "town": "楠町",
    "town_kana": "クスノキチョウ",
    "street": null,
    "office_name": null,
    "office_name_kana": null
  },
  "0827": {
    "postcode": "6700827",
    "prefecture": "兵庫県",
    "prefecture_kana": "ヒョウゴケン",
    "prefecture_code": 28,
    "city": "姫路市",
    "city_kana": "ヒメジシ",
    "town": "丸尾町",
    "town_kana": "マルオチョウ",
    "street": null,
    "office_name": null,
    "office_name_kana": null
  },
  "0831": {
    "postcode": "6700831",
    "prefecture": "兵庫県",
    "prefecture_kana": "ヒョウゴケン",
    "prefecture_code": 28,
    "city": "姫路市",
    "city_kana": "ヒメジシ",
    "town": "城見町",
    "town_kana": "シロミチョウ",
    "street": null,
    "office_name": null,
    "office_name_kana": null
  },
  "0832": {
    "postcode": "6700832",
    "prefecture": "兵庫県",
    "prefecture_kana": "ヒョウゴケン",
    "prefecture_code": 28,
    "city": "姫路市",
    "city_kana": "ヒメジシ",
    "town": "双葉町",
    "town_kana": "フタバチョウ",
    "street": null,
    "office_name": null,
    "office_name_kana": null
  },
  "0833": {
    "postcode": "6700833",
    "prefecture": "兵庫県",
    "prefecture_kana": "ヒョウゴケン",
    "prefecture_code": 28,
    "city": "姫路市",
    "city_kana": "ヒメジシ",
    "town": "大善町",
    "town_kana": "ダイゼンチョウ",
    "street": null,
    "office_name": null,
    "office_name_kana": null
  },
  "0834": {
    "postcode": "6700834",
    "prefecture": "兵庫県",
    "prefecture_kana": "ヒョウゴケン",
    "prefecture_code": 28,
    "city": "姫路市",
    "city_kana": "ヒメジシ",
    "town": "神和町",
    "town_kana": "シンワチョウ",
    "street": null,
    "office_name": null,
    "office_name_kana": null
  },
  "0835": {
    "postcode": "6700835",
    "prefecture": "兵庫県",
    "prefecture_kana": "ヒョウゴケン",
    "prefecture_code": 28,
    "city": "姫路市",
    "city_kana": "ヒメジシ",
    "town": "幸町",
    "town_kana": "サイワイチョウ",
    "street": null,
    "office_name": null,
    "office_name_kana": null
  },
  "0836": {
    "postcode": "6700836",
    "prefecture": "兵庫県",
    "prefecture_kana": "ヒョウゴケン",
    "prefecture_code": 28,
    "city": "姫路市",
    "city_kana": "ヒメジシ",
    "town": "神屋町",
    "town_kana": "カミヤチョウ",
    "street": null,
    "office_name": null,
    "office_name_kana": null
  },
  "0837": {
    "postcode": "6700837",
    "prefecture": "兵庫県",
    "prefecture_kana": "ヒョウゴケン",
    "prefecture_code": 28,
    "city": "姫路市",
    "city_kana": "ヒメジシ",
    "town": "宮西町",
    "town_kana": "ミヤニシチョウ",
    "street": null,
    "office_name": null,
    "office_name_kana": null
  },
  "0841": {
    "postcode": "6700841",
    "prefecture": "兵庫県",
    "prefecture_kana": "ヒョウゴケン",
    "prefecture_code": 28,
    "city": "姫路市",
    "city_kana": "ヒメジシ",
    "town": "城東町",
    "town_kana": "ジョウトウマチ",
    "street": null,
    "office_name": null,
    "office_name_kana": null
  },
  "0842": {
    "postcode": "6700842",
    "prefecture": "兵庫県",
    "prefecture_kana": "ヒョウゴケン",
    "prefecture_code": 28,
    "city": "姫路市",
    "city_kana": "ヒメジシ",
    "town": "城東町毘沙門",
    "town_kana": "ジョウトウマチビシャモン",
    "street": null,
    "office_name": null,
    "office_name_kana": null
  },
  "0843": {
    "postcode": "6700843",
    "prefecture": "兵庫県",
    "prefecture_kana": "ヒョウゴケン",
    "prefecture_code": 28,
    "city": "姫路市",
    "city_kana": "ヒメジシ",
    "town": "城東町清水",
    "town_kana": "ジョウトウマチシミズ",
    "street": null,
    "office_name": null,
    "office_name_kana": null
  },
  "0844": {
    "postcode": "6700844",
    "prefecture": "兵庫県",
    "prefecture_kana": "ヒョウゴケン",
    "prefecture_code": 28,
    "city": "姫路市",
    "city_kana": "ヒメジシ",
    "town": "城東町野田",
    "town_kana": "ジョウトウマチノダ",
    "street": null,
    "office_name": null,
    "office_name_kana": null
  },
  "0845": {
    "postcode": "6700845",
    "prefecture": "兵庫県",
    "prefecture_kana": "ヒョウゴケン",
    "prefecture_code": 28,
    "city": "姫路市",
    "city_kana": "ヒメジシ",
    "town": "城東町京口台",
    "town_kana": "ジョウトウマチキョウグチダイ",
    "street": null,
    "office_name": null,
    "office_name_kana": null
  },
  "0846": {
    "postcode": "6700846",
    "prefecture": "兵庫県",
    "prefecture_kana": "ヒョウゴケン",
    "prefecture_code": 28,
    "city": "姫路市",
    "city_kana": "ヒメジシ",
    "town": "天神町",
    "town_kana": "テンジンマチ",
    "street": null,
    "office_name": null,
    "office_name_kana": null
  },
  "0847": {
    "postcode": "6700847",
    "prefecture": "兵庫県",
    "prefecture_kana": "ヒョウゴケン",
    "prefecture_code": 28,
    "city": "姫路市",
    "city_kana": "ヒメジシ",
    "town": "城東町中河原",
    "town_kana": "ジョウトウマチナカガワラ",
    "street": null,
    "office_name": null,
    "office_name_kana": null
  },
  "0848": {
    "postcode": "6700848",
    "prefecture": "兵庫県",
    "prefecture_kana": "ヒョウゴケン",
    "prefecture_code": 28,
    "city": "姫路市",
    "city_kana": "ヒメジシ",
    "town": "城東町竹之門",
    "town_kana": "ジョウトウマチタケノモン",
    "street": null,
    "office_name": null,
    "office_name_kana": null
  },
  "0849": {
    "postcode": "6700849",
    "prefecture": "兵庫県",
    "prefecture_kana": "ヒョウゴケン",
    "prefecture_code": 28,
    "city": "姫路市",
    "city_kana": "ヒメジシ",
    "town": "城東町五軒屋",
    "town_kana": "ジョウトウマチゴケンヤ",
    "street": null,
    "office_name": null,
    "office_name_kana": null
  },
  "0851": {
    "postcode": "6700851",
    "prefecture": "兵庫県",
    "prefecture_kana": "ヒョウゴケン",
    "prefecture_code": 28,
    "city": "姫路市",
    "city_kana": "ヒメジシ",
    "town": "京口町",
    "town_kana": "キョウグチマチ",
    "street": null,
    "office_name": null,
    "office_name_kana": null
  },
  "0852": {
    "postcode": "6700852",
    "prefecture": "兵庫県",
    "prefecture_kana": "ヒョウゴケン",
    "prefecture_code": 28,
    "city": "姫路市",
    "city_kana": "ヒメジシ",
    "town": "国府寺町",
    "town_kana": "コオデラマチ",
    "street": null,
    "office_name": null,
    "office_name_kana": null
  },
  "0853": {
    "postcode": "6700853",
    "prefecture": "兵庫県",
    "prefecture_kana": "ヒョウゴケン",
    "prefecture_code": 28,
    "city": "姫路市",
    "city_kana": "ヒメジシ",
    "town": "大黒壱丁町",
    "town_kana": "ダイコクイッチョウマチ",
    "street": null,
    "office_name": null,
    "office_name_kana": null
  },
  "0854": {
    "postcode": "6700854",
    "prefecture": "兵庫県",
    "prefecture_kana": "ヒョウゴケン",
    "prefecture_code": 28,
    "city": "姫路市",
    "city_kana": "ヒメジシ",
    "town": "五軒邸",
    "town_kana": "ゴケンヤシキ",
    "street": null,
    "office_name": null,
    "office_name_kana": null
  },
  "0855": {
    "postcode": "6700855",
    "prefecture": "兵庫県",
    "prefecture_kana": "ヒョウゴケン",
    "prefecture_code": 28,
    "city": "姫路市",
    "city_kana": "ヒメジシ",
    "town": "福居町",
    "town_kana": "フクイマチ",
    "street": null,
    "office_name": null,
    "office_name_kana": null
  },
  "0856": {
    "postcode": "6700856",
    "prefecture": "兵庫県",
    "prefecture_kana": "ヒョウゴケン",
    "prefecture_code": 28,
    "city": "姫路市",
    "city_kana": "ヒメジシ",
    "town": "同心町",
    "town_kana": "ドウシンマチ",
    "street": null,
    "office_name": null,
    "office_name_kana": null
  },
  "0857": {
    "postcode": "6700857",
    "prefecture": "兵庫県",
    "prefecture_kana": "ヒョウゴケン",
    "prefecture_code": 28,
    "city": "姫路市",
    "city_kana": "ヒメジシ",
    "town": "五郎右衛門邸",
    "town_kana": "ゴロウエモンテイ",
    "street": null,
    "office_name": null,
    "office_name_kana": null
  },
  "0861": {
    "postcode": "6700861",
    "prefecture": "兵庫県",
    "prefecture_kana": "ヒョウゴケン",
    "prefecture_code": 28,
    "city": "姫路市",
    "city_kana": "ヒメジシ",
    "town": "野里東町",
    "town_kana": "ノザトヒガシマチ",
    "street": null,
    "office_name": null,
    "office_name_kana": null
  },
  "0862": {
    "postcode": "6700862",
    "prefecture": "兵庫県",
    "prefecture_kana": "ヒョウゴケン",
    "prefecture_code": 28,
    "city": "姫路市",
    "city_kana": "ヒメジシ",
    "town": "野里新町",
    "town_kana": "ノザトシンマチ",
    "street": null,
    "office_name": null,
    "office_name_kana": null
  },
  "0863": {
    "postcode": "6700863",
    "prefecture": "兵庫県",
    "prefecture_kana": "ヒョウゴケン",
    "prefecture_code": 28,
    "city": "姫路市",
    "city_kana": "ヒメジシ",
    "town": "野里東同心町",
    "town_kana": "ノザトヒガシドウシンマチ",
    "street": null,
    "office_name": null,
    "office_name_kana": null
  },
  "0864": {
    "postcode": "6700864",
    "prefecture": "兵庫県",
    "prefecture_kana": "ヒョウゴケン",
    "prefecture_code": 28,
    "city": "姫路市",
    "city_kana": "ヒメジシ",
    "town": "野里中町",
    "town_kana": "ノザトナカマチ",
    "street": null,
    "office_name": null,
    "office_name_kana": null
  },
  "0865": {
    "postcode": "6700865",
    "prefecture": "兵庫県",
    "prefecture_kana": "ヒョウゴケン",
    "prefecture_code": 28,
    "city": "姫路市",
    "city_kana": "ヒメジシ",
    "town": "野里月丘町",
    "town_kana": "ノザトツキオカマチ",
    "street": null,
    "office_name": null,
    "office_name_kana": null
  },
  "0866": {
    "postcode": "6700866",
    "prefecture": "兵庫県",
    "prefecture_kana": "ヒョウゴケン",
    "prefecture_code": 28,
    "city": "姫路市",
    "city_kana": "ヒメジシ",
    "town": "野里堀留町",
    "town_kana": "ノザトホリドメマチ",
    "street": null,
    "office_name": null,
    "office_name_kana": null
  },
  "0867": {
    "postcode": "6700867",
    "prefecture": "兵庫県",
    "prefecture_kana": "ヒョウゴケン",
    "prefecture_code": 28,
    "city": "姫路市",
    "city_kana": "ヒメジシ",
    "town": "野里寺町",
    "town_kana": "ノザトテラマチ",
    "street": null,
    "office_name": null,
    "office_name_kana": null
  },
  "0868": {
    "postcode": "6700868",
    "prefecture": "兵庫県",
    "prefecture_kana": "ヒョウゴケン",
    "prefecture_code": 28,
    "city": "姫路市",
    "city_kana": "ヒメジシ",
    "town": "大野町",
    "town_kana": "オオノマチ",
    "street": null,
    "office_name": null,
    "office_name_kana": null
  },
  "0871": {
    "postcode": "6700871",
    "prefecture": "兵庫県",
    "prefecture_kana": "ヒョウゴケン",
    "prefecture_code": 28,
    "city": "姫路市",
    "city_kana": "ヒメジシ",
    "town": "伊伝居",
    "town_kana": "イデイ",
    "street": null,
    "office_name": null,
    "office_name_kana": null
  },
  "0872": {
    "postcode": "6700872",
    "prefecture": "兵庫県",
    "prefecture_kana": "ヒョウゴケン",
    "prefecture_code": 28,
    "city": "姫路市",
    "city_kana": "ヒメジシ",
    "town": "八代",
    "town_kana": "ヤシロ",
    "street": null,
    "office_name": null,
    "office_name_kana": null
  },
  "0873": {
    "postcode": "6700873",
    "prefecture": "兵庫県",
    "prefecture_kana": "ヒョウゴケン",
    "prefecture_code": 28,
    "city": "姫路市",
    "city_kana": "ヒメジシ",
    "town": "八代東光寺町",
    "town_kana": "ヤシロトウコウジチョウ",
    "street": null,
    "office_name": null,
    "office_name_kana": null
  },
  "0874": {
    "postcode": "6700874",
    "prefecture": "兵庫県",
    "prefecture_kana": "ヒョウゴケン",
    "prefecture_code": 28,
    "city": "姫路市",
    "city_kana": "ヒメジシ",
    "town": "八代本町",
    "town_kana": "ヤシロホンチョウ",
    "street": null,
    "office_name": null,
    "office_name_kana": null
  },
  "0875": {
    "postcode": "6700875",
    "prefecture": "兵庫県",
    "prefecture_kana": "ヒョウゴケン",
    "prefecture_code": 28,
    "city": "姫路市",
    "city_kana": "ヒメジシ",
    "town": "南八代町",
    "town_kana": "ミナミヤシロチョウ",
    "street": null,
    "office_name": null,
    "office_name_kana": null
  },
  "0876": {
    "postcode": "6700876",
    "prefecture": "兵庫県",
    "prefecture_kana": "ヒョウゴケン",
    "prefecture_code": 28,
    "city": "姫路市",
    "city_kana": "ヒメジシ",
    "town": "西八代町",
    "town_kana": "ニシヤシロチョウ",
    "street": null,
    "office_name": null,
    "office_name_kana": null
  },
  "0877": {
    "postcode": "6700877",
    "prefecture": "兵庫県",
    "prefecture_kana": "ヒョウゴケン",
    "prefecture_code": 28,
    "city": "姫路市",
    "city_kana": "ヒメジシ",
    "town": "北八代",
    "town_kana": "キタヤシロ",
    "street": null,
    "office_name": null,
    "office_name_kana": null
  },
  "0881": {
    "postcode": "6700881",
    "prefecture": "兵庫県",
    "prefecture_kana": "ヒョウゴケン",
    "prefecture_code": 28,
    "city": "姫路市",
    "city_kana": "ヒメジシ",
    "town": "峰南町",
    "town_kana": "ホウナンチョウ",
    "street": null,
    "office_name": null,
    "office_name_kana": null
  },
  "0882": {
    "postcode": "6700882",
    "prefecture": "兵庫県",
    "prefecture_kana": "ヒョウゴケン",
    "prefecture_code": 28,
    "city": "姫路市",
    "city_kana": "ヒメジシ",
    "town": "広峰",
    "town_kana": "ヒロミネ",
    "street": null,
    "office_name": null,
    "office_name_kana": null
  },
  "0883": {
    "postcode": "6700883",
    "prefecture": "兵庫県",
    "prefecture_kana": "ヒョウゴケン",
    "prefecture_code": 28,
    "city": "姫路市",
    "city_kana": "ヒメジシ",
    "town": "城北新町",
    "town_kana": "ジョウホクシンマチ",
    "street": null,
    "office_name": null,
    "office_name_kana": null
  },
  "0884": {
    "postcode": "6700884",
    "prefecture": "兵庫県",
    "prefecture_kana": "ヒョウゴケン",
    "prefecture_code": 28,
    "city": "姫路市",
    "city_kana": "ヒメジシ",
    "town": "城北本町",
    "town_kana": "ジョウホクホンチョウ",
    "street": null,
    "office_name": null,
    "office_name_kana": null
  },
  "0885": {
    "postcode": "6700885",
    "prefecture": "兵庫県",
    "prefecture_kana": "ヒョウゴケン",
    "prefecture_code": 28,
    "city": "姫路市",
    "city_kana": "ヒメジシ",
    "town": "八代宮前町",
    "town_kana": "ヤシロミヤマエチョウ",
    "street": null,
    "office_name": null,
    "office_name_kana": null
  },
  "0886": {
    "postcode": "6700886",
    "prefecture": "兵庫県",
    "prefecture_kana": "ヒョウゴケン",
    "prefecture_code": 28,
    "city": "姫路市",
    "city_kana": "ヒメジシ",
    "town": "八代緑ケ丘町",
    "town_kana": "ヤシロミドリガオカチョウ",
    "street": null,
    "office_name": null,
    "office_name_kana": null
  },
  "0887": {
    "postcode": "6700887",
    "prefecture": "兵庫県",
    "prefecture_kana": "ヒョウゴケン",
    "prefecture_code": 28,
    "city": "姫路市",
    "city_kana": "ヒメジシ",
    "town": "北平野南の町",
    "town_kana": "キタヒラノミナミノチョウ",
    "street": null,
    "office_name": null,
    "office_name_kana": null
  },
  "0891": {
    "postcode": "6700891",
    "prefecture": "兵庫県",
    "prefecture_kana": "ヒョウゴケン",
    "prefecture_code": 28,
    "city": "姫路市",
    "city_kana": "ヒメジシ",
    "town": "広嶺山",
    "town_kana": "ヒロミネヤマ",
    "street": null,
    "office_name": null,
    "office_name_kana": null
  },
  "0892": {
    "postcode": "6700892",
    "prefecture": "兵庫県",
    "prefecture_kana": "ヒョウゴケン",
    "prefecture_code": 28,
    "city": "姫路市",
    "city_kana": "ヒメジシ",
    "town": "北平野奥垣内",
    "town_kana": "キタヒラノオクガイチ",
    "street": null,
    "office_name": null,
    "office_name_kana": null
  },
  "0893": {
    "postcode": "6700893",
    "prefecture": "兵庫県",
    "prefecture_kana": "ヒョウゴケン",
    "prefecture_code": 28,
    "city": "姫路市",
    "city_kana": "ヒメジシ",
    "town": "北平野",
    "town_kana": "キタヒラノ",
    "street": null,
    "office_name": null,
    "office_name_kana": null
  },
  "0894": {
    "postcode": "6700894",
    "prefecture": "兵庫県",
    "prefecture_kana": "ヒョウゴケン",
    "prefecture_code": 28,
    "city": "姫路市",
    "city_kana": "ヒメジシ",
    "town": "梅ケ谷町",
    "town_kana": "ウメガタニチョウ",
    "street": null,
    "office_name": null,
    "office_name_kana": null
  },
  "0895": {
    "postcode": "6700895",
    "prefecture": "兵庫県",
    "prefecture_kana": "ヒョウゴケン",
    "prefecture_code": 28,
    "city": "姫路市",
    "city_kana": "ヒメジシ",
    "town": "北平野台町",
    "town_kana": "キタヒラノダイチョウ",
    "street": null,
    "office_name": null,
    "office_name_kana": null
  },
  "0896": {
    "postcode": "6700896",
    "prefecture": "兵庫県",
    "prefecture_kana": "ヒョウゴケン",
    "prefecture_code": 28,
    "city": "姫路市",
    "city_kana": "ヒメジシ",
    "town": "上大野",
    "town_kana": "カミオオノ",
    "street": null,
    "office_name": null,
    "office_name_kana": null
  },
  "0897": {
    "postcode": "6700897",
    "prefecture": "兵庫県",
    "prefecture_kana": "ヒョウゴケン",
    "prefecture_code": 28,
    "city": "姫路市",
    "city_kana": "ヒメジシ",
    "town": "西大寿台",
    "town_kana": "ニシダイジュダイ",
    "street": null,
    "office_name": null,
    "office_name_kana": null
  },
  "0898": {
    "postcode": "6700898",
    "prefecture": "兵庫県",
    "prefecture_kana": "ヒョウゴケン",
    "prefecture_code": 28,
    "city": "姫路市",
    "city_kana": "ヒメジシ",
    "town": "大寿台",
    "town_kana": "ダイジュダイ",
    "street": null,
    "office_name": null,
    "office_name_kana": null
  },
  "0901": {
    "postcode": "6700901",
    "prefecture": "兵庫県",
    "prefecture_kana": "ヒョウゴケン",
    "prefecture_code": 28,
    "city": "姫路市",
    "city_kana": "ヒメジシ",
    "town": "西二階町",
    "town_kana": "ニシニカイマチ",
    "street": null,
    "office_name": null,
    "office_name_kana": null
  },
  "0902": {
    "postcode": "6700902",
    "prefecture": "兵庫県",
    "prefecture_kana": "ヒョウゴケン",
    "prefecture_code": 28,
    "city": "姫路市",
    "city_kana": "ヒメジシ",
    "town": "白銀町",
    "town_kana": "シロガネマチ",
    "street": null,
    "office_name": null,
    "office_name_kana": null
  },
  "0903": {
    "postcode": "6700903",
    "prefecture": "兵庫県",
    "prefecture_kana": "ヒョウゴケン",
    "prefecture_code": 28,
    "city": "姫路市",
    "city_kana": "ヒメジシ",
    "town": "立町",
    "town_kana": "タテマチ",
    "street": null,
    "office_name": null,
    "office_name_kana": null
  },
  "0904": {
    "postcode": "6700904",
    "prefecture": "兵庫県",
    "prefecture_kana": "ヒョウゴケン",
    "prefecture_code": 28,
    "city": "姫路市",
    "city_kana": "ヒメジシ",
    "town": "塩町",
    "town_kana": "シオマチ",
    "street": null,
    "office_name": null,
    "office_name_kana": null
  },
  "0905": {
    "postcode": "6700905",
    "prefecture": "兵庫県",
    "prefecture_kana": "ヒョウゴケン",
    "prefecture_code": 28,
    "city": "姫路市",
    "city_kana": "ヒメジシ",
    "town": "魚町",
    "town_kana": "ウオマチ",
    "street": null,
    "office_name": null,
    "office_name_kana": null
  },
  "0906": {
    "postcode": "6700906",
    "prefecture": "兵庫県",
    "prefecture_kana": "ヒョウゴケン",
    "prefecture_code": 28,
    "city": "姫路市",
    "city_kana": "ヒメジシ",
    "town": "博労町",
    "town_kana": "バクロウマチ",
    "street": null,
    "office_name": null,
    "office_name_kana": null
  },
  "0911": {
    "postcode": "6700911",
    "prefecture": "兵庫県",
    "prefecture_kana": "ヒョウゴケン",
    "prefecture_code": 28,
    "city": "姫路市",
    "city_kana": "ヒメジシ",
    "town": "十二所前町",
    "town_kana": "ジュウニショマエチョウ",
    "street": null,
    "office_name": null,
    "office_name_kana": null
  },
  "0912": {
    "postcode": "6700912",
    "prefecture": "兵庫県",
    "prefecture_kana": "ヒョウゴケン",
    "prefecture_code": 28,
    "city": "姫路市",
    "city_kana": "ヒメジシ",
    "town": "南町",
    "town_kana": "ミナミマチ",
    "street": null,
    "office_name": null,
    "office_name_kana": null
  },
  "0913": {
    "postcode": "6700913",
    "prefecture": "兵庫県",
    "prefecture_kana": "ヒョウゴケン",
    "prefecture_code": 28,
    "city": "姫路市",
    "city_kana": "ヒメジシ",
    "town": "西駅前町",
    "town_kana": "ニシエキマエチョウ",
    "street": null,
    "office_name": null,
    "office_name_kana": null
  },
  "0914": {
    "postcode": "6700914",
    "prefecture": "兵庫県",
    "prefecture_kana": "ヒョウゴケン",
    "prefecture_code": 28,
    "city": "姫路市",
    "city_kana": "ヒメジシ",
    "town": "豆腐町",
    "town_kana": "トウフマチ",
    "street": null,
    "office_name": null,
    "office_name_kana": null
  },
  "0915": {
    "postcode": "6700915",
    "prefecture": "兵庫県",
    "prefecture_kana": "ヒョウゴケン",
    "prefecture_code": 28,
    "city": "姫路市",
    "city_kana": "ヒメジシ",
    "town": "高尾町",
    "town_kana": "タカオチョウ",
    "street": null,
    "office_name": null,
    "office_name_kana": null
  },
  "0916": {
    "postcode": "6700916",
    "prefecture": "兵庫県",
    "prefecture_kana": "ヒョウゴケン",
    "prefecture_code": 28,
    "city": "姫路市",
    "city_kana": "ヒメジシ",
    "town": "久保町",
    "town_kana": "クボチョウ",
    "street": null,
    "office_name": null,
    "office_name_kana": null
  },
  "0917": {
    "postcode": "6700917",
    "prefecture": "兵庫県",
    "prefecture_kana": "ヒョウゴケン",
    "prefecture_code": 28,
    "city": "姫路市",
    "city_kana": "ヒメジシ",
    "town": "忍町",
    "town_kana": "シノブマチ",
    "street": null,
    "office_name": null,
    "office_name_kana": null
  },
  "0921": {
    "postcode": "6700921",
    "prefecture": "兵庫県",
    "prefecture_kana": "ヒョウゴケン",
    "prefecture_code": 28,
    "city": "姫路市",
    "city_kana": "ヒメジシ",
    "town": "綿町",
    "town_kana": "ワタマチ",
    "street": null,
    "office_name": null,
    "office_name_kana": null
  },
  "0922": {
    "postcode": "6700922",
    "prefecture": "兵庫県",
    "prefecture_kana": "ヒョウゴケン",
    "prefecture_code": 28,
    "city": "姫路市",
    "city_kana": "ヒメジシ",
    "town": "二階町",
    "town_kana": "ニカイマチ",
    "street": null,
    "office_name": null,
    "office_name_kana": null
  },
  "0923": {
    "postcode": "6700923",
    "prefecture": "兵庫県",
    "prefecture_kana": "ヒョウゴケン",
    "prefecture_code": 28,
    "city": "姫路市",
    "city_kana": "ヒメジシ",
    "town": "呉服町",
    "town_kana": "ゴフクマチ",
    "street": null,
    "office_name": null,
    "office_name_kana": null
  },
  "0924": {
    "postcode": "6700924",
    "prefecture": "兵庫県",
    "prefecture_kana": "ヒョウゴケン",
    "prefecture_code": 28,
    "city": "姫路市",
    "city_kana": "ヒメジシ",
    "town": "紺屋町",
    "town_kana": "コンヤマチ",
    "street": null,
    "office_name": null,
    "office_name_kana": null
  },
  "0925": {
    "postcode": "6700925",
    "prefecture": "兵庫県",
    "prefecture_kana": "ヒョウゴケン",
    "prefecture_code": 28,
    "city": "姫路市",
    "city_kana": "ヒメジシ",
    "town": "亀井町",
    "town_kana": "カメイマチ",
    "street": null,
    "office_name": null,
    "office_name_kana": null
  },
  "0926": {
    "postcode": "6700926",
    "prefecture": "兵庫県",
    "prefecture_kana": "ヒョウゴケン",
    "prefecture_code": 28,
    "city": "姫路市",
    "city_kana": "ヒメジシ",
    "town": "東駅前町",
    "town_kana": "ヒガシエキマエチョウ",
    "street": null,
    "office_name": null,
    "office_name_kana": null
  },
  "0927": {
    "postcode": "6700927",
    "prefecture": "兵庫県",
    "prefecture_kana": "ヒョウゴケン",
    "prefecture_code": 28,
    "city": "姫路市",
    "city_kana": "ヒメジシ",
    "town": "駅前町",
    "town_kana": "エキマエチョウ",
    "street": null,
    "office_name": null,
    "office_name_kana": null
  },
  "0931": {
    "postcode": "6700931",
    "prefecture": "兵庫県",
    "prefecture_kana": "ヒョウゴケン",
    "prefecture_code": 28,
    "city": "姫路市",
    "city_kana": "ヒメジシ",
    "town": "坂田町",
    "town_kana": "サカタマチ",
    "street": null,
    "office_name": null,
    "office_name_kana": null
  },
  "0932": {
    "postcode": "6700932",
    "prefecture": "兵庫県",
    "prefecture_kana": "ヒョウゴケン",
    "prefecture_code": 28,
    "city": "姫路市",
    "city_kana": "ヒメジシ",
    "town": "下寺町",
    "town_kana": "シモデラマチ",
    "street": null,
    "office_name": null,
    "office_name_kana": null
  },
  "0933": {
    "postcode": "6700933",
    "prefecture": "兵庫県",
    "prefecture_kana": "ヒョウゴケン",
    "prefecture_code": 28,
    "city": "姫路市",
    "city_kana": "ヒメジシ",
    "town": "平野町",
    "town_kana": "ヒラノマチ",
    "street": null,
    "office_name": null,
    "office_name_kana": null
  },
  "0934": {
    "postcode": "6700934",
    "prefecture": "兵庫県",
    "prefecture_kana": "ヒョウゴケン",
    "prefecture_code": 28,
    "city": "姫路市",
    "city_kana": "ヒメジシ",
    "town": "朝日町",
    "town_kana": "アサヒマチ",
    "street": null,
    "office_name": null,
    "office_name_kana": null
  },
  "0935": {
    "postcode": "6700935",
    "prefecture": "兵庫県",
    "prefecture_kana": "ヒョウゴケン",
    "prefecture_code": 28,
    "city": "姫路市",
    "city_kana": "ヒメジシ",
    "town": "北条口",
    "town_kana": "ホウジョウグチ",
    "street": null,
    "office_name": null,
    "office_name_kana": null
  },
  "0936": {
    "postcode": "6700936",
    "prefecture": "兵庫県",
    "prefecture_kana": "ヒョウゴケン",
    "prefecture_code": 28,
    "city": "姫路市",
    "city_kana": "ヒメジシ",
    "town": "古二階町",
    "town_kana": "コニカイマチ",
    "street": null,
    "office_name": null,
    "office_name_kana": null
  },
  "0937": {
    "postcode": "6700937",
    "prefecture": "兵庫県",
    "prefecture_kana": "ヒョウゴケン",
    "prefecture_code": 28,
    "city": "姫路市",
    "city_kana": "ヒメジシ",
    "town": "元塩町",
    "town_kana": "モトシオマチ",
    "street": null,
    "office_name": null,
    "office_name_kana": null
  },
  "0940": {
    "postcode": "6700940",
    "prefecture": "兵庫県",
    "prefecture_kana": "ヒョウゴケン",
    "prefecture_code": 28,
    "city": "姫路市",
    "city_kana": "ヒメジシ",
    "town": "三左衛門堀西の町",
    "town_kana": "サンザエモンボリニシノマチ",
    "street": null,
    "office_name": null,
    "office_name_kana": null
  },
  "0941": {
    "postcode": "6700941",
    "prefecture": "兵庫県",
    "prefecture_kana": "ヒョウゴケン",
    "prefecture_code": 28,
    "city": "姫路市",
    "city_kana": "ヒメジシ",
    "town": "若菜町",
    "town_kana": "ワカナチョウ",
    "street": null,
    "office_name": null,
    "office_name_kana": null
  },
  "0942": {
    "postcode": "6700942",
    "prefecture": "兵庫県",
    "prefecture_kana": "ヒョウゴケン",
    "prefecture_code": 28,
    "city": "姫路市",
    "city_kana": "ヒメジシ",
    "town": "日出町",
    "town_kana": "ヒノデチョウ",
    "street": null,
    "office_name": null,
    "office_name_kana": null
  },
  "0943": [
    {
      "postcode": "6700943",
      "prefecture": "兵庫県",
      "prefecture_kana": "ヒョウゴケン",
      "prefecture_code": 28,
      "city": "姫路市",
      "city_kana": "ヒメジシ",
      "town": "市之郷",
      "town_kana": "イチノゴウ",
      "street": null,
      "office_name": null,
      "office_name_kana": null
    },
    {
      "postcode": "6700943",
      "prefecture": "兵庫県",
      "prefecture_kana": "ヒョウゴケン",
      "prefecture_code": 28,
      "city": "姫路市",
      "city_kana": "ヒメジシ",
      "town": "市之郷町",
      "town_kana": "イチノゴウチョウ",
      "street": null,
      "office_name": null,
      "office_name_kana": null
    }
  ],
  "0944": {
    "postcode": "6700944",
    "prefecture": "兵庫県",
    "prefecture_kana": "ヒョウゴケン",
    "prefecture_code": 28,
    "city": "姫路市",
    "city_kana": "ヒメジシ",
    "town": "阿保",
    "town_kana": "アボ",
    "street": null,
    "office_name": null,
    "office_name_kana": null
  },
  "0945": {
    "postcode": "6700945",
    "prefecture": "兵庫県",
    "prefecture_kana": "ヒョウゴケン",
    "prefecture_code": 28,
    "city": "姫路市",
    "city_kana": "ヒメジシ",
    "town": "北条梅原町",
    "town_kana": "ホウジョウウメハラチョウ",
    "street": null,
    "office_name": null,
    "office_name_kana": null
  },
  "0946": {
    "postcode": "6700946",
    "prefecture": "兵庫県",
    "prefecture_kana": "ヒョウゴケン",
    "prefecture_code": 28,
    "city": "姫路市",
    "city_kana": "ヒメジシ",
    "town": "北条永良町",
    "town_kana": "ホウジョウナガラチョウ",
    "street": null,
    "office_name": null,
    "office_name_kana": null
  },
  "0947": {
    "postcode": "6700947",
    "prefecture": "兵庫県",
    "prefecture_kana": "ヒョウゴケン",
    "prefecture_code": 28,
    "city": "姫路市",
    "city_kana": "ヒメジシ",
    "town": "北条",
    "town_kana": "ホウジョウ",
    "street": null,
    "office_name": null,
    "office_name_kana": null
  },
  "0948": {
    "postcode": "6700948",
    "prefecture": "兵庫県",
    "prefecture_kana": "ヒョウゴケン",
    "prefecture_code": 28,
    "city": "姫路市",
    "city_kana": "ヒメジシ",
    "town": "北条宮の町",
    "town_kana": "ホウジョウミヤノマチ",
    "street": null,
    "office_name": null,
    "office_name_kana": null
  },
  "0949": {
    "postcode": "6700949",
    "prefecture": "兵庫県",
    "prefecture_kana": "ヒョウゴケン",
    "prefecture_code": 28,
    "city": "姫路市",
    "city_kana": "ヒメジシ",
    "town": "三左衛門堀東の町",
    "town_kana": "サンザエモンボリヒガシノマチ",
    "street": null,
    "office_name": null,
    "office_name_kana": null
  },
  "0951": {
    "postcode": "6700951",
    "prefecture": "兵庫県",
    "prefecture_kana": "ヒョウゴケン",
    "prefecture_code": 28,
    "city": "姫路市",
    "city_kana": "ヒメジシ",
    "town": "庄田",
    "town_kana": "ショウダ",
    "street": null,
    "office_name": null,
    "office_name_kana": null
  },
  "0952": {
    "postcode": "6700952",
    "prefecture": "兵庫県",
    "prefecture_kana": "ヒョウゴケン",
    "prefecture_code": 28,
    "city": "姫路市",
    "city_kana": "ヒメジシ",
    "town": "南条",
    "town_kana": "ナンジョウ",
    "street": null,
    "office_name": null,
    "office_name_kana": null
  },
  "0953": {
    "postcode": "6700953",
    "prefecture": "兵庫県",
    "prefecture_kana": "ヒョウゴケン",
    "prefecture_code": 28,
    "city": "姫路市",
    "city_kana": "ヒメジシ",
    "town": "三条町",
    "town_kana": "サンジョウチョウ",
    "street": null,
    "office_name": null,
    "office_name_kana": null
  },
  "0954": {
    "postcode": "6700954",
    "prefecture": "兵庫県",
    "prefecture_kana": "ヒョウゴケン",
    "prefecture_code": 28,
    "city": "姫路市",
    "city_kana": "ヒメジシ",
    "town": "栗山町",
    "town_kana": "クリヤマチョウ",
    "street": null,
    "office_name": null,
    "office_name_kana": null
  },
  "0955": {
    "postcode": "6700955",
    "prefecture": "兵庫県",
    "prefecture_kana": "ヒョウゴケン",
    "prefecture_code": 28,
    "city": "姫路市",
    "city_kana": "ヒメジシ",
    "town": "安田",
    "town_kana": "ヤスダ",
    "street": null,
    "office_name": null,
    "office_name_kana": null
  },
  "0961": {
    "postcode": "6700961",
    "prefecture": "兵庫県",
    "prefecture_kana": "ヒョウゴケン",
    "prefecture_code": 28,
    "city": "姫路市",
    "city_kana": "ヒメジシ",
    "town": "南畝町",
    "town_kana": "ノウネンチョウ",
    "street": null,
    "office_name": null,
    "office_name_kana": null
  },
  "0962": {
    "postcode": "6700962",
    "prefecture": "兵庫県",
    "prefecture_kana": "ヒョウゴケン",
    "prefecture_code": 28,
    "city": "姫路市",
    "city_kana": "ヒメジシ",
    "town": "南駅前町",
    "town_kana": "ミナミエキマエチョウ",
    "street": null,
    "office_name": null,
    "office_name_kana": null
  },
  "0964": {
    "postcode": "6700964",
    "prefecture": "兵庫県",
    "prefecture_kana": "ヒョウゴケン",
    "prefecture_code": 28,
    "city": "姫路市",
    "city_kana": "ヒメジシ",
    "town": "豊沢町",
    "town_kana": "トヨザワチョウ",
    "street": null,
    "office_name": null,
    "office_name_kana": null
  },
  "0965": {
    "postcode": "6700965",
    "prefecture": "兵庫県",
    "prefecture_kana": "ヒョウゴケン",
    "prefecture_code": 28,
    "city": "姫路市",
    "city_kana": "ヒメジシ",
    "town": "東延末",
    "town_kana": "ヒガシノブスエ",
    "street": null,
    "office_name": null,
    "office_name_kana": null
  },
  "0966": {
    "postcode": "6700966",
    "prefecture": "兵庫県",
    "prefecture_kana": "ヒョウゴケン",
    "prefecture_code": 28,
    "city": "姫路市",
    "city_kana": "ヒメジシ",
    "town": "延末",
    "town_kana": "ノブスエ",
    "street": null,
    "office_name": null,
    "office_name_kana": null
  },
  "0971": {
    "postcode": "6700971",
    "prefecture": "兵庫県",
    "prefecture_kana": "ヒョウゴケン",
    "prefecture_code": 28,
    "city": "姫路市",
    "city_kana": "ヒメジシ",
    "town": "西延末",
    "town_kana": "ニシノブスエ",
    "street": null,
    "office_name": null,
    "office_name_kana": null
  },
  "0972": {
    "postcode": "6700972",
    "prefecture": "兵庫県",
    "prefecture_kana": "ヒョウゴケン",
    "prefecture_code": 28,
    "city": "姫路市",
    "city_kana": "ヒメジシ",
    "town": "手柄",
    "town_kana": "テガラ",
    "street": null,
    "office_name": null,
    "office_name_kana": null
  },
  "0973": {
    "postcode": "6700973",
    "prefecture": "兵庫県",
    "prefecture_kana": "ヒョウゴケン",
    "prefecture_code": 28,
    "city": "姫路市",
    "city_kana": "ヒメジシ",
    "town": "亀山",
    "town_kana": "カメヤマ",
    "street": null,
    "office_name": null,
    "office_name_kana": null
  },
  "0974": {
    "postcode": "6700974",
    "prefecture": "兵庫県",
    "prefecture_kana": "ヒョウゴケン",
    "prefecture_code": 28,
    "city": "姫路市",
    "city_kana": "ヒメジシ",
    "town": "飯田",
    "town_kana": "イイダ",
    "street": null,
    "office_name": null,
    "office_name_kana": null
  },
  "0975": {
    "postcode": "6700975",
    "prefecture": "兵庫県",
    "prefecture_kana": "ヒョウゴケン",
    "prefecture_code": 28,
    "city": "姫路市",
    "city_kana": "ヒメジシ",
    "town": "中地南町",
    "town_kana": "チュウジミナミノチョウ",
    "street": null,
    "office_name": null,
    "office_name_kana": null
  },
  "0976": {
    "postcode": "6700976",
    "prefecture": "兵庫県",
    "prefecture_kana": "ヒョウゴケン",
    "prefecture_code": 28,
    "city": "姫路市",
    "city_kana": "ヒメジシ",
    "town": "中地",
    "town_kana": "チュウジ",
    "street": null,
    "office_name": null,
    "office_name_kana": null
  },
  "0981": {
    "postcode": "6700981",
    "prefecture": "兵庫県",
    "prefecture_kana": "ヒョウゴケン",
    "prefecture_code": 28,
    "city": "姫路市",
    "city_kana": "ヒメジシ",
    "town": "西庄",
    "town_kana": "サイショウ",
    "street": null,
    "office_name": null,
    "office_name_kana": null
  },
  "0982": {
    "postcode": "6700982",
    "prefecture": "兵庫県",
    "prefecture_kana": "ヒョウゴケン",
    "prefecture_code": 28,
    "city": "姫路市",
    "city_kana": "ヒメジシ",
    "town": "岡田",
    "town_kana": "オカダ",
    "street": null,
    "office_name": null,
    "office_name_kana": null
  },
  "0983": {
    "postcode": "6700983",
    "prefecture": "兵庫県",
    "prefecture_kana": "ヒョウゴケン",
    "prefecture_code": 28,
    "city": "姫路市",
    "city_kana": "ヒメジシ",
    "town": "井ノ口",
    "town_kana": "イノグチ",
    "street": null,
    "office_name": null,
    "office_name_kana": null
  },
  "0984": {
    "postcode": "6700984",
    "prefecture": "兵庫県",
    "prefecture_kana": "ヒョウゴケン",
    "prefecture_code": 28,
    "city": "姫路市",
    "city_kana": "ヒメジシ",
    "town": "町坪",
    "town_kana": "チョウノツボ",
    "street": null,
    "office_name": null,
    "office_name_kana": null
  },
  "0985": {
    "postcode": "6700985",
    "prefecture": "兵庫県",
    "prefecture_kana": "ヒョウゴケン",
    "prefecture_code": 28,
    "city": "姫路市",
    "city_kana": "ヒメジシ",
    "town": "玉手",
    "town_kana": "タマテ",
    "street": null,
    "office_name": null,
    "office_name_kana": null
  },
  "0986": {
    "postcode": "6700986",
    "prefecture": "兵庫県",
    "prefecture_kana": "ヒョウゴケン",
    "prefecture_code": 28,
    "city": "姫路市",
    "city_kana": "ヒメジシ",
    "town": "苫編",
    "town_kana": "トマミ",
    "street": null,
    "office_name": null,
    "office_name_kana": null
  },
  "0987": {
    "postcode": "6700987",
    "prefecture": "兵庫県",
    "prefecture_kana": "ヒョウゴケン",
    "prefecture_code": 28,
    "city": "姫路市",
    "city_kana": "ヒメジシ",
    "town": "苫編南",
    "town_kana": "トマミミナミ",
    "street": null,
    "office_name": null,
    "office_name_kana": null
  },
  "0989": {
    "postcode": "6700989",
    "prefecture": "兵庫県",
    "prefecture_kana": "ヒョウゴケン",
    "prefecture_code": 28,
    "city": "姫路市",
    "city_kana": "ヒメジシ",
    "town": "町坪南町",
    "town_kana": "チョウノツボミナミマチ",
    "street": null,
    "office_name": null,
    "office_name_kana": null
  },
  "0991": {
    "postcode": "6700991",
    "prefecture": "兵庫県",
    "prefecture_kana": "ヒョウゴケン",
    "prefecture_code": 28,
    "city": "姫路市",
    "city_kana": "ヒメジシ",
    "town": "神田町",
    "town_kana": "カンダチョウ",
    "street": null,
    "office_name": null,
    "office_name_kana": null
  },
  "0992": {
    "postcode": "6700992",
    "prefecture": "兵庫県",
    "prefecture_kana": "ヒョウゴケン",
    "prefecture_code": 28,
    "city": "姫路市",
    "city_kana": "ヒメジシ",
    "town": "福沢町",
    "town_kana": "フクザワチョウ",
    "street": null,
    "office_name": null,
    "office_name_kana": null
  },
  "0993": {
    "postcode": "6700993",
    "prefecture": "兵庫県",
    "prefecture_kana": "ヒョウゴケン",
    "prefecture_code": 28,
    "city": "姫路市",
    "city_kana": "ヒメジシ",
    "town": "千代田町",
    "town_kana": "チヨダマチ",
    "street": null,
    "office_name": null,
    "office_name_kana": null
  },
  "0994": {
    "postcode": "6700994",
    "prefecture": "兵庫県",
    "prefecture_kana": "ヒョウゴケン",
    "prefecture_code": 28,
    "city": "姫路市",
    "city_kana": "ヒメジシ",
    "town": "定元町",
    "town_kana": "サダモトマチ",
    "street": null,
    "office_name": null,
    "office_name_kana": null
  },
  "0995": {
    "postcode": "6700995",
    "prefecture": "兵庫県",
    "prefecture_kana": "ヒョウゴケン",
    "prefecture_code": 28,
    "city": "姫路市",
    "city_kana": "ヒメジシ",
    "town": "土山東の町",
    "town_kana": "ツチヤマヒガシノチョウ",
    "street": null,
    "office_name": null,
    "office_name_kana": null
  },
  "0996": {
    "postcode": "6700996",
    "prefecture": "兵庫県",
    "prefecture_kana": "ヒョウゴケン",
    "prefecture_code": 28,
    "city": "姫路市",
    "city_kana": "ヒメジシ",
    "town": "土山",
    "town_kana": "ツチヤマ",
    "street": null,
    "office_name": null,
    "office_name_kana": null
  },
  "8501": {
    "postcode": "6708501",
    "prefecture": "兵庫県",
    "prefecture_kana": "ヒョウゴケン",
    "prefecture_code": 28,
    "city": "姫路市",
    "city_kana": "ヒメジシ",
    "town": "安田",
    "town_kana": "ヤスダ",
    "street": "４丁目１",
    "office_name": "姫路市役所",
    "office_name_kana": "ヒメジシヤクシヨ"
  },
  "8502": {
    "postcode": "6708502",
    "prefecture": "兵庫県",
    "prefecture_kana": "ヒョウゴケン",
    "prefecture_code": 28,
    "city": "姫路市",
    "city_kana": "ヒメジシ",
    "town": "南車崎",
    "town_kana": "ミナミクルマザキ",
    "street": "２丁目１−２",
    "office_name": "関西電力送配電　株式会社　姫路配電営業所",
    "office_name_kana": "カンサイデンリヨクソウハイデン カブシキカイシヤ ヒメジハイデンエイギヨウシヨ"
  },
  "8503": {
    "postcode": "6708503",
    "prefecture": "兵庫県",
    "prefecture_kana": "ヒョウゴケン",
    "prefecture_code": 28,
    "city": "姫路市",
    "city_kana": "ヒメジシ",
    "town": "安田",
    "town_kana": "ヤスダ",
    "street": "一丁目５８番地４",
    "office_name": "株式会社　播磨リビング新聞社",
    "office_name_kana": "カブシキガイシヤ ハリマリビングシンブンシヤ"
  },
  "8505": {
    "postcode": "6708505",
    "prefecture": "兵庫県",
    "prefecture_kana": "ヒョウゴケン",
    "prefecture_code": 28,
    "city": "姫路市",
    "city_kana": "ヒメジシ",
    "town": "下寺町",
    "town_kana": "シモデラマチ",
    "street": "４３",
    "office_name": "姫路商工会議所",
    "office_name_kana": "ヒメジシヨウコウカイギシヨ"
  },
  "8506": {
    "postcode": "6708506",
    "prefecture": "兵庫県",
    "prefecture_kana": "ヒョウゴケン",
    "prefecture_code": 28,
    "city": "姫路市",
    "city_kana": "ヒメジシ",
    "town": "市之郷",
    "town_kana": "イチノゴウ",
    "street": "１２５３番１",
    "office_name": "むつみ　株式会社",
    "office_name_kana": "ムツミ カブシキガイシヤ"
  },
  "8510": {
    "postcode": "6708510",
    "prefecture": "兵庫県",
    "prefecture_kana": "ヒョウゴケン",
    "prefecture_code": 28,
    "city": "姫路市",
    "city_kana": "ヒメジシ",
    "town": "北条口",
    "town_kana": "ホウジョウグチ",
    "street": "２丁目７住友生命姫路ビル",
    "office_name": "株式会社　タビックスジャパン　姫路営業支店",
    "office_name_kana": "カブシキガイシヤ タビツクスジヤパン ヒメジエイギヨウシテン"
  },
  "8511": {
    "postcode": "6708511",
    "prefecture": "兵庫県",
    "prefecture_kana": "ヒョウゴケン",
    "prefecture_code": 28,
    "city": "姫路市",
    "city_kana": "ヒメジシ",
    "town": "北条口",
    "town_kana": "ホウジョウグチ",
    "street": "４丁目４",
    "office_name": "ジャスコ　株式会社　西部カンパニー",
    "office_name_kana": "ジヤスコ カブシキガイシヤ セイブカンパニ-"
  },
  "8517": {
    "postcode": "6708517",
    "prefecture": "兵庫県",
    "prefecture_kana": "ヒョウゴケン",
    "prefecture_code": 28,
    "city": "姫路市",
    "city_kana": "ヒメジシ",
    "town": "安田",
    "town_kana": "ヤスダ",
    "street": "２丁目７",
    "office_name": "千代田火災海上保険　株式会社",
    "office_name_kana": "チヨダカサイカイジヨウホケン カブシキガイシヤ"
  },
  "8520": {
    "postcode": "6708520",
    "prefecture": "兵庫県",
    "prefecture_kana": "ヒョウゴケン",
    "prefecture_code": 28,
    "city": "姫路市",
    "city_kana": "ヒメジシ",
    "town": "本町",
    "town_kana": "ホンマチ",
    "street": "６８",
    "office_name": "国立姫路病院",
    "office_name_kana": "コクリツヒメジビヨウイン"
  },
  "8524": {
    "postcode": "6708524",
    "prefecture": "兵庫県",
    "prefecture_kana": "ヒョウゴケン",
    "prefecture_code": 28,
    "city": "姫路市",
    "city_kana": "ヒメジシ",
    "town": "上大野",
    "town_kana": "カミオオノ",
    "street": "７丁目２−１",
    "office_name": "姫路獨協大学",
    "office_name_kana": "ヒメジドツキヨウダイガク"
  },
  "8530": {
    "postcode": "6708530",
    "prefecture": "兵庫県",
    "prefecture_kana": "ヒョウゴケン",
    "prefecture_code": 28,
    "city": "姫路市",
    "city_kana": "ヒメジシ",
    "town": "坂田町",
    "town_kana": "サカタマチ",
    "street": "３",
    "office_name": "姫路市中央保健所",
    "office_name_kana": "ヒメジシチユウオウホケンシヨ"
  },
  "8533": {
    "postcode": "6708533",
    "prefecture": "兵庫県",
    "prefecture_kana": "ヒョウゴケン",
    "prefecture_code": 28,
    "city": "姫路市",
    "city_kana": "ヒメジシ",
    "town": "呉服町",
    "town_kana": "ゴフクマチ",
    "street": "１５",
    "office_name": "セルディア／株式会社　三商",
    "office_name_kana": "セルデイア/カブシキガイシヤ サンシヨウ"
  },
  "8543": {
    "postcode": "6708543",
    "prefecture": "兵庫県",
    "prefecture_kana": "ヒョウゴケン",
    "prefecture_code": 28,
    "city": "姫路市",
    "city_kana": "ヒメジシ",
    "town": "北条",
    "town_kana": "ホウジョウ",
    "street": "中道２５０",
    "office_name": "姫路税務署",
    "office_name_kana": "ヒメジゼイムシヨ"
  },
  "8544": {
    "postcode": "6708544",
    "prefecture": "兵庫県",
    "prefecture_kana": "ヒョウゴケン",
    "prefecture_code": 28,
    "city": "姫路市",
    "city_kana": "ヒメジシ",
    "town": "神屋町",
    "town_kana": "カミヤチョウ",
    "street": "１４３番地２姫路市文化コンベンションセンター内",
    "office_name": "公益財団法人　姫路市文化国際交流財団",
    "office_name_kana": "コウエキザイダンホウジン ヒメジシブンカコクサイコウリユウザイダン"
  },
  "8550": {
    "postcode": "6708550",
    "prefecture": "兵庫県",
    "prefecture_kana": "ヒョウゴケン",
    "prefecture_code": 28,
    "city": "姫路市",
    "city_kana": "ヒメジシ",
    "town": "古二階町",
    "town_kana": "コニカイマチ",
    "street": "１３０",
    "office_name": "株式会社　富強",
    "office_name_kana": "カブシキガイシヤ フウキヨ-"
  },
  "8554": {
    "postcode": "6708554",
    "prefecture": "兵庫県",
    "prefecture_kana": "ヒョウゴケン",
    "prefecture_code": 28,
    "city": "姫路市",
    "city_kana": "ヒメジシ",
    "town": "綿町",
    "town_kana": "ワタマチ",
    "street": "１５１第２不動ビル４Ｆ",
    "office_name": "株式会社　帝国データバンク　姫路支店",
    "office_name_kana": "カブシキガイシヤ テイコクデ-タバンク ヒメジシテン"
  },
  "8555": {
    "postcode": "6708555",
    "prefecture": "兵庫県",
    "prefecture_kana": "ヒョウゴケン",
    "prefecture_code": 28,
    "city": "姫路市",
    "city_kana": "ヒメジシ",
    "town": "二階町",
    "town_kana": "ニカイマチ",
    "street": "５５",
    "office_name": "株式会社　ヤマトヤシキ",
    "office_name_kana": "カブシキガイシヤ ヤマトヤシキ"
  },
  "8558": {
    "postcode": "6708558",
    "prefecture": "兵庫県",
    "prefecture_kana": "ヒョウゴケン",
    "prefecture_code": 28,
    "city": "姫路市",
    "city_kana": "ヒメジシ",
    "town": "駅前町",
    "town_kana": "エキマエチョウ",
    "street": "３０９",
    "office_name": "株式会社　ラボ",
    "office_name_kana": "カブシキガイシヤ ラボ"
  },
  "8560": {
    "postcode": "6708560",
    "prefecture": "兵庫県",
    "prefecture_kana": "ヒョウゴケン",
    "prefecture_code": 28,
    "city": "姫路市",
    "city_kana": "ヒメジシ",
    "town": "神屋町",
    "town_kana": "カミヤチョウ",
    "street": "３丁目２６４番地",
    "office_name": "兵庫県立　はりま姫路総合医療センター",
    "office_name_kana": "ヒヨウゴケンリツ ハリマヒメジソウゴウイリヨウセンタ-"
  },
  "8566": {
    "postcode": "6708566",
    "prefecture": "兵庫県",
    "prefecture_kana": "ヒョウゴケン",
    "prefecture_code": 28,
    "city": "姫路市",
    "city_kana": "ヒメジシ",
    "town": "本町",
    "town_kana": "ホンマチ",
    "street": "６８番地２９０イーグレひめじ地下２階",
    "office_name": "株式会社　姫路シティエフエム２１",
    "office_name_kana": "カブシキガイシヤ ヒメジシテイエフエム21"
  },
  "8567": {
    "postcode": "6708567",
    "prefecture": "兵庫県",
    "prefecture_kana": "ヒョウゴケン",
    "prefecture_code": 28,
    "city": "姫路市",
    "city_kana": "ヒメジシ",
    "town": "下手野",
    "town_kana": "シモテノ",
    "street": "１丁目３−１",
    "office_name": "グローリー　株式会社",
    "office_name_kana": "グロ-リ- カブシキガイシヤ"
  },
  "8570": {
    "postcode": "6708570",
    "prefecture": "兵庫県",
    "prefecture_kana": "ヒョウゴケン",
    "prefecture_code": 28,
    "city": "姫路市",
    "city_kana": "ヒメジシ",
    "town": "延末",
    "town_kana": "ノブスエ",
    "street": "２９５",
    "office_name": "丸魚水産　株式会社",
    "office_name_kana": "マルウオスイサン カブシキガイシヤ"
  },
  "8575": {
    "postcode": "6708575",
    "prefecture": "兵庫県",
    "prefecture_kana": "ヒョウゴケン",
    "prefecture_code": 28,
    "city": "姫路市",
    "city_kana": "ヒメジシ",
    "town": "南町",
    "town_kana": "ミナミマチ",
    "street": "１番地",
    "office_name": "株式会社　山陽百貨店",
    "office_name_kana": "カブシキガイシヤ サンヨウヒヤツカテン"
  },
  "8577": {
    "postcode": "6708577",
    "prefecture": "兵庫県",
    "prefecture_kana": "ヒョウゴケン",
    "prefecture_code": 28,
    "city": "姫路市",
    "city_kana": "ヒメジシ",
    "town": "十二所前町",
    "town_kana": "ジュウニショマエチョウ",
    "street": "１１７",
    "office_name": "関西電力　株式会社　姫路支店",
    "office_name_kana": "カンサイデンリヨク カブシキガイシヤ ヒメジシテン"
  },
  "8580": {
    "postcode": "6708580",
    "prefecture": "兵庫県",
    "prefecture_kana": "ヒョウゴケン",
    "prefecture_code": 28,
    "city": "姫路市",
    "city_kana": "ヒメジシ",
    "town": "峰南町",
    "town_kana": "ホウナンチョウ",
    "street": "１−７０",
    "office_name": "陸上自衛隊　姫路駐屯地",
    "office_name_kana": "リクジヨウジエイタイ ヒメジチユウトンチ"
  },
  "8585": {
    "postcode": "6708585",
    "prefecture": "兵庫県",
    "prefecture_kana": "ヒョウゴケン",
    "prefecture_code": 28,
    "city": "姫路市",
    "city_kana": "ヒメジシ",
    "town": "東駅前町",
    "town_kana": "ヒガシエキマエチョウ",
    "street": "１００",
    "office_name": "ジャスコ　株式会社　姫路フォーラス",
    "office_name_kana": "ジヤスコ カブシキガイシヤ ヒメジフオ-ラス"
  },
  "8588": {
    "postcode": "6708588",
    "prefecture": "兵庫県",
    "prefecture_kana": "ヒョウゴケン",
    "prefecture_code": 28,
    "city": "姫路市",
    "city_kana": "ヒメジシ",
    "town": "綿町",
    "town_kana": "ワタマチ",
    "street": "６７",
    "office_name": "株式会社　板文",
    "office_name_kana": "カブシキガイシヤ イタブン"
  },
  "8652": {
    "postcode": "6708652",
    "prefecture": "兵庫県",
    "prefecture_kana": "ヒョウゴケン",
    "prefecture_code": 28,
    "city": "姫路市",
    "city_kana": "ヒメジシ",
    "town": "十二所前町",
    "town_kana": "ジュウニショマエチョウ",
    "street": "１０５（姫路郵便局私書箱第４２号）",
    "office_name": "姫路信用金庫",
    "office_name_kana": "ヒメジシンヨウキンコ"
  },
  "8655": {
    "postcode": "6708655",
    "prefecture": "兵庫県",
    "prefecture_kana": "ヒョウゴケン",
    "prefecture_code": 28,
    "city": "姫路市",
    "city_kana": "ヒメジシ",
    "town": "北条口",
    "town_kana": "ホウジョウグチ",
    "street": "３丁目２７（姫路郵便局私書箱第２２号）",
    "office_name": "兵庫信用金庫",
    "office_name_kana": "ヒヨウゴシンヨウキンコ"
  },
  "8660": {
    "postcode": "6708660",
    "prefecture": "兵庫県",
    "prefecture_kana": "ヒョウゴケン",
    "prefecture_code": 28,
    "city": "姫路市",
    "city_kana": "ヒメジシ",
    "town": "呉服町",
    "town_kana": "ゴフクマチ",
    "street": "５４（姫路郵便局私書箱第２号）",
    "office_name": "株式会社さくら銀行　姫路支店",
    "office_name_kana": "カブシキガイシヤ サクラギンコウ ヒメジシテン"
  },
  "8666": {
    "postcode": "6708666",
    "prefecture": "兵庫県",
    "prefecture_kana": "ヒョウゴケン",
    "prefecture_code": 28,
    "city": "姫路市",
    "city_kana": "ヒメジシ",
    "town": "北条宮の町",
    "town_kana": "ホウジョウミヤノマチ",
    "street": "１７２（姫路郵便局私書箱第６４号）",
    "office_name": "株式会社　サラト",
    "office_name_kana": "カブシキガイシヤ サラト"
  },
  "8668": {
    "postcode": "6708668",
    "prefecture": "兵庫県",
    "prefecture_kana": "ヒョウゴケン",
    "prefecture_code": 28,
    "city": "姫路市",
    "city_kana": "ヒメジシ",
    "town": "北条口",
    "town_kana": "ホウジョウグチ",
    "street": "３丁目２２（姫路郵便局私書箱第３８号）",
    "office_name": "株式会社　神崎組",
    "office_name_kana": "カブシキガイシヤ カンザキグミ"
  },
  "8675": {
    "postcode": "6708675",
    "prefecture": "兵庫県",
    "prefecture_kana": "ヒョウゴケン",
    "prefecture_code": 28,
    "city": "姫路市",
    "city_kana": "ヒメジシ",
    "town": "南駅前町",
    "town_kana": "ミナミエキマエチョウ",
    "street": "１００（姫路郵便局私書箱第５７号）",
    "office_name": "日本生命保険　相互会社　姫路支社",
    "office_name_kana": "ニホンセイメイホケン ソウゴガイシヤ ヒメジシシヤ"
  },
  "8677": {
    "postcode": "6708677",
    "prefecture": "兵庫県",
    "prefecture_kana": "ヒョウゴケン",
    "prefecture_code": 28,
    "city": "姫路市",
    "city_kana": "ヒメジシ",
    "town": "千代田町",
    "town_kana": "チヨダマチ",
    "street": "８４０番地",
    "office_name": "三菱電機　株式会社　姫路製作所",
    "office_name_kana": "ミツビシデンキ カブシキガイシヤ ヒメジセイサクシヨ"
  },
  "8680": {
    "postcode": "6708680",
    "prefecture": "兵庫県",
    "prefecture_kana": "ヒョウゴケン",
    "prefecture_code": 28,
    "city": "姫路市",
    "city_kana": "ヒメジシ",
    "town": "南駅前町",
    "town_kana": "ミナミエキマエチョウ",
    "street": "１１０（姫路郵便局私書箱第６８号）",
    "office_name": "播州信用金庫",
    "office_name_kana": "バンシユウシンヨウキンコ"
  },
  "8682": {
    "postcode": "6708682",
    "prefecture": "兵庫県",
    "prefecture_kana": "ヒョウゴケン",
    "prefecture_code": 28,
    "city": "姫路市",
    "city_kana": "ヒメジシ",
    "town": "総社本町",
    "town_kana": "ソウシャホンマチ",
    "street": "１１１（姫路郵便局私書箱第４９号）",
    "office_name": "商工組合中央金庫　姫路支店",
    "office_name_kana": "シヨウコウクミアイチユウオウキンコ ヒメジシテン"
  },
  "8689": {
    "postcode": "6708689",
    "prefecture": "兵庫県",
    "prefecture_kana": "ヒョウゴケン",
    "prefecture_code": 28,
    "city": "姫路市",
    "city_kana": "ヒメジシ",
    "town": "城東町",
    "town_kana": "ジョウトウマチ",
    "street": "１８０（姫路郵便局私書箱第５号）",
    "office_name": "日本フエルト工業　株式会社",
    "office_name_kana": "ニホンフエルトコウギヨウ カブシキガイシヤ"
  }
}