{
  "0101": {
    "postcode": "6710101",
    "prefecture": "兵庫県",
    "prefecture_kana": "ヒョウゴケン",
    "prefecture_code": 28,
    "city": "姫路市",
    "city_kana": "ヒメジシ",
    "town": "大塩町",
    "town_kana": "オオシオチョウ",
    "street": null,
    "office_name": null,
    "office_name_kana": null
  },
  "0102": {
    "postcode": "6710102",
    "prefecture": "兵庫県",
    "prefecture_kana": "ヒョウゴケン",
    "prefecture_code": 28,
    "city": "姫路市",
    "city_kana": "ヒメジシ",
    "town": "大塩町汐咲",
    "town_kana": "オオシオチョウシオサキ",
    "street": null,
    "office_name": null,
    "office_name_kana": null
  },
  "0103": {
    "postcode": "6710103",
    "prefecture": "兵庫県",
    "prefecture_kana": "ヒョウゴケン",
    "prefecture_code": 28,
    "city": "姫路市",
    "city_kana": "ヒメジシ",
    "town": "大塩町宮前",
    "town_kana": "オオシオチョウミヤマエ",
    "street": null,
    "office_name": null,
    "office_name_kana": null
  },
  "0111": {
    "postcode": "6710111",
    "prefecture": "兵庫県",
    "prefecture_kana": "ヒョウゴケン",
    "prefecture_code": 28,
    "city": "姫路市",
    "city_kana": "ヒメジシ",
    "town": "的形町的形",
    "town_kana": "マトガタチョウマトガタ",
    "street": null,
    "office_name": null,
    "office_name_kana": null
  },
  "0112": {
    "postcode": "6710112",
    "prefecture": "兵庫県",
    "prefecture_kana": "ヒョウゴケン",
    "prefecture_code": 28,
    "city": "姫路市",
    "city_kana": "ヒメジシ",
    "town": "的形町福泊",
    "town_kana": "マトガタチョウフクドマリ",
    "street": null,
    "office_name": null,
    "office_name_kana": null
  },
  "0121": {
    "postcode": "6710121",
    "prefecture": "兵庫県",
    "prefecture_kana": "ヒョウゴケン",
    "prefecture_code": 28,
    "city": "高砂市",
    "city_kana": "タカサゴシ",
    "town": "北浜町牛谷",
    "town_kana": "キタハマチョウウシタニ",
    "street": null,
    "office_name": null,
    "office_name_kana": null
  },
  "0122": {
    "postcode": "6710122",
    "prefecture": "兵庫県",
    "prefecture_kana": "ヒョウゴケン",
    "prefecture_code": 28,
    "city": "高砂市",
    "city_kana": "タカサゴシ",
    "town": "北浜町北脇",
    "town_kana": "キタハマチョウキタワキ",
    "street": null,
    "office_name": null,
    "office_name_kana": null
  },
  "0123": {
    "postcode": "6710123",
    "prefecture": "兵庫県",
    "prefecture_kana": "ヒョウゴケン",
    "prefecture_code": 28,
    "city": "高砂市",
    "city_kana": "タカサゴシ",
    "town": "北浜町西浜",
    "town_kana": "キタハマチョウニシハマ",
    "street": null,
    "office_name": null,
    "office_name_kana": null
  },
  "0201": {
    "postcode": "6710201",
    "prefecture": "兵庫県",
    "prefecture_kana": "ヒョウゴケン",
    "prefecture_code": 28,
    "city": "姫路市",
    "city_kana": "ヒメジシ",
    "town": "飾東町小原新",
    "town_kana": "シキトウチョウオハラシン",
    "street": null,
    "office_name": null,
    "office_name_kana": null
  },
  "0202": {
    "postcode": "6710202",
    "prefecture": "兵庫県",
    "prefecture_kana": "ヒョウゴケン",
    "prefecture_code": 28,
    "city": "姫路市",
    "city_kana": "ヒメジシ",
    "town": "飾東町北野",
    "town_kana": "シキトウチョウキタノ",
    "street": null,
    "office_name": null,
    "office_name_kana": null
  },
  "0203": {
    "postcode": "6710203",
    "prefecture": "兵庫県",
    "prefecture_kana": "ヒョウゴケン",
    "prefecture_code": 28,
    "city": "姫路市",
    "city_kana": "ヒメジシ",
    "town": "飾東町大釜",
    "town_kana": "シキトウチョウオオガマ",
    "street": null,
    "office_name": null,
    "office_name_kana": null
  },
  "0204": {
    "postcode": "6710204",
    "prefecture": "兵庫県",
    "prefecture_kana": "ヒョウゴケン",
    "prefecture_code": 28,
    "city": "姫路市",
    "city_kana": "ヒメジシ",
    "town": "飾東町大釜新",
    "town_kana": "シキトウチョウオオガマシン",
    "street": null,
    "office_name": null,
    "office_name_kana": null
  },
  "0205": {
    "postcode": "6710205",
    "prefecture": "兵庫県",
    "prefecture_kana": "ヒョウゴケン",
    "prefecture_code": 28,
    "city": "姫路市",
    "city_kana": "ヒメジシ",
    "town": "飾東町清住",
    "town_kana": "シキトウチョウキヨスミ",
    "street": null,
    "office_name": null,
    "office_name_kana": null
  },
  "0207": {
    "postcode": "6710207",
    "prefecture": "兵庫県",
    "prefecture_kana": "ヒョウゴケン",
    "prefecture_code": 28,
    "city": "姫路市",
    "city_kana": "ヒメジシ",
    "town": "飾東町山崎",
    "town_kana": "シキトウチョウヤマサキ",
    "street": null,
    "office_name": null,
    "office_name_kana": null
  },
  "0208": {
    "postcode": "6710208",
    "prefecture": "兵庫県",
    "prefecture_kana": "ヒョウゴケン",
    "prefecture_code": 28,
    "city": "姫路市",
    "city_kana": "ヒメジシ",
    "town": "飾東町八重畑",
    "town_kana": "シキトウチョウヤエバタ",
    "street": null,
    "office_name": null,
    "office_name_kana": null
  },
  "0209": {
    "postcode": "6710209",
    "prefecture": "兵庫県",
    "prefecture_kana": "ヒョウゴケン",
    "prefecture_code": 28,
    "city": "姫路市",
    "city_kana": "ヒメジシ",
    "town": "飾東町小原",
    "town_kana": "シキトウチョウオハラ",
    "street": null,
    "office_name": null,
    "office_name_kana": null
  },
  "0211": {
    "postcode": "6710211",
    "prefecture": "兵庫県",
    "prefecture_kana": "ヒョウゴケン",
    "prefecture_code": 28,
    "city": "姫路市",
    "city_kana": "ヒメジシ",
    "town": "飾東町塩崎",
    "town_kana": "シキトウチョウシオザキ",
    "street": null,
    "office_name": null,
    "office_name_kana": null
  },
  "0212": {
    "postcode": "6710212",
    "prefecture": "兵庫県",
    "prefecture_kana": "ヒョウゴケン",
    "prefecture_code": 28,
    "city": "姫路市",
    "city_kana": "ヒメジシ",
    "town": "飾東町北山",
    "town_kana": "シキトウチョウキタヤマ",
    "street": null,
    "office_name": null,
    "office_name_kana": null
  },
  "0214": {
    "postcode": "6710214",
    "prefecture": "兵庫県",
    "prefecture_kana": "ヒョウゴケン",
    "prefecture_code": 28,
    "city": "姫路市",
    "city_kana": "ヒメジシ",
    "town": "飾東町唐端新",
    "town_kana": "シキトウチョウカラハタシン",
    "street": null,
    "office_name": null,
    "office_name_kana": null
  },
  "0215": {
    "postcode": "6710215",
    "prefecture": "兵庫県",
    "prefecture_kana": "ヒョウゴケン",
    "prefecture_code": 28,
    "city": "姫路市",
    "city_kana": "ヒメジシ",
    "town": "飾東町夕陽ケ丘",
    "town_kana": "シキトウチョウユウヒガオカ",
    "street": null,
    "office_name": null,
    "office_name_kana": null
  },
  "0216": {
    "postcode": "6710216",
    "prefecture": "兵庫県",
    "prefecture_kana": "ヒョウゴケン",
    "prefecture_code": 28,
    "city": "姫路市",
    "city_kana": "ヒメジシ",
    "town": "飾東町志吹",
    "town_kana": "シキトウチョウシブキ",
    "street": null,
    "office_name": null,
    "office_name_kana": null
  },
  "0217": {
    "postcode": "6710217",
    "prefecture": "兵庫県",
    "prefecture_kana": "ヒョウゴケン",
    "prefecture_code": 28,
    "city": "姫路市",
    "city_kana": "ヒメジシ",
    "town": "飾東町佐良和",
    "town_kana": "シキトウチョウサロオ",
    "street": null,
    "office_name": null,
    "office_name_kana": null
  },
  "0218": {
    "postcode": "6710218",
    "prefecture": "兵庫県",
    "prefecture_kana": "ヒョウゴケン",
    "prefecture_code": 28,
    "city": "姫路市",
    "city_kana": "ヒメジシ",
    "town": "飾東町庄",
    "town_kana": "シキトウチョウショウ",
    "street": null,
    "office_name": null,
    "office_name_kana": null
  },
  "0219": {
    "postcode": "6710219",
    "prefecture": "兵庫県",
    "prefecture_kana": "ヒョウゴケン",
    "prefecture_code": 28,
    "city": "姫路市",
    "city_kana": "ヒメジシ",
    "town": "飾東町豊国",
    "town_kana": "シキトウチョウトヨクニ",
    "street": null,
    "office_name": null,
    "office_name_kana": null
  },
  "0221": {
    "postcode": "6710221",
    "prefecture": "兵庫県",
    "prefecture_kana": "ヒョウゴケン",
    "prefecture_code": 28,
    "city": "姫路市",
    "city_kana": "ヒメジシ",
    "town": "別所町別所",
    "town_kana": "ベッショチョウベッショ",
    "street": null,
    "office_name": null,
    "office_name_kana": null
  },
  "0222": {
    "postcode": "6710222",
    "prefecture": "兵庫県",
    "prefecture_kana": "ヒョウゴケン",
    "prefecture_code": 28,
    "city": "姫路市",
    "city_kana": "ヒメジシ",
    "town": "別所町小林",
    "town_kana": "ベッショチョウコバヤシ",
    "street": null,
    "office_name": null,
    "office_name_kana": null
  },
  "0223": {
    "postcode": "6710223",
    "prefecture": "兵庫県",
    "prefecture_kana": "ヒョウゴケン",
    "prefecture_code": 28,
    "city": "姫路市",
    "city_kana": "ヒメジシ",
    "town": "別所町北宿",
    "town_kana": "ベッショチョウキタジュク",
    "street": null,
    "office_name": null,
    "office_name_kana": null
  },
  "0224": {
    "postcode": "6710224",
    "prefecture": "兵庫県",
    "prefecture_kana": "ヒョウゴケン",
    "prefecture_code": 28,
    "city": "姫路市",
    "city_kana": "ヒメジシ",
    "town": "別所町佐土",
    "town_kana": "ベッショチョウサヅチ",
    "street": null,
    "office_name": null,
    "office_name_kana": null
  },
  "0225": {
    "postcode": "6710225",
    "prefecture": "兵庫県",
    "prefecture_kana": "ヒョウゴケン",
    "prefecture_code": 28,
    "city": "姫路市",
    "city_kana": "ヒメジシ",
    "town": "別所町家具町",
    "town_kana": "ベッショチョウカグマチ",
    "street": null,
    "office_name": null,
    "office_name_kana": null
  },
  "0226": {
    "postcode": "6710226",
    "prefecture": "兵庫県",
    "prefecture_kana": "ヒョウゴケン",
    "prefecture_code": 28,
    "city": "姫路市",
    "city_kana": "ヒメジシ",
    "town": "別所町佐土新",
    "town_kana": "ベッショチョウサヅチシン",
    "street": null,
    "office_name": null,
    "office_name_kana": null
  },
  "0231": {
    "postcode": "6710231",
    "prefecture": "兵庫県",
    "prefecture_kana": "ヒョウゴケン",
    "prefecture_code": 28,
    "city": "姫路市",
    "city_kana": "ヒメジシ",
    "town": "御国野町深志野",
    "town_kana": "ミクニノチョウフカシノ",
    "street": null,
    "office_name": null,
    "office_name_kana": null
  },
  "0232": {
    "postcode": "6710232",
    "prefecture": "兵庫県",
    "prefecture_kana": "ヒョウゴケン",
    "prefecture_code": 28,
    "city": "姫路市",
    "city_kana": "ヒメジシ",
    "town": "御国野町御着",
    "town_kana": "ミクニノチョウゴチャク",
    "street": null,
    "office_name": null,
    "office_name_kana": null
  },
  "0233": {
    "postcode": "6710233",
    "prefecture": "兵庫県",
    "prefecture_kana": "ヒョウゴケン",
    "prefecture_code": 28,
    "city": "姫路市",
    "city_kana": "ヒメジシ",
    "town": "御国野町西御着",
    "town_kana": "ミクニノチョウニシゴチャク",
    "street": null,
    "office_name": null,
    "office_name_kana": null
  },
  "0234": {
    "postcode": "6710234",
    "prefecture": "兵庫県",
    "prefecture_kana": "ヒョウゴケン",
    "prefecture_code": 28,
    "city": "姫路市",
    "city_kana": "ヒメジシ",
    "town": "御国野町国分寺",
    "town_kana": "ミクニノチョウコクブンジ",
    "street": null,
    "office_name": null,
    "office_name_kana": null
  },
  "0241": {
    "postcode": "6710241",
    "prefecture": "兵庫県",
    "prefecture_kana": "ヒョウゴケン",
    "prefecture_code": 28,
    "city": "姫路市",
    "city_kana": "ヒメジシ",
    "town": "四郷町上鈴",
    "town_kana": "シゴウチョウカミスズ",
    "street": null,
    "office_name": null,
    "office_name_kana": null
  },
  "0242": {
    "postcode": "6710242",
    "prefecture": "兵庫県",
    "prefecture_kana": "ヒョウゴケン",
    "prefecture_code": 28,
    "city": "姫路市",
    "city_kana": "ヒメジシ",
    "town": "四郷町中鈴",
    "town_kana": "シゴウチョウナカスズ",
    "street": null,
    "office_name": null,
    "office_name_kana": null
  },
  "0243": {
    "postcode": "6710243",
    "prefecture": "兵庫県",
    "prefecture_kana": "ヒョウゴケン",
    "prefecture_code": 28,
    "city": "姫路市",
    "city_kana": "ヒメジシ",
    "town": "四郷町本郷",
    "town_kana": "シゴウチョウホンゴウ",
    "street": null,
    "office_name": null,
    "office_name_kana": null
  },
  "0244": {
    "postcode": "6710244",
    "prefecture": "兵庫県",
    "prefecture_kana": "ヒョウゴケン",
    "prefecture_code": 28,
    "city": "姫路市",
    "city_kana": "ヒメジシ",
    "town": "四郷町見野",
    "town_kana": "シゴウチョウミノ",
    "street": null,
    "office_name": null,
    "office_name_kana": null
  },
  "0245": {
    "postcode": "6710245",
    "prefecture": "兵庫県",
    "prefecture_kana": "ヒョウゴケン",
    "prefecture_code": 28,
    "city": "姫路市",
    "city_kana": "ヒメジシ",
    "town": "四郷町明田",
    "town_kana": "シゴウチョウアケダ",
    "street": null,
    "office_name": null,
    "office_name_kana": null
  },
  "0246": {
    "postcode": "6710246",
    "prefecture": "兵庫県",
    "prefecture_kana": "ヒョウゴケン",
    "prefecture_code": 28,
    "city": "姫路市",
    "city_kana": "ヒメジシ",
    "town": "四郷町坂元",
    "town_kana": "シゴウチョウサカモト",
    "street": null,
    "office_name": null,
    "office_name_kana": null
  },
  "0247": {
    "postcode": "6710247",
    "prefecture": "兵庫県",
    "prefecture_kana": "ヒョウゴケン",
    "prefecture_code": 28,
    "city": "姫路市",
    "city_kana": "ヒメジシ",
    "town": "四郷町東阿保",
    "town_kana": "シゴウチョウヒガシアボ",
    "street": null,
    "office_name": null,
    "office_name_kana": null
  },
  "0248": {
    "postcode": "6710248",
    "prefecture": "兵庫県",
    "prefecture_kana": "ヒョウゴケン",
    "prefecture_code": 28,
    "city": "姫路市",
    "city_kana": "ヒメジシ",
    "town": "四郷町山脇",
    "town_kana": "シゴウチョウヤマワキ",
    "street": null,
    "office_name": null,
    "office_name_kana": null
  },
  "0251": {
    "postcode": "6710251",
    "prefecture": "兵庫県",
    "prefecture_kana": "ヒョウゴケン",
    "prefecture_code": 28,
    "city": "姫路市",
    "city_kana": "ヒメジシ",
    "town": "花田町上原田",
    "town_kana": "ハナダチョウカミハラダ",
    "street": null,
    "office_name": null,
    "office_name_kana": null
  },
  "0252": {
    "postcode": "6710252",
    "prefecture": "兵庫県",
    "prefecture_kana": "ヒョウゴケン",
    "prefecture_code": 28,
    "city": "姫路市",
    "city_kana": "ヒメジシ",
    "town": "花田町加納原田",
    "town_kana": "ハナダチョウカノウハラダ",
    "street": null,
    "office_name": null,
    "office_name_kana": null
  },
  "0253": {
    "postcode": "6710253",
    "prefecture": "兵庫県",
    "prefecture_kana": "ヒョウゴケン",
    "prefecture_code": 28,
    "city": "姫路市",
    "city_kana": "ヒメジシ",
    "town": "花田町一本松",
    "town_kana": "ハナダチョウイッポンマツ",
    "street": null,
    "office_name": null,
    "office_name_kana": null
  },
  "0254": {
    "postcode": "6710254",
    "prefecture": "兵庫県",
    "prefecture_kana": "ヒョウゴケン",
    "prefecture_code": 28,
    "city": "姫路市",
    "city_kana": "ヒメジシ",
    "town": "花田町勅旨",
    "town_kana": "ハナダチョウチョクシ",
    "street": null,
    "office_name": null,
    "office_name_kana": null
  },
  "0255": {
    "postcode": "6710255",
    "prefecture": "兵庫県",
    "prefecture_kana": "ヒョウゴケン",
    "prefecture_code": 28,
    "city": "姫路市",
    "city_kana": "ヒメジシ",
    "town": "花田町小川",
    "town_kana": "ハナダチョウオガワ",
    "street": null,
    "office_name": null,
    "office_name_kana": null
  },
  "0256": {
    "postcode": "6710256",
    "prefecture": "兵庫県",
    "prefecture_kana": "ヒョウゴケン",
    "prefecture_code": 28,
    "city": "姫路市",
    "city_kana": "ヒメジシ",
    "town": "花田町高木",
    "town_kana": "ハナダチョウタカギ",
    "street": null,
    "office_name": null,
    "office_name_kana": null
  },
  "0295": {
    "postcode": "6710295",
    "prefecture": "兵庫県",
    "prefecture_kana": "ヒョウゴケン",
    "prefecture_code": 28,
    "city": "姫路市",
    "city_kana": "ヒメジシ",
    "town": "花田町一本松",
    "town_kana": "ハナダチョウイッポンマツ",
    "street": "４０６番",
    "office_name": "株式会社　寳角ギヤー",
    "office_name_kana": "カ) ホウズミギヤ-"
  },
  "1101": {
    "postcode": "6711101",
    "prefecture": "兵庫県",
    "prefecture_kana": "ヒョウゴケン",
    "prefecture_code": 28,
    "city": "姫路市",
    "city_kana": "ヒメジシ",
    "town": "広畑区東夢前台",
    "town_kana": "ヒロハタクヒガシユメサキダイ",
    "street": null,
    "office_name": null,
    "office_name_kana": null
  },
  "1102": {
    "postcode": "6711102",
    "prefecture": "兵庫県",
    "prefecture_kana": "ヒョウゴケン",
    "prefecture_code": 28,
    "city": "姫路市",
    "city_kana": "ヒメジシ",
    "town": "広畑区蒲田",
    "town_kana": "ヒロハタクカマダ",
    "street": null,
    "office_name": null,
    "office_name_kana": null
  },
  "1103": {
    "postcode": "6711103",
    "prefecture": "兵庫県",
    "prefecture_kana": "ヒョウゴケン",
    "prefecture_code": 28,
    "city": "姫路市",
    "city_kana": "ヒメジシ",
    "town": "広畑区西夢前台",
    "town_kana": "ヒロハタクニシユメサキダイ",
    "street": null,
    "office_name": null,
    "office_name_kana": null
  },
  "1104": {
    "postcode": "6711104",
    "prefecture": "兵庫県",
    "prefecture_kana": "ヒョウゴケン",
    "prefecture_code": 28,
    "city": "姫路市",
    "city_kana": "ヒメジシ",
    "town": "広畑区才",
    "town_kana": "ヒロハタクサイ",
    "street": null,
    "office_name": null,
    "office_name_kana": null
  },
  "1105": {
    "postcode": "6711105",
    "prefecture": "兵庫県",
    "prefecture_kana": "ヒョウゴケン",
    "prefecture_code": 28,
    "city": "姫路市",
    "city_kana": "ヒメジシ",
    "town": "広畑区則直",
    "town_kana": "ヒロハタクノリナオ",
    "street": null,
    "office_name": null,
    "office_name_kana": null
  },
  "1106": {
    "postcode": "6711106",
    "prefecture": "兵庫県",
    "prefecture_kana": "ヒョウゴケン",
    "prefecture_code": 28,
    "city": "姫路市",
    "city_kana": "ヒメジシ",
    "town": "広畑区京見町",
    "town_kana": "ヒロハタクキョウミチョウ",
    "street": null,
    "office_name": null,
    "office_name_kana": null
  },
  "1107": {
    "postcode": "6711107",
    "prefecture": "兵庫県",
    "prefecture_kana": "ヒョウゴケン",
    "prefecture_code": 28,
    "city": "姫路市",
    "city_kana": "ヒメジシ",
    "town": "広畑区西蒲田",
    "town_kana": "ヒロハタクニシカマダ",
    "street": null,
    "office_name": null,
    "office_name_kana": null
  },
  "1108": {
    "postcode": "6711108",
    "prefecture": "兵庫県",
    "prefecture_kana": "ヒョウゴケン",
    "prefecture_code": 28,
    "city": "姫路市",
    "city_kana": "ヒメジシ",
    "town": "広畑区城山町",
    "town_kana": "ヒロハタクシロヤマチョウ",
    "street": null,
    "office_name": null,
    "office_name_kana": null
  },
  "1111": {
    "postcode": "6711111",
    "prefecture": "兵庫県",
    "prefecture_kana": "ヒョウゴケン",
    "prefecture_code": 28,
    "city": "姫路市",
    "city_kana": "ヒメジシ",
    "town": "広畑区北河原町",
    "town_kana": "ヒロハタクキタカワラチョウ",
    "street": null,
    "office_name": null,
    "office_name_kana": null
  },
  "1112": {
    "postcode": "6711112",
    "prefecture": "兵庫県",
    "prefecture_kana": "ヒョウゴケン",
    "prefecture_code": 28,
    "city": "姫路市",
    "city_kana": "ヒメジシ",
    "town": "広畑区北野町",
    "town_kana": "ヒロハタクキタノチョウ",
    "street": null,
    "office_name": null,
    "office_name_kana": null
  },
  "1113": {
    "postcode": "6711113",
    "prefecture": "兵庫県",
    "prefecture_kana": "ヒョウゴケン",
    "prefecture_code": 28,
    "city": "姫路市",
    "city_kana": "ヒメジシ",
    "town": "広畑区清水町",
    "town_kana": "ヒロハタクシミズチョウ",
    "street": null,
    "office_name": null,
    "office_name_kana": null
  },
  "1114": {
    "postcode": "6711114",
    "prefecture": "兵庫県",
    "prefecture_kana": "ヒョウゴケン",
    "prefecture_code": 28,
    "city": "姫路市",
    "city_kana": "ヒメジシ",
    "town": "広畑区本町",
    "town_kana": "ヒロハタクホンマチ",
    "street": null,
    "office_name": null,
    "office_name_kana": null
  },
  "1115": {
    "postcode": "6711115",
    "prefecture": "兵庫県",
    "prefecture_kana": "ヒョウゴケン",
    "prefecture_code": 28,
    "city": "姫路市",
    "city_kana": "ヒメジシ",
    "town": "広畑区末広町",
    "town_kana": "ヒロハタクスエヒロチョウ",
    "street": null,
    "office_name": null,
    "office_name_kana": null
  },
  "1116": {
    "postcode": "6711116",
    "prefecture": "兵庫県",
    "prefecture_kana": "ヒョウゴケン",
    "prefecture_code": 28,
    "city": "姫路市",
    "city_kana": "ヒメジシ",
    "town": "広畑区正門通",
    "town_kana": "ヒロハタクセイモンドオリ",
    "street": null,
    "office_name": null,
    "office_name_kana": null
  },
  "1121": {
    "postcode": "6711121",
    "prefecture": "兵庫県",
    "prefecture_kana": "ヒョウゴケン",
    "prefecture_code": 28,
    "city": "姫路市",
    "city_kana": "ヒメジシ",
    "town": "広畑区東新町",
    "town_kana": "ヒロハタクヒガシシンマチ",
    "street": null,
    "office_name": null,
    "office_name_kana": null
  },
  "1122": {
    "postcode": "6711122",
    "prefecture": "兵庫県",
    "prefecture_kana": "ヒョウゴケン",
    "prefecture_code": 28,
    "city": "姫路市",
    "city_kana": "ヒメジシ",
    "town": "広畑区夢前町",
    "town_kana": "ヒロハタクユメサキチョウ",
    "street": null,
    "office_name": null,
    "office_name_kana": null
  },
  "1123": {
    "postcode": "6711123",
    "prefecture": "兵庫県",
    "prefecture_kana": "ヒョウゴケン",
    "prefecture_code": 28,
    "city": "姫路市",
    "city_kana": "ヒメジシ",
    "town": "広畑区富士町",
    "town_kana": "ヒロハタクフジチョウ",
    "street": null,
    "office_name": null,
    "office_name_kana": null
  },
  "1124": {
    "postcode": "6711124",
    "prefecture": "兵庫県",
    "prefecture_kana": "ヒョウゴケン",
    "prefecture_code": 28,
    "city": "姫路市",
    "city_kana": "ヒメジシ",
    "town": "広畑区鶴町",
    "town_kana": "ヒロハタクツルマチ",
    "street": null,
    "office_name": null,
    "office_name_kana": null
  },
  "1125": {
    "postcode": "6711125",
    "prefecture": "兵庫県",
    "prefecture_kana": "ヒョウゴケン",
    "prefecture_code": 28,
    "city": "姫路市",
    "city_kana": "ヒメジシ",
    "town": "広畑区長町",
    "town_kana": "ヒロハタクナガマチ",
    "street": null,
    "office_name": null,
    "office_name_kana": null
  },
  "1131": {
    "postcode": "6711131",
    "prefecture": "兵庫県",
    "prefecture_kana": "ヒョウゴケン",
    "prefecture_code": 28,
    "city": "姫路市",
    "city_kana": "ヒメジシ",
    "town": "大津区天神町",
    "town_kana": "オオツクテンジンマチ",
    "street": null,
    "office_name": null,
    "office_name_kana": null
  },
  "1132": {
    "postcode": "6711132",
    "prefecture": "兵庫県",
    "prefecture_kana": "ヒョウゴケン",
    "prefecture_code": 28,
    "city": "姫路市",
    "city_kana": "ヒメジシ",
    "town": "大津区勘兵衛町",
    "town_kana": "オオツクカンベエチョウ",
    "street": null,
    "office_name": null,
    "office_name_kana": null
  },
  "1133": {
    "postcode": "6711133",
    "prefecture": "兵庫県",
    "prefecture_kana": "ヒョウゴケン",
    "prefecture_code": 28,
    "city": "姫路市",
    "city_kana": "ヒメジシ",
    "town": "大津区吉美",
    "town_kana": "オオツクキビ",
    "street": null,
    "office_name": null,
    "office_name_kana": null
  },
  "1134": {
    "postcode": "6711134",
    "prefecture": "兵庫県",
    "prefecture_kana": "ヒョウゴケン",
    "prefecture_code": 28,
    "city": "姫路市",
    "city_kana": "ヒメジシ",
    "town": "大津区真砂町",
    "town_kana": "オオツクマサゴチョウ",
    "street": null,
    "office_name": null,
    "office_name_kana": null
  },
  "1135": {
    "postcode": "6711135",
    "prefecture": "兵庫県",
    "prefecture_kana": "ヒョウゴケン",
    "prefecture_code": 28,
    "city": "姫路市",
    "city_kana": "ヒメジシ",
    "town": "大津区新町",
    "town_kana": "オオツクシンマチ",
    "street": null,
    "office_name": null,
    "office_name_kana": null
  },
  "1136": {
    "postcode": "6711136",
    "prefecture": "兵庫県",
    "prefecture_kana": "ヒョウゴケン",
    "prefecture_code": 28,
    "city": "姫路市",
    "city_kana": "ヒメジシ",
    "town": "大津区恵美酒町",
    "town_kana": "オオツクエビスマチ",
    "street": null,
    "office_name": null,
    "office_name_kana": null
  },
  "1141": {
    "postcode": "6711141",
    "prefecture": "兵庫県",
    "prefecture_kana": "ヒョウゴケン",
    "prefecture_code": 28,
    "city": "姫路市",
    "city_kana": "ヒメジシ",
    "town": "大津区西土井",
    "town_kana": "オオツクニシドイ",
    "street": null,
    "office_name": null,
    "office_name_kana": null
  },
  "1142": {
    "postcode": "6711142",
    "prefecture": "兵庫県",
    "prefecture_kana": "ヒョウゴケン",
    "prefecture_code": 28,
    "city": "姫路市",
    "city_kana": "ヒメジシ",
    "town": "大津区北天満町",
    "town_kana": "オオツクキタテンマンチョウ",
    "street": null,
    "office_name": null,
    "office_name_kana": null
  },
  "1143": {
    "postcode": "6711143",
    "prefecture": "兵庫県",
    "prefecture_kana": "ヒョウゴケン",
    "prefecture_code": 28,
    "city": "姫路市",
    "city_kana": "ヒメジシ",
    "town": "大津区天満",
    "town_kana": "オオツクテンマ",
    "street": null,
    "office_name": null,
    "office_name_kana": null
  },
  "1144": {
    "postcode": "6711144",
    "prefecture": "兵庫県",
    "prefecture_kana": "ヒョウゴケン",
    "prefecture_code": 28,
    "city": "姫路市",
    "city_kana": "ヒメジシ",
    "town": "大津区長松",
    "town_kana": "オオツクナガマツ",
    "street": null,
    "office_name": null,
    "office_name_kana": null
  },
  "1145": {
    "postcode": "6711145",
    "prefecture": "兵庫県",
    "prefecture_kana": "ヒョウゴケン",
    "prefecture_code": 28,
    "city": "姫路市",
    "city_kana": "ヒメジシ",
    "town": "大津区平松",
    "town_kana": "オオツクヒラマツ",
    "street": null,
    "office_name": null,
    "office_name_kana": null
  },
  "1146": {
    "postcode": "6711146",
    "prefecture": "兵庫県",
    "prefecture_kana": "ヒョウゴケン",
    "prefecture_code": 28,
    "city": "姫路市",
    "city_kana": "ヒメジシ",
    "town": "大津区大津町",
    "town_kana": "オオツクオオツチョウ",
    "street": null,
    "office_name": null,
    "office_name_kana": null
  },
  "1151": {
    "postcode": "6711151",
    "prefecture": "兵庫県",
    "prefecture_kana": "ヒョウゴケン",
    "prefecture_code": 28,
    "city": "姫路市",
    "city_kana": "ヒメジシ",
    "town": "広畑区早瀬町",
    "town_kana": "ヒロハタクハヤセチョウ",
    "street": null,
    "office_name": null,
    "office_name_kana": null
  },
  "1152": {
    "postcode": "6711152",
    "prefecture": "兵庫県",
    "prefecture_kana": "ヒョウゴケン",
    "prefecture_code": 28,
    "city": "姫路市",
    "city_kana": "ヒメジシ",
    "town": "広畑区小松町",
    "town_kana": "ヒロハタクコマツチョウ",
    "street": null,
    "office_name": null,
    "office_name_kana": null
  },
  "1153": {
    "postcode": "6711153",
    "prefecture": "兵庫県",
    "prefecture_kana": "ヒョウゴケン",
    "prefecture_code": 28,
    "city": "姫路市",
    "city_kana": "ヒメジシ",
    "town": "広畑区高浜町",
    "town_kana": "ヒロハタクタカハマチョウ",
    "street": null,
    "office_name": null,
    "office_name_kana": null
  },
  "1154": {
    "postcode": "6711154",
    "prefecture": "兵庫県",
    "prefecture_kana": "ヒョウゴケン",
    "prefecture_code": 28,
    "city": "姫路市",
    "city_kana": "ヒメジシ",
    "town": "広畑区吾妻町",
    "town_kana": "ヒロハタクアヅマチョウ",
    "street": null,
    "office_name": null,
    "office_name_kana": null
  },
  "1155": {
    "postcode": "6711155",
    "prefecture": "兵庫県",
    "prefecture_kana": "ヒョウゴケン",
    "prefecture_code": 28,
    "city": "姫路市",
    "city_kana": "ヒメジシ",
    "town": "広畑区大町",
    "town_kana": "ヒロハタクオオマチ",
    "street": null,
    "office_name": null,
    "office_name_kana": null
  },
  "1156": {
    "postcode": "6711156",
    "prefecture": "兵庫県",
    "prefecture_kana": "ヒョウゴケン",
    "prefecture_code": 28,
    "city": "姫路市",
    "city_kana": "ヒメジシ",
    "town": "広畑区小坂",
    "town_kana": "ヒロハタクコサカ",
    "street": null,
    "office_name": null,
    "office_name_kana": null
  },
  "1180": {
    "postcode": "6711180",
    "prefecture": "兵庫県",
    "prefecture_kana": "ヒョウゴケン",
    "prefecture_code": 28,
    "city": "姫路市",
    "city_kana": "ヒメジシ",
    "town": "広畑区正門通",
    "town_kana": "ヒロハタクセイモンドオリ",
    "street": "四丁目９番地の６",
    "office_name": "日鉄物流　株式会社　瀬戸内支店",
    "office_name_kana": "ニツテツブツリユウ カブシキガイシヤ セトウチシテン"
  },
  "1181": {
    "postcode": "6711181",
    "prefecture": "兵庫県",
    "prefecture_kana": "ヒョウゴケン",
    "prefecture_code": 28,
    "city": "姫路市",
    "city_kana": "ヒメジシ",
    "town": "広畑区正門通",
    "town_kana": "ヒロハタクセイモンドオリ",
    "street": "３丁目６−２（姫路広畑郵便局私書箱第１０号）",
    "office_name": "株式会社　吉田組",
    "office_name_kana": "カブシキガイシヤ ヨシダグミ"
  },
  "1188": {
    "postcode": "6711188",
    "prefecture": "兵庫県",
    "prefecture_kana": "ヒョウゴケン",
    "prefecture_code": 28,
    "city": "姫路市",
    "city_kana": "ヒメジシ",
    "town": "広畑区富士町",
    "town_kana": "ヒロハタクフジチョウ",
    "street": "１（姫路広畑郵便局私書箱第１号）",
    "office_name": "新日本製鐵　株式会社　広畑製鐵所",
    "office_name_kana": "シンニツポンセイテツ カブシキガイシヤ ヒロハタセイテツシヨ"
  },
  "1192": {
    "postcode": "6711192",
    "prefecture": "兵庫県",
    "prefecture_kana": "ヒョウゴケン",
    "prefecture_code": 28,
    "city": "姫路市",
    "city_kana": "ヒメジシ",
    "town": "大津区吉美",
    "town_kana": "オオツクキビ",
    "street": "３８０（姫路広畑郵便局私書箱第８号）",
    "office_name": "大和工業　株式会社",
    "office_name_kana": "ヤマトコウギヨウ カブシキガイシヤ"
  },
  "1201": {
    "postcode": "6711201",
    "prefecture": "兵庫県",
    "prefecture_kana": "ヒョウゴケン",
    "prefecture_code": 28,
    "city": "姫路市",
    "city_kana": "ヒメジシ",
    "town": "勝原区下太田",
    "town_kana": "カツハラクシモオオタ",
    "street": null,
    "office_name": null,
    "office_name_kana": null
  },
  "1202": {
    "postcode": "6711202",
    "prefecture": "兵庫県",
    "prefecture_kana": "ヒョウゴケン",
    "prefecture_code": 28,
    "city": "姫路市",
    "city_kana": "ヒメジシ",
    "town": "勝原区勝山町",
    "town_kana": "カツハラクカツヤマチョウ",
    "street": null,
    "office_name": null,
    "office_name_kana": null
  },
  "1203": {
    "postcode": "6711203",
    "prefecture": "兵庫県",
    "prefecture_kana": "ヒョウゴケン",
    "prefecture_code": 28,
    "city": "姫路市",
    "city_kana": "ヒメジシ",
    "town": "勝原区丁",
    "town_kana": "カツハラクヨロ",
    "street": null,
    "office_name": null,
    "office_name_kana": null
  },
  "1204": {
    "postcode": "6711204",
    "prefecture": "兵庫県",
    "prefecture_kana": "ヒョウゴケン",
    "prefecture_code": 28,
    "city": "姫路市",
    "city_kana": "ヒメジシ",
    "town": "勝原区朝日谷",
    "town_kana": "カツハラクアサヒダニ",
    "street": null,
    "office_name": null,
    "office_name_kana": null
  },
  "1205": {
    "postcode": "6711205",
    "prefecture": "兵庫県",
    "prefecture_kana": "ヒョウゴケン",
    "prefecture_code": 28,
    "city": "姫路市",
    "city_kana": "ヒメジシ",
    "town": "勝原区大谷",
    "town_kana": "カツハラクオオタニ",
    "street": null,
    "office_name": null,
    "office_name_kana": null
  },
  "1211": {
    "postcode": "6711211",
    "prefecture": "兵庫県",
    "prefecture_kana": "ヒョウゴケン",
    "prefecture_code": 28,
    "city": "姫路市",
    "city_kana": "ヒメジシ",
    "town": "勝原区熊見",
    "town_kana": "カツハラククマミ",
    "street": null,
    "office_name": null,
    "office_name_kana": null
  },
  "1212": {
    "postcode": "6711212",
    "prefecture": "兵庫県",
    "prefecture_kana": "ヒョウゴケン",
    "prefecture_code": 28,
    "city": "姫路市",
    "city_kana": "ヒメジシ",
    "town": "勝原区勝原町",
    "town_kana": "カツハラクカツハラチョウ",
    "street": null,
    "office_name": null,
    "office_name_kana": null
  },
  "1213": {
    "postcode": "6711213",
    "prefecture": "兵庫県",
    "prefecture_kana": "ヒョウゴケン",
    "prefecture_code": 28,
    "city": "姫路市",
    "city_kana": "ヒメジシ",
    "town": "勝原区宮田",
    "town_kana": "カツハラクミヤダ",
    "street": null,
    "office_name": null,
    "office_name_kana": null
  },
  "1214": {
    "postcode": "6711214",
    "prefecture": "兵庫県",
    "prefecture_kana": "ヒョウゴケン",
    "prefecture_code": 28,
    "city": "姫路市",
    "city_kana": "ヒメジシ",
    "town": "勝原区山戸",
    "town_kana": "カツハラクヤマト",
    "street": null,
    "office_name": null,
    "office_name_kana": null
  },
  "1221": {
    "postcode": "6711221",
    "prefecture": "兵庫県",
    "prefecture_kana": "ヒョウゴケン",
    "prefecture_code": 28,
    "city": "姫路市",
    "city_kana": "ヒメジシ",
    "town": "網干区田井",
    "town_kana": "アボシクタイ",
    "street": null,
    "office_name": null,
    "office_name_kana": null
  },
  "1222": {
    "postcode": "6711222",
    "prefecture": "兵庫県",
    "prefecture_kana": "ヒョウゴケン",
    "prefecture_code": 28,
    "city": "姫路市",
    "city_kana": "ヒメジシ",
    "town": "網干区宮内",
    "town_kana": "アボシクミヤウチ",
    "street": null,
    "office_name": null,
    "office_name_kana": null
  },
  "1223": {
    "postcode": "6711223",
    "prefecture": "兵庫県",
    "prefecture_kana": "ヒョウゴケン",
    "prefecture_code": 28,
    "city": "姫路市",
    "city_kana": "ヒメジシ",
    "town": "網干区坂上",
    "town_kana": "アボシクサカウエ",
    "street": null,
    "office_name": null,
    "office_name_kana": null
  },
  "1224": {
    "postcode": "6711224",
    "prefecture": "兵庫県",
    "prefecture_kana": "ヒョウゴケン",
    "prefecture_code": 28,
    "city": "姫路市",
    "city_kana": "ヒメジシ",
    "town": "網干区津市場",
    "town_kana": "アボシクツイチバ",
    "street": null,
    "office_name": null,
    "office_name_kana": null
  },
  "1225": {
    "postcode": "6711225",
    "prefecture": "兵庫県",
    "prefecture_kana": "ヒョウゴケン",
    "prefecture_code": 28,
    "city": "姫路市",
    "city_kana": "ヒメジシ",
    "town": "網干区福井",
    "town_kana": "アボシクフクイ",
    "street": null,
    "office_name": null,
    "office_name_kana": null
  },
  "1226": {
    "postcode": "6711226",
    "prefecture": "兵庫県",
    "prefecture_kana": "ヒョウゴケン",
    "prefecture_code": 28,
    "city": "姫路市",
    "city_kana": "ヒメジシ",
    "town": "網干区高田",
    "town_kana": "アボシクタカダ",
    "street": null,
    "office_name": null,
    "office_name_kana": null
  },
  "1227": {
    "postcode": "6711227",
    "prefecture": "兵庫県",
    "prefecture_kana": "ヒョウゴケン",
    "prefecture_code": 28,
    "city": "姫路市",
    "city_kana": "ヒメジシ",
    "town": "網干区和久",
    "town_kana": "アボシクワク",
    "street": null,
    "office_name": null,
    "office_name_kana": null
  },
  "1228": {
    "postcode": "6711228",
    "prefecture": "兵庫県",
    "prefecture_kana": "ヒョウゴケン",
    "prefecture_code": 28,
    "city": "姫路市",
    "city_kana": "ヒメジシ",
    "town": "網干区坂出",
    "town_kana": "アボシクサカデ",
    "street": null,
    "office_name": null,
    "office_name_kana": null
  },
  "1231": {
    "postcode": "6711231",
    "prefecture": "兵庫県",
    "prefecture_kana": "ヒョウゴケン",
    "prefecture_code": 28,
    "city": "姫路市",
    "city_kana": "ヒメジシ",
    "town": "網干区大江島",
    "town_kana": "アボシクオオエジマ",
    "street": null,
    "office_name": null,
    "office_name_kana": null
  },
  "1232": {
    "postcode": "6711232",
    "prefecture": "兵庫県",
    "prefecture_kana": "ヒョウゴケン",
    "prefecture_code": 28,
    "city": "姫路市",
    "city_kana": "ヒメジシ",
    "town": "網干区大江島寺前町",
    "town_kana": "アボシクオオエジマテラマエチョウ",
    "street": null,
    "office_name": null,
    "office_name_kana": null
  },
  "1233": {
    "postcode": "6711233",
    "prefecture": "兵庫県",
    "prefecture_kana": "ヒョウゴケン",
    "prefecture_code": 28,
    "city": "姫路市",
    "city_kana": "ヒメジシ",
    "town": "網干区大江島古川町",
    "town_kana": "アボシクオオエジマフルカワチョウ",
    "street": null,
    "office_name": null,
    "office_name_kana": null
  },
  "1234": {
    "postcode": "6711234",
    "prefecture": "兵庫県",
    "prefecture_kana": "ヒョウゴケン",
    "prefecture_code": 28,
    "city": "姫路市",
    "city_kana": "ヒメジシ",
    "town": "網干区新在家",
    "town_kana": "アボシクシンザイケ",
    "street": null,
    "office_name": null,
    "office_name_kana": null
  },
  "1235": {
    "postcode": "6711235",
    "prefecture": "兵庫県",
    "prefecture_kana": "ヒョウゴケン",
    "prefecture_code": 28,
    "city": "姫路市",
    "city_kana": "ヒメジシ",
    "town": "網干区北新在家",
    "town_kana": "アボシクキタシンザイケ",
    "street": null,
    "office_name": null,
    "office_name_kana": null
  },
  "1236": {
    "postcode": "6711236",
    "prefecture": "兵庫県",
    "prefecture_kana": "ヒョウゴケン",
    "prefecture_code": 28,
    "city": "姫路市",
    "city_kana": "ヒメジシ",
    "town": "網干区網干浜",
    "town_kana": "アボシクアボシハマ",
    "street": null,
    "office_name": null,
    "office_name_kana": null
  },
  "1241": {
    "postcode": "6711241",
    "prefecture": "兵庫県",
    "prefecture_kana": "ヒョウゴケン",
    "prefecture_code": 28,
    "city": "姫路市",
    "city_kana": "ヒメジシ",
    "town": "網干区興浜",
    "town_kana": "アボシクオキノハマ",
    "street": null,
    "office_name": null,
    "office_name_kana": null
  },
  "1242": {
    "postcode": "6711242",
    "prefecture": "兵庫県",
    "prefecture_kana": "ヒョウゴケン",
    "prefecture_code": 28,
    "city": "姫路市",
    "city_kana": "ヒメジシ",
    "town": "網干区浜田",
    "town_kana": "アボシクハマダ",
    "street": null,
    "office_name": null,
    "office_name_kana": null
  },
  "1251": {
    "postcode": "6711251",
    "prefecture": "兵庫県",
    "prefecture_kana": "ヒョウゴケン",
    "prefecture_code": 28,
    "city": "姫路市",
    "city_kana": "ヒメジシ",
    "town": "網干区垣内北町",
    "town_kana": "アボシクカイチキタマチ",
    "street": null,
    "office_name": null,
    "office_name_kana": null
  },
  "1252": {
    "postcode": "6711252",
    "prefecture": "兵庫県",
    "prefecture_kana": "ヒョウゴケン",
    "prefecture_code": 28,
    "city": "姫路市",
    "city_kana": "ヒメジシ",
    "town": "網干区垣内東町",
    "town_kana": "アボシクカイチヒガシマチ",
    "street": null,
    "office_name": null,
    "office_name_kana": null
  },
  "1253": {
    "postcode": "6711253",
    "prefecture": "兵庫県",
    "prefecture_kana": "ヒョウゴケン",
    "prefecture_code": 28,
    "city": "姫路市",
    "city_kana": "ヒメジシ",
    "town": "網干区垣内中町",
    "town_kana": "アボシクカイチナカマチ",
    "street": null,
    "office_name": null,
    "office_name_kana": null
  },
  "1254": {
    "postcode": "6711254",
    "prefecture": "兵庫県",
    "prefecture_kana": "ヒョウゴケン",
    "prefecture_code": 28,
    "city": "姫路市",
    "city_kana": "ヒメジシ",
    "town": "網干区余子浜",
    "town_kana": "アボシクヨコハマ",
    "street": null,
    "office_name": null,
    "office_name_kana": null
  },
  "1255": {
    "postcode": "6711255",
    "prefecture": "兵庫県",
    "prefecture_kana": "ヒョウゴケン",
    "prefecture_code": 28,
    "city": "姫路市",
    "city_kana": "ヒメジシ",
    "town": "網干区垣内南町",
    "town_kana": "アボシクカイチミナミマチ",
    "street": null,
    "office_name": null,
    "office_name_kana": null
  },
  "1256": {
    "postcode": "6711256",
    "prefecture": "兵庫県",
    "prefecture_kana": "ヒョウゴケン",
    "prefecture_code": 28,
    "city": "姫路市",
    "city_kana": "ヒメジシ",
    "town": "網干区垣内西町",
    "town_kana": "アボシクカイチニシマチ",
    "street": null,
    "office_name": null,
    "office_name_kana": null
  },
  "1257": {
    "postcode": "6711257",
    "prefecture": "兵庫県",
    "prefecture_kana": "ヒョウゴケン",
    "prefecture_code": 28,
    "city": "姫路市",
    "city_kana": "ヒメジシ",
    "town": "網干区垣内本町",
    "town_kana": "アボシクカイチホンマチ",
    "street": null,
    "office_name": null,
    "office_name_kana": null
  },
  "1261": {
    "postcode": "6711261",
    "prefecture": "兵庫県",
    "prefecture_kana": "ヒョウゴケン",
    "prefecture_code": 28,
    "city": "姫路市",
    "city_kana": "ヒメジシ",
    "town": "余部区下余部",
    "town_kana": "ヨベクシモヨベ",
    "street": null,
    "office_name": null,
    "office_name_kana": null
  },
  "1262": {
    "postcode": "6711262",
    "prefecture": "兵庫県",
    "prefecture_kana": "ヒョウゴケン",
    "prefecture_code": 28,
    "city": "姫路市",
    "city_kana": "ヒメジシ",
    "town": "余部区上余部",
    "town_kana": "ヨベクカミヨベ",
    "street": null,
    "office_name": null,
    "office_name_kana": null
  },
  "1263": {
    "postcode": "6711263",
    "prefecture": "兵庫県",
    "prefecture_kana": "ヒョウゴケン",
    "prefecture_code": 28,
    "city": "姫路市",
    "city_kana": "ヒメジシ",
    "town": "余部区上川原",
    "town_kana": "ヨベクカミガワラ",
    "street": null,
    "office_name": null,
    "office_name_kana": null
  },
  "1280": {
    "postcode": "6711280",
    "prefecture": "兵庫県",
    "prefecture_kana": "ヒョウゴケン",
    "prefecture_code": 28,
    "city": "姫路市",
    "city_kana": "ヒメジシ",
    "town": "網干区浜田",
    "town_kana": "アボシクハマダ",
    "street": "１０００",
    "office_name": "西芝電機　株式会社",
    "office_name_kana": "ニシシバデンキ カブシキガイシヤ"
  },
  "1281": {
    "postcode": "6711281",
    "prefecture": "兵庫県",
    "prefecture_kana": "ヒョウゴケン",
    "prefecture_code": 28,
    "city": "姫路市",
    "city_kana": "ヒメジシ",
    "town": "網干区新在家",
    "town_kana": "アボシクシンザイケ",
    "street": "１２３９",
    "office_name": "ダイセル化学工業姫路製造所",
    "office_name_kana": "ダイセルカガクコウギヨウヒメジセイゾウシヨ"
  },
  "1282": {
    "postcode": "6711282",
    "prefecture": "兵庫県",
    "prefecture_kana": "ヒョウゴケン",
    "prefecture_code": 28,
    "city": "姫路市",
    "city_kana": "ヒメジシ",
    "town": "網干区興浜",
    "town_kana": "アボシクオキノハマ",
    "street": "字西沖９９２−１",
    "office_name": "株式会社　日本触媒　姫路製造所",
    "office_name_kana": "カブシキガイシヤ ニホンシヨクバイ ヒメジセイゾウシヨ"
  },
  "1283": {
    "postcode": "6711283",
    "prefecture": "兵庫県",
    "prefecture_kana": "ヒョウゴケン",
    "prefecture_code": 28,
    "city": "姫路市",
    "city_kana": "ヒメジシ",
    "town": "網干区新在家",
    "town_kana": "アボシクシンザイケ",
    "street": "１２３９番地",
    "office_name": "株式会社　ダイセル　総合研究所",
    "office_name_kana": "カブシキガイシヤ ダイセル ソウゴウケンキユウシヨ"
  },
  "1285": {
    "postcode": "6711285",
    "prefecture": "兵庫県",
    "prefecture_kana": "ヒョウゴケン",
    "prefecture_code": 28,
    "city": "姫路市",
    "city_kana": "ヒメジシ",
    "town": "余部区上余部",
    "town_kana": "ヨベクカミヨベ",
    "street": "５０番地",
    "office_name": "ティー・エフ・ピー・ディー　株式会社",
    "office_name_kana": "テイ-・エフ・ピ-・デイ- カブシキガイシヤ"
  },
  "1286": {
    "postcode": "6711286",
    "prefecture": "兵庫県",
    "prefecture_kana": "ヒョウゴケン",
    "prefecture_code": 28,
    "city": "姫路市",
    "city_kana": "ヒメジシ",
    "town": "網干区新在家",
    "town_kana": "アボシクシンザイケ",
    "street": "塩浜２５９−１",
    "office_name": "兵庫県立網干高校",
    "office_name_kana": "ヒヨウゴケンリツアボシコウコウ"
  },
  "1288": {
    "postcode": "6711288",
    "prefecture": "兵庫県",
    "prefecture_kana": "ヒョウゴケン",
    "prefecture_code": 28,
    "city": "姫路市",
    "city_kana": "ヒメジシ",
    "town": "網干区新在家",
    "town_kana": "アボシクシンザイケ",
    "street": "３３４",
    "office_name": "大和産業　株式会社",
    "office_name_kana": "ダイワサンギヨウ カブシキガイシヤ"
  },
  "1289": {
    "postcode": "6711289",
    "prefecture": "兵庫県",
    "prefecture_kana": "ヒョウゴケン",
    "prefecture_code": 28,
    "city": "姫路市",
    "city_kana": "ヒメジシ",
    "town": "網干区新在家",
    "town_kana": "アボシクシンザイケ",
    "street": "１５０",
    "office_name": "大日本プラスチック　株式会社",
    "office_name_kana": "ダイニツポンプラスチツク カブシキガイシヤ"
  },
  "1292": {
    "postcode": "6711292",
    "prefecture": "兵庫県",
    "prefecture_kana": "ヒョウゴケン",
    "prefecture_code": 28,
    "city": "姫路市",
    "city_kana": "ヒメジシ",
    "town": "網干区興浜",
    "town_kana": "アボシクオキノハマ",
    "street": "字西沖９９２−１",
    "office_name": "（株）　日本触媒　研究企画部",
    "office_name_kana": "カブシキガイシヤ ニツポンシヨクバイ ケンキユウキカクブ"
  },
  "1293": {
    "postcode": "6711293",
    "prefecture": "兵庫県",
    "prefecture_kana": "ヒョウゴケン",
    "prefecture_code": 28,
    "city": "姫路市",
    "city_kana": "ヒメジシ",
    "town": "網干区新在家",
    "town_kana": "アボシクシンザイケ",
    "street": "１５０",
    "office_name": "シーダム　株式会社　姫路工場",
    "office_name_kana": "シ-ダム カブシキガイシヤ ヒメジコウジヨウ"
  },
  "1295": {
    "postcode": "6711295",
    "prefecture": "兵庫県",
    "prefecture_kana": "ヒョウゴケン",
    "prefecture_code": 28,
    "city": "姫路市",
    "city_kana": "ヒメジシ",
    "town": "余部区上余部",
    "town_kana": "ヨベクカミヨベ",
    "street": "５０",
    "office_name": "株式会社　東芝　姫路工場",
    "office_name_kana": "カブシキガイシヤ トウシバ ヒメジコウジヨウ"
  },
  "1301": {
    "postcode": "6711301",
    "prefecture": "兵庫県",
    "prefecture_kana": "ヒョウゴケン",
    "prefecture_code": 28,
    "city": "たつの市",
    "city_kana": "タツノシ",
    "town": "御津町黒崎",
    "town_kana": "ミツチョウクロサキ",
    "street": null,
    "office_name": null,
    "office_name_kana": null
  },
  "1311": {
    "postcode": "6711311",
    "prefecture": "兵庫県",
    "prefecture_kana": "ヒョウゴケン",
    "prefecture_code": 28,
    "city": "たつの市",
    "city_kana": "タツノシ",
    "town": "御津町中島",
    "town_kana": "ミツチョウナカシマ",
    "street": null,
    "office_name": null,
    "office_name_kana": null
  },
  "1312": {
    "postcode": "6711312",
    "prefecture": "兵庫県",
    "prefecture_kana": "ヒョウゴケン",
    "prefecture_code": 28,
    "city": "たつの市",
    "city_kana": "タツノシ",
    "town": "御津町碇岩",
    "town_kana": "ミツチョウイカリイワ",
    "street": null,
    "office_name": null,
    "office_name_kana": null
  },
  "1321": {
    "postcode": "6711321",
    "prefecture": "兵庫県",
    "prefecture_kana": "ヒョウゴケン",
    "prefecture_code": 28,
    "city": "たつの市",
    "city_kana": "タツノシ",
    "town": "御津町苅屋",
    "town_kana": "ミツチョウカリヤ",
    "street": null,
    "office_name": null,
    "office_name_kana": null
  },
  "1331": {
    "postcode": "6711331",
    "prefecture": "兵庫県",
    "prefecture_kana": "ヒョウゴケン",
    "prefecture_code": 28,
    "city": "たつの市",
    "city_kana": "タツノシ",
    "town": "御津町岩見",
    "town_kana": "ミツチョウイワミ",
    "street": null,
    "office_name": null,
    "office_name_kana": null
  },
  "1332": {
    "postcode": "6711332",
    "prefecture": "兵庫県",
    "prefecture_kana": "ヒョウゴケン",
    "prefecture_code": 28,
    "city": "たつの市",
    "city_kana": "タツノシ",
    "town": "御津町室津",
    "town_kana": "ミツチョウムロツ",
    "street": null,
    "office_name": null,
    "office_name_kana": null
  },
  "1341": {
    "postcode": "6711341",
    "prefecture": "兵庫県",
    "prefecture_kana": "ヒョウゴケン",
    "prefecture_code": 28,
    "city": "たつの市",
    "city_kana": "タツノシ",
    "town": "御津町釜屋",
    "town_kana": "ミツチョウカマヤ",
    "street": null,
    "office_name": null,
    "office_name_kana": null
  },
  "1342": {
    "postcode": "6711342",
    "prefecture": "兵庫県",
    "prefecture_kana": "ヒョウゴケン",
    "prefecture_code": 28,
    "city": "たつの市",
    "city_kana": "タツノシ",
    "town": "御津町朝臣",
    "town_kana": "ミツチョウアサトミ",
    "street": null,
    "office_name": null,
    "office_name_kana": null
  },
  "1392": {
    "postcode": "6711392",
    "prefecture": "兵庫県",
    "prefecture_kana": "ヒョウゴケン",
    "prefecture_code": 28,
    "city": "たつの市",
    "city_kana": "タツノシ",
    "town": "御津町釜屋",
    "town_kana": "ミツチョウカマヤ",
    "street": "１８０−１",
    "office_name": "たつの市　御津総合支所",
    "office_name_kana": "タツノシ ミツソウゴウシシヨ"
  },
  "1393": {
    "postcode": "6711393",
    "prefecture": "兵庫県",
    "prefecture_kana": "ヒョウゴケン",
    "prefecture_code": 28,
    "city": "たつの市",
    "city_kana": "タツノシ",
    "town": "御津町苅屋",
    "town_kana": "ミツチョウカリヤ",
    "street": "１４５５",
    "office_name": "タキロン　株式会社　網干工場",
    "office_name_kana": "タキロン カブシキガイシヤ アボシコウジヨウ"
  },
  "1500": {
    "postcode": "6711500",
    "prefecture": "兵庫県",
    "prefecture_kana": "ヒョウゴケン",
    "prefecture_code": 28,
    "city": "揖保郡太子町",
    "city_kana": "イボグンタイシチョウ",
    "town": "",
    "town_kana": "",
    "street": null,
    "office_name": null,
    "office_name_kana": null
  },
  "1501": {
    "postcode": "6711501",
    "prefecture": "兵庫県",
    "prefecture_kana": "ヒョウゴケン",
    "prefecture_code": 28,
    "city": "揖保郡太子町",
    "city_kana": "イボグンタイシチョウ",
    "town": "山田",
    "town_kana": "ヤマダ",
    "street": null,
    "office_name": null,
    "office_name_kana": null
  },
  "1502": {
    "postcode": "6711502",
    "prefecture": "兵庫県",
    "prefecture_kana": "ヒョウゴケン",
    "prefecture_code": 28,
    "city": "揖保郡太子町",
    "city_kana": "イボグンタイシチョウ",
    "town": "原",
    "town_kana": "ハラ",
    "street": null,
    "office_name": null,
    "office_name_kana": null
  },
  "1503": {
    "postcode": "6711503",
    "prefecture": "兵庫県",
    "prefecture_kana": "ヒョウゴケン",
    "prefecture_code": 28,
    "city": "揖保郡太子町",
    "city_kana": "イボグンタイシチョウ",
    "town": "天満山",
    "town_kana": "テンマヤマ",
    "street": null,
    "office_name": null,
    "office_name_kana": null
  },
  "1504": {
    "postcode": "6711504",
    "prefecture": "兵庫県",
    "prefecture_kana": "ヒョウゴケン",
    "prefecture_code": 28,
    "city": "揖保郡太子町",
    "city_kana": "イボグンタイシチョウ",
    "town": "黒岡",
    "town_kana": "クロオカ",
    "street": null,
    "office_name": null,
    "office_name_kana": null
  },
  "1511": {
    "postcode": "6711511",
    "prefecture": "兵庫県",
    "prefecture_kana": "ヒョウゴケン",
    "prefecture_code": 28,
    "city": "揖保郡太子町",
    "city_kana": "イボグンタイシチョウ",
    "town": "太田",
    "town_kana": "オオタ",
    "street": null,
    "office_name": null,
    "office_name_kana": null
  },
  "1521": {
    "postcode": "6711521",
    "prefecture": "兵庫県",
    "prefecture_kana": "ヒョウゴケン",
    "prefecture_code": 28,
    "city": "揖保郡太子町",
    "city_kana": "イボグンタイシチョウ",
    "town": "東出",
    "town_kana": "トウデ",
    "street": null,
    "office_name": null,
    "office_name_kana": null
  },
  "1522": {
    "postcode": "6711522",
    "prefecture": "兵庫県",
    "prefecture_kana": "ヒョウゴケン",
    "prefecture_code": 28,
    "city": "揖保郡太子町",
    "city_kana": "イボグンタイシチョウ",
    "town": "矢田部",
    "town_kana": "ヤタベ",
    "street": null,
    "office_name": null,
    "office_name_kana": null
  },
  "1523": {
    "postcode": "6711523",
    "prefecture": "兵庫県",
    "prefecture_kana": "ヒョウゴケン",
    "prefecture_code": 28,
    "city": "揖保郡太子町",
    "city_kana": "イボグンタイシチョウ",
    "town": "東南",
    "town_kana": "トウナン",
    "street": null,
    "office_name": null,
    "office_name_kana": null
  },
  "1524": {
    "postcode": "6711524",
    "prefecture": "兵庫県",
    "prefecture_kana": "ヒョウゴケン",
    "prefecture_code": 28,
    "city": "揖保郡太子町",
    "city_kana": "イボグンタイシチョウ",
    "town": "東保",
    "town_kana": "トウボ",
    "street": null,
    "office_name": null,
    "office_name_kana": null
  },
  "1531": {
    "postcode": "6711531",
    "prefecture": "兵庫県",
    "prefecture_kana": "ヒョウゴケン",
    "prefecture_code": 28,
    "city": "揖保郡太子町",
    "city_kana": "イボグンタイシチョウ",
    "town": "立岡",
    "town_kana": "タツオカ",
    "street": null,
    "office_name": null,
    "office_name_kana": null
  },
  "1532": {
    "postcode": "6711532",
    "prefecture": "兵庫県",
    "prefecture_kana": "ヒョウゴケン",
    "prefecture_code": 28,
    "city": "揖保郡太子町",
    "city_kana": "イボグンタイシチョウ",
    "town": "糸井",
    "town_kana": "イトイ",
    "street": null,
    "office_name": null,
    "office_name_kana": null
  },
  "1533": {
    "postcode": "6711533",
    "prefecture": "兵庫県",
    "prefecture_kana": "ヒョウゴケン",
    "prefecture_code": 28,
    "city": "揖保郡太子町",
    "city_kana": "イボグンタイシチョウ",
    "town": "竹広",
    "town_kana": "タケヒロ",
    "street": null,
    "office_name": null,
    "office_name_kana": null
  },
  "1534": {
    "postcode": "6711534",
    "prefecture": "兵庫県",
    "prefecture_kana": "ヒョウゴケン",
    "prefecture_code": 28,
    "city": "揖保郡太子町",
    "city_kana": "イボグンタイシチョウ",
    "town": "福地",
    "town_kana": "フクジ",
    "street": null,
    "office_name": null,
    "office_name_kana": null
  },
  "1535": {
    "postcode": "6711535",
    "prefecture": "兵庫県",
    "prefecture_kana": "ヒョウゴケン",
    "prefecture_code": 28,
    "city": "揖保郡太子町",
    "city_kana": "イボグンタイシチョウ",
    "town": "蓮常寺",
    "town_kana": "レンジョウジ",
    "street": null,
    "office_name": null,
    "office_name_kana": null
  },
  "1541": {
    "postcode": "6711541",
    "prefecture": "兵庫県",
    "prefecture_kana": "ヒョウゴケン",
    "prefecture_code": 28,
    "city": "揖保郡太子町",
    "city_kana": "イボグンタイシチョウ",
    "town": "塚森",
    "town_kana": "ツカモリ",
    "street": null,
    "office_name": null,
    "office_name_kana": null
  },
  "1542": {
    "postcode": "6711542",
    "prefecture": "兵庫県",
    "prefecture_kana": "ヒョウゴケン",
    "prefecture_code": 28,
    "city": "揖保郡太子町",
    "city_kana": "イボグンタイシチョウ",
    "town": "米田",
    "town_kana": "ヨネダ",
    "street": null,
    "office_name": null,
    "office_name_kana": null
  },
  "1543": {
    "postcode": "6711543",
    "prefecture": "兵庫県",
    "prefecture_kana": "ヒョウゴケン",
    "prefecture_code": 28,
    "city": "揖保郡太子町",
    "city_kana": "イボグンタイシチョウ",
    "town": "沖代",
    "town_kana": "オキダイ",
    "street": null,
    "office_name": null,
    "office_name_kana": null
  },
  "1544": {
    "postcode": "6711544",
    "prefecture": "兵庫県",
    "prefecture_kana": "ヒョウゴケン",
    "prefecture_code": 28,
    "city": "揖保郡太子町",
    "city_kana": "イボグンタイシチョウ",
    "town": "吉福",
    "town_kana": "ヨシフク",
    "street": null,
    "office_name": null,
    "office_name_kana": null
  },
  "1545": {
    "postcode": "6711545",
    "prefecture": "兵庫県",
    "prefecture_kana": "ヒョウゴケン",
    "prefecture_code": 28,
    "city": "揖保郡太子町",
    "city_kana": "イボグンタイシチョウ",
    "town": "岩見構",
    "town_kana": "イワミカマエ",
    "street": null,
    "office_name": null,
    "office_name_kana": null
  },
  "1551": {
    "postcode": "6711551",
    "prefecture": "兵庫県",
    "prefecture_kana": "ヒョウゴケン",
    "prefecture_code": 28,
    "city": "揖保郡太子町",
    "city_kana": "イボグンタイシチョウ",
    "town": "馬場",
    "town_kana": "ババ",
    "street": null,
    "office_name": null,
    "office_name_kana": null
  },
  "1552": {
    "postcode": "6711552",
    "prefecture": "兵庫県",
    "prefecture_kana": "ヒョウゴケン",
    "prefecture_code": 28,
    "city": "揖保郡太子町",
    "city_kana": "イボグンタイシチョウ",
    "town": "下阿曽",
    "town_kana": "シモアソ",
    "street": null,
    "office_name": null,
    "office_name_kana": null
  },
  "1553": {
    "postcode": "6711553",
    "prefecture": "兵庫県",
    "prefecture_kana": "ヒョウゴケン",
    "prefecture_code": 28,
    "city": "揖保郡太子町",
    "city_kana": "イボグンタイシチョウ",
    "town": "老原",
    "town_kana": "オイバラ",
    "street": null,
    "office_name": null,
    "office_name_kana": null
  },
  "1554": {
    "postcode": "6711554",
    "prefecture": "兵庫県",
    "prefecture_kana": "ヒョウゴケン",
    "prefecture_code": 28,
    "city": "揖保郡太子町",
    "city_kana": "イボグンタイシチョウ",
    "town": "船代",
    "town_kana": "フナダイ",
    "street": null,
    "office_name": null,
    "office_name_kana": null
  },
  "1555": {
    "postcode": "6711555",
    "prefecture": "兵庫県",
    "prefecture_kana": "ヒョウゴケン",
    "prefecture_code": 28,
    "city": "揖保郡太子町",
    "city_kana": "イボグンタイシチョウ",
    "town": "宮本",
    "town_kana": "ミヤモト",
    "street": null,
    "office_name": null,
    "office_name_kana": null
  },
  "1556": {
    "postcode": "6711556",
    "prefecture": "兵庫県",
    "prefecture_kana": "ヒョウゴケン",
    "prefecture_code": 28,
    "city": "揖保郡太子町",
    "city_kana": "イボグンタイシチョウ",
    "town": "常全",
    "town_kana": "ジョウゼン",
    "street": null,
    "office_name": null,
    "office_name_kana": null
  },
  "1557": {
    "postcode": "6711557",
    "prefecture": "兵庫県",
    "prefecture_kana": "ヒョウゴケン",
    "prefecture_code": 28,
    "city": "揖保郡太子町",
    "city_kana": "イボグンタイシチョウ",
    "town": "阿曽",
    "town_kana": "アソ",
    "street": null,
    "office_name": null,
    "office_name_kana": null
  },
  "1561": {
    "postcode": "6711561",
    "prefecture": "兵庫県",
    "prefecture_kana": "ヒョウゴケン",
    "prefecture_code": 28,
    "city": "揖保郡太子町",
    "city_kana": "イボグンタイシチョウ",
    "town": "鵤",
    "town_kana": "イカルガ",
    "street": null,
    "office_name": null,
    "office_name_kana": null
  },
  "1571": {
    "postcode": "6711571",
    "prefecture": "兵庫県",
    "prefecture_kana": "ヒョウゴケン",
    "prefecture_code": 28,
    "city": "揖保郡太子町",
    "city_kana": "イボグンタイシチョウ",
    "town": "広坂",
    "town_kana": "ヒロサカ",
    "street": null,
    "office_name": null,
    "office_name_kana": null
  },
  "1572": {
    "postcode": "6711572",
    "prefecture": "兵庫県",
    "prefecture_kana": "ヒョウゴケン",
    "prefecture_code": 28,
    "city": "揖保郡太子町",
    "city_kana": "イボグンタイシチョウ",
    "town": "王子",
    "town_kana": "オウジ",
    "street": null,
    "office_name": null,
    "office_name_kana": null
  },
  "1573": {
    "postcode": "6711573",
    "prefecture": "兵庫県",
    "prefecture_kana": "ヒョウゴケン",
    "prefecture_code": 28,
    "city": "揖保郡太子町",
    "city_kana": "イボグンタイシチョウ",
    "town": "上太田",
    "town_kana": "カミオオダ",
    "street": null,
    "office_name": null,
    "office_name_kana": null
  },
  "1574": {
    "postcode": "6711574",
    "prefecture": "兵庫県",
    "prefecture_kana": "ヒョウゴケン",
    "prefecture_code": 28,
    "city": "揖保郡太子町",
    "city_kana": "イボグンタイシチョウ",
    "town": "松ケ下",
    "town_kana": "マツガシタ",
    "street": null,
    "office_name": null,
    "office_name_kana": null
  },
  "1575": {
    "postcode": "6711575",
    "prefecture": "兵庫県",
    "prefecture_kana": "ヒョウゴケン",
    "prefecture_code": 28,
    "city": "揖保郡太子町",
    "city_kana": "イボグンタイシチョウ",
    "town": "佐用岡",
    "town_kana": "サヨオカ",
    "street": null,
    "office_name": null,
    "office_name_kana": null
  },
  "1576": {
    "postcode": "6711576",
    "prefecture": "兵庫県",
    "prefecture_kana": "ヒョウゴケン",
    "prefecture_code": 28,
    "city": "揖保郡太子町",
    "city_kana": "イボグンタイシチョウ",
    "town": "松尾",
    "town_kana": "マツオ",
    "street": null,
    "office_name": null,
    "office_name_kana": null
  },
  "1592": {
    "postcode": "6711592",
    "prefecture": "兵庫県",
    "prefecture_kana": "ヒョウゴケン",
    "prefecture_code": 28,
    "city": "揖保郡太子町",
    "city_kana": "イボグンタイシチョウ",
    "town": "鵤",
    "town_kana": "イカルガ",
    "street": "２８０番地１",
    "office_name": "兵庫県揖保郡太子町役場",
    "office_name_kana": "ヒヨウゴケンイボグンタイシチヨウヤクバ"
  },
  "1593": {
    "postcode": "6711593",
    "prefecture": "兵庫県",
    "prefecture_kana": "ヒョウゴケン",
    "prefecture_code": 28,
    "city": "揖保郡太子町",
    "city_kana": "イボグンタイシチョウ",
    "town": "東出",
    "town_kana": "トウデ",
    "street": "２６２−１（太子郵便局私書箱第２号）",
    "office_name": "株式会社　うかいや",
    "office_name_kana": "カブシキガイシヤ ウカイヤ"
  },
  "1595": {
    "postcode": "6711595",
    "prefecture": "兵庫県",
    "prefecture_kana": "ヒョウゴケン",
    "prefecture_code": 28,
    "city": "揖保郡太子町",
    "city_kana": "イボグンタイシチョウ",
    "town": "鵤",
    "town_kana": "イカルガ",
    "street": "３００",
    "office_name": "株式会社　東芝姫路工場太子分工場",
    "office_name_kana": "カブシキガイシヤ トウシバヒメジコウジヨウタイシブンコウジヨウ"
  },
  "1601": {
    "postcode": "6711601",
    "prefecture": "兵庫県",
    "prefecture_kana": "ヒョウゴケン",
    "prefecture_code": 28,
    "city": "たつの市",
    "city_kana": "タツノシ",
    "town": "揖保川町半田",
    "town_kana": "イボガワチョウハンダ",
    "street": null,
    "office_name": null,
    "office_name_kana": null
  },
  "1602": {
    "postcode": "6711602",
    "prefecture": "兵庫県",
    "prefecture_kana": "ヒョウゴケン",
    "prefecture_code": 28,
    "city": "たつの市",
    "city_kana": "タツノシ",
    "town": "揖保川町野田",
    "town_kana": "イボガワチョウノダ",
    "street": null,
    "office_name": null,
    "office_name_kana": null
  },
  "1603": {
    "postcode": "6711603",
    "prefecture": "兵庫県",
    "prefecture_kana": "ヒョウゴケン",
    "prefecture_code": 28,
    "city": "たつの市",
    "city_kana": "タツノシ",
    "town": "揖保川町養久",
    "town_kana": "イボガワチョウヤク",
    "street": null,
    "office_name": null,
    "office_name_kana": null
  },
  "1611": {
    "postcode": "6711611",
    "prefecture": "兵庫県",
    "prefecture_kana": "ヒョウゴケン",
    "prefecture_code": 28,
    "city": "たつの市",
    "city_kana": "タツノシ",
    "town": "揖保川町新在家",
    "town_kana": "イボガワチョウシンザイケ",
    "street": null,
    "office_name": null,
    "office_name_kana": null
  },
  "1612": {
    "postcode": "6711612",
    "prefecture": "兵庫県",
    "prefecture_kana": "ヒョウゴケン",
    "prefecture_code": 28,
    "city": "たつの市",
    "city_kana": "タツノシ",
    "town": "揖保川町本條",
    "town_kana": "イボガワチョウホンジョウ",
    "street": null,
    "office_name": null,
    "office_name_kana": null
  },
  "1613": {
    "postcode": "6711613",
    "prefecture": "兵庫県",
    "prefecture_kana": "ヒョウゴケン",
    "prefecture_code": 28,
    "city": "たつの市",
    "city_kana": "タツノシ",
    "town": "揖保川町二塚",
    "town_kana": "イボガワチョウフタツカ",
    "street": null,
    "office_name": null,
    "office_name_kana": null
  },
  "1621": {
    "postcode": "6711621",
    "prefecture": "兵庫県",
    "prefecture_kana": "ヒョウゴケン",
    "prefecture_code": 28,
    "city": "たつの市",
    "city_kana": "タツノシ",
    "town": "揖保川町正條",
    "town_kana": "イボガワチョウショウジョウ",
    "street": null,
    "office_name": null,
    "office_name_kana": null
  },
  "1631": {
    "postcode": "6711631",
    "prefecture": "兵庫県",
    "prefecture_kana": "ヒョウゴケン",
    "prefecture_code": 28,
    "city": "たつの市",
    "city_kana": "タツノシ",
    "town": "揖保川町山津屋",
    "town_kana": "イボガワチョウヤマツヤ",
    "street": null,
    "office_name": null,
    "office_name_kana": null
  },
  "1632": {
    "postcode": "6711632",
    "prefecture": "兵庫県",
    "prefecture_kana": "ヒョウゴケン",
    "prefecture_code": 28,
    "city": "たつの市",
    "city_kana": "タツノシ",
    "town": "揖保川町黍田",
    "town_kana": "イボガワチョウキビタ",
    "street": null,
    "office_name": null,
    "office_name_kana": null
  },
  "1641": {
    "postcode": "6711641",
    "prefecture": "兵庫県",
    "prefecture_kana": "ヒョウゴケン",
    "prefecture_code": 28,
    "city": "たつの市",
    "city_kana": "タツノシ",
    "town": "揖保川町原",
    "town_kana": "イボガワチョウハラ",
    "street": null,
    "office_name": null,
    "office_name_kana": null
  },
  "1642": {
    "postcode": "6711642",
    "prefecture": "兵庫県",
    "prefecture_kana": "ヒョウゴケン",
    "prefecture_code": 28,
    "city": "たつの市",
    "city_kana": "タツノシ",
    "town": "揖保川町大門",
    "town_kana": "イボガワチョウダイモン",
    "street": null,
    "office_name": null,
    "office_name_kana": null
  },
  "1643": {
    "postcode": "6711643",
    "prefecture": "兵庫県",
    "prefecture_kana": "ヒョウゴケン",
    "prefecture_code": 28,
    "city": "たつの市",
    "city_kana": "タツノシ",
    "town": "揖保川町神戸北山",
    "town_kana": "イボガワチョウカンベキタヤマ",
    "street": null,
    "office_name": null,
    "office_name_kana": null
  },
  "1651": {
    "postcode": "6711651",
    "prefecture": "兵庫県",
    "prefecture_kana": "ヒョウゴケン",
    "prefecture_code": 28,
    "city": "たつの市",
    "city_kana": "タツノシ",
    "town": "揖保川町片島",
    "town_kana": "イボガワチョウカタシマ",
    "street": null,
    "office_name": null,
    "office_name_kana": null
  },
  "1661": {
    "postcode": "6711661",
    "prefecture": "兵庫県",
    "prefecture_kana": "ヒョウゴケン",
    "prefecture_code": 28,
    "city": "たつの市",
    "city_kana": "タツノシ",
    "town": "揖保川町袋尻",
    "town_kana": "イボガワチョウフクロジリ",
    "street": null,
    "office_name": null,
    "office_name_kana": null
  },
  "1662": {
    "postcode": "6711662",
    "prefecture": "兵庫県",
    "prefecture_kana": "ヒョウゴケン",
    "prefecture_code": 28,
    "city": "たつの市",
    "city_kana": "タツノシ",
    "town": "揖保川町市場",
    "town_kana": "イボガワチョウイチバ",
    "street": null,
    "office_name": null,
    "office_name_kana": null
  },
  "1663": {
    "postcode": "6711663",
    "prefecture": "兵庫県",
    "prefecture_kana": "ヒョウゴケン",
    "prefecture_code": 28,
    "city": "たつの市",
    "city_kana": "タツノシ",
    "town": "揖保川町浦部",
    "town_kana": "イボガワチョウウラベ",
    "street": null,
    "office_name": null,
    "office_name_kana": null
  },
  "1664": {
    "postcode": "6711664",
    "prefecture": "兵庫県",
    "prefecture_kana": "ヒョウゴケン",
    "prefecture_code": 28,
    "city": "たつの市",
    "city_kana": "タツノシ",
    "town": "揖保川町金剛山",
    "town_kana": "イボガワチョウコンゴウサン",
    "street": null,
    "office_name": null,
    "office_name_kana": null
  },
  "1665": {
    "postcode": "6711665",
    "prefecture": "兵庫県",
    "prefecture_kana": "ヒョウゴケン",
    "prefecture_code": 28,
    "city": "たつの市",
    "city_kana": "タツノシ",
    "town": "揖保川町馬場",
    "town_kana": "イボガワチョウウマバ",
    "street": null,
    "office_name": null,
    "office_name_kana": null
  },
  "1680": {
    "postcode": "6711680",
    "prefecture": "兵庫県",
    "prefecture_kana": "ヒョウゴケン",
    "prefecture_code": 28,
    "city": "たつの市",
    "city_kana": "タツノシ",
    "town": "揖保川町半田",
    "town_kana": "イボガワチョウハンダ",
    "street": "６７２",
    "office_name": "日本丸天醤油　株式会社",
    "office_name_kana": "ニホンマルテンシヨウユ カブシキガイシヤ"
  },
  "1681": {
    "postcode": "6711681",
    "prefecture": "兵庫県",
    "prefecture_kana": "ヒョウゴケン",
    "prefecture_code": 28,
    "city": "たつの市",
    "city_kana": "タツノシ",
    "town": "揖保川町馬場",
    "town_kana": "イボガワチョウウマバ",
    "street": "８０５",
    "office_name": "ダイセル化学工業　株式会社　播磨工場",
    "office_name_kana": "ダイセルカガクコウギヨウ カブシキガイシヤ ハリマコウジヨウ"
  },
  "1682": {
    "postcode": "6711682",
    "prefecture": "兵庫県",
    "prefecture_kana": "ヒョウゴケン",
    "prefecture_code": 28,
    "city": "たつの市",
    "city_kana": "タツノシ",
    "town": "揖保川町山津屋",
    "town_kana": "イボガワチョウヤマツヤ",
    "street": "１４１−１",
    "office_name": "兵庫西農業協同組合　揖保川支店",
    "office_name_kana": "ヒヨウゴニシノウギヨウキヨウドウクミアイ イボガワシテン"
  },
  "1684": {
    "postcode": "6711684",
    "prefecture": "兵庫県",
    "prefecture_kana": "ヒョウゴケン",
    "prefecture_code": 28,
    "city": "たつの市",
    "city_kana": "タツノシ",
    "town": "揖保川町原",
    "town_kana": "イボガワチョウハラ",
    "street": "８４９−３７",
    "office_name": "揖保川町商工会",
    "office_name_kana": "イボガワチヨウシヨウコウカイ"
  },
  "1688": {
    "postcode": "6711688",
    "prefecture": "兵庫県",
    "prefecture_kana": "ヒョウゴケン",
    "prefecture_code": 28,
    "city": "たつの市",
    "city_kana": "タツノシ",
    "town": "揖保川町半田",
    "town_kana": "イボガワチョウハンダ",
    "street": "７０３−１",
    "office_name": "医療法人　古橋会　揖保川病院",
    "office_name_kana": "イリヨウホウジン フルハシカイ イボガワビヨウイン"
  },
  "1692": {
    "postcode": "6711692",
    "prefecture": "兵庫県",
    "prefecture_kana": "ヒョウゴケン",
    "prefecture_code": 28,
    "city": "たつの市",
    "city_kana": "タツノシ",
    "town": "揖保川町正條",
    "town_kana": "イボガワチョウショウジョウ",
    "street": "２７９−１",
    "office_name": "たつの市　揖保川総合支所",
    "office_name_kana": "タツノシ イボガワソウゴウシシヨ"
  },
  "2101": {
    "postcode": "6712101",
    "prefecture": "兵庫県",
    "prefecture_kana": "ヒョウゴケン",
    "prefecture_code": 28,
    "city": "姫路市",
    "city_kana": "ヒメジシ",
    "town": "夢前町山之内",
    "town_kana": "ユメサキチョウヤマノウチ",
    "street": null,
    "office_name": null,
    "office_name_kana": null
  },
  "2102": {
    "postcode": "6712102",
    "prefecture": "兵庫県",
    "prefecture_kana": "ヒョウゴケン",
    "prefecture_code": 28,
    "city": "姫路市",
    "city_kana": "ヒメジシ",
    "town": "夢前町新庄",
    "town_kana": "ユメサキチョウシンジョウ",
    "street": null,
    "office_name": null,
    "office_name_kana": null
  },
  "2103": {
    "postcode": "6712103",
    "prefecture": "兵庫県",
    "prefecture_kana": "ヒョウゴケン",
    "prefecture_code": 28,
    "city": "姫路市",
    "city_kana": "ヒメジシ",
    "town": "夢前町前之庄",
    "town_kana": "ユメサキチョウマエノショウ",
    "street": null,
    "office_name": null,
    "office_name_kana": null
  },
  "2105": {
    "postcode": "6712105",
    "prefecture": "兵庫県",
    "prefecture_kana": "ヒョウゴケン",
    "prefecture_code": 28,
    "city": "姫路市",
    "city_kana": "ヒメジシ",
    "town": "夢前町神種",
    "town_kana": "ユメサキチョウコノクサ",
    "street": null,
    "office_name": null,
    "office_name_kana": null
  },
  "2106": {
    "postcode": "6712106",
    "prefecture": "兵庫県",
    "prefecture_kana": "ヒョウゴケン",
    "prefecture_code": 28,
    "city": "姫路市",
    "city_kana": "ヒメジシ",
    "town": "夢前町莇野",
    "town_kana": "ユメサキチョウアゾノ",
    "street": null,
    "office_name": null,
    "office_name_kana": null
  },
  "2111": {
    "postcode": "6712111",
    "prefecture": "兵庫県",
    "prefecture_kana": "ヒョウゴケン",
    "prefecture_code": 28,
    "city": "姫路市",
    "city_kana": "ヒメジシ",
    "town": "夢前町杉之内",
    "town_kana": "ユメサキチョウスギノウチ",
    "street": null,
    "office_name": null,
    "office_name_kana": null
  },
  "2112": {
    "postcode": "6712112",
    "prefecture": "兵庫県",
    "prefecture_kana": "ヒョウゴケン",
    "prefecture_code": 28,
    "city": "姫路市",
    "city_kana": "ヒメジシ",
    "town": "夢前町塩田",
    "town_kana": "ユメサキチョウシオタ",
    "street": null,
    "office_name": null,
    "office_name_kana": null
  },
  "2113": {
    "postcode": "6712113",
    "prefecture": "兵庫県",
    "prefecture_kana": "ヒョウゴケン",
    "prefecture_code": 28,
    "city": "姫路市",
    "city_kana": "ヒメジシ",
    "town": "夢前町古知之庄",
    "town_kana": "ユメサキチョウコチノショウ",
    "street": null,
    "office_name": null,
    "office_name_kana": null
  },
  "2114": {
    "postcode": "6712114",
    "prefecture": "兵庫県",
    "prefecture_kana": "ヒョウゴケン",
    "prefecture_code": 28,
    "city": "姫路市",
    "city_kana": "ヒメジシ",
    "town": "夢前町糸田",
    "town_kana": "ユメサキチョウイトタ",
    "street": null,
    "office_name": null,
    "office_name_kana": null
  },
  "2115": {
    "postcode": "6712115",
    "prefecture": "兵庫県",
    "prefecture_kana": "ヒョウゴケン",
    "prefecture_code": 28,
    "city": "姫路市",
    "city_kana": "ヒメジシ",
    "town": "夢前町又坂",
    "town_kana": "ユメサキチョウマタサカ",
    "street": null,
    "office_name": null,
    "office_name_kana": null
  },
  "2116": {
    "postcode": "6712116",
    "prefecture": "兵庫県",
    "prefecture_kana": "ヒョウゴケン",
    "prefecture_code": 28,
    "city": "姫路市",
    "city_kana": "ヒメジシ",
    "town": "夢前町寺",
    "town_kana": "ユメサキチョウテラ",
    "street": null,
    "office_name": null,
    "office_name_kana": null
  },
  "2117": {
    "postcode": "6712117",
    "prefecture": "兵庫県",
    "prefecture_kana": "ヒョウゴケン",
    "prefecture_code": 28,
    "city": "姫路市",
    "city_kana": "ヒメジシ",
    "town": "夢前町高長",
    "town_kana": "ユメサキチョウコウチョウ",
    "street": null,
    "office_name": null,
    "office_name_kana": null
  },
  "2121": {
    "postcode": "6712121",
    "prefecture": "兵庫県",
    "prefecture_kana": "ヒョウゴケン",
    "prefecture_code": 28,
    "city": "姫路市",
    "city_kana": "ヒメジシ",
    "town": "夢前町宮置",
    "town_kana": "ユメサキチョウミヤオキ",
    "street": null,
    "office_name": null,
    "office_name_kana": null
  },
  "2122": {
    "postcode": "6712122",
    "prefecture": "兵庫県",
    "prefecture_kana": "ヒョウゴケン",
    "prefecture_code": 28,
    "city": "姫路市",
    "city_kana": "ヒメジシ",
    "town": "夢前町置本",
    "town_kana": "ユメサキチョウオキモト",
    "street": null,
    "office_name": null,
    "office_name_kana": null
  },
  "2123": {
    "postcode": "6712123",
    "prefecture": "兵庫県",
    "prefecture_kana": "ヒョウゴケン",
    "prefecture_code": 28,
    "city": "姫路市",
    "city_kana": "ヒメジシ",
    "town": "夢前町山冨",
    "town_kana": "ユメサキチョウヤマトミ",
    "street": null,
    "office_name": null,
    "office_name_kana": null
  },
  "2124": {
    "postcode": "6712124",
    "prefecture": "兵庫県",
    "prefecture_kana": "ヒョウゴケン",
    "prefecture_code": 28,
    "city": "姫路市",
    "city_kana": "ヒメジシ",
    "town": "夢前町玉田",
    "town_kana": "ユメサキチョウタマダ",
    "street": null,
    "office_name": null,
    "office_name_kana": null
  },
  "2131": {
    "postcode": "6712131",
    "prefecture": "兵庫県",
    "prefecture_kana": "ヒョウゴケン",
    "prefecture_code": 28,
    "city": "姫路市",
    "city_kana": "ヒメジシ",
    "town": "夢前町戸倉",
    "town_kana": "ユメサキチョウトクラ",
    "street": null,
    "office_name": null,
    "office_name_kana": null
  },
  "2132": {
    "postcode": "6712132",
    "prefecture": "兵庫県",
    "prefecture_kana": "ヒョウゴケン",
    "prefecture_code": 28,
    "city": "姫路市",
    "city_kana": "ヒメジシ",
    "town": "夢前町古瀬畑",
    "town_kana": "ユメサキチョウコセバタ",
    "street": null,
    "office_name": null,
    "office_name_kana": null
  },
  "2133": {
    "postcode": "6712133",
    "prefecture": "兵庫県",
    "prefecture_kana": "ヒョウゴケン",
    "prefecture_code": 28,
    "city": "姫路市",
    "city_kana": "ヒメジシ",
    "town": "夢前町芦田",
    "town_kana": "ユメサキチョウアシダ",
    "street": null,
    "office_name": null,
    "office_name_kana": null
  },
  "2134": {
    "postcode": "6712134",
    "prefecture": "兵庫県",
    "prefecture_kana": "ヒョウゴケン",
    "prefecture_code": 28,
    "city": "姫路市",
    "city_kana": "ヒメジシ",
    "town": "夢前町菅生澗",
    "town_kana": "ユメサキチョウスゴウダニ",
    "street": null,
    "office_name": null,
    "office_name_kana": null
  },
  "2135": {
    "postcode": "6712135",
    "prefecture": "兵庫県",
    "prefecture_kana": "ヒョウゴケン",
    "prefecture_code": 28,
    "city": "姫路市",
    "city_kana": "ヒメジシ",
    "town": "夢前町塚本",
    "town_kana": "ユメサキチョウツカモト",
    "street": null,
    "office_name": null,
    "office_name_kana": null
  },
  "2136": {
    "postcode": "6712136",
    "prefecture": "兵庫県",
    "prefecture_kana": "ヒョウゴケン",
    "prefecture_code": 28,
    "city": "姫路市",
    "city_kana": "ヒメジシ",
    "town": "夢前町護持",
    "town_kana": "ユメサキチョウゴジ",
    "street": null,
    "office_name": null,
    "office_name_kana": null
  },
  "2137": {
    "postcode": "6712137",
    "prefecture": "兵庫県",
    "prefecture_kana": "ヒョウゴケン",
    "prefecture_code": 28,
    "city": "姫路市",
    "city_kana": "ヒメジシ",
    "town": "夢前町野畑",
    "town_kana": "ユメサキチョウノバタケ",
    "street": null,
    "office_name": null,
    "office_name_kana": null
  },
  "2192": {
    "postcode": "6712192",
    "prefecture": "兵庫県",
    "prefecture_kana": "ヒョウゴケン",
    "prefecture_code": 28,
    "city": "姫路市",
    "city_kana": "ヒメジシ",
    "town": "夢前町前之庄",
    "town_kana": "ユメサキチョウマエノショウ",
    "street": "２１６０番地",
    "office_name": "姫路市夢前事務所",
    "office_name_kana": "ヒメジシユメサキジムシヨ"
  },
  "2193": {
    "postcode": "6712193",
    "prefecture": "兵庫県",
    "prefecture_kana": "ヒョウゴケン",
    "prefecture_code": 28,
    "city": "姫路市",
    "city_kana": "ヒメジシ",
    "town": "夢前町戸倉",
    "town_kana": "ユメサキチョウトクラ",
    "street": "５６６番地",
    "office_name": "日生学園第三高等学校",
    "office_name_kana": "ニツセイガクエンダイサンコウトウガツコウ"
  },
  "2198": {
    "postcode": "6712198",
    "prefecture": "兵庫県",
    "prefecture_kana": "ヒョウゴケン",
    "prefecture_code": 28,
    "city": "姫路市",
    "city_kana": "ヒメジシ",
    "town": "夢前町置本",
    "town_kana": "ユメサキチョウオキモト",
    "street": "３２７番地１６",
    "office_name": "ヤマサ蒲鉾　株式会社",
    "office_name_kana": "ヤマサカマボコ カブシキガイシヤ"
  },
  "2201": {
    "postcode": "6712201",
    "prefecture": "兵庫県",
    "prefecture_kana": "ヒョウゴケン",
    "prefecture_code": 28,
    "city": "姫路市",
    "city_kana": "ヒメジシ",
    "town": "書写",
    "town_kana": "ショシャ",
    "street": null,
    "office_name": null,
    "office_name_kana": null
  },
  "2202": {
    "postcode": "6712202",
    "prefecture": "兵庫県",
    "prefecture_kana": "ヒョウゴケン",
    "prefecture_code": 28,
    "city": "姫路市",
    "city_kana": "ヒメジシ",
    "town": "北夢前台",
    "town_kana": "キタユメサキダイ",
    "street": null,
    "office_name": null,
    "office_name_kana": null
  },
  "2203": {
    "postcode": "6712203",
    "prefecture": "兵庫県",
    "prefecture_kana": "ヒョウゴケン",
    "prefecture_code": 28,
    "city": "姫路市",
    "city_kana": "ヒメジシ",
    "town": "書写台",
    "town_kana": "ショシャダイ",
    "street": null,
    "office_name": null,
    "office_name_kana": null
  },
  "2211": {
    "postcode": "6712211",
    "prefecture": "兵庫県",
    "prefecture_kana": "ヒョウゴケン",
    "prefecture_code": 28,
    "city": "姫路市",
    "city_kana": "ヒメジシ",
    "town": "田井台",
    "town_kana": "タイダイ",
    "street": null,
    "office_name": null,
    "office_name_kana": null
  },
  "2212": {
    "postcode": "6712212",
    "prefecture": "兵庫県",
    "prefecture_kana": "ヒョウゴケン",
    "prefecture_code": 28,
    "city": "姫路市",
    "city_kana": "ヒメジシ",
    "town": "川西",
    "town_kana": "カワニシ",
    "street": null,
    "office_name": null,
    "office_name_kana": null
  },
  "2213": {
    "postcode": "6712213",
    "prefecture": "兵庫県",
    "prefecture_kana": "ヒョウゴケン",
    "prefecture_code": 28,
    "city": "姫路市",
    "city_kana": "ヒメジシ",
    "town": "川西台",
    "town_kana": "カワニシダイ",
    "street": null,
    "office_name": null,
    "office_name_kana": null
  },
  "2214": {
    "postcode": "6712214",
    "prefecture": "兵庫県",
    "prefecture_kana": "ヒョウゴケン",
    "prefecture_code": 28,
    "city": "姫路市",
    "city_kana": "ヒメジシ",
    "town": "西夢前台",
    "town_kana": "ニシユメサキダイ",
    "street": null,
    "office_name": null,
    "office_name_kana": null
  },
  "2215": {
    "postcode": "6712215",
    "prefecture": "兵庫県",
    "prefecture_kana": "ヒョウゴケン",
    "prefecture_code": 28,
    "city": "姫路市",
    "city_kana": "ヒメジシ",
    "town": "飾西台",
    "town_kana": "シキサイダイ",
    "street": null,
    "office_name": null,
    "office_name_kana": null
  },
  "2216": {
    "postcode": "6712216",
    "prefecture": "兵庫県",
    "prefecture_kana": "ヒョウゴケン",
    "prefecture_code": 28,
    "city": "姫路市",
    "city_kana": "ヒメジシ",
    "town": "飾西",
    "town_kana": "シキサイ",
    "street": null,
    "office_name": null,
    "office_name_kana": null
  },
  "2217": {
    "postcode": "6712217",
    "prefecture": "兵庫県",
    "prefecture_kana": "ヒョウゴケン",
    "prefecture_code": 28,
    "city": "姫路市",
    "city_kana": "ヒメジシ",
    "town": "町田",
    "town_kana": "チョウダ",
    "street": null,
    "office_name": null,
    "office_name_kana": null
  },
  "2221": {
    "postcode": "6712221",
    "prefecture": "兵庫県",
    "prefecture_kana": "ヒョウゴケン",
    "prefecture_code": 28,
    "city": "姫路市",
    "city_kana": "ヒメジシ",
    "town": "青山北",
    "town_kana": "アオヤマキタ",
    "street": null,
    "office_name": null,
    "office_name_kana": null
  },
  "2222": {
    "postcode": "6712222",
    "prefecture": "兵庫県",
    "prefecture_kana": "ヒョウゴケン",
    "prefecture_code": 28,
    "city": "姫路市",
    "city_kana": "ヒメジシ",
    "town": "青山",
    "town_kana": "アオヤマ",
    "street": null,
    "office_name": null,
    "office_name_kana": null
  },
  "2223": {
    "postcode": "6712223",
    "prefecture": "兵庫県",
    "prefecture_kana": "ヒョウゴケン",
    "prefecture_code": 28,
    "city": "姫路市",
    "city_kana": "ヒメジシ",
    "town": "青山南",
    "town_kana": "アオヤマミナミ",
    "street": null,
    "office_name": null,
    "office_name_kana": null
  },
  "2224": {
    "postcode": "6712224",
    "prefecture": "兵庫県",
    "prefecture_kana": "ヒョウゴケン",
    "prefecture_code": 28,
    "city": "姫路市",
    "city_kana": "ヒメジシ",
    "town": "青山西",
    "town_kana": "アオヤマニシ",
    "street": null,
    "office_name": null,
    "office_name_kana": null
  },
  "2231": {
    "postcode": "6712231",
    "prefecture": "兵庫県",
    "prefecture_kana": "ヒョウゴケン",
    "prefecture_code": 28,
    "city": "姫路市",
    "city_kana": "ヒメジシ",
    "town": "石倉",
    "town_kana": "イシクラ",
    "street": null,
    "office_name": null,
    "office_name_kana": null
  },
  "2232": {
    "postcode": "6712232",
    "prefecture": "兵庫県",
    "prefecture_kana": "ヒョウゴケン",
    "prefecture_code": 28,
    "city": "姫路市",
    "city_kana": "ヒメジシ",
    "town": "相野",
    "town_kana": "アイノ",
    "street": null,
    "office_name": null,
    "office_name_kana": null
  },
  "2233": {
    "postcode": "6712233",
    "prefecture": "兵庫県",
    "prefecture_kana": "ヒョウゴケン",
    "prefecture_code": 28,
    "city": "姫路市",
    "city_kana": "ヒメジシ",
    "town": "太市中",
    "town_kana": "オオイチナカ",
    "street": null,
    "office_name": null,
    "office_name_kana": null
  },
  "2234": {
    "postcode": "6712234",
    "prefecture": "兵庫県",
    "prefecture_kana": "ヒョウゴケン",
    "prefecture_code": 28,
    "city": "姫路市",
    "city_kana": "ヒメジシ",
    "town": "西脇",
    "town_kana": "ニシワキ",
    "street": null,
    "office_name": null,
    "office_name_kana": null
  },
  "2241": {
    "postcode": "6712241",
    "prefecture": "兵庫県",
    "prefecture_kana": "ヒョウゴケン",
    "prefecture_code": 28,
    "city": "姫路市",
    "city_kana": "ヒメジシ",
    "town": "刀出",
    "town_kana": "カタナデ",
    "street": null,
    "office_name": null,
    "office_name_kana": null
  },
  "2242": {
    "postcode": "6712242",
    "prefecture": "兵庫県",
    "prefecture_kana": "ヒョウゴケン",
    "prefecture_code": 28,
    "city": "姫路市",
    "city_kana": "ヒメジシ",
    "town": "六角",
    "town_kana": "ロッカク",
    "street": null,
    "office_name": null,
    "office_name_kana": null
  },
  "2243": {
    "postcode": "6712243",
    "prefecture": "兵庫県",
    "prefecture_kana": "ヒョウゴケン",
    "prefecture_code": 28,
    "city": "姫路市",
    "city_kana": "ヒメジシ",
    "town": "菅生台",
    "town_kana": "スゴウダイ",
    "street": null,
    "office_name": null,
    "office_name_kana": null
  },
  "2244": {
    "postcode": "6712244",
    "prefecture": "兵庫県",
    "prefecture_kana": "ヒョウゴケン",
    "prefecture_code": 28,
    "city": "姫路市",
    "city_kana": "ヒメジシ",
    "town": "実法寺",
    "town_kana": "ジホウジ",
    "street": null,
    "office_name": null,
    "office_name_kana": null
  },
  "2245": {
    "postcode": "6712245",
    "prefecture": "兵庫県",
    "prefecture_kana": "ヒョウゴケン",
    "prefecture_code": 28,
    "city": "姫路市",
    "city_kana": "ヒメジシ",
    "town": "白鳥台",
    "town_kana": "ハクチョウダイ",
    "street": null,
    "office_name": null,
    "office_name_kana": null
  },
  "2246": {
    "postcode": "6712246",
    "prefecture": "兵庫県",
    "prefecture_kana": "ヒョウゴケン",
    "prefecture_code": 28,
    "city": "姫路市",
    "city_kana": "ヒメジシ",
    "town": "打越",
    "town_kana": "ウチコシ",
    "street": null,
    "office_name": null,
    "office_name_kana": null
  },
  "2247": {
    "postcode": "6712247",
    "prefecture": "兵庫県",
    "prefecture_kana": "ヒョウゴケン",
    "prefecture_code": 28,
    "city": "姫路市",
    "city_kana": "ヒメジシ",
    "town": "緑台",
    "town_kana": "ミドリダイ",
    "street": null,
    "office_name": null,
    "office_name_kana": null
  },
  "2280": {
    "postcode": "6712280",
    "prefecture": "兵庫県",
    "prefecture_kana": "ヒョウゴケン",
    "prefecture_code": 28,
    "city": "姫路市",
    "city_kana": "ヒメジシ",
    "town": "書写",
    "town_kana": "ショシャ",
    "street": "２１６７番地",
    "office_name": "兵庫県立大学",
    "office_name_kana": "ヒヨウゴケンリツダイガク"
  },
  "2288": {
    "postcode": "6712288",
    "prefecture": "兵庫県",
    "prefecture_kana": "ヒョウゴケン",
    "prefecture_code": 28,
    "city": "姫路市",
    "city_kana": "ヒメジシ",
    "town": "青山北",
    "town_kana": "アオヤマキタ",
    "street": "１丁目１番１号",
    "office_name": "三相電機　株式会社",
    "office_name_kana": "サンソウデンキ カブシキガイシヤ"
  },
  "2401": {
    "postcode": "6712401",
    "prefecture": "兵庫県",
    "prefecture_kana": "ヒョウゴケン",
    "prefecture_code": 28,
    "city": "姫路市",
    "city_kana": "ヒメジシ",
    "town": "安富町安志",
    "town_kana": "ヤストミチョウアンジ",
    "street": null,
    "office_name": null,
    "office_name_kana": null
  },
  "2411": {
    "postcode": "6712411",
    "prefecture": "兵庫県",
    "prefecture_kana": "ヒョウゴケン",
    "prefecture_code": 28,
    "city": "姫路市",
    "city_kana": "ヒメジシ",
    "town": "安富町三森",
    "town_kana": "ヤストミチョウミツモリ",
    "street": null,
    "office_name": null,
    "office_name_kana": null
  },
  "2412": {
    "postcode": "6712412",
    "prefecture": "兵庫県",
    "prefecture_kana": "ヒョウゴケン",
    "prefecture_code": 28,
    "city": "姫路市",
    "city_kana": "ヒメジシ",
    "town": "安富町名坂",
    "town_kana": "ヤストミチョウナサカ",
    "street": null,
    "office_name": null,
    "office_name_kana": null
  },
  "2413": {
    "postcode": "6712413",
    "prefecture": "兵庫県",
    "prefecture_kana": "ヒョウゴケン",
    "prefecture_code": 28,
    "city": "姫路市",
    "city_kana": "ヒメジシ",
    "town": "安富町末広",
    "town_kana": "ヤストミチョウスエヒロ",
    "street": null,
    "office_name": null,
    "office_name_kana": null
  },
  "2414": {
    "postcode": "6712414",
    "prefecture": "兵庫県",
    "prefecture_kana": "ヒョウゴケン",
    "prefecture_code": 28,
    "city": "姫路市",
    "city_kana": "ヒメジシ",
    "town": "安富町杤原",
    "town_kana": "ヤストミチョウトチハラ",
    "street": null,
    "office_name": null,
    "office_name_kana": null
  },
  "2415": {
    "postcode": "6712415",
    "prefecture": "兵庫県",
    "prefecture_kana": "ヒョウゴケン",
    "prefecture_code": 28,
    "city": "姫路市",
    "city_kana": "ヒメジシ",
    "town": "安富町皆河",
    "town_kana": "ヤストミチョウミナゴ",
    "street": null,
    "office_name": null,
    "office_name_kana": null
  },
  "2416": {
    "postcode": "6712416",
    "prefecture": "兵庫県",
    "prefecture_kana": "ヒョウゴケン",
    "prefecture_code": 28,
    "city": "姫路市",
    "city_kana": "ヒメジシ",
    "town": "安富町関",
    "town_kana": "ヤストミチョウセキ",
    "street": null,
    "office_name": null,
    "office_name_kana": null
  },
  "2421": {
    "postcode": "6712421",
    "prefecture": "兵庫県",
    "prefecture_kana": "ヒョウゴケン",
    "prefecture_code": 28,
    "city": "姫路市",
    "city_kana": "ヒメジシ",
    "town": "安富町長野",
    "town_kana": "ヤストミチョウナガノ",
    "street": null,
    "office_name": null,
    "office_name_kana": null
  },
  "2422": {
    "postcode": "6712422",
    "prefecture": "兵庫県",
    "prefecture_kana": "ヒョウゴケン",
    "prefecture_code": 28,
    "city": "姫路市",
    "city_kana": "ヒメジシ",
    "town": "安富町塩野",
    "town_kana": "ヤストミチョウシオノ",
    "street": null,
    "office_name": null,
    "office_name_kana": null
  },
  "2423": {
    "postcode": "6712423",
    "prefecture": "兵庫県",
    "prefecture_kana": "ヒョウゴケン",
    "prefecture_code": 28,
    "city": "姫路市",
    "city_kana": "ヒメジシ",
    "town": "安富町狭戸",
    "town_kana": "ヤストミチョウセバト",
    "street": null,
    "office_name": null,
    "office_name_kana": null
  },
  "2424": {
    "postcode": "6712424",
    "prefecture": "兵庫県",
    "prefecture_kana": "ヒョウゴケン",
    "prefecture_code": 28,
    "city": "姫路市",
    "city_kana": "ヒメジシ",
    "town": "安富町瀬川",
    "town_kana": "ヤストミチョウセガワ",
    "street": null,
    "office_name": null,
    "office_name_kana": null
  },
  "2425": {
    "postcode": "6712425",
    "prefecture": "兵庫県",
    "prefecture_kana": "ヒョウゴケン",
    "prefecture_code": 28,
    "city": "姫路市",
    "city_kana": "ヒメジシ",
    "town": "安富町三坂",
    "town_kana": "ヤストミチョウミサカ",
    "street": null,
    "office_name": null,
    "office_name_kana": null
  },
  "2426": {
    "postcode": "6712426",
    "prefecture": "兵庫県",
    "prefecture_kana": "ヒョウゴケン",
    "prefecture_code": 28,
    "city": "姫路市",
    "city_kana": "ヒメジシ",
    "town": "安富町植木野",
    "town_kana": "ヤストミチョウウエキノ",
    "street": null,
    "office_name": null,
    "office_name_kana": null
  },
  "2500": {
    "postcode": "6712500",
    "prefecture": "兵庫県",
    "prefecture_kana": "ヒョウゴケン",
    "prefecture_code": 28,
    "city": "宍粟市",
    "city_kana": "シソウシ",
    "town": "",
    "town_kana": "",
    "street": null,
    "office_name": null,
    "office_name_kana": null
  },
  "2501": {
    "postcode": "6712501",
    "prefecture": "兵庫県",
    "prefecture_kana": "ヒョウゴケン",
    "prefecture_code": 28,
    "city": "宍粟市",
    "city_kana": "シソウシ",
    "town": "山崎町上ノ",
    "town_kana": "ヤマサキチョウカミノ",
    "street": null,
    "office_name": null,
    "office_name_kana": null
  },
  "2502": {
    "postcode": "6712502",
    "prefecture": "兵庫県",
    "prefecture_kana": "ヒョウゴケン",
    "prefecture_code": 28,
    "city": "宍粟市",
    "city_kana": "シソウシ",
    "town": "山崎町中野",
    "town_kana": "ヤマサキチョウナカノ",
    "street": null,
    "office_name": null,
    "office_name_kana": null
  },
  "2503": {
    "postcode": "6712503",
    "prefecture": "兵庫県",
    "prefecture_kana": "ヒョウゴケン",
    "prefecture_code": 28,
    "city": "宍粟市",
    "city_kana": "シソウシ",
    "town": "山崎町大谷",
    "town_kana": "ヤマサキチョウオオタニ",
    "street": null,
    "office_name": null,
    "office_name_kana": null
  },
  "2504": {
    "postcode": "6712504",
    "prefecture": "兵庫県",
    "prefecture_kana": "ヒョウゴケン",
    "prefecture_code": 28,
    "city": "宍粟市",
    "city_kana": "シソウシ",
    "town": "山崎町東下野",
    "town_kana": "ヤマサキチョウヒガシシモノ",
    "street": null,
    "office_name": null,
    "office_name_kana": null
  },
  "2505": {
    "postcode": "6712505",
    "prefecture": "兵庫県",
    "prefecture_kana": "ヒョウゴケン",
    "prefecture_code": 28,
    "city": "宍粟市",
    "city_kana": "シソウシ",
    "town": "山崎町片山",
    "town_kana": "ヤマサキチョウカタヤマ",
    "street": null,
    "office_name": null,
    "office_name_kana": null
  },
  "2506": {
    "postcode": "6712506",
    "prefecture": "兵庫県",
    "prefecture_kana": "ヒョウゴケン",
    "prefecture_code": 28,
    "city": "宍粟市",
    "city_kana": "シソウシ",
    "town": "山崎町宇野",
    "town_kana": "ヤマサキチョウウノ",
    "street": null,
    "office_name": null,
    "office_name_kana": null
  },
  "2507": {
    "postcode": "6712507",
    "prefecture": "兵庫県",
    "prefecture_kana": "ヒョウゴケン",
    "prefecture_code": 28,
    "city": "宍粟市",
    "city_kana": "シソウシ",
    "town": "山崎町下牧谷",
    "town_kana": "ヤマサキチョウシモマキダニ",
    "street": null,
    "office_name": null,
    "office_name_kana": null
  },
  "2508": {
    "postcode": "6712508",
    "prefecture": "兵庫県",
    "prefecture_kana": "ヒョウゴケン",
    "prefecture_code": 28,
    "city": "宍粟市",
    "city_kana": "シソウシ",
    "town": "山崎町上牧谷",
    "town_kana": "ヤマサキチョウカミマキダニ",
    "street": null,
    "office_name": null,
    "office_name_kana": null
  },
  "2511": {
    "postcode": "6712511",
    "prefecture": "兵庫県",
    "prefecture_kana": "ヒョウゴケン",
    "prefecture_code": 28,
    "city": "宍粟市",
    "city_kana": "シソウシ",
    "town": "山崎町清野",
    "town_kana": "ヤマサキチョウセイノ",
    "street": null,
    "office_name": null,
    "office_name_kana": null
  },
  "2512": {
    "postcode": "6712512",
    "prefecture": "兵庫県",
    "prefecture_kana": "ヒョウゴケン",
    "prefecture_code": 28,
    "city": "宍粟市",
    "city_kana": "シソウシ",
    "town": "山崎町与位",
    "town_kana": "ヤマサキチョウヨイ",
    "street": null,
    "office_name": null,
    "office_name_kana": null
  },
  "2513": {
    "postcode": "6712513",
    "prefecture": "兵庫県",
    "prefecture_kana": "ヒョウゴケン",
    "prefecture_code": 28,
    "city": "宍粟市",
    "city_kana": "シソウシ",
    "town": "山崎町梯",
    "town_kana": "ヤマサキチョウカケハシ",
    "street": null,
    "office_name": null,
    "office_name_kana": null
  },
  "2514": {
    "postcode": "6712514",
    "prefecture": "兵庫県",
    "prefecture_kana": "ヒョウゴケン",
    "prefecture_code": 28,
    "city": "宍粟市",
    "city_kana": "シソウシ",
    "town": "山崎町田井",
    "town_kana": "ヤマサキチョウタイ",
    "street": null,
    "office_name": null,
    "office_name_kana": null
  },
  "2515": {
    "postcode": "6712515",
    "prefecture": "兵庫県",
    "prefecture_kana": "ヒョウゴケン",
    "prefecture_code": 28,
    "city": "宍粟市",
    "city_kana": "シソウシ",
    "town": "山崎町五十波",
    "town_kana": "ヤマサキチョウイカバ",
    "street": null,
    "office_name": null,
    "office_name_kana": null
  },
  "2516": {
    "postcode": "6712516",
    "prefecture": "兵庫県",
    "prefecture_kana": "ヒョウゴケン",
    "prefecture_code": 28,
    "city": "宍粟市",
    "city_kana": "シソウシ",
    "town": "山崎町三津",
    "town_kana": "ヤマサキチョウミツヅ",
    "street": null,
    "office_name": null,
    "office_name_kana": null
  },
  "2517": {
    "postcode": "6712517",
    "prefecture": "兵庫県",
    "prefecture_kana": "ヒョウゴケン",
    "prefecture_code": 28,
    "city": "宍粟市",
    "city_kana": "シソウシ",
    "town": "山崎町生谷",
    "town_kana": "ヤマサキチョウイギダニ",
    "street": null,
    "office_name": null,
    "office_name_kana": null
  },
  "2518": {
    "postcode": "6712518",
    "prefecture": "兵庫県",
    "prefecture_kana": "ヒョウゴケン",
    "prefecture_code": 28,
    "city": "宍粟市",
    "city_kana": "シソウシ",
    "town": "山崎町横須",
    "town_kana": "ヤマサキチョウヨコス",
    "street": null,
    "office_name": null,
    "office_name_kana": null
  },
  "2519": {
    "postcode": "6712519",
    "prefecture": "兵庫県",
    "prefecture_kana": "ヒョウゴケン",
    "prefecture_code": 28,
    "city": "宍粟市",
    "city_kana": "シソウシ",
    "town": "山崎町下町",
    "town_kana": "ヤマサキチョウシモマチ",
    "street": null,
    "office_name": null,
    "office_name_kana": null
  },
  "2521": {
    "postcode": "6712521",
    "prefecture": "兵庫県",
    "prefecture_kana": "ヒョウゴケン",
    "prefecture_code": 28,
    "city": "宍粟市",
    "city_kana": "シソウシ",
    "town": "山崎町木ノ谷",
    "town_kana": "ヤマサキチョウキノタニ",
    "street": null,
    "office_name": null,
    "office_name_kana": null
  },
  "2522": {
    "postcode": "6712522",
    "prefecture": "兵庫県",
    "prefecture_kana": "ヒョウゴケン",
    "prefecture_code": 28,
    "city": "宍粟市",
    "city_kana": "シソウシ",
    "town": "山崎町杉ケ瀬",
    "town_kana": "ヤマサキチョウスギガセ",
    "street": null,
    "office_name": null,
    "office_name_kana": null
  },
  "2523": {
    "postcode": "6712523",
    "prefecture": "兵庫県",
    "prefecture_kana": "ヒョウゴケン",
    "prefecture_code": 28,
    "city": "宍粟市",
    "city_kana": "シソウシ",
    "town": "山崎町母栖",
    "town_kana": "ヤマサキチョウモス",
    "street": null,
    "office_name": null,
    "office_name_kana": null
  },
  "2524": {
    "postcode": "6712524",
    "prefecture": "兵庫県",
    "prefecture_kana": "ヒョウゴケン",
    "prefecture_code": 28,
    "city": "宍粟市",
    "city_kana": "シソウシ",
    "town": "山崎町三谷",
    "town_kana": "ヤマサキチョウミタニ",
    "street": null,
    "office_name": null,
    "office_name_kana": null
  },
  "2525": {
    "postcode": "6712525",
    "prefecture": "兵庫県",
    "prefecture_kana": "ヒョウゴケン",
    "prefecture_code": 28,
    "city": "宍粟市",
    "city_kana": "シソウシ",
    "town": "山崎町神谷",
    "town_kana": "ヤマサキチョウコウダニ",
    "street": null,
    "office_name": null,
    "office_name_kana": null
  },
  "2526": {
    "postcode": "6712526",
    "prefecture": "兵庫県",
    "prefecture_kana": "ヒョウゴケン",
    "prefecture_code": 28,
    "city": "宍粟市",
    "city_kana": "シソウシ",
    "town": "山崎町矢原",
    "town_kana": "ヤマサキチョウヤバラ",
    "street": null,
    "office_name": null,
    "office_name_kana": null
  },
  "2527": {
    "postcode": "6712527",
    "prefecture": "兵庫県",
    "prefecture_kana": "ヒョウゴケン",
    "prefecture_code": 28,
    "city": "宍粟市",
    "city_kana": "シソウシ",
    "town": "山崎町岸田",
    "town_kana": "ヤマサキチョウキシダ",
    "street": null,
    "office_name": null,
    "office_name_kana": null
  },
  "2528": {
    "postcode": "6712528",
    "prefecture": "兵庫県",
    "prefecture_kana": "ヒョウゴケン",
    "prefecture_code": 28,
    "city": "宍粟市",
    "city_kana": "シソウシ",
    "town": "山崎町野々上",
    "town_kana": "ヤマサキチョウノノウエ",
    "street": null,
    "office_name": null,
    "office_name_kana": null
  },
  "2531": {
    "postcode": "6712531",
    "prefecture": "兵庫県",
    "prefecture_kana": "ヒョウゴケン",
    "prefecture_code": 28,
    "city": "宍粟市",
    "city_kana": "シソウシ",
    "town": "山崎町中",
    "town_kana": "ヤマサキチョウナカ",
    "street": null,
    "office_name": null,
    "office_name_kana": null
  },
  "2532": {
    "postcode": "6712532",
    "prefecture": "兵庫県",
    "prefecture_kana": "ヒョウゴケン",
    "prefecture_code": 28,
    "city": "宍粟市",
    "city_kana": "シソウシ",
    "town": "山崎町高所",
    "town_kana": "ヤマサキチョウコウゾ",
    "street": null,
    "office_name": null,
    "office_name_kana": null
  },
  "2533": {
    "postcode": "6712533",
    "prefecture": "兵庫県",
    "prefecture_kana": "ヒョウゴケン",
    "prefecture_code": 28,
    "city": "宍粟市",
    "city_kana": "シソウシ",
    "town": "山崎町須賀沢",
    "town_kana": "ヤマサキチョウスカザワ",
    "street": null,
    "office_name": null,
    "office_name_kana": null
  },
  "2534": {
    "postcode": "6712534",
    "prefecture": "兵庫県",
    "prefecture_kana": "ヒョウゴケン",
    "prefecture_code": 28,
    "city": "宍粟市",
    "city_kana": "シソウシ",
    "town": "山崎町川戸",
    "town_kana": "ヤマサキチョウカワト",
    "street": null,
    "office_name": null,
    "office_name_kana": null
  },
  "2535": {
    "postcode": "6712535",
    "prefecture": "兵庫県",
    "prefecture_kana": "ヒョウゴケン",
    "prefecture_code": 28,
    "city": "宍粟市",
    "city_kana": "シソウシ",
    "town": "山崎町宇原",
    "town_kana": "ヤマサキチョウウワラ",
    "street": null,
    "office_name": null,
    "office_name_kana": null
  },
  "2536": {
    "postcode": "6712536",
    "prefecture": "兵庫県",
    "prefecture_kana": "ヒョウゴケン",
    "prefecture_code": 28,
    "city": "宍粟市",
    "city_kana": "シソウシ",
    "town": "山崎町下宇原",
    "town_kana": "ヤマサキチョウシモウワラ",
    "street": null,
    "office_name": null,
    "office_name_kana": null
  },
  "2541": {
    "postcode": "6712541",
    "prefecture": "兵庫県",
    "prefecture_kana": "ヒョウゴケン",
    "prefecture_code": 28,
    "city": "宍粟市",
    "city_kana": "シソウシ",
    "town": "山崎町下広瀬",
    "town_kana": "ヤマサキチョウシモビロセ",
    "street": null,
    "office_name": null,
    "office_name_kana": null
  },
  "2542": {
    "postcode": "6712542",
    "prefecture": "兵庫県",
    "prefecture_kana": "ヒョウゴケン",
    "prefecture_code": 28,
    "city": "宍粟市",
    "city_kana": "シソウシ",
    "town": "山崎町船元",
    "town_kana": "ヤマサキチョウフナモト",
    "street": null,
    "office_name": null,
    "office_name_kana": null
  },
  "2543": {
    "postcode": "6712543",
    "prefecture": "兵庫県",
    "prefecture_kana": "ヒョウゴケン",
    "prefecture_code": 28,
    "city": "宍粟市",
    "city_kana": "シソウシ",
    "town": "山崎町野",
    "town_kana": "ヤマサキチョウノ",
    "street": null,
    "office_name": null,
    "office_name_kana": null
  },
  "2544": {
    "postcode": "6712544",
    "prefecture": "兵庫県",
    "prefecture_kana": "ヒョウゴケン",
    "prefecture_code": 28,
    "city": "宍粟市",
    "city_kana": "シソウシ",
    "town": "山崎町千本屋",
    "town_kana": "ヤマサキチョウセンボンヤ",
    "street": null,
    "office_name": null,
    "office_name_kana": null
  },
  "2545": {
    "postcode": "6712545",
    "prefecture": "兵庫県",
    "prefecture_kana": "ヒョウゴケン",
    "prefecture_code": 28,
    "city": "宍粟市",
    "city_kana": "シソウシ",
    "town": "山崎町中井",
    "town_kana": "ヤマサキチョウナカイ",
    "street": null,
    "office_name": null,
    "office_name_kana": null
  },
  "2551": {
    "postcode": "6712551",
    "prefecture": "兵庫県",
    "prefecture_kana": "ヒョウゴケン",
    "prefecture_code": 28,
    "city": "宍粟市",
    "city_kana": "シソウシ",
    "town": "山崎町春安",
    "town_kana": "ヤマサキチョウハルヤス",
    "street": null,
    "office_name": null,
    "office_name_kana": null
  },
  "2552": {
    "postcode": "6712552",
    "prefecture": "兵庫県",
    "prefecture_kana": "ヒョウゴケン",
    "prefecture_code": 28,
    "city": "宍粟市",
    "city_kana": "シソウシ",
    "town": "山崎町段",
    "town_kana": "ヤマサキチョウダン",
    "street": null,
    "office_name": null,
    "office_name_kana": null
  },
  "2553": {
    "postcode": "6712553",
    "prefecture": "兵庫県",
    "prefecture_kana": "ヒョウゴケン",
    "prefecture_code": 28,
    "city": "宍粟市",
    "city_kana": "シソウシ",
    "town": "山崎町鶴木",
    "town_kana": "ヤマサキチョウツルギ",
    "street": null,
    "office_name": null,
    "office_name_kana": null
  },
  "2554": {
    "postcode": "6712554",
    "prefecture": "兵庫県",
    "prefecture_kana": "ヒョウゴケン",
    "prefecture_code": 28,
    "city": "宍粟市",
    "city_kana": "シソウシ",
    "town": "山崎町御名",
    "town_kana": "ヤマサキチョウゴミョウ",
    "street": null,
    "office_name": null,
    "office_name_kana": null
  },
  "2555": {
    "postcode": "6712555",
    "prefecture": "兵庫県",
    "prefecture_kana": "ヒョウゴケン",
    "prefecture_code": 28,
    "city": "宍粟市",
    "city_kana": "シソウシ",
    "town": "山崎町金谷",
    "town_kana": "ヤマサキチョウカナヤ",
    "street": null,
    "office_name": null,
    "office_name_kana": null
  },
  "2556": {
    "postcode": "6712556",
    "prefecture": "兵庫県",
    "prefecture_kana": "ヒョウゴケン",
    "prefecture_code": 28,
    "city": "宍粟市",
    "city_kana": "シソウシ",
    "town": "山崎町下比地",
    "town_kana": "ヤマサキチョウシモヒジ",
    "street": null,
    "office_name": null,
    "office_name_kana": null
  },
  "2557": {
    "postcode": "6712557",
    "prefecture": "兵庫県",
    "prefecture_kana": "ヒョウゴケン",
    "prefecture_code": 28,
    "city": "宍粟市",
    "city_kana": "シソウシ",
    "town": "山崎町中比地",
    "town_kana": "ヤマサキチョウナカヒジ",
    "street": null,
    "office_name": null,
    "office_name_kana": null
  },
  "2558": {
    "postcode": "6712558",
    "prefecture": "兵庫県",
    "prefecture_kana": "ヒョウゴケン",
    "prefecture_code": 28,
    "city": "宍粟市",
    "city_kana": "シソウシ",
    "town": "山崎町上比地",
    "town_kana": "ヤマサキチョウカミヒジ",
    "street": null,
    "office_name": null,
    "office_name_kana": null
  },
  "2560": {
    "postcode": "6712560",
    "prefecture": "兵庫県",
    "prefecture_kana": "ヒョウゴケン",
    "prefecture_code": 28,
    "city": "宍粟市",
    "city_kana": "シソウシ",
    "town": "山崎町塩山",
    "town_kana": "ヤマサキチョウシオヤマ",
    "street": null,
    "office_name": null,
    "office_name_kana": null
  },
  "2561": {
    "postcode": "6712561",
    "prefecture": "兵庫県",
    "prefecture_kana": "ヒョウゴケン",
    "prefecture_code": 28,
    "city": "宍粟市",
    "city_kana": "シソウシ",
    "town": "山崎町小茅野",
    "town_kana": "ヤマサキチョウコガイノ",
    "street": null,
    "office_name": null,
    "office_name_kana": null
  },
  "2562": {
    "postcode": "6712562",
    "prefecture": "兵庫県",
    "prefecture_kana": "ヒョウゴケン",
    "prefecture_code": 28,
    "city": "宍粟市",
    "city_kana": "シソウシ",
    "town": "山崎町大沢",
    "town_kana": "ヤマサキチョウオオサワ",
    "street": null,
    "office_name": null,
    "office_name_kana": null
  },
  "2563": {
    "postcode": "6712563",
    "prefecture": "兵庫県",
    "prefecture_kana": "ヒョウゴケン",
    "prefecture_code": 28,
    "city": "宍粟市",
    "city_kana": "シソウシ",
    "town": "山崎町塩田",
    "town_kana": "ヤマサキチョウシオタ",
    "street": null,
    "office_name": null,
    "office_name_kana": null
  },
  "2564": {
    "postcode": "6712564",
    "prefecture": "兵庫県",
    "prefecture_kana": "ヒョウゴケン",
    "prefecture_code": 28,
    "city": "宍粟市",
    "city_kana": "シソウシ",
    "town": "山崎町青木",
    "town_kana": "ヤマサキチョウアオキ",
    "street": null,
    "office_name": null,
    "office_name_kana": null
  },
  "2565": {
    "postcode": "6712565",
    "prefecture": "兵庫県",
    "prefecture_kana": "ヒョウゴケン",
    "prefecture_code": 28,
    "city": "宍粟市",
    "city_kana": "シソウシ",
    "town": "山崎町高下",
    "town_kana": "ヤマサキチョウコウゲ",
    "street": null,
    "office_name": null,
    "office_name_kana": null
  },
  "2566": {
    "postcode": "6712566",
    "prefecture": "兵庫県",
    "prefecture_kana": "ヒョウゴケン",
    "prefecture_code": 28,
    "city": "宍粟市",
    "city_kana": "シソウシ",
    "town": "山崎町市場",
    "town_kana": "ヤマサキチョウイチバ",
    "street": null,
    "office_name": null,
    "office_name_kana": null
  },
  "2567": {
    "postcode": "6712567",
    "prefecture": "兵庫県",
    "prefecture_kana": "ヒョウゴケン",
    "prefecture_code": 28,
    "city": "宍粟市",
    "city_kana": "シソウシ",
    "town": "山崎町木谷",
    "town_kana": "ヤマサキチョウキダニ",
    "street": null,
    "office_name": null,
    "office_name_kana": null
  },
  "2568": {
    "postcode": "6712568",
    "prefecture": "兵庫県",
    "prefecture_kana": "ヒョウゴケン",
    "prefecture_code": 28,
    "city": "宍粟市",
    "city_kana": "シソウシ",
    "town": "山崎町葛根",
    "town_kana": "ヤマサキチョウカズラネ",
    "street": null,
    "office_name": null,
    "office_name_kana": null
  },
  "2569": {
    "postcode": "6712569",
    "prefecture": "兵庫県",
    "prefecture_kana": "ヒョウゴケン",
    "prefecture_code": 28,
    "city": "宍粟市",
    "city_kana": "シソウシ",
    "town": "山崎町土万",
    "town_kana": "ヤマサキチョウヒジマ",
    "street": null,
    "office_name": null,
    "office_name_kana": null
  },
  "2570": {
    "postcode": "6712570",
    "prefecture": "兵庫県",
    "prefecture_kana": "ヒョウゴケン",
    "prefecture_code": 28,
    "city": "宍粟市",
    "city_kana": "シソウシ",
    "town": "山崎町加生",
    "town_kana": "ヤマサキチョウカショウ",
    "street": null,
    "office_name": null,
    "office_name_kana": null
  },
  "2571": {
    "postcode": "6712571",
    "prefecture": "兵庫県",
    "prefecture_kana": "ヒョウゴケン",
    "prefecture_code": 28,
    "city": "宍粟市",
    "city_kana": "シソウシ",
    "town": "山崎町上寺",
    "town_kana": "ヤマサキチョウウエデラ",
    "street": null,
    "office_name": null,
    "office_name_kana": null
  },
  "2572": {
    "postcode": "6712572",
    "prefecture": "兵庫県",
    "prefecture_kana": "ヒョウゴケン",
    "prefecture_code": 28,
    "city": "宍粟市",
    "city_kana": "シソウシ",
    "town": "山崎町庄能",
    "town_kana": "ヤマサキチョウショウノウ",
    "street": null,
    "office_name": null,
    "office_name_kana": null
  },
  "2573": {
    "postcode": "6712573",
    "prefecture": "兵庫県",
    "prefecture_kana": "ヒョウゴケン",
    "prefecture_code": 28,
    "city": "宍粟市",
    "city_kana": "シソウシ",
    "town": "山崎町今宿",
    "town_kana": "ヤマサキチョウイマジュク",
    "street": null,
    "office_name": null,
    "office_name_kana": null
  },
  "2574": {
    "postcode": "6712574",
    "prefecture": "兵庫県",
    "prefecture_kana": "ヒョウゴケン",
    "prefecture_code": 28,
    "city": "宍粟市",
    "city_kana": "シソウシ",
    "town": "山崎町中広瀬",
    "town_kana": "ヤマサキチョウナカビロセ",
    "street": null,
    "office_name": null,
    "office_name_kana": null
  },
  "2575": {
    "postcode": "6712575",
    "prefecture": "兵庫県",
    "prefecture_kana": "ヒョウゴケン",
    "prefecture_code": 28,
    "city": "宍粟市",
    "city_kana": "シソウシ",
    "town": "山崎町山田",
    "town_kana": "ヤマサキチョウヤマダ",
    "street": null,
    "office_name": null,
    "office_name_kana": null
  },
  "2576": {
    "postcode": "6712576",
    "prefecture": "兵庫県",
    "prefecture_kana": "ヒョウゴケン",
    "prefecture_code": 28,
    "city": "宍粟市",
    "city_kana": "シソウシ",
    "town": "山崎町鹿沢",
    "town_kana": "ヤマサキチョウシカサワ",
    "street": null,
    "office_name": null,
    "office_name_kana": null
  },
  "2577": {
    "postcode": "6712577",
    "prefecture": "兵庫県",
    "prefecture_kana": "ヒョウゴケン",
    "prefecture_code": 28,
    "city": "宍粟市",
    "city_kana": "シソウシ",
    "town": "山崎町山崎",
    "town_kana": "ヤマサキチョウヤマサキ",
    "street": null,
    "office_name": null,
    "office_name_kana": null
  },
  "2578": {
    "postcode": "6712578",
    "prefecture": "兵庫県",
    "prefecture_kana": "ヒョウゴケン",
    "prefecture_code": 28,
    "city": "宍粟市",
    "city_kana": "シソウシ",
    "town": "山崎町元山崎",
    "town_kana": "ヤマサキチョウモトヤマサキ",
    "street": null,
    "office_name": null,
    "office_name_kana": null
  },
  "2579": {
    "postcode": "6712579",
    "prefecture": "兵庫県",
    "prefecture_kana": "ヒョウゴケン",
    "prefecture_code": 28,
    "city": "宍粟市",
    "city_kana": "シソウシ",
    "town": "山崎町門前",
    "town_kana": "ヤマサキチョウモンゼン",
    "street": null,
    "office_name": null,
    "office_name_kana": null
  },
  "2593": {
    "postcode": "6712593",
    "prefecture": "兵庫県",
    "prefecture_kana": "ヒョウゴケン",
    "prefecture_code": 28,
    "city": "宍粟市",
    "city_kana": "シソウシ",
    "town": "山崎町中広瀬",
    "town_kana": "ヤマサキチョウナカビロセ",
    "street": "１３３−６",
    "office_name": "宍粟市役所",
    "office_name_kana": "シソウシヤクシヨ"
  },
  "2595": {
    "postcode": "6712595",
    "prefecture": "兵庫県",
    "prefecture_kana": "ヒョウゴケン",
    "prefecture_code": 28,
    "city": "宍粟市",
    "city_kana": "シソウシ",
    "town": "山崎町山崎",
    "town_kana": "ヤマサキチョウヤマサキ",
    "street": "１９０（播磨山崎郵便局私書箱第２号）",
    "office_name": "西兵庫信用金庫",
    "office_name_kana": "ニシヒヨウゴシンヨウキンコ"
  },
  "2598": {
    "postcode": "6712598",
    "prefecture": "兵庫県",
    "prefecture_kana": "ヒョウゴケン",
    "prefecture_code": 28,
    "city": "宍粟市",
    "city_kana": "シソウシ",
    "town": "山崎町鹿沢",
    "town_kana": "ヤマサキチョウシカサワ",
    "street": "７８番地７",
    "office_name": "宍粟市　山崎市民局",
    "office_name_kana": "シソウシ ヤマサキシミンキヨク"
  },
  "3201": {
    "postcode": "6713201",
    "prefecture": "兵庫県",
    "prefecture_kana": "ヒョウゴケン",
    "prefecture_code": 28,
    "city": "宍粟市",
    "city_kana": "シソウシ",
    "town": "千種町千草",
    "town_kana": "チクサチョウチクサ",
    "street": null,
    "office_name": null,
    "office_name_kana": null
  },
  "3202": {
    "postcode": "6713202",
    "prefecture": "兵庫県",
    "prefecture_kana": "ヒョウゴケン",
    "prefecture_code": 28,
    "city": "宍粟市",
    "city_kana": "シソウシ",
    "town": "千種町黒土",
    "town_kana": "チクサチョウクロヅチ",
    "street": null,
    "office_name": null,
    "office_name_kana": null
  },
  "3211": {
    "postcode": "6713211",
    "prefecture": "兵庫県",
    "prefecture_kana": "ヒョウゴケン",
    "prefecture_code": 28,
    "city": "宍粟市",
    "city_kana": "シソウシ",
    "town": "千種町岩野辺",
    "town_kana": "チクサチョウイワノベ",
    "street": null,
    "office_name": null,
    "office_name_kana": null
  },
  "3212": {
    "postcode": "6713212",
    "prefecture": "兵庫県",
    "prefecture_kana": "ヒョウゴケン",
    "prefecture_code": 28,
    "city": "宍粟市",
    "city_kana": "シソウシ",
    "town": "千種町鷹巣",
    "town_kana": "チクサチョウタカノス",
    "street": null,
    "office_name": null,
    "office_name_kana": null
  },
  "3221": {
    "postcode": "6713221",
    "prefecture": "兵庫県",
    "prefecture_kana": "ヒョウゴケン",
    "prefecture_code": 28,
    "city": "宍粟市",
    "city_kana": "シソウシ",
    "town": "千種町西山",
    "town_kana": "チクサチョウニシヤマ",
    "street": null,
    "office_name": null,
    "office_name_kana": null
  },
  "3222": {
    "postcode": "6713222",
    "prefecture": "兵庫県",
    "prefecture_kana": "ヒョウゴケン",
    "prefecture_code": 28,
    "city": "宍粟市",
    "city_kana": "シソウシ",
    "town": "千種町奥西山",
    "town_kana": "チクサチョウオクニシヤマ",
    "street": null,
    "office_name": null,
    "office_name_kana": null
  },
  "3223": {
    "postcode": "6713223",
    "prefecture": "兵庫県",
    "prefecture_kana": "ヒョウゴケン",
    "prefecture_code": 28,
    "city": "宍粟市",
    "city_kana": "シソウシ",
    "town": "千種町室",
    "town_kana": "チクサチョウムロ",
    "street": null,
    "office_name": null,
    "office_name_kana": null
  },
  "3224": {
    "postcode": "6713224",
    "prefecture": "兵庫県",
    "prefecture_kana": "ヒョウゴケン",
    "prefecture_code": 28,
    "city": "宍粟市",
    "city_kana": "シソウシ",
    "town": "千種町七野",
    "town_kana": "チクサチョウヒツノ",
    "street": null,
    "office_name": null,
    "office_name_kana": null
  },
  "3225": {
    "postcode": "6713225",
    "prefecture": "兵庫県",
    "prefecture_kana": "ヒョウゴケン",
    "prefecture_code": 28,
    "city": "宍粟市",
    "city_kana": "シソウシ",
    "town": "千種町下河野",
    "town_kana": "チクサチョウケゴノ",
    "street": null,
    "office_name": null,
    "office_name_kana": null
  },
  "3231": {
    "postcode": "6713231",
    "prefecture": "兵庫県",
    "prefecture_kana": "ヒョウゴケン",
    "prefecture_code": 28,
    "city": "宍粟市",
    "city_kana": "シソウシ",
    "town": "千種町河呂",
    "town_kana": "チクサチョウコウロ",
    "street": null,
    "office_name": null,
    "office_name_kana": null
  },
  "3232": {
    "postcode": "6713232",
    "prefecture": "兵庫県",
    "prefecture_kana": "ヒョウゴケン",
    "prefecture_code": 28,
    "city": "宍粟市",
    "city_kana": "シソウシ",
    "town": "千種町河内",
    "town_kana": "チクサチョウコウチ",
    "street": null,
    "office_name": null,
    "office_name_kana": null
  },
  "3233": {
    "postcode": "6713233",
    "prefecture": "兵庫県",
    "prefecture_kana": "ヒョウゴケン",
    "prefecture_code": 28,
    "city": "宍粟市",
    "city_kana": "シソウシ",
    "town": "千種町西河内",
    "town_kana": "チクサチョウニシゴウチ",
    "street": null,
    "office_name": null,
    "office_name_kana": null
  },
  "4101": {
    "postcode": "6714101",
    "prefecture": "兵庫県",
    "prefecture_kana": "ヒョウゴケン",
    "prefecture_code": 28,
    "city": "宍粟市",
    "city_kana": "シソウシ",
    "town": "一宮町倉床",
    "town_kana": "イチノミヤチョウクラトコ",
    "street": null,
    "office_name": null,
    "office_name_kana": null
  },
  "4102": {
    "postcode": "6714102",
    "prefecture": "兵庫県",
    "prefecture_kana": "ヒョウゴケン",
    "prefecture_code": 28,
    "city": "宍粟市",
    "city_kana": "シソウシ",
    "town": "一宮町横山",
    "town_kana": "イチノミヤチョウヨコヤマ",
    "street": null,
    "office_name": null,
    "office_name_kana": null
  },
  "4103": {
    "postcode": "6714103",
    "prefecture": "兵庫県",
    "prefecture_kana": "ヒョウゴケン",
    "prefecture_code": 28,
    "city": "宍粟市",
    "city_kana": "シソウシ",
    "town": "一宮町黒原",
    "town_kana": "イチノミヤチョウクロハラ",
    "street": null,
    "office_name": null,
    "office_name_kana": null
  },
  "4104": {
    "postcode": "6714104",
    "prefecture": "兵庫県",
    "prefecture_kana": "ヒョウゴケン",
    "prefecture_code": 28,
    "city": "宍粟市",
    "city_kana": "シソウシ",
    "town": "一宮町井内",
    "town_kana": "イチノミヤチョウイウチ",
    "street": null,
    "office_name": null,
    "office_name_kana": null
  },
  "4105": {
    "postcode": "6714105",
    "prefecture": "兵庫県",
    "prefecture_kana": "ヒョウゴケン",
    "prefecture_code": 28,
    "city": "宍粟市",
    "city_kana": "シソウシ",
    "town": "一宮町上岸田",
    "town_kana": "イチノミヤチョウカミキシダ",
    "street": null,
    "office_name": null,
    "office_name_kana": null
  },
  "4106": {
    "postcode": "6714106",
    "prefecture": "兵庫県",
    "prefecture_kana": "ヒョウゴケン",
    "prefecture_code": 28,
    "city": "宍粟市",
    "city_kana": "シソウシ",
    "town": "一宮町百千家満",
    "town_kana": "イチノミヤチョウオチヤマ",
    "street": null,
    "office_name": null,
    "office_name_kana": null
  },
  "4107": {
    "postcode": "6714107",
    "prefecture": "兵庫県",
    "prefecture_kana": "ヒョウゴケン",
    "prefecture_code": 28,
    "city": "宍粟市",
    "city_kana": "シソウシ",
    "town": "一宮町草木",
    "town_kana": "イチノミヤチョウクサギ",
    "street": null,
    "office_name": null,
    "office_name_kana": null
  },
  "4108": {
    "postcode": "6714108",
    "prefecture": "兵庫県",
    "prefecture_kana": "ヒョウゴケン",
    "prefecture_code": 28,
    "city": "宍粟市",
    "city_kana": "シソウシ",
    "town": "一宮町千町",
    "town_kana": "イチノミヤチョウセンチョウ",
    "street": null,
    "office_name": null,
    "office_name_kana": null
  },
  "4111": {
    "postcode": "6714111",
    "prefecture": "兵庫県",
    "prefecture_kana": "ヒョウゴケン",
    "prefecture_code": 28,
    "city": "宍粟市",
    "city_kana": "シソウシ",
    "town": "一宮町公文",
    "town_kana": "イチノミヤチョウクモン",
    "street": null,
    "office_name": null,
    "office_name_kana": null
  },
  "4112": {
    "postcode": "6714112",
    "prefecture": "兵庫県",
    "prefecture_kana": "ヒョウゴケン",
    "prefecture_code": 28,
    "city": "宍粟市",
    "city_kana": "シソウシ",
    "town": "一宮町森添",
    "town_kana": "イチノミヤチョウモリソエ",
    "street": null,
    "office_name": null,
    "office_name_kana": null
  },
  "4113": {
    "postcode": "6714113",
    "prefecture": "兵庫県",
    "prefecture_kana": "ヒョウゴケン",
    "prefecture_code": 28,
    "city": "宍粟市",
    "city_kana": "シソウシ",
    "town": "一宮町三方町",
    "town_kana": "イチノミヤチョウミカタマチ",
    "street": null,
    "office_name": null,
    "office_name_kana": null
  },
  "4114": {
    "postcode": "6714114",
    "prefecture": "兵庫県",
    "prefecture_kana": "ヒョウゴケン",
    "prefecture_code": 28,
    "city": "宍粟市",
    "city_kana": "シソウシ",
    "town": "一宮町福野",
    "town_kana": "イチノミヤチョウフクノ",
    "street": null,
    "office_name": null,
    "office_name_kana": null
  },
  "4115": {
    "postcode": "6714115",
    "prefecture": "兵庫県",
    "prefecture_kana": "ヒョウゴケン",
    "prefecture_code": 28,
    "city": "宍粟市",
    "city_kana": "シソウシ",
    "town": "一宮町河原田",
    "town_kana": "イチノミヤチョウカワハラダ",
    "street": null,
    "office_name": null,
    "office_name_kana": null
  },
  "4121": {
    "postcode": "6714121",
    "prefecture": "兵庫県",
    "prefecture_kana": "ヒョウゴケン",
    "prefecture_code": 28,
    "city": "宍粟市",
    "city_kana": "シソウシ",
    "town": "一宮町福中",
    "town_kana": "イチノミヤチョウフクナカ",
    "street": null,
    "office_name": null,
    "office_name_kana": null
  },
  "4122": {
    "postcode": "6714122",
    "prefecture": "兵庫県",
    "prefecture_kana": "ヒョウゴケン",
    "prefecture_code": 28,
    "city": "宍粟市",
    "city_kana": "シソウシ",
    "town": "一宮町福知",
    "town_kana": "イチノミヤチョウフクチ",
    "street": null,
    "office_name": null,
    "office_name_kana": null
  },
  "4123": {
    "postcode": "6714123",
    "prefecture": "兵庫県",
    "prefecture_kana": "ヒョウゴケン",
    "prefecture_code": 28,
    "city": "宍粟市",
    "city_kana": "シソウシ",
    "town": "一宮町生栖",
    "town_kana": "イチノミヤチョウイギス",
    "street": null,
    "office_name": null,
    "office_name_kana": null
  },
  "4124": {
    "postcode": "6714124",
    "prefecture": "兵庫県",
    "prefecture_kana": "ヒョウゴケン",
    "prefecture_code": 28,
    "city": "宍粟市",
    "city_kana": "シソウシ",
    "town": "一宮町深河谷",
    "town_kana": "イチノミヤチョウフカダニ",
    "street": null,
    "office_name": null,
    "office_name_kana": null
  },
  "4125": {
    "postcode": "6714125",
    "prefecture": "兵庫県",
    "prefecture_kana": "ヒョウゴケン",
    "prefecture_code": 28,
    "city": "宍粟市",
    "city_kana": "シソウシ",
    "town": "一宮町西深",
    "town_kana": "イチノミヤチョウニシブカ",
    "street": null,
    "office_name": null,
    "office_name_kana": null
  },
  "4131": {
    "postcode": "6714131",
    "prefecture": "兵庫県",
    "prefecture_kana": "ヒョウゴケン",
    "prefecture_code": 28,
    "city": "宍粟市",
    "city_kana": "シソウシ",
    "town": "一宮町安積",
    "town_kana": "イチノミヤチョウアヅミ",
    "street": null,
    "office_name": null,
    "office_name_kana": null
  },
  "4132": {
    "postcode": "6714132",
    "prefecture": "兵庫県",
    "prefecture_kana": "ヒョウゴケン",
    "prefecture_code": 28,
    "city": "宍粟市",
    "city_kana": "シソウシ",
    "town": "一宮町東市場",
    "town_kana": "イチノミヤチョウヒガシイチバ",
    "street": null,
    "office_name": null,
    "office_name_kana": null
  },
  "4133": {
    "postcode": "6714133",
    "prefecture": "兵庫県",
    "prefecture_kana": "ヒョウゴケン",
    "prefecture_code": 28,
    "city": "宍粟市",
    "city_kana": "シソウシ",
    "town": "一宮町須行名",
    "town_kana": "イチノミヤチョウスギョウメ",
    "street": null,
    "office_name": null,
    "office_name_kana": null
  },
  "4134": {
    "postcode": "6714134",
    "prefecture": "兵庫県",
    "prefecture_kana": "ヒョウゴケン",
    "prefecture_code": 28,
    "city": "宍粟市",
    "city_kana": "シソウシ",
    "town": "一宮町伊和",
    "town_kana": "イチノミヤチョウイワ",
    "street": null,
    "office_name": null,
    "office_name_kana": null
  },
  "4135": {
    "postcode": "6714135",
    "prefecture": "兵庫県",
    "prefecture_kana": "ヒョウゴケン",
    "prefecture_code": 28,
    "city": "宍粟市",
    "city_kana": "シソウシ",
    "town": "一宮町安黒",
    "town_kana": "イチノミヤチョウアグロ",
    "street": null,
    "office_name": null,
    "office_name_kana": null
  },
  "4136": {
    "postcode": "6714136",
    "prefecture": "兵庫県",
    "prefecture_kana": "ヒョウゴケン",
    "prefecture_code": 28,
    "city": "宍粟市",
    "city_kana": "シソウシ",
    "town": "一宮町嶋田",
    "town_kana": "イチノミヤチョウシマダ",
    "street": null,
    "office_name": null,
    "office_name_kana": null
  },
  "4137": {
    "postcode": "6714137",
    "prefecture": "兵庫県",
    "prefecture_kana": "ヒョウゴケン",
    "prefecture_code": 28,
    "city": "宍粟市",
    "city_kana": "シソウシ",
    "town": "一宮町閏賀",
    "town_kana": "イチノミヤチョウウルカ",
    "street": null,
    "office_name": null,
    "office_name_kana": null
  },
  "4138": {
    "postcode": "6714138",
    "prefecture": "兵庫県",
    "prefecture_kana": "ヒョウゴケン",
    "prefecture_code": 28,
    "city": "宍粟市",
    "city_kana": "シソウシ",
    "town": "一宮町西安積",
    "town_kana": "イチノミヤチョウニシアヅミ",
    "street": null,
    "office_name": null,
    "office_name_kana": null
  },
  "4139": {
    "postcode": "6714139",
    "prefecture": "兵庫県",
    "prefecture_kana": "ヒョウゴケン",
    "prefecture_code": 28,
    "city": "宍粟市",
    "city_kana": "シソウシ",
    "town": "一宮町杉田",
    "town_kana": "イチノミヤチョウスギタ",
    "street": null,
    "office_name": null,
    "office_name_kana": null
  },
  "4141": {
    "postcode": "6714141",
    "prefecture": "兵庫県",
    "prefecture_kana": "ヒョウゴケン",
    "prefecture_code": 28,
    "city": "宍粟市",
    "city_kana": "シソウシ",
    "town": "一宮町東河内",
    "town_kana": "イチノミヤチョウヒガシゴウチ",
    "street": null,
    "office_name": null,
    "office_name_kana": null
  },
  "4142": {
    "postcode": "6714142",
    "prefecture": "兵庫県",
    "prefecture_kana": "ヒョウゴケン",
    "prefecture_code": 28,
    "city": "宍粟市",
    "city_kana": "シソウシ",
    "town": "一宮町能倉",
    "town_kana": "イチノミヤチョウヨクラ",
    "street": null,
    "office_name": null,
    "office_name_kana": null
  },
  "4143": {
    "postcode": "6714143",
    "prefecture": "兵庫県",
    "prefecture_kana": "ヒョウゴケン",
    "prefecture_code": 28,
    "city": "宍粟市",
    "city_kana": "シソウシ",
    "town": "一宮町上野田",
    "town_kana": "イチノミヤチョウカミノダ",
    "street": null,
    "office_name": null,
    "office_name_kana": null
  },
  "4144": {
    "postcode": "6714144",
    "prefecture": "兵庫県",
    "prefecture_kana": "ヒョウゴケン",
    "prefecture_code": 28,
    "city": "宍粟市",
    "city_kana": "シソウシ",
    "town": "一宮町下野田",
    "town_kana": "イチノミヤチョウシモノダ",
    "street": null,
    "office_name": null,
    "office_name_kana": null
  },
  "4192": {
    "postcode": "6714192",
    "prefecture": "兵庫県",
    "prefecture_kana": "ヒョウゴケン",
    "prefecture_code": 28,
    "city": "宍粟市",
    "city_kana": "シソウシ",
    "town": "一宮町安積",
    "town_kana": "イチノミヤチョウアヅミ",
    "street": "１３４７番地３",
    "office_name": "宍粟市　一宮市民局",
    "office_name_kana": "シソウシ イチノミヤシミンキヨク"
  },
  "4193": {
    "postcode": "6714193",
    "prefecture": "兵庫県",
    "prefecture_kana": "ヒョウゴケン",
    "prefecture_code": 28,
    "city": "宍粟市",
    "city_kana": "シソウシ",
    "town": "一宮町東市場",
    "town_kana": "イチノミヤチョウヒガシイチバ",
    "street": "４２９−１",
    "office_name": "ハリマ農業協同組合",
    "office_name_kana": "ハリマノウギヨウキヨウドウクミアイ"
  },
  "4201": {
    "postcode": "6714201",
    "prefecture": "兵庫県",
    "prefecture_kana": "ヒョウゴケン",
    "prefecture_code": 28,
    "city": "宍粟市",
    "city_kana": "シソウシ",
    "town": "波賀町戸倉",
    "town_kana": "ハガチョウトクラ",
    "street": null,
    "office_name": null,
    "office_name_kana": null
  },
  "4202": {
    "postcode": "6714202",
    "prefecture": "兵庫県",
    "prefecture_kana": "ヒョウゴケン",
    "prefecture_code": 28,
    "city": "宍粟市",
    "city_kana": "シソウシ",
    "town": "波賀町道谷",
    "town_kana": "ハガチョウドウタニ",
    "street": null,
    "office_name": null,
    "office_name_kana": null
  },
  "4203": {
    "postcode": "6714203",
    "prefecture": "兵庫県",
    "prefecture_kana": "ヒョウゴケン",
    "prefecture_code": 28,
    "city": "宍粟市",
    "city_kana": "シソウシ",
    "town": "波賀町鹿伏",
    "town_kana": "ハガチョウシカブシ",
    "street": null,
    "office_name": null,
    "office_name_kana": null
  },
  "4204": {
    "postcode": "6714204",
    "prefecture": "兵庫県",
    "prefecture_kana": "ヒョウゴケン",
    "prefecture_code": 28,
    "city": "宍粟市",
    "city_kana": "シソウシ",
    "town": "波賀町引原",
    "town_kana": "ハガチョウヒキハラ",
    "street": null,
    "office_name": null,
    "office_name_kana": null
  },
  "4211": {
    "postcode": "6714211",
    "prefecture": "兵庫県",
    "prefecture_kana": "ヒョウゴケン",
    "prefecture_code": 28,
    "city": "宍粟市",
    "city_kana": "シソウシ",
    "town": "波賀町音水",
    "town_kana": "ハガチョウオンズイ",
    "street": null,
    "office_name": null,
    "office_name_kana": null
  },
  "4212": {
    "postcode": "6714212",
    "prefecture": "兵庫県",
    "prefecture_kana": "ヒョウゴケン",
    "prefecture_code": 28,
    "city": "宍粟市",
    "city_kana": "シソウシ",
    "town": "波賀町日ノ原",
    "town_kana": "ハガチョウヒノハラ",
    "street": null,
    "office_name": null,
    "office_name_kana": null
  },
  "4213": {
    "postcode": "6714213",
    "prefecture": "兵庫県",
    "prefecture_kana": "ヒョウゴケン",
    "prefecture_code": 28,
    "city": "宍粟市",
    "city_kana": "シソウシ",
    "town": "波賀町原",
    "town_kana": "ハガチョウハラ",
    "street": null,
    "office_name": null,
    "office_name_kana": null
  },
  "4214": {
    "postcode": "6714214",
    "prefecture": "兵庫県",
    "prefecture_kana": "ヒョウゴケン",
    "prefecture_code": 28,
    "city": "宍粟市",
    "city_kana": "シソウシ",
    "town": "波賀町野尻",
    "town_kana": "ハガチョウノジリ",
    "street": null,
    "office_name": null,
    "office_name_kana": null
  },
  "4215": {
    "postcode": "6714215",
    "prefecture": "兵庫県",
    "prefecture_kana": "ヒョウゴケン",
    "prefecture_code": 28,
    "city": "宍粟市",
    "city_kana": "シソウシ",
    "town": "波賀町飯見",
    "town_kana": "ハガチョウイイミ",
    "street": null,
    "office_name": null,
    "office_name_kana": null
  },
  "4216": {
    "postcode": "6714216",
    "prefecture": "兵庫県",
    "prefecture_kana": "ヒョウゴケン",
    "prefecture_code": 28,
    "city": "宍粟市",
    "city_kana": "シソウシ",
    "town": "波賀町皆木",
    "town_kana": "ハガチョウミナギ",
    "street": null,
    "office_name": null,
    "office_name_kana": null
  },
  "4221": {
    "postcode": "6714221",
    "prefecture": "兵庫県",
    "prefecture_kana": "ヒョウゴケン",
    "prefecture_code": 28,
    "city": "宍粟市",
    "city_kana": "シソウシ",
    "town": "波賀町上野",
    "town_kana": "ハガチョウウエノ",
    "street": null,
    "office_name": null,
    "office_name_kana": null
  },
  "4231": {
    "postcode": "6714231",
    "prefecture": "兵庫県",
    "prefecture_kana": "ヒョウゴケン",
    "prefecture_code": 28,
    "city": "宍粟市",
    "city_kana": "シソウシ",
    "town": "波賀町有賀",
    "town_kana": "ハガチョウアリガ",
    "street": null,
    "office_name": null,
    "office_name_kana": null
  },
  "4232": {
    "postcode": "6714232",
    "prefecture": "兵庫県",
    "prefecture_kana": "ヒョウゴケン",
    "prefecture_code": 28,
    "city": "宍粟市",
    "city_kana": "シソウシ",
    "town": "波賀町斉木",
    "town_kana": "ハガチョウサイキ",
    "street": null,
    "office_name": null,
    "office_name_kana": null
  },
  "4241": {
    "postcode": "6714241",
    "prefecture": "兵庫県",
    "prefecture_kana": "ヒョウゴケン",
    "prefecture_code": 28,
    "city": "宍粟市",
    "city_kana": "シソウシ",
    "town": "波賀町安賀",
    "town_kana": "ハガチョウヤスガ",
    "street": null,
    "office_name": null,
    "office_name_kana": null
  },
  "4242": {
    "postcode": "6714242",
    "prefecture": "兵庫県",
    "prefecture_kana": "ヒョウゴケン",
    "prefecture_code": 28,
    "city": "宍粟市",
    "city_kana": "シソウシ",
    "town": "波賀町今市",
    "town_kana": "ハガチョウイマイチ",
    "street": null,
    "office_name": null,
    "office_name_kana": null
  },
  "4243": {
    "postcode": "6714243",
    "prefecture": "兵庫県",
    "prefecture_kana": "ヒョウゴケン",
    "prefecture_code": 28,
    "city": "宍粟市",
    "city_kana": "シソウシ",
    "town": "波賀町小野",
    "town_kana": "ハガチョウオノ",
    "street": null,
    "office_name": null,
    "office_name_kana": null
  },
  "4244": {
    "postcode": "6714244",
    "prefecture": "兵庫県",
    "prefecture_kana": "ヒョウゴケン",
    "prefecture_code": 28,
    "city": "宍粟市",
    "city_kana": "シソウシ",
    "town": "波賀町谷",
    "town_kana": "ハガチョウタニ",
    "street": null,
    "office_name": null,
    "office_name_kana": null
  },
  "4245": {
    "postcode": "6714245",
    "prefecture": "兵庫県",
    "prefecture_kana": "ヒョウゴケン",
    "prefecture_code": 28,
    "city": "宍粟市",
    "city_kana": "シソウシ",
    "town": "波賀町日見谷",
    "town_kana": "ハガチョウヒミタニ",
    "street": null,
    "office_name": null,
    "office_name_kana": null
  }
}