{
  "0101": {
    "postcode": "6720101",
    "prefecture": "兵庫県",
    "prefecture_kana": "ヒョウゴケン",
    "prefecture_code": 28,
    "city": "姫路市",
    "city_kana": "ヒメジシ",
    "town": "家島町真浦",
    "town_kana": "イエシマチョウマウラ",
    "street": null,
    "office_name": null,
    "office_name_kana": null
  },
  "0102": {
    "postcode": "6720102",
    "prefecture": "兵庫県",
    "prefecture_kana": "ヒョウゴケン",
    "prefecture_code": 28,
    "city": "姫路市",
    "city_kana": "ヒメジシ",
    "town": "家島町宮",
    "town_kana": "イエシマチョウミヤ",
    "street": null,
    "office_name": null,
    "office_name_kana": null
  },
  "0103": {
    "postcode": "6720103",
    "prefecture": "兵庫県",
    "prefecture_kana": "ヒョウゴケン",
    "prefecture_code": 28,
    "city": "姫路市",
    "city_kana": "ヒメジシ",
    "town": "家島町坊勢",
    "town_kana": "イエシマチョウボウゼ",
    "street": null,
    "office_name": null,
    "office_name_kana": null
  },
  "8001": {
    "postcode": "6728001",
    "prefecture": "兵庫県",
    "prefecture_kana": "ヒョウゴケン",
    "prefecture_code": 28,
    "city": "姫路市",
    "city_kana": "ヒメジシ",
    "town": "兼田",
    "town_kana": "カネダ",
    "street": null,
    "office_name": null,
    "office_name_kana": null
  },
  "8002": {
    "postcode": "6728002",
    "prefecture": "兵庫県",
    "prefecture_kana": "ヒョウゴケン",
    "prefecture_code": 28,
    "city": "姫路市",
    "city_kana": "ヒメジシ",
    "town": "北原",
    "town_kana": "キタハラ",
    "street": null,
    "office_name": null,
    "office_name_kana": null
  },
  "8003": {
    "postcode": "6728003",
    "prefecture": "兵庫県",
    "prefecture_kana": "ヒョウゴケン",
    "prefecture_code": 28,
    "city": "姫路市",
    "city_kana": "ヒメジシ",
    "town": "奥山",
    "town_kana": "オクヤマ",
    "street": null,
    "office_name": null,
    "office_name_kana": null
  },
  "8004": {
    "postcode": "6728004",
    "prefecture": "兵庫県",
    "prefecture_kana": "ヒョウゴケン",
    "prefecture_code": 28,
    "city": "姫路市",
    "city_kana": "ヒメジシ",
    "town": "継",
    "town_kana": "ツギ",
    "street": null,
    "office_name": null,
    "office_name_kana": null
  },
  "8011": {
    "postcode": "6728011",
    "prefecture": "兵庫県",
    "prefecture_kana": "ヒョウゴケン",
    "prefecture_code": 28,
    "city": "姫路市",
    "city_kana": "ヒメジシ",
    "town": "白浜町神田",
    "town_kana": "シラハマチョウカンダ",
    "street": null,
    "office_name": null,
    "office_name_kana": null
  },
  "8012": {
    "postcode": "6728012",
    "prefecture": "兵庫県",
    "prefecture_kana": "ヒョウゴケン",
    "prefecture_code": 28,
    "city": "姫路市",
    "city_kana": "ヒメジシ",
    "town": "白浜町寺家",
    "town_kana": "シラハマチョウジケ",
    "street": null,
    "office_name": null,
    "office_name_kana": null
  },
  "8013": {
    "postcode": "6728013",
    "prefecture": "兵庫県",
    "prefecture_kana": "ヒョウゴケン",
    "prefecture_code": 28,
    "city": "姫路市",
    "city_kana": "ヒメジシ",
    "town": "白浜町宇佐崎北",
    "town_kana": "シラハマチョウウサザキキタ",
    "street": null,
    "office_name": null,
    "office_name_kana": null
  },
  "8014": {
    "postcode": "6728014",
    "prefecture": "兵庫県",
    "prefecture_kana": "ヒョウゴケン",
    "prefecture_code": 28,
    "city": "姫路市",
    "city_kana": "ヒメジシ",
    "town": "東山",
    "town_kana": "ヒガシヤマ",
    "street": null,
    "office_name": null,
    "office_name_kana": null
  },
  "8015": {
    "postcode": "6728015",
    "prefecture": "兵庫県",
    "prefecture_kana": "ヒョウゴケン",
    "prefecture_code": 28,
    "city": "姫路市",
    "city_kana": "ヒメジシ",
    "town": "八家",
    "town_kana": "ヤカ",
    "street": null,
    "office_name": null,
    "office_name_kana": null
  },
  "8016": {
    "postcode": "6728016",
    "prefecture": "兵庫県",
    "prefecture_kana": "ヒョウゴケン",
    "prefecture_code": 28,
    "city": "姫路市",
    "city_kana": "ヒメジシ",
    "town": "木場",
    "town_kana": "キバ",
    "street": null,
    "office_name": null,
    "office_name_kana": null
  },
  "8017": {
    "postcode": "6728017",
    "prefecture": "兵庫県",
    "prefecture_kana": "ヒョウゴケン",
    "prefecture_code": 28,
    "city": "姫路市",
    "city_kana": "ヒメジシ",
    "town": "木場十八反町",
    "town_kana": "キバジュウハッタンチョウ",
    "street": null,
    "office_name": null,
    "office_name_kana": null
  },
  "8018": {
    "postcode": "6728018",
    "prefecture": "兵庫県",
    "prefecture_kana": "ヒョウゴケン",
    "prefecture_code": 28,
    "city": "姫路市",
    "city_kana": "ヒメジシ",
    "town": "木場前中町",
    "town_kana": "キバマエナカチョウ",
    "street": null,
    "office_name": null,
    "office_name_kana": null
  },
  "8019": {
    "postcode": "6728019",
    "prefecture": "兵庫県",
    "prefecture_kana": "ヒョウゴケン",
    "prefecture_code": 28,
    "city": "姫路市",
    "city_kana": "ヒメジシ",
    "town": "木場前七反町",
    "town_kana": "キバマエナナタンチョウ",
    "street": null,
    "office_name": null,
    "office_name_kana": null
  },
  "8021": {
    "postcode": "6728021",
    "prefecture": "兵庫県",
    "prefecture_kana": "ヒョウゴケン",
    "prefecture_code": 28,
    "city": "姫路市",
    "city_kana": "ヒメジシ",
    "town": "白浜町宇佐崎中",
    "town_kana": "シラハマチョウウサザキナカ",
    "street": null,
    "office_name": null,
    "office_name_kana": null
  },
  "8022": {
    "postcode": "6728022",
    "prefecture": "兵庫県",
    "prefecture_kana": "ヒョウゴケン",
    "prefecture_code": 28,
    "city": "姫路市",
    "city_kana": "ヒメジシ",
    "town": "白浜町宇佐崎南",
    "town_kana": "シラハマチョウウサザキミナミ",
    "street": null,
    "office_name": null,
    "office_name_kana": null
  },
  "8023": {
    "postcode": "6728023",
    "prefecture": "兵庫県",
    "prefecture_kana": "ヒョウゴケン",
    "prefecture_code": 28,
    "city": "姫路市",
    "city_kana": "ヒメジシ",
    "town": "白浜町",
    "town_kana": "シラハマチョウ",
    "street": null,
    "office_name": null,
    "office_name_kana": null
  },
  "8024": {
    "postcode": "6728024",
    "prefecture": "兵庫県",
    "prefecture_kana": "ヒョウゴケン",
    "prefecture_code": 28,
    "city": "姫路市",
    "city_kana": "ヒメジシ",
    "town": "白浜町灘浜",
    "town_kana": "シラハマチョウナダハマ",
    "street": null,
    "office_name": null,
    "office_name_kana": null
  },
  "8025": {
    "postcode": "6728025",
    "prefecture": "兵庫県",
    "prefecture_kana": "ヒョウゴケン",
    "prefecture_code": 28,
    "city": "姫路市",
    "city_kana": "ヒメジシ",
    "town": "飾磨区堀川町",
    "town_kana": "シカマクホリカワチョウ",
    "street": null,
    "office_name": null,
    "office_name_kana": null
  },
  "8030": {
    "postcode": "6728030",
    "prefecture": "兵庫県",
    "prefecture_kana": "ヒョウゴケン",
    "prefecture_code": 28,
    "city": "姫路市",
    "city_kana": "ヒメジシ",
    "town": "飾磨区阿成植木",
    "town_kana": "シカマクアナセウエキ",
    "street": null,
    "office_name": null,
    "office_name_kana": null
  },
  "8031": {
    "postcode": "6728031",
    "prefecture": "兵庫県",
    "prefecture_kana": "ヒョウゴケン",
    "prefecture_code": 28,
    "city": "姫路市",
    "city_kana": "ヒメジシ",
    "town": "飾磨区妻鹿",
    "town_kana": "シカマクメガ",
    "street": null,
    "office_name": null,
    "office_name_kana": null
  },
  "8032": {
    "postcode": "6728032",
    "prefecture": "兵庫県",
    "prefecture_kana": "ヒョウゴケン",
    "prefecture_code": 28,
    "city": "姫路市",
    "city_kana": "ヒメジシ",
    "town": "飾磨区妻鹿東海町",
    "town_kana": "シカマクメガトウカイチョウ",
    "street": null,
    "office_name": null,
    "office_name_kana": null
  },
  "8033": {
    "postcode": "6728033",
    "prefecture": "兵庫県",
    "prefecture_kana": "ヒョウゴケン",
    "prefecture_code": 28,
    "city": "姫路市",
    "city_kana": "ヒメジシ",
    "town": "飾磨区妻鹿日田町",
    "town_kana": "シカマクメガヒダチョウ",
    "street": null,
    "office_name": null,
    "office_name_kana": null
  },
  "8034": {
    "postcode": "6728034",
    "prefecture": "兵庫県",
    "prefecture_kana": "ヒョウゴケン",
    "prefecture_code": 28,
    "city": "姫路市",
    "city_kana": "ヒメジシ",
    "town": "飾磨区妻鹿常盤町",
    "town_kana": "シカマクメガトキワチョウ",
    "street": null,
    "office_name": null,
    "office_name_kana": null
  },
  "8035": {
    "postcode": "6728035",
    "prefecture": "兵庫県",
    "prefecture_kana": "ヒョウゴケン",
    "prefecture_code": 28,
    "city": "姫路市",
    "city_kana": "ヒメジシ",
    "town": "飾磨区中島",
    "town_kana": "シカマクナカシマ",
    "street": null,
    "office_name": null,
    "office_name_kana": null
  },
  "8036": {
    "postcode": "6728036",
    "prefecture": "兵庫県",
    "prefecture_kana": "ヒョウゴケン",
    "prefecture_code": 28,
    "city": "姫路市",
    "city_kana": "ヒメジシ",
    "town": "飾磨区三和町",
    "town_kana": "シカマクサンワチョウ",
    "street": null,
    "office_name": null,
    "office_name_kana": null
  },
  "8037": {
    "postcode": "6728037",
    "prefecture": "兵庫県",
    "prefecture_kana": "ヒョウゴケン",
    "prefecture_code": 28,
    "city": "姫路市",
    "city_kana": "ヒメジシ",
    "town": "飾磨区阿成",
    "town_kana": "シカマクアナセ",
    "street": null,
    "office_name": null,
    "office_name_kana": null
  },
  "8038": {
    "postcode": "6728038",
    "prefecture": "兵庫県",
    "prefecture_kana": "ヒョウゴケン",
    "prefecture_code": 28,
    "city": "姫路市",
    "city_kana": "ヒメジシ",
    "town": "飾磨区阿成鹿古",
    "town_kana": "シカマクアナセカコ",
    "street": null,
    "office_name": null,
    "office_name_kana": null
  },
  "8039": {
    "postcode": "6728039",
    "prefecture": "兵庫県",
    "prefecture_kana": "ヒョウゴケン",
    "prefecture_code": 28,
    "city": "姫路市",
    "city_kana": "ヒメジシ",
    "town": "飾磨区阿成渡場",
    "town_kana": "シカマクアナセワタシバ",
    "street": null,
    "office_name": null,
    "office_name_kana": null
  },
  "8040": {
    "postcode": "6728040",
    "prefecture": "兵庫県",
    "prefecture_kana": "ヒョウゴケン",
    "prefecture_code": 28,
    "city": "姫路市",
    "city_kana": "ヒメジシ",
    "town": "飾磨区野田町",
    "town_kana": "シカマクノダチョウ",
    "street": null,
    "office_name": null,
    "office_name_kana": null
  },
  "8041": {
    "postcode": "6728041",
    "prefecture": "兵庫県",
    "prefecture_kana": "ヒョウゴケン",
    "prefecture_code": 28,
    "city": "姫路市",
    "city_kana": "ヒメジシ",
    "town": "三条町",
    "town_kana": "サンジョウチョウ",
    "street": null,
    "office_name": null,
    "office_name_kana": null
  },
  "8043": {
    "postcode": "6728043",
    "prefecture": "兵庫県",
    "prefecture_kana": "ヒョウゴケン",
    "prefecture_code": 28,
    "city": "姫路市",
    "city_kana": "ヒメジシ",
    "town": "飾磨区上野田",
    "town_kana": "シカマクカミノダ",
    "street": null,
    "office_name": null,
    "office_name_kana": null
  },
  "8044": {
    "postcode": "6728044",
    "prefecture": "兵庫県",
    "prefecture_kana": "ヒョウゴケン",
    "prefecture_code": 28,
    "city": "姫路市",
    "city_kana": "ヒメジシ",
    "town": "飾磨区下野田",
    "town_kana": "シカマクシモノダ",
    "street": null,
    "office_name": null,
    "office_name_kana": null
  },
  "8045": {
    "postcode": "6728045",
    "prefecture": "兵庫県",
    "prefecture_kana": "ヒョウゴケン",
    "prefecture_code": 28,
    "city": "姫路市",
    "city_kana": "ヒメジシ",
    "town": "飾磨区中野田",
    "town_kana": "シカマクナカノダ",
    "street": null,
    "office_name": null,
    "office_name_kana": null
  },
  "8046": {
    "postcode": "6728046",
    "prefecture": "兵庫県",
    "prefecture_kana": "ヒョウゴケン",
    "prefecture_code": 28,
    "city": "姫路市",
    "city_kana": "ヒメジシ",
    "town": "飾磨区都倉",
    "town_kana": "シカマクトクラ",
    "street": null,
    "office_name": null,
    "office_name_kana": null
  },
  "8047": {
    "postcode": "6728047",
    "prefecture": "兵庫県",
    "prefecture_kana": "ヒョウゴケン",
    "prefecture_code": 28,
    "city": "姫路市",
    "city_kana": "ヒメジシ",
    "town": "飾磨区亀山",
    "town_kana": "シカマクカメヤマ",
    "street": null,
    "office_name": null,
    "office_name_kana": null
  },
  "8048": {
    "postcode": "6728048",
    "prefecture": "兵庫県",
    "prefecture_kana": "ヒョウゴケン",
    "prefecture_code": 28,
    "city": "姫路市",
    "city_kana": "ヒメジシ",
    "town": "飾磨区三宅",
    "town_kana": "シカマクミヤケ",
    "street": null,
    "office_name": null,
    "office_name_kana": null
  },
  "8049": {
    "postcode": "6728049",
    "prefecture": "兵庫県",
    "prefecture_kana": "ヒョウゴケン",
    "prefecture_code": 28,
    "city": "姫路市",
    "city_kana": "ヒメジシ",
    "town": "佃町",
    "town_kana": "ツクダチョウ",
    "street": null,
    "office_name": null,
    "office_name_kana": null
  },
  "8051": {
    "postcode": "6728051",
    "prefecture": "兵庫県",
    "prefecture_kana": "ヒョウゴケン",
    "prefecture_code": 28,
    "city": "姫路市",
    "city_kana": "ヒメジシ",
    "town": "飾磨区清水",
    "town_kana": "シカマクシミズ",
    "street": null,
    "office_name": null,
    "office_name_kana": null
  },
  "8052": {
    "postcode": "6728052",
    "prefecture": "兵庫県",
    "prefecture_kana": "ヒョウゴケン",
    "prefecture_code": 28,
    "city": "姫路市",
    "city_kana": "ヒメジシ",
    "town": "飾磨区玉地",
    "town_kana": "シカマクタマチ",
    "street": null,
    "office_name": null,
    "office_name_kana": null
  },
  "8053": {
    "postcode": "6728053",
    "prefecture": "兵庫県",
    "prefecture_kana": "ヒョウゴケン",
    "prefecture_code": 28,
    "city": "姫路市",
    "city_kana": "ヒメジシ",
    "town": "飾磨区栄町",
    "town_kana": "シカマクサカエマチ",
    "street": null,
    "office_name": null,
    "office_name_kana": null
  },
  "8054": {
    "postcode": "6728054",
    "prefecture": "兵庫県",
    "prefecture_kana": "ヒョウゴケン",
    "prefecture_code": 28,
    "city": "姫路市",
    "city_kana": "ヒメジシ",
    "town": "飾磨区東堀",
    "town_kana": "シカマクヒガシボリ",
    "street": null,
    "office_name": null,
    "office_name_kana": null
  },
  "8055": {
    "postcode": "6728055",
    "prefecture": "兵庫県",
    "prefecture_kana": "ヒョウゴケン",
    "prefecture_code": 28,
    "city": "姫路市",
    "city_kana": "ヒメジシ",
    "town": "飾磨区宮",
    "town_kana": "シカマクミヤ",
    "street": null,
    "office_name": null,
    "office_name_kana": null
  },
  "8056": {
    "postcode": "6728056",
    "prefecture": "兵庫県",
    "prefecture_kana": "ヒョウゴケン",
    "prefecture_code": 28,
    "city": "姫路市",
    "city_kana": "ヒメジシ",
    "town": "飾磨区御幸",
    "town_kana": "シカマクゴコウ",
    "street": null,
    "office_name": null,
    "office_name_kana": null
  },
  "8057": {
    "postcode": "6728057",
    "prefecture": "兵庫県",
    "prefecture_kana": "ヒョウゴケン",
    "prefecture_code": 28,
    "city": "姫路市",
    "city_kana": "ヒメジシ",
    "town": "飾磨区恵美酒",
    "town_kana": "シカマクエビス",
    "street": null,
    "office_name": null,
    "office_name_kana": null
  },
  "8058": {
    "postcode": "6728058",
    "prefecture": "兵庫県",
    "prefecture_kana": "ヒョウゴケン",
    "prefecture_code": 28,
    "city": "姫路市",
    "city_kana": "ヒメジシ",
    "town": "飾磨区阿成中垣内",
    "town_kana": "シカマクアナセナカカイチ",
    "street": null,
    "office_name": null,
    "office_name_kana": null
  },
  "8059": {
    "postcode": "6728059",
    "prefecture": "兵庫県",
    "prefecture_kana": "ヒョウゴケン",
    "prefecture_code": 28,
    "city": "姫路市",
    "city_kana": "ヒメジシ",
    "town": "飾磨区阿成下垣内",
    "town_kana": "シカマクアナセシモカイチ",
    "street": null,
    "office_name": null,
    "office_name_kana": null
  },
  "8061": {
    "postcode": "6728061",
    "prefecture": "兵庫県",
    "prefecture_kana": "ヒョウゴケン",
    "prefecture_code": 28,
    "city": "姫路市",
    "city_kana": "ヒメジシ",
    "town": "飾磨区天神",
    "town_kana": "シカマクテンジン",
    "street": null,
    "office_name": null,
    "office_name_kana": null
  },
  "8062": {
    "postcode": "6728062",
    "prefecture": "兵庫県",
    "prefecture_kana": "ヒョウゴケン",
    "prefecture_code": 28,
    "city": "姫路市",
    "city_kana": "ヒメジシ",
    "town": "飾磨区大浜",
    "town_kana": "シカマクオオハマ",
    "street": null,
    "office_name": null,
    "office_name_kana": null
  },
  "8063": {
    "postcode": "6728063",
    "prefecture": "兵庫県",
    "prefecture_kana": "ヒョウゴケン",
    "prefecture_code": 28,
    "city": "姫路市",
    "city_kana": "ヒメジシ",
    "town": "飾磨区須加",
    "town_kana": "シカマクスカ",
    "street": null,
    "office_name": null,
    "office_name_kana": null
  },
  "8064": {
    "postcode": "6728064",
    "prefecture": "兵庫県",
    "prefecture_kana": "ヒョウゴケン",
    "prefecture_code": 28,
    "city": "姫路市",
    "city_kana": "ヒメジシ",
    "town": "飾磨区細江",
    "town_kana": "シカマクホソエ",
    "street": null,
    "office_name": null,
    "office_name_kana": null
  },
  "8069": {
    "postcode": "6728069",
    "prefecture": "兵庫県",
    "prefecture_kana": "ヒョウゴケン",
    "prefecture_code": 28,
    "city": "姫路市",
    "city_kana": "ヒメジシ",
    "town": "飾磨区加茂南",
    "town_kana": "シカマクカモミナミ",
    "street": null,
    "office_name": null,
    "office_name_kana": null
  },
  "8070": {
    "postcode": "6728070",
    "prefecture": "兵庫県",
    "prefecture_kana": "ヒョウゴケン",
    "prefecture_code": 28,
    "city": "姫路市",
    "city_kana": "ヒメジシ",
    "town": "飾磨区加茂東",
    "town_kana": "シカマクカモヒガシ",
    "street": null,
    "office_name": null,
    "office_name_kana": null
  },
  "8071": {
    "postcode": "6728071",
    "prefecture": "兵庫県",
    "prefecture_kana": "ヒョウゴケン",
    "prefecture_code": 28,
    "city": "姫路市",
    "city_kana": "ヒメジシ",
    "town": "飾磨区構",
    "town_kana": "シカマクカマエ",
    "street": null,
    "office_name": null,
    "office_name_kana": null
  },
  "8072": {
    "postcode": "6728072",
    "prefecture": "兵庫県",
    "prefecture_kana": "ヒョウゴケン",
    "prefecture_code": 28,
    "city": "姫路市",
    "city_kana": "ヒメジシ",
    "town": "飾磨区蓼野町",
    "town_kana": "シカマクタデノチョウ",
    "street": null,
    "office_name": null,
    "office_name_kana": null
  },
  "8073": {
    "postcode": "6728073",
    "prefecture": "兵庫県",
    "prefecture_kana": "ヒョウゴケン",
    "prefecture_code": 28,
    "city": "姫路市",
    "city_kana": "ヒメジシ",
    "town": "飾磨区加茂北",
    "town_kana": "シカマクカモキタ",
    "street": null,
    "office_name": null,
    "office_name_kana": null
  },
  "8074": {
    "postcode": "6728074",
    "prefecture": "兵庫県",
    "prefecture_kana": "ヒョウゴケン",
    "prefecture_code": 28,
    "city": "姫路市",
    "city_kana": "ヒメジシ",
    "town": "飾磨区加茂",
    "town_kana": "シカマクカモ",
    "street": null,
    "office_name": null,
    "office_name_kana": null
  },
  "8075": {
    "postcode": "6728075",
    "prefecture": "兵庫県",
    "prefecture_kana": "ヒョウゴケン",
    "prefecture_code": 28,
    "city": "姫路市",
    "city_kana": "ヒメジシ",
    "town": "飾磨区思案橋",
    "town_kana": "シカマクシアンバシ",
    "street": null,
    "office_name": null,
    "office_name_kana": null
  },
  "8076": {
    "postcode": "6728076",
    "prefecture": "兵庫県",
    "prefecture_kana": "ヒョウゴケン",
    "prefecture_code": 28,
    "city": "姫路市",
    "city_kana": "ヒメジシ",
    "town": "飾磨区入船町",
    "town_kana": "シカマクイリフネチョウ",
    "street": null,
    "office_name": null,
    "office_name_kana": null
  },
  "8077": {
    "postcode": "6728077",
    "prefecture": "兵庫県",
    "prefecture_kana": "ヒョウゴケン",
    "prefecture_code": 28,
    "city": "姫路市",
    "city_kana": "ヒメジシ",
    "town": "飾磨区粕谷新町",
    "town_kana": "シカマクカスヤシンマチ",
    "street": null,
    "office_name": null,
    "office_name_kana": null
  },
  "8078": {
    "postcode": "6728078",
    "prefecture": "兵庫県",
    "prefecture_kana": "ヒョウゴケン",
    "prefecture_code": 28,
    "city": "姫路市",
    "city_kana": "ヒメジシ",
    "town": "飾磨区英賀",
    "town_kana": "シカマクアガ",
    "street": null,
    "office_name": null,
    "office_name_kana": null
  },
  "8079": {
    "postcode": "6728079",
    "prefecture": "兵庫県",
    "prefecture_kana": "ヒョウゴケン",
    "prefecture_code": 28,
    "city": "姫路市",
    "city_kana": "ヒメジシ",
    "town": "飾磨区今在家",
    "town_kana": "シカマクイマザイケ",
    "street": null,
    "office_name": null,
    "office_name_kana": null
  },
  "8080": {
    "postcode": "6728080",
    "prefecture": "兵庫県",
    "prefecture_kana": "ヒョウゴケン",
    "prefecture_code": 28,
    "city": "姫路市",
    "city_kana": "ヒメジシ",
    "town": "飾磨区英賀宮町",
    "town_kana": "シカマクアガミヤチョウ",
    "street": null,
    "office_name": null,
    "office_name_kana": null
  },
  "8081": {
    "postcode": "6728081",
    "prefecture": "兵庫県",
    "prefecture_kana": "ヒョウゴケン",
    "prefecture_code": 28,
    "city": "姫路市",
    "city_kana": "ヒメジシ",
    "town": "飾磨区高町",
    "town_kana": "シカマクタカマチ",
    "street": null,
    "office_name": null,
    "office_name_kana": null
  },
  "8082": {
    "postcode": "6728082",
    "prefecture": "兵庫県",
    "prefecture_kana": "ヒョウゴケン",
    "prefecture_code": 28,
    "city": "姫路市",
    "city_kana": "ヒメジシ",
    "town": "飾磨区付城",
    "town_kana": "シカマクツケシロ",
    "street": null,
    "office_name": null,
    "office_name_kana": null
  },
  "8083": {
    "postcode": "6728083",
    "prefecture": "兵庫県",
    "prefecture_kana": "ヒョウゴケン",
    "prefecture_code": 28,
    "city": "姫路市",
    "city_kana": "ヒメジシ",
    "town": "飾磨区城南町",
    "town_kana": "シカマクジョウナンチョウ",
    "street": null,
    "office_name": null,
    "office_name_kana": null
  },
  "8084": {
    "postcode": "6728084",
    "prefecture": "兵庫県",
    "prefecture_kana": "ヒョウゴケン",
    "prefecture_code": 28,
    "city": "姫路市",
    "city_kana": "ヒメジシ",
    "town": "飾磨区英賀清水町",
    "town_kana": "シカマクアガシミズチョウ",
    "street": null,
    "office_name": null,
    "office_name_kana": null
  },
  "8085": {
    "postcode": "6728085",
    "prefecture": "兵庫県",
    "prefecture_kana": "ヒョウゴケン",
    "prefecture_code": 28,
    "city": "姫路市",
    "city_kana": "ヒメジシ",
    "town": "飾磨区中浜町",
    "town_kana": "シカマクナカハマチョウ",
    "street": null,
    "office_name": null,
    "office_name_kana": null
  },
  "8086": {
    "postcode": "6728086",
    "prefecture": "兵庫県",
    "prefecture_kana": "ヒョウゴケン",
    "prefecture_code": 28,
    "city": "姫路市",
    "city_kana": "ヒメジシ",
    "town": "飾磨区西浜町",
    "town_kana": "シカマクニシハマチョウ",
    "street": null,
    "office_name": null,
    "office_name_kana": null
  },
  "8087": {
    "postcode": "6728087",
    "prefecture": "兵庫県",
    "prefecture_kana": "ヒョウゴケン",
    "prefecture_code": 28,
    "city": "姫路市",
    "city_kana": "ヒメジシ",
    "town": "飾磨区英賀東町",
    "town_kana": "シカマクアガヒガシチョウ",
    "street": null,
    "office_name": null,
    "office_name_kana": null
  },
  "8088": {
    "postcode": "6728088",
    "prefecture": "兵庫県",
    "prefecture_kana": "ヒョウゴケン",
    "prefecture_code": 28,
    "city": "姫路市",
    "city_kana": "ヒメジシ",
    "town": "飾磨区英賀西町",
    "town_kana": "シカマクアガニシチョウ",
    "street": null,
    "office_name": null,
    "office_name_kana": null
  },
  "8089": {
    "postcode": "6728089",
    "prefecture": "兵庫県",
    "prefecture_kana": "ヒョウゴケン",
    "prefecture_code": 28,
    "city": "姫路市",
    "city_kana": "ヒメジシ",
    "town": "飾磨区英賀宮台",
    "town_kana": "シカマクアガミヤダイ",
    "street": null,
    "office_name": null,
    "office_name_kana": null
  },
  "8090": {
    "postcode": "6728090",
    "prefecture": "兵庫県",
    "prefecture_kana": "ヒョウゴケン",
    "prefecture_code": 28,
    "city": "姫路市",
    "city_kana": "ヒメジシ",
    "town": "飾磨区今在家北",
    "town_kana": "シカマクイマザイケキタ",
    "street": null,
    "office_name": null,
    "office_name_kana": null
  },
  "8091": {
    "postcode": "6728091",
    "prefecture": "兵庫県",
    "prefecture_kana": "ヒョウゴケン",
    "prefecture_code": 28,
    "city": "姫路市",
    "city_kana": "ヒメジシ",
    "town": "飾磨区英賀保駅前町",
    "town_kana": "シカマクアガホエキマエチョウ",
    "street": null,
    "office_name": null,
    "office_name_kana": null
  },
  "8092": {
    "postcode": "6728092",
    "prefecture": "兵庫県",
    "prefecture_kana": "ヒョウゴケン",
    "prefecture_code": 28,
    "city": "姫路市",
    "city_kana": "ヒメジシ",
    "town": "飾磨区英賀春日町",
    "town_kana": "シカマクアガカスガチョウ",
    "street": null,
    "office_name": null,
    "office_name_kana": null
  },
  "8093": {
    "postcode": "6728093",
    "prefecture": "兵庫県",
    "prefecture_kana": "ヒョウゴケン",
    "prefecture_code": 28,
    "city": "姫路市",
    "city_kana": "ヒメジシ",
    "town": "飾磨区矢倉町",
    "town_kana": "シカマクヤグラチョウ",
    "street": null,
    "office_name": null,
    "office_name_kana": null
  },
  "8094": {
    "postcode": "6728094",
    "prefecture": "兵庫県",
    "prefecture_kana": "ヒョウゴケン",
    "prefecture_code": 28,
    "city": "姫路市",
    "city_kana": "ヒメジシ",
    "town": "飾磨区鎌倉町",
    "town_kana": "シカマクカマクラチョウ",
    "street": null,
    "office_name": null,
    "office_name_kana": null
  },
  "8095": {
    "postcode": "6728095",
    "prefecture": "兵庫県",
    "prefecture_kana": "ヒョウゴケン",
    "prefecture_code": 28,
    "city": "姫路市",
    "city_kana": "ヒメジシ",
    "town": "飾磨区若宮町",
    "town_kana": "シカマクワカミヤチョウ",
    "street": null,
    "office_name": null,
    "office_name_kana": null
  },
  "8096": {
    "postcode": "6728096",
    "prefecture": "兵庫県",
    "prefecture_kana": "ヒョウゴケン",
    "prefecture_code": 28,
    "city": "姫路市",
    "city_kana": "ヒメジシ",
    "town": "飾磨区山崎台",
    "town_kana": "シカマクヤマサキダイ",
    "street": null,
    "office_name": null,
    "office_name_kana": null
  },
  "8097": {
    "postcode": "6728097",
    "prefecture": "兵庫県",
    "prefecture_kana": "ヒョウゴケン",
    "prefecture_code": 28,
    "city": "姫路市",
    "city_kana": "ヒメジシ",
    "town": "飾磨区山崎",
    "town_kana": "シカマクヤマサキ",
    "street": null,
    "office_name": null,
    "office_name_kana": null
  },
  "8098": {
    "postcode": "6728098",
    "prefecture": "兵庫県",
    "prefecture_kana": "ヒョウゴケン",
    "prefecture_code": 28,
    "city": "姫路市",
    "city_kana": "ヒメジシ",
    "town": "飾磨区富士見ケ丘町",
    "town_kana": "シカマクフジミガオカチョウ",
    "street": null,
    "office_name": null,
    "office_name_kana": null
  },
  "8501": {
    "postcode": "6728501",
    "prefecture": "兵庫県",
    "prefecture_kana": "ヒョウゴケン",
    "prefecture_code": 28,
    "city": "姫路市",
    "city_kana": "ヒメジシ",
    "town": "飾磨区三宅",
    "town_kana": "シカマクミヤケ",
    "street": "２丁目３６",
    "office_name": "医療法人公仁会　姫路中央病院",
    "office_name_kana": "イリヨウホウジンコウジンカイ ヒメジチユウオウビヨウイン"
  },
  "8550": {
    "postcode": "6728550",
    "prefecture": "兵庫県",
    "prefecture_kana": "ヒョウゴケン",
    "prefecture_code": 28,
    "city": "姫路市",
    "city_kana": "ヒメジシ",
    "town": "白浜町",
    "town_kana": "シラハマチョウ",
    "street": "甲８４１−５１",
    "office_name": "株式会社　フードサプライジャスコ兵庫事業所",
    "office_name_kana": "カブシキガイシヤ フ-ドサプライジヤスコヒヨウゴジギヨウシヨ"
  },
  "8555": {
    "postcode": "6728555",
    "prefecture": "兵庫県",
    "prefecture_kana": "ヒョウゴケン",
    "prefecture_code": 28,
    "city": "姫路市",
    "city_kana": "ヒメジシ",
    "town": "飾磨区中島",
    "town_kana": "シカマクナカシマ",
    "street": "３００１",
    "office_name": "第一燃料工業　株式会社",
    "office_name_kana": "ダイイチネンリヨウコウギヨウ カブシキガイシヤ"
  },
  "8558": {
    "postcode": "6728558",
    "prefecture": "兵庫県",
    "prefecture_kana": "ヒョウゴケン",
    "prefecture_code": 28,
    "city": "姫路市",
    "city_kana": "ヒメジシ",
    "town": "飾磨区中野田",
    "town_kana": "シカマクナカノダ",
    "street": "２丁目５",
    "office_name": "トラスコ中山　株式会社　姫路支店",
    "office_name_kana": "トラスコナカヤマ カブシキガイシヤ ヒメジシテン"
  },
  "8567": {
    "postcode": "6728567",
    "prefecture": "兵庫県",
    "prefecture_kana": "ヒョウゴケン",
    "prefecture_code": 28,
    "city": "姫路市",
    "city_kana": "ヒメジシ",
    "town": "飾磨区上野田",
    "town_kana": "シカマクカミノダ",
    "street": "２丁目１０",
    "office_name": "株式会社　アスノ",
    "office_name_kana": "カブシキガイシヤ アスノ"
  },
  "8585": {
    "postcode": "6728585",
    "prefecture": "兵庫県",
    "prefecture_kana": "ヒョウゴケン",
    "prefecture_code": 28,
    "city": "姫路市",
    "city_kana": "ヒメジシ",
    "town": "飾磨区妻鹿日田町",
    "town_kana": "シカマクメガヒダチョウ",
    "street": "１−１",
    "office_name": "出光興産　株式会社　兵庫製油所",
    "office_name_kana": "イデミツコウサン カブシキガイシヤ ヒヨウゴセイユシヨ"
  },
  "8588": {
    "postcode": "6728588",
    "prefecture": "兵庫県",
    "prefecture_kana": "ヒョウゴケン",
    "prefecture_code": 28,
    "city": "姫路市",
    "city_kana": "ヒメジシ",
    "town": "飾磨区中島",
    "town_kana": "シカマクナカシマ",
    "street": "３３２２",
    "office_name": "自動車検査独立行政法人　近畿検査部　姫路事務所",
    "office_name_kana": "ジドウシヤケンサドクリツギヨウセイホウジン キンキケンサブ ヒメジジムシヨ"
  },
  "8655": {
    "postcode": "6728655",
    "prefecture": "兵庫県",
    "prefecture_kana": "ヒョウゴケン",
    "prefecture_code": 28,
    "city": "姫路市",
    "city_kana": "ヒメジシ",
    "town": "飾磨区中島",
    "town_kana": "シカマクナカシマ",
    "street": "２９４６（姫路南郵便局私書箱第１０号）",
    "office_name": "合同製鐵　株式会社　姫路製造所",
    "office_name_kana": "ゴウドウセイテツ カブシキガイシヤ ヒメジセイゾウシヨ"
  },
  "8666": {
    "postcode": "6728666",
    "prefecture": "兵庫県",
    "prefecture_kana": "ヒョウゴケン",
    "prefecture_code": 28,
    "city": "姫路市",
    "city_kana": "ヒメジシ",
    "town": "飾磨区恵美酒",
    "town_kana": "シカマクエビス",
    "street": "１４７（姫路南郵便局私書箱第６号）",
    "office_name": "横田石油　株式会社",
    "office_name_kana": "ヨコタセキユ カブシキガイシヤ"
  },
  "8677": {
    "postcode": "6728677",
    "prefecture": "兵庫県",
    "prefecture_kana": "ヒョウゴケン",
    "prefecture_code": 28,
    "city": "姫路市",
    "city_kana": "ヒメジシ",
    "town": "飾磨区中島",
    "town_kana": "シカマクナカシマ",
    "street": "一文字３００７（姫路南郵便局私書箱第１号）",
    "office_name": "山陽特殊製鋼　株式会社",
    "office_name_kana": "サンヨウトクシユセイコウ カブシキガイシヤ"
  }
}