{
  "0050": {
    "postcode": "6740050",
    "prefecture": "兵庫県",
    "prefecture_kana": "ヒョウゴケン",
    "prefecture_code": 28,
    "city": "明石市",
    "city_kana": "アカシシ",
    "town": "大久保町松陰山手",
    "town_kana": "オオクボチョウマツカゲヤマテ",
    "street": null,
    "office_name": null,
    "office_name_kana": null
  },
  "0051": {
    "postcode": "6740051",
    "prefecture": "兵庫県",
    "prefecture_kana": "ヒョウゴケン",
    "prefecture_code": 28,
    "city": "明石市",
    "city_kana": "アカシシ",
    "town": "大久保町大窪",
    "town_kana": "オオクボチョウオオクボ",
    "street": null,
    "office_name": null,
    "office_name_kana": null
  },
  "0052": {
    "postcode": "6740052",
    "prefecture": "兵庫県",
    "prefecture_kana": "ヒョウゴケン",
    "prefecture_code": 28,
    "city": "明石市",
    "city_kana": "アカシシ",
    "town": "大久保町松陰新田",
    "town_kana": "オオクボチョウマツカゲシンデン",
    "street": null,
    "office_name": null,
    "office_name_kana": null
  },
  "0053": {
    "postcode": "6740053",
    "prefecture": "兵庫県",
    "prefecture_kana": "ヒョウゴケン",
    "prefecture_code": 28,
    "city": "明石市",
    "city_kana": "アカシシ",
    "town": "大久保町松陰",
    "town_kana": "オオクボチョウマツカゲ",
    "street": null,
    "office_name": null,
    "office_name_kana": null
  },
  "0054": {
    "postcode": "6740054",
    "prefecture": "兵庫県",
    "prefecture_kana": "ヒョウゴケン",
    "prefecture_code": 28,
    "city": "明石市",
    "city_kana": "アカシシ",
    "town": "大久保町西脇",
    "town_kana": "オオクボチョウニシワキ",
    "street": null,
    "office_name": null,
    "office_name_kana": null
  },
  "0055": {
    "postcode": "6740055",
    "prefecture": "兵庫県",
    "prefecture_kana": "ヒョウゴケン",
    "prefecture_code": 28,
    "city": "明石市",
    "city_kana": "アカシシ",
    "town": "大久保町緑が丘",
    "town_kana": "オオクボチョウミドリガオカ",
    "street": null,
    "office_name": null,
    "office_name_kana": null
  },
  "0056": {
    "postcode": "6740056",
    "prefecture": "兵庫県",
    "prefecture_kana": "ヒョウゴケン",
    "prefecture_code": 28,
    "city": "明石市",
    "city_kana": "アカシシ",
    "town": "大久保町山手台",
    "town_kana": "オオクボチョウヤマテダイ",
    "street": null,
    "office_name": null,
    "office_name_kana": null
  },
  "0057": {
    "postcode": "6740057",
    "prefecture": "兵庫県",
    "prefecture_kana": "ヒョウゴケン",
    "prefecture_code": 28,
    "city": "明石市",
    "city_kana": "アカシシ",
    "town": "大久保町高丘",
    "town_kana": "オオクボチョウタカオカ",
    "street": null,
    "office_name": null,
    "office_name_kana": null
  },
  "0058": {
    "postcode": "6740058",
    "prefecture": "兵庫県",
    "prefecture_kana": "ヒョウゴケン",
    "prefecture_code": 28,
    "city": "明石市",
    "city_kana": "アカシシ",
    "town": "大久保町駅前",
    "town_kana": "オオクボチョウエキマエ",
    "street": null,
    "office_name": null,
    "office_name_kana": null
  },
  "0059": {
    "postcode": "6740059",
    "prefecture": "兵庫県",
    "prefecture_kana": "ヒョウゴケン",
    "prefecture_code": 28,
    "city": "明石市",
    "city_kana": "アカシシ",
    "town": "大久保町茜",
    "town_kana": "オオクボチョウアカネ",
    "street": null,
    "office_name": null,
    "office_name_kana": null
  },
  "0061": {
    "postcode": "6740061",
    "prefecture": "兵庫県",
    "prefecture_kana": "ヒョウゴケン",
    "prefecture_code": 28,
    "city": "明石市",
    "city_kana": "アカシシ",
    "town": "大久保町森田",
    "town_kana": "オオクボチョウモリタ",
    "street": null,
    "office_name": null,
    "office_name_kana": null
  },
  "0062": {
    "postcode": "6740062",
    "prefecture": "兵庫県",
    "prefecture_kana": "ヒョウゴケン",
    "prefecture_code": 28,
    "city": "明石市",
    "city_kana": "アカシシ",
    "town": "大久保町谷八木",
    "town_kana": "オオクボチョウタニヤギ",
    "street": null,
    "office_name": null,
    "office_name_kana": null
  },
  "0063": {
    "postcode": "6740063",
    "prefecture": "兵庫県",
    "prefecture_kana": "ヒョウゴケン",
    "prefecture_code": 28,
    "city": "明石市",
    "city_kana": "アカシシ",
    "town": "大久保町八木",
    "town_kana": "オオクボチョウヤギ",
    "street": null,
    "office_name": null,
    "office_name_kana": null
  },
  "0064": {
    "postcode": "6740064",
    "prefecture": "兵庫県",
    "prefecture_kana": "ヒョウゴケン",
    "prefecture_code": 28,
    "city": "明石市",
    "city_kana": "アカシシ",
    "town": "大久保町江井島",
    "town_kana": "オオクボチョウエイガシマ",
    "street": null,
    "office_name": null,
    "office_name_kana": null
  },
  "0065": {
    "postcode": "6740065",
    "prefecture": "兵庫県",
    "prefecture_kana": "ヒョウゴケン",
    "prefecture_code": 28,
    "city": "明石市",
    "city_kana": "アカシシ",
    "town": "大久保町西島",
    "town_kana": "オオクボチョウニシジマ",
    "street": null,
    "office_name": null,
    "office_name_kana": null
  },
  "0066": {
    "postcode": "6740066",
    "prefecture": "兵庫県",
    "prefecture_kana": "ヒョウゴケン",
    "prefecture_code": 28,
    "city": "明石市",
    "city_kana": "アカシシ",
    "town": "大久保町福田",
    "town_kana": "オオクボチョウフクダ",
    "street": null,
    "office_name": null,
    "office_name_kana": null
  },
  "0067": {
    "postcode": "6740067",
    "prefecture": "兵庫県",
    "prefecture_kana": "ヒョウゴケン",
    "prefecture_code": 28,
    "city": "明石市",
    "city_kana": "アカシシ",
    "town": "大久保町大久保町",
    "town_kana": "オオクボチョウオオクボマチ",
    "street": null,
    "office_name": null,
    "office_name_kana": null
  },
  "0068": {
    "postcode": "6740068",
    "prefecture": "兵庫県",
    "prefecture_kana": "ヒョウゴケン",
    "prefecture_code": 28,
    "city": "明石市",
    "city_kana": "アカシシ",
    "town": "大久保町ゆりのき通",
    "town_kana": "オオクボチョウユリノキドオリ",
    "street": null,
    "office_name": null,
    "office_name_kana": null
  },
  "0069": {
    "postcode": "6740069",
    "prefecture": "兵庫県",
    "prefecture_kana": "ヒョウゴケン",
    "prefecture_code": 28,
    "city": "明石市",
    "city_kana": "アカシシ",
    "town": "大久保町わかば",
    "town_kana": "オオクボチョウワカバ",
    "street": null,
    "office_name": null,
    "office_name_kana": null
  },
  "0071": {
    "postcode": "6740071",
    "prefecture": "兵庫県",
    "prefecture_kana": "ヒョウゴケン",
    "prefecture_code": 28,
    "city": "明石市",
    "city_kana": "アカシシ",
    "town": "魚住町金ケ崎",
    "town_kana": "ウオズミチョウカナガサキ",
    "street": null,
    "office_name": null,
    "office_name_kana": null
  },
  "0072": {
    "postcode": "6740072",
    "prefecture": "兵庫県",
    "prefecture_kana": "ヒョウゴケン",
    "prefecture_code": 28,
    "city": "明石市",
    "city_kana": "アカシシ",
    "town": "魚住町長坂寺",
    "town_kana": "ウオズミチョウチョウハンジ",
    "street": null,
    "office_name": null,
    "office_name_kana": null
  },
  "0073": {
    "postcode": "6740073",
    "prefecture": "兵庫県",
    "prefecture_kana": "ヒョウゴケン",
    "prefecture_code": 28,
    "city": "明石市",
    "city_kana": "アカシシ",
    "town": "魚住町鴨池",
    "town_kana": "ウオズミチョウカモイケ",
    "street": null,
    "office_name": null,
    "office_name_kana": null
  },
  "0074": {
    "postcode": "6740074",
    "prefecture": "兵庫県",
    "prefecture_kana": "ヒョウゴケン",
    "prefecture_code": 28,
    "city": "明石市",
    "city_kana": "アカシシ",
    "town": "魚住町清水",
    "town_kana": "ウオズミチョウシミズ",
    "street": null,
    "office_name": null,
    "office_name_kana": null
  },
  "0081": {
    "postcode": "6740081",
    "prefecture": "兵庫県",
    "prefecture_kana": "ヒョウゴケン",
    "prefecture_code": 28,
    "city": "明石市",
    "city_kana": "アカシシ",
    "town": "魚住町錦が丘",
    "town_kana": "ウオズミチョウニシキガオカ",
    "street": null,
    "office_name": null,
    "office_name_kana": null
  },
  "0082": {
    "postcode": "6740082",
    "prefecture": "兵庫県",
    "prefecture_kana": "ヒョウゴケン",
    "prefecture_code": 28,
    "city": "明石市",
    "city_kana": "アカシシ",
    "town": "魚住町中尾",
    "town_kana": "ウオズミチョウナカオ",
    "street": null,
    "office_name": null,
    "office_name_kana": null
  },
  "0083": {
    "postcode": "6740083",
    "prefecture": "兵庫県",
    "prefecture_kana": "ヒョウゴケン",
    "prefecture_code": 28,
    "city": "明石市",
    "city_kana": "アカシシ",
    "town": "魚住町住吉",
    "town_kana": "ウオズミチョウスミヨシ",
    "street": null,
    "office_name": null,
    "office_name_kana": null
  },
  "0084": {
    "postcode": "6740084",
    "prefecture": "兵庫県",
    "prefecture_kana": "ヒョウゴケン",
    "prefecture_code": 28,
    "city": "明石市",
    "city_kana": "アカシシ",
    "town": "魚住町西岡",
    "town_kana": "ウオズミチョウニシオカ",
    "street": null,
    "office_name": null,
    "office_name_kana": null
  },
  "0091": {
    "postcode": "6740091",
    "prefecture": "兵庫県",
    "prefecture_kana": "ヒョウゴケン",
    "prefecture_code": 28,
    "city": "明石市",
    "city_kana": "アカシシ",
    "town": "二見町福里",
    "town_kana": "フタミチョウフクサト",
    "street": null,
    "office_name": null,
    "office_name_kana": null
  },
  "0092": {
    "postcode": "6740092",
    "prefecture": "兵庫県",
    "prefecture_kana": "ヒョウゴケン",
    "prefecture_code": 28,
    "city": "明石市",
    "city_kana": "アカシシ",
    "town": "二見町東二見",
    "town_kana": "フタミチョウヒガシフタミ",
    "street": null,
    "office_name": null,
    "office_name_kana": null
  },
  "0093": {
    "postcode": "6740093",
    "prefecture": "兵庫県",
    "prefecture_kana": "ヒョウゴケン",
    "prefecture_code": 28,
    "city": "明石市",
    "city_kana": "アカシシ",
    "town": "二見町南二見",
    "town_kana": "フタミチョウミナミフタミ",
    "street": null,
    "office_name": null,
    "office_name_kana": null
  },
  "0094": {
    "postcode": "6740094",
    "prefecture": "兵庫県",
    "prefecture_kana": "ヒョウゴケン",
    "prefecture_code": 28,
    "city": "明石市",
    "city_kana": "アカシシ",
    "town": "二見町西二見",
    "town_kana": "フタミチョウニシフタミ",
    "street": null,
    "office_name": null,
    "office_name_kana": null
  },
  "0095": {
    "postcode": "6740095",
    "prefecture": "兵庫県",
    "prefecture_kana": "ヒョウゴケン",
    "prefecture_code": 28,
    "city": "明石市",
    "city_kana": "アカシシ",
    "town": "二見町西二見駅前",
    "town_kana": "フタミチョウニシフタミエキマエ",
    "street": null,
    "office_name": null,
    "office_name_kana": null
  },
  "8501": {
    "postcode": "6748501",
    "prefecture": "兵庫県",
    "prefecture_kana": "ヒョウゴケン",
    "prefecture_code": 28,
    "city": "明石市",
    "city_kana": "アカシシ",
    "town": "魚住町西岡",
    "town_kana": "ウオズミチョウニシオカ",
    "street": "６７９−３",
    "office_name": "明石工業高等専門学校",
    "office_name_kana": "アカシコウギヨウコウトウセンモンガツコウ"
  },
  "8585": {
    "postcode": "6748585",
    "prefecture": "兵庫県",
    "prefecture_kana": "ヒョウゴケン",
    "prefecture_code": 28,
    "city": "明石市",
    "city_kana": "アカシシ",
    "town": "大久保町江井島",
    "town_kana": "オオクボチョウエイガシマ",
    "street": "１０１３−１",
    "office_name": "日工　株式会社",
    "office_name_kana": "ニツコウ カブシキガイシヤ"
  },
  "8686": {
    "postcode": "6748686",
    "prefecture": "兵庫県",
    "prefecture_kana": "ヒョウゴケン",
    "prefecture_code": 28,
    "city": "明石市",
    "city_kana": "アカシシ",
    "town": "魚住町清水",
    "town_kana": "ウオズミチョウシミズ",
    "street": "１１０６−４",
    "office_name": "キャタピラージャパン　合同会社　明石事業所",
    "office_name_kana": "キヤタピラ-ジヤパン ゴウドウガイシヤ アカシジギヨウシヨ"
  }
}