{
  "0000": {
    "postcode": "6770000",
    "prefecture": "兵庫県",
    "prefecture_kana": "ヒョウゴケン",
    "prefecture_code": 28,
    "city": "西脇市",
    "city_kana": "ニシワキシ",
    "town": "",
    "town_kana": "",
    "street": null,
    "office_name": null,
    "office_name_kana": null
  },
  "0001": {
    "postcode": "6770001",
    "prefecture": "兵庫県",
    "prefecture_kana": "ヒョウゴケン",
    "prefecture_code": 28,
    "city": "西脇市",
    "city_kana": "ニシワキシ",
    "town": "大木町",
    "town_kana": "オオギチョウ",
    "street": null,
    "office_name": null,
    "office_name_kana": null
  },
  "0002": {
    "postcode": "6770002",
    "prefecture": "兵庫県",
    "prefecture_kana": "ヒョウゴケン",
    "prefecture_code": 28,
    "city": "西脇市",
    "city_kana": "ニシワキシ",
    "town": "前島町",
    "town_kana": "マエジマチョウ",
    "street": null,
    "office_name": null,
    "office_name_kana": null
  },
  "0003": {
    "postcode": "6770003",
    "prefecture": "兵庫県",
    "prefecture_kana": "ヒョウゴケン",
    "prefecture_code": 28,
    "city": "西脇市",
    "city_kana": "ニシワキシ",
    "town": "西田町",
    "town_kana": "ニシダチョウ",
    "street": null,
    "office_name": null,
    "office_name_kana": null
  },
  "0004": {
    "postcode": "6770004",
    "prefecture": "兵庫県",
    "prefecture_kana": "ヒョウゴケン",
    "prefecture_code": 28,
    "city": "西脇市",
    "city_kana": "ニシワキシ",
    "town": "市原町",
    "town_kana": "イチハラチョウ",
    "street": null,
    "office_name": null,
    "office_name_kana": null
  },
  "0005": {
    "postcode": "6770005",
    "prefecture": "兵庫県",
    "prefecture_kana": "ヒョウゴケン",
    "prefecture_code": 28,
    "city": "西脇市",
    "city_kana": "ニシワキシ",
    "town": "野中町",
    "town_kana": "ノナカチョウ",
    "street": null,
    "office_name": null,
    "office_name_kana": null
  },
  "0006": {
    "postcode": "6770006",
    "prefecture": "兵庫県",
    "prefecture_kana": "ヒョウゴケン",
    "prefecture_code": 28,
    "city": "西脇市",
    "city_kana": "ニシワキシ",
    "town": "羽安町",
    "town_kana": "ハヤスチョウ",
    "street": null,
    "office_name": null,
    "office_name_kana": null
  },
  "0011": {
    "postcode": "6770011",
    "prefecture": "兵庫県",
    "prefecture_kana": "ヒョウゴケン",
    "prefecture_code": 28,
    "city": "西脇市",
    "city_kana": "ニシワキシ",
    "town": "富吉上町",
    "town_kana": "トミヨシカミマチ",
    "street": null,
    "office_name": null,
    "office_name_kana": null
  },
  "0012": {
    "postcode": "6770012",
    "prefecture": "兵庫県",
    "prefecture_kana": "ヒョウゴケン",
    "prefecture_code": 28,
    "city": "西脇市",
    "city_kana": "ニシワキシ",
    "town": "富吉南町",
    "town_kana": "トミヨシミナミチョウ",
    "street": null,
    "office_name": null,
    "office_name_kana": null
  },
  "0013": {
    "postcode": "6770013",
    "prefecture": "兵庫県",
    "prefecture_kana": "ヒョウゴケン",
    "prefecture_code": 28,
    "city": "西脇市",
    "city_kana": "ニシワキシ",
    "town": "日野町",
    "town_kana": "ヒノチョウ",
    "street": null,
    "office_name": null,
    "office_name_kana": null
  },
  "0014": {
    "postcode": "6770014",
    "prefecture": "兵庫県",
    "prefecture_kana": "ヒョウゴケン",
    "prefecture_code": 28,
    "city": "西脇市",
    "city_kana": "ニシワキシ",
    "town": "郷瀬町",
    "town_kana": "ゴノセチョウ",
    "street": null,
    "office_name": null,
    "office_name_kana": null
  },
  "0015": {
    "postcode": "6770015",
    "prefecture": "兵庫県",
    "prefecture_kana": "ヒョウゴケン",
    "prefecture_code": 28,
    "city": "西脇市",
    "city_kana": "ニシワキシ",
    "town": "西脇",
    "town_kana": "ニシワキ",
    "street": null,
    "office_name": null,
    "office_name_kana": null
  },
  "0016": {
    "postcode": "6770016",
    "prefecture": "兵庫県",
    "prefecture_kana": "ヒョウゴケン",
    "prefecture_code": 28,
    "city": "西脇市",
    "city_kana": "ニシワキシ",
    "town": "高田井町",
    "town_kana": "コウダイチョウ",
    "street": null,
    "office_name": null,
    "office_name_kana": null
  },
  "0017": {
    "postcode": "6770017",
    "prefecture": "兵庫県",
    "prefecture_kana": "ヒョウゴケン",
    "prefecture_code": 28,
    "city": "西脇市",
    "city_kana": "ニシワキシ",
    "town": "小坂町",
    "town_kana": "コサカチョウ",
    "street": null,
    "office_name": null,
    "office_name_kana": null
  },
  "0018": {
    "postcode": "6770018",
    "prefecture": "兵庫県",
    "prefecture_kana": "ヒョウゴケン",
    "prefecture_code": 28,
    "city": "西脇市",
    "city_kana": "ニシワキシ",
    "town": "富田町",
    "town_kana": "トミタチョウ",
    "street": null,
    "office_name": null,
    "office_name_kana": null
  },
  "0021": {
    "postcode": "6770021",
    "prefecture": "兵庫県",
    "prefecture_kana": "ヒョウゴケン",
    "prefecture_code": 28,
    "city": "西脇市",
    "city_kana": "ニシワキシ",
    "town": "蒲江",
    "town_kana": "コモエ",
    "street": null,
    "office_name": null,
    "office_name_kana": null
  },
  "0022": {
    "postcode": "6770022",
    "prefecture": "兵庫県",
    "prefecture_kana": "ヒョウゴケン",
    "prefecture_code": 28,
    "city": "西脇市",
    "city_kana": "ニシワキシ",
    "town": "寺内",
    "town_kana": "テラウチ",
    "street": null,
    "office_name": null,
    "office_name_kana": null
  },
  "0023": {
    "postcode": "6770023",
    "prefecture": "兵庫県",
    "prefecture_kana": "ヒョウゴケン",
    "prefecture_code": 28,
    "city": "西脇市",
    "city_kana": "ニシワキシ",
    "town": "西嶋",
    "town_kana": "ニシジマ",
    "street": null,
    "office_name": null,
    "office_name_kana": null
  },
  "0024": {
    "postcode": "6770024",
    "prefecture": "兵庫県",
    "prefecture_kana": "ヒョウゴケン",
    "prefecture_code": 28,
    "city": "西脇市",
    "city_kana": "ニシワキシ",
    "town": "嶋",
    "town_kana": "シマ",
    "street": null,
    "office_name": null,
    "office_name_kana": null
  },
  "0025": {
    "postcode": "6770025",
    "prefecture": "兵庫県",
    "prefecture_kana": "ヒョウゴケン",
    "prefecture_code": 28,
    "city": "西脇市",
    "city_kana": "ニシワキシ",
    "town": "大野",
    "town_kana": "オオノ",
    "street": null,
    "office_name": null,
    "office_name_kana": null
  },
  "0026": {
    "postcode": "6770026",
    "prefecture": "兵庫県",
    "prefecture_kana": "ヒョウゴケン",
    "prefecture_code": 28,
    "city": "西脇市",
    "city_kana": "ニシワキシ",
    "town": "坂本",
    "town_kana": "サカモト",
    "street": null,
    "office_name": null,
    "office_name_kana": null
  },
  "0031": {
    "postcode": "6770031",
    "prefecture": "兵庫県",
    "prefecture_kana": "ヒョウゴケン",
    "prefecture_code": 28,
    "city": "西脇市",
    "city_kana": "ニシワキシ",
    "town": "住吉町",
    "town_kana": "スミヨシチョウ",
    "street": null,
    "office_name": null,
    "office_name_kana": null
  },
  "0032": {
    "postcode": "6770032",
    "prefecture": "兵庫県",
    "prefecture_kana": "ヒョウゴケン",
    "prefecture_code": 28,
    "city": "西脇市",
    "city_kana": "ニシワキシ",
    "town": "中畑町",
    "town_kana": "ナカハタチョウ",
    "street": null,
    "office_name": null,
    "office_name_kana": null
  },
  "0033": {
    "postcode": "6770033",
    "prefecture": "兵庫県",
    "prefecture_kana": "ヒョウゴケン",
    "prefecture_code": 28,
    "city": "西脇市",
    "city_kana": "ニシワキシ",
    "town": "鹿野町",
    "town_kana": "シカノチョウ",
    "street": null,
    "office_name": null,
    "office_name_kana": null
  },
  "0034": {
    "postcode": "6770034",
    "prefecture": "兵庫県",
    "prefecture_kana": "ヒョウゴケン",
    "prefecture_code": 28,
    "city": "西脇市",
    "city_kana": "ニシワキシ",
    "town": "塚口町",
    "town_kana": "ツカグチチョウ",
    "street": null,
    "office_name": null,
    "office_name_kana": null
  },
  "0035": {
    "postcode": "6770035",
    "prefecture": "兵庫県",
    "prefecture_kana": "ヒョウゴケン",
    "prefecture_code": 28,
    "city": "西脇市",
    "city_kana": "ニシワキシ",
    "town": "上戸田",
    "town_kana": "カミトダ",
    "street": null,
    "office_name": null,
    "office_name_kana": null
  },
  "0036": {
    "postcode": "6770036",
    "prefecture": "兵庫県",
    "prefecture_kana": "ヒョウゴケン",
    "prefecture_code": 28,
    "city": "西脇市",
    "city_kana": "ニシワキシ",
    "town": "津万",
    "town_kana": "ツマ",
    "street": null,
    "office_name": null,
    "office_name_kana": null
  },
  "0037": {
    "postcode": "6770037",
    "prefecture": "兵庫県",
    "prefecture_kana": "ヒョウゴケン",
    "prefecture_code": 28,
    "city": "西脇市",
    "city_kana": "ニシワキシ",
    "town": "比延町",
    "town_kana": "ヒエチョウ",
    "street": null,
    "office_name": null,
    "office_name_kana": null
  },
  "0038": {
    "postcode": "6770038",
    "prefecture": "兵庫県",
    "prefecture_kana": "ヒョウゴケン",
    "prefecture_code": 28,
    "city": "西脇市",
    "city_kana": "ニシワキシ",
    "town": "大垣内",
    "town_kana": "オオガチ",
    "street": null,
    "office_name": null,
    "office_name_kana": null
  },
  "0039": {
    "postcode": "6770039",
    "prefecture": "兵庫県",
    "prefecture_kana": "ヒョウゴケン",
    "prefecture_code": 28,
    "city": "西脇市",
    "city_kana": "ニシワキシ",
    "town": "上比延町",
    "town_kana": "カミヒエチョウ",
    "street": null,
    "office_name": null,
    "office_name_kana": null
  },
  "0041": {
    "postcode": "6770041",
    "prefecture": "兵庫県",
    "prefecture_kana": "ヒョウゴケン",
    "prefecture_code": 28,
    "city": "西脇市",
    "city_kana": "ニシワキシ",
    "town": "高嶋町",
    "town_kana": "タカシマチョウ",
    "street": null,
    "office_name": null,
    "office_name_kana": null
  },
  "0042": {
    "postcode": "6770042",
    "prefecture": "兵庫県",
    "prefecture_kana": "ヒョウゴケン",
    "prefecture_code": 28,
    "city": "西脇市",
    "city_kana": "ニシワキシ",
    "town": "堀町",
    "town_kana": "ホリチョウ",
    "street": null,
    "office_name": null,
    "office_name_kana": null
  },
  "0043": {
    "postcode": "6770043",
    "prefecture": "兵庫県",
    "prefecture_kana": "ヒョウゴケン",
    "prefecture_code": 28,
    "city": "西脇市",
    "city_kana": "ニシワキシ",
    "town": "下戸田",
    "town_kana": "シモトダ",
    "street": null,
    "office_name": null,
    "office_name_kana": null
  },
  "0044": {
    "postcode": "6770044",
    "prefecture": "兵庫県",
    "prefecture_kana": "ヒョウゴケン",
    "prefecture_code": 28,
    "city": "西脇市",
    "city_kana": "ニシワキシ",
    "town": "上野",
    "town_kana": "ウエノ",
    "street": null,
    "office_name": null,
    "office_name_kana": null
  },
  "0051": {
    "postcode": "6770051",
    "prefecture": "兵庫県",
    "prefecture_kana": "ヒョウゴケン",
    "prefecture_code": 28,
    "city": "西脇市",
    "city_kana": "ニシワキシ",
    "town": "谷町",
    "town_kana": "タニチョウ",
    "street": null,
    "office_name": null,
    "office_name_kana": null
  },
  "0052": {
    "postcode": "6770052",
    "prefecture": "兵庫県",
    "prefecture_kana": "ヒョウゴケン",
    "prefecture_code": 28,
    "city": "西脇市",
    "city_kana": "ニシワキシ",
    "town": "和田町",
    "town_kana": "ワダチョウ",
    "street": null,
    "office_name": null,
    "office_name_kana": null
  },
  "0053": {
    "postcode": "6770053",
    "prefecture": "兵庫県",
    "prefecture_kana": "ヒョウゴケン",
    "prefecture_code": 28,
    "city": "西脇市",
    "city_kana": "ニシワキシ",
    "town": "和布町",
    "town_kana": "ワブチョウ",
    "street": null,
    "office_name": null,
    "office_name_kana": null
  },
  "0054": {
    "postcode": "6770054",
    "prefecture": "兵庫県",
    "prefecture_kana": "ヒョウゴケン",
    "prefecture_code": 28,
    "city": "西脇市",
    "city_kana": "ニシワキシ",
    "town": "野村町",
    "town_kana": "ノムラチョウ",
    "street": null,
    "office_name": null,
    "office_name_kana": null
  },
  "0055": {
    "postcode": "6770055",
    "prefecture": "兵庫県",
    "prefecture_kana": "ヒョウゴケン",
    "prefecture_code": 28,
    "city": "西脇市",
    "city_kana": "ニシワキシ",
    "town": "高松町",
    "town_kana": "タカマツチョウ",
    "street": null,
    "office_name": null,
    "office_name_kana": null
  },
  "0056": {
    "postcode": "6770056",
    "prefecture": "兵庫県",
    "prefecture_kana": "ヒョウゴケン",
    "prefecture_code": 28,
    "city": "西脇市",
    "city_kana": "ニシワキシ",
    "town": "板波町",
    "town_kana": "イタバチョウ",
    "street": null,
    "office_name": null,
    "office_name_kana": null
  },
  "0057": {
    "postcode": "6770057",
    "prefecture": "兵庫県",
    "prefecture_kana": "ヒョウゴケン",
    "prefecture_code": 28,
    "city": "西脇市",
    "city_kana": "ニシワキシ",
    "town": "野村町茜が丘",
    "town_kana": "ノムラチョウアカネガオカ",
    "street": null,
    "office_name": null,
    "office_name_kana": null
  },
  "0061": {
    "postcode": "6770061",
    "prefecture": "兵庫県",
    "prefecture_kana": "ヒョウゴケン",
    "prefecture_code": 28,
    "city": "西脇市",
    "city_kana": "ニシワキシ",
    "town": "合山町",
    "town_kana": "アヤマチョウ",
    "street": null,
    "office_name": null,
    "office_name_kana": null
  },
  "0062": {
    "postcode": "6770062",
    "prefecture": "兵庫県",
    "prefecture_kana": "ヒョウゴケン",
    "prefecture_code": 28,
    "city": "西脇市",
    "city_kana": "ニシワキシ",
    "town": "出会町",
    "town_kana": "デアイチョウ",
    "street": null,
    "office_name": null,
    "office_name_kana": null
  },
  "0063": {
    "postcode": "6770063",
    "prefecture": "兵庫県",
    "prefecture_kana": "ヒョウゴケン",
    "prefecture_code": 28,
    "city": "西脇市",
    "city_kana": "ニシワキシ",
    "town": "平野町",
    "town_kana": "ヒラノチョウ",
    "street": null,
    "office_name": null,
    "office_name_kana": null
  },
  "0064": {
    "postcode": "6770064",
    "prefecture": "兵庫県",
    "prefecture_kana": "ヒョウゴケン",
    "prefecture_code": 28,
    "city": "西脇市",
    "city_kana": "ニシワキシ",
    "town": "八坂町",
    "town_kana": "ヤサカチョウ",
    "street": null,
    "office_name": null,
    "office_name_kana": null
  },
  "0065": {
    "postcode": "6770065",
    "prefecture": "兵庫県",
    "prefecture_kana": "ヒョウゴケン",
    "prefecture_code": 28,
    "city": "西脇市",
    "city_kana": "ニシワキシ",
    "town": "岡崎町",
    "town_kana": "オカザキチョウ",
    "street": null,
    "office_name": null,
    "office_name_kana": null
  },
  "0066": {
    "postcode": "6770066",
    "prefecture": "兵庫県",
    "prefecture_kana": "ヒョウゴケン",
    "prefecture_code": 28,
    "city": "西脇市",
    "city_kana": "ニシワキシ",
    "town": "水尾町",
    "town_kana": "ミズオチョウ",
    "street": null,
    "office_name": null,
    "office_name_kana": null
  },
  "0067": {
    "postcode": "6770067",
    "prefecture": "兵庫県",
    "prefecture_kana": "ヒョウゴケン",
    "prefecture_code": 28,
    "city": "西脇市",
    "city_kana": "ニシワキシ",
    "town": "明楽寺町",
    "town_kana": "ミョウラクジチョウ",
    "street": null,
    "office_name": null,
    "office_name_kana": null
  },
  "0068": {
    "postcode": "6770068",
    "prefecture": "兵庫県",
    "prefecture_kana": "ヒョウゴケン",
    "prefecture_code": 28,
    "city": "西脇市",
    "city_kana": "ニシワキシ",
    "town": "落方町",
    "town_kana": "オチカタチョウ",
    "street": null,
    "office_name": null,
    "office_name_kana": null
  },
  "0069": {
    "postcode": "6770069",
    "prefecture": "兵庫県",
    "prefecture_kana": "ヒョウゴケン",
    "prefecture_code": 28,
    "city": "西脇市",
    "city_kana": "ニシワキシ",
    "town": "上王子町",
    "town_kana": "カミオウジチョウ",
    "street": null,
    "office_name": null,
    "office_name_kana": null
  },
  "0101": {
    "postcode": "6770101",
    "prefecture": "兵庫県",
    "prefecture_kana": "ヒョウゴケン",
    "prefecture_code": 28,
    "city": "多可郡多可町",
    "city_kana": "タカグンタカチョウ",
    "town": "八千代区大屋",
    "town_kana": "ヤチヨクオオヤ",
    "street": null,
    "office_name": null,
    "office_name_kana": null
  },
  "0102": {
    "postcode": "6770102",
    "prefecture": "兵庫県",
    "prefecture_kana": "ヒョウゴケン",
    "prefecture_code": 28,
    "city": "多可郡多可町",
    "city_kana": "タカグンタカチョウ",
    "town": "八千代区坂本",
    "town_kana": "ヤチヨクサカモト",
    "street": null,
    "office_name": null,
    "office_name_kana": null
  },
  "0103": {
    "postcode": "6770103",
    "prefecture": "兵庫県",
    "prefecture_kana": "ヒョウゴケン",
    "prefecture_code": 28,
    "city": "多可郡多可町",
    "city_kana": "タカグンタカチョウ",
    "town": "八千代区中村",
    "town_kana": "ヤチヨクナカムラ",
    "street": null,
    "office_name": null,
    "office_name_kana": null
  },
  "0104": {
    "postcode": "6770104",
    "prefecture": "兵庫県",
    "prefecture_kana": "ヒョウゴケン",
    "prefecture_code": 28,
    "city": "多可郡多可町",
    "city_kana": "タカグンタカチョウ",
    "town": "八千代区横屋",
    "town_kana": "ヤチヨクヨコヤ",
    "street": null,
    "office_name": null,
    "office_name_kana": null
  },
  "0105": {
    "postcode": "6770105",
    "prefecture": "兵庫県",
    "prefecture_kana": "ヒョウゴケン",
    "prefecture_code": 28,
    "city": "多可郡多可町",
    "city_kana": "タカグンタカチョウ",
    "town": "八千代区下村",
    "town_kana": "ヤチヨクシモムラ",
    "street": null,
    "office_name": null,
    "office_name_kana": null
  },
  "0111": {
    "postcode": "6770111",
    "prefecture": "兵庫県",
    "prefecture_kana": "ヒョウゴケン",
    "prefecture_code": 28,
    "city": "多可郡多可町",
    "city_kana": "タカグンタカチョウ",
    "town": "八千代区門田",
    "town_kana": "ヤチヨクカドタ",
    "street": null,
    "office_name": null,
    "office_name_kana": null
  },
  "0112": {
    "postcode": "6770112",
    "prefecture": "兵庫県",
    "prefecture_kana": "ヒョウゴケン",
    "prefecture_code": 28,
    "city": "多可郡多可町",
    "city_kana": "タカグンタカチョウ",
    "town": "八千代区赤坂",
    "town_kana": "ヤチヨクアカサカ",
    "street": null,
    "office_name": null,
    "office_name_kana": null
  },
  "0113": {
    "postcode": "6770113",
    "prefecture": "兵庫県",
    "prefecture_kana": "ヒョウゴケン",
    "prefecture_code": 28,
    "city": "多可郡多可町",
    "city_kana": "タカグンタカチョウ",
    "town": "八千代区俵田",
    "town_kana": "ヤチヨクタワラダ",
    "street": null,
    "office_name": null,
    "office_name_kana": null
  },
  "0114": {
    "postcode": "6770114",
    "prefecture": "兵庫県",
    "prefecture_kana": "ヒョウゴケン",
    "prefecture_code": 28,
    "city": "多可郡多可町",
    "city_kana": "タカグンタカチョウ",
    "town": "八千代区仕出原",
    "town_kana": "ヤチヨクシデハラ",
    "street": null,
    "office_name": null,
    "office_name_kana": null
  },
  "0121": {
    "postcode": "6770121",
    "prefecture": "兵庫県",
    "prefecture_kana": "ヒョウゴケン",
    "prefecture_code": 28,
    "city": "多可郡多可町",
    "city_kana": "タカグンタカチョウ",
    "town": "八千代区中野間",
    "town_kana": "ヤチヨクナカノマ",
    "street": null,
    "office_name": null,
    "office_name_kana": null
  },
  "0122": {
    "postcode": "6770122",
    "prefecture": "兵庫県",
    "prefecture_kana": "ヒョウゴケン",
    "prefecture_code": 28,
    "city": "多可郡多可町",
    "city_kana": "タカグンタカチョウ",
    "town": "八千代区下野間",
    "town_kana": "ヤチヨクシモノマ",
    "street": null,
    "office_name": null,
    "office_name_kana": null
  },
  "0131": {
    "postcode": "6770131",
    "prefecture": "兵庫県",
    "prefecture_kana": "ヒョウゴケン",
    "prefecture_code": 28,
    "city": "多可郡多可町",
    "city_kana": "タカグンタカチョウ",
    "town": "八千代区下三原",
    "town_kana": "ヤチヨクシモミハラ",
    "street": null,
    "office_name": null,
    "office_name_kana": null
  },
  "0132": {
    "postcode": "6770132",
    "prefecture": "兵庫県",
    "prefecture_kana": "ヒョウゴケン",
    "prefecture_code": 28,
    "city": "多可郡多可町",
    "city_kana": "タカグンタカチョウ",
    "town": "八千代区大和",
    "town_kana": "ヤチヨクヤマト",
    "street": null,
    "office_name": null,
    "office_name_kana": null
  },
  "8510": {
    "postcode": "6778510",
    "prefecture": "兵庫県",
    "prefecture_kana": "ヒョウゴケン",
    "prefecture_code": 28,
    "city": "西脇市",
    "city_kana": "ニシワキシ",
    "town": "西脇",
    "town_kana": "ニシワキ",
    "street": "９９１",
    "office_name": "西脇ロイヤルホテル",
    "office_name_kana": "ニシワキロイヤルホテル"
  },
  "8511": {
    "postcode": "6778511",
    "prefecture": "兵庫県",
    "prefecture_kana": "ヒョウゴケン",
    "prefecture_code": 28,
    "city": "西脇市",
    "city_kana": "ニシワキシ",
    "town": "下戸田",
    "town_kana": "シモトダ",
    "street": "１２８−１",
    "office_name": "西脇市役所",
    "office_name_kana": "ニシワキシヤクシヨ"
  }
}