{
  "0000": {
    "postcode": "6780000",
    "prefecture": "兵庫県",
    "prefecture_kana": "ヒョウゴケン",
    "prefecture_code": 28,
    "city": "相生市",
    "city_kana": "アイオイシ",
    "town": "",
    "town_kana": "",
    "street": null,
    "office_name": null,
    "office_name_kana": null
  },
  "0001": {
    "postcode": "6780001",
    "prefecture": "兵庫県",
    "prefecture_kana": "ヒョウゴケン",
    "prefecture_code": 28,
    "city": "相生市",
    "city_kana": "アイオイシ",
    "town": "山手",
    "town_kana": "ヤマテ",
    "street": null,
    "office_name": null,
    "office_name_kana": null
  },
  "0002": {
    "postcode": "6780002",
    "prefecture": "兵庫県",
    "prefecture_kana": "ヒョウゴケン",
    "prefecture_code": 28,
    "city": "相生市",
    "city_kana": "アイオイシ",
    "town": "汐見台",
    "town_kana": "シオミダイ",
    "street": null,
    "office_name": null,
    "office_name_kana": null
  },
  "0003": {
    "postcode": "6780003",
    "prefecture": "兵庫県",
    "prefecture_kana": "ヒョウゴケン",
    "prefecture_code": 28,
    "city": "相生市",
    "city_kana": "アイオイシ",
    "town": "陸",
    "town_kana": "クガ",
    "street": null,
    "office_name": null,
    "office_name_kana": null
  },
  "0004": {
    "postcode": "6780004",
    "prefecture": "兵庫県",
    "prefecture_kana": "ヒョウゴケン",
    "prefecture_code": 28,
    "city": "相生市",
    "city_kana": "アイオイシ",
    "town": "池之内",
    "town_kana": "イケノウチ",
    "street": null,
    "office_name": null,
    "office_name_kana": null
  },
  "0005": {
    "postcode": "6780005",
    "prefecture": "兵庫県",
    "prefecture_kana": "ヒョウゴケン",
    "prefecture_code": 28,
    "city": "相生市",
    "city_kana": "アイオイシ",
    "town": "大石町",
    "town_kana": "オオイシチョウ",
    "street": null,
    "office_name": null,
    "office_name_kana": null
  },
  "0006": {
    "postcode": "6780006",
    "prefecture": "兵庫県",
    "prefecture_kana": "ヒョウゴケン",
    "prefecture_code": 28,
    "city": "相生市",
    "city_kana": "アイオイシ",
    "town": "本郷町",
    "town_kana": "ホンゴウチョウ",
    "street": null,
    "office_name": null,
    "office_name_kana": null
  },
  "0007": {
    "postcode": "6780007",
    "prefecture": "兵庫県",
    "prefecture_kana": "ヒョウゴケン",
    "prefecture_code": 28,
    "city": "相生市",
    "city_kana": "アイオイシ",
    "town": "陸本町",
    "town_kana": "クガホンマチ",
    "street": null,
    "office_name": null,
    "office_name_kana": null
  },
  "0008": {
    "postcode": "6780008",
    "prefecture": "兵庫県",
    "prefecture_kana": "ヒョウゴケン",
    "prefecture_code": 28,
    "city": "相生市",
    "city_kana": "アイオイシ",
    "town": "栄町",
    "town_kana": "サカエマチ",
    "street": null,
    "office_name": null,
    "office_name_kana": null
  },
  "0011": {
    "postcode": "6780011",
    "prefecture": "兵庫県",
    "prefecture_kana": "ヒョウゴケン",
    "prefecture_code": 28,
    "city": "相生市",
    "city_kana": "アイオイシ",
    "town": "那波野",
    "town_kana": "ナバノ",
    "street": null,
    "office_name": null,
    "office_name_kana": null
  },
  "0012": {
    "postcode": "6780012",
    "prefecture": "兵庫県",
    "prefecture_kana": "ヒョウゴケン",
    "prefecture_code": 28,
    "city": "相生市",
    "city_kana": "アイオイシ",
    "town": "古池",
    "town_kana": "フルイケ",
    "street": null,
    "office_name": null,
    "office_name_kana": null
  },
  "0021": {
    "postcode": "6780021",
    "prefecture": "兵庫県",
    "prefecture_kana": "ヒョウゴケン",
    "prefecture_code": 28,
    "city": "相生市",
    "city_kana": "アイオイシ",
    "town": "赤坂",
    "town_kana": "アカサカ",
    "street": null,
    "office_name": null,
    "office_name_kana": null
  },
  "0022": {
    "postcode": "6780022",
    "prefecture": "兵庫県",
    "prefecture_kana": "ヒョウゴケン",
    "prefecture_code": 28,
    "city": "相生市",
    "city_kana": "アイオイシ",
    "town": "垣内町",
    "town_kana": "カキウチチョウ",
    "street": null,
    "office_name": null,
    "office_name_kana": null
  },
  "0023": {
    "postcode": "6780023",
    "prefecture": "兵庫県",
    "prefecture_kana": "ヒョウゴケン",
    "prefecture_code": 28,
    "city": "相生市",
    "city_kana": "アイオイシ",
    "town": "向陽台",
    "town_kana": "コウヨウダイ",
    "street": null,
    "office_name": null,
    "office_name_kana": null
  },
  "0024": {
    "postcode": "6780024",
    "prefecture": "兵庫県",
    "prefecture_kana": "ヒョウゴケン",
    "prefecture_code": 28,
    "city": "相生市",
    "city_kana": "アイオイシ",
    "town": "双葉",
    "town_kana": "フタバ",
    "street": null,
    "office_name": null,
    "office_name_kana": null
  },
  "0025": {
    "postcode": "6780025",
    "prefecture": "兵庫県",
    "prefecture_kana": "ヒョウゴケン",
    "prefecture_code": 28,
    "city": "相生市",
    "city_kana": "アイオイシ",
    "town": "古池本町",
    "town_kana": "フルイケホンマチ",
    "street": null,
    "office_name": null,
    "office_name_kana": null
  },
  "0031": {
    "postcode": "6780031",
    "prefecture": "兵庫県",
    "prefecture_kana": "ヒョウゴケン",
    "prefecture_code": 28,
    "city": "相生市",
    "city_kana": "アイオイシ",
    "town": "旭",
    "town_kana": "アサヒ",
    "street": null,
    "office_name": null,
    "office_name_kana": null
  },
  "0041": {
    "postcode": "6780041",
    "prefecture": "兵庫県",
    "prefecture_kana": "ヒョウゴケン",
    "prefecture_code": 28,
    "city": "相生市",
    "city_kana": "アイオイシ",
    "town": "相生",
    "town_kana": "アイオイ",
    "street": null,
    "office_name": null,
    "office_name_kana": null
  },
  "0042": {
    "postcode": "6780042",
    "prefecture": "兵庫県",
    "prefecture_kana": "ヒョウゴケン",
    "prefecture_code": 28,
    "city": "相生市",
    "city_kana": "アイオイシ",
    "town": "川原町",
    "town_kana": "カワハラチョウ",
    "street": null,
    "office_name": null,
    "office_name_kana": null
  },
  "0043": {
    "postcode": "6780043",
    "prefecture": "兵庫県",
    "prefecture_kana": "ヒョウゴケン",
    "prefecture_code": 28,
    "city": "相生市",
    "city_kana": "アイオイシ",
    "town": "大谷町",
    "town_kana": "オオタニチョウ",
    "street": null,
    "office_name": null,
    "office_name_kana": null
  },
  "0044": {
    "postcode": "6780044",
    "prefecture": "兵庫県",
    "prefecture_kana": "ヒョウゴケン",
    "prefecture_code": 28,
    "city": "相生市",
    "city_kana": "アイオイシ",
    "town": "野瀬",
    "town_kana": "ノセ",
    "street": null,
    "office_name": null,
    "office_name_kana": null
  },
  "0051": {
    "postcode": "6780051",
    "prefecture": "兵庫県",
    "prefecture_kana": "ヒョウゴケン",
    "prefecture_code": 28,
    "city": "相生市",
    "city_kana": "アイオイシ",
    "town": "那波大浜町",
    "town_kana": "ナバオオハマチョウ",
    "street": null,
    "office_name": null,
    "office_name_kana": null
  },
  "0052": {
    "postcode": "6780052",
    "prefecture": "兵庫県",
    "prefecture_kana": "ヒョウゴケン",
    "prefecture_code": 28,
    "city": "相生市",
    "city_kana": "アイオイシ",
    "town": "大島町",
    "town_kana": "オオシマチョウ",
    "street": null,
    "office_name": null,
    "office_name_kana": null
  },
  "0053": {
    "postcode": "6780053",
    "prefecture": "兵庫県",
    "prefecture_kana": "ヒョウゴケン",
    "prefecture_code": 28,
    "city": "相生市",
    "city_kana": "アイオイシ",
    "town": "那波南本町",
    "town_kana": "ナバミナミホンマチ",
    "street": null,
    "office_name": null,
    "office_name_kana": null
  },
  "0054": {
    "postcode": "6780054",
    "prefecture": "兵庫県",
    "prefecture_kana": "ヒョウゴケン",
    "prefecture_code": 28,
    "city": "相生市",
    "city_kana": "アイオイシ",
    "town": "那波西本町",
    "town_kana": "ナバニシホンマチ",
    "street": null,
    "office_name": null,
    "office_name_kana": null
  },
  "0055": {
    "postcode": "6780055",
    "prefecture": "兵庫県",
    "prefecture_kana": "ヒョウゴケン",
    "prefecture_code": 28,
    "city": "相生市",
    "city_kana": "アイオイシ",
    "town": "那波本町",
    "town_kana": "ナバホンマチ",
    "street": null,
    "office_name": null,
    "office_name_kana": null
  },
  "0056": {
    "postcode": "6780056",
    "prefecture": "兵庫県",
    "prefecture_kana": "ヒョウゴケン",
    "prefecture_code": 28,
    "city": "相生市",
    "city_kana": "アイオイシ",
    "town": "那波東本町",
    "town_kana": "ナバヒガシホンマチ",
    "street": null,
    "office_name": null,
    "office_name_kana": null
  },
  "0061": {
    "postcode": "6780061",
    "prefecture": "兵庫県",
    "prefecture_kana": "ヒョウゴケン",
    "prefecture_code": 28,
    "city": "相生市",
    "city_kana": "アイオイシ",
    "town": "桜ケ丘町",
    "town_kana": "サクラガオカチョウ",
    "street": null,
    "office_name": null,
    "office_name_kana": null
  },
  "0062": {
    "postcode": "6780062",
    "prefecture": "兵庫県",
    "prefecture_kana": "ヒョウゴケン",
    "prefecture_code": 28,
    "city": "相生市",
    "city_kana": "アイオイシ",
    "town": "千尋町",
    "town_kana": "チヒロチョウ",
    "street": null,
    "office_name": null,
    "office_name_kana": null
  },
  "0063": {
    "postcode": "6780063",
    "prefecture": "兵庫県",
    "prefecture_kana": "ヒョウゴケン",
    "prefecture_code": 28,
    "city": "相生市",
    "city_kana": "アイオイシ",
    "town": "佐方",
    "town_kana": "サガタ",
    "street": null,
    "office_name": null,
    "office_name_kana": null
  },
  "0064": {
    "postcode": "6780064",
    "prefecture": "兵庫県",
    "prefecture_kana": "ヒョウゴケン",
    "prefecture_code": 28,
    "city": "相生市",
    "city_kana": "アイオイシ",
    "town": "青葉台",
    "town_kana": "アオバダイ",
    "street": null,
    "office_name": null,
    "office_name_kana": null
  },
  "0065": {
    "postcode": "6780065",
    "prefecture": "兵庫県",
    "prefecture_kana": "ヒョウゴケン",
    "prefecture_code": 28,
    "city": "相生市",
    "city_kana": "アイオイシ",
    "town": "西谷町",
    "town_kana": "ニシタニチョウ",
    "street": null,
    "office_name": null,
    "office_name_kana": null
  },
  "0066": {
    "postcode": "6780066",
    "prefecture": "兵庫県",
    "prefecture_kana": "ヒョウゴケン",
    "prefecture_code": 28,
    "city": "相生市",
    "city_kana": "アイオイシ",
    "town": "山崎町",
    "town_kana": "ヤマサキチョウ",
    "street": null,
    "office_name": null,
    "office_name_kana": null
  },
  "0067": {
    "postcode": "6780067",
    "prefecture": "兵庫県",
    "prefecture_kana": "ヒョウゴケン",
    "prefecture_code": 28,
    "city": "相生市",
    "city_kana": "アイオイシ",
    "town": "那波",
    "town_kana": "ナバ",
    "street": null,
    "office_name": null,
    "office_name_kana": null
  },
  "0071": {
    "postcode": "6780071",
    "prefecture": "兵庫県",
    "prefecture_kana": "ヒョウゴケン",
    "prefecture_code": 28,
    "city": "相生市",
    "city_kana": "アイオイシ",
    "town": "緑ケ丘",
    "town_kana": "ミドリガオカ",
    "street": null,
    "office_name": null,
    "office_name_kana": null
  },
  "0072": {
    "postcode": "6780072",
    "prefecture": "兵庫県",
    "prefecture_kana": "ヒョウゴケン",
    "prefecture_code": 28,
    "city": "相生市",
    "city_kana": "アイオイシ",
    "town": "竜泉町",
    "town_kana": "リュウセンチョウ",
    "street": null,
    "office_name": null,
    "office_name_kana": null
  },
  "0073": {
    "postcode": "6780073",
    "prefecture": "兵庫県",
    "prefecture_kana": "ヒョウゴケン",
    "prefecture_code": 28,
    "city": "相生市",
    "city_kana": "アイオイシ",
    "town": "菅原町",
    "town_kana": "スガハラチョウ",
    "street": null,
    "office_name": null,
    "office_name_kana": null
  },
  "0074": {
    "postcode": "6780074",
    "prefecture": "兵庫県",
    "prefecture_kana": "ヒョウゴケン",
    "prefecture_code": 28,
    "city": "相生市",
    "city_kana": "アイオイシ",
    "town": "ひかりが丘",
    "town_kana": "ヒカリガオカ",
    "street": null,
    "office_name": null,
    "office_name_kana": null
  },
  "0081": [
    {
      "postcode": "6780081",
      "prefecture": "兵庫県",
      "prefecture_kana": "ヒョウゴケン",
      "prefecture_code": 28,
      "city": "相生市",
      "city_kana": "アイオイシ",
      "town": "若狭野町雨内",
      "town_kana": "ワカサノチョウアマウチ",
      "street": null,
      "office_name": null,
      "office_name_kana": null
    },
    {
      "postcode": "6780081",
      "prefecture": "兵庫県",
      "prefecture_kana": "ヒョウゴケン",
      "prefecture_code": 28,
      "city": "相生市",
      "city_kana": "アイオイシ",
      "town": "若狭野町入野",
      "town_kana": "ワカサノチョウイリノ",
      "street": null,
      "office_name": null,
      "office_name_kana": null
    },
    {
      "postcode": "6780081",
      "prefecture": "兵庫県",
      "prefecture_kana": "ヒョウゴケン",
      "prefecture_code": 28,
      "city": "相生市",
      "city_kana": "アイオイシ",
      "town": "若狭野町上松",
      "town_kana": "ワカサノチョウウエマツ",
      "street": null,
      "office_name": null,
      "office_name_kana": null
    },
    {
      "postcode": "6780081",
      "prefecture": "兵庫県",
      "prefecture_kana": "ヒョウゴケン",
      "prefecture_code": 28,
      "city": "相生市",
      "city_kana": "アイオイシ",
      "town": "若狭野町東後明",
      "town_kana": "ワカサノチョウヒガシゴミョウ",
      "street": null,
      "office_name": null,
      "office_name_kana": null
    },
    {
      "postcode": "6780081",
      "prefecture": "兵庫県",
      "prefecture_kana": "ヒョウゴケン",
      "prefecture_code": 28,
      "city": "相生市",
      "city_kana": "アイオイシ",
      "town": "若狭野町西後明",
      "town_kana": "ワカサノチョウニシゴミョウ",
      "street": null,
      "office_name": null,
      "office_name_kana": null
    },
    {
      "postcode": "6780081",
      "prefecture": "兵庫県",
      "prefecture_kana": "ヒョウゴケン",
      "prefecture_code": 28,
      "city": "相生市",
      "city_kana": "アイオイシ",
      "town": "若狭野町若狭野",
      "town_kana": "ワカサノチョウワカサノ",
      "street": null,
      "office_name": null,
      "office_name_kana": null
    }
  ],
  "0082": [
    {
      "postcode": "6780082",
      "prefecture": "兵庫県",
      "prefecture_kana": "ヒョウゴケン",
      "prefecture_code": 28,
      "city": "相生市",
      "city_kana": "アイオイシ",
      "town": "若狭野町下土井",
      "town_kana": "ワカサノチョウシモドイ",
      "street": null,
      "office_name": null,
      "office_name_kana": null
    },
    {
      "postcode": "6780082",
      "prefecture": "兵庫県",
      "prefecture_kana": "ヒョウゴケン",
      "prefecture_code": 28,
      "city": "相生市",
      "city_kana": "アイオイシ",
      "town": "若狭野町寺田",
      "town_kana": "ワカサノチョウテラダ",
      "street": null,
      "office_name": null,
      "office_name_kana": null
    },
    {
      "postcode": "6780082",
      "prefecture": "兵庫県",
      "prefecture_kana": "ヒョウゴケン",
      "prefecture_code": 28,
      "city": "相生市",
      "city_kana": "アイオイシ",
      "town": "若狭野町出",
      "town_kana": "ワカサノチョウデ",
      "street": null,
      "office_name": null,
      "office_name_kana": null
    },
    {
      "postcode": "6780082",
      "prefecture": "兵庫県",
      "prefecture_kana": "ヒョウゴケン",
      "prefecture_code": 28,
      "city": "相生市",
      "city_kana": "アイオイシ",
      "town": "若狭野町野々",
      "town_kana": "ワカサノチョウノノ",
      "street": null,
      "office_name": null,
      "office_name_kana": null
    },
    {
      "postcode": "6780082",
      "prefecture": "兵庫県",
      "prefecture_kana": "ヒョウゴケン",
      "prefecture_code": 28,
      "city": "相生市",
      "city_kana": "アイオイシ",
      "town": "若狭野町八洞",
      "town_kana": "ワカサノチョウハットウ",
      "street": null,
      "office_name": null,
      "office_name_kana": null
    },
    {
      "postcode": "6780082",
      "prefecture": "兵庫県",
      "prefecture_kana": "ヒョウゴケン",
      "prefecture_code": 28,
      "city": "相生市",
      "city_kana": "アイオイシ",
      "town": "若狭野町福井",
      "town_kana": "ワカサノチョウフクイ",
      "street": null,
      "office_name": null,
      "office_name_kana": null
    }
  ],
  "0091": [
    {
      "postcode": "6780091",
      "prefecture": "兵庫県",
      "prefecture_kana": "ヒョウゴケン",
      "prefecture_code": 28,
      "city": "相生市",
      "city_kana": "アイオイシ",
      "town": "矢野町瓜生",
      "town_kana": "ヤノチョウウリュウ",
      "street": null,
      "office_name": null,
      "office_name_kana": null
    },
    {
      "postcode": "6780091",
      "prefecture": "兵庫県",
      "prefecture_kana": "ヒョウゴケン",
      "prefecture_code": 28,
      "city": "相生市",
      "city_kana": "アイオイシ",
      "town": "矢野町金坂",
      "town_kana": "ヤノチョウカネサカ",
      "street": null,
      "office_name": null,
      "office_name_kana": null
    },
    {
      "postcode": "6780091",
      "prefecture": "兵庫県",
      "prefecture_kana": "ヒョウゴケン",
      "prefecture_code": 28,
      "city": "相生市",
      "city_kana": "アイオイシ",
      "town": "矢野町釜出",
      "town_kana": "ヤノチョウカマデ",
      "street": null,
      "office_name": null,
      "office_name_kana": null
    },
    {
      "postcode": "6780091",
      "prefecture": "兵庫県",
      "prefecture_kana": "ヒョウゴケン",
      "prefecture_code": 28,
      "city": "相生市",
      "city_kana": "アイオイシ",
      "town": "矢野町上",
      "town_kana": "ヤノチョウカミ",
      "street": null,
      "office_name": null,
      "office_name_kana": null
    },
    {
      "postcode": "6780091",
      "prefecture": "兵庫県",
      "prefecture_kana": "ヒョウゴケン",
      "prefecture_code": 28,
      "city": "相生市",
      "city_kana": "アイオイシ",
      "town": "矢野町榊",
      "town_kana": "ヤノチョウサカキ",
      "street": null,
      "office_name": null,
      "office_name_kana": null
    },
    {
      "postcode": "6780091",
      "prefecture": "兵庫県",
      "prefecture_kana": "ヒョウゴケン",
      "prefecture_code": 28,
      "city": "相生市",
      "city_kana": "アイオイシ",
      "town": "矢野町菅谷",
      "town_kana": "ヤノチョウスガタニ",
      "street": null,
      "office_name": null,
      "office_name_kana": null
    },
    {
      "postcode": "6780091",
      "prefecture": "兵庫県",
      "prefecture_kana": "ヒョウゴケン",
      "prefecture_code": 28,
      "city": "相生市",
      "city_kana": "アイオイシ",
      "town": "矢野町中野",
      "town_kana": "ヤノチョウナカノ",
      "street": null,
      "office_name": null,
      "office_name_kana": null
    },
    {
      "postcode": "6780091",
      "prefecture": "兵庫県",
      "prefecture_kana": "ヒョウゴケン",
      "prefecture_code": 28,
      "city": "相生市",
      "city_kana": "アイオイシ",
      "town": "矢野町能下",
      "town_kana": "ヤノチョウノウゲ",
      "street": null,
      "office_name": null,
      "office_name_kana": null
    },
    {
      "postcode": "6780091",
      "prefecture": "兵庫県",
      "prefecture_kana": "ヒョウゴケン",
      "prefecture_code": 28,
      "city": "相生市",
      "city_kana": "アイオイシ",
      "town": "矢野町二木",
      "town_kana": "ヤノチョウフタツギ",
      "street": null,
      "office_name": null,
      "office_name_kana": null
    },
    {
      "postcode": "6780091",
      "prefecture": "兵庫県",
      "prefecture_kana": "ヒョウゴケン",
      "prefecture_code": 28,
      "city": "相生市",
      "city_kana": "アイオイシ",
      "town": "矢野町真広",
      "town_kana": "ヤノチョウマヒロ",
      "street": null,
      "office_name": null,
      "office_name_kana": null
    },
    {
      "postcode": "6780091",
      "prefecture": "兵庫県",
      "prefecture_kana": "ヒョウゴケン",
      "prefecture_code": 28,
      "city": "相生市",
      "city_kana": "アイオイシ",
      "town": "矢野町森",
      "town_kana": "ヤノチョウモリ",
      "street": null,
      "office_name": null,
      "office_name_kana": null
    }
  ],
  "0092": [
    {
      "postcode": "6780092",
      "prefecture": "兵庫県",
      "prefecture_kana": "ヒョウゴケン",
      "prefecture_code": 28,
      "city": "相生市",
      "city_kana": "アイオイシ",
      "town": "矢野町小河",
      "town_kana": "ヤノチョウオウゴ",
      "street": null,
      "office_name": null,
      "office_name_kana": null
    },
    {
      "postcode": "6780092",
      "prefecture": "兵庫県",
      "prefecture_kana": "ヒョウゴケン",
      "prefecture_code": 28,
      "city": "相生市",
      "city_kana": "アイオイシ",
      "town": "矢野町上土井",
      "town_kana": "ヤノチョウカミドイ",
      "street": null,
      "office_name": null,
      "office_name_kana": null
    },
    {
      "postcode": "6780092",
      "prefecture": "兵庫県",
      "prefecture_kana": "ヒョウゴケン",
      "prefecture_code": 28,
      "city": "相生市",
      "city_kana": "アイオイシ",
      "town": "矢野町下田",
      "town_kana": "ヤノチョウシモダ",
      "street": null,
      "office_name": null,
      "office_name_kana": null
    }
  ],
  "0141": {
    "postcode": "6780141",
    "prefecture": "兵庫県",
    "prefecture_kana": "ヒョウゴケン",
    "prefecture_code": 28,
    "city": "相生市",
    "city_kana": "アイオイシ",
    "town": "相生",
    "town_kana": "アイオイ",
    "street": null,
    "office_name": null,
    "office_name_kana": null
  },
  "0161": {
    "postcode": "6780161",
    "prefecture": "兵庫県",
    "prefecture_kana": "ヒョウゴケン",
    "prefecture_code": 28,
    "city": "赤穂市",
    "city_kana": "アコウシ",
    "town": "中山",
    "town_kana": "ナカヤマ",
    "street": null,
    "office_name": null,
    "office_name_kana": null
  },
  "0162": {
    "postcode": "6780162",
    "prefecture": "兵庫県",
    "prefecture_kana": "ヒョウゴケン",
    "prefecture_code": 28,
    "city": "赤穂市",
    "city_kana": "アコウシ",
    "town": "周世",
    "town_kana": "スセ",
    "street": null,
    "office_name": null,
    "office_name_kana": null
  },
  "0163": {
    "postcode": "6780163",
    "prefecture": "兵庫県",
    "prefecture_kana": "ヒョウゴケン",
    "prefecture_code": 28,
    "city": "赤穂市",
    "city_kana": "アコウシ",
    "town": "高雄",
    "town_kana": "タカオ",
    "street": null,
    "office_name": null,
    "office_name_kana": null
  },
  "0164": {
    "postcode": "6780164",
    "prefecture": "兵庫県",
    "prefecture_kana": "ヒョウゴケン",
    "prefecture_code": 28,
    "city": "赤穂市",
    "city_kana": "アコウシ",
    "town": "目坂",
    "town_kana": "メサカ",
    "street": null,
    "office_name": null,
    "office_name_kana": null
  },
  "0165": {
    "postcode": "6780165",
    "prefecture": "兵庫県",
    "prefecture_kana": "ヒョウゴケン",
    "prefecture_code": 28,
    "city": "赤穂市",
    "city_kana": "アコウシ",
    "town": "木津",
    "town_kana": "キヅ",
    "street": null,
    "office_name": null,
    "office_name_kana": null
  },
  "0166": {
    "postcode": "6780166",
    "prefecture": "兵庫県",
    "prefecture_kana": "ヒョウゴケン",
    "prefecture_code": 28,
    "city": "赤穂市",
    "city_kana": "アコウシ",
    "town": "真殿",
    "town_kana": "マトノ",
    "street": null,
    "office_name": null,
    "office_name_kana": null
  },
  "0171": {
    "postcode": "6780171",
    "prefecture": "兵庫県",
    "prefecture_kana": "ヒョウゴケン",
    "prefecture_code": 28,
    "city": "赤穂市",
    "city_kana": "アコウシ",
    "town": "高野",
    "town_kana": "コウノ",
    "street": null,
    "office_name": null,
    "office_name_kana": null
  },
  "0172": {
    "postcode": "6780172",
    "prefecture": "兵庫県",
    "prefecture_kana": "ヒョウゴケン",
    "prefecture_code": 28,
    "city": "赤穂市",
    "city_kana": "アコウシ",
    "town": "坂越",
    "town_kana": "サコシ",
    "street": null,
    "office_name": null,
    "office_name_kana": null
  },
  "0173": {
    "postcode": "6780173",
    "prefecture": "兵庫県",
    "prefecture_kana": "ヒョウゴケン",
    "prefecture_code": 28,
    "city": "赤穂市",
    "city_kana": "アコウシ",
    "town": "浜市",
    "town_kana": "ハマイチ",
    "street": null,
    "office_name": null,
    "office_name_kana": null
  },
  "0174": {
    "postcode": "6780174",
    "prefecture": "兵庫県",
    "prefecture_kana": "ヒョウゴケン",
    "prefecture_code": 28,
    "city": "赤穂市",
    "city_kana": "アコウシ",
    "town": "砂子",
    "town_kana": "マナゴ",
    "street": null,
    "office_name": null,
    "office_name_kana": null
  },
  "0175": {
    "postcode": "6780175",
    "prefecture": "兵庫県",
    "prefecture_kana": "ヒョウゴケン",
    "prefecture_code": 28,
    "city": "赤穂市",
    "city_kana": "アコウシ",
    "town": "北野中",
    "town_kana": "キタノナカ",
    "street": null,
    "office_name": null,
    "office_name_kana": null
  },
  "0176": {
    "postcode": "6780176",
    "prefecture": "兵庫県",
    "prefecture_kana": "ヒョウゴケン",
    "prefecture_code": 28,
    "city": "赤穂市",
    "city_kana": "アコウシ",
    "town": "南野中",
    "town_kana": "ミナミノナカ",
    "street": null,
    "office_name": null,
    "office_name_kana": null
  },
  "0192": {
    "postcode": "6780192",
    "prefecture": "兵庫県",
    "prefecture_kana": "ヒョウゴケン",
    "prefecture_code": 28,
    "city": "赤穂市",
    "city_kana": "アコウシ",
    "town": "坂越",
    "town_kana": "サコシ",
    "street": "３２１８−１２",
    "office_name": "アース製薬　株式会社　赤穂本部",
    "office_name_kana": "ア-スセイヤク カブシキガイシヤ アコウホンブ"
  },
  "0193": {
    "postcode": "6780193",
    "prefecture": "兵庫県",
    "prefecture_kana": "ヒョウゴケン",
    "prefecture_code": 28,
    "city": "赤穂市",
    "city_kana": "アコウシ",
    "town": "坂越",
    "town_kana": "サコシ",
    "street": "３２９",
    "office_name": "赤穂化成　株式会社",
    "office_name_kana": "アコウカセイ カブシキガイシヤ"
  },
  "0195": {
    "postcode": "6780195",
    "prefecture": "兵庫県",
    "prefecture_kana": "ヒョウゴケン",
    "prefecture_code": 28,
    "city": "赤穂市",
    "city_kana": "アコウシ",
    "town": "北野中",
    "town_kana": "キタノナカ",
    "street": "１１",
    "office_name": "大木産業　株式会社",
    "office_name_kana": "オオキサンギヨウ カブシキガイシヤ"
  },
  "0200": {
    "postcode": "6780200",
    "prefecture": "兵庫県",
    "prefecture_kana": "ヒョウゴケン",
    "prefecture_code": 28,
    "city": "赤穂市",
    "city_kana": "アコウシ",
    "town": "",
    "town_kana": "",
    "street": null,
    "office_name": null,
    "office_name_kana": null
  },
  "0201": {
    "postcode": "6780201",
    "prefecture": "兵庫県",
    "prefecture_kana": "ヒョウゴケン",
    "prefecture_code": 28,
    "city": "赤穂市",
    "city_kana": "アコウシ",
    "town": "塩屋",
    "town_kana": "シオヤ",
    "street": null,
    "office_name": null,
    "office_name_kana": null
  },
  "0202": {
    "postcode": "6780202",
    "prefecture": "兵庫県",
    "prefecture_kana": "ヒョウゴケン",
    "prefecture_code": 28,
    "city": "赤穂市",
    "city_kana": "アコウシ",
    "town": "山手町",
    "town_kana": "ヤマテチョウ",
    "street": null,
    "office_name": null,
    "office_name_kana": null
  },
  "0203": {
    "postcode": "6780203",
    "prefecture": "兵庫県",
    "prefecture_kana": "ヒョウゴケン",
    "prefecture_code": 28,
    "city": "赤穂市",
    "city_kana": "アコウシ",
    "town": "元町",
    "town_kana": "モトマチ",
    "street": null,
    "office_name": null,
    "office_name_kana": null
  },
  "0204": {
    "postcode": "6780204",
    "prefecture": "兵庫県",
    "prefecture_kana": "ヒョウゴケン",
    "prefecture_code": 28,
    "city": "赤穂市",
    "city_kana": "アコウシ",
    "town": "寿町",
    "town_kana": "コトブキチョウ",
    "street": null,
    "office_name": null,
    "office_name_kana": null
  },
  "0205": {
    "postcode": "6780205",
    "prefecture": "兵庫県",
    "prefecture_kana": "ヒョウゴケン",
    "prefecture_code": 28,
    "city": "赤穂市",
    "city_kana": "アコウシ",
    "town": "大町",
    "town_kana": "オオマチ",
    "street": null,
    "office_name": null,
    "office_name_kana": null
  },
  "0206": {
    "postcode": "6780206",
    "prefecture": "兵庫県",
    "prefecture_kana": "ヒョウゴケン",
    "prefecture_code": 28,
    "city": "赤穂市",
    "city_kana": "アコウシ",
    "town": "宮前町",
    "town_kana": "ミヤマエチョウ",
    "street": null,
    "office_name": null,
    "office_name_kana": null
  },
  "0207": {
    "postcode": "6780207",
    "prefecture": "兵庫県",
    "prefecture_kana": "ヒョウゴケン",
    "prefecture_code": 28,
    "city": "赤穂市",
    "city_kana": "アコウシ",
    "town": "西浜北町",
    "town_kana": "ニシハマキタマチ",
    "street": null,
    "office_name": null,
    "office_name_kana": null
  },
  "0208": {
    "postcode": "6780208",
    "prefecture": "兵庫県",
    "prefecture_kana": "ヒョウゴケン",
    "prefecture_code": 28,
    "city": "赤穂市",
    "city_kana": "アコウシ",
    "town": "西浜町",
    "town_kana": "ニシハマチョウ",
    "street": null,
    "office_name": null,
    "office_name_kana": null
  },
  "0211": {
    "postcode": "6780211",
    "prefecture": "兵庫県",
    "prefecture_kana": "ヒョウゴケン",
    "prefecture_code": 28,
    "city": "赤穂市",
    "city_kana": "アコウシ",
    "town": "南宮町",
    "town_kana": "ナングウチョウ",
    "street": null,
    "office_name": null,
    "office_name_kana": null
  },
  "0212": {
    "postcode": "6780212",
    "prefecture": "兵庫県",
    "prefecture_kana": "ヒョウゴケン",
    "prefecture_code": 28,
    "city": "赤穂市",
    "city_kana": "アコウシ",
    "town": "清水町",
    "town_kana": "シミズチョウ",
    "street": null,
    "office_name": null,
    "office_name_kana": null
  },
  "0213": {
    "postcode": "6780213",
    "prefecture": "兵庫県",
    "prefecture_kana": "ヒョウゴケン",
    "prefecture_code": 28,
    "city": "赤穂市",
    "city_kana": "アコウシ",
    "town": "元塩町",
    "town_kana": "モトシオチョウ",
    "street": null,
    "office_name": null,
    "office_name_kana": null
  },
  "0214": {
    "postcode": "6780214",
    "prefecture": "兵庫県",
    "prefecture_kana": "ヒョウゴケン",
    "prefecture_code": 28,
    "city": "赤穂市",
    "city_kana": "アコウシ",
    "town": "朝日町",
    "town_kana": "アサヒチョウ",
    "street": null,
    "office_name": null,
    "office_name_kana": null
  },
  "0215": {
    "postcode": "6780215",
    "prefecture": "兵庫県",
    "prefecture_kana": "ヒョウゴケン",
    "prefecture_code": 28,
    "city": "赤穂市",
    "city_kana": "アコウシ",
    "town": "御崎",
    "town_kana": "ミサキ",
    "street": null,
    "office_name": null,
    "office_name_kana": null
  },
  "0216": {
    "postcode": "6780216",
    "prefecture": "兵庫県",
    "prefecture_kana": "ヒョウゴケン",
    "prefecture_code": 28,
    "city": "赤穂市",
    "city_kana": "アコウシ",
    "town": "正保橋町",
    "town_kana": "ショウホバシチョウ",
    "street": null,
    "office_name": null,
    "office_name_kana": null
  },
  "0217": {
    "postcode": "6780217",
    "prefecture": "兵庫県",
    "prefecture_kana": "ヒョウゴケン",
    "prefecture_code": 28,
    "city": "赤穂市",
    "city_kana": "アコウシ",
    "town": "本水尾町",
    "town_kana": "ホンミオチョウ",
    "street": null,
    "office_name": null,
    "office_name_kana": null
  },
  "0221": {
    "postcode": "6780221",
    "prefecture": "兵庫県",
    "prefecture_kana": "ヒョウゴケン",
    "prefecture_code": 28,
    "city": "赤穂市",
    "city_kana": "アコウシ",
    "town": "尾崎",
    "town_kana": "オサキ",
    "street": null,
    "office_name": null,
    "office_name_kana": null
  },
  "0222": {
    "postcode": "6780222",
    "prefecture": "兵庫県",
    "prefecture_kana": "ヒョウゴケン",
    "prefecture_code": 28,
    "city": "赤穂市",
    "city_kana": "アコウシ",
    "town": "東浜町",
    "town_kana": "ヒガシハマチョウ",
    "street": null,
    "office_name": null,
    "office_name_kana": null
  },
  "0223": {
    "postcode": "6780223",
    "prefecture": "兵庫県",
    "prefecture_kana": "ヒョウゴケン",
    "prefecture_code": 28,
    "city": "赤穂市",
    "city_kana": "アコウシ",
    "town": "元禄橋町",
    "town_kana": "ゲンロクバシチョウ",
    "street": null,
    "office_name": null,
    "office_name_kana": null
  },
  "0224": {
    "postcode": "6780224",
    "prefecture": "兵庫県",
    "prefecture_kana": "ヒョウゴケン",
    "prefecture_code": 28,
    "city": "赤穂市",
    "city_kana": "アコウシ",
    "town": "元沖町",
    "town_kana": "モトオキチョウ",
    "street": null,
    "office_name": null,
    "office_name_kana": null
  },
  "0225": {
    "postcode": "6780225",
    "prefecture": "兵庫県",
    "prefecture_kana": "ヒョウゴケン",
    "prefecture_code": 28,
    "city": "赤穂市",
    "city_kana": "アコウシ",
    "town": "海浜町",
    "town_kana": "カイヒンチョウ",
    "street": null,
    "office_name": null,
    "office_name_kana": null
  },
  "0226": {
    "postcode": "6780226",
    "prefecture": "兵庫県",
    "prefecture_kana": "ヒョウゴケン",
    "prefecture_code": 28,
    "city": "赤穂市",
    "city_kana": "アコウシ",
    "town": "さつき町",
    "town_kana": "サツキチョウ",
    "street": null,
    "office_name": null,
    "office_name_kana": null
  },
  "0227": {
    "postcode": "6780227",
    "prefecture": "兵庫県",
    "prefecture_kana": "ヒョウゴケン",
    "prefecture_code": 28,
    "city": "赤穂市",
    "city_kana": "アコウシ",
    "town": "中浜町",
    "town_kana": "ナカハマチョウ",
    "street": null,
    "office_name": null,
    "office_name_kana": null
  },
  "0228": {
    "postcode": "6780228",
    "prefecture": "兵庫県",
    "prefecture_kana": "ヒョウゴケン",
    "prefecture_code": 28,
    "city": "赤穂市",
    "city_kana": "アコウシ",
    "town": "松原町",
    "town_kana": "マツバラチョウ",
    "street": null,
    "office_name": null,
    "office_name_kana": null
  },
  "0229": {
    "postcode": "6780229",
    "prefecture": "兵庫県",
    "prefecture_kana": "ヒョウゴケン",
    "prefecture_code": 28,
    "city": "赤穂市",
    "city_kana": "アコウシ",
    "town": "大橋町",
    "town_kana": "オオハシチョウ",
    "street": null,
    "office_name": null,
    "office_name_kana": null
  },
  "0231": {
    "postcode": "6780231",
    "prefecture": "兵庫県",
    "prefecture_kana": "ヒョウゴケン",
    "prefecture_code": 28,
    "city": "赤穂市",
    "city_kana": "アコウシ",
    "town": "細野町",
    "town_kana": "ホソノチョウ",
    "street": null,
    "office_name": null,
    "office_name_kana": null
  },
  "0232": {
    "postcode": "6780232",
    "prefecture": "兵庫県",
    "prefecture_kana": "ヒョウゴケン",
    "prefecture_code": 28,
    "city": "赤穂市",
    "city_kana": "アコウシ",
    "town": "中広",
    "town_kana": "ナカヒロ",
    "street": null,
    "office_name": null,
    "office_name_kana": null
  },
  "0233": {
    "postcode": "6780233",
    "prefecture": "兵庫県",
    "prefecture_kana": "ヒョウゴケン",
    "prefecture_code": 28,
    "city": "赤穂市",
    "city_kana": "アコウシ",
    "town": "加里屋中洲",
    "town_kana": "カリヤナカス",
    "street": null,
    "office_name": null,
    "office_name_kana": null
  },
  "0234": {
    "postcode": "6780234",
    "prefecture": "兵庫県",
    "prefecture_kana": "ヒョウゴケン",
    "prefecture_code": 28,
    "city": "赤穂市",
    "city_kana": "アコウシ",
    "town": "加里屋南",
    "town_kana": "カリヤミナミ",
    "street": null,
    "office_name": null,
    "office_name_kana": null
  },
  "0235": {
    "postcode": "6780235",
    "prefecture": "兵庫県",
    "prefecture_kana": "ヒョウゴケン",
    "prefecture_code": 28,
    "city": "赤穂市",
    "city_kana": "アコウシ",
    "town": "上仮屋",
    "town_kana": "カミカリヤ",
    "street": null,
    "office_name": null,
    "office_name_kana": null
  },
  "0236": {
    "postcode": "6780236",
    "prefecture": "兵庫県",
    "prefecture_kana": "ヒョウゴケン",
    "prefecture_code": 28,
    "city": "赤穂市",
    "city_kana": "アコウシ",
    "town": "上仮屋南",
    "town_kana": "カミカリヤミナミ",
    "street": null,
    "office_name": null,
    "office_name_kana": null
  },
  "0237": {
    "postcode": "6780237",
    "prefecture": "兵庫県",
    "prefecture_kana": "ヒョウゴケン",
    "prefecture_code": 28,
    "city": "赤穂市",
    "city_kana": "アコウシ",
    "town": "上仮屋北",
    "town_kana": "カミカリヤキタ",
    "street": null,
    "office_name": null,
    "office_name_kana": null
  },
  "0238": {
    "postcode": "6780238",
    "prefecture": "兵庫県",
    "prefecture_kana": "ヒョウゴケン",
    "prefecture_code": 28,
    "city": "赤穂市",
    "city_kana": "アコウシ",
    "town": "農神町",
    "town_kana": "ノウジンチョウ",
    "street": null,
    "office_name": null,
    "office_name_kana": null
  },
  "0239": {
    "postcode": "6780239",
    "prefecture": "兵庫県",
    "prefecture_kana": "ヒョウゴケン",
    "prefecture_code": 28,
    "city": "赤穂市",
    "city_kana": "アコウシ",
    "town": "加里屋",
    "town_kana": "カリヤ",
    "street": null,
    "office_name": null,
    "office_name_kana": null
  },
  "0241": {
    "postcode": "6780241",
    "prefecture": "兵庫県",
    "prefecture_kana": "ヒョウゴケン",
    "prefecture_code": 28,
    "city": "赤穂市",
    "city_kana": "アコウシ",
    "town": "惣門町",
    "town_kana": "ソウモンチョウ",
    "street": null,
    "office_name": null,
    "office_name_kana": null
  },
  "0242": {
    "postcode": "6780242",
    "prefecture": "兵庫県",
    "prefecture_kana": "ヒョウゴケン",
    "prefecture_code": 28,
    "city": "赤穂市",
    "city_kana": "アコウシ",
    "town": "長池町",
    "town_kana": "ナガイケチョウ",
    "street": null,
    "office_name": null,
    "office_name_kana": null
  },
  "0243": {
    "postcode": "6780243",
    "prefecture": "兵庫県",
    "prefecture_kana": "ヒョウゴケン",
    "prefecture_code": 28,
    "city": "赤穂市",
    "city_kana": "アコウシ",
    "town": "若草町",
    "town_kana": "ワカクサチョウ",
    "street": null,
    "office_name": null,
    "office_name_kana": null
  },
  "0244": {
    "postcode": "6780244",
    "prefecture": "兵庫県",
    "prefecture_kana": "ヒョウゴケン",
    "prefecture_code": 28,
    "city": "赤穂市",
    "city_kana": "アコウシ",
    "town": "城西町",
    "town_kana": "ジョウサイチョウ",
    "street": null,
    "office_name": null,
    "office_name_kana": null
  },
  "0245": {
    "postcode": "6780245",
    "prefecture": "兵庫県",
    "prefecture_kana": "ヒョウゴケン",
    "prefecture_code": 28,
    "city": "赤穂市",
    "city_kana": "アコウシ",
    "town": "三樋町",
    "town_kana": "ミツヒチョウ",
    "street": null,
    "office_name": null,
    "office_name_kana": null
  },
  "0246": {
    "postcode": "6780246",
    "prefecture": "兵庫県",
    "prefecture_kana": "ヒョウゴケン",
    "prefecture_code": 28,
    "city": "赤穂市",
    "city_kana": "アコウシ",
    "town": "六百目町",
    "town_kana": "ロッピャクメチョウ",
    "street": null,
    "office_name": null,
    "office_name_kana": null
  },
  "0247": {
    "postcode": "6780247",
    "prefecture": "兵庫県",
    "prefecture_kana": "ヒョウゴケン",
    "prefecture_code": 28,
    "city": "赤穂市",
    "city_kana": "アコウシ",
    "town": "平成町",
    "town_kana": "ヘイセイチョウ",
    "street": null,
    "office_name": null,
    "office_name_kana": null
  },
  "0248": {
    "postcode": "6780248",
    "prefecture": "兵庫県",
    "prefecture_kana": "ヒョウゴケン",
    "prefecture_code": 28,
    "city": "赤穂市",
    "city_kana": "アコウシ",
    "town": "板屋町",
    "town_kana": "イタヤチョウ",
    "street": null,
    "office_name": null,
    "office_name_kana": null
  },
  "0249": {
    "postcode": "6780249",
    "prefecture": "兵庫県",
    "prefecture_kana": "ヒョウゴケン",
    "prefecture_code": 28,
    "city": "赤穂市",
    "city_kana": "アコウシ",
    "town": "片浜町",
    "town_kana": "カタハマチョウ",
    "street": null,
    "office_name": null,
    "office_name_kana": null
  },
  "0250": {
    "postcode": "6780250",
    "prefecture": "兵庫県",
    "prefecture_kana": "ヒョウゴケン",
    "prefecture_code": 28,
    "city": "赤穂市",
    "city_kana": "アコウシ",
    "town": "磯浜町",
    "town_kana": "イソハマチョウ",
    "street": null,
    "office_name": null,
    "office_name_kana": null
  },
  "0251": [
    {
      "postcode": "6780251",
      "prefecture": "兵庫県",
      "prefecture_kana": "ヒョウゴケン",
      "prefecture_code": 28,
      "city": "赤穂市",
      "city_kana": "アコウシ",
      "town": "西有年",
      "town_kana": "ニシウネ",
      "street": null,
      "office_name": null,
      "office_name_kana": null
    },
    {
      "postcode": "6780251",
      "prefecture": "兵庫県",
      "prefecture_kana": "ヒョウゴケン",
      "prefecture_code": 28,
      "city": "赤穂市",
      "city_kana": "アコウシ",
      "town": "西有年湯の内",
      "town_kana": "ニシウネユノウチ",
      "street": null,
      "office_name": null,
      "office_name_kana": null
    }
  ],
  "0252": {
    "postcode": "6780252",
    "prefecture": "兵庫県",
    "prefecture_kana": "ヒョウゴケン",
    "prefecture_code": 28,
    "city": "赤穂市",
    "city_kana": "アコウシ",
    "town": "大津",
    "town_kana": "オオツ",
    "street": null,
    "office_name": null,
    "office_name_kana": null
  },
  "0253": {
    "postcode": "6780253",
    "prefecture": "兵庫県",
    "prefecture_kana": "ヒョウゴケン",
    "prefecture_code": 28,
    "city": "赤穂市",
    "city_kana": "アコウシ",
    "town": "木生谷",
    "town_kana": "キュウノタニ",
    "street": null,
    "office_name": null,
    "office_name_kana": null
  },
  "0254": {
    "postcode": "6780254",
    "prefecture": "兵庫県",
    "prefecture_kana": "ヒョウゴケン",
    "prefecture_code": 28,
    "city": "赤穂市",
    "city_kana": "アコウシ",
    "town": "折方",
    "town_kana": "オリカタ",
    "street": null,
    "office_name": null,
    "office_name_kana": null
  },
  "0255": {
    "postcode": "6780255",
    "prefecture": "兵庫県",
    "prefecture_kana": "ヒョウゴケン",
    "prefecture_code": 28,
    "city": "赤穂市",
    "city_kana": "アコウシ",
    "town": "新田",
    "town_kana": "シンデン",
    "street": null,
    "office_name": null,
    "office_name_kana": null
  },
  "0256": {
    "postcode": "6780256",
    "prefecture": "兵庫県",
    "prefecture_kana": "ヒョウゴケン",
    "prefecture_code": 28,
    "city": "赤穂市",
    "city_kana": "アコウシ",
    "town": "鷆和",
    "town_kana": "テンワ",
    "street": null,
    "office_name": null,
    "office_name_kana": null
  },
  "0257": {
    "postcode": "6780257",
    "prefecture": "兵庫県",
    "prefecture_kana": "ヒョウゴケン",
    "prefecture_code": 28,
    "city": "赤穂市",
    "city_kana": "アコウシ",
    "town": "福浦",
    "town_kana": "フクウラ",
    "street": null,
    "office_name": null,
    "office_name_kana": null
  },
  "0258": {
    "postcode": "6780258",
    "prefecture": "兵庫県",
    "prefecture_kana": "ヒョウゴケン",
    "prefecture_code": 28,
    "city": "赤穂市",
    "city_kana": "アコウシ",
    "town": "古浜町",
    "town_kana": "コハマチョウ",
    "street": null,
    "office_name": null,
    "office_name_kana": null
  },
  "0259": {
    "postcode": "6780259",
    "prefecture": "兵庫県",
    "prefecture_kana": "ヒョウゴケン",
    "prefecture_code": 28,
    "city": "赤穂市",
    "city_kana": "アコウシ",
    "town": "黒崎町",
    "town_kana": "クロサキチョウ",
    "street": null,
    "office_name": null,
    "office_name_kana": null
  },
  "0292": {
    "postcode": "6780292",
    "prefecture": "兵庫県",
    "prefecture_kana": "ヒョウゴケン",
    "prefecture_code": 28,
    "city": "赤穂市",
    "city_kana": "アコウシ",
    "town": "加里屋",
    "town_kana": "カリヤ",
    "street": "８１（赤穂郵便局私書箱第５号）",
    "office_name": "赤穂市役所",
    "office_name_kana": "アコウシヤクシヨ"
  },
  "1181": {
    "postcode": "6781181",
    "prefecture": "兵庫県",
    "prefecture_kana": "ヒョウゴケン",
    "prefecture_code": 28,
    "city": "赤穂市",
    "city_kana": "アコウシ",
    "town": "有年楢原",
    "town_kana": "ウネナラバラ",
    "street": null,
    "office_name": null,
    "office_name_kana": null
  },
  "1182": {
    "postcode": "6781182",
    "prefecture": "兵庫県",
    "prefecture_kana": "ヒョウゴケン",
    "prefecture_code": 28,
    "city": "赤穂市",
    "city_kana": "アコウシ",
    "town": "有年原",
    "town_kana": "ウネハラ",
    "street": null,
    "office_name": null,
    "office_name_kana": null
  },
  "1183": {
    "postcode": "6781183",
    "prefecture": "兵庫県",
    "prefecture_kana": "ヒョウゴケン",
    "prefecture_code": 28,
    "city": "赤穂市",
    "city_kana": "アコウシ",
    "town": "有年牟礼",
    "town_kana": "ウネムレ",
    "street": null,
    "office_name": null,
    "office_name_kana": null
  },
  "1184": {
    "postcode": "6781184",
    "prefecture": "兵庫県",
    "prefecture_kana": "ヒョウゴケン",
    "prefecture_code": 28,
    "city": "赤穂市",
    "city_kana": "アコウシ",
    "town": "有年横尾",
    "town_kana": "ウネヨコオ",
    "street": null,
    "office_name": null,
    "office_name_kana": null
  },
  "1185": {
    "postcode": "6781185",
    "prefecture": "兵庫県",
    "prefecture_kana": "ヒョウゴケン",
    "prefecture_code": 28,
    "city": "赤穂市",
    "city_kana": "アコウシ",
    "town": "東有年",
    "town_kana": "ヒガシウネ",
    "street": null,
    "office_name": null,
    "office_name_kana": null
  },
  "1186": {
    "postcode": "6781186",
    "prefecture": "兵庫県",
    "prefecture_kana": "ヒョウゴケン",
    "prefecture_code": 28,
    "city": "赤穂市",
    "city_kana": "アコウシ",
    "town": "西有年",
    "town_kana": "ニシウネ",
    "street": null,
    "office_name": null,
    "office_name_kana": null
  },
  "1195": {
    "postcode": "6781195",
    "prefecture": "兵庫県",
    "prefecture_kana": "ヒョウゴケン",
    "prefecture_code": 28,
    "city": "赤穂市",
    "city_kana": "アコウシ",
    "town": "有年楢原",
    "town_kana": "ウネナラバラ",
    "street": "１０９０−１",
    "office_name": "兵庫丸門運輸　株式会社",
    "office_name_kana": "ヒヨウゴマルモンウンユ カブシキガイシヤ"
  },
  "1198": {
    "postcode": "6781198",
    "prefecture": "兵庫県",
    "prefecture_kana": "ヒョウゴケン",
    "prefecture_code": 28,
    "city": "赤穂市",
    "city_kana": "アコウシ",
    "town": "西有年",
    "town_kana": "ニシウネ",
    "street": "字馬路谷３００７−１",
    "office_name": "株式会社　赤穂国際カントリークラブ",
    "office_name_kana": "カブシキガイシヤ アコウコクサイカントリ-クラブ"
  },
  "1200": {
    "postcode": "6781200",
    "prefecture": "兵庫県",
    "prefecture_kana": "ヒョウゴケン",
    "prefecture_code": 28,
    "city": "赤穂郡上郡町",
    "city_kana": "アコウグンカミゴオリチョウ",
    "town": "",
    "town_kana": "",
    "street": null,
    "office_name": null,
    "office_name_kana": null
  },
  "1201": {
    "postcode": "6781201",
    "prefecture": "兵庫県",
    "prefecture_kana": "ヒョウゴケン",
    "prefecture_code": 28,
    "city": "赤穂郡上郡町",
    "city_kana": "アコウグンカミゴオリチョウ",
    "town": "金出地",
    "town_kana": "カナジ",
    "street": null,
    "office_name": null,
    "office_name_kana": null
  },
  "1202": {
    "postcode": "6781202",
    "prefecture": "兵庫県",
    "prefecture_kana": "ヒョウゴケン",
    "prefecture_code": 28,
    "city": "赤穂郡上郡町",
    "city_kana": "アコウグンカミゴオリチョウ",
    "town": "野桑",
    "town_kana": "ノクワ",
    "street": null,
    "office_name": null,
    "office_name_kana": null
  },
  "1203": {
    "postcode": "6781203",
    "prefecture": "兵庫県",
    "prefecture_kana": "ヒョウゴケン",
    "prefecture_code": 28,
    "city": "赤穂郡上郡町",
    "city_kana": "アコウグンカミゴオリチョウ",
    "town": "尾長谷",
    "town_kana": "オナガダニ",
    "street": null,
    "office_name": null,
    "office_name_kana": null
  },
  "1204": {
    "postcode": "6781204",
    "prefecture": "兵庫県",
    "prefecture_kana": "ヒョウゴケン",
    "prefecture_code": 28,
    "city": "赤穂郡上郡町",
    "city_kana": "アコウグンカミゴオリチョウ",
    "town": "大冨",
    "town_kana": "オオトミ",
    "street": null,
    "office_name": null,
    "office_name_kana": null
  },
  "1205": {
    "postcode": "6781205",
    "prefecture": "兵庫県",
    "prefecture_kana": "ヒョウゴケン",
    "prefecture_code": 28,
    "city": "赤穂郡上郡町",
    "city_kana": "アコウグンカミゴオリチョウ",
    "town": "光都",
    "town_kana": "コウト",
    "street": null,
    "office_name": null,
    "office_name_kana": null
  },
  "1211": {
    "postcode": "6781211",
    "prefecture": "兵庫県",
    "prefecture_kana": "ヒョウゴケン",
    "prefecture_code": 28,
    "city": "赤穂郡上郡町",
    "city_kana": "アコウグンカミゴオリチョウ",
    "town": "小野豆",
    "town_kana": "オノズ",
    "street": null,
    "office_name": null,
    "office_name_kana": null
  },
  "1212": {
    "postcode": "6781212",
    "prefecture": "兵庫県",
    "prefecture_kana": "ヒョウゴケン",
    "prefecture_code": 28,
    "city": "赤穂郡上郡町",
    "city_kana": "アコウグンカミゴオリチョウ",
    "town": "佐用谷",
    "town_kana": "サヨダニ",
    "street": null,
    "office_name": null,
    "office_name_kana": null
  },
  "1213": {
    "postcode": "6781213",
    "prefecture": "兵庫県",
    "prefecture_kana": "ヒョウゴケン",
    "prefecture_code": 28,
    "city": "赤穂郡上郡町",
    "city_kana": "アコウグンカミゴオリチョウ",
    "town": "宇野山",
    "town_kana": "ウノヤマ",
    "street": null,
    "office_name": null,
    "office_name_kana": null
  },
  "1214": {
    "postcode": "6781214",
    "prefecture": "兵庫県",
    "prefecture_kana": "ヒョウゴケン",
    "prefecture_code": 28,
    "city": "赤穂郡上郡町",
    "city_kana": "アコウグンカミゴオリチョウ",
    "town": "休治",
    "town_kana": "キュウジ",
    "street": null,
    "office_name": null,
    "office_name_kana": null
  },
  "1215": {
    "postcode": "6781215",
    "prefecture": "兵庫県",
    "prefecture_kana": "ヒョウゴケン",
    "prefecture_code": 28,
    "city": "赤穂郡上郡町",
    "city_kana": "アコウグンカミゴオリチョウ",
    "town": "正福寺",
    "town_kana": "ショウフクジ",
    "street": null,
    "office_name": null,
    "office_name_kana": null
  },
  "1216": {
    "postcode": "6781216",
    "prefecture": "兵庫県",
    "prefecture_kana": "ヒョウゴケン",
    "prefecture_code": 28,
    "city": "赤穂郡上郡町",
    "city_kana": "アコウグンカミゴオリチョウ",
    "town": "中野",
    "town_kana": "ナカノ",
    "street": null,
    "office_name": null,
    "office_name_kana": null
  },
  "1217": {
    "postcode": "6781217",
    "prefecture": "兵庫県",
    "prefecture_kana": "ヒョウゴケン",
    "prefecture_code": 28,
    "city": "赤穂郡上郡町",
    "city_kana": "アコウグンカミゴオリチョウ",
    "town": "宿",
    "town_kana": "シュク",
    "street": null,
    "office_name": null,
    "office_name_kana": null
  },
  "1218": {
    "postcode": "6781218",
    "prefecture": "兵庫県",
    "prefecture_kana": "ヒョウゴケン",
    "prefecture_code": 28,
    "city": "赤穂郡上郡町",
    "city_kana": "アコウグンカミゴオリチョウ",
    "town": "宇治山",
    "town_kana": "ウジヤマ",
    "street": null,
    "office_name": null,
    "office_name_kana": null
  },
  "1219": {
    "postcode": "6781219",
    "prefecture": "兵庫県",
    "prefecture_kana": "ヒョウゴケン",
    "prefecture_code": 28,
    "city": "赤穂郡上郡町",
    "city_kana": "アコウグンカミゴオリチョウ",
    "town": "奥",
    "town_kana": "オク",
    "street": null,
    "office_name": null,
    "office_name_kana": null
  },
  "1221": {
    "postcode": "6781221",
    "prefecture": "兵庫県",
    "prefecture_kana": "ヒョウゴケン",
    "prefecture_code": 28,
    "city": "赤穂郡上郡町",
    "city_kana": "アコウグンカミゴオリチョウ",
    "town": "神明寺",
    "town_kana": "ジミョウジ",
    "street": null,
    "office_name": null,
    "office_name_kana": null
  },
  "1222": {
    "postcode": "6781222",
    "prefecture": "兵庫県",
    "prefecture_kana": "ヒョウゴケン",
    "prefecture_code": 28,
    "city": "赤穂郡上郡町",
    "city_kana": "アコウグンカミゴオリチョウ",
    "town": "西野山",
    "town_kana": "ニシノヤマ",
    "street": null,
    "office_name": null,
    "office_name_kana": null
  },
  "1223": {
    "postcode": "6781223",
    "prefecture": "兵庫県",
    "prefecture_kana": "ヒョウゴケン",
    "prefecture_code": 28,
    "city": "赤穂郡上郡町",
    "city_kana": "アコウグンカミゴオリチョウ",
    "town": "釜島",
    "town_kana": "カマシマ",
    "street": null,
    "office_name": null,
    "office_name_kana": null
  },
  "1224": {
    "postcode": "6781224",
    "prefecture": "兵庫県",
    "prefecture_kana": "ヒョウゴケン",
    "prefecture_code": 28,
    "city": "赤穂郡上郡町",
    "city_kana": "アコウグンカミゴオリチョウ",
    "town": "與井新",
    "town_kana": "ヨイシン",
    "street": null,
    "office_name": null,
    "office_name_kana": null
  },
  "1225": {
    "postcode": "6781225",
    "prefecture": "兵庫県",
    "prefecture_kana": "ヒョウゴケン",
    "prefecture_code": 28,
    "city": "赤穂郡上郡町",
    "city_kana": "アコウグンカミゴオリチョウ",
    "town": "與井",
    "town_kana": "ヨイ",
    "street": null,
    "office_name": null,
    "office_name_kana": null
  },
  "1226": {
    "postcode": "6781226",
    "prefecture": "兵庫県",
    "prefecture_kana": "ヒョウゴケン",
    "prefecture_code": 28,
    "city": "赤穂郡上郡町",
    "city_kana": "アコウグンカミゴオリチョウ",
    "town": "高田台",
    "town_kana": "タカタダイ",
    "street": null,
    "office_name": null,
    "office_name_kana": null
  },
  "1231": {
    "postcode": "6781231",
    "prefecture": "兵庫県",
    "prefecture_kana": "ヒョウゴケン",
    "prefecture_code": 28,
    "city": "赤穂郡上郡町",
    "city_kana": "アコウグンカミゴオリチョウ",
    "town": "上郡",
    "town_kana": "カミゴオリ",
    "street": null,
    "office_name": null,
    "office_name_kana": null
  },
  "1232": {
    "postcode": "6781232",
    "prefecture": "兵庫県",
    "prefecture_kana": "ヒョウゴケン",
    "prefecture_code": 28,
    "city": "赤穂郡上郡町",
    "city_kana": "アコウグンカミゴオリチョウ",
    "town": "竹万",
    "town_kana": "チクマ",
    "street": null,
    "office_name": null,
    "office_name_kana": null
  },
  "1233": {
    "postcode": "6781233",
    "prefecture": "兵庫県",
    "prefecture_kana": "ヒョウゴケン",
    "prefecture_code": 28,
    "city": "赤穂郡上郡町",
    "city_kana": "アコウグンカミゴオリチョウ",
    "town": "大持",
    "town_kana": "ダイモチ",
    "street": null,
    "office_name": null,
    "office_name_kana": null
  },
  "1234": {
    "postcode": "6781234",
    "prefecture": "兵庫県",
    "prefecture_kana": "ヒョウゴケン",
    "prefecture_code": 28,
    "city": "赤穂郡上郡町",
    "city_kana": "アコウグンカミゴオリチョウ",
    "town": "駅前",
    "town_kana": "エキマエ",
    "street": null,
    "office_name": null,
    "office_name_kana": null
  },
  "1241": {
    "postcode": "6781241",
    "prefecture": "兵庫県",
    "prefecture_kana": "ヒョウゴケン",
    "prefecture_code": 28,
    "city": "赤穂郡上郡町",
    "city_kana": "アコウグンカミゴオリチョウ",
    "town": "山野里",
    "town_kana": "ヤマノサト",
    "street": null,
    "office_name": null,
    "office_name_kana": null
  },
  "1242": {
    "postcode": "6781242",
    "prefecture": "兵庫県",
    "prefecture_kana": "ヒョウゴケン",
    "prefecture_code": 28,
    "city": "赤穂郡上郡町",
    "city_kana": "アコウグンカミゴオリチョウ",
    "town": "栗原",
    "town_kana": "クリバラ",
    "street": null,
    "office_name": null,
    "office_name_kana": null
  },
  "1243": {
    "postcode": "6781243",
    "prefecture": "兵庫県",
    "prefecture_kana": "ヒョウゴケン",
    "prefecture_code": 28,
    "city": "赤穂郡上郡町",
    "city_kana": "アコウグンカミゴオリチョウ",
    "town": "落地",
    "town_kana": "オロチ",
    "street": null,
    "office_name": null,
    "office_name_kana": null
  },
  "1244": {
    "postcode": "6781244",
    "prefecture": "兵庫県",
    "prefecture_kana": "ヒョウゴケン",
    "prefecture_code": 28,
    "city": "赤穂郡上郡町",
    "city_kana": "アコウグンカミゴオリチョウ",
    "town": "梨ケ原",
    "town_kana": "ナシガハラ",
    "street": null,
    "office_name": null,
    "office_name_kana": null
  },
  "1251": {
    "postcode": "6781251",
    "prefecture": "兵庫県",
    "prefecture_kana": "ヒョウゴケン",
    "prefecture_code": 28,
    "city": "赤穂郡上郡町",
    "city_kana": "アコウグンカミゴオリチョウ",
    "town": "井上",
    "town_kana": "イノカミ",
    "street": null,
    "office_name": null,
    "office_name_kana": null
  },
  "1252": {
    "postcode": "6781252",
    "prefecture": "兵庫県",
    "prefecture_kana": "ヒョウゴケン",
    "prefecture_code": 28,
    "city": "赤穂郡上郡町",
    "city_kana": "アコウグンカミゴオリチョウ",
    "town": "船坂",
    "town_kana": "フナサカ",
    "street": null,
    "office_name": null,
    "office_name_kana": null
  },
  "1253": {
    "postcode": "6781253",
    "prefecture": "兵庫県",
    "prefecture_kana": "ヒョウゴケン",
    "prefecture_code": 28,
    "city": "赤穂郡上郡町",
    "city_kana": "アコウグンカミゴオリチョウ",
    "town": "別名",
    "town_kana": "ベツミョウ",
    "street": null,
    "office_name": null,
    "office_name_kana": null
  },
  "1254": {
    "postcode": "6781254",
    "prefecture": "兵庫県",
    "prefecture_kana": "ヒョウゴケン",
    "prefecture_code": 28,
    "city": "赤穂郡上郡町",
    "city_kana": "アコウグンカミゴオリチョウ",
    "town": "高山",
    "town_kana": "タカヤマ",
    "street": null,
    "office_name": null,
    "office_name_kana": null
  },
  "1255": {
    "postcode": "6781255",
    "prefecture": "兵庫県",
    "prefecture_kana": "ヒョウゴケン",
    "prefecture_code": 28,
    "city": "赤穂郡上郡町",
    "city_kana": "アコウグンカミゴオリチョウ",
    "town": "行頭",
    "town_kana": "ユクトウ",
    "street": null,
    "office_name": null,
    "office_name_kana": null
  },
  "1256": {
    "postcode": "6781256",
    "prefecture": "兵庫県",
    "prefecture_kana": "ヒョウゴケン",
    "prefecture_code": 28,
    "city": "赤穂郡上郡町",
    "city_kana": "アコウグンカミゴオリチョウ",
    "town": "八保",
    "town_kana": "ヤホ",
    "street": null,
    "office_name": null,
    "office_name_kana": null
  },
  "1261": {
    "postcode": "6781261",
    "prefecture": "兵庫県",
    "prefecture_kana": "ヒョウゴケン",
    "prefecture_code": 28,
    "city": "赤穂郡上郡町",
    "city_kana": "アコウグンカミゴオリチョウ",
    "town": "旭日",
    "town_kana": "アサヒ",
    "street": null,
    "office_name": null,
    "office_name_kana": null
  },
  "1262": {
    "postcode": "6781262",
    "prefecture": "兵庫県",
    "prefecture_kana": "ヒョウゴケン",
    "prefecture_code": 28,
    "city": "赤穂郡上郡町",
    "city_kana": "アコウグンカミゴオリチョウ",
    "town": "岩木",
    "town_kana": "イワキ",
    "street": null,
    "office_name": null,
    "office_name_kana": null
  },
  "1271": {
    "postcode": "6781271",
    "prefecture": "兵庫県",
    "prefecture_kana": "ヒョウゴケン",
    "prefecture_code": 28,
    "city": "赤穂郡上郡町",
    "city_kana": "アコウグンカミゴオリチョウ",
    "town": "楠",
    "town_kana": "クスノキ",
    "street": null,
    "office_name": null,
    "office_name_kana": null
  },
  "1272": {
    "postcode": "6781272",
    "prefecture": "兵庫県",
    "prefecture_kana": "ヒョウゴケン",
    "prefecture_code": 28,
    "city": "赤穂郡上郡町",
    "city_kana": "アコウグンカミゴオリチョウ",
    "town": "細野",
    "town_kana": "ホソノ",
    "street": null,
    "office_name": null,
    "office_name_kana": null
  },
  "1273": {
    "postcode": "6781273",
    "prefecture": "兵庫県",
    "prefecture_kana": "ヒョウゴケン",
    "prefecture_code": 28,
    "city": "赤穂郡上郡町",
    "city_kana": "アコウグンカミゴオリチョウ",
    "town": "赤松",
    "town_kana": "アカマツ",
    "street": null,
    "office_name": null,
    "office_name_kana": null
  },
  "1274": {
    "postcode": "6781274",
    "prefecture": "兵庫県",
    "prefecture_kana": "ヒョウゴケン",
    "prefecture_code": 28,
    "city": "赤穂郡上郡町",
    "city_kana": "アコウグンカミゴオリチョウ",
    "town": "柏野",
    "town_kana": "カシワノ",
    "street": null,
    "office_name": null,
    "office_name_kana": null
  },
  "1275": {
    "postcode": "6781275",
    "prefecture": "兵庫県",
    "prefecture_kana": "ヒョウゴケン",
    "prefecture_code": 28,
    "city": "赤穂郡上郡町",
    "city_kana": "アコウグンカミゴオリチョウ",
    "town": "大枝",
    "town_kana": "オエダ",
    "street": null,
    "office_name": null,
    "office_name_kana": null
  },
  "1276": {
    "postcode": "6781276",
    "prefecture": "兵庫県",
    "prefecture_kana": "ヒョウゴケン",
    "prefecture_code": 28,
    "city": "赤穂郡上郡町",
    "city_kana": "アコウグンカミゴオリチョウ",
    "town": "大枝新",
    "town_kana": "オエダシン",
    "street": null,
    "office_name": null,
    "office_name_kana": null
  },
  "1277": {
    "postcode": "6781277",
    "prefecture": "兵庫県",
    "prefecture_kana": "ヒョウゴケン",
    "prefecture_code": 28,
    "city": "赤穂郡上郡町",
    "city_kana": "アコウグンカミゴオリチョウ",
    "town": "苔縄",
    "town_kana": "コケナワ",
    "street": null,
    "office_name": null,
    "office_name_kana": null
  },
  "1278": {
    "postcode": "6781278",
    "prefecture": "兵庫県",
    "prefecture_kana": "ヒョウゴケン",
    "prefecture_code": 28,
    "city": "赤穂郡上郡町",
    "city_kana": "アコウグンカミゴオリチョウ",
    "town": "河野原",
    "town_kana": "コウノハラ",
    "street": null,
    "office_name": null,
    "office_name_kana": null
  },
  "1292": {
    "postcode": "6781292",
    "prefecture": "兵庫県",
    "prefecture_kana": "ヒョウゴケン",
    "prefecture_code": 28,
    "city": "赤穂郡上郡町",
    "city_kana": "アコウグンカミゴオリチョウ",
    "town": "大持",
    "town_kana": "ダイモチ",
    "street": "２７８",
    "office_name": "上郡町役場",
    "office_name_kana": "カミゴオリチヨウヤクバ"
  },
  "1295": {
    "postcode": "6781295",
    "prefecture": "兵庫県",
    "prefecture_kana": "ヒョウゴケン",
    "prefecture_code": 28,
    "city": "赤穂郡上郡町",
    "city_kana": "アコウグンカミゴオリチョウ",
    "town": "光都",
    "town_kana": "コウト",
    "street": "２丁目２５",
    "office_name": "兵庫県　西播磨県民局　上郡県税事務所",
    "office_name_kana": "ヒヨウゴケン ニシハリマケンミンキヨク カミゴオリケンゼイジムシヨ"
  },
  "1297": {
    "postcode": "6781297",
    "prefecture": "兵庫県",
    "prefecture_kana": "ヒョウゴケン",
    "prefecture_code": 28,
    "city": "赤穂郡上郡町",
    "city_kana": "アコウグンカミゴオリチョウ",
    "town": "光都",
    "town_kana": "コウト",
    "street": "３丁目２−１",
    "office_name": "兵庫県立大学　理学部",
    "office_name_kana": "ヒヨウゴケンリツダイガク リガクブ"
  },
  "8543": {
    "postcode": "6788543",
    "prefecture": "兵庫県",
    "prefecture_kana": "ヒョウゴケン",
    "prefecture_code": 28,
    "city": "相生市",
    "city_kana": "アイオイシ",
    "town": "相生",
    "town_kana": "アイオイ",
    "street": "字柳山５３１５−４６",
    "office_name": "関西電力　（株）　相生発電所",
    "office_name_kana": "カンサイデンリヨク カブ アイオイハツデンシヨ"
  },
  "8585": {
    "postcode": "6788585",
    "prefecture": "兵庫県",
    "prefecture_kana": "ヒョウゴケン",
    "prefecture_code": 28,
    "city": "相生市",
    "city_kana": "アイオイシ",
    "town": "旭",
    "town_kana": "アサヒ",
    "street": "１丁目１番３号",
    "office_name": "相生市役所",
    "office_name_kana": "アイオイシヤクシヨ"
  }
}