{
  "0000": {
    "postcode": "6810000",
    "prefecture": "鳥取県",
    "prefecture_kana": "トットリケン",
    "prefecture_code": 31,
    "city": "岩美郡岩美町",
    "city_kana": "イワミグンイワミチョウ",
    "town": "",
    "town_kana": "",
    "street": null,
    "office_name": null,
    "office_name_kana": null
  },
  "0001": {
    "postcode": "6810001",
    "prefecture": "鳥取県",
    "prefecture_kana": "トットリケン",
    "prefecture_code": 31,
    "city": "岩美郡岩美町",
    "city_kana": "イワミグンイワミチョウ",
    "town": "牧谷",
    "town_kana": "マキダニ",
    "street": null,
    "office_name": null,
    "office_name_kana": null
  },
  "0002": {
    "postcode": "6810002",
    "prefecture": "鳥取県",
    "prefecture_kana": "トットリケン",
    "prefecture_code": 31,
    "city": "岩美郡岩美町",
    "city_kana": "イワミグンイワミチョウ",
    "town": "相谷",
    "town_kana": "アイダニ",
    "street": null,
    "office_name": null,
    "office_name_kana": null
  },
  "0003": {
    "postcode": "6810003",
    "prefecture": "鳥取県",
    "prefecture_kana": "トットリケン",
    "prefecture_code": 31,
    "city": "岩美郡岩美町",
    "city_kana": "イワミグンイワミチョウ",
    "town": "浦富",
    "town_kana": "ウラドメ",
    "street": null,
    "office_name": null,
    "office_name_kana": null
  },
  "0011": {
    "postcode": "6810011",
    "prefecture": "鳥取県",
    "prefecture_kana": "トットリケン",
    "prefecture_code": 31,
    "city": "岩美郡岩美町",
    "city_kana": "イワミグンイワミチョウ",
    "town": "陸上",
    "town_kana": "クガミ",
    "street": null,
    "office_name": null,
    "office_name_kana": null
  },
  "0012": {
    "postcode": "6810012",
    "prefecture": "鳥取県",
    "prefecture_kana": "トットリケン",
    "prefecture_code": 31,
    "city": "岩美郡岩美町",
    "city_kana": "イワミグンイワミチョウ",
    "town": "田河内",
    "town_kana": "タノコウジ",
    "street": null,
    "office_name": null,
    "office_name_kana": null
  },
  "0013": {
    "postcode": "6810013",
    "prefecture": "鳥取県",
    "prefecture_kana": "トットリケン",
    "prefecture_code": 31,
    "city": "岩美郡岩美町",
    "city_kana": "イワミグンイワミチョウ",
    "town": "小羽尾",
    "town_kana": "コバネオ",
    "street": null,
    "office_name": null,
    "office_name_kana": null
  },
  "0014": {
    "postcode": "6810014",
    "prefecture": "鳥取県",
    "prefecture_kana": "トットリケン",
    "prefecture_code": 31,
    "city": "岩美郡岩美町",
    "city_kana": "イワミグンイワミチョウ",
    "town": "大羽尾",
    "town_kana": "オオバネオ",
    "street": null,
    "office_name": null,
    "office_name_kana": null
  },
  "0021": {
    "postcode": "6810021",
    "prefecture": "鳥取県",
    "prefecture_kana": "トットリケン",
    "prefecture_code": 31,
    "city": "岩美郡岩美町",
    "city_kana": "イワミグンイワミチョウ",
    "town": "長谷",
    "town_kana": "ナガタニ",
    "street": null,
    "office_name": null,
    "office_name_kana": null
  },
  "0022": {
    "postcode": "6810022",
    "prefecture": "鳥取県",
    "prefecture_kana": "トットリケン",
    "prefecture_code": 31,
    "city": "岩美郡岩美町",
    "city_kana": "イワミグンイワミチョウ",
    "town": "白地",
    "town_kana": "シラジ",
    "street": null,
    "office_name": null,
    "office_name_kana": null
  },
  "0023": {
    "postcode": "6810023",
    "prefecture": "鳥取県",
    "prefecture_kana": "トットリケン",
    "prefecture_code": 31,
    "city": "岩美郡岩美町",
    "city_kana": "イワミグンイワミチョウ",
    "town": "真名",
    "town_kana": "マナ",
    "street": null,
    "office_name": null,
    "office_name_kana": null
  },
  "0024": {
    "postcode": "6810024",
    "prefecture": "鳥取県",
    "prefecture_kana": "トットリケン",
    "prefecture_code": 31,
    "city": "岩美郡岩美町",
    "city_kana": "イワミグンイワミチョウ",
    "town": "岩井",
    "town_kana": "イワイ",
    "street": null,
    "office_name": null,
    "office_name_kana": null
  },
  "0025": {
    "postcode": "6810025",
    "prefecture": "鳥取県",
    "prefecture_kana": "トットリケン",
    "prefecture_code": 31,
    "city": "岩美郡岩美町",
    "city_kana": "イワミグンイワミチョウ",
    "town": "宇治",
    "town_kana": "ウジ",
    "street": null,
    "office_name": null,
    "office_name_kana": null
  },
  "0031": {
    "postcode": "6810031",
    "prefecture": "鳥取県",
    "prefecture_kana": "トットリケン",
    "prefecture_code": 31,
    "city": "岩美郡岩美町",
    "city_kana": "イワミグンイワミチョウ",
    "town": "蒲生",
    "town_kana": "ガモウ",
    "street": null,
    "office_name": null,
    "office_name_kana": null
  },
  "0032": {
    "postcode": "6810032",
    "prefecture": "鳥取県",
    "prefecture_kana": "トットリケン",
    "prefecture_code": 31,
    "city": "岩美郡岩美町",
    "city_kana": "イワミグンイワミチョウ",
    "town": "洗井",
    "town_kana": "アライ",
    "street": null,
    "office_name": null,
    "office_name_kana": null
  },
  "0033": {
    "postcode": "6810033",
    "prefecture": "鳥取県",
    "prefecture_kana": "トットリケン",
    "prefecture_code": 31,
    "city": "岩美郡岩美町",
    "city_kana": "イワミグンイワミチョウ",
    "town": "鳥越",
    "town_kana": "トリゴエ",
    "street": null,
    "office_name": null,
    "office_name_kana": null
  },
  "0034": {
    "postcode": "6810034",
    "prefecture": "鳥取県",
    "prefecture_kana": "トットリケン",
    "prefecture_code": 31,
    "city": "岩美郡岩美町",
    "city_kana": "イワミグンイワミチョウ",
    "town": "銀山",
    "town_kana": "ギンザン",
    "street": null,
    "office_name": null,
    "office_name_kana": null
  },
  "0035": {
    "postcode": "6810035",
    "prefecture": "鳥取県",
    "prefecture_kana": "トットリケン",
    "prefecture_code": 31,
    "city": "岩美郡岩美町",
    "city_kana": "イワミグンイワミチョウ",
    "town": "馬場",
    "town_kana": "ババ",
    "street": null,
    "office_name": null,
    "office_name_kana": null
  },
  "0036": {
    "postcode": "6810036",
    "prefecture": "鳥取県",
    "prefecture_kana": "トットリケン",
    "prefecture_code": 31,
    "city": "岩美郡岩美町",
    "city_kana": "イワミグンイワミチョウ",
    "town": "相山",
    "town_kana": "アイヤマ",
    "street": null,
    "office_name": null,
    "office_name_kana": null
  },
  "0041": {
    "postcode": "6810041",
    "prefecture": "鳥取県",
    "prefecture_kana": "トットリケン",
    "prefecture_code": 31,
    "city": "岩美郡岩美町",
    "city_kana": "イワミグンイワミチョウ",
    "town": "黒谷",
    "town_kana": "クロダニ",
    "street": null,
    "office_name": null,
    "office_name_kana": null
  },
  "0042": {
    "postcode": "6810042",
    "prefecture": "鳥取県",
    "prefecture_kana": "トットリケン",
    "prefecture_code": 31,
    "city": "岩美郡岩美町",
    "city_kana": "イワミグンイワミチョウ",
    "town": "小田",
    "town_kana": "オダ",
    "street": null,
    "office_name": null,
    "office_name_kana": null
  },
  "0043": {
    "postcode": "6810043",
    "prefecture": "鳥取県",
    "prefecture_kana": "トットリケン",
    "prefecture_code": 31,
    "city": "岩美郡岩美町",
    "city_kana": "イワミグンイワミチョウ",
    "town": "大坂",
    "town_kana": "オオサカ",
    "street": null,
    "office_name": null,
    "office_name_kana": null
  },
  "0044": {
    "postcode": "6810044",
    "prefecture": "鳥取県",
    "prefecture_kana": "トットリケン",
    "prefecture_code": 31,
    "city": "岩美郡岩美町",
    "city_kana": "イワミグンイワミチョウ",
    "town": "外邑",
    "town_kana": "トノムラ",
    "street": null,
    "office_name": null,
    "office_name_kana": null
  },
  "0045": {
    "postcode": "6810045",
    "prefecture": "鳥取県",
    "prefecture_kana": "トットリケン",
    "prefecture_code": 31,
    "city": "岩美郡岩美町",
    "city_kana": "イワミグンイワミチョウ",
    "town": "唐川",
    "town_kana": "カラカワ",
    "street": null,
    "office_name": null,
    "office_name_kana": null
  },
  "0046": {
    "postcode": "6810046",
    "prefecture": "鳥取県",
    "prefecture_kana": "トットリケン",
    "prefecture_code": 31,
    "city": "岩美郡岩美町",
    "city_kana": "イワミグンイワミチョウ",
    "town": "延興寺",
    "town_kana": "エンゴウジ",
    "street": null,
    "office_name": null,
    "office_name_kana": null
  },
  "0047": {
    "postcode": "6810047",
    "prefecture": "鳥取県",
    "prefecture_kana": "トットリケン",
    "prefecture_code": 31,
    "city": "岩美郡岩美町",
    "city_kana": "イワミグンイワミチョウ",
    "town": "池谷",
    "town_kana": "イケダニ",
    "street": null,
    "office_name": null,
    "office_name_kana": null
  },
  "0051": {
    "postcode": "6810051",
    "prefecture": "鳥取県",
    "prefecture_kana": "トットリケン",
    "prefecture_code": 31,
    "city": "岩美郡岩美町",
    "city_kana": "イワミグンイワミチョウ",
    "town": "河崎",
    "town_kana": "カワサキ",
    "street": null,
    "office_name": null,
    "office_name_kana": null
  },
  "0052": {
    "postcode": "6810052",
    "prefecture": "鳥取県",
    "prefecture_kana": "トットリケン",
    "prefecture_code": 31,
    "city": "岩美郡岩美町",
    "city_kana": "イワミグンイワミチョウ",
    "town": "岩常",
    "town_kana": "イワツネ",
    "street": null,
    "office_name": null,
    "office_name_kana": null
  },
  "0053": {
    "postcode": "6810053",
    "prefecture": "鳥取県",
    "prefecture_kana": "トットリケン",
    "prefecture_code": 31,
    "city": "岩美郡岩美町",
    "city_kana": "イワミグンイワミチョウ",
    "town": "高住",
    "town_kana": "タカズミ",
    "street": null,
    "office_name": null,
    "office_name_kana": null
  },
  "0054": {
    "postcode": "6810054",
    "prefecture": "鳥取県",
    "prefecture_kana": "トットリケン",
    "prefecture_code": 31,
    "city": "岩美郡岩美町",
    "city_kana": "イワミグンイワミチョウ",
    "town": "院内",
    "town_kana": "インナイ",
    "street": null,
    "office_name": null,
    "office_name_kana": null
  },
  "0055": {
    "postcode": "6810055",
    "prefecture": "鳥取県",
    "prefecture_kana": "トットリケン",
    "prefecture_code": 31,
    "city": "岩美郡岩美町",
    "city_kana": "イワミグンイワミチョウ",
    "town": "荒金",
    "town_kana": "アラカネ",
    "street": null,
    "office_name": null,
    "office_name_kana": null
  },
  "0056": {
    "postcode": "6810056",
    "prefecture": "鳥取県",
    "prefecture_kana": "トットリケン",
    "prefecture_code": 31,
    "city": "岩美郡岩美町",
    "city_kana": "イワミグンイワミチョウ",
    "town": "長郷",
    "town_kana": "チョウゴウ",
    "street": null,
    "office_name": null,
    "office_name_kana": null
  },
  "0061": {
    "postcode": "6810061",
    "prefecture": "鳥取県",
    "prefecture_kana": "トットリケン",
    "prefecture_code": 31,
    "city": "岩美郡岩美町",
    "city_kana": "イワミグンイワミチョウ",
    "town": "高山",
    "town_kana": "タカヤマ",
    "street": null,
    "office_name": null,
    "office_name_kana": null
  },
  "0062": {
    "postcode": "6810062",
    "prefecture": "鳥取県",
    "prefecture_kana": "トットリケン",
    "prefecture_code": 31,
    "city": "岩美郡岩美町",
    "city_kana": "イワミグンイワミチョウ",
    "town": "恩志",
    "town_kana": "オンジ",
    "street": null,
    "office_name": null,
    "office_name_kana": null
  },
  "0063": {
    "postcode": "6810063",
    "prefecture": "鳥取県",
    "prefecture_kana": "トットリケン",
    "prefecture_code": 31,
    "city": "岩美郡岩美町",
    "city_kana": "イワミグンイワミチョウ",
    "town": "太田",
    "town_kana": "オオタ",
    "street": null,
    "office_name": null,
    "office_name_kana": null
  },
  "0064": {
    "postcode": "6810064",
    "prefecture": "鳥取県",
    "prefecture_kana": "トットリケン",
    "prefecture_code": 31,
    "city": "岩美郡岩美町",
    "city_kana": "イワミグンイワミチョウ",
    "town": "本庄",
    "town_kana": "ホンジョウ",
    "street": null,
    "office_name": null,
    "office_name_kana": null
  },
  "0065": {
    "postcode": "6810065",
    "prefecture": "鳥取県",
    "prefecture_kana": "トットリケン",
    "prefecture_code": 31,
    "city": "岩美郡岩美町",
    "city_kana": "イワミグンイワミチョウ",
    "town": "新井",
    "town_kana": "ニイ",
    "street": null,
    "office_name": null,
    "office_name_kana": null
  },
  "0071": {
    "postcode": "6810071",
    "prefecture": "鳥取県",
    "prefecture_kana": "トットリケン",
    "prefecture_code": 31,
    "city": "岩美郡岩美町",
    "city_kana": "イワミグンイワミチョウ",
    "town": "田後",
    "town_kana": "タジリ",
    "street": null,
    "office_name": null,
    "office_name_kana": null
  },
  "0072": {
    "postcode": "6810072",
    "prefecture": "鳥取県",
    "prefecture_kana": "トットリケン",
    "prefecture_code": 31,
    "city": "岩美郡岩美町",
    "city_kana": "イワミグンイワミチョウ",
    "town": "岩本",
    "town_kana": "イワモト",
    "street": null,
    "office_name": null,
    "office_name_kana": null
  },
  "0073": {
    "postcode": "6810073",
    "prefecture": "鳥取県",
    "prefecture_kana": "トットリケン",
    "prefecture_code": 31,
    "city": "岩美郡岩美町",
    "city_kana": "イワミグンイワミチョウ",
    "town": "大谷",
    "town_kana": "オオタニ",
    "street": null,
    "office_name": null,
    "office_name_kana": null
  },
  "0074": {
    "postcode": "6810074",
    "prefecture": "鳥取県",
    "prefecture_kana": "トットリケン",
    "prefecture_code": 31,
    "city": "岩美郡岩美町",
    "city_kana": "イワミグンイワミチョウ",
    "town": "網代",
    "town_kana": "アジロ",
    "street": null,
    "office_name": null,
    "office_name_kana": null
  },
  "8501": {
    "postcode": "6818501",
    "prefecture": "鳥取県",
    "prefecture_kana": "トットリケン",
    "prefecture_code": 31,
    "city": "岩美郡岩美町",
    "city_kana": "イワミグンイワミチョウ",
    "town": "大字浦富",
    "town_kana": null,
    "street": "６７５−１",
    "office_name": "岩美町役場",
    "office_name_kana": "イワミチヨウヤクバ"
  }
}