{
  "0000": {
    "postcode": "6830000",
    "prefecture": "鳥取県",
    "prefecture_kana": "トットリケン",
    "prefecture_code": 31,
    "city": "米子市",
    "city_kana": "ヨナゴシ",
    "town": "",
    "town_kana": "",
    "street": null,
    "office_name": null,
    "office_name_kana": null
  },
  "0001": {
    "postcode": "6830001",
    "prefecture": "鳥取県",
    "prefecture_kana": "トットリケン",
    "prefecture_code": 31,
    "city": "米子市",
    "city_kana": "ヨナゴシ",
    "town": "皆生温泉",
    "town_kana": "カイケオンセン",
    "street": null,
    "office_name": null,
    "office_name_kana": null
  },
  "0002": {
    "postcode": "6830002",
    "prefecture": "鳥取県",
    "prefecture_kana": "トットリケン",
    "prefecture_code": 31,
    "city": "米子市",
    "city_kana": "ヨナゴシ",
    "town": "皆生新田",
    "town_kana": "カイケシンデン",
    "street": null,
    "office_name": null,
    "office_name_kana": null
  },
  "0003": {
    "postcode": "6830003",
    "prefecture": "鳥取県",
    "prefecture_kana": "トットリケン",
    "prefecture_code": 31,
    "city": "米子市",
    "city_kana": "ヨナゴシ",
    "town": "皆生",
    "town_kana": "カイケ",
    "street": null,
    "office_name": null,
    "office_name_kana": null
  },
  "0004": {
    "postcode": "6830004",
    "prefecture": "鳥取県",
    "prefecture_kana": "トットリケン",
    "prefecture_code": 31,
    "city": "米子市",
    "city_kana": "ヨナゴシ",
    "town": "上福原",
    "town_kana": "カミフクバラ",
    "street": null,
    "office_name": null,
    "office_name_kana": null
  },
  "0005": {
    "postcode": "6830005",
    "prefecture": "鳥取県",
    "prefecture_kana": "トットリケン",
    "prefecture_code": 31,
    "city": "米子市",
    "city_kana": "ヨナゴシ",
    "town": "中島",
    "town_kana": "ナカシマ",
    "street": null,
    "office_name": null,
    "office_name_kana": null
  },
  "0006": {
    "postcode": "6830006",
    "prefecture": "鳥取県",
    "prefecture_kana": "トットリケン",
    "prefecture_code": 31,
    "city": "米子市",
    "city_kana": "ヨナゴシ",
    "town": "車尾",
    "town_kana": "クズモ",
    "street": null,
    "office_name": null,
    "office_name_kana": null
  },
  "0007": {
    "postcode": "6830007",
    "prefecture": "鳥取県",
    "prefecture_kana": "トットリケン",
    "prefecture_code": 31,
    "city": "米子市",
    "city_kana": "ヨナゴシ",
    "town": "観音寺",
    "town_kana": "カンノンジ",
    "street": null,
    "office_name": null,
    "office_name_kana": null
  },
  "0008": {
    "postcode": "6830008",
    "prefecture": "鳥取県",
    "prefecture_kana": "トットリケン",
    "prefecture_code": 31,
    "city": "米子市",
    "city_kana": "ヨナゴシ",
    "town": "車尾南",
    "town_kana": "クズモミナミ",
    "street": null,
    "office_name": null,
    "office_name_kana": null
  },
  "0009": {
    "postcode": "6830009",
    "prefecture": "鳥取県",
    "prefecture_kana": "トットリケン",
    "prefecture_code": 31,
    "city": "米子市",
    "city_kana": "ヨナゴシ",
    "town": "観音寺新町",
    "town_kana": "カンノンジシンマチ",
    "street": null,
    "office_name": null,
    "office_name_kana": null
  },
  "0011": {
    "postcode": "6830011",
    "prefecture": "鳥取県",
    "prefecture_kana": "トットリケン",
    "prefecture_code": 31,
    "city": "米子市",
    "city_kana": "ヨナゴシ",
    "town": "福市",
    "town_kana": "フクイチ",
    "street": null,
    "office_name": null,
    "office_name_kana": null
  },
  "0012": {
    "postcode": "6830012",
    "prefecture": "鳥取県",
    "prefecture_kana": "トットリケン",
    "prefecture_code": 31,
    "city": "米子市",
    "city_kana": "ヨナゴシ",
    "town": "八幡",
    "town_kana": "ヤワタ",
    "street": null,
    "office_name": null,
    "office_name_kana": null
  },
  "0013": {
    "postcode": "6830013",
    "prefecture": "鳥取県",
    "prefecture_kana": "トットリケン",
    "prefecture_code": 31,
    "city": "米子市",
    "city_kana": "ヨナゴシ",
    "town": "諏訪",
    "town_kana": "スワ",
    "street": null,
    "office_name": null,
    "office_name_kana": null
  },
  "0014": {
    "postcode": "6830014",
    "prefecture": "鳥取県",
    "prefecture_kana": "トットリケン",
    "prefecture_code": 31,
    "city": "米子市",
    "city_kana": "ヨナゴシ",
    "town": "永江",
    "town_kana": "ナガエ",
    "street": null,
    "office_name": null,
    "office_name_kana": null
  },
  "0015": {
    "postcode": "6830015",
    "prefecture": "鳥取県",
    "prefecture_kana": "トットリケン",
    "prefecture_code": 31,
    "city": "米子市",
    "city_kana": "ヨナゴシ",
    "town": "日原",
    "town_kana": "ヒバラ",
    "street": null,
    "office_name": null,
    "office_name_kana": null
  },
  "0016": {
    "postcode": "6830016",
    "prefecture": "鳥取県",
    "prefecture_kana": "トットリケン",
    "prefecture_code": 31,
    "city": "米子市",
    "city_kana": "ヨナゴシ",
    "town": "奥谷",
    "town_kana": "オクノタニ",
    "street": null,
    "office_name": null,
    "office_name_kana": null
  },
  "0017": {
    "postcode": "6830017",
    "prefecture": "鳥取県",
    "prefecture_kana": "トットリケン",
    "prefecture_code": 31,
    "city": "米子市",
    "city_kana": "ヨナゴシ",
    "town": "宗像",
    "town_kana": "ムナカタ",
    "street": null,
    "office_name": null,
    "office_name_kana": null
  },
  "0021": {
    "postcode": "6830021",
    "prefecture": "鳥取県",
    "prefecture_kana": "トットリケン",
    "prefecture_code": 31,
    "city": "米子市",
    "city_kana": "ヨナゴシ",
    "town": "石井",
    "town_kana": "イシイ",
    "street": null,
    "office_name": null,
    "office_name_kana": null
  },
  "0022": {
    "postcode": "6830022",
    "prefecture": "鳥取県",
    "prefecture_kana": "トットリケン",
    "prefecture_code": 31,
    "city": "米子市",
    "city_kana": "ヨナゴシ",
    "town": "奈喜良",
    "town_kana": "ナギラ",
    "street": null,
    "office_name": null,
    "office_name_kana": null
  },
  "0023": {
    "postcode": "6830023",
    "prefecture": "鳥取県",
    "prefecture_kana": "トットリケン",
    "prefecture_code": 31,
    "city": "米子市",
    "city_kana": "ヨナゴシ",
    "town": "橋本",
    "town_kana": "ハシモト",
    "street": null,
    "office_name": null,
    "office_name_kana": null
  },
  "0024": {
    "postcode": "6830024",
    "prefecture": "鳥取県",
    "prefecture_kana": "トットリケン",
    "prefecture_code": 31,
    "city": "米子市",
    "city_kana": "ヨナゴシ",
    "town": "吉谷",
    "town_kana": "ヨシタニ",
    "street": null,
    "office_name": null,
    "office_name_kana": null
  },
  "0025": {
    "postcode": "6830025",
    "prefecture": "鳥取県",
    "prefecture_kana": "トットリケン",
    "prefecture_code": 31,
    "city": "米子市",
    "city_kana": "ヨナゴシ",
    "town": "古市",
    "town_kana": "フルイチ",
    "street": null,
    "office_name": null,
    "office_name_kana": null
  },
  "0026": {
    "postcode": "6830026",
    "prefecture": "鳥取県",
    "prefecture_kana": "トットリケン",
    "prefecture_code": 31,
    "city": "米子市",
    "city_kana": "ヨナゴシ",
    "town": "新山",
    "town_kana": "ニイヤマ",
    "street": null,
    "office_name": null,
    "office_name_kana": null
  },
  "0027": {
    "postcode": "6830027",
    "prefecture": "鳥取県",
    "prefecture_kana": "トットリケン",
    "prefecture_code": 31,
    "city": "米子市",
    "city_kana": "ヨナゴシ",
    "town": "陰田町",
    "town_kana": "インダチョウ",
    "street": null,
    "office_name": null,
    "office_name_kana": null
  },
  "0031": {
    "postcode": "6830031",
    "prefecture": "鳥取県",
    "prefecture_kana": "トットリケン",
    "prefecture_code": 31,
    "city": "米子市",
    "city_kana": "ヨナゴシ",
    "town": "東山町",
    "town_kana": "ヒガシヤマチョウ",
    "street": null,
    "office_name": null,
    "office_name_kana": null
  },
  "0032": {
    "postcode": "6830032",
    "prefecture": "鳥取県",
    "prefecture_kana": "トットリケン",
    "prefecture_code": 31,
    "city": "米子市",
    "city_kana": "ヨナゴシ",
    "town": "陽田町",
    "town_kana": "ヨウデンチョウ",
    "street": null,
    "office_name": null,
    "office_name_kana": null
  },
  "0033": {
    "postcode": "6830033",
    "prefecture": "鳥取県",
    "prefecture_kana": "トットリケン",
    "prefecture_code": 31,
    "city": "米子市",
    "city_kana": "ヨナゴシ",
    "town": "長砂町",
    "town_kana": "ナガスナチョウ",
    "street": null,
    "office_name": null,
    "office_name_kana": null
  },
  "0034": {
    "postcode": "6830034",
    "prefecture": "鳥取県",
    "prefecture_kana": "トットリケン",
    "prefecture_code": 31,
    "city": "米子市",
    "city_kana": "ヨナゴシ",
    "town": "美吉",
    "town_kana": "ミヨシ",
    "street": null,
    "office_name": null,
    "office_name_kana": null
  },
  "0035": {
    "postcode": "6830035",
    "prefecture": "鳥取県",
    "prefecture_kana": "トットリケン",
    "prefecture_code": 31,
    "city": "米子市",
    "city_kana": "ヨナゴシ",
    "town": "目久美町",
    "town_kana": "メグミチョウ",
    "street": null,
    "office_name": null,
    "office_name_kana": null
  },
  "0036": {
    "postcode": "6830036",
    "prefecture": "鳥取県",
    "prefecture_kana": "トットリケン",
    "prefecture_code": 31,
    "city": "米子市",
    "city_kana": "ヨナゴシ",
    "town": "弥生町",
    "town_kana": "ヤヨイチョウ",
    "street": null,
    "office_name": null,
    "office_name_kana": null
  },
  "0037": {
    "postcode": "6830037",
    "prefecture": "鳥取県",
    "prefecture_kana": "トットリケン",
    "prefecture_code": 31,
    "city": "米子市",
    "city_kana": "ヨナゴシ",
    "town": "昭和町",
    "town_kana": "ショウワチョウ",
    "street": null,
    "office_name": null,
    "office_name_kana": null
  },
  "0041": {
    "postcode": "6830041",
    "prefecture": "鳥取県",
    "prefecture_kana": "トットリケン",
    "prefecture_code": 31,
    "city": "米子市",
    "city_kana": "ヨナゴシ",
    "town": "茶町",
    "town_kana": "チャマチ",
    "street": null,
    "office_name": null,
    "office_name_kana": null
  },
  "0042": {
    "postcode": "6830042",
    "prefecture": "鳥取県",
    "prefecture_kana": "トットリケン",
    "prefecture_code": 31,
    "city": "米子市",
    "city_kana": "ヨナゴシ",
    "town": "塩町",
    "town_kana": "シオマチ",
    "street": null,
    "office_name": null,
    "office_name_kana": null
  },
  "0043": {
    "postcode": "6830043",
    "prefecture": "鳥取県",
    "prefecture_kana": "トットリケン",
    "prefecture_code": 31,
    "city": "米子市",
    "city_kana": "ヨナゴシ",
    "town": "末広町",
    "town_kana": "スエヒロチョウ",
    "street": null,
    "office_name": null,
    "office_name_kana": null
  },
  "0044": {
    "postcode": "6830044",
    "prefecture": "鳥取県",
    "prefecture_kana": "トットリケン",
    "prefecture_code": 31,
    "city": "米子市",
    "city_kana": "ヨナゴシ",
    "town": "大工町",
    "town_kana": "ダイクマチ",
    "street": null,
    "office_name": null,
    "office_name_kana": null
  },
  "0045": {
    "postcode": "6830045",
    "prefecture": "鳥取県",
    "prefecture_kana": "トットリケン",
    "prefecture_code": 31,
    "city": "米子市",
    "city_kana": "ヨナゴシ",
    "town": "大谷町",
    "town_kana": "オオダニチョウ",
    "street": null,
    "office_name": null,
    "office_name_kana": null
  },
  "0046": {
    "postcode": "6830046",
    "prefecture": "鳥取県",
    "prefecture_kana": "トットリケン",
    "prefecture_code": 31,
    "city": "米子市",
    "city_kana": "ヨナゴシ",
    "town": "愛宕町",
    "town_kana": "アタゴチョウ",
    "street": null,
    "office_name": null,
    "office_name_kana": null
  },
  "0047": {
    "postcode": "6830047",
    "prefecture": "鳥取県",
    "prefecture_kana": "トットリケン",
    "prefecture_code": 31,
    "city": "米子市",
    "city_kana": "ヨナゴシ",
    "town": "祇園町",
    "town_kana": "ギオンチョウ",
    "street": null,
    "office_name": null,
    "office_name_kana": null
  },
  "0051": {
    "postcode": "6830051",
    "prefecture": "鳥取県",
    "prefecture_kana": "トットリケン",
    "prefecture_code": 31,
    "city": "米子市",
    "city_kana": "ヨナゴシ",
    "town": "勝田町",
    "town_kana": "カンダマチ",
    "street": null,
    "office_name": null,
    "office_name_kana": null
  },
  "0052": {
    "postcode": "6830052",
    "prefecture": "鳥取県",
    "prefecture_kana": "トットリケン",
    "prefecture_code": 31,
    "city": "米子市",
    "city_kana": "ヨナゴシ",
    "town": "博労町",
    "town_kana": "バクロウマチ",
    "street": null,
    "office_name": null,
    "office_name_kana": null
  },
  "0053": {
    "postcode": "6830053",
    "prefecture": "鳥取県",
    "prefecture_kana": "トットリケン",
    "prefecture_code": 31,
    "city": "米子市",
    "city_kana": "ヨナゴシ",
    "town": "明治町",
    "town_kana": "メイジチョウ",
    "street": null,
    "office_name": null,
    "office_name_kana": null
  },
  "0054": {
    "postcode": "6830054",
    "prefecture": "鳥取県",
    "prefecture_kana": "トットリケン",
    "prefecture_code": 31,
    "city": "米子市",
    "city_kana": "ヨナゴシ",
    "town": "糀町",
    "town_kana": "コウジマチ",
    "street": null,
    "office_name": null,
    "office_name_kana": null
  },
  "0055": {
    "postcode": "6830055",
    "prefecture": "鳥取県",
    "prefecture_kana": "トットリケン",
    "prefecture_code": 31,
    "city": "米子市",
    "city_kana": "ヨナゴシ",
    "town": "冨士見町",
    "town_kana": "フジミチョウ",
    "street": null,
    "office_name": null,
    "office_name_kana": null
  },
  "0061": {
    "postcode": "6830061",
    "prefecture": "鳥取県",
    "prefecture_kana": "トットリケン",
    "prefecture_code": 31,
    "city": "米子市",
    "city_kana": "ヨナゴシ",
    "town": "四日市町",
    "town_kana": "ヨッカイチマチ",
    "street": null,
    "office_name": null,
    "office_name_kana": null
  },
  "0062": {
    "postcode": "6830062",
    "prefecture": "鳥取県",
    "prefecture_kana": "トットリケン",
    "prefecture_code": 31,
    "city": "米子市",
    "city_kana": "ヨナゴシ",
    "town": "紺屋町",
    "town_kana": "コウヤマチ",
    "street": null,
    "office_name": null,
    "office_name_kana": null
  },
  "0063": {
    "postcode": "6830063",
    "prefecture": "鳥取県",
    "prefecture_kana": "トットリケン",
    "prefecture_code": 31,
    "city": "米子市",
    "city_kana": "ヨナゴシ",
    "town": "法勝寺町",
    "town_kana": "ホツショウジマチ",
    "street": null,
    "office_name": null,
    "office_name_kana": null
  },
  "0064": {
    "postcode": "6830064",
    "prefecture": "鳥取県",
    "prefecture_kana": "トットリケン",
    "prefecture_code": 31,
    "city": "米子市",
    "city_kana": "ヨナゴシ",
    "town": "道笑町",
    "town_kana": "ドウショウマチ",
    "street": null,
    "office_name": null,
    "office_name_kana": null
  },
  "0065": {
    "postcode": "6830065",
    "prefecture": "鳥取県",
    "prefecture_kana": "トットリケン",
    "prefecture_code": 31,
    "city": "米子市",
    "city_kana": "ヨナゴシ",
    "town": "万能町",
    "town_kana": "マンノウチョウ",
    "street": null,
    "office_name": null,
    "office_name_kana": null
  },
  "0066": {
    "postcode": "6830066",
    "prefecture": "鳥取県",
    "prefecture_kana": "トットリケン",
    "prefecture_code": 31,
    "city": "米子市",
    "city_kana": "ヨナゴシ",
    "town": "日野町",
    "town_kana": "ヒノマチ",
    "street": null,
    "office_name": null,
    "office_name_kana": null
  },
  "0067": {
    "postcode": "6830067",
    "prefecture": "鳥取県",
    "prefecture_kana": "トットリケン",
    "prefecture_code": 31,
    "city": "米子市",
    "city_kana": "ヨナゴシ",
    "town": "東町",
    "town_kana": "ヒガシチョウ",
    "street": null,
    "office_name": null,
    "office_name_kana": null
  },
  "0101": {
    "postcode": "6830101",
    "prefecture": "鳥取県",
    "prefecture_kana": "トットリケン",
    "prefecture_code": 31,
    "city": "米子市",
    "city_kana": "ヨナゴシ",
    "town": "大篠津町",
    "town_kana": "オオシノヅチョウ",
    "street": null,
    "office_name": null,
    "office_name_kana": null
  },
  "0102": {
    "postcode": "6830102",
    "prefecture": "鳥取県",
    "prefecture_kana": "トットリケン",
    "prefecture_code": 31,
    "city": "米子市",
    "city_kana": "ヨナゴシ",
    "town": "和田町",
    "town_kana": "ワダチョウ",
    "street": null,
    "office_name": null,
    "office_name_kana": null
  },
  "0103": {
    "postcode": "6830103",
    "prefecture": "鳥取県",
    "prefecture_kana": "トットリケン",
    "prefecture_code": 31,
    "city": "米子市",
    "city_kana": "ヨナゴシ",
    "town": "富益町",
    "town_kana": "トミマスチョウ",
    "street": null,
    "office_name": null,
    "office_name_kana": null
  },
  "0104": {
    "postcode": "6830104",
    "prefecture": "鳥取県",
    "prefecture_kana": "トットリケン",
    "prefecture_code": 31,
    "city": "米子市",
    "city_kana": "ヨナゴシ",
    "town": "大崎",
    "town_kana": "オオザキ",
    "street": null,
    "office_name": null,
    "office_name_kana": null
  },
  "0105": {
    "postcode": "6830105",
    "prefecture": "鳥取県",
    "prefecture_kana": "トットリケン",
    "prefecture_code": 31,
    "city": "米子市",
    "city_kana": "ヨナゴシ",
    "town": "葭津",
    "town_kana": "ヨシヅ",
    "street": null,
    "office_name": null,
    "office_name_kana": null
  },
  "0201": {
    "postcode": "6830201",
    "prefecture": "鳥取県",
    "prefecture_kana": "トットリケン",
    "prefecture_code": 31,
    "city": "西伯郡南部町",
    "city_kana": "サイハクグンナンブチョウ",
    "town": "天万",
    "town_kana": "テンマン",
    "street": null,
    "office_name": null,
    "office_name_kana": null
  },
  "0202": {
    "postcode": "6830202",
    "prefecture": "鳥取県",
    "prefecture_kana": "トットリケン",
    "prefecture_code": 31,
    "city": "西伯郡南部町",
    "city_kana": "サイハクグンナンブチョウ",
    "town": "寺内",
    "town_kana": "テラウチ",
    "street": null,
    "office_name": null,
    "office_name_kana": null
  },
  "0203": {
    "postcode": "6830203",
    "prefecture": "鳥取県",
    "prefecture_kana": "トットリケン",
    "prefecture_code": 31,
    "city": "西伯郡南部町",
    "city_kana": "サイハクグンナンブチョウ",
    "town": "三崎",
    "town_kana": "ミサキ",
    "street": null,
    "office_name": null,
    "office_name_kana": null
  },
  "0204": {
    "postcode": "6830204",
    "prefecture": "鳥取県",
    "prefecture_kana": "トットリケン",
    "prefecture_code": 31,
    "city": "西伯郡南部町",
    "city_kana": "サイハクグンナンブチョウ",
    "town": "福里",
    "town_kana": "フクサト",
    "street": null,
    "office_name": null,
    "office_name_kana": null
  },
  "0211": {
    "postcode": "6830211",
    "prefecture": "鳥取県",
    "prefecture_kana": "トットリケン",
    "prefecture_code": 31,
    "city": "西伯郡南部町",
    "city_kana": "サイハクグンナンブチョウ",
    "town": "円山",
    "town_kana": "マルヤマ",
    "street": null,
    "office_name": null,
    "office_name_kana": null
  },
  "0212": {
    "postcode": "6830212",
    "prefecture": "鳥取県",
    "prefecture_kana": "トットリケン",
    "prefecture_code": 31,
    "city": "西伯郡南部町",
    "city_kana": "サイハクグンナンブチョウ",
    "town": "諸木",
    "town_kana": "モロギ",
    "street": null,
    "office_name": null,
    "office_name_kana": null
  },
  "0213": {
    "postcode": "6830213",
    "prefecture": "鳥取県",
    "prefecture_kana": "トットリケン",
    "prefecture_code": 31,
    "city": "西伯郡南部町",
    "city_kana": "サイハクグンナンブチョウ",
    "town": "西原",
    "town_kana": "ニシバラ",
    "street": null,
    "office_name": null,
    "office_name_kana": null
  },
  "0214": {
    "postcode": "6830214",
    "prefecture": "鳥取県",
    "prefecture_kana": "トットリケン",
    "prefecture_code": 31,
    "city": "西伯郡南部町",
    "city_kana": "サイハクグンナンブチョウ",
    "town": "田住",
    "town_kana": "タスミ",
    "street": null,
    "office_name": null,
    "office_name_kana": null
  },
  "0215": {
    "postcode": "6830215",
    "prefecture": "鳥取県",
    "prefecture_kana": "トットリケン",
    "prefecture_code": 31,
    "city": "西伯郡南部町",
    "city_kana": "サイハクグンナンブチョウ",
    "town": "荻名",
    "town_kana": "オギナ",
    "street": null,
    "office_name": null,
    "office_name_kana": null
  },
  "0216": {
    "postcode": "6830216",
    "prefecture": "鳥取県",
    "prefecture_kana": "トットリケン",
    "prefecture_code": 31,
    "city": "西伯郡南部町",
    "city_kana": "サイハクグンナンブチョウ",
    "town": "朝金",
    "town_kana": "アサカネ",
    "street": null,
    "office_name": null,
    "office_name_kana": null
  },
  "0217": {
    "postcode": "6830217",
    "prefecture": "鳥取県",
    "prefecture_kana": "トットリケン",
    "prefecture_code": 31,
    "city": "西伯郡南部町",
    "city_kana": "サイハクグンナンブチョウ",
    "town": "鶴田",
    "town_kana": "ツルダ",
    "street": null,
    "office_name": null,
    "office_name_kana": null
  },
  "0218": {
    "postcode": "6830218",
    "prefecture": "鳥取県",
    "prefecture_kana": "トットリケン",
    "prefecture_code": 31,
    "city": "西伯郡南部町",
    "city_kana": "サイハクグンナンブチョウ",
    "town": "池野",
    "town_kana": "イケノ",
    "street": null,
    "office_name": null,
    "office_name_kana": null
  },
  "0221": {
    "postcode": "6830221",
    "prefecture": "鳥取県",
    "prefecture_kana": "トットリケン",
    "prefecture_code": 31,
    "city": "西伯郡南部町",
    "city_kana": "サイハクグンナンブチョウ",
    "town": "宮前",
    "town_kana": "ミヤマエ",
    "street": null,
    "office_name": null,
    "office_name_kana": null
  },
  "0222": {
    "postcode": "6830222",
    "prefecture": "鳥取県",
    "prefecture_kana": "トットリケン",
    "prefecture_code": 31,
    "city": "西伯郡南部町",
    "city_kana": "サイハクグンナンブチョウ",
    "town": "市山",
    "town_kana": "イチヤマ",
    "street": null,
    "office_name": null,
    "office_name_kana": null
  },
  "0223": {
    "postcode": "6830223",
    "prefecture": "鳥取県",
    "prefecture_kana": "トットリケン",
    "prefecture_code": 31,
    "city": "西伯郡南部町",
    "city_kana": "サイハクグンナンブチョウ",
    "town": "井上",
    "town_kana": "イノウエ",
    "street": null,
    "office_name": null,
    "office_name_kana": null
  },
  "0224": {
    "postcode": "6830224",
    "prefecture": "鳥取県",
    "prefecture_kana": "トットリケン",
    "prefecture_code": 31,
    "city": "西伯郡南部町",
    "city_kana": "サイハクグンナンブチョウ",
    "town": "金田",
    "town_kana": "カネダ",
    "street": null,
    "office_name": null,
    "office_name_kana": null
  },
  "0225": {
    "postcode": "6830225",
    "prefecture": "鳥取県",
    "prefecture_kana": "トットリケン",
    "prefecture_code": 31,
    "city": "西伯郡南部町",
    "city_kana": "サイハクグンナンブチョウ",
    "town": "御内谷",
    "town_kana": "ミウチダニ",
    "street": null,
    "office_name": null,
    "office_name_kana": null
  },
  "0226": {
    "postcode": "6830226",
    "prefecture": "鳥取県",
    "prefecture_kana": "トットリケン",
    "prefecture_code": 31,
    "city": "西伯郡南部町",
    "city_kana": "サイハクグンナンブチョウ",
    "town": "高姫",
    "town_kana": "タカヒメ",
    "street": null,
    "office_name": null,
    "office_name_kana": null
  },
  "0227": {
    "postcode": "6830227",
    "prefecture": "鳥取県",
    "prefecture_kana": "トットリケン",
    "prefecture_code": 31,
    "city": "西伯郡南部町",
    "city_kana": "サイハクグンナンブチョウ",
    "town": "浅井",
    "town_kana": "アサイ",
    "street": null,
    "office_name": null,
    "office_name_kana": null
  },
  "0251": {
    "postcode": "6830251",
    "prefecture": "鳥取県",
    "prefecture_kana": "トットリケン",
    "prefecture_code": 31,
    "city": "米子市",
    "city_kana": "ヨナゴシ",
    "town": "兼久",
    "town_kana": "カネヒサ",
    "street": null,
    "office_name": null,
    "office_name_kana": null
  },
  "0252": {
    "postcode": "6830252",
    "prefecture": "鳥取県",
    "prefecture_kana": "トットリケン",
    "prefecture_code": 31,
    "city": "米子市",
    "city_kana": "ヨナゴシ",
    "town": "青木",
    "town_kana": "アオキ",
    "street": null,
    "office_name": null,
    "office_name_kana": null
  },
  "0253": {
    "postcode": "6830253",
    "prefecture": "鳥取県",
    "prefecture_kana": "トットリケン",
    "prefecture_code": 31,
    "city": "米子市",
    "city_kana": "ヨナゴシ",
    "town": "下安曇",
    "town_kana": "シモアズマ",
    "street": null,
    "office_name": null,
    "office_name_kana": null
  },
  "0254": {
    "postcode": "6830254",
    "prefecture": "鳥取県",
    "prefecture_kana": "トットリケン",
    "prefecture_code": 31,
    "city": "米子市",
    "city_kana": "ヨナゴシ",
    "town": "別所",
    "town_kana": "ベッショ",
    "street": null,
    "office_name": null,
    "office_name_kana": null
  },
  "0255": {
    "postcode": "6830255",
    "prefecture": "鳥取県",
    "prefecture_kana": "トットリケン",
    "prefecture_code": 31,
    "city": "米子市",
    "city_kana": "ヨナゴシ",
    "town": "上安曇",
    "town_kana": "カミアズマ",
    "street": null,
    "office_name": null,
    "office_name_kana": null
  },
  "0256": {
    "postcode": "6830256",
    "prefecture": "鳥取県",
    "prefecture_kana": "トットリケン",
    "prefecture_code": 31,
    "city": "米子市",
    "city_kana": "ヨナゴシ",
    "town": "大袋",
    "town_kana": "オオブクロ",
    "street": null,
    "office_name": null,
    "office_name_kana": null
  },
  "0257": {
    "postcode": "6830257",
    "prefecture": "鳥取県",
    "prefecture_kana": "トットリケン",
    "prefecture_code": 31,
    "city": "米子市",
    "city_kana": "ヨナゴシ",
    "town": "榎原",
    "town_kana": "エノキハラ",
    "street": null,
    "office_name": null,
    "office_name_kana": null
  },
  "0300": {
    "postcode": "6830300",
    "prefecture": "鳥取県",
    "prefecture_kana": "トットリケン",
    "prefecture_code": 31,
    "city": "西伯郡南部町",
    "city_kana": "サイハクグンナンブチョウ",
    "town": "",
    "town_kana": "",
    "street": null,
    "office_name": null,
    "office_name_kana": null
  },
  "0301": {
    "postcode": "6830301",
    "prefecture": "鳥取県",
    "prefecture_kana": "トットリケン",
    "prefecture_code": 31,
    "city": "西伯郡南部町",
    "city_kana": "サイハクグンナンブチョウ",
    "town": "東町",
    "town_kana": "ヒガシマチ",
    "street": null,
    "office_name": null,
    "office_name_kana": null
  },
  "0302": {
    "postcode": "6830302",
    "prefecture": "鳥取県",
    "prefecture_kana": "トットリケン",
    "prefecture_code": 31,
    "city": "西伯郡南部町",
    "city_kana": "サイハクグンナンブチョウ",
    "town": "西町",
    "town_kana": "ニシマチ",
    "street": null,
    "office_name": null,
    "office_name_kana": null
  },
  "0311": {
    "postcode": "6830311",
    "prefecture": "鳥取県",
    "prefecture_kana": "トットリケン",
    "prefecture_code": 31,
    "city": "西伯郡南部町",
    "city_kana": "サイハクグンナンブチョウ",
    "town": "境",
    "town_kana": "サカエ",
    "street": null,
    "office_name": null,
    "office_name_kana": null
  },
  "0312": {
    "postcode": "6830312",
    "prefecture": "鳥取県",
    "prefecture_kana": "トットリケン",
    "prefecture_code": 31,
    "city": "西伯郡南部町",
    "city_kana": "サイハクグンナンブチョウ",
    "town": "福成",
    "town_kana": "フクナリ",
    "street": null,
    "office_name": null,
    "office_name_kana": null
  },
  "0321": {
    "postcode": "6830321",
    "prefecture": "鳥取県",
    "prefecture_kana": "トットリケン",
    "prefecture_code": 31,
    "city": "西伯郡南部町",
    "city_kana": "サイハクグンナンブチョウ",
    "town": "清水川",
    "town_kana": "シミズガワ",
    "street": null,
    "office_name": null,
    "office_name_kana": null
  },
  "0322": {
    "postcode": "6830322",
    "prefecture": "鳥取県",
    "prefecture_kana": "トットリケン",
    "prefecture_code": 31,
    "city": "西伯郡南部町",
    "city_kana": "サイハクグンナンブチョウ",
    "town": "阿賀",
    "town_kana": "アガ",
    "street": null,
    "office_name": null,
    "office_name_kana": null
  },
  "0323": {
    "postcode": "6830323",
    "prefecture": "鳥取県",
    "prefecture_kana": "トットリケン",
    "prefecture_code": 31,
    "city": "西伯郡南部町",
    "city_kana": "サイハクグンナンブチョウ",
    "town": "倭",
    "town_kana": "ヤマト",
    "street": null,
    "office_name": null,
    "office_name_kana": null
  },
  "0331": {
    "postcode": "6830331",
    "prefecture": "鳥取県",
    "prefecture_kana": "トットリケン",
    "prefecture_code": 31,
    "city": "西伯郡南部町",
    "city_kana": "サイハクグンナンブチョウ",
    "town": "掛相",
    "town_kana": "カケアイ",
    "street": null,
    "office_name": null,
    "office_name_kana": null
  },
  "0332": {
    "postcode": "6830332",
    "prefecture": "鳥取県",
    "prefecture_kana": "トットリケン",
    "prefecture_code": 31,
    "city": "西伯郡南部町",
    "city_kana": "サイハクグンナンブチョウ",
    "town": "馬佐良",
    "town_kana": "バサラ",
    "street": null,
    "office_name": null,
    "office_name_kana": null
  },
  "0333": {
    "postcode": "6830333",
    "prefecture": "鳥取県",
    "prefecture_kana": "トットリケン",
    "prefecture_code": 31,
    "city": "西伯郡南部町",
    "city_kana": "サイハクグンナンブチョウ",
    "town": "八金",
    "town_kana": "ヤカネ",
    "street": null,
    "office_name": null,
    "office_name_kana": null
  },
  "0334": {
    "postcode": "6830334",
    "prefecture": "鳥取県",
    "prefecture_kana": "トットリケン",
    "prefecture_code": 31,
    "city": "西伯郡南部町",
    "city_kana": "サイハクグンナンブチョウ",
    "town": "東上",
    "town_kana": "トウジョウ",
    "street": null,
    "office_name": null,
    "office_name_kana": null
  },
  "0335": {
    "postcode": "6830335",
    "prefecture": "鳥取県",
    "prefecture_kana": "トットリケン",
    "prefecture_code": 31,
    "city": "西伯郡南部町",
    "city_kana": "サイハクグンナンブチョウ",
    "town": "中",
    "town_kana": "ナカ",
    "street": null,
    "office_name": null,
    "office_name_kana": null
  },
  "0336": {
    "postcode": "6830336",
    "prefecture": "鳥取県",
    "prefecture_kana": "トットリケン",
    "prefecture_code": 31,
    "city": "西伯郡南部町",
    "city_kana": "サイハクグンナンブチョウ",
    "town": "福頼",
    "town_kana": "フクヨリ",
    "street": null,
    "office_name": null,
    "office_name_kana": null
  },
  "0337": {
    "postcode": "6830337",
    "prefecture": "鳥取県",
    "prefecture_kana": "トットリケン",
    "prefecture_code": 31,
    "city": "西伯郡南部町",
    "city_kana": "サイハクグンナンブチョウ",
    "town": "落合",
    "town_kana": "オチアイ",
    "street": null,
    "office_name": null,
    "office_name_kana": null
  },
  "0341": {
    "postcode": "6830341",
    "prefecture": "鳥取県",
    "prefecture_kana": "トットリケン",
    "prefecture_code": 31,
    "city": "西伯郡南部町",
    "city_kana": "サイハクグンナンブチョウ",
    "town": "鴨部",
    "town_kana": "カモベ",
    "street": null,
    "office_name": null,
    "office_name_kana": null
  },
  "0342": {
    "postcode": "6830342",
    "prefecture": "鳥取県",
    "prefecture_kana": "トットリケン",
    "prefecture_code": 31,
    "city": "西伯郡南部町",
    "city_kana": "サイハクグンナンブチョウ",
    "town": "能竹",
    "town_kana": "ノウジク",
    "street": null,
    "office_name": null,
    "office_name_kana": null
  },
  "0343": {
    "postcode": "6830343",
    "prefecture": "鳥取県",
    "prefecture_kana": "トットリケン",
    "prefecture_code": 31,
    "city": "西伯郡南部町",
    "city_kana": "サイハクグンナンブチョウ",
    "town": "下中谷",
    "town_kana": "シモナカタニ",
    "street": null,
    "office_name": null,
    "office_name_kana": null
  },
  "0344": {
    "postcode": "6830344",
    "prefecture": "鳥取県",
    "prefecture_kana": "トットリケン",
    "prefecture_code": 31,
    "city": "西伯郡南部町",
    "city_kana": "サイハクグンナンブチョウ",
    "town": "上中谷",
    "town_kana": "カミナカタニ",
    "street": null,
    "office_name": null,
    "office_name_kana": null
  },
  "0345": {
    "postcode": "6830345",
    "prefecture": "鳥取県",
    "prefecture_kana": "トットリケン",
    "prefecture_code": 31,
    "city": "西伯郡南部町",
    "city_kana": "サイハクグンナンブチョウ",
    "town": "大木屋",
    "town_kana": "オオキヤ",
    "street": null,
    "office_name": null,
    "office_name_kana": null
  },
  "0351": {
    "postcode": "6830351",
    "prefecture": "鳥取県",
    "prefecture_kana": "トットリケン",
    "prefecture_code": 31,
    "city": "西伯郡南部町",
    "city_kana": "サイハクグンナンブチョウ",
    "town": "法勝寺",
    "town_kana": "ホッショウジ",
    "street": null,
    "office_name": null,
    "office_name_kana": null
  },
  "0352": {
    "postcode": "6830352",
    "prefecture": "鳥取県",
    "prefecture_kana": "トットリケン",
    "prefecture_code": 31,
    "city": "西伯郡南部町",
    "city_kana": "サイハクグンナンブチョウ",
    "town": "馬場",
    "town_kana": "ババ",
    "street": null,
    "office_name": null,
    "office_name_kana": null
  },
  "0353": {
    "postcode": "6830353",
    "prefecture": "鳥取県",
    "prefecture_kana": "トットリケン",
    "prefecture_code": 31,
    "city": "西伯郡南部町",
    "city_kana": "サイハクグンナンブチョウ",
    "town": "徳長",
    "town_kana": "トクナガ",
    "street": null,
    "office_name": null,
    "office_name_kana": null
  },
  "0354": {
    "postcode": "6830354",
    "prefecture": "鳥取県",
    "prefecture_kana": "トットリケン",
    "prefecture_code": 31,
    "city": "西伯郡南部町",
    "city_kana": "サイハクグンナンブチョウ",
    "town": "武信",
    "town_kana": "タケノブ",
    "street": null,
    "office_name": null,
    "office_name_kana": null
  },
  "0355": {
    "postcode": "6830355",
    "prefecture": "鳥取県",
    "prefecture_kana": "トットリケン",
    "prefecture_code": 31,
    "city": "西伯郡南部町",
    "city_kana": "サイハクグンナンブチョウ",
    "town": "道河内",
    "town_kana": "ドウガワウチ",
    "street": null,
    "office_name": null,
    "office_name_kana": null
  },
  "0356": {
    "postcode": "6830356",
    "prefecture": "鳥取県",
    "prefecture_kana": "トットリケン",
    "prefecture_code": 31,
    "city": "西伯郡南部町",
    "city_kana": "サイハクグンナンブチョウ",
    "town": "伐株",
    "town_kana": "キリクイ",
    "street": null,
    "office_name": null,
    "office_name_kana": null
  },
  "0361": {
    "postcode": "6830361",
    "prefecture": "鳥取県",
    "prefecture_kana": "トットリケン",
    "prefecture_code": 31,
    "city": "西伯郡南部町",
    "city_kana": "サイハクグンナンブチョウ",
    "town": "北方",
    "town_kana": "キタガタ",
    "street": null,
    "office_name": null,
    "office_name_kana": null
  },
  "0362": {
    "postcode": "6830362",
    "prefecture": "鳥取県",
    "prefecture_kana": "トットリケン",
    "prefecture_code": 31,
    "city": "西伯郡南部町",
    "city_kana": "サイハクグンナンブチョウ",
    "town": "原",
    "town_kana": "ハラ",
    "street": null,
    "office_name": null,
    "office_name_kana": null
  },
  "0363": {
    "postcode": "6830363",
    "prefecture": "鳥取県",
    "prefecture_kana": "トットリケン",
    "prefecture_code": 31,
    "city": "西伯郡南部町",
    "city_kana": "サイハクグンナンブチョウ",
    "town": "西",
    "town_kana": "ニシ",
    "street": null,
    "office_name": null,
    "office_name_kana": null
  },
  "0364": {
    "postcode": "6830364",
    "prefecture": "鳥取県",
    "prefecture_kana": "トットリケン",
    "prefecture_code": 31,
    "city": "西伯郡南部町",
    "city_kana": "サイハクグンナンブチョウ",
    "town": "絹屋",
    "town_kana": "キヌヤ",
    "street": null,
    "office_name": null,
    "office_name_kana": null
  },
  "0365": {
    "postcode": "6830365",
    "prefecture": "鳥取県",
    "prefecture_kana": "トットリケン",
    "prefecture_code": 31,
    "city": "西伯郡南部町",
    "city_kana": "サイハクグンナンブチョウ",
    "town": "鍋倉",
    "town_kana": "ナベクラ",
    "street": null,
    "office_name": null,
    "office_name_kana": null
  },
  "0366": {
    "postcode": "6830366",
    "prefecture": "鳥取県",
    "prefecture_kana": "トットリケン",
    "prefecture_code": 31,
    "city": "西伯郡南部町",
    "city_kana": "サイハクグンナンブチョウ",
    "town": "与一谷",
    "town_kana": "ヨイチダニ",
    "street": null,
    "office_name": null,
    "office_name_kana": null
  },
  "0367": {
    "postcode": "6830367",
    "prefecture": "鳥取県",
    "prefecture_kana": "トットリケン",
    "prefecture_code": 31,
    "city": "西伯郡南部町",
    "city_kana": "サイハクグンナンブチョウ",
    "town": "猪小路",
    "town_kana": "イノコウジ",
    "street": null,
    "office_name": null,
    "office_name_kana": null
  },
  "0801": {
    "postcode": "6830801",
    "prefecture": "鳥取県",
    "prefecture_kana": "トットリケン",
    "prefecture_code": 31,
    "city": "米子市",
    "city_kana": "ヨナゴシ",
    "town": "新開",
    "town_kana": "シンカイ",
    "street": null,
    "office_name": null,
    "office_name_kana": null
  },
  "0802": {
    "postcode": "6830802",
    "prefecture": "鳥取県",
    "prefecture_kana": "トットリケン",
    "prefecture_code": 31,
    "city": "米子市",
    "city_kana": "ヨナゴシ",
    "town": "東福原",
    "town_kana": "ヒガシフクバラ",
    "street": null,
    "office_name": null,
    "office_name_kana": null
  },
  "0803": {
    "postcode": "6830803",
    "prefecture": "鳥取県",
    "prefecture_kana": "トットリケン",
    "prefecture_code": 31,
    "city": "米子市",
    "city_kana": "ヨナゴシ",
    "town": "日ノ出町",
    "town_kana": "ヒノデチョウ",
    "street": null,
    "office_name": null,
    "office_name_kana": null
  },
  "0804": {
    "postcode": "6830804",
    "prefecture": "鳥取県",
    "prefecture_kana": "トットリケン",
    "prefecture_code": 31,
    "city": "米子市",
    "city_kana": "ヨナゴシ",
    "town": "米原",
    "town_kana": "ヨネハラ",
    "street": null,
    "office_name": null,
    "office_name_kana": null
  },
  "0805": {
    "postcode": "6830805",
    "prefecture": "鳥取県",
    "prefecture_kana": "トットリケン",
    "prefecture_code": 31,
    "city": "米子市",
    "city_kana": "ヨナゴシ",
    "town": "西福原",
    "town_kana": "ニシフクバラ",
    "street": null,
    "office_name": null,
    "office_name_kana": null
  },
  "0811": {
    "postcode": "6830811",
    "prefecture": "鳥取県",
    "prefecture_kana": "トットリケン",
    "prefecture_code": 31,
    "city": "米子市",
    "city_kana": "ヨナゴシ",
    "town": "錦町",
    "town_kana": "ニシキチョウ",
    "street": null,
    "office_name": null,
    "office_name_kana": null
  },
  "0812": {
    "postcode": "6830812",
    "prefecture": "鳥取県",
    "prefecture_kana": "トットリケン",
    "prefecture_code": 31,
    "city": "米子市",
    "city_kana": "ヨナゴシ",
    "town": "角盤町",
    "town_kana": "カクバンチョウ",
    "street": null,
    "office_name": null,
    "office_name_kana": null
  },
  "0813": {
    "postcode": "6830813",
    "prefecture": "鳥取県",
    "prefecture_kana": "トットリケン",
    "prefecture_code": 31,
    "city": "米子市",
    "city_kana": "ヨナゴシ",
    "town": "朝日町",
    "town_kana": "アサヒマチ",
    "street": null,
    "office_name": null,
    "office_name_kana": null
  },
  "0814": {
    "postcode": "6830814",
    "prefecture": "鳥取県",
    "prefecture_kana": "トットリケン",
    "prefecture_code": 31,
    "city": "米子市",
    "city_kana": "ヨナゴシ",
    "town": "尾高町",
    "town_kana": "オダカマチ",
    "street": null,
    "office_name": null,
    "office_name_kana": null
  },
  "0815": {
    "postcode": "6830815",
    "prefecture": "鳥取県",
    "prefecture_kana": "トットリケン",
    "prefecture_code": 31,
    "city": "米子市",
    "city_kana": "ヨナゴシ",
    "town": "東倉吉町",
    "town_kana": "ヒガシクラヨシマチ",
    "street": null,
    "office_name": null,
    "office_name_kana": null
  },
  "0816": {
    "postcode": "6830816",
    "prefecture": "鳥取県",
    "prefecture_kana": "トットリケン",
    "prefecture_code": 31,
    "city": "米子市",
    "city_kana": "ヨナゴシ",
    "town": "西倉吉町",
    "town_kana": "ニシクラヨシマチ",
    "street": null,
    "office_name": null,
    "office_name_kana": null
  },
  "0821": {
    "postcode": "6830821",
    "prefecture": "鳥取県",
    "prefecture_kana": "トットリケン",
    "prefecture_code": 31,
    "city": "米子市",
    "city_kana": "ヨナゴシ",
    "town": "天神町",
    "town_kana": "テンジンマチ",
    "street": null,
    "office_name": null,
    "office_name_kana": null
  },
  "0822": {
    "postcode": "6830822",
    "prefecture": "鳥取県",
    "prefecture_kana": "トットリケン",
    "prefecture_code": 31,
    "city": "米子市",
    "city_kana": "ヨナゴシ",
    "town": "中町",
    "town_kana": "ナカマチ",
    "street": null,
    "office_name": null,
    "office_name_kana": null
  },
  "0823": {
    "postcode": "6830823",
    "prefecture": "鳥取県",
    "prefecture_kana": "トットリケン",
    "prefecture_code": 31,
    "city": "米子市",
    "city_kana": "ヨナゴシ",
    "town": "加茂町",
    "town_kana": "カモチョウ",
    "street": null,
    "office_name": null,
    "office_name_kana": null
  },
  "0824": {
    "postcode": "6830824",
    "prefecture": "鳥取県",
    "prefecture_kana": "トットリケン",
    "prefecture_code": 31,
    "city": "米子市",
    "city_kana": "ヨナゴシ",
    "town": "久米町",
    "town_kana": "クメチョウ",
    "street": null,
    "office_name": null,
    "office_name_kana": null
  },
  "0825": {
    "postcode": "6830825",
    "prefecture": "鳥取県",
    "prefecture_kana": "トットリケン",
    "prefecture_code": 31,
    "city": "米子市",
    "city_kana": "ヨナゴシ",
    "town": "錦海町",
    "town_kana": "キンカイチョウ",
    "street": null,
    "office_name": null,
    "office_name_kana": null
  },
  "0826": {
    "postcode": "6830826",
    "prefecture": "鳥取県",
    "prefecture_kana": "トットリケン",
    "prefecture_code": 31,
    "city": "米子市",
    "city_kana": "ヨナゴシ",
    "town": "西町",
    "town_kana": "ニシチョウ",
    "street": null,
    "office_name": null,
    "office_name_kana": null
  },
  "0831": {
    "postcode": "6830831",
    "prefecture": "鳥取県",
    "prefecture_kana": "トットリケン",
    "prefecture_code": 31,
    "city": "米子市",
    "city_kana": "ヨナゴシ",
    "town": "寺町",
    "town_kana": "テラマチ",
    "street": null,
    "office_name": null,
    "office_name_kana": null
  },
  "0832": {
    "postcode": "6830832",
    "prefecture": "鳥取県",
    "prefecture_kana": "トットリケン",
    "prefecture_code": 31,
    "city": "米子市",
    "city_kana": "ヨナゴシ",
    "town": "立町",
    "town_kana": "タテマチ",
    "street": null,
    "office_name": null,
    "office_name_kana": null
  },
  "0833": {
    "postcode": "6830833",
    "prefecture": "鳥取県",
    "prefecture_kana": "トットリケン",
    "prefecture_code": 31,
    "city": "米子市",
    "city_kana": "ヨナゴシ",
    "town": "岩倉町",
    "town_kana": "イワクラマチ",
    "street": null,
    "office_name": null,
    "office_name_kana": null
  },
  "0834": {
    "postcode": "6830834",
    "prefecture": "鳥取県",
    "prefecture_kana": "トットリケン",
    "prefecture_code": 31,
    "city": "米子市",
    "city_kana": "ヨナゴシ",
    "town": "内町",
    "town_kana": "ウチマチ",
    "street": null,
    "office_name": null,
    "office_name_kana": null
  },
  "0835": {
    "postcode": "6830835",
    "prefecture": "鳥取県",
    "prefecture_kana": "トットリケン",
    "prefecture_code": 31,
    "city": "米子市",
    "city_kana": "ヨナゴシ",
    "town": "灘町",
    "town_kana": "ナダマチ",
    "street": null,
    "office_name": null,
    "office_name_kana": null
  },
  "0836": {
    "postcode": "6830836",
    "prefecture": "鳥取県",
    "prefecture_kana": "トットリケン",
    "prefecture_code": 31,
    "city": "米子市",
    "city_kana": "ヨナゴシ",
    "town": "花園町",
    "town_kana": "ハナゾノチョウ",
    "street": null,
    "office_name": null,
    "office_name_kana": null
  },
  "0841": {
    "postcode": "6830841",
    "prefecture": "鳥取県",
    "prefecture_kana": "トットリケン",
    "prefecture_code": 31,
    "city": "米子市",
    "city_kana": "ヨナゴシ",
    "town": "上後藤",
    "town_kana": "カミゴトウ",
    "street": null,
    "office_name": null,
    "office_name_kana": null
  },
  "0842": {
    "postcode": "6830842",
    "prefecture": "鳥取県",
    "prefecture_kana": "トットリケン",
    "prefecture_code": 31,
    "city": "米子市",
    "city_kana": "ヨナゴシ",
    "town": "三本松",
    "town_kana": "サンボンマツ",
    "street": null,
    "office_name": null,
    "office_name_kana": null
  },
  "0843": {
    "postcode": "6830843",
    "prefecture": "鳥取県",
    "prefecture_kana": "トットリケン",
    "prefecture_code": 31,
    "city": "米子市",
    "city_kana": "ヨナゴシ",
    "town": "三旗町",
    "town_kana": "ミハタチョウ",
    "street": null,
    "office_name": null,
    "office_name_kana": null
  },
  "0844": {
    "postcode": "6830844",
    "prefecture": "鳥取県",
    "prefecture_kana": "トットリケン",
    "prefecture_code": 31,
    "city": "米子市",
    "city_kana": "ヨナゴシ",
    "town": "義方町",
    "town_kana": "ギホウチョウ",
    "street": null,
    "office_name": null,
    "office_name_kana": null
  },
  "0845": {
    "postcode": "6830845",
    "prefecture": "鳥取県",
    "prefecture_kana": "トットリケン",
    "prefecture_code": 31,
    "city": "米子市",
    "city_kana": "ヨナゴシ",
    "town": "旗ヶ崎",
    "town_kana": "ハタガサキ",
    "street": null,
    "office_name": null,
    "office_name_kana": null
  },
  "0846": {
    "postcode": "6830846",
    "prefecture": "鳥取県",
    "prefecture_kana": "トットリケン",
    "prefecture_code": 31,
    "city": "米子市",
    "city_kana": "ヨナゴシ",
    "town": "安倍",
    "town_kana": "アベ",
    "street": null,
    "office_name": null,
    "office_name_kana": null
  },
  "0851": {
    "postcode": "6830851",
    "prefecture": "鳥取県",
    "prefecture_kana": "トットリケン",
    "prefecture_code": 31,
    "city": "米子市",
    "city_kana": "ヨナゴシ",
    "town": "夜見町",
    "town_kana": "ヨミチョウ",
    "street": null,
    "office_name": null,
    "office_name_kana": null
  },
  "0852": {
    "postcode": "6830852",
    "prefecture": "鳥取県",
    "prefecture_kana": "トットリケン",
    "prefecture_code": 31,
    "city": "米子市",
    "city_kana": "ヨナゴシ",
    "town": "河崎",
    "town_kana": "カワサキ",
    "street": null,
    "office_name": null,
    "office_name_kana": null
  },
  "0853": {
    "postcode": "6830853",
    "prefecture": "鳥取県",
    "prefecture_kana": "トットリケン",
    "prefecture_code": 31,
    "city": "米子市",
    "city_kana": "ヨナゴシ",
    "town": "両三柳",
    "town_kana": "リョウミツヤナギ",
    "street": null,
    "office_name": null,
    "office_name_kana": null
  },
  "0854": {
    "postcode": "6830854",
    "prefecture": "鳥取県",
    "prefecture_kana": "トットリケン",
    "prefecture_code": 31,
    "city": "米子市",
    "city_kana": "ヨナゴシ",
    "town": "彦名町",
    "town_kana": "ヒコナチョウ",
    "street": null,
    "office_name": null,
    "office_name_kana": null
  },
  "0855": {
    "postcode": "6830855",
    "prefecture": "鳥取県",
    "prefecture_kana": "トットリケン",
    "prefecture_code": 31,
    "city": "米子市",
    "city_kana": "ヨナゴシ",
    "town": "彦名新田",
    "town_kana": "ヒコナシンデン",
    "street": null,
    "office_name": null,
    "office_name_kana": null
  },
  "8502": {
    "postcode": "6838502",
    "prefecture": "鳥取県",
    "prefecture_kana": "トットリケン",
    "prefecture_code": 31,
    "city": "米子市",
    "city_kana": "ヨナゴシ",
    "town": "彦名町",
    "town_kana": "ヒコナチョウ",
    "street": "４４４８",
    "office_name": "独立行政法人　国立高等専門学校機構　米子工業高等専門学校",
    "office_name_kana": "ドクリツギヨウセイホウジンコクリツコウトウセンモンガツコウキコウヨナゴコウギヨウコウトウセンモンガツコウ"
  },
  "8503": {
    "postcode": "6838503",
    "prefecture": "鳥取県",
    "prefecture_kana": "トットリケン",
    "prefecture_code": 31,
    "city": "米子市",
    "city_kana": "ヨナゴシ",
    "town": "西町",
    "town_kana": "ニシチョウ",
    "street": "８６",
    "office_name": "国立大学法人　鳥取大学医学部",
    "office_name_kana": "コクリツダイガクホウジントツトリダイガクイガクブ"
  },
  "8504": {
    "postcode": "6838504",
    "prefecture": "鳥取県",
    "prefecture_kana": "トットリケン",
    "prefecture_code": 31,
    "city": "米子市",
    "city_kana": "ヨナゴシ",
    "town": "西町",
    "town_kana": "ニシチョウ",
    "street": "３６−１",
    "office_name": "国立大学法人　鳥取大学医学部　附属病院",
    "office_name_kana": "コクリツダイガクホウジントツトリダイガクイガクブフゾクビヨウイン"
  },
  "8505": {
    "postcode": "6838505",
    "prefecture": "鳥取県",
    "prefecture_kana": "トットリケン",
    "prefecture_code": 31,
    "city": "米子市",
    "city_kana": "ヨナゴシ",
    "town": "東福原",
    "town_kana": "ヒガシフクバラ",
    "street": "２丁目１９番４８号",
    "office_name": "株式会社　丸合",
    "office_name_kana": "カブシキガイシヤ マルゴウ"
  },
  "8506": {
    "postcode": "6838506",
    "prefecture": "鳥取県",
    "prefecture_kana": "トットリケン",
    "prefecture_code": 31,
    "city": "米子市",
    "city_kana": "ヨナゴシ",
    "town": "旗ヶ崎",
    "town_kana": "ハタガサキ",
    "street": "２１４７番地",
    "office_name": "株式会社　さんれいフーズ",
    "office_name_kana": "カブシキガイシヤ サンレイフ-ズ"
  },
  "8508": {
    "postcode": "6838508",
    "prefecture": "鳥取県",
    "prefecture_kana": "トットリケン",
    "prefecture_code": 31,
    "city": "米子市",
    "city_kana": "ヨナゴシ",
    "town": "大谷町",
    "town_kana": "オオダニチョウ",
    "street": "１６１−１",
    "office_name": "株式会社　雪印　アクセス山陰支店",
    "office_name_kana": "カブシキガイシヤ ユキジルシ アクセスサンインシテン"
  },
  "8510": {
    "postcode": "6838510",
    "prefecture": "鳥取県",
    "prefecture_kana": "トットリケン",
    "prefecture_code": 31,
    "city": "米子市",
    "city_kana": "ヨナゴシ",
    "town": "西福原",
    "town_kana": "ニシフクバラ",
    "street": "２丁目１−１０",
    "office_name": "株式会社　米子しんまち天満屋",
    "office_name_kana": "カブシキガイシヤ ヨナゴシンマチテンマヤ"
  },
  "8511": {
    "postcode": "6838511",
    "prefecture": "鳥取県",
    "prefecture_kana": "トットリケン",
    "prefecture_code": 31,
    "city": "米子市",
    "city_kana": "ヨナゴシ",
    "town": "角盤町",
    "town_kana": "カクバンチョウ",
    "street": "１丁目１６８",
    "office_name": "協同組合　やよいデパート",
    "office_name_kana": "キヨウドウクミアイ ヤヨイデパ-ト"
  },
  "8512": {
    "postcode": "6838512",
    "prefecture": "鳥取県",
    "prefecture_kana": "トットリケン",
    "prefecture_code": 31,
    "city": "米子市",
    "city_kana": "ヨナゴシ",
    "town": "大谷町",
    "town_kana": "オオダニチョウ",
    "street": "２００",
    "office_name": "県立米子西高等学校",
    "office_name_kana": "ケンリツヨナゴニシコウトウガツコウ"
  },
  "8516": {
    "postcode": "6838516",
    "prefecture": "鳥取県",
    "prefecture_kana": "トットリケン",
    "prefecture_code": 31,
    "city": "米子市",
    "city_kana": "ヨナゴシ",
    "town": "旗ケ崎",
    "town_kana": null,
    "street": "２２０１−１",
    "office_name": "山陰酸素工業　株式会社",
    "office_name_kana": "サンインサンソコウギヨウカブシキガイシヤ"
  },
  "8518": {
    "postcode": "6838518",
    "prefecture": "鳥取県",
    "prefecture_kana": "トットリケン",
    "prefecture_code": 31,
    "city": "米子市",
    "city_kana": "ヨナゴシ",
    "town": "車尾",
    "town_kana": "クズモ",
    "street": "１２９３−１",
    "office_name": "独立行政法人　国立病院機構　米子医療センター",
    "office_name_kana": "ドクリツギヨウセイホウジン コクリツビヨウインキコウ ヨナゴイリヨウセンタ-"
  },
  "8520": {
    "postcode": "6838520",
    "prefecture": "鳥取県",
    "prefecture_kana": "トットリケン",
    "prefecture_code": 31,
    "city": "米子市",
    "city_kana": "ヨナゴシ",
    "town": "両三柳",
    "town_kana": "リョウミツヤナギ",
    "street": "３０６０",
    "office_name": "新日本海新聞社　西部本社",
    "office_name_kana": "シンニホンカイシンブンシヤ セイブホンシヤ"
  },
  "8601": {
    "postcode": "6838601",
    "prefecture": "鳥取県",
    "prefecture_kana": "トットリケン",
    "prefecture_code": 31,
    "city": "米子市",
    "city_kana": "ヨナゴシ",
    "town": "東福原",
    "town_kana": "ヒガシフクバラ",
    "street": "２丁目５−１（米子郵便局私書箱第２号）",
    "office_name": "米子信用金庫",
    "office_name_kana": "ヨナゴシンヨウキンコ"
  },
  "8602": {
    "postcode": "6838602",
    "prefecture": "鳥取県",
    "prefecture_kana": "トットリケン",
    "prefecture_code": 31,
    "city": "米子市",
    "city_kana": "ヨナゴシ",
    "town": "東福原",
    "town_kana": "ヒガシフクバラ",
    "street": "２丁目１−１（米子郵便局私書箱第５号）",
    "office_name": "山陰信販　株式会社",
    "office_name_kana": "サンインシンパン カブシキガイシヤ"
  },
  "8603": {
    "postcode": "6838603",
    "prefecture": "鳥取県",
    "prefecture_kana": "トットリケン",
    "prefecture_code": 31,
    "city": "米子市",
    "city_kana": "ヨナゴシ",
    "town": "東町",
    "town_kana": "ヒガシチョウ",
    "street": "１６８（米子郵便局私書箱第１８号）",
    "office_name": "商工組合中央金庫　米子支店",
    "office_name_kana": "シヨウコウクミアイチユウオウキンコ ヨナゴシテン"
  },
  "8604": {
    "postcode": "6838604",
    "prefecture": "鳥取県",
    "prefecture_kana": "トットリケン",
    "prefecture_code": 31,
    "city": "米子市",
    "city_kana": "ヨナゴシ",
    "town": "両三柳",
    "town_kana": "リョウミツヤナギ",
    "street": "２６０３",
    "office_name": "陸上自衛隊　米子駐屯地",
    "office_name_kana": "リクジヨウジエイタイ ヨナゴチユウトンチ"
  },
  "8605": {
    "postcode": "6838605",
    "prefecture": "鳥取県",
    "prefecture_kana": "トットリケン",
    "prefecture_code": 31,
    "city": "米子市",
    "city_kana": "ヨナゴシ",
    "town": "皆生新田",
    "town_kana": "カイケシンデン",
    "street": "１丁目８−１",
    "office_name": "独立行政法人　労働者健康福祉機構　山陰労災病院",
    "office_name_kana": "ドクリツギヨウセイホウジン ロウドウシヤケンコウフクシキコウサンインロウサイビヨウイン"
  },
  "8670": {
    "postcode": "6838670",
    "prefecture": "鳥取県",
    "prefecture_kana": "トットリケン",
    "prefecture_code": 31,
    "city": "米子市",
    "city_kana": "ヨナゴシ",
    "town": "西福原",
    "town_kana": "ニシフクバラ",
    "street": "１丁目１−７１",
    "office_name": "株式会社　山陰放送",
    "office_name_kana": "カブシキガイシヤ サンインホウソウ"
  },
  "8686": {
    "postcode": "6838686",
    "prefecture": "鳥取県",
    "prefecture_kana": "トットリケン",
    "prefecture_code": 31,
    "city": "米子市",
    "city_kana": "ヨナゴシ",
    "town": "加茂町",
    "town_kana": "カモチョウ",
    "street": "１丁目１（米子郵便局私書箱第４１号）",
    "office_name": "米子市役所",
    "office_name_kana": "ヨナゴシヤクシヨ"
  }
}