{
  "0000": {
    "postcode": "6840000",
    "prefecture": "鳥取県",
    "prefecture_kana": "トットリケン",
    "prefecture_code": 31,
    "city": "境港市",
    "city_kana": "サカイミナトシ",
    "town": "",
    "town_kana": "",
    "street": null,
    "office_name": null,
    "office_name_kana": null
  },
  "0001": {
    "postcode": "6840001",
    "prefecture": "鳥取県",
    "prefecture_kana": "トットリケン",
    "prefecture_code": 31,
    "city": "境港市",
    "city_kana": "サカイミナトシ",
    "town": "清水町",
    "town_kana": "シミズチョウ",
    "street": null,
    "office_name": null,
    "office_name_kana": null
  },
  "0002": {
    "postcode": "6840002",
    "prefecture": "鳥取県",
    "prefecture_kana": "トットリケン",
    "prefecture_code": 31,
    "city": "境港市",
    "city_kana": "サカイミナトシ",
    "town": "弥生町",
    "town_kana": "ヤヨイチョウ",
    "street": null,
    "office_name": null,
    "office_name_kana": null
  },
  "0003": {
    "postcode": "6840003",
    "prefecture": "鳥取県",
    "prefecture_kana": "トットリケン",
    "prefecture_code": 31,
    "city": "境港市",
    "city_kana": "サカイミナトシ",
    "town": "浜ノ町",
    "town_kana": "ハマノチョウ",
    "street": null,
    "office_name": null,
    "office_name_kana": null
  },
  "0004": {
    "postcode": "6840004",
    "prefecture": "鳥取県",
    "prefecture_kana": "トットリケン",
    "prefecture_code": 31,
    "city": "境港市",
    "city_kana": "サカイミナトシ",
    "town": "大正町",
    "town_kana": "タイショウマチ",
    "street": null,
    "office_name": null,
    "office_name_kana": null
  },
  "0005": {
    "postcode": "6840005",
    "prefecture": "鳥取県",
    "prefecture_kana": "トットリケン",
    "prefecture_code": 31,
    "city": "境港市",
    "city_kana": "サカイミナトシ",
    "town": "松ケ枝町",
    "town_kana": "マツガエチョウ",
    "street": null,
    "office_name": null,
    "office_name_kana": null
  },
  "0006": {
    "postcode": "6840006",
    "prefecture": "鳥取県",
    "prefecture_kana": "トットリケン",
    "prefecture_code": 31,
    "city": "境港市",
    "city_kana": "サカイミナトシ",
    "town": "栄町",
    "town_kana": "エイマチ",
    "street": null,
    "office_name": null,
    "office_name_kana": null
  },
  "0011": {
    "postcode": "6840011",
    "prefecture": "鳥取県",
    "prefecture_kana": "トットリケン",
    "prefecture_code": 31,
    "city": "境港市",
    "city_kana": "サカイミナトシ",
    "town": "相生町",
    "town_kana": "アイオイチョウ",
    "street": null,
    "office_name": null,
    "office_name_kana": null
  },
  "0012": {
    "postcode": "6840012",
    "prefecture": "鳥取県",
    "prefecture_kana": "トットリケン",
    "prefecture_code": 31,
    "city": "境港市",
    "city_kana": "サカイミナトシ",
    "town": "中町",
    "town_kana": "ナカマチ",
    "street": null,
    "office_name": null,
    "office_name_kana": null
  },
  "0013": {
    "postcode": "6840013",
    "prefecture": "鳥取県",
    "prefecture_kana": "トットリケン",
    "prefecture_code": 31,
    "city": "境港市",
    "city_kana": "サカイミナトシ",
    "town": "朝日町",
    "town_kana": "アサヒマチ",
    "street": null,
    "office_name": null,
    "office_name_kana": null
  },
  "0014": {
    "postcode": "6840014",
    "prefecture": "鳥取県",
    "prefecture_kana": "トットリケン",
    "prefecture_code": 31,
    "city": "境港市",
    "city_kana": "サカイミナトシ",
    "town": "入船町",
    "town_kana": "ニュウセンチョウ",
    "street": null,
    "office_name": null,
    "office_name_kana": null
  },
  "0015": {
    "postcode": "6840015",
    "prefecture": "鳥取県",
    "prefecture_kana": "トットリケン",
    "prefecture_code": 31,
    "city": "境港市",
    "city_kana": "サカイミナトシ",
    "town": "東雲町",
    "town_kana": "シノノメチョウ",
    "street": null,
    "office_name": null,
    "office_name_kana": null
  },
  "0016": {
    "postcode": "6840016",
    "prefecture": "鳥取県",
    "prefecture_kana": "トットリケン",
    "prefecture_code": 31,
    "city": "境港市",
    "city_kana": "サカイミナトシ",
    "town": "花町",
    "town_kana": "ハナマチ",
    "street": null,
    "office_name": null,
    "office_name_kana": null
  },
  "0017": {
    "postcode": "6840017",
    "prefecture": "鳥取県",
    "prefecture_kana": "トットリケン",
    "prefecture_code": 31,
    "city": "境港市",
    "city_kana": "サカイミナトシ",
    "town": "岬町",
    "town_kana": "ミサキチョウ",
    "street": null,
    "office_name": null,
    "office_name_kana": null
  },
  "0021": {
    "postcode": "6840021",
    "prefecture": "鳥取県",
    "prefecture_kana": "トットリケン",
    "prefecture_code": 31,
    "city": "境港市",
    "city_kana": "サカイミナトシ",
    "town": "馬場崎町",
    "town_kana": "ババサキチョウ",
    "street": null,
    "office_name": null,
    "office_name_kana": null
  },
  "0022": {
    "postcode": "6840022",
    "prefecture": "鳥取県",
    "prefecture_kana": "トットリケン",
    "prefecture_code": 31,
    "city": "境港市",
    "city_kana": "サカイミナトシ",
    "town": "明治町",
    "town_kana": "メイジマチ",
    "street": null,
    "office_name": null,
    "office_name_kana": null
  },
  "0023": {
    "postcode": "6840023",
    "prefecture": "鳥取県",
    "prefecture_kana": "トットリケン",
    "prefecture_code": 31,
    "city": "境港市",
    "city_kana": "サカイミナトシ",
    "town": "京町",
    "town_kana": "キョウマチ",
    "street": null,
    "office_name": null,
    "office_name_kana": null
  },
  "0024": {
    "postcode": "6840024",
    "prefecture": "鳥取県",
    "prefecture_kana": "トットリケン",
    "prefecture_code": 31,
    "city": "境港市",
    "city_kana": "サカイミナトシ",
    "town": "日ノ出町",
    "town_kana": "ヒノデチョウ",
    "street": null,
    "office_name": null,
    "office_name_kana": null
  },
  "0025": {
    "postcode": "6840025",
    "prefecture": "鳥取県",
    "prefecture_kana": "トットリケン",
    "prefecture_code": 31,
    "city": "境港市",
    "city_kana": "サカイミナトシ",
    "town": "本町",
    "town_kana": "ホンマチ",
    "street": null,
    "office_name": null,
    "office_name_kana": null
  },
  "0026": {
    "postcode": "6840026",
    "prefecture": "鳥取県",
    "prefecture_kana": "トットリケン",
    "prefecture_code": 31,
    "city": "境港市",
    "city_kana": "サカイミナトシ",
    "town": "末広町",
    "town_kana": "スエヒロチョウ",
    "street": null,
    "office_name": null,
    "office_name_kana": null
  },
  "0027": {
    "postcode": "6840027",
    "prefecture": "鳥取県",
    "prefecture_kana": "トットリケン",
    "prefecture_code": 31,
    "city": "境港市",
    "city_kana": "サカイミナトシ",
    "town": "東本町",
    "town_kana": "ヒガシホンマチ",
    "street": null,
    "office_name": null,
    "office_name_kana": null
  },
  "0031": {
    "postcode": "6840031",
    "prefecture": "鳥取県",
    "prefecture_kana": "トットリケン",
    "prefecture_code": 31,
    "city": "境港市",
    "city_kana": "サカイミナトシ",
    "town": "湊町",
    "town_kana": "ミナトマチ",
    "street": null,
    "office_name": null,
    "office_name_kana": null
  },
  "0032": {
    "postcode": "6840032",
    "prefecture": "鳥取県",
    "prefecture_kana": "トットリケン",
    "prefecture_code": 31,
    "city": "境港市",
    "city_kana": "サカイミナトシ",
    "town": "元町",
    "town_kana": "モトマチ",
    "street": null,
    "office_name": null,
    "office_name_kana": null
  },
  "0033": {
    "postcode": "6840033",
    "prefecture": "鳥取県",
    "prefecture_kana": "トットリケン",
    "prefecture_code": 31,
    "city": "境港市",
    "city_kana": "サカイミナトシ",
    "town": "上道町",
    "town_kana": "アガリミチチョウ",
    "street": null,
    "office_name": null,
    "office_name_kana": null
  },
  "0034": {
    "postcode": "6840034",
    "prefecture": "鳥取県",
    "prefecture_kana": "トットリケン",
    "prefecture_code": 31,
    "city": "境港市",
    "city_kana": "サカイミナトシ",
    "town": "昭和町",
    "town_kana": "ショウワマチ",
    "street": null,
    "office_name": null,
    "office_name_kana": null
  },
  "0041": {
    "postcode": "6840041",
    "prefecture": "鳥取県",
    "prefecture_kana": "トットリケン",
    "prefecture_code": 31,
    "city": "境港市",
    "city_kana": "サカイミナトシ",
    "town": "中野町",
    "town_kana": "ナカノチョウ",
    "street": null,
    "office_name": null,
    "office_name_kana": null
  },
  "0042": {
    "postcode": "6840042",
    "prefecture": "鳥取県",
    "prefecture_kana": "トットリケン",
    "prefecture_code": 31,
    "city": "境港市",
    "city_kana": "サカイミナトシ",
    "town": "福定町",
    "town_kana": "フクサダチョウ",
    "street": null,
    "office_name": null,
    "office_name_kana": null
  },
  "0043": {
    "postcode": "6840043",
    "prefecture": "鳥取県",
    "prefecture_kana": "トットリケン",
    "prefecture_code": 31,
    "city": "境港市",
    "city_kana": "サカイミナトシ",
    "town": "竹内町",
    "town_kana": "タケノウチチョウ",
    "street": null,
    "office_name": null,
    "office_name_kana": null
  },
  "0044": {
    "postcode": "6840044",
    "prefecture": "鳥取県",
    "prefecture_kana": "トットリケン",
    "prefecture_code": 31,
    "city": "境港市",
    "city_kana": "サカイミナトシ",
    "town": "美保町",
    "town_kana": "ミホチョウ",
    "street": null,
    "office_name": null,
    "office_name_kana": null
  },
  "0045": {
    "postcode": "6840045",
    "prefecture": "鳥取県",
    "prefecture_kana": "トットリケン",
    "prefecture_code": 31,
    "city": "境港市",
    "city_kana": "サカイミナトシ",
    "town": "高松町",
    "town_kana": "タカマツチョウ",
    "street": null,
    "office_name": null,
    "office_name_kana": null
  },
  "0046": {
    "postcode": "6840046",
    "prefecture": "鳥取県",
    "prefecture_kana": "トットリケン",
    "prefecture_code": 31,
    "city": "境港市",
    "city_kana": "サカイミナトシ",
    "town": "竹内団地",
    "town_kana": "タケノウチダンチ",
    "street": null,
    "office_name": null,
    "office_name_kana": null
  },
  "0051": {
    "postcode": "6840051",
    "prefecture": "鳥取県",
    "prefecture_kana": "トットリケン",
    "prefecture_code": 31,
    "city": "境港市",
    "city_kana": "サカイミナトシ",
    "town": "新屋町",
    "town_kana": "ニイヤチョウ",
    "street": null,
    "office_name": null,
    "office_name_kana": null
  },
  "0052": {
    "postcode": "6840052",
    "prefecture": "鳥取県",
    "prefecture_kana": "トットリケン",
    "prefecture_code": 31,
    "city": "境港市",
    "city_kana": "サカイミナトシ",
    "town": "麦垣町",
    "town_kana": "ムギカキチョウ",
    "street": null,
    "office_name": null,
    "office_name_kana": null
  },
  "0053": {
    "postcode": "6840053",
    "prefecture": "鳥取県",
    "prefecture_kana": "トットリケン",
    "prefecture_code": 31,
    "city": "境港市",
    "city_kana": "サカイミナトシ",
    "town": "小篠津町",
    "town_kana": "コシノヅチョウ",
    "street": null,
    "office_name": null,
    "office_name_kana": null
  },
  "0054": {
    "postcode": "6840054",
    "prefecture": "鳥取県",
    "prefecture_kana": "トットリケン",
    "prefecture_code": 31,
    "city": "境港市",
    "city_kana": "サカイミナトシ",
    "town": "財ノ木町",
    "town_kana": "サイノキチョウ",
    "street": null,
    "office_name": null,
    "office_name_kana": null
  },
  "0055": {
    "postcode": "6840055",
    "prefecture": "鳥取県",
    "prefecture_kana": "トットリケン",
    "prefecture_code": 31,
    "city": "境港市",
    "city_kana": "サカイミナトシ",
    "town": "佐斐神町",
    "town_kana": "サイノカミチョウ",
    "street": null,
    "office_name": null,
    "office_name_kana": null
  },
  "0056": {
    "postcode": "6840056",
    "prefecture": "鳥取県",
    "prefecture_kana": "トットリケン",
    "prefecture_code": 31,
    "city": "境港市",
    "city_kana": "サカイミナトシ",
    "town": "幸神町",
    "town_kana": "コウジンチョウ",
    "street": null,
    "office_name": null,
    "office_name_kana": null
  },
  "0061": {
    "postcode": "6840061",
    "prefecture": "鳥取県",
    "prefecture_kana": "トットリケン",
    "prefecture_code": 31,
    "city": "境港市",
    "city_kana": "サカイミナトシ",
    "town": "米川町",
    "town_kana": "ヨネガワチョウ",
    "street": null,
    "office_name": null,
    "office_name_kana": null
  },
  "0062": {
    "postcode": "6840062",
    "prefecture": "鳥取県",
    "prefecture_kana": "トットリケン",
    "prefecture_code": 31,
    "city": "境港市",
    "city_kana": "サカイミナトシ",
    "town": "蓮池町",
    "town_kana": "ハスイケチョウ",
    "street": null,
    "office_name": null,
    "office_name_kana": null
  },
  "0063": {
    "postcode": "6840063",
    "prefecture": "鳥取県",
    "prefecture_kana": "トットリケン",
    "prefecture_code": 31,
    "city": "境港市",
    "city_kana": "サカイミナトシ",
    "town": "誠道町",
    "town_kana": "セイドウチョウ",
    "street": null,
    "office_name": null,
    "office_name_kana": null
  },
  "0064": {
    "postcode": "6840064",
    "prefecture": "鳥取県",
    "prefecture_kana": "トットリケン",
    "prefecture_code": 31,
    "city": "境港市",
    "city_kana": "サカイミナトシ",
    "town": "三軒屋町",
    "town_kana": "サンゲンヤチョウ",
    "street": null,
    "office_name": null,
    "office_name_kana": null
  },
  "0065": {
    "postcode": "6840065",
    "prefecture": "鳥取県",
    "prefecture_kana": "トットリケン",
    "prefecture_code": 31,
    "city": "境港市",
    "city_kana": "サカイミナトシ",
    "town": "森岡町",
    "town_kana": "モリオカチョウ",
    "street": null,
    "office_name": null,
    "office_name_kana": null
  },
  "0066": {
    "postcode": "6840066",
    "prefecture": "鳥取県",
    "prefecture_kana": "トットリケン",
    "prefecture_code": 31,
    "city": "境港市",
    "city_kana": "サカイミナトシ",
    "town": "芝町",
    "town_kana": "シバチョウ",
    "street": null,
    "office_name": null,
    "office_name_kana": null
  },
  "0071": {
    "postcode": "6840071",
    "prefecture": "鳥取県",
    "prefecture_kana": "トットリケン",
    "prefecture_code": 31,
    "city": "境港市",
    "city_kana": "サカイミナトシ",
    "town": "外江町",
    "town_kana": "トノエチョウ",
    "street": null,
    "office_name": null,
    "office_name_kana": null
  },
  "0072": {
    "postcode": "6840072",
    "prefecture": "鳥取県",
    "prefecture_kana": "トットリケン",
    "prefecture_code": 31,
    "city": "境港市",
    "city_kana": "サカイミナトシ",
    "town": "渡町",
    "town_kana": "ワタリチョウ",
    "street": null,
    "office_name": null,
    "office_name_kana": null
  },
  "0073": {
    "postcode": "6840073",
    "prefecture": "鳥取県",
    "prefecture_kana": "トットリケン",
    "prefecture_code": 31,
    "city": "境港市",
    "city_kana": "サカイミナトシ",
    "town": "中海干拓地",
    "town_kana": "ナカウミカンタクチ",
    "street": null,
    "office_name": null,
    "office_name_kana": null
  },
  "0074": {
    "postcode": "6840074",
    "prefecture": "鳥取県",
    "prefecture_kana": "トットリケン",
    "prefecture_code": 31,
    "city": "境港市",
    "city_kana": "サカイミナトシ",
    "town": "潮見町",
    "town_kana": "シオミチョウ",
    "street": null,
    "office_name": null,
    "office_name_kana": null
  },
  "0075": {
    "postcode": "6840075",
    "prefecture": "鳥取県",
    "prefecture_kana": "トットリケン",
    "prefecture_code": 31,
    "city": "境港市",
    "city_kana": "サカイミナトシ",
    "town": "西工業団地",
    "town_kana": "ニシコウギョウダンチ",
    "street": null,
    "office_name": null,
    "office_name_kana": null
  },
  "0076": {
    "postcode": "6840076",
    "prefecture": "鳥取県",
    "prefecture_kana": "トットリケン",
    "prefecture_code": 31,
    "city": "境港市",
    "city_kana": "サカイミナトシ",
    "town": "夕日ケ丘",
    "town_kana": "ユウヒガオカ",
    "street": null,
    "office_name": null,
    "office_name_kana": null
  },
  "0100": {
    "postcode": "6840100",
    "prefecture": "島根県",
    "prefecture_kana": "シマネケン",
    "prefecture_code": 32,
    "city": "隠岐郡知夫村",
    "city_kana": "オキグンチブムラ",
    "town": "",
    "town_kana": "",
    "street": null,
    "office_name": null,
    "office_name_kana": null
  },
  "0101": {
    "postcode": "6840101",
    "prefecture": "島根県",
    "prefecture_kana": "シマネケン",
    "prefecture_code": 32,
    "city": "隠岐郡知夫村",
    "city_kana": "オキグンチブムラ",
    "town": "大江",
    "town_kana": "オオエ",
    "street": null,
    "office_name": null,
    "office_name_kana": null
  },
  "0102": {
    "postcode": "6840102",
    "prefecture": "島根県",
    "prefecture_kana": "シマネケン",
    "prefecture_code": 32,
    "city": "隠岐郡知夫村",
    "city_kana": "オキグンチブムラ",
    "town": "郡",
    "town_kana": "コオリ",
    "street": null,
    "office_name": null,
    "office_name_kana": null
  },
  "0103": {
    "postcode": "6840103",
    "prefecture": "島根県",
    "prefecture_kana": "シマネケン",
    "prefecture_code": 32,
    "city": "隠岐郡知夫村",
    "city_kana": "オキグンチブムラ",
    "town": "多沢",
    "town_kana": "タタク",
    "street": null,
    "office_name": null,
    "office_name_kana": null
  },
  "0104": {
    "postcode": "6840104",
    "prefecture": "島根県",
    "prefecture_kana": "シマネケン",
    "prefecture_code": 32,
    "city": "隠岐郡知夫村",
    "city_kana": "オキグンチブムラ",
    "town": "薄毛",
    "town_kana": "ウスゲ",
    "street": null,
    "office_name": null,
    "office_name_kana": null
  },
  "0105": {
    "postcode": "6840105",
    "prefecture": "島根県",
    "prefecture_kana": "シマネケン",
    "prefecture_code": 32,
    "city": "隠岐郡知夫村",
    "city_kana": "オキグンチブムラ",
    "town": "仁夫",
    "town_kana": "ニブ",
    "street": null,
    "office_name": null,
    "office_name_kana": null
  },
  "0106": {
    "postcode": "6840106",
    "prefecture": "島根県",
    "prefecture_kana": "シマネケン",
    "prefecture_code": 32,
    "city": "隠岐郡知夫村",
    "city_kana": "オキグンチブムラ",
    "town": "来居",
    "town_kana": "クリイ",
    "street": null,
    "office_name": null,
    "office_name_kana": null
  },
  "0107": {
    "postcode": "6840107",
    "prefecture": "島根県",
    "prefecture_kana": "シマネケン",
    "prefecture_code": 32,
    "city": "隠岐郡知夫村",
    "city_kana": "オキグンチブムラ",
    "town": "古海",
    "town_kana": "ウルミ",
    "street": null,
    "office_name": null,
    "office_name_kana": null
  },
  "0211": {
    "postcode": "6840211",
    "prefecture": "島根県",
    "prefecture_kana": "シマネケン",
    "prefecture_code": 32,
    "city": "隠岐郡西ノ島町",
    "city_kana": "オキグンニシノシマチョウ",
    "town": "浦郷",
    "town_kana": "ウラゴウ",
    "street": null,
    "office_name": null,
    "office_name_kana": null
  },
  "0300": {
    "postcode": "6840300",
    "prefecture": "島根県",
    "prefecture_kana": "シマネケン",
    "prefecture_code": 32,
    "city": "隠岐郡西ノ島町",
    "city_kana": "オキグンニシノシマチョウ",
    "town": "",
    "town_kana": "",
    "street": null,
    "office_name": null,
    "office_name_kana": null
  },
  "0301": {
    "postcode": "6840301",
    "prefecture": "島根県",
    "prefecture_kana": "シマネケン",
    "prefecture_code": 32,
    "city": "隠岐郡西ノ島町",
    "city_kana": "オキグンニシノシマチョウ",
    "town": "宇賀",
    "town_kana": "ウカ",
    "street": null,
    "office_name": null,
    "office_name_kana": null
  },
  "0302": {
    "postcode": "6840302",
    "prefecture": "島根県",
    "prefecture_kana": "シマネケン",
    "prefecture_code": 32,
    "city": "隠岐郡西ノ島町",
    "city_kana": "オキグンニシノシマチョウ",
    "town": "別府",
    "town_kana": "ベップ",
    "street": null,
    "office_name": null,
    "office_name_kana": null
  },
  "0303": {
    "postcode": "6840303",
    "prefecture": "島根県",
    "prefecture_kana": "シマネケン",
    "prefecture_code": 32,
    "city": "隠岐郡西ノ島町",
    "city_kana": "オキグンニシノシマチョウ",
    "town": "美田",
    "town_kana": "ミタ",
    "street": null,
    "office_name": null,
    "office_name_kana": null
  },
  "0400": {
    "postcode": "6840400",
    "prefecture": "島根県",
    "prefecture_kana": "シマネケン",
    "prefecture_code": 32,
    "city": "隠岐郡海士町",
    "city_kana": "オキグンアマチョウ",
    "town": "",
    "town_kana": "",
    "street": null,
    "office_name": null,
    "office_name_kana": null
  },
  "0401": {
    "postcode": "6840401",
    "prefecture": "島根県",
    "prefecture_kana": "シマネケン",
    "prefecture_code": 32,
    "city": "隠岐郡海士町",
    "city_kana": "オキグンアマチョウ",
    "town": "宇受賀",
    "town_kana": "ウズカ",
    "street": null,
    "office_name": null,
    "office_name_kana": null
  },
  "0402": {
    "postcode": "6840402",
    "prefecture": "島根県",
    "prefecture_kana": "シマネケン",
    "prefecture_code": 32,
    "city": "隠岐郡海士町",
    "city_kana": "オキグンアマチョウ",
    "town": "豊田",
    "town_kana": "トヨダ",
    "street": null,
    "office_name": null,
    "office_name_kana": null
  },
  "0403": {
    "postcode": "6840403",
    "prefecture": "島根県",
    "prefecture_kana": "シマネケン",
    "prefecture_code": 32,
    "city": "隠岐郡海士町",
    "city_kana": "オキグンアマチョウ",
    "town": "海士",
    "town_kana": "アマ",
    "street": null,
    "office_name": null,
    "office_name_kana": null
  },
  "0404": {
    "postcode": "6840404",
    "prefecture": "島根県",
    "prefecture_kana": "シマネケン",
    "prefecture_code": 32,
    "city": "隠岐郡海士町",
    "city_kana": "オキグンアマチョウ",
    "town": "福井",
    "town_kana": "フクイ",
    "street": null,
    "office_name": null,
    "office_name_kana": null
  },
  "0411": {
    "postcode": "6840411",
    "prefecture": "島根県",
    "prefecture_kana": "シマネケン",
    "prefecture_code": 32,
    "city": "隠岐郡海士町",
    "city_kana": "オキグンアマチョウ",
    "town": "知々井",
    "town_kana": "チチイ",
    "street": null,
    "office_name": null,
    "office_name_kana": null
  },
  "0412": {
    "postcode": "6840412",
    "prefecture": "島根県",
    "prefecture_kana": "シマネケン",
    "prefecture_code": 32,
    "city": "隠岐郡海士町",
    "city_kana": "オキグンアマチョウ",
    "town": "御波",
    "town_kana": "ミナミ",
    "street": null,
    "office_name": null,
    "office_name_kana": null
  },
  "0413": {
    "postcode": "6840413",
    "prefecture": "島根県",
    "prefecture_kana": "シマネケン",
    "prefecture_code": 32,
    "city": "隠岐郡海士町",
    "city_kana": "オキグンアマチョウ",
    "town": "崎",
    "town_kana": "サキ",
    "street": null,
    "office_name": null,
    "office_name_kana": null
  },
  "8501": {
    "postcode": "6848501",
    "prefecture": "鳥取県",
    "prefecture_kana": "トットリケン",
    "prefecture_code": 31,
    "city": "境港市",
    "city_kana": "サカイミナトシ",
    "town": "上道町",
    "town_kana": "アガリミチチョウ",
    "street": "３０００",
    "office_name": "鳥取県　境港市役所",
    "office_name_kana": "トツトリケン サカイミナトシヤクシヨ"
  },
  "8511": {
    "postcode": "6848511",
    "prefecture": "鳥取県",
    "prefecture_kana": "トットリケン",
    "prefecture_code": 31,
    "city": "境港市",
    "city_kana": "サカイミナトシ",
    "town": "小篠津町",
    "town_kana": "コシノヅチョウ",
    "street": "２２５８",
    "office_name": "航空自衛隊　美保基地",
    "office_name_kana": "コウクウジエイタイ ミホキチ"
  },
  "8555": {
    "postcode": "6848555",
    "prefecture": "鳥取県",
    "prefecture_kana": "トットリケン",
    "prefecture_code": 31,
    "city": "境港市",
    "city_kana": "サカイミナトシ",
    "town": "米川町",
    "town_kana": "ヨネガワチョウ",
    "street": "４４",
    "office_name": "鳥取県　済生会　境港総合病院",
    "office_name_kana": "トツトリケン サイセイカイ サカイミナトソウゴウビヨウイン"
  },
  "8585": {
    "postcode": "6848585",
    "prefecture": "鳥取県",
    "prefecture_kana": "トットリケン",
    "prefecture_code": 31,
    "city": "境港市",
    "city_kana": "サカイミナトシ",
    "town": "中野町",
    "town_kana": "ナカノチョウ",
    "street": "２０００",
    "office_name": "鳥取県立　境水産高等学校",
    "office_name_kana": "トツトリケンリツ サカイスイサンコウトウガツコウ"
  },
  "8601": {
    "postcode": "6848601",
    "prefecture": "鳥取県",
    "prefecture_kana": "トットリケン",
    "prefecture_code": 31,
    "city": "境港市",
    "city_kana": "サカイミナトシ",
    "town": "上道町",
    "town_kana": "アガリミチチョウ",
    "street": "３０３０",
    "office_name": "鳥取県立　境高等学校",
    "office_name_kana": "トツトリケンリツ サカイコウトウガツコウ"
  },
  "8686": {
    "postcode": "6848686",
    "prefecture": "鳥取県",
    "prefecture_kana": "トットリケン",
    "prefecture_code": 31,
    "city": "境港市",
    "city_kana": "サカイミナトシ",
    "town": "上道町",
    "town_kana": "アガリミチチョウ",
    "street": "３００２（境港郵便局私書箱第２５号）",
    "office_name": "境港商工会議所",
    "office_name_kana": "サカイミナトシヨウコウカイギシヨ"
  }
}