{
  "0000": {
    "postcode": "6850000",
    "prefecture": "島根県",
    "prefecture_kana": "シマネケン",
    "prefecture_code": 32,
    "city": "隠岐郡隠岐の島町",
    "city_kana": "オキグンオキノシマチョウ",
    "town": "",
    "town_kana": "",
    "street": null,
    "office_name": null,
    "office_name_kana": null
  },
  "0001": {
    "postcode": "6850001",
    "prefecture": "島根県",
    "prefecture_kana": "シマネケン",
    "prefecture_code": 32,
    "city": "隠岐郡隠岐の島町",
    "city_kana": "オキグンオキノシマチョウ",
    "town": "大久",
    "town_kana": "オオク",
    "street": null,
    "office_name": null,
    "office_name_kana": null
  },
  "0002": {
    "postcode": "6850002",
    "prefecture": "島根県",
    "prefecture_kana": "シマネケン",
    "prefecture_code": 32,
    "city": "隠岐郡隠岐の島町",
    "city_kana": "オキグンオキノシマチョウ",
    "town": "釜",
    "town_kana": "カマ",
    "street": null,
    "office_name": null,
    "office_name_kana": null
  },
  "0003": {
    "postcode": "6850003",
    "prefecture": "島根県",
    "prefecture_kana": "シマネケン",
    "prefecture_code": 32,
    "city": "隠岐郡隠岐の島町",
    "city_kana": "オキグンオキノシマチョウ",
    "town": "犬来",
    "town_kana": "イヌグ",
    "street": null,
    "office_name": null,
    "office_name_kana": null
  },
  "0004": {
    "postcode": "6850004",
    "prefecture": "島根県",
    "prefecture_kana": "シマネケン",
    "prefecture_code": 32,
    "city": "隠岐郡隠岐の島町",
    "city_kana": "オキグンオキノシマチョウ",
    "town": "飯田",
    "town_kana": "イイダ",
    "street": null,
    "office_name": null,
    "office_name_kana": null
  },
  "0005": {
    "postcode": "6850005",
    "prefecture": "島根県",
    "prefecture_kana": "シマネケン",
    "prefecture_code": 32,
    "city": "隠岐郡隠岐の島町",
    "city_kana": "オキグンオキノシマチョウ",
    "town": "東郷",
    "town_kana": "トウゴウ",
    "street": null,
    "office_name": null,
    "office_name_kana": null
  },
  "0006": {
    "postcode": "6850006",
    "prefecture": "島根県",
    "prefecture_kana": "シマネケン",
    "prefecture_code": 32,
    "city": "隠岐郡隠岐の島町",
    "city_kana": "オキグンオキノシマチョウ",
    "town": "有木",
    "town_kana": "アラキ",
    "street": null,
    "office_name": null,
    "office_name_kana": null
  },
  "0007": {
    "postcode": "6850007",
    "prefecture": "島根県",
    "prefecture_kana": "シマネケン",
    "prefecture_code": 32,
    "city": "隠岐郡隠岐の島町",
    "city_kana": "オキグンオキノシマチョウ",
    "town": "池田",
    "town_kana": "イケダ",
    "street": null,
    "office_name": null,
    "office_name_kana": null
  },
  "0011": {
    "postcode": "6850011",
    "prefecture": "島根県",
    "prefecture_kana": "シマネケン",
    "prefecture_code": 32,
    "city": "隠岐郡隠岐の島町",
    "city_kana": "オキグンオキノシマチョウ",
    "town": "栄町",
    "town_kana": "サカエマチ",
    "street": null,
    "office_name": null,
    "office_name_kana": null
  },
  "0012": {
    "postcode": "6850012",
    "prefecture": "島根県",
    "prefecture_kana": "シマネケン",
    "prefecture_code": 32,
    "city": "隠岐郡隠岐の島町",
    "city_kana": "オキグンオキノシマチョウ",
    "town": "東町",
    "town_kana": "ヒガシマチ",
    "street": null,
    "office_name": null,
    "office_name_kana": null
  },
  "0013": {
    "postcode": "6850013",
    "prefecture": "島根県",
    "prefecture_kana": "シマネケン",
    "prefecture_code": 32,
    "city": "隠岐郡隠岐の島町",
    "city_kana": "オキグンオキノシマチョウ",
    "town": "中町",
    "town_kana": "ナカマチ",
    "street": null,
    "office_name": null,
    "office_name_kana": null
  },
  "0014": {
    "postcode": "6850014",
    "prefecture": "島根県",
    "prefecture_kana": "シマネケン",
    "prefecture_code": 32,
    "city": "隠岐郡隠岐の島町",
    "city_kana": "オキグンオキノシマチョウ",
    "town": "西町",
    "town_kana": "ニシマチ",
    "street": null,
    "office_name": null,
    "office_name_kana": null
  },
  "0015": {
    "postcode": "6850015",
    "prefecture": "島根県",
    "prefecture_kana": "シマネケン",
    "prefecture_code": 32,
    "city": "隠岐郡隠岐の島町",
    "city_kana": "オキグンオキノシマチョウ",
    "town": "港町",
    "town_kana": "ミナトマチ",
    "street": null,
    "office_name": null,
    "office_name_kana": null
  },
  "0016": {
    "postcode": "6850016",
    "prefecture": "島根県",
    "prefecture_kana": "シマネケン",
    "prefecture_code": 32,
    "city": "隠岐郡隠岐の島町",
    "city_kana": "オキグンオキノシマチョウ",
    "town": "城北町",
    "town_kana": "ジョウホクマチ",
    "street": null,
    "office_name": null,
    "office_name_kana": null
  },
  "0017": {
    "postcode": "6850017",
    "prefecture": "島根県",
    "prefecture_kana": "シマネケン",
    "prefecture_code": 32,
    "city": "隠岐郡隠岐の島町",
    "city_kana": "オキグンオキノシマチョウ",
    "town": "下西",
    "town_kana": "シモニシ",
    "street": null,
    "office_name": null,
    "office_name_kana": null
  },
  "0021": {
    "postcode": "6850021",
    "prefecture": "島根県",
    "prefecture_kana": "シマネケン",
    "prefecture_code": 32,
    "city": "隠岐郡隠岐の島町",
    "city_kana": "オキグンオキノシマチョウ",
    "town": "岬町",
    "town_kana": "ミサキマチ",
    "street": null,
    "office_name": null,
    "office_name_kana": null
  },
  "0022": {
    "postcode": "6850022",
    "prefecture": "島根県",
    "prefecture_kana": "シマネケン",
    "prefecture_code": 32,
    "city": "隠岐郡隠岐の島町",
    "city_kana": "オキグンオキノシマチョウ",
    "town": "今津",
    "town_kana": "イマヅ",
    "street": null,
    "office_name": null,
    "office_name_kana": null
  },
  "0023": {
    "postcode": "6850023",
    "prefecture": "島根県",
    "prefecture_kana": "シマネケン",
    "prefecture_code": 32,
    "city": "隠岐郡隠岐の島町",
    "city_kana": "オキグンオキノシマチョウ",
    "town": "西田",
    "town_kana": "ニシダ",
    "street": null,
    "office_name": null,
    "office_name_kana": null
  },
  "0024": {
    "postcode": "6850024",
    "prefecture": "島根県",
    "prefecture_kana": "シマネケン",
    "prefecture_code": 32,
    "city": "隠岐郡隠岐の島町",
    "city_kana": "オキグンオキノシマチョウ",
    "town": "加茂",
    "town_kana": "カモ",
    "street": null,
    "office_name": null,
    "office_name_kana": null
  },
  "0025": {
    "postcode": "6850025",
    "prefecture": "島根県",
    "prefecture_kana": "シマネケン",
    "prefecture_code": 32,
    "city": "隠岐郡隠岐の島町",
    "city_kana": "オキグンオキノシマチョウ",
    "town": "平",
    "town_kana": "ヘイ",
    "street": null,
    "office_name": null,
    "office_name_kana": null
  },
  "0026": {
    "postcode": "6850026",
    "prefecture": "島根県",
    "prefecture_kana": "シマネケン",
    "prefecture_code": 32,
    "city": "隠岐郡隠岐の島町",
    "city_kana": "オキグンオキノシマチョウ",
    "town": "上西",
    "town_kana": "カミニシ",
    "street": null,
    "office_name": null,
    "office_name_kana": null
  },
  "0027": {
    "postcode": "6850027",
    "prefecture": "島根県",
    "prefecture_kana": "シマネケン",
    "prefecture_code": 32,
    "city": "隠岐郡隠岐の島町",
    "city_kana": "オキグンオキノシマチョウ",
    "town": "原田",
    "town_kana": "ハラダ",
    "street": null,
    "office_name": null,
    "office_name_kana": null
  },
  "0101": {
    "postcode": "6850101",
    "prefecture": "島根県",
    "prefecture_kana": "シマネケン",
    "prefecture_code": 32,
    "city": "隠岐郡隠岐の島町",
    "city_kana": "オキグンオキノシマチョウ",
    "town": "蔵田",
    "town_kana": "クラタ",
    "street": null,
    "office_name": null,
    "office_name_kana": null
  },
  "0102": {
    "postcode": "6850102",
    "prefecture": "島根県",
    "prefecture_kana": "シマネケン",
    "prefecture_code": 32,
    "city": "隠岐郡隠岐の島町",
    "city_kana": "オキグンオキノシマチョウ",
    "town": "油井",
    "town_kana": "ユイ",
    "street": null,
    "office_name": null,
    "office_name_kana": null
  },
  "0103": {
    "postcode": "6850103",
    "prefecture": "島根県",
    "prefecture_kana": "シマネケン",
    "prefecture_code": 32,
    "city": "隠岐郡隠岐の島町",
    "city_kana": "オキグンオキノシマチョウ",
    "town": "那久",
    "town_kana": "ナグ",
    "street": null,
    "office_name": null,
    "office_name_kana": null
  },
  "0104": {
    "postcode": "6850104",
    "prefecture": "島根県",
    "prefecture_kana": "シマネケン",
    "prefecture_code": 32,
    "city": "隠岐郡隠岐の島町",
    "city_kana": "オキグンオキノシマチョウ",
    "town": "都万",
    "town_kana": "ツマ",
    "street": null,
    "office_name": null,
    "office_name_kana": null
  },
  "0105": {
    "postcode": "6850105",
    "prefecture": "島根県",
    "prefecture_kana": "シマネケン",
    "prefecture_code": 32,
    "city": "隠岐郡隠岐の島町",
    "city_kana": "オキグンオキノシマチョウ",
    "town": "津戸",
    "town_kana": "ツド",
    "street": null,
    "office_name": null,
    "office_name_kana": null
  },
  "0106": {
    "postcode": "6850106",
    "prefecture": "島根県",
    "prefecture_kana": "シマネケン",
    "prefecture_code": 32,
    "city": "隠岐郡隠岐の島町",
    "city_kana": "オキグンオキノシマチョウ",
    "town": "蛸木",
    "town_kana": "タクギ",
    "street": null,
    "office_name": null,
    "office_name_kana": null
  },
  "0301": {
    "postcode": "6850301",
    "prefecture": "島根県",
    "prefecture_kana": "シマネケン",
    "prefecture_code": 32,
    "city": "隠岐郡隠岐の島町",
    "city_kana": "オキグンオキノシマチョウ",
    "town": "北方",
    "town_kana": "キタガタ",
    "street": null,
    "office_name": null,
    "office_name_kana": null
  },
  "0302": {
    "postcode": "6850302",
    "prefecture": "島根県",
    "prefecture_kana": "シマネケン",
    "prefecture_code": 32,
    "city": "隠岐郡隠岐の島町",
    "city_kana": "オキグンオキノシマチョウ",
    "town": "苗代田",
    "town_kana": "ナワシロダ",
    "street": null,
    "office_name": null,
    "office_name_kana": null
  },
  "0303": {
    "postcode": "6850303",
    "prefecture": "島根県",
    "prefecture_kana": "シマネケン",
    "prefecture_code": 32,
    "city": "隠岐郡隠岐の島町",
    "city_kana": "オキグンオキノシマチョウ",
    "town": "南方",
    "town_kana": "ミナミガタ",
    "street": null,
    "office_name": null,
    "office_name_kana": null
  },
  "0304": {
    "postcode": "6850304",
    "prefecture": "島根県",
    "prefecture_kana": "シマネケン",
    "prefecture_code": 32,
    "city": "隠岐郡隠岐の島町",
    "city_kana": "オキグンオキノシマチョウ",
    "town": "代",
    "town_kana": "シロ",
    "street": null,
    "office_name": null,
    "office_name_kana": null
  },
  "0305": {
    "postcode": "6850305",
    "prefecture": "島根県",
    "prefecture_kana": "シマネケン",
    "prefecture_code": 32,
    "city": "隠岐郡隠岐の島町",
    "city_kana": "オキグンオキノシマチョウ",
    "town": "久見",
    "town_kana": "クミ",
    "street": null,
    "office_name": null,
    "office_name_kana": null
  },
  "0306": [
    {
      "postcode": "6850306",
      "prefecture": "島根県",
      "prefecture_kana": "シマネケン",
      "prefecture_code": 32,
      "city": "隠岐郡隠岐の島町",
      "city_kana": "オキグンオキノシマチョウ",
      "town": "伊後",
      "town_kana": "イゴ",
      "street": null,
      "office_name": null,
      "office_name_kana": null
    },
    {
      "postcode": "6850306",
      "prefecture": "島根県",
      "prefecture_kana": "シマネケン",
      "prefecture_code": 32,
      "city": "隠岐郡隠岐の島町",
      "city_kana": "オキグンオキノシマチョウ",
      "town": "伊後向ケ丘",
      "town_kana": "イゴムコウガオカ",
      "street": null,
      "office_name": null,
      "office_name_kana": null
    }
  ],
  "0311": {
    "postcode": "6850311",
    "prefecture": "島根県",
    "prefecture_kana": "シマネケン",
    "prefecture_code": 32,
    "city": "隠岐郡隠岐の島町",
    "city_kana": "オキグンオキノシマチョウ",
    "town": "郡",
    "town_kana": "コオリ",
    "street": null,
    "office_name": null,
    "office_name_kana": null
  },
  "0312": {
    "postcode": "6850312",
    "prefecture": "島根県",
    "prefecture_kana": "シマネケン",
    "prefecture_code": 32,
    "city": "隠岐郡隠岐の島町",
    "city_kana": "オキグンオキノシマチョウ",
    "town": "小路",
    "town_kana": "コウジ",
    "street": null,
    "office_name": null,
    "office_name_kana": null
  },
  "0313": {
    "postcode": "6850313",
    "prefecture": "島根県",
    "prefecture_kana": "シマネケン",
    "prefecture_code": 32,
    "city": "隠岐郡隠岐の島町",
    "city_kana": "オキグンオキノシマチョウ",
    "town": "那久路",
    "town_kana": "ナグチ",
    "street": null,
    "office_name": null,
    "office_name_kana": null
  },
  "0314": {
    "postcode": "6850314",
    "prefecture": "島根県",
    "prefecture_kana": "シマネケン",
    "prefecture_code": 32,
    "city": "隠岐郡隠岐の島町",
    "city_kana": "オキグンオキノシマチョウ",
    "town": "山田",
    "town_kana": "ヤマダ",
    "street": null,
    "office_name": null,
    "office_name_kana": null
  },
  "0411": {
    "postcode": "6850411",
    "prefecture": "島根県",
    "prefecture_kana": "シマネケン",
    "prefecture_code": 32,
    "city": "隠岐郡隠岐の島町",
    "city_kana": "オキグンオキノシマチョウ",
    "town": "飯美",
    "town_kana": "イイビ",
    "street": null,
    "office_name": null,
    "office_name_kana": null
  },
  "0412": {
    "postcode": "6850412",
    "prefecture": "島根県",
    "prefecture_kana": "シマネケン",
    "prefecture_code": 32,
    "city": "隠岐郡隠岐の島町",
    "city_kana": "オキグンオキノシマチョウ",
    "town": "布施",
    "town_kana": "フセ",
    "street": null,
    "office_name": null,
    "office_name_kana": null
  },
  "0413": {
    "postcode": "6850413",
    "prefecture": "島根県",
    "prefecture_kana": "シマネケン",
    "prefecture_code": 32,
    "city": "隠岐郡隠岐の島町",
    "city_kana": "オキグンオキノシマチョウ",
    "town": "卯敷",
    "town_kana": "ウズキ",
    "street": null,
    "office_name": null,
    "office_name_kana": null
  },
  "0431": {
    "postcode": "6850431",
    "prefecture": "島根県",
    "prefecture_kana": "シマネケン",
    "prefecture_code": 32,
    "city": "隠岐郡隠岐の島町",
    "city_kana": "オキグンオキノシマチョウ",
    "town": "伊後",
    "town_kana": "イゴ",
    "street": null,
    "office_name": null,
    "office_name_kana": null
  },
  "0432": {
    "postcode": "6850432",
    "prefecture": "島根県",
    "prefecture_kana": "シマネケン",
    "prefecture_code": 32,
    "city": "隠岐郡隠岐の島町",
    "city_kana": "オキグンオキノシマチョウ",
    "town": "西村",
    "town_kana": "ニシムラ",
    "street": null,
    "office_name": null,
    "office_name_kana": null
  },
  "0433": {
    "postcode": "6850433",
    "prefecture": "島根県",
    "prefecture_kana": "シマネケン",
    "prefecture_code": 32,
    "city": "隠岐郡隠岐の島町",
    "city_kana": "オキグンオキノシマチョウ",
    "town": "湊",
    "town_kana": "ミナト",
    "street": null,
    "office_name": null,
    "office_name_kana": null
  },
  "0434": {
    "postcode": "6850434",
    "prefecture": "島根県",
    "prefecture_kana": "シマネケン",
    "prefecture_code": 32,
    "city": "隠岐郡隠岐の島町",
    "city_kana": "オキグンオキノシマチョウ",
    "town": "中村",
    "town_kana": "ナカムラ",
    "street": null,
    "office_name": null,
    "office_name_kana": null
  },
  "0435": {
    "postcode": "6850435",
    "prefecture": "島根県",
    "prefecture_kana": "シマネケン",
    "prefecture_code": 32,
    "city": "隠岐郡隠岐の島町",
    "city_kana": "オキグンオキノシマチョウ",
    "town": "元屋",
    "town_kana": "ガンヤ",
    "street": null,
    "office_name": null,
    "office_name_kana": null
  },
  "8512": {
    "postcode": "6858512",
    "prefecture": "島根県",
    "prefecture_kana": "シマネケン",
    "prefecture_code": 32,
    "city": "隠岐郡隠岐の島町",
    "city_kana": "オキグンオキノシマチョウ",
    "town": "有木",
    "town_kana": "アラキ",
    "street": "尼寺原１",
    "office_name": "島根県立　隠岐高等学校",
    "office_name_kana": "シマネケンリツ オキコウトウガツコウ"
  },
  "8555": {
    "postcode": "6858555",
    "prefecture": "島根県",
    "prefecture_kana": "シマネケン",
    "prefecture_code": 32,
    "city": "隠岐郡隠岐の島町",
    "city_kana": "オキグンオキノシマチョウ",
    "town": "東郷",
    "town_kana": "トウゴウ",
    "street": "",
    "office_name": "隠岐水産高等学校",
    "office_name_kana": "オキスイサンコウトウガツコウ"
  },
  "8585": {
    "postcode": "6858585",
    "prefecture": "島根県",
    "prefecture_kana": "シマネケン",
    "prefecture_code": 32,
    "city": "隠岐郡隠岐の島町",
    "city_kana": "オキグンオキノシマチョウ",
    "town": "下西",
    "town_kana": "シモニシ",
    "street": "７８番地２",
    "office_name": "隠岐の島町役場",
    "office_name_kana": "オキノシマチヨウヤクバ"
  },
  "8601": {
    "postcode": "6858601",
    "prefecture": "島根県",
    "prefecture_kana": "シマネケン",
    "prefecture_code": 32,
    "city": "隠岐郡隠岐の島町",
    "city_kana": "オキグンオキノシマチョウ",
    "town": "港町",
    "town_kana": "ミナトマチ",
    "street": "２４（西郷郵便局私書箱第３０号）",
    "office_name": "隠岐支庁",
    "office_name_kana": "オキシチヨウ"
  },
  "8666": {
    "postcode": "6858666",
    "prefecture": "島根県",
    "prefecture_kana": "シマネケン",
    "prefecture_code": 32,
    "city": "隠岐郡隠岐の島町",
    "city_kana": "オキグンオキノシマチョウ",
    "town": "城北町",
    "town_kana": "ジョウホクマチ",
    "street": "５５（西郷郵便局私書箱第９号）",
    "office_name": "西郷税務署",
    "office_name_kana": "サイゴウゼイムシヨ"
  }
}