{
  "0000": {
    "postcode": "6930000",
    "prefecture": "島根県",
    "prefecture_kana": "シマネケン",
    "prefecture_code": 32,
    "city": "出雲市",
    "city_kana": "イズモシ",
    "town": "",
    "town_kana": "",
    "street": null,
    "office_name": null,
    "office_name_kana": null
  },
  "0001": {
    "postcode": "6930001",
    "prefecture": "島根県",
    "prefecture_kana": "シマネケン",
    "prefecture_code": 32,
    "city": "出雲市",
    "city_kana": "イズモシ",
    "town": "今市町",
    "town_kana": "イマイチチョウ",
    "street": null,
    "office_name": null,
    "office_name_kana": null
  },
  "0002": {
    "postcode": "6930002",
    "prefecture": "島根県",
    "prefecture_kana": "シマネケン",
    "prefecture_code": 32,
    "city": "出雲市",
    "city_kana": "イズモシ",
    "town": "今市町北本町",
    "town_kana": "イマイチチョウキタホンマチ",
    "street": null,
    "office_name": null,
    "office_name_kana": null
  },
  "0003": {
    "postcode": "6930003",
    "prefecture": "島根県",
    "prefecture_kana": "シマネケン",
    "prefecture_code": 32,
    "city": "出雲市",
    "city_kana": "イズモシ",
    "town": "今市町南本町",
    "town_kana": "イマイチチョウミナミホンマチ",
    "street": null,
    "office_name": null,
    "office_name_kana": null
  },
  "0004": {
    "postcode": "6930004",
    "prefecture": "島根県",
    "prefecture_kana": "シマネケン",
    "prefecture_code": 32,
    "city": "出雲市",
    "city_kana": "イズモシ",
    "town": "渡橋町",
    "town_kana": "ワタリハシチョウ",
    "street": null,
    "office_name": null,
    "office_name_kana": null
  },
  "0005": {
    "postcode": "6930005",
    "prefecture": "島根県",
    "prefecture_kana": "シマネケン",
    "prefecture_code": 32,
    "city": "出雲市",
    "city_kana": "イズモシ",
    "town": "天神町",
    "town_kana": "テンジンチョウ",
    "street": null,
    "office_name": null,
    "office_name_kana": null
  },
  "0006": {
    "postcode": "6930006",
    "prefecture": "島根県",
    "prefecture_kana": "シマネケン",
    "prefecture_code": 32,
    "city": "出雲市",
    "city_kana": "イズモシ",
    "town": "白枝町",
    "town_kana": "シロエダチョウ",
    "street": null,
    "office_name": null,
    "office_name_kana": null
  },
  "0007": {
    "postcode": "6930007",
    "prefecture": "島根県",
    "prefecture_kana": "シマネケン",
    "prefecture_code": 32,
    "city": "出雲市",
    "city_kana": "イズモシ",
    "town": "駅北町",
    "town_kana": "エキキタマチ",
    "street": null,
    "office_name": null,
    "office_name_kana": null
  },
  "0008": {
    "postcode": "6930008",
    "prefecture": "島根県",
    "prefecture_kana": "シマネケン",
    "prefecture_code": 32,
    "city": "出雲市",
    "city_kana": "イズモシ",
    "town": "駅南町",
    "town_kana": "エキミナミマチ",
    "street": null,
    "office_name": null,
    "office_name_kana": null
  },
  "0011": {
    "postcode": "6930011",
    "prefecture": "島根県",
    "prefecture_kana": "シマネケン",
    "prefecture_code": 32,
    "city": "出雲市",
    "city_kana": "イズモシ",
    "town": "大津町",
    "town_kana": "オオツチョウ",
    "street": null,
    "office_name": null,
    "office_name_kana": null
  },
  "0012": {
    "postcode": "6930012",
    "prefecture": "島根県",
    "prefecture_kana": "シマネケン",
    "prefecture_code": 32,
    "city": "出雲市",
    "city_kana": "イズモシ",
    "town": "大津新崎町",
    "town_kana": "オオツシンザキチョウ",
    "street": null,
    "office_name": null,
    "office_name_kana": null
  },
  "0013": {
    "postcode": "6930013",
    "prefecture": "島根県",
    "prefecture_kana": "シマネケン",
    "prefecture_code": 32,
    "city": "出雲市",
    "city_kana": "イズモシ",
    "town": "荻杼町",
    "town_kana": "オギトチチョウ",
    "street": null,
    "office_name": null,
    "office_name_kana": null
  },
  "0014": {
    "postcode": "6930014",
    "prefecture": "島根県",
    "prefecture_kana": "シマネケン",
    "prefecture_code": 32,
    "city": "出雲市",
    "city_kana": "イズモシ",
    "town": "武志町",
    "town_kana": "タケシチョウ",
    "street": null,
    "office_name": null,
    "office_name_kana": null
  },
  "0015": {
    "postcode": "6930015",
    "prefecture": "島根県",
    "prefecture_kana": "シマネケン",
    "prefecture_code": 32,
    "city": "出雲市",
    "city_kana": "イズモシ",
    "town": "大津朝倉",
    "town_kana": "オオツアサクラ",
    "street": null,
    "office_name": null,
    "office_name_kana": null
  },
  "0017": {
    "postcode": "6930017",
    "prefecture": "島根県",
    "prefecture_kana": "シマネケン",
    "prefecture_code": 32,
    "city": "出雲市",
    "city_kana": "イズモシ",
    "town": "枝大津町",
    "town_kana": "エダオオツチョウ",
    "street": null,
    "office_name": null,
    "office_name_kana": null
  },
  "0021": {
    "postcode": "6930021",
    "prefecture": "島根県",
    "prefecture_kana": "シマネケン",
    "prefecture_code": 32,
    "city": "出雲市",
    "city_kana": "イズモシ",
    "town": "塩冶町",
    "town_kana": "エンヤチョウ",
    "street": null,
    "office_name": null,
    "office_name_kana": null
  },
  "0022": {
    "postcode": "6930022",
    "prefecture": "島根県",
    "prefecture_kana": "シマネケン",
    "prefecture_code": 32,
    "city": "出雲市",
    "city_kana": "イズモシ",
    "town": "上塩冶町",
    "town_kana": "カミエンヤチョウ",
    "street": null,
    "office_name": null,
    "office_name_kana": null
  },
  "0023": {
    "postcode": "6930023",
    "prefecture": "島根県",
    "prefecture_kana": "シマネケン",
    "prefecture_code": 32,
    "city": "出雲市",
    "city_kana": "イズモシ",
    "town": "塩冶有原町",
    "town_kana": "エンヤアリハラチョウ",
    "street": null,
    "office_name": null,
    "office_name_kana": null
  },
  "0024": {
    "postcode": "6930024",
    "prefecture": "島根県",
    "prefecture_kana": "シマネケン",
    "prefecture_code": 32,
    "city": "出雲市",
    "city_kana": "イズモシ",
    "town": "塩冶神前",
    "town_kana": "エンヤカンマエ",
    "street": null,
    "office_name": null,
    "office_name_kana": null
  },
  "0025": {
    "postcode": "6930025",
    "prefecture": "島根県",
    "prefecture_kana": "シマネケン",
    "prefecture_code": 32,
    "city": "出雲市",
    "city_kana": "イズモシ",
    "town": "塩冶町南町",
    "town_kana": "エンヤチョウミナミマチ",
    "street": null,
    "office_name": null,
    "office_name_kana": null
  },
  "0026": {
    "postcode": "6930026",
    "prefecture": "島根県",
    "prefecture_kana": "シマネケン",
    "prefecture_code": 32,
    "city": "出雲市",
    "city_kana": "イズモシ",
    "town": "塩冶原町",
    "town_kana": "エンヤハラマチ",
    "street": null,
    "office_name": null,
    "office_name_kana": null
  },
  "0027": {
    "postcode": "6930027",
    "prefecture": "島根県",
    "prefecture_kana": "シマネケン",
    "prefecture_code": 32,
    "city": "出雲市",
    "city_kana": "イズモシ",
    "town": "医大南町",
    "town_kana": "イダイミナミマチ",
    "street": null,
    "office_name": null,
    "office_name_kana": null
  },
  "0028": {
    "postcode": "6930028",
    "prefecture": "島根県",
    "prefecture_kana": "シマネケン",
    "prefecture_code": 32,
    "city": "出雲市",
    "city_kana": "イズモシ",
    "town": "塩冶善行町",
    "town_kana": "エンヤゼンコウチョウ",
    "street": null,
    "office_name": null,
    "office_name_kana": null
  },
  "0029": {
    "postcode": "6930029",
    "prefecture": "島根県",
    "prefecture_kana": "シマネケン",
    "prefecture_code": 32,
    "city": "出雲市",
    "city_kana": "イズモシ",
    "town": "築山新町",
    "town_kana": "ツキヤマシンマチ",
    "street": null,
    "office_name": null,
    "office_name_kana": null
  },
  "0031": {
    "postcode": "6930031",
    "prefecture": "島根県",
    "prefecture_kana": "シマネケン",
    "prefecture_code": 32,
    "city": "出雲市",
    "city_kana": "イズモシ",
    "town": "古志町",
    "town_kana": "コシチョウ",
    "street": null,
    "office_name": null,
    "office_name_kana": null
  },
  "0032": {
    "postcode": "6930032",
    "prefecture": "島根県",
    "prefecture_kana": "シマネケン",
    "prefecture_code": 32,
    "city": "出雲市",
    "city_kana": "イズモシ",
    "town": "下古志町",
    "town_kana": "シモコシチョウ",
    "street": null,
    "office_name": null,
    "office_name_kana": null
  },
  "0033": {
    "postcode": "6930033",
    "prefecture": "島根県",
    "prefecture_kana": "シマネケン",
    "prefecture_code": 32,
    "city": "出雲市",
    "city_kana": "イズモシ",
    "town": "知井宮町",
    "town_kana": "チイミヤチョウ",
    "street": null,
    "office_name": null,
    "office_name_kana": null
  },
  "0034": {
    "postcode": "6930034",
    "prefecture": "島根県",
    "prefecture_kana": "シマネケン",
    "prefecture_code": 32,
    "city": "出雲市",
    "city_kana": "イズモシ",
    "town": "神門町",
    "town_kana": "カンドチョウ",
    "street": null,
    "office_name": null,
    "office_name_kana": null
  },
  "0035": {
    "postcode": "6930035",
    "prefecture": "島根県",
    "prefecture_kana": "シマネケン",
    "prefecture_code": 32,
    "city": "出雲市",
    "city_kana": "イズモシ",
    "town": "芦渡町",
    "town_kana": "アシワタチョウ",
    "street": null,
    "office_name": null,
    "office_name_kana": null
  },
  "0036": {
    "postcode": "6930036",
    "prefecture": "島根県",
    "prefecture_kana": "シマネケン",
    "prefecture_code": 32,
    "city": "出雲市",
    "city_kana": "イズモシ",
    "town": "平成町",
    "town_kana": "ヘイセイチョウ",
    "street": null,
    "office_name": null,
    "office_name_kana": null
  },
  "0037": {
    "postcode": "6930037",
    "prefecture": "島根県",
    "prefecture_kana": "シマネケン",
    "prefecture_code": 32,
    "city": "出雲市",
    "city_kana": "イズモシ",
    "town": "西新町",
    "town_kana": "ニシシンマチ",
    "street": null,
    "office_name": null,
    "office_name_kana": null
  },
  "0041": {
    "postcode": "6930041",
    "prefecture": "島根県",
    "prefecture_kana": "シマネケン",
    "prefecture_code": 32,
    "city": "出雲市",
    "city_kana": "イズモシ",
    "town": "西園町",
    "town_kana": "ニシゾノチョウ",
    "street": null,
    "office_name": null,
    "office_name_kana": null
  },
  "0042": {
    "postcode": "6930042",
    "prefecture": "島根県",
    "prefecture_kana": "シマネケン",
    "prefecture_code": 32,
    "city": "出雲市",
    "city_kana": "イズモシ",
    "town": "外園町",
    "town_kana": "ソトゾノチョウ",
    "street": null,
    "office_name": null,
    "office_name_kana": null
  },
  "0043": {
    "postcode": "6930043",
    "prefecture": "島根県",
    "prefecture_kana": "シマネケン",
    "prefecture_code": 32,
    "city": "出雲市",
    "city_kana": "イズモシ",
    "town": "長浜町",
    "town_kana": "ナガハマチョウ",
    "street": null,
    "office_name": null,
    "office_name_kana": null
  },
  "0044": {
    "postcode": "6930044",
    "prefecture": "島根県",
    "prefecture_kana": "シマネケン",
    "prefecture_code": 32,
    "city": "出雲市",
    "city_kana": "イズモシ",
    "town": "荒茅町",
    "town_kana": "アラカヤチョウ",
    "street": null,
    "office_name": null,
    "office_name_kana": null
  },
  "0045": {
    "postcode": "6930045",
    "prefecture": "島根県",
    "prefecture_kana": "シマネケン",
    "prefecture_code": 32,
    "city": "出雲市",
    "city_kana": "イズモシ",
    "town": "東園町",
    "town_kana": "ヒガシゾノチョウ",
    "street": null,
    "office_name": null,
    "office_name_kana": null
  },
  "0046": {
    "postcode": "6930046",
    "prefecture": "島根県",
    "prefecture_kana": "シマネケン",
    "prefecture_code": 32,
    "city": "出雲市",
    "city_kana": "イズモシ",
    "town": "下横町",
    "town_kana": "シモヨコチョウ",
    "street": null,
    "office_name": null,
    "office_name_kana": null
  },
  "0051": {
    "postcode": "6930051",
    "prefecture": "島根県",
    "prefecture_kana": "シマネケン",
    "prefecture_code": 32,
    "city": "出雲市",
    "city_kana": "イズモシ",
    "town": "小山町",
    "town_kana": "オヤマチョウ",
    "street": null,
    "office_name": null,
    "office_name_kana": null
  },
  "0052": {
    "postcode": "6930052",
    "prefecture": "島根県",
    "prefecture_kana": "シマネケン",
    "prefecture_code": 32,
    "city": "出雲市",
    "city_kana": "イズモシ",
    "town": "松寄下町",
    "town_kana": "マツヨリシモチョウ",
    "street": null,
    "office_name": null,
    "office_name_kana": null
  },
  "0053": {
    "postcode": "6930053",
    "prefecture": "島根県",
    "prefecture_kana": "シマネケン",
    "prefecture_code": 32,
    "city": "出雲市",
    "city_kana": "イズモシ",
    "town": "高松町",
    "town_kana": "タカマツチョウ",
    "street": null,
    "office_name": null,
    "office_name_kana": null
  },
  "0054": {
    "postcode": "6930054",
    "prefecture": "島根県",
    "prefecture_kana": "シマネケン",
    "prefecture_code": 32,
    "city": "出雲市",
    "city_kana": "イズモシ",
    "town": "浜町",
    "town_kana": "ハマチョウ",
    "street": null,
    "office_name": null,
    "office_name_kana": null
  },
  "0055": {
    "postcode": "6930055",
    "prefecture": "島根県",
    "prefecture_kana": "シマネケン",
    "prefecture_code": 32,
    "city": "出雲市",
    "city_kana": "イズモシ",
    "town": "八島町",
    "town_kana": "ヤシマチョウ",
    "street": null,
    "office_name": null,
    "office_name_kana": null
  },
  "0056": {
    "postcode": "6930056",
    "prefecture": "島根県",
    "prefecture_kana": "シマネケン",
    "prefecture_code": 32,
    "city": "出雲市",
    "city_kana": "イズモシ",
    "town": "江田町",
    "town_kana": "エタチョウ",
    "street": null,
    "office_name": null,
    "office_name_kana": null
  },
  "0057": {
    "postcode": "6930057",
    "prefecture": "島根県",
    "prefecture_kana": "シマネケン",
    "prefecture_code": 32,
    "city": "出雲市",
    "city_kana": "イズモシ",
    "town": "常松町",
    "town_kana": "ツネマツチョウ",
    "street": null,
    "office_name": null,
    "office_name_kana": null
  },
  "0058": {
    "postcode": "6930058",
    "prefecture": "島根県",
    "prefecture_kana": "シマネケン",
    "prefecture_code": 32,
    "city": "出雲市",
    "city_kana": "イズモシ",
    "town": "矢野町",
    "town_kana": "ヤノチョウ",
    "street": null,
    "office_name": null,
    "office_name_kana": null
  },
  "0061": {
    "postcode": "6930061",
    "prefecture": "島根県",
    "prefecture_kana": "シマネケン",
    "prefecture_code": 32,
    "city": "出雲市",
    "city_kana": "イズモシ",
    "town": "姫原町",
    "town_kana": "ヒメバラチョウ",
    "street": null,
    "office_name": null,
    "office_name_kana": null
  },
  "0062": {
    "postcode": "6930062",
    "prefecture": "島根県",
    "prefecture_kana": "シマネケン",
    "prefecture_code": 32,
    "city": "出雲市",
    "city_kana": "イズモシ",
    "town": "中野町",
    "town_kana": "ナカノチョウ",
    "street": null,
    "office_name": null,
    "office_name_kana": null
  },
  "0063": {
    "postcode": "6930063",
    "prefecture": "島根県",
    "prefecture_kana": "シマネケン",
    "prefecture_code": 32,
    "city": "出雲市",
    "city_kana": "イズモシ",
    "town": "大塚町",
    "town_kana": "オオツカチョウ",
    "street": null,
    "office_name": null,
    "office_name_kana": null
  },
  "0064": {
    "postcode": "6930064",
    "prefecture": "島根県",
    "prefecture_kana": "シマネケン",
    "prefecture_code": 32,
    "city": "出雲市",
    "city_kana": "イズモシ",
    "town": "里方町",
    "town_kana": "サトカタチョウ",
    "street": null,
    "office_name": null,
    "office_name_kana": null
  },
  "0065": {
    "postcode": "6930065",
    "prefecture": "島根県",
    "prefecture_kana": "シマネケン",
    "prefecture_code": 32,
    "city": "出雲市",
    "city_kana": "イズモシ",
    "town": "平野町",
    "town_kana": "ヒラノチョウ",
    "street": null,
    "office_name": null,
    "office_name_kana": null
  },
  "0066": {
    "postcode": "6930066",
    "prefecture": "島根県",
    "prefecture_kana": "シマネケン",
    "prefecture_code": 32,
    "city": "出雲市",
    "city_kana": "イズモシ",
    "town": "高岡町",
    "town_kana": "タカオカチョウ",
    "street": null,
    "office_name": null,
    "office_name_kana": null
  },
  "0067": {
    "postcode": "6930067",
    "prefecture": "島根県",
    "prefecture_kana": "シマネケン",
    "prefecture_code": 32,
    "city": "出雲市",
    "city_kana": "イズモシ",
    "town": "矢尾町",
    "town_kana": "ヤビチョウ",
    "street": null,
    "office_name": null,
    "office_name_kana": null
  },
  "0068": {
    "postcode": "6930068",
    "prefecture": "島根県",
    "prefecture_kana": "シマネケン",
    "prefecture_code": 32,
    "city": "出雲市",
    "city_kana": "イズモシ",
    "town": "姫原",
    "town_kana": "ヒメバラ",
    "street": null,
    "office_name": null,
    "office_name_kana": null
  },
  "0071": {
    "postcode": "6930071",
    "prefecture": "島根県",
    "prefecture_kana": "シマネケン",
    "prefecture_code": 32,
    "city": "出雲市",
    "city_kana": "イズモシ",
    "town": "稲岡町",
    "town_kana": "イナオカチョウ",
    "street": null,
    "office_name": null,
    "office_name_kana": null
  },
  "0072": {
    "postcode": "6930072",
    "prefecture": "島根県",
    "prefecture_kana": "シマネケン",
    "prefecture_code": 32,
    "city": "出雲市",
    "city_kana": "イズモシ",
    "town": "日下町",
    "town_kana": "クサカチョウ",
    "street": null,
    "office_name": null,
    "office_name_kana": null
  },
  "0073": {
    "postcode": "6930073",
    "prefecture": "島根県",
    "prefecture_kana": "シマネケン",
    "prefecture_code": 32,
    "city": "出雲市",
    "city_kana": "イズモシ",
    "town": "西林木町",
    "town_kana": "ニシハヤシギチョウ",
    "street": null,
    "office_name": null,
    "office_name_kana": null
  },
  "0074": {
    "postcode": "6930074",
    "prefecture": "島根県",
    "prefecture_kana": "シマネケン",
    "prefecture_code": 32,
    "city": "出雲市",
    "city_kana": "イズモシ",
    "town": "東林木町",
    "town_kana": "ヒガシハヤシギチョウ",
    "street": null,
    "office_name": null,
    "office_name_kana": null
  },
  "0081": {
    "postcode": "6930081",
    "prefecture": "島根県",
    "prefecture_kana": "シマネケン",
    "prefecture_code": 32,
    "city": "出雲市",
    "city_kana": "イズモシ",
    "town": "中野美保北",
    "town_kana": "ナカノミホキタ",
    "street": null,
    "office_name": null,
    "office_name_kana": null
  },
  "0082": {
    "postcode": "6930082",
    "prefecture": "島根県",
    "prefecture_kana": "シマネケン",
    "prefecture_code": 32,
    "city": "出雲市",
    "city_kana": "イズモシ",
    "town": "中野美保南",
    "town_kana": "ナカノミホミナミ",
    "street": null,
    "office_name": null,
    "office_name_kana": null
  },
  "0101": {
    "postcode": "6930101",
    "prefecture": "島根県",
    "prefecture_kana": "シマネケン",
    "prefecture_code": 32,
    "city": "出雲市",
    "city_kana": "イズモシ",
    "town": "上島町",
    "town_kana": "カミシマチョウ",
    "street": null,
    "office_name": null,
    "office_name_kana": null
  },
  "0102": {
    "postcode": "6930102",
    "prefecture": "島根県",
    "prefecture_kana": "シマネケン",
    "prefecture_code": 32,
    "city": "出雲市",
    "city_kana": "イズモシ",
    "town": "西谷町",
    "town_kana": "ニシダニチョウ",
    "street": null,
    "office_name": null,
    "office_name_kana": null
  },
  "0103": {
    "postcode": "6930103",
    "prefecture": "島根県",
    "prefecture_kana": "シマネケン",
    "prefecture_code": 32,
    "city": "出雲市",
    "city_kana": "イズモシ",
    "town": "野尻町",
    "town_kana": "ノジリチョウ",
    "street": null,
    "office_name": null,
    "office_name_kana": null
  },
  "0104": {
    "postcode": "6930104",
    "prefecture": "島根県",
    "prefecture_kana": "シマネケン",
    "prefecture_code": 32,
    "city": "出雲市",
    "city_kana": "イズモシ",
    "town": "稗原町",
    "town_kana": "ヒエバラチョウ",
    "street": null,
    "office_name": null,
    "office_name_kana": null
  },
  "0105": {
    "postcode": "6930105",
    "prefecture": "島根県",
    "prefecture_kana": "シマネケン",
    "prefecture_code": 32,
    "city": "出雲市",
    "city_kana": "イズモシ",
    "town": "宇那手町",
    "town_kana": "ウナテチョウ",
    "street": null,
    "office_name": null,
    "office_name_kana": null
  },
  "0106": {
    "postcode": "6930106",
    "prefecture": "島根県",
    "prefecture_kana": "シマネケン",
    "prefecture_code": 32,
    "city": "出雲市",
    "city_kana": "イズモシ",
    "town": "船津町",
    "town_kana": "フナツチョウ",
    "street": null,
    "office_name": null,
    "office_name_kana": null
  },
  "0211": {
    "postcode": "6930211",
    "prefecture": "島根県",
    "prefecture_kana": "シマネケン",
    "prefecture_code": 32,
    "city": "出雲市",
    "city_kana": "イズモシ",
    "town": "馬木北町",
    "town_kana": "マキキタマチ",
    "street": null,
    "office_name": null,
    "office_name_kana": null
  },
  "0212": {
    "postcode": "6930212",
    "prefecture": "島根県",
    "prefecture_kana": "シマネケン",
    "prefecture_code": 32,
    "city": "出雲市",
    "city_kana": "イズモシ",
    "town": "馬木町",
    "town_kana": "マキチョウ",
    "street": null,
    "office_name": null,
    "office_name_kana": null
  },
  "0213": {
    "postcode": "6930213",
    "prefecture": "島根県",
    "prefecture_kana": "シマネケン",
    "prefecture_code": 32,
    "city": "出雲市",
    "city_kana": "イズモシ",
    "town": "朝山町",
    "town_kana": "アサヤマチョウ",
    "street": null,
    "office_name": null,
    "office_name_kana": null
  },
  "0214": {
    "postcode": "6930214",
    "prefecture": "島根県",
    "prefecture_kana": "シマネケン",
    "prefecture_code": 32,
    "city": "出雲市",
    "city_kana": "イズモシ",
    "town": "所原町",
    "town_kana": "トコロハラチョウ",
    "street": null,
    "office_name": null,
    "office_name_kana": null
  },
  "0215": {
    "postcode": "6930215",
    "prefecture": "島根県",
    "prefecture_kana": "シマネケン",
    "prefecture_code": 32,
    "city": "出雲市",
    "city_kana": "イズモシ",
    "town": "見々久町",
    "town_kana": "ミミクチョウ",
    "street": null,
    "office_name": null,
    "office_name_kana": null
  },
  "0216": {
    "postcode": "6930216",
    "prefecture": "島根県",
    "prefecture_kana": "シマネケン",
    "prefecture_code": 32,
    "city": "出雲市",
    "city_kana": "イズモシ",
    "town": "乙立町",
    "town_kana": "オッタチチョウ",
    "street": null,
    "office_name": null,
    "office_name_kana": null
  },
  "0501": {
    "postcode": "6930501",
    "prefecture": "島根県",
    "prefecture_kana": "シマネケン",
    "prefecture_code": 32,
    "city": "出雲市",
    "city_kana": "イズモシ",
    "town": "佐田町朝原",
    "town_kana": "サダチョウアザバラ",
    "street": null,
    "office_name": null,
    "office_name_kana": null
  },
  "0502": {
    "postcode": "6930502",
    "prefecture": "島根県",
    "prefecture_kana": "シマネケン",
    "prefecture_code": 32,
    "city": "出雲市",
    "city_kana": "イズモシ",
    "town": "佐田町原田",
    "town_kana": "サダチョウハラダ",
    "street": null,
    "office_name": null,
    "office_name_kana": null
  },
  "0503": {
    "postcode": "6930503",
    "prefecture": "島根県",
    "prefecture_kana": "シマネケン",
    "prefecture_code": 32,
    "city": "出雲市",
    "city_kana": "イズモシ",
    "town": "佐田町須佐",
    "town_kana": "サダチョウスサ",
    "street": null,
    "office_name": null,
    "office_name_kana": null
  },
  "0504": {
    "postcode": "6930504",
    "prefecture": "島根県",
    "prefecture_kana": "シマネケン",
    "prefecture_code": 32,
    "city": "出雲市",
    "city_kana": "イズモシ",
    "town": "佐田町大呂",
    "town_kana": "サダチョウオオロ",
    "street": null,
    "office_name": null,
    "office_name_kana": null
  },
  "0505": {
    "postcode": "6930505",
    "prefecture": "島根県",
    "prefecture_kana": "シマネケン",
    "prefecture_code": 32,
    "city": "出雲市",
    "city_kana": "イズモシ",
    "town": "佐田町吉野",
    "town_kana": "サダチョウヨシノ",
    "street": null,
    "office_name": null,
    "office_name_kana": null
  },
  "0506": {
    "postcode": "6930506",
    "prefecture": "島根県",
    "prefecture_kana": "シマネケン",
    "prefecture_code": 32,
    "city": "出雲市",
    "city_kana": "イズモシ",
    "town": "佐田町反辺",
    "town_kana": "サダチョウタンベ",
    "street": null,
    "office_name": null,
    "office_name_kana": null
  },
  "0511": {
    "postcode": "6930511",
    "prefecture": "島根県",
    "prefecture_kana": "シマネケン",
    "prefecture_code": 32,
    "city": "出雲市",
    "city_kana": "イズモシ",
    "town": "佐田町八幡原",
    "town_kana": "サダチョウヤワタバラ",
    "street": null,
    "office_name": null,
    "office_name_kana": null
  },
  "0512": {
    "postcode": "6930512",
    "prefecture": "島根県",
    "prefecture_kana": "シマネケン",
    "prefecture_code": 32,
    "city": "出雲市",
    "city_kana": "イズモシ",
    "town": "佐田町東村",
    "town_kana": "サダチョウヒガシムラ",
    "street": null,
    "office_name": null,
    "office_name_kana": null
  },
  "0521": {
    "postcode": "6930521",
    "prefecture": "島根県",
    "prefecture_kana": "シマネケン",
    "prefecture_code": 32,
    "city": "出雲市",
    "city_kana": "イズモシ",
    "town": "佐田町毛津",
    "town_kana": "サダチョウケヅ",
    "street": null,
    "office_name": null,
    "office_name_kana": null
  },
  "0522": {
    "postcode": "6930522",
    "prefecture": "島根県",
    "prefecture_kana": "シマネケン",
    "prefecture_code": 32,
    "city": "出雲市",
    "city_kana": "イズモシ",
    "town": "佐田町一窪田",
    "town_kana": "サダチョウヒトクボタ",
    "street": null,
    "office_name": null,
    "office_name_kana": null
  },
  "0523": {
    "postcode": "6930523",
    "prefecture": "島根県",
    "prefecture_kana": "シマネケン",
    "prefecture_code": 32,
    "city": "出雲市",
    "city_kana": "イズモシ",
    "town": "佐田町佐津目",
    "town_kana": "サダチョウサツメ",
    "street": null,
    "office_name": null,
    "office_name_kana": null
  },
  "0524": {
    "postcode": "6930524",
    "prefecture": "島根県",
    "prefecture_kana": "シマネケン",
    "prefecture_code": 32,
    "city": "出雲市",
    "city_kana": "イズモシ",
    "town": "佐田町高津屋",
    "town_kana": "サダチョウタカツヤ",
    "street": null,
    "office_name": null,
    "office_name_kana": null
  },
  "0525": {
    "postcode": "6930525",
    "prefecture": "島根県",
    "prefecture_kana": "シマネケン",
    "prefecture_code": 32,
    "city": "出雲市",
    "city_kana": "イズモシ",
    "town": "佐田町下橋波",
    "town_kana": "サダチョウシモハシナミ",
    "street": null,
    "office_name": null,
    "office_name_kana": null
  },
  "0526": {
    "postcode": "6930526",
    "prefecture": "島根県",
    "prefecture_kana": "シマネケン",
    "prefecture_code": 32,
    "city": "出雲市",
    "city_kana": "イズモシ",
    "town": "佐田町上橋波",
    "town_kana": "サダチョウカミハシナミ",
    "street": null,
    "office_name": null,
    "office_name_kana": null
  },
  "8501": {
    "postcode": "6938501",
    "prefecture": "島根県",
    "prefecture_kana": "シマネケン",
    "prefecture_code": 32,
    "city": "出雲市",
    "city_kana": "イズモシ",
    "town": "塩冶町",
    "town_kana": "エンヤチョウ",
    "street": "８９−１",
    "office_name": "島根大学　医学部",
    "office_name_kana": "シマネダイガク イガクブ"
  },
  "8510": {
    "postcode": "6938510",
    "prefecture": "島根県",
    "prefecture_kana": "シマネケン",
    "prefecture_code": 32,
    "city": "出雲市",
    "city_kana": "イズモシ",
    "town": "小山町",
    "town_kana": "オヤマチョウ",
    "street": "２２５",
    "office_name": "中国電力　株式会社　出雲営業所",
    "office_name_kana": "チユウゴクデンリヨク カブシキガイシヤ イズモエイギヨウシヨ"
  },
  "8511": {
    "postcode": "6938511",
    "prefecture": "島根県",
    "prefecture_kana": "シマネケン",
    "prefecture_code": 32,
    "city": "出雲市",
    "city_kana": "イズモシ",
    "town": "大津町",
    "town_kana": "オオツチョウ",
    "street": "１１３９",
    "office_name": "出雲総務事務所",
    "office_name_kana": "イズモソウムジムシヨ"
  },
  "8523": {
    "postcode": "6938523",
    "prefecture": "島根県",
    "prefecture_kana": "シマネケン",
    "prefecture_code": 32,
    "city": "出雲市",
    "city_kana": "イズモシ",
    "town": "今市町",
    "town_kana": "イマイチチョウ",
    "street": "７９７−２",
    "office_name": "松江地方裁判所　出雲支部",
    "office_name_kana": "マツエチホウサイバンシヨ イズモシブ"
  },
  "8530": {
    "postcode": "6938530",
    "prefecture": "島根県",
    "prefecture_kana": "シマネケン",
    "prefecture_code": 32,
    "city": "出雲市",
    "city_kana": "イズモシ",
    "town": "今市町",
    "town_kana": "イマイチチョウ",
    "street": "７０",
    "office_name": "出雲市役所",
    "office_name_kana": "イズモシヤクシヨ"
  },
  "8531": {
    "postcode": "6938531",
    "prefecture": "島根県",
    "prefecture_kana": "シマネケン",
    "prefecture_code": 32,
    "city": "出雲市",
    "city_kana": "イズモシ",
    "town": "今市町",
    "town_kana": "イマイチチョウ",
    "street": "７０",
    "office_name": "出雲市教育委員会",
    "office_name_kana": "イズモシキヨウイクイインカイ"
  },
  "8533": {
    "postcode": "6938533",
    "prefecture": "島根県",
    "prefecture_kana": "シマネケン",
    "prefecture_code": 32,
    "city": "出雲市",
    "city_kana": "イズモシ",
    "town": "渡橋町",
    "town_kana": "ワタリハシチョウ",
    "street": "１１２７−１",
    "office_name": "中国電力　株式会社　出雲電力所",
    "office_name_kana": "チユウゴクデンリヨク カブシキガイシヤ イズモデンリヨクシヨ"
  },
  "8550": {
    "postcode": "6938550",
    "prefecture": "島根県",
    "prefecture_kana": "シマネケン",
    "prefecture_code": 32,
    "city": "出雲市",
    "city_kana": "イズモシ",
    "town": "西林木町",
    "town_kana": "ニシハヤシギチョウ",
    "street": "１５１",
    "office_name": "島根県立　看護短期大学",
    "office_name_kana": "シマネケンリツ カンゴタンキダイガク"
  },
  "8555": {
    "postcode": "6938555",
    "prefecture": "島根県",
    "prefecture_kana": "シマネケン",
    "prefecture_code": 32,
    "city": "出雲市",
    "city_kana": "イズモシ",
    "town": "姫原",
    "town_kana": "ヒメバラ",
    "street": "４丁目１−１",
    "office_name": "島根県立　中央病院",
    "office_name_kana": "シマネケンリツ チユウオウビヨウイン"
  },
  "8566": {
    "postcode": "6938566",
    "prefecture": "島根県",
    "prefecture_kana": "シマネケン",
    "prefecture_code": 32,
    "city": "出雲市",
    "city_kana": "イズモシ",
    "town": "駅北町",
    "town_kana": "エキキタマチ",
    "street": "４−１",
    "office_name": "株式会社　一畑百貨店",
    "office_name_kana": "カブシキガイシヤ イチバタヒヤツカテン"
  },
  "8585": {
    "postcode": "6938585",
    "prefecture": "島根県",
    "prefecture_kana": "シマネケン",
    "prefecture_code": 32,
    "city": "出雲市",
    "city_kana": "イズモシ",
    "town": "今市町",
    "town_kana": "イマイチチョウ",
    "street": "１０６番地１",
    "office_name": "島根県農業協同組合　出雲地区本部",
    "office_name_kana": "シマネケンノウギヨウキヨウドウクミアイ イズモチクホンブ"
  },
  "8587": {
    "postcode": "6938587",
    "prefecture": "島根県",
    "prefecture_kana": "シマネケン",
    "prefecture_code": 32,
    "city": "出雲市",
    "city_kana": "イズモシ",
    "town": "今市町",
    "town_kana": "イマイチチョウ",
    "street": "８７",
    "office_name": "いずも農業　協同組合　ラピタ",
    "office_name_kana": "イズモノウギヨウ キヨウドウクミアイ ラピタ"
  },
  "8601": {
    "postcode": "6938601",
    "prefecture": "島根県",
    "prefecture_kana": "シマネケン",
    "prefecture_code": 32,
    "city": "出雲市",
    "city_kana": "イズモシ",
    "town": "今市町",
    "town_kana": "イマイチチョウ",
    "street": "５５４−１（出雲郵便局私書箱第３号）",
    "office_name": "株式会社　山陰合同銀行　出雲支店",
    "office_name_kana": "カブシキガイシヤ サンインゴウドウギンコウ イズモシテン"
  },
  "8614": {
    "postcode": "6938614",
    "prefecture": "島根県",
    "prefecture_kana": "シマネケン",
    "prefecture_code": 32,
    "city": "出雲市",
    "city_kana": "イズモシ",
    "town": "今市町",
    "town_kana": "イマイチチョウ",
    "street": "２５２番地１（出雲郵便局私書箱第８号）",
    "office_name": "島根中央信用金庫",
    "office_name_kana": "シマネチユウオウシンヨウキンコ"
  },
  "8686": {
    "postcode": "6938686",
    "prefecture": "島根県",
    "prefecture_kana": "シマネケン",
    "prefecture_code": 32,
    "city": "出雲市",
    "city_kana": "イズモシ",
    "town": "塩冶善行町",
    "town_kana": "エンヤゼンコウチョウ",
    "street": "１３番地３（出雲郵便局私書箱第４号）",
    "office_name": "出雲　税務署",
    "office_name_kana": "イズモ ゼイムシヨ"
  },
  "8689": {
    "postcode": "6938689",
    "prefecture": "島根県",
    "prefecture_kana": "シマネケン",
    "prefecture_code": 32,
    "city": "出雲市",
    "city_kana": "イズモシ",
    "town": "塩冶善行町",
    "town_kana": "エンヤゼンコウチョウ",
    "street": "１３番地３出雲地方合同庁舎",
    "office_name": "広島国税局業務センター出雲分室",
    "office_name_kana": "ヒロシマコクゼイキヨクギヨウムセンタ-イズモブンシツ"
  }
}