{
  "0000": {
    "postcode": "6970000",
    "prefecture": "島根県",
    "prefecture_kana": "シマネケン",
    "prefecture_code": 32,
    "city": "浜田市",
    "city_kana": "ハマダシ",
    "town": "",
    "town_kana": "",
    "street": null,
    "office_name": null,
    "office_name_kana": null
  },
  "0001": {
    "postcode": "6970001",
    "prefecture": "島根県",
    "prefecture_kana": "シマネケン",
    "prefecture_code": 32,
    "city": "浜田市",
    "city_kana": "ハマダシ",
    "town": "外ノ浦町",
    "town_kana": "トノウラチョウ",
    "street": null,
    "office_name": null,
    "office_name_kana": null
  },
  "0002": {
    "postcode": "6970002",
    "prefecture": "島根県",
    "prefecture_kana": "シマネケン",
    "prefecture_code": 32,
    "city": "浜田市",
    "city_kana": "ハマダシ",
    "town": "生湯町",
    "town_kana": "ウブユチョウ",
    "street": null,
    "office_name": null,
    "office_name_kana": null
  },
  "0003": {
    "postcode": "6970003",
    "prefecture": "島根県",
    "prefecture_kana": "シマネケン",
    "prefecture_code": 32,
    "city": "浜田市",
    "city_kana": "ハマダシ",
    "town": "国分町",
    "town_kana": "コクブチョウ",
    "street": null,
    "office_name": null,
    "office_name_kana": null
  },
  "0004": {
    "postcode": "6970004",
    "prefecture": "島根県",
    "prefecture_kana": "シマネケン",
    "prefecture_code": 32,
    "city": "浜田市",
    "city_kana": "ハマダシ",
    "town": "久代町",
    "town_kana": "クシロチョウ",
    "street": null,
    "office_name": null,
    "office_name_kana": null
  },
  "0005": {
    "postcode": "6970005",
    "prefecture": "島根県",
    "prefecture_kana": "シマネケン",
    "prefecture_code": 32,
    "city": "浜田市",
    "city_kana": "ハマダシ",
    "town": "上府町",
    "town_kana": "カミコウチョウ",
    "street": null,
    "office_name": null,
    "office_name_kana": null
  },
  "0006": {
    "postcode": "6970006",
    "prefecture": "島根県",
    "prefecture_kana": "シマネケン",
    "prefecture_code": 32,
    "city": "浜田市",
    "city_kana": "ハマダシ",
    "town": "下府町",
    "town_kana": "シモコウチョウ",
    "street": null,
    "office_name": null,
    "office_name_kana": null
  },
  "0007": {
    "postcode": "6970007",
    "prefecture": "島根県",
    "prefecture_kana": "シマネケン",
    "prefecture_code": 32,
    "city": "浜田市",
    "city_kana": "ハマダシ",
    "town": "高佐町",
    "town_kana": "コウサチョウ",
    "street": null,
    "office_name": null,
    "office_name_kana": null
  },
  "0011": {
    "postcode": "6970011",
    "prefecture": "島根県",
    "prefecture_kana": "シマネケン",
    "prefecture_code": 32,
    "city": "浜田市",
    "city_kana": "ハマダシ",
    "town": "後野町",
    "town_kana": "ウシロノチョウ",
    "street": null,
    "office_name": null,
    "office_name_kana": null
  },
  "0012": {
    "postcode": "6970012",
    "prefecture": "島根県",
    "prefecture_kana": "シマネケン",
    "prefecture_code": 32,
    "city": "浜田市",
    "city_kana": "ハマダシ",
    "town": "河内町",
    "town_kana": "コウチチョウ",
    "street": null,
    "office_name": null,
    "office_name_kana": null
  },
  "0013": {
    "postcode": "6970013",
    "prefecture": "島根県",
    "prefecture_kana": "シマネケン",
    "prefecture_code": 32,
    "city": "浜田市",
    "city_kana": "ハマダシ",
    "town": "三階町",
    "town_kana": "サンガイチョウ",
    "street": null,
    "office_name": null,
    "office_name_kana": null
  },
  "0014": {
    "postcode": "6970014",
    "prefecture": "島根県",
    "prefecture_kana": "シマネケン",
    "prefecture_code": 32,
    "city": "浜田市",
    "city_kana": "ハマダシ",
    "town": "長見町",
    "town_kana": "ナガミチョウ",
    "street": null,
    "office_name": null,
    "office_name_kana": null
  },
  "0015": {
    "postcode": "6970015",
    "prefecture": "島根県",
    "prefecture_kana": "シマネケン",
    "prefecture_code": 32,
    "city": "浜田市",
    "city_kana": "ハマダシ",
    "town": "竹迫町",
    "town_kana": "タケザコチョウ",
    "street": null,
    "office_name": null,
    "office_name_kana": null
  },
  "0016": {
    "postcode": "6970016",
    "prefecture": "島根県",
    "prefecture_kana": "シマネケン",
    "prefecture_code": 32,
    "city": "浜田市",
    "city_kana": "ハマダシ",
    "town": "野原町",
    "town_kana": "ノバラチョウ",
    "street": null,
    "office_name": null,
    "office_name_kana": null
  },
  "0017": {
    "postcode": "6970017",
    "prefecture": "島根県",
    "prefecture_kana": "シマネケン",
    "prefecture_code": 32,
    "city": "浜田市",
    "city_kana": "ハマダシ",
    "town": "原井町",
    "town_kana": "ハライチョウ",
    "street": null,
    "office_name": null,
    "office_name_kana": null
  },
  "0021": {
    "postcode": "6970021",
    "prefecture": "島根県",
    "prefecture_kana": "シマネケン",
    "prefecture_code": 32,
    "city": "浜田市",
    "city_kana": "ハマダシ",
    "town": "松原町",
    "town_kana": "マツバラチョウ",
    "street": null,
    "office_name": null,
    "office_name_kana": null
  },
  "0022": {
    "postcode": "6970022",
    "prefecture": "島根県",
    "prefecture_kana": "シマネケン",
    "prefecture_code": 32,
    "city": "浜田市",
    "city_kana": "ハマダシ",
    "town": "浅井町",
    "town_kana": "アサイチョウ",
    "street": null,
    "office_name": null,
    "office_name_kana": null
  },
  "0023": {
    "postcode": "6970023",
    "prefecture": "島根県",
    "prefecture_kana": "シマネケン",
    "prefecture_code": 32,
    "city": "浜田市",
    "city_kana": "ハマダシ",
    "town": "長沢町",
    "town_kana": "ナガサワチョウ",
    "street": null,
    "office_name": null,
    "office_name_kana": null
  },
  "0024": {
    "postcode": "6970024",
    "prefecture": "島根県",
    "prefecture_kana": "シマネケン",
    "prefecture_code": 32,
    "city": "浜田市",
    "city_kana": "ハマダシ",
    "town": "黒川町",
    "town_kana": "クロカワチョウ",
    "street": null,
    "office_name": null,
    "office_name_kana": null
  },
  "0025": {
    "postcode": "6970025",
    "prefecture": "島根県",
    "prefecture_kana": "シマネケン",
    "prefecture_code": 32,
    "city": "浜田市",
    "city_kana": "ハマダシ",
    "town": "琵琶町",
    "town_kana": "ビワマチ",
    "street": null,
    "office_name": null,
    "office_name_kana": null
  },
  "0026": {
    "postcode": "6970026",
    "prefecture": "島根県",
    "prefecture_kana": "シマネケン",
    "prefecture_code": 32,
    "city": "浜田市",
    "city_kana": "ハマダシ",
    "town": "田町",
    "town_kana": "タマチ",
    "street": null,
    "office_name": null,
    "office_name_kana": null
  },
  "0027": {
    "postcode": "6970027",
    "prefecture": "島根県",
    "prefecture_kana": "シマネケン",
    "prefecture_code": 32,
    "city": "浜田市",
    "city_kana": "ハマダシ",
    "town": "殿町",
    "town_kana": "トノマチ",
    "street": null,
    "office_name": null,
    "office_name_kana": null
  },
  "0031": {
    "postcode": "6970031",
    "prefecture": "島根県",
    "prefecture_kana": "シマネケン",
    "prefecture_code": 32,
    "city": "浜田市",
    "city_kana": "ハマダシ",
    "town": "紺屋町",
    "town_kana": "コンヤマチ",
    "street": null,
    "office_name": null,
    "office_name_kana": null
  },
  "0032": {
    "postcode": "6970032",
    "prefecture": "島根県",
    "prefecture_kana": "シマネケン",
    "prefecture_code": 32,
    "city": "浜田市",
    "city_kana": "ハマダシ",
    "town": "牛市町",
    "town_kana": "ウシイチチョウ",
    "street": null,
    "office_name": null,
    "office_name_kana": null
  },
  "0033": {
    "postcode": "6970033",
    "prefecture": "島根県",
    "prefecture_kana": "シマネケン",
    "prefecture_code": 32,
    "city": "浜田市",
    "city_kana": "ハマダシ",
    "town": "朝日町",
    "town_kana": "アサヒマチ",
    "street": null,
    "office_name": null,
    "office_name_kana": null
  },
  "0034": {
    "postcode": "6970034",
    "prefecture": "島根県",
    "prefecture_kana": "シマネケン",
    "prefecture_code": 32,
    "city": "浜田市",
    "city_kana": "ハマダシ",
    "town": "相生町",
    "town_kana": "アイオイチョウ",
    "street": null,
    "office_name": null,
    "office_name_kana": null
  },
  "0035": {
    "postcode": "6970035",
    "prefecture": "島根県",
    "prefecture_kana": "シマネケン",
    "prefecture_code": 32,
    "city": "浜田市",
    "city_kana": "ハマダシ",
    "town": "杉戸町",
    "town_kana": "スギドチョウ",
    "street": null,
    "office_name": null,
    "office_name_kana": null
  },
  "0036": {
    "postcode": "6970036",
    "prefecture": "島根県",
    "prefecture_kana": "シマネケン",
    "prefecture_code": 32,
    "city": "浜田市",
    "city_kana": "ハマダシ",
    "town": "天満町",
    "town_kana": "テンマチョウ",
    "street": null,
    "office_name": null,
    "office_name_kana": null
  },
  "0037": {
    "postcode": "6970037",
    "prefecture": "島根県",
    "prefecture_kana": "シマネケン",
    "prefecture_code": 32,
    "city": "浜田市",
    "city_kana": "ハマダシ",
    "town": "新町",
    "town_kana": "シンマチ",
    "street": null,
    "office_name": null,
    "office_name_kana": null
  },
  "0041": {
    "postcode": "6970041",
    "prefecture": "島根県",
    "prefecture_kana": "シマネケン",
    "prefecture_code": 32,
    "city": "浜田市",
    "city_kana": "ハマダシ",
    "town": "片庭町",
    "town_kana": "カタニワチョウ",
    "street": null,
    "office_name": null,
    "office_name_kana": null
  },
  "0042": {
    "postcode": "6970042",
    "prefecture": "島根県",
    "prefecture_kana": "シマネケン",
    "prefecture_code": 32,
    "city": "浜田市",
    "city_kana": "ハマダシ",
    "town": "錦町",
    "town_kana": "ニシキマチ",
    "street": null,
    "office_name": null,
    "office_name_kana": null
  },
  "0043": {
    "postcode": "6970043",
    "prefecture": "島根県",
    "prefecture_kana": "シマネケン",
    "prefecture_code": 32,
    "city": "浜田市",
    "city_kana": "ハマダシ",
    "town": "栄町",
    "town_kana": "サカエマチ",
    "street": null,
    "office_name": null,
    "office_name_kana": null
  },
  "0044": {
    "postcode": "6970044",
    "prefecture": "島根県",
    "prefecture_kana": "シマネケン",
    "prefecture_code": 32,
    "city": "浜田市",
    "city_kana": "ハマダシ",
    "town": "蛭子町",
    "town_kana": "エビスチョウ",
    "street": null,
    "office_name": null,
    "office_name_kana": null
  },
  "0045": {
    "postcode": "6970045",
    "prefecture": "島根県",
    "prefecture_kana": "シマネケン",
    "prefecture_code": 32,
    "city": "浜田市",
    "city_kana": "ハマダシ",
    "town": "京町",
    "town_kana": "キョウマチ",
    "street": null,
    "office_name": null,
    "office_name_kana": null
  },
  "0046": {
    "postcode": "6970046",
    "prefecture": "島根県",
    "prefecture_kana": "シマネケン",
    "prefecture_code": 32,
    "city": "浜田市",
    "city_kana": "ハマダシ",
    "town": "真光町",
    "town_kana": "シンコウチョウ",
    "street": null,
    "office_name": null,
    "office_name_kana": null
  },
  "0047": {
    "postcode": "6970047",
    "prefecture": "島根県",
    "prefecture_kana": "シマネケン",
    "prefecture_code": 32,
    "city": "浜田市",
    "city_kana": "ハマダシ",
    "town": "清水町",
    "town_kana": "シミズチョウ",
    "street": null,
    "office_name": null,
    "office_name_kana": null
  },
  "0051": {
    "postcode": "6970051",
    "prefecture": "島根県",
    "prefecture_kana": "シマネケン",
    "prefecture_code": 32,
    "city": "浜田市",
    "city_kana": "ハマダシ",
    "town": "瀬戸ケ島町",
    "town_kana": "セトガシマチョウ",
    "street": null,
    "office_name": null,
    "office_name_kana": null
  },
  "0052": {
    "postcode": "6970052",
    "prefecture": "島根県",
    "prefecture_kana": "シマネケン",
    "prefecture_code": 32,
    "city": "浜田市",
    "city_kana": "ハマダシ",
    "town": "港町",
    "town_kana": "ミナトマチ",
    "street": null,
    "office_name": null,
    "office_name_kana": null
  },
  "0053": {
    "postcode": "6970053",
    "prefecture": "島根県",
    "prefecture_kana": "シマネケン",
    "prefecture_code": 32,
    "city": "浜田市",
    "city_kana": "ハマダシ",
    "town": "大辻町",
    "town_kana": "オオツジチョウ",
    "street": null,
    "office_name": null,
    "office_name_kana": null
  },
  "0054": {
    "postcode": "6970054",
    "prefecture": "島根県",
    "prefecture_kana": "シマネケン",
    "prefecture_code": 32,
    "city": "浜田市",
    "city_kana": "ハマダシ",
    "town": "高田町",
    "town_kana": "タカタチョウ",
    "street": null,
    "office_name": null,
    "office_name_kana": null
  },
  "0055": {
    "postcode": "6970055",
    "prefecture": "島根県",
    "prefecture_kana": "シマネケン",
    "prefecture_code": 32,
    "city": "浜田市",
    "city_kana": "ハマダシ",
    "town": "元浜町",
    "town_kana": "モトハマチョウ",
    "street": null,
    "office_name": null,
    "office_name_kana": null
  },
  "0056": {
    "postcode": "6970056",
    "prefecture": "島根県",
    "prefecture_kana": "シマネケン",
    "prefecture_code": 32,
    "city": "浜田市",
    "city_kana": "ハマダシ",
    "town": "原町",
    "town_kana": "ハラチョウ",
    "street": null,
    "office_name": null,
    "office_name_kana": null
  },
  "0057": {
    "postcode": "6970057",
    "prefecture": "島根県",
    "prefecture_kana": "シマネケン",
    "prefecture_code": 32,
    "city": "浜田市",
    "city_kana": "ハマダシ",
    "town": "瀬戸見町",
    "town_kana": "セトミチョウ",
    "street": null,
    "office_name": null,
    "office_name_kana": null
  },
  "0061": {
    "postcode": "6970061",
    "prefecture": "島根県",
    "prefecture_kana": "シマネケン",
    "prefecture_code": 32,
    "city": "浜田市",
    "city_kana": "ハマダシ",
    "town": "笠柄町",
    "town_kana": "カサガラチョウ",
    "street": null,
    "office_name": null,
    "office_name_kana": null
  },
  "0062": {
    "postcode": "6970062",
    "prefecture": "島根県",
    "prefecture_kana": "シマネケン",
    "prefecture_code": 32,
    "city": "浜田市",
    "city_kana": "ハマダシ",
    "town": "熱田町",
    "town_kana": "アツタチョウ",
    "street": null,
    "office_name": null,
    "office_name_kana": null
  },
  "0063": {
    "postcode": "6970063",
    "prefecture": "島根県",
    "prefecture_kana": "シマネケン",
    "prefecture_code": 32,
    "city": "浜田市",
    "city_kana": "ハマダシ",
    "town": "長浜町",
    "town_kana": "ナガハマチョウ",
    "street": null,
    "office_name": null,
    "office_name_kana": null
  },
  "0064": [
    {
      "postcode": "6970064",
      "prefecture": "島根県",
      "prefecture_kana": "シマネケン",
      "prefecture_code": 32,
      "city": "浜田市",
      "city_kana": "ハマダシ",
      "town": "内田町",
      "town_kana": "ウチダチョウ",
      "street": null,
      "office_name": null,
      "office_name_kana": null
    },
    {
      "postcode": "6970064",
      "prefecture": "島根県",
      "prefecture_kana": "シマネケン",
      "prefecture_code": 32,
      "city": "浜田市",
      "city_kana": "ハマダシ",
      "town": "内田町百万騎",
      "town_kana": "ウチダチョウヒャクマンキ",
      "street": null,
      "office_name": null,
      "office_name_kana": null
    }
  ],
  "0065": [
    {
      "postcode": "6970065",
      "prefecture": "島根県",
      "prefecture_kana": "シマネケン",
      "prefecture_code": 32,
      "city": "浜田市",
      "city_kana": "ハマダシ",
      "town": "内村町",
      "town_kana": "ナイムラチョウ",
      "street": null,
      "office_name": null,
      "office_name_kana": null
    },
    {
      "postcode": "6970065",
      "prefecture": "島根県",
      "prefecture_kana": "シマネケン",
      "prefecture_code": 32,
      "city": "浜田市",
      "city_kana": "ハマダシ",
      "town": "内村町十文字原",
      "town_kana": "ナイムラチョウジュウモンジバラ",
      "street": null,
      "office_name": null,
      "office_name_kana": null
    }
  ],
  "0121": {
    "postcode": "6970121",
    "prefecture": "島根県",
    "prefecture_kana": "シマネケン",
    "prefecture_code": 32,
    "city": "浜田市",
    "city_kana": "ハマダシ",
    "town": "金城町下来原",
    "town_kana": "カナギチョウシモクルバラ",
    "street": null,
    "office_name": null,
    "office_name_kana": null
  },
  "0122": {
    "postcode": "6970122",
    "prefecture": "島根県",
    "prefecture_kana": "シマネケン",
    "prefecture_code": 32,
    "city": "浜田市",
    "city_kana": "ハマダシ",
    "town": "金城町上来原",
    "town_kana": "カナギチョウカミクルバラ",
    "street": null,
    "office_name": null,
    "office_name_kana": null
  },
  "0123": {
    "postcode": "6970123",
    "prefecture": "島根県",
    "prefecture_kana": "シマネケン",
    "prefecture_code": 32,
    "city": "浜田市",
    "city_kana": "ハマダシ",
    "town": "金城町七条",
    "town_kana": "カナギチョウシチジョウ",
    "street": null,
    "office_name": null,
    "office_name_kana": null
  },
  "0211": {
    "postcode": "6970211",
    "prefecture": "島根県",
    "prefecture_kana": "シマネケン",
    "prefecture_code": 32,
    "city": "浜田市",
    "city_kana": "ハマダシ",
    "town": "金城町波佐",
    "town_kana": "カナギチョウハザ",
    "street": null,
    "office_name": null,
    "office_name_kana": null
  },
  "0212": {
    "postcode": "6970212",
    "prefecture": "島根県",
    "prefecture_kana": "シマネケン",
    "prefecture_code": 32,
    "city": "浜田市",
    "city_kana": "ハマダシ",
    "town": "金城町長田",
    "town_kana": "カナギチョウナガタ",
    "street": null,
    "office_name": null,
    "office_name_kana": null
  },
  "0213": {
    "postcode": "6970213",
    "prefecture": "島根県",
    "prefecture_kana": "シマネケン",
    "prefecture_code": 32,
    "city": "浜田市",
    "city_kana": "ハマダシ",
    "town": "金城町小国",
    "town_kana": "カナギチョウオグニ",
    "street": null,
    "office_name": null,
    "office_name_kana": null
  },
  "0301": {
    "postcode": "6970301",
    "prefecture": "島根県",
    "prefecture_kana": "シマネケン",
    "prefecture_code": 32,
    "city": "浜田市",
    "city_kana": "ハマダシ",
    "town": "金城町追原",
    "town_kana": "カナギチョウオイバラ",
    "street": null,
    "office_name": null,
    "office_name_kana": null
  },
  "0302": {
    "postcode": "6970302",
    "prefecture": "島根県",
    "prefecture_kana": "シマネケン",
    "prefecture_code": 32,
    "city": "浜田市",
    "city_kana": "ハマダシ",
    "town": "金城町今福",
    "town_kana": "カナギチョウイマフク",
    "street": null,
    "office_name": null,
    "office_name_kana": null
  },
  "0303": {
    "postcode": "6970303",
    "prefecture": "島根県",
    "prefecture_kana": "シマネケン",
    "prefecture_code": 32,
    "city": "浜田市",
    "city_kana": "ハマダシ",
    "town": "金城町久佐",
    "town_kana": "カナギチョウクザ",
    "street": null,
    "office_name": null,
    "office_name_kana": null
  },
  "0304": {
    "postcode": "6970304",
    "prefecture": "島根県",
    "prefecture_kana": "シマネケン",
    "prefecture_code": 32,
    "city": "浜田市",
    "city_kana": "ハマダシ",
    "town": "金城町宇津井",
    "town_kana": "カナギチョウウツイ",
    "street": null,
    "office_name": null,
    "office_name_kana": null
  },
  "0305": {
    "postcode": "6970305",
    "prefecture": "島根県",
    "prefecture_kana": "シマネケン",
    "prefecture_code": 32,
    "city": "浜田市",
    "city_kana": "ハマダシ",
    "town": "金城町入野",
    "town_kana": "カナギチョウイリノ",
    "street": null,
    "office_name": null,
    "office_name_kana": null
  },
  "0311": {
    "postcode": "6970311",
    "prefecture": "島根県",
    "prefecture_kana": "シマネケン",
    "prefecture_code": 32,
    "city": "浜田市",
    "city_kana": "ハマダシ",
    "town": "佐野町",
    "town_kana": "サノチョウ",
    "street": null,
    "office_name": null,
    "office_name_kana": null
  },
  "0312": {
    "postcode": "6970312",
    "prefecture": "島根県",
    "prefecture_kana": "シマネケン",
    "prefecture_code": 32,
    "city": "浜田市",
    "city_kana": "ハマダシ",
    "town": "宇津井町",
    "town_kana": "ウツイチョウ",
    "street": null,
    "office_name": null,
    "office_name_kana": null
  },
  "0421": {
    "postcode": "6970421",
    "prefecture": "島根県",
    "prefecture_kana": "シマネケン",
    "prefecture_code": 32,
    "city": "浜田市",
    "city_kana": "ハマダシ",
    "town": "旭町山ノ内",
    "town_kana": "アサヒチョウヤマノウチ",
    "street": null,
    "office_name": null,
    "office_name_kana": null
  },
  "0422": {
    "postcode": "6970422",
    "prefecture": "島根県",
    "prefecture_kana": "シマネケン",
    "prefecture_code": 32,
    "city": "浜田市",
    "city_kana": "ハマダシ",
    "town": "旭町本郷",
    "town_kana": "アサヒチョウホンゴウ",
    "street": null,
    "office_name": null,
    "office_name_kana": null
  },
  "0423": {
    "postcode": "6970423",
    "prefecture": "島根県",
    "prefecture_kana": "シマネケン",
    "prefecture_code": 32,
    "city": "浜田市",
    "city_kana": "ハマダシ",
    "town": "旭町重富",
    "town_kana": "アサヒチョウシゲトミ",
    "street": null,
    "office_name": null,
    "office_name_kana": null
  },
  "0424": {
    "postcode": "6970424",
    "prefecture": "島根県",
    "prefecture_kana": "シマネケン",
    "prefecture_code": 32,
    "city": "浜田市",
    "city_kana": "ハマダシ",
    "town": "旭町和田",
    "town_kana": "アサヒチョウワダ",
    "street": null,
    "office_name": null,
    "office_name_kana": null
  },
  "0425": {
    "postcode": "6970425",
    "prefecture": "島根県",
    "prefecture_kana": "シマネケン",
    "prefecture_code": 32,
    "city": "浜田市",
    "city_kana": "ハマダシ",
    "town": "旭町今市",
    "town_kana": "アサヒチョウイマイチ",
    "street": null,
    "office_name": null,
    "office_name_kana": null
  },
  "0426": {
    "postcode": "6970426",
    "prefecture": "島根県",
    "prefecture_kana": "シマネケン",
    "prefecture_code": 32,
    "city": "浜田市",
    "city_kana": "ハマダシ",
    "town": "旭町丸原",
    "town_kana": "アサヒチョウマルバラ",
    "street": null,
    "office_name": null,
    "office_name_kana": null
  },
  "0427": {
    "postcode": "6970427",
    "prefecture": "島根県",
    "prefecture_kana": "シマネケン",
    "prefecture_code": 32,
    "city": "浜田市",
    "city_kana": "ハマダシ",
    "town": "旭町木田",
    "town_kana": "アサヒチョウキタ",
    "street": null,
    "office_name": null,
    "office_name_kana": null
  },
  "0431": {
    "postcode": "6970431",
    "prefecture": "島根県",
    "prefecture_kana": "シマネケン",
    "prefecture_code": 32,
    "city": "浜田市",
    "city_kana": "ハマダシ",
    "town": "旭町坂本",
    "town_kana": "アサヒチョウサカモト",
    "street": null,
    "office_name": null,
    "office_name_kana": null
  },
  "0492": {
    "postcode": "6970492",
    "prefecture": "島根県",
    "prefecture_kana": "シマネケン",
    "prefecture_code": 32,
    "city": "浜田市",
    "city_kana": "ハマダシ",
    "town": "旭町丸原",
    "town_kana": "アサヒチョウマルバラ",
    "street": "３８０−１５",
    "office_name": "島根あさひ社会復帰促進センター",
    "office_name_kana": "シマネアサヒシヤカイフツキソクシンセンタ-"
  },
  "0511": {
    "postcode": "6970511",
    "prefecture": "島根県",
    "prefecture_kana": "シマネケン",
    "prefecture_code": 32,
    "city": "浜田市",
    "city_kana": "ハマダシ",
    "town": "旭町都川",
    "town_kana": "アサヒチョウツカワ",
    "street": null,
    "office_name": null,
    "office_name_kana": null
  },
  "0512": {
    "postcode": "6970512",
    "prefecture": "島根県",
    "prefecture_kana": "シマネケン",
    "prefecture_code": 32,
    "city": "浜田市",
    "city_kana": "ハマダシ",
    "town": "旭町来尾",
    "town_kana": "アサヒチョウキタオ",
    "street": null,
    "office_name": null,
    "office_name_kana": null
  },
  "0513": [
    {
      "postcode": "6970513",
      "prefecture": "島根県",
      "prefecture_kana": "シマネケン",
      "prefecture_code": 32,
      "city": "浜田市",
      "city_kana": "ハマダシ",
      "town": "旭町坂本",
      "town_kana": "アサヒチョウサカモト",
      "street": null,
      "office_name": null,
      "office_name_kana": null
    },
    {
      "postcode": "6970513",
      "prefecture": "島根県",
      "prefecture_kana": "シマネケン",
      "prefecture_code": 32,
      "city": "浜田市",
      "city_kana": "ハマダシ",
      "town": "旭町坂本八ツ木",
      "town_kana": "アサヒチョウサカモトヤツギ",
      "street": null,
      "office_name": null,
      "office_name_kana": null
    }
  ],
  "0514": {
    "postcode": "6970514",
    "prefecture": "島根県",
    "prefecture_kana": "シマネケン",
    "prefecture_code": 32,
    "city": "浜田市",
    "city_kana": "ハマダシ",
    "town": "旭町市木",
    "town_kana": "アサヒチョウイチギ",
    "street": null,
    "office_name": null,
    "office_name_kana": null
  },
  "0631": {
    "postcode": "6970631",
    "prefecture": "島根県",
    "prefecture_kana": "シマネケン",
    "prefecture_code": 32,
    "city": "邑智郡邑南町",
    "city_kana": "オオチグンオオナンチョウ",
    "town": "市木",
    "town_kana": "イチギ",
    "street": null,
    "office_name": null,
    "office_name_kana": null
  },
  "1121": {
    "postcode": "6971121",
    "prefecture": "島根県",
    "prefecture_kana": "シマネケン",
    "prefecture_code": 32,
    "city": "浜田市",
    "city_kana": "ハマダシ",
    "town": "弥栄町野坂",
    "town_kana": "ヤサカチョウノサカ",
    "street": null,
    "office_name": null,
    "office_name_kana": null
  },
  "1122": {
    "postcode": "6971122",
    "prefecture": "島根県",
    "prefecture_kana": "シマネケン",
    "prefecture_code": 32,
    "city": "浜田市",
    "city_kana": "ハマダシ",
    "town": "弥栄町木都賀",
    "town_kana": "ヤサカチョウキツカ",
    "street": null,
    "office_name": null,
    "office_name_kana": null
  },
  "1123": {
    "postcode": "6971123",
    "prefecture": "島根県",
    "prefecture_kana": "シマネケン",
    "prefecture_code": 32,
    "city": "浜田市",
    "city_kana": "ハマダシ",
    "town": "弥栄町田野原",
    "town_kana": "ヤサカチョウタノハラ",
    "street": null,
    "office_name": null,
    "office_name_kana": null
  },
  "1201": {
    "postcode": "6971201",
    "prefecture": "島根県",
    "prefecture_kana": "シマネケン",
    "prefecture_code": 32,
    "city": "浜田市",
    "city_kana": "ハマダシ",
    "town": "弥栄町栃木",
    "town_kana": "ヤサカチョウトチギ",
    "street": null,
    "office_name": null,
    "office_name_kana": null
  },
  "1202": {
    "postcode": "6971202",
    "prefecture": "島根県",
    "prefecture_kana": "シマネケン",
    "prefecture_code": 32,
    "city": "浜田市",
    "city_kana": "ハマダシ",
    "town": "弥栄町小坂",
    "town_kana": "ヤサカチョウオサカ",
    "street": null,
    "office_name": null,
    "office_name_kana": null
  },
  "1203": {
    "postcode": "6971203",
    "prefecture": "島根県",
    "prefecture_kana": "シマネケン",
    "prefecture_code": 32,
    "city": "浜田市",
    "city_kana": "ハマダシ",
    "town": "弥栄町高内",
    "town_kana": "ヤサカチョウタカウチ",
    "street": null,
    "office_name": null,
    "office_name_kana": null
  },
  "1204": {
    "postcode": "6971204",
    "prefecture": "島根県",
    "prefecture_kana": "シマネケン",
    "prefecture_code": 32,
    "city": "浜田市",
    "city_kana": "ハマダシ",
    "town": "弥栄町門田",
    "town_kana": "ヤサカチョウカドタ",
    "street": null,
    "office_name": null,
    "office_name_kana": null
  },
  "1211": {
    "postcode": "6971211",
    "prefecture": "島根県",
    "prefecture_kana": "シマネケン",
    "prefecture_code": 32,
    "city": "浜田市",
    "city_kana": "ハマダシ",
    "town": "弥栄町長安本郷",
    "town_kana": "ヤサカチョウナガヤスホンゴウ",
    "street": null,
    "office_name": null,
    "office_name_kana": null
  },
  "1212": {
    "postcode": "6971212",
    "prefecture": "島根県",
    "prefecture_kana": "シマネケン",
    "prefecture_code": 32,
    "city": "浜田市",
    "city_kana": "ハマダシ",
    "town": "弥栄町三里",
    "town_kana": "ヤサカチョウミサト",
    "street": null,
    "office_name": null,
    "office_name_kana": null
  },
  "1213": {
    "postcode": "6971213",
    "prefecture": "島根県",
    "prefecture_kana": "シマネケン",
    "prefecture_code": 32,
    "city": "浜田市",
    "city_kana": "ハマダシ",
    "town": "弥栄町程原",
    "town_kana": "ヤサカチョウホドハラ",
    "street": null,
    "office_name": null,
    "office_name_kana": null
  },
  "1214": {
    "postcode": "6971214",
    "prefecture": "島根県",
    "prefecture_kana": "シマネケン",
    "prefecture_code": 32,
    "city": "浜田市",
    "city_kana": "ハマダシ",
    "town": "弥栄町大坪",
    "town_kana": "ヤサカチョウオオツボ",
    "street": null,
    "office_name": null,
    "office_name_kana": null
  },
  "1215": {
    "postcode": "6971215",
    "prefecture": "島根県",
    "prefecture_kana": "シマネケン",
    "prefecture_code": 32,
    "city": "浜田市",
    "city_kana": "ハマダシ",
    "town": "弥栄町稲代",
    "town_kana": "ヤサカチョウイナシロ",
    "street": null,
    "office_name": null,
    "office_name_kana": null
  },
  "1321": {
    "postcode": "6971321",
    "prefecture": "島根県",
    "prefecture_kana": "シマネケン",
    "prefecture_code": 32,
    "city": "浜田市",
    "city_kana": "ハマダシ",
    "town": "周布町",
    "town_kana": "スフチョウ",
    "street": null,
    "office_name": null,
    "office_name_kana": null
  },
  "1322": {
    "postcode": "6971322",
    "prefecture": "島根県",
    "prefecture_kana": "シマネケン",
    "prefecture_code": 32,
    "city": "浜田市",
    "city_kana": "ハマダシ",
    "town": "日脚町",
    "town_kana": "ヒナシチョウ",
    "street": null,
    "office_name": null,
    "office_name_kana": null
  },
  "1323": {
    "postcode": "6971323",
    "prefecture": "島根県",
    "prefecture_kana": "シマネケン",
    "prefecture_code": 32,
    "city": "浜田市",
    "city_kana": "ハマダシ",
    "town": "内田町",
    "town_kana": "ウチダチョウ",
    "street": null,
    "office_name": null,
    "office_name_kana": null
  },
  "1324": {
    "postcode": "6971324",
    "prefecture": "島根県",
    "prefecture_kana": "シマネケン",
    "prefecture_code": 32,
    "city": "浜田市",
    "city_kana": "ハマダシ",
    "town": "穂出町",
    "town_kana": "ホノデチョウ",
    "street": null,
    "office_name": null,
    "office_name_kana": null
  },
  "1325": {
    "postcode": "6971325",
    "prefecture": "島根県",
    "prefecture_kana": "シマネケン",
    "prefecture_code": 32,
    "city": "浜田市",
    "city_kana": "ハマダシ",
    "town": "吉地町",
    "town_kana": "ヨシジチョウ",
    "street": null,
    "office_name": null,
    "office_name_kana": null
  },
  "1326": {
    "postcode": "6971326",
    "prefecture": "島根県",
    "prefecture_kana": "シマネケン",
    "prefecture_code": 32,
    "city": "浜田市",
    "city_kana": "ハマダシ",
    "town": "治和町",
    "town_kana": "チワチョウ",
    "street": null,
    "office_name": null,
    "office_name_kana": null
  },
  "1327": {
    "postcode": "6971327",
    "prefecture": "島根県",
    "prefecture_kana": "シマネケン",
    "prefecture_code": 32,
    "city": "浜田市",
    "city_kana": "ハマダシ",
    "town": "津摩町",
    "town_kana": "ツマチョウ",
    "street": null,
    "office_name": null,
    "office_name_kana": null
  },
  "1331": {
    "postcode": "6971331",
    "prefecture": "島根県",
    "prefecture_kana": "シマネケン",
    "prefecture_code": 32,
    "city": "浜田市",
    "city_kana": "ハマダシ",
    "town": "内村町",
    "town_kana": "ナイムラチョウ",
    "street": null,
    "office_name": null,
    "office_name_kana": null
  },
  "1332": {
    "postcode": "6971332",
    "prefecture": "島根県",
    "prefecture_kana": "シマネケン",
    "prefecture_code": 32,
    "city": "浜田市",
    "city_kana": "ハマダシ",
    "town": "田橋町",
    "town_kana": "タバセチョウ",
    "street": null,
    "office_name": null,
    "office_name_kana": null
  },
  "1333": {
    "postcode": "6971333",
    "prefecture": "島根県",
    "prefecture_kana": "シマネケン",
    "prefecture_code": 32,
    "city": "浜田市",
    "city_kana": "ハマダシ",
    "town": "鍋石町",
    "town_kana": "ナベイシチョウ",
    "street": null,
    "office_name": null,
    "office_name_kana": null
  },
  "1334": {
    "postcode": "6971334",
    "prefecture": "島根県",
    "prefecture_kana": "シマネケン",
    "prefecture_code": 32,
    "city": "浜田市",
    "city_kana": "ハマダシ",
    "town": "櫟田原町",
    "town_kana": "イチイタバラチョウ",
    "street": null,
    "office_name": null,
    "office_name_kana": null
  },
  "1335": {
    "postcode": "6971335",
    "prefecture": "島根県",
    "prefecture_kana": "シマネケン",
    "prefecture_code": 32,
    "city": "浜田市",
    "city_kana": "ハマダシ",
    "town": "井野町",
    "town_kana": "イノチョウ",
    "street": null,
    "office_name": null,
    "office_name_kana": null
  },
  "1336": {
    "postcode": "6971336",
    "prefecture": "島根県",
    "prefecture_kana": "シマネケン",
    "prefecture_code": 32,
    "city": "浜田市",
    "city_kana": "ハマダシ",
    "town": "横山町",
    "town_kana": "ヨコヤマチョウ",
    "street": null,
    "office_name": null,
    "office_name_kana": null
  },
  "1337": {
    "postcode": "6971337",
    "prefecture": "島根県",
    "prefecture_kana": "シマネケン",
    "prefecture_code": 32,
    "city": "浜田市",
    "city_kana": "ハマダシ",
    "town": "西村町",
    "town_kana": "ニシムラチョウ",
    "street": null,
    "office_name": null,
    "office_name_kana": null
  },
  "1338": {
    "postcode": "6971338",
    "prefecture": "島根県",
    "prefecture_kana": "シマネケン",
    "prefecture_code": 32,
    "city": "浜田市",
    "city_kana": "ハマダシ",
    "town": "折居町",
    "town_kana": "オリイチョウ",
    "street": null,
    "office_name": null,
    "office_name_kana": null
  },
  "8501": {
    "postcode": "6978501",
    "prefecture": "島根県",
    "prefecture_kana": "シマネケン",
    "prefecture_code": 32,
    "city": "浜田市",
    "city_kana": "ハマダシ",
    "town": "殿町",
    "town_kana": "トノマチ",
    "street": "１",
    "office_name": "浜田市",
    "office_name_kana": "ハマダシ"
  },
  "8511": {
    "postcode": "6978511",
    "prefecture": "島根県",
    "prefecture_kana": "シマネケン",
    "prefecture_code": 32,
    "city": "浜田市",
    "city_kana": "ハマダシ",
    "town": "浅井町",
    "town_kana": "アサイチョウ",
    "street": "７７７−１２",
    "office_name": "浜田医療センター",
    "office_name_kana": "ハマダイリヨウセンタ-"
  },
  "8512": {
    "postcode": "6978512",
    "prefecture": "島根県",
    "prefecture_kana": "シマネケン",
    "prefecture_code": 32,
    "city": "浜田市",
    "city_kana": "ハマダシ",
    "town": "浅井町",
    "town_kana": "アサイチョウ",
    "street": "７７７−１２",
    "office_name": "浜田医療センター附属看護学校",
    "office_name_kana": "ハマダイリヨウセンタ-フゾクカンゴガツコウ"
  },
  "8585": {
    "postcode": "6978585",
    "prefecture": "島根県",
    "prefecture_kana": "シマネケン",
    "prefecture_code": 32,
    "city": "浜田市",
    "city_kana": "ハマダシ",
    "town": "殿町",
    "town_kana": "トノマチ",
    "street": "２",
    "office_name": "ＮＴＴ西日本電信電話　株式会社　島根西支店　（株）　ＮＴＴネオメイト　中国浜田営業所",
    "office_name_kana": "エヌテイテイニシニホンデンシンデンワ カブシキカイシヤ シマネニシシテン (カブ) エヌテイテイネオメイト チユウゴクハマダエイギヨウシヨ"
  },
  "8686": {
    "postcode": "6978686",
    "prefecture": "島根県",
    "prefecture_kana": "シマネケン",
    "prefecture_code": 32,
    "city": "浜田市",
    "city_kana": "ハマダシ",
    "town": "殿町",
    "town_kana": "トノマチ",
    "street": "７９番８（浜田郵便局私書箱第１７号）",
    "office_name": "浜田　税務署",
    "office_name_kana": "ハマダ ゼイムシヨ"
  },
  "8789": {
    "postcode": "6978789",
    "prefecture": "島根県",
    "prefecture_kana": "シマネケン",
    "prefecture_code": 32,
    "city": "浜田市",
    "city_kana": "ハマダシ",
    "town": "黒川町",
    "town_kana": "クロカワチョウ",
    "street": "３７４９−５",
    "office_name": "島根県立　浜田高等学校　定時制・通信制課程",
    "office_name_kana": "シマネケンリツ ハマダコウトウガツコウ テイジセイ・ツウシンセイカテイ"
  }
}