{
  "0000": {
    "postcode": "6980000",
    "prefecture": "島根県",
    "prefecture_kana": "シマネケン",
    "prefecture_code": 32,
    "city": "益田市",
    "city_kana": "マスダシ",
    "town": "",
    "town_kana": "",
    "street": null,
    "office_name": null,
    "office_name_kana": null
  },
  "0001": {
    "postcode": "6980001",
    "prefecture": "島根県",
    "prefecture_kana": "シマネケン",
    "prefecture_code": 32,
    "city": "益田市",
    "city_kana": "マスダシ",
    "town": "久城町",
    "town_kana": "クシロチョウ",
    "street": null,
    "office_name": null,
    "office_name_kana": null
  },
  "0002": {
    "postcode": "6980002",
    "prefecture": "島根県",
    "prefecture_kana": "シマネケン",
    "prefecture_code": 32,
    "city": "益田市",
    "city_kana": "マスダシ",
    "town": "下本郷町",
    "town_kana": "シモホンゴウチョウ",
    "street": null,
    "office_name": null,
    "office_name_kana": null
  },
  "0003": {
    "postcode": "6980003",
    "prefecture": "島根県",
    "prefecture_kana": "シマネケン",
    "prefecture_code": 32,
    "city": "益田市",
    "city_kana": "マスダシ",
    "town": "乙吉町",
    "town_kana": "オトヨシチョウ",
    "street": null,
    "office_name": null,
    "office_name_kana": null
  },
  "0004": {
    "postcode": "6980004",
    "prefecture": "島根県",
    "prefecture_kana": "シマネケン",
    "prefecture_code": 32,
    "city": "益田市",
    "city_kana": "マスダシ",
    "town": "東町",
    "town_kana": "ヒガシマチ",
    "street": null,
    "office_name": null,
    "office_name_kana": null
  },
  "0005": {
    "postcode": "6980005",
    "prefecture": "島根県",
    "prefecture_kana": "シマネケン",
    "prefecture_code": 32,
    "city": "益田市",
    "city_kana": "マスダシ",
    "town": "本町",
    "town_kana": "ホンマチ",
    "street": null,
    "office_name": null,
    "office_name_kana": null
  },
  "0006": {
    "postcode": "6980006",
    "prefecture": "島根県",
    "prefecture_kana": "シマネケン",
    "prefecture_code": 32,
    "city": "益田市",
    "city_kana": "マスダシ",
    "town": "三宅町",
    "town_kana": "ミヤケチョウ",
    "street": null,
    "office_name": null,
    "office_name_kana": null
  },
  "0007": {
    "postcode": "6980007",
    "prefecture": "島根県",
    "prefecture_kana": "シマネケン",
    "prefecture_code": 32,
    "city": "益田市",
    "city_kana": "マスダシ",
    "town": "昭和町",
    "town_kana": "ショウワチョウ",
    "street": null,
    "office_name": null,
    "office_name_kana": null
  },
  "0011": {
    "postcode": "6980011",
    "prefecture": "島根県",
    "prefecture_kana": "シマネケン",
    "prefecture_code": 32,
    "city": "益田市",
    "city_kana": "マスダシ",
    "town": "染羽町",
    "town_kana": "ソメバチョウ",
    "street": null,
    "office_name": null,
    "office_name_kana": null
  },
  "0012": {
    "postcode": "6980012",
    "prefecture": "島根県",
    "prefecture_kana": "シマネケン",
    "prefecture_code": 32,
    "city": "益田市",
    "city_kana": "マスダシ",
    "town": "大谷町",
    "town_kana": "オオタニチョウ",
    "street": null,
    "office_name": null,
    "office_name_kana": null
  },
  "0013": {
    "postcode": "6980013",
    "prefecture": "島根県",
    "prefecture_kana": "シマネケン",
    "prefecture_code": 32,
    "city": "益田市",
    "city_kana": "マスダシ",
    "town": "久々茂町",
    "town_kana": "ククモチョウ",
    "street": null,
    "office_name": null,
    "office_name_kana": null
  },
  "0014": {
    "postcode": "6980014",
    "prefecture": "島根県",
    "prefecture_kana": "シマネケン",
    "prefecture_code": 32,
    "city": "益田市",
    "city_kana": "マスダシ",
    "town": "岩倉町",
    "town_kana": "イワクラチョウ",
    "street": null,
    "office_name": null,
    "office_name_kana": null
  },
  "0015": {
    "postcode": "6980015",
    "prefecture": "島根県",
    "prefecture_kana": "シマネケン",
    "prefecture_code": 32,
    "city": "益田市",
    "city_kana": "マスダシ",
    "town": "栃山町",
    "town_kana": "トチヤマチョウ",
    "street": null,
    "office_name": null,
    "office_name_kana": null
  },
  "0016": {
    "postcode": "6980016",
    "prefecture": "島根県",
    "prefecture_kana": "シマネケン",
    "prefecture_code": 32,
    "city": "益田市",
    "city_kana": "マスダシ",
    "town": "土井町",
    "town_kana": "ドイチョウ",
    "street": null,
    "office_name": null,
    "office_name_kana": null
  },
  "0017": {
    "postcode": "6980017",
    "prefecture": "島根県",
    "prefecture_kana": "シマネケン",
    "prefecture_code": 32,
    "city": "益田市",
    "city_kana": "マスダシ",
    "town": "七尾町",
    "town_kana": "ナナオチョウ",
    "street": null,
    "office_name": null,
    "office_name_kana": null
  },
  "0021": {
    "postcode": "6980021",
    "prefecture": "島根県",
    "prefecture_kana": "シマネケン",
    "prefecture_code": 32,
    "city": "益田市",
    "city_kana": "マスダシ",
    "town": "幸町",
    "town_kana": "サイワイチョウ",
    "street": null,
    "office_name": null,
    "office_name_kana": null
  },
  "0022": {
    "postcode": "6980022",
    "prefecture": "島根県",
    "prefecture_kana": "シマネケン",
    "prefecture_code": 32,
    "city": "益田市",
    "city_kana": "マスダシ",
    "town": "有明町",
    "town_kana": "アリアケチョウ",
    "street": null,
    "office_name": null,
    "office_name_kana": null
  },
  "0023": {
    "postcode": "6980023",
    "prefecture": "島根県",
    "prefecture_kana": "シマネケン",
    "prefecture_code": 32,
    "city": "益田市",
    "city_kana": "マスダシ",
    "town": "常盤町",
    "town_kana": "トキワチョウ",
    "street": null,
    "office_name": null,
    "office_name_kana": null
  },
  "0024": {
    "postcode": "6980024",
    "prefecture": "島根県",
    "prefecture_kana": "シマネケン",
    "prefecture_code": 32,
    "city": "益田市",
    "city_kana": "マスダシ",
    "town": "駅前町",
    "town_kana": "エキマエチョウ",
    "street": null,
    "office_name": null,
    "office_name_kana": null
  },
  "0025": {
    "postcode": "6980025",
    "prefecture": "島根県",
    "prefecture_kana": "シマネケン",
    "prefecture_code": 32,
    "city": "益田市",
    "city_kana": "マスダシ",
    "town": "あけぼの西町",
    "town_kana": "アケボノニシマチ",
    "street": null,
    "office_name": null,
    "office_name_kana": null
  },
  "0026": {
    "postcode": "6980026",
    "prefecture": "島根県",
    "prefecture_kana": "シマネケン",
    "prefecture_code": 32,
    "city": "益田市",
    "city_kana": "マスダシ",
    "town": "あけぼの本町",
    "town_kana": "アケボノホンマチ",
    "street": null,
    "office_name": null,
    "office_name_kana": null
  },
  "0027": {
    "postcode": "6980027",
    "prefecture": "島根県",
    "prefecture_kana": "シマネケン",
    "prefecture_code": 32,
    "city": "益田市",
    "city_kana": "マスダシ",
    "town": "あけぼの東町",
    "town_kana": "アケボノヒガシマチ",
    "street": null,
    "office_name": null,
    "office_name_kana": null
  },
  "0031": {
    "postcode": "6980031",
    "prefecture": "島根県",
    "prefecture_kana": "シマネケン",
    "prefecture_code": 32,
    "city": "益田市",
    "city_kana": "マスダシ",
    "town": "多田町",
    "town_kana": "タダチョウ",
    "street": null,
    "office_name": null,
    "office_name_kana": null
  },
  "0032": {
    "postcode": "6980032",
    "prefecture": "島根県",
    "prefecture_kana": "シマネケン",
    "prefecture_code": 32,
    "city": "益田市",
    "city_kana": "マスダシ",
    "town": "水分町",
    "town_kana": "ミズワケチョウ",
    "street": null,
    "office_name": null,
    "office_name_kana": null
  },
  "0033": {
    "postcode": "6980033",
    "prefecture": "島根県",
    "prefecture_kana": "シマネケン",
    "prefecture_code": 32,
    "city": "益田市",
    "city_kana": "マスダシ",
    "town": "元町",
    "town_kana": "モトマチ",
    "street": null,
    "office_name": null,
    "office_name_kana": null
  },
  "0034": {
    "postcode": "6980034",
    "prefecture": "島根県",
    "prefecture_kana": "シマネケン",
    "prefecture_code": 32,
    "city": "益田市",
    "city_kana": "マスダシ",
    "town": "赤城町",
    "town_kana": "アカギチョウ",
    "street": null,
    "office_name": null,
    "office_name_kana": null
  },
  "0035": {
    "postcode": "6980035",
    "prefecture": "島根県",
    "prefecture_kana": "シマネケン",
    "prefecture_code": 32,
    "city": "益田市",
    "city_kana": "マスダシ",
    "town": "栄町",
    "town_kana": "サカエマチ",
    "street": null,
    "office_name": null,
    "office_name_kana": null
  },
  "0036": {
    "postcode": "6980036",
    "prefecture": "島根県",
    "prefecture_kana": "シマネケン",
    "prefecture_code": 32,
    "city": "益田市",
    "city_kana": "マスダシ",
    "town": "須子町",
    "town_kana": "スコチョウ",
    "street": null,
    "office_name": null,
    "office_name_kana": null
  },
  "0037": {
    "postcode": "6980037",
    "prefecture": "島根県",
    "prefecture_kana": "シマネケン",
    "prefecture_code": 32,
    "city": "益田市",
    "city_kana": "マスダシ",
    "town": "飯田町",
    "town_kana": "イイダチョウ",
    "street": null,
    "office_name": null,
    "office_name_kana": null
  },
  "0041": [
    {
      "postcode": "6980041",
      "prefecture": "島根県",
      "prefecture_kana": "シマネケン",
      "prefecture_code": 32,
      "city": "益田市",
      "city_kana": "マスダシ",
      "town": "高津",
      "town_kana": "タカツ",
      "street": null,
      "office_name": null,
      "office_name_kana": null
    },
    {
      "postcode": "6980041",
      "prefecture": "島根県",
      "prefecture_kana": "シマネケン",
      "prefecture_code": 32,
      "city": "益田市",
      "city_kana": "マスダシ",
      "town": "高津町",
      "town_kana": "タカツチョウ",
      "street": null,
      "office_name": null,
      "office_name_kana": null
    }
  ],
  "0042": {
    "postcode": "6980042",
    "prefecture": "島根県",
    "prefecture_kana": "シマネケン",
    "prefecture_code": 32,
    "city": "益田市",
    "city_kana": "マスダシ",
    "town": "中吉田町",
    "town_kana": "ナカヨシダチョウ",
    "street": null,
    "office_name": null,
    "office_name_kana": null
  },
  "0043": {
    "postcode": "6980043",
    "prefecture": "島根県",
    "prefecture_kana": "シマネケン",
    "prefecture_code": 32,
    "city": "益田市",
    "city_kana": "マスダシ",
    "town": "中島町",
    "town_kana": "ナカノシマチョウ",
    "street": null,
    "office_name": null,
    "office_name_kana": null
  },
  "0044": {
    "postcode": "6980044",
    "prefecture": "島根県",
    "prefecture_kana": "シマネケン",
    "prefecture_code": 32,
    "city": "益田市",
    "city_kana": "マスダシ",
    "town": "中須町",
    "town_kana": "ナカズチョウ",
    "street": null,
    "office_name": null,
    "office_name_kana": null
  },
  "0045": {
    "postcode": "6980045",
    "prefecture": "島根県",
    "prefecture_kana": "シマネケン",
    "prefecture_code": 32,
    "city": "益田市",
    "city_kana": "マスダシ",
    "town": "かもしま北町",
    "town_kana": "カモシマキタマチ",
    "street": null,
    "office_name": null,
    "office_name_kana": null
  },
  "0046": {
    "postcode": "6980046",
    "prefecture": "島根県",
    "prefecture_kana": "シマネケン",
    "prefecture_code": 32,
    "city": "益田市",
    "city_kana": "マスダシ",
    "town": "かもしま東町",
    "town_kana": "カモシマヒガシマチ",
    "street": null,
    "office_name": null,
    "office_name_kana": null
  },
  "0047": {
    "postcode": "6980047",
    "prefecture": "島根県",
    "prefecture_kana": "シマネケン",
    "prefecture_code": 32,
    "city": "益田市",
    "city_kana": "マスダシ",
    "town": "かもしま西町",
    "town_kana": "カモシマニシマチ",
    "street": null,
    "office_name": null,
    "office_name_kana": null
  },
  "0051": [
    {
      "postcode": "6980051",
      "prefecture": "島根県",
      "prefecture_kana": "シマネケン",
      "prefecture_code": 32,
      "city": "益田市",
      "city_kana": "マスダシ",
      "town": "内田町",
      "town_kana": "ウチダチョウ",
      "street": null,
      "office_name": null,
      "office_name_kana": null
    },
    {
      "postcode": "6980051",
      "prefecture": "島根県",
      "prefecture_kana": "シマネケン",
      "prefecture_code": 32,
      "city": "益田市",
      "city_kana": "マスダシ",
      "town": "内田町石見空港",
      "town_kana": "ウチダチョウイワミクウコウ",
      "street": null,
      "office_name": null,
      "office_name_kana": null
    }
  ],
  "0201": {
    "postcode": "6980201",
    "prefecture": "島根県",
    "prefecture_kana": "シマネケン",
    "prefecture_code": 32,
    "city": "益田市",
    "city_kana": "マスダシ",
    "town": "美都町板井川",
    "town_kana": "ミトチョウイタイガワ",
    "street": null,
    "office_name": null,
    "office_name_kana": null
  },
  "0202": {
    "postcode": "6980202",
    "prefecture": "島根県",
    "prefecture_kana": "シマネケン",
    "prefecture_code": 32,
    "city": "益田市",
    "city_kana": "マスダシ",
    "town": "美都町宇津川",
    "town_kana": "ミトチョウウヅカワ",
    "street": null,
    "office_name": null,
    "office_name_kana": null
  },
  "0203": {
    "postcode": "6980203",
    "prefecture": "島根県",
    "prefecture_kana": "シマネケン",
    "prefecture_code": 32,
    "city": "益田市",
    "city_kana": "マスダシ",
    "town": "美都町都茂",
    "town_kana": "ミトチョウツモ",
    "street": null,
    "office_name": null,
    "office_name_kana": null
  },
  "0204": {
    "postcode": "6980204",
    "prefecture": "島根県",
    "prefecture_kana": "シマネケン",
    "prefecture_code": 32,
    "city": "益田市",
    "city_kana": "マスダシ",
    "town": "美都町山本",
    "town_kana": "ミトチョウヤマモト",
    "street": null,
    "office_name": null,
    "office_name_kana": null
  },
  "0205": {
    "postcode": "6980205",
    "prefecture": "島根県",
    "prefecture_kana": "シマネケン",
    "prefecture_code": 32,
    "city": "益田市",
    "city_kana": "マスダシ",
    "town": "美都町三谷",
    "town_kana": "ミトチョウミタニ",
    "street": null,
    "office_name": null,
    "office_name_kana": null
  },
  "0206": {
    "postcode": "6980206",
    "prefecture": "島根県",
    "prefecture_kana": "シマネケン",
    "prefecture_code": 32,
    "city": "益田市",
    "city_kana": "マスダシ",
    "town": "美都町久原",
    "town_kana": "ミトチョウクバラ",
    "street": null,
    "office_name": null,
    "office_name_kana": null
  },
  "0207": {
    "postcode": "6980207",
    "prefecture": "島根県",
    "prefecture_kana": "シマネケン",
    "prefecture_code": 32,
    "city": "益田市",
    "city_kana": "マスダシ",
    "town": "美都町丸茂",
    "town_kana": "ミトチョウマルモ",
    "street": null,
    "office_name": null,
    "office_name_kana": null
  },
  "0211": {
    "postcode": "6980211",
    "prefecture": "島根県",
    "prefecture_kana": "シマネケン",
    "prefecture_code": 32,
    "city": "益田市",
    "city_kana": "マスダシ",
    "town": "美都町小原",
    "town_kana": "ミトチョウコバラ",
    "street": null,
    "office_name": null,
    "office_name_kana": null
  },
  "0212": {
    "postcode": "6980212",
    "prefecture": "島根県",
    "prefecture_kana": "シマネケン",
    "prefecture_code": 32,
    "city": "益田市",
    "city_kana": "マスダシ",
    "town": "美都町仙道",
    "town_kana": "ミトチョウセンドウ",
    "street": null,
    "office_name": null,
    "office_name_kana": null
  },
  "0213": {
    "postcode": "6980213",
    "prefecture": "島根県",
    "prefecture_kana": "シマネケン",
    "prefecture_code": 32,
    "city": "益田市",
    "city_kana": "マスダシ",
    "town": "美都町朝倉",
    "town_kana": "ミトチョウアサクラ",
    "street": null,
    "office_name": null,
    "office_name_kana": null
  },
  "0214": {
    "postcode": "6980214",
    "prefecture": "島根県",
    "prefecture_kana": "シマネケン",
    "prefecture_code": 32,
    "city": "益田市",
    "city_kana": "マスダシ",
    "town": "美都町笹倉",
    "town_kana": "ミトチョウササクラ",
    "street": null,
    "office_name": null,
    "office_name_kana": null
  },
  "0292": {
    "postcode": "6980292",
    "prefecture": "島根県",
    "prefecture_kana": "シマネケン",
    "prefecture_code": 32,
    "city": "益田市",
    "city_kana": "マスダシ",
    "town": "美都町都茂",
    "town_kana": "ミトチョウツモ",
    "street": "１８０３−１",
    "office_name": "益田市役所美都総合支所",
    "office_name_kana": "マスダシヤクシヨミトソウゴウシシヨ"
  },
  "0411": {
    "postcode": "6980411",
    "prefecture": "島根県",
    "prefecture_kana": "シマネケン",
    "prefecture_code": 32,
    "city": "益田市",
    "city_kana": "マスダシ",
    "town": "波田町",
    "town_kana": "ハダチョウ",
    "street": null,
    "office_name": null,
    "office_name_kana": null
  },
  "0412": {
    "postcode": "6980412",
    "prefecture": "島根県",
    "prefecture_kana": "シマネケン",
    "prefecture_code": 32,
    "city": "益田市",
    "city_kana": "マスダシ",
    "town": "長沢町",
    "town_kana": "ナガサワチョウ",
    "street": null,
    "office_name": null,
    "office_name_kana": null
  },
  "0413": {
    "postcode": "6980413",
    "prefecture": "島根県",
    "prefecture_kana": "シマネケン",
    "prefecture_code": 32,
    "city": "益田市",
    "city_kana": "マスダシ",
    "town": "馬谷町",
    "town_kana": "ウマダニチョウ",
    "street": null,
    "office_name": null,
    "office_name_kana": null
  },
  "0414": {
    "postcode": "6980414",
    "prefecture": "島根県",
    "prefecture_kana": "シマネケン",
    "prefecture_code": 32,
    "city": "益田市",
    "city_kana": "マスダシ",
    "town": "下波田町",
    "town_kana": "シモハダチョウ",
    "street": null,
    "office_name": null,
    "office_name_kana": null
  },
  "1201": {
    "postcode": "6981201",
    "prefecture": "島根県",
    "prefecture_kana": "シマネケン",
    "prefecture_code": 32,
    "city": "益田市",
    "city_kana": "マスダシ",
    "town": "匹見町道川",
    "town_kana": "ヒキミチョウミチカワ",
    "street": null,
    "office_name": null,
    "office_name_kana": null
  },
  "1211": {
    "postcode": "6981211",
    "prefecture": "島根県",
    "prefecture_kana": "シマネケン",
    "prefecture_code": 32,
    "city": "益田市",
    "city_kana": "マスダシ",
    "town": "匹見町匹見",
    "town_kana": "ヒキミチョウヒキミ",
    "street": null,
    "office_name": null,
    "office_name_kana": null
  },
  "1212": {
    "postcode": "6981212",
    "prefecture": "島根県",
    "prefecture_kana": "シマネケン",
    "prefecture_code": 32,
    "city": "益田市",
    "city_kana": "マスダシ",
    "town": "匹見町紙祖",
    "town_kana": "ヒキミチョウシソ",
    "street": null,
    "office_name": null,
    "office_name_kana": null
  },
  "1213": {
    "postcode": "6981213",
    "prefecture": "島根県",
    "prefecture_kana": "シマネケン",
    "prefecture_code": 32,
    "city": "益田市",
    "city_kana": "マスダシ",
    "town": "匹見町落合",
    "town_kana": "ヒキミチョウオチアイ",
    "street": null,
    "office_name": null,
    "office_name_kana": null
  },
  "1221": {
    "postcode": "6981221",
    "prefecture": "島根県",
    "prefecture_kana": "シマネケン",
    "prefecture_code": 32,
    "city": "益田市",
    "city_kana": "マスダシ",
    "town": "匹見町澄川",
    "town_kana": "ヒキミチョウスミカワ",
    "street": null,
    "office_name": null,
    "office_name_kana": null
  },
  "1222": {
    "postcode": "6981222",
    "prefecture": "島根県",
    "prefecture_kana": "シマネケン",
    "prefecture_code": 32,
    "city": "益田市",
    "city_kana": "マスダシ",
    "town": "匹見町広瀬",
    "town_kana": "ヒキミチョウヒロセ",
    "street": null,
    "office_name": null,
    "office_name_kana": null
  },
  "1223": {
    "postcode": "6981223",
    "prefecture": "島根県",
    "prefecture_kana": "シマネケン",
    "prefecture_code": 32,
    "city": "益田市",
    "city_kana": "マスダシ",
    "town": "匹見町石谷",
    "town_kana": "ヒキミチョウイシタニ",
    "street": null,
    "office_name": null,
    "office_name_kana": null
  },
  "2141": {
    "postcode": "6982141",
    "prefecture": "島根県",
    "prefecture_kana": "シマネケン",
    "prefecture_code": 32,
    "city": "益田市",
    "city_kana": "マスダシ",
    "town": "白上町",
    "town_kana": "シラカミチョウ",
    "street": null,
    "office_name": null,
    "office_name_kana": null
  },
  "2142": {
    "postcode": "6982142",
    "prefecture": "島根県",
    "prefecture_kana": "シマネケン",
    "prefecture_code": 32,
    "city": "益田市",
    "city_kana": "マスダシ",
    "town": "市原町",
    "town_kana": "イチハラチョウ",
    "street": null,
    "office_name": null,
    "office_name_kana": null
  },
  "2143": {
    "postcode": "6982143",
    "prefecture": "島根県",
    "prefecture_kana": "シマネケン",
    "prefecture_code": 32,
    "city": "益田市",
    "city_kana": "マスダシ",
    "town": "内田町",
    "town_kana": "ウチダチョウ",
    "street": null,
    "office_name": null,
    "office_name_kana": null
  },
  "2144": {
    "postcode": "6982144",
    "prefecture": "島根県",
    "prefecture_kana": "シマネケン",
    "prefecture_code": 32,
    "city": "益田市",
    "city_kana": "マスダシ",
    "town": "虫追町",
    "town_kana": "ムソウチョウ",
    "street": null,
    "office_name": null,
    "office_name_kana": null
  },
  "2145": {
    "postcode": "6982145",
    "prefecture": "島根県",
    "prefecture_kana": "シマネケン",
    "prefecture_code": 32,
    "city": "益田市",
    "city_kana": "マスダシ",
    "town": "川登町",
    "town_kana": "カワノボリチョウ",
    "street": null,
    "office_name": null,
    "office_name_kana": null
  },
  "2146": {
    "postcode": "6982146",
    "prefecture": "島根県",
    "prefecture_kana": "シマネケン",
    "prefecture_code": 32,
    "city": "益田市",
    "city_kana": "マスダシ",
    "town": "中垣内町",
    "town_kana": "ナカガウチチョウ",
    "street": null,
    "office_name": null,
    "office_name_kana": null
  },
  "2251": {
    "postcode": "6982251",
    "prefecture": "島根県",
    "prefecture_kana": "シマネケン",
    "prefecture_code": 32,
    "city": "益田市",
    "city_kana": "マスダシ",
    "town": "黒周町",
    "town_kana": "クロスチョウ",
    "street": null,
    "office_name": null,
    "office_name_kana": null
  },
  "2252": {
    "postcode": "6982252",
    "prefecture": "島根県",
    "prefecture_kana": "シマネケン",
    "prefecture_code": 32,
    "city": "益田市",
    "city_kana": "マスダシ",
    "town": "柏原町",
    "town_kana": "カシバラチョウ",
    "street": null,
    "office_name": null,
    "office_name_kana": null
  },
  "2253": {
    "postcode": "6982253",
    "prefecture": "島根県",
    "prefecture_kana": "シマネケン",
    "prefecture_code": 32,
    "city": "益田市",
    "city_kana": "マスダシ",
    "town": "愛栄町",
    "town_kana": "アサカチョウ",
    "street": null,
    "office_name": null,
    "office_name_kana": null
  },
  "2254": {
    "postcode": "6982254",
    "prefecture": "島根県",
    "prefecture_kana": "シマネケン",
    "prefecture_code": 32,
    "city": "益田市",
    "city_kana": "マスダシ",
    "town": "桂平町",
    "town_kana": "カツラヒラチョウ",
    "street": null,
    "office_name": null,
    "office_name_kana": null
  },
  "2255": {
    "postcode": "6982255",
    "prefecture": "島根県",
    "prefecture_kana": "シマネケン",
    "prefecture_code": 32,
    "city": "益田市",
    "city_kana": "マスダシ",
    "town": "上黒谷町",
    "town_kana": "カミクロダニチョウ",
    "street": null,
    "office_name": null,
    "office_name_kana": null
  },
  "8501": {
    "postcode": "6988501",
    "prefecture": "島根県",
    "prefecture_kana": "シマネケン",
    "prefecture_code": 32,
    "city": "益田市",
    "city_kana": "マスダシ",
    "town": "乙吉町",
    "town_kana": "オトヨシチョウ",
    "street": "イ１０３−１",
    "office_name": "益田赤十字病院",
    "office_name_kana": "マスダセキジユウジビヨウイン"
  },
  "8503": {
    "postcode": "6988503",
    "prefecture": "島根県",
    "prefecture_kana": "シマネケン",
    "prefecture_code": 32,
    "city": "益田市",
    "city_kana": "マスダシ",
    "town": "常盤町",
    "town_kana": "トキワチョウ",
    "street": "４番３８号",
    "office_name": "株式会社　キヌヤ",
    "office_name_kana": "カブシキカイシヤ キヌヤ"
  },
  "8504": {
    "postcode": "6988504",
    "prefecture": "島根県",
    "prefecture_kana": "シマネケン",
    "prefecture_code": 32,
    "city": "益田市",
    "city_kana": "マスダシ",
    "town": "高津",
    "town_kana": "タカツ",
    "street": "７丁目２１−１２",
    "office_name": "株式会社　イズミゆめタウン益田",
    "office_name_kana": "カブシキカイシヤ イズミユメタウンマスダ"
  },
  "8505": {
    "postcode": "6988505",
    "prefecture": "島根県",
    "prefecture_kana": "シマネケン",
    "prefecture_code": 32,
    "city": "益田市",
    "city_kana": "マスダシ",
    "town": "乙吉町",
    "town_kana": "オトヨシチョウ",
    "street": "イ９５−１０",
    "office_name": "益田サティ",
    "office_name_kana": "マスダサテイ"
  },
  "8506": {
    "postcode": "6988506",
    "prefecture": "島根県",
    "prefecture_kana": "シマネケン",
    "prefecture_code": 32,
    "city": "益田市",
    "city_kana": "マスダシ",
    "town": "駅前町",
    "town_kana": "エキマエチョウ",
    "street": "１７−１益田駅前ビルＥＡＧＡ３Ｆ",
    "office_name": "ソニーネットワークコミュニケーションズ　株式会社",
    "office_name_kana": "ソニ-ネツトワ-クコミユニケ-シヨンズ カブシキガイシヤ"
  },
  "8650": {
    "postcode": "6988650",
    "prefecture": "島根県",
    "prefecture_kana": "シマネケン",
    "prefecture_code": 32,
    "city": "益田市",
    "city_kana": "マスダシ",
    "town": "常盤町",
    "town_kana": "トキワチョウ",
    "street": "１−１（益田郵便局私書箱第４号）",
    "office_name": "益田市役所",
    "office_name_kana": "マスダシヤクシヨ"
  },
  "8651": {
    "postcode": "6988651",
    "prefecture": "島根県",
    "prefecture_kana": "シマネケン",
    "prefecture_code": 32,
    "city": "益田市",
    "city_kana": "マスダシ",
    "town": "元町",
    "town_kana": "モトマチ",
    "street": "１２−１１（益田郵便局私書箱第５号）",
    "office_name": "益田　税務署",
    "office_name_kana": "マスダ ゼイムシヨ"
  }
}