{
  "8001": {
    "postcode": "7028001",
    "prefecture": "岡山県",
    "prefecture_kana": "オカヤマケン",
    "prefecture_code": 33,
    "city": "岡山市中区",
    "city_kana": "オカヤマシナカク",
    "town": "沖元",
    "town_kana": "オキモト",
    "street": null,
    "office_name": null,
    "office_name_kana": null
  },
  "8002": {
    "postcode": "7028002",
    "prefecture": "岡山県",
    "prefecture_kana": "オカヤマケン",
    "prefecture_code": 33,
    "city": "岡山市中区",
    "city_kana": "オカヤマシナカク",
    "town": "桑野",
    "town_kana": "クワノ",
    "street": null,
    "office_name": null,
    "office_name_kana": null
  },
  "8003": {
    "postcode": "7028003",
    "prefecture": "岡山県",
    "prefecture_kana": "オカヤマケン",
    "prefecture_code": 33,
    "city": "岡山市中区",
    "city_kana": "オカヤマシナカク",
    "town": "新築港",
    "town_kana": "シンチッコウ",
    "street": null,
    "office_name": null,
    "office_name_kana": null
  },
  "8004": {
    "postcode": "7028004",
    "prefecture": "岡山県",
    "prefecture_kana": "オカヤマケン",
    "prefecture_code": 33,
    "city": "岡山市中区",
    "city_kana": "オカヤマシナカク",
    "town": "江並",
    "town_kana": "エナミ",
    "street": null,
    "office_name": null,
    "office_name_kana": null
  },
  "8005": {
    "postcode": "7028005",
    "prefecture": "岡山県",
    "prefecture_kana": "オカヤマケン",
    "prefecture_code": 33,
    "city": "岡山市中区",
    "city_kana": "オカヤマシナカク",
    "town": "江崎",
    "town_kana": "エザキ",
    "street": null,
    "office_name": null,
    "office_name_kana": null
  },
  "8006": {
    "postcode": "7028006",
    "prefecture": "岡山県",
    "prefecture_kana": "オカヤマケン",
    "prefecture_code": 33,
    "city": "岡山市中区",
    "city_kana": "オカヤマシナカク",
    "town": "藤崎",
    "town_kana": "フジサキ",
    "street": null,
    "office_name": null,
    "office_name_kana": null
  },
  "8011": {
    "postcode": "7028011",
    "prefecture": "岡山県",
    "prefecture_kana": "オカヤマケン",
    "prefecture_code": 33,
    "city": "岡山市南区",
    "city_kana": "オカヤマシミナミク",
    "town": "郡",
    "town_kana": "コオリ",
    "street": null,
    "office_name": null,
    "office_name_kana": null
  },
  "8012": {
    "postcode": "7028012",
    "prefecture": "岡山県",
    "prefecture_kana": "オカヤマケン",
    "prefecture_code": 33,
    "city": "岡山市南区",
    "city_kana": "オカヤマシミナミク",
    "town": "北浦",
    "town_kana": "キタウラ",
    "street": null,
    "office_name": null,
    "office_name_kana": null
  },
  "8013": {
    "postcode": "7028013",
    "prefecture": "岡山県",
    "prefecture_kana": "オカヤマケン",
    "prefecture_code": 33,
    "city": "岡山市南区",
    "city_kana": "オカヤマシミナミク",
    "town": "飽浦",
    "town_kana": "アクラ",
    "street": null,
    "office_name": null,
    "office_name_kana": null
  },
  "8014": {
    "postcode": "7028014",
    "prefecture": "岡山県",
    "prefecture_kana": "オカヤマケン",
    "prefecture_code": 33,
    "city": "岡山市南区",
    "city_kana": "オカヤマシミナミク",
    "town": "宮浦",
    "town_kana": "ミヤウラ",
    "street": null,
    "office_name": null,
    "office_name_kana": null
  },
  "8015": {
    "postcode": "7028015",
    "prefecture": "岡山県",
    "prefecture_kana": "オカヤマケン",
    "prefecture_code": 33,
    "city": "岡山市南区",
    "city_kana": "オカヤマシミナミク",
    "town": "阿津",
    "town_kana": "アツ",
    "street": null,
    "office_name": null,
    "office_name_kana": null
  },
  "8016": {
    "postcode": "7028016",
    "prefecture": "岡山県",
    "prefecture_kana": "オカヤマケン",
    "prefecture_code": 33,
    "city": "岡山市南区",
    "city_kana": "オカヤマシミナミク",
    "town": "小串",
    "town_kana": "コグシ",
    "street": null,
    "office_name": null,
    "office_name_kana": null
  },
  "8021": {
    "postcode": "7028021",
    "prefecture": "岡山県",
    "prefecture_kana": "オカヤマケン",
    "prefecture_code": 33,
    "city": "岡山市南区",
    "city_kana": "オカヤマシミナミク",
    "town": "福田",
    "town_kana": "フクダ",
    "street": null,
    "office_name": null,
    "office_name_kana": null
  },
  "8022": {
    "postcode": "7028022",
    "prefecture": "岡山県",
    "prefecture_kana": "オカヤマケン",
    "prefecture_code": 33,
    "city": "岡山市南区",
    "city_kana": "オカヤマシミナミク",
    "town": "福成",
    "town_kana": "フクナリ",
    "street": null,
    "office_name": null,
    "office_name_kana": null
  },
  "8023": {
    "postcode": "7028023",
    "prefecture": "岡山県",
    "prefecture_kana": "オカヤマケン",
    "prefecture_code": 33,
    "city": "岡山市南区",
    "city_kana": "オカヤマシミナミク",
    "town": "南輝",
    "town_kana": "ナンキ",
    "street": null,
    "office_name": null,
    "office_name_kana": null
  },
  "8024": {
    "postcode": "7028024",
    "prefecture": "岡山県",
    "prefecture_kana": "オカヤマケン",
    "prefecture_code": 33,
    "city": "岡山市南区",
    "city_kana": "オカヤマシミナミク",
    "town": "浦安南町",
    "town_kana": "ウラヤスミナミマチ",
    "street": null,
    "office_name": null,
    "office_name_kana": null
  },
  "8025": {
    "postcode": "7028025",
    "prefecture": "岡山県",
    "prefecture_kana": "オカヤマケン",
    "prefecture_code": 33,
    "city": "岡山市南区",
    "city_kana": "オカヤマシミナミク",
    "town": "浦安西町",
    "town_kana": "ウラヤスニシマチ",
    "street": null,
    "office_name": null,
    "office_name_kana": null
  },
  "8026": {
    "postcode": "7028026",
    "prefecture": "岡山県",
    "prefecture_kana": "オカヤマケン",
    "prefecture_code": 33,
    "city": "岡山市南区",
    "city_kana": "オカヤマシミナミク",
    "town": "浦安本町",
    "town_kana": "ウラヤスホンマチ",
    "street": null,
    "office_name": null,
    "office_name_kana": null
  },
  "8027": {
    "postcode": "7028027",
    "prefecture": "岡山県",
    "prefecture_kana": "オカヤマケン",
    "prefecture_code": 33,
    "city": "岡山市南区",
    "city_kana": "オカヤマシミナミク",
    "town": "芳泉",
    "town_kana": "ホウセン",
    "street": null,
    "office_name": null,
    "office_name_kana": null
  },
  "8031": {
    "postcode": "7028031",
    "prefecture": "岡山県",
    "prefecture_kana": "オカヤマケン",
    "prefecture_code": 33,
    "city": "岡山市南区",
    "city_kana": "オカヤマシミナミク",
    "town": "福富西",
    "town_kana": "フクトミニシ",
    "street": null,
    "office_name": null,
    "office_name_kana": null
  },
  "8032": {
    "postcode": "7028032",
    "prefecture": "岡山県",
    "prefecture_kana": "オカヤマケン",
    "prefecture_code": 33,
    "city": "岡山市南区",
    "city_kana": "オカヤマシミナミク",
    "town": "福富中",
    "town_kana": "フクトミナカ",
    "street": null,
    "office_name": null,
    "office_name_kana": null
  },
  "8033": {
    "postcode": "7028033",
    "prefecture": "岡山県",
    "prefecture_kana": "オカヤマケン",
    "prefecture_code": 33,
    "city": "岡山市南区",
    "city_kana": "オカヤマシミナミク",
    "town": "福富東",
    "town_kana": "フクトミヒガシ",
    "street": null,
    "office_name": null,
    "office_name_kana": null
  },
  "8034": {
    "postcode": "7028034",
    "prefecture": "岡山県",
    "prefecture_kana": "オカヤマケン",
    "prefecture_code": 33,
    "city": "岡山市南区",
    "city_kana": "オカヤマシミナミク",
    "town": "福浜西町",
    "town_kana": "フクハマニシマチ",
    "street": null,
    "office_name": null,
    "office_name_kana": null
  },
  "8035": {
    "postcode": "7028035",
    "prefecture": "岡山県",
    "prefecture_kana": "オカヤマケン",
    "prefecture_code": 33,
    "city": "岡山市南区",
    "city_kana": "オカヤマシミナミク",
    "town": "福浜町",
    "town_kana": "フクハマチョウ",
    "street": null,
    "office_name": null,
    "office_name_kana": null
  },
  "8036": {
    "postcode": "7028036",
    "prefecture": "岡山県",
    "prefecture_kana": "オカヤマケン",
    "prefecture_code": 33,
    "city": "岡山市南区",
    "city_kana": "オカヤマシミナミク",
    "town": "三浜町",
    "town_kana": "ミハマチョウ",
    "street": null,
    "office_name": null,
    "office_name_kana": null
  },
  "8037": {
    "postcode": "7028037",
    "prefecture": "岡山県",
    "prefecture_kana": "オカヤマケン",
    "prefecture_code": 33,
    "city": "岡山市南区",
    "city_kana": "オカヤマシミナミク",
    "town": "千鳥町",
    "town_kana": "チドリチョウ",
    "street": null,
    "office_name": null,
    "office_name_kana": null
  },
  "8038": {
    "postcode": "7028038",
    "prefecture": "岡山県",
    "prefecture_kana": "オカヤマケン",
    "prefecture_code": 33,
    "city": "岡山市南区",
    "city_kana": "オカヤマシミナミク",
    "town": "松浜町",
    "town_kana": "マツハマチョウ",
    "street": null,
    "office_name": null,
    "office_name_kana": null
  },
  "8041": {
    "postcode": "7028041",
    "prefecture": "岡山県",
    "prefecture_kana": "オカヤマケン",
    "prefecture_code": 33,
    "city": "岡山市南区",
    "city_kana": "オカヤマシミナミク",
    "town": "富浜町",
    "town_kana": "トミハマチョウ",
    "street": null,
    "office_name": null,
    "office_name_kana": null
  },
  "8042": {
    "postcode": "7028042",
    "prefecture": "岡山県",
    "prefecture_kana": "オカヤマケン",
    "prefecture_code": 33,
    "city": "岡山市南区",
    "city_kana": "オカヤマシミナミク",
    "town": "洲崎",
    "town_kana": "スザキ",
    "street": null,
    "office_name": null,
    "office_name_kana": null
  },
  "8043": {
    "postcode": "7028043",
    "prefecture": "岡山県",
    "prefecture_kana": "オカヤマケン",
    "prefecture_code": 33,
    "city": "岡山市南区",
    "city_kana": "オカヤマシミナミク",
    "town": "平福",
    "town_kana": "ヒラフク",
    "street": null,
    "office_name": null,
    "office_name_kana": null
  },
  "8044": {
    "postcode": "7028044",
    "prefecture": "岡山県",
    "prefecture_kana": "オカヤマケン",
    "prefecture_code": 33,
    "city": "岡山市南区",
    "city_kana": "オカヤマシミナミク",
    "town": "福島",
    "town_kana": "フクシマ",
    "street": null,
    "office_name": null,
    "office_name_kana": null
  },
  "8045": {
    "postcode": "7028045",
    "prefecture": "岡山県",
    "prefecture_kana": "オカヤマケン",
    "prefecture_code": 33,
    "city": "岡山市南区",
    "city_kana": "オカヤマシミナミク",
    "town": "海岸通",
    "town_kana": "カイガンドオリ",
    "street": null,
    "office_name": null,
    "office_name_kana": null
  },
  "8046": {
    "postcode": "7028046",
    "prefecture": "岡山県",
    "prefecture_kana": "オカヤマケン",
    "prefecture_code": 33,
    "city": "岡山市南区",
    "city_kana": "オカヤマシミナミク",
    "town": "立川町",
    "town_kana": "タチカワチョウ",
    "street": null,
    "office_name": null,
    "office_name_kana": null
  },
  "8047": {
    "postcode": "7028047",
    "prefecture": "岡山県",
    "prefecture_kana": "オカヤマケン",
    "prefecture_code": 33,
    "city": "岡山市南区",
    "city_kana": "オカヤマシミナミク",
    "town": "若葉町",
    "town_kana": "ワカバチョウ",
    "street": null,
    "office_name": null,
    "office_name_kana": null
  },
  "8048": {
    "postcode": "7028048",
    "prefecture": "岡山県",
    "prefecture_kana": "オカヤマケン",
    "prefecture_code": 33,
    "city": "岡山市南区",
    "city_kana": "オカヤマシミナミク",
    "town": "福吉町",
    "town_kana": "フクヨシチョウ",
    "street": null,
    "office_name": null,
    "office_name_kana": null
  },
  "8051": {
    "postcode": "7028051",
    "prefecture": "岡山県",
    "prefecture_kana": "オカヤマケン",
    "prefecture_code": 33,
    "city": "岡山市南区",
    "city_kana": "オカヤマシミナミク",
    "town": "築港元町",
    "town_kana": "チッコウモトマチ",
    "street": null,
    "office_name": null,
    "office_name_kana": null
  },
  "8052": {
    "postcode": "7028052",
    "prefecture": "岡山県",
    "prefecture_kana": "オカヤマケン",
    "prefecture_code": 33,
    "city": "岡山市南区",
    "city_kana": "オカヤマシミナミク",
    "town": "市場",
    "town_kana": "シジョウ",
    "street": null,
    "office_name": null,
    "office_name_kana": null
  },
  "8053": {
    "postcode": "7028053",
    "prefecture": "岡山県",
    "prefecture_kana": "オカヤマケン",
    "prefecture_code": 33,
    "city": "岡山市南区",
    "city_kana": "オカヤマシミナミク",
    "town": "築港栄町",
    "town_kana": "チッコウサカエマチ",
    "street": null,
    "office_name": null,
    "office_name_kana": null
  },
  "8054": {
    "postcode": "7028054",
    "prefecture": "岡山県",
    "prefecture_kana": "オカヤマケン",
    "prefecture_code": 33,
    "city": "岡山市南区",
    "city_kana": "オカヤマシミナミク",
    "town": "築港ひかり町",
    "town_kana": "チッコウヒカリマチ",
    "street": null,
    "office_name": null,
    "office_name_kana": null
  },
  "8055": {
    "postcode": "7028055",
    "prefecture": "岡山県",
    "prefecture_kana": "オカヤマケン",
    "prefecture_code": 33,
    "city": "岡山市南区",
    "city_kana": "オカヤマシミナミク",
    "town": "築港緑町",
    "town_kana": "チッコウミドリマチ",
    "street": null,
    "office_name": null,
    "office_name_kana": null
  },
  "8056": {
    "postcode": "7028056",
    "prefecture": "岡山県",
    "prefecture_kana": "オカヤマケン",
    "prefecture_code": 33,
    "city": "岡山市南区",
    "city_kana": "オカヤマシミナミク",
    "town": "築港新町",
    "town_kana": "チッコウシンマチ",
    "street": null,
    "office_name": null,
    "office_name_kana": null
  },
  "8057": {
    "postcode": "7028057",
    "prefecture": "岡山県",
    "prefecture_kana": "オカヤマケン",
    "prefecture_code": 33,
    "city": "岡山市南区",
    "city_kana": "オカヤマシミナミク",
    "town": "あけぼの町",
    "town_kana": "アケボノチョウ",
    "street": null,
    "office_name": null,
    "office_name_kana": null
  },
  "8058": {
    "postcode": "7028058",
    "prefecture": "岡山県",
    "prefecture_kana": "オカヤマケン",
    "prefecture_code": 33,
    "city": "岡山市南区",
    "city_kana": "オカヤマシミナミク",
    "town": "並木町",
    "town_kana": "ナミキチョウ",
    "street": null,
    "office_name": null,
    "office_name_kana": null
  },
  "8501": {
    "postcode": "7028501",
    "prefecture": "岡山県",
    "prefecture_kana": "オカヤマケン",
    "prefecture_code": 33,
    "city": "岡山市南区",
    "city_kana": "オカヤマシミナミク",
    "town": "築港新町",
    "town_kana": "チッコウシンマチ",
    "street": "１丁目２４−２１",
    "office_name": "株式会社　源吉兆庵",
    "office_name_kana": "カブシキガイシヤ ミナモトキツチヨウアン"
  },
  "8502": {
    "postcode": "7028502",
    "prefecture": "岡山県",
    "prefecture_kana": "オカヤマケン",
    "prefecture_code": 33,
    "city": "岡山市中区",
    "city_kana": "オカヤマシナカク",
    "town": "桑野",
    "town_kana": "クワノ",
    "street": "７０９−６",
    "office_name": "株式会社　アルファ",
    "office_name_kana": "カブシキガイシヤ アルフア"
  },
  "8503": {
    "postcode": "7028503",
    "prefecture": "岡山県",
    "prefecture_kana": "オカヤマケン",
    "prefecture_code": 33,
    "city": "岡山市南区",
    "city_kana": "オカヤマシミナミク",
    "town": "芳泉",
    "town_kana": "ホウセン",
    "street": "３丁目１−１",
    "office_name": "岡山県立　岡山芳泉高等学校",
    "office_name_kana": "オカヤマケンリツ オカヤマホウセンコウトウガツコウ"
  },
  "8505": {
    "postcode": "7028505",
    "prefecture": "岡山県",
    "prefecture_kana": "オカヤマケン",
    "prefecture_code": 33,
    "city": "岡山市南区",
    "city_kana": "オカヤマシミナミク",
    "town": "築港緑町",
    "town_kana": "チッコウミドリマチ",
    "street": "１丁目１０−２５",
    "office_name": "岡山労災病院",
    "office_name_kana": "オカヤマロウサイビヨウイン"
  },
  "8506": {
    "postcode": "7028506",
    "prefecture": "岡山県",
    "prefecture_kana": "オカヤマケン",
    "prefecture_code": 33,
    "city": "岡山市南区",
    "city_kana": "オカヤマシミナミク",
    "town": "海岸通",
    "town_kana": "カイガンドオリ",
    "street": "１丁目３−１",
    "office_name": "同和鉱業　株式会社",
    "office_name_kana": "ドウワコウギヨウ カブシキガイシヤ"
  },
  "8507": {
    "postcode": "7028507",
    "prefecture": "岡山県",
    "prefecture_kana": "オカヤマケン",
    "prefecture_code": 33,
    "city": "岡山市南区",
    "city_kana": "オカヤマシミナミク",
    "town": "築港元町",
    "town_kana": "チッコウモトマチ",
    "street": "１３−５",
    "office_name": "三井製糖　株式会社　岡山工場",
    "office_name_kana": "ミツイセイトウ カブシキガイシヤ オカヤマコウジヨウ"
  },
  "8508": {
    "postcode": "7028508",
    "prefecture": "岡山県",
    "prefecture_kana": "オカヤマケン",
    "prefecture_code": 33,
    "city": "岡山市南区",
    "city_kana": "オカヤマシミナミク",
    "town": "浦安本町",
    "town_kana": "ウラヤスホンマチ",
    "street": "１００−２",
    "office_name": "財団法人　慈圭会　慈圭病院",
    "office_name_kana": "ザイダンホウジン ジケイカイ ジケイビヨウイン"
  },
  "8510": {
    "postcode": "7028510",
    "prefecture": "岡山県",
    "prefecture_kana": "オカヤマケン",
    "prefecture_code": 33,
    "city": "岡山市南区",
    "city_kana": "オカヤマシミナミク",
    "town": "福成",
    "town_kana": "フクナリ",
    "street": "２丁目１６−３５",
    "office_name": "トラスコ中山　株式会社　岡山支店",
    "office_name_kana": "トラスコナカヤマ カブシキガイシヤ オカヤマシテン"
  },
  "8511": {
    "postcode": "7028511",
    "prefecture": "岡山県",
    "prefecture_kana": "オカヤマケン",
    "prefecture_code": 33,
    "city": "岡山市南区",
    "city_kana": "オカヤマシミナミク",
    "town": "市場",
    "town_kana": "シジョウ",
    "street": "１丁目１",
    "office_name": "株式会社　岡山県水",
    "office_name_kana": "カブシキガイシヤ オカヤマケンスイ"
  },
  "8512": {
    "postcode": "7028512",
    "prefecture": "岡山県",
    "prefecture_kana": "オカヤマケン",
    "prefecture_code": 33,
    "city": "岡山市南区",
    "city_kana": "オカヤマシミナミク",
    "town": "福成",
    "town_kana": "フクナリ",
    "street": "２丁目２３−８",
    "office_name": "双葉電機　株式会社",
    "office_name_kana": "フタバデンキ カブシキガイシヤ"
  },
  "8515": {
    "postcode": "7028515",
    "prefecture": "岡山県",
    "prefecture_kana": "オカヤマケン",
    "prefecture_code": 33,
    "city": "岡山市中区",
    "city_kana": "オカヤマシナカク",
    "town": "江並",
    "town_kana": "エナミ",
    "street": "４２８番地",
    "office_name": "ヤンマーアグリ　株式会社",
    "office_name_kana": "ヤンマ-アグリ カブシキガイシヤ"
  },
  "8544": {
    "postcode": "7028544",
    "prefecture": "岡山県",
    "prefecture_kana": "オカヤマケン",
    "prefecture_code": 33,
    "city": "岡山市南区",
    "city_kana": "オカヤマシミナミク",
    "town": "浦安南町",
    "town_kana": "ウラヤスミナミマチ",
    "street": "４９５番地５",
    "office_name": "岡山市　南区役所",
    "office_name_kana": "オカヤマシ ミナミクヤクシヨ"
  },
  "8601": {
    "postcode": "7028601",
    "prefecture": "岡山県",
    "prefecture_kana": "オカヤマケン",
    "prefecture_code": 33,
    "city": "岡山市南区",
    "city_kana": "オカヤマシミナミク",
    "town": "海岸通",
    "town_kana": "カイガンドオリ",
    "street": "１丁目２−１（岡山南郵便局私書箱第１号）",
    "office_name": "株式会社　クラレ　岡山事業所",
    "office_name_kana": "カブシキカイシヤ クラレ オカヤマジギヨウシヨ"
  },
  "8602": {
    "postcode": "7028602",
    "prefecture": "岡山県",
    "prefecture_kana": "オカヤマケン",
    "prefecture_code": 33,
    "city": "岡山市南区",
    "city_kana": "オカヤマシミナミク",
    "town": "市場",
    "town_kana": "シジョウ",
    "street": "１丁目１（岡山南郵便局私書箱第１４号）",
    "office_name": "株式会社　岡山丸果",
    "office_name_kana": "カブシキガイシヤ オカヤママルカ"
  },
  "8603": {
    "postcode": "7028603",
    "prefecture": "岡山県",
    "prefecture_kana": "オカヤマケン",
    "prefecture_code": 33,
    "city": "岡山市南区",
    "city_kana": "オカヤマシミナミク",
    "town": "福成",
    "town_kana": "フクナリ",
    "street": "２丁目２０−２５（岡山南郵便局私書箱第５号）",
    "office_name": "岡山宮地弘商事　株式会社",
    "office_name_kana": "オカヤマミヤチヒロムシヨウジ カブシキガイシヤ"
  },
  "8605": {
    "postcode": "7028605",
    "prefecture": "岡山県",
    "prefecture_kana": "オカヤマケン",
    "prefecture_code": 33,
    "city": "岡山市南区",
    "city_kana": "オカヤマシミナミク",
    "town": "福成",
    "town_kana": "フクナリ",
    "street": "２丁目１９−２（岡山南郵便局私書箱第１５号）",
    "office_name": "トリツ機工　株式会社",
    "office_name_kana": "トリツキコウ カブシキガイシヤ"
  },
  "8606": {
    "postcode": "7028606",
    "prefecture": "岡山県",
    "prefecture_kana": "オカヤマケン",
    "prefecture_code": 33,
    "city": "岡山市南区",
    "city_kana": "オカヤマシミナミク",
    "town": "福成",
    "town_kana": "フクナリ",
    "street": "２丁目１９−２５（岡山南郵便局私書箱第４号）",
    "office_name": "小林機工　株式会社",
    "office_name_kana": "コバヤシキコウ カブシキガイシヤ"
  },
  "8607": {
    "postcode": "7028607",
    "prefecture": "岡山県",
    "prefecture_kana": "オカヤマケン",
    "prefecture_code": 33,
    "city": "岡山市南区",
    "city_kana": "オカヤマシミナミク",
    "town": "福成",
    "town_kana": "フクナリ",
    "street": "２丁目２２−３（岡山南郵便局私書箱第７号）",
    "office_name": "株式会社　前嶋",
    "office_name_kana": "カブシキガイシヤ マエジマ"
  },
  "8609": {
    "postcode": "7028609",
    "prefecture": "岡山県",
    "prefecture_kana": "オカヤマケン",
    "prefecture_code": 33,
    "city": "岡山市南区",
    "city_kana": "オカヤマシミナミク",
    "town": "築港栄町",
    "town_kana": "チッコウサカエマチ",
    "street": "３１−１０（岡山南郵便局私書箱第９号）",
    "office_name": "同和工営　株式会社",
    "office_name_kana": "ドウワコウエイ カブシキガイシヤ"
  }
}