{
  "0901": {
    "postcode": "7110901",
    "prefecture": "岡山県",
    "prefecture_kana": "オカヤマケン",
    "prefecture_code": 33,
    "city": "倉敷市",
    "city_kana": "クラシキシ",
    "town": "児島由加",
    "town_kana": "コジマユガ",
    "street": null,
    "office_name": null,
    "office_name_kana": null
  },
  "0902": {
    "postcode": "7110902",
    "prefecture": "岡山県",
    "prefecture_kana": "オカヤマケン",
    "prefecture_code": 33,
    "city": "倉敷市",
    "city_kana": "クラシキシ",
    "town": "児島白尾",
    "town_kana": "コジマシロオ",
    "street": null,
    "office_name": null,
    "office_name_kana": null
  },
  "0903": {
    "postcode": "7110903",
    "prefecture": "岡山県",
    "prefecture_kana": "オカヤマケン",
    "prefecture_code": 33,
    "city": "倉敷市",
    "city_kana": "クラシキシ",
    "town": "児島田の口",
    "town_kana": "コジマタノクチ",
    "street": null,
    "office_name": null,
    "office_name_kana": null
  },
  "0904": {
    "postcode": "7110904",
    "prefecture": "岡山県",
    "prefecture_kana": "オカヤマケン",
    "prefecture_code": 33,
    "city": "倉敷市",
    "city_kana": "クラシキシ",
    "town": "児島唐琴",
    "town_kana": "コジマカラコト",
    "street": null,
    "office_name": null,
    "office_name_kana": null
  },
  "0905": {
    "postcode": "7110905",
    "prefecture": "岡山県",
    "prefecture_kana": "オカヤマケン",
    "prefecture_code": 33,
    "city": "倉敷市",
    "city_kana": "クラシキシ",
    "town": "児島唐琴町",
    "town_kana": "コジマカラコトチョウ",
    "street": null,
    "office_name": null,
    "office_name_kana": null
  },
  "0906": {
    "postcode": "7110906",
    "prefecture": "岡山県",
    "prefecture_kana": "オカヤマケン",
    "prefecture_code": 33,
    "city": "倉敷市",
    "city_kana": "クラシキシ",
    "town": "児島下の町",
    "town_kana": "コジマシモノチョウ",
    "street": null,
    "office_name": null,
    "office_name_kana": null
  },
  "0907": {
    "postcode": "7110907",
    "prefecture": "岡山県",
    "prefecture_kana": "オカヤマケン",
    "prefecture_code": 33,
    "city": "倉敷市",
    "city_kana": "クラシキシ",
    "town": "児島上の町",
    "town_kana": "コジマカミノチョウ",
    "street": null,
    "office_name": null,
    "office_name_kana": null
  },
  "0911": {
    "postcode": "7110911",
    "prefecture": "岡山県",
    "prefecture_kana": "オカヤマケン",
    "prefecture_code": 33,
    "city": "倉敷市",
    "city_kana": "クラシキシ",
    "town": "児島小川",
    "town_kana": "コジマオガワ",
    "street": null,
    "office_name": null,
    "office_name_kana": null
  },
  "0912": {
    "postcode": "7110912",
    "prefecture": "岡山県",
    "prefecture_kana": "オカヤマケン",
    "prefecture_code": 33,
    "city": "倉敷市",
    "city_kana": "クラシキシ",
    "town": "児島小川町",
    "town_kana": "コジマオガワチョウ",
    "street": null,
    "office_name": null,
    "office_name_kana": null
  },
  "0913": {
    "postcode": "7110913",
    "prefecture": "岡山県",
    "prefecture_kana": "オカヤマケン",
    "prefecture_code": 33,
    "city": "倉敷市",
    "city_kana": "クラシキシ",
    "town": "児島味野",
    "town_kana": "コジマアジノ",
    "street": null,
    "office_name": null,
    "office_name_kana": null
  },
  "0914": {
    "postcode": "7110914",
    "prefecture": "岡山県",
    "prefecture_kana": "オカヤマケン",
    "prefecture_code": 33,
    "city": "倉敷市",
    "city_kana": "クラシキシ",
    "town": "児島味野城",
    "town_kana": "コジマアジノジョウ",
    "street": null,
    "office_name": null,
    "office_name_kana": null
  },
  "0915": {
    "postcode": "7110915",
    "prefecture": "岡山県",
    "prefecture_kana": "オカヤマケン",
    "prefecture_code": 33,
    "city": "倉敷市",
    "city_kana": "クラシキシ",
    "town": "児島味野山田町",
    "town_kana": "コジマアジノヤマダチョウ",
    "street": null,
    "office_name": null,
    "office_name_kana": null
  },
  "0916": {
    "postcode": "7110916",
    "prefecture": "岡山県",
    "prefecture_kana": "オカヤマケン",
    "prefecture_code": 33,
    "city": "倉敷市",
    "city_kana": "クラシキシ",
    "town": "児島味野城山",
    "town_kana": "コジマアジノシロヤマ",
    "street": null,
    "office_name": null,
    "office_name_kana": null
  },
  "0917": {
    "postcode": "7110917",
    "prefecture": "岡山県",
    "prefecture_kana": "オカヤマケン",
    "prefecture_code": 33,
    "city": "倉敷市",
    "city_kana": "クラシキシ",
    "town": "児島味野上",
    "town_kana": "コジマアジノカミ",
    "street": null,
    "office_name": null,
    "office_name_kana": null
  },
  "0921": {
    "postcode": "7110921",
    "prefecture": "岡山県",
    "prefecture_kana": "オカヤマケン",
    "prefecture_code": 33,
    "city": "倉敷市",
    "city_kana": "クラシキシ",
    "town": "児島駅前",
    "town_kana": "コジマエキマエ",
    "street": null,
    "office_name": null,
    "office_name_kana": null
  },
  "0922": {
    "postcode": "7110922",
    "prefecture": "岡山県",
    "prefecture_kana": "オカヤマケン",
    "prefecture_code": 33,
    "city": "倉敷市",
    "city_kana": "クラシキシ",
    "town": "児島元浜町",
    "town_kana": "コジマモトハマチョウ",
    "street": null,
    "office_name": null,
    "office_name_kana": null
  },
  "0923": {
    "postcode": "7110923",
    "prefecture": "岡山県",
    "prefecture_kana": "オカヤマケン",
    "prefecture_code": 33,
    "city": "倉敷市",
    "city_kana": "クラシキシ",
    "town": "児島阿津",
    "town_kana": "コジマアツ",
    "street": null,
    "office_name": null,
    "office_name_kana": null
  },
  "0924": {
    "postcode": "7110924",
    "prefecture": "岡山県",
    "prefecture_kana": "オカヤマケン",
    "prefecture_code": 33,
    "city": "倉敷市",
    "city_kana": "クラシキシ",
    "town": "大畠",
    "town_kana": "オオバタケ",
    "street": null,
    "office_name": null,
    "office_name_kana": null
  },
  "0925": {
    "postcode": "7110925",
    "prefecture": "岡山県",
    "prefecture_kana": "オカヤマケン",
    "prefecture_code": 33,
    "city": "倉敷市",
    "city_kana": "クラシキシ",
    "town": "下津井田之浦",
    "town_kana": "シモツイタノウラ",
    "street": null,
    "office_name": null,
    "office_name_kana": null
  },
  "0926": {
    "postcode": "7110926",
    "prefecture": "岡山県",
    "prefecture_kana": "オカヤマケン",
    "prefecture_code": 33,
    "city": "倉敷市",
    "city_kana": "クラシキシ",
    "town": "下津井吹上",
    "town_kana": "シモツイフキアゲ",
    "street": null,
    "office_name": null,
    "office_name_kana": null
  },
  "0927": {
    "postcode": "7110927",
    "prefecture": "岡山県",
    "prefecture_kana": "オカヤマケン",
    "prefecture_code": 33,
    "city": "倉敷市",
    "city_kana": "クラシキシ",
    "town": "下津井",
    "town_kana": "シモツイ",
    "street": null,
    "office_name": null,
    "office_name_kana": null
  },
  "0931": {
    "postcode": "7110931",
    "prefecture": "岡山県",
    "prefecture_kana": "オカヤマケン",
    "prefecture_code": 33,
    "city": "倉敷市",
    "city_kana": "クラシキシ",
    "town": "児島赤崎",
    "town_kana": "コジマアカサキ",
    "street": null,
    "office_name": null,
    "office_name_kana": null
  },
  "0932": {
    "postcode": "7110932",
    "prefecture": "岡山県",
    "prefecture_kana": "オカヤマケン",
    "prefecture_code": 33,
    "city": "倉敷市",
    "city_kana": "クラシキシ",
    "town": "菰池",
    "town_kana": "コモイケ",
    "street": null,
    "office_name": null,
    "office_name_kana": null
  },
  "0933": {
    "postcode": "7110933",
    "prefecture": "岡山県",
    "prefecture_kana": "オカヤマケン",
    "prefecture_code": 33,
    "city": "倉敷市",
    "city_kana": "クラシキシ",
    "town": "児島通生",
    "town_kana": "コジマカヨウ",
    "street": null,
    "office_name": null,
    "office_name_kana": null
  },
  "0934": {
    "postcode": "7110934",
    "prefecture": "岡山県",
    "prefecture_kana": "オカヤマケン",
    "prefecture_code": 33,
    "city": "倉敷市",
    "city_kana": "クラシキシ",
    "town": "児島塩生",
    "town_kana": "コジマシオナス",
    "street": null,
    "office_name": null,
    "office_name_kana": null
  },
  "0935": {
    "postcode": "7110935",
    "prefecture": "岡山県",
    "prefecture_kana": "オカヤマケン",
    "prefecture_code": 33,
    "city": "倉敷市",
    "city_kana": "クラシキシ",
    "town": "児島宇野津",
    "town_kana": "コジマウノツ",
    "street": null,
    "office_name": null,
    "office_name_kana": null
  },
  "0936": {
    "postcode": "7110936",
    "prefecture": "岡山県",
    "prefecture_kana": "オカヤマケン",
    "prefecture_code": 33,
    "city": "倉敷市",
    "city_kana": "クラシキシ",
    "town": "児島柳田町",
    "town_kana": "コジマヤナイダチョウ",
    "street": null,
    "office_name": null,
    "office_name_kana": null
  },
  "0937": {
    "postcode": "7110937",
    "prefecture": "岡山県",
    "prefecture_kana": "オカヤマケン",
    "prefecture_code": 33,
    "city": "倉敷市",
    "city_kana": "クラシキシ",
    "town": "児島稗田町",
    "town_kana": "コジマヒエダチョウ",
    "street": null,
    "office_name": null,
    "office_name_kana": null
  },
  "8510": {
    "postcode": "7118510",
    "prefecture": "岡山県",
    "prefecture_kana": "オカヤマケン",
    "prefecture_code": 33,
    "city": "倉敷市",
    "city_kana": "クラシキシ",
    "town": "児島塩生",
    "town_kana": "コジマシオナス",
    "street": "字新浜２７６７−１１",
    "office_name": "旭化成ケミカルズ　株式会社　水島製造所",
    "office_name_kana": "アサヒカセイケミカルズ カブシキカイシヤ ミズシマセイゾウシヨ"
  },
  "8511": {
    "postcode": "7118511",
    "prefecture": "岡山県",
    "prefecture_kana": "オカヤマケン",
    "prefecture_code": 33,
    "city": "倉敷市",
    "city_kana": "クラシキシ",
    "town": "児島塩生",
    "town_kana": "コジマシオナス",
    "street": "字新浜２７６７−１",
    "office_name": "日本ゼオン　株式会社　水島工場",
    "office_name_kana": "ニツポンゼオン カブシキガイシヤ ミズシマコウジヨウ"
  },
  "8520": {
    "postcode": "7118520",
    "prefecture": "岡山県",
    "prefecture_kana": "オカヤマケン",
    "prefecture_code": 33,
    "city": "倉敷市",
    "city_kana": "クラシキシ",
    "town": "児島塩生",
    "town_kana": "コジマシオナス",
    "street": "２７６７−２４",
    "office_name": "瀬戸埠頭　株式会社",
    "office_name_kana": "セトフトウ カブシキガイシヤ"
  },
  "8555": {
    "postcode": "7118555",
    "prefecture": "岡山県",
    "prefecture_kana": "オカヤマケン",
    "prefecture_code": 33,
    "city": "倉敷市",
    "city_kana": "クラシキシ",
    "town": "児島駅前",
    "town_kana": "コジマエキマエ",
    "street": "１丁目４６",
    "office_name": "倉敷ファッションセンター　株式会社",
    "office_name_kana": "クラシキフアツシヨンセンタ- カブシキガイシヤ"
  },
  "8565": {
    "postcode": "7118565",
    "prefecture": "岡山県",
    "prefecture_kana": "オカヤマケン",
    "prefecture_code": 33,
    "city": "倉敷市",
    "city_kana": "クラシキシ",
    "town": "児島小川町",
    "town_kana": "コジマオガワチョウ",
    "street": "３６８１−３",
    "office_name": "倉敷市　児島支所",
    "office_name_kana": "クラシキシ コジマシシヨ"
  },
  "8567": {
    "postcode": "7118567",
    "prefecture": "岡山県",
    "prefecture_kana": "オカヤマケン",
    "prefecture_code": 33,
    "city": "倉敷市",
    "city_kana": "クラシキシ",
    "town": "児島元浜町",
    "town_kana": "コジマモトハマチョウ",
    "street": "６−３",
    "office_name": "倉敷市　競艇事業局",
    "office_name_kana": "クラシキシ キヨウテイジギヨウキヨク"
  },
  "8588": {
    "postcode": "7118588",
    "prefecture": "岡山県",
    "prefecture_kana": "オカヤマケン",
    "prefecture_code": 33,
    "city": "倉敷市",
    "city_kana": "クラシキシ",
    "town": "児島塩生",
    "town_kana": "コジマシオナス",
    "street": "２７６７−２１",
    "office_name": "株式会社　サノヤス・ヒシノ明昌水島製造所",
    "office_name_kana": "カブシキガイシヤ サノヤス・ヒシノメイシヨウミズシマセイゾウシヨ"
  },
  "8611": {
    "postcode": "7118611",
    "prefecture": "岡山県",
    "prefecture_kana": "オカヤマケン",
    "prefecture_code": 33,
    "city": "倉敷市",
    "city_kana": "クラシキシ",
    "town": "児島田の口",
    "town_kana": "コジマタノクチ",
    "street": "１丁目３−４４（児島郵便局私書箱第２４号）",
    "office_name": "明石被服興業　株式会社",
    "office_name_kana": "アカシヒフクコウギヨウ カブシキガイシヤ"
  },
  "8622": {
    "postcode": "7118622",
    "prefecture": "岡山県",
    "prefecture_kana": "オカヤマケン",
    "prefecture_code": 33,
    "city": "倉敷市",
    "city_kana": "クラシキシ",
    "town": "児島田の口",
    "town_kana": "コジマタノクチ",
    "street": "３丁目１０−２５（児島郵便局私書箱第３１号）",
    "office_name": "尾崎商事　株式会社",
    "office_name_kana": "オザキシヨウジ カブシキガイシヤ"
  },
  "8686": {
    "postcode": "7118686",
    "prefecture": "岡山県",
    "prefecture_kana": "オカヤマケン",
    "prefecture_code": 33,
    "city": "倉敷市",
    "city_kana": "クラシキシ",
    "town": "児島駅前",
    "town_kana": "コジマエキマエ",
    "street": "２丁目２７番３Ｆ",
    "office_name": "株式会社　ビッグジョン",
    "office_name_kana": "カブシキガイシヤ ビツグジヨン"
  },
  "8688": {
    "postcode": "7118688",
    "prefecture": "岡山県",
    "prefecture_kana": "オカヤマケン",
    "prefecture_code": 33,
    "city": "倉敷市",
    "city_kana": "クラシキシ",
    "town": "児島小川",
    "town_kana": "コジマオガワ",
    "street": "８丁目３−８（児島郵便局私書箱第１６号）",
    "office_name": "難波プレス工業　株式会社",
    "office_name_kana": "ナンバプレスコウギヨウ カブシキガイシヤ"
  }
}