{
  "8101": {
    "postcode": "7138101",
    "prefecture": "岡山県",
    "prefecture_kana": "オカヤマケン",
    "prefecture_code": 33,
    "city": "倉敷市",
    "city_kana": "クラシキシ",
    "town": "玉島上成",
    "town_kana": "タマシマウワナリ",
    "street": null,
    "office_name": null,
    "office_name_kana": null
  },
  "8102": {
    "postcode": "7138102",
    "prefecture": "岡山県",
    "prefecture_kana": "オカヤマケン",
    "prefecture_code": 33,
    "city": "倉敷市",
    "city_kana": "クラシキシ",
    "town": "玉島",
    "town_kana": "タマシマ",
    "street": null,
    "office_name": null,
    "office_name_kana": null
  },
  "8103": {
    "postcode": "7138103",
    "prefecture": "岡山県",
    "prefecture_kana": "オカヤマケン",
    "prefecture_code": 33,
    "city": "倉敷市",
    "city_kana": "クラシキシ",
    "town": "玉島乙島",
    "town_kana": "タマシマオトシマ",
    "street": null,
    "office_name": null,
    "office_name_kana": null
  },
  "8111": {
    "postcode": "7138111",
    "prefecture": "岡山県",
    "prefecture_kana": "オカヤマケン",
    "prefecture_code": 33,
    "city": "倉敷市",
    "city_kana": "クラシキシ",
    "town": "玉島服部",
    "town_kana": "タマシマハットリ",
    "street": null,
    "office_name": null,
    "office_name_kana": null
  },
  "8112": {
    "postcode": "7138112",
    "prefecture": "岡山県",
    "prefecture_kana": "オカヤマケン",
    "prefecture_code": 33,
    "city": "倉敷市",
    "city_kana": "クラシキシ",
    "town": "玉島陶",
    "town_kana": "タマシマスエ",
    "street": null,
    "office_name": null,
    "office_name_kana": null
  },
  "8113": {
    "postcode": "7138113",
    "prefecture": "岡山県",
    "prefecture_kana": "オカヤマケン",
    "prefecture_code": 33,
    "city": "倉敷市",
    "city_kana": "クラシキシ",
    "town": "玉島八島",
    "town_kana": "タマシマヤシマ",
    "street": null,
    "office_name": null,
    "office_name_kana": null
  },
  "8114": {
    "postcode": "7138114",
    "prefecture": "岡山県",
    "prefecture_kana": "オカヤマケン",
    "prefecture_code": 33,
    "city": "倉敷市",
    "city_kana": "クラシキシ",
    "town": "玉島道越",
    "town_kana": "タマシマミチゴエ",
    "street": null,
    "office_name": null,
    "office_name_kana": null
  },
  "8115": {
    "postcode": "7138115",
    "prefecture": "岡山県",
    "prefecture_kana": "オカヤマケン",
    "prefecture_code": 33,
    "city": "倉敷市",
    "city_kana": "クラシキシ",
    "town": "玉島道口",
    "town_kana": "タマシマミチグチ",
    "street": null,
    "office_name": null,
    "office_name_kana": null
  },
  "8116": {
    "postcode": "7138116",
    "prefecture": "岡山県",
    "prefecture_kana": "オカヤマケン",
    "prefecture_code": 33,
    "city": "倉敷市",
    "city_kana": "クラシキシ",
    "town": "玉島富",
    "town_kana": "タマシマトミ",
    "street": null,
    "office_name": null,
    "office_name_kana": null
  },
  "8121": {
    "postcode": "7138121",
    "prefecture": "岡山県",
    "prefecture_kana": "オカヤマケン",
    "prefecture_code": 33,
    "city": "倉敷市",
    "city_kana": "クラシキシ",
    "town": "玉島阿賀崎",
    "town_kana": "タマシマアガサキ",
    "street": null,
    "office_name": null,
    "office_name_kana": null
  },
  "8122": {
    "postcode": "7138122",
    "prefecture": "岡山県",
    "prefecture_kana": "オカヤマケン",
    "prefecture_code": 33,
    "city": "倉敷市",
    "city_kana": "クラシキシ",
    "town": "玉島中央町",
    "town_kana": "タマシマチュウオウチョウ",
    "street": null,
    "office_name": null,
    "office_name_kana": null
  },
  "8123": {
    "postcode": "7138123",
    "prefecture": "岡山県",
    "prefecture_kana": "オカヤマケン",
    "prefecture_code": 33,
    "city": "倉敷市",
    "city_kana": "クラシキシ",
    "town": "玉島柏島",
    "town_kana": "タマシマカシワジマ",
    "street": null,
    "office_name": null,
    "office_name_kana": null
  },
  "8124": {
    "postcode": "7138124",
    "prefecture": "岡山県",
    "prefecture_kana": "オカヤマケン",
    "prefecture_code": 33,
    "city": "倉敷市",
    "city_kana": "クラシキシ",
    "town": "玉島柏台",
    "town_kana": "タマシマカシワダイ",
    "street": null,
    "office_name": null,
    "office_name_kana": null
  },
  "8125": {
    "postcode": "7138125",
    "prefecture": "岡山県",
    "prefecture_kana": "オカヤマケン",
    "prefecture_code": 33,
    "city": "倉敷市",
    "city_kana": "クラシキシ",
    "town": "玉島勇崎",
    "town_kana": "タマシマユウザキ",
    "street": null,
    "office_name": null,
    "office_name_kana": null
  },
  "8126": {
    "postcode": "7138126",
    "prefecture": "岡山県",
    "prefecture_kana": "オカヤマケン",
    "prefecture_code": 33,
    "city": "倉敷市",
    "city_kana": "クラシキシ",
    "town": "玉島黒崎",
    "town_kana": "タマシマクロサキ",
    "street": null,
    "office_name": null,
    "office_name_kana": null
  },
  "8127": {
    "postcode": "7138127",
    "prefecture": "岡山県",
    "prefecture_kana": "オカヤマケン",
    "prefecture_code": 33,
    "city": "倉敷市",
    "city_kana": "クラシキシ",
    "town": "玉島黒崎新町",
    "town_kana": "タマシマクロサキシンマチ",
    "street": null,
    "office_name": null,
    "office_name_kana": null
  },
  "8501": {
    "postcode": "7138501",
    "prefecture": "岡山県",
    "prefecture_kana": "オカヤマケン",
    "prefecture_code": 33,
    "city": "倉敷市",
    "city_kana": "クラシキシ",
    "town": "玉島乙島",
    "town_kana": "タマシマオトシマ",
    "street": "８２３０",
    "office_name": "住友重機械工業　株式会社　岡山製造所",
    "office_name_kana": "スミトモジユウキカイコウギヨウ カブシキカイシヤ オカヤマセイゾウシヨ"
  },
  "8550": {
    "postcode": "7138550",
    "prefecture": "岡山県",
    "prefecture_kana": "オカヤマケン",
    "prefecture_code": 33,
    "city": "倉敷市",
    "city_kana": "クラシキシ",
    "town": "玉島乙島",
    "town_kana": "タマシマオトシマ",
    "street": "７４７１",
    "office_name": "株式会社　クラレ　倉敷事業所　（玉島）",
    "office_name_kana": "カブシキガイシヤ クラレ クラシキジギヨウシヨ (タマシマ)"
  },
  "8565": {
    "postcode": "7138565",
    "prefecture": "岡山県",
    "prefecture_kana": "オカヤマケン",
    "prefecture_code": 33,
    "city": "倉敷市",
    "city_kana": "クラシキシ",
    "town": "玉島阿賀崎",
    "town_kana": "タマシマアガサキ",
    "street": "１丁目１−１",
    "office_name": "倉敷市　玉島支所",
    "office_name_kana": "クラシキシ タマシマシシヨ"
  },
  "8577": {
    "postcode": "7138577",
    "prefecture": "岡山県",
    "prefecture_kana": "オカヤマケン",
    "prefecture_code": 33,
    "city": "倉敷市",
    "city_kana": "クラシキシ",
    "town": "玉島柏島",
    "town_kana": "タマシマカシワジマ",
    "street": "７０４７",
    "office_name": "立花容器　株式会社",
    "office_name_kana": "タチバナヨウキ カブシキガイシヤ"
  },
  "8588": {
    "postcode": "7138588",
    "prefecture": "岡山県",
    "prefecture_kana": "オカヤマケン",
    "prefecture_code": 33,
    "city": "倉敷市",
    "city_kana": "クラシキシ",
    "town": "玉島八島",
    "town_kana": "タマシマヤシマ",
    "street": "１５４１番１",
    "office_name": "作陽学園高等学校",
    "office_name_kana": "サクヨウガクエンコウトウガツコウ"
  },
  "8601": {
    "postcode": "7138601",
    "prefecture": "岡山県",
    "prefecture_kana": "オカヤマケン",
    "prefecture_code": 33,
    "city": "倉敷市",
    "city_kana": "クラシキシ",
    "town": "玉島阿賀崎",
    "town_kana": "タマシマアガサキ",
    "street": "２丁目１−５０（玉島郵便局私書箱第１４号）",
    "office_name": "玉島　税務署",
    "office_name_kana": "タマシマ ゼイムシヨ"
  },
  "8666": {
    "postcode": "7138666",
    "prefecture": "岡山県",
    "prefecture_kana": "オカヤマケン",
    "prefecture_code": 33,
    "city": "倉敷市",
    "city_kana": "クラシキシ",
    "town": "玉島勇崎",
    "town_kana": "タマシマユウザキ",
    "street": "１２９２（玉島郵便局私書箱第６号）",
    "office_name": "株式会社　鯛惣",
    "office_name_kana": "カブシキガイシヤ タイソウ"
  },
  "8668": {
    "postcode": "7138668",
    "prefecture": "岡山県",
    "prefecture_kana": "オカヤマケン",
    "prefecture_code": 33,
    "city": "倉敷市",
    "city_kana": "クラシキシ",
    "town": "玉島阿賀崎",
    "town_kana": "タマシマアガサキ",
    "street": "３丁目１−１（玉島郵便局私書箱第４号）",
    "office_name": "岡山県立　玉島高等学校",
    "office_name_kana": "オカヤマケンリツ タマシマコウトウガツコウ"
  },
  "8686": {
    "postcode": "7138686",
    "prefecture": "岡山県",
    "prefecture_kana": "オカヤマケン",
    "prefecture_code": 33,
    "city": "倉敷市",
    "city_kana": "クラシキシ",
    "town": "玉島",
    "town_kana": "タマシマ",
    "street": "１４３８（玉島郵便局私書箱第７号）",
    "office_name": "玉島信用金庫",
    "office_name_kana": "タマシマシンヨウキンコ"
  },
  "8713": {
    "postcode": "7138713",
    "prefecture": "岡山県",
    "prefecture_kana": "オカヤマケン",
    "prefecture_code": 33,
    "city": "倉敷市",
    "city_kana": "クラシキシ",
    "town": "玉島阿賀崎",
    "town_kana": "タマシマアガサキ",
    "street": "１丁目４−１１（玉島郵便局私書箱第５号）",
    "office_name": "赤澤屋　株式会社",
    "office_name_kana": "アカザワヤ カブシキガイシヤ"
  }
}