{
  "0000": {
    "postcode": "7150000",
    "prefecture": "岡山県",
    "prefecture_kana": "オカヤマケン",
    "prefecture_code": 33,
    "city": "井原市",
    "city_kana": "イバラシ",
    "town": "",
    "town_kana": "",
    "street": null,
    "office_name": null,
    "office_name_kana": null
  },
  "0001": {
    "postcode": "7150001",
    "prefecture": "岡山県",
    "prefecture_kana": "オカヤマケン",
    "prefecture_code": 33,
    "city": "井原市",
    "city_kana": "イバラシ",
    "town": "野上町",
    "town_kana": "ノガミチョウ",
    "street": null,
    "office_name": null,
    "office_name_kana": null
  },
  "0002": {
    "postcode": "7150002",
    "prefecture": "岡山県",
    "prefecture_kana": "オカヤマケン",
    "prefecture_code": 33,
    "city": "井原市",
    "city_kana": "イバラシ",
    "town": "神代町",
    "town_kana": "コウジロチョウ",
    "street": null,
    "office_name": null,
    "office_name_kana": null
  },
  "0003": {
    "postcode": "7150003",
    "prefecture": "岡山県",
    "prefecture_kana": "オカヤマケン",
    "prefecture_code": 33,
    "city": "井原市",
    "city_kana": "イバラシ",
    "town": "東江原町",
    "town_kana": "ヒガシエバラチョウ",
    "street": null,
    "office_name": null,
    "office_name_kana": null
  },
  "0004": {
    "postcode": "7150004",
    "prefecture": "岡山県",
    "prefecture_kana": "オカヤマケン",
    "prefecture_code": 33,
    "city": "井原市",
    "city_kana": "イバラシ",
    "town": "木之子町",
    "town_kana": "キノコチョウ",
    "street": null,
    "office_name": null,
    "office_name_kana": null
  },
  "0005": {
    "postcode": "7150005",
    "prefecture": "岡山県",
    "prefecture_kana": "オカヤマケン",
    "prefecture_code": 33,
    "city": "井原市",
    "city_kana": "イバラシ",
    "town": "門田町",
    "town_kana": "モンデンチョウ",
    "street": null,
    "office_name": null,
    "office_name_kana": null
  },
  "0006": {
    "postcode": "7150006",
    "prefecture": "岡山県",
    "prefecture_kana": "オカヤマケン",
    "prefecture_code": 33,
    "city": "井原市",
    "city_kana": "イバラシ",
    "town": "西江原町",
    "town_kana": "ニシエバラチョウ",
    "street": null,
    "office_name": null,
    "office_name_kana": null
  },
  "0011": {
    "postcode": "7150011",
    "prefecture": "岡山県",
    "prefecture_kana": "オカヤマケン",
    "prefecture_code": 33,
    "city": "井原市",
    "city_kana": "イバラシ",
    "town": "稗原町",
    "town_kana": "ヒエハラチョウ",
    "street": null,
    "office_name": null,
    "office_name_kana": null
  },
  "0012": {
    "postcode": "7150012",
    "prefecture": "岡山県",
    "prefecture_kana": "オカヤマケン",
    "prefecture_code": 33,
    "city": "井原市",
    "city_kana": "イバラシ",
    "town": "青野町",
    "town_kana": "アオノチョウ",
    "street": null,
    "office_name": null,
    "office_name_kana": null
  },
  "0013": {
    "postcode": "7150013",
    "prefecture": "岡山県",
    "prefecture_kana": "オカヤマケン",
    "prefecture_code": 33,
    "city": "井原市",
    "city_kana": "イバラシ",
    "town": "北山町",
    "town_kana": "キタヤマチョウ",
    "street": null,
    "office_name": null,
    "office_name_kana": null
  },
  "0014": {
    "postcode": "7150014",
    "prefecture": "岡山県",
    "prefecture_kana": "オカヤマケン",
    "prefecture_code": 33,
    "city": "井原市",
    "city_kana": "イバラシ",
    "town": "七日市町",
    "town_kana": "ナヌカイチチョウ",
    "street": null,
    "office_name": null,
    "office_name_kana": null
  },
  "0015": {
    "postcode": "7150015",
    "prefecture": "岡山県",
    "prefecture_kana": "オカヤマケン",
    "prefecture_code": 33,
    "city": "井原市",
    "city_kana": "イバラシ",
    "town": "西方町",
    "town_kana": "ニシガタチョウ",
    "street": null,
    "office_name": null,
    "office_name_kana": null
  },
  "0016": {
    "postcode": "7150016",
    "prefecture": "岡山県",
    "prefecture_kana": "オカヤマケン",
    "prefecture_code": 33,
    "city": "井原市",
    "city_kana": "イバラシ",
    "town": "岩倉町",
    "town_kana": "イワクラチョウ",
    "street": null,
    "office_name": null,
    "office_name_kana": null
  },
  "0017": {
    "postcode": "7150017",
    "prefecture": "岡山県",
    "prefecture_kana": "オカヤマケン",
    "prefecture_code": 33,
    "city": "井原市",
    "city_kana": "イバラシ",
    "town": "下稲木町",
    "town_kana": "シモイナギチョウ",
    "street": null,
    "office_name": null,
    "office_name_kana": null
  },
  "0018": {
    "postcode": "7150018",
    "prefecture": "岡山県",
    "prefecture_kana": "オカヤマケン",
    "prefecture_code": 33,
    "city": "井原市",
    "city_kana": "イバラシ",
    "town": "上稲木町",
    "town_kana": "カミイナギチョウ",
    "street": null,
    "office_name": null,
    "office_name_kana": null
  },
  "0019": {
    "postcode": "7150019",
    "prefecture": "岡山県",
    "prefecture_kana": "オカヤマケン",
    "prefecture_code": 33,
    "city": "井原市",
    "city_kana": "イバラシ",
    "town": "井原町",
    "town_kana": "イバラチョウ",
    "street": null,
    "office_name": null,
    "office_name_kana": null
  },
  "0021": {
    "postcode": "7150021",
    "prefecture": "岡山県",
    "prefecture_kana": "オカヤマケン",
    "prefecture_code": 33,
    "city": "井原市",
    "city_kana": "イバラシ",
    "town": "上出部町",
    "town_kana": "カミイズエチョウ",
    "street": null,
    "office_name": null,
    "office_name_kana": null
  },
  "0022": {
    "postcode": "7150022",
    "prefecture": "岡山県",
    "prefecture_kana": "オカヤマケン",
    "prefecture_code": 33,
    "city": "井原市",
    "city_kana": "イバラシ",
    "town": "下出部町",
    "town_kana": "シモイズエチョウ",
    "street": null,
    "office_name": null,
    "office_name_kana": null
  },
  "0023": {
    "postcode": "7150023",
    "prefecture": "岡山県",
    "prefecture_kana": "オカヤマケン",
    "prefecture_code": 33,
    "city": "井原市",
    "city_kana": "イバラシ",
    "town": "大江町",
    "town_kana": "オオエチョウ",
    "street": null,
    "office_name": null,
    "office_name_kana": null
  },
  "0024": {
    "postcode": "7150024",
    "prefecture": "岡山県",
    "prefecture_kana": "オカヤマケン",
    "prefecture_code": 33,
    "city": "井原市",
    "city_kana": "イバラシ",
    "town": "高屋町",
    "town_kana": "タカヤチョウ",
    "street": null,
    "office_name": null,
    "office_name_kana": null
  },
  "0025": {
    "postcode": "7150025",
    "prefecture": "岡山県",
    "prefecture_kana": "オカヤマケン",
    "prefecture_code": 33,
    "city": "井原市",
    "city_kana": "イバラシ",
    "town": "笹賀町",
    "town_kana": "ササカチョウ",
    "street": null,
    "office_name": null,
    "office_name_kana": null
  },
  "0026": {
    "postcode": "7150026",
    "prefecture": "岡山県",
    "prefecture_kana": "オカヤマケン",
    "prefecture_code": 33,
    "city": "井原市",
    "city_kana": "イバラシ",
    "town": "上出部町四季が丘",
    "town_kana": "カミイズエチョウシキガオカ",
    "street": null,
    "office_name": null,
    "office_name_kana": null
  },
  "8501": {
    "postcode": "7158501",
    "prefecture": "岡山県",
    "prefecture_kana": "オカヤマケン",
    "prefecture_code": 33,
    "city": "井原市",
    "city_kana": "イバラシ",
    "town": "東江原町",
    "town_kana": "ヒガシエバラチョウ",
    "street": "１５１６",
    "office_name": "シーピー化成　株式会社",
    "office_name_kana": "シ-ピ-カセイ カブシキガイシヤ"
  },
  "8502": {
    "postcode": "7158502",
    "prefecture": "岡山県",
    "prefecture_kana": "オカヤマケン",
    "prefecture_code": 33,
    "city": "井原市",
    "city_kana": "イバラシ",
    "town": "西江原町",
    "town_kana": "ニシエバラチョウ",
    "street": "１００５−１",
    "office_name": "片山工業　株式会社",
    "office_name_kana": "カタヤマコウギヨウ カブシキガイシヤ"
  },
  "8503": {
    "postcode": "7158503",
    "prefecture": "岡山県",
    "prefecture_kana": "オカヤマケン",
    "prefecture_code": 33,
    "city": "井原市",
    "city_kana": "イバラシ",
    "town": "井原町",
    "town_kana": "イバラチョウ",
    "street": "６６１−１",
    "office_name": "タカヤ　株式会社　事業本部",
    "office_name_kana": "タカヤ カブシキガイシヤ ジギヨウホンブ"
  },
  "8601": {
    "postcode": "7158601",
    "prefecture": "岡山県",
    "prefecture_kana": "オカヤマケン",
    "prefecture_code": 33,
    "city": "井原市",
    "city_kana": "イバラシ",
    "town": "井原町",
    "town_kana": "イバラチョウ",
    "street": "３１１−１（井原郵便局私書箱第１４号）",
    "office_name": "井原市役所",
    "office_name_kana": "イバラシヤクシヨ"
  },
  "8602": {
    "postcode": "7158602",
    "prefecture": "岡山県",
    "prefecture_kana": "オカヤマケン",
    "prefecture_code": 33,
    "city": "井原市",
    "city_kana": "イバラシ",
    "town": "木之子町",
    "town_kana": "キノコチョウ",
    "street": "１５０（井原郵便局私書箱第２２号）",
    "office_name": "フェニテック　セミコンダクター　株式会社",
    "office_name_kana": "フエニテツク セミコンダクタ- カブシキガイシヤ"
  },
  "8603": {
    "postcode": "7158603",
    "prefecture": "岡山県",
    "prefecture_kana": "オカヤマケン",
    "prefecture_code": 33,
    "city": "井原市",
    "city_kana": "イバラシ",
    "town": "木之子町",
    "town_kana": "キノコチョウ",
    "street": "６１８６（井原郵便局私書箱第２０号）",
    "office_name": "タツモ　株式会社",
    "office_name_kana": "タツモ カブシキカイシヤ"
  }
}