{
  "0001": {
    "postcode": "7170001",
    "prefecture": "岡山県",
    "prefecture_kana": "オカヤマケン",
    "prefecture_code": 33,
    "city": "真庭市",
    "city_kana": "マニワシ",
    "town": "星山",
    "town_kana": "ホシヤマ",
    "street": null,
    "office_name": null,
    "office_name_kana": null
  },
  "0002": {
    "postcode": "7170002",
    "prefecture": "岡山県",
    "prefecture_kana": "オカヤマケン",
    "prefecture_code": 33,
    "city": "真庭市",
    "city_kana": "マニワシ",
    "town": "菅谷",
    "town_kana": "スガタニ",
    "street": null,
    "office_name": null,
    "office_name_kana": null
  },
  "0003": {
    "postcode": "7170003",
    "prefecture": "岡山県",
    "prefecture_kana": "オカヤマケン",
    "prefecture_code": 33,
    "city": "真庭市",
    "city_kana": "マニワシ",
    "town": "竹原",
    "town_kana": "タケバラ",
    "street": null,
    "office_name": null,
    "office_name_kana": null
  },
  "0004": {
    "postcode": "7170004",
    "prefecture": "岡山県",
    "prefecture_kana": "オカヤマケン",
    "prefecture_code": 33,
    "city": "真庭市",
    "city_kana": "マニワシ",
    "town": "神庭",
    "town_kana": "カンバ",
    "street": null,
    "office_name": null,
    "office_name_kana": null
  },
  "0005": {
    "postcode": "7170005",
    "prefecture": "岡山県",
    "prefecture_kana": "オカヤマケン",
    "prefecture_code": 33,
    "city": "真庭市",
    "city_kana": "マニワシ",
    "town": "横部",
    "town_kana": "ヨコベ",
    "street": null,
    "office_name": null,
    "office_name_kana": null
  },
  "0006": {
    "postcode": "7170006",
    "prefecture": "岡山県",
    "prefecture_kana": "オカヤマケン",
    "prefecture_code": 33,
    "city": "真庭市",
    "city_kana": "マニワシ",
    "town": "組",
    "town_kana": "クミ",
    "street": null,
    "office_name": null,
    "office_name_kana": null
  },
  "0007": {
    "postcode": "7170007",
    "prefecture": "岡山県",
    "prefecture_kana": "オカヤマケン",
    "prefecture_code": 33,
    "city": "真庭市",
    "city_kana": "マニワシ",
    "town": "本郷",
    "town_kana": "ホンゴウ",
    "street": null,
    "office_name": null,
    "office_name_kana": null
  },
  "0011": {
    "postcode": "7170011",
    "prefecture": "岡山県",
    "prefecture_kana": "オカヤマケン",
    "prefecture_code": 33,
    "city": "真庭市",
    "city_kana": "マニワシ",
    "town": "見尾",
    "town_kana": "ミオ",
    "street": null,
    "office_name": null,
    "office_name_kana": null
  },
  "0012": {
    "postcode": "7170012",
    "prefecture": "岡山県",
    "prefecture_kana": "オカヤマケン",
    "prefecture_code": 33,
    "city": "真庭市",
    "city_kana": "マニワシ",
    "town": "山久世",
    "town_kana": "ヤマクセ",
    "street": null,
    "office_name": null,
    "office_name_kana": null
  },
  "0013": {
    "postcode": "7170013",
    "prefecture": "岡山県",
    "prefecture_kana": "オカヤマケン",
    "prefecture_code": 33,
    "city": "真庭市",
    "city_kana": "マニワシ",
    "town": "勝山",
    "town_kana": "カツヤマ",
    "street": null,
    "office_name": null,
    "office_name_kana": null
  },
  "0014": {
    "postcode": "7170014",
    "prefecture": "岡山県",
    "prefecture_kana": "オカヤマケン",
    "prefecture_code": 33,
    "city": "真庭市",
    "city_kana": "マニワシ",
    "town": "柴原",
    "town_kana": "シバラ",
    "street": null,
    "office_name": null,
    "office_name_kana": null
  },
  "0015": {
    "postcode": "7170015",
    "prefecture": "岡山県",
    "prefecture_kana": "オカヤマケン",
    "prefecture_code": 33,
    "city": "真庭市",
    "city_kana": "マニワシ",
    "town": "岡",
    "town_kana": "オカ",
    "street": null,
    "office_name": null,
    "office_name_kana": null
  },
  "0016": {
    "postcode": "7170016",
    "prefecture": "岡山県",
    "prefecture_kana": "オカヤマケン",
    "prefecture_code": 33,
    "city": "真庭市",
    "city_kana": "マニワシ",
    "town": "正吉",
    "town_kana": "マサヨシ",
    "street": null,
    "office_name": null,
    "office_name_kana": null
  },
  "0017": {
    "postcode": "7170017",
    "prefecture": "岡山県",
    "prefecture_kana": "オカヤマケン",
    "prefecture_code": 33,
    "city": "真庭市",
    "city_kana": "マニワシ",
    "town": "真賀",
    "town_kana": "マガ",
    "street": null,
    "office_name": null,
    "office_name_kana": null
  },
  "0021": {
    "postcode": "7170021",
    "prefecture": "岡山県",
    "prefecture_kana": "オカヤマケン",
    "prefecture_code": 33,
    "city": "真庭市",
    "city_kana": "マニワシ",
    "town": "福谷",
    "town_kana": "フクタニ",
    "street": null,
    "office_name": null,
    "office_name_kana": null
  },
  "0022": {
    "postcode": "7170022",
    "prefecture": "岡山県",
    "prefecture_kana": "オカヤマケン",
    "prefecture_code": 33,
    "city": "真庭市",
    "city_kana": "マニワシ",
    "town": "三田",
    "town_kana": "サンデン",
    "street": null,
    "office_name": null,
    "office_name_kana": null
  },
  "0023": {
    "postcode": "7170023",
    "prefecture": "岡山県",
    "prefecture_kana": "オカヤマケン",
    "prefecture_code": 33,
    "city": "真庭市",
    "city_kana": "マニワシ",
    "town": "江川",
    "town_kana": "エガワ",
    "street": null,
    "office_name": null,
    "office_name_kana": null
  },
  "0024": {
    "postcode": "7170024",
    "prefecture": "岡山県",
    "prefecture_kana": "オカヤマケン",
    "prefecture_code": 33,
    "city": "真庭市",
    "city_kana": "マニワシ",
    "town": "月田",
    "town_kana": "ツキダ",
    "street": null,
    "office_name": null,
    "office_name_kana": null
  },
  "0025": {
    "postcode": "7170025",
    "prefecture": "岡山県",
    "prefecture_kana": "オカヤマケン",
    "prefecture_code": 33,
    "city": "真庭市",
    "city_kana": "マニワシ",
    "town": "後谷畝",
    "town_kana": "ウシロダニウネ",
    "street": null,
    "office_name": null,
    "office_name_kana": null
  },
  "0026": {
    "postcode": "7170026",
    "prefecture": "岡山県",
    "prefecture_kana": "オカヤマケン",
    "prefecture_code": 33,
    "city": "真庭市",
    "city_kana": "マニワシ",
    "town": "荒田",
    "town_kana": "アラタ",
    "street": null,
    "office_name": null,
    "office_name_kana": null
  },
  "0027": {
    "postcode": "7170027",
    "prefecture": "岡山県",
    "prefecture_kana": "オカヤマケン",
    "prefecture_code": 33,
    "city": "真庭市",
    "city_kana": "マニワシ",
    "town": "神代",
    "town_kana": "コウジロ",
    "street": null,
    "office_name": null,
    "office_name_kana": null
  },
  "0101": {
    "postcode": "7170101",
    "prefecture": "岡山県",
    "prefecture_kana": "オカヤマケン",
    "prefecture_code": 33,
    "city": "真庭市",
    "city_kana": "マニワシ",
    "town": "鉄山",
    "town_kana": "カネヤマ",
    "street": null,
    "office_name": null,
    "office_name_kana": null
  },
  "0102": {
    "postcode": "7170102",
    "prefecture": "岡山県",
    "prefecture_kana": "オカヤマケン",
    "prefecture_code": 33,
    "city": "真庭市",
    "city_kana": "マニワシ",
    "town": "黒田",
    "town_kana": "クロダ",
    "street": null,
    "office_name": null,
    "office_name_kana": null
  },
  "0103": {
    "postcode": "7170103",
    "prefecture": "岡山県",
    "prefecture_kana": "オカヤマケン",
    "prefecture_code": 33,
    "city": "真庭市",
    "city_kana": "マニワシ",
    "town": "田口",
    "town_kana": "タグチ",
    "street": null,
    "office_name": null,
    "office_name_kana": null
  },
  "0104": {
    "postcode": "7170104",
    "prefecture": "岡山県",
    "prefecture_kana": "オカヤマケン",
    "prefecture_code": 33,
    "city": "真庭市",
    "city_kana": "マニワシ",
    "town": "延風",
    "town_kana": "ノブカゼ",
    "street": null,
    "office_name": null,
    "office_name_kana": null
  },
  "0105": {
    "postcode": "7170105",
    "prefecture": "岡山県",
    "prefecture_kana": "オカヤマケン",
    "prefecture_code": 33,
    "city": "真庭市",
    "city_kana": "マニワシ",
    "town": "美甘",
    "town_kana": "ミカモ",
    "street": null,
    "office_name": null,
    "office_name_kana": null
  },
  "0201": {
    "postcode": "7170201",
    "prefecture": "岡山県",
    "prefecture_kana": "オカヤマケン",
    "prefecture_code": 33,
    "city": "真庭郡新庄村",
    "city_kana": "マニワグンシンジョウソン",
    "town": "",
    "town_kana": "",
    "street": null,
    "office_name": null,
    "office_name_kana": null
  },
  "0401": {
    "postcode": "7170401",
    "prefecture": "岡山県",
    "prefecture_kana": "オカヤマケン",
    "prefecture_code": 33,
    "city": "真庭市",
    "city_kana": "マニワシ",
    "town": "田羽根",
    "town_kana": "タバネ",
    "street": null,
    "office_name": null,
    "office_name_kana": null
  },
  "0402": {
    "postcode": "7170402",
    "prefecture": "岡山県",
    "prefecture_kana": "オカヤマケン",
    "prefecture_code": 33,
    "city": "真庭市",
    "city_kana": "マニワシ",
    "town": "湯原温泉",
    "town_kana": "ユバラオンセン",
    "street": null,
    "office_name": null,
    "office_name_kana": null
  },
  "0403": {
    "postcode": "7170403",
    "prefecture": "岡山県",
    "prefecture_kana": "オカヤマケン",
    "prefecture_code": 33,
    "city": "真庭市",
    "city_kana": "マニワシ",
    "town": "下湯原",
    "town_kana": "シモユバラ",
    "street": null,
    "office_name": null,
    "office_name_kana": null
  },
  "0404": {
    "postcode": "7170404",
    "prefecture": "岡山県",
    "prefecture_kana": "オカヤマケン",
    "prefecture_code": 33,
    "city": "真庭市",
    "city_kana": "マニワシ",
    "town": "社",
    "town_kana": "ヤシロ",
    "street": null,
    "office_name": null,
    "office_name_kana": null
  },
  "0405": {
    "postcode": "7170405",
    "prefecture": "岡山県",
    "prefecture_kana": "オカヤマケン",
    "prefecture_code": 33,
    "city": "真庭市",
    "city_kana": "マニワシ",
    "town": "久見",
    "town_kana": "ヒサミ",
    "street": null,
    "office_name": null,
    "office_name_kana": null
  },
  "0406": {
    "postcode": "7170406",
    "prefecture": "岡山県",
    "prefecture_kana": "オカヤマケン",
    "prefecture_code": 33,
    "city": "真庭市",
    "city_kana": "マニワシ",
    "town": "豊栄",
    "town_kana": "トヨサカ",
    "street": null,
    "office_name": null,
    "office_name_kana": null
  },
  "0411": {
    "postcode": "7170411",
    "prefecture": "岡山県",
    "prefecture_kana": "オカヤマケン",
    "prefecture_code": 33,
    "city": "真庭市",
    "city_kana": "マニワシ",
    "town": "見明戸",
    "town_kana": "ミアケド",
    "street": null,
    "office_name": null,
    "office_name_kana": null
  },
  "0412": {
    "postcode": "7170412",
    "prefecture": "岡山県",
    "prefecture_kana": "オカヤマケン",
    "prefecture_code": 33,
    "city": "真庭市",
    "city_kana": "マニワシ",
    "town": "本庄",
    "town_kana": "ホンジョウ",
    "street": null,
    "office_name": null,
    "office_name_kana": null
  },
  "0413": {
    "postcode": "7170413",
    "prefecture": "岡山県",
    "prefecture_kana": "オカヤマケン",
    "prefecture_code": 33,
    "city": "真庭市",
    "city_kana": "マニワシ",
    "town": "禾津",
    "town_kana": "イナツ",
    "street": null,
    "office_name": null,
    "office_name_kana": null
  },
  "0414": {
    "postcode": "7170414",
    "prefecture": "岡山県",
    "prefecture_kana": "オカヤマケン",
    "prefecture_code": 33,
    "city": "真庭市",
    "city_kana": "マニワシ",
    "town": "釘貫小川",
    "town_kana": "クギヌキコガワ",
    "street": null,
    "office_name": null,
    "office_name_kana": null
  },
  "0415": {
    "postcode": "7170415",
    "prefecture": "岡山県",
    "prefecture_kana": "オカヤマケン",
    "prefecture_code": 33,
    "city": "真庭市",
    "city_kana": "マニワシ",
    "town": "都喜足",
    "town_kana": "ツギタル",
    "street": null,
    "office_name": null,
    "office_name_kana": null
  },
  "0416": {
    "postcode": "7170416",
    "prefecture": "岡山県",
    "prefecture_kana": "オカヤマケン",
    "prefecture_code": 33,
    "city": "真庭市",
    "city_kana": "マニワシ",
    "town": "仲間",
    "town_kana": "ナカマ",
    "street": null,
    "office_name": null,
    "office_name_kana": null
  },
  "0421": {
    "postcode": "7170421",
    "prefecture": "岡山県",
    "prefecture_kana": "オカヤマケン",
    "prefecture_code": 33,
    "city": "真庭市",
    "city_kana": "マニワシ",
    "town": "粟谷",
    "town_kana": "アワダニ",
    "street": null,
    "office_name": null,
    "office_name_kana": null
  },
  "0422": {
    "postcode": "7170422",
    "prefecture": "岡山県",
    "prefecture_kana": "オカヤマケン",
    "prefecture_code": 33,
    "city": "真庭市",
    "city_kana": "マニワシ",
    "town": "藤森",
    "town_kana": "フジモリ",
    "street": null,
    "office_name": null,
    "office_name_kana": null
  },
  "0423": {
    "postcode": "7170423",
    "prefecture": "岡山県",
    "prefecture_kana": "オカヤマケン",
    "prefecture_code": 33,
    "city": "真庭市",
    "city_kana": "マニワシ",
    "town": "黒杭",
    "town_kana": "クロクイ",
    "street": null,
    "office_name": null,
    "office_name_kana": null
  },
  "0424": {
    "postcode": "7170424",
    "prefecture": "岡山県",
    "prefecture_kana": "オカヤマケン",
    "prefecture_code": 33,
    "city": "真庭市",
    "city_kana": "マニワシ",
    "town": "種",
    "town_kana": "タネ",
    "street": null,
    "office_name": null,
    "office_name_kana": null
  },
  "0425": {
    "postcode": "7170425",
    "prefecture": "岡山県",
    "prefecture_kana": "オカヤマケン",
    "prefecture_code": 33,
    "city": "真庭市",
    "city_kana": "マニワシ",
    "town": "小童谷",
    "town_kana": "ヒジヤ",
    "street": null,
    "office_name": null,
    "office_name_kana": null
  },
  "0426": {
    "postcode": "7170426",
    "prefecture": "岡山県",
    "prefecture_kana": "オカヤマケン",
    "prefecture_code": 33,
    "city": "真庭市",
    "city_kana": "マニワシ",
    "town": "三世七原",
    "town_kana": "ミセシチバラ",
    "street": null,
    "office_name": null,
    "office_name_kana": null
  },
  "0501": {
    "postcode": "7170501",
    "prefecture": "岡山県",
    "prefecture_kana": "オカヤマケン",
    "prefecture_code": 33,
    "city": "真庭市",
    "city_kana": "マニワシ",
    "town": "蒜山中福田",
    "town_kana": "ヒルゼンナカフクダ",
    "street": null,
    "office_name": null,
    "office_name_kana": null
  },
  "0502": {
    "postcode": "7170502",
    "prefecture": "岡山県",
    "prefecture_kana": "オカヤマケン",
    "prefecture_code": 33,
    "city": "真庭市",
    "city_kana": "マニワシ",
    "town": "蒜山富掛田",
    "town_kana": "ヒルゼントミカケダ",
    "street": null,
    "office_name": null,
    "office_name_kana": null
  },
  "0503": {
    "postcode": "7170503",
    "prefecture": "岡山県",
    "prefecture_kana": "オカヤマケン",
    "prefecture_code": 33,
    "city": "真庭市",
    "city_kana": "マニワシ",
    "town": "蒜山富山根",
    "town_kana": "ヒルゼントミヤマネ",
    "street": null,
    "office_name": null,
    "office_name_kana": null
  },
  "0504": {
    "postcode": "7170504",
    "prefecture": "岡山県",
    "prefecture_kana": "オカヤマケン",
    "prefecture_code": 33,
    "city": "真庭市",
    "city_kana": "マニワシ",
    "town": "蒜山下福田",
    "town_kana": "ヒルゼンシモフクダ",
    "street": null,
    "office_name": null,
    "office_name_kana": null
  },
  "0505": {
    "postcode": "7170505",
    "prefecture": "岡山県",
    "prefecture_kana": "オカヤマケン",
    "prefecture_code": 33,
    "city": "真庭市",
    "city_kana": "マニワシ",
    "town": "蒜山上長田",
    "town_kana": "ヒルゼンカミナガタ",
    "street": null,
    "office_name": null,
    "office_name_kana": null
  },
  "0506": {
    "postcode": "7170506",
    "prefecture": "岡山県",
    "prefecture_kana": "オカヤマケン",
    "prefecture_code": 33,
    "city": "真庭市",
    "city_kana": "マニワシ",
    "town": "蒜山下長田",
    "town_kana": "ヒルゼンシモナガタ",
    "street": null,
    "office_name": null,
    "office_name_kana": null
  },
  "0507": {
    "postcode": "7170507",
    "prefecture": "岡山県",
    "prefecture_kana": "オカヤマケン",
    "prefecture_code": 33,
    "city": "真庭市",
    "city_kana": "マニワシ",
    "town": "蒜山下見",
    "town_kana": "ヒルゼンシモミ",
    "street": null,
    "office_name": null,
    "office_name_kana": null
  },
  "0511": {
    "postcode": "7170511",
    "prefecture": "岡山県",
    "prefecture_kana": "オカヤマケン",
    "prefecture_code": 33,
    "city": "真庭市",
    "city_kana": "マニワシ",
    "town": "蒜山初和",
    "town_kana": "ヒルゼンハツワ",
    "street": null,
    "office_name": null,
    "office_name_kana": null
  },
  "0512": {
    "postcode": "7170512",
    "prefecture": "岡山県",
    "prefecture_kana": "オカヤマケン",
    "prefecture_code": 33,
    "city": "真庭市",
    "city_kana": "マニワシ",
    "town": "蒜山真加子",
    "town_kana": "ヒルゼンマカゴ",
    "street": null,
    "office_name": null,
    "office_name_kana": null
  },
  "0513": {
    "postcode": "7170513",
    "prefecture": "岡山県",
    "prefecture_kana": "オカヤマケン",
    "prefecture_code": 33,
    "city": "真庭市",
    "city_kana": "マニワシ",
    "town": "蒜山下和",
    "town_kana": "ヒルゼンシタオ",
    "street": null,
    "office_name": null,
    "office_name_kana": null
  },
  "0514": {
    "postcode": "7170514",
    "prefecture": "岡山県",
    "prefecture_kana": "オカヤマケン",
    "prefecture_code": 33,
    "city": "真庭市",
    "city_kana": "マニワシ",
    "town": "蒜山吉田",
    "town_kana": "ヒルゼンヨシダ",
    "street": null,
    "office_name": null,
    "office_name_kana": null
  },
  "0515": {
    "postcode": "7170515",
    "prefecture": "岡山県",
    "prefecture_kana": "オカヤマケン",
    "prefecture_code": 33,
    "city": "真庭市",
    "city_kana": "マニワシ",
    "town": "蒜山別所",
    "town_kana": "ヒルゼンベッショ",
    "street": null,
    "office_name": null,
    "office_name_kana": null
  },
  "0601": {
    "postcode": "7170601",
    "prefecture": "岡山県",
    "prefecture_kana": "オカヤマケン",
    "prefecture_code": 33,
    "city": "真庭市",
    "city_kana": "マニワシ",
    "town": "蒜山湯船",
    "town_kana": "ヒルゼンユブネ",
    "street": null,
    "office_name": null,
    "office_name_kana": null
  },
  "0602": {
    "postcode": "7170602",
    "prefecture": "岡山県",
    "prefecture_kana": "オカヤマケン",
    "prefecture_code": 33,
    "city": "真庭市",
    "city_kana": "マニワシ",
    "town": "蒜山上福田",
    "town_kana": "ヒルゼンカミフクダ",
    "street": null,
    "office_name": null,
    "office_name_kana": null
  },
  "0603": {
    "postcode": "7170603",
    "prefecture": "岡山県",
    "prefecture_kana": "オカヤマケン",
    "prefecture_code": 33,
    "city": "真庭市",
    "city_kana": "マニワシ",
    "town": "蒜山東茅部",
    "town_kana": "ヒルゼンヒガシカヤベ",
    "street": null,
    "office_name": null,
    "office_name_kana": null
  },
  "0604": {
    "postcode": "7170604",
    "prefecture": "岡山県",
    "prefecture_kana": "オカヤマケン",
    "prefecture_code": 33,
    "city": "真庭市",
    "city_kana": "マニワシ",
    "town": "蒜山西茅部",
    "town_kana": "ヒルゼンニシカヤベ",
    "street": null,
    "office_name": null,
    "office_name_kana": null
  },
  "0611": {
    "postcode": "7170611",
    "prefecture": "岡山県",
    "prefecture_kana": "オカヤマケン",
    "prefecture_code": 33,
    "city": "真庭市",
    "city_kana": "マニワシ",
    "town": "蒜山本茅部",
    "town_kana": "ヒルゼンホンカヤベ",
    "street": null,
    "office_name": null,
    "office_name_kana": null
  },
  "0612": {
    "postcode": "7170612",
    "prefecture": "岡山県",
    "prefecture_kana": "オカヤマケン",
    "prefecture_code": 33,
    "city": "真庭市",
    "city_kana": "マニワシ",
    "town": "蒜山上徳山",
    "town_kana": "ヒルゼンカミトクヤマ",
    "street": null,
    "office_name": null,
    "office_name_kana": null
  },
  "0613": {
    "postcode": "7170613",
    "prefecture": "岡山県",
    "prefecture_kana": "オカヤマケン",
    "prefecture_code": 33,
    "city": "真庭市",
    "city_kana": "マニワシ",
    "town": "蒜山下徳山",
    "town_kana": "ヒルゼンシモトクヤマ",
    "street": null,
    "office_name": null,
    "office_name_kana": null
  },
  "0731": {
    "postcode": "7170731",
    "prefecture": "岡山県",
    "prefecture_kana": "オカヤマケン",
    "prefecture_code": 33,
    "city": "真庭市",
    "city_kana": "マニワシ",
    "town": "曲り",
    "town_kana": "マガリ",
    "street": null,
    "office_name": null,
    "office_name_kana": null
  },
  "0732": {
    "postcode": "7170732",
    "prefecture": "岡山県",
    "prefecture_kana": "オカヤマケン",
    "prefecture_code": 33,
    "city": "真庭市",
    "city_kana": "マニワシ",
    "town": "高田山上",
    "town_kana": "タカタヤマウエ",
    "street": null,
    "office_name": null,
    "office_name_kana": null
  },
  "0733": {
    "postcode": "7170733",
    "prefecture": "岡山県",
    "prefecture_kana": "オカヤマケン",
    "prefecture_code": 33,
    "city": "真庭市",
    "city_kana": "マニワシ",
    "town": "若代畝",
    "town_kana": "ワカシロウネ",
    "street": null,
    "office_name": null,
    "office_name_kana": null
  },
  "0734": {
    "postcode": "7170734",
    "prefecture": "岡山県",
    "prefecture_kana": "オカヤマケン",
    "prefecture_code": 33,
    "city": "真庭市",
    "city_kana": "マニワシ",
    "town": "野",
    "town_kana": "ノ",
    "street": null,
    "office_name": null,
    "office_name_kana": null
  },
  "0735": {
    "postcode": "7170735",
    "prefecture": "岡山県",
    "prefecture_kana": "オカヤマケン",
    "prefecture_code": 33,
    "city": "真庭市",
    "city_kana": "マニワシ",
    "town": "下岩",
    "town_kana": "シモイワ",
    "street": null,
    "office_name": null,
    "office_name_kana": null
  },
  "0736": {
    "postcode": "7170736",
    "prefecture": "岡山県",
    "prefecture_kana": "オカヤマケン",
    "prefecture_code": 33,
    "city": "真庭市",
    "city_kana": "マニワシ",
    "town": "古呂々尾中",
    "town_kana": "コロロビナカ",
    "street": null,
    "office_name": null,
    "office_name_kana": null
  },
  "0737": {
    "postcode": "7170737",
    "prefecture": "岡山県",
    "prefecture_kana": "オカヤマケン",
    "prefecture_code": 33,
    "city": "真庭市",
    "city_kana": "マニワシ",
    "town": "清谷",
    "town_kana": "セイタニ",
    "street": null,
    "office_name": null,
    "office_name_kana": null
  },
  "0741": {
    "postcode": "7170741",
    "prefecture": "岡山県",
    "prefecture_kana": "オカヤマケン",
    "prefecture_code": 33,
    "city": "真庭市",
    "city_kana": "マニワシ",
    "town": "若代",
    "town_kana": "ワカシロ",
    "street": null,
    "office_name": null,
    "office_name_kana": null
  },
  "0742": {
    "postcode": "7170742",
    "prefecture": "岡山県",
    "prefecture_kana": "オカヤマケン",
    "prefecture_code": 33,
    "city": "真庭市",
    "city_kana": "マニワシ",
    "town": "後谷",
    "town_kana": "ウシロダニ",
    "street": null,
    "office_name": null,
    "office_name_kana": null
  },
  "0743": {
    "postcode": "7170743",
    "prefecture": "岡山県",
    "prefecture_kana": "オカヤマケン",
    "prefecture_code": 33,
    "city": "真庭市",
    "city_kana": "マニワシ",
    "town": "月田本",
    "town_kana": "ツキダホン",
    "street": null,
    "office_name": null,
    "office_name_kana": null
  },
  "0744": {
    "postcode": "7170744",
    "prefecture": "岡山県",
    "prefecture_kana": "オカヤマケン",
    "prefecture_code": 33,
    "city": "真庭市",
    "city_kana": "マニワシ",
    "town": "岩井谷",
    "town_kana": "イワイダニ",
    "street": null,
    "office_name": null,
    "office_name_kana": null
  },
  "0745": {
    "postcode": "7170745",
    "prefecture": "岡山県",
    "prefecture_kana": "オカヤマケン",
    "prefecture_code": 33,
    "city": "真庭市",
    "city_kana": "マニワシ",
    "town": "岩井畝",
    "town_kana": "イワイウネ",
    "street": null,
    "office_name": null,
    "office_name_kana": null
  },
  "0746": {
    "postcode": "7170746",
    "prefecture": "岡山県",
    "prefecture_kana": "オカヤマケン",
    "prefecture_code": 33,
    "city": "真庭市",
    "city_kana": "マニワシ",
    "town": "上",
    "town_kana": "カミ",
    "street": null,
    "office_name": null,
    "office_name_kana": null
  },
  "8501": {
    "postcode": "7178501",
    "prefecture": "岡山県",
    "prefecture_kana": "オカヤマケン",
    "prefecture_code": 33,
    "city": "真庭市",
    "city_kana": "マニワシ",
    "town": "勝山",
    "town_kana": "カツヤマ",
    "street": "５９１",
    "office_name": "美作県民局　真庭支局",
    "office_name_kana": "ミマサカケンミンキヨク マニワシキヨク"
  }
}