{
  "0000": {
    "postcode": "7180000",
    "prefecture": "岡山県",
    "prefecture_kana": "オカヤマケン",
    "prefecture_code": 33,
    "city": "新見市",
    "city_kana": "ニイミシ",
    "town": "",
    "town_kana": "",
    "street": null,
    "office_name": null,
    "office_name_kana": null
  },
  "0001": {
    "postcode": "7180001",
    "prefecture": "岡山県",
    "prefecture_kana": "オカヤマケン",
    "prefecture_code": 33,
    "city": "新見市",
    "city_kana": "ニイミシ",
    "town": "上熊谷",
    "town_kana": "カミクマタニ",
    "street": null,
    "office_name": null,
    "office_name_kana": null
  },
  "0002": {
    "postcode": "7180002",
    "prefecture": "岡山県",
    "prefecture_kana": "オカヤマケン",
    "prefecture_code": 33,
    "city": "新見市",
    "city_kana": "ニイミシ",
    "town": "下熊谷",
    "town_kana": "シモクマタニ",
    "street": null,
    "office_name": null,
    "office_name_kana": null
  },
  "0003": {
    "postcode": "7180003",
    "prefecture": "岡山県",
    "prefecture_kana": "オカヤマケン",
    "prefecture_code": 33,
    "city": "新見市",
    "city_kana": "ニイミシ",
    "town": "高尾",
    "town_kana": "タカオ",
    "street": null,
    "office_name": null,
    "office_name_kana": null
  },
  "0004": {
    "postcode": "7180004",
    "prefecture": "岡山県",
    "prefecture_kana": "オカヤマケン",
    "prefecture_code": 33,
    "city": "新見市",
    "city_kana": "ニイミシ",
    "town": "馬塚",
    "town_kana": "マヅカ",
    "street": null,
    "office_name": null,
    "office_name_kana": null
  },
  "0005": {
    "postcode": "7180005",
    "prefecture": "岡山県",
    "prefecture_kana": "オカヤマケン",
    "prefecture_code": 33,
    "city": "新見市",
    "city_kana": "ニイミシ",
    "town": "上市",
    "town_kana": "カミイチ",
    "street": null,
    "office_name": null,
    "office_name_kana": null
  },
  "0006": {
    "postcode": "7180006",
    "prefecture": "岡山県",
    "prefecture_kana": "オカヤマケン",
    "prefecture_code": 33,
    "city": "新見市",
    "city_kana": "ニイミシ",
    "town": "足立",
    "town_kana": "アシダチ",
    "street": null,
    "office_name": null,
    "office_name_kana": null
  },
  "0007": {
    "postcode": "7180007",
    "prefecture": "岡山県",
    "prefecture_kana": "オカヤマケン",
    "prefecture_code": 33,
    "city": "新見市",
    "city_kana": "ニイミシ",
    "town": "坂本",
    "town_kana": "サカモト",
    "street": null,
    "office_name": null,
    "office_name_kana": null
  },
  "0011": {
    "postcode": "7180011",
    "prefecture": "岡山県",
    "prefecture_kana": "オカヤマケン",
    "prefecture_code": 33,
    "city": "新見市",
    "city_kana": "ニイミシ",
    "town": "新見",
    "town_kana": "ニイミ",
    "street": null,
    "office_name": null,
    "office_name_kana": null
  },
  "0012": {
    "postcode": "7180012",
    "prefecture": "岡山県",
    "prefecture_kana": "オカヤマケン",
    "prefecture_code": 33,
    "city": "新見市",
    "city_kana": "ニイミシ",
    "town": "唐松",
    "town_kana": "カラマツ",
    "street": null,
    "office_name": null,
    "office_name_kana": null
  },
  "0013": {
    "postcode": "7180013",
    "prefecture": "岡山県",
    "prefecture_kana": "オカヤマケン",
    "prefecture_code": 33,
    "city": "新見市",
    "city_kana": "ニイミシ",
    "town": "正田",
    "town_kana": "ショウデン",
    "street": null,
    "office_name": null,
    "office_name_kana": null
  },
  "0014": {
    "postcode": "7180014",
    "prefecture": "岡山県",
    "prefecture_kana": "オカヤマケン",
    "prefecture_code": 33,
    "city": "新見市",
    "city_kana": "ニイミシ",
    "town": "長屋",
    "town_kana": "ナガヤ",
    "street": null,
    "office_name": null,
    "office_name_kana": null
  },
  "0015": {
    "postcode": "7180015",
    "prefecture": "岡山県",
    "prefecture_kana": "オカヤマケン",
    "prefecture_code": 33,
    "city": "新見市",
    "city_kana": "ニイミシ",
    "town": "石蟹",
    "town_kana": "イシガ",
    "street": null,
    "office_name": null,
    "office_name_kana": null
  },
  "0016": {
    "postcode": "7180016",
    "prefecture": "岡山県",
    "prefecture_kana": "オカヤマケン",
    "prefecture_code": 33,
    "city": "新見市",
    "city_kana": "ニイミシ",
    "town": "金谷",
    "town_kana": "カナヤ",
    "street": null,
    "office_name": null,
    "office_name_kana": null
  },
  "0017": {
    "postcode": "7180017",
    "prefecture": "岡山県",
    "prefecture_kana": "オカヤマケン",
    "prefecture_code": 33,
    "city": "新見市",
    "city_kana": "ニイミシ",
    "town": "西方",
    "town_kana": "ニシガタ",
    "street": null,
    "office_name": null,
    "office_name_kana": null
  },
  "0101": {
    "postcode": "7180101",
    "prefecture": "岡山県",
    "prefecture_kana": "オカヤマケン",
    "prefecture_code": 33,
    "city": "新見市",
    "city_kana": "ニイミシ",
    "town": "千屋",
    "town_kana": "チヤ",
    "street": null,
    "office_name": null,
    "office_name_kana": null
  },
  "0102": {
    "postcode": "7180102",
    "prefecture": "岡山県",
    "prefecture_kana": "オカヤマケン",
    "prefecture_code": 33,
    "city": "新見市",
    "city_kana": "ニイミシ",
    "town": "千屋実",
    "town_kana": "チヤサネ",
    "street": null,
    "office_name": null,
    "office_name_kana": null
  },
  "0103": {
    "postcode": "7180103",
    "prefecture": "岡山県",
    "prefecture_kana": "オカヤマケン",
    "prefecture_code": 33,
    "city": "新見市",
    "city_kana": "ニイミシ",
    "town": "千屋井原",
    "town_kana": "チヤイハラ",
    "street": null,
    "office_name": null,
    "office_name_kana": null
  },
  "0104": {
    "postcode": "7180104",
    "prefecture": "岡山県",
    "prefecture_kana": "オカヤマケン",
    "prefecture_code": 33,
    "city": "新見市",
    "city_kana": "ニイミシ",
    "town": "千屋花見",
    "town_kana": "チヤハナミ",
    "street": null,
    "office_name": null,
    "office_name_kana": null
  },
  "0211": {
    "postcode": "7180211",
    "prefecture": "岡山県",
    "prefecture_kana": "オカヤマケン",
    "prefecture_code": 33,
    "city": "新見市",
    "city_kana": "ニイミシ",
    "town": "菅生",
    "town_kana": "スゴウ",
    "street": null,
    "office_name": null,
    "office_name_kana": null
  },
  "0301": {
    "postcode": "7180301",
    "prefecture": "岡山県",
    "prefecture_kana": "オカヤマケン",
    "prefecture_code": 33,
    "city": "新見市",
    "city_kana": "ニイミシ",
    "town": "哲多町宮河内",
    "town_kana": "テッタチョウミヤゴウチ",
    "street": null,
    "office_name": null,
    "office_name_kana": null
  },
  "0302": {
    "postcode": "7180302",
    "prefecture": "岡山県",
    "prefecture_kana": "オカヤマケン",
    "prefecture_code": 33,
    "city": "新見市",
    "city_kana": "ニイミシ",
    "town": "哲多町花木",
    "town_kana": "テッタチョウハナギ",
    "street": null,
    "office_name": null,
    "office_name_kana": null
  },
  "0303": {
    "postcode": "7180303",
    "prefecture": "岡山県",
    "prefecture_kana": "オカヤマケン",
    "prefecture_code": 33,
    "city": "新見市",
    "city_kana": "ニイミシ",
    "town": "哲多町本郷",
    "town_kana": "テッタチョウホンゴウ",
    "street": null,
    "office_name": null,
    "office_name_kana": null
  },
  "0304": {
    "postcode": "7180304",
    "prefecture": "岡山県",
    "prefecture_kana": "オカヤマケン",
    "prefecture_code": 33,
    "city": "新見市",
    "city_kana": "ニイミシ",
    "town": "哲多町成松",
    "town_kana": "テッタチョウナリマツ",
    "street": null,
    "office_name": null,
    "office_name_kana": null
  },
  "0305": {
    "postcode": "7180305",
    "prefecture": "岡山県",
    "prefecture_kana": "オカヤマケン",
    "prefecture_code": 33,
    "city": "新見市",
    "city_kana": "ニイミシ",
    "town": "哲多町荻尾",
    "town_kana": "テッタチョウオギョオ",
    "street": null,
    "office_name": null,
    "office_name_kana": null
  },
  "0306": {
    "postcode": "7180306",
    "prefecture": "岡山県",
    "prefecture_kana": "オカヤマケン",
    "prefecture_code": 33,
    "city": "新見市",
    "city_kana": "ニイミシ",
    "town": "哲多町矢戸",
    "town_kana": "テッタチョウヤト",
    "street": null,
    "office_name": null,
    "office_name_kana": null
  },
  "0307": {
    "postcode": "7180307",
    "prefecture": "岡山県",
    "prefecture_kana": "オカヤマケン",
    "prefecture_code": 33,
    "city": "新見市",
    "city_kana": "ニイミシ",
    "town": "哲多町老栄",
    "town_kana": "テッタチョウオイザコ",
    "street": null,
    "office_name": null,
    "office_name_kana": null
  },
  "0311": {
    "postcode": "7180311",
    "prefecture": "岡山県",
    "prefecture_kana": "オカヤマケン",
    "prefecture_code": 33,
    "city": "新見市",
    "city_kana": "ニイミシ",
    "town": "哲多町蚊家",
    "town_kana": "テッタチョウコウノイエ",
    "street": null,
    "office_name": null,
    "office_name_kana": null
  },
  "0312": {
    "postcode": "7180312",
    "prefecture": "岡山県",
    "prefecture_kana": "オカヤマケン",
    "prefecture_code": 33,
    "city": "新見市",
    "city_kana": "ニイミシ",
    "town": "哲多町田淵",
    "town_kana": "テッタチョウタブチ",
    "street": null,
    "office_name": null,
    "office_name_kana": null
  },
  "0313": {
    "postcode": "7180313",
    "prefecture": "岡山県",
    "prefecture_kana": "オカヤマケン",
    "prefecture_code": 33,
    "city": "新見市",
    "city_kana": "ニイミシ",
    "town": "哲多町大野",
    "town_kana": "テッタチョウオオノ",
    "street": null,
    "office_name": null,
    "office_name_kana": null
  },
  "0392": {
    "postcode": "7180392",
    "prefecture": "岡山県",
    "prefecture_kana": "オカヤマケン",
    "prefecture_code": 33,
    "city": "新見市",
    "city_kana": "ニイミシ",
    "town": "哲多町田淵",
    "town_kana": "テッタチョウタブチ",
    "street": "７０番地",
    "office_name": "公設国際貢献大学校",
    "office_name_kana": "コウセツコクサイコウケンダイガツコウ"
  },
  "8501": {
    "postcode": "7188501",
    "prefecture": "岡山県",
    "prefecture_kana": "オカヤマケン",
    "prefecture_code": 33,
    "city": "新見市",
    "city_kana": "ニイミシ",
    "town": "新見",
    "town_kana": "ニイミ",
    "street": "３１０−３",
    "office_name": "新見市役所",
    "office_name_kana": "ニイミシヤクシヨ"
  },
  "8510": {
    "postcode": "7188510",
    "prefecture": "岡山県",
    "prefecture_kana": "オカヤマケン",
    "prefecture_code": 33,
    "city": "新見市",
    "city_kana": "ニイミシ",
    "town": "新見",
    "town_kana": "ニイミ",
    "street": "７２１−１",
    "office_name": "新見税務署",
    "office_name_kana": "ニイミゼイムシヨ"
  },
  "8530": {
    "postcode": "7188530",
    "prefecture": "岡山県",
    "prefecture_kana": "オカヤマケン",
    "prefecture_code": 33,
    "city": "新見市",
    "city_kana": "ニイミシ",
    "town": "高尾",
    "town_kana": "タカオ",
    "street": "２４２３",
    "office_name": "阿新農業協同組合",
    "office_name_kana": "アシンノウギヨウキヨウドウクミアイ"
  },
  "8550": {
    "postcode": "7188550",
    "prefecture": "岡山県",
    "prefecture_kana": "オカヤマケン",
    "prefecture_code": 33,
    "city": "新見市",
    "city_kana": "ニイミシ",
    "town": "高尾",
    "town_kana": "タカオ",
    "street": "２４００",
    "office_name": "岡山県　備中県民局　新見支局",
    "office_name_kana": "オカヤマケン ビツチユウケンミンキヨク ニイミシキヨク"
  },
  "8585": {
    "postcode": "7188585",
    "prefecture": "岡山県",
    "prefecture_kana": "オカヤマケン",
    "prefecture_code": 33,
    "city": "新見市",
    "city_kana": "ニイミシ",
    "town": "西方",
    "town_kana": "ニシガタ",
    "street": "１２６３−２",
    "office_name": "公立大学法人　新見公立大学",
    "office_name_kana": "コウリツダイガクホウジン ニイミコウリツダイガク"
  }
}