{
  "0000": {
    "postcode": "7210000",
    "prefecture": "広島県",
    "prefecture_kana": "ヒロシマケン",
    "prefecture_code": 34,
    "city": "福山市",
    "city_kana": "フクヤマシ",
    "town": "",
    "town_kana": "",
    "street": null,
    "office_name": null,
    "office_name_kana": null
  },
  "0901": {
    "postcode": "7210901",
    "prefecture": "広島県",
    "prefecture_kana": "ヒロシマケン",
    "prefecture_code": 34,
    "city": "福山市",
    "city_kana": "フクヤマシ",
    "town": "春日町宇山",
    "town_kana": "カスガチョウウヤマ",
    "street": null,
    "office_name": null,
    "office_name_kana": null
  },
  "0902": {
    "postcode": "7210902",
    "prefecture": "広島県",
    "prefecture_kana": "ヒロシマケン",
    "prefecture_code": 34,
    "city": "福山市",
    "city_kana": "フクヤマシ",
    "town": "春日町浦上",
    "town_kana": "カスガチョウウラカミ",
    "street": null,
    "office_name": null,
    "office_name_kana": null
  },
  "0903": {
    "postcode": "7210903",
    "prefecture": "広島県",
    "prefecture_kana": "ヒロシマケン",
    "prefecture_code": 34,
    "city": "福山市",
    "city_kana": "フクヤマシ",
    "town": "坪生町",
    "town_kana": "ツボウチョウ",
    "street": null,
    "office_name": null,
    "office_name_kana": null
  },
  "0904": {
    "postcode": "7210904",
    "prefecture": "広島県",
    "prefecture_kana": "ヒロシマケン",
    "prefecture_code": 34,
    "city": "福山市",
    "city_kana": "フクヤマシ",
    "town": "坪生町南",
    "town_kana": "ツボウチョウミナミ",
    "street": null,
    "office_name": null,
    "office_name_kana": null
  },
  "0906": {
    "postcode": "7210906",
    "prefecture": "広島県",
    "prefecture_kana": "ヒロシマケン",
    "prefecture_code": 34,
    "city": "福山市",
    "city_kana": "フクヤマシ",
    "town": "能島",
    "town_kana": "ノウジマ",
    "street": null,
    "office_name": null,
    "office_name_kana": null
  },
  "0907": {
    "postcode": "7210907",
    "prefecture": "広島県",
    "prefecture_kana": "ヒロシマケン",
    "prefecture_code": 34,
    "city": "福山市",
    "city_kana": "フクヤマシ",
    "town": "春日町",
    "town_kana": "カスガチョウ",
    "street": null,
    "office_name": null,
    "office_name_kana": null
  },
  "0908": {
    "postcode": "7210908",
    "prefecture": "広島県",
    "prefecture_kana": "ヒロシマケン",
    "prefecture_code": 34,
    "city": "福山市",
    "city_kana": "フクヤマシ",
    "town": "春日町吉田",
    "town_kana": "カスガチョウヨシダ",
    "street": null,
    "office_name": null,
    "office_name_kana": null
  },
  "0911": {
    "postcode": "7210911",
    "prefecture": "広島県",
    "prefecture_kana": "ヒロシマケン",
    "prefecture_code": 34,
    "city": "福山市",
    "city_kana": "フクヤマシ",
    "town": "青葉台",
    "town_kana": "アオバダイ",
    "street": null,
    "office_name": null,
    "office_name_kana": null
  },
  "0912": {
    "postcode": "7210912",
    "prefecture": "広島県",
    "prefecture_kana": "ヒロシマケン",
    "prefecture_code": 34,
    "city": "福山市",
    "city_kana": "フクヤマシ",
    "town": "東陽台",
    "town_kana": "トウヨウダイ",
    "street": null,
    "office_name": null,
    "office_name_kana": null
  },
  "0913": {
    "postcode": "7210913",
    "prefecture": "広島県",
    "prefecture_kana": "ヒロシマケン",
    "prefecture_code": 34,
    "city": "福山市",
    "city_kana": "フクヤマシ",
    "town": "幕山台",
    "town_kana": "マクヤマダイ",
    "street": null,
    "office_name": null,
    "office_name_kana": null
  },
  "0914": {
    "postcode": "7210914",
    "prefecture": "広島県",
    "prefecture_kana": "ヒロシマケン",
    "prefecture_code": 34,
    "city": "福山市",
    "city_kana": "フクヤマシ",
    "town": "大谷台",
    "town_kana": "オオタニダイ",
    "street": null,
    "office_name": null,
    "office_name_kana": null
  },
  "0915": {
    "postcode": "7210915",
    "prefecture": "広島県",
    "prefecture_kana": "ヒロシマケン",
    "prefecture_code": 34,
    "city": "福山市",
    "city_kana": "フクヤマシ",
    "town": "伊勢丘",
    "town_kana": "イセガオカ",
    "street": null,
    "office_name": null,
    "office_name_kana": null
  },
  "0916": {
    "postcode": "7210916",
    "prefecture": "広島県",
    "prefecture_kana": "ヒロシマケン",
    "prefecture_code": 34,
    "city": "福山市",
    "city_kana": "フクヤマシ",
    "town": "春日台",
    "town_kana": "カスガダイ",
    "street": null,
    "office_name": null,
    "office_name_kana": null
  },
  "0917": {
    "postcode": "7210917",
    "prefecture": "広島県",
    "prefecture_kana": "ヒロシマケン",
    "prefecture_code": 34,
    "city": "福山市",
    "city_kana": "フクヤマシ",
    "town": "春日池",
    "town_kana": "カスガイケ",
    "street": null,
    "office_name": null,
    "office_name_kana": null
  },
  "0921": {
    "postcode": "7210921",
    "prefecture": "広島県",
    "prefecture_kana": "ヒロシマケン",
    "prefecture_code": 34,
    "city": "福山市",
    "city_kana": "フクヤマシ",
    "town": "大門町大門",
    "town_kana": "ダイモンチョウダイモン",
    "street": null,
    "office_name": null,
    "office_name_kana": null
  },
  "0922": {
    "postcode": "7210922",
    "prefecture": "広島県",
    "prefecture_kana": "ヒロシマケン",
    "prefecture_code": 34,
    "city": "福山市",
    "city_kana": "フクヤマシ",
    "town": "大門町日之出丘",
    "town_kana": "ダイモンチョウヒノデオカ",
    "street": null,
    "office_name": null,
    "office_name_kana": null
  },
  "0923": {
    "postcode": "7210923",
    "prefecture": "広島県",
    "prefecture_kana": "ヒロシマケン",
    "prefecture_code": 34,
    "city": "福山市",
    "city_kana": "フクヤマシ",
    "town": "大門町野々浜",
    "town_kana": "ダイモンチョウノノハマ",
    "street": null,
    "office_name": null,
    "office_name_kana": null
  },
  "0924": {
    "postcode": "7210924",
    "prefecture": "広島県",
    "prefecture_kana": "ヒロシマケン",
    "prefecture_code": 34,
    "city": "福山市",
    "city_kana": "フクヤマシ",
    "town": "大門町旭",
    "town_kana": "ダイモンチョウアサヒ",
    "street": null,
    "office_name": null,
    "office_name_kana": null
  },
  "0925": {
    "postcode": "7210925",
    "prefecture": "広島県",
    "prefecture_kana": "ヒロシマケン",
    "prefecture_code": 34,
    "city": "福山市",
    "city_kana": "フクヤマシ",
    "town": "大門町坂里",
    "town_kana": "ダイモンチョウサカリ",
    "street": null,
    "office_name": null,
    "office_name_kana": null
  },
  "0926": {
    "postcode": "7210926",
    "prefecture": "広島県",
    "prefecture_kana": "ヒロシマケン",
    "prefecture_code": 34,
    "city": "福山市",
    "city_kana": "フクヤマシ",
    "town": "大門町",
    "town_kana": "ダイモンチョウ",
    "street": null,
    "office_name": null,
    "office_name_kana": null
  },
  "0927": {
    "postcode": "7210927",
    "prefecture": "広島県",
    "prefecture_kana": "ヒロシマケン",
    "prefecture_code": 34,
    "city": "福山市",
    "city_kana": "フクヤマシ",
    "town": "大門町津之下",
    "town_kana": "ダイモンチョウツノシタ",
    "street": null,
    "office_name": null,
    "office_name_kana": null
  },
  "0929": {
    "postcode": "7210929",
    "prefecture": "広島県",
    "prefecture_kana": "ヒロシマケン",
    "prefecture_code": 34,
    "city": "福山市",
    "city_kana": "フクヤマシ",
    "town": "城興ケ丘",
    "town_kana": "ジョウコウガオカ",
    "street": null,
    "office_name": null,
    "office_name_kana": null
  },
  "0931": {
    "postcode": "7210931",
    "prefecture": "広島県",
    "prefecture_kana": "ヒロシマケン",
    "prefecture_code": 34,
    "city": "福山市",
    "city_kana": "フクヤマシ",
    "town": "鋼管町",
    "town_kana": "コウカンチョウ",
    "street": null,
    "office_name": null,
    "office_name_kana": null
  },
  "0941": {
    "postcode": "7210941",
    "prefecture": "広島県",
    "prefecture_kana": "ヒロシマケン",
    "prefecture_code": 34,
    "city": "福山市",
    "city_kana": "フクヤマシ",
    "town": "引野町北",
    "town_kana": "ヒキノチョウキタ",
    "street": null,
    "office_name": null,
    "office_name_kana": null
  },
  "0942": {
    "postcode": "7210942",
    "prefecture": "広島県",
    "prefecture_kana": "ヒロシマケン",
    "prefecture_code": 34,
    "city": "福山市",
    "city_kana": "フクヤマシ",
    "town": "引野町",
    "town_kana": "ヒキノチョウ",
    "street": null,
    "office_name": null,
    "office_name_kana": null
  },
  "0943": {
    "postcode": "7210943",
    "prefecture": "広島県",
    "prefecture_kana": "ヒロシマケン",
    "prefecture_code": 34,
    "city": "福山市",
    "city_kana": "フクヤマシ",
    "town": "平成台",
    "town_kana": "ヘイセイダイ",
    "street": null,
    "office_name": null,
    "office_name_kana": null
  },
  "0944": {
    "postcode": "7210944",
    "prefecture": "広島県",
    "prefecture_kana": "ヒロシマケン",
    "prefecture_code": 34,
    "city": "福山市",
    "city_kana": "フクヤマシ",
    "town": "引野町東",
    "town_kana": "ヒキノチョウヒガシ",
    "street": null,
    "office_name": null,
    "office_name_kana": null
  },
  "0945": {
    "postcode": "7210945",
    "prefecture": "広島県",
    "prefecture_kana": "ヒロシマケン",
    "prefecture_code": 34,
    "city": "福山市",
    "city_kana": "フクヤマシ",
    "town": "引野町南",
    "town_kana": "ヒキノチョウミナミ",
    "street": null,
    "office_name": null,
    "office_name_kana": null
  },
  "0951": {
    "postcode": "7210951",
    "prefecture": "広島県",
    "prefecture_kana": "ヒロシマケン",
    "prefecture_code": 34,
    "city": "福山市",
    "city_kana": "フクヤマシ",
    "town": "新浜町",
    "town_kana": "シンハマチョウ",
    "street": null,
    "office_name": null,
    "office_name_kana": null
  },
  "0952": {
    "postcode": "7210952",
    "prefecture": "広島県",
    "prefecture_kana": "ヒロシマケン",
    "prefecture_code": 34,
    "city": "福山市",
    "city_kana": "フクヤマシ",
    "town": "曙町",
    "town_kana": "アケボノチョウ",
    "street": null,
    "office_name": null,
    "office_name_kana": null
  },
  "0953": {
    "postcode": "7210953",
    "prefecture": "広島県",
    "prefecture_kana": "ヒロシマケン",
    "prefecture_code": 34,
    "city": "福山市",
    "city_kana": "フクヤマシ",
    "town": "一文字町",
    "town_kana": "イチモンジチョウ",
    "street": null,
    "office_name": null,
    "office_name_kana": null
  },
  "0954": {
    "postcode": "7210954",
    "prefecture": "広島県",
    "prefecture_kana": "ヒロシマケン",
    "prefecture_code": 34,
    "city": "福山市",
    "city_kana": "フクヤマシ",
    "town": "卸町",
    "town_kana": "オロシマチ",
    "street": null,
    "office_name": null,
    "office_name_kana": null
  },
  "0955": {
    "postcode": "7210955",
    "prefecture": "広島県",
    "prefecture_kana": "ヒロシマケン",
    "prefecture_code": 34,
    "city": "福山市",
    "city_kana": "フクヤマシ",
    "town": "新涯町",
    "town_kana": "シンガイチョウ",
    "street": null,
    "office_name": null,
    "office_name_kana": null
  },
  "0956": {
    "postcode": "7210956",
    "prefecture": "広島県",
    "prefecture_kana": "ヒロシマケン",
    "prefecture_code": 34,
    "city": "福山市",
    "city_kana": "フクヤマシ",
    "town": "箕沖町",
    "town_kana": "ミノオキチョウ",
    "street": null,
    "office_name": null,
    "office_name_kana": null
  },
  "0957": {
    "postcode": "7210957",
    "prefecture": "広島県",
    "prefecture_kana": "ヒロシマケン",
    "prefecture_code": 34,
    "city": "福山市",
    "city_kana": "フクヤマシ",
    "town": "箕島町",
    "town_kana": "ミノシマチョウ",
    "street": null,
    "office_name": null,
    "office_name_kana": null
  },
  "0958": {
    "postcode": "7210958",
    "prefecture": "広島県",
    "prefecture_kana": "ヒロシマケン",
    "prefecture_code": 34,
    "city": "福山市",
    "city_kana": "フクヤマシ",
    "town": "西新涯町",
    "town_kana": "ニシシンガイチョウ",
    "street": null,
    "office_name": null,
    "office_name_kana": null
  },
  "0961": {
    "postcode": "7210961",
    "prefecture": "広島県",
    "prefecture_kana": "ヒロシマケン",
    "prefecture_code": 34,
    "city": "福山市",
    "city_kana": "フクヤマシ",
    "town": "明神町",
    "town_kana": "ミョウジンチョウ",
    "street": null,
    "office_name": null,
    "office_name_kana": null
  },
  "0962": {
    "postcode": "7210962",
    "prefecture": "広島県",
    "prefecture_kana": "ヒロシマケン",
    "prefecture_code": 34,
    "city": "福山市",
    "city_kana": "フクヤマシ",
    "town": "東手城町",
    "town_kana": "ヒガシテシロチョウ",
    "street": null,
    "office_name": null,
    "office_name_kana": null
  },
  "0963": {
    "postcode": "7210963",
    "prefecture": "広島県",
    "prefecture_kana": "ヒロシマケン",
    "prefecture_code": 34,
    "city": "福山市",
    "city_kana": "フクヤマシ",
    "town": "南手城町",
    "town_kana": "ミナミテシロチョウ",
    "street": null,
    "office_name": null,
    "office_name_kana": null
  },
  "0964": {
    "postcode": "7210964",
    "prefecture": "広島県",
    "prefecture_kana": "ヒロシマケン",
    "prefecture_code": 34,
    "city": "福山市",
    "city_kana": "フクヤマシ",
    "town": "港町",
    "town_kana": "ミナトマチ",
    "street": null,
    "office_name": null,
    "office_name_kana": null
  },
  "0965": {
    "postcode": "7210965",
    "prefecture": "広島県",
    "prefecture_kana": "ヒロシマケン",
    "prefecture_code": 34,
    "city": "福山市",
    "city_kana": "フクヤマシ",
    "town": "王子町",
    "town_kana": "オウジチョウ",
    "street": null,
    "office_name": null,
    "office_name_kana": null
  },
  "0966": {
    "postcode": "7210966",
    "prefecture": "広島県",
    "prefecture_kana": "ヒロシマケン",
    "prefecture_code": 34,
    "city": "福山市",
    "city_kana": "フクヤマシ",
    "town": "手城町",
    "town_kana": "テシロチョウ",
    "street": null,
    "office_name": null,
    "office_name_kana": null
  },
  "0971": {
    "postcode": "7210971",
    "prefecture": "広島県",
    "prefecture_kana": "ヒロシマケン",
    "prefecture_code": 34,
    "city": "福山市",
    "city_kana": "フクヤマシ",
    "town": "蔵王町",
    "town_kana": "ザオウチョウ",
    "street": null,
    "office_name": null,
    "office_name_kana": null
  },
  "0972": {
    "postcode": "7210972",
    "prefecture": "広島県",
    "prefecture_kana": "ヒロシマケン",
    "prefecture_code": 34,
    "city": "福山市",
    "city_kana": "フクヤマシ",
    "town": "日吉台",
    "town_kana": "ヒヨシダイ",
    "street": null,
    "office_name": null,
    "office_name_kana": null
  },
  "0973": {
    "postcode": "7210973",
    "prefecture": "広島県",
    "prefecture_kana": "ヒロシマケン",
    "prefecture_code": 34,
    "city": "福山市",
    "city_kana": "フクヤマシ",
    "town": "南蔵王町",
    "town_kana": "ミナミザオウチョウ",
    "street": null,
    "office_name": null,
    "office_name_kana": null
  },
  "0974": {
    "postcode": "7210974",
    "prefecture": "広島県",
    "prefecture_kana": "ヒロシマケン",
    "prefecture_code": 34,
    "city": "福山市",
    "city_kana": "フクヤマシ",
    "town": "東深津町",
    "town_kana": "ヒガシフカツチョウ",
    "street": null,
    "office_name": null,
    "office_name_kana": null
  },
  "0975": {
    "postcode": "7210975",
    "prefecture": "広島県",
    "prefecture_kana": "ヒロシマケン",
    "prefecture_code": 34,
    "city": "福山市",
    "city_kana": "フクヤマシ",
    "town": "西深津町",
    "town_kana": "ニシフカツチョウ",
    "street": null,
    "office_name": null,
    "office_name_kana": null
  },
  "8501": {
    "postcode": "7218501",
    "prefecture": "広島県",
    "prefecture_kana": "ヒロシマケン",
    "prefecture_code": 34,
    "city": "福山市",
    "city_kana": "フクヤマシ",
    "town": "箕島町",
    "town_kana": "ミノシマチョウ",
    "street": "６２８０−３０",
    "office_name": "リンクス　株式会社",
    "office_name_kana": "リンクス カブシキガイシヤ"
  },
  "8502": {
    "postcode": "7218502",
    "prefecture": "広島県",
    "prefecture_kana": "ヒロシマケン",
    "prefecture_code": 34,
    "city": "福山市",
    "city_kana": "フクヤマシ",
    "town": "引野町",
    "town_kana": "ヒキノチョウ",
    "street": "９８０−１",
    "office_name": "学校法人　広島加計学園　英数学館小学中学高等学校",
    "office_name_kana": "ガツコウホウジン ヒロシマカケガクエン エイスウガクカンシヨウガクチユウガクコウトウガツコウ"
  },
  "8505": {
    "postcode": "7218505",
    "prefecture": "広島県",
    "prefecture_kana": "ヒロシマケン",
    "prefecture_code": 34,
    "city": "福山市",
    "city_kana": "フクヤマシ",
    "town": "箕島町",
    "town_kana": "ミノシマチョウ",
    "street": "６２８０−１０",
    "office_name": "株式会社　シーケイエス・チューキ",
    "office_name_kana": "カブシキガイシヤ シ-ケイエス・チユ-キ"
  },
  "8510": {
    "postcode": "7218510",
    "prefecture": "広島県",
    "prefecture_kana": "ヒロシマケン",
    "prefecture_code": 34,
    "city": "福山市",
    "city_kana": "フクヤマシ",
    "town": "鋼管町",
    "town_kana": "コウカンチョウ",
    "street": "１番地",
    "office_name": "ＪＦＥスチール　株式会社",
    "office_name_kana": "ジエイエフイ-スチ-ル カブシキガイシヤ"
  },
  "8511": {
    "postcode": "7218511",
    "prefecture": "広島県",
    "prefecture_kana": "ヒロシマケン",
    "prefecture_code": 34,
    "city": "福山市",
    "city_kana": "フクヤマシ",
    "town": "蔵王町",
    "town_kana": "ザオウチョウ",
    "street": "５丁目２３−１",
    "office_name": "福山市民病院",
    "office_name_kana": "フクヤマシミンビヨウイン"
  },
  "8514": {
    "postcode": "7218514",
    "prefecture": "広島県",
    "prefecture_kana": "ヒロシマケン",
    "prefecture_code": 34,
    "city": "福山市",
    "city_kana": "フクヤマシ",
    "town": "西深津町",
    "town_kana": "ニシフカツチョウ",
    "street": "６丁目１２−１",
    "office_name": "近畿中国四国農業研究センター",
    "office_name_kana": "キンキチユウゴクシコクノウギヨウケンキユウセンタ-"
  },
  "8515": {
    "postcode": "7218515",
    "prefecture": "広島県",
    "prefecture_kana": "ヒロシマケン",
    "prefecture_code": 34,
    "city": "福山市",
    "city_kana": "フクヤマシ",
    "town": "箕島町",
    "town_kana": "ミノシマチョウ",
    "street": "６５４４",
    "office_name": "株式会社　栄光",
    "office_name_kana": "カブシキガイシヤ エイコウ"
  },
  "8522": {
    "postcode": "7218522",
    "prefecture": "広島県",
    "prefecture_kana": "ヒロシマケン",
    "prefecture_code": 34,
    "city": "福山市",
    "city_kana": "フクヤマシ",
    "town": "大門町旭",
    "town_kana": "ダイモンチョウアサヒ",
    "street": "１",
    "office_name": "シャープ　株式会社　ＬＳＩ事業本部",
    "office_name_kana": "シヤ-プ カブシキガイシヤ エルエスアイジギヨウホンブ"
  },
  "8528": {
    "postcode": "7218528",
    "prefecture": "広島県",
    "prefecture_kana": "ヒロシマケン",
    "prefecture_code": 34,
    "city": "福山市",
    "city_kana": "フクヤマシ",
    "town": "箕島町",
    "town_kana": "ミノシマチョウ",
    "street": "南丘３９９−１１",
    "office_name": "有限会社　柿原銘板製作所",
    "office_name_kana": "ユウゲンガイシヤ カキハラメイバンセイサクシヨ"
  },
  "8540": {
    "postcode": "7218540",
    "prefecture": "広島県",
    "prefecture_kana": "ヒロシマケン",
    "prefecture_code": 34,
    "city": "福山市",
    "city_kana": "フクヤマシ",
    "town": "箕島町",
    "town_kana": "ミノシマチョウ",
    "street": "南丘５３５１",
    "office_name": "早川ゴム　株式会社",
    "office_name_kana": "ハヤカワゴム カブシキガイシヤ"
  },
  "8541": {
    "postcode": "7218541",
    "prefecture": "広島県",
    "prefecture_kana": "ヒロシマケン",
    "prefecture_code": 34,
    "city": "福山市",
    "city_kana": "フクヤマシ",
    "town": "卸町",
    "town_kana": "オロシマチ",
    "street": "４−１",
    "office_name": "株式会社　フォーデック　福山支社",
    "office_name_kana": "カブシキガイシヤ フオ-デツク フクヤマシシヤ"
  },
  "8543": {
    "postcode": "7218543",
    "prefecture": "広島県",
    "prefecture_kana": "ヒロシマケン",
    "prefecture_code": 34,
    "city": "福山市",
    "city_kana": "フクヤマシ",
    "town": "曙町",
    "town_kana": "アケボノチョウ",
    "street": "２丁目３番１７号",
    "office_name": "深江特殊鋼　株式会社",
    "office_name_kana": "フカエトクシユコウ カブシキガイシヤ"
  },
  "8545": {
    "postcode": "7218545",
    "prefecture": "広島県",
    "prefecture_kana": "ヒロシマケン",
    "prefecture_code": 34,
    "city": "福山市",
    "city_kana": "フクヤマシ",
    "town": "西深津町",
    "town_kana": "ニシフカツチョウ",
    "street": "３丁目４−１",
    "office_name": "福山暁の星学院",
    "office_name_kana": "フクヤマアケノホシガクイン"
  },
  "8550": {
    "postcode": "7218550",
    "prefecture": "広島県",
    "prefecture_kana": "ヒロシマケン",
    "prefecture_code": 34,
    "city": "福山市",
    "city_kana": "フクヤマシ",
    "town": "伊勢丘",
    "town_kana": "イセガオカ",
    "street": "２丁目１−１",
    "office_name": "ＪＦＥ　三番館",
    "office_name_kana": "ジエイエフイ- サンバンカン"
  },
  "8551": {
    "postcode": "7218551",
    "prefecture": "広島県",
    "prefecture_kana": "ヒロシマケン",
    "prefecture_code": 34,
    "city": "福山市",
    "city_kana": "フクヤマシ",
    "town": "春日町",
    "town_kana": "カスガチョウ",
    "street": "５丁目１４−１",
    "office_name": "広島大学附属福山中・高等学校",
    "office_name_kana": "ヒロシマダイガクフゾクフクヤマチユウ・コウトウガツコウ"
  },
  "8555": {
    "postcode": "7218555",
    "prefecture": "広島県",
    "prefecture_kana": "ヒロシマケン",
    "prefecture_code": 34,
    "city": "福山市",
    "city_kana": "フクヤマシ",
    "town": "東深津町",
    "town_kana": "ヒガシフカツチョウ",
    "street": "４丁目２０−１",
    "office_name": "福山通運　株式会社",
    "office_name_kana": "フクヤマツウウン カブシキガイシヤ"
  },
  "8556": {
    "postcode": "7218556",
    "prefecture": "広島県",
    "prefecture_kana": "ヒロシマケン",
    "prefecture_code": 34,
    "city": "福山市",
    "city_kana": "フクヤマシ",
    "town": "王子町",
    "town_kana": "オウジチョウ",
    "street": "１丁目３−５",
    "office_name": "青山商事　株式会社",
    "office_name_kana": "アオヤマシヨウジ カブシキガイシヤ"
  },
  "8558": {
    "postcode": "7218558",
    "prefecture": "広島県",
    "prefecture_kana": "ヒロシマケン",
    "prefecture_code": 34,
    "city": "福山市",
    "city_kana": "フクヤマシ",
    "town": "箕沖町",
    "town_kana": "ミノオキチョウ",
    "street": "９７及び９５−７",
    "office_name": "池田糖化工業　株式会社",
    "office_name_kana": "イケダトウカコウギヨウ カブシキガイシヤ"
  },
  "8564": {
    "postcode": "7218564",
    "prefecture": "広島県",
    "prefecture_kana": "ヒロシマケン",
    "prefecture_code": 34,
    "city": "福山市",
    "city_kana": "フクヤマシ",
    "town": "曙町",
    "town_kana": "アケボノチョウ",
    "street": "１丁目８−１１",
    "office_name": "トラスコ中山　株式会社　福山営業所",
    "office_name_kana": "トラスコナカヤマ カブシキガイシヤ フクヤマエイギヨウシヨ"
  },
  "8567": {
    "postcode": "7218567",
    "prefecture": "広島県",
    "prefecture_kana": "ヒロシマケン",
    "prefecture_code": 34,
    "city": "福山市",
    "city_kana": "フクヤマシ",
    "town": "箕沖町",
    "town_kana": "ミノオキチョウ",
    "street": "１２６",
    "office_name": "日本化薬　株式会社　福山工場",
    "office_name_kana": "ニホンカヤク カブシキガイシヤ フクヤマコウジヨウ"
  },
  "8575": {
    "postcode": "7218575",
    "prefecture": "広島県",
    "prefecture_kana": "ヒロシマケン",
    "prefecture_code": 34,
    "city": "福山市",
    "city_kana": "フクヤマシ",
    "town": "箕島町",
    "town_kana": "ミノシマチョウ",
    "street": "５３７８",
    "office_name": "株式会社　シギヤ精機製作所",
    "office_name_kana": "カブシキガイシヤ シギヤセイキセイサクシヨ"
  },
  "8576": {
    "postcode": "7218576",
    "prefecture": "広島県",
    "prefecture_kana": "ヒロシマケン",
    "prefecture_code": 34,
    "city": "福山市",
    "city_kana": "フクヤマシ",
    "town": "卸町",
    "town_kana": "オロシマチ",
    "street": "７−６",
    "office_name": "明和産業　株式会社",
    "office_name_kana": "メイワサンギヨウ カブシキガイシヤ"
  },
  "8577": {
    "postcode": "7218577",
    "prefecture": "広島県",
    "prefecture_kana": "ヒロシマケン",
    "prefecture_code": 34,
    "city": "福山市",
    "city_kana": "フクヤマシ",
    "town": "引野町",
    "town_kana": "ヒキノチョウ",
    "street": "２丁目４４−１３",
    "office_name": "アシード　株式会社",
    "office_name_kana": "アシ-ド カブシキガイシヤ"
  },
  "8585": {
    "postcode": "7218585",
    "prefecture": "広島県",
    "prefecture_kana": "ヒロシマケン",
    "prefecture_code": 34,
    "city": "福山市",
    "city_kana": "フクヤマシ",
    "town": "伊勢丘",
    "town_kana": "イセガオカ",
    "street": "３丁目５−１",
    "office_name": "ＪＦＥ　二番館",
    "office_name_kana": "ジエイエフイ- ニバンカン"
  },
  "8586": {
    "postcode": "7218586",
    "prefecture": "広島県",
    "prefecture_kana": "ヒロシマケン",
    "prefecture_code": 34,
    "city": "福山市",
    "city_kana": "フクヤマシ",
    "town": "箕沖町",
    "town_kana": "ミノオキチョウ",
    "street": "１０５−３",
    "office_name": "藤井商事　株式会社",
    "office_name_kana": "フジイシヨウジ カブシキガイシヤ"
  },
  "8588": {
    "postcode": "7218588",
    "prefecture": "広島県",
    "prefecture_kana": "ヒロシマケン",
    "prefecture_code": 34,
    "city": "福山市",
    "city_kana": "フクヤマシ",
    "town": "南蔵王町",
    "town_kana": "ミナミザオウチョウ",
    "street": "４丁目５−１８",
    "office_name": "社団法人　福山労働会館",
    "office_name_kana": "シヤダンホウジン フクヤマロウドウカイカン"
  },
  "8601": {
    "postcode": "7218601",
    "prefecture": "広島県",
    "prefecture_kana": "ヒロシマケン",
    "prefecture_code": 34,
    "city": "福山市",
    "city_kana": "フクヤマシ",
    "town": "南手城町",
    "town_kana": "ミナミテシロチョウ",
    "street": "２丁目２６−１（福山東郵便局私書箱第２３号）",
    "office_name": "福山瓦斯　株式会社",
    "office_name_kana": "フクヤマガス カブシキガイシヤ"
  },
  "8607": {
    "postcode": "7218607",
    "prefecture": "広島県",
    "prefecture_kana": "ヒロシマケン",
    "prefecture_code": 34,
    "city": "福山市",
    "city_kana": "フクヤマシ",
    "town": "曙町",
    "town_kana": "アケボノチョウ",
    "street": "１丁目１２−１５（福山東郵便局私書箱第４号）",
    "office_name": "株式会社　エフピコ",
    "office_name_kana": "カブシキガイシヤ エフピコ"
  },
  "8631": {
    "postcode": "7218631",
    "prefecture": "広島県",
    "prefecture_kana": "ヒロシマケン",
    "prefecture_code": 34,
    "city": "福山市",
    "city_kana": "フクヤマシ",
    "town": "一文字町",
    "town_kana": "イチモンジチョウ",
    "street": "１４番３１号（福山東郵便局私書箱第３１号）",
    "office_name": "丸富　株式会社",
    "office_name_kana": "マルトミ カブシキガイシヤ"
  },
  "8688": {
    "postcode": "7218688",
    "prefecture": "広島県",
    "prefecture_kana": "ヒロシマケン",
    "prefecture_code": 34,
    "city": "福山市",
    "city_kana": "フクヤマシ",
    "town": "一文字町",
    "town_kana": "イチモンジチョウ",
    "street": "６−１（福山東郵便局私書箱第５９番）",
    "office_name": "山陽染工　株式会社",
    "office_name_kana": "サンヨウセンコウ カブシキガイシヤ"
  }
}