{
  "0000": {
    "postcode": "7230000",
    "prefecture": "広島県",
    "prefecture_kana": "ヒロシマケン",
    "prefecture_code": 34,
    "city": "三原市",
    "city_kana": "ミハラシ",
    "town": "",
    "town_kana": "",
    "street": null,
    "office_name": null,
    "office_name_kana": null
  },
  "0001": {
    "postcode": "7230001",
    "prefecture": "広島県",
    "prefecture_kana": "ヒロシマケン",
    "prefecture_code": 34,
    "city": "三原市",
    "city_kana": "ミハラシ",
    "town": "深町",
    "town_kana": "フカマチ",
    "street": null,
    "office_name": null,
    "office_name_kana": null
  },
  "0002": {
    "postcode": "7230002",
    "prefecture": "広島県",
    "prefecture_kana": "ヒロシマケン",
    "prefecture_code": 34,
    "city": "三原市",
    "city_kana": "ミハラシ",
    "town": "中之町南",
    "town_kana": "ナカノチョウミナミ",
    "street": null,
    "office_name": null,
    "office_name_kana": null
  },
  "0003": {
    "postcode": "7230003",
    "prefecture": "広島県",
    "prefecture_kana": "ヒロシマケン",
    "prefecture_code": 34,
    "city": "三原市",
    "city_kana": "ミハラシ",
    "town": "中之町",
    "town_kana": "ナカノチョウ",
    "street": null,
    "office_name": null,
    "office_name_kana": null
  },
  "0004": {
    "postcode": "7230004",
    "prefecture": "広島県",
    "prefecture_kana": "ヒロシマケン",
    "prefecture_code": 34,
    "city": "三原市",
    "city_kana": "ミハラシ",
    "town": "館町",
    "town_kana": "ヤカタマチ",
    "street": null,
    "office_name": null,
    "office_name_kana": null
  },
  "0005": {
    "postcode": "7230005",
    "prefecture": "広島県",
    "prefecture_kana": "ヒロシマケン",
    "prefecture_code": 34,
    "city": "三原市",
    "city_kana": "ミハラシ",
    "town": "桜山町",
    "town_kana": "サクラヤマチョウ",
    "street": null,
    "office_name": null,
    "office_name_kana": null
  },
  "0006": {
    "postcode": "7230006",
    "prefecture": "広島県",
    "prefecture_kana": "ヒロシマケン",
    "prefecture_code": 34,
    "city": "三原市",
    "city_kana": "ミハラシ",
    "town": "駒ケ原町",
    "town_kana": "コマガハラチョウ",
    "street": null,
    "office_name": null,
    "office_name_kana": null
  },
  "0007": {
    "postcode": "7230007",
    "prefecture": "広島県",
    "prefecture_kana": "ヒロシマケン",
    "prefecture_code": 34,
    "city": "三原市",
    "city_kana": "ミハラシ",
    "town": "中之町北",
    "town_kana": "ナカノチョウキタ",
    "street": null,
    "office_name": null,
    "office_name_kana": null
  },
  "0011": {
    "postcode": "7230011",
    "prefecture": "広島県",
    "prefecture_kana": "ヒロシマケン",
    "prefecture_code": 34,
    "city": "三原市",
    "city_kana": "ミハラシ",
    "town": "東町",
    "town_kana": "ヒガシマチ",
    "street": null,
    "office_name": null,
    "office_name_kana": null
  },
  "0012": {
    "postcode": "7230012",
    "prefecture": "広島県",
    "prefecture_kana": "ヒロシマケン",
    "prefecture_code": 34,
    "city": "三原市",
    "city_kana": "ミハラシ",
    "town": "旭町",
    "town_kana": "アサヒマチ",
    "street": null,
    "office_name": null,
    "office_name_kana": null
  },
  "0013": {
    "postcode": "7230013",
    "prefecture": "広島県",
    "prefecture_kana": "ヒロシマケン",
    "prefecture_code": 34,
    "city": "三原市",
    "city_kana": "ミハラシ",
    "town": "古浜",
    "town_kana": "コハマ",
    "street": null,
    "office_name": null,
    "office_name_kana": null
  },
  "0014": {
    "postcode": "7230014",
    "prefecture": "広島県",
    "prefecture_kana": "ヒロシマケン",
    "prefecture_code": 34,
    "city": "三原市",
    "city_kana": "ミハラシ",
    "town": "城町",
    "town_kana": "シロマチ",
    "street": null,
    "office_name": null,
    "office_name_kana": null
  },
  "0015": {
    "postcode": "7230015",
    "prefecture": "広島県",
    "prefecture_kana": "ヒロシマケン",
    "prefecture_code": 34,
    "city": "三原市",
    "city_kana": "ミハラシ",
    "town": "円一町",
    "town_kana": "エンイチチョウ",
    "street": null,
    "office_name": null,
    "office_name_kana": null
  },
  "0016": {
    "postcode": "7230016",
    "prefecture": "広島県",
    "prefecture_kana": "ヒロシマケン",
    "prefecture_code": 34,
    "city": "三原市",
    "city_kana": "ミハラシ",
    "town": "宮沖",
    "town_kana": "ミヤオキ",
    "street": null,
    "office_name": null,
    "office_name_kana": null
  },
  "0017": {
    "postcode": "7230017",
    "prefecture": "広島県",
    "prefecture_kana": "ヒロシマケン",
    "prefecture_code": 34,
    "city": "三原市",
    "city_kana": "ミハラシ",
    "town": "港町",
    "town_kana": "ミナトマチ",
    "street": null,
    "office_name": null,
    "office_name_kana": null
  },
  "0021": {
    "postcode": "7230021",
    "prefecture": "広島県",
    "prefecture_kana": "ヒロシマケン",
    "prefecture_code": 34,
    "city": "三原市",
    "city_kana": "ミハラシ",
    "town": "鷺浦町須波",
    "town_kana": "サギウラチョウスナミ",
    "street": null,
    "office_name": null,
    "office_name_kana": null
  },
  "0022": {
    "postcode": "7230022",
    "prefecture": "広島県",
    "prefecture_kana": "ヒロシマケン",
    "prefecture_code": 34,
    "city": "三原市",
    "city_kana": "ミハラシ",
    "town": "鷺浦町向田野浦",
    "town_kana": "サギウラチョウムコウタノウラ",
    "street": null,
    "office_name": null,
    "office_name_kana": null
  },
  "0031": [
    {
      "postcode": "7230031",
      "prefecture": "広島県",
      "prefecture_kana": "ヒロシマケン",
      "prefecture_code": 34,
      "city": "三原市",
      "city_kana": "ミハラシ",
      "town": "須波",
      "town_kana": "スナミ",
      "street": null,
      "office_name": null,
      "office_name_kana": null
    },
    {
      "postcode": "7230031",
      "prefecture": "広島県",
      "prefecture_kana": "ヒロシマケン",
      "prefecture_code": 34,
      "city": "三原市",
      "city_kana": "ミハラシ",
      "town": "須波町",
      "town_kana": "スナミチョウ",
      "street": null,
      "office_name": null,
      "office_name_kana": null
    }
  ],
  "0032": [
    {
      "postcode": "7230032",
      "prefecture": "広島県",
      "prefecture_kana": "ヒロシマケン",
      "prefecture_code": 34,
      "city": "三原市",
      "city_kana": "ミハラシ",
      "town": "須波西",
      "town_kana": "スナミニシ",
      "street": null,
      "office_name": null,
      "office_name_kana": null
    },
    {
      "postcode": "7230032",
      "prefecture": "広島県",
      "prefecture_kana": "ヒロシマケン",
      "prefecture_code": 34,
      "city": "三原市",
      "city_kana": "ミハラシ",
      "town": "須波西町",
      "town_kana": "スナミニシマチ",
      "street": null,
      "office_name": null,
      "office_name_kana": null
    }
  ],
  "0033": {
    "postcode": "7230033",
    "prefecture": "広島県",
    "prefecture_kana": "ヒロシマケン",
    "prefecture_code": 34,
    "city": "三原市",
    "city_kana": "ミハラシ",
    "town": "沖浦町",
    "town_kana": "オキウラチョウ",
    "street": null,
    "office_name": null,
    "office_name_kana": null
  },
  "0034": {
    "postcode": "7230034",
    "prefecture": "広島県",
    "prefecture_kana": "ヒロシマケン",
    "prefecture_code": 34,
    "city": "三原市",
    "city_kana": "ミハラシ",
    "town": "登町",
    "town_kana": "ノボリチョウ",
    "street": null,
    "office_name": null,
    "office_name_kana": null
  },
  "0035": {
    "postcode": "7230035",
    "prefecture": "広島県",
    "prefecture_kana": "ヒロシマケン",
    "prefecture_code": 34,
    "city": "三原市",
    "city_kana": "ミハラシ",
    "town": "須波ハイツ",
    "town_kana": "スナミハイツ",
    "street": null,
    "office_name": null,
    "office_name_kana": null
  },
  "0041": {
    "postcode": "7230041",
    "prefecture": "広島県",
    "prefecture_kana": "ヒロシマケン",
    "prefecture_code": 34,
    "city": "三原市",
    "city_kana": "ミハラシ",
    "town": "和田",
    "town_kana": "ワダ",
    "street": null,
    "office_name": null,
    "office_name_kana": null
  },
  "0042": {
    "postcode": "7230042",
    "prefecture": "広島県",
    "prefecture_kana": "ヒロシマケン",
    "prefecture_code": 34,
    "city": "三原市",
    "city_kana": "ミハラシ",
    "town": "和田沖町",
    "town_kana": "ワダオキチョウ",
    "street": null,
    "office_name": null,
    "office_name_kana": null
  },
  "0043": {
    "postcode": "7230043",
    "prefecture": "広島県",
    "prefecture_kana": "ヒロシマケン",
    "prefecture_code": 34,
    "city": "三原市",
    "city_kana": "ミハラシ",
    "town": "貝野町",
    "town_kana": "カイノチョウ",
    "street": null,
    "office_name": null,
    "office_name_kana": null
  },
  "0044": {
    "postcode": "7230044",
    "prefecture": "広島県",
    "prefecture_kana": "ヒロシマケン",
    "prefecture_code": 34,
    "city": "三原市",
    "city_kana": "ミハラシ",
    "town": "宗郷",
    "town_kana": "ソウゴウ",
    "street": null,
    "office_name": null,
    "office_name_kana": null
  },
  "0045": {
    "postcode": "7230045",
    "prefecture": "広島県",
    "prefecture_kana": "ヒロシマケン",
    "prefecture_code": 34,
    "city": "三原市",
    "city_kana": "ミハラシ",
    "town": "田野浦",
    "town_kana": "タノウラ",
    "street": null,
    "office_name": null,
    "office_name_kana": null
  },
  "0046": {
    "postcode": "7230046",
    "prefecture": "広島県",
    "prefecture_kana": "ヒロシマケン",
    "prefecture_code": 34,
    "city": "三原市",
    "city_kana": "ミハラシ",
    "town": "明神",
    "town_kana": "ミョウジン",
    "street": null,
    "office_name": null,
    "office_name_kana": null
  },
  "0047": {
    "postcode": "7230047",
    "prefecture": "広島県",
    "prefecture_kana": "ヒロシマケン",
    "prefecture_code": 34,
    "city": "三原市",
    "city_kana": "ミハラシ",
    "town": "青葉台",
    "town_kana": "アオバダイ",
    "street": null,
    "office_name": null,
    "office_name_kana": null
  },
  "0051": {
    "postcode": "7230051",
    "prefecture": "広島県",
    "prefecture_kana": "ヒロシマケン",
    "prefecture_code": 34,
    "city": "三原市",
    "city_kana": "ミハラシ",
    "town": "宮浦",
    "town_kana": "ミヤウラ",
    "street": null,
    "office_name": null,
    "office_name_kana": null
  },
  "0052": {
    "postcode": "7230052",
    "prefecture": "広島県",
    "prefecture_kana": "ヒロシマケン",
    "prefecture_code": 34,
    "city": "三原市",
    "city_kana": "ミハラシ",
    "town": "皆実",
    "town_kana": "ミナミ",
    "street": null,
    "office_name": null,
    "office_name_kana": null
  },
  "0053": {
    "postcode": "7230053",
    "prefecture": "広島県",
    "prefecture_kana": "ヒロシマケン",
    "prefecture_code": 34,
    "city": "三原市",
    "city_kana": "ミハラシ",
    "town": "学園町",
    "town_kana": "ガクエンチョウ",
    "street": null,
    "office_name": null,
    "office_name_kana": null
  },
  "0054": {
    "postcode": "7230054",
    "prefecture": "広島県",
    "prefecture_kana": "ヒロシマケン",
    "prefecture_code": 34,
    "city": "三原市",
    "city_kana": "ミハラシ",
    "town": "頼兼",
    "town_kana": "ヨリカネ",
    "street": null,
    "office_name": null,
    "office_name_kana": null
  },
  "0061": {
    "postcode": "7230061",
    "prefecture": "広島県",
    "prefecture_kana": "ヒロシマケン",
    "prefecture_code": 34,
    "city": "三原市",
    "city_kana": "ミハラシ",
    "town": "八坂町",
    "town_kana": "ヤサカチョウ",
    "street": null,
    "office_name": null,
    "office_name_kana": null
  },
  "0062": {
    "postcode": "7230062",
    "prefecture": "広島県",
    "prefecture_kana": "ヒロシマケン",
    "prefecture_code": 34,
    "city": "三原市",
    "city_kana": "ミハラシ",
    "town": "本町",
    "town_kana": "ホンマチ",
    "street": null,
    "office_name": null,
    "office_name_kana": null
  },
  "0063": {
    "postcode": "7230063",
    "prefecture": "広島県",
    "prefecture_kana": "ヒロシマケン",
    "prefecture_code": 34,
    "city": "三原市",
    "city_kana": "ミハラシ",
    "town": "西町",
    "town_kana": "ニシマチ",
    "street": null,
    "office_name": null,
    "office_name_kana": null
  },
  "0064": {
    "postcode": "7230064",
    "prefecture": "広島県",
    "prefecture_kana": "ヒロシマケン",
    "prefecture_code": 34,
    "city": "三原市",
    "city_kana": "ミハラシ",
    "town": "西宮",
    "town_kana": "ニシミヤ",
    "street": null,
    "office_name": null,
    "office_name_kana": null
  },
  "0065": {
    "postcode": "7230065",
    "prefecture": "広島県",
    "prefecture_kana": "ヒロシマケン",
    "prefecture_code": 34,
    "city": "三原市",
    "city_kana": "ミハラシ",
    "town": "西野",
    "town_kana": "ニシノ",
    "street": null,
    "office_name": null,
    "office_name_kana": null
  },
  "0066": {
    "postcode": "7230066",
    "prefecture": "広島県",
    "prefecture_kana": "ヒロシマケン",
    "prefecture_code": 34,
    "city": "三原市",
    "city_kana": "ミハラシ",
    "town": "大畑町",
    "town_kana": "オオハタチョウ",
    "street": null,
    "office_name": null,
    "office_name_kana": null
  },
  "0131": {
    "postcode": "7230131",
    "prefecture": "広島県",
    "prefecture_kana": "ヒロシマケン",
    "prefecture_code": 34,
    "city": "三原市",
    "city_kana": "ミハラシ",
    "town": "小坂町",
    "town_kana": "オサカチョウ",
    "street": null,
    "office_name": null,
    "office_name_kana": null
  },
  "0132": [
    {
      "postcode": "7230132",
      "prefecture": "広島県",
      "prefecture_kana": "ヒロシマケン",
      "prefecture_code": 34,
      "city": "三原市",
      "city_kana": "ミハラシ",
      "town": "長谷",
      "town_kana": "ナガタニ",
      "street": null,
      "office_name": null,
      "office_name_kana": null
    },
    {
      "postcode": "7230132",
      "prefecture": "広島県",
      "prefecture_kana": "ヒロシマケン",
      "prefecture_code": 34,
      "city": "三原市",
      "city_kana": "ミハラシ",
      "town": "長谷町",
      "town_kana": "ナガタニチョウ",
      "street": null,
      "office_name": null,
      "office_name_kana": null
    }
  ],
  "0133": [
    {
      "postcode": "7230133",
      "prefecture": "広島県",
      "prefecture_kana": "ヒロシマケン",
      "prefecture_code": 34,
      "city": "三原市",
      "city_kana": "ミハラシ",
      "town": "沼田",
      "town_kana": "ヌタ",
      "street": null,
      "office_name": null,
      "office_name_kana": null
    },
    {
      "postcode": "7230133",
      "prefecture": "広島県",
      "prefecture_kana": "ヒロシマケン",
      "prefecture_code": 34,
      "city": "三原市",
      "city_kana": "ミハラシ",
      "town": "沼田町",
      "town_kana": "ヌタチョウ",
      "street": null,
      "office_name": null,
      "office_name_kana": null
    }
  ],
  "0134": [
    {
      "postcode": "7230134",
      "prefecture": "広島県",
      "prefecture_kana": "ヒロシマケン",
      "prefecture_code": 34,
      "city": "三原市",
      "city_kana": "ミハラシ",
      "town": "新倉",
      "town_kana": "シンクラ",
      "street": null,
      "office_name": null,
      "office_name_kana": null
    },
    {
      "postcode": "7230134",
      "prefecture": "広島県",
      "prefecture_kana": "ヒロシマケン",
      "prefecture_code": 34,
      "city": "三原市",
      "city_kana": "ミハラシ",
      "town": "新倉町",
      "town_kana": "シンクラチョウ",
      "street": null,
      "office_name": null,
      "office_name_kana": null
    }
  ],
  "0141": {
    "postcode": "7230141",
    "prefecture": "広島県",
    "prefecture_kana": "ヒロシマケン",
    "prefecture_code": 34,
    "city": "三原市",
    "city_kana": "ミハラシ",
    "town": "沼田東町両名",
    "town_kana": "ヌタヒガシチョウリョウミョウ",
    "street": null,
    "office_name": null,
    "office_name_kana": null
  },
  "0142": {
    "postcode": "7230142",
    "prefecture": "広島県",
    "prefecture_kana": "ヒロシマケン",
    "prefecture_code": 34,
    "city": "三原市",
    "city_kana": "ミハラシ",
    "town": "沼田東町末光",
    "town_kana": "ヌタヒガシチョウスエミツ",
    "street": null,
    "office_name": null,
    "office_name_kana": null
  },
  "0143": {
    "postcode": "7230143",
    "prefecture": "広島県",
    "prefecture_kana": "ヒロシマケン",
    "prefecture_code": 34,
    "city": "三原市",
    "city_kana": "ミハラシ",
    "town": "沼田東町釜山",
    "town_kana": "ヌタヒガシチョウカマヤマ",
    "street": null,
    "office_name": null,
    "office_name_kana": null
  },
  "0144": {
    "postcode": "7230144",
    "prefecture": "広島県",
    "prefecture_kana": "ヒロシマケン",
    "prefecture_code": 34,
    "city": "三原市",
    "city_kana": "ミハラシ",
    "town": "沼田東町末広",
    "town_kana": "ヌタヒガシチョウスエヒロ",
    "street": null,
    "office_name": null,
    "office_name_kana": null
  },
  "0145": {
    "postcode": "7230145",
    "prefecture": "広島県",
    "prefecture_kana": "ヒロシマケン",
    "prefecture_code": 34,
    "city": "三原市",
    "city_kana": "ミハラシ",
    "town": "沼田東町片島",
    "town_kana": "ヌタヒガシチョウカタシマ",
    "street": null,
    "office_name": null,
    "office_name_kana": null
  },
  "0146": {
    "postcode": "7230146",
    "prefecture": "広島県",
    "prefecture_kana": "ヒロシマケン",
    "prefecture_code": 34,
    "city": "三原市",
    "city_kana": "ミハラシ",
    "town": "沼田東町納所",
    "town_kana": "ヌタヒガシチョウノウソ",
    "street": null,
    "office_name": null,
    "office_name_kana": null
  },
  "0147": {
    "postcode": "7230147",
    "prefecture": "広島県",
    "prefecture_kana": "ヒロシマケン",
    "prefecture_code": 34,
    "city": "三原市",
    "city_kana": "ミハラシ",
    "town": "沼田東町本市",
    "town_kana": "ヌタヒガシチョウホンイチ",
    "street": null,
    "office_name": null,
    "office_name_kana": null
  },
  "0148": {
    "postcode": "7230148",
    "prefecture": "広島県",
    "prefecture_kana": "ヒロシマケン",
    "prefecture_code": 34,
    "city": "三原市",
    "city_kana": "ミハラシ",
    "town": "沼田東町七宝",
    "town_kana": "ヌタヒガシチョウシッポウ",
    "street": null,
    "office_name": null,
    "office_name_kana": null
  },
  "8501": {
    "postcode": "7238501",
    "prefecture": "広島県",
    "prefecture_kana": "ヒロシマケン",
    "prefecture_code": 34,
    "city": "三原市",
    "city_kana": "ミハラシ",
    "town": "深町",
    "town_kana": "フカマチ",
    "street": "１１８３",
    "office_name": "学校法人　山中学園　如水館高等学校　如水館中学校",
    "office_name_kana": "ガツコウホウジン ヤマナカガクエン ジヨスイカンコウトウガツコウ ジヨスイカンチユウガツコウ"
  },
  "8510": {
    "postcode": "7238510",
    "prefecture": "広島県",
    "prefecture_kana": "ヒロシマケン",
    "prefecture_code": 34,
    "city": "三原市",
    "city_kana": "ミハラシ",
    "town": "円一町",
    "town_kana": "エンイチチョウ",
    "street": "２丁目４番２号",
    "office_name": "三原社会保険事務所",
    "office_name_kana": "ミハラシヤカイホケンジムシヨ"
  },
  "8511": {
    "postcode": "7238511",
    "prefecture": "広島県",
    "prefecture_kana": "ヒロシマケン",
    "prefecture_code": 34,
    "city": "三原市",
    "city_kana": "ミハラシ",
    "town": "宮沖",
    "town_kana": "ミヤオキ",
    "street": "２丁目１２番１号",
    "office_name": "三原　税務署",
    "office_name_kana": "ミハラ ゼイムシヨ"
  },
  "8512": {
    "postcode": "7238512",
    "prefecture": "広島県",
    "prefecture_kana": "ヒロシマケン",
    "prefecture_code": 34,
    "city": "三原市",
    "city_kana": "ミハラシ",
    "town": "東町",
    "town_kana": "ヒガシマチ",
    "street": "２丁目７番１号",
    "office_name": "総合病院　三原赤十字病院",
    "office_name_kana": "ソウゴウビヨウイン ミハラセキジユウジビヨウイン"
  },
  "8515": {
    "postcode": "7238515",
    "prefecture": "広島県",
    "prefecture_kana": "ヒロシマケン",
    "prefecture_code": 34,
    "city": "三原市",
    "city_kana": "ミハラシ",
    "town": "円一町",
    "town_kana": "エンイチチョウ",
    "street": "２丁目５−２",
    "office_name": "広島法務局　三原出張所",
    "office_name_kana": "ヒロシマホウムキヨク ミハラシユツチヨウシヨ"
  },
  "8520": {
    "postcode": "7238520",
    "prefecture": "広島県",
    "prefecture_kana": "ヒロシマケン",
    "prefecture_code": 34,
    "city": "三原市",
    "city_kana": "ミハラシ",
    "town": "円一町",
    "town_kana": "エンイチチョウ",
    "street": "２丁目４番１号",
    "office_name": "広島県　尾三地域事務所",
    "office_name_kana": "ヒロシマケン オミチイキジムシヨ"
  },
  "8555": {
    "postcode": "7238555",
    "prefecture": "広島県",
    "prefecture_kana": "ヒロシマケン",
    "prefecture_code": 34,
    "city": "三原市",
    "city_kana": "ミハラシ",
    "town": "皆実",
    "town_kana": "ミナミ",
    "street": "４丁目８番１号",
    "office_name": "三原商工会議所",
    "office_name_kana": "ミハラシヨウコウカイギシヨ"
  },
  "8601": {
    "postcode": "7238601",
    "prefecture": "広島県",
    "prefecture_kana": "ヒロシマケン",
    "prefecture_code": 34,
    "city": "三原市",
    "city_kana": "ミハラシ",
    "town": "港町",
    "town_kana": "ミナトマチ",
    "street": "３丁目５番１号",
    "office_name": "三原市役所",
    "office_name_kana": "ミハラシヤクシヨ"
  },
  "8610": {
    "postcode": "7238610",
    "prefecture": "広島県",
    "prefecture_kana": "ヒロシマケン",
    "prefecture_code": 34,
    "city": "三原市",
    "city_kana": "ミハラシ",
    "town": "港町",
    "town_kana": "ミナトマチ",
    "street": "一丁目８番１号",
    "office_name": "しまなみ信用金庫",
    "office_name_kana": "シマナミシンヨウキンコ"
  },
  "8611": {
    "postcode": "7238611",
    "prefecture": "広島県",
    "prefecture_kana": "ヒロシマケン",
    "prefecture_code": 34,
    "city": "三原市",
    "city_kana": "ミハラシ",
    "town": "円一町",
    "town_kana": "エンイチチョウ",
    "street": "１丁目１番１号（三原郵便局私書箱第１号）",
    "office_name": "帝人　株式会社　三原事業所",
    "office_name_kana": "テイジン カブシキガイシヤ ミハラジギヨウシヨ"
  },
  "8686": {
    "postcode": "7238686",
    "prefecture": "広島県",
    "prefecture_kana": "ヒロシマケン",
    "prefecture_code": 34,
    "city": "三原市",
    "city_kana": "ミハラシ",
    "town": "円一町",
    "town_kana": "エンイチチョウ",
    "street": "２丁目５番１号",
    "office_name": "興生総合病院",
    "office_name_kana": "コウセイソウゴウビヨウイン"
  }
}