{
  "0000": {
    "postcode": "7260000",
    "prefecture": "広島県",
    "prefecture_kana": "ヒロシマケン",
    "prefecture_code": 34,
    "city": "府中市",
    "city_kana": "フチュウシ",
    "town": "",
    "town_kana": "",
    "street": null,
    "office_name": null,
    "office_name_kana": null
  },
  "0001": {
    "postcode": "7260001",
    "prefecture": "広島県",
    "prefecture_kana": "ヒロシマケン",
    "prefecture_code": 34,
    "city": "府中市",
    "city_kana": "フチュウシ",
    "town": "本山町",
    "town_kana": "モトヤマチョウ",
    "street": null,
    "office_name": null,
    "office_name_kana": null
  },
  "0002": {
    "postcode": "7260002",
    "prefecture": "広島県",
    "prefecture_kana": "ヒロシマケン",
    "prefecture_code": 34,
    "city": "府中市",
    "city_kana": "フチュウシ",
    "town": "鵜飼町",
    "town_kana": "ウカイチョウ",
    "street": null,
    "office_name": null,
    "office_name_kana": null
  },
  "0003": {
    "postcode": "7260003",
    "prefecture": "広島県",
    "prefecture_kana": "ヒロシマケン",
    "prefecture_code": 34,
    "city": "府中市",
    "city_kana": "フチュウシ",
    "town": "元町",
    "town_kana": "モトマチ",
    "street": null,
    "office_name": null,
    "office_name_kana": null
  },
  "0004": {
    "postcode": "7260004",
    "prefecture": "広島県",
    "prefecture_kana": "ヒロシマケン",
    "prefecture_code": 34,
    "city": "府中市",
    "city_kana": "フチュウシ",
    "town": "府川町",
    "town_kana": "フカワチョウ",
    "street": null,
    "office_name": null,
    "office_name_kana": null
  },
  "0005": {
    "postcode": "7260005",
    "prefecture": "広島県",
    "prefecture_kana": "ヒロシマケン",
    "prefecture_code": 34,
    "city": "府中市",
    "city_kana": "フチュウシ",
    "town": "府中町",
    "town_kana": "フチュウチョウ",
    "street": null,
    "office_name": null,
    "office_name_kana": null
  },
  "0006": {
    "postcode": "7260006",
    "prefecture": "広島県",
    "prefecture_kana": "ヒロシマケン",
    "prefecture_code": 34,
    "city": "府中市",
    "city_kana": "フチュウシ",
    "town": "桜が丘",
    "town_kana": "サクラガオカ",
    "street": null,
    "office_name": null,
    "office_name_kana": null
  },
  "0011": {
    "postcode": "7260011",
    "prefecture": "広島県",
    "prefecture_kana": "ヒロシマケン",
    "prefecture_code": 34,
    "city": "府中市",
    "city_kana": "フチュウシ",
    "town": "広谷町",
    "town_kana": "ヒロタニチョウ",
    "street": null,
    "office_name": null,
    "office_name_kana": null
  },
  "0012": {
    "postcode": "7260012",
    "prefecture": "広島県",
    "prefecture_kana": "ヒロシマケン",
    "prefecture_code": 34,
    "city": "府中市",
    "city_kana": "フチュウシ",
    "town": "中須町",
    "town_kana": "ナカズチョウ",
    "street": null,
    "office_name": null,
    "office_name_kana": null
  },
  "0013": {
    "postcode": "7260013",
    "prefecture": "広島県",
    "prefecture_kana": "ヒロシマケン",
    "prefecture_code": 34,
    "city": "府中市",
    "city_kana": "フチュウシ",
    "town": "高木町",
    "town_kana": "タカギチョウ",
    "street": null,
    "office_name": null,
    "office_name_kana": null
  },
  "0021": {
    "postcode": "7260021",
    "prefecture": "広島県",
    "prefecture_kana": "ヒロシマケン",
    "prefecture_code": 34,
    "city": "府中市",
    "city_kana": "フチュウシ",
    "town": "土生町",
    "town_kana": "ハブチョウ",
    "street": null,
    "office_name": null,
    "office_name_kana": null
  },
  "0022": {
    "postcode": "7260022",
    "prefecture": "広島県",
    "prefecture_kana": "ヒロシマケン",
    "prefecture_code": 34,
    "city": "府中市",
    "city_kana": "フチュウシ",
    "town": "用土町",
    "town_kana": "ヨウドチョウ",
    "street": null,
    "office_name": null,
    "office_name_kana": null
  },
  "0023": {
    "postcode": "7260023",
    "prefecture": "広島県",
    "prefecture_kana": "ヒロシマケン",
    "prefecture_code": 34,
    "city": "府中市",
    "city_kana": "フチュウシ",
    "town": "栗柄町",
    "town_kana": "クリガラチョウ",
    "street": null,
    "office_name": null,
    "office_name_kana": null
  },
  "0024": {
    "postcode": "7260024",
    "prefecture": "広島県",
    "prefecture_kana": "ヒロシマケン",
    "prefecture_code": 34,
    "city": "府中市",
    "city_kana": "フチュウシ",
    "town": "僧殿町",
    "town_kana": "ソウドノチョウ",
    "street": null,
    "office_name": null,
    "office_name_kana": null
  },
  "0025": {
    "postcode": "7260025",
    "prefecture": "広島県",
    "prefecture_kana": "ヒロシマケン",
    "prefecture_code": 34,
    "city": "府中市",
    "city_kana": "フチュウシ",
    "town": "河南町",
    "town_kana": "カナンチョウ",
    "street": null,
    "office_name": null,
    "office_name_kana": null
  },
  "0026": {
    "postcode": "7260026",
    "prefecture": "広島県",
    "prefecture_kana": "ヒロシマケン",
    "prefecture_code": 34,
    "city": "府中市",
    "city_kana": "フチュウシ",
    "town": "三郎丸町",
    "town_kana": "サブロウマルチョウ",
    "street": null,
    "office_name": null,
    "office_name_kana": null
  },
  "0027": {
    "postcode": "7260027",
    "prefecture": "広島県",
    "prefecture_kana": "ヒロシマケン",
    "prefecture_code": 34,
    "city": "府中市",
    "city_kana": "フチュウシ",
    "town": "篠根町",
    "town_kana": "シノネチョウ",
    "street": null,
    "office_name": null,
    "office_name_kana": null
  },
  "0031": {
    "postcode": "7260031",
    "prefecture": "広島県",
    "prefecture_kana": "ヒロシマケン",
    "prefecture_code": 34,
    "city": "府中市",
    "city_kana": "フチュウシ",
    "town": "荒谷町",
    "town_kana": "アラタニチョウ",
    "street": null,
    "office_name": null,
    "office_name_kana": null
  },
  "0032": {
    "postcode": "7260032",
    "prefecture": "広島県",
    "prefecture_kana": "ヒロシマケン",
    "prefecture_code": 34,
    "city": "府中市",
    "city_kana": "フチュウシ",
    "town": "出口町",
    "town_kana": "デグチチョウ",
    "street": null,
    "office_name": null,
    "office_name_kana": null
  },
  "0033": {
    "postcode": "7260033",
    "prefecture": "広島県",
    "prefecture_kana": "ヒロシマケン",
    "prefecture_code": 34,
    "city": "府中市",
    "city_kana": "フチュウシ",
    "town": "目崎町",
    "town_kana": "メサキチョウ",
    "street": null,
    "office_name": null,
    "office_name_kana": null
  },
  "0034": {
    "postcode": "7260034",
    "prefecture": "広島県",
    "prefecture_kana": "ヒロシマケン",
    "prefecture_code": 34,
    "city": "府中市",
    "city_kana": "フチュウシ",
    "town": "上山町",
    "town_kana": "ウヤマチョウ",
    "street": null,
    "office_name": null,
    "office_name_kana": null
  },
  "0035": {
    "postcode": "7260035",
    "prefecture": "広島県",
    "prefecture_kana": "ヒロシマケン",
    "prefecture_code": 34,
    "city": "府中市",
    "city_kana": "フチュウシ",
    "town": "父石町",
    "town_kana": "チイシチョウ",
    "street": null,
    "office_name": null,
    "office_name_kana": null
  },
  "0036": {
    "postcode": "7260036",
    "prefecture": "広島県",
    "prefecture_kana": "ヒロシマケン",
    "prefecture_code": 34,
    "city": "府中市",
    "city_kana": "フチュウシ",
    "town": "河面町",
    "town_kana": "コウモチョウ",
    "street": null,
    "office_name": null,
    "office_name_kana": null
  },
  "8501": {
    "postcode": "7268501",
    "prefecture": "広島県",
    "prefecture_kana": "ヒロシマケン",
    "prefecture_code": 34,
    "city": "府中市",
    "city_kana": "フチュウシ",
    "town": "鵜飼町",
    "town_kana": "ウカイチョウ",
    "street": "５５５−３",
    "office_name": "地方独立行政法人　府中市病院機構　府中市民病院",
    "office_name_kana": "チホウドクリツギヨウセイホウジン フチユウシビヨウインキコウ フチユウシミンビヨウイン"
  },
  "8502": {
    "postcode": "7268502",
    "prefecture": "広島県",
    "prefecture_kana": "ヒロシマケン",
    "prefecture_code": 34,
    "city": "府中市",
    "city_kana": "フチュウシ",
    "town": "広谷町",
    "town_kana": "ヒロタニチョウ",
    "street": "９１９−３",
    "office_name": "府中市　保健福祉総合センター",
    "office_name_kana": "フチユウシ ホケンフクシソウゴウセンタ-"
  },
  "8505": {
    "postcode": "7268505",
    "prefecture": "広島県",
    "prefecture_kana": "ヒロシマケン",
    "prefecture_code": 34,
    "city": "府中市",
    "city_kana": "フチュウシ",
    "town": "中須町",
    "town_kana": "ナカズチョウ",
    "street": "１２２７−１",
    "office_name": "株式会社　ジーベック",
    "office_name_kana": "カブシキガイシヤ ジ-ベツク"
  },
  "8515": {
    "postcode": "7268515",
    "prefecture": "広島県",
    "prefecture_kana": "ヒロシマケン",
    "prefecture_code": 34,
    "city": "府中市",
    "city_kana": "フチュウシ",
    "town": "鵜飼町",
    "town_kana": "ウカイチョウ",
    "street": "６９３−２",
    "office_name": "松岡家具製造　株式会社",
    "office_name_kana": "マツオカカグセイゾウ カブシキガイシヤ"
  },
  "8555": {
    "postcode": "7268555",
    "prefecture": "広島県",
    "prefecture_kana": "ヒロシマケン",
    "prefecture_code": 34,
    "city": "府中市",
    "city_kana": "フチュウシ",
    "town": "鵜飼町",
    "town_kana": "ウカイチョウ",
    "street": "６０５",
    "office_name": "サダシゲ特殊合板　株式会社",
    "office_name_kana": "サダシゲトクシユゴウハン カブシキガイシヤ"
  },
  "8601": {
    "postcode": "7268601",
    "prefecture": "広島県",
    "prefecture_kana": "ヒロシマケン",
    "prefecture_code": 34,
    "city": "府中市",
    "city_kana": "フチュウシ",
    "town": "府川町",
    "town_kana": "フカワチョウ",
    "street": "３１５",
    "office_name": "府中市役所",
    "office_name_kana": "フチユウシヤクシヨ"
  },
  "8603": {
    "postcode": "7268603",
    "prefecture": "広島県",
    "prefecture_kana": "ヒロシマケン",
    "prefecture_code": 34,
    "city": "府中市",
    "city_kana": "フチュウシ",
    "town": "府中町",
    "town_kana": "フチュウチョウ",
    "street": "７４−１（府中郵便局私書箱第３号）",
    "office_name": "ニチマン　株式会社",
    "office_name_kana": "ニチマン カブシキガイシヤ"
  },
  "8609": {
    "postcode": "7268609",
    "prefecture": "広島県",
    "prefecture_kana": "ヒロシマケン",
    "prefecture_code": 34,
    "city": "府中市",
    "city_kana": "フチュウシ",
    "town": "元町",
    "town_kana": "モトマチ",
    "street": "４６２−１０（府中郵便局私書箱第２８号）",
    "office_name": "両備　信用組合",
    "office_name_kana": "リヨ-ビ シンヨウクミアイ"
  },
  "8610": {
    "postcode": "7268610",
    "prefecture": "広島県",
    "prefecture_kana": "ヒロシマケン",
    "prefecture_code": 34,
    "city": "府中市",
    "city_kana": "フチュウシ",
    "town": "元町",
    "town_kana": "モトマチ",
    "street": "７７−１（府中郵便局私書箱第１０号）",
    "office_name": "株式会社　北川鉄工所",
    "office_name_kana": "カブシキガイシヤ キタガワテツコウシヨ"
  },
  "8614": {
    "postcode": "7268614",
    "prefecture": "広島県",
    "prefecture_kana": "ヒロシマケン",
    "prefecture_code": 34,
    "city": "府中市",
    "city_kana": "フチュウシ",
    "town": "本山町",
    "town_kana": "モトヤマチョウ",
    "street": "５３０−２１４（府中郵便局私書箱第１４号）",
    "office_name": "ヒロボー　株式会社",
    "office_name_kana": "ヒロボ- カブシキガイシヤ"
  },
  "8628": {
    "postcode": "7268628",
    "prefecture": "広島県",
    "prefecture_kana": "ヒロシマケン",
    "prefecture_code": 34,
    "city": "府中市",
    "city_kana": "フチュウシ",
    "town": "目崎町",
    "town_kana": "メサキチョウ",
    "street": "７６２（府中郵便局私書箱第２８号）",
    "office_name": "リョービ　株式会社",
    "office_name_kana": "リヨ-ビ カブシキガイシヤ"
  },
  "8632": {
    "postcode": "7268632",
    "prefecture": "広島県",
    "prefecture_kana": "ヒロシマケン",
    "prefecture_code": 34,
    "city": "府中市",
    "city_kana": "フチュウシ",
    "town": "高木町",
    "town_kana": "タカギチョウ",
    "street": "１０８０（府中郵便局私書箱第３２号）",
    "office_name": "ヤスハラケミカル　株式会社",
    "office_name_kana": "ヤスハラケミカル カブシキガイシヤ"
  }
}