{
  "0000": {
    "postcode": "7280000",
    "prefecture": "広島県",
    "prefecture_kana": "ヒロシマケン",
    "prefecture_code": 34,
    "city": "三次市",
    "city_kana": "ミヨシシ",
    "town": "",
    "town_kana": "",
    "street": null,
    "office_name": null,
    "office_name_kana": null
  },
  "0001": {
    "postcode": "7280001",
    "prefecture": "広島県",
    "prefecture_kana": "ヒロシマケン",
    "prefecture_code": 34,
    "city": "三次市",
    "city_kana": "ミヨシシ",
    "town": "山家町",
    "town_kana": "ヤマガマチ",
    "street": null,
    "office_name": null,
    "office_name_kana": null
  },
  "0002": {
    "postcode": "7280002",
    "prefecture": "広島県",
    "prefecture_kana": "ヒロシマケン",
    "prefecture_code": 34,
    "city": "三次市",
    "city_kana": "ミヨシシ",
    "town": "西河内町",
    "town_kana": "ニシコウチマチ",
    "street": null,
    "office_name": null,
    "office_name_kana": null
  },
  "0003": {
    "postcode": "7280003",
    "prefecture": "広島県",
    "prefecture_kana": "ヒロシマケン",
    "prefecture_code": 34,
    "city": "三次市",
    "city_kana": "ミヨシシ",
    "town": "東河内町",
    "town_kana": "ヒガシコウチマチ",
    "street": null,
    "office_name": null,
    "office_name_kana": null
  },
  "0004": {
    "postcode": "7280004",
    "prefecture": "広島県",
    "prefecture_kana": "ヒロシマケン",
    "prefecture_code": 34,
    "city": "三次市",
    "city_kana": "ミヨシシ",
    "town": "穴笠町",
    "town_kana": "アナガサマチ",
    "street": null,
    "office_name": null,
    "office_name_kana": null
  },
  "0005": {
    "postcode": "7280005",
    "prefecture": "広島県",
    "prefecture_kana": "ヒロシマケン",
    "prefecture_code": 34,
    "city": "三次市",
    "city_kana": "ミヨシシ",
    "town": "後山町",
    "town_kana": "ウシロヤママチ",
    "street": null,
    "office_name": null,
    "office_name_kana": null
  },
  "0006": {
    "postcode": "7280006",
    "prefecture": "広島県",
    "prefecture_kana": "ヒロシマケン",
    "prefecture_code": 34,
    "city": "三次市",
    "city_kana": "ミヨシシ",
    "town": "畠敷町",
    "town_kana": "ハタジキマチ",
    "street": null,
    "office_name": null,
    "office_name_kana": null
  },
  "0007": {
    "postcode": "7280007",
    "prefecture": "広島県",
    "prefecture_kana": "ヒロシマケン",
    "prefecture_code": 34,
    "city": "三次市",
    "city_kana": "ミヨシシ",
    "town": "小文町",
    "town_kana": "オブミマチ",
    "street": null,
    "office_name": null,
    "office_name_kana": null
  },
  "0011": {
    "postcode": "7280011",
    "prefecture": "広島県",
    "prefecture_kana": "ヒロシマケン",
    "prefecture_code": 34,
    "city": "三次市",
    "city_kana": "ミヨシシ",
    "town": "十日市西",
    "town_kana": "トオカイチニシ",
    "street": null,
    "office_name": null,
    "office_name_kana": null
  },
  "0012": {
    "postcode": "7280012",
    "prefecture": "広島県",
    "prefecture_kana": "ヒロシマケン",
    "prefecture_code": 34,
    "city": "三次市",
    "city_kana": "ミヨシシ",
    "town": "十日市中",
    "town_kana": "トオカイチナカ",
    "street": null,
    "office_name": null,
    "office_name_kana": null
  },
  "0013": {
    "postcode": "7280013",
    "prefecture": "広島県",
    "prefecture_kana": "ヒロシマケン",
    "prefecture_code": 34,
    "city": "三次市",
    "city_kana": "ミヨシシ",
    "town": "十日市東",
    "town_kana": "トオカイチヒガシ",
    "street": null,
    "office_name": null,
    "office_name_kana": null
  },
  "0014": {
    "postcode": "7280014",
    "prefecture": "広島県",
    "prefecture_kana": "ヒロシマケン",
    "prefecture_code": 34,
    "city": "三次市",
    "city_kana": "ミヨシシ",
    "town": "十日市南",
    "town_kana": "トオカイチミナミ",
    "street": null,
    "office_name": null,
    "office_name_kana": null
  },
  "0015": {
    "postcode": "7280015",
    "prefecture": "広島県",
    "prefecture_kana": "ヒロシマケン",
    "prefecture_code": 34,
    "city": "三次市",
    "city_kana": "ミヨシシ",
    "town": "十日市町",
    "town_kana": "トオカイチマチ",
    "street": null,
    "office_name": null,
    "office_name_kana": null
  },
  "0016": {
    "postcode": "7280016",
    "prefecture": "広島県",
    "prefecture_kana": "ヒロシマケン",
    "prefecture_code": 34,
    "city": "三次市",
    "city_kana": "ミヨシシ",
    "town": "四拾貫町",
    "town_kana": "シジツカンマチ",
    "street": null,
    "office_name": null,
    "office_name_kana": null
  },
  "0017": {
    "postcode": "7280017",
    "prefecture": "広島県",
    "prefecture_kana": "ヒロシマケン",
    "prefecture_code": 34,
    "city": "三次市",
    "city_kana": "ミヨシシ",
    "town": "南畑敷町",
    "town_kana": "ミナミハタジキマチ",
    "street": null,
    "office_name": null,
    "office_name_kana": null
  },
  "0021": {
    "postcode": "7280021",
    "prefecture": "広島県",
    "prefecture_kana": "ヒロシマケン",
    "prefecture_code": 34,
    "city": "三次市",
    "city_kana": "ミヨシシ",
    "town": "三次町",
    "town_kana": "ミヨシマチ",
    "street": null,
    "office_name": null,
    "office_name_kana": null
  },
  "0022": {
    "postcode": "7280022",
    "prefecture": "広島県",
    "prefecture_kana": "ヒロシマケン",
    "prefecture_code": 34,
    "city": "三次市",
    "city_kana": "ミヨシシ",
    "town": "西酒屋町",
    "town_kana": "ニシサケヤマチ",
    "street": null,
    "office_name": null,
    "office_name_kana": null
  },
  "0023": {
    "postcode": "7280023",
    "prefecture": "広島県",
    "prefecture_kana": "ヒロシマケン",
    "prefecture_code": 34,
    "city": "三次市",
    "city_kana": "ミヨシシ",
    "town": "東酒屋町",
    "town_kana": "ヒガシサケヤマチ",
    "street": null,
    "office_name": null,
    "office_name_kana": null
  },
  "0024": {
    "postcode": "7280024",
    "prefecture": "広島県",
    "prefecture_kana": "ヒロシマケン",
    "prefecture_code": 34,
    "city": "三次市",
    "city_kana": "ミヨシシ",
    "town": "青河町",
    "town_kana": "アオガマチ",
    "street": null,
    "office_name": null,
    "office_name_kana": null
  },
  "0025": {
    "postcode": "7280025",
    "prefecture": "広島県",
    "prefecture_kana": "ヒロシマケン",
    "prefecture_code": 34,
    "city": "三次市",
    "city_kana": "ミヨシシ",
    "town": "粟屋町",
    "town_kana": "アワヤマチ",
    "street": null,
    "office_name": null,
    "office_name_kana": null
  },
  "0026": {
    "postcode": "7280026",
    "prefecture": "広島県",
    "prefecture_kana": "ヒロシマケン",
    "prefecture_code": 34,
    "city": "三次市",
    "city_kana": "ミヨシシ",
    "town": "日下町",
    "town_kana": "ヒゲマチ",
    "street": null,
    "office_name": null,
    "office_name_kana": null
  },
  "0027": {
    "postcode": "7280027",
    "prefecture": "広島県",
    "prefecture_kana": "ヒロシマケン",
    "prefecture_code": 34,
    "city": "三次市",
    "city_kana": "ミヨシシ",
    "town": "三原町",
    "town_kana": "ミハラマチ",
    "street": null,
    "office_name": null,
    "office_name_kana": null
  },
  "0101": {
    "postcode": "7280101",
    "prefecture": "広島県",
    "prefecture_kana": "ヒロシマケン",
    "prefecture_code": 34,
    "city": "三次市",
    "city_kana": "ミヨシシ",
    "town": "作木町岡三渕",
    "town_kana": "サクギチョウオカミブチ",
    "street": null,
    "office_name": null,
    "office_name_kana": null
  },
  "0111": {
    "postcode": "7280111",
    "prefecture": "広島県",
    "prefecture_kana": "ヒロシマケン",
    "prefecture_code": 34,
    "city": "三次市",
    "city_kana": "ミヨシシ",
    "town": "作木町伊賀和志",
    "town_kana": "サクギチョウイカワシ",
    "street": null,
    "office_name": null,
    "office_name_kana": null
  },
  "0112": {
    "postcode": "7280112",
    "prefecture": "広島県",
    "prefecture_kana": "ヒロシマケン",
    "prefecture_code": 34,
    "city": "三次市",
    "city_kana": "ミヨシシ",
    "town": "作木町森山西",
    "town_kana": "サクギチョウモリヤマニシ",
    "street": null,
    "office_name": null,
    "office_name_kana": null
  },
  "0113": {
    "postcode": "7280113",
    "prefecture": "広島県",
    "prefecture_kana": "ヒロシマケン",
    "prefecture_code": 34,
    "city": "三次市",
    "city_kana": "ミヨシシ",
    "town": "作木町森山東",
    "town_kana": "サクギチョウモリヤマヒガシ",
    "street": null,
    "office_name": null,
    "office_name_kana": null
  },
  "0114": {
    "postcode": "7280114",
    "prefecture": "広島県",
    "prefecture_kana": "ヒロシマケン",
    "prefecture_code": 34,
    "city": "三次市",
    "city_kana": "ミヨシシ",
    "town": "作木町森山中",
    "town_kana": "サクギチョウモリヤマナカ",
    "street": null,
    "office_name": null,
    "office_name_kana": null
  },
  "0115": {
    "postcode": "7280115",
    "prefecture": "広島県",
    "prefecture_kana": "ヒロシマケン",
    "prefecture_code": 34,
    "city": "三次市",
    "city_kana": "ミヨシシ",
    "town": "作木町大津",
    "town_kana": "サクギチョウオオツ",
    "street": null,
    "office_name": null,
    "office_name_kana": null
  },
  "0121": {
    "postcode": "7280121",
    "prefecture": "広島県",
    "prefecture_kana": "ヒロシマケン",
    "prefecture_code": 34,
    "city": "三次市",
    "city_kana": "ミヨシシ",
    "town": "作木町大畠",
    "town_kana": "サクギチョウオオバタケ",
    "street": null,
    "office_name": null,
    "office_name_kana": null
  },
  "0122": {
    "postcode": "7280122",
    "prefecture": "広島県",
    "prefecture_kana": "ヒロシマケン",
    "prefecture_code": 34,
    "city": "三次市",
    "city_kana": "ミヨシシ",
    "town": "作木町西野",
    "town_kana": "サクギチョウニシノ",
    "street": null,
    "office_name": null,
    "office_name_kana": null
  },
  "0123": {
    "postcode": "7280123",
    "prefecture": "広島県",
    "prefecture_kana": "ヒロシマケン",
    "prefecture_code": 34,
    "city": "三次市",
    "city_kana": "ミヨシシ",
    "town": "作木町上作木",
    "town_kana": "サクギチョウカミサクギ",
    "street": null,
    "office_name": null,
    "office_name_kana": null
  },
  "0124": {
    "postcode": "7280124",
    "prefecture": "広島県",
    "prefecture_kana": "ヒロシマケン",
    "prefecture_code": 34,
    "city": "三次市",
    "city_kana": "ミヨシシ",
    "town": "作木町下作木",
    "town_kana": "サクギチョウシモサクギ",
    "street": null,
    "office_name": null,
    "office_name_kana": null
  },
  "0125": {
    "postcode": "7280125",
    "prefecture": "広島県",
    "prefecture_kana": "ヒロシマケン",
    "prefecture_code": 34,
    "city": "三次市",
    "city_kana": "ミヨシシ",
    "town": "作木町光守",
    "town_kana": "サクギチョウミツモリ",
    "street": null,
    "office_name": null,
    "office_name_kana": null
  },
  "0131": {
    "postcode": "7280131",
    "prefecture": "広島県",
    "prefecture_kana": "ヒロシマケン",
    "prefecture_code": 34,
    "city": "三次市",
    "city_kana": "ミヨシシ",
    "town": "作木町香淀",
    "town_kana": "サクギチョウコウヨド",
    "street": null,
    "office_name": null,
    "office_name_kana": null
  },
  "0132": {
    "postcode": "7280132",
    "prefecture": "広島県",
    "prefecture_kana": "ヒロシマケン",
    "prefecture_code": 34,
    "city": "三次市",
    "city_kana": "ミヨシシ",
    "town": "作木町大山",
    "town_kana": "サクギチョウオオヤマ",
    "street": null,
    "office_name": null,
    "office_name_kana": null
  },
  "0133": {
    "postcode": "7280133",
    "prefecture": "広島県",
    "prefecture_kana": "ヒロシマケン",
    "prefecture_code": 34,
    "city": "三次市",
    "city_kana": "ミヨシシ",
    "town": "作木町門田",
    "town_kana": "サクギチョウモンデ",
    "street": null,
    "office_name": null,
    "office_name_kana": null
  },
  "0201": {
    "postcode": "7280201",
    "prefecture": "広島県",
    "prefecture_kana": "ヒロシマケン",
    "prefecture_code": 34,
    "city": "三次市",
    "city_kana": "ミヨシシ",
    "town": "布野町上布野",
    "town_kana": "フノチョウカミフノ",
    "street": null,
    "office_name": null,
    "office_name_kana": null
  },
  "0202": {
    "postcode": "7280202",
    "prefecture": "広島県",
    "prefecture_kana": "ヒロシマケン",
    "prefecture_code": 34,
    "city": "三次市",
    "city_kana": "ミヨシシ",
    "town": "布野町下布野",
    "town_kana": "フノチョウシモフノ",
    "street": null,
    "office_name": null,
    "office_name_kana": null
  },
  "0203": {
    "postcode": "7280203",
    "prefecture": "広島県",
    "prefecture_kana": "ヒロシマケン",
    "prefecture_code": 34,
    "city": "三次市",
    "city_kana": "ミヨシシ",
    "town": "布野町戸河内",
    "town_kana": "フノチョウトゴウチ",
    "street": null,
    "office_name": null,
    "office_name_kana": null
  },
  "0211": {
    "postcode": "7280211",
    "prefecture": "広島県",
    "prefecture_kana": "ヒロシマケン",
    "prefecture_code": 34,
    "city": "三次市",
    "city_kana": "ミヨシシ",
    "town": "布野町横谷",
    "town_kana": "フノチョウヨコタニ",
    "street": null,
    "office_name": null,
    "office_name_kana": null
  },
  "0401": {
    "postcode": "7280401",
    "prefecture": "広島県",
    "prefecture_kana": "ヒロシマケン",
    "prefecture_code": 34,
    "city": "三次市",
    "city_kana": "ミヨシシ",
    "town": "君田町東入君",
    "town_kana": "キミタチョウヒガシイリギミ",
    "street": null,
    "office_name": null,
    "office_name_kana": null
  },
  "0402": {
    "postcode": "7280402",
    "prefecture": "広島県",
    "prefecture_kana": "ヒロシマケン",
    "prefecture_code": 34,
    "city": "三次市",
    "city_kana": "ミヨシシ",
    "town": "君田町西入君",
    "town_kana": "キミタチョウニシイリギミ",
    "street": null,
    "office_name": null,
    "office_name_kana": null
  },
  "0403": {
    "postcode": "7280403",
    "prefecture": "広島県",
    "prefecture_kana": "ヒロシマケン",
    "prefecture_code": 34,
    "city": "三次市",
    "city_kana": "ミヨシシ",
    "town": "君田町藤兼",
    "town_kana": "キミタチョウフジカネ",
    "street": null,
    "office_name": null,
    "office_name_kana": null
  },
  "0404": {
    "postcode": "7280404",
    "prefecture": "広島県",
    "prefecture_kana": "ヒロシマケン",
    "prefecture_code": 34,
    "city": "三次市",
    "city_kana": "ミヨシシ",
    "town": "君田町石原",
    "town_kana": "キミタチョウイシハラ",
    "street": null,
    "office_name": null,
    "office_name_kana": null
  },
  "0405": {
    "postcode": "7280405",
    "prefecture": "広島県",
    "prefecture_kana": "ヒロシマケン",
    "prefecture_code": 34,
    "city": "三次市",
    "city_kana": "ミヨシシ",
    "town": "君田町泉吉田",
    "town_kana": "キミタチョウイズミヨシダ",
    "street": null,
    "office_name": null,
    "office_name_kana": null
  },
  "0406": {
    "postcode": "7280406",
    "prefecture": "広島県",
    "prefecture_kana": "ヒロシマケン",
    "prefecture_code": 34,
    "city": "三次市",
    "city_kana": "ミヨシシ",
    "town": "君田町櫃田",
    "town_kana": "キミタチョウヒツタ",
    "street": null,
    "office_name": null,
    "office_name_kana": null
  },
  "0407": {
    "postcode": "7280407",
    "prefecture": "広島県",
    "prefecture_kana": "ヒロシマケン",
    "prefecture_code": 34,
    "city": "三次市",
    "city_kana": "ミヨシシ",
    "town": "君田町茂田",
    "town_kana": "キミタチョウモダ",
    "street": null,
    "office_name": null,
    "office_name_kana": null
  },
  "0501": {
    "postcode": "7280501",
    "prefecture": "広島県",
    "prefecture_kana": "ヒロシマケン",
    "prefecture_code": 34,
    "city": "庄原市",
    "city_kana": "ショウバラシ",
    "town": "口和町宮内",
    "town_kana": "クチワチョウミヤウチ",
    "street": null,
    "office_name": null,
    "office_name_kana": null
  },
  "0502": {
    "postcode": "7280502",
    "prefecture": "広島県",
    "prefecture_kana": "ヒロシマケン",
    "prefecture_code": 34,
    "city": "庄原市",
    "city_kana": "ショウバラシ",
    "town": "口和町向泉",
    "town_kana": "クチワチョウムコウイズミ",
    "street": null,
    "office_name": null,
    "office_name_kana": null
  },
  "0503": {
    "postcode": "7280503",
    "prefecture": "広島県",
    "prefecture_kana": "ヒロシマケン",
    "prefecture_code": 34,
    "city": "庄原市",
    "city_kana": "ショウバラシ",
    "town": "口和町大月",
    "town_kana": "クチワチョウオオツキ",
    "street": null,
    "office_name": null,
    "office_name_kana": null
  },
  "0504": {
    "postcode": "7280504",
    "prefecture": "広島県",
    "prefecture_kana": "ヒロシマケン",
    "prefecture_code": 34,
    "city": "庄原市",
    "city_kana": "ショウバラシ",
    "town": "口和町竹地谷",
    "town_kana": "クチワチョウタケチダニ",
    "street": null,
    "office_name": null,
    "office_name_kana": null
  },
  "0621": {
    "postcode": "7280621",
    "prefecture": "広島県",
    "prefecture_kana": "ヒロシマケン",
    "prefecture_code": 34,
    "city": "三次市",
    "city_kana": "ミヨシシ",
    "town": "三若町",
    "town_kana": "ミワカマチ",
    "street": null,
    "office_name": null,
    "office_name_kana": null
  },
  "0622": {
    "postcode": "7280622",
    "prefecture": "広島県",
    "prefecture_kana": "ヒロシマケン",
    "prefecture_code": 34,
    "city": "三次市",
    "city_kana": "ミヨシシ",
    "town": "海渡町",
    "town_kana": "ウトマチ",
    "street": null,
    "office_name": null,
    "office_name_kana": null
  },
  "0623": {
    "postcode": "7280623",
    "prefecture": "広島県",
    "prefecture_kana": "ヒロシマケン",
    "prefecture_code": 34,
    "city": "三次市",
    "city_kana": "ミヨシシ",
    "town": "石原町",
    "town_kana": "イシハラマチ",
    "street": null,
    "office_name": null,
    "office_name_kana": null
  },
  "0624": {
    "postcode": "7280624",
    "prefecture": "広島県",
    "prefecture_kana": "ヒロシマケン",
    "prefecture_code": 34,
    "city": "三次市",
    "city_kana": "ミヨシシ",
    "town": "上田町",
    "town_kana": "ウエダマチ",
    "street": null,
    "office_name": null,
    "office_name_kana": null
  },
  "0625": {
    "postcode": "7280625",
    "prefecture": "広島県",
    "prefecture_kana": "ヒロシマケン",
    "prefecture_code": 34,
    "city": "三次市",
    "city_kana": "ミヨシシ",
    "town": "有原町",
    "town_kana": "アリハラマチ",
    "street": null,
    "office_name": null,
    "office_name_kana": null
  },
  "8501": {
    "postcode": "7288501",
    "prefecture": "広島県",
    "prefecture_kana": "ヒロシマケン",
    "prefecture_code": 34,
    "city": "三次市",
    "city_kana": "ミヨシシ",
    "town": "十日市中",
    "town_kana": "トオカイチナカ",
    "street": "２丁目８−１",
    "office_name": "三次市役所",
    "office_name_kana": "ミヨシシヤクシヨ"
  },
  "8502": {
    "postcode": "7288502",
    "prefecture": "広島県",
    "prefecture_kana": "ヒロシマケン",
    "prefecture_code": 34,
    "city": "三次市",
    "city_kana": "ミヨシシ",
    "town": "東酒屋町",
    "town_kana": "ヒガシサケヤマチ",
    "street": "５３１",
    "office_name": "市立三次中央病院",
    "office_name_kana": "シリツミヨシチユウオウビヨウイン"
  },
  "8503": {
    "postcode": "7288503",
    "prefecture": "広島県",
    "prefecture_kana": "ヒロシマケン",
    "prefecture_code": 34,
    "city": "三次市",
    "city_kana": "ミヨシシ",
    "town": "十日市東",
    "town_kana": "トオカイチヒガシ",
    "street": "３丁目１−１",
    "office_name": "三次農業　協同組合",
    "office_name_kana": "ミヨシノウギヨウ キヨウドウクミアイ"
  },
  "8511": {
    "postcode": "7288511",
    "prefecture": "広島県",
    "prefecture_kana": "ヒロシマケン",
    "prefecture_code": 34,
    "city": "三次市",
    "city_kana": "ミヨシシ",
    "town": "東酒屋町",
    "town_kana": "ヒガシサケヤマチ",
    "street": "３０６",
    "office_name": "ミヨシ電子　株式会社",
    "office_name_kana": "ミヨシデンシ カブシキガイシヤ"
  }
}