{
  "0101": {
    "postcode": "7290101",
    "prefecture": "広島県",
    "prefecture_kana": "ヒロシマケン",
    "prefecture_code": 34,
    "city": "福山市",
    "city_kana": "フクヤマシ",
    "town": "高西町川尻",
    "town_kana": "タカニシチョウカワジリ",
    "street": null,
    "office_name": null,
    "office_name_kana": null
  },
  "0102": {
    "postcode": "7290102",
    "prefecture": "広島県",
    "prefecture_kana": "ヒロシマケン",
    "prefecture_code": 34,
    "city": "福山市",
    "city_kana": "フクヤマシ",
    "town": "高西町真田",
    "town_kana": "タカニシチョウサナダ",
    "street": null,
    "office_name": null,
    "office_name_kana": null
  },
  "0103": {
    "postcode": "7290103",
    "prefecture": "広島県",
    "prefecture_kana": "ヒロシマケン",
    "prefecture_code": 34,
    "city": "福山市",
    "city_kana": "フクヤマシ",
    "town": "高西町南",
    "town_kana": "タカニシチョウミナミ",
    "street": null,
    "office_name": null,
    "office_name_kana": null
  },
  "0104": {
    "postcode": "7290104",
    "prefecture": "広島県",
    "prefecture_kana": "ヒロシマケン",
    "prefecture_code": 34,
    "city": "福山市",
    "city_kana": "フクヤマシ",
    "town": "松永町",
    "town_kana": "マツナガチョウ",
    "street": null,
    "office_name": null,
    "office_name_kana": null
  },
  "0105": {
    "postcode": "7290105",
    "prefecture": "広島県",
    "prefecture_kana": "ヒロシマケン",
    "prefecture_code": 34,
    "city": "福山市",
    "city_kana": "フクヤマシ",
    "town": "南松永町",
    "town_kana": "ミナミマツナガチョウ",
    "street": null,
    "office_name": null,
    "office_name_kana": null
  },
  "0106": {
    "postcode": "7290106",
    "prefecture": "広島県",
    "prefecture_kana": "ヒロシマケン",
    "prefecture_code": 34,
    "city": "福山市",
    "city_kana": "フクヤマシ",
    "town": "高西町",
    "town_kana": "タカニシチョウ",
    "street": null,
    "office_name": null,
    "office_name_kana": null
  },
  "0111": {
    "postcode": "7290111",
    "prefecture": "広島県",
    "prefecture_kana": "ヒロシマケン",
    "prefecture_code": 34,
    "city": "福山市",
    "city_kana": "フクヤマシ",
    "town": "今津町",
    "town_kana": "イマヅチョウ",
    "street": null,
    "office_name": null,
    "office_name_kana": null
  },
  "0112": {
    "postcode": "7290112",
    "prefecture": "広島県",
    "prefecture_kana": "ヒロシマケン",
    "prefecture_code": 34,
    "city": "福山市",
    "city_kana": "フクヤマシ",
    "town": "神村町",
    "town_kana": "カムラチョウ",
    "street": null,
    "office_name": null,
    "office_name_kana": null
  },
  "0113": {
    "postcode": "7290113",
    "prefecture": "広島県",
    "prefecture_kana": "ヒロシマケン",
    "prefecture_code": 34,
    "city": "福山市",
    "city_kana": "フクヤマシ",
    "town": "宮前町",
    "town_kana": "ミヤマエチョウ",
    "street": null,
    "office_name": null,
    "office_name_kana": null
  },
  "0114": {
    "postcode": "7290114",
    "prefecture": "広島県",
    "prefecture_kana": "ヒロシマケン",
    "prefecture_code": 34,
    "city": "福山市",
    "city_kana": "フクヤマシ",
    "town": "柳津町",
    "town_kana": "ヤナイヅチョウ",
    "street": null,
    "office_name": null,
    "office_name_kana": null
  },
  "0115": {
    "postcode": "7290115",
    "prefecture": "広島県",
    "prefecture_kana": "ヒロシマケン",
    "prefecture_code": 34,
    "city": "福山市",
    "city_kana": "フクヤマシ",
    "town": "南今津町",
    "town_kana": "ミナミイマヅチョウ",
    "street": null,
    "office_name": null,
    "office_name_kana": null
  },
  "0141": {
    "postcode": "7290141",
    "prefecture": "広島県",
    "prefecture_kana": "ヒロシマケン",
    "prefecture_code": 34,
    "city": "尾道市",
    "city_kana": "オノミチシ",
    "town": "高須町",
    "town_kana": "タカスチョウ",
    "street": null,
    "office_name": null,
    "office_name_kana": null
  },
  "0142": {
    "postcode": "7290142",
    "prefecture": "広島県",
    "prefecture_kana": "ヒロシマケン",
    "prefecture_code": 34,
    "city": "尾道市",
    "city_kana": "オノミチシ",
    "town": "西藤町",
    "town_kana": "ニシフジチョウ",
    "street": null,
    "office_name": null,
    "office_name_kana": null
  },
  "0251": {
    "postcode": "7290251",
    "prefecture": "広島県",
    "prefecture_kana": "ヒロシマケン",
    "prefecture_code": 34,
    "city": "福山市",
    "city_kana": "フクヤマシ",
    "town": "東村町",
    "town_kana": "ヒガシムラチョウ",
    "street": null,
    "office_name": null,
    "office_name_kana": null
  },
  "0252": {
    "postcode": "7290252",
    "prefecture": "広島県",
    "prefecture_kana": "ヒロシマケン",
    "prefecture_code": 34,
    "city": "福山市",
    "city_kana": "フクヤマシ",
    "town": "本郷町",
    "town_kana": "ホンゴウチョウ",
    "street": null,
    "office_name": null,
    "office_name_kana": null
  },
  "0292": {
    "postcode": "7290292",
    "prefecture": "広島県",
    "prefecture_kana": "ヒロシマケン",
    "prefecture_code": 34,
    "city": "福山市",
    "city_kana": "フクヤマシ",
    "town": "東村町",
    "town_kana": "ヒガシムラチョウ",
    "street": "三蔵９８５",
    "office_name": "福山大学",
    "office_name_kana": "フクヤマダイガク"
  },
  "0321": [
    {
      "postcode": "7290321",
      "prefecture": "広島県",
      "prefecture_kana": "ヒロシマケン",
      "prefecture_code": 34,
      "city": "三原市",
      "city_kana": "ミハラシ",
      "town": "木原",
      "town_kana": "キハラ",
      "street": null,
      "office_name": null,
      "office_name_kana": null
    },
    {
      "postcode": "7290321",
      "prefecture": "広島県",
      "prefecture_kana": "ヒロシマケン",
      "prefecture_code": 34,
      "city": "三原市",
      "city_kana": "ミハラシ",
      "town": "木原町",
      "town_kana": "キハラチョウ",
      "street": null,
      "office_name": null,
      "office_name_kana": null
    }
  ],
  "0322": {
    "postcode": "7290322",
    "prefecture": "広島県",
    "prefecture_kana": "ヒロシマケン",
    "prefecture_code": 34,
    "city": "三原市",
    "city_kana": "ミハラシ",
    "town": "奥野山町",
    "town_kana": "オクノヤマチョウ",
    "street": null,
    "office_name": null,
    "office_name_kana": null
  },
  "0323": {
    "postcode": "7290323",
    "prefecture": "広島県",
    "prefecture_kana": "ヒロシマケン",
    "prefecture_code": 34,
    "city": "三原市",
    "city_kana": "ミハラシ",
    "town": "鉢ケ峰町",
    "town_kana": "ハチガミネチョウ",
    "street": null,
    "office_name": null,
    "office_name_kana": null
  },
  "0324": {
    "postcode": "7290324",
    "prefecture": "広島県",
    "prefecture_kana": "ヒロシマケン",
    "prefecture_code": 34,
    "city": "三原市",
    "city_kana": "ミハラシ",
    "town": "糸崎",
    "town_kana": "イトサキ",
    "street": null,
    "office_name": null,
    "office_name_kana": null
  },
  "0329": {
    "postcode": "7290329",
    "prefecture": "広島県",
    "prefecture_kana": "ヒロシマケン",
    "prefecture_code": 34,
    "city": "三原市",
    "city_kana": "ミハラシ",
    "town": "糸崎南",
    "town_kana": "イトサキミナミ",
    "street": null,
    "office_name": null,
    "office_name_kana": null
  },
  "0393": {
    "postcode": "7290393",
    "prefecture": "広島県",
    "prefecture_kana": "ヒロシマケン",
    "prefecture_code": 34,
    "city": "三原市",
    "city_kana": "ミハラシ",
    "town": "糸崎南",
    "town_kana": "イトサキミナミ",
    "street": "一丁目１番１号",
    "office_name": "三菱重工業　株式会社　三原製作所",
    "office_name_kana": "ミツビシジユウコウギヨウ カブシキカイシヤ ミハラセイサクシヨ"
  },
  "0411": {
    "postcode": "7290411",
    "prefecture": "広島県",
    "prefecture_kana": "ヒロシマケン",
    "prefecture_code": 34,
    "city": "三原市",
    "city_kana": "ミハラシ",
    "town": "本郷町船木",
    "town_kana": "ホンゴウチョウフナキ",
    "street": null,
    "office_name": null,
    "office_name_kana": null
  },
  "0412": {
    "postcode": "7290412",
    "prefecture": "広島県",
    "prefecture_kana": "ヒロシマケン",
    "prefecture_code": 34,
    "city": "三原市",
    "city_kana": "ミハラシ",
    "town": "本郷町本郷",
    "town_kana": "ホンゴウチョウホンゴウ",
    "street": null,
    "office_name": null,
    "office_name_kana": null
  },
  "0413": {
    "postcode": "7290413",
    "prefecture": "広島県",
    "prefecture_kana": "ヒロシマケン",
    "prefecture_code": 34,
    "city": "三原市",
    "city_kana": "ミハラシ",
    "town": "本郷町南方",
    "town_kana": "ホンゴウチョウミナミガタ",
    "street": null,
    "office_name": null,
    "office_name_kana": null
  },
  "0414": [
    {
      "postcode": "7290414",
      "prefecture": "広島県",
      "prefecture_kana": "ヒロシマケン",
      "prefecture_code": 34,
      "city": "三原市",
      "city_kana": "ミハラシ",
      "town": "下北方",
      "town_kana": "シモキタガタ",
      "street": null,
      "office_name": null,
      "office_name_kana": null
    },
    {
      "postcode": "7290414",
      "prefecture": "広島県",
      "prefecture_kana": "ヒロシマケン",
      "prefecture_code": 34,
      "city": "三原市",
      "city_kana": "ミハラシ",
      "town": "本郷町下北方",
      "town_kana": "ホンゴウチョウシモキタガタ",
      "street": null,
      "office_name": null,
      "office_name_kana": null
    }
  ],
  "0415": {
    "postcode": "7290415",
    "prefecture": "広島県",
    "prefecture_kana": "ヒロシマケン",
    "prefecture_code": 34,
    "city": "三原市",
    "city_kana": "ミハラシ",
    "town": "本郷町上北方",
    "town_kana": "ホンゴウチョウカミキタガタ",
    "street": null,
    "office_name": null,
    "office_name_kana": null
  },
  "0416": {
    "postcode": "7290416",
    "prefecture": "広島県",
    "prefecture_kana": "ヒロシマケン",
    "prefecture_code": 34,
    "city": "三原市",
    "city_kana": "ミハラシ",
    "town": "本郷町善入寺",
    "town_kana": "ホンゴウチョウゼンニュウジ",
    "street": null,
    "office_name": null,
    "office_name_kana": null
  },
  "0417": {
    "postcode": "7290417",
    "prefecture": "広島県",
    "prefecture_kana": "ヒロシマケン",
    "prefecture_code": 34,
    "city": "三原市",
    "city_kana": "ミハラシ",
    "town": "本郷南",
    "town_kana": "ホンゴウミナミ",
    "street": null,
    "office_name": null,
    "office_name_kana": null
  },
  "0418": {
    "postcode": "7290418",
    "prefecture": "広島県",
    "prefecture_kana": "ヒロシマケン",
    "prefecture_code": 34,
    "city": "三原市",
    "city_kana": "ミハラシ",
    "town": "本郷北",
    "town_kana": "ホンゴウキタ",
    "street": null,
    "office_name": null,
    "office_name_kana": null
  },
  "0419": {
    "postcode": "7290419",
    "prefecture": "広島県",
    "prefecture_kana": "ヒロシマケン",
    "prefecture_code": 34,
    "city": "三原市",
    "city_kana": "ミハラシ",
    "town": "南方",
    "town_kana": "ミナミガタ",
    "street": null,
    "office_name": null,
    "office_name_kana": null
  },
  "0471": {
    "postcode": "7290471",
    "prefecture": "広島県",
    "prefecture_kana": "ヒロシマケン",
    "prefecture_code": 34,
    "city": "三原市",
    "city_kana": "ミハラシ",
    "town": "高坂町許山",
    "town_kana": "タカサカチョウモトヤマ",
    "street": null,
    "office_name": null,
    "office_name_kana": null
  },
  "0472": {
    "postcode": "7290472",
    "prefecture": "広島県",
    "prefecture_kana": "ヒロシマケン",
    "prefecture_code": 34,
    "city": "三原市",
    "city_kana": "ミハラシ",
    "town": "高坂町真良",
    "town_kana": "タカサカチョウシンラ",
    "street": null,
    "office_name": null,
    "office_name_kana": null
  },
  "0473": {
    "postcode": "7290473",
    "prefecture": "広島県",
    "prefecture_kana": "ヒロシマケン",
    "prefecture_code": 34,
    "city": "三原市",
    "city_kana": "ミハラシ",
    "town": "沼田西町小原",
    "town_kana": "ヌタニシチョウオバラ",
    "street": null,
    "office_name": null,
    "office_name_kana": null
  },
  "0474": {
    "postcode": "7290474",
    "prefecture": "広島県",
    "prefecture_kana": "ヒロシマケン",
    "prefecture_code": 34,
    "city": "三原市",
    "city_kana": "ミハラシ",
    "town": "沼田西町惣定",
    "town_kana": "ヌタニシチョウソウジョウ",
    "street": null,
    "office_name": null,
    "office_name_kana": null
  },
  "0475": {
    "postcode": "7290475",
    "prefecture": "広島県",
    "prefecture_kana": "ヒロシマケン",
    "prefecture_code": 34,
    "city": "三原市",
    "city_kana": "ミハラシ",
    "town": "沼田西町松江",
    "town_kana": "ヌタニシチョウマツエ",
    "street": null,
    "office_name": null,
    "office_name_kana": null
  },
  "0492": {
    "postcode": "7290492",
    "prefecture": "広島県",
    "prefecture_kana": "ヒロシマケン",
    "prefecture_code": 34,
    "city": "三原市",
    "city_kana": "ミハラシ",
    "town": "沼田西町小原",
    "town_kana": "ヌタニシチョウオバラ",
    "street": "２００−６５",
    "office_name": "株式会社　古川製作所",
    "office_name_kana": "カブシキガイシヤ フルカワセイサクシヨ"
  },
  "0495": {
    "postcode": "7290495",
    "prefecture": "広島県",
    "prefecture_kana": "ヒロシマケン",
    "prefecture_code": 34,
    "city": "三原市",
    "city_kana": "ミハラシ",
    "town": "本郷南",
    "town_kana": "ホンゴウミナミ",
    "street": "６丁目３番１０号",
    "office_name": "三原市　本郷支所",
    "office_name_kana": "ミハラシ ホンゴウシシヨ"
  },
  "1211": {
    "postcode": "7291211",
    "prefecture": "広島県",
    "prefecture_kana": "ヒロシマケン",
    "prefecture_code": 34,
    "city": "三原市",
    "city_kana": "ミハラシ",
    "town": "大和町大草",
    "town_kana": "ダイワチョウオオグサ",
    "street": null,
    "office_name": null,
    "office_name_kana": null
  },
  "1212": {
    "postcode": "7291212",
    "prefecture": "広島県",
    "prefecture_kana": "ヒロシマケン",
    "prefecture_code": 34,
    "city": "三原市",
    "city_kana": "ミハラシ",
    "town": "大和町姥ケ原",
    "town_kana": "ダイワチョウウバガハラ",
    "street": null,
    "office_name": null,
    "office_name_kana": null
  },
  "1213": {
    "postcode": "7291213",
    "prefecture": "広島県",
    "prefecture_kana": "ヒロシマケン",
    "prefecture_code": 34,
    "city": "三原市",
    "city_kana": "ミハラシ",
    "town": "大和町平坂",
    "town_kana": "ダイワチョウヒラサカ",
    "street": null,
    "office_name": null,
    "office_name_kana": null
  },
  "1321": {
    "postcode": "7291321",
    "prefecture": "広島県",
    "prefecture_kana": "ヒロシマケン",
    "prefecture_code": 34,
    "city": "三原市",
    "city_kana": "ミハラシ",
    "town": "大和町和木",
    "town_kana": "ダイワチョウワキ",
    "street": null,
    "office_name": null,
    "office_name_kana": null
  },
  "1322": {
    "postcode": "7291322",
    "prefecture": "広島県",
    "prefecture_kana": "ヒロシマケン",
    "prefecture_code": 34,
    "city": "三原市",
    "city_kana": "ミハラシ",
    "town": "大和町箱川",
    "town_kana": "ダイワチョウハコガワ",
    "street": null,
    "office_name": null,
    "office_name_kana": null
  },
  "1323": {
    "postcode": "7291323",
    "prefecture": "広島県",
    "prefecture_kana": "ヒロシマケン",
    "prefecture_code": 34,
    "city": "三原市",
    "city_kana": "ミハラシ",
    "town": "大和町大具",
    "town_kana": "ダイワチョウオオグ",
    "street": null,
    "office_name": null,
    "office_name_kana": null
  },
  "1331": {
    "postcode": "7291331",
    "prefecture": "広島県",
    "prefecture_kana": "ヒロシマケン",
    "prefecture_code": 34,
    "city": "三原市",
    "city_kana": "ミハラシ",
    "town": "大和町椋梨",
    "town_kana": "ダイワチョウムクナシ",
    "street": null,
    "office_name": null,
    "office_name_kana": null
  },
  "1332": {
    "postcode": "7291332",
    "prefecture": "広島県",
    "prefecture_kana": "ヒロシマケン",
    "prefecture_code": 34,
    "city": "三原市",
    "city_kana": "ミハラシ",
    "town": "大和町上草井",
    "town_kana": "ダイワチョウカミグサイ",
    "street": null,
    "office_name": null,
    "office_name_kana": null
  },
  "1333": {
    "postcode": "7291333",
    "prefecture": "広島県",
    "prefecture_kana": "ヒロシマケン",
    "prefecture_code": 34,
    "city": "三原市",
    "city_kana": "ミハラシ",
    "town": "大和町下草井",
    "town_kana": "ダイワチョウシモグサイ",
    "street": null,
    "office_name": null,
    "office_name_kana": null
  },
  "1401": {
    "postcode": "7291401",
    "prefecture": "広島県",
    "prefecture_kana": "ヒロシマケン",
    "prefecture_code": 34,
    "city": "三原市",
    "city_kana": "ミハラシ",
    "town": "大和町蔵宗",
    "town_kana": "ダイワチョウクラムネ",
    "street": null,
    "office_name": null,
    "office_name_kana": null
  },
  "1402": {
    "postcode": "7291402",
    "prefecture": "広島県",
    "prefecture_kana": "ヒロシマケン",
    "prefecture_code": 34,
    "city": "三原市",
    "city_kana": "ミハラシ",
    "town": "大和町篠",
    "town_kana": "ダイワチョウシノ",
    "street": null,
    "office_name": null,
    "office_name_kana": null
  },
  "1403": {
    "postcode": "7291403",
    "prefecture": "広島県",
    "prefecture_kana": "ヒロシマケン",
    "prefecture_code": 34,
    "city": "三原市",
    "city_kana": "ミハラシ",
    "town": "大和町萩原",
    "town_kana": "ダイワチョウハイバラ",
    "street": null,
    "office_name": null,
    "office_name_kana": null
  },
  "1404": {
    "postcode": "7291404",
    "prefecture": "広島県",
    "prefecture_kana": "ヒロシマケン",
    "prefecture_code": 34,
    "city": "三原市",
    "city_kana": "ミハラシ",
    "town": "大和町福田",
    "town_kana": "ダイワチョウフクダ",
    "street": null,
    "office_name": null,
    "office_name_kana": null
  },
  "1405": {
    "postcode": "7291405",
    "prefecture": "広島県",
    "prefecture_kana": "ヒロシマケン",
    "prefecture_code": 34,
    "city": "三原市",
    "city_kana": "ミハラシ",
    "town": "大和町上徳良",
    "town_kana": "ダイワチョウカミトクラ",
    "street": null,
    "office_name": null,
    "office_name_kana": null
  },
  "1406": {
    "postcode": "7291406",
    "prefecture": "広島県",
    "prefecture_kana": "ヒロシマケン",
    "prefecture_code": 34,
    "city": "三原市",
    "city_kana": "ミハラシ",
    "town": "大和町下徳良",
    "town_kana": "ダイワチョウシモトクラ",
    "street": null,
    "office_name": null,
    "office_name_kana": null
  },
  "1492": {
    "postcode": "7291492",
    "prefecture": "広島県",
    "prefecture_kana": "ヒロシマケン",
    "prefecture_code": 34,
    "city": "三原市",
    "city_kana": "ミハラシ",
    "town": "大和町下徳良",
    "town_kana": "ダイワチョウシモトクラ",
    "street": "１１１",
    "office_name": "三原市　大和支所",
    "office_name_kana": "ミハラシ ダイワシシヨ"
  },
  "1493": {
    "postcode": "7291493",
    "prefecture": "広島県",
    "prefecture_kana": "ヒロシマケン",
    "prefecture_code": 34,
    "city": "三原市",
    "city_kana": "ミハラシ",
    "town": "大和町下徳良",
    "town_kana": "ダイワチョウシモトクラ",
    "street": "２９６−２",
    "office_name": "学校法人　広島三育学院",
    "office_name_kana": "ガツコウホウジン ヒロシマサンイクガクイン"
  },
  "2251": [
    {
      "postcode": "7292251",
      "prefecture": "広島県",
      "prefecture_kana": "ヒロシマケン",
      "prefecture_code": 34,
      "city": "三原市",
      "city_kana": "ミハラシ",
      "town": "幸崎久和喜",
      "town_kana": "サイザキクワキ",
      "street": null,
      "office_name": null,
      "office_name_kana": null
    },
    {
      "postcode": "7292251",
      "prefecture": "広島県",
      "prefecture_kana": "ヒロシマケン",
      "prefecture_code": 34,
      "city": "三原市",
      "city_kana": "ミハラシ",
      "town": "幸崎町久和喜",
      "town_kana": "サイザキチョウクワキ",
      "street": null,
      "office_name": null,
      "office_name_kana": null
    }
  ],
  "2252": [
    {
      "postcode": "7292252",
      "prefecture": "広島県",
      "prefecture_kana": "ヒロシマケン",
      "prefecture_code": 34,
      "city": "三原市",
      "city_kana": "ミハラシ",
      "town": "幸崎能地",
      "town_kana": "サイザキノウジ",
      "street": null,
      "office_name": null,
      "office_name_kana": null
    },
    {
      "postcode": "7292252",
      "prefecture": "広島県",
      "prefecture_kana": "ヒロシマケン",
      "prefecture_code": 34,
      "city": "三原市",
      "city_kana": "ミハラシ",
      "town": "幸崎町能地",
      "town_kana": "サイザキチョウノウジ",
      "street": null,
      "office_name": null,
      "office_name_kana": null
    }
  ],
  "2253": [
    {
      "postcode": "7292253",
      "prefecture": "広島県",
      "prefecture_kana": "ヒロシマケン",
      "prefecture_code": 34,
      "city": "三原市",
      "city_kana": "ミハラシ",
      "town": "幸崎渡瀬",
      "town_kana": "サイザキワタセ",
      "street": null,
      "office_name": null,
      "office_name_kana": null
    },
    {
      "postcode": "7292253",
      "prefecture": "広島県",
      "prefecture_kana": "ヒロシマケン",
      "prefecture_code": 34,
      "city": "三原市",
      "city_kana": "ミハラシ",
      "town": "幸崎町渡瀬",
      "town_kana": "サイザキチョウワタセ",
      "street": null,
      "office_name": null,
      "office_name_kana": null
    }
  ],
  "2292": {
    "postcode": "7292292",
    "prefecture": "広島県",
    "prefecture_kana": "ヒロシマケン",
    "prefecture_code": 34,
    "city": "三原市",
    "city_kana": "ミハラシ",
    "town": "幸崎能地",
    "town_kana": "サイザキノウジ",
    "street": "２−１−１",
    "office_name": "幸陽船渠　株式会社",
    "office_name_kana": "コウヨウドツク カブシキガイシヤ"
  },
  "2311": {
    "postcode": "7292311",
    "prefecture": "広島県",
    "prefecture_kana": "ヒロシマケン",
    "prefecture_code": 34,
    "city": "竹原市",
    "city_kana": "タケハラシ",
    "town": "忠海町",
    "town_kana": "タダノウミチョウ",
    "street": null,
    "office_name": null,
    "office_name_kana": null
  },
  "2312": {
    "postcode": "7292312",
    "prefecture": "広島県",
    "prefecture_kana": "ヒロシマケン",
    "prefecture_code": 34,
    "city": "竹原市",
    "city_kana": "タケハラシ",
    "town": "福田町",
    "town_kana": "フクダチョウ",
    "street": null,
    "office_name": null,
    "office_name_kana": null
  },
  "2313": {
    "postcode": "7292313",
    "prefecture": "広島県",
    "prefecture_kana": "ヒロシマケン",
    "prefecture_code": 34,
    "city": "竹原市",
    "city_kana": "タケハラシ",
    "town": "高崎町",
    "town_kana": "タカサキチョウ",
    "street": null,
    "office_name": null,
    "office_name_kana": null
  },
  "2314": {
    "postcode": "7292314",
    "prefecture": "広島県",
    "prefecture_kana": "ヒロシマケン",
    "prefecture_code": 34,
    "city": "竹原市",
    "city_kana": "タケハラシ",
    "town": "忠海床浦",
    "town_kana": "タダノウミトコノウラ",
    "street": null,
    "office_name": null,
    "office_name_kana": null
  },
  "2315": {
    "postcode": "7292315",
    "prefecture": "広島県",
    "prefecture_kana": "ヒロシマケン",
    "prefecture_code": 34,
    "city": "竹原市",
    "city_kana": "タケハラシ",
    "town": "忠海長浜",
    "town_kana": "タダノウミナガハマ",
    "street": null,
    "office_name": null,
    "office_name_kana": null
  },
  "2316": {
    "postcode": "7292316",
    "prefecture": "広島県",
    "prefecture_kana": "ヒロシマケン",
    "prefecture_code": 34,
    "city": "竹原市",
    "city_kana": "タケハラシ",
    "town": "忠海中町",
    "town_kana": "タダノウミナカマチ",
    "street": null,
    "office_name": null,
    "office_name_kana": null
  },
  "2317": {
    "postcode": "7292317",
    "prefecture": "広島県",
    "prefecture_kana": "ヒロシマケン",
    "prefecture_code": 34,
    "city": "竹原市",
    "city_kana": "タケハラシ",
    "town": "忠海東町",
    "town_kana": "タダノウミヒガシマチ",
    "street": null,
    "office_name": null,
    "office_name_kana": null
  },
  "2361": {
    "postcode": "7292361",
    "prefecture": "広島県",
    "prefecture_kana": "ヒロシマケン",
    "prefecture_code": 34,
    "city": "三原市",
    "city_kana": "ミハラシ",
    "town": "小泉町",
    "town_kana": "コイズミチョウ",
    "street": null,
    "office_name": null,
    "office_name_kana": null
  },
  "2392": {
    "postcode": "7292392",
    "prefecture": "広島県",
    "prefecture_kana": "ヒロシマケン",
    "prefecture_code": 34,
    "city": "竹原市",
    "city_kana": "タケハラシ",
    "town": "忠海中町",
    "town_kana": "タダノウミナカマチ",
    "street": "一丁目１番２５号",
    "office_name": "アヲハタ　株式会社",
    "office_name_kana": "アオハタ カブシキガイシヤ"
  },
  "2393": {
    "postcode": "7292393",
    "prefecture": "広島県",
    "prefecture_kana": "ヒロシマケン",
    "prefecture_code": 34,
    "city": "竹原市",
    "city_kana": "タケハラシ",
    "town": "忠海中町",
    "town_kana": "タダノウミナカマチ",
    "street": "一丁目１番２５号",
    "office_name": "株式会社　アヲハタエフエムサプライ",
    "office_name_kana": "カブシキガイシヤ アオハタエフエムサプライ"
  },
  "2394": {
    "postcode": "7292394",
    "prefecture": "広島県",
    "prefecture_kana": "ヒロシマケン",
    "prefecture_code": 34,
    "city": "竹原市",
    "city_kana": "タケハラシ",
    "town": "忠海長浜",
    "town_kana": "タダノウミナガハマ",
    "street": "２丁目１番１号",
    "office_name": "電源開発　株式会社　竹原火力発電所",
    "office_name_kana": "デンゲンカイハツ カブシキガイシヤ タケハラカリヨクハツデンシヨ"
  },
  "3101": {
    "postcode": "7293101",
    "prefecture": "広島県",
    "prefecture_kana": "ヒロシマケン",
    "prefecture_code": 34,
    "city": "福山市",
    "city_kana": "フクヤマシ",
    "town": "新市町戸手",
    "town_kana": "シンイチチョウトデ",
    "street": null,
    "office_name": null,
    "office_name_kana": null
  },
  "3102": {
    "postcode": "7293102",
    "prefecture": "広島県",
    "prefecture_kana": "ヒロシマケン",
    "prefecture_code": 34,
    "city": "福山市",
    "city_kana": "フクヤマシ",
    "town": "新市町相方",
    "town_kana": "シンイチチョウサガタ",
    "street": null,
    "office_name": null,
    "office_name_kana": null
  },
  "3103": {
    "postcode": "7293103",
    "prefecture": "広島県",
    "prefecture_kana": "ヒロシマケン",
    "prefecture_code": 34,
    "city": "福山市",
    "city_kana": "フクヤマシ",
    "town": "新市町新市",
    "town_kana": "シンイチチョウシンイチ",
    "street": null,
    "office_name": null,
    "office_name_kana": null
  },
  "3104": {
    "postcode": "7293104",
    "prefecture": "広島県",
    "prefecture_kana": "ヒロシマケン",
    "prefecture_code": 34,
    "city": "福山市",
    "city_kana": "フクヤマシ",
    "town": "新市町宮内",
    "town_kana": "シンイチチョウミヤウチ",
    "street": null,
    "office_name": null,
    "office_name_kana": null
  },
  "3105": {
    "postcode": "7293105",
    "prefecture": "広島県",
    "prefecture_kana": "ヒロシマケン",
    "prefecture_code": 34,
    "city": "福山市",
    "city_kana": "フクヤマシ",
    "town": "新市町下安井",
    "town_kana": "シンイチチョウシモヤスイ",
    "street": null,
    "office_name": null,
    "office_name_kana": null
  },
  "3106": {
    "postcode": "7293106",
    "prefecture": "広島県",
    "prefecture_kana": "ヒロシマケン",
    "prefecture_code": 34,
    "city": "福山市",
    "city_kana": "フクヤマシ",
    "town": "新市町上安井",
    "town_kana": "シンイチチョウカミヤスイ",
    "street": null,
    "office_name": null,
    "office_name_kana": null
  },
  "3107": {
    "postcode": "7293107",
    "prefecture": "広島県",
    "prefecture_kana": "ヒロシマケン",
    "prefecture_code": 34,
    "city": "福山市",
    "city_kana": "フクヤマシ",
    "town": "新市町常",
    "town_kana": "シンイチチョウツネ",
    "street": null,
    "office_name": null,
    "office_name_kana": null
  },
  "3111": {
    "postcode": "7293111",
    "prefecture": "広島県",
    "prefecture_kana": "ヒロシマケン",
    "prefecture_code": 34,
    "city": "福山市",
    "city_kana": "フクヤマシ",
    "town": "新市町金丸",
    "town_kana": "シンイチチョウカネマル",
    "street": null,
    "office_name": null,
    "office_name_kana": null
  },
  "3112": {
    "postcode": "7293112",
    "prefecture": "広島県",
    "prefecture_kana": "ヒロシマケン",
    "prefecture_code": 34,
    "city": "福山市",
    "city_kana": "フクヤマシ",
    "town": "新市町藤尾",
    "town_kana": "シンイチチョウフジオ",
    "street": null,
    "office_name": null,
    "office_name_kana": null
  },
  "3192": {
    "postcode": "7293192",
    "prefecture": "広島県",
    "prefecture_kana": "ヒロシマケン",
    "prefecture_code": 34,
    "city": "福山市",
    "city_kana": "フクヤマシ",
    "town": "新市町大字新市",
    "town_kana": null,
    "street": "１０６１−１",
    "office_name": "福山市新市支所",
    "office_name_kana": "フクヤマシシンイチシシヨ"
  },
  "3193": {
    "postcode": "7293193",
    "prefecture": "広島県",
    "prefecture_kana": "ヒロシマケン",
    "prefecture_code": 34,
    "city": "福山市",
    "city_kana": "フクヤマシ",
    "town": "新市町大字戸手",
    "town_kana": null,
    "street": "１６−２（新市郵便局私書箱第１８号）",
    "office_name": "株式会社　自重堂",
    "office_name_kana": "カブシキガイシヤ ジチヨウドウ"
  },
  "3198": {
    "postcode": "7293198",
    "prefecture": "広島県",
    "prefecture_kana": "ヒロシマケン",
    "prefecture_code": 34,
    "city": "福山市",
    "city_kana": "フクヤマシ",
    "town": "新市町戸手",
    "town_kana": "シンイチチョウトデ",
    "street": "６８（新市郵便局私書箱第８号）",
    "office_name": "株式会社　コーコス信岡",
    "office_name_kana": "カブシキガイシヤ コ-コスノブオカ"
  },
  "3201": {
    "postcode": "7293201",
    "prefecture": "広島県",
    "prefecture_kana": "ヒロシマケン",
    "prefecture_code": 34,
    "city": "府中市",
    "city_kana": "フチュウシ",
    "town": "斗升町",
    "town_kana": "トマスチョウ",
    "street": null,
    "office_name": null,
    "office_name_kana": null
  },
  "3202": {
    "postcode": "7293202",
    "prefecture": "広島県",
    "prefecture_kana": "ヒロシマケン",
    "prefecture_code": 34,
    "city": "府中市",
    "city_kana": "フチュウシ",
    "town": "行縢町",
    "town_kana": "ムカバキチョウ",
    "street": null,
    "office_name": null,
    "office_name_kana": null
  },
  "3211": {
    "postcode": "7293211",
    "prefecture": "広島県",
    "prefecture_kana": "ヒロシマケン",
    "prefecture_code": 34,
    "city": "府中市",
    "city_kana": "フチュウシ",
    "town": "木野山町",
    "town_kana": "キノヤマチョウ",
    "street": null,
    "office_name": null,
    "office_name_kana": null
  },
  "3212": {
    "postcode": "7293212",
    "prefecture": "広島県",
    "prefecture_kana": "ヒロシマケン",
    "prefecture_code": 34,
    "city": "府中市",
    "city_kana": "フチュウシ",
    "town": "阿字町",
    "town_kana": "アジチョウ",
    "street": null,
    "office_name": null,
    "office_name_kana": null
  },
  "3221": {
    "postcode": "7293221",
    "prefecture": "広島県",
    "prefecture_kana": "ヒロシマケン",
    "prefecture_code": 34,
    "city": "府中市",
    "city_kana": "フチュウシ",
    "town": "河佐町",
    "town_kana": "カワサチョウ",
    "street": null,
    "office_name": null,
    "office_name_kana": null
  },
  "3222": {
    "postcode": "7293222",
    "prefecture": "広島県",
    "prefecture_kana": "ヒロシマケン",
    "prefecture_code": 34,
    "city": "府中市",
    "city_kana": "フチュウシ",
    "town": "久佐町",
    "town_kana": "クサチョウ",
    "street": null,
    "office_name": null,
    "office_name_kana": null
  },
  "3301": {
    "postcode": "7293301",
    "prefecture": "広島県",
    "prefecture_kana": "ヒロシマケン",
    "prefecture_code": 34,
    "city": "世羅郡世羅町",
    "city_kana": "セラグンセラチョウ",
    "town": "小谷",
    "town_kana": "オタニ",
    "street": null,
    "office_name": null,
    "office_name_kana": null
  },
  "3302": {
    "postcode": "7293302",
    "prefecture": "広島県",
    "prefecture_kana": "ヒロシマケン",
    "prefecture_code": 34,
    "city": "世羅郡世羅町",
    "city_kana": "セラグンセラチョウ",
    "town": "川尻",
    "town_kana": "カワシリ",
    "street": null,
    "office_name": null,
    "office_name_kana": null
  },
  "3303": {
    "postcode": "7293303",
    "prefecture": "広島県",
    "prefecture_kana": "ヒロシマケン",
    "prefecture_code": 34,
    "city": "世羅郡世羅町",
    "city_kana": "セラグンセラチョウ",
    "town": "東上原",
    "town_kana": "ヒガシウエハラ",
    "street": null,
    "office_name": null,
    "office_name_kana": null
  },
  "3304": {
    "postcode": "7293304",
    "prefecture": "広島県",
    "prefecture_kana": "ヒロシマケン",
    "prefecture_code": 34,
    "city": "世羅郡世羅町",
    "city_kana": "セラグンセラチョウ",
    "town": "赤屋",
    "town_kana": "アカヤ",
    "street": null,
    "office_name": null,
    "office_name_kana": null
  },
  "3305": {
    "postcode": "7293305",
    "prefecture": "広島県",
    "prefecture_kana": "ヒロシマケン",
    "prefecture_code": 34,
    "city": "世羅郡世羅町",
    "city_kana": "セラグンセラチョウ",
    "town": "別迫",
    "town_kana": "ベッサコ",
    "street": null,
    "office_name": null,
    "office_name_kana": null
  },
  "3306": {
    "postcode": "7293306",
    "prefecture": "広島県",
    "prefecture_kana": "ヒロシマケン",
    "prefecture_code": 34,
    "city": "世羅郡世羅町",
    "city_kana": "セラグンセラチョウ",
    "town": "青近",
    "town_kana": "アオチカ",
    "street": null,
    "office_name": null,
    "office_name_kana": null
  },
  "3307": {
    "postcode": "7293307",
    "prefecture": "広島県",
    "prefecture_kana": "ヒロシマケン",
    "prefecture_code": 34,
    "city": "世羅郡世羅町",
    "city_kana": "セラグンセラチョウ",
    "town": "伊尾",
    "town_kana": "イオ",
    "street": null,
    "office_name": null,
    "office_name_kana": null
  },
  "3401": {
    "postcode": "7293401",
    "prefecture": "広島県",
    "prefecture_kana": "ヒロシマケン",
    "prefecture_code": 34,
    "city": "府中市",
    "city_kana": "フチュウシ",
    "town": "上下町小塚",
    "town_kana": "ジョウゲチョウオヅカ",
    "street": null,
    "office_name": null,
    "office_name_kana": null
  },
  "3402": {
    "postcode": "7293402",
    "prefecture": "広島県",
    "prefecture_kana": "ヒロシマケン",
    "prefecture_code": 34,
    "city": "府中市",
    "city_kana": "フチュウシ",
    "town": "上下町小堀",
    "town_kana": "ジョウゲチョウコホリ",
    "street": null,
    "office_name": null,
    "office_name_kana": null
  },
  "3403": {
    "postcode": "7293403",
    "prefecture": "広島県",
    "prefecture_kana": "ヒロシマケン",
    "prefecture_code": 34,
    "city": "府中市",
    "city_kana": "フチュウシ",
    "town": "上下町階見",
    "town_kana": "ジョウゲチョウシナミ",
    "street": null,
    "office_name": null,
    "office_name_kana": null
  },
  "3404": {
    "postcode": "7293404",
    "prefecture": "広島県",
    "prefecture_kana": "ヒロシマケン",
    "prefecture_code": 34,
    "city": "府中市",
    "city_kana": "フチュウシ",
    "town": "上下町二森",
    "town_kana": "ジョウゲチョウフタモリ",
    "street": null,
    "office_name": null,
    "office_name_kana": null
  },
  "3405": {
    "postcode": "7293405",
    "prefecture": "広島県",
    "prefecture_kana": "ヒロシマケン",
    "prefecture_code": 34,
    "city": "府中市",
    "city_kana": "フチュウシ",
    "town": "上下町有福",
    "town_kana": "ジョウゲチョウアリフク",
    "street": null,
    "office_name": null,
    "office_name_kana": null
  },
  "3411": {
    "postcode": "7293411",
    "prefecture": "広島県",
    "prefecture_kana": "ヒロシマケン",
    "prefecture_code": 34,
    "city": "府中市",
    "city_kana": "フチュウシ",
    "town": "上下町井永",
    "town_kana": "ジョウゲチョウイナガ",
    "street": null,
    "office_name": null,
    "office_name_kana": null
  },
  "3412": {
    "postcode": "7293412",
    "prefecture": "広島県",
    "prefecture_kana": "ヒロシマケン",
    "prefecture_code": 34,
    "city": "府中市",
    "city_kana": "フチュウシ",
    "town": "上下町岡屋",
    "town_kana": "ジョウゲチョウオガヤ",
    "street": null,
    "office_name": null,
    "office_name_kana": null
  },
  "3413": {
    "postcode": "7293413",
    "prefecture": "広島県",
    "prefecture_kana": "ヒロシマケン",
    "prefecture_code": 34,
    "city": "府中市",
    "city_kana": "フチュウシ",
    "town": "上下町水永",
    "town_kana": "ジョウゲチョウミズナガ",
    "street": null,
    "office_name": null,
    "office_name_kana": null
  },
  "3414": {
    "postcode": "7293414",
    "prefecture": "広島県",
    "prefecture_kana": "ヒロシマケン",
    "prefecture_code": 34,
    "city": "府中市",
    "city_kana": "フチュウシ",
    "town": "上下町佐倉",
    "town_kana": "ジョウゲチョウサクラ",
    "street": null,
    "office_name": null,
    "office_name_kana": null
  },
  "3415": {
    "postcode": "7293415",
    "prefecture": "広島県",
    "prefecture_kana": "ヒロシマケン",
    "prefecture_code": 34,
    "city": "府中市",
    "city_kana": "フチュウシ",
    "town": "上下町矢多田",
    "town_kana": "ジョウゲチョウヤタダ",
    "street": null,
    "office_name": null,
    "office_name_kana": null
  },
  "3421": {
    "postcode": "7293421",
    "prefecture": "広島県",
    "prefecture_kana": "ヒロシマケン",
    "prefecture_code": 34,
    "city": "府中市",
    "city_kana": "フチュウシ",
    "town": "上下町深江",
    "town_kana": "ジョウゲチョウフカエ",
    "street": null,
    "office_name": null,
    "office_name_kana": null
  },
  "3422": {
    "postcode": "7293422",
    "prefecture": "広島県",
    "prefecture_kana": "ヒロシマケン",
    "prefecture_code": 34,
    "city": "府中市",
    "city_kana": "フチュウシ",
    "town": "上下町国留",
    "town_kana": "ジョウゲチョウクニドメ",
    "street": null,
    "office_name": null,
    "office_name_kana": null
  },
  "3423": {
    "postcode": "7293423",
    "prefecture": "広島県",
    "prefecture_kana": "ヒロシマケン",
    "prefecture_code": 34,
    "city": "府中市",
    "city_kana": "フチュウシ",
    "town": "上下町矢野",
    "town_kana": "ジョウゲチョウヤノ",
    "street": null,
    "office_name": null,
    "office_name_kana": null
  },
  "3424": {
    "postcode": "7293424",
    "prefecture": "広島県",
    "prefecture_kana": "ヒロシマケン",
    "prefecture_code": 34,
    "city": "府中市",
    "city_kana": "フチュウシ",
    "town": "上下町松崎",
    "town_kana": "ジョウゲチョウマツサキ",
    "street": null,
    "office_name": null,
    "office_name_kana": null
  },
  "3431": {
    "postcode": "7293431",
    "prefecture": "広島県",
    "prefecture_kana": "ヒロシマケン",
    "prefecture_code": 34,
    "city": "府中市",
    "city_kana": "フチュウシ",
    "town": "上下町上下",
    "town_kana": "ジョウゲチョウジョウゲ",
    "street": null,
    "office_name": null,
    "office_name_kana": null
  },
  "3492": {
    "postcode": "7293492",
    "prefecture": "広島県",
    "prefecture_kana": "ヒロシマケン",
    "prefecture_code": 34,
    "city": "府中市",
    "city_kana": "フチュウシ",
    "town": "上下町上下",
    "town_kana": "ジョウゲチョウジョウゲ",
    "street": "４６６−１（上下郵便局私書箱第４号）",
    "office_name": "府中市役所上下支所",
    "office_name_kana": "フチユウシヤクシヨジヨウゲシシヨ"
  },
  "3497": {
    "postcode": "7293497",
    "prefecture": "広島県",
    "prefecture_kana": "ヒロシマケン",
    "prefecture_code": 34,
    "city": "府中市",
    "city_kana": "フチュウシ",
    "town": "上下町上下",
    "town_kana": "ジョウゲチョウジョウゲ",
    "street": "１５１３−１",
    "office_name": "株式会社　大昌",
    "office_name_kana": "カブシキガイシヤ ダイシヨウ"
  },
  "3498": {
    "postcode": "7293498",
    "prefecture": "広島県",
    "prefecture_kana": "ヒロシマケン",
    "prefecture_code": 34,
    "city": "府中市",
    "city_kana": "フチュウシ",
    "town": "上下町上下",
    "town_kana": "ジョウゲチョウジョウゲ",
    "street": "９４５",
    "office_name": "中元クリーニング　株式会社",
    "office_name_kana": "ナカモトクリ-ニング カブシキガイシヤ"
  },
  "3511": {
    "postcode": "7293511",
    "prefecture": "広島県",
    "prefecture_kana": "ヒロシマケン",
    "prefecture_code": 34,
    "city": "神石郡神石高原町",
    "city_kana": "ジンセキグンジンセキコウゲンチョウ",
    "town": "高光",
    "town_kana": "タカミツ",
    "street": null,
    "office_name": null,
    "office_name_kana": null
  },
  "3512": {
    "postcode": "7293512",
    "prefecture": "広島県",
    "prefecture_kana": "ヒロシマケン",
    "prefecture_code": 34,
    "city": "神石郡神石高原町",
    "city_kana": "ジンセキグンジンセキコウゲンチョウ",
    "town": "草木",
    "town_kana": "クサギ",
    "street": null,
    "office_name": null,
    "office_name_kana": null
  },
  "3513": {
    "postcode": "7293513",
    "prefecture": "広島県",
    "prefecture_kana": "ヒロシマケン",
    "prefecture_code": 34,
    "city": "神石郡神石高原町",
    "city_kana": "ジンセキグンジンセキコウゲンチョウ",
    "town": "牧",
    "town_kana": "マキ",
    "street": null,
    "office_name": null,
    "office_name_kana": null
  },
  "3514": {
    "postcode": "7293514",
    "prefecture": "広島県",
    "prefecture_kana": "ヒロシマケン",
    "prefecture_code": 34,
    "city": "神石郡神石高原町",
    "city_kana": "ジンセキグンジンセキコウゲンチョウ",
    "town": "田頭",
    "town_kana": "タンドウ",
    "street": null,
    "office_name": null,
    "office_name_kana": null
  },
  "3515": {
    "postcode": "7293515",
    "prefecture": "広島県",
    "prefecture_kana": "ヒロシマケン",
    "prefecture_code": 34,
    "city": "神石郡神石高原町",
    "city_kana": "ジンセキグンジンセキコウゲンチョウ",
    "town": "福永",
    "town_kana": "フクナガ",
    "street": null,
    "office_name": null,
    "office_name_kana": null
  },
  "3516": {
    "postcode": "7293516",
    "prefecture": "広島県",
    "prefecture_kana": "ヒロシマケン",
    "prefecture_code": 34,
    "city": "神石郡神石高原町",
    "city_kana": "ジンセキグンジンセキコウゲンチョウ",
    "town": "古川",
    "town_kana": "フルカワ",
    "street": null,
    "office_name": null,
    "office_name_kana": null
  },
  "3592": {
    "postcode": "7293592",
    "prefecture": "広島県",
    "prefecture_kana": "ヒロシマケン",
    "prefecture_code": 34,
    "city": "神石郡神石高原町",
    "city_kana": "ジンセキグンジンセキコウゲンチョウ",
    "town": "高光",
    "town_kana": "タカミツ",
    "street": "２５５９",
    "office_name": "神石高原町役場　神石支所",
    "office_name_kana": "ジンセキコウゲンチヨウヤクバ ジンセキシシヨ"
  },
  "3601": {
    "postcode": "7293601",
    "prefecture": "広島県",
    "prefecture_kana": "ヒロシマケン",
    "prefecture_code": 34,
    "city": "神石郡神石高原町",
    "city_kana": "ジンセキグンジンセキコウゲンチョウ",
    "town": "相渡",
    "town_kana": "アイド",
    "street": null,
    "office_name": null,
    "office_name_kana": null
  },
  "3602": {
    "postcode": "7293602",
    "prefecture": "広島県",
    "prefecture_kana": "ヒロシマケン",
    "prefecture_code": 34,
    "city": "神石郡神石高原町",
    "city_kana": "ジンセキグンジンセキコウゲンチョウ",
    "town": "永野",
    "town_kana": "ナガノ",
    "street": null,
    "office_name": null,
    "office_name_kana": null
  },
  "3701": {
    "postcode": "7293701",
    "prefecture": "広島県",
    "prefecture_kana": "ヒロシマケン",
    "prefecture_code": 34,
    "city": "庄原市",
    "city_kana": "ショウバラシ",
    "town": "総領町黒目",
    "town_kana": "ソウリョウチョウクロメ",
    "street": null,
    "office_name": null,
    "office_name_kana": null
  },
  "3702": {
    "postcode": "7293702",
    "prefecture": "広島県",
    "prefecture_kana": "ヒロシマケン",
    "prefecture_code": 34,
    "city": "庄原市",
    "city_kana": "ショウバラシ",
    "town": "総領町亀谷",
    "town_kana": "ソウリョウチョウカメダニ",
    "street": null,
    "office_name": null,
    "office_name_kana": null
  },
  "3703": {
    "postcode": "7293703",
    "prefecture": "広島県",
    "prefecture_kana": "ヒロシマケン",
    "prefecture_code": 34,
    "city": "庄原市",
    "city_kana": "ショウバラシ",
    "town": "総領町下領家",
    "town_kana": "ソウリョウチョウシモリョウケ",
    "street": null,
    "office_name": null,
    "office_name_kana": null
  },
  "3711": {
    "postcode": "7293711",
    "prefecture": "広島県",
    "prefecture_kana": "ヒロシマケン",
    "prefecture_code": 34,
    "city": "庄原市",
    "city_kana": "ショウバラシ",
    "town": "総領町五箇",
    "town_kana": "ソウリョウチョウゴカ",
    "street": null,
    "office_name": null,
    "office_name_kana": null
  },
  "3712": {
    "postcode": "7293712",
    "prefecture": "広島県",
    "prefecture_kana": "ヒロシマケン",
    "prefecture_code": 34,
    "city": "庄原市",
    "city_kana": "ショウバラシ",
    "town": "総領町上領家",
    "town_kana": "ソウリョウチョウカミリョウケ",
    "street": null,
    "office_name": null,
    "office_name_kana": null
  },
  "3713": {
    "postcode": "7293713",
    "prefecture": "広島県",
    "prefecture_kana": "ヒロシマケン",
    "prefecture_code": 34,
    "city": "庄原市",
    "city_kana": "ショウバラシ",
    "town": "総領町中領家",
    "town_kana": "ソウリョウチョウナカリョウケ",
    "street": null,
    "office_name": null,
    "office_name_kana": null
  },
  "3721": {
    "postcode": "7293721",
    "prefecture": "広島県",
    "prefecture_kana": "ヒロシマケン",
    "prefecture_code": 34,
    "city": "庄原市",
    "city_kana": "ショウバラシ",
    "town": "総領町稲草",
    "town_kana": "ソウリョウチョウイナクサ",
    "street": null,
    "office_name": null,
    "office_name_kana": null
  },
  "3722": {
    "postcode": "7293722",
    "prefecture": "広島県",
    "prefecture_kana": "ヒロシマケン",
    "prefecture_code": 34,
    "city": "庄原市",
    "city_kana": "ショウバラシ",
    "town": "総領町木屋",
    "town_kana": "ソウリョウチョウキヤ",
    "street": null,
    "office_name": null,
    "office_name_kana": null
  },
  "4101": {
    "postcode": "7294101",
    "prefecture": "広島県",
    "prefecture_kana": "ヒロシマケン",
    "prefecture_code": 34,
    "city": "三次市",
    "city_kana": "ミヨシシ",
    "town": "甲奴町本郷",
    "town_kana": "コウヌチョウホンゴウ",
    "street": null,
    "office_name": null,
    "office_name_kana": null
  },
  "4102": {
    "postcode": "7294102",
    "prefecture": "広島県",
    "prefecture_kana": "ヒロシマケン",
    "prefecture_code": 34,
    "city": "三次市",
    "city_kana": "ミヨシシ",
    "town": "甲奴町西野",
    "town_kana": "コウヌチョウニシノ",
    "street": null,
    "office_name": null,
    "office_name_kana": null
  },
  "4103": {
    "postcode": "7294103",
    "prefecture": "広島県",
    "prefecture_kana": "ヒロシマケン",
    "prefecture_code": 34,
    "city": "三次市",
    "city_kana": "ミヨシシ",
    "town": "甲奴町小童",
    "town_kana": "コウヌチョウヒチ",
    "street": null,
    "office_name": null,
    "office_name_kana": null
  },
  "4104": {
    "postcode": "7294104",
    "prefecture": "広島県",
    "prefecture_kana": "ヒロシマケン",
    "prefecture_code": 34,
    "city": "三次市",
    "city_kana": "ミヨシシ",
    "town": "甲奴町宇賀",
    "town_kana": "コウヌチョウウガ",
    "street": null,
    "office_name": null,
    "office_name_kana": null
  },
  "4105": {
    "postcode": "7294105",
    "prefecture": "広島県",
    "prefecture_kana": "ヒロシマケン",
    "prefecture_code": 34,
    "city": "三次市",
    "city_kana": "ミヨシシ",
    "town": "甲奴町梶田",
    "town_kana": "コウヌチョウカジタ",
    "street": null,
    "office_name": null,
    "office_name_kana": null
  },
  "4106": {
    "postcode": "7294106",
    "prefecture": "広島県",
    "prefecture_kana": "ヒロシマケン",
    "prefecture_code": 34,
    "city": "三次市",
    "city_kana": "ミヨシシ",
    "town": "甲奴町有田",
    "town_kana": "コウヌチョウアリダ",
    "street": null,
    "office_name": null,
    "office_name_kana": null
  },
  "4111": {
    "postcode": "7294111",
    "prefecture": "広島県",
    "prefecture_kana": "ヒロシマケン",
    "prefecture_code": 34,
    "city": "三次市",
    "city_kana": "ミヨシシ",
    "town": "甲奴町福田",
    "town_kana": "コウヌチョウフクダ",
    "street": null,
    "office_name": null,
    "office_name_kana": null
  },
  "4112": {
    "postcode": "7294112",
    "prefecture": "広島県",
    "prefecture_kana": "ヒロシマケン",
    "prefecture_code": 34,
    "city": "三次市",
    "city_kana": "ミヨシシ",
    "town": "甲奴町抜湯",
    "town_kana": "コウヌチョウヌクユ",
    "street": null,
    "office_name": null,
    "office_name_kana": null
  },
  "4113": {
    "postcode": "7294113",
    "prefecture": "広島県",
    "prefecture_kana": "ヒロシマケン",
    "prefecture_code": 34,
    "city": "三次市",
    "city_kana": "ミヨシシ",
    "town": "甲奴町太郎丸",
    "town_kana": "コウヌチョウタロウマル",
    "street": null,
    "office_name": null,
    "office_name_kana": null
  },
  "4201": {
    "postcode": "7294201",
    "prefecture": "広島県",
    "prefecture_kana": "ヒロシマケン",
    "prefecture_code": 34,
    "city": "三次市",
    "city_kana": "ミヨシシ",
    "town": "吉舎町知和",
    "town_kana": "キサチョウチワ",
    "street": null,
    "office_name": null,
    "office_name_kana": null
  },
  "4202": {
    "postcode": "7294202",
    "prefecture": "広島県",
    "prefecture_kana": "ヒロシマケン",
    "prefecture_code": 34,
    "city": "三次市",
    "city_kana": "ミヨシシ",
    "town": "吉舎町上安田",
    "town_kana": "キサチョウカミヤスダ",
    "street": null,
    "office_name": null,
    "office_name_kana": null
  },
  "4203": {
    "postcode": "7294203",
    "prefecture": "広島県",
    "prefecture_kana": "ヒロシマケン",
    "prefecture_code": 34,
    "city": "三次市",
    "city_kana": "ミヨシシ",
    "town": "吉舎町安田",
    "town_kana": "キサチョウヤスダ",
    "street": null,
    "office_name": null,
    "office_name_kana": null
  },
  "4204": {
    "postcode": "7294204",
    "prefecture": "広島県",
    "prefecture_kana": "ヒロシマケン",
    "prefecture_code": 34,
    "city": "三次市",
    "city_kana": "ミヨシシ",
    "town": "吉舎町三玉",
    "town_kana": "キサチョウミタマ",
    "street": null,
    "office_name": null,
    "office_name_kana": null
  },
  "4205": {
    "postcode": "7294205",
    "prefecture": "広島県",
    "prefecture_kana": "ヒロシマケン",
    "prefecture_code": 34,
    "city": "三次市",
    "city_kana": "ミヨシシ",
    "town": "吉舎町海田原",
    "town_kana": "キサチョウカイダハラ",
    "street": null,
    "office_name": null,
    "office_name_kana": null
  },
  "4206": {
    "postcode": "7294206",
    "prefecture": "広島県",
    "prefecture_kana": "ヒロシマケン",
    "prefecture_code": 34,
    "city": "三次市",
    "city_kana": "ミヨシシ",
    "town": "吉舎町矢井",
    "town_kana": "キサチョウヤイ",
    "street": null,
    "office_name": null,
    "office_name_kana": null
  },
  "4207": {
    "postcode": "7294207",
    "prefecture": "広島県",
    "prefecture_kana": "ヒロシマケン",
    "prefecture_code": 34,
    "city": "三次市",
    "city_kana": "ミヨシシ",
    "town": "吉舎町敷地",
    "town_kana": "キサチョウシキジ",
    "street": null,
    "office_name": null,
    "office_name_kana": null
  },
  "4208": {
    "postcode": "7294208",
    "prefecture": "広島県",
    "prefecture_kana": "ヒロシマケン",
    "prefecture_code": 34,
    "city": "三次市",
    "city_kana": "ミヨシシ",
    "town": "吉舎町矢野地",
    "town_kana": "キサチョウヤノチ",
    "street": null,
    "office_name": null,
    "office_name_kana": null
  },
  "4211": {
    "postcode": "7294211",
    "prefecture": "広島県",
    "prefecture_kana": "ヒロシマケン",
    "prefecture_code": 34,
    "city": "三次市",
    "city_kana": "ミヨシシ",
    "town": "吉舎町吉舎",
    "town_kana": "キサチョウキサ",
    "street": null,
    "office_name": null,
    "office_name_kana": null
  },
  "4221": {
    "postcode": "7294221",
    "prefecture": "広島県",
    "prefecture_kana": "ヒロシマケン",
    "prefecture_code": 34,
    "city": "三次市",
    "city_kana": "ミヨシシ",
    "town": "吉舎町清綱",
    "town_kana": "キサチョウキヨツナ",
    "street": null,
    "office_name": null,
    "office_name_kana": null
  },
  "4222": {
    "postcode": "7294222",
    "prefecture": "広島県",
    "prefecture_kana": "ヒロシマケン",
    "prefecture_code": 34,
    "city": "三次市",
    "city_kana": "ミヨシシ",
    "town": "吉舎町丸田",
    "town_kana": "キサチョウマルダ",
    "street": null,
    "office_name": null,
    "office_name_kana": null
  },
  "4223": {
    "postcode": "7294223",
    "prefecture": "広島県",
    "prefecture_kana": "ヒロシマケン",
    "prefecture_code": 34,
    "city": "三次市",
    "city_kana": "ミヨシシ",
    "town": "吉舎町雲通",
    "town_kana": "キサチョウウヅイ",
    "street": null,
    "office_name": null,
    "office_name_kana": null
  },
  "4224": {
    "postcode": "7294224",
    "prefecture": "広島県",
    "prefecture_kana": "ヒロシマケン",
    "prefecture_code": 34,
    "city": "三次市",
    "city_kana": "ミヨシシ",
    "town": "吉舎町辻",
    "town_kana": "キサチョウツジ",
    "street": null,
    "office_name": null,
    "office_name_kana": null
  },
  "4225": {
    "postcode": "7294225",
    "prefecture": "広島県",
    "prefecture_kana": "ヒロシマケン",
    "prefecture_code": 34,
    "city": "三次市",
    "city_kana": "ミヨシシ",
    "town": "吉舎町徳市",
    "town_kana": "キサチョウトクイチ",
    "street": null,
    "office_name": null,
    "office_name_kana": null
  },
  "4226": {
    "postcode": "7294226",
    "prefecture": "広島県",
    "prefecture_kana": "ヒロシマケン",
    "prefecture_code": 34,
    "city": "三次市",
    "city_kana": "ミヨシシ",
    "town": "吉舎町吉舎川之内",
    "town_kana": "キサチョウキサカワノウチ",
    "street": null,
    "office_name": null,
    "office_name_kana": null
  },
  "4227": {
    "postcode": "7294227",
    "prefecture": "広島県",
    "prefecture_kana": "ヒロシマケン",
    "prefecture_code": 34,
    "city": "三次市",
    "city_kana": "ミヨシシ",
    "town": "吉舎町檜",
    "town_kana": "キサチョウヒノキ",
    "street": null,
    "office_name": null,
    "office_name_kana": null
  },
  "4295": {
    "postcode": "7294295",
    "prefecture": "広島県",
    "prefecture_kana": "ヒロシマケン",
    "prefecture_code": 34,
    "city": "三次市",
    "city_kana": "ミヨシシ",
    "town": "吉舎町大字吉舎",
    "town_kana": null,
    "street": "３６８",
    "office_name": "三次市役所吉舎支所",
    "office_name_kana": "ミヨシシヤクシヨキサシシヨ"
  },
  "4301": {
    "postcode": "7294301",
    "prefecture": "広島県",
    "prefecture_kana": "ヒロシマケン",
    "prefecture_code": 34,
    "city": "三次市",
    "city_kana": "ミヨシシ",
    "town": "三良坂町光清",
    "town_kana": "ミラサカチョウミツキヨ",
    "street": null,
    "office_name": null,
    "office_name_kana": null
  },
  "4302": {
    "postcode": "7294302",
    "prefecture": "広島県",
    "prefecture_kana": "ヒロシマケン",
    "prefecture_code": 34,
    "city": "三次市",
    "city_kana": "ミヨシシ",
    "town": "三良坂町仁賀",
    "town_kana": "ミラサカチョウニカ",
    "street": null,
    "office_name": null,
    "office_name_kana": null
  },
  "4303": {
    "postcode": "7294303",
    "prefecture": "広島県",
    "prefecture_kana": "ヒロシマケン",
    "prefecture_code": 34,
    "city": "三次市",
    "city_kana": "ミヨシシ",
    "town": "三良坂町灰塚",
    "town_kana": "ミラサカチョウハイヅカ",
    "street": null,
    "office_name": null,
    "office_name_kana": null
  },
  "4304": {
    "postcode": "7294304",
    "prefecture": "広島県",
    "prefecture_kana": "ヒロシマケン",
    "prefecture_code": 34,
    "city": "三次市",
    "city_kana": "ミヨシシ",
    "town": "三良坂町三良坂",
    "town_kana": "ミラサカチョウミラサカ",
    "street": null,
    "office_name": null,
    "office_name_kana": null
  },
  "4305": {
    "postcode": "7294305",
    "prefecture": "広島県",
    "prefecture_kana": "ヒロシマケン",
    "prefecture_code": 34,
    "city": "三次市",
    "city_kana": "ミヨシシ",
    "town": "三良坂町長田",
    "town_kana": "ミラサカチョウナガタ",
    "street": null,
    "office_name": null,
    "office_name_kana": null
  },
  "4306": {
    "postcode": "7294306",
    "prefecture": "広島県",
    "prefecture_kana": "ヒロシマケン",
    "prefecture_code": 34,
    "city": "三次市",
    "city_kana": "ミヨシシ",
    "town": "三良坂町岡田",
    "town_kana": "ミラサカチョウオカダ",
    "street": null,
    "office_name": null,
    "office_name_kana": null
  },
  "4307": {
    "postcode": "7294307",
    "prefecture": "広島県",
    "prefecture_kana": "ヒロシマケン",
    "prefecture_code": 34,
    "city": "三次市",
    "city_kana": "ミヨシシ",
    "town": "三良坂町皆瀬",
    "town_kana": "ミラサカチョウカイゼ",
    "street": null,
    "office_name": null,
    "office_name_kana": null
  },
  "4308": {
    "postcode": "7294308",
    "prefecture": "広島県",
    "prefecture_kana": "ヒロシマケン",
    "prefecture_code": 34,
    "city": "三次市",
    "city_kana": "ミヨシシ",
    "town": "三良坂町田利",
    "town_kana": "ミラサカチョウタリ",
    "street": null,
    "office_name": null,
    "office_name_kana": null
  },
  "5111": {
    "postcode": "7295111",
    "prefecture": "広島県",
    "prefecture_kana": "ヒロシマケン",
    "prefecture_code": 34,
    "city": "庄原市",
    "city_kana": "ショウバラシ",
    "town": "東城町福代",
    "town_kana": "トウジョウチョウフクシロ",
    "street": null,
    "office_name": null,
    "office_name_kana": null
  },
  "5112": {
    "postcode": "7295112",
    "prefecture": "広島県",
    "prefecture_kana": "ヒロシマケン",
    "prefecture_code": 34,
    "city": "庄原市",
    "city_kana": "ショウバラシ",
    "town": "東城町新福代",
    "town_kana": "トウジョウチョウシンフクシロ",
    "street": null,
    "office_name": null,
    "office_name_kana": null
  },
  "5121": {
    "postcode": "7295121",
    "prefecture": "広島県",
    "prefecture_kana": "ヒロシマケン",
    "prefecture_code": 34,
    "city": "庄原市",
    "city_kana": "ショウバラシ",
    "town": "東城町川東",
    "town_kana": "トウジョウチョウカワヒガシ",
    "street": null,
    "office_name": null,
    "office_name_kana": null
  },
  "5122": {
    "postcode": "7295122",
    "prefecture": "広島県",
    "prefecture_kana": "ヒロシマケン",
    "prefecture_code": 34,
    "city": "庄原市",
    "city_kana": "ショウバラシ",
    "town": "東城町久代",
    "town_kana": "トウジョウチョウクシロ",
    "street": null,
    "office_name": null,
    "office_name_kana": null
  },
  "5123": {
    "postcode": "7295123",
    "prefecture": "広島県",
    "prefecture_kana": "ヒロシマケン",
    "prefecture_code": 34,
    "city": "庄原市",
    "city_kana": "ショウバラシ",
    "town": "東城町戸宇",
    "town_kana": "トウジョウチョウトウ",
    "street": null,
    "office_name": null,
    "office_name_kana": null
  },
  "5124": {
    "postcode": "7295124",
    "prefecture": "広島県",
    "prefecture_kana": "ヒロシマケン",
    "prefecture_code": 34,
    "city": "庄原市",
    "city_kana": "ショウバラシ",
    "town": "東城町東城",
    "town_kana": "トウジョウチョウトウジョウ",
    "street": null,
    "office_name": null,
    "office_name_kana": null
  },
  "5125": {
    "postcode": "7295125",
    "prefecture": "広島県",
    "prefecture_kana": "ヒロシマケン",
    "prefecture_code": 34,
    "city": "庄原市",
    "city_kana": "ショウバラシ",
    "town": "東城町川西",
    "town_kana": "トウジョウチョウカワニシ",
    "street": null,
    "office_name": null,
    "office_name_kana": null
  },
  "5126": {
    "postcode": "7295126",
    "prefecture": "広島県",
    "prefecture_kana": "ヒロシマケン",
    "prefecture_code": 34,
    "city": "庄原市",
    "city_kana": "ショウバラシ",
    "town": "東城町竹森",
    "town_kana": "トウジョウチョウタケモリ",
    "street": null,
    "office_name": null,
    "office_name_kana": null
  },
  "5127": {
    "postcode": "7295127",
    "prefecture": "広島県",
    "prefecture_kana": "ヒロシマケン",
    "prefecture_code": 34,
    "city": "庄原市",
    "city_kana": "ショウバラシ",
    "town": "東城町粟田",
    "town_kana": "トウジョウチョウアワタ",
    "street": null,
    "office_name": null,
    "office_name_kana": null
  },
  "5128": [
    {
      "postcode": "7295128",
      "prefecture": "広島県",
      "prefecture_kana": "ヒロシマケン",
      "prefecture_code": 34,
      "city": "庄原市",
      "city_kana": "ショウバラシ",
      "town": "東城町受原",
      "town_kana": "トウジョウチョウウケバラ",
      "street": null,
      "office_name": null,
      "office_name_kana": null
    },
    {
      "postcode": "7295128",
      "prefecture": "広島県",
      "prefecture_kana": "ヒロシマケン",
      "prefecture_code": 34,
      "city": "庄原市",
      "city_kana": "ショウバラシ",
      "town": "東城町受原隠地",
      "town_kana": "トウジョウチョウウケバラオンジ",
      "street": null,
      "office_name": null,
      "office_name_kana": null
    },
    {
      "postcode": "7295128",
      "prefecture": "広島県",
      "prefecture_kana": "ヒロシマケン",
      "prefecture_code": 34,
      "city": "庄原市",
      "city_kana": "ショウバラシ",
      "town": "東城町受原中ノ谷",
      "town_kana": "トウジョウチョウウケバラナカノタニ",
      "street": null,
      "office_name": null,
      "office_name_kana": null
    }
  ],
  "5131": {
    "postcode": "7295131",
    "prefecture": "広島県",
    "prefecture_kana": "ヒロシマケン",
    "prefecture_code": 34,
    "city": "庄原市",
    "city_kana": "ショウバラシ",
    "town": "東城町新免",
    "town_kana": "トウジョウチョウシンメン",
    "street": null,
    "office_name": null,
    "office_name_kana": null
  },
  "5132": {
    "postcode": "7295132",
    "prefecture": "広島県",
    "prefecture_kana": "ヒロシマケン",
    "prefecture_code": 34,
    "city": "庄原市",
    "city_kana": "ショウバラシ",
    "town": "東城町三坂",
    "town_kana": "トウジョウチョウミサカ",
    "street": null,
    "office_name": null,
    "office_name_kana": null
  },
  "5241": {
    "postcode": "7295241",
    "prefecture": "広島県",
    "prefecture_kana": "ヒロシマケン",
    "prefecture_code": 34,
    "city": "庄原市",
    "city_kana": "ショウバラシ",
    "town": "東城町帝釈宇山",
    "town_kana": "トウジョウチョウタイシャクウヤマ",
    "street": null,
    "office_name": null,
    "office_name_kana": null
  },
  "5242": {
    "postcode": "7295242",
    "prefecture": "広島県",
    "prefecture_kana": "ヒロシマケン",
    "prefecture_code": 34,
    "city": "庄原市",
    "city_kana": "ショウバラシ",
    "town": "東城町帝釈山中",
    "town_kana": "トウジョウチョウタイシャクヤマナカ",
    "street": null,
    "office_name": null,
    "office_name_kana": null
  },
  "5243": {
    "postcode": "7295243",
    "prefecture": "広島県",
    "prefecture_kana": "ヒロシマケン",
    "prefecture_code": 34,
    "city": "庄原市",
    "city_kana": "ショウバラシ",
    "town": "東城町帝釈始終",
    "town_kana": "トウジョウチョウタイシャクシシュウ",
    "street": null,
    "office_name": null,
    "office_name_kana": null
  },
  "5244": {
    "postcode": "7295244",
    "prefecture": "広島県",
    "prefecture_kana": "ヒロシマケン",
    "prefecture_code": 34,
    "city": "庄原市",
    "city_kana": "ショウバラシ",
    "town": "東城町帝釈未渡",
    "town_kana": "トウジョウチョウタイシャクミド",
    "street": null,
    "office_name": null,
    "office_name_kana": null
  },
  "5451": {
    "postcode": "7295451",
    "prefecture": "広島県",
    "prefecture_kana": "ヒロシマケン",
    "prefecture_code": 34,
    "city": "庄原市",
    "city_kana": "ショウバラシ",
    "town": "東城町田黒",
    "town_kana": "トウジョウチョウタグロ",
    "street": null,
    "office_name": null,
    "office_name_kana": null
  },
  "5452": {
    "postcode": "7295452",
    "prefecture": "広島県",
    "prefecture_kana": "ヒロシマケン",
    "prefecture_code": 34,
    "city": "庄原市",
    "city_kana": "ショウバラシ",
    "town": "東城町菅",
    "town_kana": "トウジョウチョウスゲ",
    "street": null,
    "office_name": null,
    "office_name_kana": null
  },
  "5453": {
    "postcode": "7295453",
    "prefecture": "広島県",
    "prefecture_kana": "ヒロシマケン",
    "prefecture_code": 34,
    "city": "庄原市",
    "city_kana": "ショウバラシ",
    "town": "東城町受原",
    "town_kana": "トウジョウチョウウケバラ",
    "street": null,
    "office_name": null,
    "office_name_kana": null
  },
  "5454": {
    "postcode": "7295454",
    "prefecture": "広島県",
    "prefecture_kana": "ヒロシマケン",
    "prefecture_code": 34,
    "city": "庄原市",
    "city_kana": "ショウバラシ",
    "town": "東城町川鳥",
    "town_kana": "トウジョウチョウカワトリ",
    "street": null,
    "office_name": null,
    "office_name_kana": null
  },
  "5455": {
    "postcode": "7295455",
    "prefecture": "広島県",
    "prefecture_kana": "ヒロシマケン",
    "prefecture_code": 34,
    "city": "庄原市",
    "city_kana": "ショウバラシ",
    "town": "東城町保田",
    "town_kana": "トウジョウチョウヤスダ",
    "street": null,
    "office_name": null,
    "office_name_kana": null
  },
  "5456": {
    "postcode": "7295456",
    "prefecture": "広島県",
    "prefecture_kana": "ヒロシマケン",
    "prefecture_code": 34,
    "city": "庄原市",
    "city_kana": "ショウバラシ",
    "town": "東城町森",
    "town_kana": "トウジョウチョウモリ",
    "street": null,
    "office_name": null,
    "office_name_kana": null
  },
  "5501": {
    "postcode": "7295501",
    "prefecture": "広島県",
    "prefecture_kana": "ヒロシマケン",
    "prefecture_code": 34,
    "city": "庄原市",
    "city_kana": "ショウバラシ",
    "town": "東城町小奴可",
    "town_kana": "トウジョウチョウオヌカ",
    "street": null,
    "office_name": null,
    "office_name_kana": null
  },
  "5502": {
    "postcode": "7295502",
    "prefecture": "広島県",
    "prefecture_kana": "ヒロシマケン",
    "prefecture_code": 34,
    "city": "庄原市",
    "city_kana": "ショウバラシ",
    "town": "東城町内堀",
    "town_kana": "トウジョウチョウウツボリ",
    "street": null,
    "office_name": null,
    "office_name_kana": null
  },
  "5503": {
    "postcode": "7295503",
    "prefecture": "広島県",
    "prefecture_kana": "ヒロシマケン",
    "prefecture_code": 34,
    "city": "庄原市",
    "city_kana": "ショウバラシ",
    "town": "東城町千鳥",
    "town_kana": "トウジョウチョウチドリ",
    "street": null,
    "office_name": null,
    "office_name_kana": null
  },
  "5504": {
    "postcode": "7295504",
    "prefecture": "広島県",
    "prefecture_kana": "ヒロシマケン",
    "prefecture_code": 34,
    "city": "庄原市",
    "city_kana": "ショウバラシ",
    "town": "東城町小串",
    "town_kana": "トウジョウチョウオグシ",
    "street": null,
    "office_name": null,
    "office_name_kana": null
  },
  "5505": {
    "postcode": "7295505",
    "prefecture": "広島県",
    "prefecture_kana": "ヒロシマケン",
    "prefecture_code": 34,
    "city": "庄原市",
    "city_kana": "ショウバラシ",
    "town": "東城町塩原",
    "town_kana": "トウジョウチョウシオハラ",
    "street": null,
    "office_name": null,
    "office_name_kana": null
  },
  "5506": {
    "postcode": "7295506",
    "prefecture": "広島県",
    "prefecture_kana": "ヒロシマケン",
    "prefecture_code": 34,
    "city": "庄原市",
    "city_kana": "ショウバラシ",
    "town": "東城町加谷",
    "town_kana": "トウジョウチョウカダニ",
    "street": null,
    "office_name": null,
    "office_name_kana": null
  },
  "5601": {
    "postcode": "7295601",
    "prefecture": "広島県",
    "prefecture_kana": "ヒロシマケン",
    "prefecture_code": 34,
    "city": "庄原市",
    "city_kana": "ショウバラシ",
    "town": "西城町小鳥原",
    "town_kana": "サイジョウチョウヒトトバラ",
    "street": null,
    "office_name": null,
    "office_name_kana": null
  },
  "5602": {
    "postcode": "7295602",
    "prefecture": "広島県",
    "prefecture_kana": "ヒロシマケン",
    "prefecture_code": 34,
    "city": "庄原市",
    "city_kana": "ショウバラシ",
    "town": "西城町油木",
    "town_kana": "サイジョウチョウユキ",
    "street": null,
    "office_name": null,
    "office_name_kana": null
  },
  "5603": [
    {
      "postcode": "7295603",
      "prefecture": "広島県",
      "prefecture_kana": "ヒロシマケン",
      "prefecture_code": 34,
      "city": "庄原市",
      "city_kana": "ショウバラシ",
      "town": "西城町熊野",
      "town_kana": "サイジョウチョウクマノ",
      "street": null,
      "office_name": null,
      "office_name_kana": null
    },
    {
      "postcode": "7295603",
      "prefecture": "広島県",
      "prefecture_kana": "ヒロシマケン",
      "prefecture_code": 34,
      "city": "庄原市",
      "city_kana": "ショウバラシ",
      "town": "西城町熊野上梶谷",
      "town_kana": "サイジョウチョウクマノカミカジダニ",
      "street": null,
      "office_name": null,
      "office_name_kana": null
    },
    {
      "postcode": "7295603",
      "prefecture": "広島県",
      "prefecture_kana": "ヒロシマケン",
      "prefecture_code": 34,
      "city": "庄原市",
      "city_kana": "ショウバラシ",
      "town": "西城町熊野下梶谷",
      "town_kana": "サイジョウチョウクマノシモカジダニ",
      "street": null,
      "office_name": null,
      "office_name_kana": null
    },
    {
      "postcode": "7295603",
      "prefecture": "広島県",
      "prefecture_kana": "ヒロシマケン",
      "prefecture_code": 34,
      "city": "庄原市",
      "city_kana": "ショウバラシ",
      "town": "西城町熊野落合",
      "town_kana": "サイジョウチョウクマノオチアイ",
      "street": null,
      "office_name": null,
      "office_name_kana": null
    },
    {
      "postcode": "7295603",
      "prefecture": "広島県",
      "prefecture_kana": "ヒロシマケン",
      "prefecture_code": 34,
      "city": "庄原市",
      "city_kana": "ショウバラシ",
      "town": "西城町熊野明賀",
      "town_kana": "サイジョウチョウクマノミョウガ",
      "street": null,
      "office_name": null,
      "office_name_kana": null
    }
  ],
  "5611": {
    "postcode": "7295611",
    "prefecture": "広島県",
    "prefecture_kana": "ヒロシマケン",
    "prefecture_code": 34,
    "city": "庄原市",
    "city_kana": "ショウバラシ",
    "town": "西城町三坂",
    "town_kana": "サイジョウチョウミサカ",
    "street": null,
    "office_name": null,
    "office_name_kana": null
  },
  "5612": {
    "postcode": "7295612",
    "prefecture": "広島県",
    "prefecture_kana": "ヒロシマケン",
    "prefecture_code": 34,
    "city": "庄原市",
    "city_kana": "ショウバラシ",
    "town": "西城町高尾",
    "town_kana": "サイジョウチョウコウオ",
    "street": null,
    "office_name": null,
    "office_name_kana": null
  },
  "5613": [
    {
      "postcode": "7295613",
      "prefecture": "広島県",
      "prefecture_kana": "ヒロシマケン",
      "prefecture_code": 34,
      "city": "庄原市",
      "city_kana": "ショウバラシ",
      "town": "西城町八鳥",
      "town_kana": "サイジョウチョウハットリ",
      "street": null,
      "office_name": null,
      "office_name_kana": null
    },
    {
      "postcode": "7295613",
      "prefecture": "広島県",
      "prefecture_kana": "ヒロシマケン",
      "prefecture_code": 34,
      "city": "庄原市",
      "city_kana": "ショウバラシ",
      "town": "西城町八鳥明賀",
      "town_kana": "サイジョウチョウハットリミョウガ",
      "street": null,
      "office_name": null,
      "office_name_kana": null
    },
    {
      "postcode": "7295613",
      "prefecture": "広島県",
      "prefecture_kana": "ヒロシマケン",
      "prefecture_code": 34,
      "city": "庄原市",
      "city_kana": "ショウバラシ",
      "town": "西城町八鳥杉ノ原",
      "town_kana": "サイジョウチョウハットリスギノハラ",
      "street": null,
      "office_name": null,
      "office_name_kana": null
    },
    {
      "postcode": "7295613",
      "prefecture": "広島県",
      "prefecture_kana": "ヒロシマケン",
      "prefecture_code": 34,
      "city": "庄原市",
      "city_kana": "ショウバラシ",
      "town": "西城町八鳥落合駅前",
      "town_kana": "サイジョウチョウハットリオチアイエキマエ",
      "street": null,
      "office_name": null,
      "office_name_kana": null
    },
    {
      "postcode": "7295613",
      "prefecture": "広島県",
      "prefecture_kana": "ヒロシマケン",
      "prefecture_code": 34,
      "city": "庄原市",
      "city_kana": "ショウバラシ",
      "town": "西城町八鳥石塚",
      "town_kana": "サイジョウチョウハットリイシヅカ",
      "street": null,
      "office_name": null,
      "office_name_kana": null
    },
    {
      "postcode": "7295613",
      "prefecture": "広島県",
      "prefecture_kana": "ヒロシマケン",
      "prefecture_code": 34,
      "city": "庄原市",
      "city_kana": "ショウバラシ",
      "town": "西城町八鳥二重坂",
      "town_kana": "サイジョウチョウハットリニジュウザカ",
      "street": null,
      "office_name": null,
      "office_name_kana": null
    }
  ],
  "5721": {
    "postcode": "7295721",
    "prefecture": "広島県",
    "prefecture_kana": "ヒロシマケン",
    "prefecture_code": 34,
    "city": "庄原市",
    "city_kana": "ショウバラシ",
    "town": "西城町八鳥",
    "town_kana": "サイジョウチョウハットリ",
    "street": null,
    "office_name": null,
    "office_name_kana": null
  },
  "5722": {
    "postcode": "7295722",
    "prefecture": "広島県",
    "prefecture_kana": "ヒロシマケン",
    "prefecture_code": 34,
    "city": "庄原市",
    "city_kana": "ショウバラシ",
    "town": "西城町大佐",
    "town_kana": "サイジョウチョウオオサ",
    "street": null,
    "office_name": null,
    "office_name_kana": null
  },
  "5723": {
    "postcode": "7295723",
    "prefecture": "広島県",
    "prefecture_kana": "ヒロシマケン",
    "prefecture_code": 34,
    "city": "庄原市",
    "city_kana": "ショウバラシ",
    "town": "西城町平子",
    "town_kana": "サイジョウチョウヒラコ",
    "street": null,
    "office_name": null,
    "office_name_kana": null
  },
  "5731": {
    "postcode": "7295731",
    "prefecture": "広島県",
    "prefecture_kana": "ヒロシマケン",
    "prefecture_code": 34,
    "city": "庄原市",
    "city_kana": "ショウバラシ",
    "town": "西城町西城",
    "town_kana": "サイジョウチョウサイジョウ",
    "street": null,
    "office_name": null,
    "office_name_kana": null
  },
  "5732": {
    "postcode": "7295732",
    "prefecture": "広島県",
    "prefecture_kana": "ヒロシマケン",
    "prefecture_code": 34,
    "city": "庄原市",
    "city_kana": "ショウバラシ",
    "town": "西城町栗",
    "town_kana": "サイジョウチョウクリ",
    "street": null,
    "office_name": null,
    "office_name_kana": null
  },
  "5733": {
    "postcode": "7295733",
    "prefecture": "広島県",
    "prefecture_kana": "ヒロシマケン",
    "prefecture_code": 34,
    "city": "庄原市",
    "city_kana": "ショウバラシ",
    "town": "西城町入江",
    "town_kana": "サイジョウチョウイリエ",
    "street": null,
    "office_name": null,
    "office_name_kana": null
  },
  "5741": {
    "postcode": "7295741",
    "prefecture": "広島県",
    "prefecture_kana": "ヒロシマケン",
    "prefecture_code": 34,
    "city": "庄原市",
    "city_kana": "ショウバラシ",
    "town": "西城町熊野",
    "town_kana": "サイジョウチョウクマノ",
    "street": null,
    "office_name": null,
    "office_name_kana": null
  },
  "5742": {
    "postcode": "7295742",
    "prefecture": "広島県",
    "prefecture_kana": "ヒロシマケン",
    "prefecture_code": 34,
    "city": "庄原市",
    "city_kana": "ショウバラシ",
    "town": "西城町中野",
    "town_kana": "サイジョウチョウナカノ",
    "street": null,
    "office_name": null,
    "office_name_kana": null
  },
  "5743": {
    "postcode": "7295743",
    "prefecture": "広島県",
    "prefecture_kana": "ヒロシマケン",
    "prefecture_code": 34,
    "city": "庄原市",
    "city_kana": "ショウバラシ",
    "town": "西城町中迫",
    "town_kana": "サイジョウチョウナカザコ",
    "street": null,
    "office_name": null,
    "office_name_kana": null
  },
  "5744": {
    "postcode": "7295744",
    "prefecture": "広島県",
    "prefecture_kana": "ヒロシマケン",
    "prefecture_code": 34,
    "city": "庄原市",
    "city_kana": "ショウバラシ",
    "town": "西城町大屋",
    "town_kana": "サイジョウチョウオオヤ",
    "street": null,
    "office_name": null,
    "office_name_kana": null
  },
  "5745": {
    "postcode": "7295745",
    "prefecture": "広島県",
    "prefecture_kana": "ヒロシマケン",
    "prefecture_code": 34,
    "city": "庄原市",
    "city_kana": "ショウバラシ",
    "town": "西城町福山",
    "town_kana": "サイジョウチョウフクヤマ",
    "street": null,
    "office_name": null,
    "office_name_kana": null
  },
  "5792": {
    "postcode": "7295792",
    "prefecture": "広島県",
    "prefecture_kana": "ヒロシマケン",
    "prefecture_code": 34,
    "city": "庄原市",
    "city_kana": "ショウバラシ",
    "town": "西城町大佐",
    "town_kana": "サイジョウチョウオオサ",
    "street": "７３７",
    "office_name": "庄原市役所　西城支所",
    "office_name_kana": "シヨウバラシヤクシヨ サイジヨウシシヨ"
  },
  "5811": {
    "postcode": "7295811",
    "prefecture": "広島県",
    "prefecture_kana": "ヒロシマケン",
    "prefecture_code": 34,
    "city": "庄原市",
    "city_kana": "ショウバラシ",
    "town": "高町",
    "town_kana": "タカマチ",
    "street": null,
    "office_name": null,
    "office_name_kana": null
  },
  "5812": {
    "postcode": "7295812",
    "prefecture": "広島県",
    "prefecture_kana": "ヒロシマケン",
    "prefecture_code": 34,
    "city": "庄原市",
    "city_kana": "ショウバラシ",
    "town": "小用町",
    "town_kana": "オヨウチョウ",
    "street": null,
    "office_name": null,
    "office_name_kana": null
  },
  "5813": {
    "postcode": "7295813",
    "prefecture": "広島県",
    "prefecture_kana": "ヒロシマケン",
    "prefecture_code": 34,
    "city": "庄原市",
    "city_kana": "ショウバラシ",
    "town": "川西町",
    "town_kana": "カワニシチョウ",
    "street": null,
    "office_name": null,
    "office_name_kana": null
  },
  "6131": {
    "postcode": "7296131",
    "prefecture": "広島県",
    "prefecture_kana": "ヒロシマケン",
    "prefecture_code": 34,
    "city": "庄原市",
    "city_kana": "ショウバラシ",
    "town": "山内町",
    "town_kana": "ヤマノウチチョウ",
    "street": null,
    "office_name": null,
    "office_name_kana": null
  },
  "6132": {
    "postcode": "7296132",
    "prefecture": "広島県",
    "prefecture_kana": "ヒロシマケン",
    "prefecture_code": 34,
    "city": "庄原市",
    "city_kana": "ショウバラシ",
    "town": "本郷町",
    "town_kana": "ホンゴウチョウ",
    "street": null,
    "office_name": null,
    "office_name_kana": null
  },
  "6133": {
    "postcode": "7296133",
    "prefecture": "広島県",
    "prefecture_kana": "ヒロシマケン",
    "prefecture_code": 34,
    "city": "庄原市",
    "city_kana": "ショウバラシ",
    "town": "殿垣内町",
    "town_kana": "トノゴウチチョウ",
    "street": null,
    "office_name": null,
    "office_name_kana": null
  },
  "6134": {
    "postcode": "7296134",
    "prefecture": "広島県",
    "prefecture_kana": "ヒロシマケン",
    "prefecture_code": 34,
    "city": "庄原市",
    "city_kana": "ショウバラシ",
    "town": "木戸町",
    "town_kana": "キドチョウ",
    "street": null,
    "office_name": null,
    "office_name_kana": null
  },
  "6141": {
    "postcode": "7296141",
    "prefecture": "広島県",
    "prefecture_kana": "ヒロシマケン",
    "prefecture_code": 34,
    "city": "庄原市",
    "city_kana": "ショウバラシ",
    "town": "水越町",
    "town_kana": "ミズコシチョウ",
    "street": null,
    "office_name": null,
    "office_name_kana": null
  },
  "6142": {
    "postcode": "7296142",
    "prefecture": "広島県",
    "prefecture_kana": "ヒロシマケン",
    "prefecture_code": 34,
    "city": "庄原市",
    "city_kana": "ショウバラシ",
    "town": "高茂町",
    "town_kana": "コウモチョウ",
    "street": null,
    "office_name": null,
    "office_name_kana": null
  },
  "6143": {
    "postcode": "7296143",
    "prefecture": "広島県",
    "prefecture_kana": "ヒロシマケン",
    "prefecture_code": 34,
    "city": "庄原市",
    "city_kana": "ショウバラシ",
    "town": "尾引町",
    "town_kana": "オビキチョウ",
    "street": null,
    "office_name": null,
    "office_name_kana": null
  },
  "6144": {
    "postcode": "7296144",
    "prefecture": "広島県",
    "prefecture_kana": "ヒロシマケン",
    "prefecture_code": 34,
    "city": "庄原市",
    "city_kana": "ショウバラシ",
    "town": "平和町",
    "town_kana": "ヘイワチョウ",
    "street": null,
    "office_name": null,
    "office_name_kana": null
  },
  "6201": {
    "postcode": "7296201",
    "prefecture": "広島県",
    "prefecture_kana": "ヒロシマケン",
    "prefecture_code": 34,
    "city": "三次市",
    "city_kana": "ミヨシシ",
    "town": "和知町",
    "town_kana": "ワチマチ",
    "street": null,
    "office_name": null,
    "office_name_kana": null
  },
  "6202": {
    "postcode": "7296202",
    "prefecture": "広島県",
    "prefecture_kana": "ヒロシマケン",
    "prefecture_code": 34,
    "city": "三次市",
    "city_kana": "ミヨシシ",
    "town": "向江田町",
    "town_kana": "ムコウエタマチ",
    "street": null,
    "office_name": null,
    "office_name_kana": null
  },
  "6203": {
    "postcode": "7296203",
    "prefecture": "広島県",
    "prefecture_kana": "ヒロシマケン",
    "prefecture_code": 34,
    "city": "三次市",
    "city_kana": "ミヨシシ",
    "town": "志幸町",
    "town_kana": "シコウマチ",
    "street": null,
    "office_name": null,
    "office_name_kana": null
  },
  "6204": {
    "postcode": "7296204",
    "prefecture": "広島県",
    "prefecture_kana": "ヒロシマケン",
    "prefecture_code": 34,
    "city": "三次市",
    "city_kana": "ミヨシシ",
    "town": "木乗町",
    "town_kana": "キノリマチ",
    "street": null,
    "office_name": null,
    "office_name_kana": null
  },
  "6205": {
    "postcode": "7296205",
    "prefecture": "広島県",
    "prefecture_kana": "ヒロシマケン",
    "prefecture_code": 34,
    "city": "三次市",
    "city_kana": "ミヨシシ",
    "town": "塩町",
    "town_kana": "シオマチ",
    "street": null,
    "office_name": null,
    "office_name_kana": null
  },
  "6211": {
    "postcode": "7296211",
    "prefecture": "広島県",
    "prefecture_kana": "ヒロシマケン",
    "prefecture_code": 34,
    "city": "三次市",
    "city_kana": "ミヨシシ",
    "town": "大田幸町",
    "town_kana": "オオダコウマチ",
    "street": null,
    "office_name": null,
    "office_name_kana": null
  },
  "6212": {
    "postcode": "7296212",
    "prefecture": "広島県",
    "prefecture_kana": "ヒロシマケン",
    "prefecture_code": 34,
    "city": "三次市",
    "city_kana": "ミヨシシ",
    "town": "糸井町",
    "town_kana": "イトイマチ",
    "street": null,
    "office_name": null,
    "office_name_kana": null
  },
  "6213": {
    "postcode": "7296213",
    "prefecture": "広島県",
    "prefecture_kana": "ヒロシマケン",
    "prefecture_code": 34,
    "city": "三次市",
    "city_kana": "ミヨシシ",
    "town": "廻神町",
    "town_kana": "メグリカミマチ",
    "street": null,
    "office_name": null,
    "office_name_kana": null
  },
  "6214": {
    "postcode": "7296214",
    "prefecture": "広島県",
    "prefecture_kana": "ヒロシマケン",
    "prefecture_code": 34,
    "city": "三次市",
    "city_kana": "ミヨシシ",
    "town": "高杉町",
    "town_kana": "タカスギマチ",
    "street": null,
    "office_name": null,
    "office_name_kana": null
  },
  "6215": {
    "postcode": "7296215",
    "prefecture": "広島県",
    "prefecture_kana": "ヒロシマケン",
    "prefecture_code": 34,
    "city": "三次市",
    "city_kana": "ミヨシシ",
    "town": "江田川之内町",
    "town_kana": "エタカワノウチマチ",
    "street": null,
    "office_name": null,
    "office_name_kana": null
  },
  "6216": {
    "postcode": "7296216",
    "prefecture": "広島県",
    "prefecture_kana": "ヒロシマケン",
    "prefecture_code": 34,
    "city": "三次市",
    "city_kana": "ミヨシシ",
    "town": "小田幸町",
    "town_kana": "コダコウマチ",
    "street": null,
    "office_name": null,
    "office_name_kana": null
  },
  "6331": {
    "postcode": "7296331",
    "prefecture": "広島県",
    "prefecture_kana": "ヒロシマケン",
    "prefecture_code": 34,
    "city": "三次市",
    "city_kana": "ミヨシシ",
    "town": "下志和地町",
    "town_kana": "シモシワチマチ",
    "street": null,
    "office_name": null,
    "office_name_kana": null
  },
  "6332": {
    "postcode": "7296332",
    "prefecture": "広島県",
    "prefecture_kana": "ヒロシマケン",
    "prefecture_code": 34,
    "city": "三次市",
    "city_kana": "ミヨシシ",
    "town": "上志和地町",
    "town_kana": "カミシワチマチ",
    "street": null,
    "office_name": null,
    "office_name_kana": null
  },
  "6333": {
    "postcode": "7296333",
    "prefecture": "広島県",
    "prefecture_kana": "ヒロシマケン",
    "prefecture_code": 34,
    "city": "三次市",
    "city_kana": "ミヨシシ",
    "town": "下川立町",
    "town_kana": "シモカワタチマチ",
    "street": null,
    "office_name": null,
    "office_name_kana": null
  },
  "6334": {
    "postcode": "7296334",
    "prefecture": "広島県",
    "prefecture_kana": "ヒロシマケン",
    "prefecture_code": 34,
    "city": "三次市",
    "city_kana": "ミヨシシ",
    "town": "上川立町",
    "town_kana": "カミカワタチマチ",
    "street": null,
    "office_name": null,
    "office_name_kana": null
  },
  "6335": {
    "postcode": "7296335",
    "prefecture": "広島県",
    "prefecture_kana": "ヒロシマケン",
    "prefecture_code": 34,
    "city": "三次市",
    "city_kana": "ミヨシシ",
    "town": "秋町",
    "town_kana": "アキマチ",
    "street": null,
    "office_name": null,
    "office_name_kana": null
  },
  "6611": {
    "postcode": "7296611",
    "prefecture": "広島県",
    "prefecture_kana": "ヒロシマケン",
    "prefecture_code": 34,
    "city": "三次市",
    "city_kana": "ミヨシシ",
    "town": "三和町福田",
    "town_kana": "ミワチョウフクダ",
    "street": null,
    "office_name": null,
    "office_name_kana": null
  },
  "6612": [
    {
      "postcode": "7296612",
      "prefecture": "広島県",
      "prefecture_kana": "ヒロシマケン",
      "prefecture_code": 34,
      "city": "三次市",
      "city_kana": "ミヨシシ",
      "town": "三和町敷名",
      "town_kana": "ミワチョウシキナ",
      "street": null,
      "office_name": null,
      "office_name_kana": null
    },
    {
      "postcode": "7296612",
      "prefecture": "広島県",
      "prefecture_kana": "ヒロシマケン",
      "prefecture_code": 34,
      "city": "三次市",
      "city_kana": "ミヨシシ",
      "town": "三和町敷名鉾畦",
      "town_kana": "ミワチョウシキナホコノウネ",
      "street": null,
      "office_name": null,
      "office_name_kana": null
    },
    {
      "postcode": "7296612",
      "prefecture": "広島県",
      "prefecture_kana": "ヒロシマケン",
      "prefecture_code": 34,
      "city": "三次市",
      "city_kana": "ミヨシシ",
      "town": "三和町下板木",
      "town_kana": "ミワチョウシモイタキ",
      "street": null,
      "office_name": null,
      "office_name_kana": null
    }
  ],
  "6613": {
    "postcode": "7296613",
    "prefecture": "広島県",
    "prefecture_kana": "ヒロシマケン",
    "prefecture_code": 34,
    "city": "三次市",
    "city_kana": "ミヨシシ",
    "town": "三和町有原",
    "town_kana": "ミワチョウアリハラ",
    "street": null,
    "office_name": null,
    "office_name_kana": null
  },
  "6614": {
    "postcode": "7296614",
    "prefecture": "広島県",
    "prefecture_kana": "ヒロシマケン",
    "prefecture_code": 34,
    "city": "三次市",
    "city_kana": "ミヨシシ",
    "town": "三和町羽出庭",
    "town_kana": "ミワチョウハデニワ",
    "street": null,
    "office_name": null,
    "office_name_kana": null
  },
  "6615": {
    "postcode": "7296615",
    "prefecture": "広島県",
    "prefecture_kana": "ヒロシマケン",
    "prefecture_code": 34,
    "city": "三次市",
    "city_kana": "ミヨシシ",
    "town": "三和町上板木",
    "town_kana": "ミワチョウカミイタキ",
    "street": null,
    "office_name": null,
    "office_name_kana": null
  },
  "6616": {
    "postcode": "7296616",
    "prefecture": "広島県",
    "prefecture_kana": "ヒロシマケン",
    "prefecture_code": 34,
    "city": "三次市",
    "city_kana": "ミヨシシ",
    "town": "三和町大力谷",
    "town_kana": "ミワチョウダイリキダニ",
    "street": null,
    "office_name": null,
    "office_name_kana": null
  },
  "6701": [
    {
      "postcode": "7296701",
      "prefecture": "広島県",
      "prefecture_kana": "ヒロシマケン",
      "prefecture_code": 34,
      "city": "三次市",
      "city_kana": "ミヨシシ",
      "town": "三和町飯田",
      "town_kana": "ミワチョウイイダ",
      "street": null,
      "office_name": null,
      "office_name_kana": null
    },
    {
      "postcode": "7296701",
      "prefecture": "広島県",
      "prefecture_kana": "ヒロシマケン",
      "prefecture_code": 34,
      "city": "三次市",
      "city_kana": "ミヨシシ",
      "town": "三和町上壱",
      "town_kana": "ミワチョウカミイチ",
      "street": null,
      "office_name": null,
      "office_name_kana": null
    }
  ],
  "6702": {
    "postcode": "7296702",
    "prefecture": "広島県",
    "prefecture_kana": "ヒロシマケン",
    "prefecture_code": 34,
    "city": "三次市",
    "city_kana": "ミヨシシ",
    "town": "三和町敷名",
    "town_kana": "ミワチョウシキナ",
    "street": null,
    "office_name": null,
    "office_name_kana": null
  },
  "6711": {
    "postcode": "7296711",
    "prefecture": "広島県",
    "prefecture_kana": "ヒロシマケン",
    "prefecture_code": 34,
    "city": "世羅郡世羅町",
    "city_kana": "セラグンセラチョウ",
    "town": "黒川",
    "town_kana": "クロガワ",
    "street": null,
    "office_name": null,
    "office_name_kana": null
  },
  "6712": {
    "postcode": "7296712",
    "prefecture": "広島県",
    "prefecture_kana": "ヒロシマケン",
    "prefecture_code": 34,
    "city": "世羅郡世羅町",
    "city_kana": "セラグンセラチョウ",
    "town": "吉原",
    "town_kana": "ヨシワラ",
    "street": null,
    "office_name": null,
    "office_name_kana": null
  },
  "6713": {
    "postcode": "7296713",
    "prefecture": "広島県",
    "prefecture_kana": "ヒロシマケン",
    "prefecture_code": 34,
    "city": "世羅郡世羅町",
    "city_kana": "セラグンセラチョウ",
    "town": "中",
    "town_kana": "ナカ",
    "street": null,
    "office_name": null,
    "office_name_kana": null
  },
  "6714": {
    "postcode": "7296714",
    "prefecture": "広島県",
    "prefecture_kana": "ヒロシマケン",
    "prefecture_code": 34,
    "city": "世羅郡世羅町",
    "city_kana": "セラグンセラチョウ",
    "town": "上津田",
    "town_kana": "カミヅタ",
    "street": null,
    "office_name": null,
    "office_name_kana": null
  },
  "6715": {
    "postcode": "7296715",
    "prefecture": "広島県",
    "prefecture_kana": "ヒロシマケン",
    "prefecture_code": 34,
    "city": "世羅郡世羅町",
    "city_kana": "セラグンセラチョウ",
    "town": "下津田",
    "town_kana": "シモヅタ",
    "street": null,
    "office_name": null,
    "office_name_kana": null
  },
  "6716": {
    "postcode": "7296716",
    "prefecture": "広島県",
    "prefecture_kana": "ヒロシマケン",
    "prefecture_code": 34,
    "city": "世羅郡世羅町",
    "city_kana": "セラグンセラチョウ",
    "town": "長田",
    "town_kana": "ナガタ",
    "street": null,
    "office_name": null,
    "office_name_kana": null
  }
}