{
  "0000": {
    "postcode": "7350000",
    "prefecture": "広島県",
    "prefecture_kana": "ヒロシマケン",
    "prefecture_code": 34,
    "city": "安芸郡府中町",
    "city_kana": "アキグンフチュウチョウ",
    "town": "",
    "town_kana": "",
    "street": null,
    "office_name": null,
    "office_name_kana": null
  },
  "0001": {
    "postcode": "7350001",
    "prefecture": "広島県",
    "prefecture_kana": "ヒロシマケン",
    "prefecture_code": 34,
    "city": "安芸郡府中町",
    "city_kana": "アキグンフチュウチョウ",
    "town": "桜ケ丘",
    "town_kana": "サクラガオカ",
    "street": null,
    "office_name": null,
    "office_name_kana": null
  },
  "0002": {
    "postcode": "7350002",
    "prefecture": "広島県",
    "prefecture_kana": "ヒロシマケン",
    "prefecture_code": 34,
    "city": "安芸郡府中町",
    "city_kana": "アキグンフチュウチョウ",
    "town": "清水ケ丘",
    "town_kana": "シミズガオカ",
    "street": null,
    "office_name": null,
    "office_name_kana": null
  },
  "0003": {
    "postcode": "7350003",
    "prefecture": "広島県",
    "prefecture_kana": "ヒロシマケン",
    "prefecture_code": 34,
    "city": "安芸郡府中町",
    "city_kana": "アキグンフチュウチョウ",
    "town": "みくまり",
    "town_kana": "ミクマリ",
    "street": null,
    "office_name": null,
    "office_name_kana": null
  },
  "0004": {
    "postcode": "7350004",
    "prefecture": "広島県",
    "prefecture_kana": "ヒロシマケン",
    "prefecture_code": 34,
    "city": "安芸郡府中町",
    "city_kana": "アキグンフチュウチョウ",
    "town": "山田",
    "town_kana": "ヤマダ",
    "street": null,
    "office_name": null,
    "office_name_kana": null
  },
  "0005": {
    "postcode": "7350005",
    "prefecture": "広島県",
    "prefecture_kana": "ヒロシマケン",
    "prefecture_code": 34,
    "city": "安芸郡府中町",
    "city_kana": "アキグンフチュウチョウ",
    "town": "宮の町",
    "town_kana": "ミヤノマチ",
    "street": null,
    "office_name": null,
    "office_name_kana": null
  },
  "0006": {
    "postcode": "7350006",
    "prefecture": "広島県",
    "prefecture_kana": "ヒロシマケン",
    "prefecture_code": 34,
    "city": "安芸郡府中町",
    "city_kana": "アキグンフチュウチョウ",
    "town": "本町",
    "town_kana": "ホンマチ",
    "street": null,
    "office_name": null,
    "office_name_kana": null
  },
  "0007": {
    "postcode": "7350007",
    "prefecture": "広島県",
    "prefecture_kana": "ヒロシマケン",
    "prefecture_code": 34,
    "city": "安芸郡府中町",
    "city_kana": "アキグンフチュウチョウ",
    "town": "石井城",
    "town_kana": "イシイジョウ",
    "street": null,
    "office_name": null,
    "office_name_kana": null
  },
  "0008": {
    "postcode": "7350008",
    "prefecture": "広島県",
    "prefecture_kana": "ヒロシマケン",
    "prefecture_code": 34,
    "city": "安芸郡府中町",
    "city_kana": "アキグンフチュウチョウ",
    "town": "鶴江",
    "town_kana": "ツルエ",
    "street": null,
    "office_name": null,
    "office_name_kana": null
  },
  "0009": {
    "postcode": "7350009",
    "prefecture": "広島県",
    "prefecture_kana": "ヒロシマケン",
    "prefecture_code": 34,
    "city": "安芸郡府中町",
    "city_kana": "アキグンフチュウチョウ",
    "town": "城ケ丘",
    "town_kana": "ジョウガオカ",
    "street": null,
    "office_name": null,
    "office_name_kana": null
  },
  "0011": {
    "postcode": "7350011",
    "prefecture": "広島県",
    "prefecture_kana": "ヒロシマケン",
    "prefecture_code": 34,
    "city": "安芸郡府中町",
    "city_kana": "アキグンフチュウチョウ",
    "town": "瀬戸ハイム",
    "town_kana": "セトハイム",
    "street": null,
    "office_name": null,
    "office_name_kana": null
  },
  "0012": {
    "postcode": "7350012",
    "prefecture": "広島県",
    "prefecture_kana": "ヒロシマケン",
    "prefecture_code": 34,
    "city": "安芸郡府中町",
    "city_kana": "アキグンフチュウチョウ",
    "town": "八幡",
    "town_kana": "ヤハタ",
    "street": null,
    "office_name": null,
    "office_name_kana": null
  },
  "0013": {
    "postcode": "7350013",
    "prefecture": "広島県",
    "prefecture_kana": "ヒロシマケン",
    "prefecture_code": 34,
    "city": "安芸郡府中町",
    "city_kana": "アキグンフチュウチョウ",
    "town": "浜田",
    "town_kana": "ハマダ",
    "street": null,
    "office_name": null,
    "office_name_kana": null
  },
  "0014": {
    "postcode": "7350014",
    "prefecture": "広島県",
    "prefecture_kana": "ヒロシマケン",
    "prefecture_code": 34,
    "city": "安芸郡府中町",
    "city_kana": "アキグンフチュウチョウ",
    "town": "柳ケ丘",
    "town_kana": "ヤナギガオカ",
    "street": null,
    "office_name": null,
    "office_name_kana": null
  },
  "0015": {
    "postcode": "7350015",
    "prefecture": "広島県",
    "prefecture_kana": "ヒロシマケン",
    "prefecture_code": 34,
    "city": "安芸郡府中町",
    "city_kana": "アキグンフチュウチョウ",
    "town": "青崎東",
    "town_kana": "アオサキヒガシ",
    "street": null,
    "office_name": null,
    "office_name_kana": null
  },
  "0016": {
    "postcode": "7350016",
    "prefecture": "広島県",
    "prefecture_kana": "ヒロシマケン",
    "prefecture_code": 34,
    "city": "安芸郡府中町",
    "city_kana": "アキグンフチュウチョウ",
    "town": "青崎中",
    "town_kana": "アオサキナカ",
    "street": null,
    "office_name": null,
    "office_name_kana": null
  },
  "0017": {
    "postcode": "7350017",
    "prefecture": "広島県",
    "prefecture_kana": "ヒロシマケン",
    "prefecture_code": 34,
    "city": "安芸郡府中町",
    "city_kana": "アキグンフチュウチョウ",
    "town": "青崎南",
    "town_kana": "アオサキミナミ",
    "street": null,
    "office_name": null,
    "office_name_kana": null
  },
  "0021": {
    "postcode": "7350021",
    "prefecture": "広島県",
    "prefecture_kana": "ヒロシマケン",
    "prefecture_code": 34,
    "city": "安芸郡府中町",
    "city_kana": "アキグンフチュウチョウ",
    "town": "大須",
    "town_kana": "オオス",
    "street": null,
    "office_name": null,
    "office_name_kana": null
  },
  "0022": {
    "postcode": "7350022",
    "prefecture": "広島県",
    "prefecture_kana": "ヒロシマケン",
    "prefecture_code": 34,
    "city": "安芸郡府中町",
    "city_kana": "アキグンフチュウチョウ",
    "town": "大通",
    "town_kana": "オオドオリ",
    "street": null,
    "office_name": null,
    "office_name_kana": null
  },
  "0023": {
    "postcode": "7350023",
    "prefecture": "広島県",
    "prefecture_kana": "ヒロシマケン",
    "prefecture_code": 34,
    "city": "安芸郡府中町",
    "city_kana": "アキグンフチュウチョウ",
    "town": "浜田本町",
    "town_kana": "ハマダホンマチ",
    "street": null,
    "office_name": null,
    "office_name_kana": null
  },
  "0024": {
    "postcode": "7350024",
    "prefecture": "広島県",
    "prefecture_kana": "ヒロシマケン",
    "prefecture_code": 34,
    "city": "安芸郡府中町",
    "city_kana": "アキグンフチュウチョウ",
    "town": "緑ケ丘",
    "town_kana": "ミドリガオカ",
    "street": null,
    "office_name": null,
    "office_name_kana": null
  },
  "0025": {
    "postcode": "7350025",
    "prefecture": "広島県",
    "prefecture_kana": "ヒロシマケン",
    "prefecture_code": 34,
    "city": "安芸郡府中町",
    "city_kana": "アキグンフチュウチョウ",
    "town": "鹿籠",
    "town_kana": "コゴモリ",
    "street": null,
    "office_name": null,
    "office_name_kana": null
  },
  "0026": {
    "postcode": "7350026",
    "prefecture": "広島県",
    "prefecture_kana": "ヒロシマケン",
    "prefecture_code": 34,
    "city": "安芸郡府中町",
    "city_kana": "アキグンフチュウチョウ",
    "town": "桃山",
    "town_kana": "モモヤマ",
    "street": null,
    "office_name": null,
    "office_name_kana": null
  },
  "0027": {
    "postcode": "7350027",
    "prefecture": "広島県",
    "prefecture_kana": "ヒロシマケン",
    "prefecture_code": 34,
    "city": "安芸郡府中町",
    "city_kana": "アキグンフチュウチョウ",
    "town": "千代",
    "town_kana": "センダイ",
    "street": null,
    "office_name": null,
    "office_name_kana": null
  },
  "0028": {
    "postcode": "7350028",
    "prefecture": "広島県",
    "prefecture_kana": "ヒロシマケン",
    "prefecture_code": 34,
    "city": "安芸郡府中町",
    "city_kana": "アキグンフチュウチョウ",
    "town": "新地",
    "town_kana": "シンチ",
    "street": null,
    "office_name": null,
    "office_name_kana": null
  },
  "0029": {
    "postcode": "7350029",
    "prefecture": "広島県",
    "prefecture_kana": "ヒロシマケン",
    "prefecture_code": 34,
    "city": "安芸郡府中町",
    "city_kana": "アキグンフチュウチョウ",
    "town": "茂陰",
    "town_kana": "モカゲ",
    "street": null,
    "office_name": null,
    "office_name_kana": null
  },
  "8501": {
    "postcode": "7358501",
    "prefecture": "広島県",
    "prefecture_kana": "ヒロシマケン",
    "prefecture_code": 34,
    "city": "安芸郡府中町",
    "city_kana": "アキグンフチュウチョウ",
    "town": "新地",
    "town_kana": "シンチ",
    "street": "１−１４",
    "office_name": "デルタ工業",
    "office_name_kana": "デルタコウギヨウ"
  },
  "8510": {
    "postcode": "7358510",
    "prefecture": "広島県",
    "prefecture_kana": "ヒロシマケン",
    "prefecture_code": 34,
    "city": "安芸郡府中町",
    "city_kana": "アキグンフチュウチョウ",
    "town": "大須",
    "town_kana": "オオス",
    "street": "２丁目１−１",
    "office_name": "キリンビール　株式会社　中国地区本部",
    "office_name_kana": "キリンビ-ル カブシキガイシヤ チユウゴクチクホンブ"
  },
  "8511": {
    "postcode": "7358511",
    "prefecture": "広島県",
    "prefecture_kana": "ヒロシマケン",
    "prefecture_code": 34,
    "city": "安芸郡府中町",
    "city_kana": "アキグンフチュウチョウ",
    "town": "大須",
    "town_kana": "オオス",
    "street": "４丁目２−１０",
    "office_name": "株式会社　サンリブ広島地区店舗運営部",
    "office_name_kana": "カブシキガイシヤ サンリブヒロシマチクテンポウンエイブ"
  },
  "8555": {
    "postcode": "7358555",
    "prefecture": "広島県",
    "prefecture_kana": "ヒロシマケン",
    "prefecture_code": 34,
    "city": "安芸郡府中町",
    "city_kana": "アキグンフチュウチョウ",
    "town": "大須",
    "town_kana": "オオス",
    "street": "４丁目１−３６",
    "office_name": "明光堂",
    "office_name_kana": "メイコウドウ"
  },
  "8577": {
    "postcode": "7358577",
    "prefecture": "広島県",
    "prefecture_kana": "ヒロシマケン",
    "prefecture_code": 34,
    "city": "安芸郡府中町",
    "city_kana": "アキグンフチュウチョウ",
    "town": "大須",
    "town_kana": "オオス",
    "street": "２丁目１−１",
    "office_name": "イオン　株式会社　ジャスコ広島府中店",
    "office_name_kana": "イオン カブシキガイシヤ ジヤスコヒロシマフチユウテン"
  },
  "8588": {
    "postcode": "7358588",
    "prefecture": "広島県",
    "prefecture_kana": "ヒロシマケン",
    "prefecture_code": 34,
    "city": "安芸郡府中町",
    "city_kana": "アキグンフチュウチョウ",
    "town": "大須",
    "town_kana": "オオス",
    "street": "２丁目１−１",
    "office_name": "イオンモール　広島府中",
    "office_name_kana": "イオンモ-ル ヒロシマフチユウ"
  },
  "8670": {
    "postcode": "7358670",
    "prefecture": "広島県",
    "prefecture_kana": "ヒロシマケン",
    "prefecture_code": 34,
    "city": "安芸郡府中町",
    "city_kana": "アキグンフチュウチョウ",
    "town": "新地",
    "town_kana": "シンチ",
    "street": "３−１",
    "office_name": "株式会社　マツダ",
    "office_name_kana": "カブシキガイシヤ マツダ"
  },
  "8686": {
    "postcode": "7358686",
    "prefecture": "広島県",
    "prefecture_kana": "ヒロシマケン",
    "prefecture_code": 34,
    "city": "安芸郡府中町",
    "city_kana": "アキグンフチュウチョウ",
    "town": "大通",
    "town_kana": "オオドオリ",
    "street": "３丁目５−１（安芸府中郵便局私書箱第１号）",
    "office_name": "府中町役場",
    "office_name_kana": "フチユウチヨウヤクバ"
  }
}