{
  "0000": {
    "postcode": "7370000",
    "prefecture": "広島県",
    "prefecture_kana": "ヒロシマケン",
    "prefecture_code": 34,
    "city": "呉市",
    "city_kana": "クレシ",
    "town": "",
    "town_kana": "",
    "street": null,
    "office_name": null,
    "office_name_kana": null
  },
  "0001": {
    "postcode": "7370001",
    "prefecture": "広島県",
    "prefecture_kana": "ヒロシマケン",
    "prefecture_code": 34,
    "city": "呉市",
    "city_kana": "クレシ",
    "town": "阿賀北",
    "town_kana": "アガキタ",
    "street": null,
    "office_name": null,
    "office_name_kana": null
  },
  "0002": [
    {
      "postcode": "7370002",
      "prefecture": "広島県",
      "prefecture_kana": "ヒロシマケン",
      "prefecture_code": 34,
      "city": "呉市",
      "city_kana": "クレシ",
      "town": "広町",
      "town_kana": "ヒロマチ",
      "street": null,
      "office_name": null,
      "office_name_kana": null
    },
    {
      "postcode": "7370002",
      "prefecture": "広島県",
      "prefecture_kana": "ヒロシマケン",
      "prefecture_code": 34,
      "city": "呉市",
      "city_kana": "クレシ",
      "town": "広町大空山",
      "town_kana": "ヒロマチオオゾラヤマ",
      "street": null,
      "office_name": null,
      "office_name_kana": null
    }
  ],
  "0003": {
    "postcode": "7370003",
    "prefecture": "広島県",
    "prefecture_kana": "ヒロシマケン",
    "prefecture_code": 34,
    "city": "呉市",
    "city_kana": "クレシ",
    "town": "阿賀中央",
    "town_kana": "アガチュウオウ",
    "street": null,
    "office_name": null,
    "office_name_kana": null
  },
  "0004": {
    "postcode": "7370004",
    "prefecture": "広島県",
    "prefecture_kana": "ヒロシマケン",
    "prefecture_code": 34,
    "city": "呉市",
    "city_kana": "クレシ",
    "town": "阿賀南",
    "town_kana": "アガミナミ",
    "street": null,
    "office_name": null,
    "office_name_kana": null
  },
  "0005": {
    "postcode": "7370005",
    "prefecture": "広島県",
    "prefecture_kana": "ヒロシマケン",
    "prefecture_code": 34,
    "city": "呉市",
    "city_kana": "クレシ",
    "town": "阿賀町",
    "town_kana": "アガマチ",
    "street": null,
    "office_name": null,
    "office_name_kana": null
  },
  "0011": {
    "postcode": "7370011",
    "prefecture": "広島県",
    "prefecture_kana": "ヒロシマケン",
    "prefecture_code": 34,
    "city": "呉市",
    "city_kana": "クレシ",
    "town": "見晴",
    "town_kana": "ミハラシ",
    "street": null,
    "office_name": null,
    "office_name_kana": null
  },
  "0012": {
    "postcode": "7370012",
    "prefecture": "広島県",
    "prefecture_kana": "ヒロシマケン",
    "prefecture_code": 34,
    "city": "呉市",
    "city_kana": "クレシ",
    "town": "警固屋",
    "town_kana": "ケゴヤ",
    "street": null,
    "office_name": null,
    "office_name_kana": null
  },
  "0013": {
    "postcode": "7370013",
    "prefecture": "広島県",
    "prefecture_kana": "ヒロシマケン",
    "prefecture_code": 34,
    "city": "呉市",
    "city_kana": "クレシ",
    "town": "的場",
    "town_kana": "マトバ",
    "street": null,
    "office_name": null,
    "office_name_kana": null
  },
  "0014": {
    "postcode": "7370014",
    "prefecture": "広島県",
    "prefecture_kana": "ヒロシマケン",
    "prefecture_code": 34,
    "city": "呉市",
    "city_kana": "クレシ",
    "town": "坪ノ内町",
    "town_kana": "ツボノウチチョウ",
    "street": null,
    "office_name": null,
    "office_name_kana": null
  },
  "0015": {
    "postcode": "7370015",
    "prefecture": "広島県",
    "prefecture_kana": "ヒロシマケン",
    "prefecture_code": 34,
    "city": "呉市",
    "city_kana": "クレシ",
    "town": "船見町",
    "town_kana": "フナミチョウ",
    "street": null,
    "office_name": null,
    "office_name_kana": null
  },
  "0021": {
    "postcode": "7370021",
    "prefecture": "広島県",
    "prefecture_kana": "ヒロシマケン",
    "prefecture_code": 34,
    "city": "呉市",
    "city_kana": "クレシ",
    "town": "三和町",
    "town_kana": "サンワチョウ",
    "street": null,
    "office_name": null,
    "office_name_kana": null
  },
  "0022": {
    "postcode": "7370022",
    "prefecture": "広島県",
    "prefecture_kana": "ヒロシマケン",
    "prefecture_code": 34,
    "city": "呉市",
    "city_kana": "クレシ",
    "town": "清水",
    "town_kana": "シミズ",
    "street": null,
    "office_name": null,
    "office_name_kana": null
  },
  "0023": {
    "postcode": "7370023",
    "prefecture": "広島県",
    "prefecture_kana": "ヒロシマケン",
    "prefecture_code": 34,
    "city": "呉市",
    "city_kana": "クレシ",
    "town": "青山町",
    "town_kana": "アオヤマチョウ",
    "street": null,
    "office_name": null,
    "office_name_kana": null
  },
  "0024": {
    "postcode": "7370024",
    "prefecture": "広島県",
    "prefecture_kana": "ヒロシマケン",
    "prefecture_code": 34,
    "city": "呉市",
    "city_kana": "クレシ",
    "town": "宮原",
    "town_kana": "ミヤハラ",
    "street": null,
    "office_name": null,
    "office_name_kana": null
  },
  "0025": {
    "postcode": "7370025",
    "prefecture": "広島県",
    "prefecture_kana": "ヒロシマケン",
    "prefecture_code": 34,
    "city": "呉市",
    "city_kana": "クレシ",
    "town": "室瀬町",
    "town_kana": "ムロセチョウ",
    "street": null,
    "office_name": null,
    "office_name_kana": null
  },
  "0026": {
    "postcode": "7370026",
    "prefecture": "広島県",
    "prefecture_kana": "ヒロシマケン",
    "prefecture_code": 34,
    "city": "呉市",
    "city_kana": "クレシ",
    "town": "神原町",
    "town_kana": "カンバラチョウ",
    "street": null,
    "office_name": null,
    "office_name_kana": null
  },
  "0027": {
    "postcode": "7370027",
    "prefecture": "広島県",
    "prefecture_kana": "ヒロシマケン",
    "prefecture_code": 34,
    "city": "呉市",
    "city_kana": "クレシ",
    "town": "昭和町",
    "town_kana": "ショウワチョウ",
    "street": null,
    "office_name": null,
    "office_name_kana": null
  },
  "0028": {
    "postcode": "7370028",
    "prefecture": "広島県",
    "prefecture_kana": "ヒロシマケン",
    "prefecture_code": 34,
    "city": "呉市",
    "city_kana": "クレシ",
    "town": "幸町",
    "town_kana": "サイワイチョウ",
    "street": null,
    "office_name": null,
    "office_name_kana": null
  },
  "0029": {
    "postcode": "7370029",
    "prefecture": "広島県",
    "prefecture_kana": "ヒロシマケン",
    "prefecture_code": 34,
    "city": "呉市",
    "city_kana": "クレシ",
    "town": "宝町",
    "town_kana": "タカラマチ",
    "street": null,
    "office_name": null,
    "office_name_kana": null
  },
  "0031": {
    "postcode": "7370031",
    "prefecture": "広島県",
    "prefecture_kana": "ヒロシマケン",
    "prefecture_code": 34,
    "city": "呉市",
    "city_kana": "クレシ",
    "town": "上長迫町",
    "town_kana": "カミナガサコチョウ",
    "street": null,
    "office_name": null,
    "office_name_kana": null
  },
  "0032": {
    "postcode": "7370032",
    "prefecture": "広島県",
    "prefecture_kana": "ヒロシマケン",
    "prefecture_code": 34,
    "city": "呉市",
    "city_kana": "クレシ",
    "town": "本町",
    "town_kana": "ホンマチ",
    "street": null,
    "office_name": null,
    "office_name_kana": null
  },
  "0033": {
    "postcode": "7370033",
    "prefecture": "広島県",
    "prefecture_kana": "ヒロシマケン",
    "prefecture_code": 34,
    "city": "呉市",
    "city_kana": "クレシ",
    "town": "寺本町",
    "town_kana": "テラモトチョウ",
    "street": null,
    "office_name": null,
    "office_name_kana": null
  },
  "0034": {
    "postcode": "7370034",
    "prefecture": "広島県",
    "prefecture_kana": "ヒロシマケン",
    "prefecture_code": 34,
    "city": "呉市",
    "city_kana": "クレシ",
    "town": "溝路町",
    "town_kana": "ミゾロチョウ",
    "street": null,
    "office_name": null,
    "office_name_kana": null
  },
  "0035": {
    "postcode": "7370035",
    "prefecture": "広島県",
    "prefecture_kana": "ヒロシマケン",
    "prefecture_code": 34,
    "city": "呉市",
    "city_kana": "クレシ",
    "town": "長迫町",
    "town_kana": "ナガサコチョウ",
    "street": null,
    "office_name": null,
    "office_name_kana": null
  },
  "0041": {
    "postcode": "7370041",
    "prefecture": "広島県",
    "prefecture_kana": "ヒロシマケン",
    "prefecture_code": 34,
    "city": "呉市",
    "city_kana": "クレシ",
    "town": "和庄",
    "town_kana": "ワショウ",
    "street": null,
    "office_name": null,
    "office_name_kana": null
  },
  "0042": {
    "postcode": "7370042",
    "prefecture": "広島県",
    "prefecture_kana": "ヒロシマケン",
    "prefecture_code": 34,
    "city": "呉市",
    "city_kana": "クレシ",
    "town": "和庄本町",
    "town_kana": "ワショウホンマチ",
    "street": null,
    "office_name": null,
    "office_name_kana": null
  },
  "0043": {
    "postcode": "7370043",
    "prefecture": "広島県",
    "prefecture_kana": "ヒロシマケン",
    "prefecture_code": 34,
    "city": "呉市",
    "city_kana": "クレシ",
    "town": "和庄登町",
    "town_kana": "ワショウノボリマチ",
    "street": null,
    "office_name": null,
    "office_name_kana": null
  },
  "0044": {
    "postcode": "7370044",
    "prefecture": "広島県",
    "prefecture_kana": "ヒロシマケン",
    "prefecture_code": 34,
    "city": "呉市",
    "city_kana": "クレシ",
    "town": "八幡町",
    "town_kana": "ヤハタチョウ",
    "street": null,
    "office_name": null,
    "office_name_kana": null
  },
  "0045": {
    "postcode": "7370045",
    "prefecture": "広島県",
    "prefecture_kana": "ヒロシマケン",
    "prefecture_code": 34,
    "city": "呉市",
    "city_kana": "クレシ",
    "town": "本通",
    "town_kana": "ホンドオリ",
    "street": null,
    "office_name": null,
    "office_name_kana": null
  },
  "0046": {
    "postcode": "7370046",
    "prefecture": "広島県",
    "prefecture_kana": "ヒロシマケン",
    "prefecture_code": 34,
    "city": "呉市",
    "city_kana": "クレシ",
    "town": "中通",
    "town_kana": "ナカドオリ",
    "street": null,
    "office_name": null,
    "office_name_kana": null
  },
  "0051": {
    "postcode": "7370051",
    "prefecture": "広島県",
    "prefecture_kana": "ヒロシマケン",
    "prefecture_code": 34,
    "city": "呉市",
    "city_kana": "クレシ",
    "town": "中央",
    "town_kana": "チュウオウ",
    "street": null,
    "office_name": null,
    "office_name_kana": null
  },
  "0052": {
    "postcode": "7370052",
    "prefecture": "広島県",
    "prefecture_kana": "ヒロシマケン",
    "prefecture_code": 34,
    "city": "呉市",
    "city_kana": "クレシ",
    "town": "東中央",
    "town_kana": "ヒガシチュウオウ",
    "street": null,
    "office_name": null,
    "office_name_kana": null
  },
  "0053": {
    "postcode": "7370053",
    "prefecture": "広島県",
    "prefecture_kana": "ヒロシマケン",
    "prefecture_code": 34,
    "city": "呉市",
    "city_kana": "クレシ",
    "town": "長ノ木町",
    "town_kana": "ナガノキチョウ",
    "street": null,
    "office_name": null,
    "office_name_kana": null
  },
  "0054": {
    "postcode": "7370054",
    "prefecture": "広島県",
    "prefecture_kana": "ヒロシマケン",
    "prefecture_code": 34,
    "city": "呉市",
    "city_kana": "クレシ",
    "town": "上山田町",
    "town_kana": "カミヤマダチョウ",
    "street": null,
    "office_name": null,
    "office_name_kana": null
  },
  "0055": {
    "postcode": "7370055",
    "prefecture": "広島県",
    "prefecture_kana": "ヒロシマケン",
    "prefecture_code": 34,
    "city": "呉市",
    "city_kana": "クレシ",
    "town": "下山田町",
    "town_kana": "シモヤマダチョウ",
    "street": null,
    "office_name": null,
    "office_name_kana": null
  },
  "0056": {
    "postcode": "7370056",
    "prefecture": "広島県",
    "prefecture_kana": "ヒロシマケン",
    "prefecture_code": 34,
    "city": "呉市",
    "city_kana": "クレシ",
    "town": "朝日町",
    "town_kana": "アサヒマチ",
    "street": null,
    "office_name": null,
    "office_name_kana": null
  },
  "0061": {
    "postcode": "7370061",
    "prefecture": "広島県",
    "prefecture_kana": "ヒロシマケン",
    "prefecture_code": 34,
    "city": "呉市",
    "city_kana": "クレシ",
    "town": "畝原町",
    "town_kana": "ウネハラチョウ",
    "street": null,
    "office_name": null,
    "office_name_kana": null
  },
  "0062": {
    "postcode": "7370062",
    "prefecture": "広島県",
    "prefecture_kana": "ヒロシマケン",
    "prefecture_code": 34,
    "city": "呉市",
    "city_kana": "クレシ",
    "town": "西惣付町",
    "town_kana": "ニシソウヅケチョウ",
    "street": null,
    "office_name": null,
    "office_name_kana": null
  },
  "0063": {
    "postcode": "7370063",
    "prefecture": "広島県",
    "prefecture_kana": "ヒロシマケン",
    "prefecture_code": 34,
    "city": "呉市",
    "city_kana": "クレシ",
    "town": "東惣付町",
    "town_kana": "ヒガシソウヅケチョウ",
    "street": null,
    "office_name": null,
    "office_name_kana": null
  },
  "0064": {
    "postcode": "7370064",
    "prefecture": "広島県",
    "prefecture_kana": "ヒロシマケン",
    "prefecture_code": 34,
    "city": "呉市",
    "city_kana": "クレシ",
    "town": "西谷町",
    "town_kana": "ニシタニチョウ",
    "street": null,
    "office_name": null,
    "office_name_kana": null
  },
  "0065": {
    "postcode": "7370065",
    "prefecture": "広島県",
    "prefecture_kana": "ヒロシマケン",
    "prefecture_code": 34,
    "city": "呉市",
    "city_kana": "クレシ",
    "town": "望地町",
    "town_kana": "ボウジチョウ",
    "street": null,
    "office_name": null,
    "office_name_kana": null
  },
  "0071": {
    "postcode": "7370071",
    "prefecture": "広島県",
    "prefecture_kana": "ヒロシマケン",
    "prefecture_code": 34,
    "city": "呉市",
    "city_kana": "クレシ",
    "town": "上畑町",
    "town_kana": "カミハタチョウ",
    "street": null,
    "office_name": null,
    "office_name_kana": null
  },
  "0072": {
    "postcode": "7370072",
    "prefecture": "広島県",
    "prefecture_kana": "ヒロシマケン",
    "prefecture_code": 34,
    "city": "呉市",
    "city_kana": "クレシ",
    "town": "東畑",
    "town_kana": "ヒガシハタ",
    "street": null,
    "office_name": null,
    "office_name_kana": null
  },
  "0073": {
    "postcode": "7370073",
    "prefecture": "広島県",
    "prefecture_kana": "ヒロシマケン",
    "prefecture_code": 34,
    "city": "呉市",
    "city_kana": "クレシ",
    "town": "東鹿田町",
    "town_kana": "ヒガシシカタチョウ",
    "street": null,
    "office_name": null,
    "office_name_kana": null
  },
  "0074": {
    "postcode": "7370074",
    "prefecture": "広島県",
    "prefecture_kana": "ヒロシマケン",
    "prefecture_code": 34,
    "city": "呉市",
    "city_kana": "クレシ",
    "town": "西鹿田",
    "town_kana": "ニシシカタ",
    "street": null,
    "office_name": null,
    "office_name_kana": null
  },
  "0075": {
    "postcode": "7370075",
    "prefecture": "広島県",
    "prefecture_kana": "ヒロシマケン",
    "prefecture_code": 34,
    "city": "呉市",
    "city_kana": "クレシ",
    "town": "西畑町",
    "town_kana": "ニシハタチョウ",
    "street": null,
    "office_name": null,
    "office_name_kana": null
  },
  "0076": {
    "postcode": "7370076",
    "prefecture": "広島県",
    "prefecture_kana": "ヒロシマケン",
    "prefecture_code": 34,
    "city": "呉市",
    "city_kana": "クレシ",
    "town": "吾妻",
    "town_kana": "アヅマ",
    "street": null,
    "office_name": null,
    "office_name_kana": null
  },
  "0077": {
    "postcode": "7370077",
    "prefecture": "広島県",
    "prefecture_kana": "ヒロシマケン",
    "prefecture_code": 34,
    "city": "呉市",
    "city_kana": "クレシ",
    "town": "伏原",
    "town_kana": "フシハラ",
    "street": null,
    "office_name": null,
    "office_name_kana": null
  },
  "0078": {
    "postcode": "7370078",
    "prefecture": "広島県",
    "prefecture_kana": "ヒロシマケン",
    "prefecture_code": 34,
    "city": "呉市",
    "city_kana": "クレシ",
    "town": "平原町",
    "town_kana": "ヒラバラチョウ",
    "street": null,
    "office_name": null,
    "office_name_kana": null
  },
  "0079": {
    "postcode": "7370079",
    "prefecture": "広島県",
    "prefecture_kana": "ヒロシマケン",
    "prefecture_code": 34,
    "city": "呉市",
    "city_kana": "クレシ",
    "town": "上平原町",
    "town_kana": "カミヒラバラチョウ",
    "street": null,
    "office_name": null,
    "office_name_kana": null
  },
  "0101": {
    "postcode": "7370101",
    "prefecture": "広島県",
    "prefecture_kana": "ヒロシマケン",
    "prefecture_code": 34,
    "city": "呉市",
    "city_kana": "クレシ",
    "town": "広石内",
    "town_kana": "ヒロイシウチ",
    "street": null,
    "office_name": null,
    "office_name_kana": null
  },
  "0102": {
    "postcode": "7370102",
    "prefecture": "広島県",
    "prefecture_kana": "ヒロシマケン",
    "prefecture_code": 34,
    "city": "呉市",
    "city_kana": "クレシ",
    "town": "広徳丸町",
    "town_kana": "ヒロトクマルチョウ",
    "street": null,
    "office_name": null,
    "office_name_kana": null
  },
  "0103": {
    "postcode": "7370103",
    "prefecture": "広島県",
    "prefecture_kana": "ヒロシマケン",
    "prefecture_code": 34,
    "city": "呉市",
    "city_kana": "クレシ",
    "town": "広塩焼",
    "town_kana": "ヒロシヤケ",
    "street": null,
    "office_name": null,
    "office_name_kana": null
  },
  "0104": {
    "postcode": "7370104",
    "prefecture": "広島県",
    "prefecture_kana": "ヒロシマケン",
    "prefecture_code": 34,
    "city": "呉市",
    "city_kana": "クレシ",
    "town": "広町田",
    "town_kana": "ヒロマチダ",
    "street": null,
    "office_name": null,
    "office_name_kana": null
  },
  "0105": {
    "postcode": "7370105",
    "prefecture": "広島県",
    "prefecture_kana": "ヒロシマケン",
    "prefecture_code": 34,
    "city": "呉市",
    "city_kana": "クレシ",
    "town": "広中迫町",
    "town_kana": "ヒロナカサコチョウ",
    "street": null,
    "office_name": null,
    "office_name_kana": null
  },
  "0106": {
    "postcode": "7370106",
    "prefecture": "広島県",
    "prefecture_kana": "ヒロシマケン",
    "prefecture_code": 34,
    "city": "呉市",
    "city_kana": "クレシ",
    "town": "広三芦",
    "town_kana": "ヒロミアシ",
    "street": null,
    "office_name": null,
    "office_name_kana": null
  },
  "0107": {
    "postcode": "7370107",
    "prefecture": "広島県",
    "prefecture_kana": "ヒロシマケン",
    "prefecture_code": 34,
    "city": "呉市",
    "city_kana": "クレシ",
    "town": "広弁天橋町",
    "town_kana": "ヒロベンテンバシチョウ",
    "street": null,
    "office_name": null,
    "office_name_kana": null
  },
  "0111": {
    "postcode": "7370111",
    "prefecture": "広島県",
    "prefecture_kana": "ヒロシマケン",
    "prefecture_code": 34,
    "city": "呉市",
    "city_kana": "クレシ",
    "town": "広大広",
    "town_kana": "ヒロオオビロ",
    "street": null,
    "office_name": null,
    "office_name_kana": null
  },
  "0112": {
    "postcode": "7370112",
    "prefecture": "広島県",
    "prefecture_kana": "ヒロシマケン",
    "prefecture_code": 34,
    "city": "呉市",
    "city_kana": "クレシ",
    "town": "広古新開",
    "town_kana": "ヒロコシンガイ",
    "street": null,
    "office_name": null,
    "office_name_kana": null
  },
  "0113": {
    "postcode": "7370113",
    "prefecture": "広島県",
    "prefecture_kana": "ヒロシマケン",
    "prefecture_code": 34,
    "city": "呉市",
    "city_kana": "クレシ",
    "town": "広横路",
    "town_kana": "ヒロヨコロ",
    "street": null,
    "office_name": null,
    "office_name_kana": null
  },
  "0114": {
    "postcode": "7370114",
    "prefecture": "広島県",
    "prefecture_kana": "ヒロシマケン",
    "prefecture_code": 34,
    "city": "呉市",
    "city_kana": "クレシ",
    "town": "広文化町",
    "town_kana": "ヒロブンカチョウ",
    "street": null,
    "office_name": null,
    "office_name_kana": null
  },
  "0115": {
    "postcode": "7370115",
    "prefecture": "広島県",
    "prefecture_kana": "ヒロシマケン",
    "prefecture_code": 34,
    "city": "呉市",
    "city_kana": "クレシ",
    "town": "広町",
    "town_kana": "ヒロマチ",
    "street": null,
    "office_name": null,
    "office_name_kana": null
  },
  "0121": {
    "postcode": "7370121",
    "prefecture": "広島県",
    "prefecture_kana": "ヒロシマケン",
    "prefecture_code": 34,
    "city": "呉市",
    "city_kana": "クレシ",
    "town": "広吉松",
    "town_kana": "ヒロヨシマツ",
    "street": null,
    "office_name": null,
    "office_name_kana": null
  },
  "0122": {
    "postcode": "7370122",
    "prefecture": "広島県",
    "prefecture_kana": "ヒロシマケン",
    "prefecture_code": 34,
    "city": "呉市",
    "city_kana": "クレシ",
    "town": "広杭本町",
    "town_kana": "ヒロクイモトチョウ",
    "street": null,
    "office_name": null,
    "office_name_kana": null
  },
  "0123": {
    "postcode": "7370123",
    "prefecture": "広島県",
    "prefecture_kana": "ヒロシマケン",
    "prefecture_code": 34,
    "city": "呉市",
    "city_kana": "クレシ",
    "town": "広両谷",
    "town_kana": "ヒロリョウタニ",
    "street": null,
    "office_name": null,
    "office_name_kana": null
  },
  "0124": {
    "postcode": "7370124",
    "prefecture": "広島県",
    "prefecture_kana": "ヒロシマケン",
    "prefecture_code": 34,
    "city": "呉市",
    "city_kana": "クレシ",
    "town": "広中新開",
    "town_kana": "ヒロナカシンガイ",
    "street": null,
    "office_name": null,
    "office_name_kana": null
  },
  "0125": {
    "postcode": "7370125",
    "prefecture": "広島県",
    "prefecture_kana": "ヒロシマケン",
    "prefecture_code": 34,
    "city": "呉市",
    "city_kana": "クレシ",
    "town": "広本町",
    "town_kana": "ヒロホンマチ",
    "street": null,
    "office_name": null,
    "office_name_kana": null
  },
  "0131": {
    "postcode": "7370131",
    "prefecture": "広島県",
    "prefecture_kana": "ヒロシマケン",
    "prefecture_code": 34,
    "city": "呉市",
    "city_kana": "クレシ",
    "town": "広中町",
    "town_kana": "ヒロナカチョウ",
    "street": null,
    "office_name": null,
    "office_name_kana": null
  },
  "0132": {
    "postcode": "7370132",
    "prefecture": "広島県",
    "prefecture_kana": "ヒロシマケン",
    "prefecture_code": 34,
    "city": "呉市",
    "city_kana": "クレシ",
    "town": "広名田",
    "town_kana": "ヒロナダ",
    "street": null,
    "office_name": null,
    "office_name_kana": null
  },
  "0133": {
    "postcode": "7370133",
    "prefecture": "広島県",
    "prefecture_kana": "ヒロシマケン",
    "prefecture_code": 34,
    "city": "呉市",
    "city_kana": "クレシ",
    "town": "広末広",
    "town_kana": "ヒロスエヒロ",
    "street": null,
    "office_name": null,
    "office_name_kana": null
  },
  "0134": {
    "postcode": "7370134",
    "prefecture": "広島県",
    "prefecture_kana": "ヒロシマケン",
    "prefecture_code": 34,
    "city": "呉市",
    "city_kana": "クレシ",
    "town": "広多賀谷",
    "town_kana": "ヒロタガヤ",
    "street": null,
    "office_name": null,
    "office_name_kana": null
  },
  "0135": {
    "postcode": "7370135",
    "prefecture": "広島県",
    "prefecture_kana": "ヒロシマケン",
    "prefecture_code": 34,
    "city": "呉市",
    "city_kana": "クレシ",
    "town": "広津久茂町",
    "town_kana": "ヒロツクモチョウ",
    "street": null,
    "office_name": null,
    "office_name_kana": null
  },
  "0136": {
    "postcode": "7370136",
    "prefecture": "広島県",
    "prefecture_kana": "ヒロシマケン",
    "prefecture_code": 34,
    "city": "呉市",
    "city_kana": "クレシ",
    "town": "広長浜",
    "town_kana": "ヒロナガハマ",
    "street": null,
    "office_name": null,
    "office_name_kana": null
  },
  "0137": {
    "postcode": "7370137",
    "prefecture": "広島県",
    "prefecture_kana": "ヒロシマケン",
    "prefecture_code": 34,
    "city": "呉市",
    "city_kana": "クレシ",
    "town": "広小坪",
    "town_kana": "ヒロコツボ",
    "street": null,
    "office_name": null,
    "office_name_kana": null
  },
  "0138": {
    "postcode": "7370138",
    "prefecture": "広島県",
    "prefecture_kana": "ヒロシマケン",
    "prefecture_code": 34,
    "city": "呉市",
    "city_kana": "クレシ",
    "town": "広黄幡町",
    "town_kana": "ヒロオウバンチョウ",
    "street": null,
    "office_name": null,
    "office_name_kana": null
  },
  "0141": {
    "postcode": "7370141",
    "prefecture": "広島県",
    "prefecture_kana": "ヒロシマケン",
    "prefecture_code": 34,
    "city": "呉市",
    "city_kana": "クレシ",
    "town": "広大新開",
    "town_kana": "ヒロオオシンガイ",
    "street": null,
    "office_name": null,
    "office_name_kana": null
  },
  "0142": {
    "postcode": "7370142",
    "prefecture": "広島県",
    "prefecture_kana": "ヒロシマケン",
    "prefecture_code": 34,
    "city": "呉市",
    "city_kana": "クレシ",
    "town": "広駅前",
    "town_kana": "ヒロエキマエ",
    "street": null,
    "office_name": null,
    "office_name_kana": null
  },
  "0143": {
    "postcode": "7370143",
    "prefecture": "広島県",
    "prefecture_kana": "ヒロシマケン",
    "prefecture_code": 34,
    "city": "呉市",
    "city_kana": "クレシ",
    "town": "広白石",
    "town_kana": "ヒロシライシ",
    "street": null,
    "office_name": null,
    "office_name_kana": null
  },
  "0144": {
    "postcode": "7370144",
    "prefecture": "広島県",
    "prefecture_kana": "ヒロシマケン",
    "prefecture_code": 34,
    "city": "呉市",
    "city_kana": "クレシ",
    "town": "広白岳",
    "town_kana": "ヒロシラタケ",
    "street": null,
    "office_name": null,
    "office_name_kana": null
  },
  "0145": {
    "postcode": "7370145",
    "prefecture": "広島県",
    "prefecture_kana": "ヒロシマケン",
    "prefecture_code": 34,
    "city": "呉市",
    "city_kana": "クレシ",
    "town": "仁方西神町",
    "town_kana": "ニガタニシガミチョウ",
    "street": null,
    "office_name": null,
    "office_name_kana": null
  },
  "0146": {
    "postcode": "7370146",
    "prefecture": "広島県",
    "prefecture_kana": "ヒロシマケン",
    "prefecture_code": 34,
    "city": "呉市",
    "city_kana": "クレシ",
    "town": "仁方宮上町",
    "town_kana": "ニガタミヤガミチョウ",
    "street": null,
    "office_name": null,
    "office_name_kana": null
  },
  "0151": {
    "postcode": "7370151",
    "prefecture": "広島県",
    "prefecture_kana": "ヒロシマケン",
    "prefecture_code": 34,
    "city": "呉市",
    "city_kana": "クレシ",
    "town": "仁方中筋町",
    "town_kana": "ニガタナカスジチョウ",
    "street": null,
    "office_name": null,
    "office_name_kana": null
  },
  "0152": {
    "postcode": "7370152",
    "prefecture": "広島県",
    "prefecture_kana": "ヒロシマケン",
    "prefecture_code": 34,
    "city": "呉市",
    "city_kana": "クレシ",
    "town": "仁方本町",
    "town_kana": "ニガタホンマチ",
    "street": null,
    "office_name": null,
    "office_name_kana": null
  },
  "0153": {
    "postcode": "7370153",
    "prefecture": "広島県",
    "prefecture_kana": "ヒロシマケン",
    "prefecture_code": 34,
    "city": "呉市",
    "city_kana": "クレシ",
    "town": "仁方大歳町",
    "town_kana": "ニガタオオトシチョウ",
    "street": null,
    "office_name": null,
    "office_name_kana": null
  },
  "0154": {
    "postcode": "7370154",
    "prefecture": "広島県",
    "prefecture_kana": "ヒロシマケン",
    "prefecture_code": 34,
    "city": "呉市",
    "city_kana": "クレシ",
    "town": "仁方桟橋通",
    "town_kana": "ニガタサンバシドオリ",
    "street": null,
    "office_name": null,
    "office_name_kana": null
  },
  "0155": {
    "postcode": "7370155",
    "prefecture": "広島県",
    "prefecture_kana": "ヒロシマケン",
    "prefecture_code": 34,
    "city": "呉市",
    "city_kana": "クレシ",
    "town": "仁方錦町",
    "town_kana": "ニガタニシキマチ",
    "street": null,
    "office_name": null,
    "office_name_kana": null
  },
  "0156": {
    "postcode": "7370156",
    "prefecture": "広島県",
    "prefecture_kana": "ヒロシマケン",
    "prefecture_code": 34,
    "city": "呉市",
    "city_kana": "クレシ",
    "town": "仁方皆実町",
    "town_kana": "ニガタミナミチョウ",
    "street": null,
    "office_name": null,
    "office_name_kana": null
  },
  "0157": {
    "postcode": "7370157",
    "prefecture": "広島県",
    "prefecture_kana": "ヒロシマケン",
    "prefecture_code": 34,
    "city": "呉市",
    "city_kana": "クレシ",
    "town": "仁方町",
    "town_kana": "ニガタチョウ",
    "street": null,
    "office_name": null,
    "office_name_kana": null
  },
  "0161": {
    "postcode": "7370161",
    "prefecture": "広島県",
    "prefecture_kana": "ヒロシマケン",
    "prefecture_code": 34,
    "city": "呉市",
    "city_kana": "クレシ",
    "town": "郷原町",
    "town_kana": "ゴウハラチョウ",
    "street": null,
    "office_name": null,
    "office_name_kana": null
  },
  "0162": {
    "postcode": "7370162",
    "prefecture": "広島県",
    "prefecture_kana": "ヒロシマケン",
    "prefecture_code": 34,
    "city": "呉市",
    "city_kana": "クレシ",
    "town": "郷原学びの丘",
    "town_kana": "ゴウハラマナビノオカ",
    "street": null,
    "office_name": null,
    "office_name_kana": null
  },
  "0163": {
    "postcode": "7370163",
    "prefecture": "広島県",
    "prefecture_kana": "ヒロシマケン",
    "prefecture_code": 34,
    "city": "呉市",
    "city_kana": "クレシ",
    "town": "郷原野路の里",
    "town_kana": "ゴウハラノロノサト",
    "street": null,
    "office_name": null,
    "office_name_kana": null
  },
  "0182": {
    "postcode": "7370182",
    "prefecture": "広島県",
    "prefecture_kana": "ヒロシマケン",
    "prefecture_code": 34,
    "city": "呉市",
    "city_kana": "クレシ",
    "town": "郷原学びの丘",
    "town_kana": "ゴウハラマナビノオカ",
    "street": "１丁目１の１",
    "office_name": "広島文化学園大学　呉　郷原キャンパス",
    "office_name_kana": "ヒロシマブンカガクエンダイガク クレ ゴウバラキヤンパス"
  },
  "0192": {
    "postcode": "7370192",
    "prefecture": "広島県",
    "prefecture_kana": "ヒロシマケン",
    "prefecture_code": 34,
    "city": "呉市",
    "city_kana": "クレシ",
    "town": "広名田",
    "town_kana": "ヒロナダ",
    "street": "１丁目３−１",
    "office_name": "中国工業　株式会社",
    "office_name_kana": "チユウゴクコウギヨウ カブシキガイシヤ"
  },
  "0193": {
    "postcode": "7370193",
    "prefecture": "広島県",
    "prefecture_kana": "ヒロシマケン",
    "prefecture_code": 34,
    "city": "呉市",
    "city_kana": "クレシ",
    "town": "広多賀谷",
    "town_kana": "ヒロタガヤ",
    "street": "１丁目５−１",
    "office_name": "中国労災病院",
    "office_name_kana": "チユウゴクロウサイビヨウイン"
  },
  "0195": {
    "postcode": "7370195",
    "prefecture": "広島県",
    "prefecture_kana": "ヒロシマケン",
    "prefecture_code": 34,
    "city": "呉市",
    "city_kana": "クレシ",
    "town": "広多賀谷",
    "town_kana": "ヒロタガヤ",
    "street": "３丁目１−１",
    "office_name": "中国木材　株式会社",
    "office_name_kana": "チユウゴクモクザイ カブシキガイシヤ"
  },
  "0198": {
    "postcode": "7370198",
    "prefecture": "広島県",
    "prefecture_kana": "ヒロシマケン",
    "prefecture_code": 34,
    "city": "呉市",
    "city_kana": "クレシ",
    "town": "広文化町",
    "town_kana": "ヒロブンカチョウ",
    "street": "１−２３",
    "office_name": "株式会社　ディスコ　広島事業所",
    "office_name_kana": "カブシキガイシヤ デイスコ ヒロシマジギヨウシヨ"
  },
  "0301": {
    "postcode": "7370301",
    "prefecture": "広島県",
    "prefecture_kana": "ヒロシマケン",
    "prefecture_code": 34,
    "city": "呉市",
    "city_kana": "クレシ",
    "town": "下蒲刈町三之瀬",
    "town_kana": "シモカマガリチョウサンノセ",
    "street": null,
    "office_name": null,
    "office_name_kana": null
  },
  "0302": {
    "postcode": "7370302",
    "prefecture": "広島県",
    "prefecture_kana": "ヒロシマケン",
    "prefecture_code": 34,
    "city": "呉市",
    "city_kana": "クレシ",
    "town": "下蒲刈町大地蔵",
    "town_kana": "シモカマガリチョウオオジゾウ",
    "street": null,
    "office_name": null,
    "office_name_kana": null
  },
  "0303": {
    "postcode": "7370303",
    "prefecture": "広島県",
    "prefecture_kana": "ヒロシマケン",
    "prefecture_code": 34,
    "city": "呉市",
    "city_kana": "クレシ",
    "town": "下蒲刈町下島",
    "town_kana": "シモカマガリチョウシモジマ",
    "street": null,
    "office_name": null,
    "office_name_kana": null
  },
  "0311": {
    "postcode": "7370311",
    "prefecture": "広島県",
    "prefecture_kana": "ヒロシマケン",
    "prefecture_code": 34,
    "city": "呉市",
    "city_kana": "クレシ",
    "town": "蒲刈町向",
    "town_kana": "カマガリチョウムカイ",
    "street": null,
    "office_name": null,
    "office_name_kana": null
  },
  "0401": {
    "postcode": "7370401",
    "prefecture": "広島県",
    "prefecture_kana": "ヒロシマケン",
    "prefecture_code": 34,
    "city": "呉市",
    "city_kana": "クレシ",
    "town": "蒲刈町宮盛",
    "town_kana": "カマガリチョウミヤザカリ",
    "street": null,
    "office_name": null,
    "office_name_kana": null
  },
  "0402": {
    "postcode": "7370402",
    "prefecture": "広島県",
    "prefecture_kana": "ヒロシマケン",
    "prefecture_code": 34,
    "city": "呉市",
    "city_kana": "クレシ",
    "town": "蒲刈町大浦",
    "town_kana": "カマガリチョウオオウラ",
    "street": null,
    "office_name": null,
    "office_name_kana": null
  },
  "0403": {
    "postcode": "7370403",
    "prefecture": "広島県",
    "prefecture_kana": "ヒロシマケン",
    "prefecture_code": 34,
    "city": "呉市",
    "city_kana": "クレシ",
    "town": "蒲刈町田戸",
    "town_kana": "カマガリチョウタド",
    "street": null,
    "office_name": null,
    "office_name_kana": null
  },
  "0801": {
    "postcode": "7370801",
    "prefecture": "広島県",
    "prefecture_kana": "ヒロシマケン",
    "prefecture_code": 34,
    "city": "呉市",
    "city_kana": "クレシ",
    "town": "東辰川町",
    "town_kana": "ヒガシタツカワチョウ",
    "street": null,
    "office_name": null,
    "office_name_kana": null
  },
  "0802": {
    "postcode": "7370802",
    "prefecture": "広島県",
    "prefecture_kana": "ヒロシマケン",
    "prefecture_code": 34,
    "city": "呉市",
    "city_kana": "クレシ",
    "town": "南辰川町",
    "town_kana": "ミナミタツカワチョウ",
    "street": null,
    "office_name": null,
    "office_name_kana": null
  },
  "0803": {
    "postcode": "7370803",
    "prefecture": "広島県",
    "prefecture_kana": "ヒロシマケン",
    "prefecture_code": 34,
    "city": "呉市",
    "city_kana": "クレシ",
    "town": "郷町",
    "town_kana": "ゴウマチ",
    "street": null,
    "office_name": null,
    "office_name_kana": null
  },
  "0804": {
    "postcode": "7370804",
    "prefecture": "広島県",
    "prefecture_kana": "ヒロシマケン",
    "prefecture_code": 34,
    "city": "呉市",
    "city_kana": "クレシ",
    "town": "内神町",
    "town_kana": "ウチガミチョウ",
    "street": null,
    "office_name": null,
    "office_name_kana": null
  },
  "0805": {
    "postcode": "7370805",
    "prefecture": "広島県",
    "prefecture_kana": "ヒロシマケン",
    "prefecture_code": 34,
    "city": "呉市",
    "city_kana": "クレシ",
    "town": "東片山町",
    "town_kana": "ヒガシカタヤマチョウ",
    "street": null,
    "office_name": null,
    "office_name_kana": null
  },
  "0806": {
    "postcode": "7370806",
    "prefecture": "広島県",
    "prefecture_kana": "ヒロシマケン",
    "prefecture_code": 34,
    "city": "呉市",
    "city_kana": "クレシ",
    "town": "西片山町",
    "town_kana": "ニシカタヤマチョウ",
    "street": null,
    "office_name": null,
    "office_name_kana": null
  },
  "0807": {
    "postcode": "7370807",
    "prefecture": "広島県",
    "prefecture_kana": "ヒロシマケン",
    "prefecture_code": 34,
    "city": "呉市",
    "city_kana": "クレシ",
    "town": "江原町",
    "town_kana": "エバラチョウ",
    "street": null,
    "office_name": null,
    "office_name_kana": null
  },
  "0808": {
    "postcode": "7370808",
    "prefecture": "広島県",
    "prefecture_kana": "ヒロシマケン",
    "prefecture_code": 34,
    "city": "呉市",
    "city_kana": "クレシ",
    "town": "上内神町",
    "town_kana": "カミウチガミチョウ",
    "street": null,
    "office_name": null,
    "office_name_kana": null
  },
  "0809": {
    "postcode": "7370809",
    "prefecture": "広島県",
    "prefecture_kana": "ヒロシマケン",
    "prefecture_code": 34,
    "city": "呉市",
    "city_kana": "クレシ",
    "town": "西辰川",
    "town_kana": "ニシタツカワ",
    "street": null,
    "office_name": null,
    "office_name_kana": null
  },
  "0811": {
    "postcode": "7370811",
    "prefecture": "広島県",
    "prefecture_kana": "ヒロシマケン",
    "prefecture_code": 34,
    "city": "呉市",
    "city_kana": "クレシ",
    "town": "西中央",
    "town_kana": "ニシチュウオウ",
    "street": null,
    "office_name": null,
    "office_name_kana": null
  },
  "0812": {
    "postcode": "7370812",
    "prefecture": "広島県",
    "prefecture_kana": "ヒロシマケン",
    "prefecture_code": 34,
    "city": "呉市",
    "city_kana": "クレシ",
    "town": "西三津田町",
    "town_kana": "ニシミツタチョウ",
    "street": null,
    "office_name": null,
    "office_name_kana": null
  },
  "0813": {
    "postcode": "7370813",
    "prefecture": "広島県",
    "prefecture_kana": "ヒロシマケン",
    "prefecture_code": 34,
    "city": "呉市",
    "city_kana": "クレシ",
    "town": "東三津田町",
    "town_kana": "ヒガシミツタチョウ",
    "street": null,
    "office_name": null,
    "office_name_kana": null
  },
  "0814": {
    "postcode": "7370814",
    "prefecture": "広島県",
    "prefecture_kana": "ヒロシマケン",
    "prefecture_code": 34,
    "city": "呉市",
    "city_kana": "クレシ",
    "town": "山手",
    "town_kana": "ヤマテ",
    "street": null,
    "office_name": null,
    "office_name_kana": null
  },
  "0815": [
    {
      "postcode": "7370815",
      "prefecture": "広島県",
      "prefecture_kana": "ヒロシマケン",
      "prefecture_code": 34,
      "city": "呉市",
      "city_kana": "クレシ",
      "town": "荘山田村",
      "town_kana": "ソウヤマダムラ",
      "street": null,
      "office_name": null,
      "office_name_kana": null
    },
    {
      "postcode": "7370815",
      "prefecture": "広島県",
      "prefecture_kana": "ヒロシマケン",
      "prefecture_code": 34,
      "city": "呉市",
      "city_kana": "クレシ",
      "town": "荘山田村二河山",
      "town_kana": "ソウヤマダムラフタカワヤマ",
      "street": null,
      "office_name": null,
      "office_name_kana": null
    }
  ],
  "0816": {
    "postcode": "7370816",
    "prefecture": "広島県",
    "prefecture_kana": "ヒロシマケン",
    "prefecture_code": 34,
    "city": "呉市",
    "city_kana": "クレシ",
    "town": "二河峡町",
    "town_kana": "ニコウキョウチョウ",
    "street": null,
    "office_name": null,
    "office_name_kana": null
  },
  "0817": {
    "postcode": "7370817",
    "prefecture": "広島県",
    "prefecture_kana": "ヒロシマケン",
    "prefecture_code": 34,
    "city": "呉市",
    "city_kana": "クレシ",
    "town": "上二河町",
    "town_kana": "カミニコウチョウ",
    "street": null,
    "office_name": null,
    "office_name_kana": null
  },
  "0818": {
    "postcode": "7370818",
    "prefecture": "広島県",
    "prefecture_kana": "ヒロシマケン",
    "prefecture_code": 34,
    "city": "呉市",
    "city_kana": "クレシ",
    "town": "二河町",
    "town_kana": "ニコウチョウ",
    "street": null,
    "office_name": null,
    "office_name_kana": null
  },
  "0821": {
    "postcode": "7370821",
    "prefecture": "広島県",
    "prefecture_kana": "ヒロシマケン",
    "prefecture_code": 34,
    "city": "呉市",
    "city_kana": "クレシ",
    "town": "三条",
    "town_kana": "サンジョウ",
    "street": null,
    "office_name": null,
    "office_name_kana": null
  },
  "0822": {
    "postcode": "7370822",
    "prefecture": "広島県",
    "prefecture_kana": "ヒロシマケン",
    "prefecture_code": 34,
    "city": "呉市",
    "city_kana": "クレシ",
    "town": "築地町",
    "town_kana": "ツキジチョウ",
    "street": null,
    "office_name": null,
    "office_name_kana": null
  },
  "0823": {
    "postcode": "7370823",
    "prefecture": "広島県",
    "prefecture_kana": "ヒロシマケン",
    "prefecture_code": 34,
    "city": "呉市",
    "city_kana": "クレシ",
    "town": "海岸",
    "town_kana": "カイガン",
    "street": null,
    "office_name": null,
    "office_name_kana": null
  },
  "0824": {
    "postcode": "7370824",
    "prefecture": "広島県",
    "prefecture_kana": "ヒロシマケン",
    "prefecture_code": 34,
    "city": "呉市",
    "city_kana": "クレシ",
    "town": "東川原石町",
    "town_kana": "ヒガシカワライシチョウ",
    "street": null,
    "office_name": null,
    "office_name_kana": null
  },
  "0825": {
    "postcode": "7370825",
    "prefecture": "広島県",
    "prefecture_kana": "ヒロシマケン",
    "prefecture_code": 34,
    "city": "呉市",
    "city_kana": "クレシ",
    "town": "西川原石町",
    "town_kana": "ニシカワライシチョウ",
    "street": null,
    "office_name": null,
    "office_name_kana": null
  },
  "0826": {
    "postcode": "7370826",
    "prefecture": "広島県",
    "prefecture_kana": "ヒロシマケン",
    "prefecture_code": 34,
    "city": "呉市",
    "city_kana": "クレシ",
    "town": "両城",
    "town_kana": "リョウジョウ",
    "street": null,
    "office_name": null,
    "office_name_kana": null
  },
  "0827": {
    "postcode": "7370827",
    "prefecture": "広島県",
    "prefecture_kana": "ヒロシマケン",
    "prefecture_code": 34,
    "city": "呉市",
    "city_kana": "クレシ",
    "town": "西愛宕町",
    "town_kana": "ニシアタゴチョウ",
    "street": null,
    "office_name": null,
    "office_name_kana": null
  },
  "0828": {
    "postcode": "7370828",
    "prefecture": "広島県",
    "prefecture_kana": "ヒロシマケン",
    "prefecture_code": 34,
    "city": "呉市",
    "city_kana": "クレシ",
    "town": "東愛宕町",
    "town_kana": "ヒガシアタゴチョウ",
    "street": null,
    "office_name": null,
    "office_name_kana": null
  },
  "0831": {
    "postcode": "7370831",
    "prefecture": "広島県",
    "prefecture_kana": "ヒロシマケン",
    "prefecture_code": 34,
    "city": "呉市",
    "city_kana": "クレシ",
    "town": "光町",
    "town_kana": "ヒカリマチ",
    "street": null,
    "office_name": null,
    "office_name_kana": null
  },
  "0832": {
    "postcode": "7370832",
    "prefecture": "広島県",
    "prefecture_kana": "ヒロシマケン",
    "prefecture_code": 34,
    "city": "呉市",
    "city_kana": "クレシ",
    "town": "若葉町",
    "town_kana": "ワカバチョウ",
    "street": null,
    "office_name": null,
    "office_name_kana": null
  },
  "0833": {
    "postcode": "7370833",
    "prefecture": "広島県",
    "prefecture_kana": "ヒロシマケン",
    "prefecture_code": 34,
    "city": "呉市",
    "city_kana": "クレシ",
    "town": "晴海町",
    "town_kana": "ハルミチョウ",
    "street": null,
    "office_name": null,
    "office_name_kana": null
  },
  "0834": {
    "postcode": "7370834",
    "prefecture": "広島県",
    "prefecture_kana": "ヒロシマケン",
    "prefecture_code": 34,
    "city": "呉市",
    "city_kana": "クレシ",
    "town": "瀬戸見町",
    "town_kana": "セトミチョウ",
    "street": null,
    "office_name": null,
    "office_name_kana": null
  },
  "0835": {
    "postcode": "7370835",
    "prefecture": "広島県",
    "prefecture_kana": "ヒロシマケン",
    "prefecture_code": 34,
    "city": "呉市",
    "city_kana": "クレシ",
    "town": "新宮町",
    "town_kana": "シングウチョウ",
    "street": null,
    "office_name": null,
    "office_name_kana": null
  },
  "0836": {
    "postcode": "7370836",
    "prefecture": "広島県",
    "prefecture_kana": "ヒロシマケン",
    "prefecture_code": 34,
    "city": "呉市",
    "city_kana": "クレシ",
    "town": "北塩屋町",
    "town_kana": "キタシオヤチョウ",
    "street": null,
    "office_name": null,
    "office_name_kana": null
  },
  "0837": {
    "postcode": "7370837",
    "prefecture": "広島県",
    "prefecture_kana": "ヒロシマケン",
    "prefecture_code": 34,
    "city": "呉市",
    "city_kana": "クレシ",
    "town": "東塩屋町",
    "town_kana": "ヒガシシオヤチョウ",
    "street": null,
    "office_name": null,
    "office_name_kana": null
  },
  "0838": {
    "postcode": "7370838",
    "prefecture": "広島県",
    "prefecture_kana": "ヒロシマケン",
    "prefecture_code": 34,
    "city": "呉市",
    "city_kana": "クレシ",
    "town": "西塩屋町",
    "town_kana": "ニシシオヤチョウ",
    "street": null,
    "office_name": null,
    "office_name_kana": null
  },
  "0841": {
    "postcode": "7370841",
    "prefecture": "広島県",
    "prefecture_kana": "ヒロシマケン",
    "prefecture_code": 34,
    "city": "呉市",
    "city_kana": "クレシ",
    "town": "吉浦神賀町",
    "town_kana": "ヨシウラジンガチョウ",
    "street": null,
    "office_name": null,
    "office_name_kana": null
  },
  "0842": {
    "postcode": "7370842",
    "prefecture": "広島県",
    "prefecture_kana": "ヒロシマケン",
    "prefecture_code": 34,
    "city": "呉市",
    "city_kana": "クレシ",
    "town": "吉浦東町",
    "town_kana": "ヨシウラヒガシマチ",
    "street": null,
    "office_name": null,
    "office_name_kana": null
  },
  "0843": {
    "postcode": "7370843",
    "prefecture": "広島県",
    "prefecture_kana": "ヒロシマケン",
    "prefecture_code": 34,
    "city": "呉市",
    "city_kana": "クレシ",
    "town": "吉浦潭鼓町",
    "town_kana": "ヨシウラタンコチョウ",
    "street": null,
    "office_name": null,
    "office_name_kana": null
  },
  "0844": {
    "postcode": "7370844",
    "prefecture": "広島県",
    "prefecture_kana": "ヒロシマケン",
    "prefecture_code": 34,
    "city": "呉市",
    "city_kana": "クレシ",
    "town": "吉浦池ノ浦町",
    "town_kana": "ヨシウライケノウラチョウ",
    "street": null,
    "office_name": null,
    "office_name_kana": null
  },
  "0845": {
    "postcode": "7370845",
    "prefecture": "広島県",
    "prefecture_kana": "ヒロシマケン",
    "prefecture_code": 34,
    "city": "呉市",
    "city_kana": "クレシ",
    "town": "吉浦新町",
    "town_kana": "ヨシウラシンマチ",
    "street": null,
    "office_name": null,
    "office_name_kana": null
  },
  "0846": [
    {
      "postcode": "7370846",
      "prefecture": "広島県",
      "prefecture_kana": "ヒロシマケン",
      "prefecture_code": 34,
      "city": "呉市",
      "city_kana": "クレシ",
      "town": "吉浦町",
      "town_kana": "ヨシウラチョウ",
      "street": null,
      "office_name": null,
      "office_name_kana": null
    },
    {
      "postcode": "7370846",
      "prefecture": "広島県",
      "prefecture_kana": "ヒロシマケン",
      "prefecture_code": 34,
      "city": "呉市",
      "city_kana": "クレシ",
      "town": "吉浦町乙廻り",
      "town_kana": "ヨシウラチョウオトマワリ",
      "street": null,
      "office_name": null,
      "office_name_kana": null
    }
  ],
  "0851": {
    "postcode": "7370851",
    "prefecture": "広島県",
    "prefecture_kana": "ヒロシマケン",
    "prefecture_code": 34,
    "city": "呉市",
    "city_kana": "クレシ",
    "town": "吉浦新出町",
    "town_kana": "ヨシウラシンデチョウ",
    "street": null,
    "office_name": null,
    "office_name_kana": null
  },
  "0852": {
    "postcode": "7370852",
    "prefecture": "広島県",
    "prefecture_kana": "ヒロシマケン",
    "prefecture_code": 34,
    "city": "呉市",
    "city_kana": "クレシ",
    "town": "吉浦東本町",
    "town_kana": "ヨシウラヒガシホンマチ",
    "street": null,
    "office_name": null,
    "office_name_kana": null
  },
  "0853": {
    "postcode": "7370853",
    "prefecture": "広島県",
    "prefecture_kana": "ヒロシマケン",
    "prefecture_code": 34,
    "city": "呉市",
    "city_kana": "クレシ",
    "town": "吉浦中町",
    "town_kana": "ヨシウラナカマチ",
    "street": null,
    "office_name": null,
    "office_name_kana": null
  },
  "0854": {
    "postcode": "7370854",
    "prefecture": "広島県",
    "prefecture_kana": "ヒロシマケン",
    "prefecture_code": 34,
    "city": "呉市",
    "city_kana": "クレシ",
    "town": "吉浦町",
    "town_kana": "ヨシウラチョウ",
    "street": null,
    "office_name": null,
    "office_name_kana": null
  },
  "0861": {
    "postcode": "7370861",
    "prefecture": "広島県",
    "prefecture_kana": "ヒロシマケン",
    "prefecture_code": 34,
    "city": "呉市",
    "city_kana": "クレシ",
    "town": "吉浦本町",
    "town_kana": "ヨシウラホンマチ",
    "street": null,
    "office_name": null,
    "office_name_kana": null
  },
  "0862": {
    "postcode": "7370862",
    "prefecture": "広島県",
    "prefecture_kana": "ヒロシマケン",
    "prefecture_code": 34,
    "city": "呉市",
    "city_kana": "クレシ",
    "town": "狩留賀町",
    "town_kana": "カルガチョウ",
    "street": null,
    "office_name": null,
    "office_name_kana": null
  },
  "0863": {
    "postcode": "7370863",
    "prefecture": "広島県",
    "prefecture_kana": "ヒロシマケン",
    "prefecture_code": 34,
    "city": "呉市",
    "city_kana": "クレシ",
    "town": "吉浦宮花町",
    "town_kana": "ヨシウラミヤハナチョウ",
    "street": null,
    "office_name": null,
    "office_name_kana": null
  },
  "0864": {
    "postcode": "7370864",
    "prefecture": "広島県",
    "prefecture_kana": "ヒロシマケン",
    "prefecture_code": 34,
    "city": "呉市",
    "city_kana": "クレシ",
    "town": "吉浦西城町",
    "town_kana": "ヨシウラニシジョウチョウ",
    "street": null,
    "office_name": null,
    "office_name_kana": null
  },
  "0865": {
    "postcode": "7370865",
    "prefecture": "広島県",
    "prefecture_kana": "ヒロシマケン",
    "prefecture_code": 34,
    "city": "呉市",
    "city_kana": "クレシ",
    "town": "吉浦岩神町",
    "town_kana": "ヨシウライワガミチョウ",
    "street": null,
    "office_name": null,
    "office_name_kana": null
  },
  "0866": {
    "postcode": "7370866",
    "prefecture": "広島県",
    "prefecture_kana": "ヒロシマケン",
    "prefecture_code": 34,
    "city": "呉市",
    "city_kana": "クレシ",
    "town": "吉浦松葉町",
    "town_kana": "ヨシウラマツバチョウ",
    "street": null,
    "office_name": null,
    "office_name_kana": null
  },
  "0867": {
    "postcode": "7370867",
    "prefecture": "広島県",
    "prefecture_kana": "ヒロシマケン",
    "prefecture_code": 34,
    "city": "呉市",
    "city_kana": "クレシ",
    "town": "吉浦上城町",
    "town_kana": "ヨシウラカミジョウチョウ",
    "street": null,
    "office_name": null,
    "office_name_kana": null
  },
  "0871": {
    "postcode": "7370871",
    "prefecture": "広島県",
    "prefecture_kana": "ヒロシマケン",
    "prefecture_code": 34,
    "city": "呉市",
    "city_kana": "クレシ",
    "town": "長谷町",
    "town_kana": "ナガタニチョウ",
    "street": null,
    "office_name": null,
    "office_name_kana": null
  },
  "0872": {
    "postcode": "7370872",
    "prefecture": "広島県",
    "prefecture_kana": "ヒロシマケン",
    "prefecture_code": 34,
    "city": "呉市",
    "city_kana": "クレシ",
    "town": "梅木町",
    "town_kana": "ウメキチョウ",
    "street": null,
    "office_name": null,
    "office_name_kana": null
  },
  "0873": {
    "postcode": "7370873",
    "prefecture": "広島県",
    "prefecture_kana": "ヒロシマケン",
    "prefecture_code": 34,
    "city": "呉市",
    "city_kana": "クレシ",
    "town": "汐見町",
    "town_kana": "シオミチョウ",
    "street": null,
    "office_name": null,
    "office_name_kana": null
  },
  "0874": {
    "postcode": "7370874",
    "prefecture": "広島県",
    "prefecture_kana": "ヒロシマケン",
    "prefecture_code": 34,
    "city": "呉市",
    "city_kana": "クレシ",
    "town": "天応南町",
    "town_kana": "テンノウミナミマチ",
    "street": null,
    "office_name": null,
    "office_name_kana": null
  },
  "0875": {
    "postcode": "7370875",
    "prefecture": "広島県",
    "prefecture_kana": "ヒロシマケン",
    "prefecture_code": 34,
    "city": "呉市",
    "city_kana": "クレシ",
    "town": "天応大浜",
    "town_kana": "テンノウオオハマ",
    "street": null,
    "office_name": null,
    "office_name_kana": null
  },
  "0876": {
    "postcode": "7370876",
    "prefecture": "広島県",
    "prefecture_kana": "ヒロシマケン",
    "prefecture_code": 34,
    "city": "呉市",
    "city_kana": "クレシ",
    "town": "天応宮町",
    "town_kana": "テンノウミヤマチ",
    "street": null,
    "office_name": null,
    "office_name_kana": null
  },
  "0877": {
    "postcode": "7370877",
    "prefecture": "広島県",
    "prefecture_kana": "ヒロシマケン",
    "prefecture_code": 34,
    "city": "呉市",
    "city_kana": "クレシ",
    "town": "弥生町",
    "town_kana": "ヤヨイチョウ",
    "street": null,
    "office_name": null,
    "office_name_kana": null
  },
  "0878": {
    "postcode": "7370878",
    "prefecture": "広島県",
    "prefecture_kana": "ヒロシマケン",
    "prefecture_code": 34,
    "city": "呉市",
    "city_kana": "クレシ",
    "town": "大山町",
    "town_kana": "オオヤマチョウ",
    "street": null,
    "office_name": null,
    "office_name_kana": null
  },
  "0881": {
    "postcode": "7370881",
    "prefecture": "広島県",
    "prefecture_kana": "ヒロシマケン",
    "prefecture_code": 34,
    "city": "呉市",
    "city_kana": "クレシ",
    "town": "天応塩谷町",
    "town_kana": "テンノウシオヤチョウ",
    "street": null,
    "office_name": null,
    "office_name_kana": null
  },
  "0882": {
    "postcode": "7370882",
    "prefecture": "広島県",
    "prefecture_kana": "ヒロシマケン",
    "prefecture_code": 34,
    "city": "呉市",
    "city_kana": "クレシ",
    "town": "天応東久保",
    "town_kana": "テンノウヒガシクボ",
    "street": null,
    "office_name": null,
    "office_name_kana": null
  },
  "0883": {
    "postcode": "7370883",
    "prefecture": "広島県",
    "prefecture_kana": "ヒロシマケン",
    "prefecture_code": 34,
    "city": "呉市",
    "city_kana": "クレシ",
    "town": "天応西条",
    "town_kana": "テンノウニシジョウ",
    "street": null,
    "office_name": null,
    "office_name_kana": null
  },
  "0884": {
    "postcode": "7370884",
    "prefecture": "広島県",
    "prefecture_kana": "ヒロシマケン",
    "prefecture_code": 34,
    "city": "呉市",
    "city_kana": "クレシ",
    "town": "天応伝十原町",
    "town_kana": "テンノウデンジュウバラチョウ",
    "street": null,
    "office_name": null,
    "office_name_kana": null
  },
  "0885": {
    "postcode": "7370885",
    "prefecture": "広島県",
    "prefecture_kana": "ヒロシマケン",
    "prefecture_code": 34,
    "city": "呉市",
    "city_kana": "クレシ",
    "town": "天応福浦町",
    "town_kana": "テンノウフクウラチョウ",
    "street": null,
    "office_name": null,
    "office_name_kana": null
  },
  "0901": {
    "postcode": "7370901",
    "prefecture": "広島県",
    "prefecture_kana": "ヒロシマケン",
    "prefecture_code": 34,
    "city": "呉市",
    "city_kana": "クレシ",
    "town": "焼山ひばりケ丘町",
    "town_kana": "ヤケヤマヒバリガオカチョウ",
    "street": null,
    "office_name": null,
    "office_name_kana": null
  },
  "0902": {
    "postcode": "7370902",
    "prefecture": "広島県",
    "prefecture_kana": "ヒロシマケン",
    "prefecture_code": 34,
    "city": "呉市",
    "city_kana": "クレシ",
    "town": "焼山此原町",
    "town_kana": "ヤケヤマコノハラチョウ",
    "street": null,
    "office_name": null,
    "office_name_kana": null
  },
  "0903": {
    "postcode": "7370903",
    "prefecture": "広島県",
    "prefecture_kana": "ヒロシマケン",
    "prefecture_code": 34,
    "city": "呉市",
    "city_kana": "クレシ",
    "town": "焼山西",
    "town_kana": "ヤケヤマニシ",
    "street": null,
    "office_name": null,
    "office_name_kana": null
  },
  "0904": [
    {
      "postcode": "7370904",
      "prefecture": "広島県",
      "prefecture_kana": "ヒロシマケン",
      "prefecture_code": 34,
      "city": "呉市",
      "city_kana": "クレシ",
      "town": "焼山",
      "town_kana": "ヤケヤマ",
      "street": null,
      "office_name": null,
      "office_name_kana": null
    },
    {
      "postcode": "7370904",
      "prefecture": "広島県",
      "prefecture_kana": "ヒロシマケン",
      "prefecture_code": 34,
      "city": "呉市",
      "city_kana": "クレシ",
      "town": "焼山打田",
      "town_kana": "ヤケヤマウチダ",
      "street": null,
      "office_name": null,
      "office_name_kana": null
    }
  ],
  "0905": [
    {
      "postcode": "7370905",
      "prefecture": "広島県",
      "prefecture_kana": "ヒロシマケン",
      "prefecture_code": 34,
      "city": "呉市",
      "city_kana": "クレシ",
      "town": "焼山町",
      "town_kana": "ヤケヤマチョウ",
      "street": null,
      "office_name": null,
      "office_name_kana": null
    },
    {
      "postcode": "7370905",
      "prefecture": "広島県",
      "prefecture_kana": "ヒロシマケン",
      "prefecture_code": 34,
      "city": "呉市",
      "city_kana": "クレシ",
      "town": "焼山町山の神",
      "town_kana": "ヤケヤマチョウヤマノカミ",
      "street": null,
      "office_name": null,
      "office_name_kana": null
    }
  ],
  "0906": [
    {
      "postcode": "7370906",
      "prefecture": "広島県",
      "prefecture_kana": "ヒロシマケン",
      "prefecture_code": 34,
      "city": "呉市",
      "city_kana": "クレシ",
      "town": "焼山町",
      "town_kana": "ヤケヤマチョウ",
      "street": null,
      "office_name": null,
      "office_name_kana": null
    },
    {
      "postcode": "7370906",
      "prefecture": "広島県",
      "prefecture_kana": "ヒロシマケン",
      "prefecture_code": 34,
      "city": "呉市",
      "city_kana": "クレシ",
      "town": "焼山町野登呂",
      "town_kana": "ヤケヤマチョウノトロ",
      "street": null,
      "office_name": null,
      "office_name_kana": null
    }
  ],
  "0907": {
    "postcode": "7370907",
    "prefecture": "広島県",
    "prefecture_kana": "ヒロシマケン",
    "prefecture_code": 34,
    "city": "呉市",
    "city_kana": "クレシ",
    "town": "焼山町",
    "town_kana": "ヤケヤマチョウ",
    "street": null,
    "office_name": null,
    "office_name_kana": null
  },
  "0908": {
    "postcode": "7370908",
    "prefecture": "広島県",
    "prefecture_kana": "ヒロシマケン",
    "prefecture_code": 34,
    "city": "呉市",
    "city_kana": "クレシ",
    "town": "焼山宮ケ迫",
    "town_kana": "ヤケヤマミヤガサコ",
    "street": null,
    "office_name": null,
    "office_name_kana": null
  },
  "0911": {
    "postcode": "7370911",
    "prefecture": "広島県",
    "prefecture_kana": "ヒロシマケン",
    "prefecture_code": 34,
    "city": "呉市",
    "city_kana": "クレシ",
    "town": "焼山北",
    "town_kana": "ヤケヤマキタ",
    "street": null,
    "office_name": null,
    "office_name_kana": null
  },
  "0912": {
    "postcode": "7370912",
    "prefecture": "広島県",
    "prefecture_kana": "ヒロシマケン",
    "prefecture_code": 34,
    "city": "呉市",
    "city_kana": "クレシ",
    "town": "焼山本庄",
    "town_kana": "ヤケヤマホンジョウ",
    "street": null,
    "office_name": null,
    "office_name_kana": null
  },
  "0913": {
    "postcode": "7370913",
    "prefecture": "広島県",
    "prefecture_kana": "ヒロシマケン",
    "prefecture_code": 34,
    "city": "呉市",
    "city_kana": "クレシ",
    "town": "焼山泉ケ丘",
    "town_kana": "ヤケヤマイズミガオカ",
    "street": null,
    "office_name": null,
    "office_name_kana": null
  },
  "0914": {
    "postcode": "7370914",
    "prefecture": "広島県",
    "prefecture_kana": "ヒロシマケン",
    "prefecture_code": 34,
    "city": "呉市",
    "city_kana": "クレシ",
    "town": "押込西平町",
    "town_kana": "オシゴメニシヒラチョウ",
    "street": null,
    "office_name": null,
    "office_name_kana": null
  },
  "0915": {
    "postcode": "7370915",
    "prefecture": "広島県",
    "prefecture_kana": "ヒロシマケン",
    "prefecture_code": 34,
    "city": "呉市",
    "city_kana": "クレシ",
    "town": "押込",
    "town_kana": "オシゴメ",
    "street": null,
    "office_name": null,
    "office_name_kana": null
  },
  "0921": {
    "postcode": "7370921",
    "prefecture": "広島県",
    "prefecture_kana": "ヒロシマケン",
    "prefecture_code": 34,
    "city": "呉市",
    "city_kana": "クレシ",
    "town": "苗代町",
    "town_kana": "ナエシロチョウ",
    "street": null,
    "office_name": null,
    "office_name_kana": null
  },
  "0922": {
    "postcode": "7370922",
    "prefecture": "広島県",
    "prefecture_kana": "ヒロシマケン",
    "prefecture_code": 34,
    "city": "呉市",
    "city_kana": "クレシ",
    "town": "栃原町",
    "town_kana": "トチバラチョウ",
    "street": null,
    "office_name": null,
    "office_name_kana": null
  },
  "0923": {
    "postcode": "7370923",
    "prefecture": "広島県",
    "prefecture_kana": "ヒロシマケン",
    "prefecture_code": 34,
    "city": "呉市",
    "city_kana": "クレシ",
    "town": "神山",
    "town_kana": "ジンヤマ",
    "street": null,
    "office_name": null,
    "office_name_kana": null
  },
  "0924": {
    "postcode": "7370924",
    "prefecture": "広島県",
    "prefecture_kana": "ヒロシマケン",
    "prefecture_code": 34,
    "city": "呉市",
    "city_kana": "クレシ",
    "town": "焼山南",
    "town_kana": "ヤケヤマミナミ",
    "street": null,
    "office_name": null,
    "office_name_kana": null
  },
  "0931": {
    "postcode": "7370931",
    "prefecture": "広島県",
    "prefecture_kana": "ヒロシマケン",
    "prefecture_code": 34,
    "city": "呉市",
    "city_kana": "クレシ",
    "town": "焼山三ツ石町",
    "town_kana": "ヤケヤマミツイシチョウ",
    "street": null,
    "office_name": null,
    "office_name_kana": null
  },
  "0932": {
    "postcode": "7370932",
    "prefecture": "広島県",
    "prefecture_kana": "ヒロシマケン",
    "prefecture_code": 34,
    "city": "呉市",
    "city_kana": "クレシ",
    "town": "焼山松ケ丘",
    "town_kana": "ヤケヤママツガオカ",
    "street": null,
    "office_name": null,
    "office_name_kana": null
  },
  "0933": {
    "postcode": "7370933",
    "prefecture": "広島県",
    "prefecture_kana": "ヒロシマケン",
    "prefecture_code": 34,
    "city": "呉市",
    "city_kana": "クレシ",
    "town": "焼山桜ケ丘",
    "town_kana": "ヤケヤマサクラガオカ",
    "street": null,
    "office_name": null,
    "office_name_kana": null
  },
  "0934": {
    "postcode": "7370934",
    "prefecture": "広島県",
    "prefecture_kana": "ヒロシマケン",
    "prefecture_code": 34,
    "city": "呉市",
    "city_kana": "クレシ",
    "town": "焼山政畝",
    "town_kana": "ヤケヤママサウネ",
    "street": null,
    "office_name": null,
    "office_name_kana": null
  },
  "0935": {
    "postcode": "7370935",
    "prefecture": "広島県",
    "prefecture_kana": "ヒロシマケン",
    "prefecture_code": 34,
    "city": "呉市",
    "city_kana": "クレシ",
    "town": "焼山中央",
    "town_kana": "ヤケヤマチュウオウ",
    "street": null,
    "office_name": null,
    "office_name_kana": null
  },
  "0936": {
    "postcode": "7370936",
    "prefecture": "広島県",
    "prefecture_kana": "ヒロシマケン",
    "prefecture_code": 34,
    "city": "呉市",
    "city_kana": "クレシ",
    "town": "焼山東",
    "town_kana": "ヤケヤマヒガシ",
    "street": null,
    "office_name": null,
    "office_name_kana": null
  },
  "1201": {
    "postcode": "7371201",
    "prefecture": "広島県",
    "prefecture_kana": "ヒロシマケン",
    "prefecture_code": 34,
    "city": "呉市",
    "city_kana": "クレシ",
    "town": "音戸町坪井",
    "town_kana": "オンドチョウツボイ",
    "street": null,
    "office_name": null,
    "office_name_kana": null
  },
  "1202": {
    "postcode": "7371202",
    "prefecture": "広島県",
    "prefecture_kana": "ヒロシマケン",
    "prefecture_code": 34,
    "city": "呉市",
    "city_kana": "クレシ",
    "town": "音戸町引地",
    "town_kana": "オンドチョウヒキジ",
    "street": null,
    "office_name": null,
    "office_name_kana": null
  },
  "1203": {
    "postcode": "7371203",
    "prefecture": "広島県",
    "prefecture_kana": "ヒロシマケン",
    "prefecture_code": 34,
    "city": "呉市",
    "city_kana": "クレシ",
    "town": "音戸町鰯浜",
    "town_kana": "オンドチョウイワシハマ",
    "street": null,
    "office_name": null,
    "office_name_kana": null
  },
  "1204": {
    "postcode": "7371204",
    "prefecture": "広島県",
    "prefecture_kana": "ヒロシマケン",
    "prefecture_code": 34,
    "city": "呉市",
    "city_kana": "クレシ",
    "town": "音戸町北隠渡",
    "town_kana": "オンドチョウキタオンド",
    "street": null,
    "office_name": null,
    "office_name_kana": null
  },
  "1205": {
    "postcode": "7371205",
    "prefecture": "広島県",
    "prefecture_kana": "ヒロシマケン",
    "prefecture_code": 34,
    "city": "呉市",
    "city_kana": "クレシ",
    "town": "音戸町南隠渡",
    "town_kana": "オンドチョウミナミオンド",
    "street": null,
    "office_name": null,
    "office_name_kana": null
  },
  "1206": {
    "postcode": "7371206",
    "prefecture": "広島県",
    "prefecture_kana": "ヒロシマケン",
    "prefecture_code": 34,
    "city": "呉市",
    "city_kana": "クレシ",
    "town": "音戸町高須",
    "town_kana": "オンドチョウタカス",
    "street": null,
    "office_name": null,
    "office_name_kana": null
  },
  "1207": {
    "postcode": "7371207",
    "prefecture": "広島県",
    "prefecture_kana": "ヒロシマケン",
    "prefecture_code": 34,
    "city": "呉市",
    "city_kana": "クレシ",
    "town": "音戸町波多見",
    "town_kana": "オンドチョウハタミ",
    "street": null,
    "office_name": null,
    "office_name_kana": null
  },
  "1211": {
    "postcode": "7371211",
    "prefecture": "広島県",
    "prefecture_kana": "ヒロシマケン",
    "prefecture_code": 34,
    "city": "呉市",
    "city_kana": "クレシ",
    "town": "音戸町畑",
    "town_kana": "オンドチョウハタ",
    "street": null,
    "office_name": null,
    "office_name_kana": null
  },
  "1212": {
    "postcode": "7371212",
    "prefecture": "広島県",
    "prefecture_kana": "ヒロシマケン",
    "prefecture_code": 34,
    "city": "呉市",
    "city_kana": "クレシ",
    "town": "音戸町有清",
    "town_kana": "オンドチョウアリキヨ",
    "street": null,
    "office_name": null,
    "office_name_kana": null
  },
  "1213": {
    "postcode": "7371213",
    "prefecture": "広島県",
    "prefecture_kana": "ヒロシマケン",
    "prefecture_code": 34,
    "city": "呉市",
    "city_kana": "クレシ",
    "town": "音戸町先奥",
    "town_kana": "オンドチョウサキオク",
    "street": null,
    "office_name": null,
    "office_name_kana": null
  },
  "1214": {
    "postcode": "7371214",
    "prefecture": "広島県",
    "prefecture_kana": "ヒロシマケン",
    "prefecture_code": 34,
    "city": "呉市",
    "city_kana": "クレシ",
    "town": "音戸町藤脇",
    "town_kana": "オンドチョウフジノワキ",
    "street": null,
    "office_name": null,
    "office_name_kana": null
  },
  "1215": {
    "postcode": "7371215",
    "prefecture": "広島県",
    "prefecture_kana": "ヒロシマケン",
    "prefecture_code": 34,
    "city": "呉市",
    "city_kana": "クレシ",
    "town": "音戸町早瀬",
    "town_kana": "オンドチョウハヤセ",
    "street": null,
    "office_name": null,
    "office_name_kana": null
  },
  "1216": {
    "postcode": "7371216",
    "prefecture": "広島県",
    "prefecture_kana": "ヒロシマケン",
    "prefecture_code": 34,
    "city": "呉市",
    "city_kana": "クレシ",
    "town": "音戸町田原",
    "town_kana": "オンドチョウタハラ",
    "street": null,
    "office_name": null,
    "office_name_kana": null
  },
  "1217": {
    "postcode": "7371217",
    "prefecture": "広島県",
    "prefecture_kana": "ヒロシマケン",
    "prefecture_code": 34,
    "city": "呉市",
    "city_kana": "クレシ",
    "town": "音戸町渡子",
    "town_kana": "オンドチョウトノコ",
    "street": null,
    "office_name": null,
    "office_name_kana": null
  },
  "1377": {
    "postcode": "7371377",
    "prefecture": "広島県",
    "prefecture_kana": "ヒロシマケン",
    "prefecture_code": 34,
    "city": "呉市",
    "city_kana": "クレシ",
    "town": "倉橋町",
    "town_kana": "クラハシチョウ",
    "street": null,
    "office_name": null,
    "office_name_kana": null
  },
  "2100": {
    "postcode": "7372100",
    "prefecture": "広島県",
    "prefecture_kana": "ヒロシマケン",
    "prefecture_code": 34,
    "city": "江田島市",
    "city_kana": "エタジマシ",
    "town": "",
    "town_kana": "",
    "street": null,
    "office_name": null,
    "office_name_kana": null
  },
  "2101": {
    "postcode": "7372101",
    "prefecture": "広島県",
    "prefecture_kana": "ヒロシマケン",
    "prefecture_code": 34,
    "city": "江田島市",
    "city_kana": "エタジマシ",
    "town": "大柿町飛渡瀬",
    "town_kana": "オオガキチョウヒトノセ",
    "street": null,
    "office_name": null,
    "office_name_kana": null
  },
  "2111": {
    "postcode": "7372111",
    "prefecture": "広島県",
    "prefecture_kana": "ヒロシマケン",
    "prefecture_code": 34,
    "city": "江田島市",
    "city_kana": "エタジマシ",
    "town": "江田島町切串",
    "town_kana": "エタジマチョウキリクシ",
    "street": null,
    "office_name": null,
    "office_name_kana": null
  },
  "2112": {
    "postcode": "7372112",
    "prefecture": "広島県",
    "prefecture_kana": "ヒロシマケン",
    "prefecture_code": 34,
    "city": "江田島市",
    "city_kana": "エタジマシ",
    "town": "江田島町幸ノ浦",
    "town_kana": "エタジマチョウコウノウラ",
    "street": null,
    "office_name": null,
    "office_name_kana": null
  },
  "2113": {
    "postcode": "7372113",
    "prefecture": "広島県",
    "prefecture_kana": "ヒロシマケン",
    "prefecture_code": 34,
    "city": "江田島市",
    "city_kana": "エタジマシ",
    "town": "江田島町大須",
    "town_kana": "エタジマチョウオオズ",
    "street": null,
    "office_name": null,
    "office_name_kana": null
  },
  "2121": {
    "postcode": "7372121",
    "prefecture": "広島県",
    "prefecture_kana": "ヒロシマケン",
    "prefecture_code": 34,
    "city": "江田島市",
    "city_kana": "エタジマシ",
    "town": "江田島町小用",
    "town_kana": "エタジマチョウコヨウ",
    "street": null,
    "office_name": null,
    "office_name_kana": null
  },
  "2122": {
    "postcode": "7372122",
    "prefecture": "広島県",
    "prefecture_kana": "ヒロシマケン",
    "prefecture_code": 34,
    "city": "江田島市",
    "city_kana": "エタジマシ",
    "town": "江田島町中央",
    "town_kana": "エタジマチョウチュウオウ",
    "street": null,
    "office_name": null,
    "office_name_kana": null
  },
  "2123": {
    "postcode": "7372123",
    "prefecture": "広島県",
    "prefecture_kana": "ヒロシマケン",
    "prefecture_code": 34,
    "city": "江田島市",
    "city_kana": "エタジマシ",
    "town": "江田島町国有無番地",
    "town_kana": "エタジマチョウコクユウムバンチ",
    "street": null,
    "office_name": null,
    "office_name_kana": null
  },
  "2124": {
    "postcode": "7372124",
    "prefecture": "広島県",
    "prefecture_kana": "ヒロシマケン",
    "prefecture_code": 34,
    "city": "江田島市",
    "city_kana": "エタジマシ",
    "town": "江田島町宮ノ原",
    "town_kana": "エタジマチョウミヤノハラ",
    "street": null,
    "office_name": null,
    "office_name_kana": null
  },
  "2125": {
    "postcode": "7372125",
    "prefecture": "広島県",
    "prefecture_kana": "ヒロシマケン",
    "prefecture_code": 34,
    "city": "江田島市",
    "city_kana": "エタジマシ",
    "town": "江田島町大原特借宿舎",
    "town_kana": "エタジマチョウオオハラトッカリシュクシャ",
    "street": null,
    "office_name": null,
    "office_name_kana": null
  },
  "2126": {
    "postcode": "7372126",
    "prefecture": "広島県",
    "prefecture_kana": "ヒロシマケン",
    "prefecture_code": 34,
    "city": "江田島市",
    "city_kana": "エタジマシ",
    "town": "江田島町津久茂",
    "town_kana": "エタジマチョウツクモ",
    "street": null,
    "office_name": null,
    "office_name_kana": null
  },
  "2131": {
    "postcode": "7372131",
    "prefecture": "広島県",
    "prefecture_kana": "ヒロシマケン",
    "prefecture_code": 34,
    "city": "江田島市",
    "city_kana": "エタジマシ",
    "town": "江田島町秋月",
    "town_kana": "エタジマチョウアキヅキ",
    "street": null,
    "office_name": null,
    "office_name_kana": null
  },
  "2132": {
    "postcode": "7372132",
    "prefecture": "広島県",
    "prefecture_kana": "ヒロシマケン",
    "prefecture_code": 34,
    "city": "江田島市",
    "city_kana": "エタジマシ",
    "town": "江田島町江南",
    "town_kana": "エタジマチョウコウナン",
    "street": null,
    "office_name": null,
    "office_name_kana": null
  },
  "2133": {
    "postcode": "7372133",
    "prefecture": "広島県",
    "prefecture_kana": "ヒロシマケン",
    "prefecture_code": 34,
    "city": "江田島市",
    "city_kana": "エタジマシ",
    "town": "江田島町鷲部",
    "town_kana": "エタジマチョウワシベ",
    "street": null,
    "office_name": null,
    "office_name_kana": null
  },
  "2193": {
    "postcode": "7372193",
    "prefecture": "広島県",
    "prefecture_kana": "ヒロシマケン",
    "prefecture_code": 34,
    "city": "江田島市",
    "city_kana": "エタジマシ",
    "town": "江田島町中央",
    "town_kana": "エタジマチョウチュウオウ",
    "street": "１丁目１−１",
    "office_name": "江田島市役所　江田島支所",
    "office_name_kana": "エタジマシヤクシヨ エダジマシシヨ"
  },
  "2195": {
    "postcode": "7372195",
    "prefecture": "広島県",
    "prefecture_kana": "ヒロシマケン",
    "prefecture_code": 34,
    "city": "江田島市",
    "city_kana": "エタジマシ",
    "town": "",
    "town_kana": "",
    "street": "",
    "office_name": "海上自衛隊　第一術科学校",
    "office_name_kana": "カイジヨウジエイタイ ダイイチジユツカガツコウ"
  },
  "2211": {
    "postcode": "7372211",
    "prefecture": "広島県",
    "prefecture_kana": "ヒロシマケン",
    "prefecture_code": 34,
    "city": "江田島市",
    "city_kana": "エタジマシ",
    "town": "大柿町柿浦",
    "town_kana": "オオガキチョウカキウラ",
    "street": null,
    "office_name": null,
    "office_name_kana": null
  },
  "2212": {
    "postcode": "7372212",
    "prefecture": "広島県",
    "prefecture_kana": "ヒロシマケン",
    "prefecture_code": 34,
    "city": "江田島市",
    "city_kana": "エタジマシ",
    "town": "大柿町大君",
    "town_kana": "オオガキチョウオオキミ",
    "street": null,
    "office_name": null,
    "office_name_kana": null
  },
  "2213": {
    "postcode": "7372213",
    "prefecture": "広島県",
    "prefecture_kana": "ヒロシマケン",
    "prefecture_code": 34,
    "city": "江田島市",
    "city_kana": "エタジマシ",
    "town": "大柿町大原",
    "town_kana": "オオガキチョウオオバラ",
    "street": null,
    "office_name": null,
    "office_name_kana": null
  },
  "2214": {
    "postcode": "7372214",
    "prefecture": "広島県",
    "prefecture_kana": "ヒロシマケン",
    "prefecture_code": 34,
    "city": "江田島市",
    "city_kana": "エタジマシ",
    "town": "大柿町深江",
    "town_kana": "オオガキチョウフカエ",
    "street": null,
    "office_name": null,
    "office_name_kana": null
  },
  "2215": {
    "postcode": "7372215",
    "prefecture": "広島県",
    "prefecture_kana": "ヒロシマケン",
    "prefecture_code": 34,
    "city": "江田島市",
    "city_kana": "エタジマシ",
    "town": "大柿町小古江",
    "town_kana": "オオガキチョウオブレ",
    "street": null,
    "office_name": null,
    "office_name_kana": null
  },
  "2293": {
    "postcode": "7372293",
    "prefecture": "広島県",
    "prefecture_kana": "ヒロシマケン",
    "prefecture_code": 34,
    "city": "江田島市",
    "city_kana": "エタジマシ",
    "town": "大柿町小古江",
    "town_kana": "オオガキチョウオブレ",
    "street": "１９８２−２",
    "office_name": "古澤建設工業　株式会社",
    "office_name_kana": "フルサワケンセツコウギヨウ カブシキガイシヤ"
  },
  "2295": {
    "postcode": "7372295",
    "prefecture": "広島県",
    "prefecture_kana": "ヒロシマケン",
    "prefecture_code": 34,
    "city": "江田島市",
    "city_kana": "エタジマシ",
    "town": "大柿町大原",
    "town_kana": "オオガキチョウオオバラ",
    "street": "５０５番地",
    "office_name": "江田島市福祉事務所",
    "office_name_kana": "エタジマシフクシジムシヨ"
  },
  "2297": {
    "postcode": "7372297",
    "prefecture": "広島県",
    "prefecture_kana": "ヒロシマケン",
    "prefecture_code": 34,
    "city": "江田島市",
    "city_kana": "エタジマシ",
    "town": "大柿町大原",
    "town_kana": "オオガキチョウオオバラ",
    "street": "５０５番地",
    "office_name": "江田島市役所",
    "office_name_kana": "エタジマシヤクシヨ"
  },
  "2301": {
    "postcode": "7372301",
    "prefecture": "広島県",
    "prefecture_kana": "ヒロシマケン",
    "prefecture_code": 34,
    "city": "江田島市",
    "city_kana": "エタジマシ",
    "town": "能美町中町",
    "town_kana": "ノウミチョウナカマチ",
    "street": null,
    "office_name": null,
    "office_name_kana": null
  },
  "2302": {
    "postcode": "7372302",
    "prefecture": "広島県",
    "prefecture_kana": "ヒロシマケン",
    "prefecture_code": 34,
    "city": "江田島市",
    "city_kana": "エタジマシ",
    "town": "能美町鹿川",
    "town_kana": "ノウミチョウカノカワ",
    "street": null,
    "office_name": null,
    "office_name_kana": null
  },
  "2303": {
    "postcode": "7372303",
    "prefecture": "広島県",
    "prefecture_kana": "ヒロシマケン",
    "prefecture_code": 34,
    "city": "江田島市",
    "city_kana": "エタジマシ",
    "town": "能美町高田",
    "town_kana": "ノウミチョウタカタ",
    "street": null,
    "office_name": null,
    "office_name_kana": null
  },
  "2311": {
    "postcode": "7372311",
    "prefecture": "広島県",
    "prefecture_kana": "ヒロシマケン",
    "prefecture_code": 34,
    "city": "江田島市",
    "city_kana": "エタジマシ",
    "town": "沖美町岡大王",
    "town_kana": "オキミチョウオカダイオウ",
    "street": null,
    "office_name": null,
    "office_name_kana": null
  },
  "2312": {
    "postcode": "7372312",
    "prefecture": "広島県",
    "prefecture_kana": "ヒロシマケン",
    "prefecture_code": 34,
    "city": "江田島市",
    "city_kana": "エタジマシ",
    "town": "沖美町畑",
    "town_kana": "オキミチョウハタ",
    "street": null,
    "office_name": null,
    "office_name_kana": null
  },
  "2313": {
    "postcode": "7372313",
    "prefecture": "広島県",
    "prefecture_kana": "ヒロシマケン",
    "prefecture_code": 34,
    "city": "江田島市",
    "city_kana": "エタジマシ",
    "town": "沖美町是長",
    "town_kana": "オキミチョウコレナガ",
    "street": null,
    "office_name": null,
    "office_name_kana": null
  },
  "2314": {
    "postcode": "7372314",
    "prefecture": "広島県",
    "prefecture_kana": "ヒロシマケン",
    "prefecture_code": 34,
    "city": "江田島市",
    "city_kana": "エタジマシ",
    "town": "沖美町美能",
    "town_kana": "オキミチョウミノウ",
    "street": null,
    "office_name": null,
    "office_name_kana": null
  },
  "2315": {
    "postcode": "7372315",
    "prefecture": "広島県",
    "prefecture_kana": "ヒロシマケン",
    "prefecture_code": 34,
    "city": "江田島市",
    "city_kana": "エタジマシ",
    "town": "沖美町高祖",
    "town_kana": "オキミチョウコウソ",
    "street": null,
    "office_name": null,
    "office_name_kana": null
  },
  "2316": {
    "postcode": "7372316",
    "prefecture": "広島県",
    "prefecture_kana": "ヒロシマケン",
    "prefecture_code": 34,
    "city": "江田島市",
    "city_kana": "エタジマシ",
    "town": "沖美町三吉",
    "town_kana": "オキミチョウミヨシ",
    "street": null,
    "office_name": null,
    "office_name_kana": null
  },
  "2393": {
    "postcode": "7372393",
    "prefecture": "広島県",
    "prefecture_kana": "ヒロシマケン",
    "prefecture_code": 34,
    "city": "江田島市",
    "city_kana": "エタジマシ",
    "town": "沖美町畑",
    "town_kana": "オキミチョウハタ",
    "street": "３５８番地",
    "office_name": "江田島市役所　沖美支所",
    "office_name_kana": "エタジマシヤクシヨ オキミシシヨ"
  },
  "2397": {
    "postcode": "7372397",
    "prefecture": "広島県",
    "prefecture_kana": "ヒロシマケン",
    "prefecture_code": 34,
    "city": "江田島市",
    "city_kana": "エタジマシ",
    "town": "能美町中町",
    "town_kana": "ノウミチョウナカマチ",
    "street": "４８５９番地９",
    "office_name": "江田島市役所　能美支所",
    "office_name_kana": "エタジマシヤクシヨ ノウミシシヨ"
  },
  "2501": {
    "postcode": "7372501",
    "prefecture": "広島県",
    "prefecture_kana": "ヒロシマケン",
    "prefecture_code": 34,
    "city": "呉市",
    "city_kana": "クレシ",
    "town": "安浦町女子畑",
    "town_kana": "ヤスウラチョウオナゴバタ",
    "street": null,
    "office_name": null,
    "office_name_kana": null
  },
  "2502": {
    "postcode": "7372502",
    "prefecture": "広島県",
    "prefecture_kana": "ヒロシマケン",
    "prefecture_code": 34,
    "city": "呉市",
    "city_kana": "クレシ",
    "town": "安浦町三津口",
    "town_kana": "ヤスウラチョウミツグチ",
    "street": null,
    "office_name": null,
    "office_name_kana": null
  },
  "2503": {
    "postcode": "7372503",
    "prefecture": "広島県",
    "prefecture_kana": "ヒロシマケン",
    "prefecture_code": 34,
    "city": "呉市",
    "city_kana": "クレシ",
    "town": "安浦町安登",
    "town_kana": "ヤスウラチョウアト",
    "street": null,
    "office_name": null,
    "office_name_kana": null
  },
  "2504": {
    "postcode": "7372504",
    "prefecture": "広島県",
    "prefecture_kana": "ヒロシマケン",
    "prefecture_code": 34,
    "city": "呉市",
    "city_kana": "クレシ",
    "town": "安浦町中切",
    "town_kana": "ヤスウラチョウナカギリ",
    "street": null,
    "office_name": null,
    "office_name_kana": null
  },
  "2505": {
    "postcode": "7372505",
    "prefecture": "広島県",
    "prefecture_kana": "ヒロシマケン",
    "prefecture_code": 34,
    "city": "呉市",
    "city_kana": "クレシ",
    "town": "安浦町内平",
    "town_kana": "ヤスウラチョウウチヒラ",
    "street": null,
    "office_name": null,
    "office_name_kana": null
  },
  "2506": {
    "postcode": "7372506",
    "prefecture": "広島県",
    "prefecture_kana": "ヒロシマケン",
    "prefecture_code": 34,
    "city": "呉市",
    "city_kana": "クレシ",
    "town": "安浦町原畑",
    "town_kana": "ヤスウラチョウハラハタ",
    "street": null,
    "office_name": null,
    "office_name_kana": null
  },
  "2507": {
    "postcode": "7372507",
    "prefecture": "広島県",
    "prefecture_kana": "ヒロシマケン",
    "prefecture_code": 34,
    "city": "呉市",
    "city_kana": "クレシ",
    "town": "安浦町内海",
    "town_kana": "ヤスウラチョウウチノウミ",
    "street": null,
    "office_name": null,
    "office_name_kana": null
  },
  "2508": {
    "postcode": "7372508",
    "prefecture": "広島県",
    "prefecture_kana": "ヒロシマケン",
    "prefecture_code": 34,
    "city": "呉市",
    "city_kana": "クレシ",
    "town": "安浦町中畑",
    "town_kana": "ヤスウラチョウナカハタ",
    "street": null,
    "office_name": null,
    "office_name_kana": null
  },
  "2509": {
    "postcode": "7372509",
    "prefecture": "広島県",
    "prefecture_kana": "ヒロシマケン",
    "prefecture_code": 34,
    "city": "呉市",
    "city_kana": "クレシ",
    "town": "安浦町下垣内",
    "town_kana": "ヤスウラチョウシモガウチ",
    "street": null,
    "office_name": null,
    "office_name_kana": null
  },
  "2511": {
    "postcode": "7372511",
    "prefecture": "広島県",
    "prefecture_kana": "ヒロシマケン",
    "prefecture_code": 34,
    "city": "呉市",
    "city_kana": "クレシ",
    "town": "安浦町赤向坂",
    "town_kana": "ヤスウラチョウアコウザカ",
    "street": null,
    "office_name": null,
    "office_name_kana": null
  },
  "2512": {
    "postcode": "7372512",
    "prefecture": "広島県",
    "prefecture_kana": "ヒロシマケン",
    "prefecture_code": 34,
    "city": "呉市",
    "city_kana": "クレシ",
    "town": "安浦町安登西",
    "town_kana": "ヤスウラチョウアトニシ",
    "street": null,
    "office_name": null,
    "office_name_kana": null
  },
  "2513": {
    "postcode": "7372513",
    "prefecture": "広島県",
    "prefecture_kana": "ヒロシマケン",
    "prefecture_code": 34,
    "city": "呉市",
    "city_kana": "クレシ",
    "town": "安浦町安登東",
    "town_kana": "ヤスウラチョウアトヒガシ",
    "street": null,
    "office_name": null,
    "office_name_kana": null
  },
  "2514": {
    "postcode": "7372514",
    "prefecture": "広島県",
    "prefecture_kana": "ヒロシマケン",
    "prefecture_code": 34,
    "city": "呉市",
    "city_kana": "クレシ",
    "town": "安浦町中央ハイツ",
    "town_kana": "ヤスウラチョウチュウオウハイツ",
    "street": null,
    "office_name": null,
    "office_name_kana": null
  },
  "2515": {
    "postcode": "7372515",
    "prefecture": "広島県",
    "prefecture_kana": "ヒロシマケン",
    "prefecture_code": 34,
    "city": "呉市",
    "city_kana": "クレシ",
    "town": "安浦町中央北",
    "town_kana": "ヤスウラチョウチュウオウキタ",
    "street": null,
    "office_name": null,
    "office_name_kana": null
  },
  "2516": {
    "postcode": "7372516",
    "prefecture": "広島県",
    "prefecture_kana": "ヒロシマケン",
    "prefecture_code": 34,
    "city": "呉市",
    "city_kana": "クレシ",
    "town": "安浦町中央",
    "town_kana": "ヤスウラチョウチュウオウ",
    "street": null,
    "office_name": null,
    "office_name_kana": null
  },
  "2517": {
    "postcode": "7372517",
    "prefecture": "広島県",
    "prefecture_kana": "ヒロシマケン",
    "prefecture_code": 34,
    "city": "呉市",
    "city_kana": "クレシ",
    "town": "安浦町水尻",
    "town_kana": "ヤスウラチョウミズシリ",
    "street": null,
    "office_name": null,
    "office_name_kana": null
  },
  "2518": {
    "postcode": "7372518",
    "prefecture": "広島県",
    "prefecture_kana": "ヒロシマケン",
    "prefecture_code": 34,
    "city": "呉市",
    "city_kana": "クレシ",
    "town": "安浦町内海北",
    "town_kana": "ヤスウラチョウウチノウミキタ",
    "street": null,
    "office_name": null,
    "office_name_kana": null
  },
  "2519": {
    "postcode": "7372519",
    "prefecture": "広島県",
    "prefecture_kana": "ヒロシマケン",
    "prefecture_code": 34,
    "city": "呉市",
    "city_kana": "クレシ",
    "town": "安浦町内海南",
    "town_kana": "ヤスウラチョウウチノウミミナミ",
    "street": null,
    "office_name": null,
    "office_name_kana": null
  },
  "2601": {
    "postcode": "7372601",
    "prefecture": "広島県",
    "prefecture_kana": "ヒロシマケン",
    "prefecture_code": 34,
    "city": "呉市",
    "city_kana": "クレシ",
    "town": "川尻町原山",
    "town_kana": "カワジリチョウハラヤマ",
    "street": null,
    "office_name": null,
    "office_name_kana": null
  },
  "2602": {
    "postcode": "7372602",
    "prefecture": "広島県",
    "prefecture_kana": "ヒロシマケン",
    "prefecture_code": 34,
    "city": "呉市",
    "city_kana": "クレシ",
    "town": "川尻町森",
    "town_kana": "カワジリチョウモリ",
    "street": null,
    "office_name": null,
    "office_name_kana": null
  },
  "2603": {
    "postcode": "7372603",
    "prefecture": "広島県",
    "prefecture_kana": "ヒロシマケン",
    "prefecture_code": 34,
    "city": "呉市",
    "city_kana": "クレシ",
    "town": "川尻町西",
    "town_kana": "カワジリチョウニシ",
    "street": null,
    "office_name": null,
    "office_name_kana": null
  },
  "2604": {
    "postcode": "7372604",
    "prefecture": "広島県",
    "prefecture_kana": "ヒロシマケン",
    "prefecture_code": 34,
    "city": "呉市",
    "city_kana": "クレシ",
    "town": "川尻町小仁方",
    "town_kana": "カワジリチョウコニガタ",
    "street": null,
    "office_name": null,
    "office_name_kana": null
  },
  "2605": {
    "postcode": "7372605",
    "prefecture": "広島県",
    "prefecture_kana": "ヒロシマケン",
    "prefecture_code": 34,
    "city": "呉市",
    "city_kana": "クレシ",
    "town": "川尻町久俊",
    "town_kana": "カワジリチョウクドシ",
    "street": null,
    "office_name": null,
    "office_name_kana": null
  },
  "2606": {
    "postcode": "7372606",
    "prefecture": "広島県",
    "prefecture_kana": "ヒロシマケン",
    "prefecture_code": 34,
    "city": "呉市",
    "city_kana": "クレシ",
    "town": "川尻町久筋",
    "town_kana": "カワジリチョウクスジ",
    "street": null,
    "office_name": null,
    "office_name_kana": null
  },
  "2607": {
    "postcode": "7372607",
    "prefecture": "広島県",
    "prefecture_kana": "ヒロシマケン",
    "prefecture_code": 34,
    "city": "呉市",
    "city_kana": "クレシ",
    "town": "川尻町東",
    "town_kana": "カワジリチョウヒガシ",
    "street": null,
    "office_name": null,
    "office_name_kana": null
  },
  "2608": {
    "postcode": "7372608",
    "prefecture": "広島県",
    "prefecture_kana": "ヒロシマケン",
    "prefecture_code": 34,
    "city": "呉市",
    "city_kana": "クレシ",
    "town": "川尻町小用",
    "town_kana": "カワジリチョウコヨウ",
    "street": null,
    "office_name": null,
    "office_name_kana": null
  },
  "2609": [
    {
      "postcode": "7372609",
      "prefecture": "広島県",
      "prefecture_kana": "ヒロシマケン",
      "prefecture_code": 34,
      "city": "呉市",
      "city_kana": "クレシ",
      "town": "川尻町野呂山",
      "town_kana": "カワジリチョウノロサン",
      "street": null,
      "office_name": null,
      "office_name_kana": null
    },
    {
      "postcode": "7372609",
      "prefecture": "広島県",
      "prefecture_kana": "ヒロシマケン",
      "prefecture_code": 34,
      "city": "呉市",
      "city_kana": "クレシ",
      "town": "仁方町",
      "town_kana": "ニガタチョウ",
      "street": null,
      "office_name": null,
      "office_name_kana": null
    },
    {
      "postcode": "7372609",
      "prefecture": "広島県",
      "prefecture_kana": "ヒロシマケン",
      "prefecture_code": 34,
      "city": "呉市",
      "city_kana": "クレシ",
      "town": "仁方町蕨谷",
      "town_kana": "ニガタチョウワラビタニ",
      "street": null,
      "office_name": null,
      "office_name_kana": null
    },
    {
      "postcode": "7372609",
      "prefecture": "広島県",
      "prefecture_kana": "ヒロシマケン",
      "prefecture_code": 34,
      "city": "呉市",
      "city_kana": "クレシ",
      "town": "野呂山",
      "town_kana": "ノロサン",
      "street": null,
      "office_name": null,
      "office_name_kana": null
    },
    {
      "postcode": "7372609",
      "prefecture": "広島県",
      "prefecture_kana": "ヒロシマケン",
      "prefecture_code": 34,
      "city": "呉市",
      "city_kana": "クレシ",
      "town": "広町",
      "town_kana": "ヒロマチ",
      "street": null,
      "office_name": null,
      "office_name_kana": null
    },
    {
      "postcode": "7372609",
      "prefecture": "広島県",
      "prefecture_kana": "ヒロシマケン",
      "prefecture_code": 34,
      "city": "呉市",
      "city_kana": "クレシ",
      "town": "広町一本杉",
      "town_kana": "ヒロマチイッポンスギ",
      "street": null,
      "office_name": null,
      "office_name_kana": null
    },
    {
      "postcode": "7372609",
      "prefecture": "広島県",
      "prefecture_kana": "ヒロシマケン",
      "prefecture_code": 34,
      "city": "呉市",
      "city_kana": "クレシ",
      "town": "安浦町中切",
      "town_kana": "ヤスウラチョウナカギリ",
      "street": null,
      "office_name": null,
      "office_name_kana": null
    },
    {
      "postcode": "7372609",
      "prefecture": "広島県",
      "prefecture_kana": "ヒロシマケン",
      "prefecture_code": 34,
      "city": "呉市",
      "city_kana": "クレシ",
      "town": "安浦町中切奥野原",
      "town_kana": "ヤスウラチョウナカギリオクノハラ",
      "street": null,
      "office_name": null,
      "office_name_kana": null
    },
    {
      "postcode": "7372609",
      "prefecture": "広島県",
      "prefecture_kana": "ヒロシマケン",
      "prefecture_code": 34,
      "city": "呉市",
      "city_kana": "クレシ",
      "town": "安浦町中畑",
      "town_kana": "ヤスウラチョウナカハタ",
      "street": null,
      "office_name": null,
      "office_name_kana": null
    },
    {
      "postcode": "7372609",
      "prefecture": "広島県",
      "prefecture_kana": "ヒロシマケン",
      "prefecture_code": 34,
      "city": "呉市",
      "city_kana": "クレシ",
      "town": "安浦町中畑鹿条原",
      "town_kana": "ヤスウラチョウナカハタカジョウハラ",
      "street": null,
      "office_name": null,
      "office_name_kana": null
    },
    {
      "postcode": "7372609",
      "prefecture": "広島県",
      "prefecture_kana": "ヒロシマケン",
      "prefecture_code": 34,
      "city": "呉市",
      "city_kana": "クレシ",
      "town": "安浦町中畑侍屋敷",
      "town_kana": "ヤスウラチョウナカハタサムライヤシキ",
      "street": null,
      "office_name": null,
      "office_name_kana": null
    },
    {
      "postcode": "7372609",
      "prefecture": "広島県",
      "prefecture_kana": "ヒロシマケン",
      "prefecture_code": 34,
      "city": "呉市",
      "city_kana": "クレシ",
      "town": "安浦町中畑膳棚山",
      "town_kana": "ヤスウラチョウナカハタゼンタナヤマ",
      "street": null,
      "office_name": null,
      "office_name_kana": null
    },
    {
      "postcode": "7372609",
      "prefecture": "広島県",
      "prefecture_kana": "ヒロシマケン",
      "prefecture_code": 34,
      "city": "呉市",
      "city_kana": "クレシ",
      "town": "安浦町中畑立小路",
      "town_kana": "ヤスウラチョウナカハタタテコウジ",
      "street": null,
      "office_name": null,
      "office_name_kana": null
    },
    {
      "postcode": "7372609",
      "prefecture": "広島県",
      "prefecture_kana": "ヒロシマケン",
      "prefecture_code": 34,
      "city": "呉市",
      "city_kana": "クレシ",
      "town": "安浦町中畑中央",
      "town_kana": "ヤスウラチョウナカハタチュウオウ",
      "street": null,
      "office_name": null,
      "office_name_kana": null
    },
    {
      "postcode": "7372609",
      "prefecture": "広島県",
      "prefecture_kana": "ヒロシマケン",
      "prefecture_code": 34,
      "city": "呉市",
      "city_kana": "クレシ",
      "town": "安浦町中畑東",
      "town_kana": "ヤスウラチョウナカハタヒガシ",
      "street": null,
      "office_name": null,
      "office_name_kana": null
    },
    {
      "postcode": "7372609",
      "prefecture": "広島県",
      "prefecture_kana": "ヒロシマケン",
      "prefecture_code": 34,
      "city": "呉市",
      "city_kana": "クレシ",
      "town": "安浦町野呂山",
      "town_kana": "ヤスウラチョウノロサン",
      "street": null,
      "office_name": null,
      "office_name_kana": null
    }
  ],
  "2614": {
    "postcode": "7372614",
    "prefecture": "広島県",
    "prefecture_kana": "ヒロシマケン",
    "prefecture_code": 34,
    "city": "呉市",
    "city_kana": "クレシ",
    "town": "川尻町大原",
    "town_kana": "カワジリチョウオオバラ",
    "street": null,
    "office_name": null,
    "office_name_kana": null
  },
  "2615": {
    "postcode": "7372615",
    "prefecture": "広島県",
    "prefecture_kana": "ヒロシマケン",
    "prefecture_code": 34,
    "city": "呉市",
    "city_kana": "クレシ",
    "town": "川尻町真光地",
    "town_kana": "カワジリチョウシンコウチ",
    "street": null,
    "office_name": null,
    "office_name_kana": null
  },
  "2616": {
    "postcode": "7372616",
    "prefecture": "広島県",
    "prefecture_kana": "ヒロシマケン",
    "prefecture_code": 34,
    "city": "呉市",
    "city_kana": "クレシ",
    "town": "川尻町水落",
    "town_kana": "カワジリチョウミズオチ",
    "street": null,
    "office_name": null,
    "office_name_kana": null
  },
  "2617": {
    "postcode": "7372617",
    "prefecture": "広島県",
    "prefecture_kana": "ヒロシマケン",
    "prefecture_code": 34,
    "city": "呉市",
    "city_kana": "クレシ",
    "town": "川尻町小畑",
    "town_kana": "カワジリチョウコバタ",
    "street": null,
    "office_name": null,
    "office_name_kana": null
  },
  "2631": {
    "postcode": "7372631",
    "prefecture": "広島県",
    "prefecture_kana": "ヒロシマケン",
    "prefecture_code": 34,
    "city": "呉市",
    "city_kana": "クレシ",
    "town": "川尻町板休",
    "town_kana": "カワジリチョウイタヤスミ",
    "street": null,
    "office_name": null,
    "office_name_kana": null
  },
  "2632": {
    "postcode": "7372632",
    "prefecture": "広島県",
    "prefecture_kana": "ヒロシマケン",
    "prefecture_code": 34,
    "city": "呉市",
    "city_kana": "クレシ",
    "town": "川尻町上畑",
    "town_kana": "カワジリチョウカンバタ",
    "street": null,
    "office_name": null,
    "office_name_kana": null
  },
  "2633": {
    "postcode": "7372633",
    "prefecture": "広島県",
    "prefecture_kana": "ヒロシマケン",
    "prefecture_code": 34,
    "city": "呉市",
    "city_kana": "クレシ",
    "town": "川尻町沖田",
    "town_kana": "カワジリチョウオキダ",
    "street": null,
    "office_name": null,
    "office_name_kana": null
  },
  "2634": {
    "postcode": "7372634",
    "prefecture": "広島県",
    "prefecture_kana": "ヒロシマケン",
    "prefecture_code": 34,
    "city": "呉市",
    "city_kana": "クレシ",
    "town": "川尻町岩戸",
    "town_kana": "カワジリチョウイワド",
    "street": null,
    "office_name": null,
    "office_name_kana": null
  },
  "2635": {
    "postcode": "7372635",
    "prefecture": "広島県",
    "prefecture_kana": "ヒロシマケン",
    "prefecture_code": 34,
    "city": "呉市",
    "city_kana": "クレシ",
    "town": "川尻町柳迫",
    "town_kana": "カワジリチョウヤナギサコ",
    "street": null,
    "office_name": null,
    "office_name_kana": null
  },
  "2636": {
    "postcode": "7372636",
    "prefecture": "広島県",
    "prefecture_kana": "ヒロシマケン",
    "prefecture_code": 34,
    "city": "呉市",
    "city_kana": "クレシ",
    "town": "川尻町才野谷",
    "town_kana": "カワジリチョウサイノタニ",
    "street": null,
    "office_name": null,
    "office_name_kana": null
  },
  "2637": {
    "postcode": "7372637",
    "prefecture": "広島県",
    "prefecture_kana": "ヒロシマケン",
    "prefecture_code": 34,
    "city": "呉市",
    "city_kana": "クレシ",
    "town": "川尻町後懸",
    "town_kana": "カワジリチョウウシロガケ",
    "street": null,
    "office_name": null,
    "office_name_kana": null
  },
  "8501": {
    "postcode": "7378501",
    "prefecture": "広島県",
    "prefecture_kana": "ヒロシマケン",
    "prefecture_code": 34,
    "city": "呉市",
    "city_kana": "クレシ",
    "town": "中央",
    "town_kana": "チュウオウ",
    "street": "４丁目１−６",
    "office_name": "呉市役所",
    "office_name_kana": "クレシヤクシヨ"
  },
  "8502": {
    "postcode": "7378502",
    "prefecture": "広島県",
    "prefecture_kana": "ヒロシマケン",
    "prefecture_code": 34,
    "city": "呉市",
    "city_kana": "クレシ",
    "town": "中央",
    "town_kana": "チュウオウ",
    "street": "３丁目１２−４",
    "office_name": "大之木建設　株式会社",
    "office_name_kana": "オオノキケンセツ カブシキガイシヤ"
  },
  "8503": {
    "postcode": "7378503",
    "prefecture": "広島県",
    "prefecture_kana": "ヒロシマケン",
    "prefecture_code": 34,
    "city": "呉市",
    "city_kana": "クレシ",
    "town": "中央",
    "town_kana": "チュウオウ",
    "street": "３丁目８−２１",
    "office_name": "株式会社　大之木ダイモ",
    "office_name_kana": "カブシキガイシヤ オオノキダイモ"
  },
  "8504": {
    "postcode": "7378504",
    "prefecture": "広島県",
    "prefecture_kana": "ヒロシマケン",
    "prefecture_code": 34,
    "city": "呉市",
    "city_kana": "クレシ",
    "town": "西中央",
    "town_kana": "ニシチュウオウ",
    "street": "１丁目３−２５",
    "office_name": "広島県呉地域事務所長",
    "office_name_kana": "ヒロシマケンクレチイキジムシヨチヨウ"
  },
  "8505": {
    "postcode": "7378505",
    "prefecture": "広島県",
    "prefecture_kana": "ヒロシマケン",
    "prefecture_code": 34,
    "city": "呉市",
    "city_kana": "クレシ",
    "town": "西中央",
    "town_kana": "ニシチュウオウ",
    "street": "２丁目３−２８",
    "office_name": "国家公務員共済組合連合会　呉共済病院",
    "office_name_kana": "コツカコウムインキヨウサイクミアイレンゴウカイ クレキヨウサイビヨウイン"
  },
  "8506": {
    "postcode": "7378506",
    "prefecture": "広島県",
    "prefecture_kana": "ヒロシマケン",
    "prefecture_code": 34,
    "city": "呉市",
    "city_kana": "クレシ",
    "town": "阿賀南",
    "town_kana": "アガミナミ",
    "street": "２丁目２−１１",
    "office_name": "呉工業高等専門学校",
    "office_name_kana": "クレコウギヨウコウトウセンモンガツコウ"
  },
  "8507": {
    "postcode": "7378507",
    "prefecture": "広島県",
    "prefecture_kana": "ヒロシマケン",
    "prefecture_code": 34,
    "city": "呉市",
    "city_kana": "クレシ",
    "town": "天応塩谷町",
    "town_kana": "テンノウシオヤチョウ",
    "street": "１−６",
    "office_name": "中国化薬　株式会社",
    "office_name_kana": "チユウゴクカヤク カブシキガイシヤ"
  },
  "8508": {
    "postcode": "7378508",
    "prefecture": "広島県",
    "prefecture_kana": "ヒロシマケン",
    "prefecture_code": 34,
    "city": "呉市",
    "city_kana": "クレシ",
    "town": "宝町",
    "town_kana": "タカラマチ",
    "street": "６番９号",
    "office_name": "三菱重工業　株式会社　呉工場",
    "office_name_kana": "ミツビシジユウコウギヨウ カブシキガイシヤ クレコウジヨウ"
  },
  "8509": {
    "postcode": "7378509",
    "prefecture": "広島県",
    "prefecture_kana": "ヒロシマケン",
    "prefecture_code": 34,
    "city": "呉市",
    "city_kana": "クレシ",
    "town": "中央",
    "town_kana": "チュウオウ",
    "street": "６丁目２番９号呉市つばき会館",
    "office_name": "呉市教育委員会",
    "office_name_kana": "クレシキヨウイクイインカイ"
  },
  "8512": {
    "postcode": "7378512",
    "prefecture": "広島県",
    "prefecture_kana": "ヒロシマケン",
    "prefecture_code": 34,
    "city": "呉市",
    "city_kana": "クレシ",
    "town": "若葉町",
    "town_kana": "ワカバチョウ",
    "street": "５−１",
    "office_name": "海上保安大学校",
    "office_name_kana": "カイジヨウホアンダイガツコウ"
  },
  "8513": {
    "postcode": "7378513",
    "prefecture": "広島県",
    "prefecture_kana": "ヒロシマケン",
    "prefecture_code": 34,
    "city": "呉市",
    "city_kana": "クレシ",
    "town": "築地町",
    "town_kana": "ツキジチョウ",
    "street": "１番２４号",
    "office_name": "株式会社　ダイクレ",
    "office_name_kana": "カブシキガイシヤ ダイクレ"
  },
  "8516": {
    "postcode": "7378516",
    "prefecture": "広島県",
    "prefecture_kana": "ヒロシマケン",
    "prefecture_code": 34,
    "city": "呉市",
    "city_kana": "クレシ",
    "town": "三条",
    "town_kana": "サンジョウ",
    "street": "２丁目４−１０",
    "office_name": "株式会社　シーエックスアール",
    "office_name_kana": "カブシキガイシヤ シ-エツクスア-ル"
  },
  "8517": {
    "postcode": "7378517",
    "prefecture": "広島県",
    "prefecture_kana": "ヒロシマケン",
    "prefecture_code": 34,
    "city": "呉市",
    "city_kana": "クレシ",
    "town": "中央",
    "town_kana": "チュウオウ",
    "street": "５丁目１２番２１号呉市福祉会館",
    "office_name": "社会福祉法人　呉市社会福祉協議会",
    "office_name_kana": "シヤカイフクシホウジン クレシシヤカイフクシキヨウギカイ"
  },
  "8518": {
    "postcode": "7378518",
    "prefecture": "広島県",
    "prefecture_kana": "ヒロシマケン",
    "prefecture_code": 34,
    "city": "呉市",
    "city_kana": "クレシ",
    "town": "吉浦新町",
    "town_kana": "ヨシウラシンマチ",
    "street": "２丁目３番２０号",
    "office_name": "クレトイシ　株式会社",
    "office_name_kana": "クレトイシ カブシキガイシヤ"
  },
  "8520": {
    "postcode": "7378520",
    "prefecture": "広島県",
    "prefecture_kana": "ヒロシマケン",
    "prefecture_code": 34,
    "city": "呉市",
    "city_kana": "クレシ",
    "town": "昭和町",
    "town_kana": "ショウワチョウ",
    "street": "１１−１",
    "office_name": "日新製鋼　株式会社　呉製鉄所",
    "office_name_kana": "ニツシンセイコウ カブシキガイシヤ クレセイテツシヨ"
  },
  "8541": {
    "postcode": "7378541",
    "prefecture": "広島県",
    "prefecture_kana": "ヒロシマケン",
    "prefecture_code": 34,
    "city": "呉市",
    "city_kana": "クレシ",
    "town": "天応大浜",
    "town_kana": "テンノウオオハマ",
    "street": "４丁目１−１",
    "office_name": "株式会社　ユーシン",
    "office_name_kana": "カブシキガイシヤ ユ-シン"
  },
  "8554": {
    "postcode": "7378554",
    "prefecture": "広島県",
    "prefecture_kana": "ヒロシマケン",
    "prefecture_code": 34,
    "city": "呉市",
    "city_kana": "クレシ",
    "town": "幸町",
    "town_kana": "サイワイチョウ",
    "street": "７−１",
    "office_name": "海上自衛隊　呉基地　業務隊",
    "office_name_kana": "カイジヨウジエイタイ クレキチ ギヨウムタイ"
  },
  "8609": {
    "postcode": "7378609",
    "prefecture": "広島県",
    "prefecture_kana": "ヒロシマケン",
    "prefecture_code": 34,
    "city": "呉市",
    "city_kana": "クレシ",
    "town": "西中央",
    "town_kana": "ニシチュウオウ",
    "street": "１丁目５−２",
    "office_name": "呉公共職業安定所",
    "office_name_kana": "クレコウキヨウシヨクギヨウアンテイジヨ"
  },
  "8611": {
    "postcode": "7378611",
    "prefecture": "広島県",
    "prefecture_kana": "ヒロシマケン",
    "prefecture_code": 34,
    "city": "呉市",
    "city_kana": "クレシ",
    "town": "本通",
    "town_kana": "ホンドオリ",
    "street": "２丁目３−７（呉郵便局私書箱第１７号）",
    "office_name": "株式会社　もみじ銀行　呉営業部",
    "office_name_kana": "カブシキガイシヤ モミジギンコウ クレエイギヨウブ"
  },
  "8650": {
    "postcode": "7378650",
    "prefecture": "広島県",
    "prefecture_kana": "ヒロシマケン",
    "prefecture_code": 34,
    "city": "呉市",
    "city_kana": "クレシ",
    "town": "中通",
    "town_kana": "ナカドオリ",
    "street": "２丁目５−８（呉郵便局私書箱第２３号）",
    "office_name": "株式会社　山口銀行　呉支店",
    "office_name_kana": "カブシキガイシヤ ヤマグチギンコウ クレシテン"
  },
  "8651": {
    "postcode": "7378651",
    "prefecture": "広島県",
    "prefecture_kana": "ヒロシマケン",
    "prefecture_code": 34,
    "city": "呉市",
    "city_kana": "クレシ",
    "town": "中央",
    "town_kana": "チュウオウ",
    "street": "１丁目６−２８（呉郵便局私書箱第２号）",
    "office_name": "株式会社　増岡組",
    "office_name_kana": "カブシキガイシヤ マスオカグミ"
  },
  "8652": {
    "postcode": "7378652",
    "prefecture": "広島県",
    "prefecture_kana": "ヒロシマケン",
    "prefecture_code": 34,
    "city": "呉市",
    "city_kana": "クレシ",
    "town": "中央",
    "town_kana": "チュウオウ",
    "street": "３丁目９番１５号（呉郵便局私書箱第１９号）",
    "office_name": "呉　税務署",
    "office_name_kana": "クレ ゼイムシヨ"
  },
  "8653": {
    "postcode": "7378653",
    "prefecture": "広島県",
    "prefecture_kana": "ヒロシマケン",
    "prefecture_code": 34,
    "city": "呉市",
    "city_kana": "クレシ",
    "town": "西中央",
    "town_kana": "ニシチュウオウ",
    "street": "１丁目２−２５（呉郵便局私書箱第３２号）",
    "office_name": "呉農業協同組合",
    "office_name_kana": "クレノウギヨウキヨウドウクミアイ"
  },
  "8686": {
    "postcode": "7378686",
    "prefecture": "広島県",
    "prefecture_kana": "ヒロシマケン",
    "prefecture_code": 34,
    "city": "呉市",
    "city_kana": "クレシ",
    "town": "本通",
    "town_kana": "ホンドオリ",
    "street": "２丁目２−１５（呉郵便局私書箱第２０号）",
    "office_name": "呉信用金庫",
    "office_name_kana": "クレシンヨウキンコ"
  }
}