{
  "0000": {
    "postcode": "7390000",
    "prefecture": "広島県",
    "prefecture_kana": "ヒロシマケン",
    "prefecture_code": 34,
    "city": "東広島市",
    "city_kana": "ヒガシヒロシマシ",
    "town": "",
    "town_kana": "",
    "street": null,
    "office_name": null,
    "office_name_kana": null
  },
  "0001": {
    "postcode": "7390001",
    "prefecture": "広島県",
    "prefecture_kana": "ヒロシマケン",
    "prefecture_code": 34,
    "city": "東広島市",
    "city_kana": "ヒガシヒロシマシ",
    "town": "西条町西条",
    "town_kana": "サイジョウチョウサイジョウ",
    "street": null,
    "office_name": null,
    "office_name_kana": null
  },
  "0002": {
    "postcode": "7390002",
    "prefecture": "広島県",
    "prefecture_kana": "ヒロシマケン",
    "prefecture_code": 34,
    "city": "東広島市",
    "city_kana": "ヒガシヒロシマシ",
    "town": "西条町吉行",
    "town_kana": "サイジョウチョウヨシユキ",
    "street": null,
    "office_name": null,
    "office_name_kana": null
  },
  "0003": {
    "postcode": "7390003",
    "prefecture": "広島県",
    "prefecture_kana": "ヒロシマケン",
    "prefecture_code": 34,
    "city": "東広島市",
    "city_kana": "ヒガシヒロシマシ",
    "town": "西条町土与丸",
    "town_kana": "サイジョウチョウドヨマル",
    "street": null,
    "office_name": null,
    "office_name_kana": null
  },
  "0004": {
    "postcode": "7390004",
    "prefecture": "広島県",
    "prefecture_kana": "ヒロシマケン",
    "prefecture_code": 34,
    "city": "東広島市",
    "city_kana": "ヒガシヒロシマシ",
    "town": "西条末広町",
    "town_kana": "サイジョウスエヒロチョウ",
    "street": null,
    "office_name": null,
    "office_name_kana": null
  },
  "0005": {
    "postcode": "7390005",
    "prefecture": "広島県",
    "prefecture_kana": "ヒロシマケン",
    "prefecture_code": 34,
    "city": "東広島市",
    "city_kana": "ヒガシヒロシマシ",
    "town": "西条大坪町",
    "town_kana": "サイジョウオオツボチョウ",
    "street": null,
    "office_name": null,
    "office_name_kana": null
  },
  "0006": {
    "postcode": "7390006",
    "prefecture": "広島県",
    "prefecture_kana": "ヒロシマケン",
    "prefecture_code": 34,
    "city": "東広島市",
    "city_kana": "ヒガシヒロシマシ",
    "town": "西条上市町",
    "town_kana": "サイジョウカミイチチョウ",
    "street": null,
    "office_name": null,
    "office_name_kana": null
  },
  "0007": {
    "postcode": "7390007",
    "prefecture": "広島県",
    "prefecture_kana": "ヒロシマケン",
    "prefecture_code": 34,
    "city": "東広島市",
    "city_kana": "ヒガシヒロシマシ",
    "town": "西条土与丸",
    "town_kana": "サイジョウドヨマル",
    "street": null,
    "office_name": null,
    "office_name_kana": null
  },
  "0008": {
    "postcode": "7390008",
    "prefecture": "広島県",
    "prefecture_kana": "ヒロシマケン",
    "prefecture_code": 34,
    "city": "東広島市",
    "city_kana": "ヒガシヒロシマシ",
    "town": "西条吉行東",
    "town_kana": "サイジョウヨシユキヒガシ",
    "street": null,
    "office_name": null,
    "office_name_kana": null
  },
  "0011": {
    "postcode": "7390011",
    "prefecture": "広島県",
    "prefecture_kana": "ヒロシマケン",
    "prefecture_code": 34,
    "city": "東広島市",
    "city_kana": "ヒガシヒロシマシ",
    "town": "西条本町",
    "town_kana": "サイジョウホンマチ",
    "street": null,
    "office_name": null,
    "office_name_kana": null
  },
  "0012": {
    "postcode": "7390012",
    "prefecture": "広島県",
    "prefecture_kana": "ヒロシマケン",
    "prefecture_code": 34,
    "city": "東広島市",
    "city_kana": "ヒガシヒロシマシ",
    "town": "西条朝日町",
    "town_kana": "サイジョウアサヒマチ",
    "street": null,
    "office_name": null,
    "office_name_kana": null
  },
  "0013": {
    "postcode": "7390013",
    "prefecture": "広島県",
    "prefecture_kana": "ヒロシマケン",
    "prefecture_code": 34,
    "city": "東広島市",
    "city_kana": "ヒガシヒロシマシ",
    "town": "西条御条町",
    "town_kana": "サイジョウゴジョウチョウ",
    "street": null,
    "office_name": null,
    "office_name_kana": null
  },
  "0014": {
    "postcode": "7390014",
    "prefecture": "広島県",
    "prefecture_kana": "ヒロシマケン",
    "prefecture_code": 34,
    "city": "東広島市",
    "city_kana": "ヒガシヒロシマシ",
    "town": "西条昭和町",
    "town_kana": "サイジョウショウワマチ",
    "street": null,
    "office_name": null,
    "office_name_kana": null
  },
  "0015": {
    "postcode": "7390015",
    "prefecture": "広島県",
    "prefecture_kana": "ヒロシマケン",
    "prefecture_code": 34,
    "city": "東広島市",
    "city_kana": "ヒガシヒロシマシ",
    "town": "西条栄町",
    "town_kana": "サイジョウサカエマチ",
    "street": null,
    "office_name": null,
    "office_name_kana": null
  },
  "0016": {
    "postcode": "7390016",
    "prefecture": "広島県",
    "prefecture_kana": "ヒロシマケン",
    "prefecture_code": 34,
    "city": "東広島市",
    "city_kana": "ヒガシヒロシマシ",
    "town": "西条岡町",
    "town_kana": "サイジョウオカマチ",
    "street": null,
    "office_name": null,
    "office_name_kana": null
  },
  "0021": {
    "postcode": "7390021",
    "prefecture": "広島県",
    "prefecture_kana": "ヒロシマケン",
    "prefecture_code": 34,
    "city": "東広島市",
    "city_kana": "ヒガシヒロシマシ",
    "town": "西条町助実",
    "town_kana": "サイジョウチョウスケザネ",
    "street": null,
    "office_name": null,
    "office_name_kana": null
  },
  "0022": {
    "postcode": "7390022",
    "prefecture": "広島県",
    "prefecture_kana": "ヒロシマケン",
    "prefecture_code": 34,
    "city": "東広島市",
    "city_kana": "ヒガシヒロシマシ",
    "town": "西条町上三永",
    "town_kana": "サイジョウチョウカミミナガ",
    "street": null,
    "office_name": null,
    "office_name_kana": null
  },
  "0023": {
    "postcode": "7390023",
    "prefecture": "広島県",
    "prefecture_kana": "ヒロシマケン",
    "prefecture_code": 34,
    "city": "東広島市",
    "city_kana": "ヒガシヒロシマシ",
    "town": "西条町下三永",
    "town_kana": "サイジョウチョウシモミナガ",
    "street": null,
    "office_name": null,
    "office_name_kana": null
  },
  "0024": {
    "postcode": "7390024",
    "prefecture": "広島県",
    "prefecture_kana": "ヒロシマケン",
    "prefecture_code": 34,
    "city": "東広島市",
    "city_kana": "ヒガシヒロシマシ",
    "town": "西条町御薗宇",
    "town_kana": "サイジョウチョウミソノウ",
    "street": null,
    "office_name": null,
    "office_name_kana": null
  },
  "0025": {
    "postcode": "7390025",
    "prefecture": "広島県",
    "prefecture_kana": "ヒロシマケン",
    "prefecture_code": 34,
    "city": "東広島市",
    "city_kana": "ヒガシヒロシマシ",
    "town": "西条中央",
    "town_kana": "サイジョウチュウオウ",
    "street": null,
    "office_name": null,
    "office_name_kana": null
  },
  "0026": {
    "postcode": "7390026",
    "prefecture": "広島県",
    "prefecture_kana": "ヒロシマケン",
    "prefecture_code": 34,
    "city": "東広島市",
    "city_kana": "ヒガシヒロシマシ",
    "town": "三永",
    "town_kana": "ミナガ",
    "street": null,
    "office_name": null,
    "office_name_kana": null
  },
  "0031": {
    "postcode": "7390031",
    "prefecture": "広島県",
    "prefecture_kana": "ヒロシマケン",
    "prefecture_code": 34,
    "city": "東広島市",
    "city_kana": "ヒガシヒロシマシ",
    "town": "西条町福本",
    "town_kana": "サイジョウチョウフクモト",
    "street": null,
    "office_name": null,
    "office_name_kana": null
  },
  "0032": {
    "postcode": "7390032",
    "prefecture": "広島県",
    "prefecture_kana": "ヒロシマケン",
    "prefecture_code": 34,
    "city": "東広島市",
    "city_kana": "ヒガシヒロシマシ",
    "town": "西条町森近",
    "town_kana": "サイジョウチョウモリチカ",
    "street": null,
    "office_name": null,
    "office_name_kana": null
  },
  "0033": {
    "postcode": "7390033",
    "prefecture": "広島県",
    "prefecture_kana": "ヒロシマケン",
    "prefecture_code": 34,
    "city": "東広島市",
    "city_kana": "ヒガシヒロシマシ",
    "town": "西条町馬木",
    "town_kana": "サイジョウチョウウマキ",
    "street": null,
    "office_name": null,
    "office_name_kana": null
  },
  "0034": {
    "postcode": "7390034",
    "prefecture": "広島県",
    "prefecture_kana": "ヒロシマケン",
    "prefecture_code": 34,
    "city": "東広島市",
    "city_kana": "ヒガシヒロシマシ",
    "town": "西条町大沢",
    "town_kana": "サイジョウチョウオオサワ",
    "street": null,
    "office_name": null,
    "office_name_kana": null
  },
  "0035": {
    "postcode": "7390035",
    "prefecture": "広島県",
    "prefecture_kana": "ヒロシマケン",
    "prefecture_code": 34,
    "city": "東広島市",
    "city_kana": "ヒガシヒロシマシ",
    "town": "西条町郷曽",
    "town_kana": "サイジョウチョウゴウソ",
    "street": null,
    "office_name": null,
    "office_name_kana": null
  },
  "0036": {
    "postcode": "7390036",
    "prefecture": "広島県",
    "prefecture_kana": "ヒロシマケン",
    "prefecture_code": 34,
    "city": "東広島市",
    "city_kana": "ヒガシヒロシマシ",
    "town": "西条町田口",
    "town_kana": "サイジョウチョウタグチ",
    "street": null,
    "office_name": null,
    "office_name_kana": null
  },
  "0037": {
    "postcode": "7390037",
    "prefecture": "広島県",
    "prefecture_kana": "ヒロシマケン",
    "prefecture_code": 34,
    "city": "東広島市",
    "city_kana": "ヒガシヒロシマシ",
    "town": "西大沢",
    "town_kana": "ニシオオサワ",
    "street": null,
    "office_name": null,
    "office_name_kana": null
  },
  "0038": {
    "postcode": "7390038",
    "prefecture": "広島県",
    "prefecture_kana": "ヒロシマケン",
    "prefecture_code": 34,
    "city": "東広島市",
    "city_kana": "ヒガシヒロシマシ",
    "town": "田口研究団地",
    "town_kana": "タグチケンキュウダンチ",
    "street": null,
    "office_name": null,
    "office_name_kana": null
  },
  "0040": {
    "postcode": "7390040",
    "prefecture": "広島県",
    "prefecture_kana": "ヒロシマケン",
    "prefecture_code": 34,
    "city": "東広島市",
    "city_kana": "ヒガシヒロシマシ",
    "town": "寺家駅前",
    "town_kana": "ジケエキマエ",
    "street": null,
    "office_name": null,
    "office_name_kana": null
  },
  "0041": {
    "postcode": "7390041",
    "prefecture": "広島県",
    "prefecture_kana": "ヒロシマケン",
    "prefecture_code": 34,
    "city": "東広島市",
    "city_kana": "ヒガシヒロシマシ",
    "town": "西条町寺家",
    "town_kana": "サイジョウチョウジケ",
    "street": null,
    "office_name": null,
    "office_name_kana": null
  },
  "0042": {
    "postcode": "7390042",
    "prefecture": "広島県",
    "prefecture_kana": "ヒロシマケン",
    "prefecture_code": 34,
    "city": "東広島市",
    "city_kana": "ヒガシヒロシマシ",
    "town": "西条町西条東",
    "town_kana": "サイジョウチョウサイジョウヒガシ",
    "street": null,
    "office_name": null,
    "office_name_kana": null
  },
  "0043": {
    "postcode": "7390043",
    "prefecture": "広島県",
    "prefecture_kana": "ヒロシマケン",
    "prefecture_code": 34,
    "city": "東広島市",
    "city_kana": "ヒガシヒロシマシ",
    "town": "西条西本町",
    "town_kana": "サイジョウニシホンマチ",
    "street": null,
    "office_name": null,
    "office_name_kana": null
  },
  "0044": {
    "postcode": "7390044",
    "prefecture": "広島県",
    "prefecture_kana": "ヒロシマケン",
    "prefecture_code": 34,
    "city": "東広島市",
    "city_kana": "ヒガシヒロシマシ",
    "town": "西条町下見",
    "town_kana": "サイジョウチョウシタミ",
    "street": null,
    "office_name": null,
    "office_name_kana": null
  },
  "0045": {
    "postcode": "7390045",
    "prefecture": "広島県",
    "prefecture_kana": "ヒロシマケン",
    "prefecture_code": 34,
    "city": "東広島市",
    "city_kana": "ヒガシヒロシマシ",
    "town": "鏡山北",
    "town_kana": "カガミヤマキタ",
    "street": null,
    "office_name": null,
    "office_name_kana": null
  },
  "0046": {
    "postcode": "7390046",
    "prefecture": "広島県",
    "prefecture_kana": "ヒロシマケン",
    "prefecture_code": 34,
    "city": "東広島市",
    "city_kana": "ヒガシヒロシマシ",
    "town": "鏡山",
    "town_kana": "カガミヤマ",
    "street": null,
    "office_name": null,
    "office_name_kana": null
  },
  "0047": {
    "postcode": "7390047",
    "prefecture": "広島県",
    "prefecture_kana": "ヒロシマケン",
    "prefecture_code": 34,
    "city": "東広島市",
    "city_kana": "ヒガシヒロシマシ",
    "town": "西条下見",
    "town_kana": "サイジョウシタミ",
    "street": null,
    "office_name": null,
    "office_name_kana": null
  },
  "0048": {
    "postcode": "7390048",
    "prefecture": "広島県",
    "prefecture_kana": "ヒロシマケン",
    "prefecture_code": 34,
    "city": "東広島市",
    "city_kana": "ヒガシヒロシマシ",
    "town": "西条東北町",
    "town_kana": "サイジョウヒガシキタマチ",
    "street": null,
    "office_name": null,
    "office_name_kana": null
  },
  "0049": {
    "postcode": "7390049",
    "prefecture": "広島県",
    "prefecture_kana": "ヒロシマケン",
    "prefecture_code": 34,
    "city": "東広島市",
    "city_kana": "ヒガシヒロシマシ",
    "town": "寺家産業団地",
    "town_kana": "ジケサンギョウダンチ",
    "street": null,
    "office_name": null,
    "office_name_kana": null
  },
  "0131": {
    "postcode": "7390131",
    "prefecture": "広島県",
    "prefecture_kana": "ヒロシマケン",
    "prefecture_code": 34,
    "city": "東広島市",
    "city_kana": "ヒガシヒロシマシ",
    "town": "八本松町篠",
    "town_kana": "ハチホンマツチョウササ",
    "street": null,
    "office_name": null,
    "office_name_kana": null
  },
  "0132": {
    "postcode": "7390132",
    "prefecture": "広島県",
    "prefecture_kana": "ヒロシマケン",
    "prefecture_code": 34,
    "city": "東広島市",
    "city_kana": "ヒガシヒロシマシ",
    "town": "八本松町正力",
    "town_kana": "ハチホンマツチョウショウリキ",
    "street": null,
    "office_name": null,
    "office_name_kana": null
  },
  "0133": {
    "postcode": "7390133",
    "prefecture": "広島県",
    "prefecture_kana": "ヒロシマケン",
    "prefecture_code": 34,
    "city": "東広島市",
    "city_kana": "ヒガシヒロシマシ",
    "town": "八本松町米満",
    "town_kana": "ハチホンマツチョウヨネミツ",
    "street": null,
    "office_name": null,
    "office_name_kana": null
  },
  "0141": {
    "postcode": "7390141",
    "prefecture": "広島県",
    "prefecture_kana": "ヒロシマケン",
    "prefecture_code": 34,
    "city": "東広島市",
    "city_kana": "ヒガシヒロシマシ",
    "town": "八本松町飯田",
    "town_kana": "ハチホンマツチョウイイダ",
    "street": null,
    "office_name": null,
    "office_name_kana": null
  },
  "0142": {
    "postcode": "7390142",
    "prefecture": "広島県",
    "prefecture_kana": "ヒロシマケン",
    "prefecture_code": 34,
    "city": "東広島市",
    "city_kana": "ヒガシヒロシマシ",
    "town": "八本松東",
    "town_kana": "ハチホンマツヒガシ",
    "street": null,
    "office_name": null,
    "office_name_kana": null
  },
  "0144": {
    "postcode": "7390144",
    "prefecture": "広島県",
    "prefecture_kana": "ヒロシマケン",
    "prefecture_code": 34,
    "city": "東広島市",
    "city_kana": "ヒガシヒロシマシ",
    "town": "八本松南",
    "town_kana": "ハチホンマツミナミ",
    "street": null,
    "office_name": null,
    "office_name_kana": null
  },
  "0145": {
    "postcode": "7390145",
    "prefecture": "広島県",
    "prefecture_kana": "ヒロシマケン",
    "prefecture_code": 34,
    "city": "東広島市",
    "city_kana": "ヒガシヒロシマシ",
    "town": "八本松町宗吉",
    "town_kana": "ハチホンマツチョウムネヨシ",
    "street": null,
    "office_name": null,
    "office_name_kana": null
  },
  "0146": {
    "postcode": "7390146",
    "prefecture": "広島県",
    "prefecture_kana": "ヒロシマケン",
    "prefecture_code": 34,
    "city": "東広島市",
    "city_kana": "ヒガシヒロシマシ",
    "town": "八本松飯田",
    "town_kana": "ハチホンマツイイダ",
    "street": null,
    "office_name": null,
    "office_name_kana": null
  },
  "0147": {
    "postcode": "7390147",
    "prefecture": "広島県",
    "prefecture_kana": "ヒロシマケン",
    "prefecture_code": 34,
    "city": "東広島市",
    "city_kana": "ヒガシヒロシマシ",
    "town": "八本松西",
    "town_kana": "ハチホンマツニシ",
    "street": null,
    "office_name": null,
    "office_name_kana": null
  },
  "0151": {
    "postcode": "7390151",
    "prefecture": "広島県",
    "prefecture_kana": "ヒロシマケン",
    "prefecture_code": 34,
    "city": "東広島市",
    "city_kana": "ヒガシヒロシマシ",
    "town": "八本松町原",
    "town_kana": "ハチホンマツチョウハラ",
    "street": null,
    "office_name": null,
    "office_name_kana": null
  },
  "0152": {
    "postcode": "7390152",
    "prefecture": "広島県",
    "prefecture_kana": "ヒロシマケン",
    "prefecture_code": 34,
    "city": "東広島市",
    "city_kana": "ヒガシヒロシマシ",
    "town": "八本松町吉川",
    "town_kana": "ハチホンマツチョウヨシカワ",
    "street": null,
    "office_name": null,
    "office_name_kana": null
  },
  "0153": {
    "postcode": "7390153",
    "prefecture": "広島県",
    "prefecture_kana": "ヒロシマケン",
    "prefecture_code": 34,
    "city": "東広島市",
    "city_kana": "ヒガシヒロシマシ",
    "town": "吉川工業団地",
    "town_kana": "ヨシカワコウギョウダンチ",
    "street": null,
    "office_name": null,
    "office_name_kana": null
  },
  "0192": {
    "postcode": "7390192",
    "prefecture": "広島県",
    "prefecture_kana": "ヒロシマケン",
    "prefecture_code": 34,
    "city": "東広島市",
    "city_kana": "ヒガシヒロシマシ",
    "town": "八本松飯田",
    "town_kana": "ハチホンマツイイダ",
    "street": "２丁目１３−１",
    "office_name": "シャープ　株式会社　通信システム事業本部",
    "office_name_kana": "シヤ-プ カブシキガイシヤ ツウシンシステムジギヨウホンブ"
  },
  "0193": {
    "postcode": "7390193",
    "prefecture": "広島県",
    "prefecture_kana": "ヒロシマケン",
    "prefecture_code": 34,
    "city": "東広島市",
    "city_kana": "ヒガシヒロシマシ",
    "town": "八本松町大字原",
    "town_kana": null,
    "street": "１７５−１",
    "office_name": "大協　株式会社",
    "office_name_kana": "ダイキヨ- カブシキガイシヤ"
  },
  "0198": {
    "postcode": "7390198",
    "prefecture": "広島県",
    "prefecture_kana": "ヒロシマケン",
    "prefecture_code": 34,
    "city": "東広島市",
    "city_kana": "ヒガシヒロシマシ",
    "town": "吉川工業団地",
    "town_kana": "ヨシカワコウギョウダンチ",
    "street": "７−１０",
    "office_name": "マイクロンメモリ　ジャパン　株式会社",
    "office_name_kana": "マイクロンメモリ ジヤパン カブシキガイシヤ"
  },
  "0261": {
    "postcode": "7390261",
    "prefecture": "広島県",
    "prefecture_kana": "ヒロシマケン",
    "prefecture_code": 34,
    "city": "東広島市",
    "city_kana": "ヒガシヒロシマシ",
    "town": "志和町内",
    "town_kana": "シワチョウウチ",
    "street": null,
    "office_name": null,
    "office_name_kana": null
  },
  "0262": {
    "postcode": "7390262",
    "prefecture": "広島県",
    "prefecture_kana": "ヒロシマケン",
    "prefecture_code": 34,
    "city": "東広島市",
    "city_kana": "ヒガシヒロシマシ",
    "town": "志和町志和東",
    "town_kana": "シワチョウシワヒガシ",
    "street": null,
    "office_name": null,
    "office_name_kana": null
  },
  "0263": {
    "postcode": "7390263",
    "prefecture": "広島県",
    "prefecture_kana": "ヒロシマケン",
    "prefecture_code": 34,
    "city": "東広島市",
    "city_kana": "ヒガシヒロシマシ",
    "town": "志和流通",
    "town_kana": "シワリュウツウ",
    "street": null,
    "office_name": null,
    "office_name_kana": null
  },
  "0264": {
    "postcode": "7390264",
    "prefecture": "広島県",
    "prefecture_kana": "ヒロシマケン",
    "prefecture_code": 34,
    "city": "東広島市",
    "city_kana": "ヒガシヒロシマシ",
    "town": "志和町七条椛坂",
    "town_kana": "シワチョウシチジョウカブサカ",
    "street": null,
    "office_name": null,
    "office_name_kana": null
  },
  "0265": {
    "postcode": "7390265",
    "prefecture": "広島県",
    "prefecture_kana": "ヒロシマケン",
    "prefecture_code": 34,
    "city": "東広島市",
    "city_kana": "ヒガシヒロシマシ",
    "town": "志和町冠",
    "town_kana": "シワチョウカンムリ",
    "street": null,
    "office_name": null,
    "office_name_kana": null
  },
  "0266": {
    "postcode": "7390266",
    "prefecture": "広島県",
    "prefecture_kana": "ヒロシマケン",
    "prefecture_code": 34,
    "city": "東広島市",
    "city_kana": "ヒガシヒロシマシ",
    "town": "志和町奥屋",
    "town_kana": "シワチョウオクヤ",
    "street": null,
    "office_name": null,
    "office_name_kana": null
  },
  "0267": {
    "postcode": "7390267",
    "prefecture": "広島県",
    "prefecture_kana": "ヒロシマケン",
    "prefecture_code": 34,
    "city": "東広島市",
    "city_kana": "ヒガシヒロシマシ",
    "town": "志和町別府",
    "town_kana": "シワチョウベフ",
    "street": null,
    "office_name": null,
    "office_name_kana": null
  },
  "0268": {
    "postcode": "7390268",
    "prefecture": "広島県",
    "prefecture_kana": "ヒロシマケン",
    "prefecture_code": 34,
    "city": "東広島市",
    "city_kana": "ヒガシヒロシマシ",
    "town": "志和町志和西",
    "town_kana": "シワチョウシワニシ",
    "street": null,
    "office_name": null,
    "office_name_kana": null
  },
  "0269": {
    "postcode": "7390269",
    "prefecture": "広島県",
    "prefecture_kana": "ヒロシマケン",
    "prefecture_code": 34,
    "city": "東広島市",
    "city_kana": "ヒガシヒロシマシ",
    "town": "志和町志和堀",
    "town_kana": "シワチョウシワホリ",
    "street": null,
    "office_name": null,
    "office_name_kana": null
  },
  "0301": {
    "postcode": "7390301",
    "prefecture": "広島県",
    "prefecture_kana": "ヒロシマケン",
    "prefecture_code": 34,
    "city": "広島市安芸区",
    "city_kana": "ヒロシマシアキク",
    "town": "上瀬野",
    "town_kana": "カミセノ",
    "street": null,
    "office_name": null,
    "office_name_kana": null
  },
  "0302": {
    "postcode": "7390302",
    "prefecture": "広島県",
    "prefecture_kana": "ヒロシマケン",
    "prefecture_code": 34,
    "city": "広島市安芸区",
    "city_kana": "ヒロシマシアキク",
    "town": "上瀬野町",
    "town_kana": "カミセノチョウ",
    "street": null,
    "office_name": null,
    "office_name_kana": null
  },
  "0303": {
    "postcode": "7390303",
    "prefecture": "広島県",
    "prefecture_kana": "ヒロシマケン",
    "prefecture_code": 34,
    "city": "広島市安芸区",
    "city_kana": "ヒロシマシアキク",
    "town": "上瀬野南",
    "town_kana": "カミセノミナミ",
    "street": null,
    "office_name": null,
    "office_name_kana": null
  },
  "0311": {
    "postcode": "7390311",
    "prefecture": "広島県",
    "prefecture_kana": "ヒロシマケン",
    "prefecture_code": 34,
    "city": "広島市安芸区",
    "city_kana": "ヒロシマシアキク",
    "town": "瀬野",
    "town_kana": "セノ",
    "street": null,
    "office_name": null,
    "office_name_kana": null
  },
  "0312": {
    "postcode": "7390312",
    "prefecture": "広島県",
    "prefecture_kana": "ヒロシマケン",
    "prefecture_code": 34,
    "city": "広島市安芸区",
    "city_kana": "ヒロシマシアキク",
    "town": "瀬野町",
    "town_kana": "セノチョウ",
    "street": null,
    "office_name": null,
    "office_name_kana": null
  },
  "0313": {
    "postcode": "7390313",
    "prefecture": "広島県",
    "prefecture_kana": "ヒロシマケン",
    "prefecture_code": 34,
    "city": "広島市安芸区",
    "city_kana": "ヒロシマシアキク",
    "town": "瀬野西",
    "town_kana": "セノニシ",
    "street": null,
    "office_name": null,
    "office_name_kana": null
  },
  "0314": {
    "postcode": "7390314",
    "prefecture": "広島県",
    "prefecture_kana": "ヒロシマケン",
    "prefecture_code": 34,
    "city": "広島市安芸区",
    "city_kana": "ヒロシマシアキク",
    "town": "瀬野南",
    "town_kana": "セノミナミ",
    "street": null,
    "office_name": null,
    "office_name_kana": null
  },
  "0315": {
    "postcode": "7390315",
    "prefecture": "広島県",
    "prefecture_kana": "ヒロシマケン",
    "prefecture_code": 34,
    "city": "広島市安芸区",
    "city_kana": "ヒロシマシアキク",
    "town": "瀬野南町",
    "town_kana": "セノミナミマチ",
    "street": null,
    "office_name": null,
    "office_name_kana": null
  },
  "0321": {
    "postcode": "7390321",
    "prefecture": "広島県",
    "prefecture_kana": "ヒロシマケン",
    "prefecture_code": 34,
    "city": "広島市安芸区",
    "city_kana": "ヒロシマシアキク",
    "town": "中野",
    "town_kana": "ナカノ",
    "street": null,
    "office_name": null,
    "office_name_kana": null
  },
  "0322": {
    "postcode": "7390322",
    "prefecture": "広島県",
    "prefecture_kana": "ヒロシマケン",
    "prefecture_code": 34,
    "city": "広島市安芸区",
    "city_kana": "ヒロシマシアキク",
    "town": "中野町",
    "town_kana": "ナカノチョウ",
    "street": null,
    "office_name": null,
    "office_name_kana": null
  },
  "0323": {
    "postcode": "7390323",
    "prefecture": "広島県",
    "prefecture_kana": "ヒロシマケン",
    "prefecture_code": 34,
    "city": "広島市安芸区",
    "city_kana": "ヒロシマシアキク",
    "town": "中野東",
    "town_kana": "ナカノヒガシ",
    "street": null,
    "office_name": null,
    "office_name_kana": null
  },
  "0324": {
    "postcode": "7390324",
    "prefecture": "広島県",
    "prefecture_kana": "ヒロシマケン",
    "prefecture_code": 34,
    "city": "広島市安芸区",
    "city_kana": "ヒロシマシアキク",
    "town": "中野東町",
    "town_kana": "ナカノヒガシマチ",
    "street": null,
    "office_name": null,
    "office_name_kana": null
  },
  "0401": {
    "postcode": "7390401",
    "prefecture": "広島県",
    "prefecture_kana": "ヒロシマケン",
    "prefecture_code": 34,
    "city": "廿日市市",
    "city_kana": "ハツカイチシ",
    "town": "福面",
    "town_kana": "フクメン",
    "street": null,
    "office_name": null,
    "office_name_kana": null
  },
  "0402": {
    "postcode": "7390402",
    "prefecture": "広島県",
    "prefecture_kana": "ヒロシマケン",
    "prefecture_code": 34,
    "city": "廿日市市",
    "city_kana": "ハツカイチシ",
    "town": "対厳山",
    "town_kana": "タイゲンザン",
    "street": null,
    "office_name": null,
    "office_name_kana": null
  },
  "0403": {
    "postcode": "7390403",
    "prefecture": "広島県",
    "prefecture_kana": "ヒロシマケン",
    "prefecture_code": 34,
    "city": "廿日市市",
    "city_kana": "ハツカイチシ",
    "town": "大野下更地",
    "town_kana": "オオノシモサラジ",
    "street": null,
    "office_name": null,
    "office_name_kana": null
  },
  "0404": {
    "postcode": "7390404",
    "prefecture": "広島県",
    "prefecture_kana": "ヒロシマケン",
    "prefecture_code": 34,
    "city": "廿日市市",
    "city_kana": "ハツカイチシ",
    "town": "大野十郎原",
    "town_kana": "オオノジュウロウバラ",
    "street": null,
    "office_name": null,
    "office_name_kana": null
  },
  "0405": {
    "postcode": "7390405",
    "prefecture": "広島県",
    "prefecture_kana": "ヒロシマケン",
    "prefecture_code": 34,
    "city": "廿日市市",
    "city_kana": "ハツカイチシ",
    "town": "大野戸石川",
    "town_kana": "オオノトイシガワ",
    "street": null,
    "office_name": null,
    "office_name_kana": null
  },
  "0406": {
    "postcode": "7390406",
    "prefecture": "広島県",
    "prefecture_kana": "ヒロシマケン",
    "prefecture_code": 34,
    "city": "廿日市市",
    "city_kana": "ハツカイチシ",
    "town": "大野中山",
    "town_kana": "オオノナカヤマ",
    "street": null,
    "office_name": null,
    "office_name_kana": null
  },
  "0407": {
    "postcode": "7390407",
    "prefecture": "広島県",
    "prefecture_kana": "ヒロシマケン",
    "prefecture_code": 34,
    "city": "廿日市市",
    "city_kana": "ハツカイチシ",
    "town": "大野上更地",
    "town_kana": "オオノカミサラジ",
    "street": null,
    "office_name": null,
    "office_name_kana": null
  },
  "0408": {
    "postcode": "7390408",
    "prefecture": "広島県",
    "prefecture_kana": "ヒロシマケン",
    "prefecture_code": 34,
    "city": "廿日市市",
    "city_kana": "ハツカイチシ",
    "town": "大野鯛ノ原",
    "town_kana": "オオノタイノハラ",
    "street": null,
    "office_name": null,
    "office_name_kana": null
  },
  "0411": {
    "postcode": "7390411",
    "prefecture": "広島県",
    "prefecture_kana": "ヒロシマケン",
    "prefecture_code": 34,
    "city": "廿日市市",
    "city_kana": "ハツカイチシ",
    "town": "宮島口",
    "town_kana": "ミヤジマグチ",
    "street": null,
    "office_name": null,
    "office_name_kana": null
  },
  "0412": {
    "postcode": "7390412",
    "prefecture": "広島県",
    "prefecture_kana": "ヒロシマケン",
    "prefecture_code": 34,
    "city": "廿日市市",
    "city_kana": "ハツカイチシ",
    "town": "宮島口西",
    "town_kana": "ミヤジマグチニシ",
    "street": null,
    "office_name": null,
    "office_name_kana": null
  },
  "0413": {
    "postcode": "7390413",
    "prefecture": "広島県",
    "prefecture_kana": "ヒロシマケン",
    "prefecture_code": 34,
    "city": "廿日市市",
    "city_kana": "ハツカイチシ",
    "town": "宮島口上",
    "town_kana": "ミヤジマグチウエ",
    "street": null,
    "office_name": null,
    "office_name_kana": null
  },
  "0414": {
    "postcode": "7390414",
    "prefecture": "広島県",
    "prefecture_kana": "ヒロシマケン",
    "prefecture_code": 34,
    "city": "廿日市市",
    "city_kana": "ハツカイチシ",
    "town": "宮島口東",
    "town_kana": "ミヤジマグチヒガシ",
    "street": null,
    "office_name": null,
    "office_name_kana": null
  },
  "0421": {
    "postcode": "7390421",
    "prefecture": "広島県",
    "prefecture_kana": "ヒロシマケン",
    "prefecture_code": 34,
    "city": "廿日市市",
    "city_kana": "ハツカイチシ",
    "town": "深江",
    "town_kana": "フカエ",
    "street": null,
    "office_name": null,
    "office_name_kana": null
  },
  "0422": {
    "postcode": "7390422",
    "prefecture": "広島県",
    "prefecture_kana": "ヒロシマケン",
    "prefecture_code": 34,
    "city": "廿日市市",
    "city_kana": "ハツカイチシ",
    "town": "大野早時",
    "town_kana": "オオノソウトキ",
    "street": null,
    "office_name": null,
    "office_name_kana": null
  },
  "0423": {
    "postcode": "7390423",
    "prefecture": "広島県",
    "prefecture_kana": "ヒロシマケン",
    "prefecture_code": 34,
    "city": "廿日市市",
    "city_kana": "ハツカイチシ",
    "town": "大野賀撫津",
    "town_kana": "オオノガブツ",
    "street": null,
    "office_name": null,
    "office_name_kana": null
  },
  "0424": {
    "postcode": "7390424",
    "prefecture": "広島県",
    "prefecture_kana": "ヒロシマケン",
    "prefecture_code": 34,
    "city": "廿日市市",
    "city_kana": "ハツカイチシ",
    "town": "前空",
    "town_kana": "マエゾラ",
    "street": null,
    "office_name": null,
    "office_name_kana": null
  },
  "0425": {
    "postcode": "7390425",
    "prefecture": "広島県",
    "prefecture_kana": "ヒロシマケン",
    "prefecture_code": 34,
    "city": "廿日市市",
    "city_kana": "ハツカイチシ",
    "town": "物見西",
    "town_kana": "モノミニシ",
    "street": null,
    "office_name": null,
    "office_name_kana": null
  },
  "0426": {
    "postcode": "7390426",
    "prefecture": "広島県",
    "prefecture_kana": "ヒロシマケン",
    "prefecture_code": 34,
    "city": "廿日市市",
    "city_kana": "ハツカイチシ",
    "town": "物見東",
    "town_kana": "モノミヒガシ",
    "street": null,
    "office_name": null,
    "office_name_kana": null
  },
  "0432": {
    "postcode": "7390432",
    "prefecture": "広島県",
    "prefecture_kana": "ヒロシマケン",
    "prefecture_code": 34,
    "city": "廿日市市",
    "city_kana": "ハツカイチシ",
    "town": "上の浜",
    "town_kana": "カミノハマ",
    "street": null,
    "office_name": null,
    "office_name_kana": null
  },
  "0433": {
    "postcode": "7390433",
    "prefecture": "広島県",
    "prefecture_kana": "ヒロシマケン",
    "prefecture_code": 34,
    "city": "廿日市市",
    "city_kana": "ハツカイチシ",
    "town": "下の浜",
    "town_kana": "シモノハマ",
    "street": null,
    "office_name": null,
    "office_name_kana": null
  },
  "0434": {
    "postcode": "7390434",
    "prefecture": "広島県",
    "prefecture_kana": "ヒロシマケン",
    "prefecture_code": 34,
    "city": "廿日市市",
    "city_kana": "ハツカイチシ",
    "town": "大野",
    "town_kana": "オオノ",
    "street": null,
    "office_name": null,
    "office_name_kana": null
  },
  "0437": {
    "postcode": "7390437",
    "prefecture": "広島県",
    "prefecture_kana": "ヒロシマケン",
    "prefecture_code": 34,
    "city": "廿日市市",
    "city_kana": "ハツカイチシ",
    "town": "大野中央",
    "town_kana": "オオノチュウオウ",
    "street": null,
    "office_name": null,
    "office_name_kana": null
  },
  "0441": {
    "postcode": "7390441",
    "prefecture": "広島県",
    "prefecture_kana": "ヒロシマケン",
    "prefecture_code": 34,
    "city": "廿日市市",
    "city_kana": "ハツカイチシ",
    "town": "大野原",
    "town_kana": "オオノハラ",
    "street": null,
    "office_name": null,
    "office_name_kana": null
  },
  "0442": {
    "postcode": "7390442",
    "prefecture": "広島県",
    "prefecture_kana": "ヒロシマケン",
    "prefecture_code": 34,
    "city": "廿日市市",
    "city_kana": "ハツカイチシ",
    "town": "梅原",
    "town_kana": "ウメハラ",
    "street": null,
    "office_name": null,
    "office_name_kana": null
  },
  "0443": {
    "postcode": "7390443",
    "prefecture": "広島県",
    "prefecture_kana": "ヒロシマケン",
    "prefecture_code": 34,
    "city": "廿日市市",
    "city_kana": "ハツカイチシ",
    "town": "沖塩屋",
    "town_kana": "オキシオヤ",
    "street": null,
    "office_name": null,
    "office_name_kana": null
  },
  "0444": {
    "postcode": "7390444",
    "prefecture": "広島県",
    "prefecture_kana": "ヒロシマケン",
    "prefecture_code": 34,
    "city": "廿日市市",
    "city_kana": "ハツカイチシ",
    "town": "林が原",
    "town_kana": "ハヤシガハラ",
    "street": null,
    "office_name": null,
    "office_name_kana": null
  },
  "0445": {
    "postcode": "7390445",
    "prefecture": "広島県",
    "prefecture_kana": "ヒロシマケン",
    "prefecture_code": 34,
    "city": "廿日市市",
    "city_kana": "ハツカイチシ",
    "town": "塩屋",
    "town_kana": "シオヤ",
    "street": null,
    "office_name": null,
    "office_name_kana": null
  },
  "0446": {
    "postcode": "7390446",
    "prefecture": "広島県",
    "prefecture_kana": "ヒロシマケン",
    "prefecture_code": 34,
    "city": "廿日市市",
    "city_kana": "ハツカイチシ",
    "town": "大野小山",
    "town_kana": "オオノコヤマ",
    "street": null,
    "office_name": null,
    "office_name_kana": null
  },
  "0452": {
    "postcode": "7390452",
    "prefecture": "広島県",
    "prefecture_kana": "ヒロシマケン",
    "prefecture_code": 34,
    "city": "廿日市市",
    "city_kana": "ハツカイチシ",
    "town": "丸石",
    "town_kana": "マルイシ",
    "street": null,
    "office_name": null,
    "office_name_kana": null
  },
  "0454": {
    "postcode": "7390454",
    "prefecture": "広島県",
    "prefecture_kana": "ヒロシマケン",
    "prefecture_code": 34,
    "city": "廿日市市",
    "city_kana": "ハツカイチシ",
    "town": "宮浜温泉",
    "town_kana": "ミヤハマオンセン",
    "street": null,
    "office_name": null,
    "office_name_kana": null
  },
  "0455": {
    "postcode": "7390455",
    "prefecture": "広島県",
    "prefecture_kana": "ヒロシマケン",
    "prefecture_code": 34,
    "city": "廿日市市",
    "city_kana": "ハツカイチシ",
    "town": "八坂",
    "town_kana": "ハッサカ",
    "street": null,
    "office_name": null,
    "office_name_kana": null
  },
  "0456": {
    "postcode": "7390456",
    "prefecture": "広島県",
    "prefecture_kana": "ヒロシマケン",
    "prefecture_code": 34,
    "city": "廿日市市",
    "city_kana": "ハツカイチシ",
    "town": "大野垣ノ浦",
    "town_kana": "オオノカキノウラ",
    "street": null,
    "office_name": null,
    "office_name_kana": null
  },
  "0457": {
    "postcode": "7390457",
    "prefecture": "広島県",
    "prefecture_kana": "ヒロシマケン",
    "prefecture_code": 34,
    "city": "廿日市市",
    "city_kana": "ハツカイチシ",
    "town": "大野下灘",
    "town_kana": "オオノシモナダ",
    "street": null,
    "office_name": null,
    "office_name_kana": null
  },
  "0458": {
    "postcode": "7390458",
    "prefecture": "広島県",
    "prefecture_kana": "ヒロシマケン",
    "prefecture_code": 34,
    "city": "廿日市市",
    "city_kana": "ハツカイチシ",
    "town": "大野鳴川",
    "town_kana": "オオノナルカワ",
    "street": null,
    "office_name": null,
    "office_name_kana": null
  },
  "0459": {
    "postcode": "7390459",
    "prefecture": "広島県",
    "prefecture_kana": "ヒロシマケン",
    "prefecture_code": 34,
    "city": "廿日市市",
    "city_kana": "ハツカイチシ",
    "town": "大野四十八坂",
    "town_kana": "オオノシジュウハッサカ",
    "street": null,
    "office_name": null,
    "office_name_kana": null
  },
  "0461": {
    "postcode": "7390461",
    "prefecture": "広島県",
    "prefecture_kana": "ヒロシマケン",
    "prefecture_code": 34,
    "city": "廿日市市",
    "city_kana": "ハツカイチシ",
    "town": "大野郷",
    "town_kana": "オオノゴウ",
    "street": null,
    "office_name": null,
    "office_name_kana": null
  },
  "0462": {
    "postcode": "7390462",
    "prefecture": "広島県",
    "prefecture_kana": "ヒロシマケン",
    "prefecture_code": 34,
    "city": "廿日市市",
    "city_kana": "ハツカイチシ",
    "town": "大野陣場",
    "town_kana": "オオノジンバ",
    "street": null,
    "office_name": null,
    "office_name_kana": null
  },
  "0463": {
    "postcode": "7390463",
    "prefecture": "広島県",
    "prefecture_kana": "ヒロシマケン",
    "prefecture_code": 34,
    "city": "廿日市市",
    "city_kana": "ハツカイチシ",
    "town": "大野小田ノ口",
    "town_kana": "オオノオダノクチ",
    "street": null,
    "office_name": null,
    "office_name_kana": null
  },
  "0464": {
    "postcode": "7390464",
    "prefecture": "広島県",
    "prefecture_kana": "ヒロシマケン",
    "prefecture_code": 34,
    "city": "廿日市市",
    "city_kana": "ハツカイチシ",
    "town": "大野水ノ越",
    "town_kana": "オオノミノコシ",
    "street": null,
    "office_name": null,
    "office_name_kana": null
  },
  "0466": {
    "postcode": "7390466",
    "prefecture": "広島県",
    "prefecture_kana": "ヒロシマケン",
    "prefecture_code": 34,
    "city": "廿日市市",
    "city_kana": "ハツカイチシ",
    "town": "大野滝ノ下",
    "town_kana": "オオノタキノシタ",
    "street": null,
    "office_name": null,
    "office_name_kana": null
  },
  "0467": {
    "postcode": "7390467",
    "prefecture": "広島県",
    "prefecture_kana": "ヒロシマケン",
    "prefecture_code": 34,
    "city": "廿日市市",
    "city_kana": "ハツカイチシ",
    "town": "大野中津岡",
    "town_kana": "オオノナカツオカ",
    "street": null,
    "office_name": null,
    "office_name_kana": null
  },
  "0471": {
    "postcode": "7390471",
    "prefecture": "広島県",
    "prefecture_kana": "ヒロシマケン",
    "prefecture_code": 34,
    "city": "廿日市市",
    "city_kana": "ハツカイチシ",
    "town": "大野別府",
    "town_kana": "オオノベフ",
    "street": null,
    "office_name": null,
    "office_name_kana": null
  },
  "0472": {
    "postcode": "7390472",
    "prefecture": "広島県",
    "prefecture_kana": "ヒロシマケン",
    "prefecture_code": 34,
    "city": "廿日市市",
    "city_kana": "ハツカイチシ",
    "town": "大野棚田",
    "town_kana": "オオノタナダ",
    "street": null,
    "office_name": null,
    "office_name_kana": null
  },
  "0473": {
    "postcode": "7390473",
    "prefecture": "広島県",
    "prefecture_kana": "ヒロシマケン",
    "prefecture_code": 34,
    "city": "廿日市市",
    "city_kana": "ハツカイチシ",
    "town": "大野田屋",
    "town_kana": "オオノタヤ",
    "street": null,
    "office_name": null,
    "office_name_kana": null
  },
  "0474": {
    "postcode": "7390474",
    "prefecture": "広島県",
    "prefecture_kana": "ヒロシマケン",
    "prefecture_code": 34,
    "city": "廿日市市",
    "city_kana": "ハツカイチシ",
    "town": "大野土井",
    "town_kana": "オオノドイ",
    "street": null,
    "office_name": null,
    "office_name_kana": null
  },
  "0475": {
    "postcode": "7390475",
    "prefecture": "広島県",
    "prefecture_kana": "ヒロシマケン",
    "prefecture_code": 34,
    "city": "廿日市市",
    "city_kana": "ハツカイチシ",
    "town": "大野高畑",
    "town_kana": "オオノタカバタケ",
    "street": null,
    "office_name": null,
    "office_name_kana": null
  },
  "0476": {
    "postcode": "7390476",
    "prefecture": "広島県",
    "prefecture_kana": "ヒロシマケン",
    "prefecture_code": 34,
    "city": "廿日市市",
    "city_kana": "ハツカイチシ",
    "town": "大野高見",
    "town_kana": "オオノタカミ",
    "street": null,
    "office_name": null,
    "office_name_kana": null
  },
  "0477": {
    "postcode": "7390477",
    "prefecture": "広島県",
    "prefecture_kana": "ヒロシマケン",
    "prefecture_code": 34,
    "city": "廿日市市",
    "city_kana": "ハツカイチシ",
    "town": "大野水口",
    "town_kana": "オオノミズグチ",
    "street": null,
    "office_name": null,
    "office_name_kana": null
  },
  "0478": {
    "postcode": "7390478",
    "prefecture": "広島県",
    "prefecture_kana": "ヒロシマケン",
    "prefecture_code": 34,
    "city": "廿日市市",
    "city_kana": "ハツカイチシ",
    "town": "大野筏津",
    "town_kana": "オオノイカナヅ",
    "street": null,
    "office_name": null,
    "office_name_kana": null
  },
  "0479": {
    "postcode": "7390479",
    "prefecture": "広島県",
    "prefecture_kana": "ヒロシマケン",
    "prefecture_code": 34,
    "city": "廿日市市",
    "city_kana": "ハツカイチシ",
    "town": "大野池田",
    "town_kana": "オオノイケダ",
    "street": null,
    "office_name": null,
    "office_name_kana": null
  },
  "0481": {
    "postcode": "7390481",
    "prefecture": "広島県",
    "prefecture_kana": "ヒロシマケン",
    "prefecture_code": 34,
    "city": "廿日市市",
    "city_kana": "ハツカイチシ",
    "town": "大野",
    "town_kana": "オオノ",
    "street": "亀ヶ岡７０１",
    "office_name": "海の見える杜美術館",
    "office_name_kana": "ウミノミエルモリビジユツカン"
  },
  "0488": {
    "postcode": "7390488",
    "prefecture": "広島県",
    "prefecture_kana": "ヒロシマケン",
    "prefecture_code": 34,
    "city": "廿日市市",
    "city_kana": "ハツカイチシ",
    "town": "大野",
    "town_kana": "オオノ",
    "street": null,
    "office_name": null,
    "office_name_kana": null
  },
  "0492": {
    "postcode": "7390492",
    "prefecture": "広島県",
    "prefecture_kana": "ヒロシマケン",
    "prefecture_code": 34,
    "city": "廿日市市",
    "city_kana": "ハツカイチシ",
    "town": "大野",
    "town_kana": "オオノ",
    "street": "１丁目１−１",
    "office_name": "廿日市市役所　大野支所",
    "office_name_kana": "ハツカイチシヤクシヨ オオノシシヨ"
  },
  "0494": {
    "postcode": "7390494",
    "prefecture": "広島県",
    "prefecture_kana": "ヒロシマケン",
    "prefecture_code": 34,
    "city": "廿日市市",
    "city_kana": "ハツカイチシ",
    "town": "梅原",
    "town_kana": "ウメハラ",
    "street": "１丁目１１−１３",
    "office_name": "フマキラー　株式会社",
    "office_name_kana": "フマキラ- カブシキガイシヤ"
  },
  "0495": {
    "postcode": "7390495",
    "prefecture": "広島県",
    "prefecture_kana": "ヒロシマケン",
    "prefecture_code": 34,
    "city": "廿日市市",
    "city_kana": "ハツカイチシ",
    "town": "大野原",
    "town_kana": "オオノハラ",
    "street": "１丁目２−１０",
    "office_name": "生活協同組合　広島",
    "office_name_kana": "セイカツキヨウドウクミアイ ヒロシマ"
  },
  "0496": {
    "postcode": "7390496",
    "prefecture": "広島県",
    "prefecture_kana": "ヒロシマケン",
    "prefecture_code": 34,
    "city": "廿日市市",
    "city_kana": "ハツカイチシ",
    "town": "大野原",
    "town_kana": "オオノハラ",
    "street": "１丁目２−１０",
    "office_name": "生活協同組合連合会　コープ中国四国事業連合",
    "office_name_kana": "セイカツキヨウドウクミアイレンゴウカイ コ-プチユウゴクシコクジギヨウレンゴウ"
  },
  "0497": {
    "postcode": "7390497",
    "prefecture": "広島県",
    "prefecture_kana": "ヒロシマケン",
    "prefecture_code": 34,
    "city": "廿日市市",
    "city_kana": "ハツカイチシ",
    "town": "大野",
    "town_kana": "オオノ",
    "street": "３３７番地４",
    "office_name": "チチヤス　株式会社",
    "office_name_kana": "チチヤス カブシキガイシヤ"
  },
  "0501": [
    {
      "postcode": "7390501",
      "prefecture": "広島県",
      "prefecture_kana": "ヒロシマケン",
      "prefecture_code": 34,
      "city": "廿日市市",
      "city_kana": "ハツカイチシ",
      "town": "宮島町",
      "town_kana": "ミヤジマチョウ",
      "street": null,
      "office_name": null,
      "office_name_kana": null
    },
    {
      "postcode": "7390501",
      "prefecture": "広島県",
      "prefecture_kana": "ヒロシマケン",
      "prefecture_code": 34,
      "city": "廿日市市",
      "city_kana": "ハツカイチシ",
      "town": "宮島町杉之浦",
      "town_kana": "ミヤジマチョウスギノウラ",
      "street": null,
      "office_name": null,
      "office_name_kana": null
    }
  ],
  "0502": {
    "postcode": "7390502",
    "prefecture": "広島県",
    "prefecture_kana": "ヒロシマケン",
    "prefecture_code": 34,
    "city": "廿日市市",
    "city_kana": "ハツカイチシ",
    "town": "宮島町",
    "town_kana": "ミヤジマチョウ",
    "street": null,
    "office_name": null,
    "office_name_kana": null
  },
  "0503": [
    {
      "postcode": "7390503",
      "prefecture": "広島県",
      "prefecture_kana": "ヒロシマケン",
      "prefecture_code": 34,
      "city": "廿日市市",
      "city_kana": "ハツカイチシ",
      "town": "宮島町",
      "town_kana": "ミヤジマチョウ",
      "street": null,
      "office_name": null,
      "office_name_kana": null
    },
    {
      "postcode": "7390503",
      "prefecture": "広島県",
      "prefecture_kana": "ヒロシマケン",
      "prefecture_code": 34,
      "city": "廿日市市",
      "city_kana": "ハツカイチシ",
      "town": "宮島町ひの木団地",
      "town_kana": "ミヤジマチョウヒノキダンチ",
      "street": null,
      "office_name": null,
      "office_name_kana": null
    }
  ],
  "0504": [
    {
      "postcode": "7390504",
      "prefecture": "広島県",
      "prefecture_kana": "ヒロシマケン",
      "prefecture_code": 34,
      "city": "廿日市市",
      "city_kana": "ハツカイチシ",
      "town": "宮島町",
      "town_kana": "ミヤジマチョウ",
      "street": null,
      "office_name": null,
      "office_name_kana": null
    },
    {
      "postcode": "7390504",
      "prefecture": "広島県",
      "prefecture_kana": "ヒロシマケン",
      "prefecture_code": 34,
      "city": "廿日市市",
      "city_kana": "ハツカイチシ",
      "town": "宮島町港町",
      "town_kana": "ミヤジマチョウミナトマチ",
      "street": null,
      "office_name": null,
      "office_name_kana": null
    }
  ],
  "0505": [
    {
      "postcode": "7390505",
      "prefecture": "広島県",
      "prefecture_kana": "ヒロシマケン",
      "prefecture_code": 34,
      "city": "廿日市市",
      "city_kana": "ハツカイチシ",
      "town": "宮島町",
      "town_kana": "ミヤジマチョウ",
      "street": null,
      "office_name": null,
      "office_name_kana": null
    },
    {
      "postcode": "7390505",
      "prefecture": "広島県",
      "prefecture_kana": "ヒロシマケン",
      "prefecture_code": 34,
      "city": "廿日市市",
      "city_kana": "ハツカイチシ",
      "town": "宮島町胡町",
      "town_kana": "ミヤジマチョウエビスマチ",
      "street": null,
      "office_name": null,
      "office_name_kana": null
    }
  ],
  "0506": [
    {
      "postcode": "7390506",
      "prefecture": "広島県",
      "prefecture_kana": "ヒロシマケン",
      "prefecture_code": 34,
      "city": "廿日市市",
      "city_kana": "ハツカイチシ",
      "town": "宮島町",
      "town_kana": "ミヤジマチョウ",
      "street": null,
      "office_name": null,
      "office_name_kana": null
    },
    {
      "postcode": "7390506",
      "prefecture": "広島県",
      "prefecture_kana": "ヒロシマケン",
      "prefecture_code": 34,
      "city": "廿日市市",
      "city_kana": "ハツカイチシ",
      "town": "宮島町緑町",
      "town_kana": "ミヤジマチョウミドリマチ",
      "street": null,
      "office_name": null,
      "office_name_kana": null
    }
  ],
  "0507": [
    {
      "postcode": "7390507",
      "prefecture": "広島県",
      "prefecture_kana": "ヒロシマケン",
      "prefecture_code": 34,
      "city": "廿日市市",
      "city_kana": "ハツカイチシ",
      "town": "宮島町",
      "town_kana": "ミヤジマチョウ",
      "street": null,
      "office_name": null,
      "office_name_kana": null
    },
    {
      "postcode": "7390507",
      "prefecture": "広島県",
      "prefecture_kana": "ヒロシマケン",
      "prefecture_code": 34,
      "city": "廿日市市",
      "city_kana": "ハツカイチシ",
      "town": "宮島町大砂利",
      "town_kana": "ミヤジマチョウオオジャリ",
      "street": null,
      "office_name": null,
      "office_name_kana": null
    }
  ],
  "0511": [
    {
      "postcode": "7390511",
      "prefecture": "広島県",
      "prefecture_kana": "ヒロシマケン",
      "prefecture_code": 34,
      "city": "廿日市市",
      "city_kana": "ハツカイチシ",
      "town": "宮島町",
      "town_kana": "ミヤジマチョウ",
      "street": null,
      "office_name": null,
      "office_name_kana": null
    },
    {
      "postcode": "7390511",
      "prefecture": "広島県",
      "prefecture_kana": "ヒロシマケン",
      "prefecture_code": 34,
      "city": "廿日市市",
      "city_kana": "ハツカイチシ",
      "town": "宮島町伊勢町",
      "town_kana": "ミヤジマチョウイセマチ",
      "street": null,
      "office_name": null,
      "office_name_kana": null
    }
  ],
  "0512": [
    {
      "postcode": "7390512",
      "prefecture": "広島県",
      "prefecture_kana": "ヒロシマケン",
      "prefecture_code": 34,
      "city": "廿日市市",
      "city_kana": "ハツカイチシ",
      "town": "宮島町",
      "town_kana": "ミヤジマチョウ",
      "street": null,
      "office_name": null,
      "office_name_kana": null
    },
    {
      "postcode": "7390512",
      "prefecture": "広島県",
      "prefecture_kana": "ヒロシマケン",
      "prefecture_code": 34,
      "city": "廿日市市",
      "city_kana": "ハツカイチシ",
      "town": "宮島町新町",
      "town_kana": "ミヤジマチョウシンマチ",
      "street": null,
      "office_name": null,
      "office_name_kana": null
    }
  ],
  "0513": [
    {
      "postcode": "7390513",
      "prefecture": "広島県",
      "prefecture_kana": "ヒロシマケン",
      "prefecture_code": 34,
      "city": "廿日市市",
      "city_kana": "ハツカイチシ",
      "town": "宮島町",
      "town_kana": "ミヤジマチョウ",
      "street": null,
      "office_name": null,
      "office_name_kana": null
    },
    {
      "postcode": "7390513",
      "prefecture": "広島県",
      "prefecture_kana": "ヒロシマケン",
      "prefecture_code": 34,
      "city": "廿日市市",
      "city_kana": "ハツカイチシ",
      "town": "宮島町上西連町",
      "town_kana": "ミヤジマチョウカミサイレンチョウ",
      "street": null,
      "office_name": null,
      "office_name_kana": null
    }
  ],
  "0514": [
    {
      "postcode": "7390514",
      "prefecture": "広島県",
      "prefecture_kana": "ヒロシマケン",
      "prefecture_code": 34,
      "city": "廿日市市",
      "city_kana": "ハツカイチシ",
      "town": "宮島町",
      "town_kana": "ミヤジマチョウ",
      "street": null,
      "office_name": null,
      "office_name_kana": null
    },
    {
      "postcode": "7390514",
      "prefecture": "広島県",
      "prefecture_kana": "ヒロシマケン",
      "prefecture_code": 34,
      "city": "廿日市市",
      "city_kana": "ハツカイチシ",
      "town": "宮島町東西連町",
      "town_kana": "ミヤジマチョウヒガシサイレンチョウ",
      "street": null,
      "office_name": null,
      "office_name_kana": null
    }
  ],
  "0515": [
    {
      "postcode": "7390515",
      "prefecture": "広島県",
      "prefecture_kana": "ヒロシマケン",
      "prefecture_code": 34,
      "city": "廿日市市",
      "city_kana": "ハツカイチシ",
      "town": "宮島町",
      "town_kana": "ミヤジマチョウ",
      "street": null,
      "office_name": null,
      "office_name_kana": null
    },
    {
      "postcode": "7390515",
      "prefecture": "広島県",
      "prefecture_kana": "ヒロシマケン",
      "prefecture_code": 34,
      "city": "廿日市市",
      "city_kana": "ハツカイチシ",
      "town": "宮島町魚之棚町",
      "town_kana": "ミヤジマチョウウオノタナチョウ",
      "street": null,
      "office_name": null,
      "office_name_kana": null
    }
  ],
  "0516": [
    {
      "postcode": "7390516",
      "prefecture": "広島県",
      "prefecture_kana": "ヒロシマケン",
      "prefecture_code": 34,
      "city": "廿日市市",
      "city_kana": "ハツカイチシ",
      "town": "宮島町",
      "town_kana": "ミヤジマチョウ",
      "street": null,
      "office_name": null,
      "office_name_kana": null
    },
    {
      "postcode": "7390516",
      "prefecture": "広島県",
      "prefecture_kana": "ヒロシマケン",
      "prefecture_code": 34,
      "city": "廿日市市",
      "city_kana": "ハツカイチシ",
      "town": "宮島町桜町",
      "town_kana": "ミヤジマチョウサクラマチ",
      "street": null,
      "office_name": null,
      "office_name_kana": null
    }
  ],
  "0517": [
    {
      "postcode": "7390517",
      "prefecture": "広島県",
      "prefecture_kana": "ヒロシマケン",
      "prefecture_code": 34,
      "city": "廿日市市",
      "city_kana": "ハツカイチシ",
      "town": "宮島町",
      "town_kana": "ミヤジマチョウ",
      "street": null,
      "office_name": null,
      "office_name_kana": null
    },
    {
      "postcode": "7390517",
      "prefecture": "広島県",
      "prefecture_kana": "ヒロシマケン",
      "prefecture_code": 34,
      "city": "廿日市市",
      "city_kana": "ハツカイチシ",
      "town": "宮島町大和町",
      "town_kana": "ミヤジマチョウヤマトマチ",
      "street": null,
      "office_name": null,
      "office_name_kana": null
    }
  ],
  "0518": [
    {
      "postcode": "7390518",
      "prefecture": "広島県",
      "prefecture_kana": "ヒロシマケン",
      "prefecture_code": 34,
      "city": "廿日市市",
      "city_kana": "ハツカイチシ",
      "town": "宮島町",
      "town_kana": "ミヤジマチョウ",
      "street": null,
      "office_name": null,
      "office_name_kana": null
    },
    {
      "postcode": "7390518",
      "prefecture": "広島県",
      "prefecture_kana": "ヒロシマケン",
      "prefecture_code": 34,
      "city": "廿日市市",
      "city_kana": "ハツカイチシ",
      "town": "宮島町下西連町",
      "town_kana": "ミヤジマチョウシモサイレンチョウ",
      "street": null,
      "office_name": null,
      "office_name_kana": null
    }
  ],
  "0521": [
    {
      "postcode": "7390521",
      "prefecture": "広島県",
      "prefecture_kana": "ヒロシマケン",
      "prefecture_code": 34,
      "city": "廿日市市",
      "city_kana": "ハツカイチシ",
      "town": "宮島町",
      "town_kana": "ミヤジマチョウ",
      "street": null,
      "office_name": null,
      "office_name_kana": null
    },
    {
      "postcode": "7390521",
      "prefecture": "広島県",
      "prefecture_kana": "ヒロシマケン",
      "prefecture_code": 34,
      "city": "廿日市市",
      "city_kana": "ハツカイチシ",
      "town": "宮島町大町",
      "town_kana": "ミヤジマチョウオオマチ",
      "street": null,
      "office_name": null,
      "office_name_kana": null
    }
  ],
  "0522": [
    {
      "postcode": "7390522",
      "prefecture": "広島県",
      "prefecture_kana": "ヒロシマケン",
      "prefecture_code": 34,
      "city": "廿日市市",
      "city_kana": "ハツカイチシ",
      "town": "宮島町",
      "town_kana": "ミヤジマチョウ",
      "street": null,
      "office_name": null,
      "office_name_kana": null
    },
    {
      "postcode": "7390522",
      "prefecture": "広島県",
      "prefecture_kana": "ヒロシマケン",
      "prefecture_code": 34,
      "city": "廿日市市",
      "city_kana": "ハツカイチシ",
      "town": "宮島町南町",
      "town_kana": "ミヤジマチョウミナミマチ",
      "street": null,
      "office_name": null,
      "office_name_kana": null
    }
  ],
  "0523": [
    {
      "postcode": "7390523",
      "prefecture": "広島県",
      "prefecture_kana": "ヒロシマケン",
      "prefecture_code": 34,
      "city": "廿日市市",
      "city_kana": "ハツカイチシ",
      "town": "宮島町",
      "town_kana": "ミヤジマチョウ",
      "street": null,
      "office_name": null,
      "office_name_kana": null
    },
    {
      "postcode": "7390523",
      "prefecture": "広島県",
      "prefecture_kana": "ヒロシマケン",
      "prefecture_code": 34,
      "city": "廿日市市",
      "city_kana": "ハツカイチシ",
      "town": "宮島町中江町",
      "town_kana": "ミヤジマチョウチュウエマチ",
      "street": null,
      "office_name": null,
      "office_name_kana": null
    }
  ],
  "0524": [
    {
      "postcode": "7390524",
      "prefecture": "広島県",
      "prefecture_kana": "ヒロシマケン",
      "prefecture_code": 34,
      "city": "廿日市市",
      "city_kana": "ハツカイチシ",
      "town": "宮島町",
      "town_kana": "ミヤジマチョウ",
      "street": null,
      "office_name": null,
      "office_name_kana": null
    },
    {
      "postcode": "7390524",
      "prefecture": "広島県",
      "prefecture_kana": "ヒロシマケン",
      "prefecture_code": 34,
      "city": "廿日市市",
      "city_kana": "ハツカイチシ",
      "town": "宮島町滝町",
      "town_kana": "ミヤジマチョウタキマチ",
      "street": null,
      "office_name": null,
      "office_name_kana": null
    }
  ],
  "0525": [
    {
      "postcode": "7390525",
      "prefecture": "広島県",
      "prefecture_kana": "ヒロシマケン",
      "prefecture_code": 34,
      "city": "廿日市市",
      "city_kana": "ハツカイチシ",
      "town": "宮島町",
      "town_kana": "ミヤジマチョウ",
      "street": null,
      "office_name": null,
      "office_name_kana": null
    },
    {
      "postcode": "7390525",
      "prefecture": "広島県",
      "prefecture_kana": "ヒロシマケン",
      "prefecture_code": 34,
      "city": "廿日市市",
      "city_kana": "ハツカイチシ",
      "town": "宮島町久保町",
      "town_kana": "ミヤジマチョウクボマチ",
      "street": null,
      "office_name": null,
      "office_name_kana": null
    }
  ],
  "0531": [
    {
      "postcode": "7390531",
      "prefecture": "広島県",
      "prefecture_kana": "ヒロシマケン",
      "prefecture_code": 34,
      "city": "廿日市市",
      "city_kana": "ハツカイチシ",
      "town": "宮島町",
      "town_kana": "ミヤジマチョウ",
      "street": null,
      "office_name": null,
      "office_name_kana": null
    },
    {
      "postcode": "7390531",
      "prefecture": "広島県",
      "prefecture_kana": "ヒロシマケン",
      "prefecture_code": 34,
      "city": "廿日市市",
      "city_kana": "ハツカイチシ",
      "town": "宮島町上中西町",
      "town_kana": "ミヤジマチョウカミナカニシチョウ",
      "street": null,
      "office_name": null,
      "office_name_kana": null
    }
  ],
  "0532": [
    {
      "postcode": "7390532",
      "prefecture": "広島県",
      "prefecture_kana": "ヒロシマケン",
      "prefecture_code": 34,
      "city": "廿日市市",
      "city_kana": "ハツカイチシ",
      "town": "宮島町",
      "town_kana": "ミヤジマチョウ",
      "street": null,
      "office_name": null,
      "office_name_kana": null
    },
    {
      "postcode": "7390532",
      "prefecture": "広島県",
      "prefecture_kana": "ヒロシマケン",
      "prefecture_code": 34,
      "city": "廿日市市",
      "city_kana": "ハツカイチシ",
      "town": "宮島町東大西町",
      "town_kana": "ミヤジマチョウヒガシオオニシチョウ",
      "street": null,
      "office_name": null,
      "office_name_kana": null
    }
  ],
  "0533": [
    {
      "postcode": "7390533",
      "prefecture": "広島県",
      "prefecture_kana": "ヒロシマケン",
      "prefecture_code": 34,
      "city": "廿日市市",
      "city_kana": "ハツカイチシ",
      "town": "宮島町",
      "town_kana": "ミヤジマチョウ",
      "street": null,
      "office_name": null,
      "office_name_kana": null
    },
    {
      "postcode": "7390533",
      "prefecture": "広島県",
      "prefecture_kana": "ヒロシマケン",
      "prefecture_code": 34,
      "city": "廿日市市",
      "city_kana": "ハツカイチシ",
      "town": "宮島町南大西町",
      "town_kana": "ミヤジマチョウミナミオオニシチョウ",
      "street": null,
      "office_name": null,
      "office_name_kana": null
    }
  ],
  "0534": [
    {
      "postcode": "7390534",
      "prefecture": "広島県",
      "prefecture_kana": "ヒロシマケン",
      "prefecture_code": 34,
      "city": "廿日市市",
      "city_kana": "ハツカイチシ",
      "town": "宮島町",
      "town_kana": "ミヤジマチョウ",
      "street": null,
      "office_name": null,
      "office_name_kana": null
    },
    {
      "postcode": "7390534",
      "prefecture": "広島県",
      "prefecture_kana": "ヒロシマケン",
      "prefecture_code": 34,
      "city": "廿日市市",
      "city_kana": "ハツカイチシ",
      "town": "宮島町西大西町",
      "town_kana": "ミヤジマチョウニシオオニシチョウ",
      "street": null,
      "office_name": null,
      "office_name_kana": null
    }
  ],
  "0535": [
    {
      "postcode": "7390535",
      "prefecture": "広島県",
      "prefecture_kana": "ヒロシマケン",
      "prefecture_code": 34,
      "city": "廿日市市",
      "city_kana": "ハツカイチシ",
      "town": "宮島町",
      "town_kana": "ミヤジマチョウ",
      "street": null,
      "office_name": null,
      "office_name_kana": null
    },
    {
      "postcode": "7390535",
      "prefecture": "広島県",
      "prefecture_kana": "ヒロシマケン",
      "prefecture_code": 34,
      "city": "廿日市市",
      "city_kana": "ハツカイチシ",
      "town": "宮島町北大西町",
      "town_kana": "ミヤジマチョウキタオオニシチョウ",
      "street": null,
      "office_name": null,
      "office_name_kana": null
    }
  ],
  "0536": [
    {
      "postcode": "7390536",
      "prefecture": "広島県",
      "prefecture_kana": "ヒロシマケン",
      "prefecture_code": 34,
      "city": "廿日市市",
      "city_kana": "ハツカイチシ",
      "town": "宮島町",
      "town_kana": "ミヤジマチョウ",
      "street": null,
      "office_name": null,
      "office_name_kana": null
    },
    {
      "postcode": "7390536",
      "prefecture": "広島県",
      "prefecture_kana": "ヒロシマケン",
      "prefecture_code": 34,
      "city": "廿日市市",
      "city_kana": "ハツカイチシ",
      "town": "宮島町下中西町",
      "town_kana": "ミヤジマチョウシモナカニシチョウ",
      "street": null,
      "office_name": null,
      "office_name_kana": null
    }
  ],
  "0541": [
    {
      "postcode": "7390541",
      "prefecture": "広島県",
      "prefecture_kana": "ヒロシマケン",
      "prefecture_code": 34,
      "city": "廿日市市",
      "city_kana": "ハツカイチシ",
      "town": "宮島町",
      "town_kana": "ミヤジマチョウ",
      "street": null,
      "office_name": null,
      "office_name_kana": null
    },
    {
      "postcode": "7390541",
      "prefecture": "広島県",
      "prefecture_kana": "ヒロシマケン",
      "prefecture_code": 34,
      "city": "廿日市市",
      "city_kana": "ハツカイチシ",
      "town": "宮島町網之浦",
      "town_kana": "ミヤジマチョウアミノウラ",
      "street": null,
      "office_name": null,
      "office_name_kana": null
    }
  ],
  "0542": [
    {
      "postcode": "7390542",
      "prefecture": "広島県",
      "prefecture_kana": "ヒロシマケン",
      "prefecture_code": 34,
      "city": "廿日市市",
      "city_kana": "ハツカイチシ",
      "town": "宮島町",
      "town_kana": "ミヤジマチョウ",
      "street": null,
      "office_name": null,
      "office_name_kana": null
    },
    {
      "postcode": "7390542",
      "prefecture": "広島県",
      "prefecture_kana": "ヒロシマケン",
      "prefecture_code": 34,
      "city": "廿日市市",
      "city_kana": "ハツカイチシ",
      "town": "宮島町多々良潟",
      "town_kana": "ミヤジマチョウタタラガタ",
      "street": null,
      "office_name": null,
      "office_name_kana": null
    }
  ],
  "0543": [
    {
      "postcode": "7390543",
      "prefecture": "広島県",
      "prefecture_kana": "ヒロシマケン",
      "prefecture_code": 34,
      "city": "廿日市市",
      "city_kana": "ハツカイチシ",
      "town": "宮島町",
      "town_kana": "ミヤジマチョウ",
      "street": null,
      "office_name": null,
      "office_name_kana": null
    },
    {
      "postcode": "7390543",
      "prefecture": "広島県",
      "prefecture_kana": "ヒロシマケン",
      "prefecture_code": 34,
      "city": "廿日市市",
      "city_kana": "ハツカイチシ",
      "town": "宮島町室浜",
      "town_kana": "ミヤジマチョウムロハマ",
      "street": null,
      "office_name": null,
      "office_name_kana": null
    }
  ],
  "0550": [
    {
      "postcode": "7390550",
      "prefecture": "広島県",
      "prefecture_kana": "ヒロシマケン",
      "prefecture_code": 34,
      "city": "廿日市市",
      "city_kana": "ハツカイチシ",
      "town": "宮島町",
      "town_kana": "ミヤジマチョウ",
      "street": null,
      "office_name": null,
      "office_name_kana": null
    },
    {
      "postcode": "7390550",
      "prefecture": "広島県",
      "prefecture_kana": "ヒロシマケン",
      "prefecture_code": 34,
      "city": "廿日市市",
      "city_kana": "ハツカイチシ",
      "town": "宮島町浜之町",
      "town_kana": "ミヤジマチョウハマノチョウ",
      "street": null,
      "office_name": null,
      "office_name_kana": null
    }
  ],
  "0551": [
    {
      "postcode": "7390551",
      "prefecture": "広島県",
      "prefecture_kana": "ヒロシマケン",
      "prefecture_code": 34,
      "city": "廿日市市",
      "city_kana": "ハツカイチシ",
      "town": "宮島町",
      "town_kana": "ミヤジマチョウ",
      "street": null,
      "office_name": null,
      "office_name_kana": null
    },
    {
      "postcode": "7390551",
      "prefecture": "広島県",
      "prefecture_kana": "ヒロシマケン",
      "prefecture_code": 34,
      "city": "廿日市市",
      "city_kana": "ハツカイチシ",
      "town": "宮島町北之町東表",
      "town_kana": "ミヤジマチョウキタノチョウヒガシオモテ",
      "street": null,
      "office_name": null,
      "office_name_kana": null
    }
  ],
  "0552": [
    {
      "postcode": "7390552",
      "prefecture": "広島県",
      "prefecture_kana": "ヒロシマケン",
      "prefecture_code": 34,
      "city": "廿日市市",
      "city_kana": "ハツカイチシ",
      "town": "宮島町",
      "town_kana": "ミヤジマチョウ",
      "street": null,
      "office_name": null,
      "office_name_kana": null
    },
    {
      "postcode": "7390552",
      "prefecture": "広島県",
      "prefecture_kana": "ヒロシマケン",
      "prefecture_code": 34,
      "city": "廿日市市",
      "city_kana": "ハツカイチシ",
      "town": "宮島町北之町西表",
      "town_kana": "ミヤジマチョウキタノチョウニシオモテ",
      "street": null,
      "office_name": null,
      "office_name_kana": null
    }
  ],
  "0553": [
    {
      "postcode": "7390553",
      "prefecture": "広島県",
      "prefecture_kana": "ヒロシマケン",
      "prefecture_code": 34,
      "city": "廿日市市",
      "city_kana": "ハツカイチシ",
      "town": "宮島町",
      "town_kana": "ミヤジマチョウ",
      "street": null,
      "office_name": null,
      "office_name_kana": null
    },
    {
      "postcode": "7390553",
      "prefecture": "広島県",
      "prefecture_kana": "ヒロシマケン",
      "prefecture_code": 34,
      "city": "廿日市市",
      "city_kana": "ハツカイチシ",
      "town": "宮島町中之町表",
      "town_kana": "ミヤジマチョウナカノチョウオモテ",
      "street": null,
      "office_name": null,
      "office_name_kana": null
    }
  ],
  "0554": [
    {
      "postcode": "7390554",
      "prefecture": "広島県",
      "prefecture_kana": "ヒロシマケン",
      "prefecture_code": 34,
      "city": "廿日市市",
      "city_kana": "ハツカイチシ",
      "town": "宮島町",
      "town_kana": "ミヤジマチョウ",
      "street": null,
      "office_name": null,
      "office_name_kana": null
    },
    {
      "postcode": "7390554",
      "prefecture": "広島県",
      "prefecture_kana": "ヒロシマケン",
      "prefecture_code": 34,
      "city": "廿日市市",
      "city_kana": "ハツカイチシ",
      "town": "宮島町幸町東表",
      "town_kana": "ミヤジマチョウサイワイチョウヒガシオモテ",
      "street": null,
      "office_name": null,
      "office_name_kana": null
    }
  ],
  "0555": [
    {
      "postcode": "7390555",
      "prefecture": "広島県",
      "prefecture_kana": "ヒロシマケン",
      "prefecture_code": 34,
      "city": "廿日市市",
      "city_kana": "ハツカイチシ",
      "town": "宮島町",
      "town_kana": "ミヤジマチョウ",
      "street": null,
      "office_name": null,
      "office_name_kana": null
    },
    {
      "postcode": "7390555",
      "prefecture": "広島県",
      "prefecture_kana": "ヒロシマケン",
      "prefecture_code": 34,
      "city": "廿日市市",
      "city_kana": "ハツカイチシ",
      "town": "宮島町幸町西表",
      "town_kana": "ミヤジマチョウサイワイチョウニシオモテ",
      "street": null,
      "office_name": null,
      "office_name_kana": null
    }
  ],
  "0556": [
    {
      "postcode": "7390556",
      "prefecture": "広島県",
      "prefecture_kana": "ヒロシマケン",
      "prefecture_code": 34,
      "city": "廿日市市",
      "city_kana": "ハツカイチシ",
      "town": "宮島町",
      "town_kana": "ミヤジマチョウ",
      "street": null,
      "office_name": null,
      "office_name_kana": null
    },
    {
      "postcode": "7390556",
      "prefecture": "広島県",
      "prefecture_kana": "ヒロシマケン",
      "prefecture_code": 34,
      "city": "廿日市市",
      "city_kana": "ハツカイチシ",
      "town": "宮島町幸町西浜",
      "town_kana": "ミヤジマチョウサイワイチョウニシハマ",
      "street": null,
      "office_name": null,
      "office_name_kana": null
    }
  ],
  "0557": [
    {
      "postcode": "7390557",
      "prefecture": "広島県",
      "prefecture_kana": "ヒロシマケン",
      "prefecture_code": 34,
      "city": "廿日市市",
      "city_kana": "ハツカイチシ",
      "town": "宮島町",
      "town_kana": "ミヤジマチョウ",
      "street": null,
      "office_name": null,
      "office_name_kana": null
    },
    {
      "postcode": "7390557",
      "prefecture": "広島県",
      "prefecture_kana": "ヒロシマケン",
      "prefecture_code": 34,
      "city": "廿日市市",
      "city_kana": "ハツカイチシ",
      "town": "宮島町幸町東浜",
      "town_kana": "ミヤジマチョウサイワイチョウヒガシハマ",
      "street": null,
      "office_name": null,
      "office_name_kana": null
    }
  ],
  "0558": [
    {
      "postcode": "7390558",
      "prefecture": "広島県",
      "prefecture_kana": "ヒロシマケン",
      "prefecture_code": 34,
      "city": "廿日市市",
      "city_kana": "ハツカイチシ",
      "town": "宮島町",
      "town_kana": "ミヤジマチョウ",
      "street": null,
      "office_name": null,
      "office_name_kana": null
    },
    {
      "postcode": "7390558",
      "prefecture": "広島県",
      "prefecture_kana": "ヒロシマケン",
      "prefecture_code": 34,
      "city": "廿日市市",
      "city_kana": "ハツカイチシ",
      "town": "宮島町中之町浜",
      "town_kana": "ミヤジマチョウナカノチョウハマ",
      "street": null,
      "office_name": null,
      "office_name_kana": null
    }
  ],
  "0559": [
    {
      "postcode": "7390559",
      "prefecture": "広島県",
      "prefecture_kana": "ヒロシマケン",
      "prefecture_code": 34,
      "city": "廿日市市",
      "city_kana": "ハツカイチシ",
      "town": "宮島町",
      "town_kana": "ミヤジマチョウ",
      "street": null,
      "office_name": null,
      "office_name_kana": null
    },
    {
      "postcode": "7390559",
      "prefecture": "広島県",
      "prefecture_kana": "ヒロシマケン",
      "prefecture_code": 34,
      "city": "廿日市市",
      "city_kana": "ハツカイチシ",
      "town": "宮島町北之町浜",
      "town_kana": "ミヤジマチョウキタノチョウハマ",
      "street": null,
      "office_name": null,
      "office_name_kana": null
    }
  ],
  "0588": {
    "postcode": "7390588",
    "prefecture": "広島県",
    "prefecture_kana": "ヒロシマケン",
    "prefecture_code": 34,
    "city": "廿日市市",
    "city_kana": "ハツカイチシ",
    "town": "宮島町",
    "town_kana": "ミヤジマチョウ",
    "street": null,
    "office_name": null,
    "office_name_kana": null
  },
  "0592": {
    "postcode": "7390592",
    "prefecture": "広島県",
    "prefecture_kana": "ヒロシマケン",
    "prefecture_code": 34,
    "city": "廿日市市",
    "city_kana": "ハツカイチシ",
    "town": "宮島町",
    "town_kana": "ミヤジマチョウ",
    "street": "２１０",
    "office_name": "（宗）　大聖院",
    "office_name_kana": "シユウキヨウホウジン ダイシヨウイン"
  },
  "0595": {
    "postcode": "7390595",
    "prefecture": "広島県",
    "prefecture_kana": "ヒロシマケン",
    "prefecture_code": 34,
    "city": "廿日市市",
    "city_kana": "ハツカイチシ",
    "town": "宮島町",
    "town_kana": "ミヤジマチョウ",
    "street": "４１２",
    "office_name": "廿日市市役所　宮島支所",
    "office_name_kana": "ハツカイチシヤクシヨ ミヤジマシシヨ"
  },
  "0600": {
    "postcode": "7390600",
    "prefecture": "広島県",
    "prefecture_kana": "ヒロシマケン",
    "prefecture_code": 34,
    "city": "大竹市",
    "city_kana": "オオタケシ",
    "town": "",
    "town_kana": "",
    "street": null,
    "office_name": null,
    "office_name_kana": null
  },
  "0601": {
    "postcode": "7390601",
    "prefecture": "広島県",
    "prefecture_kana": "ヒロシマケン",
    "prefecture_code": 34,
    "city": "大竹市",
    "city_kana": "オオタケシ",
    "town": "東栄",
    "town_kana": "ヒガシサカエ",
    "street": null,
    "office_name": null,
    "office_name_kana": null
  },
  "0602": {
    "postcode": "7390602",
    "prefecture": "広島県",
    "prefecture_kana": "ヒロシマケン",
    "prefecture_code": 34,
    "city": "大竹市",
    "city_kana": "オオタケシ",
    "town": "南栄",
    "town_kana": "ミナミサカエ",
    "street": null,
    "office_name": null,
    "office_name_kana": null
  },
  "0603": {
    "postcode": "7390603",
    "prefecture": "広島県",
    "prefecture_kana": "ヒロシマケン",
    "prefecture_code": 34,
    "city": "大竹市",
    "city_kana": "オオタケシ",
    "town": "西栄",
    "town_kana": "ニシサカエ",
    "street": null,
    "office_name": null,
    "office_name_kana": null
  },
  "0604": {
    "postcode": "7390604",
    "prefecture": "広島県",
    "prefecture_kana": "ヒロシマケン",
    "prefecture_code": 34,
    "city": "大竹市",
    "city_kana": "オオタケシ",
    "town": "北栄",
    "town_kana": "キタサカエ",
    "street": null,
    "office_name": null,
    "office_name_kana": null
  },
  "0605": {
    "postcode": "7390605",
    "prefecture": "広島県",
    "prefecture_kana": "ヒロシマケン",
    "prefecture_code": 34,
    "city": "大竹市",
    "city_kana": "オオタケシ",
    "town": "立戸",
    "town_kana": "タチド",
    "street": null,
    "office_name": null,
    "office_name_kana": null
  },
  "0606": {
    "postcode": "7390606",
    "prefecture": "広島県",
    "prefecture_kana": "ヒロシマケン",
    "prefecture_code": 34,
    "city": "大竹市",
    "city_kana": "オオタケシ",
    "town": "御幸町",
    "town_kana": "ミユキチョウ",
    "street": null,
    "office_name": null,
    "office_name_kana": null
  },
  "0607": {
    "postcode": "7390607",
    "prefecture": "広島県",
    "prefecture_kana": "ヒロシマケン",
    "prefecture_code": 34,
    "city": "大竹市",
    "city_kana": "オオタケシ",
    "town": "阿多田",
    "town_kana": "アタタ",
    "street": null,
    "office_name": null,
    "office_name_kana": null
  },
  "0611": {
    "postcode": "7390611",
    "prefecture": "広島県",
    "prefecture_kana": "ヒロシマケン",
    "prefecture_code": 34,
    "city": "大竹市",
    "city_kana": "オオタケシ",
    "town": "新町",
    "town_kana": "シンマチ",
    "street": null,
    "office_name": null,
    "office_name_kana": null
  },
  "0612": {
    "postcode": "7390612",
    "prefecture": "広島県",
    "prefecture_kana": "ヒロシマケン",
    "prefecture_code": 34,
    "city": "大竹市",
    "city_kana": "オオタケシ",
    "town": "油見",
    "town_kana": "ユウミ",
    "street": null,
    "office_name": null,
    "office_name_kana": null
  },
  "0613": {
    "postcode": "7390613",
    "prefecture": "広島県",
    "prefecture_kana": "ヒロシマケン",
    "prefecture_code": 34,
    "city": "大竹市",
    "city_kana": "オオタケシ",
    "town": "本町",
    "town_kana": "ホンマチ",
    "street": null,
    "office_name": null,
    "office_name_kana": null
  },
  "0614": {
    "postcode": "7390614",
    "prefecture": "広島県",
    "prefecture_kana": "ヒロシマケン",
    "prefecture_code": 34,
    "city": "大竹市",
    "city_kana": "オオタケシ",
    "town": "白石",
    "town_kana": "シライシ",
    "street": null,
    "office_name": null,
    "office_name_kana": null
  },
  "0615": {
    "postcode": "7390615",
    "prefecture": "広島県",
    "prefecture_kana": "ヒロシマケン",
    "prefecture_code": 34,
    "city": "大竹市",
    "city_kana": "オオタケシ",
    "town": "元町",
    "town_kana": "モトマチ",
    "street": null,
    "office_name": null,
    "office_name_kana": null
  },
  "0616": {
    "postcode": "7390616",
    "prefecture": "広島県",
    "prefecture_kana": "ヒロシマケン",
    "prefecture_code": 34,
    "city": "大竹市",
    "city_kana": "オオタケシ",
    "town": "木野",
    "town_kana": "コノ",
    "street": null,
    "office_name": null,
    "office_name_kana": null
  },
  "0621": {
    "postcode": "7390621",
    "prefecture": "広島県",
    "prefecture_kana": "ヒロシマケン",
    "prefecture_code": 34,
    "city": "大竹市",
    "city_kana": "オオタケシ",
    "town": "港町",
    "town_kana": "ミナトマチ",
    "street": null,
    "office_name": null,
    "office_name_kana": null
  },
  "0622": {
    "postcode": "7390622",
    "prefecture": "広島県",
    "prefecture_kana": "ヒロシマケン",
    "prefecture_code": 34,
    "city": "大竹市",
    "city_kana": "オオタケシ",
    "town": "晴海",
    "town_kana": "ハルミ",
    "street": null,
    "office_name": null,
    "office_name_kana": null
  },
  "0623": {
    "postcode": "7390623",
    "prefecture": "広島県",
    "prefecture_kana": "ヒロシマケン",
    "prefecture_code": 34,
    "city": "大竹市",
    "city_kana": "オオタケシ",
    "town": "小方",
    "town_kana": "オガタ",
    "street": null,
    "office_name": null,
    "office_name_kana": null
  },
  "0624": {
    "postcode": "7390624",
    "prefecture": "広島県",
    "prefecture_kana": "ヒロシマケン",
    "prefecture_code": 34,
    "city": "大竹市",
    "city_kana": "オオタケシ",
    "town": "御園",
    "town_kana": "ミソノ",
    "street": null,
    "office_name": null,
    "office_name_kana": null
  },
  "0625": {
    "postcode": "7390625",
    "prefecture": "広島県",
    "prefecture_kana": "ヒロシマケン",
    "prefecture_code": 34,
    "city": "大竹市",
    "city_kana": "オオタケシ",
    "town": "御園台",
    "town_kana": "ミソノダイ",
    "street": null,
    "office_name": null,
    "office_name_kana": null
  },
  "0626": {
    "postcode": "7390626",
    "prefecture": "広島県",
    "prefecture_kana": "ヒロシマケン",
    "prefecture_code": 34,
    "city": "大竹市",
    "city_kana": "オオタケシ",
    "town": "三ツ石町",
    "town_kana": "ミツイシチョウ",
    "street": null,
    "office_name": null,
    "office_name_kana": null
  },
  "0627": {
    "postcode": "7390627",
    "prefecture": "広島県",
    "prefecture_kana": "ヒロシマケン",
    "prefecture_code": 34,
    "city": "大竹市",
    "city_kana": "オオタケシ",
    "town": "小方町小方",
    "town_kana": "オガタチョウオガタ",
    "street": null,
    "office_name": null,
    "office_name_kana": null
  },
  "0628": {
    "postcode": "7390628",
    "prefecture": "広島県",
    "prefecture_kana": "ヒロシマケン",
    "prefecture_code": 34,
    "city": "大竹市",
    "city_kana": "オオタケシ",
    "town": "小方ケ丘",
    "town_kana": "オガタガオカ",
    "street": null,
    "office_name": null,
    "office_name_kana": null
  },
  "0631": {
    "postcode": "7390631",
    "prefecture": "広島県",
    "prefecture_kana": "ヒロシマケン",
    "prefecture_code": 34,
    "city": "大竹市",
    "city_kana": "オオタケシ",
    "town": "防鹿",
    "town_kana": "ボウロク",
    "street": null,
    "office_name": null,
    "office_name_kana": null
  },
  "0632": {
    "postcode": "7390632",
    "prefecture": "広島県",
    "prefecture_kana": "ヒロシマケン",
    "prefecture_code": 34,
    "city": "大竹市",
    "city_kana": "オオタケシ",
    "town": "穂仁原",
    "town_kana": "オニハラ",
    "street": null,
    "office_name": null,
    "office_name_kana": null
  },
  "0633": {
    "postcode": "7390633",
    "prefecture": "広島県",
    "prefecture_kana": "ヒロシマケン",
    "prefecture_code": 34,
    "city": "大竹市",
    "city_kana": "オオタケシ",
    "town": "比作",
    "town_kana": "ヒッツクリ",
    "street": null,
    "office_name": null,
    "office_name_kana": null
  },
  "0634": {
    "postcode": "7390634",
    "prefecture": "広島県",
    "prefecture_kana": "ヒロシマケン",
    "prefecture_code": 34,
    "city": "大竹市",
    "city_kana": "オオタケシ",
    "town": "安条",
    "town_kana": "アンジョウ",
    "street": null,
    "office_name": null,
    "office_name_kana": null
  },
  "0635": {
    "postcode": "7390635",
    "prefecture": "広島県",
    "prefecture_kana": "ヒロシマケン",
    "prefecture_code": 34,
    "city": "大竹市",
    "city_kana": "オオタケシ",
    "town": "八丁",
    "town_kana": "ハッチョウ",
    "street": null,
    "office_name": null,
    "office_name_kana": null
  },
  "0636": {
    "postcode": "7390636",
    "prefecture": "広島県",
    "prefecture_kana": "ヒロシマケン",
    "prefecture_code": 34,
    "city": "大竹市",
    "city_kana": "オオタケシ",
    "town": "前飯谷",
    "town_kana": "マエイイタニ",
    "street": null,
    "office_name": null,
    "office_name_kana": null
  },
  "0637": {
    "postcode": "7390637",
    "prefecture": "広島県",
    "prefecture_kana": "ヒロシマケン",
    "prefecture_code": 34,
    "city": "大竹市",
    "city_kana": "オオタケシ",
    "town": "後飯谷",
    "town_kana": "ウシロイイタニ",
    "street": null,
    "office_name": null,
    "office_name_kana": null
  },
  "0641": {
    "postcode": "7390641",
    "prefecture": "広島県",
    "prefecture_kana": "ヒロシマケン",
    "prefecture_code": 34,
    "city": "大竹市",
    "city_kana": "オオタケシ",
    "town": "栗谷町広原",
    "town_kana": "クリタニチョウヒロハラ",
    "street": null,
    "office_name": null,
    "office_name_kana": null
  },
  "0642": {
    "postcode": "7390642",
    "prefecture": "広島県",
    "prefecture_kana": "ヒロシマケン",
    "prefecture_code": 34,
    "city": "大竹市",
    "city_kana": "オオタケシ",
    "town": "栗谷町奥谷尻",
    "town_kana": "クリタニチョウオクタニジリ",
    "street": null,
    "office_name": null,
    "office_name_kana": null
  },
  "0643": {
    "postcode": "7390643",
    "prefecture": "広島県",
    "prefecture_kana": "ヒロシマケン",
    "prefecture_code": 34,
    "city": "大竹市",
    "city_kana": "オオタケシ",
    "town": "栗谷町谷和",
    "town_kana": "クリタニチョウタニワ",
    "street": null,
    "office_name": null,
    "office_name_kana": null
  },
  "0644": {
    "postcode": "7390644",
    "prefecture": "広島県",
    "prefecture_kana": "ヒロシマケン",
    "prefecture_code": 34,
    "city": "大竹市",
    "city_kana": "オオタケシ",
    "town": "栗谷町後原",
    "town_kana": "クリタニチョウウシロバラ",
    "street": null,
    "office_name": null,
    "office_name_kana": null
  },
  "0645": {
    "postcode": "7390645",
    "prefecture": "広島県",
    "prefecture_kana": "ヒロシマケン",
    "prefecture_code": 34,
    "city": "大竹市",
    "city_kana": "オオタケシ",
    "town": "栗谷町小栗林",
    "town_kana": "クリタニチョウコクリバヤシ",
    "street": null,
    "office_name": null,
    "office_name_kana": null
  },
  "0646": {
    "postcode": "7390646",
    "prefecture": "広島県",
    "prefecture_kana": "ヒロシマケン",
    "prefecture_code": 34,
    "city": "大竹市",
    "city_kana": "オオタケシ",
    "town": "栗谷町大栗林",
    "town_kana": "クリタニチョウオオクリバヤシ",
    "street": null,
    "office_name": null,
    "office_name_kana": null
  },
  "0651": {
    "postcode": "7390651",
    "prefecture": "広島県",
    "prefecture_kana": "ヒロシマケン",
    "prefecture_code": 34,
    "city": "大竹市",
    "city_kana": "オオタケシ",
    "town": "玖波",
    "town_kana": "クバ",
    "street": null,
    "office_name": null,
    "office_name_kana": null
  },
  "0652": {
    "postcode": "7390652",
    "prefecture": "広島県",
    "prefecture_kana": "ヒロシマケン",
    "prefecture_code": 34,
    "city": "大竹市",
    "city_kana": "オオタケシ",
    "town": "明治新開",
    "town_kana": "メイジシンガイ",
    "street": null,
    "office_name": null,
    "office_name_kana": null
  },
  "0653": {
    "postcode": "7390653",
    "prefecture": "広島県",
    "prefecture_kana": "ヒロシマケン",
    "prefecture_code": 34,
    "city": "大竹市",
    "city_kana": "オオタケシ",
    "town": "黒川",
    "town_kana": "クロカワ",
    "street": null,
    "office_name": null,
    "office_name_kana": null
  },
  "0654": {
    "postcode": "7390654",
    "prefecture": "広島県",
    "prefecture_kana": "ヒロシマケン",
    "prefecture_code": 34,
    "city": "大竹市",
    "city_kana": "オオタケシ",
    "town": "小方町黒川",
    "town_kana": "オガタチョウクロカワ",
    "street": null,
    "office_name": null,
    "office_name_kana": null
  },
  "0655": {
    "postcode": "7390655",
    "prefecture": "広島県",
    "prefecture_kana": "ヒロシマケン",
    "prefecture_code": 34,
    "city": "大竹市",
    "city_kana": "オオタケシ",
    "town": "湯舟町",
    "town_kana": "ユブネチョウ",
    "street": null,
    "office_name": null,
    "office_name_kana": null
  },
  "0656": {
    "postcode": "7390656",
    "prefecture": "広島県",
    "prefecture_kana": "ヒロシマケン",
    "prefecture_code": 34,
    "city": "大竹市",
    "city_kana": "オオタケシ",
    "town": "玖波町",
    "town_kana": "クバチョウ",
    "street": null,
    "office_name": null,
    "office_name_kana": null
  },
  "0657": {
    "postcode": "7390657",
    "prefecture": "広島県",
    "prefecture_kana": "ヒロシマケン",
    "prefecture_code": 34,
    "city": "大竹市",
    "city_kana": "オオタケシ",
    "town": "松ケ原町",
    "town_kana": "マツガハラチョウ",
    "street": null,
    "office_name": null,
    "office_name_kana": null
  },
  "0661": {
    "postcode": "7390661",
    "prefecture": "広島県",
    "prefecture_kana": "ヒロシマケン",
    "prefecture_code": 34,
    "city": "廿日市市",
    "city_kana": "ハツカイチシ",
    "town": "大野経小屋",
    "town_kana": "オオノキョウゴヤ",
    "street": null,
    "office_name": null,
    "office_name_kana": null
  },
  "0663": {
    "postcode": "7390663",
    "prefecture": "広島県",
    "prefecture_kana": "ヒロシマケン",
    "prefecture_code": 34,
    "city": "廿日市市",
    "city_kana": "ハツカイチシ",
    "town": "大野奴メリ谷",
    "town_kana": "オオノヌメリダニ",
    "street": null,
    "office_name": null,
    "office_name_kana": null
  },
  "0664": {
    "postcode": "7390664",
    "prefecture": "広島県",
    "prefecture_kana": "ヒロシマケン",
    "prefecture_code": 34,
    "city": "廿日市市",
    "city_kana": "ハツカイチシ",
    "town": "大野嵐谷",
    "town_kana": "オオノアラシダニ",
    "street": null,
    "office_name": null,
    "office_name_kana": null
  },
  "0665": {
    "postcode": "7390665",
    "prefecture": "広島県",
    "prefecture_kana": "ヒロシマケン",
    "prefecture_code": 34,
    "city": "廿日市市",
    "city_kana": "ハツカイチシ",
    "town": "大野横撫",
    "town_kana": "オオノヨコナデ",
    "street": null,
    "office_name": null,
    "office_name_kana": null
  },
  "0667": {
    "postcode": "7390667",
    "prefecture": "広島県",
    "prefecture_kana": "ヒロシマケン",
    "prefecture_code": 34,
    "city": "廿日市市",
    "city_kana": "ハツカイチシ",
    "town": "大野猪ノウツ",
    "town_kana": "オオノイノウツ",
    "street": null,
    "office_name": null,
    "office_name_kana": null
  },
  "0692": {
    "postcode": "7390692",
    "prefecture": "広島県",
    "prefecture_kana": "ヒロシマケン",
    "prefecture_code": 34,
    "city": "大竹市",
    "city_kana": "オオタケシ",
    "town": "小方",
    "town_kana": "オガタ",
    "street": "１丁目１１−１",
    "office_name": "大竹市役所",
    "office_name_kana": "オオタケシヤクシヨ"
  },
  "0693": {
    "postcode": "7390693",
    "prefecture": "広島県",
    "prefecture_kana": "ヒロシマケン",
    "prefecture_code": 34,
    "city": "大竹市",
    "city_kana": "オオタケシ",
    "town": "御幸町",
    "town_kana": "ミユキチョウ",
    "street": "２０−１",
    "office_name": "三菱レイヨン　株式会社　大竹事業所",
    "office_name_kana": "ミツビシレイヨン カブシキガイシヤ オオタケジギヨウシヨ"
  },
  "0695": {
    "postcode": "7390695",
    "prefecture": "広島県",
    "prefecture_kana": "ヒロシマケン",
    "prefecture_code": 34,
    "city": "大竹市",
    "city_kana": "オオタケシ",
    "town": "東栄",
    "town_kana": "ヒガシサカエ",
    "street": "二丁目１番４号",
    "office_name": "株式会社　ダイセル　大竹工場",
    "office_name_kana": "カブシキガイシヤ ダイセル オオタケコウジヨウ"
  },
  "0696": {
    "postcode": "7390696",
    "prefecture": "広島県",
    "prefecture_kana": "ヒロシマケン",
    "prefecture_code": 34,
    "city": "大竹市",
    "city_kana": "オオタケシ",
    "town": "玖波",
    "town_kana": "クバ",
    "street": "４丁目１番１号",
    "office_name": "独立行政法人　国立病院機構　広島西医療センター",
    "office_name_kana": "ドクリツギヨウセイホウジン コクリツビヨウインキコウ ヒロシマニシイリヨウセンタ-"
  },
  "0698": {
    "postcode": "7390698",
    "prefecture": "広島県",
    "prefecture_kana": "ヒロシマケン",
    "prefecture_code": 34,
    "city": "大竹市",
    "city_kana": "オオタケシ",
    "town": "港町",
    "town_kana": "ミナトマチ",
    "street": "１丁目５−１",
    "office_name": "中川製袋化工　株式会社",
    "office_name_kana": "ナカガワセイタイカコウ カブシキガイシヤ"
  },
  "1101": {
    "postcode": "7391101",
    "prefecture": "広島県",
    "prefecture_kana": "ヒロシマケン",
    "prefecture_code": 34,
    "city": "安芸高田市",
    "city_kana": "アキタカタシ",
    "town": "甲田町高田原",
    "town_kana": "コウダチョウタカタバラ",
    "street": null,
    "office_name": null,
    "office_name_kana": null
  },
  "1102": {
    "postcode": "7391102",
    "prefecture": "広島県",
    "prefecture_kana": "ヒロシマケン",
    "prefecture_code": 34,
    "city": "安芸高田市",
    "city_kana": "アキタカタシ",
    "town": "甲田町上小原",
    "town_kana": "コウダチョウカミオバラ",
    "street": null,
    "office_name": null,
    "office_name_kana": null
  },
  "1103": {
    "postcode": "7391103",
    "prefecture": "広島県",
    "prefecture_kana": "ヒロシマケン",
    "prefecture_code": 34,
    "city": "安芸高田市",
    "city_kana": "アキタカタシ",
    "town": "甲田町下小原",
    "town_kana": "コウダチョウシモオバラ",
    "street": null,
    "office_name": null,
    "office_name_kana": null
  },
  "1104": {
    "postcode": "7391104",
    "prefecture": "広島県",
    "prefecture_kana": "ヒロシマケン",
    "prefecture_code": 34,
    "city": "安芸高田市",
    "city_kana": "アキタカタシ",
    "town": "甲田町上甲立",
    "town_kana": "コウダチョウカミコウタチ",
    "street": null,
    "office_name": null,
    "office_name_kana": null
  },
  "1105": {
    "postcode": "7391105",
    "prefecture": "広島県",
    "prefecture_kana": "ヒロシマケン",
    "prefecture_code": 34,
    "city": "安芸高田市",
    "city_kana": "アキタカタシ",
    "town": "甲田町下甲立",
    "town_kana": "コウダチョウシモコウタチ",
    "street": null,
    "office_name": null,
    "office_name_kana": null
  },
  "1106": {
    "postcode": "7391106",
    "prefecture": "広島県",
    "prefecture_kana": "ヒロシマケン",
    "prefecture_code": 34,
    "city": "安芸高田市",
    "city_kana": "アキタカタシ",
    "town": "甲田町浅塚",
    "town_kana": "コウダチョウアサツカ",
    "street": null,
    "office_name": null,
    "office_name_kana": null
  },
  "1107": {
    "postcode": "7391107",
    "prefecture": "広島県",
    "prefecture_kana": "ヒロシマケン",
    "prefecture_code": 34,
    "city": "安芸高田市",
    "city_kana": "アキタカタシ",
    "town": "甲田町糘地",
    "town_kana": "コウダチョウスクモジ",
    "street": null,
    "office_name": null,
    "office_name_kana": null
  },
  "1108": {
    "postcode": "7391108",
    "prefecture": "広島県",
    "prefecture_kana": "ヒロシマケン",
    "prefecture_code": 34,
    "city": "安芸高田市",
    "city_kana": "アキタカタシ",
    "town": "甲田町深瀬",
    "town_kana": "コウダチョウフカセ",
    "street": null,
    "office_name": null,
    "office_name_kana": null
  },
  "1192": {
    "postcode": "7391192",
    "prefecture": "広島県",
    "prefecture_kana": "ヒロシマケン",
    "prefecture_code": 34,
    "city": "安芸高田市",
    "city_kana": "アキタカタシ",
    "town": "甲田町高田原",
    "town_kana": "コウダチョウタカタバラ",
    "street": "２５００",
    "office_name": "安芸高田市役所　甲田支所",
    "office_name_kana": "アキタカタシヤクシヨ コウダシシヨ"
  },
  "1195": {
    "postcode": "7391195",
    "prefecture": "広島県",
    "prefecture_kana": "ヒロシマケン",
    "prefecture_code": 34,
    "city": "安芸高田市",
    "city_kana": "アキタカタシ",
    "town": "甲田町下甲立",
    "town_kana": "コウダチョウシモコウタチ",
    "street": "１６２４",
    "office_name": "湧永製薬　（株）　広島事業所",
    "office_name_kana": "ワクナガセイヤク (カブ) ヒロシマジギヨウシヨ"
  },
  "1201": {
    "postcode": "7391201",
    "prefecture": "広島県",
    "prefecture_kana": "ヒロシマケン",
    "prefecture_code": 34,
    "city": "安芸高田市",
    "city_kana": "アキタカタシ",
    "town": "向原町坂",
    "town_kana": "ムカイハラチョウサカ",
    "street": null,
    "office_name": null,
    "office_name_kana": null
  },
  "1202": {
    "postcode": "7391202",
    "prefecture": "広島県",
    "prefecture_kana": "ヒロシマケン",
    "prefecture_code": 34,
    "city": "安芸高田市",
    "city_kana": "アキタカタシ",
    "town": "向原町戸島",
    "town_kana": "ムカイハラチョウトシマ",
    "street": null,
    "office_name": null,
    "office_name_kana": null
  },
  "1203": {
    "postcode": "7391203",
    "prefecture": "広島県",
    "prefecture_kana": "ヒロシマケン",
    "prefecture_code": 34,
    "city": "安芸高田市",
    "city_kana": "アキタカタシ",
    "town": "向原町長田",
    "town_kana": "ムカイハラチョウナガタ",
    "street": null,
    "office_name": null,
    "office_name_kana": null
  },
  "1204": {
    "postcode": "7391204",
    "prefecture": "広島県",
    "prefecture_kana": "ヒロシマケン",
    "prefecture_code": 34,
    "city": "安芸高田市",
    "city_kana": "アキタカタシ",
    "town": "向原町有留",
    "town_kana": "ムカイハラチョウアリドメ",
    "street": null,
    "office_name": null,
    "office_name_kana": null
  },
  "1205": {
    "postcode": "7391205",
    "prefecture": "広島県",
    "prefecture_kana": "ヒロシマケン",
    "prefecture_code": 34,
    "city": "安芸高田市",
    "city_kana": "アキタカタシ",
    "town": "向原町保垣",
    "town_kana": "ムカイハラチョウホガキ",
    "street": null,
    "office_name": null,
    "office_name_kana": null
  },
  "1292": {
    "postcode": "7391292",
    "prefecture": "広島県",
    "prefecture_kana": "ヒロシマケン",
    "prefecture_code": 34,
    "city": "安芸高田市",
    "city_kana": "アキタカタシ",
    "town": "向原町坂",
    "town_kana": "ムカイハラチョウサカ",
    "street": "１８５−１",
    "office_name": "安芸高田市　向原支所",
    "office_name_kana": "アキタカタシ ムカイハラシシヨ"
  },
  "1293": {
    "postcode": "7391293",
    "prefecture": "広島県",
    "prefecture_kana": "ヒロシマケン",
    "prefecture_code": 34,
    "city": "安芸高田市",
    "city_kana": "アキタカタシ",
    "town": "向原町戸島",
    "town_kana": "ムカイハラチョウトシマ",
    "street": "２４８９",
    "office_name": "株式会社　山口製作所",
    "office_name_kana": "カブシキガイシヤ ヤマグチセイサクシヨ"
  },
  "1301": {
    "postcode": "7391301",
    "prefecture": "広島県",
    "prefecture_kana": "ヒロシマケン",
    "prefecture_code": 34,
    "city": "広島市安佐北区",
    "city_kana": "ヒロシマシアサキタク",
    "town": "白木町井原",
    "town_kana": "シラキチョウイバラ",
    "street": null,
    "office_name": null,
    "office_name_kana": null
  },
  "1302": {
    "postcode": "7391302",
    "prefecture": "広島県",
    "prefecture_kana": "ヒロシマケン",
    "prefecture_code": 34,
    "city": "広島市安佐北区",
    "city_kana": "ヒロシマシアサキタク",
    "town": "白木町古屋",
    "town_kana": "シラキチョウコヤ",
    "street": null,
    "office_name": null,
    "office_name_kana": null
  },
  "1303": {
    "postcode": "7391303",
    "prefecture": "広島県",
    "prefecture_kana": "ヒロシマケン",
    "prefecture_code": 34,
    "city": "広島市安佐北区",
    "city_kana": "ヒロシマシアサキタク",
    "town": "白木町志路",
    "town_kana": "シラキチョウシジ",
    "street": null,
    "office_name": null,
    "office_name_kana": null
  },
  "1411": {
    "postcode": "7391411",
    "prefecture": "広島県",
    "prefecture_kana": "ヒロシマケン",
    "prefecture_code": 34,
    "city": "広島市安佐北区",
    "city_kana": "ヒロシマシアサキタク",
    "town": "白木町市川",
    "town_kana": "シラキチョウイチカワ",
    "street": null,
    "office_name": null,
    "office_name_kana": null
  },
  "1412": {
    "postcode": "7391412",
    "prefecture": "広島県",
    "prefecture_kana": "ヒロシマケン",
    "prefecture_code": 34,
    "city": "広島市安佐北区",
    "city_kana": "ヒロシマシアサキタク",
    "town": "白木町小越",
    "town_kana": "シラキチョウオコエ",
    "street": null,
    "office_name": null,
    "office_name_kana": null
  },
  "1413": {
    "postcode": "7391413",
    "prefecture": "広島県",
    "prefecture_kana": "ヒロシマケン",
    "prefecture_code": 34,
    "city": "広島市安佐北区",
    "city_kana": "ヒロシマシアサキタク",
    "town": "白木町有留",
    "town_kana": "シラキチョウアリドメ",
    "street": null,
    "office_name": null,
    "office_name_kana": null
  },
  "1414": {
    "postcode": "7391414",
    "prefecture": "広島県",
    "prefecture_kana": "ヒロシマケン",
    "prefecture_code": 34,
    "city": "広島市安佐北区",
    "city_kana": "ヒロシマシアサキタク",
    "town": "白木町秋山",
    "town_kana": "シラキチョウアキヤマ",
    "street": null,
    "office_name": null,
    "office_name_kana": null
  },
  "1521": {
    "postcode": "7391521",
    "prefecture": "広島県",
    "prefecture_kana": "ヒロシマケン",
    "prefecture_code": 34,
    "city": "広島市安佐北区",
    "city_kana": "ヒロシマシアサキタク",
    "town": "白木町三田",
    "town_kana": "シラキチョウミタ",
    "street": null,
    "office_name": null,
    "office_name_kana": null
  },
  "1700": {
    "postcode": "7391700",
    "prefecture": "広島県",
    "prefecture_kana": "ヒロシマケン",
    "prefecture_code": 34,
    "city": "広島市安佐北区",
    "city_kana": "ヒロシマシアサキタク",
    "town": "",
    "town_kana": "",
    "street": null,
    "office_name": null,
    "office_name_kana": null
  },
  "1731": {
    "postcode": "7391731",
    "prefecture": "広島県",
    "prefecture_kana": "ヒロシマケン",
    "prefecture_code": 34,
    "city": "広島市安佐北区",
    "city_kana": "ヒロシマシアサキタク",
    "town": "落合",
    "town_kana": "オチアイ",
    "street": null,
    "office_name": null,
    "office_name_kana": null
  },
  "1732": [
    {
      "postcode": "7391732",
      "prefecture": "広島県",
      "prefecture_kana": "ヒロシマケン",
      "prefecture_code": 34,
      "city": "広島市安佐北区",
      "city_kana": "ヒロシマシアサキタク",
      "town": "落合南",
      "town_kana": "オチアイミナミ",
      "street": null,
      "office_name": null,
      "office_name_kana": null
    },
    {
      "postcode": "7391732",
      "prefecture": "広島県",
      "prefecture_kana": "ヒロシマケン",
      "prefecture_code": 34,
      "city": "広島市安佐北区",
      "city_kana": "ヒロシマシアサキタク",
      "town": "落合南町",
      "town_kana": "オチアイミナミマチ",
      "street": null,
      "office_name": null,
      "office_name_kana": null
    }
  ],
  "1733": [
    {
      "postcode": "7391733",
      "prefecture": "広島県",
      "prefecture_kana": "ヒロシマケン",
      "prefecture_code": 34,
      "city": "広島市安佐北区",
      "city_kana": "ヒロシマシアサキタク",
      "town": "口田南",
      "town_kana": "クチタミナミ",
      "street": null,
      "office_name": null,
      "office_name_kana": null
    },
    {
      "postcode": "7391733",
      "prefecture": "広島県",
      "prefecture_kana": "ヒロシマケン",
      "prefecture_code": 34,
      "city": "広島市安佐北区",
      "city_kana": "ヒロシマシアサキタク",
      "town": "口田南町",
      "town_kana": "クチタミナミマチ",
      "street": null,
      "office_name": null,
      "office_name_kana": null
    }
  ],
  "1734": [
    {
      "postcode": "7391734",
      "prefecture": "広島県",
      "prefecture_kana": "ヒロシマケン",
      "prefecture_code": 34,
      "city": "広島市安佐北区",
      "city_kana": "ヒロシマシアサキタク",
      "town": "口田",
      "town_kana": "クチタ",
      "street": null,
      "office_name": null,
      "office_name_kana": null
    },
    {
      "postcode": "7391734",
      "prefecture": "広島県",
      "prefecture_kana": "ヒロシマケン",
      "prefecture_code": 34,
      "city": "広島市安佐北区",
      "city_kana": "ヒロシマシアサキタク",
      "town": "口田町",
      "town_kana": "クチタチョウ",
      "street": null,
      "office_name": null,
      "office_name_kana": null
    }
  ],
  "1741": {
    "postcode": "7391741",
    "prefecture": "広島県",
    "prefecture_kana": "ヒロシマケン",
    "prefecture_code": 34,
    "city": "広島市安佐北区",
    "city_kana": "ヒロシマシアサキタク",
    "town": "真亀",
    "town_kana": "マガメ",
    "street": null,
    "office_name": null,
    "office_name_kana": null
  },
  "1742": {
    "postcode": "7391742",
    "prefecture": "広島県",
    "prefecture_kana": "ヒロシマケン",
    "prefecture_code": 34,
    "city": "広島市安佐北区",
    "city_kana": "ヒロシマシアサキタク",
    "town": "亀崎",
    "town_kana": "カメザキ",
    "street": null,
    "office_name": null,
    "office_name_kana": null
  },
  "1743": {
    "postcode": "7391743",
    "prefecture": "広島県",
    "prefecture_kana": "ヒロシマケン",
    "prefecture_code": 34,
    "city": "広島市安佐北区",
    "city_kana": "ヒロシマシアサキタク",
    "town": "倉掛",
    "town_kana": "クラカケ",
    "street": null,
    "office_name": null,
    "office_name_kana": null
  },
  "1751": [
    {
      "postcode": "7391751",
      "prefecture": "広島県",
      "prefecture_kana": "ヒロシマケン",
      "prefecture_code": 34,
      "city": "広島市安佐北区",
      "city_kana": "ヒロシマシアサキタク",
      "town": "深川",
      "town_kana": "フカワ",
      "street": null,
      "office_name": null,
      "office_name_kana": null
    },
    {
      "postcode": "7391751",
      "prefecture": "広島県",
      "prefecture_kana": "ヒロシマケン",
      "prefecture_code": 34,
      "city": "広島市安佐北区",
      "city_kana": "ヒロシマシアサキタク",
      "town": "深川町",
      "town_kana": "フカワチョウ",
      "street": null,
      "office_name": null,
      "office_name_kana": null
    }
  ],
  "1752": {
    "postcode": "7391752",
    "prefecture": "広島県",
    "prefecture_kana": "ヒロシマケン",
    "prefecture_code": 34,
    "city": "広島市安佐北区",
    "city_kana": "ヒロシマシアサキタク",
    "town": "上深川町",
    "town_kana": "カミフカワチョウ",
    "street": null,
    "office_name": null,
    "office_name_kana": null
  },
  "1753": {
    "postcode": "7391753",
    "prefecture": "広島県",
    "prefecture_kana": "ヒロシマケン",
    "prefecture_code": 34,
    "city": "広島市安佐北区",
    "city_kana": "ヒロシマシアサキタク",
    "town": "狩留家町",
    "town_kana": "カルガチョウ",
    "street": null,
    "office_name": null,
    "office_name_kana": null
  },
  "1754": {
    "postcode": "7391754",
    "prefecture": "広島県",
    "prefecture_kana": "ヒロシマケン",
    "prefecture_code": 34,
    "city": "広島市安佐北区",
    "city_kana": "ヒロシマシアサキタク",
    "town": "小河原町",
    "town_kana": "オガワラチョウ",
    "street": null,
    "office_name": null,
    "office_name_kana": null
  },
  "1792": {
    "postcode": "7391792",
    "prefecture": "広島県",
    "prefecture_kana": "ヒロシマケン",
    "prefecture_code": 34,
    "city": "広島市安佐北区",
    "city_kana": "ヒロシマシアサキタク",
    "town": "上深川町",
    "town_kana": "カミフカワチョウ",
    "street": "４４８",
    "office_name": "株式会社　研創",
    "office_name_kana": "カブシキガイシヤ ケンソウ"
  },
  "1794": {
    "postcode": "7391794",
    "prefecture": "広島県",
    "prefecture_kana": "ヒロシマケン",
    "prefecture_code": 34,
    "city": "広島市安佐北区",
    "city_kana": "ヒロシマシアサキタク",
    "town": "口田南",
    "town_kana": "クチタミナミ",
    "street": "２丁目１８−１２",
    "office_name": "株式会社　モルテン　高陽工場",
    "office_name_kana": "カブシキガイシヤ モルテン コウヨウコウジヨウ"
  },
  "1801": {
    "postcode": "7391801",
    "prefecture": "広島県",
    "prefecture_kana": "ヒロシマケン",
    "prefecture_code": 34,
    "city": "安芸高田市",
    "city_kana": "アキタカタシ",
    "town": "高宮町川根",
    "town_kana": "タカミヤチョウカワネ",
    "street": null,
    "office_name": null,
    "office_name_kana": null
  },
  "1802": {
    "postcode": "7391802",
    "prefecture": "広島県",
    "prefecture_kana": "ヒロシマケン",
    "prefecture_code": 34,
    "city": "安芸高田市",
    "city_kana": "アキタカタシ",
    "town": "高宮町佐々部",
    "town_kana": "タカミヤチョウササベ",
    "street": null,
    "office_name": null,
    "office_name_kana": null
  },
  "1803": {
    "postcode": "7391803",
    "prefecture": "広島県",
    "prefecture_kana": "ヒロシマケン",
    "prefecture_code": 34,
    "city": "安芸高田市",
    "city_kana": "アキタカタシ",
    "town": "高宮町船木",
    "town_kana": "タカミヤチョウフナキ",
    "street": null,
    "office_name": null,
    "office_name_kana": null
  },
  "1804": {
    "postcode": "7391804",
    "prefecture": "広島県",
    "prefecture_kana": "ヒロシマケン",
    "prefecture_code": 34,
    "city": "安芸高田市",
    "city_kana": "アキタカタシ",
    "town": "高宮町房後",
    "town_kana": "タカミヤチョウボウゴ",
    "street": null,
    "office_name": null,
    "office_name_kana": null
  },
  "1805": {
    "postcode": "7391805",
    "prefecture": "広島県",
    "prefecture_kana": "ヒロシマケン",
    "prefecture_code": 34,
    "city": "安芸高田市",
    "city_kana": "アキタカタシ",
    "town": "高宮町原田",
    "town_kana": "タカミヤチョウハラダ",
    "street": null,
    "office_name": null,
    "office_name_kana": null
  },
  "1806": {
    "postcode": "7391806",
    "prefecture": "広島県",
    "prefecture_kana": "ヒロシマケン",
    "prefecture_code": 34,
    "city": "安芸高田市",
    "city_kana": "アキタカタシ",
    "town": "高宮町来女木",
    "town_kana": "タカミヤチョウクルメギ",
    "street": null,
    "office_name": null,
    "office_name_kana": null
  },
  "1807": {
    "postcode": "7391807",
    "prefecture": "広島県",
    "prefecture_kana": "ヒロシマケン",
    "prefecture_code": 34,
    "city": "安芸高田市",
    "city_kana": "アキタカタシ",
    "town": "高宮町羽佐竹",
    "town_kana": "タカミヤチョウハサダケ",
    "street": null,
    "office_name": null,
    "office_name_kana": null
  },
  "2101": {
    "postcode": "7392101",
    "prefecture": "広島県",
    "prefecture_kana": "ヒロシマケン",
    "prefecture_code": 34,
    "city": "東広島市",
    "city_kana": "ヒガシヒロシマシ",
    "town": "高屋町造賀",
    "town_kana": "タカヤチョウゾウカ",
    "street": null,
    "office_name": null,
    "office_name_kana": null
  },
  "2102": {
    "postcode": "7392102",
    "prefecture": "広島県",
    "prefecture_kana": "ヒロシマケン",
    "prefecture_code": 34,
    "city": "東広島市",
    "city_kana": "ヒガシヒロシマシ",
    "town": "高屋町杵原",
    "town_kana": "タカヤチョウキネハラ",
    "street": null,
    "office_name": null,
    "office_name_kana": null
  },
  "2103": {
    "postcode": "7392103",
    "prefecture": "広島県",
    "prefecture_kana": "ヒロシマケン",
    "prefecture_code": 34,
    "city": "東広島市",
    "city_kana": "ヒガシヒロシマシ",
    "town": "高屋町宮領",
    "town_kana": "タカヤチョウミヤリョウ",
    "street": null,
    "office_name": null,
    "office_name_kana": null
  },
  "2104": {
    "postcode": "7392104",
    "prefecture": "広島県",
    "prefecture_kana": "ヒロシマケン",
    "prefecture_code": 34,
    "city": "東広島市",
    "city_kana": "ヒガシヒロシマシ",
    "town": "高屋町大畠",
    "town_kana": "タカヤチョウオオバタケ",
    "street": null,
    "office_name": null,
    "office_name_kana": null
  },
  "2105": {
    "postcode": "7392105",
    "prefecture": "広島県",
    "prefecture_kana": "ヒロシマケン",
    "prefecture_code": 34,
    "city": "東広島市",
    "city_kana": "ヒガシヒロシマシ",
    "town": "高屋町檜山",
    "town_kana": "タカヤチョウヒヤマ",
    "street": null,
    "office_name": null,
    "office_name_kana": null
  },
  "2106": {
    "postcode": "7392106",
    "prefecture": "広島県",
    "prefecture_kana": "ヒロシマケン",
    "prefecture_code": 34,
    "city": "東広島市",
    "city_kana": "ヒガシヒロシマシ",
    "town": "高屋町稲木",
    "town_kana": "タカヤチョウイナキ",
    "street": null,
    "office_name": null,
    "office_name_kana": null
  },
  "2111": {
    "postcode": "7392111",
    "prefecture": "広島県",
    "prefecture_kana": "ヒロシマケン",
    "prefecture_code": 34,
    "city": "東広島市",
    "city_kana": "ヒガシヒロシマシ",
    "town": "高屋町高屋堀",
    "town_kana": "タカヤチョウタカヤホリ",
    "street": null,
    "office_name": null,
    "office_name_kana": null
  },
  "2112": {
    "postcode": "7392112",
    "prefecture": "広島県",
    "prefecture_kana": "ヒロシマケン",
    "prefecture_code": 34,
    "city": "東広島市",
    "city_kana": "ヒガシヒロシマシ",
    "town": "高屋町貞重",
    "town_kana": "タカヤチョウサダシゲ",
    "street": null,
    "office_name": null,
    "office_name_kana": null
  },
  "2113": {
    "postcode": "7392113",
    "prefecture": "広島県",
    "prefecture_kana": "ヒロシマケン",
    "prefecture_code": 34,
    "city": "東広島市",
    "city_kana": "ヒガシヒロシマシ",
    "town": "高屋町高屋東",
    "town_kana": "タカヤチョウタカヤヒガシ",
    "street": null,
    "office_name": null,
    "office_name_kana": null
  },
  "2114": {
    "postcode": "7392114",
    "prefecture": "広島県",
    "prefecture_kana": "ヒロシマケン",
    "prefecture_code": 34,
    "city": "東広島市",
    "city_kana": "ヒガシヒロシマシ",
    "town": "高屋町白市",
    "town_kana": "タカヤチョウシライチ",
    "street": null,
    "office_name": null,
    "office_name_kana": null
  },
  "2115": {
    "postcode": "7392115",
    "prefecture": "広島県",
    "prefecture_kana": "ヒロシマケン",
    "prefecture_code": 34,
    "city": "東広島市",
    "city_kana": "ヒガシヒロシマシ",
    "town": "高屋高美が丘",
    "town_kana": "タカヤタカミガオカ",
    "street": null,
    "office_name": null,
    "office_name_kana": null
  },
  "2116": {
    "postcode": "7392116",
    "prefecture": "広島県",
    "prefecture_kana": "ヒロシマケン",
    "prefecture_code": 34,
    "city": "東広島市",
    "city_kana": "ヒガシヒロシマシ",
    "town": "高屋うめの辺",
    "town_kana": "タカヤウメノベ",
    "street": null,
    "office_name": null,
    "office_name_kana": null
  },
  "2117": {
    "postcode": "7392117",
    "prefecture": "広島県",
    "prefecture_kana": "ヒロシマケン",
    "prefecture_code": 34,
    "city": "東広島市",
    "city_kana": "ヒガシヒロシマシ",
    "town": "高屋台",
    "town_kana": "タカヤダイ",
    "street": null,
    "office_name": null,
    "office_name_kana": null
  },
  "2121": {
    "postcode": "7392121",
    "prefecture": "広島県",
    "prefecture_kana": "ヒロシマケン",
    "prefecture_code": 34,
    "city": "東広島市",
    "city_kana": "ヒガシヒロシマシ",
    "town": "高屋町小谷",
    "town_kana": "タカヤチョウコダニ",
    "street": null,
    "office_name": null,
    "office_name_kana": null
  },
  "2122": {
    "postcode": "7392122",
    "prefecture": "広島県",
    "prefecture_kana": "ヒロシマケン",
    "prefecture_code": 34,
    "city": "東広島市",
    "city_kana": "ヒガシヒロシマシ",
    "town": "高屋町重兼",
    "town_kana": "タカヤチョウシゲカネ",
    "street": null,
    "office_name": null,
    "office_name_kana": null
  },
  "2123": {
    "postcode": "7392123",
    "prefecture": "広島県",
    "prefecture_kana": "ヒロシマケン",
    "prefecture_code": 34,
    "city": "東広島市",
    "city_kana": "ヒガシヒロシマシ",
    "town": "高屋町溝口",
    "town_kana": "タカヤチョウミゾグチ",
    "street": null,
    "office_name": null,
    "office_name_kana": null
  },
  "2124": {
    "postcode": "7392124",
    "prefecture": "広島県",
    "prefecture_kana": "ヒロシマケン",
    "prefecture_code": 34,
    "city": "東広島市",
    "city_kana": "ヒガシヒロシマシ",
    "town": "高屋町郷",
    "town_kana": "タカヤチョウゴウ",
    "street": null,
    "office_name": null,
    "office_name_kana": null
  },
  "2125": {
    "postcode": "7392125",
    "prefecture": "広島県",
    "prefecture_kana": "ヒロシマケン",
    "prefecture_code": 34,
    "city": "東広島市",
    "city_kana": "ヒガシヒロシマシ",
    "town": "高屋町中島",
    "town_kana": "タカヤチョウナカシマ",
    "street": null,
    "office_name": null,
    "office_name_kana": null
  },
  "2201": {
    "postcode": "7392201",
    "prefecture": "広島県",
    "prefecture_kana": "ヒロシマケン",
    "prefecture_code": 34,
    "city": "東広島市",
    "city_kana": "ヒガシヒロシマシ",
    "town": "河内町中河内",
    "town_kana": "コウチチョウナカゴウチ",
    "street": null,
    "office_name": null,
    "office_name_kana": null
  },
  "2202": {
    "postcode": "7392202",
    "prefecture": "広島県",
    "prefecture_kana": "ヒロシマケン",
    "prefecture_code": 34,
    "city": "東広島市",
    "city_kana": "ヒガシヒロシマシ",
    "town": "河内町下河内",
    "town_kana": "コウチチョウシモゴウチ",
    "street": null,
    "office_name": null,
    "office_name_kana": null
  },
  "2203": {
    "postcode": "7392203",
    "prefecture": "広島県",
    "prefecture_kana": "ヒロシマケン",
    "prefecture_code": 34,
    "city": "東広島市",
    "city_kana": "ヒガシヒロシマシ",
    "town": "河内町上河内",
    "town_kana": "コウチチョウカミゴウチ",
    "street": null,
    "office_name": null,
    "office_name_kana": null
  },
  "2204": {
    "postcode": "7392204",
    "prefecture": "広島県",
    "prefecture_kana": "ヒロシマケン",
    "prefecture_code": 34,
    "city": "東広島市",
    "city_kana": "ヒガシヒロシマシ",
    "town": "河内町河戸",
    "town_kana": "コウチチョウコウド",
    "street": null,
    "office_name": null,
    "office_name_kana": null
  },
  "2205": {
    "postcode": "7392205",
    "prefecture": "広島県",
    "prefecture_kana": "ヒロシマケン",
    "prefecture_code": 34,
    "city": "東広島市",
    "city_kana": "ヒガシヒロシマシ",
    "town": "河内町戸野",
    "town_kana": "コウチチョウトノ",
    "street": null,
    "office_name": null,
    "office_name_kana": null
  },
  "2206": {
    "postcode": "7392206",
    "prefecture": "広島県",
    "prefecture_kana": "ヒロシマケン",
    "prefecture_code": 34,
    "city": "東広島市",
    "city_kana": "ヒガシヒロシマシ",
    "town": "河内町宇山",
    "town_kana": "コウチチョウウヤマ",
    "street": null,
    "office_name": null,
    "office_name_kana": null
  },
  "2207": {
    "postcode": "7392207",
    "prefecture": "広島県",
    "prefecture_kana": "ヒロシマケン",
    "prefecture_code": 34,
    "city": "東広島市",
    "city_kana": "ヒガシヒロシマシ",
    "town": "河内町小田",
    "town_kana": "コウチチョウオダ",
    "street": null,
    "office_name": null,
    "office_name_kana": null
  },
  "2208": {
    "postcode": "7392208",
    "prefecture": "広島県",
    "prefecture_kana": "ヒロシマケン",
    "prefecture_code": 34,
    "city": "東広島市",
    "city_kana": "ヒガシヒロシマシ",
    "town": "河内町入野",
    "town_kana": "コウチチョウニュウノ",
    "street": null,
    "office_name": null,
    "office_name_kana": null
  },
  "2209": {
    "postcode": "7392209",
    "prefecture": "広島県",
    "prefecture_kana": "ヒロシマケン",
    "prefecture_code": 34,
    "city": "東広島市",
    "city_kana": "ヒガシヒロシマシ",
    "town": "入野中山台",
    "town_kana": "ニュウノナカヤマダイ",
    "street": null,
    "office_name": null,
    "office_name_kana": null
  },
  "2211": {
    "postcode": "7392211",
    "prefecture": "広島県",
    "prefecture_kana": "ヒロシマケン",
    "prefecture_code": 34,
    "city": "東広島市",
    "city_kana": "ヒガシヒロシマシ",
    "town": "河内臨空団地",
    "town_kana": "コウチリンクウダンチ",
    "street": null,
    "office_name": null,
    "office_name_kana": null
  },
  "2301": {
    "postcode": "7392301",
    "prefecture": "広島県",
    "prefecture_kana": "ヒロシマケン",
    "prefecture_code": 34,
    "city": "東広島市",
    "city_kana": "ヒガシヒロシマシ",
    "town": "福富町上竹仁",
    "town_kana": "フクトミチョウカミダケニ",
    "street": null,
    "office_name": null,
    "office_name_kana": null
  },
  "2302": {
    "postcode": "7392302",
    "prefecture": "広島県",
    "prefecture_kana": "ヒロシマケン",
    "prefecture_code": 34,
    "city": "東広島市",
    "city_kana": "ヒガシヒロシマシ",
    "town": "福富町下竹仁",
    "town_kana": "フクトミチョウシモダケニ",
    "street": null,
    "office_name": null,
    "office_name_kana": null
  },
  "2303": {
    "postcode": "7392303",
    "prefecture": "広島県",
    "prefecture_kana": "ヒロシマケン",
    "prefecture_code": 34,
    "city": "東広島市",
    "city_kana": "ヒガシヒロシマシ",
    "town": "福富町久芳",
    "town_kana": "フクトミチョウクバ",
    "street": null,
    "office_name": null,
    "office_name_kana": null
  },
  "2304": {
    "postcode": "7392304",
    "prefecture": "広島県",
    "prefecture_kana": "ヒロシマケン",
    "prefecture_code": 34,
    "city": "東広島市",
    "city_kana": "ヒガシヒロシマシ",
    "town": "福富町上戸野",
    "town_kana": "フクトミチョウカミトノ",
    "street": null,
    "office_name": null,
    "office_name_kana": null
  },
  "2311": {
    "postcode": "7392311",
    "prefecture": "広島県",
    "prefecture_kana": "ヒロシマケン",
    "prefecture_code": 34,
    "city": "東広島市",
    "city_kana": "ヒガシヒロシマシ",
    "town": "豊栄町乃美",
    "town_kana": "トヨサカチョウノミ",
    "street": null,
    "office_name": null,
    "office_name_kana": null
  },
  "2312": {
    "postcode": "7392312",
    "prefecture": "広島県",
    "prefecture_kana": "ヒロシマケン",
    "prefecture_code": 34,
    "city": "東広島市",
    "city_kana": "ヒガシヒロシマシ",
    "town": "豊栄町別府",
    "town_kana": "トヨサカチョウベフ",
    "street": null,
    "office_name": null,
    "office_name_kana": null
  },
  "2313": {
    "postcode": "7392313",
    "prefecture": "広島県",
    "prefecture_kana": "ヒロシマケン",
    "prefecture_code": 34,
    "city": "東広島市",
    "city_kana": "ヒガシヒロシマシ",
    "town": "豊栄町清武",
    "town_kana": "トヨサカチョウキヨタケ",
    "street": null,
    "office_name": null,
    "office_name_kana": null
  },
  "2314": {
    "postcode": "7392314",
    "prefecture": "広島県",
    "prefecture_kana": "ヒロシマケン",
    "prefecture_code": 34,
    "city": "東広島市",
    "city_kana": "ヒガシヒロシマシ",
    "town": "豊栄町飯田",
    "town_kana": "トヨサカチョウイイダ",
    "street": null,
    "office_name": null,
    "office_name_kana": null
  },
  "2315": {
    "postcode": "7392315",
    "prefecture": "広島県",
    "prefecture_kana": "ヒロシマケン",
    "prefecture_code": 34,
    "city": "東広島市",
    "city_kana": "ヒガシヒロシマシ",
    "town": "豊栄町吉原",
    "town_kana": "トヨサカチョウヨシワラ",
    "street": null,
    "office_name": null,
    "office_name_kana": null
  },
  "2316": {
    "postcode": "7392316",
    "prefecture": "広島県",
    "prefecture_kana": "ヒロシマケン",
    "prefecture_code": 34,
    "city": "東広島市",
    "city_kana": "ヒガシヒロシマシ",
    "town": "豊栄町安宿",
    "town_kana": "トヨサカチョウアスカ",
    "street": null,
    "office_name": null,
    "office_name_kana": null
  },
  "2317": {
    "postcode": "7392317",
    "prefecture": "広島県",
    "prefecture_kana": "ヒロシマケン",
    "prefecture_code": 34,
    "city": "東広島市",
    "city_kana": "ヒガシヒロシマシ",
    "town": "豊栄町鍛冶屋",
    "town_kana": "トヨサカチョウカジヤ",
    "street": null,
    "office_name": null,
    "office_name_kana": null
  },
  "2318": {
    "postcode": "7392318",
    "prefecture": "広島県",
    "prefecture_kana": "ヒロシマケン",
    "prefecture_code": 34,
    "city": "東広島市",
    "city_kana": "ヒガシヒロシマシ",
    "town": "豊栄町能良",
    "town_kana": "トヨサカチョウノウラ",
    "street": null,
    "office_name": null,
    "office_name_kana": null
  },
  "2401": {
    "postcode": "7392401",
    "prefecture": "広島県",
    "prefecture_kana": "ヒロシマケン",
    "prefecture_code": 34,
    "city": "東広島市",
    "city_kana": "ヒガシヒロシマシ",
    "town": "安芸津町木谷",
    "town_kana": "アキツチョウキダニ",
    "street": null,
    "office_name": null,
    "office_name_kana": null
  },
  "2402": {
    "postcode": "7392402",
    "prefecture": "広島県",
    "prefecture_kana": "ヒロシマケン",
    "prefecture_code": 34,
    "city": "東広島市",
    "city_kana": "ヒガシヒロシマシ",
    "town": "安芸津町三津",
    "town_kana": "アキツチョウミツ",
    "street": null,
    "office_name": null,
    "office_name_kana": null
  },
  "2403": {
    "postcode": "7392403",
    "prefecture": "広島県",
    "prefecture_kana": "ヒロシマケン",
    "prefecture_code": 34,
    "city": "東広島市",
    "city_kana": "ヒガシヒロシマシ",
    "town": "安芸津町風早",
    "town_kana": "アキツチョウカザハヤ",
    "street": null,
    "office_name": null,
    "office_name_kana": null
  },
  "2404": {
    "postcode": "7392404",
    "prefecture": "広島県",
    "prefecture_kana": "ヒロシマケン",
    "prefecture_code": 34,
    "city": "東広島市",
    "city_kana": "ヒガシヒロシマシ",
    "town": "安芸津町大田",
    "town_kana": "アキツチョウオオダ",
    "street": null,
    "office_name": null,
    "office_name_kana": null
  },
  "2405": {
    "postcode": "7392405",
    "prefecture": "広島県",
    "prefecture_kana": "ヒロシマケン",
    "prefecture_code": 34,
    "city": "東広島市",
    "city_kana": "ヒガシヒロシマシ",
    "town": "安芸津町小松原",
    "town_kana": "アキツチョウコマツバラ",
    "street": null,
    "office_name": null,
    "office_name_kana": null
  },
  "2492": {
    "postcode": "7392492",
    "prefecture": "広島県",
    "prefecture_kana": "ヒロシマケン",
    "prefecture_code": 34,
    "city": "東広島市",
    "city_kana": "ヒガシヒロシマシ",
    "town": "安芸津町三津",
    "town_kana": "アキツチョウミツ",
    "street": "４３９８",
    "office_name": "東広島市　安芸津支所",
    "office_name_kana": "ヒガシヒロシマシ アキツシシヨ"
  },
  "2494": {
    "postcode": "7392494",
    "prefecture": "広島県",
    "prefecture_kana": "ヒロシマケン",
    "prefecture_code": 34,
    "city": "東広島市",
    "city_kana": "ヒガシヒロシマシ",
    "town": "安芸津町三津",
    "town_kana": "アキツチョウミツ",
    "street": "３０１−２",
    "office_name": "独立行政法人　農業・食品産業技術総合研究機構　果樹研究所ブドウ・カキ研究拠点",
    "office_name_kana": "ドクリツギヨウセイホウジン ノウギヨウ・シヨクヒンサンギヨウギジユツソウゴウケンキユウキコウ カジユケンキユウシヨブドウ・カキケンキユウキヨテン"
  },
  "2498": {
    "postcode": "7392498",
    "prefecture": "広島県",
    "prefecture_kana": "ヒロシマケン",
    "prefecture_code": 34,
    "city": "東広島市",
    "city_kana": "ヒガシヒロシマシ",
    "town": "安芸津町三津",
    "town_kana": "アキツチョウミツ",
    "street": "４２５８−１",
    "office_name": "芸南　農業協同組合",
    "office_name_kana": "ゲイナン ノウギヨウキヨウドウクミアイ"
  },
  "2501": {
    "postcode": "7392501",
    "prefecture": "広島県",
    "prefecture_kana": "ヒロシマケン",
    "prefecture_code": 34,
    "city": "東広島市",
    "city_kana": "ヒガシヒロシマシ",
    "town": "黒瀬町小多田",
    "town_kana": "クロセチョウオタダ",
    "street": null,
    "office_name": null,
    "office_name_kana": null
  },
  "2502": {
    "postcode": "7392502",
    "prefecture": "広島県",
    "prefecture_kana": "ヒロシマケン",
    "prefecture_code": 34,
    "city": "東広島市",
    "city_kana": "ヒガシヒロシマシ",
    "town": "黒瀬町国近",
    "town_kana": "クロセチョウクニチカ",
    "street": null,
    "office_name": null,
    "office_name_kana": null
  },
  "2503": {
    "postcode": "7392503",
    "prefecture": "広島県",
    "prefecture_kana": "ヒロシマケン",
    "prefecture_code": 34,
    "city": "東広島市",
    "city_kana": "ヒガシヒロシマシ",
    "town": "黒瀬町南方",
    "town_kana": "クロセチョウミナミガタ",
    "street": null,
    "office_name": null,
    "office_name_kana": null
  },
  "2504": {
    "postcode": "7392504",
    "prefecture": "広島県",
    "prefecture_kana": "ヒロシマケン",
    "prefecture_code": 34,
    "city": "東広島市",
    "city_kana": "ヒガシヒロシマシ",
    "town": "黒瀬町宗近柳国",
    "town_kana": "クロセチョウムネチカヤナクニ",
    "street": null,
    "office_name": null,
    "office_name_kana": null
  },
  "2611": {
    "postcode": "7392611",
    "prefecture": "広島県",
    "prefecture_kana": "ヒロシマケン",
    "prefecture_code": 34,
    "city": "東広島市",
    "city_kana": "ヒガシヒロシマシ",
    "town": "黒瀬町大多田",
    "town_kana": "クロセチョウオオタダ",
    "street": null,
    "office_name": null,
    "office_name_kana": null
  },
  "2612": {
    "postcode": "7392612",
    "prefecture": "広島県",
    "prefecture_kana": "ヒロシマケン",
    "prefecture_code": 34,
    "city": "東広島市",
    "city_kana": "ヒガシヒロシマシ",
    "town": "黒瀬町丸山",
    "town_kana": "クロセチョウマルヤマ",
    "street": null,
    "office_name": null,
    "office_name_kana": null
  },
  "2613": {
    "postcode": "7392613",
    "prefecture": "広島県",
    "prefecture_kana": "ヒロシマケン",
    "prefecture_code": 34,
    "city": "東広島市",
    "city_kana": "ヒガシヒロシマシ",
    "town": "黒瀬町楢原",
    "town_kana": "クロセチョウナラハラ",
    "street": null,
    "office_name": null,
    "office_name_kana": null
  },
  "2614": {
    "postcode": "7392614",
    "prefecture": "広島県",
    "prefecture_kana": "ヒロシマケン",
    "prefecture_code": 34,
    "city": "東広島市",
    "city_kana": "ヒガシヒロシマシ",
    "town": "黒瀬松ケ丘",
    "town_kana": "クロセマツガオカ",
    "street": null,
    "office_name": null,
    "office_name_kana": null
  },
  "2615": {
    "postcode": "7392615",
    "prefecture": "広島県",
    "prefecture_kana": "ヒロシマケン",
    "prefecture_code": 34,
    "city": "東広島市",
    "city_kana": "ヒガシヒロシマシ",
    "town": "黒瀬春日野",
    "town_kana": "クロセカスガノ",
    "street": null,
    "office_name": null,
    "office_name_kana": null
  },
  "2616": {
    "postcode": "7392616",
    "prefecture": "広島県",
    "prefecture_kana": "ヒロシマケン",
    "prefecture_code": 34,
    "city": "東広島市",
    "city_kana": "ヒガシヒロシマシ",
    "town": "黒瀬町兼広",
    "town_kana": "クロセチョウカネヒロ",
    "street": null,
    "office_name": null,
    "office_name_kana": null
  },
  "2617": {
    "postcode": "7392617",
    "prefecture": "広島県",
    "prefecture_kana": "ヒロシマケン",
    "prefecture_code": 34,
    "city": "東広島市",
    "city_kana": "ヒガシヒロシマシ",
    "town": "黒瀬町切田",
    "town_kana": "クロセチョウキリタ",
    "street": null,
    "office_name": null,
    "office_name_kana": null
  },
  "2618": {
    "postcode": "7392618",
    "prefecture": "広島県",
    "prefecture_kana": "ヒロシマケン",
    "prefecture_code": 34,
    "city": "東広島市",
    "city_kana": "ヒガシヒロシマシ",
    "town": "黒瀬桜が丘",
    "town_kana": "クロセサクラガオカ",
    "street": null,
    "office_name": null,
    "office_name_kana": null
  },
  "2619": {
    "postcode": "7392619",
    "prefecture": "広島県",
    "prefecture_kana": "ヒロシマケン",
    "prefecture_code": 34,
    "city": "東広島市",
    "city_kana": "ヒガシヒロシマシ",
    "town": "黒瀬切田が丘",
    "town_kana": "クロセキリタガオカ",
    "street": null,
    "office_name": null,
    "office_name_kana": null
  },
  "2621": [
    {
      "postcode": "7392621",
      "prefecture": "広島県",
      "prefecture_kana": "ヒロシマケン",
      "prefecture_code": 34,
      "city": "東広島市",
      "city_kana": "ヒガシヒロシマシ",
      "town": "黒瀬町南方",
      "town_kana": "クロセチョウミナミガタ",
      "street": null,
      "office_name": null,
      "office_name_kana": null
    },
    {
      "postcode": "7392621",
      "prefecture": "広島県",
      "prefecture_kana": "ヒロシマケン",
      "prefecture_code": 34,
      "city": "東広島市",
      "city_kana": "ヒガシヒロシマシ",
      "town": "黒瀬町南方賀茂精神医療センター",
      "town_kana": "クロセチョウミナミガタカモセイシンイリョウセンター",
      "street": null,
      "office_name": null,
      "office_name_kana": null
    }
  ],
  "2622": {
    "postcode": "7392622",
    "prefecture": "広島県",
    "prefecture_kana": "ヒロシマケン",
    "prefecture_code": 34,
    "city": "東広島市",
    "city_kana": "ヒガシヒロシマシ",
    "town": "黒瀬町乃美尾",
    "town_kana": "クロセチョウノミノオ",
    "street": null,
    "office_name": null,
    "office_name_kana": null
  },
  "2623": {
    "postcode": "7392623",
    "prefecture": "広島県",
    "prefecture_kana": "ヒロシマケン",
    "prefecture_code": 34,
    "city": "東広島市",
    "city_kana": "ヒガシヒロシマシ",
    "town": "黒瀬町川角",
    "town_kana": "クロセチョウカワスミ",
    "street": null,
    "office_name": null,
    "office_name_kana": null
  },
  "2624": {
    "postcode": "7392624",
    "prefecture": "広島県",
    "prefecture_kana": "ヒロシマケン",
    "prefecture_code": 34,
    "city": "東広島市",
    "city_kana": "ヒガシヒロシマシ",
    "town": "黒瀬町菅田",
    "town_kana": "クロセチョウスゲタ",
    "street": null,
    "office_name": null,
    "office_name_kana": null
  },
  "2625": {
    "postcode": "7392625",
    "prefecture": "広島県",
    "prefecture_kana": "ヒロシマケン",
    "prefecture_code": 34,
    "city": "東広島市",
    "city_kana": "ヒガシヒロシマシ",
    "town": "黒瀬町上保田",
    "town_kana": "クロセチョウカミボウダ",
    "street": null,
    "office_name": null,
    "office_name_kana": null
  },
  "2626": {
    "postcode": "7392626",
    "prefecture": "広島県",
    "prefecture_kana": "ヒロシマケン",
    "prefecture_code": 34,
    "city": "東広島市",
    "city_kana": "ヒガシヒロシマシ",
    "town": "黒瀬町市飯田",
    "town_kana": "クロセチョウイチイイダ",
    "street": null,
    "office_name": null,
    "office_name_kana": null
  },
  "2627": {
    "postcode": "7392627",
    "prefecture": "広島県",
    "prefecture_kana": "ヒロシマケン",
    "prefecture_code": 34,
    "city": "東広島市",
    "city_kana": "ヒガシヒロシマシ",
    "town": "黒瀬楢原北",
    "town_kana": "クロセナラハラキタ",
    "street": null,
    "office_name": null,
    "office_name_kana": null
  },
  "2628": {
    "postcode": "7392628",
    "prefecture": "広島県",
    "prefecture_kana": "ヒロシマケン",
    "prefecture_code": 34,
    "city": "東広島市",
    "city_kana": "ヒガシヒロシマシ",
    "town": "黒瀬楢原東",
    "town_kana": "クロセナラハラヒガシ",
    "street": null,
    "office_name": null,
    "office_name_kana": null
  },
  "2629": {
    "postcode": "7392629",
    "prefecture": "広島県",
    "prefecture_kana": "ヒロシマケン",
    "prefecture_code": 34,
    "city": "東広島市",
    "city_kana": "ヒガシヒロシマシ",
    "town": "黒瀬楢原西",
    "town_kana": "クロセナラハラニシ",
    "street": null,
    "office_name": null,
    "office_name_kana": null
  },
  "2631": {
    "postcode": "7392631",
    "prefecture": "広島県",
    "prefecture_kana": "ヒロシマケン",
    "prefecture_code": 34,
    "city": "東広島市",
    "city_kana": "ヒガシヒロシマシ",
    "town": "黒瀬学園台",
    "town_kana": "クロセガクエンダイ",
    "street": null,
    "office_name": null,
    "office_name_kana": null
  },
  "2692": {
    "postcode": "7392692",
    "prefecture": "広島県",
    "prefecture_kana": "ヒロシマケン",
    "prefecture_code": 34,
    "city": "東広島市",
    "city_kana": "ヒガシヒロシマシ",
    "town": "黒瀬町丸山",
    "town_kana": "クロセチョウマルヤマ",
    "street": "１３３３",
    "office_name": "東広島市　黒瀬支所",
    "office_name_kana": "ヒガシヒロシマシ クロセシシヨ"
  },
  "2693": {
    "postcode": "7392693",
    "prefecture": "広島県",
    "prefecture_kana": "ヒロシマケン",
    "prefecture_code": 34,
    "city": "東広島市",
    "city_kana": "ヒガシヒロシマシ",
    "town": "黒瀬町南方",
    "town_kana": "クロセチョウミナミガタ",
    "street": "９２",
    "office_name": "独立行政法人　国立病院機構　賀茂精神医療センター",
    "office_name_kana": "ドクリツギヨウセイホウジン コクリツビヨウインキコウ カモセイシンイリヨウセンタ-"
  },
  "2695": {
    "postcode": "7392695",
    "prefecture": "広島県",
    "prefecture_kana": "ヒロシマケン",
    "prefecture_code": 34,
    "city": "東広島市",
    "city_kana": "ヒガシヒロシマシ",
    "town": "黒瀬学園台",
    "town_kana": "クロセガクエンダイ",
    "street": "５５５−３６",
    "office_name": "広島国際大学",
    "office_name_kana": "ヒロシマコクサイダイガク"
  },
  "2731": {
    "postcode": "7392731",
    "prefecture": "広島県",
    "prefecture_kana": "ヒロシマケン",
    "prefecture_code": 34,
    "city": "東広島市",
    "city_kana": "ヒガシヒロシマシ",
    "town": "黒瀬町兼沢",
    "town_kana": "クロセチョウカネサワ",
    "street": null,
    "office_name": null,
    "office_name_kana": null
  },
  "2732": {
    "postcode": "7392732",
    "prefecture": "広島県",
    "prefecture_kana": "ヒロシマケン",
    "prefecture_code": 34,
    "city": "東広島市",
    "city_kana": "ヒガシヒロシマシ",
    "town": "黒瀬町津江",
    "town_kana": "クロセチョウツエ",
    "street": null,
    "office_name": null,
    "office_name_kana": null
  },
  "8501": {
    "postcode": "7398501",
    "prefecture": "広島県",
    "prefecture_kana": "ヒロシマケン",
    "prefecture_code": 34,
    "city": "東広島市",
    "city_kana": "ヒガシヒロシマシ",
    "town": "西条吉行東",
    "town_kana": "サイジョウヨシユキヒガシ",
    "street": "１丁目４−１４",
    "office_name": "株式会社　大創産業",
    "office_name_kana": "カブシキガイシヤ ダイソウサンギヨウ"
  },
  "8511": {
    "postcode": "7398511",
    "prefecture": "広島県",
    "prefecture_kana": "ヒロシマケン",
    "prefecture_code": 34,
    "city": "東広島市",
    "city_kana": "ヒガシヒロシマシ",
    "town": "鏡山",
    "town_kana": "カガミヤマ",
    "street": "１丁目３−２",
    "office_name": "広島大学　事務局　（保健管理センター）",
    "office_name_kana": "ヒロシマダイガク ジムキヨク (ホケンカンリセンタ-)"
  },
  "8512": {
    "postcode": "7398512",
    "prefecture": "広島県",
    "prefecture_kana": "ヒロシマケン",
    "prefecture_code": 34,
    "city": "東広島市",
    "city_kana": "ヒガシヒロシマシ",
    "town": "鏡山",
    "town_kana": "カガミヤマ",
    "street": "１丁目２−２",
    "office_name": "広島大学　附属図書館（広島大学高等教育研究開発センター）",
    "office_name_kana": "ヒロシマダイガク フゾクトシヨカン (ヒロシマダイガクコウトウキヨウイクカイハツセンタ-)"
  },
  "8513": {
    "postcode": "7398513",
    "prefecture": "広島県",
    "prefecture_kana": "ヒロシマケン",
    "prefecture_code": 34,
    "city": "東広島市",
    "city_kana": "ヒガシヒロシマシ",
    "town": "鏡山",
    "town_kana": "カガミヤマ",
    "street": "１丁目５−３",
    "office_name": "広島大学　中央廃液処理施設",
    "office_name_kana": "ヒロシマダイガク チユウオウハイエキシヨリシセツ"
  },
  "8514": {
    "postcode": "7398514",
    "prefecture": "広島県",
    "prefecture_kana": "ヒロシマケン",
    "prefecture_code": 34,
    "city": "東広島市",
    "city_kana": "ヒガシヒロシマシ",
    "town": "鏡山",
    "town_kana": "カガミヤマ",
    "street": "１丁目７番１号",
    "office_name": "広島大学　学生プラザ",
    "office_name_kana": "ヒロシマダイガク ガクセイプラザ"
  },
  "8521": {
    "postcode": "7398521",
    "prefecture": "広島県",
    "prefecture_kana": "ヒロシマケン",
    "prefecture_code": 34,
    "city": "東広島市",
    "city_kana": "ヒガシヒロシマシ",
    "town": "鏡山",
    "town_kana": "カガミヤマ",
    "street": "１丁目７−１",
    "office_name": "広島大学　総合科学部　（外国語教育研究センター）（情報教育研究センター）",
    "office_name_kana": "ヒロシマダイガク ソウゴウカガクブ (ガイコクゴキヨウイクケンキユウセンタ-)(ジヨウホウキヨウイクケンキユウセンタ-)"
  },
  "8522": {
    "postcode": "7398522",
    "prefecture": "広島県",
    "prefecture_kana": "ヒロシマケン",
    "prefecture_code": 34,
    "city": "東広島市",
    "city_kana": "ヒガシヒロシマシ",
    "town": "鏡山",
    "town_kana": "カガミヤマ",
    "street": "１丁目２−３",
    "office_name": "広島大学　文学部　（総合地誌研究資料センター）",
    "office_name_kana": "ヒロシマダイガク ブンガクブ (ソウゴウチシケンキユウシリヨウセンタ-)"
  },
  "8524": {
    "postcode": "7398524",
    "prefecture": "広島県",
    "prefecture_kana": "ヒロシマケン",
    "prefecture_code": 34,
    "city": "東広島市",
    "city_kana": "ヒガシヒロシマシ",
    "town": "鏡山",
    "town_kana": "カガミヤマ",
    "street": "１丁目１−１",
    "office_name": "広島大学　教育学部",
    "office_name_kana": "ヒロシマダイガク キヨウイクガクブ"
  },
  "8525": {
    "postcode": "7398525",
    "prefecture": "広島県",
    "prefecture_kana": "ヒロシマケン",
    "prefecture_code": 34,
    "city": "東広島市",
    "city_kana": "ヒガシヒロシマシ",
    "town": "鏡山",
    "town_kana": "カガミヤマ",
    "street": "１丁目２−１",
    "office_name": "広島大学　法学部・経済学部",
    "office_name_kana": "ヒロシマダイガク ホウガクブ・ケイザイガクブ"
  },
  "8526": [
    {
      "postcode": "7398526",
      "prefecture": "広島県",
      "prefecture_kana": "ヒロシマケン",
      "prefecture_code": 34,
      "city": "東広島市",
      "city_kana": "ヒガシヒロシマシ",
      "town": "鏡山",
      "town_kana": "カガミヤマ",
      "street": "１丁目３−１",
      "office_name": "広島大学　理学部",
      "office_name_kana": "ヒロシマダイガク リガクブ"
    },
    {
      "postcode": "7398526",
      "prefecture": "広島県",
      "prefecture_kana": "ヒロシマケン",
      "prefecture_code": 34,
      "city": "東広島市",
      "city_kana": "ヒガシヒロシマシ",
      "town": "鏡山",
      "town_kana": "カガミヤマ",
      "street": "１丁目３−１",
      "office_name": "広島大学　理学部　（アイソトープ総合センター）",
      "office_name_kana": "ヒロシマダイガク リガクブ (アイソト-プソウゴウセンタ-)"
    },
    {
      "postcode": "7398526",
      "prefecture": "広島県",
      "prefecture_kana": "ヒロシマケン",
      "prefecture_code": 34,
      "city": "東広島市",
      "city_kana": "ヒガシヒロシマシ",
      "town": "鏡山",
      "town_kana": "カガミヤマ",
      "street": "１丁目３−１",
      "office_name": "広島大学　理学部　（機器分析センター）",
      "office_name_kana": "ヒロシマダイガク リガクブ (キキブンセキセンタ-)"
    },
    {
      "postcode": "7398526",
      "prefecture": "広島県",
      "prefecture_kana": "ヒロシマケン",
      "prefecture_code": 34,
      "city": "東広島市",
      "city_kana": "ヒガシヒロシマシ",
      "town": "鏡山",
      "town_kana": "カガミヤマ",
      "street": "１丁目３−１",
      "office_name": "広島大学　理学部　（総合情報処理処理センター）",
      "office_name_kana": "ヒロシマダイガク リガクブ (ソウゴウジヨウホウシヨリシヨリセンタ-)"
    },
    {
      "postcode": "7398526",
      "prefecture": "広島県",
      "prefecture_kana": "ヒロシマケン",
      "prefecture_code": 34,
      "city": "東広島市",
      "city_kana": "ヒガシヒロシマシ",
      "town": "鏡山",
      "town_kana": "カガミヤマ",
      "street": "１丁目３−１",
      "office_name": "広島大学　理学部　（低温センター）",
      "office_name_kana": "ヒロシマダイガク リガクブ (テイオンセンタ-)"
    },
    {
      "postcode": "7398526",
      "prefecture": "広島県",
      "prefecture_kana": "ヒロシマケン",
      "prefecture_code": 34,
      "city": "東広島市",
      "city_kana": "ヒガシヒロシマシ",
      "town": "鏡山",
      "town_kana": "カガミヤマ",
      "street": "１丁目３−１",
      "office_name": "広島大学　理学部　（放射光科学研究センター）",
      "office_name_kana": "ヒロシマダイガク リガクブ (ホウシヤコウカガクケンキユウセンタ-)"
    }
  ],
  "8527": [
    {
      "postcode": "7398527",
      "prefecture": "広島県",
      "prefecture_kana": "ヒロシマケン",
      "prefecture_code": 34,
      "city": "東広島市",
      "city_kana": "ヒガシヒロシマシ",
      "town": "鏡山",
      "town_kana": "カガミヤマ",
      "street": "１丁目４−１",
      "office_name": "広島大学　工学部　（遺伝子実験施設）",
      "office_name_kana": "ヒロシマダイガク コウガクブ (イデンシジツケンシセツ)"
    },
    {
      "postcode": "7398527",
      "prefecture": "広島県",
      "prefecture_kana": "ヒロシマケン",
      "prefecture_code": 34,
      "city": "東広島市",
      "city_kana": "ヒガシヒロシマシ",
      "town": "鏡山",
      "town_kana": "カガミヤマ",
      "street": "１丁目４−１",
      "office_name": "広島大学　工学部（ナノデバイス・システム研究センター）",
      "office_name_kana": "ヒロシマダイガク コウガクブ(ナノデバイス・システムケンキユウセンタ-)"
    },
    {
      "postcode": "7398527",
      "prefecture": "広島県",
      "prefecture_kana": "ヒロシマケン",
      "prefecture_code": 34,
      "city": "東広島市",
      "city_kana": "ヒガシヒロシマシ",
      "town": "鏡山",
      "town_kana": "カガミヤマ",
      "street": "１丁目４−１",
      "office_name": "広島大学　工学部（ベンチャー・ビジネス・ラボラトリー）",
      "office_name_kana": "ヒロシマダイガク コウガクブ(ベンチヤ-・ビジネス・ラボラトリ-)"
    }
  ],
  "8528": {
    "postcode": "7398528",
    "prefecture": "広島県",
    "prefecture_kana": "ヒロシマケン",
    "prefecture_code": 34,
    "city": "東広島市",
    "city_kana": "ヒガシヒロシマシ",
    "town": "鏡山",
    "town_kana": "カガミヤマ",
    "street": "１丁目４−４",
    "office_name": "広島大学　生物生産学部",
    "office_name_kana": "ヒロシマダイガク セイブツセイサンガクブ"
  },
  "8529": {
    "postcode": "7398529",
    "prefecture": "広島県",
    "prefecture_kana": "ヒロシマケン",
    "prefecture_code": 34,
    "city": "東広島市",
    "city_kana": "ヒガシヒロシマシ",
    "town": "鏡山",
    "town_kana": "カガミヤマ",
    "street": "１丁目５−１",
    "office_name": "広島大学大学院　国際協力研究科",
    "office_name_kana": "ヒロシマダイガクダイガクイン コクサイキヨウリヨクケンキユウカ"
  },
  "8530": {
    "postcode": "7398530",
    "prefecture": "広島県",
    "prefecture_kana": "ヒロシマケン",
    "prefecture_code": 34,
    "city": "東広島市",
    "city_kana": "ヒガシヒロシマシ",
    "town": "鏡山",
    "town_kana": "カガミヤマ",
    "street": "１丁目３番１号",
    "office_name": "広島大学大学院　先端物質科学研究科",
    "office_name_kana": "ヒロシマダイガクダイガクイン センタンブツシツカガクケンキユウカ"
  },
  "8601": {
    "postcode": "7398601",
    "prefecture": "広島県",
    "prefecture_kana": "ヒロシマケン",
    "prefecture_code": 34,
    "city": "東広島市",
    "city_kana": "ヒガシヒロシマシ",
    "town": "西条栄町",
    "town_kana": "サイジョウサカエマチ",
    "street": "８−２９（安芸西条郵便局私書箱第１６号）",
    "office_name": "東広島市役所",
    "office_name_kana": "ヒガシヒロシマシヤクシヨ"
  },
  "8602": {
    "postcode": "7398602",
    "prefecture": "広島県",
    "prefecture_kana": "ヒロシマケン",
    "prefecture_code": 34,
    "city": "東広島市",
    "city_kana": "ヒガシヒロシマシ",
    "town": "西条西本町",
    "town_kana": "サイジョウニシホンマチ",
    "street": "２−３０（安芸西条郵便局私書箱第４号）",
    "office_name": "株式会社　サタケ",
    "office_name_kana": "カブシキガイシヤ サタケ"
  },
  "8603": {
    "postcode": "7398603",
    "prefecture": "広島県",
    "prefecture_kana": "ヒロシマケン",
    "prefecture_code": 34,
    "city": "東広島市",
    "city_kana": "ヒガシヒロシマシ",
    "town": "西条昭和町",
    "town_kana": "サイジョウショウワマチ",
    "street": "２−７（安芸西条郵便局私書箱第６号）",
    "office_name": "株式会社　広島銀行　西条支店",
    "office_name_kana": "カブシキガイシヤ ヒロシマギンコウ サイジヨウシテン"
  },
  "8615": {
    "postcode": "7398615",
    "prefecture": "広島県",
    "prefecture_kana": "ヒロシマケン",
    "prefecture_code": 34,
    "city": "東広島市",
    "city_kana": "ヒガシヒロシマシ",
    "town": "西条昭和町",
    "town_kana": "サイジョウショウワマチ",
    "street": "１６−８（安芸西条郵便局私書箱第１４号）",
    "office_name": "西条　税務署",
    "office_name_kana": "サイジヨウ ゼイムシヨ"
  },
  "8616": {
    "postcode": "7398616",
    "prefecture": "広島県",
    "prefecture_kana": "ヒロシマケン",
    "prefecture_code": 34,
    "city": "東広島市",
    "city_kana": "ヒガシヒロシマシ",
    "town": "西条下見",
    "town_kana": "サイジョウシタミ",
    "street": "６丁目６−２３",
    "office_name": "株式会社　プレスネット",
    "office_name_kana": "カブシキガイシヤ プレスネツト"
  }
}