{
  "0061": {
    "postcode": "7410061",
    "prefecture": "山口県",
    "prefecture_kana": "ヤマグチケン",
    "prefecture_code": 35,
    "city": "岩国市",
    "city_kana": "イワクニシ",
    "town": "錦見",
    "town_kana": "ニシミ",
    "street": null,
    "office_name": null,
    "office_name_kana": null
  },
  "0062": {
    "postcode": "7410062",
    "prefecture": "山口県",
    "prefecture_kana": "ヤマグチケン",
    "prefecture_code": 35,
    "city": "岩国市",
    "city_kana": "イワクニシ",
    "town": "岩国",
    "town_kana": "イワクニ",
    "street": null,
    "office_name": null,
    "office_name_kana": null
  },
  "0063": {
    "postcode": "7410063",
    "prefecture": "山口県",
    "prefecture_kana": "ヤマグチケン",
    "prefecture_code": 35,
    "city": "岩国市",
    "city_kana": "イワクニシ",
    "town": "関戸",
    "town_kana": "セキド",
    "street": null,
    "office_name": null,
    "office_name_kana": null
  },
  "0071": {
    "postcode": "7410071",
    "prefecture": "山口県",
    "prefecture_kana": "ヤマグチケン",
    "prefecture_code": 35,
    "city": "岩国市",
    "city_kana": "イワクニシ",
    "town": "牛野谷町",
    "town_kana": "ウシノヤマチ",
    "street": null,
    "office_name": null,
    "office_name_kana": null
  },
  "0072": {
    "postcode": "7410072",
    "prefecture": "山口県",
    "prefecture_kana": "ヤマグチケン",
    "prefecture_code": 35,
    "city": "岩国市",
    "city_kana": "イワクニシ",
    "town": "平田",
    "town_kana": "ヒラタ",
    "street": null,
    "office_name": null,
    "office_name_kana": null
  },
  "0073": {
    "postcode": "7410073",
    "prefecture": "山口県",
    "prefecture_kana": "ヤマグチケン",
    "prefecture_code": 35,
    "city": "岩国市",
    "city_kana": "イワクニシ",
    "town": "柱野",
    "town_kana": "ハシラノ",
    "street": null,
    "office_name": null,
    "office_name_kana": null
  },
  "0074": {
    "postcode": "7410074",
    "prefecture": "山口県",
    "prefecture_kana": "ヤマグチケン",
    "prefecture_code": 35,
    "city": "岩国市",
    "city_kana": "イワクニシ",
    "town": "六呂師",
    "town_kana": "ロクロシ",
    "street": null,
    "office_name": null,
    "office_name_kana": null
  },
  "0075": {
    "postcode": "7410075",
    "prefecture": "山口県",
    "prefecture_kana": "ヤマグチケン",
    "prefecture_code": 35,
    "city": "岩国市",
    "city_kana": "イワクニシ",
    "town": "叶木",
    "town_kana": "カノウギ",
    "street": null,
    "office_name": null,
    "office_name_kana": null
  },
  "0081": {
    "postcode": "7410081",
    "prefecture": "山口県",
    "prefecture_kana": "ヤマグチケン",
    "prefecture_code": 35,
    "city": "岩国市",
    "city_kana": "イワクニシ",
    "town": "横山",
    "town_kana": "ヨコヤマ",
    "street": null,
    "office_name": null,
    "office_name_kana": null
  },
  "0082": {
    "postcode": "7410082",
    "prefecture": "山口県",
    "prefecture_kana": "ヤマグチケン",
    "prefecture_code": 35,
    "city": "岩国市",
    "city_kana": "イワクニシ",
    "town": "川西",
    "town_kana": "カワニシ",
    "street": null,
    "office_name": null,
    "office_name_kana": null
  },
  "0083": {
    "postcode": "7410083",
    "prefecture": "山口県",
    "prefecture_kana": "ヤマグチケン",
    "prefecture_code": 35,
    "city": "岩国市",
    "city_kana": "イワクニシ",
    "town": "御庄",
    "town_kana": "ミショウ",
    "street": null,
    "office_name": null,
    "office_name_kana": null
  },
  "0084": {
    "postcode": "7410084",
    "prefecture": "山口県",
    "prefecture_kana": "ヤマグチケン",
    "prefecture_code": 35,
    "city": "岩国市",
    "city_kana": "イワクニシ",
    "town": "大谷",
    "town_kana": "オオタニ",
    "street": null,
    "office_name": null,
    "office_name_kana": null
  },
  "0085": {
    "postcode": "7410085",
    "prefecture": "山口県",
    "prefecture_kana": "ヤマグチケン",
    "prefecture_code": 35,
    "city": "岩国市",
    "city_kana": "イワクニシ",
    "town": "持国",
    "town_kana": "モチクニ",
    "street": null,
    "office_name": null,
    "office_name_kana": null
  },
  "0091": {
    "postcode": "7410091",
    "prefecture": "山口県",
    "prefecture_kana": "ヤマグチケン",
    "prefecture_code": 35,
    "city": "岩国市",
    "city_kana": "イワクニシ",
    "town": "小瀬",
    "town_kana": "オゼ",
    "street": null,
    "office_name": null,
    "office_name_kana": null
  },
  "0092": {
    "postcode": "7410092",
    "prefecture": "山口県",
    "prefecture_kana": "ヤマグチケン",
    "prefecture_code": 35,
    "city": "岩国市",
    "city_kana": "イワクニシ",
    "town": "多田",
    "town_kana": "タダ",
    "street": null,
    "office_name": null,
    "office_name_kana": null
  },
  "0093": {
    "postcode": "7410093",
    "prefecture": "山口県",
    "prefecture_kana": "ヤマグチケン",
    "prefecture_code": 35,
    "city": "岩国市",
    "city_kana": "イワクニシ",
    "town": "田原",
    "town_kana": "タワラ",
    "street": null,
    "office_name": null,
    "office_name_kana": null
  },
  "0094": {
    "postcode": "7410094",
    "prefecture": "山口県",
    "prefecture_kana": "ヤマグチケン",
    "prefecture_code": 35,
    "city": "岩国市",
    "city_kana": "イワクニシ",
    "town": "阿品",
    "town_kana": "アジナ",
    "street": null,
    "office_name": null,
    "office_name_kana": null
  },
  "8585": {
    "postcode": "7418585",
    "prefecture": "山口県",
    "prefecture_kana": "ヤマグチケン",
    "prefecture_code": 35,
    "city": "岩国市",
    "city_kana": "イワクニシ",
    "town": "多田",
    "town_kana": "タダ",
    "street": "２６−１",
    "office_name": "医療法人　新生会　いしい記念病院",
    "office_name_kana": "イリヨウホウジン シンセイカイ イシイキネンビヨウイン"
  }
}