{
  "0000": {
    "postcode": "7440000",
    "prefecture": "山口県",
    "prefecture_kana": "ヤマグチケン",
    "prefecture_code": 35,
    "city": "下松市",
    "city_kana": "クダマツシ",
    "town": "",
    "town_kana": "",
    "street": null,
    "office_name": null,
    "office_name_kana": null
  },
  "0001": [
    {
      "postcode": "7440001",
      "prefecture": "山口県",
      "prefecture_kana": "ヤマグチケン",
      "prefecture_code": 35,
      "city": "下松市",
      "city_kana": "クダマツシ",
      "town": "笠戸島",
      "town_kana": "カサドシマ",
      "street": null,
      "office_name": null,
      "office_name_kana": null
    },
    {
      "postcode": "7440001",
      "prefecture": "山口県",
      "prefecture_kana": "ヤマグチケン",
      "prefecture_code": 35,
      "city": "下松市",
      "city_kana": "クダマツシ",
      "town": "笠戸島",
      "town_kana": "カサドシマ",
      "street": null,
      "office_name": null,
      "office_name_kana": null
    },
    {
      "postcode": "7440001",
      "prefecture": "山口県",
      "prefecture_kana": "ヤマグチケン",
      "prefecture_code": 35,
      "city": "下松市",
      "city_kana": "クダマツシ",
      "town": "笠戸島江ノ浦",
      "town_kana": "カサドシマエノウラ",
      "street": null,
      "office_name": null,
      "office_name_kana": null
    },
    {
      "postcode": "7440001",
      "prefecture": "山口県",
      "prefecture_kana": "ヤマグチケン",
      "prefecture_code": 35,
      "city": "下松市",
      "city_kana": "クダマツシ",
      "town": "笠戸島大松ケ浦",
      "town_kana": "カサドシマオオマツガウラ",
      "street": null,
      "office_name": null,
      "office_name_kana": null
    },
    {
      "postcode": "7440001",
      "prefecture": "山口県",
      "prefecture_kana": "ヤマグチケン",
      "prefecture_code": 35,
      "city": "下松市",
      "city_kana": "クダマツシ",
      "town": "笠戸島尾郷",
      "town_kana": "カサドシマオゴウ",
      "street": null,
      "office_name": null,
      "office_name_kana": null
    },
    {
      "postcode": "7440001",
      "prefecture": "山口県",
      "prefecture_kana": "ヤマグチケン",
      "prefecture_code": 35,
      "city": "下松市",
      "city_kana": "クダマツシ",
      "town": "笠戸島尾泊",
      "town_kana": "カサドシマオドマリ",
      "street": null,
      "office_name": null,
      "office_name_kana": null
    },
    {
      "postcode": "7440001",
      "prefecture": "山口県",
      "prefecture_kana": "ヤマグチケン",
      "prefecture_code": 35,
      "city": "下松市",
      "city_kana": "クダマツシ",
      "town": "笠戸島小深浦",
      "town_kana": "カサドシマコブカウラ",
      "street": null,
      "office_name": null,
      "office_name_kana": null
    },
    {
      "postcode": "7440001",
      "prefecture": "山口県",
      "prefecture_kana": "ヤマグチケン",
      "prefecture_code": 35,
      "city": "下松市",
      "city_kana": "クダマツシ",
      "town": "笠戸島瀬戸",
      "town_kana": "カサドシマセト",
      "street": null,
      "office_name": null,
      "office_name_kana": null
    },
    {
      "postcode": "7440001",
      "prefecture": "山口県",
      "prefecture_kana": "ヤマグチケン",
      "prefecture_code": 35,
      "city": "下松市",
      "city_kana": "クダマツシ",
      "town": "笠戸島深浦",
      "town_kana": "カサドシマフカウラ",
      "street": null,
      "office_name": null,
      "office_name_kana": null
    },
    {
      "postcode": "7440001",
      "prefecture": "山口県",
      "prefecture_kana": "ヤマグチケン",
      "prefecture_code": 35,
      "city": "下松市",
      "city_kana": "クダマツシ",
      "town": "笠戸島本浦",
      "town_kana": "カサドシマホンウラ",
      "street": null,
      "office_name": null,
      "office_name_kana": null
    }
  ],
  "0002": [
    {
      "postcode": "7440002",
      "prefecture": "山口県",
      "prefecture_kana": "ヤマグチケン",
      "prefecture_code": 35,
      "city": "下松市",
      "city_kana": "クダマツシ",
      "town": "東豊井",
      "town_kana": "ヒガシトヨイ",
      "street": null,
      "office_name": null,
      "office_name_kana": null
    },
    {
      "postcode": "7440002",
      "prefecture": "山口県",
      "prefecture_kana": "ヤマグチケン",
      "prefecture_code": 35,
      "city": "下松市",
      "city_kana": "クダマツシ",
      "town": "東豊井",
      "town_kana": "ヒガシトヨイ",
      "street": null,
      "office_name": null,
      "office_name_kana": null
    },
    {
      "postcode": "7440002",
      "prefecture": "山口県",
      "prefecture_kana": "ヤマグチケン",
      "prefecture_code": 35,
      "city": "下松市",
      "city_kana": "クダマツシ",
      "town": "東豊井江口",
      "town_kana": "ヒガシトヨイエグチ",
      "street": null,
      "office_name": null,
      "office_name_kana": null
    },
    {
      "postcode": "7440002",
      "prefecture": "山口県",
      "prefecture_kana": "ヤマグチケン",
      "prefecture_code": 35,
      "city": "下松市",
      "city_kana": "クダマツシ",
      "town": "東豊井上豊井",
      "town_kana": "ヒガシトヨイカミトヨイ",
      "street": null,
      "office_name": null,
      "office_name_kana": null
    },
    {
      "postcode": "7440002",
      "prefecture": "山口県",
      "prefecture_kana": "ヤマグチケン",
      "prefecture_code": 35,
      "city": "下松市",
      "city_kana": "クダマツシ",
      "town": "東豊井下豊井",
      "town_kana": "ヒガシトヨイシモトヨイ",
      "street": null,
      "office_name": null,
      "office_name_kana": null
    },
    {
      "postcode": "7440002",
      "prefecture": "山口県",
      "prefecture_kana": "ヤマグチケン",
      "prefecture_code": 35,
      "city": "下松市",
      "city_kana": "クダマツシ",
      "town": "東豊井神田町",
      "town_kana": "ヒガシトヨイカンダマチ",
      "street": null,
      "office_name": null,
      "office_name_kana": null
    },
    {
      "postcode": "7440002",
      "prefecture": "山口県",
      "prefecture_kana": "ヤマグチケン",
      "prefecture_code": 35,
      "city": "下松市",
      "city_kana": "クダマツシ",
      "town": "東豊井恋ケ浜",
      "town_kana": "ヒガシトヨイコイガハマ",
      "street": null,
      "office_name": null,
      "office_name_kana": null
    },
    {
      "postcode": "7440002",
      "prefecture": "山口県",
      "prefecture_kana": "ヤマグチケン",
      "prefecture_code": 35,
      "city": "下松市",
      "city_kana": "クダマツシ",
      "town": "東豊井新町",
      "town_kana": "ヒガシトヨイシンマチ",
      "street": null,
      "office_name": null,
      "office_name_kana": null
    },
    {
      "postcode": "7440002",
      "prefecture": "山口県",
      "prefecture_kana": "ヤマグチケン",
      "prefecture_code": 35,
      "city": "下松市",
      "city_kana": "クダマツシ",
      "town": "東豊井洲鼻",
      "town_kana": "ヒガシトヨイスバナ",
      "street": null,
      "office_name": null,
      "office_name_kana": null
    },
    {
      "postcode": "7440002",
      "prefecture": "山口県",
      "prefecture_kana": "ヤマグチケン",
      "prefecture_code": 35,
      "city": "下松市",
      "city_kana": "クダマツシ",
      "town": "東豊井住吉町",
      "town_kana": "ヒガシトヨイスミヨシチョウ",
      "street": null,
      "office_name": null,
      "office_name_kana": null
    },
    {
      "postcode": "7440002",
      "prefecture": "山口県",
      "prefecture_kana": "ヤマグチケン",
      "prefecture_code": 35,
      "city": "下松市",
      "city_kana": "クダマツシ",
      "town": "東豊井寺迫",
      "town_kana": "ヒガシトヨイテラサコ",
      "street": null,
      "office_name": null,
      "office_name_kana": null
    },
    {
      "postcode": "7440002",
      "prefecture": "山口県",
      "prefecture_kana": "ヤマグチケン",
      "prefecture_code": 35,
      "city": "下松市",
      "city_kana": "クダマツシ",
      "town": "東豊井寺迫半上",
      "town_kana": "ヒガシトヨイテラサコハンジョウ",
      "street": null,
      "office_name": null,
      "office_name_kana": null
    },
    {
      "postcode": "7440002",
      "prefecture": "山口県",
      "prefecture_kana": "ヤマグチケン",
      "prefecture_code": 35,
      "city": "下松市",
      "city_kana": "クダマツシ",
      "town": "東豊井二宮町",
      "town_kana": "ヒガシトヨイニノミヤチョウ",
      "street": null,
      "office_name": null,
      "office_name_kana": null
    },
    {
      "postcode": "7440002",
      "prefecture": "山口県",
      "prefecture_kana": "ヤマグチケン",
      "prefecture_code": 35,
      "city": "下松市",
      "city_kana": "クダマツシ",
      "town": "東豊井花垣",
      "town_kana": "ヒガシトヨイハナガキ",
      "street": null,
      "office_name": null,
      "office_name_kana": null
    },
    {
      "postcode": "7440002",
      "prefecture": "山口県",
      "prefecture_kana": "ヤマグチケン",
      "prefecture_code": 35,
      "city": "下松市",
      "city_kana": "クダマツシ",
      "town": "東豊井東海岸通り",
      "town_kana": "ヒガシトヨイヒガシカイガンドオリ",
      "street": null,
      "office_name": null,
      "office_name_kana": null
    },
    {
      "postcode": "7440002",
      "prefecture": "山口県",
      "prefecture_kana": "ヤマグチケン",
      "prefecture_code": 35,
      "city": "下松市",
      "city_kana": "クダマツシ",
      "town": "東豊井松神町",
      "town_kana": "ヒガシトヨイマツガミチョウ",
      "street": null,
      "office_name": null,
      "office_name_kana": null
    }
  ],
  "0003": {
    "postcode": "7440003",
    "prefecture": "山口県",
    "prefecture_kana": "ヤマグチケン",
    "prefecture_code": 35,
    "city": "下松市",
    "city_kana": "クダマツシ",
    "town": "琴平町",
    "town_kana": "コトヒラチョウ",
    "street": null,
    "office_name": null,
    "office_name_kana": null
  },
  "0004": {
    "postcode": "7440004",
    "prefecture": "山口県",
    "prefecture_kana": "ヤマグチケン",
    "prefecture_code": 35,
    "city": "下松市",
    "city_kana": "クダマツシ",
    "town": "青柳",
    "town_kana": "アオヤギ",
    "street": null,
    "office_name": null,
    "office_name_kana": null
  },
  "0005": {
    "postcode": "7440005",
    "prefecture": "山口県",
    "prefecture_kana": "ヤマグチケン",
    "prefecture_code": 35,
    "city": "下松市",
    "city_kana": "クダマツシ",
    "town": "古川町",
    "town_kana": "フルカワチョウ",
    "street": null,
    "office_name": null,
    "office_name_kana": null
  },
  "0006": {
    "postcode": "7440006",
    "prefecture": "山口県",
    "prefecture_kana": "ヤマグチケン",
    "prefecture_code": 35,
    "city": "下松市",
    "city_kana": "クダマツシ",
    "town": "旗岡",
    "town_kana": "ハタオカ",
    "street": null,
    "office_name": null,
    "office_name_kana": null
  },
  "0007": {
    "postcode": "7440007",
    "prefecture": "山口県",
    "prefecture_kana": "ヤマグチケン",
    "prefecture_code": 35,
    "city": "下松市",
    "city_kana": "クダマツシ",
    "town": "駅南",
    "town_kana": "エキミナミ",
    "street": null,
    "office_name": null,
    "office_name_kana": null
  },
  "0008": {
    "postcode": "7440008",
    "prefecture": "山口県",
    "prefecture_kana": "ヤマグチケン",
    "prefecture_code": 35,
    "city": "下松市",
    "city_kana": "クダマツシ",
    "town": "新川",
    "town_kana": "シンカワ",
    "street": null,
    "office_name": null,
    "office_name_kana": null
  },
  "0011": [
    {
      "postcode": "7440011",
      "prefecture": "山口県",
      "prefecture_kana": "ヤマグチケン",
      "prefecture_code": 35,
      "city": "下松市",
      "city_kana": "クダマツシ",
      "town": "西豊井",
      "town_kana": "ニシトヨイ",
      "street": null,
      "office_name": null,
      "office_name_kana": null
    },
    {
      "postcode": "7440011",
      "prefecture": "山口県",
      "prefecture_kana": "ヤマグチケン",
      "prefecture_code": 35,
      "city": "下松市",
      "city_kana": "クダマツシ",
      "town": "西豊井",
      "town_kana": "ニシトヨイ",
      "street": null,
      "office_name": null,
      "office_name_kana": null
    },
    {
      "postcode": "7440011",
      "prefecture": "山口県",
      "prefecture_kana": "ヤマグチケン",
      "prefecture_code": 35,
      "city": "下松市",
      "city_kana": "クダマツシ",
      "town": "西豊井相生町",
      "town_kana": "ニシトヨイアイオイチョウ",
      "street": null,
      "office_name": null,
      "office_name_kana": null
    },
    {
      "postcode": "7440011",
      "prefecture": "山口県",
      "prefecture_kana": "ヤマグチケン",
      "prefecture_code": 35,
      "city": "下松市",
      "city_kana": "クダマツシ",
      "town": "西豊井旭町",
      "town_kana": "ニシトヨイアサヒマチ",
      "street": null,
      "office_name": null,
      "office_name_kana": null
    },
    {
      "postcode": "7440011",
      "prefecture": "山口県",
      "prefecture_kana": "ヤマグチケン",
      "prefecture_code": 35,
      "city": "下松市",
      "city_kana": "クダマツシ",
      "town": "西豊井幸町",
      "town_kana": "ニシトヨイサイワイチョウ",
      "street": null,
      "office_name": null,
      "office_name_kana": null
    },
    {
      "postcode": "7440011",
      "prefecture": "山口県",
      "prefecture_kana": "ヤマグチケン",
      "prefecture_code": 35,
      "city": "下松市",
      "city_kana": "クダマツシ",
      "town": "西豊井汐見町",
      "town_kana": "ニシトヨイシオミチョウ",
      "street": null,
      "office_name": null,
      "office_name_kana": null
    },
    {
      "postcode": "7440011",
      "prefecture": "山口県",
      "prefecture_kana": "ヤマグチケン",
      "prefecture_code": 35,
      "city": "下松市",
      "city_kana": "クダマツシ",
      "town": "西豊井高砂町",
      "town_kana": "ニシトヨイタカサゴチョウ",
      "street": null,
      "office_name": null,
      "office_name_kana": null
    },
    {
      "postcode": "7440011",
      "prefecture": "山口県",
      "prefecture_kana": "ヤマグチケン",
      "prefecture_code": 35,
      "city": "下松市",
      "city_kana": "クダマツシ",
      "town": "西豊井所田",
      "town_kana": "ニシトヨイトコロダ",
      "street": null,
      "office_name": null,
      "office_name_kana": null
    },
    {
      "postcode": "7440011",
      "prefecture": "山口県",
      "prefecture_kana": "ヤマグチケン",
      "prefecture_code": 35,
      "city": "下松市",
      "city_kana": "クダマツシ",
      "town": "西豊井本町",
      "town_kana": "ニシトヨイホンマチ",
      "street": null,
      "office_name": null,
      "office_name_kana": null
    },
    {
      "postcode": "7440011",
      "prefecture": "山口県",
      "prefecture_kana": "ヤマグチケン",
      "prefecture_code": 35,
      "city": "下松市",
      "city_kana": "クダマツシ",
      "town": "西豊井都町",
      "town_kana": "ニシトヨイミヤコマチ",
      "street": null,
      "office_name": null,
      "office_name_kana": null
    },
    {
      "postcode": "7440011",
      "prefecture": "山口県",
      "prefecture_kana": "ヤマグチケン",
      "prefecture_code": 35,
      "city": "下松市",
      "city_kana": "クダマツシ",
      "town": "西豊井元町東",
      "town_kana": "ニシトヨイモトマチヒガシ",
      "street": null,
      "office_name": null,
      "office_name_kana": null
    },
    {
      "postcode": "7440011",
      "prefecture": "山口県",
      "prefecture_kana": "ヤマグチケン",
      "prefecture_code": 35,
      "city": "下松市",
      "city_kana": "クダマツシ",
      "town": "西豊井元町西",
      "town_kana": "ニシトヨイモトマチニシ",
      "street": null,
      "office_name": null,
      "office_name_kana": null
    }
  ],
  "0012": {
    "postcode": "7440012",
    "prefecture": "山口県",
    "prefecture_kana": "ヤマグチケン",
    "prefecture_code": 35,
    "city": "下松市",
    "city_kana": "クダマツシ",
    "town": "北斗町",
    "town_kana": "ホクトチョウ",
    "street": null,
    "office_name": null,
    "office_name_kana": null
  },
  "0013": {
    "postcode": "7440013",
    "prefecture": "山口県",
    "prefecture_kana": "ヤマグチケン",
    "prefecture_code": 35,
    "city": "下松市",
    "city_kana": "クダマツシ",
    "town": "栄町",
    "town_kana": "サカエマチ",
    "street": null,
    "office_name": null,
    "office_name_kana": null
  },
  "0014": {
    "postcode": "7440014",
    "prefecture": "山口県",
    "prefecture_kana": "ヤマグチケン",
    "prefecture_code": 35,
    "city": "下松市",
    "city_kana": "クダマツシ",
    "town": "中市",
    "town_kana": "ナカイチ",
    "street": null,
    "office_name": null,
    "office_name_kana": null
  },
  "0015": {
    "postcode": "7440015",
    "prefecture": "山口県",
    "prefecture_kana": "ヤマグチケン",
    "prefecture_code": 35,
    "city": "下松市",
    "city_kana": "クダマツシ",
    "town": "大手町",
    "town_kana": "オオテマチ",
    "street": null,
    "office_name": null,
    "office_name_kana": null
  },
  "0017": {
    "postcode": "7440017",
    "prefecture": "山口県",
    "prefecture_kana": "ヤマグチケン",
    "prefecture_code": 35,
    "city": "下松市",
    "city_kana": "クダマツシ",
    "town": "東柳",
    "town_kana": "ヒガシヤナギ",
    "street": null,
    "office_name": null,
    "office_name_kana": null
  },
  "0018": {
    "postcode": "7440018",
    "prefecture": "山口県",
    "prefecture_kana": "ヤマグチケン",
    "prefecture_code": 35,
    "city": "下松市",
    "city_kana": "クダマツシ",
    "town": "西柳",
    "town_kana": "ニシヤナギ",
    "street": null,
    "office_name": null,
    "office_name_kana": null
  },
  "0019": {
    "postcode": "7440019",
    "prefecture": "山口県",
    "prefecture_kana": "ヤマグチケン",
    "prefecture_code": 35,
    "city": "下松市",
    "city_kana": "クダマツシ",
    "town": "桜町",
    "town_kana": "サクラチョウ",
    "street": null,
    "office_name": null,
    "office_name_kana": null
  },
  "0021": [
    {
      "postcode": "7440021",
      "prefecture": "山口県",
      "prefecture_kana": "ヤマグチケン",
      "prefecture_code": 35,
      "city": "下松市",
      "city_kana": "クダマツシ",
      "town": "平田",
      "town_kana": "ヒラタ",
      "street": null,
      "office_name": null,
      "office_name_kana": null
    },
    {
      "postcode": "7440021",
      "prefecture": "山口県",
      "prefecture_kana": "ヤマグチケン",
      "prefecture_code": 35,
      "city": "下松市",
      "city_kana": "クダマツシ",
      "town": "平田",
      "town_kana": "ヒラタ",
      "street": null,
      "office_name": null,
      "office_name_kana": null
    },
    {
      "postcode": "7440021",
      "prefecture": "山口県",
      "prefecture_kana": "ヤマグチケン",
      "prefecture_code": 35,
      "city": "下松市",
      "city_kana": "クダマツシ",
      "town": "平田東開作",
      "town_kana": "ヒラタヒガシガイサク",
      "street": null,
      "office_name": null,
      "office_name_kana": null
    },
    {
      "postcode": "7440021",
      "prefecture": "山口県",
      "prefecture_kana": "ヤマグチケン",
      "prefecture_code": 35,
      "city": "下松市",
      "city_kana": "クダマツシ",
      "town": "平田西開作",
      "town_kana": "ヒラタニシガイサク",
      "street": null,
      "office_name": null,
      "office_name_kana": null
    }
  ],
  "0022": [
    {
      "postcode": "7440022",
      "prefecture": "山口県",
      "prefecture_kana": "ヤマグチケン",
      "prefecture_code": 35,
      "city": "下松市",
      "city_kana": "クダマツシ",
      "town": "末武下",
      "town_kana": "スエタケシモ",
      "street": null,
      "office_name": null,
      "office_name_kana": null
    },
    {
      "postcode": "7440022",
      "prefecture": "山口県",
      "prefecture_kana": "ヤマグチケン",
      "prefecture_code": 35,
      "city": "下松市",
      "city_kana": "クダマツシ",
      "town": "末武下",
      "town_kana": "スエタケシモ",
      "street": null,
      "office_name": null,
      "office_name_kana": null
    },
    {
      "postcode": "7440022",
      "prefecture": "山口県",
      "prefecture_kana": "ヤマグチケン",
      "prefecture_code": 35,
      "city": "下松市",
      "city_kana": "クダマツシ",
      "town": "末武下あけぼの町",
      "town_kana": "スエタケシモアケボノチョウ",
      "street": null,
      "office_name": null,
      "office_name_kana": null
    },
    {
      "postcode": "7440022",
      "prefecture": "山口県",
      "prefecture_kana": "ヤマグチケン",
      "prefecture_code": 35,
      "city": "下松市",
      "city_kana": "クダマツシ",
      "town": "末武下松中町",
      "town_kana": "スエタケシモマツナカチョウ",
      "street": null,
      "office_name": null,
      "office_name_kana": null
    },
    {
      "postcode": "7440022",
      "prefecture": "山口県",
      "prefecture_kana": "ヤマグチケン",
      "prefecture_code": 35,
      "city": "下松市",
      "city_kana": "クダマツシ",
      "town": "末武下弥生町",
      "town_kana": "スエタケシモヤヨイチョウ",
      "street": null,
      "office_name": null,
      "office_name_kana": null
    }
  ],
  "0023": [
    {
      "postcode": "7440023",
      "prefecture": "山口県",
      "prefecture_kana": "ヤマグチケン",
      "prefecture_code": 35,
      "city": "下松市",
      "city_kana": "クダマツシ",
      "town": "末武中",
      "town_kana": "スエタケナカ",
      "street": null,
      "office_name": null,
      "office_name_kana": null
    },
    {
      "postcode": "7440023",
      "prefecture": "山口県",
      "prefecture_kana": "ヤマグチケン",
      "prefecture_code": 35,
      "city": "下松市",
      "city_kana": "クダマツシ",
      "town": "末武中",
      "town_kana": "スエタケナカ",
      "street": null,
      "office_name": null,
      "office_name_kana": null
    },
    {
      "postcode": "7440023",
      "prefecture": "山口県",
      "prefecture_kana": "ヤマグチケン",
      "prefecture_code": 35,
      "city": "下松市",
      "city_kana": "クダマツシ",
      "town": "末武中朝日台",
      "town_kana": "スエタケナカアサヒダイ",
      "street": null,
      "office_name": null,
      "office_name_kana": null
    },
    {
      "postcode": "7440023",
      "prefecture": "山口県",
      "prefecture_kana": "ヤマグチケン",
      "prefecture_code": 35,
      "city": "下松市",
      "city_kana": "クダマツシ",
      "town": "末武中荒神",
      "town_kana": "スエタケナカコウジン",
      "street": null,
      "office_name": null,
      "office_name_kana": null
    },
    {
      "postcode": "7440023",
      "prefecture": "山口県",
      "prefecture_kana": "ヤマグチケン",
      "prefecture_code": 35,
      "city": "下松市",
      "city_kana": "クダマツシ",
      "town": "末武中西河原",
      "town_kana": "スエタケナカニシガハラ",
      "street": null,
      "office_name": null,
      "office_name_kana": null
    },
    {
      "postcode": "7440023",
      "prefecture": "山口県",
      "prefecture_kana": "ヤマグチケン",
      "prefecture_code": 35,
      "city": "下松市",
      "city_kana": "クダマツシ",
      "town": "末武中東中村",
      "town_kana": "スエタケナカヒガシナカムラ",
      "street": null,
      "office_name": null,
      "office_name_kana": null
    },
    {
      "postcode": "7440023",
      "prefecture": "山口県",
      "prefecture_kana": "ヤマグチケン",
      "prefecture_code": 35,
      "city": "下松市",
      "city_kana": "クダマツシ",
      "town": "末武中広石",
      "town_kana": "スエタケナカヒロイシ",
      "street": null,
      "office_name": null,
      "office_name_kana": null
    },
    {
      "postcode": "7440023",
      "prefecture": "山口県",
      "prefecture_kana": "ヤマグチケン",
      "prefecture_code": 35,
      "city": "下松市",
      "city_kana": "クダマツシ",
      "town": "末武中向香力",
      "town_kana": "スエタケナカムカイコウリキ",
      "street": null,
      "office_name": null,
      "office_name_kana": null
    },
    {
      "postcode": "7440023",
      "prefecture": "山口県",
      "prefecture_kana": "ヤマグチケン",
      "prefecture_code": 35,
      "city": "下松市",
      "city_kana": "クダマツシ",
      "town": "末武中山根",
      "town_kana": "スエタケナカヤマネ",
      "street": null,
      "office_name": null,
      "office_name_kana": null
    },
    {
      "postcode": "7440023",
      "prefecture": "山口県",
      "prefecture_kana": "ヤマグチケン",
      "prefecture_code": 35,
      "city": "下松市",
      "city_kana": "クダマツシ",
      "town": "末武中和田",
      "town_kana": "スエタケナカワダ",
      "street": null,
      "office_name": null,
      "office_name_kana": null
    }
  ],
  "0024": [
    {
      "postcode": "7440024",
      "prefecture": "山口県",
      "prefecture_kana": "ヤマグチケン",
      "prefecture_code": 35,
      "city": "下松市",
      "city_kana": "クダマツシ",
      "town": "末武上",
      "town_kana": "スエタケカミ",
      "street": null,
      "office_name": null,
      "office_name_kana": null
    },
    {
      "postcode": "7440024",
      "prefecture": "山口県",
      "prefecture_kana": "ヤマグチケン",
      "prefecture_code": 35,
      "city": "下松市",
      "city_kana": "クダマツシ",
      "town": "末武上",
      "town_kana": "スエタケカミ",
      "street": null,
      "office_name": null,
      "office_name_kana": null
    },
    {
      "postcode": "7440024",
      "prefecture": "山口県",
      "prefecture_kana": "ヤマグチケン",
      "prefecture_code": 35,
      "city": "下松市",
      "city_kana": "クダマツシ",
      "town": "末武上上地",
      "town_kana": "スエタケカミアゲヂ",
      "street": null,
      "office_name": null,
      "office_name_kana": null
    },
    {
      "postcode": "7440024",
      "prefecture": "山口県",
      "prefecture_kana": "ヤマグチケン",
      "prefecture_code": 35,
      "city": "下松市",
      "city_kana": "クダマツシ",
      "town": "末武上浴",
      "town_kana": "スエタケカミエキ",
      "street": null,
      "office_name": null,
      "office_name_kana": null
    },
    {
      "postcode": "7440024",
      "prefecture": "山口県",
      "prefecture_kana": "ヤマグチケン",
      "prefecture_code": 35,
      "city": "下松市",
      "city_kana": "クダマツシ",
      "town": "末武上戎町",
      "town_kana": "スエタケカミエビスマチ",
      "street": null,
      "office_name": null,
      "office_name_kana": null
    },
    {
      "postcode": "7440024",
      "prefecture": "山口県",
      "prefecture_kana": "ヤマグチケン",
      "prefecture_code": 35,
      "city": "下松市",
      "city_kana": "クダマツシ",
      "town": "末武上華陵",
      "town_kana": "スエタケカミカリョウ",
      "street": null,
      "office_name": null,
      "office_name_kana": null
    },
    {
      "postcode": "7440024",
      "prefecture": "山口県",
      "prefecture_kana": "ヤマグチケン",
      "prefecture_code": 35,
      "city": "下松市",
      "city_kana": "クダマツシ",
      "town": "末武上下高塚",
      "town_kana": "スエタケカミシモタカツカ",
      "street": null,
      "office_name": null,
      "office_name_kana": null
    },
    {
      "postcode": "7440024",
      "prefecture": "山口県",
      "prefecture_kana": "ヤマグチケン",
      "prefecture_code": 35,
      "city": "下松市",
      "city_kana": "クダマツシ",
      "town": "末武上昭和",
      "town_kana": "スエタケカミショウワ",
      "street": null,
      "office_name": null,
      "office_name_kana": null
    },
    {
      "postcode": "7440024",
      "prefecture": "山口県",
      "prefecture_kana": "ヤマグチケン",
      "prefecture_code": 35,
      "city": "下松市",
      "city_kana": "クダマツシ",
      "town": "末武上高橋",
      "town_kana": "スエタケカミタカハシ",
      "street": null,
      "office_name": null,
      "office_name_kana": null
    },
    {
      "postcode": "7440024",
      "prefecture": "山口県",
      "prefecture_kana": "ヤマグチケン",
      "prefecture_code": 35,
      "city": "下松市",
      "city_kana": "クダマツシ",
      "town": "末武上大黒町",
      "town_kana": "スエタケカミダイコクチョウ",
      "street": null,
      "office_name": null,
      "office_name_kana": null
    },
    {
      "postcode": "7440024",
      "prefecture": "山口県",
      "prefecture_kana": "ヤマグチケン",
      "prefecture_code": 35,
      "city": "下松市",
      "city_kana": "クダマツシ",
      "town": "末武上常森",
      "town_kana": "スエタケカミツネモリ",
      "street": null,
      "office_name": null,
      "office_name_kana": null
    },
    {
      "postcode": "7440024",
      "prefecture": "山口県",
      "prefecture_kana": "ヤマグチケン",
      "prefecture_code": 35,
      "city": "下松市",
      "city_kana": "クダマツシ",
      "town": "末武上中市",
      "town_kana": "スエタケカミナカイチ",
      "street": null,
      "office_name": null,
      "office_name_kana": null
    },
    {
      "postcode": "7440024",
      "prefecture": "山口県",
      "prefecture_kana": "ヤマグチケン",
      "prefecture_code": 35,
      "city": "下松市",
      "city_kana": "クダマツシ",
      "town": "末武上西町",
      "town_kana": "スエタケカミニシマチ",
      "street": null,
      "office_name": null,
      "office_name_kana": null
    },
    {
      "postcode": "7440024",
      "prefecture": "山口県",
      "prefecture_kana": "ヤマグチケン",
      "prefecture_code": 35,
      "city": "下松市",
      "city_kana": "クダマツシ",
      "town": "末武上東町",
      "town_kana": "スエタケカミヒガシマチ",
      "street": null,
      "office_name": null,
      "office_name_kana": null
    },
    {
      "postcode": "7440024",
      "prefecture": "山口県",
      "prefecture_kana": "ヤマグチケン",
      "prefecture_code": 35,
      "city": "下松市",
      "city_kana": "クダマツシ",
      "town": "末武上緑ケ丘",
      "town_kana": "スエタケカミミドリガオカ",
      "street": null,
      "office_name": null,
      "office_name_kana": null
    },
    {
      "postcode": "7440024",
      "prefecture": "山口県",
      "prefecture_kana": "ヤマグチケン",
      "prefecture_code": 35,
      "city": "下松市",
      "city_kana": "クダマツシ",
      "town": "末武上南花岡",
      "town_kana": "スエタケカミミナミハナオカ",
      "street": null,
      "office_name": null,
      "office_name_kana": null
    }
  ],
  "0025": {
    "postcode": "7440025",
    "prefecture": "山口県",
    "prefecture_kana": "ヤマグチケン",
    "prefecture_code": 35,
    "city": "下松市",
    "city_kana": "クダマツシ",
    "town": "中央町",
    "town_kana": "チュウオウチョウ",
    "street": null,
    "office_name": null,
    "office_name_kana": null
  },
  "0027": {
    "postcode": "7440027",
    "prefecture": "山口県",
    "prefecture_kana": "ヤマグチケン",
    "prefecture_code": 35,
    "city": "下松市",
    "city_kana": "クダマツシ",
    "town": "南花岡",
    "town_kana": "ミナミハナオカ",
    "street": null,
    "office_name": null,
    "office_name_kana": null
  },
  "0028": {
    "postcode": "7440028",
    "prefecture": "山口県",
    "prefecture_kana": "ヤマグチケン",
    "prefecture_code": 35,
    "city": "下松市",
    "city_kana": "クダマツシ",
    "town": "藤光町",
    "town_kana": "トウミツチョウ",
    "street": null,
    "office_name": null,
    "office_name_kana": null
  },
  "0029": {
    "postcode": "7440029",
    "prefecture": "山口県",
    "prefecture_kana": "ヤマグチケン",
    "prefecture_code": 35,
    "city": "下松市",
    "city_kana": "クダマツシ",
    "town": "楠木町",
    "town_kana": "クスノキチョウ",
    "street": null,
    "office_name": null,
    "office_name_kana": null
  },
  "0031": [
    {
      "postcode": "7440031",
      "prefecture": "山口県",
      "prefecture_kana": "ヤマグチケン",
      "prefecture_code": 35,
      "city": "下松市",
      "city_kana": "クダマツシ",
      "town": "生野屋",
      "town_kana": "イクノヤ",
      "street": null,
      "office_name": null,
      "office_name_kana": null
    },
    {
      "postcode": "7440031",
      "prefecture": "山口県",
      "prefecture_kana": "ヤマグチケン",
      "prefecture_code": 35,
      "city": "下松市",
      "city_kana": "クダマツシ",
      "town": "生野屋",
      "town_kana": "イクノヤ",
      "street": null,
      "office_name": null,
      "office_name_kana": null
    },
    {
      "postcode": "7440031",
      "prefecture": "山口県",
      "prefecture_kana": "ヤマグチケン",
      "prefecture_code": 35,
      "city": "下松市",
      "city_kana": "クダマツシ",
      "town": "生野屋猪ノ尻",
      "town_kana": "イクノヤイノシリ",
      "street": null,
      "office_name": null,
      "office_name_kana": null
    },
    {
      "postcode": "7440031",
      "prefecture": "山口県",
      "prefecture_kana": "ヤマグチケン",
      "prefecture_code": 35,
      "city": "下松市",
      "city_kana": "クダマツシ",
      "town": "生野屋上時宗",
      "town_kana": "イクノヤカミトキムネ",
      "street": null,
      "office_name": null,
      "office_name_kana": null
    },
    {
      "postcode": "7440031",
      "prefecture": "山口県",
      "prefecture_kana": "ヤマグチケン",
      "prefecture_code": 35,
      "city": "下松市",
      "city_kana": "クダマツシ",
      "town": "生野屋高垣団地",
      "town_kana": "イクノヤコウガキダンチ",
      "street": null,
      "office_name": null,
      "office_name_kana": null
    },
    {
      "postcode": "7440031",
      "prefecture": "山口県",
      "prefecture_kana": "ヤマグチケン",
      "prefecture_code": 35,
      "city": "下松市",
      "city_kana": "クダマツシ",
      "town": "生野屋下村",
      "town_kana": "イクノヤシモムラ",
      "street": null,
      "office_name": null,
      "office_name_kana": null
    },
    {
      "postcode": "7440031",
      "prefecture": "山口県",
      "prefecture_kana": "ヤマグチケン",
      "prefecture_code": 35,
      "city": "下松市",
      "city_kana": "クダマツシ",
      "town": "生野屋為弘",
      "town_kana": "イクノヤタメヒロ",
      "street": null,
      "office_name": null,
      "office_name_kana": null
    },
    {
      "postcode": "7440031",
      "prefecture": "山口県",
      "prefecture_kana": "ヤマグチケン",
      "prefecture_code": 35,
      "city": "下松市",
      "city_kana": "クダマツシ",
      "town": "生野屋大王団地",
      "town_kana": "イクノヤダイオウダンチ",
      "street": null,
      "office_name": null,
      "office_name_kana": null
    },
    {
      "postcode": "7440031",
      "prefecture": "山口県",
      "prefecture_kana": "ヤマグチケン",
      "prefecture_code": 35,
      "city": "下松市",
      "city_kana": "クダマツシ",
      "town": "生野屋田園調布",
      "town_kana": "イクノヤデンエンチョウフ",
      "street": null,
      "office_name": null,
      "office_name_kana": null
    },
    {
      "postcode": "7440031",
      "prefecture": "山口県",
      "prefecture_kana": "ヤマグチケン",
      "prefecture_code": 35,
      "city": "下松市",
      "city_kana": "クダマツシ",
      "town": "生野屋藤立",
      "town_kana": "イクノヤトウリュウ",
      "street": null,
      "office_name": null,
      "office_name_kana": null
    },
    {
      "postcode": "7440031",
      "prefecture": "山口県",
      "prefecture_kana": "ヤマグチケン",
      "prefecture_code": 35,
      "city": "下松市",
      "city_kana": "クダマツシ",
      "town": "生野屋時政",
      "town_kana": "イクノヤトキマサ",
      "street": null,
      "office_name": null,
      "office_name_kana": null
    },
    {
      "postcode": "7440031",
      "prefecture": "山口県",
      "prefecture_kana": "ヤマグチケン",
      "prefecture_code": 35,
      "city": "下松市",
      "city_kana": "クダマツシ",
      "town": "生野屋時宗",
      "town_kana": "イクノヤトキムネ",
      "street": null,
      "office_name": null,
      "office_name_kana": null
    },
    {
      "postcode": "7440031",
      "prefecture": "山口県",
      "prefecture_kana": "ヤマグチケン",
      "prefecture_code": 35,
      "city": "下松市",
      "city_kana": "クダマツシ",
      "town": "生野屋中村",
      "town_kana": "イクノヤナカムラ",
      "street": null,
      "office_name": null,
      "office_name_kana": null
    },
    {
      "postcode": "7440031",
      "prefecture": "山口県",
      "prefecture_kana": "ヤマグチケン",
      "prefecture_code": 35,
      "city": "下松市",
      "city_kana": "クダマツシ",
      "town": "生野屋西時宗",
      "town_kana": "イクノヤニシトキムネ",
      "street": null,
      "office_name": null,
      "office_name_kana": null
    },
    {
      "postcode": "7440031",
      "prefecture": "山口県",
      "prefecture_kana": "ヤマグチケン",
      "prefecture_code": 35,
      "city": "下松市",
      "city_kana": "クダマツシ",
      "town": "生野屋西村",
      "town_kana": "イクノヤニシムラ",
      "street": null,
      "office_name": null,
      "office_name_kana": null
    },
    {
      "postcode": "7440031",
      "prefecture": "山口県",
      "prefecture_kana": "ヤマグチケン",
      "prefecture_code": 35,
      "city": "下松市",
      "city_kana": "クダマツシ",
      "town": "生野屋西村団地",
      "town_kana": "イクノヤニシムラダンチ",
      "street": null,
      "office_name": null,
      "office_name_kana": null
    },
    {
      "postcode": "7440031",
      "prefecture": "山口県",
      "prefecture_kana": "ヤマグチケン",
      "prefecture_code": 35,
      "city": "下松市",
      "city_kana": "クダマツシ",
      "town": "生野屋羽根田町",
      "town_kana": "イクノヤハネダチョウ",
      "street": null,
      "office_name": null,
      "office_name_kana": null
    },
    {
      "postcode": "7440031",
      "prefecture": "山口県",
      "prefecture_kana": "ヤマグチケン",
      "prefecture_code": 35,
      "city": "下松市",
      "city_kana": "クダマツシ",
      "town": "生野屋東時宗",
      "town_kana": "イクノヤヒガシトキムネ",
      "street": null,
      "office_name": null,
      "office_name_kana": null
    },
    {
      "postcode": "7440031",
      "prefecture": "山口県",
      "prefecture_kana": "ヤマグチケン",
      "prefecture_code": 35,
      "city": "下松市",
      "city_kana": "クダマツシ",
      "town": "生野屋東万ノ木団地",
      "town_kana": "イクノヤヒガシマンノキダンチ",
      "street": null,
      "office_name": null,
      "office_name_kana": null
    },
    {
      "postcode": "7440031",
      "prefecture": "山口県",
      "prefecture_kana": "ヤマグチケン",
      "prefecture_code": 35,
      "city": "下松市",
      "city_kana": "クダマツシ",
      "town": "生野屋万ノ木町",
      "town_kana": "イクノヤマンノキチョウ",
      "street": null,
      "office_name": null,
      "office_name_kana": null
    },
    {
      "postcode": "7440031",
      "prefecture": "山口県",
      "prefecture_kana": "ヤマグチケン",
      "prefecture_code": 35,
      "city": "下松市",
      "city_kana": "クダマツシ",
      "town": "生野屋宮本",
      "town_kana": "イクノヤミヤモト",
      "street": null,
      "office_name": null,
      "office_name_kana": null
    }
  ],
  "0032": {
    "postcode": "7440032",
    "prefecture": "山口県",
    "prefecture_kana": "ヤマグチケン",
    "prefecture_code": 35,
    "city": "下松市",
    "city_kana": "クダマツシ",
    "town": "生野屋西",
    "town_kana": "イクノヤニシ",
    "street": null,
    "office_name": null,
    "office_name_kana": null
  },
  "0033": {
    "postcode": "7440033",
    "prefecture": "山口県",
    "prefecture_kana": "ヤマグチケン",
    "prefecture_code": 35,
    "city": "下松市",
    "city_kana": "クダマツシ",
    "town": "生野屋南",
    "town_kana": "イクノヤミナミ",
    "street": null,
    "office_name": null,
    "office_name_kana": null
  },
  "0041": [
    {
      "postcode": "7440041",
      "prefecture": "山口県",
      "prefecture_kana": "ヤマグチケン",
      "prefecture_code": 35,
      "city": "下松市",
      "city_kana": "クダマツシ",
      "town": "山田",
      "town_kana": "ヤマダ",
      "street": null,
      "office_name": null,
      "office_name_kana": null
    },
    {
      "postcode": "7440041",
      "prefecture": "山口県",
      "prefecture_kana": "ヤマグチケン",
      "prefecture_code": 35,
      "city": "下松市",
      "city_kana": "クダマツシ",
      "town": "山田",
      "town_kana": "ヤマダ",
      "street": null,
      "office_name": null,
      "office_name_kana": null
    },
    {
      "postcode": "7440041",
      "prefecture": "山口県",
      "prefecture_kana": "ヤマグチケン",
      "prefecture_code": 35,
      "city": "下松市",
      "city_kana": "クダマツシ",
      "town": "山田梅ノ木原",
      "town_kana": "ヤマダウメノキハラ",
      "street": null,
      "office_name": null,
      "office_name_kana": null
    },
    {
      "postcode": "7440041",
      "prefecture": "山口県",
      "prefecture_kana": "ヤマグチケン",
      "prefecture_code": 35,
      "city": "下松市",
      "city_kana": "クダマツシ",
      "town": "山田浴条",
      "town_kana": "ヤマダエキジョウ",
      "street": null,
      "office_name": null,
      "office_name_kana": null
    }
  ],
  "0042": [
    {
      "postcode": "7440042",
      "prefecture": "山口県",
      "prefecture_kana": "ヤマグチケン",
      "prefecture_code": 35,
      "city": "下松市",
      "city_kana": "クダマツシ",
      "town": "切山",
      "town_kana": "キリヤマ",
      "street": null,
      "office_name": null,
      "office_name_kana": null
    },
    {
      "postcode": "7440042",
      "prefecture": "山口県",
      "prefecture_kana": "ヤマグチケン",
      "prefecture_code": 35,
      "city": "下松市",
      "city_kana": "クダマツシ",
      "town": "切山",
      "town_kana": "キリヤマ",
      "street": null,
      "office_name": null,
      "office_name_kana": null
    },
    {
      "postcode": "7440042",
      "prefecture": "山口県",
      "prefecture_kana": "ヤマグチケン",
      "prefecture_code": 35,
      "city": "下松市",
      "city_kana": "クダマツシ",
      "town": "切山中",
      "town_kana": "キリヤマナカ",
      "street": null,
      "office_name": null,
      "office_name_kana": null
    }
  ],
  "0043": {
    "postcode": "7440043",
    "prefecture": "山口県",
    "prefecture_kana": "ヤマグチケン",
    "prefecture_code": 35,
    "city": "下松市",
    "city_kana": "クダマツシ",
    "town": "東陽",
    "town_kana": "トウヨウ",
    "street": null,
    "office_name": null,
    "office_name_kana": null
  },
  "0051": [
    {
      "postcode": "7440051",
      "prefecture": "山口県",
      "prefecture_kana": "ヤマグチケン",
      "prefecture_code": 35,
      "city": "下松市",
      "city_kana": "クダマツシ",
      "town": "来巻",
      "town_kana": "クルマキ",
      "street": null,
      "office_name": null,
      "office_name_kana": null
    },
    {
      "postcode": "7440051",
      "prefecture": "山口県",
      "prefecture_kana": "ヤマグチケン",
      "prefecture_code": 35,
      "city": "下松市",
      "city_kana": "クダマツシ",
      "town": "来巻",
      "town_kana": "クルマキ",
      "street": null,
      "office_name": null,
      "office_name_kana": null
    },
    {
      "postcode": "7440051",
      "prefecture": "山口県",
      "prefecture_kana": "ヤマグチケン",
      "prefecture_code": 35,
      "city": "下松市",
      "city_kana": "クダマツシ",
      "town": "来巻東",
      "town_kana": "クルマキヒガシ",
      "street": null,
      "office_name": null,
      "office_name_kana": null
    },
    {
      "postcode": "7440051",
      "prefecture": "山口県",
      "prefecture_kana": "ヤマグチケン",
      "prefecture_code": 35,
      "city": "下松市",
      "city_kana": "クダマツシ",
      "town": "来巻西",
      "town_kana": "クルマキニシ",
      "street": null,
      "office_name": null,
      "office_name_kana": null
    }
  ],
  "0052": {
    "postcode": "7440052",
    "prefecture": "山口県",
    "prefecture_kana": "ヤマグチケン",
    "prefecture_code": 35,
    "city": "下松市",
    "city_kana": "クダマツシ",
    "town": "桃山町",
    "town_kana": "モモヤマチョウ",
    "street": null,
    "office_name": null,
    "office_name_kana": null
  },
  "0053": {
    "postcode": "7440053",
    "prefecture": "山口県",
    "prefecture_kana": "ヤマグチケン",
    "prefecture_code": 35,
    "city": "下松市",
    "city_kana": "クダマツシ",
    "town": "東和",
    "town_kana": "トウワ",
    "street": null,
    "office_name": null,
    "office_name_kana": null
  },
  "0061": [
    {
      "postcode": "7440061",
      "prefecture": "山口県",
      "prefecture_kana": "ヤマグチケン",
      "prefecture_code": 35,
      "city": "下松市",
      "city_kana": "クダマツシ",
      "town": "河内",
      "town_kana": "コウチ",
      "street": null,
      "office_name": null,
      "office_name_kana": null
    },
    {
      "postcode": "7440061",
      "prefecture": "山口県",
      "prefecture_kana": "ヤマグチケン",
      "prefecture_code": 35,
      "city": "下松市",
      "city_kana": "クダマツシ",
      "town": "河内",
      "town_kana": "コウチ",
      "street": null,
      "office_name": null,
      "office_name_kana": null
    },
    {
      "postcode": "7440061",
      "prefecture": "山口県",
      "prefecture_kana": "ヤマグチケン",
      "prefecture_code": 35,
      "city": "下松市",
      "city_kana": "クダマツシ",
      "town": "河内青葉台",
      "town_kana": "コウチアオバダイ",
      "street": null,
      "office_name": null,
      "office_name_kana": null
    },
    {
      "postcode": "7440061",
      "prefecture": "山口県",
      "prefecture_kana": "ヤマグチケン",
      "prefecture_code": 35,
      "city": "下松市",
      "city_kana": "クダマツシ",
      "town": "河内大河内",
      "town_kana": "コウチオオコウチ",
      "street": null,
      "office_name": null,
      "office_name_kana": null
    },
    {
      "postcode": "7440061",
      "prefecture": "山口県",
      "prefecture_kana": "ヤマグチケン",
      "prefecture_code": 35,
      "city": "下松市",
      "city_kana": "クダマツシ",
      "town": "河内岡市",
      "town_kana": "コウチオカイチ",
      "street": null,
      "office_name": null,
      "office_name_kana": null
    },
    {
      "postcode": "7440061",
      "prefecture": "山口県",
      "prefecture_kana": "ヤマグチケン",
      "prefecture_code": 35,
      "city": "下松市",
      "city_kana": "クダマツシ",
      "town": "河内岡ノ原町",
      "town_kana": "コウチオカノハラチョウ",
      "street": null,
      "office_name": null,
      "office_name_kana": null
    },
    {
      "postcode": "7440061",
      "prefecture": "山口県",
      "prefecture_kana": "ヤマグチケン",
      "prefecture_code": 35,
      "city": "下松市",
      "city_kana": "クダマツシ",
      "town": "河内川瀬",
      "town_kana": "コウチカワセ",
      "street": null,
      "office_name": null,
      "office_name_kana": null
    },
    {
      "postcode": "7440061",
      "prefecture": "山口県",
      "prefecture_kana": "ヤマグチケン",
      "prefecture_code": 35,
      "city": "下松市",
      "city_kana": "クダマツシ",
      "town": "河内下松セントシティ",
      "town_kana": "コウチクダマツセントシティ",
      "street": null,
      "office_name": null,
      "office_name_kana": null
    },
    {
      "postcode": "7440061",
      "prefecture": "山口県",
      "prefecture_kana": "ヤマグチケン",
      "prefecture_code": 35,
      "city": "下松市",
      "city_kana": "クダマツシ",
      "town": "河内久保",
      "town_kana": "コウチクボ",
      "street": null,
      "office_name": null,
      "office_name_kana": null
    },
    {
      "postcode": "7440061",
      "prefecture": "山口県",
      "prefecture_kana": "ヤマグチケン",
      "prefecture_code": 35,
      "city": "下松市",
      "city_kana": "クダマツシ",
      "town": "河内久保市",
      "town_kana": "コウチクボイチ",
      "street": null,
      "office_name": null,
      "office_name_kana": null
    },
    {
      "postcode": "7440061",
      "prefecture": "山口県",
      "prefecture_kana": "ヤマグチケン",
      "prefecture_code": 35,
      "city": "下松市",
      "city_kana": "クダマツシ",
      "town": "河内黒杭",
      "town_kana": "コウチクロクイ",
      "street": null,
      "office_name": null,
      "office_name_kana": null
    },
    {
      "postcode": "7440061",
      "prefecture": "山口県",
      "prefecture_kana": "ヤマグチケン",
      "prefecture_code": 35,
      "city": "下松市",
      "city_kana": "クダマツシ",
      "town": "河内小野",
      "town_kana": "コウチコノ",
      "street": null,
      "office_name": null,
      "office_name_kana": null
    },
    {
      "postcode": "7440061",
      "prefecture": "山口県",
      "prefecture_kana": "ヤマグチケン",
      "prefecture_code": 35,
      "city": "下松市",
      "city_kana": "クダマツシ",
      "town": "河内幸ケ丘",
      "town_kana": "コウチサチガオカ",
      "street": null,
      "office_name": null,
      "office_name_kana": null
    },
    {
      "postcode": "7440061",
      "prefecture": "山口県",
      "prefecture_kana": "ヤマグチケン",
      "prefecture_code": 35,
      "city": "下松市",
      "city_kana": "クダマツシ",
      "town": "河内昭和通り",
      "town_kana": "コウチショウワドオリ",
      "street": null,
      "office_name": null,
      "office_name_kana": null
    },
    {
      "postcode": "7440061",
      "prefecture": "山口県",
      "prefecture_kana": "ヤマグチケン",
      "prefecture_code": 35,
      "city": "下松市",
      "city_kana": "クダマツシ",
      "town": "河内城山台",
      "town_kana": "コウチジョウヤマダイ",
      "street": null,
      "office_name": null,
      "office_name_kana": null
    },
    {
      "postcode": "7440061",
      "prefecture": "山口県",
      "prefecture_kana": "ヤマグチケン",
      "prefecture_code": 35,
      "city": "下松市",
      "city_kana": "クダマツシ",
      "town": "河内素通り",
      "town_kana": "コウチスドオリ",
      "street": null,
      "office_name": null,
      "office_name_kana": null
    },
    {
      "postcode": "7440061",
      "prefecture": "山口県",
      "prefecture_kana": "ヤマグチケン",
      "prefecture_code": 35,
      "city": "下松市",
      "city_kana": "クダマツシ",
      "town": "河内谷",
      "town_kana": "コウチタニ",
      "street": null,
      "office_name": null,
      "office_name_kana": null
    },
    {
      "postcode": "7440061",
      "prefecture": "山口県",
      "prefecture_kana": "ヤマグチケン",
      "prefecture_code": 35,
      "city": "下松市",
      "city_kana": "クダマツシ",
      "town": "河内つつじケ丘",
      "town_kana": "コウチツツジガオカ",
      "street": null,
      "office_name": null,
      "office_name_kana": null
    },
    {
      "postcode": "7440061",
      "prefecture": "山口県",
      "prefecture_kana": "ヤマグチケン",
      "prefecture_code": 35,
      "city": "下松市",
      "city_kana": "クダマツシ",
      "town": "河内出合",
      "town_kana": "コウチデアイ",
      "street": null,
      "office_name": null,
      "office_name_kana": null
    },
    {
      "postcode": "7440061",
      "prefecture": "山口県",
      "prefecture_kana": "ヤマグチケン",
      "prefecture_code": 35,
      "city": "下松市",
      "city_kana": "クダマツシ",
      "town": "河内殿ケ浴",
      "town_kana": "コウチトノガエキ",
      "street": null,
      "office_name": null,
      "office_name_kana": null
    },
    {
      "postcode": "7440061",
      "prefecture": "山口県",
      "prefecture_kana": "ヤマグチケン",
      "prefecture_code": 35,
      "city": "下松市",
      "city_kana": "クダマツシ",
      "town": "河内中戸原",
      "town_kana": "コウチナカトハラ",
      "street": null,
      "office_name": null,
      "office_name_kana": null
    },
    {
      "postcode": "7440061",
      "prefecture": "山口県",
      "prefecture_kana": "ヤマグチケン",
      "prefecture_code": 35,
      "city": "下松市",
      "city_kana": "クダマツシ",
      "town": "河内成川",
      "town_kana": "コウチナルカワ",
      "street": null,
      "office_name": null,
      "office_name_kana": null
    },
    {
      "postcode": "7440061",
      "prefecture": "山口県",
      "prefecture_kana": "ヤマグチケン",
      "prefecture_code": 35,
      "city": "下松市",
      "city_kana": "クダマツシ",
      "town": "河内二ノ瀬",
      "town_kana": "コウチニノセ",
      "street": null,
      "office_name": null,
      "office_name_kana": null
    },
    {
      "postcode": "7440061",
      "prefecture": "山口県",
      "prefecture_kana": "ヤマグチケン",
      "prefecture_code": 35,
      "city": "下松市",
      "city_kana": "クダマツシ",
      "town": "河内葉山",
      "town_kana": "コウチハヤマ",
      "street": null,
      "office_name": null,
      "office_name_kana": null
    },
    {
      "postcode": "7440061",
      "prefecture": "山口県",
      "prefecture_kana": "ヤマグチケン",
      "prefecture_code": 35,
      "city": "下松市",
      "city_kana": "クダマツシ",
      "town": "河内日ノ出町",
      "town_kana": "コウチヒノデチョウ",
      "street": null,
      "office_name": null,
      "office_name_kana": null
    },
    {
      "postcode": "7440061",
      "prefecture": "山口県",
      "prefecture_kana": "ヤマグチケン",
      "prefecture_code": 35,
      "city": "下松市",
      "city_kana": "クダマツシ",
      "town": "河内吉原",
      "town_kana": "コウチヨシワラ",
      "street": null,
      "office_name": null,
      "office_name_kana": null
    }
  ],
  "0062": {
    "postcode": "7440062",
    "prefecture": "山口県",
    "prefecture_kana": "ヤマグチケン",
    "prefecture_code": 35,
    "city": "下松市",
    "city_kana": "クダマツシ",
    "town": "昭和町",
    "town_kana": "ショウワマチ",
    "street": null,
    "office_name": null,
    "office_name_kana": null
  },
  "0063": {
    "postcode": "7440063",
    "prefecture": "山口県",
    "prefecture_kana": "ヤマグチケン",
    "prefecture_code": 35,
    "city": "下松市",
    "city_kana": "クダマツシ",
    "town": "若宮町",
    "town_kana": "ワカミヤチョウ",
    "street": null,
    "office_name": null,
    "office_name_kana": null
  },
  "0065": {
    "postcode": "7440065",
    "prefecture": "山口県",
    "prefecture_kana": "ヤマグチケン",
    "prefecture_code": 35,
    "city": "下松市",
    "city_kana": "クダマツシ",
    "town": "星が丘",
    "town_kana": "ホシガオカ",
    "street": null,
    "office_name": null,
    "office_name_kana": null
  },
  "0071": {
    "postcode": "7440071",
    "prefecture": "山口県",
    "prefecture_kana": "ヤマグチケン",
    "prefecture_code": 35,
    "city": "下松市",
    "city_kana": "クダマツシ",
    "town": "清瀬町",
    "town_kana": "キヨセチョウ",
    "street": null,
    "office_name": null,
    "office_name_kana": null
  },
  "0072": {
    "postcode": "7440072",
    "prefecture": "山口県",
    "prefecture_kana": "ヤマグチケン",
    "prefecture_code": 35,
    "city": "下松市",
    "city_kana": "クダマツシ",
    "town": "望町",
    "town_kana": "ノゾミチョウ",
    "street": null,
    "office_name": null,
    "office_name_kana": null
  },
  "0073": {
    "postcode": "7440073",
    "prefecture": "山口県",
    "prefecture_kana": "ヤマグチケン",
    "prefecture_code": 35,
    "city": "下松市",
    "city_kana": "クダマツシ",
    "town": "美里町",
    "town_kana": "ミサトチョウ",
    "street": null,
    "office_name": null,
    "office_name_kana": null
  },
  "0074": {
    "postcode": "7440074",
    "prefecture": "山口県",
    "prefecture_kana": "ヤマグチケン",
    "prefecture_code": 35,
    "city": "下松市",
    "city_kana": "クダマツシ",
    "town": "潮音町",
    "town_kana": "シオネチョウ",
    "street": null,
    "office_name": null,
    "office_name_kana": null
  },
  "0075": {
    "postcode": "7440075",
    "prefecture": "山口県",
    "prefecture_kana": "ヤマグチケン",
    "prefecture_code": 35,
    "city": "下松市",
    "city_kana": "クダマツシ",
    "town": "瑞穂町",
    "town_kana": "ミズホチョウ",
    "street": null,
    "office_name": null,
    "office_name_kana": null
  },
  "0076": {
    "postcode": "7440076",
    "prefecture": "山口県",
    "prefecture_kana": "ヤマグチケン",
    "prefecture_code": 35,
    "city": "下松市",
    "city_kana": "クダマツシ",
    "town": "せせらぎ町",
    "town_kana": "セセラギチョウ",
    "street": null,
    "office_name": null,
    "office_name_kana": null
  },
  "0077": {
    "postcode": "7440077",
    "prefecture": "山口県",
    "prefecture_kana": "ヤマグチケン",
    "prefecture_code": 35,
    "city": "下松市",
    "city_kana": "クダマツシ",
    "town": "中島町",
    "town_kana": "ナカシマチョウ",
    "street": null,
    "office_name": null,
    "office_name_kana": null
  },
  "0078": {
    "postcode": "7440078",
    "prefecture": "山口県",
    "prefecture_kana": "ヤマグチケン",
    "prefecture_code": 35,
    "city": "下松市",
    "city_kana": "クダマツシ",
    "town": "西市",
    "town_kana": "ニシイチ",
    "street": null,
    "office_name": null,
    "office_name_kana": null
  },
  "0271": [
    {
      "postcode": "7440271",
      "prefecture": "山口県",
      "prefecture_kana": "ヤマグチケン",
      "prefecture_code": 35,
      "city": "下松市",
      "city_kana": "クダマツシ",
      "town": "下谷",
      "town_kana": "クダタニ",
      "street": null,
      "office_name": null,
      "office_name_kana": null
    },
    {
      "postcode": "7440271",
      "prefecture": "山口県",
      "prefecture_kana": "ヤマグチケン",
      "prefecture_code": 35,
      "city": "下松市",
      "city_kana": "クダマツシ",
      "town": "下谷",
      "town_kana": "クダタニ",
      "street": null,
      "office_name": null,
      "office_name_kana": null
    },
    {
      "postcode": "7440271",
      "prefecture": "山口県",
      "prefecture_kana": "ヤマグチケン",
      "prefecture_code": 35,
      "city": "下松市",
      "city_kana": "クダマツシ",
      "town": "下谷赤谷",
      "town_kana": "クダタニアカダニ",
      "street": null,
      "office_name": null,
      "office_name_kana": null
    },
    {
      "postcode": "7440271",
      "prefecture": "山口県",
      "prefecture_kana": "ヤマグチケン",
      "prefecture_code": 35,
      "city": "下松市",
      "city_kana": "クダマツシ",
      "town": "下谷清若",
      "town_kana": "クダタニキヨワカ",
      "street": null,
      "office_name": null,
      "office_name_kana": null
    },
    {
      "postcode": "7440271",
      "prefecture": "山口県",
      "prefecture_kana": "ヤマグチケン",
      "prefecture_code": 35,
      "city": "下松市",
      "city_kana": "クダマツシ",
      "town": "下谷中瀬",
      "town_kana": "クダタニナカセ",
      "street": null,
      "office_name": null,
      "office_name_kana": null
    },
    {
      "postcode": "7440271",
      "prefecture": "山口県",
      "prefecture_kana": "ヤマグチケン",
      "prefecture_code": 35,
      "city": "下松市",
      "city_kana": "クダマツシ",
      "town": "下谷中原",
      "town_kana": "クダタニナカバラ",
      "street": null,
      "office_name": null,
      "office_name_kana": null
    },
    {
      "postcode": "7440271",
      "prefecture": "山口県",
      "prefecture_kana": "ヤマグチケン",
      "prefecture_code": 35,
      "city": "下松市",
      "city_kana": "クダマツシ",
      "town": "下谷西平谷",
      "town_kana": "クダタニニシヒラダニ",
      "street": null,
      "office_name": null,
      "office_name_kana": null
    },
    {
      "postcode": "7440271",
      "prefecture": "山口県",
      "prefecture_kana": "ヤマグチケン",
      "prefecture_code": 35,
      "city": "下松市",
      "city_kana": "クダマツシ",
      "town": "下谷山高",
      "town_kana": "クダタニヤマタカ",
      "street": null,
      "office_name": null,
      "office_name_kana": null
    }
  ],
  "0272": {
    "postcode": "7440272",
    "prefecture": "山口県",
    "prefecture_kana": "ヤマグチケン",
    "prefecture_code": 35,
    "city": "下松市",
    "city_kana": "クダマツシ",
    "town": "大藤谷",
    "town_kana": "オオフジダニ",
    "street": null,
    "office_name": null,
    "office_name_kana": null
  },
  "0273": [
    {
      "postcode": "7440273",
      "prefecture": "山口県",
      "prefecture_kana": "ヤマグチケン",
      "prefecture_code": 35,
      "city": "下松市",
      "city_kana": "クダマツシ",
      "town": "瀬戸",
      "town_kana": "セト",
      "street": null,
      "office_name": null,
      "office_name_kana": null
    },
    {
      "postcode": "7440273",
      "prefecture": "山口県",
      "prefecture_kana": "ヤマグチケン",
      "prefecture_code": 35,
      "city": "下松市",
      "city_kana": "クダマツシ",
      "town": "瀬戸",
      "town_kana": "セト",
      "street": null,
      "office_name": null,
      "office_name_kana": null
    },
    {
      "postcode": "7440273",
      "prefecture": "山口県",
      "prefecture_kana": "ヤマグチケン",
      "prefecture_code": 35,
      "city": "下松市",
      "city_kana": "クダマツシ",
      "town": "瀬戸後山",
      "town_kana": "セトウシロヤマ",
      "street": null,
      "office_name": null,
      "office_name_kana": null
    },
    {
      "postcode": "7440273",
      "prefecture": "山口県",
      "prefecture_kana": "ヤマグチケン",
      "prefecture_code": 35,
      "city": "下松市",
      "city_kana": "クダマツシ",
      "town": "瀬戸高橋",
      "town_kana": "セトタカハシ",
      "street": null,
      "office_name": null,
      "office_name_kana": null
    },
    {
      "postcode": "7440273",
      "prefecture": "山口県",
      "prefecture_kana": "ヤマグチケン",
      "prefecture_code": 35,
      "city": "下松市",
      "city_kana": "クダマツシ",
      "town": "瀬戸中瀬",
      "town_kana": "セトナカセ",
      "street": null,
      "office_name": null,
      "office_name_kana": null
    },
    {
      "postcode": "7440273",
      "prefecture": "山口県",
      "prefecture_kana": "ヤマグチケン",
      "prefecture_code": 35,
      "city": "下松市",
      "city_kana": "クダマツシ",
      "town": "瀬戸中原",
      "town_kana": "セトナカバラ",
      "street": null,
      "office_name": null,
      "office_name_kana": null
    }
  ],
  "0274": [
    {
      "postcode": "7440274",
      "prefecture": "山口県",
      "prefecture_kana": "ヤマグチケン",
      "prefecture_code": 35,
      "city": "下松市",
      "city_kana": "クダマツシ",
      "town": "温見",
      "town_kana": "ヌクミ",
      "street": null,
      "office_name": null,
      "office_name_kana": null
    },
    {
      "postcode": "7440274",
      "prefecture": "山口県",
      "prefecture_kana": "ヤマグチケン",
      "prefecture_code": 35,
      "city": "下松市",
      "city_kana": "クダマツシ",
      "town": "温見",
      "town_kana": "ヌクミ",
      "street": null,
      "office_name": null,
      "office_name_kana": null
    },
    {
      "postcode": "7440274",
      "prefecture": "山口県",
      "prefecture_kana": "ヤマグチケン",
      "prefecture_code": 35,
      "city": "下松市",
      "city_kana": "クダマツシ",
      "town": "温見後山",
      "town_kana": "ヌクミウシロヤマ",
      "street": null,
      "office_name": null,
      "office_name_kana": null
    },
    {
      "postcode": "7440274",
      "prefecture": "山口県",
      "prefecture_kana": "ヤマグチケン",
      "prefecture_code": 35,
      "city": "下松市",
      "city_kana": "クダマツシ",
      "town": "温見道谷",
      "town_kana": "ヌクミミチダニ",
      "street": null,
      "office_name": null,
      "office_name_kana": null
    }
  ],
  "0275": {
    "postcode": "7440275",
    "prefecture": "山口県",
    "prefecture_kana": "ヤマグチケン",
    "prefecture_code": 35,
    "city": "下松市",
    "city_kana": "クダマツシ",
    "town": "中須南",
    "town_kana": "ナカスミナミ",
    "street": null,
    "office_name": null,
    "office_name_kana": null
  },
  "0276": {
    "postcode": "7440276",
    "prefecture": "山口県",
    "prefecture_kana": "ヤマグチケン",
    "prefecture_code": 35,
    "city": "下松市",
    "city_kana": "クダマツシ",
    "town": "米川",
    "town_kana": "ヨネガワ",
    "street": null,
    "office_name": null,
    "office_name_kana": null
  },
  "8521": {
    "postcode": "7448521",
    "prefecture": "山口県",
    "prefecture_kana": "ヤマグチケン",
    "prefecture_code": 35,
    "city": "下松市",
    "city_kana": "クダマツシ",
    "town": "中央町",
    "town_kana": "チュウオウチョウ",
    "street": "２１−３",
    "office_name": "下松商業開発　株式会社",
    "office_name_kana": "クダマツシヨウギヨウカイハツ カブシキガイシヤ"
  },
  "8585": {
    "postcode": "7448585",
    "prefecture": "山口県",
    "prefecture_kana": "ヤマグチケン",
    "prefecture_code": 35,
    "city": "下松市",
    "city_kana": "クダマツシ",
    "town": "大手町",
    "town_kana": "オオテマチ",
    "street": "３丁目３−３",
    "office_name": "下松市役所",
    "office_name_kana": "クダマツシヤクシヨ"
  },
  "8601": {
    "postcode": "7448601",
    "prefecture": "山口県",
    "prefecture_kana": "ヤマグチケン",
    "prefecture_code": 35,
    "city": "下松市",
    "city_kana": "クダマツシ",
    "town": "大字東豊井",
    "town_kana": null,
    "street": "７９４（下松郵便局私書箱第１号）",
    "office_name": "株式会社　日立製作所　笠戸事業所",
    "office_name_kana": "カブシキガイシヤ ヒタチセイサクシヨ カサドジギヨウシヨ"
  },
  "8611": {
    "postcode": "7448611",
    "prefecture": "山口県",
    "prefecture_kana": "ヤマグチケン",
    "prefecture_code": 35,
    "city": "下松市",
    "city_kana": "クダマツシ",
    "town": "大字東豊井",
    "town_kana": null,
    "street": "１３０２−１（下松郵便局私書箱第１３号）",
    "office_name": "東洋鋼鈑　株式会社　下松工場",
    "office_name_kana": "トウヨウコウハン カブシキガイシヤ クダマツコウジヨウ"
  }
}