{
  "0801": {
    "postcode": "7510801",
    "prefecture": "山口県",
    "prefecture_kana": "ヤマグチケン",
    "prefecture_code": 35,
    "city": "下関市",
    "city_kana": "シモノセキシ",
    "town": "勝谷",
    "town_kana": "ショウヤ",
    "street": null,
    "office_name": null,
    "office_name_kana": null
  },
  "0802": {
    "postcode": "7510802",
    "prefecture": "山口県",
    "prefecture_kana": "ヤマグチケン",
    "prefecture_code": 35,
    "city": "下関市",
    "city_kana": "シモノセキシ",
    "town": "勝谷新町",
    "town_kana": "ショウヤシンマチ",
    "street": null,
    "office_name": null,
    "office_name_kana": null
  },
  "0803": {
    "postcode": "7510803",
    "prefecture": "山口県",
    "prefecture_kana": "ヤマグチケン",
    "prefecture_code": 35,
    "city": "下関市",
    "city_kana": "シモノセキシ",
    "town": "前勝谷町",
    "town_kana": "マエショウヤチョウ",
    "street": null,
    "office_name": null,
    "office_name_kana": null
  },
  "0804": {
    "postcode": "7510804",
    "prefecture": "山口県",
    "prefecture_kana": "ヤマグチケン",
    "prefecture_code": 35,
    "city": "下関市",
    "city_kana": "シモノセキシ",
    "town": "楠乃",
    "town_kana": "クスノ",
    "street": null,
    "office_name": null,
    "office_name_kana": null
  },
  "0805": {
    "postcode": "7510805",
    "prefecture": "山口県",
    "prefecture_kana": "ヤマグチケン",
    "prefecture_code": 35,
    "city": "下関市",
    "city_kana": "シモノセキシ",
    "town": "一の宮住吉",
    "town_kana": "イチノミヤスミヨシ",
    "street": null,
    "office_name": null,
    "office_name_kana": null
  },
  "0806": {
    "postcode": "7510806",
    "prefecture": "山口県",
    "prefecture_kana": "ヤマグチケン",
    "prefecture_code": 35,
    "city": "下関市",
    "city_kana": "シモノセキシ",
    "town": "一の宮町",
    "town_kana": "イチノミヤチョウ",
    "street": null,
    "office_name": null,
    "office_name_kana": null
  },
  "0807": {
    "postcode": "7510807",
    "prefecture": "山口県",
    "prefecture_kana": "ヤマグチケン",
    "prefecture_code": 35,
    "city": "下関市",
    "city_kana": "シモノセキシ",
    "town": "一の宮学園町",
    "town_kana": "イチノミヤガクエンチョウ",
    "street": null,
    "office_name": null,
    "office_name_kana": null
  },
  "0808": {
    "postcode": "7510808",
    "prefecture": "山口県",
    "prefecture_kana": "ヤマグチケン",
    "prefecture_code": 35,
    "city": "下関市",
    "city_kana": "シモノセキシ",
    "town": "一の宮本町",
    "town_kana": "イチノミヤホンマチ",
    "street": null,
    "office_name": null,
    "office_name_kana": null
  },
  "0809": {
    "postcode": "7510809",
    "prefecture": "山口県",
    "prefecture_kana": "ヤマグチケン",
    "prefecture_code": 35,
    "city": "下関市",
    "city_kana": "シモノセキシ",
    "town": "一の宮東町",
    "town_kana": "イチノミヤヒガシマチ",
    "street": null,
    "office_name": null,
    "office_name_kana": null
  },
  "0811": {
    "postcode": "7510811",
    "prefecture": "山口県",
    "prefecture_kana": "ヤマグチケン",
    "prefecture_code": 35,
    "city": "下関市",
    "city_kana": "シモノセキシ",
    "town": "藤ケ谷町",
    "town_kana": "フジガタニチョウ",
    "street": null,
    "office_name": null,
    "office_name_kana": null
  },
  "0812": {
    "postcode": "7510812",
    "prefecture": "山口県",
    "prefecture_kana": "ヤマグチケン",
    "prefecture_code": 35,
    "city": "下関市",
    "city_kana": "シモノセキシ",
    "town": "椋野上町",
    "town_kana": "ムクノカミマチ",
    "street": null,
    "office_name": null,
    "office_name_kana": null
  },
  "0813": {
    "postcode": "7510813",
    "prefecture": "山口県",
    "prefecture_kana": "ヤマグチケン",
    "prefecture_code": 35,
    "city": "下関市",
    "city_kana": "シモノセキシ",
    "town": "みもすそ川町",
    "town_kana": "ミモスソガワチョウ",
    "street": null,
    "office_name": null,
    "office_name_kana": null
  },
  "0814": {
    "postcode": "7510814",
    "prefecture": "山口県",
    "prefecture_kana": "ヤマグチケン",
    "prefecture_code": 35,
    "city": "下関市",
    "city_kana": "シモノセキシ",
    "town": "壇之浦町",
    "town_kana": "ダンノウラチョウ",
    "street": null,
    "office_name": null,
    "office_name_kana": null
  },
  "0815": {
    "postcode": "7510815",
    "prefecture": "山口県",
    "prefecture_kana": "ヤマグチケン",
    "prefecture_code": 35,
    "city": "下関市",
    "city_kana": "シモノセキシ",
    "town": "本町",
    "town_kana": "ホンマチ",
    "street": null,
    "office_name": null,
    "office_name_kana": null
  },
  "0816": {
    "postcode": "7510816",
    "prefecture": "山口県",
    "prefecture_kana": "ヤマグチケン",
    "prefecture_code": 35,
    "city": "下関市",
    "city_kana": "シモノセキシ",
    "town": "椋野町",
    "town_kana": "ムクノチョウ",
    "street": null,
    "office_name": null,
    "office_name_kana": null
  },
  "0817": {
    "postcode": "7510817",
    "prefecture": "山口県",
    "prefecture_kana": "ヤマグチケン",
    "prefecture_code": 35,
    "city": "下関市",
    "city_kana": "シモノセキシ",
    "town": "一の宮卸本町",
    "town_kana": "イチノミヤオロシホンマチ",
    "street": null,
    "office_name": null,
    "office_name_kana": null
  },
  "0818": {
    "postcode": "7510818",
    "prefecture": "山口県",
    "prefecture_kana": "ヤマグチケン",
    "prefecture_code": 35,
    "city": "下関市",
    "city_kana": "シモノセキシ",
    "town": "卸新町",
    "town_kana": "オロシシンマチ",
    "street": null,
    "office_name": null,
    "office_name_kana": null
  },
  "0819": {
    "postcode": "7510819",
    "prefecture": "山口県",
    "prefecture_kana": "ヤマグチケン",
    "prefecture_code": 35,
    "city": "下関市",
    "city_kana": "シモノセキシ",
    "town": "武久西原台",
    "town_kana": "タケヒサニシハラダイ",
    "street": null,
    "office_name": null,
    "office_name_kana": null
  },
  "0820": {
    "postcode": "7510820",
    "prefecture": "山口県",
    "prefecture_kana": "ヤマグチケン",
    "prefecture_code": 35,
    "city": "下関市",
    "city_kana": "シモノセキシ",
    "town": "新椋野",
    "town_kana": "シンムクノ",
    "street": null,
    "office_name": null,
    "office_name_kana": null
  },
  "0821": {
    "postcode": "7510821",
    "prefecture": "山口県",
    "prefecture_kana": "ヤマグチケン",
    "prefecture_code": 35,
    "city": "下関市",
    "city_kana": "シモノセキシ",
    "town": "三河町",
    "town_kana": "ミカワチョウ",
    "street": null,
    "office_name": null,
    "office_name_kana": null
  },
  "0822": {
    "postcode": "7510822",
    "prefecture": "山口県",
    "prefecture_kana": "ヤマグチケン",
    "prefecture_code": 35,
    "city": "下関市",
    "city_kana": "シモノセキシ",
    "town": "宝町",
    "town_kana": "タカラマチ",
    "street": null,
    "office_name": null,
    "office_name_kana": null
  },
  "0823": {
    "postcode": "7510823",
    "prefecture": "山口県",
    "prefecture_kana": "ヤマグチケン",
    "prefecture_code": 35,
    "city": "下関市",
    "city_kana": "シモノセキシ",
    "town": "貴船町",
    "town_kana": "キブネマチ",
    "street": null,
    "office_name": null,
    "office_name_kana": null
  },
  "0824": {
    "postcode": "7510824",
    "prefecture": "山口県",
    "prefecture_kana": "ヤマグチケン",
    "prefecture_code": 35,
    "city": "下関市",
    "city_kana": "シモノセキシ",
    "town": "山の口町",
    "town_kana": "ヤマノクチチョウ",
    "street": null,
    "office_name": null,
    "office_name_kana": null
  },
  "0825": {
    "postcode": "7510825",
    "prefecture": "山口県",
    "prefecture_kana": "ヤマグチケン",
    "prefecture_code": 35,
    "city": "下関市",
    "city_kana": "シモノセキシ",
    "town": "石神町",
    "town_kana": "イシガミチョウ",
    "street": null,
    "office_name": null,
    "office_name_kana": null
  },
  "0826": {
    "postcode": "7510826",
    "prefecture": "山口県",
    "prefecture_kana": "ヤマグチケン",
    "prefecture_code": 35,
    "city": "下関市",
    "city_kana": "シモノセキシ",
    "town": "後田町",
    "town_kana": "ウシロダチョウ",
    "street": null,
    "office_name": null,
    "office_name_kana": null
  },
  "0827": {
    "postcode": "7510827",
    "prefecture": "山口県",
    "prefecture_kana": "ヤマグチケン",
    "prefecture_code": 35,
    "city": "下関市",
    "city_kana": "シモノセキシ",
    "town": "幡生本町",
    "town_kana": "ハタブホンマチ",
    "street": null,
    "office_name": null,
    "office_name_kana": null
  },
  "0828": {
    "postcode": "7510828",
    "prefecture": "山口県",
    "prefecture_kana": "ヤマグチケン",
    "prefecture_code": 35,
    "city": "下関市",
    "city_kana": "シモノセキシ",
    "town": "幡生町",
    "town_kana": "ハタブチョウ",
    "street": null,
    "office_name": null,
    "office_name_kana": null
  },
  "0829": {
    "postcode": "7510829",
    "prefecture": "山口県",
    "prefecture_kana": "ヤマグチケン",
    "prefecture_code": 35,
    "city": "下関市",
    "city_kana": "シモノセキシ",
    "town": "幡生宮の下町",
    "town_kana": "ハタブミヤノシタチョウ",
    "street": null,
    "office_name": null,
    "office_name_kana": null
  },
  "0830": {
    "postcode": "7510830",
    "prefecture": "山口県",
    "prefecture_kana": "ヤマグチケン",
    "prefecture_code": 35,
    "city": "下関市",
    "city_kana": "シモノセキシ",
    "town": "幡生新町",
    "town_kana": "ハタブシンマチ",
    "street": null,
    "office_name": null,
    "office_name_kana": null
  },
  "0831": {
    "postcode": "7510831",
    "prefecture": "山口県",
    "prefecture_kana": "ヤマグチケン",
    "prefecture_code": 35,
    "city": "下関市",
    "city_kana": "シモノセキシ",
    "town": "大学町",
    "town_kana": "ダイガクチョウ",
    "street": null,
    "office_name": null,
    "office_name_kana": null
  },
  "0832": {
    "postcode": "7510832",
    "prefecture": "山口県",
    "prefecture_kana": "ヤマグチケン",
    "prefecture_code": 35,
    "city": "下関市",
    "city_kana": "シモノセキシ",
    "town": "生野町",
    "town_kana": "イクノチョウ",
    "street": null,
    "office_name": null,
    "office_name_kana": null
  },
  "0833": {
    "postcode": "7510833",
    "prefecture": "山口県",
    "prefecture_kana": "ヤマグチケン",
    "prefecture_code": 35,
    "city": "下関市",
    "city_kana": "シモノセキシ",
    "town": "武久町",
    "town_kana": "タケヒサチョウ",
    "street": null,
    "office_name": null,
    "office_name_kana": null
  },
  "0834": {
    "postcode": "7510834",
    "prefecture": "山口県",
    "prefecture_kana": "ヤマグチケン",
    "prefecture_code": 35,
    "city": "下関市",
    "city_kana": "シモノセキシ",
    "town": "山の田東町",
    "town_kana": "ヤマノタヒガシマチ",
    "street": null,
    "office_name": null,
    "office_name_kana": null
  },
  "0835": {
    "postcode": "7510835",
    "prefecture": "山口県",
    "prefecture_kana": "ヤマグチケン",
    "prefecture_code": 35,
    "city": "下関市",
    "city_kana": "シモノセキシ",
    "town": "山の田南町",
    "town_kana": "ヤマノタミナミマチ",
    "street": null,
    "office_name": null,
    "office_name_kana": null
  },
  "0836": {
    "postcode": "7510836",
    "prefecture": "山口県",
    "prefecture_kana": "ヤマグチケン",
    "prefecture_code": 35,
    "city": "下関市",
    "city_kana": "シモノセキシ",
    "town": "山の田西町",
    "town_kana": "ヤマノタニシマチ",
    "street": null,
    "office_name": null,
    "office_name_kana": null
  },
  "0837": {
    "postcode": "7510837",
    "prefecture": "山口県",
    "prefecture_kana": "ヤマグチケン",
    "prefecture_code": 35,
    "city": "下関市",
    "city_kana": "シモノセキシ",
    "town": "山の田中央町",
    "town_kana": "ヤマノタチュウオウチョウ",
    "street": null,
    "office_name": null,
    "office_name_kana": null
  },
  "0838": {
    "postcode": "7510838",
    "prefecture": "山口県",
    "prefecture_kana": "ヤマグチケン",
    "prefecture_code": 35,
    "city": "下関市",
    "city_kana": "シモノセキシ",
    "town": "山の田本町",
    "town_kana": "ヤマノタホンマチ",
    "street": null,
    "office_name": null,
    "office_name_kana": null
  },
  "0839": {
    "postcode": "7510839",
    "prefecture": "山口県",
    "prefecture_kana": "ヤマグチケン",
    "prefecture_code": 35,
    "city": "下関市",
    "city_kana": "シモノセキシ",
    "town": "山の田北町",
    "town_kana": "ヤマノタキタマチ",
    "street": null,
    "office_name": null,
    "office_name_kana": null
  },
  "0840": {
    "postcode": "7510840",
    "prefecture": "山口県",
    "prefecture_kana": "ヤマグチケン",
    "prefecture_code": 35,
    "city": "下関市",
    "city_kana": "シモノセキシ",
    "town": "長州出島",
    "town_kana": "チョウシュウデジマ",
    "street": null,
    "office_name": null,
    "office_name_kana": null
  },
  "0841": {
    "postcode": "7510841",
    "prefecture": "山口県",
    "prefecture_kana": "ヤマグチケン",
    "prefecture_code": 35,
    "city": "下関市",
    "city_kana": "シモノセキシ",
    "town": "垢田町",
    "town_kana": "アカダチョウ",
    "street": null,
    "office_name": null,
    "office_name_kana": null
  },
  "0842": {
    "postcode": "7510842",
    "prefecture": "山口県",
    "prefecture_kana": "ヤマグチケン",
    "prefecture_code": 35,
    "city": "下関市",
    "city_kana": "シモノセキシ",
    "town": "新垢田南町",
    "town_kana": "シンアカダミナミマチ",
    "street": null,
    "office_name": null,
    "office_name_kana": null
  },
  "0843": {
    "postcode": "7510843",
    "prefecture": "山口県",
    "prefecture_kana": "ヤマグチケン",
    "prefecture_code": 35,
    "city": "下関市",
    "city_kana": "シモノセキシ",
    "town": "新垢田東町",
    "town_kana": "シンアカダヒガシマチ",
    "street": null,
    "office_name": null,
    "office_name_kana": null
  },
  "0844": {
    "postcode": "7510844",
    "prefecture": "山口県",
    "prefecture_kana": "ヤマグチケン",
    "prefecture_code": 35,
    "city": "下関市",
    "city_kana": "シモノセキシ",
    "town": "新垢田西町",
    "town_kana": "シンアカダニシマチ",
    "street": null,
    "office_name": null,
    "office_name_kana": null
  },
  "0845": {
    "postcode": "7510845",
    "prefecture": "山口県",
    "prefecture_kana": "ヤマグチケン",
    "prefecture_code": 35,
    "city": "下関市",
    "city_kana": "シモノセキシ",
    "town": "新垢田北町",
    "town_kana": "シンアカダキタマチ",
    "street": null,
    "office_name": null,
    "office_name_kana": null
  },
  "0846": {
    "postcode": "7510846",
    "prefecture": "山口県",
    "prefecture_kana": "ヤマグチケン",
    "prefecture_code": 35,
    "city": "下関市",
    "city_kana": "シモノセキシ",
    "town": "垢田",
    "town_kana": "アカダ",
    "street": null,
    "office_name": null,
    "office_name_kana": null
  },
  "0847": {
    "postcode": "7510847",
    "prefecture": "山口県",
    "prefecture_kana": "ヤマグチケン",
    "prefecture_code": 35,
    "city": "下関市",
    "city_kana": "シモノセキシ",
    "town": "古屋町",
    "town_kana": "フルヤチョウ",
    "street": null,
    "office_name": null,
    "office_name_kana": null
  },
  "0848": {
    "postcode": "7510848",
    "prefecture": "山口県",
    "prefecture_kana": "ヤマグチケン",
    "prefecture_code": 35,
    "city": "下関市",
    "city_kana": "シモノセキシ",
    "town": "綾羅木南町",
    "town_kana": "アヤラギミナミマチ",
    "street": null,
    "office_name": null,
    "office_name_kana": null
  },
  "0849": {
    "postcode": "7510849",
    "prefecture": "山口県",
    "prefecture_kana": "ヤマグチケン",
    "prefecture_code": 35,
    "city": "下関市",
    "city_kana": "シモノセキシ",
    "town": "綾羅木本町",
    "town_kana": "アヤラギホンマチ",
    "street": null,
    "office_name": null,
    "office_name_kana": null
  },
  "0851": {
    "postcode": "7510851",
    "prefecture": "山口県",
    "prefecture_kana": "ヤマグチケン",
    "prefecture_code": 35,
    "city": "下関市",
    "city_kana": "シモノセキシ",
    "town": "熊野西町",
    "town_kana": "クマノニシマチ",
    "street": null,
    "office_name": null,
    "office_name_kana": null
  },
  "0852": {
    "postcode": "7510852",
    "prefecture": "山口県",
    "prefecture_kana": "ヤマグチケン",
    "prefecture_code": 35,
    "city": "下関市",
    "city_kana": "シモノセキシ",
    "town": "熊野町",
    "town_kana": "クマノチョウ",
    "street": null,
    "office_name": null,
    "office_name_kana": null
  },
  "0853": {
    "postcode": "7510853",
    "prefecture": "山口県",
    "prefecture_kana": "ヤマグチケン",
    "prefecture_code": 35,
    "city": "下関市",
    "city_kana": "シモノセキシ",
    "town": "川中豊町",
    "town_kana": "カワナカユタカマチ",
    "street": null,
    "office_name": null,
    "office_name_kana": null
  },
  "0854": {
    "postcode": "7510854",
    "prefecture": "山口県",
    "prefecture_kana": "ヤマグチケン",
    "prefecture_code": 35,
    "city": "下関市",
    "city_kana": "シモノセキシ",
    "town": "稗田南町",
    "town_kana": "ヒエダミナミマチ",
    "street": null,
    "office_name": null,
    "office_name_kana": null
  },
  "0855": {
    "postcode": "7510855",
    "prefecture": "山口県",
    "prefecture_kana": "ヤマグチケン",
    "prefecture_code": 35,
    "city": "下関市",
    "city_kana": "シモノセキシ",
    "town": "稗田西町",
    "town_kana": "ヒエダニシマチ",
    "street": null,
    "office_name": null,
    "office_name_kana": null
  },
  "0856": {
    "postcode": "7510856",
    "prefecture": "山口県",
    "prefecture_kana": "ヤマグチケン",
    "prefecture_code": 35,
    "city": "下関市",
    "city_kana": "シモノセキシ",
    "town": "稗田中町",
    "town_kana": "ヒエダナカマチ",
    "street": null,
    "office_name": null,
    "office_name_kana": null
  },
  "0857": {
    "postcode": "7510857",
    "prefecture": "山口県",
    "prefecture_kana": "ヤマグチケン",
    "prefecture_code": 35,
    "city": "下関市",
    "city_kana": "シモノセキシ",
    "town": "稗田北町",
    "town_kana": "ヒエダキタマチ",
    "street": null,
    "office_name": null,
    "office_name_kana": null
  },
  "0858": {
    "postcode": "7510858",
    "prefecture": "山口県",
    "prefecture_kana": "ヤマグチケン",
    "prefecture_code": 35,
    "city": "下関市",
    "city_kana": "シモノセキシ",
    "town": "稗田町",
    "town_kana": "ヒエダチョウ",
    "street": null,
    "office_name": null,
    "office_name_kana": null
  },
  "0859": {
    "postcode": "7510859",
    "prefecture": "山口県",
    "prefecture_kana": "ヤマグチケン",
    "prefecture_code": 35,
    "city": "下関市",
    "city_kana": "シモノセキシ",
    "town": "川中本町",
    "town_kana": "カワナカホンマチ",
    "street": null,
    "office_name": null,
    "office_name_kana": null
  },
  "0861": {
    "postcode": "7510861",
    "prefecture": "山口県",
    "prefecture_kana": "ヤマグチケン",
    "prefecture_code": 35,
    "city": "下関市",
    "city_kana": "シモノセキシ",
    "town": "伊倉東町",
    "town_kana": "イクラヒガシマチ",
    "street": null,
    "office_name": null,
    "office_name_kana": null
  },
  "0862": {
    "postcode": "7510862",
    "prefecture": "山口県",
    "prefecture_kana": "ヤマグチケン",
    "prefecture_code": 35,
    "city": "下関市",
    "city_kana": "シモノセキシ",
    "town": "伊倉",
    "town_kana": "イクラ",
    "street": null,
    "office_name": null,
    "office_name_kana": null
  },
  "0863": {
    "postcode": "7510863",
    "prefecture": "山口県",
    "prefecture_kana": "ヤマグチケン",
    "prefecture_code": 35,
    "city": "下関市",
    "city_kana": "シモノセキシ",
    "town": "伊倉本町",
    "town_kana": "イクラホンマチ",
    "street": null,
    "office_name": null,
    "office_name_kana": null
  },
  "0864": {
    "postcode": "7510864",
    "prefecture": "山口県",
    "prefecture_kana": "ヤマグチケン",
    "prefecture_code": 35,
    "city": "下関市",
    "city_kana": "シモノセキシ",
    "town": "伊倉町",
    "town_kana": "イクラチョウ",
    "street": null,
    "office_name": null,
    "office_name_kana": null
  },
  "0865": {
    "postcode": "7510865",
    "prefecture": "山口県",
    "prefecture_kana": "ヤマグチケン",
    "prefecture_code": 35,
    "city": "下関市",
    "city_kana": "シモノセキシ",
    "town": "綾羅木新町",
    "town_kana": "アヤラギシンマチ",
    "street": null,
    "office_name": null,
    "office_name_kana": null
  },
  "0866": {
    "postcode": "7510866",
    "prefecture": "山口県",
    "prefecture_kana": "ヤマグチケン",
    "prefecture_code": 35,
    "city": "下関市",
    "city_kana": "シモノセキシ",
    "town": "綾羅木",
    "town_kana": "アヤラギ",
    "street": null,
    "office_name": null,
    "office_name_kana": null
  },
  "0867": {
    "postcode": "7510867",
    "prefecture": "山口県",
    "prefecture_kana": "ヤマグチケン",
    "prefecture_code": 35,
    "city": "下関市",
    "city_kana": "シモノセキシ",
    "town": "延行",
    "town_kana": "ノブユキ",
    "street": null,
    "office_name": null,
    "office_name_kana": null
  },
  "0868": {
    "postcode": "7510868",
    "prefecture": "山口県",
    "prefecture_kana": "ヤマグチケン",
    "prefecture_code": 35,
    "city": "下関市",
    "city_kana": "シモノセキシ",
    "town": "有冨",
    "town_kana": "アリドミ",
    "street": null,
    "office_name": null,
    "office_name_kana": null
  },
  "0869": {
    "postcode": "7510869",
    "prefecture": "山口県",
    "prefecture_kana": "ヤマグチケン",
    "prefecture_code": 35,
    "city": "下関市",
    "city_kana": "シモノセキシ",
    "town": "伊倉新町",
    "town_kana": "イクラシンマチ",
    "street": null,
    "office_name": null,
    "office_name_kana": null
  },
  "0871": {
    "postcode": "7510871",
    "prefecture": "山口県",
    "prefecture_kana": "ヤマグチケン",
    "prefecture_code": 35,
    "city": "下関市",
    "city_kana": "シモノセキシ",
    "town": "秋根",
    "town_kana": "アキネ",
    "street": null,
    "office_name": null,
    "office_name_kana": null
  },
  "0872": {
    "postcode": "7510872",
    "prefecture": "山口県",
    "prefecture_kana": "ヤマグチケン",
    "prefecture_code": 35,
    "city": "下関市",
    "city_kana": "シモノセキシ",
    "town": "秋根南町",
    "town_kana": "アキネミナミマチ",
    "street": null,
    "office_name": null,
    "office_name_kana": null
  },
  "0873": {
    "postcode": "7510873",
    "prefecture": "山口県",
    "prefecture_kana": "ヤマグチケン",
    "prefecture_code": 35,
    "city": "下関市",
    "city_kana": "シモノセキシ",
    "town": "秋根西町",
    "town_kana": "アキネニシマチ",
    "street": null,
    "office_name": null,
    "office_name_kana": null
  },
  "0874": {
    "postcode": "7510874",
    "prefecture": "山口県",
    "prefecture_kana": "ヤマグチケン",
    "prefecture_code": 35,
    "city": "下関市",
    "city_kana": "シモノセキシ",
    "town": "秋根新町",
    "town_kana": "アキネシンマチ",
    "street": null,
    "office_name": null,
    "office_name_kana": null
  },
  "0875": {
    "postcode": "7510875",
    "prefecture": "山口県",
    "prefecture_kana": "ヤマグチケン",
    "prefecture_code": 35,
    "city": "下関市",
    "city_kana": "シモノセキシ",
    "town": "秋根本町",
    "town_kana": "アキネホンマチ",
    "street": null,
    "office_name": null,
    "office_name_kana": null
  },
  "0876": {
    "postcode": "7510876",
    "prefecture": "山口県",
    "prefecture_kana": "ヤマグチケン",
    "prefecture_code": 35,
    "city": "下関市",
    "city_kana": "シモノセキシ",
    "town": "秋根北町",
    "town_kana": "アキネキタマチ",
    "street": null,
    "office_name": null,
    "office_name_kana": null
  },
  "0877": {
    "postcode": "7510877",
    "prefecture": "山口県",
    "prefecture_kana": "ヤマグチケン",
    "prefecture_code": 35,
    "city": "下関市",
    "city_kana": "シモノセキシ",
    "town": "秋根東町",
    "town_kana": "アキネヒガシマチ",
    "street": null,
    "office_name": null,
    "office_name_kana": null
  },
  "0878": {
    "postcode": "7510878",
    "prefecture": "山口県",
    "prefecture_kana": "ヤマグチケン",
    "prefecture_code": 35,
    "city": "下関市",
    "city_kana": "シモノセキシ",
    "town": "秋根上町",
    "town_kana": "アキネカミマチ",
    "street": null,
    "office_name": null,
    "office_name_kana": null
  },
  "0879": {
    "postcode": "7510879",
    "prefecture": "山口県",
    "prefecture_kana": "ヤマグチケン",
    "prefecture_code": 35,
    "city": "下関市",
    "city_kana": "シモノセキシ",
    "town": "東勝谷",
    "town_kana": "ヒガシショウヤ",
    "street": null,
    "office_name": null,
    "office_name_kana": null
  },
  "0881": {
    "postcode": "7510881",
    "prefecture": "山口県",
    "prefecture_kana": "ヤマグチケン",
    "prefecture_code": 35,
    "city": "下関市",
    "city_kana": "シモノセキシ",
    "town": "井田",
    "town_kana": "イダ",
    "street": null,
    "office_name": null,
    "office_name_kana": null
  },
  "0882": {
    "postcode": "7510882",
    "prefecture": "山口県",
    "prefecture_kana": "ヤマグチケン",
    "prefecture_code": 35,
    "city": "下関市",
    "city_kana": "シモノセキシ",
    "town": "田倉御殿町",
    "town_kana": "タクラゴテンマチ",
    "street": null,
    "office_name": null,
    "office_name_kana": null
  },
  "0883": {
    "postcode": "7510883",
    "prefecture": "山口県",
    "prefecture_kana": "ヤマグチケン",
    "prefecture_code": 35,
    "city": "下関市",
    "city_kana": "シモノセキシ",
    "town": "田倉",
    "town_kana": "タクラ",
    "street": null,
    "office_name": null,
    "office_name_kana": null
  },
  "0884": {
    "postcode": "7510884",
    "prefecture": "山口県",
    "prefecture_kana": "ヤマグチケン",
    "prefecture_code": 35,
    "city": "下関市",
    "city_kana": "シモノセキシ",
    "town": "形山",
    "town_kana": "カタチヤマ",
    "street": null,
    "office_name": null,
    "office_name_kana": null
  },
  "0885": {
    "postcode": "7510885",
    "prefecture": "山口県",
    "prefecture_kana": "ヤマグチケン",
    "prefecture_code": 35,
    "city": "下関市",
    "city_kana": "シモノセキシ",
    "town": "形山みどり町",
    "town_kana": "カタチヤマミドリマチ",
    "street": null,
    "office_name": null,
    "office_name_kana": null
  },
  "0886": {
    "postcode": "7510886",
    "prefecture": "山口県",
    "prefecture_kana": "ヤマグチケン",
    "prefecture_code": 35,
    "city": "下関市",
    "city_kana": "シモノセキシ",
    "town": "石原",
    "town_kana": "イシハラ",
    "street": null,
    "office_name": null,
    "office_name_kana": null
  },
  "0887": {
    "postcode": "7510887",
    "prefecture": "山口県",
    "prefecture_kana": "ヤマグチケン",
    "prefecture_code": 35,
    "city": "下関市",
    "city_kana": "シモノセキシ",
    "town": "小野",
    "town_kana": "オノ",
    "street": null,
    "office_name": null,
    "office_name_kana": null
  },
  "0888": {
    "postcode": "7510888",
    "prefecture": "山口県",
    "prefecture_kana": "ヤマグチケン",
    "prefecture_code": 35,
    "city": "下関市",
    "city_kana": "シモノセキシ",
    "town": "形山町",
    "town_kana": "カタチヤマチョウ",
    "street": null,
    "office_name": null,
    "office_name_kana": null
  },
  "8503": {
    "postcode": "7518503",
    "prefecture": "山口県",
    "prefecture_kana": "ヤマグチケン",
    "prefecture_code": 35,
    "city": "下関市",
    "city_kana": "シモノセキシ",
    "town": "一の宮学園町",
    "town_kana": "イチノミヤガクエンチョウ",
    "street": "２−１",
    "office_name": "東亜大学",
    "office_name_kana": "トウアダイガク"
  },
  "8508": {
    "postcode": "7518508",
    "prefecture": "山口県",
    "prefecture_kana": "ヤマグチケン",
    "prefecture_code": 35,
    "city": "下関市",
    "city_kana": "シモノセキシ",
    "town": "本町",
    "town_kana": "ホンマチ",
    "street": "３丁目１−１",
    "office_name": "山口合同ガス　株式会社",
    "office_name_kana": "ヤマグチゴウドウガス カブシキガイシヤ"
  },
  "8510": {
    "postcode": "7518510",
    "prefecture": "山口県",
    "prefecture_kana": "ヤマグチケン",
    "prefecture_code": 35,
    "city": "下関市",
    "city_kana": "シモノセキシ",
    "town": "大学町",
    "town_kana": "ダイガクチョウ",
    "street": "２丁目１−１",
    "office_name": "下関市立大学",
    "office_name_kana": "シモノセキシリツダイガク"
  },
  "8630": {
    "postcode": "7518630",
    "prefecture": "山口県",
    "prefecture_kana": "ヤマグチケン",
    "prefecture_code": 35,
    "city": "下関市",
    "city_kana": "シモノセキシ",
    "town": "一の宮卸本町",
    "town_kana": "イチノミヤオロシホンマチ",
    "street": "２番３号",
    "office_name": "株式会社　毎日メディアサービス山口",
    "office_name_kana": "カブシキガイシヤ マイニチメデイアサ-ビスヤマグチ"
  }
}