{
  "0901": {
    "postcode": "7520901",
    "prefecture": "山口県",
    "prefecture_kana": "ヤマグチケン",
    "prefecture_code": 35,
    "city": "下関市",
    "city_kana": "シモノセキシ",
    "town": "山田",
    "town_kana": "ヤマダ",
    "street": null,
    "office_name": null,
    "office_name_kana": null
  },
  "0902": {
    "postcode": "7520902",
    "prefecture": "山口県",
    "prefecture_kana": "ヤマグチケン",
    "prefecture_code": 35,
    "city": "下関市",
    "city_kana": "シモノセキシ",
    "town": "赤池町",
    "town_kana": "アカイケチョウ",
    "street": null,
    "office_name": null,
    "office_name_kana": null
  },
  "0903": {
    "postcode": "7520903",
    "prefecture": "山口県",
    "prefecture_kana": "ヤマグチケン",
    "prefecture_code": 35,
    "city": "下関市",
    "city_kana": "シモノセキシ",
    "town": "員光町",
    "town_kana": "カズミツチョウ",
    "street": null,
    "office_name": null,
    "office_name_kana": null
  },
  "0904": {
    "postcode": "7520904",
    "prefecture": "山口県",
    "prefecture_kana": "ヤマグチケン",
    "prefecture_code": 35,
    "city": "下関市",
    "city_kana": "シモノセキシ",
    "town": "員光",
    "town_kana": "カズミツ",
    "street": null,
    "office_name": null,
    "office_name_kana": null
  },
  "0905": {
    "postcode": "7520905",
    "prefecture": "山口県",
    "prefecture_kana": "ヤマグチケン",
    "prefecture_code": 35,
    "city": "下関市",
    "city_kana": "シモノセキシ",
    "town": "西観音町",
    "town_kana": "ニシカンノンチョウ",
    "street": null,
    "office_name": null,
    "office_name_kana": null
  },
  "0906": {
    "postcode": "7520906",
    "prefecture": "山口県",
    "prefecture_kana": "ヤマグチケン",
    "prefecture_code": 35,
    "city": "下関市",
    "city_kana": "シモノセキシ",
    "town": "東観音町",
    "town_kana": "ヒガシカンノンチョウ",
    "street": null,
    "office_name": null,
    "office_name_kana": null
  },
  "0907": {
    "postcode": "7520907",
    "prefecture": "山口県",
    "prefecture_kana": "ヤマグチケン",
    "prefecture_code": 35,
    "city": "下関市",
    "city_kana": "シモノセキシ",
    "town": "神田",
    "town_kana": "カンダ",
    "street": null,
    "office_name": null,
    "office_name_kana": null
  },
  "0911": {
    "postcode": "7520911",
    "prefecture": "山口県",
    "prefecture_kana": "ヤマグチケン",
    "prefecture_code": 35,
    "city": "下関市",
    "city_kana": "シモノセキシ",
    "town": "王司神田",
    "town_kana": "オウジカンダ",
    "street": null,
    "office_name": null,
    "office_name_kana": null
  },
  "0912": {
    "postcode": "7520912",
    "prefecture": "山口県",
    "prefecture_kana": "ヤマグチケン",
    "prefecture_code": 35,
    "city": "下関市",
    "city_kana": "シモノセキシ",
    "town": "王司川端",
    "town_kana": "オウジカワバタ",
    "street": null,
    "office_name": null,
    "office_name_kana": null
  },
  "0913": {
    "postcode": "7520913",
    "prefecture": "山口県",
    "prefecture_kana": "ヤマグチケン",
    "prefecture_code": 35,
    "city": "下関市",
    "city_kana": "シモノセキシ",
    "town": "乃木浜",
    "town_kana": "ノギハマ",
    "street": null,
    "office_name": null,
    "office_name_kana": null
  },
  "0914": {
    "postcode": "7520914",
    "prefecture": "山口県",
    "prefecture_kana": "ヤマグチケン",
    "prefecture_code": 35,
    "city": "下関市",
    "city_kana": "シモノセキシ",
    "town": "千鳥浜町",
    "town_kana": "チドリハマチョウ",
    "street": null,
    "office_name": null,
    "office_name_kana": null
  },
  "0915": {
    "postcode": "7520915",
    "prefecture": "山口県",
    "prefecture_kana": "ヤマグチケン",
    "prefecture_code": 35,
    "city": "下関市",
    "city_kana": "シモノセキシ",
    "town": "王司本町",
    "town_kana": "オウジホンマチ",
    "street": null,
    "office_name": null,
    "office_name_kana": null
  },
  "0916": {
    "postcode": "7520916",
    "prefecture": "山口県",
    "prefecture_kana": "ヤマグチケン",
    "prefecture_code": 35,
    "city": "下関市",
    "city_kana": "シモノセキシ",
    "town": "王司上町",
    "town_kana": "オウジカミマチ",
    "street": null,
    "office_name": null,
    "office_name_kana": null
  },
  "0921": {
    "postcode": "7520921",
    "prefecture": "山口県",
    "prefecture_kana": "ヤマグチケン",
    "prefecture_code": 35,
    "city": "下関市",
    "city_kana": "シモノセキシ",
    "town": "才川",
    "town_kana": "サイガワ",
    "street": null,
    "office_name": null,
    "office_name_kana": null
  },
  "0922": {
    "postcode": "7520922",
    "prefecture": "山口県",
    "prefecture_kana": "ヤマグチケン",
    "prefecture_code": 35,
    "city": "下関市",
    "city_kana": "シモノセキシ",
    "town": "千鳥ケ丘町",
    "town_kana": "チドリガオカチョウ",
    "street": null,
    "office_name": null,
    "office_name_kana": null
  },
  "0923": {
    "postcode": "7520923",
    "prefecture": "山口県",
    "prefecture_kana": "ヤマグチケン",
    "prefecture_code": 35,
    "city": "下関市",
    "city_kana": "シモノセキシ",
    "town": "宇部",
    "town_kana": "ウベ",
    "street": null,
    "office_name": null,
    "office_name_kana": null
  },
  "0924": {
    "postcode": "7520924",
    "prefecture": "山口県",
    "prefecture_kana": "ヤマグチケン",
    "prefecture_code": 35,
    "city": "下関市",
    "city_kana": "シモノセキシ",
    "town": "王司南町",
    "town_kana": "オウジミナミマチ",
    "street": null,
    "office_name": null,
    "office_name_kana": null
  },
  "0925": {
    "postcode": "7520925",
    "prefecture": "山口県",
    "prefecture_kana": "ヤマグチケン",
    "prefecture_code": 35,
    "city": "下関市",
    "city_kana": "シモノセキシ",
    "town": "亀浜町",
    "town_kana": "カメハマチョウ",
    "street": null,
    "office_name": null,
    "office_name_kana": null
  },
  "0926": {
    "postcode": "7520926",
    "prefecture": "山口県",
    "prefecture_kana": "ヤマグチケン",
    "prefecture_code": 35,
    "city": "下関市",
    "city_kana": "シモノセキシ",
    "town": "ゆめタウン",
    "town_kana": "ユメタウン",
    "street": null,
    "office_name": null,
    "office_name_kana": null
  },
  "0927": {
    "postcode": "7520927",
    "prefecture": "山口県",
    "prefecture_kana": "ヤマグチケン",
    "prefecture_code": 35,
    "city": "下関市",
    "city_kana": "シモノセキシ",
    "town": "長府扇町",
    "town_kana": "チョウフオオギマチ",
    "street": null,
    "office_name": null,
    "office_name_kana": null
  },
  "0928": {
    "postcode": "7520928",
    "prefecture": "山口県",
    "prefecture_kana": "ヤマグチケン",
    "prefecture_code": 35,
    "city": "下関市",
    "city_kana": "シモノセキシ",
    "town": "長府才川",
    "town_kana": "チョウフサイガワ",
    "street": null,
    "office_name": null,
    "office_name_kana": null
  },
  "0931": {
    "postcode": "7520931",
    "prefecture": "山口県",
    "prefecture_kana": "ヤマグチケン",
    "prefecture_code": 35,
    "city": "下関市",
    "city_kana": "シモノセキシ",
    "town": "松小田",
    "town_kana": "マツオダ",
    "street": null,
    "office_name": null,
    "office_name_kana": null
  },
  "0932": {
    "postcode": "7520932",
    "prefecture": "山口県",
    "prefecture_kana": "ヤマグチケン",
    "prefecture_code": 35,
    "city": "下関市",
    "city_kana": "シモノセキシ",
    "town": "長府松小田北町",
    "town_kana": "チョウフマツオダキタマチ",
    "street": null,
    "office_name": null,
    "office_name_kana": null
  },
  "0933": {
    "postcode": "7520933",
    "prefecture": "山口県",
    "prefecture_kana": "ヤマグチケン",
    "prefecture_code": 35,
    "city": "下関市",
    "city_kana": "シモノセキシ",
    "town": "長府松小田本町",
    "town_kana": "チョウフマツオダホンマチ",
    "street": null,
    "office_name": null,
    "office_name_kana": null
  },
  "0934": {
    "postcode": "7520934",
    "prefecture": "山口県",
    "prefecture_kana": "ヤマグチケン",
    "prefecture_code": 35,
    "city": "下関市",
    "city_kana": "シモノセキシ",
    "town": "長府松小田東町",
    "town_kana": "チョウフマツオダヒガシマチ",
    "street": null,
    "office_name": null,
    "office_name_kana": null
  },
  "0935": {
    "postcode": "7520935",
    "prefecture": "山口県",
    "prefecture_kana": "ヤマグチケン",
    "prefecture_code": 35,
    "city": "下関市",
    "city_kana": "シモノセキシ",
    "town": "長府松小田中町",
    "town_kana": "チョウフマツオダナカマチ",
    "street": null,
    "office_name": null,
    "office_name_kana": null
  },
  "0936": {
    "postcode": "7520936",
    "prefecture": "山口県",
    "prefecture_kana": "ヤマグチケン",
    "prefecture_code": 35,
    "city": "下関市",
    "city_kana": "シモノセキシ",
    "town": "長府松小田南町",
    "town_kana": "チョウフマツオダミナミマチ",
    "street": null,
    "office_name": null,
    "office_name_kana": null
  },
  "0937": {
    "postcode": "7520937",
    "prefecture": "山口県",
    "prefecture_kana": "ヤマグチケン",
    "prefecture_code": 35,
    "city": "下関市",
    "city_kana": "シモノセキシ",
    "town": "長府松小田西町",
    "town_kana": "チョウフマツオダニシマチ",
    "street": null,
    "office_name": null,
    "office_name_kana": null
  },
  "0941": {
    "postcode": "7520941",
    "prefecture": "山口県",
    "prefecture_kana": "ヤマグチケン",
    "prefecture_code": 35,
    "city": "下関市",
    "city_kana": "シモノセキシ",
    "town": "長府新四王司町",
    "town_kana": "チョウフシンシオウジチョウ",
    "street": null,
    "office_name": null,
    "office_name_kana": null
  },
  "0942": {
    "postcode": "7520942",
    "prefecture": "山口県",
    "prefecture_kana": "ヤマグチケン",
    "prefecture_code": 35,
    "city": "下関市",
    "city_kana": "シモノセキシ",
    "town": "長府四王司町",
    "town_kana": "チョウフシオウジチョウ",
    "street": null,
    "office_name": null,
    "office_name_kana": null
  },
  "0943": {
    "postcode": "7520943",
    "prefecture": "山口県",
    "prefecture_kana": "ヤマグチケン",
    "prefecture_code": 35,
    "city": "下関市",
    "city_kana": "シモノセキシ",
    "town": "長府豊城町",
    "town_kana": "チョウフホウジョウチョウ",
    "street": null,
    "office_name": null,
    "office_name_kana": null
  },
  "0944": {
    "postcode": "7520944",
    "prefecture": "山口県",
    "prefecture_kana": "ヤマグチケン",
    "prefecture_code": 35,
    "city": "下関市",
    "city_kana": "シモノセキシ",
    "town": "長府中六波町",
    "town_kana": "チョウフナカロッパチョウ",
    "street": null,
    "office_name": null,
    "office_name_kana": null
  },
  "0945": {
    "postcode": "7520945",
    "prefecture": "山口県",
    "prefecture_kana": "ヤマグチケン",
    "prefecture_code": 35,
    "city": "下関市",
    "city_kana": "シモノセキシ",
    "town": "長府豊浦町",
    "town_kana": "チョウフトヨラチョウ",
    "street": null,
    "office_name": null,
    "office_name_kana": null
  },
  "0946": {
    "postcode": "7520946",
    "prefecture": "山口県",
    "prefecture_kana": "ヤマグチケン",
    "prefecture_code": 35,
    "city": "下関市",
    "city_kana": "シモノセキシ",
    "town": "長府中尾町",
    "town_kana": "チョウフナカオチョウ",
    "street": null,
    "office_name": null,
    "office_name_kana": null
  },
  "0947": {
    "postcode": "7520947",
    "prefecture": "山口県",
    "prefecture_kana": "ヤマグチケン",
    "prefecture_code": 35,
    "city": "下関市",
    "city_kana": "シモノセキシ",
    "town": "長府満珠町",
    "town_kana": "チョウフマンジュチョウ",
    "street": null,
    "office_name": null,
    "office_name_kana": null
  },
  "0948": {
    "postcode": "7520948",
    "prefecture": "山口県",
    "prefecture_kana": "ヤマグチケン",
    "prefecture_code": 35,
    "city": "下関市",
    "city_kana": "シモノセキシ",
    "town": "長府満珠新町",
    "town_kana": "チョウフマンジュシンマチ",
    "street": null,
    "office_name": null,
    "office_name_kana": null
  },
  "0951": {
    "postcode": "7520951",
    "prefecture": "山口県",
    "prefecture_kana": "ヤマグチケン",
    "prefecture_code": 35,
    "city": "下関市",
    "city_kana": "シモノセキシ",
    "town": "長府日の出町",
    "town_kana": "チョウフヒノデチョウ",
    "street": null,
    "office_name": null,
    "office_name_kana": null
  },
  "0952": {
    "postcode": "7520952",
    "prefecture": "山口県",
    "prefecture_kana": "ヤマグチケン",
    "prefecture_code": 35,
    "city": "下関市",
    "city_kana": "シモノセキシ",
    "town": "長府江下町",
    "town_kana": "チョウフエゲマチ",
    "street": null,
    "office_name": null,
    "office_name_kana": null
  },
  "0953": {
    "postcode": "7520953",
    "prefecture": "山口県",
    "prefecture_kana": "ヤマグチケン",
    "prefecture_code": 35,
    "city": "下関市",
    "city_kana": "シモノセキシ",
    "town": "長府港町",
    "town_kana": "チョウフミナトマチ",
    "street": null,
    "office_name": null,
    "office_name_kana": null
  },
  "0954": {
    "postcode": "7520954",
    "prefecture": "山口県",
    "prefecture_kana": "ヤマグチケン",
    "prefecture_code": 35,
    "city": "下関市",
    "city_kana": "シモノセキシ",
    "town": "長府古城町",
    "town_kana": "チョウフコジョウチョウ",
    "street": null,
    "office_name": null,
    "office_name_kana": null
  },
  "0955": {
    "postcode": "7520955",
    "prefecture": "山口県",
    "prefecture_kana": "ヤマグチケン",
    "prefecture_code": 35,
    "city": "下関市",
    "city_kana": "シモノセキシ",
    "town": "長府八幡町",
    "town_kana": "チョウフヤハタチョウ",
    "street": null,
    "office_name": null,
    "office_name_kana": null
  },
  "0956": {
    "postcode": "7520956",
    "prefecture": "山口県",
    "prefecture_kana": "ヤマグチケン",
    "prefecture_code": 35,
    "city": "下関市",
    "city_kana": "シモノセキシ",
    "town": "長府前八幡町",
    "town_kana": "チョウフマエヤハタチョウ",
    "street": null,
    "office_name": null,
    "office_name_kana": null
  },
  "0957": {
    "postcode": "7520957",
    "prefecture": "山口県",
    "prefecture_kana": "ヤマグチケン",
    "prefecture_code": 35,
    "city": "下関市",
    "city_kana": "シモノセキシ",
    "town": "長府印内町",
    "town_kana": "チョウフインナイチョウ",
    "street": null,
    "office_name": null,
    "office_name_kana": null
  },
  "0958": {
    "postcode": "7520958",
    "prefecture": "山口県",
    "prefecture_kana": "ヤマグチケン",
    "prefecture_code": 35,
    "city": "下関市",
    "city_kana": "シモノセキシ",
    "town": "長府金屋浜町",
    "town_kana": "チョウフカナヤハマチョウ",
    "street": null,
    "office_name": null,
    "office_name_kana": null
  },
  "0959": {
    "postcode": "7520959",
    "prefecture": "山口県",
    "prefecture_kana": "ヤマグチケン",
    "prefecture_code": 35,
    "city": "下関市",
    "city_kana": "シモノセキシ",
    "town": "長府金屋町",
    "town_kana": "チョウフカナヤチョウ",
    "street": null,
    "office_name": null,
    "office_name_kana": null
  },
  "0961": {
    "postcode": "7520961",
    "prefecture": "山口県",
    "prefecture_kana": "ヤマグチケン",
    "prefecture_code": 35,
    "city": "下関市",
    "city_kana": "シモノセキシ",
    "town": "長府珠の浦町",
    "town_kana": "チョウフタマノウラチョウ",
    "street": null,
    "office_name": null,
    "office_name_kana": null
  },
  "0962": {
    "postcode": "7520962",
    "prefecture": "山口県",
    "prefecture_kana": "ヤマグチケン",
    "prefecture_code": 35,
    "city": "下関市",
    "city_kana": "シモノセキシ",
    "town": "長府安養寺",
    "town_kana": "チョウフアンヨウジ",
    "street": null,
    "office_name": null,
    "office_name_kana": null
  },
  "0963": {
    "postcode": "7520963",
    "prefecture": "山口県",
    "prefecture_kana": "ヤマグチケン",
    "prefecture_code": 35,
    "city": "下関市",
    "city_kana": "シモノセキシ",
    "town": "長府中土居北町",
    "town_kana": "チョウフナカドイキタマチ",
    "street": null,
    "office_name": null,
    "office_name_kana": null
  },
  "0964": {
    "postcode": "7520964",
    "prefecture": "山口県",
    "prefecture_kana": "ヤマグチケン",
    "prefecture_code": 35,
    "city": "下関市",
    "city_kana": "シモノセキシ",
    "town": "長府中土居本町",
    "town_kana": "チョウフナカドイホンマチ",
    "street": null,
    "office_name": null,
    "office_name_kana": null
  },
  "0965": {
    "postcode": "7520965",
    "prefecture": "山口県",
    "prefecture_kana": "ヤマグチケン",
    "prefecture_code": 35,
    "city": "下関市",
    "city_kana": "シモノセキシ",
    "town": "長府三島町",
    "town_kana": "チョウフミシマチョウ",
    "street": null,
    "office_name": null,
    "office_name_kana": null
  },
  "0966": {
    "postcode": "7520966",
    "prefecture": "山口県",
    "prefecture_kana": "ヤマグチケン",
    "prefecture_code": 35,
    "city": "下関市",
    "city_kana": "シモノセキシ",
    "town": "長府亀の甲",
    "town_kana": "チョウフカメノコウ",
    "street": null,
    "office_name": null,
    "office_name_kana": null
  },
  "0967": {
    "postcode": "7520967",
    "prefecture": "山口県",
    "prefecture_kana": "ヤマグチケン",
    "prefecture_code": 35,
    "city": "下関市",
    "city_kana": "シモノセキシ",
    "town": "長府宮の内町",
    "town_kana": "チョウフミヤノウチチョウ",
    "street": null,
    "office_name": null,
    "office_name_kana": null
  },
  "0968": {
    "postcode": "7520968",
    "prefecture": "山口県",
    "prefecture_kana": "ヤマグチケン",
    "prefecture_code": 35,
    "city": "下関市",
    "city_kana": "シモノセキシ",
    "town": "長府紺屋町",
    "town_kana": "チョウフコンヤチョウ",
    "street": null,
    "office_name": null,
    "office_name_kana": null
  },
  "0970": {
    "postcode": "7520970",
    "prefecture": "山口県",
    "prefecture_kana": "ヤマグチケン",
    "prefecture_code": 35,
    "city": "下関市",
    "city_kana": "シモノセキシ",
    "town": "長府惣社町",
    "town_kana": "チョウフソウシャマチ",
    "street": null,
    "office_name": null,
    "office_name_kana": null
  },
  "0971": {
    "postcode": "7520971",
    "prefecture": "山口県",
    "prefecture_kana": "ヤマグチケン",
    "prefecture_code": 35,
    "city": "下関市",
    "city_kana": "シモノセキシ",
    "town": "長府逢坂町",
    "town_kana": "チョウフオウサカチョウ",
    "street": null,
    "office_name": null,
    "office_name_kana": null
  },
  "0972": {
    "postcode": "7520972",
    "prefecture": "山口県",
    "prefecture_kana": "ヤマグチケン",
    "prefecture_code": 35,
    "city": "下関市",
    "city_kana": "シモノセキシ",
    "town": "長府古江小路町",
    "town_kana": "チョウフフルエショウジチョウ",
    "street": null,
    "office_name": null,
    "office_name_kana": null
  },
  "0973": {
    "postcode": "7520973",
    "prefecture": "山口県",
    "prefecture_kana": "ヤマグチケン",
    "prefecture_code": 35,
    "city": "下関市",
    "city_kana": "シモノセキシ",
    "town": "長府中之町",
    "town_kana": "チョウフナカノチョウ",
    "street": null,
    "office_name": null,
    "office_name_kana": null
  },
  "0974": {
    "postcode": "7520974",
    "prefecture": "山口県",
    "prefecture_kana": "ヤマグチケン",
    "prefecture_code": 35,
    "city": "下関市",
    "city_kana": "シモノセキシ",
    "town": "長府土居の内町",
    "town_kana": "チョウフドイノウチチョウ",
    "street": null,
    "office_name": null,
    "office_name_kana": null
  },
  "0975": {
    "postcode": "7520975",
    "prefecture": "山口県",
    "prefecture_kana": "ヤマグチケン",
    "prefecture_code": 35,
    "city": "下関市",
    "city_kana": "シモノセキシ",
    "town": "長府中浜町",
    "town_kana": "チョウフナカハマチョウ",
    "street": null,
    "office_name": null,
    "office_name_kana": null
  },
  "0976": {
    "postcode": "7520976",
    "prefecture": "山口県",
    "prefecture_kana": "ヤマグチケン",
    "prefecture_code": 35,
    "city": "下関市",
    "city_kana": "シモノセキシ",
    "town": "長府南之町",
    "town_kana": "チョウフミナミノチョウ",
    "street": null,
    "office_name": null,
    "office_name_kana": null
  },
  "0977": {
    "postcode": "7520977",
    "prefecture": "山口県",
    "prefecture_kana": "ヤマグチケン",
    "prefecture_code": 35,
    "city": "下関市",
    "city_kana": "シモノセキシ",
    "town": "長府東侍町",
    "town_kana": "チョウフヒガシサムライマチ",
    "street": null,
    "office_name": null,
    "office_name_kana": null
  },
  "0978": {
    "postcode": "7520978",
    "prefecture": "山口県",
    "prefecture_kana": "ヤマグチケン",
    "prefecture_code": 35,
    "city": "下関市",
    "city_kana": "シモノセキシ",
    "town": "長府侍町",
    "town_kana": "チョウフサムライマチ",
    "street": null,
    "office_name": null,
    "office_name_kana": null
  },
  "0979": {
    "postcode": "7520979",
    "prefecture": "山口県",
    "prefecture_kana": "ヤマグチケン",
    "prefecture_code": 35,
    "city": "下関市",
    "city_kana": "シモノセキシ",
    "town": "長府川端",
    "town_kana": "チョウフカワバタ",
    "street": null,
    "office_name": null,
    "office_name_kana": null
  },
  "0980": {
    "postcode": "7520980",
    "prefecture": "山口県",
    "prefecture_kana": "ヤマグチケン",
    "prefecture_code": 35,
    "city": "下関市",
    "city_kana": "シモノセキシ",
    "town": "長府黒門町",
    "town_kana": "チョウフクロモンチョウ",
    "street": null,
    "office_name": null,
    "office_name_kana": null
  },
  "0981": {
    "postcode": "7520981",
    "prefecture": "山口県",
    "prefecture_kana": "ヤマグチケン",
    "prefecture_code": 35,
    "city": "下関市",
    "city_kana": "シモノセキシ",
    "town": "豊浦村",
    "town_kana": "トヨウラムラ",
    "street": null,
    "office_name": null,
    "office_name_kana": null
  },
  "0982": {
    "postcode": "7520982",
    "prefecture": "山口県",
    "prefecture_kana": "ヤマグチケン",
    "prefecture_code": 35,
    "city": "下関市",
    "city_kana": "シモノセキシ",
    "town": "長府新松原町",
    "town_kana": "チョウフシンマツバラチョウ",
    "street": null,
    "office_name": null,
    "office_name_kana": null
  },
  "0983": {
    "postcode": "7520983",
    "prefecture": "山口県",
    "prefecture_kana": "ヤマグチケン",
    "prefecture_code": 35,
    "city": "下関市",
    "city_kana": "シモノセキシ",
    "town": "長府松原町",
    "town_kana": "チョウフマツバラチョウ",
    "street": null,
    "office_name": null,
    "office_name_kana": null
  },
  "0984": {
    "postcode": "7520984",
    "prefecture": "山口県",
    "prefecture_kana": "ヤマグチケン",
    "prefecture_code": 35,
    "city": "下関市",
    "city_kana": "シモノセキシ",
    "town": "長府宮崎町",
    "town_kana": "チョウフミヤザキチョウ",
    "street": null,
    "office_name": null,
    "office_name_kana": null
  },
  "0985": {
    "postcode": "7520985",
    "prefecture": "山口県",
    "prefecture_kana": "ヤマグチケン",
    "prefecture_code": 35,
    "city": "下関市",
    "city_kana": "シモノセキシ",
    "town": "長府外浦町",
    "town_kana": "チョウフソトウラチョウ",
    "street": null,
    "office_name": null,
    "office_name_kana": null
  },
  "0986": {
    "postcode": "7520986",
    "prefecture": "山口県",
    "prefecture_kana": "ヤマグチケン",
    "prefecture_code": 35,
    "city": "下関市",
    "city_kana": "シモノセキシ",
    "town": "長府黒門東町",
    "town_kana": "チョウフクロモンヒガシマチ",
    "street": null,
    "office_name": null,
    "office_name_kana": null
  },
  "0987": {
    "postcode": "7520987",
    "prefecture": "山口県",
    "prefecture_kana": "ヤマグチケン",
    "prefecture_code": 35,
    "city": "下関市",
    "city_kana": "シモノセキシ",
    "town": "長府羽衣町",
    "town_kana": "チョウフハゴロモチョウ",
    "street": null,
    "office_name": null,
    "office_name_kana": null
  },
  "0988": {
    "postcode": "7520988",
    "prefecture": "山口県",
    "prefecture_kana": "ヤマグチケン",
    "prefecture_code": 35,
    "city": "下関市",
    "city_kana": "シモノセキシ",
    "town": "長府羽衣南町",
    "town_kana": "チョウフハゴロモミナミマチ",
    "street": null,
    "office_name": null,
    "office_name_kana": null
  },
  "0989": {
    "postcode": "7520989",
    "prefecture": "山口県",
    "prefecture_kana": "ヤマグチケン",
    "prefecture_code": 35,
    "city": "下関市",
    "city_kana": "シモノセキシ",
    "town": "長府黒門南町",
    "town_kana": "チョウフクロモンミナミマチ",
    "street": null,
    "office_name": null,
    "office_name_kana": null
  },
  "0991": {
    "postcode": "7520991",
    "prefecture": "山口県",
    "prefecture_kana": "ヤマグチケン",
    "prefecture_code": 35,
    "city": "下関市",
    "city_kana": "シモノセキシ",
    "town": "高畑",
    "town_kana": "タカハタ",
    "street": null,
    "office_name": null,
    "office_name_kana": null
  },
  "0992": {
    "postcode": "7520992",
    "prefecture": "山口県",
    "prefecture_kana": "ヤマグチケン",
    "prefecture_code": 35,
    "city": "下関市",
    "city_kana": "シモノセキシ",
    "town": "長府野久留米町",
    "town_kana": "チョウフノグルメチョウ",
    "street": null,
    "office_name": null,
    "office_name_kana": null
  },
  "0993": {
    "postcode": "7520993",
    "prefecture": "山口県",
    "prefecture_kana": "ヤマグチケン",
    "prefecture_code": 35,
    "city": "下関市",
    "city_kana": "シモノセキシ",
    "town": "長府浜浦町",
    "town_kana": "チョウフハマウラチョウ",
    "street": null,
    "office_name": null,
    "office_name_kana": null
  },
  "0994": {
    "postcode": "7520994",
    "prefecture": "山口県",
    "prefecture_kana": "ヤマグチケン",
    "prefecture_code": 35,
    "city": "下関市",
    "city_kana": "シモノセキシ",
    "town": "長府高場町",
    "town_kana": "チョウフタカバチョウ",
    "street": null,
    "office_name": null,
    "office_name_kana": null
  },
  "0995": {
    "postcode": "7520995",
    "prefecture": "山口県",
    "prefecture_kana": "ヤマグチケン",
    "prefecture_code": 35,
    "city": "下関市",
    "city_kana": "シモノセキシ",
    "town": "長府浜浦南町",
    "town_kana": "チョウフハマウラミナミマチ",
    "street": null,
    "office_name": null,
    "office_name_kana": null
  },
  "0996": {
    "postcode": "7520996",
    "prefecture": "山口県",
    "prefecture_kana": "ヤマグチケン",
    "prefecture_code": 35,
    "city": "下関市",
    "city_kana": "シモノセキシ",
    "town": "長府向田町",
    "town_kana": "チョウフムカイダチョウ",
    "street": null,
    "office_name": null,
    "office_name_kana": null
  },
  "0997": {
    "postcode": "7520997",
    "prefecture": "山口県",
    "prefecture_kana": "ヤマグチケン",
    "prefecture_code": 35,
    "city": "下関市",
    "city_kana": "シモノセキシ",
    "town": "前田",
    "town_kana": "マエダ",
    "street": null,
    "office_name": null,
    "office_name_kana": null
  },
  "0998": {
    "postcode": "7520998",
    "prefecture": "山口県",
    "prefecture_kana": "ヤマグチケン",
    "prefecture_code": 35,
    "city": "下関市",
    "city_kana": "シモノセキシ",
    "town": "長府浜浦西町",
    "town_kana": "チョウフハマウラニシマチ",
    "street": null,
    "office_name": null,
    "office_name_kana": null
  },
  "8501": {
    "postcode": "7528501",
    "prefecture": "山口県",
    "prefecture_kana": "ヤマグチケン",
    "prefecture_code": 35,
    "city": "下関市",
    "city_kana": "シモノセキシ",
    "town": "長府港町",
    "town_kana": "チョウフミナトマチ",
    "street": "１０−４４",
    "office_name": "コタベ　株式会社",
    "office_name_kana": "コタベ カブシキガイシヤ"
  },
  "8510": {
    "postcode": "7528510",
    "prefecture": "山口県",
    "prefecture_kana": "ヤマグチケン",
    "prefecture_code": 35,
    "city": "下関市",
    "city_kana": "シモノセキシ",
    "town": "長府外浦町",
    "town_kana": "チョウフソトウラチョウ",
    "street": "１番１号",
    "office_name": "独立行政法人　国立病院機構　関門医療センター",
    "office_name_kana": "ドクリツギヨウセイホウジン コクリツビヨウインキコウ カンモンイリヨウセンタ-"
  },
  "8511": {
    "postcode": "7528511",
    "prefecture": "山口県",
    "prefecture_kana": "ヤマグチケン",
    "prefecture_code": 35,
    "city": "下関市",
    "city_kana": "シモノセキシ",
    "town": "長府松小田東町",
    "town_kana": "チョウフマツオダヒガシマチ",
    "street": "１−１",
    "office_name": "下関競艇場",
    "office_name_kana": "シモノセキキヨウテイジヨウ"
  },
  "8555": {
    "postcode": "7528555",
    "prefecture": "山口県",
    "prefecture_kana": "ヤマグチケン",
    "prefecture_code": 35,
    "city": "下関市",
    "city_kana": "シモノセキシ",
    "town": "長府扇町",
    "town_kana": "チョウフオオギマチ",
    "street": "２−１",
    "office_name": "株式会社　長府製作所",
    "office_name_kana": "カブシキガイシヤ チヨウフセイサクシヨ"
  },
  "8558": {
    "postcode": "7528558",
    "prefecture": "山口県",
    "prefecture_kana": "ヤマグチケン",
    "prefecture_code": 35,
    "city": "下関市",
    "city_kana": "シモノセキシ",
    "town": "長府扇町",
    "town_kana": "チョウフオオギマチ",
    "street": "９−２３",
    "office_name": "株式会社　小澤",
    "office_name_kana": "カブシキガイシヤ オザワ"
  },
  "8585": {
    "postcode": "7528585",
    "prefecture": "山口県",
    "prefecture_kana": "ヤマグチケン",
    "prefecture_code": 35,
    "city": "下関市",
    "city_kana": "シモノセキシ",
    "town": "長府扇町",
    "town_kana": "チョウフオオギマチ",
    "street": "６−３０",
    "office_name": "株式会社　和田又",
    "office_name_kana": "カブシキガイシヤ ワダマタ"
  },
  "8601": {
    "postcode": "7528601",
    "prefecture": "山口県",
    "prefecture_kana": "ヤマグチケン",
    "prefecture_code": 35,
    "city": "下関市",
    "city_kana": "シモノセキシ",
    "town": "長府印内町",
    "town_kana": "チョウフインナイチョウ",
    "street": "１０−３（長府郵便局私書箱第７号）",
    "office_name": "山口銀行　事務センター",
    "office_name_kana": "ヤマグチギンコウ ジムセンタ-"
  },
  "8609": {
    "postcode": "7528609",
    "prefecture": "山口県",
    "prefecture_kana": "ヤマグチケン",
    "prefecture_code": 35,
    "city": "下関市",
    "city_kana": "シモノセキシ",
    "town": "長府安養寺",
    "town_kana": "チョウフアンヨウジ",
    "street": "１丁目１５−１３（長府郵便局私書箱第９号）",
    "office_name": "株式会社　コプロス",
    "office_name_kana": "カブシキガイシヤ コプロス"
  }
}