{
  "0000": {
    "postcode": "7550000",
    "prefecture": "山口県",
    "prefecture_kana": "ヤマグチケン",
    "prefecture_code": 35,
    "city": "宇部市",
    "city_kana": "ウベシ",
    "town": "",
    "town_kana": "",
    "street": null,
    "office_name": null,
    "office_name_kana": null
  },
  "0001": {
    "postcode": "7550001",
    "prefecture": "山口県",
    "prefecture_kana": "ヤマグチケン",
    "prefecture_code": 35,
    "city": "宇部市",
    "city_kana": "ウベシ",
    "town": "沖宇部",
    "town_kana": "オキウベ",
    "street": null,
    "office_name": null,
    "office_name_kana": null
  },
  "0002": {
    "postcode": "7550002",
    "prefecture": "山口県",
    "prefecture_kana": "ヤマグチケン",
    "prefecture_code": 35,
    "city": "宇部市",
    "city_kana": "ウベシ",
    "town": "亀浦",
    "town_kana": "カメウラ",
    "street": null,
    "office_name": null,
    "office_name_kana": null
  },
  "0003": {
    "postcode": "7550003",
    "prefecture": "山口県",
    "prefecture_kana": "ヤマグチケン",
    "prefecture_code": 35,
    "city": "宇部市",
    "city_kana": "ウベシ",
    "town": "則貞",
    "town_kana": "ノリサダ",
    "street": null,
    "office_name": null,
    "office_name_kana": null
  },
  "0004": {
    "postcode": "7550004",
    "prefecture": "山口県",
    "prefecture_kana": "ヤマグチケン",
    "prefecture_code": 35,
    "city": "宇部市",
    "city_kana": "ウベシ",
    "town": "草江",
    "town_kana": "クサエ",
    "street": null,
    "office_name": null,
    "office_name_kana": null
  },
  "0005": {
    "postcode": "7550005",
    "prefecture": "山口県",
    "prefecture_kana": "ヤマグチケン",
    "prefecture_code": 35,
    "city": "宇部市",
    "city_kana": "ウベシ",
    "town": "五十目山町",
    "town_kana": "ゴジュウメヤマチョウ",
    "street": null,
    "office_name": null,
    "office_name_kana": null
  },
  "0006": {
    "postcode": "7550006",
    "prefecture": "山口県",
    "prefecture_kana": "ヤマグチケン",
    "prefecture_code": 35,
    "city": "宇部市",
    "city_kana": "ウベシ",
    "town": "岬町",
    "town_kana": "ミサキチョウ",
    "street": null,
    "office_name": null,
    "office_name_kana": null
  },
  "0007": {
    "postcode": "7550007",
    "prefecture": "山口県",
    "prefecture_kana": "ヤマグチケン",
    "prefecture_code": 35,
    "city": "宇部市",
    "city_kana": "ウベシ",
    "town": "八王子町",
    "town_kana": "ハチオウジチョウ",
    "street": null,
    "office_name": null,
    "office_name_kana": null
  },
  "0008": {
    "postcode": "7550008",
    "prefecture": "山口県",
    "prefecture_kana": "ヤマグチケン",
    "prefecture_code": 35,
    "city": "宇部市",
    "city_kana": "ウベシ",
    "town": "明神町",
    "town_kana": "ミョウジンチョウ",
    "street": null,
    "office_name": null,
    "office_name_kana": null
  },
  "0009": {
    "postcode": "7550009",
    "prefecture": "山口県",
    "prefecture_kana": "ヤマグチケン",
    "prefecture_code": 35,
    "city": "宇部市",
    "city_kana": "ウベシ",
    "town": "東見初町",
    "town_kana": "ヒガシミゾメチョウ",
    "street": null,
    "office_name": null,
    "office_name_kana": null
  },
  "0011": {
    "postcode": "7550011",
    "prefecture": "山口県",
    "prefecture_kana": "ヤマグチケン",
    "prefecture_code": 35,
    "city": "宇部市",
    "city_kana": "ウベシ",
    "town": "昭和町",
    "town_kana": "ショウワチョウ",
    "street": null,
    "office_name": null,
    "office_name_kana": null
  },
  "0012": {
    "postcode": "7550012",
    "prefecture": "山口県",
    "prefecture_kana": "ヤマグチケン",
    "prefecture_code": 35,
    "city": "宇部市",
    "city_kana": "ウベシ",
    "town": "幸町",
    "town_kana": "サイワイマチ",
    "street": null,
    "office_name": null,
    "office_name_kana": null
  },
  "0013": {
    "postcode": "7550013",
    "prefecture": "山口県",
    "prefecture_kana": "ヤマグチケン",
    "prefecture_code": 35,
    "city": "宇部市",
    "city_kana": "ウベシ",
    "town": "明治町",
    "town_kana": "メイジマチ",
    "street": null,
    "office_name": null,
    "office_name_kana": null
  },
  "0014": {
    "postcode": "7550014",
    "prefecture": "山口県",
    "prefecture_kana": "ヤマグチケン",
    "prefecture_code": 35,
    "city": "宇部市",
    "city_kana": "ウベシ",
    "town": "末広町",
    "town_kana": "スエヒロチョウ",
    "street": null,
    "office_name": null,
    "office_name_kana": null
  },
  "0015": {
    "postcode": "7550015",
    "prefecture": "山口県",
    "prefecture_kana": "ヤマグチケン",
    "prefecture_code": 35,
    "city": "宇部市",
    "city_kana": "ウベシ",
    "town": "笹山町",
    "town_kana": "ササヤマチョウ",
    "street": null,
    "office_name": null,
    "office_name_kana": null
  },
  "0016": {
    "postcode": "7550016",
    "prefecture": "山口県",
    "prefecture_kana": "ヤマグチケン",
    "prefecture_code": 35,
    "city": "宇部市",
    "city_kana": "ウベシ",
    "town": "東芝中町",
    "town_kana": "ヒガシシバナカチョウ",
    "street": null,
    "office_name": null,
    "office_name_kana": null
  },
  "0017": {
    "postcode": "7550017",
    "prefecture": "山口県",
    "prefecture_kana": "ヤマグチケン",
    "prefecture_code": 35,
    "city": "宇部市",
    "city_kana": "ウベシ",
    "town": "芝中町",
    "town_kana": "シバナカチョウ",
    "street": null,
    "office_name": null,
    "office_name_kana": null
  },
  "0018": {
    "postcode": "7550018",
    "prefecture": "山口県",
    "prefecture_kana": "ヤマグチケン",
    "prefecture_code": 35,
    "city": "宇部市",
    "city_kana": "ウベシ",
    "town": "錦町",
    "town_kana": "ニシキチョウ",
    "street": null,
    "office_name": null,
    "office_name_kana": null
  },
  "0019": {
    "postcode": "7550019",
    "prefecture": "山口県",
    "prefecture_kana": "ヤマグチケン",
    "prefecture_code": 35,
    "city": "宇部市",
    "city_kana": "ウベシ",
    "town": "東新川町",
    "town_kana": "ヒガシシンカワチョウ",
    "street": null,
    "office_name": null,
    "office_name_kana": null
  },
  "0021": {
    "postcode": "7550021",
    "prefecture": "山口県",
    "prefecture_kana": "ヤマグチケン",
    "prefecture_code": 35,
    "city": "宇部市",
    "city_kana": "ウベシ",
    "town": "常藤町",
    "town_kana": "ツネフジチョウ",
    "street": null,
    "office_name": null,
    "office_name_kana": null
  },
  "0022": {
    "postcode": "7550022",
    "prefecture": "山口県",
    "prefecture_kana": "ヤマグチケン",
    "prefecture_code": 35,
    "city": "宇部市",
    "city_kana": "ウベシ",
    "town": "神原町",
    "town_kana": "カミハラチョウ",
    "street": null,
    "office_name": null,
    "office_name_kana": null
  },
  "0023": {
    "postcode": "7550023",
    "prefecture": "山口県",
    "prefecture_kana": "ヤマグチケン",
    "prefecture_code": 35,
    "city": "宇部市",
    "city_kana": "ウベシ",
    "town": "恩田町",
    "town_kana": "オンダチョウ",
    "street": null,
    "office_name": null,
    "office_name_kana": null
  },
  "0024": {
    "postcode": "7550024",
    "prefecture": "山口県",
    "prefecture_kana": "ヤマグチケン",
    "prefecture_code": 35,
    "city": "宇部市",
    "city_kana": "ウベシ",
    "town": "野原",
    "town_kana": "ノバラ",
    "street": null,
    "office_name": null,
    "office_name_kana": null
  },
  "0025": {
    "postcode": "7550025",
    "prefecture": "山口県",
    "prefecture_kana": "ヤマグチケン",
    "prefecture_code": 35,
    "city": "宇部市",
    "city_kana": "ウベシ",
    "town": "野中",
    "town_kana": "ノナカ",
    "street": null,
    "office_name": null,
    "office_name_kana": null
  },
  "0026": {
    "postcode": "7550026",
    "prefecture": "山口県",
    "prefecture_kana": "ヤマグチケン",
    "prefecture_code": 35,
    "city": "宇部市",
    "city_kana": "ウベシ",
    "town": "松山町",
    "town_kana": "マツヤマチョウ",
    "street": null,
    "office_name": null,
    "office_name_kana": null
  },
  "0027": {
    "postcode": "7550027",
    "prefecture": "山口県",
    "prefecture_kana": "ヤマグチケン",
    "prefecture_code": 35,
    "city": "宇部市",
    "city_kana": "ウベシ",
    "town": "港町",
    "town_kana": "ミナトマチ",
    "street": null,
    "office_name": null,
    "office_name_kana": null
  },
  "0028": {
    "postcode": "7550028",
    "prefecture": "山口県",
    "prefecture_kana": "ヤマグチケン",
    "prefecture_code": 35,
    "city": "宇部市",
    "city_kana": "ウベシ",
    "town": "東本町",
    "town_kana": "ヒガシホンマチ",
    "street": null,
    "office_name": null,
    "office_name_kana": null
  },
  "0029": {
    "postcode": "7550029",
    "prefecture": "山口県",
    "prefecture_kana": "ヤマグチケン",
    "prefecture_code": 35,
    "city": "宇部市",
    "city_kana": "ウベシ",
    "town": "新天町",
    "town_kana": "シンテンチョウ",
    "street": null,
    "office_name": null,
    "office_name_kana": null
  },
  "0031": {
    "postcode": "7550031",
    "prefecture": "山口県",
    "prefecture_kana": "ヤマグチケン",
    "prefecture_code": 35,
    "city": "宇部市",
    "city_kana": "ウベシ",
    "town": "常盤町",
    "town_kana": "トキワチョウ",
    "street": null,
    "office_name": null,
    "office_name_kana": null
  },
  "0032": {
    "postcode": "7550032",
    "prefecture": "山口県",
    "prefecture_kana": "ヤマグチケン",
    "prefecture_code": 35,
    "city": "宇部市",
    "city_kana": "ウベシ",
    "town": "寿町",
    "town_kana": "コトブキチョウ",
    "street": null,
    "office_name": null,
    "office_name_kana": null
  },
  "0033": {
    "postcode": "7550033",
    "prefecture": "山口県",
    "prefecture_kana": "ヤマグチケン",
    "prefecture_code": 35,
    "city": "宇部市",
    "city_kana": "ウベシ",
    "town": "琴芝町",
    "town_kana": "コトシバチョウ",
    "street": null,
    "office_name": null,
    "office_name_kana": null
  },
  "0034": {
    "postcode": "7550034",
    "prefecture": "山口県",
    "prefecture_kana": "ヤマグチケン",
    "prefecture_code": 35,
    "city": "宇部市",
    "city_kana": "ウベシ",
    "town": "東琴芝",
    "town_kana": "ヒガシコトシバ",
    "street": null,
    "office_name": null,
    "office_name_kana": null
  },
  "0035": {
    "postcode": "7550035",
    "prefecture": "山口県",
    "prefecture_kana": "ヤマグチケン",
    "prefecture_code": 35,
    "city": "宇部市",
    "city_kana": "ウベシ",
    "town": "西琴芝",
    "town_kana": "ニシコトシバ",
    "street": null,
    "office_name": null,
    "office_name_kana": null
  },
  "0036": {
    "postcode": "7550036",
    "prefecture": "山口県",
    "prefecture_kana": "ヤマグチケン",
    "prefecture_code": 35,
    "city": "宇部市",
    "city_kana": "ウベシ",
    "town": "北琴芝",
    "town_kana": "キタコトシバ",
    "street": null,
    "office_name": null,
    "office_name_kana": null
  },
  "0037": {
    "postcode": "7550037",
    "prefecture": "山口県",
    "prefecture_kana": "ヤマグチケン",
    "prefecture_code": 35,
    "city": "宇部市",
    "city_kana": "ウベシ",
    "town": "西梶返",
    "town_kana": "ニシカジガエシ",
    "street": null,
    "office_name": null,
    "office_name_kana": null
  },
  "0038": {
    "postcode": "7550038",
    "prefecture": "山口県",
    "prefecture_kana": "ヤマグチケン",
    "prefecture_code": 35,
    "city": "宇部市",
    "city_kana": "ウベシ",
    "town": "海南町",
    "town_kana": "カイナンチョウ",
    "street": null,
    "office_name": null,
    "office_name_kana": null
  },
  "0039": {
    "postcode": "7550039",
    "prefecture": "山口県",
    "prefecture_kana": "ヤマグチケン",
    "prefecture_code": 35,
    "city": "宇部市",
    "city_kana": "ウベシ",
    "town": "東梶返",
    "town_kana": "ヒガシカジガエシ",
    "street": null,
    "office_name": null,
    "office_name_kana": null
  },
  "0041": {
    "postcode": "7550041",
    "prefecture": "山口県",
    "prefecture_kana": "ヤマグチケン",
    "prefecture_code": 35,
    "city": "宇部市",
    "city_kana": "ウベシ",
    "town": "朝日町",
    "town_kana": "アサヒマチ",
    "street": null,
    "office_name": null,
    "office_name_kana": null
  },
  "0042": {
    "postcode": "7550042",
    "prefecture": "山口県",
    "prefecture_kana": "ヤマグチケン",
    "prefecture_code": 35,
    "city": "宇部市",
    "city_kana": "ウベシ",
    "town": "松島町",
    "town_kana": "マツシマチョウ",
    "street": null,
    "office_name": null,
    "office_name_kana": null
  },
  "0043": {
    "postcode": "7550043",
    "prefecture": "山口県",
    "prefecture_kana": "ヤマグチケン",
    "prefecture_code": 35,
    "city": "宇部市",
    "city_kana": "ウベシ",
    "town": "相生町",
    "town_kana": "アイオイチョウ",
    "street": null,
    "office_name": null,
    "office_name_kana": null
  },
  "0044": {
    "postcode": "7550044",
    "prefecture": "山口県",
    "prefecture_kana": "ヤマグチケン",
    "prefecture_code": 35,
    "city": "宇部市",
    "city_kana": "ウベシ",
    "town": "新町",
    "town_kana": "シンマチ",
    "street": null,
    "office_name": null,
    "office_name_kana": null
  },
  "0045": {
    "postcode": "7550045",
    "prefecture": "山口県",
    "prefecture_kana": "ヤマグチケン",
    "prefecture_code": 35,
    "city": "宇部市",
    "city_kana": "ウベシ",
    "town": "中央町",
    "town_kana": "チュウオウチョウ",
    "street": null,
    "office_name": null,
    "office_name_kana": null
  },
  "0046": {
    "postcode": "7550046",
    "prefecture": "山口県",
    "prefecture_kana": "ヤマグチケン",
    "prefecture_code": 35,
    "city": "宇部市",
    "city_kana": "ウベシ",
    "town": "南小串",
    "town_kana": "ミナミコグシ",
    "street": null,
    "office_name": null,
    "office_name_kana": null
  },
  "0047": {
    "postcode": "7550047",
    "prefecture": "山口県",
    "prefecture_kana": "ヤマグチケン",
    "prefecture_code": 35,
    "city": "宇部市",
    "city_kana": "ウベシ",
    "town": "島",
    "town_kana": "シマ",
    "street": null,
    "office_name": null,
    "office_name_kana": null
  },
  "0048": {
    "postcode": "7550048",
    "prefecture": "山口県",
    "prefecture_kana": "ヤマグチケン",
    "prefecture_code": 35,
    "city": "宇部市",
    "city_kana": "ウベシ",
    "town": "下条",
    "town_kana": "シモジョウ",
    "street": null,
    "office_name": null,
    "office_name_kana": null
  },
  "0049": {
    "postcode": "7550049",
    "prefecture": "山口県",
    "prefecture_kana": "ヤマグチケン",
    "prefecture_code": 35,
    "city": "宇部市",
    "city_kana": "ウベシ",
    "town": "西小串",
    "town_kana": "ニシコグシ",
    "street": null,
    "office_name": null,
    "office_name_kana": null
  },
  "0051": {
    "postcode": "7550051",
    "prefecture": "山口県",
    "prefecture_kana": "ヤマグチケン",
    "prefecture_code": 35,
    "city": "宇部市",
    "city_kana": "ウベシ",
    "town": "上町",
    "town_kana": "ウエマチ",
    "street": null,
    "office_name": null,
    "office_name_kana": null
  },
  "0052": {
    "postcode": "7550052",
    "prefecture": "山口県",
    "prefecture_kana": "ヤマグチケン",
    "prefecture_code": 35,
    "city": "宇部市",
    "city_kana": "ウベシ",
    "town": "西本町",
    "town_kana": "ニシホンマチ",
    "street": null,
    "office_name": null,
    "office_name_kana": null
  },
  "0053": {
    "postcode": "7550053",
    "prefecture": "山口県",
    "prefecture_kana": "ヤマグチケン",
    "prefecture_code": 35,
    "city": "宇部市",
    "city_kana": "ウベシ",
    "town": "西中町",
    "town_kana": "ニシナカチョウ",
    "street": null,
    "office_name": null,
    "office_name_kana": null
  },
  "0054": {
    "postcode": "7550054",
    "prefecture": "山口県",
    "prefecture_kana": "ヤマグチケン",
    "prefecture_code": 35,
    "city": "宇部市",
    "city_kana": "ウベシ",
    "town": "助田町",
    "town_kana": "スケダチョウ",
    "street": null,
    "office_name": null,
    "office_name_kana": null
  },
  "0055": {
    "postcode": "7550055",
    "prefecture": "山口県",
    "prefecture_kana": "ヤマグチケン",
    "prefecture_code": 35,
    "city": "宇部市",
    "city_kana": "ウベシ",
    "town": "居能町",
    "town_kana": "イノウチョウ",
    "street": null,
    "office_name": null,
    "office_name_kana": null
  },
  "0056": {
    "postcode": "7550056",
    "prefecture": "山口県",
    "prefecture_kana": "ヤマグチケン",
    "prefecture_code": 35,
    "city": "宇部市",
    "city_kana": "ウベシ",
    "town": "文京町",
    "town_kana": "ブンキョウチョウ",
    "street": null,
    "office_name": null,
    "office_name_kana": null
  },
  "0057": {
    "postcode": "7550057",
    "prefecture": "山口県",
    "prefecture_kana": "ヤマグチケン",
    "prefecture_code": 35,
    "city": "宇部市",
    "city_kana": "ウベシ",
    "town": "藤曲",
    "town_kana": "フジマガリ",
    "street": null,
    "office_name": null,
    "office_name_kana": null
  },
  "0058": {
    "postcode": "7550058",
    "prefecture": "山口県",
    "prefecture_kana": "ヤマグチケン",
    "prefecture_code": 35,
    "city": "宇部市",
    "city_kana": "ウベシ",
    "town": "中山",
    "town_kana": "ナカヤマ",
    "street": null,
    "office_name": null,
    "office_name_kana": null
  },
  "0061": {
    "postcode": "7550061",
    "prefecture": "山口県",
    "prefecture_kana": "ヤマグチケン",
    "prefecture_code": 35,
    "city": "宇部市",
    "city_kana": "ウベシ",
    "town": "若松町",
    "town_kana": "ワカマツチョウ",
    "street": null,
    "office_name": null,
    "office_name_kana": null
  },
  "0062": {
    "postcode": "7550062",
    "prefecture": "山口県",
    "prefecture_kana": "ヤマグチケン",
    "prefecture_code": 35,
    "city": "宇部市",
    "city_kana": "ウベシ",
    "town": "鵜の島町",
    "town_kana": "ウノシマチョウ",
    "street": null,
    "office_name": null,
    "office_name_kana": null
  },
  "0063": {
    "postcode": "7550063",
    "prefecture": "山口県",
    "prefecture_kana": "ヤマグチケン",
    "prefecture_code": 35,
    "city": "宇部市",
    "city_kana": "ウベシ",
    "town": "南浜町",
    "town_kana": "ミナミハマチョウ",
    "street": null,
    "office_name": null,
    "office_name_kana": null
  },
  "0064": {
    "postcode": "7550064",
    "prefecture": "山口県",
    "prefecture_kana": "ヤマグチケン",
    "prefecture_code": 35,
    "city": "宇部市",
    "city_kana": "ウベシ",
    "town": "鍋倉町",
    "town_kana": "ナベクラチョウ",
    "street": null,
    "office_name": null,
    "office_name_kana": null
  },
  "0065": {
    "postcode": "7550065",
    "prefecture": "山口県",
    "prefecture_kana": "ヤマグチケン",
    "prefecture_code": 35,
    "city": "宇部市",
    "city_kana": "ウベシ",
    "town": "浜町",
    "town_kana": "ハマチョウ",
    "street": null,
    "office_name": null,
    "office_name_kana": null
  },
  "0066": {
    "postcode": "7550066",
    "prefecture": "山口県",
    "prefecture_kana": "ヤマグチケン",
    "prefecture_code": 35,
    "city": "宇部市",
    "city_kana": "ウベシ",
    "town": "小松原町",
    "town_kana": "コマツバラチョウ",
    "street": null,
    "office_name": null,
    "office_name_kana": null
  },
  "0067": {
    "postcode": "7550067",
    "prefecture": "山口県",
    "prefecture_kana": "ヤマグチケン",
    "prefecture_code": 35,
    "city": "宇部市",
    "city_kana": "ウベシ",
    "town": "小串",
    "town_kana": "コグシ",
    "street": null,
    "office_name": null,
    "office_name_kana": null
  },
  "0068": {
    "postcode": "7550068",
    "prefecture": "山口県",
    "prefecture_kana": "ヤマグチケン",
    "prefecture_code": 35,
    "city": "宇部市",
    "city_kana": "ウベシ",
    "town": "東小串",
    "town_kana": "ヒガシコグシ",
    "street": null,
    "office_name": null,
    "office_name_kana": null
  },
  "0069": {
    "postcode": "7550069",
    "prefecture": "山口県",
    "prefecture_kana": "ヤマグチケン",
    "prefecture_code": 35,
    "city": "宇部市",
    "city_kana": "ウベシ",
    "town": "西桃山",
    "town_kana": "ニシモモヤマ",
    "street": null,
    "office_name": null,
    "office_name_kana": null
  },
  "0071": {
    "postcode": "7550071",
    "prefecture": "山口県",
    "prefecture_kana": "ヤマグチケン",
    "prefecture_code": 35,
    "city": "宇部市",
    "city_kana": "ウベシ",
    "town": "宮地町",
    "town_kana": "ミヤジチョウ",
    "street": null,
    "office_name": null,
    "office_name_kana": null
  },
  "0072": {
    "postcode": "7550072",
    "prefecture": "山口県",
    "prefecture_kana": "ヤマグチケン",
    "prefecture_code": 35,
    "city": "宇部市",
    "city_kana": "ウベシ",
    "town": "中村",
    "town_kana": "ナカムラ",
    "street": null,
    "office_name": null,
    "office_name_kana": null
  },
  "0073": {
    "postcode": "7550073",
    "prefecture": "山口県",
    "prefecture_kana": "ヤマグチケン",
    "prefecture_code": 35,
    "city": "宇部市",
    "city_kana": "ウベシ",
    "town": "中尾",
    "town_kana": "ナカオ",
    "street": null,
    "office_name": null,
    "office_name_kana": null
  },
  "0074": {
    "postcode": "7550074",
    "prefecture": "山口県",
    "prefecture_kana": "ヤマグチケン",
    "prefecture_code": 35,
    "city": "宇部市",
    "city_kana": "ウベシ",
    "town": "川添",
    "town_kana": "カワゾエ",
    "street": null,
    "office_name": null,
    "office_name_kana": null
  },
  "0075": {
    "postcode": "7550075",
    "prefecture": "山口県",
    "prefecture_kana": "ヤマグチケン",
    "prefecture_code": 35,
    "city": "宇部市",
    "city_kana": "ウベシ",
    "town": "琴崎町",
    "town_kana": "コトザキチョウ",
    "street": null,
    "office_name": null,
    "office_name_kana": null
  },
  "0076": {
    "postcode": "7550076",
    "prefecture": "山口県",
    "prefecture_kana": "ヤマグチケン",
    "prefecture_code": 35,
    "city": "宇部市",
    "city_kana": "ウベシ",
    "town": "大小路",
    "town_kana": "オオショウジ",
    "street": null,
    "office_name": null,
    "office_name_kana": null
  },
  "0077": {
    "postcode": "7550077",
    "prefecture": "山口県",
    "prefecture_kana": "ヤマグチケン",
    "prefecture_code": 35,
    "city": "宇部市",
    "city_kana": "ウベシ",
    "town": "山門",
    "town_kana": "ヤマカド",
    "street": null,
    "office_name": null,
    "office_name_kana": null
  },
  "0078": {
    "postcode": "7550078",
    "prefecture": "山口県",
    "prefecture_kana": "ヤマグチケン",
    "prefecture_code": 35,
    "city": "宇部市",
    "city_kana": "ウベシ",
    "town": "寺の前町",
    "town_kana": "テラノマエチョウ",
    "street": null,
    "office_name": null,
    "office_name_kana": null
  },
  "0081": {
    "postcode": "7550081",
    "prefecture": "山口県",
    "prefecture_kana": "ヤマグチケン",
    "prefecture_code": 35,
    "city": "宇部市",
    "city_kana": "ウベシ",
    "town": "北小羽山町",
    "town_kana": "キタオバヤマチョウ",
    "street": null,
    "office_name": null,
    "office_name_kana": null
  },
  "0082": {
    "postcode": "7550082",
    "prefecture": "山口県",
    "prefecture_kana": "ヤマグチケン",
    "prefecture_code": 35,
    "city": "宇部市",
    "city_kana": "ウベシ",
    "town": "東小羽山町",
    "town_kana": "ヒガシオバヤマチョウ",
    "street": null,
    "office_name": null,
    "office_name_kana": null
  },
  "0083": {
    "postcode": "7550083",
    "prefecture": "山口県",
    "prefecture_kana": "ヤマグチケン",
    "prefecture_code": 35,
    "city": "宇部市",
    "city_kana": "ウベシ",
    "town": "南小羽山町",
    "town_kana": "ミナミオバヤマチョウ",
    "street": null,
    "office_name": null,
    "office_name_kana": null
  },
  "0084": {
    "postcode": "7550084",
    "prefecture": "山口県",
    "prefecture_kana": "ヤマグチケン",
    "prefecture_code": 35,
    "city": "宇部市",
    "city_kana": "ウベシ",
    "town": "川上",
    "town_kana": "カワカミ",
    "street": null,
    "office_name": null,
    "office_name_kana": null
  },
  "0085": {
    "postcode": "7550085",
    "prefecture": "山口県",
    "prefecture_kana": "ヤマグチケン",
    "prefecture_code": 35,
    "city": "宇部市",
    "city_kana": "ウベシ",
    "town": "沼",
    "town_kana": "ヌマ",
    "street": null,
    "office_name": null,
    "office_name_kana": null
  },
  "0086": {
    "postcode": "7550086",
    "prefecture": "山口県",
    "prefecture_kana": "ヤマグチケン",
    "prefecture_code": 35,
    "city": "宇部市",
    "city_kana": "ウベシ",
    "town": "中宇部",
    "town_kana": "ナカウベ",
    "street": null,
    "office_name": null,
    "office_name_kana": null
  },
  "0091": {
    "postcode": "7550091",
    "prefecture": "山口県",
    "prefecture_kana": "ヤマグチケン",
    "prefecture_code": 35,
    "city": "宇部市",
    "city_kana": "ウベシ",
    "town": "上宇部",
    "town_kana": "カミウベ",
    "street": null,
    "office_name": null,
    "office_name_kana": null
  },
  "0092": {
    "postcode": "7550092",
    "prefecture": "山口県",
    "prefecture_kana": "ヤマグチケン",
    "prefecture_code": 35,
    "city": "宇部市",
    "city_kana": "ウベシ",
    "town": "上野中町",
    "town_kana": "カミノナカチョウ",
    "street": null,
    "office_name": null,
    "office_name_kana": null
  },
  "0093": {
    "postcode": "7550093",
    "prefecture": "山口県",
    "prefecture_kana": "ヤマグチケン",
    "prefecture_code": 35,
    "city": "宇部市",
    "city_kana": "ウベシ",
    "town": "北迫新町",
    "town_kana": "キタサコシンマチ",
    "street": null,
    "office_name": null,
    "office_name_kana": null
  },
  "0094": {
    "postcode": "7550094",
    "prefecture": "山口県",
    "prefecture_kana": "ヤマグチケン",
    "prefecture_code": 35,
    "city": "宇部市",
    "city_kana": "ウベシ",
    "town": "ひらき台",
    "town_kana": "ヒラキダイ",
    "street": null,
    "office_name": null,
    "office_name_kana": null
  },
  "0095": {
    "postcode": "7550095",
    "prefecture": "山口県",
    "prefecture_kana": "ヤマグチケン",
    "prefecture_code": 35,
    "city": "宇部市",
    "city_kana": "ウベシ",
    "town": "風呂ケ迫町",
    "town_kana": "フロガサコチョウ",
    "street": null,
    "office_name": null,
    "office_name_kana": null
  },
  "0096": {
    "postcode": "7550096",
    "prefecture": "山口県",
    "prefecture_kana": "ヤマグチケン",
    "prefecture_code": 35,
    "city": "宇部市",
    "city_kana": "ウベシ",
    "town": "開",
    "town_kana": "ヒラキ",
    "street": null,
    "office_name": null,
    "office_name_kana": null
  },
  "0097": {
    "postcode": "7550097",
    "prefecture": "山口県",
    "prefecture_kana": "ヤマグチケン",
    "prefecture_code": 35,
    "city": "宇部市",
    "city_kana": "ウベシ",
    "town": "常盤台",
    "town_kana": "トキワダイ",
    "street": null,
    "office_name": null,
    "office_name_kana": null
  },
  "0151": {
    "postcode": "7550151",
    "prefecture": "山口県",
    "prefecture_kana": "ヤマグチケン",
    "prefecture_code": 35,
    "city": "宇部市",
    "city_kana": "ウベシ",
    "town": "西岐波",
    "town_kana": "ニシキワ",
    "street": null,
    "office_name": null,
    "office_name_kana": null
  },
  "0152": {
    "postcode": "7550152",
    "prefecture": "山口県",
    "prefecture_kana": "ヤマグチケン",
    "prefecture_code": 35,
    "city": "宇部市",
    "city_kana": "ウベシ",
    "town": "あすとぴあ",
    "town_kana": "アストピア",
    "street": null,
    "office_name": null,
    "office_name_kana": null
  },
  "0153": {
    "postcode": "7550153",
    "prefecture": "山口県",
    "prefecture_kana": "ヤマグチケン",
    "prefecture_code": 35,
    "city": "宇部市",
    "city_kana": "ウベシ",
    "town": "床波",
    "town_kana": "トコナミ",
    "street": null,
    "office_name": null,
    "office_name_kana": null
  },
  "0154": {
    "postcode": "7550154",
    "prefecture": "山口県",
    "prefecture_kana": "ヤマグチケン",
    "prefecture_code": 35,
    "city": "宇部市",
    "city_kana": "ウベシ",
    "town": "今村南",
    "town_kana": "イマムラミナミ",
    "street": null,
    "office_name": null,
    "office_name_kana": null
  },
  "0155": {
    "postcode": "7550155",
    "prefecture": "山口県",
    "prefecture_kana": "ヤマグチケン",
    "prefecture_code": 35,
    "city": "宇部市",
    "city_kana": "ウベシ",
    "town": "今村北",
    "town_kana": "イマムラキタ",
    "street": null,
    "office_name": null,
    "office_name_kana": null
  },
  "0192": {
    "postcode": "7550192",
    "prefecture": "山口県",
    "prefecture_kana": "ヤマグチケン",
    "prefecture_code": 35,
    "city": "宇部市",
    "city_kana": "ウベシ",
    "town": "大字西岐波",
    "town_kana": null,
    "street": "１５９０−１２",
    "office_name": "株式会社　ぎじろくセンター",
    "office_name_kana": "カブシキガイシヤ ギジロクセンタ-"
  },
  "0195": {
    "postcode": "7550195",
    "prefecture": "山口県",
    "prefecture_kana": "ヤマグチケン",
    "prefecture_code": 35,
    "city": "宇部市",
    "city_kana": "ウベシ",
    "town": "あすとぴあ",
    "town_kana": "アストピア",
    "street": "４丁目１−１",
    "office_name": "山口県産業技術センター",
    "office_name_kana": "ヤマグチケンサンギヨウギジユツセンタ-"
  },
  "0241": {
    "postcode": "7550241",
    "prefecture": "山口県",
    "prefecture_kana": "ヤマグチケン",
    "prefecture_code": 35,
    "city": "宇部市",
    "city_kana": "ウベシ",
    "town": "東岐波",
    "town_kana": "ヒガシキワ",
    "street": null,
    "office_name": null,
    "office_name_kana": null
  },
  "0801": {
    "postcode": "7550801",
    "prefecture": "山口県",
    "prefecture_kana": "ヤマグチケン",
    "prefecture_code": 35,
    "city": "宇部市",
    "city_kana": "ウベシ",
    "town": "上条",
    "town_kana": "アゲジョウ",
    "street": null,
    "office_name": null,
    "office_name_kana": null
  },
  "0802": {
    "postcode": "7550802",
    "prefecture": "山口県",
    "prefecture_kana": "ヤマグチケン",
    "prefecture_code": 35,
    "city": "宇部市",
    "city_kana": "ウベシ",
    "town": "北条",
    "town_kana": "キタジョウ",
    "street": null,
    "office_name": null,
    "office_name_kana": null
  },
  "0803": {
    "postcode": "7550803",
    "prefecture": "山口県",
    "prefecture_kana": "ヤマグチケン",
    "prefecture_code": 35,
    "city": "宇部市",
    "city_kana": "ウベシ",
    "town": "東藤曲",
    "town_kana": "ヒガシフジマガリ",
    "street": null,
    "office_name": null,
    "office_name_kana": null
  },
  "0804": {
    "postcode": "7550804",
    "prefecture": "山口県",
    "prefecture_kana": "ヤマグチケン",
    "prefecture_code": 35,
    "city": "宇部市",
    "city_kana": "ウベシ",
    "town": "南中山町",
    "town_kana": "ミナミナカヤマチョウ",
    "street": null,
    "office_name": null,
    "office_name_kana": null
  },
  "0805": {
    "postcode": "7550805",
    "prefecture": "山口県",
    "prefecture_kana": "ヤマグチケン",
    "prefecture_code": 35,
    "city": "宇部市",
    "city_kana": "ウベシ",
    "town": "文京台",
    "town_kana": "ブンキョウダイ",
    "street": null,
    "office_name": null,
    "office_name_kana": null
  },
  "0806": {
    "postcode": "7550806",
    "prefecture": "山口県",
    "prefecture_kana": "ヤマグチケン",
    "prefecture_code": 35,
    "city": "宇部市",
    "city_kana": "ウベシ",
    "town": "浜田",
    "town_kana": "ハマダ",
    "street": null,
    "office_name": null,
    "office_name_kana": null
  },
  "0807": {
    "postcode": "7550807",
    "prefecture": "山口県",
    "prefecture_kana": "ヤマグチケン",
    "prefecture_code": 35,
    "city": "宇部市",
    "city_kana": "ウベシ",
    "town": "東平原",
    "town_kana": "ヒガシヒラバラ",
    "street": null,
    "office_name": null,
    "office_name_kana": null
  },
  "0808": {
    "postcode": "7550808",
    "prefecture": "山口県",
    "prefecture_kana": "ヤマグチケン",
    "prefecture_code": 35,
    "city": "宇部市",
    "city_kana": "ウベシ",
    "town": "西平原",
    "town_kana": "ニシヒラバラ",
    "street": null,
    "office_name": null,
    "office_name_kana": null
  },
  "0809": {
    "postcode": "7550809",
    "prefecture": "山口県",
    "prefecture_kana": "ヤマグチケン",
    "prefecture_code": 35,
    "city": "宇部市",
    "city_kana": "ウベシ",
    "town": "松崎町",
    "town_kana": "マツザキチョウ",
    "street": null,
    "office_name": null,
    "office_name_kana": null
  },
  "0810": {
    "postcode": "7550810",
    "prefecture": "山口県",
    "prefecture_kana": "ヤマグチケン",
    "prefecture_code": 35,
    "city": "宇部市",
    "city_kana": "ウベシ",
    "town": "岩鼻町",
    "town_kana": "イワハナチョウ",
    "street": null,
    "office_name": null,
    "office_name_kana": null
  },
  "8501": {
    "postcode": "7558501",
    "prefecture": "山口県",
    "prefecture_kana": "ヤマグチケン",
    "prefecture_code": 35,
    "city": "宇部市",
    "city_kana": "ウベシ",
    "town": "大字藤曲",
    "town_kana": null,
    "street": "２５４８−２",
    "office_name": "ＥＪホールディングス　株式会社　宇部事業所",
    "office_name_kana": "イ-ジエイホ-ルデイングス カブシキガイシヤ ウベジギヨウシヨ"
  },
  "8502": {
    "postcode": "7558502",
    "prefecture": "山口県",
    "prefecture_kana": "ヤマグチケン",
    "prefecture_code": 35,
    "city": "宇部市",
    "city_kana": "ウベシ",
    "town": "新天町",
    "town_kana": "シンテンチョウ",
    "street": "１丁目１−１（宇部郵便局私書箱第３号）",
    "office_name": "山口銀行　宇部支店",
    "office_name_kana": "ヤマグチギンコウ ウベシテン"
  },
  "8505": {
    "postcode": "7558505",
    "prefecture": "山口県",
    "prefecture_kana": "ヤマグチケン",
    "prefecture_code": 35,
    "city": "宇部市",
    "city_kana": "ウベシ",
    "town": "南小串",
    "town_kana": "ミナミコグシ",
    "street": "１丁目１−１",
    "office_name": "山口大学　医学部",
    "office_name_kana": "ヤマグチダイガク イガクブ"
  },
  "8510": {
    "postcode": "7558510",
    "prefecture": "山口県",
    "prefecture_kana": "ヤマグチケン",
    "prefecture_code": 35,
    "city": "宇部市",
    "city_kana": "ウベシ",
    "town": "大字小串",
    "town_kana": null,
    "street": "１９８５",
    "office_name": "宇部マテリアルズ　株式会社",
    "office_name_kana": "ウベマテリアルズ カブシキガイシヤ"
  },
  "8511": {
    "postcode": "7558511",
    "prefecture": "山口県",
    "prefecture_kana": "ヤマグチケン",
    "prefecture_code": 35,
    "city": "宇部市",
    "city_kana": "ウベシ",
    "town": "東藤曲",
    "town_kana": "ヒガシフジマガリ",
    "street": "２丁目５−３０",
    "office_name": "太陽家具百貨店　株式会社",
    "office_name_kana": "タイヨウカグヒヤツカテン カブシキガイシヤ"
  },
  "8522": {
    "postcode": "7558522",
    "prefecture": "山口県",
    "prefecture_kana": "ヤマグチケン",
    "prefecture_code": 35,
    "city": "宇部市",
    "city_kana": "ウベシ",
    "town": "大字上宇部",
    "town_kana": null,
    "street": "開黒岩７５",
    "office_name": "ウェルサンピア",
    "office_name_kana": "ウエルサンピア"
  },
  "8543": {
    "postcode": "7558543",
    "prefecture": "山口県",
    "prefecture_kana": "ヤマグチケン",
    "prefecture_code": 35,
    "city": "宇部市",
    "city_kana": "ウベシ",
    "town": "寿町",
    "town_kana": "コトブキチョウ",
    "street": "２丁目３−１７",
    "office_name": "宇部日報",
    "office_name_kana": "ウベニツポウ"
  },
  "8550": {
    "postcode": "7558550",
    "prefecture": "山口県",
    "prefecture_kana": "ヤマグチケン",
    "prefecture_code": 35,
    "city": "宇部市",
    "city_kana": "ウベシ",
    "town": "文京町",
    "town_kana": "ブンキョウチョウ",
    "street": "４−２３",
    "office_name": "宇部フロンティア大学　（短期大学部）",
    "office_name_kana": "ウベフロンテイアダイガク (タンキダイガクブ)"
  },
  "8554": {
    "postcode": "7558554",
    "prefecture": "山口県",
    "prefecture_kana": "ヤマグチケン",
    "prefecture_code": 35,
    "city": "宇部市",
    "city_kana": "ウベシ",
    "town": "南小串",
    "town_kana": "ミナミコグシ",
    "street": "１丁目１−１",
    "office_name": "山口大学　医学部附属病院",
    "office_name_kana": "ヤマグチダイガク イガクブフゾクビヨウイン"
  },
  "8555": {
    "postcode": "7558555",
    "prefecture": "山口県",
    "prefecture_kana": "ヤマグチケン",
    "prefecture_code": 35,
    "city": "宇部市",
    "city_kana": "ウベシ",
    "town": "",
    "town_kana": "",
    "street": "常盤台２４７７−３",
    "office_name": "宇部工業高等専門学校",
    "office_name_kana": "ウベコウギヨウコウトウセンモンガツコウ"
  },
  "8557": {
    "postcode": "7558557",
    "prefecture": "山口県",
    "prefecture_kana": "ヤマグチケン",
    "prefecture_code": 35,
    "city": "宇部市",
    "city_kana": "ウベシ",
    "town": "寿町",
    "town_kana": "コトブキチョウ",
    "street": "３丁目６−１",
    "office_name": "宇部日報報道センター",
    "office_name_kana": "ウベニツポウホウドウセンタ-"
  },
  "8560": {
    "postcode": "7558560",
    "prefecture": "山口県",
    "prefecture_kana": "ヤマグチケン",
    "prefecture_code": 35,
    "city": "宇部市",
    "city_kana": "ウベシ",
    "town": "文京町",
    "town_kana": "ブンキョウチョウ",
    "street": "１−２５",
    "office_name": "宇部フロンティア大学　（付属中学校・香川高等学校）",
    "office_name_kana": "ウベフロンテイアダイガク (フゾクチユウガツコウ・カガワコウトウガツコウ)"
  },
  "8566": {
    "postcode": "7558566",
    "prefecture": "山口県",
    "prefecture_kana": "ヤマグチケン",
    "prefecture_code": 35,
    "city": "宇部市",
    "city_kana": "ウベシ",
    "town": "南小串",
    "town_kana": "ミナミコグシ",
    "street": "２丁目３−１",
    "office_name": "株式会社　井上書店",
    "office_name_kana": "カブシキガイシヤ イノウエシヨテン"
  },
  "8567": {
    "postcode": "7558567",
    "prefecture": "山口県",
    "prefecture_kana": "ヤマグチケン",
    "prefecture_code": 35,
    "city": "宇部市",
    "city_kana": "ウベシ",
    "town": "大字小串",
    "town_kana": null,
    "street": "１９７８−２５",
    "office_name": "チタン工業　株式会社　宇部工場",
    "office_name_kana": "チタンコウギヨウ カブシキガイシヤ ウベコウジヨウ"
  },
  "8580": {
    "postcode": "7558580",
    "prefecture": "山口県",
    "prefecture_kana": "ヤマグチケン",
    "prefecture_code": 35,
    "city": "宇部市",
    "city_kana": "ウベシ",
    "town": "大字沖宇部",
    "town_kana": null,
    "street": "５２５−１４",
    "office_name": "テクノＵＭＧ　株式会社",
    "office_name_kana": "テクノユ-エムジ- カブシキガイシヤ"
  },
  "8585": {
    "postcode": "7558585",
    "prefecture": "山口県",
    "prefecture_kana": "ヤマグチケン",
    "prefecture_code": 35,
    "city": "宇部市",
    "city_kana": "ウベシ",
    "town": "寿町",
    "town_kana": "コトブキチョウ",
    "street": "３丁目４−２１",
    "office_name": "山口県　信用保証協会　宇部支所",
    "office_name_kana": "ヤマグチケン シンヨウホシヨウキヨウカイ ウベシシヨ"
  },
  "8588": {
    "postcode": "7558588",
    "prefecture": "山口県",
    "prefecture_kana": "ヤマグチケン",
    "prefecture_code": 35,
    "city": "宇部市",
    "city_kana": "ウベシ",
    "town": "相生町",
    "town_kana": "アイオイチョウ",
    "street": "８番１号",
    "office_name": "株式会社　ユービーイーホテルズ",
    "office_name_kana": "カブシキガイシヤ ユ-ビ-イ-ホテルズ"
  },
  "8601": {
    "postcode": "7558601",
    "prefecture": "山口県",
    "prefecture_kana": "ヤマグチケン",
    "prefecture_code": 35,
    "city": "宇部市",
    "city_kana": "ウベシ",
    "town": "常盤町",
    "town_kana": "トキワチョウ",
    "street": "１丁目７−１",
    "office_name": "宇部市役所",
    "office_name_kana": "ウベシヤクシヨ"
  },
  "8609": {
    "postcode": "7558609",
    "prefecture": "山口県",
    "prefecture_kana": "ヤマグチケン",
    "prefecture_code": 35,
    "city": "宇部市",
    "city_kana": "ウベシ",
    "town": "北琴芝",
    "town_kana": "キタコトシバ",
    "street": "２丁目４−３０",
    "office_name": "ハローワーク",
    "office_name_kana": "ハロ-ワ-ク"
  },
  "8610": {
    "postcode": "7558610",
    "prefecture": "山口県",
    "prefecture_kana": "ヤマグチケン",
    "prefecture_code": 35,
    "city": "宇部市",
    "city_kana": "ウベシ",
    "town": "恩田町",
    "town_kana": "オンダチョウ",
    "street": "５丁目１０−７１",
    "office_name": "ＵＢＥ　株式会社　恩田長沢寮",
    "office_name_kana": "ユ-ビ-イ- カブシキガイシヤ オンダナガサワリヨウ"
  },
  "8611": {
    "postcode": "7558611",
    "prefecture": "山口県",
    "prefecture_kana": "ヤマグチケン",
    "prefecture_code": 35,
    "city": "宇部市",
    "city_kana": "ウベシ",
    "town": "常盤台",
    "town_kana": "トキワダイ",
    "street": "２丁目１６−１",
    "office_name": "山口大学　工学部",
    "office_name_kana": "ヤマグチダイガク コウガクブ"
  },
  "8622": {
    "postcode": "7558622",
    "prefecture": "山口県",
    "prefecture_kana": "ヤマグチケン",
    "prefecture_code": 35,
    "city": "宇部市",
    "city_kana": "ウベシ",
    "town": "相生町",
    "town_kana": "アイオイチョウ",
    "street": "８−１−１４Ｆ",
    "office_name": "（株）　宇部情報システム",
    "office_name_kana": "(カブ) ウベジヨウホウシステム"
  },
  "8625": {
    "postcode": "7558625",
    "prefecture": "山口県",
    "prefecture_kana": "ヤマグチケン",
    "prefecture_code": 35,
    "city": "宇部市",
    "city_kana": "ウベシ",
    "town": "常盤町",
    "town_kana": "トキワチョウ",
    "street": "一丁目７番１号宇部市役所庁舎２階",
    "office_name": "宇部税務署",
    "office_name_kana": "ウベゼイムシヨ"
  },
  "8633": {
    "postcode": "7558633",
    "prefecture": "山口県",
    "prefecture_kana": "ヤマグチケン",
    "prefecture_code": 35,
    "city": "宇部市",
    "city_kana": "ウベシ",
    "town": "大字小串",
    "town_kana": null,
    "street": "１９７８番地の９６",
    "office_name": "ＵＢＥ　株式会社",
    "office_name_kana": "ユ-ビ-イ- カブシキガイシヤ"
  },
  "8642": {
    "postcode": "7558642",
    "prefecture": "山口県",
    "prefecture_kana": "ヤマグチケン",
    "prefecture_code": 35,
    "city": "宇部市",
    "city_kana": "ウベシ",
    "town": "上町",
    "town_kana": "ウエマチ",
    "street": "１丁目３−１０",
    "office_name": "山口情報ビジネス専門学校",
    "office_name_kana": "ヤマグチジヨウホウビジネスセンモンガツコウ"
  }
}