{
  "0000": {
    "postcode": "7560000",
    "prefecture": "山口県",
    "prefecture_kana": "ヤマグチケン",
    "prefecture_code": 35,
    "city": "山陽小野田市",
    "city_kana": "サンヨウオノダシ",
    "town": "",
    "town_kana": "",
    "street": null,
    "office_name": null,
    "office_name_kana": null
  },
  "0001": {
    "postcode": "7560001",
    "prefecture": "山口県",
    "prefecture_kana": "ヤマグチケン",
    "prefecture_code": 35,
    "city": "山陽小野田市",
    "city_kana": "サンヨウオノダシ",
    "town": "大休",
    "town_kana": "タイキュウ",
    "street": null,
    "office_name": null,
    "office_name_kana": null
  },
  "0003": {
    "postcode": "7560003",
    "prefecture": "山口県",
    "prefecture_kana": "ヤマグチケン",
    "prefecture_code": 35,
    "city": "山陽小野田市",
    "city_kana": "サンヨウオノダシ",
    "town": "有帆新町",
    "town_kana": "アリホシンマチ",
    "street": null,
    "office_name": null,
    "office_name_kana": null
  },
  "0004": {
    "postcode": "7560004",
    "prefecture": "山口県",
    "prefecture_kana": "ヤマグチケン",
    "prefecture_code": 35,
    "city": "山陽小野田市",
    "city_kana": "サンヨウオノダシ",
    "town": "中里",
    "town_kana": "ナカザト",
    "street": null,
    "office_name": null,
    "office_name_kana": null
  },
  "0005": {
    "postcode": "7560005",
    "prefecture": "山口県",
    "prefecture_kana": "ヤマグチケン",
    "prefecture_code": 35,
    "city": "山陽小野田市",
    "city_kana": "サンヨウオノダシ",
    "town": "中村",
    "town_kana": "ナカムラ",
    "street": null,
    "office_name": null,
    "office_name_kana": null
  },
  "0007": {
    "postcode": "7560007",
    "prefecture": "山口県",
    "prefecture_kana": "ヤマグチケン",
    "prefecture_code": 35,
    "city": "山陽小野田市",
    "city_kana": "サンヨウオノダシ",
    "town": "北真土郷",
    "town_kana": "キタマツチゴウ",
    "street": null,
    "office_name": null,
    "office_name_kana": null
  },
  "0008": {
    "postcode": "7560008",
    "prefecture": "山口県",
    "prefecture_kana": "ヤマグチケン",
    "prefecture_code": 35,
    "city": "山陽小野田市",
    "city_kana": "サンヨウオノダシ",
    "town": "大休団地",
    "town_kana": "タイキュウダンチ",
    "street": null,
    "office_name": null,
    "office_name_kana": null
  },
  "0009": {
    "postcode": "7560009",
    "prefecture": "山口県",
    "prefecture_kana": "ヤマグチケン",
    "prefecture_code": 35,
    "city": "山陽小野田市",
    "city_kana": "サンヨウオノダシ",
    "town": "有帆上町",
    "town_kana": "アリホウエマチ",
    "street": null,
    "office_name": null,
    "office_name_kana": null
  },
  "0010": {
    "postcode": "7560010",
    "prefecture": "山口県",
    "prefecture_kana": "ヤマグチケン",
    "prefecture_code": 35,
    "city": "山陽小野田市",
    "city_kana": "サンヨウオノダシ",
    "town": "新有帆町",
    "town_kana": "シンアリホチョウ",
    "street": null,
    "office_name": null,
    "office_name_kana": null
  },
  "0011": {
    "postcode": "7560011",
    "prefecture": "山口県",
    "prefecture_kana": "ヤマグチケン",
    "prefecture_code": 35,
    "city": "山陽小野田市",
    "city_kana": "サンヨウオノダシ",
    "town": "共和台",
    "town_kana": "キョウワダイ",
    "street": null,
    "office_name": null,
    "office_name_kana": null
  },
  "0012": {
    "postcode": "7560012",
    "prefecture": "山口県",
    "prefecture_kana": "ヤマグチケン",
    "prefecture_code": 35,
    "city": "山陽小野田市",
    "city_kana": "サンヨウオノダシ",
    "town": "角石",
    "town_kana": "カドイシ",
    "street": null,
    "office_name": null,
    "office_name_kana": null
  },
  "0013": {
    "postcode": "7560013",
    "prefecture": "山口県",
    "prefecture_kana": "ヤマグチケン",
    "prefecture_code": 35,
    "city": "山陽小野田市",
    "city_kana": "サンヨウオノダシ",
    "town": "片山",
    "town_kana": "カタヤマ",
    "street": null,
    "office_name": null,
    "office_name_kana": null
  },
  "0014": {
    "postcode": "7560014",
    "prefecture": "山口県",
    "prefecture_kana": "ヤマグチケン",
    "prefecture_code": 35,
    "city": "山陽小野田市",
    "city_kana": "サンヨウオノダシ",
    "town": "彼岸田",
    "town_kana": "ヒガンダ",
    "street": null,
    "office_name": null,
    "office_name_kana": null
  },
  "0015": {
    "postcode": "7560015",
    "prefecture": "山口県",
    "prefecture_kana": "ヤマグチケン",
    "prefecture_code": 35,
    "city": "山陽小野田市",
    "city_kana": "サンヨウオノダシ",
    "town": "ひがんだ団地",
    "town_kana": "ヒガンダダンチ",
    "street": null,
    "office_name": null,
    "office_name_kana": null
  },
  "0016": {
    "postcode": "7560016",
    "prefecture": "山口県",
    "prefecture_kana": "ヤマグチケン",
    "prefecture_code": 35,
    "city": "山陽小野田市",
    "city_kana": "サンヨウオノダシ",
    "town": "南平台",
    "town_kana": "ナンペイダイ",
    "street": null,
    "office_name": null,
    "office_name_kana": null
  },
  "0017": {
    "postcode": "7560017",
    "prefecture": "山口県",
    "prefecture_kana": "ヤマグチケン",
    "prefecture_code": 35,
    "city": "山陽小野田市",
    "city_kana": "サンヨウオノダシ",
    "town": "仁保の上",
    "town_kana": "ニホノウエ",
    "street": null,
    "office_name": null,
    "office_name_kana": null
  },
  "0018": {
    "postcode": "7560018",
    "prefecture": "山口県",
    "prefecture_kana": "ヤマグチケン",
    "prefecture_code": 35,
    "city": "山陽小野田市",
    "city_kana": "サンヨウオノダシ",
    "town": "東町",
    "town_kana": "ヒガシマチ",
    "street": null,
    "office_name": null,
    "office_name_kana": null
  },
  "0019": {
    "postcode": "7560019",
    "prefecture": "山口県",
    "prefecture_kana": "ヤマグチケン",
    "prefecture_code": 35,
    "city": "山陽小野田市",
    "city_kana": "サンヨウオノダシ",
    "town": "南真土郷",
    "town_kana": "ミナミマツチゴウ",
    "street": null,
    "office_name": null,
    "office_name_kana": null
  },
  "0021": {
    "postcode": "7560021",
    "prefecture": "山口県",
    "prefecture_kana": "ヤマグチケン",
    "prefecture_code": 35,
    "city": "山陽小野田市",
    "city_kana": "サンヨウオノダシ",
    "town": "高畑",
    "town_kana": "タカハタ",
    "street": null,
    "office_name": null,
    "office_name_kana": null
  },
  "0022": {
    "postcode": "7560022",
    "prefecture": "山口県",
    "prefecture_kana": "ヤマグチケン",
    "prefecture_code": 35,
    "city": "山陽小野田市",
    "city_kana": "サンヨウオノダシ",
    "town": "千崎西",
    "town_kana": "チザキニシ",
    "street": null,
    "office_name": null,
    "office_name_kana": null
  },
  "0023": {
    "postcode": "7560023",
    "prefecture": "山口県",
    "prefecture_kana": "ヤマグチケン",
    "prefecture_code": 35,
    "city": "山陽小野田市",
    "city_kana": "サンヨウオノダシ",
    "town": "千崎東",
    "town_kana": "チザキヒガシ",
    "street": null,
    "office_name": null,
    "office_name_kana": null
  },
  "0024": {
    "postcode": "7560024",
    "prefecture": "山口県",
    "prefecture_kana": "ヤマグチケン",
    "prefecture_code": 35,
    "city": "山陽小野田市",
    "city_kana": "サンヨウオノダシ",
    "town": "萩森",
    "town_kana": "ハギモリ",
    "street": null,
    "office_name": null,
    "office_name_kana": null
  },
  "0025": {
    "postcode": "7560025",
    "prefecture": "山口県",
    "prefecture_kana": "ヤマグチケン",
    "prefecture_code": 35,
    "city": "山陽小野田市",
    "city_kana": "サンヨウオノダシ",
    "town": "烏帽子岩",
    "town_kana": "エボシイワ",
    "street": null,
    "office_name": null,
    "office_name_kana": null
  },
  "0026": {
    "postcode": "7560026",
    "prefecture": "山口県",
    "prefecture_kana": "ヤマグチケン",
    "prefecture_code": 35,
    "city": "山陽小野田市",
    "city_kana": "サンヨウオノダシ",
    "town": "烏帽子岩団地",
    "town_kana": "エボシイワダンチ",
    "street": null,
    "office_name": null,
    "office_name_kana": null
  },
  "0027": {
    "postcode": "7560027",
    "prefecture": "山口県",
    "prefecture_kana": "ヤマグチケン",
    "prefecture_code": 35,
    "city": "山陽小野田市",
    "city_kana": "サンヨウオノダシ",
    "town": "烏帽子岩前",
    "town_kana": "エボシイワマエ",
    "street": null,
    "office_name": null,
    "office_name_kana": null
  },
  "0028": {
    "postcode": "7560028",
    "prefecture": "山口県",
    "prefecture_kana": "ヤマグチケン",
    "prefecture_code": 35,
    "city": "山陽小野田市",
    "city_kana": "サンヨウオノダシ",
    "town": "共和町",
    "town_kana": "キョウワチョウ",
    "street": null,
    "office_name": null,
    "office_name_kana": null
  },
  "0029": {
    "postcode": "7560029",
    "prefecture": "山口県",
    "prefecture_kana": "ヤマグチケン",
    "prefecture_code": 35,
    "city": "山陽小野田市",
    "city_kana": "サンヨウオノダシ",
    "town": "船越",
    "town_kana": "フナコシ",
    "street": null,
    "office_name": null,
    "office_name_kana": null
  },
  "0030": {
    "postcode": "7560030",
    "prefecture": "山口県",
    "prefecture_kana": "ヤマグチケン",
    "prefecture_code": 35,
    "city": "山陽小野田市",
    "city_kana": "サンヨウオノダシ",
    "town": "青葉台",
    "town_kana": "アオバダイ",
    "street": null,
    "office_name": null,
    "office_name_kana": null
  },
  "0031": {
    "postcode": "7560031",
    "prefecture": "山口県",
    "prefecture_kana": "ヤマグチケン",
    "prefecture_code": 35,
    "city": "山陽小野田市",
    "city_kana": "サンヨウオノダシ",
    "town": "平和町",
    "town_kana": "ヘイワチョウ",
    "street": null,
    "office_name": null,
    "office_name_kana": null
  },
  "0032": {
    "postcode": "7560032",
    "prefecture": "山口県",
    "prefecture_kana": "ヤマグチケン",
    "prefecture_code": 35,
    "city": "山陽小野田市",
    "city_kana": "サンヨウオノダシ",
    "town": "平生町",
    "town_kana": "ヒラオチョウ",
    "street": null,
    "office_name": null,
    "office_name_kana": null
  },
  "0033": {
    "postcode": "7560033",
    "prefecture": "山口県",
    "prefecture_kana": "ヤマグチケン",
    "prefecture_code": 35,
    "city": "山陽小野田市",
    "city_kana": "サンヨウオノダシ",
    "town": "若草町",
    "town_kana": "ワカクサチョウ",
    "street": null,
    "office_name": null,
    "office_name_kana": null
  },
  "0034": {
    "postcode": "7560034",
    "prefecture": "山口県",
    "prefecture_kana": "ヤマグチケン",
    "prefecture_code": 35,
    "city": "山陽小野田市",
    "city_kana": "サンヨウオノダシ",
    "town": "緑が丘",
    "town_kana": "ミドリガオカ",
    "street": null,
    "office_name": null,
    "office_name_kana": null
  },
  "0035": {
    "postcode": "7560035",
    "prefecture": "山口県",
    "prefecture_kana": "ヤマグチケン",
    "prefecture_code": 35,
    "city": "山陽小野田市",
    "city_kana": "サンヨウオノダシ",
    "town": "平原",
    "town_kana": "ヒラバラ",
    "street": null,
    "office_name": null,
    "office_name_kana": null
  },
  "0036": {
    "postcode": "7560036",
    "prefecture": "山口県",
    "prefecture_kana": "ヤマグチケン",
    "prefecture_code": 35,
    "city": "山陽小野田市",
    "city_kana": "サンヨウオノダシ",
    "town": "大塚団地",
    "town_kana": "オオツカダンチ",
    "street": null,
    "office_name": null,
    "office_name_kana": null
  },
  "0037": {
    "postcode": "7560037",
    "prefecture": "山口県",
    "prefecture_kana": "ヤマグチケン",
    "prefecture_code": 35,
    "city": "山陽小野田市",
    "city_kana": "サンヨウオノダシ",
    "town": "小松尾",
    "town_kana": "コマツオ",
    "street": null,
    "office_name": null,
    "office_name_kana": null
  },
  "0038": {
    "postcode": "7560038",
    "prefecture": "山口県",
    "prefecture_kana": "ヤマグチケン",
    "prefecture_code": 35,
    "city": "山陽小野田市",
    "city_kana": "サンヨウオノダシ",
    "town": "有帆",
    "town_kana": "アリホ",
    "street": null,
    "office_name": null,
    "office_name_kana": null
  },
  "0039": {
    "postcode": "7560039",
    "prefecture": "山口県",
    "prefecture_kana": "ヤマグチケン",
    "prefecture_code": 35,
    "city": "山陽小野田市",
    "city_kana": "サンヨウオノダシ",
    "town": "千崎",
    "town_kana": "チザキ",
    "street": null,
    "office_name": null,
    "office_name_kana": null
  },
  "0041": {
    "postcode": "7560041",
    "prefecture": "山口県",
    "prefecture_kana": "ヤマグチケン",
    "prefecture_code": 35,
    "city": "山陽小野田市",
    "city_kana": "サンヨウオノダシ",
    "town": "上の郷",
    "town_kana": "カミノゴウ",
    "street": null,
    "office_name": null,
    "office_name_kana": null
  },
  "0042": {
    "postcode": "7560042",
    "prefecture": "山口県",
    "prefecture_kana": "ヤマグチケン",
    "prefecture_code": 35,
    "city": "山陽小野田市",
    "city_kana": "サンヨウオノダシ",
    "town": "大塚",
    "town_kana": "オオツカ",
    "street": null,
    "office_name": null,
    "office_name_kana": null
  },
  "0043": {
    "postcode": "7560043",
    "prefecture": "山口県",
    "prefecture_kana": "ヤマグチケン",
    "prefecture_code": 35,
    "city": "山陽小野田市",
    "city_kana": "サンヨウオノダシ",
    "town": "浜",
    "town_kana": "ハマ",
    "street": null,
    "office_name": null,
    "office_name_kana": null
  },
  "0044": {
    "postcode": "7560044",
    "prefecture": "山口県",
    "prefecture_kana": "ヤマグチケン",
    "prefecture_code": 35,
    "city": "山陽小野田市",
    "city_kana": "サンヨウオノダシ",
    "town": "郷",
    "town_kana": "ゴウ",
    "street": null,
    "office_name": null,
    "office_name_kana": null
  },
  "0045": {
    "postcode": "7560045",
    "prefecture": "山口県",
    "prefecture_kana": "ヤマグチケン",
    "prefecture_code": 35,
    "city": "山陽小野田市",
    "city_kana": "サンヨウオノダシ",
    "town": "南高泊",
    "town_kana": "ミナミタカトマリ",
    "street": null,
    "office_name": null,
    "office_name_kana": null
  },
  "0046": {
    "postcode": "7560046",
    "prefecture": "山口県",
    "prefecture_kana": "ヤマグチケン",
    "prefecture_code": 35,
    "city": "山陽小野田市",
    "city_kana": "サンヨウオノダシ",
    "town": "西の郷",
    "town_kana": "ニシノゴウ",
    "street": null,
    "office_name": null,
    "office_name_kana": null
  },
  "0047": {
    "postcode": "7560047",
    "prefecture": "山口県",
    "prefecture_kana": "ヤマグチケン",
    "prefecture_code": 35,
    "city": "山陽小野田市",
    "city_kana": "サンヨウオノダシ",
    "town": "高浜",
    "town_kana": "タカハマ",
    "street": null,
    "office_name": null,
    "office_name_kana": null
  },
  "0048": {
    "postcode": "7560048",
    "prefecture": "山口県",
    "prefecture_kana": "ヤマグチケン",
    "prefecture_code": 35,
    "city": "山陽小野田市",
    "city_kana": "サンヨウオノダシ",
    "town": "後潟下",
    "town_kana": "ウシロガタシモ",
    "street": null,
    "office_name": null,
    "office_name_kana": null
  },
  "0049": {
    "postcode": "7560049",
    "prefecture": "山口県",
    "prefecture_kana": "ヤマグチケン",
    "prefecture_code": 35,
    "city": "山陽小野田市",
    "city_kana": "サンヨウオノダシ",
    "town": "後潟上",
    "town_kana": "ウシロガタカミ",
    "street": null,
    "office_name": null,
    "office_name_kana": null
  },
  "0051": {
    "postcode": "7560051",
    "prefecture": "山口県",
    "prefecture_kana": "ヤマグチケン",
    "prefecture_code": 35,
    "city": "山陽小野田市",
    "city_kana": "サンヨウオノダシ",
    "town": "杵築",
    "town_kana": "キズキ",
    "street": null,
    "office_name": null,
    "office_name_kana": null
  },
  "0052": {
    "postcode": "7560052",
    "prefecture": "山口県",
    "prefecture_kana": "ヤマグチケン",
    "prefecture_code": 35,
    "city": "山陽小野田市",
    "city_kana": "サンヨウオノダシ",
    "town": "浜田町",
    "town_kana": "ハマダチョウ",
    "street": null,
    "office_name": null,
    "office_name_kana": null
  },
  "0053": {
    "postcode": "7560053",
    "prefecture": "山口県",
    "prefecture_kana": "ヤマグチケン",
    "prefecture_code": 35,
    "city": "山陽小野田市",
    "city_kana": "サンヨウオノダシ",
    "town": "下木屋",
    "town_kana": "シモゴヤ",
    "street": null,
    "office_name": null,
    "office_name_kana": null
  },
  "0054": {
    "postcode": "7560054",
    "prefecture": "山口県",
    "prefecture_kana": "ヤマグチケン",
    "prefecture_code": 35,
    "city": "山陽小野田市",
    "city_kana": "サンヨウオノダシ",
    "town": "旦東",
    "town_kana": "ダンヒガシ",
    "street": null,
    "office_name": null,
    "office_name_kana": null
  },
  "0055": {
    "postcode": "7560055",
    "prefecture": "山口県",
    "prefecture_kana": "ヤマグチケン",
    "prefecture_code": 35,
    "city": "山陽小野田市",
    "city_kana": "サンヨウオノダシ",
    "town": "旦西",
    "town_kana": "ダンニシ",
    "street": null,
    "office_name": null,
    "office_name_kana": null
  },
  "0056": {
    "postcode": "7560056",
    "prefecture": "山口県",
    "prefecture_kana": "ヤマグチケン",
    "prefecture_code": 35,
    "city": "山陽小野田市",
    "city_kana": "サンヨウオノダシ",
    "town": "上木屋",
    "town_kana": "カミゴヤ",
    "street": null,
    "office_name": null,
    "office_name_kana": null
  },
  "0057": {
    "postcode": "7560057",
    "prefecture": "山口県",
    "prefecture_kana": "ヤマグチケン",
    "prefecture_code": 35,
    "city": "山陽小野田市",
    "city_kana": "サンヨウオノダシ",
    "town": "西高泊",
    "town_kana": "ニシタカドマリ",
    "street": null,
    "office_name": null,
    "office_name_kana": null
  },
  "0060": {
    "postcode": "7560060",
    "prefecture": "山口県",
    "prefecture_kana": "ヤマグチケン",
    "prefecture_code": 35,
    "city": "山陽小野田市",
    "city_kana": "サンヨウオノダシ",
    "town": "高千帆",
    "town_kana": "タカチホ",
    "street": null,
    "office_name": null,
    "office_name_kana": null
  },
  "0063": {
    "postcode": "7560063",
    "prefecture": "山口県",
    "prefecture_kana": "ヤマグチケン",
    "prefecture_code": 35,
    "city": "山陽小野田市",
    "city_kana": "サンヨウオノダシ",
    "town": "石井手",
    "town_kana": "イシイデ",
    "street": null,
    "office_name": null,
    "office_name_kana": null
  },
  "0067": {
    "postcode": "7560067",
    "prefecture": "山口県",
    "prefecture_kana": "ヤマグチケン",
    "prefecture_code": 35,
    "city": "山陽小野田市",
    "city_kana": "サンヨウオノダシ",
    "town": "柿の木坂",
    "town_kana": "カキノキザカ",
    "street": null,
    "office_name": null,
    "office_name_kana": null
  },
  "0071": {
    "postcode": "7560071",
    "prefecture": "山口県",
    "prefecture_kana": "ヤマグチケン",
    "prefecture_code": 35,
    "city": "山陽小野田市",
    "city_kana": "サンヨウオノダシ",
    "town": "目出文化町",
    "town_kana": "メデブンカチョウ",
    "street": null,
    "office_name": null,
    "office_name_kana": null
  },
  "0072": {
    "postcode": "7560072",
    "prefecture": "山口県",
    "prefecture_kana": "ヤマグチケン",
    "prefecture_code": 35,
    "city": "山陽小野田市",
    "city_kana": "サンヨウオノダシ",
    "town": "目出緑町",
    "town_kana": "メデミドリマチ",
    "street": null,
    "office_name": null,
    "office_name_kana": null
  },
  "0073": {
    "postcode": "7560073",
    "prefecture": "山口県",
    "prefecture_kana": "ヤマグチケン",
    "prefecture_code": 35,
    "city": "山陽小野田市",
    "city_kana": "サンヨウオノダシ",
    "town": "目出幸町",
    "town_kana": "メデサイワイマチ",
    "street": null,
    "office_name": null,
    "office_name_kana": null
  },
  "0074": {
    "postcode": "7560074",
    "prefecture": "山口県",
    "prefecture_kana": "ヤマグチケン",
    "prefecture_code": 35,
    "city": "山陽小野田市",
    "city_kana": "サンヨウオノダシ",
    "town": "目出湖畔町",
    "town_kana": "メデコハンチョウ",
    "street": null,
    "office_name": null,
    "office_name_kana": null
  },
  "0075": {
    "postcode": "7560075",
    "prefecture": "山口県",
    "prefecture_kana": "ヤマグチケン",
    "prefecture_code": 35,
    "city": "山陽小野田市",
    "city_kana": "サンヨウオノダシ",
    "town": "亀の甲",
    "town_kana": "カメノコウ",
    "street": null,
    "office_name": null,
    "office_name_kana": null
  },
  "0076": {
    "postcode": "7560076",
    "prefecture": "山口県",
    "prefecture_kana": "ヤマグチケン",
    "prefecture_code": 35,
    "city": "山陽小野田市",
    "city_kana": "サンヨウオノダシ",
    "town": "目出",
    "town_kana": "メデ",
    "street": null,
    "office_name": null,
    "office_name_kana": null
  },
  "0077": {
    "postcode": "7560077",
    "prefecture": "山口県",
    "prefecture_kana": "ヤマグチケン",
    "prefecture_code": 35,
    "city": "山陽小野田市",
    "city_kana": "サンヨウオノダシ",
    "town": "目出新町",
    "town_kana": "メデシンマチ",
    "street": null,
    "office_name": null,
    "office_name_kana": null
  },
  "0080": {
    "postcode": "7560080",
    "prefecture": "山口県",
    "prefecture_kana": "ヤマグチケン",
    "prefecture_code": 35,
    "city": "山陽小野田市",
    "city_kana": "サンヨウオノダシ",
    "town": "くし山",
    "town_kana": "クシヤマ",
    "street": null,
    "office_name": null,
    "office_name_kana": null
  },
  "0086": {
    "postcode": "7560086",
    "prefecture": "山口県",
    "prefecture_kana": "ヤマグチケン",
    "prefecture_code": 35,
    "city": "山陽小野田市",
    "city_kana": "サンヨウオノダシ",
    "town": "神帆町",
    "town_kana": "カミホチョウ",
    "street": null,
    "office_name": null,
    "office_name_kana": null
  },
  "0087": {
    "postcode": "7560087",
    "prefecture": "山口県",
    "prefecture_kana": "ヤマグチケン",
    "prefecture_code": 35,
    "city": "山陽小野田市",
    "city_kana": "サンヨウオノダシ",
    "town": "高須",
    "town_kana": "タカス",
    "street": null,
    "office_name": null,
    "office_name_kana": null
  },
  "0088": {
    "postcode": "7560088",
    "prefecture": "山口県",
    "prefecture_kana": "ヤマグチケン",
    "prefecture_code": 35,
    "city": "山陽小野田市",
    "city_kana": "サンヨウオノダシ",
    "town": "東高泊",
    "town_kana": "ヒガシタカドマリ",
    "street": null,
    "office_name": null,
    "office_name_kana": null
  },
  "0091": {
    "postcode": "7560091",
    "prefecture": "山口県",
    "prefecture_kana": "ヤマグチケン",
    "prefecture_code": 35,
    "city": "山陽小野田市",
    "city_kana": "サンヨウオノダシ",
    "town": "日の出",
    "town_kana": "ヒノデ",
    "street": null,
    "office_name": null,
    "office_name_kana": null
  },
  "0092": {
    "postcode": "7560092",
    "prefecture": "山口県",
    "prefecture_kana": "ヤマグチケン",
    "prefecture_code": 35,
    "city": "山陽小野田市",
    "city_kana": "サンヨウオノダシ",
    "town": "新生",
    "town_kana": "シンセイ",
    "street": null,
    "office_name": null,
    "office_name_kana": null
  },
  "0093": {
    "postcode": "7560093",
    "prefecture": "山口県",
    "prefecture_kana": "ヤマグチケン",
    "prefecture_code": 35,
    "city": "山陽小野田市",
    "city_kana": "サンヨウオノダシ",
    "town": "日産",
    "town_kana": "ニッサン",
    "street": null,
    "office_name": null,
    "office_name_kana": null
  },
  "0094": {
    "postcode": "7560094",
    "prefecture": "山口県",
    "prefecture_kana": "ヤマグチケン",
    "prefecture_code": 35,
    "city": "山陽小野田市",
    "city_kana": "サンヨウオノダシ",
    "town": "市立病院",
    "town_kana": "シリツビョウイン",
    "street": null,
    "office_name": null,
    "office_name_kana": null
  },
  "0095": {
    "postcode": "7560095",
    "prefecture": "山口県",
    "prefecture_kana": "ヤマグチケン",
    "prefecture_code": 35,
    "city": "山陽小野田市",
    "city_kana": "サンヨウオノダシ",
    "town": "労災病院",
    "town_kana": "ロウサイビョウイン",
    "street": null,
    "office_name": null,
    "office_name_kana": null
  },
  "0801": {
    "postcode": "7560801",
    "prefecture": "山口県",
    "prefecture_kana": "ヤマグチケン",
    "prefecture_code": 35,
    "city": "山陽小野田市",
    "city_kana": "サンヨウオノダシ",
    "town": "北栄町",
    "town_kana": "キタサカエマチ",
    "street": null,
    "office_name": null,
    "office_name_kana": null
  },
  "0802": {
    "postcode": "7560802",
    "prefecture": "山口県",
    "prefecture_kana": "ヤマグチケン",
    "prefecture_code": 35,
    "city": "山陽小野田市",
    "city_kana": "サンヨウオノダシ",
    "town": "栄町",
    "town_kana": "サカエマチ",
    "street": null,
    "office_name": null,
    "office_name_kana": null
  },
  "0803": {
    "postcode": "7560803",
    "prefecture": "山口県",
    "prefecture_kana": "ヤマグチケン",
    "prefecture_code": 35,
    "city": "山陽小野田市",
    "city_kana": "サンヨウオノダシ",
    "town": "南中川町",
    "town_kana": "ミナミナカガワマチ",
    "street": null,
    "office_name": null,
    "office_name_kana": null
  },
  "0804": {
    "postcode": "7560804",
    "prefecture": "山口県",
    "prefecture_kana": "ヤマグチケン",
    "prefecture_code": 35,
    "city": "山陽小野田市",
    "city_kana": "サンヨウオノダシ",
    "town": "長寿園",
    "town_kana": "チョウジュエン",
    "street": null,
    "office_name": null,
    "office_name_kana": null
  },
  "0805": {
    "postcode": "7560805",
    "prefecture": "山口県",
    "prefecture_kana": "ヤマグチケン",
    "prefecture_code": 35,
    "city": "山陽小野田市",
    "city_kana": "サンヨウオノダシ",
    "town": "自由ヶ丘",
    "town_kana": "ジユウガオカ",
    "street": null,
    "office_name": null,
    "office_name_kana": null
  },
  "0806": {
    "postcode": "7560806",
    "prefecture": "山口県",
    "prefecture_kana": "ヤマグチケン",
    "prefecture_code": 35,
    "city": "山陽小野田市",
    "city_kana": "サンヨウオノダシ",
    "town": "中川",
    "town_kana": "ナカガワ",
    "street": null,
    "office_name": null,
    "office_name_kana": null
  },
  "0807": {
    "postcode": "7560807",
    "prefecture": "山口県",
    "prefecture_kana": "ヤマグチケン",
    "prefecture_code": 35,
    "city": "山陽小野田市",
    "city_kana": "サンヨウオノダシ",
    "town": "硫酸町",
    "town_kana": "リュウサンマチ",
    "street": null,
    "office_name": null,
    "office_name_kana": null
  },
  "0808": {
    "postcode": "7560808",
    "prefecture": "山口県",
    "prefecture_kana": "ヤマグチケン",
    "prefecture_code": 35,
    "city": "山陽小野田市",
    "city_kana": "サンヨウオノダシ",
    "town": "旭町",
    "town_kana": "アサヒマチ",
    "street": null,
    "office_name": null,
    "office_name_kana": null
  },
  "0809": {
    "postcode": "7560809",
    "prefecture": "山口県",
    "prefecture_kana": "ヤマグチケン",
    "prefecture_code": 35,
    "city": "山陽小野田市",
    "city_kana": "サンヨウオノダシ",
    "town": "横土手",
    "town_kana": "ヨコドテ",
    "street": null,
    "office_name": null,
    "office_name_kana": null
  },
  "0811": {
    "postcode": "7560811",
    "prefecture": "山口県",
    "prefecture_kana": "ヤマグチケン",
    "prefecture_code": 35,
    "city": "山陽小野田市",
    "city_kana": "サンヨウオノダシ",
    "town": "稲荷町",
    "town_kana": "イナリマチ",
    "street": null,
    "office_name": null,
    "office_name_kana": null
  },
  "0812": {
    "postcode": "7560812",
    "prefecture": "山口県",
    "prefecture_kana": "ヤマグチケン",
    "prefecture_code": 35,
    "city": "山陽小野田市",
    "city_kana": "サンヨウオノダシ",
    "town": "小野山",
    "town_kana": "オノヤマ",
    "street": null,
    "office_name": null,
    "office_name_kana": null
  },
  "0813": {
    "postcode": "7560813",
    "prefecture": "山口県",
    "prefecture_kana": "ヤマグチケン",
    "prefecture_code": 35,
    "city": "山陽小野田市",
    "city_kana": "サンヨウオノダシ",
    "town": "住吉本町",
    "town_kana": "スミヨシホンマチ",
    "street": null,
    "office_name": null,
    "office_name_kana": null
  },
  "0814": {
    "postcode": "7560814",
    "prefecture": "山口県",
    "prefecture_kana": "ヤマグチケン",
    "prefecture_code": 35,
    "city": "山陽小野田市",
    "city_kana": "サンヨウオノダシ",
    "town": "千代町",
    "town_kana": "チヨマチ",
    "street": null,
    "office_name": null,
    "office_name_kana": null
  },
  "0815": {
    "postcode": "7560815",
    "prefecture": "山口県",
    "prefecture_kana": "ヤマグチケン",
    "prefecture_code": 35,
    "city": "山陽小野田市",
    "city_kana": "サンヨウオノダシ",
    "town": "高栄",
    "town_kana": "コウエイ",
    "street": null,
    "office_name": null,
    "office_name_kana": null
  },
  "0816": {
    "postcode": "7560816",
    "prefecture": "山口県",
    "prefecture_kana": "ヤマグチケン",
    "prefecture_code": 35,
    "city": "山陽小野田市",
    "city_kana": "サンヨウオノダシ",
    "town": "西住吉町",
    "town_kana": "ニシスミヨシチョウ",
    "street": null,
    "office_name": null,
    "office_name_kana": null
  },
  "0817": {
    "postcode": "7560817",
    "prefecture": "山口県",
    "prefecture_kana": "ヤマグチケン",
    "prefecture_code": 35,
    "city": "山陽小野田市",
    "city_kana": "サンヨウオノダシ",
    "town": "小野田",
    "town_kana": "オノダ",
    "street": null,
    "office_name": null,
    "office_name_kana": null
  },
  "0821": {
    "postcode": "7560821",
    "prefecture": "山口県",
    "prefecture_kana": "ヤマグチケン",
    "prefecture_code": 35,
    "city": "山陽小野田市",
    "city_kana": "サンヨウオノダシ",
    "town": "丸河内",
    "town_kana": "マルゴウチ",
    "street": null,
    "office_name": null,
    "office_name_kana": null
  },
  "0822": {
    "postcode": "7560822",
    "prefecture": "山口県",
    "prefecture_kana": "ヤマグチケン",
    "prefecture_code": 35,
    "city": "山陽小野田市",
    "city_kana": "サンヨウオノダシ",
    "town": "北若山",
    "town_kana": "キタワカヤマ",
    "street": null,
    "office_name": null,
    "office_name_kana": null
  },
  "0823": {
    "postcode": "7560823",
    "prefecture": "山口県",
    "prefecture_kana": "ヤマグチケン",
    "prefecture_code": 35,
    "city": "山陽小野田市",
    "city_kana": "サンヨウオノダシ",
    "town": "心和園",
    "town_kana": "シンワエン",
    "street": null,
    "office_name": null,
    "office_name_kana": null
  },
  "0824": {
    "postcode": "7560824",
    "prefecture": "山口県",
    "prefecture_kana": "ヤマグチケン",
    "prefecture_code": 35,
    "city": "山陽小野田市",
    "city_kana": "サンヨウオノダシ",
    "town": "中央",
    "town_kana": "チュウオウ",
    "street": null,
    "office_name": null,
    "office_name_kana": null
  },
  "0825": {
    "postcode": "7560825",
    "prefecture": "山口県",
    "prefecture_kana": "ヤマグチケン",
    "prefecture_code": 35,
    "city": "山陽小野田市",
    "city_kana": "サンヨウオノダシ",
    "town": "東住吉町",
    "town_kana": "ヒガシスミヨシチョウ",
    "street": null,
    "office_name": null,
    "office_name_kana": null
  },
  "0831": {
    "postcode": "7560831",
    "prefecture": "山口県",
    "prefecture_kana": "ヤマグチケン",
    "prefecture_code": 35,
    "city": "山陽小野田市",
    "city_kana": "サンヨウオノダシ",
    "town": "南若山",
    "town_kana": "ミナミワカヤマ",
    "street": null,
    "office_name": null,
    "office_name_kana": null
  },
  "0832": {
    "postcode": "7560832",
    "prefecture": "山口県",
    "prefecture_kana": "ヤマグチケン",
    "prefecture_code": 35,
    "city": "山陽小野田市",
    "city_kana": "サンヨウオノダシ",
    "town": "南竜王町",
    "town_kana": "ミナミリュウオウチョウ",
    "street": null,
    "office_name": null,
    "office_name_kana": null
  },
  "0833": {
    "postcode": "7560833",
    "prefecture": "山口県",
    "prefecture_kana": "ヤマグチケン",
    "prefecture_code": 35,
    "city": "山陽小野田市",
    "city_kana": "サンヨウオノダシ",
    "town": "北竜王町",
    "town_kana": "キタリュウオウチョウ",
    "street": null,
    "office_name": null,
    "office_name_kana": null
  },
  "0834": {
    "postcode": "7560834",
    "prefecture": "山口県",
    "prefecture_kana": "ヤマグチケン",
    "prefecture_code": 35,
    "city": "山陽小野田市",
    "city_kana": "サンヨウオノダシ",
    "town": "港町",
    "town_kana": "ミナトマチ",
    "street": null,
    "office_name": null,
    "office_name_kana": null
  },
  "0835": {
    "postcode": "7560835",
    "prefecture": "山口県",
    "prefecture_kana": "ヤマグチケン",
    "prefecture_code": 35,
    "city": "山陽小野田市",
    "city_kana": "サンヨウオノダシ",
    "town": "セメント町",
    "town_kana": "セメントマチ",
    "street": null,
    "office_name": null,
    "office_name_kana": null
  },
  "0836": {
    "postcode": "7560836",
    "prefecture": "山口県",
    "prefecture_kana": "ヤマグチケン",
    "prefecture_code": 35,
    "city": "山陽小野田市",
    "city_kana": "サンヨウオノダシ",
    "town": "須恵",
    "town_kana": "スエ",
    "street": null,
    "office_name": null,
    "office_name_kana": null
  },
  "0837": {
    "postcode": "7560837",
    "prefecture": "山口県",
    "prefecture_kana": "ヤマグチケン",
    "prefecture_code": 35,
    "city": "山陽小野田市",
    "city_kana": "サンヨウオノダシ",
    "town": "平成町",
    "town_kana": "ヘイセイチョウ",
    "street": null,
    "office_name": null,
    "office_name_kana": null
  },
  "0841": {
    "postcode": "7560841",
    "prefecture": "山口県",
    "prefecture_kana": "ヤマグチケン",
    "prefecture_code": 35,
    "city": "山陽小野田市",
    "city_kana": "サンヨウオノダシ",
    "town": "赤崎",
    "town_kana": "アカサキ",
    "street": null,
    "office_name": null,
    "office_name_kana": null
  },
  "0842": {
    "postcode": "7560842",
    "prefecture": "山口県",
    "prefecture_kana": "ヤマグチケン",
    "prefecture_code": 35,
    "city": "山陽小野田市",
    "city_kana": "サンヨウオノダシ",
    "town": "刈屋中村",
    "town_kana": "カリヤナカムラ",
    "street": null,
    "office_name": null,
    "office_name_kana": null
  },
  "0843": {
    "postcode": "7560843",
    "prefecture": "山口県",
    "prefecture_kana": "ヤマグチケン",
    "prefecture_code": 35,
    "city": "山陽小野田市",
    "city_kana": "サンヨウオノダシ",
    "town": "刈屋上条",
    "town_kana": "カリヤカミジョウ",
    "street": null,
    "office_name": null,
    "office_name_kana": null
  },
  "0844": {
    "postcode": "7560844",
    "prefecture": "山口県",
    "prefecture_kana": "ヤマグチケン",
    "prefecture_code": 35,
    "city": "山陽小野田市",
    "city_kana": "サンヨウオノダシ",
    "town": "木戸大鼻",
    "town_kana": "キドオオバナ",
    "street": null,
    "office_name": null,
    "office_name_kana": null
  },
  "0845": {
    "postcode": "7560845",
    "prefecture": "山口県",
    "prefecture_kana": "ヤマグチケン",
    "prefecture_code": 35,
    "city": "山陽小野田市",
    "city_kana": "サンヨウオノダシ",
    "town": "木戸中ノ町",
    "town_kana": "キドナカノチョウ",
    "street": null,
    "office_name": null,
    "office_name_kana": null
  },
  "0846": {
    "postcode": "7560846",
    "prefecture": "山口県",
    "prefecture_kana": "ヤマグチケン",
    "prefecture_code": 35,
    "city": "山陽小野田市",
    "city_kana": "サンヨウオノダシ",
    "town": "木戸新町",
    "town_kana": "キドシンマチ",
    "street": null,
    "office_name": null,
    "office_name_kana": null
  },
  "0847": {
    "postcode": "7560847",
    "prefecture": "山口県",
    "prefecture_kana": "ヤマグチケン",
    "prefecture_code": 35,
    "city": "山陽小野田市",
    "city_kana": "サンヨウオノダシ",
    "town": "新沖",
    "town_kana": "シンオキ",
    "street": null,
    "office_name": null,
    "office_name_kana": null
  },
  "0848": {
    "postcode": "7560848",
    "prefecture": "山口県",
    "prefecture_kana": "ヤマグチケン",
    "prefecture_code": 35,
    "city": "山陽小野田市",
    "city_kana": "サンヨウオノダシ",
    "town": "刈屋西条",
    "town_kana": "カリヤニシジョウ",
    "street": null,
    "office_name": null,
    "office_name_kana": null
  },
  "0851": {
    "postcode": "7560851",
    "prefecture": "山口県",
    "prefecture_kana": "ヤマグチケン",
    "prefecture_code": 35,
    "city": "山陽小野田市",
    "city_kana": "サンヨウオノダシ",
    "town": "桜が丘",
    "town_kana": "サクラガオカ",
    "street": null,
    "office_name": null,
    "office_name_kana": null
  },
  "0852": {
    "postcode": "7560852",
    "prefecture": "山口県",
    "prefecture_kana": "ヤマグチケン",
    "prefecture_code": 35,
    "city": "山陽小野田市",
    "city_kana": "サンヨウオノダシ",
    "town": "奥若山",
    "town_kana": "オクワカヤマ",
    "street": null,
    "office_name": null,
    "office_name_kana": null
  },
  "0853": {
    "postcode": "7560853",
    "prefecture": "山口県",
    "prefecture_kana": "ヤマグチケン",
    "prefecture_code": 35,
    "city": "山陽小野田市",
    "city_kana": "サンヨウオノダシ",
    "town": "野来見",
    "town_kana": "ノグルミ",
    "street": null,
    "office_name": null,
    "office_name_kana": null
  },
  "0854": {
    "postcode": "7560854",
    "prefecture": "山口県",
    "prefecture_kana": "ヤマグチケン",
    "prefecture_code": 35,
    "city": "山陽小野田市",
    "city_kana": "サンヨウオノダシ",
    "town": "叶松",
    "town_kana": "カノウマツ",
    "street": null,
    "office_name": null,
    "office_name_kana": null
  },
  "0855": {
    "postcode": "7560855",
    "prefecture": "山口県",
    "prefecture_kana": "ヤマグチケン",
    "prefecture_code": 35,
    "city": "山陽小野田市",
    "city_kana": "サンヨウオノダシ",
    "town": "えびす町",
    "town_kana": "エビスチョウ",
    "street": null,
    "office_name": null,
    "office_name_kana": null
  },
  "0856": {
    "postcode": "7560856",
    "prefecture": "山口県",
    "prefecture_kana": "ヤマグチケン",
    "prefecture_code": 35,
    "city": "山陽小野田市",
    "city_kana": "サンヨウオノダシ",
    "town": "古開作",
    "town_kana": "フルガイサク",
    "street": null,
    "office_name": null,
    "office_name_kana": null
  },
  "0857": {
    "postcode": "7560857",
    "prefecture": "山口県",
    "prefecture_kana": "ヤマグチケン",
    "prefecture_code": 35,
    "city": "山陽小野田市",
    "city_kana": "サンヨウオノダシ",
    "town": "古開作団地",
    "town_kana": "フルガイサクダンチ",
    "street": null,
    "office_name": null,
    "office_name_kana": null
  },
  "0861": {
    "postcode": "7560861",
    "prefecture": "山口県",
    "prefecture_kana": "ヤマグチケン",
    "prefecture_code": 35,
    "city": "山陽小野田市",
    "city_kana": "サンヨウオノダシ",
    "town": "波瀬",
    "town_kana": "ハゼ",
    "street": null,
    "office_name": null,
    "office_name_kana": null
  },
  "0862": {
    "postcode": "7560862",
    "prefecture": "山口県",
    "prefecture_kana": "ヤマグチケン",
    "prefecture_code": 35,
    "city": "山陽小野田市",
    "city_kana": "サンヨウオノダシ",
    "town": "須恵西",
    "town_kana": "スエニシ",
    "street": null,
    "office_name": null,
    "office_name_kana": null
  },
  "0863": {
    "postcode": "7560863",
    "prefecture": "山口県",
    "prefecture_kana": "ヤマグチケン",
    "prefecture_code": 35,
    "city": "山陽小野田市",
    "city_kana": "サンヨウオノダシ",
    "town": "上の台",
    "town_kana": "ウエノダイ",
    "street": null,
    "office_name": null,
    "office_name_kana": null
  },
  "0864": {
    "postcode": "7560864",
    "prefecture": "山口県",
    "prefecture_kana": "ヤマグチケン",
    "prefecture_code": 35,
    "city": "山陽小野田市",
    "city_kana": "サンヨウオノダシ",
    "town": "西が迫",
    "town_kana": "ニシガサコ",
    "street": null,
    "office_name": null,
    "office_name_kana": null
  },
  "0865": {
    "postcode": "7560865",
    "prefecture": "山口県",
    "prefecture_kana": "ヤマグチケン",
    "prefecture_code": 35,
    "city": "山陽小野田市",
    "city_kana": "サンヨウオノダシ",
    "town": "田の尻",
    "town_kana": "タノシリ",
    "street": null,
    "office_name": null,
    "office_name_kana": null
  },
  "0866": {
    "postcode": "7560866",
    "prefecture": "山口県",
    "prefecture_kana": "ヤマグチケン",
    "prefecture_code": 35,
    "city": "山陽小野田市",
    "city_kana": "サンヨウオノダシ",
    "town": "大浜",
    "town_kana": "オオハマ",
    "street": null,
    "office_name": null,
    "office_name_kana": null
  },
  "0871": {
    "postcode": "7560871",
    "prefecture": "山口県",
    "prefecture_kana": "ヤマグチケン",
    "prefecture_code": 35,
    "city": "山陽小野田市",
    "city_kana": "サンヨウオノダシ",
    "town": "あさひが丘",
    "town_kana": "アサヒガオカ",
    "street": null,
    "office_name": null,
    "office_name_kana": null
  },
  "0872": {
    "postcode": "7560872",
    "prefecture": "山口県",
    "prefecture_kana": "ヤマグチケン",
    "prefecture_code": 35,
    "city": "山陽小野田市",
    "city_kana": "サンヨウオノダシ",
    "town": "浜河内",
    "town_kana": "ハマゴウチ",
    "street": null,
    "office_name": null,
    "office_name_kana": null
  },
  "0873": {
    "postcode": "7560873",
    "prefecture": "山口県",
    "prefecture_kana": "ヤマグチケン",
    "prefecture_code": 35,
    "city": "山陽小野田市",
    "city_kana": "サンヨウオノダシ",
    "town": "大須恵",
    "town_kana": "オオズエ",
    "street": null,
    "office_name": null,
    "office_name_kana": null
  },
  "0874": {
    "postcode": "7560874",
    "prefecture": "山口県",
    "prefecture_kana": "ヤマグチケン",
    "prefecture_code": 35,
    "city": "山陽小野田市",
    "city_kana": "サンヨウオノダシ",
    "town": "本山町",
    "town_kana": "モトヤマチョウ",
    "street": null,
    "office_name": null,
    "office_name_kana": null
  },
  "0875": {
    "postcode": "7560875",
    "prefecture": "山口県",
    "prefecture_kana": "ヤマグチケン",
    "prefecture_code": 35,
    "city": "山陽小野田市",
    "city_kana": "サンヨウオノダシ",
    "town": "南松浜",
    "town_kana": "ミナミマツハマ",
    "street": null,
    "office_name": null,
    "office_name_kana": null
  },
  "0876": {
    "postcode": "7560876",
    "prefecture": "山口県",
    "prefecture_kana": "ヤマグチケン",
    "prefecture_code": 35,
    "city": "山陽小野田市",
    "city_kana": "サンヨウオノダシ",
    "town": "本山団地",
    "town_kana": "モトヤマダンチ",
    "street": null,
    "office_name": null,
    "office_name_kana": null
  },
  "0877": {
    "postcode": "7560877",
    "prefecture": "山口県",
    "prefecture_kana": "ヤマグチケン",
    "prefecture_code": 35,
    "city": "山陽小野田市",
    "city_kana": "サンヨウオノダシ",
    "town": "松浜",
    "town_kana": "マツハマ",
    "street": null,
    "office_name": null,
    "office_name_kana": null
  },
  "0878": {
    "postcode": "7560878",
    "prefecture": "山口県",
    "prefecture_kana": "ヤマグチケン",
    "prefecture_code": 35,
    "city": "山陽小野田市",
    "city_kana": "サンヨウオノダシ",
    "town": "松浜団地",
    "town_kana": "マツハマダンチ",
    "street": null,
    "office_name": null,
    "office_name_kana": null
  },
  "0881": {
    "postcode": "7560881",
    "prefecture": "山口県",
    "prefecture_kana": "ヤマグチケン",
    "prefecture_code": 35,
    "city": "山陽小野田市",
    "city_kana": "サンヨウオノダシ",
    "town": "笹尾東",
    "town_kana": "ササオヒガシ",
    "street": null,
    "office_name": null,
    "office_name_kana": null
  },
  "0882": {
    "postcode": "7560882",
    "prefecture": "山口県",
    "prefecture_kana": "ヤマグチケン",
    "prefecture_code": 35,
    "city": "山陽小野田市",
    "city_kana": "サンヨウオノダシ",
    "town": "須田ノ木",
    "town_kana": "スダノキ",
    "street": null,
    "office_name": null,
    "office_name_kana": null
  },
  "0883": {
    "postcode": "7560883",
    "prefecture": "山口県",
    "prefecture_kana": "ヤマグチケン",
    "prefecture_code": 35,
    "city": "山陽小野田市",
    "city_kana": "サンヨウオノダシ",
    "town": "東須田の木",
    "town_kana": "ヒガシスダノキ",
    "street": null,
    "office_name": null,
    "office_name_kana": null
  },
  "0884": {
    "postcode": "7560884",
    "prefecture": "山口県",
    "prefecture_kana": "ヤマグチケン",
    "prefecture_code": 35,
    "city": "山陽小野田市",
    "city_kana": "サンヨウオノダシ",
    "town": "大学通",
    "town_kana": "ダイガクドオリ",
    "street": null,
    "office_name": null,
    "office_name_kana": null
  },
  "0885": {
    "postcode": "7560885",
    "prefecture": "山口県",
    "prefecture_kana": "ヤマグチケン",
    "prefecture_code": 35,
    "city": "山陽小野田市",
    "city_kana": "サンヨウオノダシ",
    "town": "西沖",
    "town_kana": "ニシオキ",
    "street": null,
    "office_name": null,
    "office_name_kana": null
  },
  "0886": {
    "postcode": "7560886",
    "prefecture": "山口県",
    "prefecture_kana": "ヤマグチケン",
    "prefecture_code": 35,
    "city": "山陽小野田市",
    "city_kana": "サンヨウオノダシ",
    "town": "夏目",
    "town_kana": "ナツメ",
    "street": null,
    "office_name": null,
    "office_name_kana": null
  },
  "0887": {
    "postcode": "7560887",
    "prefecture": "山口県",
    "prefecture_kana": "ヤマグチケン",
    "prefecture_code": 35,
    "city": "山陽小野田市",
    "city_kana": "サンヨウオノダシ",
    "town": "松角",
    "town_kana": "マツカク",
    "street": null,
    "office_name": null,
    "office_name_kana": null
  },
  "0888": {
    "postcode": "7560888",
    "prefecture": "山口県",
    "prefecture_kana": "ヤマグチケン",
    "prefecture_code": 35,
    "city": "山陽小野田市",
    "city_kana": "サンヨウオノダシ",
    "town": "笹尾西",
    "town_kana": "ササオニシ",
    "street": null,
    "office_name": null,
    "office_name_kana": null
  },
  "0889": {
    "postcode": "7560889",
    "prefecture": "山口県",
    "prefecture_kana": "ヤマグチケン",
    "prefecture_code": 35,
    "city": "山陽小野田市",
    "city_kana": "サンヨウオノダシ",
    "town": "須恵東",
    "town_kana": "スエヒガシ",
    "street": null,
    "office_name": null,
    "office_name_kana": null
  },
  "8501": {
    "postcode": "7568501",
    "prefecture": "山口県",
    "prefecture_kana": "ヤマグチケン",
    "prefecture_code": 35,
    "city": "山陽小野田市",
    "city_kana": "サンヨウオノダシ",
    "town": "稲荷町",
    "town_kana": "イナリマチ",
    "street": "１０番２３号",
    "office_name": "富士商　株式会社",
    "office_name_kana": "フジシヨウ カブシキガイシヤ"
  },
  "8502": {
    "postcode": "7568502",
    "prefecture": "山口県",
    "prefecture_kana": "ヤマグチケン",
    "prefecture_code": 35,
    "city": "山陽小野田市",
    "city_kana": "サンヨウオノダシ",
    "town": "大字西高泊",
    "town_kana": null,
    "street": "字烏帽子岩沖６７６番地９の１",
    "office_name": "株式会社　パオ",
    "office_name_kana": "カブシキガイシヤ パオ"
  },
  "8585": {
    "postcode": "7568585",
    "prefecture": "山口県",
    "prefecture_kana": "ヤマグチケン",
    "prefecture_code": 35,
    "city": "山陽小野田市",
    "city_kana": "サンヨウオノダシ",
    "town": "中川",
    "town_kana": "ナカガワ",
    "street": "６丁目４番１号",
    "office_name": "小野田商業開発　株式会社",
    "office_name_kana": "オノダシヨウギヨウカイハツ カブシキガイシヤ"
  },
  "8601": {
    "postcode": "7568601",
    "prefecture": "山口県",
    "prefecture_kana": "ヤマグチケン",
    "prefecture_code": 35,
    "city": "山陽小野田市",
    "city_kana": "サンヨウオノダシ",
    "town": "日の出",
    "town_kana": "ヒノデ",
    "street": "１丁目１−１",
    "office_name": "山陽小野田市役所",
    "office_name_kana": "サンヨウオノダシヤクシヨ"
  },
  "8602": {
    "postcode": "7568602",
    "prefecture": "山口県",
    "prefecture_kana": "ヤマグチケン",
    "prefecture_code": 35,
    "city": "山陽小野田市",
    "city_kana": "サンヨウオノダシ",
    "town": "大字西高泊",
    "town_kana": null,
    "street": "６３１−１１（小野田郵便局私書箱第２１号）",
    "office_name": "嶋田工業",
    "office_name_kana": "シマダコウギヨウ"
  }
}