{
  "0121": {
    "postcode": "7590121",
    "prefecture": "山口県",
    "prefecture_kana": "ヤマグチケン",
    "prefecture_code": 35,
    "city": "宇部市",
    "city_kana": "ウベシ",
    "town": "棚井",
    "town_kana": "タナイ",
    "street": null,
    "office_name": null,
    "office_name_kana": null
  },
  "0122": {
    "postcode": "7590122",
    "prefecture": "山口県",
    "prefecture_kana": "ヤマグチケン",
    "prefecture_code": 35,
    "city": "宇部市",
    "city_kana": "ウベシ",
    "town": "吉見",
    "town_kana": "ヨシミ",
    "street": null,
    "office_name": null,
    "office_name_kana": null
  },
  "0123": {
    "postcode": "7590123",
    "prefecture": "山口県",
    "prefecture_kana": "ヤマグチケン",
    "prefecture_code": 35,
    "city": "宇部市",
    "city_kana": "ウベシ",
    "town": "末信",
    "town_kana": "スエノブ",
    "street": null,
    "office_name": null,
    "office_name_kana": null
  },
  "0124": {
    "postcode": "7590124",
    "prefecture": "山口県",
    "prefecture_kana": "ヤマグチケン",
    "prefecture_code": 35,
    "city": "宇部市",
    "city_kana": "ウベシ",
    "town": "広瀬",
    "town_kana": "ヒロセ",
    "street": null,
    "office_name": null,
    "office_name_kana": null
  },
  "0131": {
    "postcode": "7590131",
    "prefecture": "山口県",
    "prefecture_kana": "ヤマグチケン",
    "prefecture_code": 35,
    "city": "宇部市",
    "city_kana": "ウベシ",
    "town": "荒瀬",
    "town_kana": "アラセ",
    "street": null,
    "office_name": null,
    "office_name_kana": null
  },
  "0132": {
    "postcode": "7590132",
    "prefecture": "山口県",
    "prefecture_kana": "ヤマグチケン",
    "prefecture_code": 35,
    "city": "宇部市",
    "city_kana": "ウベシ",
    "town": "山中",
    "town_kana": "ヤマナカ",
    "street": null,
    "office_name": null,
    "office_name_kana": null
  },
  "0133": {
    "postcode": "7590133",
    "prefecture": "山口県",
    "prefecture_kana": "ヤマグチケン",
    "prefecture_code": 35,
    "city": "宇部市",
    "city_kana": "ウベシ",
    "town": "車地",
    "town_kana": "クルマジ",
    "street": null,
    "office_name": null,
    "office_name_kana": null
  },
  "0134": {
    "postcode": "7590134",
    "prefecture": "山口県",
    "prefecture_kana": "ヤマグチケン",
    "prefecture_code": 35,
    "city": "宇部市",
    "city_kana": "ウベシ",
    "town": "善和",
    "town_kana": "ヨシワ",
    "street": null,
    "office_name": null,
    "office_name_kana": null
  },
  "0135": {
    "postcode": "7590135",
    "prefecture": "山口県",
    "prefecture_kana": "ヤマグチケン",
    "prefecture_code": 35,
    "city": "宇部市",
    "city_kana": "ウベシ",
    "town": "瓜生野",
    "town_kana": "ウリュウノ",
    "street": null,
    "office_name": null,
    "office_name_kana": null
  },
  "0136": {
    "postcode": "7590136",
    "prefecture": "山口県",
    "prefecture_kana": "ヤマグチケン",
    "prefecture_code": 35,
    "city": "宇部市",
    "city_kana": "ウベシ",
    "town": "木田",
    "town_kana": "キダ",
    "street": null,
    "office_name": null,
    "office_name_kana": null
  },
  "0201": {
    "postcode": "7590201",
    "prefecture": "山口県",
    "prefecture_kana": "ヤマグチケン",
    "prefecture_code": 35,
    "city": "宇部市",
    "city_kana": "ウベシ",
    "town": "山の手町",
    "town_kana": "ヤマノテチョウ",
    "street": null,
    "office_name": null,
    "office_name_kana": null
  },
  "0202": {
    "postcode": "7590202",
    "prefecture": "山口県",
    "prefecture_kana": "ヤマグチケン",
    "prefecture_code": 35,
    "city": "宇部市",
    "city_kana": "ウベシ",
    "town": "沖ノ旦",
    "town_kana": "オキノダン",
    "street": null,
    "office_name": null,
    "office_name_kana": null
  },
  "0203": {
    "postcode": "7590203",
    "prefecture": "山口県",
    "prefecture_kana": "ヤマグチケン",
    "prefecture_code": 35,
    "city": "宇部市",
    "city_kana": "ウベシ",
    "town": "中野開作",
    "town_kana": "ナカノガイサク",
    "street": null,
    "office_name": null,
    "office_name_kana": null
  },
  "0204": {
    "postcode": "7590204",
    "prefecture": "山口県",
    "prefecture_kana": "ヤマグチケン",
    "prefecture_code": 35,
    "city": "宇部市",
    "city_kana": "ウベシ",
    "town": "妻崎開作",
    "town_kana": "ツマザキガイサク",
    "street": null,
    "office_name": null,
    "office_name_kana": null
  },
  "0205": {
    "postcode": "7590205",
    "prefecture": "山口県",
    "prefecture_kana": "ヤマグチケン",
    "prefecture_code": 35,
    "city": "宇部市",
    "city_kana": "ウベシ",
    "town": "西沖の山",
    "town_kana": "ニシオキノヤマ",
    "street": null,
    "office_name": null,
    "office_name_kana": null
  },
  "0206": {
    "postcode": "7590206",
    "prefecture": "山口県",
    "prefecture_kana": "ヤマグチケン",
    "prefecture_code": 35,
    "city": "宇部市",
    "city_kana": "ウベシ",
    "town": "東須恵",
    "town_kana": "ヒガシスエ",
    "street": null,
    "office_name": null,
    "office_name_kana": null
  },
  "0207": {
    "postcode": "7590207",
    "prefecture": "山口県",
    "prefecture_kana": "ヤマグチケン",
    "prefecture_code": 35,
    "city": "宇部市",
    "city_kana": "ウベシ",
    "town": "際波",
    "town_kana": "キワナミ",
    "street": null,
    "office_name": null,
    "office_name_kana": null
  },
  "0208": {
    "postcode": "7590208",
    "prefecture": "山口県",
    "prefecture_kana": "ヤマグチケン",
    "prefecture_code": 35,
    "city": "宇部市",
    "city_kana": "ウベシ",
    "town": "西宇部南",
    "town_kana": "ニシウベミナミ",
    "street": null,
    "office_name": null,
    "office_name_kana": null
  },
  "0209": {
    "postcode": "7590209",
    "prefecture": "山口県",
    "prefecture_kana": "ヤマグチケン",
    "prefecture_code": 35,
    "city": "宇部市",
    "city_kana": "ウベシ",
    "town": "厚南北",
    "town_kana": "コウナンキタ",
    "street": null,
    "office_name": null,
    "office_name_kana": null
  },
  "0211": {
    "postcode": "7590211",
    "prefecture": "山口県",
    "prefecture_kana": "ヤマグチケン",
    "prefecture_code": 35,
    "city": "宇部市",
    "city_kana": "ウベシ",
    "town": "西宇部北",
    "town_kana": "ニシウベキタ",
    "street": null,
    "office_name": null,
    "office_name_kana": null
  },
  "0212": {
    "postcode": "7590212",
    "prefecture": "山口県",
    "prefecture_kana": "ヤマグチケン",
    "prefecture_code": 35,
    "city": "宇部市",
    "city_kana": "ウベシ",
    "town": "厚南中央",
    "town_kana": "コウナンチュウオウ",
    "street": null,
    "office_name": null,
    "office_name_kana": null
  },
  "0213": {
    "postcode": "7590213",
    "prefecture": "山口県",
    "prefecture_kana": "ヤマグチケン",
    "prefecture_code": 35,
    "city": "宇部市",
    "city_kana": "ウベシ",
    "town": "黒石北",
    "town_kana": "クロイシキタ",
    "street": null,
    "office_name": null,
    "office_name_kana": null
  },
  "0292": {
    "postcode": "7590292",
    "prefecture": "山口県",
    "prefecture_kana": "ヤマグチケン",
    "prefecture_code": 35,
    "city": "宇部市",
    "city_kana": "ウベシ",
    "town": "大字妻崎開作",
    "town_kana": null,
    "street": "８６０−１（宇部郵便局私書箱第１０１号）",
    "office_name": "常盤薬品　株式会社",
    "office_name_kana": "トキワヤクヒン カブシキガイシヤ"
  },
  "0293": {
    "postcode": "7590293",
    "prefecture": "山口県",
    "prefecture_kana": "ヤマグチケン",
    "prefecture_code": 35,
    "city": "宇部市",
    "city_kana": "ウベシ",
    "town": "大字際波字中開作",
    "town_kana": null,
    "street": "字中開作１３８０−４",
    "office_name": "山口銀行　西宇部支店",
    "office_name_kana": "ヤマグチギンコウ ニシウベシテン"
  },
  "0295": {
    "postcode": "7590295",
    "prefecture": "山口県",
    "prefecture_kana": "ヤマグチケン",
    "prefecture_code": 35,
    "city": "宇部市",
    "city_kana": "ウベシ",
    "town": "大字妻崎開作",
    "town_kana": null,
    "street": "８７４−１",
    "office_name": "宇部工業　株式会社",
    "office_name_kana": "ウベコウギヨウ カブシキガイシヤ"
  },
  "0297": {
    "postcode": "7590297",
    "prefecture": "山口県",
    "prefecture_kana": "ヤマグチケン",
    "prefecture_code": 35,
    "city": "宇部市",
    "city_kana": "ウベシ",
    "town": "厚南中央",
    "town_kana": "コウナンチュウオウ",
    "street": "二丁目１番１４号",
    "office_name": "新光産業　株式会社",
    "office_name_kana": "シンコウサンギヨウ カブシキガイシヤ"
  },
  "1231": {
    "postcode": "7591231",
    "prefecture": "山口県",
    "prefecture_kana": "ヤマグチケン",
    "prefecture_code": 35,
    "city": "山口市",
    "city_kana": "ヤマグチシ",
    "town": "阿東生雲東分",
    "town_kana": "アトウイクモヒガシブン",
    "street": null,
    "office_name": null,
    "office_name_kana": null
  },
  "1232": {
    "postcode": "7591232",
    "prefecture": "山口県",
    "prefecture_kana": "ヤマグチケン",
    "prefecture_code": 35,
    "city": "山口市",
    "city_kana": "ヤマグチシ",
    "town": "阿東篠目",
    "town_kana": "アトウシノメ",
    "street": null,
    "office_name": null,
    "office_name_kana": null
  },
  "1341": {
    "postcode": "7591341",
    "prefecture": "山口県",
    "prefecture_kana": "ヤマグチケン",
    "prefecture_code": 35,
    "city": "山口市",
    "city_kana": "ヤマグチシ",
    "town": "阿東生雲西分",
    "town_kana": "アトウイクモニシブン",
    "street": null,
    "office_name": null,
    "office_name_kana": null
  },
  "1342": {
    "postcode": "7591342",
    "prefecture": "山口県",
    "prefecture_kana": "ヤマグチケン",
    "prefecture_code": 35,
    "city": "山口市",
    "city_kana": "ヤマグチシ",
    "town": "阿東生雲中",
    "town_kana": "アトウイクモナカ",
    "street": null,
    "office_name": null,
    "office_name_kana": null
  },
  "1343": {
    "postcode": "7591343",
    "prefecture": "山口県",
    "prefecture_kana": "ヤマグチケン",
    "prefecture_code": 35,
    "city": "山口市",
    "city_kana": "ヤマグチシ",
    "town": "阿東蔵目喜",
    "town_kana": "アトウゾウメキ",
    "street": null,
    "office_name": null,
    "office_name_kana": null
  },
  "1421": {
    "postcode": "7591421",
    "prefecture": "山口県",
    "prefecture_kana": "ヤマグチケン",
    "prefecture_code": 35,
    "city": "山口市",
    "city_kana": "ヤマグチシ",
    "town": "阿東地福上",
    "town_kana": "アトウジフクカミ",
    "street": null,
    "office_name": null,
    "office_name_kana": null
  },
  "1422": {
    "postcode": "7591422",
    "prefecture": "山口県",
    "prefecture_kana": "ヤマグチケン",
    "prefecture_code": 35,
    "city": "山口市",
    "city_kana": "ヤマグチシ",
    "town": "阿東地福下",
    "town_kana": "アトウジフクシモ",
    "street": null,
    "office_name": null,
    "office_name_kana": null
  },
  "1511": {
    "postcode": "7591511",
    "prefecture": "山口県",
    "prefecture_kana": "ヤマグチケン",
    "prefecture_code": 35,
    "city": "山口市",
    "city_kana": "ヤマグチシ",
    "town": "阿東徳佐上",
    "town_kana": "アトウトクサカミ",
    "street": null,
    "office_name": null,
    "office_name_kana": null
  },
  "1512": {
    "postcode": "7591512",
    "prefecture": "山口県",
    "prefecture_kana": "ヤマグチケン",
    "prefecture_code": 35,
    "city": "山口市",
    "city_kana": "ヤマグチシ",
    "town": "阿東徳佐中",
    "town_kana": "アトウトクサナカ",
    "street": null,
    "office_name": null,
    "office_name_kana": null
  },
  "1513": {
    "postcode": "7591513",
    "prefecture": "山口県",
    "prefecture_kana": "ヤマグチケン",
    "prefecture_code": 35,
    "city": "山口市",
    "city_kana": "ヤマグチシ",
    "town": "阿東徳佐下",
    "town_kana": "アトウトクサシモ",
    "street": null,
    "office_name": null,
    "office_name_kana": null
  },
  "1601": {
    "postcode": "7591601",
    "prefecture": "山口県",
    "prefecture_kana": "ヤマグチケン",
    "prefecture_code": 35,
    "city": "山口市",
    "city_kana": "ヤマグチシ",
    "town": "阿東嘉年上",
    "town_kana": "アトウカネカミ",
    "street": null,
    "office_name": null,
    "office_name_kana": null
  },
  "1602": {
    "postcode": "7591602",
    "prefecture": "山口県",
    "prefecture_kana": "ヤマグチケン",
    "prefecture_code": 35,
    "city": "山口市",
    "city_kana": "ヤマグチシ",
    "town": "阿東嘉年下",
    "town_kana": "アトウカネシモ",
    "street": null,
    "office_name": null,
    "office_name_kana": null
  },
  "2131": {
    "postcode": "7592131",
    "prefecture": "山口県",
    "prefecture_kana": "ヤマグチケン",
    "prefecture_code": 35,
    "city": "美祢市",
    "city_kana": "ミネシ",
    "town": "伊佐町堀越",
    "town_kana": "イサチョウホリコシ",
    "street": null,
    "office_name": null,
    "office_name_kana": null
  },
  "2141": {
    "postcode": "7592141",
    "prefecture": "山口県",
    "prefecture_kana": "ヤマグチケン",
    "prefecture_code": 35,
    "city": "美祢市",
    "city_kana": "ミネシ",
    "town": "東厚保町山中",
    "town_kana": "ヒガシアツチョウヤマナカ",
    "street": null,
    "office_name": null,
    "office_name_kana": null
  },
  "2142": {
    "postcode": "7592142",
    "prefecture": "山口県",
    "prefecture_kana": "ヤマグチケン",
    "prefecture_code": 35,
    "city": "美祢市",
    "city_kana": "ミネシ",
    "town": "東厚保町川東",
    "town_kana": "ヒガシアツチョウカワヒガシ",
    "street": null,
    "office_name": null,
    "office_name_kana": null
  },
  "2151": {
    "postcode": "7592151",
    "prefecture": "山口県",
    "prefecture_kana": "ヤマグチケン",
    "prefecture_code": 35,
    "city": "美祢市",
    "city_kana": "ミネシ",
    "town": "西厚保町本郷",
    "town_kana": "ニシアツチョウホンゴウ",
    "street": null,
    "office_name": null,
    "office_name_kana": null
  },
  "2152": {
    "postcode": "7592152",
    "prefecture": "山口県",
    "prefecture_kana": "ヤマグチケン",
    "prefecture_code": 35,
    "city": "美祢市",
    "city_kana": "ミネシ",
    "town": "西厚保町原",
    "town_kana": "ニシアツチョウハラ",
    "street": null,
    "office_name": null,
    "office_name_kana": null
  },
  "2200": {
    "postcode": "7592200",
    "prefecture": "山口県",
    "prefecture_kana": "ヤマグチケン",
    "prefecture_code": 35,
    "city": "美祢市",
    "city_kana": "ミネシ",
    "town": "",
    "town_kana": "",
    "street": null,
    "office_name": null,
    "office_name_kana": null
  },
  "2211": {
    "postcode": "7592211",
    "prefecture": "山口県",
    "prefecture_kana": "ヤマグチケン",
    "prefecture_code": 35,
    "city": "美祢市",
    "city_kana": "ミネシ",
    "town": "大嶺町北分",
    "town_kana": "オオミネチョウキタブン",
    "street": null,
    "office_name": null,
    "office_name_kana": null
  },
  "2212": {
    "postcode": "7592212",
    "prefecture": "山口県",
    "prefecture_kana": "ヤマグチケン",
    "prefecture_code": 35,
    "city": "美祢市",
    "city_kana": "ミネシ",
    "town": "大嶺町東分",
    "town_kana": "オオミネチョウヒガシブン",
    "street": null,
    "office_name": null,
    "office_name_kana": null
  },
  "2213": {
    "postcode": "7592213",
    "prefecture": "山口県",
    "prefecture_kana": "ヤマグチケン",
    "prefecture_code": 35,
    "city": "美祢市",
    "city_kana": "ミネシ",
    "town": "大嶺町西分",
    "town_kana": "オオミネチョウニシブン",
    "street": null,
    "office_name": null,
    "office_name_kana": null
  },
  "2214": {
    "postcode": "7592214",
    "prefecture": "山口県",
    "prefecture_kana": "ヤマグチケン",
    "prefecture_code": 35,
    "city": "美祢市",
    "city_kana": "ミネシ",
    "town": "大嶺町奥分",
    "town_kana": "オオミネチョウオクブン",
    "street": null,
    "office_name": null,
    "office_name_kana": null
  },
  "2221": {
    "postcode": "7592221",
    "prefecture": "山口県",
    "prefecture_kana": "ヤマグチケン",
    "prefecture_code": 35,
    "city": "美祢市",
    "city_kana": "ミネシ",
    "town": "伊佐町河原",
    "town_kana": "イサチョウカワラ",
    "street": null,
    "office_name": null,
    "office_name_kana": null
  },
  "2222": {
    "postcode": "7592222",
    "prefecture": "山口県",
    "prefecture_kana": "ヤマグチケン",
    "prefecture_code": 35,
    "city": "美祢市",
    "city_kana": "ミネシ",
    "town": "伊佐町伊佐",
    "town_kana": "イサチョウイサ",
    "street": null,
    "office_name": null,
    "office_name_kana": null
  },
  "2223": {
    "postcode": "7592223",
    "prefecture": "山口県",
    "prefecture_kana": "ヤマグチケン",
    "prefecture_code": 35,
    "city": "美祢市",
    "city_kana": "ミネシ",
    "town": "伊佐町奥万倉",
    "town_kana": "イサチョウオクマグラ",
    "street": null,
    "office_name": null,
    "office_name_kana": null
  },
  "2292": {
    "postcode": "7592292",
    "prefecture": "山口県",
    "prefecture_kana": "ヤマグチケン",
    "prefecture_code": 35,
    "city": "美祢市",
    "city_kana": "ミネシ",
    "town": "大嶺町東分",
    "town_kana": "オオミネチョウヒガシブン",
    "street": "３２６−１",
    "office_name": "美祢市役所",
    "office_name_kana": "ミネシヤクシヨ"
  },
  "2301": [
    {
      "postcode": "7592301",
      "prefecture": "山口県",
      "prefecture_kana": "ヤマグチケン",
      "prefecture_code": 35,
      "city": "美祢市",
      "city_kana": "ミネシ",
      "town": "於福町上",
      "town_kana": "オフクチョウカミ",
      "street": null,
      "office_name": null,
      "office_name_kana": null
    },
    {
      "postcode": "7592301",
      "prefecture": "山口県",
      "prefecture_kana": "ヤマグチケン",
      "prefecture_code": 35,
      "city": "美祢市",
      "city_kana": "ミネシ",
      "town": "於福町上駅前",
      "town_kana": "オフクチョウカミエキマエ",
      "street": null,
      "office_name": null,
      "office_name_kana": null
    },
    {
      "postcode": "7592301",
      "prefecture": "山口県",
      "prefecture_kana": "ヤマグチケン",
      "prefecture_code": 35,
      "city": "美祢市",
      "city_kana": "ミネシ",
      "town": "於福町上岡田",
      "town_kana": "オフクチョウカミオカダ",
      "street": null,
      "office_name": null,
      "office_name_kana": null
    },
    {
      "postcode": "7592301",
      "prefecture": "山口県",
      "prefecture_kana": "ヤマグチケン",
      "prefecture_code": 35,
      "city": "美祢市",
      "city_kana": "ミネシ",
      "town": "於福町上上田代",
      "town_kana": "オフクチョウカミカミタシロ",
      "street": null,
      "office_name": null,
      "office_name_kana": null
    },
    {
      "postcode": "7592301",
      "prefecture": "山口県",
      "prefecture_kana": "ヤマグチケン",
      "prefecture_code": 35,
      "city": "美祢市",
      "city_kana": "ミネシ",
      "town": "於福町上栗ケ原",
      "town_kana": "オフクチョウカミクリガハラ",
      "street": null,
      "office_name": null,
      "office_name_kana": null
    },
    {
      "postcode": "7592301",
      "prefecture": "山口県",
      "prefecture_kana": "ヤマグチケン",
      "prefecture_code": 35,
      "city": "美祢市",
      "city_kana": "ミネシ",
      "town": "於福町上下田代",
      "town_kana": "オフクチョウカミシモタシロ",
      "street": null,
      "office_name": null,
      "office_name_kana": null
    },
    {
      "postcode": "7592301",
      "prefecture": "山口県",
      "prefecture_kana": "ヤマグチケン",
      "prefecture_code": 35,
      "city": "美祢市",
      "city_kana": "ミネシ",
      "town": "於福町上神柳",
      "town_kana": "オフクチョウカミシンリュウ",
      "street": null,
      "office_name": null,
      "office_name_kana": null
    },
    {
      "postcode": "7592301",
      "prefecture": "山口県",
      "prefecture_kana": "ヤマグチケン",
      "prefecture_code": 35,
      "city": "美祢市",
      "city_kana": "ミネシ",
      "town": "於福町上大明",
      "town_kana": "オフクチョウカミタイメイ",
      "street": null,
      "office_name": null,
      "office_name_kana": null
    },
    {
      "postcode": "7592301",
      "prefecture": "山口県",
      "prefecture_kana": "ヤマグチケン",
      "prefecture_code": 35,
      "city": "美祢市",
      "city_kana": "ミネシ",
      "town": "於福町上立石",
      "town_kana": "オフクチョウカミタテイシ",
      "street": null,
      "office_name": null,
      "office_name_kana": null
    },
    {
      "postcode": "7592301",
      "prefecture": "山口県",
      "prefecture_kana": "ヤマグチケン",
      "prefecture_code": 35,
      "city": "美祢市",
      "city_kana": "ミネシ",
      "town": "於福町上西寺",
      "town_kana": "オフクチョウカミニシデラ",
      "street": null,
      "office_name": null,
      "office_name_kana": null
    },
    {
      "postcode": "7592301",
      "prefecture": "山口県",
      "prefecture_kana": "ヤマグチケン",
      "prefecture_code": 35,
      "city": "美祢市",
      "city_kana": "ミネシ",
      "town": "於福町上平野",
      "town_kana": "オフクチョウカミヒラノ",
      "street": null,
      "office_name": null,
      "office_name_kana": null
    },
    {
      "postcode": "7592301",
      "prefecture": "山口県",
      "prefecture_kana": "ヤマグチケン",
      "prefecture_code": 35,
      "city": "美祢市",
      "city_kana": "ミネシ",
      "town": "於福町上古屋",
      "town_kana": "オフクチョウカミフルヤ",
      "street": null,
      "office_name": null,
      "office_name_kana": null
    },
    {
      "postcode": "7592301",
      "prefecture": "山口県",
      "prefecture_kana": "ヤマグチケン",
      "prefecture_code": 35,
      "city": "美祢市",
      "city_kana": "ミネシ",
      "town": "於福町上宗済",
      "town_kana": "オフクチョウカミムネズミ",
      "street": null,
      "office_name": null,
      "office_name_kana": null
    },
    {
      "postcode": "7592301",
      "prefecture": "山口県",
      "prefecture_kana": "ヤマグチケン",
      "prefecture_code": 35,
      "city": "美祢市",
      "city_kana": "ミネシ",
      "town": "於福町上横道",
      "town_kana": "オフクチョウカミヨコミチ",
      "street": null,
      "office_name": null,
      "office_name_kana": null
    },
    {
      "postcode": "7592301",
      "prefecture": "山口県",
      "prefecture_kana": "ヤマグチケン",
      "prefecture_code": 35,
      "city": "美祢市",
      "city_kana": "ミネシ",
      "town": "於福町上竜現地",
      "town_kana": "オフクチョウカミリュウゲンジ",
      "street": null,
      "office_name": null,
      "office_name_kana": null
    }
  ],
  "2302": [
    {
      "postcode": "7592302",
      "prefecture": "山口県",
      "prefecture_kana": "ヤマグチケン",
      "prefecture_code": 35,
      "city": "美祢市",
      "city_kana": "ミネシ",
      "town": "於福町下",
      "town_kana": "オフクチョウシモ",
      "street": null,
      "office_name": null,
      "office_name_kana": null
    },
    {
      "postcode": "7592302",
      "prefecture": "山口県",
      "prefecture_kana": "ヤマグチケン",
      "prefecture_code": 35,
      "city": "美祢市",
      "city_kana": "ミネシ",
      "town": "於福町下入水",
      "town_kana": "オフクチョウシモイリミズ",
      "street": null,
      "office_name": null,
      "office_name_kana": null
    },
    {
      "postcode": "7592302",
      "prefecture": "山口県",
      "prefecture_kana": "ヤマグチケン",
      "prefecture_code": 35,
      "city": "美祢市",
      "city_kana": "ミネシ",
      "town": "於福町下榎田",
      "town_kana": "オフクチョウシモエノキダ",
      "street": null,
      "office_name": null,
      "office_name_kana": null
    },
    {
      "postcode": "7592302",
      "prefecture": "山口県",
      "prefecture_kana": "ヤマグチケン",
      "prefecture_code": 35,
      "city": "美祢市",
      "city_kana": "ミネシ",
      "town": "於福町下金山",
      "town_kana": "オフクチョウシモカネヤマ",
      "street": null,
      "office_name": null,
      "office_name_kana": null
    },
    {
      "postcode": "7592302",
      "prefecture": "山口県",
      "prefecture_kana": "ヤマグチケン",
      "prefecture_code": 35,
      "city": "美祢市",
      "city_kana": "ミネシ",
      "town": "於福町下小杉",
      "town_kana": "オフクチョウシモコスギ",
      "street": null,
      "office_name": null,
      "office_name_kana": null
    },
    {
      "postcode": "7592302",
      "prefecture": "山口県",
      "prefecture_kana": "ヤマグチケン",
      "prefecture_code": 35,
      "city": "美祢市",
      "city_kana": "ミネシ",
      "town": "於福町下砂地",
      "town_kana": "オフクチョウシモスナジ",
      "street": null,
      "office_name": null,
      "office_name_kana": null
    },
    {
      "postcode": "7592302",
      "prefecture": "山口県",
      "prefecture_kana": "ヤマグチケン",
      "prefecture_code": 35,
      "city": "美祢市",
      "city_kana": "ミネシ",
      "town": "於福町下台",
      "town_kana": "オフクチョウシモダイ",
      "street": null,
      "office_name": null,
      "office_name_kana": null
    },
    {
      "postcode": "7592302",
      "prefecture": "山口県",
      "prefecture_kana": "ヤマグチケン",
      "prefecture_code": 35,
      "city": "美祢市",
      "city_kana": "ミネシ",
      "town": "於福町下西畑",
      "town_kana": "オフクチョウシモニシバタ",
      "street": null,
      "office_name": null,
      "office_name_kana": null
    },
    {
      "postcode": "7592302",
      "prefecture": "山口県",
      "prefecture_kana": "ヤマグチケン",
      "prefecture_code": 35,
      "city": "美祢市",
      "city_kana": "ミネシ",
      "town": "於福町下萩原",
      "town_kana": "オフクチョウシモハギワラ",
      "street": null,
      "office_name": null,
      "office_name_kana": null
    },
    {
      "postcode": "7592302",
      "prefecture": "山口県",
      "prefecture_kana": "ヤマグチケン",
      "prefecture_code": 35,
      "city": "美祢市",
      "city_kana": "ミネシ",
      "town": "於福町下東中村",
      "town_kana": "オフクチョウシモヒガシナカムラ",
      "street": null,
      "office_name": null,
      "office_name_kana": null
    },
    {
      "postcode": "7592302",
      "prefecture": "山口県",
      "prefecture_kana": "ヤマグチケン",
      "prefecture_code": 35,
      "city": "美祢市",
      "city_kana": "ミネシ",
      "town": "於福町下平国木",
      "town_kana": "オフクチョウシモヒラクニギ",
      "street": null,
      "office_name": null,
      "office_name_kana": null
    },
    {
      "postcode": "7592302",
      "prefecture": "山口県",
      "prefecture_kana": "ヤマグチケン",
      "prefecture_code": 35,
      "city": "美祢市",
      "city_kana": "ミネシ",
      "town": "於福町下緑ケ丘",
      "town_kana": "オフクチョウシモミドリガオカ",
      "street": null,
      "office_name": null,
      "office_name_kana": null
    },
    {
      "postcode": "7592302",
      "prefecture": "山口県",
      "prefecture_kana": "ヤマグチケン",
      "prefecture_code": 35,
      "city": "美祢市",
      "city_kana": "ミネシ",
      "town": "於福町下宮の前",
      "town_kana": "オフクチョウシモミヤノマエ",
      "street": null,
      "office_name": null,
      "office_name_kana": null
    }
  ],
  "3111": {
    "postcode": "7593111",
    "prefecture": "山口県",
    "prefecture_kana": "ヤマグチケン",
    "prefecture_code": 35,
    "city": "萩市",
    "city_kana": "ハギシ",
    "town": "上田万",
    "town_kana": "カミタマ",
    "street": null,
    "office_name": null,
    "office_name_kana": null
  },
  "3112": {
    "postcode": "7593112",
    "prefecture": "山口県",
    "prefecture_kana": "ヤマグチケン",
    "prefecture_code": 35,
    "city": "萩市",
    "city_kana": "ハギシ",
    "town": "下田万",
    "town_kana": "シモタマ",
    "street": null,
    "office_name": null,
    "office_name_kana": null
  },
  "3113": {
    "postcode": "7593113",
    "prefecture": "山口県",
    "prefecture_kana": "ヤマグチケン",
    "prefecture_code": 35,
    "city": "萩市",
    "city_kana": "ハギシ",
    "town": "江崎",
    "town_kana": "エサキ",
    "street": null,
    "office_name": null,
    "office_name_kana": null
  },
  "3201": {
    "postcode": "7593201",
    "prefecture": "山口県",
    "prefecture_kana": "ヤマグチケン",
    "prefecture_code": 35,
    "city": "萩市",
    "city_kana": "ハギシ",
    "town": "上小川西分",
    "town_kana": "カミオガワニシブン",
    "street": null,
    "office_name": null,
    "office_name_kana": null
  },
  "3202": {
    "postcode": "7593202",
    "prefecture": "山口県",
    "prefecture_kana": "ヤマグチケン",
    "prefecture_code": 35,
    "city": "萩市",
    "city_kana": "ハギシ",
    "town": "上小川東分",
    "town_kana": "カミオガワヒガシブン",
    "street": null,
    "office_name": null,
    "office_name_kana": null
  },
  "3203": {
    "postcode": "7593203",
    "prefecture": "山口県",
    "prefecture_kana": "ヤマグチケン",
    "prefecture_code": 35,
    "city": "萩市",
    "city_kana": "ハギシ",
    "town": "中小川",
    "town_kana": "ナカオガワ",
    "street": null,
    "office_name": null,
    "office_name_kana": null
  },
  "3204": {
    "postcode": "7593204",
    "prefecture": "山口県",
    "prefecture_kana": "ヤマグチケン",
    "prefecture_code": 35,
    "city": "萩市",
    "city_kana": "ハギシ",
    "town": "下小川",
    "town_kana": "シモオガワ",
    "street": null,
    "office_name": null,
    "office_name_kana": null
  },
  "3301": {
    "postcode": "7593301",
    "prefecture": "山口県",
    "prefecture_kana": "ヤマグチケン",
    "prefecture_code": 35,
    "city": "萩市",
    "city_kana": "ハギシ",
    "town": "弥富上",
    "town_kana": "ヤドミカミ",
    "street": null,
    "office_name": null,
    "office_name_kana": null
  },
  "3302": {
    "postcode": "7593302",
    "prefecture": "山口県",
    "prefecture_kana": "ヤマグチケン",
    "prefecture_code": 35,
    "city": "萩市",
    "city_kana": "ハギシ",
    "town": "弥富下",
    "town_kana": "ヤドミシモ",
    "street": null,
    "office_name": null,
    "office_name_kana": null
  },
  "3303": {
    "postcode": "7593303",
    "prefecture": "山口県",
    "prefecture_kana": "ヤマグチケン",
    "prefecture_code": 35,
    "city": "萩市",
    "city_kana": "ハギシ",
    "town": "鈴野川",
    "town_kana": "スズノガワ",
    "street": null,
    "office_name": null,
    "office_name_kana": null
  },
  "3411": {
    "postcode": "7593411",
    "prefecture": "山口県",
    "prefecture_kana": "ヤマグチケン",
    "prefecture_code": 35,
    "city": "萩市",
    "city_kana": "ハギシ",
    "town": "須佐",
    "town_kana": "スサ",
    "street": null,
    "office_name": null,
    "office_name_kana": null
  },
  "3501": {
    "postcode": "7593501",
    "prefecture": "山口県",
    "prefecture_kana": "ヤマグチケン",
    "prefecture_code": 35,
    "city": "阿武郡阿武町",
    "city_kana": "アブグンアブチョウ",
    "town": "宇田",
    "town_kana": "ウタ",
    "street": null,
    "office_name": null,
    "office_name_kana": null
  },
  "3502": {
    "postcode": "7593502",
    "prefecture": "山口県",
    "prefecture_kana": "ヤマグチケン",
    "prefecture_code": 35,
    "city": "阿武郡阿武町",
    "city_kana": "アブグンアブチョウ",
    "town": "惣郷",
    "town_kana": "ソウゴウ",
    "street": null,
    "office_name": null,
    "office_name_kana": null
  },
  "3600": {
    "postcode": "7593600",
    "prefecture": "山口県",
    "prefecture_kana": "ヤマグチケン",
    "prefecture_code": 35,
    "city": "阿武郡阿武町",
    "city_kana": "アブグンアブチョウ",
    "town": "",
    "town_kana": "",
    "street": null,
    "office_name": null,
    "office_name_kana": null
  },
  "3611": {
    "postcode": "7593611",
    "prefecture": "山口県",
    "prefecture_kana": "ヤマグチケン",
    "prefecture_code": 35,
    "city": "萩市",
    "city_kana": "ハギシ",
    "town": "大井",
    "town_kana": "オオイ",
    "street": null,
    "office_name": null,
    "office_name_kana": null
  },
  "3621": {
    "postcode": "7593621",
    "prefecture": "山口県",
    "prefecture_kana": "ヤマグチケン",
    "prefecture_code": 35,
    "city": "阿武郡阿武町",
    "city_kana": "アブグンアブチョウ",
    "town": "木与",
    "town_kana": "キヨ",
    "street": null,
    "office_name": null,
    "office_name_kana": null
  },
  "3622": {
    "postcode": "7593622",
    "prefecture": "山口県",
    "prefecture_kana": "ヤマグチケン",
    "prefecture_code": 35,
    "city": "阿武郡阿武町",
    "city_kana": "アブグンアブチョウ",
    "town": "奈古",
    "town_kana": "ナゴ",
    "street": null,
    "office_name": null,
    "office_name_kana": null
  },
  "3721": {
    "postcode": "7593721",
    "prefecture": "山口県",
    "prefecture_kana": "ヤマグチケン",
    "prefecture_code": 35,
    "city": "萩市",
    "city_kana": "ハギシ",
    "town": "三見",
    "town_kana": "サンミ",
    "street": null,
    "office_name": null,
    "office_name_kana": null
  },
  "3801": {
    "postcode": "7593801",
    "prefecture": "山口県",
    "prefecture_kana": "ヤマグチケン",
    "prefecture_code": 35,
    "city": "長門市",
    "city_kana": "ナガトシ",
    "town": "三隅上",
    "town_kana": "ミスミカミ",
    "street": null,
    "office_name": null,
    "office_name_kana": null
  },
  "3802": {
    "postcode": "7593802",
    "prefecture": "山口県",
    "prefecture_kana": "ヤマグチケン",
    "prefecture_code": 35,
    "city": "長門市",
    "city_kana": "ナガトシ",
    "town": "三隅中",
    "town_kana": "ミスミナカ",
    "street": null,
    "office_name": null,
    "office_name_kana": null
  },
  "3803": {
    "postcode": "7593803",
    "prefecture": "山口県",
    "prefecture_kana": "ヤマグチケン",
    "prefecture_code": 35,
    "city": "長門市",
    "city_kana": "ナガトシ",
    "town": "三隅下",
    "town_kana": "ミスミシモ",
    "street": null,
    "office_name": null,
    "office_name_kana": null
  },
  "4100": {
    "postcode": "7594100",
    "prefecture": "山口県",
    "prefecture_kana": "ヤマグチケン",
    "prefecture_code": 35,
    "city": "長門市",
    "city_kana": "ナガトシ",
    "town": "",
    "town_kana": "",
    "street": null,
    "office_name": null,
    "office_name_kana": null
  },
  "4101": {
    "postcode": "7594101",
    "prefecture": "山口県",
    "prefecture_kana": "ヤマグチケン",
    "prefecture_code": 35,
    "city": "長門市",
    "city_kana": "ナガトシ",
    "town": "東深川",
    "town_kana": "ヒガシフカワ",
    "street": null,
    "office_name": null,
    "office_name_kana": null
  },
  "4102": {
    "postcode": "7594102",
    "prefecture": "山口県",
    "prefecture_kana": "ヤマグチケン",
    "prefecture_code": 35,
    "city": "長門市",
    "city_kana": "ナガトシ",
    "town": "西深川",
    "town_kana": "ニシフカワ",
    "street": null,
    "office_name": null,
    "office_name_kana": null
  },
  "4103": {
    "postcode": "7594103",
    "prefecture": "山口県",
    "prefecture_kana": "ヤマグチケン",
    "prefecture_code": 35,
    "city": "長門市",
    "city_kana": "ナガトシ",
    "town": "深川湯本",
    "town_kana": "フカワユモト",
    "street": null,
    "office_name": null,
    "office_name_kana": null
  },
  "4104": {
    "postcode": "7594104",
    "prefecture": "山口県",
    "prefecture_kana": "ヤマグチケン",
    "prefecture_code": 35,
    "city": "長門市",
    "city_kana": "ナガトシ",
    "town": "渋木",
    "town_kana": "シブキ",
    "street": null,
    "office_name": null,
    "office_name_kana": null
  },
  "4105": {
    "postcode": "7594105",
    "prefecture": "山口県",
    "prefecture_kana": "ヤマグチケン",
    "prefecture_code": 35,
    "city": "長門市",
    "city_kana": "ナガトシ",
    "town": "真木",
    "town_kana": "マキ",
    "street": null,
    "office_name": null,
    "office_name_kana": null
  },
  "4106": {
    "postcode": "7594106",
    "prefecture": "山口県",
    "prefecture_kana": "ヤマグチケン",
    "prefecture_code": 35,
    "city": "長門市",
    "city_kana": "ナガトシ",
    "town": "仙崎",
    "town_kana": "センザキ",
    "street": null,
    "office_name": null,
    "office_name_kana": null
  },
  "4107": {
    "postcode": "7594107",
    "prefecture": "山口県",
    "prefecture_kana": "ヤマグチケン",
    "prefecture_code": 35,
    "city": "長門市",
    "city_kana": "ナガトシ",
    "town": "通",
    "town_kana": "カヨイ",
    "street": null,
    "office_name": null,
    "office_name_kana": null
  },
  "4192": {
    "postcode": "7594192",
    "prefecture": "山口県",
    "prefecture_kana": "ヤマグチケン",
    "prefecture_code": 35,
    "city": "長門市",
    "city_kana": "ナガトシ",
    "town": "東深川",
    "town_kana": "ヒガシフカワ",
    "street": "１３３９−２",
    "office_name": "長門市役所",
    "office_name_kana": "ナガトシヤクシヨ"
  },
  "4194": {
    "postcode": "7594194",
    "prefecture": "山口県",
    "prefecture_kana": "ヤマグチケン",
    "prefecture_code": 35,
    "city": "長門市",
    "city_kana": "ナガトシ",
    "town": "東深川",
    "town_kana": "ヒガシフカワ",
    "street": "８５",
    "office_name": "山口県厚生農業　協同組合　連合会　長門総合病院",
    "office_name_kana": "ヤマグチケンコウセイノウギヨウ キヨウドウクミアイ レンゴウカイ ナガトソウゴウビヨウイン"
  },
  "4196": {
    "postcode": "7594196",
    "prefecture": "山口県",
    "prefecture_kana": "ヤマグチケン",
    "prefecture_code": 35,
    "city": "長門市",
    "city_kana": "ナガトシ",
    "town": "仙崎",
    "town_kana": "センザキ",
    "street": "字網田３２２−２",
    "office_name": "株式会社　フジ　長門店",
    "office_name_kana": "カブシキガイシヤ フジ ナガトテン"
  },
  "4198": {
    "postcode": "7594198",
    "prefecture": "山口県",
    "prefecture_kana": "ヤマグチケン",
    "prefecture_code": 35,
    "city": "長門市",
    "city_kana": "ナガトシ",
    "town": "東深川",
    "town_kana": "ヒガシフカワ",
    "street": "８０３−８",
    "office_name": "有限会社　まるみストアー",
    "office_name_kana": "ユウゲンガイシヤ マルミストア-"
  },
  "4211": {
    "postcode": "7594211",
    "prefecture": "山口県",
    "prefecture_kana": "ヤマグチケン",
    "prefecture_code": 35,
    "city": "長門市",
    "city_kana": "ナガトシ",
    "town": "俵山",
    "town_kana": "タワラヤマ",
    "street": null,
    "office_name": null,
    "office_name_kana": null
  },
  "4401": {
    "postcode": "7594401",
    "prefecture": "山口県",
    "prefecture_kana": "ヤマグチケン",
    "prefecture_code": 35,
    "city": "長門市",
    "city_kana": "ナガトシ",
    "town": "日置上",
    "town_kana": "ヘキカミ",
    "street": null,
    "office_name": null,
    "office_name_kana": null
  },
  "4402": {
    "postcode": "7594402",
    "prefecture": "山口県",
    "prefecture_kana": "ヤマグチケン",
    "prefecture_code": 35,
    "city": "長門市",
    "city_kana": "ナガトシ",
    "town": "日置中",
    "town_kana": "ヘキナカ",
    "street": null,
    "office_name": null,
    "office_name_kana": null
  },
  "4403": {
    "postcode": "7594403",
    "prefecture": "山口県",
    "prefecture_kana": "ヤマグチケン",
    "prefecture_code": 35,
    "city": "長門市",
    "city_kana": "ナガトシ",
    "town": "日置下",
    "town_kana": "ヘキシモ",
    "street": null,
    "office_name": null,
    "office_name_kana": null
  },
  "4404": {
    "postcode": "7594404",
    "prefecture": "山口県",
    "prefecture_kana": "ヤマグチケン",
    "prefecture_code": 35,
    "city": "長門市",
    "city_kana": "ナガトシ",
    "town": "日置野田",
    "town_kana": "ヘキノダ",
    "street": null,
    "office_name": null,
    "office_name_kana": null
  },
  "4405": {
    "postcode": "7594405",
    "prefecture": "山口県",
    "prefecture_kana": "ヤマグチケン",
    "prefecture_code": 35,
    "city": "長門市",
    "city_kana": "ナガトシ",
    "town": "日置蔵小田",
    "town_kana": "ヘキクラオダ",
    "street": null,
    "office_name": null,
    "office_name_kana": null
  },
  "4501": {
    "postcode": "7594501",
    "prefecture": "山口県",
    "prefecture_kana": "ヤマグチケン",
    "prefecture_code": 35,
    "city": "長門市",
    "city_kana": "ナガトシ",
    "town": "油谷蔵小田",
    "town_kana": "ユヤクラオダ",
    "street": null,
    "office_name": null,
    "office_name_kana": null
  },
  "4502": {
    "postcode": "7594502",
    "prefecture": "山口県",
    "prefecture_kana": "ヤマグチケン",
    "prefecture_code": 35,
    "city": "長門市",
    "city_kana": "ナガトシ",
    "town": "油谷久富",
    "town_kana": "ユヤヒサドミ",
    "street": null,
    "office_name": null,
    "office_name_kana": null
  },
  "4503": {
    "postcode": "7594503",
    "prefecture": "山口県",
    "prefecture_kana": "ヤマグチケン",
    "prefecture_code": 35,
    "city": "長門市",
    "city_kana": "ナガトシ",
    "town": "油谷新別名",
    "town_kana": "ユヤシンベツミョウ",
    "street": null,
    "office_name": null,
    "office_name_kana": null
  },
  "4504": {
    "postcode": "7594504",
    "prefecture": "山口県",
    "prefecture_kana": "ヤマグチケン",
    "prefecture_code": 35,
    "city": "長門市",
    "city_kana": "ナガトシ",
    "town": "油谷河原",
    "town_kana": "ユヤカワラ",
    "street": null,
    "office_name": null,
    "office_name_kana": null
  },
  "4505": {
    "postcode": "7594505",
    "prefecture": "山口県",
    "prefecture_kana": "ヤマグチケン",
    "prefecture_code": 35,
    "city": "長門市",
    "city_kana": "ナガトシ",
    "town": "油谷伊上",
    "town_kana": "ユヤイガミ",
    "street": null,
    "office_name": null,
    "office_name_kana": null
  },
  "4621": {
    "postcode": "7594621",
    "prefecture": "山口県",
    "prefecture_kana": "ヤマグチケン",
    "prefecture_code": 35,
    "city": "長門市",
    "city_kana": "ナガトシ",
    "town": "油谷川尻",
    "town_kana": "ユヤカワシリ",
    "street": null,
    "office_name": null,
    "office_name_kana": null
  },
  "4622": {
    "postcode": "7594622",
    "prefecture": "山口県",
    "prefecture_kana": "ヤマグチケン",
    "prefecture_code": 35,
    "city": "長門市",
    "city_kana": "ナガトシ",
    "town": "油谷向津具上",
    "town_kana": "ユヤムカツクカミ",
    "street": null,
    "office_name": null,
    "office_name_kana": null
  },
  "4623": [
    {
      "postcode": "7594623",
      "prefecture": "山口県",
      "prefecture_kana": "ヤマグチケン",
      "prefecture_code": 35,
      "city": "長門市",
      "city_kana": "ナガトシ",
      "town": "油谷向津具下",
      "town_kana": "ユヤムカツクシモ",
      "street": null,
      "office_name": null,
      "office_name_kana": null
    },
    {
      "postcode": "7594623",
      "prefecture": "山口県",
      "prefecture_kana": "ヤマグチケン",
      "prefecture_code": 35,
      "city": "長門市",
      "city_kana": "ナガトシ",
      "town": "油谷向津具下",
      "town_kana": "ユヤムカツクシモ",
      "street": null,
      "office_name": null,
      "office_name_kana": null
    },
    {
      "postcode": "7594623",
      "prefecture": "山口県",
      "prefecture_kana": "ヤマグチケン",
      "prefecture_code": 35,
      "city": "長門市",
      "city_kana": "ナガトシ",
      "town": "油谷向津具下大浦",
      "town_kana": "ユヤムカツクシモオオウラ",
      "street": null,
      "office_name": null,
      "office_name_kana": null
    },
    {
      "postcode": "7594623",
      "prefecture": "山口県",
      "prefecture_kana": "ヤマグチケン",
      "prefecture_code": 35,
      "city": "長門市",
      "city_kana": "ナガトシ",
      "town": "油谷向津具下久津",
      "town_kana": "ユヤムカツクシモクヅ",
      "street": null,
      "office_name": null,
      "office_name_kana": null
    }
  ],
  "4711": {
    "postcode": "7594711",
    "prefecture": "山口県",
    "prefecture_kana": "ヤマグチケン",
    "prefecture_code": 35,
    "city": "長門市",
    "city_kana": "ナガトシ",
    "town": "油谷後畑",
    "town_kana": "ユヤウシロバタ",
    "street": null,
    "office_name": null,
    "office_name_kana": null
  },
  "4712": {
    "postcode": "7594712",
    "prefecture": "山口県",
    "prefecture_kana": "ヤマグチケン",
    "prefecture_code": 35,
    "city": "長門市",
    "city_kana": "ナガトシ",
    "town": "油谷津黄",
    "town_kana": "ユヤツオウ",
    "street": null,
    "office_name": null,
    "office_name_kana": null
  },
  "4713": {
    "postcode": "7594713",
    "prefecture": "山口県",
    "prefecture_kana": "ヤマグチケン",
    "prefecture_code": 35,
    "city": "長門市",
    "city_kana": "ナガトシ",
    "town": "油谷角山",
    "town_kana": "ユヤカドヤマ",
    "street": null,
    "office_name": null,
    "office_name_kana": null
  },
  "5101": {
    "postcode": "7595101",
    "prefecture": "山口県",
    "prefecture_kana": "ヤマグチケン",
    "prefecture_code": 35,
    "city": "下関市",
    "city_kana": "シモノセキシ",
    "town": "豊北町粟野",
    "town_kana": "ホウホクチョウアワノ",
    "street": null,
    "office_name": null,
    "office_name_kana": null
  },
  "5241": {
    "postcode": "7595241",
    "prefecture": "山口県",
    "prefecture_kana": "ヤマグチケン",
    "prefecture_code": 35,
    "city": "下関市",
    "city_kana": "シモノセキシ",
    "town": "豊北町阿川",
    "town_kana": "ホウホクチョウアガワ",
    "street": null,
    "office_name": null,
    "office_name_kana": null
  },
  "5331": {
    "postcode": "7595331",
    "prefecture": "山口県",
    "prefecture_kana": "ヤマグチケン",
    "prefecture_code": 35,
    "city": "下関市",
    "city_kana": "シモノセキシ",
    "town": "豊北町神田",
    "town_kana": "ホウホクチョウカンダ",
    "street": null,
    "office_name": null,
    "office_name_kana": null
  },
  "5332": {
    "postcode": "7595332",
    "prefecture": "山口県",
    "prefecture_kana": "ヤマグチケン",
    "prefecture_code": 35,
    "city": "下関市",
    "city_kana": "シモノセキシ",
    "town": "豊北町角島",
    "town_kana": "ホウホクチョウツノシマ",
    "street": null,
    "office_name": null,
    "office_name_kana": null
  },
  "5511": {
    "postcode": "7595511",
    "prefecture": "山口県",
    "prefecture_kana": "ヤマグチケン",
    "prefecture_code": 35,
    "city": "下関市",
    "city_kana": "シモノセキシ",
    "town": "豊北町滝部",
    "town_kana": "ホウホクチョウタキベ",
    "street": null,
    "office_name": null,
    "office_name_kana": null
  },
  "5512": {
    "postcode": "7595512",
    "prefecture": "山口県",
    "prefecture_kana": "ヤマグチケン",
    "prefecture_code": 35,
    "city": "下関市",
    "city_kana": "シモノセキシ",
    "town": "豊北町田耕",
    "town_kana": "ホウホクチョウタスキ",
    "street": null,
    "office_name": null,
    "office_name_kana": null
  },
  "5513": [
    {
      "postcode": "7595513",
      "prefecture": "山口県",
      "prefecture_kana": "ヤマグチケン",
      "prefecture_code": 35,
      "city": "下関市",
      "city_kana": "シモノセキシ",
      "town": "豊北町神田上",
      "town_kana": "ホウホクチョウカンダカミ",
      "street": null,
      "office_name": null,
      "office_name_kana": null
    },
    {
      "postcode": "7595513",
      "prefecture": "山口県",
      "prefecture_kana": "ヤマグチケン",
      "prefecture_code": 35,
      "city": "下関市",
      "city_kana": "シモノセキシ",
      "town": "豊北町北宇賀",
      "town_kana": "ホウホクチョウキタウカ",
      "street": null,
      "office_name": null,
      "office_name_kana": null
    }
  ],
  "5592": {
    "postcode": "7595592",
    "prefecture": "山口県",
    "prefecture_kana": "ヤマグチケン",
    "prefecture_code": 35,
    "city": "下関市",
    "city_kana": "シモノセキシ",
    "town": "豊北町",
    "town_kana": null,
    "street": "大字滝部３１４０−１",
    "office_name": "下関市役所　豊北総合支所",
    "office_name_kana": "シモノセキシヤクシヨ ホウホクソウゴウシシヨ"
  },
  "6121": {
    "postcode": "7596121",
    "prefecture": "山口県",
    "prefecture_kana": "ヤマグチケン",
    "prefecture_code": 35,
    "city": "下関市",
    "city_kana": "シモノセキシ",
    "town": "豊北町神田上",
    "town_kana": "ホウホクチョウカンダカミ",
    "street": null,
    "office_name": null,
    "office_name_kana": null
  },
  "6122": {
    "postcode": "7596122",
    "prefecture": "山口県",
    "prefecture_kana": "ヤマグチケン",
    "prefecture_code": 35,
    "city": "下関市",
    "city_kana": "シモノセキシ",
    "town": "豊北町矢玉",
    "town_kana": "ホウホクチョウヤタマ",
    "street": null,
    "office_name": null,
    "office_name_kana": null
  },
  "6301": {
    "postcode": "7596301",
    "prefecture": "山口県",
    "prefecture_kana": "ヤマグチケン",
    "prefecture_code": 35,
    "city": "下関市",
    "city_kana": "シモノセキシ",
    "town": "豊浦町川棚",
    "town_kana": "トヨウラチョウカワタナ",
    "street": null,
    "office_name": null,
    "office_name_kana": null
  },
  "6302": {
    "postcode": "7596302",
    "prefecture": "山口県",
    "prefecture_kana": "ヤマグチケン",
    "prefecture_code": 35,
    "city": "下関市",
    "city_kana": "シモノセキシ",
    "town": "豊浦町小串",
    "town_kana": "トヨウラチョウコグシ",
    "street": null,
    "office_name": null,
    "office_name_kana": null
  },
  "6303": {
    "postcode": "7596303",
    "prefecture": "山口県",
    "prefecture_kana": "ヤマグチケン",
    "prefecture_code": 35,
    "city": "下関市",
    "city_kana": "シモノセキシ",
    "town": "豊浦町宇賀",
    "town_kana": "トヨウラチョウウカ",
    "street": null,
    "office_name": null,
    "office_name_kana": null
  },
  "6311": {
    "postcode": "7596311",
    "prefecture": "山口県",
    "prefecture_kana": "ヤマグチケン",
    "prefecture_code": 35,
    "city": "下関市",
    "city_kana": "シモノセキシ",
    "town": "豊浦町吉永",
    "town_kana": "トヨウラチョウヨシナガ",
    "street": null,
    "office_name": null,
    "office_name_kana": null
  },
  "6312": {
    "postcode": "7596312",
    "prefecture": "山口県",
    "prefecture_kana": "ヤマグチケン",
    "prefecture_code": 35,
    "city": "下関市",
    "city_kana": "シモノセキシ",
    "town": "豊浦町黒井",
    "town_kana": "トヨウラチョウクロイ",
    "street": null,
    "office_name": null,
    "office_name_kana": null
  },
  "6313": [
    {
      "postcode": "7596313",
      "prefecture": "山口県",
      "prefecture_kana": "ヤマグチケン",
      "prefecture_code": 35,
      "city": "下関市",
      "city_kana": "シモノセキシ",
      "town": "豊浦町豊洋台",
      "town_kana": "トヨウラチョウホウヨウダイ",
      "street": null,
      "office_name": null,
      "office_name_kana": null
    },
    {
      "postcode": "7596313",
      "prefecture": "山口県",
      "prefecture_kana": "ヤマグチケン",
      "prefecture_code": 35,
      "city": "下関市",
      "city_kana": "シモノセキシ",
      "town": "豊浦町豊洋台新町",
      "town_kana": "トヨウラチョウホウヨウダイシンマチ",
      "street": null,
      "office_name": null,
      "office_name_kana": null
    }
  ],
  "6314": {
    "postcode": "7596314",
    "prefecture": "山口県",
    "prefecture_kana": "ヤマグチケン",
    "prefecture_code": 35,
    "city": "下関市",
    "city_kana": "シモノセキシ",
    "town": "豊浦町厚母郷",
    "town_kana": "トヨウラチョウアツモゴウ",
    "street": null,
    "office_name": null,
    "office_name_kana": null
  },
  "6315": {
    "postcode": "7596315",
    "prefecture": "山口県",
    "prefecture_kana": "ヤマグチケン",
    "prefecture_code": 35,
    "city": "下関市",
    "city_kana": "シモノセキシ",
    "town": "豊浦町室津上",
    "town_kana": "トヨウラチョウムロツカミ",
    "street": null,
    "office_name": null,
    "office_name_kana": null
  },
  "6316": {
    "postcode": "7596316",
    "prefecture": "山口県",
    "prefecture_kana": "ヤマグチケン",
    "prefecture_code": 35,
    "city": "下関市",
    "city_kana": "シモノセキシ",
    "town": "豊浦町室津下",
    "town_kana": "トヨウラチョウムロツシモ",
    "street": null,
    "office_name": null,
    "office_name_kana": null
  },
  "6317": {
    "postcode": "7596317",
    "prefecture": "山口県",
    "prefecture_kana": "ヤマグチケン",
    "prefecture_code": 35,
    "city": "下関市",
    "city_kana": "シモノセキシ",
    "town": "豊浦町涌田後地",
    "town_kana": "トヨウラチョウワイタウシロジ",
    "street": null,
    "office_name": null,
    "office_name_kana": null
  },
  "6521": {
    "postcode": "7596521",
    "prefecture": "山口県",
    "prefecture_kana": "ヤマグチケン",
    "prefecture_code": 35,
    "city": "下関市",
    "city_kana": "シモノセキシ",
    "town": "吉見古宿町",
    "town_kana": "ヨシミコジュクチョウ",
    "street": null,
    "office_name": null,
    "office_name_kana": null
  },
  "6522": {
    "postcode": "7596522",
    "prefecture": "山口県",
    "prefecture_kana": "ヤマグチケン",
    "prefecture_code": 35,
    "city": "下関市",
    "city_kana": "シモノセキシ",
    "town": "吉見竜王町",
    "town_kana": "ヨシミリュウオウチョウ",
    "street": null,
    "office_name": null,
    "office_name_kana": null
  },
  "6523": {
    "postcode": "7596523",
    "prefecture": "山口県",
    "prefecture_kana": "ヤマグチケン",
    "prefecture_code": 35,
    "city": "下関市",
    "city_kana": "シモノセキシ",
    "town": "吉見下",
    "town_kana": "ヨシミシモ",
    "street": null,
    "office_name": null,
    "office_name_kana": null
  },
  "6524": {
    "postcode": "7596524",
    "prefecture": "山口県",
    "prefecture_kana": "ヤマグチケン",
    "prefecture_code": 35,
    "city": "下関市",
    "city_kana": "シモノセキシ",
    "town": "吉見上",
    "town_kana": "ヨシミカミ",
    "street": null,
    "office_name": null,
    "office_name_kana": null
  },
  "6525": {
    "postcode": "7596525",
    "prefecture": "山口県",
    "prefecture_kana": "ヤマグチケン",
    "prefecture_code": 35,
    "city": "下関市",
    "city_kana": "シモノセキシ",
    "town": "吉見里町",
    "town_kana": "ヨシミサトマチ",
    "street": null,
    "office_name": null,
    "office_name_kana": null
  },
  "6531": {
    "postcode": "7596531",
    "prefecture": "山口県",
    "prefecture_kana": "ヤマグチケン",
    "prefecture_code": 35,
    "city": "下関市",
    "city_kana": "シモノセキシ",
    "town": "吉見本町",
    "town_kana": "ヨシミホンマチ",
    "street": null,
    "office_name": null,
    "office_name_kana": null
  },
  "6532": {
    "postcode": "7596532",
    "prefecture": "山口県",
    "prefecture_kana": "ヤマグチケン",
    "prefecture_code": 35,
    "city": "下関市",
    "city_kana": "シモノセキシ",
    "town": "吉見新町",
    "town_kana": "ヨシミシンマチ",
    "street": null,
    "office_name": null,
    "office_name_kana": null
  },
  "6533": {
    "postcode": "7596533",
    "prefecture": "山口県",
    "prefecture_kana": "ヤマグチケン",
    "prefecture_code": 35,
    "city": "下関市",
    "city_kana": "シモノセキシ",
    "town": "永田本町",
    "town_kana": "ナガタホンマチ",
    "street": null,
    "office_name": null,
    "office_name_kana": null
  },
  "6534": {
    "postcode": "7596534",
    "prefecture": "山口県",
    "prefecture_kana": "ヤマグチケン",
    "prefecture_code": 35,
    "city": "下関市",
    "city_kana": "シモノセキシ",
    "town": "永田郷",
    "town_kana": "ナガタゴウ",
    "street": null,
    "office_name": null,
    "office_name_kana": null
  },
  "6541": {
    "postcode": "7596541",
    "prefecture": "山口県",
    "prefecture_kana": "ヤマグチケン",
    "prefecture_code": 35,
    "city": "下関市",
    "city_kana": "シモノセキシ",
    "town": "吉母",
    "town_kana": "ヨシモ",
    "street": null,
    "office_name": null,
    "office_name_kana": null
  },
  "6542": {
    "postcode": "7596542",
    "prefecture": "山口県",
    "prefecture_kana": "ヤマグチケン",
    "prefecture_code": 35,
    "city": "下関市",
    "city_kana": "シモノセキシ",
    "town": "蓋井島",
    "town_kana": "フタオイジマ",
    "street": null,
    "office_name": null,
    "office_name_kana": null
  },
  "6592": {
    "postcode": "7596592",
    "prefecture": "山口県",
    "prefecture_kana": "ヤマグチケン",
    "prefecture_code": 35,
    "city": "下関市",
    "city_kana": "シモノセキシ",
    "town": "永田本町",
    "town_kana": "ナガタホンマチ",
    "street": "４丁目８−１",
    "office_name": "海上自衛隊　下関基地隊",
    "office_name_kana": "カイジヨウジエイタイ シモノセキキチタイ"
  },
  "6595": {
    "postcode": "7596595",
    "prefecture": "山口県",
    "prefecture_kana": "ヤマグチケン",
    "prefecture_code": 35,
    "city": "下関市",
    "city_kana": "シモノセキシ",
    "town": "永田本町",
    "town_kana": "ナガタホンマチ",
    "street": "２丁目７−１",
    "office_name": "独立行政法人　水産大学校",
    "office_name_kana": "ドクリツギヨウセイホウジン スイサンダイガツコウ"
  },
  "6601": {
    "postcode": "7596601",
    "prefecture": "山口県",
    "prefecture_kana": "ヤマグチケン",
    "prefecture_code": 35,
    "city": "下関市",
    "city_kana": "シモノセキシ",
    "town": "福江",
    "town_kana": "フクエ",
    "street": null,
    "office_name": null,
    "office_name_kana": null
  },
  "6602": {
    "postcode": "7596602",
    "prefecture": "山口県",
    "prefecture_kana": "ヤマグチケン",
    "prefecture_code": 35,
    "city": "下関市",
    "city_kana": "シモノセキシ",
    "town": "蒲生野",
    "town_kana": "カモノ",
    "street": null,
    "office_name": null,
    "office_name_kana": null
  },
  "6603": {
    "postcode": "7596603",
    "prefecture": "山口県",
    "prefecture_kana": "ヤマグチケン",
    "prefecture_code": 35,
    "city": "下関市",
    "city_kana": "シモノセキシ",
    "town": "安岡町",
    "town_kana": "ヤスオカチョウ",
    "street": null,
    "office_name": null,
    "office_name_kana": null
  },
  "6604": {
    "postcode": "7596604",
    "prefecture": "山口県",
    "prefecture_kana": "ヤマグチケン",
    "prefecture_code": 35,
    "city": "下関市",
    "city_kana": "シモノセキシ",
    "town": "横野町",
    "town_kana": "ヨコノチョウ",
    "street": null,
    "office_name": null,
    "office_name_kana": null
  },
  "6605": {
    "postcode": "7596605",
    "prefecture": "山口県",
    "prefecture_kana": "ヤマグチケン",
    "prefecture_code": 35,
    "city": "下関市",
    "city_kana": "シモノセキシ",
    "town": "安岡",
    "town_kana": "ヤスオカ",
    "street": null,
    "office_name": null,
    "office_name_kana": null
  },
  "6611": {
    "postcode": "7596611",
    "prefecture": "山口県",
    "prefecture_kana": "ヤマグチケン",
    "prefecture_code": 35,
    "city": "下関市",
    "city_kana": "シモノセキシ",
    "town": "安岡本町",
    "town_kana": "ヤスオカホンマチ",
    "street": null,
    "office_name": null,
    "office_name_kana": null
  },
  "6612": {
    "postcode": "7596612",
    "prefecture": "山口県",
    "prefecture_kana": "ヤマグチケン",
    "prefecture_code": 35,
    "city": "下関市",
    "city_kana": "シモノセキシ",
    "town": "安岡駅前",
    "town_kana": "ヤスオカエキマエ",
    "street": null,
    "office_name": null,
    "office_name_kana": null
  },
  "6613": {
    "postcode": "7596613",
    "prefecture": "山口県",
    "prefecture_kana": "ヤマグチケン",
    "prefecture_code": 35,
    "city": "下関市",
    "city_kana": "シモノセキシ",
    "town": "富任町",
    "town_kana": "トミトウチョウ",
    "street": null,
    "office_name": null,
    "office_name_kana": null
  },
  "6614": {
    "postcode": "7596614",
    "prefecture": "山口県",
    "prefecture_kana": "ヤマグチケン",
    "prefecture_code": 35,
    "city": "下関市",
    "city_kana": "シモノセキシ",
    "town": "梶栗町",
    "town_kana": "カジクリチョウ",
    "street": null,
    "office_name": null,
    "office_name_kana": null
  },
  "6615": {
    "postcode": "7596615",
    "prefecture": "山口県",
    "prefecture_kana": "ヤマグチケン",
    "prefecture_code": 35,
    "city": "下関市",
    "city_kana": "シモノセキシ",
    "town": "冨任",
    "town_kana": "トミトウ",
    "street": null,
    "office_name": null,
    "office_name_kana": null
  }
}