{
  "0101": {
    "postcode": "7610101",
    "prefecture": "香川県",
    "prefecture_kana": "カガワケン",
    "prefecture_code": 37,
    "city": "高松市",
    "city_kana": "タカマツシ",
    "town": "春日町",
    "town_kana": "カスガチョウ",
    "street": null,
    "office_name": null,
    "office_name_kana": null
  },
  "0102": {
    "postcode": "7610102",
    "prefecture": "香川県",
    "prefecture_kana": "カガワケン",
    "prefecture_code": 37,
    "city": "高松市",
    "city_kana": "タカマツシ",
    "town": "新田町甲",
    "town_kana": "シンデンチョウコウ",
    "street": null,
    "office_name": null,
    "office_name_kana": null
  },
  "0103": {
    "postcode": "7610103",
    "prefecture": "香川県",
    "prefecture_kana": "カガワケン",
    "prefecture_code": 37,
    "city": "高松市",
    "city_kana": "タカマツシ",
    "town": "新田町乙",
    "town_kana": "シンデンチョウオツ",
    "street": null,
    "office_name": null,
    "office_name_kana": null
  },
  "0104": {
    "postcode": "7610104",
    "prefecture": "香川県",
    "prefecture_kana": "カガワケン",
    "prefecture_code": 37,
    "city": "高松市",
    "city_kana": "タカマツシ",
    "town": "高松町",
    "town_kana": "タカマツチョウ",
    "street": null,
    "office_name": null,
    "office_name_kana": null
  },
  "0111": {
    "postcode": "7610111",
    "prefecture": "香川県",
    "prefecture_kana": "カガワケン",
    "prefecture_code": 37,
    "city": "高松市",
    "city_kana": "タカマツシ",
    "town": "屋島東町",
    "town_kana": "ヤシマヒガシマチ",
    "street": null,
    "office_name": null,
    "office_name_kana": null
  },
  "0112": {
    "postcode": "7610112",
    "prefecture": "香川県",
    "prefecture_kana": "カガワケン",
    "prefecture_code": 37,
    "city": "高松市",
    "city_kana": "タカマツシ",
    "town": "屋島中町",
    "town_kana": "ヤシマナカマチ",
    "street": null,
    "office_name": null,
    "office_name_kana": null
  },
  "0113": {
    "postcode": "7610113",
    "prefecture": "香川県",
    "prefecture_kana": "カガワケン",
    "prefecture_code": 37,
    "city": "高松市",
    "city_kana": "タカマツシ",
    "town": "屋島西町",
    "town_kana": "ヤシマニシマチ",
    "street": null,
    "office_name": null,
    "office_name_kana": null
  },
  "0121": {
    "postcode": "7610121",
    "prefecture": "香川県",
    "prefecture_kana": "カガワケン",
    "prefecture_code": 37,
    "city": "高松市",
    "city_kana": "タカマツシ",
    "town": "牟礼町牟礼",
    "town_kana": "ムレチョウムレ",
    "street": null,
    "office_name": null,
    "office_name_kana": null
  },
  "0122": {
    "postcode": "7610122",
    "prefecture": "香川県",
    "prefecture_kana": "カガワケン",
    "prefecture_code": 37,
    "city": "高松市",
    "city_kana": "タカマツシ",
    "town": "牟礼町大町",
    "town_kana": "ムレチョウオオマチ",
    "street": null,
    "office_name": null,
    "office_name_kana": null
  },
  "0123": {
    "postcode": "7610123",
    "prefecture": "香川県",
    "prefecture_kana": "カガワケン",
    "prefecture_code": 37,
    "city": "高松市",
    "city_kana": "タカマツシ",
    "town": "牟礼町原",
    "town_kana": "ムレチョウハラ",
    "street": null,
    "office_name": null,
    "office_name_kana": null
  },
  "0130": {
    "postcode": "7610130",
    "prefecture": "香川県",
    "prefecture_kana": "カガワケン",
    "prefecture_code": 37,
    "city": "高松市",
    "city_kana": "タカマツシ",
    "town": "庵治町",
    "town_kana": "アジチョウ",
    "street": null,
    "office_name": null,
    "office_name_kana": null
  },
  "0185": {
    "postcode": "7610185",
    "prefecture": "香川県",
    "prefecture_kana": "カガワケン",
    "prefecture_code": 37,
    "city": "高松市",
    "city_kana": "タカマツシ",
    "town": "新田町",
    "town_kana": null,
    "street": "甲３４（高松東郵便局私書箱第１号）",
    "office_name": "（株）　タダノ",
    "office_name_kana": "カブシキガイシヤ タダノ"
  },
  "0186": [
    {
      "postcode": "7610186",
      "prefecture": "香川県",
      "prefecture_kana": "カガワケン",
      "prefecture_code": 37,
      "city": "高松市",
      "city_kana": "タカマツシ",
      "town": "屋島西町",
      "town_kana": "ヤシマニシマチ",
      "street": "２１０５−１７",
      "office_name": "香川県厚生農業協同組合連合会",
      "office_name_kana": "カガワケンコウセイノウギヨウキヨウドウクミアイレンゴウカイ"
    },
    {
      "postcode": "7610186",
      "prefecture": "香川県",
      "prefecture_kana": "カガワケン",
      "prefecture_code": 37,
      "city": "高松市",
      "city_kana": "タカマツシ",
      "town": "屋島西町",
      "town_kana": "ヤシマニシマチ",
      "street": "２１０５−１７",
      "office_name": "香川県厚生農業協同組合連合会　屋島総合病院",
      "office_name_kana": "カガワケンコウセイノウギヨウキヨウドウクミアイレンゴウカイ ヤシマソウゴウビヨウイン"
    }
  ],
  "0187": {
    "postcode": "7610187",
    "prefecture": "香川県",
    "prefecture_kana": "カガワケン",
    "prefecture_code": 37,
    "city": "高松市",
    "city_kana": "タカマツシ",
    "town": "庵治町",
    "town_kana": "アジチョウ",
    "street": "６３９３−５",
    "office_name": "高松市役所　庵治支所",
    "office_name_kana": "タカマツシヤクシヨ アジシシヨ"
  },
  "0188": {
    "postcode": "7610188",
    "prefecture": "香川県",
    "prefecture_kana": "カガワケン",
    "prefecture_code": 37,
    "city": "高松市",
    "city_kana": "タカマツシ",
    "town": "牟礼町牟礼",
    "town_kana": "ムレチョウムレ",
    "street": "３０２−１",
    "office_name": "高松市役所　牟礼支所",
    "office_name_kana": "タカマツシヤクシヨ ムレシシヨ"
  },
  "0189": {
    "postcode": "7610189",
    "prefecture": "香川県",
    "prefecture_kana": "カガワケン",
    "prefecture_code": 37,
    "city": "高松市",
    "city_kana": "タカマツシ",
    "town": "屋島西町",
    "town_kana": "ヤシマニシマチ",
    "street": "１９０２−１",
    "office_name": "大豊産業　（株）",
    "office_name_kana": "オオトヨサンギヨウ カブシキガイシヤ"
  },
  "0192": {
    "postcode": "7610192",
    "prefecture": "香川県",
    "prefecture_kana": "カガワケン",
    "prefecture_code": 37,
    "city": "高松市",
    "city_kana": "タカマツシ",
    "town": "屋島西町",
    "town_kana": "ヤシマニシマチ",
    "street": "２１０９−８",
    "office_name": "四国総合研究所",
    "office_name_kana": "シコクソウゴウケンキユウシヨ"
  },
  "0193": {
    "postcode": "7610193",
    "prefecture": "香川県",
    "prefecture_kana": "カガワケン",
    "prefecture_code": 37,
    "city": "高松市",
    "city_kana": "タカマツシ",
    "town": "新田町",
    "town_kana": null,
    "street": "乙８",
    "office_name": "高松東病院",
    "office_name_kana": "タカマツヒガシビヨウイン"
  },
  "0194": {
    "postcode": "7610194",
    "prefecture": "香川県",
    "prefecture_kana": "カガワケン",
    "prefecture_code": 37,
    "city": "高松市",
    "city_kana": "タカマツシ",
    "town": "春日町",
    "town_kana": "カスガチョウ",
    "street": "９６０",
    "office_name": "四国高松学園",
    "office_name_kana": "シコクタカマツガクエン"
  },
  "0195": {
    "postcode": "7610195",
    "prefecture": "香川県",
    "prefecture_kana": "カガワケン",
    "prefecture_code": 37,
    "city": "高松市",
    "city_kana": "タカマツシ",
    "town": "春日町",
    "town_kana": "カスガチョウ",
    "street": "１７３５−３",
    "office_name": "株式会社　ＳＴＮｅｔ",
    "office_name_kana": "カブシキガイシヤ エステイネツト"
  },
  "0196": {
    "postcode": "7610196",
    "prefecture": "香川県",
    "prefecture_kana": "カガワケン",
    "prefecture_code": 37,
    "city": "高松市",
    "city_kana": "タカマツシ",
    "town": "牟礼町牟礼",
    "town_kana": "ムレチョウムレ",
    "street": "２２４６",
    "office_name": "鎌長製衡　（株）",
    "office_name_kana": "カマチヨウセイコウ カブシキガイシヤ"
  },
  "0197": {
    "postcode": "7610197",
    "prefecture": "香川県",
    "prefecture_kana": "カガワケン",
    "prefecture_code": 37,
    "city": "高松市",
    "city_kana": "タカマツシ",
    "town": "春日町",
    "town_kana": "カスガチョウ",
    "street": "１３７８",
    "office_name": "四国コカ・コーラボトリング　（株）",
    "office_name_kana": "シコクコカ・コ-ラボトリング カブシキガイシヤ"
  },
  "0198": {
    "postcode": "7610198",
    "prefecture": "香川県",
    "prefecture_kana": "カガワケン",
    "prefecture_code": 37,
    "city": "高松市",
    "city_kana": "タカマツシ",
    "town": "庵治町",
    "town_kana": "アジチョウ",
    "street": "６０３４−１",
    "office_name": "国立療養所　大島青松園",
    "office_name_kana": "コクリツリヨウヨウシヨ オオシマセイシヨウエン"
  },
  "0301": {
    "postcode": "7610301",
    "prefecture": "香川県",
    "prefecture_kana": "カガワケン",
    "prefecture_code": 37,
    "city": "高松市",
    "city_kana": "タカマツシ",
    "town": "林町",
    "town_kana": "ハヤシチョウ",
    "street": null,
    "office_name": null,
    "office_name_kana": null
  },
  "0302": {
    "postcode": "7610302",
    "prefecture": "香川県",
    "prefecture_kana": "カガワケン",
    "prefecture_code": 37,
    "city": "高松市",
    "city_kana": "タカマツシ",
    "town": "上林町",
    "town_kana": "カミハヤシチョウ",
    "street": null,
    "office_name": null,
    "office_name_kana": null
  },
  "0303": {
    "postcode": "7610303",
    "prefecture": "香川県",
    "prefecture_kana": "カガワケン",
    "prefecture_code": 37,
    "city": "高松市",
    "city_kana": "タカマツシ",
    "town": "六条町",
    "town_kana": "ロクジョウチョウ",
    "street": null,
    "office_name": null,
    "office_name_kana": null
  },
  "0311": {
    "postcode": "7610311",
    "prefecture": "香川県",
    "prefecture_kana": "カガワケン",
    "prefecture_code": 37,
    "city": "高松市",
    "city_kana": "タカマツシ",
    "town": "元山町",
    "town_kana": "モトヤマチョウ",
    "street": null,
    "office_name": null,
    "office_name_kana": null
  },
  "0312": {
    "postcode": "7610312",
    "prefecture": "香川県",
    "prefecture_kana": "カガワケン",
    "prefecture_code": 37,
    "city": "高松市",
    "city_kana": "タカマツシ",
    "town": "東山崎町",
    "town_kana": "ヒガシヤマサキチョウ",
    "street": null,
    "office_name": null,
    "office_name_kana": null
  },
  "0313": {
    "postcode": "7610313",
    "prefecture": "香川県",
    "prefecture_kana": "カガワケン",
    "prefecture_code": 37,
    "city": "高松市",
    "city_kana": "タカマツシ",
    "town": "下田井町",
    "town_kana": "シモタイチョウ",
    "street": null,
    "office_name": null,
    "office_name_kana": null
  },
  "0321": {
    "postcode": "7610321",
    "prefecture": "香川県",
    "prefecture_kana": "カガワケン",
    "prefecture_code": 37,
    "city": "高松市",
    "city_kana": "タカマツシ",
    "town": "前田西町",
    "town_kana": "マエダニシマチ",
    "street": null,
    "office_name": null,
    "office_name_kana": null
  },
  "0322": {
    "postcode": "7610322",
    "prefecture": "香川県",
    "prefecture_kana": "カガワケン",
    "prefecture_code": 37,
    "city": "高松市",
    "city_kana": "タカマツシ",
    "town": "前田東町",
    "town_kana": "マエダヒガシマチ",
    "street": null,
    "office_name": null,
    "office_name_kana": null
  },
  "0323": {
    "postcode": "7610323",
    "prefecture": "香川県",
    "prefecture_kana": "カガワケン",
    "prefecture_code": 37,
    "city": "高松市",
    "city_kana": "タカマツシ",
    "town": "亀田町",
    "town_kana": "カメダチョウ",
    "street": null,
    "office_name": null,
    "office_name_kana": null
  },
  "0393": {
    "postcode": "7610393",
    "prefecture": "香川県",
    "prefecture_kana": "カガワケン",
    "prefecture_code": 37,
    "city": "高松市",
    "city_kana": "タカマツシ",
    "town": "林町",
    "town_kana": "ハヤシチョウ",
    "street": "２２１７−１９",
    "office_name": "香川県立図書館",
    "office_name_kana": "カガワケンリツトシヨカン"
  },
  "0394": {
    "postcode": "7610394",
    "prefecture": "香川県",
    "prefecture_kana": "カガワケン",
    "prefecture_code": 37,
    "city": "高松市",
    "city_kana": "タカマツシ",
    "town": "上林町",
    "town_kana": "カミハヤシチョウ",
    "street": "４７３−１",
    "office_name": "谷口建設興業　株式会社",
    "office_name_kana": "タニグチケンセツコウギヨウ カブシキガイシヤ"
  },
  "0395": {
    "postcode": "7610395",
    "prefecture": "香川県",
    "prefecture_kana": "カガワケン",
    "prefecture_code": 37,
    "city": "高松市",
    "city_kana": "タカマツシ",
    "town": "林町",
    "town_kana": "ハヤシチョウ",
    "street": "２２１７−１４",
    "office_name": "国立研究開発法人　産業技術総合研究所四国センター",
    "office_name_kana": "コクリツケンキユウカイハツホウジン サンギヨウギジユツソウゴウケンキユウシヨシコクセンタ-"
  },
  "0396": {
    "postcode": "7610396",
    "prefecture": "香川県",
    "prefecture_kana": "カガワケン",
    "prefecture_code": 37,
    "city": "高松市",
    "city_kana": "タカマツシ",
    "town": "林町",
    "town_kana": "ハヤシチョウ",
    "street": "字新町２２１７−２０",
    "office_name": "香川大学　工学部",
    "office_name_kana": "カガワダイガク コウガクブ"
  },
  "0397": {
    "postcode": "7610397",
    "prefecture": "香川県",
    "prefecture_kana": "カガワケン",
    "prefecture_code": 37,
    "city": "高松市",
    "city_kana": "タカマツシ",
    "town": "林町",
    "town_kana": "ハヤシチョウ",
    "street": "２６３−１",
    "office_name": "トーヨースギウエ　株式会社",
    "office_name_kana": "ト-ヨ-スギウエ カブシキガイシヤ"
  },
  "0431": {
    "postcode": "7610431",
    "prefecture": "香川県",
    "prefecture_kana": "カガワケン",
    "prefecture_code": 37,
    "city": "高松市",
    "city_kana": "タカマツシ",
    "town": "小村町",
    "town_kana": "オモレチョウ",
    "street": null,
    "office_name": null,
    "office_name_kana": null
  },
  "0432": {
    "postcode": "7610432",
    "prefecture": "香川県",
    "prefecture_kana": "カガワケン",
    "prefecture_code": 37,
    "city": "高松市",
    "city_kana": "タカマツシ",
    "town": "亀田南町",
    "town_kana": "カメダミナミマチ",
    "street": null,
    "office_name": null,
    "office_name_kana": null
  },
  "0433": {
    "postcode": "7610433",
    "prefecture": "香川県",
    "prefecture_kana": "カガワケン",
    "prefecture_code": 37,
    "city": "高松市",
    "city_kana": "タカマツシ",
    "town": "十川西町",
    "town_kana": "ソガワニシマチ",
    "street": null,
    "office_name": null,
    "office_name_kana": null
  },
  "0434": {
    "postcode": "7610434",
    "prefecture": "香川県",
    "prefecture_kana": "カガワケン",
    "prefecture_code": 37,
    "city": "高松市",
    "city_kana": "タカマツシ",
    "town": "十川東町",
    "town_kana": "ソガワヒガシマチ",
    "street": null,
    "office_name": null,
    "office_name_kana": null
  },
  "0441": {
    "postcode": "7610441",
    "prefecture": "香川県",
    "prefecture_kana": "カガワケン",
    "prefecture_code": 37,
    "city": "高松市",
    "city_kana": "タカマツシ",
    "town": "由良町",
    "town_kana": "ユラチョウ",
    "street": null,
    "office_name": null,
    "office_name_kana": null
  },
  "0442": {
    "postcode": "7610442",
    "prefecture": "香川県",
    "prefecture_kana": "カガワケン",
    "prefecture_code": 37,
    "city": "高松市",
    "city_kana": "タカマツシ",
    "town": "川島本町",
    "town_kana": "カワシマホンマチ",
    "street": null,
    "office_name": null,
    "office_name_kana": null
  },
  "0443": {
    "postcode": "7610443",
    "prefecture": "香川県",
    "prefecture_kana": "カガワケン",
    "prefecture_code": 37,
    "city": "高松市",
    "city_kana": "タカマツシ",
    "town": "川島東町",
    "town_kana": "カワシマヒガシマチ",
    "street": null,
    "office_name": null,
    "office_name_kana": null
  },
  "0444": {
    "postcode": "7610444",
    "prefecture": "香川県",
    "prefecture_kana": "カガワケン",
    "prefecture_code": 37,
    "city": "高松市",
    "city_kana": "タカマツシ",
    "town": "池田町",
    "town_kana": "イケダチョウ",
    "street": null,
    "office_name": null,
    "office_name_kana": null
  },
  "0445": {
    "postcode": "7610445",
    "prefecture": "香川県",
    "prefecture_kana": "カガワケン",
    "prefecture_code": 37,
    "city": "高松市",
    "city_kana": "タカマツシ",
    "town": "西植田町",
    "town_kana": "ニシウエタチョウ",
    "street": null,
    "office_name": null,
    "office_name_kana": null
  },
  "0446": {
    "postcode": "7610446",
    "prefecture": "香川県",
    "prefecture_kana": "カガワケン",
    "prefecture_code": 37,
    "city": "高松市",
    "city_kana": "タカマツシ",
    "town": "東植田町",
    "town_kana": "ヒガシウエタチョウ",
    "street": null,
    "office_name": null,
    "office_name_kana": null
  },
  "0450": {
    "postcode": "7610450",
    "prefecture": "香川県",
    "prefecture_kana": "カガワケン",
    "prefecture_code": 37,
    "city": "高松市",
    "city_kana": "タカマツシ",
    "town": "三谷町",
    "town_kana": "ミタニチョウ",
    "street": null,
    "office_name": null,
    "office_name_kana": null
  },
  "0492": {
    "postcode": "7610492",
    "prefecture": "香川県",
    "prefecture_kana": "カガワケン",
    "prefecture_code": 37,
    "city": "高松市",
    "city_kana": "タカマツシ",
    "town": "三谷町",
    "town_kana": "ミタニチョウ",
    "street": "１３６",
    "office_name": "（株）　カナック",
    "office_name_kana": "カブシキガイシヤ カナツク"
  },
  "0493": {
    "postcode": "7610493",
    "prefecture": "香川県",
    "prefecture_kana": "カガワケン",
    "prefecture_code": 37,
    "city": "高松市",
    "city_kana": "タカマツシ",
    "town": "小村町",
    "town_kana": "オモレチョウ",
    "street": "３３１",
    "office_name": "吉野川電線　株式会社",
    "office_name_kana": "ヨシノガワデンセン カブシキガイシヤ"
  },
  "0611": {
    "postcode": "7610611",
    "prefecture": "香川県",
    "prefecture_kana": "カガワケン",
    "prefecture_code": 37,
    "city": "木田郡三木町",
    "city_kana": "キタグンミキチョウ",
    "town": "田中",
    "town_kana": "タナカ",
    "street": null,
    "office_name": null,
    "office_name_kana": null
  },
  "0612": {
    "postcode": "7610612",
    "prefecture": "香川県",
    "prefecture_kana": "カガワケン",
    "prefecture_code": 37,
    "city": "木田郡三木町",
    "city_kana": "キタグンミキチョウ",
    "town": "氷上",
    "town_kana": "ヒカミ",
    "street": null,
    "office_name": null,
    "office_name_kana": null
  },
  "0613": {
    "postcode": "7610613",
    "prefecture": "香川県",
    "prefecture_kana": "カガワケン",
    "prefecture_code": 37,
    "city": "木田郡三木町",
    "city_kana": "キタグンミキチョウ",
    "town": "上高岡",
    "town_kana": "カミタカオカ",
    "street": null,
    "office_name": null,
    "office_name_kana": null
  },
  "0614": {
    "postcode": "7610614",
    "prefecture": "香川県",
    "prefecture_kana": "カガワケン",
    "prefecture_code": 37,
    "city": "木田郡三木町",
    "city_kana": "キタグンミキチョウ",
    "town": "朝倉",
    "town_kana": "アサクラ",
    "street": null,
    "office_name": null,
    "office_name_kana": null
  },
  "0615": {
    "postcode": "7610615",
    "prefecture": "香川県",
    "prefecture_kana": "カガワケン",
    "prefecture_code": 37,
    "city": "木田郡三木町",
    "city_kana": "キタグンミキチョウ",
    "town": "小蓑",
    "town_kana": "コミノ",
    "street": null,
    "office_name": null,
    "office_name_kana": null
  },
  "0692": {
    "postcode": "7610692",
    "prefecture": "香川県",
    "prefecture_kana": "カガワケン",
    "prefecture_code": 37,
    "city": "木田郡三木町",
    "city_kana": "キタグンミキチョウ",
    "town": "大字氷上",
    "town_kana": null,
    "street": "３１０",
    "office_name": "三木町役場",
    "office_name_kana": "ミキチヨウヤクバ"
  },
  "0700": {
    "postcode": "7610700",
    "prefecture": "香川県",
    "prefecture_kana": "カガワケン",
    "prefecture_code": 37,
    "city": "木田郡三木町",
    "city_kana": "キタグンミキチョウ",
    "town": "",
    "town_kana": "",
    "street": null,
    "office_name": null,
    "office_name_kana": null
  },
  "0701": {
    "postcode": "7610701",
    "prefecture": "香川県",
    "prefecture_kana": "カガワケン",
    "prefecture_code": 37,
    "city": "木田郡三木町",
    "city_kana": "キタグンミキチョウ",
    "town": "池戸",
    "town_kana": "イケノベ",
    "street": null,
    "office_name": null,
    "office_name_kana": null
  },
  "0702": {
    "postcode": "7610702",
    "prefecture": "香川県",
    "prefecture_kana": "カガワケン",
    "prefecture_code": 37,
    "city": "木田郡三木町",
    "city_kana": "キタグンミキチョウ",
    "town": "平木",
    "town_kana": "ヒラギ",
    "street": null,
    "office_name": null,
    "office_name_kana": null
  },
  "0703": {
    "postcode": "7610703",
    "prefecture": "香川県",
    "prefecture_kana": "カガワケン",
    "prefecture_code": 37,
    "city": "木田郡三木町",
    "city_kana": "キタグンミキチョウ",
    "town": "鹿伏",
    "town_kana": "シシブセ",
    "street": null,
    "office_name": null,
    "office_name_kana": null
  },
  "0704": {
    "postcode": "7610704",
    "prefecture": "香川県",
    "prefecture_kana": "カガワケン",
    "prefecture_code": 37,
    "city": "木田郡三木町",
    "city_kana": "キタグンミキチョウ",
    "town": "下高岡",
    "town_kana": "シモタカオカ",
    "street": null,
    "office_name": null,
    "office_name_kana": null
  },
  "0705": {
    "postcode": "7610705",
    "prefecture": "香川県",
    "prefecture_kana": "カガワケン",
    "prefecture_code": 37,
    "city": "木田郡三木町",
    "city_kana": "キタグンミキチョウ",
    "town": "井上",
    "town_kana": "イノウエ",
    "street": null,
    "office_name": null,
    "office_name_kana": null
  },
  "0793": {
    "postcode": "7610793",
    "prefecture": "香川県",
    "prefecture_kana": "カガワケン",
    "prefecture_code": 37,
    "city": "木田郡三木町",
    "city_kana": "キタグンミキチョウ",
    "town": "大字池戸",
    "town_kana": null,
    "street": "１７５０−１",
    "office_name": "香川大学　医学部",
    "office_name_kana": "カガワダイガク イガクブ"
  },
  "0795": {
    "postcode": "7610795",
    "prefecture": "香川県",
    "prefecture_kana": "カガワケン",
    "prefecture_code": 37,
    "city": "木田郡三木町",
    "city_kana": "キタグンミキチョウ",
    "town": "大字池戸",
    "town_kana": null,
    "street": "２３９３",
    "office_name": "香川大学　農学部",
    "office_name_kana": "カガワダイガク ノウガクブ"
  },
  "0821": {
    "postcode": "7610821",
    "prefecture": "香川県",
    "prefecture_kana": "カガワケン",
    "prefecture_code": 37,
    "city": "木田郡三木町",
    "city_kana": "キタグンミキチョウ",
    "town": "鹿庭",
    "town_kana": "カニワ",
    "street": null,
    "office_name": null,
    "office_name_kana": null
  },
  "0822": {
    "postcode": "7610822",
    "prefecture": "香川県",
    "prefecture_kana": "カガワケン",
    "prefecture_code": 37,
    "city": "木田郡三木町",
    "city_kana": "キタグンミキチョウ",
    "town": "奥山",
    "town_kana": "オクヤマ",
    "street": null,
    "office_name": null,
    "office_name_kana": null
  },
  "0823": {
    "postcode": "7610823",
    "prefecture": "香川県",
    "prefecture_kana": "カガワケン",
    "prefecture_code": 37,
    "city": "木田郡三木町",
    "city_kana": "キタグンミキチョウ",
    "town": "井戸",
    "town_kana": "イド",
    "street": null,
    "office_name": null,
    "office_name_kana": null
  },
  "0901": {
    "postcode": "7610901",
    "prefecture": "香川県",
    "prefecture_kana": "カガワケン",
    "prefecture_code": 37,
    "city": "さぬき市",
    "city_kana": "サヌキシ",
    "town": "大川町富田西",
    "town_kana": "オオカワマチトミダニシ",
    "street": null,
    "office_name": null,
    "office_name_kana": null
  },
  "0902": {
    "postcode": "7610902",
    "prefecture": "香川県",
    "prefecture_kana": "カガワケン",
    "prefecture_code": 37,
    "city": "さぬき市",
    "city_kana": "サヌキシ",
    "town": "大川町富田中",
    "town_kana": "オオカワマチトミダナカ",
    "street": null,
    "office_name": null,
    "office_name_kana": null
  },
  "0903": {
    "postcode": "7610903",
    "prefecture": "香川県",
    "prefecture_kana": "カガワケン",
    "prefecture_code": 37,
    "city": "さぬき市",
    "city_kana": "サヌキシ",
    "town": "大川町富田東",
    "town_kana": "オオカワマチトミダヒガシ",
    "street": null,
    "office_name": null,
    "office_name_kana": null
  },
  "0904": {
    "postcode": "7610904",
    "prefecture": "香川県",
    "prefecture_kana": "カガワケン",
    "prefecture_code": 37,
    "city": "さぬき市",
    "city_kana": "サヌキシ",
    "town": "大川町田面",
    "town_kana": "オオカワマチタヅラ",
    "street": null,
    "office_name": null,
    "office_name_kana": null
  },
  "0905": {
    "postcode": "7610905",
    "prefecture": "香川県",
    "prefecture_kana": "カガワケン",
    "prefecture_code": 37,
    "city": "さぬき市",
    "city_kana": "サヌキシ",
    "town": "大川町南川",
    "town_kana": "オオカワマチミナミガワ",
    "street": null,
    "office_name": null,
    "office_name_kana": null
  },
  "1401": {
    "postcode": "7611401",
    "prefecture": "香川県",
    "prefecture_kana": "カガワケン",
    "prefecture_code": 37,
    "city": "高松市",
    "city_kana": "タカマツシ",
    "town": "香南町岡",
    "town_kana": "コウナンチョウオカ",
    "street": null,
    "office_name": null,
    "office_name_kana": null
  },
  "1402": {
    "postcode": "7611402",
    "prefecture": "香川県",
    "prefecture_kana": "カガワケン",
    "prefecture_code": 37,
    "city": "高松市",
    "city_kana": "タカマツシ",
    "town": "香南町由佐",
    "town_kana": "コウナンチョウユサ",
    "street": null,
    "office_name": null,
    "office_name_kana": null
  },
  "1403": {
    "postcode": "7611403",
    "prefecture": "香川県",
    "prefecture_kana": "カガワケン",
    "prefecture_code": 37,
    "city": "高松市",
    "city_kana": "タカマツシ",
    "town": "香南町吉光",
    "town_kana": "コウナンチョウヨシミツ",
    "street": null,
    "office_name": null,
    "office_name_kana": null
  },
  "1404": {
    "postcode": "7611404",
    "prefecture": "香川県",
    "prefecture_kana": "カガワケン",
    "prefecture_code": 37,
    "city": "高松市",
    "city_kana": "タカマツシ",
    "town": "香南町横井",
    "town_kana": "コウナンチョウヨコイ",
    "street": null,
    "office_name": null,
    "office_name_kana": null
  },
  "1405": {
    "postcode": "7611405",
    "prefecture": "香川県",
    "prefecture_kana": "カガワケン",
    "prefecture_code": 37,
    "city": "高松市",
    "city_kana": "タカマツシ",
    "town": "香南町池内",
    "town_kana": "コウナンチョウイケノウチ",
    "street": null,
    "office_name": null,
    "office_name_kana": null
  },
  "1406": {
    "postcode": "7611406",
    "prefecture": "香川県",
    "prefecture_kana": "カガワケン",
    "prefecture_code": 37,
    "city": "高松市",
    "city_kana": "タカマツシ",
    "town": "香南町西庄",
    "town_kana": "コウナンチョウニシノショウ",
    "street": null,
    "office_name": null,
    "office_name_kana": null
  },
  "1492": {
    "postcode": "7611492",
    "prefecture": "香川県",
    "prefecture_kana": "カガワケン",
    "prefecture_code": 37,
    "city": "高松市",
    "city_kana": "タカマツシ",
    "town": "香南町由佐",
    "town_kana": "コウナンチョウユサ",
    "street": "３４７３−３",
    "office_name": "高松空港事務所",
    "office_name_kana": "タカマツクウコウジムシヨ"
  },
  "1493": {
    "postcode": "7611493",
    "prefecture": "香川県",
    "prefecture_kana": "カガワケン",
    "prefecture_code": 37,
    "city": "高松市",
    "city_kana": "タカマツシ",
    "town": "香南町由佐",
    "town_kana": "コウナンチョウユサ",
    "street": "１１７２",
    "office_name": "高松市役所　香南支所",
    "office_name_kana": "タカマツシヤクシヨ コウナンシシヨ"
  },
  "1494": {
    "postcode": "7611494",
    "prefecture": "香川県",
    "prefecture_kana": "カガワケン",
    "prefecture_code": 37,
    "city": "高松市",
    "city_kana": "タカマツシ",
    "town": "香南町池内",
    "town_kana": "コウナンチョウイケノウチ",
    "street": "９５８",
    "office_name": "株式会社　レクザム　香川工場",
    "office_name_kana": "カブシキガイシヤ レクザム カガワコウジヨウ"
  },
  "1501": {
    "postcode": "7611501",
    "prefecture": "香川県",
    "prefecture_kana": "カガワケン",
    "prefecture_code": 37,
    "city": "高松市",
    "city_kana": "タカマツシ",
    "town": "塩江町安原下",
    "town_kana": "シオノエチョウヤスハラシモ",
    "street": null,
    "office_name": null,
    "office_name_kana": null
  },
  "1502": {
    "postcode": "7611502",
    "prefecture": "香川県",
    "prefecture_kana": "カガワケン",
    "prefecture_code": 37,
    "city": "高松市",
    "city_kana": "タカマツシ",
    "town": "塩江町安原下",
    "town_kana": "シオノエチョウヤスハラシモ",
    "street": null,
    "office_name": null,
    "office_name_kana": null
  },
  "1503": {
    "postcode": "7611503",
    "prefecture": "香川県",
    "prefecture_kana": "カガワケン",
    "prefecture_code": 37,
    "city": "高松市",
    "city_kana": "タカマツシ",
    "town": "塩江町安原下",
    "town_kana": "シオノエチョウヤスハラシモ",
    "street": null,
    "office_name": null,
    "office_name_kana": null
  },
  "1504": {
    "postcode": "7611504",
    "prefecture": "香川県",
    "prefecture_kana": "カガワケン",
    "prefecture_code": 37,
    "city": "高松市",
    "city_kana": "タカマツシ",
    "town": "塩江町安原下",
    "town_kana": "シオノエチョウヤスハラシモ",
    "street": null,
    "office_name": null,
    "office_name_kana": null
  },
  "1592": {
    "postcode": "7611592",
    "prefecture": "香川県",
    "prefecture_kana": "カガワケン",
    "prefecture_code": 37,
    "city": "高松市",
    "city_kana": "タカマツシ",
    "town": "塩江町安原下",
    "town_kana": "シオノエチョウヤスハラシモ",
    "street": "第２号１６４５",
    "office_name": "高松市　塩江支所",
    "office_name_kana": "タカマツシ シオノエシシヨ"
  },
  "1611": {
    "postcode": "7611611",
    "prefecture": "香川県",
    "prefecture_kana": "カガワケン",
    "prefecture_code": 37,
    "city": "高松市",
    "city_kana": "タカマツシ",
    "town": "塩江町安原上",
    "town_kana": "シオノエチョウヤスハラカミ",
    "street": null,
    "office_name": null,
    "office_name_kana": null
  },
  "1612": {
    "postcode": "7611612",
    "prefecture": "香川県",
    "prefecture_kana": "カガワケン",
    "prefecture_code": 37,
    "city": "高松市",
    "city_kana": "タカマツシ",
    "town": "塩江町安原上東",
    "town_kana": "シオノエチョウヤスハラカミヒガシ",
    "street": null,
    "office_name": null,
    "office_name_kana": null
  },
  "1613": {
    "postcode": "7611613",
    "prefecture": "香川県",
    "prefecture_kana": "カガワケン",
    "prefecture_code": 37,
    "city": "高松市",
    "city_kana": "タカマツシ",
    "town": "塩江町上西甲",
    "town_kana": "シオノエチョウカミニシコウ",
    "street": null,
    "office_name": null,
    "office_name_kana": null
  },
  "1614": {
    "postcode": "7611614",
    "prefecture": "香川県",
    "prefecture_kana": "カガワケン",
    "prefecture_code": 37,
    "city": "高松市",
    "city_kana": "タカマツシ",
    "town": "塩江町上西乙",
    "town_kana": "シオノエチョウカミニシオツ",
    "street": null,
    "office_name": null,
    "office_name_kana": null
  },
  "1615": [
    {
      "postcode": "7611615",
      "prefecture": "香川県",
      "prefecture_kana": "カガワケン",
      "prefecture_code": 37,
      "city": "高松市",
      "city_kana": "タカマツシ",
      "town": "塩江町安原下",
      "town_kana": "シオノエチョウヤスハラシモ",
      "street": null,
      "office_name": null,
      "office_name_kana": null
    },
    {
      "postcode": "7611615",
      "prefecture": "香川県",
      "prefecture_kana": "カガワケン",
      "prefecture_code": 37,
      "city": "高松市",
      "city_kana": "タカマツシ",
      "town": "塩江町安原下上小田",
      "town_kana": "シオノエチョウヤスハラシモカミコタ",
      "street": null,
      "office_name": null,
      "office_name_kana": null
    },
    {
      "postcode": "7611615",
      "prefecture": "香川県",
      "prefecture_kana": "カガワケン",
      "prefecture_code": 37,
      "city": "高松市",
      "city_kana": "タカマツシ",
      "town": "塩江町安原下炭谷",
      "town_kana": "シオノエチョウヤスハラシモスミヤ",
      "street": null,
      "office_name": null,
      "office_name_kana": null
    }
  ],
  "1616": {
    "postcode": "7611616",
    "prefecture": "香川県",
    "prefecture_kana": "カガワケン",
    "prefecture_code": 37,
    "city": "高松市",
    "city_kana": "タカマツシ",
    "town": "菅沢町",
    "town_kana": "スゲザワチョウ",
    "street": null,
    "office_name": null,
    "office_name_kana": null
  },
  "1701": {
    "postcode": "7611701",
    "prefecture": "香川県",
    "prefecture_kana": "カガワケン",
    "prefecture_code": 37,
    "city": "高松市",
    "city_kana": "タカマツシ",
    "town": "香川町大野",
    "town_kana": "カガワチョウオオノ",
    "street": null,
    "office_name": null,
    "office_name_kana": null
  },
  "1702": {
    "postcode": "7611702",
    "prefecture": "香川県",
    "prefecture_kana": "カガワケン",
    "prefecture_code": 37,
    "city": "高松市",
    "city_kana": "タカマツシ",
    "town": "香川町寺井",
    "town_kana": "カガワチョウテライ",
    "street": null,
    "office_name": null,
    "office_name_kana": null
  },
  "1703": {
    "postcode": "7611703",
    "prefecture": "香川県",
    "prefecture_kana": "カガワケン",
    "prefecture_code": 37,
    "city": "高松市",
    "city_kana": "タカマツシ",
    "town": "香川町浅野",
    "town_kana": "カガワチョウアサノ",
    "street": null,
    "office_name": null,
    "office_name_kana": null
  },
  "1704": {
    "postcode": "7611704",
    "prefecture": "香川県",
    "prefecture_kana": "カガワケン",
    "prefecture_code": 37,
    "city": "高松市",
    "city_kana": "タカマツシ",
    "town": "香川町川内原",
    "town_kana": "カガワチョウカワナイハラ",
    "street": null,
    "office_name": null,
    "office_name_kana": null
  },
  "1705": {
    "postcode": "7611705",
    "prefecture": "香川県",
    "prefecture_kana": "カガワケン",
    "prefecture_code": 37,
    "city": "高松市",
    "city_kana": "タカマツシ",
    "town": "香川町川東下",
    "town_kana": "カガワチョウカワヒガシシモ",
    "street": null,
    "office_name": null,
    "office_name_kana": null
  },
  "1706": {
    "postcode": "7611706",
    "prefecture": "香川県",
    "prefecture_kana": "カガワケン",
    "prefecture_code": 37,
    "city": "高松市",
    "city_kana": "タカマツシ",
    "town": "香川町川東上",
    "town_kana": "カガワチョウカワヒガシカミ",
    "street": null,
    "office_name": null,
    "office_name_kana": null
  },
  "1707": {
    "postcode": "7611707",
    "prefecture": "香川県",
    "prefecture_kana": "カガワケン",
    "prefecture_code": 37,
    "city": "高松市",
    "city_kana": "タカマツシ",
    "town": "香川町東谷",
    "town_kana": "カガワチョウヒガシタニ",
    "street": null,
    "office_name": null,
    "office_name_kana": null
  },
  "1708": {
    "postcode": "7611708",
    "prefecture": "香川県",
    "prefecture_kana": "カガワケン",
    "prefecture_code": 37,
    "city": "高松市",
    "city_kana": "タカマツシ",
    "town": "香川町安原下",
    "town_kana": "カガワチョウヤスハラシモ",
    "street": null,
    "office_name": null,
    "office_name_kana": null
  },
  "1792": {
    "postcode": "7611792",
    "prefecture": "香川県",
    "prefecture_kana": "カガワケン",
    "prefecture_code": 37,
    "city": "高松市",
    "city_kana": "タカマツシ",
    "town": "香川町川東上",
    "town_kana": "カガワチョウカワヒガシカミ",
    "street": "２６００",
    "office_name": "四国松下設備機器　株式会社",
    "office_name_kana": "シコクマツシタセツビキキ カブシキガイシヤ"
  },
  "1793": {
    "postcode": "7611793",
    "prefecture": "香川県",
    "prefecture_kana": "カガワケン",
    "prefecture_code": 37,
    "city": "高松市",
    "city_kana": "タカマツシ",
    "town": "香川町大野",
    "town_kana": "カガワチョウオオノ",
    "street": "下中津２１３４−６",
    "office_name": "四国繊維販売　（株）",
    "office_name_kana": "シコクセンイハンバイ カブシキガイシヤ"
  },
  "1794": {
    "postcode": "7611794",
    "prefecture": "香川県",
    "prefecture_kana": "カガワケン",
    "prefecture_code": 37,
    "city": "高松市",
    "city_kana": "タカマツシ",
    "town": "香川町大野",
    "town_kana": "カガワチョウオオノ",
    "street": "２００１",
    "office_name": "香川県立　香川中央高等学校",
    "office_name_kana": "カガワケンリツ カガワチユウオウコウトウガツコウ"
  },
  "1795": {
    "postcode": "7611795",
    "prefecture": "香川県",
    "prefecture_kana": "カガワケン",
    "prefecture_code": 37,
    "city": "高松市",
    "city_kana": "タカマツシ",
    "town": "香川町川東上",
    "town_kana": "カガワチョウカワヒガシカミ",
    "street": "１８６５−１３",
    "office_name": "高松市役所　香川支所",
    "office_name_kana": "タカマツシヤクシヨ カガワシシヨ"
  },
  "2101": {
    "postcode": "7612101",
    "prefecture": "香川県",
    "prefecture_kana": "カガワケン",
    "prefecture_code": 37,
    "city": "綾歌郡綾川町",
    "city_kana": "アヤウタグンアヤガワチョウ",
    "town": "畑田",
    "town_kana": "ハタダ",
    "street": null,
    "office_name": null,
    "office_name_kana": null
  },
  "2102": {
    "postcode": "7612102",
    "prefecture": "香川県",
    "prefecture_kana": "カガワケン",
    "prefecture_code": 37,
    "city": "綾歌郡綾川町",
    "city_kana": "アヤウタグンアヤガワチョウ",
    "town": "千疋",
    "town_kana": "センビキ",
    "street": null,
    "office_name": null,
    "office_name_kana": null
  },
  "2103": {
    "postcode": "7612103",
    "prefecture": "香川県",
    "prefecture_kana": "カガワケン",
    "prefecture_code": 37,
    "city": "綾歌郡綾川町",
    "city_kana": "アヤウタグンアヤガワチョウ",
    "town": "陶",
    "town_kana": "スエ",
    "street": null,
    "office_name": null,
    "office_name_kana": null
  },
  "2201": {
    "postcode": "7612201",
    "prefecture": "香川県",
    "prefecture_kana": "カガワケン",
    "prefecture_code": 37,
    "city": "綾歌郡綾川町",
    "city_kana": "アヤウタグンアヤガワチョウ",
    "town": "枌所東",
    "town_kana": "ソギショヒガシ",
    "street": null,
    "office_name": null,
    "office_name_kana": null
  },
  "2202": {
    "postcode": "7612202",
    "prefecture": "香川県",
    "prefecture_kana": "カガワケン",
    "prefecture_code": 37,
    "city": "綾歌郡綾川町",
    "city_kana": "アヤウタグンアヤガワチョウ",
    "town": "枌所西",
    "town_kana": "ソギショニシ",
    "street": null,
    "office_name": null,
    "office_name_kana": null
  },
  "2203": {
    "postcode": "7612203",
    "prefecture": "香川県",
    "prefecture_kana": "カガワケン",
    "prefecture_code": 37,
    "city": "綾歌郡綾川町",
    "city_kana": "アヤウタグンアヤガワチョウ",
    "town": "山田上",
    "town_kana": "ヤマダカミ",
    "street": null,
    "office_name": null,
    "office_name_kana": null
  },
  "2204": {
    "postcode": "7612204",
    "prefecture": "香川県",
    "prefecture_kana": "カガワケン",
    "prefecture_code": 37,
    "city": "綾歌郡綾川町",
    "city_kana": "アヤウタグンアヤガワチョウ",
    "town": "山田下",
    "town_kana": "ヤマダシモ",
    "street": null,
    "office_name": null,
    "office_name_kana": null
  },
  "2205": {
    "postcode": "7612205",
    "prefecture": "香川県",
    "prefecture_kana": "カガワケン",
    "prefecture_code": 37,
    "city": "綾歌郡綾川町",
    "city_kana": "アヤウタグンアヤガワチョウ",
    "town": "東分",
    "town_kana": "ヒガシブン",
    "street": null,
    "office_name": null,
    "office_name_kana": null
  },
  "2206": {
    "postcode": "7612206",
    "prefecture": "香川県",
    "prefecture_kana": "カガワケン",
    "prefecture_code": 37,
    "city": "綾歌郡綾川町",
    "city_kana": "アヤウタグンアヤガワチョウ",
    "town": "西分",
    "town_kana": "ニシブン",
    "street": null,
    "office_name": null,
    "office_name_kana": null
  },
  "2207": {
    "postcode": "7612207",
    "prefecture": "香川県",
    "prefecture_kana": "カガワケン",
    "prefecture_code": 37,
    "city": "綾歌郡綾川町",
    "city_kana": "アヤウタグンアヤガワチョウ",
    "town": "羽床上",
    "town_kana": "ハユカカミ",
    "street": null,
    "office_name": null,
    "office_name_kana": null
  },
  "2208": {
    "postcode": "7612208",
    "prefecture": "香川県",
    "prefecture_kana": "カガワケン",
    "prefecture_code": 37,
    "city": "綾歌郡綾川町",
    "city_kana": "アヤウタグンアヤガワチョウ",
    "town": "牛川",
    "town_kana": "ウシカワ",
    "street": null,
    "office_name": null,
    "office_name_kana": null
  },
  "2300": {
    "postcode": "7612300",
    "prefecture": "香川県",
    "prefecture_kana": "カガワケン",
    "prefecture_code": 37,
    "city": "綾歌郡綾川町",
    "city_kana": "アヤウタグンアヤガワチョウ",
    "town": "",
    "town_kana": "",
    "street": null,
    "office_name": null,
    "office_name_kana": null
  },
  "2304": {
    "postcode": "7612304",
    "prefecture": "香川県",
    "prefecture_kana": "カガワケン",
    "prefecture_code": 37,
    "city": "綾歌郡綾川町",
    "city_kana": "アヤウタグンアヤガワチョウ",
    "town": "萱原",
    "town_kana": "カヤハラ",
    "street": null,
    "office_name": null,
    "office_name_kana": null
  },
  "2305": {
    "postcode": "7612305",
    "prefecture": "香川県",
    "prefecture_kana": "カガワケン",
    "prefecture_code": 37,
    "city": "綾歌郡綾川町",
    "city_kana": "アヤウタグンアヤガワチョウ",
    "town": "滝宮",
    "town_kana": "タキノミヤ",
    "street": null,
    "office_name": null,
    "office_name_kana": null
  },
  "2306": {
    "postcode": "7612306",
    "prefecture": "香川県",
    "prefecture_kana": "カガワケン",
    "prefecture_code": 37,
    "city": "綾歌郡綾川町",
    "city_kana": "アヤウタグンアヤガワチョウ",
    "town": "北",
    "town_kana": "キタ",
    "street": null,
    "office_name": null,
    "office_name_kana": null
  },
  "2307": {
    "postcode": "7612307",
    "prefecture": "香川県",
    "prefecture_kana": "カガワケン",
    "prefecture_code": 37,
    "city": "綾歌郡綾川町",
    "city_kana": "アヤウタグンアヤガワチョウ",
    "town": "小野",
    "town_kana": "オノ",
    "street": null,
    "office_name": null,
    "office_name_kana": null
  },
  "2308": {
    "postcode": "7612308",
    "prefecture": "香川県",
    "prefecture_kana": "カガワケン",
    "prefecture_code": 37,
    "city": "綾歌郡綾川町",
    "city_kana": "アヤウタグンアヤガワチョウ",
    "town": "羽床下",
    "town_kana": "ハユカシモ",
    "street": null,
    "office_name": null,
    "office_name_kana": null
  },
  "2392": {
    "postcode": "7612392",
    "prefecture": "香川県",
    "prefecture_kana": "カガワケン",
    "prefecture_code": 37,
    "city": "綾歌郡綾川町",
    "city_kana": "アヤウタグンアヤガワチョウ",
    "town": "滝宮",
    "town_kana": "タキノミヤ",
    "street": "２９９",
    "office_name": "綾川町役場",
    "office_name_kana": "アヤガワチヨウヤクバ"
  },
  "2393": {
    "postcode": "7612393",
    "prefecture": "香川県",
    "prefecture_kana": "カガワケン",
    "prefecture_code": 37,
    "city": "綾歌郡綾川町",
    "city_kana": "アヤウタグンアヤガワチョウ",
    "town": "滝宮",
    "town_kana": "タキノミヤ",
    "street": "４８６",
    "office_name": "香川県厚生農業協同組合連合会　滝宮総合病院",
    "office_name_kana": "カガワケンコウセイノウギヨウキヨウドウクミアイレンゴウカイ タキノミヤソウゴウビヨウイン"
  },
  "2395": {
    "postcode": "7612395",
    "prefecture": "香川県",
    "prefecture_kana": "カガワケン",
    "prefecture_code": 37,
    "city": "綾歌郡綾川町",
    "city_kana": "アヤウタグンアヤガワチョウ",
    "town": "北",
    "town_kana": "キタ",
    "street": "１０２３−１",
    "office_name": "香川県立　農業経営高等学校",
    "office_name_kana": "カガワケンリツ ノウギヨウケイエイコウトウガツコウ"
  },
  "2396": {
    "postcode": "7612396",
    "prefecture": "香川県",
    "prefecture_kana": "カガワケン",
    "prefecture_code": 37,
    "city": "綾歌郡綾川町",
    "city_kana": "アヤウタグンアヤガワチョウ",
    "town": "滝宮",
    "town_kana": "タキノミヤ",
    "street": "２８４１−１",
    "office_name": "香川松下電工　株式会社",
    "office_name_kana": "カガワマツシタデンコウ カブシキカイシヤ"
  },
  "2401": {
    "postcode": "7612401",
    "prefecture": "香川県",
    "prefecture_kana": "カガワケン",
    "prefecture_code": 37,
    "city": "丸亀市",
    "city_kana": "マルガメシ",
    "town": "綾歌町岡田上",
    "town_kana": "アヤウタチョウオカダカミ",
    "street": null,
    "office_name": null,
    "office_name_kana": null
  },
  "2402": {
    "postcode": "7612402",
    "prefecture": "香川県",
    "prefecture_kana": "カガワケン",
    "prefecture_code": 37,
    "city": "丸亀市",
    "city_kana": "マルガメシ",
    "town": "綾歌町岡田下",
    "town_kana": "アヤウタチョウオカダシモ",
    "street": null,
    "office_name": null,
    "office_name_kana": null
  },
  "2403": {
    "postcode": "7612403",
    "prefecture": "香川県",
    "prefecture_kana": "カガワケン",
    "prefecture_code": 37,
    "city": "丸亀市",
    "city_kana": "マルガメシ",
    "town": "綾歌町岡田西",
    "town_kana": "アヤウタチョウオカダニシ",
    "street": null,
    "office_name": null,
    "office_name_kana": null
  },
  "2404": {
    "postcode": "7612404",
    "prefecture": "香川県",
    "prefecture_kana": "カガワケン",
    "prefecture_code": 37,
    "city": "丸亀市",
    "city_kana": "マルガメシ",
    "town": "綾歌町岡田東",
    "town_kana": "アヤウタチョウオカダヒガシ",
    "street": null,
    "office_name": null,
    "office_name_kana": null
  },
  "2405": {
    "postcode": "7612405",
    "prefecture": "香川県",
    "prefecture_kana": "カガワケン",
    "prefecture_code": 37,
    "city": "丸亀市",
    "city_kana": "マルガメシ",
    "town": "綾歌町栗熊西",
    "town_kana": "アヤウタチョウクリクマニシ",
    "street": null,
    "office_name": null,
    "office_name_kana": null
  },
  "2406": {
    "postcode": "7612406",
    "prefecture": "香川県",
    "prefecture_kana": "カガワケン",
    "prefecture_code": 37,
    "city": "丸亀市",
    "city_kana": "マルガメシ",
    "town": "綾歌町栗熊東",
    "town_kana": "アヤウタチョウクリクマヒガシ",
    "street": null,
    "office_name": null,
    "office_name_kana": null
  },
  "2407": {
    "postcode": "7612407",
    "prefecture": "香川県",
    "prefecture_kana": "カガワケン",
    "prefecture_code": 37,
    "city": "丸亀市",
    "city_kana": "マルガメシ",
    "town": "綾歌町富熊",
    "town_kana": "アヤウタチョウトミクマ",
    "street": null,
    "office_name": null,
    "office_name_kana": null
  },
  "2408": [
    {
      "postcode": "7612408",
      "prefecture": "香川県",
      "prefecture_kana": "カガワケン",
      "prefecture_code": 37,
      "city": "丸亀市",
      "city_kana": "マルガメシ",
      "town": "綾歌町富熊",
      "town_kana": "アヤウタチョウトミクマ",
      "street": null,
      "office_name": null,
      "office_name_kana": null
    },
    {
      "postcode": "7612408",
      "prefecture": "香川県",
      "prefecture_kana": "カガワケン",
      "prefecture_code": 37,
      "city": "丸亀市",
      "city_kana": "マルガメシ",
      "town": "綾歌町富熊富士見坂",
      "town_kana": "アヤウタチョウトミクマフジミサカ",
      "street": null,
      "office_name": null,
      "office_name_kana": null
    }
  ],
  "2492": {
    "postcode": "7612492",
    "prefecture": "香川県",
    "prefecture_kana": "カガワケン",
    "prefecture_code": 37,
    "city": "丸亀市",
    "city_kana": "マルガメシ",
    "town": "綾歌町栗熊西",
    "town_kana": "アヤウタチョウクリクマニシ",
    "street": "１６３８",
    "office_name": "丸亀市　綾歌市民総合センター",
    "office_name_kana": "マルガメシ アヤウタシミンソウゴウセンタ-"
  },
  "2493": {
    "postcode": "7612493",
    "prefecture": "香川県",
    "prefecture_kana": "カガワケン",
    "prefecture_code": 37,
    "city": "丸亀市",
    "city_kana": "マルガメシ",
    "town": "綾歌町栗熊西",
    "town_kana": "アヤウタチョウクリクマニシ",
    "street": "４０−１",
    "office_name": "ニューレオマワールド",
    "office_name_kana": "ニユ-レオマワ-ルド"
  },
  "3110": {
    "postcode": "7613110",
    "prefecture": "香川県",
    "prefecture_kana": "カガワケン",
    "prefecture_code": 37,
    "city": "香川郡直島町",
    "city_kana": "カガワグンナオシマチョウ",
    "town": "",
    "town_kana": "",
    "street": null,
    "office_name": null,
    "office_name_kana": null
  },
  "4100": {
    "postcode": "7614100",
    "prefecture": "香川県",
    "prefecture_kana": "カガワケン",
    "prefecture_code": 37,
    "city": "小豆郡土庄町",
    "city_kana": "ショウズグントノショウチョウ",
    "town": "",
    "town_kana": "",
    "street": null,
    "office_name": null,
    "office_name_kana": null
  },
  "4101": {
    "postcode": "7614101",
    "prefecture": "香川県",
    "prefecture_kana": "カガワケン",
    "prefecture_code": 37,
    "city": "小豆郡土庄町",
    "city_kana": "ショウズグントノショウチョウ",
    "town": "",
    "town_kana": "",
    "street": null,
    "office_name": null,
    "office_name_kana": null
  },
  "4102": {
    "postcode": "7614102",
    "prefecture": "香川県",
    "prefecture_kana": "カガワケン",
    "prefecture_code": 37,
    "city": "小豆郡土庄町",
    "city_kana": "ショウズグントノショウチョウ",
    "town": "",
    "town_kana": "",
    "street": null,
    "office_name": null,
    "office_name_kana": null
  },
  "4103": {
    "postcode": "7614103",
    "prefecture": "香川県",
    "prefecture_kana": "カガワケン",
    "prefecture_code": 37,
    "city": "小豆郡土庄町",
    "city_kana": "ショウズグントノショウチョウ",
    "town": "",
    "town_kana": "",
    "street": null,
    "office_name": null,
    "office_name_kana": null
  },
  "4104": {
    "postcode": "7614104",
    "prefecture": "香川県",
    "prefecture_kana": "カガワケン",
    "prefecture_code": 37,
    "city": "小豆郡土庄町",
    "city_kana": "ショウズグントノショウチョウ",
    "town": "",
    "town_kana": "",
    "street": null,
    "office_name": null,
    "office_name_kana": null
  },
  "4105": {
    "postcode": "7614105",
    "prefecture": "香川県",
    "prefecture_kana": "カガワケン",
    "prefecture_code": 37,
    "city": "小豆郡土庄町",
    "city_kana": "ショウズグントノショウチョウ",
    "town": "",
    "town_kana": "",
    "street": null,
    "office_name": null,
    "office_name_kana": null
  },
  "4106": {
    "postcode": "7614106",
    "prefecture": "香川県",
    "prefecture_kana": "カガワケン",
    "prefecture_code": 37,
    "city": "小豆郡土庄町",
    "city_kana": "ショウズグントノショウチョウ",
    "town": "",
    "town_kana": "",
    "street": null,
    "office_name": null,
    "office_name_kana": null
  },
  "4111": {
    "postcode": "7614111",
    "prefecture": "香川県",
    "prefecture_kana": "カガワケン",
    "prefecture_code": 37,
    "city": "小豆郡土庄町",
    "city_kana": "ショウズグントノショウチョウ",
    "town": "",
    "town_kana": "",
    "street": null,
    "office_name": null,
    "office_name_kana": null
  },
  "4112": {
    "postcode": "7614112",
    "prefecture": "香川県",
    "prefecture_kana": "カガワケン",
    "prefecture_code": 37,
    "city": "小豆郡土庄町",
    "city_kana": "ショウズグントノショウチョウ",
    "town": "",
    "town_kana": "",
    "street": null,
    "office_name": null,
    "office_name_kana": null
  },
  "4113": {
    "postcode": "7614113",
    "prefecture": "香川県",
    "prefecture_kana": "カガワケン",
    "prefecture_code": 37,
    "city": "小豆郡土庄町",
    "city_kana": "ショウズグントノショウチョウ",
    "town": "",
    "town_kana": "",
    "street": null,
    "office_name": null,
    "office_name_kana": null
  },
  "4114": {
    "postcode": "7614114",
    "prefecture": "香川県",
    "prefecture_kana": "カガワケン",
    "prefecture_code": 37,
    "city": "小豆郡土庄町",
    "city_kana": "ショウズグントノショウチョウ",
    "town": "",
    "town_kana": "",
    "street": null,
    "office_name": null,
    "office_name_kana": null
  },
  "4115": {
    "postcode": "7614115",
    "prefecture": "香川県",
    "prefecture_kana": "カガワケン",
    "prefecture_code": 37,
    "city": "小豆郡土庄町",
    "city_kana": "ショウズグントノショウチョウ",
    "town": "",
    "town_kana": "",
    "street": null,
    "office_name": null,
    "office_name_kana": null
  },
  "4121": {
    "postcode": "7614121",
    "prefecture": "香川県",
    "prefecture_kana": "カガワケン",
    "prefecture_code": 37,
    "city": "小豆郡土庄町",
    "city_kana": "ショウズグントノショウチョウ",
    "town": "渕崎",
    "town_kana": "フチザキ",
    "street": null,
    "office_name": null,
    "office_name_kana": null
  },
  "4122": {
    "postcode": "7614122",
    "prefecture": "香川県",
    "prefecture_kana": "カガワケン",
    "prefecture_code": 37,
    "city": "小豆郡土庄町",
    "city_kana": "ショウズグントノショウチョウ",
    "town": "上庄",
    "town_kana": "カミショウ",
    "street": null,
    "office_name": null,
    "office_name_kana": null
  },
  "4131": {
    "postcode": "7614131",
    "prefecture": "香川県",
    "prefecture_kana": "カガワケン",
    "prefecture_code": 37,
    "city": "小豆郡土庄町",
    "city_kana": "ショウズグントノショウチョウ",
    "town": "伊喜末",
    "town_kana": "イギスエ",
    "street": null,
    "office_name": null,
    "office_name_kana": null
  },
  "4132": {
    "postcode": "7614132",
    "prefecture": "香川県",
    "prefecture_kana": "カガワケン",
    "prefecture_code": 37,
    "city": "小豆郡土庄町",
    "city_kana": "ショウズグントノショウチョウ",
    "town": "小江",
    "town_kana": "オエ",
    "street": null,
    "office_name": null,
    "office_name_kana": null
  },
  "4133": {
    "postcode": "7614133",
    "prefecture": "香川県",
    "prefecture_kana": "カガワケン",
    "prefecture_code": 37,
    "city": "小豆郡土庄町",
    "city_kana": "ショウズグントノショウチョウ",
    "town": "長浜",
    "town_kana": "ナガハマ",
    "street": null,
    "office_name": null,
    "office_name_kana": null
  },
  "4134": {
    "postcode": "7614134",
    "prefecture": "香川県",
    "prefecture_kana": "カガワケン",
    "prefecture_code": 37,
    "city": "小豆郡土庄町",
    "city_kana": "ショウズグントノショウチョウ",
    "town": "滝宮",
    "town_kana": "タキノミヤ",
    "street": null,
    "office_name": null,
    "office_name_kana": null
  },
  "4141": {
    "postcode": "7614141",
    "prefecture": "香川県",
    "prefecture_kana": "カガワケン",
    "prefecture_code": 37,
    "city": "小豆郡土庄町",
    "city_kana": "ショウズグントノショウチョウ",
    "town": "馬越",
    "town_kana": "ウマゴエ",
    "street": null,
    "office_name": null,
    "office_name_kana": null
  },
  "4142": {
    "postcode": "7614142",
    "prefecture": "香川県",
    "prefecture_kana": "カガワケン",
    "prefecture_code": 37,
    "city": "小豆郡土庄町",
    "city_kana": "ショウズグントノショウチョウ",
    "town": "屋形崎",
    "town_kana": "ヤカタザキ",
    "street": null,
    "office_name": null,
    "office_name_kana": null
  },
  "4143": {
    "postcode": "7614143",
    "prefecture": "香川県",
    "prefecture_kana": "カガワケン",
    "prefecture_code": 37,
    "city": "小豆郡土庄町",
    "city_kana": "ショウズグントノショウチョウ",
    "town": "見目",
    "town_kana": "ミメ",
    "street": null,
    "office_name": null,
    "office_name_kana": null
  },
  "4144": {
    "postcode": "7614144",
    "prefecture": "香川県",
    "prefecture_kana": "カガワケン",
    "prefecture_code": 37,
    "city": "小豆郡土庄町",
    "city_kana": "ショウズグントノショウチョウ",
    "town": "小海",
    "town_kana": "オミ",
    "street": null,
    "office_name": null,
    "office_name_kana": null
  },
  "4145": {
    "postcode": "7614145",
    "prefecture": "香川県",
    "prefecture_kana": "カガワケン",
    "prefecture_code": 37,
    "city": "小豆郡土庄町",
    "city_kana": "ショウズグントノショウチョウ",
    "town": "大部",
    "town_kana": "オオベ",
    "street": null,
    "office_name": null,
    "office_name_kana": null
  },
  "4146": {
    "postcode": "7614146",
    "prefecture": "香川県",
    "prefecture_kana": "カガワケン",
    "prefecture_code": 37,
    "city": "小豆郡土庄町",
    "city_kana": "ショウズグントノショウチョウ",
    "town": "小部",
    "town_kana": "コベ",
    "street": null,
    "office_name": null,
    "office_name_kana": null
  },
  "4151": {
    "postcode": "7614151",
    "prefecture": "香川県",
    "prefecture_kana": "カガワケン",
    "prefecture_code": 37,
    "city": "小豆郡土庄町",
    "city_kana": "ショウズグントノショウチョウ",
    "town": "肥土山",
    "town_kana": "ヒトヤマ",
    "street": null,
    "office_name": null,
    "office_name_kana": null
  },
  "4152": {
    "postcode": "7614152",
    "prefecture": "香川県",
    "prefecture_kana": "カガワケン",
    "prefecture_code": 37,
    "city": "小豆郡土庄町",
    "city_kana": "ショウズグントノショウチョウ",
    "town": "黒岩",
    "town_kana": "クロイワ",
    "street": null,
    "office_name": null,
    "office_name_kana": null
  },
  "4153": {
    "postcode": "7614153",
    "prefecture": "香川県",
    "prefecture_kana": "カガワケン",
    "prefecture_code": 37,
    "city": "小豆郡土庄町",
    "city_kana": "ショウズグントノショウチョウ",
    "town": "小馬越",
    "town_kana": "コウマゴエ",
    "street": null,
    "office_name": null,
    "office_name_kana": null
  },
  "4154": {
    "postcode": "7614154",
    "prefecture": "香川県",
    "prefecture_kana": "カガワケン",
    "prefecture_code": 37,
    "city": "小豆郡土庄町",
    "city_kana": "ショウズグントノショウチョウ",
    "town": "笠滝",
    "town_kana": "カサガダキ",
    "street": null,
    "office_name": null,
    "office_name_kana": null
  },
  "4155": [
    {
      "postcode": "7614155",
      "prefecture": "香川県",
      "prefecture_kana": "カガワケン",
      "prefecture_code": 37,
      "city": "小豆郡小豆島町",
      "city_kana": "ショウズグンショウドシマチョウ",
      "town": "中山",
      "town_kana": "ナカヤマ",
      "street": null,
      "office_name": null,
      "office_name_kana": null
    },
    {
      "postcode": "7614155",
      "prefecture": "香川県",
      "prefecture_kana": "カガワケン",
      "prefecture_code": 37,
      "city": "小豆郡小豆島町",
      "city_kana": "ショウズグンショウドシマチョウ",
      "town": "中山美しの原高原",
      "town_kana": "ナカヤマウツクシノハラコウゲン",
      "street": null,
      "office_name": null,
      "office_name_kana": null
    },
    {
      "postcode": "7614155",
      "prefecture": "香川県",
      "prefecture_kana": "カガワケン",
      "prefecture_code": 37,
      "city": "小豆郡小豆島町",
      "city_kana": "ショウズグンショウドシマチョウ",
      "town": "中山蛙子鳴滝",
      "town_kana": "ナカヤマカエルゴナルタキ",
      "street": null,
      "office_name": null,
      "office_name_kana": null
    }
  ],
  "4192": {
    "postcode": "7614192",
    "prefecture": "香川県",
    "prefecture_kana": "カガワケン",
    "prefecture_code": 37,
    "city": "小豆郡土庄町",
    "city_kana": "ショウズグントノショウチョウ",
    "town": "淵崎",
    "town_kana": null,
    "street": "甲１４００−２",
    "office_name": "土庄町役場",
    "office_name_kana": "トノシヨウチヨウヤクバ"
  },
  "4193": {
    "postcode": "7614193",
    "prefecture": "香川県",
    "prefecture_kana": "カガワケン",
    "prefecture_code": 37,
    "city": "小豆郡土庄町",
    "city_kana": "ショウズグントノショウチョウ",
    "town": "甲",
    "town_kana": null,
    "street": "２８２−１",
    "office_name": "土庄高等学校",
    "office_name_kana": "トノシヨウコウトウガツコウ"
  },
  "4194": {
    "postcode": "7614194",
    "prefecture": "香川県",
    "prefecture_kana": "カガワケン",
    "prefecture_code": 37,
    "city": "小豆郡土庄町",
    "city_kana": "ショウズグントノショウチョウ",
    "town": "淵崎",
    "town_kana": null,
    "street": "甲５３１−１",
    "office_name": "タカラ繊維　（株）",
    "office_name_kana": "タカラセンイ カブシキガイシヤ"
  },
  "4300": {
    "postcode": "7614300",
    "prefecture": "香川県",
    "prefecture_kana": "カガワケン",
    "prefecture_code": 37,
    "city": "小豆郡小豆島町",
    "city_kana": "ショウズグンショウドシマチョウ",
    "town": "",
    "town_kana": "",
    "street": null,
    "office_name": null,
    "office_name_kana": null
  },
  "4301": {
    "postcode": "7614301",
    "prefecture": "香川県",
    "prefecture_kana": "カガワケン",
    "prefecture_code": 37,
    "city": "小豆郡小豆島町",
    "city_kana": "ショウズグンショウドシマチョウ",
    "town": "池田",
    "town_kana": "イケダ",
    "street": null,
    "office_name": null,
    "office_name_kana": null
  },
  "4302": {
    "postcode": "7614302",
    "prefecture": "香川県",
    "prefecture_kana": "カガワケン",
    "prefecture_code": 37,
    "city": "小豆郡小豆島町",
    "city_kana": "ショウズグンショウドシマチョウ",
    "town": "蒲生",
    "town_kana": "カモウ",
    "street": null,
    "office_name": null,
    "office_name_kana": null
  },
  "4303": {
    "postcode": "7614303",
    "prefecture": "香川県",
    "prefecture_kana": "カガワケン",
    "prefecture_code": 37,
    "city": "小豆郡小豆島町",
    "city_kana": "ショウズグンショウドシマチョウ",
    "town": "中山",
    "town_kana": "ナカヤマ",
    "street": null,
    "office_name": null,
    "office_name_kana": null
  },
  "4304": {
    "postcode": "7614304",
    "prefecture": "香川県",
    "prefecture_kana": "カガワケン",
    "prefecture_code": 37,
    "city": "小豆郡小豆島町",
    "city_kana": "ショウズグンショウドシマチョウ",
    "town": "室生",
    "town_kana": "ムロウ",
    "street": null,
    "office_name": null,
    "office_name_kana": null
  },
  "4305": {
    "postcode": "7614305",
    "prefecture": "香川県",
    "prefecture_kana": "カガワケン",
    "prefecture_code": 37,
    "city": "小豆郡小豆島町",
    "city_kana": "ショウズグンショウドシマチョウ",
    "town": "二面",
    "town_kana": "フタオモテ",
    "street": null,
    "office_name": null,
    "office_name_kana": null
  },
  "4306": {
    "postcode": "7614306",
    "prefecture": "香川県",
    "prefecture_kana": "カガワケン",
    "prefecture_code": 37,
    "city": "小豆郡小豆島町",
    "city_kana": "ショウズグンショウドシマチョウ",
    "town": "吉野",
    "town_kana": "ヨシノ",
    "street": null,
    "office_name": null,
    "office_name_kana": null
  },
  "4307": {
    "postcode": "7614307",
    "prefecture": "香川県",
    "prefecture_kana": "カガワケン",
    "prefecture_code": 37,
    "city": "小豆郡小豆島町",
    "city_kana": "ショウズグンショウドシマチョウ",
    "town": "蒲野",
    "town_kana": "カマノ",
    "street": null,
    "office_name": null,
    "office_name_kana": null
  },
  "4308": {
    "postcode": "7614308",
    "prefecture": "香川県",
    "prefecture_kana": "カガワケン",
    "prefecture_code": 37,
    "city": "小豆郡小豆島町",
    "city_kana": "ショウズグンショウドシマチョウ",
    "town": "神浦",
    "town_kana": "コウノウラ",
    "street": null,
    "office_name": null,
    "office_name_kana": null
  },
  "4388": {
    "postcode": "7614388",
    "prefecture": "香川県",
    "prefecture_kana": "カガワケン",
    "prefecture_code": 37,
    "city": "小豆郡小豆島町",
    "city_kana": "ショウズグンショウドシマチョウ",
    "town": "池田",
    "town_kana": "イケダ",
    "street": "２１００−４（池田郵便局私書箱第１号）",
    "office_name": "小豆島町役場",
    "office_name_kana": "シヨウドシマチヨウヤクバ"
  },
  "4392": {
    "postcode": "7614392",
    "prefecture": "香川県",
    "prefecture_kana": "カガワケン",
    "prefecture_code": 37,
    "city": "小豆郡小豆島町",
    "city_kana": "ショウズグンショウドシマチョウ",
    "town": "池田",
    "town_kana": "イケダ",
    "street": "３６２９−１",
    "office_name": "小豆島総合食品　株式会社",
    "office_name_kana": "シヨウドシマソウゴウシヨクヒン カブシキガイシヤ"
  },
  "4393": {
    "postcode": "7614393",
    "prefecture": "香川県",
    "prefecture_kana": "カガワケン",
    "prefecture_code": 37,
    "city": "小豆郡小豆島町",
    "city_kana": "ショウズグンショウドシマチョウ",
    "town": "池田",
    "town_kana": "イケダ",
    "street": "２１２５",
    "office_name": "株式会社　ナガセ",
    "office_name_kana": "カブシキガイシヤ ナガセ"
  },
  "4395": {
    "postcode": "7614395",
    "prefecture": "香川県",
    "prefecture_kana": "カガワケン",
    "prefecture_code": 37,
    "city": "小豆郡小豆島町",
    "city_kana": "ショウズグンショウドシマチョウ",
    "town": "池田",
    "town_kana": "イケダ",
    "street": "２３５２",
    "office_name": "有限会社　井上誠耕園",
    "office_name_kana": "ユウゲンガイシヤ イノウエセイコウエン"
  },
  "4396": {
    "postcode": "7614396",
    "prefecture": "香川県",
    "prefecture_kana": "カガワケン",
    "prefecture_code": 37,
    "city": "小豆郡小豆島町",
    "city_kana": "ショウズグンショウドシマチョウ",
    "town": "池田",
    "town_kana": "イケダ",
    "street": "２３９３−２",
    "office_name": "丸善製麺工場　有限会社",
    "office_name_kana": "マルゼンセイメンコウジヨウ ユウゲンガイシヤ"
  },
  "4397": {
    "postcode": "7614397",
    "prefecture": "香川県",
    "prefecture_kana": "カガワケン",
    "prefecture_code": 37,
    "city": "小豆郡小豆島町",
    "city_kana": "ショウズグンショウドシマチョウ",
    "town": "池田",
    "town_kana": "イケダ",
    "street": "１０３１",
    "office_name": "小豆島手延素麺協同組合",
    "office_name_kana": "シヨウドシマテノベソウメンキヨウドウクミアイ"
  },
  "4398": {
    "postcode": "7614398",
    "prefecture": "香川県",
    "prefecture_kana": "カガワケン",
    "prefecture_code": 37,
    "city": "小豆郡小豆島町",
    "city_kana": "ショウズグンショウドシマチョウ",
    "town": "池田",
    "town_kana": "イケダ",
    "street": "９８４−５",
    "office_name": "東洋オリーブ　株式会社",
    "office_name_kana": "トウヨウオリ-ブ カブシキガイシヤ"
  },
  "4401": {
    "postcode": "7614401",
    "prefecture": "香川県",
    "prefecture_kana": "カガワケン",
    "prefecture_code": 37,
    "city": "小豆郡小豆島町",
    "city_kana": "ショウズグンショウドシマチョウ",
    "town": "吉田",
    "town_kana": "ヨシダ",
    "street": null,
    "office_name": null,
    "office_name_kana": null
  },
  "4402": {
    "postcode": "7614402",
    "prefecture": "香川県",
    "prefecture_kana": "カガワケン",
    "prefecture_code": 37,
    "city": "小豆郡小豆島町",
    "city_kana": "ショウズグンショウドシマチョウ",
    "town": "福田",
    "town_kana": "フクダ",
    "street": null,
    "office_name": null,
    "office_name_kana": null
  },
  "4403": {
    "postcode": "7614403",
    "prefecture": "香川県",
    "prefecture_kana": "カガワケン",
    "prefecture_code": 37,
    "city": "小豆郡小豆島町",
    "city_kana": "ショウズグンショウドシマチョウ",
    "town": "当浜",
    "town_kana": "アテハマ",
    "street": null,
    "office_name": null,
    "office_name_kana": null
  },
  "4404": {
    "postcode": "7614404",
    "prefecture": "香川県",
    "prefecture_kana": "カガワケン",
    "prefecture_code": 37,
    "city": "小豆郡小豆島町",
    "city_kana": "ショウズグンショウドシマチョウ",
    "town": "岩谷",
    "town_kana": "イワガタニ",
    "street": null,
    "office_name": null,
    "office_name_kana": null
  },
  "4405": {
    "postcode": "7614405",
    "prefecture": "香川県",
    "prefecture_kana": "カガワケン",
    "prefecture_code": 37,
    "city": "小豆郡小豆島町",
    "city_kana": "ショウズグンショウドシマチョウ",
    "town": "橘",
    "town_kana": "タチバナ",
    "street": null,
    "office_name": null,
    "office_name_kana": null
  },
  "4411": {
    "postcode": "7614411",
    "prefecture": "香川県",
    "prefecture_kana": "カガワケン",
    "prefecture_code": 37,
    "city": "小豆郡小豆島町",
    "city_kana": "ショウズグンショウドシマチョウ",
    "town": "安田",
    "town_kana": "ヤスダ",
    "street": null,
    "office_name": null,
    "office_name_kana": null
  },
  "4412": {
    "postcode": "7614412",
    "prefecture": "香川県",
    "prefecture_kana": "カガワケン",
    "prefecture_code": 37,
    "city": "小豆郡小豆島町",
    "city_kana": "ショウズグンショウドシマチョウ",
    "town": "木庄",
    "town_kana": "キノショウ",
    "street": null,
    "office_name": null,
    "office_name_kana": null
  },
  "4421": {
    "postcode": "7614421",
    "prefecture": "香川県",
    "prefecture_kana": "カガワケン",
    "prefecture_code": 37,
    "city": "小豆郡小豆島町",
    "city_kana": "ショウズグンショウドシマチョウ",
    "town": "苗羽",
    "town_kana": "ノウマ",
    "street": null,
    "office_name": null,
    "office_name_kana": null
  },
  "4422": {
    "postcode": "7614422",
    "prefecture": "香川県",
    "prefecture_kana": "カガワケン",
    "prefecture_code": 37,
    "city": "小豆郡小豆島町",
    "city_kana": "ショウズグンショウドシマチョウ",
    "town": "古江",
    "town_kana": "フルエ",
    "street": null,
    "office_name": null,
    "office_name_kana": null
  },
  "4423": {
    "postcode": "7614423",
    "prefecture": "香川県",
    "prefecture_kana": "カガワケン",
    "prefecture_code": 37,
    "city": "小豆郡小豆島町",
    "city_kana": "ショウズグンショウドシマチョウ",
    "town": "堀越",
    "town_kana": "ホリコシ",
    "street": null,
    "office_name": null,
    "office_name_kana": null
  },
  "4424": {
    "postcode": "7614424",
    "prefecture": "香川県",
    "prefecture_kana": "カガワケン",
    "prefecture_code": 37,
    "city": "小豆郡小豆島町",
    "city_kana": "ショウズグンショウドシマチョウ",
    "town": "田浦",
    "town_kana": "タノウラ",
    "street": null,
    "office_name": null,
    "office_name_kana": null
  },
  "4425": {
    "postcode": "7614425",
    "prefecture": "香川県",
    "prefecture_kana": "カガワケン",
    "prefecture_code": 37,
    "city": "小豆郡小豆島町",
    "city_kana": "ショウズグンショウドシマチョウ",
    "town": "坂手",
    "town_kana": "サカテ",
    "street": null,
    "office_name": null,
    "office_name_kana": null
  },
  "4426": {
    "postcode": "7614426",
    "prefecture": "香川県",
    "prefecture_kana": "カガワケン",
    "prefecture_code": 37,
    "city": "小豆郡小豆島町",
    "city_kana": "ショウズグンショウドシマチョウ",
    "town": "馬木",
    "town_kana": "ウマキ",
    "street": null,
    "office_name": null,
    "office_name_kana": null
  },
  "4431": {
    "postcode": "7614431",
    "prefecture": "香川県",
    "prefecture_kana": "カガワケン",
    "prefecture_code": 37,
    "city": "小豆郡小豆島町",
    "city_kana": "ショウズグンショウドシマチョウ",
    "town": "片城",
    "town_kana": "カタジョウ",
    "street": null,
    "office_name": null,
    "office_name_kana": null
  },
  "4432": {
    "postcode": "7614432",
    "prefecture": "香川県",
    "prefecture_kana": "カガワケン",
    "prefecture_code": 37,
    "city": "小豆郡小豆島町",
    "city_kana": "ショウズグンショウドシマチョウ",
    "town": "草壁本町",
    "town_kana": "クサカベホンマチ",
    "street": null,
    "office_name": null,
    "office_name_kana": null
  },
  "4433": {
    "postcode": "7614433",
    "prefecture": "香川県",
    "prefecture_kana": "カガワケン",
    "prefecture_code": 37,
    "city": "小豆郡小豆島町",
    "city_kana": "ショウズグンショウドシマチョウ",
    "town": "神懸通",
    "town_kana": "カンカケドオリ",
    "street": null,
    "office_name": null,
    "office_name_kana": null
  },
  "4434": {
    "postcode": "7614434",
    "prefecture": "香川県",
    "prefecture_kana": "カガワケン",
    "prefecture_code": 37,
    "city": "小豆郡小豆島町",
    "city_kana": "ショウズグンショウドシマチョウ",
    "town": "西村",
    "town_kana": "ニシムラ",
    "street": null,
    "office_name": null,
    "office_name_kana": null
  },
  "4489": {
    "postcode": "7614489",
    "prefecture": "香川県",
    "prefecture_kana": "カガワケン",
    "prefecture_code": 37,
    "city": "小豆郡小豆島町",
    "city_kana": "ショウズグンショウドシマチョウ",
    "town": "片城",
    "town_kana": "カタジョウ",
    "street": "甲４４−１３０",
    "office_name": "中国電力ネットワーク　株式会社　小豆島ネットワークセンター",
    "office_name_kana": "チユウゴクデンリヨクネツトワ-ク カブシキカイシヤ シヨウドシマネツトワ-クセンタ-"
  },
  "4492": {
    "postcode": "7614492",
    "prefecture": "香川県",
    "prefecture_kana": "カガワケン",
    "prefecture_code": 37,
    "city": "小豆郡小豆島町",
    "city_kana": "ショウズグンショウドシマチョウ",
    "town": "安田",
    "town_kana": "ヤスダ",
    "street": "甲１４４−９０（内海郵便局私書箱第７号）",
    "office_name": "小豆島町役場　分庁舎（内海庁舎）",
    "office_name_kana": "シヨウドシマチヨウヤクバ ブンチヨウシヤ(ウチノミチヨウシヤ)"
  },
  "4493": {
    "postcode": "7614493",
    "prefecture": "香川県",
    "prefecture_kana": "カガワケン",
    "prefecture_code": 37,
    "city": "小豆郡小豆島町",
    "city_kana": "ショウズグンショウドシマチョウ",
    "town": "苗羽",
    "town_kana": "ノウマ",
    "street": "甲２２２６−１５",
    "office_name": "宝食品　株式会社",
    "office_name_kana": "タカラシヨクヒン カブシキガイシヤ"
  },
  "4494": {
    "postcode": "7614494",
    "prefecture": "香川県",
    "prefecture_kana": "カガワケン",
    "prefecture_code": 37,
    "city": "小豆郡小豆島町",
    "city_kana": "ショウズグンショウドシマチョウ",
    "town": "馬木",
    "town_kana": "ウマキ",
    "street": "甲１８２",
    "office_name": "島乃香　株式会社",
    "office_name_kana": "シマノカ カブシキガイシヤ"
  },
  "4495": {
    "postcode": "7614495",
    "prefecture": "香川県",
    "prefecture_kana": "カガワケン",
    "prefecture_code": 37,
    "city": "小豆郡小豆島町",
    "city_kana": "ショウズグンショウドシマチョウ",
    "town": "神懸通",
    "town_kana": "カンカケドオリ",
    "street": "甲８８１",
    "office_name": "丸島醤油　株式会社",
    "office_name_kana": "マルシマシヨウユ カブシキガイシヤ"
  },
  "4496": {
    "postcode": "7614496",
    "prefecture": "香川県",
    "prefecture_kana": "カガワケン",
    "prefecture_code": 37,
    "city": "小豆郡小豆島町",
    "city_kana": "ショウズグンショウドシマチョウ",
    "town": "草壁本町",
    "town_kana": "クサカベホンマチ",
    "street": "５７２−３２",
    "office_name": "株式会社　亜味撰",
    "office_name_kana": "カブシキガイシヤ アミセン"
  },
  "4497": {
    "postcode": "7614497",
    "prefecture": "香川県",
    "prefecture_kana": "カガワケン",
    "prefecture_code": 37,
    "city": "小豆郡小豆島町",
    "city_kana": "ショウズグンショウドシマチョウ",
    "town": "苗羽",
    "town_kana": "ノウマ",
    "street": "甲１５０６",
    "office_name": "株式会社　島一",
    "office_name_kana": "カブシキガイシヤ シマイチ"
  },
  "4498": {
    "postcode": "7614498",
    "prefecture": "香川県",
    "prefecture_kana": "カガワケン",
    "prefecture_code": 37,
    "city": "小豆郡小豆島町",
    "city_kana": "ショウズグンショウドシマチョウ",
    "town": "苗羽",
    "town_kana": "ノウマ",
    "street": "甲１８５０（内海郵便局私書箱第２号）",
    "office_name": "盛田　株式会社　小豆島工場",
    "office_name_kana": "モリタ カブシキガイシヤ シヨウドシマコウジヨウ"
  },
  "4661": {
    "postcode": "7614661",
    "prefecture": "香川県",
    "prefecture_kana": "カガワケン",
    "prefecture_code": 37,
    "city": "小豆郡土庄町",
    "city_kana": "ショウズグントノショウチョウ",
    "town": "豊島家浦",
    "town_kana": "テシマイエウラ",
    "street": null,
    "office_name": null,
    "office_name_kana": null
  },
  "4662": {
    "postcode": "7614662",
    "prefecture": "香川県",
    "prefecture_kana": "カガワケン",
    "prefecture_code": 37,
    "city": "小豆郡土庄町",
    "city_kana": "ショウズグントノショウチョウ",
    "town": "豊島唐櫃",
    "town_kana": "テシマカラト",
    "street": null,
    "office_name": null,
    "office_name_kana": null
  },
  "4663": {
    "postcode": "7614663",
    "prefecture": "香川県",
    "prefecture_kana": "カガワケン",
    "prefecture_code": 37,
    "city": "小豆郡土庄町",
    "city_kana": "ショウズグントノショウチョウ",
    "town": "豊島甲生",
    "town_kana": "テシマコウ",
    "street": null,
    "office_name": null,
    "office_name_kana": null
  },
  "4664": [
    {
      "postcode": "7614664",
      "prefecture": "香川県",
      "prefecture_kana": "カガワケン",
      "prefecture_code": 37,
      "city": "小豆郡土庄町",
      "city_kana": "ショウズグントノショウチョウ",
      "town": "伊喜末",
      "town_kana": "イギスエ",
      "street": null,
      "office_name": null,
      "office_name_kana": null
    },
    {
      "postcode": "7614664",
      "prefecture": "香川県",
      "prefecture_kana": "カガワケン",
      "prefecture_code": 37,
      "city": "小豆郡土庄町",
      "city_kana": "ショウズグントノショウチョウ",
      "town": "伊喜末小豊島",
      "town_kana": "イギスエオデシマ",
      "street": null,
      "office_name": null,
      "office_name_kana": null
    }
  ],
  "8001": {
    "postcode": "7618001",
    "prefecture": "香川県",
    "prefecture_kana": "カガワケン",
    "prefecture_code": 37,
    "city": "高松市",
    "city_kana": "タカマツシ",
    "town": "亀水町",
    "town_kana": "タルミチョウ",
    "street": null,
    "office_name": null,
    "office_name_kana": null
  },
  "8002": {
    "postcode": "7618002",
    "prefecture": "香川県",
    "prefecture_kana": "カガワケン",
    "prefecture_code": 37,
    "city": "高松市",
    "city_kana": "タカマツシ",
    "town": "生島町",
    "town_kana": "イクシマチョウ",
    "street": null,
    "office_name": null,
    "office_name_kana": null
  },
  "8003": {
    "postcode": "7618003",
    "prefecture": "香川県",
    "prefecture_kana": "カガワケン",
    "prefecture_code": 37,
    "city": "高松市",
    "city_kana": "タカマツシ",
    "town": "神在川窪町",
    "town_kana": "シンザイカワクボチョウ",
    "street": null,
    "office_name": null,
    "office_name_kana": null
  },
  "8004": {
    "postcode": "7618004",
    "prefecture": "香川県",
    "prefecture_kana": "カガワケン",
    "prefecture_code": 37,
    "city": "高松市",
    "city_kana": "タカマツシ",
    "town": "中山町",
    "town_kana": "ナカヤマチョウ",
    "street": null,
    "office_name": null,
    "office_name_kana": null
  },
  "8005": {
    "postcode": "7618005",
    "prefecture": "香川県",
    "prefecture_kana": "カガワケン",
    "prefecture_code": 37,
    "city": "高松市",
    "city_kana": "タカマツシ",
    "town": "植松町",
    "town_kana": "ウエマツチョウ",
    "street": null,
    "office_name": null,
    "office_name_kana": null
  },
  "8011": {
    "postcode": "7618011",
    "prefecture": "香川県",
    "prefecture_kana": "カガワケン",
    "prefecture_code": 37,
    "city": "高松市",
    "city_kana": "タカマツシ",
    "town": "香西北町",
    "town_kana": "コウザイキタマチ",
    "street": null,
    "office_name": null,
    "office_name_kana": null
  },
  "8012": {
    "postcode": "7618012",
    "prefecture": "香川県",
    "prefecture_kana": "カガワケン",
    "prefecture_code": 37,
    "city": "高松市",
    "city_kana": "タカマツシ",
    "town": "香西本町",
    "town_kana": "コウザイホンマチ",
    "street": null,
    "office_name": null,
    "office_name_kana": null
  },
  "8013": {
    "postcode": "7618013",
    "prefecture": "香川県",
    "prefecture_kana": "カガワケン",
    "prefecture_code": 37,
    "city": "高松市",
    "city_kana": "タカマツシ",
    "town": "香西東町",
    "town_kana": "コウザイヒガシマチ",
    "street": null,
    "office_name": null,
    "office_name_kana": null
  },
  "8014": {
    "postcode": "7618014",
    "prefecture": "香川県",
    "prefecture_kana": "カガワケン",
    "prefecture_code": 37,
    "city": "高松市",
    "city_kana": "タカマツシ",
    "town": "香西南町",
    "town_kana": "コウザイミナミマチ",
    "street": null,
    "office_name": null,
    "office_name_kana": null
  },
  "8015": {
    "postcode": "7618015",
    "prefecture": "香川県",
    "prefecture_kana": "カガワケン",
    "prefecture_code": 37,
    "city": "高松市",
    "city_kana": "タカマツシ",
    "town": "香西西町",
    "town_kana": "コウザイニシマチ",
    "street": null,
    "office_name": null,
    "office_name_kana": null
  },
  "8021": {
    "postcode": "7618021",
    "prefecture": "香川県",
    "prefecture_kana": "カガワケン",
    "prefecture_code": 37,
    "city": "高松市",
    "city_kana": "タカマツシ",
    "town": "鬼無町是竹",
    "town_kana": "キナシチョウコレタケ",
    "street": null,
    "office_name": null,
    "office_name_kana": null
  },
  "8022": {
    "postcode": "7618022",
    "prefecture": "香川県",
    "prefecture_kana": "カガワケン",
    "prefecture_code": 37,
    "city": "高松市",
    "city_kana": "タカマツシ",
    "town": "鬼無町佐料",
    "town_kana": "キナシチョウサリョウ",
    "street": null,
    "office_name": null,
    "office_name_kana": null
  },
  "8023": {
    "postcode": "7618023",
    "prefecture": "香川県",
    "prefecture_kana": "カガワケン",
    "prefecture_code": 37,
    "city": "高松市",
    "city_kana": "タカマツシ",
    "town": "鬼無町佐藤",
    "town_kana": "キナシチョウサトウ",
    "street": null,
    "office_name": null,
    "office_name_kana": null
  },
  "8024": {
    "postcode": "7618024",
    "prefecture": "香川県",
    "prefecture_kana": "カガワケン",
    "prefecture_code": 37,
    "city": "高松市",
    "city_kana": "タカマツシ",
    "town": "鬼無町藤井",
    "town_kana": "キナシチョウフジイ",
    "street": null,
    "office_name": null,
    "office_name_kana": null
  },
  "8025": {
    "postcode": "7618025",
    "prefecture": "香川県",
    "prefecture_kana": "カガワケン",
    "prefecture_code": 37,
    "city": "高松市",
    "city_kana": "タカマツシ",
    "town": "鬼無町山口",
    "town_kana": "キナシチョウヤマグチ",
    "street": null,
    "office_name": null,
    "office_name_kana": null
  },
  "8026": {
    "postcode": "7618026",
    "prefecture": "香川県",
    "prefecture_kana": "カガワケン",
    "prefecture_code": 37,
    "city": "高松市",
    "city_kana": "タカマツシ",
    "town": "鬼無町鬼無",
    "town_kana": "キナシチョウキナシ",
    "street": null,
    "office_name": null,
    "office_name_kana": null
  },
  "8031": {
    "postcode": "7618031",
    "prefecture": "香川県",
    "prefecture_kana": "カガワケン",
    "prefecture_code": 37,
    "city": "高松市",
    "city_kana": "タカマツシ",
    "town": "郷東町",
    "town_kana": "ゴウトウチョウ",
    "street": null,
    "office_name": null,
    "office_name_kana": null
  },
  "8032": {
    "postcode": "7618032",
    "prefecture": "香川県",
    "prefecture_kana": "カガワケン",
    "prefecture_code": 37,
    "city": "高松市",
    "city_kana": "タカマツシ",
    "town": "鶴市町",
    "town_kana": "ツルイチチョウ",
    "street": null,
    "office_name": null,
    "office_name_kana": null
  },
  "8033": {
    "postcode": "7618033",
    "prefecture": "香川県",
    "prefecture_kana": "カガワケン",
    "prefecture_code": 37,
    "city": "高松市",
    "city_kana": "タカマツシ",
    "town": "飯田町",
    "town_kana": "イイダチョウ",
    "street": null,
    "office_name": null,
    "office_name_kana": null
  },
  "8041": {
    "postcode": "7618041",
    "prefecture": "香川県",
    "prefecture_kana": "カガワケン",
    "prefecture_code": 37,
    "city": "高松市",
    "city_kana": "タカマツシ",
    "town": "檀紙町",
    "town_kana": "ダンシチョウ",
    "street": null,
    "office_name": null,
    "office_name_kana": null
  },
  "8042": {
    "postcode": "7618042",
    "prefecture": "香川県",
    "prefecture_kana": "カガワケン",
    "prefecture_code": 37,
    "city": "高松市",
    "city_kana": "タカマツシ",
    "town": "御厩町",
    "town_kana": "ミマヤチョウ",
    "street": null,
    "office_name": null,
    "office_name_kana": null
  },
  "8043": {
    "postcode": "7618043",
    "prefecture": "香川県",
    "prefecture_kana": "カガワケン",
    "prefecture_code": 37,
    "city": "高松市",
    "city_kana": "タカマツシ",
    "town": "中間町",
    "town_kana": "ナカツマチョウ",
    "street": null,
    "office_name": null,
    "office_name_kana": null
  },
  "8044": {
    "postcode": "7618044",
    "prefecture": "香川県",
    "prefecture_kana": "カガワケン",
    "prefecture_code": 37,
    "city": "高松市",
    "city_kana": "タカマツシ",
    "town": "円座町",
    "town_kana": "エンザチョウ",
    "street": null,
    "office_name": null,
    "office_name_kana": null
  },
  "8045": {
    "postcode": "7618045",
    "prefecture": "香川県",
    "prefecture_kana": "カガワケン",
    "prefecture_code": 37,
    "city": "高松市",
    "city_kana": "タカマツシ",
    "town": "西山崎町",
    "town_kana": "ニシヤマサキチョウ",
    "street": null,
    "office_name": null,
    "office_name_kana": null
  },
  "8046": {
    "postcode": "7618046",
    "prefecture": "香川県",
    "prefecture_kana": "カガワケン",
    "prefecture_code": 37,
    "city": "高松市",
    "city_kana": "タカマツシ",
    "town": "川部町",
    "town_kana": "カワナベチョウ",
    "street": null,
    "office_name": null,
    "office_name_kana": null
  },
  "8047": {
    "postcode": "7618047",
    "prefecture": "香川県",
    "prefecture_kana": "カガワケン",
    "prefecture_code": 37,
    "city": "高松市",
    "city_kana": "タカマツシ",
    "town": "岡本町",
    "town_kana": "オカモトチョウ",
    "street": null,
    "office_name": null,
    "office_name_kana": null
  },
  "8051": {
    "postcode": "7618051",
    "prefecture": "香川県",
    "prefecture_kana": "カガワケン",
    "prefecture_code": 37,
    "city": "高松市",
    "city_kana": "タカマツシ",
    "town": "西春日町",
    "town_kana": "ニシカスガチョウ",
    "street": null,
    "office_name": null,
    "office_name_kana": null
  },
  "8052": {
    "postcode": "7618052",
    "prefecture": "香川県",
    "prefecture_kana": "カガワケン",
    "prefecture_code": 37,
    "city": "高松市",
    "city_kana": "タカマツシ",
    "town": "松並町",
    "town_kana": "マツナミチョウ",
    "street": null,
    "office_name": null,
    "office_name_kana": null
  },
  "8053": {
    "postcode": "7618053",
    "prefecture": "香川県",
    "prefecture_kana": "カガワケン",
    "prefecture_code": 37,
    "city": "高松市",
    "city_kana": "タカマツシ",
    "town": "西ハゼ町",
    "town_kana": "ニシハゼマチ",
    "street": null,
    "office_name": null,
    "office_name_kana": null
  },
  "8054": {
    "postcode": "7618054",
    "prefecture": "香川県",
    "prefecture_kana": "カガワケン",
    "prefecture_code": 37,
    "city": "高松市",
    "city_kana": "タカマツシ",
    "town": "東ハゼ町",
    "town_kana": "ヒガシハゼマチ",
    "street": null,
    "office_name": null,
    "office_name_kana": null
  },
  "8055": {
    "postcode": "7618055",
    "prefecture": "香川県",
    "prefecture_kana": "カガワケン",
    "prefecture_code": 37,
    "city": "高松市",
    "city_kana": "タカマツシ",
    "town": "紙町",
    "town_kana": "カミマチ",
    "street": null,
    "office_name": null,
    "office_name_kana": null
  },
  "8056": {
    "postcode": "7618056",
    "prefecture": "香川県",
    "prefecture_kana": "カガワケン",
    "prefecture_code": 37,
    "city": "高松市",
    "city_kana": "タカマツシ",
    "town": "上天神町",
    "town_kana": "カミテンジンチョウ",
    "street": null,
    "office_name": null,
    "office_name_kana": null
  },
  "8057": {
    "postcode": "7618057",
    "prefecture": "香川県",
    "prefecture_kana": "カガワケン",
    "prefecture_code": 37,
    "city": "高松市",
    "city_kana": "タカマツシ",
    "town": "田村町",
    "town_kana": "タムラチョウ",
    "street": null,
    "office_name": null,
    "office_name_kana": null
  },
  "8058": {
    "postcode": "7618058",
    "prefecture": "香川県",
    "prefecture_kana": "カガワケン",
    "prefecture_code": 37,
    "city": "高松市",
    "city_kana": "タカマツシ",
    "town": "勅使町",
    "town_kana": "チョクシチョウ",
    "street": null,
    "office_name": null,
    "office_name_kana": null
  },
  "8061": {
    "postcode": "7618061",
    "prefecture": "香川県",
    "prefecture_kana": "カガワケン",
    "prefecture_code": 37,
    "city": "高松市",
    "city_kana": "タカマツシ",
    "town": "室町",
    "town_kana": "ムロマチ",
    "street": null,
    "office_name": null,
    "office_name_kana": null
  },
  "8062": {
    "postcode": "7618062",
    "prefecture": "香川県",
    "prefecture_kana": "カガワケン",
    "prefecture_code": 37,
    "city": "高松市",
    "city_kana": "タカマツシ",
    "town": "室新町",
    "town_kana": "ムロシンマチ",
    "street": null,
    "office_name": null,
    "office_name_kana": null
  },
  "8063": {
    "postcode": "7618063",
    "prefecture": "香川県",
    "prefecture_kana": "カガワケン",
    "prefecture_code": 37,
    "city": "高松市",
    "city_kana": "タカマツシ",
    "town": "花ノ宮町",
    "town_kana": "ハナノミヤチョウ",
    "street": null,
    "office_name": null,
    "office_name_kana": null
  },
  "8064": {
    "postcode": "7618064",
    "prefecture": "香川県",
    "prefecture_kana": "カガワケン",
    "prefecture_code": 37,
    "city": "高松市",
    "city_kana": "タカマツシ",
    "town": "上之町",
    "town_kana": "カミノチョウ",
    "street": null,
    "office_name": null,
    "office_name_kana": null
  },
  "8071": {
    "postcode": "7618071",
    "prefecture": "香川県",
    "prefecture_kana": "カガワケン",
    "prefecture_code": 37,
    "city": "高松市",
    "city_kana": "タカマツシ",
    "town": "伏石町",
    "town_kana": "フセイシチョウ",
    "street": null,
    "office_name": null,
    "office_name_kana": null
  },
  "8072": {
    "postcode": "7618072",
    "prefecture": "香川県",
    "prefecture_kana": "カガワケン",
    "prefecture_code": 37,
    "city": "高松市",
    "city_kana": "タカマツシ",
    "town": "三条町",
    "town_kana": "サンジョウチョウ",
    "street": null,
    "office_name": null,
    "office_name_kana": null
  },
  "8073": {
    "postcode": "7618073",
    "prefecture": "香川県",
    "prefecture_kana": "カガワケン",
    "prefecture_code": 37,
    "city": "高松市",
    "city_kana": "タカマツシ",
    "town": "太田下町",
    "town_kana": "オオタシモマチ",
    "street": null,
    "office_name": null,
    "office_name_kana": null
  },
  "8074": {
    "postcode": "7618074",
    "prefecture": "香川県",
    "prefecture_kana": "カガワケン",
    "prefecture_code": 37,
    "city": "高松市",
    "city_kana": "タカマツシ",
    "town": "太田上町",
    "town_kana": "オオタカミマチ",
    "street": null,
    "office_name": null,
    "office_name_kana": null
  },
  "8075": {
    "postcode": "7618075",
    "prefecture": "香川県",
    "prefecture_kana": "カガワケン",
    "prefecture_code": 37,
    "city": "高松市",
    "city_kana": "タカマツシ",
    "town": "多肥下町",
    "town_kana": "タヒシモマチ",
    "street": null,
    "office_name": null,
    "office_name_kana": null
  },
  "8076": {
    "postcode": "7618076",
    "prefecture": "香川県",
    "prefecture_kana": "カガワケン",
    "prefecture_code": 37,
    "city": "高松市",
    "city_kana": "タカマツシ",
    "town": "多肥上町",
    "town_kana": "タヒカミマチ",
    "street": null,
    "office_name": null,
    "office_name_kana": null
  },
  "8077": {
    "postcode": "7618077",
    "prefecture": "香川県",
    "prefecture_kana": "カガワケン",
    "prefecture_code": 37,
    "city": "高松市",
    "city_kana": "タカマツシ",
    "town": "出作町",
    "town_kana": "シュツサクチョウ",
    "street": null,
    "office_name": null,
    "office_name_kana": null
  },
  "8078": {
    "postcode": "7618078",
    "prefecture": "香川県",
    "prefecture_kana": "カガワケン",
    "prefecture_code": 37,
    "city": "高松市",
    "city_kana": "タカマツシ",
    "town": "仏生山町甲",
    "town_kana": "ブッショウザンチョウコウ",
    "street": null,
    "office_name": null,
    "office_name_kana": null
  },
  "8079": {
    "postcode": "7618079",
    "prefecture": "香川県",
    "prefecture_kana": "カガワケン",
    "prefecture_code": 37,
    "city": "高松市",
    "city_kana": "タカマツシ",
    "town": "仏生山町乙",
    "town_kana": "ブッショウザンチョウオツ",
    "street": null,
    "office_name": null,
    "office_name_kana": null
  },
  "8081": {
    "postcode": "7618081",
    "prefecture": "香川県",
    "prefecture_kana": "カガワケン",
    "prefecture_code": 37,
    "city": "高松市",
    "city_kana": "タカマツシ",
    "town": "成合町",
    "town_kana": "ナリアイチョウ",
    "street": null,
    "office_name": null,
    "office_name_kana": null
  },
  "8082": {
    "postcode": "7618082",
    "prefecture": "香川県",
    "prefecture_kana": "カガワケン",
    "prefecture_code": 37,
    "city": "高松市",
    "city_kana": "タカマツシ",
    "town": "鹿角町",
    "town_kana": "カノツノチョウ",
    "street": null,
    "office_name": null,
    "office_name_kana": null
  },
  "8083": {
    "postcode": "7618083",
    "prefecture": "香川県",
    "prefecture_kana": "カガワケン",
    "prefecture_code": 37,
    "city": "高松市",
    "city_kana": "タカマツシ",
    "town": "三名町",
    "town_kana": "サンミョウチョウ",
    "street": null,
    "office_name": null,
    "office_name_kana": null
  },
  "8084": {
    "postcode": "7618084",
    "prefecture": "香川県",
    "prefecture_kana": "カガワケン",
    "prefecture_code": 37,
    "city": "高松市",
    "city_kana": "タカマツシ",
    "town": "一宮町",
    "town_kana": "イチノミヤチョウ",
    "street": null,
    "office_name": null,
    "office_name_kana": null
  },
  "8085": {
    "postcode": "7618085",
    "prefecture": "香川県",
    "prefecture_kana": "カガワケン",
    "prefecture_code": 37,
    "city": "高松市",
    "city_kana": "タカマツシ",
    "town": "寺井町",
    "town_kana": "テライチョウ",
    "street": null,
    "office_name": null,
    "office_name_kana": null
  },
  "8501": {
    "postcode": "7618501",
    "prefecture": "香川県",
    "prefecture_kana": "カガワケン",
    "prefecture_code": 37,
    "city": "高松市",
    "city_kana": "タカマツシ",
    "town": "勅使町",
    "town_kana": "チョクシチョウ",
    "street": "７６１−１",
    "office_name": "株式会社　アスティス",
    "office_name_kana": "カブシキガイシヤ アステイス"
  },
  "8511": {
    "postcode": "7618511",
    "prefecture": "香川県",
    "prefecture_kana": "カガワケン",
    "prefecture_code": 37,
    "city": "高松市",
    "city_kana": "タカマツシ",
    "town": "多肥上町",
    "town_kana": "タヒカミマチ",
    "street": "１２５１番地８",
    "office_name": "高松南警察署",
    "office_name_kana": "タカマツミナミケイサツシヨ"
  },
  "8520": {
    "postcode": "7618520",
    "prefecture": "香川県",
    "prefecture_kana": "カガワケン",
    "prefecture_code": 37,
    "city": "高松市",
    "city_kana": "タカマツシ",
    "town": "朝日新町",
    "town_kana": "アサヒシンマチ",
    "street": "１８−２２",
    "office_name": "株式会社　菱屋",
    "office_name_kana": "カブシキガイシヤ ヒシヤ"
  },
  "8533": {
    "postcode": "7618533",
    "prefecture": "香川県",
    "prefecture_kana": "カガワケン",
    "prefecture_code": 37,
    "city": "高松市",
    "city_kana": "タカマツシ",
    "town": "東ハゼ町",
    "town_kana": "ヒガシハゼマチ",
    "street": "６−１５",
    "office_name": "ユアサ商事　株式会社　四国支店",
    "office_name_kana": "ユアサシヨウジ カブシキガイシヤ シコクシテン"
  },
  "8538": {
    "postcode": "7618538",
    "prefecture": "香川県",
    "prefecture_kana": "カガワケン",
    "prefecture_code": 37,
    "city": "高松市",
    "city_kana": "タカマツシ",
    "town": "仏生山町",
    "town_kana": null,
    "street": "甲８４７番地１",
    "office_name": "高松市立みんなの病院",
    "office_name_kana": "タカマツシリツミンナノビヨウイン"
  },
  "8541": {
    "postcode": "7618541",
    "prefecture": "香川県",
    "prefecture_kana": "カガワケン",
    "prefecture_code": 37,
    "city": "高松市",
    "city_kana": "タカマツシ",
    "town": "上之町",
    "town_kana": "カミノチョウ",
    "street": "３丁目１−４",
    "office_name": "四電エンジニアリング　株式会社",
    "office_name_kana": "ヨンデンエンジニアリング カブシキガイシヤ"
  },
  "8550": {
    "postcode": "7618550",
    "prefecture": "香川県",
    "prefecture_kana": "カガワケン",
    "prefecture_code": 37,
    "city": "高松市",
    "city_kana": "タカマツシ",
    "town": "室新町",
    "town_kana": "ムロシンマチ",
    "street": "９７３−１",
    "office_name": "四国電力　株式会社　高松支店",
    "office_name_kana": "シコクデンリヨク カブシキガイシヤ タカマツシテン"
  },
  "8551": {
    "postcode": "7618551",
    "prefecture": "香川県",
    "prefecture_kana": "カガワケン",
    "prefecture_code": 37,
    "city": "高松市",
    "city_kana": "タカマツシ",
    "town": "郷東町",
    "town_kana": "ゴウトウチョウ",
    "street": "７９２−８",
    "office_name": "株式会社　フソウ　四国支店",
    "office_name_kana": "カブシキカイシヤ フソウ シコクシテン"
  },
  "8555": {
    "postcode": "7618555",
    "prefecture": "香川県",
    "prefecture_kana": "カガワケン",
    "prefecture_code": 37,
    "city": "高松市",
    "city_kana": "タカマツシ",
    "town": "鶴市町",
    "town_kana": "ツルイチチョウ",
    "street": "２０２５−３",
    "office_name": "株式会社　トーカイ",
    "office_name_kana": "カブシキガイシヤ ト-カイ"
  },
  "8558": {
    "postcode": "7618558",
    "prefecture": "香川県",
    "prefecture_kana": "カガワケン",
    "prefecture_code": 37,
    "city": "高松市",
    "city_kana": "タカマツシ",
    "town": "田村町",
    "town_kana": "タムラチョウ",
    "street": "３６０",
    "office_name": "株式会社　一誠社",
    "office_name_kana": "カブシキガイシヤ イツセイシヤ"
  },
  "8565": {
    "postcode": "7618565",
    "prefecture": "香川県",
    "prefecture_kana": "カガワケン",
    "prefecture_code": 37,
    "city": "高松市",
    "city_kana": "タカマツシ",
    "town": "花ノ宮町",
    "town_kana": "ハナノミヤチョウ",
    "street": "二丁目３番９号",
    "office_name": "（株）　四電工　本店",
    "office_name_kana": "カブシキガイシヤ ヨンデンコウ ホンテン"
  },
  "8566": {
    "postcode": "7618566",
    "prefecture": "香川県",
    "prefecture_kana": "カガワケン",
    "prefecture_code": 37,
    "city": "高松市",
    "city_kana": "タカマツシ",
    "town": "花ノ宮町",
    "town_kana": "ハナノミヤチョウ",
    "street": "２丁目２−３",
    "office_name": "高松公共職業安定所",
    "office_name_kana": "タカマツコウキヨウシヨクギヨウアンテイシヨ"
  },
  "8567": {
    "postcode": "7618567",
    "prefecture": "香川県",
    "prefecture_kana": "カガワケン",
    "prefecture_code": 37,
    "city": "高松市",
    "city_kana": "タカマツシ",
    "town": "出作町",
    "town_kana": "シュツサクチョウ",
    "street": "３８３−２",
    "office_name": "松野不動産　株式会社",
    "office_name_kana": "マツノフドウサン カブシキガイシヤ"
  },
  "8577": {
    "postcode": "7618577",
    "prefecture": "香川県",
    "prefecture_kana": "カガワケン",
    "prefecture_code": 37,
    "city": "さぬき市",
    "city_kana": "サヌキシ",
    "town": "鴨庄",
    "town_kana": "カモショウ",
    "street": "４２５９番地１",
    "office_name": "株式会社　セシール　志度ロジスティクスセンター",
    "office_name_kana": "カブシキガイシヤ セシ-ル シドロジステイクスセンタ-"
  },
  "8578": {
    "postcode": "7618578",
    "prefecture": "香川県",
    "prefecture_kana": "カガワケン",
    "prefecture_code": 37,
    "city": "さぬき市",
    "city_kana": "サヌキシ",
    "town": "鴨庄",
    "town_kana": "カモショウ",
    "street": "４２５９番地１",
    "office_name": "株式会社　セシール　香川オフィス",
    "office_name_kana": "カブシキガイシヤ セシ-ル カガワオフイス"
  },
  "8581": {
    "postcode": "7618581",
    "prefecture": "香川県",
    "prefecture_kana": "カガワケン",
    "prefecture_code": 37,
    "city": "高松市",
    "city_kana": "タカマツシ",
    "town": "上之町",
    "town_kana": "カミノチョウ",
    "street": "２丁目１番４３号",
    "office_name": "株式会社　瀬戸内海放送",
    "office_name_kana": "カブシキガイシヤ セトナイカイホウソウ"
  },
  "8582": {
    "postcode": "7618582",
    "prefecture": "香川県",
    "prefecture_kana": "カガワケン",
    "prefecture_code": 37,
    "city": "高松市",
    "city_kana": "タカマツシ",
    "town": "郷東町",
    "town_kana": "ゴウトウチョウ",
    "street": "４６８−１",
    "office_name": "株式会社　サンキ",
    "office_name_kana": "カブシキガイシヤ サンキ"
  },
  "8584": {
    "postcode": "7618584",
    "prefecture": "香川県",
    "prefecture_kana": "カガワケン",
    "prefecture_code": 37,
    "city": "高松市",
    "city_kana": "タカマツシ",
    "town": "上之町",
    "town_kana": "カミノチョウ",
    "street": "２丁目１番４３号",
    "office_name": "株式会社　エフエム香川",
    "office_name_kana": "カブシキガイシヤ エフエムカガワ"
  },
  "8585": {
    "postcode": "7618585",
    "prefecture": "香川県",
    "prefecture_kana": "カガワケン",
    "prefecture_code": 37,
    "city": "高松市",
    "city_kana": "タカマツシ",
    "town": "円座町",
    "town_kana": "エンザチョウ",
    "street": "１００１",
    "office_name": "マックスバリュ西日本　株式会社　四国事務所",
    "office_name_kana": "マツクスバリユニシニホン カブシキガイシヤ シコクジムシヨ"
  },
  "8586": {
    "postcode": "7618586",
    "prefecture": "香川県",
    "prefecture_kana": "カガワケン",
    "prefecture_code": 37,
    "city": "高松市",
    "city_kana": "タカマツシ",
    "town": "田村町",
    "town_kana": "タムラチョウ",
    "street": "３１５",
    "office_name": "株式会社　ナカノ",
    "office_name_kana": "カブシキガイシヤ ナカノ"
  },
  "8588": {
    "postcode": "7618588",
    "prefecture": "香川県",
    "prefecture_kana": "カガワケン",
    "prefecture_code": 37,
    "city": "高松市",
    "city_kana": "タカマツシ",
    "town": "国分寺町新名",
    "town_kana": "コクブンジチョウシンミョウ",
    "street": "６９４−１",
    "office_name": "株式会社　Ｊコンテンツ",
    "office_name_kana": "カブシキガイシヤ ジエイコンテンツ"
  },
  "8589": {
    "postcode": "7618589",
    "prefecture": "香川県",
    "prefecture_kana": "カガワケン",
    "prefecture_code": 37,
    "city": "高松市",
    "city_kana": "タカマツシ",
    "town": "香南町横井",
    "town_kana": "コウナンチョウヨコイ",
    "street": "４６０−１",
    "office_name": "株式会社　アイム",
    "office_name_kana": "カブシキガイシヤ アイム"
  },
  "8601": {
    "postcode": "7618601",
    "prefecture": "香川県",
    "prefecture_kana": "カガワケン",
    "prefecture_code": 37,
    "city": "高松市",
    "city_kana": "タカマツシ",
    "town": "田村町",
    "town_kana": "タムラチョウ",
    "street": "９４８（高松南郵便局私書箱第７３号）",
    "office_name": "株式会社　幸燿",
    "office_name_kana": "カブシキガイシヤ コウヨウ"
  },
  "8777": {
    "postcode": "7618777",
    "prefecture": "香川県",
    "prefecture_kana": "カガワケン",
    "prefecture_code": 37,
    "city": "さぬき市",
    "city_kana": "サヌキシ",
    "town": "鴨庄",
    "town_kana": "カモショウ",
    "street": "４２５９番地１",
    "office_name": "株式会社　セシール",
    "office_name_kana": "カブシキガイシヤ セシ-ル"
  }
}