{
  "0000": {
    "postcode": "7630000",
    "prefecture": "香川県",
    "prefecture_kana": "カガワケン",
    "prefecture_code": 37,
    "city": "丸亀市",
    "city_kana": "マルガメシ",
    "town": "",
    "town_kana": "",
    "street": null,
    "office_name": null,
    "office_name_kana": null
  },
  "0001": {
    "postcode": "7630001",
    "prefecture": "香川県",
    "prefecture_kana": "カガワケン",
    "prefecture_code": 37,
    "city": "丸亀市",
    "city_kana": "マルガメシ",
    "town": "風袋町",
    "town_kana": "フルタイマチ",
    "street": null,
    "office_name": null,
    "office_name_kana": null
  },
  "0002": {
    "postcode": "7630002",
    "prefecture": "香川県",
    "prefecture_kana": "カガワケン",
    "prefecture_code": 37,
    "city": "丸亀市",
    "city_kana": "マルガメシ",
    "town": "瓦町",
    "town_kana": "カワラマチ",
    "street": null,
    "office_name": null,
    "office_name_kana": null
  },
  "0003": {
    "postcode": "7630003",
    "prefecture": "香川県",
    "prefecture_kana": "カガワケン",
    "prefecture_code": 37,
    "city": "丸亀市",
    "city_kana": "マルガメシ",
    "town": "葭町",
    "town_kana": "カヤマチ",
    "street": null,
    "office_name": null,
    "office_name_kana": null
  },
  "0004": {
    "postcode": "7630004",
    "prefecture": "香川県",
    "prefecture_kana": "カガワケン",
    "prefecture_code": 37,
    "city": "丸亀市",
    "city_kana": "マルガメシ",
    "town": "米屋町",
    "town_kana": "コメヤチョウ",
    "street": null,
    "office_name": null,
    "office_name_kana": null
  },
  "0005": {
    "postcode": "7630005",
    "prefecture": "香川県",
    "prefecture_kana": "カガワケン",
    "prefecture_code": 37,
    "city": "丸亀市",
    "city_kana": "マルガメシ",
    "town": "松屋町",
    "town_kana": "マツヤチョウ",
    "street": null,
    "office_name": null,
    "office_name_kana": null
  },
  "0006": {
    "postcode": "7630006",
    "prefecture": "香川県",
    "prefecture_kana": "カガワケン",
    "prefecture_code": 37,
    "city": "丸亀市",
    "city_kana": "マルガメシ",
    "town": "魚屋町",
    "town_kana": "ウオヤマチ",
    "street": null,
    "office_name": null,
    "office_name_kana": null
  },
  "0007": {
    "postcode": "7630007",
    "prefecture": "香川県",
    "prefecture_kana": "カガワケン",
    "prefecture_code": 37,
    "city": "丸亀市",
    "city_kana": "マルガメシ",
    "town": "宗古町",
    "town_kana": "ソウコマチ",
    "street": null,
    "office_name": null,
    "office_name_kana": null
  },
  "0011": {
    "postcode": "7630011",
    "prefecture": "香川県",
    "prefecture_kana": "カガワケン",
    "prefecture_code": 37,
    "city": "丸亀市",
    "city_kana": "マルガメシ",
    "town": "富士見町",
    "town_kana": "フジミチョウ",
    "street": null,
    "office_name": null,
    "office_name_kana": null
  },
  "0012": {
    "postcode": "7630012",
    "prefecture": "香川県",
    "prefecture_kana": "カガワケン",
    "prefecture_code": 37,
    "city": "丸亀市",
    "city_kana": "マルガメシ",
    "town": "土居町",
    "town_kana": "ドイチョウ",
    "street": null,
    "office_name": null,
    "office_name_kana": null
  },
  "0013": {
    "postcode": "7630013",
    "prefecture": "香川県",
    "prefecture_kana": "カガワケン",
    "prefecture_code": 37,
    "city": "丸亀市",
    "city_kana": "マルガメシ",
    "town": "城東町",
    "town_kana": "ジョウトウチョウ",
    "street": null,
    "office_name": null,
    "office_name_kana": null
  },
  "0014": {
    "postcode": "7630014",
    "prefecture": "香川県",
    "prefecture_kana": "カガワケン",
    "prefecture_code": 37,
    "city": "丸亀市",
    "city_kana": "マルガメシ",
    "town": "御供所町",
    "town_kana": "ゴブショチョウ",
    "street": null,
    "office_name": null,
    "office_name_kana": null
  },
  "0015": {
    "postcode": "7630015",
    "prefecture": "香川県",
    "prefecture_kana": "カガワケン",
    "prefecture_code": 37,
    "city": "丸亀市",
    "city_kana": "マルガメシ",
    "town": "北平山町",
    "town_kana": "キタヒラヤマチョウ",
    "street": null,
    "office_name": null,
    "office_name_kana": null
  },
  "0021": {
    "postcode": "7630021",
    "prefecture": "香川県",
    "prefecture_kana": "カガワケン",
    "prefecture_code": 37,
    "city": "丸亀市",
    "city_kana": "マルガメシ",
    "town": "富屋町",
    "town_kana": "トミヤマチ",
    "street": null,
    "office_name": null,
    "office_name_kana": null
  },
  "0022": {
    "postcode": "7630022",
    "prefecture": "香川県",
    "prefecture_kana": "カガワケン",
    "prefecture_code": 37,
    "city": "丸亀市",
    "city_kana": "マルガメシ",
    "town": "浜町",
    "town_kana": "ハママチ",
    "street": null,
    "office_name": null,
    "office_name_kana": null
  },
  "0023": {
    "postcode": "7630023",
    "prefecture": "香川県",
    "prefecture_kana": "カガワケン",
    "prefecture_code": 37,
    "city": "丸亀市",
    "city_kana": "マルガメシ",
    "town": "本町",
    "town_kana": "ホンマチ",
    "street": null,
    "office_name": null,
    "office_name_kana": null
  },
  "0024": {
    "postcode": "7630024",
    "prefecture": "香川県",
    "prefecture_kana": "カガワケン",
    "prefecture_code": 37,
    "city": "丸亀市",
    "city_kana": "マルガメシ",
    "town": "塩飽町",
    "town_kana": "シワクマチ",
    "street": null,
    "office_name": null,
    "office_name_kana": null
  },
  "0025": {
    "postcode": "7630025",
    "prefecture": "香川県",
    "prefecture_kana": "カガワケン",
    "prefecture_code": 37,
    "city": "丸亀市",
    "city_kana": "マルガメシ",
    "town": "一番丁",
    "town_kana": "イチバンチョウ",
    "street": null,
    "office_name": null,
    "office_name_kana": null
  },
  "0026": {
    "postcode": "7630026",
    "prefecture": "香川県",
    "prefecture_kana": "カガワケン",
    "prefecture_code": 37,
    "city": "丸亀市",
    "city_kana": "マルガメシ",
    "town": "六番丁",
    "town_kana": "ロクバンチョウ",
    "street": null,
    "office_name": null,
    "office_name_kana": null
  },
  "0027": {
    "postcode": "7630027",
    "prefecture": "香川県",
    "prefecture_kana": "カガワケン",
    "prefecture_code": 37,
    "city": "丸亀市",
    "city_kana": "マルガメシ",
    "town": "七番丁",
    "town_kana": "シチバンチョウ",
    "street": null,
    "office_name": null,
    "office_name_kana": null
  },
  "0028": {
    "postcode": "7630028",
    "prefecture": "香川県",
    "prefecture_kana": "カガワケン",
    "prefecture_code": 37,
    "city": "丸亀市",
    "city_kana": "マルガメシ",
    "town": "八番丁",
    "town_kana": "ハチバンチョウ",
    "street": null,
    "office_name": null,
    "office_name_kana": null
  },
  "0029": {
    "postcode": "7630029",
    "prefecture": "香川県",
    "prefecture_kana": "カガワケン",
    "prefecture_code": 37,
    "city": "丸亀市",
    "city_kana": "マルガメシ",
    "town": "九番丁",
    "town_kana": "クバンチョウ",
    "street": null,
    "office_name": null,
    "office_name_kana": null
  },
  "0030": {
    "postcode": "7630030",
    "prefecture": "香川県",
    "prefecture_kana": "カガワケン",
    "prefecture_code": 37,
    "city": "丸亀市",
    "city_kana": "マルガメシ",
    "town": "十番丁",
    "town_kana": "ジュウバンチョウ",
    "street": null,
    "office_name": null,
    "office_name_kana": null
  },
  "0031": {
    "postcode": "7630031",
    "prefecture": "香川県",
    "prefecture_kana": "カガワケン",
    "prefecture_code": 37,
    "city": "丸亀市",
    "city_kana": "マルガメシ",
    "town": "城南町",
    "town_kana": "ジョウナンチョウ",
    "street": null,
    "office_name": null,
    "office_name_kana": null
  },
  "0032": {
    "postcode": "7630032",
    "prefecture": "香川県",
    "prefecture_kana": "カガワケン",
    "prefecture_code": 37,
    "city": "丸亀市",
    "city_kana": "マルガメシ",
    "town": "城西町",
    "town_kana": "ジョウセイチョウ",
    "street": null,
    "office_name": null,
    "office_name_kana": null
  },
  "0033": {
    "postcode": "7630033",
    "prefecture": "香川県",
    "prefecture_kana": "カガワケン",
    "prefecture_code": 37,
    "city": "丸亀市",
    "city_kana": "マルガメシ",
    "town": "中府町",
    "town_kana": "ナカブチョウ",
    "street": null,
    "office_name": null,
    "office_name_kana": null
  },
  "0034": {
    "postcode": "7630034",
    "prefecture": "香川県",
    "prefecture_kana": "カガワケン",
    "prefecture_code": 37,
    "city": "丸亀市",
    "city_kana": "マルガメシ",
    "town": "大手町",
    "town_kana": "オオテチョウ",
    "street": null,
    "office_name": null,
    "office_name_kana": null
  },
  "0041": {
    "postcode": "7630041",
    "prefecture": "香川県",
    "prefecture_kana": "カガワケン",
    "prefecture_code": 37,
    "city": "丸亀市",
    "city_kana": "マルガメシ",
    "town": "西平山町",
    "town_kana": "ニシヒラヤマチョウ",
    "street": null,
    "office_name": null,
    "office_name_kana": null
  },
  "0042": {
    "postcode": "7630042",
    "prefecture": "香川県",
    "prefecture_kana": "カガワケン",
    "prefecture_code": 37,
    "city": "丸亀市",
    "city_kana": "マルガメシ",
    "town": "港町",
    "town_kana": "ミナトマチ",
    "street": null,
    "office_name": null,
    "office_name_kana": null
  },
  "0043": {
    "postcode": "7630043",
    "prefecture": "香川県",
    "prefecture_kana": "カガワケン",
    "prefecture_code": 37,
    "city": "丸亀市",
    "city_kana": "マルガメシ",
    "town": "通町",
    "town_kana": "トオリチョウ",
    "street": null,
    "office_name": null,
    "office_name_kana": null
  },
  "0044": {
    "postcode": "7630044",
    "prefecture": "香川県",
    "prefecture_kana": "カガワケン",
    "prefecture_code": 37,
    "city": "丸亀市",
    "city_kana": "マルガメシ",
    "town": "福島町",
    "town_kana": "フクシマチョウ",
    "street": null,
    "office_name": null,
    "office_name_kana": null
  },
  "0045": {
    "postcode": "7630045",
    "prefecture": "香川県",
    "prefecture_kana": "カガワケン",
    "prefecture_code": 37,
    "city": "丸亀市",
    "city_kana": "マルガメシ",
    "town": "新町",
    "town_kana": "シンマチ",
    "street": null,
    "office_name": null,
    "office_name_kana": null
  },
  "0046": {
    "postcode": "7630046",
    "prefecture": "香川県",
    "prefecture_kana": "カガワケン",
    "prefecture_code": 37,
    "city": "丸亀市",
    "city_kana": "マルガメシ",
    "town": "南条町",
    "town_kana": "ナンジョウマチ",
    "street": null,
    "office_name": null,
    "office_name_kana": null
  },
  "0047": {
    "postcode": "7630047",
    "prefecture": "香川県",
    "prefecture_kana": "カガワケン",
    "prefecture_code": 37,
    "city": "丸亀市",
    "city_kana": "マルガメシ",
    "town": "西本町",
    "town_kana": "ニシホンマチ",
    "street": null,
    "office_name": null,
    "office_name_kana": null
  },
  "0048": {
    "postcode": "7630048",
    "prefecture": "香川県",
    "prefecture_kana": "カガワケン",
    "prefecture_code": 37,
    "city": "丸亀市",
    "city_kana": "マルガメシ",
    "town": "幸町",
    "town_kana": "サイワイチョウ",
    "street": null,
    "office_name": null,
    "office_name_kana": null
  },
  "0051": {
    "postcode": "7630051",
    "prefecture": "香川県",
    "prefecture_kana": "カガワケン",
    "prefecture_code": 37,
    "city": "丸亀市",
    "city_kana": "マルガメシ",
    "town": "今津町",
    "town_kana": "イマヅチョウ",
    "street": null,
    "office_name": null,
    "office_name_kana": null
  },
  "0052": {
    "postcode": "7630052",
    "prefecture": "香川県",
    "prefecture_kana": "カガワケン",
    "prefecture_code": 37,
    "city": "丸亀市",
    "city_kana": "マルガメシ",
    "town": "津森町",
    "town_kana": "ツノモリチョウ",
    "street": null,
    "office_name": null,
    "office_name_kana": null
  },
  "0053": {
    "postcode": "7630053",
    "prefecture": "香川県",
    "prefecture_kana": "カガワケン",
    "prefecture_code": 37,
    "city": "丸亀市",
    "city_kana": "マルガメシ",
    "town": "金倉町",
    "town_kana": "カナクラチョウ",
    "street": null,
    "office_name": null,
    "office_name_kana": null
  },
  "0054": {
    "postcode": "7630054",
    "prefecture": "香川県",
    "prefecture_kana": "カガワケン",
    "prefecture_code": 37,
    "city": "丸亀市",
    "city_kana": "マルガメシ",
    "town": "中津町",
    "town_kana": "ナカヅチョウ",
    "street": null,
    "office_name": null,
    "office_name_kana": null
  },
  "0055": {
    "postcode": "7630055",
    "prefecture": "香川県",
    "prefecture_kana": "カガワケン",
    "prefecture_code": 37,
    "city": "丸亀市",
    "city_kana": "マルガメシ",
    "town": "新田町",
    "town_kana": "シンデンチョウ",
    "street": null,
    "office_name": null,
    "office_name_kana": null
  },
  "0061": {
    "postcode": "7630061",
    "prefecture": "香川県",
    "prefecture_kana": "カガワケン",
    "prefecture_code": 37,
    "city": "丸亀市",
    "city_kana": "マルガメシ",
    "town": "昭和町",
    "town_kana": "ショウワチョウ",
    "street": null,
    "office_name": null,
    "office_name_kana": null
  },
  "0062": {
    "postcode": "7630062",
    "prefecture": "香川県",
    "prefecture_kana": "カガワケン",
    "prefecture_code": 37,
    "city": "丸亀市",
    "city_kana": "マルガメシ",
    "town": "蓬莱町",
    "town_kana": "ホウライチョウ",
    "street": null,
    "office_name": null,
    "office_name_kana": null
  },
  "0063": {
    "postcode": "7630063",
    "prefecture": "香川県",
    "prefecture_kana": "カガワケン",
    "prefecture_code": 37,
    "city": "丸亀市",
    "city_kana": "マルガメシ",
    "town": "新浜町",
    "town_kana": "シンハマチョウ",
    "street": null,
    "office_name": null,
    "office_name_kana": null
  },
  "0064": {
    "postcode": "7630064",
    "prefecture": "香川県",
    "prefecture_kana": "カガワケン",
    "prefecture_code": 37,
    "city": "丸亀市",
    "city_kana": "マルガメシ",
    "town": "前塩屋町",
    "town_kana": "マエジオヤチョウ",
    "street": null,
    "office_name": null,
    "office_name_kana": null
  },
  "0065": {
    "postcode": "7630065",
    "prefecture": "香川県",
    "prefecture_kana": "カガワケン",
    "prefecture_code": 37,
    "city": "丸亀市",
    "city_kana": "マルガメシ",
    "town": "塩屋町",
    "town_kana": "シオヤチョウ",
    "street": null,
    "office_name": null,
    "office_name_kana": null
  },
  "0066": {
    "postcode": "7630066",
    "prefecture": "香川県",
    "prefecture_kana": "カガワケン",
    "prefecture_code": 37,
    "city": "丸亀市",
    "city_kana": "マルガメシ",
    "town": "天満町",
    "town_kana": "テンマチョウ",
    "street": null,
    "office_name": null,
    "office_name_kana": null
  },
  "0071": {
    "postcode": "7630071",
    "prefecture": "香川県",
    "prefecture_kana": "カガワケン",
    "prefecture_code": 37,
    "city": "丸亀市",
    "city_kana": "マルガメシ",
    "town": "田村町",
    "town_kana": "タムラチョウ",
    "street": null,
    "office_name": null,
    "office_name_kana": null
  },
  "0072": {
    "postcode": "7630072",
    "prefecture": "香川県",
    "prefecture_kana": "カガワケン",
    "prefecture_code": 37,
    "city": "丸亀市",
    "city_kana": "マルガメシ",
    "town": "山北町",
    "town_kana": "ヤマノキタチョウ",
    "street": null,
    "office_name": null,
    "office_name_kana": null
  },
  "0073": {
    "postcode": "7630073",
    "prefecture": "香川県",
    "prefecture_kana": "カガワケン",
    "prefecture_code": 37,
    "city": "丸亀市",
    "city_kana": "マルガメシ",
    "town": "柞原町",
    "town_kana": "クバラチョウ",
    "street": null,
    "office_name": null,
    "office_name_kana": null
  },
  "0074": {
    "postcode": "7630074",
    "prefecture": "香川県",
    "prefecture_kana": "カガワケン",
    "prefecture_code": 37,
    "city": "丸亀市",
    "city_kana": "マルガメシ",
    "town": "原田町",
    "town_kana": "ハラダチョウ",
    "street": null,
    "office_name": null,
    "office_name_kana": null
  },
  "0075": {
    "postcode": "7630075",
    "prefecture": "香川県",
    "prefecture_kana": "カガワケン",
    "prefecture_code": 37,
    "city": "丸亀市",
    "city_kana": "マルガメシ",
    "town": "原田団地",
    "town_kana": "ハラダダンチ",
    "street": null,
    "office_name": null,
    "office_name_kana": null
  },
  "0081": {
    "postcode": "7630081",
    "prefecture": "香川県",
    "prefecture_kana": "カガワケン",
    "prefecture_code": 37,
    "city": "丸亀市",
    "city_kana": "マルガメシ",
    "town": "土器町西",
    "town_kana": "ドキチョウニシ",
    "street": null,
    "office_name": null,
    "office_name_kana": null
  },
  "0082": {
    "postcode": "7630082",
    "prefecture": "香川県",
    "prefecture_kana": "カガワケン",
    "prefecture_code": 37,
    "city": "丸亀市",
    "city_kana": "マルガメシ",
    "town": "土器町東",
    "town_kana": "ドキチョウヒガシ",
    "street": null,
    "office_name": null,
    "office_name_kana": null
  },
  "0083": {
    "postcode": "7630083",
    "prefecture": "香川県",
    "prefecture_kana": "カガワケン",
    "prefecture_code": 37,
    "city": "丸亀市",
    "city_kana": "マルガメシ",
    "town": "土器町北",
    "town_kana": "ドキチョウキタ",
    "street": null,
    "office_name": null,
    "office_name_kana": null
  },
  "0084": {
    "postcode": "7630084",
    "prefecture": "香川県",
    "prefecture_kana": "カガワケン",
    "prefecture_code": 37,
    "city": "丸亀市",
    "city_kana": "マルガメシ",
    "town": "飯野町東二",
    "town_kana": "イイノチョウヒガシフタ",
    "street": null,
    "office_name": null,
    "office_name_kana": null
  },
  "0085": {
    "postcode": "7630085",
    "prefecture": "香川県",
    "prefecture_kana": "カガワケン",
    "prefecture_code": 37,
    "city": "丸亀市",
    "city_kana": "マルガメシ",
    "town": "飯野町東分",
    "town_kana": "イイノチョウヒガシブン",
    "street": null,
    "office_name": null,
    "office_name_kana": null
  },
  "0086": {
    "postcode": "7630086",
    "prefecture": "香川県",
    "prefecture_kana": "カガワケン",
    "prefecture_code": 37,
    "city": "丸亀市",
    "city_kana": "マルガメシ",
    "town": "飯野町西分",
    "town_kana": "イイノチョウニシブン",
    "street": null,
    "office_name": null,
    "office_name_kana": null
  },
  "0091": {
    "postcode": "7630091",
    "prefecture": "香川県",
    "prefecture_kana": "カガワケン",
    "prefecture_code": 37,
    "city": "丸亀市",
    "city_kana": "マルガメシ",
    "town": "川西町北",
    "town_kana": "カワニシチョウキタ",
    "street": null,
    "office_name": null,
    "office_name_kana": null
  },
  "0092": {
    "postcode": "7630092",
    "prefecture": "香川県",
    "prefecture_kana": "カガワケン",
    "prefecture_code": 37,
    "city": "丸亀市",
    "city_kana": "マルガメシ",
    "town": "川西町南",
    "town_kana": "カワニシチョウミナミ",
    "street": null,
    "office_name": null,
    "office_name_kana": null
  },
  "0093": {
    "postcode": "7630093",
    "prefecture": "香川県",
    "prefecture_kana": "カガワケン",
    "prefecture_code": 37,
    "city": "丸亀市",
    "city_kana": "マルガメシ",
    "town": "郡家町",
    "town_kana": "グンゲチョウ",
    "street": null,
    "office_name": null,
    "office_name_kana": null
  },
  "0094": {
    "postcode": "7630094",
    "prefecture": "香川県",
    "prefecture_kana": "カガワケン",
    "prefecture_code": 37,
    "city": "丸亀市",
    "city_kana": "マルガメシ",
    "town": "三条町",
    "town_kana": "サンジョウチョウ",
    "street": null,
    "office_name": null,
    "office_name_kana": null
  },
  "0095": {
    "postcode": "7630095",
    "prefecture": "香川県",
    "prefecture_kana": "カガワケン",
    "prefecture_code": 37,
    "city": "丸亀市",
    "city_kana": "マルガメシ",
    "town": "垂水町",
    "town_kana": "タルミチョウ",
    "street": null,
    "office_name": null,
    "office_name_kana": null
  },
  "0101": {
    "postcode": "7630101",
    "prefecture": "香川県",
    "prefecture_kana": "カガワケン",
    "prefecture_code": 37,
    "city": "丸亀市",
    "city_kana": "マルガメシ",
    "town": "広島町立石",
    "town_kana": "ヒロシマチョウタテイシ",
    "street": null,
    "office_name": null,
    "office_name_kana": null
  },
  "0102": {
    "postcode": "7630102",
    "prefecture": "香川県",
    "prefecture_kana": "カガワケン",
    "prefecture_code": 37,
    "city": "丸亀市",
    "city_kana": "マルガメシ",
    "town": "広島町江の浦",
    "town_kana": "ヒロシマチョウエノウラ",
    "street": null,
    "office_name": null,
    "office_name_kana": null
  },
  "0103": {
    "postcode": "7630103",
    "prefecture": "香川県",
    "prefecture_kana": "カガワケン",
    "prefecture_code": 37,
    "city": "丸亀市",
    "city_kana": "マルガメシ",
    "town": "広島町釜の越",
    "town_kana": "ヒロシマチョウカマノコシ",
    "street": null,
    "office_name": null,
    "office_name_kana": null
  },
  "0104": {
    "postcode": "7630104",
    "prefecture": "香川県",
    "prefecture_kana": "カガワケン",
    "prefecture_code": 37,
    "city": "丸亀市",
    "city_kana": "マルガメシ",
    "town": "広島町甲路",
    "town_kana": "ヒロシマチョウコウロ",
    "street": null,
    "office_name": null,
    "office_name_kana": null
  },
  "0105": {
    "postcode": "7630105",
    "prefecture": "香川県",
    "prefecture_kana": "カガワケン",
    "prefecture_code": 37,
    "city": "丸亀市",
    "city_kana": "マルガメシ",
    "town": "広島町青木",
    "town_kana": "ヒロシマチョウアオキ",
    "street": null,
    "office_name": null,
    "office_name_kana": null
  },
  "0106": {
    "postcode": "7630106",
    "prefecture": "香川県",
    "prefecture_kana": "カガワケン",
    "prefecture_code": 37,
    "city": "丸亀市",
    "city_kana": "マルガメシ",
    "town": "広島町市井",
    "town_kana": "ヒロシマチョウイチイ",
    "street": null,
    "office_name": null,
    "office_name_kana": null
  },
  "0107": {
    "postcode": "7630107",
    "prefecture": "香川県",
    "prefecture_kana": "カガワケン",
    "prefecture_code": 37,
    "city": "丸亀市",
    "city_kana": "マルガメシ",
    "town": "広島町茂浦",
    "town_kana": "ヒロシマチョウモウラ",
    "street": null,
    "office_name": null,
    "office_name_kana": null
  },
  "0108": {
    "postcode": "7630108",
    "prefecture": "香川県",
    "prefecture_kana": "カガワケン",
    "prefecture_code": 37,
    "city": "丸亀市",
    "city_kana": "マルガメシ",
    "town": "広島町小手島",
    "town_kana": "ヒロシマチョウオテシマ",
    "street": null,
    "office_name": null,
    "office_name_kana": null
  },
  "0111": {
    "postcode": "7630111",
    "prefecture": "香川県",
    "prefecture_kana": "カガワケン",
    "prefecture_code": 37,
    "city": "丸亀市",
    "city_kana": "マルガメシ",
    "town": "手島町",
    "town_kana": "テシマチョウ",
    "street": null,
    "office_name": null,
    "office_name_kana": null
  },
  "0221": {
    "postcode": "7630221",
    "prefecture": "香川県",
    "prefecture_kana": "カガワケン",
    "prefecture_code": 37,
    "city": "丸亀市",
    "city_kana": "マルガメシ",
    "town": "本島町笠島",
    "town_kana": "ホンジマチョウカサシマ",
    "street": null,
    "office_name": null,
    "office_name_kana": null
  },
  "0222": {
    "postcode": "7630222",
    "prefecture": "香川県",
    "prefecture_kana": "カガワケン",
    "prefecture_code": 37,
    "city": "丸亀市",
    "city_kana": "マルガメシ",
    "town": "本島町甲生",
    "town_kana": "ホンジマチョウコウショウ",
    "street": null,
    "office_name": null,
    "office_name_kana": null
  },
  "0223": {
    "postcode": "7630223",
    "prefecture": "香川県",
    "prefecture_kana": "カガワケン",
    "prefecture_code": 37,
    "city": "丸亀市",
    "city_kana": "マルガメシ",
    "town": "本島町泊",
    "town_kana": "ホンジマチョウトマリ",
    "street": null,
    "office_name": null,
    "office_name_kana": null
  },
  "0224": {
    "postcode": "7630224",
    "prefecture": "香川県",
    "prefecture_kana": "カガワケン",
    "prefecture_code": 37,
    "city": "丸亀市",
    "city_kana": "マルガメシ",
    "town": "本島町小阪",
    "town_kana": "ホンジマチョウコサカ",
    "street": null,
    "office_name": null,
    "office_name_kana": null
  },
  "0225": {
    "postcode": "7630225",
    "prefecture": "香川県",
    "prefecture_kana": "カガワケン",
    "prefecture_code": 37,
    "city": "丸亀市",
    "city_kana": "マルガメシ",
    "town": "本島町生ノ浜",
    "town_kana": "ホンジマチョウイクノハマ",
    "street": null,
    "office_name": null,
    "office_name_kana": null
  },
  "0226": {
    "postcode": "7630226",
    "prefecture": "香川県",
    "prefecture_kana": "カガワケン",
    "prefecture_code": 37,
    "city": "丸亀市",
    "city_kana": "マルガメシ",
    "town": "本島町尻浜",
    "town_kana": "ホンジマチョウシリハマ",
    "street": null,
    "office_name": null,
    "office_name_kana": null
  },
  "0227": {
    "postcode": "7630227",
    "prefecture": "香川県",
    "prefecture_kana": "カガワケン",
    "prefecture_code": 37,
    "city": "丸亀市",
    "city_kana": "マルガメシ",
    "town": "本島町福田",
    "town_kana": "ホンジマチョウフクダ",
    "street": null,
    "office_name": null,
    "office_name_kana": null
  },
  "0228": {
    "postcode": "7630228",
    "prefecture": "香川県",
    "prefecture_kana": "カガワケン",
    "prefecture_code": 37,
    "city": "丸亀市",
    "city_kana": "マルガメシ",
    "town": "本島町大浦",
    "town_kana": "ホンジマチョウオオウラ",
    "street": null,
    "office_name": null,
    "office_name_kana": null
  },
  "0231": {
    "postcode": "7630231",
    "prefecture": "香川県",
    "prefecture_kana": "カガワケン",
    "prefecture_code": 37,
    "city": "丸亀市",
    "city_kana": "マルガメシ",
    "town": "牛島",
    "town_kana": "ウシジマ",
    "street": null,
    "office_name": null,
    "office_name_kana": null
  },
  "8501": {
    "postcode": "7638501",
    "prefecture": "香川県",
    "prefecture_kana": "カガワケン",
    "prefecture_code": 37,
    "city": "丸亀市",
    "city_kana": "マルガメシ",
    "town": "大手町",
    "town_kana": "オオテチョウ",
    "street": "２丁目４−２１",
    "office_name": "丸亀市役所",
    "office_name_kana": "マルガメシヤクシヨ"
  },
  "8502": {
    "postcode": "7638502",
    "prefecture": "香川県",
    "prefecture_kana": "カガワケン",
    "prefecture_code": 37,
    "city": "丸亀市",
    "city_kana": "マルガメシ",
    "town": "城東町",
    "town_kana": "ジョウトウチョウ",
    "street": "３丁目３−１",
    "office_name": "香川労災病院",
    "office_name_kana": "カガワロウサイビヨウイン"
  },
  "8503": {
    "postcode": "7638503",
    "prefecture": "香川県",
    "prefecture_kana": "カガワケン",
    "prefecture_code": 37,
    "city": "丸亀市",
    "city_kana": "マルガメシ",
    "town": "柞原町",
    "town_kana": "クバラチョウ",
    "street": "３６６",
    "office_name": "三船病院",
    "office_name_kana": "ミフネビヨウイン"
  },
  "8504": {
    "postcode": "7638504",
    "prefecture": "香川県",
    "prefecture_kana": "カガワケン",
    "prefecture_code": 37,
    "city": "丸亀市",
    "city_kana": "マルガメシ",
    "town": "土器町東",
    "town_kana": "ドキチョウヒガシ",
    "street": "８丁目５３７−１",
    "office_name": "四国化成工業　株式会社",
    "office_name_kana": "シコクカセイコウギヨウ カブシキガイシヤ"
  },
  "8507": {
    "postcode": "7638507",
    "prefecture": "香川県",
    "prefecture_kana": "カガワケン",
    "prefecture_code": 37,
    "city": "丸亀市",
    "city_kana": "マルガメシ",
    "town": "津森町",
    "town_kana": "ツノモリチョウ",
    "street": "２１９",
    "office_name": "まるがめ医療センター",
    "office_name_kana": "マルガメイリヨウセンタ-"
  },
  "8508": {
    "postcode": "7638508",
    "prefecture": "香川県",
    "prefecture_kana": "カガワケン",
    "prefecture_code": 37,
    "city": "丸亀市",
    "city_kana": "マルガメシ",
    "town": "中津町",
    "town_kana": "ナカヅチョウ",
    "street": "１５１５",
    "office_name": "大倉工業　株式会社",
    "office_name_kana": "オオクラコウギヨウ カブシキガイシヤ"
  },
  "8510": {
    "postcode": "7638510",
    "prefecture": "香川県",
    "prefecture_kana": "カガワケン",
    "prefecture_code": 37,
    "city": "丸亀市",
    "city_kana": "マルガメシ",
    "town": "",
    "town_kana": "",
    "street": "土器町北２−８８",
    "office_name": "株式会社　カンペ共販四国",
    "office_name_kana": "カブシキガイシヤ カンペキヨウハンシコク"
  },
  "8511": {
    "postcode": "7638511",
    "prefecture": "香川県",
    "prefecture_kana": "カガワケン",
    "prefecture_code": 37,
    "city": "丸亀市",
    "city_kana": "マルガメシ",
    "town": "昭和町",
    "town_kana": "ショウワチョウ",
    "street": "３０",
    "office_name": "今治造船　（株）　丸亀事業本部",
    "office_name_kana": "イマバリゾウセン カブシキガイシヤ マルガメジギヨウホンブ"
  },
  "8512": {
    "postcode": "7638512",
    "prefecture": "香川県",
    "prefecture_kana": "カガワケン",
    "prefecture_code": 37,
    "city": "丸亀市",
    "city_kana": "マルガメシ",
    "town": "六番丁",
    "town_kana": "ロクバンチョウ",
    "street": "１",
    "office_name": "香川県立　丸亀高等学校",
    "office_name_kana": "カガワケンリツ マルガメコウトウガツコウ"
  },
  "8513": {
    "postcode": "7638513",
    "prefecture": "香川県",
    "prefecture_kana": "カガワケン",
    "prefecture_code": 37,
    "city": "丸亀市",
    "city_kana": "マルガメシ",
    "town": "港町",
    "town_kana": "ミナトマチ",
    "street": "３０７番地",
    "office_name": "香川県立高等技術学校丸亀校",
    "office_name_kana": "カガワケンリツコウトウギジユツガツコウマルガメコウ"
  },
  "8516": {
    "postcode": "7638516",
    "prefecture": "香川県",
    "prefecture_kana": "カガワケン",
    "prefecture_code": 37,
    "city": "丸亀市",
    "city_kana": "マルガメシ",
    "town": "蓬莱町",
    "town_kana": "ホウライチョウ",
    "street": "８番地",
    "office_name": "三菱電機　株式会社　受配電システム製作所",
    "office_name_kana": "ミツビシデンキ カブシキガイシヤ ジユハイデンシステムセイサクシヨ"
  },
  "8518": {
    "postcode": "7638518",
    "prefecture": "香川県",
    "prefecture_kana": "カガワケン",
    "prefecture_code": 37,
    "city": "丸亀市",
    "city_kana": "マルガメシ",
    "town": "土器町東",
    "town_kana": "ドキチョウヒガシ",
    "street": "９丁目２９１",
    "office_name": "香川県立　丸亀病院",
    "office_name_kana": "カガワケンリツ マルガメビヨウイン"
  },
  "8603": {
    "postcode": "7638603",
    "prefecture": "香川県",
    "prefecture_kana": "カガワケン",
    "prefecture_code": 37,
    "city": "丸亀市",
    "city_kana": "マルガメシ",
    "town": "田村町",
    "town_kana": "タムラチョウ",
    "street": "１３０１番地（丸亀郵便局私書箱第２８号）",
    "office_name": "富士産業　株式会社",
    "office_name_kana": "フジサンギヨウ カブシキガイシヤ"
  },
  "8605": {
    "postcode": "7638605",
    "prefecture": "香川県",
    "prefecture_kana": "カガワケン",
    "prefecture_code": 37,
    "city": "丸亀市",
    "city_kana": "マルガメシ",
    "town": "中津町",
    "town_kana": "ナカヅチョウ",
    "street": "１６７６（丸亀郵便局私書箱第１８号）",
    "office_name": "株式会社　伏見製薬所",
    "office_name_kana": "カブシキガイシヤ フシミセイヤクシヨ"
  },
  "8608": {
    "postcode": "7638608",
    "prefecture": "香川県",
    "prefecture_kana": "カガワケン",
    "prefecture_code": 37,
    "city": "丸亀市",
    "city_kana": "マルガメシ",
    "town": "風袋町",
    "town_kana": "フルタイマチ",
    "street": "２０８番地",
    "office_name": "大正製薬　株式会社　中四国支店　四国事業所",
    "office_name_kana": "タイシヨウセイヤク カブシキガイシヤ チユウシコクシテン シコクジギヨウシヨ"
  }
}