{
  "0000": {
    "postcode": "7670000",
    "prefecture": "香川県",
    "prefecture_kana": "カガワケン",
    "prefecture_code": 37,
    "city": "三豊市",
    "city_kana": "ミトヨシ",
    "town": "",
    "town_kana": "",
    "street": null,
    "office_name": null,
    "office_name_kana": null
  },
  "0001": {
    "postcode": "7670001",
    "prefecture": "香川県",
    "prefecture_kana": "カガワケン",
    "prefecture_code": 37,
    "city": "三豊市",
    "city_kana": "ミトヨシ",
    "town": "高瀬町上高瀬",
    "town_kana": "タカセチョウカミタカセ",
    "street": null,
    "office_name": null,
    "office_name_kana": null
  },
  "0002": {
    "postcode": "7670002",
    "prefecture": "香川県",
    "prefecture_kana": "カガワケン",
    "prefecture_code": 37,
    "city": "三豊市",
    "city_kana": "ミトヨシ",
    "town": "高瀬町新名",
    "town_kana": "タカセチョウシンミョウ",
    "street": null,
    "office_name": null,
    "office_name_kana": null
  },
  "0003": {
    "postcode": "7670003",
    "prefecture": "香川県",
    "prefecture_kana": "カガワケン",
    "prefecture_code": 37,
    "city": "三豊市",
    "city_kana": "ミトヨシ",
    "town": "高瀬町比地中",
    "town_kana": "タカセチョウヒジナカ",
    "street": null,
    "office_name": null,
    "office_name_kana": null
  },
  "0004": {
    "postcode": "7670004",
    "prefecture": "香川県",
    "prefecture_kana": "カガワケン",
    "prefecture_code": 37,
    "city": "三豊市",
    "city_kana": "ミトヨシ",
    "town": "高瀬町比地",
    "town_kana": "タカセチョウヒジ",
    "street": null,
    "office_name": null,
    "office_name_kana": null
  },
  "0011": {
    "postcode": "7670011",
    "prefecture": "香川県",
    "prefecture_kana": "カガワケン",
    "prefecture_code": 37,
    "city": "三豊市",
    "city_kana": "ミトヨシ",
    "town": "高瀬町下勝間",
    "town_kana": "タカセチョウシモカツマ",
    "street": null,
    "office_name": null,
    "office_name_kana": null
  },
  "0012": {
    "postcode": "7670012",
    "prefecture": "香川県",
    "prefecture_kana": "カガワケン",
    "prefecture_code": 37,
    "city": "三豊市",
    "city_kana": "ミトヨシ",
    "town": "高瀬町上勝間",
    "town_kana": "タカセチョウカミカツマ",
    "street": null,
    "office_name": null,
    "office_name_kana": null
  },
  "0013": {
    "postcode": "7670013",
    "prefecture": "香川県",
    "prefecture_kana": "カガワケン",
    "prefecture_code": 37,
    "city": "三豊市",
    "city_kana": "ミトヨシ",
    "town": "高瀬町下麻",
    "town_kana": "タカセチョウシモアサ",
    "street": null,
    "office_name": null,
    "office_name_kana": null
  },
  "0014": {
    "postcode": "7670014",
    "prefecture": "香川県",
    "prefecture_kana": "カガワケン",
    "prefecture_code": 37,
    "city": "三豊市",
    "city_kana": "ミトヨシ",
    "town": "高瀬町上麻",
    "town_kana": "タカセチョウカミアサ",
    "street": null,
    "office_name": null,
    "office_name_kana": null
  },
  "0021": {
    "postcode": "7670021",
    "prefecture": "香川県",
    "prefecture_kana": "カガワケン",
    "prefecture_code": 37,
    "city": "三豊市",
    "city_kana": "ミトヨシ",
    "town": "高瀬町佐股",
    "town_kana": "タカセチョウサマタ",
    "street": null,
    "office_name": null,
    "office_name_kana": null
  },
  "0022": {
    "postcode": "7670022",
    "prefecture": "香川県",
    "prefecture_kana": "カガワケン",
    "prefecture_code": 37,
    "city": "三豊市",
    "city_kana": "ミトヨシ",
    "town": "高瀬町羽方",
    "town_kana": "タカセチョウハガタ",
    "street": null,
    "office_name": null,
    "office_name_kana": null
  },
  "0031": {
    "postcode": "7670031",
    "prefecture": "香川県",
    "prefecture_kana": "カガワケン",
    "prefecture_code": 37,
    "city": "三豊市",
    "city_kana": "ミトヨシ",
    "town": "三野町大見",
    "town_kana": "ミノチョウオオミ",
    "street": null,
    "office_name": null,
    "office_name_kana": null
  },
  "0032": {
    "postcode": "7670032",
    "prefecture": "香川県",
    "prefecture_kana": "カガワケン",
    "prefecture_code": 37,
    "city": "三豊市",
    "city_kana": "ミトヨシ",
    "town": "三野町下高瀬",
    "town_kana": "ミノチョウシモタカセ",
    "street": null,
    "office_name": null,
    "office_name_kana": null
  },
  "0033": {
    "postcode": "7670033",
    "prefecture": "香川県",
    "prefecture_kana": "カガワケン",
    "prefecture_code": 37,
    "city": "三豊市",
    "city_kana": "ミトヨシ",
    "town": "三野町吉津",
    "town_kana": "ミノチョウヨシヅ",
    "street": null,
    "office_name": null,
    "office_name_kana": null
  },
  "8507": {
    "postcode": "7678507",
    "prefecture": "香川県",
    "prefecture_kana": "カガワケン",
    "prefecture_code": 37,
    "city": "三豊市",
    "city_kana": "ミトヨシ",
    "town": "三野町大見",
    "town_kana": "ミノチョウオオミ",
    "street": "３３０８",
    "office_name": "丸善",
    "office_name_kana": "マルゼン"
  },
  "8510": {
    "postcode": "7678510",
    "prefecture": "香川県",
    "prefecture_kana": "カガワケン",
    "prefecture_code": 37,
    "city": "三豊市",
    "city_kana": "ミトヨシ",
    "town": "高瀬町比地中",
    "town_kana": "タカセチョウヒジナカ",
    "street": "２９８６−２",
    "office_name": "三豊市立　西香川病院",
    "office_name_kana": "ミトヨシリツ ニシカガワビヨウイン"
  },
  "8513": {
    "postcode": "7678513",
    "prefecture": "香川県",
    "prefecture_kana": "カガワケン",
    "prefecture_code": 37,
    "city": "三豊市",
    "city_kana": "ミトヨシ",
    "town": "高瀬町下勝間",
    "town_kana": "タカセチョウシモカツマ",
    "street": "２３７９",
    "office_name": "四国学院大学　香川西高等学校",
    "office_name_kana": "シコクガクインダイガク カガワニシコウトウガツコウ"
  },
  "8585": {
    "postcode": "7678585",
    "prefecture": "香川県",
    "prefecture_kana": "カガワケン",
    "prefecture_code": 37,
    "city": "三豊市",
    "city_kana": "ミトヨシ",
    "town": "高瀬町下勝間",
    "town_kana": "タカセチョウシモカツマ",
    "street": "２３７３",
    "office_name": "三豊市役所",
    "office_name_kana": "ミトヨシヤクシヨ"
  }
}