{
  "0000": {
    "postcode": "7680000",
    "prefecture": "香川県",
    "prefecture_kana": "カガワケン",
    "prefecture_code": 37,
    "city": "観音寺市",
    "city_kana": "カンオンジシ",
    "town": "",
    "town_kana": "",
    "street": null,
    "office_name": null,
    "office_name_kana": null
  },
  "0001": {
    "postcode": "7680001",
    "prefecture": "香川県",
    "prefecture_kana": "カガワケン",
    "prefecture_code": 37,
    "city": "観音寺市",
    "city_kana": "カンオンジシ",
    "town": "室本町",
    "town_kana": "ムロモトチョウ",
    "street": null,
    "office_name": null,
    "office_name_kana": null
  },
  "0002": {
    "postcode": "7680002",
    "prefecture": "香川県",
    "prefecture_kana": "カガワケン",
    "prefecture_code": 37,
    "city": "観音寺市",
    "city_kana": "カンオンジシ",
    "town": "高屋町",
    "town_kana": "タカヤチョウ",
    "street": null,
    "office_name": null,
    "office_name_kana": null
  },
  "0011": {
    "postcode": "7680011",
    "prefecture": "香川県",
    "prefecture_kana": "カガワケン",
    "prefecture_code": 37,
    "city": "観音寺市",
    "city_kana": "カンオンジシ",
    "town": "出作町",
    "town_kana": "シュツサクチョウ",
    "street": null,
    "office_name": null,
    "office_name_kana": null
  },
  "0012": {
    "postcode": "7680012",
    "prefecture": "香川県",
    "prefecture_kana": "カガワケン",
    "prefecture_code": 37,
    "city": "観音寺市",
    "city_kana": "カンオンジシ",
    "town": "植田町",
    "town_kana": "ウエダチョウ",
    "street": null,
    "office_name": null,
    "office_name_kana": null
  },
  "0013": {
    "postcode": "7680013",
    "prefecture": "香川県",
    "prefecture_kana": "カガワケン",
    "prefecture_code": 37,
    "city": "観音寺市",
    "city_kana": "カンオンジシ",
    "town": "村黒町",
    "town_kana": "ムラグロチョウ",
    "street": null,
    "office_name": null,
    "office_name_kana": null
  },
  "0014": {
    "postcode": "7680014",
    "prefecture": "香川県",
    "prefecture_kana": "カガワケン",
    "prefecture_code": 37,
    "city": "観音寺市",
    "city_kana": "カンオンジシ",
    "town": "流岡町",
    "town_kana": "ナガレオカチョウ",
    "street": null,
    "office_name": null,
    "office_name_kana": null
  },
  "0021": {
    "postcode": "7680021",
    "prefecture": "香川県",
    "prefecture_kana": "カガワケン",
    "prefecture_code": 37,
    "city": "観音寺市",
    "city_kana": "カンオンジシ",
    "town": "吉岡町",
    "town_kana": "ヨシオカチョウ",
    "street": null,
    "office_name": null,
    "office_name_kana": null
  },
  "0022": {
    "postcode": "7680022",
    "prefecture": "香川県",
    "prefecture_kana": "カガワケン",
    "prefecture_code": 37,
    "city": "観音寺市",
    "city_kana": "カンオンジシ",
    "town": "本大町",
    "town_kana": "モトダイチョウ",
    "street": null,
    "office_name": null,
    "office_name_kana": null
  },
  "0023": {
    "postcode": "7680023",
    "prefecture": "香川県",
    "prefecture_kana": "カガワケン",
    "prefecture_code": 37,
    "city": "観音寺市",
    "city_kana": "カンオンジシ",
    "town": "古川町",
    "town_kana": "フルカワチョウ",
    "street": null,
    "office_name": null,
    "office_name_kana": null
  },
  "0024": {
    "postcode": "7680024",
    "prefecture": "香川県",
    "prefecture_kana": "カガワケン",
    "prefecture_code": 37,
    "city": "観音寺市",
    "city_kana": "カンオンジシ",
    "town": "中田井町",
    "town_kana": "ナカダイチョウ",
    "street": null,
    "office_name": null,
    "office_name_kana": null
  },
  "0031": {
    "postcode": "7680031",
    "prefecture": "香川県",
    "prefecture_kana": "カガワケン",
    "prefecture_code": 37,
    "city": "観音寺市",
    "city_kana": "カンオンジシ",
    "town": "池之尻町",
    "town_kana": "イケノシリチョウ",
    "street": null,
    "office_name": null,
    "office_name_kana": null
  },
  "0032": {
    "postcode": "7680032",
    "prefecture": "香川県",
    "prefecture_kana": "カガワケン",
    "prefecture_code": 37,
    "city": "観音寺市",
    "city_kana": "カンオンジシ",
    "town": "原町",
    "town_kana": "ハラチョウ",
    "street": null,
    "office_name": null,
    "office_name_kana": null
  },
  "0033": {
    "postcode": "7680033",
    "prefecture": "香川県",
    "prefecture_kana": "カガワケン",
    "prefecture_code": 37,
    "city": "観音寺市",
    "city_kana": "カンオンジシ",
    "town": "新田町",
    "town_kana": "シンデンチョウ",
    "street": null,
    "office_name": null,
    "office_name_kana": null
  },
  "0040": {
    "postcode": "7680040",
    "prefecture": "香川県",
    "prefecture_kana": "カガワケン",
    "prefecture_code": 37,
    "city": "観音寺市",
    "city_kana": "カンオンジシ",
    "town": "柞田町",
    "town_kana": "クニタチョウ",
    "street": null,
    "office_name": null,
    "office_name_kana": null
  },
  "0051": {
    "postcode": "7680051",
    "prefecture": "香川県",
    "prefecture_kana": "カガワケン",
    "prefecture_code": 37,
    "city": "観音寺市",
    "city_kana": "カンオンジシ",
    "town": "木之郷町",
    "town_kana": "キノゴウチョウ",
    "street": null,
    "office_name": null,
    "office_name_kana": null
  },
  "0052": {
    "postcode": "7680052",
    "prefecture": "香川県",
    "prefecture_kana": "カガワケン",
    "prefecture_code": 37,
    "city": "観音寺市",
    "city_kana": "カンオンジシ",
    "town": "粟井町",
    "town_kana": "アワイチョウ",
    "street": null,
    "office_name": null,
    "office_name_kana": null
  },
  "0060": {
    "postcode": "7680060",
    "prefecture": "香川県",
    "prefecture_kana": "カガワケン",
    "prefecture_code": 37,
    "city": "観音寺市",
    "city_kana": "カンオンジシ",
    "town": "観音寺町",
    "town_kana": "カンオンジチョウ",
    "street": null,
    "office_name": null,
    "office_name_kana": null
  },
  "0061": {
    "postcode": "7680061",
    "prefecture": "香川県",
    "prefecture_kana": "カガワケン",
    "prefecture_code": 37,
    "city": "観音寺市",
    "city_kana": "カンオンジシ",
    "town": "八幡町",
    "town_kana": "ヤハタチョウ",
    "street": null,
    "office_name": null,
    "office_name_kana": null
  },
  "0062": {
    "postcode": "7680062",
    "prefecture": "香川県",
    "prefecture_kana": "カガワケン",
    "prefecture_code": 37,
    "city": "観音寺市",
    "city_kana": "カンオンジシ",
    "town": "有明町",
    "town_kana": "アリアケチョウ",
    "street": null,
    "office_name": null,
    "office_name_kana": null
  },
  "0063": {
    "postcode": "7680063",
    "prefecture": "香川県",
    "prefecture_kana": "カガワケン",
    "prefecture_code": 37,
    "city": "観音寺市",
    "city_kana": "カンオンジシ",
    "town": "三本松町",
    "town_kana": "サンボンマツチョウ",
    "street": null,
    "office_name": null,
    "office_name_kana": null
  },
  "0064": {
    "postcode": "7680064",
    "prefecture": "香川県",
    "prefecture_kana": "カガワケン",
    "prefecture_code": 37,
    "city": "観音寺市",
    "city_kana": "カンオンジシ",
    "town": "琴浪町",
    "town_kana": "コトナミチョウ",
    "street": null,
    "office_name": null,
    "office_name_kana": null
  },
  "0065": {
    "postcode": "7680065",
    "prefecture": "香川県",
    "prefecture_kana": "カガワケン",
    "prefecture_code": 37,
    "city": "観音寺市",
    "city_kana": "カンオンジシ",
    "town": "瀬戸町",
    "town_kana": "セトチョウ",
    "street": null,
    "office_name": null,
    "office_name_kana": null
  },
  "0066": {
    "postcode": "7680066",
    "prefecture": "香川県",
    "prefecture_kana": "カガワケン",
    "prefecture_code": 37,
    "city": "観音寺市",
    "city_kana": "カンオンジシ",
    "town": "昭和町",
    "town_kana": "ショウワチョウ",
    "street": null,
    "office_name": null,
    "office_name_kana": null
  },
  "0067": {
    "postcode": "7680067",
    "prefecture": "香川県",
    "prefecture_kana": "カガワケン",
    "prefecture_code": 37,
    "city": "観音寺市",
    "city_kana": "カンオンジシ",
    "town": "坂本町",
    "town_kana": "サカモトチョウ",
    "street": null,
    "office_name": null,
    "office_name_kana": null
  },
  "0068": {
    "postcode": "7680068",
    "prefecture": "香川県",
    "prefecture_kana": "カガワケン",
    "prefecture_code": 37,
    "city": "観音寺市",
    "city_kana": "カンオンジシ",
    "town": "天神町",
    "town_kana": "テンジンチョウ",
    "street": null,
    "office_name": null,
    "office_name_kana": null
  },
  "0069": {
    "postcode": "7680069",
    "prefecture": "香川県",
    "prefecture_kana": "カガワケン",
    "prefecture_code": 37,
    "city": "観音寺市",
    "city_kana": "カンオンジシ",
    "town": "茂木町",
    "town_kana": "シゲキチョウ",
    "street": null,
    "office_name": null,
    "office_name_kana": null
  },
  "0070": {
    "postcode": "7680070",
    "prefecture": "香川県",
    "prefecture_kana": "カガワケン",
    "prefecture_code": 37,
    "city": "観音寺市",
    "city_kana": "カンオンジシ",
    "town": "南町",
    "town_kana": "ミナミマチ",
    "street": null,
    "office_name": null,
    "office_name_kana": null
  },
  "0071": {
    "postcode": "7680071",
    "prefecture": "香川県",
    "prefecture_kana": "カガワケン",
    "prefecture_code": 37,
    "city": "観音寺市",
    "city_kana": "カンオンジシ",
    "town": "伊吹町",
    "town_kana": "イブキチョウ",
    "street": null,
    "office_name": null,
    "office_name_kana": null
  },
  "0072": {
    "postcode": "7680072",
    "prefecture": "香川県",
    "prefecture_kana": "カガワケン",
    "prefecture_code": 37,
    "city": "観音寺市",
    "city_kana": "カンオンジシ",
    "town": "栄町",
    "town_kana": "サカエマチ",
    "street": null,
    "office_name": null,
    "office_name_kana": null
  },
  "0073": {
    "postcode": "7680073",
    "prefecture": "香川県",
    "prefecture_kana": "カガワケン",
    "prefecture_code": 37,
    "city": "観音寺市",
    "city_kana": "カンオンジシ",
    "town": "茂西町",
    "town_kana": "シゲニシチョウ",
    "street": null,
    "office_name": null,
    "office_name_kana": null
  },
  "0074": {
    "postcode": "7680074",
    "prefecture": "香川県",
    "prefecture_kana": "カガワケン",
    "prefecture_code": 37,
    "city": "観音寺市",
    "city_kana": "カンオンジシ",
    "town": "幸町",
    "town_kana": "サイワイチョウ",
    "street": null,
    "office_name": null,
    "office_name_kana": null
  },
  "0075": {
    "postcode": "7680075",
    "prefecture": "香川県",
    "prefecture_kana": "カガワケン",
    "prefecture_code": 37,
    "city": "観音寺市",
    "city_kana": "カンオンジシ",
    "town": "西本町",
    "town_kana": "ニシホンマチ",
    "street": null,
    "office_name": null,
    "office_name_kana": null
  },
  "0076": {
    "postcode": "7680076",
    "prefecture": "香川県",
    "prefecture_kana": "カガワケン",
    "prefecture_code": 37,
    "city": "観音寺市",
    "city_kana": "カンオンジシ",
    "town": "港町",
    "town_kana": "ミナトマチ",
    "street": null,
    "office_name": null,
    "office_name_kana": null
  },
  "0077": {
    "postcode": "7680077",
    "prefecture": "香川県",
    "prefecture_kana": "カガワケン",
    "prefecture_code": 37,
    "city": "観音寺市",
    "city_kana": "カンオンジシ",
    "town": "凪瀬町",
    "town_kana": "ナギセチョウ",
    "street": null,
    "office_name": null,
    "office_name_kana": null
  },
  "0101": {
    "postcode": "7680101",
    "prefecture": "香川県",
    "prefecture_kana": "カガワケン",
    "prefecture_code": 37,
    "city": "三豊市",
    "city_kana": "ミトヨシ",
    "town": "山本町辻",
    "town_kana": "ヤマモトチョウツジ",
    "street": null,
    "office_name": null,
    "office_name_kana": null
  },
  "0102": {
    "postcode": "7680102",
    "prefecture": "香川県",
    "prefecture_kana": "カガワケン",
    "prefecture_code": 37,
    "city": "三豊市",
    "city_kana": "ミトヨシ",
    "town": "山本町大野",
    "town_kana": "ヤマモトチョウオオノ",
    "street": null,
    "office_name": null,
    "office_name_kana": null
  },
  "0103": {
    "postcode": "7680103",
    "prefecture": "香川県",
    "prefecture_kana": "カガワケン",
    "prefecture_code": 37,
    "city": "三豊市",
    "city_kana": "ミトヨシ",
    "town": "山本町財田西",
    "town_kana": "ヤマモトチョウサイタニシ",
    "street": null,
    "office_name": null,
    "office_name_kana": null
  },
  "0104": {
    "postcode": "7680104",
    "prefecture": "香川県",
    "prefecture_kana": "カガワケン",
    "prefecture_code": 37,
    "city": "三豊市",
    "city_kana": "ミトヨシ",
    "town": "山本町神田",
    "town_kana": "ヤマモトチョウコウダ",
    "street": null,
    "office_name": null,
    "office_name_kana": null
  },
  "0105": {
    "postcode": "7680105",
    "prefecture": "香川県",
    "prefecture_kana": "カガワケン",
    "prefecture_code": 37,
    "city": "三豊市",
    "city_kana": "ミトヨシ",
    "town": "山本町河内",
    "town_kana": "ヤマモトチョウコウチ",
    "street": null,
    "office_name": null,
    "office_name_kana": null
  },
  "0192": {
    "postcode": "7680192",
    "prefecture": "香川県",
    "prefecture_kana": "カガワケン",
    "prefecture_code": 37,
    "city": "三豊市",
    "city_kana": "ミトヨシ",
    "town": "山本町大野",
    "town_kana": "ヤマモトチョウオオノ",
    "street": "上淀シコ２８７６",
    "office_name": "（株）　志満秀",
    "office_name_kana": "カブシキガイシヤ シマヒデ"
  },
  "0195": {
    "postcode": "7680195",
    "prefecture": "香川県",
    "prefecture_kana": "カガワケン",
    "prefecture_code": 37,
    "city": "三豊市",
    "city_kana": "ミトヨシ",
    "town": "山本町辻",
    "town_kana": "ヤマモトチョウツジ",
    "street": "３３３番地１",
    "office_name": "三豊市　山本支所",
    "office_name_kana": "ミトヨシ ヤマモトシシヨ"
  },
  "8601": {
    "postcode": "7688601",
    "prefecture": "香川県",
    "prefecture_kana": "カガワケン",
    "prefecture_code": 37,
    "city": "観音寺市",
    "city_kana": "カンオンジシ",
    "town": "坂本町",
    "town_kana": "サカモトチョウ",
    "street": "１丁目１−１（観音寺郵便局私書箱第２８号）",
    "office_name": "観音寺市役所",
    "office_name_kana": "カンオンジシヤクシヨ"
  },
  "8602": {
    "postcode": "7688602",
    "prefecture": "香川県",
    "prefecture_kana": "カガワケン",
    "prefecture_code": 37,
    "city": "観音寺市",
    "city_kana": "カンオンジシ",
    "town": "八幡町",
    "town_kana": "ヤハタチョウ",
    "street": "３丁目４−１５（観音寺郵便局私書箱第３７号）",
    "office_name": "株式会社　サムソン",
    "office_name_kana": "カブシキガイシヤ サムソン"
  }
}