{
  "0000": {
    "postcode": "7720000",
    "prefecture": "徳島県",
    "prefecture_kana": "トクシマケン",
    "prefecture_code": 36,
    "city": "鳴門市",
    "city_kana": "ナルトシ",
    "town": "",
    "town_kana": "",
    "street": null,
    "office_name": null,
    "office_name_kana": null
  },
  "0001": {
    "postcode": "7720001",
    "prefecture": "徳島県",
    "prefecture_kana": "トクシマケン",
    "prefecture_code": 36,
    "city": "鳴門市",
    "city_kana": "ナルトシ",
    "town": "撫養町黒崎",
    "town_kana": "ムヤチョウクロサキ",
    "street": null,
    "office_name": null,
    "office_name_kana": null
  },
  "0002": {
    "postcode": "7720002",
    "prefecture": "徳島県",
    "prefecture_kana": "トクシマケン",
    "prefecture_code": 36,
    "city": "鳴門市",
    "city_kana": "ナルトシ",
    "town": "撫養町斎田",
    "town_kana": "ムヤチョウサイタ",
    "street": null,
    "office_name": null,
    "office_name_kana": null
  },
  "0003": {
    "postcode": "7720003",
    "prefecture": "徳島県",
    "prefecture_kana": "トクシマケン",
    "prefecture_code": 36,
    "city": "鳴門市",
    "city_kana": "ナルトシ",
    "town": "撫養町南浜",
    "town_kana": "ムヤチョウミナミハマ",
    "street": null,
    "office_name": null,
    "office_name_kana": null
  },
  "0004": {
    "postcode": "7720004",
    "prefecture": "徳島県",
    "prefecture_kana": "トクシマケン",
    "prefecture_code": 36,
    "city": "鳴門市",
    "city_kana": "ナルトシ",
    "town": "撫養町木津",
    "town_kana": "ムヤチョウキヅ",
    "street": null,
    "office_name": null,
    "office_name_kana": null
  },
  "0011": {
    "postcode": "7720011",
    "prefecture": "徳島県",
    "prefecture_kana": "トクシマケン",
    "prefecture_code": 36,
    "city": "鳴門市",
    "city_kana": "ナルトシ",
    "town": "撫養町大桑島",
    "town_kana": "ムヤチョウオオクワジマ",
    "street": null,
    "office_name": null,
    "office_name_kana": null
  },
  "0012": {
    "postcode": "7720012",
    "prefecture": "徳島県",
    "prefecture_kana": "トクシマケン",
    "prefecture_code": 36,
    "city": "鳴門市",
    "city_kana": "ナルトシ",
    "town": "撫養町小桑島",
    "town_kana": "ムヤチョウコクワジマ",
    "street": null,
    "office_name": null,
    "office_name_kana": null
  },
  "0013": {
    "postcode": "7720013",
    "prefecture": "徳島県",
    "prefecture_kana": "トクシマケン",
    "prefecture_code": 36,
    "city": "鳴門市",
    "city_kana": "ナルトシ",
    "town": "撫養町岡崎",
    "town_kana": "ムヤチョウオカザキ",
    "street": null,
    "office_name": null,
    "office_name_kana": null
  },
  "0014": {
    "postcode": "7720014",
    "prefecture": "徳島県",
    "prefecture_kana": "トクシマケン",
    "prefecture_code": 36,
    "city": "鳴門市",
    "city_kana": "ナルトシ",
    "town": "撫養町弁財天",
    "town_kana": "ムヤチョウベザイテン",
    "street": null,
    "office_name": null,
    "office_name_kana": null
  },
  "0015": {
    "postcode": "7720015",
    "prefecture": "徳島県",
    "prefecture_kana": "トクシマケン",
    "prefecture_code": 36,
    "city": "鳴門市",
    "city_kana": "ナルトシ",
    "town": "撫養町北浜",
    "town_kana": "ムヤチョウキタハマ",
    "street": null,
    "office_name": null,
    "office_name_kana": null
  },
  "0016": {
    "postcode": "7720016",
    "prefecture": "徳島県",
    "prefecture_kana": "トクシマケン",
    "prefecture_code": 36,
    "city": "鳴門市",
    "city_kana": "ナルトシ",
    "town": "撫養町林崎",
    "town_kana": "ムヤチョウハヤサキ",
    "street": null,
    "office_name": null,
    "office_name_kana": null
  },
  "0017": {
    "postcode": "7720017",
    "prefecture": "徳島県",
    "prefecture_kana": "トクシマケン",
    "prefecture_code": 36,
    "city": "鳴門市",
    "city_kana": "ナルトシ",
    "town": "撫養町立岩",
    "town_kana": "ムヤチョウタテイワ",
    "street": null,
    "office_name": null,
    "office_name_kana": null
  },
  "0021": {
    "postcode": "7720021",
    "prefecture": "徳島県",
    "prefecture_kana": "トクシマケン",
    "prefecture_code": 36,
    "city": "鳴門市",
    "city_kana": "ナルトシ",
    "town": "里浦町里浦",
    "town_kana": "サトウラチョウサトウラ",
    "street": null,
    "office_name": null,
    "office_name_kana": null
  },
  "0022": {
    "postcode": "7720022",
    "prefecture": "徳島県",
    "prefecture_kana": "トクシマケン",
    "prefecture_code": 36,
    "city": "鳴門市",
    "city_kana": "ナルトシ",
    "town": "里浦町粟津",
    "town_kana": "サトウラチョウアワヅ",
    "street": null,
    "office_name": null,
    "office_name_kana": null
  },
  "0031": {
    "postcode": "7720031",
    "prefecture": "徳島県",
    "prefecture_kana": "トクシマケン",
    "prefecture_code": 36,
    "city": "鳴門市",
    "city_kana": "ナルトシ",
    "town": "大津町木津野",
    "town_kana": "オオツチョウキヅノ",
    "street": null,
    "office_name": null,
    "office_name_kana": null
  },
  "0032": {
    "postcode": "7720032",
    "prefecture": "徳島県",
    "prefecture_kana": "トクシマケン",
    "prefecture_code": 36,
    "city": "鳴門市",
    "city_kana": "ナルトシ",
    "town": "大津町吉永",
    "town_kana": "オオツチョウヨシナガ",
    "street": null,
    "office_name": null,
    "office_name_kana": null
  },
  "0033": {
    "postcode": "7720033",
    "prefecture": "徳島県",
    "prefecture_kana": "トクシマケン",
    "prefecture_code": 36,
    "city": "鳴門市",
    "city_kana": "ナルトシ",
    "town": "大津町長江",
    "town_kana": "オオツチョウナガエ",
    "street": null,
    "office_name": null,
    "office_name_kana": null
  },
  "0034": {
    "postcode": "7720034",
    "prefecture": "徳島県",
    "prefecture_kana": "トクシマケン",
    "prefecture_code": 36,
    "city": "鳴門市",
    "city_kana": "ナルトシ",
    "town": "大津町徳長",
    "town_kana": "オオツチョウトクナガ",
    "street": null,
    "office_name": null,
    "office_name_kana": null
  },
  "0035": {
    "postcode": "7720035",
    "prefecture": "徳島県",
    "prefecture_kana": "トクシマケン",
    "prefecture_code": 36,
    "city": "鳴門市",
    "city_kana": "ナルトシ",
    "town": "大津町矢倉",
    "town_kana": "オオツチョウヤグラ",
    "street": null,
    "office_name": null,
    "office_name_kana": null
  },
  "0041": {
    "postcode": "7720041",
    "prefecture": "徳島県",
    "prefecture_kana": "トクシマケン",
    "prefecture_code": 36,
    "city": "鳴門市",
    "city_kana": "ナルトシ",
    "town": "大津町大代",
    "town_kana": "オオツチョウオオシロ",
    "street": null,
    "office_name": null,
    "office_name_kana": null
  },
  "0042": {
    "postcode": "7720042",
    "prefecture": "徳島県",
    "prefecture_kana": "トクシマケン",
    "prefecture_code": 36,
    "city": "鳴門市",
    "city_kana": "ナルトシ",
    "town": "大津町備前島",
    "town_kana": "オオツチョウビゼンジマ",
    "street": null,
    "office_name": null,
    "office_name_kana": null
  },
  "0043": {
    "postcode": "7720043",
    "prefecture": "徳島県",
    "prefecture_kana": "トクシマケン",
    "prefecture_code": 36,
    "city": "鳴門市",
    "city_kana": "ナルトシ",
    "town": "大津町段関",
    "town_kana": "オオツチョウダンゼキ",
    "street": null,
    "office_name": null,
    "office_name_kana": null
  },
  "0044": {
    "postcode": "7720044",
    "prefecture": "徳島県",
    "prefecture_kana": "トクシマケン",
    "prefecture_code": 36,
    "city": "鳴門市",
    "city_kana": "ナルトシ",
    "town": "大津町大幸",
    "town_kana": "オオツチョウダイコウ",
    "street": null,
    "office_name": null,
    "office_name_kana": null
  },
  "0051": {
    "postcode": "7720051",
    "prefecture": "徳島県",
    "prefecture_kana": "トクシマケン",
    "prefecture_code": 36,
    "city": "鳴門市",
    "city_kana": "ナルトシ",
    "town": "鳴門町高島",
    "town_kana": "ナルトチョウタカシマ",
    "street": null,
    "office_name": null,
    "office_name_kana": null
  },
  "0052": {
    "postcode": "7720052",
    "prefecture": "徳島県",
    "prefecture_kana": "トクシマケン",
    "prefecture_code": 36,
    "city": "鳴門市",
    "city_kana": "ナルトシ",
    "town": "鳴門町三ツ石",
    "town_kana": "ナルトチョウミツイシ",
    "street": null,
    "office_name": null,
    "office_name_kana": null
  },
  "0053": {
    "postcode": "7720053",
    "prefecture": "徳島県",
    "prefecture_kana": "トクシマケン",
    "prefecture_code": 36,
    "city": "鳴門市",
    "city_kana": "ナルトシ",
    "town": "鳴門町土佐泊浦",
    "town_kana": "ナルトチョウトサドマリウラ",
    "street": null,
    "office_name": null,
    "office_name_kana": null
  },
  "0060": [
    {
      "postcode": "7720060",
      "prefecture": "徳島県",
      "prefecture_kana": "トクシマケン",
      "prefecture_code": 36,
      "city": "鳴門市",
      "city_kana": "ナルトシ",
      "town": "瀬戸町明神",
      "town_kana": "セトチョウアキノカミ",
      "street": null,
      "office_name": null,
      "office_name_kana": null
    },
    {
      "postcode": "7720060",
      "prefecture": "徳島県",
      "prefecture_kana": "トクシマケン",
      "prefecture_code": 36,
      "city": "鳴門市",
      "city_kana": "ナルトシ",
      "town": "瀬戸町明神楠谷",
      "town_kana": "セトチョウアキノカミクスノキダニ",
      "street": null,
      "office_name": null,
      "office_name_kana": null
    },
    {
      "postcode": "7720060",
      "prefecture": "徳島県",
      "prefecture_kana": "トクシマケン",
      "prefecture_code": 36,
      "city": "鳴門市",
      "city_kana": "ナルトシ",
      "town": "瀬戸町明神弐軒家",
      "town_kana": "セトチョウアキノカミニケンヤ",
      "street": null,
      "office_name": null,
      "office_name_kana": null
    },
    {
      "postcode": "7720060",
      "prefecture": "徳島県",
      "prefecture_kana": "トクシマケン",
      "prefecture_code": 36,
      "city": "鳴門市",
      "city_kana": "ナルトシ",
      "town": "瀬戸町明神水汲谷",
      "town_kana": "セトチョウアキノカミミズクミダニ",
      "street": null,
      "office_name": null,
      "office_name_kana": null
    }
  ],
  "8501": {
    "postcode": "7728501",
    "prefecture": "徳島県",
    "prefecture_kana": "トクシマケン",
    "prefecture_code": 36,
    "city": "鳴門市",
    "city_kana": "ナルトシ",
    "town": "撫養町南浜",
    "town_kana": "ムヤチョウミナミハマ",
    "street": "字東浜１７０",
    "office_name": "鳴門市役所",
    "office_name_kana": "ナルトシヤクシヨ"
  },
  "8502": {
    "postcode": "7728502",
    "prefecture": "徳島県",
    "prefecture_kana": "トクシマケン",
    "prefecture_code": 36,
    "city": "鳴門市",
    "city_kana": "ナルトシ",
    "town": "鳴門町高島",
    "town_kana": "ナルトチョウタカシマ",
    "street": "字中島７４８",
    "office_name": "鳴門教育大学",
    "office_name_kana": "ナルトキヨウイクダイガク"
  },
  "8503": {
    "postcode": "7728503",
    "prefecture": "徳島県",
    "prefecture_kana": "トクシマケン",
    "prefecture_code": 36,
    "city": "鳴門市",
    "city_kana": "ナルトシ",
    "town": "撫養町黒崎",
    "town_kana": "ムヤチョウクロサキ",
    "street": "字小谷３２番",
    "office_name": "地方独立行政法人　徳島県鳴門病院",
    "office_name_kana": "チホウドクリツギヨウセイホウジン トクシマケンナルトビヨウイン"
  },
  "8510": {
    "postcode": "7728510",
    "prefecture": "徳島県",
    "prefecture_kana": "トクシマケン",
    "prefecture_code": 36,
    "city": "鳴門市",
    "city_kana": "ナルトシ",
    "town": "撫養町大桑島",
    "town_kana": "ムヤチョウオオクワジマ",
    "street": "字すべり岩浜４８",
    "office_name": "鳴門市　競艇部",
    "office_name_kana": "ナルトシ キヨウテイブ"
  },
  "8511": {
    "postcode": "7728511",
    "prefecture": "徳島県",
    "prefecture_kana": "トクシマケン",
    "prefecture_code": 36,
    "city": "鳴門市",
    "city_kana": "ナルトシ",
    "town": "大津町木津野",
    "town_kana": "オオツチョウキヅノ",
    "street": "字東辰巳１",
    "office_name": "大塚包装工業　株式会社",
    "office_name_kana": "オオツカホウソウコウギヨウ カブシキガイシヤ"
  },
  "8515": {
    "postcode": "7728515",
    "prefecture": "徳島県",
    "prefecture_kana": "トクシマケン",
    "prefecture_code": 36,
    "city": "鳴門市",
    "city_kana": "ナルトシ",
    "town": "鳴門町土佐泊浦",
    "town_kana": "ナルトチョウトサドマリウラ",
    "street": "字高砂２０５番地２９",
    "office_name": "医療法人　久仁会　鳴門山上病院",
    "office_name_kana": "イリヨウホウジン キユウジンカイ ナルトヤマカミビヨウイン"
  },
  "8520": {
    "postcode": "7728520",
    "prefecture": "徳島県",
    "prefecture_kana": "トクシマケン",
    "prefecture_code": 36,
    "city": "鳴門市",
    "city_kana": "ナルトシ",
    "town": "撫養町黒崎",
    "town_kana": "ムヤチョウクロサキ",
    "street": "字松島５３",
    "office_name": "鳴門塩業　（株）",
    "office_name_kana": "ナルトエンギヨウ カブシキガイシヤ"
  },
  "8601": {
    "postcode": "7728601",
    "prefecture": "徳島県",
    "prefecture_kana": "トクシマケン",
    "prefecture_code": 36,
    "city": "鳴門市",
    "city_kana": "ナルトシ",
    "town": "撫養町立岩",
    "town_kana": "ムヤチョウタテイワ",
    "street": "字芥原１１５（鳴門郵便局私書箱第１７号）",
    "office_name": "（株）　大塚製薬工場",
    "office_name_kana": "カブシキガイシヤ オオツカセイヤクコウジヨウ"
  }
}