{
  "0000": {
    "postcode": "7740000",
    "prefecture": "徳島県",
    "prefecture_kana": "トクシマケン",
    "prefecture_code": 36,
    "city": "阿南市",
    "city_kana": "アナンシ",
    "town": "",
    "town_kana": "",
    "street": null,
    "office_name": null,
    "office_name_kana": null
  },
  "0001": {
    "postcode": "7740001",
    "prefecture": "徳島県",
    "prefecture_kana": "トクシマケン",
    "prefecture_code": 36,
    "city": "阿南市",
    "city_kana": "アナンシ",
    "town": "辰巳町",
    "town_kana": "タツミチョウ",
    "street": null,
    "office_name": null,
    "office_name_kana": null
  },
  "0002": {
    "postcode": "7740002",
    "prefecture": "徳島県",
    "prefecture_kana": "トクシマケン",
    "prefecture_code": 36,
    "city": "阿南市",
    "city_kana": "アナンシ",
    "town": "豊益町",
    "town_kana": "トヨマスチョウ",
    "street": null,
    "office_name": null,
    "office_name_kana": null
  },
  "0003": {
    "postcode": "7740003",
    "prefecture": "徳島県",
    "prefecture_kana": "トクシマケン",
    "prefecture_code": 36,
    "city": "阿南市",
    "city_kana": "アナンシ",
    "town": "畭町",
    "town_kana": "ハリチョウ",
    "street": null,
    "office_name": null,
    "office_name_kana": null
  },
  "0004": {
    "postcode": "7740004",
    "prefecture": "徳島県",
    "prefecture_kana": "トクシマケン",
    "prefecture_code": 36,
    "city": "阿南市",
    "city_kana": "アナンシ",
    "town": "福村町",
    "town_kana": "フクムラチョウ",
    "street": null,
    "office_name": null,
    "office_name_kana": null
  },
  "0005": {
    "postcode": "7740005",
    "prefecture": "徳島県",
    "prefecture_kana": "トクシマケン",
    "prefecture_code": 36,
    "city": "阿南市",
    "city_kana": "アナンシ",
    "town": "向原町",
    "town_kana": "ムカイバラチョウ",
    "street": null,
    "office_name": null,
    "office_name_kana": null
  },
  "0006": {
    "postcode": "7740006",
    "prefecture": "徳島県",
    "prefecture_kana": "トクシマケン",
    "prefecture_code": 36,
    "city": "阿南市",
    "city_kana": "アナンシ",
    "town": "黒津地町",
    "town_kana": "クロツチチョウ",
    "street": null,
    "office_name": null,
    "office_name_kana": null
  },
  "0007": {
    "postcode": "7740007",
    "prefecture": "徳島県",
    "prefecture_kana": "トクシマケン",
    "prefecture_code": 36,
    "city": "阿南市",
    "city_kana": "アナンシ",
    "town": "出来町",
    "town_kana": "デキマチ",
    "street": null,
    "office_name": null,
    "office_name_kana": null
  },
  "0008": {
    "postcode": "7740008",
    "prefecture": "徳島県",
    "prefecture_kana": "トクシマケン",
    "prefecture_code": 36,
    "city": "阿南市",
    "city_kana": "アナンシ",
    "town": "原ケ崎町",
    "town_kana": "ハラガサキチョウ",
    "street": null,
    "office_name": null,
    "office_name_kana": null
  },
  "0009": {
    "postcode": "7740009",
    "prefecture": "徳島県",
    "prefecture_kana": "トクシマケン",
    "prefecture_code": 36,
    "city": "阿南市",
    "city_kana": "アナンシ",
    "town": "西路見町",
    "town_kana": "サイロミチョウ",
    "street": null,
    "office_name": null,
    "office_name_kana": null
  },
  "0011": {
    "postcode": "7740011",
    "prefecture": "徳島県",
    "prefecture_kana": "トクシマケン",
    "prefecture_code": 36,
    "city": "阿南市",
    "city_kana": "アナンシ",
    "town": "領家町",
    "town_kana": "リョウケチョウ",
    "street": null,
    "office_name": null,
    "office_name_kana": null
  },
  "0012": {
    "postcode": "7740012",
    "prefecture": "徳島県",
    "prefecture_kana": "トクシマケン",
    "prefecture_code": 36,
    "city": "阿南市",
    "city_kana": "アナンシ",
    "town": "七見町",
    "town_kana": "ナナミチョウ",
    "street": null,
    "office_name": null,
    "office_name_kana": null
  },
  "0013": {
    "postcode": "7740013",
    "prefecture": "徳島県",
    "prefecture_kana": "トクシマケン",
    "prefecture_code": 36,
    "city": "阿南市",
    "city_kana": "アナンシ",
    "town": "日開野町",
    "town_kana": "ヒガイノチョウ",
    "street": null,
    "office_name": null,
    "office_name_kana": null
  },
  "0014": {
    "postcode": "7740014",
    "prefecture": "徳島県",
    "prefecture_kana": "トクシマケン",
    "prefecture_code": 36,
    "city": "阿南市",
    "city_kana": "アナンシ",
    "town": "学原町",
    "town_kana": "ガクバラチョウ",
    "street": null,
    "office_name": null,
    "office_name_kana": null
  },
  "0015": {
    "postcode": "7740015",
    "prefecture": "徳島県",
    "prefecture_kana": "トクシマケン",
    "prefecture_code": 36,
    "city": "阿南市",
    "city_kana": "アナンシ",
    "town": "才見町",
    "town_kana": "サイミチョウ",
    "street": null,
    "office_name": null,
    "office_name_kana": null
  },
  "0016": {
    "postcode": "7740016",
    "prefecture": "徳島県",
    "prefecture_kana": "トクシマケン",
    "prefecture_code": 36,
    "city": "阿南市",
    "city_kana": "アナンシ",
    "town": "中林町",
    "town_kana": "ナカバヤシチョウ",
    "street": null,
    "office_name": null,
    "office_name_kana": null
  },
  "0017": {
    "postcode": "7740017",
    "prefecture": "徳島県",
    "prefecture_kana": "トクシマケン",
    "prefecture_code": 36,
    "city": "阿南市",
    "city_kana": "アナンシ",
    "town": "見能林町",
    "town_kana": "ミノバヤシチョウ",
    "street": null,
    "office_name": null,
    "office_name_kana": null
  },
  "0021": {
    "postcode": "7740021",
    "prefecture": "徳島県",
    "prefecture_kana": "トクシマケン",
    "prefecture_code": 36,
    "city": "阿南市",
    "city_kana": "アナンシ",
    "town": "津乃峰町",
    "town_kana": "ツノミネチョウ",
    "street": null,
    "office_name": null,
    "office_name_kana": null
  },
  "0022": {
    "postcode": "7740022",
    "prefecture": "徳島県",
    "prefecture_kana": "トクシマケン",
    "prefecture_code": 36,
    "city": "阿南市",
    "city_kana": "アナンシ",
    "town": "大潟町",
    "town_kana": "オオガタチョウ",
    "street": null,
    "office_name": null,
    "office_name_kana": null
  },
  "0023": {
    "postcode": "7740023",
    "prefecture": "徳島県",
    "prefecture_kana": "トクシマケン",
    "prefecture_code": 36,
    "city": "阿南市",
    "city_kana": "アナンシ",
    "town": "橘町",
    "town_kana": "タチバナチョウ",
    "street": null,
    "office_name": null,
    "office_name_kana": null
  },
  "0030": {
    "postcode": "7740030",
    "prefecture": "徳島県",
    "prefecture_kana": "トクシマケン",
    "prefecture_code": 36,
    "city": "阿南市",
    "city_kana": "アナンシ",
    "town": "富岡町",
    "town_kana": "トミオカチョウ",
    "street": null,
    "office_name": null,
    "office_name_kana": null
  },
  "0041": {
    "postcode": "7740041",
    "prefecture": "徳島県",
    "prefecture_kana": "トクシマケン",
    "prefecture_code": 36,
    "city": "阿南市",
    "city_kana": "アナンシ",
    "town": "住吉町",
    "town_kana": "スミヨシチョウ",
    "street": null,
    "office_name": null,
    "office_name_kana": null
  },
  "0042": {
    "postcode": "7740042",
    "prefecture": "徳島県",
    "prefecture_kana": "トクシマケン",
    "prefecture_code": 36,
    "city": "阿南市",
    "city_kana": "アナンシ",
    "town": "横見町",
    "town_kana": "ヨコミチョウ",
    "street": null,
    "office_name": null,
    "office_name_kana": null
  },
  "0043": {
    "postcode": "7740043",
    "prefecture": "徳島県",
    "prefecture_kana": "トクシマケン",
    "prefecture_code": 36,
    "city": "阿南市",
    "city_kana": "アナンシ",
    "town": "柳島町",
    "town_kana": "ヤナギジマチョウ",
    "street": null,
    "office_name": null,
    "office_name_kana": null
  },
  "0044": {
    "postcode": "7740044",
    "prefecture": "徳島県",
    "prefecture_kana": "トクシマケン",
    "prefecture_code": 36,
    "city": "阿南市",
    "city_kana": "アナンシ",
    "town": "上中町",
    "town_kana": "カミナカチョウ",
    "street": null,
    "office_name": null,
    "office_name_kana": null
  },
  "0045": {
    "postcode": "7740045",
    "prefecture": "徳島県",
    "prefecture_kana": "トクシマケン",
    "prefecture_code": 36,
    "city": "阿南市",
    "city_kana": "アナンシ",
    "town": "宝田町",
    "town_kana": "タカラダチョウ",
    "street": null,
    "office_name": null,
    "office_name_kana": null
  },
  "0046": {
    "postcode": "7740046",
    "prefecture": "徳島県",
    "prefecture_kana": "トクシマケン",
    "prefecture_code": 36,
    "city": "阿南市",
    "city_kana": "アナンシ",
    "town": "長生町",
    "town_kana": "ナガイケチョウ",
    "street": null,
    "office_name": null,
    "office_name_kana": null
  },
  "0047": {
    "postcode": "7740047",
    "prefecture": "徳島県",
    "prefecture_kana": "トクシマケン",
    "prefecture_code": 36,
    "city": "阿南市",
    "city_kana": "アナンシ",
    "town": "下大野町",
    "town_kana": "シモオオノチョウ",
    "street": null,
    "office_name": null,
    "office_name_kana": null
  },
  "0048": {
    "postcode": "7740048",
    "prefecture": "徳島県",
    "prefecture_kana": "トクシマケン",
    "prefecture_code": 36,
    "city": "阿南市",
    "city_kana": "アナンシ",
    "town": "中大野町",
    "town_kana": "ナカオオノチョウ",
    "street": null,
    "office_name": null,
    "office_name_kana": null
  },
  "0049": {
    "postcode": "7740049",
    "prefecture": "徳島県",
    "prefecture_kana": "トクシマケン",
    "prefecture_code": 36,
    "city": "阿南市",
    "city_kana": "アナンシ",
    "town": "上大野町",
    "town_kana": "カミオオノチョウ",
    "street": null,
    "office_name": null,
    "office_name_kana": null
  },
  "1760": {
    "postcode": "7741760",
    "prefecture": "徳島県",
    "prefecture_kana": "トクシマケン",
    "prefecture_code": 36,
    "city": "阿南市",
    "city_kana": "アナンシ",
    "town": "伊島町",
    "town_kana": "イシマチョウ",
    "street": null,
    "office_name": null,
    "office_name_kana": null
  },
  "8501": {
    "postcode": "7748501",
    "prefecture": "徳島県",
    "prefecture_kana": "トクシマケン",
    "prefecture_code": 36,
    "city": "阿南市",
    "city_kana": "アナンシ",
    "town": "富岡町",
    "town_kana": "トミオカチョウ",
    "street": "トノ町１２−３",
    "office_name": "阿南市役所",
    "office_name_kana": "アナンシヤクシヨ"
  },
  "8601": {
    "postcode": "7748601",
    "prefecture": "徳島県",
    "prefecture_kana": "トクシマケン",
    "prefecture_code": 36,
    "city": "阿南市",
    "city_kana": "アナンシ",
    "town": "上中町",
    "town_kana": "カミナカチョウ",
    "street": "岡４９１−１００",
    "office_name": "日亜化学工業　株式会社",
    "office_name_kana": "ニチアカガクコウギヨウ カブシキガイシヤ"
  }
}