{
  "0000": {
    "postcode": "7820000",
    "prefecture": "高知県",
    "prefecture_kana": "コウチケン",
    "prefecture_code": 39,
    "city": "香美市",
    "city_kana": "カミシ",
    "town": "",
    "town_kana": "",
    "street": null,
    "office_name": null,
    "office_name_kana": null
  },
  "0001": {
    "postcode": "7820001",
    "prefecture": "高知県",
    "prefecture_kana": "コウチケン",
    "prefecture_code": 39,
    "city": "香美市",
    "city_kana": "カミシ",
    "town": "土佐山田町杉田",
    "town_kana": "トサヤマダチョウスイタ",
    "street": null,
    "office_name": null,
    "office_name_kana": null
  },
  "0002": {
    "postcode": "7820002",
    "prefecture": "高知県",
    "prefecture_kana": "コウチケン",
    "prefecture_code": 39,
    "city": "香美市",
    "city_kana": "カミシ",
    "town": "土佐山田町船谷",
    "town_kana": "トサヤマダチョウフナダニ",
    "street": null,
    "office_name": null,
    "office_name_kana": null
  },
  "0003": {
    "postcode": "7820003",
    "prefecture": "高知県",
    "prefecture_kana": "コウチケン",
    "prefecture_code": 39,
    "city": "香美市",
    "city_kana": "カミシ",
    "town": "土佐山田町宮ノ口",
    "town_kana": "トサヤマダチョウミヤノクチ",
    "street": null,
    "office_name": null,
    "office_name_kana": null
  },
  "0004": {
    "postcode": "7820004",
    "prefecture": "高知県",
    "prefecture_kana": "コウチケン",
    "prefecture_code": 39,
    "city": "香美市",
    "city_kana": "カミシ",
    "town": "土佐山田町間",
    "town_kana": "トサヤマダチョウハザマ",
    "street": null,
    "office_name": null,
    "office_name_kana": null
  },
  "0005": {
    "postcode": "7820005",
    "prefecture": "高知県",
    "prefecture_kana": "コウチケン",
    "prefecture_code": 39,
    "city": "香美市",
    "city_kana": "カミシ",
    "town": "土佐山田町逆川",
    "town_kana": "トサヤマダチョウサカカワ",
    "street": null,
    "office_name": null,
    "office_name_kana": null
  },
  "0006": {
    "postcode": "7820006",
    "prefecture": "高知県",
    "prefecture_kana": "コウチケン",
    "prefecture_code": 39,
    "city": "香美市",
    "city_kana": "カミシ",
    "town": "土佐山田町影山",
    "town_kana": "トサヤマダチョウカゲヤマ",
    "street": null,
    "office_name": null,
    "office_name_kana": null
  },
  "0007": {
    "postcode": "7820007",
    "prefecture": "高知県",
    "prefecture_kana": "コウチケン",
    "prefecture_code": 39,
    "city": "香美市",
    "city_kana": "カミシ",
    "town": "土佐山田町林田",
    "town_kana": "トサヤマダチョウハヤシダ",
    "street": null,
    "office_name": null,
    "office_name_kana": null
  },
  "0008": {
    "postcode": "7820008",
    "prefecture": "高知県",
    "prefecture_kana": "コウチケン",
    "prefecture_code": 39,
    "city": "香美市",
    "city_kana": "カミシ",
    "town": "土佐山田町佐古薮",
    "town_kana": "トサヤマダチョウサコヤブ",
    "street": null,
    "office_name": null,
    "office_name_kana": null
  },
  "0009": {
    "postcode": "7820009",
    "prefecture": "高知県",
    "prefecture_kana": "コウチケン",
    "prefecture_code": 39,
    "city": "香美市",
    "city_kana": "カミシ",
    "town": "土佐山田町神母ノ木",
    "town_kana": "トサヤマダチョウイゲノキ",
    "street": null,
    "office_name": null,
    "office_name_kana": null
  },
  "0010": {
    "postcode": "7820010",
    "prefecture": "高知県",
    "prefecture_kana": "コウチケン",
    "prefecture_code": 39,
    "city": "香美市",
    "city_kana": "カミシ",
    "town": "土佐山田町テクノパーク",
    "town_kana": "トサヤマダチョウテクノパーク",
    "street": null,
    "office_name": null,
    "office_name_kana": null
  },
  "0011": {
    "postcode": "7820011",
    "prefecture": "高知県",
    "prefecture_kana": "コウチケン",
    "prefecture_code": 39,
    "city": "香美市",
    "city_kana": "カミシ",
    "town": "土佐山田町山田島",
    "town_kana": "トサヤマダチョウヤマダジマ",
    "street": null,
    "office_name": null,
    "office_name_kana": null
  },
  "0012": {
    "postcode": "7820012",
    "prefecture": "高知県",
    "prefecture_kana": "コウチケン",
    "prefecture_code": 39,
    "city": "香美市",
    "city_kana": "カミシ",
    "town": "土佐山田町加茂",
    "town_kana": "トサヤマダチョウカモ",
    "street": null,
    "office_name": null,
    "office_name_kana": null
  },
  "0013": {
    "postcode": "7820013",
    "prefecture": "高知県",
    "prefecture_kana": "コウチケン",
    "prefecture_code": 39,
    "city": "香美市",
    "city_kana": "カミシ",
    "town": "土佐山田町町田",
    "town_kana": "トサヤマダチョウマチダ",
    "street": null,
    "office_name": null,
    "office_name_kana": null
  },
  "0014": {
    "postcode": "7820014",
    "prefecture": "高知県",
    "prefecture_kana": "コウチケン",
    "prefecture_code": 39,
    "city": "香美市",
    "city_kana": "カミシ",
    "town": "土佐山田町小田島",
    "town_kana": "トサヤマダチョウオダジマ",
    "street": null,
    "office_name": null,
    "office_name_kana": null
  },
  "0015": {
    "postcode": "7820015",
    "prefecture": "高知県",
    "prefecture_kana": "コウチケン",
    "prefecture_code": 39,
    "city": "香美市",
    "city_kana": "カミシ",
    "town": "土佐山田町下ノ村",
    "town_kana": "トサヤマダチョウシモノムラ",
    "street": null,
    "office_name": null,
    "office_name_kana": null
  },
  "0016": [
    {
      "postcode": "7820016",
      "prefecture": "高知県",
      "prefecture_kana": "コウチケン",
      "prefecture_code": 39,
      "city": "香美市",
      "city_kana": "カミシ",
      "town": "土佐山田町山田",
      "town_kana": "トサヤマダチョウヤマダ",
      "street": null,
      "office_name": null,
      "office_name_kana": null
    },
    {
      "postcode": "7820016",
      "prefecture": "高知県",
      "prefecture_kana": "コウチケン",
      "prefecture_code": 39,
      "city": "香美市",
      "city_kana": "カミシ",
      "town": "土佐山田町山田小島",
      "town_kana": "トサヤマダチョウヤマダコジマ",
      "street": null,
      "office_name": null,
      "office_name_kana": null
    },
    {
      "postcode": "7820016",
      "prefecture": "高知県",
      "prefecture_kana": "コウチケン",
      "prefecture_code": 39,
      "city": "香美市",
      "city_kana": "カミシ",
      "town": "土佐山田町山田八王子",
      "town_kana": "トサヤマダチョウヤマダハチオウジ",
      "street": null,
      "office_name": null,
      "office_name_kana": null
    },
    {
      "postcode": "7820016",
      "prefecture": "高知県",
      "prefecture_kana": "コウチケン",
      "prefecture_code": 39,
      "city": "香美市",
      "city_kana": "カミシ",
      "town": "土佐山田町山田原",
      "town_kana": "トサヤマダチョウヤマダハラ",
      "street": null,
      "office_name": null,
      "office_name_kana": null
    }
  ],
  "0017": {
    "postcode": "7820017",
    "prefecture": "高知県",
    "prefecture_kana": "コウチケン",
    "prefecture_code": 39,
    "city": "香美市",
    "city_kana": "カミシ",
    "town": "土佐山田町岩積",
    "town_kana": "トサヤマダチョウイワズミ",
    "street": null,
    "office_name": null,
    "office_name_kana": null
  },
  "0018": {
    "postcode": "7820018",
    "prefecture": "高知県",
    "prefecture_kana": "コウチケン",
    "prefecture_code": 39,
    "city": "香美市",
    "city_kana": "カミシ",
    "town": "土佐山田町戸板島",
    "town_kana": "トサヤマダチョウトイタジマ",
    "street": null,
    "office_name": null,
    "office_name_kana": null
  },
  "0019": {
    "postcode": "7820019",
    "prefecture": "高知県",
    "prefecture_kana": "コウチケン",
    "prefecture_code": 39,
    "city": "香美市",
    "city_kana": "カミシ",
    "town": "土佐山田町中野",
    "town_kana": "トサヤマダチョウナカノ",
    "street": null,
    "office_name": null,
    "office_name_kana": null
  },
  "0021": {
    "postcode": "7820021",
    "prefecture": "高知県",
    "prefecture_kana": "コウチケン",
    "prefecture_code": 39,
    "city": "香美市",
    "city_kana": "カミシ",
    "town": "土佐山田町岩次",
    "town_kana": "トサヤマダチョウイワツギ",
    "street": null,
    "office_name": null,
    "office_name_kana": null
  },
  "0022": [
    {
      "postcode": "7820022",
      "prefecture": "高知県",
      "prefecture_kana": "コウチケン",
      "prefecture_code": 39,
      "city": "香美市",
      "city_kana": "カミシ",
      "town": "土佐山田町京田",
      "town_kana": "トサヤマダチョウキョウデン",
      "street": null,
      "office_name": null,
      "office_name_kana": null
    },
    {
      "postcode": "7820022",
      "prefecture": "高知県",
      "prefecture_kana": "コウチケン",
      "prefecture_code": 39,
      "city": "香美市",
      "city_kana": "カミシ",
      "town": "土佐山田町京田立石",
      "town_kana": "トサヤマダチョウキョウデンタテイシ",
      "street": null,
      "office_name": null,
      "office_name_kana": null
    }
  ],
  "0023": {
    "postcode": "7820023",
    "prefecture": "高知県",
    "prefecture_kana": "コウチケン",
    "prefecture_code": 39,
    "city": "香美市",
    "city_kana": "カミシ",
    "town": "土佐山田町京田",
    "town_kana": "トサヤマダチョウキョウデン",
    "street": null,
    "office_name": null,
    "office_name_kana": null
  },
  "0024": {
    "postcode": "7820024",
    "prefecture": "高知県",
    "prefecture_kana": "コウチケン",
    "prefecture_code": 39,
    "city": "香美市",
    "city_kana": "カミシ",
    "town": "土佐山田町神通寺",
    "town_kana": "トサヤマダチョウジンツウジ",
    "street": null,
    "office_name": null,
    "office_name_kana": null
  },
  "0025": {
    "postcode": "7820025",
    "prefecture": "高知県",
    "prefecture_kana": "コウチケン",
    "prefecture_code": 39,
    "city": "香美市",
    "city_kana": "カミシ",
    "town": "土佐山田町松本",
    "town_kana": "トサヤマダチョウマツモト",
    "street": null,
    "office_name": null,
    "office_name_kana": null
  },
  "0031": {
    "postcode": "7820031",
    "prefecture": "高知県",
    "prefecture_kana": "コウチケン",
    "prefecture_code": 39,
    "city": "香美市",
    "city_kana": "カミシ",
    "town": "土佐山田町東本町",
    "town_kana": "トサヤマダチョウヒガシホンマチ",
    "street": null,
    "office_name": null,
    "office_name_kana": null
  },
  "0032": {
    "postcode": "7820032",
    "prefecture": "高知県",
    "prefecture_kana": "コウチケン",
    "prefecture_code": 39,
    "city": "香美市",
    "city_kana": "カミシ",
    "town": "土佐山田町西本町",
    "town_kana": "トサヤマダチョウニシホンマチ",
    "street": null,
    "office_name": null,
    "office_name_kana": null
  },
  "0033": {
    "postcode": "7820033",
    "prefecture": "高知県",
    "prefecture_kana": "コウチケン",
    "prefecture_code": 39,
    "city": "香美市",
    "city_kana": "カミシ",
    "town": "土佐山田町旭町",
    "town_kana": "トサヤマダチョウアサヒマチ",
    "street": null,
    "office_name": null,
    "office_name_kana": null
  },
  "0034": {
    "postcode": "7820034",
    "prefecture": "高知県",
    "prefecture_kana": "コウチケン",
    "prefecture_code": 39,
    "city": "香美市",
    "city_kana": "カミシ",
    "town": "土佐山田町宝町",
    "town_kana": "トサヤマダチョウタカラマチ",
    "street": null,
    "office_name": null,
    "office_name_kana": null
  },
  "0035": {
    "postcode": "7820035",
    "prefecture": "高知県",
    "prefecture_kana": "コウチケン",
    "prefecture_code": 39,
    "city": "香美市",
    "city_kana": "カミシ",
    "town": "土佐山田町百石町",
    "town_kana": "トサヤマダチョウヒャッコクチョウ",
    "street": null,
    "office_name": null,
    "office_name_kana": null
  },
  "0036": [
    {
      "postcode": "7820036",
      "prefecture": "高知県",
      "prefecture_kana": "コウチケン",
      "prefecture_code": 39,
      "city": "香美市",
      "city_kana": "カミシ",
      "town": "土佐山田町",
      "town_kana": "トサヤマダチョウ",
      "street": null,
      "office_name": null,
      "office_name_kana": null
    },
    {
      "postcode": "7820036",
      "prefecture": "高知県",
      "prefecture_kana": "コウチケン",
      "prefecture_code": 39,
      "city": "香美市",
      "city_kana": "カミシ",
      "town": "土佐山田町古町",
      "town_kana": "トサヤマダチョウフルマチ",
      "street": null,
      "office_name": null,
      "office_name_kana": null
    }
  ],
  "0037": {
    "postcode": "7820037",
    "prefecture": "高知県",
    "prefecture_kana": "コウチケン",
    "prefecture_code": 39,
    "city": "香美市",
    "city_kana": "カミシ",
    "town": "土佐山田町宮前町",
    "town_kana": "トサヤマダチョウミヤマエチョウ",
    "street": null,
    "office_name": null,
    "office_name_kana": null
  },
  "0038": {
    "postcode": "7820038",
    "prefecture": "高知県",
    "prefecture_kana": "コウチケン",
    "prefecture_code": 39,
    "city": "香美市",
    "city_kana": "カミシ",
    "town": "土佐山田町秦山町",
    "town_kana": "トサヤマダチョウジンザンチョウ",
    "street": null,
    "office_name": null,
    "office_name_kana": null
  },
  "0039": {
    "postcode": "7820039",
    "prefecture": "高知県",
    "prefecture_kana": "コウチケン",
    "prefecture_code": 39,
    "city": "香美市",
    "city_kana": "カミシ",
    "town": "土佐山田町栄町",
    "town_kana": "トサヤマダチョウサカエマチ",
    "street": null,
    "office_name": null,
    "office_name_kana": null
  },
  "0041": [
    {
      "postcode": "7820041",
      "prefecture": "高知県",
      "prefecture_kana": "コウチケン",
      "prefecture_code": 39,
      "city": "香美市",
      "city_kana": "カミシ",
      "town": "土佐山田町",
      "town_kana": "トサヤマダチョウ",
      "street": null,
      "office_name": null,
      "office_name_kana": null
    },
    {
      "postcode": "7820041",
      "prefecture": "高知県",
      "prefecture_kana": "コウチケン",
      "prefecture_code": 39,
      "city": "香美市",
      "city_kana": "カミシ",
      "town": "土佐山田町北本町",
      "town_kana": "トサヤマダチョウキタホンマチ",
      "street": null,
      "office_name": null,
      "office_name_kana": null
    }
  ],
  "0042": [
    {
      "postcode": "7820042",
      "prefecture": "高知県",
      "prefecture_kana": "コウチケン",
      "prefecture_code": 39,
      "city": "香美市",
      "city_kana": "カミシ",
      "town": "土佐山田町",
      "town_kana": "トサヤマダチョウ",
      "street": null,
      "office_name": null,
      "office_name_kana": null
    },
    {
      "postcode": "7820042",
      "prefecture": "高知県",
      "prefecture_kana": "コウチケン",
      "prefecture_code": 39,
      "city": "香美市",
      "city_kana": "カミシ",
      "town": "土佐山田町前山",
      "town_kana": "トサヤマダチョウマエヤマ",
      "street": null,
      "office_name": null,
      "office_name_kana": null
    }
  ],
  "0043": [
    {
      "postcode": "7820043",
      "prefecture": "高知県",
      "prefecture_kana": "コウチケン",
      "prefecture_code": 39,
      "city": "香美市",
      "city_kana": "カミシ",
      "town": "土佐山田町",
      "town_kana": "トサヤマダチョウ",
      "street": null,
      "office_name": null,
      "office_name_kana": null
    },
    {
      "postcode": "7820043",
      "prefecture": "高知県",
      "prefecture_kana": "コウチケン",
      "prefecture_code": 39,
      "city": "香美市",
      "city_kana": "カミシ",
      "town": "土佐山田町北組西",
      "town_kana": "トサヤマダチョウキタグミニシ",
      "street": null,
      "office_name": null,
      "office_name_kana": null
    }
  ],
  "0044": [
    {
      "postcode": "7820044",
      "prefecture": "高知県",
      "prefecture_kana": "コウチケン",
      "prefecture_code": 39,
      "city": "香美市",
      "city_kana": "カミシ",
      "town": "土佐山田町",
      "town_kana": "トサヤマダチョウ",
      "street": null,
      "office_name": null,
      "office_name_kana": null
    },
    {
      "postcode": "7820044",
      "prefecture": "高知県",
      "prefecture_kana": "コウチケン",
      "prefecture_code": 39,
      "city": "香美市",
      "city_kana": "カミシ",
      "town": "土佐山田町中組",
      "town_kana": "トサヤマダチョウナカグミ",
      "street": null,
      "office_name": null,
      "office_name_kana": null
    }
  ],
  "0045": [
    {
      "postcode": "7820045",
      "prefecture": "高知県",
      "prefecture_kana": "コウチケン",
      "prefecture_code": 39,
      "city": "香美市",
      "city_kana": "カミシ",
      "town": "土佐山田町",
      "town_kana": "トサヤマダチョウ",
      "street": null,
      "office_name": null,
      "office_name_kana": null
    },
    {
      "postcode": "7820045",
      "prefecture": "高知県",
      "prefecture_kana": "コウチケン",
      "prefecture_code": 39,
      "city": "香美市",
      "city_kana": "カミシ",
      "town": "土佐山田町黒土",
      "town_kana": "トサヤマダチョウクロツチ",
      "street": null,
      "office_name": null,
      "office_name_kana": null
    }
  ],
  "0046": [
    {
      "postcode": "7820046",
      "prefecture": "高知県",
      "prefecture_kana": "コウチケン",
      "prefecture_code": 39,
      "city": "香美市",
      "city_kana": "カミシ",
      "town": "土佐山田町",
      "town_kana": "トサヤマダチョウ",
      "street": null,
      "office_name": null,
      "office_name_kana": null
    },
    {
      "postcode": "7820046",
      "prefecture": "高知県",
      "prefecture_kana": "コウチケン",
      "prefecture_code": 39,
      "city": "香美市",
      "city_kana": "カミシ",
      "town": "土佐山田町南組",
      "town_kana": "トサヤマダチョウミナミグミ",
      "street": null,
      "office_name": null,
      "office_name_kana": null
    }
  ],
  "0047": {
    "postcode": "7820047",
    "prefecture": "高知県",
    "prefecture_kana": "コウチケン",
    "prefecture_code": 39,
    "city": "香美市",
    "city_kana": "カミシ",
    "town": "土佐山田町",
    "town_kana": "トサヤマダチョウ",
    "street": null,
    "office_name": null,
    "office_name_kana": null
  },
  "0051": [
    {
      "postcode": "7820051",
      "prefecture": "高知県",
      "prefecture_kana": "コウチケン",
      "prefecture_code": 39,
      "city": "香美市",
      "city_kana": "カミシ",
      "town": "土佐山田町楠目",
      "town_kana": "トサヤマダチョウクズメ",
      "street": null,
      "office_name": null,
      "office_name_kana": null
    },
    {
      "postcode": "7820051",
      "prefecture": "高知県",
      "prefecture_kana": "コウチケン",
      "prefecture_code": 39,
      "city": "香美市",
      "city_kana": "カミシ",
      "town": "土佐山田町楠目油石",
      "town_kana": "トサヤマダチョウクズメアブライシ",
      "street": null,
      "office_name": null,
      "office_name_kana": null
    },
    {
      "postcode": "7820051",
      "prefecture": "高知県",
      "prefecture_kana": "コウチケン",
      "prefecture_code": 39,
      "city": "香美市",
      "city_kana": "カミシ",
      "town": "土佐山田町楠目前行",
      "town_kana": "トサヤマダチョウクズメゼンギョウ",
      "street": null,
      "office_name": null,
      "office_name_kana": null
    },
    {
      "postcode": "7820051",
      "prefecture": "高知県",
      "prefecture_kana": "コウチケン",
      "prefecture_code": 39,
      "city": "香美市",
      "city_kana": "カミシ",
      "town": "土佐山田町楠目談議所",
      "town_kana": "トサヤマダチョウクズメダンギショ",
      "street": null,
      "office_name": null,
      "office_name_kana": null
    },
    {
      "postcode": "7820051",
      "prefecture": "高知県",
      "prefecture_kana": "コウチケン",
      "prefecture_code": 39,
      "city": "香美市",
      "city_kana": "カミシ",
      "town": "土佐山田町楠目中村",
      "town_kana": "トサヤマダチョウクズメナカムラ",
      "street": null,
      "office_name": null,
      "office_name_kana": null
    },
    {
      "postcode": "7820051",
      "prefecture": "高知県",
      "prefecture_kana": "コウチケン",
      "prefecture_code": 39,
      "city": "香美市",
      "city_kana": "カミシ",
      "town": "土佐山田町楠目平田",
      "town_kana": "トサヤマダチョウクズメヒラタ",
      "street": null,
      "office_name": null,
      "office_name_kana": null
    },
    {
      "postcode": "7820051",
      "prefecture": "高知県",
      "prefecture_kana": "コウチケン",
      "prefecture_code": 39,
      "city": "香美市",
      "city_kana": "カミシ",
      "town": "土佐山田町楠目伏原",
      "town_kana": "トサヤマダチョウクズメフシハラ",
      "street": null,
      "office_name": null,
      "office_name_kana": null
    },
    {
      "postcode": "7820051",
      "prefecture": "高知県",
      "prefecture_kana": "コウチケン",
      "prefecture_code": 39,
      "city": "香美市",
      "city_kana": "カミシ",
      "town": "土佐山田町楠目予岳",
      "town_kana": "トサヤマダチョウクズメヨガク",
      "street": null,
      "office_name": null,
      "office_name_kana": null
    }
  ],
  "0054": {
    "postcode": "7820054",
    "prefecture": "高知県",
    "prefecture_kana": "コウチケン",
    "prefecture_code": 39,
    "city": "香美市",
    "city_kana": "カミシ",
    "town": "土佐山田町植",
    "town_kana": "トサヤマダチョウウエ",
    "street": null,
    "office_name": null,
    "office_name_kana": null
  },
  "0055": {
    "postcode": "7820055",
    "prefecture": "高知県",
    "prefecture_kana": "コウチケン",
    "prefecture_code": 39,
    "city": "香美市",
    "city_kana": "カミシ",
    "town": "土佐山田町須江",
    "town_kana": "トサヤマダチョウスエ",
    "street": null,
    "office_name": null,
    "office_name_kana": null
  },
  "0056": {
    "postcode": "7820056",
    "prefecture": "高知県",
    "prefecture_kana": "コウチケン",
    "prefecture_code": 39,
    "city": "香美市",
    "city_kana": "カミシ",
    "town": "土佐山田町上改田",
    "town_kana": "トサヤマダチョウカミカイダ",
    "street": null,
    "office_name": null,
    "office_name_kana": null
  },
  "0057": {
    "postcode": "7820057",
    "prefecture": "高知県",
    "prefecture_kana": "コウチケン",
    "prefecture_code": 39,
    "city": "香美市",
    "city_kana": "カミシ",
    "town": "土佐山田町久次",
    "town_kana": "トサヤマダチョウヒサツギ",
    "street": null,
    "office_name": null,
    "office_name_kana": null
  },
  "0058": {
    "postcode": "7820058",
    "prefecture": "高知県",
    "prefecture_kana": "コウチケン",
    "prefecture_code": 39,
    "city": "香美市",
    "city_kana": "カミシ",
    "town": "土佐山田町新改",
    "town_kana": "トサヤマダチョウシンガイ",
    "street": null,
    "office_name": null,
    "office_name_kana": null
  },
  "0059": {
    "postcode": "7820059",
    "prefecture": "高知県",
    "prefecture_kana": "コウチケン",
    "prefecture_code": 39,
    "city": "香美市",
    "city_kana": "カミシ",
    "town": "土佐山田町入野",
    "town_kana": "トサヤマダチョウイリノ",
    "street": null,
    "office_name": null,
    "office_name_kana": null
  },
  "0061": {
    "postcode": "7820061",
    "prefecture": "高知県",
    "prefecture_kana": "コウチケン",
    "prefecture_code": 39,
    "city": "香美市",
    "city_kana": "カミシ",
    "town": "土佐山田町曽我部川",
    "town_kana": "トサヤマダチョウソガベガワ",
    "street": null,
    "office_name": null,
    "office_name_kana": null
  },
  "0062": {
    "postcode": "7820062",
    "prefecture": "高知県",
    "prefecture_kana": "コウチケン",
    "prefecture_code": 39,
    "city": "香美市",
    "city_kana": "カミシ",
    "town": "土佐山田町平山",
    "town_kana": "トサヤマダチョウヒラヤマ",
    "street": null,
    "office_name": null,
    "office_name_kana": null
  },
  "0063": {
    "postcode": "7820063",
    "prefecture": "高知県",
    "prefecture_kana": "コウチケン",
    "prefecture_code": 39,
    "city": "香美市",
    "city_kana": "カミシ",
    "town": "土佐山田町東川",
    "town_kana": "トサヤマダチョウヒガシガワ",
    "street": null,
    "office_name": null,
    "office_name_kana": null
  },
  "0064": {
    "postcode": "7820064",
    "prefecture": "高知県",
    "prefecture_kana": "コウチケン",
    "prefecture_code": 39,
    "city": "香美市",
    "city_kana": "カミシ",
    "town": "土佐山田町大法寺",
    "town_kana": "トサヤマダチョウダイホウジ",
    "street": null,
    "office_name": null,
    "office_name_kana": null
  },
  "0071": {
    "postcode": "7820071",
    "prefecture": "高知県",
    "prefecture_kana": "コウチケン",
    "prefecture_code": 39,
    "city": "香美市",
    "city_kana": "カミシ",
    "town": "土佐山田町佐竹",
    "town_kana": "トサヤマダチョウサタケ",
    "street": null,
    "office_name": null,
    "office_name_kana": null
  },
  "0072": {
    "postcode": "7820072",
    "prefecture": "高知県",
    "prefecture_kana": "コウチケン",
    "prefecture_code": 39,
    "city": "香美市",
    "city_kana": "カミシ",
    "town": "土佐山田町有谷",
    "town_kana": "トサヤマダチョウアラタニ",
    "street": null,
    "office_name": null,
    "office_name_kana": null
  },
  "0073": {
    "postcode": "7820073",
    "prefecture": "高知県",
    "prefecture_kana": "コウチケン",
    "prefecture_code": 39,
    "city": "香美市",
    "city_kana": "カミシ",
    "town": "土佐山田町中後入",
    "town_kana": "トサヤマダチョウナカゴウニュウ",
    "street": null,
    "office_name": null,
    "office_name_kana": null
  },
  "0074": {
    "postcode": "7820074",
    "prefecture": "高知県",
    "prefecture_kana": "コウチケン",
    "prefecture_code": 39,
    "city": "香美市",
    "city_kana": "カミシ",
    "town": "土佐山田町大後入",
    "town_kana": "トサヤマダチョウオオゴウニュウ",
    "street": null,
    "office_name": null,
    "office_name_kana": null
  },
  "0075": {
    "postcode": "7820075",
    "prefecture": "高知県",
    "prefecture_kana": "コウチケン",
    "prefecture_code": 39,
    "city": "香美市",
    "city_kana": "カミシ",
    "town": "土佐山田町西後入",
    "town_kana": "トサヤマダチョウニシゴニュウ",
    "street": null,
    "office_name": null,
    "office_name_kana": null
  },
  "0076": {
    "postcode": "7820076",
    "prefecture": "高知県",
    "prefecture_kana": "コウチケン",
    "prefecture_code": 39,
    "city": "香美市",
    "city_kana": "カミシ",
    "town": "土佐山田町本村",
    "town_kana": "トサヤマダチョウホンムラ",
    "street": null,
    "office_name": null,
    "office_name_kana": null
  },
  "0077": [
    {
      "postcode": "7820077",
      "prefecture": "高知県",
      "prefecture_kana": "コウチケン",
      "prefecture_code": 39,
      "city": "香美市",
      "city_kana": "カミシ",
      "town": "土佐山田町佐野",
      "town_kana": "トサヤマダチョウサノ",
      "street": null,
      "office_name": null,
      "office_name_kana": null
    },
    {
      "postcode": "7820077",
      "prefecture": "高知県",
      "prefecture_kana": "コウチケン",
      "prefecture_code": 39,
      "city": "香美市",
      "city_kana": "カミシ",
      "town": "土佐山田町佐野仁井田",
      "town_kana": "トサヤマダチョウサノニイダ",
      "street": null,
      "office_name": null,
      "office_name_kana": null
    }
  ],
  "0078": {
    "postcode": "7820078",
    "prefecture": "高知県",
    "prefecture_kana": "コウチケン",
    "prefecture_code": 39,
    "city": "香美市",
    "city_kana": "カミシ",
    "town": "土佐山田町大平",
    "town_kana": "トサヤマダチョウオオヒラ",
    "street": null,
    "office_name": null,
    "office_name_kana": null
  },
  "0079": {
    "postcode": "7820079",
    "prefecture": "高知県",
    "prefecture_kana": "コウチケン",
    "prefecture_code": 39,
    "city": "香美市",
    "city_kana": "カミシ",
    "town": "土佐山田町佐野",
    "town_kana": "トサヤマダチョウサノ",
    "street": null,
    "office_name": null,
    "office_name_kana": null
  },
  "8502": {
    "postcode": "7828502",
    "prefecture": "高知県",
    "prefecture_kana": "コウチケン",
    "prefecture_code": 39,
    "city": "香美市",
    "city_kana": "カミシ",
    "town": "土佐山田町宮ノ口",
    "town_kana": "トサヤマダチョウミヤノクチ",
    "street": "１８５",
    "office_name": "高知工科大学",
    "office_name_kana": "コウチコウカダイガク"
  }
}