{
  "0000": {
    "postcode": "7840000",
    "prefecture": "高知県",
    "prefecture_kana": "コウチケン",
    "prefecture_code": 39,
    "city": "安芸市",
    "city_kana": "アキシ",
    "town": "",
    "town_kana": "",
    "street": null,
    "office_name": null,
    "office_name_kana": null
  },
  "0001": {
    "postcode": "7840001",
    "prefecture": "高知県",
    "prefecture_kana": "コウチケン",
    "prefecture_code": 39,
    "city": "安芸市",
    "city_kana": "アキシ",
    "town": "矢ノ丸",
    "town_kana": "ヤノマル",
    "street": null,
    "office_name": null,
    "office_name_kana": null
  },
  "0002": {
    "postcode": "7840002",
    "prefecture": "高知県",
    "prefecture_kana": "コウチケン",
    "prefecture_code": 39,
    "city": "安芸市",
    "city_kana": "アキシ",
    "town": "花園町",
    "town_kana": "ハナゾノチョウ",
    "street": null,
    "office_name": null,
    "office_name_kana": null
  },
  "0003": {
    "postcode": "7840003",
    "prefecture": "高知県",
    "prefecture_kana": "コウチケン",
    "prefecture_code": 39,
    "city": "安芸市",
    "city_kana": "アキシ",
    "town": "久世町",
    "town_kana": "クセチョウ",
    "street": null,
    "office_name": null,
    "office_name_kana": null
  },
  "0004": {
    "postcode": "7840004",
    "prefecture": "高知県",
    "prefecture_kana": "コウチケン",
    "prefecture_code": 39,
    "city": "安芸市",
    "city_kana": "アキシ",
    "town": "本町",
    "town_kana": "ホンマチ",
    "street": null,
    "office_name": null,
    "office_name_kana": null
  },
  "0005": {
    "postcode": "7840005",
    "prefecture": "高知県",
    "prefecture_kana": "コウチケン",
    "prefecture_code": 39,
    "city": "安芸市",
    "city_kana": "アキシ",
    "town": "港町",
    "town_kana": "ミナトマチ",
    "street": null,
    "office_name": null,
    "office_name_kana": null
  },
  "0006": {
    "postcode": "7840006",
    "prefecture": "高知県",
    "prefecture_kana": "コウチケン",
    "prefecture_code": 39,
    "city": "安芸市",
    "city_kana": "アキシ",
    "town": "日ノ出町",
    "town_kana": "ヒノデチョウ",
    "street": null,
    "office_name": null,
    "office_name_kana": null
  },
  "0007": {
    "postcode": "7840007",
    "prefecture": "高知県",
    "prefecture_kana": "コウチケン",
    "prefecture_code": 39,
    "city": "安芸市",
    "city_kana": "アキシ",
    "town": "寿町",
    "town_kana": "コトブキチョウ",
    "street": null,
    "office_name": null,
    "office_name_kana": null
  },
  "0008": {
    "postcode": "7840008",
    "prefecture": "高知県",
    "prefecture_kana": "コウチケン",
    "prefecture_code": 39,
    "city": "安芸市",
    "city_kana": "アキシ",
    "town": "清和町",
    "town_kana": "セイワチョウ",
    "street": null,
    "office_name": null,
    "office_name_kana": null
  },
  "0010": {
    "postcode": "7840010",
    "prefecture": "高知県",
    "prefecture_kana": "コウチケン",
    "prefecture_code": 39,
    "city": "安芸市",
    "city_kana": "アキシ",
    "town": "東浜",
    "town_kana": "ヒガシハマ",
    "street": null,
    "office_name": null,
    "office_name_kana": null
  },
  "0020": {
    "postcode": "7840020",
    "prefecture": "高知県",
    "prefecture_kana": "コウチケン",
    "prefecture_code": 39,
    "city": "安芸市",
    "city_kana": "アキシ",
    "town": "西浜",
    "town_kana": "ニシハマ",
    "street": null,
    "office_name": null,
    "office_name_kana": null
  },
  "0021": {
    "postcode": "7840021",
    "prefecture": "高知県",
    "prefecture_kana": "コウチケン",
    "prefecture_code": 39,
    "city": "安芸市",
    "city_kana": "アキシ",
    "town": "幸町",
    "town_kana": "サイワイチョウ",
    "street": null,
    "office_name": null,
    "office_name_kana": null
  },
  "0022": {
    "postcode": "7840022",
    "prefecture": "高知県",
    "prefecture_kana": "コウチケン",
    "prefecture_code": 39,
    "city": "安芸市",
    "city_kana": "アキシ",
    "town": "庄之芝町",
    "town_kana": "ショウノシバチョウ",
    "street": null,
    "office_name": null,
    "office_name_kana": null
  },
  "0023": {
    "postcode": "7840023",
    "prefecture": "高知県",
    "prefecture_kana": "コウチケン",
    "prefecture_code": 39,
    "city": "安芸市",
    "city_kana": "アキシ",
    "town": "染井町",
    "town_kana": "ソメイチョウ",
    "street": null,
    "office_name": null,
    "office_name_kana": null
  },
  "0024": {
    "postcode": "7840024",
    "prefecture": "高知県",
    "prefecture_kana": "コウチケン",
    "prefecture_code": 39,
    "city": "安芸市",
    "city_kana": "アキシ",
    "town": "千歳町",
    "town_kana": "チトセチョウ",
    "street": null,
    "office_name": null,
    "office_name_kana": null
  },
  "0025": {
    "postcode": "7840025",
    "prefecture": "高知県",
    "prefecture_kana": "コウチケン",
    "prefecture_code": 39,
    "city": "安芸市",
    "city_kana": "アキシ",
    "town": "津久茂町",
    "town_kana": "ツクモチョウ",
    "street": null,
    "office_name": null,
    "office_name_kana": null
  },
  "0026": {
    "postcode": "7840026",
    "prefecture": "高知県",
    "prefecture_kana": "コウチケン",
    "prefecture_code": 39,
    "city": "安芸市",
    "city_kana": "アキシ",
    "town": "桜ケ丘町",
    "town_kana": "サクラガオカチョウ",
    "street": null,
    "office_name": null,
    "office_name_kana": null
  },
  "0027": {
    "postcode": "7840027",
    "prefecture": "高知県",
    "prefecture_kana": "コウチケン",
    "prefecture_code": 39,
    "city": "安芸市",
    "city_kana": "アキシ",
    "town": "宝永町",
    "town_kana": "ホウエイチョウ",
    "street": null,
    "office_name": null,
    "office_name_kana": null
  },
  "0028": {
    "postcode": "7840028",
    "prefecture": "高知県",
    "prefecture_kana": "コウチケン",
    "prefecture_code": 39,
    "city": "安芸市",
    "city_kana": "アキシ",
    "town": "黒鳥",
    "town_kana": "クロドリ",
    "street": null,
    "office_name": null,
    "office_name_kana": null
  },
  "0029": {
    "postcode": "7840029",
    "prefecture": "高知県",
    "prefecture_kana": "コウチケン",
    "prefecture_code": 39,
    "city": "安芸市",
    "city_kana": "アキシ",
    "town": "植野",
    "town_kana": "ウエノ",
    "street": null,
    "office_name": null,
    "office_name_kana": null
  },
  "0031": {
    "postcode": "7840031",
    "prefecture": "高知県",
    "prefecture_kana": "コウチケン",
    "prefecture_code": 39,
    "city": "安芸市",
    "city_kana": "アキシ",
    "town": "穴内甲",
    "town_kana": "アナナイコウ",
    "street": null,
    "office_name": null,
    "office_name_kana": null
  },
  "0032": {
    "postcode": "7840032",
    "prefecture": "高知県",
    "prefecture_kana": "コウチケン",
    "prefecture_code": 39,
    "city": "安芸市",
    "city_kana": "アキシ",
    "town": "穴内乙",
    "town_kana": "アナナイオツ",
    "street": null,
    "office_name": null,
    "office_name_kana": null
  },
  "0033": {
    "postcode": "7840033",
    "prefecture": "高知県",
    "prefecture_kana": "コウチケン",
    "prefecture_code": 39,
    "city": "安芸市",
    "city_kana": "アキシ",
    "town": "赤野甲",
    "town_kana": "アカノコウ",
    "street": null,
    "office_name": null,
    "office_name_kana": null
  },
  "0034": {
    "postcode": "7840034",
    "prefecture": "高知県",
    "prefecture_kana": "コウチケン",
    "prefecture_code": 39,
    "city": "安芸市",
    "city_kana": "アキシ",
    "town": "赤野乙",
    "town_kana": "アカノオツ",
    "street": null,
    "office_name": null,
    "office_name_kana": null
  },
  "0041": {
    "postcode": "7840041",
    "prefecture": "高知県",
    "prefecture_kana": "コウチケン",
    "prefecture_code": 39,
    "city": "安芸市",
    "city_kana": "アキシ",
    "town": "僧津",
    "town_kana": "ソウヅ",
    "street": null,
    "office_name": null,
    "office_name_kana": null
  },
  "0042": {
    "postcode": "7840042",
    "prefecture": "高知県",
    "prefecture_kana": "コウチケン",
    "prefecture_code": 39,
    "city": "安芸市",
    "city_kana": "アキシ",
    "town": "土居",
    "town_kana": "ドイ",
    "street": null,
    "office_name": null,
    "office_name_kana": null
  },
  "0043": {
    "postcode": "7840043",
    "prefecture": "高知県",
    "prefecture_kana": "コウチケン",
    "prefecture_code": 39,
    "city": "安芸市",
    "city_kana": "アキシ",
    "town": "川北甲",
    "town_kana": "カワキタコウ",
    "street": null,
    "office_name": null,
    "office_name_kana": null
  },
  "0044": {
    "postcode": "7840044",
    "prefecture": "高知県",
    "prefecture_kana": "コウチケン",
    "prefecture_code": 39,
    "city": "安芸市",
    "city_kana": "アキシ",
    "town": "川北乙",
    "town_kana": "カワキタオツ",
    "street": null,
    "office_name": null,
    "office_name_kana": null
  },
  "0045": {
    "postcode": "7840045",
    "prefecture": "高知県",
    "prefecture_kana": "コウチケン",
    "prefecture_code": 39,
    "city": "安芸市",
    "city_kana": "アキシ",
    "town": "伊尾木",
    "town_kana": "イオキ",
    "street": null,
    "office_name": null,
    "office_name_kana": null
  },
  "0046": {
    "postcode": "7840046",
    "prefecture": "高知県",
    "prefecture_kana": "コウチケン",
    "prefecture_code": 39,
    "city": "安芸市",
    "city_kana": "アキシ",
    "town": "下山",
    "town_kana": "シモヤマ",
    "street": null,
    "office_name": null,
    "office_name_kana": null
  },
  "0051": {
    "postcode": "7840051",
    "prefecture": "高知県",
    "prefecture_kana": "コウチケン",
    "prefecture_code": 39,
    "city": "安芸市",
    "city_kana": "アキシ",
    "town": "井ノ口甲",
    "town_kana": "イノクチコウ",
    "street": null,
    "office_name": null,
    "office_name_kana": null
  },
  "0052": {
    "postcode": "7840052",
    "prefecture": "高知県",
    "prefecture_kana": "コウチケン",
    "prefecture_code": 39,
    "city": "安芸市",
    "city_kana": "アキシ",
    "town": "井ノ口乙",
    "town_kana": "イノクチオツ",
    "street": null,
    "office_name": null,
    "office_name_kana": null
  },
  "0053": {
    "postcode": "7840053",
    "prefecture": "高知県",
    "prefecture_kana": "コウチケン",
    "prefecture_code": 39,
    "city": "安芸市",
    "city_kana": "アキシ",
    "town": "小谷",
    "town_kana": "オダニ",
    "street": null,
    "office_name": null,
    "office_name_kana": null
  },
  "0054": {
    "postcode": "7840054",
    "prefecture": "高知県",
    "prefecture_kana": "コウチケン",
    "prefecture_code": 39,
    "city": "安芸市",
    "city_kana": "アキシ",
    "town": "栃ノ木",
    "town_kana": "トチノキ",
    "street": null,
    "office_name": null,
    "office_name_kana": null
  },
  "0055": {
    "postcode": "7840055",
    "prefecture": "高知県",
    "prefecture_kana": "コウチケン",
    "prefecture_code": 39,
    "city": "安芸市",
    "city_kana": "アキシ",
    "town": "尾川甲",
    "town_kana": "オガワコウ",
    "street": null,
    "office_name": null,
    "office_name_kana": null
  },
  "0056": {
    "postcode": "7840056",
    "prefecture": "高知県",
    "prefecture_kana": "コウチケン",
    "prefecture_code": 39,
    "city": "安芸市",
    "city_kana": "アキシ",
    "town": "尾川乙",
    "town_kana": "オガワオツ",
    "street": null,
    "office_name": null,
    "office_name_kana": null
  },
  "0057": {
    "postcode": "7840057",
    "prefecture": "高知県",
    "prefecture_kana": "コウチケン",
    "prefecture_code": 39,
    "city": "安芸市",
    "city_kana": "アキシ",
    "town": "安芸ノ川甲",
    "town_kana": "アキノカワコウ",
    "street": null,
    "office_name": null,
    "office_name_kana": null
  },
  "0058": {
    "postcode": "7840058",
    "prefecture": "高知県",
    "prefecture_kana": "コウチケン",
    "prefecture_code": 39,
    "city": "安芸市",
    "city_kana": "アキシ",
    "town": "安芸ノ川乙",
    "town_kana": "アキノカワオツ",
    "street": null,
    "office_name": null,
    "office_name_kana": null
  },
  "0061": {
    "postcode": "7840061",
    "prefecture": "高知県",
    "prefecture_kana": "コウチケン",
    "prefecture_code": 39,
    "city": "安芸市",
    "city_kana": "アキシ",
    "town": "畑山甲",
    "town_kana": "ハタヤマコウ",
    "street": null,
    "office_name": null,
    "office_name_kana": null
  },
  "0062": {
    "postcode": "7840062",
    "prefecture": "高知県",
    "prefecture_kana": "コウチケン",
    "prefecture_code": 39,
    "city": "安芸市",
    "city_kana": "アキシ",
    "town": "畑山乙",
    "town_kana": "ハタヤマオツ",
    "street": null,
    "office_name": null,
    "office_name_kana": null
  },
  "0063": {
    "postcode": "7840063",
    "prefecture": "高知県",
    "prefecture_kana": "コウチケン",
    "prefecture_code": 39,
    "city": "安芸市",
    "city_kana": "アキシ",
    "town": "畑山丙",
    "town_kana": "ハタヤマヘイ",
    "street": null,
    "office_name": null,
    "office_name_kana": null
  },
  "0064": {
    "postcode": "7840064",
    "prefecture": "高知県",
    "prefecture_kana": "コウチケン",
    "prefecture_code": 39,
    "city": "安芸市",
    "city_kana": "アキシ",
    "town": "舞川",
    "town_kana": "マイカワ",
    "street": null,
    "office_name": null,
    "office_name_kana": null
  },
  "0065": {
    "postcode": "7840065",
    "prefecture": "高知県",
    "prefecture_kana": "コウチケン",
    "prefecture_code": 39,
    "city": "香美市",
    "city_kana": "カミシ",
    "town": "物部町中津尾",
    "town_kana": "モノベチョウナカツオ",
    "street": null,
    "office_name": null,
    "office_name_kana": null
  },
  "0271": {
    "postcode": "7840271",
    "prefecture": "高知県",
    "prefecture_kana": "コウチケン",
    "prefecture_code": 39,
    "city": "安芸市",
    "city_kana": "アキシ",
    "town": "奈比賀",
    "town_kana": "ナビカ",
    "street": null,
    "office_name": null,
    "office_name_kana": null
  },
  "0272": {
    "postcode": "7840272",
    "prefecture": "高知県",
    "prefecture_kana": "コウチケン",
    "prefecture_code": 39,
    "city": "安芸市",
    "city_kana": "アキシ",
    "town": "入河内",
    "town_kana": "ニュウガウチ",
    "street": null,
    "office_name": null,
    "office_name_kana": null
  },
  "0273": {
    "postcode": "7840273",
    "prefecture": "高知県",
    "prefecture_kana": "コウチケン",
    "prefecture_code": 39,
    "city": "安芸市",
    "city_kana": "アキシ",
    "town": "黒瀬",
    "town_kana": "クロセ",
    "street": null,
    "office_name": null,
    "office_name_kana": null
  },
  "0274": {
    "postcode": "7840274",
    "prefecture": "高知県",
    "prefecture_kana": "コウチケン",
    "prefecture_code": 39,
    "city": "安芸市",
    "city_kana": "アキシ",
    "town": "大井甲",
    "town_kana": "オオイコウ",
    "street": null,
    "office_name": null,
    "office_name_kana": null
  },
  "0275": {
    "postcode": "7840275",
    "prefecture": "高知県",
    "prefecture_kana": "コウチケン",
    "prefecture_code": 39,
    "city": "安芸市",
    "city_kana": "アキシ",
    "town": "大井乙",
    "town_kana": "オオイオツ",
    "street": null,
    "office_name": null,
    "office_name_kana": null
  },
  "0276": {
    "postcode": "7840276",
    "prefecture": "高知県",
    "prefecture_kana": "コウチケン",
    "prefecture_code": 39,
    "city": "安芸市",
    "city_kana": "アキシ",
    "town": "古井",
    "town_kana": "コイ",
    "street": null,
    "office_name": null,
    "office_name_kana": null
  },
  "0277": {
    "postcode": "7840277",
    "prefecture": "高知県",
    "prefecture_kana": "コウチケン",
    "prefecture_code": 39,
    "city": "安芸市",
    "city_kana": "アキシ",
    "town": "島",
    "town_kana": "シマ",
    "street": null,
    "office_name": null,
    "office_name_kana": null
  },
  "0278": {
    "postcode": "7840278",
    "prefecture": "高知県",
    "prefecture_kana": "コウチケン",
    "prefecture_code": 39,
    "city": "安芸市",
    "city_kana": "アキシ",
    "town": "別役",
    "town_kana": "ベッチャク",
    "street": null,
    "office_name": null,
    "office_name_kana": null
  },
  "8501": {
    "postcode": "7848501",
    "prefecture": "高知県",
    "prefecture_kana": "コウチケン",
    "prefecture_code": 39,
    "city": "安芸市",
    "city_kana": "アキシ",
    "town": "矢ノ丸",
    "town_kana": "ヤノマル",
    "street": "１丁目４−４０",
    "office_name": "安芸市役所",
    "office_name_kana": "アキシヤクシヨ"
  },
  "8503": {
    "postcode": "7848503",
    "prefecture": "高知県",
    "prefecture_kana": "コウチケン",
    "prefecture_code": 39,
    "city": "安芸市",
    "city_kana": "アキシ",
    "town": "幸町",
    "town_kana": "サイワイチョウ",
    "street": "１−１６",
    "office_name": "高知県農業協同組合　安芸地区本部",
    "office_name_kana": "コウチケンノウギヨウキヨウドウクミアイ アキチクホンブ"
  },
  "8505": {
    "postcode": "7848505",
    "prefecture": "高知県",
    "prefecture_kana": "コウチケン",
    "prefecture_code": 39,
    "city": "安芸市",
    "city_kana": "アキシ",
    "town": "清和町",
    "town_kana": "セイワチョウ",
    "street": "１−５４",
    "office_name": "高知県立　安芸高等学校",
    "office_name_kana": "コウチケンリツ アキコウトウガツコウ"
  }
}