{
  "0000": {
    "postcode": "7850000",
    "prefecture": "高知県",
    "prefecture_kana": "コウチケン",
    "prefecture_code": 39,
    "city": "須崎市",
    "city_kana": "スサキシ",
    "town": "",
    "town_kana": "",
    "street": null,
    "office_name": null,
    "office_name_kana": null
  },
  "0001": {
    "postcode": "7850001",
    "prefecture": "高知県",
    "prefecture_kana": "コウチケン",
    "prefecture_code": 39,
    "city": "須崎市",
    "city_kana": "スサキシ",
    "town": "原町",
    "town_kana": "ハラマチ",
    "street": null,
    "office_name": null,
    "office_name_kana": null
  },
  "0002": {
    "postcode": "7850002",
    "prefecture": "高知県",
    "prefecture_kana": "コウチケン",
    "prefecture_code": 39,
    "city": "須崎市",
    "city_kana": "スサキシ",
    "town": "港町",
    "town_kana": "ミナトマチ",
    "street": null,
    "office_name": null,
    "office_name_kana": null
  },
  "0003": {
    "postcode": "7850003",
    "prefecture": "高知県",
    "prefecture_kana": "コウチケン",
    "prefecture_code": 39,
    "city": "須崎市",
    "city_kana": "スサキシ",
    "town": "新町",
    "town_kana": "シンマチ",
    "street": null,
    "office_name": null,
    "office_name_kana": null
  },
  "0004": {
    "postcode": "7850004",
    "prefecture": "高知県",
    "prefecture_kana": "コウチケン",
    "prefecture_code": 39,
    "city": "須崎市",
    "city_kana": "スサキシ",
    "town": "青木町",
    "town_kana": "アオキマチ",
    "street": null,
    "office_name": null,
    "office_name_kana": null
  },
  "0005": {
    "postcode": "7850005",
    "prefecture": "高知県",
    "prefecture_kana": "コウチケン",
    "prefecture_code": 39,
    "city": "須崎市",
    "city_kana": "スサキシ",
    "town": "東古市町",
    "town_kana": "ヒガシフルイチマチ",
    "street": null,
    "office_name": null,
    "office_name_kana": null
  },
  "0006": {
    "postcode": "7850006",
    "prefecture": "高知県",
    "prefecture_kana": "コウチケン",
    "prefecture_code": 39,
    "city": "須崎市",
    "city_kana": "スサキシ",
    "town": "浜町",
    "town_kana": "ハママチ",
    "street": null,
    "office_name": null,
    "office_name_kana": null
  },
  "0007": {
    "postcode": "7850007",
    "prefecture": "高知県",
    "prefecture_kana": "コウチケン",
    "prefecture_code": 39,
    "city": "須崎市",
    "city_kana": "スサキシ",
    "town": "南古市町",
    "town_kana": "ミナミフルイチマチ",
    "street": null,
    "office_name": null,
    "office_name_kana": null
  },
  "0008": {
    "postcode": "7850008",
    "prefecture": "高知県",
    "prefecture_kana": "コウチケン",
    "prefecture_code": 39,
    "city": "須崎市",
    "city_kana": "スサキシ",
    "town": "中町",
    "town_kana": "ナカマチ",
    "street": null,
    "office_name": null,
    "office_name_kana": null
  },
  "0009": {
    "postcode": "7850009",
    "prefecture": "高知県",
    "prefecture_kana": "コウチケン",
    "prefecture_code": 39,
    "city": "須崎市",
    "city_kana": "スサキシ",
    "town": "西町",
    "town_kana": "ニシマチ",
    "street": null,
    "office_name": null,
    "office_name_kana": null
  },
  "0010": {
    "postcode": "7850010",
    "prefecture": "高知県",
    "prefecture_kana": "コウチケン",
    "prefecture_code": 39,
    "city": "須崎市",
    "city_kana": "スサキシ",
    "town": "鍛冶町",
    "town_kana": "カジマチ",
    "street": null,
    "office_name": null,
    "office_name_kana": null
  },
  "0011": {
    "postcode": "7850011",
    "prefecture": "高知県",
    "prefecture_kana": "コウチケン",
    "prefecture_code": 39,
    "city": "須崎市",
    "city_kana": "スサキシ",
    "town": "東糺町",
    "town_kana": "ヒガシタダスマチ",
    "street": null,
    "office_name": null,
    "office_name_kana": null
  },
  "0012": {
    "postcode": "7850012",
    "prefecture": "高知県",
    "prefecture_kana": "コウチケン",
    "prefecture_code": 39,
    "city": "須崎市",
    "city_kana": "スサキシ",
    "town": "西糺町",
    "town_kana": "ニシタダスマチ",
    "street": null,
    "office_name": null,
    "office_name_kana": null
  },
  "0013": {
    "postcode": "7850013",
    "prefecture": "高知県",
    "prefecture_kana": "コウチケン",
    "prefecture_code": 39,
    "city": "須崎市",
    "city_kana": "スサキシ",
    "town": "西古市町",
    "town_kana": "ニシフルイチマチ",
    "street": null,
    "office_name": null,
    "office_name_kana": null
  },
  "0014": {
    "postcode": "7850014",
    "prefecture": "高知県",
    "prefecture_kana": "コウチケン",
    "prefecture_code": 39,
    "city": "須崎市",
    "city_kana": "スサキシ",
    "town": "横町",
    "town_kana": "ヨコマチ",
    "street": null,
    "office_name": null,
    "office_name_kana": null
  },
  "0015": {
    "postcode": "7850015",
    "prefecture": "高知県",
    "prefecture_kana": "コウチケン",
    "prefecture_code": 39,
    "city": "須崎市",
    "city_kana": "スサキシ",
    "town": "幸町",
    "town_kana": "サイワイマチ",
    "street": null,
    "office_name": null,
    "office_name_kana": null
  },
  "0016": {
    "postcode": "7850016",
    "prefecture": "高知県",
    "prefecture_kana": "コウチケン",
    "prefecture_code": 39,
    "city": "須崎市",
    "city_kana": "スサキシ",
    "town": "栄町",
    "town_kana": "サカエマチ",
    "street": null,
    "office_name": null,
    "office_name_kana": null
  },
  "0017": {
    "postcode": "7850017",
    "prefecture": "高知県",
    "prefecture_kana": "コウチケン",
    "prefecture_code": 39,
    "city": "須崎市",
    "city_kana": "スサキシ",
    "town": "泉町",
    "town_kana": "イズミマチ",
    "street": null,
    "office_name": null,
    "office_name_kana": null
  },
  "0018": {
    "postcode": "7850018",
    "prefecture": "高知県",
    "prefecture_kana": "コウチケン",
    "prefecture_code": 39,
    "city": "須崎市",
    "city_kana": "スサキシ",
    "town": "須崎",
    "town_kana": "スサキ",
    "street": null,
    "office_name": null,
    "office_name_kana": null
  },
  "0021": {
    "postcode": "7850021",
    "prefecture": "高知県",
    "prefecture_kana": "コウチケン",
    "prefecture_code": 39,
    "city": "須崎市",
    "city_kana": "スサキシ",
    "town": "池ノ内",
    "town_kana": "イケノウチ",
    "street": null,
    "office_name": null,
    "office_name_kana": null
  },
  "0022": {
    "postcode": "7850022",
    "prefecture": "高知県",
    "prefecture_kana": "コウチケン",
    "prefecture_code": 39,
    "city": "須崎市",
    "city_kana": "スサキシ",
    "town": "下分甲",
    "town_kana": "シモブンコウ",
    "street": null,
    "office_name": null,
    "office_name_kana": null
  },
  "0023": {
    "postcode": "7850023",
    "prefecture": "高知県",
    "prefecture_kana": "コウチケン",
    "prefecture_code": 39,
    "city": "須崎市",
    "city_kana": "スサキシ",
    "town": "下分乙",
    "town_kana": "シモブンオツ",
    "street": null,
    "office_name": null,
    "office_name_kana": null
  },
  "0024": {
    "postcode": "7850024",
    "prefecture": "高知県",
    "prefecture_kana": "コウチケン",
    "prefecture_code": 39,
    "city": "須崎市",
    "city_kana": "スサキシ",
    "town": "安和",
    "town_kana": "アワ",
    "street": null,
    "office_name": null,
    "office_name_kana": null
  },
  "0025": {
    "postcode": "7850025",
    "prefecture": "高知県",
    "prefecture_kana": "コウチケン",
    "prefecture_code": 39,
    "city": "須崎市",
    "city_kana": "スサキシ",
    "town": "下郷",
    "town_kana": "シモゴウ",
    "street": null,
    "office_name": null,
    "office_name_kana": null
  },
  "0026": {
    "postcode": "7850026",
    "prefecture": "高知県",
    "prefecture_kana": "コウチケン",
    "prefecture_code": 39,
    "city": "須崎市",
    "city_kana": "スサキシ",
    "town": "上分甲",
    "town_kana": "カミブンコウ",
    "street": null,
    "office_name": null,
    "office_name_kana": null
  },
  "0027": {
    "postcode": "7850027",
    "prefecture": "高知県",
    "prefecture_kana": "コウチケン",
    "prefecture_code": 39,
    "city": "須崎市",
    "city_kana": "スサキシ",
    "town": "上分乙",
    "town_kana": "カミブンオツ",
    "street": null,
    "office_name": null,
    "office_name_kana": null
  },
  "0028": {
    "postcode": "7850028",
    "prefecture": "高知県",
    "prefecture_kana": "コウチケン",
    "prefecture_code": 39,
    "city": "須崎市",
    "city_kana": "スサキシ",
    "town": "上分丙",
    "town_kana": "カミブンヘイ",
    "street": null,
    "office_name": null,
    "office_name_kana": null
  },
  "0030": {
    "postcode": "7850030",
    "prefecture": "高知県",
    "prefecture_kana": "コウチケン",
    "prefecture_code": 39,
    "city": "須崎市",
    "city_kana": "スサキシ",
    "town": "多ノ郷甲",
    "town_kana": "オオノゴウコウ",
    "street": null,
    "office_name": null,
    "office_name_kana": null
  },
  "0031": {
    "postcode": "7850031",
    "prefecture": "高知県",
    "prefecture_kana": "コウチケン",
    "prefecture_code": 39,
    "city": "須崎市",
    "city_kana": "スサキシ",
    "town": "山手町",
    "town_kana": "ヤマテマチ",
    "street": null,
    "office_name": null,
    "office_name_kana": null
  },
  "0032": {
    "postcode": "7850032",
    "prefecture": "高知県",
    "prefecture_kana": "コウチケン",
    "prefecture_code": 39,
    "city": "須崎市",
    "city_kana": "スサキシ",
    "town": "潮田町",
    "town_kana": "シオタマチ",
    "street": null,
    "office_name": null,
    "office_name_kana": null
  },
  "0033": {
    "postcode": "7850033",
    "prefecture": "高知県",
    "prefecture_kana": "コウチケン",
    "prefecture_code": 39,
    "city": "須崎市",
    "city_kana": "スサキシ",
    "town": "大間西町",
    "town_kana": "オオマニシマチ",
    "street": null,
    "office_name": null,
    "office_name_kana": null
  },
  "0034": {
    "postcode": "7850034",
    "prefecture": "高知県",
    "prefecture_kana": "コウチケン",
    "prefecture_code": 39,
    "city": "須崎市",
    "city_kana": "スサキシ",
    "town": "大間本町",
    "town_kana": "オオマホンマチ",
    "street": null,
    "office_name": null,
    "office_name_kana": null
  },
  "0035": {
    "postcode": "7850035",
    "prefecture": "高知県",
    "prefecture_kana": "コウチケン",
    "prefecture_code": 39,
    "city": "須崎市",
    "city_kana": "スサキシ",
    "town": "大間東町",
    "town_kana": "オオマヒガシマチ",
    "street": null,
    "office_name": null,
    "office_name_kana": null
  },
  "0036": {
    "postcode": "7850036",
    "prefecture": "高知県",
    "prefecture_kana": "コウチケン",
    "prefecture_code": 39,
    "city": "須崎市",
    "city_kana": "スサキシ",
    "town": "緑町",
    "town_kana": "ミドリマチ",
    "street": null,
    "office_name": null,
    "office_name_kana": null
  },
  "0037": {
    "postcode": "7850037",
    "prefecture": "高知県",
    "prefecture_kana": "コウチケン",
    "prefecture_code": 39,
    "city": "須崎市",
    "city_kana": "スサキシ",
    "town": "赤崎町",
    "town_kana": "アカザキマチ",
    "street": null,
    "office_name": null,
    "office_name_kana": null
  },
  "0041": {
    "postcode": "7850041",
    "prefecture": "高知県",
    "prefecture_kana": "コウチケン",
    "prefecture_code": 39,
    "city": "須崎市",
    "city_kana": "スサキシ",
    "town": "西崎町",
    "town_kana": "ニシザキマチ",
    "street": null,
    "office_name": null,
    "office_name_kana": null
  },
  "0042": {
    "postcode": "7850042",
    "prefecture": "高知県",
    "prefecture_kana": "コウチケン",
    "prefecture_code": 39,
    "city": "須崎市",
    "city_kana": "スサキシ",
    "town": "妙見町",
    "town_kana": "ミョウケンマチ",
    "street": null,
    "office_name": null,
    "office_name_kana": null
  },
  "0043": {
    "postcode": "7850043",
    "prefecture": "高知県",
    "prefecture_kana": "コウチケン",
    "prefecture_code": 39,
    "city": "須崎市",
    "city_kana": "スサキシ",
    "town": "土崎町",
    "town_kana": "ツチザキマチ",
    "street": null,
    "office_name": null,
    "office_name_kana": null
  },
  "0044": {
    "postcode": "7850044",
    "prefecture": "高知県",
    "prefecture_kana": "コウチケン",
    "prefecture_code": 39,
    "city": "須崎市",
    "city_kana": "スサキシ",
    "town": "吾井郷乙",
    "town_kana": "アイノゴウオツ",
    "street": null,
    "office_name": null,
    "office_name_kana": null
  },
  "0045": {
    "postcode": "7850045",
    "prefecture": "高知県",
    "prefecture_kana": "コウチケン",
    "prefecture_code": 39,
    "city": "須崎市",
    "city_kana": "スサキシ",
    "town": "桑田山乙",
    "town_kana": "ソウダヤマオツ",
    "street": null,
    "office_name": null,
    "office_name_kana": null
  },
  "0046": {
    "postcode": "7850046",
    "prefecture": "高知県",
    "prefecture_kana": "コウチケン",
    "prefecture_code": 39,
    "city": "須崎市",
    "city_kana": "スサキシ",
    "town": "桑田山甲",
    "town_kana": "ソウダヤマコウ",
    "street": null,
    "office_name": null,
    "office_name_kana": null
  },
  "0047": {
    "postcode": "7850047",
    "prefecture": "高知県",
    "prefecture_kana": "コウチケン",
    "prefecture_code": 39,
    "city": "須崎市",
    "city_kana": "スサキシ",
    "town": "吾井郷甲",
    "town_kana": "アイノゴウコウ",
    "street": null,
    "office_name": null,
    "office_name_kana": null
  },
  "0051": {
    "postcode": "7850051",
    "prefecture": "高知県",
    "prefecture_kana": "コウチケン",
    "prefecture_code": 39,
    "city": "須崎市",
    "city_kana": "スサキシ",
    "town": "神田",
    "town_kana": "コウダ",
    "street": null,
    "office_name": null,
    "office_name_kana": null
  },
  "0052": {
    "postcode": "7850052",
    "prefecture": "高知県",
    "prefecture_kana": "コウチケン",
    "prefecture_code": 39,
    "city": "須崎市",
    "city_kana": "スサキシ",
    "town": "押岡",
    "town_kana": "オシオカ",
    "street": null,
    "office_name": null,
    "office_name_kana": null
  },
  "0053": {
    "postcode": "7850053",
    "prefecture": "高知県",
    "prefecture_kana": "コウチケン",
    "prefecture_code": 39,
    "city": "須崎市",
    "city_kana": "スサキシ",
    "town": "久通",
    "town_kana": "クツウ",
    "street": null,
    "office_name": null,
    "office_name_kana": null
  },
  "0054": {
    "postcode": "7850054",
    "prefecture": "高知県",
    "prefecture_kana": "コウチケン",
    "prefecture_code": 39,
    "city": "須崎市",
    "city_kana": "スサキシ",
    "town": "多ノ郷乙",
    "town_kana": "オオノゴウオツ",
    "street": null,
    "office_name": null,
    "office_name_kana": null
  },
  "0055": {
    "postcode": "7850055",
    "prefecture": "高知県",
    "prefecture_kana": "コウチケン",
    "prefecture_code": 39,
    "city": "須崎市",
    "city_kana": "スサキシ",
    "town": "大谷",
    "town_kana": "オオタニ",
    "street": null,
    "office_name": null,
    "office_name_kana": null
  },
  "0056": {
    "postcode": "7850056",
    "prefecture": "高知県",
    "prefecture_kana": "コウチケン",
    "prefecture_code": 39,
    "city": "須崎市",
    "city_kana": "スサキシ",
    "town": "野見",
    "town_kana": "ノミ",
    "street": null,
    "office_name": null,
    "office_name_kana": null
  },
  "0057": {
    "postcode": "7850057",
    "prefecture": "高知県",
    "prefecture_kana": "コウチケン",
    "prefecture_code": 39,
    "city": "須崎市",
    "city_kana": "スサキシ",
    "town": "桐間東",
    "town_kana": "キリマヒガシ",
    "street": null,
    "office_name": null,
    "office_name_kana": null
  },
  "0058": {
    "postcode": "7850058",
    "prefecture": "高知県",
    "prefecture_kana": "コウチケン",
    "prefecture_code": 39,
    "city": "須崎市",
    "city_kana": "スサキシ",
    "town": "桐間南",
    "town_kana": "キリマミナミ",
    "street": null,
    "office_name": null,
    "office_name_kana": null
  },
  "0059": {
    "postcode": "7850059",
    "prefecture": "高知県",
    "prefecture_kana": "コウチケン",
    "prefecture_code": 39,
    "city": "須崎市",
    "city_kana": "スサキシ",
    "town": "桐間西",
    "town_kana": "キリマニシ",
    "street": null,
    "office_name": null,
    "office_name_kana": null
  },
  "0161": {
    "postcode": "7850161",
    "prefecture": "高知県",
    "prefecture_kana": "コウチケン",
    "prefecture_code": 39,
    "city": "須崎市",
    "city_kana": "スサキシ",
    "town": "浦ノ内西分",
    "town_kana": "ウラノウチニシブン",
    "street": null,
    "office_name": null,
    "office_name_kana": null
  },
  "0162": {
    "postcode": "7850162",
    "prefecture": "高知県",
    "prefecture_kana": "コウチケン",
    "prefecture_code": 39,
    "city": "須崎市",
    "city_kana": "スサキシ",
    "town": "浦ノ内東分",
    "town_kana": "ウラノウチヒガシブン",
    "street": null,
    "office_name": null,
    "office_name_kana": null
  },
  "0163": {
    "postcode": "7850163",
    "prefecture": "高知県",
    "prefecture_kana": "コウチケン",
    "prefecture_code": 39,
    "city": "須崎市",
    "city_kana": "スサキシ",
    "town": "浦ノ内東分",
    "town_kana": "ウラノウチヒガシブン",
    "street": null,
    "office_name": null,
    "office_name_kana": null
  },
  "0164": {
    "postcode": "7850164",
    "prefecture": "高知県",
    "prefecture_kana": "コウチケン",
    "prefecture_code": 39,
    "city": "須崎市",
    "city_kana": "スサキシ",
    "town": "浦ノ内立目摺木",
    "town_kana": "ウラノウチタチメスルギ",
    "street": null,
    "office_name": null,
    "office_name_kana": null
  },
  "0165": {
    "postcode": "7850165",
    "prefecture": "高知県",
    "prefecture_kana": "コウチケン",
    "prefecture_code": 39,
    "city": "須崎市",
    "city_kana": "スサキシ",
    "town": "浦ノ内出見",
    "town_kana": "ウラノウチイズミ",
    "street": null,
    "office_name": null,
    "office_name_kana": null
  },
  "0166": {
    "postcode": "7850166",
    "prefecture": "高知県",
    "prefecture_kana": "コウチケン",
    "prefecture_code": 39,
    "city": "須崎市",
    "city_kana": "スサキシ",
    "town": "浦ノ内塩間",
    "town_kana": "ウラノウチシワイ",
    "street": null,
    "office_name": null,
    "office_name_kana": null
  },
  "0167": {
    "postcode": "7850167",
    "prefecture": "高知県",
    "prefecture_kana": "コウチケン",
    "prefecture_code": 39,
    "city": "須崎市",
    "city_kana": "スサキシ",
    "town": "浦ノ内灰方",
    "town_kana": "ウラノウチハイガタ",
    "street": null,
    "office_name": null,
    "office_name_kana": null
  },
  "0171": {
    "postcode": "7850171",
    "prefecture": "高知県",
    "prefecture_kana": "コウチケン",
    "prefecture_code": 39,
    "city": "須崎市",
    "city_kana": "スサキシ",
    "town": "浦ノ内須ノ浦",
    "town_kana": "ウラノウチスノウラ",
    "street": null,
    "office_name": null,
    "office_name_kana": null
  },
  "0172": {
    "postcode": "7850172",
    "prefecture": "高知県",
    "prefecture_kana": "コウチケン",
    "prefecture_code": 39,
    "city": "須崎市",
    "city_kana": "スサキシ",
    "town": "浦ノ内福良",
    "town_kana": "ウラノウチフクラ",
    "street": null,
    "office_name": null,
    "office_name_kana": null
  },
  "0173": {
    "postcode": "7850173",
    "prefecture": "高知県",
    "prefecture_kana": "コウチケン",
    "prefecture_code": 39,
    "city": "須崎市",
    "city_kana": "スサキシ",
    "town": "浦ノ内今川内",
    "town_kana": "ウラノウチコンガワウチ",
    "street": null,
    "office_name": null,
    "office_name_kana": null
  },
  "0174": {
    "postcode": "7850174",
    "prefecture": "高知県",
    "prefecture_kana": "コウチケン",
    "prefecture_code": 39,
    "city": "須崎市",
    "city_kana": "スサキシ",
    "town": "浦ノ内下中山",
    "town_kana": "ウラノウチシモナカヤマ",
    "street": null,
    "office_name": null,
    "office_name_kana": null
  },
  "0195": {
    "postcode": "7850195",
    "prefecture": "高知県",
    "prefecture_kana": "コウチケン",
    "prefecture_code": 39,
    "city": "須崎市",
    "city_kana": "スサキシ",
    "town": "浦ノ内下中山",
    "town_kana": "ウラノウチシモナカヤマ",
    "street": "１６０",
    "office_name": "学校法人　明徳義塾",
    "office_name_kana": "ガツコウホウジン メイトクギジユク"
  },
  "0200": {
    "postcode": "7850200",
    "prefecture": "高知県",
    "prefecture_kana": "コウチケン",
    "prefecture_code": 39,
    "city": "高岡郡津野町",
    "city_kana": "タカオカグンツノチョウ",
    "town": "",
    "town_kana": "",
    "street": null,
    "office_name": null,
    "office_name_kana": null
  },
  "0201": {
    "postcode": "7850201",
    "prefecture": "高知県",
    "prefecture_kana": "コウチケン",
    "prefecture_code": 39,
    "city": "高岡郡津野町",
    "city_kana": "タカオカグンツノチョウ",
    "town": "永野",
    "town_kana": "ナガノ",
    "street": null,
    "office_name": null,
    "office_name_kana": null
  },
  "0202": {
    "postcode": "7850202",
    "prefecture": "高知県",
    "prefecture_kana": "コウチケン",
    "prefecture_code": 39,
    "city": "高岡郡津野町",
    "city_kana": "タカオカグンツノチョウ",
    "town": "姫野々",
    "town_kana": "ヒメノノ",
    "street": null,
    "office_name": null,
    "office_name_kana": null
  },
  "0203": {
    "postcode": "7850203",
    "prefecture": "高知県",
    "prefecture_kana": "コウチケン",
    "prefecture_code": 39,
    "city": "高岡郡津野町",
    "city_kana": "タカオカグンツノチョウ",
    "town": "貝ノ川",
    "town_kana": "カイノカワ",
    "street": null,
    "office_name": null,
    "office_name_kana": null
  },
  "0204": {
    "postcode": "7850204",
    "prefecture": "高知県",
    "prefecture_kana": "コウチケン",
    "prefecture_code": 39,
    "city": "高岡郡津野町",
    "city_kana": "タカオカグンツノチョウ",
    "town": "久保川",
    "town_kana": "クボカワ",
    "street": null,
    "office_name": null,
    "office_name_kana": null
  },
  "0205": {
    "postcode": "7850205",
    "prefecture": "高知県",
    "prefecture_kana": "コウチケン",
    "prefecture_code": 39,
    "city": "高岡郡津野町",
    "city_kana": "タカオカグンツノチョウ",
    "town": "西谷甲",
    "town_kana": "ニシダニコウ",
    "street": null,
    "office_name": null,
    "office_name_kana": null
  },
  "0206": {
    "postcode": "7850206",
    "prefecture": "高知県",
    "prefecture_kana": "コウチケン",
    "prefecture_code": 39,
    "city": "高岡郡津野町",
    "city_kana": "タカオカグンツノチョウ",
    "town": "樺の川",
    "town_kana": "カバノカワ",
    "street": null,
    "office_name": null,
    "office_name_kana": null
  },
  "0207": {
    "postcode": "7850207",
    "prefecture": "高知県",
    "prefecture_kana": "コウチケン",
    "prefecture_code": 39,
    "city": "高岡郡津野町",
    "city_kana": "タカオカグンツノチョウ",
    "town": "新土居",
    "town_kana": "シンドイ",
    "street": null,
    "office_name": null,
    "office_name_kana": null
  },
  "0208": {
    "postcode": "7850208",
    "prefecture": "高知県",
    "prefecture_kana": "コウチケン",
    "prefecture_code": 39,
    "city": "高岡郡津野町",
    "city_kana": "タカオカグンツノチョウ",
    "town": "三間川",
    "town_kana": "ミマノカワ",
    "street": null,
    "office_name": null,
    "office_name_kana": null
  },
  "0209": {
    "postcode": "7850209",
    "prefecture": "高知県",
    "prefecture_kana": "コウチケン",
    "prefecture_code": 39,
    "city": "高岡郡津野町",
    "city_kana": "タカオカグンツノチョウ",
    "town": "西谷乙",
    "town_kana": "ニシダニオツ",
    "street": null,
    "office_name": null,
    "office_name_kana": null
  },
  "0210": {
    "postcode": "7850210",
    "prefecture": "高知県",
    "prefecture_kana": "コウチケン",
    "prefecture_code": 39,
    "city": "高岡郡津野町",
    "city_kana": "タカオカグンツノチョウ",
    "town": "貝ノ川床鍋",
    "town_kana": "カイノカワトコナベ",
    "street": null,
    "office_name": null,
    "office_name_kana": null
  },
  "0211": {
    "postcode": "7850211",
    "prefecture": "高知県",
    "prefecture_kana": "コウチケン",
    "prefecture_code": 39,
    "city": "高岡郡津野町",
    "city_kana": "タカオカグンツノチョウ",
    "town": "白石甲",
    "town_kana": "シライシコウ",
    "street": null,
    "office_name": null,
    "office_name_kana": null
  },
  "0212": {
    "postcode": "7850212",
    "prefecture": "高知県",
    "prefecture_kana": "コウチケン",
    "prefecture_code": 39,
    "city": "高岡郡津野町",
    "city_kana": "タカオカグンツノチョウ",
    "town": "白石乙",
    "town_kana": "シライシオツ",
    "street": null,
    "office_name": null,
    "office_name_kana": null
  },
  "0213": {
    "postcode": "7850213",
    "prefecture": "高知県",
    "prefecture_kana": "コウチケン",
    "prefecture_code": 39,
    "city": "高岡郡津野町",
    "city_kana": "タカオカグンツノチョウ",
    "town": "白石丙",
    "town_kana": "シライシヘイ",
    "street": null,
    "office_name": null,
    "office_name_kana": null
  },
  "0214": {
    "postcode": "7850214",
    "prefecture": "高知県",
    "prefecture_kana": "コウチケン",
    "prefecture_code": 39,
    "city": "高岡郡津野町",
    "city_kana": "タカオカグンツノチョウ",
    "town": "杉ノ川甲",
    "town_kana": "スギノカワコウ",
    "street": null,
    "office_name": null,
    "office_name_kana": null
  },
  "0215": {
    "postcode": "7850215",
    "prefecture": "高知県",
    "prefecture_kana": "コウチケン",
    "prefecture_code": 39,
    "city": "高岡郡津野町",
    "city_kana": "タカオカグンツノチョウ",
    "town": "杉ノ川乙",
    "town_kana": "スギノカワオツ",
    "street": null,
    "office_name": null,
    "office_name_kana": null
  },
  "0216": {
    "postcode": "7850216",
    "prefecture": "高知県",
    "prefecture_kana": "コウチケン",
    "prefecture_code": 39,
    "city": "高岡郡津野町",
    "city_kana": "タカオカグンツノチョウ",
    "town": "杉ノ川丙",
    "town_kana": "スギノカワヘイ",
    "street": null,
    "office_name": null,
    "office_name_kana": null
  },
  "0217": {
    "postcode": "7850217",
    "prefecture": "高知県",
    "prefecture_kana": "コウチケン",
    "prefecture_code": 39,
    "city": "高岡郡津野町",
    "city_kana": "タカオカグンツノチョウ",
    "town": "黒川",
    "town_kana": "クロカワ",
    "street": null,
    "office_name": null,
    "office_name_kana": null
  },
  "0218": {
    "postcode": "7850218",
    "prefecture": "高知県",
    "prefecture_kana": "コウチケン",
    "prefecture_code": 39,
    "city": "高岡郡津野町",
    "city_kana": "タカオカグンツノチョウ",
    "town": "大野",
    "town_kana": "オオノ",
    "street": null,
    "office_name": null,
    "office_name_kana": null
  },
  "0219": {
    "postcode": "7850219",
    "prefecture": "高知県",
    "prefecture_kana": "コウチケン",
    "prefecture_code": 39,
    "city": "高岡郡津野町",
    "city_kana": "タカオカグンツノチョウ",
    "town": "赤木",
    "town_kana": "アカギ",
    "street": null,
    "office_name": null,
    "office_name_kana": null
  },
  "0411": {
    "postcode": "7850411",
    "prefecture": "高知県",
    "prefecture_kana": "コウチケン",
    "prefecture_code": 39,
    "city": "高岡郡津野町",
    "city_kana": "タカオカグンツノチョウ",
    "town": "船戸",
    "town_kana": "フナト",
    "street": null,
    "office_name": null,
    "office_name_kana": null
  },
  "0412": {
    "postcode": "7850412",
    "prefecture": "高知県",
    "prefecture_kana": "コウチケン",
    "prefecture_code": 39,
    "city": "高岡郡津野町",
    "city_kana": "タカオカグンツノチョウ",
    "town": "桑ケ市",
    "town_kana": "クワガイチ",
    "street": null,
    "office_name": null,
    "office_name_kana": null
  },
  "0413": {
    "postcode": "7850413",
    "prefecture": "高知県",
    "prefecture_kana": "コウチケン",
    "prefecture_code": 39,
    "city": "高岡郡津野町",
    "city_kana": "タカオカグンツノチョウ",
    "town": "烏出川",
    "town_kana": "カラスデガワ",
    "street": null,
    "office_name": null,
    "office_name_kana": null
  },
  "0501": {
    "postcode": "7850501",
    "prefecture": "高知県",
    "prefecture_kana": "コウチケン",
    "prefecture_code": 39,
    "city": "高岡郡津野町",
    "city_kana": "タカオカグンツノチョウ",
    "town": "力石",
    "town_kana": "チカライシ",
    "street": null,
    "office_name": null,
    "office_name_kana": null
  },
  "0502": {
    "postcode": "7850502",
    "prefecture": "高知県",
    "prefecture_kana": "コウチケン",
    "prefecture_code": 39,
    "city": "高岡郡津野町",
    "city_kana": "タカオカグンツノチョウ",
    "town": "北川",
    "town_kana": "キタガワ",
    "street": null,
    "office_name": null,
    "office_name_kana": null
  },
  "0503": {
    "postcode": "7850503",
    "prefecture": "高知県",
    "prefecture_kana": "コウチケン",
    "prefecture_code": 39,
    "city": "高岡郡津野町",
    "city_kana": "タカオカグンツノチョウ",
    "town": "芳生野甲",
    "town_kana": "ヨシウノコウ",
    "street": null,
    "office_name": null,
    "office_name_kana": null
  },
  "0504": {
    "postcode": "7850504",
    "prefecture": "高知県",
    "prefecture_kana": "コウチケン",
    "prefecture_code": 39,
    "city": "高岡郡津野町",
    "city_kana": "タカオカグンツノチョウ",
    "town": "芳生野乙",
    "town_kana": "ヨシウノオツ",
    "street": null,
    "office_name": null,
    "office_name_kana": null
  },
  "0505": {
    "postcode": "7850505",
    "prefecture": "高知県",
    "prefecture_kana": "コウチケン",
    "prefecture_code": 39,
    "city": "高岡郡津野町",
    "city_kana": "タカオカグンツノチョウ",
    "town": "芳生野丙",
    "town_kana": "ヨシウノヘイ",
    "street": null,
    "office_name": null,
    "office_name_kana": null
  },
  "0595": {
    "postcode": "7850595",
    "prefecture": "高知県",
    "prefecture_kana": "コウチケン",
    "prefecture_code": 39,
    "city": "高岡郡津野町",
    "city_kana": "タカオカグンツノチョウ",
    "town": "力石",
    "town_kana": "チカライシ",
    "street": "２８７０",
    "office_name": "津野町役場　西庁舎",
    "office_name_kana": "ツノチヨウヤクバ ニシチヨウシヤ"
  },
  "0600": {
    "postcode": "7850600",
    "prefecture": "高知県",
    "prefecture_kana": "コウチケン",
    "prefecture_code": 39,
    "city": "高岡郡檮原町",
    "city_kana": "タカオカグンユスハラチョウ",
    "town": "",
    "town_kana": "",
    "street": null,
    "office_name": null,
    "office_name_kana": null
  },
  "0601": {
    "postcode": "7850601",
    "prefecture": "高知県",
    "prefecture_kana": "コウチケン",
    "prefecture_code": 39,
    "city": "高岡郡檮原町",
    "city_kana": "タカオカグンユスハラチョウ",
    "town": "永野",
    "town_kana": "ナガノ",
    "street": null,
    "office_name": null,
    "office_name_kana": null
  },
  "0602": {
    "postcode": "7850602",
    "prefecture": "高知県",
    "prefecture_kana": "コウチケン",
    "prefecture_code": 39,
    "city": "高岡郡檮原町",
    "city_kana": "タカオカグンユスハラチョウ",
    "town": "井の谷",
    "town_kana": "イノタニ",
    "street": null,
    "office_name": null,
    "office_name_kana": null
  },
  "0603": {
    "postcode": "7850603",
    "prefecture": "高知県",
    "prefecture_kana": "コウチケン",
    "prefecture_code": 39,
    "city": "高岡郡檮原町",
    "city_kana": "タカオカグンユスハラチョウ",
    "town": "太田戸",
    "town_kana": "オオタド",
    "street": null,
    "office_name": null,
    "office_name_kana": null
  },
  "0604": {
    "postcode": "7850604",
    "prefecture": "高知県",
    "prefecture_kana": "コウチケン",
    "prefecture_code": 39,
    "city": "高岡郡檮原町",
    "city_kana": "タカオカグンユスハラチョウ",
    "town": "横貝",
    "town_kana": "ヨコガイ",
    "street": null,
    "office_name": null,
    "office_name_kana": null
  },
  "0605": {
    "postcode": "7850605",
    "prefecture": "高知県",
    "prefecture_kana": "コウチケン",
    "prefecture_code": 39,
    "city": "高岡郡檮原町",
    "city_kana": "タカオカグンユスハラチョウ",
    "town": "下本村",
    "town_kana": "シモホンムラ",
    "street": null,
    "office_name": null,
    "office_name_kana": null
  },
  "0606": {
    "postcode": "7850606",
    "prefecture": "高知県",
    "prefecture_kana": "コウチケン",
    "prefecture_code": 39,
    "city": "高岡郡檮原町",
    "city_kana": "タカオカグンユスハラチョウ",
    "town": "上本村",
    "town_kana": "カミホンムラ",
    "street": null,
    "office_name": null,
    "office_name_kana": null
  },
  "0607": {
    "postcode": "7850607",
    "prefecture": "高知県",
    "prefecture_kana": "コウチケン",
    "prefecture_code": 39,
    "city": "高岡郡檮原町",
    "city_kana": "タカオカグンユスハラチョウ",
    "town": "田野々",
    "town_kana": "タノノ",
    "street": null,
    "office_name": null,
    "office_name_kana": null
  },
  "0608": {
    "postcode": "7850608",
    "prefecture": "高知県",
    "prefecture_kana": "コウチケン",
    "prefecture_code": 39,
    "city": "高岡郡檮原町",
    "city_kana": "タカオカグンユスハラチョウ",
    "town": "後別当",
    "town_kana": "ゴベットウ",
    "street": null,
    "office_name": null,
    "office_name_kana": null
  },
  "0610": {
    "postcode": "7850610",
    "prefecture": "高知県",
    "prefecture_kana": "コウチケン",
    "prefecture_code": 39,
    "city": "高岡郡檮原町",
    "city_kana": "タカオカグンユスハラチョウ",
    "town": "檮原",
    "town_kana": "ユスハラ",
    "street": null,
    "office_name": null,
    "office_name_kana": null
  },
  "0611": {
    "postcode": "7850611",
    "prefecture": "高知県",
    "prefecture_kana": "コウチケン",
    "prefecture_code": 39,
    "city": "高岡郡檮原町",
    "city_kana": "タカオカグンユスハラチョウ",
    "town": "飯母",
    "town_kana": "イイボ",
    "street": null,
    "office_name": null,
    "office_name_kana": null
  },
  "0612": {
    "postcode": "7850612",
    "prefecture": "高知県",
    "prefecture_kana": "コウチケン",
    "prefecture_code": 39,
    "city": "高岡郡檮原町",
    "city_kana": "タカオカグンユスハラチョウ",
    "town": "川西路",
    "town_kana": "カワニシジ",
    "street": null,
    "office_name": null,
    "office_name_kana": null
  },
  "0613": {
    "postcode": "7850613",
    "prefecture": "高知県",
    "prefecture_kana": "コウチケン",
    "prefecture_code": 39,
    "city": "高岡郡檮原町",
    "city_kana": "タカオカグンユスハラチョウ",
    "town": "大蔵谷",
    "town_kana": "オゾウタニ",
    "street": null,
    "office_name": null,
    "office_name_kana": null
  },
  "0621": {
    "postcode": "7850621",
    "prefecture": "高知県",
    "prefecture_kana": "コウチケン",
    "prefecture_code": 39,
    "city": "高岡郡檮原町",
    "city_kana": "タカオカグンユスハラチョウ",
    "town": "太郎川",
    "town_kana": "タロウガワ",
    "street": null,
    "office_name": null,
    "office_name_kana": null
  },
  "0622": {
    "postcode": "7850622",
    "prefecture": "高知県",
    "prefecture_kana": "コウチケン",
    "prefecture_code": 39,
    "city": "高岡郡檮原町",
    "city_kana": "タカオカグンユスハラチョウ",
    "town": "神在居",
    "town_kana": "カンザイコ",
    "street": null,
    "office_name": null,
    "office_name_kana": null
  },
  "0623": {
    "postcode": "7850623",
    "prefecture": "高知県",
    "prefecture_kana": "コウチケン",
    "prefecture_code": 39,
    "city": "高岡郡檮原町",
    "city_kana": "タカオカグンユスハラチョウ",
    "town": "仲洞",
    "town_kana": "ナカトウ",
    "street": null,
    "office_name": null,
    "office_name_kana": null
  },
  "0624": {
    "postcode": "7850624",
    "prefecture": "高知県",
    "prefecture_kana": "コウチケン",
    "prefecture_code": 39,
    "city": "高岡郡檮原町",
    "city_kana": "タカオカグンユスハラチョウ",
    "town": "下折渡",
    "town_kana": "シモオリワタリ",
    "street": null,
    "office_name": null,
    "office_name_kana": null
  },
  "0625": {
    "postcode": "7850625",
    "prefecture": "高知県",
    "prefecture_kana": "コウチケン",
    "prefecture_code": 39,
    "city": "高岡郡檮原町",
    "city_kana": "タカオカグンユスハラチョウ",
    "town": "上折渡",
    "town_kana": "カミオリワタリ",
    "street": null,
    "office_name": null,
    "office_name_kana": null
  },
  "0626": {
    "postcode": "7850626",
    "prefecture": "高知県",
    "prefecture_kana": "コウチケン",
    "prefecture_code": 39,
    "city": "高岡郡檮原町",
    "city_kana": "タカオカグンユスハラチョウ",
    "town": "大野地",
    "town_kana": "オオノジ",
    "street": null,
    "office_name": null,
    "office_name_kana": null
  },
  "0627": {
    "postcode": "7850627",
    "prefecture": "高知県",
    "prefecture_kana": "コウチケン",
    "prefecture_code": 39,
    "city": "高岡郡檮原町",
    "city_kana": "タカオカグンユスハラチョウ",
    "town": "影野地",
    "town_kana": "カゲノジ",
    "street": null,
    "office_name": null,
    "office_name_kana": null
  },
  "0631": {
    "postcode": "7850631",
    "prefecture": "高知県",
    "prefecture_kana": "コウチケン",
    "prefecture_code": 39,
    "city": "高岡郡檮原町",
    "city_kana": "タカオカグンユスハラチョウ",
    "town": "佐渡",
    "town_kana": "サワタリ",
    "street": null,
    "office_name": null,
    "office_name_kana": null
  },
  "0632": {
    "postcode": "7850632",
    "prefecture": "高知県",
    "prefecture_kana": "コウチケン",
    "prefecture_code": 39,
    "city": "高岡郡檮原町",
    "city_kana": "タカオカグンユスハラチョウ",
    "town": "初瀬本村",
    "town_kana": "ハツセホンムラ",
    "street": null,
    "office_name": null,
    "office_name_kana": null
  },
  "0633": {
    "postcode": "7850633",
    "prefecture": "高知県",
    "prefecture_kana": "コウチケン",
    "prefecture_code": 39,
    "city": "高岡郡檮原町",
    "city_kana": "タカオカグンユスハラチョウ",
    "town": "豊原",
    "town_kana": "トヨハラ",
    "street": null,
    "office_name": null,
    "office_name_kana": null
  },
  "0634": {
    "postcode": "7850634",
    "prefecture": "高知県",
    "prefecture_kana": "コウチケン",
    "prefecture_code": 39,
    "city": "高岡郡檮原町",
    "city_kana": "タカオカグンユスハラチョウ",
    "town": "仲久保",
    "town_kana": "ナカクボ",
    "street": null,
    "office_name": null,
    "office_name_kana": null
  },
  "0635": {
    "postcode": "7850635",
    "prefecture": "高知県",
    "prefecture_kana": "コウチケン",
    "prefecture_code": 39,
    "city": "高岡郡檮原町",
    "city_kana": "タカオカグンユスハラチョウ",
    "town": "川井",
    "town_kana": "カワイ",
    "street": null,
    "office_name": null,
    "office_name_kana": null
  },
  "0636": {
    "postcode": "7850636",
    "prefecture": "高知県",
    "prefecture_kana": "コウチケン",
    "prefecture_code": 39,
    "city": "高岡郡檮原町",
    "city_kana": "タカオカグンユスハラチョウ",
    "town": "川口",
    "town_kana": "カワグチ",
    "street": null,
    "office_name": null,
    "office_name_kana": null
  },
  "0641": {
    "postcode": "7850641",
    "prefecture": "高知県",
    "prefecture_kana": "コウチケン",
    "prefecture_code": 39,
    "city": "高岡郡檮原町",
    "city_kana": "タカオカグンユスハラチョウ",
    "town": "上成",
    "town_kana": "ウワナロ",
    "street": null,
    "office_name": null,
    "office_name_kana": null
  },
  "0642": {
    "postcode": "7850642",
    "prefecture": "高知県",
    "prefecture_kana": "コウチケン",
    "prefecture_code": 39,
    "city": "高岡郡檮原町",
    "city_kana": "タカオカグンユスハラチョウ",
    "town": "松谷",
    "town_kana": "マツダニ",
    "street": null,
    "office_name": null,
    "office_name_kana": null
  },
  "0643": {
    "postcode": "7850643",
    "prefecture": "高知県",
    "prefecture_kana": "コウチケン",
    "prefecture_code": 39,
    "city": "高岡郡檮原町",
    "city_kana": "タカオカグンユスハラチョウ",
    "town": "宮野々",
    "town_kana": "ミヤノノ",
    "street": null,
    "office_name": null,
    "office_name_kana": null
  },
  "0644": {
    "postcode": "7850644",
    "prefecture": "高知県",
    "prefecture_kana": "コウチケン",
    "prefecture_code": 39,
    "city": "高岡郡檮原町",
    "city_kana": "タカオカグンユスハラチョウ",
    "town": "広野",
    "town_kana": "ヒロノ",
    "street": null,
    "office_name": null,
    "office_name_kana": null
  },
  "0645": {
    "postcode": "7850645",
    "prefecture": "高知県",
    "prefecture_kana": "コウチケン",
    "prefecture_code": 39,
    "city": "高岡郡檮原町",
    "city_kana": "タカオカグンユスハラチョウ",
    "town": "竹の薮",
    "town_kana": "タケノヤブ",
    "street": null,
    "office_name": null,
    "office_name_kana": null
  },
  "0646": {
    "postcode": "7850646",
    "prefecture": "高知県",
    "prefecture_kana": "コウチケン",
    "prefecture_code": 39,
    "city": "高岡郡檮原町",
    "city_kana": "タカオカグンユスハラチョウ",
    "town": "上西の川",
    "town_kana": "カミニシノカワ",
    "street": null,
    "office_name": null,
    "office_name_kana": null
  },
  "0647": {
    "postcode": "7850647",
    "prefecture": "高知県",
    "prefecture_kana": "コウチケン",
    "prefecture_code": 39,
    "city": "高岡郡檮原町",
    "city_kana": "タカオカグンユスハラチョウ",
    "town": "下西の川",
    "town_kana": "シモニシノカワ",
    "street": null,
    "office_name": null,
    "office_name_kana": null
  },
  "0648": {
    "postcode": "7850648",
    "prefecture": "高知県",
    "prefecture_kana": "コウチケン",
    "prefecture_code": 39,
    "city": "高岡郡檮原町",
    "city_kana": "タカオカグンユスハラチョウ",
    "town": "仲間",
    "town_kana": "ナカイダ",
    "street": null,
    "office_name": null,
    "office_name_kana": null
  },
  "0651": {
    "postcode": "7850651",
    "prefecture": "高知県",
    "prefecture_kana": "コウチケン",
    "prefecture_code": 39,
    "city": "高岡郡檮原町",
    "city_kana": "タカオカグンユスハラチョウ",
    "town": "茶や谷",
    "town_kana": "チャヤダニ",
    "street": null,
    "office_name": null,
    "office_name_kana": null
  },
  "0652": {
    "postcode": "7850652",
    "prefecture": "高知県",
    "prefecture_kana": "コウチケン",
    "prefecture_code": 39,
    "city": "高岡郡檮原町",
    "city_kana": "タカオカグンユスハラチョウ",
    "town": "本も谷",
    "town_kana": "オモダニ",
    "street": null,
    "office_name": null,
    "office_name_kana": null
  },
  "0653": {
    "postcode": "7850653",
    "prefecture": "高知県",
    "prefecture_kana": "コウチケン",
    "prefecture_code": 39,
    "city": "高岡郡檮原町",
    "city_kana": "タカオカグンユスハラチョウ",
    "town": "中の川",
    "town_kana": "ナカノカワ",
    "street": null,
    "office_name": null,
    "office_name_kana": null
  },
  "0654": {
    "postcode": "7850654",
    "prefecture": "高知県",
    "prefecture_kana": "コウチケン",
    "prefecture_code": 39,
    "city": "高岡郡檮原町",
    "city_kana": "タカオカグンユスハラチョウ",
    "town": "上組",
    "town_kana": "カミグミ",
    "street": null,
    "office_name": null,
    "office_name_kana": null
  },
  "0655": {
    "postcode": "7850655",
    "prefecture": "高知県",
    "prefecture_kana": "コウチケン",
    "prefecture_code": 39,
    "city": "高岡郡檮原町",
    "city_kana": "タカオカグンユスハラチョウ",
    "town": "下組",
    "town_kana": "シモグミ",
    "street": null,
    "office_name": null,
    "office_name_kana": null
  },
  "0656": {
    "postcode": "7850656",
    "prefecture": "高知県",
    "prefecture_kana": "コウチケン",
    "prefecture_code": 39,
    "city": "高岡郡檮原町",
    "city_kana": "タカオカグンユスハラチョウ",
    "town": "東川",
    "town_kana": "ヒガシガワ",
    "street": null,
    "office_name": null,
    "office_name_kana": null
  },
  "0657": {
    "postcode": "7850657",
    "prefecture": "高知県",
    "prefecture_kana": "コウチケン",
    "prefecture_code": 39,
    "city": "高岡郡檮原町",
    "city_kana": "タカオカグンユスハラチョウ",
    "town": "東向",
    "town_kana": "コチムキ",
    "street": null,
    "office_name": null,
    "office_name_kana": null
  },
  "0658": {
    "postcode": "7850658",
    "prefecture": "高知県",
    "prefecture_kana": "コウチケン",
    "prefecture_code": 39,
    "city": "高岡郡檮原町",
    "city_kana": "タカオカグンユスハラチョウ",
    "town": "富永",
    "town_kana": "トミナガ",
    "street": null,
    "office_name": null,
    "office_name_kana": null
  },
  "0661": {
    "postcode": "7850661",
    "prefecture": "高知県",
    "prefecture_kana": "コウチケン",
    "prefecture_code": 39,
    "city": "高岡郡檮原町",
    "city_kana": "タカオカグンユスハラチョウ",
    "town": "六丁",
    "town_kana": "ロクチョウ",
    "street": null,
    "office_name": null,
    "office_name_kana": null
  },
  "0662": {
    "postcode": "7850662",
    "prefecture": "高知県",
    "prefecture_kana": "コウチケン",
    "prefecture_code": 39,
    "city": "高岡郡檮原町",
    "city_kana": "タカオカグンユスハラチョウ",
    "town": "坂本川",
    "town_kana": "サカモトガワ",
    "street": null,
    "office_name": null,
    "office_name_kana": null
  },
  "0663": {
    "postcode": "7850663",
    "prefecture": "高知県",
    "prefecture_kana": "コウチケン",
    "prefecture_code": 39,
    "city": "高岡郡檮原町",
    "city_kana": "タカオカグンユスハラチョウ",
    "town": "文丸",
    "town_kana": "ブンマル",
    "street": null,
    "office_name": null,
    "office_name_kana": null
  },
  "0664": {
    "postcode": "7850664",
    "prefecture": "高知県",
    "prefecture_kana": "コウチケン",
    "prefecture_code": 39,
    "city": "高岡郡檮原町",
    "city_kana": "タカオカグンユスハラチョウ",
    "town": "神の山",
    "town_kana": "カミノヤマ",
    "street": null,
    "office_name": null,
    "office_name_kana": null
  },
  "0665": {
    "postcode": "7850665",
    "prefecture": "高知県",
    "prefecture_kana": "コウチケン",
    "prefecture_code": 39,
    "city": "高岡郡檮原町",
    "city_kana": "タカオカグンユスハラチョウ",
    "town": "坪野田",
    "town_kana": "ツボノタ",
    "street": null,
    "office_name": null,
    "office_name_kana": null
  },
  "0666": {
    "postcode": "7850666",
    "prefecture": "高知県",
    "prefecture_kana": "コウチケン",
    "prefecture_code": 39,
    "city": "高岡郡檮原町",
    "city_kana": "タカオカグンユスハラチョウ",
    "town": "井高",
    "town_kana": "イコウ",
    "street": null,
    "office_name": null,
    "office_name_kana": null
  },
  "0695": {
    "postcode": "7850695",
    "prefecture": "高知県",
    "prefecture_kana": "コウチケン",
    "prefecture_code": 39,
    "city": "高岡郡檮原町",
    "city_kana": "タカオカグンユスハラチョウ",
    "town": "梼原",
    "town_kana": null,
    "street": "１４４４−１",
    "office_name": "梼原町役場",
    "office_name_kana": "ユスハラチヨウヤクバ"
  },
  "0771": {
    "postcode": "7850771",
    "prefecture": "高知県",
    "prefecture_kana": "コウチケン",
    "prefecture_code": 39,
    "city": "高岡郡檮原町",
    "city_kana": "タカオカグンユスハラチョウ",
    "town": "大向",
    "town_kana": "オオムカイ",
    "street": null,
    "office_name": null,
    "office_name_kana": null
  },
  "0772": {
    "postcode": "7850772",
    "prefecture": "高知県",
    "prefecture_kana": "コウチケン",
    "prefecture_code": 39,
    "city": "高岡郡檮原町",
    "city_kana": "タカオカグンユスハラチョウ",
    "town": "中平",
    "town_kana": "ナカヒラ",
    "street": null,
    "office_name": null,
    "office_name_kana": null
  },
  "0773": {
    "postcode": "7850773",
    "prefecture": "高知県",
    "prefecture_kana": "コウチケン",
    "prefecture_code": 39,
    "city": "高岡郡檮原町",
    "city_kana": "タカオカグンユスハラチョウ",
    "town": "松原",
    "town_kana": "マツバラ",
    "street": null,
    "office_name": null,
    "office_name_kana": null
  },
  "0774": {
    "postcode": "7850774",
    "prefecture": "高知県",
    "prefecture_kana": "コウチケン",
    "prefecture_code": 39,
    "city": "高岡郡檮原町",
    "city_kana": "タカオカグンユスハラチョウ",
    "town": "久保谷",
    "town_kana": "クボタニ",
    "street": null,
    "office_name": null,
    "office_name_kana": null
  },
  "0775": {
    "postcode": "7850775",
    "prefecture": "高知県",
    "prefecture_kana": "コウチケン",
    "prefecture_code": 39,
    "city": "高岡郡檮原町",
    "city_kana": "タカオカグンユスハラチョウ",
    "town": "島中",
    "town_kana": "シマジュウ",
    "street": null,
    "office_name": null,
    "office_name_kana": null
  },
  "0776": {
    "postcode": "7850776",
    "prefecture": "高知県",
    "prefecture_kana": "コウチケン",
    "prefecture_code": 39,
    "city": "高岡郡檮原町",
    "city_kana": "タカオカグンユスハラチョウ",
    "town": "家籠戸",
    "town_kana": "カロウト",
    "street": null,
    "office_name": null,
    "office_name_kana": null
  },
  "8501": {
    "postcode": "7858501",
    "prefecture": "高知県",
    "prefecture_kana": "コウチケン",
    "prefecture_code": 39,
    "city": "須崎市",
    "city_kana": "スサキシ",
    "town": "緑町",
    "town_kana": "ミドリマチ",
    "street": "４−３０",
    "office_name": "医療法人　五月会須崎くろしお病院",
    "office_name_kana": "イリヨウホウジン サツキカイスサキクロシオビヨウイン"
  },
  "8511": {
    "postcode": "7858511",
    "prefecture": "高知県",
    "prefecture_kana": "コウチケン",
    "prefecture_code": 39,
    "city": "須崎市",
    "city_kana": "スサキシ",
    "town": "緑町",
    "town_kana": "ミドリマチ",
    "street": "７−１１",
    "office_name": "須崎労働基準監督署",
    "office_name_kana": "スサキロウドウキジユンカントクシヨ"
  },
  "8520": {
    "postcode": "7858520",
    "prefecture": "高知県",
    "prefecture_kana": "コウチケン",
    "prefecture_code": 39,
    "city": "須崎市",
    "city_kana": "スサキシ",
    "town": "多ノ郷甲",
    "town_kana": "オオノゴウコウ",
    "street": "３５７１−１１",
    "office_name": "土佐くろしお農業協同組合　（本所）",
    "office_name_kana": "トサクロシオノウギヨウキヨウドウクミアイ (ホンシヨ)"
  },
  "8533": {
    "postcode": "7858533",
    "prefecture": "高知県",
    "prefecture_kana": "コウチケン",
    "prefecture_code": 39,
    "city": "須崎市",
    "city_kana": "スサキシ",
    "town": "多ノ郷和佐田甲",
    "town_kana": null,
    "street": "４１６７−３",
    "office_name": "高知県立　須崎工業高等学校",
    "office_name_kana": "コウチケンリツ スサキコウギヨウコウトウガツコウ"
  },
  "8570": {
    "postcode": "7858570",
    "prefecture": "高知県",
    "prefecture_kana": "コウチケン",
    "prefecture_code": 39,
    "city": "須崎市",
    "city_kana": "スサキシ",
    "town": "西古市町",
    "town_kana": "ニシフルイチマチ",
    "street": "１−２４",
    "office_name": "高知県　須崎農業改良晋及センター",
    "office_name_kana": "コウチケン スサキノウギヨウカイリヨウフキユウセンタ-"
  },
  "8574": {
    "postcode": "7858574",
    "prefecture": "高知県",
    "prefecture_kana": "コウチケン",
    "prefecture_code": 39,
    "city": "須崎市",
    "city_kana": "スサキシ",
    "town": "西古市町",
    "town_kana": "ニシフルイチマチ",
    "street": "１−２４",
    "office_name": "須崎県税事務所",
    "office_name_kana": "スサキケンゼイジムシヨ"
  },
  "8576": {
    "postcode": "7858576",
    "prefecture": "高知県",
    "prefecture_kana": "コウチケン",
    "prefecture_code": 39,
    "city": "須崎市",
    "city_kana": "スサキシ",
    "town": "西古市町",
    "town_kana": "ニシフルイチマチ",
    "street": "１−２４",
    "office_name": "須崎耕地事務所",
    "office_name_kana": "スサキコウチジムシヨ"
  },
  "8577": {
    "postcode": "7858577",
    "prefecture": "高知県",
    "prefecture_kana": "コウチケン",
    "prefecture_code": 39,
    "city": "須崎市",
    "city_kana": "スサキシ",
    "town": "西古市町",
    "town_kana": "ニシフルイチマチ",
    "street": "１−２４",
    "office_name": "高知県　須崎林業事務所",
    "office_name_kana": "コウチケン スサキリンギヨウジムシヨ"
  },
  "8578": {
    "postcode": "7858578",
    "prefecture": "高知県",
    "prefecture_kana": "コウチケン",
    "prefecture_code": 39,
    "city": "須崎市",
    "city_kana": "スサキシ",
    "town": "西古市町",
    "town_kana": "ニシフルイチマチ",
    "street": "１−２４",
    "office_name": "流域林業活性化センター四万十",
    "office_name_kana": "リユウイキリンギヨウカツセイカセンタ-シマント"
  },
  "8585": {
    "postcode": "7858585",
    "prefecture": "高知県",
    "prefecture_kana": "コウチケン",
    "prefecture_code": 39,
    "city": "須崎市",
    "city_kana": "スサキシ",
    "town": "東古市町",
    "town_kana": "ヒガシフルイチマチ",
    "street": "６−２６",
    "office_name": "高知県須崎福祉保健所",
    "office_name_kana": "コウチケンスサキフクシホケンジヨ"
  },
  "8601": {
    "postcode": "7858601",
    "prefecture": "高知県",
    "prefecture_kana": "コウチケン",
    "prefecture_code": 39,
    "city": "須崎市",
    "city_kana": "スサキシ",
    "town": "山手町",
    "town_kana": "ヤマテマチ",
    "street": "１−７",
    "office_name": "須崎市役所",
    "office_name_kana": "スサキシヤクシヨ"
  }
}