{
  "0000": {
    "postcode": "7860000",
    "prefecture": "高知県",
    "prefecture_kana": "コウチケン",
    "prefecture_code": 39,
    "city": "高岡郡四万十町",
    "city_kana": "タカオカグンシマントチョウ",
    "town": "",
    "town_kana": "",
    "street": null,
    "office_name": null,
    "office_name_kana": null
  },
  "0001": {
    "postcode": "7860001",
    "prefecture": "高知県",
    "prefecture_kana": "コウチケン",
    "prefecture_code": 39,
    "city": "高岡郡四万十町",
    "city_kana": "タカオカグンシマントチョウ",
    "town": "藤ノ川",
    "town_kana": "フジノガワ",
    "street": null,
    "office_name": null,
    "office_name_kana": null
  },
  "0002": {
    "postcode": "7860002",
    "prefecture": "高知県",
    "prefecture_kana": "コウチケン",
    "prefecture_code": 39,
    "city": "高岡郡四万十町",
    "city_kana": "タカオカグンシマントチョウ",
    "town": "見付",
    "town_kana": "ミツケ",
    "street": null,
    "office_name": null,
    "office_name_kana": null
  },
  "0003": {
    "postcode": "7860003",
    "prefecture": "高知県",
    "prefecture_kana": "コウチケン",
    "prefecture_code": 39,
    "city": "高岡郡四万十町",
    "city_kana": "タカオカグンシマントチョウ",
    "town": "金上野",
    "town_kana": "キンジョウノ",
    "street": null,
    "office_name": null,
    "office_name_kana": null
  },
  "0004": {
    "postcode": "7860004",
    "prefecture": "高知県",
    "prefecture_kana": "コウチケン",
    "prefecture_code": 39,
    "city": "高岡郡四万十町",
    "city_kana": "タカオカグンシマントチョウ",
    "town": "茂串町",
    "town_kana": "シゲクシチョウ",
    "street": null,
    "office_name": null,
    "office_name_kana": null
  },
  "0005": {
    "postcode": "7860005",
    "prefecture": "高知県",
    "prefecture_kana": "コウチケン",
    "prefecture_code": 39,
    "city": "高岡郡四万十町",
    "city_kana": "タカオカグンシマントチョウ",
    "town": "本町",
    "town_kana": "ホンマチ",
    "street": null,
    "office_name": null,
    "office_name_kana": null
  },
  "0006": {
    "postcode": "7860006",
    "prefecture": "高知県",
    "prefecture_kana": "コウチケン",
    "prefecture_code": 39,
    "city": "高岡郡四万十町",
    "city_kana": "タカオカグンシマントチョウ",
    "town": "東町",
    "town_kana": "ヒガシマチ",
    "street": null,
    "office_name": null,
    "office_name_kana": null
  },
  "0007": {
    "postcode": "7860007",
    "prefecture": "高知県",
    "prefecture_kana": "コウチケン",
    "prefecture_code": 39,
    "city": "高岡郡四万十町",
    "city_kana": "タカオカグンシマントチョウ",
    "town": "古市町",
    "town_kana": "フルイチマチ",
    "street": null,
    "office_name": null,
    "office_name_kana": null
  },
  "0008": {
    "postcode": "7860008",
    "prefecture": "高知県",
    "prefecture_kana": "コウチケン",
    "prefecture_code": 39,
    "city": "高岡郡四万十町",
    "city_kana": "タカオカグンシマントチョウ",
    "town": "榊山町",
    "town_kana": "サカキヤマチョウ",
    "street": null,
    "office_name": null,
    "office_name_kana": null
  },
  "0010": {
    "postcode": "7860010",
    "prefecture": "高知県",
    "prefecture_kana": "コウチケン",
    "prefecture_code": 39,
    "city": "高岡郡四万十町",
    "city_kana": "タカオカグンシマントチョウ",
    "town": "窪川",
    "town_kana": "クボカワ",
    "street": null,
    "office_name": null,
    "office_name_kana": null
  },
  "0011": {
    "postcode": "7860011",
    "prefecture": "高知県",
    "prefecture_kana": "コウチケン",
    "prefecture_code": 39,
    "city": "高岡郡四万十町",
    "city_kana": "タカオカグンシマントチョウ",
    "town": "香月が丘",
    "town_kana": "カゲツガオカ",
    "street": null,
    "office_name": null,
    "office_name_kana": null
  },
  "0012": {
    "postcode": "7860012",
    "prefecture": "高知県",
    "prefecture_kana": "コウチケン",
    "prefecture_code": 39,
    "city": "高岡郡四万十町",
    "city_kana": "タカオカグンシマントチョウ",
    "town": "北琴平町",
    "town_kana": "キタコトヒラマチ",
    "street": null,
    "office_name": null,
    "office_name_kana": null
  },
  "0013": {
    "postcode": "7860013",
    "prefecture": "高知県",
    "prefecture_kana": "コウチケン",
    "prefecture_code": 39,
    "city": "高岡郡四万十町",
    "city_kana": "タカオカグンシマントチョウ",
    "town": "琴平町",
    "town_kana": "コトヒラマチ",
    "street": null,
    "office_name": null,
    "office_name_kana": null
  },
  "0014": {
    "postcode": "7860014",
    "prefecture": "高知県",
    "prefecture_kana": "コウチケン",
    "prefecture_code": 39,
    "city": "高岡郡四万十町",
    "city_kana": "タカオカグンシマントチョウ",
    "town": "新開町",
    "town_kana": "シンガイチョウ",
    "street": null,
    "office_name": null,
    "office_name_kana": null
  },
  "0015": {
    "postcode": "7860015",
    "prefecture": "高知県",
    "prefecture_kana": "コウチケン",
    "prefecture_code": 39,
    "city": "高岡郡四万十町",
    "city_kana": "タカオカグンシマントチョウ",
    "town": "西原",
    "town_kana": "サイバラ",
    "street": null,
    "office_name": null,
    "office_name_kana": null
  },
  "0016": {
    "postcode": "7860016",
    "prefecture": "高知県",
    "prefecture_kana": "コウチケン",
    "prefecture_code": 39,
    "city": "高岡郡四万十町",
    "city_kana": "タカオカグンシマントチョウ",
    "town": "大井野",
    "town_kana": "オオイノ",
    "street": null,
    "office_name": null,
    "office_name_kana": null
  },
  "0017": {
    "postcode": "7860017",
    "prefecture": "高知県",
    "prefecture_kana": "コウチケン",
    "prefecture_code": 39,
    "city": "高岡郡四万十町",
    "city_kana": "タカオカグンシマントチョウ",
    "town": "神ノ西",
    "town_kana": "コウノサイ",
    "street": null,
    "office_name": null,
    "office_name_kana": null
  },
  "0018": {
    "postcode": "7860018",
    "prefecture": "高知県",
    "prefecture_kana": "コウチケン",
    "prefecture_code": 39,
    "city": "高岡郡四万十町",
    "city_kana": "タカオカグンシマントチョウ",
    "town": "仕出原",
    "town_kana": "シデハラ",
    "street": null,
    "office_name": null,
    "office_name_kana": null
  },
  "0021": {
    "postcode": "7860021",
    "prefecture": "高知県",
    "prefecture_kana": "コウチケン",
    "prefecture_code": 39,
    "city": "高岡郡四万十町",
    "city_kana": "タカオカグンシマントチョウ",
    "town": "仁井田",
    "town_kana": "ニイダ",
    "street": null,
    "office_name": null,
    "office_name_kana": null
  },
  "0022": {
    "postcode": "7860022",
    "prefecture": "高知県",
    "prefecture_kana": "コウチケン",
    "prefecture_code": 39,
    "city": "高岡郡四万十町",
    "city_kana": "タカオカグンシマントチョウ",
    "town": "小向",
    "town_kana": "コムカイ",
    "street": null,
    "office_name": null,
    "office_name_kana": null
  },
  "0023": {
    "postcode": "7860023",
    "prefecture": "高知県",
    "prefecture_kana": "コウチケン",
    "prefecture_code": 39,
    "city": "高岡郡四万十町",
    "city_kana": "タカオカグンシマントチョウ",
    "town": "中ノ越",
    "town_kana": "ナカノコエ",
    "street": null,
    "office_name": null,
    "office_name_kana": null
  },
  "0024": {
    "postcode": "7860024",
    "prefecture": "高知県",
    "prefecture_kana": "コウチケン",
    "prefecture_code": 39,
    "city": "高岡郡四万十町",
    "city_kana": "タカオカグンシマントチョウ",
    "town": "向川",
    "town_kana": "ムカイガワ",
    "street": null,
    "office_name": null,
    "office_name_kana": null
  },
  "0025": {
    "postcode": "7860025",
    "prefecture": "高知県",
    "prefecture_kana": "コウチケン",
    "prefecture_code": 39,
    "city": "高岡郡四万十町",
    "city_kana": "タカオカグンシマントチョウ",
    "town": "富岡",
    "town_kana": "トミオカ",
    "street": null,
    "office_name": null,
    "office_name_kana": null
  },
  "0026": {
    "postcode": "7860026",
    "prefecture": "高知県",
    "prefecture_kana": "コウチケン",
    "prefecture_code": 39,
    "city": "高岡郡四万十町",
    "city_kana": "タカオカグンシマントチョウ",
    "town": "平串",
    "town_kana": "ヒラグシ",
    "street": null,
    "office_name": null,
    "office_name_kana": null
  },
  "0027": {
    "postcode": "7860027",
    "prefecture": "高知県",
    "prefecture_kana": "コウチケン",
    "prefecture_code": 39,
    "city": "高岡郡四万十町",
    "city_kana": "タカオカグンシマントチョウ",
    "town": "東大奈路",
    "town_kana": "ヒガシオオナロ",
    "street": null,
    "office_name": null,
    "office_name_kana": null
  },
  "0028": {
    "postcode": "7860028",
    "prefecture": "高知県",
    "prefecture_kana": "コウチケン",
    "prefecture_code": 39,
    "city": "高岡郡四万十町",
    "city_kana": "タカオカグンシマントチョウ",
    "town": "根元原",
    "town_kana": "ゴンゲンバラ",
    "street": null,
    "office_name": null,
    "office_name_kana": null
  },
  "0031": {
    "postcode": "7860031",
    "prefecture": "高知県",
    "prefecture_kana": "コウチケン",
    "prefecture_code": 39,
    "city": "高岡郡四万十町",
    "city_kana": "タカオカグンシマントチョウ",
    "town": "床鍋",
    "town_kana": "トコナベ",
    "street": null,
    "office_name": null,
    "office_name_kana": null
  },
  "0032": {
    "postcode": "7860032",
    "prefecture": "高知県",
    "prefecture_kana": "コウチケン",
    "prefecture_code": 39,
    "city": "高岡郡四万十町",
    "city_kana": "タカオカグンシマントチョウ",
    "town": "影野",
    "town_kana": "カゲノ",
    "street": null,
    "office_name": null,
    "office_name_kana": null
  },
  "0033": {
    "postcode": "7860033",
    "prefecture": "高知県",
    "prefecture_kana": "コウチケン",
    "prefecture_code": 39,
    "city": "高岡郡四万十町",
    "city_kana": "タカオカグンシマントチョウ",
    "town": "道徳",
    "town_kana": "ドウトク",
    "street": null,
    "office_name": null,
    "office_name_kana": null
  },
  "0034": {
    "postcode": "7860034",
    "prefecture": "高知県",
    "prefecture_kana": "コウチケン",
    "prefecture_code": 39,
    "city": "高岡郡四万十町",
    "city_kana": "タカオカグンシマントチョウ",
    "town": "替坂本",
    "town_kana": "カエザカモト",
    "street": null,
    "office_name": null,
    "office_name_kana": null
  },
  "0035": {
    "postcode": "7860035",
    "prefecture": "高知県",
    "prefecture_kana": "コウチケン",
    "prefecture_code": 39,
    "city": "高岡郡四万十町",
    "city_kana": "タカオカグンシマントチョウ",
    "town": "六反地",
    "town_kana": "ロクタンジ",
    "street": null,
    "office_name": null,
    "office_name_kana": null
  },
  "0036": {
    "postcode": "7860036",
    "prefecture": "高知県",
    "prefecture_kana": "コウチケン",
    "prefecture_code": 39,
    "city": "高岡郡四万十町",
    "city_kana": "タカオカグンシマントチョウ",
    "town": "下呉地",
    "town_kana": "シモクレジ",
    "street": null,
    "office_name": null,
    "office_name_kana": null
  },
  "0037": {
    "postcode": "7860037",
    "prefecture": "高知県",
    "prefecture_kana": "コウチケン",
    "prefecture_code": 39,
    "city": "高岡郡四万十町",
    "city_kana": "タカオカグンシマントチョウ",
    "town": "魚の川",
    "town_kana": "ウオノカワ",
    "street": null,
    "office_name": null,
    "office_name_kana": null
  },
  "0038": {
    "postcode": "7860038",
    "prefecture": "高知県",
    "prefecture_kana": "コウチケン",
    "prefecture_code": 39,
    "city": "高岡郡四万十町",
    "city_kana": "タカオカグンシマントチョウ",
    "town": "奥呉地",
    "town_kana": "オククレジ",
    "street": null,
    "office_name": null,
    "office_name_kana": null
  },
  "0041": {
    "postcode": "7860041",
    "prefecture": "高知県",
    "prefecture_kana": "コウチケン",
    "prefecture_code": 39,
    "city": "高岡郡四万十町",
    "city_kana": "タカオカグンシマントチョウ",
    "town": "奈路",
    "town_kana": "ナロ",
    "street": null,
    "office_name": null,
    "office_name_kana": null
  },
  "0042": {
    "postcode": "7860042",
    "prefecture": "高知県",
    "prefecture_kana": "コウチケン",
    "prefecture_code": 39,
    "city": "高岡郡四万十町",
    "city_kana": "タカオカグンシマントチョウ",
    "town": "黒石",
    "town_kana": "クロイシ",
    "street": null,
    "office_name": null,
    "office_name_kana": null
  },
  "0043": {
    "postcode": "7860043",
    "prefecture": "高知県",
    "prefecture_kana": "コウチケン",
    "prefecture_code": 39,
    "city": "高岡郡四万十町",
    "city_kana": "タカオカグンシマントチョウ",
    "town": "本堂",
    "town_kana": "ホンドウ",
    "street": null,
    "office_name": null,
    "office_name_kana": null
  },
  "0044": {
    "postcode": "7860044",
    "prefecture": "高知県",
    "prefecture_kana": "コウチケン",
    "prefecture_code": 39,
    "city": "高岡郡四万十町",
    "city_kana": "タカオカグンシマントチョウ",
    "town": "与津地",
    "town_kana": "ヨツジ",
    "street": null,
    "office_name": null,
    "office_name_kana": null
  },
  "0045": {
    "postcode": "7860045",
    "prefecture": "高知県",
    "prefecture_kana": "コウチケン",
    "prefecture_code": 39,
    "city": "高岡郡四万十町",
    "city_kana": "タカオカグンシマントチョウ",
    "town": "興津",
    "town_kana": "オキツ",
    "street": null,
    "office_name": null,
    "office_name_kana": null
  },
  "0046": {
    "postcode": "7860046",
    "prefecture": "高知県",
    "prefecture_kana": "コウチケン",
    "prefecture_code": 39,
    "city": "高岡郡四万十町",
    "city_kana": "タカオカグンシマントチョウ",
    "town": "興津",
    "town_kana": "オキツ",
    "street": null,
    "office_name": null,
    "office_name_kana": null
  },
  "0047": {
    "postcode": "7860047",
    "prefecture": "高知県",
    "prefecture_kana": "コウチケン",
    "prefecture_code": 39,
    "city": "高岡郡四万十町",
    "city_kana": "タカオカグンシマントチョウ",
    "town": "八千数",
    "town_kana": "ハッセンズ",
    "street": null,
    "office_name": null,
    "office_name_kana": null
  },
  "0048": {
    "postcode": "7860048",
    "prefecture": "高知県",
    "prefecture_kana": "コウチケン",
    "prefecture_code": 39,
    "city": "高岡郡四万十町",
    "city_kana": "タカオカグンシマントチョウ",
    "town": "親ケ内",
    "town_kana": "オヤガウチ",
    "street": null,
    "office_name": null,
    "office_name_kana": null
  },
  "0049": {
    "postcode": "7860049",
    "prefecture": "高知県",
    "prefecture_kana": "コウチケン",
    "prefecture_code": 39,
    "city": "高岡郡四万十町",
    "city_kana": "タカオカグンシマントチョウ",
    "town": "数神",
    "town_kana": "カズコウ",
    "street": null,
    "office_name": null,
    "office_name_kana": null
  },
  "0051": {
    "postcode": "7860051",
    "prefecture": "高知県",
    "prefecture_kana": "コウチケン",
    "prefecture_code": 39,
    "city": "高岡郡四万十町",
    "city_kana": "タカオカグンシマントチョウ",
    "town": "平野",
    "town_kana": "ヒラノ",
    "street": null,
    "office_name": null,
    "office_name_kana": null
  },
  "0052": {
    "postcode": "7860052",
    "prefecture": "高知県",
    "prefecture_kana": "コウチケン",
    "prefecture_code": 39,
    "city": "高岡郡四万十町",
    "city_kana": "タカオカグンシマントチョウ",
    "town": "土居",
    "town_kana": "ドイ",
    "street": null,
    "office_name": null,
    "office_name_kana": null
  },
  "0053": {
    "postcode": "7860053",
    "prefecture": "高知県",
    "prefecture_kana": "コウチケン",
    "prefecture_code": 39,
    "city": "高岡郡四万十町",
    "city_kana": "タカオカグンシマントチョウ",
    "town": "弘見",
    "town_kana": "ヒロミ",
    "street": null,
    "office_name": null,
    "office_name_kana": null
  },
  "0054": {
    "postcode": "7860054",
    "prefecture": "高知県",
    "prefecture_kana": "コウチケン",
    "prefecture_code": 39,
    "city": "高岡郡四万十町",
    "city_kana": "タカオカグンシマントチョウ",
    "town": "飯ノ川",
    "town_kana": "ハンノカワ",
    "street": null,
    "office_name": null,
    "office_name_kana": null
  },
  "0055": {
    "postcode": "7860055",
    "prefecture": "高知県",
    "prefecture_kana": "コウチケン",
    "prefecture_code": 39,
    "city": "高岡郡四万十町",
    "city_kana": "タカオカグンシマントチョウ",
    "town": "志和峰",
    "town_kana": "シワミネ",
    "street": null,
    "office_name": null,
    "office_name_kana": null
  },
  "0056": {
    "postcode": "7860056",
    "prefecture": "高知県",
    "prefecture_kana": "コウチケン",
    "prefecture_code": 39,
    "city": "高岡郡四万十町",
    "city_kana": "タカオカグンシマントチョウ",
    "town": "志和",
    "town_kana": "シワ",
    "street": null,
    "office_name": null,
    "office_name_kana": null
  },
  "0057": {
    "postcode": "7860057",
    "prefecture": "高知県",
    "prefecture_kana": "コウチケン",
    "prefecture_code": 39,
    "city": "高岡郡四万十町",
    "city_kana": "タカオカグンシマントチョウ",
    "town": "小鶴津",
    "town_kana": "コヅルツ",
    "street": null,
    "office_name": null,
    "office_name_kana": null
  },
  "0058": {
    "postcode": "7860058",
    "prefecture": "高知県",
    "prefecture_kana": "コウチケン",
    "prefecture_code": 39,
    "city": "高岡郡四万十町",
    "city_kana": "タカオカグンシマントチョウ",
    "town": "大鶴津",
    "town_kana": "オオツルツ",
    "street": null,
    "office_name": null,
    "office_name_kana": null
  },
  "0061": {
    "postcode": "7860061",
    "prefecture": "高知県",
    "prefecture_kana": "コウチケン",
    "prefecture_code": 39,
    "city": "高岡郡四万十町",
    "city_kana": "タカオカグンシマントチョウ",
    "town": "峰ノ上",
    "town_kana": "ミネノウエ",
    "street": null,
    "office_name": null,
    "office_name_kana": null
  },
  "0062": {
    "postcode": "7860062",
    "prefecture": "高知県",
    "prefecture_kana": "コウチケン",
    "prefecture_code": 39,
    "city": "高岡郡四万十町",
    "city_kana": "タカオカグンシマントチョウ",
    "town": "若井川",
    "town_kana": "ワカイガワ",
    "street": null,
    "office_name": null,
    "office_name_kana": null
  },
  "0063": {
    "postcode": "7860063",
    "prefecture": "高知県",
    "prefecture_kana": "コウチケン",
    "prefecture_code": 39,
    "city": "高岡郡四万十町",
    "city_kana": "タカオカグンシマントチョウ",
    "town": "高野",
    "town_kana": "タカノ",
    "street": null,
    "office_name": null,
    "office_name_kana": null
  },
  "0064": {
    "postcode": "7860064",
    "prefecture": "高知県",
    "prefecture_kana": "コウチケン",
    "prefecture_code": 39,
    "city": "高岡郡四万十町",
    "city_kana": "タカオカグンシマントチョウ",
    "town": "家地川",
    "town_kana": "イエジガワ",
    "street": null,
    "office_name": null,
    "office_name_kana": null
  },
  "0065": {
    "postcode": "7860065",
    "prefecture": "高知県",
    "prefecture_kana": "コウチケン",
    "prefecture_code": 39,
    "city": "高岡郡四万十町",
    "city_kana": "タカオカグンシマントチョウ",
    "town": "野地",
    "town_kana": "ノジ",
    "street": null,
    "office_name": null,
    "office_name_kana": null
  },
  "0066": {
    "postcode": "7860066",
    "prefecture": "高知県",
    "prefecture_kana": "コウチケン",
    "prefecture_code": 39,
    "city": "高岡郡四万十町",
    "city_kana": "タカオカグンシマントチョウ",
    "town": "天の川",
    "town_kana": "ソラノカワ",
    "street": null,
    "office_name": null,
    "office_name_kana": null
  },
  "0067": {
    "postcode": "7860067",
    "prefecture": "高知県",
    "prefecture_kana": "コウチケン",
    "prefecture_code": 39,
    "city": "高岡郡四万十町",
    "city_kana": "タカオカグンシマントチョウ",
    "town": "大向",
    "town_kana": "オオムカイ",
    "street": null,
    "office_name": null,
    "office_name_kana": null
  },
  "0068": {
    "postcode": "7860068",
    "prefecture": "高知県",
    "prefecture_kana": "コウチケン",
    "prefecture_code": 39,
    "city": "高岡郡四万十町",
    "city_kana": "タカオカグンシマントチョウ",
    "town": "若井",
    "town_kana": "ワカイ",
    "street": null,
    "office_name": null,
    "office_name_kana": null
  },
  "0071": {
    "postcode": "7860071",
    "prefecture": "高知県",
    "prefecture_kana": "コウチケン",
    "prefecture_code": 39,
    "city": "高岡郡四万十町",
    "city_kana": "タカオカグンシマントチョウ",
    "town": "奥神ノ川",
    "town_kana": "オクゴウノカワ",
    "street": null,
    "office_name": null,
    "office_name_kana": null
  },
  "0072": {
    "postcode": "7860072",
    "prefecture": "高知県",
    "prefecture_kana": "コウチケン",
    "prefecture_code": 39,
    "city": "高岡郡四万十町",
    "city_kana": "タカオカグンシマントチョウ",
    "town": "中神ノ川",
    "town_kana": "ナカゴウノカワ",
    "street": null,
    "office_name": null,
    "office_name_kana": null
  },
  "0073": {
    "postcode": "7860073",
    "prefecture": "高知県",
    "prefecture_kana": "コウチケン",
    "prefecture_code": 39,
    "city": "高岡郡四万十町",
    "city_kana": "タカオカグンシマントチョウ",
    "town": "口神ノ川",
    "town_kana": "クチゴウノカワ",
    "street": null,
    "office_name": null,
    "office_name_kana": null
  },
  "0074": {
    "postcode": "7860074",
    "prefecture": "高知県",
    "prefecture_kana": "コウチケン",
    "prefecture_code": 39,
    "city": "高岡郡四万十町",
    "city_kana": "タカオカグンシマントチョウ",
    "town": "南川口",
    "town_kana": "ミナミカワグチ",
    "street": null,
    "office_name": null,
    "office_name_kana": null
  },
  "0075": {
    "postcode": "7860075",
    "prefecture": "高知県",
    "prefecture_kana": "コウチケン",
    "prefecture_code": 39,
    "city": "高岡郡四万十町",
    "city_kana": "タカオカグンシマントチョウ",
    "town": "秋丸",
    "town_kana": "アキマル",
    "street": null,
    "office_name": null,
    "office_name_kana": null
  },
  "0076": {
    "postcode": "7860076",
    "prefecture": "高知県",
    "prefecture_kana": "コウチケン",
    "prefecture_code": 39,
    "city": "高岡郡四万十町",
    "city_kana": "タカオカグンシマントチョウ",
    "town": "寺野",
    "town_kana": "テラノ",
    "street": null,
    "office_name": null,
    "office_name_kana": null
  },
  "0077": {
    "postcode": "7860077",
    "prefecture": "高知県",
    "prefecture_kana": "コウチケン",
    "prefecture_code": 39,
    "city": "高岡郡四万十町",
    "city_kana": "タカオカグンシマントチョウ",
    "town": "桧生原",
    "town_kana": "ヒサハラ",
    "street": null,
    "office_name": null,
    "office_name_kana": null
  },
  "0078": {
    "postcode": "7860078",
    "prefecture": "高知県",
    "prefecture_kana": "コウチケン",
    "prefecture_code": 39,
    "city": "高岡郡四万十町",
    "city_kana": "タカオカグンシマントチョウ",
    "town": "折合",
    "town_kana": "オレアイ",
    "street": null,
    "office_name": null,
    "office_name_kana": null
  },
  "0081": {
    "postcode": "7860081",
    "prefecture": "高知県",
    "prefecture_kana": "コウチケン",
    "prefecture_code": 39,
    "city": "高岡郡四万十町",
    "city_kana": "タカオカグンシマントチョウ",
    "town": "中村",
    "town_kana": "ナカムラ",
    "street": null,
    "office_name": null,
    "office_name_kana": null
  },
  "0082": {
    "postcode": "7860082",
    "prefecture": "高知県",
    "prefecture_kana": "コウチケン",
    "prefecture_code": 39,
    "city": "高岡郡四万十町",
    "city_kana": "タカオカグンシマントチョウ",
    "town": "七里",
    "town_kana": "ナナサト",
    "street": null,
    "office_name": null,
    "office_name_kana": null
  },
  "0083": {
    "postcode": "7860083",
    "prefecture": "高知県",
    "prefecture_kana": "コウチケン",
    "prefecture_code": 39,
    "city": "高岡郡四万十町",
    "city_kana": "タカオカグンシマントチョウ",
    "town": "西川角",
    "town_kana": "ニシカワヅノ",
    "street": null,
    "office_name": null,
    "office_name_kana": null
  },
  "0084": {
    "postcode": "7860084",
    "prefecture": "高知県",
    "prefecture_kana": "コウチケン",
    "prefecture_code": 39,
    "city": "高岡郡四万十町",
    "city_kana": "タカオカグンシマントチョウ",
    "town": "東川角",
    "town_kana": "ヒガシカワヅノ",
    "street": null,
    "office_name": null,
    "office_name_kana": null
  },
  "0085": {
    "postcode": "7860085",
    "prefecture": "高知県",
    "prefecture_kana": "コウチケン",
    "prefecture_code": 39,
    "city": "高岡郡四万十町",
    "city_kana": "タカオカグンシマントチョウ",
    "town": "根々崎",
    "town_kana": "ネネザキ",
    "street": null,
    "office_name": null,
    "office_name_kana": null
  },
  "0086": {
    "postcode": "7860086",
    "prefecture": "高知県",
    "prefecture_kana": "コウチケン",
    "prefecture_code": 39,
    "city": "高岡郡四万十町",
    "city_kana": "タカオカグンシマントチョウ",
    "town": "宮内",
    "town_kana": "ミヤウチ",
    "street": null,
    "office_name": null,
    "office_name_kana": null
  },
  "0087": {
    "postcode": "7860087",
    "prefecture": "高知県",
    "prefecture_kana": "コウチケン",
    "prefecture_code": 39,
    "city": "高岡郡四万十町",
    "city_kana": "タカオカグンシマントチョウ",
    "town": "作屋",
    "town_kana": "サクヤ",
    "street": null,
    "office_name": null,
    "office_name_kana": null
  },
  "0088": {
    "postcode": "7860088",
    "prefecture": "高知県",
    "prefecture_kana": "コウチケン",
    "prefecture_code": 39,
    "city": "高岡郡四万十町",
    "city_kana": "タカオカグンシマントチョウ",
    "town": "市生原",
    "town_kana": "イチウバラ",
    "street": null,
    "office_name": null,
    "office_name_kana": null
  },
  "0091": {
    "postcode": "7860091",
    "prefecture": "高知県",
    "prefecture_kana": "コウチケン",
    "prefecture_code": 39,
    "city": "高岡郡四万十町",
    "city_kana": "タカオカグンシマントチョウ",
    "town": "川ノ内",
    "town_kana": "カワノウチ",
    "street": null,
    "office_name": null,
    "office_name_kana": null
  },
  "0092": {
    "postcode": "7860092",
    "prefecture": "高知県",
    "prefecture_kana": "コウチケン",
    "prefecture_code": 39,
    "city": "高岡郡四万十町",
    "city_kana": "タカオカグンシマントチョウ",
    "town": "勝賀野",
    "town_kana": "ショウガノ",
    "street": null,
    "office_name": null,
    "office_name_kana": null
  },
  "0093": {
    "postcode": "7860093",
    "prefecture": "高知県",
    "prefecture_kana": "コウチケン",
    "prefecture_code": 39,
    "city": "高岡郡四万十町",
    "city_kana": "タカオカグンシマントチョウ",
    "town": "東北ノ川",
    "town_kana": "ヒガシキタノカワ",
    "street": null,
    "office_name": null,
    "office_name_kana": null
  },
  "0094": {
    "postcode": "7860094",
    "prefecture": "高知県",
    "prefecture_kana": "コウチケン",
    "prefecture_code": 39,
    "city": "高岡郡四万十町",
    "city_kana": "タカオカグンシマントチョウ",
    "town": "一斗俵",
    "town_kana": "イットヒョウ",
    "street": null,
    "office_name": null,
    "office_name_kana": null
  },
  "0095": {
    "postcode": "7860095",
    "prefecture": "高知県",
    "prefecture_kana": "コウチケン",
    "prefecture_code": 39,
    "city": "高岡郡四万十町",
    "city_kana": "タカオカグンシマントチョウ",
    "town": "米奥",
    "town_kana": "ヨネオク",
    "street": null,
    "office_name": null,
    "office_name_kana": null
  },
  "0096": {
    "postcode": "7860096",
    "prefecture": "高知県",
    "prefecture_kana": "コウチケン",
    "prefecture_code": 39,
    "city": "高岡郡四万十町",
    "city_kana": "タカオカグンシマントチョウ",
    "town": "窪川中津川",
    "town_kana": "クボカワナカツガワ",
    "street": null,
    "office_name": null,
    "office_name_kana": null
  },
  "0097": {
    "postcode": "7860097",
    "prefecture": "高知県",
    "prefecture_kana": "コウチケン",
    "prefecture_code": 39,
    "city": "高岡郡四万十町",
    "city_kana": "タカオカグンシマントチョウ",
    "town": "日野地",
    "town_kana": "ヒノジ",
    "street": null,
    "office_name": null,
    "office_name_kana": null
  },
  "0098": {
    "postcode": "7860098",
    "prefecture": "高知県",
    "prefecture_kana": "コウチケン",
    "prefecture_code": 39,
    "city": "高岡郡四万十町",
    "city_kana": "タカオカグンシマントチョウ",
    "town": "上秋丸",
    "town_kana": "カミアキマル",
    "street": null,
    "office_name": null,
    "office_name_kana": null
  },
  "0301": [
    {
      "postcode": "7860301",
      "prefecture": "高知県",
      "prefecture_kana": "コウチケン",
      "prefecture_code": 39,
      "city": "高岡郡四万十町",
      "city_kana": "タカオカグンシマントチョウ",
      "town": "大正",
      "town_kana": "タイショウ",
      "street": null,
      "office_name": null,
      "office_name_kana": null
    },
    {
      "postcode": "7860301",
      "prefecture": "高知県",
      "prefecture_kana": "コウチケン",
      "prefecture_code": 39,
      "city": "高岡郡四万十町",
      "city_kana": "タカオカグンシマントチョウ",
      "town": "大正葛籠川",
      "town_kana": "タイショウツヅラガワ",
      "street": null,
      "office_name": null,
      "office_name_kana": null
    }
  ],
  "0302": {
    "postcode": "7860302",
    "prefecture": "高知県",
    "prefecture_kana": "コウチケン",
    "prefecture_code": 39,
    "city": "高岡郡四万十町",
    "city_kana": "タカオカグンシマントチョウ",
    "town": "瀬里",
    "town_kana": "セリ",
    "street": null,
    "office_name": null,
    "office_name_kana": null
  },
  "0303": {
    "postcode": "7860303",
    "prefecture": "高知県",
    "prefecture_kana": "コウチケン",
    "prefecture_code": 39,
    "city": "高岡郡四万十町",
    "city_kana": "タカオカグンシマントチョウ",
    "town": "希ノ川",
    "town_kana": "キノカワ",
    "street": null,
    "office_name": null,
    "office_name_kana": null
  },
  "0304": {
    "postcode": "7860304",
    "prefecture": "高知県",
    "prefecture_kana": "コウチケン",
    "prefecture_code": 39,
    "city": "高岡郡四万十町",
    "city_kana": "タカオカグンシマントチョウ",
    "town": "下岡",
    "town_kana": "シモオカ",
    "street": null,
    "office_name": null,
    "office_name_kana": null
  },
  "0305": {
    "postcode": "7860305",
    "prefecture": "高知県",
    "prefecture_kana": "コウチケン",
    "prefecture_code": 39,
    "city": "高岡郡四万十町",
    "city_kana": "タカオカグンシマントチョウ",
    "town": "上岡",
    "town_kana": "カミオカ",
    "street": null,
    "office_name": null,
    "office_name_kana": null
  },
  "0306": {
    "postcode": "7860306",
    "prefecture": "高知県",
    "prefecture_kana": "コウチケン",
    "prefecture_code": 39,
    "city": "高岡郡四万十町",
    "city_kana": "タカオカグンシマントチョウ",
    "town": "小石",
    "town_kana": "コイシ",
    "street": null,
    "office_name": null,
    "office_name_kana": null
  },
  "0307": {
    "postcode": "7860307",
    "prefecture": "高知県",
    "prefecture_kana": "コウチケン",
    "prefecture_code": 39,
    "city": "高岡郡四万十町",
    "city_kana": "タカオカグンシマントチョウ",
    "town": "江師",
    "town_kana": "エシ",
    "street": null,
    "office_name": null,
    "office_name_kana": null
  },
  "0308": {
    "postcode": "7860308",
    "prefecture": "高知県",
    "prefecture_kana": "コウチケン",
    "prefecture_code": 39,
    "city": "高岡郡四万十町",
    "city_kana": "タカオカグンシマントチョウ",
    "town": "芳川",
    "town_kana": "ヨシカワ",
    "street": null,
    "office_name": null,
    "office_name_kana": null
  },
  "0311": {
    "postcode": "7860311",
    "prefecture": "高知県",
    "prefecture_kana": "コウチケン",
    "prefecture_code": 39,
    "city": "高岡郡四万十町",
    "city_kana": "タカオカグンシマントチョウ",
    "town": "西ノ川",
    "town_kana": "ニシノカワ",
    "street": null,
    "office_name": null,
    "office_name_kana": null
  },
  "0312": {
    "postcode": "7860312",
    "prefecture": "高知県",
    "prefecture_kana": "コウチケン",
    "prefecture_code": 39,
    "city": "高岡郡四万十町",
    "city_kana": "タカオカグンシマントチョウ",
    "town": "大正大奈路",
    "town_kana": "タイショウオオナロ",
    "street": null,
    "office_name": null,
    "office_name_kana": null
  },
  "0313": {
    "postcode": "7860313",
    "prefecture": "高知県",
    "prefecture_kana": "コウチケン",
    "prefecture_code": 39,
    "city": "高岡郡四万十町",
    "city_kana": "タカオカグンシマントチョウ",
    "town": "木屋ケ内",
    "town_kana": "コヤガウチ",
    "street": null,
    "office_name": null,
    "office_name_kana": null
  },
  "0314": {
    "postcode": "7860314",
    "prefecture": "高知県",
    "prefecture_kana": "コウチケン",
    "prefecture_code": 39,
    "city": "高岡郡四万十町",
    "city_kana": "タカオカグンシマントチョウ",
    "town": "下道",
    "town_kana": "シモドウ",
    "street": null,
    "office_name": null,
    "office_name_kana": null
  },
  "0315": {
    "postcode": "7860315",
    "prefecture": "高知県",
    "prefecture_kana": "コウチケン",
    "prefecture_code": 39,
    "city": "高岡郡四万十町",
    "city_kana": "タカオカグンシマントチョウ",
    "town": "下津井",
    "town_kana": "シモツイ",
    "street": null,
    "office_name": null,
    "office_name_kana": null
  },
  "0316": {
    "postcode": "7860316",
    "prefecture": "高知県",
    "prefecture_kana": "コウチケン",
    "prefecture_code": 39,
    "city": "高岡郡四万十町",
    "city_kana": "タカオカグンシマントチョウ",
    "town": "大正中津川",
    "town_kana": "タイショウナカツカワ",
    "street": null,
    "office_name": null,
    "office_name_kana": null
  },
  "0321": {
    "postcode": "7860321",
    "prefecture": "高知県",
    "prefecture_kana": "コウチケン",
    "prefecture_code": 39,
    "city": "高岡郡四万十町",
    "city_kana": "タカオカグンシマントチョウ",
    "town": "大正北ノ川",
    "town_kana": "タイショウキタノカワ",
    "street": null,
    "office_name": null,
    "office_name_kana": null
  },
  "0322": {
    "postcode": "7860322",
    "prefecture": "高知県",
    "prefecture_kana": "コウチケン",
    "prefecture_code": 39,
    "city": "高岡郡四万十町",
    "city_kana": "タカオカグンシマントチョウ",
    "town": "打井川",
    "town_kana": "ウツイガワ",
    "street": null,
    "office_name": null,
    "office_name_kana": null
  },
  "0323": {
    "postcode": "7860323",
    "prefecture": "高知県",
    "prefecture_kana": "コウチケン",
    "prefecture_code": 39,
    "city": "高岡郡四万十町",
    "city_kana": "タカオカグンシマントチョウ",
    "town": "上宮",
    "town_kana": "ジョウグウ",
    "street": null,
    "office_name": null,
    "office_name_kana": null
  },
  "0324": {
    "postcode": "7860324",
    "prefecture": "高知県",
    "prefecture_kana": "コウチケン",
    "prefecture_code": 39,
    "city": "高岡郡四万十町",
    "city_kana": "タカオカグンシマントチョウ",
    "town": "弘瀬",
    "town_kana": "ヒロセ",
    "street": null,
    "office_name": null,
    "office_name_kana": null
  },
  "0325": {
    "postcode": "7860325",
    "prefecture": "高知県",
    "prefecture_kana": "コウチケン",
    "prefecture_code": 39,
    "city": "高岡郡四万十町",
    "city_kana": "タカオカグンシマントチョウ",
    "town": "市ノ又",
    "town_kana": "イチノマタ",
    "street": null,
    "office_name": null,
    "office_name_kana": null
  },
  "0326": {
    "postcode": "7860326",
    "prefecture": "高知県",
    "prefecture_kana": "コウチケン",
    "prefecture_code": 39,
    "city": "高岡郡四万十町",
    "city_kana": "タカオカグンシマントチョウ",
    "town": "烏手",
    "town_kana": "カラスデ",
    "street": null,
    "office_name": null,
    "office_name_kana": null
  },
  "0327": {
    "postcode": "7860327",
    "prefecture": "高知県",
    "prefecture_kana": "コウチケン",
    "prefecture_code": 39,
    "city": "高岡郡四万十町",
    "city_kana": "タカオカグンシマントチョウ",
    "town": "相去",
    "town_kana": "アイザレ",
    "street": null,
    "office_name": null,
    "office_name_kana": null
  },
  "0393": {
    "postcode": "7860393",
    "prefecture": "高知県",
    "prefecture_kana": "コウチケン",
    "prefecture_code": 39,
    "city": "高岡郡四万十町",
    "city_kana": "タカオカグンシマントチョウ",
    "town": "大正",
    "town_kana": "タイショウ",
    "street": "３８０",
    "office_name": "四万十町役場　大正地域振興局",
    "office_name_kana": "シマントチヨウヤクバ タイシヨウチイキシンコウキヨク"
  },
  "0501": {
    "postcode": "7860501",
    "prefecture": "高知県",
    "prefecture_kana": "コウチケン",
    "prefecture_code": 39,
    "city": "高岡郡四万十町",
    "city_kana": "タカオカグンシマントチョウ",
    "town": "地吉",
    "town_kana": "ジヨシ",
    "street": null,
    "office_name": null,
    "office_name_kana": null
  },
  "0502": {
    "postcode": "7860502",
    "prefecture": "高知県",
    "prefecture_kana": "コウチケン",
    "prefecture_code": 39,
    "city": "高岡郡四万十町",
    "city_kana": "タカオカグンシマントチョウ",
    "town": "古城",
    "town_kana": "コジョウ",
    "street": null,
    "office_name": null,
    "office_name_kana": null
  },
  "0503": {
    "postcode": "7860503",
    "prefecture": "高知県",
    "prefecture_kana": "コウチケン",
    "prefecture_code": 39,
    "city": "高岡郡四万十町",
    "city_kana": "タカオカグンシマントチョウ",
    "town": "戸川",
    "town_kana": "トガワ",
    "street": null,
    "office_name": null,
    "office_name_kana": null
  },
  "0504": {
    "postcode": "7860504",
    "prefecture": "高知県",
    "prefecture_kana": "コウチケン",
    "prefecture_code": 39,
    "city": "高岡郡四万十町",
    "city_kana": "タカオカグンシマントチョウ",
    "town": "十川",
    "town_kana": "トオカワ",
    "street": null,
    "office_name": null,
    "office_name_kana": null
  },
  "0511": {
    "postcode": "7860511",
    "prefecture": "高知県",
    "prefecture_kana": "コウチケン",
    "prefecture_code": 39,
    "city": "高岡郡四万十町",
    "city_kana": "タカオカグンシマントチョウ",
    "town": "昭和",
    "town_kana": "ショウワ",
    "street": null,
    "office_name": null,
    "office_name_kana": null
  },
  "0512": {
    "postcode": "7860512",
    "prefecture": "高知県",
    "prefecture_kana": "コウチケン",
    "prefecture_code": 39,
    "city": "高岡郡四万十町",
    "city_kana": "タカオカグンシマントチョウ",
    "town": "昭和甲",
    "town_kana": "ショウワコウ",
    "street": null,
    "office_name": null,
    "office_name_kana": null
  },
  "0513": {
    "postcode": "7860513",
    "prefecture": "高知県",
    "prefecture_kana": "コウチケン",
    "prefecture_code": 39,
    "city": "高岡郡四万十町",
    "city_kana": "タカオカグンシマントチョウ",
    "town": "昭和乙",
    "town_kana": "ショウワオツ",
    "street": null,
    "office_name": null,
    "office_name_kana": null
  },
  "0514": {
    "postcode": "7860514",
    "prefecture": "高知県",
    "prefecture_kana": "コウチケン",
    "prefecture_code": 39,
    "city": "高岡郡四万十町",
    "city_kana": "タカオカグンシマントチョウ",
    "town": "河内",
    "town_kana": "カワウチ",
    "street": null,
    "office_name": null,
    "office_name_kana": null
  },
  "0515": {
    "postcode": "7860515",
    "prefecture": "高知県",
    "prefecture_kana": "コウチケン",
    "prefecture_code": 39,
    "city": "高岡郡四万十町",
    "city_kana": "タカオカグンシマントチョウ",
    "town": "久保川",
    "town_kana": "クボカワ",
    "street": null,
    "office_name": null,
    "office_name_kana": null
  },
  "0516": {
    "postcode": "7860516",
    "prefecture": "高知県",
    "prefecture_kana": "コウチケン",
    "prefecture_code": 39,
    "city": "高岡郡四万十町",
    "city_kana": "タカオカグンシマントチョウ",
    "town": "口大道",
    "town_kana": "クチオオドウ",
    "street": null,
    "office_name": null,
    "office_name_kana": null
  },
  "0517": {
    "postcode": "7860517",
    "prefecture": "高知県",
    "prefecture_kana": "コウチケン",
    "prefecture_code": 39,
    "city": "高岡郡四万十町",
    "city_kana": "タカオカグンシマントチョウ",
    "town": "奥大道",
    "town_kana": "オクオオドウ",
    "street": null,
    "office_name": null,
    "office_name_kana": null
  },
  "0521": {
    "postcode": "7860521",
    "prefecture": "高知県",
    "prefecture_kana": "コウチケン",
    "prefecture_code": 39,
    "city": "高岡郡四万十町",
    "city_kana": "タカオカグンシマントチョウ",
    "town": "津賀",
    "town_kana": "ツガ",
    "street": null,
    "office_name": null,
    "office_name_kana": null
  },
  "0522": {
    "postcode": "7860522",
    "prefecture": "高知県",
    "prefecture_kana": "コウチケン",
    "prefecture_code": 39,
    "city": "高岡郡四万十町",
    "city_kana": "タカオカグンシマントチョウ",
    "town": "茅吹手",
    "town_kana": "カヤブクテ",
    "street": null,
    "office_name": null,
    "office_name_kana": null
  },
  "0523": {
    "postcode": "7860523",
    "prefecture": "高知県",
    "prefecture_kana": "コウチケン",
    "prefecture_code": 39,
    "city": "高岡郡四万十町",
    "city_kana": "タカオカグンシマントチョウ",
    "town": "浦越",
    "town_kana": "ウラゴシ",
    "street": null,
    "office_name": null,
    "office_name_kana": null
  },
  "0524": {
    "postcode": "7860524",
    "prefecture": "高知県",
    "prefecture_kana": "コウチケン",
    "prefecture_code": 39,
    "city": "高岡郡四万十町",
    "city_kana": "タカオカグンシマントチョウ",
    "town": "里川",
    "town_kana": "サトカワ",
    "street": null,
    "office_name": null,
    "office_name_kana": null
  },
  "0525": {
    "postcode": "7860525",
    "prefecture": "高知県",
    "prefecture_kana": "コウチケン",
    "prefecture_code": 39,
    "city": "高岡郡四万十町",
    "city_kana": "タカオカグンシマントチョウ",
    "town": "野々川",
    "town_kana": "ノノガワ",
    "street": null,
    "office_name": null,
    "office_name_kana": null
  },
  "0531": {
    "postcode": "7860531",
    "prefecture": "高知県",
    "prefecture_kana": "コウチケン",
    "prefecture_code": 39,
    "city": "高岡郡四万十町",
    "city_kana": "タカオカグンシマントチョウ",
    "town": "小野",
    "town_kana": "オノ",
    "street": null,
    "office_name": null,
    "office_name_kana": null
  },
  "0532": {
    "postcode": "7860532",
    "prefecture": "高知県",
    "prefecture_kana": "コウチケン",
    "prefecture_code": 39,
    "city": "高岡郡四万十町",
    "city_kana": "タカオカグンシマントチョウ",
    "town": "大井川",
    "town_kana": "オオイガワ",
    "street": null,
    "office_name": null,
    "office_name_kana": null
  },
  "0533": {
    "postcode": "7860533",
    "prefecture": "高知県",
    "prefecture_kana": "コウチケン",
    "prefecture_code": 39,
    "city": "高岡郡四万十町",
    "city_kana": "タカオカグンシマントチョウ",
    "town": "井崎",
    "town_kana": "イサキ",
    "street": null,
    "office_name": null,
    "office_name_kana": null
  },
  "0534": {
    "postcode": "7860534",
    "prefecture": "高知県",
    "prefecture_kana": "コウチケン",
    "prefecture_code": 39,
    "city": "高岡郡四万十町",
    "city_kana": "タカオカグンシマントチョウ",
    "town": "広瀬",
    "town_kana": "ヒロセ",
    "street": null,
    "office_name": null,
    "office_name_kana": null
  },
  "0535": {
    "postcode": "7860535",
    "prefecture": "高知県",
    "prefecture_kana": "コウチケン",
    "prefecture_code": 39,
    "city": "高岡郡四万十町",
    "city_kana": "タカオカグンシマントチョウ",
    "town": "十和川口",
    "town_kana": "トオワカワグチ",
    "street": null,
    "office_name": null,
    "office_name_kana": null
  },
  "8501": {
    "postcode": "7868501",
    "prefecture": "高知県",
    "prefecture_kana": "コウチケン",
    "prefecture_code": 39,
    "city": "高岡郡四万十町",
    "city_kana": "タカオカグンシマントチョウ",
    "town": "琴平町",
    "town_kana": "コトヒラマチ",
    "street": "１６−１７",
    "office_name": "四万十町役場",
    "office_name_kana": "シマントチヨウヤクバ"
  }
}