{
  "0000": {
    "postcode": "7870000",
    "prefecture": "高知県",
    "prefecture_kana": "コウチケン",
    "prefecture_code": 39,
    "city": "四万十市",
    "city_kana": "シマントシ",
    "town": "",
    "town_kana": "",
    "street": null,
    "office_name": null,
    "office_name_kana": null
  },
  "0001": {
    "postcode": "7870001",
    "prefecture": "高知県",
    "prefecture_kana": "コウチケン",
    "prefecture_code": 39,
    "city": "四万十市",
    "city_kana": "シマントシ",
    "town": "中村本町",
    "town_kana": "ナカムラホンマチ",
    "street": null,
    "office_name": null,
    "office_name_kana": null
  },
  "0002": {
    "postcode": "7870002",
    "prefecture": "高知県",
    "prefecture_kana": "コウチケン",
    "prefecture_code": 39,
    "city": "四万十市",
    "city_kana": "シマントシ",
    "town": "中村桜町",
    "town_kana": "ナカムラサクラマチ",
    "street": null,
    "office_name": null,
    "office_name_kana": null
  },
  "0003": {
    "postcode": "7870003",
    "prefecture": "高知県",
    "prefecture_kana": "コウチケン",
    "prefecture_code": 39,
    "city": "四万十市",
    "city_kana": "シマントシ",
    "town": "中村丸の内",
    "town_kana": "ナカムラマルノウチ",
    "street": null,
    "office_name": null,
    "office_name_kana": null
  },
  "0004": [
    {
      "postcode": "7870004",
      "prefecture": "高知県",
      "prefecture_kana": "コウチケン",
      "prefecture_code": 39,
      "city": "四万十市",
      "city_kana": "シマントシ",
      "town": "中村丸の内",
      "town_kana": "ナカムラマルノウチ",
      "street": null,
      "office_name": null,
      "office_name_kana": null
    },
    {
      "postcode": "7870004",
      "prefecture": "高知県",
      "prefecture_kana": "コウチケン",
      "prefecture_code": 39,
      "city": "四万十市",
      "city_kana": "シマントシ",
      "town": "中村丸の内丸の内ハイランド",
      "town_kana": "ナカムラマルノウチマルノウチハイランド",
      "street": null,
      "office_name": null,
      "office_name_kana": null
    }
  ],
  "0005": [
    {
      "postcode": "7870005",
      "prefecture": "高知県",
      "prefecture_kana": "コウチケン",
      "prefecture_code": 39,
      "city": "四万十市",
      "city_kana": "シマントシ",
      "town": "中村",
      "town_kana": "ナカムラ",
      "street": null,
      "office_name": null,
      "office_name_kana": null
    },
    {
      "postcode": "7870005",
      "prefecture": "高知県",
      "prefecture_kana": "コウチケン",
      "prefecture_code": 39,
      "city": "四万十市",
      "city_kana": "シマントシ",
      "town": "中村桂山団地",
      "town_kana": "ナカムラカツラヤマダンチ",
      "street": null,
      "office_name": null,
      "office_name_kana": null
    }
  ],
  "0006": {
    "postcode": "7870006",
    "prefecture": "高知県",
    "prefecture_kana": "コウチケン",
    "prefecture_code": 39,
    "city": "四万十市",
    "city_kana": "シマントシ",
    "town": "麻生",
    "town_kana": "アソウ",
    "street": null,
    "office_name": null,
    "office_name_kana": null
  },
  "0007": {
    "postcode": "7870007",
    "prefecture": "高知県",
    "prefecture_kana": "コウチケン",
    "prefecture_code": 39,
    "city": "四万十市",
    "city_kana": "シマントシ",
    "town": "秋田",
    "town_kana": "アイダ",
    "street": null,
    "office_name": null,
    "office_name_kana": null
  },
  "0008": {
    "postcode": "7870008",
    "prefecture": "高知県",
    "prefecture_kana": "コウチケン",
    "prefecture_code": 39,
    "city": "四万十市",
    "city_kana": "シマントシ",
    "town": "安並",
    "town_kana": "ヤスナミ",
    "street": null,
    "office_name": null,
    "office_name_kana": null
  },
  "0009": {
    "postcode": "7870009",
    "prefecture": "高知県",
    "prefecture_kana": "コウチケン",
    "prefecture_code": 39,
    "city": "四万十市",
    "city_kana": "シマントシ",
    "town": "佐岡",
    "town_kana": "サオカ",
    "street": null,
    "office_name": null,
    "office_name_kana": null
  },
  "0010": {
    "postcode": "7870010",
    "prefecture": "高知県",
    "prefecture_kana": "コウチケン",
    "prefecture_code": 39,
    "city": "四万十市",
    "city_kana": "シマントシ",
    "town": "古津賀",
    "town_kana": "コツカ",
    "street": null,
    "office_name": null,
    "office_name_kana": null
  },
  "0011": {
    "postcode": "7870011",
    "prefecture": "高知県",
    "prefecture_kana": "コウチケン",
    "prefecture_code": 39,
    "city": "四万十市",
    "city_kana": "シマントシ",
    "town": "右山元町",
    "town_kana": "ウヤマモトマチ",
    "street": null,
    "office_name": null,
    "office_name_kana": null
  },
  "0012": {
    "postcode": "7870012",
    "prefecture": "高知県",
    "prefecture_kana": "コウチケン",
    "prefecture_code": 39,
    "city": "四万十市",
    "city_kana": "シマントシ",
    "town": "右山五月町",
    "town_kana": "ウヤマサツキチョウ",
    "street": null,
    "office_name": null,
    "office_name_kana": null
  },
  "0013": {
    "postcode": "7870013",
    "prefecture": "高知県",
    "prefecture_kana": "コウチケン",
    "prefecture_code": 39,
    "city": "四万十市",
    "city_kana": "シマントシ",
    "town": "右山天神町",
    "town_kana": "ウヤマテンジンチョウ",
    "street": null,
    "office_name": null,
    "office_name_kana": null
  },
  "0014": {
    "postcode": "7870014",
    "prefecture": "高知県",
    "prefecture_kana": "コウチケン",
    "prefecture_code": 39,
    "city": "四万十市",
    "city_kana": "シマントシ",
    "town": "駅前町",
    "town_kana": "エキマエチョウ",
    "street": null,
    "office_name": null,
    "office_name_kana": null
  },
  "0015": {
    "postcode": "7870015",
    "prefecture": "高知県",
    "prefecture_kana": "コウチケン",
    "prefecture_code": 39,
    "city": "四万十市",
    "city_kana": "シマントシ",
    "town": "右山",
    "town_kana": "ウヤマ",
    "street": null,
    "office_name": null,
    "office_name_kana": null
  },
  "0016": {
    "postcode": "7870016",
    "prefecture": "高知県",
    "prefecture_kana": "コウチケン",
    "prefecture_code": 39,
    "city": "四万十市",
    "city_kana": "シマントシ",
    "town": "角崎",
    "town_kana": "ツノサキ",
    "street": null,
    "office_name": null,
    "office_name_kana": null
  },
  "0017": {
    "postcode": "7870017",
    "prefecture": "高知県",
    "prefecture_kana": "コウチケン",
    "prefecture_code": 39,
    "city": "四万十市",
    "city_kana": "シマントシ",
    "town": "不破",
    "town_kana": "フバ",
    "street": null,
    "office_name": null,
    "office_name_kana": null
  },
  "0018": {
    "postcode": "7870018",
    "prefecture": "高知県",
    "prefecture_kana": "コウチケン",
    "prefecture_code": 39,
    "city": "四万十市",
    "city_kana": "シマントシ",
    "town": "不破上町",
    "town_kana": "フバカミマチ",
    "street": null,
    "office_name": null,
    "office_name_kana": null
  },
  "0019": {
    "postcode": "7870019",
    "prefecture": "高知県",
    "prefecture_kana": "コウチケン",
    "prefecture_code": 39,
    "city": "四万十市",
    "city_kana": "シマントシ",
    "town": "具同",
    "town_kana": "グドウ",
    "street": null,
    "office_name": null,
    "office_name_kana": null
  },
  "0020": {
    "postcode": "7870020",
    "prefecture": "高知県",
    "prefecture_kana": "コウチケン",
    "prefecture_code": 39,
    "city": "四万十市",
    "city_kana": "シマントシ",
    "town": "入田",
    "town_kana": "ニュウタ",
    "street": null,
    "office_name": null,
    "office_name_kana": null
  },
  "0021": {
    "postcode": "7870021",
    "prefecture": "高知県",
    "prefecture_kana": "コウチケン",
    "prefecture_code": 39,
    "city": "四万十市",
    "city_kana": "シマントシ",
    "town": "中村京町",
    "town_kana": "ナカムラキョウマチ",
    "street": null,
    "office_name": null,
    "office_name_kana": null
  },
  "0022": {
    "postcode": "7870022",
    "prefecture": "高知県",
    "prefecture_kana": "コウチケン",
    "prefecture_code": 39,
    "city": "四万十市",
    "city_kana": "シマントシ",
    "town": "中村新町",
    "town_kana": "ナカムラシンマチ",
    "street": null,
    "office_name": null,
    "office_name_kana": null
  },
  "0023": {
    "postcode": "7870023",
    "prefecture": "高知県",
    "prefecture_kana": "コウチケン",
    "prefecture_code": 39,
    "city": "四万十市",
    "city_kana": "シマントシ",
    "town": "中村東町",
    "town_kana": "ナカムラヒガシマチ",
    "street": null,
    "office_name": null,
    "office_name_kana": null
  },
  "0024": {
    "postcode": "7870024",
    "prefecture": "高知県",
    "prefecture_kana": "コウチケン",
    "prefecture_code": 39,
    "city": "四万十市",
    "city_kana": "シマントシ",
    "town": "中村於東町",
    "town_kana": "ナカムラオヒガシチョウ",
    "street": null,
    "office_name": null,
    "office_name_kana": null
  },
  "0025": {
    "postcode": "7870025",
    "prefecture": "高知県",
    "prefecture_kana": "コウチケン",
    "prefecture_code": 39,
    "city": "四万十市",
    "city_kana": "シマントシ",
    "town": "中村一条通",
    "town_kana": "ナカムライチジョウドオリ",
    "street": null,
    "office_name": null,
    "office_name_kana": null
  },
  "0026": {
    "postcode": "7870026",
    "prefecture": "高知県",
    "prefecture_kana": "コウチケン",
    "prefecture_code": 39,
    "city": "四万十市",
    "city_kana": "シマントシ",
    "town": "中村愛宕町",
    "town_kana": "ナカムラアタゴマチ",
    "street": null,
    "office_name": null,
    "office_name_kana": null
  },
  "0027": {
    "postcode": "7870027",
    "prefecture": "高知県",
    "prefecture_kana": "コウチケン",
    "prefecture_code": 39,
    "city": "四万十市",
    "city_kana": "シマントシ",
    "town": "中村天神橋",
    "town_kana": "ナカムラテンジンバシ",
    "street": null,
    "office_name": null,
    "office_name_kana": null
  },
  "0028": {
    "postcode": "7870028",
    "prefecture": "高知県",
    "prefecture_kana": "コウチケン",
    "prefecture_code": 39,
    "city": "四万十市",
    "city_kana": "シマントシ",
    "town": "中村山手通",
    "town_kana": "ナカムラヤマテドオリ",
    "street": null,
    "office_name": null,
    "office_name_kana": null
  },
  "0029": {
    "postcode": "7870029",
    "prefecture": "高知県",
    "prefecture_kana": "コウチケン",
    "prefecture_code": 39,
    "city": "四万十市",
    "city_kana": "シマントシ",
    "town": "中村小姓町",
    "town_kana": "ナカムラコショウマチ",
    "street": null,
    "office_name": null,
    "office_name_kana": null
  },
  "0030": {
    "postcode": "7870030",
    "prefecture": "高知県",
    "prefecture_kana": "コウチケン",
    "prefecture_code": 39,
    "city": "四万十市",
    "city_kana": "シマントシ",
    "town": "中村上小姓町",
    "town_kana": "ナカムラカミコショウマチ",
    "street": null,
    "office_name": null,
    "office_name_kana": null
  },
  "0031": {
    "postcode": "7870031",
    "prefecture": "高知県",
    "prefecture_kana": "コウチケン",
    "prefecture_code": 39,
    "city": "四万十市",
    "city_kana": "シマントシ",
    "town": "中村東下町",
    "town_kana": "ナカムラヒガシシモマチ",
    "street": null,
    "office_name": null,
    "office_name_kana": null
  },
  "0032": {
    "postcode": "7870032",
    "prefecture": "高知県",
    "prefecture_kana": "コウチケン",
    "prefecture_code": 39,
    "city": "四万十市",
    "city_kana": "シマントシ",
    "town": "中村栄町",
    "town_kana": "ナカムラサカエマチ",
    "street": null,
    "office_name": null,
    "office_name_kana": null
  },
  "0033": {
    "postcode": "7870033",
    "prefecture": "高知県",
    "prefecture_kana": "コウチケン",
    "prefecture_code": 39,
    "city": "四万十市",
    "city_kana": "シマントシ",
    "town": "中村大橋通",
    "town_kana": "ナカムラオオハシドオリ",
    "street": null,
    "office_name": null,
    "office_name_kana": null
  },
  "0034": {
    "postcode": "7870034",
    "prefecture": "高知県",
    "prefecture_kana": "コウチケン",
    "prefecture_code": 39,
    "city": "四万十市",
    "city_kana": "シマントシ",
    "town": "中村弥生町",
    "town_kana": "ナカムラヤヨイチョウ",
    "street": null,
    "office_name": null,
    "office_name_kana": null
  },
  "0035": {
    "postcode": "7870035",
    "prefecture": "高知県",
    "prefecture_kana": "コウチケン",
    "prefecture_code": 39,
    "city": "四万十市",
    "city_kana": "シマントシ",
    "town": "中村羽生小路",
    "town_kana": "ナカムラハブショウジ",
    "street": null,
    "office_name": null,
    "office_name_kana": null
  },
  "0036": {
    "postcode": "7870036",
    "prefecture": "高知県",
    "prefecture_kana": "コウチケン",
    "prefecture_code": 39,
    "city": "四万十市",
    "city_kana": "シマントシ",
    "town": "中村岩崎町",
    "town_kana": "ナカムライワサキチョウ",
    "street": null,
    "office_name": null,
    "office_name_kana": null
  },
  "0037": {
    "postcode": "7870037",
    "prefecture": "高知県",
    "prefecture_kana": "コウチケン",
    "prefecture_code": 39,
    "city": "四万十市",
    "city_kana": "シマントシ",
    "town": "中村四万十町",
    "town_kana": "ナカムラシマントチョウ",
    "street": null,
    "office_name": null,
    "office_name_kana": null
  },
  "0038": {
    "postcode": "7870038",
    "prefecture": "高知県",
    "prefecture_kana": "コウチケン",
    "prefecture_code": 39,
    "city": "四万十市",
    "city_kana": "シマントシ",
    "town": "中村百笑町",
    "town_kana": "ナカムラドウメキチョウ",
    "street": null,
    "office_name": null,
    "office_name_kana": null
  },
  "0050": {
    "postcode": "7870050",
    "prefecture": "高知県",
    "prefecture_kana": "コウチケン",
    "prefecture_code": 39,
    "city": "四万十市",
    "city_kana": "シマントシ",
    "town": "渡川",
    "town_kana": "ワタリガワ",
    "street": null,
    "office_name": null,
    "office_name_kana": null
  },
  "0051": {
    "postcode": "7870051",
    "prefecture": "高知県",
    "prefecture_kana": "コウチケン",
    "prefecture_code": 39,
    "city": "四万十市",
    "city_kana": "シマントシ",
    "town": "具同田黒",
    "town_kana": "グドウタグロ",
    "street": null,
    "office_name": null,
    "office_name_kana": null
  },
  "0052": {
    "postcode": "7870052",
    "prefecture": "高知県",
    "prefecture_kana": "コウチケン",
    "prefecture_code": 39,
    "city": "四万十市",
    "city_kana": "シマントシ",
    "town": "赤松町",
    "town_kana": "アカマツチョウ",
    "street": null,
    "office_name": null,
    "office_name_kana": null
  },
  "0150": {
    "postcode": "7870150",
    "prefecture": "高知県",
    "prefecture_kana": "コウチケン",
    "prefecture_code": 39,
    "city": "四万十市",
    "city_kana": "シマントシ",
    "town": "井沢",
    "town_kana": "イサワ",
    "street": null,
    "office_name": null,
    "office_name_kana": null
  },
  "0151": {
    "postcode": "7870151",
    "prefecture": "高知県",
    "prefecture_kana": "コウチケン",
    "prefecture_code": 39,
    "city": "四万十市",
    "city_kana": "シマントシ",
    "town": "竹島",
    "town_kana": "タケシマ",
    "street": null,
    "office_name": null,
    "office_name_kana": null
  },
  "0152": {
    "postcode": "7870152",
    "prefecture": "高知県",
    "prefecture_kana": "コウチケン",
    "prefecture_code": 39,
    "city": "四万十市",
    "city_kana": "シマントシ",
    "town": "鍋島",
    "town_kana": "ナベシマ",
    "street": null,
    "office_name": null,
    "office_name_kana": null
  },
  "0153": {
    "postcode": "7870153",
    "prefecture": "高知県",
    "prefecture_kana": "コウチケン",
    "prefecture_code": 39,
    "city": "四万十市",
    "city_kana": "シマントシ",
    "town": "双海",
    "town_kana": "フタミ",
    "street": null,
    "office_name": null,
    "office_name_kana": null
  },
  "0154": {
    "postcode": "7870154",
    "prefecture": "高知県",
    "prefecture_kana": "コウチケン",
    "prefecture_code": 39,
    "city": "四万十市",
    "city_kana": "シマントシ",
    "town": "平野",
    "town_kana": "ヒラノ",
    "street": null,
    "office_name": null,
    "office_name_kana": null
  },
  "0155": {
    "postcode": "7870155",
    "prefecture": "高知県",
    "prefecture_kana": "コウチケン",
    "prefecture_code": 39,
    "city": "四万十市",
    "city_kana": "シマントシ",
    "town": "下田",
    "town_kana": "シモダ",
    "street": null,
    "office_name": null,
    "office_name_kana": null
  },
  "0156": {
    "postcode": "7870156",
    "prefecture": "高知県",
    "prefecture_kana": "コウチケン",
    "prefecture_code": 39,
    "city": "四万十市",
    "city_kana": "シマントシ",
    "town": "坂本",
    "town_kana": "サカモト",
    "street": null,
    "office_name": null,
    "office_name_kana": null
  },
  "0157": {
    "postcode": "7870157",
    "prefecture": "高知県",
    "prefecture_kana": "コウチケン",
    "prefecture_code": 39,
    "city": "四万十市",
    "city_kana": "シマントシ",
    "town": "山路",
    "town_kana": "ヤマチ",
    "street": null,
    "office_name": null,
    "office_name_kana": null
  },
  "0158": {
    "postcode": "7870158",
    "prefecture": "高知県",
    "prefecture_kana": "コウチケン",
    "prefecture_code": 39,
    "city": "四万十市",
    "city_kana": "シマントシ",
    "town": "実崎",
    "town_kana": "サンザキ",
    "street": null,
    "office_name": null,
    "office_name_kana": null
  },
  "0159": {
    "postcode": "7870159",
    "prefecture": "高知県",
    "prefecture_kana": "コウチケン",
    "prefecture_code": 39,
    "city": "四万十市",
    "city_kana": "シマントシ",
    "town": "深木",
    "town_kana": "フカキ",
    "street": null,
    "office_name": null,
    "office_name_kana": null
  },
  "0160": {
    "postcode": "7870160",
    "prefecture": "高知県",
    "prefecture_kana": "コウチケン",
    "prefecture_code": 39,
    "city": "四万十市",
    "city_kana": "シマントシ",
    "town": "間崎",
    "town_kana": "マサキ",
    "street": null,
    "office_name": null,
    "office_name_kana": null
  },
  "0161": {
    "postcode": "7870161",
    "prefecture": "高知県",
    "prefecture_kana": "コウチケン",
    "prefecture_code": 39,
    "city": "四万十市",
    "city_kana": "シマントシ",
    "town": "津蔵渕",
    "town_kana": "ツクラブチ",
    "street": null,
    "office_name": null,
    "office_name_kana": null
  },
  "0162": {
    "postcode": "7870162",
    "prefecture": "高知県",
    "prefecture_kana": "コウチケン",
    "prefecture_code": 39,
    "city": "四万十市",
    "city_kana": "シマントシ",
    "town": "初崎",
    "town_kana": "ハツザキ",
    "street": null,
    "office_name": null,
    "office_name_kana": null
  },
  "0163": {
    "postcode": "7870163",
    "prefecture": "高知県",
    "prefecture_kana": "コウチケン",
    "prefecture_code": 39,
    "city": "四万十市",
    "city_kana": "シマントシ",
    "town": "名鹿",
    "town_kana": "ナシシ",
    "street": null,
    "office_name": null,
    "office_name_kana": null
  },
  "0240": {
    "postcode": "7870240",
    "prefecture": "高知県",
    "prefecture_kana": "コウチケン",
    "prefecture_code": 39,
    "city": "土佐清水市",
    "city_kana": "トサシミズシ",
    "town": "立石",
    "town_kana": "タテイシ",
    "street": null,
    "office_name": null,
    "office_name_kana": null
  },
  "0241": {
    "postcode": "7870241",
    "prefecture": "高知県",
    "prefecture_kana": "コウチケン",
    "prefecture_code": 39,
    "city": "土佐清水市",
    "city_kana": "トサシミズシ",
    "town": "布",
    "town_kana": "ヌノ",
    "street": null,
    "office_name": null,
    "office_name_kana": null
  },
  "0242": {
    "postcode": "7870242",
    "prefecture": "高知県",
    "prefecture_kana": "コウチケン",
    "prefecture_code": 39,
    "city": "土佐清水市",
    "city_kana": "トサシミズシ",
    "town": "下ノ加江",
    "town_kana": "シモノカエ",
    "street": null,
    "office_name": null,
    "office_name_kana": null
  },
  "0243": {
    "postcode": "7870243",
    "prefecture": "高知県",
    "prefecture_kana": "コウチケン",
    "prefecture_code": 39,
    "city": "土佐清水市",
    "city_kana": "トサシミズシ",
    "town": "鍵掛",
    "town_kana": "カイカケ",
    "street": null,
    "office_name": null,
    "office_name_kana": null
  },
  "0244": {
    "postcode": "7870244",
    "prefecture": "高知県",
    "prefecture_kana": "コウチケン",
    "prefecture_code": 39,
    "city": "土佐清水市",
    "city_kana": "トサシミズシ",
    "town": "久百々",
    "town_kana": "クモモ",
    "street": null,
    "office_name": null,
    "office_name_kana": null
  },
  "0300": {
    "postcode": "7870300",
    "prefecture": "高知県",
    "prefecture_kana": "コウチケン",
    "prefecture_code": 39,
    "city": "土佐清水市",
    "city_kana": "トサシミズシ",
    "town": "",
    "town_kana": "",
    "street": null,
    "office_name": null,
    "office_name_kana": null
  },
  "0301": {
    "postcode": "7870301",
    "prefecture": "高知県",
    "prefecture_kana": "コウチケン",
    "prefecture_code": 39,
    "city": "土佐清水市",
    "city_kana": "トサシミズシ",
    "town": "大岐",
    "town_kana": "オオキ",
    "street": null,
    "office_name": null,
    "office_name_kana": null
  },
  "0302": {
    "postcode": "7870302",
    "prefecture": "高知県",
    "prefecture_kana": "コウチケン",
    "prefecture_code": 39,
    "city": "土佐清水市",
    "city_kana": "トサシミズシ",
    "town": "以布利",
    "town_kana": "イブリ",
    "street": null,
    "office_name": null,
    "office_name_kana": null
  },
  "0303": {
    "postcode": "7870303",
    "prefecture": "高知県",
    "prefecture_kana": "コウチケン",
    "prefecture_code": 39,
    "city": "土佐清水市",
    "city_kana": "トサシミズシ",
    "town": "旭町",
    "town_kana": "アサヒマチ",
    "street": null,
    "office_name": null,
    "office_name_kana": null
  },
  "0304": {
    "postcode": "7870304",
    "prefecture": "高知県",
    "prefecture_kana": "コウチケン",
    "prefecture_code": 39,
    "city": "土佐清水市",
    "city_kana": "トサシミズシ",
    "town": "元町",
    "town_kana": "モトマチ",
    "street": null,
    "office_name": null,
    "office_name_kana": null
  },
  "0305": {
    "postcode": "7870305",
    "prefecture": "高知県",
    "prefecture_kana": "コウチケン",
    "prefecture_code": 39,
    "city": "土佐清水市",
    "city_kana": "トサシミズシ",
    "town": "天神町",
    "town_kana": "テンジンマチ",
    "street": null,
    "office_name": null,
    "office_name_kana": null
  },
  "0306": {
    "postcode": "7870306",
    "prefecture": "高知県",
    "prefecture_kana": "コウチケン",
    "prefecture_code": 39,
    "city": "土佐清水市",
    "city_kana": "トサシミズシ",
    "town": "幸町",
    "town_kana": "サイワイチョウ",
    "street": null,
    "office_name": null,
    "office_name_kana": null
  },
  "0307": {
    "postcode": "7870307",
    "prefecture": "高知県",
    "prefecture_kana": "コウチケン",
    "prefecture_code": 39,
    "city": "土佐清水市",
    "city_kana": "トサシミズシ",
    "town": "緑ケ丘",
    "town_kana": "ミドリガオカ",
    "street": null,
    "office_name": null,
    "office_name_kana": null
  },
  "0308": {
    "postcode": "7870308",
    "prefecture": "高知県",
    "prefecture_kana": "コウチケン",
    "prefecture_code": 39,
    "city": "土佐清水市",
    "city_kana": "トサシミズシ",
    "town": "厚生町",
    "town_kana": "コウセイチョウ",
    "street": null,
    "office_name": null,
    "office_name_kana": null
  },
  "0310": {
    "postcode": "7870310",
    "prefecture": "高知県",
    "prefecture_kana": "コウチケン",
    "prefecture_code": 39,
    "city": "土佐清水市",
    "city_kana": "トサシミズシ",
    "town": "浦尻",
    "town_kana": "ウラジリ",
    "street": null,
    "office_name": null,
    "office_name_kana": null
  },
  "0311": {
    "postcode": "7870311",
    "prefecture": "高知県",
    "prefecture_kana": "コウチケン",
    "prefecture_code": 39,
    "city": "土佐清水市",
    "city_kana": "トサシミズシ",
    "town": "グリーンハイツ",
    "town_kana": "グリーンハイツ",
    "street": null,
    "office_name": null,
    "office_name_kana": null
  },
  "0312": {
    "postcode": "7870312",
    "prefecture": "高知県",
    "prefecture_kana": "コウチケン",
    "prefecture_code": 39,
    "city": "土佐清水市",
    "city_kana": "トサシミズシ",
    "town": "窪津",
    "town_kana": "クボツ",
    "street": null,
    "office_name": null,
    "office_name_kana": null
  },
  "0313": {
    "postcode": "7870313",
    "prefecture": "高知県",
    "prefecture_kana": "コウチケン",
    "prefecture_code": 39,
    "city": "土佐清水市",
    "city_kana": "トサシミズシ",
    "town": "津呂",
    "town_kana": "ツロ",
    "street": null,
    "office_name": null,
    "office_name_kana": null
  },
  "0314": {
    "postcode": "7870314",
    "prefecture": "高知県",
    "prefecture_kana": "コウチケン",
    "prefecture_code": 39,
    "city": "土佐清水市",
    "city_kana": "トサシミズシ",
    "town": "大谷",
    "town_kana": "オオタニ",
    "street": null,
    "office_name": null,
    "office_name_kana": null
  },
  "0315": {
    "postcode": "7870315",
    "prefecture": "高知県",
    "prefecture_kana": "コウチケン",
    "prefecture_code": 39,
    "city": "土佐清水市",
    "city_kana": "トサシミズシ",
    "town": "足摺岬",
    "town_kana": "アシズリミサキ",
    "street": null,
    "office_name": null,
    "office_name_kana": null
  },
  "0316": {
    "postcode": "7870316",
    "prefecture": "高知県",
    "prefecture_kana": "コウチケン",
    "prefecture_code": 39,
    "city": "土佐清水市",
    "city_kana": "トサシミズシ",
    "town": "松尾",
    "town_kana": "マツオ",
    "street": null,
    "office_name": null,
    "office_name_kana": null
  },
  "0317": {
    "postcode": "7870317",
    "prefecture": "高知県",
    "prefecture_kana": "コウチケン",
    "prefecture_code": 39,
    "city": "土佐清水市",
    "city_kana": "トサシミズシ",
    "town": "大浜",
    "town_kana": "オオハマ",
    "street": null,
    "office_name": null,
    "office_name_kana": null
  },
  "0318": {
    "postcode": "7870318",
    "prefecture": "高知県",
    "prefecture_kana": "コウチケン",
    "prefecture_code": 39,
    "city": "土佐清水市",
    "city_kana": "トサシミズシ",
    "town": "中浜",
    "town_kana": "ナカノハマ",
    "street": null,
    "office_name": null,
    "office_name_kana": null
  },
  "0320": {
    "postcode": "7870320",
    "prefecture": "高知県",
    "prefecture_kana": "コウチケン",
    "prefecture_code": 39,
    "city": "土佐清水市",
    "city_kana": "トサシミズシ",
    "town": "清水",
    "town_kana": "シミズ",
    "street": null,
    "office_name": null,
    "office_name_kana": null
  },
  "0321": {
    "postcode": "7870321",
    "prefecture": "高知県",
    "prefecture_kana": "コウチケン",
    "prefecture_code": 39,
    "city": "土佐清水市",
    "city_kana": "トサシミズシ",
    "town": "浜町",
    "town_kana": "ハママチ",
    "street": null,
    "office_name": null,
    "office_name_kana": null
  },
  "0322": {
    "postcode": "7870322",
    "prefecture": "高知県",
    "prefecture_kana": "コウチケン",
    "prefecture_code": 39,
    "city": "土佐清水市",
    "city_kana": "トサシミズシ",
    "town": "小江町",
    "town_kana": "コエチョウ",
    "street": null,
    "office_name": null,
    "office_name_kana": null
  },
  "0323": {
    "postcode": "7870323",
    "prefecture": "高知県",
    "prefecture_kana": "コウチケン",
    "prefecture_code": 39,
    "city": "土佐清水市",
    "city_kana": "トサシミズシ",
    "town": "寿町",
    "town_kana": "コトブキチョウ",
    "street": null,
    "office_name": null,
    "office_name_kana": null
  },
  "0324": {
    "postcode": "7870324",
    "prefecture": "高知県",
    "prefecture_kana": "コウチケン",
    "prefecture_code": 39,
    "city": "土佐清水市",
    "city_kana": "トサシミズシ",
    "town": "中央町",
    "town_kana": "チュウオウチョウ",
    "street": null,
    "office_name": null,
    "office_name_kana": null
  },
  "0325": {
    "postcode": "7870325",
    "prefecture": "高知県",
    "prefecture_kana": "コウチケン",
    "prefecture_code": 39,
    "city": "土佐清水市",
    "city_kana": "トサシミズシ",
    "town": "栄町",
    "town_kana": "サカエマチ",
    "street": null,
    "office_name": null,
    "office_name_kana": null
  },
  "0326": {
    "postcode": "7870326",
    "prefecture": "高知県",
    "prefecture_kana": "コウチケン",
    "prefecture_code": 39,
    "city": "土佐清水市",
    "city_kana": "トサシミズシ",
    "town": "本町",
    "town_kana": "ホンマチ",
    "street": null,
    "office_name": null,
    "office_name_kana": null
  },
  "0327": {
    "postcode": "7870327",
    "prefecture": "高知県",
    "prefecture_kana": "コウチケン",
    "prefecture_code": 39,
    "city": "土佐清水市",
    "city_kana": "トサシミズシ",
    "town": "市場町",
    "town_kana": "イチバチョウ",
    "street": null,
    "office_name": null,
    "office_name_kana": null
  },
  "0328": {
    "postcode": "7870328",
    "prefecture": "高知県",
    "prefecture_kana": "コウチケン",
    "prefecture_code": 39,
    "city": "土佐清水市",
    "city_kana": "トサシミズシ",
    "town": "戎町",
    "town_kana": "エビスチョウ",
    "street": null,
    "office_name": null,
    "office_name_kana": null
  },
  "0330": {
    "postcode": "7870330",
    "prefecture": "高知県",
    "prefecture_kana": "コウチケン",
    "prefecture_code": 39,
    "city": "土佐清水市",
    "city_kana": "トサシミズシ",
    "town": "清水ヶ丘",
    "town_kana": "シミズガオカ",
    "street": null,
    "office_name": null,
    "office_name_kana": null
  },
  "0331": {
    "postcode": "7870331",
    "prefecture": "高知県",
    "prefecture_kana": "コウチケン",
    "prefecture_code": 39,
    "city": "土佐清水市",
    "city_kana": "トサシミズシ",
    "town": "越前町",
    "town_kana": "エチゼンチョウ",
    "street": null,
    "office_name": null,
    "office_name_kana": null
  },
  "0332": {
    "postcode": "7870332",
    "prefecture": "高知県",
    "prefecture_kana": "コウチケン",
    "prefecture_code": 39,
    "city": "土佐清水市",
    "city_kana": "トサシミズシ",
    "town": "汐見町",
    "town_kana": "シオミチョウ",
    "street": null,
    "office_name": null,
    "office_name_kana": null
  },
  "0333": {
    "postcode": "7870333",
    "prefecture": "高知県",
    "prefecture_kana": "コウチケン",
    "prefecture_code": 39,
    "city": "土佐清水市",
    "city_kana": "トサシミズシ",
    "town": "西町",
    "town_kana": "ニシマチ",
    "street": null,
    "office_name": null,
    "office_name_kana": null
  },
  "0334": {
    "postcode": "7870334",
    "prefecture": "高知県",
    "prefecture_kana": "コウチケン",
    "prefecture_code": 39,
    "city": "土佐清水市",
    "city_kana": "トサシミズシ",
    "town": "加久見入沢町",
    "town_kana": "カグミイリサワチョウ",
    "street": null,
    "office_name": null,
    "office_name_kana": null
  },
  "0335": {
    "postcode": "7870335",
    "prefecture": "高知県",
    "prefecture_kana": "コウチケン",
    "prefecture_code": 39,
    "city": "土佐清水市",
    "city_kana": "トサシミズシ",
    "town": "加久見新町",
    "town_kana": "カグミシンマチ",
    "street": null,
    "office_name": null,
    "office_name_kana": null
  },
  "0336": {
    "postcode": "7870336",
    "prefecture": "高知県",
    "prefecture_kana": "コウチケン",
    "prefecture_code": 39,
    "city": "土佐清水市",
    "city_kana": "トサシミズシ",
    "town": "加久見",
    "town_kana": "カグミ",
    "street": null,
    "office_name": null,
    "office_name_kana": null
  },
  "0337": {
    "postcode": "7870337",
    "prefecture": "高知県",
    "prefecture_kana": "コウチケン",
    "prefecture_code": 39,
    "city": "土佐清水市",
    "city_kana": "トサシミズシ",
    "town": "養老",
    "town_kana": "ヨウロウ",
    "street": null,
    "office_name": null,
    "office_name_kana": null
  },
  "0338": [
    {
      "postcode": "7870338",
      "prefecture": "高知県",
      "prefecture_kana": "コウチケン",
      "prefecture_code": 39,
      "city": "土佐清水市",
      "city_kana": "トサシミズシ",
      "town": "加久見",
      "town_kana": "カグミ",
      "street": null,
      "office_name": null,
      "office_name_kana": null
    },
    {
      "postcode": "7870338",
      "prefecture": "高知県",
      "prefecture_kana": "コウチケン",
      "prefecture_code": 39,
      "city": "土佐清水市",
      "city_kana": "トサシミズシ",
      "town": "加久見松崎",
      "town_kana": "カグミマツザキ",
      "street": null,
      "office_name": null,
      "office_name_kana": null
    }
  ],
  "0339": {
    "postcode": "7870339",
    "prefecture": "高知県",
    "prefecture_kana": "コウチケン",
    "prefecture_code": 39,
    "city": "土佐清水市",
    "city_kana": "トサシミズシ",
    "town": "横道",
    "town_kana": "ヨコミチ",
    "street": null,
    "office_name": null,
    "office_name_kana": null
  },
  "0392": {
    "postcode": "7870392",
    "prefecture": "高知県",
    "prefecture_kana": "コウチケン",
    "prefecture_code": 39,
    "city": "土佐清水市",
    "city_kana": "トサシミズシ",
    "town": "天神町",
    "town_kana": "テンジンマチ",
    "street": "１１−２",
    "office_name": "土佐清水市役所",
    "office_name_kana": "トサシミズシヤクシヨ"
  },
  "0445": {
    "postcode": "7870445",
    "prefecture": "高知県",
    "prefecture_kana": "コウチケン",
    "prefecture_code": 39,
    "city": "土佐清水市",
    "city_kana": "トサシミズシ",
    "town": "下益野",
    "town_kana": "シモマシノ",
    "street": null,
    "office_name": null,
    "office_name_kana": null
  },
  "0446": {
    "postcode": "7870446",
    "prefecture": "高知県",
    "prefecture_kana": "コウチケン",
    "prefecture_code": 39,
    "city": "土佐清水市",
    "city_kana": "トサシミズシ",
    "town": "斧積",
    "town_kana": "オノズミ",
    "street": null,
    "office_name": null,
    "office_name_kana": null
  },
  "0447": {
    "postcode": "7870447",
    "prefecture": "高知県",
    "prefecture_kana": "コウチケン",
    "prefecture_code": 39,
    "city": "土佐清水市",
    "city_kana": "トサシミズシ",
    "town": "上野",
    "town_kana": "ウエノ",
    "street": null,
    "office_name": null,
    "office_name_kana": null
  },
  "0450": {
    "postcode": "7870450",
    "prefecture": "高知県",
    "prefecture_kana": "コウチケン",
    "prefecture_code": 39,
    "city": "土佐清水市",
    "city_kana": "トサシミズシ",
    "town": "三崎",
    "town_kana": "ミサキ",
    "street": null,
    "office_name": null,
    "office_name_kana": null
  },
  "0451": {
    "postcode": "7870451",
    "prefecture": "高知県",
    "prefecture_kana": "コウチケン",
    "prefecture_code": 39,
    "city": "土佐清水市",
    "city_kana": "トサシミズシ",
    "town": "三崎浦",
    "town_kana": "ミサキウラ",
    "street": null,
    "office_name": null,
    "office_name_kana": null
  },
  "0452": {
    "postcode": "7870452",
    "prefecture": "高知県",
    "prefecture_kana": "コウチケン",
    "prefecture_code": 39,
    "city": "土佐清水市",
    "city_kana": "トサシミズシ",
    "town": "竜串",
    "town_kana": "タツクシ",
    "street": null,
    "office_name": null,
    "office_name_kana": null
  },
  "0453": {
    "postcode": "7870453",
    "prefecture": "高知県",
    "prefecture_kana": "コウチケン",
    "prefecture_code": 39,
    "city": "土佐清水市",
    "city_kana": "トサシミズシ",
    "town": "爪白",
    "town_kana": "ツマジロ",
    "street": null,
    "office_name": null,
    "office_name_kana": null
  },
  "0556": {
    "postcode": "7870556",
    "prefecture": "高知県",
    "prefecture_kana": "コウチケン",
    "prefecture_code": 39,
    "city": "土佐清水市",
    "city_kana": "トサシミズシ",
    "town": "有永",
    "town_kana": "アリナガ",
    "street": null,
    "office_name": null,
    "office_name_kana": null
  },
  "0557": {
    "postcode": "7870557",
    "prefecture": "高知県",
    "prefecture_kana": "コウチケン",
    "prefecture_code": 39,
    "city": "土佐清水市",
    "city_kana": "トサシミズシ",
    "town": "宗呂乙",
    "town_kana": "ソウロオツ",
    "street": null,
    "office_name": null,
    "office_name_kana": null
  },
  "0558": {
    "postcode": "7870558",
    "prefecture": "高知県",
    "prefecture_kana": "コウチケン",
    "prefecture_code": 39,
    "city": "土佐清水市",
    "city_kana": "トサシミズシ",
    "town": "宗呂丙",
    "town_kana": "ソウロヘイ",
    "street": null,
    "office_name": null,
    "office_name_kana": null
  },
  "0559": {
    "postcode": "7870559",
    "prefecture": "高知県",
    "prefecture_kana": "コウチケン",
    "prefecture_code": 39,
    "city": "土佐清水市",
    "city_kana": "トサシミズシ",
    "town": "下川口",
    "town_kana": "シモカワグチ",
    "street": null,
    "office_name": null,
    "office_name_kana": null
  },
  "0560": {
    "postcode": "7870560",
    "prefecture": "高知県",
    "prefecture_kana": "コウチケン",
    "prefecture_code": 39,
    "city": "土佐清水市",
    "city_kana": "トサシミズシ",
    "town": "片粕",
    "town_kana": "カタカス",
    "street": null,
    "office_name": null,
    "office_name_kana": null
  },
  "0561": {
    "postcode": "7870561",
    "prefecture": "高知県",
    "prefecture_kana": "コウチケン",
    "prefecture_code": 39,
    "city": "土佐清水市",
    "city_kana": "トサシミズシ",
    "town": "貝ノ川",
    "town_kana": "カイノカワ",
    "street": null,
    "office_name": null,
    "office_name_kana": null
  },
  "0562": {
    "postcode": "7870562",
    "prefecture": "高知県",
    "prefecture_kana": "コウチケン",
    "prefecture_code": 39,
    "city": "土佐清水市",
    "city_kana": "トサシミズシ",
    "town": "大津",
    "town_kana": "オオツ",
    "street": null,
    "office_name": null,
    "office_name_kana": null
  },
  "0563": {
    "postcode": "7870563",
    "prefecture": "高知県",
    "prefecture_kana": "コウチケン",
    "prefecture_code": 39,
    "city": "土佐清水市",
    "city_kana": "トサシミズシ",
    "town": "宗呂甲",
    "town_kana": "ソウロコウ",
    "street": null,
    "office_name": null,
    "office_name_kana": null
  },
  "0665": {
    "postcode": "7870665",
    "prefecture": "高知県",
    "prefecture_kana": "コウチケン",
    "prefecture_code": 39,
    "city": "四万十市",
    "city_kana": "シマントシ",
    "town": "森沢",
    "town_kana": "モリサワ",
    "street": null,
    "office_name": null,
    "office_name_kana": null
  },
  "0666": {
    "postcode": "7870666",
    "prefecture": "高知県",
    "prefecture_kana": "コウチケン",
    "prefecture_code": 39,
    "city": "四万十市",
    "city_kana": "シマントシ",
    "town": "楠島",
    "town_kana": "クスシマ",
    "street": null,
    "office_name": null,
    "office_name_kana": null
  },
  "0667": {
    "postcode": "7870667",
    "prefecture": "高知県",
    "prefecture_kana": "コウチケン",
    "prefecture_code": 39,
    "city": "四万十市",
    "city_kana": "シマントシ",
    "town": "国見",
    "town_kana": "クニミ",
    "street": null,
    "office_name": null,
    "office_name_kana": null
  },
  "0668": {
    "postcode": "7870668",
    "prefecture": "高知県",
    "prefecture_kana": "コウチケン",
    "prefecture_code": 39,
    "city": "四万十市",
    "city_kana": "シマントシ",
    "town": "荒川",
    "town_kana": "アラカワ",
    "street": null,
    "office_name": null,
    "office_name_kana": null
  },
  "0669": {
    "postcode": "7870669",
    "prefecture": "高知県",
    "prefecture_kana": "コウチケン",
    "prefecture_code": 39,
    "city": "四万十市",
    "city_kana": "シマントシ",
    "town": "江ノ村",
    "town_kana": "エノムラ",
    "street": null,
    "office_name": null,
    "office_name_kana": null
  },
  "0771": {
    "postcode": "7870771",
    "prefecture": "高知県",
    "prefecture_kana": "コウチケン",
    "prefecture_code": 39,
    "city": "四万十市",
    "city_kana": "シマントシ",
    "town": "有岡",
    "town_kana": "アリオカ",
    "street": null,
    "office_name": null,
    "office_name_kana": null
  },
  "0772": {
    "postcode": "7870772",
    "prefecture": "高知県",
    "prefecture_kana": "コウチケン",
    "prefecture_code": 39,
    "city": "四万十市",
    "city_kana": "シマントシ",
    "town": "横瀬",
    "town_kana": "ヨコゼ",
    "street": null,
    "office_name": null,
    "office_name_kana": null
  },
  "0773": {
    "postcode": "7870773",
    "prefecture": "高知県",
    "prefecture_kana": "コウチケン",
    "prefecture_code": 39,
    "city": "四万十市",
    "city_kana": "シマントシ",
    "town": "磯ノ川",
    "town_kana": "イソノカワ",
    "street": null,
    "office_name": null,
    "office_name_kana": null
  },
  "0774": {
    "postcode": "7870774",
    "prefecture": "高知県",
    "prefecture_kana": "コウチケン",
    "prefecture_code": 39,
    "city": "四万十市",
    "city_kana": "シマントシ",
    "town": "生ノ川",
    "town_kana": "オイノカワ",
    "street": null,
    "office_name": null,
    "office_name_kana": null
  },
  "0775": {
    "postcode": "7870775",
    "prefecture": "高知県",
    "prefecture_kana": "コウチケン",
    "prefecture_code": 39,
    "city": "四万十市",
    "city_kana": "シマントシ",
    "town": "九樹",
    "town_kana": "クジュウ",
    "street": null,
    "office_name": null,
    "office_name_kana": null
  },
  "0776": {
    "postcode": "7870776",
    "prefecture": "高知県",
    "prefecture_kana": "コウチケン",
    "prefecture_code": 39,
    "city": "四万十市",
    "city_kana": "シマントシ",
    "town": "上ノ土居",
    "town_kana": "カミノドイ",
    "street": null,
    "office_name": null,
    "office_name_kana": null
  },
  "0800": {
    "postcode": "7870800",
    "prefecture": "高知県",
    "prefecture_kana": "コウチケン",
    "prefecture_code": 39,
    "city": "幡多郡三原村",
    "city_kana": "ハタグンミハラムラ",
    "town": "",
    "town_kana": "",
    "street": null,
    "office_name": null,
    "office_name_kana": null
  },
  "0801": {
    "postcode": "7870801",
    "prefecture": "高知県",
    "prefecture_kana": "コウチケン",
    "prefecture_code": 39,
    "city": "幡多郡三原村",
    "city_kana": "ハタグンミハラムラ",
    "town": "柚ノ木",
    "town_kana": "ユノキ",
    "street": null,
    "office_name": null,
    "office_name_kana": null
  },
  "0802": {
    "postcode": "7870802",
    "prefecture": "高知県",
    "prefecture_kana": "コウチケン",
    "prefecture_code": 39,
    "city": "幡多郡三原村",
    "city_kana": "ハタグンミハラムラ",
    "town": "宮ノ川",
    "town_kana": "ミヤノカワ",
    "street": null,
    "office_name": null,
    "office_name_kana": null
  },
  "0803": {
    "postcode": "7870803",
    "prefecture": "高知県",
    "prefecture_kana": "コウチケン",
    "prefecture_code": 39,
    "city": "幡多郡三原村",
    "city_kana": "ハタグンミハラムラ",
    "town": "来栖野",
    "town_kana": "クルスノ",
    "street": null,
    "office_name": null,
    "office_name_kana": null
  },
  "0804": {
    "postcode": "7870804",
    "prefecture": "高知県",
    "prefecture_kana": "コウチケン",
    "prefecture_code": 39,
    "city": "幡多郡三原村",
    "city_kana": "ハタグンミハラムラ",
    "town": "上下長谷",
    "town_kana": "カミシモナガタニ",
    "street": null,
    "office_name": null,
    "office_name_kana": null
  },
  "0805": {
    "postcode": "7870805",
    "prefecture": "高知県",
    "prefecture_kana": "コウチケン",
    "prefecture_code": 39,
    "city": "幡多郡三原村",
    "city_kana": "ハタグンミハラムラ",
    "town": "上長谷",
    "town_kana": "カミナガタニ",
    "street": null,
    "office_name": null,
    "office_name_kana": null
  },
  "0806": {
    "postcode": "7870806",
    "prefecture": "高知県",
    "prefecture_kana": "コウチケン",
    "prefecture_code": 39,
    "city": "幡多郡三原村",
    "city_kana": "ハタグンミハラムラ",
    "town": "狼内",
    "town_kana": "オオカミウチ",
    "street": null,
    "office_name": null,
    "office_name_kana": null
  },
  "0807": {
    "postcode": "7870807",
    "prefecture": "高知県",
    "prefecture_kana": "コウチケン",
    "prefecture_code": 39,
    "city": "幡多郡三原村",
    "city_kana": "ハタグンミハラムラ",
    "town": "成山",
    "town_kana": "ナルヤマ",
    "street": null,
    "office_name": null,
    "office_name_kana": null
  },
  "0811": {
    "postcode": "7870811",
    "prefecture": "高知県",
    "prefecture_kana": "コウチケン",
    "prefecture_code": 39,
    "city": "幡多郡三原村",
    "city_kana": "ハタグンミハラムラ",
    "town": "芳井",
    "town_kana": "ヨシイ",
    "street": null,
    "office_name": null,
    "office_name_kana": null
  },
  "0812": {
    "postcode": "7870812",
    "prefecture": "高知県",
    "prefecture_kana": "コウチケン",
    "prefecture_code": 39,
    "city": "幡多郡三原村",
    "city_kana": "ハタグンミハラムラ",
    "town": "下長谷",
    "town_kana": "シモナガタニ",
    "street": null,
    "office_name": null,
    "office_name_kana": null
  },
  "0813": {
    "postcode": "7870813",
    "prefecture": "高知県",
    "prefecture_kana": "コウチケン",
    "prefecture_code": 39,
    "city": "幡多郡三原村",
    "city_kana": "ハタグンミハラムラ",
    "town": "皆尾",
    "town_kana": "ミナオ",
    "street": null,
    "office_name": null,
    "office_name_kana": null
  },
  "0814": {
    "postcode": "7870814",
    "prefecture": "高知県",
    "prefecture_kana": "コウチケン",
    "prefecture_code": 39,
    "city": "幡多郡三原村",
    "city_kana": "ハタグンミハラムラ",
    "town": "広野",
    "town_kana": "ヒロノ",
    "street": null,
    "office_name": null,
    "office_name_kana": null
  },
  "0815": {
    "postcode": "7870815",
    "prefecture": "高知県",
    "prefecture_kana": "コウチケン",
    "prefecture_code": 39,
    "city": "幡多郡三原村",
    "city_kana": "ハタグンミハラムラ",
    "town": "亀ノ川",
    "town_kana": "カメノカワ",
    "street": null,
    "office_name": null,
    "office_name_kana": null
  },
  "0816": {
    "postcode": "7870816",
    "prefecture": "高知県",
    "prefecture_kana": "コウチケン",
    "prefecture_code": 39,
    "city": "幡多郡三原村",
    "city_kana": "ハタグンミハラムラ",
    "town": "下切",
    "town_kana": "シタギリ",
    "street": null,
    "office_name": null,
    "office_name_kana": null
  },
  "0892": {
    "postcode": "7870892",
    "prefecture": "高知県",
    "prefecture_kana": "コウチケン",
    "prefecture_code": 39,
    "city": "幡多郡三原村",
    "city_kana": "ハタグンミハラムラ",
    "town": "大字来栖野",
    "town_kana": null,
    "street": "３４６",
    "office_name": "三原村役場",
    "office_name_kana": "ミハラムラヤクバ"
  },
  "1101": {
    "postcode": "7871101",
    "prefecture": "高知県",
    "prefecture_kana": "コウチケン",
    "prefecture_code": 39,
    "city": "四万十市",
    "city_kana": "シマントシ",
    "town": "奥鴨川",
    "town_kana": "オクカモガワ",
    "street": null,
    "office_name": null,
    "office_name_kana": null
  },
  "1102": {
    "postcode": "7871102",
    "prefecture": "高知県",
    "prefecture_kana": "コウチケン",
    "prefecture_code": 39,
    "city": "四万十市",
    "city_kana": "シマントシ",
    "town": "口鴨川",
    "town_kana": "クチカモガワ",
    "street": null,
    "office_name": null,
    "office_name_kana": null
  },
  "1103": {
    "postcode": "7871103",
    "prefecture": "高知県",
    "prefecture_kana": "コウチケン",
    "prefecture_code": 39,
    "city": "四万十市",
    "city_kana": "シマントシ",
    "town": "板ノ川",
    "town_kana": "イタノカワ",
    "street": null,
    "office_name": null,
    "office_name_kana": null
  },
  "1104": {
    "postcode": "7871104",
    "prefecture": "高知県",
    "prefecture_kana": "コウチケン",
    "prefecture_code": 39,
    "city": "四万十市",
    "city_kana": "シマントシ",
    "town": "若藤",
    "town_kana": "ワカフジ",
    "street": null,
    "office_name": null,
    "office_name_kana": null
  },
  "1105": {
    "postcode": "7871105",
    "prefecture": "高知県",
    "prefecture_kana": "コウチケン",
    "prefecture_code": 39,
    "city": "四万十市",
    "city_kana": "シマントシ",
    "town": "利岡",
    "town_kana": "トシオカ",
    "street": null,
    "office_name": null,
    "office_name_kana": null
  },
  "1106": {
    "postcode": "7871106",
    "prefecture": "高知県",
    "prefecture_kana": "コウチケン",
    "prefecture_code": 39,
    "city": "四万十市",
    "city_kana": "シマントシ",
    "town": "佐田",
    "town_kana": "サダ",
    "street": null,
    "office_name": null,
    "office_name_kana": null
  },
  "1107": [
    {
      "postcode": "7871107",
      "prefecture": "高知県",
      "prefecture_kana": "コウチケン",
      "prefecture_code": 39,
      "city": "四万十市",
      "city_kana": "シマントシ",
      "town": "岩田",
      "town_kana": "イワタ",
      "street": null,
      "office_name": null,
      "office_name_kana": null
    },
    {
      "postcode": "7871107",
      "prefecture": "高知県",
      "prefecture_kana": "コウチケン",
      "prefecture_code": 39,
      "city": "四万十市",
      "city_kana": "シマントシ",
      "town": "中村",
      "town_kana": "ナカムラ",
      "street": null,
      "office_name": null,
      "office_name_kana": null
    },
    {
      "postcode": "7871107",
      "prefecture": "高知県",
      "prefecture_kana": "コウチケン",
      "prefecture_code": 39,
      "city": "四万十市",
      "city_kana": "シマントシ",
      "town": "中村大用寺",
      "town_kana": "ナカムラダイヨウジ",
      "street": null,
      "office_name": null,
      "office_name_kana": null
    }
  ],
  "1108": {
    "postcode": "7871108",
    "prefecture": "高知県",
    "prefecture_kana": "コウチケン",
    "prefecture_code": 39,
    "city": "四万十市",
    "city_kana": "シマントシ",
    "town": "敷地",
    "town_kana": "シキジ",
    "street": null,
    "office_name": null,
    "office_name_kana": null
  },
  "1109": {
    "postcode": "7871109",
    "prefecture": "高知県",
    "prefecture_kana": "コウチケン",
    "prefecture_code": 39,
    "city": "四万十市",
    "city_kana": "シマントシ",
    "town": "田野川",
    "town_kana": "タノカワ",
    "street": null,
    "office_name": null,
    "office_name_kana": null
  },
  "1220": {
    "postcode": "7871220",
    "prefecture": "高知県",
    "prefecture_kana": "コウチケン",
    "prefecture_code": 39,
    "city": "四万十市",
    "city_kana": "シマントシ",
    "town": "川登",
    "town_kana": "カワノボリ",
    "street": null,
    "office_name": null,
    "office_name_kana": null
  },
  "1221": {
    "postcode": "7871221",
    "prefecture": "高知県",
    "prefecture_kana": "コウチケン",
    "prefecture_code": 39,
    "city": "四万十市",
    "city_kana": "シマントシ",
    "town": "三里",
    "town_kana": "ミサト",
    "street": null,
    "office_name": null,
    "office_name_kana": null
  },
  "1222": {
    "postcode": "7871222",
    "prefecture": "高知県",
    "prefecture_kana": "コウチケン",
    "prefecture_code": 39,
    "city": "四万十市",
    "city_kana": "シマントシ",
    "town": "手洗川",
    "town_kana": "タライガワ",
    "street": null,
    "office_name": null,
    "office_name_kana": null
  },
  "1223": {
    "postcode": "7871223",
    "prefecture": "高知県",
    "prefecture_kana": "コウチケン",
    "prefecture_code": 39,
    "city": "四万十市",
    "city_kana": "シマントシ",
    "town": "勝間",
    "town_kana": "カツマ",
    "street": null,
    "office_name": null,
    "office_name_kana": null
  },
  "1224": {
    "postcode": "7871224",
    "prefecture": "高知県",
    "prefecture_kana": "コウチケン",
    "prefecture_code": 39,
    "city": "四万十市",
    "city_kana": "シマントシ",
    "town": "勝間",
    "town_kana": "カツマ",
    "street": null,
    "office_name": null,
    "office_name_kana": null
  },
  "1225": {
    "postcode": "7871225",
    "prefecture": "高知県",
    "prefecture_kana": "コウチケン",
    "prefecture_code": 39,
    "city": "四万十市",
    "city_kana": "シマントシ",
    "town": "久保川",
    "town_kana": "クボカワ",
    "street": null,
    "office_name": null,
    "office_name_kana": null
  },
  "1226": {
    "postcode": "7871226",
    "prefecture": "高知県",
    "prefecture_kana": "コウチケン",
    "prefecture_code": 39,
    "city": "四万十市",
    "city_kana": "シマントシ",
    "town": "鵜ノ江",
    "town_kana": "ウノエ",
    "street": null,
    "office_name": null,
    "office_name_kana": null
  },
  "1227": {
    "postcode": "7871227",
    "prefecture": "高知県",
    "prefecture_kana": "コウチケン",
    "prefecture_code": 39,
    "city": "四万十市",
    "city_kana": "シマントシ",
    "town": "楠",
    "town_kana": "クス",
    "street": null,
    "office_name": null,
    "office_name_kana": null
  },
  "1228": {
    "postcode": "7871228",
    "prefecture": "高知県",
    "prefecture_kana": "コウチケン",
    "prefecture_code": 39,
    "city": "四万十市",
    "city_kana": "シマントシ",
    "town": "高瀬",
    "town_kana": "タカセ",
    "street": null,
    "office_name": null,
    "office_name_kana": null
  },
  "1229": {
    "postcode": "7871229",
    "prefecture": "高知県",
    "prefecture_kana": "コウチケン",
    "prefecture_code": 39,
    "city": "四万十市",
    "city_kana": "シマントシ",
    "town": "田出ノ川",
    "town_kana": "タデノカワ",
    "street": null,
    "office_name": null,
    "office_name_kana": null
  },
  "1321": {
    "postcode": "7871321",
    "prefecture": "高知県",
    "prefecture_kana": "コウチケン",
    "prefecture_code": 39,
    "city": "四万十市",
    "city_kana": "シマントシ",
    "town": "西土佐岩間",
    "town_kana": "ニシトサイワマ",
    "street": null,
    "office_name": null,
    "office_name_kana": null
  },
  "1322": {
    "postcode": "7871322",
    "prefecture": "高知県",
    "prefecture_kana": "コウチケン",
    "prefecture_code": 39,
    "city": "四万十市",
    "city_kana": "シマントシ",
    "town": "西土佐茅生",
    "town_kana": "ニシトサカヨウ",
    "street": null,
    "office_name": null,
    "office_name_kana": null
  },
  "1323": {
    "postcode": "7871323",
    "prefecture": "高知県",
    "prefecture_kana": "コウチケン",
    "prefecture_code": 39,
    "city": "四万十市",
    "city_kana": "シマントシ",
    "town": "西土佐中半",
    "town_kana": "ニシトサナカバ",
    "street": null,
    "office_name": null,
    "office_name_kana": null
  },
  "1324": {
    "postcode": "7871324",
    "prefecture": "高知県",
    "prefecture_kana": "コウチケン",
    "prefecture_code": 39,
    "city": "四万十市",
    "city_kana": "シマントシ",
    "town": "西土佐口屋内",
    "town_kana": "ニシトサクチヤナイ",
    "street": null,
    "office_name": null,
    "office_name_kana": null
  },
  "1325": {
    "postcode": "7871325",
    "prefecture": "高知県",
    "prefecture_kana": "コウチケン",
    "prefecture_code": 39,
    "city": "四万十市",
    "city_kana": "シマントシ",
    "town": "西土佐玖木",
    "town_kana": "ニシトサクキ",
    "street": null,
    "office_name": null,
    "office_name_kana": null
  },
  "1326": {
    "postcode": "7871326",
    "prefecture": "高知県",
    "prefecture_kana": "コウチケン",
    "prefecture_code": 39,
    "city": "四万十市",
    "city_kana": "シマントシ",
    "town": "西土佐奥屋内",
    "town_kana": "ニシトサオクヤナイ",
    "street": null,
    "office_name": null,
    "office_name_kana": null
  },
  "1441": {
    "postcode": "7871441",
    "prefecture": "高知県",
    "prefecture_kana": "コウチケン",
    "prefecture_code": 39,
    "city": "四万十市",
    "city_kana": "シマントシ",
    "town": "伊才原",
    "town_kana": "イサイバラ",
    "street": null,
    "office_name": null,
    "office_name_kana": null
  },
  "1442": {
    "postcode": "7871442",
    "prefecture": "高知県",
    "prefecture_kana": "コウチケン",
    "prefecture_code": 39,
    "city": "四万十市",
    "city_kana": "シマントシ",
    "town": "蕨岡甲",
    "town_kana": "ワラビオカコウ",
    "street": null,
    "office_name": null,
    "office_name_kana": null
  },
  "1443": {
    "postcode": "7871443",
    "prefecture": "高知県",
    "prefecture_kana": "コウチケン",
    "prefecture_code": 39,
    "city": "四万十市",
    "city_kana": "シマントシ",
    "town": "蕨岡乙",
    "town_kana": "ワラビオカオツ",
    "street": null,
    "office_name": null,
    "office_name_kana": null
  },
  "1444": {
    "postcode": "7871444",
    "prefecture": "高知県",
    "prefecture_kana": "コウチケン",
    "prefecture_code": 39,
    "city": "四万十市",
    "city_kana": "シマントシ",
    "town": "藤",
    "town_kana": "フジ",
    "street": null,
    "office_name": null,
    "office_name_kana": null
  },
  "1550": {
    "postcode": "7871550",
    "prefecture": "高知県",
    "prefecture_kana": "コウチケン",
    "prefecture_code": 39,
    "city": "四万十市",
    "city_kana": "シマントシ",
    "town": "大用",
    "town_kana": "オオユウ",
    "street": null,
    "office_name": null,
    "office_name_kana": null
  },
  "1551": {
    "postcode": "7871551",
    "prefecture": "高知県",
    "prefecture_kana": "コウチケン",
    "prefecture_code": 39,
    "city": "四万十市",
    "city_kana": "シマントシ",
    "town": "住次郎",
    "town_kana": "ジュウジロウ",
    "street": null,
    "office_name": null,
    "office_name_kana": null
  },
  "1552": {
    "postcode": "7871552",
    "prefecture": "高知県",
    "prefecture_kana": "コウチケン",
    "prefecture_code": 39,
    "city": "四万十市",
    "city_kana": "シマントシ",
    "town": "片魚",
    "town_kana": "カタウオ",
    "street": null,
    "office_name": null,
    "office_name_kana": null
  },
  "1553": {
    "postcode": "7871553",
    "prefecture": "高知県",
    "prefecture_kana": "コウチケン",
    "prefecture_code": 39,
    "city": "四万十市",
    "city_kana": "シマントシ",
    "town": "大屋敷",
    "town_kana": "オオヤシキ",
    "street": null,
    "office_name": null,
    "office_name_kana": null
  },
  "1554": {
    "postcode": "7871554",
    "prefecture": "高知県",
    "prefecture_kana": "コウチケン",
    "prefecture_code": 39,
    "city": "四万十市",
    "city_kana": "シマントシ",
    "town": "常六",
    "town_kana": "ジョウロク",
    "street": null,
    "office_name": null,
    "office_name_kana": null
  },
  "1555": {
    "postcode": "7871555",
    "prefecture": "高知県",
    "prefecture_kana": "コウチケン",
    "prefecture_code": 39,
    "city": "四万十市",
    "city_kana": "シマントシ",
    "town": "三ツ又",
    "town_kana": "ミツマタ",
    "street": null,
    "office_name": null,
    "office_name_kana": null
  },
  "1556": {
    "postcode": "7871556",
    "prefecture": "高知県",
    "prefecture_kana": "コウチケン",
    "prefecture_code": 39,
    "city": "四万十市",
    "city_kana": "シマントシ",
    "town": "小西ノ川",
    "town_kana": "コニシノカワ",
    "street": null,
    "office_name": null,
    "office_name_kana": null
  },
  "1557": {
    "postcode": "7871557",
    "prefecture": "高知県",
    "prefecture_kana": "コウチケン",
    "prefecture_code": 39,
    "city": "四万十市",
    "city_kana": "シマントシ",
    "town": "大西ノ川",
    "town_kana": "オオニシノカワ",
    "street": null,
    "office_name": null,
    "office_name_kana": null
  },
  "1558": {
    "postcode": "7871558",
    "prefecture": "高知県",
    "prefecture_kana": "コウチケン",
    "prefecture_code": 39,
    "city": "四万十市",
    "city_kana": "シマントシ",
    "town": "古尾",
    "town_kana": "コビ",
    "street": null,
    "office_name": null,
    "office_name_kana": null
  },
  "1559": {
    "postcode": "7871559",
    "prefecture": "高知県",
    "prefecture_kana": "コウチケン",
    "prefecture_code": 39,
    "city": "四万十市",
    "city_kana": "シマントシ",
    "town": "竹屋敷",
    "town_kana": "タケヤシキ",
    "street": null,
    "office_name": null,
    "office_name_kana": null
  },
  "1601": {
    "postcode": "7871601",
    "prefecture": "高知県",
    "prefecture_kana": "コウチケン",
    "prefecture_code": 39,
    "city": "四万十市",
    "city_kana": "シマントシ",
    "town": "西土佐江川崎",
    "town_kana": "ニシトサエカワサキ",
    "street": null,
    "office_name": null,
    "office_name_kana": null
  },
  "1602": {
    "postcode": "7871602",
    "prefecture": "高知県",
    "prefecture_kana": "コウチケン",
    "prefecture_code": 39,
    "city": "四万十市",
    "city_kana": "シマントシ",
    "town": "西土佐西ケ方",
    "town_kana": "ニシトサニシガホウ",
    "street": null,
    "office_name": null,
    "office_name_kana": null
  },
  "1603": {
    "postcode": "7871603",
    "prefecture": "高知県",
    "prefecture_kana": "コウチケン",
    "prefecture_code": 39,
    "city": "四万十市",
    "city_kana": "シマントシ",
    "town": "西土佐用井",
    "town_kana": "ニシトサモチイ",
    "street": null,
    "office_name": null,
    "office_name_kana": null
  },
  "1604": {
    "postcode": "7871604",
    "prefecture": "高知県",
    "prefecture_kana": "コウチケン",
    "prefecture_code": 39,
    "city": "四万十市",
    "city_kana": "シマントシ",
    "town": "西土佐藤ノ川",
    "town_kana": "ニシトサフジノカワ",
    "street": null,
    "office_name": null,
    "office_name_kana": null
  },
  "1605": {
    "postcode": "7871605",
    "prefecture": "高知県",
    "prefecture_kana": "コウチケン",
    "prefecture_code": 39,
    "city": "四万十市",
    "city_kana": "シマントシ",
    "town": "西土佐長生",
    "town_kana": "ニシトサナガオイ",
    "street": null,
    "office_name": null,
    "office_name_kana": null
  },
  "1606": {
    "postcode": "7871606",
    "prefecture": "高知県",
    "prefecture_kana": "コウチケン",
    "prefecture_code": 39,
    "city": "四万十市",
    "city_kana": "シマントシ",
    "town": "西土佐半家",
    "town_kana": "ニシトサハゲ",
    "street": null,
    "office_name": null,
    "office_name_kana": null
  },
  "1607": {
    "postcode": "7871607",
    "prefecture": "高知県",
    "prefecture_kana": "コウチケン",
    "prefecture_code": 39,
    "city": "四万十市",
    "city_kana": "シマントシ",
    "town": "西土佐江川",
    "town_kana": "ニシトサエカワ",
    "street": null,
    "office_name": null,
    "office_name_kana": null
  },
  "1611": {
    "postcode": "7871611",
    "prefecture": "高知県",
    "prefecture_kana": "コウチケン",
    "prefecture_code": 39,
    "city": "四万十市",
    "city_kana": "シマントシ",
    "town": "西土佐橘",
    "town_kana": "ニシトサタチバナ",
    "street": null,
    "office_name": null,
    "office_name_kana": null
  },
  "1612": {
    "postcode": "7871612",
    "prefecture": "高知県",
    "prefecture_kana": "コウチケン",
    "prefecture_code": 39,
    "city": "四万十市",
    "city_kana": "シマントシ",
    "town": "西土佐津野川",
    "town_kana": "ニシトサツノカワ",
    "street": null,
    "office_name": null,
    "office_name_kana": null
  },
  "1613": {
    "postcode": "7871613",
    "prefecture": "高知県",
    "prefecture_kana": "コウチケン",
    "prefecture_code": 39,
    "city": "四万十市",
    "city_kana": "シマントシ",
    "town": "西土佐津賀",
    "town_kana": "ニシトサツガ",
    "street": null,
    "office_name": null,
    "office_name_kana": null
  },
  "1614": {
    "postcode": "7871614",
    "prefecture": "高知県",
    "prefecture_kana": "コウチケン",
    "prefecture_code": 39,
    "city": "四万十市",
    "city_kana": "シマントシ",
    "town": "西土佐薮ケ市",
    "town_kana": "ニシトサヤブガイチ",
    "street": null,
    "office_name": null,
    "office_name_kana": null
  },
  "1615": {
    "postcode": "7871615",
    "prefecture": "高知県",
    "prefecture_kana": "コウチケン",
    "prefecture_code": 39,
    "city": "四万十市",
    "city_kana": "シマントシ",
    "town": "西土佐大宮",
    "town_kana": "ニシトサオオミヤ",
    "street": null,
    "office_name": null,
    "office_name_kana": null
  },
  "1616": {
    "postcode": "7871616",
    "prefecture": "高知県",
    "prefecture_kana": "コウチケン",
    "prefecture_code": 39,
    "city": "四万十市",
    "city_kana": "シマントシ",
    "town": "西土佐須崎",
    "town_kana": "ニシトサスサキ",
    "street": null,
    "office_name": null,
    "office_name_kana": null
  },
  "1617": {
    "postcode": "7871617",
    "prefecture": "高知県",
    "prefecture_kana": "コウチケン",
    "prefecture_code": 39,
    "city": "四万十市",
    "city_kana": "シマントシ",
    "town": "西土佐下家地",
    "town_kana": "ニシトサシモイエジ",
    "street": null,
    "office_name": null,
    "office_name_kana": null
  },
  "1618": {
    "postcode": "7871618",
    "prefecture": "高知県",
    "prefecture_kana": "コウチケン",
    "prefecture_code": 39,
    "city": "四万十市",
    "city_kana": "シマントシ",
    "town": "西土佐中家地",
    "town_kana": "ニシトサナカイエジ",
    "street": null,
    "office_name": null,
    "office_name_kana": null
  },
  "8501": {
    "postcode": "7878501",
    "prefecture": "高知県",
    "prefecture_kana": "コウチケン",
    "prefecture_code": 39,
    "city": "四万十市",
    "city_kana": "シマントシ",
    "town": "中村大橋通",
    "town_kana": "ナカムラオオハシドオリ",
    "street": "４丁目１０",
    "office_name": "四万十市役所",
    "office_name_kana": "シマントシヤクシヨ"
  }
}