{
  "0000": {
    "postcode": "7880000",
    "prefecture": "高知県",
    "prefecture_kana": "コウチケン",
    "prefecture_code": 39,
    "city": "宿毛市",
    "city_kana": "スクモシ",
    "town": "",
    "town_kana": "",
    "street": null,
    "office_name": null,
    "office_name_kana": null
  },
  "0001": {
    "postcode": "7880001",
    "prefecture": "高知県",
    "prefecture_kana": "コウチケン",
    "prefecture_code": 39,
    "city": "宿毛市",
    "city_kana": "スクモシ",
    "town": "中央",
    "town_kana": "チュウオウ",
    "street": null,
    "office_name": null,
    "office_name_kana": null
  },
  "0002": {
    "postcode": "7880002",
    "prefecture": "高知県",
    "prefecture_kana": "コウチケン",
    "prefecture_code": 39,
    "city": "宿毛市",
    "city_kana": "スクモシ",
    "town": "南沖須賀",
    "town_kana": "ミナミオキスガ",
    "street": null,
    "office_name": null,
    "office_name_kana": null
  },
  "0003": {
    "postcode": "7880003",
    "prefecture": "高知県",
    "prefecture_kana": "コウチケン",
    "prefecture_code": 39,
    "city": "宿毛市",
    "city_kana": "スクモシ",
    "town": "幸町",
    "town_kana": "サイワイチョウ",
    "street": null,
    "office_name": null,
    "office_name_kana": null
  },
  "0004": {
    "postcode": "7880004",
    "prefecture": "高知県",
    "prefecture_kana": "コウチケン",
    "prefecture_code": 39,
    "city": "宿毛市",
    "city_kana": "スクモシ",
    "town": "長田町",
    "town_kana": "ナガタチョウ",
    "street": null,
    "office_name": null,
    "office_name_kana": null
  },
  "0005": {
    "postcode": "7880005",
    "prefecture": "高知県",
    "prefecture_kana": "コウチケン",
    "prefecture_code": 39,
    "city": "宿毛市",
    "city_kana": "スクモシ",
    "town": "萩原",
    "town_kana": "ハギワラ",
    "street": null,
    "office_name": null,
    "office_name_kana": null
  },
  "0006": {
    "postcode": "7880006",
    "prefecture": "高知県",
    "prefecture_kana": "コウチケン",
    "prefecture_code": 39,
    "city": "宿毛市",
    "city_kana": "スクモシ",
    "town": "桜町",
    "town_kana": "サクラマチ",
    "street": null,
    "office_name": null,
    "office_name_kana": null
  },
  "0007": {
    "postcode": "7880007",
    "prefecture": "高知県",
    "prefecture_kana": "コウチケン",
    "prefecture_code": 39,
    "city": "宿毛市",
    "city_kana": "スクモシ",
    "town": "松田町",
    "town_kana": "マツダマチ",
    "street": null,
    "office_name": null,
    "office_name_kana": null
  },
  "0008": {
    "postcode": "7880008",
    "prefecture": "高知県",
    "prefecture_kana": "コウチケン",
    "prefecture_code": 39,
    "city": "宿毛市",
    "city_kana": "スクモシ",
    "town": "与市明",
    "town_kana": "ヨイチミョウ",
    "street": null,
    "office_name": null,
    "office_name_kana": null
  },
  "0009": {
    "postcode": "7880009",
    "prefecture": "高知県",
    "prefecture_kana": "コウチケン",
    "prefecture_code": 39,
    "city": "宿毛市",
    "city_kana": "スクモシ",
    "town": "駅東町",
    "town_kana": "エキヒガシマチ",
    "street": null,
    "office_name": null,
    "office_name_kana": null
  },
  "0010": {
    "postcode": "7880010",
    "prefecture": "高知県",
    "prefecture_kana": "コウチケン",
    "prefecture_code": 39,
    "city": "宿毛市",
    "city_kana": "スクモシ",
    "town": "駅前町",
    "town_kana": "エキマエチョウ",
    "street": null,
    "office_name": null,
    "office_name_kana": null
  },
  "0011": {
    "postcode": "7880011",
    "prefecture": "高知県",
    "prefecture_kana": "コウチケン",
    "prefecture_code": 39,
    "city": "宿毛市",
    "city_kana": "スクモシ",
    "town": "新田",
    "town_kana": "シンデン",
    "street": null,
    "office_name": null,
    "office_name_kana": null
  },
  "0012": {
    "postcode": "7880012",
    "prefecture": "高知県",
    "prefecture_kana": "コウチケン",
    "prefecture_code": 39,
    "city": "宿毛市",
    "city_kana": "スクモシ",
    "town": "高砂",
    "town_kana": "タカサゴ",
    "street": null,
    "office_name": null,
    "office_name_kana": null
  },
  "0013": {
    "postcode": "7880013",
    "prefecture": "高知県",
    "prefecture_kana": "コウチケン",
    "prefecture_code": 39,
    "city": "宿毛市",
    "city_kana": "スクモシ",
    "town": "片島",
    "town_kana": "カタシマ",
    "street": null,
    "office_name": null,
    "office_name_kana": null
  },
  "0014": {
    "postcode": "7880014",
    "prefecture": "高知県",
    "prefecture_kana": "コウチケン",
    "prefecture_code": 39,
    "city": "宿毛市",
    "city_kana": "スクモシ",
    "town": "大島",
    "town_kana": "オオシマ",
    "street": null,
    "office_name": null,
    "office_name_kana": null
  },
  "0015": {
    "postcode": "7880015",
    "prefecture": "高知県",
    "prefecture_kana": "コウチケン",
    "prefecture_code": 39,
    "city": "宿毛市",
    "city_kana": "スクモシ",
    "town": "西片島",
    "town_kana": "ニシカタシマ",
    "street": null,
    "office_name": null,
    "office_name_kana": null
  },
  "0016": {
    "postcode": "7880016",
    "prefecture": "高知県",
    "prefecture_kana": "コウチケン",
    "prefecture_code": 39,
    "city": "宿毛市",
    "city_kana": "スクモシ",
    "town": "希望ヶ丘",
    "town_kana": "キボウガオカ",
    "street": null,
    "office_name": null,
    "office_name_kana": null
  },
  "0021": {
    "postcode": "7880021",
    "prefecture": "高知県",
    "prefecture_kana": "コウチケン",
    "prefecture_code": 39,
    "city": "宿毛市",
    "city_kana": "スクモシ",
    "town": "池島",
    "town_kana": "イケシマ",
    "street": null,
    "office_name": null,
    "office_name_kana": null
  },
  "0022": {
    "postcode": "7880022",
    "prefecture": "高知県",
    "prefecture_kana": "コウチケン",
    "prefecture_code": 39,
    "city": "宿毛市",
    "city_kana": "スクモシ",
    "town": "藻津",
    "town_kana": "ムクヅ",
    "street": null,
    "office_name": null,
    "office_name_kana": null
  },
  "0023": {
    "postcode": "7880023",
    "prefecture": "高知県",
    "prefecture_kana": "コウチケン",
    "prefecture_code": 39,
    "city": "宿毛市",
    "city_kana": "スクモシ",
    "town": "宇須々木",
    "town_kana": "ウススキ",
    "street": null,
    "office_name": null,
    "office_name_kana": null
  },
  "0024": {
    "postcode": "7880024",
    "prefecture": "高知県",
    "prefecture_kana": "コウチケン",
    "prefecture_code": 39,
    "city": "宿毛市",
    "city_kana": "スクモシ",
    "town": "樺",
    "town_kana": "カバ",
    "street": null,
    "office_name": null,
    "office_name_kana": null
  },
  "0025": {
    "postcode": "7880025",
    "prefecture": "高知県",
    "prefecture_kana": "コウチケン",
    "prefecture_code": 39,
    "city": "宿毛市",
    "city_kana": "スクモシ",
    "town": "西町",
    "town_kana": "ニシマチ",
    "street": null,
    "office_name": null,
    "office_name_kana": null
  },
  "0026": {
    "postcode": "7880026",
    "prefecture": "高知県",
    "prefecture_kana": "コウチケン",
    "prefecture_code": 39,
    "city": "宿毛市",
    "city_kana": "スクモシ",
    "town": "自由ケ丘",
    "town_kana": "ジユウガオカ",
    "street": null,
    "office_name": null,
    "office_name_kana": null
  },
  "0027": {
    "postcode": "7880027",
    "prefecture": "高知県",
    "prefecture_kana": "コウチケン",
    "prefecture_code": 39,
    "city": "宿毛市",
    "city_kana": "スクモシ",
    "town": "港南台",
    "town_kana": "コウナンダイ",
    "street": null,
    "office_name": null,
    "office_name_kana": null
  },
  "0028": {
    "postcode": "7880028",
    "prefecture": "高知県",
    "prefecture_kana": "コウチケン",
    "prefecture_code": 39,
    "city": "宿毛市",
    "city_kana": "スクモシ",
    "town": "新港",
    "town_kana": "シンコウ",
    "street": null,
    "office_name": null,
    "office_name_kana": null
  },
  "0030": {
    "postcode": "7880030",
    "prefecture": "高知県",
    "prefecture_kana": "コウチケン",
    "prefecture_code": 39,
    "city": "宿毛市",
    "city_kana": "スクモシ",
    "town": "四季の丘",
    "town_kana": "シキノオカ",
    "street": null,
    "office_name": null,
    "office_name_kana": null
  },
  "0031": {
    "postcode": "7880031",
    "prefecture": "高知県",
    "prefecture_kana": "コウチケン",
    "prefecture_code": 39,
    "city": "宿毛市",
    "city_kana": "スクモシ",
    "town": "貝塚",
    "town_kana": "カイヅカ",
    "street": null,
    "office_name": null,
    "office_name_kana": null
  },
  "0032": {
    "postcode": "7880032",
    "prefecture": "高知県",
    "prefecture_kana": "コウチケン",
    "prefecture_code": 39,
    "city": "宿毛市",
    "city_kana": "スクモシ",
    "town": "錦",
    "town_kana": "ニシキ",
    "street": null,
    "office_name": null,
    "office_name_kana": null
  },
  "0033": {
    "postcode": "7880033",
    "prefecture": "高知県",
    "prefecture_kana": "コウチケン",
    "prefecture_code": 39,
    "city": "宿毛市",
    "city_kana": "スクモシ",
    "town": "小深浦",
    "town_kana": "コブカウラ",
    "street": null,
    "office_name": null,
    "office_name_kana": null
  },
  "0034": {
    "postcode": "7880034",
    "prefecture": "高知県",
    "prefecture_kana": "コウチケン",
    "prefecture_code": 39,
    "city": "宿毛市",
    "city_kana": "スクモシ",
    "town": "大深浦",
    "town_kana": "オオブカウラ",
    "street": null,
    "office_name": null,
    "office_name_kana": null
  },
  "0035": {
    "postcode": "7880035",
    "prefecture": "高知県",
    "prefecture_kana": "コウチケン",
    "prefecture_code": 39,
    "city": "宿毛市",
    "city_kana": "スクモシ",
    "town": "草木薮",
    "town_kana": "クサギヤブ",
    "street": null,
    "office_name": null,
    "office_name_kana": null
  },
  "0036": {
    "postcode": "7880036",
    "prefecture": "高知県",
    "prefecture_kana": "コウチケン",
    "prefecture_code": 39,
    "city": "宿毛市",
    "city_kana": "スクモシ",
    "town": "野地",
    "town_kana": "ノジ",
    "street": null,
    "office_name": null,
    "office_name_kana": null
  },
  "0037": {
    "postcode": "7880037",
    "prefecture": "高知県",
    "prefecture_kana": "コウチケン",
    "prefecture_code": 39,
    "city": "宿毛市",
    "city_kana": "スクモシ",
    "town": "山北",
    "town_kana": "ヤマキタ",
    "street": null,
    "office_name": null,
    "office_name_kana": null
  },
  "0038": {
    "postcode": "7880038",
    "prefecture": "高知県",
    "prefecture_kana": "コウチケン",
    "prefecture_code": 39,
    "city": "宿毛市",
    "city_kana": "スクモシ",
    "town": "二ノ宮",
    "town_kana": "ニノミヤ",
    "street": null,
    "office_name": null,
    "office_name_kana": null
  },
  "0039": {
    "postcode": "7880039",
    "prefecture": "高知県",
    "prefecture_kana": "コウチケン",
    "prefecture_code": 39,
    "city": "宿毛市",
    "city_kana": "スクモシ",
    "town": "中角",
    "town_kana": "ナカツノ",
    "street": null,
    "office_name": null,
    "office_name_kana": null
  },
  "0041": {
    "postcode": "7880041",
    "prefecture": "高知県",
    "prefecture_kana": "コウチケン",
    "prefecture_code": 39,
    "city": "宿毛市",
    "city_kana": "スクモシ",
    "town": "橋上町出井",
    "town_kana": "ハシカミチョウイデイ",
    "street": null,
    "office_name": null,
    "office_name_kana": null
  },
  "0042": {
    "postcode": "7880042",
    "prefecture": "高知県",
    "prefecture_kana": "コウチケン",
    "prefecture_code": 39,
    "city": "宿毛市",
    "city_kana": "スクモシ",
    "town": "橋上町楠山",
    "town_kana": "ハシカミチョウクスヤマ",
    "street": null,
    "office_name": null,
    "office_name_kana": null
  },
  "0043": {
    "postcode": "7880043",
    "prefecture": "高知県",
    "prefecture_kana": "コウチケン",
    "prefecture_code": 39,
    "city": "宿毛市",
    "city_kana": "スクモシ",
    "town": "橋上町坂本",
    "town_kana": "ハシカミチョウサカモト",
    "street": null,
    "office_name": null,
    "office_name_kana": null
  },
  "0044": {
    "postcode": "7880044",
    "prefecture": "高知県",
    "prefecture_kana": "コウチケン",
    "prefecture_code": 39,
    "city": "宿毛市",
    "city_kana": "スクモシ",
    "town": "橋上町神有",
    "town_kana": "ハシカミチョウカミアリ",
    "street": null,
    "office_name": null,
    "office_name_kana": null
  },
  "0045": {
    "postcode": "7880045",
    "prefecture": "高知県",
    "prefecture_kana": "コウチケン",
    "prefecture_code": 39,
    "city": "宿毛市",
    "city_kana": "スクモシ",
    "town": "橋上町奥奈路",
    "town_kana": "ハシカミチョウオクナロ",
    "street": null,
    "office_name": null,
    "office_name_kana": null
  },
  "0046": {
    "postcode": "7880046",
    "prefecture": "高知県",
    "prefecture_kana": "コウチケン",
    "prefecture_code": 39,
    "city": "宿毛市",
    "city_kana": "スクモシ",
    "town": "橋上町橋上",
    "town_kana": "ハシカミチョウハシカミ",
    "street": null,
    "office_name": null,
    "office_name_kana": null
  },
  "0047": {
    "postcode": "7880047",
    "prefecture": "高知県",
    "prefecture_kana": "コウチケン",
    "prefecture_code": 39,
    "city": "宿毛市",
    "city_kana": "スクモシ",
    "town": "橋上町平野",
    "town_kana": "ハシカミチョウヒラノ",
    "street": null,
    "office_name": null,
    "office_name_kana": null
  },
  "0048": {
    "postcode": "7880048",
    "prefecture": "高知県",
    "prefecture_kana": "コウチケン",
    "prefecture_code": 39,
    "city": "宿毛市",
    "city_kana": "スクモシ",
    "town": "橋上町京法",
    "town_kana": "ハシカミチョウキョウホウ",
    "street": null,
    "office_name": null,
    "office_name_kana": null
  },
  "0049": {
    "postcode": "7880049",
    "prefecture": "高知県",
    "prefecture_kana": "コウチケン",
    "prefecture_code": 39,
    "city": "宿毛市",
    "city_kana": "スクモシ",
    "town": "橋上町還住薮",
    "town_kana": "ハシカミチョウゲンジュヤブ",
    "street": null,
    "office_name": null,
    "office_name_kana": null
  },
  "0051": {
    "postcode": "7880051",
    "prefecture": "高知県",
    "prefecture_kana": "コウチケン",
    "prefecture_code": 39,
    "city": "宿毛市",
    "city_kana": "スクモシ",
    "town": "押ノ川",
    "town_kana": "オシノカワ",
    "street": null,
    "office_name": null,
    "office_name_kana": null
  },
  "0052": {
    "postcode": "7880052",
    "prefecture": "高知県",
    "prefecture_kana": "コウチケン",
    "prefecture_code": 39,
    "city": "宿毛市",
    "city_kana": "スクモシ",
    "town": "和田",
    "town_kana": "ワダ",
    "street": null,
    "office_name": null,
    "office_name_kana": null
  },
  "0053": {
    "postcode": "7880053",
    "prefecture": "高知県",
    "prefecture_kana": "コウチケン",
    "prefecture_code": 39,
    "city": "宿毛市",
    "city_kana": "スクモシ",
    "town": "坂ノ下",
    "town_kana": "サカノシタ",
    "street": null,
    "office_name": null,
    "office_name_kana": null
  },
  "0054": {
    "postcode": "7880054",
    "prefecture": "高知県",
    "prefecture_kana": "コウチケン",
    "prefecture_code": 39,
    "city": "宿毛市",
    "city_kana": "スクモシ",
    "town": "さくらが丘",
    "town_kana": "サクラガオカ",
    "street": null,
    "office_name": null,
    "office_name_kana": null
  },
  "0261": {
    "postcode": "7880261",
    "prefecture": "高知県",
    "prefecture_kana": "コウチケン",
    "prefecture_code": 39,
    "city": "宿毛市",
    "city_kana": "スクモシ",
    "town": "小筑紫町田ノ浦",
    "town_kana": "コヅクシチョウタノウラ",
    "street": null,
    "office_name": null,
    "office_name_kana": null
  },
  "0262": {
    "postcode": "7880262",
    "prefecture": "高知県",
    "prefecture_kana": "コウチケン",
    "prefecture_code": 39,
    "city": "宿毛市",
    "city_kana": "スクモシ",
    "town": "小筑紫町小浦",
    "town_kana": "コヅクシチョウコウラ",
    "street": null,
    "office_name": null,
    "office_name_kana": null
  },
  "0263": {
    "postcode": "7880263",
    "prefecture": "高知県",
    "prefecture_kana": "コウチケン",
    "prefecture_code": 39,
    "city": "宿毛市",
    "city_kana": "スクモシ",
    "town": "小筑紫町内外ノ浦",
    "town_kana": "コヅクシチョウナイガイノウラ",
    "street": null,
    "office_name": null,
    "office_name_kana": null
  },
  "0264": {
    "postcode": "7880264",
    "prefecture": "高知県",
    "prefecture_kana": "コウチケン",
    "prefecture_code": 39,
    "city": "宿毛市",
    "city_kana": "スクモシ",
    "town": "小筑紫町呼崎",
    "town_kana": "コヅクシチョウヨビサキ",
    "street": null,
    "office_name": null,
    "office_name_kana": null
  },
  "0265": {
    "postcode": "7880265",
    "prefecture": "高知県",
    "prefecture_kana": "コウチケン",
    "prefecture_code": 39,
    "city": "宿毛市",
    "city_kana": "スクモシ",
    "town": "小筑紫町湊",
    "town_kana": "コヅクシチョウミナト",
    "street": null,
    "office_name": null,
    "office_name_kana": null
  },
  "0266": {
    "postcode": "7880266",
    "prefecture": "高知県",
    "prefecture_kana": "コウチケン",
    "prefecture_code": 39,
    "city": "宿毛市",
    "city_kana": "スクモシ",
    "town": "小筑紫町大海",
    "town_kana": "コヅクシチョウオオミ",
    "street": null,
    "office_name": null,
    "office_name_kana": null
  },
  "0267": {
    "postcode": "7880267",
    "prefecture": "高知県",
    "prefecture_kana": "コウチケン",
    "prefecture_code": 39,
    "city": "宿毛市",
    "city_kana": "スクモシ",
    "town": "小筑紫町伊与野",
    "town_kana": "コヅクシチョウイヨノ",
    "street": null,
    "office_name": null,
    "office_name_kana": null
  },
  "0268": {
    "postcode": "7880268",
    "prefecture": "高知県",
    "prefecture_kana": "コウチケン",
    "prefecture_code": 39,
    "city": "宿毛市",
    "city_kana": "スクモシ",
    "town": "小筑紫町都賀ノ川",
    "town_kana": "コヅクシチョウツガノガワ",
    "street": null,
    "office_name": null,
    "office_name_kana": null
  },
  "0271": {
    "postcode": "7880271",
    "prefecture": "高知県",
    "prefecture_kana": "コウチケン",
    "prefecture_code": 39,
    "city": "宿毛市",
    "city_kana": "スクモシ",
    "town": "小筑紫町小筑紫",
    "town_kana": "コヅクシチョウコヅクシ",
    "street": null,
    "office_name": null,
    "office_name_kana": null
  },
  "0272": {
    "postcode": "7880272",
    "prefecture": "高知県",
    "prefecture_kana": "コウチケン",
    "prefecture_code": 39,
    "city": "宿毛市",
    "city_kana": "スクモシ",
    "town": "小筑紫町石原",
    "town_kana": "コヅクシチョウイシハラ",
    "street": null,
    "office_name": null,
    "office_name_kana": null
  },
  "0273": {
    "postcode": "7880273",
    "prefecture": "高知県",
    "prefecture_kana": "コウチケン",
    "prefecture_code": 39,
    "city": "宿毛市",
    "city_kana": "スクモシ",
    "town": "小筑紫町福良",
    "town_kana": "コヅクシチョウフクラ",
    "street": null,
    "office_name": null,
    "office_name_kana": null
  },
  "0274": {
    "postcode": "7880274",
    "prefecture": "高知県",
    "prefecture_kana": "コウチケン",
    "prefecture_code": 39,
    "city": "宿毛市",
    "city_kana": "スクモシ",
    "town": "小筑紫町栄喜",
    "town_kana": "コヅクシチョウサカキ",
    "street": null,
    "office_name": null,
    "office_name_kana": null
  },
  "0300": {
    "postcode": "7880300",
    "prefecture": "高知県",
    "prefecture_kana": "コウチケン",
    "prefecture_code": 39,
    "city": "幡多郡大月町",
    "city_kana": "ハタグンオオツキチョウ",
    "town": "",
    "town_kana": "",
    "street": null,
    "office_name": null,
    "office_name_kana": null
  },
  "0302": {
    "postcode": "7880302",
    "prefecture": "高知県",
    "prefecture_kana": "コウチケン",
    "prefecture_code": 39,
    "city": "幡多郡大月町",
    "city_kana": "ハタグンオオツキチョウ",
    "town": "弘見",
    "town_kana": "ヒロミ",
    "street": null,
    "office_name": null,
    "office_name_kana": null
  },
  "0311": {
    "postcode": "7880311",
    "prefecture": "高知県",
    "prefecture_kana": "コウチケン",
    "prefecture_code": 39,
    "city": "幡多郡大月町",
    "city_kana": "ハタグンオオツキチョウ",
    "town": "鉾土",
    "town_kana": "ホコツチ",
    "street": null,
    "office_name": null,
    "office_name_kana": null
  },
  "0312": {
    "postcode": "7880312",
    "prefecture": "高知県",
    "prefecture_kana": "コウチケン",
    "prefecture_code": 39,
    "city": "幡多郡大月町",
    "city_kana": "ハタグンオオツキチョウ",
    "town": "清王",
    "town_kana": "セイオウ",
    "street": null,
    "office_name": null,
    "office_name_kana": null
  },
  "0313": {
    "postcode": "7880313",
    "prefecture": "高知県",
    "prefecture_kana": "コウチケン",
    "prefecture_code": 39,
    "city": "幡多郡大月町",
    "city_kana": "ハタグンオオツキチョウ",
    "town": "周防形",
    "town_kana": "スオウガタ",
    "street": null,
    "office_name": null,
    "office_name_kana": null
  },
  "0314": {
    "postcode": "7880314",
    "prefecture": "高知県",
    "prefecture_kana": "コウチケン",
    "prefecture_code": 39,
    "city": "幡多郡大月町",
    "city_kana": "ハタグンオオツキチョウ",
    "town": "頭集",
    "town_kana": "カシラツドイ",
    "street": null,
    "office_name": null,
    "office_name_kana": null
  },
  "0315": {
    "postcode": "7880315",
    "prefecture": "高知県",
    "prefecture_kana": "コウチケン",
    "prefecture_code": 39,
    "city": "幡多郡大月町",
    "city_kana": "ハタグンオオツキチョウ",
    "town": "古満目",
    "town_kana": "コマメ",
    "street": null,
    "office_name": null,
    "office_name_kana": null
  },
  "0321": {
    "postcode": "7880321",
    "prefecture": "高知県",
    "prefecture_kana": "コウチケン",
    "prefecture_code": 39,
    "city": "幡多郡大月町",
    "city_kana": "ハタグンオオツキチョウ",
    "town": "春遠",
    "town_kana": "ハルドオ",
    "street": null,
    "office_name": null,
    "office_name_kana": null
  },
  "0322": {
    "postcode": "7880322",
    "prefecture": "高知県",
    "prefecture_kana": "コウチケン",
    "prefecture_code": 39,
    "city": "幡多郡大月町",
    "city_kana": "ハタグンオオツキチョウ",
    "town": "小才角",
    "town_kana": "コサイツノ",
    "street": null,
    "office_name": null,
    "office_name_kana": null
  },
  "0323": {
    "postcode": "7880323",
    "prefecture": "高知県",
    "prefecture_kana": "コウチケン",
    "prefecture_code": 39,
    "city": "幡多郡大月町",
    "city_kana": "ハタグンオオツキチョウ",
    "town": "才角",
    "town_kana": "サイツノ",
    "street": null,
    "office_name": null,
    "office_name_kana": null
  },
  "0324": {
    "postcode": "7880324",
    "prefecture": "高知県",
    "prefecture_kana": "コウチケン",
    "prefecture_code": 39,
    "city": "幡多郡大月町",
    "city_kana": "ハタグンオオツキチョウ",
    "town": "大浦",
    "town_kana": "オオウラ",
    "street": null,
    "office_name": null,
    "office_name_kana": null
  },
  "0325": {
    "postcode": "7880325",
    "prefecture": "高知県",
    "prefecture_kana": "コウチケン",
    "prefecture_code": 39,
    "city": "幡多郡大月町",
    "city_kana": "ハタグンオオツキチョウ",
    "town": "月ケ丘",
    "town_kana": "ツキガオカ",
    "street": null,
    "office_name": null,
    "office_name_kana": null
  },
  "0331": [
    {
      "postcode": "7880331",
      "prefecture": "高知県",
      "prefecture_kana": "コウチケン",
      "prefecture_code": 39,
      "city": "幡多郡大月町",
      "city_kana": "ハタグンオオツキチョウ",
      "town": "口目塚",
      "town_kana": "クチメヅカ",
      "street": null,
      "office_name": null,
      "office_name_kana": null
    },
    {
      "postcode": "7880331",
      "prefecture": "高知県",
      "prefecture_kana": "コウチケン",
      "prefecture_code": 39,
      "city": "幡多郡大月町",
      "city_kana": "ハタグンオオツキチョウ",
      "town": "姫ノ井",
      "town_kana": "ヒメノイ",
      "street": null,
      "office_name": null,
      "office_name_kana": null
    }
  ],
  "0332": {
    "postcode": "7880332",
    "prefecture": "高知県",
    "prefecture_kana": "コウチケン",
    "prefecture_code": 39,
    "city": "幡多郡大月町",
    "city_kana": "ハタグンオオツキチョウ",
    "town": "赤泊",
    "town_kana": "アカドマリ",
    "street": null,
    "office_name": null,
    "office_name_kana": null
  },
  "0333": {
    "postcode": "7880333",
    "prefecture": "高知県",
    "prefecture_kana": "コウチケン",
    "prefecture_code": 39,
    "city": "幡多郡大月町",
    "city_kana": "ハタグンオオツキチョウ",
    "town": "西泊",
    "town_kana": "ニシドマリ",
    "street": null,
    "office_name": null,
    "office_name_kana": null
  },
  "0334": {
    "postcode": "7880334",
    "prefecture": "高知県",
    "prefecture_kana": "コウチケン",
    "prefecture_code": 39,
    "city": "幡多郡大月町",
    "city_kana": "ハタグンオオツキチョウ",
    "town": "樫ノ浦",
    "town_kana": "カシノウラ",
    "street": null,
    "office_name": null,
    "office_name_kana": null
  },
  "0335": {
    "postcode": "7880335",
    "prefecture": "高知県",
    "prefecture_kana": "コウチケン",
    "prefecture_code": 39,
    "city": "幡多郡大月町",
    "city_kana": "ハタグンオオツキチョウ",
    "town": "唐岩",
    "town_kana": "カライワ",
    "street": null,
    "office_name": null,
    "office_name_kana": null
  },
  "0341": {
    "postcode": "7880341",
    "prefecture": "高知県",
    "prefecture_kana": "コウチケン",
    "prefecture_code": 39,
    "city": "幡多郡大月町",
    "city_kana": "ハタグンオオツキチョウ",
    "town": "平山",
    "town_kana": "ヒラヤマ",
    "street": null,
    "office_name": null,
    "office_name_kana": null
  },
  "0342": {
    "postcode": "7880342",
    "prefecture": "高知県",
    "prefecture_kana": "コウチケン",
    "prefecture_code": 39,
    "city": "幡多郡大月町",
    "city_kana": "ハタグンオオツキチョウ",
    "town": "一切",
    "town_kana": "イッサイ",
    "street": null,
    "office_name": null,
    "office_name_kana": null
  },
  "0343": {
    "postcode": "7880343",
    "prefecture": "高知県",
    "prefecture_kana": "コウチケン",
    "prefecture_code": 39,
    "city": "幡多郡大月町",
    "city_kana": "ハタグンオオツキチョウ",
    "town": "柏島",
    "town_kana": "カシワジマ",
    "street": null,
    "office_name": null,
    "office_name_kana": null
  },
  "0351": {
    "postcode": "7880351",
    "prefecture": "高知県",
    "prefecture_kana": "コウチケン",
    "prefecture_code": 39,
    "city": "幡多郡大月町",
    "city_kana": "ハタグンオオツキチョウ",
    "town": "安満地",
    "town_kana": "アマジ",
    "street": null,
    "office_name": null,
    "office_name_kana": null
  },
  "0352": {
    "postcode": "7880352",
    "prefecture": "高知県",
    "prefecture_kana": "コウチケン",
    "prefecture_code": 39,
    "city": "幡多郡大月町",
    "city_kana": "ハタグンオオツキチョウ",
    "town": "橘浦",
    "town_kana": "タチバナウラ",
    "street": null,
    "office_name": null,
    "office_name_kana": null
  },
  "0353": {
    "postcode": "7880353",
    "prefecture": "高知県",
    "prefecture_kana": "コウチケン",
    "prefecture_code": 39,
    "city": "幡多郡大月町",
    "city_kana": "ハタグンオオツキチョウ",
    "town": "泊浦",
    "town_kana": "トマリウラ",
    "street": null,
    "office_name": null,
    "office_name_kana": null
  },
  "0361": {
    "postcode": "7880361",
    "prefecture": "高知県",
    "prefecture_kana": "コウチケン",
    "prefecture_code": 39,
    "city": "幡多郡大月町",
    "city_kana": "ハタグンオオツキチョウ",
    "town": "龍ケ迫",
    "town_kana": "タツガサコ",
    "street": null,
    "office_name": null,
    "office_name_kana": null
  },
  "0362": {
    "postcode": "7880362",
    "prefecture": "高知県",
    "prefecture_kana": "コウチケン",
    "prefecture_code": 39,
    "city": "幡多郡大月町",
    "city_kana": "ハタグンオオツキチョウ",
    "town": "芳ノ沢",
    "town_kana": "ヨシノサワ",
    "street": null,
    "office_name": null,
    "office_name_kana": null
  },
  "0363": {
    "postcode": "7880363",
    "prefecture": "高知県",
    "prefecture_kana": "コウチケン",
    "prefecture_code": 39,
    "city": "幡多郡大月町",
    "city_kana": "ハタグンオオツキチョウ",
    "town": "添ノ川",
    "town_kana": "ソイノカワ",
    "street": null,
    "office_name": null,
    "office_name_kana": null
  },
  "0677": {
    "postcode": "7880677",
    "prefecture": "高知県",
    "prefecture_kana": "コウチケン",
    "prefecture_code": 39,
    "city": "宿毛市",
    "city_kana": "スクモシ",
    "town": "沖の島町母島",
    "town_kana": "オキノシマチョウモシマ",
    "street": null,
    "office_name": null,
    "office_name_kana": null
  },
  "0678": {
    "postcode": "7880678",
    "prefecture": "高知県",
    "prefecture_kana": "コウチケン",
    "prefecture_code": 39,
    "city": "宿毛市",
    "city_kana": "スクモシ",
    "town": "沖の島町弘瀬",
    "town_kana": "オキノシマチョウヒロセ",
    "street": null,
    "office_name": null,
    "office_name_kana": null
  },
  "0679": {
    "postcode": "7880679",
    "prefecture": "高知県",
    "prefecture_kana": "コウチケン",
    "prefecture_code": 39,
    "city": "宿毛市",
    "city_kana": "スクモシ",
    "town": "沖の島町鵜来島",
    "town_kana": "オキノシマチョウウグルシマ",
    "street": null,
    "office_name": null,
    "office_name_kana": null
  },
  "0781": {
    "postcode": "7880781",
    "prefecture": "高知県",
    "prefecture_kana": "コウチケン",
    "prefecture_code": 39,
    "city": "宿毛市",
    "city_kana": "スクモシ",
    "town": "平田町黒川",
    "town_kana": "ヒラタチョウクロカワ",
    "street": null,
    "office_name": null,
    "office_name_kana": null
  },
  "0782": {
    "postcode": "7880782",
    "prefecture": "高知県",
    "prefecture_kana": "コウチケン",
    "prefecture_code": 39,
    "city": "宿毛市",
    "city_kana": "スクモシ",
    "town": "平田町中山",
    "town_kana": "ヒラタチョウナカヤマ",
    "street": null,
    "office_name": null,
    "office_name_kana": null
  },
  "0783": {
    "postcode": "7880783",
    "prefecture": "高知県",
    "prefecture_kana": "コウチケン",
    "prefecture_code": 39,
    "city": "宿毛市",
    "city_kana": "スクモシ",
    "town": "平田町戸内",
    "town_kana": "ヒラタチョウヘナイ",
    "street": null,
    "office_name": null,
    "office_name_kana": null
  },
  "0784": {
    "postcode": "7880784",
    "prefecture": "高知県",
    "prefecture_kana": "コウチケン",
    "prefecture_code": 39,
    "city": "宿毛市",
    "city_kana": "スクモシ",
    "town": "山奈町山田",
    "town_kana": "ヤマナチョウヤマダ",
    "street": null,
    "office_name": null,
    "office_name_kana": null
  },
  "0785": {
    "postcode": "7880785",
    "prefecture": "高知県",
    "prefecture_kana": "コウチケン",
    "prefecture_code": 39,
    "city": "宿毛市",
    "city_kana": "スクモシ",
    "town": "山奈町芳奈",
    "town_kana": "ヤマナチョウヨシナ",
    "street": null,
    "office_name": null,
    "office_name_kana": null
  },
  "0786": {
    "postcode": "7880786",
    "prefecture": "高知県",
    "prefecture_kana": "コウチケン",
    "prefecture_code": 39,
    "city": "宿毛市",
    "city_kana": "スクモシ",
    "town": "平田町東平",
    "town_kana": "ヒラタチョウヒガシダイラ",
    "street": null,
    "office_name": null,
    "office_name_kana": null
  },
  "8501": {
    "postcode": "7888501",
    "prefecture": "高知県",
    "prefecture_kana": "コウチケン",
    "prefecture_code": 39,
    "city": "宿毛市",
    "city_kana": "スクモシ",
    "town": "和田",
    "town_kana": "ワダ",
    "street": "３９４５",
    "office_name": "旭食品　宿毛販売　株式会社",
    "office_name_kana": "アサヒシヨクヒン スクモハンバイ カブシキガイシヤ"
  },
  "8686": {
    "postcode": "7888686",
    "prefecture": "高知県",
    "prefecture_kana": "コウチケン",
    "prefecture_code": 39,
    "city": "宿毛市",
    "city_kana": "スクモシ",
    "town": "希望ヶ丘",
    "town_kana": "キボウガオカ",
    "street": "１番",
    "office_name": "宿毛市役所",
    "office_name_kana": "スクモシヤクシヨ"
  }
}