{
  "0156": {
    "postcode": "7890156",
    "prefecture": "高知県",
    "prefecture_kana": "コウチケン",
    "prefecture_code": 39,
    "city": "長岡郡大豊町",
    "city_kana": "ナガオカグンオオトヨチョウ",
    "town": "八川",
    "town_kana": "ヤカワ",
    "street": null,
    "office_name": null,
    "office_name_kana": null
  },
  "0157": {
    "postcode": "7890157",
    "prefecture": "高知県",
    "prefecture_kana": "コウチケン",
    "prefecture_code": 39,
    "city": "長岡郡大豊町",
    "city_kana": "ナガオカグンオオトヨチョウ",
    "town": "筏木",
    "town_kana": "イカダギ",
    "street": null,
    "office_name": null,
    "office_name_kana": null
  },
  "0158": {
    "postcode": "7890158",
    "prefecture": "高知県",
    "prefecture_kana": "コウチケン",
    "prefecture_code": 39,
    "city": "長岡郡大豊町",
    "city_kana": "ナガオカグンオオトヨチョウ",
    "town": "岩原",
    "town_kana": "イワハラ",
    "street": null,
    "office_name": null,
    "office_name_kana": null
  },
  "0159": [
    {
      "postcode": "7890159",
      "prefecture": "高知県",
      "prefecture_kana": "コウチケン",
      "prefecture_code": 39,
      "city": "長岡郡大豊町",
      "city_kana": "ナガオカグンオオトヨチョウ",
      "town": "西峰",
      "town_kana": "ニシミネ",
      "street": null,
      "office_name": null,
      "office_name_kana": null
    },
    {
      "postcode": "7890159",
      "prefecture": "高知県",
      "prefecture_kana": "コウチケン",
      "prefecture_code": 39,
      "city": "長岡郡大豊町",
      "city_kana": "ナガオカグンオオトヨチョウ",
      "town": "西峰三谷",
      "town_kana": "ニシミネミタニ",
      "street": null,
      "office_name": null,
      "office_name_kana": null
    }
  ],
  "0160": {
    "postcode": "7890160",
    "prefecture": "高知県",
    "prefecture_kana": "コウチケン",
    "prefecture_code": 39,
    "city": "長岡郡大豊町",
    "city_kana": "ナガオカグンオオトヨチョウ",
    "town": "西峰",
    "town_kana": "ニシミネ",
    "street": null,
    "office_name": null,
    "office_name_kana": null
  },
  "0161": {
    "postcode": "7890161",
    "prefecture": "高知県",
    "prefecture_kana": "コウチケン",
    "prefecture_code": 39,
    "city": "長岡郡大豊町",
    "city_kana": "ナガオカグンオオトヨチョウ",
    "town": "柚木",
    "town_kana": "ユノキ",
    "street": null,
    "office_name": null,
    "office_name_kana": null
  },
  "0162": {
    "postcode": "7890162",
    "prefecture": "高知県",
    "prefecture_kana": "コウチケン",
    "prefecture_code": 39,
    "city": "長岡郡大豊町",
    "city_kana": "ナガオカグンオオトヨチョウ",
    "town": "怒田",
    "town_kana": "ヌタ",
    "street": null,
    "office_name": null,
    "office_name_kana": null
  },
  "0163": {
    "postcode": "7890163",
    "prefecture": "高知県",
    "prefecture_kana": "コウチケン",
    "prefecture_code": 39,
    "city": "長岡郡大豊町",
    "city_kana": "ナガオカグンオオトヨチョウ",
    "town": "南大王",
    "town_kana": "ミナミダイオウ",
    "street": null,
    "office_name": null,
    "office_name_kana": null
  },
  "0164": {
    "postcode": "7890164",
    "prefecture": "高知県",
    "prefecture_kana": "コウチケン",
    "prefecture_code": 39,
    "city": "長岡郡大豊町",
    "city_kana": "ナガオカグンオオトヨチョウ",
    "town": "八畝",
    "town_kana": "ヨウネ",
    "street": null,
    "office_name": null,
    "office_name_kana": null
  },
  "0165": {
    "postcode": "7890165",
    "prefecture": "高知県",
    "prefecture_kana": "コウチケン",
    "prefecture_code": 39,
    "city": "長岡郡大豊町",
    "city_kana": "ナガオカグンオオトヨチョウ",
    "town": "西川",
    "town_kana": "ニシガワ",
    "street": null,
    "office_name": null,
    "office_name_kana": null
  },
  "0166": {
    "postcode": "7890166",
    "prefecture": "高知県",
    "prefecture_kana": "コウチケン",
    "prefecture_code": 39,
    "city": "長岡郡大豊町",
    "city_kana": "ナガオカグンオオトヨチョウ",
    "town": "東土居",
    "town_kana": "ヒガシドイ",
    "street": null,
    "office_name": null,
    "office_name_kana": null
  },
  "0167": {
    "postcode": "7890167",
    "prefecture": "高知県",
    "prefecture_kana": "コウチケン",
    "prefecture_code": 39,
    "city": "長岡郡大豊町",
    "city_kana": "ナガオカグンオオトヨチョウ",
    "town": "粟生",
    "town_kana": "アオウ",
    "street": null,
    "office_name": null,
    "office_name_kana": null
  },
  "0168": {
    "postcode": "7890168",
    "prefecture": "高知県",
    "prefecture_kana": "コウチケン",
    "prefecture_code": 39,
    "city": "長岡郡大豊町",
    "city_kana": "ナガオカグンオオトヨチョウ",
    "town": "立野",
    "town_kana": "タツノ",
    "street": null,
    "office_name": null,
    "office_name_kana": null
  },
  "0169": {
    "postcode": "7890169",
    "prefecture": "高知県",
    "prefecture_kana": "コウチケン",
    "prefecture_code": 39,
    "city": "長岡郡大豊町",
    "city_kana": "ナガオカグンオオトヨチョウ",
    "town": "大平",
    "town_kana": "オオダイラ",
    "street": null,
    "office_name": null,
    "office_name_kana": null
  },
  "0170": [
    {
      "postcode": "7890170",
      "prefecture": "高知県",
      "prefecture_kana": "コウチケン",
      "prefecture_code": 39,
      "city": "長岡郡大豊町",
      "city_kana": "ナガオカグンオオトヨチョウ",
      "town": "大滝",
      "town_kana": "オオダキ",
      "street": null,
      "office_name": null,
      "office_name_kana": null
    },
    {
      "postcode": "7890170",
      "prefecture": "高知県",
      "prefecture_kana": "コウチケン",
      "prefecture_code": 39,
      "city": "長岡郡大豊町",
      "city_kana": "ナガオカグンオオトヨチョウ",
      "town": "大滝落合",
      "town_kana": "オオダキオチアイ",
      "street": null,
      "office_name": null,
      "office_name_kana": null
    }
  ],
  "0171": {
    "postcode": "7890171",
    "prefecture": "高知県",
    "prefecture_kana": "コウチケン",
    "prefecture_code": 39,
    "city": "長岡郡大豊町",
    "city_kana": "ナガオカグンオオトヨチョウ",
    "town": "大滝",
    "town_kana": "オオダキ",
    "street": null,
    "office_name": null,
    "office_name_kana": null
  },
  "0172": {
    "postcode": "7890172",
    "prefecture": "高知県",
    "prefecture_kana": "コウチケン",
    "prefecture_code": 39,
    "city": "長岡郡大豊町",
    "city_kana": "ナガオカグンオオトヨチョウ",
    "town": "川井",
    "town_kana": "カワイ",
    "street": null,
    "office_name": null,
    "office_name_kana": null
  },
  "0173": [
    {
      "postcode": "7890173",
      "prefecture": "高知県",
      "prefecture_kana": "コウチケン",
      "prefecture_code": 39,
      "city": "長岡郡大豊町",
      "city_kana": "ナガオカグンオオトヨチョウ",
      "town": "大平",
      "town_kana": "オオダイラ",
      "street": null,
      "office_name": null,
      "office_name_kana": null
    },
    {
      "postcode": "7890173",
      "prefecture": "高知県",
      "prefecture_kana": "コウチケン",
      "prefecture_code": 39,
      "city": "長岡郡大豊町",
      "city_kana": "ナガオカグンオオトヨチョウ",
      "town": "大平高原",
      "town_kana": "オオダイラタカハラ",
      "street": null,
      "office_name": null,
      "office_name_kana": null
    }
  ],
  "0174": {
    "postcode": "7890174",
    "prefecture": "高知県",
    "prefecture_kana": "コウチケン",
    "prefecture_code": 39,
    "city": "長岡郡大豊町",
    "city_kana": "ナガオカグンオオトヨチョウ",
    "town": "中内",
    "town_kana": "ナカウチ",
    "street": null,
    "office_name": null,
    "office_name_kana": null
  },
  "0231": {
    "postcode": "7890231",
    "prefecture": "高知県",
    "prefecture_kana": "コウチケン",
    "prefecture_code": 39,
    "city": "長岡郡大豊町",
    "city_kana": "ナガオカグンオオトヨチョウ",
    "town": "奥大田",
    "town_kana": "オクオオタ",
    "street": null,
    "office_name": null,
    "office_name_kana": null
  },
  "0232": [
    {
      "postcode": "7890232",
      "prefecture": "高知県",
      "prefecture_kana": "コウチケン",
      "prefecture_code": 39,
      "city": "長岡郡大豊町",
      "city_kana": "ナガオカグンオオトヨチョウ",
      "town": "梶ケ内",
      "town_kana": "カジガウチ",
      "street": null,
      "office_name": null,
      "office_name_kana": null
    },
    {
      "postcode": "7890232",
      "prefecture": "高知県",
      "prefecture_kana": "コウチケン",
      "prefecture_code": 39,
      "city": "長岡郡大豊町",
      "city_kana": "ナガオカグンオオトヨチョウ",
      "town": "梶ケ内石堂",
      "town_kana": "カジガウチイシドウ",
      "street": null,
      "office_name": null,
      "office_name_kana": null
    },
    {
      "postcode": "7890232",
      "prefecture": "高知県",
      "prefecture_kana": "コウチケン",
      "prefecture_code": 39,
      "city": "長岡郡大豊町",
      "city_kana": "ナガオカグンオオトヨチョウ",
      "town": "梶ケ内佐賀井",
      "town_kana": "カジガウチサガイ",
      "street": null,
      "office_name": null,
      "office_name_kana": null
    }
  ],
  "0233": {
    "postcode": "7890233",
    "prefecture": "高知県",
    "prefecture_kana": "コウチケン",
    "prefecture_code": 39,
    "city": "長岡郡大豊町",
    "city_kana": "ナガオカグンオオトヨチョウ",
    "town": "磯谷",
    "town_kana": "イソダニ",
    "street": null,
    "office_name": null,
    "office_name_kana": null
  },
  "0234": [
    {
      "postcode": "7890234",
      "prefecture": "高知県",
      "prefecture_kana": "コウチケン",
      "prefecture_code": 39,
      "city": "長岡郡大豊町",
      "city_kana": "ナガオカグンオオトヨチョウ",
      "town": "寺内",
      "town_kana": "テラウチ",
      "street": null,
      "office_name": null,
      "office_name_kana": null
    },
    {
      "postcode": "7890234",
      "prefecture": "高知県",
      "prefecture_kana": "コウチケン",
      "prefecture_code": 39,
      "city": "長岡郡大豊町",
      "city_kana": "ナガオカグンオオトヨチョウ",
      "town": "寺内大田口",
      "town_kana": "テラウチオオタグチ",
      "street": null,
      "office_name": null,
      "office_name_kana": null
    }
  ],
  "0235": {
    "postcode": "7890235",
    "prefecture": "高知県",
    "prefecture_kana": "コウチケン",
    "prefecture_code": 39,
    "city": "長岡郡大豊町",
    "city_kana": "ナガオカグンオオトヨチョウ",
    "town": "船戸",
    "town_kana": "フナト",
    "street": null,
    "office_name": null,
    "office_name_kana": null
  },
  "0236": [
    {
      "postcode": "7890236",
      "prefecture": "高知県",
      "prefecture_kana": "コウチケン",
      "prefecture_code": 39,
      "city": "長岡郡大豊町",
      "city_kana": "ナガオカグンオオトヨチョウ",
      "town": "和田",
      "town_kana": "ワダ",
      "street": null,
      "office_name": null,
      "office_name_kana": null
    },
    {
      "postcode": "7890236",
      "prefecture": "高知県",
      "prefecture_kana": "コウチケン",
      "prefecture_code": 39,
      "city": "長岡郡大豊町",
      "city_kana": "ナガオカグンオオトヨチョウ",
      "town": "和田目付",
      "town_kana": "ワダメツケ",
      "street": null,
      "office_name": null,
      "office_name_kana": null
    }
  ],
  "0237": {
    "postcode": "7890237",
    "prefecture": "高知県",
    "prefecture_kana": "コウチケン",
    "prefecture_code": 39,
    "city": "長岡郡大豊町",
    "city_kana": "ナガオカグンオオトヨチョウ",
    "town": "庵谷",
    "town_kana": "イオノタニ",
    "street": null,
    "office_name": null,
    "office_name_kana": null
  },
  "0241": {
    "postcode": "7890241",
    "prefecture": "高知県",
    "prefecture_kana": "コウチケン",
    "prefecture_code": 39,
    "city": "長岡郡大豊町",
    "city_kana": "ナガオカグンオオトヨチョウ",
    "town": "川戸",
    "town_kana": "カワド",
    "street": null,
    "office_name": null,
    "office_name_kana": null
  },
  "0242": {
    "postcode": "7890242",
    "prefecture": "高知県",
    "prefecture_kana": "コウチケン",
    "prefecture_code": 39,
    "city": "長岡郡大豊町",
    "city_kana": "ナガオカグンオオトヨチョウ",
    "town": "連火",
    "town_kana": "ツレビ",
    "street": null,
    "office_name": null,
    "office_name_kana": null
  },
  "0243": {
    "postcode": "7890243",
    "prefecture": "高知県",
    "prefecture_kana": "コウチケン",
    "prefecture_code": 39,
    "city": "長岡郡大豊町",
    "city_kana": "ナガオカグンオオトヨチョウ",
    "town": "西久保",
    "town_kana": "ニシクボ",
    "street": null,
    "office_name": null,
    "office_name_kana": null
  },
  "0244": {
    "postcode": "7890244",
    "prefecture": "高知県",
    "prefecture_kana": "コウチケン",
    "prefecture_code": 39,
    "city": "長岡郡大豊町",
    "city_kana": "ナガオカグンオオトヨチョウ",
    "town": "桃原",
    "town_kana": "モモハラ",
    "street": null,
    "office_name": null,
    "office_name_kana": null
  },
  "0245": {
    "postcode": "7890245",
    "prefecture": "高知県",
    "prefecture_kana": "コウチケン",
    "prefecture_code": 39,
    "city": "長岡郡大豊町",
    "city_kana": "ナガオカグンオオトヨチョウ",
    "town": "永淵",
    "town_kana": "ナガフチ",
    "street": null,
    "office_name": null,
    "office_name_kana": null
  },
  "0246": {
    "postcode": "7890246",
    "prefecture": "高知県",
    "prefecture_kana": "コウチケン",
    "prefecture_code": 39,
    "city": "長岡郡大豊町",
    "city_kana": "ナガオカグンオオトヨチョウ",
    "town": "柳野",
    "town_kana": "ヤナギノ",
    "street": null,
    "office_name": null,
    "office_name_kana": null
  },
  "0247": {
    "postcode": "7890247",
    "prefecture": "高知県",
    "prefecture_kana": "コウチケン",
    "prefecture_code": 39,
    "city": "長岡郡大豊町",
    "city_kana": "ナガオカグンオオトヨチョウ",
    "town": "大砂子",
    "town_kana": "オオスナゴ",
    "street": null,
    "office_name": null,
    "office_name_kana": null
  },
  "0248": {
    "postcode": "7890248",
    "prefecture": "高知県",
    "prefecture_kana": "コウチケン",
    "prefecture_code": 39,
    "city": "長岡郡大豊町",
    "city_kana": "ナガオカグンオオトヨチョウ",
    "town": "大久保",
    "town_kana": "オオクボ",
    "street": null,
    "office_name": null,
    "office_name_kana": null
  },
  "0250": {
    "postcode": "7890250",
    "prefecture": "高知県",
    "prefecture_kana": "コウチケン",
    "prefecture_code": 39,
    "city": "長岡郡大豊町",
    "city_kana": "ナガオカグンオオトヨチョウ",
    "town": "黒石",
    "town_kana": "クロイシ",
    "street": null,
    "office_name": null,
    "office_name_kana": null
  },
  "0251": {
    "postcode": "7890251",
    "prefecture": "高知県",
    "prefecture_kana": "コウチケン",
    "prefecture_code": 39,
    "city": "長岡郡大豊町",
    "city_kana": "ナガオカグンオオトヨチョウ",
    "town": "中屋",
    "town_kana": "ナカヤ",
    "street": null,
    "office_name": null,
    "office_name_kana": null
  },
  "0252": {
    "postcode": "7890252",
    "prefecture": "高知県",
    "prefecture_kana": "コウチケン",
    "prefecture_code": 39,
    "city": "長岡郡大豊町",
    "city_kana": "ナガオカグンオオトヨチョウ",
    "town": "上東",
    "town_kana": "カミヒガシ",
    "street": null,
    "office_name": null,
    "office_name_kana": null
  },
  "0253": {
    "postcode": "7890253",
    "prefecture": "高知県",
    "prefecture_kana": "コウチケン",
    "prefecture_code": 39,
    "city": "長岡郡大豊町",
    "city_kana": "ナガオカグンオオトヨチョウ",
    "town": "安野々",
    "town_kana": "ヤスノノ",
    "street": null,
    "office_name": null,
    "office_name_kana": null
  },
  "0254": {
    "postcode": "7890254",
    "prefecture": "高知県",
    "prefecture_kana": "コウチケン",
    "prefecture_code": 39,
    "city": "長岡郡大豊町",
    "city_kana": "ナガオカグンオオトヨチョウ",
    "town": "西土居",
    "town_kana": "ニシドイ",
    "street": null,
    "office_name": null,
    "office_name_kana": null
  },
  "0255": {
    "postcode": "7890255",
    "prefecture": "高知県",
    "prefecture_kana": "コウチケン",
    "prefecture_code": 39,
    "city": "長岡郡大豊町",
    "city_kana": "ナガオカグンオオトヨチョウ",
    "town": "佐賀山",
    "town_kana": "サガヤマ",
    "street": null,
    "office_name": null,
    "office_name_kana": null
  },
  "0300": {
    "postcode": "7890300",
    "prefecture": "高知県",
    "prefecture_kana": "コウチケン",
    "prefecture_code": 39,
    "city": "長岡郡大豊町",
    "city_kana": "ナガオカグンオオトヨチョウ",
    "town": "",
    "town_kana": "",
    "street": null,
    "office_name": null,
    "office_name_kana": null
  },
  "0301": [
    {
      "postcode": "7890301",
      "prefecture": "高知県",
      "prefecture_kana": "コウチケン",
      "prefecture_code": 39,
      "city": "長岡郡大豊町",
      "city_kana": "ナガオカグンオオトヨチョウ",
      "town": "津家",
      "town_kana": "ツゲ",
      "street": null,
      "office_name": null,
      "office_name_kana": null
    },
    {
      "postcode": "7890301",
      "prefecture": "高知県",
      "prefecture_kana": "コウチケン",
      "prefecture_code": 39,
      "city": "長岡郡大豊町",
      "city_kana": "ナガオカグンオオトヨチョウ",
      "town": "津家桧生",
      "town_kana": "ツゲヒノキオ",
      "street": null,
      "office_name": null,
      "office_name_kana": null
    }
  ],
  "0302": {
    "postcode": "7890302",
    "prefecture": "高知県",
    "prefecture_kana": "コウチケン",
    "prefecture_code": 39,
    "city": "長岡郡大豊町",
    "city_kana": "ナガオカグンオオトヨチョウ",
    "town": "葛原",
    "town_kana": "カズラワラ",
    "street": null,
    "office_name": null,
    "office_name_kana": null
  },
  "0303": {
    "postcode": "7890303",
    "prefecture": "高知県",
    "prefecture_kana": "コウチケン",
    "prefecture_code": 39,
    "city": "長岡郡大豊町",
    "city_kana": "ナガオカグンオオトヨチョウ",
    "town": "川口",
    "town_kana": "カワグチ",
    "street": null,
    "office_name": null,
    "office_name_kana": null
  },
  "0304": {
    "postcode": "7890304",
    "prefecture": "高知県",
    "prefecture_kana": "コウチケン",
    "prefecture_code": 39,
    "city": "長岡郡大豊町",
    "city_kana": "ナガオカグンオオトヨチョウ",
    "town": "谷",
    "town_kana": "タニ",
    "street": null,
    "office_name": null,
    "office_name_kana": null
  },
  "0305": {
    "postcode": "7890305",
    "prefecture": "高知県",
    "prefecture_kana": "コウチケン",
    "prefecture_code": 39,
    "city": "長岡郡大豊町",
    "city_kana": "ナガオカグンオオトヨチョウ",
    "town": "式岩",
    "town_kana": "シキノイワ",
    "street": null,
    "office_name": null,
    "office_name_kana": null
  },
  "0306": {
    "postcode": "7890306",
    "prefecture": "高知県",
    "prefecture_kana": "コウチケン",
    "prefecture_code": 39,
    "city": "長岡郡大豊町",
    "city_kana": "ナガオカグンオオトヨチョウ",
    "town": "尾生",
    "town_kana": "オウ",
    "street": null,
    "office_name": null,
    "office_name_kana": null
  },
  "0307": {
    "postcode": "7890307",
    "prefecture": "高知県",
    "prefecture_kana": "コウチケン",
    "prefecture_code": 39,
    "city": "長岡郡大豊町",
    "city_kana": "ナガオカグンオオトヨチョウ",
    "town": "穴内",
    "town_kana": "アナナイ",
    "street": null,
    "office_name": null,
    "office_name_kana": null
  },
  "0311": {
    "postcode": "7890311",
    "prefecture": "高知県",
    "prefecture_kana": "コウチケン",
    "prefecture_code": 39,
    "city": "長岡郡大豊町",
    "city_kana": "ナガオカグンオオトヨチョウ",
    "town": "杉",
    "town_kana": "スギ",
    "street": null,
    "office_name": null,
    "office_name_kana": null
  },
  "0312": {
    "postcode": "7890312",
    "prefecture": "高知県",
    "prefecture_kana": "コウチケン",
    "prefecture_code": 39,
    "city": "長岡郡大豊町",
    "city_kana": "ナガオカグンオオトヨチョウ",
    "town": "高須",
    "town_kana": "タカズ",
    "street": null,
    "office_name": null,
    "office_name_kana": null
  },
  "0313": {
    "postcode": "7890313",
    "prefecture": "高知県",
    "prefecture_kana": "コウチケン",
    "prefecture_code": 39,
    "city": "長岡郡大豊町",
    "city_kana": "ナガオカグンオオトヨチョウ",
    "town": "川口南",
    "town_kana": "カワグチミナミ",
    "street": null,
    "office_name": null,
    "office_name_kana": null
  },
  "0314": {
    "postcode": "7890314",
    "prefecture": "高知県",
    "prefecture_kana": "コウチケン",
    "prefecture_code": 39,
    "city": "長岡郡大豊町",
    "city_kana": "ナガオカグンオオトヨチョウ",
    "town": "日浦",
    "town_kana": "ヒウラ",
    "street": null,
    "office_name": null,
    "office_name_kana": null
  },
  "0315": {
    "postcode": "7890315",
    "prefecture": "高知県",
    "prefecture_kana": "コウチケン",
    "prefecture_code": 39,
    "city": "長岡郡大豊町",
    "city_kana": "ナガオカグンオオトヨチョウ",
    "town": "中村大王",
    "town_kana": "ナカムラダイオウ",
    "street": null,
    "office_name": null,
    "office_name_kana": null
  },
  "0316": {
    "postcode": "7890316",
    "prefecture": "高知県",
    "prefecture_kana": "コウチケン",
    "prefecture_code": 39,
    "city": "長岡郡大豊町",
    "city_kana": "ナガオカグンオオトヨチョウ",
    "town": "小川",
    "town_kana": "オガワ",
    "street": null,
    "office_name": null,
    "office_name_kana": null
  },
  "0321": {
    "postcode": "7890321",
    "prefecture": "高知県",
    "prefecture_kana": "コウチケン",
    "prefecture_code": 39,
    "city": "長岡郡大豊町",
    "city_kana": "ナガオカグンオオトヨチョウ",
    "town": "角茂谷",
    "town_kana": "カクモダニ",
    "street": null,
    "office_name": null,
    "office_name_kana": null
  },
  "0322": {
    "postcode": "7890322",
    "prefecture": "高知県",
    "prefecture_kana": "コウチケン",
    "prefecture_code": 39,
    "city": "長岡郡大豊町",
    "city_kana": "ナガオカグンオオトヨチョウ",
    "town": "戸手野",
    "town_kana": "トデノ",
    "street": null,
    "office_name": null,
    "office_name_kana": null
  },
  "0323": {
    "postcode": "7890323",
    "prefecture": "高知県",
    "prefecture_kana": "コウチケン",
    "prefecture_code": 39,
    "city": "長岡郡大豊町",
    "city_kana": "ナガオカグンオオトヨチョウ",
    "town": "馬瀬",
    "town_kana": "ウマゼ",
    "street": null,
    "office_name": null,
    "office_name_kana": null
  },
  "0324": {
    "postcode": "7890324",
    "prefecture": "高知県",
    "prefecture_kana": "コウチケン",
    "prefecture_code": 39,
    "city": "長岡郡大豊町",
    "city_kana": "ナガオカグンオオトヨチョウ",
    "town": "久寿軒",
    "town_kana": "クスノキ",
    "street": null,
    "office_name": null,
    "office_name_kana": null
  },
  "0325": {
    "postcode": "7890325",
    "prefecture": "高知県",
    "prefecture_kana": "コウチケン",
    "prefecture_code": 39,
    "city": "長岡郡大豊町",
    "city_kana": "ナガオカグンオオトヨチョウ",
    "town": "北川",
    "town_kana": "キタガワ",
    "street": null,
    "office_name": null,
    "office_name_kana": null
  },
  "0392": {
    "postcode": "7890392",
    "prefecture": "高知県",
    "prefecture_kana": "コウチケン",
    "prefecture_code": 39,
    "city": "長岡郡大豊町",
    "city_kana": "ナガオカグンオオトヨチョウ",
    "town": "津家",
    "town_kana": "ツゲ",
    "street": "１６２６",
    "office_name": "大豊町役場",
    "office_name_kana": "オオトヨチヨウヤクバ"
  },
  "0426": {
    "postcode": "7890426",
    "prefecture": "高知県",
    "prefecture_kana": "コウチケン",
    "prefecture_code": 39,
    "city": "長岡郡大豊町",
    "city_kana": "ナガオカグンオオトヨチョウ",
    "town": "立川上名",
    "town_kana": "タジカワカミミョウ",
    "street": null,
    "office_name": null,
    "office_name_kana": null
  },
  "0427": {
    "postcode": "7890427",
    "prefecture": "高知県",
    "prefecture_kana": "コウチケン",
    "prefecture_code": 39,
    "city": "長岡郡大豊町",
    "city_kana": "ナガオカグンオオトヨチョウ",
    "town": "立川下名",
    "town_kana": "タジカワシモミョウ",
    "street": null,
    "office_name": null,
    "office_name_kana": null
  },
  "0428": [
    {
      "postcode": "7890428",
      "prefecture": "高知県",
      "prefecture_kana": "コウチケン",
      "prefecture_code": 39,
      "city": "長岡郡大豊町",
      "city_kana": "ナガオカグンオオトヨチョウ",
      "town": "葛原",
      "town_kana": "カズラワラ",
      "street": null,
      "office_name": null,
      "office_name_kana": null
    },
    {
      "postcode": "7890428",
      "prefecture": "高知県",
      "prefecture_kana": "コウチケン",
      "prefecture_code": 39,
      "city": "長岡郡大豊町",
      "city_kana": "ナガオカグンオオトヨチョウ",
      "town": "葛原千野々",
      "town_kana": "カズラワラチノノ",
      "street": null,
      "office_name": null,
      "office_name_kana": null
    }
  ],
  "0581": {
    "postcode": "7890581",
    "prefecture": "高知県",
    "prefecture_kana": "コウチケン",
    "prefecture_code": 39,
    "city": "香美市",
    "city_kana": "カミシ",
    "town": "土佐山田町西又",
    "town_kana": "トサヤマダチョウニシマタ",
    "street": null,
    "office_name": null,
    "office_name_kana": null
  },
  "0582": {
    "postcode": "7890582",
    "prefecture": "高知県",
    "prefecture_kana": "コウチケン",
    "prefecture_code": 39,
    "city": "香美市",
    "city_kana": "カミシ",
    "town": "土佐山田町角茂谷",
    "town_kana": "トサヤマダチョウカクモダニ",
    "street": null,
    "office_name": null,
    "office_name_kana": null
  },
  "0583": [
    {
      "postcode": "7890583",
      "prefecture": "高知県",
      "prefecture_kana": "コウチケン",
      "prefecture_code": 39,
      "city": "香美市",
      "city_kana": "カミシ",
      "town": "土佐山田町平山",
      "town_kana": "トサヤマダチョウヒラヤマ",
      "street": null,
      "office_name": null,
      "office_name_kana": null
    },
    {
      "postcode": "7890583",
      "prefecture": "高知県",
      "prefecture_kana": "コウチケン",
      "prefecture_code": 39,
      "city": "香美市",
      "city_kana": "カミシ",
      "town": "土佐山田町平山岡田丸",
      "town_kana": "トサヤマダチョウヒラヤマオカダマル",
      "street": null,
      "office_name": null,
      "office_name_kana": null
    },
    {
      "postcode": "7890583",
      "prefecture": "高知県",
      "prefecture_kana": "コウチケン",
      "prefecture_code": 39,
      "city": "香美市",
      "city_kana": "カミシ",
      "town": "土佐山田町平山双子岩",
      "town_kana": "トサヤマダチョウヒラヤマフタゴイワ",
      "street": null,
      "office_name": null,
      "office_name_kana": null
    },
    {
      "postcode": "7890583",
      "prefecture": "高知県",
      "prefecture_kana": "コウチケン",
      "prefecture_code": 39,
      "city": "香美市",
      "city_kana": "カミシ",
      "town": "土佐山田町平山向田",
      "town_kana": "トサヤマダチョウヒラヤマムカイダ",
      "street": null,
      "office_name": null,
      "office_name_kana": null
    }
  ],
  "0584": {
    "postcode": "7890584",
    "prefecture": "高知県",
    "prefecture_kana": "コウチケン",
    "prefecture_code": 39,
    "city": "香美市",
    "city_kana": "カミシ",
    "town": "土佐山田町北滝本",
    "town_kana": "トサヤマダチョウキタタキモト",
    "street": null,
    "office_name": null,
    "office_name_kana": null
  },
  "0585": {
    "postcode": "7890585",
    "prefecture": "高知県",
    "prefecture_kana": "コウチケン",
    "prefecture_code": 39,
    "city": "香美市",
    "city_kana": "カミシ",
    "town": "土佐山田町繁藤",
    "town_kana": "トサヤマダチョウシゲトウ",
    "street": null,
    "office_name": null,
    "office_name_kana": null
  },
  "0586": {
    "postcode": "7890586",
    "prefecture": "高知県",
    "prefecture_kana": "コウチケン",
    "prefecture_code": 39,
    "city": "香美市",
    "city_kana": "カミシ",
    "town": "土佐山田町樫谷",
    "town_kana": "トサヤマダチョウカシノタニ",
    "street": null,
    "office_name": null,
    "office_name_kana": null
  },
  "0587": {
    "postcode": "7890587",
    "prefecture": "高知県",
    "prefecture_kana": "コウチケン",
    "prefecture_code": 39,
    "city": "香美市",
    "city_kana": "カミシ",
    "town": "土佐山田町上穴内",
    "town_kana": "トサヤマダチョウカミアナナイ",
    "street": null,
    "office_name": null,
    "office_name_kana": null
  },
  "1200": {
    "postcode": "7891200",
    "prefecture": "高知県",
    "prefecture_kana": "コウチケン",
    "prefecture_code": 39,
    "city": "高岡郡佐川町",
    "city_kana": "タカオカグンサカワチョウ",
    "town": "",
    "town_kana": "",
    "street": null,
    "office_name": null,
    "office_name_kana": null
  },
  "1201": {
    "postcode": "7891201",
    "prefecture": "高知県",
    "prefecture_kana": "コウチケン",
    "prefecture_code": 39,
    "city": "高岡郡佐川町",
    "city_kana": "タカオカグンサカワチョウ",
    "town": "甲",
    "town_kana": "コウ",
    "street": null,
    "office_name": null,
    "office_name_kana": null
  },
  "1202": {
    "postcode": "7891202",
    "prefecture": "高知県",
    "prefecture_kana": "コウチケン",
    "prefecture_code": 39,
    "city": "高岡郡佐川町",
    "city_kana": "タカオカグンサカワチョウ",
    "town": "乙",
    "town_kana": "オツ",
    "street": null,
    "office_name": null,
    "office_name_kana": null
  },
  "1203": {
    "postcode": "7891203",
    "prefecture": "高知県",
    "prefecture_kana": "コウチケン",
    "prefecture_code": 39,
    "city": "高岡郡佐川町",
    "city_kana": "タカオカグンサカワチョウ",
    "town": "丙",
    "town_kana": "ヘイ",
    "street": null,
    "office_name": null,
    "office_name_kana": null
  },
  "1204": {
    "postcode": "7891204",
    "prefecture": "高知県",
    "prefecture_kana": "コウチケン",
    "prefecture_code": 39,
    "city": "高岡郡佐川町",
    "city_kana": "タカオカグンサカワチョウ",
    "town": "加茂",
    "town_kana": "カモ",
    "street": null,
    "office_name": null,
    "office_name_kana": null
  },
  "1205": {
    "postcode": "7891205",
    "prefecture": "高知県",
    "prefecture_kana": "コウチケン",
    "prefecture_code": 39,
    "city": "高岡郡佐川町",
    "city_kana": "タカオカグンサカワチョウ",
    "town": "室原",
    "town_kana": "ムロハラ",
    "street": null,
    "office_name": null,
    "office_name_kana": null
  },
  "1211": {
    "postcode": "7891211",
    "prefecture": "高知県",
    "prefecture_kana": "コウチケン",
    "prefecture_code": 39,
    "city": "高岡郡佐川町",
    "city_kana": "タカオカグンサカワチョウ",
    "town": "黒原",
    "town_kana": "クロハラ",
    "street": null,
    "office_name": null,
    "office_name_kana": null
  },
  "1212": {
    "postcode": "7891212",
    "prefecture": "高知県",
    "prefecture_kana": "コウチケン",
    "prefecture_code": 39,
    "city": "高岡郡佐川町",
    "city_kana": "タカオカグンサカワチョウ",
    "town": "四ツ白",
    "town_kana": "ヨツジロ",
    "street": null,
    "office_name": null,
    "office_name_kana": null
  },
  "1213": {
    "postcode": "7891213",
    "prefecture": "高知県",
    "prefecture_kana": "コウチケン",
    "prefecture_code": 39,
    "city": "高岡郡佐川町",
    "city_kana": "タカオカグンサカワチョウ",
    "town": "二ツ野",
    "town_kana": "フタツノ",
    "street": null,
    "office_name": null,
    "office_name_kana": null
  },
  "1214": {
    "postcode": "7891214",
    "prefecture": "高知県",
    "prefecture_kana": "コウチケン",
    "prefecture_code": 39,
    "city": "高岡郡佐川町",
    "city_kana": "タカオカグンサカワチョウ",
    "town": "中野",
    "town_kana": "ナカノ",
    "street": null,
    "office_name": null,
    "office_name_kana": null
  },
  "1215": {
    "postcode": "7891215",
    "prefecture": "高知県",
    "prefecture_kana": "コウチケン",
    "prefecture_code": 39,
    "city": "高岡郡佐川町",
    "city_kana": "タカオカグンサカワチョウ",
    "town": "瑞応",
    "town_kana": "ズイオウ",
    "street": null,
    "office_name": null,
    "office_name_kana": null
  },
  "1216": {
    "postcode": "7891216",
    "prefecture": "高知県",
    "prefecture_kana": "コウチケン",
    "prefecture_code": 39,
    "city": "高岡郡佐川町",
    "city_kana": "タカオカグンサカワチョウ",
    "town": "庄田",
    "town_kana": "ショウダ",
    "street": null,
    "office_name": null,
    "office_name_kana": null
  },
  "1217": {
    "postcode": "7891217",
    "prefecture": "高知県",
    "prefecture_kana": "コウチケン",
    "prefecture_code": 39,
    "city": "高岡郡佐川町",
    "city_kana": "タカオカグンサカワチョウ",
    "town": "大田川",
    "town_kana": "オオタカワ",
    "street": null,
    "office_name": null,
    "office_name_kana": null
  },
  "1218": {
    "postcode": "7891218",
    "prefecture": "高知県",
    "prefecture_kana": "コウチケン",
    "prefecture_code": 39,
    "city": "高岡郡佐川町",
    "city_kana": "タカオカグンサカワチョウ",
    "town": "平野",
    "town_kana": "ヒラノ",
    "street": null,
    "office_name": null,
    "office_name_kana": null
  },
  "1221": {
    "postcode": "7891221",
    "prefecture": "高知県",
    "prefecture_kana": "コウチケン",
    "prefecture_code": 39,
    "city": "高岡郡佐川町",
    "city_kana": "タカオカグンサカワチョウ",
    "town": "本郷耕",
    "town_kana": "ホンゴウコウ",
    "street": null,
    "office_name": null,
    "office_name_kana": null
  },
  "1222": {
    "postcode": "7891222",
    "prefecture": "高知県",
    "prefecture_kana": "コウチケン",
    "prefecture_code": 39,
    "city": "高岡郡佐川町",
    "city_kana": "タカオカグンサカワチョウ",
    "town": "西山組",
    "town_kana": "ニシヤマグミ",
    "street": null,
    "office_name": null,
    "office_name_kana": null
  },
  "1223": {
    "postcode": "7891223",
    "prefecture": "高知県",
    "prefecture_kana": "コウチケン",
    "prefecture_code": 39,
    "city": "高岡郡佐川町",
    "city_kana": "タカオカグンサカワチョウ",
    "town": "西山耕",
    "town_kana": "ニシヤマコウ",
    "street": null,
    "office_name": null,
    "office_name_kana": null
  },
  "1224": {
    "postcode": "7891224",
    "prefecture": "高知県",
    "prefecture_kana": "コウチケン",
    "prefecture_code": 39,
    "city": "高岡郡佐川町",
    "city_kana": "タカオカグンサカワチョウ",
    "town": "古畑耕",
    "town_kana": "フルハタコウ",
    "street": null,
    "office_name": null,
    "office_name_kana": null
  },
  "1225": {
    "postcode": "7891225",
    "prefecture": "高知県",
    "prefecture_kana": "コウチケン",
    "prefecture_code": 39,
    "city": "高岡郡佐川町",
    "city_kana": "タカオカグンサカワチョウ",
    "town": "峰耕",
    "town_kana": "ミネコウ",
    "street": null,
    "office_name": null,
    "office_name_kana": null
  },
  "1231": {
    "postcode": "7891231",
    "prefecture": "高知県",
    "prefecture_kana": "コウチケン",
    "prefecture_code": 39,
    "city": "高岡郡佐川町",
    "city_kana": "タカオカグンサカワチョウ",
    "town": "永野",
    "town_kana": "ナガノ",
    "street": null,
    "office_name": null,
    "office_name_kana": null
  },
  "1232": {
    "postcode": "7891232",
    "prefecture": "高知県",
    "prefecture_kana": "コウチケン",
    "prefecture_code": 39,
    "city": "高岡郡佐川町",
    "city_kana": "タカオカグンサカワチョウ",
    "town": "東組",
    "town_kana": "ヒガシグミ",
    "street": null,
    "office_name": null,
    "office_name_kana": null
  },
  "1233": {
    "postcode": "7891233",
    "prefecture": "高知県",
    "prefecture_kana": "コウチケン",
    "prefecture_code": 39,
    "city": "高岡郡佐川町",
    "city_kana": "タカオカグンサカワチョウ",
    "town": "中組",
    "town_kana": "ナカグミ",
    "street": null,
    "office_name": null,
    "office_name_kana": null
  },
  "1234": {
    "postcode": "7891234",
    "prefecture": "高知県",
    "prefecture_kana": "コウチケン",
    "prefecture_code": 39,
    "city": "高岡郡佐川町",
    "city_kana": "タカオカグンサカワチョウ",
    "town": "西組",
    "town_kana": "ニシグミ",
    "street": null,
    "office_name": null,
    "office_name_kana": null
  },
  "1235": {
    "postcode": "7891235",
    "prefecture": "高知県",
    "prefecture_kana": "コウチケン",
    "prefecture_code": 39,
    "city": "高岡郡佐川町",
    "city_kana": "タカオカグンサカワチョウ",
    "town": "川ノ内組",
    "town_kana": "カワノウチグミ",
    "street": null,
    "office_name": null,
    "office_name_kana": null
  },
  "1292": {
    "postcode": "7891292",
    "prefecture": "高知県",
    "prefecture_kana": "コウチケン",
    "prefecture_code": 39,
    "city": "高岡郡佐川町",
    "city_kana": "タカオカグンサカワチョウ",
    "town": "甲",
    "town_kana": "コウ",
    "street": "１６５０−２（佐川郵便局私書箱第５号）",
    "office_name": "佐川町役場",
    "office_name_kana": "サカワチヨウヤクバ"
  },
  "1300": {
    "postcode": "7891300",
    "prefecture": "高知県",
    "prefecture_kana": "コウチケン",
    "prefecture_code": 39,
    "city": "高岡郡中土佐町",
    "city_kana": "タカオカグンナカトサチョウ",
    "town": "",
    "town_kana": "",
    "street": null,
    "office_name": null,
    "office_name_kana": null
  },
  "1301": {
    "postcode": "7891301",
    "prefecture": "高知県",
    "prefecture_kana": "コウチケン",
    "prefecture_code": 39,
    "city": "高岡郡中土佐町",
    "city_kana": "タカオカグンナカトサチョウ",
    "town": "久礼",
    "town_kana": "クレ",
    "street": null,
    "office_name": null,
    "office_name_kana": null
  },
  "1302": {
    "postcode": "7891302",
    "prefecture": "高知県",
    "prefecture_kana": "コウチケン",
    "prefecture_code": 39,
    "city": "高岡郡中土佐町",
    "city_kana": "タカオカグンナカトサチョウ",
    "town": "上ノ加江",
    "town_kana": "カミノカエ",
    "street": null,
    "office_name": null,
    "office_name_kana": null
  },
  "1303": {
    "postcode": "7891303",
    "prefecture": "高知県",
    "prefecture_kana": "コウチケン",
    "prefecture_code": 39,
    "city": "高岡郡中土佐町",
    "city_kana": "タカオカグンナカトサチョウ",
    "town": "矢井賀甲",
    "town_kana": "ヤイカコウ",
    "street": null,
    "office_name": null,
    "office_name_kana": null
  },
  "1304": {
    "postcode": "7891304",
    "prefecture": "高知県",
    "prefecture_kana": "コウチケン",
    "prefecture_code": 39,
    "city": "高岡郡中土佐町",
    "city_kana": "タカオカグンナカトサチョウ",
    "town": "矢井賀乙",
    "town_kana": "ヤイカオツ",
    "street": null,
    "office_name": null,
    "office_name_kana": null
  },
  "1401": {
    "postcode": "7891401",
    "prefecture": "高知県",
    "prefecture_kana": "コウチケン",
    "prefecture_code": 39,
    "city": "高岡郡中土佐町",
    "city_kana": "タカオカグンナカトサチョウ",
    "town": "大野見吉野",
    "town_kana": "オオノミヨシノ",
    "street": null,
    "office_name": null,
    "office_name_kana": null
  },
  "1402": {
    "postcode": "7891402",
    "prefecture": "高知県",
    "prefecture_kana": "コウチケン",
    "prefecture_code": 39,
    "city": "高岡郡中土佐町",
    "city_kana": "タカオカグンナカトサチョウ",
    "town": "大野見橋谷",
    "town_kana": "オオノミハシダニ",
    "street": null,
    "office_name": null,
    "office_name_kana": null
  },
  "1403": {
    "postcode": "7891403",
    "prefecture": "高知県",
    "prefecture_kana": "コウチケン",
    "prefecture_code": 39,
    "city": "高岡郡中土佐町",
    "city_kana": "タカオカグンナカトサチョウ",
    "town": "大野見久万秋",
    "town_kana": "オオノミクマアキ",
    "street": null,
    "office_name": null,
    "office_name_kana": null
  },
  "1404": {
    "postcode": "7891404",
    "prefecture": "高知県",
    "prefecture_kana": "コウチケン",
    "prefecture_code": 39,
    "city": "高岡郡中土佐町",
    "city_kana": "タカオカグンナカトサチョウ",
    "town": "大野見奈路",
    "town_kana": "オオノミナロ",
    "street": null,
    "office_name": null,
    "office_name_kana": null
  },
  "1405": {
    "postcode": "7891405",
    "prefecture": "高知県",
    "prefecture_kana": "コウチケン",
    "prefecture_code": 39,
    "city": "高岡郡中土佐町",
    "city_kana": "タカオカグンナカトサチョウ",
    "town": "大野見伊勢川",
    "town_kana": "オオノミイセガワ",
    "street": null,
    "office_name": null,
    "office_name_kana": null
  },
  "1406": {
    "postcode": "7891406",
    "prefecture": "高知県",
    "prefecture_kana": "コウチケン",
    "prefecture_code": 39,
    "city": "高岡郡中土佐町",
    "city_kana": "タカオカグンナカトサチョウ",
    "town": "大野見槇野々",
    "town_kana": "オオノミマキノノ",
    "street": null,
    "office_name": null,
    "office_name_kana": null
  },
  "1407": {
    "postcode": "7891407",
    "prefecture": "高知県",
    "prefecture_kana": "コウチケン",
    "prefecture_code": 39,
    "city": "高岡郡中土佐町",
    "city_kana": "タカオカグンナカトサチョウ",
    "town": "大野見三ツ又",
    "town_kana": "オオノミミツマタ",
    "street": null,
    "office_name": null,
    "office_name_kana": null
  },
  "1408": {
    "postcode": "7891408",
    "prefecture": "高知県",
    "prefecture_kana": "コウチケン",
    "prefecture_code": 39,
    "city": "高岡郡中土佐町",
    "city_kana": "タカオカグンナカトサチョウ",
    "town": "大野見長野",
    "town_kana": "オオノミナガノ",
    "street": null,
    "office_name": null,
    "office_name_kana": null
  },
  "1409": {
    "postcode": "7891409",
    "prefecture": "高知県",
    "prefecture_kana": "コウチケン",
    "prefecture_code": 39,
    "city": "高岡郡中土佐町",
    "city_kana": "タカオカグンナカトサチョウ",
    "town": "大野見竹原",
    "town_kana": "オオノミタケハラ",
    "street": null,
    "office_name": null,
    "office_name_kana": null
  },
  "1410": {
    "postcode": "7891410",
    "prefecture": "高知県",
    "prefecture_kana": "コウチケン",
    "prefecture_code": 39,
    "city": "高岡郡中土佐町",
    "city_kana": "タカオカグンナカトサチョウ",
    "town": "大野見栂ノ川",
    "town_kana": "オオノミツガノカワ",
    "street": null,
    "office_name": null,
    "office_name_kana": null
  },
  "1411": {
    "postcode": "7891411",
    "prefecture": "高知県",
    "prefecture_kana": "コウチケン",
    "prefecture_code": 39,
    "city": "高岡郡中土佐町",
    "city_kana": "タカオカグンナカトサチョウ",
    "town": "大野見野老野",
    "town_kana": "オオノミトコロノ",
    "street": null,
    "office_name": null,
    "office_name_kana": null
  },
  "1412": {
    "postcode": "7891412",
    "prefecture": "高知県",
    "prefecture_kana": "コウチケン",
    "prefecture_code": 39,
    "city": "高岡郡中土佐町",
    "city_kana": "タカオカグンナカトサチョウ",
    "town": "大野見川奥",
    "town_kana": "オオノミカワオク",
    "street": null,
    "office_name": null,
    "office_name_kana": null
  },
  "1413": {
    "postcode": "7891413",
    "prefecture": "高知県",
    "prefecture_kana": "コウチケン",
    "prefecture_code": 39,
    "city": "高岡郡中土佐町",
    "city_kana": "タカオカグンナカトサチョウ",
    "town": "大野見荒瀬",
    "town_kana": "オオノミアラセ",
    "street": null,
    "office_name": null,
    "office_name_kana": null
  },
  "1414": {
    "postcode": "7891414",
    "prefecture": "高知県",
    "prefecture_kana": "コウチケン",
    "prefecture_code": 39,
    "city": "高岡郡中土佐町",
    "city_kana": "タカオカグンナカトサチョウ",
    "town": "大野見神母野",
    "town_kana": "オオノミイゲノ",
    "street": null,
    "office_name": null,
    "office_name_kana": null
  },
  "1415": {
    "postcode": "7891415",
    "prefecture": "高知県",
    "prefecture_kana": "コウチケン",
    "prefecture_code": 39,
    "city": "高岡郡中土佐町",
    "city_kana": "タカオカグンナカトサチョウ",
    "town": "大野見寺野",
    "town_kana": "オオノミテラノ",
    "street": null,
    "office_name": null,
    "office_name_kana": null
  },
  "1416": {
    "postcode": "7891416",
    "prefecture": "高知県",
    "prefecture_kana": "コウチケン",
    "prefecture_code": 39,
    "city": "高岡郡中土佐町",
    "city_kana": "タカオカグンナカトサチョウ",
    "town": "大野見下ル川",
    "town_kana": "オオノミクダルカワ",
    "street": null,
    "office_name": null,
    "office_name_kana": null
  },
  "1417": {
    "postcode": "7891417",
    "prefecture": "高知県",
    "prefecture_kana": "コウチケン",
    "prefecture_code": 39,
    "city": "高岡郡中土佐町",
    "city_kana": "タカオカグンナカトサチョウ",
    "town": "大野見萩中",
    "town_kana": "オオノミハギナカ",
    "street": null,
    "office_name": null,
    "office_name_kana": null
  },
  "1418": {
    "postcode": "7891418",
    "prefecture": "高知県",
    "prefecture_kana": "コウチケン",
    "prefecture_code": 39,
    "city": "高岡郡中土佐町",
    "city_kana": "タカオカグンナカトサチョウ",
    "town": "大野見大股",
    "town_kana": "オオノミオオマタ",
    "street": null,
    "office_name": null,
    "office_name_kana": null
  },
  "1419": {
    "postcode": "7891419",
    "prefecture": "高知県",
    "prefecture_kana": "コウチケン",
    "prefecture_code": 39,
    "city": "高岡郡中土佐町",
    "city_kana": "タカオカグンナカトサチョウ",
    "town": "大野見島ノ川",
    "town_kana": "オオノミシマノガワ",
    "street": null,
    "office_name": null,
    "office_name_kana": null
  },
  "1701": {
    "postcode": "7891701",
    "prefecture": "高知県",
    "prefecture_kana": "コウチケン",
    "prefecture_code": 39,
    "city": "幡多郡黒潮町",
    "city_kana": "ハタグンクロシオチョウ",
    "town": "市野瀬",
    "town_kana": "イチノセ",
    "street": null,
    "office_name": null,
    "office_name_kana": null
  },
  "1702": {
    "postcode": "7891702",
    "prefecture": "高知県",
    "prefecture_kana": "コウチケン",
    "prefecture_code": 39,
    "city": "幡多郡黒潮町",
    "city_kana": "ハタグンクロシオチョウ",
    "town": "佐賀橘川",
    "town_kana": "サガタチバナガワ",
    "street": null,
    "office_name": null,
    "office_name_kana": null
  },
  "1703": {
    "postcode": "7891703",
    "prefecture": "高知県",
    "prefecture_kana": "コウチケン",
    "prefecture_code": 39,
    "city": "幡多郡黒潮町",
    "city_kana": "ハタグンクロシオチョウ",
    "town": "拳ノ川",
    "town_kana": "コブシノカワ",
    "street": null,
    "office_name": null,
    "office_name_kana": null
  },
  "1704": {
    "postcode": "7891704",
    "prefecture": "高知県",
    "prefecture_kana": "コウチケン",
    "prefecture_code": 39,
    "city": "幡多郡黒潮町",
    "city_kana": "ハタグンクロシオチョウ",
    "town": "川奥",
    "town_kana": "カワオク",
    "street": null,
    "office_name": null,
    "office_name_kana": null
  },
  "1705": {
    "postcode": "7891705",
    "prefecture": "高知県",
    "prefecture_kana": "コウチケン",
    "prefecture_code": 39,
    "city": "幡多郡黒潮町",
    "city_kana": "ハタグンクロシオチョウ",
    "town": "荷稲",
    "town_kana": "カイナ",
    "street": null,
    "office_name": null,
    "office_name_kana": null
  },
  "1706": {
    "postcode": "7891706",
    "prefecture": "高知県",
    "prefecture_kana": "コウチケン",
    "prefecture_code": 39,
    "city": "幡多郡黒潮町",
    "city_kana": "ハタグンクロシオチョウ",
    "town": "小黒ノ川",
    "town_kana": "コグロノカワ",
    "street": null,
    "office_name": null,
    "office_name_kana": null
  },
  "1707": {
    "postcode": "7891707",
    "prefecture": "高知県",
    "prefecture_kana": "コウチケン",
    "prefecture_code": 39,
    "city": "幡多郡黒潮町",
    "city_kana": "ハタグンクロシオチョウ",
    "town": "中ノ川",
    "town_kana": "ナカノカワ",
    "street": null,
    "office_name": null,
    "office_name_kana": null
  },
  "1708": {
    "postcode": "7891708",
    "prefecture": "高知県",
    "prefecture_kana": "コウチケン",
    "prefecture_code": 39,
    "city": "幡多郡黒潮町",
    "city_kana": "ハタグンクロシオチョウ",
    "town": "鈴",
    "town_kana": "スズ",
    "street": null,
    "office_name": null,
    "office_name_kana": null
  },
  "1711": {
    "postcode": "7891711",
    "prefecture": "高知県",
    "prefecture_kana": "コウチケン",
    "prefecture_code": 39,
    "city": "幡多郡黒潮町",
    "city_kana": "ハタグンクロシオチョウ",
    "town": "市野々川",
    "town_kana": "イチノノガワ",
    "street": null,
    "office_name": null,
    "office_name_kana": null
  },
  "1712": {
    "postcode": "7891712",
    "prefecture": "高知県",
    "prefecture_kana": "コウチケン",
    "prefecture_code": 39,
    "city": "幡多郡黒潮町",
    "city_kana": "ハタグンクロシオチョウ",
    "town": "不破原",
    "town_kana": "フバハラ",
    "street": null,
    "office_name": null,
    "office_name_kana": null
  },
  "1713": {
    "postcode": "7891713",
    "prefecture": "高知県",
    "prefecture_kana": "コウチケン",
    "prefecture_code": 39,
    "city": "幡多郡黒潮町",
    "city_kana": "ハタグンクロシオチョウ",
    "town": "伊与喜",
    "town_kana": "イヨキ",
    "street": null,
    "office_name": null,
    "office_name_kana": null
  },
  "1714": {
    "postcode": "7891714",
    "prefecture": "高知県",
    "prefecture_kana": "コウチケン",
    "prefecture_code": 39,
    "city": "幡多郡黒潮町",
    "city_kana": "ハタグンクロシオチョウ",
    "town": "藤縄",
    "town_kana": "フジナワ",
    "street": null,
    "office_name": null,
    "office_name_kana": null
  },
  "1715": {
    "postcode": "7891715",
    "prefecture": "高知県",
    "prefecture_kana": "コウチケン",
    "prefecture_code": 39,
    "city": "幡多郡黒潮町",
    "city_kana": "ハタグンクロシオチョウ",
    "town": "熊井",
    "town_kana": "クマイ",
    "street": null,
    "office_name": null,
    "office_name_kana": null
  },
  "1716": {
    "postcode": "7891716",
    "prefecture": "高知県",
    "prefecture_kana": "コウチケン",
    "prefecture_code": 39,
    "city": "幡多郡黒潮町",
    "city_kana": "ハタグンクロシオチョウ",
    "town": "熊野浦",
    "town_kana": "クマノウラ",
    "street": null,
    "office_name": null,
    "office_name_kana": null
  },
  "1720": {
    "postcode": "7891720",
    "prefecture": "高知県",
    "prefecture_kana": "コウチケン",
    "prefecture_code": 39,
    "city": "幡多郡黒潮町",
    "city_kana": "ハタグンクロシオチョウ",
    "town": "佐賀",
    "town_kana": "サガ",
    "street": null,
    "office_name": null,
    "office_name_kana": null
  },
  "1721": [
    {
      "postcode": "7891721",
      "prefecture": "高知県",
      "prefecture_kana": "コウチケン",
      "prefecture_code": 39,
      "city": "幡多郡黒潮町",
      "city_kana": "ハタグンクロシオチョウ",
      "town": "佐賀",
      "town_kana": "サガ",
      "street": null,
      "office_name": null,
      "office_name_kana": null
    },
    {
      "postcode": "7891721",
      "prefecture": "高知県",
      "prefecture_kana": "コウチケン",
      "prefecture_code": 39,
      "city": "幡多郡黒潮町",
      "city_kana": "ハタグンクロシオチョウ",
      "town": "佐賀中角",
      "town_kana": "サガナカカド",
      "street": null,
      "office_name": null,
      "office_name_kana": null
    }
  ],
  "1722": [
    {
      "postcode": "7891722",
      "prefecture": "高知県",
      "prefecture_kana": "コウチケン",
      "prefecture_code": 39,
      "city": "幡多郡黒潮町",
      "city_kana": "ハタグンクロシオチョウ",
      "town": "佐賀",
      "town_kana": "サガ",
      "street": null,
      "office_name": null,
      "office_name_kana": null
    },
    {
      "postcode": "7891722",
      "prefecture": "高知県",
      "prefecture_kana": "コウチケン",
      "prefecture_code": 39,
      "city": "幡多郡黒潮町",
      "city_kana": "ハタグンクロシオチョウ",
      "town": "佐賀坂折",
      "town_kana": "サガサカオリ",
      "street": null,
      "office_name": null,
      "office_name_kana": null
    }
  ],
  "1723": [
    {
      "postcode": "7891723",
      "prefecture": "高知県",
      "prefecture_kana": "コウチケン",
      "prefecture_code": 39,
      "city": "幡多郡黒潮町",
      "city_kana": "ハタグンクロシオチョウ",
      "town": "佐賀",
      "town_kana": "サガ",
      "street": null,
      "office_name": null,
      "office_name_kana": null
    },
    {
      "postcode": "7891723",
      "prefecture": "高知県",
      "prefecture_kana": "コウチケン",
      "prefecture_code": 39,
      "city": "幡多郡黒潮町",
      "city_kana": "ハタグンクロシオチョウ",
      "town": "佐賀馬地",
      "town_kana": "サガウマジ",
      "street": null,
      "office_name": null,
      "office_name_kana": null
    }
  ],
  "1724": [
    {
      "postcode": "7891724",
      "prefecture": "高知県",
      "prefecture_kana": "コウチケン",
      "prefecture_code": 39,
      "city": "幡多郡黒潮町",
      "city_kana": "ハタグンクロシオチョウ",
      "town": "佐賀",
      "town_kana": "サガ",
      "street": null,
      "office_name": null,
      "office_name_kana": null
    },
    {
      "postcode": "7891724",
      "prefecture": "高知県",
      "prefecture_kana": "コウチケン",
      "prefecture_code": 39,
      "city": "幡多郡黒潮町",
      "city_kana": "ハタグンクロシオチョウ",
      "town": "佐賀横浜",
      "town_kana": "サガヨコハマ",
      "street": null,
      "office_name": null,
      "office_name_kana": null
    }
  ],
  "1725": {
    "postcode": "7891725",
    "prefecture": "高知県",
    "prefecture_kana": "コウチケン",
    "prefecture_code": 39,
    "city": "幡多郡黒潮町",
    "city_kana": "ハタグンクロシオチョウ",
    "town": "白浜",
    "town_kana": "シラハマ",
    "street": null,
    "office_name": null,
    "office_name_kana": null
  },
  "1795": {
    "postcode": "7891795",
    "prefecture": "高知県",
    "prefecture_kana": "コウチケン",
    "prefecture_code": 39,
    "city": "幡多郡黒潮町",
    "city_kana": "ハタグンクロシオチョウ",
    "town": "佐賀",
    "town_kana": "サガ",
    "street": "１０９２−１",
    "office_name": "黒潮町役場　佐賀総合支所",
    "office_name_kana": "クロシオチヨウヤクバ サガソウゴウシシヨ"
  },
  "1900": {
    "postcode": "7891900",
    "prefecture": "高知県",
    "prefecture_kana": "コウチケン",
    "prefecture_code": 39,
    "city": "幡多郡黒潮町",
    "city_kana": "ハタグンクロシオチョウ",
    "town": "",
    "town_kana": "",
    "street": null,
    "office_name": null,
    "office_name_kana": null
  },
  "1901": {
    "postcode": "7891901",
    "prefecture": "高知県",
    "prefecture_kana": "コウチケン",
    "prefecture_code": 39,
    "city": "幡多郡黒潮町",
    "city_kana": "ハタグンクロシオチョウ",
    "town": "上川口",
    "town_kana": "カミカワグチ",
    "street": null,
    "office_name": null,
    "office_name_kana": null
  },
  "1902": {
    "postcode": "7891902",
    "prefecture": "高知県",
    "prefecture_kana": "コウチケン",
    "prefecture_code": 39,
    "city": "幡多郡黒潮町",
    "city_kana": "ハタグンクロシオチョウ",
    "town": "蜷川",
    "town_kana": "ミナガワ",
    "street": null,
    "office_name": null,
    "office_name_kana": null
  },
  "1903": {
    "postcode": "7891903",
    "prefecture": "高知県",
    "prefecture_kana": "コウチケン",
    "prefecture_code": 39,
    "city": "幡多郡黒潮町",
    "city_kana": "ハタグンクロシオチョウ",
    "town": "有井川",
    "town_kana": "アリイガワ",
    "street": null,
    "office_name": null,
    "office_name_kana": null
  },
  "1904": {
    "postcode": "7891904",
    "prefecture": "高知県",
    "prefecture_kana": "コウチケン",
    "prefecture_code": 39,
    "city": "幡多郡黒潮町",
    "city_kana": "ハタグンクロシオチョウ",
    "town": "伊田",
    "town_kana": "イダ",
    "street": null,
    "office_name": null,
    "office_name_kana": null
  },
  "1905": {
    "postcode": "7891905",
    "prefecture": "高知県",
    "prefecture_kana": "コウチケン",
    "prefecture_code": 39,
    "city": "幡多郡黒潮町",
    "city_kana": "ハタグンクロシオチョウ",
    "town": "灘",
    "town_kana": "ナダ",
    "street": null,
    "office_name": null,
    "office_name_kana": null
  },
  "1911": {
    "postcode": "7891911",
    "prefecture": "高知県",
    "prefecture_kana": "コウチケン",
    "prefecture_code": 39,
    "city": "幡多郡黒潮町",
    "city_kana": "ハタグンクロシオチョウ",
    "town": "浮鞭",
    "town_kana": "ウキブチ",
    "street": null,
    "office_name": null,
    "office_name_kana": null
  },
  "1912": {
    "postcode": "7891912",
    "prefecture": "高知県",
    "prefecture_kana": "コウチケン",
    "prefecture_code": 39,
    "city": "幡多郡黒潮町",
    "city_kana": "ハタグンクロシオチョウ",
    "town": "口湊川",
    "town_kana": "クチミナトガワ",
    "street": null,
    "office_name": null,
    "office_name_kana": null
  },
  "1913": {
    "postcode": "7891913",
    "prefecture": "高知県",
    "prefecture_kana": "コウチケン",
    "prefecture_code": 39,
    "city": "幡多郡黒潮町",
    "city_kana": "ハタグンクロシオチョウ",
    "town": "奥湊川",
    "town_kana": "オクミナトガワ",
    "street": null,
    "office_name": null,
    "office_name_kana": null
  },
  "1921": {
    "postcode": "7891921",
    "prefecture": "高知県",
    "prefecture_kana": "コウチケン",
    "prefecture_code": 39,
    "city": "幡多郡黒潮町",
    "city_kana": "ハタグンクロシオチョウ",
    "town": "加持",
    "town_kana": "カモチ",
    "street": null,
    "office_name": null,
    "office_name_kana": null
  },
  "1922": {
    "postcode": "7891922",
    "prefecture": "高知県",
    "prefecture_kana": "コウチケン",
    "prefecture_code": 39,
    "city": "幡多郡黒潮町",
    "city_kana": "ハタグンクロシオチョウ",
    "town": "加持川",
    "town_kana": "カモチガワ",
    "street": null,
    "office_name": null,
    "office_name_kana": null
  },
  "1923": {
    "postcode": "7891923",
    "prefecture": "高知県",
    "prefecture_kana": "コウチケン",
    "prefecture_code": 39,
    "city": "幡多郡黒潮町",
    "city_kana": "ハタグンクロシオチョウ",
    "town": "大井川",
    "town_kana": "オオイガワ",
    "street": null,
    "office_name": null,
    "office_name_kana": null
  },
  "1924": {
    "postcode": "7891924",
    "prefecture": "高知県",
    "prefecture_kana": "コウチケン",
    "prefecture_code": 39,
    "city": "幡多郡黒潮町",
    "city_kana": "ハタグンクロシオチョウ",
    "town": "馬荷",
    "town_kana": "ウマニ",
    "street": null,
    "office_name": null,
    "office_name_kana": null
  },
  "1925": {
    "postcode": "7891925",
    "prefecture": "高知県",
    "prefecture_kana": "コウチケン",
    "prefecture_code": 39,
    "city": "幡多郡黒潮町",
    "city_kana": "ハタグンクロシオチョウ",
    "town": "大方橘川",
    "town_kana": "オオガタタチバナガワ",
    "street": null,
    "office_name": null,
    "office_name_kana": null
  },
  "1931": {
    "postcode": "7891931",
    "prefecture": "高知県",
    "prefecture_kana": "コウチケン",
    "prefecture_code": 39,
    "city": "幡多郡黒潮町",
    "city_kana": "ハタグンクロシオチョウ",
    "town": "入野",
    "town_kana": "イリノ",
    "street": null,
    "office_name": null,
    "office_name_kana": null
  },
  "1932": {
    "postcode": "7891932",
    "prefecture": "高知県",
    "prefecture_kana": "コウチケン",
    "prefecture_code": 39,
    "city": "幡多郡黒潮町",
    "city_kana": "ハタグンクロシオチョウ",
    "town": "下田の口",
    "town_kana": "シモタノクチ",
    "street": null,
    "office_name": null,
    "office_name_kana": null
  },
  "1933": {
    "postcode": "7891933",
    "prefecture": "高知県",
    "prefecture_kana": "コウチケン",
    "prefecture_code": 39,
    "city": "幡多郡黒潮町",
    "city_kana": "ハタグンクロシオチョウ",
    "town": "田野浦",
    "town_kana": "タノウラ",
    "street": null,
    "office_name": null,
    "office_name_kana": null
  },
  "1934": {
    "postcode": "7891934",
    "prefecture": "高知県",
    "prefecture_kana": "コウチケン",
    "prefecture_code": 39,
    "city": "幡多郡黒潮町",
    "city_kana": "ハタグンクロシオチョウ",
    "town": "出口",
    "town_kana": "イデグチ",
    "street": null,
    "office_name": null,
    "office_name_kana": null
  },
  "1935": {
    "postcode": "7891935",
    "prefecture": "高知県",
    "prefecture_kana": "コウチケン",
    "prefecture_code": 39,
    "city": "幡多郡黒潮町",
    "city_kana": "ハタグンクロシオチョウ",
    "town": "上田の口",
    "town_kana": "カミタノクチ",
    "street": null,
    "office_name": null,
    "office_name_kana": null
  },
  "1936": {
    "postcode": "7891936",
    "prefecture": "高知県",
    "prefecture_kana": "コウチケン",
    "prefecture_code": 39,
    "city": "幡多郡黒潮町",
    "city_kana": "ハタグンクロシオチョウ",
    "town": "御坊畑",
    "town_kana": "オンボウバタ",
    "street": null,
    "office_name": null,
    "office_name_kana": null
  },
  "1992": {
    "postcode": "7891992",
    "prefecture": "高知県",
    "prefecture_kana": "コウチケン",
    "prefecture_code": 39,
    "city": "幡多郡黒潮町",
    "city_kana": "ハタグンクロシオチョウ",
    "town": "入野",
    "town_kana": "イリノ",
    "street": "２０１９−１",
    "office_name": "黒潮町役場",
    "office_name_kana": "クロシオチヨウヤクバ"
  }
}