{
  "0000": {
    "postcode": "7930000",
    "prefecture": "愛媛県",
    "prefecture_kana": "エヒメケン",
    "prefecture_code": 38,
    "city": "西条市",
    "city_kana": "サイジョウシ",
    "town": "",
    "town_kana": "",
    "street": null,
    "office_name": null,
    "office_name_kana": null
  },
  "0001": {
    "postcode": "7930001",
    "prefecture": "愛媛県",
    "prefecture_kana": "エヒメケン",
    "prefecture_code": 38,
    "city": "西条市",
    "city_kana": "サイジョウシ",
    "town": "玉津",
    "town_kana": "タマツ",
    "street": null,
    "office_name": null,
    "office_name_kana": null
  },
  "0002": {
    "postcode": "7930002",
    "prefecture": "愛媛県",
    "prefecture_kana": "エヒメケン",
    "prefecture_code": 38,
    "city": "西条市",
    "city_kana": "サイジョウシ",
    "town": "天神",
    "town_kana": "テンジン",
    "street": null,
    "office_name": null,
    "office_name_kana": null
  },
  "0003": {
    "postcode": "7930003",
    "prefecture": "愛媛県",
    "prefecture_kana": "エヒメケン",
    "prefecture_code": 38,
    "city": "西条市",
    "city_kana": "サイジョウシ",
    "town": "ひうち",
    "town_kana": "ヒウチ",
    "street": null,
    "office_name": null,
    "office_name_kana": null
  },
  "0004": {
    "postcode": "7930004",
    "prefecture": "愛媛県",
    "prefecture_kana": "エヒメケン",
    "prefecture_code": 38,
    "city": "西条市",
    "city_kana": "サイジョウシ",
    "town": "船屋甲",
    "town_kana": "フナヤコウ",
    "street": null,
    "office_name": null,
    "office_name_kana": null
  },
  "0005": {
    "postcode": "7930005",
    "prefecture": "愛媛県",
    "prefecture_kana": "エヒメケン",
    "prefecture_code": 38,
    "city": "西条市",
    "city_kana": "サイジョウシ",
    "town": "船屋乙",
    "town_kana": "フナヤオツ",
    "street": null,
    "office_name": null,
    "office_name_kana": null
  },
  "0006": {
    "postcode": "7930006",
    "prefecture": "愛媛県",
    "prefecture_kana": "エヒメケン",
    "prefecture_code": 38,
    "city": "西条市",
    "city_kana": "サイジョウシ",
    "town": "下島山甲",
    "town_kana": "シモシマヤマコウ",
    "street": null,
    "office_name": null,
    "office_name_kana": null
  },
  "0007": {
    "postcode": "7930007",
    "prefecture": "愛媛県",
    "prefecture_kana": "エヒメケン",
    "prefecture_code": 38,
    "city": "西条市",
    "city_kana": "サイジョウシ",
    "town": "下島山乙",
    "town_kana": "シモシマヤマオツ",
    "street": null,
    "office_name": null,
    "office_name_kana": null
  },
  "0010": {
    "postcode": "7930010",
    "prefecture": "愛媛県",
    "prefecture_kana": "エヒメケン",
    "prefecture_code": 38,
    "city": "西条市",
    "city_kana": "サイジョウシ",
    "town": "飯岡",
    "town_kana": "イイオカ",
    "street": null,
    "office_name": null,
    "office_name_kana": null
  },
  "0016": {
    "postcode": "7930016",
    "prefecture": "愛媛県",
    "prefecture_kana": "エヒメケン",
    "prefecture_code": 38,
    "city": "西条市",
    "city_kana": "サイジョウシ",
    "town": "大浜",
    "town_kana": "オオハマ",
    "street": null,
    "office_name": null,
    "office_name_kana": null
  },
  "0017": {
    "postcode": "7930017",
    "prefecture": "愛媛県",
    "prefecture_kana": "エヒメケン",
    "prefecture_code": 38,
    "city": "西条市",
    "city_kana": "サイジョウシ",
    "town": "早川",
    "town_kana": "ハイガワ",
    "street": null,
    "office_name": null,
    "office_name_kana": null
  },
  "0021": {
    "postcode": "7930021",
    "prefecture": "愛媛県",
    "prefecture_kana": "エヒメケン",
    "prefecture_code": 38,
    "city": "西条市",
    "city_kana": "サイジョウシ",
    "town": "神拝乙",
    "town_kana": "カンバイオツ",
    "street": null,
    "office_name": null,
    "office_name_kana": null
  },
  "0022": {
    "postcode": "7930022",
    "prefecture": "愛媛県",
    "prefecture_kana": "エヒメケン",
    "prefecture_code": 38,
    "city": "西条市",
    "city_kana": "サイジョウシ",
    "town": "本町",
    "town_kana": "ホンマチ",
    "street": null,
    "office_name": null,
    "office_name_kana": null
  },
  "0023": {
    "postcode": "7930023",
    "prefecture": "愛媛県",
    "prefecture_kana": "エヒメケン",
    "prefecture_code": 38,
    "city": "西条市",
    "city_kana": "サイジョウシ",
    "town": "明屋敷",
    "town_kana": "アケヤシキ",
    "street": null,
    "office_name": null,
    "office_name_kana": null
  },
  "0024": {
    "postcode": "7930024",
    "prefecture": "愛媛県",
    "prefecture_kana": "エヒメケン",
    "prefecture_code": 38,
    "city": "西条市",
    "city_kana": "サイジョウシ",
    "town": "大師町",
    "town_kana": "ダイシマチ",
    "street": null,
    "office_name": null,
    "office_name_kana": null
  },
  "0025": {
    "postcode": "7930025",
    "prefecture": "愛媛県",
    "prefecture_kana": "エヒメケン",
    "prefecture_code": 38,
    "city": "西条市",
    "city_kana": "サイジョウシ",
    "town": "栄町",
    "town_kana": "サカエマチ",
    "street": null,
    "office_name": null,
    "office_name_kana": null
  },
  "0026": {
    "postcode": "7930026",
    "prefecture": "愛媛県",
    "prefecture_kana": "エヒメケン",
    "prefecture_code": 38,
    "city": "西条市",
    "city_kana": "サイジョウシ",
    "town": "東町",
    "town_kana": "ヒガシマチ",
    "street": null,
    "office_name": null,
    "office_name_kana": null
  },
  "0027": {
    "postcode": "7930027",
    "prefecture": "愛媛県",
    "prefecture_kana": "エヒメケン",
    "prefecture_code": 38,
    "city": "西条市",
    "city_kana": "サイジョウシ",
    "town": "朔日市",
    "town_kana": "ツイタチ",
    "street": null,
    "office_name": null,
    "office_name_kana": null
  },
  "0028": {
    "postcode": "7930028",
    "prefecture": "愛媛県",
    "prefecture_kana": "エヒメケン",
    "prefecture_code": 38,
    "city": "西条市",
    "city_kana": "サイジョウシ",
    "town": "新田",
    "town_kana": "シンデン",
    "street": null,
    "office_name": null,
    "office_name_kana": null
  },
  "0030": {
    "postcode": "7930030",
    "prefecture": "愛媛県",
    "prefecture_kana": "エヒメケン",
    "prefecture_code": 38,
    "city": "西条市",
    "city_kana": "サイジョウシ",
    "town": "大町",
    "town_kana": "オオマチ",
    "street": null,
    "office_name": null,
    "office_name_kana": null
  },
  "0034": {
    "postcode": "7930034",
    "prefecture": "愛媛県",
    "prefecture_kana": "エヒメケン",
    "prefecture_code": 38,
    "city": "西条市",
    "city_kana": "サイジョウシ",
    "town": "明神木",
    "town_kana": "ミョウジンギ",
    "street": null,
    "office_name": null,
    "office_name_kana": null
  },
  "0035": {
    "postcode": "7930035",
    "prefecture": "愛媛県",
    "prefecture_kana": "エヒメケン",
    "prefecture_code": 38,
    "city": "西条市",
    "city_kana": "サイジョウシ",
    "town": "福武甲",
    "town_kana": "フクタケコウ",
    "street": null,
    "office_name": null,
    "office_name_kana": null
  },
  "0036": {
    "postcode": "7930036",
    "prefecture": "愛媛県",
    "prefecture_kana": "エヒメケン",
    "prefecture_code": 38,
    "city": "西条市",
    "city_kana": "サイジョウシ",
    "town": "福武乙",
    "town_kana": "フクタケオツ",
    "street": null,
    "office_name": null,
    "office_name_kana": null
  },
  "0037": {
    "postcode": "7930037",
    "prefecture": "愛媛県",
    "prefecture_kana": "エヒメケン",
    "prefecture_code": 38,
    "city": "西条市",
    "city_kana": "サイジョウシ",
    "town": "市之川",
    "town_kana": "イチノカワ",
    "street": null,
    "office_name": null,
    "office_name_kana": null
  },
  "0038": {
    "postcode": "7930038",
    "prefecture": "愛媛県",
    "prefecture_kana": "エヒメケン",
    "prefecture_code": 38,
    "city": "西条市",
    "city_kana": "サイジョウシ",
    "town": "丸野",
    "town_kana": "マルノ",
    "street": null,
    "office_name": null,
    "office_name_kana": null
  },
  "0039": {
    "postcode": "7930039",
    "prefecture": "愛媛県",
    "prefecture_kana": "エヒメケン",
    "prefecture_code": 38,
    "city": "西条市",
    "city_kana": "サイジョウシ",
    "town": "保野",
    "town_kana": "ホウノ",
    "street": null,
    "office_name": null,
    "office_name_kana": null
  },
  "0041": {
    "postcode": "7930041",
    "prefecture": "愛媛県",
    "prefecture_kana": "エヒメケン",
    "prefecture_code": 38,
    "city": "西条市",
    "city_kana": "サイジョウシ",
    "town": "神拝甲",
    "town_kana": "カンバイコウ",
    "street": null,
    "office_name": null,
    "office_name_kana": null
  },
  "0042": {
    "postcode": "7930042",
    "prefecture": "愛媛県",
    "prefecture_kana": "エヒメケン",
    "prefecture_code": 38,
    "city": "西条市",
    "city_kana": "サイジョウシ",
    "town": "喜多川",
    "town_kana": "キタガワ",
    "street": null,
    "office_name": null,
    "office_name_kana": null
  },
  "0043": {
    "postcode": "7930043",
    "prefecture": "愛媛県",
    "prefecture_kana": "エヒメケン",
    "prefecture_code": 38,
    "city": "西条市",
    "city_kana": "サイジョウシ",
    "town": "樋之口",
    "town_kana": "ヒノクチ",
    "street": null,
    "office_name": null,
    "office_name_kana": null
  },
  "0044": {
    "postcode": "7930044",
    "prefecture": "愛媛県",
    "prefecture_kana": "エヒメケン",
    "prefecture_code": 38,
    "city": "西条市",
    "city_kana": "サイジョウシ",
    "town": "古川甲",
    "town_kana": "フルカワコウ",
    "street": null,
    "office_name": null,
    "office_name_kana": null
  },
  "0045": {
    "postcode": "7930045",
    "prefecture": "愛媛県",
    "prefecture_kana": "エヒメケン",
    "prefecture_code": 38,
    "city": "西条市",
    "city_kana": "サイジョウシ",
    "town": "古川乙",
    "town_kana": "フルカワオツ",
    "street": null,
    "office_name": null,
    "office_name_kana": null
  },
  "0046": {
    "postcode": "7930046",
    "prefecture": "愛媛県",
    "prefecture_kana": "エヒメケン",
    "prefecture_code": 38,
    "city": "西条市",
    "city_kana": "サイジョウシ",
    "town": "港",
    "town_kana": "ミナト",
    "street": null,
    "office_name": null,
    "office_name_kana": null
  },
  "0051": {
    "postcode": "7930051",
    "prefecture": "愛媛県",
    "prefecture_kana": "エヒメケン",
    "prefecture_code": 38,
    "city": "西条市",
    "city_kana": "サイジョウシ",
    "town": "安知生",
    "town_kana": "アンジュウ",
    "street": null,
    "office_name": null,
    "office_name_kana": null
  },
  "0052": {
    "postcode": "7930052",
    "prefecture": "愛媛県",
    "prefecture_kana": "エヒメケン",
    "prefecture_code": 38,
    "city": "西条市",
    "city_kana": "サイジョウシ",
    "town": "中西",
    "town_kana": "ナカニシ",
    "street": null,
    "office_name": null,
    "office_name_kana": null
  },
  "0053": {
    "postcode": "7930053",
    "prefecture": "愛媛県",
    "prefecture_kana": "エヒメケン",
    "prefecture_code": 38,
    "city": "西条市",
    "city_kana": "サイジョウシ",
    "town": "洲之内甲",
    "town_kana": "スノウチコウ",
    "street": null,
    "office_name": null,
    "office_name_kana": null
  },
  "0054": {
    "postcode": "7930054",
    "prefecture": "愛媛県",
    "prefecture_kana": "エヒメケン",
    "prefecture_code": 38,
    "city": "西条市",
    "city_kana": "サイジョウシ",
    "town": "中野甲",
    "town_kana": "ナカノコウ",
    "street": null,
    "office_name": null,
    "office_name_kana": null
  },
  "0055": {
    "postcode": "7930055",
    "prefecture": "愛媛県",
    "prefecture_kana": "エヒメケン",
    "prefecture_code": 38,
    "city": "西条市",
    "city_kana": "サイジョウシ",
    "town": "中野乙",
    "town_kana": "ナカノオツ",
    "street": null,
    "office_name": null,
    "office_name_kana": null
  },
  "0056": {
    "postcode": "7930056",
    "prefecture": "愛媛県",
    "prefecture_kana": "エヒメケン",
    "prefecture_code": 38,
    "city": "西条市",
    "city_kana": "サイジョウシ",
    "town": "中野丙",
    "town_kana": "ナカノヘイ",
    "street": null,
    "office_name": null,
    "office_name_kana": null
  },
  "0057": {
    "postcode": "7930057",
    "prefecture": "愛媛県",
    "prefecture_kana": "エヒメケン",
    "prefecture_code": 38,
    "city": "西条市",
    "city_kana": "サイジョウシ",
    "town": "津越",
    "town_kana": "ツゴエ",
    "street": null,
    "office_name": null,
    "office_name_kana": null
  },
  "0061": {
    "postcode": "7930061",
    "prefecture": "愛媛県",
    "prefecture_kana": "エヒメケン",
    "prefecture_code": 38,
    "city": "西条市",
    "city_kana": "サイジョウシ",
    "town": "禎瑞",
    "town_kana": "テイズイ",
    "street": null,
    "office_name": null,
    "office_name_kana": null
  },
  "0062": {
    "postcode": "7930062",
    "prefecture": "愛媛県",
    "prefecture_kana": "エヒメケン",
    "prefecture_code": 38,
    "city": "西条市",
    "city_kana": "サイジョウシ",
    "town": "西田甲",
    "town_kana": "ニシダコウ",
    "street": null,
    "office_name": null,
    "office_name_kana": null
  },
  "0063": {
    "postcode": "7930063",
    "prefecture": "愛媛県",
    "prefecture_kana": "エヒメケン",
    "prefecture_code": 38,
    "city": "西条市",
    "city_kana": "サイジョウシ",
    "town": "西泉甲",
    "town_kana": "ニシイズミコウ",
    "street": null,
    "office_name": null,
    "office_name_kana": null
  },
  "0064": {
    "postcode": "7930064",
    "prefecture": "愛媛県",
    "prefecture_kana": "エヒメケン",
    "prefecture_code": 38,
    "city": "西条市",
    "city_kana": "サイジョウシ",
    "town": "西泉乙",
    "town_kana": "ニシイズミオツ",
    "street": null,
    "office_name": null,
    "office_name_kana": null
  },
  "0065": {
    "postcode": "7930065",
    "prefecture": "愛媛県",
    "prefecture_kana": "エヒメケン",
    "prefecture_code": 38,
    "city": "西条市",
    "city_kana": "サイジョウシ",
    "town": "楢木",
    "town_kana": "ナラノキ",
    "street": null,
    "office_name": null,
    "office_name_kana": null
  },
  "0066": {
    "postcode": "7930066",
    "prefecture": "愛媛県",
    "prefecture_kana": "エヒメケン",
    "prefecture_code": 38,
    "city": "西条市",
    "city_kana": "サイジョウシ",
    "town": "野々市",
    "town_kana": "ノノイチ",
    "street": null,
    "office_name": null,
    "office_name_kana": null
  },
  "0067": {
    "postcode": "7930067",
    "prefecture": "愛媛県",
    "prefecture_kana": "エヒメケン",
    "prefecture_code": 38,
    "city": "西条市",
    "city_kana": "サイジョウシ",
    "town": "坂元甲",
    "town_kana": "サカモトコウ",
    "street": null,
    "office_name": null,
    "office_name_kana": null
  },
  "0071": {
    "postcode": "7930071",
    "prefecture": "愛媛県",
    "prefecture_kana": "エヒメケン",
    "prefecture_code": 38,
    "city": "西条市",
    "city_kana": "サイジョウシ",
    "town": "氷見甲",
    "town_kana": "ヒミコウ",
    "street": null,
    "office_name": null,
    "office_name_kana": null
  },
  "0072": {
    "postcode": "7930072",
    "prefecture": "愛媛県",
    "prefecture_kana": "エヒメケン",
    "prefecture_code": 38,
    "city": "西条市",
    "city_kana": "サイジョウシ",
    "town": "氷見乙",
    "town_kana": "ヒミオツ",
    "street": null,
    "office_name": null,
    "office_name_kana": null
  },
  "0073": {
    "postcode": "7930073",
    "prefecture": "愛媛県",
    "prefecture_kana": "エヒメケン",
    "prefecture_code": 38,
    "city": "西条市",
    "city_kana": "サイジョウシ",
    "town": "氷見丙",
    "town_kana": "ヒミヘイ",
    "street": null,
    "office_name": null,
    "office_name_kana": null
  },
  "0074": {
    "postcode": "7930074",
    "prefecture": "愛媛県",
    "prefecture_kana": "エヒメケン",
    "prefecture_code": 38,
    "city": "西条市",
    "city_kana": "サイジョウシ",
    "town": "氷見丁",
    "town_kana": "ヒミテイ",
    "street": null,
    "office_name": null,
    "office_name_kana": null
  },
  "0075": {
    "postcode": "7930075",
    "prefecture": "愛媛県",
    "prefecture_kana": "エヒメケン",
    "prefecture_code": 38,
    "city": "西条市",
    "city_kana": "サイジョウシ",
    "town": "氷見戊",
    "town_kana": "ヒミボ",
    "street": null,
    "office_name": null,
    "office_name_kana": null
  },
  "0101": {
    "postcode": "7930101",
    "prefecture": "愛媛県",
    "prefecture_kana": "エヒメケン",
    "prefecture_code": 38,
    "city": "西条市",
    "city_kana": "サイジョウシ",
    "town": "千町",
    "town_kana": "センジョウ",
    "street": null,
    "office_name": null,
    "office_name_kana": null
  },
  "0102": {
    "postcode": "7930102",
    "prefecture": "愛媛県",
    "prefecture_kana": "エヒメケン",
    "prefecture_code": 38,
    "city": "西条市",
    "city_kana": "サイジョウシ",
    "town": "藤之石",
    "town_kana": "フジノイシ",
    "street": null,
    "office_name": null,
    "office_name_kana": null
  },
  "0103": {
    "postcode": "7930103",
    "prefecture": "愛媛県",
    "prefecture_kana": "エヒメケン",
    "prefecture_code": 38,
    "city": "西条市",
    "city_kana": "サイジョウシ",
    "town": "荒川",
    "town_kana": "アラカワ",
    "street": null,
    "office_name": null,
    "office_name_kana": null
  },
  "0211": {
    "postcode": "7930211",
    "prefecture": "愛媛県",
    "prefecture_kana": "エヒメケン",
    "prefecture_code": 38,
    "city": "西条市",
    "city_kana": "サイジョウシ",
    "town": "大保木",
    "town_kana": "オオフキ",
    "street": null,
    "office_name": null,
    "office_name_kana": null
  },
  "0212": {
    "postcode": "7930212",
    "prefecture": "愛媛県",
    "prefecture_kana": "エヒメケン",
    "prefecture_code": 38,
    "city": "西条市",
    "city_kana": "サイジョウシ",
    "town": "黒瀬",
    "town_kana": "クロセ",
    "street": null,
    "office_name": null,
    "office_name_kana": null
  },
  "0213": {
    "postcode": "7930213",
    "prefecture": "愛媛県",
    "prefecture_kana": "エヒメケン",
    "prefecture_code": 38,
    "city": "西条市",
    "city_kana": "サイジョウシ",
    "town": "兎之山",
    "town_kana": "トノヤマ",
    "street": null,
    "office_name": null,
    "office_name_kana": null
  },
  "0214": {
    "postcode": "7930214",
    "prefecture": "愛媛県",
    "prefecture_kana": "エヒメケン",
    "prefecture_code": 38,
    "city": "西条市",
    "city_kana": "サイジョウシ",
    "town": "中奥",
    "town_kana": "ナカオク",
    "street": null,
    "office_name": null,
    "office_name_kana": null
  },
  "0215": {
    "postcode": "7930215",
    "prefecture": "愛媛県",
    "prefecture_kana": "エヒメケン",
    "prefecture_code": 38,
    "city": "西条市",
    "city_kana": "サイジョウシ",
    "town": "西之川",
    "town_kana": "ニシノカワ",
    "street": null,
    "office_name": null,
    "office_name_kana": null
  },
  "0216": {
    "postcode": "7930216",
    "prefecture": "愛媛県",
    "prefecture_kana": "エヒメケン",
    "prefecture_code": 38,
    "city": "西条市",
    "city_kana": "サイジョウシ",
    "town": "東之川",
    "town_kana": "ヒガシノカワ",
    "street": null,
    "office_name": null,
    "office_name_kana": null
  },
  "8501": {
    "postcode": "7938501",
    "prefecture": "愛媛県",
    "prefecture_kana": "エヒメケン",
    "prefecture_code": 38,
    "city": "西条市",
    "city_kana": "サイジョウシ",
    "town": "ひうち",
    "town_kana": "ヒウチ",
    "street": "８−６",
    "office_name": "株式会社　ルネサステクノロジ　西条事業所",
    "office_name_kana": "カブシキガイシヤ ルネサステクノロジ サイジヨウジギヨウシヨ"
  },
  "8509": {
    "postcode": "7938509",
    "prefecture": "愛媛県",
    "prefecture_kana": "エヒメケン",
    "prefecture_code": 38,
    "city": "西条市",
    "city_kana": "サイジョウシ",
    "town": "明屋敷",
    "town_kana": "アケヤシキ",
    "street": "２３４",
    "office_name": "愛媛県立　西条高等学校",
    "office_name_kana": "エヒメケンリツ サイジヨウコウトウガツコウ"
  },
  "8510": {
    "postcode": "7938510",
    "prefecture": "愛媛県",
    "prefecture_kana": "エヒメケン",
    "prefecture_code": 38,
    "city": "西条市",
    "city_kana": "サイジョウシ",
    "town": "福武甲",
    "town_kana": "フクタケコウ",
    "street": "２４７",
    "office_name": "パナソニック四国エレクトロニクス　（株）　西条地区",
    "office_name_kana": "パナソニツクシコクエレクトロニクス (カブ) サイジヨウチク"
  },
  "8515": {
    "postcode": "7938515",
    "prefecture": "愛媛県",
    "prefecture_kana": "エヒメケン",
    "prefecture_code": 38,
    "city": "西条市",
    "city_kana": "サイジョウシ",
    "town": "ひうち",
    "town_kana": "ヒウチ",
    "street": "７−６",
    "office_name": "今治造船　（株）　西条工場",
    "office_name_kana": "イマバリゾウセン カブシキガイシヤ サイジヨウコウジヨウ"
  },
  "8516": {
    "postcode": "7938516",
    "prefecture": "愛媛県",
    "prefecture_kana": "エヒメケン",
    "prefecture_code": 38,
    "city": "西条市",
    "city_kana": "サイジョウシ",
    "town": "喜多川",
    "town_kana": "キタガワ",
    "street": "７９６番地の１",
    "office_name": "愛媛県東予地方局",
    "office_name_kana": "エヒメケントウヨチホウキヨク"
  },
  "8555": {
    "postcode": "7938555",
    "prefecture": "愛媛県",
    "prefecture_kana": "エヒメケン",
    "prefecture_code": 38,
    "city": "西条市",
    "city_kana": "サイジョウシ",
    "town": "西田甲",
    "town_kana": "ニシダコウ",
    "street": "７９７",
    "office_name": "宗教法人　石鎚神社",
    "office_name_kana": "シユウキヨウホウジン イシヅチジンジヤ"
  },
  "8585": {
    "postcode": "7938585",
    "prefecture": "愛媛県",
    "prefecture_kana": "エヒメケン",
    "prefecture_code": 38,
    "city": "西条市",
    "city_kana": "サイジョウシ",
    "town": "朔日市",
    "town_kana": "ツイタチ",
    "street": "８９２",
    "office_name": "株式会社　クラレ　西条工場",
    "office_name_kana": "カブシキガイシヤ クラレ サイジヨウコウジヨウ"
  },
  "8601": {
    "postcode": "7938601",
    "prefecture": "愛媛県",
    "prefecture_kana": "エヒメケン",
    "prefecture_code": 38,
    "city": "西条市",
    "city_kana": "サイジョウシ",
    "town": "明屋敷",
    "town_kana": "アケヤシキ",
    "street": "１６４（西条郵便局私書箱第１号）",
    "office_name": "西条市役所",
    "office_name_kana": "サイジヨウシヤクシヨ"
  }
}