{
  "0000": {
    "postcode": "7950000",
    "prefecture": "愛媛県",
    "prefecture_kana": "エヒメケン",
    "prefecture_code": 38,
    "city": "大洲市",
    "city_kana": "オオズシ",
    "town": "",
    "town_kana": "",
    "street": null,
    "office_name": null,
    "office_name_kana": null
  },
  "0001": {
    "postcode": "7950001",
    "prefecture": "愛媛県",
    "prefecture_kana": "エヒメケン",
    "prefecture_code": 38,
    "city": "大洲市",
    "city_kana": "オオズシ",
    "town": "北只",
    "town_kana": "キタタダ",
    "street": null,
    "office_name": null,
    "office_name_kana": null
  },
  "0002": {
    "postcode": "7950002",
    "prefecture": "愛媛県",
    "prefecture_kana": "エヒメケン",
    "prefecture_code": 38,
    "city": "大洲市",
    "city_kana": "オオズシ",
    "town": "松尾",
    "town_kana": "マツオ",
    "street": null,
    "office_name": null,
    "office_name_kana": null
  },
  "0003": {
    "postcode": "7950003",
    "prefecture": "愛媛県",
    "prefecture_kana": "エヒメケン",
    "prefecture_code": 38,
    "city": "大洲市",
    "city_kana": "オオズシ",
    "town": "梅川",
    "town_kana": "ウメガワ",
    "street": null,
    "office_name": null,
    "office_name_kana": null
  },
  "0004": {
    "postcode": "7950004",
    "prefecture": "愛媛県",
    "prefecture_kana": "エヒメケン",
    "prefecture_code": 38,
    "city": "大洲市",
    "city_kana": "オオズシ",
    "town": "長谷",
    "town_kana": "ナガタニ",
    "street": null,
    "office_name": null,
    "office_name_kana": null
  },
  "0005": [
    {
      "postcode": "7950005",
      "prefecture": "愛媛県",
      "prefecture_kana": "エヒメケン",
      "prefecture_code": 38,
      "city": "大洲市",
      "city_kana": "オオズシ",
      "town": "横野",
      "town_kana": "ヨコノ",
      "street": null,
      "office_name": null,
      "office_name_kana": null
    },
    {
      "postcode": "7950005",
      "prefecture": "愛媛県",
      "prefecture_kana": "エヒメケン",
      "prefecture_code": 38,
      "city": "大洲市",
      "city_kana": "オオズシ",
      "town": "横野久保",
      "town_kana": "ヨコノクボ",
      "street": null,
      "office_name": null,
      "office_name_kana": null
    }
  ],
  "0006": {
    "postcode": "7950006",
    "prefecture": "愛媛県",
    "prefecture_kana": "エヒメケン",
    "prefecture_code": 38,
    "city": "大洲市",
    "city_kana": "オオズシ",
    "town": "野佐来",
    "town_kana": "ヤサライ",
    "street": null,
    "office_name": null,
    "office_name_kana": null
  },
  "0007": {
    "postcode": "7950007",
    "prefecture": "愛媛県",
    "prefecture_kana": "エヒメケン",
    "prefecture_code": 38,
    "city": "大洲市",
    "city_kana": "オオズシ",
    "town": "稲積",
    "town_kana": "イナズミ",
    "street": null,
    "office_name": null,
    "office_name_kana": null
  },
  "0008": {
    "postcode": "7950008",
    "prefecture": "愛媛県",
    "prefecture_kana": "エヒメケン",
    "prefecture_code": 38,
    "city": "大洲市",
    "city_kana": "オオズシ",
    "town": "黒木",
    "town_kana": "クロギ",
    "street": null,
    "office_name": null,
    "office_name_kana": null
  },
  "0009": {
    "postcode": "7950009",
    "prefecture": "愛媛県",
    "prefecture_kana": "エヒメケン",
    "prefecture_code": 38,
    "city": "大洲市",
    "city_kana": "オオズシ",
    "town": "北裏",
    "town_kana": "キタウラ",
    "street": null,
    "office_name": null,
    "office_name_kana": null
  },
  "0011": {
    "postcode": "7950011",
    "prefecture": "愛媛県",
    "prefecture_kana": "エヒメケン",
    "prefecture_code": 38,
    "city": "大洲市",
    "city_kana": "オオズシ",
    "town": "柚木",
    "town_kana": "ユノキ",
    "street": null,
    "office_name": null,
    "office_name_kana": null
  },
  "0012": {
    "postcode": "7950012",
    "prefecture": "愛媛県",
    "prefecture_kana": "エヒメケン",
    "prefecture_code": 38,
    "city": "大洲市",
    "city_kana": "オオズシ",
    "town": "大洲",
    "town_kana": "オオズ",
    "street": null,
    "office_name": null,
    "office_name_kana": null
  },
  "0013": {
    "postcode": "7950013",
    "prefecture": "愛媛県",
    "prefecture_kana": "エヒメケン",
    "prefecture_code": 38,
    "city": "大洲市",
    "city_kana": "オオズシ",
    "town": "西大洲",
    "town_kana": "ニシオオズ",
    "street": null,
    "office_name": null,
    "office_name_kana": null
  },
  "0021": {
    "postcode": "7950021",
    "prefecture": "愛媛県",
    "prefecture_kana": "エヒメケン",
    "prefecture_code": 38,
    "city": "大洲市",
    "city_kana": "オオズシ",
    "town": "平野町野田",
    "town_kana": "ヒラノチョウノダ",
    "street": null,
    "office_name": null,
    "office_name_kana": null
  },
  "0022": {
    "postcode": "7950022",
    "prefecture": "愛媛県",
    "prefecture_kana": "エヒメケン",
    "prefecture_code": 38,
    "city": "大洲市",
    "city_kana": "オオズシ",
    "town": "平野町平地",
    "town_kana": "ヒラノチョウヒラジ",
    "street": null,
    "office_name": null,
    "office_name_kana": null
  },
  "0023": [
    {
      "postcode": "7950023",
      "prefecture": "愛媛県",
      "prefecture_kana": "エヒメケン",
      "prefecture_code": 38,
      "city": "大洲市",
      "city_kana": "オオズシ",
      "town": "平野町平地",
      "town_kana": "ヒラノチョウヒラジ",
      "street": null,
      "office_name": null,
      "office_name_kana": null
    },
    {
      "postcode": "7950023",
      "prefecture": "愛媛県",
      "prefecture_kana": "エヒメケン",
      "prefecture_code": 38,
      "city": "大洲市",
      "city_kana": "オオズシ",
      "town": "平野町平地横野",
      "town_kana": "ヒラノチョウヒラジヨコノ",
      "street": null,
      "office_name": null,
      "office_name_kana": null
    }
  ],
  "0024": {
    "postcode": "7950024",
    "prefecture": "愛媛県",
    "prefecture_kana": "エヒメケン",
    "prefecture_code": 38,
    "city": "大洲市",
    "city_kana": "オオズシ",
    "town": "高山",
    "town_kana": "タカヤマ",
    "street": null,
    "office_name": null,
    "office_name_kana": null
  },
  "0025": {
    "postcode": "7950025",
    "prefecture": "愛媛県",
    "prefecture_kana": "エヒメケン",
    "prefecture_code": 38,
    "city": "大洲市",
    "city_kana": "オオズシ",
    "town": "阿蔵",
    "town_kana": "アゾウ",
    "street": null,
    "office_name": null,
    "office_name_kana": null
  },
  "0031": {
    "postcode": "7950031",
    "prefecture": "愛媛県",
    "prefecture_kana": "エヒメケン",
    "prefecture_code": 38,
    "city": "大洲市",
    "city_kana": "オオズシ",
    "town": "多田",
    "town_kana": "タダ",
    "street": null,
    "office_name": null,
    "office_name_kana": null
  },
  "0032": {
    "postcode": "7950032",
    "prefecture": "愛媛県",
    "prefecture_kana": "エヒメケン",
    "prefecture_code": 38,
    "city": "大洲市",
    "city_kana": "オオズシ",
    "town": "上須戒",
    "town_kana": "カミスガイ",
    "street": null,
    "office_name": null,
    "office_name_kana": null
  },
  "0041": {
    "postcode": "7950041",
    "prefecture": "愛媛県",
    "prefecture_kana": "エヒメケン",
    "prefecture_code": 38,
    "city": "大洲市",
    "city_kana": "オオズシ",
    "town": "八多喜町",
    "town_kana": "ハタキチョウ",
    "street": null,
    "office_name": null,
    "office_name_kana": null
  },
  "0042": {
    "postcode": "7950042",
    "prefecture": "愛媛県",
    "prefecture_kana": "エヒメケン",
    "prefecture_code": 38,
    "city": "大洲市",
    "city_kana": "オオズシ",
    "town": "米津",
    "town_kana": "ヨナヅ",
    "street": null,
    "office_name": null,
    "office_name_kana": null
  },
  "0043": [
    {
      "postcode": "7950043",
      "prefecture": "愛媛県",
      "prefecture_kana": "エヒメケン",
      "prefecture_code": 38,
      "city": "大洲市",
      "city_kana": "オオズシ",
      "town": "米津",
      "town_kana": "ヨナヅ",
      "street": null,
      "office_name": null,
      "office_name_kana": null
    },
    {
      "postcode": "7950043",
      "prefecture": "愛媛県",
      "prefecture_kana": "エヒメケン",
      "prefecture_code": 38,
      "city": "大洲市",
      "city_kana": "オオズシ",
      "town": "米津甲",
      "town_kana": "ヨナヅコウ",
      "street": null,
      "office_name": null,
      "office_name_kana": null
    }
  ],
  "0044": {
    "postcode": "7950044",
    "prefecture": "愛媛県",
    "prefecture_kana": "エヒメケン",
    "prefecture_code": 38,
    "city": "大洲市",
    "city_kana": "オオズシ",
    "town": "手成",
    "town_kana": "テナル",
    "street": null,
    "office_name": null,
    "office_name_kana": null
  },
  "0045": {
    "postcode": "7950045",
    "prefecture": "愛媛県",
    "prefecture_kana": "エヒメケン",
    "prefecture_code": 38,
    "city": "大洲市",
    "city_kana": "オオズシ",
    "town": "東宇山",
    "town_kana": "ヒガシウヤマ",
    "street": null,
    "office_name": null,
    "office_name_kana": null
  },
  "0046": {
    "postcode": "7950046",
    "prefecture": "愛媛県",
    "prefecture_kana": "エヒメケン",
    "prefecture_code": 38,
    "city": "大洲市",
    "city_kana": "オオズシ",
    "town": "春賀",
    "town_kana": "ハルカ",
    "street": null,
    "office_name": null,
    "office_name_kana": null
  },
  "0051": {
    "postcode": "7950051",
    "prefecture": "愛媛県",
    "prefecture_kana": "エヒメケン",
    "prefecture_code": 38,
    "city": "大洲市",
    "city_kana": "オオズシ",
    "town": "五郎",
    "town_kana": "ゴロウ",
    "street": null,
    "office_name": null,
    "office_name_kana": null
  },
  "0052": {
    "postcode": "7950052",
    "prefecture": "愛媛県",
    "prefecture_kana": "エヒメケン",
    "prefecture_code": 38,
    "city": "大洲市",
    "city_kana": "オオズシ",
    "town": "若宮",
    "town_kana": "ワカミヤ",
    "street": null,
    "office_name": null,
    "office_name_kana": null
  },
  "0053": {
    "postcode": "7950053",
    "prefecture": "愛媛県",
    "prefecture_kana": "エヒメケン",
    "prefecture_code": 38,
    "city": "大洲市",
    "city_kana": "オオズシ",
    "town": "常磐町",
    "town_kana": "トキワマチ",
    "street": null,
    "office_name": null,
    "office_name_kana": null
  },
  "0054": {
    "postcode": "7950054",
    "prefecture": "愛媛県",
    "prefecture_kana": "エヒメケン",
    "prefecture_code": 38,
    "city": "大洲市",
    "city_kana": "オオズシ",
    "town": "中村",
    "town_kana": "ナカムラ",
    "street": null,
    "office_name": null,
    "office_name_kana": null
  },
  "0061": {
    "postcode": "7950061",
    "prefecture": "愛媛県",
    "prefecture_kana": "エヒメケン",
    "prefecture_code": 38,
    "city": "大洲市",
    "city_kana": "オオズシ",
    "town": "徳森",
    "town_kana": "トクノモリ",
    "street": null,
    "office_name": null,
    "office_name_kana": null
  },
  "0062": {
    "postcode": "7950062",
    "prefecture": "愛媛県",
    "prefecture_kana": "エヒメケン",
    "prefecture_code": 38,
    "city": "大洲市",
    "city_kana": "オオズシ",
    "town": "市木",
    "town_kana": "イチギ",
    "street": null,
    "office_name": null,
    "office_name_kana": null
  },
  "0063": {
    "postcode": "7950063",
    "prefecture": "愛媛県",
    "prefecture_kana": "エヒメケン",
    "prefecture_code": 38,
    "city": "大洲市",
    "city_kana": "オオズシ",
    "town": "田口",
    "town_kana": "タノクチ",
    "street": null,
    "office_name": null,
    "office_name_kana": null
  },
  "0064": {
    "postcode": "7950064",
    "prefecture": "愛媛県",
    "prefecture_kana": "エヒメケン",
    "prefecture_code": 38,
    "city": "大洲市",
    "city_kana": "オオズシ",
    "town": "東大洲",
    "town_kana": "ヒガシオオズ",
    "street": null,
    "office_name": null,
    "office_name_kana": null
  },
  "0065": {
    "postcode": "7950065",
    "prefecture": "愛媛県",
    "prefecture_kana": "エヒメケン",
    "prefecture_code": 38,
    "city": "大洲市",
    "city_kana": "オオズシ",
    "town": "東若宮",
    "town_kana": "ヒガシワカミヤ",
    "street": null,
    "office_name": null,
    "office_name_kana": null
  },
  "0069": {
    "postcode": "7950069",
    "prefecture": "愛媛県",
    "prefecture_kana": "エヒメケン",
    "prefecture_code": 38,
    "city": "大洲市",
    "city_kana": "オオズシ",
    "town": "新谷",
    "town_kana": "ニイヤ",
    "street": null,
    "office_name": null,
    "office_name_kana": null
  },
  "0070": {
    "postcode": "7950070",
    "prefecture": "愛媛県",
    "prefecture_kana": "エヒメケン",
    "prefecture_code": 38,
    "city": "大洲市",
    "city_kana": "オオズシ",
    "town": "新谷丙",
    "town_kana": "ニイヤヘイ",
    "street": null,
    "office_name": null,
    "office_name_kana": null
  },
  "0071": {
    "postcode": "7950071",
    "prefecture": "愛媛県",
    "prefecture_kana": "エヒメケン",
    "prefecture_code": 38,
    "city": "大洲市",
    "city_kana": "オオズシ",
    "town": "新谷乙",
    "town_kana": "ニイヤオツ",
    "street": null,
    "office_name": null,
    "office_name_kana": null
  },
  "0072": {
    "postcode": "7950072",
    "prefecture": "愛媛県",
    "prefecture_kana": "エヒメケン",
    "prefecture_code": 38,
    "city": "大洲市",
    "city_kana": "オオズシ",
    "town": "新谷甲",
    "town_kana": "ニイヤコウ",
    "street": null,
    "office_name": null,
    "office_name_kana": null
  },
  "0073": {
    "postcode": "7950073",
    "prefecture": "愛媛県",
    "prefecture_kana": "エヒメケン",
    "prefecture_code": 38,
    "city": "大洲市",
    "city_kana": "オオズシ",
    "town": "新谷町",
    "town_kana": "ニイヤマチ",
    "street": null,
    "office_name": null,
    "office_name_kana": null
  },
  "0074": {
    "postcode": "7950074",
    "prefecture": "愛媛県",
    "prefecture_kana": "エヒメケン",
    "prefecture_code": 38,
    "city": "大洲市",
    "city_kana": "オオズシ",
    "town": "恋木",
    "town_kana": "コイノキ",
    "street": null,
    "office_name": null,
    "office_name_kana": null
  },
  "0075": {
    "postcode": "7950075",
    "prefecture": "愛媛県",
    "prefecture_kana": "エヒメケン",
    "prefecture_code": 38,
    "city": "大洲市",
    "city_kana": "オオズシ",
    "town": "喜多山",
    "town_kana": "キタヤマ",
    "street": null,
    "office_name": null,
    "office_name_kana": null
  },
  "0076": {
    "postcode": "7950076",
    "prefecture": "愛媛県",
    "prefecture_kana": "エヒメケン",
    "prefecture_code": 38,
    "city": "大洲市",
    "city_kana": "オオズシ",
    "town": "藤縄",
    "town_kana": "フジナワ",
    "street": null,
    "office_name": null,
    "office_name_kana": null
  },
  "0077": {
    "postcode": "7950077",
    "prefecture": "愛媛県",
    "prefecture_kana": "エヒメケン",
    "prefecture_code": 38,
    "city": "大洲市",
    "city_kana": "オオズシ",
    "town": "柳沢",
    "town_kana": "ヤナギサワ",
    "street": null,
    "office_name": null,
    "office_name_kana": null
  },
  "0078": {
    "postcode": "7950078",
    "prefecture": "愛媛県",
    "prefecture_kana": "エヒメケン",
    "prefecture_code": 38,
    "city": "大洲市",
    "city_kana": "オオズシ",
    "town": "田処",
    "town_kana": "タドコロ",
    "street": null,
    "office_name": null,
    "office_name_kana": null
  },
  "0081": [
    {
      "postcode": "7950081",
      "prefecture": "愛媛県",
      "prefecture_kana": "エヒメケン",
      "prefecture_code": 38,
      "city": "大洲市",
      "city_kana": "オオズシ",
      "town": "菅田町菅田甲",
      "town_kana": "スゲタチョウスゲタコウ",
      "street": null,
      "office_name": null,
      "office_name_kana": null
    },
    {
      "postcode": "7950081",
      "prefecture": "愛媛県",
      "prefecture_kana": "エヒメケン",
      "prefecture_code": 38,
      "city": "大洲市",
      "city_kana": "オオズシ",
      "town": "菅田町菅田丙",
      "town_kana": "スゲタチョウスゲタヘイ",
      "street": null,
      "office_name": null,
      "office_name_kana": null
    }
  ],
  "0082": {
    "postcode": "7950082",
    "prefecture": "愛媛県",
    "prefecture_kana": "エヒメケン",
    "prefecture_code": 38,
    "city": "大洲市",
    "city_kana": "オオズシ",
    "town": "菅田町菅田乙",
    "town_kana": "スゲタチョウスゲタオツ",
    "street": null,
    "office_name": null,
    "office_name_kana": null
  },
  "0083": {
    "postcode": "7950083",
    "prefecture": "愛媛県",
    "prefecture_kana": "エヒメケン",
    "prefecture_code": 38,
    "city": "大洲市",
    "city_kana": "オオズシ",
    "town": "菅田町大竹",
    "town_kana": "スゲタチョウオオダケ",
    "street": null,
    "office_name": null,
    "office_name_kana": null
  },
  "0084": {
    "postcode": "7950084",
    "prefecture": "愛媛県",
    "prefecture_kana": "エヒメケン",
    "prefecture_code": 38,
    "city": "大洲市",
    "city_kana": "オオズシ",
    "town": "菅田町宇津甲",
    "town_kana": "スゲタチョウウズコウ",
    "street": null,
    "office_name": null,
    "office_name_kana": null
  },
  "0085": {
    "postcode": "7950085",
    "prefecture": "愛媛県",
    "prefecture_kana": "エヒメケン",
    "prefecture_code": 38,
    "city": "大洲市",
    "city_kana": "オオズシ",
    "town": "菅田町宇津乙",
    "town_kana": "スゲタチョウウズオツ",
    "street": null,
    "office_name": null,
    "office_name_kana": null
  },
  "0086": {
    "postcode": "7950086",
    "prefecture": "愛媛県",
    "prefecture_kana": "エヒメケン",
    "prefecture_code": 38,
    "city": "大洲市",
    "city_kana": "オオズシ",
    "town": "成能",
    "town_kana": "ナルノウ",
    "street": null,
    "office_name": null,
    "office_name_kana": null
  },
  "0087": {
    "postcode": "7950087",
    "prefecture": "愛媛県",
    "prefecture_kana": "エヒメケン",
    "prefecture_code": 38,
    "city": "大洲市",
    "city_kana": "オオズシ",
    "town": "森山",
    "town_kana": "モリヤマ",
    "street": null,
    "office_name": null,
    "office_name_kana": null
  },
  "0088": {
    "postcode": "7950088",
    "prefecture": "愛媛県",
    "prefecture_kana": "エヒメケン",
    "prefecture_code": 38,
    "city": "大洲市",
    "city_kana": "オオズシ",
    "town": "宇和川",
    "town_kana": "ウワガワ",
    "street": null,
    "office_name": null,
    "office_name_kana": null
  },
  "0089": {
    "postcode": "7950089",
    "prefecture": "愛媛県",
    "prefecture_kana": "エヒメケン",
    "prefecture_code": 38,
    "city": "大洲市",
    "city_kana": "オオズシ",
    "town": "蔵川",
    "town_kana": "クラカワ",
    "street": null,
    "office_name": null,
    "office_name_kana": null
  },
  "0301": {
    "postcode": "7950301",
    "prefecture": "愛媛県",
    "prefecture_kana": "エヒメケン",
    "prefecture_code": 38,
    "city": "喜多郡内子町",
    "city_kana": "キタグンウチコチョウ",
    "town": "五十崎",
    "town_kana": "イカザキ",
    "street": null,
    "office_name": null,
    "office_name_kana": null
  },
  "0302": {
    "postcode": "7950302",
    "prefecture": "愛媛県",
    "prefecture_kana": "エヒメケン",
    "prefecture_code": 38,
    "city": "喜多郡内子町",
    "city_kana": "キタグンウチコチョウ",
    "town": "大久喜",
    "town_kana": "オオグキ",
    "street": null,
    "office_name": null,
    "office_name_kana": null
  },
  "0303": {
    "postcode": "7950303",
    "prefecture": "愛媛県",
    "prefecture_kana": "エヒメケン",
    "prefecture_code": 38,
    "city": "喜多郡内子町",
    "city_kana": "キタグンウチコチョウ",
    "town": "平岡",
    "town_kana": "ヒラオカ",
    "street": null,
    "office_name": null,
    "office_name_kana": null
  },
  "0304": {
    "postcode": "7950304",
    "prefecture": "愛媛県",
    "prefecture_kana": "エヒメケン",
    "prefecture_code": 38,
    "city": "喜多郡内子町",
    "city_kana": "キタグンウチコチョウ",
    "town": "重松",
    "town_kana": "シゲマツ",
    "street": null,
    "office_name": null,
    "office_name_kana": null
  },
  "0305": {
    "postcode": "7950305",
    "prefecture": "愛媛県",
    "prefecture_kana": "エヒメケン",
    "prefecture_code": 38,
    "city": "喜多郡内子町",
    "city_kana": "キタグンウチコチョウ",
    "town": "宿間",
    "town_kana": "シュクマ",
    "street": null,
    "office_name": null,
    "office_name_kana": null
  },
  "0306": {
    "postcode": "7950306",
    "prefecture": "愛媛県",
    "prefecture_kana": "エヒメケン",
    "prefecture_code": 38,
    "city": "喜多郡内子町",
    "city_kana": "キタグンウチコチョウ",
    "town": "福岡",
    "town_kana": "フクオカ",
    "street": null,
    "office_name": null,
    "office_name_kana": null
  },
  "0307": {
    "postcode": "7950307",
    "prefecture": "愛媛県",
    "prefecture_kana": "エヒメケン",
    "prefecture_code": 38,
    "city": "喜多郡内子町",
    "city_kana": "キタグンウチコチョウ",
    "town": "北表",
    "town_kana": "キタオモテ",
    "street": null,
    "office_name": null,
    "office_name_kana": null
  },
  "0308": {
    "postcode": "7950308",
    "prefecture": "愛媛県",
    "prefecture_kana": "エヒメケン",
    "prefecture_code": 38,
    "city": "喜多郡内子町",
    "city_kana": "キタグンウチコチョウ",
    "town": "山鳥坂",
    "town_kana": "ヤマトサカ",
    "street": null,
    "office_name": null,
    "office_name_kana": null
  },
  "0309": {
    "postcode": "7950309",
    "prefecture": "愛媛県",
    "prefecture_kana": "エヒメケン",
    "prefecture_code": 38,
    "city": "喜多郡内子町",
    "city_kana": "キタグンウチコチョウ",
    "town": "只海",
    "town_kana": "タダノウミ",
    "street": null,
    "office_name": null,
    "office_name_kana": null
  },
  "0392": {
    "postcode": "7950392",
    "prefecture": "愛媛県",
    "prefecture_kana": "エヒメケン",
    "prefecture_code": 38,
    "city": "喜多郡内子町",
    "city_kana": "キタグンウチコチョウ",
    "town": "平岡",
    "town_kana": "ヒラオカ",
    "street": "甲１６８",
    "office_name": "内子町役場　本庁",
    "office_name_kana": "ウチコチヨウヤクバ ホンチヨウ"
  },
  "8501": {
    "postcode": "7958501",
    "prefecture": "愛媛県",
    "prefecture_kana": "エヒメケン",
    "prefecture_code": 38,
    "city": "大洲市",
    "city_kana": "オオズシ",
    "town": "西大洲",
    "town_kana": "ニシオオズ",
    "street": "甲５７０",
    "office_name": "市立大洲病院",
    "office_name_kana": "シリツオオズビヨウイン"
  },
  "8502": {
    "postcode": "7958502",
    "prefecture": "愛媛県",
    "prefecture_kana": "エヒメケン",
    "prefecture_code": 38,
    "city": "大洲市",
    "city_kana": "オオズシ",
    "town": "大洲",
    "town_kana": "オオズ",
    "street": "７３７",
    "office_name": "愛媛県立　大洲高等学校",
    "office_name_kana": "エヒメケンリツ オオズコウトウガツコウ"
  },
  "8504": {
    "postcode": "7958504",
    "prefecture": "愛媛県",
    "prefecture_kana": "エヒメケン",
    "prefecture_code": 38,
    "city": "大洲市",
    "city_kana": "オオズシ",
    "town": "田口",
    "town_kana": "タノクチ",
    "street": "甲４２５−１",
    "office_name": "愛媛県南予地方局大洲庁舎",
    "office_name_kana": "エヒメケンナンヨチホウキヨクオオズチヨウシヤ"
  },
  "8505": {
    "postcode": "7958505",
    "prefecture": "愛媛県",
    "prefecture_kana": "エヒメケン",
    "prefecture_code": 38,
    "city": "大洲市",
    "city_kana": "オオズシ",
    "town": "東大洲",
    "town_kana": "ヒガシオオズ",
    "street": "１５６３番地１",
    "office_name": "喜多医師会病院",
    "office_name_kana": "キタイシカイビヨウイン"
  },
  "8506": {
    "postcode": "7958506",
    "prefecture": "愛媛県",
    "prefecture_kana": "エヒメケン",
    "prefecture_code": 38,
    "city": "大洲市",
    "city_kana": "オオズシ",
    "town": "東大洲",
    "town_kana": "ヒガシオオズ",
    "street": "１５８２番地",
    "office_name": "愛媛たいき農業協同組合　本所",
    "office_name_kana": "エヒメタイキノウギヨウキヨウドウクミアイ ホンシヨ"
  },
  "8507": {
    "postcode": "7958507",
    "prefecture": "愛媛県",
    "prefecture_kana": "エヒメケン",
    "prefecture_code": 38,
    "city": "大洲市",
    "city_kana": "オオズシ",
    "town": "東大洲",
    "town_kana": "ヒガシオオズ",
    "street": "５",
    "office_name": "大洲中央病院",
    "office_name_kana": "オオズチユウオウビヨウイン"
  },
  "8508": {
    "postcode": "7958508",
    "prefecture": "愛媛県",
    "prefecture_kana": "エヒメケン",
    "prefecture_code": 38,
    "city": "大洲市",
    "city_kana": "オオズシ",
    "town": "徳森",
    "town_kana": "トクノモリ",
    "street": "字渡リ１３４９",
    "office_name": "丸三産業　株式会社",
    "office_name_kana": "マルサンサンギヨウ カブシキガイシヤ"
  },
  "8510": {
    "postcode": "7958510",
    "prefecture": "愛媛県",
    "prefecture_kana": "エヒメケン",
    "prefecture_code": 38,
    "city": "大洲市",
    "city_kana": "オオズシ",
    "town": "徳森",
    "town_kana": "トクノモリ",
    "street": "１５１２−１",
    "office_name": "大洲記念病院",
    "office_name_kana": "オオズキネンビヨウイン"
  },
  "8601": {
    "postcode": "7958601",
    "prefecture": "愛媛県",
    "prefecture_kana": "エヒメケン",
    "prefecture_code": 38,
    "city": "大洲市",
    "city_kana": "オオズシ",
    "town": "大洲",
    "town_kana": "オオズ",
    "street": "６９０−１（大洲郵便局私書箱第７号）",
    "office_name": "大洲市役所",
    "office_name_kana": "オオズシヤクシヨ"
  },
  "8603": {
    "postcode": "7958603",
    "prefecture": "愛媛県",
    "prefecture_kana": "エヒメケン",
    "prefecture_code": 38,
    "city": "大洲市",
    "city_kana": "オオズシ",
    "town": "徳森",
    "town_kana": "トクノモリ",
    "street": "２４８",
    "office_name": "西田興産",
    "office_name_kana": "ニシダコウサン"
  }
}