{
  "0000": {
    "postcode": "7960000",
    "prefecture": "愛媛県",
    "prefecture_kana": "エヒメケン",
    "prefecture_code": 38,
    "city": "八幡浜市",
    "city_kana": "ヤワタハマシ",
    "town": "",
    "town_kana": "",
    "street": null,
    "office_name": null,
    "office_name_kana": null
  },
  "0001": {
    "postcode": "7960001",
    "prefecture": "愛媛県",
    "prefecture_kana": "エヒメケン",
    "prefecture_code": 38,
    "city": "八幡浜市",
    "city_kana": "ヤワタハマシ",
    "town": "向灘",
    "town_kana": "ムカイナダ",
    "street": null,
    "office_name": null,
    "office_name_kana": null
  },
  "0002": [
    {
      "postcode": "7960002",
      "prefecture": "愛媛県",
      "prefecture_kana": "エヒメケン",
      "prefecture_code": 38,
      "city": "八幡浜市",
      "city_kana": "ヤワタハマシ",
      "town": "大平",
      "town_kana": "オオヒラ",
      "street": null,
      "office_name": null,
      "office_name_kana": null
    },
    {
      "postcode": "7960002",
      "prefecture": "愛媛県",
      "prefecture_kana": "エヒメケン",
      "prefecture_code": 38,
      "city": "八幡浜市",
      "city_kana": "ヤワタハマシ",
      "town": "大平花園町",
      "town_kana": "オオヒラハナゾノチョウ",
      "street": null,
      "office_name": null,
      "office_name_kana": null
    }
  ],
  "0003": {
    "postcode": "7960003",
    "prefecture": "愛媛県",
    "prefecture_kana": "エヒメケン",
    "prefecture_code": 38,
    "city": "八幡浜市",
    "city_kana": "ヤワタハマシ",
    "town": "大平",
    "town_kana": "オオヒラ",
    "street": null,
    "office_name": null,
    "office_name_kana": null
  },
  "0004": [
    {
      "postcode": "7960004",
      "prefecture": "愛媛県",
      "prefecture_kana": "エヒメケン",
      "prefecture_code": 38,
      "city": "八幡浜市",
      "city_kana": "ヤワタハマシ",
      "town": "大平",
      "town_kana": "オオヒラ",
      "street": null,
      "office_name": null,
      "office_name_kana": null
    },
    {
      "postcode": "7960004",
      "prefecture": "愛媛県",
      "prefecture_kana": "エヒメケン",
      "prefecture_code": 38,
      "city": "八幡浜市",
      "city_kana": "ヤワタハマシ",
      "town": "大平津羽井",
      "town_kana": "オオヒラツバイ",
      "street": null,
      "office_name": null,
      "office_name_kana": null
    }
  ],
  "0005": {
    "postcode": "7960005",
    "prefecture": "愛媛県",
    "prefecture_kana": "エヒメケン",
    "prefecture_code": 38,
    "city": "八幡浜市",
    "city_kana": "ヤワタハマシ",
    "town": "高野地",
    "town_kana": "タカノジ",
    "street": null,
    "office_name": null,
    "office_name_kana": null
  },
  "0010": {
    "postcode": "7960010",
    "prefecture": "愛媛県",
    "prefecture_kana": "エヒメケン",
    "prefecture_code": 38,
    "city": "八幡浜市",
    "city_kana": "ヤワタハマシ",
    "town": "松柏",
    "town_kana": "マツカヤ",
    "street": null,
    "office_name": null,
    "office_name_kana": null
  },
  "0011": {
    "postcode": "7960011",
    "prefecture": "愛媛県",
    "prefecture_kana": "エヒメケン",
    "prefecture_code": 38,
    "city": "八幡浜市",
    "city_kana": "ヤワタハマシ",
    "town": "木多町",
    "town_kana": "キタマチ",
    "street": null,
    "office_name": null,
    "office_name_kana": null
  },
  "0012": {
    "postcode": "7960012",
    "prefecture": "愛媛県",
    "prefecture_kana": "エヒメケン",
    "prefecture_code": 38,
    "city": "八幡浜市",
    "city_kana": "ヤワタハマシ",
    "town": "南柏",
    "town_kana": "ミナミガヤ",
    "street": null,
    "office_name": null,
    "office_name_kana": null
  },
  "0013": {
    "postcode": "7960013",
    "prefecture": "愛媛県",
    "prefecture_kana": "エヒメケン",
    "prefecture_code": 38,
    "city": "八幡浜市",
    "city_kana": "ヤワタハマシ",
    "town": "山越",
    "town_kana": "ヤマグイ",
    "street": null,
    "office_name": null,
    "office_name_kana": null
  },
  "0014": {
    "postcode": "7960014",
    "prefecture": "愛媛県",
    "prefecture_kana": "エヒメケン",
    "prefecture_code": 38,
    "city": "八幡浜市",
    "city_kana": "ヤワタハマシ",
    "town": "新和田町",
    "town_kana": "シンワダマチ",
    "street": null,
    "office_name": null,
    "office_name_kana": null
  },
  "0020": {
    "postcode": "7960020",
    "prefecture": "愛媛県",
    "prefecture_kana": "エヒメケン",
    "prefecture_code": 38,
    "city": "八幡浜市",
    "city_kana": "ヤワタハマシ",
    "town": "神宮",
    "town_kana": "ジングウ",
    "street": null,
    "office_name": null,
    "office_name_kana": null
  },
  "0021": {
    "postcode": "7960021",
    "prefecture": "愛媛県",
    "prefecture_kana": "エヒメケン",
    "prefecture_code": 38,
    "city": "八幡浜市",
    "city_kana": "ヤワタハマシ",
    "town": "桧谷",
    "town_kana": "ヒノキダニ",
    "street": null,
    "office_name": null,
    "office_name_kana": null
  },
  "0022": {
    "postcode": "7960022",
    "prefecture": "愛媛県",
    "prefecture_kana": "エヒメケン",
    "prefecture_code": 38,
    "city": "八幡浜市",
    "city_kana": "ヤワタハマシ",
    "town": "駅前",
    "town_kana": "エキマエ",
    "street": null,
    "office_name": null,
    "office_name_kana": null
  },
  "0023": {
    "postcode": "7960023",
    "prefecture": "愛媛県",
    "prefecture_kana": "エヒメケン",
    "prefecture_code": 38,
    "city": "八幡浜市",
    "city_kana": "ヤワタハマシ",
    "town": "神宮前",
    "town_kana": "ジングウマエ",
    "street": null,
    "office_name": null,
    "office_name_kana": null
  },
  "0024": {
    "postcode": "7960024",
    "prefecture": "愛媛県",
    "prefecture_kana": "エヒメケン",
    "prefecture_code": 38,
    "city": "八幡浜市",
    "city_kana": "ヤワタハマシ",
    "town": "神宮通",
    "town_kana": "ジングウドオリ",
    "street": null,
    "office_name": null,
    "office_name_kana": null
  },
  "0025": {
    "postcode": "7960025",
    "prefecture": "愛媛県",
    "prefecture_kana": "エヒメケン",
    "prefecture_code": 38,
    "city": "八幡浜市",
    "city_kana": "ヤワタハマシ",
    "town": "東矢野町",
    "town_kana": "ヒガシヤノマチ",
    "street": null,
    "office_name": null,
    "office_name_kana": null
  },
  "0026": {
    "postcode": "7960026",
    "prefecture": "愛媛県",
    "prefecture_kana": "エヒメケン",
    "prefecture_code": 38,
    "city": "八幡浜市",
    "city_kana": "ヤワタハマシ",
    "town": "矢野町",
    "town_kana": "ヤノマチ",
    "street": null,
    "office_name": null,
    "office_name_kana": null
  },
  "0027": {
    "postcode": "7960027",
    "prefecture": "愛媛県",
    "prefecture_kana": "エヒメケン",
    "prefecture_code": 38,
    "city": "八幡浜市",
    "city_kana": "ヤワタハマシ",
    "town": "松蔭町",
    "town_kana": "マツカゲチョウ",
    "street": null,
    "office_name": null,
    "office_name_kana": null
  },
  "0028": {
    "postcode": "7960028",
    "prefecture": "愛媛県",
    "prefecture_kana": "エヒメケン",
    "prefecture_code": 38,
    "city": "八幡浜市",
    "city_kana": "ヤワタハマシ",
    "town": "清水町",
    "town_kana": "シミズマチ",
    "street": null,
    "office_name": null,
    "office_name_kana": null
  },
  "0029": {
    "postcode": "7960029",
    "prefecture": "愛媛県",
    "prefecture_kana": "エヒメケン",
    "prefecture_code": 38,
    "city": "八幡浜市",
    "city_kana": "ヤワタハマシ",
    "town": "花小路",
    "town_kana": "ハナコウジ",
    "street": null,
    "office_name": null,
    "office_name_kana": null
  },
  "0031": {
    "postcode": "7960031",
    "prefecture": "愛媛県",
    "prefecture_kana": "エヒメケン",
    "prefecture_code": 38,
    "city": "八幡浜市",
    "city_kana": "ヤワタハマシ",
    "town": "江戸岡",
    "town_kana": "エドオカ",
    "street": null,
    "office_name": null,
    "office_name_kana": null
  },
  "0032": {
    "postcode": "7960032",
    "prefecture": "愛媛県",
    "prefecture_kana": "エヒメケン",
    "prefecture_code": 38,
    "city": "八幡浜市",
    "city_kana": "ヤワタハマシ",
    "town": "東新川",
    "town_kana": "ヒガシシンカワ",
    "street": null,
    "office_name": null,
    "office_name_kana": null
  },
  "0033": {
    "postcode": "7960033",
    "prefecture": "愛媛県",
    "prefecture_kana": "エヒメケン",
    "prefecture_code": 38,
    "city": "八幡浜市",
    "city_kana": "ヤワタハマシ",
    "town": "大正町",
    "town_kana": "タイショウマチ",
    "street": null,
    "office_name": null,
    "office_name_kana": null
  },
  "0034": {
    "postcode": "7960034",
    "prefecture": "愛媛県",
    "prefecture_kana": "エヒメケン",
    "prefecture_code": 38,
    "city": "八幡浜市",
    "city_kana": "ヤワタハマシ",
    "town": "浜田町",
    "town_kana": "ハマダマチ",
    "street": null,
    "office_name": null,
    "office_name_kana": null
  },
  "0035": {
    "postcode": "7960035",
    "prefecture": "愛媛県",
    "prefecture_kana": "エヒメケン",
    "prefecture_code": 38,
    "city": "八幡浜市",
    "city_kana": "ヤワタハマシ",
    "town": "須崎",
    "town_kana": "スサキ",
    "street": null,
    "office_name": null,
    "office_name_kana": null
  },
  "0036": {
    "postcode": "7960036",
    "prefecture": "愛媛県",
    "prefecture_kana": "エヒメケン",
    "prefecture_code": 38,
    "city": "八幡浜市",
    "city_kana": "ヤワタハマシ",
    "town": "新川",
    "town_kana": "シンカワ",
    "street": null,
    "office_name": null,
    "office_name_kana": null
  },
  "0037": {
    "postcode": "7960037",
    "prefecture": "愛媛県",
    "prefecture_kana": "エヒメケン",
    "prefecture_code": 38,
    "city": "八幡浜市",
    "city_kana": "ヤワタハマシ",
    "town": "昭和通",
    "town_kana": "ショウワドオリ",
    "street": null,
    "office_name": null,
    "office_name_kana": null
  },
  "0038": {
    "postcode": "7960038",
    "prefecture": "愛媛県",
    "prefecture_kana": "エヒメケン",
    "prefecture_code": 38,
    "city": "八幡浜市",
    "city_kana": "ヤワタハマシ",
    "town": "清水町花小路",
    "town_kana": "シミズマチハナコウジ",
    "street": null,
    "office_name": null,
    "office_name_kana": null
  },
  "0041": {
    "postcode": "7960041",
    "prefecture": "愛媛県",
    "prefecture_kana": "エヒメケン",
    "prefecture_code": 38,
    "city": "八幡浜市",
    "city_kana": "ヤワタハマシ",
    "town": "裁判所通",
    "town_kana": "サイバンショドオリ",
    "street": null,
    "office_name": null,
    "office_name_kana": null
  },
  "0042": {
    "postcode": "7960042",
    "prefecture": "愛媛県",
    "prefecture_kana": "エヒメケン",
    "prefecture_code": 38,
    "city": "八幡浜市",
    "city_kana": "ヤワタハマシ",
    "town": "喜多町",
    "town_kana": "キタマチ",
    "street": null,
    "office_name": null,
    "office_name_kana": null
  },
  "0043": {
    "postcode": "7960043",
    "prefecture": "愛媛県",
    "prefecture_kana": "エヒメケン",
    "prefecture_code": 38,
    "city": "八幡浜市",
    "city_kana": "ヤワタハマシ",
    "town": "東近江屋町",
    "town_kana": "ヒガシオウミヤチョウ",
    "street": null,
    "office_name": null,
    "office_name_kana": null
  },
  "0044": {
    "postcode": "7960044",
    "prefecture": "愛媛県",
    "prefecture_kana": "エヒメケン",
    "prefecture_code": 38,
    "city": "八幡浜市",
    "city_kana": "ヤワタハマシ",
    "town": "西近江屋町",
    "town_kana": "ニシオウミヤチョウ",
    "street": null,
    "office_name": null,
    "office_name_kana": null
  },
  "0045": {
    "postcode": "7960045",
    "prefecture": "愛媛県",
    "prefecture_kana": "エヒメケン",
    "prefecture_code": 38,
    "city": "八幡浜市",
    "city_kana": "ヤワタハマシ",
    "town": "西近江屋町浜通",
    "town_kana": "ニシオウミヤチョウハマドオリ",
    "street": null,
    "office_name": null,
    "office_name_kana": null
  },
  "0046": {
    "postcode": "7960046",
    "prefecture": "愛媛県",
    "prefecture_kana": "エヒメケン",
    "prefecture_code": 38,
    "city": "八幡浜市",
    "city_kana": "ヤワタハマシ",
    "town": "旧港",
    "town_kana": "キュウミナト",
    "street": null,
    "office_name": null,
    "office_name_kana": null
  },
  "0047": {
    "postcode": "7960047",
    "prefecture": "愛媛県",
    "prefecture_kana": "エヒメケン",
    "prefecture_code": 38,
    "city": "八幡浜市",
    "city_kana": "ヤワタハマシ",
    "town": "白浜通",
    "town_kana": "シロハマドオリ",
    "street": null,
    "office_name": null,
    "office_name_kana": null
  },
  "0048": {
    "postcode": "7960048",
    "prefecture": "愛媛県",
    "prefecture_kana": "エヒメケン",
    "prefecture_code": 38,
    "city": "八幡浜市",
    "city_kana": "ヤワタハマシ",
    "town": "北浜",
    "town_kana": "キタハマ",
    "street": null,
    "office_name": null,
    "office_name_kana": null
  },
  "0051": {
    "postcode": "7960051",
    "prefecture": "愛媛県",
    "prefecture_kana": "エヒメケン",
    "prefecture_code": 38,
    "city": "八幡浜市",
    "city_kana": "ヤワタハマシ",
    "town": "幸町",
    "town_kana": "サイワイマチ",
    "street": null,
    "office_name": null,
    "office_name_kana": null
  },
  "0052": {
    "postcode": "7960052",
    "prefecture": "愛媛県",
    "prefecture_kana": "エヒメケン",
    "prefecture_code": 38,
    "city": "八幡浜市",
    "city_kana": "ヤワタハマシ",
    "town": "松本町",
    "town_kana": "マツモトチョウ",
    "street": null,
    "office_name": null,
    "office_name_kana": null
  },
  "0053": {
    "postcode": "7960053",
    "prefecture": "愛媛県",
    "prefecture_kana": "エヒメケン",
    "prefecture_code": 38,
    "city": "八幡浜市",
    "city_kana": "ヤワタハマシ",
    "town": "海望園",
    "town_kana": "カイボウエン",
    "street": null,
    "office_name": null,
    "office_name_kana": null
  },
  "0054": {
    "postcode": "7960054",
    "prefecture": "愛媛県",
    "prefecture_kana": "エヒメケン",
    "prefecture_code": 38,
    "city": "八幡浜市",
    "city_kana": "ヤワタハマシ",
    "town": "琴平町",
    "town_kana": "コトヒラチョウ",
    "street": null,
    "office_name": null,
    "office_name_kana": null
  },
  "0055": {
    "postcode": "7960055",
    "prefecture": "愛媛県",
    "prefecture_kana": "エヒメケン",
    "prefecture_code": 38,
    "city": "八幡浜市",
    "city_kana": "ヤワタハマシ",
    "town": "大門",
    "town_kana": "ダイモン",
    "street": null,
    "office_name": null,
    "office_name_kana": null
  },
  "0056": {
    "postcode": "7960056",
    "prefecture": "愛媛県",
    "prefecture_kana": "エヒメケン",
    "prefecture_code": 38,
    "city": "八幡浜市",
    "city_kana": "ヤワタハマシ",
    "town": "愛宕",
    "town_kana": "アタゴ",
    "street": null,
    "office_name": null,
    "office_name_kana": null
  },
  "0057": {
    "postcode": "7960057",
    "prefecture": "愛媛県",
    "prefecture_kana": "エヒメケン",
    "prefecture_code": 38,
    "city": "八幡浜市",
    "city_kana": "ヤワタハマシ",
    "town": "愛宕山団地",
    "town_kana": "アタゴヤマダンチ",
    "street": null,
    "office_name": null,
    "office_name_kana": null
  },
  "0061": {
    "postcode": "7960061",
    "prefecture": "愛媛県",
    "prefecture_kana": "エヒメケン",
    "prefecture_code": 38,
    "city": "八幡浜市",
    "city_kana": "ヤワタハマシ",
    "town": "海老崎",
    "town_kana": "エビサキ",
    "street": null,
    "office_name": null,
    "office_name_kana": null
  },
  "0062": {
    "postcode": "7960062",
    "prefecture": "愛媛県",
    "prefecture_kana": "エヒメケン",
    "prefecture_code": 38,
    "city": "八幡浜市",
    "city_kana": "ヤワタハマシ",
    "town": "新栄町",
    "town_kana": "シンエイチョウ",
    "street": null,
    "office_name": null,
    "office_name_kana": null
  },
  "0063": {
    "postcode": "7960063",
    "prefecture": "愛媛県",
    "prefecture_kana": "エヒメケン",
    "prefecture_code": 38,
    "city": "八幡浜市",
    "city_kana": "ヤワタハマシ",
    "town": "横町",
    "town_kana": "ヨコマチ",
    "street": null,
    "office_name": null,
    "office_name_kana": null
  },
  "0064": {
    "postcode": "7960064",
    "prefecture": "愛媛県",
    "prefecture_kana": "エヒメケン",
    "prefecture_code": 38,
    "city": "八幡浜市",
    "city_kana": "ヤワタハマシ",
    "town": "船場通",
    "town_kana": "センバドオリ",
    "street": null,
    "office_name": null,
    "office_name_kana": null
  },
  "0065": {
    "postcode": "7960065",
    "prefecture": "愛媛県",
    "prefecture_kana": "エヒメケン",
    "prefecture_code": 38,
    "city": "八幡浜市",
    "city_kana": "ヤワタハマシ",
    "town": "片山町",
    "town_kana": "カタヤマチョウ",
    "street": null,
    "office_name": null,
    "office_name_kana": null
  },
  "0066": {
    "postcode": "7960066",
    "prefecture": "愛媛県",
    "prefecture_kana": "エヒメケン",
    "prefecture_code": 38,
    "city": "八幡浜市",
    "city_kana": "ヤワタハマシ",
    "town": "本町",
    "town_kana": "ホンマチ",
    "street": null,
    "office_name": null,
    "office_name_kana": null
  },
  "0067": {
    "postcode": "7960067",
    "prefecture": "愛媛県",
    "prefecture_kana": "エヒメケン",
    "prefecture_code": 38,
    "city": "八幡浜市",
    "city_kana": "ヤワタハマシ",
    "town": "中央",
    "town_kana": "チュウオウ",
    "street": null,
    "office_name": null,
    "office_name_kana": null
  },
  "0068": {
    "postcode": "7960068",
    "prefecture": "愛媛県",
    "prefecture_kana": "エヒメケン",
    "prefecture_code": 38,
    "city": "八幡浜市",
    "city_kana": "ヤワタハマシ",
    "town": "浜之町",
    "town_kana": "ハマノマチ",
    "street": null,
    "office_name": null,
    "office_name_kana": null
  },
  "0069": {
    "postcode": "7960069",
    "prefecture": "愛媛県",
    "prefecture_kana": "エヒメケン",
    "prefecture_code": 38,
    "city": "八幡浜市",
    "city_kana": "ヤワタハマシ",
    "town": "下道",
    "town_kana": "シタミチ",
    "street": null,
    "office_name": null,
    "office_name_kana": null
  },
  "0071": {
    "postcode": "7960071",
    "prefecture": "愛媛県",
    "prefecture_kana": "エヒメケン",
    "prefecture_code": 38,
    "city": "八幡浜市",
    "city_kana": "ヤワタハマシ",
    "town": "新町",
    "town_kana": "シンマチ",
    "street": null,
    "office_name": null,
    "office_name_kana": null
  },
  "0072": {
    "postcode": "7960072",
    "prefecture": "愛媛県",
    "prefecture_kana": "エヒメケン",
    "prefecture_code": 38,
    "city": "八幡浜市",
    "city_kana": "ヤワタハマシ",
    "town": "港町",
    "town_kana": "ミナトマチ",
    "street": null,
    "office_name": null,
    "office_name_kana": null
  },
  "0073": {
    "postcode": "7960073",
    "prefecture": "愛媛県",
    "prefecture_kana": "エヒメケン",
    "prefecture_code": 38,
    "city": "八幡浜市",
    "city_kana": "ヤワタハマシ",
    "town": "戎町",
    "town_kana": "エビスマチ",
    "street": null,
    "office_name": null,
    "office_name_kana": null
  },
  "0074": {
    "postcode": "7960074",
    "prefecture": "愛媛県",
    "prefecture_kana": "エヒメケン",
    "prefecture_code": 38,
    "city": "八幡浜市",
    "city_kana": "ヤワタハマシ",
    "town": "新港",
    "town_kana": "シンミナト",
    "street": null,
    "office_name": null,
    "office_name_kana": null
  },
  "0075": {
    "postcode": "7960075",
    "prefecture": "愛媛県",
    "prefecture_kana": "エヒメケン",
    "prefecture_code": 38,
    "city": "八幡浜市",
    "city_kana": "ヤワタハマシ",
    "town": "仲之町",
    "town_kana": "ナカノマチ",
    "street": null,
    "office_name": null,
    "office_name_kana": null
  },
  "0076": {
    "postcode": "7960076",
    "prefecture": "愛媛県",
    "prefecture_kana": "エヒメケン",
    "prefecture_code": 38,
    "city": "八幡浜市",
    "city_kana": "ヤワタハマシ",
    "town": "千代田町",
    "town_kana": "チヨダマチ",
    "street": null,
    "office_name": null,
    "office_name_kana": null
  },
  "0077": {
    "postcode": "7960077",
    "prefecture": "愛媛県",
    "prefecture_kana": "エヒメケン",
    "prefecture_code": 38,
    "city": "八幡浜市",
    "city_kana": "ヤワタハマシ",
    "town": "旧役場前通",
    "town_kana": "キュウヤクバマエドオリ",
    "street": null,
    "office_name": null,
    "office_name_kana": null
  },
  "0079": {
    "postcode": "7960079",
    "prefecture": "愛媛県",
    "prefecture_kana": "エヒメケン",
    "prefecture_code": 38,
    "city": "八幡浜市",
    "city_kana": "ヤワタハマシ",
    "town": "新港戎町",
    "town_kana": "シンミナトエビスマチ",
    "street": null,
    "office_name": null,
    "office_name_kana": null
  },
  "0081": {
    "postcode": "7960081",
    "prefecture": "愛媛県",
    "prefecture_kana": "エヒメケン",
    "prefecture_code": 38,
    "city": "八幡浜市",
    "city_kana": "ヤワタハマシ",
    "town": "朝潮橋",
    "town_kana": "アサシオバシ",
    "street": null,
    "office_name": null,
    "office_name_kana": null
  },
  "0082": {
    "postcode": "7960082",
    "prefecture": "愛媛県",
    "prefecture_kana": "エヒメケン",
    "prefecture_code": 38,
    "city": "八幡浜市",
    "city_kana": "ヤワタハマシ",
    "town": "北大黒町",
    "town_kana": "キタダイコクマチ",
    "street": null,
    "office_name": null,
    "office_name_kana": null
  },
  "0083": {
    "postcode": "7960083",
    "prefecture": "愛媛県",
    "prefecture_kana": "エヒメケン",
    "prefecture_code": 38,
    "city": "八幡浜市",
    "city_kana": "ヤワタハマシ",
    "town": "大黒町",
    "town_kana": "ダイコクマチ",
    "street": null,
    "office_name": null,
    "office_name_kana": null
  },
  "0084": {
    "postcode": "7960084",
    "prefecture": "愛媛県",
    "prefecture_kana": "エヒメケン",
    "prefecture_code": 38,
    "city": "八幡浜市",
    "city_kana": "ヤワタハマシ",
    "town": "南大黒町",
    "town_kana": "ミナミダイコクマチ",
    "street": null,
    "office_name": null,
    "office_name_kana": null
  },
  "0085": {
    "postcode": "7960085",
    "prefecture": "愛媛県",
    "prefecture_kana": "エヒメケン",
    "prefecture_code": 38,
    "city": "八幡浜市",
    "city_kana": "ヤワタハマシ",
    "town": "天神通",
    "town_kana": "テンジンドオリ",
    "street": null,
    "office_name": null,
    "office_name_kana": null
  },
  "0086": {
    "postcode": "7960086",
    "prefecture": "愛媛県",
    "prefecture_kana": "エヒメケン",
    "prefecture_code": 38,
    "city": "八幡浜市",
    "city_kana": "ヤワタハマシ",
    "town": "旭町",
    "town_kana": "アサヒマチ",
    "street": null,
    "office_name": null,
    "office_name_kana": null
  },
  "0087": {
    "postcode": "7960087",
    "prefecture": "愛媛県",
    "prefecture_kana": "エヒメケン",
    "prefecture_code": 38,
    "city": "八幡浜市",
    "city_kana": "ヤワタハマシ",
    "town": "沖新田",
    "town_kana": "オキシンデン",
    "street": null,
    "office_name": null,
    "office_name_kana": null
  },
  "0088": {
    "postcode": "7960088",
    "prefecture": "愛媛県",
    "prefecture_kana": "エヒメケン",
    "prefecture_code": 38,
    "city": "八幡浜市",
    "city_kana": "ヤワタハマシ",
    "town": "",
    "town_kana": "",
    "street": null,
    "office_name": null,
    "office_name_kana": null
  },
  "0089": {
    "postcode": "7960089",
    "prefecture": "愛媛県",
    "prefecture_kana": "エヒメケン",
    "prefecture_code": 38,
    "city": "八幡浜市",
    "city_kana": "ヤワタハマシ",
    "town": "出島",
    "town_kana": "デジマ",
    "street": null,
    "office_name": null,
    "office_name_kana": null
  },
  "0111": {
    "postcode": "7960111",
    "prefecture": "愛媛県",
    "prefecture_kana": "エヒメケン",
    "prefecture_code": 38,
    "city": "八幡浜市",
    "city_kana": "ヤワタハマシ",
    "town": "保内町喜木",
    "town_kana": "ホナイチョウキキ",
    "street": null,
    "office_name": null,
    "office_name_kana": null
  },
  "0112": {
    "postcode": "7960112",
    "prefecture": "愛媛県",
    "prefecture_kana": "エヒメケン",
    "prefecture_code": 38,
    "city": "八幡浜市",
    "city_kana": "ヤワタハマシ",
    "town": "保内町須川",
    "town_kana": "ホナイチョウスガワ",
    "street": null,
    "office_name": null,
    "office_name_kana": null
  },
  "0170": {
    "postcode": "7960170",
    "prefecture": "愛媛県",
    "prefecture_kana": "エヒメケン",
    "prefecture_code": 38,
    "city": "八幡浜市",
    "city_kana": "ヤワタハマシ",
    "town": "日土町",
    "town_kana": "ヒヅチチョウ",
    "street": null,
    "office_name": null,
    "office_name_kana": null
  },
  "0201": {
    "postcode": "7960201",
    "prefecture": "愛媛県",
    "prefecture_kana": "エヒメケン",
    "prefecture_code": 38,
    "city": "八幡浜市",
    "city_kana": "ヤワタハマシ",
    "town": "保内町川之石",
    "town_kana": "ホナイチョウカワノイシ",
    "street": null,
    "office_name": null,
    "office_name_kana": null
  },
  "0202": {
    "postcode": "7960202",
    "prefecture": "愛媛県",
    "prefecture_kana": "エヒメケン",
    "prefecture_code": 38,
    "city": "八幡浜市",
    "city_kana": "ヤワタハマシ",
    "town": "保内町宮内",
    "town_kana": "ホナイチョウミヤウチ",
    "street": null,
    "office_name": null,
    "office_name_kana": null
  },
  "0203": {
    "postcode": "7960203",
    "prefecture": "愛媛県",
    "prefecture_kana": "エヒメケン",
    "prefecture_code": 38,
    "city": "八幡浜市",
    "city_kana": "ヤワタハマシ",
    "town": "保内町磯崎",
    "town_kana": "ホナイチョウイサキ",
    "street": null,
    "office_name": null,
    "office_name_kana": null
  },
  "0204": {
    "postcode": "7960204",
    "prefecture": "愛媛県",
    "prefecture_kana": "エヒメケン",
    "prefecture_code": 38,
    "city": "八幡浜市",
    "city_kana": "ヤワタハマシ",
    "town": "保内町喜木津",
    "town_kana": "ホナイチョウキキツ",
    "street": null,
    "office_name": null,
    "office_name_kana": null
  },
  "0205": {
    "postcode": "7960205",
    "prefecture": "愛媛県",
    "prefecture_kana": "エヒメケン",
    "prefecture_code": 38,
    "city": "八幡浜市",
    "city_kana": "ヤワタハマシ",
    "town": "保内町広早",
    "town_kana": "ホナイチョウヒロハヤ",
    "street": null,
    "office_name": null,
    "office_name_kana": null
  },
  "0292": {
    "postcode": "7960292",
    "prefecture": "愛媛県",
    "prefecture_kana": "エヒメケン",
    "prefecture_code": 38,
    "city": "八幡浜市",
    "city_kana": "ヤワタハマシ",
    "town": "保内町宮内",
    "town_kana": "ホナイチョウミヤウチ",
    "street": "１−２６０",
    "office_name": "八幡浜市役所　保内庁舎",
    "office_name_kana": "ヤワタハマシヤクシヨ ホナイチヨウシヤ"
  },
  "0293": {
    "postcode": "7960293",
    "prefecture": "愛媛県",
    "prefecture_kana": "エヒメケン",
    "prefecture_code": 38,
    "city": "八幡浜市",
    "city_kana": "ヤワタハマシ",
    "town": "保内町宮内",
    "town_kana": "ホナイチョウミヤウチ",
    "street": "１−３００−１",
    "office_name": "西南開発　株式会社",
    "office_name_kana": "セイナンカイハツ カブシキガイシヤ"
  },
  "0295": {
    "postcode": "7960295",
    "prefecture": "愛媛県",
    "prefecture_kana": "エヒメケン",
    "prefecture_code": 38,
    "city": "八幡浜市",
    "city_kana": "ヤワタハマシ",
    "town": "保内町川之石",
    "town_kana": "ホナイチョウカワノイシ",
    "street": "１−２３７−５３",
    "office_name": "株式会社　あわしま堂",
    "office_name_kana": "カブシキガイシヤ アワシマドウ"
  },
  "0300": {
    "postcode": "7960300",
    "prefecture": "愛媛県",
    "prefecture_kana": "エヒメケン",
    "prefecture_code": 38,
    "city": "西宇和郡伊方町",
    "city_kana": "ニシウワグンイカタチョウ",
    "town": "",
    "town_kana": "",
    "street": null,
    "office_name": null,
    "office_name_kana": null
  },
  "0301": {
    "postcode": "7960301",
    "prefecture": "愛媛県",
    "prefecture_kana": "エヒメケン",
    "prefecture_code": 38,
    "city": "西宇和郡伊方町",
    "city_kana": "ニシウワグンイカタチョウ",
    "town": "湊浦",
    "town_kana": "ミナトウラ",
    "street": null,
    "office_name": null,
    "office_name_kana": null
  },
  "0302": {
    "postcode": "7960302",
    "prefecture": "愛媛県",
    "prefecture_kana": "エヒメケン",
    "prefecture_code": 38,
    "city": "西宇和郡伊方町",
    "city_kana": "ニシウワグンイカタチョウ",
    "town": "小中浦",
    "town_kana": "コナカウラ",
    "street": null,
    "office_name": null,
    "office_name_kana": null
  },
  "0303": {
    "postcode": "7960303",
    "prefecture": "愛媛県",
    "prefecture_kana": "エヒメケン",
    "prefecture_code": 38,
    "city": "西宇和郡伊方町",
    "city_kana": "ニシウワグンイカタチョウ",
    "town": "亀浦",
    "town_kana": "カメウラ",
    "street": null,
    "office_name": null,
    "office_name_kana": null
  },
  "0304": {
    "postcode": "7960304",
    "prefecture": "愛媛県",
    "prefecture_kana": "エヒメケン",
    "prefecture_code": 38,
    "city": "西宇和郡伊方町",
    "city_kana": "ニシウワグンイカタチョウ",
    "town": "伊方越",
    "town_kana": "イカタゴシ",
    "street": null,
    "office_name": null,
    "office_name_kana": null
  },
  "0305": {
    "postcode": "7960305",
    "prefecture": "愛媛県",
    "prefecture_kana": "エヒメケン",
    "prefecture_code": 38,
    "city": "西宇和郡伊方町",
    "city_kana": "ニシウワグンイカタチョウ",
    "town": "河内",
    "town_kana": "カワウチ",
    "street": null,
    "office_name": null,
    "office_name_kana": null
  },
  "0306": {
    "postcode": "7960306",
    "prefecture": "愛媛県",
    "prefecture_kana": "エヒメケン",
    "prefecture_code": 38,
    "city": "西宇和郡伊方町",
    "city_kana": "ニシウワグンイカタチョウ",
    "town": "仁田之浜",
    "town_kana": "ニタノハマ",
    "street": null,
    "office_name": null,
    "office_name_kana": null
  },
  "0307": {
    "postcode": "7960307",
    "prefecture": "愛媛県",
    "prefecture_kana": "エヒメケン",
    "prefecture_code": 38,
    "city": "西宇和郡伊方町",
    "city_kana": "ニシウワグンイカタチョウ",
    "town": "中之浜",
    "town_kana": "ナカノハマ",
    "street": null,
    "office_name": null,
    "office_name_kana": null
  },
  "0308": {
    "postcode": "7960308",
    "prefecture": "愛媛県",
    "prefecture_kana": "エヒメケン",
    "prefecture_code": 38,
    "city": "西宇和郡伊方町",
    "city_kana": "ニシウワグンイカタチョウ",
    "town": "大浜",
    "town_kana": "オオハマ",
    "street": null,
    "office_name": null,
    "office_name_kana": null
  },
  "0311": {
    "postcode": "7960311",
    "prefecture": "愛媛県",
    "prefecture_kana": "エヒメケン",
    "prefecture_code": 38,
    "city": "西宇和郡伊方町",
    "city_kana": "ニシウワグンイカタチョウ",
    "town": "中浦",
    "town_kana": "ナカウラ",
    "street": null,
    "office_name": null,
    "office_name_kana": null
  },
  "0312": {
    "postcode": "7960312",
    "prefecture": "愛媛県",
    "prefecture_kana": "エヒメケン",
    "prefecture_code": 38,
    "city": "西宇和郡伊方町",
    "city_kana": "ニシウワグンイカタチョウ",
    "town": "川永田",
    "town_kana": "カワナガタ",
    "street": null,
    "office_name": null,
    "office_name_kana": null
  },
  "0313": {
    "postcode": "7960313",
    "prefecture": "愛媛県",
    "prefecture_kana": "エヒメケン",
    "prefecture_code": 38,
    "city": "西宇和郡伊方町",
    "city_kana": "ニシウワグンイカタチョウ",
    "town": "豊之浦",
    "town_kana": "トヨノウラ",
    "street": null,
    "office_name": null,
    "office_name_kana": null
  },
  "0421": {
    "postcode": "7960421",
    "prefecture": "愛媛県",
    "prefecture_kana": "エヒメケン",
    "prefecture_code": 38,
    "city": "西宇和郡伊方町",
    "city_kana": "ニシウワグンイカタチョウ",
    "town": "九町",
    "town_kana": "クチョウ",
    "street": null,
    "office_name": null,
    "office_name_kana": null
  },
  "0422": {
    "postcode": "7960422",
    "prefecture": "愛媛県",
    "prefecture_kana": "エヒメケン",
    "prefecture_code": 38,
    "city": "西宇和郡伊方町",
    "city_kana": "ニシウワグンイカタチョウ",
    "town": "二見",
    "town_kana": "フタミ",
    "street": null,
    "office_name": null,
    "office_name_kana": null
  },
  "0495": {
    "postcode": "7960495",
    "prefecture": "愛媛県",
    "prefecture_kana": "エヒメケン",
    "prefecture_code": 38,
    "city": "西宇和郡伊方町",
    "city_kana": "ニシウワグンイカタチョウ",
    "town": "九町",
    "town_kana": "クチョウ",
    "street": "字コチワキ３番耕地４０−３",
    "office_name": "四国電力　（株）　伊方発電所",
    "office_name_kana": "シコクデンリヨク カブシキガイシヤ イカタハツデンシヨ"
  },
  "0501": {
    "postcode": "7960501",
    "prefecture": "愛媛県",
    "prefecture_kana": "エヒメケン",
    "prefecture_code": 38,
    "city": "西宇和郡伊方町",
    "city_kana": "ニシウワグンイカタチョウ",
    "town": "足成",
    "town_kana": "アシナル",
    "street": null,
    "office_name": null,
    "office_name_kana": null
  },
  "0502": {
    "postcode": "7960502",
    "prefecture": "愛媛県",
    "prefecture_kana": "エヒメケン",
    "prefecture_code": 38,
    "city": "西宇和郡伊方町",
    "city_kana": "ニシウワグンイカタチョウ",
    "town": "三机",
    "town_kana": "ミツクエ",
    "street": null,
    "office_name": null,
    "office_name_kana": null
  },
  "0503": {
    "postcode": "7960503",
    "prefecture": "愛媛県",
    "prefecture_kana": "エヒメケン",
    "prefecture_code": 38,
    "city": "西宇和郡伊方町",
    "city_kana": "ニシウワグンイカタチョウ",
    "town": "大江",
    "town_kana": "オオエ",
    "street": null,
    "office_name": null,
    "office_name_kana": null
  },
  "0504": {
    "postcode": "7960504",
    "prefecture": "愛媛県",
    "prefecture_kana": "エヒメケン",
    "prefecture_code": 38,
    "city": "西宇和郡伊方町",
    "city_kana": "ニシウワグンイカタチョウ",
    "town": "志津",
    "town_kana": "シツ",
    "street": null,
    "office_name": null,
    "office_name_kana": null
  },
  "0505": {
    "postcode": "7960505",
    "prefecture": "愛媛県",
    "prefecture_kana": "エヒメケン",
    "prefecture_code": 38,
    "city": "西宇和郡伊方町",
    "city_kana": "ニシウワグンイカタチョウ",
    "town": "小島",
    "town_kana": "コジマ",
    "street": null,
    "office_name": null,
    "office_name_kana": null
  },
  "0506": {
    "postcode": "7960506",
    "prefecture": "愛媛県",
    "prefecture_kana": "エヒメケン",
    "prefecture_code": 38,
    "city": "西宇和郡伊方町",
    "city_kana": "ニシウワグンイカタチョウ",
    "town": "塩成",
    "town_kana": "シオナシ",
    "street": null,
    "office_name": null,
    "office_name_kana": null
  },
  "0611": {
    "postcode": "7960611",
    "prefecture": "愛媛県",
    "prefecture_kana": "エヒメケン",
    "prefecture_code": 38,
    "city": "西宇和郡伊方町",
    "city_kana": "ニシウワグンイカタチョウ",
    "town": "川之浜",
    "town_kana": "カワノハマ",
    "street": null,
    "office_name": null,
    "office_name_kana": null
  },
  "0612": {
    "postcode": "7960612",
    "prefecture": "愛媛県",
    "prefecture_kana": "エヒメケン",
    "prefecture_code": 38,
    "city": "西宇和郡伊方町",
    "city_kana": "ニシウワグンイカタチョウ",
    "town": "大久",
    "town_kana": "オオク",
    "street": null,
    "office_name": null,
    "office_name_kana": null
  },
  "0613": {
    "postcode": "7960613",
    "prefecture": "愛媛県",
    "prefecture_kana": "エヒメケン",
    "prefecture_code": 38,
    "city": "西宇和郡伊方町",
    "city_kana": "ニシウワグンイカタチョウ",
    "town": "神崎",
    "town_kana": "コウザキ",
    "street": null,
    "office_name": null,
    "office_name_kana": null
  },
  "0614": {
    "postcode": "7960614",
    "prefecture": "愛媛県",
    "prefecture_kana": "エヒメケン",
    "prefecture_code": 38,
    "city": "西宇和郡伊方町",
    "city_kana": "ニシウワグンイカタチョウ",
    "town": "田部",
    "town_kana": "タブ",
    "street": null,
    "office_name": null,
    "office_name_kana": null
  },
  "0615": {
    "postcode": "7960615",
    "prefecture": "愛媛県",
    "prefecture_kana": "エヒメケン",
    "prefecture_code": 38,
    "city": "西宇和郡伊方町",
    "city_kana": "ニシウワグンイカタチョウ",
    "town": "高茂",
    "town_kana": "コウモ",
    "street": null,
    "office_name": null,
    "office_name_kana": null
  },
  "0801": {
    "postcode": "7960801",
    "prefecture": "愛媛県",
    "prefecture_kana": "エヒメケン",
    "prefecture_code": 38,
    "city": "西宇和郡伊方町",
    "city_kana": "ニシウワグンイカタチョウ",
    "town": "三崎",
    "town_kana": "ミサキ",
    "street": null,
    "office_name": null,
    "office_name_kana": null
  },
  "0802": {
    "postcode": "7960802",
    "prefecture": "愛媛県",
    "prefecture_kana": "エヒメケン",
    "prefecture_code": 38,
    "city": "西宇和郡伊方町",
    "city_kana": "ニシウワグンイカタチョウ",
    "town": "高浦",
    "town_kana": "タカウラ",
    "street": null,
    "office_name": null,
    "office_name_kana": null
  },
  "0803": {
    "postcode": "7960803",
    "prefecture": "愛媛県",
    "prefecture_kana": "エヒメケン",
    "prefecture_code": 38,
    "city": "西宇和郡伊方町",
    "city_kana": "ニシウワグンイカタチョウ",
    "town": "佐田",
    "town_kana": "サダ",
    "street": null,
    "office_name": null,
    "office_name_kana": null
  },
  "0804": {
    "postcode": "7960804",
    "prefecture": "愛媛県",
    "prefecture_kana": "エヒメケン",
    "prefecture_code": 38,
    "city": "西宇和郡伊方町",
    "city_kana": "ニシウワグンイカタチョウ",
    "town": "大佐田",
    "town_kana": "オオサダ",
    "street": null,
    "office_name": null,
    "office_name_kana": null
  },
  "0805": {
    "postcode": "7960805",
    "prefecture": "愛媛県",
    "prefecture_kana": "エヒメケン",
    "prefecture_code": 38,
    "city": "西宇和郡伊方町",
    "city_kana": "ニシウワグンイカタチョウ",
    "town": "井野浦",
    "town_kana": "イノウラ",
    "street": null,
    "office_name": null,
    "office_name_kana": null
  },
  "0811": {
    "postcode": "7960811",
    "prefecture": "愛媛県",
    "prefecture_kana": "エヒメケン",
    "prefecture_code": 38,
    "city": "西宇和郡伊方町",
    "city_kana": "ニシウワグンイカタチョウ",
    "town": "松",
    "town_kana": "マツ",
    "street": null,
    "office_name": null,
    "office_name_kana": null
  },
  "0812": {
    "postcode": "7960812",
    "prefecture": "愛媛県",
    "prefecture_kana": "エヒメケン",
    "prefecture_code": 38,
    "city": "西宇和郡伊方町",
    "city_kana": "ニシウワグンイカタチョウ",
    "town": "明神",
    "town_kana": "ミョウジン",
    "street": null,
    "office_name": null,
    "office_name_kana": null
  },
  "0813": {
    "postcode": "7960813",
    "prefecture": "愛媛県",
    "prefecture_kana": "エヒメケン",
    "prefecture_code": 38,
    "city": "西宇和郡伊方町",
    "city_kana": "ニシウワグンイカタチョウ",
    "town": "二名津",
    "town_kana": "フタナヅ",
    "street": null,
    "office_name": null,
    "office_name_kana": null
  },
  "0814": {
    "postcode": "7960814",
    "prefecture": "愛媛県",
    "prefecture_kana": "エヒメケン",
    "prefecture_code": 38,
    "city": "西宇和郡伊方町",
    "city_kana": "ニシウワグンイカタチョウ",
    "town": "平礒",
    "town_kana": "ヒライソ",
    "street": null,
    "office_name": null,
    "office_name_kana": null
  },
  "0815": {
    "postcode": "7960815",
    "prefecture": "愛媛県",
    "prefecture_kana": "エヒメケン",
    "prefecture_code": 38,
    "city": "西宇和郡伊方町",
    "city_kana": "ニシウワグンイカタチョウ",
    "town": "釜木",
    "town_kana": "カマギ",
    "street": null,
    "office_name": null,
    "office_name_kana": null
  },
  "0816": {
    "postcode": "7960816",
    "prefecture": "愛媛県",
    "prefecture_kana": "エヒメケン",
    "prefecture_code": 38,
    "city": "西宇和郡伊方町",
    "city_kana": "ニシウワグンイカタチョウ",
    "town": "名取",
    "town_kana": "ナトリ",
    "street": null,
    "office_name": null,
    "office_name_kana": null
  },
  "0821": {
    "postcode": "7960821",
    "prefecture": "愛媛県",
    "prefecture_kana": "エヒメケン",
    "prefecture_code": 38,
    "city": "西宇和郡伊方町",
    "city_kana": "ニシウワグンイカタチョウ",
    "town": "与侈",
    "town_kana": "ヨボコリ",
    "street": null,
    "office_name": null,
    "office_name_kana": null
  },
  "0822": {
    "postcode": "7960822",
    "prefecture": "愛媛県",
    "prefecture_kana": "エヒメケン",
    "prefecture_code": 38,
    "city": "西宇和郡伊方町",
    "city_kana": "ニシウワグンイカタチョウ",
    "town": "串",
    "town_kana": "クシ",
    "street": null,
    "office_name": null,
    "office_name_kana": null
  },
  "0823": {
    "postcode": "7960823",
    "prefecture": "愛媛県",
    "prefecture_kana": "エヒメケン",
    "prefecture_code": 38,
    "city": "西宇和郡伊方町",
    "city_kana": "ニシウワグンイカタチョウ",
    "town": "正野",
    "town_kana": "ショウノ",
    "street": null,
    "office_name": null,
    "office_name_kana": null
  },
  "0901": {
    "postcode": "7960901",
    "prefecture": "愛媛県",
    "prefecture_kana": "エヒメケン",
    "prefecture_code": 38,
    "city": "西予市",
    "city_kana": "セイヨシ",
    "town": "三瓶町周木",
    "town_kana": "ミカメチョウシュウキ",
    "street": null,
    "office_name": null,
    "office_name_kana": null
  },
  "0902": {
    "postcode": "7960902",
    "prefecture": "愛媛県",
    "prefecture_kana": "エヒメケン",
    "prefecture_code": 38,
    "city": "西予市",
    "city_kana": "セイヨシ",
    "town": "三瓶町長早",
    "town_kana": "ミカメチョウナガハヤ",
    "street": null,
    "office_name": null,
    "office_name_kana": null
  },
  "0903": {
    "postcode": "7960903",
    "prefecture": "愛媛県",
    "prefecture_kana": "エヒメケン",
    "prefecture_code": 38,
    "city": "西予市",
    "city_kana": "セイヨシ",
    "town": "三瓶町二及",
    "town_kana": "ミカメチョウニギュウ",
    "street": null,
    "office_name": null,
    "office_name_kana": null
  },
  "0904": {
    "postcode": "7960904",
    "prefecture": "愛媛県",
    "prefecture_kana": "エヒメケン",
    "prefecture_code": 38,
    "city": "西予市",
    "city_kana": "セイヨシ",
    "town": "三瓶町垣生",
    "town_kana": "ミカメチョウハブ",
    "street": null,
    "office_name": null,
    "office_name_kana": null
  },
  "0905": {
    "postcode": "7960905",
    "prefecture": "愛媛県",
    "prefecture_kana": "エヒメケン",
    "prefecture_code": 38,
    "city": "西予市",
    "city_kana": "セイヨシ",
    "town": "三瓶町鴫山",
    "town_kana": "ミカメチョウシギヤマ",
    "street": null,
    "office_name": null,
    "office_name_kana": null
  },
  "0906": {
    "postcode": "7960906",
    "prefecture": "愛媛県",
    "prefecture_kana": "エヒメケン",
    "prefecture_code": 38,
    "city": "西予市",
    "city_kana": "セイヨシ",
    "town": "三瓶町和泉",
    "town_kana": "ミカメチョウイズミ",
    "street": null,
    "office_name": null,
    "office_name_kana": null
  },
  "0907": {
    "postcode": "7960907",
    "prefecture": "愛媛県",
    "prefecture_kana": "エヒメケン",
    "prefecture_code": 38,
    "city": "西予市",
    "city_kana": "セイヨシ",
    "town": "三瓶町朝立",
    "town_kana": "ミカメチョウアサダツ",
    "street": null,
    "office_name": null,
    "office_name_kana": null
  },
  "0908": {
    "postcode": "7960908",
    "prefecture": "愛媛県",
    "prefecture_kana": "エヒメケン",
    "prefecture_code": 38,
    "city": "西予市",
    "city_kana": "セイヨシ",
    "town": "三瓶町津布理",
    "town_kana": "ミカメチョウツブリ",
    "street": null,
    "office_name": null,
    "office_name_kana": null
  },
  "0909": {
    "postcode": "7960909",
    "prefecture": "愛媛県",
    "prefecture_kana": "エヒメケン",
    "prefecture_code": 38,
    "city": "西予市",
    "city_kana": "セイヨシ",
    "town": "三瓶町安土",
    "town_kana": "ミカメチョウアヅチ",
    "street": null,
    "office_name": null,
    "office_name_kana": null
  },
  "0910": {
    "postcode": "7960910",
    "prefecture": "愛媛県",
    "prefecture_kana": "エヒメケン",
    "prefecture_code": 38,
    "city": "西予市",
    "city_kana": "セイヨシ",
    "town": "三瓶町有網代",
    "town_kana": "ミカメチョウアラジロ",
    "street": null,
    "office_name": null,
    "office_name_kana": null
  },
  "0911": {
    "postcode": "7960911",
    "prefecture": "愛媛県",
    "prefecture_kana": "エヒメケン",
    "prefecture_code": 38,
    "city": "西予市",
    "city_kana": "セイヨシ",
    "town": "三瓶町有太刀",
    "town_kana": "ミカメチョウアラタチ",
    "street": null,
    "office_name": null,
    "office_name_kana": null
  },
  "0912": {
    "postcode": "7960912",
    "prefecture": "愛媛県",
    "prefecture_kana": "エヒメケン",
    "prefecture_code": 38,
    "city": "西予市",
    "city_kana": "セイヨシ",
    "town": "三瓶町蔵貫浦",
    "town_kana": "ミカメチョウクラヌキウラ",
    "street": null,
    "office_name": null,
    "office_name_kana": null
  },
  "0913": {
    "postcode": "7960913",
    "prefecture": "愛媛県",
    "prefecture_kana": "エヒメケン",
    "prefecture_code": 38,
    "city": "西予市",
    "city_kana": "セイヨシ",
    "town": "三瓶町蔵貫",
    "town_kana": "ミカメチョウクラヌキ",
    "street": null,
    "office_name": null,
    "office_name_kana": null
  },
  "0914": {
    "postcode": "7960914",
    "prefecture": "愛媛県",
    "prefecture_kana": "エヒメケン",
    "prefecture_code": 38,
    "city": "西予市",
    "city_kana": "セイヨシ",
    "town": "三瓶町皆江",
    "town_kana": "ミカメチョウミナエ",
    "street": null,
    "office_name": null,
    "office_name_kana": null
  },
  "0915": {
    "postcode": "7960915",
    "prefecture": "愛媛県",
    "prefecture_kana": "エヒメケン",
    "prefecture_code": 38,
    "city": "西予市",
    "city_kana": "セイヨシ",
    "town": "三瓶町下泊",
    "town_kana": "ミカメチョウシモドマリ",
    "street": null,
    "office_name": null,
    "office_name_kana": null
  },
  "8001": {
    "postcode": "7968001",
    "prefecture": "愛媛県",
    "prefecture_kana": "エヒメケン",
    "prefecture_code": 38,
    "city": "八幡浜市",
    "city_kana": "ヤワタハマシ",
    "town": "大谷口",
    "town_kana": "オオタニグチ",
    "street": null,
    "office_name": null,
    "office_name_kana": null
  },
  "8002": {
    "postcode": "7968002",
    "prefecture": "愛媛県",
    "prefecture_kana": "エヒメケン",
    "prefecture_code": 38,
    "city": "八幡浜市",
    "city_kana": "ヤワタハマシ",
    "town": "広瀬",
    "town_kana": "ヒロセ",
    "street": null,
    "office_name": null,
    "office_name_kana": null
  },
  "8003": {
    "postcode": "7968003",
    "prefecture": "愛媛県",
    "prefecture_kana": "エヒメケン",
    "prefecture_code": 38,
    "city": "八幡浜市",
    "city_kana": "ヤワタハマシ",
    "town": "古町",
    "town_kana": "フルマチ",
    "street": null,
    "office_name": null,
    "office_name_kana": null
  },
  "8004": {
    "postcode": "7968004",
    "prefecture": "愛媛県",
    "prefecture_kana": "エヒメケン",
    "prefecture_code": 38,
    "city": "八幡浜市",
    "city_kana": "ヤワタハマシ",
    "town": "産業通",
    "town_kana": "サンギョウドオリ",
    "street": null,
    "office_name": null,
    "office_name_kana": null
  },
  "8005": [
    {
      "postcode": "7968005",
      "prefecture": "愛媛県",
      "prefecture_kana": "エヒメケン",
      "prefecture_code": 38,
      "city": "八幡浜市",
      "city_kana": "ヤワタハマシ",
      "town": "矢野町",
      "town_kana": "ヤノマチ",
      "street": null,
      "office_name": null,
      "office_name_kana": null
    },
    {
      "postcode": "7968005",
      "prefecture": "愛媛県",
      "prefecture_kana": "エヒメケン",
      "prefecture_code": 38,
      "city": "八幡浜市",
      "city_kana": "ヤワタハマシ",
      "town": "矢野町徳雲坊",
      "town_kana": "ヤノマチトクウンボウ",
      "street": null,
      "office_name": null,
      "office_name_kana": null
    }
  ],
  "8006": {
    "postcode": "7968006",
    "prefecture": "愛媛県",
    "prefecture_kana": "エヒメケン",
    "prefecture_code": 38,
    "city": "八幡浜市",
    "city_kana": "ヤワタハマシ",
    "town": "八代",
    "town_kana": "ヤシロ",
    "street": null,
    "office_name": null,
    "office_name_kana": null
  },
  "8007": {
    "postcode": "7968007",
    "prefecture": "愛媛県",
    "prefecture_kana": "エヒメケン",
    "prefecture_code": 38,
    "city": "八幡浜市",
    "city_kana": "ヤワタハマシ",
    "town": "八代",
    "town_kana": "ヤシロ",
    "street": null,
    "office_name": null,
    "office_name_kana": null
  },
  "8008": {
    "postcode": "7968008",
    "prefecture": "愛媛県",
    "prefecture_kana": "エヒメケン",
    "prefecture_code": 38,
    "city": "八幡浜市",
    "city_kana": "ヤワタハマシ",
    "town": "栗野浦",
    "town_kana": "クリノウラ",
    "street": null,
    "office_name": null,
    "office_name_kana": null
  },
  "8010": {
    "postcode": "7968010",
    "prefecture": "愛媛県",
    "prefecture_kana": "エヒメケン",
    "prefecture_code": 38,
    "city": "八幡浜市",
    "city_kana": "ヤワタハマシ",
    "town": "五反田",
    "town_kana": "ゴタンダ",
    "street": null,
    "office_name": null,
    "office_name_kana": null
  },
  "8011": {
    "postcode": "7968011",
    "prefecture": "愛媛県",
    "prefecture_kana": "エヒメケン",
    "prefecture_code": 38,
    "city": "八幡浜市",
    "city_kana": "ヤワタハマシ",
    "town": "元城団地",
    "town_kana": "モトジョウダンチ",
    "street": null,
    "office_name": null,
    "office_name_kana": null
  },
  "8015": {
    "postcode": "7968015",
    "prefecture": "愛媛県",
    "prefecture_kana": "エヒメケン",
    "prefecture_code": 38,
    "city": "八幡浜市",
    "city_kana": "ヤワタハマシ",
    "town": "国木",
    "town_kana": "クニギ",
    "street": null,
    "office_name": null,
    "office_name_kana": null
  },
  "8020": {
    "postcode": "7968020",
    "prefecture": "愛媛県",
    "prefecture_kana": "エヒメケン",
    "prefecture_code": 38,
    "city": "八幡浜市",
    "city_kana": "ヤワタハマシ",
    "town": "郷",
    "town_kana": "ゴウ",
    "street": null,
    "office_name": null,
    "office_name_kana": null
  },
  "8025": {
    "postcode": "7968025",
    "prefecture": "愛媛県",
    "prefecture_kana": "エヒメケン",
    "prefecture_code": 38,
    "city": "八幡浜市",
    "city_kana": "ヤワタハマシ",
    "town": "川之内",
    "town_kana": "カワノウチ",
    "street": null,
    "office_name": null,
    "office_name_kana": null
  },
  "8030": {
    "postcode": "7968030",
    "prefecture": "愛媛県",
    "prefecture_kana": "エヒメケン",
    "prefecture_code": 38,
    "city": "八幡浜市",
    "city_kana": "ヤワタハマシ",
    "town": "中津川",
    "town_kana": "ナカツカワ",
    "street": null,
    "office_name": null,
    "office_name_kana": null
  },
  "8035": {
    "postcode": "7968035",
    "prefecture": "愛媛県",
    "prefecture_kana": "エヒメケン",
    "prefecture_code": 38,
    "city": "八幡浜市",
    "city_kana": "ヤワタハマシ",
    "town": "若山",
    "town_kana": "ワカヤマ",
    "street": null,
    "office_name": null,
    "office_name_kana": null
  },
  "8036": {
    "postcode": "7968036",
    "prefecture": "愛媛県",
    "prefecture_kana": "エヒメケン",
    "prefecture_code": 38,
    "city": "八幡浜市",
    "city_kana": "ヤワタハマシ",
    "town": "釜倉",
    "town_kana": "カマノクラ",
    "street": null,
    "office_name": null,
    "office_name_kana": null
  },
  "8037": {
    "postcode": "7968037",
    "prefecture": "愛媛県",
    "prefecture_kana": "エヒメケン",
    "prefecture_code": 38,
    "city": "八幡浜市",
    "city_kana": "ヤワタハマシ",
    "town": "谷",
    "town_kana": "タニ",
    "street": null,
    "office_name": null,
    "office_name_kana": null
  },
  "8038": {
    "postcode": "7968038",
    "prefecture": "愛媛県",
    "prefecture_kana": "エヒメケン",
    "prefecture_code": 38,
    "city": "八幡浜市",
    "city_kana": "ヤワタハマシ",
    "town": "横平",
    "town_kana": "ヨコヒラ",
    "street": null,
    "office_name": null,
    "office_name_kana": null
  },
  "8039": {
    "postcode": "7968039",
    "prefecture": "愛媛県",
    "prefecture_kana": "エヒメケン",
    "prefecture_code": 38,
    "city": "八幡浜市",
    "city_kana": "ヤワタハマシ",
    "town": "布喜川",
    "town_kana": "フキノカワ",
    "street": null,
    "office_name": null,
    "office_name_kana": null
  },
  "8040": {
    "postcode": "7968040",
    "prefecture": "愛媛県",
    "prefecture_kana": "エヒメケン",
    "prefecture_code": 38,
    "city": "八幡浜市",
    "city_kana": "ヤワタハマシ",
    "town": "舌間",
    "town_kana": "シタマ",
    "street": null,
    "office_name": null,
    "office_name_kana": null
  },
  "8041": {
    "postcode": "7968041",
    "prefecture": "愛媛県",
    "prefecture_kana": "エヒメケン",
    "prefecture_code": 38,
    "city": "八幡浜市",
    "city_kana": "ヤワタハマシ",
    "town": "合田",
    "town_kana": "ゴウダ",
    "street": null,
    "office_name": null,
    "office_name_kana": null
  },
  "8050": {
    "postcode": "7968050",
    "prefecture": "愛媛県",
    "prefecture_kana": "エヒメケン",
    "prefecture_code": 38,
    "city": "八幡浜市",
    "city_kana": "ヤワタハマシ",
    "town": "川上町川名津",
    "town_kana": "カワカミチョウカワナヅ",
    "street": null,
    "office_name": null,
    "office_name_kana": null
  },
  "8051": {
    "postcode": "7968051",
    "prefecture": "愛媛県",
    "prefecture_kana": "エヒメケン",
    "prefecture_code": 38,
    "city": "八幡浜市",
    "city_kana": "ヤワタハマシ",
    "town": "川上町上泊",
    "town_kana": "カワカミチョウカミドマリ",
    "street": null,
    "office_name": null,
    "office_name_kana": null
  },
  "8052": {
    "postcode": "7968052",
    "prefecture": "愛媛県",
    "prefecture_kana": "エヒメケン",
    "prefecture_code": 38,
    "city": "八幡浜市",
    "city_kana": "ヤワタハマシ",
    "town": "川上町白石",
    "town_kana": "カワカミチョウシライシ",
    "street": null,
    "office_name": null,
    "office_name_kana": null
  },
  "8053": {
    "postcode": "7968053",
    "prefecture": "愛媛県",
    "prefecture_kana": "エヒメケン",
    "prefecture_code": 38,
    "city": "八幡浜市",
    "city_kana": "ヤワタハマシ",
    "town": "真網代",
    "town_kana": "マアジロ",
    "street": null,
    "office_name": null,
    "office_name_kana": null
  },
  "8054": {
    "postcode": "7968054",
    "prefecture": "愛媛県",
    "prefecture_kana": "エヒメケン",
    "prefecture_code": 38,
    "city": "八幡浜市",
    "city_kana": "ヤワタハマシ",
    "town": "穴井",
    "town_kana": "アナイ",
    "street": null,
    "office_name": null,
    "office_name_kana": null
  },
  "8060": {
    "postcode": "7968060",
    "prefecture": "愛媛県",
    "prefecture_kana": "エヒメケン",
    "prefecture_code": 38,
    "city": "八幡浜市",
    "city_kana": "ヤワタハマシ",
    "town": "大島",
    "town_kana": "オオシマ",
    "street": null,
    "office_name": null,
    "office_name_kana": null
  },
  "8501": {
    "postcode": "7968501",
    "prefecture": "愛媛県",
    "prefecture_kana": "エヒメケン",
    "prefecture_code": 38,
    "city": "八幡浜市",
    "city_kana": "ヤワタハマシ",
    "town": "北浜",
    "town_kana": "キタハマ",
    "street": "１丁目１−１",
    "office_name": "八幡浜市役所",
    "office_name_kana": "ヤワタハマシヤクシヨ"
  },
  "8502": {
    "postcode": "7968502",
    "prefecture": "愛媛県",
    "prefecture_kana": "エヒメケン",
    "prefecture_code": 38,
    "city": "八幡浜市",
    "city_kana": "ヤワタハマシ",
    "town": "大平",
    "town_kana": "オオヒラ",
    "street": "１−６３８",
    "office_name": "市立　八幡浜総合病院",
    "office_name_kana": "シリツ ヤワタハマソウゴウビヨウイン"
  }
}