{
  "0000": {
    "postcode": "7970000",
    "prefecture": "愛媛県",
    "prefecture_kana": "エヒメケン",
    "prefecture_code": 38,
    "city": "西予市",
    "city_kana": "セイヨシ",
    "town": "",
    "town_kana": "",
    "street": null,
    "office_name": null,
    "office_name_kana": null
  },
  "0001": {
    "postcode": "7970001",
    "prefecture": "愛媛県",
    "prefecture_kana": "エヒメケン",
    "prefecture_code": 38,
    "city": "西予市",
    "city_kana": "セイヨシ",
    "town": "宇和町田野中",
    "town_kana": "ウワチョウタノナカ",
    "street": null,
    "office_name": null,
    "office_name_kana": null
  },
  "0002": {
    "postcode": "7970002",
    "prefecture": "愛媛県",
    "prefecture_kana": "エヒメケン",
    "prefecture_code": 38,
    "city": "西予市",
    "city_kana": "セイヨシ",
    "town": "宇和町平野",
    "town_kana": "ウワチョウヒラノ",
    "street": null,
    "office_name": null,
    "office_name_kana": null
  },
  "0003": {
    "postcode": "7970003",
    "prefecture": "愛媛県",
    "prefecture_kana": "エヒメケン",
    "prefecture_code": 38,
    "city": "西予市",
    "city_kana": "セイヨシ",
    "town": "宇和町窪",
    "town_kana": "ウワチョウクボ",
    "street": null,
    "office_name": null,
    "office_name_kana": null
  },
  "0004": {
    "postcode": "7970004",
    "prefecture": "愛媛県",
    "prefecture_kana": "エヒメケン",
    "prefecture_code": 38,
    "city": "西予市",
    "city_kana": "セイヨシ",
    "town": "宇和町伊崎",
    "town_kana": "ウワチョウイサキ",
    "street": null,
    "office_name": null,
    "office_name_kana": null
  },
  "0005": {
    "postcode": "7970005",
    "prefecture": "愛媛県",
    "prefecture_kana": "エヒメケン",
    "prefecture_code": 38,
    "city": "西予市",
    "city_kana": "セイヨシ",
    "town": "宇和町常定寺",
    "town_kana": "ウワチョウジョウジョウジ",
    "street": null,
    "office_name": null,
    "office_name_kana": null
  },
  "0006": {
    "postcode": "7970006",
    "prefecture": "愛媛県",
    "prefecture_kana": "エヒメケン",
    "prefecture_code": 38,
    "city": "西予市",
    "city_kana": "セイヨシ",
    "town": "宇和町新城",
    "town_kana": "ウワチョウシンジョウ",
    "street": null,
    "office_name": null,
    "office_name_kana": null
  },
  "0007": {
    "postcode": "7970007",
    "prefecture": "愛媛県",
    "prefecture_kana": "エヒメケン",
    "prefecture_code": 38,
    "city": "西予市",
    "city_kana": "セイヨシ",
    "town": "宇和町明石",
    "town_kana": "ウワチョウアゲイシ",
    "street": null,
    "office_name": null,
    "office_name_kana": null
  },
  "0008": {
    "postcode": "7970008",
    "prefecture": "愛媛県",
    "prefecture_kana": "エヒメケン",
    "prefecture_code": 38,
    "city": "西予市",
    "city_kana": "セイヨシ",
    "town": "宇和町さくら",
    "town_kana": "ウワチョウサクラ",
    "street": null,
    "office_name": null,
    "office_name_kana": null
  },
  "0010": {
    "postcode": "7970010",
    "prefecture": "愛媛県",
    "prefecture_kana": "エヒメケン",
    "prefecture_code": 38,
    "city": "西予市",
    "city_kana": "セイヨシ",
    "town": "宇和町明間",
    "town_kana": "ウワチョウアカンマ",
    "street": null,
    "office_name": null,
    "office_name_kana": null
  },
  "0011": {
    "postcode": "7970011",
    "prefecture": "愛媛県",
    "prefecture_kana": "エヒメケン",
    "prefecture_code": 38,
    "city": "西予市",
    "city_kana": "セイヨシ",
    "town": "宇和町下川",
    "town_kana": "ウワチョウヒトウガワ",
    "street": null,
    "office_name": null,
    "office_name_kana": null
  },
  "0012": {
    "postcode": "7970012",
    "prefecture": "愛媛県",
    "prefecture_kana": "エヒメケン",
    "prefecture_code": 38,
    "city": "西予市",
    "city_kana": "セイヨシ",
    "town": "宇和町皆田",
    "town_kana": "ウワチョウカイダ",
    "street": null,
    "office_name": null,
    "office_name_kana": null
  },
  "0013": {
    "postcode": "7970013",
    "prefecture": "愛媛県",
    "prefecture_kana": "エヒメケン",
    "prefecture_code": 38,
    "city": "西予市",
    "city_kana": "セイヨシ",
    "town": "宇和町稲生",
    "town_kana": "ウワチョウイノウ",
    "street": null,
    "office_name": null,
    "office_name_kana": null
  },
  "0014": {
    "postcode": "7970014",
    "prefecture": "愛媛県",
    "prefecture_kana": "エヒメケン",
    "prefecture_code": 38,
    "city": "西予市",
    "city_kana": "セイヨシ",
    "town": "宇和町伊賀上",
    "town_kana": "ウワチョウイガジョウ",
    "street": null,
    "office_name": null,
    "office_name_kana": null
  },
  "0015": {
    "postcode": "7970015",
    "prefecture": "愛媛県",
    "prefecture_kana": "エヒメケン",
    "prefecture_code": 38,
    "city": "西予市",
    "city_kana": "セイヨシ",
    "town": "宇和町卯之町",
    "town_kana": "ウワチョウウノマチ",
    "street": null,
    "office_name": null,
    "office_name_kana": null
  },
  "0016": {
    "postcode": "7970016",
    "prefecture": "愛媛県",
    "prefecture_kana": "エヒメケン",
    "prefecture_code": 38,
    "city": "西予市",
    "city_kana": "セイヨシ",
    "town": "宇和町神領",
    "town_kana": "ウワチョウジンリョウ",
    "street": null,
    "office_name": null,
    "office_name_kana": null
  },
  "0017": {
    "postcode": "7970017",
    "prefecture": "愛媛県",
    "prefecture_kana": "エヒメケン",
    "prefecture_code": 38,
    "city": "西予市",
    "city_kana": "セイヨシ",
    "town": "宇和町ひまわり",
    "town_kana": "ウワチョウヒマワリ",
    "street": null,
    "office_name": null,
    "office_name_kana": null
  },
  "0018": {
    "postcode": "7970018",
    "prefecture": "愛媛県",
    "prefecture_kana": "エヒメケン",
    "prefecture_code": 38,
    "city": "西予市",
    "city_kana": "セイヨシ",
    "town": "宇和町下松葉",
    "town_kana": "ウワチョウシモマツバ",
    "street": null,
    "office_name": null,
    "office_name_kana": null
  },
  "0020": {
    "postcode": "7970020",
    "prefecture": "愛媛県",
    "prefecture_kana": "エヒメケン",
    "prefecture_code": 38,
    "city": "西予市",
    "city_kana": "セイヨシ",
    "town": "宇和町久枝",
    "town_kana": "ウワチョウヒサエダ",
    "street": null,
    "office_name": null,
    "office_name_kana": null
  },
  "0021": {
    "postcode": "7970021",
    "prefecture": "愛媛県",
    "prefecture_kana": "エヒメケン",
    "prefecture_code": 38,
    "city": "西予市",
    "city_kana": "セイヨシ",
    "town": "宇和町野田",
    "town_kana": "ウワチョウノダ",
    "street": null,
    "office_name": null,
    "office_name_kana": null
  },
  "0022": {
    "postcode": "7970022",
    "prefecture": "愛媛県",
    "prefecture_kana": "エヒメケン",
    "prefecture_code": 38,
    "city": "西予市",
    "city_kana": "セイヨシ",
    "town": "宇和町小野田",
    "town_kana": "ウワチョウオノダ",
    "street": null,
    "office_name": null,
    "office_name_kana": null
  },
  "0023": {
    "postcode": "7970023",
    "prefecture": "愛媛県",
    "prefecture_kana": "エヒメケン",
    "prefecture_code": 38,
    "city": "西予市",
    "city_kana": "セイヨシ",
    "town": "宇和町山田",
    "town_kana": "ウワチョウヤマダ",
    "street": null,
    "office_name": null,
    "office_name_kana": null
  },
  "0024": {
    "postcode": "7970024",
    "prefecture": "愛媛県",
    "prefecture_kana": "エヒメケン",
    "prefecture_code": 38,
    "city": "西予市",
    "city_kana": "セイヨシ",
    "town": "宇和町西山田",
    "town_kana": "ウワチョウニシヤマダ",
    "street": null,
    "office_name": null,
    "office_name_kana": null
  },
  "0025": {
    "postcode": "7970025",
    "prefecture": "愛媛県",
    "prefecture_kana": "エヒメケン",
    "prefecture_code": 38,
    "city": "西予市",
    "city_kana": "セイヨシ",
    "town": "宇和町郷内",
    "town_kana": "ウワチョウゴウナイ",
    "street": null,
    "office_name": null,
    "office_name_kana": null
  },
  "0026": {
    "postcode": "7970026",
    "prefecture": "愛媛県",
    "prefecture_kana": "エヒメケン",
    "prefecture_code": 38,
    "city": "西予市",
    "city_kana": "セイヨシ",
    "town": "宇和町岩木",
    "town_kana": "ウワチョウイワキ",
    "street": null,
    "office_name": null,
    "office_name_kana": null
  },
  "0027": {
    "postcode": "7970027",
    "prefecture": "愛媛県",
    "prefecture_kana": "エヒメケン",
    "prefecture_code": 38,
    "city": "西予市",
    "city_kana": "セイヨシ",
    "town": "宇和町小原",
    "town_kana": "ウワチョウオバラ",
    "street": null,
    "office_name": null,
    "office_name_kana": null
  },
  "0028": {
    "postcode": "7970028",
    "prefecture": "愛媛県",
    "prefecture_kana": "エヒメケン",
    "prefecture_code": 38,
    "city": "西予市",
    "city_kana": "セイヨシ",
    "town": "宇和町れんげ",
    "town_kana": "ウワチョウレンゲ",
    "street": null,
    "office_name": null,
    "office_name_kana": null
  },
  "0029": {
    "postcode": "7970029",
    "prefecture": "愛媛県",
    "prefecture_kana": "エヒメケン",
    "prefecture_code": 38,
    "city": "西予市",
    "city_kana": "セイヨシ",
    "town": "宇和町永長",
    "town_kana": "ウワチョウナガオサ",
    "street": null,
    "office_name": null,
    "office_name_kana": null
  },
  "0030": {
    "postcode": "7970030",
    "prefecture": "愛媛県",
    "prefecture_kana": "エヒメケン",
    "prefecture_code": 38,
    "city": "西予市",
    "city_kana": "セイヨシ",
    "town": "宇和町清沢",
    "town_kana": "ウワチョウキヨサワ",
    "street": null,
    "office_name": null,
    "office_name_kana": null
  },
  "0031": {
    "postcode": "7970031",
    "prefecture": "愛媛県",
    "prefecture_kana": "エヒメケン",
    "prefecture_code": 38,
    "city": "西予市",
    "city_kana": "セイヨシ",
    "town": "宇和町杢所",
    "town_kana": "ウワチョウモクショ",
    "street": null,
    "office_name": null,
    "office_name_kana": null
  },
  "0032": {
    "postcode": "7970032",
    "prefecture": "愛媛県",
    "prefecture_kana": "エヒメケン",
    "prefecture_code": 38,
    "city": "西予市",
    "city_kana": "セイヨシ",
    "town": "宇和町田苗真土",
    "town_kana": "ウワチョウタナエマツチ",
    "street": null,
    "office_name": null,
    "office_name_kana": null
  },
  "0033": {
    "postcode": "7970033",
    "prefecture": "愛媛県",
    "prefecture_kana": "エヒメケン",
    "prefecture_code": 38,
    "city": "西予市",
    "city_kana": "セイヨシ",
    "town": "宇和町岡山",
    "town_kana": "ウワチョウオカヤマ",
    "street": null,
    "office_name": null,
    "office_name_kana": null
  },
  "0034": {
    "postcode": "7970034",
    "prefecture": "愛媛県",
    "prefecture_kana": "エヒメケン",
    "prefecture_code": 38,
    "city": "西予市",
    "city_kana": "セイヨシ",
    "town": "宇和町伊延",
    "town_kana": "ウワチョウイノベ",
    "street": null,
    "office_name": null,
    "office_name_kana": null
  },
  "0035": {
    "postcode": "7970035",
    "prefecture": "愛媛県",
    "prefecture_kana": "エヒメケン",
    "prefecture_code": 38,
    "city": "西予市",
    "city_kana": "セイヨシ",
    "town": "宇和町河内",
    "town_kana": "ウワチョウカワチ",
    "street": null,
    "office_name": null,
    "office_name_kana": null
  },
  "0036": {
    "postcode": "7970036",
    "prefecture": "愛媛県",
    "prefecture_kana": "エヒメケン",
    "prefecture_code": 38,
    "city": "西予市",
    "city_kana": "セイヨシ",
    "town": "宇和町久保",
    "town_kana": "ウワチョウクボ",
    "street": null,
    "office_name": null,
    "office_name_kana": null
  },
  "0037": {
    "postcode": "7970037",
    "prefecture": "愛媛県",
    "prefecture_kana": "エヒメケン",
    "prefecture_code": 38,
    "city": "西予市",
    "city_kana": "セイヨシ",
    "town": "宇和町信里",
    "town_kana": "ウワチョウノブサト",
    "street": null,
    "office_name": null,
    "office_name_kana": null
  },
  "0041": {
    "postcode": "7970041",
    "prefecture": "愛媛県",
    "prefecture_kana": "エヒメケン",
    "prefecture_code": 38,
    "city": "西予市",
    "city_kana": "セイヨシ",
    "town": "宇和町東多田",
    "town_kana": "ウワチョウヒガシタダ",
    "street": null,
    "office_name": null,
    "office_name_kana": null
  },
  "0042": {
    "postcode": "7970042",
    "prefecture": "愛媛県",
    "prefecture_kana": "エヒメケン",
    "prefecture_code": 38,
    "city": "西予市",
    "city_kana": "セイヨシ",
    "town": "宇和町瀬戸",
    "town_kana": "ウワチョウセト",
    "street": null,
    "office_name": null,
    "office_name_kana": null
  },
  "0043": {
    "postcode": "7970043",
    "prefecture": "愛媛県",
    "prefecture_kana": "エヒメケン",
    "prefecture_code": 38,
    "city": "西予市",
    "city_kana": "セイヨシ",
    "town": "宇和町大江",
    "town_kana": "ウワチョウオオエ",
    "street": null,
    "office_name": null,
    "office_name_kana": null
  },
  "0044": {
    "postcode": "7970044",
    "prefecture": "愛媛県",
    "prefecture_kana": "エヒメケン",
    "prefecture_code": 38,
    "city": "西予市",
    "city_kana": "セイヨシ",
    "town": "宇和町加茂",
    "town_kana": "ウワチョウカモ",
    "street": null,
    "office_name": null,
    "office_name_kana": null
  },
  "0045": {
    "postcode": "7970045",
    "prefecture": "愛媛県",
    "prefecture_kana": "エヒメケン",
    "prefecture_code": 38,
    "city": "西予市",
    "city_kana": "セイヨシ",
    "town": "宇和町坂戸",
    "town_kana": "ウワチョウサカド",
    "street": null,
    "office_name": null,
    "office_name_kana": null
  },
  "0046": {
    "postcode": "7970046",
    "prefecture": "愛媛県",
    "prefecture_kana": "エヒメケン",
    "prefecture_code": 38,
    "city": "西予市",
    "city_kana": "セイヨシ",
    "town": "宇和町上松葉",
    "town_kana": "ウワチョウカミマツバ",
    "street": null,
    "office_name": null,
    "office_name_kana": null
  },
  "0111": {
    "postcode": "7970111",
    "prefecture": "愛媛県",
    "prefecture_kana": "エヒメケン",
    "prefecture_code": 38,
    "city": "西予市",
    "city_kana": "セイヨシ",
    "town": "明浜町俵津",
    "town_kana": "アケハマチョウタワラヅ",
    "street": null,
    "office_name": null,
    "office_name_kana": null
  },
  "0112": {
    "postcode": "7970112",
    "prefecture": "愛媛県",
    "prefecture_kana": "エヒメケン",
    "prefecture_code": 38,
    "city": "西予市",
    "city_kana": "セイヨシ",
    "town": "明浜町渡江",
    "town_kana": "アケハマチョウトノエ",
    "street": null,
    "office_name": null,
    "office_name_kana": null
  },
  "0113": {
    "postcode": "7970113",
    "prefecture": "愛媛県",
    "prefecture_kana": "エヒメケン",
    "prefecture_code": 38,
    "city": "西予市",
    "city_kana": "セイヨシ",
    "town": "明浜町狩浜",
    "town_kana": "アケハマチョウカリハマ",
    "street": null,
    "office_name": null,
    "office_name_kana": null
  },
  "0201": {
    "postcode": "7970201",
    "prefecture": "愛媛県",
    "prefecture_kana": "エヒメケン",
    "prefecture_code": 38,
    "city": "西予市",
    "city_kana": "セイヨシ",
    "town": "明浜町高山",
    "town_kana": "アケハマチョウタカヤマ",
    "street": null,
    "office_name": null,
    "office_name_kana": null
  },
  "0202": {
    "postcode": "7970202",
    "prefecture": "愛媛県",
    "prefecture_kana": "エヒメケン",
    "prefecture_code": 38,
    "city": "西予市",
    "city_kana": "セイヨシ",
    "town": "明浜町宮野浦",
    "town_kana": "アケハマチョウミヤノウラ",
    "street": null,
    "office_name": null,
    "office_name_kana": null
  },
  "0203": {
    "postcode": "7970203",
    "prefecture": "愛媛県",
    "prefecture_kana": "エヒメケン",
    "prefecture_code": 38,
    "city": "西予市",
    "city_kana": "セイヨシ",
    "town": "明浜町田之浜",
    "town_kana": "アケハマチョウタノハマ",
    "street": null,
    "office_name": null,
    "office_name_kana": null
  },
  "0292": {
    "postcode": "7970292",
    "prefecture": "愛媛県",
    "prefecture_kana": "エヒメケン",
    "prefecture_code": 38,
    "city": "西予市",
    "city_kana": "セイヨシ",
    "town": "明浜町高山",
    "town_kana": "アケハマチョウタカヤマ",
    "street": "甲３６５７",
    "office_name": "西予市　明浜総合支所",
    "office_name_kana": "セイヨシ アケハマソウゴウシシヨ"
  },
  "1101": {
    "postcode": "7971101",
    "prefecture": "愛媛県",
    "prefecture_kana": "エヒメケン",
    "prefecture_code": 38,
    "city": "西予市",
    "city_kana": "セイヨシ",
    "town": "野村町白髭",
    "town_kana": "ノムラチョウシラヒゲ",
    "street": null,
    "office_name": null,
    "office_name_kana": null
  },
  "1102": {
    "postcode": "7971102",
    "prefecture": "愛媛県",
    "prefecture_kana": "エヒメケン",
    "prefecture_code": 38,
    "city": "西予市",
    "city_kana": "セイヨシ",
    "town": "野村町松渓",
    "town_kana": "ノムラチョウマツタニ",
    "street": null,
    "office_name": null,
    "office_name_kana": null
  },
  "1103": {
    "postcode": "7971103",
    "prefecture": "愛媛県",
    "prefecture_kana": "エヒメケン",
    "prefecture_code": 38,
    "city": "西予市",
    "city_kana": "セイヨシ",
    "town": "野村町四郎谷",
    "town_kana": "ノムラチョウシロウタニ",
    "street": null,
    "office_name": null,
    "office_name_kana": null
  },
  "1104": {
    "postcode": "7971104",
    "prefecture": "愛媛県",
    "prefecture_kana": "エヒメケン",
    "prefecture_code": 38,
    "city": "西予市",
    "city_kana": "セイヨシ",
    "town": "野村町河西",
    "town_kana": "ノムラチョウカワサイ",
    "street": null,
    "office_name": null,
    "office_name_kana": null
  },
  "1105": {
    "postcode": "7971105",
    "prefecture": "愛媛県",
    "prefecture_kana": "エヒメケン",
    "prefecture_code": 38,
    "city": "西予市",
    "city_kana": "セイヨシ",
    "town": "野村町長谷",
    "town_kana": "ノムラチョウナガタニ",
    "street": null,
    "office_name": null,
    "office_name_kana": null
  },
  "1106": {
    "postcode": "7971106",
    "prefecture": "愛媛県",
    "prefecture_kana": "エヒメケン",
    "prefecture_code": 38,
    "city": "西予市",
    "city_kana": "セイヨシ",
    "town": "野村町旭",
    "town_kana": "ノムラチョウアサヒ",
    "street": null,
    "office_name": null,
    "office_name_kana": null
  },
  "1107": {
    "postcode": "7971107",
    "prefecture": "愛媛県",
    "prefecture_kana": "エヒメケン",
    "prefecture_code": 38,
    "city": "西予市",
    "city_kana": "セイヨシ",
    "town": "野村町鳥鹿野",
    "town_kana": "ノムラチョウトジガノ",
    "street": null,
    "office_name": null,
    "office_name_kana": null
  },
  "1211": {
    "postcode": "7971211",
    "prefecture": "愛媛県",
    "prefecture_kana": "エヒメケン",
    "prefecture_code": 38,
    "city": "西予市",
    "city_kana": "セイヨシ",
    "town": "野村町阿下",
    "town_kana": "ノムラチョウアゲ",
    "street": null,
    "office_name": null,
    "office_name_kana": null
  },
  "1212": {
    "postcode": "7971212",
    "prefecture": "愛媛県",
    "prefecture_kana": "エヒメケン",
    "prefecture_code": 38,
    "city": "西予市",
    "city_kana": "セイヨシ",
    "town": "野村町野村",
    "town_kana": "ノムラチョウノムラ",
    "street": null,
    "office_name": null,
    "office_name_kana": null
  },
  "1213": {
    "postcode": "7971213",
    "prefecture": "愛媛県",
    "prefecture_kana": "エヒメケン",
    "prefecture_code": 38,
    "city": "西予市",
    "city_kana": "セイヨシ",
    "town": "野村町片川",
    "town_kana": "ノムラチョウカタカワ",
    "street": null,
    "office_name": null,
    "office_name_kana": null
  },
  "1214": {
    "postcode": "7971214",
    "prefecture": "愛媛県",
    "prefecture_kana": "エヒメケン",
    "prefecture_code": 38,
    "city": "西予市",
    "city_kana": "セイヨシ",
    "town": "野村町富野川",
    "town_kana": "ノムラチョウトミノカワ",
    "street": null,
    "office_name": null,
    "office_name_kana": null
  },
  "1215": {
    "postcode": "7971215",
    "prefecture": "愛媛県",
    "prefecture_kana": "エヒメケン",
    "prefecture_code": 38,
    "city": "西予市",
    "city_kana": "セイヨシ",
    "town": "野村町高瀬",
    "town_kana": "ノムラチョウタカセ",
    "street": null,
    "office_name": null,
    "office_name_kana": null
  },
  "1216": {
    "postcode": "7971216",
    "prefecture": "愛媛県",
    "prefecture_kana": "エヒメケン",
    "prefecture_code": 38,
    "city": "西予市",
    "city_kana": "セイヨシ",
    "town": "野村町蔵良",
    "town_kana": "ノムラチョウクララ",
    "street": null,
    "office_name": null,
    "office_name_kana": null
  },
  "1217": {
    "postcode": "7971217",
    "prefecture": "愛媛県",
    "prefecture_kana": "エヒメケン",
    "prefecture_code": 38,
    "city": "西予市",
    "city_kana": "セイヨシ",
    "town": "野村町平野",
    "town_kana": "ノムラチョウヒラノ",
    "street": null,
    "office_name": null,
    "office_name_kana": null
  },
  "1292": {
    "postcode": "7971292",
    "prefecture": "愛媛県",
    "prefecture_kana": "エヒメケン",
    "prefecture_code": 38,
    "city": "西予市",
    "city_kana": "セイヨシ",
    "town": "野村町野村",
    "town_kana": "ノムラチョウノムラ",
    "street": "１２−６１９（野村郵便局私書箱第５号）",
    "office_name": "西予市　野村総合支所",
    "office_name_kana": "セイヨシ ノムラソウゴウシシヨ"
  },
  "1321": {
    "postcode": "7971321",
    "prefecture": "愛媛県",
    "prefecture_kana": "エヒメケン",
    "prefecture_code": 38,
    "city": "西予市",
    "city_kana": "セイヨシ",
    "town": "野村町予子林",
    "town_kana": "ノムラチョウヨコバヤシ",
    "street": null,
    "office_name": null,
    "office_name_kana": null
  },
  "1322": {
    "postcode": "7971322",
    "prefecture": "愛媛県",
    "prefecture_kana": "エヒメケン",
    "prefecture_code": 38,
    "city": "西予市",
    "city_kana": "セイヨシ",
    "town": "野村町坂石",
    "town_kana": "ノムラチョウサカイシ",
    "street": null,
    "office_name": null,
    "office_name_kana": null
  },
  "1323": {
    "postcode": "7971323",
    "prefecture": "愛媛県",
    "prefecture_kana": "エヒメケン",
    "prefecture_code": 38,
    "city": "西予市",
    "city_kana": "セイヨシ",
    "town": "野村町釜川",
    "town_kana": "ノムラチョウカマガワ",
    "street": null,
    "office_name": null,
    "office_name_kana": null
  },
  "1324": {
    "postcode": "7971324",
    "prefecture": "愛媛県",
    "prefecture_kana": "エヒメケン",
    "prefecture_code": 38,
    "city": "西予市",
    "city_kana": "セイヨシ",
    "town": "野村町大西",
    "town_kana": "ノムラチョウオオニシ",
    "street": null,
    "office_name": null,
    "office_name_kana": null
  },
  "1325": {
    "postcode": "7971325",
    "prefecture": "愛媛県",
    "prefecture_kana": "エヒメケン",
    "prefecture_code": 38,
    "city": "西予市",
    "city_kana": "セイヨシ",
    "town": "野村町中通川",
    "town_kana": "ノムラチョウナカトオガワ",
    "street": null,
    "office_name": null,
    "office_name_kana": null
  },
  "1326": {
    "postcode": "7971326",
    "prefecture": "愛媛県",
    "prefecture_kana": "エヒメケン",
    "prefecture_code": 38,
    "city": "西予市",
    "city_kana": "セイヨシ",
    "town": "野村町鎌田",
    "town_kana": "ノムラチョウカマンタ",
    "street": null,
    "office_name": null,
    "office_name_kana": null
  },
  "1327": {
    "postcode": "7971327",
    "prefecture": "愛媛県",
    "prefecture_kana": "エヒメケン",
    "prefecture_code": 38,
    "city": "西予市",
    "city_kana": "セイヨシ",
    "town": "野村町栗木",
    "town_kana": "ノムラチョウクリノキ",
    "street": null,
    "office_name": null,
    "office_name_kana": null
  },
  "1328": {
    "postcode": "7971328",
    "prefecture": "愛媛県",
    "prefecture_kana": "エヒメケン",
    "prefecture_code": 38,
    "city": "西予市",
    "city_kana": "セイヨシ",
    "town": "野村町西",
    "town_kana": "ノムラチョウニシ",
    "street": null,
    "office_name": null,
    "office_name_kana": null
  },
  "1431": {
    "postcode": "7971431",
    "prefecture": "愛媛県",
    "prefecture_kana": "エヒメケン",
    "prefecture_code": 38,
    "city": "西予市",
    "city_kana": "セイヨシ",
    "town": "野村町舟戸",
    "town_kana": "ノムラチョウフナト",
    "street": null,
    "office_name": null,
    "office_name_kana": null
  },
  "1432": {
    "postcode": "7971432",
    "prefecture": "愛媛県",
    "prefecture_kana": "エヒメケン",
    "prefecture_code": 38,
    "city": "西予市",
    "city_kana": "セイヨシ",
    "town": "野村町惣川",
    "town_kana": "ノムラチョウソウガワ",
    "street": null,
    "office_name": null,
    "office_name_kana": null
  },
  "1433": {
    "postcode": "7971433",
    "prefecture": "愛媛県",
    "prefecture_kana": "エヒメケン",
    "prefecture_code": 38,
    "city": "西予市",
    "city_kana": "セイヨシ",
    "town": "野村町小松",
    "town_kana": "ノムラチョウコマツ",
    "street": null,
    "office_name": null,
    "office_name_kana": null
  },
  "1434": {
    "postcode": "7971434",
    "prefecture": "愛媛県",
    "prefecture_kana": "エヒメケン",
    "prefecture_code": 38,
    "city": "西予市",
    "city_kana": "セイヨシ",
    "town": "野村町大野ケ原",
    "town_kana": "ノムラチョウオオノガハラ",
    "street": null,
    "office_name": null,
    "office_name_kana": null
  },
  "1501": {
    "postcode": "7971501",
    "prefecture": "愛媛県",
    "prefecture_kana": "エヒメケン",
    "prefecture_code": 38,
    "city": "大洲市",
    "city_kana": "オオズシ",
    "town": "肱川町中居谷",
    "town_kana": "ヒジカワチョウナカイダニ",
    "street": null,
    "office_name": null,
    "office_name_kana": null
  },
  "1502": {
    "postcode": "7971502",
    "prefecture": "愛媛県",
    "prefecture_kana": "エヒメケン",
    "prefecture_code": 38,
    "city": "大洲市",
    "city_kana": "オオズシ",
    "town": "肱川町名荷谷",
    "town_kana": "ヒジカワチョウミョウガダニ",
    "street": null,
    "office_name": null,
    "office_name_kana": null
  },
  "1503": {
    "postcode": "7971503",
    "prefecture": "愛媛県",
    "prefecture_kana": "エヒメケン",
    "prefecture_code": 38,
    "city": "大洲市",
    "city_kana": "オオズシ",
    "town": "肱川町宇和川",
    "town_kana": "ヒジカワチョウウワガワ",
    "street": null,
    "office_name": null,
    "office_name_kana": null
  },
  "1504": {
    "postcode": "7971504",
    "prefecture": "愛媛県",
    "prefecture_kana": "エヒメケン",
    "prefecture_code": 38,
    "city": "大洲市",
    "city_kana": "オオズシ",
    "town": "肱川町山鳥坂",
    "town_kana": "ヒジカワチョウヤマトサカ",
    "street": null,
    "office_name": null,
    "office_name_kana": null
  },
  "1505": {
    "postcode": "7971505",
    "prefecture": "愛媛県",
    "prefecture_kana": "エヒメケン",
    "prefecture_code": 38,
    "city": "大洲市",
    "city_kana": "オオズシ",
    "town": "肱川町予子林",
    "town_kana": "ヒジカワチョウヨコハヤシ",
    "street": null,
    "office_name": null,
    "office_name_kana": null
  },
  "1506": {
    "postcode": "7971506",
    "prefecture": "愛媛県",
    "prefecture_kana": "エヒメケン",
    "prefecture_code": 38,
    "city": "大洲市",
    "city_kana": "オオズシ",
    "town": "肱川町中津",
    "town_kana": "ヒジカワチョウナカツ",
    "street": null,
    "office_name": null,
    "office_name_kana": null
  },
  "1507": {
    "postcode": "7971507",
    "prefecture": "愛媛県",
    "prefecture_kana": "エヒメケン",
    "prefecture_code": 38,
    "city": "大洲市",
    "city_kana": "オオズシ",
    "town": "肱川町大谷",
    "town_kana": "ヒジカワチョウオオタニ",
    "street": null,
    "office_name": null,
    "office_name_kana": null
  },
  "1508": {
    "postcode": "7971508",
    "prefecture": "愛媛県",
    "prefecture_kana": "エヒメケン",
    "prefecture_code": 38,
    "city": "大洲市",
    "city_kana": "オオズシ",
    "town": "肱川町西",
    "town_kana": "ヒジカワチョウニシ",
    "street": null,
    "office_name": null,
    "office_name_kana": null
  },
  "1592": {
    "postcode": "7971592",
    "prefecture": "愛媛県",
    "prefecture_kana": "エヒメケン",
    "prefecture_code": 38,
    "city": "大洲市",
    "city_kana": "オオズシ",
    "town": "肱川町山鳥坂",
    "town_kana": "ヒジカワチョウヤマトサカ",
    "street": "７３",
    "office_name": "大洲市役所　肱川支所",
    "office_name_kana": "オオズシヤクシヨ ヒジカワシシヨ"
  },
  "1601": {
    "postcode": "7971601",
    "prefecture": "愛媛県",
    "prefecture_kana": "エヒメケン",
    "prefecture_code": 38,
    "city": "大洲市",
    "city_kana": "オオズシ",
    "town": "河辺町植松",
    "town_kana": "カワベチョウウエマツ",
    "street": null,
    "office_name": null,
    "office_name_kana": null
  },
  "1602": {
    "postcode": "7971602",
    "prefecture": "愛媛県",
    "prefecture_kana": "エヒメケン",
    "prefecture_code": 38,
    "city": "大洲市",
    "city_kana": "オオズシ",
    "town": "河辺町山鳥坂",
    "town_kana": "カワベチョウヤマトサカ",
    "street": null,
    "office_name": null,
    "office_name_kana": null
  },
  "1603": {
    "postcode": "7971603",
    "prefecture": "愛媛県",
    "prefecture_kana": "エヒメケン",
    "prefecture_code": 38,
    "city": "大洲市",
    "city_kana": "オオズシ",
    "town": "河辺町横山",
    "town_kana": "カワベチョウヨコヤマ",
    "street": null,
    "office_name": null,
    "office_name_kana": null
  },
  "1604": {
    "postcode": "7971604",
    "prefecture": "愛媛県",
    "prefecture_kana": "エヒメケン",
    "prefecture_code": 38,
    "city": "大洲市",
    "city_kana": "オオズシ",
    "town": "河辺町川崎",
    "town_kana": "カワベチョウカワサキ",
    "street": null,
    "office_name": null,
    "office_name_kana": null
  },
  "1605": {
    "postcode": "7971605",
    "prefecture": "愛媛県",
    "prefecture_kana": "エヒメケン",
    "prefecture_code": 38,
    "city": "大洲市",
    "city_kana": "オオズシ",
    "town": "河辺町河都",
    "town_kana": "カワベチョウカワト",
    "street": null,
    "office_name": null,
    "office_name_kana": null
  },
  "1606": {
    "postcode": "7971606",
    "prefecture": "愛媛県",
    "prefecture_kana": "エヒメケン",
    "prefecture_code": 38,
    "city": "大洲市",
    "city_kana": "オオズシ",
    "town": "河辺町三嶋",
    "town_kana": "カワベチョウミシマ",
    "street": null,
    "office_name": null,
    "office_name_kana": null
  },
  "1607": {
    "postcode": "7971607",
    "prefecture": "愛媛県",
    "prefecture_kana": "エヒメケン",
    "prefecture_code": 38,
    "city": "大洲市",
    "city_kana": "オオズシ",
    "town": "河辺町川上",
    "town_kana": "カワベチョウカワカミ",
    "street": null,
    "office_name": null,
    "office_name_kana": null
  },
  "1608": {
    "postcode": "7971608",
    "prefecture": "愛媛県",
    "prefecture_kana": "エヒメケン",
    "prefecture_code": 38,
    "city": "大洲市",
    "city_kana": "オオズシ",
    "town": "河辺町北平",
    "town_kana": "カワベチョウキタヒラ",
    "street": null,
    "office_name": null,
    "office_name_kana": null
  },
  "1701": {
    "postcode": "7971701",
    "prefecture": "愛媛県",
    "prefecture_kana": "エヒメケン",
    "prefecture_code": 38,
    "city": "西予市",
    "city_kana": "セイヨシ",
    "town": "城川町土居",
    "town_kana": "シロカワチョウドイ",
    "street": null,
    "office_name": null,
    "office_name_kana": null
  },
  "1702": {
    "postcode": "7971702",
    "prefecture": "愛媛県",
    "prefecture_kana": "エヒメケン",
    "prefecture_code": 38,
    "city": "西予市",
    "city_kana": "セイヨシ",
    "town": "城川町古市",
    "town_kana": "シロカワチョウフルイチ",
    "street": null,
    "office_name": null,
    "office_name_kana": null
  },
  "1703": {
    "postcode": "7971703",
    "prefecture": "愛媛県",
    "prefecture_kana": "エヒメケン",
    "prefecture_code": 38,
    "city": "西予市",
    "city_kana": "セイヨシ",
    "town": "城川町窪野",
    "town_kana": "シロカワチョウクボノ",
    "street": null,
    "office_name": null,
    "office_name_kana": null
  },
  "1704": {
    "postcode": "7971704",
    "prefecture": "愛媛県",
    "prefecture_kana": "エヒメケン",
    "prefecture_code": 38,
    "city": "西予市",
    "city_kana": "セイヨシ",
    "town": "城川町川津南",
    "town_kana": "シロカワチョウカワヅミナミ",
    "street": null,
    "office_name": null,
    "office_name_kana": null
  },
  "1705": {
    "postcode": "7971705",
    "prefecture": "愛媛県",
    "prefecture_kana": "エヒメケン",
    "prefecture_code": 38,
    "city": "西予市",
    "city_kana": "セイヨシ",
    "town": "城川町高野子",
    "town_kana": "シロカワチョウタカノコ",
    "street": null,
    "office_name": null,
    "office_name_kana": null
  },
  "1711": {
    "postcode": "7971711",
    "prefecture": "愛媛県",
    "prefecture_kana": "エヒメケン",
    "prefecture_code": 38,
    "city": "西予市",
    "city_kana": "セイヨシ",
    "town": "城川町野井川",
    "town_kana": "シロカワチョウノイガワ",
    "street": null,
    "office_name": null,
    "office_name_kana": null
  },
  "1712": {
    "postcode": "7971712",
    "prefecture": "愛媛県",
    "prefecture_kana": "エヒメケン",
    "prefecture_code": 38,
    "city": "西予市",
    "city_kana": "セイヨシ",
    "town": "城川町遊子谷",
    "town_kana": "シロカワチョウユスタニ",
    "street": null,
    "office_name": null,
    "office_name_kana": null
  },
  "1713": {
    "postcode": "7971713",
    "prefecture": "愛媛県",
    "prefecture_kana": "エヒメケン",
    "prefecture_code": 38,
    "city": "西予市",
    "city_kana": "セイヨシ",
    "town": "城川町嘉喜尾",
    "town_kana": "シロカワチョウカギオ",
    "street": null,
    "office_name": null,
    "office_name_kana": null
  },
  "1714": {
    "postcode": "7971714",
    "prefecture": "愛媛県",
    "prefecture_kana": "エヒメケン",
    "prefecture_code": 38,
    "city": "西予市",
    "city_kana": "セイヨシ",
    "town": "城川町男河内",
    "town_kana": "シロカワチョウオンガワチ",
    "street": null,
    "office_name": null,
    "office_name_kana": null
  },
  "1715": {
    "postcode": "7971715",
    "prefecture": "愛媛県",
    "prefecture_kana": "エヒメケン",
    "prefecture_code": 38,
    "city": "西予市",
    "city_kana": "セイヨシ",
    "town": "城川町田穂",
    "town_kana": "シロカワチョウタオ",
    "street": null,
    "office_name": null,
    "office_name_kana": null
  },
  "1716": {
    "postcode": "7971716",
    "prefecture": "愛媛県",
    "prefecture_kana": "エヒメケン",
    "prefecture_code": 38,
    "city": "西予市",
    "city_kana": "セイヨシ",
    "town": "城川町魚成",
    "town_kana": "シロカワチョウウオナシ",
    "street": null,
    "office_name": null,
    "office_name_kana": null
  },
  "1717": {
    "postcode": "7971717",
    "prefecture": "愛媛県",
    "prefecture_kana": "エヒメケン",
    "prefecture_code": 38,
    "city": "西予市",
    "city_kana": "セイヨシ",
    "town": "城川町下相",
    "town_kana": "シロカワチョウオリアイ",
    "street": null,
    "office_name": null,
    "office_name_kana": null
  },
  "1792": {
    "postcode": "7971792",
    "prefecture": "愛媛県",
    "prefecture_kana": "エヒメケン",
    "prefecture_code": 38,
    "city": "西予市",
    "city_kana": "セイヨシ",
    "town": "城川町下相",
    "town_kana": "シロカワチョウオリアイ",
    "street": "９４５",
    "office_name": "西予市　城川総合支所",
    "office_name_kana": "セイヨシ シロカワソウゴウシシヨ"
  },
  "8501": {
    "postcode": "7978501",
    "prefecture": "愛媛県",
    "prefecture_kana": "エヒメケン",
    "prefecture_code": 38,
    "city": "西予市",
    "city_kana": "セイヨシ",
    "town": "宇和町卯之町",
    "town_kana": "ウワチョウウノマチ",
    "street": "３丁目４３４",
    "office_name": "西予市役所",
    "office_name_kana": "セイヨシヤクシヨ"
  },
  "8511": {
    "postcode": "7978511",
    "prefecture": "愛媛県",
    "prefecture_kana": "エヒメケン",
    "prefecture_code": 38,
    "city": "西予市",
    "city_kana": "セイヨシ",
    "town": "宇和町卯之町",
    "town_kana": "ウワチョウウノマチ",
    "street": "４丁目１１−２",
    "office_name": "愛媛県歴史文化博物館",
    "office_name_kana": "エヒメケンレキシブンカハクブツカン"
  }
}