{
  "0801": {
    "postcode": "8010801",
    "prefecture": "福岡県",
    "prefecture_kana": "フクオカケン",
    "prefecture_code": 40,
    "city": "北九州市門司区",
    "city_kana": "キタキュウシュウシモジク",
    "town": "風師",
    "town_kana": "カザシ",
    "street": null,
    "office_name": null,
    "office_name_kana": null
  },
  "0802": {
    "postcode": "8010802",
    "prefecture": "福岡県",
    "prefecture_kana": "フクオカケン",
    "prefecture_code": 40,
    "city": "北九州市門司区",
    "city_kana": "キタキュウシュウシモジク",
    "town": "白野江",
    "town_kana": "シラノエ",
    "street": null,
    "office_name": null,
    "office_name_kana": null
  },
  "0803": {
    "postcode": "8010803",
    "prefecture": "福岡県",
    "prefecture_kana": "フクオカケン",
    "prefecture_code": 40,
    "city": "北九州市門司区",
    "city_kana": "キタキュウシュウシモジク",
    "town": "田野浦",
    "town_kana": "タノウラ",
    "street": null,
    "office_name": null,
    "office_name_kana": null
  },
  "0804": {
    "postcode": "8010804",
    "prefecture": "福岡県",
    "prefecture_kana": "フクオカケン",
    "prefecture_code": 40,
    "city": "北九州市門司区",
    "city_kana": "キタキュウシュウシモジク",
    "town": "田野浦海岸",
    "town_kana": "タノウラカイガン",
    "street": null,
    "office_name": null,
    "office_name_kana": null
  },
  "0805": {
    "postcode": "8010805",
    "prefecture": "福岡県",
    "prefecture_kana": "フクオカケン",
    "prefecture_code": 40,
    "city": "北九州市門司区",
    "city_kana": "キタキュウシュウシモジク",
    "town": "太刀浦海岸",
    "town_kana": "タチノウラカイガン",
    "street": null,
    "office_name": null,
    "office_name_kana": null
  },
  "0808": {
    "postcode": "8010808",
    "prefecture": "福岡県",
    "prefecture_kana": "フクオカケン",
    "prefecture_code": 40,
    "city": "北九州市門司区",
    "city_kana": "キタキュウシュウシモジク",
    "town": "葛葉",
    "town_kana": "クズハ",
    "street": null,
    "office_name": null,
    "office_name_kana": null
  },
  "0811": {
    "postcode": "8010811",
    "prefecture": "福岡県",
    "prefecture_kana": "フクオカケン",
    "prefecture_code": 40,
    "city": "北九州市門司区",
    "city_kana": "キタキュウシュウシモジク",
    "town": "大積",
    "town_kana": "オオツミ",
    "street": null,
    "office_name": null,
    "office_name_kana": null
  },
  "0812": {
    "postcode": "8010812",
    "prefecture": "福岡県",
    "prefecture_kana": "フクオカケン",
    "prefecture_code": 40,
    "city": "北九州市門司区",
    "city_kana": "キタキュウシュウシモジク",
    "town": "喜多久",
    "town_kana": "キタク",
    "street": null,
    "office_name": null,
    "office_name_kana": null
  },
  "0813": {
    "postcode": "8010813",
    "prefecture": "福岡県",
    "prefecture_kana": "フクオカケン",
    "prefecture_code": 40,
    "city": "北九州市門司区",
    "city_kana": "キタキュウシュウシモジク",
    "town": "柄杓田",
    "town_kana": "ヒシャクダ",
    "street": null,
    "office_name": null,
    "office_name_kana": null
  },
  "0814": {
    "postcode": "8010814",
    "prefecture": "福岡県",
    "prefecture_kana": "フクオカケン",
    "prefecture_code": 40,
    "city": "北九州市門司区",
    "city_kana": "キタキュウシュウシモジク",
    "town": "柄杓田町",
    "town_kana": "ヒシャクダマチ",
    "street": null,
    "office_name": null,
    "office_name_kana": null
  },
  "0821": {
    "postcode": "8010821",
    "prefecture": "福岡県",
    "prefecture_kana": "フクオカケン",
    "prefecture_code": 40,
    "city": "北九州市門司区",
    "city_kana": "キタキュウシュウシモジク",
    "town": "黒川",
    "town_kana": "クロガワ",
    "street": null,
    "office_name": null,
    "office_name_kana": null
  },
  "0822": {
    "postcode": "8010822",
    "prefecture": "福岡県",
    "prefecture_kana": "フクオカケン",
    "prefecture_code": 40,
    "city": "北九州市門司区",
    "city_kana": "キタキュウシュウシモジク",
    "town": "高砂町",
    "town_kana": "タカサゴマチ",
    "street": null,
    "office_name": null,
    "office_name_kana": null
  },
  "0823": {
    "postcode": "8010823",
    "prefecture": "福岡県",
    "prefecture_kana": "フクオカケン",
    "prefecture_code": 40,
    "city": "北九州市門司区",
    "city_kana": "キタキュウシュウシモジク",
    "town": "春日町",
    "town_kana": "カスガマチ",
    "street": null,
    "office_name": null,
    "office_name_kana": null
  },
  "0824": {
    "postcode": "8010824",
    "prefecture": "福岡県",
    "prefecture_kana": "フクオカケン",
    "prefecture_code": 40,
    "city": "北九州市門司区",
    "city_kana": "キタキュウシュウシモジク",
    "town": "丸山吉野町",
    "town_kana": "マルヤマヨシノマチ",
    "street": null,
    "office_name": null,
    "office_name_kana": null
  },
  "0825": {
    "postcode": "8010825",
    "prefecture": "福岡県",
    "prefecture_kana": "フクオカケン",
    "prefecture_code": 40,
    "city": "北九州市門司区",
    "city_kana": "キタキュウシュウシモジク",
    "town": "黒川西",
    "town_kana": "クロガワニシ",
    "street": null,
    "office_name": null,
    "office_name_kana": null
  },
  "0826": {
    "postcode": "8010826",
    "prefecture": "福岡県",
    "prefecture_kana": "フクオカケン",
    "prefecture_code": 40,
    "city": "北九州市門司区",
    "city_kana": "キタキュウシュウシモジク",
    "town": "黒川東",
    "town_kana": "クロガワヒガシ",
    "street": null,
    "office_name": null,
    "office_name_kana": null
  },
  "0831": {
    "postcode": "8010831",
    "prefecture": "福岡県",
    "prefecture_kana": "フクオカケン",
    "prefecture_code": 40,
    "city": "北九州市門司区",
    "city_kana": "キタキュウシュウシモジク",
    "town": "丸山",
    "town_kana": "マルヤマ",
    "street": null,
    "office_name": null,
    "office_name_kana": null
  },
  "0832": {
    "postcode": "8010832",
    "prefecture": "福岡県",
    "prefecture_kana": "フクオカケン",
    "prefecture_code": 40,
    "city": "北九州市門司区",
    "city_kana": "キタキュウシュウシモジク",
    "town": "元清滝",
    "town_kana": "モトキヨタキ",
    "street": null,
    "office_name": null,
    "office_name_kana": null
  },
  "0833": {
    "postcode": "8010833",
    "prefecture": "福岡県",
    "prefecture_kana": "フクオカケン",
    "prefecture_code": 40,
    "city": "北九州市門司区",
    "city_kana": "キタキュウシュウシモジク",
    "town": "清滝",
    "town_kana": "キヨタキ",
    "street": null,
    "office_name": null,
    "office_name_kana": null
  },
  "0834": {
    "postcode": "8010834",
    "prefecture": "福岡県",
    "prefecture_kana": "フクオカケン",
    "prefecture_code": 40,
    "city": "北九州市門司区",
    "city_kana": "キタキュウシュウシモジク",
    "town": "本町",
    "town_kana": "ホンマチ",
    "street": null,
    "office_name": null,
    "office_name_kana": null
  },
  "0841": {
    "postcode": "8010841",
    "prefecture": "福岡県",
    "prefecture_kana": "フクオカケン",
    "prefecture_code": 40,
    "city": "北九州市門司区",
    "city_kana": "キタキュウシュウシモジク",
    "town": "西海岸",
    "town_kana": "ニシカイガン",
    "street": null,
    "office_name": null,
    "office_name_kana": null
  },
  "0842": {
    "postcode": "8010842",
    "prefecture": "福岡県",
    "prefecture_kana": "フクオカケン",
    "prefecture_code": 40,
    "city": "北九州市門司区",
    "city_kana": "キタキュウシュウシモジク",
    "town": "広石",
    "town_kana": "ヒロイシ",
    "street": null,
    "office_name": null,
    "office_name_kana": null
  },
  "0851": {
    "postcode": "8010851",
    "prefecture": "福岡県",
    "prefecture_kana": "フクオカケン",
    "prefecture_code": 40,
    "city": "北九州市門司区",
    "city_kana": "キタキュウシュウシモジク",
    "town": "東本町",
    "town_kana": "ヒガシホンマチ",
    "street": null,
    "office_name": null,
    "office_name_kana": null
  },
  "0852": {
    "postcode": "8010852",
    "prefecture": "福岡県",
    "prefecture_kana": "フクオカケン",
    "prefecture_code": 40,
    "city": "北九州市門司区",
    "city_kana": "キタキュウシュウシモジク",
    "town": "港町",
    "town_kana": "ミナトマチ",
    "street": null,
    "office_name": null,
    "office_name_kana": null
  },
  "0853": {
    "postcode": "8010853",
    "prefecture": "福岡県",
    "prefecture_kana": "フクオカケン",
    "prefecture_code": 40,
    "city": "北九州市門司区",
    "city_kana": "キタキュウシュウシモジク",
    "town": "東港町",
    "town_kana": "ヒガシミナトマチ",
    "street": null,
    "office_name": null,
    "office_name_kana": null
  },
  "0854": {
    "postcode": "8010854",
    "prefecture": "福岡県",
    "prefecture_kana": "フクオカケン",
    "prefecture_code": 40,
    "city": "北九州市門司区",
    "city_kana": "キタキュウシュウシモジク",
    "town": "旧門司",
    "town_kana": "キュウモジ",
    "street": null,
    "office_name": null,
    "office_name_kana": null
  },
  "0855": {
    "postcode": "8010855",
    "prefecture": "福岡県",
    "prefecture_kana": "フクオカケン",
    "prefecture_code": 40,
    "city": "北九州市門司区",
    "city_kana": "キタキュウシュウシモジク",
    "town": "門司",
    "town_kana": "モジ",
    "street": null,
    "office_name": null,
    "office_name_kana": null
  },
  "0856": {
    "postcode": "8010856",
    "prefecture": "福岡県",
    "prefecture_kana": "フクオカケン",
    "prefecture_code": 40,
    "city": "北九州市門司区",
    "city_kana": "キタキュウシュウシモジク",
    "town": "浜町",
    "town_kana": "ハママチ",
    "street": null,
    "office_name": null,
    "office_name_kana": null
  },
  "0861": {
    "postcode": "8010861",
    "prefecture": "福岡県",
    "prefecture_kana": "フクオカケン",
    "prefecture_code": 40,
    "city": "北九州市門司区",
    "city_kana": "キタキュウシュウシモジク",
    "town": "長谷",
    "town_kana": "ナガタニ",
    "street": null,
    "office_name": null,
    "office_name_kana": null
  },
  "0862": {
    "postcode": "8010862",
    "prefecture": "福岡県",
    "prefecture_kana": "フクオカケン",
    "prefecture_code": 40,
    "city": "北九州市門司区",
    "city_kana": "キタキュウシュウシモジク",
    "town": "錦町",
    "town_kana": "ニシキマチ",
    "street": null,
    "office_name": null,
    "office_name_kana": null
  },
  "0863": {
    "postcode": "8010863",
    "prefecture": "福岡県",
    "prefecture_kana": "フクオカケン",
    "prefecture_code": 40,
    "city": "北九州市門司区",
    "city_kana": "キタキュウシュウシモジク",
    "town": "栄町",
    "town_kana": "サカエマチ",
    "street": null,
    "office_name": null,
    "office_name_kana": null
  },
  "0864": {
    "postcode": "8010864",
    "prefecture": "福岡県",
    "prefecture_kana": "フクオカケン",
    "prefecture_code": 40,
    "city": "北九州市門司区",
    "city_kana": "キタキュウシュウシモジク",
    "town": "老松町",
    "town_kana": "オイマツチョウ",
    "street": null,
    "office_name": null,
    "office_name_kana": null
  },
  "0865": {
    "postcode": "8010865",
    "prefecture": "福岡県",
    "prefecture_kana": "フクオカケン",
    "prefecture_code": 40,
    "city": "北九州市門司区",
    "city_kana": "キタキュウシュウシモジク",
    "town": "庄司町",
    "town_kana": "ショウジマチ",
    "street": null,
    "office_name": null,
    "office_name_kana": null
  },
  "0871": {
    "postcode": "8010871",
    "prefecture": "福岡県",
    "prefecture_kana": "フクオカケン",
    "prefecture_code": 40,
    "city": "北九州市門司区",
    "city_kana": "キタキュウシュウシモジク",
    "town": "上本町",
    "town_kana": "カミホンマチ",
    "street": null,
    "office_name": null,
    "office_name_kana": null
  },
  "0872": {
    "postcode": "8010872",
    "prefecture": "福岡県",
    "prefecture_kana": "フクオカケン",
    "prefecture_code": 40,
    "city": "北九州市門司区",
    "city_kana": "キタキュウシュウシモジク",
    "town": "谷町",
    "town_kana": "タニマチ",
    "street": null,
    "office_name": null,
    "office_name_kana": null
  },
  "0873": {
    "postcode": "8010873",
    "prefecture": "福岡県",
    "prefecture_kana": "フクオカケン",
    "prefecture_code": 40,
    "city": "北九州市門司区",
    "city_kana": "キタキュウシュウシモジク",
    "town": "東門司",
    "town_kana": "ヒガシモジ",
    "street": null,
    "office_name": null,
    "office_name_kana": null
  },
  "0874": {
    "postcode": "8010874",
    "prefecture": "福岡県",
    "prefecture_kana": "フクオカケン",
    "prefecture_code": 40,
    "city": "北九州市門司区",
    "city_kana": "キタキュウシュウシモジク",
    "town": "畑田町",
    "town_kana": "ハタケダマチ",
    "street": null,
    "office_name": null,
    "office_name_kana": null
  },
  "0875": {
    "postcode": "8010875",
    "prefecture": "福岡県",
    "prefecture_kana": "フクオカケン",
    "prefecture_code": 40,
    "city": "北九州市門司区",
    "city_kana": "キタキュウシュウシモジク",
    "town": "法師庵",
    "town_kana": "ホウシアン",
    "street": null,
    "office_name": null,
    "office_name_kana": null
  },
  "0876": {
    "postcode": "8010876",
    "prefecture": "福岡県",
    "prefecture_kana": "フクオカケン",
    "prefecture_code": 40,
    "city": "北九州市門司区",
    "city_kana": "キタキュウシュウシモジク",
    "town": "花月園",
    "town_kana": "カゲツエン",
    "street": null,
    "office_name": null,
    "office_name_kana": null
  },
  "0881": {
    "postcode": "8010881",
    "prefecture": "福岡県",
    "prefecture_kana": "フクオカケン",
    "prefecture_code": 40,
    "city": "北九州市門司区",
    "city_kana": "キタキュウシュウシモジク",
    "town": "鳴竹",
    "town_kana": "ナルタケ",
    "street": null,
    "office_name": null,
    "office_name_kana": null
  },
  "0882": {
    "postcode": "8010882",
    "prefecture": "福岡県",
    "prefecture_kana": "フクオカケン",
    "prefecture_code": 40,
    "city": "北九州市門司区",
    "city_kana": "キタキュウシュウシモジク",
    "town": "清見",
    "town_kana": "キヨミ",
    "street": null,
    "office_name": null,
    "office_name_kana": null
  },
  "0883": {
    "postcode": "8010883",
    "prefecture": "福岡県",
    "prefecture_kana": "フクオカケン",
    "prefecture_code": 40,
    "city": "北九州市門司区",
    "city_kana": "キタキュウシュウシモジク",
    "town": "大久保",
    "town_kana": "オオクボ",
    "street": null,
    "office_name": null,
    "office_name_kana": null
  },
  "0884": {
    "postcode": "8010884",
    "prefecture": "福岡県",
    "prefecture_kana": "フクオカケン",
    "prefecture_code": 40,
    "city": "北九州市門司区",
    "city_kana": "キタキュウシュウシモジク",
    "town": "瀬戸町",
    "town_kana": "セトマチ",
    "street": null,
    "office_name": null,
    "office_name_kana": null
  },
  "0885": {
    "postcode": "8010885",
    "prefecture": "福岡県",
    "prefecture_kana": "フクオカケン",
    "prefecture_code": 40,
    "city": "北九州市門司区",
    "city_kana": "キタキュウシュウシモジク",
    "town": "新開",
    "town_kana": "シンカイ",
    "street": null,
    "office_name": null,
    "office_name_kana": null
  },
  "0886": {
    "postcode": "8010886",
    "prefecture": "福岡県",
    "prefecture_kana": "フクオカケン",
    "prefecture_code": 40,
    "city": "北九州市門司区",
    "city_kana": "キタキュウシュウシモジク",
    "town": "清見佐夜町",
    "town_kana": "キヨミサヤマチ",
    "street": null,
    "office_name": null,
    "office_name_kana": null
  },
  "8502": {
    "postcode": "8018502",
    "prefecture": "福岡県",
    "prefecture_kana": "フクオカケン",
    "prefecture_code": 40,
    "city": "北九州市門司区",
    "city_kana": "キタキュウシュウシモジク",
    "town": "東港町",
    "town_kana": "ヒガシミナトマチ",
    "street": "３−１",
    "office_name": "九州労災病院門司メディカルセンター",
    "office_name_kana": "キユウシユウロウサイビヨウインモジメデイカルセンタ-"
  },
  "8503": {
    "postcode": "8018503",
    "prefecture": "福岡県",
    "prefecture_kana": "フクオカケン",
    "prefecture_code": 40,
    "city": "北九州市門司区",
    "city_kana": "キタキュウシュウシモジク",
    "town": "港町",
    "town_kana": "ミナトマチ",
    "street": "９番１１号",
    "office_name": "株式会社　門司港ホテル",
    "office_name_kana": "カブシキカイシヤ モジコウホテル"
  },
  "8507": {
    "postcode": "8018507",
    "prefecture": "福岡県",
    "prefecture_kana": "フクオカケン",
    "prefecture_code": 40,
    "city": "北九州市門司区",
    "city_kana": "キタキュウシュウシモジク",
    "town": "西海岸",
    "town_kana": "ニシカイガン",
    "street": "１丁目３−１０門司港湾合同庁舎",
    "office_name": "第７管区海上保安本部",
    "office_name_kana": "ダイ7カンクカイジヨウホアンホンブ"
  },
  "8510": {
    "postcode": "8018510",
    "prefecture": "福岡県",
    "prefecture_kana": "フクオカケン",
    "prefecture_code": 40,
    "city": "北九州市門司区",
    "city_kana": "キタキュウシュウシモジク",
    "town": "清滝",
    "town_kana": "キヨタキ",
    "street": "１丁目１−１",
    "office_name": "北九州市　門司区役所",
    "office_name_kana": "キタキユウシユウシ モジクヤクシヨ"
  },
  "8511": {
    "postcode": "8018511",
    "prefecture": "福岡県",
    "prefecture_kana": "フクオカケン",
    "prefecture_code": 40,
    "city": "北九州市門司区",
    "city_kana": "キタキュウシュウシモジク",
    "town": "西海岸",
    "town_kana": "ニシカイガン",
    "street": "１丁目３−１０門司港湾合同庁舎",
    "office_name": "門司税関",
    "office_name_kana": "モジゼイカン"
  },
  "8550": {
    "postcode": "8018550",
    "prefecture": "福岡県",
    "prefecture_kana": "フクオカケン",
    "prefecture_code": 40,
    "city": "北九州市門司区",
    "city_kana": "キタキュウシュウシモジク",
    "town": "清滝",
    "town_kana": "キヨタキ",
    "street": "１丁目３−１",
    "office_name": "社団法人　日本海員掖済会門司病院",
    "office_name_kana": "シヤダンホウジン ニホンカイインエキサイカイモジビヨウイン"
  },
  "8555": {
    "postcode": "8018555",
    "prefecture": "福岡県",
    "prefecture_kana": "フクオカケン",
    "prefecture_code": 40,
    "city": "北九州市門司区",
    "city_kana": "キタキュウシュウシモジク",
    "town": "西海岸",
    "town_kana": "ニシカイガン",
    "street": "１丁目２−７",
    "office_name": "北九州市港湾局",
    "office_name_kana": "キタキユウシユウシコウワンキヨク"
  },
  "8585": {
    "postcode": "8018585",
    "prefecture": "福岡県",
    "prefecture_kana": "フクオカケン",
    "prefecture_code": 40,
    "city": "北九州市門司区",
    "city_kana": "キタキュウシュウシモジク",
    "town": "西海岸",
    "town_kana": "ニシカイガン",
    "street": "１丁目３−１０",
    "office_name": "九州運輸局　福岡運輸支局（門司港庁舎）",
    "office_name_kana": "キユウシユウウンユキヨク フクオカウンユシキヨク(モジコウチヨウシヤ)"
  },
  "8601": {
    "postcode": "8018601",
    "prefecture": "福岡県",
    "prefecture_kana": "フクオカケン",
    "prefecture_code": 40,
    "city": "北九州市門司区",
    "city_kana": "キタキュウシュウシモジク",
    "town": "西海岸",
    "town_kana": "ニシカイガン",
    "street": "１−３−１０門司港湾合同庁舎（門司港郵便局私書箱第３７号）",
    "office_name": "門司税務署",
    "office_name_kana": "モジゼイムシヨ"
  }
}