{
  "0000": {
    "postcode": "8040000",
    "prefecture": "福岡県",
    "prefecture_kana": "フクオカケン",
    "prefecture_code": 40,
    "city": "北九州市戸畑区",
    "city_kana": "キタキュウシュウシトバタク",
    "town": "",
    "town_kana": "",
    "street": null,
    "office_name": null,
    "office_name_kana": null
  },
  "0001": {
    "postcode": "8040001",
    "prefecture": "福岡県",
    "prefecture_kana": "フクオカケン",
    "prefecture_code": 40,
    "city": "北九州市戸畑区",
    "city_kana": "キタキュウシュウシトバタク",
    "town": "飛幡町",
    "town_kana": "トビハタチョウ",
    "street": null,
    "office_name": null,
    "office_name_kana": null
  },
  "0002": [
    {
      "postcode": "8040002",
      "prefecture": "福岡県",
      "prefecture_kana": "フクオカケン",
      "prefecture_code": 40,
      "city": "北九州市戸畑区",
      "city_kana": "キタキュウシュウシトバタク",
      "town": "中原",
      "town_kana": "ナカバル",
      "street": null,
      "office_name": null,
      "office_name_kana": null
    },
    {
      "postcode": "8040002",
      "prefecture": "福岡県",
      "prefecture_kana": "フクオカケン",
      "prefecture_code": 40,
      "city": "北九州市戸畑区",
      "city_kana": "キタキュウシュウシトバタク",
      "town": "中原先の浜",
      "town_kana": "ナカバルサキノハマ",
      "street": null,
      "office_name": null,
      "office_name_kana": null
    }
  ],
  "0003": {
    "postcode": "8040003",
    "prefecture": "福岡県",
    "prefecture_kana": "フクオカケン",
    "prefecture_code": 40,
    "city": "北九州市戸畑区",
    "city_kana": "キタキュウシュウシトバタク",
    "town": "中原新町",
    "town_kana": "ナカバルシンマチ",
    "street": null,
    "office_name": null,
    "office_name_kana": null
  },
  "0004": {
    "postcode": "8040004",
    "prefecture": "福岡県",
    "prefecture_kana": "フクオカケン",
    "prefecture_code": 40,
    "city": "北九州市戸畑区",
    "city_kana": "キタキュウシュウシトバタク",
    "town": "戸畑",
    "town_kana": "トバタ",
    "street": null,
    "office_name": null,
    "office_name_kana": null
  },
  "0011": {
    "postcode": "8040011",
    "prefecture": "福岡県",
    "prefecture_kana": "フクオカケン",
    "prefecture_code": 40,
    "city": "北九州市戸畑区",
    "city_kana": "キタキュウシュウシトバタク",
    "town": "中原西",
    "town_kana": "ナカバルニシ",
    "street": null,
    "office_name": null,
    "office_name_kana": null
  },
  "0012": {
    "postcode": "8040012",
    "prefecture": "福岡県",
    "prefecture_kana": "フクオカケン",
    "prefecture_code": 40,
    "city": "北九州市戸畑区",
    "city_kana": "キタキュウシュウシトバタク",
    "town": "中原東",
    "town_kana": "ナカバルヒガシ",
    "street": null,
    "office_name": null,
    "office_name_kana": null
  },
  "0013": {
    "postcode": "8040013",
    "prefecture": "福岡県",
    "prefecture_kana": "フクオカケン",
    "prefecture_code": 40,
    "city": "北九州市戸畑区",
    "city_kana": "キタキュウシュウシトバタク",
    "town": "境川",
    "town_kana": "サカイガワ",
    "street": null,
    "office_name": null,
    "office_name_kana": null
  },
  "0014": {
    "postcode": "8040014",
    "prefecture": "福岡県",
    "prefecture_kana": "フクオカケン",
    "prefecture_code": 40,
    "city": "北九州市戸畑区",
    "city_kana": "キタキュウシュウシトバタク",
    "town": "土取町",
    "town_kana": "ツチトリマチ",
    "street": null,
    "office_name": null,
    "office_name_kana": null
  },
  "0015": {
    "postcode": "8040015",
    "prefecture": "福岡県",
    "prefecture_kana": "フクオカケン",
    "prefecture_code": 40,
    "city": "北九州市戸畑区",
    "city_kana": "キタキュウシュウシトバタク",
    "town": "仙水町",
    "town_kana": "センスイチョウ",
    "street": null,
    "office_name": null,
    "office_name_kana": null
  },
  "0021": {
    "postcode": "8040021",
    "prefecture": "福岡県",
    "prefecture_kana": "フクオカケン",
    "prefecture_code": 40,
    "city": "北九州市戸畑区",
    "city_kana": "キタキュウシュウシトバタク",
    "town": "一枝",
    "town_kana": "イチエダ",
    "street": null,
    "office_name": null,
    "office_name_kana": null
  },
  "0022": {
    "postcode": "8040022",
    "prefecture": "福岡県",
    "prefecture_kana": "フクオカケン",
    "prefecture_code": 40,
    "city": "北九州市戸畑区",
    "city_kana": "キタキュウシュウシトバタク",
    "town": "金比羅町",
    "town_kana": "コンピラチョウ",
    "street": null,
    "office_name": null,
    "office_name_kana": null
  },
  "0023": {
    "postcode": "8040023",
    "prefecture": "福岡県",
    "prefecture_kana": "フクオカケン",
    "prefecture_code": 40,
    "city": "北九州市戸畑区",
    "city_kana": "キタキュウシュウシトバタク",
    "town": "東鞘ケ谷町",
    "town_kana": "ヒガシサヤガタニマチ",
    "street": null,
    "office_name": null,
    "office_name_kana": null
  },
  "0024": {
    "postcode": "8040024",
    "prefecture": "福岡県",
    "prefecture_kana": "フクオカケン",
    "prefecture_code": 40,
    "city": "北九州市戸畑区",
    "city_kana": "キタキュウシュウシトバタク",
    "town": "西鞘ケ谷町",
    "town_kana": "ニシサヤガタニマチ",
    "street": null,
    "office_name": null,
    "office_name_kana": null
  },
  "0025": {
    "postcode": "8040025",
    "prefecture": "福岡県",
    "prefecture_kana": "フクオカケン",
    "prefecture_code": 40,
    "city": "北九州市戸畑区",
    "city_kana": "キタキュウシュウシトバタク",
    "town": "福柳木",
    "town_kana": "フクリュウギ",
    "street": null,
    "office_name": null,
    "office_name_kana": null
  },
  "0031": {
    "postcode": "8040031",
    "prefecture": "福岡県",
    "prefecture_kana": "フクオカケン",
    "prefecture_code": 40,
    "city": "北九州市戸畑区",
    "city_kana": "キタキュウシュウシトバタク",
    "town": "東大谷",
    "town_kana": "ヒガシオオタニ",
    "street": null,
    "office_name": null,
    "office_name_kana": null
  },
  "0032": {
    "postcode": "8040032",
    "prefecture": "福岡県",
    "prefecture_kana": "フクオカケン",
    "prefecture_code": 40,
    "city": "北九州市戸畑区",
    "city_kana": "キタキュウシュウシトバタク",
    "town": "西大谷",
    "town_kana": "ニシオオタニ",
    "street": null,
    "office_name": null,
    "office_name_kana": null
  },
  "0033": {
    "postcode": "8040033",
    "prefecture": "福岡県",
    "prefecture_kana": "フクオカケン",
    "prefecture_code": 40,
    "city": "北九州市戸畑区",
    "city_kana": "キタキュウシュウシトバタク",
    "town": "椎ノ木町",
    "town_kana": "シイノキチョウ",
    "street": null,
    "office_name": null,
    "office_name_kana": null
  },
  "0041": {
    "postcode": "8040041",
    "prefecture": "福岡県",
    "prefecture_kana": "フクオカケン",
    "prefecture_code": 40,
    "city": "北九州市戸畑区",
    "city_kana": "キタキュウシュウシトバタク",
    "town": "天籟寺",
    "town_kana": "テンライジ",
    "street": null,
    "office_name": null,
    "office_name_kana": null
  },
  "0042": {
    "postcode": "8040042",
    "prefecture": "福岡県",
    "prefecture_kana": "フクオカケン",
    "prefecture_code": 40,
    "city": "北九州市戸畑区",
    "city_kana": "キタキュウシュウシトバタク",
    "town": "夜宮",
    "town_kana": "ヨミヤ",
    "street": null,
    "office_name": null,
    "office_name_kana": null
  },
  "0043": {
    "postcode": "8040043",
    "prefecture": "福岡県",
    "prefecture_kana": "フクオカケン",
    "prefecture_code": 40,
    "city": "北九州市戸畑区",
    "city_kana": "キタキュウシュウシトバタク",
    "town": "観音寺町",
    "town_kana": "カンノンジチョウ",
    "street": null,
    "office_name": null,
    "office_name_kana": null
  },
  "0044": {
    "postcode": "8040044",
    "prefecture": "福岡県",
    "prefecture_kana": "フクオカケン",
    "prefecture_code": 40,
    "city": "北九州市戸畑区",
    "city_kana": "キタキュウシュウシトバタク",
    "town": "菅原",
    "town_kana": "スガワラ",
    "street": null,
    "office_name": null,
    "office_name_kana": null
  },
  "0051": {
    "postcode": "8040051",
    "prefecture": "福岡県",
    "prefecture_kana": "フクオカケン",
    "prefecture_code": 40,
    "city": "北九州市戸畑区",
    "city_kana": "キタキュウシュウシトバタク",
    "town": "高峰",
    "town_kana": "タカミネ",
    "street": null,
    "office_name": null,
    "office_name_kana": null
  },
  "0052": {
    "postcode": "8040052",
    "prefecture": "福岡県",
    "prefecture_kana": "フクオカケン",
    "prefecture_code": 40,
    "city": "北九州市戸畑区",
    "city_kana": "キタキュウシュウシトバタク",
    "town": "丸町",
    "town_kana": "マルマチ",
    "street": null,
    "office_name": null,
    "office_name_kana": null
  },
  "0053": {
    "postcode": "8040053",
    "prefecture": "福岡県",
    "prefecture_kana": "フクオカケン",
    "prefecture_code": 40,
    "city": "北九州市戸畑区",
    "city_kana": "キタキュウシュウシトバタク",
    "town": "牧山",
    "town_kana": "マキヤマ",
    "street": null,
    "office_name": null,
    "office_name_kana": null
  },
  "0054": {
    "postcode": "8040054",
    "prefecture": "福岡県",
    "prefecture_kana": "フクオカケン",
    "prefecture_code": 40,
    "city": "北九州市戸畑区",
    "city_kana": "キタキュウシュウシトバタク",
    "town": "牧山新町",
    "town_kana": "マキヤマシンマチ",
    "street": null,
    "office_name": null,
    "office_name_kana": null
  },
  "0061": {
    "postcode": "8040061",
    "prefecture": "福岡県",
    "prefecture_kana": "フクオカケン",
    "prefecture_code": 40,
    "city": "北九州市戸畑区",
    "city_kana": "キタキュウシュウシトバタク",
    "town": "中本町",
    "town_kana": "ナカホンマチ",
    "street": null,
    "office_name": null,
    "office_name_kana": null
  },
  "0062": {
    "postcode": "8040062",
    "prefecture": "福岡県",
    "prefecture_kana": "フクオカケン",
    "prefecture_code": 40,
    "city": "北九州市戸畑区",
    "city_kana": "キタキュウシュウシトバタク",
    "town": "浅生",
    "town_kana": "アソウ",
    "street": null,
    "office_name": null,
    "office_name_kana": null
  },
  "0063": {
    "postcode": "8040063",
    "prefecture": "福岡県",
    "prefecture_kana": "フクオカケン",
    "prefecture_code": 40,
    "city": "北九州市戸畑区",
    "city_kana": "キタキュウシュウシトバタク",
    "town": "正津町",
    "town_kana": "ショウヅマチ",
    "street": null,
    "office_name": null,
    "office_name_kana": null
  },
  "0064": {
    "postcode": "8040064",
    "prefecture": "福岡県",
    "prefecture_kana": "フクオカケン",
    "prefecture_code": 40,
    "city": "北九州市戸畑区",
    "city_kana": "キタキュウシュウシトバタク",
    "town": "沖台",
    "town_kana": "オキダイ",
    "street": null,
    "office_name": null,
    "office_name_kana": null
  },
  "0065": {
    "postcode": "8040065",
    "prefecture": "福岡県",
    "prefecture_kana": "フクオカケン",
    "prefecture_code": 40,
    "city": "北九州市戸畑区",
    "city_kana": "キタキュウシュウシトバタク",
    "town": "新川町",
    "town_kana": "シンカワマチ",
    "street": null,
    "office_name": null,
    "office_name_kana": null
  },
  "0066": {
    "postcode": "8040066",
    "prefecture": "福岡県",
    "prefecture_kana": "フクオカケン",
    "prefecture_code": 40,
    "city": "北九州市戸畑区",
    "city_kana": "キタキュウシュウシトバタク",
    "town": "初音町",
    "town_kana": "ハツネチョウ",
    "street": null,
    "office_name": null,
    "office_name_kana": null
  },
  "0067": {
    "postcode": "8040067",
    "prefecture": "福岡県",
    "prefecture_kana": "フクオカケン",
    "prefecture_code": 40,
    "city": "北九州市戸畑区",
    "city_kana": "キタキュウシュウシトバタク",
    "town": "汐井町",
    "town_kana": "シオイマチ",
    "street": null,
    "office_name": null,
    "office_name_kana": null
  },
  "0071": {
    "postcode": "8040071",
    "prefecture": "福岡県",
    "prefecture_kana": "フクオカケン",
    "prefecture_code": 40,
    "city": "北九州市戸畑区",
    "city_kana": "キタキュウシュウシトバタク",
    "town": "川代",
    "town_kana": "カワシロ",
    "street": null,
    "office_name": null,
    "office_name_kana": null
  },
  "0072": {
    "postcode": "8040072",
    "prefecture": "福岡県",
    "prefecture_kana": "フクオカケン",
    "prefecture_code": 40,
    "city": "北九州市戸畑区",
    "city_kana": "キタキュウシュウシトバタク",
    "town": "元宮町",
    "town_kana": "モトミヤマチ",
    "street": null,
    "office_name": null,
    "office_name_kana": null
  },
  "0073": {
    "postcode": "8040073",
    "prefecture": "福岡県",
    "prefecture_kana": "フクオカケン",
    "prefecture_code": 40,
    "city": "北九州市戸畑区",
    "city_kana": "キタキュウシュウシトバタク",
    "town": "明治町",
    "town_kana": "メイジマチ",
    "street": null,
    "office_name": null,
    "office_name_kana": null
  },
  "0074": {
    "postcode": "8040074",
    "prefecture": "福岡県",
    "prefecture_kana": "フクオカケン",
    "prefecture_code": 40,
    "city": "北九州市戸畑区",
    "city_kana": "キタキュウシュウシトバタク",
    "town": "南鳥旗町",
    "town_kana": "ミナミトリハタマチ",
    "street": null,
    "office_name": null,
    "office_name_kana": null
  },
  "0075": {
    "postcode": "8040075",
    "prefecture": "福岡県",
    "prefecture_kana": "フクオカケン",
    "prefecture_code": 40,
    "city": "北九州市戸畑区",
    "city_kana": "キタキュウシュウシトバタク",
    "town": "北鳥旗町",
    "town_kana": "キタトリハタマチ",
    "street": null,
    "office_name": null,
    "office_name_kana": null
  },
  "0076": {
    "postcode": "8040076",
    "prefecture": "福岡県",
    "prefecture_kana": "フクオカケン",
    "prefecture_code": 40,
    "city": "北九州市戸畑区",
    "city_kana": "キタキュウシュウシトバタク",
    "town": "銀座",
    "town_kana": "ギンザ",
    "street": null,
    "office_name": null,
    "office_name_kana": null
  },
  "0077": {
    "postcode": "8040077",
    "prefecture": "福岡県",
    "prefecture_kana": "フクオカケン",
    "prefecture_code": 40,
    "city": "北九州市戸畑区",
    "city_kana": "キタキュウシュウシトバタク",
    "town": "牧山海岸",
    "town_kana": "マキヤマカイガン",
    "street": null,
    "office_name": null,
    "office_name_kana": null
  },
  "0081": {
    "postcode": "8040081",
    "prefecture": "福岡県",
    "prefecture_kana": "フクオカケン",
    "prefecture_code": 40,
    "city": "北九州市戸畑区",
    "city_kana": "キタキュウシュウシトバタク",
    "town": "千防",
    "town_kana": "センボウ",
    "street": null,
    "office_name": null,
    "office_name_kana": null
  },
  "0082": {
    "postcode": "8040082",
    "prefecture": "福岡県",
    "prefecture_kana": "フクオカケン",
    "prefecture_code": 40,
    "city": "北九州市戸畑区",
    "city_kana": "キタキュウシュウシトバタク",
    "town": "新池",
    "town_kana": "シンイケ",
    "street": null,
    "office_name": null,
    "office_name_kana": null
  },
  "0083": {
    "postcode": "8040083",
    "prefecture": "福岡県",
    "prefecture_kana": "フクオカケン",
    "prefecture_code": 40,
    "city": "北九州市戸畑区",
    "city_kana": "キタキュウシュウシトバタク",
    "town": "旭町",
    "town_kana": "アサヒマチ",
    "street": null,
    "office_name": null,
    "office_name_kana": null
  },
  "0084": {
    "postcode": "8040084",
    "prefecture": "福岡県",
    "prefecture_kana": "フクオカケン",
    "prefecture_code": 40,
    "city": "北九州市戸畑区",
    "city_kana": "キタキュウシュウシトバタク",
    "town": "幸町",
    "town_kana": "サイワイマチ",
    "street": null,
    "office_name": null,
    "office_name_kana": null
  },
  "0091": {
    "postcode": "8040091",
    "prefecture": "福岡県",
    "prefecture_kana": "フクオカケン",
    "prefecture_code": 40,
    "city": "北九州市戸畑区",
    "city_kana": "キタキュウシュウシトバタク",
    "town": "三六町",
    "town_kana": "サンロクマチ",
    "street": null,
    "office_name": null,
    "office_name_kana": null
  },
  "0092": {
    "postcode": "8040092",
    "prefecture": "福岡県",
    "prefecture_kana": "フクオカケン",
    "prefecture_code": 40,
    "city": "北九州市戸畑区",
    "city_kana": "キタキュウシュウシトバタク",
    "town": "小芝",
    "town_kana": "コシバ",
    "street": null,
    "office_name": null,
    "office_name_kana": null
  },
  "0093": {
    "postcode": "8040093",
    "prefecture": "福岡県",
    "prefecture_kana": "フクオカケン",
    "prefecture_code": 40,
    "city": "北九州市戸畑区",
    "city_kana": "キタキュウシュウシトバタク",
    "town": "沢見",
    "town_kana": "サワミ",
    "street": null,
    "office_name": null,
    "office_name_kana": null
  },
  "0094": {
    "postcode": "8040094",
    "prefecture": "福岡県",
    "prefecture_kana": "フクオカケン",
    "prefecture_code": 40,
    "city": "北九州市戸畑区",
    "city_kana": "キタキュウシュウシトバタク",
    "town": "天神",
    "town_kana": "テンジン",
    "street": null,
    "office_name": null,
    "office_name_kana": null
  },
  "8501": {
    "postcode": "8048501",
    "prefecture": "福岡県",
    "prefecture_kana": "フクオカケン",
    "prefecture_code": 40,
    "city": "北九州市戸畑区",
    "city_kana": "キタキュウシュウシトバタク",
    "town": "飛幡町",
    "town_kana": "トビハタチョウ",
    "street": "１番１号",
    "office_name": "日本製鉄　株式会社　九州製鉄所　八幡地区",
    "office_name_kana": "ニツポンセイテツ カブシキガイシヤ キユウシユウセイテツシヨ ヤハタチク"
  },
  "8503": {
    "postcode": "8048503",
    "prefecture": "福岡県",
    "prefecture_kana": "フクオカケン",
    "prefecture_code": 40,
    "city": "北九州市戸畑区",
    "city_kana": "キタキュウシュウシトバタク",
    "town": "大字中原",
    "town_kana": null,
    "street": "先の浜４６−８０",
    "office_name": "日鉄ケミカル＆マテリアル　株式会社　九州製造所",
    "office_name_kana": "ニツテツケミカルアンドマテリアル カブシキガイシヤ キユウシユウセイゾウシヨ"
  },
  "8505": {
    "postcode": "8048505",
    "prefecture": "福岡県",
    "prefecture_kana": "フクオカケン",
    "prefecture_code": 40,
    "city": "北九州市戸畑区",
    "city_kana": "キタキュウシュウシトバタク",
    "town": "大字中原",
    "town_kana": null,
    "street": "４６番地の５９",
    "office_name": "日鉄エンジニアリング　株式会社　北九州技術センター　北九州総務室",
    "office_name_kana": "ニツテツエンジニアリング カブシキガイシヤ キタキユウシユウギジユツセンタ- キタキユウシユウソウムシツ"
  },
  "8510": {
    "postcode": "8048510",
    "prefecture": "福岡県",
    "prefecture_kana": "フクオカケン",
    "prefecture_code": 40,
    "city": "北九州市戸畑区",
    "city_kana": "キタキュウシュウシトバタク",
    "town": "千防",
    "town_kana": "センボウ",
    "street": "１丁目１−１",
    "office_name": "北九州市　戸畑区役所",
    "office_name_kana": "キタキユウシユウシ トバタクヤクシヨ"
  },
  "8520": {
    "postcode": "8048520",
    "prefecture": "福岡県",
    "prefecture_kana": "フクオカケン",
    "prefecture_code": 40,
    "city": "北九州市戸畑区",
    "city_kana": "キタキュウシュウシトバタク",
    "town": "牧山",
    "town_kana": "マキヤマ",
    "street": "５丁目１−１",
    "office_name": "旭硝子　株式会社　北九州工場",
    "office_name_kana": "アサヒガラス カブシキガイシヤ キタキユウシユウコウジヨウ"
  },
  "8538": {
    "postcode": "8048538",
    "prefecture": "福岡県",
    "prefecture_kana": "フクオカケン",
    "prefecture_code": 40,
    "city": "北九州市戸畑区",
    "city_kana": "キタキュウシュウシトバタク",
    "town": "大字中原",
    "town_kana": null,
    "street": "先の浜４６−５１先の浜ビル",
    "office_name": "山九　株式会社　八幡支店",
    "office_name_kana": "サンキユウ カブシキガイシヤ ヤハタシテン"
  },
  "8539": {
    "postcode": "8048539",
    "prefecture": "福岡県",
    "prefecture_kana": "フクオカケン",
    "prefecture_code": 40,
    "city": "北九州市戸畑区",
    "city_kana": "キタキュウシュウシトバタク",
    "town": "大字中原",
    "town_kana": null,
    "street": "先の浜４６−５１先の浜ビル４Ｆ",
    "office_name": "山九　株式会社　北九州支店",
    "office_name_kana": "サンキユウ カブシキガイシヤ キタキユウシユウシテン"
  },
  "8550": {
    "postcode": "8048550",
    "prefecture": "福岡県",
    "prefecture_kana": "フクオカケン",
    "prefecture_code": 40,
    "city": "北九州市戸畑区",
    "city_kana": "キタキュウシュウシトバタク",
    "town": "仙水町",
    "town_kana": "センスイチョウ",
    "street": "１−１",
    "office_name": "九州工業大学",
    "office_name_kana": "キユウシユウコウギヨウダイガク"
  },
  "8558": {
    "postcode": "8048558",
    "prefecture": "福岡県",
    "prefecture_kana": "フクオカケン",
    "prefecture_code": 40,
    "city": "北九州市戸畑区",
    "city_kana": "キタキュウシュウシトバタク",
    "town": "仙水町",
    "town_kana": "センスイチョウ",
    "street": "５−１",
    "office_name": "学校法人　明治学園",
    "office_name_kana": "ガツコウホウジン メイジガクエン"
  },
  "8560": {
    "postcode": "8048560",
    "prefecture": "福岡県",
    "prefecture_kana": "フクオカケン",
    "prefecture_code": 40,
    "city": "北九州市戸畑区",
    "city_kana": "キタキュウシュウシトバタク",
    "town": "大字戸畑",
    "town_kana": null,
    "street": "４６４−２３",
    "office_name": "日鉄テックスエンジ　株式会社　八幡支店",
    "office_name_kana": "ニツテツテツクスエンジ カブシキガイシヤ ヤハタシテン"
  },
  "8577": {
    "postcode": "8048577",
    "prefecture": "福岡県",
    "prefecture_kana": "フクオカケン",
    "prefecture_code": 40,
    "city": "北九州市戸畑区",
    "city_kana": "キタキュウシュウシトバタク",
    "town": "川代",
    "town_kana": "カワシロ",
    "street": "２丁目３−６",
    "office_name": "日本水産　株式会社　戸畑工場",
    "office_name_kana": "ニツポンスイサン カブシキガイシヤ トバタコウジヨウ"
  },
  "8588": {
    "postcode": "8048588",
    "prefecture": "福岡県",
    "prefecture_kana": "フクオカケン",
    "prefecture_code": 40,
    "city": "北九州市戸畑区",
    "city_kana": "キタキュウシュウシトバタク",
    "town": "大字中原",
    "town_kana": null,
    "street": "４６−５９",
    "office_name": "日鉄テックスエンジ　株式会社　八幡電計事業センター",
    "office_name_kana": "ニツテツテツクスエンジ カブシキガイシヤ ヤハタデンケイジギヨウセンタ-"
  },
  "8601": {
    "postcode": "8048601",
    "prefecture": "福岡県",
    "prefecture_kana": "フクオカケン",
    "prefecture_code": 40,
    "city": "北九州市戸畑区",
    "city_kana": "キタキュウシュウシトバタク",
    "town": "銀座",
    "town_kana": "ギンザ",
    "street": "２丁目９−３",
    "office_name": "東洋製罐　株式会社　戸畑工場",
    "office_name_kana": "トウヨウセイカン カブシキガイシヤ トバタコウジヨウ"
  }
}