{
  "0000": {
    "postcode": "8060000",
    "prefecture": "福岡県",
    "prefecture_kana": "フクオカケン",
    "prefecture_code": 40,
    "city": "北九州市八幡西区",
    "city_kana": "キタキュウシュウシヤハタニシク",
    "town": "",
    "town_kana": "",
    "street": null,
    "office_name": null,
    "office_name_kana": null
  },
  "0001": {
    "postcode": "8060001",
    "prefecture": "福岡県",
    "prefecture_kana": "フクオカケン",
    "prefecture_code": 40,
    "city": "北九州市八幡西区",
    "city_kana": "キタキュウシュウシヤハタニシク",
    "town": "築地町",
    "town_kana": "ツキジマチ",
    "street": null,
    "office_name": null,
    "office_name_kana": null
  },
  "0002": {
    "postcode": "8060002",
    "prefecture": "福岡県",
    "prefecture_kana": "フクオカケン",
    "prefecture_code": 40,
    "city": "北九州市八幡西区",
    "city_kana": "キタキュウシュウシヤハタニシク",
    "town": "東浜町",
    "town_kana": "ヒガシハママチ",
    "street": null,
    "office_name": null,
    "office_name_kana": null
  },
  "0003": {
    "postcode": "8060003",
    "prefecture": "福岡県",
    "prefecture_kana": "フクオカケン",
    "prefecture_code": 40,
    "city": "北九州市八幡西区",
    "city_kana": "キタキュウシュウシヤハタニシク",
    "town": "田町",
    "town_kana": "タマチ",
    "street": null,
    "office_name": null,
    "office_name_kana": null
  },
  "0004": {
    "postcode": "8060004",
    "prefecture": "福岡県",
    "prefecture_kana": "フクオカケン",
    "prefecture_code": 40,
    "city": "北九州市八幡西区",
    "city_kana": "キタキュウシュウシヤハタニシク",
    "town": "黒崎城石",
    "town_kana": "クロサキシロイシ",
    "street": null,
    "office_name": null,
    "office_name_kana": null
  },
  "0005": {
    "postcode": "8060005",
    "prefecture": "福岡県",
    "prefecture_kana": "フクオカケン",
    "prefecture_code": 40,
    "city": "北九州市八幡西区",
    "city_kana": "キタキュウシュウシヤハタニシク",
    "town": "舟町",
    "town_kana": "フナマチ",
    "street": null,
    "office_name": null,
    "office_name_kana": null
  },
  "0006": {
    "postcode": "8060006",
    "prefecture": "福岡県",
    "prefecture_kana": "フクオカケン",
    "prefecture_code": 40,
    "city": "北九州市八幡西区",
    "city_kana": "キタキュウシュウシヤハタニシク",
    "town": "屋敷",
    "town_kana": "ヤシキ",
    "street": null,
    "office_name": null,
    "office_name_kana": null
  },
  "0011": {
    "postcode": "8060011",
    "prefecture": "福岡県",
    "prefecture_kana": "フクオカケン",
    "prefecture_code": 40,
    "city": "北九州市八幡西区",
    "city_kana": "キタキュウシュウシヤハタニシク",
    "town": "紅梅",
    "town_kana": "コウバイ",
    "street": null,
    "office_name": null,
    "office_name_kana": null
  },
  "0012": {
    "postcode": "8060012",
    "prefecture": "福岡県",
    "prefecture_kana": "フクオカケン",
    "prefecture_code": 40,
    "city": "北九州市八幡西区",
    "city_kana": "キタキュウシュウシヤハタニシク",
    "town": "陣山",
    "town_kana": "ジンヤマ",
    "street": null,
    "office_name": null,
    "office_name_kana": null
  },
  "0013": {
    "postcode": "8060013",
    "prefecture": "福岡県",
    "prefecture_kana": "フクオカケン",
    "prefecture_code": 40,
    "city": "北九州市八幡西区",
    "city_kana": "キタキュウシュウシヤハタニシク",
    "town": "清納",
    "town_kana": "セイノウ",
    "street": null,
    "office_name": null,
    "office_name_kana": null
  },
  "0014": {
    "postcode": "8060014",
    "prefecture": "福岡県",
    "prefecture_kana": "フクオカケン",
    "prefecture_code": 40,
    "city": "北九州市八幡西区",
    "city_kana": "キタキュウシュウシヤハタニシク",
    "town": "東川頭町",
    "town_kana": "ヒガシカワガシラマチ",
    "street": null,
    "office_name": null,
    "office_name_kana": null
  },
  "0015": {
    "postcode": "8060015",
    "prefecture": "福岡県",
    "prefecture_kana": "フクオカケン",
    "prefecture_code": 40,
    "city": "北九州市八幡西区",
    "city_kana": "キタキュウシュウシヤハタニシク",
    "town": "元城町",
    "town_kana": "モトシロマチ",
    "street": null,
    "office_name": null,
    "office_name_kana": null
  },
  "0016": {
    "postcode": "8060016",
    "prefecture": "福岡県",
    "prefecture_kana": "フクオカケン",
    "prefecture_code": 40,
    "city": "北九州市八幡西区",
    "city_kana": "キタキュウシュウシヤハタニシク",
    "town": "河桃町",
    "town_kana": "コウトウマチ",
    "street": null,
    "office_name": null,
    "office_name_kana": null
  },
  "0017": {
    "postcode": "8060017",
    "prefecture": "福岡県",
    "prefecture_kana": "フクオカケン",
    "prefecture_code": 40,
    "city": "北九州市八幡西区",
    "city_kana": "キタキュウシュウシヤハタニシク",
    "town": "西川頭町",
    "town_kana": "ニシカワガシラマチ",
    "street": null,
    "office_name": null,
    "office_name_kana": null
  },
  "0018": {
    "postcode": "8060018",
    "prefecture": "福岡県",
    "prefecture_kana": "フクオカケン",
    "prefecture_code": 40,
    "city": "北九州市八幡西区",
    "city_kana": "キタキュウシュウシヤハタニシク",
    "town": "平尾町",
    "town_kana": "ヒラオマチ",
    "street": null,
    "office_name": null,
    "office_name_kana": null
  },
  "0021": {
    "postcode": "8060021",
    "prefecture": "福岡県",
    "prefecture_kana": "フクオカケン",
    "prefecture_code": 40,
    "city": "北九州市八幡西区",
    "city_kana": "キタキュウシュウシヤハタニシク",
    "town": "黒崎",
    "town_kana": "クロサキ",
    "street": null,
    "office_name": null,
    "office_name_kana": null
  },
  "0022": {
    "postcode": "8060022",
    "prefecture": "福岡県",
    "prefecture_kana": "フクオカケン",
    "prefecture_code": 40,
    "city": "北九州市八幡西区",
    "city_kana": "キタキュウシュウシヤハタニシク",
    "town": "藤田",
    "town_kana": "フジタ",
    "street": null,
    "office_name": null,
    "office_name_kana": null
  },
  "0023": {
    "postcode": "8060023",
    "prefecture": "福岡県",
    "prefecture_kana": "フクオカケン",
    "prefecture_code": 40,
    "city": "北九州市八幡西区",
    "city_kana": "キタキュウシュウシヤハタニシク",
    "town": "八千代町",
    "town_kana": "ヤチヨマチ",
    "street": null,
    "office_name": null,
    "office_name_kana": null
  },
  "0024": {
    "postcode": "8060024",
    "prefecture": "福岡県",
    "prefecture_kana": "フクオカケン",
    "prefecture_code": 40,
    "city": "北九州市八幡西区",
    "city_kana": "キタキュウシュウシヤハタニシク",
    "town": "南八千代町",
    "town_kana": "ミナミヤチヨマチ",
    "street": null,
    "office_name": null,
    "office_name_kana": null
  },
  "0025": {
    "postcode": "8060025",
    "prefecture": "福岡県",
    "prefecture_kana": "フクオカケン",
    "prefecture_code": 40,
    "city": "北九州市八幡西区",
    "city_kana": "キタキュウシュウシヤハタニシク",
    "town": "東神原町",
    "town_kana": "ヒガシカンバラマチ",
    "street": null,
    "office_name": null,
    "office_name_kana": null
  },
  "0026": {
    "postcode": "8060026",
    "prefecture": "福岡県",
    "prefecture_kana": "フクオカケン",
    "prefecture_code": 40,
    "city": "北九州市八幡西区",
    "city_kana": "キタキュウシュウシヤハタニシク",
    "town": "西神原町",
    "town_kana": "ニシカンバラマチ",
    "street": null,
    "office_name": null,
    "office_name_kana": null
  },
  "0027": {
    "postcode": "8060027",
    "prefecture": "福岡県",
    "prefecture_kana": "フクオカケン",
    "prefecture_code": 40,
    "city": "北九州市八幡西区",
    "city_kana": "キタキュウシュウシヤハタニシク",
    "town": "菅原町",
    "town_kana": "スガワラマチ",
    "street": null,
    "office_name": null,
    "office_name_kana": null
  },
  "0028": {
    "postcode": "8060028",
    "prefecture": "福岡県",
    "prefecture_kana": "フクオカケン",
    "prefecture_code": 40,
    "city": "北九州市八幡西区",
    "city_kana": "キタキュウシュウシヤハタニシク",
    "town": "熊手",
    "town_kana": "クマデ",
    "street": null,
    "office_name": null,
    "office_name_kana": null
  },
  "0030": {
    "postcode": "8060030",
    "prefecture": "福岡県",
    "prefecture_kana": "フクオカケン",
    "prefecture_code": 40,
    "city": "北九州市八幡西区",
    "city_kana": "キタキュウシュウシヤハタニシク",
    "town": "山寺町",
    "town_kana": "ヤマデラマチ",
    "street": null,
    "office_name": null,
    "office_name_kana": null
  },
  "0031": {
    "postcode": "8060031",
    "prefecture": "福岡県",
    "prefecture_kana": "フクオカケン",
    "prefecture_code": 40,
    "city": "北九州市八幡西区",
    "city_kana": "キタキュウシュウシヤハタニシク",
    "town": "熊西",
    "town_kana": "クマニシ",
    "street": null,
    "office_name": null,
    "office_name_kana": null
  },
  "0032": {
    "postcode": "8060032",
    "prefecture": "福岡県",
    "prefecture_kana": "フクオカケン",
    "prefecture_code": 40,
    "city": "北九州市八幡西区",
    "city_kana": "キタキュウシュウシヤハタニシク",
    "town": "筒井町",
    "town_kana": "ツツイマチ",
    "street": null,
    "office_name": null,
    "office_name_kana": null
  },
  "0033": {
    "postcode": "8060033",
    "prefecture": "福岡県",
    "prefecture_kana": "フクオカケン",
    "prefecture_code": 40,
    "city": "北九州市八幡西区",
    "city_kana": "キタキュウシュウシヤハタニシク",
    "town": "岡田町",
    "town_kana": "オカダマチ",
    "street": null,
    "office_name": null,
    "office_name_kana": null
  },
  "0034": {
    "postcode": "8060034",
    "prefecture": "福岡県",
    "prefecture_kana": "フクオカケン",
    "prefecture_code": 40,
    "city": "北九州市八幡西区",
    "city_kana": "キタキュウシュウシヤハタニシク",
    "town": "岸の浦",
    "town_kana": "キシノウラ",
    "street": null,
    "office_name": null,
    "office_name_kana": null
  },
  "0035": {
    "postcode": "8060035",
    "prefecture": "福岡県",
    "prefecture_kana": "フクオカケン",
    "prefecture_code": 40,
    "city": "北九州市八幡西区",
    "city_kana": "キタキュウシュウシヤハタニシク",
    "town": "東曲里町",
    "town_kana": "ヒガシマガリマチ",
    "street": null,
    "office_name": null,
    "office_name_kana": null
  },
  "0036": {
    "postcode": "8060036",
    "prefecture": "福岡県",
    "prefecture_kana": "フクオカケン",
    "prefecture_code": 40,
    "city": "北九州市八幡西区",
    "city_kana": "キタキュウシュウシヤハタニシク",
    "town": "西曲里町",
    "town_kana": "ニシマガリマチ",
    "street": null,
    "office_name": null,
    "office_name_kana": null
  },
  "0037": {
    "postcode": "8060037",
    "prefecture": "福岡県",
    "prefecture_kana": "フクオカケン",
    "prefecture_code": 40,
    "city": "北九州市八幡西区",
    "city_kana": "キタキュウシュウシヤハタニシク",
    "town": "東王子町",
    "town_kana": "ヒガシオウジマチ",
    "street": null,
    "office_name": null,
    "office_name_kana": null
  },
  "0038": {
    "postcode": "8060038",
    "prefecture": "福岡県",
    "prefecture_kana": "フクオカケン",
    "prefecture_code": 40,
    "city": "北九州市八幡西区",
    "city_kana": "キタキュウシュウシヤハタニシク",
    "town": "南王子町",
    "town_kana": "ミナミオウジマチ",
    "street": null,
    "office_name": null,
    "office_name_kana": null
  },
  "0039": {
    "postcode": "8060039",
    "prefecture": "福岡県",
    "prefecture_kana": "フクオカケン",
    "prefecture_code": 40,
    "city": "北九州市八幡西区",
    "city_kana": "キタキュウシュウシヤハタニシク",
    "town": "西王子町",
    "town_kana": "ニシオウジマチ",
    "street": null,
    "office_name": null,
    "office_name_kana": null
  },
  "0041": {
    "postcode": "8060041",
    "prefecture": "福岡県",
    "prefecture_kana": "フクオカケン",
    "prefecture_code": 40,
    "city": "北九州市八幡西区",
    "city_kana": "キタキュウシュウシヤハタニシク",
    "town": "皇后崎町",
    "town_kana": "コウガサキマチ",
    "street": null,
    "office_name": null,
    "office_name_kana": null
  },
  "0042": {
    "postcode": "8060042",
    "prefecture": "福岡県",
    "prefecture_kana": "フクオカケン",
    "prefecture_code": 40,
    "city": "北九州市八幡西区",
    "city_kana": "キタキュウシュウシヤハタニシク",
    "town": "桜ケ丘町",
    "town_kana": "サクラガオカマチ",
    "street": null,
    "office_name": null,
    "office_name_kana": null
  },
  "0043": {
    "postcode": "8060043",
    "prefecture": "福岡県",
    "prefecture_kana": "フクオカケン",
    "prefecture_code": 40,
    "city": "北九州市八幡西区",
    "city_kana": "キタキュウシュウシヤハタニシク",
    "town": "青山",
    "town_kana": "アオヤマ",
    "street": null,
    "office_name": null,
    "office_name_kana": null
  },
  "0044": {
    "postcode": "8060044",
    "prefecture": "福岡県",
    "prefecture_kana": "フクオカケン",
    "prefecture_code": 40,
    "city": "北九州市八幡西区",
    "city_kana": "キタキュウシュウシヤハタニシク",
    "town": "相生町",
    "town_kana": "アイオイチョウ",
    "street": null,
    "office_name": null,
    "office_name_kana": null
  },
  "0045": {
    "postcode": "8060045",
    "prefecture": "福岡県",
    "prefecture_kana": "フクオカケン",
    "prefecture_code": 40,
    "city": "北九州市八幡西区",
    "city_kana": "キタキュウシュウシヤハタニシク",
    "town": "竹末",
    "town_kana": "タケスエ",
    "street": null,
    "office_name": null,
    "office_name_kana": null
  },
  "0046": {
    "postcode": "8060046",
    "prefecture": "福岡県",
    "prefecture_kana": "フクオカケン",
    "prefecture_code": 40,
    "city": "北九州市八幡西区",
    "city_kana": "キタキュウシュウシヤハタニシク",
    "town": "森下町",
    "town_kana": "モリシタマチ",
    "street": null,
    "office_name": null,
    "office_name_kana": null
  },
  "0047": {
    "postcode": "8060047",
    "prefecture": "福岡県",
    "prefecture_kana": "フクオカケン",
    "prefecture_code": 40,
    "city": "北九州市八幡西区",
    "city_kana": "キタキュウシュウシヤハタニシク",
    "town": "鷹の巣",
    "town_kana": "タカノス",
    "street": null,
    "office_name": null,
    "office_name_kana": null
  },
  "0048": {
    "postcode": "8060048",
    "prefecture": "福岡県",
    "prefecture_kana": "フクオカケン",
    "prefecture_code": 40,
    "city": "北九州市八幡西区",
    "city_kana": "キタキュウシュウシヤハタニシク",
    "town": "樋口町",
    "town_kana": "ヒグチマチ",
    "street": null,
    "office_name": null,
    "office_name_kana": null
  },
  "0049": {
    "postcode": "8060049",
    "prefecture": "福岡県",
    "prefecture_kana": "フクオカケン",
    "prefecture_code": 40,
    "city": "北九州市八幡西区",
    "city_kana": "キタキュウシュウシヤハタニシク",
    "town": "穴生",
    "town_kana": "アノオ",
    "street": null,
    "office_name": null,
    "office_name_kana": null
  },
  "0051": {
    "postcode": "8060051",
    "prefecture": "福岡県",
    "prefecture_kana": "フクオカケン",
    "prefecture_code": 40,
    "city": "北九州市八幡西区",
    "city_kana": "キタキュウシュウシヤハタニシク",
    "town": "東鳴水",
    "town_kana": "ヒガシナルミズ",
    "street": null,
    "office_name": null,
    "office_name_kana": null
  },
  "0052": {
    "postcode": "8060052",
    "prefecture": "福岡県",
    "prefecture_kana": "フクオカケン",
    "prefecture_code": 40,
    "city": "北九州市八幡西区",
    "city_kana": "キタキュウシュウシヤハタニシク",
    "town": "鳴水町",
    "town_kana": "ナルミズマチ",
    "street": null,
    "office_name": null,
    "office_name_kana": null
  },
  "0053": {
    "postcode": "8060053",
    "prefecture": "福岡県",
    "prefecture_kana": "フクオカケン",
    "prefecture_code": 40,
    "city": "北九州市八幡西区",
    "city_kana": "キタキュウシュウシヤハタニシク",
    "town": "大畑町",
    "town_kana": "オオハタマチ",
    "street": null,
    "office_name": null,
    "office_name_kana": null
  },
  "0054": {
    "postcode": "8060054",
    "prefecture": "福岡県",
    "prefecture_kana": "フクオカケン",
    "prefecture_code": 40,
    "city": "北九州市八幡西区",
    "city_kana": "キタキュウシュウシヤハタニシク",
    "town": "西鳴水",
    "town_kana": "ニシナルミズ",
    "street": null,
    "office_name": null,
    "office_name_kana": null
  },
  "0055": {
    "postcode": "8060055",
    "prefecture": "福岡県",
    "prefecture_kana": "フクオカケン",
    "prefecture_code": 40,
    "city": "北九州市八幡西区",
    "city_kana": "キタキュウシュウシヤハタニシク",
    "town": "幸神",
    "town_kana": "サイノカミ",
    "street": null,
    "office_name": null,
    "office_name_kana": null
  },
  "0056": {
    "postcode": "8060056",
    "prefecture": "福岡県",
    "prefecture_kana": "フクオカケン",
    "prefecture_code": 40,
    "city": "北九州市八幡西区",
    "city_kana": "キタキュウシュウシヤハタニシク",
    "town": "小鷺田町",
    "town_kana": "コサギダマチ",
    "street": null,
    "office_name": null,
    "office_name_kana": null
  },
  "0057": {
    "postcode": "8060057",
    "prefecture": "福岡県",
    "prefecture_kana": "フクオカケン",
    "prefecture_code": 40,
    "city": "北九州市八幡西区",
    "city_kana": "キタキュウシュウシヤハタニシク",
    "town": "鉄王",
    "town_kana": "テツオウ",
    "street": null,
    "office_name": null,
    "office_name_kana": null
  },
  "0058": {
    "postcode": "8060058",
    "prefecture": "福岡県",
    "prefecture_kana": "フクオカケン",
    "prefecture_code": 40,
    "city": "北九州市八幡西区",
    "city_kana": "キタキュウシュウシヤハタニシク",
    "town": "鉄竜",
    "town_kana": "テツリュウ",
    "street": null,
    "office_name": null,
    "office_name_kana": null
  },
  "0059": {
    "postcode": "8060059",
    "prefecture": "福岡県",
    "prefecture_kana": "フクオカケン",
    "prefecture_code": 40,
    "city": "北九州市八幡西区",
    "city_kana": "キタキュウシュウシヤハタニシク",
    "town": "萩原",
    "town_kana": "ハギワラ",
    "street": null,
    "office_name": null,
    "office_name_kana": null
  },
  "0061": {
    "postcode": "8060061",
    "prefecture": "福岡県",
    "prefecture_kana": "フクオカケン",
    "prefecture_code": 40,
    "city": "北九州市八幡西区",
    "city_kana": "キタキュウシュウシヤハタニシク",
    "town": "京良城町",
    "town_kana": "キョウラギマチ",
    "street": null,
    "office_name": null,
    "office_name_kana": null
  },
  "0062": {
    "postcode": "8060062",
    "prefecture": "福岡県",
    "prefecture_kana": "フクオカケン",
    "prefecture_code": 40,
    "city": "北九州市八幡西区",
    "city_kana": "キタキュウシュウシヤハタニシク",
    "town": "別当町",
    "town_kana": "ベットウマチ",
    "street": null,
    "office_name": null,
    "office_name_kana": null
  },
  "0063": {
    "postcode": "8060063",
    "prefecture": "福岡県",
    "prefecture_kana": "フクオカケン",
    "prefecture_code": 40,
    "city": "北九州市八幡西区",
    "city_kana": "キタキュウシュウシヤハタニシク",
    "town": "市瀬",
    "town_kana": "イチノセ",
    "street": null,
    "office_name": null,
    "office_name_kana": null
  },
  "0064": {
    "postcode": "8060064",
    "prefecture": "福岡県",
    "prefecture_kana": "フクオカケン",
    "prefecture_code": 40,
    "city": "北九州市八幡西区",
    "city_kana": "キタキュウシュウシヤハタニシク",
    "town": "割子川",
    "town_kana": "ワリコガワ",
    "street": null,
    "office_name": null,
    "office_name_kana": null
  },
  "0065": {
    "postcode": "8060065",
    "prefecture": "福岡県",
    "prefecture_kana": "フクオカケン",
    "prefecture_code": 40,
    "city": "北九州市八幡西区",
    "city_kana": "キタキュウシュウシヤハタニシク",
    "town": "養福寺町",
    "town_kana": "ヨウフクジマチ",
    "street": null,
    "office_name": null,
    "office_name_kana": null
  },
  "0066": {
    "postcode": "8060066",
    "prefecture": "福岡県",
    "prefecture_kana": "フクオカケン",
    "prefecture_code": 40,
    "city": "北九州市八幡西区",
    "city_kana": "キタキュウシュウシヤハタニシク",
    "town": "若葉",
    "town_kana": "ワカバ",
    "street": null,
    "office_name": null,
    "office_name_kana": null
  },
  "0067": {
    "postcode": "8060067",
    "prefecture": "福岡県",
    "prefecture_kana": "フクオカケン",
    "prefecture_code": 40,
    "city": "北九州市八幡西区",
    "city_kana": "キタキュウシュウシヤハタニシク",
    "town": "引野",
    "town_kana": "ヒキノ",
    "street": null,
    "office_name": null,
    "office_name_kana": null
  },
  "0068": {
    "postcode": "8060068",
    "prefecture": "福岡県",
    "prefecture_kana": "フクオカケン",
    "prefecture_code": 40,
    "city": "北九州市八幡西区",
    "city_kana": "キタキュウシュウシヤハタニシク",
    "town": "別所町",
    "town_kana": "ベッショマチ",
    "street": null,
    "office_name": null,
    "office_name_kana": null
  },
  "0069": {
    "postcode": "8060069",
    "prefecture": "福岡県",
    "prefecture_kana": "フクオカケン",
    "prefecture_code": 40,
    "city": "北九州市八幡西区",
    "city_kana": "キタキュウシュウシヤハタニシク",
    "town": "茶売町",
    "town_kana": "チャウリマチ",
    "street": null,
    "office_name": null,
    "office_name_kana": null
  },
  "8501": {
    "postcode": "8068501",
    "prefecture": "福岡県",
    "prefecture_kana": "フクオカケン",
    "prefecture_code": 40,
    "city": "北九州市八幡西区",
    "city_kana": "キタキュウシュウシヤハタニシク",
    "town": "岸の浦",
    "town_kana": "キシノウラ",
    "street": "１丁目８−１",
    "office_name": "九州厚生年金病院",
    "office_name_kana": "キユウシユウコウセイネンキンビヨウイン"
  },
  "8509": {
    "postcode": "8068509",
    "prefecture": "福岡県",
    "prefecture_kana": "フクオカケン",
    "prefecture_code": 40,
    "city": "北九州市八幡西区",
    "city_kana": "キタキュウシュウシヤハタニシク",
    "town": "岸の浦",
    "town_kana": "キシノウラ",
    "street": "１丁目５−１０",
    "office_name": "八幡公共職業安定所",
    "office_name_kana": "ヤハタコウキヨウシヨクギヨウアンテイシヨ"
  },
  "8510": {
    "postcode": "8068510",
    "prefecture": "福岡県",
    "prefecture_kana": "フクオカケン",
    "prefecture_code": 40,
    "city": "北九州市八幡西区",
    "city_kana": "キタキュウシュウシヤハタニシク",
    "town": "黒崎",
    "town_kana": "クロサキ",
    "street": "３丁目１５番３号",
    "office_name": "北九州市　八幡西区役所",
    "office_name_kana": "キタキユウシユウシ ヤハタニシクヤクシヨ"
  },
  "8511": {
    "postcode": "8068511",
    "prefecture": "福岡県",
    "prefecture_kana": "フクオカケン",
    "prefecture_code": 40,
    "city": "北九州市八幡西区",
    "city_kana": "キタキュウシュウシヤハタニシク",
    "town": "黒崎",
    "town_kana": "クロサキ",
    "street": "１丁目１−１",
    "office_name": "株式会社　井筒屋　黒崎店",
    "office_name_kana": "カブシキガイシヤ イヅツヤ クロサキテン"
  },
  "8540": {
    "postcode": "8068540",
    "prefecture": "福岡県",
    "prefecture_kana": "フクオカケン",
    "prefecture_code": 40,
    "city": "北九州市八幡西区",
    "city_kana": "キタキュウシュウシヤハタニシク",
    "town": "岸の浦",
    "town_kana": "キシノウラ",
    "street": "１丁目５−１０",
    "office_name": "北九州西労働基準監督署",
    "office_name_kana": "キタキユウシユウニシロウドウキジユンカントクシヨ"
  },
  "8543": {
    "postcode": "8068543",
    "prefecture": "福岡県",
    "prefecture_kana": "フクオカケン",
    "prefecture_code": 40,
    "city": "北九州市八幡西区",
    "city_kana": "キタキュウシュウシヤハタニシク",
    "town": "黒崎",
    "town_kana": "クロサキ",
    "street": "１丁目１−１",
    "office_name": "株式会社　メイト黒崎",
    "office_name_kana": "カブシキガイシヤ メイトクロサキ"
  },
  "8555": {
    "postcode": "8068555",
    "prefecture": "福岡県",
    "prefecture_kana": "フクオカケン",
    "prefecture_code": 40,
    "city": "北九州市八幡西区",
    "city_kana": "キタキュウシュウシヤハタニシク",
    "town": "岸の浦",
    "town_kana": "キシノウラ",
    "street": "１丁目５−５",
    "office_name": "八幡社会保険事務所",
    "office_name_kana": "ヤハタシヤカイホケンジムシヨ"
  },
  "8558": {
    "postcode": "8068558",
    "prefecture": "福岡県",
    "prefecture_kana": "フクオカケン",
    "prefecture_code": 40,
    "city": "北九州市八幡西区",
    "city_kana": "キタキュウシュウシヤハタニシク",
    "town": "青山",
    "town_kana": "アオヤマ",
    "street": "３丁目３−１",
    "office_name": "学校法人　能美学園　星琳高等学校",
    "office_name_kana": "ガツコウホウジン ノウミガクエン セイリンコウトウガツコウ"
  },
  "8567": {
    "postcode": "8068567",
    "prefecture": "福岡県",
    "prefecture_kana": "フクオカケン",
    "prefecture_code": 40,
    "city": "北九州市八幡西区",
    "city_kana": "キタキュウシュウシヤハタニシク",
    "town": "築地町",
    "town_kana": "ツキジマチ",
    "street": "１−１",
    "office_name": "株式会社　高田工業所",
    "office_name_kana": "カブシキガイシヤ タカダコウギヨウシヨ"
  },
  "8570": {
    "postcode": "8068570",
    "prefecture": "福岡県",
    "prefecture_kana": "フクオカケン",
    "prefecture_code": 40,
    "city": "北九州市八幡西区",
    "city_kana": "キタキュウシュウシヤハタニシク",
    "town": "黒崎",
    "town_kana": "クロサキ",
    "street": "３丁目１−７",
    "office_name": "国民生活金融公庫　八幡支店",
    "office_name_kana": "コクミンセイカツキンユウコウコ ヤハタシテン"
  },
  "8585": {
    "postcode": "8068585",
    "prefecture": "福岡県",
    "prefecture_kana": "フクオカケン",
    "prefecture_code": 40,
    "city": "北九州市八幡西区",
    "city_kana": "キタキュウシュウシヤハタニシク",
    "town": "東曲里町",
    "town_kana": "ヒガシマガリマチ",
    "street": "３−１",
    "office_name": "ホテルクラウンパレス",
    "office_name_kana": "ホテルクラウンパレス"
  },
  "8586": {
    "postcode": "8068586",
    "prefecture": "福岡県",
    "prefecture_kana": "フクオカケン",
    "prefecture_code": 40,
    "city": "北九州市八幡西区",
    "city_kana": "キタキュウシュウシヤハタニシク",
    "town": "東浜町",
    "town_kana": "ヒガシハママチ",
    "street": "１−１",
    "office_name": "黒崎播磨　株式会社",
    "office_name_kana": "クロサキハリマ カブシキガイシヤ"
  },
  "8612": {
    "postcode": "8068612",
    "prefecture": "福岡県",
    "prefecture_kana": "フクオカケン",
    "prefecture_code": 40,
    "city": "北九州市八幡西区",
    "city_kana": "キタキュウシュウシヤハタニシク",
    "town": "黒崎",
    "town_kana": "クロサキ",
    "street": "１丁目３−１８（八幡西郵便局私書箱第１２号）",
    "office_name": "株式会社　西日本シティ銀行　黒崎中央支店",
    "office_name_kana": "カブシキガイシヤ ニシニホンシテイギンコウ クロサキチユウオウシテン"
  },
  "8666": {
    "postcode": "8068666",
    "prefecture": "福岡県",
    "prefecture_kana": "フクオカケン",
    "prefecture_code": 40,
    "city": "北九州市八幡西区",
    "city_kana": "キタキュウシュウシヤハタニシク",
    "town": "黒崎",
    "town_kana": "クロサキ",
    "street": "１丁目４−１（八幡西郵便局私書箱第２４号）",
    "office_name": "株式会社　山口銀行　八幡支店",
    "office_name_kana": "カブシキガイシヤ ヤマグチギンコウ ヤハタシテン"
  },
  "8679": {
    "postcode": "8068679",
    "prefecture": "福岡県",
    "prefecture_kana": "フクオカケン",
    "prefecture_code": 40,
    "city": "北九州市八幡西区",
    "city_kana": "キタキュウシュウシヤハタニシク",
    "town": "黒崎",
    "town_kana": "クロサキ",
    "street": "１丁目５−１７（八幡西郵便局私書箱第２６号）",
    "office_name": "株式会社　西日本シティ銀行　黒崎支店",
    "office_name_kana": "カブシキガイシヤ ニシニホンシテイギンコウ クロサキシテン"
  },
  "8686": {
    "postcode": "8068686",
    "prefecture": "福岡県",
    "prefecture_kana": "フクオカケン",
    "prefecture_code": 40,
    "city": "北九州市八幡西区",
    "city_kana": "キタキュウシュウシヤハタニシク",
    "town": "黒崎",
    "town_kana": "クロサキ",
    "street": "３丁目２−２（八幡西郵便局私書箱第１８号）",
    "office_name": "株式会社　福岡銀行　黒崎支店",
    "office_name_kana": "カブシキガイシヤ フクオカギンコウ クロサキシテン"
  }
}