{
  "0000": {
    "postcode": "8130000",
    "prefecture": "福岡県",
    "prefecture_kana": "フクオカケン",
    "prefecture_code": 40,
    "city": "福岡市東区",
    "city_kana": "フクオカシヒガシク",
    "town": "",
    "town_kana": "",
    "street": null,
    "office_name": null,
    "office_name_kana": null
  },
  "0001": {
    "postcode": "8130001",
    "prefecture": "福岡県",
    "prefecture_kana": "フクオカケン",
    "prefecture_code": 40,
    "city": "福岡市東区",
    "city_kana": "フクオカシヒガシク",
    "town": "唐原",
    "town_kana": "トウノハル",
    "street": null,
    "office_name": null,
    "office_name_kana": null
  },
  "0002": {
    "postcode": "8130002",
    "prefecture": "福岡県",
    "prefecture_kana": "フクオカケン",
    "prefecture_code": 40,
    "city": "福岡市東区",
    "city_kana": "フクオカシヒガシク",
    "town": "下原",
    "town_kana": "シモバル",
    "street": null,
    "office_name": null,
    "office_name_kana": null
  },
  "0003": {
    "postcode": "8130003",
    "prefecture": "福岡県",
    "prefecture_kana": "フクオカケン",
    "prefecture_code": 40,
    "city": "福岡市東区",
    "city_kana": "フクオカシヒガシク",
    "town": "香住ヶ丘",
    "town_kana": "カスミガオカ",
    "street": null,
    "office_name": null,
    "office_name_kana": null
  },
  "0004": {
    "postcode": "8130004",
    "prefecture": "福岡県",
    "prefecture_kana": "フクオカケン",
    "prefecture_code": 40,
    "city": "福岡市東区",
    "city_kana": "フクオカシヒガシク",
    "town": "松香台",
    "town_kana": "マツカダイ",
    "street": null,
    "office_name": null,
    "office_name_kana": null
  },
  "0005": {
    "postcode": "8130005",
    "prefecture": "福岡県",
    "prefecture_kana": "フクオカケン",
    "prefecture_code": 40,
    "city": "福岡市東区",
    "city_kana": "フクオカシヒガシク",
    "town": "御島崎",
    "town_kana": "ミシマザキ",
    "street": null,
    "office_name": null,
    "office_name_kana": null
  },
  "0008": {
    "postcode": "8130008",
    "prefecture": "福岡県",
    "prefecture_kana": "フクオカケン",
    "prefecture_code": 40,
    "city": "糟屋郡粕屋町",
    "city_kana": "カスヤグンカスヤマチ",
    "town": "内橋西",
    "town_kana": "ウチハシニシ",
    "street": null,
    "office_name": null,
    "office_name_kana": null
  },
  "0011": {
    "postcode": "8130011",
    "prefecture": "福岡県",
    "prefecture_kana": "フクオカケン",
    "prefecture_code": 40,
    "city": "福岡市東区",
    "city_kana": "フクオカシヒガシク",
    "town": "香椎",
    "town_kana": "カシイ",
    "street": null,
    "office_name": null,
    "office_name_kana": null
  },
  "0012": {
    "postcode": "8130012",
    "prefecture": "福岡県",
    "prefecture_kana": "フクオカケン",
    "prefecture_code": 40,
    "city": "福岡市東区",
    "city_kana": "フクオカシヒガシク",
    "town": "香椎駅東",
    "town_kana": "カシイエキヒガシ",
    "street": null,
    "office_name": null,
    "office_name_kana": null
  },
  "0013": {
    "postcode": "8130013",
    "prefecture": "福岡県",
    "prefecture_kana": "フクオカケン",
    "prefecture_code": 40,
    "city": "福岡市東区",
    "city_kana": "フクオカシヒガシク",
    "town": "香椎駅前",
    "town_kana": "カシイエキマエ",
    "street": null,
    "office_name": null,
    "office_name_kana": null
  },
  "0014": {
    "postcode": "8130014",
    "prefecture": "福岡県",
    "prefecture_kana": "フクオカケン",
    "prefecture_code": 40,
    "city": "福岡市東区",
    "city_kana": "フクオカシヒガシク",
    "town": "香椎台",
    "town_kana": "カシイダイ",
    "street": null,
    "office_name": null,
    "office_name_kana": null
  },
  "0015": {
    "postcode": "8130015",
    "prefecture": "福岡県",
    "prefecture_kana": "フクオカケン",
    "prefecture_code": 40,
    "city": "福岡市東区",
    "city_kana": "フクオカシヒガシク",
    "town": "香椎団地",
    "town_kana": "カシイダンチ",
    "street": null,
    "office_name": null,
    "office_name_kana": null
  },
  "0016": {
    "postcode": "8130016",
    "prefecture": "福岡県",
    "prefecture_kana": "フクオカケン",
    "prefecture_code": 40,
    "city": "福岡市東区",
    "city_kana": "フクオカシヒガシク",
    "town": "香椎浜",
    "town_kana": "カシイハマ",
    "street": null,
    "office_name": null,
    "office_name_kana": null
  },
  "0017": {
    "postcode": "8130017",
    "prefecture": "福岡県",
    "prefecture_kana": "フクオカケン",
    "prefecture_code": 40,
    "city": "福岡市東区",
    "city_kana": "フクオカシヒガシク",
    "town": "香椎照葉",
    "town_kana": "カシイテリハ",
    "street": null,
    "office_name": null,
    "office_name_kana": null
  },
  "0018": {
    "postcode": "8130018",
    "prefecture": "福岡県",
    "prefecture_kana": "フクオカケン",
    "prefecture_code": 40,
    "city": "福岡市東区",
    "city_kana": "フクオカシヒガシク",
    "town": "香椎浜ふ頭",
    "town_kana": "カシイハマフトウ",
    "street": null,
    "office_name": null,
    "office_name_kana": null
  },
  "0019": {
    "postcode": "8130019",
    "prefecture": "福岡県",
    "prefecture_kana": "フクオカケン",
    "prefecture_code": 40,
    "city": "福岡市東区",
    "city_kana": "フクオカシヒガシク",
    "town": "みなと香椎",
    "town_kana": "ミナトカシイ",
    "street": null,
    "office_name": null,
    "office_name_kana": null
  },
  "0021": {
    "postcode": "8130021",
    "prefecture": "福岡県",
    "prefecture_kana": "フクオカケン",
    "prefecture_code": 40,
    "city": "福岡市東区",
    "city_kana": "フクオカシヒガシク",
    "town": "みどりが丘",
    "town_kana": "ミドリガオカ",
    "street": null,
    "office_name": null,
    "office_name_kana": null
  },
  "0023": {
    "postcode": "8130023",
    "prefecture": "福岡県",
    "prefecture_kana": "フクオカケン",
    "prefecture_code": 40,
    "city": "福岡市東区",
    "city_kana": "フクオカシヒガシク",
    "town": "蒲田",
    "town_kana": "カマタ",
    "street": null,
    "office_name": null,
    "office_name_kana": null
  },
  "0024": {
    "postcode": "8130024",
    "prefecture": "福岡県",
    "prefecture_kana": "フクオカケン",
    "prefecture_code": 40,
    "city": "福岡市東区",
    "city_kana": "フクオカシヒガシク",
    "town": "名子",
    "town_kana": "ナゴ",
    "street": null,
    "office_name": null,
    "office_name_kana": null
  },
  "0025": {
    "postcode": "8130025",
    "prefecture": "福岡県",
    "prefecture_kana": "フクオカケン",
    "prefecture_code": 40,
    "city": "福岡市東区",
    "city_kana": "フクオカシヒガシク",
    "town": "青葉",
    "town_kana": "アオバ",
    "street": null,
    "office_name": null,
    "office_name_kana": null
  },
  "0031": {
    "postcode": "8130031",
    "prefecture": "福岡県",
    "prefecture_kana": "フクオカケン",
    "prefecture_code": 40,
    "city": "福岡市東区",
    "city_kana": "フクオカシヒガシク",
    "town": "八田",
    "town_kana": "ハッタ",
    "street": null,
    "office_name": null,
    "office_name_kana": null
  },
  "0032": {
    "postcode": "8130032",
    "prefecture": "福岡県",
    "prefecture_kana": "フクオカケン",
    "prefecture_code": 40,
    "city": "福岡市東区",
    "city_kana": "フクオカシヒガシク",
    "town": "土井",
    "town_kana": "ドイ",
    "street": null,
    "office_name": null,
    "office_name_kana": null
  },
  "0033": {
    "postcode": "8130033",
    "prefecture": "福岡県",
    "prefecture_kana": "フクオカケン",
    "prefecture_code": 40,
    "city": "福岡市東区",
    "city_kana": "フクオカシヒガシク",
    "town": "多々良",
    "town_kana": "タタラ",
    "street": null,
    "office_name": null,
    "office_name_kana": null
  },
  "0034": {
    "postcode": "8130034",
    "prefecture": "福岡県",
    "prefecture_kana": "フクオカケン",
    "prefecture_code": 40,
    "city": "福岡市東区",
    "city_kana": "フクオカシヒガシク",
    "town": "多の津",
    "town_kana": "タノツ",
    "street": null,
    "office_name": null,
    "office_name_kana": null
  },
  "0035": {
    "postcode": "8130035",
    "prefecture": "福岡県",
    "prefecture_kana": "フクオカケン",
    "prefecture_code": 40,
    "city": "福岡市東区",
    "city_kana": "フクオカシヒガシク",
    "town": "松崎",
    "town_kana": "マツザキ",
    "street": null,
    "office_name": null,
    "office_name_kana": null
  },
  "0036": {
    "postcode": "8130036",
    "prefecture": "福岡県",
    "prefecture_kana": "フクオカケン",
    "prefecture_code": 40,
    "city": "福岡市東区",
    "city_kana": "フクオカシヒガシク",
    "town": "若宮",
    "town_kana": "ワカミヤ",
    "street": null,
    "office_name": null,
    "office_name_kana": null
  },
  "0041": {
    "postcode": "8130041",
    "prefecture": "福岡県",
    "prefecture_kana": "フクオカケン",
    "prefecture_code": 40,
    "city": "福岡市東区",
    "city_kana": "フクオカシヒガシク",
    "town": "水谷",
    "town_kana": "ミズタニ",
    "street": null,
    "office_name": null,
    "office_name_kana": null
  },
  "0042": {
    "postcode": "8130042",
    "prefecture": "福岡県",
    "prefecture_kana": "フクオカケン",
    "prefecture_code": 40,
    "city": "福岡市東区",
    "city_kana": "フクオカシヒガシク",
    "town": "舞松原",
    "town_kana": "マイマツバラ",
    "street": null,
    "office_name": null,
    "office_name_kana": null
  },
  "0043": {
    "postcode": "8130043",
    "prefecture": "福岡県",
    "prefecture_kana": "フクオカケン",
    "prefecture_code": 40,
    "city": "福岡市東区",
    "city_kana": "フクオカシヒガシク",
    "town": "名島",
    "town_kana": "ナジマ",
    "street": null,
    "office_name": null,
    "office_name_kana": null
  },
  "0044": {
    "postcode": "8130044",
    "prefecture": "福岡県",
    "prefecture_kana": "フクオカケン",
    "prefecture_code": 40,
    "city": "福岡市東区",
    "city_kana": "フクオカシヒガシク",
    "town": "千早",
    "town_kana": "チハヤ",
    "street": null,
    "office_name": null,
    "office_name_kana": null
  },
  "0045": {
    "postcode": "8130045",
    "prefecture": "福岡県",
    "prefecture_kana": "フクオカケン",
    "prefecture_code": 40,
    "city": "福岡市東区",
    "city_kana": "フクオカシヒガシク",
    "town": "城浜団地",
    "town_kana": "シロハマダンチ",
    "street": null,
    "office_name": null,
    "office_name_kana": null
  },
  "0062": {
    "postcode": "8130062",
    "prefecture": "福岡県",
    "prefecture_kana": "フクオカケン",
    "prefecture_code": 40,
    "city": "福岡市東区",
    "city_kana": "フクオカシヒガシク",
    "town": "松島",
    "town_kana": "マツシマ",
    "street": null,
    "office_name": null,
    "office_name_kana": null
  },
  "8501": {
    "postcode": "8138501",
    "prefecture": "福岡県",
    "prefecture_kana": "フクオカケン",
    "prefecture_code": 40,
    "city": "福岡市東区",
    "city_kana": "フクオカシヒガシク",
    "town": "千早",
    "town_kana": "チハヤ",
    "street": "２丁目３０−１",
    "office_name": "国家公務員等共済組合連合会　千早病院",
    "office_name_kana": "コツカコウムイントウキヨウサイクミアイレンゴウカイ チハヤビヨウイン"
  },
  "8503": {
    "postcode": "8138503",
    "prefecture": "福岡県",
    "prefecture_kana": "フクオカケン",
    "prefecture_code": 40,
    "city": "福岡市東区",
    "city_kana": "フクオカシヒガシク",
    "town": "松香台",
    "town_kana": "マツカダイ",
    "street": "２丁目３−１",
    "office_name": "学校法人　中村産業学園　九州産業大学",
    "office_name_kana": "ガツコウホウジン ナカムラサンギヨウガクエン キユウシユウサンギヨウダイガク"
  },
  "8513": {
    "postcode": "8138513",
    "prefecture": "福岡県",
    "prefecture_kana": "フクオカケン",
    "prefecture_code": 40,
    "city": "福岡市東区",
    "city_kana": "フクオカシヒガシク",
    "town": "名島",
    "town_kana": "ナジマ",
    "street": "２丁目１９−１２",
    "office_name": "九州電力　株式会社　福岡東営業所",
    "office_name_kana": "キユウシユウデンリヨク カブシキガイシヤ フクオカヒガシエイギヨウシヨ"
  },
  "8519": {
    "postcode": "8138519",
    "prefecture": "福岡県",
    "prefecture_kana": "フクオカケン",
    "prefecture_code": 40,
    "city": "福岡市東区",
    "city_kana": "フクオカシヒガシク",
    "town": "多の津",
    "town_kana": "タノツ",
    "street": "１丁目７−１",
    "office_name": "商工組合中央金庫　福岡流通センター出張所",
    "office_name_kana": "シヨウコウクミアイチユウオウキンコ フクオカリユウツウセンタ-シユツチヨウシヨ"
  },
  "8529": {
    "postcode": "8138529",
    "prefecture": "福岡県",
    "prefecture_kana": "フクオカケン",
    "prefecture_code": 40,
    "city": "福岡市東区",
    "city_kana": "フクオカシヒガシク",
    "town": "香住ケ丘",
    "town_kana": null,
    "street": "１丁目１−１",
    "office_name": "福岡女子大学",
    "office_name_kana": "フクオカジヨシダイガク"
  },
  "8533": {
    "postcode": "8138533",
    "prefecture": "福岡県",
    "prefecture_kana": "フクオカケン",
    "prefecture_code": 40,
    "city": "福岡市東区",
    "city_kana": "フクオカシヒガシク",
    "town": "松島",
    "town_kana": "マツシマ",
    "street": "３丁目３０−２３",
    "office_name": "株式会社　ルルアーク",
    "office_name_kana": "カブシキガイシヤ ルルア-ク"
  },
  "8555": {
    "postcode": "8138555",
    "prefecture": "福岡県",
    "prefecture_kana": "フクオカケン",
    "prefecture_code": 40,
    "city": "福岡市東区",
    "city_kana": "フクオカシヒガシク",
    "town": "香椎浜ふ頭",
    "town_kana": "カシイハマフトウ",
    "street": "２丁目５番１号",
    "office_name": "株式会社　アトル",
    "office_name_kana": "カブシキガイシヤ アトル"
  },
  "8577": {
    "postcode": "8138577",
    "prefecture": "福岡県",
    "prefecture_kana": "フクオカケン",
    "prefecture_code": 40,
    "city": "福岡市東区",
    "city_kana": "フクオカシヒガシク",
    "town": "千早",
    "town_kana": "チハヤ",
    "street": "３丁目１０−４０",
    "office_name": "九州運輸局　福岡運輸支局",
    "office_name_kana": "キユウシユウウンユキヨク フクオカウンユシキヨク"
  },
  "8585": {
    "postcode": "8138585",
    "prefecture": "福岡県",
    "prefecture_kana": "フクオカケン",
    "prefecture_code": 40,
    "city": "福岡市東区",
    "city_kana": "フクオカシヒガシク",
    "town": "香椎浜ふ頭",
    "town_kana": "カシイハマフトウ",
    "street": "１丁目２−１７",
    "office_name": "アビスパ福岡　株式会社",
    "office_name_kana": "アビスパフクオカ カブシキガイシヤ"
  },
  "8588": {
    "postcode": "8138588",
    "prefecture": "福岡県",
    "prefecture_kana": "フクオカケン",
    "prefecture_code": 40,
    "city": "福岡市東区",
    "city_kana": "フクオカシヒガシク",
    "town": "青葉",
    "town_kana": "アオバ",
    "street": "６丁目４０−８",
    "office_name": "医療法人　原土井病院",
    "office_name_kana": "イリヨウホウジン ハラドイビヨウイン"
  },
  "8609": {
    "postcode": "8138609",
    "prefecture": "福岡県",
    "prefecture_kana": "フクオカケン",
    "prefecture_code": 40,
    "city": "福岡市東区",
    "city_kana": "フクオカシヒガシク",
    "town": "千早",
    "town_kana": "チハヤ",
    "street": "６丁目１番１号",
    "office_name": "福岡東公共職業安定所",
    "office_name_kana": "フクオカヒガシコウキヨウシヨクギヨウアンテイシヨ"
  },
  "8623": {
    "postcode": "8138623",
    "prefecture": "福岡県",
    "prefecture_kana": "フクオカケン",
    "prefecture_code": 40,
    "city": "福岡市東区",
    "city_kana": "フクオカシヒガシク",
    "town": "多の津",
    "town_kana": "タノツ",
    "street": "１丁目３９−４（福岡流通センター内郵便局私書箱第２３２号）",
    "office_name": "日産ディーゼル福岡販売　株式会社",
    "office_name_kana": "ニツサンデイ-ゼルフクオカハンバイ カブシキガイシヤ"
  },
  "8626": {
    "postcode": "8138626",
    "prefecture": "福岡県",
    "prefecture_kana": "フクオカケン",
    "prefecture_code": 40,
    "city": "福岡市東区",
    "city_kana": "フクオカシヒガシク",
    "town": "多の津",
    "town_kana": "タノツ",
    "street": "１丁目１０−５（福岡流通センター内郵便局私書箱第２６号）",
    "office_name": "ユニーク　株式会社",
    "office_name_kana": "ユニ-ク カブシキガイシヤ"
  },
  "8680": {
    "postcode": "8138680",
    "prefecture": "福岡県",
    "prefecture_kana": "フクオカケン",
    "prefecture_code": 40,
    "city": "福岡市東区",
    "city_kana": "フクオカシヒガシク",
    "town": "松島",
    "town_kana": "マツシマ",
    "street": "３丁目１１−１（福岡流通センター内郵便局私書箱第３１号）",
    "office_name": "株式会社トーホー　九州支店",
    "office_name_kana": "カブシキガイシヤト-ホ- キユウシユウシテン"
  },
  "8681": {
    "postcode": "8138681",
    "prefecture": "福岡県",
    "prefecture_kana": "フクオカケン",
    "prefecture_code": 40,
    "city": "福岡市東区",
    "city_kana": "フクオカシヒガシク",
    "town": "千早",
    "town_kana": "チハヤ",
    "street": "６丁目２−１（福岡東郵便局私書箱第８号）",
    "office_name": "香椎税務署",
    "office_name_kana": "カシイゼイムシヨ"
  }
}