{
  "0000": {
    "postcode": "8150000",
    "prefecture": "福岡県",
    "prefecture_kana": "フクオカケン",
    "prefecture_code": 40,
    "city": "福岡市南区",
    "city_kana": "フクオカシミナミク",
    "town": "",
    "town_kana": "",
    "street": null,
    "office_name": null,
    "office_name_kana": null
  },
  "0001": {
    "postcode": "8150001",
    "prefecture": "福岡県",
    "prefecture_kana": "フクオカケン",
    "prefecture_code": 40,
    "city": "福岡市南区",
    "city_kana": "フクオカシミナミク",
    "town": "五十川",
    "town_kana": "ゴジッカワ",
    "street": null,
    "office_name": null,
    "office_name_kana": null
  },
  "0004": {
    "postcode": "8150004",
    "prefecture": "福岡県",
    "prefecture_kana": "フクオカケン",
    "prefecture_code": 40,
    "city": "福岡市南区",
    "city_kana": "フクオカシミナミク",
    "town": "高木",
    "town_kana": "タカキ",
    "street": null,
    "office_name": null,
    "office_name_kana": null
  },
  "0031": {
    "postcode": "8150031",
    "prefecture": "福岡県",
    "prefecture_kana": "フクオカケン",
    "prefecture_code": 40,
    "city": "福岡市南区",
    "city_kana": "フクオカシミナミク",
    "town": "清水",
    "town_kana": "シミズ",
    "street": null,
    "office_name": null,
    "office_name_kana": null
  },
  "0032": {
    "postcode": "8150032",
    "prefecture": "福岡県",
    "prefecture_kana": "フクオカケン",
    "prefecture_code": 40,
    "city": "福岡市南区",
    "city_kana": "フクオカシミナミク",
    "town": "塩原",
    "town_kana": "シオバル",
    "street": null,
    "office_name": null,
    "office_name_kana": null
  },
  "0033": {
    "postcode": "8150033",
    "prefecture": "福岡県",
    "prefecture_kana": "フクオカケン",
    "prefecture_code": 40,
    "city": "福岡市南区",
    "city_kana": "フクオカシミナミク",
    "town": "大橋",
    "town_kana": "オオハシ",
    "street": null,
    "office_name": null,
    "office_name_kana": null
  },
  "0034": {
    "postcode": "8150034",
    "prefecture": "福岡県",
    "prefecture_kana": "フクオカケン",
    "prefecture_code": 40,
    "city": "福岡市南区",
    "city_kana": "フクオカシミナミク",
    "town": "南大橋",
    "town_kana": "ミナミオオハシ",
    "street": null,
    "office_name": null,
    "office_name_kana": null
  },
  "0035": {
    "postcode": "8150035",
    "prefecture": "福岡県",
    "prefecture_kana": "フクオカケン",
    "prefecture_code": 40,
    "city": "福岡市南区",
    "city_kana": "フクオカシミナミク",
    "town": "向野",
    "town_kana": "ムカイノ",
    "street": null,
    "office_name": null,
    "office_name_kana": null
  },
  "0036": {
    "postcode": "8150036",
    "prefecture": "福岡県",
    "prefecture_kana": "フクオカケン",
    "prefecture_code": 40,
    "city": "福岡市南区",
    "city_kana": "フクオカシミナミク",
    "town": "筑紫丘",
    "town_kana": "チクシガオカ",
    "street": null,
    "office_name": null,
    "office_name_kana": null
  },
  "0037": {
    "postcode": "8150037",
    "prefecture": "福岡県",
    "prefecture_kana": "フクオカケン",
    "prefecture_code": 40,
    "city": "福岡市南区",
    "city_kana": "フクオカシミナミク",
    "town": "玉川町",
    "town_kana": "タマガワマチ",
    "street": null,
    "office_name": null,
    "office_name_kana": null
  },
  "0038": {
    "postcode": "8150038",
    "prefecture": "福岡県",
    "prefecture_kana": "フクオカケン",
    "prefecture_code": 40,
    "city": "福岡市南区",
    "city_kana": "フクオカシミナミク",
    "town": "大橋団地",
    "town_kana": "オオハシダンチ",
    "street": null,
    "office_name": null,
    "office_name_kana": null
  },
  "0041": {
    "postcode": "8150041",
    "prefecture": "福岡県",
    "prefecture_kana": "フクオカケン",
    "prefecture_code": 40,
    "city": "福岡市南区",
    "city_kana": "フクオカシミナミク",
    "town": "野間",
    "town_kana": "ノマ",
    "street": null,
    "office_name": null,
    "office_name_kana": null
  },
  "0042": {
    "postcode": "8150042",
    "prefecture": "福岡県",
    "prefecture_kana": "フクオカケン",
    "prefecture_code": 40,
    "city": "福岡市南区",
    "city_kana": "フクオカシミナミク",
    "town": "若久",
    "town_kana": "ワカヒサ",
    "street": null,
    "office_name": null,
    "office_name_kana": null
  },
  "0048": {
    "postcode": "8150048",
    "prefecture": "福岡県",
    "prefecture_kana": "フクオカケン",
    "prefecture_code": 40,
    "city": "福岡市南区",
    "city_kana": "フクオカシミナミク",
    "town": "若久団地",
    "town_kana": "ワカヒサダンチ",
    "street": null,
    "office_name": null,
    "office_name_kana": null
  },
  "0063": {
    "postcode": "8150063",
    "prefecture": "福岡県",
    "prefecture_kana": "フクオカケン",
    "prefecture_code": 40,
    "city": "福岡市南区",
    "city_kana": "フクオカシミナミク",
    "town": "柳河内",
    "town_kana": "ヤナゴウチ",
    "street": null,
    "office_name": null,
    "office_name_kana": null
  },
  "0071": {
    "postcode": "8150071",
    "prefecture": "福岡県",
    "prefecture_kana": "フクオカケン",
    "prefecture_code": 40,
    "city": "福岡市南区",
    "city_kana": "フクオカシミナミク",
    "town": "平和",
    "town_kana": "ヘイワ",
    "street": null,
    "office_name": null,
    "office_name_kana": null
  },
  "0072": {
    "postcode": "8150072",
    "prefecture": "福岡県",
    "prefecture_kana": "フクオカケン",
    "prefecture_code": 40,
    "city": "福岡市南区",
    "city_kana": "フクオカシミナミク",
    "town": "多賀",
    "town_kana": "タガ",
    "street": null,
    "office_name": null,
    "office_name_kana": null
  },
  "0073": {
    "postcode": "8150073",
    "prefecture": "福岡県",
    "prefecture_kana": "フクオカケン",
    "prefecture_code": 40,
    "city": "福岡市南区",
    "city_kana": "フクオカシミナミク",
    "town": "大池",
    "town_kana": "オオイケ",
    "street": null,
    "office_name": null,
    "office_name_kana": null
  },
  "0074": {
    "postcode": "8150074",
    "prefecture": "福岡県",
    "prefecture_kana": "フクオカケン",
    "prefecture_code": 40,
    "city": "福岡市南区",
    "city_kana": "フクオカシミナミク",
    "town": "寺塚",
    "town_kana": "テラヅカ",
    "street": null,
    "office_name": null,
    "office_name_kana": null
  },
  "0075": {
    "postcode": "8150075",
    "prefecture": "福岡県",
    "prefecture_kana": "フクオカケン",
    "prefecture_code": 40,
    "city": "福岡市南区",
    "city_kana": "フクオカシミナミク",
    "town": "長丘",
    "town_kana": "ナガオカ",
    "street": null,
    "office_name": null,
    "office_name_kana": null
  },
  "0081": {
    "postcode": "8150081",
    "prefecture": "福岡県",
    "prefecture_kana": "フクオカケン",
    "prefecture_code": 40,
    "city": "福岡市南区",
    "city_kana": "フクオカシミナミク",
    "town": "那の川",
    "town_kana": "ナノカワ",
    "street": null,
    "office_name": null,
    "office_name_kana": null
  },
  "0082": {
    "postcode": "8150082",
    "prefecture": "福岡県",
    "prefecture_kana": "フクオカケン",
    "prefecture_code": 40,
    "city": "福岡市南区",
    "city_kana": "フクオカシミナミク",
    "town": "大楠",
    "town_kana": "オオグス",
    "street": null,
    "office_name": null,
    "office_name_kana": null
  },
  "0083": {
    "postcode": "8150083",
    "prefecture": "福岡県",
    "prefecture_kana": "フクオカケン",
    "prefecture_code": 40,
    "city": "福岡市南区",
    "city_kana": "フクオカシミナミク",
    "town": "高宮",
    "town_kana": "タカミヤ",
    "street": null,
    "office_name": null,
    "office_name_kana": null
  },
  "0084": {
    "postcode": "8150084",
    "prefecture": "福岡県",
    "prefecture_kana": "フクオカケン",
    "prefecture_code": 40,
    "city": "福岡市南区",
    "city_kana": "フクオカシミナミク",
    "town": "市崎",
    "town_kana": "イチザキ",
    "street": null,
    "office_name": null,
    "office_name_kana": null
  },
  "8501": {
    "postcode": "8158501",
    "prefecture": "福岡県",
    "prefecture_kana": "フクオカケン",
    "prefecture_code": 40,
    "city": "福岡市南区",
    "city_kana": "フクオカシミナミク",
    "town": "塩原",
    "town_kana": "シオバル",
    "street": "３丁目２５−１",
    "office_name": "福岡市　南区役所",
    "office_name_kana": "フクオカシ ミナミクヤクシヨ"
  },
  "8503": {
    "postcode": "8158503",
    "prefecture": "福岡県",
    "prefecture_kana": "フクオカケン",
    "prefecture_code": 40,
    "city": "福岡市南区",
    "city_kana": "フクオカシミナミク",
    "town": "大楠",
    "town_kana": "オオグス",
    "street": "３丁目１−１",
    "office_name": "日本赤十字社　福岡県支部",
    "office_name_kana": "ニホンセキジユウジシヤ フクオカケンシブ"
  },
  "8510": {
    "postcode": "8158510",
    "prefecture": "福岡県",
    "prefecture_kana": "フクオカケン",
    "prefecture_code": 40,
    "city": "福岡市南区",
    "city_kana": "フクオカシミナミク",
    "town": "筑紫丘",
    "town_kana": "チクシガオカ",
    "street": "１丁目１−１",
    "office_name": "学校法人　純真学園",
    "office_name_kana": "ガツコウホウジン ジユンシンガクエン"
  },
  "8511": {
    "postcode": "8158511",
    "prefecture": "福岡県",
    "prefecture_kana": "フクオカケン",
    "prefecture_code": 40,
    "city": "福岡市南区",
    "city_kana": "フクオカシミナミク",
    "town": "玉川町",
    "town_kana": "タマガワマチ",
    "street": "２２−１",
    "office_name": "第一薬科大学",
    "office_name_kana": "ダイイチヤツカダイガク"
  },
  "8520": {
    "postcode": "8158520",
    "prefecture": "福岡県",
    "prefecture_kana": "フクオカケン",
    "prefecture_code": 40,
    "city": "福岡市南区",
    "city_kana": "フクオカシミナミク",
    "town": "塩原",
    "town_kana": "シオバル",
    "street": "２丁目１番４７号",
    "office_name": "九州電力　株式会社　総合研究所",
    "office_name_kana": "キユウシユウデンリヨク カブシキガイシヤ ソウゴウケンキユウシヨ"
  },
  "8529": {
    "postcode": "8158529",
    "prefecture": "福岡県",
    "prefecture_kana": "フクオカケン",
    "prefecture_code": 40,
    "city": "福岡市南区",
    "city_kana": "フクオカシミナミク",
    "town": "大楠",
    "town_kana": "オオグス",
    "street": "２丁目９−１４",
    "office_name": "八洲産業　株式会社",
    "office_name_kana": "ヤシマサンギヨウカブシキガイシヤ"
  },
  "8533": {
    "postcode": "8158533",
    "prefecture": "福岡県",
    "prefecture_kana": "フクオカケン",
    "prefecture_code": 40,
    "city": "福岡市南区",
    "city_kana": "フクオカシミナミク",
    "town": "高宮",
    "town_kana": "タカミヤ",
    "street": "１丁目１−２０電算ビル",
    "office_name": "株式会社　ＦＣＣテクノ",
    "office_name_kana": "カブシキガイシヤ エフシ-シ-テクノ"
  },
  "8540": {
    "postcode": "8158540",
    "prefecture": "福岡県",
    "prefecture_kana": "フクオカケン",
    "prefecture_code": 40,
    "city": "福岡市南区",
    "city_kana": "フクオカシミナミク",
    "town": "塩原",
    "town_kana": "シオバル",
    "street": "４丁目９−１",
    "office_name": "九州大学　芸術工学部",
    "office_name_kana": "キユウシユウダイガク ゲイジユツコウガクブ"
  },
  "8546": {
    "postcode": "8158546",
    "prefecture": "福岡県",
    "prefecture_kana": "フクオカケン",
    "prefecture_code": 40,
    "city": "福岡市南区",
    "city_kana": "フクオカシミナミク",
    "town": "向野",
    "town_kana": "ムカイノ",
    "street": "１丁目１３−１４",
    "office_name": "パナホーム　株式会社　福岡支社",
    "office_name_kana": "パナホ-ム カブシキガイシヤ フクオカシシヤ"
  },
  "8550": {
    "postcode": "8158550",
    "prefecture": "福岡県",
    "prefecture_kana": "フクオカケン",
    "prefecture_code": 40,
    "city": "福岡市南区",
    "city_kana": "フクオカシミナミク",
    "town": "五十川",
    "town_kana": "ゴジッカワ",
    "street": "１丁目１番１号",
    "office_name": "株式会社　山口油屋福太郎",
    "office_name_kana": "カブシキガイシヤ ヤマグチアブラヤフクタロウ"
  },
  "8555": {
    "postcode": "8158555",
    "prefecture": "福岡県",
    "prefecture_kana": "フクオカケン",
    "prefecture_code": 40,
    "city": "福岡市南区",
    "city_kana": "フクオカシミナミク",
    "town": "大楠",
    "town_kana": "オオグス",
    "street": "３丁目１−１",
    "office_name": "福岡赤十字病院",
    "office_name_kana": "フクオカセキジユウジビヨウイン"
  },
  "8588": {
    "postcode": "8158588",
    "prefecture": "福岡県",
    "prefecture_kana": "フクオカケン",
    "prefecture_code": 40,
    "city": "福岡市南区",
    "city_kana": "フクオカシミナミク",
    "town": "塩原",
    "town_kana": "シオバル",
    "street": "３丁目２３−１",
    "office_name": "公立学校共済組合　九州中央病院",
    "office_name_kana": "コウリツガツコウキヨウサイクミアイ キユウシユウチユウオウビヨウイン"
  },
  "8601": {
    "postcode": "8158601",
    "prefecture": "福岡県",
    "prefecture_kana": "フクオカケン",
    "prefecture_code": 40,
    "city": "福岡市南区",
    "city_kana": "フクオカシミナミク",
    "town": "那の川",
    "town_kana": "ナノカワ",
    "street": "１丁目６番１４号（福岡南郵便局私書箱第２４号）",
    "office_name": "株式会社　九州自然館",
    "office_name_kana": "カブシキガイシヤ キユウシユウシゼンカン"
  },
  "8666": {
    "postcode": "8158666",
    "prefecture": "福岡県",
    "prefecture_kana": "フクオカケン",
    "prefecture_code": 40,
    "city": "福岡市南区",
    "city_kana": "フクオカシミナミク",
    "town": "高宮",
    "town_kana": "タカミヤ",
    "street": "１丁目１−２０（福岡南郵便局私書箱第２７号）",
    "office_name": "出光クレジット　株式会社　福岡分室",
    "office_name_kana": "イデミツクレジツト カブシキガイシヤ フクオカブンシツ"
  },
  "8686": {
    "postcode": "8158686",
    "prefecture": "福岡県",
    "prefecture_kana": "フクオカケン",
    "prefecture_code": 40,
    "city": "福岡市南区",
    "city_kana": "フクオカシミナミク",
    "town": "那の川",
    "town_kana": "ナノカワ",
    "street": "１−６−１４（福岡南郵便局私書箱第７０号）",
    "office_name": "株式会社　やずや",
    "office_name_kana": "カブシキガイシヤ ヤズヤ"
  }
}