{
  "0000": [
    {
      "postcode": "8160000",
      "prefecture": "福岡県",
      "prefecture_kana": "フクオカケン",
      "prefecture_code": 40,
      "city": "春日市",
      "city_kana": "カスガシ",
      "town": "",
      "town_kana": "",
      "street": null,
      "office_name": null,
      "office_name_kana": null
    },
    {
      "postcode": "8160000",
      "prefecture": "福岡県",
      "prefecture_kana": "フクオカケン",
      "prefecture_code": 40,
      "city": "大野城市",
      "city_kana": "オオノジョウシ",
      "town": "",
      "town_kana": "",
      "street": null,
      "office_name": null,
      "office_name_kana": null
    }
  ],
  "0801": {
    "postcode": "8160801",
    "prefecture": "福岡県",
    "prefecture_kana": "フクオカケン",
    "prefecture_code": 40,
    "city": "春日市",
    "city_kana": "カスガシ",
    "town": "春日原東町",
    "town_kana": "カスガバルヒガシマチ",
    "street": null,
    "office_name": null,
    "office_name_kana": null
  },
  "0802": {
    "postcode": "8160802",
    "prefecture": "福岡県",
    "prefecture_kana": "フクオカケン",
    "prefecture_code": 40,
    "city": "春日市",
    "city_kana": "カスガシ",
    "town": "春日原北町",
    "town_kana": "カスガバルキタマチ",
    "street": null,
    "office_name": null,
    "office_name_kana": null
  },
  "0803": {
    "postcode": "8160803",
    "prefecture": "福岡県",
    "prefecture_kana": "フクオカケン",
    "prefecture_code": 40,
    "city": "春日市",
    "city_kana": "カスガシ",
    "town": "春日原南町",
    "town_kana": "カスガバルミナミマチ",
    "street": null,
    "office_name": null,
    "office_name_kana": null
  },
  "0804": {
    "postcode": "8160804",
    "prefecture": "福岡県",
    "prefecture_kana": "フクオカケン",
    "prefecture_code": 40,
    "city": "春日市",
    "city_kana": "カスガシ",
    "town": "原町",
    "town_kana": "ハラマチ",
    "street": null,
    "office_name": null,
    "office_name_kana": null
  },
  "0805": {
    "postcode": "8160805",
    "prefecture": "福岡県",
    "prefecture_kana": "フクオカケン",
    "prefecture_code": 40,
    "city": "春日市",
    "city_kana": "カスガシ",
    "town": "千歳町",
    "town_kana": "チトセマチ",
    "street": null,
    "office_name": null,
    "office_name_kana": null
  },
  "0806": {
    "postcode": "8160806",
    "prefecture": "福岡県",
    "prefecture_kana": "フクオカケン",
    "prefecture_code": 40,
    "city": "春日市",
    "city_kana": "カスガシ",
    "town": "光町",
    "town_kana": "ヒカリマチ",
    "street": null,
    "office_name": null,
    "office_name_kana": null
  },
  "0807": {
    "postcode": "8160807",
    "prefecture": "福岡県",
    "prefecture_kana": "フクオカケン",
    "prefecture_code": 40,
    "city": "春日市",
    "city_kana": "カスガシ",
    "town": "宝町",
    "town_kana": "タカラマチ",
    "street": null,
    "office_name": null,
    "office_name_kana": null
  },
  "0811": {
    "postcode": "8160811",
    "prefecture": "福岡県",
    "prefecture_kana": "フクオカケン",
    "prefecture_code": 40,
    "city": "春日市",
    "city_kana": "カスガシ",
    "town": "春日公園",
    "town_kana": "カスガコウエン",
    "street": null,
    "office_name": null,
    "office_name_kana": null
  },
  "0812": {
    "postcode": "8160812",
    "prefecture": "福岡県",
    "prefecture_kana": "フクオカケン",
    "prefecture_code": 40,
    "city": "春日市",
    "city_kana": "カスガシ",
    "town": "平田台",
    "town_kana": "ヒラタダイ",
    "street": null,
    "office_name": null,
    "office_name_kana": null
  },
  "0813": {
    "postcode": "8160813",
    "prefecture": "福岡県",
    "prefecture_kana": "フクオカケン",
    "prefecture_code": 40,
    "city": "春日市",
    "city_kana": "カスガシ",
    "town": "惣利",
    "town_kana": "ソウリ",
    "street": null,
    "office_name": null,
    "office_name_kana": null
  },
  "0814": {
    "postcode": "8160814",
    "prefecture": "福岡県",
    "prefecture_kana": "フクオカケン",
    "prefecture_code": 40,
    "city": "春日市",
    "city_kana": "カスガシ",
    "town": "春日",
    "town_kana": "カスガ",
    "street": null,
    "office_name": null,
    "office_name_kana": null
  },
  "0821": {
    "postcode": "8160821",
    "prefecture": "福岡県",
    "prefecture_kana": "フクオカケン",
    "prefecture_code": 40,
    "city": "春日市",
    "city_kana": "カスガシ",
    "town": "若葉台東",
    "town_kana": "ワカバダイヒガシ",
    "street": null,
    "office_name": null,
    "office_name_kana": null
  },
  "0822": {
    "postcode": "8160822",
    "prefecture": "福岡県",
    "prefecture_kana": "フクオカケン",
    "prefecture_code": 40,
    "city": "春日市",
    "city_kana": "カスガシ",
    "town": "ちくし台",
    "town_kana": "チクシダイ",
    "street": null,
    "office_name": null,
    "office_name_kana": null
  },
  "0823": {
    "postcode": "8160823",
    "prefecture": "福岡県",
    "prefecture_kana": "フクオカケン",
    "prefecture_code": 40,
    "city": "春日市",
    "city_kana": "カスガシ",
    "town": "若葉台西",
    "town_kana": "ワカバダイニシ",
    "street": null,
    "office_name": null,
    "office_name_kana": null
  },
  "0824": {
    "postcode": "8160824",
    "prefecture": "福岡県",
    "prefecture_kana": "フクオカケン",
    "prefecture_code": 40,
    "city": "春日市",
    "city_kana": "カスガシ",
    "town": "小倉",
    "town_kana": "コクラ",
    "street": null,
    "office_name": null,
    "office_name_kana": null
  },
  "0825": {
    "postcode": "8160825",
    "prefecture": "福岡県",
    "prefecture_kana": "フクオカケン",
    "prefecture_code": 40,
    "city": "春日市",
    "city_kana": "カスガシ",
    "town": "伯玄町",
    "town_kana": "ハクゲンチョウ",
    "street": null,
    "office_name": null,
    "office_name_kana": null
  },
  "0826": {
    "postcode": "8160826",
    "prefecture": "福岡県",
    "prefecture_kana": "フクオカケン",
    "prefecture_code": 40,
    "city": "春日市",
    "city_kana": "カスガシ",
    "town": "小倉東",
    "town_kana": "コクラヒガシ",
    "street": null,
    "office_name": null,
    "office_name_kana": null
  },
  "0831": {
    "postcode": "8160831",
    "prefecture": "福岡県",
    "prefecture_kana": "フクオカケン",
    "prefecture_code": 40,
    "city": "春日市",
    "city_kana": "カスガシ",
    "town": "大谷",
    "town_kana": "オオタニ",
    "street": null,
    "office_name": null,
    "office_name_kana": null
  },
  "0832": {
    "postcode": "8160832",
    "prefecture": "福岡県",
    "prefecture_kana": "フクオカケン",
    "prefecture_code": 40,
    "city": "春日市",
    "city_kana": "カスガシ",
    "town": "紅葉ケ丘西",
    "town_kana": "モミジガオカニシ",
    "street": null,
    "office_name": null,
    "office_name_kana": null
  },
  "0833": {
    "postcode": "8160833",
    "prefecture": "福岡県",
    "prefecture_kana": "フクオカケン",
    "prefecture_code": 40,
    "city": "春日市",
    "city_kana": "カスガシ",
    "town": "紅葉ケ丘東",
    "town_kana": "モミジガオカヒガシ",
    "street": null,
    "office_name": null,
    "office_name_kana": null
  },
  "0841": {
    "postcode": "8160841",
    "prefecture": "福岡県",
    "prefecture_kana": "フクオカケン",
    "prefecture_code": 40,
    "city": "春日市",
    "city_kana": "カスガシ",
    "town": "塚原台",
    "town_kana": "ツカハラダイ",
    "street": null,
    "office_name": null,
    "office_name_kana": null
  },
  "0842": {
    "postcode": "8160842",
    "prefecture": "福岡県",
    "prefecture_kana": "フクオカケン",
    "prefecture_code": 40,
    "city": "春日市",
    "city_kana": "カスガシ",
    "town": "下白水",
    "town_kana": "シモシロウズ",
    "street": null,
    "office_name": null,
    "office_name_kana": null
  },
  "0843": {
    "postcode": "8160843",
    "prefecture": "福岡県",
    "prefecture_kana": "フクオカケン",
    "prefecture_code": 40,
    "city": "春日市",
    "city_kana": "カスガシ",
    "town": "松ケ丘",
    "town_kana": "マツガオカ",
    "street": null,
    "office_name": null,
    "office_name_kana": null
  },
  "0844": {
    "postcode": "8160844",
    "prefecture": "福岡県",
    "prefecture_kana": "フクオカケン",
    "prefecture_code": 40,
    "city": "春日市",
    "city_kana": "カスガシ",
    "town": "上白水",
    "town_kana": "カミシロウズ",
    "street": null,
    "office_name": null,
    "office_name_kana": null
  },
  "0845": {
    "postcode": "8160845",
    "prefecture": "福岡県",
    "prefecture_kana": "フクオカケン",
    "prefecture_code": 40,
    "city": "春日市",
    "city_kana": "カスガシ",
    "town": "白水ケ丘",
    "town_kana": "シロウズガオカ",
    "street": null,
    "office_name": null,
    "office_name_kana": null
  },
  "0846": {
    "postcode": "8160846",
    "prefecture": "福岡県",
    "prefecture_kana": "フクオカケン",
    "prefecture_code": 40,
    "city": "春日市",
    "city_kana": "カスガシ",
    "town": "下白水南",
    "town_kana": "シモシロウズミナミ",
    "street": null,
    "office_name": null,
    "office_name_kana": null
  },
  "0847": {
    "postcode": "8160847",
    "prefecture": "福岡県",
    "prefecture_kana": "フクオカケン",
    "prefecture_code": 40,
    "city": "春日市",
    "city_kana": "カスガシ",
    "town": "大土居",
    "town_kana": "オオドイ",
    "street": null,
    "office_name": null,
    "office_name_kana": null
  },
  "0848": {
    "postcode": "8160848",
    "prefecture": "福岡県",
    "prefecture_kana": "フクオカケン",
    "prefecture_code": 40,
    "city": "春日市",
    "city_kana": "カスガシ",
    "town": "白水池",
    "town_kana": "シロウズイケ",
    "street": null,
    "office_name": null,
    "office_name_kana": null
  },
  "0849": {
    "postcode": "8160849",
    "prefecture": "福岡県",
    "prefecture_kana": "フクオカケン",
    "prefecture_code": 40,
    "city": "春日市",
    "city_kana": "カスガシ",
    "town": "星見ヶ丘",
    "town_kana": "ホシミガオカ",
    "street": null,
    "office_name": null,
    "office_name_kana": null
  },
  "0851": {
    "postcode": "8160851",
    "prefecture": "福岡県",
    "prefecture_kana": "フクオカケン",
    "prefecture_code": 40,
    "city": "春日市",
    "city_kana": "カスガシ",
    "town": "昇町",
    "town_kana": "ノボリマチ",
    "street": null,
    "office_name": null,
    "office_name_kana": null
  },
  "0852": {
    "postcode": "8160852",
    "prefecture": "福岡県",
    "prefecture_kana": "フクオカケン",
    "prefecture_code": 40,
    "city": "春日市",
    "city_kana": "カスガシ",
    "town": "一の谷",
    "town_kana": "イチノタニ",
    "street": null,
    "office_name": null,
    "office_name_kana": null
  },
  "0853": {
    "postcode": "8160853",
    "prefecture": "福岡県",
    "prefecture_kana": "フクオカケン",
    "prefecture_code": 40,
    "city": "春日市",
    "city_kana": "カスガシ",
    "town": "泉",
    "town_kana": "イズミ",
    "street": null,
    "office_name": null,
    "office_name_kana": null
  },
  "0854": {
    "postcode": "8160854",
    "prefecture": "福岡県",
    "prefecture_kana": "フクオカケン",
    "prefecture_code": 40,
    "city": "春日市",
    "city_kana": "カスガシ",
    "town": "下白水北",
    "town_kana": "シモシロウズキタ",
    "street": null,
    "office_name": null,
    "office_name_kana": null
  },
  "0855": {
    "postcode": "8160855",
    "prefecture": "福岡県",
    "prefecture_kana": "フクオカケン",
    "prefecture_code": 40,
    "city": "春日市",
    "city_kana": "カスガシ",
    "town": "天神山",
    "town_kana": "テンジンヤマ",
    "street": null,
    "office_name": null,
    "office_name_kana": null
  },
  "0861": {
    "postcode": "8160861",
    "prefecture": "福岡県",
    "prefecture_kana": "フクオカケン",
    "prefecture_code": 40,
    "city": "春日市",
    "city_kana": "カスガシ",
    "town": "岡本",
    "town_kana": "オカモト",
    "street": null,
    "office_name": null,
    "office_name_kana": null
  },
  "0862": {
    "postcode": "8160862",
    "prefecture": "福岡県",
    "prefecture_kana": "フクオカケン",
    "prefecture_code": 40,
    "city": "春日市",
    "city_kana": "カスガシ",
    "town": "弥生",
    "town_kana": "ヤヨイ",
    "street": null,
    "office_name": null,
    "office_name_kana": null
  },
  "0863": {
    "postcode": "8160863",
    "prefecture": "福岡県",
    "prefecture_kana": "フクオカケン",
    "prefecture_code": 40,
    "city": "春日市",
    "city_kana": "カスガシ",
    "town": "須玖南",
    "town_kana": "スグミナミ",
    "street": null,
    "office_name": null,
    "office_name_kana": null
  },
  "0864": {
    "postcode": "8160864",
    "prefecture": "福岡県",
    "prefecture_kana": "フクオカケン",
    "prefecture_code": 40,
    "city": "春日市",
    "city_kana": "カスガシ",
    "town": "須玖北",
    "town_kana": "スグキタ",
    "street": null,
    "office_name": null,
    "office_name_kana": null
  },
  "0871": {
    "postcode": "8160871",
    "prefecture": "福岡県",
    "prefecture_kana": "フクオカケン",
    "prefecture_code": 40,
    "city": "春日市",
    "city_kana": "カスガシ",
    "town": "須玖",
    "town_kana": "スグ",
    "street": null,
    "office_name": null,
    "office_name_kana": null
  },
  "0872": {
    "postcode": "8160872",
    "prefecture": "福岡県",
    "prefecture_kana": "フクオカケン",
    "prefecture_code": 40,
    "city": "春日市",
    "city_kana": "カスガシ",
    "town": "桜ケ丘",
    "town_kana": "サクラガオカ",
    "street": null,
    "office_name": null,
    "office_name_kana": null
  },
  "0873": {
    "postcode": "8160873",
    "prefecture": "福岡県",
    "prefecture_kana": "フクオカケン",
    "prefecture_code": 40,
    "city": "春日市",
    "city_kana": "カスガシ",
    "town": "日の出町",
    "town_kana": "ヒノデマチ",
    "street": null,
    "office_name": null,
    "office_name_kana": null
  },
  "0874": {
    "postcode": "8160874",
    "prefecture": "福岡県",
    "prefecture_kana": "フクオカケン",
    "prefecture_code": 40,
    "city": "春日市",
    "city_kana": "カスガシ",
    "town": "大和町",
    "town_kana": "ヤマトマチ",
    "street": null,
    "office_name": null,
    "office_name_kana": null
  },
  "0901": {
    "postcode": "8160901",
    "prefecture": "福岡県",
    "prefecture_kana": "フクオカケン",
    "prefecture_code": 40,
    "city": "大野城市",
    "city_kana": "オオノジョウシ",
    "town": "乙金東",
    "town_kana": "オトガナヒガシ",
    "street": null,
    "office_name": null,
    "office_name_kana": null
  },
  "0902": {
    "postcode": "8160902",
    "prefecture": "福岡県",
    "prefecture_kana": "フクオカケン",
    "prefecture_code": 40,
    "city": "大野城市",
    "city_kana": "オオノジョウシ",
    "town": "乙金",
    "town_kana": "オトガナ",
    "street": null,
    "office_name": null,
    "office_name_kana": null
  },
  "0903": {
    "postcode": "8160903",
    "prefecture": "福岡県",
    "prefecture_kana": "フクオカケン",
    "prefecture_code": 40,
    "city": "大野城市",
    "city_kana": "オオノジョウシ",
    "town": "乙金台",
    "town_kana": "オトガナダイ",
    "street": null,
    "office_name": null,
    "office_name_kana": null
  },
  "0904": {
    "postcode": "8160904",
    "prefecture": "福岡県",
    "prefecture_kana": "フクオカケン",
    "prefecture_code": 40,
    "city": "大野城市",
    "city_kana": "オオノジョウシ",
    "town": "大池",
    "town_kana": "オオイケ",
    "street": null,
    "office_name": null,
    "office_name_kana": null
  },
  "0905": {
    "postcode": "8160905",
    "prefecture": "福岡県",
    "prefecture_kana": "フクオカケン",
    "prefecture_code": 40,
    "city": "大野城市",
    "city_kana": "オオノジョウシ",
    "town": "川久保",
    "town_kana": "カワクボ",
    "street": null,
    "office_name": null,
    "office_name_kana": null
  },
  "0906": {
    "postcode": "8160906",
    "prefecture": "福岡県",
    "prefecture_kana": "フクオカケン",
    "prefecture_code": 40,
    "city": "大野城市",
    "city_kana": "オオノジョウシ",
    "town": "中",
    "town_kana": "ナカ",
    "street": null,
    "office_name": null,
    "office_name_kana": null
  },
  "0911": {
    "postcode": "8160911",
    "prefecture": "福岡県",
    "prefecture_kana": "フクオカケン",
    "prefecture_code": 40,
    "city": "大野城市",
    "city_kana": "オオノジョウシ",
    "town": "大城",
    "town_kana": "オオキ",
    "street": null,
    "office_name": null,
    "office_name_kana": null
  },
  "0912": {
    "postcode": "8160912",
    "prefecture": "福岡県",
    "prefecture_kana": "フクオカケン",
    "prefecture_code": 40,
    "city": "大野城市",
    "city_kana": "オオノジョウシ",
    "town": "御笠川",
    "town_kana": "ミカサガワ",
    "street": null,
    "office_name": null,
    "office_name_kana": null
  },
  "0921": {
    "postcode": "8160921",
    "prefecture": "福岡県",
    "prefecture_kana": "フクオカケン",
    "prefecture_code": 40,
    "city": "大野城市",
    "city_kana": "オオノジョウシ",
    "town": "仲畑",
    "town_kana": "ナカハタ",
    "street": null,
    "office_name": null,
    "office_name_kana": null
  },
  "0922": {
    "postcode": "8160922",
    "prefecture": "福岡県",
    "prefecture_kana": "フクオカケン",
    "prefecture_code": 40,
    "city": "大野城市",
    "city_kana": "オオノジョウシ",
    "town": "山田",
    "town_kana": "ヤマダ",
    "street": null,
    "office_name": null,
    "office_name_kana": null
  },
  "0923": {
    "postcode": "8160923",
    "prefecture": "福岡県",
    "prefecture_kana": "フクオカケン",
    "prefecture_code": 40,
    "city": "大野城市",
    "city_kana": "オオノジョウシ",
    "town": "雑餉隈町",
    "town_kana": "ザツショノクママチ",
    "street": null,
    "office_name": null,
    "office_name_kana": null
  },
  "0924": {
    "postcode": "8160924",
    "prefecture": "福岡県",
    "prefecture_kana": "フクオカケン",
    "prefecture_code": 40,
    "city": "大野城市",
    "city_kana": "オオノジョウシ",
    "town": "栄町",
    "town_kana": "サカエマチ",
    "street": null,
    "office_name": null,
    "office_name_kana": null
  },
  "0931": {
    "postcode": "8160931",
    "prefecture": "福岡県",
    "prefecture_kana": "フクオカケン",
    "prefecture_code": 40,
    "city": "大野城市",
    "city_kana": "オオノジョウシ",
    "town": "筒井",
    "town_kana": "ツツイ",
    "street": null,
    "office_name": null,
    "office_name_kana": null
  },
  "0932": {
    "postcode": "8160932",
    "prefecture": "福岡県",
    "prefecture_kana": "フクオカケン",
    "prefecture_code": 40,
    "city": "大野城市",
    "city_kana": "オオノジョウシ",
    "town": "瓦田",
    "town_kana": "カワラダ",
    "street": null,
    "office_name": null,
    "office_name_kana": null
  },
  "0933": {
    "postcode": "8160933",
    "prefecture": "福岡県",
    "prefecture_kana": "フクオカケン",
    "prefecture_code": 40,
    "city": "大野城市",
    "city_kana": "オオノジョウシ",
    "town": "瑞穂町",
    "town_kana": "ミズホマチ",
    "street": null,
    "office_name": null,
    "office_name_kana": null
  },
  "0934": {
    "postcode": "8160934",
    "prefecture": "福岡県",
    "prefecture_kana": "フクオカケン",
    "prefecture_code": 40,
    "city": "大野城市",
    "city_kana": "オオノジョウシ",
    "town": "曙町",
    "town_kana": "アケボノマチ",
    "street": null,
    "office_name": null,
    "office_name_kana": null
  },
  "0935": {
    "postcode": "8160935",
    "prefecture": "福岡県",
    "prefecture_kana": "フクオカケン",
    "prefecture_code": 40,
    "city": "大野城市",
    "city_kana": "オオノジョウシ",
    "town": "錦町",
    "town_kana": "ニシキマチ",
    "street": null,
    "office_name": null,
    "office_name_kana": null
  },
  "0941": {
    "postcode": "8160941",
    "prefecture": "福岡県",
    "prefecture_kana": "フクオカケン",
    "prefecture_code": 40,
    "city": "大野城市",
    "city_kana": "オオノジョウシ",
    "town": "東大利",
    "town_kana": "ヒガシオオリ",
    "street": null,
    "office_name": null,
    "office_name_kana": null
  },
  "0942": {
    "postcode": "8160942",
    "prefecture": "福岡県",
    "prefecture_kana": "フクオカケン",
    "prefecture_code": 40,
    "city": "大野城市",
    "city_kana": "オオノジョウシ",
    "town": "中央",
    "town_kana": "チュウオウ",
    "street": null,
    "office_name": null,
    "office_name_kana": null
  },
  "0943": {
    "postcode": "8160943",
    "prefecture": "福岡県",
    "prefecture_kana": "フクオカケン",
    "prefecture_code": 40,
    "city": "大野城市",
    "city_kana": "オオノジョウシ",
    "town": "白木原",
    "town_kana": "シラキバル",
    "street": null,
    "office_name": null,
    "office_name_kana": null
  },
  "0951": {
    "postcode": "8160951",
    "prefecture": "福岡県",
    "prefecture_kana": "フクオカケン",
    "prefecture_code": 40,
    "city": "大野城市",
    "city_kana": "オオノジョウシ",
    "town": "下大利団地",
    "town_kana": "シモオオリダンチ",
    "street": null,
    "office_name": null,
    "office_name_kana": null
  },
  "0952": {
    "postcode": "8160952",
    "prefecture": "福岡県",
    "prefecture_kana": "フクオカケン",
    "prefecture_code": 40,
    "city": "大野城市",
    "city_kana": "オオノジョウシ",
    "town": "下大利",
    "town_kana": "シモオオリ",
    "street": null,
    "office_name": null,
    "office_name_kana": null
  },
  "0953": {
    "postcode": "8160953",
    "prefecture": "福岡県",
    "prefecture_kana": "フクオカケン",
    "prefecture_code": 40,
    "city": "大野城市",
    "city_kana": "オオノジョウシ",
    "town": "旭ケ丘",
    "town_kana": "アサヒガオカ",
    "street": null,
    "office_name": null,
    "office_name_kana": null
  },
  "0954": {
    "postcode": "8160954",
    "prefecture": "福岡県",
    "prefecture_kana": "フクオカケン",
    "prefecture_code": 40,
    "city": "大野城市",
    "city_kana": "オオノジョウシ",
    "town": "紫台",
    "town_kana": "ムラサキダイ",
    "street": null,
    "office_name": null,
    "office_name_kana": null
  },
  "0955": {
    "postcode": "8160955",
    "prefecture": "福岡県",
    "prefecture_kana": "フクオカケン",
    "prefecture_code": 40,
    "city": "大野城市",
    "city_kana": "オオノジョウシ",
    "town": "上大利",
    "town_kana": "カミオオリ",
    "street": null,
    "office_name": null,
    "office_name_kana": null
  },
  "0956": {
    "postcode": "8160956",
    "prefecture": "福岡県",
    "prefecture_kana": "フクオカケン",
    "prefecture_code": 40,
    "city": "大野城市",
    "city_kana": "オオノジョウシ",
    "town": "南大利",
    "town_kana": "ミナミオオリ",
    "street": null,
    "office_name": null,
    "office_name_kana": null
  },
  "0961": {
    "postcode": "8160961",
    "prefecture": "福岡県",
    "prefecture_kana": "フクオカケン",
    "prefecture_code": 40,
    "city": "大野城市",
    "city_kana": "オオノジョウシ",
    "town": "緑ケ丘",
    "town_kana": "ミドリガオカ",
    "street": null,
    "office_name": null,
    "office_name_kana": null
  },
  "0962": {
    "postcode": "8160962",
    "prefecture": "福岡県",
    "prefecture_kana": "フクオカケン",
    "prefecture_code": 40,
    "city": "大野城市",
    "city_kana": "オオノジョウシ",
    "town": "つつじケ丘",
    "town_kana": "ツツジガオカ",
    "street": null,
    "office_name": null,
    "office_name_kana": null
  },
  "0963": {
    "postcode": "8160963",
    "prefecture": "福岡県",
    "prefecture_kana": "フクオカケン",
    "prefecture_code": 40,
    "city": "大野城市",
    "city_kana": "オオノジョウシ",
    "town": "宮野台",
    "town_kana": "ミヤノダイ",
    "street": null,
    "office_name": null,
    "office_name_kana": null
  },
  "0964": {
    "postcode": "8160964",
    "prefecture": "福岡県",
    "prefecture_kana": "フクオカケン",
    "prefecture_code": 40,
    "city": "大野城市",
    "city_kana": "オオノジョウシ",
    "town": "南ケ丘",
    "town_kana": "ミナミガオカ",
    "street": null,
    "office_name": null,
    "office_name_kana": null
  },
  "0971": {
    "postcode": "8160971",
    "prefecture": "福岡県",
    "prefecture_kana": "フクオカケン",
    "prefecture_code": 40,
    "city": "大野城市",
    "city_kana": "オオノジョウシ",
    "town": "牛頸",
    "town_kana": "ウシクビ",
    "street": null,
    "office_name": null,
    "office_name_kana": null
  },
  "0972": {
    "postcode": "8160972",
    "prefecture": "福岡県",
    "prefecture_kana": "フクオカケン",
    "prefecture_code": 40,
    "city": "大野城市",
    "city_kana": "オオノジョウシ",
    "town": "平野台",
    "town_kana": "ヒラノダイ",
    "street": null,
    "office_name": null,
    "office_name_kana": null
  },
  "0973": {
    "postcode": "8160973",
    "prefecture": "福岡県",
    "prefecture_kana": "フクオカケン",
    "prefecture_code": 40,
    "city": "大野城市",
    "city_kana": "オオノジョウシ",
    "town": "横峰",
    "town_kana": "ヨコミネ",
    "street": null,
    "office_name": null,
    "office_name_kana": null
  },
  "0981": {
    "postcode": "8160981",
    "prefecture": "福岡県",
    "prefecture_kana": "フクオカケン",
    "prefecture_code": 40,
    "city": "大野城市",
    "city_kana": "オオノジョウシ",
    "town": "若草",
    "town_kana": "ワカクサ",
    "street": null,
    "office_name": null,
    "office_name_kana": null
  },
  "0982": {
    "postcode": "8160982",
    "prefecture": "福岡県",
    "prefecture_kana": "フクオカケン",
    "prefecture_code": 40,
    "city": "大野城市",
    "city_kana": "オオノジョウシ",
    "town": "畑ケ坂",
    "town_kana": "ハタガサカ",
    "street": null,
    "office_name": null,
    "office_name_kana": null
  },
  "0983": {
    "postcode": "8160983",
    "prefecture": "福岡県",
    "prefecture_kana": "フクオカケン",
    "prefecture_code": 40,
    "city": "大野城市",
    "city_kana": "オオノジョウシ",
    "town": "月の浦",
    "town_kana": "ツキノウラ",
    "street": null,
    "office_name": null,
    "office_name_kana": null
  },
  "8501": {
    "postcode": "8168501",
    "prefecture": "福岡県",
    "prefecture_kana": "フクオカケン",
    "prefecture_code": 40,
    "city": "春日市",
    "city_kana": "カスガシ",
    "town": "原町",
    "town_kana": "ハラマチ",
    "street": "３丁目１−５",
    "office_name": "春日市役所",
    "office_name_kana": "カスガシヤクシヨ"
  },
  "8510": {
    "postcode": "8168510",
    "prefecture": "福岡県",
    "prefecture_kana": "フクオカケン",
    "prefecture_code": 40,
    "city": "大野城市",
    "city_kana": "オオノジョウシ",
    "town": "曙町",
    "town_kana": "アケボノマチ",
    "street": "２丁目２−１",
    "office_name": "大野城市役所",
    "office_name_kana": "オオノジヨウシヤクシヨ"
  },
  "8511": {
    "postcode": "8168511",
    "prefecture": "福岡県",
    "prefecture_kana": "フクオカケン",
    "prefecture_code": 40,
    "city": "春日市",
    "city_kana": "カスガシ",
    "town": "原町",
    "town_kana": "ハラマチ",
    "street": "３丁目１番地２１",
    "office_name": "春日警察署",
    "office_name_kana": "カスガケイサツシヨ"
  },
  "8530": {
    "postcode": "8168530",
    "prefecture": "福岡県",
    "prefecture_kana": "フクオカケン",
    "prefecture_code": 40,
    "city": "大野城市",
    "city_kana": "オオノジョウシ",
    "town": "大字上大利",
    "town_kana": null,
    "street": "６６６−１",
    "office_name": "株式会社　アシュラン",
    "office_name_kana": "カブシキカイシヤ アシユラン"
  },
  "8550": {
    "postcode": "8168550",
    "prefecture": "福岡県",
    "prefecture_kana": "フクオカケン",
    "prefecture_code": 40,
    "city": "大野城市",
    "city_kana": "オオノジョウシ",
    "town": "大池",
    "town_kana": "オオイケ",
    "street": "２丁目２６−７",
    "office_name": "三省製薬　株式会社",
    "office_name_kana": "サンシヨウセイヤク カブシキガイシヤ"
  },
  "8555": {
    "postcode": "8168555",
    "prefecture": "福岡県",
    "prefecture_kana": "フクオカケン",
    "prefecture_code": 40,
    "city": "大野城市",
    "city_kana": "オオノジョウシ",
    "town": "旭ケ丘",
    "town_kana": "アサヒガオカ",
    "street": "１丁目７−１",
    "office_name": "株式会社　リョーユーパン",
    "office_name_kana": "カブシキガイシヤ リヨ-ユ-パン"
  },
  "8567": {
    "postcode": "8168567",
    "prefecture": "福岡県",
    "prefecture_kana": "フクオカケン",
    "prefecture_code": 40,
    "city": "大野城市",
    "city_kana": "オオノジョウシ",
    "town": "大字山田",
    "town_kana": null,
    "street": "２８５−１",
    "office_name": "株式会社　マルキョウ",
    "office_name_kana": "カブシキガイシヤ マルキヨウ"
  },
  "8577": {
    "postcode": "8168577",
    "prefecture": "福岡県",
    "prefecture_kana": "フクオカケン",
    "prefecture_code": 40,
    "city": "春日市",
    "city_kana": "カスガシ",
    "town": "春日公園",
    "town_kana": "カスガコウエン",
    "street": "３丁目２",
    "office_name": "福岡南公共職業安定所",
    "office_name_kana": "フクオカミナミコウキヨウシヨクギヨウアンテイシヨ"
  },
  "8580": {
    "postcode": "8168580",
    "prefecture": "福岡県",
    "prefecture_kana": "フクオカケン",
    "prefecture_code": 40,
    "city": "春日市",
    "city_kana": "カスガシ",
    "town": "春日公園",
    "town_kana": "カスガコウエン",
    "street": "６丁目１番地",
    "office_name": "九州大学　筑紫地区事務部",
    "office_name_kana": "キユウシユウダイガク チクシチクジムブ"
  },
  "8585": {
    "postcode": "8168585",
    "prefecture": "福岡県",
    "prefecture_kana": "フクオカケン",
    "prefecture_code": 40,
    "city": "大野城市",
    "city_kana": "オオノジョウシ",
    "town": "東大利",
    "town_kana": "ヒガシオオリ",
    "street": "３丁目９−２",
    "office_name": "明光電子　株式会社",
    "office_name_kana": "メイコウデンシ カブシキガイシヤ"
  },
  "8666": {
    "postcode": "8168666",
    "prefecture": "福岡県",
    "prefecture_kana": "フクオカケン",
    "prefecture_code": 40,
    "city": "春日市",
    "city_kana": "カスガシ",
    "town": "大和町",
    "town_kana": "ヤマトマチ",
    "street": "５丁目１２（博多南郵便局私書箱第２４号）",
    "office_name": "陸上自衛隊　福岡駐屯地",
    "office_name_kana": "リクジヨウジエイタイ フクオカチユウトンチ"
  }
}