{
  "0000": {
    "postcode": "8170000",
    "prefecture": "長崎県",
    "prefecture_kana": "ナガサキケン",
    "prefecture_code": 42,
    "city": "対馬市",
    "city_kana": "ツシマシ",
    "town": "",
    "town_kana": "",
    "street": null,
    "office_name": null,
    "office_name_kana": null
  },
  "0001": {
    "postcode": "8170001",
    "prefecture": "長崎県",
    "prefecture_kana": "ナガサキケン",
    "prefecture_code": 42,
    "city": "対馬市",
    "city_kana": "ツシマシ",
    "town": "厳原町小浦",
    "town_kana": "イヅハラマチコウラ",
    "street": null,
    "office_name": null,
    "office_name_kana": null
  },
  "0002": {
    "postcode": "8170002",
    "prefecture": "長崎県",
    "prefecture_kana": "ナガサキケン",
    "prefecture_code": 42,
    "city": "対馬市",
    "city_kana": "ツシマシ",
    "town": "厳原町曲",
    "town_kana": "イヅハラマチマガリ",
    "street": null,
    "office_name": null,
    "office_name_kana": null
  },
  "0003": {
    "postcode": "8170003",
    "prefecture": "長崎県",
    "prefecture_kana": "ナガサキケン",
    "prefecture_code": 42,
    "city": "対馬市",
    "city_kana": "ツシマシ",
    "town": "厳原町南室",
    "town_kana": "イヅハラマチナムロ",
    "street": null,
    "office_name": null,
    "office_name_kana": null
  },
  "0005": {
    "postcode": "8170005",
    "prefecture": "長崎県",
    "prefecture_kana": "ナガサキケン",
    "prefecture_code": 42,
    "city": "対馬市",
    "city_kana": "ツシマシ",
    "town": "厳原町桟原",
    "town_kana": "イヅハラマチサジキバラ",
    "street": null,
    "office_name": null,
    "office_name_kana": null
  },
  "0006": {
    "postcode": "8170006",
    "prefecture": "長崎県",
    "prefecture_kana": "ナガサキケン",
    "prefecture_code": 42,
    "city": "対馬市",
    "city_kana": "ツシマシ",
    "town": "厳原町北里",
    "town_kana": "イヅハラマチキタザト",
    "street": null,
    "office_name": null,
    "office_name_kana": null
  },
  "0011": {
    "postcode": "8170011",
    "prefecture": "長崎県",
    "prefecture_kana": "ナガサキケン",
    "prefecture_code": 42,
    "city": "対馬市",
    "city_kana": "ツシマシ",
    "town": "厳原町宮谷",
    "town_kana": "イヅハラマチミヤダニ",
    "street": null,
    "office_name": null,
    "office_name_kana": null
  },
  "0012": {
    "postcode": "8170012",
    "prefecture": "長崎県",
    "prefecture_kana": "ナガサキケン",
    "prefecture_code": 42,
    "city": "対馬市",
    "city_kana": "ツシマシ",
    "town": "厳原町日吉",
    "town_kana": "イヅハラマチヒヨシ",
    "street": null,
    "office_name": null,
    "office_name_kana": null
  },
  "0013": {
    "postcode": "8170013",
    "prefecture": "長崎県",
    "prefecture_kana": "ナガサキケン",
    "prefecture_code": 42,
    "city": "対馬市",
    "city_kana": "ツシマシ",
    "town": "厳原町中村",
    "town_kana": "イヅハラマチナカムラ",
    "street": null,
    "office_name": null,
    "office_name_kana": null
  },
  "0014": {
    "postcode": "8170014",
    "prefecture": "長崎県",
    "prefecture_kana": "ナガサキケン",
    "prefecture_code": 42,
    "city": "対馬市",
    "city_kana": "ツシマシ",
    "town": "厳原町天道茂",
    "town_kana": "イヅハラマチテンドウシゲ",
    "street": null,
    "office_name": null,
    "office_name_kana": null
  },
  "0015": {
    "postcode": "8170015",
    "prefecture": "長崎県",
    "prefecture_kana": "ナガサキケン",
    "prefecture_code": 42,
    "city": "対馬市",
    "city_kana": "ツシマシ",
    "town": "厳原町西里",
    "town_kana": "イヅハラマチニシザト",
    "street": null,
    "office_name": null,
    "office_name_kana": null
  },
  "0016": {
    "postcode": "8170016",
    "prefecture": "長崎県",
    "prefecture_kana": "ナガサキケン",
    "prefecture_code": 42,
    "city": "対馬市",
    "city_kana": "ツシマシ",
    "town": "厳原町東里",
    "town_kana": "イヅハラマチヒガシザト",
    "street": null,
    "office_name": null,
    "office_name_kana": null
  },
  "0021": {
    "postcode": "8170021",
    "prefecture": "長崎県",
    "prefecture_kana": "ナガサキケン",
    "prefecture_code": 42,
    "city": "対馬市",
    "city_kana": "ツシマシ",
    "town": "厳原町今屋敷",
    "town_kana": "イヅハラマチイマヤシキ",
    "street": null,
    "office_name": null,
    "office_name_kana": null
  },
  "0022": {
    "postcode": "8170022",
    "prefecture": "長崎県",
    "prefecture_kana": "ナガサキケン",
    "prefecture_code": 42,
    "city": "対馬市",
    "city_kana": "ツシマシ",
    "town": "厳原町国分",
    "town_kana": "イヅハラマチコクブ",
    "street": null,
    "office_name": null,
    "office_name_kana": null
  },
  "0023": {
    "postcode": "8170023",
    "prefecture": "長崎県",
    "prefecture_kana": "ナガサキケン",
    "prefecture_code": 42,
    "city": "対馬市",
    "city_kana": "ツシマシ",
    "town": "厳原町田渕",
    "town_kana": "イヅハラマチタブチ",
    "street": null,
    "office_name": null,
    "office_name_kana": null
  },
  "0024": {
    "postcode": "8170024",
    "prefecture": "長崎県",
    "prefecture_kana": "ナガサキケン",
    "prefecture_code": 42,
    "city": "対馬市",
    "city_kana": "ツシマシ",
    "town": "厳原町大手橋",
    "town_kana": "イヅハラマチオオテバシ",
    "street": null,
    "office_name": null,
    "office_name_kana": null
  },
  "0031": {
    "postcode": "8170031",
    "prefecture": "長崎県",
    "prefecture_kana": "ナガサキケン",
    "prefecture_code": 42,
    "city": "対馬市",
    "city_kana": "ツシマシ",
    "town": "厳原町久田道",
    "town_kana": "イヅハラマチクタミチ",
    "street": null,
    "office_name": null,
    "office_name_kana": null
  },
  "0032": {
    "postcode": "8170032",
    "prefecture": "長崎県",
    "prefecture_kana": "ナガサキケン",
    "prefecture_code": 42,
    "city": "対馬市",
    "city_kana": "ツシマシ",
    "town": "厳原町久田",
    "town_kana": "イヅハラマチクタ",
    "street": null,
    "office_name": null,
    "office_name_kana": null
  },
  "0033": {
    "postcode": "8170033",
    "prefecture": "長崎県",
    "prefecture_kana": "ナガサキケン",
    "prefecture_code": 42,
    "city": "対馬市",
    "city_kana": "ツシマシ",
    "town": "厳原町尾浦",
    "town_kana": "イヅハラマチオウラ",
    "street": null,
    "office_name": null,
    "office_name_kana": null
  },
  "0034": {
    "postcode": "8170034",
    "prefecture": "長崎県",
    "prefecture_kana": "ナガサキケン",
    "prefecture_code": 42,
    "city": "対馬市",
    "city_kana": "ツシマシ",
    "town": "厳原町安神",
    "town_kana": "イヅハラマチアガミ",
    "street": null,
    "office_name": null,
    "office_name_kana": null
  },
  "0035": {
    "postcode": "8170035",
    "prefecture": "長崎県",
    "prefecture_kana": "ナガサキケン",
    "prefecture_code": 42,
    "city": "対馬市",
    "city_kana": "ツシマシ",
    "town": "厳原町久和",
    "town_kana": "イヅハラマチクワ",
    "street": null,
    "office_name": null,
    "office_name_kana": null
  },
  "0151": {
    "postcode": "8170151",
    "prefecture": "長崎県",
    "prefecture_kana": "ナガサキケン",
    "prefecture_code": 42,
    "city": "対馬市",
    "city_kana": "ツシマシ",
    "town": "厳原町与良内院",
    "town_kana": "イヅハラマチヨラナイイン",
    "street": null,
    "office_name": null,
    "office_name_kana": null
  },
  "0152": {
    "postcode": "8170152",
    "prefecture": "長崎県",
    "prefecture_kana": "ナガサキケン",
    "prefecture_code": 42,
    "city": "対馬市",
    "city_kana": "ツシマシ",
    "town": "厳原町豆酘内院",
    "town_kana": "イヅハラマチツツナイイン",
    "street": null,
    "office_name": null,
    "office_name_kana": null
  },
  "0153": {
    "postcode": "8170153",
    "prefecture": "長崎県",
    "prefecture_kana": "ナガサキケン",
    "prefecture_code": 42,
    "city": "対馬市",
    "city_kana": "ツシマシ",
    "town": "厳原町浅藻",
    "town_kana": "イヅハラマチアザモ",
    "street": null,
    "office_name": null,
    "office_name_kana": null
  },
  "0154": {
    "postcode": "8170154",
    "prefecture": "長崎県",
    "prefecture_kana": "ナガサキケン",
    "prefecture_code": 42,
    "city": "対馬市",
    "city_kana": "ツシマシ",
    "town": "厳原町豆酘",
    "town_kana": "イヅハラマチツツ",
    "street": null,
    "office_name": null,
    "office_name_kana": null
  },
  "0155": {
    "postcode": "8170155",
    "prefecture": "長崎県",
    "prefecture_kana": "ナガサキケン",
    "prefecture_code": 42,
    "city": "対馬市",
    "city_kana": "ツシマシ",
    "town": "厳原町豆酘瀬",
    "town_kana": "イヅハラマチツツセ",
    "street": null,
    "office_name": null,
    "office_name_kana": null
  },
  "0156": {
    "postcode": "8170156",
    "prefecture": "長崎県",
    "prefecture_kana": "ナガサキケン",
    "prefecture_code": 42,
    "city": "対馬市",
    "city_kana": "ツシマシ",
    "town": "厳原町佐須瀬",
    "town_kana": "イヅハラマチサスセ",
    "street": null,
    "office_name": null,
    "office_name_kana": null
  },
  "0157": {
    "postcode": "8170157",
    "prefecture": "長崎県",
    "prefecture_kana": "ナガサキケン",
    "prefecture_code": 42,
    "city": "対馬市",
    "city_kana": "ツシマシ",
    "town": "厳原町内山",
    "town_kana": "イヅハラマチウチヤマ",
    "street": null,
    "office_name": null,
    "office_name_kana": null
  },
  "0241": {
    "postcode": "8170241",
    "prefecture": "長崎県",
    "prefecture_kana": "ナガサキケン",
    "prefecture_code": 42,
    "city": "対馬市",
    "city_kana": "ツシマシ",
    "town": "厳原町阿連",
    "town_kana": "イヅハラマチアレ",
    "street": null,
    "office_name": null,
    "office_name_kana": null
  },
  "0242": {
    "postcode": "8170242",
    "prefecture": "長崎県",
    "prefecture_kana": "ナガサキケン",
    "prefecture_code": 42,
    "city": "対馬市",
    "city_kana": "ツシマシ",
    "town": "厳原町下原",
    "town_kana": "イヅハラマチシモバル",
    "street": null,
    "office_name": null,
    "office_name_kana": null
  },
  "0243": {
    "postcode": "8170243",
    "prefecture": "長崎県",
    "prefecture_kana": "ナガサキケン",
    "prefecture_code": 42,
    "city": "対馬市",
    "city_kana": "ツシマシ",
    "town": "厳原町樫根",
    "town_kana": "イヅハラマチカシネ",
    "street": null,
    "office_name": null,
    "office_name_kana": null
  },
  "0244": {
    "postcode": "8170244",
    "prefecture": "長崎県",
    "prefecture_kana": "ナガサキケン",
    "prefecture_code": 42,
    "city": "対馬市",
    "city_kana": "ツシマシ",
    "town": "厳原町久根浜",
    "town_kana": "イヅハラマチクネハマ",
    "street": null,
    "office_name": null,
    "office_name_kana": null
  },
  "0245": {
    "postcode": "8170245",
    "prefecture": "長崎県",
    "prefecture_kana": "ナガサキケン",
    "prefecture_code": 42,
    "city": "対馬市",
    "city_kana": "ツシマシ",
    "town": "厳原町久根田舎",
    "town_kana": "イヅハラマチクネイナカ",
    "street": null,
    "office_name": null,
    "office_name_kana": null
  },
  "0246": {
    "postcode": "8170246",
    "prefecture": "長崎県",
    "prefecture_kana": "ナガサキケン",
    "prefecture_code": 42,
    "city": "対馬市",
    "city_kana": "ツシマシ",
    "town": "厳原町上槻",
    "town_kana": "イヅハラマチコウツキ",
    "street": null,
    "office_name": null,
    "office_name_kana": null
  },
  "0247": {
    "postcode": "8170247",
    "prefecture": "長崎県",
    "prefecture_kana": "ナガサキケン",
    "prefecture_code": 42,
    "city": "対馬市",
    "city_kana": "ツシマシ",
    "town": "厳原町椎根",
    "town_kana": "イヅハラマチシイネ",
    "street": null,
    "office_name": null,
    "office_name_kana": null
  },
  "0248": {
    "postcode": "8170248",
    "prefecture": "長崎県",
    "prefecture_kana": "ナガサキケン",
    "prefecture_code": 42,
    "city": "対馬市",
    "city_kana": "ツシマシ",
    "town": "厳原町小茂田",
    "town_kana": "イヅハラマチコモダ",
    "street": null,
    "office_name": null,
    "office_name_kana": null
  },
  "0321": {
    "postcode": "8170321",
    "prefecture": "長崎県",
    "prefecture_kana": "ナガサキケン",
    "prefecture_code": 42,
    "city": "対馬市",
    "city_kana": "ツシマシ",
    "town": "美津島町洲藻",
    "town_kana": "ミツシママチスモ",
    "street": null,
    "office_name": null,
    "office_name_kana": null
  },
  "0322": {
    "postcode": "8170322",
    "prefecture": "長崎県",
    "prefecture_kana": "ナガサキケン",
    "prefecture_code": 42,
    "city": "対馬市",
    "city_kana": "ツシマシ",
    "town": "美津島町鶏知",
    "town_kana": "ミツシママチケチ",
    "street": null,
    "office_name": null,
    "office_name_kana": null
  },
  "0323": {
    "postcode": "8170323",
    "prefecture": "長崎県",
    "prefecture_kana": "ナガサキケン",
    "prefecture_code": 42,
    "city": "対馬市",
    "city_kana": "ツシマシ",
    "town": "美津島町大船越",
    "town_kana": "ミツシママチオオフナコシ",
    "street": null,
    "office_name": null,
    "office_name_kana": null
  },
  "0324": {
    "postcode": "8170324",
    "prefecture": "長崎県",
    "prefecture_kana": "ナガサキケン",
    "prefecture_code": 42,
    "city": "対馬市",
    "city_kana": "ツシマシ",
    "town": "美津島町久須保",
    "town_kana": "ミツシママチクスボ",
    "street": null,
    "office_name": null,
    "office_name_kana": null
  },
  "0325": {
    "postcode": "8170325",
    "prefecture": "長崎県",
    "prefecture_kana": "ナガサキケン",
    "prefecture_code": 42,
    "city": "対馬市",
    "city_kana": "ツシマシ",
    "town": "美津島町緒方",
    "town_kana": "ミツシママチオカタ",
    "street": null,
    "office_name": null,
    "office_name_kana": null
  },
  "0326": {
    "postcode": "8170326",
    "prefecture": "長崎県",
    "prefecture_kana": "ナガサキケン",
    "prefecture_code": 42,
    "city": "対馬市",
    "city_kana": "ツシマシ",
    "town": "美津島町根緒",
    "town_kana": "ミツシママチネオ",
    "street": null,
    "office_name": null,
    "office_name_kana": null
  },
  "0431": {
    "postcode": "8170431",
    "prefecture": "長崎県",
    "prefecture_kana": "ナガサキケン",
    "prefecture_code": 42,
    "city": "対馬市",
    "city_kana": "ツシマシ",
    "town": "美津島町尾崎",
    "town_kana": "ミツシママチオサキ",
    "street": null,
    "office_name": null,
    "office_name_kana": null
  },
  "0432": {
    "postcode": "8170432",
    "prefecture": "長崎県",
    "prefecture_kana": "ナガサキケン",
    "prefecture_code": 42,
    "city": "対馬市",
    "city_kana": "ツシマシ",
    "town": "美津島町今里",
    "town_kana": "ミツシママチイマザト",
    "street": null,
    "office_name": null,
    "office_name_kana": null
  },
  "0433": {
    "postcode": "8170433",
    "prefecture": "長崎県",
    "prefecture_kana": "ナガサキケン",
    "prefecture_code": 42,
    "city": "対馬市",
    "city_kana": "ツシマシ",
    "town": "美津島町加志",
    "town_kana": "ミツシママチカシ",
    "street": null,
    "office_name": null,
    "office_name_kana": null
  },
  "0434": {
    "postcode": "8170434",
    "prefecture": "長崎県",
    "prefecture_kana": "ナガサキケン",
    "prefecture_code": 42,
    "city": "対馬市",
    "city_kana": "ツシマシ",
    "town": "美津島町吹崎",
    "town_kana": "ミツシママチフクザキ",
    "street": null,
    "office_name": null,
    "office_name_kana": null
  },
  "0435": {
    "postcode": "8170435",
    "prefecture": "長崎県",
    "prefecture_kana": "ナガサキケン",
    "prefecture_code": 42,
    "city": "対馬市",
    "city_kana": "ツシマシ",
    "town": "美津島町箕形",
    "town_kana": "ミツシママチミカタ",
    "street": null,
    "office_name": null,
    "office_name_kana": null
  },
  "0511": {
    "postcode": "8170511",
    "prefecture": "長崎県",
    "prefecture_kana": "ナガサキケン",
    "prefecture_code": 42,
    "city": "対馬市",
    "city_kana": "ツシマシ",
    "town": "美津島町竹敷",
    "town_kana": "ミツシママチタケシキ",
    "street": null,
    "office_name": null,
    "office_name_kana": null
  },
  "0512": {
    "postcode": "8170512",
    "prefecture": "長崎県",
    "prefecture_kana": "ナガサキケン",
    "prefecture_code": 42,
    "city": "対馬市",
    "city_kana": "ツシマシ",
    "town": "美津島町黒瀬",
    "town_kana": "ミツシママチクロセ",
    "street": null,
    "office_name": null,
    "office_name_kana": null
  },
  "0513": {
    "postcode": "8170513",
    "prefecture": "長崎県",
    "prefecture_kana": "ナガサキケン",
    "prefecture_code": 42,
    "city": "対馬市",
    "city_kana": "ツシマシ",
    "town": "美津島町昼ケ浦",
    "town_kana": "ミツシママチヒルガウラ",
    "street": null,
    "office_name": null,
    "office_name_kana": null
  },
  "0514": {
    "postcode": "8170514",
    "prefecture": "長崎県",
    "prefecture_kana": "ナガサキケン",
    "prefecture_code": 42,
    "city": "対馬市",
    "city_kana": "ツシマシ",
    "town": "美津島町島山",
    "town_kana": "ミツシママチシマヤマ",
    "street": null,
    "office_name": null,
    "office_name_kana": null
  },
  "1101": {
    "postcode": "8171101",
    "prefecture": "長崎県",
    "prefecture_kana": "ナガサキケン",
    "prefecture_code": 42,
    "city": "対馬市",
    "city_kana": "ツシマシ",
    "town": "美津島町小船越",
    "town_kana": "ミツシママチコフナコシ",
    "street": null,
    "office_name": null,
    "office_name_kana": null
  },
  "1102": {
    "postcode": "8171102",
    "prefecture": "長崎県",
    "prefecture_kana": "ナガサキケン",
    "prefecture_code": 42,
    "city": "対馬市",
    "city_kana": "ツシマシ",
    "town": "美津島町芦浦",
    "town_kana": "ミツシママチヨシガウラ",
    "street": null,
    "office_name": null,
    "office_name_kana": null
  },
  "1103": {
    "postcode": "8171103",
    "prefecture": "長崎県",
    "prefecture_kana": "ナガサキケン",
    "prefecture_code": 42,
    "city": "対馬市",
    "city_kana": "ツシマシ",
    "town": "美津島町賀谷",
    "town_kana": "ミツシママチガヤ",
    "street": null,
    "office_name": null,
    "office_name_kana": null
  },
  "1104": {
    "postcode": "8171104",
    "prefecture": "長崎県",
    "prefecture_kana": "ナガサキケン",
    "prefecture_code": 42,
    "city": "対馬市",
    "city_kana": "ツシマシ",
    "town": "美津島町濃部",
    "town_kana": "ミツシママチノブ",
    "street": null,
    "office_name": null,
    "office_name_kana": null
  },
  "1105": {
    "postcode": "8171105",
    "prefecture": "長崎県",
    "prefecture_kana": "ナガサキケン",
    "prefecture_code": 42,
    "city": "対馬市",
    "city_kana": "ツシマシ",
    "town": "美津島町大山",
    "town_kana": "ミツシママチオヤマ",
    "street": null,
    "office_name": null,
    "office_name_kana": null
  },
  "1106": {
    "postcode": "8171106",
    "prefecture": "長崎県",
    "prefecture_kana": "ナガサキケン",
    "prefecture_code": 42,
    "city": "対馬市",
    "city_kana": "ツシマシ",
    "town": "美津島町犬吠",
    "town_kana": "ミツシママチイヌボエ",
    "street": null,
    "office_name": null,
    "office_name_kana": null
  },
  "1107": {
    "postcode": "8171107",
    "prefecture": "長崎県",
    "prefecture_kana": "ナガサキケン",
    "prefecture_code": 42,
    "city": "対馬市",
    "city_kana": "ツシマシ",
    "town": "美津島町鴨居瀬",
    "town_kana": "ミツシママチカモイセ",
    "street": null,
    "office_name": null,
    "office_name_kana": null
  },
  "1201": {
    "postcode": "8171201",
    "prefecture": "長崎県",
    "prefecture_kana": "ナガサキケン",
    "prefecture_code": 42,
    "city": "対馬市",
    "city_kana": "ツシマシ",
    "town": "豊玉町仁位",
    "town_kana": "トヨタママチニイ",
    "street": null,
    "office_name": null,
    "office_name_kana": null
  },
  "1202": {
    "postcode": "8171202",
    "prefecture": "長崎県",
    "prefecture_kana": "ナガサキケン",
    "prefecture_code": 42,
    "city": "対馬市",
    "city_kana": "ツシマシ",
    "town": "豊玉町和板",
    "town_kana": "トヨタママチワイタ",
    "street": null,
    "office_name": null,
    "office_name_kana": null
  },
  "1212": {
    "postcode": "8171212",
    "prefecture": "長崎県",
    "prefecture_kana": "ナガサキケン",
    "prefecture_code": 42,
    "city": "対馬市",
    "city_kana": "ツシマシ",
    "town": "豊玉町曽",
    "town_kana": "トヨタママチソ",
    "street": null,
    "office_name": null,
    "office_name_kana": null
  },
  "1213": {
    "postcode": "8171213",
    "prefecture": "長崎県",
    "prefecture_kana": "ナガサキケン",
    "prefecture_code": 42,
    "city": "対馬市",
    "city_kana": "ツシマシ",
    "town": "豊玉町千尋藻",
    "town_kana": "トヨタママチチロモ",
    "street": null,
    "office_name": null,
    "office_name_kana": null
  },
  "1214": {
    "postcode": "8171214",
    "prefecture": "長崎県",
    "prefecture_kana": "ナガサキケン",
    "prefecture_code": 42,
    "city": "対馬市",
    "city_kana": "ツシマシ",
    "town": "豊玉町鑓川",
    "town_kana": "トヨタママチヤリカワ",
    "street": null,
    "office_name": null,
    "office_name_kana": null
  },
  "1223": {
    "postcode": "8171223",
    "prefecture": "長崎県",
    "prefecture_kana": "ナガサキケン",
    "prefecture_code": 42,
    "city": "対馬市",
    "city_kana": "ツシマシ",
    "town": "豊玉町横浦",
    "town_kana": "トヨタママチヨコウラ",
    "street": null,
    "office_name": null,
    "office_name_kana": null
  },
  "1231": {
    "postcode": "8171231",
    "prefecture": "長崎県",
    "prefecture_kana": "ナガサキケン",
    "prefecture_code": 42,
    "city": "対馬市",
    "city_kana": "ツシマシ",
    "town": "豊玉町糸瀬",
    "town_kana": "トヨタママチイトセ",
    "street": null,
    "office_name": null,
    "office_name_kana": null
  },
  "1232": {
    "postcode": "8171232",
    "prefecture": "長崎県",
    "prefecture_kana": "ナガサキケン",
    "prefecture_code": 42,
    "city": "対馬市",
    "city_kana": "ツシマシ",
    "town": "豊玉町嵯峨",
    "town_kana": "トヨタママチサガ",
    "street": null,
    "office_name": null,
    "office_name_kana": null
  },
  "1233": {
    "postcode": "8171233",
    "prefecture": "長崎県",
    "prefecture_kana": "ナガサキケン",
    "prefecture_code": 42,
    "city": "対馬市",
    "city_kana": "ツシマシ",
    "town": "豊玉町貝鮒",
    "town_kana": "トヨタママチカイフナ",
    "street": null,
    "office_name": null,
    "office_name_kana": null
  },
  "1234": {
    "postcode": "8171234",
    "prefecture": "長崎県",
    "prefecture_kana": "ナガサキケン",
    "prefecture_code": 42,
    "city": "対馬市",
    "city_kana": "ツシマシ",
    "town": "豊玉町佐志賀",
    "town_kana": "トヨタママチサシカ",
    "street": null,
    "office_name": null,
    "office_name_kana": null
  },
  "1241": {
    "postcode": "8171241",
    "prefecture": "長崎県",
    "prefecture_kana": "ナガサキケン",
    "prefecture_code": 42,
    "city": "対馬市",
    "city_kana": "ツシマシ",
    "town": "豊玉町貝口",
    "town_kana": "トヨタママチカイグチ",
    "street": null,
    "office_name": null,
    "office_name_kana": null
  },
  "1245": {
    "postcode": "8171245",
    "prefecture": "長崎県",
    "prefecture_kana": "ナガサキケン",
    "prefecture_code": 42,
    "city": "対馬市",
    "city_kana": "ツシマシ",
    "town": "豊玉町唐洲",
    "town_kana": "トヨタママチカラス",
    "street": null,
    "office_name": null,
    "office_name_kana": null
  },
  "1246": {
    "postcode": "8171246",
    "prefecture": "長崎県",
    "prefecture_kana": "ナガサキケン",
    "prefecture_code": 42,
    "city": "対馬市",
    "city_kana": "ツシマシ",
    "town": "豊玉町廻",
    "town_kana": "トヨタママチマワリ",
    "street": null,
    "office_name": null,
    "office_name_kana": null
  },
  "1251": {
    "postcode": "8171251",
    "prefecture": "長崎県",
    "prefecture_kana": "ナガサキケン",
    "prefecture_code": 42,
    "city": "対馬市",
    "city_kana": "ツシマシ",
    "town": "豊玉町田",
    "town_kana": "トヨタママチタ",
    "street": null,
    "office_name": null,
    "office_name_kana": null
  },
  "1252": {
    "postcode": "8171252",
    "prefecture": "長崎県",
    "prefecture_kana": "ナガサキケン",
    "prefecture_code": 42,
    "city": "対馬市",
    "city_kana": "ツシマシ",
    "town": "豊玉町大綱",
    "town_kana": "トヨタママチオオツナ",
    "street": null,
    "office_name": null,
    "office_name_kana": null
  },
  "1253": {
    "postcode": "8171253",
    "prefecture": "長崎県",
    "prefecture_kana": "ナガサキケン",
    "prefecture_code": 42,
    "city": "対馬市",
    "city_kana": "ツシマシ",
    "town": "豊玉町卯麦",
    "town_kana": "トヨタママチウムギ",
    "street": null,
    "office_name": null,
    "office_name_kana": null
  },
  "1254": {
    "postcode": "8171254",
    "prefecture": "長崎県",
    "prefecture_kana": "ナガサキケン",
    "prefecture_code": 42,
    "city": "対馬市",
    "city_kana": "ツシマシ",
    "town": "豊玉町佐保",
    "town_kana": "トヨタママチサホ",
    "street": null,
    "office_name": null,
    "office_name_kana": null
  },
  "1255": {
    "postcode": "8171255",
    "prefecture": "長崎県",
    "prefecture_kana": "ナガサキケン",
    "prefecture_code": 42,
    "city": "対馬市",
    "city_kana": "ツシマシ",
    "town": "豊玉町志多浦",
    "town_kana": "トヨタママチシタノウラ",
    "street": null,
    "office_name": null,
    "office_name_kana": null
  },
  "1256": {
    "postcode": "8171256",
    "prefecture": "長崎県",
    "prefecture_kana": "ナガサキケン",
    "prefecture_code": 42,
    "city": "対馬市",
    "city_kana": "ツシマシ",
    "town": "豊玉町小綱",
    "town_kana": "トヨタママチコヅナ",
    "street": null,
    "office_name": null,
    "office_name_kana": null
  },
  "1257": {
    "postcode": "8171257",
    "prefecture": "長崎県",
    "prefecture_kana": "ナガサキケン",
    "prefecture_code": 42,
    "city": "対馬市",
    "city_kana": "ツシマシ",
    "town": "豊玉町銘",
    "town_kana": "トヨタママチメイ",
    "street": null,
    "office_name": null,
    "office_name_kana": null
  },
  "1292": {
    "postcode": "8171292",
    "prefecture": "長崎県",
    "prefecture_kana": "ナガサキケン",
    "prefecture_code": 42,
    "city": "対馬市",
    "city_kana": "ツシマシ",
    "town": "豊玉町仁位",
    "town_kana": "トヨタママチニイ",
    "street": "３８０",
    "office_name": "対馬市役所　豊玉支所",
    "office_name_kana": "ツシマシヤクシヨ トヨタマシシヨ"
  },
  "1301": {
    "postcode": "8171301",
    "prefecture": "長崎県",
    "prefecture_kana": "ナガサキケン",
    "prefecture_code": 42,
    "city": "対馬市",
    "city_kana": "ツシマシ",
    "town": "峰町三根",
    "town_kana": "ミネマチミネ",
    "street": null,
    "office_name": null,
    "office_name_kana": null
  },
  "1302": {
    "postcode": "8171302",
    "prefecture": "長崎県",
    "prefecture_kana": "ナガサキケン",
    "prefecture_code": 42,
    "city": "対馬市",
    "city_kana": "ツシマシ",
    "town": "峰町狩尾",
    "town_kana": "ミネマチカリオ",
    "street": null,
    "office_name": null,
    "office_name_kana": null
  },
  "1303": {
    "postcode": "8171303",
    "prefecture": "長崎県",
    "prefecture_kana": "ナガサキケン",
    "prefecture_code": 42,
    "city": "対馬市",
    "city_kana": "ツシマシ",
    "town": "峰町木坂",
    "town_kana": "ミネマチキサカ",
    "street": null,
    "office_name": null,
    "office_name_kana": null
  },
  "1304": {
    "postcode": "8171304",
    "prefecture": "長崎県",
    "prefecture_kana": "ナガサキケン",
    "prefecture_code": 42,
    "city": "対馬市",
    "city_kana": "ツシマシ",
    "town": "峰町青海",
    "town_kana": "ミネマチオウミ",
    "street": null,
    "office_name": null,
    "office_name_kana": null
  },
  "1305": {
    "postcode": "8171305",
    "prefecture": "長崎県",
    "prefecture_kana": "ナガサキケン",
    "prefecture_code": 42,
    "city": "対馬市",
    "city_kana": "ツシマシ",
    "town": "峰町津柳",
    "town_kana": "ミネマチツヤナギ",
    "street": null,
    "office_name": null,
    "office_name_kana": null
  },
  "1306": {
    "postcode": "8171306",
    "prefecture": "長崎県",
    "prefecture_kana": "ナガサキケン",
    "prefecture_code": 42,
    "city": "対馬市",
    "city_kana": "ツシマシ",
    "town": "峰町吉田",
    "town_kana": "ミネマチヨシダ",
    "street": null,
    "office_name": null,
    "office_name_kana": null
  },
  "1307": {
    "postcode": "8171307",
    "prefecture": "長崎県",
    "prefecture_kana": "ナガサキケン",
    "prefecture_code": 42,
    "city": "対馬市",
    "city_kana": "ツシマシ",
    "town": "峰町賀佐",
    "town_kana": "ミネマチカサ",
    "street": null,
    "office_name": null,
    "office_name_kana": null
  },
  "1411": {
    "postcode": "8171411",
    "prefecture": "長崎県",
    "prefecture_kana": "ナガサキケン",
    "prefecture_code": 42,
    "city": "対馬市",
    "city_kana": "ツシマシ",
    "town": "峰町櫛",
    "town_kana": "ミネマチクシ",
    "street": null,
    "office_name": null,
    "office_name_kana": null
  },
  "1412": {
    "postcode": "8171412",
    "prefecture": "長崎県",
    "prefecture_kana": "ナガサキケン",
    "prefecture_code": 42,
    "city": "対馬市",
    "city_kana": "ツシマシ",
    "town": "峰町佐賀",
    "town_kana": "ミネマチサカ",
    "street": null,
    "office_name": null,
    "office_name_kana": null
  },
  "1413": {
    "postcode": "8171413",
    "prefecture": "長崎県",
    "prefecture_kana": "ナガサキケン",
    "prefecture_code": 42,
    "city": "対馬市",
    "city_kana": "ツシマシ",
    "town": "峰町志多賀",
    "town_kana": "ミネマチシタカ",
    "street": null,
    "office_name": null,
    "office_name_kana": null
  },
  "1511": {
    "postcode": "8171511",
    "prefecture": "長崎県",
    "prefecture_kana": "ナガサキケン",
    "prefecture_code": 42,
    "city": "対馬市",
    "city_kana": "ツシマシ",
    "town": "上県町鹿見",
    "town_kana": "カミアガタマチシシミ",
    "street": null,
    "office_name": null,
    "office_name_kana": null
  },
  "1512": {
    "postcode": "8171512",
    "prefecture": "長崎県",
    "prefecture_kana": "ナガサキケン",
    "prefecture_code": 42,
    "city": "対馬市",
    "city_kana": "ツシマシ",
    "town": "上県町久原",
    "town_kana": "カミアガタマチクバラ",
    "street": null,
    "office_name": null,
    "office_name_kana": null
  },
  "1513": {
    "postcode": "8171513",
    "prefecture": "長崎県",
    "prefecture_kana": "ナガサキケン",
    "prefecture_code": 42,
    "city": "対馬市",
    "city_kana": "ツシマシ",
    "town": "上県町女連",
    "town_kana": "カミアガタマチウナツラ",
    "street": null,
    "office_name": null,
    "office_name_kana": null
  },
  "1521": {
    "postcode": "8171521",
    "prefecture": "長崎県",
    "prefecture_kana": "ナガサキケン",
    "prefecture_code": 42,
    "city": "対馬市",
    "city_kana": "ツシマシ",
    "town": "上県町飼所",
    "town_kana": "カミアガタマチカイドコロ",
    "street": null,
    "office_name": null,
    "office_name_kana": null
  },
  "1522": {
    "postcode": "8171522",
    "prefecture": "長崎県",
    "prefecture_kana": "ナガサキケン",
    "prefecture_code": 42,
    "city": "対馬市",
    "city_kana": "ツシマシ",
    "town": "上県町樫滝",
    "town_kana": "カミアガタマチカシタキ",
    "street": null,
    "office_name": null,
    "office_name_kana": null
  },
  "1523": {
    "postcode": "8171523",
    "prefecture": "長崎県",
    "prefecture_kana": "ナガサキケン",
    "prefecture_code": 42,
    "city": "対馬市",
    "city_kana": "ツシマシ",
    "town": "上県町瀬田",
    "town_kana": "カミアガタマチセタ",
    "street": null,
    "office_name": null,
    "office_name_kana": null
  },
  "1524": {
    "postcode": "8171524",
    "prefecture": "長崎県",
    "prefecture_kana": "ナガサキケン",
    "prefecture_code": 42,
    "city": "対馬市",
    "city_kana": "ツシマシ",
    "town": "上県町犬ケ浦",
    "town_kana": "カミアガタマチイヌガウラ",
    "street": null,
    "office_name": null,
    "office_name_kana": null
  },
  "1525": {
    "postcode": "8171525",
    "prefecture": "長崎県",
    "prefecture_kana": "ナガサキケン",
    "prefecture_code": 42,
    "city": "対馬市",
    "city_kana": "ツシマシ",
    "town": "上県町御園",
    "town_kana": "カミアガタマチミソ",
    "street": null,
    "office_name": null,
    "office_name_kana": null
  },
  "1531": {
    "postcode": "8171531",
    "prefecture": "長崎県",
    "prefecture_kana": "ナガサキケン",
    "prefecture_code": 42,
    "city": "対馬市",
    "city_kana": "ツシマシ",
    "town": "上県町越高",
    "town_kana": "カミアガタマチコシタカ",
    "street": null,
    "office_name": null,
    "office_name_kana": null
  },
  "1532": {
    "postcode": "8171532",
    "prefecture": "長崎県",
    "prefecture_kana": "ナガサキケン",
    "prefecture_code": 42,
    "city": "対馬市",
    "city_kana": "ツシマシ",
    "town": "上県町伊奈",
    "town_kana": "カミアガタマチイナ",
    "street": null,
    "office_name": null,
    "office_name_kana": null
  },
  "1533": {
    "postcode": "8171533",
    "prefecture": "長崎県",
    "prefecture_kana": "ナガサキケン",
    "prefecture_code": 42,
    "city": "対馬市",
    "city_kana": "ツシマシ",
    "town": "上県町志多留",
    "town_kana": "カミアガタマチシタル",
    "street": null,
    "office_name": null,
    "office_name_kana": null
  },
  "1601": {
    "postcode": "8171601",
    "prefecture": "長崎県",
    "prefecture_kana": "ナガサキケン",
    "prefecture_code": 42,
    "city": "対馬市",
    "city_kana": "ツシマシ",
    "town": "上県町西津屋",
    "town_kana": "カミアガタマチニシツヤ",
    "street": null,
    "office_name": null,
    "office_name_kana": null
  },
  "1602": {
    "postcode": "8171602",
    "prefecture": "長崎県",
    "prefecture_kana": "ナガサキケン",
    "prefecture_code": 42,
    "city": "対馬市",
    "city_kana": "ツシマシ",
    "town": "上県町佐須奈",
    "town_kana": "カミアガタマチサスナ",
    "street": null,
    "office_name": null,
    "office_name_kana": null
  },
  "1603": {
    "postcode": "8171603",
    "prefecture": "長崎県",
    "prefecture_kana": "ナガサキケン",
    "prefecture_code": 42,
    "city": "対馬市",
    "city_kana": "ツシマシ",
    "town": "上県町佐護",
    "town_kana": "カミアガタマチサゴ",
    "street": null,
    "office_name": null,
    "office_name_kana": null
  },
  "1692": {
    "postcode": "8171692",
    "prefecture": "長崎県",
    "prefecture_kana": "ナガサキケン",
    "prefecture_code": 42,
    "city": "対馬市",
    "city_kana": "ツシマシ",
    "town": "上県町佐須奈",
    "town_kana": "カミアガタマチサスナ",
    "street": "甲５６７−３",
    "office_name": "対馬市　上県支所",
    "office_name_kana": "ツシマシ カミアガタシシヨ"
  },
  "1701": {
    "postcode": "8171701",
    "prefecture": "長崎県",
    "prefecture_kana": "ナガサキケン",
    "prefecture_code": 42,
    "city": "対馬市",
    "city_kana": "ツシマシ",
    "town": "上対馬町比田勝",
    "town_kana": "カミツシママチヒタカツ",
    "street": null,
    "office_name": null,
    "office_name_kana": null
  },
  "1702": {
    "postcode": "8171702",
    "prefecture": "長崎県",
    "prefecture_kana": "ナガサキケン",
    "prefecture_code": 42,
    "city": "対馬市",
    "city_kana": "ツシマシ",
    "town": "上対馬町古里",
    "town_kana": "カミツシママチフルサト",
    "street": null,
    "office_name": null,
    "office_name_kana": null
  },
  "1703": {
    "postcode": "8171703",
    "prefecture": "長崎県",
    "prefecture_kana": "ナガサキケン",
    "prefecture_code": 42,
    "city": "対馬市",
    "city_kana": "ツシマシ",
    "town": "上対馬町西泊",
    "town_kana": "カミツシママチニシドマリ",
    "street": null,
    "office_name": null,
    "office_name_kana": null
  },
  "1704": {
    "postcode": "8171704",
    "prefecture": "長崎県",
    "prefecture_kana": "ナガサキケン",
    "prefecture_code": 42,
    "city": "対馬市",
    "city_kana": "ツシマシ",
    "town": "上対馬町網代",
    "town_kana": "カミツシママチアジロ",
    "street": null,
    "office_name": null,
    "office_name_kana": null
  },
  "1711": {
    "postcode": "8171711",
    "prefecture": "長崎県",
    "prefecture_kana": "ナガサキケン",
    "prefecture_code": 42,
    "city": "対馬市",
    "city_kana": "ツシマシ",
    "town": "上対馬町冨浦",
    "town_kana": "カミツシママチトミガウラ",
    "street": null,
    "office_name": null,
    "office_name_kana": null
  },
  "1712": {
    "postcode": "8171712",
    "prefecture": "長崎県",
    "prefecture_kana": "ナガサキケン",
    "prefecture_code": 42,
    "city": "対馬市",
    "city_kana": "ツシマシ",
    "town": "上対馬町唐舟志",
    "town_kana": "カミツシママチトウジュウシ",
    "street": null,
    "office_name": null,
    "office_name_kana": null
  },
  "1713": {
    "postcode": "8171713",
    "prefecture": "長崎県",
    "prefecture_kana": "ナガサキケン",
    "prefecture_code": 42,
    "city": "対馬市",
    "city_kana": "ツシマシ",
    "town": "上対馬町浜久須",
    "town_kana": "カミツシママチハマグス",
    "street": null,
    "office_name": null,
    "office_name_kana": null
  },
  "1714": {
    "postcode": "8171714",
    "prefecture": "長崎県",
    "prefecture_kana": "ナガサキケン",
    "prefecture_code": 42,
    "city": "対馬市",
    "city_kana": "ツシマシ",
    "town": "上対馬町玖須",
    "town_kana": "カミツシママチクス",
    "street": null,
    "office_name": null,
    "office_name_kana": null
  },
  "1715": {
    "postcode": "8171715",
    "prefecture": "長崎県",
    "prefecture_kana": "ナガサキケン",
    "prefecture_code": 42,
    "city": "対馬市",
    "city_kana": "ツシマシ",
    "town": "上対馬町大増",
    "town_kana": "カミツシママチオオマス",
    "street": null,
    "office_name": null,
    "office_name_kana": null
  },
  "1721": {
    "postcode": "8171721",
    "prefecture": "長崎県",
    "prefecture_kana": "ナガサキケン",
    "prefecture_code": 42,
    "city": "対馬市",
    "city_kana": "ツシマシ",
    "town": "上対馬町河内",
    "town_kana": "カミツシママチカワチ",
    "street": null,
    "office_name": null,
    "office_name_kana": null
  },
  "1722": {
    "postcode": "8171722",
    "prefecture": "長崎県",
    "prefecture_kana": "ナガサキケン",
    "prefecture_code": 42,
    "city": "対馬市",
    "city_kana": "ツシマシ",
    "town": "上対馬町大浦",
    "town_kana": "カミツシママチオオウラ",
    "street": null,
    "office_name": null,
    "office_name_kana": null
  },
  "1723": {
    "postcode": "8171723",
    "prefecture": "長崎県",
    "prefecture_kana": "ナガサキケン",
    "prefecture_code": 42,
    "city": "対馬市",
    "city_kana": "ツシマシ",
    "town": "上対馬町鰐浦",
    "town_kana": "カミツシママチワニウラ",
    "street": null,
    "office_name": null,
    "office_name_kana": null
  },
  "1724": {
    "postcode": "8171724",
    "prefecture": "長崎県",
    "prefecture_kana": "ナガサキケン",
    "prefecture_code": 42,
    "city": "対馬市",
    "city_kana": "ツシマシ",
    "town": "上対馬町豊",
    "town_kana": "カミツシママチトヨ",
    "street": null,
    "office_name": null,
    "office_name_kana": null
  },
  "1725": {
    "postcode": "8171725",
    "prefecture": "長崎県",
    "prefecture_kana": "ナガサキケン",
    "prefecture_code": 42,
    "city": "対馬市",
    "city_kana": "ツシマシ",
    "town": "上対馬町泉",
    "town_kana": "カミツシママチイズミ",
    "street": null,
    "office_name": null,
    "office_name_kana": null
  },
  "1797": {
    "postcode": "8171797",
    "prefecture": "長崎県",
    "prefecture_kana": "ナガサキケン",
    "prefecture_code": 42,
    "city": "対馬市",
    "city_kana": "ツシマシ",
    "town": "上対馬町鰐浦",
    "town_kana": "カミツシママチワニウラ",
    "street": "１２１７",
    "office_name": "航空自衛隊　第１９警戒隊",
    "office_name_kana": "コウクウジエイタイ ダイ19ケイカイタイ"
  },
  "2241": {
    "postcode": "8172241",
    "prefecture": "長崎県",
    "prefecture_kana": "ナガサキケン",
    "prefecture_code": 42,
    "city": "対馬市",
    "city_kana": "ツシマシ",
    "town": "上対馬町小鹿",
    "town_kana": "カミツシママチオシカ",
    "street": null,
    "office_name": null,
    "office_name_kana": null
  },
  "2242": {
    "postcode": "8172242",
    "prefecture": "長崎県",
    "prefecture_kana": "ナガサキケン",
    "prefecture_code": 42,
    "city": "対馬市",
    "city_kana": "ツシマシ",
    "town": "上対馬町一重",
    "town_kana": "カミツシママチヒトエ",
    "street": null,
    "office_name": null,
    "office_name_kana": null
  },
  "2243": {
    "postcode": "8172243",
    "prefecture": "長崎県",
    "prefecture_kana": "ナガサキケン",
    "prefecture_code": 42,
    "city": "対馬市",
    "city_kana": "ツシマシ",
    "town": "上対馬町芦見",
    "town_kana": "カミツシママチアシミ",
    "street": null,
    "office_name": null,
    "office_name_kana": null
  },
  "2331": {
    "postcode": "8172331",
    "prefecture": "長崎県",
    "prefecture_kana": "ナガサキケン",
    "prefecture_code": 42,
    "city": "対馬市",
    "city_kana": "ツシマシ",
    "town": "上対馬町琴",
    "town_kana": "カミツシママチキン",
    "street": null,
    "office_name": null,
    "office_name_kana": null
  },
  "2332": {
    "postcode": "8172332",
    "prefecture": "長崎県",
    "prefecture_kana": "ナガサキケン",
    "prefecture_code": 42,
    "city": "対馬市",
    "city_kana": "ツシマシ",
    "town": "上対馬町五根緒",
    "town_kana": "カミツシママチゴネオ",
    "street": null,
    "office_name": null,
    "office_name_kana": null
  },
  "2333": {
    "postcode": "8172333",
    "prefecture": "長崎県",
    "prefecture_kana": "ナガサキケン",
    "prefecture_code": 42,
    "city": "対馬市",
    "city_kana": "ツシマシ",
    "town": "上対馬町舟志",
    "town_kana": "カミツシママチシュウシ",
    "street": null,
    "office_name": null,
    "office_name_kana": null
  },
  "8510": {
    "postcode": "8178510",
    "prefecture": "長崎県",
    "prefecture_kana": "ナガサキケン",
    "prefecture_code": 42,
    "city": "対馬市",
    "city_kana": "ツシマシ",
    "town": "厳原町国分",
    "town_kana": "イヅハラマチコクブ",
    "street": "１４４１",
    "office_name": "対馬市役所",
    "office_name_kana": "ツシマシヤクシヨ"
  },
  "8517": {
    "postcode": "8178517",
    "prefecture": "長崎県",
    "prefecture_kana": "ナガサキケン",
    "prefecture_code": 42,
    "city": "対馬市",
    "city_kana": "ツシマシ",
    "town": "厳原町東里",
    "town_kana": "イヅハラマチヒガシザト",
    "street": "３０３−１",
    "office_name": "対馬いづはら病院",
    "office_name_kana": "ツシマイヅハラビヨウイン"
  },
  "8520": {
    "postcode": "8178520",
    "prefecture": "長崎県",
    "prefecture_kana": "ナガサキケン",
    "prefecture_code": 42,
    "city": "対馬市",
    "city_kana": "ツシマシ",
    "town": "厳原町宮谷",
    "town_kana": "イヅハラマチミヤダニ",
    "street": "２２４",
    "office_name": "長崎県　対馬振興局",
    "office_name_kana": "ナガサキケン ツシマシンコウキヨク"
  }
}