{
  "0000": {
    "postcode": "8200000",
    "prefecture": "福岡県",
    "prefecture_kana": "フクオカケン",
    "prefecture_code": 40,
    "city": "飯塚市",
    "city_kana": "イイヅカシ",
    "town": "",
    "town_kana": "",
    "street": null,
    "office_name": null,
    "office_name_kana": null
  },
  "0001": {
    "postcode": "8200001",
    "prefecture": "福岡県",
    "prefecture_kana": "フクオカケン",
    "prefecture_code": 40,
    "city": "飯塚市",
    "city_kana": "イイヅカシ",
    "town": "鯰田",
    "town_kana": "ナマズタ",
    "street": null,
    "office_name": null,
    "office_name_kana": null
  },
  "0002": {
    "postcode": "8200002",
    "prefecture": "福岡県",
    "prefecture_kana": "フクオカケン",
    "prefecture_code": 40,
    "city": "飯塚市",
    "city_kana": "イイヅカシ",
    "town": "川島",
    "town_kana": "カワシマ",
    "street": null,
    "office_name": null,
    "office_name_kana": null
  },
  "0003": {
    "postcode": "8200003",
    "prefecture": "福岡県",
    "prefecture_kana": "フクオカケン",
    "prefecture_code": 40,
    "city": "飯塚市",
    "city_kana": "イイヅカシ",
    "town": "立岩",
    "town_kana": "タテイワ",
    "street": null,
    "office_name": null,
    "office_name_kana": null
  },
  "0004": {
    "postcode": "8200004",
    "prefecture": "福岡県",
    "prefecture_kana": "フクオカケン",
    "prefecture_code": 40,
    "city": "飯塚市",
    "city_kana": "イイヅカシ",
    "town": "新立岩",
    "town_kana": "シンタテイワ",
    "street": null,
    "office_name": null,
    "office_name_kana": null
  },
  "0005": {
    "postcode": "8200005",
    "prefecture": "福岡県",
    "prefecture_kana": "フクオカケン",
    "prefecture_code": 40,
    "city": "飯塚市",
    "city_kana": "イイヅカシ",
    "town": "新飯塚",
    "town_kana": "シンイイヅカ",
    "street": null,
    "office_name": null,
    "office_name_kana": null
  },
  "0011": {
    "postcode": "8200011",
    "prefecture": "福岡県",
    "prefecture_kana": "フクオカケン",
    "prefecture_code": 40,
    "city": "飯塚市",
    "city_kana": "イイヅカシ",
    "town": "柏の森",
    "town_kana": "カヤノモリ",
    "street": null,
    "office_name": null,
    "office_name_kana": null
  },
  "0012": {
    "postcode": "8200012",
    "prefecture": "福岡県",
    "prefecture_kana": "フクオカケン",
    "prefecture_code": 40,
    "city": "飯塚市",
    "city_kana": "イイヅカシ",
    "town": "下三緒",
    "town_kana": "シモミオ",
    "street": null,
    "office_name": null,
    "office_name_kana": null
  },
  "0013": {
    "postcode": "8200013",
    "prefecture": "福岡県",
    "prefecture_kana": "フクオカケン",
    "prefecture_code": 40,
    "city": "飯塚市",
    "city_kana": "イイヅカシ",
    "town": "上三緒",
    "town_kana": "カミミオ",
    "street": null,
    "office_name": null,
    "office_name_kana": null
  },
  "0014": {
    "postcode": "8200014",
    "prefecture": "福岡県",
    "prefecture_kana": "フクオカケン",
    "prefecture_code": 40,
    "city": "飯塚市",
    "city_kana": "イイヅカシ",
    "town": "鶴三緒",
    "town_kana": "ツルミオ",
    "street": null,
    "office_name": null,
    "office_name_kana": null
  },
  "0015": {
    "postcode": "8200015",
    "prefecture": "福岡県",
    "prefecture_kana": "フクオカケン",
    "prefecture_code": 40,
    "city": "飯塚市",
    "city_kana": "イイヅカシ",
    "town": "菰田",
    "town_kana": "コモダ",
    "street": null,
    "office_name": null,
    "office_name_kana": null
  },
  "0016": {
    "postcode": "8200016",
    "prefecture": "福岡県",
    "prefecture_kana": "フクオカケン",
    "prefecture_code": 40,
    "city": "飯塚市",
    "city_kana": "イイヅカシ",
    "town": "菰田東",
    "town_kana": "コモダヒガシ",
    "street": null,
    "office_name": null,
    "office_name_kana": null
  },
  "0017": {
    "postcode": "8200017",
    "prefecture": "福岡県",
    "prefecture_kana": "フクオカケン",
    "prefecture_code": 40,
    "city": "飯塚市",
    "city_kana": "イイヅカシ",
    "town": "菰田西",
    "town_kana": "コモダニシ",
    "street": null,
    "office_name": null,
    "office_name_kana": null
  },
  "0018": {
    "postcode": "8200018",
    "prefecture": "福岡県",
    "prefecture_kana": "フクオカケン",
    "prefecture_code": 40,
    "city": "飯塚市",
    "city_kana": "イイヅカシ",
    "town": "芳雄町",
    "town_kana": "ヨシオマチ",
    "street": null,
    "office_name": null,
    "office_name_kana": null
  },
  "0021": {
    "postcode": "8200021",
    "prefecture": "福岡県",
    "prefecture_kana": "フクオカケン",
    "prefecture_code": 40,
    "city": "飯塚市",
    "city_kana": "イイヅカシ",
    "town": "潤野",
    "town_kana": "ウルノ",
    "street": null,
    "office_name": null,
    "office_name_kana": null
  },
  "0022": {
    "postcode": "8200022",
    "prefecture": "福岡県",
    "prefecture_kana": "フクオカケン",
    "prefecture_code": 40,
    "city": "飯塚市",
    "city_kana": "イイヅカシ",
    "town": "明星寺",
    "town_kana": "ミョウジョウジ",
    "street": null,
    "office_name": null,
    "office_name_kana": null
  },
  "0031": {
    "postcode": "8200031",
    "prefecture": "福岡県",
    "prefecture_kana": "フクオカケン",
    "prefecture_code": 40,
    "city": "飯塚市",
    "city_kana": "イイヅカシ",
    "town": "西徳前",
    "town_kana": "ニシトクゼン",
    "street": null,
    "office_name": null,
    "office_name_kana": null
  },
  "0032": {
    "postcode": "8200032",
    "prefecture": "福岡県",
    "prefecture_kana": "フクオカケン",
    "prefecture_code": 40,
    "city": "飯塚市",
    "city_kana": "イイヅカシ",
    "town": "東徳前",
    "town_kana": "ヒガシトクゼン",
    "street": null,
    "office_name": null,
    "office_name_kana": null
  },
  "0033": {
    "postcode": "8200033",
    "prefecture": "福岡県",
    "prefecture_kana": "フクオカケン",
    "prefecture_code": 40,
    "city": "飯塚市",
    "city_kana": "イイヅカシ",
    "town": "徳前",
    "town_kana": "トクゼン",
    "street": null,
    "office_name": null,
    "office_name_kana": null
  },
  "0040": {
    "postcode": "8200040",
    "prefecture": "福岡県",
    "prefecture_kana": "フクオカケン",
    "prefecture_code": 40,
    "city": "飯塚市",
    "city_kana": "イイヅカシ",
    "town": "吉原町",
    "town_kana": "ヨシハラマチ",
    "street": null,
    "office_name": null,
    "office_name_kana": null
  },
  "0041": {
    "postcode": "8200041",
    "prefecture": "福岡県",
    "prefecture_kana": "フクオカケン",
    "prefecture_code": 40,
    "city": "飯塚市",
    "city_kana": "イイヅカシ",
    "town": "飯塚",
    "town_kana": "イイヅカ",
    "street": null,
    "office_name": null,
    "office_name_kana": null
  },
  "0042": {
    "postcode": "8200042",
    "prefecture": "福岡県",
    "prefecture_kana": "フクオカケン",
    "prefecture_code": 40,
    "city": "飯塚市",
    "city_kana": "イイヅカシ",
    "town": "本町",
    "town_kana": "ホンマチ",
    "street": null,
    "office_name": null,
    "office_name_kana": null
  },
  "0043": {
    "postcode": "8200043",
    "prefecture": "福岡県",
    "prefecture_kana": "フクオカケン",
    "prefecture_code": 40,
    "city": "飯塚市",
    "city_kana": "イイヅカシ",
    "town": "西町",
    "town_kana": "ニシマチ",
    "street": null,
    "office_name": null,
    "office_name_kana": null
  },
  "0044": {
    "postcode": "8200044",
    "prefecture": "福岡県",
    "prefecture_kana": "フクオカケン",
    "prefecture_code": 40,
    "city": "飯塚市",
    "city_kana": "イイヅカシ",
    "town": "横田",
    "town_kana": "ヨコタ",
    "street": null,
    "office_name": null,
    "office_name_kana": null
  },
  "0045": {
    "postcode": "8200045",
    "prefecture": "福岡県",
    "prefecture_kana": "フクオカケン",
    "prefecture_code": 40,
    "city": "飯塚市",
    "city_kana": "イイヅカシ",
    "town": "花瀬",
    "town_kana": "ハナセ",
    "street": null,
    "office_name": null,
    "office_name_kana": null
  },
  "0046": {
    "postcode": "8200046",
    "prefecture": "福岡県",
    "prefecture_kana": "フクオカケン",
    "prefecture_code": 40,
    "city": "飯塚市",
    "city_kana": "イイヅカシ",
    "town": "大日寺",
    "town_kana": "ダイニチジ",
    "street": null,
    "office_name": null,
    "office_name_kana": null
  },
  "0047": {
    "postcode": "8200047",
    "prefecture": "福岡県",
    "prefecture_kana": "フクオカケン",
    "prefecture_code": 40,
    "city": "飯塚市",
    "city_kana": "イイヅカシ",
    "town": "八木山",
    "town_kana": "ヤキヤマ",
    "street": null,
    "office_name": null,
    "office_name_kana": null
  },
  "0048": {
    "postcode": "8200048",
    "prefecture": "福岡県",
    "prefecture_kana": "フクオカケン",
    "prefecture_code": 40,
    "city": "飯塚市",
    "city_kana": "イイヅカシ",
    "town": "蓮台寺",
    "town_kana": "レンダイジ",
    "street": null,
    "office_name": null,
    "office_name_kana": null
  },
  "0049": {
    "postcode": "8200049",
    "prefecture": "福岡県",
    "prefecture_kana": "フクオカケン",
    "prefecture_code": 40,
    "city": "飯塚市",
    "city_kana": "イイヅカシ",
    "town": "建花寺",
    "town_kana": "ケンゲイジ",
    "street": null,
    "office_name": null,
    "office_name_kana": null
  },
  "0051": {
    "postcode": "8200051",
    "prefecture": "福岡県",
    "prefecture_kana": "フクオカケン",
    "prefecture_code": 40,
    "city": "飯塚市",
    "city_kana": "イイヅカシ",
    "town": "庄司",
    "town_kana": "ショウシ",
    "street": null,
    "office_name": null,
    "office_name_kana": null
  },
  "0052": {
    "postcode": "8200052",
    "prefecture": "福岡県",
    "prefecture_kana": "フクオカケン",
    "prefecture_code": 40,
    "city": "飯塚市",
    "city_kana": "イイヅカシ",
    "town": "相田",
    "town_kana": "アイダ",
    "street": null,
    "office_name": null,
    "office_name_kana": null
  },
  "0053": {
    "postcode": "8200053",
    "prefecture": "福岡県",
    "prefecture_kana": "フクオカケン",
    "prefecture_code": 40,
    "city": "飯塚市",
    "city_kana": "イイヅカシ",
    "town": "伊岐須",
    "town_kana": "イギス",
    "street": null,
    "office_name": null,
    "office_name_kana": null
  },
  "0054": {
    "postcode": "8200054",
    "prefecture": "福岡県",
    "prefecture_kana": "フクオカケン",
    "prefecture_code": 40,
    "city": "飯塚市",
    "city_kana": "イイヅカシ",
    "town": "伊川",
    "town_kana": "イカワ",
    "street": null,
    "office_name": null,
    "office_name_kana": null
  },
  "0061": {
    "postcode": "8200061",
    "prefecture": "福岡県",
    "prefecture_kana": "フクオカケン",
    "prefecture_code": 40,
    "city": "飯塚市",
    "city_kana": "イイヅカシ",
    "town": "吉北",
    "town_kana": "ヨシキタ",
    "street": null,
    "office_name": null,
    "office_name_kana": null
  },
  "0062": {
    "postcode": "8200062",
    "prefecture": "福岡県",
    "prefecture_kana": "フクオカケン",
    "prefecture_code": 40,
    "city": "飯塚市",
    "city_kana": "イイヅカシ",
    "town": "目尾",
    "town_kana": "シャカノオ",
    "street": null,
    "office_name": null,
    "office_name_kana": null
  },
  "0063": {
    "postcode": "8200063",
    "prefecture": "福岡県",
    "prefecture_kana": "フクオカケン",
    "prefecture_code": 40,
    "city": "飯塚市",
    "city_kana": "イイヅカシ",
    "town": "柳橋",
    "town_kana": "ヤナギバシ",
    "street": null,
    "office_name": null,
    "office_name_kana": null
  },
  "0064": {
    "postcode": "8200064",
    "prefecture": "福岡県",
    "prefecture_kana": "フクオカケン",
    "prefecture_code": 40,
    "city": "飯塚市",
    "city_kana": "イイヅカシ",
    "town": "津島",
    "town_kana": "ツシマ",
    "street": null,
    "office_name": null,
    "office_name_kana": null
  },
  "0065": {
    "postcode": "8200065",
    "prefecture": "福岡県",
    "prefecture_kana": "フクオカケン",
    "prefecture_code": 40,
    "city": "飯塚市",
    "city_kana": "イイヅカシ",
    "town": "中",
    "town_kana": "ナカ",
    "street": null,
    "office_name": null,
    "office_name_kana": null
  },
  "0066": {
    "postcode": "8200066",
    "prefecture": "福岡県",
    "prefecture_kana": "フクオカケン",
    "prefecture_code": 40,
    "city": "飯塚市",
    "city_kana": "イイヅカシ",
    "town": "幸袋",
    "town_kana": "コウブクロ",
    "street": null,
    "office_name": null,
    "office_name_kana": null
  },
  "0067": {
    "postcode": "8200067",
    "prefecture": "福岡県",
    "prefecture_kana": "フクオカケン",
    "prefecture_code": 40,
    "city": "飯塚市",
    "city_kana": "イイヅカシ",
    "town": "川津",
    "town_kana": "カワヅ",
    "street": null,
    "office_name": null,
    "office_name_kana": null
  },
  "0068": {
    "postcode": "8200068",
    "prefecture": "福岡県",
    "prefecture_kana": "フクオカケン",
    "prefecture_code": 40,
    "city": "飯塚市",
    "city_kana": "イイヅカシ",
    "town": "片島",
    "town_kana": "カタシマ",
    "street": null,
    "office_name": null,
    "office_name_kana": null
  },
  "0069": {
    "postcode": "8200069",
    "prefecture": "福岡県",
    "prefecture_kana": "フクオカケン",
    "prefecture_code": 40,
    "city": "飯塚市",
    "city_kana": "イイヅカシ",
    "town": "宮町",
    "town_kana": "ミヤマチ",
    "street": null,
    "office_name": null,
    "office_name_kana": null
  },
  "0070": {
    "postcode": "8200070",
    "prefecture": "福岡県",
    "prefecture_kana": "フクオカケン",
    "prefecture_code": 40,
    "city": "飯塚市",
    "city_kana": "イイヅカシ",
    "town": "堀池",
    "town_kana": "ホリイケ",
    "street": null,
    "office_name": null,
    "office_name_kana": null
  },
  "0071": {
    "postcode": "8200071",
    "prefecture": "福岡県",
    "prefecture_kana": "フクオカケン",
    "prefecture_code": 40,
    "city": "飯塚市",
    "city_kana": "イイヅカシ",
    "town": "忠隈",
    "town_kana": "タダクマ",
    "street": null,
    "office_name": null,
    "office_name_kana": null
  },
  "0072": {
    "postcode": "8200072",
    "prefecture": "福岡県",
    "prefecture_kana": "フクオカケン",
    "prefecture_code": 40,
    "city": "飯塚市",
    "city_kana": "イイヅカシ",
    "town": "南尾",
    "town_kana": "ミナミオ",
    "street": null,
    "office_name": null,
    "office_name_kana": null
  },
  "0073": {
    "postcode": "8200073",
    "prefecture": "福岡県",
    "prefecture_kana": "フクオカケン",
    "prefecture_code": 40,
    "city": "飯塚市",
    "city_kana": "イイヅカシ",
    "town": "平恒",
    "town_kana": "ヒラツネ",
    "street": null,
    "office_name": null,
    "office_name_kana": null
  },
  "0074": {
    "postcode": "8200074",
    "prefecture": "福岡県",
    "prefecture_kana": "フクオカケン",
    "prefecture_code": 40,
    "city": "飯塚市",
    "city_kana": "イイヅカシ",
    "town": "楽市",
    "town_kana": "ラクイチ",
    "street": null,
    "office_name": null,
    "office_name_kana": null
  },
  "0075": {
    "postcode": "8200075",
    "prefecture": "福岡県",
    "prefecture_kana": "フクオカケン",
    "prefecture_code": 40,
    "city": "飯塚市",
    "city_kana": "イイヅカシ",
    "town": "天道",
    "town_kana": "テントウ",
    "street": null,
    "office_name": null,
    "office_name_kana": null
  },
  "0076": {
    "postcode": "8200076",
    "prefecture": "福岡県",
    "prefecture_kana": "フクオカケン",
    "prefecture_code": 40,
    "city": "飯塚市",
    "city_kana": "イイヅカシ",
    "town": "太郎丸",
    "town_kana": "タロウマル",
    "street": null,
    "office_name": null,
    "office_name_kana": null
  },
  "0077": {
    "postcode": "8200077",
    "prefecture": "福岡県",
    "prefecture_kana": "フクオカケン",
    "prefecture_code": 40,
    "city": "飯塚市",
    "city_kana": "イイヅカシ",
    "town": "椋本",
    "town_kana": "ムクモト",
    "street": null,
    "office_name": null,
    "office_name_kana": null
  },
  "0078": {
    "postcode": "8200078",
    "prefecture": "福岡県",
    "prefecture_kana": "フクオカケン",
    "prefecture_code": 40,
    "city": "飯塚市",
    "city_kana": "イイヅカシ",
    "town": "久保白",
    "town_kana": "クボシロ",
    "street": null,
    "office_name": null,
    "office_name_kana": null
  },
  "0079": {
    "postcode": "8200079",
    "prefecture": "福岡県",
    "prefecture_kana": "フクオカケン",
    "prefecture_code": 40,
    "city": "飯塚市",
    "city_kana": "イイヅカシ",
    "town": "高田",
    "town_kana": "タカタ",
    "street": null,
    "office_name": null,
    "office_name_kana": null
  },
  "0081": {
    "postcode": "8200081",
    "prefecture": "福岡県",
    "prefecture_kana": "フクオカケン",
    "prefecture_code": 40,
    "city": "飯塚市",
    "city_kana": "イイヅカシ",
    "town": "枝国",
    "town_kana": "エダクニ",
    "street": null,
    "office_name": null,
    "office_name_kana": null
  },
  "0082": {
    "postcode": "8200082",
    "prefecture": "福岡県",
    "prefecture_kana": "フクオカケン",
    "prefecture_code": 40,
    "city": "飯塚市",
    "city_kana": "イイヅカシ",
    "town": "若菜",
    "town_kana": "ワカナ",
    "street": null,
    "office_name": null,
    "office_name_kana": null
  },
  "0083": {
    "postcode": "8200083",
    "prefecture": "福岡県",
    "prefecture_kana": "フクオカケン",
    "prefecture_code": 40,
    "city": "飯塚市",
    "city_kana": "イイヅカシ",
    "town": "秋松",
    "town_kana": "アキマツ",
    "street": null,
    "office_name": null,
    "office_name_kana": null
  },
  "0084": {
    "postcode": "8200084",
    "prefecture": "福岡県",
    "prefecture_kana": "フクオカケン",
    "prefecture_code": 40,
    "city": "飯塚市",
    "city_kana": "イイヅカシ",
    "town": "椿",
    "town_kana": "ツバキ",
    "street": null,
    "office_name": null,
    "office_name_kana": null
  },
  "0085": {
    "postcode": "8200085",
    "prefecture": "福岡県",
    "prefecture_kana": "フクオカケン",
    "prefecture_code": 40,
    "city": "飯塚市",
    "city_kana": "イイヅカシ",
    "town": "安恒",
    "town_kana": "ヤスツネ",
    "street": null,
    "office_name": null,
    "office_name_kana": null
  },
  "0086": {
    "postcode": "8200086",
    "prefecture": "福岡県",
    "prefecture_kana": "フクオカケン",
    "prefecture_code": 40,
    "city": "飯塚市",
    "city_kana": "イイヅカシ",
    "town": "津原",
    "town_kana": "ツワラ",
    "street": null,
    "office_name": null,
    "office_name_kana": null
  },
  "0087": {
    "postcode": "8200087",
    "prefecture": "福岡県",
    "prefecture_kana": "フクオカケン",
    "prefecture_code": 40,
    "city": "飯塚市",
    "city_kana": "イイヅカシ",
    "town": "舎利蔵",
    "town_kana": "シャリクラ",
    "street": null,
    "office_name": null,
    "office_name_kana": null
  },
  "0088": {
    "postcode": "8200088",
    "prefecture": "福岡県",
    "prefecture_kana": "フクオカケン",
    "prefecture_code": 40,
    "city": "飯塚市",
    "city_kana": "イイヅカシ",
    "town": "弁分",
    "town_kana": "ベンブン",
    "street": null,
    "office_name": null,
    "office_name_kana": null
  },
  "0089": {
    "postcode": "8200089",
    "prefecture": "福岡県",
    "prefecture_kana": "フクオカケン",
    "prefecture_code": 40,
    "city": "飯塚市",
    "city_kana": "イイヅカシ",
    "town": "小正",
    "town_kana": "オバサ",
    "street": null,
    "office_name": null,
    "office_name_kana": null
  },
  "0101": {
    "postcode": "8200101",
    "prefecture": "福岡県",
    "prefecture_kana": "フクオカケン",
    "prefecture_code": 40,
    "city": "飯塚市",
    "city_kana": "イイヅカシ",
    "town": "綱分",
    "town_kana": "ツナワキ",
    "street": null,
    "office_name": null,
    "office_name_kana": null
  },
  "0102": {
    "postcode": "8200102",
    "prefecture": "福岡県",
    "prefecture_kana": "フクオカケン",
    "prefecture_code": 40,
    "city": "飯塚市",
    "city_kana": "イイヅカシ",
    "town": "山倉",
    "town_kana": "ヤマクラ",
    "street": null,
    "office_name": null,
    "office_name_kana": null
  },
  "0103": {
    "postcode": "8200103",
    "prefecture": "福岡県",
    "prefecture_kana": "フクオカケン",
    "prefecture_code": 40,
    "city": "飯塚市",
    "city_kana": "イイヅカシ",
    "town": "入水",
    "town_kana": "イリミズ",
    "street": null,
    "office_name": null,
    "office_name_kana": null
  },
  "0104": {
    "postcode": "8200104",
    "prefecture": "福岡県",
    "prefecture_kana": "フクオカケン",
    "prefecture_code": 40,
    "city": "飯塚市",
    "city_kana": "イイヅカシ",
    "town": "高倉",
    "town_kana": "タカクラ",
    "street": null,
    "office_name": null,
    "office_name_kana": null
  },
  "0105": {
    "postcode": "8200105",
    "prefecture": "福岡県",
    "prefecture_kana": "フクオカケン",
    "prefecture_code": 40,
    "city": "飯塚市",
    "city_kana": "イイヅカシ",
    "town": "筒野",
    "town_kana": "ツツノ",
    "street": null,
    "office_name": null,
    "office_name_kana": null
  },
  "0106": {
    "postcode": "8200106",
    "prefecture": "福岡県",
    "prefecture_kana": "フクオカケン",
    "prefecture_code": 40,
    "city": "飯塚市",
    "city_kana": "イイヅカシ",
    "town": "赤坂",
    "town_kana": "アカサカ",
    "street": null,
    "office_name": null,
    "office_name_kana": null
  },
  "0111": {
    "postcode": "8200111",
    "prefecture": "福岡県",
    "prefecture_kana": "フクオカケン",
    "prefecture_code": 40,
    "city": "飯塚市",
    "city_kana": "イイヅカシ",
    "town": "有安",
    "town_kana": "アリヤス",
    "street": null,
    "office_name": null,
    "office_name_kana": null
  },
  "0112": {
    "postcode": "8200112",
    "prefecture": "福岡県",
    "prefecture_kana": "フクオカケン",
    "prefecture_code": 40,
    "city": "飯塚市",
    "city_kana": "イイヅカシ",
    "town": "有井",
    "town_kana": "アリイ",
    "street": null,
    "office_name": null,
    "office_name_kana": null
  },
  "0113": {
    "postcode": "8200113",
    "prefecture": "福岡県",
    "prefecture_kana": "フクオカケン",
    "prefecture_code": 40,
    "city": "飯塚市",
    "city_kana": "イイヅカシ",
    "town": "庄内元吉",
    "town_kana": "ショウナイモトヨシ",
    "street": null,
    "office_name": null,
    "office_name_kana": null
  },
  "0114": {
    "postcode": "8200114",
    "prefecture": "福岡県",
    "prefecture_kana": "フクオカケン",
    "prefecture_code": 40,
    "city": "飯塚市",
    "city_kana": "イイヅカシ",
    "town": "大門",
    "town_kana": "オオカド",
    "street": null,
    "office_name": null,
    "office_name_kana": null
  },
  "0115": {
    "postcode": "8200115",
    "prefecture": "福岡県",
    "prefecture_kana": "フクオカケン",
    "prefecture_code": 40,
    "city": "飯塚市",
    "city_kana": "イイヅカシ",
    "town": "仁保",
    "town_kana": "ニホ",
    "street": null,
    "office_name": null,
    "office_name_kana": null
  },
  "0116": {
    "postcode": "8200116",
    "prefecture": "福岡県",
    "prefecture_kana": "フクオカケン",
    "prefecture_code": 40,
    "city": "飯塚市",
    "city_kana": "イイヅカシ",
    "town": "多田",
    "town_kana": "タダ",
    "street": null,
    "office_name": null,
    "office_name_kana": null
  },
  "0200": {
    "postcode": "8200200",
    "prefecture": "福岡県",
    "prefecture_kana": "フクオカケン",
    "prefecture_code": 40,
    "city": "嘉麻市",
    "city_kana": "カマシ",
    "town": "",
    "town_kana": "",
    "street": null,
    "office_name": null,
    "office_name_kana": null
  },
  "0201": {
    "postcode": "8200201",
    "prefecture": "福岡県",
    "prefecture_kana": "フクオカケン",
    "prefecture_code": 40,
    "city": "嘉麻市",
    "city_kana": "カマシ",
    "town": "漆生",
    "town_kana": "ウルシオ",
    "street": null,
    "office_name": null,
    "office_name_kana": null
  },
  "0202": {
    "postcode": "8200202",
    "prefecture": "福岡県",
    "prefecture_kana": "フクオカケン",
    "prefecture_code": 40,
    "city": "嘉麻市",
    "city_kana": "カマシ",
    "town": "山野",
    "town_kana": "ヤマノ",
    "street": null,
    "office_name": null,
    "office_name_kana": null
  },
  "0203": {
    "postcode": "8200203",
    "prefecture": "福岡県",
    "prefecture_kana": "フクオカケン",
    "prefecture_code": 40,
    "city": "嘉麻市",
    "city_kana": "カマシ",
    "town": "平",
    "town_kana": "ヒラ",
    "street": null,
    "office_name": null,
    "office_name_kana": null
  },
  "0204": {
    "postcode": "8200204",
    "prefecture": "福岡県",
    "prefecture_kana": "フクオカケン",
    "prefecture_code": 40,
    "city": "嘉麻市",
    "city_kana": "カマシ",
    "town": "稲築才田",
    "town_kana": "イナツキサイダ",
    "street": null,
    "office_name": null,
    "office_name_kana": null
  },
  "0205": {
    "postcode": "8200205",
    "prefecture": "福岡県",
    "prefecture_kana": "フクオカケン",
    "prefecture_code": 40,
    "city": "嘉麻市",
    "city_kana": "カマシ",
    "town": "岩崎",
    "town_kana": "イワサキ",
    "street": null,
    "office_name": null,
    "office_name_kana": null
  },
  "0206": {
    "postcode": "8200206",
    "prefecture": "福岡県",
    "prefecture_kana": "フクオカケン",
    "prefecture_code": 40,
    "city": "嘉麻市",
    "city_kana": "カマシ",
    "town": "鴨生",
    "town_kana": "カモオ",
    "street": null,
    "office_name": null,
    "office_name_kana": null
  },
  "0207": {
    "postcode": "8200207",
    "prefecture": "福岡県",
    "prefecture_kana": "フクオカケン",
    "prefecture_code": 40,
    "city": "嘉麻市",
    "city_kana": "カマシ",
    "town": "口春",
    "town_kana": "クチノハル",
    "street": null,
    "office_name": null,
    "office_name_kana": null
  },
  "0292": {
    "postcode": "8200292",
    "prefecture": "福岡県",
    "prefecture_kana": "フクオカケン",
    "prefecture_code": 40,
    "city": "嘉麻市",
    "city_kana": "カマシ",
    "town": "岩崎",
    "town_kana": "イワサキ",
    "street": "１１８０番地１",
    "office_name": "嘉麻市役所　本庁",
    "office_name_kana": "カマシヤクシヨ ホンチヨウ"
  },
  "0301": {
    "postcode": "8200301",
    "prefecture": "福岡県",
    "prefecture_kana": "フクオカケン",
    "prefecture_code": 40,
    "city": "嘉麻市",
    "city_kana": "カマシ",
    "town": "牛隈",
    "town_kana": "ウシクマ",
    "street": null,
    "office_name": null,
    "office_name_kana": null
  },
  "0302": {
    "postcode": "8200302",
    "prefecture": "福岡県",
    "prefecture_kana": "フクオカケン",
    "prefecture_code": 40,
    "city": "嘉麻市",
    "city_kana": "カマシ",
    "town": "大隈町",
    "town_kana": "オオクママチ",
    "street": null,
    "office_name": null,
    "office_name_kana": null
  },
  "0303": {
    "postcode": "8200303",
    "prefecture": "福岡県",
    "prefecture_kana": "フクオカケン",
    "prefecture_code": 40,
    "city": "嘉麻市",
    "city_kana": "カマシ",
    "town": "中益",
    "town_kana": "ナカマス",
    "street": null,
    "office_name": null,
    "office_name_kana": null
  },
  "0304": {
    "postcode": "8200304",
    "prefecture": "福岡県",
    "prefecture_kana": "フクオカケン",
    "prefecture_code": 40,
    "city": "嘉麻市",
    "city_kana": "カマシ",
    "town": "大隈",
    "town_kana": "オオクマ",
    "street": null,
    "office_name": null,
    "office_name_kana": null
  },
  "0305": {
    "postcode": "8200305",
    "prefecture": "福岡県",
    "prefecture_kana": "フクオカケン",
    "prefecture_code": 40,
    "city": "嘉麻市",
    "city_kana": "カマシ",
    "town": "貞月",
    "town_kana": "サダツキ",
    "street": null,
    "office_name": null,
    "office_name_kana": null
  },
  "0306": {
    "postcode": "8200306",
    "prefecture": "福岡県",
    "prefecture_kana": "フクオカケン",
    "prefecture_code": 40,
    "city": "嘉麻市",
    "city_kana": "カマシ",
    "town": "上西郷",
    "town_kana": "カミサイゴウ",
    "street": null,
    "office_name": null,
    "office_name_kana": null
  },
  "0311": {
    "postcode": "8200311",
    "prefecture": "福岡県",
    "prefecture_kana": "フクオカケン",
    "prefecture_code": 40,
    "city": "嘉麻市",
    "city_kana": "カマシ",
    "town": "上",
    "town_kana": "カミ",
    "street": null,
    "office_name": null,
    "office_name_kana": null
  },
  "0312": {
    "postcode": "8200312",
    "prefecture": "福岡県",
    "prefecture_kana": "フクオカケン",
    "prefecture_code": 40,
    "city": "嘉麻市",
    "city_kana": "カマシ",
    "town": "宮吉",
    "town_kana": "ミヤヨシ",
    "street": null,
    "office_name": null,
    "office_name_kana": null
  },
  "0313": {
    "postcode": "8200313",
    "prefecture": "福岡県",
    "prefecture_kana": "フクオカケン",
    "prefecture_code": 40,
    "city": "嘉麻市",
    "city_kana": "カマシ",
    "town": "桑野",
    "town_kana": "クワノ",
    "street": null,
    "office_name": null,
    "office_name_kana": null
  },
  "0314": {
    "postcode": "8200314",
    "prefecture": "福岡県",
    "prefecture_kana": "フクオカケン",
    "prefecture_code": 40,
    "city": "嘉麻市",
    "city_kana": "カマシ",
    "town": "小野谷",
    "town_kana": "オノダニ",
    "street": null,
    "office_name": null,
    "office_name_kana": null
  },
  "0321": {
    "postcode": "8200321",
    "prefecture": "福岡県",
    "prefecture_kana": "フクオカケン",
    "prefecture_code": 40,
    "city": "嘉麻市",
    "city_kana": "カマシ",
    "town": "馬見",
    "town_kana": "ウマミ",
    "street": null,
    "office_name": null,
    "office_name_kana": null
  },
  "0322": {
    "postcode": "8200322",
    "prefecture": "福岡県",
    "prefecture_kana": "フクオカケン",
    "prefecture_code": 40,
    "city": "嘉麻市",
    "city_kana": "カマシ",
    "town": "屏",
    "town_kana": "ヘイ",
    "street": null,
    "office_name": null,
    "office_name_kana": null
  },
  "0323": {
    "postcode": "8200323",
    "prefecture": "福岡県",
    "prefecture_kana": "フクオカケン",
    "prefecture_code": 40,
    "city": "嘉麻市",
    "city_kana": "カマシ",
    "town": "椎木",
    "town_kana": "シイノキ",
    "street": null,
    "office_name": null,
    "office_name_kana": null
  },
  "0331": {
    "postcode": "8200331",
    "prefecture": "福岡県",
    "prefecture_kana": "フクオカケン",
    "prefecture_code": 40,
    "city": "嘉麻市",
    "city_kana": "カマシ",
    "town": "芥田",
    "town_kana": "アクタダ",
    "street": null,
    "office_name": null,
    "office_name_kana": null
  },
  "0332": {
    "postcode": "8200332",
    "prefecture": "福岡県",
    "prefecture_kana": "フクオカケン",
    "prefecture_code": 40,
    "city": "嘉麻市",
    "city_kana": "カマシ",
    "town": "千手",
    "town_kana": "センズ",
    "street": null,
    "office_name": null,
    "office_name_kana": null
  },
  "0333": {
    "postcode": "8200333",
    "prefecture": "福岡県",
    "prefecture_kana": "フクオカケン",
    "prefecture_code": 40,
    "city": "嘉麻市",
    "city_kana": "カマシ",
    "town": "大力",
    "town_kana": "ダイリキ",
    "street": null,
    "office_name": null,
    "office_name_kana": null
  },
  "0334": {
    "postcode": "8200334",
    "prefecture": "福岡県",
    "prefecture_kana": "フクオカケン",
    "prefecture_code": 40,
    "city": "嘉麻市",
    "city_kana": "カマシ",
    "town": "泉河内",
    "town_kana": "イズミコウチ",
    "street": null,
    "office_name": null,
    "office_name_kana": null
  },
  "0335": {
    "postcode": "8200335",
    "prefecture": "福岡県",
    "prefecture_kana": "フクオカケン",
    "prefecture_code": 40,
    "city": "嘉麻市",
    "city_kana": "カマシ",
    "town": "東畑",
    "town_kana": "ヒガシハタ",
    "street": null,
    "office_name": null,
    "office_name_kana": null
  },
  "0336": {
    "postcode": "8200336",
    "prefecture": "福岡県",
    "prefecture_kana": "フクオカケン",
    "prefecture_code": 40,
    "city": "嘉麻市",
    "city_kana": "カマシ",
    "town": "嘉穂才田",
    "town_kana": "カホサイタ",
    "street": null,
    "office_name": null,
    "office_name_kana": null
  },
  "0337": {
    "postcode": "8200337",
    "prefecture": "福岡県",
    "prefecture_kana": "フクオカケン",
    "prefecture_code": 40,
    "city": "嘉麻市",
    "city_kana": "カマシ",
    "town": "九郎原",
    "town_kana": "クロウバル",
    "street": null,
    "office_name": null,
    "office_name_kana": null
  },
  "0392": {
    "postcode": "8200392",
    "prefecture": "福岡県",
    "prefecture_kana": "フクオカケン",
    "prefecture_code": 40,
    "city": "嘉麻市",
    "city_kana": "カマシ",
    "town": "大隈町",
    "town_kana": "オオクママチ",
    "street": "７２５番地１",
    "office_name": "嘉麻市　嘉穂総合支所",
    "office_name_kana": "カマシ カホソウゴウシシヨ"
  },
  "0501": {
    "postcode": "8200501",
    "prefecture": "福岡県",
    "prefecture_kana": "フクオカケン",
    "prefecture_code": 40,
    "city": "嘉麻市",
    "city_kana": "カマシ",
    "town": "飯田",
    "town_kana": "イイダ",
    "street": null,
    "office_name": null,
    "office_name_kana": null
  },
  "0502": {
    "postcode": "8200502",
    "prefecture": "福岡県",
    "prefecture_kana": "フクオカケン",
    "prefecture_code": 40,
    "city": "嘉麻市",
    "city_kana": "カマシ",
    "town": "上臼井",
    "town_kana": "カミウスイ",
    "street": null,
    "office_name": null,
    "office_name_kana": null
  },
  "0503": {
    "postcode": "8200503",
    "prefecture": "福岡県",
    "prefecture_kana": "フクオカケン",
    "prefecture_code": 40,
    "city": "嘉麻市",
    "city_kana": "カマシ",
    "town": "光代",
    "town_kana": "コウダイ",
    "street": null,
    "office_name": null,
    "office_name_kana": null
  },
  "0504": {
    "postcode": "8200504",
    "prefecture": "福岡県",
    "prefecture_kana": "フクオカケン",
    "prefecture_code": 40,
    "city": "嘉麻市",
    "city_kana": "カマシ",
    "town": "下臼井",
    "town_kana": "シモウスイ",
    "street": null,
    "office_name": null,
    "office_name_kana": null
  },
  "0505": {
    "postcode": "8200505",
    "prefecture": "福岡県",
    "prefecture_kana": "フクオカケン",
    "prefecture_code": 40,
    "city": "嘉麻市",
    "city_kana": "カマシ",
    "town": "西郷",
    "town_kana": "ニシノゴウ",
    "street": null,
    "office_name": null,
    "office_name_kana": null
  },
  "0506": {
    "postcode": "8200506",
    "prefecture": "福岡県",
    "prefecture_kana": "フクオカケン",
    "prefecture_code": 40,
    "city": "嘉麻市",
    "city_kana": "カマシ",
    "town": "平山",
    "town_kana": "ヒラヤマ",
    "street": null,
    "office_name": null,
    "office_name_kana": null
  },
  "0592": {
    "postcode": "8200592",
    "prefecture": "福岡県",
    "prefecture_kana": "フクオカケン",
    "prefecture_code": 40,
    "city": "嘉麻市",
    "city_kana": "カマシ",
    "town": "上臼井",
    "town_kana": "カミウスイ",
    "street": "４４６番地１",
    "office_name": "嘉麻市役所　碓井庁舎",
    "office_name_kana": "カマシヤクシヨ ウスイチヨウシヤ"
  },
  "0600": {
    "postcode": "8200600",
    "prefecture": "福岡県",
    "prefecture_kana": "フクオカケン",
    "prefecture_code": 40,
    "city": "嘉穂郡桂川町",
    "city_kana": "カホグンケイセンマチ",
    "town": "",
    "town_kana": "",
    "street": null,
    "office_name": null,
    "office_name_kana": null
  },
  "0601": {
    "postcode": "8200601",
    "prefecture": "福岡県",
    "prefecture_kana": "フクオカケン",
    "prefecture_code": 40,
    "city": "嘉穂郡桂川町",
    "city_kana": "カホグンケイセンマチ",
    "town": "内山田",
    "town_kana": "ウチヤマダ",
    "street": null,
    "office_name": null,
    "office_name_kana": null
  },
  "0602": {
    "postcode": "8200602",
    "prefecture": "福岡県",
    "prefecture_kana": "フクオカケン",
    "prefecture_code": 40,
    "city": "嘉穂郡桂川町",
    "city_kana": "カホグンケイセンマチ",
    "town": "九郎丸",
    "town_kana": "クロウマル",
    "street": null,
    "office_name": null,
    "office_name_kana": null
  },
  "0603": {
    "postcode": "8200603",
    "prefecture": "福岡県",
    "prefecture_kana": "フクオカケン",
    "prefecture_code": 40,
    "city": "嘉穂郡桂川町",
    "city_kana": "カホグンケイセンマチ",
    "town": "寿命",
    "town_kana": "ジュメイ",
    "street": null,
    "office_name": null,
    "office_name_kana": null
  },
  "0604": {
    "postcode": "8200604",
    "prefecture": "福岡県",
    "prefecture_kana": "フクオカケン",
    "prefecture_code": 40,
    "city": "嘉穂郡桂川町",
    "city_kana": "カホグンケイセンマチ",
    "town": "瀬戸",
    "town_kana": "セト",
    "street": null,
    "office_name": null,
    "office_name_kana": null
  },
  "0605": {
    "postcode": "8200605",
    "prefecture": "福岡県",
    "prefecture_kana": "フクオカケン",
    "prefecture_code": 40,
    "city": "嘉穂郡桂川町",
    "city_kana": "カホグンケイセンマチ",
    "town": "中屋",
    "town_kana": "チュウヤ",
    "street": null,
    "office_name": null,
    "office_name_kana": null
  },
  "0606": {
    "postcode": "8200606",
    "prefecture": "福岡県",
    "prefecture_kana": "フクオカケン",
    "prefecture_code": 40,
    "city": "嘉穂郡桂川町",
    "city_kana": "カホグンケイセンマチ",
    "town": "土居",
    "town_kana": "トイ",
    "street": null,
    "office_name": null,
    "office_name_kana": null
  },
  "0607": {
    "postcode": "8200607",
    "prefecture": "福岡県",
    "prefecture_kana": "フクオカケン",
    "prefecture_code": 40,
    "city": "嘉穂郡桂川町",
    "city_kana": "カホグンケイセンマチ",
    "town": "土師",
    "town_kana": "ハジ",
    "street": null,
    "office_name": null,
    "office_name_kana": null
  },
  "0608": {
    "postcode": "8200608",
    "prefecture": "福岡県",
    "prefecture_kana": "フクオカケン",
    "prefecture_code": 40,
    "city": "嘉穂郡桂川町",
    "city_kana": "カホグンケイセンマチ",
    "town": "豆田",
    "town_kana": "マメダ",
    "street": null,
    "office_name": null,
    "office_name_kana": null
  },
  "0609": {
    "postcode": "8200609",
    "prefecture": "福岡県",
    "prefecture_kana": "フクオカケン",
    "prefecture_code": 40,
    "city": "嘉穂郡桂川町",
    "city_kana": "カホグンケイセンマチ",
    "town": "吉隈",
    "town_kana": "ヨシクマ",
    "street": null,
    "office_name": null,
    "office_name_kana": null
  },
  "0693": {
    "postcode": "8200693",
    "prefecture": "福岡県",
    "prefecture_kana": "フクオカケン",
    "prefecture_code": 40,
    "city": "嘉穂郡桂川町",
    "city_kana": "カホグンケイセンマチ",
    "town": "大字土居",
    "town_kana": null,
    "street": "３６１番地",
    "office_name": "桂川町総合福祉センター　「ひまわりの里」",
    "office_name_kana": "ケイセンマチソウゴウフクシセンタ- <ヒマワリノサト>"
  },
  "0696": {
    "postcode": "8200696",
    "prefecture": "福岡県",
    "prefecture_kana": "フクオカケン",
    "prefecture_code": 40,
    "city": "嘉穂郡桂川町",
    "city_kana": "カホグンケイセンマチ",
    "town": "大字土居",
    "town_kana": null,
    "street": "４２４番地",
    "office_name": "桂川町役場",
    "office_name_kana": "ケイセンマチヤクバ"
  },
  "0701": {
    "postcode": "8200701",
    "prefecture": "福岡県",
    "prefecture_kana": "フクオカケン",
    "prefecture_code": 40,
    "city": "飯塚市",
    "city_kana": "イイヅカシ",
    "town": "長尾",
    "town_kana": "ナガオ",
    "street": null,
    "office_name": null,
    "office_name_kana": null
  },
  "0702": {
    "postcode": "8200702",
    "prefecture": "福岡県",
    "prefecture_kana": "フクオカケン",
    "prefecture_code": 40,
    "city": "飯塚市",
    "city_kana": "イイヅカシ",
    "town": "平塚",
    "town_kana": "ヒラツカ",
    "street": null,
    "office_name": null,
    "office_name_kana": null
  },
  "0703": {
    "postcode": "8200703",
    "prefecture": "福岡県",
    "prefecture_kana": "フクオカケン",
    "prefecture_code": 40,
    "city": "飯塚市",
    "city_kana": "イイヅカシ",
    "town": "北古賀",
    "town_kana": "キタコガ",
    "street": null,
    "office_name": null,
    "office_name_kana": null
  },
  "0704": {
    "postcode": "8200704",
    "prefecture": "福岡県",
    "prefecture_kana": "フクオカケン",
    "prefecture_code": 40,
    "city": "飯塚市",
    "city_kana": "イイヅカシ",
    "town": "阿恵",
    "town_kana": "アエ",
    "street": null,
    "office_name": null,
    "office_name_kana": null
  },
  "0705": {
    "postcode": "8200705",
    "prefecture": "福岡県",
    "prefecture_kana": "フクオカケン",
    "prefecture_code": 40,
    "city": "飯塚市",
    "city_kana": "イイヅカシ",
    "town": "筑穂元吉",
    "town_kana": "チクホモトヨシ",
    "street": null,
    "office_name": null,
    "office_name_kana": null
  },
  "0706": {
    "postcode": "8200706",
    "prefecture": "福岡県",
    "prefecture_kana": "フクオカケン",
    "prefecture_code": 40,
    "city": "飯塚市",
    "city_kana": "イイヅカシ",
    "town": "内野",
    "town_kana": "ウチノ",
    "street": null,
    "office_name": null,
    "office_name_kana": null
  },
  "0707": {
    "postcode": "8200707",
    "prefecture": "福岡県",
    "prefecture_kana": "フクオカケン",
    "prefecture_code": 40,
    "city": "飯塚市",
    "city_kana": "イイヅカシ",
    "town": "桑曲",
    "town_kana": "クワマガリ",
    "street": null,
    "office_name": null,
    "office_name_kana": null
  },
  "0708": {
    "postcode": "8200708",
    "prefecture": "福岡県",
    "prefecture_kana": "フクオカケン",
    "prefecture_code": 40,
    "city": "飯塚市",
    "city_kana": "イイヅカシ",
    "town": "弥山",
    "town_kana": "ヤヤマ",
    "street": null,
    "office_name": null,
    "office_name_kana": null
  },
  "0709": {
    "postcode": "8200709",
    "prefecture": "福岡県",
    "prefecture_kana": "フクオカケン",
    "prefecture_code": 40,
    "city": "飯塚市",
    "city_kana": "イイヅカシ",
    "town": "馬敷",
    "town_kana": "マシキ",
    "street": null,
    "office_name": null,
    "office_name_kana": null
  },
  "0711": {
    "postcode": "8200711",
    "prefecture": "福岡県",
    "prefecture_kana": "フクオカケン",
    "prefecture_code": 40,
    "city": "飯塚市",
    "city_kana": "イイヅカシ",
    "town": "山口",
    "town_kana": "ヤマグチ",
    "street": null,
    "office_name": null,
    "office_name_kana": null
  },
  "0712": {
    "postcode": "8200712",
    "prefecture": "福岡県",
    "prefecture_kana": "フクオカケン",
    "prefecture_code": 40,
    "city": "飯塚市",
    "city_kana": "イイヅカシ",
    "town": "大分",
    "town_kana": "ダイブ",
    "street": null,
    "office_name": null,
    "office_name_kana": null
  },
  "0713": {
    "postcode": "8200713",
    "prefecture": "福岡県",
    "prefecture_kana": "フクオカケン",
    "prefecture_code": 40,
    "city": "飯塚市",
    "city_kana": "イイヅカシ",
    "town": "内住",
    "town_kana": "ナイジュウ",
    "street": null,
    "office_name": null,
    "office_name_kana": null
  },
  "0792": {
    "postcode": "8200792",
    "prefecture": "福岡県",
    "prefecture_kana": "フクオカケン",
    "prefecture_code": 40,
    "city": "飯塚市",
    "city_kana": "イイヅカシ",
    "town": "長尾",
    "town_kana": "ナガオ",
    "street": "１２４２−１",
    "office_name": "飯塚市　筑穂支所",
    "office_name_kana": "イイヅカシ チクホシシヨ"
  },
  "1100": {
    "postcode": "8201100",
    "prefecture": "福岡県",
    "prefecture_kana": "フクオカケン",
    "prefecture_code": 40,
    "city": "鞍手郡小竹町",
    "city_kana": "クラテグンコタケマチ",
    "town": "",
    "town_kana": "",
    "street": null,
    "office_name": null,
    "office_name_kana": null
  },
  "1101": {
    "postcode": "8201101",
    "prefecture": "福岡県",
    "prefecture_kana": "フクオカケン",
    "prefecture_code": 40,
    "city": "鞍手郡小竹町",
    "city_kana": "クラテグンコタケマチ",
    "town": "御徳",
    "town_kana": "ゴトク",
    "street": null,
    "office_name": null,
    "office_name_kana": null
  },
  "1102": {
    "postcode": "8201102",
    "prefecture": "福岡県",
    "prefecture_kana": "フクオカケン",
    "prefecture_code": 40,
    "city": "鞍手郡小竹町",
    "city_kana": "クラテグンコタケマチ",
    "town": "赤地",
    "town_kana": "アカジ",
    "street": null,
    "office_name": null,
    "office_name_kana": null
  },
  "1103": {
    "postcode": "8201103",
    "prefecture": "福岡県",
    "prefecture_kana": "フクオカケン",
    "prefecture_code": 40,
    "city": "鞍手郡小竹町",
    "city_kana": "クラテグンコタケマチ",
    "town": "勝野",
    "town_kana": "カツノ",
    "street": null,
    "office_name": null,
    "office_name_kana": null
  },
  "1104": {
    "postcode": "8201104",
    "prefecture": "福岡県",
    "prefecture_kana": "フクオカケン",
    "prefecture_code": 40,
    "city": "鞍手郡小竹町",
    "city_kana": "クラテグンコタケマチ",
    "town": "新多",
    "town_kana": "ニイダ",
    "street": null,
    "office_name": null,
    "office_name_kana": null
  },
  "1105": {
    "postcode": "8201105",
    "prefecture": "福岡県",
    "prefecture_kana": "フクオカケン",
    "prefecture_code": 40,
    "city": "鞍手郡小竹町",
    "city_kana": "クラテグンコタケマチ",
    "town": "新山崎",
    "town_kana": "シンヤマザキ",
    "street": null,
    "office_name": null,
    "office_name_kana": null
  },
  "1106": {
    "postcode": "8201106",
    "prefecture": "福岡県",
    "prefecture_kana": "フクオカケン",
    "prefecture_code": 40,
    "city": "鞍手郡小竹町",
    "city_kana": "クラテグンコタケマチ",
    "town": "南良津",
    "town_kana": "ナラヅ",
    "street": null,
    "office_name": null,
    "office_name_kana": null
  },
  "1111": {
    "postcode": "8201111",
    "prefecture": "福岡県",
    "prefecture_kana": "フクオカケン",
    "prefecture_code": 40,
    "city": "飯塚市",
    "city_kana": "イイヅカシ",
    "town": "勢田",
    "town_kana": "セイタ",
    "street": null,
    "office_name": null,
    "office_name_kana": null
  },
  "1112": {
    "postcode": "8201112",
    "prefecture": "福岡県",
    "prefecture_kana": "フクオカケン",
    "prefecture_code": 40,
    "city": "飯塚市",
    "city_kana": "イイヅカシ",
    "town": "鹿毛馬",
    "town_kana": "カケノウマ",
    "street": null,
    "office_name": null,
    "office_name_kana": null
  },
  "1113": {
    "postcode": "8201113",
    "prefecture": "福岡県",
    "prefecture_kana": "フクオカケン",
    "prefecture_code": 40,
    "city": "飯塚市",
    "city_kana": "イイヅカシ",
    "town": "佐與",
    "town_kana": "サヨ",
    "street": null,
    "office_name": null,
    "office_name_kana": null
  },
  "1114": {
    "postcode": "8201114",
    "prefecture": "福岡県",
    "prefecture_kana": "フクオカケン",
    "prefecture_code": 40,
    "city": "飯塚市",
    "city_kana": "イイヅカシ",
    "town": "口原",
    "town_kana": "クチノハラ",
    "street": null,
    "office_name": null,
    "office_name_kana": null
  },
  "1192": {
    "postcode": "8201192",
    "prefecture": "福岡県",
    "prefecture_kana": "フクオカケン",
    "prefecture_code": 40,
    "city": "鞍手郡小竹町",
    "city_kana": "クラテグンコタケマチ",
    "town": "大字勝野",
    "town_kana": null,
    "street": "３１６７−１",
    "office_name": "小竹町役場",
    "office_name_kana": "コタケマチヤクバ"
  },
  "1193": {
    "postcode": "8201193",
    "prefecture": "福岡県",
    "prefecture_kana": "フクオカケン",
    "prefecture_code": 40,
    "city": "飯塚市",
    "city_kana": "イイヅカシ",
    "town": "勢田",
    "town_kana": "セイタ",
    "street": "１２７１−１",
    "office_name": "飯塚市役所　頴田支所",
    "office_name_kana": "イイヅカシヤクシヨ カイタシシヨ"
  },
  "8501": {
    "postcode": "8208501",
    "prefecture": "福岡県",
    "prefecture_kana": "フクオカケン",
    "prefecture_code": 40,
    "city": "飯塚市",
    "city_kana": "イイヅカシ",
    "town": "新立岩",
    "town_kana": "シンタテイワ",
    "street": "５−５",
    "office_name": "飯塚市役所",
    "office_name_kana": "イイヅカシヤクシヨ"
  },
  "8502": {
    "postcode": "8208502",
    "prefecture": "福岡県",
    "prefecture_kana": "フクオカケン",
    "prefecture_code": 40,
    "city": "飯塚市",
    "city_kana": "イイヅカシ",
    "town": "大字川津",
    "town_kana": null,
    "street": "６８０−４",
    "office_name": "九州工業大学　情報工学部",
    "office_name_kana": "キユウシユウコウギヨウダイガク ジヨウホウコウガクブ"
  },
  "8505": {
    "postcode": "8208505",
    "prefecture": "福岡県",
    "prefecture_kana": "フクオカケン",
    "prefecture_code": 40,
    "city": "飯塚市",
    "city_kana": "イイヅカシ",
    "town": "芳雄町",
    "town_kana": "ヨシオマチ",
    "street": "３−８３",
    "office_name": "飯塚病院",
    "office_name_kana": "イイヅカビヨウイン"
  },
  "8506": {
    "postcode": "8208506",
    "prefecture": "福岡県",
    "prefecture_kana": "フクオカケン",
    "prefecture_code": 40,
    "city": "飯塚市",
    "city_kana": "イイヅカシ",
    "town": "新立岩",
    "town_kana": "シンタテイワ",
    "street": "１０−２９",
    "office_name": "福岡地方裁判所　飯塚支部",
    "office_name_kana": "フクオカチホウサイバンシヨ イイヅカシブ"
  },
  "8507": {
    "postcode": "8208507",
    "prefecture": "福岡県",
    "prefecture_kana": "フクオカケン",
    "prefecture_code": 40,
    "city": "飯塚市",
    "city_kana": "イイヅカシ",
    "town": "吉原町",
    "town_kana": "ヨシハラマチ",
    "street": "６−１２",
    "office_name": "飯塚商工会議所",
    "office_name_kana": "イイヅカシヨウコウカイギシヨ"
  },
  "8508": {
    "postcode": "8208508",
    "prefecture": "福岡県",
    "prefecture_kana": "フクオカケン",
    "prefecture_code": 40,
    "city": "飯塚市",
    "city_kana": "イイヅカシ",
    "town": "大字伊岐須",
    "town_kana": null,
    "street": "５５０−４",
    "office_name": "総合せき損センター",
    "office_name_kana": "ソウゴウセキソンセンタ-"
  },
  "8510": {
    "postcode": "8208510",
    "prefecture": "福岡県",
    "prefecture_kana": "フクオカケン",
    "prefecture_code": 40,
    "city": "飯塚市",
    "city_kana": "イイヅカシ",
    "town": "大字柏の森",
    "town_kana": null,
    "street": "１１−６",
    "office_name": "近畿大学附属　福岡高等学校",
    "office_name_kana": "キンキダイガクフゾク フクオカコウトウガツコウ"
  },
  "8512": {
    "postcode": "8208512",
    "prefecture": "福岡県",
    "prefecture_kana": "フクオカケン",
    "prefecture_code": 40,
    "city": "飯塚市",
    "city_kana": "イイヅカシ",
    "town": "新飯塚",
    "town_kana": "シンイイヅカ",
    "street": "２３−３２",
    "office_name": "九州電力　株式会社　飯塚営業所",
    "office_name_kana": "キユウシユウデンリヨク カブシキガイシヤ イイヅカエイギヨウシヨ"
  },
  "8513": {
    "postcode": "8208513",
    "prefecture": "福岡県",
    "prefecture_kana": "フクオカケン",
    "prefecture_code": 40,
    "city": "飯塚市",
    "city_kana": "イイヅカシ",
    "town": "菰田東",
    "town_kana": "コモダヒガシ",
    "street": "１丁目５−３０",
    "office_name": "近畿大学　九州短期大学",
    "office_name_kana": "キンキダイガク キユウシユウタンキダイガク"
  },
  "8516": {
    "postcode": "8208516",
    "prefecture": "福岡県",
    "prefecture_kana": "フクオカケン",
    "prefecture_code": 40,
    "city": "飯塚市",
    "city_kana": "イイヅカシ",
    "town": "大字伊川",
    "town_kana": null,
    "street": "６６４−３",
    "office_name": "株式会社　南風堂",
    "office_name_kana": "カブシキガイシヤ ナンプウドウ"
  },
  "8517": {
    "postcode": "8208517",
    "prefecture": "福岡県",
    "prefecture_kana": "フクオカケン",
    "prefecture_code": 40,
    "city": "飯塚市",
    "city_kana": "イイヅカシ",
    "town": "大字川津",
    "town_kana": null,
    "street": "６８０−４１",
    "office_name": "財団法人　飯塚研究開発機構",
    "office_name_kana": "ザイダンホウジン イイヅカケンキユウカイハツキコウ"
  },
  "8520": {
    "postcode": "8208520",
    "prefecture": "福岡県",
    "prefecture_kana": "フクオカケン",
    "prefecture_code": 40,
    "city": "飯塚市",
    "city_kana": "イイヅカシ",
    "town": "大字伊川",
    "town_kana": null,
    "street": "４３３−２",
    "office_name": "株式会社　華三樂",
    "office_name_kana": "カブシキガイシヤハナサンラク"
  },
  "8533": {
    "postcode": "8208533",
    "prefecture": "福岡県",
    "prefecture_kana": "フクオカケン",
    "prefecture_code": 40,
    "city": "飯塚市",
    "city_kana": "イイヅカシ",
    "town": "立岩",
    "town_kana": "タテイワ",
    "street": "１０４９番地",
    "office_name": "ミツミ電機　株式会社　九州事業所",
    "office_name_kana": "ミツミデンキ カブシキガイシヤ キユウシユウジギヨウシヨ"
  },
  "8540": {
    "postcode": "8208540",
    "prefecture": "福岡県",
    "prefecture_kana": "フクオカケン",
    "prefecture_code": 40,
    "city": "飯塚市",
    "city_kana": "イイヅカシ",
    "town": "芳雄町",
    "town_kana": "ヨシオマチ",
    "street": "１２−１",
    "office_name": "飯塚公共職業安定所",
    "office_name_kana": "イイヅカコウキヨウシヨクギヨウアンテイシヨ"
  },
  "8550": {
    "postcode": "8208550",
    "prefecture": "福岡県",
    "prefecture_kana": "フクオカケン",
    "prefecture_code": 40,
    "city": "飯塚市",
    "city_kana": "イイヅカシ",
    "town": "津島",
    "town_kana": "ツシマ",
    "street": "２８１番地６４",
    "office_name": "ケンコーコム　株式会社　福岡物流センター",
    "office_name_kana": "ケンコ-コム カブシキカイシヤ フクオカブツリユウセンタ-"
  },
  "8555": {
    "postcode": "8208555",
    "prefecture": "福岡県",
    "prefecture_kana": "フクオカケン",
    "prefecture_code": 40,
    "city": "飯塚市",
    "city_kana": "イイヅカシ",
    "town": "柏の森",
    "town_kana": "カヤノモリ",
    "street": "１１−６",
    "office_name": "近畿大学　産業理工学部",
    "office_name_kana": "キンキダイガク サンギヨウリコウガクブ"
  },
  "8601": {
    "postcode": "8208601",
    "prefecture": "福岡県",
    "prefecture_kana": "フクオカケン",
    "prefecture_code": 40,
    "city": "飯塚市",
    "city_kana": "イイヅカシ",
    "town": "伊川",
    "town_kana": "イカワ",
    "street": "１１１５",
    "office_name": "一番食品　株式会社",
    "office_name_kana": "イチバンシヨクヒン カブシキガイシヤ"
  },
  "8602": {
    "postcode": "8208602",
    "prefecture": "福岡県",
    "prefecture_kana": "フクオカケン",
    "prefecture_code": 40,
    "city": "飯塚市",
    "city_kana": "イイヅカシ",
    "town": "本町",
    "town_kana": "ホンマチ",
    "street": "１１−４２（飯塚郵便局私書箱第１９号）",
    "office_name": "飯塚信用金庫",
    "office_name_kana": "イイヅカシンヨウキンコ"
  },
  "8603": {
    "postcode": "8208603",
    "prefecture": "福岡県",
    "prefecture_kana": "フクオカケン",
    "prefecture_code": 40,
    "city": "飯塚市",
    "city_kana": "イイヅカシ",
    "town": "芳雄町",
    "town_kana": "ヨシオマチ",
    "street": "１３−６（飯塚郵便局私書箱第７号）",
    "office_name": "飯塚税務署",
    "office_name_kana": "イイヅカゼイムシヨ"
  },
  "8605": {
    "postcode": "8208605",
    "prefecture": "福岡県",
    "prefecture_kana": "フクオカケン",
    "prefecture_code": 40,
    "city": "飯塚市",
    "city_kana": "イイヅカシ",
    "town": "忠隈",
    "town_kana": "タダクマ",
    "street": "５２３",
    "office_name": "飯塚市役所　穂波支所",
    "office_name_kana": "イイヅカシヤクシヨ ホナミシシヨ"
  },
  "8607": {
    "postcode": "8208607",
    "prefecture": "福岡県",
    "prefecture_kana": "フクオカケン",
    "prefecture_code": 40,
    "city": "飯塚市",
    "city_kana": "イイヅカシ",
    "town": "大字津島",
    "town_kana": null,
    "street": "２８２",
    "office_name": "陸上自衛隊　飯塚駐屯地",
    "office_name_kana": "リクジヨウジエイタイ イイヅカチユウトンチ"
  }
}