{
  "0000": {
    "postcode": "8220000",
    "prefecture": "福岡県",
    "prefecture_kana": "フクオカケン",
    "prefecture_code": 40,
    "city": "直方市",
    "city_kana": "ノオガタシ",
    "town": "",
    "town_kana": "",
    "street": null,
    "office_name": null,
    "office_name_kana": null
  },
  "0001": {
    "postcode": "8220001",
    "prefecture": "福岡県",
    "prefecture_kana": "フクオカケン",
    "prefecture_code": 40,
    "city": "直方市",
    "city_kana": "ノオガタシ",
    "town": "感田",
    "town_kana": "ガンダ",
    "street": null,
    "office_name": null,
    "office_name_kana": null
  },
  "0002": {
    "postcode": "8220002",
    "prefecture": "福岡県",
    "prefecture_kana": "フクオカケン",
    "prefecture_code": 40,
    "city": "直方市",
    "city_kana": "ノオガタシ",
    "town": "頓野",
    "town_kana": "トンノ",
    "street": null,
    "office_name": null,
    "office_name_kana": null
  },
  "0003": {
    "postcode": "8220003",
    "prefecture": "福岡県",
    "prefecture_kana": "フクオカケン",
    "prefecture_code": 40,
    "city": "直方市",
    "city_kana": "ノオガタシ",
    "town": "上頓野",
    "town_kana": "カミトンノ",
    "street": null,
    "office_name": null,
    "office_name_kana": null
  },
  "0004": {
    "postcode": "8220004",
    "prefecture": "福岡県",
    "prefecture_kana": "フクオカケン",
    "prefecture_code": 40,
    "city": "直方市",
    "city_kana": "ノオガタシ",
    "town": "畑",
    "town_kana": "ハタ",
    "street": null,
    "office_name": null,
    "office_name_kana": null
  },
  "0005": {
    "postcode": "8220005",
    "prefecture": "福岡県",
    "prefecture_kana": "フクオカケン",
    "prefecture_code": 40,
    "city": "直方市",
    "city_kana": "ノオガタシ",
    "town": "永満寺",
    "town_kana": "エイマンジ",
    "street": null,
    "office_name": null,
    "office_name_kana": null
  },
  "0006": {
    "postcode": "8220006",
    "prefecture": "福岡県",
    "prefecture_kana": "フクオカケン",
    "prefecture_code": 40,
    "city": "直方市",
    "city_kana": "ノオガタシ",
    "town": "上境",
    "town_kana": "カミザカイ",
    "street": null,
    "office_name": null,
    "office_name_kana": null
  },
  "0007": {
    "postcode": "8220007",
    "prefecture": "福岡県",
    "prefecture_kana": "フクオカケン",
    "prefecture_code": 40,
    "city": "直方市",
    "city_kana": "ノオガタシ",
    "town": "下境",
    "town_kana": "シモザカイ",
    "street": null,
    "office_name": null,
    "office_name_kana": null
  },
  "0008": {
    "postcode": "8220008",
    "prefecture": "福岡県",
    "prefecture_kana": "フクオカケン",
    "prefecture_code": 40,
    "city": "直方市",
    "city_kana": "ノオガタシ",
    "town": "湯野原",
    "town_kana": "ユノハラ",
    "street": null,
    "office_name": null,
    "office_name_kana": null
  },
  "0011": {
    "postcode": "8220011",
    "prefecture": "福岡県",
    "prefecture_kana": "フクオカケン",
    "prefecture_code": 40,
    "city": "直方市",
    "city_kana": "ノオガタシ",
    "town": "中泉",
    "town_kana": "ナカイズミ",
    "street": null,
    "office_name": null,
    "office_name_kana": null
  },
  "0012": {
    "postcode": "8220012",
    "prefecture": "福岡県",
    "prefecture_kana": "フクオカケン",
    "prefecture_code": 40,
    "city": "直方市",
    "city_kana": "ノオガタシ",
    "town": "赤地",
    "town_kana": "アカジ",
    "street": null,
    "office_name": null,
    "office_name_kana": null
  },
  "0013": {
    "postcode": "8220013",
    "prefecture": "福岡県",
    "prefecture_kana": "フクオカケン",
    "prefecture_code": 40,
    "city": "直方市",
    "city_kana": "ノオガタシ",
    "town": "溝堀",
    "town_kana": "ミゾホリ",
    "street": null,
    "office_name": null,
    "office_name_kana": null
  },
  "0014": {
    "postcode": "8220014",
    "prefecture": "福岡県",
    "prefecture_kana": "フクオカケン",
    "prefecture_code": 40,
    "city": "直方市",
    "city_kana": "ノオガタシ",
    "town": "丸山町",
    "town_kana": "マルヤママチ",
    "street": null,
    "office_name": null,
    "office_name_kana": null
  },
  "0015": {
    "postcode": "8220015",
    "prefecture": "福岡県",
    "prefecture_kana": "フクオカケン",
    "prefecture_code": 40,
    "city": "直方市",
    "city_kana": "ノオガタシ",
    "town": "新町",
    "town_kana": "シンマチ",
    "street": null,
    "office_name": null,
    "office_name_kana": null
  },
  "0016": {
    "postcode": "8220016",
    "prefecture": "福岡県",
    "prefecture_kana": "フクオカケン",
    "prefecture_code": 40,
    "city": "直方市",
    "city_kana": "ノオガタシ",
    "town": "直方",
    "town_kana": "ノオガタ",
    "street": null,
    "office_name": null,
    "office_name_kana": null
  },
  "0017": {
    "postcode": "8220017",
    "prefecture": "福岡県",
    "prefecture_kana": "フクオカケン",
    "prefecture_code": 40,
    "city": "直方市",
    "city_kana": "ノオガタシ",
    "town": "殿町",
    "town_kana": "トノマチ",
    "street": null,
    "office_name": null,
    "office_name_kana": null
  },
  "0021": {
    "postcode": "8220021",
    "prefecture": "福岡県",
    "prefecture_kana": "フクオカケン",
    "prefecture_code": 40,
    "city": "直方市",
    "city_kana": "ノオガタシ",
    "town": "新知町",
    "town_kana": "シンチマチ",
    "street": null,
    "office_name": null,
    "office_name_kana": null
  },
  "0022": {
    "postcode": "8220022",
    "prefecture": "福岡県",
    "prefecture_kana": "フクオカケン",
    "prefecture_code": 40,
    "city": "直方市",
    "city_kana": "ノオガタシ",
    "town": "知古",
    "town_kana": "チコ",
    "street": null,
    "office_name": null,
    "office_name_kana": null
  },
  "0023": {
    "postcode": "8220023",
    "prefecture": "福岡県",
    "prefecture_kana": "フクオカケン",
    "prefecture_code": 40,
    "city": "直方市",
    "city_kana": "ノオガタシ",
    "town": "神正町",
    "town_kana": "シンセイマチ",
    "street": null,
    "office_name": null,
    "office_name_kana": null
  },
  "0024": {
    "postcode": "8220024",
    "prefecture": "福岡県",
    "prefecture_kana": "フクオカケン",
    "prefecture_code": 40,
    "city": "直方市",
    "city_kana": "ノオガタシ",
    "town": "須崎町",
    "town_kana": "スサキマチ",
    "street": null,
    "office_name": null,
    "office_name_kana": null
  },
  "0025": {
    "postcode": "8220025",
    "prefecture": "福岡県",
    "prefecture_kana": "フクオカケン",
    "prefecture_code": 40,
    "city": "直方市",
    "city_kana": "ノオガタシ",
    "town": "日吉町",
    "town_kana": "ヒヨシマチ",
    "street": null,
    "office_name": null,
    "office_name_kana": null
  },
  "0026": {
    "postcode": "8220026",
    "prefecture": "福岡県",
    "prefecture_kana": "フクオカケン",
    "prefecture_code": 40,
    "city": "直方市",
    "city_kana": "ノオガタシ",
    "town": "津田町",
    "town_kana": "ツダマチ",
    "street": null,
    "office_name": null,
    "office_name_kana": null
  },
  "0027": {
    "postcode": "8220027",
    "prefecture": "福岡県",
    "prefecture_kana": "フクオカケン",
    "prefecture_code": 40,
    "city": "直方市",
    "city_kana": "ノオガタシ",
    "town": "古町",
    "town_kana": "フルマチ",
    "street": null,
    "office_name": null,
    "office_name_kana": null
  },
  "0031": {
    "postcode": "8220031",
    "prefecture": "福岡県",
    "prefecture_kana": "フクオカケン",
    "prefecture_code": 40,
    "city": "直方市",
    "city_kana": "ノオガタシ",
    "town": "植木",
    "town_kana": "ウエキ",
    "street": null,
    "office_name": null,
    "office_name_kana": null
  },
  "0032": {
    "postcode": "8220032",
    "prefecture": "福岡県",
    "prefecture_kana": "フクオカケン",
    "prefecture_code": 40,
    "city": "直方市",
    "city_kana": "ノオガタシ",
    "town": "下新入",
    "town_kana": "シモシンニュウ",
    "street": null,
    "office_name": null,
    "office_name_kana": null
  },
  "0033": {
    "postcode": "8220033",
    "prefecture": "福岡県",
    "prefecture_kana": "フクオカケン",
    "prefecture_code": 40,
    "city": "直方市",
    "city_kana": "ノオガタシ",
    "town": "上新入",
    "town_kana": "カミシンニュウ",
    "street": null,
    "office_name": null,
    "office_name_kana": null
  },
  "0034": {
    "postcode": "8220034",
    "prefecture": "福岡県",
    "prefecture_kana": "フクオカケン",
    "prefecture_code": 40,
    "city": "直方市",
    "city_kana": "ノオガタシ",
    "town": "山部",
    "town_kana": "ヤマベ",
    "street": null,
    "office_name": null,
    "office_name_kana": null
  },
  "0101": {
    "postcode": "8220101",
    "prefecture": "福岡県",
    "prefecture_kana": "フクオカケン",
    "prefecture_code": 40,
    "city": "宮若市",
    "city_kana": "ミヤワカシ",
    "town": "福丸",
    "town_kana": "フクマル",
    "street": null,
    "office_name": null,
    "office_name_kana": null
  },
  "0111": {
    "postcode": "8220111",
    "prefecture": "福岡県",
    "prefecture_kana": "フクオカケン",
    "prefecture_code": 40,
    "city": "宮若市",
    "city_kana": "ミヤワカシ",
    "town": "金丸",
    "town_kana": "カナマル",
    "street": null,
    "office_name": null,
    "office_name_kana": null
  },
  "0112": {
    "postcode": "8220112",
    "prefecture": "福岡県",
    "prefecture_kana": "フクオカケン",
    "prefecture_code": 40,
    "city": "宮若市",
    "city_kana": "ミヤワカシ",
    "town": "原田",
    "town_kana": "ハラダ",
    "street": null,
    "office_name": null,
    "office_name_kana": null
  },
  "0113": {
    "postcode": "8220113",
    "prefecture": "福岡県",
    "prefecture_kana": "フクオカケン",
    "prefecture_code": 40,
    "city": "宮若市",
    "city_kana": "ミヤワカシ",
    "town": "金生",
    "town_kana": "カノウ",
    "street": null,
    "office_name": null,
    "office_name_kana": null
  },
  "0121": {
    "postcode": "8220121",
    "prefecture": "福岡県",
    "prefecture_kana": "フクオカケン",
    "prefecture_code": 40,
    "city": "宮若市",
    "city_kana": "ミヤワカシ",
    "town": "湯原",
    "town_kana": "ユバル",
    "street": null,
    "office_name": null,
    "office_name_kana": null
  },
  "0122": {
    "postcode": "8220122",
    "prefecture": "福岡県",
    "prefecture_kana": "フクオカケン",
    "prefecture_code": 40,
    "city": "宮若市",
    "city_kana": "ミヤワカシ",
    "town": "下",
    "town_kana": "シモ",
    "street": null,
    "office_name": null,
    "office_name_kana": null
  },
  "0123": {
    "postcode": "8220123",
    "prefecture": "福岡県",
    "prefecture_kana": "フクオカケン",
    "prefecture_code": 40,
    "city": "宮若市",
    "city_kana": "ミヤワカシ",
    "town": "三ケ畑",
    "town_kana": "サンガハタ",
    "street": null,
    "office_name": null,
    "office_name_kana": null
  },
  "0124": {
    "postcode": "8220124",
    "prefecture": "福岡県",
    "prefecture_kana": "フクオカケン",
    "prefecture_code": 40,
    "city": "宮若市",
    "city_kana": "ミヤワカシ",
    "town": "縁山畑",
    "town_kana": "ヘリヤマハタ",
    "street": null,
    "office_name": null,
    "office_name_kana": null
  },
  "0131": {
    "postcode": "8220131",
    "prefecture": "福岡県",
    "prefecture_kana": "フクオカケン",
    "prefecture_code": 40,
    "city": "宮若市",
    "city_kana": "ミヤワカシ",
    "town": "乙野",
    "town_kana": "オトノ",
    "street": null,
    "office_name": null,
    "office_name_kana": null
  },
  "0132": {
    "postcode": "8220132",
    "prefecture": "福岡県",
    "prefecture_kana": "フクオカケン",
    "prefecture_code": 40,
    "city": "宮若市",
    "city_kana": "ミヤワカシ",
    "town": "小伏",
    "town_kana": "コブシ",
    "street": null,
    "office_name": null,
    "office_name_kana": null
  },
  "0133": {
    "postcode": "8220133",
    "prefecture": "福岡県",
    "prefecture_kana": "フクオカケン",
    "prefecture_code": 40,
    "city": "宮若市",
    "city_kana": "ミヤワカシ",
    "town": "脇田",
    "town_kana": "ワキタ",
    "street": null,
    "office_name": null,
    "office_name_kana": null
  },
  "0134": {
    "postcode": "8220134",
    "prefecture": "福岡県",
    "prefecture_kana": "フクオカケン",
    "prefecture_code": 40,
    "city": "宮若市",
    "city_kana": "ミヤワカシ",
    "town": "犬鳴",
    "town_kana": "イヌナキ",
    "street": null,
    "office_name": null,
    "office_name_kana": null
  },
  "0141": {
    "postcode": "8220141",
    "prefecture": "福岡県",
    "prefecture_kana": "フクオカケン",
    "prefecture_code": 40,
    "city": "宮若市",
    "city_kana": "ミヤワカシ",
    "town": "平",
    "town_kana": "タイラ",
    "street": null,
    "office_name": null,
    "office_name_kana": null
  },
  "0142": {
    "postcode": "8220142",
    "prefecture": "福岡県",
    "prefecture_kana": "フクオカケン",
    "prefecture_code": 40,
    "city": "宮若市",
    "city_kana": "ミヤワカシ",
    "town": "竹原",
    "town_kana": "タケハラ",
    "street": null,
    "office_name": null,
    "office_name_kana": null
  },
  "0143": {
    "postcode": "8220143",
    "prefecture": "福岡県",
    "prefecture_kana": "フクオカケン",
    "prefecture_code": 40,
    "city": "宮若市",
    "city_kana": "ミヤワカシ",
    "town": "高野",
    "town_kana": "タカノ",
    "street": null,
    "office_name": null,
    "office_name_kana": null
  },
  "0144": {
    "postcode": "8220144",
    "prefecture": "福岡県",
    "prefecture_kana": "フクオカケン",
    "prefecture_code": 40,
    "city": "宮若市",
    "city_kana": "ミヤワカシ",
    "town": "稲光",
    "town_kana": "イナミツ",
    "street": null,
    "office_name": null,
    "office_name_kana": null
  },
  "0145": {
    "postcode": "8220145",
    "prefecture": "福岡県",
    "prefecture_kana": "フクオカケン",
    "prefecture_code": 40,
    "city": "宮若市",
    "city_kana": "ミヤワカシ",
    "town": "宮永",
    "town_kana": "ミヤナガ",
    "street": null,
    "office_name": null,
    "office_name_kana": null
  },
  "0146": {
    "postcode": "8220146",
    "prefecture": "福岡県",
    "prefecture_kana": "フクオカケン",
    "prefecture_code": 40,
    "city": "宮若市",
    "city_kana": "ミヤワカシ",
    "town": "黒丸",
    "town_kana": "クロマル",
    "street": null,
    "office_name": null,
    "office_name_kana": null
  },
  "0151": {
    "postcode": "8220151",
    "prefecture": "福岡県",
    "prefecture_kana": "フクオカケン",
    "prefecture_code": 40,
    "city": "宮若市",
    "city_kana": "ミヤワカシ",
    "town": "水原",
    "town_kana": "ミズハラ",
    "street": null,
    "office_name": null,
    "office_name_kana": null
  },
  "0152": {
    "postcode": "8220152",
    "prefecture": "福岡県",
    "prefecture_kana": "フクオカケン",
    "prefecture_code": 40,
    "city": "宮若市",
    "city_kana": "ミヤワカシ",
    "town": "沼口",
    "town_kana": "ヌマグチ",
    "street": null,
    "office_name": null,
    "office_name_kana": null
  },
  "0153": {
    "postcode": "8220153",
    "prefecture": "福岡県",
    "prefecture_kana": "フクオカケン",
    "prefecture_code": 40,
    "city": "宮若市",
    "city_kana": "ミヤワカシ",
    "town": "山口",
    "town_kana": "ヤマグチ",
    "street": null,
    "office_name": null,
    "office_name_kana": null
  },
  "1101": {
    "postcode": "8221101",
    "prefecture": "福岡県",
    "prefecture_kana": "フクオカケン",
    "prefecture_code": 40,
    "city": "田川郡福智町",
    "city_kana": "タガワグンフクチマチ",
    "town": "赤池",
    "town_kana": "アカイケ",
    "street": null,
    "office_name": null,
    "office_name_kana": null
  },
  "1102": {
    "postcode": "8221102",
    "prefecture": "福岡県",
    "prefecture_kana": "フクオカケン",
    "prefecture_code": 40,
    "city": "田川郡福智町",
    "city_kana": "タガワグンフクチマチ",
    "town": "上野",
    "town_kana": "アガノ",
    "street": null,
    "office_name": null,
    "office_name_kana": null
  },
  "1103": {
    "postcode": "8221103",
    "prefecture": "福岡県",
    "prefecture_kana": "フクオカケン",
    "prefecture_code": 40,
    "city": "田川郡福智町",
    "city_kana": "タガワグンフクチマチ",
    "town": "市場",
    "town_kana": "イチバ",
    "street": null,
    "office_name": null,
    "office_name_kana": null
  },
  "1192": {
    "postcode": "8221192",
    "prefecture": "福岡県",
    "prefecture_kana": "フクオカケン",
    "prefecture_code": 40,
    "city": "田川郡福智町",
    "city_kana": "タガワグンフクチマチ",
    "town": "赤池",
    "town_kana": "アカイケ",
    "street": "４７４−１０１",
    "office_name": "株式会社　津田商事",
    "office_name_kana": "カブシキガイシヤ ツダシヨウジ"
  },
  "1193": {
    "postcode": "8221193",
    "prefecture": "福岡県",
    "prefecture_kana": "フクオカケン",
    "prefecture_code": 40,
    "city": "田川郡福智町",
    "city_kana": "タガワグンフクチマチ",
    "town": "赤池",
    "town_kana": "アカイケ",
    "street": "９７０−２",
    "office_name": "福智町役場　赤池支所",
    "office_name_kana": "フクチマチヤクバ アカイケシシヨ"
  },
  "1200": {
    "postcode": "8221200",
    "prefecture": "福岡県",
    "prefecture_kana": "フクオカケン",
    "prefecture_code": 40,
    "city": "田川郡福智町",
    "city_kana": "タガワグンフクチマチ",
    "town": "",
    "town_kana": "",
    "street": null,
    "office_name": null,
    "office_name_kana": null
  },
  "1201": {
    "postcode": "8221201",
    "prefecture": "福岡県",
    "prefecture_kana": "フクオカケン",
    "prefecture_code": 40,
    "city": "田川郡福智町",
    "city_kana": "タガワグンフクチマチ",
    "town": "金田",
    "town_kana": "カナダ",
    "street": null,
    "office_name": null,
    "office_name_kana": null
  },
  "1202": {
    "postcode": "8221202",
    "prefecture": "福岡県",
    "prefecture_kana": "フクオカケン",
    "prefecture_code": 40,
    "city": "田川郡福智町",
    "city_kana": "タガワグンフクチマチ",
    "town": "神崎",
    "town_kana": "コウザキ",
    "street": null,
    "office_name": null,
    "office_name_kana": null
  },
  "1211": {
    "postcode": "8221211",
    "prefecture": "福岡県",
    "prefecture_kana": "フクオカケン",
    "prefecture_code": 40,
    "city": "田川郡福智町",
    "city_kana": "タガワグンフクチマチ",
    "town": "伊方",
    "town_kana": "イカタ",
    "street": null,
    "office_name": null,
    "office_name_kana": null
  },
  "1212": {
    "postcode": "8221212",
    "prefecture": "福岡県",
    "prefecture_kana": "フクオカケン",
    "prefecture_code": 40,
    "city": "田川郡福智町",
    "city_kana": "タガワグンフクチマチ",
    "town": "弁城",
    "town_kana": "ベンジョウ",
    "street": null,
    "office_name": null,
    "office_name_kana": null
  },
  "1292": {
    "postcode": "8221292",
    "prefecture": "福岡県",
    "prefecture_kana": "フクオカケン",
    "prefecture_code": 40,
    "city": "田川郡福智町",
    "city_kana": "タガワグンフクチマチ",
    "town": "金田",
    "town_kana": "カナダ",
    "street": "９３７−２",
    "office_name": "福智町役場",
    "office_name_kana": "フクチマチヤクバ"
  },
  "1293": {
    "postcode": "8221293",
    "prefecture": "福岡県",
    "prefecture_kana": "フクオカケン",
    "prefecture_code": 40,
    "city": "田川郡福智町",
    "city_kana": "タガワグンフクチマチ",
    "town": "弁城",
    "town_kana": "ベンジョウ",
    "street": "２２３７−１",
    "office_name": "福智町役場　方城支所",
    "office_name_kana": "フクチマチヤクバ ホウジヨウシシヨ"
  },
  "1296": {
    "postcode": "8221296",
    "prefecture": "福岡県",
    "prefecture_kana": "フクオカケン",
    "prefecture_code": 40,
    "city": "田川郡福智町",
    "city_kana": "タガワグンフクチマチ",
    "town": "伊方",
    "town_kana": "イカタ",
    "street": "４６８０番地",
    "office_name": "マクセル　株式会社　九州事業所",
    "office_name_kana": "マクセル カブシキガイシヤ キユウシユウジギヨウシヨ"
  },
  "1300": {
    "postcode": "8221300",
    "prefecture": "福岡県",
    "prefecture_kana": "フクオカケン",
    "prefecture_code": 40,
    "city": "田川郡糸田町",
    "city_kana": "タガワグンイトダマチ",
    "town": "",
    "town_kana": "",
    "street": null,
    "office_name": null,
    "office_name_kana": null
  },
  "1301": {
    "postcode": "8221301",
    "prefecture": "福岡県",
    "prefecture_kana": "フクオカケン",
    "prefecture_code": 40,
    "city": "田川郡糸田町",
    "city_kana": "タガワグンイトダマチ",
    "town": "堀川",
    "town_kana": "ホリカワ",
    "street": null,
    "office_name": null,
    "office_name_kana": null
  },
  "1302": {
    "postcode": "8221302",
    "prefecture": "福岡県",
    "prefecture_kana": "フクオカケン",
    "prefecture_code": 40,
    "city": "田川郡糸田町",
    "city_kana": "タガワグンイトダマチ",
    "town": "大熊",
    "town_kana": "オオクマ",
    "street": null,
    "office_name": null,
    "office_name_kana": null
  },
  "1303": {
    "postcode": "8221303",
    "prefecture": "福岡県",
    "prefecture_kana": "フクオカケン",
    "prefecture_code": 40,
    "city": "田川郡糸田町",
    "city_kana": "タガワグンイトダマチ",
    "town": "桃山",
    "town_kana": "モモヤマ",
    "street": null,
    "office_name": null,
    "office_name_kana": null
  },
  "1304": {
    "postcode": "8221304",
    "prefecture": "福岡県",
    "prefecture_kana": "フクオカケン",
    "prefecture_code": 40,
    "city": "田川郡糸田町",
    "city_kana": "タガワグンイトダマチ",
    "town": "自由ケ丘",
    "town_kana": "ジユウガオカ",
    "street": null,
    "office_name": null,
    "office_name_kana": null
  },
  "1305": {
    "postcode": "8221305",
    "prefecture": "福岡県",
    "prefecture_kana": "フクオカケン",
    "prefecture_code": 40,
    "city": "田川郡糸田町",
    "city_kana": "タガワグンイトダマチ",
    "town": "宮床団地",
    "town_kana": "ミヤトコダンチ",
    "street": null,
    "office_name": null,
    "office_name_kana": null
  },
  "1306": {
    "postcode": "8221306",
    "prefecture": "福岡県",
    "prefecture_kana": "フクオカケン",
    "prefecture_code": 40,
    "city": "田川郡糸田町",
    "city_kana": "タガワグンイトダマチ",
    "town": "貴船",
    "town_kana": "キフネ",
    "street": null,
    "office_name": null,
    "office_name_kana": null
  },
  "1307": {
    "postcode": "8221307",
    "prefecture": "福岡県",
    "prefecture_kana": "フクオカケン",
    "prefecture_code": 40,
    "city": "田川郡糸田町",
    "city_kana": "タガワグンイトダマチ",
    "town": "宮床",
    "town_kana": "ミヤトコ",
    "street": null,
    "office_name": null,
    "office_name_kana": null
  },
  "1311": {
    "postcode": "8221311",
    "prefecture": "福岡県",
    "prefecture_kana": "フクオカケン",
    "prefecture_code": 40,
    "city": "田川郡糸田町",
    "city_kana": "タガワグンイトダマチ",
    "town": "北区",
    "town_kana": "キタク",
    "street": null,
    "office_name": null,
    "office_name_kana": null
  },
  "1312": {
    "postcode": "8221312",
    "prefecture": "福岡県",
    "prefecture_kana": "フクオカケン",
    "prefecture_code": 40,
    "city": "田川郡糸田町",
    "city_kana": "タガワグンイトダマチ",
    "town": "下糸田",
    "town_kana": "シモイトダ",
    "street": null,
    "office_name": null,
    "office_name_kana": null
  },
  "1313": {
    "postcode": "8221313",
    "prefecture": "福岡県",
    "prefecture_kana": "フクオカケン",
    "prefecture_code": 40,
    "city": "田川郡糸田町",
    "city_kana": "タガワグンイトダマチ",
    "town": "打越",
    "town_kana": "ウチコシ",
    "street": null,
    "office_name": null,
    "office_name_kana": null
  },
  "1314": {
    "postcode": "8221314",
    "prefecture": "福岡県",
    "prefecture_kana": "フクオカケン",
    "prefecture_code": 40,
    "city": "田川郡糸田町",
    "city_kana": "タガワグンイトダマチ",
    "town": "中糸田",
    "town_kana": "ナカイトダ",
    "street": null,
    "office_name": null,
    "office_name_kana": null
  },
  "1315": {
    "postcode": "8221315",
    "prefecture": "福岡県",
    "prefecture_kana": "フクオカケン",
    "prefecture_code": 40,
    "city": "田川郡糸田町",
    "city_kana": "タガワグンイトダマチ",
    "town": "宮川二",
    "town_kana": "ミヤガワ2",
    "street": null,
    "office_name": null,
    "office_name_kana": null
  },
  "1316": {
    "postcode": "8221316",
    "prefecture": "福岡県",
    "prefecture_kana": "フクオカケン",
    "prefecture_code": 40,
    "city": "田川郡糸田町",
    "city_kana": "タガワグンイトダマチ",
    "town": "上糸田",
    "town_kana": "カミイトダ",
    "street": null,
    "office_name": null,
    "office_name_kana": null
  },
  "1317": {
    "postcode": "8221317",
    "prefecture": "福岡県",
    "prefecture_kana": "フクオカケン",
    "prefecture_code": 40,
    "city": "田川郡糸田町",
    "city_kana": "タガワグンイトダマチ",
    "town": "宮川一",
    "town_kana": "ミヤガワ1",
    "street": null,
    "office_name": null,
    "office_name_kana": null
  },
  "1318": {
    "postcode": "8221318",
    "prefecture": "福岡県",
    "prefecture_kana": "フクオカケン",
    "prefecture_code": 40,
    "city": "田川郡糸田町",
    "city_kana": "タガワグンイトダマチ",
    "town": "原",
    "town_kana": "ハル",
    "street": null,
    "office_name": null,
    "office_name_kana": null
  },
  "1321": {
    "postcode": "8221321",
    "prefecture": "福岡県",
    "prefecture_kana": "フクオカケン",
    "prefecture_code": 40,
    "city": "田川郡糸田町",
    "city_kana": "タガワグンイトダマチ",
    "town": "宮谷",
    "town_kana": "ミヤタニ",
    "street": null,
    "office_name": null,
    "office_name_kana": null
  },
  "1322": {
    "postcode": "8221322",
    "prefecture": "福岡県",
    "prefecture_kana": "フクオカケン",
    "prefecture_code": 40,
    "city": "田川郡糸田町",
    "city_kana": "タガワグンイトダマチ",
    "town": "西部",
    "town_kana": "サイブ",
    "street": null,
    "office_name": null,
    "office_name_kana": null
  },
  "1323": {
    "postcode": "8221323",
    "prefecture": "福岡県",
    "prefecture_kana": "フクオカケン",
    "prefecture_code": 40,
    "city": "田川郡糸田町",
    "city_kana": "タガワグンイトダマチ",
    "town": "真岡",
    "town_kana": "シンオカ",
    "street": null,
    "office_name": null,
    "office_name_kana": null
  },
  "1324": {
    "postcode": "8221324",
    "prefecture": "福岡県",
    "prefecture_kana": "フクオカケン",
    "prefecture_code": 40,
    "city": "田川郡糸田町",
    "city_kana": "タガワグンイトダマチ",
    "town": "旭ケ丘",
    "town_kana": "アサヒガオカ",
    "street": null,
    "office_name": null,
    "office_name_kana": null
  },
  "1325": {
    "postcode": "8221325",
    "prefecture": "福岡県",
    "prefecture_kana": "フクオカケン",
    "prefecture_code": 40,
    "city": "田川郡糸田町",
    "city_kana": "タガワグンイトダマチ",
    "town": "南糸田",
    "town_kana": "ミナミイトダ",
    "street": null,
    "office_name": null,
    "office_name_kana": null
  },
  "1326": {
    "postcode": "8221326",
    "prefecture": "福岡県",
    "prefecture_kana": "フクオカケン",
    "prefecture_code": 40,
    "city": "田川郡糸田町",
    "city_kana": "タガワグンイトダマチ",
    "town": "鼡ケ池",
    "town_kana": "ネズガイケ",
    "street": null,
    "office_name": null,
    "office_name_kana": null
  },
  "1400": {
    "postcode": "8221400",
    "prefecture": "福岡県",
    "prefecture_kana": "フクオカケン",
    "prefecture_code": 40,
    "city": "田川郡香春町",
    "city_kana": "タガワグンカワラマチ",
    "town": "",
    "town_kana": "",
    "street": null,
    "office_name": null,
    "office_name_kana": null
  },
  "1401": {
    "postcode": "8221401",
    "prefecture": "福岡県",
    "prefecture_kana": "フクオカケン",
    "prefecture_code": 40,
    "city": "田川郡香春町",
    "city_kana": "タガワグンカワラマチ",
    "town": "採銅所",
    "town_kana": "サイドウショ",
    "street": null,
    "office_name": null,
    "office_name_kana": null
  },
  "1402": {
    "postcode": "8221402",
    "prefecture": "福岡県",
    "prefecture_kana": "フクオカケン",
    "prefecture_code": 40,
    "city": "田川郡香春町",
    "city_kana": "タガワグンカワラマチ",
    "town": "鏡山",
    "town_kana": "カガミヤマ",
    "street": null,
    "office_name": null,
    "office_name_kana": null
  },
  "1403": {
    "postcode": "8221403",
    "prefecture": "福岡県",
    "prefecture_kana": "フクオカケン",
    "prefecture_code": 40,
    "city": "田川郡香春町",
    "city_kana": "タガワグンカワラマチ",
    "town": "高野",
    "town_kana": "タカノ",
    "street": null,
    "office_name": null,
    "office_name_kana": null
  },
  "1404": {
    "postcode": "8221404",
    "prefecture": "福岡県",
    "prefecture_kana": "フクオカケン",
    "prefecture_code": 40,
    "city": "田川郡香春町",
    "city_kana": "タガワグンカワラマチ",
    "town": "柿下",
    "town_kana": "カキシタ",
    "street": null,
    "office_name": null,
    "office_name_kana": null
  },
  "1405": {
    "postcode": "8221405",
    "prefecture": "福岡県",
    "prefecture_kana": "フクオカケン",
    "prefecture_code": 40,
    "city": "田川郡香春町",
    "city_kana": "タガワグンカワラマチ",
    "town": "中津原",
    "town_kana": "ナカツバル",
    "street": null,
    "office_name": null,
    "office_name_kana": null
  },
  "1406": {
    "postcode": "8221406",
    "prefecture": "福岡県",
    "prefecture_kana": "フクオカケン",
    "prefecture_code": 40,
    "city": "田川郡香春町",
    "city_kana": "タガワグンカワラマチ",
    "town": "香春",
    "town_kana": "カワラ",
    "street": null,
    "office_name": null,
    "office_name_kana": null
  },
  "1492": {
    "postcode": "8221492",
    "prefecture": "福岡県",
    "prefecture_kana": "フクオカケン",
    "prefecture_code": 40,
    "city": "田川郡香春町",
    "city_kana": "タガワグンカワラマチ",
    "town": "大字高野",
    "town_kana": null,
    "street": "９９４",
    "office_name": "香春町役場",
    "office_name_kana": "カワラマチヤクバ"
  },
  "8501": {
    "postcode": "8228501",
    "prefecture": "福岡県",
    "prefecture_kana": "フクオカケン",
    "prefecture_code": 40,
    "city": "直方市",
    "city_kana": "ノオガタシ",
    "town": "殿町",
    "town_kana": "トノマチ",
    "street": "７−１",
    "office_name": "直方市役所",
    "office_name_kana": "ノオガタシヤクシヨ"
  },
  "8555": {
    "postcode": "8228555",
    "prefecture": "福岡県",
    "prefecture_kana": "フクオカケン",
    "prefecture_code": 40,
    "city": "直方市",
    "city_kana": "ノオガタシ",
    "town": "知古",
    "town_kana": "チコ",
    "street": "１丁目８−１",
    "office_name": "日本年金機構　直方年金事務所",
    "office_name_kana": "ニツポンネンキンキコウ ノウガタネンキンジムシヨ"
  },
  "8585": {
    "postcode": "8228585",
    "prefecture": "福岡県",
    "prefecture_kana": "フクオカケン",
    "prefecture_code": 40,
    "city": "直方市",
    "city_kana": "ノオガタシ",
    "town": "大字下境",
    "town_kana": null,
    "street": "２４００番地",
    "office_name": "株式会社　もち吉",
    "office_name_kana": "カブシキガイシヤ モチキチ"
  },
  "8666": {
    "postcode": "8228666",
    "prefecture": "福岡県",
    "prefecture_kana": "フクオカケン",
    "prefecture_code": 40,
    "city": "直方市",
    "city_kana": "ノオガタシ",
    "town": "殿町",
    "town_kana": "トノマチ",
    "street": "９−１０（直方郵便局私書箱第２１号）",
    "office_name": "直方税務署",
    "office_name_kana": "ノオガタゼイムシヨ"
  }
}