{
  "0000": {
    "postcode": "8240000",
    "prefecture": "福岡県",
    "prefecture_kana": "フクオカケン",
    "prefecture_code": 40,
    "city": "行橋市",
    "city_kana": "ユクハシシ",
    "town": "",
    "town_kana": "",
    "street": null,
    "office_name": null,
    "office_name_kana": null
  },
  "0001": {
    "postcode": "8240001",
    "prefecture": "福岡県",
    "prefecture_kana": "フクオカケン",
    "prefecture_code": 40,
    "city": "行橋市",
    "city_kana": "ユクハシシ",
    "town": "行事",
    "town_kana": "ギョウジ",
    "street": null,
    "office_name": null,
    "office_name_kana": null
  },
  "0002": {
    "postcode": "8240002",
    "prefecture": "福岡県",
    "prefecture_kana": "フクオカケン",
    "prefecture_code": 40,
    "city": "行橋市",
    "city_kana": "ユクハシシ",
    "town": "東大橋",
    "town_kana": "ヒガシオオハシ",
    "street": null,
    "office_name": null,
    "office_name_kana": null
  },
  "0003": {
    "postcode": "8240003",
    "prefecture": "福岡県",
    "prefecture_kana": "フクオカケン",
    "prefecture_code": 40,
    "city": "行橋市",
    "city_kana": "ユクハシシ",
    "town": "大橋",
    "town_kana": "オオハシ",
    "street": null,
    "office_name": null,
    "office_name_kana": null
  },
  "0004": {
    "postcode": "8240004",
    "prefecture": "福岡県",
    "prefecture_kana": "フクオカケン",
    "prefecture_code": 40,
    "city": "行橋市",
    "city_kana": "ユクハシシ",
    "town": "金屋",
    "town_kana": "カナヤ",
    "street": null,
    "office_name": null,
    "office_name_kana": null
  },
  "0005": {
    "postcode": "8240005",
    "prefecture": "福岡県",
    "prefecture_kana": "フクオカケン",
    "prefecture_code": 40,
    "city": "行橋市",
    "city_kana": "ユクハシシ",
    "town": "中央",
    "town_kana": "チュウオウ",
    "street": null,
    "office_name": null,
    "office_name_kana": null
  },
  "0006": {
    "postcode": "8240006",
    "prefecture": "福岡県",
    "prefecture_kana": "フクオカケン",
    "prefecture_code": 40,
    "city": "行橋市",
    "city_kana": "ユクハシシ",
    "town": "門樋町",
    "town_kana": "モンピマチ",
    "street": null,
    "office_name": null,
    "office_name_kana": null
  },
  "0007": {
    "postcode": "8240007",
    "prefecture": "福岡県",
    "prefecture_kana": "フクオカケン",
    "prefecture_code": 40,
    "city": "行橋市",
    "city_kana": "ユクハシシ",
    "town": "神田町",
    "town_kana": "ジンデンマチ",
    "street": null,
    "office_name": null,
    "office_name_kana": null
  },
  "0008": {
    "postcode": "8240008",
    "prefecture": "福岡県",
    "prefecture_kana": "フクオカケン",
    "prefecture_code": 40,
    "city": "行橋市",
    "city_kana": "ユクハシシ",
    "town": "宮市町",
    "town_kana": "ミヤイチマチ",
    "street": null,
    "office_name": null,
    "office_name_kana": null
  },
  "0011": {
    "postcode": "8240011",
    "prefecture": "福岡県",
    "prefecture_kana": "フクオカケン",
    "prefecture_code": 40,
    "city": "行橋市",
    "city_kana": "ユクハシシ",
    "town": "蓑島",
    "town_kana": "ミノシマ",
    "street": null,
    "office_name": null,
    "office_name_kana": null
  },
  "0012": {
    "postcode": "8240012",
    "prefecture": "福岡県",
    "prefecture_kana": "フクオカケン",
    "prefecture_code": 40,
    "city": "行橋市",
    "city_kana": "ユクハシシ",
    "town": "文久",
    "town_kana": "ブンキュウ",
    "street": null,
    "office_name": null,
    "office_name_kana": null
  },
  "0013": {
    "postcode": "8240013",
    "prefecture": "福岡県",
    "prefecture_kana": "フクオカケン",
    "prefecture_code": 40,
    "city": "行橋市",
    "city_kana": "ユクハシシ",
    "town": "沓尾",
    "town_kana": "クツオ",
    "street": null,
    "office_name": null,
    "office_name_kana": null
  },
  "0014": {
    "postcode": "8240014",
    "prefecture": "福岡県",
    "prefecture_kana": "フクオカケン",
    "prefecture_code": 40,
    "city": "行橋市",
    "city_kana": "ユクハシシ",
    "town": "長井",
    "town_kana": "ナガイ",
    "street": null,
    "office_name": null,
    "office_name_kana": null
  },
  "0015": {
    "postcode": "8240015",
    "prefecture": "福岡県",
    "prefecture_kana": "フクオカケン",
    "prefecture_code": 40,
    "city": "行橋市",
    "city_kana": "ユクハシシ",
    "town": "元永",
    "town_kana": "モトナガ",
    "street": null,
    "office_name": null,
    "office_name_kana": null
  },
  "0016": {
    "postcode": "8240016",
    "prefecture": "福岡県",
    "prefecture_kana": "フクオカケン",
    "prefecture_code": 40,
    "city": "行橋市",
    "city_kana": "ユクハシシ",
    "town": "津留",
    "town_kana": "ツル",
    "street": null,
    "office_name": null,
    "office_name_kana": null
  },
  "0017": {
    "postcode": "8240017",
    "prefecture": "福岡県",
    "prefecture_kana": "フクオカケン",
    "prefecture_code": 40,
    "city": "行橋市",
    "city_kana": "ユクハシシ",
    "town": "真菰",
    "town_kana": "マコモ",
    "street": null,
    "office_name": null,
    "office_name_kana": null
  },
  "0018": {
    "postcode": "8240018",
    "prefecture": "福岡県",
    "prefecture_kana": "フクオカケン",
    "prefecture_code": 40,
    "city": "行橋市",
    "city_kana": "ユクハシシ",
    "town": "今井",
    "town_kana": "イマイ",
    "street": null,
    "office_name": null,
    "office_name_kana": null
  },
  "0021": {
    "postcode": "8240021",
    "prefecture": "福岡県",
    "prefecture_kana": "フクオカケン",
    "prefecture_code": 40,
    "city": "行橋市",
    "city_kana": "ユクハシシ",
    "town": "馬場",
    "town_kana": "ババ",
    "street": null,
    "office_name": null,
    "office_name_kana": null
  },
  "0022": {
    "postcode": "8240022",
    "prefecture": "福岡県",
    "prefecture_kana": "フクオカケン",
    "prefecture_code": 40,
    "city": "行橋市",
    "city_kana": "ユクハシシ",
    "town": "稲童",
    "town_kana": "イナドウ",
    "street": null,
    "office_name": null,
    "office_name_kana": null
  },
  "0023": {
    "postcode": "8240023",
    "prefecture": "福岡県",
    "prefecture_kana": "フクオカケン",
    "prefecture_code": 40,
    "city": "行橋市",
    "city_kana": "ユクハシシ",
    "town": "松原",
    "town_kana": "マツバラ",
    "street": null,
    "office_name": null,
    "office_name_kana": null
  },
  "0024": {
    "postcode": "8240024",
    "prefecture": "福岡県",
    "prefecture_kana": "フクオカケン",
    "prefecture_code": 40,
    "city": "行橋市",
    "city_kana": "ユクハシシ",
    "town": "袋迫",
    "town_kana": "フクロサコ",
    "street": null,
    "office_name": null,
    "office_name_kana": null
  },
  "0025": {
    "postcode": "8240025",
    "prefecture": "福岡県",
    "prefecture_kana": "フクオカケン",
    "prefecture_code": 40,
    "city": "行橋市",
    "city_kana": "ユクハシシ",
    "town": "東徳永",
    "town_kana": "ヒガシトクナガ",
    "street": null,
    "office_name": null,
    "office_name_kana": null
  },
  "0026": {
    "postcode": "8240026",
    "prefecture": "福岡県",
    "prefecture_kana": "フクオカケン",
    "prefecture_code": 40,
    "city": "行橋市",
    "city_kana": "ユクハシシ",
    "town": "道場寺",
    "town_kana": "ドウジョウジ",
    "street": null,
    "office_name": null,
    "office_name_kana": null
  },
  "0027": {
    "postcode": "8240027",
    "prefecture": "福岡県",
    "prefecture_kana": "フクオカケン",
    "prefecture_code": 40,
    "city": "行橋市",
    "city_kana": "ユクハシシ",
    "town": "高瀬",
    "town_kana": "タカセ",
    "street": null,
    "office_name": null,
    "office_name_kana": null
  },
  "0028": {
    "postcode": "8240028",
    "prefecture": "福岡県",
    "prefecture_kana": "フクオカケン",
    "prefecture_code": 40,
    "city": "行橋市",
    "city_kana": "ユクハシシ",
    "town": "辻垣",
    "town_kana": "ツジカキ",
    "street": null,
    "office_name": null,
    "office_name_kana": null
  },
  "0031": {
    "postcode": "8240031",
    "prefecture": "福岡県",
    "prefecture_kana": "フクオカケン",
    "prefecture_code": 40,
    "city": "行橋市",
    "city_kana": "ユクハシシ",
    "town": "西宮市",
    "town_kana": "ニシミヤイチ",
    "street": null,
    "office_name": null,
    "office_name_kana": null
  },
  "0032": {
    "postcode": "8240032",
    "prefecture": "福岡県",
    "prefecture_kana": "フクオカケン",
    "prefecture_code": 40,
    "city": "行橋市",
    "city_kana": "ユクハシシ",
    "town": "南大橋",
    "town_kana": "ミナミオオハシ",
    "street": null,
    "office_name": null,
    "office_name_kana": null
  },
  "0033": {
    "postcode": "8240033",
    "prefecture": "福岡県",
    "prefecture_kana": "フクオカケン",
    "prefecture_code": 40,
    "city": "行橋市",
    "city_kana": "ユクハシシ",
    "town": "北泉",
    "town_kana": "キタイズミ",
    "street": null,
    "office_name": null,
    "office_name_kana": null
  },
  "0034": {
    "postcode": "8240034",
    "prefecture": "福岡県",
    "prefecture_kana": "フクオカケン",
    "prefecture_code": 40,
    "city": "行橋市",
    "city_kana": "ユクハシシ",
    "town": "泉中央",
    "town_kana": "イズミチュウオウ",
    "street": null,
    "office_name": null,
    "office_name_kana": null
  },
  "0035": {
    "postcode": "8240035",
    "prefecture": "福岡県",
    "prefecture_kana": "フクオカケン",
    "prefecture_code": 40,
    "city": "行橋市",
    "city_kana": "ユクハシシ",
    "town": "東泉",
    "town_kana": "ヒガシイズミ",
    "street": null,
    "office_name": null,
    "office_name_kana": null
  },
  "0036": {
    "postcode": "8240036",
    "prefecture": "福岡県",
    "prefecture_kana": "フクオカケン",
    "prefecture_code": 40,
    "city": "行橋市",
    "city_kana": "ユクハシシ",
    "town": "南泉",
    "town_kana": "ミナミイズミ",
    "street": null,
    "office_name": null,
    "office_name_kana": null
  },
  "0037": {
    "postcode": "8240037",
    "prefecture": "福岡県",
    "prefecture_kana": "フクオカケン",
    "prefecture_code": 40,
    "city": "行橋市",
    "city_kana": "ユクハシシ",
    "town": "矢留",
    "town_kana": "ヤドミ",
    "street": null,
    "office_name": null,
    "office_name_kana": null
  },
  "0038": {
    "postcode": "8240038",
    "prefecture": "福岡県",
    "prefecture_kana": "フクオカケン",
    "prefecture_code": 40,
    "city": "行橋市",
    "city_kana": "ユクハシシ",
    "town": "西泉",
    "town_kana": "ニシイズミ",
    "street": null,
    "office_name": null,
    "office_name_kana": null
  },
  "0041": {
    "postcode": "8240041",
    "prefecture": "福岡県",
    "prefecture_kana": "フクオカケン",
    "prefecture_code": 40,
    "city": "行橋市",
    "city_kana": "ユクハシシ",
    "town": "大野井",
    "town_kana": "オオノイ",
    "street": null,
    "office_name": null,
    "office_name_kana": null
  },
  "0042": {
    "postcode": "8240042",
    "prefecture": "福岡県",
    "prefecture_kana": "フクオカケン",
    "prefecture_code": 40,
    "city": "行橋市",
    "city_kana": "ユクハシシ",
    "town": "寺畔",
    "town_kana": "テラナワテ",
    "street": null,
    "office_name": null,
    "office_name_kana": null
  },
  "0043": {
    "postcode": "8240043",
    "prefecture": "福岡県",
    "prefecture_kana": "フクオカケン",
    "prefecture_code": 40,
    "city": "行橋市",
    "city_kana": "ユクハシシ",
    "town": "流末",
    "town_kana": "リュウマツ",
    "street": null,
    "office_name": null,
    "office_name_kana": null
  },
  "0044": {
    "postcode": "8240044",
    "prefecture": "福岡県",
    "prefecture_kana": "フクオカケン",
    "prefecture_code": 40,
    "city": "行橋市",
    "city_kana": "ユクハシシ",
    "town": "天生田",
    "town_kana": "アモウダ",
    "street": null,
    "office_name": null,
    "office_name_kana": null
  },
  "0045": {
    "postcode": "8240045",
    "prefecture": "福岡県",
    "prefecture_kana": "フクオカケン",
    "prefecture_code": 40,
    "city": "行橋市",
    "city_kana": "ユクハシシ",
    "town": "大谷",
    "town_kana": "オオタニ",
    "street": null,
    "office_name": null,
    "office_name_kana": null
  },
  "0046": {
    "postcode": "8240046",
    "prefecture": "福岡県",
    "prefecture_kana": "フクオカケン",
    "prefecture_code": 40,
    "city": "行橋市",
    "city_kana": "ユクハシシ",
    "town": "西谷",
    "town_kana": "ニシタニ",
    "street": null,
    "office_name": null,
    "office_name_kana": null
  },
  "0047": {
    "postcode": "8240047",
    "prefecture": "福岡県",
    "prefecture_kana": "フクオカケン",
    "prefecture_code": 40,
    "city": "行橋市",
    "city_kana": "ユクハシシ",
    "town": "津積",
    "town_kana": "ツツミ",
    "street": null,
    "office_name": null,
    "office_name_kana": null
  },
  "0048": {
    "postcode": "8240048",
    "prefecture": "福岡県",
    "prefecture_kana": "フクオカケン",
    "prefecture_code": 40,
    "city": "行橋市",
    "city_kana": "ユクハシシ",
    "town": "宝山",
    "town_kana": "タカラヤマ",
    "street": null,
    "office_name": null,
    "office_name_kana": null
  },
  "0049": {
    "postcode": "8240049",
    "prefecture": "福岡県",
    "prefecture_kana": "フクオカケン",
    "prefecture_code": 40,
    "city": "行橋市",
    "city_kana": "ユクハシシ",
    "town": "福原",
    "town_kana": "フクバル",
    "street": null,
    "office_name": null,
    "office_name_kana": null
  },
  "0051": {
    "postcode": "8240051",
    "prefecture": "福岡県",
    "prefecture_kana": "フクオカケン",
    "prefecture_code": 40,
    "city": "行橋市",
    "city_kana": "ユクハシシ",
    "town": "下検地",
    "town_kana": "シモケンジ",
    "street": null,
    "office_name": null,
    "office_name_kana": null
  },
  "0052": {
    "postcode": "8240052",
    "prefecture": "福岡県",
    "prefecture_kana": "フクオカケン",
    "prefecture_code": 40,
    "city": "行橋市",
    "city_kana": "ユクハシシ",
    "town": "上検地",
    "town_kana": "カミケンジ",
    "street": null,
    "office_name": null,
    "office_name_kana": null
  },
  "0053": {
    "postcode": "8240053",
    "prefecture": "福岡県",
    "prefecture_kana": "フクオカケン",
    "prefecture_code": 40,
    "city": "行橋市",
    "city_kana": "ユクハシシ",
    "town": "中川",
    "town_kana": "ナカガワ",
    "street": null,
    "office_name": null,
    "office_name_kana": null
  },
  "0054": {
    "postcode": "8240054",
    "prefecture": "福岡県",
    "prefecture_kana": "フクオカケン",
    "prefecture_code": 40,
    "city": "行橋市",
    "city_kana": "ユクハシシ",
    "town": "下稗田",
    "town_kana": "シモヒエダ",
    "street": null,
    "office_name": null,
    "office_name_kana": null
  },
  "0055": {
    "postcode": "8240055",
    "prefecture": "福岡県",
    "prefecture_kana": "フクオカケン",
    "prefecture_code": 40,
    "city": "行橋市",
    "city_kana": "ユクハシシ",
    "town": "上稗田",
    "town_kana": "カミヒエダ",
    "street": null,
    "office_name": null,
    "office_name_kana": null
  },
  "0056": {
    "postcode": "8240056",
    "prefecture": "福岡県",
    "prefecture_kana": "フクオカケン",
    "prefecture_code": 40,
    "city": "行橋市",
    "city_kana": "ユクハシシ",
    "town": "前田",
    "town_kana": "マエダ",
    "street": null,
    "office_name": null,
    "office_name_kana": null
  },
  "0057": {
    "postcode": "8240057",
    "prefecture": "福岡県",
    "prefecture_kana": "フクオカケン",
    "prefecture_code": 40,
    "city": "行橋市",
    "city_kana": "ユクハシシ",
    "town": "宮の杜",
    "town_kana": "ミヤノモリ",
    "street": null,
    "office_name": null,
    "office_name_kana": null
  },
  "0058": {
    "postcode": "8240058",
    "prefecture": "福岡県",
    "prefecture_kana": "フクオカケン",
    "prefecture_code": 40,
    "city": "行橋市",
    "city_kana": "ユクハシシ",
    "town": "長木",
    "town_kana": "オサギ",
    "street": null,
    "office_name": null,
    "office_name_kana": null
  },
  "0061": {
    "postcode": "8240061",
    "prefecture": "福岡県",
    "prefecture_kana": "フクオカケン",
    "prefecture_code": 40,
    "city": "行橋市",
    "city_kana": "ユクハシシ",
    "town": "草野",
    "town_kana": "クサノ",
    "street": null,
    "office_name": null,
    "office_name_kana": null
  },
  "0062": {
    "postcode": "8240062",
    "prefecture": "福岡県",
    "prefecture_kana": "フクオカケン",
    "prefecture_code": 40,
    "city": "行橋市",
    "city_kana": "ユクハシシ",
    "town": "下津熊",
    "town_kana": "シモヅクマ",
    "street": null,
    "office_name": null,
    "office_name_kana": null
  },
  "0063": {
    "postcode": "8240063",
    "prefecture": "福岡県",
    "prefecture_kana": "フクオカケン",
    "prefecture_code": 40,
    "city": "行橋市",
    "city_kana": "ユクハシシ",
    "town": "中津熊",
    "town_kana": "ナカヅクマ",
    "street": null,
    "office_name": null,
    "office_name_kana": null
  },
  "0064": {
    "postcode": "8240064",
    "prefecture": "福岡県",
    "prefecture_kana": "フクオカケン",
    "prefecture_code": 40,
    "city": "行橋市",
    "city_kana": "ユクハシシ",
    "town": "上津熊",
    "town_kana": "カミヅクマ",
    "street": null,
    "office_name": null,
    "office_name_kana": null
  },
  "0065": {
    "postcode": "8240065",
    "prefecture": "福岡県",
    "prefecture_kana": "フクオカケン",
    "prefecture_code": 40,
    "city": "行橋市",
    "city_kana": "ユクハシシ",
    "town": "長音寺",
    "town_kana": "チョウオンジ",
    "street": null,
    "office_name": null,
    "office_name_kana": null
  },
  "0066": {
    "postcode": "8240066",
    "prefecture": "福岡県",
    "prefecture_kana": "フクオカケン",
    "prefecture_code": 40,
    "city": "行橋市",
    "city_kana": "ユクハシシ",
    "town": "吉国",
    "town_kana": "ヨシクニ",
    "street": null,
    "office_name": null,
    "office_name_kana": null
  },
  "0067": {
    "postcode": "8240067",
    "prefecture": "福岡県",
    "prefecture_kana": "フクオカケン",
    "prefecture_code": 40,
    "city": "行橋市",
    "city_kana": "ユクハシシ",
    "town": "二塚",
    "town_kana": "フタヅカ",
    "street": null,
    "office_name": null,
    "office_name_kana": null
  },
  "0068": {
    "postcode": "8240068",
    "prefecture": "福岡県",
    "prefecture_kana": "フクオカケン",
    "prefecture_code": 40,
    "city": "行橋市",
    "city_kana": "ユクハシシ",
    "town": "延永",
    "town_kana": "ノブナガ",
    "street": null,
    "office_name": null,
    "office_name_kana": null
  },
  "0071": {
    "postcode": "8240071",
    "prefecture": "福岡県",
    "prefecture_kana": "フクオカケン",
    "prefecture_code": 40,
    "city": "行橋市",
    "city_kana": "ユクハシシ",
    "town": "徳永",
    "town_kana": "トクナガ",
    "street": null,
    "office_name": null,
    "office_name_kana": null
  },
  "0072": {
    "postcode": "8240072",
    "prefecture": "福岡県",
    "prefecture_kana": "フクオカケン",
    "prefecture_code": 40,
    "city": "行橋市",
    "city_kana": "ユクハシシ",
    "town": "須磨園",
    "town_kana": "スマゾノ",
    "street": null,
    "office_name": null,
    "office_name_kana": null
  },
  "0073": {
    "postcode": "8240073",
    "prefecture": "福岡県",
    "prefecture_kana": "フクオカケン",
    "prefecture_code": 40,
    "city": "行橋市",
    "city_kana": "ユクハシシ",
    "town": "福丸",
    "town_kana": "フクマル",
    "street": null,
    "office_name": null,
    "office_name_kana": null
  },
  "0074": {
    "postcode": "8240074",
    "prefecture": "福岡県",
    "prefecture_kana": "フクオカケン",
    "prefecture_code": 40,
    "city": "行橋市",
    "city_kana": "ユクハシシ",
    "town": "常松",
    "town_kana": "ツネマツ",
    "street": null,
    "office_name": null,
    "office_name_kana": null
  },
  "0075": {
    "postcode": "8240075",
    "prefecture": "福岡県",
    "prefecture_kana": "フクオカケン",
    "prefecture_code": 40,
    "city": "行橋市",
    "city_kana": "ユクハシシ",
    "town": "長尾",
    "town_kana": "ナガオ",
    "street": null,
    "office_name": null,
    "office_name_kana": null
  },
  "0076": {
    "postcode": "8240076",
    "prefecture": "福岡県",
    "prefecture_kana": "フクオカケン",
    "prefecture_code": 40,
    "city": "行橋市",
    "city_kana": "ユクハシシ",
    "town": "下崎",
    "town_kana": "シモサキ",
    "street": null,
    "office_name": null,
    "office_name_kana": null
  },
  "0077": {
    "postcode": "8240077",
    "prefecture": "福岡県",
    "prefecture_kana": "フクオカケン",
    "prefecture_code": 40,
    "city": "行橋市",
    "city_kana": "ユクハシシ",
    "town": "入覚",
    "town_kana": "ニュウガク",
    "street": null,
    "office_name": null,
    "office_name_kana": null
  },
  "0078": {
    "postcode": "8240078",
    "prefecture": "福岡県",
    "prefecture_kana": "フクオカケン",
    "prefecture_code": 40,
    "city": "行橋市",
    "city_kana": "ユクハシシ",
    "town": "高来",
    "town_kana": "タカク",
    "street": null,
    "office_name": null,
    "office_name_kana": null
  },
  "0079": {
    "postcode": "8240079",
    "prefecture": "福岡県",
    "prefecture_kana": "フクオカケン",
    "prefecture_code": 40,
    "city": "行橋市",
    "city_kana": "ユクハシシ",
    "town": "矢山",
    "town_kana": "ヤヤマ",
    "street": null,
    "office_name": null,
    "office_name_kana": null
  },
  "0101": {
    "postcode": "8240101",
    "prefecture": "福岡県",
    "prefecture_kana": "フクオカケン",
    "prefecture_code": 40,
    "city": "京都郡みやこ町",
    "city_kana": "ミヤコグンミヤコマチ",
    "town": "徳永",
    "town_kana": "トクナガ",
    "street": null,
    "office_name": null,
    "office_name_kana": null
  },
  "0102": {
    "postcode": "8240102",
    "prefecture": "福岡県",
    "prefecture_kana": "フクオカケン",
    "prefecture_code": 40,
    "city": "京都郡みやこ町",
    "city_kana": "ミヤコグンミヤコマチ",
    "town": "呰見",
    "town_kana": "アザミ",
    "street": null,
    "office_name": null,
    "office_name_kana": null
  },
  "0103": {
    "postcode": "8240103",
    "prefecture": "福岡県",
    "prefecture_kana": "フクオカケン",
    "prefecture_code": 40,
    "city": "京都郡みやこ町",
    "city_kana": "ミヤコグンミヤコマチ",
    "town": "下原",
    "town_kana": "シモバル",
    "street": null,
    "office_name": null,
    "office_name_kana": null
  },
  "0104": {
    "postcode": "8240104",
    "prefecture": "福岡県",
    "prefecture_kana": "フクオカケン",
    "prefecture_code": 40,
    "city": "京都郡みやこ町",
    "city_kana": "ミヤコグンミヤコマチ",
    "town": "綾野",
    "town_kana": "アヤノ",
    "street": null,
    "office_name": null,
    "office_name_kana": null
  },
  "0105": {
    "postcode": "8240105",
    "prefecture": "福岡県",
    "prefecture_kana": "フクオカケン",
    "prefecture_code": 40,
    "city": "京都郡みやこ町",
    "city_kana": "ミヤコグンミヤコマチ",
    "town": "徳政",
    "town_kana": "トクセイ",
    "street": null,
    "office_name": null,
    "office_name_kana": null
  },
  "0106": {
    "postcode": "8240106",
    "prefecture": "福岡県",
    "prefecture_kana": "フクオカケン",
    "prefecture_code": 40,
    "city": "京都郡みやこ町",
    "city_kana": "ミヤコグンミヤコマチ",
    "town": "有久",
    "town_kana": "アリヒサ",
    "street": null,
    "office_name": null,
    "office_name_kana": null
  },
  "0107": {
    "postcode": "8240107",
    "prefecture": "福岡県",
    "prefecture_kana": "フクオカケン",
    "prefecture_code": 40,
    "city": "京都郡みやこ町",
    "city_kana": "ミヤコグンミヤコマチ",
    "town": "田中",
    "town_kana": "タナカ",
    "street": null,
    "office_name": null,
    "office_name_kana": null
  },
  "0111": {
    "postcode": "8240111",
    "prefecture": "福岡県",
    "prefecture_kana": "フクオカケン",
    "prefecture_code": 40,
    "city": "京都郡みやこ町",
    "city_kana": "ミヤコグンミヤコマチ",
    "town": "上坂",
    "town_kana": "カミサカ",
    "street": null,
    "office_name": null,
    "office_name_kana": null
  },
  "0112": {
    "postcode": "8240112",
    "prefecture": "福岡県",
    "prefecture_kana": "フクオカケン",
    "prefecture_code": 40,
    "city": "京都郡みやこ町",
    "city_kana": "ミヤコグンミヤコマチ",
    "town": "上原",
    "town_kana": "カンバル",
    "street": null,
    "office_name": null,
    "office_name_kana": null
  },
  "0113": {
    "postcode": "8240113",
    "prefecture": "福岡県",
    "prefecture_kana": "フクオカケン",
    "prefecture_code": 40,
    "city": "京都郡みやこ町",
    "city_kana": "ミヤコグンミヤコマチ",
    "town": "吉岡",
    "town_kana": "ヨシオカ",
    "street": null,
    "office_name": null,
    "office_name_kana": null
  },
  "0114": {
    "postcode": "8240114",
    "prefecture": "福岡県",
    "prefecture_kana": "フクオカケン",
    "prefecture_code": 40,
    "city": "京都郡みやこ町",
    "city_kana": "ミヤコグンミヤコマチ",
    "town": "節丸",
    "town_kana": "セツマル",
    "street": null,
    "office_name": null,
    "office_name_kana": null
  },
  "0115": {
    "postcode": "8240115",
    "prefecture": "福岡県",
    "prefecture_kana": "フクオカケン",
    "prefecture_code": 40,
    "city": "京都郡みやこ町",
    "city_kana": "ミヤコグンミヤコマチ",
    "town": "光冨",
    "town_kana": "ミツドミ",
    "street": null,
    "office_name": null,
    "office_name_kana": null
  },
  "0121": {
    "postcode": "8240121",
    "prefecture": "福岡県",
    "prefecture_kana": "フクオカケン",
    "prefecture_code": 40,
    "city": "京都郡みやこ町",
    "city_kana": "ミヤコグンミヤコマチ",
    "town": "豊津",
    "town_kana": "トヨツ",
    "street": null,
    "office_name": null,
    "office_name_kana": null
  },
  "0122": {
    "postcode": "8240122",
    "prefecture": "福岡県",
    "prefecture_kana": "フクオカケン",
    "prefecture_code": 40,
    "city": "京都郡みやこ町",
    "city_kana": "ミヤコグンミヤコマチ",
    "town": "彦徳",
    "town_kana": "ケンドク",
    "street": null,
    "office_name": null,
    "office_name_kana": null
  },
  "0123": {
    "postcode": "8240123",
    "prefecture": "福岡県",
    "prefecture_kana": "フクオカケン",
    "prefecture_code": 40,
    "city": "京都郡みやこ町",
    "city_kana": "ミヤコグンミヤコマチ",
    "town": "国分",
    "town_kana": "コクブ",
    "street": null,
    "office_name": null,
    "office_name_kana": null
  },
  "0124": {
    "postcode": "8240124",
    "prefecture": "福岡県",
    "prefecture_kana": "フクオカケン",
    "prefecture_code": 40,
    "city": "京都郡みやこ町",
    "city_kana": "ミヤコグンミヤコマチ",
    "town": "惣社",
    "town_kana": "ソウシャ",
    "street": null,
    "office_name": null,
    "office_name_kana": null
  },
  "0125": {
    "postcode": "8240125",
    "prefecture": "福岡県",
    "prefecture_kana": "フクオカケン",
    "prefecture_code": 40,
    "city": "京都郡みやこ町",
    "city_kana": "ミヤコグンミヤコマチ",
    "town": "国作",
    "town_kana": "コクサク",
    "street": null,
    "office_name": null,
    "office_name_kana": null
  },
  "0192": {
    "postcode": "8240192",
    "prefecture": "福岡県",
    "prefecture_kana": "フクオカケン",
    "prefecture_code": 40,
    "city": "京都郡みやこ町",
    "city_kana": "ミヤコグンミヤコマチ",
    "town": "豊津",
    "town_kana": "トヨツ",
    "street": "１１１８",
    "office_name": "みやこ町役場　豊津支所",
    "office_name_kana": "ミヤコマチヤクバ トヨツシシヨ"
  },
  "0201": {
    "postcode": "8240201",
    "prefecture": "福岡県",
    "prefecture_kana": "フクオカケン",
    "prefecture_code": 40,
    "city": "京都郡みやこ町",
    "city_kana": "ミヤコグンミヤコマチ",
    "town": "犀川下高屋",
    "town_kana": "サイガワシモタカヤ",
    "street": null,
    "office_name": null,
    "office_name_kana": null
  },
  "0202": {
    "postcode": "8240202",
    "prefecture": "福岡県",
    "prefecture_kana": "フクオカケン",
    "prefecture_code": 40,
    "city": "京都郡みやこ町",
    "city_kana": "ミヤコグンミヤコマチ",
    "town": "犀川上高屋",
    "town_kana": "サイガワカミタカヤ",
    "street": null,
    "office_name": null,
    "office_name_kana": null
  },
  "0203": {
    "postcode": "8240203",
    "prefecture": "福岡県",
    "prefecture_kana": "フクオカケン",
    "prefecture_code": 40,
    "city": "京都郡みやこ町",
    "city_kana": "ミヤコグンミヤコマチ",
    "town": "犀川続命院",
    "town_kana": "サイガワゾクミョウイン",
    "street": null,
    "office_name": null,
    "office_name_kana": null
  },
  "0204": {
    "postcode": "8240204",
    "prefecture": "福岡県",
    "prefecture_kana": "フクオカケン",
    "prefecture_code": 40,
    "city": "京都郡みやこ町",
    "city_kana": "ミヤコグンミヤコマチ",
    "town": "犀川末江",
    "town_kana": "サイガワスエ",
    "street": null,
    "office_name": null,
    "office_name_kana": null
  },
  "0205": {
    "postcode": "8240205",
    "prefecture": "福岡県",
    "prefecture_kana": "フクオカケン",
    "prefecture_code": 40,
    "city": "京都郡みやこ町",
    "city_kana": "ミヤコグンミヤコマチ",
    "town": "犀川久富",
    "town_kana": "サイガワヒサドミ",
    "street": null,
    "office_name": null,
    "office_name_kana": null
  },
  "0206": {
    "postcode": "8240206",
    "prefecture": "福岡県",
    "prefecture_kana": "フクオカケン",
    "prefecture_code": 40,
    "city": "京都郡みやこ町",
    "city_kana": "ミヤコグンミヤコマチ",
    "town": "犀川八ツ溝",
    "town_kana": "サイガワヤツミゾ",
    "street": null,
    "office_name": null,
    "office_name_kana": null
  },
  "0207": {
    "postcode": "8240207",
    "prefecture": "福岡県",
    "prefecture_kana": "フクオカケン",
    "prefecture_code": 40,
    "city": "京都郡みやこ町",
    "city_kana": "ミヤコグンミヤコマチ",
    "town": "蔵持",
    "town_kana": "クラモチ",
    "street": null,
    "office_name": null,
    "office_name_kana": null
  },
  "0211": {
    "postcode": "8240211",
    "prefecture": "福岡県",
    "prefecture_kana": "フクオカケン",
    "prefecture_code": 40,
    "city": "京都郡みやこ町",
    "city_kana": "ミヤコグンミヤコマチ",
    "town": "今里",
    "town_kana": "イマサト",
    "street": null,
    "office_name": null,
    "office_name_kana": null
  },
  "0212": {
    "postcode": "8240212",
    "prefecture": "福岡県",
    "prefecture_kana": "フクオカケン",
    "prefecture_code": 40,
    "city": "京都郡みやこ町",
    "city_kana": "ミヤコグンミヤコマチ",
    "town": "犀川大熊",
    "town_kana": "サイガワオオクマ",
    "street": null,
    "office_name": null,
    "office_name_kana": null
  },
  "0213": {
    "postcode": "8240213",
    "prefecture": "福岡県",
    "prefecture_kana": "フクオカケン",
    "prefecture_code": 40,
    "city": "京都郡みやこ町",
    "city_kana": "ミヤコグンミヤコマチ",
    "town": "犀川喜多良",
    "town_kana": "サイガワキタラ",
    "street": null,
    "office_name": null,
    "office_name_kana": null
  },
  "0214": {
    "postcode": "8240214",
    "prefecture": "福岡県",
    "prefecture_kana": "フクオカケン",
    "prefecture_code": 40,
    "city": "京都郡みやこ町",
    "city_kana": "ミヤコグンミヤコマチ",
    "town": "犀川鐙畑",
    "town_kana": "サイガワアブミハタ",
    "street": null,
    "office_name": null,
    "office_name_kana": null
  },
  "0215": {
    "postcode": "8240215",
    "prefecture": "福岡県",
    "prefecture_kana": "フクオカケン",
    "prefecture_code": 40,
    "city": "京都郡みやこ町",
    "city_kana": "ミヤコグンミヤコマチ",
    "town": "犀川生立",
    "town_kana": "サイガワオイタツ",
    "street": null,
    "office_name": null,
    "office_name_kana": null
  },
  "0216": {
    "postcode": "8240216",
    "prefecture": "福岡県",
    "prefecture_kana": "フクオカケン",
    "prefecture_code": 40,
    "city": "京都郡みやこ町",
    "city_kana": "ミヤコグンミヤコマチ",
    "town": "犀川谷口",
    "town_kana": "サイガワタニグチ",
    "street": null,
    "office_name": null,
    "office_name_kana": null
  },
  "0217": {
    "postcode": "8240217",
    "prefecture": "福岡県",
    "prefecture_kana": "フクオカケン",
    "prefecture_code": 40,
    "city": "京都郡みやこ町",
    "city_kana": "ミヤコグンミヤコマチ",
    "town": "犀川古川",
    "town_kana": "サイガワフルカワ",
    "street": null,
    "office_name": null,
    "office_name_kana": null
  },
  "0221": {
    "postcode": "8240221",
    "prefecture": "福岡県",
    "prefecture_kana": "フクオカケン",
    "prefecture_code": 40,
    "city": "京都郡みやこ町",
    "city_kana": "ミヤコグンミヤコマチ",
    "town": "犀川山鹿",
    "town_kana": "サイガワヤマガ",
    "street": null,
    "office_name": null,
    "office_name_kana": null
  },
  "0222": {
    "postcode": "8240222",
    "prefecture": "福岡県",
    "prefecture_kana": "フクオカケン",
    "prefecture_code": 40,
    "city": "京都郡みやこ町",
    "city_kana": "ミヤコグンミヤコマチ",
    "town": "犀川大村",
    "town_kana": "サイガワオオムラ",
    "street": null,
    "office_name": null,
    "office_name_kana": null
  },
  "0223": {
    "postcode": "8240223",
    "prefecture": "福岡県",
    "prefecture_kana": "フクオカケン",
    "prefecture_code": 40,
    "city": "京都郡みやこ町",
    "city_kana": "ミヤコグンミヤコマチ",
    "town": "犀川柳瀬",
    "town_kana": "サイガワヤナセ",
    "street": null,
    "office_name": null,
    "office_name_kana": null
  },
  "0224": {
    "postcode": "8240224",
    "prefecture": "福岡県",
    "prefecture_kana": "フクオカケン",
    "prefecture_code": 40,
    "city": "京都郡みやこ町",
    "city_kana": "ミヤコグンミヤコマチ",
    "town": "犀川崎山",
    "town_kana": "サイガワサキヤマ",
    "street": null,
    "office_name": null,
    "office_name_kana": null
  },
  "0225": {
    "postcode": "8240225",
    "prefecture": "福岡県",
    "prefecture_kana": "フクオカケン",
    "prefecture_code": 40,
    "city": "京都郡みやこ町",
    "city_kana": "ミヤコグンミヤコマチ",
    "town": "犀川大坂",
    "town_kana": "サイガワオオサカ",
    "street": null,
    "office_name": null,
    "office_name_kana": null
  },
  "0226": {
    "postcode": "8240226",
    "prefecture": "福岡県",
    "prefecture_kana": "フクオカケン",
    "prefecture_code": 40,
    "city": "京都郡みやこ町",
    "city_kana": "ミヤコグンミヤコマチ",
    "town": "松坂",
    "town_kana": "マツサカ",
    "street": null,
    "office_name": null,
    "office_name_kana": null
  },
  "0231": {
    "postcode": "8240231",
    "prefecture": "福岡県",
    "prefecture_kana": "フクオカケン",
    "prefecture_code": 40,
    "city": "京都郡みやこ町",
    "city_kana": "ミヤコグンミヤコマチ",
    "town": "犀川本庄",
    "town_kana": "サイガワホンジョウ",
    "street": null,
    "office_name": null,
    "office_name_kana": null
  },
  "0232": {
    "postcode": "8240232",
    "prefecture": "福岡県",
    "prefecture_kana": "フクオカケン",
    "prefecture_code": 40,
    "city": "京都郡みやこ町",
    "city_kana": "ミヤコグンミヤコマチ",
    "town": "桜台",
    "town_kana": "サクラダイ",
    "street": null,
    "office_name": null,
    "office_name_kana": null
  },
  "0233": {
    "postcode": "8240233",
    "prefecture": "福岡県",
    "prefecture_kana": "フクオカケン",
    "prefecture_code": 40,
    "city": "京都郡みやこ町",
    "city_kana": "ミヤコグンミヤコマチ",
    "town": "犀川花熊",
    "town_kana": "サイガワハナグマ",
    "street": null,
    "office_name": null,
    "office_name_kana": null
  },
  "0234": {
    "postcode": "8240234",
    "prefecture": "福岡県",
    "prefecture_kana": "フクオカケン",
    "prefecture_code": 40,
    "city": "京都郡みやこ町",
    "city_kana": "ミヤコグンミヤコマチ",
    "town": "下高屋団地",
    "town_kana": "シモタカヤダンチ",
    "street": null,
    "office_name": null,
    "office_name_kana": null
  },
  "0235": {
    "postcode": "8240235",
    "prefecture": "福岡県",
    "prefecture_kana": "フクオカケン",
    "prefecture_code": 40,
    "city": "京都郡みやこ町",
    "city_kana": "ミヤコグンミヤコマチ",
    "town": "犀川木山",
    "town_kana": "サイガワキヤマ",
    "street": null,
    "office_name": null,
    "office_name_kana": null
  },
  "0241": {
    "postcode": "8240241",
    "prefecture": "福岡県",
    "prefecture_kana": "フクオカケン",
    "prefecture_code": 40,
    "city": "京都郡みやこ町",
    "city_kana": "ミヤコグンミヤコマチ",
    "town": "犀川内垣",
    "town_kana": "サイガワウチガキ",
    "street": null,
    "office_name": null,
    "office_name_kana": null
  },
  "0242": {
    "postcode": "8240242",
    "prefecture": "福岡県",
    "prefecture_kana": "フクオカケン",
    "prefecture_code": 40,
    "city": "京都郡みやこ町",
    "city_kana": "ミヤコグンミヤコマチ",
    "town": "犀川犬丸",
    "town_kana": "サイガワイヌマル",
    "street": null,
    "office_name": null,
    "office_name_kana": null
  },
  "0243": {
    "postcode": "8240243",
    "prefecture": "福岡県",
    "prefecture_kana": "フクオカケン",
    "prefecture_code": 40,
    "city": "京都郡みやこ町",
    "city_kana": "ミヤコグンミヤコマチ",
    "town": "犀川木井馬場",
    "town_kana": "サイガワキイババ",
    "street": null,
    "office_name": null,
    "office_name_kana": null
  },
  "0244": {
    "postcode": "8240244",
    "prefecture": "福岡県",
    "prefecture_kana": "フクオカケン",
    "prefecture_code": 40,
    "city": "京都郡みやこ町",
    "city_kana": "ミヤコグンミヤコマチ",
    "town": "犀川横瀬",
    "town_kana": "サイガワヨコセ",
    "street": null,
    "office_name": null,
    "office_name_kana": null
  },
  "0251": {
    "postcode": "8240251",
    "prefecture": "福岡県",
    "prefecture_kana": "フクオカケン",
    "prefecture_code": 40,
    "city": "京都郡みやこ町",
    "city_kana": "ミヤコグンミヤコマチ",
    "town": "犀川下伊良原",
    "town_kana": "サイガワシモイラハラ",
    "street": null,
    "office_name": null,
    "office_name_kana": null
  },
  "0252": {
    "postcode": "8240252",
    "prefecture": "福岡県",
    "prefecture_kana": "フクオカケン",
    "prefecture_code": 40,
    "city": "京都郡みやこ町",
    "city_kana": "ミヤコグンミヤコマチ",
    "town": "犀川上伊良原",
    "town_kana": "サイガワカミイラハラ",
    "street": null,
    "office_name": null,
    "office_name_kana": null
  },
  "0253": {
    "postcode": "8240253",
    "prefecture": "福岡県",
    "prefecture_kana": "フクオカケン",
    "prefecture_code": 40,
    "city": "京都郡みやこ町",
    "city_kana": "ミヤコグンミヤコマチ",
    "town": "犀川帆柱",
    "town_kana": "サイガワホバシラ",
    "street": null,
    "office_name": null,
    "office_name_kana": null
  },
  "0254": {
    "postcode": "8240254",
    "prefecture": "福岡県",
    "prefecture_kana": "フクオカケン",
    "prefecture_code": 40,
    "city": "京都郡みやこ町",
    "city_kana": "ミヤコグンミヤコマチ",
    "town": "犀川扇谷",
    "town_kana": "サイガワオウギダニ",
    "street": null,
    "office_name": null,
    "office_name_kana": null
  },
  "0292": {
    "postcode": "8240292",
    "prefecture": "福岡県",
    "prefecture_kana": "フクオカケン",
    "prefecture_code": 40,
    "city": "京都郡みやこ町",
    "city_kana": "ミヤコグンミヤコマチ",
    "town": "犀川本庄",
    "town_kana": "サイガワホンジョウ",
    "street": "６４６",
    "office_name": "みやこ町役場　犀川支所",
    "office_name_kana": "ミヤコマチヤクバ サイガワシシヨ"
  },
  "0400": {
    "postcode": "8240400",
    "prefecture": "福岡県",
    "prefecture_kana": "フクオカケン",
    "prefecture_code": 40,
    "city": "田川郡赤村",
    "city_kana": "タガワグンアカムラ",
    "town": "",
    "town_kana": "",
    "street": null,
    "office_name": null,
    "office_name_kana": null
  },
  "0411": {
    "postcode": "8240411",
    "prefecture": "福岡県",
    "prefecture_kana": "フクオカケン",
    "prefecture_code": 40,
    "city": "田川郡添田町",
    "city_kana": "タガワグンソエダマチ",
    "town": "津野",
    "town_kana": "ツノ",
    "street": null,
    "office_name": null,
    "office_name_kana": null
  },
  "0431": {
    "postcode": "8240431",
    "prefecture": "福岡県",
    "prefecture_kana": "フクオカケン",
    "prefecture_code": 40,
    "city": "田川郡赤村",
    "city_kana": "タガワグンアカムラ",
    "town": "赤",
    "town_kana": "アカ",
    "street": null,
    "office_name": null,
    "office_name_kana": null
  },
  "0432": {
    "postcode": "8240432",
    "prefecture": "福岡県",
    "prefecture_kana": "フクオカケン",
    "prefecture_code": 40,
    "city": "田川郡赤村",
    "city_kana": "タガワグンアカムラ",
    "town": "内田",
    "town_kana": "ウチダ",
    "street": null,
    "office_name": null,
    "office_name_kana": null
  },
  "0500": {
    "postcode": "8240500",
    "prefecture": "福岡県",
    "prefecture_kana": "フクオカケン",
    "prefecture_code": 40,
    "city": "田川郡大任町",
    "city_kana": "タガワグンオオトウマチ",
    "town": "",
    "town_kana": "",
    "street": null,
    "office_name": null,
    "office_name_kana": null
  },
  "0511": {
    "postcode": "8240511",
    "prefecture": "福岡県",
    "prefecture_kana": "フクオカケン",
    "prefecture_code": 40,
    "city": "田川郡大任町",
    "city_kana": "タガワグンオオトウマチ",
    "town": "今任原",
    "town_kana": "イマトウバル",
    "street": null,
    "office_name": null,
    "office_name_kana": null
  },
  "0512": {
    "postcode": "8240512",
    "prefecture": "福岡県",
    "prefecture_kana": "フクオカケン",
    "prefecture_code": 40,
    "city": "田川郡大任町",
    "city_kana": "タガワグンオオトウマチ",
    "town": "大行事",
    "town_kana": "ダイギョウジ",
    "street": null,
    "office_name": null,
    "office_name_kana": null
  },
  "0600": {
    "postcode": "8240600",
    "prefecture": "福岡県",
    "prefecture_kana": "フクオカケン",
    "prefecture_code": 40,
    "city": "田川郡添田町",
    "city_kana": "タガワグンソエダマチ",
    "town": "",
    "town_kana": "",
    "street": null,
    "office_name": null,
    "office_name_kana": null
  },
  "0601": {
    "postcode": "8240601",
    "prefecture": "福岡県",
    "prefecture_kana": "フクオカケン",
    "prefecture_code": 40,
    "city": "田川郡添田町",
    "city_kana": "タガワグンソエダマチ",
    "town": "庄",
    "town_kana": "ショウ",
    "street": null,
    "office_name": null,
    "office_name_kana": null
  },
  "0602": {
    "postcode": "8240602",
    "prefecture": "福岡県",
    "prefecture_kana": "フクオカケン",
    "prefecture_code": 40,
    "city": "田川郡添田町",
    "city_kana": "タガワグンソエダマチ",
    "town": "添田",
    "town_kana": "ソエダ",
    "street": null,
    "office_name": null,
    "office_name_kana": null
  },
  "0603": {
    "postcode": "8240603",
    "prefecture": "福岡県",
    "prefecture_kana": "フクオカケン",
    "prefecture_code": 40,
    "city": "田川郡添田町",
    "city_kana": "タガワグンソエダマチ",
    "town": "中元寺",
    "town_kana": "チュウガンジ",
    "street": null,
    "office_name": null,
    "office_name_kana": null
  },
  "0604": {
    "postcode": "8240604",
    "prefecture": "福岡県",
    "prefecture_kana": "フクオカケン",
    "prefecture_code": 40,
    "city": "田川郡添田町",
    "city_kana": "タガワグンソエダマチ",
    "town": "野田",
    "town_kana": "ノダ",
    "street": null,
    "office_name": null,
    "office_name_kana": null
  },
  "0721": {
    "postcode": "8240721",
    "prefecture": "福岡県",
    "prefecture_kana": "フクオカケン",
    "prefecture_code": 40,
    "city": "田川郡添田町",
    "city_kana": "タガワグンソエダマチ",
    "town": "英彦山",
    "town_kana": "ヒコサン",
    "street": null,
    "office_name": null,
    "office_name_kana": null
  },
  "0722": {
    "postcode": "8240722",
    "prefecture": "福岡県",
    "prefecture_kana": "フクオカケン",
    "prefecture_code": 40,
    "city": "田川郡添田町",
    "city_kana": "タガワグンソエダマチ",
    "town": "落合",
    "town_kana": "オチアイ",
    "street": null,
    "office_name": null,
    "office_name_kana": null
  },
  "0723": {
    "postcode": "8240723",
    "prefecture": "福岡県",
    "prefecture_kana": "フクオカケン",
    "prefecture_code": 40,
    "city": "田川郡添田町",
    "city_kana": "タガワグンソエダマチ",
    "town": "桝田",
    "town_kana": "マスダ",
    "street": null,
    "office_name": null,
    "office_name_kana": null
  },
  "0800": {
    "postcode": "8240800",
    "prefecture": "福岡県",
    "prefecture_kana": "フクオカケン",
    "prefecture_code": 40,
    "city": "京都郡みやこ町",
    "city_kana": "ミヤコグンミヤコマチ",
    "town": "",
    "town_kana": "",
    "street": null,
    "office_name": null,
    "office_name_kana": null
  },
  "0801": {
    "postcode": "8240801",
    "prefecture": "福岡県",
    "prefecture_kana": "フクオカケン",
    "prefecture_code": 40,
    "city": "京都郡みやこ町",
    "city_kana": "ミヤコグンミヤコマチ",
    "town": "勝山大久保",
    "town_kana": "カツヤマオオクボ",
    "street": null,
    "office_name": null,
    "office_name_kana": null
  },
  "0802": {
    "postcode": "8240802",
    "prefecture": "福岡県",
    "prefecture_kana": "フクオカケン",
    "prefecture_code": 40,
    "city": "京都郡みやこ町",
    "city_kana": "ミヤコグンミヤコマチ",
    "town": "勝山松田",
    "town_kana": "カツヤママツダ",
    "street": null,
    "office_name": null,
    "office_name_kana": null
  },
  "0811": {
    "postcode": "8240811",
    "prefecture": "福岡県",
    "prefecture_kana": "フクオカケン",
    "prefecture_code": 40,
    "city": "京都郡みやこ町",
    "city_kana": "ミヤコグンミヤコマチ",
    "town": "勝山箕田",
    "town_kana": "カツヤマミダ",
    "street": null,
    "office_name": null,
    "office_name_kana": null
  },
  "0812": {
    "postcode": "8240812",
    "prefecture": "福岡県",
    "prefecture_kana": "フクオカケン",
    "prefecture_code": 40,
    "city": "京都郡みやこ町",
    "city_kana": "ミヤコグンミヤコマチ",
    "town": "勝山長川",
    "town_kana": "カツヤマナガワ",
    "street": null,
    "office_name": null,
    "office_name_kana": null
  },
  "0813": {
    "postcode": "8240813",
    "prefecture": "福岡県",
    "prefecture_kana": "フクオカケン",
    "prefecture_code": 40,
    "city": "京都郡みやこ町",
    "city_kana": "ミヤコグンミヤコマチ",
    "town": "勝山宮原",
    "town_kana": "カツヤマミヤバル",
    "street": null,
    "office_name": null,
    "office_name_kana": null
  },
  "0814": {
    "postcode": "8240814",
    "prefecture": "福岡県",
    "prefecture_kana": "フクオカケン",
    "prefecture_code": 40,
    "city": "京都郡みやこ町",
    "city_kana": "ミヤコグンミヤコマチ",
    "town": "勝山浦河内",
    "town_kana": "カツヤマウラガワチ",
    "street": null,
    "office_name": null,
    "office_name_kana": null
  },
  "0815": {
    "postcode": "8240815",
    "prefecture": "福岡県",
    "prefecture_kana": "フクオカケン",
    "prefecture_code": 40,
    "city": "京都郡みやこ町",
    "city_kana": "ミヤコグンミヤコマチ",
    "town": "勝山上矢山",
    "town_kana": "カツヤマカミヤヤマ",
    "street": null,
    "office_name": null,
    "office_name_kana": null
  },
  "0816": {
    "postcode": "8240816",
    "prefecture": "福岡県",
    "prefecture_kana": "フクオカケン",
    "prefecture_code": 40,
    "city": "京都郡みやこ町",
    "city_kana": "ミヤコグンミヤコマチ",
    "town": "勝山矢山",
    "town_kana": "カツヤマヤヤマ",
    "street": null,
    "office_name": null,
    "office_name_kana": null
  },
  "0817": {
    "postcode": "8240817",
    "prefecture": "福岡県",
    "prefecture_kana": "フクオカケン",
    "prefecture_code": 40,
    "city": "京都郡みやこ町",
    "city_kana": "ミヤコグンミヤコマチ",
    "town": "勝山岩熊",
    "town_kana": "カツヤマイワグマ",
    "street": null,
    "office_name": null,
    "office_name_kana": null
  },
  "0818": {
    "postcode": "8240818",
    "prefecture": "福岡県",
    "prefecture_kana": "フクオカケン",
    "prefecture_code": 40,
    "city": "京都郡みやこ町",
    "city_kana": "ミヤコグンミヤコマチ",
    "town": "勝山池田",
    "town_kana": "カツヤマイケダ",
    "street": null,
    "office_name": null,
    "office_name_kana": null
  },
  "0821": {
    "postcode": "8240821",
    "prefecture": "福岡県",
    "prefecture_kana": "フクオカケン",
    "prefecture_code": 40,
    "city": "京都郡みやこ町",
    "city_kana": "ミヤコグンミヤコマチ",
    "town": "勝山上田",
    "town_kana": "カツヤマウエダ",
    "street": null,
    "office_name": null,
    "office_name_kana": null
  },
  "0822": {
    "postcode": "8240822",
    "prefecture": "福岡県",
    "prefecture_kana": "フクオカケン",
    "prefecture_code": 40,
    "city": "京都郡みやこ町",
    "city_kana": "ミヤコグンミヤコマチ",
    "town": "勝山黒田",
    "town_kana": "カツヤマクロダ",
    "street": null,
    "office_name": null,
    "office_name_kana": null
  },
  "0892": {
    "postcode": "8240892",
    "prefecture": "福岡県",
    "prefecture_kana": "フクオカケン",
    "prefecture_code": 40,
    "city": "京都郡みやこ町",
    "city_kana": "ミヤコグンミヤコマチ",
    "town": "勝山上田",
    "town_kana": "カツヤマウエダ",
    "street": "９６０",
    "office_name": "みやこ町役場",
    "office_name_kana": "ミヤコマチヤクバ"
  },
  "8510": {
    "postcode": "8248510",
    "prefecture": "福岡県",
    "prefecture_kana": "フクオカケン",
    "prefecture_code": 40,
    "city": "行橋市",
    "city_kana": "ユクハシシ",
    "town": "大字今井",
    "town_kana": null,
    "street": "１１８０番地",
    "office_name": "ＴＯＴＯハイリビング　株式会社　行橋工場",
    "office_name_kana": "ト-ト-ハイリビング カブシキガイシヤ ユクハシコウジヨウ"
  },
  "8511": {
    "postcode": "8248511",
    "prefecture": "福岡県",
    "prefecture_kana": "フクオカケン",
    "prefecture_code": 40,
    "city": "行橋市",
    "city_kana": "ユクハシシ",
    "town": "西宮市",
    "town_kana": "ニシミヤイチ",
    "street": "２丁目１３−１",
    "office_name": "株式会社　安川電機　行橋工場",
    "office_name_kana": "カブシキガイシヤ ヤスカワデンキ ユクハシコウジヨウ"
  },
  "8555": {
    "postcode": "8248555",
    "prefecture": "福岡県",
    "prefecture_kana": "フクオカケン",
    "prefecture_code": 40,
    "city": "行橋市",
    "city_kana": "ユクハシシ",
    "town": "大字稲童",
    "town_kana": null,
    "street": "字畠ヶ田８３７−１",
    "office_name": "ローム・アポロ　株式会社（行橋工場）",
    "office_name_kana": "ロ-ム・アポロ カブシキガイシヤ(ユクハシコウジヨウ)"
  },
  "8601": {
    "postcode": "8248601",
    "prefecture": "福岡県",
    "prefecture_kana": "フクオカケン",
    "prefecture_code": 40,
    "city": "行橋市",
    "city_kana": "ユクハシシ",
    "town": "中央",
    "town_kana": "チュウオウ",
    "street": "１丁目１−１（行橋郵便局私書箱第１２号）",
    "office_name": "行橋市役所",
    "office_name_kana": "ユクハシシヤクシヨ"
  },
  "8611": {
    "postcode": "8248611",
    "prefecture": "福岡県",
    "prefecture_kana": "フクオカケン",
    "prefecture_code": 40,
    "city": "行橋市",
    "city_kana": "ユクハシシ",
    "town": "門樋町",
    "town_kana": "モンピマチ",
    "street": "１−１（行橋郵便局私書箱第７号）",
    "office_name": "行橋税務署",
    "office_name_kana": "ユクハシゼイムシヨ"
  }
}