{
  "0000": {
    "postcode": "8340000",
    "prefecture": "福岡県",
    "prefecture_kana": "フクオカケン",
    "prefecture_code": 40,
    "city": "八女市",
    "city_kana": "ヤメシ",
    "town": "",
    "town_kana": "",
    "street": null,
    "office_name": null,
    "office_name_kana": null
  },
  "0001": {
    "postcode": "8340001",
    "prefecture": "福岡県",
    "prefecture_kana": "フクオカケン",
    "prefecture_code": 40,
    "city": "八女市",
    "city_kana": "ヤメシ",
    "town": "宅間田",
    "town_kana": "タクマダ",
    "street": null,
    "office_name": null,
    "office_name_kana": null
  },
  "0002": {
    "postcode": "8340002",
    "prefecture": "福岡県",
    "prefecture_kana": "フクオカケン",
    "prefecture_code": 40,
    "city": "八女市",
    "city_kana": "ヤメシ",
    "town": "黒土",
    "town_kana": "クロツチ",
    "street": null,
    "office_name": null,
    "office_name_kana": null
  },
  "0003": {
    "postcode": "8340003",
    "prefecture": "福岡県",
    "prefecture_kana": "フクオカケン",
    "prefecture_code": 40,
    "city": "八女市",
    "city_kana": "ヤメシ",
    "town": "平田",
    "town_kana": "ヒラタ",
    "street": null,
    "office_name": null,
    "office_name_kana": null
  },
  "0004": {
    "postcode": "8340004",
    "prefecture": "福岡県",
    "prefecture_kana": "フクオカケン",
    "prefecture_code": 40,
    "city": "八女市",
    "city_kana": "ヤメシ",
    "town": "納楚",
    "town_kana": "ノウソ",
    "street": null,
    "office_name": null,
    "office_name_kana": null
  },
  "0005": {
    "postcode": "8340005",
    "prefecture": "福岡県",
    "prefecture_kana": "フクオカケン",
    "prefecture_code": 40,
    "city": "八女市",
    "city_kana": "ヤメシ",
    "town": "大島",
    "town_kana": "オオジマ",
    "street": null,
    "office_name": null,
    "office_name_kana": null
  },
  "0006": {
    "postcode": "8340006",
    "prefecture": "福岡県",
    "prefecture_kana": "フクオカケン",
    "prefecture_code": 40,
    "city": "八女市",
    "city_kana": "ヤメシ",
    "town": "吉田",
    "town_kana": "ヨシダ",
    "street": null,
    "office_name": null,
    "office_name_kana": null
  },
  "0011": {
    "postcode": "8340011",
    "prefecture": "福岡県",
    "prefecture_kana": "フクオカケン",
    "prefecture_code": 40,
    "city": "八女市",
    "city_kana": "ヤメシ",
    "town": "長野",
    "town_kana": "ナガノ",
    "street": null,
    "office_name": null,
    "office_name_kana": null
  },
  "0012": {
    "postcode": "8340012",
    "prefecture": "福岡県",
    "prefecture_kana": "フクオカケン",
    "prefecture_code": 40,
    "city": "八女市",
    "city_kana": "ヤメシ",
    "town": "山内",
    "town_kana": "ヤマウチ",
    "street": null,
    "office_name": null,
    "office_name_kana": null
  },
  "0013": {
    "postcode": "8340013",
    "prefecture": "福岡県",
    "prefecture_kana": "フクオカケン",
    "prefecture_code": 40,
    "city": "八女市",
    "city_kana": "ヤメシ",
    "town": "大籠",
    "town_kana": "オオゴモリ",
    "street": null,
    "office_name": null,
    "office_name_kana": null
  },
  "0014": {
    "postcode": "8340014",
    "prefecture": "福岡県",
    "prefecture_kana": "フクオカケン",
    "prefecture_code": 40,
    "city": "八女市",
    "city_kana": "ヤメシ",
    "town": "忠見",
    "town_kana": "タダミ",
    "street": null,
    "office_name": null,
    "office_name_kana": null
  },
  "0015": {
    "postcode": "8340015",
    "prefecture": "福岡県",
    "prefecture_kana": "フクオカケン",
    "prefecture_code": 40,
    "city": "八女市",
    "city_kana": "ヤメシ",
    "town": "本",
    "town_kana": "ホン",
    "street": null,
    "office_name": null,
    "office_name_kana": null
  },
  "0016": {
    "postcode": "8340016",
    "prefecture": "福岡県",
    "prefecture_kana": "フクオカケン",
    "prefecture_code": 40,
    "city": "八女市",
    "city_kana": "ヤメシ",
    "town": "豊福",
    "town_kana": "トヨブク",
    "street": null,
    "office_name": null,
    "office_name_kana": null
  },
  "0021": {
    "postcode": "8340021",
    "prefecture": "福岡県",
    "prefecture_kana": "フクオカケン",
    "prefecture_code": 40,
    "city": "八女市",
    "city_kana": "ヤメシ",
    "town": "北田形",
    "town_kana": "キタタガタ",
    "street": null,
    "office_name": null,
    "office_name_kana": null
  },
  "0022": {
    "postcode": "8340022",
    "prefecture": "福岡県",
    "prefecture_kana": "フクオカケン",
    "prefecture_code": 40,
    "city": "八女市",
    "city_kana": "ヤメシ",
    "town": "柳島",
    "town_kana": "ヤナジマ",
    "street": null,
    "office_name": null,
    "office_name_kana": null
  },
  "0023": {
    "postcode": "8340023",
    "prefecture": "福岡県",
    "prefecture_kana": "フクオカケン",
    "prefecture_code": 40,
    "city": "八女市",
    "city_kana": "ヤメシ",
    "town": "馬場",
    "town_kana": "ババ",
    "street": null,
    "office_name": null,
    "office_name_kana": null
  },
  "0024": {
    "postcode": "8340024",
    "prefecture": "福岡県",
    "prefecture_kana": "フクオカケン",
    "prefecture_code": 40,
    "city": "八女市",
    "city_kana": "ヤメシ",
    "town": "津江",
    "town_kana": "ツノエ",
    "street": null,
    "office_name": null,
    "office_name_kana": null
  },
  "0025": {
    "postcode": "8340025",
    "prefecture": "福岡県",
    "prefecture_kana": "フクオカケン",
    "prefecture_code": 40,
    "city": "八女市",
    "city_kana": "ヤメシ",
    "town": "祈祷院",
    "town_kana": "キトウイン",
    "street": null,
    "office_name": null,
    "office_name_kana": null
  },
  "0026": {
    "postcode": "8340026",
    "prefecture": "福岡県",
    "prefecture_kana": "フクオカケン",
    "prefecture_code": 40,
    "city": "八女市",
    "city_kana": "ヤメシ",
    "town": "井延",
    "town_kana": "イノブ",
    "street": null,
    "office_name": null,
    "office_name_kana": null
  },
  "0031": {
    "postcode": "8340031",
    "prefecture": "福岡県",
    "prefecture_kana": "フクオカケン",
    "prefecture_code": 40,
    "city": "八女市",
    "city_kana": "ヤメシ",
    "town": "本町",
    "town_kana": "モトマチ",
    "street": null,
    "office_name": null,
    "office_name_kana": null
  },
  "0032": {
    "postcode": "8340032",
    "prefecture": "福岡県",
    "prefecture_kana": "フクオカケン",
    "prefecture_code": 40,
    "city": "八女市",
    "city_kana": "ヤメシ",
    "town": "宮野",
    "town_kana": "ミヤノ",
    "street": null,
    "office_name": null,
    "office_name_kana": null
  },
  "0033": {
    "postcode": "8340033",
    "prefecture": "福岡県",
    "prefecture_kana": "フクオカケン",
    "prefecture_code": 40,
    "city": "八女市",
    "city_kana": "ヤメシ",
    "town": "柳瀬",
    "town_kana": "ヤナゼ",
    "street": null,
    "office_name": null,
    "office_name_kana": null
  },
  "0034": {
    "postcode": "8340034",
    "prefecture": "福岡県",
    "prefecture_kana": "フクオカケン",
    "prefecture_code": 40,
    "city": "八女市",
    "city_kana": "ヤメシ",
    "town": "高塚",
    "town_kana": "タカツカ",
    "street": null,
    "office_name": null,
    "office_name_kana": null
  },
  "0041": {
    "postcode": "8340041",
    "prefecture": "福岡県",
    "prefecture_kana": "フクオカケン",
    "prefecture_code": 40,
    "city": "八女市",
    "city_kana": "ヤメシ",
    "town": "緒玉",
    "town_kana": "オダマ",
    "street": null,
    "office_name": null,
    "office_name_kana": null
  },
  "0042": {
    "postcode": "8340042",
    "prefecture": "福岡県",
    "prefecture_kana": "フクオカケン",
    "prefecture_code": 40,
    "city": "八女市",
    "city_kana": "ヤメシ",
    "town": "酒井田",
    "town_kana": "サカイダ",
    "street": null,
    "office_name": null,
    "office_name_kana": null
  },
  "0043": {
    "postcode": "8340043",
    "prefecture": "福岡県",
    "prefecture_kana": "フクオカケン",
    "prefecture_code": 40,
    "city": "八女市",
    "city_kana": "ヤメシ",
    "town": "光",
    "town_kana": "ヒカリ",
    "street": null,
    "office_name": null,
    "office_name_kana": null
  },
  "0044": {
    "postcode": "8340044",
    "prefecture": "福岡県",
    "prefecture_kana": "フクオカケン",
    "prefecture_code": 40,
    "city": "八女市",
    "city_kana": "ヤメシ",
    "town": "矢原",
    "town_kana": "ヤバラ",
    "street": null,
    "office_name": null,
    "office_name_kana": null
  },
  "0045": {
    "postcode": "8340045",
    "prefecture": "福岡県",
    "prefecture_kana": "フクオカケン",
    "prefecture_code": 40,
    "city": "八女市",
    "city_kana": "ヤメシ",
    "town": "平",
    "town_kana": "タイラ",
    "street": null,
    "office_name": null,
    "office_name_kana": null
  },
  "0046": {
    "postcode": "8340046",
    "prefecture": "福岡県",
    "prefecture_kana": "フクオカケン",
    "prefecture_code": 40,
    "city": "八女市",
    "city_kana": "ヤメシ",
    "town": "国武",
    "town_kana": "クニタケ",
    "street": null,
    "office_name": null,
    "office_name_kana": null
  },
  "0047": {
    "postcode": "8340047",
    "prefecture": "福岡県",
    "prefecture_kana": "フクオカケン",
    "prefecture_code": 40,
    "city": "八女市",
    "city_kana": "ヤメシ",
    "town": "稲富",
    "town_kana": "イナドミ",
    "street": null,
    "office_name": null,
    "office_name_kana": null
  },
  "0051": {
    "postcode": "8340051",
    "prefecture": "福岡県",
    "prefecture_kana": "フクオカケン",
    "prefecture_code": 40,
    "city": "八女市",
    "city_kana": "ヤメシ",
    "town": "立野",
    "town_kana": "タテノ",
    "street": null,
    "office_name": null,
    "office_name_kana": null
  },
  "0052": {
    "postcode": "8340052",
    "prefecture": "福岡県",
    "prefecture_kana": "フクオカケン",
    "prefecture_code": 40,
    "city": "八女市",
    "city_kana": "ヤメシ",
    "town": "新庄",
    "town_kana": "シンジョウ",
    "street": null,
    "office_name": null,
    "office_name_kana": null
  },
  "0053": {
    "postcode": "8340053",
    "prefecture": "福岡県",
    "prefecture_kana": "フクオカケン",
    "prefecture_code": 40,
    "city": "八女市",
    "city_kana": "ヤメシ",
    "town": "川犬",
    "town_kana": "カワイヌ",
    "street": null,
    "office_name": null,
    "office_name_kana": null
  },
  "0054": {
    "postcode": "8340054",
    "prefecture": "福岡県",
    "prefecture_kana": "フクオカケン",
    "prefecture_code": 40,
    "city": "八女市",
    "city_kana": "ヤメシ",
    "town": "前古賀",
    "town_kana": "マエコガ",
    "street": null,
    "office_name": null,
    "office_name_kana": null
  },
  "0055": {
    "postcode": "8340055",
    "prefecture": "福岡県",
    "prefecture_kana": "フクオカケン",
    "prefecture_code": 40,
    "city": "八女市",
    "city_kana": "ヤメシ",
    "town": "鵜池",
    "town_kana": "ウノイケ",
    "street": null,
    "office_name": null,
    "office_name_kana": null
  },
  "0061": {
    "postcode": "8340061",
    "prefecture": "福岡県",
    "prefecture_kana": "フクオカケン",
    "prefecture_code": 40,
    "city": "八女市",
    "city_kana": "ヤメシ",
    "town": "今福",
    "town_kana": "イマブク",
    "street": null,
    "office_name": null,
    "office_name_kana": null
  },
  "0062": {
    "postcode": "8340062",
    "prefecture": "福岡県",
    "prefecture_kana": "フクオカケン",
    "prefecture_code": 40,
    "city": "八女市",
    "city_kana": "ヤメシ",
    "town": "岩崎",
    "town_kana": "イワサキ",
    "street": null,
    "office_name": null,
    "office_name_kana": null
  },
  "0063": {
    "postcode": "8340063",
    "prefecture": "福岡県",
    "prefecture_kana": "フクオカケン",
    "prefecture_code": 40,
    "city": "八女市",
    "city_kana": "ヤメシ",
    "town": "本村",
    "town_kana": "モトムラ",
    "street": null,
    "office_name": null,
    "office_name_kana": null
  },
  "0064": {
    "postcode": "8340064",
    "prefecture": "福岡県",
    "prefecture_kana": "フクオカケン",
    "prefecture_code": 40,
    "city": "八女市",
    "city_kana": "ヤメシ",
    "town": "蒲原",
    "town_kana": "カマハラ",
    "street": null,
    "office_name": null,
    "office_name_kana": null
  },
  "0065": {
    "postcode": "8340065",
    "prefecture": "福岡県",
    "prefecture_kana": "フクオカケン",
    "prefecture_code": 40,
    "city": "八女市",
    "city_kana": "ヤメシ",
    "town": "亀甲",
    "town_kana": "カメノコウ",
    "street": null,
    "office_name": null,
    "office_name_kana": null
  },
  "0066": {
    "postcode": "8340066",
    "prefecture": "福岡県",
    "prefecture_kana": "フクオカケン",
    "prefecture_code": 40,
    "city": "八女市",
    "city_kana": "ヤメシ",
    "town": "室岡",
    "town_kana": "ムロオカ",
    "street": null,
    "office_name": null,
    "office_name_kana": null
  },
  "0067": {
    "postcode": "8340067",
    "prefecture": "福岡県",
    "prefecture_kana": "フクオカケン",
    "prefecture_code": 40,
    "city": "八女市",
    "city_kana": "ヤメシ",
    "town": "龍ケ原",
    "town_kana": "タツガハラ",
    "street": null,
    "office_name": null,
    "office_name_kana": null
  },
  "0071": {
    "postcode": "8340071",
    "prefecture": "福岡県",
    "prefecture_kana": "フクオカケン",
    "prefecture_code": 40,
    "city": "八女市",
    "city_kana": "ヤメシ",
    "town": "立花町田形",
    "town_kana": "タチバナマチタガタ",
    "street": null,
    "office_name": null,
    "office_name_kana": null
  },
  "0072": {
    "postcode": "8340072",
    "prefecture": "福岡県",
    "prefecture_kana": "フクオカケン",
    "prefecture_code": 40,
    "city": "八女市",
    "city_kana": "ヤメシ",
    "town": "立花町遠久谷",
    "town_kana": "タチバナマチトオクダニ",
    "street": null,
    "office_name": null,
    "office_name_kana": null
  },
  "0073": {
    "postcode": "8340073",
    "prefecture": "福岡県",
    "prefecture_kana": "フクオカケン",
    "prefecture_code": 40,
    "city": "八女市",
    "city_kana": "ヤメシ",
    "town": "立花町下辺春",
    "town_kana": "タチバナマチシモヘバル",
    "street": null,
    "office_name": null,
    "office_name_kana": null
  },
  "0074": {
    "postcode": "8340074",
    "prefecture": "福岡県",
    "prefecture_kana": "フクオカケン",
    "prefecture_code": 40,
    "city": "八女市",
    "city_kana": "ヤメシ",
    "town": "立花町谷川",
    "town_kana": "タチバナマチタニガワ",
    "street": null,
    "office_name": null,
    "office_name_kana": null
  },
  "0075": {
    "postcode": "8340075",
    "prefecture": "福岡県",
    "prefecture_kana": "フクオカケン",
    "prefecture_code": 40,
    "city": "八女市",
    "city_kana": "ヤメシ",
    "town": "立花町原島",
    "town_kana": "タチバナマチハルジマ",
    "street": null,
    "office_name": null,
    "office_name_kana": null
  },
  "0081": {
    "postcode": "8340081",
    "prefecture": "福岡県",
    "prefecture_kana": "フクオカケン",
    "prefecture_code": 40,
    "city": "八女市",
    "city_kana": "ヤメシ",
    "town": "立花町山崎",
    "town_kana": "タチバナマチヤマサキ",
    "street": null,
    "office_name": null,
    "office_name_kana": null
  },
  "0082": {
    "postcode": "8340082",
    "prefecture": "福岡県",
    "prefecture_kana": "フクオカケン",
    "prefecture_code": 40,
    "city": "八女市",
    "city_kana": "ヤメシ",
    "town": "立花町兼松",
    "town_kana": "タチバナマチカネマツ",
    "street": null,
    "office_name": null,
    "office_name_kana": null
  },
  "0083": {
    "postcode": "8340083",
    "prefecture": "福岡県",
    "prefecture_kana": "フクオカケン",
    "prefecture_code": 40,
    "city": "八女市",
    "city_kana": "ヤメシ",
    "town": "立花町上辺春",
    "town_kana": "タチバナマチカミヘバル",
    "street": null,
    "office_name": null,
    "office_name_kana": null
  },
  "0084": {
    "postcode": "8340084",
    "prefecture": "福岡県",
    "prefecture_kana": "フクオカケン",
    "prefecture_code": 40,
    "city": "八女市",
    "city_kana": "ヤメシ",
    "town": "立花町白木",
    "town_kana": "タチバナマチシラキ",
    "street": null,
    "office_name": null,
    "office_name_kana": null
  },
  "0085": {
    "postcode": "8340085",
    "prefecture": "福岡県",
    "prefecture_kana": "フクオカケン",
    "prefecture_code": 40,
    "city": "八女市",
    "city_kana": "ヤメシ",
    "town": "立花町北山",
    "town_kana": "タチバナマチキタヤマ",
    "street": null,
    "office_name": null,
    "office_name_kana": null
  },
  "0100": {
    "postcode": "8340100",
    "prefecture": "福岡県",
    "prefecture_kana": "フクオカケン",
    "prefecture_code": 40,
    "city": "八女郡広川町",
    "city_kana": "ヤメグンヒロカワマチ",
    "town": "",
    "town_kana": "",
    "street": null,
    "office_name": null,
    "office_name_kana": null
  },
  "0101": {
    "postcode": "8340101",
    "prefecture": "福岡県",
    "prefecture_kana": "フクオカケン",
    "prefecture_code": 40,
    "city": "八女郡広川町",
    "city_kana": "ヤメグンヒロカワマチ",
    "town": "小椎尾",
    "town_kana": "コジオ",
    "street": null,
    "office_name": null,
    "office_name_kana": null
  },
  "0102": {
    "postcode": "8340102",
    "prefecture": "福岡県",
    "prefecture_kana": "フクオカケン",
    "prefecture_code": 40,
    "city": "八女郡広川町",
    "city_kana": "ヤメグンヒロカワマチ",
    "town": "水原",
    "town_kana": "ミズハラ",
    "street": null,
    "office_name": null,
    "office_name_kana": null
  },
  "0103": {
    "postcode": "8340103",
    "prefecture": "福岡県",
    "prefecture_kana": "フクオカケン",
    "prefecture_code": 40,
    "city": "八女郡広川町",
    "city_kana": "ヤメグンヒロカワマチ",
    "town": "六田",
    "town_kana": "ロクタ",
    "street": null,
    "office_name": null,
    "office_name_kana": null
  },
  "0104": {
    "postcode": "8340104",
    "prefecture": "福岡県",
    "prefecture_kana": "フクオカケン",
    "prefecture_code": 40,
    "city": "八女郡広川町",
    "city_kana": "ヤメグンヒロカワマチ",
    "town": "吉常",
    "town_kana": "ヨシツネ",
    "street": null,
    "office_name": null,
    "office_name_kana": null
  },
  "0105": {
    "postcode": "8340105",
    "prefecture": "福岡県",
    "prefecture_kana": "フクオカケン",
    "prefecture_code": 40,
    "city": "八女郡広川町",
    "city_kana": "ヤメグンヒロカワマチ",
    "town": "長延",
    "town_kana": "ナガノブ",
    "street": null,
    "office_name": null,
    "office_name_kana": null
  },
  "0111": {
    "postcode": "8340111",
    "prefecture": "福岡県",
    "prefecture_kana": "フクオカケン",
    "prefecture_code": 40,
    "city": "八女郡広川町",
    "city_kana": "ヤメグンヒロカワマチ",
    "town": "日吉",
    "town_kana": "ヒヨシ",
    "street": null,
    "office_name": null,
    "office_name_kana": null
  },
  "0112": {
    "postcode": "8340112",
    "prefecture": "福岡県",
    "prefecture_kana": "フクオカケン",
    "prefecture_code": 40,
    "city": "八女郡広川町",
    "city_kana": "ヤメグンヒロカワマチ",
    "town": "久泉",
    "town_kana": "ヒサイズミ",
    "street": null,
    "office_name": null,
    "office_name_kana": null
  },
  "0113": {
    "postcode": "8340113",
    "prefecture": "福岡県",
    "prefecture_kana": "フクオカケン",
    "prefecture_code": 40,
    "city": "八女郡広川町",
    "city_kana": "ヤメグンヒロカワマチ",
    "town": "川上",
    "town_kana": "カワカミ",
    "street": null,
    "office_name": null,
    "office_name_kana": null
  },
  "0114": {
    "postcode": "8340114",
    "prefecture": "福岡県",
    "prefecture_kana": "フクオカケン",
    "prefecture_code": 40,
    "city": "八女郡広川町",
    "city_kana": "ヤメグンヒロカワマチ",
    "town": "太田",
    "town_kana": "オオタ",
    "street": null,
    "office_name": null,
    "office_name_kana": null
  },
  "0115": {
    "postcode": "8340115",
    "prefecture": "福岡県",
    "prefecture_kana": "フクオカケン",
    "prefecture_code": 40,
    "city": "八女郡広川町",
    "city_kana": "ヤメグンヒロカワマチ",
    "town": "新代",
    "town_kana": "ニイシロ",
    "street": null,
    "office_name": null,
    "office_name_kana": null
  },
  "0121": {
    "postcode": "8340121",
    "prefecture": "福岡県",
    "prefecture_kana": "フクオカケン",
    "prefecture_code": 40,
    "city": "八女郡広川町",
    "city_kana": "ヤメグンヒロカワマチ",
    "town": "広川",
    "town_kana": "ヒロカワ",
    "street": null,
    "office_name": null,
    "office_name_kana": null
  },
  "0122": {
    "postcode": "8340122",
    "prefecture": "福岡県",
    "prefecture_kana": "フクオカケン",
    "prefecture_code": 40,
    "city": "八女郡広川町",
    "city_kana": "ヤメグンヒロカワマチ",
    "town": "一條",
    "town_kana": "イチジョウ",
    "street": null,
    "office_name": null,
    "office_name_kana": null
  },
  "0123": {
    "postcode": "8340123",
    "prefecture": "福岡県",
    "prefecture_kana": "フクオカケン",
    "prefecture_code": 40,
    "city": "八女郡広川町",
    "city_kana": "ヤメグンヒロカワマチ",
    "town": "藤田",
    "town_kana": "フジタ",
    "street": null,
    "office_name": null,
    "office_name_kana": null
  },
  "0192": {
    "postcode": "8340192",
    "prefecture": "福岡県",
    "prefecture_kana": "フクオカケン",
    "prefecture_code": 40,
    "city": "八女郡広川町",
    "city_kana": "ヤメグンヒロカワマチ",
    "town": "大字新代",
    "town_kana": null,
    "street": "１３３２−１５",
    "office_name": "日之出紙器工業　株式会社",
    "office_name_kana": "ヒノデシキコウギヨウ カブシキカイシヤ"
  },
  "0193": {
    "postcode": "8340193",
    "prefecture": "福岡県",
    "prefecture_kana": "フクオカケン",
    "prefecture_code": 40,
    "city": "八女郡広川町",
    "city_kana": "ヤメグンヒロカワマチ",
    "town": "大字新代",
    "town_kana": null,
    "street": "１７８７−５",
    "office_name": "福岡八女農協　中広川支所",
    "office_name_kana": "フクオカヤメノウキヨウ ナカヒロカワシシヨ"
  },
  "0194": {
    "postcode": "8340194",
    "prefecture": "福岡県",
    "prefecture_kana": "フクオカケン",
    "prefecture_code": 40,
    "city": "八女郡広川町",
    "city_kana": "ヤメグンヒロカワマチ",
    "town": "大字日吉",
    "town_kana": null,
    "street": "１１６４−３８",
    "office_name": "マル厨工業　株式会社",
    "office_name_kana": "マルチユウコウギヨウ カブシキガイシヤ"
  },
  "0195": {
    "postcode": "8340195",
    "prefecture": "福岡県",
    "prefecture_kana": "フクオカケン",
    "prefecture_code": 40,
    "city": "八女郡広川町",
    "city_kana": "ヤメグンヒロカワマチ",
    "town": "大字日吉",
    "town_kana": null,
    "street": "５４８−２２",
    "office_name": "株式会社　オーレック",
    "office_name_kana": "カブシキガイシヤ オ-レツク"
  },
  "0196": {
    "postcode": "8340196",
    "prefecture": "福岡県",
    "prefecture_kana": "フクオカケン",
    "prefecture_code": 40,
    "city": "八女郡広川町",
    "city_kana": "ヤメグンヒロカワマチ",
    "town": "大字日吉",
    "town_kana": null,
    "street": "１１６４−４",
    "office_name": "株式会社　中島田鉄工所",
    "office_name_kana": "カブシキガイシヤ ナカシマダテツコウシヨ"
  },
  "0198": {
    "postcode": "8340198",
    "prefecture": "福岡県",
    "prefecture_kana": "フクオカケン",
    "prefecture_code": 40,
    "city": "八女郡広川町",
    "city_kana": "ヤメグンヒロカワマチ",
    "town": "大字日吉",
    "town_kana": null,
    "street": "５４８−２５",
    "office_name": "久留米印刷　株式会社",
    "office_name_kana": "クルメインサツ カブシキガイシヤ"
  },
  "0201": {
    "postcode": "8340201",
    "prefecture": "福岡県",
    "prefecture_kana": "フクオカケン",
    "prefecture_code": 40,
    "city": "八女市",
    "city_kana": "ヤメシ",
    "town": "星野村",
    "town_kana": "ホシノムラ",
    "street": null,
    "office_name": null,
    "office_name_kana": null
  },
  "0292": {
    "postcode": "8340292",
    "prefecture": "福岡県",
    "prefecture_kana": "フクオカケン",
    "prefecture_code": 40,
    "city": "八女市",
    "city_kana": "ヤメシ",
    "town": "星野村",
    "town_kana": "ホシノムラ",
    "street": "１３１０２−１（星野郵便局私書箱第３号）",
    "office_name": "八女市　星野支所",
    "office_name_kana": "ヤメシ ホシノシシヨ"
  },
  "1101": {
    "postcode": "8341101",
    "prefecture": "福岡県",
    "prefecture_kana": "フクオカケン",
    "prefecture_code": 40,
    "city": "八女市",
    "city_kana": "ヤメシ",
    "town": "上陽町上横山",
    "town_kana": "ジョウヨウマチカミヨコヤマ",
    "street": null,
    "office_name": null,
    "office_name_kana": null
  },
  "1102": {
    "postcode": "8341102",
    "prefecture": "福岡県",
    "prefecture_kana": "フクオカケン",
    "prefecture_code": 40,
    "city": "八女市",
    "city_kana": "ヤメシ",
    "town": "上陽町北川内",
    "town_kana": "ジョウヨウマチキタカワウチ",
    "street": null,
    "office_name": null,
    "office_name_kana": null
  },
  "1103": {
    "postcode": "8341103",
    "prefecture": "福岡県",
    "prefecture_kana": "フクオカケン",
    "prefecture_code": 40,
    "city": "八女市",
    "city_kana": "ヤメシ",
    "town": "上陽町久木原",
    "town_kana": "ジョウヨウマチクキハラ",
    "street": null,
    "office_name": null,
    "office_name_kana": null
  },
  "1104": {
    "postcode": "8341104",
    "prefecture": "福岡県",
    "prefecture_kana": "フクオカケン",
    "prefecture_code": 40,
    "city": "八女市",
    "city_kana": "ヤメシ",
    "town": "上陽町下横山",
    "town_kana": "ジョウヨウマチシモヨコヤマ",
    "street": null,
    "office_name": null,
    "office_name_kana": null
  },
  "1201": {
    "postcode": "8341201",
    "prefecture": "福岡県",
    "prefecture_kana": "フクオカケン",
    "prefecture_code": 40,
    "city": "八女市",
    "city_kana": "ヤメシ",
    "town": "黒木町北大淵",
    "town_kana": "クロギマチキタオオブチ",
    "street": null,
    "office_name": null,
    "office_name_kana": null
  },
  "1202": {
    "postcode": "8341202",
    "prefecture": "福岡県",
    "prefecture_kana": "フクオカケン",
    "prefecture_code": 40,
    "city": "八女市",
    "city_kana": "ヤメシ",
    "town": "黒木町大淵",
    "town_kana": "クロギマチオオブチ",
    "street": null,
    "office_name": null,
    "office_name_kana": null
  },
  "1203": {
    "postcode": "8341203",
    "prefecture": "福岡県",
    "prefecture_kana": "フクオカケン",
    "prefecture_code": 40,
    "city": "八女市",
    "city_kana": "ヤメシ",
    "town": "黒木町北木屋",
    "town_kana": "クロギマチキタゴヤ",
    "street": null,
    "office_name": null,
    "office_name_kana": null
  },
  "1204": {
    "postcode": "8341204",
    "prefecture": "福岡県",
    "prefecture_kana": "フクオカケン",
    "prefecture_code": 40,
    "city": "八女市",
    "city_kana": "ヤメシ",
    "town": "黒木町木屋",
    "town_kana": "クロギマチコヤ",
    "street": null,
    "office_name": null,
    "office_name_kana": null
  },
  "1205": {
    "postcode": "8341205",
    "prefecture": "福岡県",
    "prefecture_kana": "フクオカケン",
    "prefecture_code": 40,
    "city": "八女市",
    "city_kana": "ヤメシ",
    "town": "黒木町田代",
    "town_kana": "クロギマチタシロ",
    "street": null,
    "office_name": null,
    "office_name_kana": null
  },
  "1211": {
    "postcode": "8341211",
    "prefecture": "福岡県",
    "prefecture_kana": "フクオカケン",
    "prefecture_code": 40,
    "city": "八女市",
    "city_kana": "ヤメシ",
    "town": "黒木町土窪",
    "town_kana": "クロギマチツチクボ",
    "street": null,
    "office_name": null,
    "office_name_kana": null
  },
  "1212": {
    "postcode": "8341212",
    "prefecture": "福岡県",
    "prefecture_kana": "フクオカケン",
    "prefecture_code": 40,
    "city": "八女市",
    "city_kana": "ヤメシ",
    "town": "黒木町鹿子生",
    "town_kana": "クロギマチカコオ",
    "street": null,
    "office_name": null,
    "office_name_kana": null
  },
  "1213": {
    "postcode": "8341213",
    "prefecture": "福岡県",
    "prefecture_kana": "フクオカケン",
    "prefecture_code": 40,
    "city": "八女市",
    "city_kana": "ヤメシ",
    "town": "黒木町本分",
    "town_kana": "クロギマチホンブン",
    "street": null,
    "office_name": null,
    "office_name_kana": null
  },
  "1214": {
    "postcode": "8341214",
    "prefecture": "福岡県",
    "prefecture_kana": "フクオカケン",
    "prefecture_code": 40,
    "city": "八女市",
    "city_kana": "ヤメシ",
    "town": "黒木町田本",
    "town_kana": "クロギマチタモト",
    "street": null,
    "office_name": null,
    "office_name_kana": null
  },
  "1215": {
    "postcode": "8341215",
    "prefecture": "福岡県",
    "prefecture_kana": "フクオカケン",
    "prefecture_code": 40,
    "city": "八女市",
    "city_kana": "ヤメシ",
    "town": "黒木町湯辺田",
    "town_kana": "クロギマチユベタ",
    "street": null,
    "office_name": null,
    "office_name_kana": null
  },
  "1216": {
    "postcode": "8341216",
    "prefecture": "福岡県",
    "prefecture_kana": "フクオカケン",
    "prefecture_code": 40,
    "city": "八女市",
    "city_kana": "ヤメシ",
    "town": "黒木町桑原",
    "town_kana": "クロギマチクワハラ",
    "street": null,
    "office_name": null,
    "office_name_kana": null
  },
  "1217": {
    "postcode": "8341217",
    "prefecture": "福岡県",
    "prefecture_kana": "フクオカケン",
    "prefecture_code": 40,
    "city": "八女市",
    "city_kana": "ヤメシ",
    "town": "黒木町黒木",
    "town_kana": "クロギマチクロギ",
    "street": null,
    "office_name": null,
    "office_name_kana": null
  },
  "1221": {
    "postcode": "8341221",
    "prefecture": "福岡県",
    "prefecture_kana": "フクオカケン",
    "prefecture_code": 40,
    "city": "八女市",
    "city_kana": "ヤメシ",
    "town": "黒木町今",
    "town_kana": "クロギマチイマ",
    "street": null,
    "office_name": null,
    "office_name_kana": null
  },
  "1222": {
    "postcode": "8341222",
    "prefecture": "福岡県",
    "prefecture_kana": "フクオカケン",
    "prefecture_code": 40,
    "city": "八女市",
    "city_kana": "ヤメシ",
    "town": "黒木町笠原",
    "town_kana": "クロギマチカサハラ",
    "street": null,
    "office_name": null,
    "office_name_kana": null
  },
  "1292": {
    "postcode": "8341292",
    "prefecture": "福岡県",
    "prefecture_kana": "フクオカケン",
    "prefecture_code": 40,
    "city": "八女市",
    "city_kana": "ヤメシ",
    "town": "黒木町今",
    "town_kana": "クロギマチイマ",
    "street": "１３１４−１",
    "office_name": "八女市　黒木総合支所",
    "office_name_kana": "ヤメシ クロギソウゴウシシヨ"
  },
  "1401": {
    "postcode": "8341401",
    "prefecture": "福岡県",
    "prefecture_kana": "フクオカケン",
    "prefecture_code": 40,
    "city": "八女市",
    "city_kana": "ヤメシ",
    "town": "矢部村北矢部",
    "town_kana": "ヤベムラキタヤベ",
    "street": null,
    "office_name": null,
    "office_name_kana": null
  },
  "1402": {
    "postcode": "8341402",
    "prefecture": "福岡県",
    "prefecture_kana": "フクオカケン",
    "prefecture_code": 40,
    "city": "八女市",
    "city_kana": "ヤメシ",
    "town": "矢部村矢部",
    "town_kana": "ヤベムラヤベ",
    "street": null,
    "office_name": null,
    "office_name_kana": null
  },
  "1492": {
    "postcode": "8341492",
    "prefecture": "福岡県",
    "prefecture_kana": "フクオカケン",
    "prefecture_code": 40,
    "city": "八女市",
    "city_kana": "ヤメシ",
    "town": "矢部村北矢部",
    "town_kana": "ヤベムラキタヤベ",
    "street": "１０５２８",
    "office_name": "八女市　矢部支所",
    "office_name_kana": "ヤメシ ヤベシシヨ"
  },
  "8555": {
    "postcode": "8348555",
    "prefecture": "福岡県",
    "prefecture_kana": "フクオカケン",
    "prefecture_code": 40,
    "city": "八女市",
    "city_kana": "ヤメシ",
    "town": "立花町原島",
    "town_kana": "タチバナマチハルジマ",
    "street": "９５−１",
    "office_name": "八女市　立花支所",
    "office_name_kana": "ヤメシ タチバナシシヨ"
  },
  "8585": {
    "postcode": "8348585",
    "prefecture": "福岡県",
    "prefecture_kana": "フクオカケン",
    "prefecture_code": 40,
    "city": "八女市",
    "city_kana": "ヤメシ",
    "town": "大字本町",
    "town_kana": null,
    "street": "６４７",
    "office_name": "八女市役所",
    "office_name_kana": "ヤメシヤクシヨ"
  }
}