{
  "0000": {
    "postcode": "8350000",
    "prefecture": "福岡県",
    "prefecture_kana": "フクオカケン",
    "prefecture_code": 40,
    "city": "みやま市",
    "city_kana": "ミヤマシ",
    "town": "",
    "town_kana": "",
    "street": null,
    "office_name": null,
    "office_name_kana": null
  },
  "0001": {
    "postcode": "8350001",
    "prefecture": "福岡県",
    "prefecture_kana": "フクオカケン",
    "prefecture_code": 40,
    "city": "みやま市",
    "city_kana": "ミヤマシ",
    "town": "瀬高町廣瀬",
    "town_kana": "セタカマチヒロセ",
    "street": null,
    "office_name": null,
    "office_name_kana": null
  },
  "0002": {
    "postcode": "8350002",
    "prefecture": "福岡県",
    "prefecture_kana": "フクオカケン",
    "prefecture_code": 40,
    "city": "みやま市",
    "city_kana": "ミヤマシ",
    "town": "瀬高町小田",
    "town_kana": "セタカマチオダ",
    "street": null,
    "office_name": null,
    "office_name_kana": null
  },
  "0003": {
    "postcode": "8350003",
    "prefecture": "福岡県",
    "prefecture_kana": "フクオカケン",
    "prefecture_code": 40,
    "city": "みやま市",
    "city_kana": "ミヤマシ",
    "town": "瀬高町本吉",
    "town_kana": "セタカマチモトヨシ",
    "street": null,
    "office_name": null,
    "office_name_kana": null
  },
  "0004": {
    "postcode": "8350004",
    "prefecture": "福岡県",
    "prefecture_kana": "フクオカケン",
    "prefecture_code": 40,
    "city": "みやま市",
    "city_kana": "ミヤマシ",
    "town": "瀬高町山門",
    "town_kana": "セタカマチヤマト",
    "street": null,
    "office_name": null,
    "office_name_kana": null
  },
  "0005": {
    "postcode": "8350005",
    "prefecture": "福岡県",
    "prefecture_kana": "フクオカケン",
    "prefecture_code": 40,
    "city": "みやま市",
    "city_kana": "ミヤマシ",
    "town": "瀬高町大草",
    "town_kana": "セタカマチオオクサ",
    "street": null,
    "office_name": null,
    "office_name_kana": null
  },
  "0006": {
    "postcode": "8350006",
    "prefecture": "福岡県",
    "prefecture_kana": "フクオカケン",
    "prefecture_code": 40,
    "city": "みやま市",
    "city_kana": "ミヤマシ",
    "town": "瀬高町坂田",
    "town_kana": "セタカマチサカタ",
    "street": null,
    "office_name": null,
    "office_name_kana": null
  },
  "0007": {
    "postcode": "8350007",
    "prefecture": "福岡県",
    "prefecture_kana": "フクオカケン",
    "prefecture_code": 40,
    "city": "みやま市",
    "city_kana": "ミヤマシ",
    "town": "瀬高町長田",
    "town_kana": "セタカマチナガタ",
    "street": null,
    "office_name": null,
    "office_name_kana": null
  },
  "0011": {
    "postcode": "8350011",
    "prefecture": "福岡県",
    "prefecture_kana": "フクオカケン",
    "prefecture_code": 40,
    "city": "みやま市",
    "city_kana": "ミヤマシ",
    "town": "瀬高町松田",
    "town_kana": "セタカマチマツダ",
    "street": null,
    "office_name": null,
    "office_name_kana": null
  },
  "0012": {
    "postcode": "8350012",
    "prefecture": "福岡県",
    "prefecture_kana": "フクオカケン",
    "prefecture_code": 40,
    "city": "みやま市",
    "city_kana": "ミヤマシ",
    "town": "瀬高町大廣園",
    "town_kana": "セタカマチオオヒロゾノ",
    "street": null,
    "office_name": null,
    "office_name_kana": null
  },
  "0013": {
    "postcode": "8350013",
    "prefecture": "福岡県",
    "prefecture_kana": "フクオカケン",
    "prefecture_code": 40,
    "city": "みやま市",
    "city_kana": "ミヤマシ",
    "town": "瀬高町太神",
    "town_kana": "セタカマチオオガ",
    "street": null,
    "office_name": null,
    "office_name_kana": null
  },
  "0014": {
    "postcode": "8350014",
    "prefecture": "福岡県",
    "prefecture_kana": "フクオカケン",
    "prefecture_code": 40,
    "city": "みやま市",
    "city_kana": "ミヤマシ",
    "town": "瀬高町河内",
    "town_kana": "セタカマチカワチ",
    "street": null,
    "office_name": null,
    "office_name_kana": null
  },
  "0015": {
    "postcode": "8350015",
    "prefecture": "福岡県",
    "prefecture_kana": "フクオカケン",
    "prefecture_code": 40,
    "city": "みやま市",
    "city_kana": "ミヤマシ",
    "town": "瀬高町泰仙寺",
    "town_kana": "セタカマチタイセンジ",
    "street": null,
    "office_name": null,
    "office_name_kana": null
  },
  "0016": {
    "postcode": "8350016",
    "prefecture": "福岡県",
    "prefecture_kana": "フクオカケン",
    "prefecture_code": 40,
    "city": "みやま市",
    "city_kana": "ミヤマシ",
    "town": "瀬高町濱田",
    "town_kana": "セタカマチハマダ",
    "street": null,
    "office_name": null,
    "office_name_kana": null
  },
  "0017": {
    "postcode": "8350017",
    "prefecture": "福岡県",
    "prefecture_kana": "フクオカケン",
    "prefecture_code": 40,
    "city": "みやま市",
    "city_kana": "ミヤマシ",
    "town": "瀬高町東津留",
    "town_kana": "セタカマチヒガシツル",
    "street": null,
    "office_name": null,
    "office_name_kana": null
  },
  "0018": {
    "postcode": "8350018",
    "prefecture": "福岡県",
    "prefecture_kana": "フクオカケン",
    "prefecture_code": 40,
    "city": "みやま市",
    "city_kana": "ミヤマシ",
    "town": "瀬高町高柳",
    "town_kana": "セタカマチタカヤナギ",
    "street": null,
    "office_name": null,
    "office_name_kana": null
  },
  "0019": {
    "postcode": "8350019",
    "prefecture": "福岡県",
    "prefecture_kana": "フクオカケン",
    "prefecture_code": 40,
    "city": "みやま市",
    "city_kana": "ミヤマシ",
    "town": "瀬高町大江",
    "town_kana": "セタカマチオオエ",
    "street": null,
    "office_name": null,
    "office_name_kana": null
  },
  "0021": {
    "postcode": "8350021",
    "prefecture": "福岡県",
    "prefecture_kana": "フクオカケン",
    "prefecture_code": 40,
    "city": "みやま市",
    "city_kana": "ミヤマシ",
    "town": "瀬高町本郷",
    "town_kana": "セタカマチホンゴウ",
    "street": null,
    "office_name": null,
    "office_name_kana": null
  },
  "0022": {
    "postcode": "8350022",
    "prefecture": "福岡県",
    "prefecture_kana": "フクオカケン",
    "prefecture_code": 40,
    "city": "みやま市",
    "city_kana": "ミヤマシ",
    "town": "瀬高町文廣",
    "town_kana": "セタカマチアヤヒロ",
    "street": null,
    "office_name": null,
    "office_name_kana": null
  },
  "0023": {
    "postcode": "8350023",
    "prefecture": "福岡県",
    "prefecture_kana": "フクオカケン",
    "prefecture_code": 40,
    "city": "みやま市",
    "city_kana": "ミヤマシ",
    "town": "瀬高町小川",
    "town_kana": "セタカマチオガワ",
    "street": null,
    "office_name": null,
    "office_name_kana": null
  },
  "0024": {
    "postcode": "8350024",
    "prefecture": "福岡県",
    "prefecture_kana": "フクオカケン",
    "prefecture_code": 40,
    "city": "みやま市",
    "city_kana": "ミヤマシ",
    "town": "瀬高町下庄",
    "town_kana": "セタカマチシモノショウ",
    "street": null,
    "office_name": null,
    "office_name_kana": null
  },
  "0025": {
    "postcode": "8350025",
    "prefecture": "福岡県",
    "prefecture_kana": "フクオカケン",
    "prefecture_code": 40,
    "city": "みやま市",
    "city_kana": "ミヤマシ",
    "town": "瀬高町上庄",
    "town_kana": "セタカマチカミノショウ",
    "street": null,
    "office_name": null,
    "office_name_kana": null
  },
  "0101": {
    "postcode": "8350101",
    "prefecture": "福岡県",
    "prefecture_kana": "フクオカケン",
    "prefecture_code": 40,
    "city": "みやま市",
    "city_kana": "ミヤマシ",
    "town": "山川町立山",
    "town_kana": "ヤマカワマチタチヤマ",
    "street": null,
    "office_name": null,
    "office_name_kana": null
  },
  "0102": {
    "postcode": "8350102",
    "prefecture": "福岡県",
    "prefecture_kana": "フクオカケン",
    "prefecture_code": 40,
    "city": "みやま市",
    "city_kana": "ミヤマシ",
    "town": "山川町尾野",
    "town_kana": "ヤマカワマチオノ",
    "street": null,
    "office_name": null,
    "office_name_kana": null
  },
  "0103": {
    "postcode": "8350103",
    "prefecture": "福岡県",
    "prefecture_kana": "フクオカケン",
    "prefecture_code": 40,
    "city": "みやま市",
    "city_kana": "ミヤマシ",
    "town": "山川町清水",
    "town_kana": "ヤマカワマチシミズ",
    "street": null,
    "office_name": null,
    "office_name_kana": null
  },
  "0104": {
    "postcode": "8350104",
    "prefecture": "福岡県",
    "prefecture_kana": "フクオカケン",
    "prefecture_code": 40,
    "city": "みやま市",
    "city_kana": "ミヤマシ",
    "town": "山川町河原内",
    "town_kana": "ヤマカワマチカワハラウチ",
    "street": null,
    "office_name": null,
    "office_name_kana": null
  },
  "0111": {
    "postcode": "8350111",
    "prefecture": "福岡県",
    "prefecture_kana": "フクオカケン",
    "prefecture_code": 40,
    "city": "みやま市",
    "city_kana": "ミヤマシ",
    "town": "山川町真弓",
    "town_kana": "ヤマカワマチマユミ",
    "street": null,
    "office_name": null,
    "office_name_kana": null
  },
  "0112": {
    "postcode": "8350112",
    "prefecture": "福岡県",
    "prefecture_kana": "フクオカケン",
    "prefecture_code": 40,
    "city": "みやま市",
    "city_kana": "ミヤマシ",
    "town": "山川町北関",
    "town_kana": "ヤマカワマチキタノセキ",
    "street": null,
    "office_name": null,
    "office_name_kana": null
  },
  "0113": {
    "postcode": "8350113",
    "prefecture": "福岡県",
    "prefecture_kana": "フクオカケン",
    "prefecture_code": 40,
    "city": "みやま市",
    "city_kana": "ミヤマシ",
    "town": "山川町重冨",
    "town_kana": "ヤマカワマチシゲトミ",
    "street": null,
    "office_name": null,
    "office_name_kana": null
  },
  "0114": {
    "postcode": "8350114",
    "prefecture": "福岡県",
    "prefecture_kana": "フクオカケン",
    "prefecture_code": 40,
    "city": "みやま市",
    "city_kana": "ミヤマシ",
    "town": "山川町甲田",
    "town_kana": "ヤマカワマチコウダ",
    "street": null,
    "office_name": null,
    "office_name_kana": null
  },
  "0115": {
    "postcode": "8350115",
    "prefecture": "福岡県",
    "prefecture_kana": "フクオカケン",
    "prefecture_code": 40,
    "city": "みやま市",
    "city_kana": "ミヤマシ",
    "town": "山川町原町",
    "town_kana": "ヤマカワマチハラマチ",
    "street": null,
    "office_name": null,
    "office_name_kana": null
  },
  "0131": {
    "postcode": "8350131",
    "prefecture": "福岡県",
    "prefecture_kana": "フクオカケン",
    "prefecture_code": 40,
    "city": "みやま市",
    "city_kana": "ミヤマシ",
    "town": "高田町舞鶴",
    "town_kana": "タカタマチマイヅル",
    "street": null,
    "office_name": null,
    "office_name_kana": null
  },
  "0132": {
    "postcode": "8350132",
    "prefecture": "福岡県",
    "prefecture_kana": "フクオカケン",
    "prefecture_code": 40,
    "city": "みやま市",
    "city_kana": "ミヤマシ",
    "town": "高田町亀谷",
    "town_kana": "タカタマチカメタニ",
    "street": null,
    "office_name": null,
    "office_name_kana": null
  },
  "0133": {
    "postcode": "8350133",
    "prefecture": "福岡県",
    "prefecture_kana": "フクオカケン",
    "prefecture_code": 40,
    "city": "みやま市",
    "city_kana": "ミヤマシ",
    "town": "高田町田浦",
    "town_kana": "タカタマチタノウラ",
    "street": null,
    "office_name": null,
    "office_name_kana": null
  },
  "0134": {
    "postcode": "8350134",
    "prefecture": "福岡県",
    "prefecture_kana": "フクオカケン",
    "prefecture_code": 40,
    "city": "みやま市",
    "city_kana": "ミヤマシ",
    "town": "高田町飯江",
    "town_kana": "タカタマチハエ",
    "street": null,
    "office_name": null,
    "office_name_kana": null
  },
  "0135": {
    "postcode": "8350135",
    "prefecture": "福岡県",
    "prefecture_kana": "フクオカケン",
    "prefecture_code": 40,
    "city": "みやま市",
    "city_kana": "ミヤマシ",
    "town": "高田町竹飯",
    "town_kana": "タカタマチタケイ",
    "street": null,
    "office_name": null,
    "office_name_kana": null
  },
  "0136": {
    "postcode": "8350136",
    "prefecture": "福岡県",
    "prefecture_kana": "フクオカケン",
    "prefecture_code": 40,
    "city": "みやま市",
    "city_kana": "ミヤマシ",
    "town": "高田町海津",
    "town_kana": "タカタマチカイヅ",
    "street": null,
    "office_name": null,
    "office_name_kana": null
  },
  "0192": {
    "postcode": "8350192",
    "prefecture": "福岡県",
    "prefecture_kana": "フクオカケン",
    "prefecture_code": 40,
    "city": "みやま市",
    "city_kana": "ミヤマシ",
    "town": "山川町立山",
    "town_kana": "ヤマカワマチタチヤマ",
    "street": "１２７８",
    "office_name": "みやま市役所　山川支所",
    "office_name_kana": "ミヤマシヤクシヨ ヤマカワシシヨ"
  },
  "8501": {
    "postcode": "8358501",
    "prefecture": "福岡県",
    "prefecture_kana": "フクオカケン",
    "prefecture_code": 40,
    "city": "みやま市",
    "city_kana": "ミヤマシ",
    "town": "瀬高町下庄",
    "town_kana": "セタカマチシモノショウ",
    "street": "７７４−１",
    "office_name": "南筑後農業協同組合",
    "office_name_kana": "ミナミチクゴノウギヨウキヨウドウクミアイ"
  },
  "8601": {
    "postcode": "8358601",
    "prefecture": "福岡県",
    "prefecture_kana": "フクオカケン",
    "prefecture_code": 40,
    "city": "みやま市",
    "city_kana": "ミヤマシ",
    "town": "瀬高町小川",
    "town_kana": "セタカマチオガワ",
    "street": "５（瀬高郵便局私書箱第１０号）",
    "office_name": "みやま市役所",
    "office_name_kana": "ミヤマシヤクシヨ"
  }
}