{
  "0000": {
    "postcode": "8410000",
    "prefecture": "佐賀県",
    "prefecture_kana": "サガケン",
    "prefecture_code": 41,
    "city": "鳥栖市",
    "city_kana": "トスシ",
    "town": "",
    "town_kana": "",
    "street": null,
    "office_name": null,
    "office_name_kana": null
  },
  "0001": {
    "postcode": "8410001",
    "prefecture": "佐賀県",
    "prefecture_kana": "サガケン",
    "prefecture_code": 41,
    "city": "鳥栖市",
    "city_kana": "トスシ",
    "town": "今町",
    "town_kana": "イママチ",
    "street": null,
    "office_name": null,
    "office_name_kana": null
  },
  "0002": {
    "postcode": "8410002",
    "prefecture": "佐賀県",
    "prefecture_kana": "サガケン",
    "prefecture_code": 41,
    "city": "鳥栖市",
    "city_kana": "トスシ",
    "town": "柚比町",
    "town_kana": "ユビマチ",
    "street": null,
    "office_name": null,
    "office_name_kana": null
  },
  "0003": {
    "postcode": "8410003",
    "prefecture": "佐賀県",
    "prefecture_kana": "サガケン",
    "prefecture_code": 41,
    "city": "鳥栖市",
    "city_kana": "トスシ",
    "town": "加藤田町",
    "town_kana": "カトウダマチ",
    "street": null,
    "office_name": null,
    "office_name_kana": null
  },
  "0004": {
    "postcode": "8410004",
    "prefecture": "佐賀県",
    "prefecture_kana": "サガケン",
    "prefecture_code": 41,
    "city": "鳥栖市",
    "city_kana": "トスシ",
    "town": "神辺町",
    "town_kana": "コウノエマチ",
    "street": null,
    "office_name": null,
    "office_name_kana": null
  },
  "0005": {
    "postcode": "8410005",
    "prefecture": "佐賀県",
    "prefecture_kana": "サガケン",
    "prefecture_code": 41,
    "city": "鳥栖市",
    "city_kana": "トスシ",
    "town": "弥生が丘",
    "town_kana": "ヤヨイガオカ",
    "street": null,
    "office_name": null,
    "office_name_kana": null
  },
  "0011": {
    "postcode": "8410011",
    "prefecture": "佐賀県",
    "prefecture_kana": "サガケン",
    "prefecture_code": 41,
    "city": "鳥栖市",
    "city_kana": "トスシ",
    "town": "永吉町",
    "town_kana": "ナガヨシマチ",
    "street": null,
    "office_name": null,
    "office_name_kana": null
  },
  "0012": {
    "postcode": "8410012",
    "prefecture": "佐賀県",
    "prefecture_kana": "サガケン",
    "prefecture_code": 41,
    "city": "鳥栖市",
    "city_kana": "トスシ",
    "town": "田代昌町",
    "town_kana": "タシロショウマチ",
    "street": null,
    "office_name": null,
    "office_name_kana": null
  },
  "0013": {
    "postcode": "8410013",
    "prefecture": "佐賀県",
    "prefecture_kana": "サガケン",
    "prefecture_code": 41,
    "city": "鳥栖市",
    "city_kana": "トスシ",
    "town": "田代新町",
    "town_kana": "タシロシンマチ",
    "street": null,
    "office_name": null,
    "office_name_kana": null
  },
  "0014": {
    "postcode": "8410014",
    "prefecture": "佐賀県",
    "prefecture_kana": "サガケン",
    "prefecture_code": 41,
    "city": "鳥栖市",
    "city_kana": "トスシ",
    "town": "桜町",
    "town_kana": "サクラマチ",
    "street": null,
    "office_name": null,
    "office_name_kana": null
  },
  "0015": {
    "postcode": "8410015",
    "prefecture": "佐賀県",
    "prefecture_kana": "サガケン",
    "prefecture_code": 41,
    "city": "鳥栖市",
    "city_kana": "トスシ",
    "town": "田代上町",
    "town_kana": "タシロカンマチ",
    "street": null,
    "office_name": null,
    "office_name_kana": null
  },
  "0016": {
    "postcode": "8410016",
    "prefecture": "佐賀県",
    "prefecture_kana": "サガケン",
    "prefecture_code": 41,
    "city": "鳥栖市",
    "city_kana": "トスシ",
    "town": "田代外町",
    "town_kana": "タシロホカマチ",
    "street": null,
    "office_name": null,
    "office_name_kana": null
  },
  "0017": {
    "postcode": "8410017",
    "prefecture": "佐賀県",
    "prefecture_kana": "サガケン",
    "prefecture_code": 41,
    "city": "鳥栖市",
    "city_kana": "トスシ",
    "town": "田代大官町",
    "town_kana": "タシロダイカンマチ",
    "street": null,
    "office_name": null,
    "office_name_kana": null
  },
  "0018": {
    "postcode": "8410018",
    "prefecture": "佐賀県",
    "prefecture_kana": "サガケン",
    "prefecture_code": 41,
    "city": "鳥栖市",
    "city_kana": "トスシ",
    "town": "田代本町",
    "town_kana": "タシロホンマチ",
    "street": null,
    "office_name": null,
    "office_name_kana": null
  },
  "0021": {
    "postcode": "8410021",
    "prefecture": "佐賀県",
    "prefecture_kana": "サガケン",
    "prefecture_code": 41,
    "city": "鳥栖市",
    "city_kana": "トスシ",
    "town": "幡崎町",
    "town_kana": "ハタザキマチ",
    "street": null,
    "office_name": null,
    "office_name_kana": null
  },
  "0022": {
    "postcode": "8410022",
    "prefecture": "佐賀県",
    "prefecture_kana": "サガケン",
    "prefecture_code": 41,
    "city": "鳥栖市",
    "city_kana": "トスシ",
    "town": "飯田町",
    "town_kana": "イイダマチ",
    "street": null,
    "office_name": null,
    "office_name_kana": null
  },
  "0023": {
    "postcode": "8410023",
    "prefecture": "佐賀県",
    "prefecture_kana": "サガケン",
    "prefecture_code": 41,
    "city": "鳥栖市",
    "city_kana": "トスシ",
    "town": "姫方町",
    "town_kana": "ヒメカタマチ",
    "street": null,
    "office_name": null,
    "office_name_kana": null
  },
  "0024": {
    "postcode": "8410024",
    "prefecture": "佐賀県",
    "prefecture_kana": "サガケン",
    "prefecture_code": 41,
    "city": "鳥栖市",
    "city_kana": "トスシ",
    "town": "原町",
    "town_kana": "ハルマチ",
    "street": null,
    "office_name": null,
    "office_name_kana": null
  },
  "0025": {
    "postcode": "8410025",
    "prefecture": "佐賀県",
    "prefecture_kana": "サガケン",
    "prefecture_code": 41,
    "city": "鳥栖市",
    "city_kana": "トスシ",
    "town": "曽根崎町",
    "town_kana": "ソネザキマチ",
    "street": null,
    "office_name": null,
    "office_name_kana": null
  },
  "0026": {
    "postcode": "8410026",
    "prefecture": "佐賀県",
    "prefecture_kana": "サガケン",
    "prefecture_code": 41,
    "city": "鳥栖市",
    "city_kana": "トスシ",
    "town": "本鳥栖町",
    "town_kana": "ホンドスマチ",
    "street": null,
    "office_name": null,
    "office_name_kana": null
  },
  "0027": {
    "postcode": "8410027",
    "prefecture": "佐賀県",
    "prefecture_kana": "サガケン",
    "prefecture_code": 41,
    "city": "鳥栖市",
    "city_kana": "トスシ",
    "town": "松原町",
    "town_kana": "マツバラマチ",
    "street": null,
    "office_name": null,
    "office_name_kana": null
  },
  "0031": {
    "postcode": "8410031",
    "prefecture": "佐賀県",
    "prefecture_kana": "サガケン",
    "prefecture_code": 41,
    "city": "鳥栖市",
    "city_kana": "トスシ",
    "town": "鎗田町",
    "town_kana": "ヤリタマチ",
    "street": null,
    "office_name": null,
    "office_name_kana": null
  },
  "0032": {
    "postcode": "8410032",
    "prefecture": "佐賀県",
    "prefecture_kana": "サガケン",
    "prefecture_code": 41,
    "city": "鳥栖市",
    "city_kana": "トスシ",
    "town": "大正町",
    "town_kana": "タイショウマチ",
    "street": null,
    "office_name": null,
    "office_name_kana": null
  },
  "0033": {
    "postcode": "8410033",
    "prefecture": "佐賀県",
    "prefecture_kana": "サガケン",
    "prefecture_code": 41,
    "city": "鳥栖市",
    "city_kana": "トスシ",
    "town": "本通町",
    "town_kana": "ホンドオリマチ",
    "street": null,
    "office_name": null,
    "office_name_kana": null
  },
  "0034": {
    "postcode": "8410034",
    "prefecture": "佐賀県",
    "prefecture_kana": "サガケン",
    "prefecture_code": 41,
    "city": "鳥栖市",
    "city_kana": "トスシ",
    "town": "京町",
    "town_kana": "キョウマチ",
    "street": null,
    "office_name": null,
    "office_name_kana": null
  },
  "0035": {
    "postcode": "8410035",
    "prefecture": "佐賀県",
    "prefecture_kana": "サガケン",
    "prefecture_code": 41,
    "city": "鳥栖市",
    "city_kana": "トスシ",
    "town": "東町",
    "town_kana": "ヒガシマチ",
    "street": null,
    "office_name": null,
    "office_name_kana": null
  },
  "0036": {
    "postcode": "8410036",
    "prefecture": "佐賀県",
    "prefecture_kana": "サガケン",
    "prefecture_code": 41,
    "city": "鳥栖市",
    "city_kana": "トスシ",
    "town": "秋葉町",
    "town_kana": "アキバマチ",
    "street": null,
    "office_name": null,
    "office_name_kana": null
  },
  "0037": {
    "postcode": "8410037",
    "prefecture": "佐賀県",
    "prefecture_kana": "サガケン",
    "prefecture_code": 41,
    "city": "鳥栖市",
    "city_kana": "トスシ",
    "town": "本町",
    "town_kana": "ホンマチ",
    "street": null,
    "office_name": null,
    "office_name_kana": null
  },
  "0038": {
    "postcode": "8410038",
    "prefecture": "佐賀県",
    "prefecture_kana": "サガケン",
    "prefecture_code": 41,
    "city": "鳥栖市",
    "city_kana": "トスシ",
    "town": "古野町",
    "town_kana": "フルノマチ",
    "street": null,
    "office_name": null,
    "office_name_kana": null
  },
  "0039": {
    "postcode": "8410039",
    "prefecture": "佐賀県",
    "prefecture_kana": "サガケン",
    "prefecture_code": 41,
    "city": "鳥栖市",
    "city_kana": "トスシ",
    "town": "土井町",
    "town_kana": "ドイマチ",
    "street": null,
    "office_name": null,
    "office_name_kana": null
  },
  "0041": {
    "postcode": "8410041",
    "prefecture": "佐賀県",
    "prefecture_kana": "サガケン",
    "prefecture_code": 41,
    "city": "鳥栖市",
    "city_kana": "トスシ",
    "town": "酒井東町",
    "town_kana": "サカイヒガシマチ",
    "street": null,
    "office_name": null,
    "office_name_kana": null
  },
  "0042": {
    "postcode": "8410042",
    "prefecture": "佐賀県",
    "prefecture_kana": "サガケン",
    "prefecture_code": 41,
    "city": "鳥栖市",
    "city_kana": "トスシ",
    "town": "酒井西町",
    "town_kana": "サカイニシマチ",
    "street": null,
    "office_name": null,
    "office_name_kana": null
  },
  "0043": {
    "postcode": "8410043",
    "prefecture": "佐賀県",
    "prefecture_kana": "サガケン",
    "prefecture_code": 41,
    "city": "鳥栖市",
    "city_kana": "トスシ",
    "town": "水屋町",
    "town_kana": "ミズヤマチ",
    "street": null,
    "office_name": null,
    "office_name_kana": null
  },
  "0044": {
    "postcode": "8410044",
    "prefecture": "佐賀県",
    "prefecture_kana": "サガケン",
    "prefecture_code": 41,
    "city": "鳥栖市",
    "city_kana": "トスシ",
    "town": "高田町",
    "town_kana": "タカタマチ",
    "street": null,
    "office_name": null,
    "office_name_kana": null
  },
  "0045": {
    "postcode": "8410045",
    "prefecture": "佐賀県",
    "prefecture_kana": "サガケン",
    "prefecture_code": 41,
    "city": "鳥栖市",
    "city_kana": "トスシ",
    "town": "安楽寺町",
    "town_kana": "アンラクジマチ",
    "street": null,
    "office_name": null,
    "office_name_kana": null
  },
  "0046": {
    "postcode": "8410046",
    "prefecture": "佐賀県",
    "prefecture_kana": "サガケン",
    "prefecture_code": 41,
    "city": "鳥栖市",
    "city_kana": "トスシ",
    "town": "真木町",
    "town_kana": "マキマチ",
    "street": null,
    "office_name": null,
    "office_name_kana": null
  },
  "0047": {
    "postcode": "8410047",
    "prefecture": "佐賀県",
    "prefecture_kana": "サガケン",
    "prefecture_code": 41,
    "city": "鳥栖市",
    "city_kana": "トスシ",
    "town": "今泉町",
    "town_kana": "イマイズミマチ",
    "street": null,
    "office_name": null,
    "office_name_kana": null
  },
  "0048": {
    "postcode": "8410048",
    "prefecture": "佐賀県",
    "prefecture_kana": "サガケン",
    "prefecture_code": 41,
    "city": "鳥栖市",
    "city_kana": "トスシ",
    "town": "藤木町",
    "town_kana": "フジノキマチ",
    "street": null,
    "office_name": null,
    "office_name_kana": null
  },
  "0051": {
    "postcode": "8410051",
    "prefecture": "佐賀県",
    "prefecture_kana": "サガケン",
    "prefecture_code": 41,
    "city": "鳥栖市",
    "city_kana": "トスシ",
    "town": "元町",
    "town_kana": "モトマチ",
    "street": null,
    "office_name": null,
    "office_name_kana": null
  },
  "0052": {
    "postcode": "8410052",
    "prefecture": "佐賀県",
    "prefecture_kana": "サガケン",
    "prefecture_code": 41,
    "city": "鳥栖市",
    "city_kana": "トスシ",
    "town": "宿町",
    "town_kana": "シュクマチ",
    "street": null,
    "office_name": null,
    "office_name_kana": null
  },
  "0053": {
    "postcode": "8410053",
    "prefecture": "佐賀県",
    "prefecture_kana": "サガケン",
    "prefecture_code": 41,
    "city": "鳥栖市",
    "city_kana": "トスシ",
    "town": "布津原町",
    "town_kana": "フツハラマチ",
    "street": null,
    "office_name": null,
    "office_name_kana": null
  },
  "0054": {
    "postcode": "8410054",
    "prefecture": "佐賀県",
    "prefecture_kana": "サガケン",
    "prefecture_code": 41,
    "city": "鳥栖市",
    "city_kana": "トスシ",
    "town": "蔵上町",
    "town_kana": "クラノウエマチ",
    "street": null,
    "office_name": null,
    "office_name_kana": null
  },
  "0055": {
    "postcode": "8410055",
    "prefecture": "佐賀県",
    "prefecture_kana": "サガケン",
    "prefecture_code": 41,
    "city": "鳥栖市",
    "city_kana": "トスシ",
    "town": "養父町",
    "town_kana": "ヤブマチ",
    "street": null,
    "office_name": null,
    "office_name_kana": null
  },
  "0056": {
    "postcode": "8410056",
    "prefecture": "佐賀県",
    "prefecture_kana": "サガケン",
    "prefecture_code": 41,
    "city": "鳥栖市",
    "city_kana": "トスシ",
    "town": "蔵上",
    "town_kana": "クラノウエ",
    "street": null,
    "office_name": null,
    "office_name_kana": null
  },
  "0061": {
    "postcode": "8410061",
    "prefecture": "佐賀県",
    "prefecture_kana": "サガケン",
    "prefecture_code": 41,
    "city": "鳥栖市",
    "city_kana": "トスシ",
    "town": "轟木町",
    "town_kana": "トドロキマチ",
    "street": null,
    "office_name": null,
    "office_name_kana": null
  },
  "0062": {
    "postcode": "8410062",
    "prefecture": "佐賀県",
    "prefecture_kana": "サガケン",
    "prefecture_code": 41,
    "city": "鳥栖市",
    "city_kana": "トスシ",
    "town": "幸津町",
    "town_kana": "サイツマチ",
    "street": null,
    "office_name": null,
    "office_name_kana": null
  },
  "0063": {
    "postcode": "8410063",
    "prefecture": "佐賀県",
    "prefecture_kana": "サガケン",
    "prefecture_code": 41,
    "city": "鳥栖市",
    "city_kana": "トスシ",
    "town": "下野町",
    "town_kana": "シモノマチ",
    "street": null,
    "office_name": null,
    "office_name_kana": null
  },
  "0064": {
    "postcode": "8410064",
    "prefecture": "佐賀県",
    "prefecture_kana": "サガケン",
    "prefecture_code": 41,
    "city": "鳥栖市",
    "city_kana": "トスシ",
    "town": "三島町",
    "town_kana": "ミシママチ",
    "street": null,
    "office_name": null,
    "office_name_kana": null
  },
  "0065": {
    "postcode": "8410065",
    "prefecture": "佐賀県",
    "prefecture_kana": "サガケン",
    "prefecture_code": 41,
    "city": "鳥栖市",
    "city_kana": "トスシ",
    "town": "前田町",
    "town_kana": "マエダマチ",
    "street": null,
    "office_name": null,
    "office_name_kana": null
  },
  "0066": {
    "postcode": "8410066",
    "prefecture": "佐賀県",
    "prefecture_kana": "サガケン",
    "prefecture_code": 41,
    "city": "鳥栖市",
    "city_kana": "トスシ",
    "town": "儀徳町",
    "town_kana": "ギトクマチ",
    "street": null,
    "office_name": null,
    "office_name_kana": null
  },
  "0067": {
    "postcode": "8410067",
    "prefecture": "佐賀県",
    "prefecture_kana": "サガケン",
    "prefecture_code": 41,
    "city": "鳥栖市",
    "city_kana": "トスシ",
    "town": "西田町",
    "town_kana": "ニシダマチ",
    "street": null,
    "office_name": null,
    "office_name_kana": null
  },
  "0068": {
    "postcode": "8410068",
    "prefecture": "佐賀県",
    "prefecture_kana": "サガケン",
    "prefecture_code": 41,
    "city": "鳥栖市",
    "city_kana": "トスシ",
    "town": "あさひ新町",
    "town_kana": "アサヒシンマチ",
    "street": null,
    "office_name": null,
    "office_name_kana": null
  },
  "0071": {
    "postcode": "8410071",
    "prefecture": "佐賀県",
    "prefecture_kana": "サガケン",
    "prefecture_code": 41,
    "city": "鳥栖市",
    "city_kana": "トスシ",
    "town": "原古賀町",
    "town_kana": "ハラコガマチ",
    "street": null,
    "office_name": null,
    "office_name_kana": null
  },
  "0072": {
    "postcode": "8410072",
    "prefecture": "佐賀県",
    "prefecture_kana": "サガケン",
    "prefecture_code": 41,
    "city": "鳥栖市",
    "city_kana": "トスシ",
    "town": "村田町",
    "town_kana": "ムラタマチ",
    "street": null,
    "office_name": null,
    "office_name_kana": null
  },
  "0073": {
    "postcode": "8410073",
    "prefecture": "佐賀県",
    "prefecture_kana": "サガケン",
    "prefecture_code": 41,
    "city": "鳥栖市",
    "city_kana": "トスシ",
    "town": "江島町",
    "town_kana": "エジママチ",
    "street": null,
    "office_name": null,
    "office_name_kana": null
  },
  "0074": {
    "postcode": "8410074",
    "prefecture": "佐賀県",
    "prefecture_kana": "サガケン",
    "prefecture_code": 41,
    "city": "鳥栖市",
    "city_kana": "トスシ",
    "town": "西新町",
    "town_kana": "ニシシンマチ",
    "street": null,
    "office_name": null,
    "office_name_kana": null
  },
  "0075": {
    "postcode": "8410075",
    "prefecture": "佐賀県",
    "prefecture_kana": "サガケン",
    "prefecture_code": 41,
    "city": "鳥栖市",
    "city_kana": "トスシ",
    "town": "立石町",
    "town_kana": "タテイシマチ",
    "street": null,
    "office_name": null,
    "office_name_kana": null
  },
  "0076": {
    "postcode": "8410076",
    "prefecture": "佐賀県",
    "prefecture_kana": "サガケン",
    "prefecture_code": 41,
    "city": "鳥栖市",
    "city_kana": "トスシ",
    "town": "平田町",
    "town_kana": "ヒラタマチ",
    "street": null,
    "office_name": null,
    "office_name_kana": null
  },
  "0081": {
    "postcode": "8410081",
    "prefecture": "佐賀県",
    "prefecture_kana": "サガケン",
    "prefecture_code": 41,
    "city": "鳥栖市",
    "city_kana": "トスシ",
    "town": "萱方町",
    "town_kana": "カヤカタマチ",
    "street": null,
    "office_name": null,
    "office_name_kana": null
  },
  "0082": {
    "postcode": "8410082",
    "prefecture": "佐賀県",
    "prefecture_kana": "サガケン",
    "prefecture_code": 41,
    "city": "鳥栖市",
    "city_kana": "トスシ",
    "town": "浅井町",
    "town_kana": "アサイマチ",
    "street": null,
    "office_name": null,
    "office_name_kana": null
  },
  "0083": {
    "postcode": "8410083",
    "prefecture": "佐賀県",
    "prefecture_kana": "サガケン",
    "prefecture_code": 41,
    "city": "鳥栖市",
    "city_kana": "トスシ",
    "town": "古賀町",
    "town_kana": "コガマチ",
    "street": null,
    "office_name": null,
    "office_name_kana": null
  },
  "0084": {
    "postcode": "8410084",
    "prefecture": "佐賀県",
    "prefecture_kana": "サガケン",
    "prefecture_code": 41,
    "city": "鳥栖市",
    "city_kana": "トスシ",
    "town": "山浦町",
    "town_kana": "ヤマウラマチ",
    "street": null,
    "office_name": null,
    "office_name_kana": null
  },
  "0085": {
    "postcode": "8410085",
    "prefecture": "佐賀県",
    "prefecture_kana": "サガケン",
    "prefecture_code": 41,
    "city": "鳥栖市",
    "city_kana": "トスシ",
    "town": "山都町",
    "town_kana": "ヤマトマチ",
    "street": null,
    "office_name": null,
    "office_name_kana": null
  },
  "0086": {
    "postcode": "8410086",
    "prefecture": "佐賀県",
    "prefecture_kana": "サガケン",
    "prefecture_code": 41,
    "city": "鳥栖市",
    "city_kana": "トスシ",
    "town": "牛原町",
    "town_kana": "ウシワラマチ",
    "street": null,
    "office_name": null,
    "office_name_kana": null
  },
  "0087": {
    "postcode": "8410087",
    "prefecture": "佐賀県",
    "prefecture_kana": "サガケン",
    "prefecture_code": 41,
    "city": "鳥栖市",
    "city_kana": "トスシ",
    "town": "河内町",
    "town_kana": "カワチマチ",
    "street": null,
    "office_name": null,
    "office_name_kana": null
  },
  "0088": {
    "postcode": "8410088",
    "prefecture": "佐賀県",
    "prefecture_kana": "サガケン",
    "prefecture_code": 41,
    "city": "鳥栖市",
    "city_kana": "トスシ",
    "town": "桜ケ丘町",
    "town_kana": "サクラガオカマチ",
    "street": null,
    "office_name": null,
    "office_name_kana": null
  },
  "0089": {
    "postcode": "8410089",
    "prefecture": "佐賀県",
    "prefecture_kana": "サガケン",
    "prefecture_code": 41,
    "city": "鳥栖市",
    "city_kana": "トスシ",
    "town": "虹ケ丘町",
    "town_kana": "ニジガオカマチ",
    "street": null,
    "office_name": null,
    "office_name_kana": null
  },
  "0200": {
    "postcode": "8410200",
    "prefecture": "佐賀県",
    "prefecture_kana": "サガケン",
    "prefecture_code": 41,
    "city": "三養基郡基山町",
    "city_kana": "ミヤキグンキヤマチョウ",
    "town": "",
    "town_kana": "",
    "street": null,
    "office_name": null,
    "office_name_kana": null
  },
  "0201": {
    "postcode": "8410201",
    "prefecture": "佐賀県",
    "prefecture_kana": "サガケン",
    "prefecture_code": 41,
    "city": "三養基郡基山町",
    "city_kana": "ミヤキグンキヤマチョウ",
    "town": "小倉",
    "town_kana": "コクラ",
    "street": null,
    "office_name": null,
    "office_name_kana": null
  },
  "0202": {
    "postcode": "8410202",
    "prefecture": "佐賀県",
    "prefecture_kana": "サガケン",
    "prefecture_code": 41,
    "city": "三養基郡基山町",
    "city_kana": "ミヤキグンキヤマチョウ",
    "town": "長野",
    "town_kana": "ナガノ",
    "street": null,
    "office_name": null,
    "office_name_kana": null
  },
  "0203": {
    "postcode": "8410203",
    "prefecture": "佐賀県",
    "prefecture_kana": "サガケン",
    "prefecture_code": 41,
    "city": "三養基郡基山町",
    "city_kana": "ミヤキグンキヤマチョウ",
    "town": "園部",
    "town_kana": "ソノベ",
    "street": null,
    "office_name": null,
    "office_name_kana": null
  },
  "0204": {
    "postcode": "8410204",
    "prefecture": "佐賀県",
    "prefecture_kana": "サガケン",
    "prefecture_code": 41,
    "city": "三養基郡基山町",
    "city_kana": "ミヤキグンキヤマチョウ",
    "town": "宮浦",
    "town_kana": "ミヤウラ",
    "street": null,
    "office_name": null,
    "office_name_kana": null
  },
  "0205": {
    "postcode": "8410205",
    "prefecture": "佐賀県",
    "prefecture_kana": "サガケン",
    "prefecture_code": 41,
    "city": "三養基郡基山町",
    "city_kana": "ミヤキグンキヤマチョウ",
    "town": "けやき台",
    "town_kana": "ケヤキダイ",
    "street": null,
    "office_name": null,
    "office_name_kana": null
  },
  "8501": {
    "postcode": "8418501",
    "prefecture": "佐賀県",
    "prefecture_kana": "サガケン",
    "prefecture_code": 41,
    "city": "鳥栖市",
    "city_kana": "トスシ",
    "town": "村田町",
    "town_kana": "ムラタマチ",
    "street": "１４７１",
    "office_name": "パナソニックコミュニケーションズ　株式会社",
    "office_name_kana": "パナソニツクコミユニケ-シヨンズ カブシキガイシヤ"
  },
  "8502": {
    "postcode": "8418502",
    "prefecture": "佐賀県",
    "prefecture_kana": "サガケン",
    "prefecture_code": 41,
    "city": "鳥栖市",
    "city_kana": "トスシ",
    "town": "姫方町",
    "town_kana": "ヒメカタマチ",
    "street": "１６５１",
    "office_name": "トラスコ中山　株式会社　プラネット九州",
    "office_name_kana": "トラスコナカヤマ カブシキカイシヤ プラネツトキユウシユウ"
  },
  "8503": {
    "postcode": "8418503",
    "prefecture": "佐賀県",
    "prefecture_kana": "サガケン",
    "prefecture_code": 41,
    "city": "鳥栖市",
    "city_kana": "トスシ",
    "town": "藤木町",
    "town_kana": "フジノキマチ",
    "street": "３−１８",
    "office_name": "株式会社　アクティブトライ　鳥栖営業所",
    "office_name_kana": "カブシキガイシヤ アクテイブトライ トスエイギヨウシヨ"
  },
  "8504": {
    "postcode": "8418504",
    "prefecture": "佐賀県",
    "prefecture_kana": "サガケン",
    "prefecture_code": 41,
    "city": "鳥栖市",
    "city_kana": "トスシ",
    "town": "弥生が丘",
    "town_kana": "ヤヨイガオカ",
    "street": "８−１",
    "office_name": "鳥栖プレミアム・アウトレット",
    "office_name_kana": "トスプレミアム・アウトレツト"
  },
  "8505": {
    "postcode": "8418505",
    "prefecture": "佐賀県",
    "prefecture_kana": "サガケン",
    "prefecture_code": 41,
    "city": "鳥栖市",
    "city_kana": "トスシ",
    "town": "弥生が丘",
    "town_kana": "ヤヨイガオカ",
    "street": "３−１−３",
    "office_name": "アマゾン　鳥栖ＦＣ　入庫係",
    "office_name_kana": "アマゾン トスフルフイルメントセンタ- ニユウコカカリ"
  },
  "8511": {
    "postcode": "8418511",
    "prefecture": "佐賀県",
    "prefecture_kana": "サガケン",
    "prefecture_code": 41,
    "city": "鳥栖市",
    "city_kana": "トスシ",
    "town": "宿町",
    "town_kana": "シュクマチ",
    "street": "１１１８",
    "office_name": "鳥栖市役所",
    "office_name_kana": "トスシヤクシヨ"
  },
  "8585": {
    "postcode": "8418585",
    "prefecture": "佐賀県",
    "prefecture_kana": "サガケン",
    "prefecture_code": 41,
    "city": "鳥栖市",
    "city_kana": "トスシ",
    "town": "立石町",
    "town_kana": "タテイシマチ",
    "street": "長蓮４４１−１３",
    "office_name": "アイリスオーヤマ　（株）　鳥栖第二工場",
    "office_name_kana": "アイリスオ-ヤマ (カブ) トスダイニコウジヨウ"
  },
  "8601": {
    "postcode": "8418601",
    "prefecture": "佐賀県",
    "prefecture_kana": "サガケン",
    "prefecture_code": 41,
    "city": "鳥栖市",
    "city_kana": "トスシ",
    "town": "秋葉町",
    "town_kana": "アキバマチ",
    "street": "３丁目１２−２（鳥栖郵便局私書箱第９号）",
    "office_name": "鳥栖税務署",
    "office_name_kana": "トスゼイムシヨ"
  },
  "8602": {
    "postcode": "8418602",
    "prefecture": "佐賀県",
    "prefecture_kana": "サガケン",
    "prefecture_code": 41,
    "city": "鳥栖市",
    "city_kana": "トスシ",
    "town": "山浦町",
    "town_kana": "ヤマウラマチ",
    "street": "１２３９（鳥栖郵便局私書箱第６号）",
    "office_name": "株式会社　ヨコオ",
    "office_name_kana": "カブシキガイシヤ ヨコオ"
  },
  "8611": {
    "postcode": "8418611",
    "prefecture": "佐賀県",
    "prefecture_kana": "サガケン",
    "prefecture_code": 41,
    "city": "鳥栖市",
    "city_kana": "トスシ",
    "town": "藤木町",
    "town_kana": "フジノキマチ",
    "street": "字若桜９−７（鳥栖郵便局私書箱第１０号）",
    "office_name": "株式会社　森光商店",
    "office_name_kana": "カブシキガイシヤ モリミツシヨウテン"
  },
  "8686": {
    "postcode": "8418686",
    "prefecture": "佐賀県",
    "prefecture_kana": "サガケン",
    "prefecture_code": 41,
    "city": "鳥栖市",
    "city_kana": "トスシ",
    "town": "田代大官町",
    "town_kana": "タシロダイカンマチ",
    "street": "４０８（鳥栖郵便局私書箱第１８号）",
    "office_name": "久光製薬　株式会社",
    "office_name_kana": "ヒサミツセイヤク カブシキガイシヤ"
  }
}