{
  "0000": {
    "postcode": "8460000",
    "prefecture": "佐賀県",
    "prefecture_kana": "サガケン",
    "prefecture_code": 41,
    "city": "多久市",
    "city_kana": "タクシ",
    "town": "",
    "town_kana": "",
    "street": null,
    "office_name": null,
    "office_name_kana": null
  },
  "0001": {
    "postcode": "8460001",
    "prefecture": "佐賀県",
    "prefecture_kana": "サガケン",
    "prefecture_code": 41,
    "city": "多久市",
    "city_kana": "タクシ",
    "town": "北多久町",
    "town_kana": "キタタクマチ",
    "street": null,
    "office_name": null,
    "office_name_kana": null
  },
  "0002": {
    "postcode": "8460002",
    "prefecture": "佐賀県",
    "prefecture_kana": "サガケン",
    "prefecture_code": 41,
    "city": "多久市",
    "city_kana": "タクシ",
    "town": "北多久町小侍",
    "town_kana": "キタタクマチコサムライ",
    "street": null,
    "office_name": null,
    "office_name_kana": null
  },
  "0003": {
    "postcode": "8460003",
    "prefecture": "佐賀県",
    "prefecture_kana": "サガケン",
    "prefecture_code": 41,
    "city": "多久市",
    "city_kana": "タクシ",
    "town": "北多久町多久原",
    "town_kana": "キタタクマチタクバル",
    "street": null,
    "office_name": null,
    "office_name_kana": null
  },
  "0004": {
    "postcode": "8460004",
    "prefecture": "佐賀県",
    "prefecture_kana": "サガケン",
    "prefecture_code": 41,
    "city": "多久市",
    "city_kana": "タクシ",
    "town": "北多久町中多久",
    "town_kana": "キタタクマチナカタク",
    "street": null,
    "office_name": null,
    "office_name_kana": null
  },
  "0005": {
    "postcode": "8460005",
    "prefecture": "佐賀県",
    "prefecture_kana": "サガケン",
    "prefecture_code": 41,
    "city": "多久市",
    "city_kana": "タクシ",
    "town": "北多久町砂原",
    "town_kana": "キタタクマチスナハラ",
    "street": null,
    "office_name": null,
    "office_name_kana": null
  },
  "0006": {
    "postcode": "8460006",
    "prefecture": "佐賀県",
    "prefecture_kana": "サガケン",
    "prefecture_code": 41,
    "city": "多久市",
    "city_kana": "タクシ",
    "town": "北多久町莇原",
    "town_kana": "キタタクマチアザミバル",
    "street": null,
    "office_name": null,
    "office_name_kana": null
  },
  "0007": {
    "postcode": "8460007",
    "prefecture": "佐賀県",
    "prefecture_kana": "サガケン",
    "prefecture_code": 41,
    "city": "多久市",
    "city_kana": "タクシ",
    "town": "北多久町メイプルタウン",
    "town_kana": "キタタクマチメイプルタウン",
    "street": null,
    "office_name": null,
    "office_name_kana": null
  },
  "0011": {
    "postcode": "8460011",
    "prefecture": "佐賀県",
    "prefecture_kana": "サガケン",
    "prefecture_code": 41,
    "city": "多久市",
    "city_kana": "タクシ",
    "town": "東多久町",
    "town_kana": "ヒガシタクマチ",
    "street": null,
    "office_name": null,
    "office_name_kana": null
  },
  "0012": {
    "postcode": "8460012",
    "prefecture": "佐賀県",
    "prefecture_kana": "サガケン",
    "prefecture_code": 41,
    "city": "多久市",
    "city_kana": "タクシ",
    "town": "東多久町別府",
    "town_kana": "ヒガシタクマチベフ",
    "street": null,
    "office_name": null,
    "office_name_kana": null
  },
  "0013": {
    "postcode": "8460013",
    "prefecture": "佐賀県",
    "prefecture_kana": "サガケン",
    "prefecture_code": 41,
    "city": "多久市",
    "city_kana": "タクシ",
    "town": "東多久町古賀",
    "town_kana": "ヒガシタクマチコガ",
    "street": null,
    "office_name": null,
    "office_name_kana": null
  },
  "0014": {
    "postcode": "8460014",
    "prefecture": "佐賀県",
    "prefecture_kana": "サガケン",
    "prefecture_code": 41,
    "city": "多久市",
    "city_kana": "タクシ",
    "town": "東多久町納所",
    "town_kana": "ヒガシタクマチノウソ",
    "street": null,
    "office_name": null,
    "office_name_kana": null
  },
  "0021": {
    "postcode": "8460021",
    "prefecture": "佐賀県",
    "prefecture_kana": "サガケン",
    "prefecture_code": 41,
    "city": "多久市",
    "city_kana": "タクシ",
    "town": "南多久町",
    "town_kana": "ミナミタクマチ",
    "street": null,
    "office_name": null,
    "office_name_kana": null
  },
  "0022": {
    "postcode": "8460022",
    "prefecture": "佐賀県",
    "prefecture_kana": "サガケン",
    "prefecture_code": 41,
    "city": "多久市",
    "city_kana": "タクシ",
    "town": "南多久町泉町",
    "town_kana": "ミナミタクマチイズミマチ",
    "street": null,
    "office_name": null,
    "office_name_kana": null
  },
  "0023": {
    "postcode": "8460023",
    "prefecture": "佐賀県",
    "prefecture_kana": "サガケン",
    "prefecture_code": 41,
    "city": "多久市",
    "city_kana": "タクシ",
    "town": "南多久町長尾",
    "town_kana": "ミナミタクマチナガオ",
    "street": null,
    "office_name": null,
    "office_name_kana": null
  },
  "0024": {
    "postcode": "8460024",
    "prefecture": "佐賀県",
    "prefecture_kana": "サガケン",
    "prefecture_code": 41,
    "city": "多久市",
    "city_kana": "タクシ",
    "town": "南多久町下多久",
    "town_kana": "ミナミタクマチシモタク",
    "street": null,
    "office_name": null,
    "office_name_kana": null
  },
  "0025": {
    "postcode": "8460025",
    "prefecture": "佐賀県",
    "prefecture_kana": "サガケン",
    "prefecture_code": 41,
    "city": "多久市",
    "city_kana": "タクシ",
    "town": "南多久町花祭",
    "town_kana": "ミナミタクマチハナマツリ",
    "street": null,
    "office_name": null,
    "office_name_kana": null
  },
  "0031": {
    "postcode": "8460031",
    "prefecture": "佐賀県",
    "prefecture_kana": "サガケン",
    "prefecture_code": 41,
    "city": "多久市",
    "city_kana": "タクシ",
    "town": "多久町",
    "town_kana": "タクマチ",
    "street": null,
    "office_name": null,
    "office_name_kana": null
  },
  "0041": {
    "postcode": "8460041",
    "prefecture": "佐賀県",
    "prefecture_kana": "サガケン",
    "prefecture_code": 41,
    "city": "多久市",
    "city_kana": "タクシ",
    "town": "西多久町",
    "town_kana": "ニシタクマチ",
    "street": null,
    "office_name": null,
    "office_name_kana": null
  },
  "8501": {
    "postcode": "8468501",
    "prefecture": "佐賀県",
    "prefecture_kana": "サガケン",
    "prefecture_code": 41,
    "city": "多久市",
    "city_kana": "タクシ",
    "town": "北多久町大字小侍",
    "town_kana": null,
    "street": "７−１",
    "office_name": "多久市役所",
    "office_name_kana": "タクシヤクシヨ"
  }
}