{
  "0000": {
    "postcode": "8480000",
    "prefecture": "佐賀県",
    "prefecture_kana": "サガケン",
    "prefecture_code": 41,
    "city": "伊万里市",
    "city_kana": "イマリシ",
    "town": "",
    "town_kana": "",
    "street": null,
    "office_name": null,
    "office_name_kana": null
  },
  "0001": {
    "postcode": "8480001",
    "prefecture": "佐賀県",
    "prefecture_kana": "サガケン",
    "prefecture_code": 41,
    "city": "伊万里市",
    "city_kana": "イマリシ",
    "town": "南波多町重橋",
    "town_kana": "ミナミハタチョウジュウバシ",
    "street": null,
    "office_name": null,
    "office_name_kana": null
  },
  "0002": {
    "postcode": "8480002",
    "prefecture": "佐賀県",
    "prefecture_kana": "サガケン",
    "prefecture_code": 41,
    "city": "伊万里市",
    "city_kana": "イマリシ",
    "town": "南波多町谷口",
    "town_kana": "ミナミハタチョウタニグチ",
    "street": null,
    "office_name": null,
    "office_name_kana": null
  },
  "0003": {
    "postcode": "8480003",
    "prefecture": "佐賀県",
    "prefecture_kana": "サガケン",
    "prefecture_code": 41,
    "city": "伊万里市",
    "city_kana": "イマリシ",
    "town": "南波多町古里",
    "town_kana": "ミナミハタチョウフルサト",
    "street": null,
    "office_name": null,
    "office_name_kana": null
  },
  "0004": {
    "postcode": "8480004",
    "prefecture": "佐賀県",
    "prefecture_kana": "サガケン",
    "prefecture_code": 41,
    "city": "伊万里市",
    "city_kana": "イマリシ",
    "town": "南波多町水留",
    "town_kana": "ミナミハタチョウツヅミ",
    "street": null,
    "office_name": null,
    "office_name_kana": null
  },
  "0005": {
    "postcode": "8480005",
    "prefecture": "佐賀県",
    "prefecture_kana": "サガケン",
    "prefecture_code": 41,
    "city": "伊万里市",
    "city_kana": "イマリシ",
    "town": "南波多町大曲",
    "town_kana": "ミナミハタチョウオオマガリ",
    "street": null,
    "office_name": null,
    "office_name_kana": null
  },
  "0006": {
    "postcode": "8480006",
    "prefecture": "佐賀県",
    "prefecture_kana": "サガケン",
    "prefecture_code": 41,
    "city": "伊万里市",
    "city_kana": "イマリシ",
    "town": "南波多町高瀬",
    "town_kana": "ミナミハタチョウタカゼ",
    "street": null,
    "office_name": null,
    "office_name_kana": null
  },
  "0007": {
    "postcode": "8480007",
    "prefecture": "佐賀県",
    "prefecture_kana": "サガケン",
    "prefecture_code": 41,
    "city": "伊万里市",
    "city_kana": "イマリシ",
    "town": "南波多町井手野",
    "town_kana": "ミナミハタチョウイデノ",
    "street": null,
    "office_name": null,
    "office_name_kana": null
  },
  "0011": {
    "postcode": "8480011",
    "prefecture": "佐賀県",
    "prefecture_kana": "サガケン",
    "prefecture_code": 41,
    "city": "伊万里市",
    "city_kana": "イマリシ",
    "town": "南波多町大川原",
    "town_kana": "ミナミハタチョウオオカワバル",
    "street": null,
    "office_name": null,
    "office_name_kana": null
  },
  "0012": {
    "postcode": "8480012",
    "prefecture": "佐賀県",
    "prefecture_kana": "サガケン",
    "prefecture_code": 41,
    "city": "伊万里市",
    "city_kana": "イマリシ",
    "town": "南波多町古川",
    "town_kana": "ミナミハタチョウフルコ",
    "street": null,
    "office_name": null,
    "office_name_kana": null
  },
  "0013": {
    "postcode": "8480013",
    "prefecture": "佐賀県",
    "prefecture_kana": "サガケン",
    "prefecture_code": 41,
    "city": "伊万里市",
    "city_kana": "イマリシ",
    "town": "南波多町笠椎",
    "town_kana": "ミナミハタチョウカサジ",
    "street": null,
    "office_name": null,
    "office_name_kana": null
  },
  "0014": {
    "postcode": "8480014",
    "prefecture": "佐賀県",
    "prefecture_kana": "サガケン",
    "prefecture_code": 41,
    "city": "伊万里市",
    "city_kana": "イマリシ",
    "town": "南波多町小麦原",
    "town_kana": "ミナミハタチョウコムギハル",
    "street": null,
    "office_name": null,
    "office_name_kana": null
  },
  "0015": {
    "postcode": "8480015",
    "prefecture": "佐賀県",
    "prefecture_kana": "サガケン",
    "prefecture_code": 41,
    "city": "伊万里市",
    "city_kana": "イマリシ",
    "town": "南波多町府招",
    "town_kana": "ミナミハタチョウフマネキ",
    "street": null,
    "office_name": null,
    "office_name_kana": null
  },
  "0016": {
    "postcode": "8480016",
    "prefecture": "佐賀県",
    "prefecture_kana": "サガケン",
    "prefecture_code": 41,
    "city": "伊万里市",
    "city_kana": "イマリシ",
    "town": "南波多町原屋敷",
    "town_kana": "ミナミハタチョウハラヤシキ",
    "street": null,
    "office_name": null,
    "office_name_kana": null
  },
  "0021": {
    "postcode": "8480021",
    "prefecture": "佐賀県",
    "prefecture_kana": "サガケン",
    "prefecture_code": 41,
    "city": "伊万里市",
    "city_kana": "イマリシ",
    "town": "大坪町甲",
    "town_kana": "オオツボチョウコウ",
    "street": null,
    "office_name": null,
    "office_name_kana": null
  },
  "0022": {
    "postcode": "8480022",
    "prefecture": "佐賀県",
    "prefecture_kana": "サガケン",
    "prefecture_code": 41,
    "city": "伊万里市",
    "city_kana": "イマリシ",
    "town": "大坪町乙",
    "town_kana": "オオツボチョウオツ",
    "street": null,
    "office_name": null,
    "office_name_kana": null
  },
  "0023": {
    "postcode": "8480023",
    "prefecture": "佐賀県",
    "prefecture_kana": "サガケン",
    "prefecture_code": 41,
    "city": "伊万里市",
    "city_kana": "イマリシ",
    "town": "大坪町丙",
    "town_kana": "オオツボチョウヘイ",
    "street": null,
    "office_name": null,
    "office_name_kana": null
  },
  "0024": {
    "postcode": "8480024",
    "prefecture": "佐賀県",
    "prefecture_kana": "サガケン",
    "prefecture_code": 41,
    "city": "伊万里市",
    "city_kana": "イマリシ",
    "town": "大川内町甲",
    "town_kana": "オオカワチチョウコウ",
    "street": null,
    "office_name": null,
    "office_name_kana": null
  },
  "0025": {
    "postcode": "8480025",
    "prefecture": "佐賀県",
    "prefecture_kana": "サガケン",
    "prefecture_code": 41,
    "city": "伊万里市",
    "city_kana": "イマリシ",
    "town": "大川内町乙",
    "town_kana": "オオカワチチョウオツ",
    "street": null,
    "office_name": null,
    "office_name_kana": null
  },
  "0026": {
    "postcode": "8480026",
    "prefecture": "佐賀県",
    "prefecture_kana": "サガケン",
    "prefecture_code": 41,
    "city": "伊万里市",
    "city_kana": "イマリシ",
    "town": "大川内町丙",
    "town_kana": "オオカワチチョウヘイ",
    "street": null,
    "office_name": null,
    "office_name_kana": null
  },
  "0027": {
    "postcode": "8480027",
    "prefecture": "佐賀県",
    "prefecture_kana": "サガケン",
    "prefecture_code": 41,
    "city": "伊万里市",
    "city_kana": "イマリシ",
    "town": "立花町",
    "town_kana": "タチバナチョウ",
    "street": null,
    "office_name": null,
    "office_name_kana": null
  },
  "0028": {
    "postcode": "8480028",
    "prefecture": "佐賀県",
    "prefecture_kana": "サガケン",
    "prefecture_code": 41,
    "city": "伊万里市",
    "city_kana": "イマリシ",
    "town": "脇田町",
    "town_kana": "ワキダチョウ",
    "street": null,
    "office_name": null,
    "office_name_kana": null
  },
  "0031": {
    "postcode": "8480031",
    "prefecture": "佐賀県",
    "prefecture_kana": "サガケン",
    "prefecture_code": 41,
    "city": "伊万里市",
    "city_kana": "イマリシ",
    "town": "二里町八谷搦",
    "town_kana": "ニリチョウハチヤガラミ",
    "street": null,
    "office_name": null,
    "office_name_kana": null
  },
  "0032": {
    "postcode": "8480032",
    "prefecture": "佐賀県",
    "prefecture_kana": "サガケン",
    "prefecture_code": 41,
    "city": "伊万里市",
    "city_kana": "イマリシ",
    "town": "二里町大里甲",
    "town_kana": "ニリチョウオオザトコウ",
    "street": null,
    "office_name": null,
    "office_name_kana": null
  },
  "0033": {
    "postcode": "8480033",
    "prefecture": "佐賀県",
    "prefecture_kana": "サガケン",
    "prefecture_code": 41,
    "city": "伊万里市",
    "city_kana": "イマリシ",
    "town": "二里町中里乙",
    "town_kana": "ニリチョウナカザトオツ",
    "street": null,
    "office_name": null,
    "office_name_kana": null
  },
  "0034": {
    "postcode": "8480034",
    "prefecture": "佐賀県",
    "prefecture_kana": "サガケン",
    "prefecture_code": 41,
    "city": "伊万里市",
    "city_kana": "イマリシ",
    "town": "二里町中里甲",
    "town_kana": "ニリチョウナカザトコウ",
    "street": null,
    "office_name": null,
    "office_name_kana": null
  },
  "0035": {
    "postcode": "8480035",
    "prefecture": "佐賀県",
    "prefecture_kana": "サガケン",
    "prefecture_code": 41,
    "city": "伊万里市",
    "city_kana": "イマリシ",
    "town": "二里町大里乙",
    "town_kana": "ニリチョウオオザトオツ",
    "street": null,
    "office_name": null,
    "office_name_kana": null
  },
  "0041": {
    "postcode": "8480041",
    "prefecture": "佐賀県",
    "prefecture_kana": "サガケン",
    "prefecture_code": 41,
    "city": "伊万里市",
    "city_kana": "イマリシ",
    "town": "新天町",
    "town_kana": "シンテンチョウ",
    "street": null,
    "office_name": null,
    "office_name_kana": null
  },
  "0042": {
    "postcode": "8480042",
    "prefecture": "佐賀県",
    "prefecture_kana": "サガケン",
    "prefecture_code": 41,
    "city": "伊万里市",
    "city_kana": "イマリシ",
    "town": "蓮池町",
    "town_kana": "ハスイケチョウ",
    "street": null,
    "office_name": null,
    "office_name_kana": null
  },
  "0043": {
    "postcode": "8480043",
    "prefecture": "佐賀県",
    "prefecture_kana": "サガケン",
    "prefecture_code": 41,
    "city": "伊万里市",
    "city_kana": "イマリシ",
    "town": "瀬戸町",
    "town_kana": "セトチョウ",
    "street": null,
    "office_name": null,
    "office_name_kana": null
  },
  "0044": {
    "postcode": "8480044",
    "prefecture": "佐賀県",
    "prefecture_kana": "サガケン",
    "prefecture_code": 41,
    "city": "伊万里市",
    "city_kana": "イマリシ",
    "town": "木須町",
    "town_kana": "キスチョウ",
    "street": null,
    "office_name": null,
    "office_name_kana": null
  },
  "0045": {
    "postcode": "8480045",
    "prefecture": "佐賀県",
    "prefecture_kana": "サガケン",
    "prefecture_code": 41,
    "city": "伊万里市",
    "city_kana": "イマリシ",
    "town": "松島町",
    "town_kana": "マツシマチョウ",
    "street": null,
    "office_name": null,
    "office_name_kana": null
  },
  "0046": {
    "postcode": "8480046",
    "prefecture": "佐賀県",
    "prefecture_kana": "サガケン",
    "prefecture_code": 41,
    "city": "伊万里市",
    "city_kana": "イマリシ",
    "town": "伊万里町乙",
    "town_kana": "イマリチョウオツ",
    "street": null,
    "office_name": null,
    "office_name_kana": null
  },
  "0047": {
    "postcode": "8480047",
    "prefecture": "佐賀県",
    "prefecture_kana": "サガケン",
    "prefecture_code": 41,
    "city": "伊万里市",
    "city_kana": "イマリシ",
    "town": "伊万里町甲",
    "town_kana": "イマリチョウコウ",
    "street": null,
    "office_name": null,
    "office_name_kana": null
  },
  "0101": {
    "postcode": "8480101",
    "prefecture": "佐賀県",
    "prefecture_kana": "サガケン",
    "prefecture_code": 41,
    "city": "伊万里市",
    "city_kana": "イマリシ",
    "town": "波多津町辻",
    "town_kana": "ハタツチョウツジ",
    "street": null,
    "office_name": null,
    "office_name_kana": null
  },
  "0102": {
    "postcode": "8480102",
    "prefecture": "佐賀県",
    "prefecture_kana": "サガケン",
    "prefecture_code": 41,
    "city": "伊万里市",
    "city_kana": "イマリシ",
    "town": "波多津町畑津",
    "town_kana": "ハタツチョウハタツ",
    "street": null,
    "office_name": null,
    "office_name_kana": null
  },
  "0103": {
    "postcode": "8480103",
    "prefecture": "佐賀県",
    "prefecture_kana": "サガケン",
    "prefecture_code": 41,
    "city": "伊万里市",
    "city_kana": "イマリシ",
    "town": "波多津町内野",
    "town_kana": "ハタツチョウウチノ",
    "street": null,
    "office_name": null,
    "office_name_kana": null
  },
  "0104": {
    "postcode": "8480104",
    "prefecture": "佐賀県",
    "prefecture_kana": "サガケン",
    "prefecture_code": 41,
    "city": "伊万里市",
    "city_kana": "イマリシ",
    "town": "波多津町煤屋",
    "town_kana": "ハタツチョウススヤ",
    "street": null,
    "office_name": null,
    "office_name_kana": null
  },
  "0105": {
    "postcode": "8480105",
    "prefecture": "佐賀県",
    "prefecture_kana": "サガケン",
    "prefecture_code": 41,
    "city": "伊万里市",
    "city_kana": "イマリシ",
    "town": "波多津町馬蛤潟",
    "town_kana": "ハタツチョウマテガタ",
    "street": null,
    "office_name": null,
    "office_name_kana": null
  },
  "0111": {
    "postcode": "8480111",
    "prefecture": "佐賀県",
    "prefecture_kana": "サガケン",
    "prefecture_code": 41,
    "city": "伊万里市",
    "city_kana": "イマリシ",
    "town": "波多津町木場",
    "town_kana": "ハタツチョウコバ",
    "street": null,
    "office_name": null,
    "office_name_kana": null
  },
  "0112": {
    "postcode": "8480112",
    "prefecture": "佐賀県",
    "prefecture_kana": "サガケン",
    "prefecture_code": 41,
    "city": "伊万里市",
    "city_kana": "イマリシ",
    "town": "波多津町田代",
    "town_kana": "ハタツチョウタシロ",
    "street": null,
    "office_name": null,
    "office_name_kana": null
  },
  "0113": {
    "postcode": "8480113",
    "prefecture": "佐賀県",
    "prefecture_kana": "サガケン",
    "prefecture_code": 41,
    "city": "伊万里市",
    "city_kana": "イマリシ",
    "town": "波多津町板木",
    "town_kana": "ハタツチョウイタギ",
    "street": null,
    "office_name": null,
    "office_name_kana": null
  },
  "0114": {
    "postcode": "8480114",
    "prefecture": "佐賀県",
    "prefecture_kana": "サガケン",
    "prefecture_code": 41,
    "city": "伊万里市",
    "city_kana": "イマリシ",
    "town": "波多津町津留主屋",
    "town_kana": "ハタツチョウツルヌシヤ",
    "street": null,
    "office_name": null,
    "office_name_kana": null
  },
  "0115": {
    "postcode": "8480115",
    "prefecture": "佐賀県",
    "prefecture_kana": "サガケン",
    "prefecture_code": 41,
    "city": "伊万里市",
    "city_kana": "イマリシ",
    "town": "波多津町中山",
    "town_kana": "ハタツチョウナカヤマ",
    "street": null,
    "office_name": null,
    "office_name_kana": null
  },
  "0116": {
    "postcode": "8480116",
    "prefecture": "佐賀県",
    "prefecture_kana": "サガケン",
    "prefecture_code": 41,
    "city": "伊万里市",
    "city_kana": "イマリシ",
    "town": "波多津町井野尾",
    "town_kana": "ハタツチョウイノオ",
    "street": null,
    "office_name": null,
    "office_name_kana": null
  },
  "0117": {
    "postcode": "8480117",
    "prefecture": "佐賀県",
    "prefecture_kana": "サガケン",
    "prefecture_code": 41,
    "city": "伊万里市",
    "city_kana": "イマリシ",
    "town": "波多津町筒井",
    "town_kana": "ハタツチョウツツイ",
    "street": null,
    "office_name": null,
    "office_name_kana": null
  },
  "0121": {
    "postcode": "8480121",
    "prefecture": "佐賀県",
    "prefecture_kana": "サガケン",
    "prefecture_code": 41,
    "city": "伊万里市",
    "city_kana": "イマリシ",
    "town": "黒川町塩屋",
    "town_kana": "クロガワチョウシオヤ",
    "street": null,
    "office_name": null,
    "office_name_kana": null
  },
  "0122": {
    "postcode": "8480122",
    "prefecture": "佐賀県",
    "prefecture_kana": "サガケン",
    "prefecture_code": 41,
    "city": "伊万里市",
    "city_kana": "イマリシ",
    "town": "黒川町福田",
    "town_kana": "クロガワチョウフクダ",
    "street": null,
    "office_name": null,
    "office_name_kana": null
  },
  "0123": {
    "postcode": "8480123",
    "prefecture": "佐賀県",
    "prefecture_kana": "サガケン",
    "prefecture_code": 41,
    "city": "伊万里市",
    "city_kana": "イマリシ",
    "town": "黒川町大黒川",
    "town_kana": "クロガワチョウオオクロガワ",
    "street": null,
    "office_name": null,
    "office_name_kana": null
  },
  "0124": [
    {
      "postcode": "8480124",
      "prefecture": "佐賀県",
      "prefecture_kana": "サガケン",
      "prefecture_code": 41,
      "city": "伊万里市",
      "city_kana": "イマリシ",
      "town": "黒川町",
      "town_kana": "クロガワチョウ",
      "street": null,
      "office_name": null,
      "office_name_kana": null
    },
    {
      "postcode": "8480124",
      "prefecture": "佐賀県",
      "prefecture_kana": "サガケン",
      "prefecture_code": 41,
      "city": "伊万里市",
      "city_kana": "イマリシ",
      "town": "黒川町名村団地",
      "town_kana": "クロガワチョウナムラダンチ",
      "street": null,
      "office_name": null,
      "office_name_kana": null
    }
  ],
  "0125": {
    "postcode": "8480125",
    "prefecture": "佐賀県",
    "prefecture_kana": "サガケン",
    "prefecture_code": 41,
    "city": "伊万里市",
    "city_kana": "イマリシ",
    "town": "黒川町小黒川",
    "town_kana": "クロガワチョウコクロガワ",
    "street": null,
    "office_name": null,
    "office_name_kana": null
  },
  "0131": {
    "postcode": "8480131",
    "prefecture": "佐賀県",
    "prefecture_kana": "サガケン",
    "prefecture_code": 41,
    "city": "伊万里市",
    "city_kana": "イマリシ",
    "town": "黒川町畑川内",
    "town_kana": "クロガワチョウハタガワチ",
    "street": null,
    "office_name": null,
    "office_name_kana": null
  },
  "0132": {
    "postcode": "8480132",
    "prefecture": "佐賀県",
    "prefecture_kana": "サガケン",
    "prefecture_code": 41,
    "city": "伊万里市",
    "city_kana": "イマリシ",
    "town": "黒川町長尾",
    "town_kana": "クロガワチョウナガオ",
    "street": null,
    "office_name": null,
    "office_name_kana": null
  },
  "0133": {
    "postcode": "8480133",
    "prefecture": "佐賀県",
    "prefecture_kana": "サガケン",
    "prefecture_code": 41,
    "city": "伊万里市",
    "city_kana": "イマリシ",
    "town": "黒川町真手野",
    "town_kana": "クロガワチョウマテノ",
    "street": null,
    "office_name": null,
    "office_name_kana": null
  },
  "0134": {
    "postcode": "8480134",
    "prefecture": "佐賀県",
    "prefecture_kana": "サガケン",
    "prefecture_code": 41,
    "city": "伊万里市",
    "city_kana": "イマリシ",
    "town": "黒川町花房",
    "town_kana": "クロガワチョウハナブサ",
    "street": null,
    "office_name": null,
    "office_name_kana": null
  },
  "0141": {
    "postcode": "8480141",
    "prefecture": "佐賀県",
    "prefecture_kana": "サガケン",
    "prefecture_code": 41,
    "city": "伊万里市",
    "city_kana": "イマリシ",
    "town": "黒川町清水",
    "town_kana": "クロガワチョウシミズ",
    "street": null,
    "office_name": null,
    "office_name_kana": null
  },
  "0142": {
    "postcode": "8480142",
    "prefecture": "佐賀県",
    "prefecture_kana": "サガケン",
    "prefecture_code": 41,
    "city": "伊万里市",
    "city_kana": "イマリシ",
    "town": "黒川町立目",
    "town_kana": "クロガワチョウタチメ",
    "street": null,
    "office_name": null,
    "office_name_kana": null
  },
  "0143": {
    "postcode": "8480143",
    "prefecture": "佐賀県",
    "prefecture_kana": "サガケン",
    "prefecture_code": 41,
    "city": "伊万里市",
    "city_kana": "イマリシ",
    "town": "黒川町牟田",
    "town_kana": "クロガワチョウムタ",
    "street": null,
    "office_name": null,
    "office_name_kana": null
  },
  "0144": {
    "postcode": "8480144",
    "prefecture": "佐賀県",
    "prefecture_kana": "サガケン",
    "prefecture_code": 41,
    "city": "伊万里市",
    "city_kana": "イマリシ",
    "town": "黒川町横野",
    "town_kana": "クロガワチョウヨコノ",
    "street": null,
    "office_name": null,
    "office_name_kana": null
  },
  "0145": {
    "postcode": "8480145",
    "prefecture": "佐賀県",
    "prefecture_kana": "サガケン",
    "prefecture_code": 41,
    "city": "伊万里市",
    "city_kana": "イマリシ",
    "town": "黒川町椿原",
    "town_kana": "クロガワチョウツバキハラ",
    "street": null,
    "office_name": null,
    "office_name_kana": null
  },
  "0146": {
    "postcode": "8480146",
    "prefecture": "佐賀県",
    "prefecture_kana": "サガケン",
    "prefecture_code": 41,
    "city": "伊万里市",
    "city_kana": "イマリシ",
    "town": "黒川町黒塩",
    "town_kana": "クロガワチョウクロシオ",
    "street": null,
    "office_name": null,
    "office_name_kana": null
  },
  "0401": {
    "postcode": "8480401",
    "prefecture": "長崎県",
    "prefecture_kana": "ナガサキケン",
    "prefecture_code": 42,
    "city": "松浦市",
    "city_kana": "マツウラシ",
    "town": "福島町喜内瀬免",
    "town_kana": "フクシマチョウキナイセメン",
    "street": null,
    "office_name": null,
    "office_name_kana": null
  },
  "0402": {
    "postcode": "8480402",
    "prefecture": "長崎県",
    "prefecture_kana": "ナガサキケン",
    "prefecture_code": 42,
    "city": "松浦市",
    "city_kana": "マツウラシ",
    "town": "福島町端免",
    "town_kana": "フクシマチョウハシメン",
    "street": null,
    "office_name": null,
    "office_name_kana": null
  },
  "0403": {
    "postcode": "8480403",
    "prefecture": "長崎県",
    "prefecture_kana": "ナガサキケン",
    "prefecture_code": 42,
    "city": "松浦市",
    "city_kana": "マツウラシ",
    "town": "福島町塩浜免",
    "town_kana": "フクシマチョウシオハマメン",
    "street": null,
    "office_name": null,
    "office_name_kana": null
  },
  "0404": {
    "postcode": "8480404",
    "prefecture": "長崎県",
    "prefecture_kana": "ナガサキケン",
    "prefecture_code": 42,
    "city": "松浦市",
    "city_kana": "マツウラシ",
    "town": "福島町浅谷免",
    "town_kana": "フクシマチョウアサガイメン",
    "street": null,
    "office_name": null,
    "office_name_kana": null
  },
  "0405": {
    "postcode": "8480405",
    "prefecture": "長崎県",
    "prefecture_kana": "ナガサキケン",
    "prefecture_code": 42,
    "city": "松浦市",
    "city_kana": "マツウラシ",
    "town": "福島町土谷免",
    "town_kana": "フクシマチョウドヤメン",
    "street": null,
    "office_name": null,
    "office_name_kana": null
  },
  "0406": {
    "postcode": "8480406",
    "prefecture": "長崎県",
    "prefecture_kana": "ナガサキケン",
    "prefecture_code": 42,
    "city": "松浦市",
    "city_kana": "マツウラシ",
    "town": "福島町原免",
    "town_kana": "フクシマチョウハルメン",
    "street": null,
    "office_name": null,
    "office_name_kana": null
  },
  "0407": {
    "postcode": "8480407",
    "prefecture": "長崎県",
    "prefecture_kana": "ナガサキケン",
    "prefecture_code": 42,
    "city": "松浦市",
    "city_kana": "マツウラシ",
    "town": "福島町鍋串免",
    "town_kana": "フクシマチョウナベグシメン",
    "street": null,
    "office_name": null,
    "office_name_kana": null
  },
  "0408": {
    "postcode": "8480408",
    "prefecture": "長崎県",
    "prefecture_kana": "ナガサキケン",
    "prefecture_code": 42,
    "city": "松浦市",
    "city_kana": "マツウラシ",
    "town": "福島町里免",
    "town_kana": "フクシマチョウサトメン",
    "street": null,
    "office_name": null,
    "office_name_kana": null
  },
  "0492": {
    "postcode": "8480492",
    "prefecture": "長崎県",
    "prefecture_kana": "ナガサキケン",
    "prefecture_code": 42,
    "city": "松浦市",
    "city_kana": "マツウラシ",
    "town": "福島町塩浜免",
    "town_kana": "フクシマチョウシオハマメン",
    "street": "２９４４",
    "office_name": "松浦市役所　福島支所",
    "office_name_kana": "マツウラシヤクシヨ フクシマシシヨ"
  },
  "8501": {
    "postcode": "8488501",
    "prefecture": "佐賀県",
    "prefecture_kana": "サガケン",
    "prefecture_code": 41,
    "city": "伊万里市",
    "city_kana": "イマリシ",
    "town": "立花町",
    "town_kana": "タチバナチョウ",
    "street": "１３５５−１",
    "office_name": "伊万里市役所",
    "office_name_kana": "イマリシヤクシヨ"
  }
}