{
  "0101": {
    "postcode": "8510101",
    "prefecture": "長崎県",
    "prefecture_kana": "ナガサキケン",
    "prefecture_code": 42,
    "city": "長崎市",
    "city_kana": "ナガサキシ",
    "town": "古賀町",
    "town_kana": "コガマチ",
    "street": null,
    "office_name": null,
    "office_name_kana": null
  },
  "0102": {
    "postcode": "8510102",
    "prefecture": "長崎県",
    "prefecture_kana": "ナガサキケン",
    "prefecture_code": 42,
    "city": "長崎市",
    "city_kana": "ナガサキシ",
    "town": "つつじが丘",
    "town_kana": "ツツジガオカ",
    "street": null,
    "office_name": null,
    "office_name_kana": null
  },
  "0103": {
    "postcode": "8510103",
    "prefecture": "長崎県",
    "prefecture_kana": "ナガサキケン",
    "prefecture_code": 42,
    "city": "長崎市",
    "city_kana": "ナガサキシ",
    "town": "中里町",
    "town_kana": "ナカザトマチ",
    "street": null,
    "office_name": null,
    "office_name_kana": null
  },
  "0104": {
    "postcode": "8510104",
    "prefecture": "長崎県",
    "prefecture_kana": "ナガサキケン",
    "prefecture_code": 42,
    "city": "長崎市",
    "city_kana": "ナガサキシ",
    "town": "船石町",
    "town_kana": "フナイシマチ",
    "street": null,
    "office_name": null,
    "office_name_kana": null
  },
  "0111": {
    "postcode": "8510111",
    "prefecture": "長崎県",
    "prefecture_kana": "ナガサキケン",
    "prefecture_code": 42,
    "city": "長崎市",
    "city_kana": "ナガサキシ",
    "town": "上戸石町",
    "town_kana": "カミトイシマチ",
    "street": null,
    "office_name": null,
    "office_name_kana": null
  },
  "0112": {
    "postcode": "8510112",
    "prefecture": "長崎県",
    "prefecture_kana": "ナガサキケン",
    "prefecture_code": 42,
    "city": "長崎市",
    "city_kana": "ナガサキシ",
    "town": "川内町",
    "town_kana": "カワチマチ",
    "street": null,
    "office_name": null,
    "office_name_kana": null
  },
  "0113": {
    "postcode": "8510113",
    "prefecture": "長崎県",
    "prefecture_kana": "ナガサキケン",
    "prefecture_code": 42,
    "city": "長崎市",
    "city_kana": "ナガサキシ",
    "town": "戸石町",
    "town_kana": "トイシマチ",
    "street": null,
    "office_name": null,
    "office_name_kana": null
  },
  "0114": {
    "postcode": "8510114",
    "prefecture": "長崎県",
    "prefecture_kana": "ナガサキケン",
    "prefecture_code": 42,
    "city": "長崎市",
    "city_kana": "ナガサキシ",
    "town": "牧島町",
    "town_kana": "マキシママチ",
    "street": null,
    "office_name": null,
    "office_name_kana": null
  },
  "0115": {
    "postcode": "8510115",
    "prefecture": "長崎県",
    "prefecture_kana": "ナガサキケン",
    "prefecture_code": 42,
    "city": "長崎市",
    "city_kana": "ナガサキシ",
    "town": "かき道",
    "town_kana": "カキドウ",
    "street": null,
    "office_name": null,
    "office_name_kana": null
  },
  "0116": {
    "postcode": "8510116",
    "prefecture": "長崎県",
    "prefecture_kana": "ナガサキケン",
    "prefecture_code": 42,
    "city": "長崎市",
    "city_kana": "ナガサキシ",
    "town": "東町",
    "town_kana": "ヒガシマチ",
    "street": null,
    "office_name": null,
    "office_name_kana": null
  },
  "0121": {
    "postcode": "8510121",
    "prefecture": "長崎県",
    "prefecture_kana": "ナガサキケン",
    "prefecture_code": 42,
    "city": "長崎市",
    "city_kana": "ナガサキシ",
    "town": "宿町",
    "town_kana": "シュクマチ",
    "street": null,
    "office_name": null,
    "office_name_kana": null
  },
  "0122": {
    "postcode": "8510122",
    "prefecture": "長崎県",
    "prefecture_kana": "ナガサキケン",
    "prefecture_code": 42,
    "city": "長崎市",
    "city_kana": "ナガサキシ",
    "town": "界",
    "town_kana": "サカイ",
    "street": null,
    "office_name": null,
    "office_name_kana": null
  },
  "0123": {
    "postcode": "8510123",
    "prefecture": "長崎県",
    "prefecture_kana": "ナガサキケン",
    "prefecture_code": 42,
    "city": "長崎市",
    "city_kana": "ナガサキシ",
    "town": "網場町",
    "town_kana": "アバマチ",
    "street": null,
    "office_name": null,
    "office_name_kana": null
  },
  "0124": {
    "postcode": "8510124",
    "prefecture": "長崎県",
    "prefecture_kana": "ナガサキケン",
    "prefecture_code": 42,
    "city": "長崎市",
    "city_kana": "ナガサキシ",
    "town": "春日町",
    "town_kana": "カスガマチ",
    "street": null,
    "office_name": null,
    "office_name_kana": null
  },
  "0125": {
    "postcode": "8510125",
    "prefecture": "長崎県",
    "prefecture_kana": "ナガサキケン",
    "prefecture_code": 42,
    "city": "長崎市",
    "city_kana": "ナガサキシ",
    "town": "潮見町",
    "town_kana": "シオミマチ",
    "street": null,
    "office_name": null,
    "office_name_kana": null
  },
  "0126": {
    "postcode": "8510126",
    "prefecture": "長崎県",
    "prefecture_kana": "ナガサキケン",
    "prefecture_code": 42,
    "city": "長崎市",
    "city_kana": "ナガサキシ",
    "town": "芒塚町",
    "town_kana": "ススキヅカマチ",
    "street": null,
    "office_name": null,
    "office_name_kana": null
  },
  "0131": {
    "postcode": "8510131",
    "prefecture": "長崎県",
    "prefecture_kana": "ナガサキケン",
    "prefecture_code": 42,
    "city": "長崎市",
    "city_kana": "ナガサキシ",
    "town": "松原町",
    "town_kana": "マツバラマチ",
    "street": null,
    "office_name": null,
    "office_name_kana": null
  },
  "0132": {
    "postcode": "8510132",
    "prefecture": "長崎県",
    "prefecture_kana": "ナガサキケン",
    "prefecture_code": 42,
    "city": "長崎市",
    "city_kana": "ナガサキシ",
    "town": "鶴の尾町",
    "town_kana": "ツルノオマチ",
    "street": null,
    "office_name": null,
    "office_name_kana": null
  },
  "0133": {
    "postcode": "8510133",
    "prefecture": "長崎県",
    "prefecture_kana": "ナガサキケン",
    "prefecture_code": 42,
    "city": "長崎市",
    "city_kana": "ナガサキシ",
    "town": "矢上町",
    "town_kana": "ヤガミマチ",
    "street": null,
    "office_name": null,
    "office_name_kana": null
  },
  "0134": {
    "postcode": "8510134",
    "prefecture": "長崎県",
    "prefecture_kana": "ナガサキケン",
    "prefecture_code": 42,
    "city": "長崎市",
    "city_kana": "ナガサキシ",
    "town": "田中町",
    "town_kana": "タナカマチ",
    "street": null,
    "office_name": null,
    "office_name_kana": null
  },
  "0135": {
    "postcode": "8510135",
    "prefecture": "長崎県",
    "prefecture_kana": "ナガサキケン",
    "prefecture_code": 42,
    "city": "長崎市",
    "city_kana": "ナガサキシ",
    "town": "現川町",
    "town_kana": "ウツツガワマチ",
    "street": null,
    "office_name": null,
    "office_name_kana": null
  },
  "0136": {
    "postcode": "8510136",
    "prefecture": "長崎県",
    "prefecture_kana": "ナガサキケン",
    "prefecture_code": 42,
    "city": "長崎市",
    "city_kana": "ナガサキシ",
    "town": "平間町",
    "town_kana": "ヒラママチ",
    "street": null,
    "office_name": null,
    "office_name_kana": null
  },
  "0137": {
    "postcode": "8510137",
    "prefecture": "長崎県",
    "prefecture_kana": "ナガサキケン",
    "prefecture_code": 42,
    "city": "長崎市",
    "city_kana": "ナガサキシ",
    "town": "高城台",
    "town_kana": "タカシロダイ",
    "street": null,
    "office_name": null,
    "office_name_kana": null
  },
  "0193": {
    "postcode": "8510193",
    "prefecture": "長崎県",
    "prefecture_kana": "ナガサキケン",
    "prefecture_code": 42,
    "city": "長崎市",
    "city_kana": "ナガサキシ",
    "town": "網場町",
    "town_kana": "アバマチ",
    "street": "５３６",
    "office_name": "学校法人　長崎総合科学大学",
    "office_name_kana": "ガツコウホウジン ナガサキソウゴウカガクダイガク"
  },
  "0195": {
    "postcode": "8510195",
    "prefecture": "長崎県",
    "prefecture_kana": "ナガサキケン",
    "prefecture_code": 42,
    "city": "長崎市",
    "city_kana": "ナガサキシ",
    "town": "田中町",
    "town_kana": "タナカマチ",
    "street": "２０２２（長崎東郵便局私書箱第５号）",
    "office_name": "藤村薬品　株式会社",
    "office_name_kana": "フジムラヤクヒン カブシキガイシヤ"
  },
  "0198": {
    "postcode": "8510198",
    "prefecture": "長崎県",
    "prefecture_kana": "ナガサキケン",
    "prefecture_code": 42,
    "city": "長崎市",
    "city_kana": "ナガサキシ",
    "town": "中里町",
    "town_kana": "ナカザトマチ",
    "street": "２１７８",
    "office_name": "株式会社　たらみ",
    "office_name_kana": "カブシキガイシヤ タラミ"
  },
  "0241": {
    "postcode": "8510241",
    "prefecture": "長崎県",
    "prefecture_kana": "ナガサキケン",
    "prefecture_code": 42,
    "city": "長崎市",
    "city_kana": "ナガサキシ",
    "town": "茂木町",
    "town_kana": "モギマチ",
    "street": null,
    "office_name": null,
    "office_name_kana": null
  },
  "0242": {
    "postcode": "8510242",
    "prefecture": "長崎県",
    "prefecture_kana": "ナガサキケン",
    "prefecture_code": 42,
    "city": "長崎市",
    "city_kana": "ナガサキシ",
    "town": "北浦町",
    "town_kana": "キタウラマチ",
    "street": null,
    "office_name": null,
    "office_name_kana": null
  },
  "0243": {
    "postcode": "8510243",
    "prefecture": "長崎県",
    "prefecture_kana": "ナガサキケン",
    "prefecture_code": 42,
    "city": "長崎市",
    "city_kana": "ナガサキシ",
    "town": "宮摺町",
    "town_kana": "ミヤズリマチ",
    "street": null,
    "office_name": null,
    "office_name_kana": null
  },
  "0244": {
    "postcode": "8510244",
    "prefecture": "長崎県",
    "prefecture_kana": "ナガサキケン",
    "prefecture_code": 42,
    "city": "長崎市",
    "city_kana": "ナガサキシ",
    "town": "大崎町",
    "town_kana": "オオサキマチ",
    "street": null,
    "office_name": null,
    "office_name_kana": null
  },
  "0245": {
    "postcode": "8510245",
    "prefecture": "長崎県",
    "prefecture_kana": "ナガサキケン",
    "prefecture_code": 42,
    "city": "長崎市",
    "city_kana": "ナガサキシ",
    "town": "千々町",
    "town_kana": "チヂマチ",
    "street": null,
    "office_name": null,
    "office_name_kana": null
  },
  "0251": {
    "postcode": "8510251",
    "prefecture": "長崎県",
    "prefecture_kana": "ナガサキケン",
    "prefecture_code": 42,
    "city": "長崎市",
    "city_kana": "ナガサキシ",
    "town": "田上",
    "town_kana": "タガミ",
    "street": null,
    "office_name": null,
    "office_name_kana": null
  },
  "0252": {
    "postcode": "8510252",
    "prefecture": "長崎県",
    "prefecture_kana": "ナガサキケン",
    "prefecture_code": 42,
    "city": "長崎市",
    "city_kana": "ナガサキシ",
    "town": "田手原町",
    "town_kana": "タデワラマチ",
    "street": null,
    "office_name": null,
    "office_name_kana": null
  },
  "0253": {
    "postcode": "8510253",
    "prefecture": "長崎県",
    "prefecture_kana": "ナガサキケン",
    "prefecture_code": 42,
    "city": "長崎市",
    "city_kana": "ナガサキシ",
    "town": "早坂町",
    "town_kana": "ハヤサカマチ",
    "street": null,
    "office_name": null,
    "office_name_kana": null
  },
  "0254": {
    "postcode": "8510254",
    "prefecture": "長崎県",
    "prefecture_kana": "ナガサキケン",
    "prefecture_code": 42,
    "city": "長崎市",
    "city_kana": "ナガサキシ",
    "town": "飯香浦町",
    "town_kana": "イカノウラマチ",
    "street": null,
    "office_name": null,
    "office_name_kana": null
  },
  "0255": {
    "postcode": "8510255",
    "prefecture": "長崎県",
    "prefecture_kana": "ナガサキケン",
    "prefecture_code": 42,
    "city": "長崎市",
    "city_kana": "ナガサキシ",
    "town": "太田尾町",
    "town_kana": "オオタオマチ",
    "street": null,
    "office_name": null,
    "office_name_kana": null
  },
  "0301": {
    "postcode": "8510301",
    "prefecture": "長崎県",
    "prefecture_kana": "ナガサキケン",
    "prefecture_code": 42,
    "city": "長崎市",
    "city_kana": "ナガサキシ",
    "town": "深堀町",
    "town_kana": "フカホリマチ",
    "street": null,
    "office_name": null,
    "office_name_kana": null
  },
  "0302": {
    "postcode": "8510302",
    "prefecture": "長崎県",
    "prefecture_kana": "ナガサキケン",
    "prefecture_code": 42,
    "city": "長崎市",
    "city_kana": "ナガサキシ",
    "town": "大籠町",
    "town_kana": "オオゴモリマチ",
    "street": null,
    "office_name": null,
    "office_name_kana": null
  },
  "0310": {
    "postcode": "8510310",
    "prefecture": "長崎県",
    "prefecture_kana": "ナガサキケン",
    "prefecture_code": 42,
    "city": "長崎市",
    "city_kana": "ナガサキシ",
    "town": "香焼町",
    "town_kana": "コウヤギマチ",
    "street": null,
    "office_name": null,
    "office_name_kana": null
  },
  "0392": {
    "postcode": "8510392",
    "prefecture": "長崎県",
    "prefecture_kana": "ナガサキケン",
    "prefecture_code": 42,
    "city": "長崎市",
    "city_kana": "ナガサキシ",
    "town": "深堀町",
    "town_kana": "フカホリマチ",
    "street": "５丁目７１７−１",
    "office_name": "三菱重工業　株式会社　技術本部長崎研究所",
    "office_name_kana": "ミツビシジユウコウギヨウ カブシキガイシヤ ギジユツホンブナガサキケンキユウシヨ"
  },
  "0395": {
    "postcode": "8510395",
    "prefecture": "長崎県",
    "prefecture_kana": "ナガサキケン",
    "prefecture_code": 42,
    "city": "長崎市",
    "city_kana": "ナガサキシ",
    "town": "香焼町",
    "town_kana": "コウヤギマチ",
    "street": "１０７０−３２",
    "office_name": "長崎市役所　香焼行政センター",
    "office_name_kana": "ナガサキシヤクシヨ コウヤギギヨウセイセンタ-"
  },
  "0401": {
    "postcode": "8510401",
    "prefecture": "長崎県",
    "prefecture_kana": "ナガサキケン",
    "prefecture_code": 42,
    "city": "長崎市",
    "city_kana": "ナガサキシ",
    "town": "蚊焼町",
    "town_kana": "カヤキマチ",
    "street": null,
    "office_name": null,
    "office_name_kana": null
  },
  "0402": {
    "postcode": "8510402",
    "prefecture": "長崎県",
    "prefecture_kana": "ナガサキケン",
    "prefecture_code": 42,
    "city": "長崎市",
    "city_kana": "ナガサキシ",
    "town": "晴海台町",
    "town_kana": "ハルミダイマチ",
    "street": null,
    "office_name": null,
    "office_name_kana": null
  },
  "0403": {
    "postcode": "8510403",
    "prefecture": "長崎県",
    "prefecture_kana": "ナガサキケン",
    "prefecture_code": 42,
    "city": "長崎市",
    "city_kana": "ナガサキシ",
    "town": "布巻町",
    "town_kana": "ヌノマキマチ",
    "street": null,
    "office_name": null,
    "office_name_kana": null
  },
  "0404": {
    "postcode": "8510404",
    "prefecture": "長崎県",
    "prefecture_kana": "ナガサキケン",
    "prefecture_code": 42,
    "city": "長崎市",
    "city_kana": "ナガサキシ",
    "town": "藤田尾町",
    "town_kana": "トウダオマチ",
    "street": null,
    "office_name": null,
    "office_name_kana": null
  },
  "0405": {
    "postcode": "8510405",
    "prefecture": "長崎県",
    "prefecture_kana": "ナガサキケン",
    "prefecture_code": 42,
    "city": "長崎市",
    "city_kana": "ナガサキシ",
    "town": "為石町",
    "town_kana": "タメシマチ",
    "street": null,
    "office_name": null,
    "office_name_kana": null
  },
  "0406": {
    "postcode": "8510406",
    "prefecture": "長崎県",
    "prefecture_kana": "ナガサキケン",
    "prefecture_code": 42,
    "city": "長崎市",
    "city_kana": "ナガサキシ",
    "town": "椿が丘町",
    "town_kana": "ツバキガオカマチ",
    "street": null,
    "office_name": null,
    "office_name_kana": null
  },
  "0407": {
    "postcode": "8510407",
    "prefecture": "長崎県",
    "prefecture_kana": "ナガサキケン",
    "prefecture_code": 42,
    "city": "長崎市",
    "city_kana": "ナガサキシ",
    "town": "川原町",
    "town_kana": "カワラマチ",
    "street": null,
    "office_name": null,
    "office_name_kana": null
  },
  "0408": {
    "postcode": "8510408",
    "prefecture": "長崎県",
    "prefecture_kana": "ナガサキケン",
    "prefecture_code": 42,
    "city": "長崎市",
    "city_kana": "ナガサキシ",
    "town": "宮崎町",
    "town_kana": "ミヤザキマチ",
    "street": null,
    "office_name": null,
    "office_name_kana": null
  },
  "0492": {
    "postcode": "8510492",
    "prefecture": "長崎県",
    "prefecture_kana": "ナガサキケン",
    "prefecture_code": 42,
    "city": "長崎市",
    "city_kana": "ナガサキシ",
    "town": "蚊焼町",
    "town_kana": "カヤキマチ",
    "street": "２３１４−１",
    "office_name": "医療法人　共生会　長崎友愛病院",
    "office_name_kana": "イリヨウホウジン キヨウセイカイ ナガサキユウアイビヨウイン"
  },
  "0493": {
    "postcode": "8510493",
    "prefecture": "長崎県",
    "prefecture_kana": "ナガサキケン",
    "prefecture_code": 42,
    "city": "長崎市",
    "city_kana": "ナガサキシ",
    "town": "布巻町",
    "town_kana": "ヌノマキマチ",
    "street": "１６５−１",
    "office_name": "医療法人　清潮会　老人保健施設　みどりの里",
    "office_name_kana": "イリヨウホウジン セイチヨウカイ ロウジンホケンシセツ ミドリノサト"
  },
  "0494": {
    "postcode": "8510494",
    "prefecture": "長崎県",
    "prefecture_kana": "ナガサキケン",
    "prefecture_code": 42,
    "city": "長崎市",
    "city_kana": "ナガサキシ",
    "town": "布巻町",
    "town_kana": "ヌノマキマチ",
    "street": "１６５−１",
    "office_name": "医療法人　清潮会　三和病院",
    "office_name_kana": "イリヨウホウジン セイチヨウカイ サンワビヨウイン"
  },
  "0497": {
    "postcode": "8510497",
    "prefecture": "長崎県",
    "prefecture_kana": "ナガサキケン",
    "prefecture_code": 42,
    "city": "長崎市",
    "city_kana": "ナガサキシ",
    "town": "布巻町",
    "town_kana": "ヌノマキマチ",
    "street": "１４７７",
    "office_name": "三和みのり園",
    "office_name_kana": "サンワミノリエン"
  },
  "0498": {
    "postcode": "8510498",
    "prefecture": "長崎県",
    "prefecture_kana": "ナガサキケン",
    "prefecture_code": 42,
    "city": "長崎市",
    "city_kana": "ナガサキシ",
    "town": "布巻町",
    "town_kana": "ヌノマキマチ",
    "street": "１１１−１",
    "office_name": "長崎市役所　三和行政センター",
    "office_name_kana": "ナガサキシヤクシヨ サンワギヨウセイセンタ-"
  },
  "0501": {
    "postcode": "8510501",
    "prefecture": "長崎県",
    "prefecture_kana": "ナガサキケン",
    "prefecture_code": 42,
    "city": "長崎市",
    "city_kana": "ナガサキシ",
    "town": "黒浜町",
    "town_kana": "クロハママチ",
    "street": null,
    "office_name": null,
    "office_name_kana": null
  },
  "0502": {
    "postcode": "8510502",
    "prefecture": "長崎県",
    "prefecture_kana": "ナガサキケン",
    "prefecture_code": 42,
    "city": "長崎市",
    "city_kana": "ナガサキシ",
    "town": "以下宿町",
    "town_kana": "イガヤドマチ",
    "street": null,
    "office_name": null,
    "office_name_kana": null
  },
  "0503": {
    "postcode": "8510503",
    "prefecture": "長崎県",
    "prefecture_kana": "ナガサキケン",
    "prefecture_code": 42,
    "city": "長崎市",
    "city_kana": "ナガサキシ",
    "town": "高浜町",
    "town_kana": "タカハママチ",
    "street": null,
    "office_name": null,
    "office_name_kana": null
  },
  "0504": {
    "postcode": "8510504",
    "prefecture": "長崎県",
    "prefecture_kana": "ナガサキケン",
    "prefecture_code": 42,
    "city": "長崎市",
    "city_kana": "ナガサキシ",
    "town": "南越町",
    "town_kana": "ナンゴシマチ",
    "street": null,
    "office_name": null,
    "office_name_kana": null
  },
  "0505": {
    "postcode": "8510505",
    "prefecture": "長崎県",
    "prefecture_kana": "ナガサキケン",
    "prefecture_code": 42,
    "city": "長崎市",
    "city_kana": "ナガサキシ",
    "town": "野母町",
    "town_kana": "ノモマチ",
    "street": null,
    "office_name": null,
    "office_name_kana": null
  },
  "0506": {
    "postcode": "8510506",
    "prefecture": "長崎県",
    "prefecture_kana": "ナガサキケン",
    "prefecture_code": 42,
    "city": "長崎市",
    "city_kana": "ナガサキシ",
    "town": "脇岬町",
    "town_kana": "ワキミサキマチ",
    "street": null,
    "office_name": null,
    "office_name_kana": null
  },
  "0507": {
    "postcode": "8510507",
    "prefecture": "長崎県",
    "prefecture_kana": "ナガサキケン",
    "prefecture_code": 42,
    "city": "長崎市",
    "city_kana": "ナガサキシ",
    "town": "野母崎樺島町",
    "town_kana": "ノモザキカバシママチ",
    "street": null,
    "office_name": null,
    "office_name_kana": null
  },
  "0592": {
    "postcode": "8510592",
    "prefecture": "長崎県",
    "prefecture_kana": "ナガサキケン",
    "prefecture_code": 42,
    "city": "長崎市",
    "city_kana": "ナガサキシ",
    "town": "野母町",
    "town_kana": "ノモマチ",
    "street": "１６６５",
    "office_name": "長崎市役所　野母崎行政センター",
    "office_name_kana": "ナガサキシヤクシヨ ノモザキギヨウセイセンタ-"
  },
  "1121": {
    "postcode": "8511121",
    "prefecture": "長崎県",
    "prefecture_kana": "ナガサキケン",
    "prefecture_code": 42,
    "city": "長崎市",
    "city_kana": "ナガサキシ",
    "town": "見崎町",
    "town_kana": "ミサキマチ",
    "street": null,
    "office_name": null,
    "office_name_kana": null
  },
  "1122": {
    "postcode": "8511122",
    "prefecture": "長崎県",
    "prefecture_kana": "ナガサキケン",
    "prefecture_code": 42,
    "city": "長崎市",
    "city_kana": "ナガサキシ",
    "town": "相川町",
    "town_kana": "アイガワマチ",
    "street": null,
    "office_name": null,
    "office_name_kana": null
  },
  "1123": {
    "postcode": "8511123",
    "prefecture": "長崎県",
    "prefecture_kana": "ナガサキケン",
    "prefecture_code": 42,
    "city": "長崎市",
    "city_kana": "ナガサキシ",
    "town": "四杖町",
    "town_kana": "ヨツエマチ",
    "street": null,
    "office_name": null,
    "office_name_kana": null
  },
  "1124": {
    "postcode": "8511124",
    "prefecture": "長崎県",
    "prefecture_kana": "ナガサキケン",
    "prefecture_code": 42,
    "city": "長崎市",
    "city_kana": "ナガサキシ",
    "town": "牧野町",
    "town_kana": "マキノマチ",
    "street": null,
    "office_name": null,
    "office_name_kana": null
  },
  "1125": {
    "postcode": "8511125",
    "prefecture": "長崎県",
    "prefecture_kana": "ナガサキケン",
    "prefecture_code": 42,
    "city": "長崎市",
    "city_kana": "ナガサキシ",
    "town": "園田町",
    "town_kana": "ソノダマチ",
    "street": null,
    "office_name": null,
    "office_name_kana": null
  },
  "1131": {
    "postcode": "8511131",
    "prefecture": "長崎県",
    "prefecture_kana": "ナガサキケン",
    "prefecture_code": 42,
    "city": "長崎市",
    "city_kana": "ナガサキシ",
    "town": "上浦町",
    "town_kana": "カミウラマチ",
    "street": null,
    "office_name": null,
    "office_name_kana": null
  },
  "1132": {
    "postcode": "8511132",
    "prefecture": "長崎県",
    "prefecture_kana": "ナガサキケン",
    "prefecture_code": 42,
    "city": "長崎市",
    "city_kana": "ナガサキシ",
    "town": "小江原",
    "town_kana": "コエバル",
    "street": null,
    "office_name": null,
    "office_name_kana": null
  },
  "1133": {
    "postcode": "8511133",
    "prefecture": "長崎県",
    "prefecture_kana": "ナガサキケン",
    "prefecture_code": 42,
    "city": "長崎市",
    "city_kana": "ナガサキシ",
    "town": "小江町",
    "town_kana": "コエマチ",
    "street": null,
    "office_name": null,
    "office_name_kana": null
  },
  "1134": {
    "postcode": "8511134",
    "prefecture": "長崎県",
    "prefecture_kana": "ナガサキケン",
    "prefecture_code": 42,
    "city": "長崎市",
    "city_kana": "ナガサキシ",
    "town": "柿泊町",
    "town_kana": "カキドマリマチ",
    "street": null,
    "office_name": null,
    "office_name_kana": null
  },
  "1135": {
    "postcode": "8511135",
    "prefecture": "長崎県",
    "prefecture_kana": "ナガサキケン",
    "prefecture_code": 42,
    "city": "長崎市",
    "city_kana": "ナガサキシ",
    "town": "手熊町",
    "town_kana": "テグママチ",
    "street": null,
    "office_name": null,
    "office_name_kana": null
  },
  "1136": {
    "postcode": "8511136",
    "prefecture": "長崎県",
    "prefecture_kana": "ナガサキケン",
    "prefecture_code": 42,
    "city": "長崎市",
    "city_kana": "ナガサキシ",
    "town": "向町",
    "town_kana": "ムカエマチ",
    "street": null,
    "office_name": null,
    "office_name_kana": null
  },
  "1137": {
    "postcode": "8511137",
    "prefecture": "長崎県",
    "prefecture_kana": "ナガサキケン",
    "prefecture_code": 42,
    "city": "長崎市",
    "city_kana": "ナガサキシ",
    "town": "式見町",
    "town_kana": "シキミマチ",
    "street": null,
    "office_name": null,
    "office_name_kana": null
  },
  "1201": {
    "postcode": "8511201",
    "prefecture": "長崎県",
    "prefecture_kana": "ナガサキケン",
    "prefecture_code": 42,
    "city": "長崎市",
    "city_kana": "ナガサキシ",
    "town": "伊王島町",
    "town_kana": "イオウジママチ",
    "street": null,
    "office_name": null,
    "office_name_kana": null
  },
  "1315": {
    "postcode": "8511315",
    "prefecture": "長崎県",
    "prefecture_kana": "ナガサキケン",
    "prefecture_code": 42,
    "city": "長崎市",
    "city_kana": "ナガサキシ",
    "town": "高島町",
    "town_kana": "タカシママチ",
    "street": null,
    "office_name": null,
    "office_name_kana": null
  },
  "2100": [
    {
      "postcode": "8512100",
      "prefecture": "長崎県",
      "prefecture_kana": "ナガサキケン",
      "prefecture_code": 42,
      "city": "西彼杵郡長与町",
      "city_kana": "ニシソノギグンナガヨチョウ",
      "town": "",
      "town_kana": "",
      "street": null,
      "office_name": null,
      "office_name_kana": null
    },
    {
      "postcode": "8512100",
      "prefecture": "長崎県",
      "prefecture_kana": "ナガサキケン",
      "prefecture_code": 42,
      "city": "西彼杵郡時津町",
      "city_kana": "ニシソノギグントギツチョウ",
      "town": "",
      "town_kana": "",
      "street": null,
      "office_name": null,
      "office_name_kana": null
    }
  ],
  "2101": {
    "postcode": "8512101",
    "prefecture": "長崎県",
    "prefecture_kana": "ナガサキケン",
    "prefecture_code": 42,
    "city": "西彼杵郡時津町",
    "city_kana": "ニシソノギグントギツチョウ",
    "town": "西時津郷",
    "town_kana": "ニシトギツゴウ",
    "street": null,
    "office_name": null,
    "office_name_kana": null
  },
  "2102": {
    "postcode": "8512102",
    "prefecture": "長崎県",
    "prefecture_kana": "ナガサキケン",
    "prefecture_code": 42,
    "city": "西彼杵郡時津町",
    "city_kana": "ニシソノギグントギツチョウ",
    "town": "浜田郷",
    "town_kana": "ハマダゴウ",
    "street": null,
    "office_name": null,
    "office_name_kana": null
  },
  "2103": {
    "postcode": "8512103",
    "prefecture": "長崎県",
    "prefecture_kana": "ナガサキケン",
    "prefecture_code": 42,
    "city": "西彼杵郡時津町",
    "city_kana": "ニシソノギグントギツチョウ",
    "town": "元村郷",
    "town_kana": "モトムラゴウ",
    "street": null,
    "office_name": null,
    "office_name_kana": null
  },
  "2104": {
    "postcode": "8512104",
    "prefecture": "長崎県",
    "prefecture_kana": "ナガサキケン",
    "prefecture_code": 42,
    "city": "西彼杵郡時津町",
    "city_kana": "ニシソノギグントギツチョウ",
    "town": "野田郷",
    "town_kana": "ノダゴウ",
    "street": null,
    "office_name": null,
    "office_name_kana": null
  },
  "2105": {
    "postcode": "8512105",
    "prefecture": "長崎県",
    "prefecture_kana": "ナガサキケン",
    "prefecture_code": 42,
    "city": "西彼杵郡時津町",
    "city_kana": "ニシソノギグントギツチョウ",
    "town": "浦郷",
    "town_kana": "ウラゴウ",
    "street": null,
    "office_name": null,
    "office_name_kana": null
  },
  "2106": {
    "postcode": "8512106",
    "prefecture": "長崎県",
    "prefecture_kana": "ナガサキケン",
    "prefecture_code": 42,
    "city": "西彼杵郡時津町",
    "city_kana": "ニシソノギグントギツチョウ",
    "town": "左底郷",
    "town_kana": "サソコゴウ",
    "street": null,
    "office_name": null,
    "office_name_kana": null
  },
  "2107": {
    "postcode": "8512107",
    "prefecture": "長崎県",
    "prefecture_kana": "ナガサキケン",
    "prefecture_code": 42,
    "city": "西彼杵郡時津町",
    "city_kana": "ニシソノギグントギツチョウ",
    "town": "久留里郷",
    "town_kana": "クルリゴウ",
    "street": null,
    "office_name": null,
    "office_name_kana": null
  },
  "2108": {
    "postcode": "8512108",
    "prefecture": "長崎県",
    "prefecture_kana": "ナガサキケン",
    "prefecture_code": 42,
    "city": "西彼杵郡時津町",
    "city_kana": "ニシソノギグントギツチョウ",
    "town": "日並郷",
    "town_kana": "ヒナミゴウ",
    "street": null,
    "office_name": null,
    "office_name_kana": null
  },
  "2111": {
    "postcode": "8512111",
    "prefecture": "長崎県",
    "prefecture_kana": "ナガサキケン",
    "prefecture_code": 42,
    "city": "西彼杵郡時津町",
    "city_kana": "ニシソノギグントギツチョウ",
    "town": "子々川郷",
    "town_kana": "シシガワゴウ",
    "street": null,
    "office_name": null,
    "office_name_kana": null
  },
  "2121": {
    "postcode": "8512121",
    "prefecture": "長崎県",
    "prefecture_kana": "ナガサキケン",
    "prefecture_code": 42,
    "city": "西彼杵郡長与町",
    "city_kana": "ニシソノギグンナガヨチョウ",
    "town": "岡郷",
    "town_kana": "オカゴウ",
    "street": null,
    "office_name": null,
    "office_name_kana": null
  },
  "2122": {
    "postcode": "8512122",
    "prefecture": "長崎県",
    "prefecture_kana": "ナガサキケン",
    "prefecture_code": 42,
    "city": "西彼杵郡長与町",
    "city_kana": "ニシソノギグンナガヨチョウ",
    "town": "本川内郷",
    "town_kana": "ホンガワチゴウ",
    "street": null,
    "office_name": null,
    "office_name_kana": null
  },
  "2123": {
    "postcode": "8512123",
    "prefecture": "長崎県",
    "prefecture_kana": "ナガサキケン",
    "prefecture_code": 42,
    "city": "西彼杵郡長与町",
    "city_kana": "ニシソノギグンナガヨチョウ",
    "town": "平木場郷",
    "town_kana": "ヒラコバゴウ",
    "street": null,
    "office_name": null,
    "office_name_kana": null
  },
  "2124": {
    "postcode": "8512124",
    "prefecture": "長崎県",
    "prefecture_kana": "ナガサキケン",
    "prefecture_code": 42,
    "city": "西彼杵郡長与町",
    "city_kana": "ニシソノギグンナガヨチョウ",
    "town": "丸田郷",
    "town_kana": "マルタゴウ",
    "street": null,
    "office_name": null,
    "office_name_kana": null
  },
  "2125": {
    "postcode": "8512125",
    "prefecture": "長崎県",
    "prefecture_kana": "ナガサキケン",
    "prefecture_code": 42,
    "city": "西彼杵郡長与町",
    "city_kana": "ニシソノギグンナガヨチョウ",
    "town": "三根郷",
    "town_kana": "ミネゴウ",
    "street": null,
    "office_name": null,
    "office_name_kana": null
  },
  "2126": {
    "postcode": "8512126",
    "prefecture": "長崎県",
    "prefecture_kana": "ナガサキケン",
    "prefecture_code": 42,
    "city": "西彼杵郡長与町",
    "city_kana": "ニシソノギグンナガヨチョウ",
    "town": "吉無田郷",
    "town_kana": "ヨシムタゴウ",
    "street": null,
    "office_name": null,
    "office_name_kana": null
  },
  "2127": {
    "postcode": "8512127",
    "prefecture": "長崎県",
    "prefecture_kana": "ナガサキケン",
    "prefecture_code": 42,
    "city": "西彼杵郡長与町",
    "city_kana": "ニシソノギグンナガヨチョウ",
    "town": "高田郷",
    "town_kana": "コウダゴウ",
    "street": null,
    "office_name": null,
    "office_name_kana": null
  },
  "2128": {
    "postcode": "8512128",
    "prefecture": "長崎県",
    "prefecture_kana": "ナガサキケン",
    "prefecture_code": 42,
    "city": "西彼杵郡長与町",
    "city_kana": "ニシソノギグンナガヨチョウ",
    "town": "嬉里郷",
    "town_kana": "ウレリゴウ",
    "street": null,
    "office_name": null,
    "office_name_kana": null
  },
  "2129": {
    "postcode": "8512129",
    "prefecture": "長崎県",
    "prefecture_kana": "ナガサキケン",
    "prefecture_code": 42,
    "city": "西彼杵郡長与町",
    "city_kana": "ニシソノギグンナガヨチョウ",
    "town": "斉藤郷",
    "town_kana": "サイトウゴウ",
    "street": null,
    "office_name": null,
    "office_name_kana": null
  },
  "2130": {
    "postcode": "8512130",
    "prefecture": "長崎県",
    "prefecture_kana": "ナガサキケン",
    "prefecture_code": 42,
    "city": "西彼杵郡長与町",
    "city_kana": "ニシソノギグンナガヨチョウ",
    "town": "まなび野",
    "town_kana": "マナビノ",
    "street": null,
    "office_name": null,
    "office_name_kana": null
  },
  "2131": {
    "postcode": "8512131",
    "prefecture": "長崎県",
    "prefecture_kana": "ナガサキケン",
    "prefecture_code": 42,
    "city": "西彼杵郡長与町",
    "city_kana": "ニシソノギグンナガヨチョウ",
    "town": "北陽台",
    "town_kana": "ホクヨウダイ",
    "street": null,
    "office_name": null,
    "office_name_kana": null
  },
  "2185": {
    "postcode": "8512185",
    "prefecture": "長崎県",
    "prefecture_kana": "ナガサキケン",
    "prefecture_code": 42,
    "city": "西彼杵郡長与町",
    "city_kana": "ニシソノギグンナガヨチョウ",
    "town": "嬉里郷",
    "town_kana": "ウレリゴウ",
    "street": "６５９−１",
    "office_name": "長与町役場",
    "office_name_kana": "ナガヨチヨウヤクバ"
  },
  "2195": {
    "postcode": "8512195",
    "prefecture": "長崎県",
    "prefecture_kana": "ナガサキケン",
    "prefecture_code": 42,
    "city": "西彼杵郡長与町",
    "city_kana": "ニシソノギグンナガヨチョウ",
    "town": "まなび野",
    "town_kana": "マナビノ",
    "street": "１丁目１−１",
    "office_name": "県立　長崎シーボルト大学",
    "office_name_kana": "ケンリツ ナガサキシ-ボルトダイガク"
  },
  "2196": {
    "postcode": "8512196",
    "prefecture": "長崎県",
    "prefecture_kana": "ナガサキケン",
    "prefecture_code": 42,
    "city": "西彼杵郡時津町",
    "city_kana": "ニシソノギグントギツチョウ",
    "town": "元村郷",
    "town_kana": "モトムラゴウ",
    "street": "１０１０−１",
    "office_name": "長崎外国語大学",
    "office_name_kana": "ナガサキガイコクゴダイガク"
  },
  "2197": {
    "postcode": "8512197",
    "prefecture": "長崎県",
    "prefecture_kana": "ナガサキケン",
    "prefecture_code": 42,
    "city": "西彼杵郡時津町",
    "city_kana": "ニシソノギグントギツチョウ",
    "town": "左底郷",
    "town_kana": "サソコゴウ",
    "street": "２４５−２",
    "office_name": "学校法人　青雲学園（青雲高等学校．青雲中学校）",
    "office_name_kana": "ガツコウホウジン セイウンガクエン(セイウンコウトウガツコウ.セイウンチユウガツコウ)"
  },
  "2198": {
    "postcode": "8512198",
    "prefecture": "長崎県",
    "prefecture_kana": "ナガサキケン",
    "prefecture_code": 42,
    "city": "西彼杵郡時津町",
    "city_kana": "ニシソノギグントギツチョウ",
    "town": "浦郷",
    "town_kana": "ウラゴウ",
    "street": "２７４−１",
    "office_name": "時津町役場",
    "office_name_kana": "トギツチヨウヤクバ"
  },
  "2201": {
    "postcode": "8512201",
    "prefecture": "長崎県",
    "prefecture_kana": "ナガサキケン",
    "prefecture_code": 42,
    "city": "長崎市",
    "city_kana": "ナガサキシ",
    "town": "畦町",
    "town_kana": "アゼマチ",
    "street": null,
    "office_name": null,
    "office_name_kana": null
  },
  "2202": {
    "postcode": "8512202",
    "prefecture": "長崎県",
    "prefecture_kana": "ナガサキケン",
    "prefecture_code": 42,
    "city": "長崎市",
    "city_kana": "ナガサキシ",
    "town": "樫山町",
    "town_kana": "カシヤママチ",
    "street": null,
    "office_name": null,
    "office_name_kana": null
  },
  "2203": {
    "postcode": "8512203",
    "prefecture": "長崎県",
    "prefecture_kana": "ナガサキケン",
    "prefecture_code": 42,
    "city": "長崎市",
    "city_kana": "ナガサキシ",
    "town": "三重田町",
    "town_kana": "ミエダマチ",
    "street": null,
    "office_name": null,
    "office_name_kana": null
  },
  "2204": {
    "postcode": "8512204",
    "prefecture": "長崎県",
    "prefecture_kana": "ナガサキケン",
    "prefecture_code": 42,
    "city": "長崎市",
    "city_kana": "ナガサキシ",
    "town": "三重町",
    "town_kana": "ミエマチ",
    "street": null,
    "office_name": null,
    "office_name_kana": null
  },
  "2205": {
    "postcode": "8512205",
    "prefecture": "長崎県",
    "prefecture_kana": "ナガサキケン",
    "prefecture_code": 42,
    "city": "長崎市",
    "city_kana": "ナガサキシ",
    "town": "松崎町",
    "town_kana": "マツザキマチ",
    "street": null,
    "office_name": null,
    "office_name_kana": null
  },
  "2206": {
    "postcode": "8512206",
    "prefecture": "長崎県",
    "prefecture_kana": "ナガサキケン",
    "prefecture_code": 42,
    "city": "長崎市",
    "city_kana": "ナガサキシ",
    "town": "三京町",
    "town_kana": "サンキョウマチ",
    "street": null,
    "office_name": null,
    "office_name_kana": null
  },
  "2207": {
    "postcode": "8512207",
    "prefecture": "長崎県",
    "prefecture_kana": "ナガサキケン",
    "prefecture_code": 42,
    "city": "長崎市",
    "city_kana": "ナガサキシ",
    "town": "さくらの里",
    "town_kana": "サクラノサト",
    "street": null,
    "office_name": null,
    "office_name_kana": null
  },
  "2211": {
    "postcode": "8512211",
    "prefecture": "長崎県",
    "prefecture_kana": "ナガサキケン",
    "prefecture_code": 42,
    "city": "長崎市",
    "city_kana": "ナガサキシ",
    "town": "京泊",
    "town_kana": "キョウドマリ",
    "street": null,
    "office_name": null,
    "office_name_kana": null
  },
  "2212": {
    "postcode": "8512212",
    "prefecture": "長崎県",
    "prefecture_kana": "ナガサキケン",
    "prefecture_code": 42,
    "city": "長崎市",
    "city_kana": "ナガサキシ",
    "town": "畝刈町",
    "town_kana": "アゼカリマチ",
    "street": null,
    "office_name": null,
    "office_name_kana": null
  },
  "2213": {
    "postcode": "8512213",
    "prefecture": "長崎県",
    "prefecture_kana": "ナガサキケン",
    "prefecture_code": 42,
    "city": "長崎市",
    "city_kana": "ナガサキシ",
    "town": "多以良町",
    "town_kana": "タイラマチ",
    "street": null,
    "office_name": null,
    "office_name_kana": null
  },
  "2214": {
    "postcode": "8512214",
    "prefecture": "長崎県",
    "prefecture_kana": "ナガサキケン",
    "prefecture_code": 42,
    "city": "長崎市",
    "city_kana": "ナガサキシ",
    "town": "鳴見町",
    "town_kana": "ナルミマチ",
    "street": null,
    "office_name": null,
    "office_name_kana": null
  },
  "2215": {
    "postcode": "8512215",
    "prefecture": "長崎県",
    "prefecture_kana": "ナガサキケン",
    "prefecture_code": 42,
    "city": "長崎市",
    "city_kana": "ナガサキシ",
    "town": "鳴見台",
    "town_kana": "ナルミダイ",
    "street": null,
    "office_name": null,
    "office_name_kana": null
  },
  "2216": {
    "postcode": "8512216",
    "prefecture": "長崎県",
    "prefecture_kana": "ナガサキケン",
    "prefecture_code": 42,
    "city": "長崎市",
    "city_kana": "ナガサキシ",
    "town": "豊洋台",
    "town_kana": "ホウヨウダイ",
    "street": null,
    "office_name": null,
    "office_name_kana": null
  },
  "2292": {
    "postcode": "8512292",
    "prefecture": "長崎県",
    "prefecture_kana": "ナガサキケン",
    "prefecture_code": 42,
    "city": "長崎市",
    "city_kana": "ナガサキシ",
    "town": "京泊",
    "town_kana": "キョウドマリ",
    "street": "３丁目３−１",
    "office_name": "長崎魚市　株式会社",
    "office_name_kana": "ナガサキウオイチ カブシキガイシヤ"
  },
  "2298": {
    "postcode": "8512298",
    "prefecture": "長崎県",
    "prefecture_kana": "ナガサキケン",
    "prefecture_code": 42,
    "city": "長崎市",
    "city_kana": "ナガサキシ",
    "town": "京泊",
    "town_kana": "キョウドマリ",
    "street": "３丁目３−１",
    "office_name": "株式会社　ヤマス",
    "office_name_kana": "カブシキガイシヤ ヤマス"
  },
  "2321": {
    "postcode": "8512321",
    "prefecture": "長崎県",
    "prefecture_kana": "ナガサキケン",
    "prefecture_code": 42,
    "city": "長崎市",
    "city_kana": "ナガサキシ",
    "town": "赤首町",
    "town_kana": "アカクビマチ",
    "street": null,
    "office_name": null,
    "office_name_kana": null
  },
  "2322": {
    "postcode": "8512322",
    "prefecture": "長崎県",
    "prefecture_kana": "ナガサキケン",
    "prefecture_code": 42,
    "city": "長崎市",
    "city_kana": "ナガサキシ",
    "town": "西出津町",
    "town_kana": "ニシシツマチ",
    "street": null,
    "office_name": null,
    "office_name_kana": null
  },
  "2323": {
    "postcode": "8512323",
    "prefecture": "長崎県",
    "prefecture_kana": "ナガサキケン",
    "prefecture_code": 42,
    "city": "長崎市",
    "city_kana": "ナガサキシ",
    "town": "新牧野町",
    "town_kana": "シンマキノマチ",
    "street": null,
    "office_name": null,
    "office_name_kana": null
  },
  "2324": {
    "postcode": "8512324",
    "prefecture": "長崎県",
    "prefecture_kana": "ナガサキケン",
    "prefecture_code": 42,
    "city": "長崎市",
    "city_kana": "ナガサキシ",
    "town": "上黒崎町",
    "town_kana": "カミクロサキマチ",
    "street": null,
    "office_name": null,
    "office_name_kana": null
  },
  "2325": {
    "postcode": "8512325",
    "prefecture": "長崎県",
    "prefecture_kana": "ナガサキケン",
    "prefecture_code": 42,
    "city": "長崎市",
    "city_kana": "ナガサキシ",
    "town": "永田町",
    "town_kana": "ナガタマチ",
    "street": null,
    "office_name": null,
    "office_name_kana": null
  },
  "2326": {
    "postcode": "8512326",
    "prefecture": "長崎県",
    "prefecture_kana": "ナガサキケン",
    "prefecture_code": 42,
    "city": "長崎市",
    "city_kana": "ナガサキシ",
    "town": "下黒崎町",
    "town_kana": "シモクロサキマチ",
    "street": null,
    "office_name": null,
    "office_name_kana": null
  },
  "2327": {
    "postcode": "8512327",
    "prefecture": "長崎県",
    "prefecture_kana": "ナガサキケン",
    "prefecture_code": 42,
    "city": "長崎市",
    "city_kana": "ナガサキシ",
    "town": "東出津町",
    "town_kana": "ヒガシシツマチ",
    "street": null,
    "office_name": null,
    "office_name_kana": null
  },
  "2401": {
    "postcode": "8512401",
    "prefecture": "長崎県",
    "prefecture_kana": "ナガサキケン",
    "prefecture_code": 42,
    "city": "長崎市",
    "city_kana": "ナガサキシ",
    "town": "神浦口福町",
    "town_kana": "コウノウラクチブクマチ",
    "street": null,
    "office_name": null,
    "office_name_kana": null
  },
  "2403": {
    "postcode": "8512403",
    "prefecture": "長崎県",
    "prefecture_kana": "ナガサキケン",
    "prefecture_code": 42,
    "city": "長崎市",
    "city_kana": "ナガサキシ",
    "town": "神浦江川町",
    "town_kana": "コウノウラエガワマチ",
    "street": null,
    "office_name": null,
    "office_name_kana": null
  },
  "2404": {
    "postcode": "8512404",
    "prefecture": "長崎県",
    "prefecture_kana": "ナガサキケン",
    "prefecture_code": 42,
    "city": "長崎市",
    "city_kana": "ナガサキシ",
    "town": "神浦丸尾町",
    "town_kana": "コウノウラマルオマチ",
    "street": null,
    "office_name": null,
    "office_name_kana": null
  },
  "2405": {
    "postcode": "8512405",
    "prefecture": "長崎県",
    "prefecture_kana": "ナガサキケン",
    "prefecture_code": 42,
    "city": "長崎市",
    "city_kana": "ナガサキシ",
    "town": "神浦向町",
    "town_kana": "コウノウラムカイマチ",
    "street": null,
    "office_name": null,
    "office_name_kana": null
  },
  "2411": {
    "postcode": "8512411",
    "prefecture": "長崎県",
    "prefecture_kana": "ナガサキケン",
    "prefecture_code": 42,
    "city": "長崎市",
    "city_kana": "ナガサキシ",
    "town": "神浦扇山町",
    "town_kana": "コウノウラオオギヤママチ",
    "street": null,
    "office_name": null,
    "office_name_kana": null
  },
  "2413": {
    "postcode": "8512413",
    "prefecture": "長崎県",
    "prefecture_kana": "ナガサキケン",
    "prefecture_code": 42,
    "city": "長崎市",
    "city_kana": "ナガサキシ",
    "town": "神浦夏井町",
    "town_kana": "コウノウラナツイマチ",
    "street": null,
    "office_name": null,
    "office_name_kana": null
  },
  "2421": {
    "postcode": "8512421",
    "prefecture": "長崎県",
    "prefecture_kana": "ナガサキケン",
    "prefecture_code": 42,
    "city": "長崎市",
    "city_kana": "ナガサキシ",
    "town": "神浦北大中尾町",
    "town_kana": "コウノウラキタオオナカオマチ",
    "street": null,
    "office_name": null,
    "office_name_kana": null
  },
  "2422": {
    "postcode": "8512422",
    "prefecture": "長崎県",
    "prefecture_kana": "ナガサキケン",
    "prefecture_code": 42,
    "city": "長崎市",
    "city_kana": "ナガサキシ",
    "town": "神浦上大中尾町",
    "town_kana": "コウノウラカミオオナカオマチ",
    "street": null,
    "office_name": null,
    "office_name_kana": null
  },
  "2423": {
    "postcode": "8512423",
    "prefecture": "長崎県",
    "prefecture_kana": "ナガサキケン",
    "prefecture_code": 42,
    "city": "長崎市",
    "city_kana": "ナガサキシ",
    "town": "神浦下大中尾町",
    "town_kana": "コウノウラシモオオナカオマチ",
    "street": null,
    "office_name": null,
    "office_name_kana": null
  },
  "2424": {
    "postcode": "8512424",
    "prefecture": "長崎県",
    "prefecture_kana": "ナガサキケン",
    "prefecture_code": 42,
    "city": "長崎市",
    "city_kana": "ナガサキシ",
    "town": "神浦上道徳町",
    "town_kana": "コウノウラカミドウトクマチ",
    "street": null,
    "office_name": null,
    "office_name_kana": null
  },
  "2425": {
    "postcode": "8512425",
    "prefecture": "長崎県",
    "prefecture_kana": "ナガサキケン",
    "prefecture_code": 42,
    "city": "長崎市",
    "city_kana": "ナガサキシ",
    "town": "神浦下道徳町",
    "town_kana": "コウノウラシモドウトクマチ",
    "street": null,
    "office_name": null,
    "office_name_kana": null
  },
  "2426": {
    "postcode": "8512426",
    "prefecture": "長崎県",
    "prefecture_kana": "ナガサキケン",
    "prefecture_code": 42,
    "city": "長崎市",
    "city_kana": "ナガサキシ",
    "town": "上大野町",
    "town_kana": "カミオオノマチ",
    "street": null,
    "office_name": null,
    "office_name_kana": null
  },
  "2427": {
    "postcode": "8512427",
    "prefecture": "長崎県",
    "prefecture_kana": "ナガサキケン",
    "prefecture_code": 42,
    "city": "長崎市",
    "city_kana": "ナガサキシ",
    "town": "下大野町",
    "town_kana": "シモオオノマチ",
    "street": null,
    "office_name": null,
    "office_name_kana": null
  },
  "2492": {
    "postcode": "8512492",
    "prefecture": "長崎県",
    "prefecture_kana": "ナガサキケン",
    "prefecture_code": 42,
    "city": "長崎市",
    "city_kana": "ナガサキシ",
    "town": "神浦夏井町",
    "town_kana": "コウノウラナツイマチ",
    "street": "３９１",
    "office_name": "長崎市役所　外海行政センター",
    "office_name_kana": "ナガサキシヤクシヨ ソトメギヨウセイセンタ-"
  },
  "3101": {
    "postcode": "8513101",
    "prefecture": "長崎県",
    "prefecture_kana": "ナガサキケン",
    "prefecture_code": 42,
    "city": "長崎市",
    "city_kana": "ナガサキシ",
    "town": "西海町",
    "town_kana": "ニシウミマチ",
    "street": null,
    "office_name": null,
    "office_name_kana": null
  },
  "3102": {
    "postcode": "8513102",
    "prefecture": "長崎県",
    "prefecture_kana": "ナガサキケン",
    "prefecture_code": 42,
    "city": "長崎市",
    "city_kana": "ナガサキシ",
    "town": "琴海村松町",
    "town_kana": "キンカイムラマツマチ",
    "street": null,
    "office_name": null,
    "office_name_kana": null
  },
  "3103": {
    "postcode": "8513103",
    "prefecture": "長崎県",
    "prefecture_kana": "ナガサキケン",
    "prefecture_code": 42,
    "city": "長崎市",
    "city_kana": "ナガサキシ",
    "town": "琴海戸根町",
    "town_kana": "キンカイトネマチ",
    "street": null,
    "office_name": null,
    "office_name_kana": null
  },
  "3211": {
    "postcode": "8513211",
    "prefecture": "長崎県",
    "prefecture_kana": "ナガサキケン",
    "prefecture_code": 42,
    "city": "長崎市",
    "city_kana": "ナガサキシ",
    "town": "琴海戸根原町",
    "town_kana": "キンカイトネハラマチ",
    "street": null,
    "office_name": null,
    "office_name_kana": null
  },
  "3212": {
    "postcode": "8513212",
    "prefecture": "長崎県",
    "prefecture_kana": "ナガサキケン",
    "prefecture_code": 42,
    "city": "長崎市",
    "city_kana": "ナガサキシ",
    "town": "長浦町",
    "town_kana": "ナガウラマチ",
    "street": null,
    "office_name": null,
    "office_name_kana": null
  },
  "3213": {
    "postcode": "8513213",
    "prefecture": "長崎県",
    "prefecture_kana": "ナガサキケン",
    "prefecture_code": 42,
    "city": "長崎市",
    "city_kana": "ナガサキシ",
    "town": "琴海形上町",
    "town_kana": "キンカイカタガミマチ",
    "street": null,
    "office_name": null,
    "office_name_kana": null
  },
  "3214": {
    "postcode": "8513214",
    "prefecture": "長崎県",
    "prefecture_kana": "ナガサキケン",
    "prefecture_code": 42,
    "city": "長崎市",
    "city_kana": "ナガサキシ",
    "town": "琴海大平町",
    "town_kana": "キンカイオオヒラマチ",
    "street": null,
    "office_name": null,
    "office_name_kana": null
  },
  "3215": {
    "postcode": "8513215",
    "prefecture": "長崎県",
    "prefecture_kana": "ナガサキケン",
    "prefecture_code": 42,
    "city": "長崎市",
    "city_kana": "ナガサキシ",
    "town": "琴海尾戸町",
    "town_kana": "キンカイオドマチ",
    "street": null,
    "office_name": null,
    "office_name_kana": null
  },
  "3292": {
    "postcode": "8513292",
    "prefecture": "長崎県",
    "prefecture_kana": "ナガサキケン",
    "prefecture_code": 42,
    "city": "長崎市",
    "city_kana": "ナガサキシ",
    "town": "長浦町",
    "town_kana": "ナガウラマチ",
    "street": "２６６４",
    "office_name": "長崎市役所　琴海行政センター",
    "office_name_kana": "ナガサキシヤクシヨ キンカイギヨウセイセンタ-"
  },
  "3301": {
    "postcode": "8513301",
    "prefecture": "長崎県",
    "prefecture_kana": "ナガサキケン",
    "prefecture_code": 42,
    "city": "西海市",
    "city_kana": "サイカイシ",
    "town": "西彼町宮浦郷",
    "town_kana": "セイヒチョウミヤウラゴウ",
    "street": null,
    "office_name": null,
    "office_name_kana": null
  },
  "3302": {
    "postcode": "8513302",
    "prefecture": "長崎県",
    "prefecture_kana": "ナガサキケン",
    "prefecture_code": 42,
    "city": "西海市",
    "city_kana": "サイカイシ",
    "town": "西彼町中山郷",
    "town_kana": "セイヒチョウナカヤマゴウ",
    "street": null,
    "office_name": null,
    "office_name_kana": null
  },
  "3303": {
    "postcode": "8513303",
    "prefecture": "長崎県",
    "prefecture_kana": "ナガサキケン",
    "prefecture_code": 42,
    "city": "西海市",
    "city_kana": "サイカイシ",
    "town": "西彼町亀浦郷",
    "town_kana": "セイヒチョウカメウラゴウ",
    "street": null,
    "office_name": null,
    "office_name_kana": null
  },
  "3304": {
    "postcode": "8513304",
    "prefecture": "長崎県",
    "prefecture_kana": "ナガサキケン",
    "prefecture_code": 42,
    "city": "西海市",
    "city_kana": "サイカイシ",
    "town": "西彼町上岳郷",
    "town_kana": "セイヒチョウカミダケゴウ",
    "street": null,
    "office_name": null,
    "office_name_kana": null
  },
  "3305": {
    "postcode": "8513305",
    "prefecture": "長崎県",
    "prefecture_kana": "ナガサキケン",
    "prefecture_code": 42,
    "city": "西海市",
    "city_kana": "サイカイシ",
    "town": "西彼町喰場郷",
    "town_kana": "セイヒチョウジキバゴウ",
    "street": null,
    "office_name": null,
    "office_name_kana": null
  },
  "3306": [
    {
      "postcode": "8513306",
      "prefecture": "長崎県",
      "prefecture_kana": "ナガサキケン",
      "prefecture_code": 42,
      "city": "西海市",
      "city_kana": "サイカイシ",
      "town": "西彼町鳥加郷",
      "town_kana": "セイヒチョウトリカゴウ",
      "street": null,
      "office_name": null,
      "office_name_kana": null
    },
    {
      "postcode": "8513306",
      "prefecture": "長崎県",
      "prefecture_kana": "ナガサキケン",
      "prefecture_code": 42,
      "city": "西海市",
      "city_kana": "サイカイシ",
      "town": "西彼町鳥加郷川山",
      "town_kana": "セイヒチョウトリカゴウカワヤマ",
      "street": null,
      "office_name": null,
      "office_name_kana": null
    }
  ],
  "3311": {
    "postcode": "8513311",
    "prefecture": "長崎県",
    "prefecture_kana": "ナガサキケン",
    "prefecture_code": 42,
    "city": "西海市",
    "city_kana": "サイカイシ",
    "town": "西彼町下岳郷",
    "town_kana": "セイヒチョウシモタケゴウ",
    "street": null,
    "office_name": null,
    "office_name_kana": null
  },
  "3312": {
    "postcode": "8513312",
    "prefecture": "長崎県",
    "prefecture_kana": "ナガサキケン",
    "prefecture_code": 42,
    "city": "西海市",
    "city_kana": "サイカイシ",
    "town": "西彼町白崎郷",
    "town_kana": "セイヒチョウシロサキゴウ",
    "street": null,
    "office_name": null,
    "office_name_kana": null
  },
  "3313": {
    "postcode": "8513313",
    "prefecture": "長崎県",
    "prefecture_kana": "ナガサキケン",
    "prefecture_code": 42,
    "city": "西海市",
    "city_kana": "サイカイシ",
    "town": "西彼町風早郷",
    "town_kana": "セイヒチョウカザハヤゴウ",
    "street": null,
    "office_name": null,
    "office_name_kana": null
  },
  "3314": {
    "postcode": "8513314",
    "prefecture": "長崎県",
    "prefecture_kana": "ナガサキケン",
    "prefecture_code": 42,
    "city": "西海市",
    "city_kana": "サイカイシ",
    "town": "西彼町白似田郷",
    "town_kana": "セイヒチョウシラニタゴウ",
    "street": null,
    "office_name": null,
    "office_name_kana": null
  },
  "3315": {
    "postcode": "8513315",
    "prefecture": "長崎県",
    "prefecture_kana": "ナガサキケン",
    "prefecture_code": 42,
    "city": "西海市",
    "city_kana": "サイカイシ",
    "town": "西彼町平原郷",
    "town_kana": "セイヒチョウヒラバルゴウ",
    "street": null,
    "office_name": null,
    "office_name_kana": null
  },
  "3392": {
    "postcode": "8513392",
    "prefecture": "長崎県",
    "prefecture_kana": "ナガサキケン",
    "prefecture_code": 42,
    "city": "西海市",
    "city_kana": "サイカイシ",
    "town": "西彼町喰場郷",
    "town_kana": "セイヒチョウジキバゴウ",
    "street": "７３６",
    "office_name": "西海市役所　西彼総合支所",
    "office_name_kana": "サイカイシヤクシヨ セイヒソウゴウシシヨ"
  },
  "3394": {
    "postcode": "8513394",
    "prefecture": "長崎県",
    "prefecture_kana": "ナガサキケン",
    "prefecture_code": 42,
    "city": "西海市",
    "city_kana": "サイカイシ",
    "town": "西彼町喰場郷",
    "town_kana": "セイヒチョウジキバゴウ",
    "street": "１５６７",
    "office_name": "宗教法人　「生長の家」総本山",
    "office_name_kana": "シユウキヨウホウジン セイチヨウノイエ ソウホンザン"
  },
  "3406": {
    "postcode": "8513406",
    "prefecture": "長崎県",
    "prefecture_kana": "ナガサキケン",
    "prefecture_code": 42,
    "city": "西海市",
    "city_kana": "サイカイシ",
    "town": "西彼町鳥加郷",
    "town_kana": "セイヒチョウトリカゴウ",
    "street": null,
    "office_name": null,
    "office_name_kana": null
  },
  "3421": {
    "postcode": "8513421",
    "prefecture": "長崎県",
    "prefecture_kana": "ナガサキケン",
    "prefecture_code": 42,
    "city": "西海市",
    "city_kana": "サイカイシ",
    "town": "西彼町伊ノ浦郷",
    "town_kana": "セイヒチョウイノウラゴウ",
    "street": null,
    "office_name": null,
    "office_name_kana": null
  },
  "3422": {
    "postcode": "8513422",
    "prefecture": "長崎県",
    "prefecture_kana": "ナガサキケン",
    "prefecture_code": 42,
    "city": "西海市",
    "city_kana": "サイカイシ",
    "town": "西彼町小迎郷",
    "town_kana": "セイヒチョウコムカエゴウ",
    "street": null,
    "office_name": null,
    "office_name_kana": null
  },
  "3423": {
    "postcode": "8513423",
    "prefecture": "長崎県",
    "prefecture_kana": "ナガサキケン",
    "prefecture_code": 42,
    "city": "西海市",
    "city_kana": "サイカイシ",
    "town": "西彼町八木原郷",
    "town_kana": "セイヒチョウヤキハラゴウ",
    "street": null,
    "office_name": null,
    "office_name_kana": null
  },
  "3424": {
    "postcode": "8513424",
    "prefecture": "長崎県",
    "prefecture_kana": "ナガサキケン",
    "prefecture_code": 42,
    "city": "西海市",
    "city_kana": "サイカイシ",
    "town": "西彼町大串郷",
    "town_kana": "セイヒチョウオオクシゴウ",
    "street": null,
    "office_name": null,
    "office_name_kana": null
  },
  "3425": {
    "postcode": "8513425",
    "prefecture": "長崎県",
    "prefecture_kana": "ナガサキケン",
    "prefecture_code": 42,
    "city": "西海市",
    "city_kana": "サイカイシ",
    "town": "西彼町平山郷",
    "town_kana": "セイヒチョウヒラヤマゴウ",
    "street": null,
    "office_name": null,
    "office_name_kana": null
  },
  "3500": {
    "postcode": "8513500",
    "prefecture": "長崎県",
    "prefecture_kana": "ナガサキケン",
    "prefecture_code": 42,
    "city": "西海市",
    "city_kana": "サイカイシ",
    "town": "",
    "town_kana": "",
    "street": null,
    "office_name": null,
    "office_name_kana": null
  },
  "3501": {
    "postcode": "8513501",
    "prefecture": "長崎県",
    "prefecture_kana": "ナガサキケン",
    "prefecture_code": 42,
    "city": "西海市",
    "city_kana": "サイカイシ",
    "town": "西海町丹納郷",
    "town_kana": "サイカイチョウタンノウゴウ",
    "street": null,
    "office_name": null,
    "office_name_kana": null
  },
  "3502": {
    "postcode": "8513502",
    "prefecture": "長崎県",
    "prefecture_kana": "ナガサキケン",
    "prefecture_code": 42,
    "city": "西海市",
    "city_kana": "サイカイシ",
    "town": "西海町川内郷",
    "town_kana": "サイカイチョウカワチゴウ",
    "street": null,
    "office_name": null,
    "office_name_kana": null
  },
  "3503": {
    "postcode": "8513503",
    "prefecture": "長崎県",
    "prefecture_kana": "ナガサキケン",
    "prefecture_code": 42,
    "city": "西海市",
    "city_kana": "サイカイシ",
    "town": "西海町太田原郷",
    "town_kana": "サイカイチョウオオタハラゴウ",
    "street": null,
    "office_name": null,
    "office_name_kana": null
  },
  "3504": {
    "postcode": "8513504",
    "prefecture": "長崎県",
    "prefecture_kana": "ナガサキケン",
    "prefecture_code": 42,
    "city": "西海市",
    "city_kana": "サイカイシ",
    "town": "西海町木場郷",
    "town_kana": "サイカイチョウコバゴウ",
    "street": null,
    "office_name": null,
    "office_name_kana": null
  },
  "3505": {
    "postcode": "8513505",
    "prefecture": "長崎県",
    "prefecture_kana": "ナガサキケン",
    "prefecture_code": 42,
    "city": "西海市",
    "city_kana": "サイカイシ",
    "town": "西海町太田和郷",
    "town_kana": "サイカイチョウオオタワゴウ",
    "street": null,
    "office_name": null,
    "office_name_kana": null
  },
  "3506": {
    "postcode": "8513506",
    "prefecture": "長崎県",
    "prefecture_kana": "ナガサキケン",
    "prefecture_code": 42,
    "city": "西海市",
    "city_kana": "サイカイシ",
    "town": "西海町黒口郷",
    "town_kana": "サイカイチョウクロクチゴウ",
    "street": null,
    "office_name": null,
    "office_name_kana": null
  },
  "3507": {
    "postcode": "8513507",
    "prefecture": "長崎県",
    "prefecture_kana": "ナガサキケン",
    "prefecture_code": 42,
    "city": "西海市",
    "city_kana": "サイカイシ",
    "town": "西海町天久保郷",
    "town_kana": "サイカイチョウアマクボゴウ",
    "street": null,
    "office_name": null,
    "office_name_kana": null
  },
  "3508": {
    "postcode": "8513508",
    "prefecture": "長崎県",
    "prefecture_kana": "ナガサキケン",
    "prefecture_code": 42,
    "city": "西海市",
    "city_kana": "サイカイシ",
    "town": "西海町面高郷",
    "town_kana": "サイカイチョウオモダカゴウ",
    "street": null,
    "office_name": null,
    "office_name_kana": null
  },
  "3509": {
    "postcode": "8513509",
    "prefecture": "長崎県",
    "prefecture_kana": "ナガサキケン",
    "prefecture_code": 42,
    "city": "西海市",
    "city_kana": "サイカイシ",
    "town": "西海町横瀬郷",
    "town_kana": "サイカイチョウヨコセゴウ",
    "street": null,
    "office_name": null,
    "office_name_kana": null
  },
  "3511": {
    "postcode": "8513511",
    "prefecture": "長崎県",
    "prefecture_kana": "ナガサキケン",
    "prefecture_code": 42,
    "city": "西海市",
    "city_kana": "サイカイシ",
    "town": "西海町水浦郷",
    "town_kana": "サイカイチョウミズノウラゴウ",
    "street": null,
    "office_name": null,
    "office_name_kana": null
  },
  "3592": {
    "postcode": "8513592",
    "prefecture": "長崎県",
    "prefecture_kana": "ナガサキケン",
    "prefecture_code": 42,
    "city": "西海市",
    "city_kana": "サイカイシ",
    "town": "西海町木場郷",
    "town_kana": "サイカイチョウコバゴウ",
    "street": "２２３５",
    "office_name": "西海市役所　西海総合支所",
    "office_name_kana": "サイカイシヤクシヨ サイカイソウゴウシシヨ"
  }
}