{
  "8001": {
    "postcode": "8528001",
    "prefecture": "長崎県",
    "prefecture_kana": "ナガサキケン",
    "prefecture_code": 42,
    "city": "長崎市",
    "city_kana": "ナガサキシ",
    "town": "光町",
    "town_kana": "ヒカリマチ",
    "street": null,
    "office_name": null,
    "office_name_kana": null
  },
  "8002": {
    "postcode": "8528002",
    "prefecture": "長崎県",
    "prefecture_kana": "ナガサキケン",
    "prefecture_code": 42,
    "city": "長崎市",
    "city_kana": "ナガサキシ",
    "town": "弁天町",
    "town_kana": "ベンテンマチ",
    "street": null,
    "office_name": null,
    "office_name_kana": null
  },
  "8003": {
    "postcode": "8528003",
    "prefecture": "長崎県",
    "prefecture_kana": "ナガサキケン",
    "prefecture_code": 42,
    "city": "長崎市",
    "city_kana": "ナガサキシ",
    "town": "旭町",
    "town_kana": "アサヒマチ",
    "street": null,
    "office_name": null,
    "office_name_kana": null
  },
  "8004": {
    "postcode": "8528004",
    "prefecture": "長崎県",
    "prefecture_kana": "ナガサキケン",
    "prefecture_code": 42,
    "city": "長崎市",
    "city_kana": "ナガサキシ",
    "town": "丸尾町",
    "town_kana": "マルオマチ",
    "street": null,
    "office_name": null,
    "office_name_kana": null
  },
  "8005": {
    "postcode": "8528005",
    "prefecture": "長崎県",
    "prefecture_kana": "ナガサキケン",
    "prefecture_code": 42,
    "city": "長崎市",
    "city_kana": "ナガサキシ",
    "town": "大鳥町",
    "town_kana": "オオトリマチ",
    "street": null,
    "office_name": null,
    "office_name_kana": null
  },
  "8006": {
    "postcode": "8528006",
    "prefecture": "長崎県",
    "prefecture_kana": "ナガサキケン",
    "prefecture_code": 42,
    "city": "長崎市",
    "city_kana": "ナガサキシ",
    "town": "平戸小屋町",
    "town_kana": "ヒラドゴヤマチ",
    "street": null,
    "office_name": null,
    "office_name_kana": null
  },
  "8007": {
    "postcode": "8528007",
    "prefecture": "長崎県",
    "prefecture_kana": "ナガサキケン",
    "prefecture_code": 42,
    "city": "長崎市",
    "city_kana": "ナガサキシ",
    "town": "江の浦町",
    "town_kana": "エノウラマチ",
    "street": null,
    "office_name": null,
    "office_name_kana": null
  },
  "8008": {
    "postcode": "8528008",
    "prefecture": "長崎県",
    "prefecture_kana": "ナガサキケン",
    "prefecture_code": 42,
    "city": "長崎市",
    "city_kana": "ナガサキシ",
    "town": "曙町",
    "town_kana": "アケボノマチ",
    "street": null,
    "office_name": null,
    "office_name_kana": null
  },
  "8011": {
    "postcode": "8528011",
    "prefecture": "長崎県",
    "prefecture_kana": "ナガサキケン",
    "prefecture_code": 42,
    "city": "長崎市",
    "city_kana": "ナガサキシ",
    "town": "稲佐町",
    "town_kana": "イナサマチ",
    "street": null,
    "office_name": null,
    "office_name_kana": null
  },
  "8012": {
    "postcode": "8528012",
    "prefecture": "長崎県",
    "prefecture_kana": "ナガサキケン",
    "prefecture_code": 42,
    "city": "長崎市",
    "city_kana": "ナガサキシ",
    "town": "淵町",
    "town_kana": "フチマチ",
    "street": null,
    "office_name": null,
    "office_name_kana": null
  },
  "8013": {
    "postcode": "8528013",
    "prefecture": "長崎県",
    "prefecture_kana": "ナガサキケン",
    "prefecture_code": 42,
    "city": "長崎市",
    "city_kana": "ナガサキシ",
    "town": "梁川町",
    "town_kana": "ヤナガワマチ",
    "street": null,
    "office_name": null,
    "office_name_kana": null
  },
  "8014": {
    "postcode": "8528014",
    "prefecture": "長崎県",
    "prefecture_kana": "ナガサキケン",
    "prefecture_code": 42,
    "city": "長崎市",
    "city_kana": "ナガサキシ",
    "town": "竹の久保町",
    "town_kana": "タケノクボマチ",
    "street": null,
    "office_name": null,
    "office_name_kana": null
  },
  "8015": {
    "postcode": "8528015",
    "prefecture": "長崎県",
    "prefecture_kana": "ナガサキケン",
    "prefecture_code": 42,
    "city": "長崎市",
    "city_kana": "ナガサキシ",
    "town": "春木町",
    "town_kana": "ハルキマチ",
    "street": null,
    "office_name": null,
    "office_name_kana": null
  },
  "8016": {
    "postcode": "8528016",
    "prefecture": "長崎県",
    "prefecture_kana": "ナガサキケン",
    "prefecture_code": 42,
    "city": "長崎市",
    "city_kana": "ナガサキシ",
    "town": "宝栄町",
    "town_kana": "ホウエイマチ",
    "street": null,
    "office_name": null,
    "office_name_kana": null
  },
  "8017": {
    "postcode": "8528017",
    "prefecture": "長崎県",
    "prefecture_kana": "ナガサキケン",
    "prefecture_code": 42,
    "city": "長崎市",
    "city_kana": "ナガサキシ",
    "town": "岩見町",
    "town_kana": "イワミマチ",
    "street": null,
    "office_name": null,
    "office_name_kana": null
  },
  "8021": {
    "postcode": "8528021",
    "prefecture": "長崎県",
    "prefecture_kana": "ナガサキケン",
    "prefecture_code": 42,
    "city": "長崎市",
    "city_kana": "ナガサキシ",
    "town": "城山町",
    "town_kana": "シロヤママチ",
    "street": null,
    "office_name": null,
    "office_name_kana": null
  },
  "8022": {
    "postcode": "8528022",
    "prefecture": "長崎県",
    "prefecture_kana": "ナガサキケン",
    "prefecture_code": 42,
    "city": "長崎市",
    "city_kana": "ナガサキシ",
    "town": "富士見町",
    "town_kana": "フジミマチ",
    "street": null,
    "office_name": null,
    "office_name_kana": null
  },
  "8023": {
    "postcode": "8528023",
    "prefecture": "長崎県",
    "prefecture_kana": "ナガサキケン",
    "prefecture_code": 42,
    "city": "長崎市",
    "city_kana": "ナガサキシ",
    "town": "若草町",
    "town_kana": "ワカクサマチ",
    "street": null,
    "office_name": null,
    "office_name_kana": null
  },
  "8024": {
    "postcode": "8528024",
    "prefecture": "長崎県",
    "prefecture_kana": "ナガサキケン",
    "prefecture_code": 42,
    "city": "長崎市",
    "city_kana": "ナガサキシ",
    "town": "花園町",
    "town_kana": "ハナゾノマチ",
    "street": null,
    "office_name": null,
    "office_name_kana": null
  },
  "8025": {
    "postcode": "8528025",
    "prefecture": "長崎県",
    "prefecture_kana": "ナガサキケン",
    "prefecture_code": 42,
    "city": "長崎市",
    "city_kana": "ナガサキシ",
    "town": "立岩町",
    "town_kana": "タテイワマチ",
    "street": null,
    "office_name": null,
    "office_name_kana": null
  },
  "8026": {
    "postcode": "8528026",
    "prefecture": "長崎県",
    "prefecture_kana": "ナガサキケン",
    "prefecture_code": 42,
    "city": "長崎市",
    "city_kana": "ナガサキシ",
    "town": "金堀町",
    "town_kana": "カナホリマチ",
    "street": null,
    "office_name": null,
    "office_name_kana": null
  },
  "8027": {
    "postcode": "8528027",
    "prefecture": "長崎県",
    "prefecture_kana": "ナガサキケン",
    "prefecture_code": 42,
    "city": "長崎市",
    "city_kana": "ナガサキシ",
    "town": "城山台",
    "town_kana": "シロヤマダイ",
    "street": null,
    "office_name": null,
    "office_name_kana": null
  },
  "8031": {
    "postcode": "8528031",
    "prefecture": "長崎県",
    "prefecture_kana": "ナガサキケン",
    "prefecture_code": 42,
    "city": "長崎市",
    "city_kana": "ナガサキシ",
    "town": "三芳町",
    "town_kana": "ミヨシマチ",
    "street": null,
    "office_name": null,
    "office_name_kana": null
  },
  "8032": {
    "postcode": "8528032",
    "prefecture": "長崎県",
    "prefecture_kana": "ナガサキケン",
    "prefecture_code": 42,
    "city": "長崎市",
    "city_kana": "ナガサキシ",
    "town": "江里町",
    "town_kana": "エリマチ",
    "street": null,
    "office_name": null,
    "office_name_kana": null
  },
  "8033": {
    "postcode": "8528033",
    "prefecture": "長崎県",
    "prefecture_kana": "ナガサキケン",
    "prefecture_code": 42,
    "city": "長崎市",
    "city_kana": "ナガサキシ",
    "town": "緑が丘町",
    "town_kana": "ミドリガオカマチ",
    "street": null,
    "office_name": null,
    "office_name_kana": null
  },
  "8034": {
    "postcode": "8528034",
    "prefecture": "長崎県",
    "prefecture_kana": "ナガサキケン",
    "prefecture_code": 42,
    "city": "長崎市",
    "city_kana": "ナガサキシ",
    "town": "城栄町",
    "town_kana": "ジョウエイマチ",
    "street": null,
    "office_name": null,
    "office_name_kana": null
  },
  "8035": {
    "postcode": "8528035",
    "prefecture": "長崎県",
    "prefecture_kana": "ナガサキケン",
    "prefecture_code": 42,
    "city": "長崎市",
    "city_kana": "ナガサキシ",
    "town": "油木町",
    "town_kana": "アブラギマチ",
    "street": null,
    "office_name": null,
    "office_name_kana": null
  },
  "8036": {
    "postcode": "8528036",
    "prefecture": "長崎県",
    "prefecture_kana": "ナガサキケン",
    "prefecture_code": 42,
    "city": "長崎市",
    "city_kana": "ナガサキシ",
    "town": "青山町",
    "town_kana": "アオヤママチ",
    "street": null,
    "office_name": null,
    "office_name_kana": null
  },
  "8041": {
    "postcode": "8528041",
    "prefecture": "長崎県",
    "prefecture_kana": "ナガサキケン",
    "prefecture_code": 42,
    "city": "長崎市",
    "city_kana": "ナガサキシ",
    "town": "清水町",
    "town_kana": "シミズマチ",
    "street": null,
    "office_name": null,
    "office_name_kana": null
  },
  "8042": {
    "postcode": "8528042",
    "prefecture": "長崎県",
    "prefecture_kana": "ナガサキケン",
    "prefecture_code": 42,
    "city": "長崎市",
    "city_kana": "ナガサキシ",
    "town": "白鳥町",
    "town_kana": "シラトリマチ",
    "street": null,
    "office_name": null,
    "office_name_kana": null
  },
  "8043": {
    "postcode": "8528043",
    "prefecture": "長崎県",
    "prefecture_kana": "ナガサキケン",
    "prefecture_code": 42,
    "city": "長崎市",
    "city_kana": "ナガサキシ",
    "town": "西町",
    "town_kana": "ニシマチ",
    "street": null,
    "office_name": null,
    "office_name_kana": null
  },
  "8044": {
    "postcode": "8528044",
    "prefecture": "長崎県",
    "prefecture_kana": "ナガサキケン",
    "prefecture_code": 42,
    "city": "長崎市",
    "city_kana": "ナガサキシ",
    "town": "音無町",
    "town_kana": "オトナシマチ",
    "street": null,
    "office_name": null,
    "office_name_kana": null
  },
  "8045": {
    "postcode": "8528045",
    "prefecture": "長崎県",
    "prefecture_kana": "ナガサキケン",
    "prefecture_code": 42,
    "city": "長崎市",
    "city_kana": "ナガサキシ",
    "town": "錦",
    "town_kana": "ニシキ",
    "street": null,
    "office_name": null,
    "office_name_kana": null
  },
  "8046": {
    "postcode": "8528046",
    "prefecture": "長崎県",
    "prefecture_kana": "ナガサキケン",
    "prefecture_code": 42,
    "city": "長崎市",
    "city_kana": "ナガサキシ",
    "town": "柳谷町",
    "town_kana": "ヤナギダニマチ",
    "street": null,
    "office_name": null,
    "office_name_kana": null
  },
  "8047": {
    "postcode": "8528047",
    "prefecture": "長崎県",
    "prefecture_kana": "ナガサキケン",
    "prefecture_code": 42,
    "city": "長崎市",
    "city_kana": "ナガサキシ",
    "town": "若竹町",
    "town_kana": "ワカタケマチ",
    "street": null,
    "office_name": null,
    "office_name_kana": null
  },
  "8051": {
    "postcode": "8528051",
    "prefecture": "長崎県",
    "prefecture_kana": "ナガサキケン",
    "prefecture_code": 42,
    "city": "長崎市",
    "city_kana": "ナガサキシ",
    "town": "西北町",
    "town_kana": "ニシキタマチ",
    "street": null,
    "office_name": null,
    "office_name_kana": null
  },
  "8052": {
    "postcode": "8528052",
    "prefecture": "長崎県",
    "prefecture_kana": "ナガサキケン",
    "prefecture_code": 42,
    "city": "長崎市",
    "city_kana": "ナガサキシ",
    "town": "岩屋町",
    "town_kana": "イワヤマチ",
    "street": null,
    "office_name": null,
    "office_name_kana": null
  },
  "8053": {
    "postcode": "8528053",
    "prefecture": "長崎県",
    "prefecture_kana": "ナガサキケン",
    "prefecture_code": 42,
    "city": "長崎市",
    "city_kana": "ナガサキシ",
    "town": "葉山",
    "town_kana": "ハヤマ",
    "street": null,
    "office_name": null,
    "office_name_kana": null
  },
  "8054": {
    "postcode": "8528054",
    "prefecture": "長崎県",
    "prefecture_kana": "ナガサキケン",
    "prefecture_code": 42,
    "city": "長崎市",
    "city_kana": "ナガサキシ",
    "town": "エミネント葉山町",
    "town_kana": "エミネントハヤママチ",
    "street": null,
    "office_name": null,
    "office_name_kana": null
  },
  "8055": {
    "postcode": "8528055",
    "prefecture": "長崎県",
    "prefecture_kana": "ナガサキケン",
    "prefecture_code": 42,
    "city": "長崎市",
    "city_kana": "ナガサキシ",
    "town": "虹が丘町",
    "town_kana": "ニジガオカマチ",
    "street": null,
    "office_name": null,
    "office_name_kana": null
  },
  "8056": {
    "postcode": "8528056",
    "prefecture": "長崎県",
    "prefecture_kana": "ナガサキケン",
    "prefecture_code": 42,
    "city": "長崎市",
    "city_kana": "ナガサキシ",
    "town": "大宮町",
    "town_kana": "オオミヤマチ",
    "street": null,
    "office_name": null,
    "office_name_kana": null
  },
  "8061": {
    "postcode": "8528061",
    "prefecture": "長崎県",
    "prefecture_kana": "ナガサキケン",
    "prefecture_code": 42,
    "city": "長崎市",
    "city_kana": "ナガサキシ",
    "town": "滑石",
    "town_kana": "ナメシ",
    "street": null,
    "office_name": null,
    "office_name_kana": null
  },
  "8062": {
    "postcode": "8528062",
    "prefecture": "長崎県",
    "prefecture_kana": "ナガサキケン",
    "prefecture_code": 42,
    "city": "長崎市",
    "city_kana": "ナガサキシ",
    "town": "大園町",
    "town_kana": "オオゾノマチ",
    "street": null,
    "office_name": null,
    "office_name_kana": null
  },
  "8063": {
    "postcode": "8528063",
    "prefecture": "長崎県",
    "prefecture_kana": "ナガサキケン",
    "prefecture_code": 42,
    "city": "長崎市",
    "city_kana": "ナガサキシ",
    "town": "北栄町",
    "town_kana": "ホクエイマチ",
    "street": null,
    "office_name": null,
    "office_name_kana": null
  },
  "8064": {
    "postcode": "8528064",
    "prefecture": "長崎県",
    "prefecture_kana": "ナガサキケン",
    "prefecture_code": 42,
    "city": "長崎市",
    "city_kana": "ナガサキシ",
    "town": "北陽町",
    "town_kana": "ホクヨウマチ",
    "street": null,
    "office_name": null,
    "office_name_kana": null
  },
  "8065": {
    "postcode": "8528065",
    "prefecture": "長崎県",
    "prefecture_kana": "ナガサキケン",
    "prefecture_code": 42,
    "city": "長崎市",
    "city_kana": "ナガサキシ",
    "town": "横尾",
    "town_kana": "ヨコオ",
    "street": null,
    "office_name": null,
    "office_name_kana": null
  },
  "8101": {
    "postcode": "8528101",
    "prefecture": "長崎県",
    "prefecture_kana": "ナガサキケン",
    "prefecture_code": 42,
    "city": "長崎市",
    "city_kana": "ナガサキシ",
    "town": "江平",
    "town_kana": "エビラ",
    "street": null,
    "office_name": null,
    "office_name_kana": null
  },
  "8102": {
    "postcode": "8528102",
    "prefecture": "長崎県",
    "prefecture_kana": "ナガサキケン",
    "prefecture_code": 42,
    "city": "長崎市",
    "city_kana": "ナガサキシ",
    "town": "坂本",
    "town_kana": "サカモト",
    "street": null,
    "office_name": null,
    "office_name_kana": null
  },
  "8103": {
    "postcode": "8528103",
    "prefecture": "長崎県",
    "prefecture_kana": "ナガサキケン",
    "prefecture_code": 42,
    "city": "長崎市",
    "city_kana": "ナガサキシ",
    "town": "緑町",
    "town_kana": "ミドリマチ",
    "street": null,
    "office_name": null,
    "office_name_kana": null
  },
  "8104": {
    "postcode": "8528104",
    "prefecture": "長崎県",
    "prefecture_kana": "ナガサキケン",
    "prefecture_code": 42,
    "city": "長崎市",
    "city_kana": "ナガサキシ",
    "town": "茂里町",
    "town_kana": "モリマチ",
    "street": null,
    "office_name": null,
    "office_name_kana": null
  },
  "8105": {
    "postcode": "8528105",
    "prefecture": "長崎県",
    "prefecture_kana": "ナガサキケン",
    "prefecture_code": 42,
    "city": "長崎市",
    "city_kana": "ナガサキシ",
    "town": "目覚町",
    "town_kana": "メザメマチ",
    "street": null,
    "office_name": null,
    "office_name_kana": null
  },
  "8106": {
    "postcode": "8528106",
    "prefecture": "長崎県",
    "prefecture_kana": "ナガサキケン",
    "prefecture_code": 42,
    "city": "長崎市",
    "city_kana": "ナガサキシ",
    "town": "岩川町",
    "town_kana": "イワカワマチ",
    "street": null,
    "office_name": null,
    "office_name_kana": null
  },
  "8107": {
    "postcode": "8528107",
    "prefecture": "長崎県",
    "prefecture_kana": "ナガサキケン",
    "prefecture_code": 42,
    "city": "長崎市",
    "city_kana": "ナガサキシ",
    "town": "浜口町",
    "town_kana": "ハマグチマチ",
    "street": null,
    "office_name": null,
    "office_name_kana": null
  },
  "8108": {
    "postcode": "8528108",
    "prefecture": "長崎県",
    "prefecture_kana": "ナガサキケン",
    "prefecture_code": 42,
    "city": "長崎市",
    "city_kana": "ナガサキシ",
    "town": "川口町",
    "town_kana": "カワグチマチ",
    "street": null,
    "office_name": null,
    "office_name_kana": null
  },
  "8111": {
    "postcode": "8528111",
    "prefecture": "長崎県",
    "prefecture_kana": "ナガサキケン",
    "prefecture_code": 42,
    "city": "長崎市",
    "city_kana": "ナガサキシ",
    "town": "高尾町",
    "town_kana": "タカオマチ",
    "street": null,
    "office_name": null,
    "office_name_kana": null
  },
  "8112": {
    "postcode": "8528112",
    "prefecture": "長崎県",
    "prefecture_kana": "ナガサキケン",
    "prefecture_code": 42,
    "city": "長崎市",
    "city_kana": "ナガサキシ",
    "town": "本尾町",
    "town_kana": "モトオマチ",
    "street": null,
    "office_name": null,
    "office_name_kana": null
  },
  "8113": {
    "postcode": "8528113",
    "prefecture": "長崎県",
    "prefecture_kana": "ナガサキケン",
    "prefecture_code": 42,
    "city": "長崎市",
    "city_kana": "ナガサキシ",
    "town": "上野町",
    "town_kana": "ウエノマチ",
    "street": null,
    "office_name": null,
    "office_name_kana": null
  },
  "8114": {
    "postcode": "8528114",
    "prefecture": "長崎県",
    "prefecture_kana": "ナガサキケン",
    "prefecture_code": 42,
    "city": "長崎市",
    "city_kana": "ナガサキシ",
    "town": "橋口町",
    "town_kana": "ハシグチマチ",
    "street": null,
    "office_name": null,
    "office_name_kana": null
  },
  "8115": {
    "postcode": "8528115",
    "prefecture": "長崎県",
    "prefecture_kana": "ナガサキケン",
    "prefecture_code": 42,
    "city": "長崎市",
    "city_kana": "ナガサキシ",
    "town": "岡町",
    "town_kana": "オカマチ",
    "street": null,
    "office_name": null,
    "office_name_kana": null
  },
  "8116": {
    "postcode": "8528116",
    "prefecture": "長崎県",
    "prefecture_kana": "ナガサキケン",
    "prefecture_code": 42,
    "city": "長崎市",
    "city_kana": "ナガサキシ",
    "town": "平和町",
    "town_kana": "ヘイワマチ",
    "street": null,
    "office_name": null,
    "office_name_kana": null
  },
  "8117": {
    "postcode": "8528117",
    "prefecture": "長崎県",
    "prefecture_kana": "ナガサキケン",
    "prefecture_code": 42,
    "city": "長崎市",
    "city_kana": "ナガサキシ",
    "town": "平野町",
    "town_kana": "ヒラノマチ",
    "street": null,
    "office_name": null,
    "office_name_kana": null
  },
  "8118": {
    "postcode": "8528118",
    "prefecture": "長崎県",
    "prefecture_kana": "ナガサキケン",
    "prefecture_code": 42,
    "city": "長崎市",
    "city_kana": "ナガサキシ",
    "town": "松山町",
    "town_kana": "マツヤママチ",
    "street": null,
    "office_name": null,
    "office_name_kana": null
  },
  "8121": {
    "postcode": "8528121",
    "prefecture": "長崎県",
    "prefecture_kana": "ナガサキケン",
    "prefecture_code": 42,
    "city": "長崎市",
    "city_kana": "ナガサキシ",
    "town": "三川町",
    "town_kana": "ミカワマチ",
    "street": null,
    "office_name": null,
    "office_name_kana": null
  },
  "8122": {
    "postcode": "8528122",
    "prefecture": "長崎県",
    "prefecture_kana": "ナガサキケン",
    "prefecture_code": 42,
    "city": "長崎市",
    "city_kana": "ナガサキシ",
    "town": "西山台",
    "town_kana": "ニシヤマダイ",
    "street": null,
    "office_name": null,
    "office_name_kana": null
  },
  "8123": {
    "postcode": "8528123",
    "prefecture": "長崎県",
    "prefecture_kana": "ナガサキケン",
    "prefecture_code": 42,
    "city": "長崎市",
    "city_kana": "ナガサキシ",
    "town": "三原",
    "town_kana": "ミハラ",
    "street": null,
    "office_name": null,
    "office_name_kana": null
  },
  "8124": {
    "postcode": "8528124",
    "prefecture": "長崎県",
    "prefecture_kana": "ナガサキケン",
    "prefecture_code": 42,
    "city": "長崎市",
    "city_kana": "ナガサキシ",
    "town": "辻町",
    "town_kana": "ツジマチ",
    "street": null,
    "office_name": null,
    "office_name_kana": null
  },
  "8125": {
    "postcode": "8528125",
    "prefecture": "長崎県",
    "prefecture_kana": "ナガサキケン",
    "prefecture_code": 42,
    "city": "長崎市",
    "city_kana": "ナガサキシ",
    "town": "小峰町",
    "town_kana": "コミネマチ",
    "street": null,
    "office_name": null,
    "office_name_kana": null
  },
  "8126": {
    "postcode": "8528126",
    "prefecture": "長崎県",
    "prefecture_kana": "ナガサキケン",
    "prefecture_code": 42,
    "city": "長崎市",
    "city_kana": "ナガサキシ",
    "town": "石神町",
    "town_kana": "イシガミマチ",
    "street": null,
    "office_name": null,
    "office_name_kana": null
  },
  "8127": {
    "postcode": "8528127",
    "prefecture": "長崎県",
    "prefecture_kana": "ナガサキケン",
    "prefecture_code": 42,
    "city": "長崎市",
    "city_kana": "ナガサキシ",
    "town": "大手",
    "town_kana": "オオテ",
    "street": null,
    "office_name": null,
    "office_name_kana": null
  },
  "8131": {
    "postcode": "8528131",
    "prefecture": "長崎県",
    "prefecture_kana": "ナガサキケン",
    "prefecture_code": 42,
    "city": "長崎市",
    "city_kana": "ナガサキシ",
    "town": "文教町",
    "town_kana": "ブンキョウマチ",
    "street": null,
    "office_name": null,
    "office_name_kana": null
  },
  "8132": {
    "postcode": "8528132",
    "prefecture": "長崎県",
    "prefecture_kana": "ナガサキケン",
    "prefecture_code": 42,
    "city": "長崎市",
    "city_kana": "ナガサキシ",
    "town": "扇町",
    "town_kana": "オウギマチ",
    "street": null,
    "office_name": null,
    "office_name_kana": null
  },
  "8133": {
    "postcode": "8528133",
    "prefecture": "長崎県",
    "prefecture_kana": "ナガサキケン",
    "prefecture_code": 42,
    "city": "長崎市",
    "city_kana": "ナガサキシ",
    "town": "本原町",
    "town_kana": "モトハラマチ",
    "street": null,
    "office_name": null,
    "office_name_kana": null
  },
  "8134": {
    "postcode": "8528134",
    "prefecture": "長崎県",
    "prefecture_kana": "ナガサキケン",
    "prefecture_code": 42,
    "city": "長崎市",
    "city_kana": "ナガサキシ",
    "town": "大橋町",
    "town_kana": "オオバシマチ",
    "street": null,
    "office_name": null,
    "office_name_kana": null
  },
  "8135": {
    "postcode": "8528135",
    "prefecture": "長崎県",
    "prefecture_kana": "ナガサキケン",
    "prefecture_code": 42,
    "city": "長崎市",
    "city_kana": "ナガサキシ",
    "town": "千歳町",
    "town_kana": "チトセマチ",
    "street": null,
    "office_name": null,
    "office_name_kana": null
  },
  "8136": {
    "postcode": "8528136",
    "prefecture": "長崎県",
    "prefecture_kana": "ナガサキケン",
    "prefecture_code": 42,
    "city": "長崎市",
    "city_kana": "ナガサキシ",
    "town": "家野町",
    "town_kana": "イエノマチ",
    "street": null,
    "office_name": null,
    "office_name_kana": null
  },
  "8137": {
    "postcode": "8528137",
    "prefecture": "長崎県",
    "prefecture_kana": "ナガサキケン",
    "prefecture_code": 42,
    "city": "長崎市",
    "city_kana": "ナガサキシ",
    "town": "若葉町",
    "town_kana": "ワカバマチ",
    "street": null,
    "office_name": null,
    "office_name_kana": null
  },
  "8141": {
    "postcode": "8528141",
    "prefecture": "長崎県",
    "prefecture_kana": "ナガサキケン",
    "prefecture_code": 42,
    "city": "長崎市",
    "city_kana": "ナガサキシ",
    "town": "畦別当町",
    "town_kana": "アゼベツトウマチ",
    "street": null,
    "office_name": null,
    "office_name_kana": null
  },
  "8142": {
    "postcode": "8528142",
    "prefecture": "長崎県",
    "prefecture_kana": "ナガサキケン",
    "prefecture_code": 42,
    "city": "長崎市",
    "city_kana": "ナガサキシ",
    "town": "三ツ山町",
    "town_kana": "ミツヤママチ",
    "street": null,
    "office_name": null,
    "office_name_kana": null
  },
  "8143": {
    "postcode": "8528143",
    "prefecture": "長崎県",
    "prefecture_kana": "ナガサキケン",
    "prefecture_code": 42,
    "city": "長崎市",
    "city_kana": "ナガサキシ",
    "town": "川平町",
    "town_kana": "カワヒラマチ",
    "street": null,
    "office_name": null,
    "office_name_kana": null
  },
  "8144": {
    "postcode": "8528144",
    "prefecture": "長崎県",
    "prefecture_kana": "ナガサキケン",
    "prefecture_code": 42,
    "city": "長崎市",
    "city_kana": "ナガサキシ",
    "town": "女の都",
    "town_kana": "メノト",
    "street": null,
    "office_name": null,
    "office_name_kana": null
  },
  "8145": {
    "postcode": "8528145",
    "prefecture": "長崎県",
    "prefecture_kana": "ナガサキケン",
    "prefecture_code": 42,
    "city": "長崎市",
    "city_kana": "ナガサキシ",
    "town": "昭和",
    "town_kana": "ショウワ",
    "street": null,
    "office_name": null,
    "office_name_kana": null
  },
  "8146": {
    "postcode": "8528146",
    "prefecture": "長崎県",
    "prefecture_kana": "ナガサキケン",
    "prefecture_code": 42,
    "city": "長崎市",
    "city_kana": "ナガサキシ",
    "town": "けやき台町",
    "town_kana": "ケヤキダイマチ",
    "street": null,
    "office_name": null,
    "office_name_kana": null
  },
  "8151": {
    "postcode": "8528151",
    "prefecture": "長崎県",
    "prefecture_kana": "ナガサキケン",
    "prefecture_code": 42,
    "city": "長崎市",
    "city_kana": "ナガサキシ",
    "town": "泉",
    "town_kana": "イズミ",
    "street": null,
    "office_name": null,
    "office_name_kana": null
  },
  "8152": {
    "postcode": "8528152",
    "prefecture": "長崎県",
    "prefecture_kana": "ナガサキケン",
    "prefecture_code": 42,
    "city": "長崎市",
    "city_kana": "ナガサキシ",
    "town": "住吉台町",
    "town_kana": "スミヨシダイマチ",
    "street": null,
    "office_name": null,
    "office_name_kana": null
  },
  "8153": {
    "postcode": "8528153",
    "prefecture": "長崎県",
    "prefecture_kana": "ナガサキケン",
    "prefecture_code": 42,
    "city": "長崎市",
    "city_kana": "ナガサキシ",
    "town": "花丘町",
    "town_kana": "ハナオカマチ",
    "street": null,
    "office_name": null,
    "office_name_kana": null
  },
  "8154": {
    "postcode": "8528154",
    "prefecture": "長崎県",
    "prefecture_kana": "ナガサキケン",
    "prefecture_code": 42,
    "city": "長崎市",
    "city_kana": "ナガサキシ",
    "town": "住吉町",
    "town_kana": "スミヨシマチ",
    "street": null,
    "office_name": null,
    "office_name_kana": null
  },
  "8155": {
    "postcode": "8528155",
    "prefecture": "長崎県",
    "prefecture_kana": "ナガサキケン",
    "prefecture_code": 42,
    "city": "長崎市",
    "city_kana": "ナガサキシ",
    "town": "中園町",
    "town_kana": "ナカゾノマチ",
    "street": null,
    "office_name": null,
    "office_name_kana": null
  },
  "8156": {
    "postcode": "8528156",
    "prefecture": "長崎県",
    "prefecture_kana": "ナガサキケン",
    "prefecture_code": 42,
    "city": "長崎市",
    "city_kana": "ナガサキシ",
    "town": "赤迫",
    "town_kana": "アカサコ",
    "street": null,
    "office_name": null,
    "office_name_kana": null
  },
  "8157": {
    "postcode": "8528157",
    "prefecture": "長崎県",
    "prefecture_kana": "ナガサキケン",
    "prefecture_code": 42,
    "city": "長崎市",
    "city_kana": "ナガサキシ",
    "town": "泉町",
    "town_kana": "イズミマチ",
    "street": null,
    "office_name": null,
    "office_name_kana": null
  },
  "8501": {
    "postcode": "8528501",
    "prefecture": "長崎県",
    "prefecture_kana": "ナガサキケン",
    "prefecture_code": 42,
    "city": "長崎市",
    "city_kana": "ナガサキシ",
    "town": "坂本",
    "town_kana": "サカモト",
    "street": "１丁目７−１",
    "office_name": "長崎大学医学部附属病院",
    "office_name_kana": "ナガサキダイガクイガクブフゾクビヨウイン"
  },
  "8507": {
    "postcode": "8528507",
    "prefecture": "長崎県",
    "prefecture_kana": "ナガサキケン",
    "prefecture_code": 42,
    "city": "長崎市",
    "city_kana": "ナガサキシ",
    "town": "城山町",
    "town_kana": "シロヤママチ",
    "street": "３番１９号",
    "office_name": "九州電力　株式会社　長崎お客様センター",
    "office_name_kana": "キユウシユウデンリヨク カブシキカイシヤ ナガサキオキヤクサマセンタ-"
  },
  "8508": {
    "postcode": "8528508",
    "prefecture": "長崎県",
    "prefecture_kana": "ナガサキケン",
    "prefecture_code": 42,
    "city": "長崎市",
    "city_kana": "ナガサキシ",
    "town": "城山町",
    "town_kana": "シロヤママチ",
    "street": "３番１９号",
    "office_name": "九州電力送配電　株式会社　長崎支社",
    "office_name_kana": "キユウシユウデンリヨクソウハイデン カブシキガイシヤ ナガサキシシヤ"
  },
  "8509": {
    "postcode": "8528509",
    "prefecture": "長崎県",
    "prefecture_kana": "ナガサキケン",
    "prefecture_code": 42,
    "city": "長崎市",
    "city_kana": "ナガサキシ",
    "town": "城山町",
    "town_kana": "シロヤママチ",
    "street": "３番１９号",
    "office_name": "九州電力　株式会社　長崎支社",
    "office_name_kana": "キユウシユウデンリヨク カブシキカイシヤ ナガサキシシヤ"
  },
  "8510": {
    "postcode": "8528510",
    "prefecture": "長崎県",
    "prefecture_kana": "ナガサキケン",
    "prefecture_code": 42,
    "city": "長崎市",
    "city_kana": "ナガサキシ",
    "town": "城山町",
    "town_kana": "シロヤママチ",
    "street": "３−１９",
    "office_name": "九州電力　株式会社　長崎営業所",
    "office_name_kana": "キユウシユウデンリヨク カブシキガイシヤ ナガサキエイギヨウシヨ"
  },
  "8511": {
    "postcode": "8528511",
    "prefecture": "長崎県",
    "prefecture_kana": "ナガサキケン",
    "prefecture_code": 42,
    "city": "長崎市",
    "city_kana": "ナガサキシ",
    "town": "茂里町",
    "town_kana": "モリマチ",
    "street": "３−１５",
    "office_name": "日本赤十字社　長崎原爆病院",
    "office_name_kana": "ニホンセキジユウジシヤ ナガサキゲンバクビヨウイン"
  },
  "8515": {
    "postcode": "8528515",
    "prefecture": "長崎県",
    "prefecture_kana": "ナガサキケン",
    "prefecture_code": 42,
    "city": "長崎市",
    "city_kana": "ナガサキシ",
    "town": "文教町",
    "town_kana": "ブンキョウマチ",
    "street": "１３−１５",
    "office_name": "純心女子高等学校",
    "office_name_kana": "ジユンシンジヨシコウトウガツコウ"
  },
  "8520": {
    "postcode": "8528520",
    "prefecture": "長崎県",
    "prefecture_kana": "ナガサキケン",
    "prefecture_code": 42,
    "city": "長崎市",
    "city_kana": "ナガサキシ",
    "town": "坂本",
    "town_kana": "サカモト",
    "street": "１丁目７−１",
    "office_name": "長崎大学医療技術短期大学部",
    "office_name_kana": "ナガサキダイガクイリヨウギジユツタンキダイガクブ"
  },
  "8521": {
    "postcode": "8528521",
    "prefecture": "長崎県",
    "prefecture_kana": "ナガサキケン",
    "prefecture_code": 42,
    "city": "長崎市",
    "city_kana": "ナガサキシ",
    "town": "文教町",
    "town_kana": "ブンキョウマチ",
    "street": "１−１４",
    "office_name": "長崎大学",
    "office_name_kana": "ナガサキダイガク"
  },
  "8522": {
    "postcode": "8528522",
    "prefecture": "長崎県",
    "prefecture_kana": "ナガサキケン",
    "prefecture_code": 42,
    "city": "長崎市",
    "city_kana": "ナガサキシ",
    "town": "宝栄町",
    "town_kana": "ホウエイマチ",
    "street": "４−２５",
    "office_name": "長崎公共職業安定所",
    "office_name_kana": "ナガサキコウキヨウシヨクギヨウアンテイシヨ"
  },
  "8523": {
    "postcode": "8528523",
    "prefecture": "長崎県",
    "prefecture_kana": "ナガサキケン",
    "prefecture_code": 42,
    "city": "長崎市",
    "city_kana": "ナガサキシ",
    "town": "坂本",
    "town_kana": "サカモト",
    "street": "１丁目１２−４",
    "office_name": "長崎大学　医学部",
    "office_name_kana": "ナガサキダイガク イガクブ"
  },
  "8527": {
    "postcode": "8528527",
    "prefecture": "長崎県",
    "prefecture_kana": "ナガサキケン",
    "prefecture_code": 42,
    "city": "長崎市",
    "city_kana": "ナガサキシ",
    "town": "茂里町",
    "town_kana": "モリマチ",
    "street": "３−２",
    "office_name": "長崎文化放送　株式会社",
    "office_name_kana": "ナガサキブンカホウソウ カブシキガイシヤ"
  },
  "8528": {
    "postcode": "8528528",
    "prefecture": "長崎県",
    "prefecture_kana": "ナガサキケン",
    "prefecture_code": 42,
    "city": "長崎市",
    "city_kana": "ナガサキシ",
    "town": "赤迫",
    "town_kana": "アカサコ",
    "street": "３丁目５−１２",
    "office_name": "株式会社　ジョイフルサンショッピングプラザ",
    "office_name_kana": "カブシキガイシヤ ジヨイフルサンシヨツピングプラザ"
  },
  "8532": {
    "postcode": "8528532",
    "prefecture": "長崎県",
    "prefecture_kana": "ナガサキケン",
    "prefecture_code": 42,
    "city": "長崎市",
    "city_kana": "ナガサキシ",
    "town": "茂里町",
    "town_kana": "モリマチ",
    "street": "３番２７号",
    "office_name": "長崎県　医師会",
    "office_name_kana": "ナガサキケン イシカイ"
  },
  "8542": {
    "postcode": "8528542",
    "prefecture": "長崎県",
    "prefecture_kana": "ナガサキケン",
    "prefecture_code": 42,
    "city": "長崎市",
    "city_kana": "ナガサキシ",
    "town": "岩川町",
    "town_kana": "イワカワマチ",
    "street": "１６−１６",
    "office_name": "長崎労働基準監督署",
    "office_name_kana": "ナガサキロウドウキジユンカントクシヨ"
  },
  "8544": {
    "postcode": "8528544",
    "prefecture": "長崎県",
    "prefecture_kana": "ナガサキケン",
    "prefecture_code": 42,
    "city": "長崎市",
    "city_kana": "ナガサキシ",
    "town": "上野町",
    "town_kana": "ウエノマチ",
    "street": "２５−１",
    "office_name": "学校法人　長崎南山学園",
    "office_name_kana": "ガツコウホウジン ナガサキナンザンガクエン"
  },
  "8555": {
    "postcode": "8528555",
    "prefecture": "長崎県",
    "prefecture_kana": "ナガサキケン",
    "prefecture_code": 42,
    "city": "長崎市",
    "city_kana": "ナガサキシ",
    "town": "茂里町",
    "town_kana": "モリマチ",
    "street": "３−２４",
    "office_name": "長崎県　社会福祉協議会",
    "office_name_kana": "ナガサキケン シヤカイフクシキヨウギカイ"
  },
  "8558": {
    "postcode": "8528558",
    "prefecture": "長崎県",
    "prefecture_kana": "ナガサキケン",
    "prefecture_code": 42,
    "city": "長崎市",
    "city_kana": "ナガサキシ",
    "town": "三ツ山町",
    "town_kana": "ミツヤママチ",
    "street": "２３５",
    "office_name": "長崎純心大学",
    "office_name_kana": "ナガサキジユンシンダイガク"
  },
  "8566": {
    "postcode": "8528566",
    "prefecture": "長崎県",
    "prefecture_kana": "ナガサキケン",
    "prefecture_code": 42,
    "city": "長崎市",
    "city_kana": "ナガサキシ",
    "town": "宝栄町",
    "town_kana": "ホウエイマチ",
    "street": "１５−１１",
    "office_name": "活水中学校・高等学校",
    "office_name_kana": "カツスイチユウガツコウ・コウトウガツコウ"
  },
  "8577": {
    "postcode": "8528577",
    "prefecture": "長崎県",
    "prefecture_kana": "ナガサキケン",
    "prefecture_code": 42,
    "city": "長崎市",
    "city_kana": "ナガサキシ",
    "town": "葉山",
    "town_kana": "ハヤマ",
    "street": "１丁目６−１０",
    "office_name": "株式会社　西友　道の尾店",
    "office_name_kana": "カブシキガイシヤ セイユウ ミチノオテン"
  },
  "8588": {
    "postcode": "8528588",
    "prefecture": "長崎県",
    "prefecture_kana": "ナガサキケン",
    "prefecture_code": 42,
    "city": "長崎市",
    "city_kana": "ナガサキシ",
    "town": "坂本",
    "town_kana": "サカモト",
    "street": "１丁目７−１",
    "office_name": "長崎大学歯学部・長崎大学歯学部附属病院",
    "office_name_kana": "ナガサキダイガクシガクブ.ナガサキダイガクシガクブフゾクビヨウイン"
  },
  "8601": {
    "postcode": "8528601",
    "prefecture": "長崎県",
    "prefecture_kana": "ナガサキケン",
    "prefecture_code": 42,
    "city": "長崎市",
    "city_kana": "ナガサキシ",
    "town": "茂里町",
    "town_kana": "モリマチ",
    "street": "３−１（長崎北郵便局私書箱第１号）",
    "office_name": "株式会社　長崎新聞社",
    "office_name_kana": "カブシキガイシヤ ナガサキシンブンシヤ"
  },
  "8794": {
    "postcode": "8528794",
    "prefecture": "長崎県",
    "prefecture_kana": "ナガサキケン",
    "prefecture_code": 42,
    "city": "長崎市",
    "city_kana": "ナガサキシ",
    "town": "岩川町",
    "town_kana": "イワカワマチ",
    "street": "９−１７",
    "office_name": "長崎事務所",
    "office_name_kana": "ナガサキジムシヨ"
  }
}