{
  "0000": {
    "postcode": "8540000",
    "prefecture": "長崎県",
    "prefecture_kana": "ナガサキケン",
    "prefecture_code": 42,
    "city": "諫早市",
    "city_kana": "イサハヤシ",
    "town": "",
    "town_kana": "",
    "street": null,
    "office_name": null,
    "office_name_kana": null
  },
  "0001": {
    "postcode": "8540001",
    "prefecture": "長崎県",
    "prefecture_kana": "ナガサキケン",
    "prefecture_code": 42,
    "city": "諫早市",
    "city_kana": "イサハヤシ",
    "town": "福田町",
    "town_kana": "フクダマチ",
    "street": null,
    "office_name": null,
    "office_name_kana": null
  },
  "0002": {
    "postcode": "8540002",
    "prefecture": "長崎県",
    "prefecture_kana": "ナガサキケン",
    "prefecture_code": 42,
    "city": "諫早市",
    "city_kana": "イサハヤシ",
    "town": "日の出町",
    "town_kana": "ヒノデマチ",
    "street": null,
    "office_name": null,
    "office_name_kana": null
  },
  "0003": {
    "postcode": "8540003",
    "prefecture": "長崎県",
    "prefecture_kana": "ナガサキケン",
    "prefecture_code": 42,
    "city": "諫早市",
    "city_kana": "イサハヤシ",
    "town": "泉町",
    "town_kana": "イズミマチ",
    "street": null,
    "office_name": null,
    "office_name_kana": null
  },
  "0004": {
    "postcode": "8540004",
    "prefecture": "長崎県",
    "prefecture_kana": "ナガサキケン",
    "prefecture_code": 42,
    "city": "諫早市",
    "city_kana": "イサハヤシ",
    "town": "金谷町",
    "town_kana": "カナヤマチ",
    "street": null,
    "office_name": null,
    "office_name_kana": null
  },
  "0005": {
    "postcode": "8540005",
    "prefecture": "長崎県",
    "prefecture_kana": "ナガサキケン",
    "prefecture_code": 42,
    "city": "諫早市",
    "city_kana": "イサハヤシ",
    "town": "城見町",
    "town_kana": "シロミマチ",
    "street": null,
    "office_name": null,
    "office_name_kana": null
  },
  "0006": {
    "postcode": "8540006",
    "prefecture": "長崎県",
    "prefecture_kana": "ナガサキケン",
    "prefecture_code": 42,
    "city": "諫早市",
    "city_kana": "イサハヤシ",
    "town": "天満町",
    "town_kana": "テンマンマチ",
    "street": null,
    "office_name": null,
    "office_name_kana": null
  },
  "0007": {
    "postcode": "8540007",
    "prefecture": "長崎県",
    "prefecture_kana": "ナガサキケン",
    "prefecture_code": 42,
    "city": "諫早市",
    "city_kana": "イサハヤシ",
    "town": "目代町",
    "town_kana": "メシロマチ",
    "street": null,
    "office_name": null,
    "office_name_kana": null
  },
  "0011": {
    "postcode": "8540011",
    "prefecture": "長崎県",
    "prefecture_kana": "ナガサキケン",
    "prefecture_code": 42,
    "city": "諫早市",
    "city_kana": "イサハヤシ",
    "town": "八天町",
    "town_kana": "ハッテンマチ",
    "street": null,
    "office_name": null,
    "office_name_kana": null
  },
  "0012": {
    "postcode": "8540012",
    "prefecture": "長崎県",
    "prefecture_kana": "ナガサキケン",
    "prefecture_code": 42,
    "city": "諫早市",
    "city_kana": "イサハヤシ",
    "town": "本町",
    "town_kana": "ホンマチ",
    "street": null,
    "office_name": null,
    "office_name_kana": null
  },
  "0013": {
    "postcode": "8540013",
    "prefecture": "長崎県",
    "prefecture_kana": "ナガサキケン",
    "prefecture_code": 42,
    "city": "諫早市",
    "city_kana": "イサハヤシ",
    "town": "栄町",
    "town_kana": "サカエマチ",
    "street": null,
    "office_name": null,
    "office_name_kana": null
  },
  "0014": {
    "postcode": "8540014",
    "prefecture": "長崎県",
    "prefecture_kana": "ナガサキケン",
    "prefecture_code": 42,
    "city": "諫早市",
    "city_kana": "イサハヤシ",
    "town": "東小路町",
    "town_kana": "ヒガシコウジマチ",
    "street": null,
    "office_name": null,
    "office_name_kana": null
  },
  "0015": {
    "postcode": "8540015",
    "prefecture": "長崎県",
    "prefecture_kana": "ナガサキケン",
    "prefecture_code": 42,
    "city": "諫早市",
    "city_kana": "イサハヤシ",
    "town": "西小路町",
    "town_kana": "ニシコウジマチ",
    "street": null,
    "office_name": null,
    "office_name_kana": null
  },
  "0016": {
    "postcode": "8540016",
    "prefecture": "長崎県",
    "prefecture_kana": "ナガサキケン",
    "prefecture_code": 42,
    "city": "諫早市",
    "city_kana": "イサハヤシ",
    "town": "高城町",
    "town_kana": "タカシロマチ",
    "street": null,
    "office_name": null,
    "office_name_kana": null
  },
  "0021": {
    "postcode": "8540021",
    "prefecture": "長崎県",
    "prefecture_kana": "ナガサキケン",
    "prefecture_code": 42,
    "city": "諫早市",
    "city_kana": "イサハヤシ",
    "town": "仲沖町",
    "town_kana": "ナカオキマチ",
    "street": null,
    "office_name": null,
    "office_name_kana": null
  },
  "0022": {
    "postcode": "8540022",
    "prefecture": "長崎県",
    "prefecture_kana": "ナガサキケン",
    "prefecture_code": 42,
    "city": "諫早市",
    "city_kana": "イサハヤシ",
    "town": "幸町",
    "town_kana": "サイワイマチ",
    "street": null,
    "office_name": null,
    "office_name_kana": null
  },
  "0023": {
    "postcode": "8540023",
    "prefecture": "長崎県",
    "prefecture_kana": "ナガサキケン",
    "prefecture_code": 42,
    "city": "諫早市",
    "city_kana": "イサハヤシ",
    "town": "厚生町",
    "town_kana": "コウセイマチ",
    "street": null,
    "office_name": null,
    "office_name_kana": null
  },
  "0024": {
    "postcode": "8540024",
    "prefecture": "長崎県",
    "prefecture_kana": "ナガサキケン",
    "prefecture_code": 42,
    "city": "諫早市",
    "city_kana": "イサハヤシ",
    "town": "上町",
    "town_kana": "カミマチ",
    "street": null,
    "office_name": null,
    "office_name_kana": null
  },
  "0025": {
    "postcode": "8540025",
    "prefecture": "長崎県",
    "prefecture_kana": "ナガサキケン",
    "prefecture_code": 42,
    "city": "諫早市",
    "city_kana": "イサハヤシ",
    "town": "八坂町",
    "town_kana": "ヤサカマチ",
    "street": null,
    "office_name": null,
    "office_name_kana": null
  },
  "0026": {
    "postcode": "8540026",
    "prefecture": "長崎県",
    "prefecture_kana": "ナガサキケン",
    "prefecture_code": 42,
    "city": "諫早市",
    "city_kana": "イサハヤシ",
    "town": "東本町",
    "town_kana": "ヒガシホンマチ",
    "street": null,
    "office_name": null,
    "office_name_kana": null
  },
  "0027": {
    "postcode": "8540027",
    "prefecture": "長崎県",
    "prefecture_kana": "ナガサキケン",
    "prefecture_code": 42,
    "city": "諫早市",
    "city_kana": "イサハヤシ",
    "town": "旭町",
    "town_kana": "アサヒマチ",
    "street": null,
    "office_name": null,
    "office_name_kana": null
  },
  "0031": {
    "postcode": "8540031",
    "prefecture": "長崎県",
    "prefecture_kana": "ナガサキケン",
    "prefecture_code": 42,
    "city": "諫早市",
    "city_kana": "イサハヤシ",
    "town": "小野島町",
    "town_kana": "オノジママチ",
    "street": null,
    "office_name": null,
    "office_name_kana": null
  },
  "0032": {
    "postcode": "8540032",
    "prefecture": "長崎県",
    "prefecture_kana": "ナガサキケン",
    "prefecture_code": 42,
    "city": "諫早市",
    "city_kana": "イサハヤシ",
    "town": "赤崎町",
    "town_kana": "アカサキマチ",
    "street": null,
    "office_name": null,
    "office_name_kana": null
  },
  "0033": {
    "postcode": "8540033",
    "prefecture": "長崎県",
    "prefecture_kana": "ナガサキケン",
    "prefecture_code": 42,
    "city": "諫早市",
    "city_kana": "イサハヤシ",
    "town": "黒崎町",
    "town_kana": "クロサキマチ",
    "street": null,
    "office_name": null,
    "office_name_kana": null
  },
  "0034": {
    "postcode": "8540034",
    "prefecture": "長崎県",
    "prefecture_kana": "ナガサキケン",
    "prefecture_code": 42,
    "city": "諫早市",
    "city_kana": "イサハヤシ",
    "town": "小野町",
    "town_kana": "オノマチ",
    "street": null,
    "office_name": null,
    "office_name_kana": null
  },
  "0035": {
    "postcode": "8540035",
    "prefecture": "長崎県",
    "prefecture_kana": "ナガサキケン",
    "prefecture_code": 42,
    "city": "諫早市",
    "city_kana": "イサハヤシ",
    "town": "宗方町",
    "town_kana": "ムナカタマチ",
    "street": null,
    "office_name": null,
    "office_name_kana": null
  },
  "0036": {
    "postcode": "8540036",
    "prefecture": "長崎県",
    "prefecture_kana": "ナガサキケン",
    "prefecture_code": 42,
    "city": "諫早市",
    "city_kana": "イサハヤシ",
    "town": "長野町",
    "town_kana": "ナガノマチ",
    "street": null,
    "office_name": null,
    "office_name_kana": null
  },
  "0037": {
    "postcode": "8540037",
    "prefecture": "長崎県",
    "prefecture_kana": "ナガサキケン",
    "prefecture_code": 42,
    "city": "諫早市",
    "city_kana": "イサハヤシ",
    "town": "川内町",
    "town_kana": "カワチマチ",
    "street": null,
    "office_name": null,
    "office_name_kana": null
  },
  "0038": {
    "postcode": "8540038",
    "prefecture": "長崎県",
    "prefecture_kana": "ナガサキケン",
    "prefecture_code": 42,
    "city": "諫早市",
    "city_kana": "イサハヤシ",
    "town": "中央干拓",
    "town_kana": "チュウオウカンタク",
    "street": null,
    "office_name": null,
    "office_name_kana": null
  },
  "0041": {
    "postcode": "8540041",
    "prefecture": "長崎県",
    "prefecture_kana": "ナガサキケン",
    "prefecture_code": 42,
    "city": "諫早市",
    "city_kana": "イサハヤシ",
    "town": "船越町",
    "town_kana": "フナコシマチ",
    "street": null,
    "office_name": null,
    "office_name_kana": null
  },
  "0042": {
    "postcode": "8540042",
    "prefecture": "長崎県",
    "prefecture_kana": "ナガサキケン",
    "prefecture_code": 42,
    "city": "諫早市",
    "city_kana": "イサハヤシ",
    "town": "上野町",
    "town_kana": "ウエノマチ",
    "street": null,
    "office_name": null,
    "office_name_kana": null
  },
  "0043": {
    "postcode": "8540043",
    "prefecture": "長崎県",
    "prefecture_kana": "ナガサキケン",
    "prefecture_code": 42,
    "city": "諫早市",
    "city_kana": "イサハヤシ",
    "town": "立石町",
    "town_kana": "タテイシマチ",
    "street": null,
    "office_name": null,
    "office_name_kana": null
  },
  "0044": {
    "postcode": "8540044",
    "prefecture": "長崎県",
    "prefecture_kana": "ナガサキケン",
    "prefecture_code": 42,
    "city": "諫早市",
    "city_kana": "イサハヤシ",
    "town": "西郷町",
    "town_kana": "ニシゴウマチ",
    "street": null,
    "office_name": null,
    "office_name_kana": null
  },
  "0045": {
    "postcode": "8540045",
    "prefecture": "長崎県",
    "prefecture_kana": "ナガサキケン",
    "prefecture_code": 42,
    "city": "諫早市",
    "city_kana": "イサハヤシ",
    "town": "新道町",
    "town_kana": "シンミチマチ",
    "street": null,
    "office_name": null,
    "office_name_kana": null
  },
  "0046": {
    "postcode": "8540046",
    "prefecture": "長崎県",
    "prefecture_kana": "ナガサキケン",
    "prefecture_code": 42,
    "city": "諫早市",
    "city_kana": "イサハヤシ",
    "town": "原口町",
    "town_kana": "ハラグチマチ",
    "street": null,
    "office_name": null,
    "office_name_kana": null
  },
  "0047": {
    "postcode": "8540047",
    "prefecture": "長崎県",
    "prefecture_kana": "ナガサキケン",
    "prefecture_code": 42,
    "city": "諫早市",
    "city_kana": "イサハヤシ",
    "town": "野中町",
    "town_kana": "ノナカマチ",
    "street": null,
    "office_name": null,
    "office_name_kana": null
  },
  "0051": {
    "postcode": "8540051",
    "prefecture": "長崎県",
    "prefecture_kana": "ナガサキケン",
    "prefecture_code": 42,
    "city": "諫早市",
    "city_kana": "イサハヤシ",
    "town": "鷲崎町",
    "town_kana": "ワシザキマチ",
    "street": null,
    "office_name": null,
    "office_name_kana": null
  },
  "0052": {
    "postcode": "8540052",
    "prefecture": "長崎県",
    "prefecture_kana": "ナガサキケン",
    "prefecture_code": 42,
    "city": "諫早市",
    "city_kana": "イサハヤシ",
    "town": "川床町",
    "town_kana": "カワトコマチ",
    "street": null,
    "office_name": null,
    "office_name_kana": null
  },
  "0053": {
    "postcode": "8540053",
    "prefecture": "長崎県",
    "prefecture_kana": "ナガサキケン",
    "prefecture_code": 42,
    "city": "諫早市",
    "city_kana": "イサハヤシ",
    "town": "小川町",
    "town_kana": "オガワマチ",
    "street": null,
    "office_name": null,
    "office_name_kana": null
  },
  "0054": {
    "postcode": "8540054",
    "prefecture": "長崎県",
    "prefecture_kana": "ナガサキケン",
    "prefecture_code": 42,
    "city": "諫早市",
    "city_kana": "イサハヤシ",
    "town": "小ケ倉町",
    "town_kana": "コガクラマチ",
    "street": null,
    "office_name": null,
    "office_name_kana": null
  },
  "0055": {
    "postcode": "8540055",
    "prefecture": "長崎県",
    "prefecture_kana": "ナガサキケン",
    "prefecture_code": 42,
    "city": "諫早市",
    "city_kana": "イサハヤシ",
    "town": "栗面町",
    "town_kana": "クレモマチ",
    "street": null,
    "office_name": null,
    "office_name_kana": null
  },
  "0056": {
    "postcode": "8540056",
    "prefecture": "長崎県",
    "prefecture_kana": "ナガサキケン",
    "prefecture_code": 42,
    "city": "諫早市",
    "city_kana": "イサハヤシ",
    "town": "土師野尾町",
    "town_kana": "ハジノオマチ",
    "street": null,
    "office_name": null,
    "office_name_kana": null
  },
  "0057": {
    "postcode": "8540057",
    "prefecture": "長崎県",
    "prefecture_kana": "ナガサキケン",
    "prefecture_code": 42,
    "city": "諫早市",
    "city_kana": "イサハヤシ",
    "town": "平山町",
    "town_kana": "ヒラヤママチ",
    "street": null,
    "office_name": null,
    "office_name_kana": null
  },
  "0061": {
    "postcode": "8540061",
    "prefecture": "長崎県",
    "prefecture_kana": "ナガサキケン",
    "prefecture_code": 42,
    "city": "諫早市",
    "city_kana": "イサハヤシ",
    "town": "宇都町",
    "town_kana": "ウヅマチ",
    "street": null,
    "office_name": null,
    "office_name_kana": null
  },
  "0062": {
    "postcode": "8540062",
    "prefecture": "長崎県",
    "prefecture_kana": "ナガサキケン",
    "prefecture_code": 42,
    "city": "諫早市",
    "city_kana": "イサハヤシ",
    "town": "小船越町",
    "town_kana": "オブナコシマチ",
    "street": null,
    "office_name": null,
    "office_name_kana": null
  },
  "0063": {
    "postcode": "8540063",
    "prefecture": "長崎県",
    "prefecture_kana": "ナガサキケン",
    "prefecture_code": 42,
    "city": "諫早市",
    "city_kana": "イサハヤシ",
    "town": "貝津町",
    "town_kana": "カイヅマチ",
    "street": null,
    "office_name": null,
    "office_name_kana": null
  },
  "0064": {
    "postcode": "8540064",
    "prefecture": "長崎県",
    "prefecture_kana": "ナガサキケン",
    "prefecture_code": 42,
    "city": "諫早市",
    "city_kana": "イサハヤシ",
    "town": "若葉町",
    "town_kana": "ワカバマチ",
    "street": null,
    "office_name": null,
    "office_name_kana": null
  },
  "0065": {
    "postcode": "8540065",
    "prefecture": "長崎県",
    "prefecture_kana": "ナガサキケン",
    "prefecture_code": 42,
    "city": "諫早市",
    "city_kana": "イサハヤシ",
    "town": "津久葉町",
    "town_kana": "ツクバマチ",
    "street": null,
    "office_name": null,
    "office_name_kana": null
  },
  "0066": {
    "postcode": "8540066",
    "prefecture": "長崎県",
    "prefecture_kana": "ナガサキケン",
    "prefecture_code": 42,
    "city": "諫早市",
    "city_kana": "イサハヤシ",
    "town": "久山町",
    "town_kana": "クヤママチ",
    "street": null,
    "office_name": null,
    "office_name_kana": null
  },
  "0067": {
    "postcode": "8540067",
    "prefecture": "長崎県",
    "prefecture_kana": "ナガサキケン",
    "prefecture_code": 42,
    "city": "諫早市",
    "city_kana": "イサハヤシ",
    "town": "久山台",
    "town_kana": "クヤマダイ",
    "street": null,
    "office_name": null,
    "office_name_kana": null
  },
  "0068": {
    "postcode": "8540068",
    "prefecture": "長崎県",
    "prefecture_kana": "ナガサキケン",
    "prefecture_code": 42,
    "city": "諫早市",
    "city_kana": "イサハヤシ",
    "town": "青葉台",
    "town_kana": "アオバダイ",
    "street": null,
    "office_name": null,
    "office_name_kana": null
  },
  "0069": {
    "postcode": "8540069",
    "prefecture": "長崎県",
    "prefecture_kana": "ナガサキケン",
    "prefecture_code": 42,
    "city": "諫早市",
    "city_kana": "イサハヤシ",
    "town": "貝津ヶ丘",
    "town_kana": "カイヅガオカ",
    "street": null,
    "office_name": null,
    "office_name_kana": null
  },
  "0071": {
    "postcode": "8540071",
    "prefecture": "長崎県",
    "prefecture_kana": "ナガサキケン",
    "prefecture_code": 42,
    "city": "諫早市",
    "city_kana": "イサハヤシ",
    "town": "永昌東町",
    "town_kana": "エイショウヒガシマチ",
    "street": null,
    "office_name": null,
    "office_name_kana": null
  },
  "0072": {
    "postcode": "8540072",
    "prefecture": "長崎県",
    "prefecture_kana": "ナガサキケン",
    "prefecture_code": 42,
    "city": "諫早市",
    "city_kana": "イサハヤシ",
    "town": "永昌町",
    "town_kana": "エイショウマチ",
    "street": null,
    "office_name": null,
    "office_name_kana": null
  },
  "0073": {
    "postcode": "8540073",
    "prefecture": "長崎県",
    "prefecture_kana": "ナガサキケン",
    "prefecture_code": 42,
    "city": "諫早市",
    "city_kana": "イサハヤシ",
    "town": "中尾町",
    "town_kana": "ナカオマチ",
    "street": null,
    "office_name": null,
    "office_name_kana": null
  },
  "0074": {
    "postcode": "8540074",
    "prefecture": "長崎県",
    "prefecture_kana": "ナガサキケン",
    "prefecture_code": 42,
    "city": "諫早市",
    "city_kana": "イサハヤシ",
    "town": "山川町",
    "town_kana": "ヤマカワマチ",
    "street": null,
    "office_name": null,
    "office_name_kana": null
  },
  "0075": {
    "postcode": "8540075",
    "prefecture": "長崎県",
    "prefecture_kana": "ナガサキケン",
    "prefecture_code": 42,
    "city": "諫早市",
    "city_kana": "イサハヤシ",
    "town": "馬渡町",
    "town_kana": "マワタリマチ",
    "street": null,
    "office_name": null,
    "office_name_kana": null
  },
  "0076": {
    "postcode": "8540076",
    "prefecture": "長崎県",
    "prefecture_kana": "ナガサキケン",
    "prefecture_code": 42,
    "city": "諫早市",
    "city_kana": "イサハヤシ",
    "town": "堂崎町",
    "town_kana": "ドウザキマチ",
    "street": null,
    "office_name": null,
    "office_name_kana": null
  },
  "0077": {
    "postcode": "8540077",
    "prefecture": "長崎県",
    "prefecture_kana": "ナガサキケン",
    "prefecture_code": 42,
    "city": "諫早市",
    "city_kana": "イサハヤシ",
    "town": "白岩町",
    "town_kana": "シライワマチ",
    "street": null,
    "office_name": null,
    "office_name_kana": null
  },
  "0081": {
    "postcode": "8540081",
    "prefecture": "長崎県",
    "prefecture_kana": "ナガサキケン",
    "prefecture_code": 42,
    "city": "諫早市",
    "city_kana": "イサハヤシ",
    "town": "栄田町",
    "town_kana": "エイダマチ",
    "street": null,
    "office_name": null,
    "office_name_kana": null
  },
  "0082": {
    "postcode": "8540082",
    "prefecture": "長崎県",
    "prefecture_kana": "ナガサキケン",
    "prefecture_code": 42,
    "city": "諫早市",
    "city_kana": "イサハヤシ",
    "town": "西栄田町",
    "town_kana": "ニシエイダマチ",
    "street": null,
    "office_name": null,
    "office_name_kana": null
  },
  "0083": {
    "postcode": "8540083",
    "prefecture": "長崎県",
    "prefecture_kana": "ナガサキケン",
    "prefecture_code": 42,
    "city": "諫早市",
    "city_kana": "イサハヤシ",
    "town": "津水町",
    "town_kana": "ツミズマチ",
    "street": null,
    "office_name": null,
    "office_name_kana": null
  },
  "0084": {
    "postcode": "8540084",
    "prefecture": "長崎県",
    "prefecture_kana": "ナガサキケン",
    "prefecture_code": 42,
    "city": "諫早市",
    "city_kana": "イサハヤシ",
    "town": "真崎町",
    "town_kana": "マサキマチ",
    "street": null,
    "office_name": null,
    "office_name_kana": null
  },
  "0085": {
    "postcode": "8540085",
    "prefecture": "長崎県",
    "prefecture_kana": "ナガサキケン",
    "prefecture_code": 42,
    "city": "諫早市",
    "city_kana": "イサハヤシ",
    "town": "破籠井町",
    "town_kana": "ワリゴイマチ",
    "street": null,
    "office_name": null,
    "office_name_kana": null
  },
  "0086": {
    "postcode": "8540086",
    "prefecture": "長崎県",
    "prefecture_kana": "ナガサキケン",
    "prefecture_code": 42,
    "city": "諫早市",
    "city_kana": "イサハヤシ",
    "town": "堀の内町",
    "town_kana": "ホリノウチマチ",
    "street": null,
    "office_name": null,
    "office_name_kana": null
  },
  "0087": {
    "postcode": "8540087",
    "prefecture": "長崎県",
    "prefecture_kana": "ナガサキケン",
    "prefecture_code": 42,
    "city": "諫早市",
    "city_kana": "イサハヤシ",
    "town": "大さこ町",
    "town_kana": "オオサコマチ",
    "street": null,
    "office_name": null,
    "office_name_kana": null
  },
  "0091": {
    "postcode": "8540091",
    "prefecture": "長崎県",
    "prefecture_kana": "ナガサキケン",
    "prefecture_code": 42,
    "city": "諫早市",
    "city_kana": "イサハヤシ",
    "town": "富川町",
    "town_kana": "トミガワマチ",
    "street": null,
    "office_name": null,
    "office_name_kana": null
  },
  "0092": {
    "postcode": "8540092",
    "prefecture": "長崎県",
    "prefecture_kana": "ナガサキケン",
    "prefecture_code": 42,
    "city": "諫早市",
    "city_kana": "イサハヤシ",
    "town": "湯野尾町",
    "town_kana": "ユノオマチ",
    "street": null,
    "office_name": null,
    "office_name_kana": null
  },
  "0093": {
    "postcode": "8540093",
    "prefecture": "長崎県",
    "prefecture_kana": "ナガサキケン",
    "prefecture_code": 42,
    "city": "諫早市",
    "city_kana": "イサハヤシ",
    "town": "本野町",
    "town_kana": "モトノマチ",
    "street": null,
    "office_name": null,
    "office_name_kana": null
  },
  "0094": {
    "postcode": "8540094",
    "prefecture": "長崎県",
    "prefecture_kana": "ナガサキケン",
    "prefecture_code": 42,
    "city": "諫早市",
    "city_kana": "イサハヤシ",
    "town": "本明町",
    "town_kana": "ホンミョウマチ",
    "street": null,
    "office_name": null,
    "office_name_kana": null
  },
  "0095": {
    "postcode": "8540095",
    "prefecture": "長崎県",
    "prefecture_kana": "ナガサキケン",
    "prefecture_code": 42,
    "city": "諫早市",
    "city_kana": "イサハヤシ",
    "town": "上大渡野町",
    "town_kana": "カミオオワタノマチ",
    "street": null,
    "office_name": null,
    "office_name_kana": null
  },
  "0096": {
    "postcode": "8540096",
    "prefecture": "長崎県",
    "prefecture_kana": "ナガサキケン",
    "prefecture_code": 42,
    "city": "諫早市",
    "city_kana": "イサハヤシ",
    "town": "下大渡野町",
    "town_kana": "シモオオワタノマチ",
    "street": null,
    "office_name": null,
    "office_name_kana": null
  },
  "0121": {
    "postcode": "8540121",
    "prefecture": "長崎県",
    "prefecture_kana": "ナガサキケン",
    "prefecture_code": 42,
    "city": "諫早市",
    "city_kana": "イサハヤシ",
    "town": "有喜町",
    "town_kana": "ウキマチ",
    "street": null,
    "office_name": null,
    "office_name_kana": null
  },
  "0122": {
    "postcode": "8540122",
    "prefecture": "長崎県",
    "prefecture_kana": "ナガサキケン",
    "prefecture_code": 42,
    "city": "諫早市",
    "city_kana": "イサハヤシ",
    "town": "鶴田町",
    "town_kana": "ツルタマチ",
    "street": null,
    "office_name": null,
    "office_name_kana": null
  },
  "0123": {
    "postcode": "8540123",
    "prefecture": "長崎県",
    "prefecture_kana": "ナガサキケン",
    "prefecture_code": 42,
    "city": "諫早市",
    "city_kana": "イサハヤシ",
    "town": "天神町",
    "town_kana": "テンジンマチ",
    "street": null,
    "office_name": null,
    "office_name_kana": null
  },
  "0124": {
    "postcode": "8540124",
    "prefecture": "長崎県",
    "prefecture_kana": "ナガサキケン",
    "prefecture_code": 42,
    "city": "諫早市",
    "city_kana": "イサハヤシ",
    "town": "中通町",
    "town_kana": "ナカドオリマチ",
    "street": null,
    "office_name": null,
    "office_name_kana": null
  },
  "0125": {
    "postcode": "8540125",
    "prefecture": "長崎県",
    "prefecture_kana": "ナガサキケン",
    "prefecture_code": 42,
    "city": "諫早市",
    "city_kana": "イサハヤシ",
    "town": "早見町",
    "town_kana": "ハヤミマチ",
    "street": null,
    "office_name": null,
    "office_name_kana": null
  },
  "0126": {
    "postcode": "8540126",
    "prefecture": "長崎県",
    "prefecture_kana": "ナガサキケン",
    "prefecture_code": 42,
    "city": "諫早市",
    "city_kana": "イサハヤシ",
    "town": "松里町",
    "town_kana": "マツザトマチ",
    "street": null,
    "office_name": null,
    "office_name_kana": null
  },
  "0201": {
    "postcode": "8540201",
    "prefecture": "長崎県",
    "prefecture_kana": "ナガサキケン",
    "prefecture_code": 42,
    "city": "諫早市",
    "city_kana": "イサハヤシ",
    "town": "森山町下井牟田",
    "town_kana": "モリヤマチョウシモイムタ",
    "street": null,
    "office_name": null,
    "office_name_kana": null
  },
  "0202": {
    "postcode": "8540202",
    "prefecture": "長崎県",
    "prefecture_kana": "ナガサキケン",
    "prefecture_code": 42,
    "city": "諫早市",
    "city_kana": "イサハヤシ",
    "town": "森山町慶師野",
    "town_kana": "モリヤマチョウケイシノ",
    "street": null,
    "office_name": null,
    "office_name_kana": null
  },
  "0203": {
    "postcode": "8540203",
    "prefecture": "長崎県",
    "prefecture_kana": "ナガサキケン",
    "prefecture_code": 42,
    "city": "諫早市",
    "city_kana": "イサハヤシ",
    "town": "森山町本村",
    "town_kana": "モリヤマチョウホンムラ",
    "street": null,
    "office_name": null,
    "office_name_kana": null
  },
  "0204": {
    "postcode": "8540204",
    "prefecture": "長崎県",
    "prefecture_kana": "ナガサキケン",
    "prefecture_code": 42,
    "city": "諫早市",
    "city_kana": "イサハヤシ",
    "town": "森山町田尻",
    "town_kana": "モリヤマチョウタジリ",
    "street": null,
    "office_name": null,
    "office_name_kana": null
  },
  "0205": {
    "postcode": "8540205",
    "prefecture": "長崎県",
    "prefecture_kana": "ナガサキケン",
    "prefecture_code": 42,
    "city": "諫早市",
    "city_kana": "イサハヤシ",
    "town": "森山町杉谷",
    "town_kana": "モリヤマチョウスギタニ",
    "street": null,
    "office_name": null,
    "office_name_kana": null
  },
  "0206": {
    "postcode": "8540206",
    "prefecture": "長崎県",
    "prefecture_kana": "ナガサキケン",
    "prefecture_code": 42,
    "city": "諫早市",
    "city_kana": "イサハヤシ",
    "town": "森山町唐比北",
    "town_kana": "モリヤマチョウカラコキタ",
    "street": null,
    "office_name": null,
    "office_name_kana": null
  },
  "0207": {
    "postcode": "8540207",
    "prefecture": "長崎県",
    "prefecture_kana": "ナガサキケン",
    "prefecture_code": 42,
    "city": "諫早市",
    "city_kana": "イサハヤシ",
    "town": "森山町唐比東",
    "town_kana": "モリヤマチョウカラコヒガシ",
    "street": null,
    "office_name": null,
    "office_name_kana": null
  },
  "0208": {
    "postcode": "8540208",
    "prefecture": "長崎県",
    "prefecture_kana": "ナガサキケン",
    "prefecture_code": 42,
    "city": "諫早市",
    "city_kana": "イサハヤシ",
    "town": "森山町唐比西",
    "town_kana": "モリヤマチョウカラコニシ",
    "street": null,
    "office_name": null,
    "office_name_kana": null
  },
  "0209": {
    "postcode": "8540209",
    "prefecture": "長崎県",
    "prefecture_kana": "ナガサキケン",
    "prefecture_code": 42,
    "city": "諫早市",
    "city_kana": "イサハヤシ",
    "town": "森山町上井牟田",
    "town_kana": "モリヤマチョウカミイムタ",
    "street": null,
    "office_name": null,
    "office_name_kana": null
  },
  "0292": {
    "postcode": "8540292",
    "prefecture": "長崎県",
    "prefecture_kana": "ナガサキケン",
    "prefecture_code": 42,
    "city": "諫早市",
    "city_kana": "イサハヤシ",
    "town": "森山町本村",
    "town_kana": "モリヤマチョウホンムラ",
    "street": "１３００",
    "office_name": "諫早市役所　森山支所",
    "office_name_kana": "イサハヤシヤクシヨ モリヤマシシヨ"
  },
  "0301": {
    "postcode": "8540301",
    "prefecture": "長崎県",
    "prefecture_kana": "ナガサキケン",
    "prefecture_code": 42,
    "city": "雲仙市",
    "city_kana": "ウンゼンシ",
    "town": "愛野町甲",
    "town_kana": "アイノマチコウ",
    "street": null,
    "office_name": null,
    "office_name_kana": null
  },
  "0302": {
    "postcode": "8540302",
    "prefecture": "長崎県",
    "prefecture_kana": "ナガサキケン",
    "prefecture_code": 42,
    "city": "雲仙市",
    "city_kana": "ウンゼンシ",
    "town": "愛野町乙",
    "town_kana": "アイノマチオツ",
    "street": null,
    "office_name": null,
    "office_name_kana": null
  },
  "0401": {
    "postcode": "8540401",
    "prefecture": "長崎県",
    "prefecture_kana": "ナガサキケン",
    "prefecture_code": 42,
    "city": "雲仙市",
    "city_kana": "ウンゼンシ",
    "town": "千々石町甲",
    "town_kana": "チヂワチョウコウ",
    "street": null,
    "office_name": null,
    "office_name_kana": null
  },
  "0402": {
    "postcode": "8540402",
    "prefecture": "長崎県",
    "prefecture_kana": "ナガサキケン",
    "prefecture_code": 42,
    "city": "雲仙市",
    "city_kana": "ウンゼンシ",
    "town": "千々石町乙",
    "town_kana": "チヂワチョウオツ",
    "street": null,
    "office_name": null,
    "office_name_kana": null
  },
  "0403": {
    "postcode": "8540403",
    "prefecture": "長崎県",
    "prefecture_kana": "ナガサキケン",
    "prefecture_code": 42,
    "city": "雲仙市",
    "city_kana": "ウンゼンシ",
    "town": "千々石町丙",
    "town_kana": "チヂワチョウヘイ",
    "street": null,
    "office_name": null,
    "office_name_kana": null
  },
  "0404": {
    "postcode": "8540404",
    "prefecture": "長崎県",
    "prefecture_kana": "ナガサキケン",
    "prefecture_code": 42,
    "city": "雲仙市",
    "city_kana": "ウンゼンシ",
    "town": "千々石町丁",
    "town_kana": "チヂワチョウテイ",
    "street": null,
    "office_name": null,
    "office_name_kana": null
  },
  "0405": {
    "postcode": "8540405",
    "prefecture": "長崎県",
    "prefecture_kana": "ナガサキケン",
    "prefecture_code": 42,
    "city": "雲仙市",
    "city_kana": "ウンゼンシ",
    "town": "千々石町戊",
    "town_kana": "チヂワチョウボ",
    "street": null,
    "office_name": null,
    "office_name_kana": null
  },
  "0406": {
    "postcode": "8540406",
    "prefecture": "長崎県",
    "prefecture_kana": "ナガサキケン",
    "prefecture_code": 42,
    "city": "雲仙市",
    "city_kana": "ウンゼンシ",
    "town": "千々石町己",
    "town_kana": "チヂワチョウキ",
    "street": null,
    "office_name": null,
    "office_name_kana": null
  },
  "0407": {
    "postcode": "8540407",
    "prefecture": "長崎県",
    "prefecture_kana": "ナガサキケン",
    "prefecture_code": 42,
    "city": "雲仙市",
    "city_kana": "ウンゼンシ",
    "town": "千々石町庚",
    "town_kana": "チヂワチョウコウ",
    "street": null,
    "office_name": null,
    "office_name_kana": null
  },
  "0492": {
    "postcode": "8540492",
    "prefecture": "長崎県",
    "prefecture_kana": "ナガサキケン",
    "prefecture_code": 42,
    "city": "雲仙市",
    "city_kana": "ウンゼンシ",
    "town": "千々石町戊",
    "town_kana": "チヂワチョウボ",
    "street": "５８２",
    "office_name": "雲仙市　千々石総合支所",
    "office_name_kana": "ウンゼンシ チヂワソウゴウシシヨ"
  },
  "0500": {
    "postcode": "8540500",
    "prefecture": "長崎県",
    "prefecture_kana": "ナガサキケン",
    "prefecture_code": 42,
    "city": "雲仙市",
    "city_kana": "ウンゼンシ",
    "town": "",
    "town_kana": "",
    "street": null,
    "office_name": null,
    "office_name_kana": null
  },
  "0501": {
    "postcode": "8540501",
    "prefecture": "長崎県",
    "prefecture_kana": "ナガサキケン",
    "prefecture_code": 42,
    "city": "雲仙市",
    "city_kana": "ウンゼンシ",
    "town": "小浜町大亀",
    "town_kana": "オバマチョウオオカメ",
    "street": null,
    "office_name": null,
    "office_name_kana": null
  },
  "0502": {
    "postcode": "8540502",
    "prefecture": "長崎県",
    "prefecture_kana": "ナガサキケン",
    "prefecture_code": 42,
    "city": "雲仙市",
    "city_kana": "ウンゼンシ",
    "town": "小浜町山畑",
    "town_kana": "オバマチョウヤマハタ",
    "street": null,
    "office_name": null,
    "office_name_kana": null
  },
  "0503": {
    "postcode": "8540503",
    "prefecture": "長崎県",
    "prefecture_kana": "ナガサキケン",
    "prefecture_code": 42,
    "city": "雲仙市",
    "city_kana": "ウンゼンシ",
    "town": "小浜町飛子",
    "town_kana": "オバマチョウトビコ",
    "street": null,
    "office_name": null,
    "office_name_kana": null
  },
  "0504": {
    "postcode": "8540504",
    "prefecture": "長崎県",
    "prefecture_kana": "ナガサキケン",
    "prefecture_code": 42,
    "city": "雲仙市",
    "city_kana": "ウンゼンシ",
    "town": "小浜町金浜",
    "town_kana": "オバマチョウカナハマ",
    "street": null,
    "office_name": null,
    "office_name_kana": null
  },
  "0505": {
    "postcode": "8540505",
    "prefecture": "長崎県",
    "prefecture_kana": "ナガサキケン",
    "prefecture_code": 42,
    "city": "雲仙市",
    "city_kana": "ウンゼンシ",
    "town": "小浜町木場",
    "town_kana": "オバマチョウコバ",
    "street": null,
    "office_name": null,
    "office_name_kana": null
  },
  "0511": {
    "postcode": "8540511",
    "prefecture": "長崎県",
    "prefecture_kana": "ナガサキケン",
    "prefecture_code": 42,
    "city": "雲仙市",
    "city_kana": "ウンゼンシ",
    "town": "小浜町南木指",
    "town_kana": "オバマチョウミナミキサシ",
    "street": null,
    "office_name": null,
    "office_name_kana": null
  },
  "0512": {
    "postcode": "8540512",
    "prefecture": "長崎県",
    "prefecture_kana": "ナガサキケン",
    "prefecture_code": 42,
    "city": "雲仙市",
    "city_kana": "ウンゼンシ",
    "town": "小浜町北木指",
    "town_kana": "オバマチョウキタキサシ",
    "street": null,
    "office_name": null,
    "office_name_kana": null
  },
  "0513": {
    "postcode": "8540513",
    "prefecture": "長崎県",
    "prefecture_kana": "ナガサキケン",
    "prefecture_code": 42,
    "city": "雲仙市",
    "city_kana": "ウンゼンシ",
    "town": "小浜町南本町",
    "town_kana": "オバマチョウミナミホンマチ",
    "street": null,
    "office_name": null,
    "office_name_kana": null
  },
  "0514": {
    "postcode": "8540514",
    "prefecture": "長崎県",
    "prefecture_kana": "ナガサキケン",
    "prefecture_code": 42,
    "city": "雲仙市",
    "city_kana": "ウンゼンシ",
    "town": "小浜町北本町",
    "town_kana": "オバマチョウキタホンマチ",
    "street": null,
    "office_name": null,
    "office_name_kana": null
  },
  "0515": {
    "postcode": "8540515",
    "prefecture": "長崎県",
    "prefecture_kana": "ナガサキケン",
    "prefecture_code": 42,
    "city": "雲仙市",
    "city_kana": "ウンゼンシ",
    "town": "小浜町北野",
    "town_kana": "オバマチョウキタノ",
    "street": null,
    "office_name": null,
    "office_name_kana": null
  },
  "0516": {
    "postcode": "8540516",
    "prefecture": "長崎県",
    "prefecture_kana": "ナガサキケン",
    "prefecture_code": 42,
    "city": "雲仙市",
    "city_kana": "ウンゼンシ",
    "town": "小浜町富津",
    "town_kana": "オバマチョウトミツ",
    "street": null,
    "office_name": null,
    "office_name_kana": null
  },
  "0517": {
    "postcode": "8540517",
    "prefecture": "長崎県",
    "prefecture_kana": "ナガサキケン",
    "prefecture_code": 42,
    "city": "雲仙市",
    "city_kana": "ウンゼンシ",
    "town": "小浜町マリーナ",
    "town_kana": "オバマチョウマリーナ",
    "street": null,
    "office_name": null,
    "office_name_kana": null
  },
  "0592": {
    "postcode": "8540592",
    "prefecture": "長崎県",
    "prefecture_kana": "ナガサキケン",
    "prefecture_code": 42,
    "city": "雲仙市",
    "city_kana": "ウンゼンシ",
    "town": "小浜町北本町",
    "town_kana": "オバマチョウキタホンマチ",
    "street": "１４",
    "office_name": "雲仙市　小浜総合支所",
    "office_name_kana": "ウンゼンシ オバマソウゴウシシヨ"
  },
  "0593": {
    "postcode": "8540593",
    "prefecture": "長崎県",
    "prefecture_kana": "ナガサキケン",
    "prefecture_code": 42,
    "city": "雲仙市",
    "city_kana": "ウンゼンシ",
    "town": "小浜町南本町",
    "town_kana": "オバマチョウミナミホンマチ",
    "street": "９３",
    "office_name": "公立　新小浜病院",
    "office_name_kana": "コウリツ シンオバマビヨウイン"
  },
  "0595": {
    "postcode": "8540595",
    "prefecture": "長崎県",
    "prefecture_kana": "ナガサキケン",
    "prefecture_code": 42,
    "city": "雲仙市",
    "city_kana": "ウンゼンシ",
    "town": "小浜町北野",
    "town_kana": "オバマチョウキタノ",
    "street": "６２３",
    "office_name": "長崎県立　小浜高等学校",
    "office_name_kana": "ナガサキケンリツ オバマコウトウガツコウ"
  },
  "0621": {
    "postcode": "8540621",
    "prefecture": "長崎県",
    "prefecture_kana": "ナガサキケン",
    "prefecture_code": 42,
    "city": "雲仙市",
    "city_kana": "ウンゼンシ",
    "town": "小浜町雲仙",
    "town_kana": "オバマチョウウンゼン",
    "street": null,
    "office_name": null,
    "office_name_kana": null
  },
  "0692": {
    "postcode": "8540692",
    "prefecture": "長崎県",
    "prefecture_kana": "ナガサキケン",
    "prefecture_code": 42,
    "city": "雲仙市",
    "city_kana": "ウンゼンシ",
    "town": "小浜町雲仙",
    "town_kana": "オバマチョウウンゼン",
    "street": "３２０",
    "office_name": "株式会社　宮崎旅館",
    "office_name_kana": "カブシキガイシヤ ミヤザキリヨカン"
  },
  "0696": {
    "postcode": "8540696",
    "prefecture": "長崎県",
    "prefecture_kana": "ナガサキケン",
    "prefecture_code": 42,
    "city": "雲仙市",
    "city_kana": "ウンゼンシ",
    "town": "小浜町雲仙",
    "town_kana": "オバマチョウウンゼン",
    "street": "３２０",
    "office_name": "有限会社　雲仙富貴屋",
    "office_name_kana": "ユウゲンガイシヤ ウンゼンフキヤ"
  },
  "0697": {
    "postcode": "8540697",
    "prefecture": "長崎県",
    "prefecture_kana": "ナガサキケン",
    "prefecture_code": 42,
    "city": "雲仙市",
    "city_kana": "ウンゼンシ",
    "town": "小浜町雲仙",
    "town_kana": "オバマチョウウンゼン",
    "street": "３２０",
    "office_name": "有限会社　雲仙九州ホテル",
    "office_name_kana": "ユウゲンガイシヤ ウンゼンキユウシユウホテル"
  },
  "0698": {
    "postcode": "8540698",
    "prefecture": "長崎県",
    "prefecture_kana": "ナガサキケン",
    "prefecture_code": 42,
    "city": "雲仙市",
    "city_kana": "ウンゼンシ",
    "town": "小浜町雲仙",
    "town_kana": "オバマチョウウンゼン",
    "street": "１２８",
    "office_name": "株式会社　東洋館",
    "office_name_kana": "カブシキガイシヤ トウヨウカン"
  },
  "0701": {
    "postcode": "8540701",
    "prefecture": "長崎県",
    "prefecture_kana": "ナガサキケン",
    "prefecture_code": 42,
    "city": "雲仙市",
    "city_kana": "ウンゼンシ",
    "town": "南串山町甲",
    "town_kana": "ミナミクシヤマチョウコウ",
    "street": null,
    "office_name": null,
    "office_name_kana": null
  },
  "0702": {
    "postcode": "8540702",
    "prefecture": "長崎県",
    "prefecture_kana": "ナガサキケン",
    "prefecture_code": 42,
    "city": "雲仙市",
    "city_kana": "ウンゼンシ",
    "town": "南串山町乙",
    "town_kana": "ミナミクシヤマチョウオツ",
    "street": null,
    "office_name": null,
    "office_name_kana": null
  },
  "0703": {
    "postcode": "8540703",
    "prefecture": "長崎県",
    "prefecture_kana": "ナガサキケン",
    "prefecture_code": 42,
    "city": "雲仙市",
    "city_kana": "ウンゼンシ",
    "town": "南串山町丙",
    "town_kana": "ミナミクシヤマチョウヘイ",
    "street": null,
    "office_name": null,
    "office_name_kana": null
  },
  "1101": {
    "postcode": "8541101",
    "prefecture": "長崎県",
    "prefecture_kana": "ナガサキケン",
    "prefecture_code": 42,
    "city": "諫早市",
    "city_kana": "イサハヤシ",
    "town": "飯盛町野中",
    "town_kana": "イイモリチョウノナカ",
    "street": null,
    "office_name": null,
    "office_name_kana": null
  },
  "1102": {
    "postcode": "8541102",
    "prefecture": "長崎県",
    "prefecture_kana": "ナガサキケン",
    "prefecture_code": 42,
    "city": "諫早市",
    "city_kana": "イサハヤシ",
    "town": "飯盛町山口",
    "town_kana": "イイモリチョウヤマグチ",
    "street": null,
    "office_name": null,
    "office_name_kana": null
  },
  "1103": {
    "postcode": "8541103",
    "prefecture": "長崎県",
    "prefecture_kana": "ナガサキケン",
    "prefecture_code": 42,
    "city": "諫早市",
    "city_kana": "イサハヤシ",
    "town": "飯盛町中山",
    "town_kana": "イイモリチョウナカヤマ",
    "street": null,
    "office_name": null,
    "office_name_kana": null
  },
  "1104": {
    "postcode": "8541104",
    "prefecture": "長崎県",
    "prefecture_kana": "ナガサキケン",
    "prefecture_code": 42,
    "city": "諫早市",
    "city_kana": "イサハヤシ",
    "town": "飯盛町上原",
    "town_kana": "イイモリチョウウエハラ",
    "street": null,
    "office_name": null,
    "office_name_kana": null
  },
  "1105": {
    "postcode": "8541105",
    "prefecture": "長崎県",
    "prefecture_kana": "ナガサキケン",
    "prefecture_code": 42,
    "city": "諫早市",
    "city_kana": "イサハヤシ",
    "town": "飯盛町後田",
    "town_kana": "イイモリチョウウシロダ",
    "street": null,
    "office_name": null,
    "office_name_kana": null
  },
  "1111": {
    "postcode": "8541111",
    "prefecture": "長崎県",
    "prefecture_kana": "ナガサキケン",
    "prefecture_code": 42,
    "city": "諫早市",
    "city_kana": "イサハヤシ",
    "town": "飯盛町平古場",
    "town_kana": "イイモリチョウヒラコバ",
    "street": null,
    "office_name": null,
    "office_name_kana": null
  },
  "1112": {
    "postcode": "8541112",
    "prefecture": "長崎県",
    "prefecture_kana": "ナガサキケン",
    "prefecture_code": 42,
    "city": "諫早市",
    "city_kana": "イサハヤシ",
    "town": "飯盛町開",
    "town_kana": "イイモリチョウヒラキ",
    "street": null,
    "office_name": null,
    "office_name_kana": null
  },
  "1113": {
    "postcode": "8541113",
    "prefecture": "長崎県",
    "prefecture_kana": "ナガサキケン",
    "prefecture_code": 42,
    "city": "諫早市",
    "city_kana": "イサハヤシ",
    "town": "飯盛町下釜",
    "town_kana": "イイモリチョウシモガマ",
    "street": null,
    "office_name": null,
    "office_name_kana": null
  },
  "1114": {
    "postcode": "8541114",
    "prefecture": "長崎県",
    "prefecture_kana": "ナガサキケン",
    "prefecture_code": 42,
    "city": "諫早市",
    "city_kana": "イサハヤシ",
    "town": "飯盛町久保",
    "town_kana": "イイモリチョウクボ",
    "street": null,
    "office_name": null,
    "office_name_kana": null
  },
  "1121": {
    "postcode": "8541121",
    "prefecture": "長崎県",
    "prefecture_kana": "ナガサキケン",
    "prefecture_code": 42,
    "city": "諫早市",
    "city_kana": "イサハヤシ",
    "town": "飯盛町古場",
    "town_kana": "イイモリチョウコバ",
    "street": null,
    "office_name": null,
    "office_name_kana": null
  },
  "1122": {
    "postcode": "8541122",
    "prefecture": "長崎県",
    "prefecture_kana": "ナガサキケン",
    "prefecture_code": 42,
    "city": "諫早市",
    "city_kana": "イサハヤシ",
    "town": "飯盛町佐田",
    "town_kana": "イイモリチョウサダ",
    "street": null,
    "office_name": null,
    "office_name_kana": null
  },
  "1123": {
    "postcode": "8541123",
    "prefecture": "長崎県",
    "prefecture_kana": "ナガサキケン",
    "prefecture_code": 42,
    "city": "諫早市",
    "city_kana": "イサハヤシ",
    "town": "飯盛町里",
    "town_kana": "イイモリチョウサト",
    "street": null,
    "office_name": null,
    "office_name_kana": null
  },
  "1124": {
    "postcode": "8541124",
    "prefecture": "長崎県",
    "prefecture_kana": "ナガサキケン",
    "prefecture_code": 42,
    "city": "諫早市",
    "city_kana": "イサハヤシ",
    "town": "飯盛町川下",
    "town_kana": "イイモリチョウカワシモ",
    "street": null,
    "office_name": null,
    "office_name_kana": null
  },
  "1125": {
    "postcode": "8541125",
    "prefecture": "長崎県",
    "prefecture_kana": "ナガサキケン",
    "prefecture_code": 42,
    "city": "諫早市",
    "city_kana": "イサハヤシ",
    "town": "飯盛町池下",
    "town_kana": "イイモリチョウイケシモ",
    "street": null,
    "office_name": null,
    "office_name_kana": null
  },
  "8501": {
    "postcode": "8548501",
    "prefecture": "長崎県",
    "prefecture_kana": "ナガサキケン",
    "prefecture_code": 42,
    "city": "諫早市",
    "city_kana": "イサハヤシ",
    "town": "永昌東町",
    "town_kana": "エイショウヒガシマチ",
    "street": "２４−１",
    "office_name": "健康保険　諫早総合病院",
    "office_name_kana": "ケンコウホケン イサハヤソウゴウビヨウイン"
  },
  "8509": {
    "postcode": "8548509",
    "prefecture": "長崎県",
    "prefecture_kana": "ナガサキケン",
    "prefecture_code": 42,
    "city": "諫早市",
    "city_kana": "イサハヤシ",
    "town": "泉町",
    "town_kana": "イズミマチ",
    "street": "１６−１２",
    "office_name": "九州電力　株式会社　諫早営業所",
    "office_name_kana": "キユウシユウデンリヨク カブシキガイシヤ イサハヤエイギヨウシヨ"
  },
  "8540": {
    "postcode": "8548540",
    "prefecture": "長崎県",
    "prefecture_kana": "ナガサキケン",
    "prefecture_code": 42,
    "city": "諫早市",
    "city_kana": "イサハヤシ",
    "town": "栄田町",
    "town_kana": "エイダマチ",
    "street": "４７−３９",
    "office_name": "諫早社会保険事務所",
    "office_name_kana": "イサハヤシヤカイホケンジムシヨ"
  },
  "8555": {
    "postcode": "8548555",
    "prefecture": "長崎県",
    "prefecture_kana": "ナガサキケン",
    "prefecture_code": 42,
    "city": "諫早市",
    "city_kana": "イサハヤシ",
    "town": "津久葉町",
    "town_kana": "ツクバマチ",
    "street": "９９−４８",
    "office_name": "株式会社　日本ベネックス",
    "office_name_kana": "カブシキガイシヤ ニホンベネツクス"
  },
  "8601": {
    "postcode": "8548601",
    "prefecture": "長崎県",
    "prefecture_kana": "ナガサキケン",
    "prefecture_code": 42,
    "city": "諫早市",
    "city_kana": "イサハヤシ",
    "town": "東小路町",
    "town_kana": "ヒガシコウジマチ",
    "street": "７−１",
    "office_name": "諫早市役所",
    "office_name_kana": "イサハヤシヤクシヨ"
  },
  "8650": {
    "postcode": "8548650",
    "prefecture": "長崎県",
    "prefecture_kana": "ナガサキケン",
    "prefecture_code": 42,
    "city": "諫早市",
    "city_kana": "イサハヤシ",
    "town": "小川町",
    "town_kana": "オガワマチ",
    "street": "１６５０（諫早郵便局私書箱第１９号）",
    "office_name": "長崎刑務所",
    "office_name_kana": "ナガサキケイムシヨ"
  },
  "8666": {
    "postcode": "8548666",
    "prefecture": "長崎県",
    "prefecture_kana": "ナガサキケン",
    "prefecture_code": 42,
    "city": "諫早市",
    "city_kana": "イサハヤシ",
    "town": "永昌東町",
    "town_kana": "エイショウヒガシマチ",
    "street": "２５−４５（諫早郵便局私書箱第４号）",
    "office_name": "諫早税務署",
    "office_name_kana": "イサハヤゼイムシヨ"
  }
}