{
  "0000": {
    "postcode": "8560000",
    "prefecture": "長崎県",
    "prefecture_kana": "ナガサキケン",
    "prefecture_code": 42,
    "city": "大村市",
    "city_kana": "オオムラシ",
    "town": "",
    "town_kana": "",
    "street": null,
    "office_name": null,
    "office_name_kana": null
  },
  "0001": {
    "postcode": "8560001",
    "prefecture": "長崎県",
    "prefecture_kana": "ナガサキケン",
    "prefecture_code": 42,
    "city": "大村市",
    "city_kana": "オオムラシ",
    "town": "武留路町",
    "town_kana": "ムルロマチ",
    "street": null,
    "office_name": null,
    "office_name_kana": null
  },
  "0002": {
    "postcode": "8560002",
    "prefecture": "長崎県",
    "prefecture_kana": "ナガサキケン",
    "prefecture_code": 42,
    "city": "大村市",
    "city_kana": "オオムラシ",
    "town": "東野岳町",
    "town_kana": "ヒガシノダケマチ",
    "street": null,
    "office_name": null,
    "office_name_kana": null
  },
  "0003": {
    "postcode": "8560003",
    "prefecture": "長崎県",
    "prefecture_kana": "ナガサキケン",
    "prefecture_code": 42,
    "city": "大村市",
    "city_kana": "オオムラシ",
    "town": "野岳町",
    "town_kana": "ノダケマチ",
    "street": null,
    "office_name": null,
    "office_name_kana": null
  },
  "0004": {
    "postcode": "8560004",
    "prefecture": "長崎県",
    "prefecture_kana": "ナガサキケン",
    "prefecture_code": 42,
    "city": "大村市",
    "city_kana": "オオムラシ",
    "town": "立福寺町",
    "town_kana": "リフクジマチ",
    "street": null,
    "office_name": null,
    "office_name_kana": null
  },
  "0005": {
    "postcode": "8560005",
    "prefecture": "長崎県",
    "prefecture_kana": "ナガサキケン",
    "prefecture_code": 42,
    "city": "大村市",
    "city_kana": "オオムラシ",
    "town": "弥勒寺町",
    "town_kana": "ミロクジマチ",
    "street": null,
    "office_name": null,
    "office_name_kana": null
  },
  "0006": {
    "postcode": "8560006",
    "prefecture": "長崎県",
    "prefecture_kana": "ナガサキケン",
    "prefecture_code": 42,
    "city": "大村市",
    "city_kana": "オオムラシ",
    "town": "福重町",
    "town_kana": "フクシゲマチ",
    "street": null,
    "office_name": null,
    "office_name_kana": null
  },
  "0007": {
    "postcode": "8560007",
    "prefecture": "長崎県",
    "prefecture_kana": "ナガサキケン",
    "prefecture_code": 42,
    "city": "大村市",
    "city_kana": "オオムラシ",
    "town": "草場町",
    "town_kana": "クサバマチ",
    "street": null,
    "office_name": null,
    "office_name_kana": null
  },
  "0008": {
    "postcode": "8560008",
    "prefecture": "長崎県",
    "prefecture_kana": "ナガサキケン",
    "prefecture_code": 42,
    "city": "大村市",
    "city_kana": "オオムラシ",
    "town": "松原",
    "town_kana": "マツバラ",
    "street": null,
    "office_name": null,
    "office_name_kana": null
  },
  "0009": {
    "postcode": "8560009",
    "prefecture": "長崎県",
    "prefecture_kana": "ナガサキケン",
    "prefecture_code": 42,
    "city": "大村市",
    "city_kana": "オオムラシ",
    "town": "松原本町",
    "town_kana": "マツバラホンマチ",
    "street": null,
    "office_name": null,
    "office_name_kana": null
  },
  "0011": {
    "postcode": "8560011",
    "prefecture": "長崎県",
    "prefecture_kana": "ナガサキケン",
    "prefecture_code": 42,
    "city": "大村市",
    "city_kana": "オオムラシ",
    "town": "重井田町",
    "town_kana": "シゲイダマチ",
    "street": null,
    "office_name": null,
    "office_name_kana": null
  },
  "0012": {
    "postcode": "8560012",
    "prefecture": "長崎県",
    "prefecture_kana": "ナガサキケン",
    "prefecture_code": 42,
    "city": "大村市",
    "city_kana": "オオムラシ",
    "town": "黒木町",
    "town_kana": "クロキマチ",
    "street": null,
    "office_name": null,
    "office_name_kana": null
  },
  "0013": {
    "postcode": "8560013",
    "prefecture": "長崎県",
    "prefecture_kana": "ナガサキケン",
    "prefecture_code": 42,
    "city": "大村市",
    "city_kana": "オオムラシ",
    "town": "中岳町",
    "town_kana": "ナカダケマチ",
    "street": null,
    "office_name": null,
    "office_name_kana": null
  },
  "0014": {
    "postcode": "8560014",
    "prefecture": "長崎県",
    "prefecture_kana": "ナガサキケン",
    "prefecture_code": 42,
    "city": "大村市",
    "city_kana": "オオムラシ",
    "town": "田下町",
    "town_kana": "タジモマチ",
    "street": null,
    "office_name": null,
    "office_name_kana": null
  },
  "0015": {
    "postcode": "8560015",
    "prefecture": "長崎県",
    "prefecture_kana": "ナガサキケン",
    "prefecture_code": 42,
    "city": "大村市",
    "city_kana": "オオムラシ",
    "town": "宮代町",
    "town_kana": "ミヤダイマチ",
    "street": null,
    "office_name": null,
    "office_name_kana": null
  },
  "0016": {
    "postcode": "8560016",
    "prefecture": "長崎県",
    "prefecture_kana": "ナガサキケン",
    "prefecture_code": 42,
    "city": "大村市",
    "city_kana": "オオムラシ",
    "town": "原町",
    "town_kana": "ハラマチ",
    "street": null,
    "office_name": null,
    "office_name_kana": null
  },
  "0017": {
    "postcode": "8560017",
    "prefecture": "長崎県",
    "prefecture_kana": "ナガサキケン",
    "prefecture_code": 42,
    "city": "大村市",
    "city_kana": "オオムラシ",
    "town": "荒瀬町",
    "town_kana": "アラセマチ",
    "street": null,
    "office_name": null,
    "office_name_kana": null
  },
  "0018": {
    "postcode": "8560018",
    "prefecture": "長崎県",
    "prefecture_kana": "ナガサキケン",
    "prefecture_code": 42,
    "city": "大村市",
    "city_kana": "オオムラシ",
    "town": "今富町",
    "town_kana": "イマトミマチ",
    "street": null,
    "office_name": null,
    "office_name_kana": null
  },
  "0019": {
    "postcode": "8560019",
    "prefecture": "長崎県",
    "prefecture_kana": "ナガサキケン",
    "prefecture_code": 42,
    "city": "大村市",
    "city_kana": "オオムラシ",
    "town": "野田町",
    "town_kana": "ノダマチ",
    "street": null,
    "office_name": null,
    "office_name_kana": null
  },
  "0020": {
    "postcode": "8560020",
    "prefecture": "長崎県",
    "prefecture_kana": "ナガサキケン",
    "prefecture_code": 42,
    "city": "大村市",
    "city_kana": "オオムラシ",
    "town": "小路口本町",
    "town_kana": "オログチホンマチ",
    "street": null,
    "office_name": null,
    "office_name_kana": null
  },
  "0021": {
    "postcode": "8560021",
    "prefecture": "長崎県",
    "prefecture_kana": "ナガサキケン",
    "prefecture_code": 42,
    "city": "大村市",
    "city_kana": "オオムラシ",
    "town": "鬼橋町",
    "town_kana": "オニバシマチ",
    "street": null,
    "office_name": null,
    "office_name_kana": null
  },
  "0022": {
    "postcode": "8560022",
    "prefecture": "長崎県",
    "prefecture_kana": "ナガサキケン",
    "prefecture_code": 42,
    "city": "大村市",
    "city_kana": "オオムラシ",
    "town": "雄ケ原町",
    "town_kana": "マスラガハラマチ",
    "street": null,
    "office_name": null,
    "office_name_kana": null
  },
  "0023": {
    "postcode": "8560023",
    "prefecture": "長崎県",
    "prefecture_kana": "ナガサキケン",
    "prefecture_code": 42,
    "city": "大村市",
    "city_kana": "オオムラシ",
    "town": "上諏訪町",
    "town_kana": "カミスワマチ",
    "street": null,
    "office_name": null,
    "office_name_kana": null
  },
  "0024": {
    "postcode": "8560024",
    "prefecture": "長崎県",
    "prefecture_kana": "ナガサキケン",
    "prefecture_code": 42,
    "city": "大村市",
    "city_kana": "オオムラシ",
    "town": "諏訪",
    "town_kana": "スワ",
    "street": null,
    "office_name": null,
    "office_name_kana": null
  },
  "0025": {
    "postcode": "8560025",
    "prefecture": "長崎県",
    "prefecture_kana": "ナガサキケン",
    "prefecture_code": 42,
    "city": "大村市",
    "city_kana": "オオムラシ",
    "town": "小路口町",
    "town_kana": "オログチマチ",
    "street": null,
    "office_name": null,
    "office_name_kana": null
  },
  "0026": {
    "postcode": "8560026",
    "prefecture": "長崎県",
    "prefecture_kana": "ナガサキケン",
    "prefecture_code": 42,
    "city": "大村市",
    "city_kana": "オオムラシ",
    "town": "池田",
    "town_kana": "イケダ",
    "street": null,
    "office_name": null,
    "office_name_kana": null
  },
  "0027": {
    "postcode": "8560027",
    "prefecture": "長崎県",
    "prefecture_kana": "ナガサキケン",
    "prefecture_code": 42,
    "city": "大村市",
    "city_kana": "オオムラシ",
    "town": "植松",
    "town_kana": "ウエマツ",
    "street": null,
    "office_name": null,
    "office_name_kana": null
  },
  "0028": {
    "postcode": "8560028",
    "prefecture": "長崎県",
    "prefecture_kana": "ナガサキケン",
    "prefecture_code": 42,
    "city": "大村市",
    "city_kana": "オオムラシ",
    "town": "坂口町",
    "town_kana": "サカグチマチ",
    "street": null,
    "office_name": null,
    "office_name_kana": null
  },
  "0029": {
    "postcode": "8560029",
    "prefecture": "長崎県",
    "prefecture_kana": "ナガサキケン",
    "prefecture_code": 42,
    "city": "大村市",
    "city_kana": "オオムラシ",
    "town": "池田新町",
    "town_kana": "イケダシンマチ",
    "street": null,
    "office_name": null,
    "office_name_kana": null
  },
  "0031": {
    "postcode": "8560031",
    "prefecture": "長崎県",
    "prefecture_kana": "ナガサキケン",
    "prefecture_code": 42,
    "city": "大村市",
    "city_kana": "オオムラシ",
    "town": "三城町",
    "town_kana": "サンジョウチョウ",
    "street": null,
    "office_name": null,
    "office_name_kana": null
  },
  "0032": {
    "postcode": "8560032",
    "prefecture": "長崎県",
    "prefecture_kana": "ナガサキケン",
    "prefecture_code": 42,
    "city": "大村市",
    "city_kana": "オオムラシ",
    "town": "東大村",
    "town_kana": "ヒガシオオムラ",
    "street": null,
    "office_name": null,
    "office_name_kana": null
  },
  "0033": {
    "postcode": "8560033",
    "prefecture": "長崎県",
    "prefecture_kana": "ナガサキケン",
    "prefecture_code": 42,
    "city": "大村市",
    "city_kana": "オオムラシ",
    "town": "荒平町",
    "town_kana": "アラヒラマチ",
    "street": null,
    "office_name": null,
    "office_name_kana": null
  },
  "0034": {
    "postcode": "8560034",
    "prefecture": "長崎県",
    "prefecture_kana": "ナガサキケン",
    "prefecture_code": 42,
    "city": "大村市",
    "city_kana": "オオムラシ",
    "town": "水計町",
    "town_kana": "ミズハカリマチ",
    "street": null,
    "office_name": null,
    "office_name_kana": null
  },
  "0035": {
    "postcode": "8560035",
    "prefecture": "長崎県",
    "prefecture_kana": "ナガサキケン",
    "prefecture_code": 42,
    "city": "大村市",
    "city_kana": "オオムラシ",
    "town": "武部町",
    "town_kana": "タケベマチ",
    "street": null,
    "office_name": null,
    "office_name_kana": null
  },
  "0041": {
    "postcode": "8560041",
    "prefecture": "長崎県",
    "prefecture_kana": "ナガサキケン",
    "prefecture_code": 42,
    "city": "大村市",
    "city_kana": "オオムラシ",
    "town": "徳泉川内町",
    "town_kana": "トクセンガワチマチ",
    "street": null,
    "office_name": null,
    "office_name_kana": null
  },
  "0042": {
    "postcode": "8560042",
    "prefecture": "長崎県",
    "prefecture_kana": "ナガサキケン",
    "prefecture_code": 42,
    "city": "大村市",
    "city_kana": "オオムラシ",
    "town": "平町",
    "town_kana": "ヒラマチ",
    "street": null,
    "office_name": null,
    "office_name_kana": null
  },
  "0043": {
    "postcode": "8560043",
    "prefecture": "長崎県",
    "prefecture_kana": "ナガサキケン",
    "prefecture_code": 42,
    "city": "大村市",
    "city_kana": "オオムラシ",
    "town": "小川内町",
    "town_kana": "オガワウチマチ",
    "street": null,
    "office_name": null,
    "office_name_kana": null
  },
  "0044": {
    "postcode": "8560044",
    "prefecture": "長崎県",
    "prefecture_kana": "ナガサキケン",
    "prefecture_code": 42,
    "city": "大村市",
    "city_kana": "オオムラシ",
    "town": "岩松町",
    "town_kana": "イワマツマチ",
    "street": null,
    "office_name": null,
    "office_name_kana": null
  },
  "0045": {
    "postcode": "8560045",
    "prefecture": "長崎県",
    "prefecture_kana": "ナガサキケン",
    "prefecture_code": 42,
    "city": "大村市",
    "city_kana": "オオムラシ",
    "town": "向木場町",
    "town_kana": "ムカイコバマチ",
    "street": null,
    "office_name": null,
    "office_name_kana": null
  },
  "0046": {
    "postcode": "8560046",
    "prefecture": "長崎県",
    "prefecture_kana": "ナガサキケン",
    "prefecture_code": 42,
    "city": "大村市",
    "city_kana": "オオムラシ",
    "town": "木場",
    "town_kana": "コバ",
    "street": null,
    "office_name": null,
    "office_name_kana": null
  },
  "0047": {
    "postcode": "8560047",
    "prefecture": "長崎県",
    "prefecture_kana": "ナガサキケン",
    "prefecture_code": 42,
    "city": "大村市",
    "city_kana": "オオムラシ",
    "town": "須田ノ木町",
    "town_kana": "スダノキマチ",
    "street": null,
    "office_name": null,
    "office_name_kana": null
  },
  "0048": {
    "postcode": "8560048",
    "prefecture": "長崎県",
    "prefecture_kana": "ナガサキケン",
    "prefecture_code": 42,
    "city": "大村市",
    "city_kana": "オオムラシ",
    "town": "赤佐古町",
    "town_kana": "アカサコマチ",
    "street": null,
    "office_name": null,
    "office_name_kana": null
  },
  "0801": {
    "postcode": "8560801",
    "prefecture": "長崎県",
    "prefecture_kana": "ナガサキケン",
    "prefecture_code": 42,
    "city": "大村市",
    "city_kana": "オオムラシ",
    "town": "寿古町",
    "town_kana": "スコマチ",
    "street": null,
    "office_name": null,
    "office_name_kana": null
  },
  "0802": {
    "postcode": "8560802",
    "prefecture": "長崎県",
    "prefecture_kana": "ナガサキケン",
    "prefecture_code": 42,
    "city": "大村市",
    "city_kana": "オオムラシ",
    "town": "皆同町",
    "town_kana": "カイドウマチ",
    "street": null,
    "office_name": null,
    "office_name_kana": null
  },
  "0803": {
    "postcode": "8560803",
    "prefecture": "長崎県",
    "prefecture_kana": "ナガサキケン",
    "prefecture_code": 42,
    "city": "大村市",
    "city_kana": "オオムラシ",
    "town": "竹松町",
    "town_kana": "タケマツマチ",
    "street": null,
    "office_name": null,
    "office_name_kana": null
  },
  "0804": {
    "postcode": "8560804",
    "prefecture": "長崎県",
    "prefecture_kana": "ナガサキケン",
    "prefecture_code": 42,
    "city": "大村市",
    "city_kana": "オオムラシ",
    "town": "大川田町",
    "town_kana": "オオカワダマチ",
    "street": null,
    "office_name": null,
    "office_name_kana": null
  },
  "0805": {
    "postcode": "8560805",
    "prefecture": "長崎県",
    "prefecture_kana": "ナガサキケン",
    "prefecture_code": 42,
    "city": "大村市",
    "city_kana": "オオムラシ",
    "town": "竹松本町",
    "town_kana": "タケマツホンマチ",
    "street": null,
    "office_name": null,
    "office_name_kana": null
  },
  "0806": {
    "postcode": "8560806",
    "prefecture": "長崎県",
    "prefecture_kana": "ナガサキケン",
    "prefecture_code": 42,
    "city": "大村市",
    "city_kana": "オオムラシ",
    "town": "富の原",
    "town_kana": "トミノハラ",
    "street": null,
    "office_name": null,
    "office_name_kana": null
  },
  "0807": {
    "postcode": "8560807",
    "prefecture": "長崎県",
    "prefecture_kana": "ナガサキケン",
    "prefecture_code": 42,
    "city": "大村市",
    "city_kana": "オオムラシ",
    "town": "宮小路",
    "town_kana": "ミヤショウジ",
    "street": null,
    "office_name": null,
    "office_name_kana": null
  },
  "0808": {
    "postcode": "8560808",
    "prefecture": "長崎県",
    "prefecture_kana": "ナガサキケン",
    "prefecture_code": 42,
    "city": "大村市",
    "city_kana": "オオムラシ",
    "town": "黒丸町",
    "town_kana": "クロマルマチ",
    "street": null,
    "office_name": null,
    "office_name_kana": null
  },
  "0809": {
    "postcode": "8560809",
    "prefecture": "長崎県",
    "prefecture_kana": "ナガサキケン",
    "prefecture_code": 42,
    "city": "大村市",
    "city_kana": "オオムラシ",
    "town": "沖田町",
    "town_kana": "オキタマチ",
    "street": null,
    "office_name": null,
    "office_name_kana": null
  },
  "0811": {
    "postcode": "8560811",
    "prefecture": "長崎県",
    "prefecture_kana": "ナガサキケン",
    "prefecture_code": 42,
    "city": "大村市",
    "city_kana": "オオムラシ",
    "town": "原口町",
    "town_kana": "ハラグチマチ",
    "street": null,
    "office_name": null,
    "office_name_kana": null
  },
  "0812": {
    "postcode": "8560812",
    "prefecture": "長崎県",
    "prefecture_kana": "ナガサキケン",
    "prefecture_code": 42,
    "city": "大村市",
    "city_kana": "オオムラシ",
    "town": "桜馬場",
    "town_kana": "サクラババ",
    "street": null,
    "office_name": null,
    "office_name_kana": null
  },
  "0813": {
    "postcode": "8560813",
    "prefecture": "長崎県",
    "prefecture_kana": "ナガサキケン",
    "prefecture_code": 42,
    "city": "大村市",
    "city_kana": "オオムラシ",
    "town": "西大村本町",
    "town_kana": "ニシオオムラホンマチ",
    "street": null,
    "office_name": null,
    "office_name_kana": null
  },
  "0814": {
    "postcode": "8560814",
    "prefecture": "長崎県",
    "prefecture_kana": "ナガサキケン",
    "prefecture_code": 42,
    "city": "大村市",
    "city_kana": "オオムラシ",
    "town": "松並",
    "town_kana": "マツナミ",
    "street": null,
    "office_name": null,
    "office_name_kana": null
  },
  "0815": {
    "postcode": "8560815",
    "prefecture": "長崎県",
    "prefecture_kana": "ナガサキケン",
    "prefecture_code": 42,
    "city": "大村市",
    "city_kana": "オオムラシ",
    "town": "森園町",
    "town_kana": "モリゾノマチ",
    "street": null,
    "office_name": null,
    "office_name_kana": null
  },
  "0816": {
    "postcode": "8560816",
    "prefecture": "長崎県",
    "prefecture_kana": "ナガサキケン",
    "prefecture_code": 42,
    "city": "大村市",
    "city_kana": "オオムラシ",
    "town": "箕島町",
    "town_kana": "ミシママチ",
    "street": null,
    "office_name": null,
    "office_name_kana": null
  },
  "0817": {
    "postcode": "8560817",
    "prefecture": "長崎県",
    "prefecture_kana": "ナガサキケン",
    "prefecture_code": 42,
    "city": "大村市",
    "city_kana": "オオムラシ",
    "town": "古賀島町",
    "town_kana": "コガシママチ",
    "street": null,
    "office_name": null,
    "office_name_kana": null
  },
  "0818": {
    "postcode": "8560818",
    "prefecture": "長崎県",
    "prefecture_kana": "ナガサキケン",
    "prefecture_code": 42,
    "city": "大村市",
    "city_kana": "オオムラシ",
    "town": "今津町",
    "town_kana": "イマヅマチ",
    "street": null,
    "office_name": null,
    "office_name_kana": null
  },
  "0820": {
    "postcode": "8560820",
    "prefecture": "長崎県",
    "prefecture_kana": "ナガサキケン",
    "prefecture_code": 42,
    "city": "大村市",
    "city_kana": "オオムラシ",
    "town": "協和町",
    "town_kana": "キョウワマチ",
    "street": null,
    "office_name": null,
    "office_name_kana": null
  },
  "0821": {
    "postcode": "8560821",
    "prefecture": "長崎県",
    "prefecture_kana": "ナガサキケン",
    "prefecture_code": 42,
    "city": "大村市",
    "city_kana": "オオムラシ",
    "town": "西乾馬場町",
    "town_kana": "ニシイヌイババマチ",
    "street": null,
    "office_name": null,
    "office_name_kana": null
  },
  "0822": {
    "postcode": "8560822",
    "prefecture": "長崎県",
    "prefecture_kana": "ナガサキケン",
    "prefecture_code": 42,
    "city": "大村市",
    "city_kana": "オオムラシ",
    "town": "古町",
    "town_kana": "フルマチ",
    "street": null,
    "office_name": null,
    "office_name_kana": null
  },
  "0823": {
    "postcode": "8560823",
    "prefecture": "長崎県",
    "prefecture_kana": "ナガサキケン",
    "prefecture_code": 42,
    "city": "大村市",
    "city_kana": "オオムラシ",
    "town": "乾馬場町",
    "town_kana": "イヌイババマチ",
    "street": null,
    "office_name": null,
    "office_name_kana": null
  },
  "0824": {
    "postcode": "8560824",
    "prefecture": "長崎県",
    "prefecture_kana": "ナガサキケン",
    "prefecture_code": 42,
    "city": "大村市",
    "city_kana": "オオムラシ",
    "town": "水田町",
    "town_kana": "ミズタマチ",
    "street": null,
    "office_name": null,
    "office_name_kana": null
  },
  "0825": {
    "postcode": "8560825",
    "prefecture": "長崎県",
    "prefecture_kana": "ナガサキケン",
    "prefecture_code": 42,
    "city": "大村市",
    "city_kana": "オオムラシ",
    "town": "西三城町",
    "town_kana": "ニシサンジョウチョウ",
    "street": null,
    "office_name": null,
    "office_name_kana": null
  },
  "0826": {
    "postcode": "8560826",
    "prefecture": "長崎県",
    "prefecture_kana": "ナガサキケン",
    "prefecture_code": 42,
    "city": "大村市",
    "city_kana": "オオムラシ",
    "town": "東三城町",
    "town_kana": "ヒガシサンジョウチョウ",
    "street": null,
    "office_name": null,
    "office_name_kana": null
  },
  "0827": {
    "postcode": "8560827",
    "prefecture": "長崎県",
    "prefecture_kana": "ナガサキケン",
    "prefecture_code": 42,
    "city": "大村市",
    "city_kana": "オオムラシ",
    "town": "水主町",
    "town_kana": "カコマチ",
    "street": null,
    "office_name": null,
    "office_name_kana": null
  },
  "0828": {
    "postcode": "8560828",
    "prefecture": "長崎県",
    "prefecture_kana": "ナガサキケン",
    "prefecture_code": 42,
    "city": "大村市",
    "city_kana": "オオムラシ",
    "town": "杭出津",
    "town_kana": "クイデツ",
    "street": null,
    "office_name": null,
    "office_name_kana": null
  },
  "0829": {
    "postcode": "8560829",
    "prefecture": "長崎県",
    "prefecture_kana": "ナガサキケン",
    "prefecture_code": 42,
    "city": "大村市",
    "city_kana": "オオムラシ",
    "town": "松山町",
    "town_kana": "マツヤママチ",
    "street": null,
    "office_name": null,
    "office_name_kana": null
  },
  "0831": {
    "postcode": "8560831",
    "prefecture": "長崎県",
    "prefecture_kana": "ナガサキケン",
    "prefecture_code": 42,
    "city": "大村市",
    "city_kana": "オオムラシ",
    "town": "東本町",
    "town_kana": "ヒガシホンマチ",
    "street": null,
    "office_name": null,
    "office_name_kana": null
  },
  "0832": {
    "postcode": "8560832",
    "prefecture": "長崎県",
    "prefecture_kana": "ナガサキケン",
    "prefecture_code": 42,
    "city": "大村市",
    "city_kana": "オオムラシ",
    "town": "本町",
    "town_kana": "ホンマチ",
    "street": null,
    "office_name": null,
    "office_name_kana": null
  },
  "0833": {
    "postcode": "8560833",
    "prefecture": "長崎県",
    "prefecture_kana": "ナガサキケン",
    "prefecture_code": 42,
    "city": "大村市",
    "city_kana": "オオムラシ",
    "town": "片町",
    "town_kana": "カタマチ",
    "street": null,
    "office_name": null,
    "office_name_kana": null
  },
  "0834": {
    "postcode": "8560834",
    "prefecture": "長崎県",
    "prefecture_kana": "ナガサキケン",
    "prefecture_code": 42,
    "city": "大村市",
    "city_kana": "オオムラシ",
    "town": "玖島",
    "town_kana": "クシマ",
    "street": null,
    "office_name": null,
    "office_name_kana": null
  },
  "0835": {
    "postcode": "8560835",
    "prefecture": "長崎県",
    "prefecture_kana": "ナガサキケン",
    "prefecture_code": 42,
    "city": "大村市",
    "city_kana": "オオムラシ",
    "town": "久原",
    "town_kana": "クバラ",
    "street": null,
    "office_name": null,
    "office_name_kana": null
  },
  "0836": {
    "postcode": "8560836",
    "prefecture": "長崎県",
    "prefecture_kana": "ナガサキケン",
    "prefecture_code": 42,
    "city": "大村市",
    "city_kana": "オオムラシ",
    "town": "幸町",
    "town_kana": "サイワイマチ",
    "street": null,
    "office_name": null,
    "office_name_kana": null
  },
  "0837": {
    "postcode": "8560837",
    "prefecture": "長崎県",
    "prefecture_kana": "ナガサキケン",
    "prefecture_code": 42,
    "city": "大村市",
    "city_kana": "オオムラシ",
    "town": "西本町",
    "town_kana": "ニシホンマチ",
    "street": null,
    "office_name": null,
    "office_name_kana": null
  },
  "0841": {
    "postcode": "8560841",
    "prefecture": "長崎県",
    "prefecture_kana": "ナガサキケン",
    "prefecture_code": 42,
    "city": "大村市",
    "city_kana": "オオムラシ",
    "town": "陰平町",
    "town_kana": "カゲヒラマチ",
    "street": null,
    "office_name": null,
    "office_name_kana": null
  },
  "0842": {
    "postcode": "8560842",
    "prefecture": "長崎県",
    "prefecture_kana": "ナガサキケン",
    "prefecture_code": 42,
    "city": "大村市",
    "city_kana": "オオムラシ",
    "town": "中里町",
    "town_kana": "ナカザトマチ",
    "street": null,
    "office_name": null,
    "office_name_kana": null
  },
  "0843": {
    "postcode": "8560843",
    "prefecture": "長崎県",
    "prefecture_kana": "ナガサキケン",
    "prefecture_code": 42,
    "city": "大村市",
    "city_kana": "オオムラシ",
    "town": "今村町",
    "town_kana": "イマムラマチ",
    "street": null,
    "office_name": null,
    "office_name_kana": null
  },
  "0844": {
    "postcode": "8560844",
    "prefecture": "長崎県",
    "prefecture_kana": "ナガサキケン",
    "prefecture_code": 42,
    "city": "大村市",
    "city_kana": "オオムラシ",
    "town": "溝陸町",
    "town_kana": "ミゾロクマチ",
    "street": null,
    "office_name": null,
    "office_name_kana": null
  },
  "0845": {
    "postcode": "8560845",
    "prefecture": "長崎県",
    "prefecture_kana": "ナガサキケン",
    "prefecture_code": 42,
    "city": "大村市",
    "city_kana": "オオムラシ",
    "town": "大里町",
    "town_kana": "オオザトマチ",
    "street": null,
    "office_name": null,
    "office_name_kana": null
  },
  "0846": {
    "postcode": "8560846",
    "prefecture": "長崎県",
    "prefecture_kana": "ナガサキケン",
    "prefecture_code": 42,
    "city": "大村市",
    "city_kana": "オオムラシ",
    "town": "日泊町",
    "town_kana": "ヒドマルマチ",
    "street": null,
    "office_name": null,
    "office_name_kana": null
  },
  "0847": {
    "postcode": "8560847",
    "prefecture": "長崎県",
    "prefecture_kana": "ナガサキケン",
    "prefecture_code": 42,
    "city": "大村市",
    "city_kana": "オオムラシ",
    "town": "西部町",
    "town_kana": "セイブマチ",
    "street": null,
    "office_name": null,
    "office_name_kana": null
  },
  "8516": {
    "postcode": "8568516",
    "prefecture": "長崎県",
    "prefecture_kana": "ナガサキケン",
    "prefecture_code": 42,
    "city": "大村市",
    "city_kana": "オオムラシ",
    "town": "西乾馬場町",
    "town_kana": "ニシイヌイババマチ",
    "street": "４１６",
    "office_name": "陸上自衛隊　大村駐屯地",
    "office_name_kana": "リクジヨウジエイタイ オオムラチユウトンチ"
  },
  "8555": {
    "postcode": "8568555",
    "prefecture": "長崎県",
    "prefecture_kana": "ナガサキケン",
    "prefecture_code": 42,
    "city": "大村市",
    "city_kana": "オオムラシ",
    "town": "雄ケ原町",
    "town_kana": "マスラガハラマチ",
    "street": "１３２４−２",
    "office_name": "ＳＵＭＣＯ　ＴＥＣＨＸＩＶ　株式会社　長崎工場",
    "office_name_kana": "サムコ テクシブ カブシキガイシヤ ナガサキコウジヨウ"
  },
  "8560": {
    "postcode": "8568560",
    "prefecture": "長崎県",
    "prefecture_kana": "ナガサキケン",
    "prefecture_code": 42,
    "city": "大村市",
    "city_kana": "オオムラシ",
    "town": "本町",
    "town_kana": "ホンマチ",
    "street": "４５８番地２",
    "office_name": "株式会社　大村浜屋",
    "office_name_kana": "カブシキガイシヤ オオムラハマヤ"
  },
  "8561": {
    "postcode": "8568561",
    "prefecture": "長崎県",
    "prefecture_kana": "ナガサキケン",
    "prefecture_code": 42,
    "city": "大村市",
    "city_kana": "オオムラシ",
    "town": "古賀島町",
    "town_kana": "コガシママチ",
    "street": "１３３番地２２",
    "office_name": "社団法人　地域医療振興協会　市立大村市民病院",
    "office_name_kana": "シヤダンホウジン チイキイリヨウシンコウキヨウカイ シリツオオムラシミンビヨウイン"
  },
  "8562": {
    "postcode": "8568562",
    "prefecture": "長崎県",
    "prefecture_kana": "ナガサキケン",
    "prefecture_code": 42,
    "city": "大村市",
    "city_kana": "オオムラシ",
    "town": "久原",
    "town_kana": "クバラ",
    "street": "２−１００１−１",
    "office_name": "独立行政法人　国立病院機構　長崎医療センター",
    "office_name_kana": "ドクリツギヨウセイホウジン コクリツビヨウインキコウ ナガサキイリヨウセンタ-"
  },
  "8568": {
    "postcode": "8568568",
    "prefecture": "長崎県",
    "prefecture_kana": "ナガサキケン",
    "prefecture_code": 42,
    "city": "大村市",
    "city_kana": "オオムラシ",
    "town": "東本町",
    "town_kana": "ヒガシホンマチ",
    "street": "５３７",
    "office_name": "貞松病院",
    "office_name_kana": "サダマツビヨウイン"
  },
  "8577": {
    "postcode": "8568577",
    "prefecture": "長崎県",
    "prefecture_kana": "ナガサキケン",
    "prefecture_code": 42,
    "city": "大村市",
    "city_kana": "オオムラシ",
    "town": "桜馬場",
    "town_kana": "サクラババ",
    "street": "１丁目２１４−２",
    "office_name": "九州教具　株式会社",
    "office_name_kana": "キユウシユウキヨウグ カブシキガイシヤ"
  },
  "8585": {
    "postcode": "8568585",
    "prefecture": "長崎県",
    "prefecture_kana": "ナガサキケン",
    "prefecture_code": 42,
    "city": "大村市",
    "city_kana": "オオムラシ",
    "town": "今津町",
    "town_kana": "イマヅマチ",
    "street": "１０",
    "office_name": "海上自衛隊　大村航空基地",
    "office_name_kana": "カイジヨウジエイタイ オオムラコウクウキチ"
  },
  "8601": {
    "postcode": "8568601",
    "prefecture": "長崎県",
    "prefecture_kana": "ナガサキケン",
    "prefecture_code": 42,
    "city": "大村市",
    "city_kana": "オオムラシ",
    "town": "東三城町",
    "town_kana": "ヒガシサンジョウチョウ",
    "street": "６−１",
    "office_name": "大村商工会議所",
    "office_name_kana": "オオムラシヨウコウカイギシヨ"
  },
  "8609": {
    "postcode": "8568609",
    "prefecture": "長崎県",
    "prefecture_kana": "ナガサキケン",
    "prefecture_code": 42,
    "city": "大村市",
    "city_kana": "オオムラシ",
    "town": "松並",
    "town_kana": "マツナミ",
    "street": "１丁目２１３−９",
    "office_name": "大村公共職業安定所",
    "office_name_kana": "オオムラコウキヨウシヨクギヨウアンテイシヨ"
  },
  "8670": {
    "postcode": "8568670",
    "prefecture": "長崎県",
    "prefecture_kana": "ナガサキケン",
    "prefecture_code": 42,
    "city": "大村市",
    "city_kana": "オオムラシ",
    "town": "杭出津",
    "town_kana": "クイデツ",
    "street": "１丁目８６３番地１（大村郵便局私書箱第２号）",
    "office_name": "大村市　農業協同組合",
    "office_name_kana": "オオムラシ ノウギヨウキヨウドウクミアイ"
  },
  "8686": {
    "postcode": "8568686",
    "prefecture": "長崎県",
    "prefecture_kana": "ナガサキケン",
    "prefecture_code": 42,
    "city": "大村市",
    "city_kana": "オオムラシ",
    "town": "玖島",
    "town_kana": "クシマ",
    "street": "１丁目２５（大村郵便局私書箱第５号）",
    "office_name": "大村市役所",
    "office_name_kana": "オオムラシヤクシヨ"
  }
}