{
  "0000": {
    "postcode": "8570000",
    "prefecture": "長崎県",
    "prefecture_kana": "ナガサキケン",
    "prefecture_code": 42,
    "city": "佐世保市",
    "city_kana": "サセボシ",
    "town": "",
    "town_kana": "",
    "street": null,
    "office_name": null,
    "office_name_kana": null
  },
  "0001": {
    "postcode": "8570001",
    "prefecture": "長崎県",
    "prefecture_kana": "ナガサキケン",
    "prefecture_code": 42,
    "city": "佐世保市",
    "city_kana": "サセボシ",
    "town": "烏帽子町",
    "town_kana": "エボシチョウ",
    "street": null,
    "office_name": null,
    "office_name_kana": null
  },
  "0011": {
    "postcode": "8570011",
    "prefecture": "長崎県",
    "prefecture_kana": "ナガサキケン",
    "prefecture_code": 42,
    "city": "佐世保市",
    "city_kana": "サセボシ",
    "town": "春日町",
    "town_kana": "カスガチョウ",
    "street": null,
    "office_name": null,
    "office_name_kana": null
  },
  "0012": {
    "postcode": "8570012",
    "prefecture": "長崎県",
    "prefecture_kana": "ナガサキケン",
    "prefecture_code": 42,
    "city": "佐世保市",
    "city_kana": "サセボシ",
    "town": "桜木町",
    "town_kana": "サクラギチョウ",
    "street": null,
    "office_name": null,
    "office_name_kana": null
  },
  "0013": {
    "postcode": "8570013",
    "prefecture": "長崎県",
    "prefecture_kana": "ナガサキケン",
    "prefecture_code": 42,
    "city": "佐世保市",
    "city_kana": "サセボシ",
    "town": "赤木町",
    "town_kana": "アカギチョウ",
    "street": null,
    "office_name": null,
    "office_name_kana": null
  },
  "0014": {
    "postcode": "8570014",
    "prefecture": "長崎県",
    "prefecture_kana": "ナガサキケン",
    "prefecture_code": 42,
    "city": "佐世保市",
    "city_kana": "サセボシ",
    "town": "田代町",
    "town_kana": "タシロチョウ",
    "street": null,
    "office_name": null,
    "office_name_kana": null
  },
  "0015": {
    "postcode": "8570015",
    "prefecture": "長崎県",
    "prefecture_kana": "ナガサキケン",
    "prefecture_code": 42,
    "city": "佐世保市",
    "city_kana": "サセボシ",
    "town": "松山町",
    "town_kana": "マツヤマチョウ",
    "street": null,
    "office_name": null,
    "office_name_kana": null
  },
  "0016": {
    "postcode": "8570016",
    "prefecture": "長崎県",
    "prefecture_kana": "ナガサキケン",
    "prefecture_code": 42,
    "city": "佐世保市",
    "city_kana": "サセボシ",
    "town": "俵町",
    "town_kana": "タワラマチ",
    "street": null,
    "office_name": null,
    "office_name_kana": null
  },
  "0017": {
    "postcode": "8570017",
    "prefecture": "長崎県",
    "prefecture_kana": "ナガサキケン",
    "prefecture_code": 42,
    "city": "佐世保市",
    "city_kana": "サセボシ",
    "town": "梅田町",
    "town_kana": "ウメダマチ",
    "street": null,
    "office_name": null,
    "office_name_kana": null
  },
  "0018": {
    "postcode": "8570018",
    "prefecture": "長崎県",
    "prefecture_kana": "ナガサキケン",
    "prefecture_code": 42,
    "city": "佐世保市",
    "city_kana": "サセボシ",
    "town": "横尾町",
    "town_kana": "ヨコオチョウ",
    "street": null,
    "office_name": null,
    "office_name_kana": null
  },
  "0021": {
    "postcode": "8570021",
    "prefecture": "長崎県",
    "prefecture_kana": "ナガサキケン",
    "prefecture_code": 42,
    "city": "佐世保市",
    "city_kana": "サセボシ",
    "town": "折橋町",
    "town_kana": "オリハシチョウ",
    "street": null,
    "office_name": null,
    "office_name_kana": null
  },
  "0022": {
    "postcode": "8570022",
    "prefecture": "長崎県",
    "prefecture_kana": "ナガサキケン",
    "prefecture_code": 42,
    "city": "佐世保市",
    "city_kana": "サセボシ",
    "town": "山手町",
    "town_kana": "ヤマテチョウ",
    "street": null,
    "office_name": null,
    "office_name_kana": null
  },
  "0023": {
    "postcode": "8570023",
    "prefecture": "長崎県",
    "prefecture_kana": "ナガサキケン",
    "prefecture_code": 42,
    "city": "佐世保市",
    "city_kana": "サセボシ",
    "town": "名切町",
    "town_kana": "ナキリチョウ",
    "street": null,
    "office_name": null,
    "office_name_kana": null
  },
  "0024": {
    "postcode": "8570024",
    "prefecture": "長崎県",
    "prefecture_kana": "ナガサキケン",
    "prefecture_code": 42,
    "city": "佐世保市",
    "city_kana": "サセボシ",
    "town": "花園町",
    "town_kana": "ハナゾノチョウ",
    "street": null,
    "office_name": null,
    "office_name_kana": null
  },
  "0025": {
    "postcode": "8570025",
    "prefecture": "長崎県",
    "prefecture_kana": "ナガサキケン",
    "prefecture_code": 42,
    "city": "佐世保市",
    "city_kana": "サセボシ",
    "town": "熊野町",
    "town_kana": "クマノチョウ",
    "street": null,
    "office_name": null,
    "office_name_kana": null
  },
  "0026": {
    "postcode": "8570026",
    "prefecture": "長崎県",
    "prefecture_kana": "ナガサキケン",
    "prefecture_code": 42,
    "city": "佐世保市",
    "city_kana": "サセボシ",
    "town": "宮地町",
    "town_kana": "ミヤジチョウ",
    "street": null,
    "office_name": null,
    "office_name_kana": null
  },
  "0027": {
    "postcode": "8570027",
    "prefecture": "長崎県",
    "prefecture_kana": "ナガサキケン",
    "prefecture_code": 42,
    "city": "佐世保市",
    "city_kana": "サセボシ",
    "town": "谷郷町",
    "town_kana": "タニゴウチョウ",
    "street": null,
    "office_name": null,
    "office_name_kana": null
  },
  "0028": {
    "postcode": "8570028",
    "prefecture": "長崎県",
    "prefecture_kana": "ナガサキケン",
    "prefecture_code": 42,
    "city": "佐世保市",
    "city_kana": "サセボシ",
    "town": "八幡町",
    "town_kana": "ハチマンチョウ",
    "street": null,
    "office_name": null,
    "office_name_kana": null
  },
  "0031": {
    "postcode": "8570031",
    "prefecture": "長崎県",
    "prefecture_kana": "ナガサキケン",
    "prefecture_code": 42,
    "city": "佐世保市",
    "city_kana": "サセボシ",
    "town": "保立町",
    "town_kana": "ホタテチョウ",
    "street": null,
    "office_name": null,
    "office_name_kana": null
  },
  "0032": {
    "postcode": "8570032",
    "prefecture": "長崎県",
    "prefecture_kana": "ナガサキケン",
    "prefecture_code": 42,
    "city": "佐世保市",
    "city_kana": "サセボシ",
    "town": "宮田町",
    "town_kana": "ミヤダマチ",
    "street": null,
    "office_name": null,
    "office_name_kana": null
  },
  "0033": {
    "postcode": "8570033",
    "prefecture": "長崎県",
    "prefecture_kana": "ナガサキケン",
    "prefecture_code": 42,
    "city": "佐世保市",
    "city_kana": "サセボシ",
    "town": "城山町",
    "town_kana": "シロヤマチョウ",
    "street": null,
    "office_name": null,
    "office_name_kana": null
  },
  "0034": {
    "postcode": "8570034",
    "prefecture": "長崎県",
    "prefecture_kana": "ナガサキケン",
    "prefecture_code": 42,
    "city": "佐世保市",
    "city_kana": "サセボシ",
    "town": "万徳町",
    "town_kana": "マントクチョウ",
    "street": null,
    "office_name": null,
    "office_name_kana": null
  },
  "0035": {
    "postcode": "8570035",
    "prefecture": "長崎県",
    "prefecture_kana": "ナガサキケン",
    "prefecture_code": 42,
    "city": "佐世保市",
    "city_kana": "サセボシ",
    "town": "福田町",
    "town_kana": "フクダマチ",
    "street": null,
    "office_name": null,
    "office_name_kana": null
  },
  "0036": {
    "postcode": "8570036",
    "prefecture": "長崎県",
    "prefecture_kana": "ナガサキケン",
    "prefecture_code": 42,
    "city": "佐世保市",
    "city_kana": "サセボシ",
    "town": "清水町",
    "town_kana": "シミズチョウ",
    "street": null,
    "office_name": null,
    "office_name_kana": null
  },
  "0037": {
    "postcode": "8570037",
    "prefecture": "長崎県",
    "prefecture_kana": "ナガサキケン",
    "prefecture_code": 42,
    "city": "佐世保市",
    "city_kana": "サセボシ",
    "town": "石坂町",
    "town_kana": "イシザカチョウ",
    "street": null,
    "office_name": null,
    "office_name_kana": null
  },
  "0038": {
    "postcode": "8570038",
    "prefecture": "長崎県",
    "prefecture_kana": "ナガサキケン",
    "prefecture_code": 42,
    "city": "佐世保市",
    "city_kana": "サセボシ",
    "town": "中通町",
    "town_kana": "ナカドオリチョウ",
    "street": null,
    "office_name": null,
    "office_name_kana": null
  },
  "0040": {
    "postcode": "8570040",
    "prefecture": "長崎県",
    "prefecture_kana": "ナガサキケン",
    "prefecture_code": 42,
    "city": "佐世保市",
    "city_kana": "サセボシ",
    "town": "比良町",
    "town_kana": "ヒラマチ",
    "street": null,
    "office_name": null,
    "office_name_kana": null
  },
  "0041": {
    "postcode": "8570041",
    "prefecture": "長崎県",
    "prefecture_kana": "ナガサキケン",
    "prefecture_code": 42,
    "city": "佐世保市",
    "city_kana": "サセボシ",
    "town": "木場田町",
    "town_kana": "コバタチョウ",
    "street": null,
    "office_name": null,
    "office_name_kana": null
  },
  "0042": {
    "postcode": "8570042",
    "prefecture": "長崎県",
    "prefecture_kana": "ナガサキケン",
    "prefecture_code": 42,
    "city": "佐世保市",
    "city_kana": "サセボシ",
    "town": "高砂町",
    "town_kana": "タカサゴチョウ",
    "street": null,
    "office_name": null,
    "office_name_kana": null
  },
  "0043": {
    "postcode": "8570043",
    "prefecture": "長崎県",
    "prefecture_kana": "ナガサキケン",
    "prefecture_code": 42,
    "city": "佐世保市",
    "city_kana": "サセボシ",
    "town": "天満町",
    "town_kana": "テンマチョウ",
    "street": null,
    "office_name": null,
    "office_name_kana": null
  },
  "0044": {
    "postcode": "8570044",
    "prefecture": "長崎県",
    "prefecture_kana": "ナガサキケン",
    "prefecture_code": 42,
    "city": "佐世保市",
    "city_kana": "サセボシ",
    "town": "相生町",
    "town_kana": "アイオイチョウ",
    "street": null,
    "office_name": null,
    "office_name_kana": null
  },
  "0045": {
    "postcode": "8570045",
    "prefecture": "長崎県",
    "prefecture_kana": "ナガサキケン",
    "prefecture_code": 42,
    "city": "佐世保市",
    "city_kana": "サセボシ",
    "town": "園田町",
    "town_kana": "ソノダマチ",
    "street": null,
    "office_name": null,
    "office_name_kana": null
  },
  "0046": {
    "postcode": "8570046",
    "prefecture": "長崎県",
    "prefecture_kana": "ナガサキケン",
    "prefecture_code": 42,
    "city": "佐世保市",
    "city_kana": "サセボシ",
    "town": "長尾町",
    "town_kana": "ナガオチョウ",
    "street": null,
    "office_name": null,
    "office_name_kana": null
  },
  "0047": {
    "postcode": "8570047",
    "prefecture": "長崎県",
    "prefecture_kana": "ナガサキケン",
    "prefecture_code": 42,
    "city": "佐世保市",
    "city_kana": "サセボシ",
    "town": "矢岳町",
    "town_kana": "ヤタケチョウ",
    "street": null,
    "office_name": null,
    "office_name_kana": null
  },
  "0048": {
    "postcode": "8570048",
    "prefecture": "長崎県",
    "prefecture_kana": "ナガサキケン",
    "prefecture_code": 42,
    "city": "佐世保市",
    "city_kana": "サセボシ",
    "town": "西大久保町",
    "town_kana": "ニシオオクボチョウ",
    "street": null,
    "office_name": null,
    "office_name_kana": null
  },
  "0049": {
    "postcode": "8570049",
    "prefecture": "長崎県",
    "prefecture_kana": "ナガサキケン",
    "prefecture_code": 42,
    "city": "佐世保市",
    "city_kana": "サセボシ",
    "town": "東大久保町",
    "town_kana": "ヒガシオオクボチョウ",
    "street": null,
    "office_name": null,
    "office_name_kana": null
  },
  "0051": {
    "postcode": "8570051",
    "prefecture": "長崎県",
    "prefecture_kana": "ナガサキケン",
    "prefecture_code": 42,
    "city": "佐世保市",
    "city_kana": "サセボシ",
    "town": "浜田町",
    "town_kana": "ハマダマチ",
    "street": null,
    "office_name": null,
    "office_name_kana": null
  },
  "0052": {
    "postcode": "8570052",
    "prefecture": "長崎県",
    "prefecture_kana": "ナガサキケン",
    "prefecture_code": 42,
    "city": "佐世保市",
    "city_kana": "サセボシ",
    "town": "松浦町",
    "town_kana": "マツウラチョウ",
    "street": null,
    "office_name": null,
    "office_name_kana": null
  },
  "0053": {
    "postcode": "8570053",
    "prefecture": "長崎県",
    "prefecture_kana": "ナガサキケン",
    "prefecture_code": 42,
    "city": "佐世保市",
    "city_kana": "サセボシ",
    "town": "常盤町",
    "town_kana": "トキワチョウ",
    "street": null,
    "office_name": null,
    "office_name_kana": null
  },
  "0054": {
    "postcode": "8570054",
    "prefecture": "長崎県",
    "prefecture_kana": "ナガサキケン",
    "prefecture_code": 42,
    "city": "佐世保市",
    "city_kana": "サセボシ",
    "town": "栄町",
    "town_kana": "サカエマチ",
    "street": null,
    "office_name": null,
    "office_name_kana": null
  },
  "0055": {
    "postcode": "8570055",
    "prefecture": "長崎県",
    "prefecture_kana": "ナガサキケン",
    "prefecture_code": 42,
    "city": "佐世保市",
    "city_kana": "サセボシ",
    "town": "湊町",
    "town_kana": "ミナトマチ",
    "street": null,
    "office_name": null,
    "office_name_kana": null
  },
  "0056": {
    "postcode": "8570056",
    "prefecture": "長崎県",
    "prefecture_kana": "ナガサキケン",
    "prefecture_code": 42,
    "city": "佐世保市",
    "city_kana": "サセボシ",
    "town": "平瀬町",
    "town_kana": "ヒラセチョウ",
    "street": null,
    "office_name": null,
    "office_name_kana": null
  },
  "0057": {
    "postcode": "8570057",
    "prefecture": "長崎県",
    "prefecture_kana": "ナガサキケン",
    "prefecture_code": 42,
    "city": "佐世保市",
    "city_kana": "サセボシ",
    "town": "泉町",
    "town_kana": "イズミチョウ",
    "street": null,
    "office_name": null,
    "office_name_kana": null
  },
  "0058": {
    "postcode": "8570058",
    "prefecture": "長崎県",
    "prefecture_kana": "ナガサキケン",
    "prefecture_code": 42,
    "city": "佐世保市",
    "city_kana": "サセボシ",
    "town": "上町",
    "town_kana": "ウワマチ",
    "street": null,
    "office_name": null,
    "office_name_kana": null
  },
  "0059": {
    "postcode": "8570059",
    "prefecture": "長崎県",
    "prefecture_kana": "ナガサキケン",
    "prefecture_code": 42,
    "city": "佐世保市",
    "city_kana": "サセボシ",
    "town": "元町",
    "town_kana": "モトマチ",
    "street": null,
    "office_name": null,
    "office_name_kana": null
  },
  "0061": {
    "postcode": "8570061",
    "prefecture": "長崎県",
    "prefecture_kana": "ナガサキケン",
    "prefecture_code": 42,
    "city": "佐世保市",
    "city_kana": "サセボシ",
    "town": "今福町",
    "town_kana": "イマブクチョウ",
    "street": null,
    "office_name": null,
    "office_name_kana": null
  },
  "0062": {
    "postcode": "8570062",
    "prefecture": "長崎県",
    "prefecture_kana": "ナガサキケン",
    "prefecture_code": 42,
    "city": "佐世保市",
    "city_kana": "サセボシ",
    "town": "金比良町",
    "town_kana": "コンピラチョウ",
    "street": null,
    "office_name": null,
    "office_name_kana": null
  },
  "0063": {
    "postcode": "8570063",
    "prefecture": "長崎県",
    "prefecture_kana": "ナガサキケン",
    "prefecture_code": 42,
    "city": "佐世保市",
    "city_kana": "サセボシ",
    "town": "立神町",
    "town_kana": "タテガミチョウ",
    "street": null,
    "office_name": null,
    "office_name_kana": null
  },
  "0064": {
    "postcode": "8570064",
    "prefecture": "長崎県",
    "prefecture_kana": "ナガサキケン",
    "prefecture_code": 42,
    "city": "佐世保市",
    "city_kana": "サセボシ",
    "town": "赤崎町",
    "town_kana": "アカサキチョウ",
    "street": null,
    "office_name": null,
    "office_name_kana": null
  },
  "0065": {
    "postcode": "8570065",
    "prefecture": "長崎県",
    "prefecture_kana": "ナガサキケン",
    "prefecture_code": 42,
    "city": "佐世保市",
    "city_kana": "サセボシ",
    "town": "小野町",
    "town_kana": "オノチョウ",
    "street": null,
    "office_name": null,
    "office_name_kana": null
  },
  "0066": {
    "postcode": "8570066",
    "prefecture": "長崎県",
    "prefecture_kana": "ナガサキケン",
    "prefecture_code": 42,
    "city": "佐世保市",
    "city_kana": "サセボシ",
    "town": "小島町",
    "town_kana": "コジマチョウ",
    "street": null,
    "office_name": null,
    "office_name_kana": null
  },
  "0067": {
    "postcode": "8570067",
    "prefecture": "長崎県",
    "prefecture_kana": "ナガサキケン",
    "prefecture_code": 42,
    "city": "佐世保市",
    "city_kana": "サセボシ",
    "town": "神島町",
    "town_kana": "カミシマチョウ",
    "street": null,
    "office_name": null,
    "office_name_kana": null
  },
  "0068": {
    "postcode": "8570068",
    "prefecture": "長崎県",
    "prefecture_kana": "ナガサキケン",
    "prefecture_code": 42,
    "city": "佐世保市",
    "city_kana": "サセボシ",
    "town": "御船町",
    "town_kana": "ミフネチョウ",
    "street": null,
    "office_name": null,
    "office_name_kana": null
  },
  "0069": {
    "postcode": "8570069",
    "prefecture": "長崎県",
    "prefecture_kana": "ナガサキケン",
    "prefecture_code": 42,
    "city": "佐世保市",
    "city_kana": "サセボシ",
    "town": "鵜渡越町",
    "town_kana": "ウドゴエチョウ",
    "street": null,
    "office_name": null,
    "office_name_kana": null
  },
  "0071": {
    "postcode": "8570071",
    "prefecture": "長崎県",
    "prefecture_kana": "ナガサキケン",
    "prefecture_code": 42,
    "city": "長崎市",
    "city_kana": "ナガサキシ",
    "town": "池島町",
    "town_kana": "イケシママチ",
    "street": null,
    "office_name": null,
    "office_name_kana": null
  },
  "0101": {
    "postcode": "8570101",
    "prefecture": "長崎県",
    "prefecture_kana": "ナガサキケン",
    "prefecture_code": 42,
    "city": "佐世保市",
    "city_kana": "サセボシ",
    "town": "知見寺町",
    "town_kana": "チケンジチョウ",
    "street": null,
    "office_name": null,
    "office_name_kana": null
  },
  "0102": {
    "postcode": "8570102",
    "prefecture": "長崎県",
    "prefecture_kana": "ナガサキケン",
    "prefecture_code": 42,
    "city": "佐世保市",
    "city_kana": "サセボシ",
    "town": "松瀬町",
    "town_kana": "マツセチョウ",
    "street": null,
    "office_name": null,
    "office_name_kana": null
  },
  "0103": {
    "postcode": "8570103",
    "prefecture": "長崎県",
    "prefecture_kana": "ナガサキケン",
    "prefecture_code": 42,
    "city": "佐世保市",
    "city_kana": "サセボシ",
    "town": "原分町",
    "town_kana": "ハルブンチョウ",
    "street": null,
    "office_name": null,
    "office_name_kana": null
  },
  "0104": {
    "postcode": "8570104",
    "prefecture": "長崎県",
    "prefecture_kana": "ナガサキケン",
    "prefecture_code": 42,
    "city": "佐世保市",
    "city_kana": "サセボシ",
    "town": "楠木町",
    "town_kana": "クスノキチョウ",
    "street": null,
    "office_name": null,
    "office_name_kana": null
  },
  "0105": {
    "postcode": "8570105",
    "prefecture": "長崎県",
    "prefecture_kana": "ナガサキケン",
    "prefecture_code": 42,
    "city": "佐世保市",
    "city_kana": "サセボシ",
    "town": "白仁田町",
    "town_kana": "シラニタチョウ",
    "street": null,
    "office_name": null,
    "office_name_kana": null
  },
  "0106": {
    "postcode": "8570106",
    "prefecture": "長崎県",
    "prefecture_kana": "ナガサキケン",
    "prefecture_code": 42,
    "city": "佐世保市",
    "city_kana": "サセボシ",
    "town": "菰田町",
    "town_kana": "コモダチョウ",
    "street": null,
    "office_name": null,
    "office_name_kana": null
  },
  "0111": {
    "postcode": "8570111",
    "prefecture": "長崎県",
    "prefecture_kana": "ナガサキケン",
    "prefecture_code": 42,
    "city": "佐世保市",
    "city_kana": "サセボシ",
    "town": "筒井町",
    "town_kana": "ツツイチョウ",
    "street": null,
    "office_name": null,
    "office_name_kana": null
  },
  "0112": {
    "postcode": "8570112",
    "prefecture": "長崎県",
    "prefecture_kana": "ナガサキケン",
    "prefecture_code": 42,
    "city": "佐世保市",
    "city_kana": "サセボシ",
    "town": "柚木町",
    "town_kana": "ユノキチョウ",
    "street": null,
    "office_name": null,
    "office_name_kana": null
  },
  "0113": {
    "postcode": "8570113",
    "prefecture": "長崎県",
    "prefecture_kana": "ナガサキケン",
    "prefecture_code": 42,
    "city": "佐世保市",
    "city_kana": "サセボシ",
    "town": "下宇戸町",
    "town_kana": "シモウドチョウ",
    "street": null,
    "office_name": null,
    "office_name_kana": null
  },
  "0114": {
    "postcode": "8570114",
    "prefecture": "長崎県",
    "prefecture_kana": "ナガサキケン",
    "prefecture_code": 42,
    "city": "佐世保市",
    "city_kana": "サセボシ",
    "town": "小舟町",
    "town_kana": "コフネチョウ",
    "street": null,
    "office_name": null,
    "office_name_kana": null
  },
  "0115": {
    "postcode": "8570115",
    "prefecture": "長崎県",
    "prefecture_kana": "ナガサキケン",
    "prefecture_code": 42,
    "city": "佐世保市",
    "city_kana": "サセボシ",
    "town": "柚木元町",
    "town_kana": "ユノキモトマチ",
    "street": null,
    "office_name": null,
    "office_name_kana": null
  },
  "0121": {
    "postcode": "8570121",
    "prefecture": "長崎県",
    "prefecture_kana": "ナガサキケン",
    "prefecture_code": 42,
    "city": "佐世保市",
    "city_kana": "サセボシ",
    "town": "潜木町",
    "town_kana": "クグルギチョウ",
    "street": null,
    "office_name": null,
    "office_name_kana": null
  },
  "0122": {
    "postcode": "8570122",
    "prefecture": "長崎県",
    "prefecture_kana": "ナガサキケン",
    "prefecture_code": 42,
    "city": "佐世保市",
    "city_kana": "サセボシ",
    "town": "里美町",
    "town_kana": "サトヨシチョウ",
    "street": null,
    "office_name": null,
    "office_name_kana": null
  },
  "0123": {
    "postcode": "8570123",
    "prefecture": "長崎県",
    "prefecture_kana": "ナガサキケン",
    "prefecture_code": 42,
    "city": "佐世保市",
    "city_kana": "サセボシ",
    "town": "川谷町",
    "town_kana": "カワタニチョウ",
    "street": null,
    "office_name": null,
    "office_name_kana": null
  },
  "0124": {
    "postcode": "8570124",
    "prefecture": "長崎県",
    "prefecture_kana": "ナガサキケン",
    "prefecture_code": 42,
    "city": "佐世保市",
    "city_kana": "サセボシ",
    "town": "戸ケ倉町",
    "town_kana": "トガクラチョウ",
    "street": null,
    "office_name": null,
    "office_name_kana": null
  },
  "0125": {
    "postcode": "8570125",
    "prefecture": "長崎県",
    "prefecture_kana": "ナガサキケン",
    "prefecture_code": 42,
    "city": "佐世保市",
    "city_kana": "サセボシ",
    "town": "高花町",
    "town_kana": "タカハナチョウ",
    "street": null,
    "office_name": null,
    "office_name_kana": null
  },
  "0126": {
    "postcode": "8570126",
    "prefecture": "長崎県",
    "prefecture_kana": "ナガサキケン",
    "prefecture_code": 42,
    "city": "佐世保市",
    "city_kana": "サセボシ",
    "town": "上柚木町",
    "town_kana": "カミユノキチョウ",
    "street": null,
    "office_name": null,
    "office_name_kana": null
  },
  "0131": {
    "postcode": "8570131",
    "prefecture": "長崎県",
    "prefecture_kana": "ナガサキケン",
    "prefecture_code": 42,
    "city": "佐世保市",
    "city_kana": "サセボシ",
    "town": "大野町",
    "town_kana": "オオノチョウ",
    "street": null,
    "office_name": null,
    "office_name_kana": null
  },
  "0132": {
    "postcode": "8570132",
    "prefecture": "長崎県",
    "prefecture_kana": "ナガサキケン",
    "prefecture_code": 42,
    "city": "佐世保市",
    "city_kana": "サセボシ",
    "town": "松原町",
    "town_kana": "マツバラチョウ",
    "street": null,
    "office_name": null,
    "office_name_kana": null
  },
  "0133": {
    "postcode": "8570133",
    "prefecture": "長崎県",
    "prefecture_kana": "ナガサキケン",
    "prefecture_code": 42,
    "city": "佐世保市",
    "city_kana": "サセボシ",
    "town": "矢峰町",
    "town_kana": "ヤミネチョウ",
    "street": null,
    "office_name": null,
    "office_name_kana": null
  },
  "0134": {
    "postcode": "8570134",
    "prefecture": "長崎県",
    "prefecture_kana": "ナガサキケン",
    "prefecture_code": 42,
    "city": "佐世保市",
    "city_kana": "サセボシ",
    "town": "瀬戸越",
    "town_kana": "セトゴエ",
    "street": null,
    "office_name": null,
    "office_name_kana": null
  },
  "0135": {
    "postcode": "8570135",
    "prefecture": "長崎県",
    "prefecture_kana": "ナガサキケン",
    "prefecture_code": 42,
    "city": "佐世保市",
    "city_kana": "サセボシ",
    "town": "瀬戸越町",
    "town_kana": "セトゴエチョウ",
    "street": null,
    "office_name": null,
    "office_name_kana": null
  },
  "0136": {
    "postcode": "8570136",
    "prefecture": "長崎県",
    "prefecture_kana": "ナガサキケン",
    "prefecture_code": 42,
    "city": "佐世保市",
    "city_kana": "サセボシ",
    "town": "田原町",
    "town_kana": "タバルチョウ",
    "street": null,
    "office_name": null,
    "office_name_kana": null
  },
  "0141": {
    "postcode": "8570141",
    "prefecture": "長崎県",
    "prefecture_kana": "ナガサキケン",
    "prefecture_code": 42,
    "city": "佐世保市",
    "city_kana": "サセボシ",
    "town": "十文野町",
    "town_kana": "トモンノチョウ",
    "street": null,
    "office_name": null,
    "office_name_kana": null
  },
  "0142": {
    "postcode": "8570142",
    "prefecture": "長崎県",
    "prefecture_kana": "ナガサキケン",
    "prefecture_code": 42,
    "city": "佐世保市",
    "city_kana": "サセボシ",
    "town": "野中町",
    "town_kana": "ノナカチョウ",
    "street": null,
    "office_name": null,
    "office_name_kana": null
  },
  "0143": {
    "postcode": "8570143",
    "prefecture": "長崎県",
    "prefecture_kana": "ナガサキケン",
    "prefecture_code": 42,
    "city": "佐世保市",
    "city_kana": "サセボシ",
    "town": "吉岡町",
    "town_kana": "ヨシオカチョウ",
    "street": null,
    "office_name": null,
    "office_name_kana": null
  },
  "0144": {
    "postcode": "8570144",
    "prefecture": "長崎県",
    "prefecture_kana": "ナガサキケン",
    "prefecture_code": 42,
    "city": "佐世保市",
    "city_kana": "サセボシ",
    "town": "皆瀬町",
    "town_kana": "カイゼチョウ",
    "street": null,
    "office_name": null,
    "office_name_kana": null
  },
  "0145": {
    "postcode": "8570145",
    "prefecture": "長崎県",
    "prefecture_kana": "ナガサキケン",
    "prefecture_code": 42,
    "city": "佐世保市",
    "city_kana": "サセボシ",
    "town": "牧の地町",
    "town_kana": "マキノジチョウ",
    "street": null,
    "office_name": null,
    "office_name_kana": null
  },
  "0146": {
    "postcode": "8570146",
    "prefecture": "長崎県",
    "prefecture_kana": "ナガサキケン",
    "prefecture_code": 42,
    "city": "佐世保市",
    "city_kana": "サセボシ",
    "town": "小川内町",
    "town_kana": "オガワチチョウ",
    "street": null,
    "office_name": null,
    "office_name_kana": null
  },
  "0192": {
    "postcode": "8570192",
    "prefecture": "長崎県",
    "prefecture_kana": "ナガサキケン",
    "prefecture_code": 42,
    "city": "佐世保市",
    "city_kana": "サセボシ",
    "town": "瀬戸越",
    "town_kana": "セトゴエ",
    "street": "４丁目１３１８−１",
    "office_name": "東七　株式会社",
    "office_name_kana": "トウシチ カブシキガイシヤ"
  },
  "0300": {
    "postcode": "8570300",
    "prefecture": "長崎県",
    "prefecture_kana": "ナガサキケン",
    "prefecture_code": 42,
    "city": "北松浦郡佐々町",
    "city_kana": "キタマツウラグンサザチョウ",
    "town": "",
    "town_kana": "",
    "street": null,
    "office_name": null,
    "office_name_kana": null
  },
  "0311": {
    "postcode": "8570311",
    "prefecture": "長崎県",
    "prefecture_kana": "ナガサキケン",
    "prefecture_code": 42,
    "city": "北松浦郡佐々町",
    "city_kana": "キタマツウラグンサザチョウ",
    "town": "本田原免",
    "town_kana": "ホンタバルメン",
    "street": null,
    "office_name": null,
    "office_name_kana": null
  },
  "0312": {
    "postcode": "8570312",
    "prefecture": "長崎県",
    "prefecture_kana": "ナガサキケン",
    "prefecture_code": 42,
    "city": "北松浦郡佐々町",
    "city_kana": "キタマツウラグンサザチョウ",
    "town": "市場免",
    "town_kana": "イチバメン",
    "street": null,
    "office_name": null,
    "office_name_kana": null
  },
  "0313": {
    "postcode": "8570313",
    "prefecture": "長崎県",
    "prefecture_kana": "ナガサキケン",
    "prefecture_code": 42,
    "city": "北松浦郡佐々町",
    "city_kana": "キタマツウラグンサザチョウ",
    "town": "鴨川免",
    "town_kana": "カモガワメン",
    "street": null,
    "office_name": null,
    "office_name_kana": null
  },
  "0314": {
    "postcode": "8570314",
    "prefecture": "長崎県",
    "prefecture_kana": "ナガサキケン",
    "prefecture_code": 42,
    "city": "北松浦郡佐々町",
    "city_kana": "キタマツウラグンサザチョウ",
    "town": "古川免",
    "town_kana": "フルカワメン",
    "street": null,
    "office_name": null,
    "office_name_kana": null
  },
  "0315": {
    "postcode": "8570315",
    "prefecture": "長崎県",
    "prefecture_kana": "ナガサキケン",
    "prefecture_code": 42,
    "city": "北松浦郡佐々町",
    "city_kana": "キタマツウラグンサザチョウ",
    "town": "志方免",
    "town_kana": "シカタメン",
    "street": null,
    "office_name": null,
    "office_name_kana": null
  },
  "0321": {
    "postcode": "8570321",
    "prefecture": "長崎県",
    "prefecture_kana": "ナガサキケン",
    "prefecture_code": 42,
    "city": "北松浦郡佐々町",
    "city_kana": "キタマツウラグンサザチョウ",
    "town": "市瀬免",
    "town_kana": "イチノセメン",
    "street": null,
    "office_name": null,
    "office_name_kana": null
  },
  "0322": {
    "postcode": "8570322",
    "prefecture": "長崎県",
    "prefecture_kana": "ナガサキケン",
    "prefecture_code": 42,
    "city": "北松浦郡佐々町",
    "city_kana": "キタマツウラグンサザチョウ",
    "town": "松瀬免",
    "town_kana": "マツセメン",
    "street": null,
    "office_name": null,
    "office_name_kana": null
  },
  "0323": {
    "postcode": "8570323",
    "prefecture": "長崎県",
    "prefecture_kana": "ナガサキケン",
    "prefecture_code": 42,
    "city": "北松浦郡佐々町",
    "city_kana": "キタマツウラグンサザチョウ",
    "town": "江里免",
    "town_kana": "エリメン",
    "street": null,
    "office_name": null,
    "office_name_kana": null
  },
  "0324": {
    "postcode": "8570324",
    "prefecture": "長崎県",
    "prefecture_kana": "ナガサキケン",
    "prefecture_code": 42,
    "city": "北松浦郡佐々町",
    "city_kana": "キタマツウラグンサザチョウ",
    "town": "大茂免",
    "town_kana": "オオシゲメン",
    "street": null,
    "office_name": null,
    "office_name_kana": null
  },
  "0331": {
    "postcode": "8570331",
    "prefecture": "長崎県",
    "prefecture_kana": "ナガサキケン",
    "prefecture_code": 42,
    "city": "北松浦郡佐々町",
    "city_kana": "キタマツウラグンサザチョウ",
    "town": "野寄免",
    "town_kana": "ノヨリメン",
    "street": null,
    "office_name": null,
    "office_name_kana": null
  },
  "0332": {
    "postcode": "8570332",
    "prefecture": "長崎県",
    "prefecture_kana": "ナガサキケン",
    "prefecture_code": 42,
    "city": "北松浦郡佐々町",
    "city_kana": "キタマツウラグンサザチョウ",
    "town": "栗林免",
    "town_kana": "クリバヤシメン",
    "street": null,
    "office_name": null,
    "office_name_kana": null
  },
  "0333": {
    "postcode": "8570333",
    "prefecture": "長崎県",
    "prefecture_kana": "ナガサキケン",
    "prefecture_code": 42,
    "city": "北松浦郡佐々町",
    "city_kana": "キタマツウラグンサザチョウ",
    "town": "中川原免",
    "town_kana": "ナカガワラメン",
    "street": null,
    "office_name": null,
    "office_name_kana": null
  },
  "0334": {
    "postcode": "8570334",
    "prefecture": "長崎県",
    "prefecture_kana": "ナガサキケン",
    "prefecture_code": 42,
    "city": "北松浦郡佐々町",
    "city_kana": "キタマツウラグンサザチョウ",
    "town": "石木場免",
    "town_kana": "イシコバメン",
    "street": null,
    "office_name": null,
    "office_name_kana": null
  },
  "0335": {
    "postcode": "8570335",
    "prefecture": "長崎県",
    "prefecture_kana": "ナガサキケン",
    "prefecture_code": 42,
    "city": "北松浦郡佐々町",
    "city_kana": "キタマツウラグンサザチョウ",
    "town": "皆瀬免",
    "town_kana": "カイゼメン",
    "street": null,
    "office_name": null,
    "office_name_kana": null
  },
  "0336": {
    "postcode": "8570336",
    "prefecture": "長崎県",
    "prefecture_kana": "ナガサキケン",
    "prefecture_code": 42,
    "city": "北松浦郡佐々町",
    "city_kana": "キタマツウラグンサザチョウ",
    "town": "神田免",
    "town_kana": "コウダメン",
    "street": null,
    "office_name": null,
    "office_name_kana": null
  },
  "0337": {
    "postcode": "8570337",
    "prefecture": "長崎県",
    "prefecture_kana": "ナガサキケン",
    "prefecture_code": 42,
    "city": "北松浦郡佐々町",
    "city_kana": "キタマツウラグンサザチョウ",
    "town": "八口免",
    "town_kana": "ヤクチメン",
    "street": null,
    "office_name": null,
    "office_name_kana": null
  },
  "0338": {
    "postcode": "8570338",
    "prefecture": "長崎県",
    "prefecture_kana": "ナガサキケン",
    "prefecture_code": 42,
    "city": "北松浦郡佐々町",
    "city_kana": "キタマツウラグンサザチョウ",
    "town": "角山免",
    "town_kana": "ツノヤマメン",
    "street": null,
    "office_name": null,
    "office_name_kana": null
  },
  "0341": {
    "postcode": "8570341",
    "prefecture": "長崎県",
    "prefecture_kana": "ナガサキケン",
    "prefecture_code": 42,
    "city": "北松浦郡佐々町",
    "city_kana": "キタマツウラグンサザチョウ",
    "town": "羽須和免",
    "town_kana": "ハスワメン",
    "street": null,
    "office_name": null,
    "office_name_kana": null
  },
  "0342": {
    "postcode": "8570342",
    "prefecture": "長崎県",
    "prefecture_kana": "ナガサキケン",
    "prefecture_code": 42,
    "city": "北松浦郡佐々町",
    "city_kana": "キタマツウラグンサザチョウ",
    "town": "平野免",
    "town_kana": "ヒラノメン",
    "street": null,
    "office_name": null,
    "office_name_kana": null
  },
  "0343": {
    "postcode": "8570343",
    "prefecture": "長崎県",
    "prefecture_kana": "ナガサキケン",
    "prefecture_code": 42,
    "city": "北松浦郡佐々町",
    "city_kana": "キタマツウラグンサザチョウ",
    "town": "木場免",
    "town_kana": "コバメン",
    "street": null,
    "office_name": null,
    "office_name_kana": null
  },
  "0344": {
    "postcode": "8570344",
    "prefecture": "長崎県",
    "prefecture_kana": "ナガサキケン",
    "prefecture_code": 42,
    "city": "北松浦郡佐々町",
    "city_kana": "キタマツウラグンサザチョウ",
    "town": "迎木場免",
    "town_kana": "ムカエコバメン",
    "street": null,
    "office_name": null,
    "office_name_kana": null
  },
  "0351": {
    "postcode": "8570351",
    "prefecture": "長崎県",
    "prefecture_kana": "ナガサキケン",
    "prefecture_code": 42,
    "city": "北松浦郡佐々町",
    "city_kana": "キタマツウラグンサザチョウ",
    "town": "須崎免",
    "town_kana": "スサキメン",
    "street": null,
    "office_name": null,
    "office_name_kana": null
  },
  "0352": {
    "postcode": "8570352",
    "prefecture": "長崎県",
    "prefecture_kana": "ナガサキケン",
    "prefecture_code": 42,
    "city": "北松浦郡佐々町",
    "city_kana": "キタマツウラグンサザチョウ",
    "town": "口石免",
    "town_kana": "クチイシメン",
    "street": null,
    "office_name": null,
    "office_name_kana": null
  },
  "0353": {
    "postcode": "8570353",
    "prefecture": "長崎県",
    "prefecture_kana": "ナガサキケン",
    "prefecture_code": 42,
    "city": "北松浦郡佐々町",
    "city_kana": "キタマツウラグンサザチョウ",
    "town": "沖田免",
    "town_kana": "オキタメン",
    "street": null,
    "office_name": null,
    "office_name_kana": null
  },
  "0361": {
    "postcode": "8570361",
    "prefecture": "長崎県",
    "prefecture_kana": "ナガサキケン",
    "prefecture_code": 42,
    "city": "北松浦郡佐々町",
    "city_kana": "キタマツウラグンサザチョウ",
    "town": "小浦免",
    "town_kana": "コウラメン",
    "street": null,
    "office_name": null,
    "office_name_kana": null
  },
  "0392": {
    "postcode": "8570392",
    "prefecture": "長崎県",
    "prefecture_kana": "ナガサキケン",
    "prefecture_code": 42,
    "city": "北松浦郡佐々町",
    "city_kana": "キタマツウラグンサザチョウ",
    "town": "本田原免",
    "town_kana": "ホンタバルメン",
    "street": "１６８−２",
    "office_name": "佐々町役場",
    "office_name_kana": "サザチヨウヤクバ"
  },
  "0401": {
    "postcode": "8570401",
    "prefecture": "長崎県",
    "prefecture_kana": "ナガサキケン",
    "prefecture_code": 42,
    "city": "佐世保市",
    "city_kana": "サセボシ",
    "town": "小佐々町黒石",
    "town_kana": "コサザチョウクロイシ",
    "street": null,
    "office_name": null,
    "office_name_kana": null
  },
  "0402": {
    "postcode": "8570402",
    "prefecture": "長崎県",
    "prefecture_kana": "ナガサキケン",
    "prefecture_code": 42,
    "city": "佐世保市",
    "city_kana": "サセボシ",
    "town": "小佐々町小坂",
    "town_kana": "コサザチョウコサカ",
    "street": null,
    "office_name": null,
    "office_name_kana": null
  },
  "0403": {
    "postcode": "8570403",
    "prefecture": "長崎県",
    "prefecture_kana": "ナガサキケン",
    "prefecture_code": 42,
    "city": "佐世保市",
    "city_kana": "サセボシ",
    "town": "小佐々町臼ノ浦",
    "town_kana": "コサザチョウウスノウラ",
    "street": null,
    "office_name": null,
    "office_name_kana": null
  },
  "0404": {
    "postcode": "8570404",
    "prefecture": "長崎県",
    "prefecture_kana": "ナガサキケン",
    "prefecture_code": 42,
    "city": "佐世保市",
    "city_kana": "サセボシ",
    "town": "小佐々町田原",
    "town_kana": "コサザチョウタバル",
    "street": null,
    "office_name": null,
    "office_name_kana": null
  },
  "0405": {
    "postcode": "8570405",
    "prefecture": "長崎県",
    "prefecture_kana": "ナガサキケン",
    "prefecture_code": 42,
    "city": "佐世保市",
    "city_kana": "サセボシ",
    "town": "小佐々町葛籠",
    "town_kana": "コサザチョウツヅラ",
    "street": null,
    "office_name": null,
    "office_name_kana": null
  },
  "0406": {
    "postcode": "8570406",
    "prefecture": "長崎県",
    "prefecture_kana": "ナガサキケン",
    "prefecture_code": 42,
    "city": "佐世保市",
    "city_kana": "サセボシ",
    "town": "小佐々町平原",
    "town_kana": "コサザチョウヒラバル",
    "street": null,
    "office_name": null,
    "office_name_kana": null
  },
  "0411": {
    "postcode": "8570411",
    "prefecture": "長崎県",
    "prefecture_kana": "ナガサキケン",
    "prefecture_code": 42,
    "city": "佐世保市",
    "city_kana": "サセボシ",
    "town": "小佐々町岳ノ木場",
    "town_kana": "コサザチョウタケノコバ",
    "street": null,
    "office_name": null,
    "office_name_kana": null
  },
  "0412": {
    "postcode": "8570412",
    "prefecture": "長崎県",
    "prefecture_kana": "ナガサキケン",
    "prefecture_code": 42,
    "city": "佐世保市",
    "city_kana": "サセボシ",
    "town": "小佐々町西川内",
    "town_kana": "コサザチョウニシカワウチ",
    "street": null,
    "office_name": null,
    "office_name_kana": null
  },
  "0413": {
    "postcode": "8570413",
    "prefecture": "長崎県",
    "prefecture_kana": "ナガサキケン",
    "prefecture_code": 42,
    "city": "佐世保市",
    "city_kana": "サセボシ",
    "town": "小佐々町楠泊",
    "town_kana": "コサザチョウクスドマリ",
    "street": null,
    "office_name": null,
    "office_name_kana": null
  },
  "0414": {
    "postcode": "8570414",
    "prefecture": "長崎県",
    "prefecture_kana": "ナガサキケン",
    "prefecture_code": 42,
    "city": "佐世保市",
    "city_kana": "サセボシ",
    "town": "小佐々町矢岳",
    "town_kana": "コサザチョウヤダケ",
    "street": null,
    "office_name": null,
    "office_name_kana": null
  },
  "0431": {
    "postcode": "8570431",
    "prefecture": "長崎県",
    "prefecture_kana": "ナガサキケン",
    "prefecture_code": 42,
    "city": "佐世保市",
    "city_kana": "サセボシ",
    "town": "浅子町",
    "town_kana": "アサゴチョウ",
    "street": null,
    "office_name": null,
    "office_name_kana": null
  },
  "0492": {
    "postcode": "8570492",
    "prefecture": "長崎県",
    "prefecture_kana": "ナガサキケン",
    "prefecture_code": 42,
    "city": "佐世保市",
    "city_kana": "サセボシ",
    "town": "小佐々町楠泊",
    "town_kana": "コサザチョウクスドマリ",
    "street": "６９０−３",
    "office_name": "小佐々行政センター",
    "office_name_kana": "コサザギヨウセイセンタ-"
  },
  "0801": {
    "postcode": "8570801",
    "prefecture": "長崎県",
    "prefecture_kana": "ナガサキケン",
    "prefecture_code": 42,
    "city": "佐世保市",
    "city_kana": "サセボシ",
    "town": "祇園町",
    "town_kana": "ギオンチョウ",
    "street": null,
    "office_name": null,
    "office_name_kana": null
  },
  "0802": {
    "postcode": "8570802",
    "prefecture": "長崎県",
    "prefecture_kana": "ナガサキケン",
    "prefecture_code": 42,
    "city": "佐世保市",
    "city_kana": "サセボシ",
    "town": "高天町",
    "town_kana": "コウテンチョウ",
    "street": null,
    "office_name": null,
    "office_name_kana": null
  },
  "0803": {
    "postcode": "8570803",
    "prefecture": "長崎県",
    "prefecture_kana": "ナガサキケン",
    "prefecture_code": 42,
    "city": "佐世保市",
    "city_kana": "サセボシ",
    "town": "勝富町",
    "town_kana": "カツトミチョウ",
    "street": null,
    "office_name": null,
    "office_name_kana": null
  },
  "0804": {
    "postcode": "8570804",
    "prefecture": "長崎県",
    "prefecture_kana": "ナガサキケン",
    "prefecture_code": 42,
    "city": "佐世保市",
    "city_kana": "サセボシ",
    "town": "松川町",
    "town_kana": "マツカワチョウ",
    "street": null,
    "office_name": null,
    "office_name_kana": null
  },
  "0805": {
    "postcode": "8570805",
    "prefecture": "長崎県",
    "prefecture_kana": "ナガサキケン",
    "prefecture_code": 42,
    "city": "佐世保市",
    "city_kana": "サセボシ",
    "town": "光月町",
    "town_kana": "コウゲツチョウ",
    "street": null,
    "office_name": null,
    "office_name_kana": null
  },
  "0806": {
    "postcode": "8570806",
    "prefecture": "長崎県",
    "prefecture_kana": "ナガサキケン",
    "prefecture_code": 42,
    "city": "佐世保市",
    "city_kana": "サセボシ",
    "town": "島瀬町",
    "town_kana": "シマノセチョウ",
    "street": null,
    "office_name": null,
    "office_name_kana": null
  },
  "0811": {
    "postcode": "8570811",
    "prefecture": "長崎県",
    "prefecture_kana": "ナガサキケン",
    "prefecture_code": 42,
    "city": "佐世保市",
    "city_kana": "サセボシ",
    "town": "高梨町",
    "town_kana": "タカナシチョウ",
    "street": null,
    "office_name": null,
    "office_name_kana": null
  },
  "0812": {
    "postcode": "8570812",
    "prefecture": "長崎県",
    "prefecture_kana": "ナガサキケン",
    "prefecture_code": 42,
    "city": "佐世保市",
    "city_kana": "サセボシ",
    "town": "須佐町",
    "town_kana": "スサマチ",
    "street": null,
    "office_name": null,
    "office_name_kana": null
  },
  "0813": {
    "postcode": "8570813",
    "prefecture": "長崎県",
    "prefecture_kana": "ナガサキケン",
    "prefecture_code": 42,
    "city": "佐世保市",
    "city_kana": "サセボシ",
    "town": "小佐世保町",
    "town_kana": "コサセボチョウ",
    "street": null,
    "office_name": null,
    "office_name_kana": null
  },
  "0821": {
    "postcode": "8570821",
    "prefecture": "長崎県",
    "prefecture_kana": "ナガサキケン",
    "prefecture_code": 42,
    "city": "佐世保市",
    "city_kana": "サセボシ",
    "town": "白木町",
    "town_kana": "シラキチョウ",
    "street": null,
    "office_name": null,
    "office_name_kana": null
  },
  "0822": {
    "postcode": "8570822",
    "prefecture": "長崎県",
    "prefecture_kana": "ナガサキケン",
    "prefecture_code": 42,
    "city": "佐世保市",
    "city_kana": "サセボシ",
    "town": "山祇町",
    "town_kana": "ヤマズミチョウ",
    "street": null,
    "office_name": null,
    "office_name_kana": null
  },
  "0831": {
    "postcode": "8570831",
    "prefecture": "長崎県",
    "prefecture_kana": "ナガサキケン",
    "prefecture_code": 42,
    "city": "佐世保市",
    "city_kana": "サセボシ",
    "town": "須田尾町",
    "town_kana": "スダオチョウ",
    "street": null,
    "office_name": null,
    "office_name_kana": null
  },
  "0832": {
    "postcode": "8570832",
    "prefecture": "長崎県",
    "prefecture_kana": "ナガサキケン",
    "prefecture_code": 42,
    "city": "佐世保市",
    "city_kana": "サセボシ",
    "town": "藤原町",
    "town_kana": "フジワラチョウ",
    "street": null,
    "office_name": null,
    "office_name_kana": null
  },
  "0833": {
    "postcode": "8570833",
    "prefecture": "長崎県",
    "prefecture_kana": "ナガサキケン",
    "prefecture_code": 42,
    "city": "佐世保市",
    "city_kana": "サセボシ",
    "town": "若葉町",
    "town_kana": "ワカバチョウ",
    "street": null,
    "office_name": null,
    "office_name_kana": null
  },
  "0834": {
    "postcode": "8570834",
    "prefecture": "長崎県",
    "prefecture_kana": "ナガサキケン",
    "prefecture_code": 42,
    "city": "佐世保市",
    "city_kana": "サセボシ",
    "town": "潮見町",
    "town_kana": "シオミチョウ",
    "street": null,
    "office_name": null,
    "office_name_kana": null
  },
  "0841": {
    "postcode": "8570841",
    "prefecture": "長崎県",
    "prefecture_kana": "ナガサキケン",
    "prefecture_code": 42,
    "city": "佐世保市",
    "city_kana": "サセボシ",
    "town": "大宮町",
    "town_kana": "オオミヤチョウ",
    "street": null,
    "office_name": null,
    "office_name_kana": null
  },
  "0842": {
    "postcode": "8570842",
    "prefecture": "長崎県",
    "prefecture_kana": "ナガサキケン",
    "prefecture_code": 42,
    "city": "佐世保市",
    "city_kana": "サセボシ",
    "town": "東山町",
    "town_kana": "ヒガシヤマチョウ",
    "street": null,
    "office_name": null,
    "office_name_kana": null
  },
  "0843": {
    "postcode": "8570843",
    "prefecture": "長崎県",
    "prefecture_kana": "ナガサキケン",
    "prefecture_code": 42,
    "city": "佐世保市",
    "city_kana": "サセボシ",
    "town": "大黒町",
    "town_kana": "ダイコクチョウ",
    "street": null,
    "office_name": null,
    "office_name_kana": null
  },
  "0851": {
    "postcode": "8570851",
    "prefecture": "長崎県",
    "prefecture_kana": "ナガサキケン",
    "prefecture_code": 42,
    "city": "佐世保市",
    "city_kana": "サセボシ",
    "town": "稲荷町",
    "town_kana": "イナリチョウ",
    "street": null,
    "office_name": null,
    "office_name_kana": null
  },
  "0852": {
    "postcode": "8570852",
    "prefecture": "長崎県",
    "prefecture_kana": "ナガサキケン",
    "prefecture_code": 42,
    "city": "佐世保市",
    "city_kana": "サセボシ",
    "town": "干尽町",
    "town_kana": "ヒヅクシマチ",
    "street": null,
    "office_name": null,
    "office_name_kana": null
  },
  "0853": {
    "postcode": "8570853",
    "prefecture": "長崎県",
    "prefecture_kana": "ナガサキケン",
    "prefecture_code": 42,
    "city": "佐世保市",
    "city_kana": "サセボシ",
    "town": "前畑町",
    "town_kana": "マエハタチョウ",
    "street": null,
    "office_name": null,
    "office_name_kana": null
  },
  "0854": {
    "postcode": "8570854",
    "prefecture": "長崎県",
    "prefecture_kana": "ナガサキケン",
    "prefecture_code": 42,
    "city": "佐世保市",
    "city_kana": "サセボシ",
    "town": "福石町",
    "town_kana": "フクイシチョウ",
    "street": null,
    "office_name": null,
    "office_name_kana": null
  },
  "0855": {
    "postcode": "8570855",
    "prefecture": "長崎県",
    "prefecture_kana": "ナガサキケン",
    "prefecture_code": 42,
    "city": "佐世保市",
    "city_kana": "サセボシ",
    "town": "新港町",
    "town_kana": "シンミナトマチ",
    "street": null,
    "office_name": null,
    "office_name_kana": null
  },
  "0861": {
    "postcode": "8570861",
    "prefecture": "長崎県",
    "prefecture_kana": "ナガサキケン",
    "prefecture_code": 42,
    "city": "佐世保市",
    "city_kana": "サセボシ",
    "town": "峰坂町",
    "town_kana": "ミネノサカチョウ",
    "street": null,
    "office_name": null,
    "office_name_kana": null
  },
  "0862": {
    "postcode": "8570862",
    "prefecture": "長崎県",
    "prefecture_kana": "ナガサキケン",
    "prefecture_code": 42,
    "city": "佐世保市",
    "city_kana": "サセボシ",
    "town": "白南風町",
    "town_kana": "シラハエチョウ",
    "street": null,
    "office_name": null,
    "office_name_kana": null
  },
  "0863": {
    "postcode": "8570863",
    "prefecture": "長崎県",
    "prefecture_kana": "ナガサキケン",
    "prefecture_code": 42,
    "city": "佐世保市",
    "city_kana": "サセボシ",
    "town": "三浦町",
    "town_kana": "ミウラチョウ",
    "street": null,
    "office_name": null,
    "office_name_kana": null
  },
  "0864": {
    "postcode": "8570864",
    "prefecture": "長崎県",
    "prefecture_kana": "ナガサキケン",
    "prefecture_code": 42,
    "city": "佐世保市",
    "city_kana": "サセボシ",
    "town": "戸尾町",
    "town_kana": "トノオチョウ",
    "street": null,
    "office_name": null,
    "office_name_kana": null
  },
  "0871": {
    "postcode": "8570871",
    "prefecture": "長崎県",
    "prefecture_kana": "ナガサキケン",
    "prefecture_code": 42,
    "city": "佐世保市",
    "city_kana": "サセボシ",
    "town": "本島町",
    "town_kana": "モトシマチョウ",
    "street": null,
    "office_name": null,
    "office_name_kana": null
  },
  "0872": {
    "postcode": "8570872",
    "prefecture": "長崎県",
    "prefecture_kana": "ナガサキケン",
    "prefecture_code": 42,
    "city": "佐世保市",
    "city_kana": "サセボシ",
    "town": "上京町",
    "town_kana": "カミキョウマチ",
    "street": null,
    "office_name": null,
    "office_name_kana": null
  },
  "0873": {
    "postcode": "8570873",
    "prefecture": "長崎県",
    "prefecture_kana": "ナガサキケン",
    "prefecture_code": 42,
    "city": "佐世保市",
    "city_kana": "サセボシ",
    "town": "宮崎町",
    "town_kana": "ミヤザキチョウ",
    "street": null,
    "office_name": null,
    "office_name_kana": null
  },
  "0874": {
    "postcode": "8570874",
    "prefecture": "長崎県",
    "prefecture_kana": "ナガサキケン",
    "prefecture_code": 42,
    "city": "佐世保市",
    "city_kana": "サセボシ",
    "town": "京坪町",
    "town_kana": "キョウノツボチョウ",
    "street": null,
    "office_name": null,
    "office_name_kana": null
  },
  "0875": {
    "postcode": "8570875",
    "prefecture": "長崎県",
    "prefecture_kana": "ナガサキケン",
    "prefecture_code": 42,
    "city": "佐世保市",
    "city_kana": "サセボシ",
    "town": "下京町",
    "town_kana": "シモキョウマチ",
    "street": null,
    "office_name": null,
    "office_name_kana": null
  },
  "0876": {
    "postcode": "8570876",
    "prefecture": "長崎県",
    "prefecture_kana": "ナガサキケン",
    "prefecture_code": 42,
    "city": "佐世保市",
    "city_kana": "サセボシ",
    "town": "塩浜町",
    "town_kana": "シオハマチョウ",
    "street": null,
    "office_name": null,
    "office_name_kana": null
  },
  "0877": {
    "postcode": "8570877",
    "prefecture": "長崎県",
    "prefecture_kana": "ナガサキケン",
    "prefecture_code": 42,
    "city": "佐世保市",
    "city_kana": "サセボシ",
    "town": "万津町",
    "town_kana": "ヨロヅチョウ",
    "street": null,
    "office_name": null,
    "office_name_kana": null
  },
  "0878": {
    "postcode": "8570878",
    "prefecture": "長崎県",
    "prefecture_kana": "ナガサキケン",
    "prefecture_code": 42,
    "city": "佐世保市",
    "city_kana": "サセボシ",
    "town": "山県町",
    "town_kana": "ヤマガタチョウ",
    "street": null,
    "office_name": null,
    "office_name_kana": null
  },
  "0879": {
    "postcode": "8570879",
    "prefecture": "長崎県",
    "prefecture_kana": "ナガサキケン",
    "prefecture_code": 42,
    "city": "佐世保市",
    "city_kana": "サセボシ",
    "town": "島地町",
    "town_kana": "シマンジチョウ",
    "street": null,
    "office_name": null,
    "office_name_kana": null
  },
  "1151": {
    "postcode": "8571151",
    "prefecture": "長崎県",
    "prefecture_kana": "ナガサキケン",
    "prefecture_code": 42,
    "city": "佐世保市",
    "city_kana": "サセボシ",
    "town": "日宇町",
    "town_kana": "ヒウチョウ",
    "street": null,
    "office_name": null,
    "office_name_kana": null
  },
  "1152": {
    "postcode": "8571152",
    "prefecture": "長崎県",
    "prefecture_kana": "ナガサキケン",
    "prefecture_code": 42,
    "city": "佐世保市",
    "city_kana": "サセボシ",
    "town": "黒髪町",
    "town_kana": "クロカミチョウ",
    "street": null,
    "office_name": null,
    "office_name_kana": null
  },
  "1153": {
    "postcode": "8571153",
    "prefecture": "長崎県",
    "prefecture_kana": "ナガサキケン",
    "prefecture_code": 42,
    "city": "佐世保市",
    "city_kana": "サセボシ",
    "town": "もみじが丘町",
    "town_kana": "モミジガオカマチ",
    "street": null,
    "office_name": null,
    "office_name_kana": null
  },
  "1161": {
    "postcode": "8571161",
    "prefecture": "長崎県",
    "prefecture_kana": "ナガサキケン",
    "prefecture_code": 42,
    "city": "佐世保市",
    "city_kana": "サセボシ",
    "town": "大塔町",
    "town_kana": "ダイトウチョウ",
    "street": null,
    "office_name": null,
    "office_name_kana": null
  },
  "1162": {
    "postcode": "8571162",
    "prefecture": "長崎県",
    "prefecture_kana": "ナガサキケン",
    "prefecture_code": 42,
    "city": "佐世保市",
    "city_kana": "サセボシ",
    "town": "卸本町",
    "town_kana": "オロシホンマチ",
    "street": null,
    "office_name": null,
    "office_name_kana": null
  },
  "1163": {
    "postcode": "8571163",
    "prefecture": "長崎県",
    "prefecture_kana": "ナガサキケン",
    "prefecture_code": 42,
    "city": "佐世保市",
    "city_kana": "サセボシ",
    "town": "大岳台町",
    "town_kana": "オオタケダイマチ",
    "street": null,
    "office_name": null,
    "office_name_kana": null
  },
  "1164": {
    "postcode": "8571164",
    "prefecture": "長崎県",
    "prefecture_kana": "ナガサキケン",
    "prefecture_code": 42,
    "city": "佐世保市",
    "city_kana": "サセボシ",
    "town": "白岳町",
    "town_kana": "シラタケチョウ",
    "street": null,
    "office_name": null,
    "office_name_kana": null
  },
  "1165": {
    "postcode": "8571165",
    "prefecture": "長崎県",
    "prefecture_kana": "ナガサキケン",
    "prefecture_code": 42,
    "city": "佐世保市",
    "city_kana": "サセボシ",
    "town": "大和町",
    "town_kana": "ヤマトチョウ",
    "street": null,
    "office_name": null,
    "office_name_kana": null
  },
  "1166": {
    "postcode": "8571166",
    "prefecture": "長崎県",
    "prefecture_kana": "ナガサキケン",
    "prefecture_code": 42,
    "city": "佐世保市",
    "city_kana": "サセボシ",
    "town": "木風町",
    "town_kana": "キカゼチョウ",
    "street": null,
    "office_name": null,
    "office_name_kana": null
  },
  "1167": {
    "postcode": "8571167",
    "prefecture": "長崎県",
    "prefecture_kana": "ナガサキケン",
    "prefecture_code": 42,
    "city": "佐世保市",
    "city_kana": "サセボシ",
    "town": "ひうみ町",
    "town_kana": "ヒウミマチ",
    "street": null,
    "office_name": null,
    "office_name_kana": null
  },
  "1171": {
    "postcode": "8571171",
    "prefecture": "長崎県",
    "prefecture_kana": "ナガサキケン",
    "prefecture_code": 42,
    "city": "佐世保市",
    "city_kana": "サセボシ",
    "town": "沖新町",
    "town_kana": "オキシンマチ",
    "street": null,
    "office_name": null,
    "office_name_kana": null
  },
  "1172": {
    "postcode": "8571172",
    "prefecture": "長崎県",
    "prefecture_kana": "ナガサキケン",
    "prefecture_code": 42,
    "city": "佐世保市",
    "city_kana": "サセボシ",
    "town": "東浜町",
    "town_kana": "ヒガシハマチョウ",
    "street": null,
    "office_name": null,
    "office_name_kana": null
  },
  "1173": {
    "postcode": "8571173",
    "prefecture": "長崎県",
    "prefecture_kana": "ナガサキケン",
    "prefecture_code": 42,
    "city": "佐世保市",
    "city_kana": "サセボシ",
    "town": "十郎新町",
    "town_kana": "ジュウロウシンマチ",
    "street": null,
    "office_name": null,
    "office_name_kana": null
  },
  "1174": {
    "postcode": "8571174",
    "prefecture": "長崎県",
    "prefecture_kana": "ナガサキケン",
    "prefecture_code": 42,
    "city": "佐世保市",
    "city_kana": "サセボシ",
    "town": "天神",
    "town_kana": "テンジン",
    "street": null,
    "office_name": null,
    "office_name_kana": null
  },
  "1175": {
    "postcode": "8571175",
    "prefecture": "長崎県",
    "prefecture_kana": "ナガサキケン",
    "prefecture_code": 42,
    "city": "佐世保市",
    "city_kana": "サセボシ",
    "town": "天神町",
    "town_kana": "テンジンチョウ",
    "street": null,
    "office_name": null,
    "office_name_kana": null
  },
  "1176": {
    "postcode": "8571176",
    "prefecture": "長崎県",
    "prefecture_kana": "ナガサキケン",
    "prefecture_code": 42,
    "city": "佐世保市",
    "city_kana": "サセボシ",
    "town": "崎辺町",
    "town_kana": "サキベチョウ",
    "street": null,
    "office_name": null,
    "office_name_kana": null
  },
  "1192": {
    "postcode": "8571192",
    "prefecture": "長崎県",
    "prefecture_kana": "ナガサキケン",
    "prefecture_code": 42,
    "city": "佐世保市",
    "city_kana": "サセボシ",
    "town": "白岳町",
    "town_kana": "シラタケチョウ",
    "street": "１５１",
    "office_name": "協和商工　株式会社",
    "office_name_kana": "キヨウワシヨウコウ カブシキガイシヤ"
  },
  "1193": {
    "postcode": "8571193",
    "prefecture": "長崎県",
    "prefecture_kana": "ナガサキケン",
    "prefecture_code": 42,
    "city": "佐世保市",
    "city_kana": "サセボシ",
    "town": "沖新町",
    "town_kana": "オキシンマチ",
    "street": "１−１",
    "office_name": "佐世保工業高等専門学校",
    "office_name_kana": "サセボコウギヨウコウトウセンモンガツコウ"
  },
  "1194": {
    "postcode": "8571194",
    "prefecture": "長崎県",
    "prefecture_kana": "ナガサキケン",
    "prefecture_code": 42,
    "city": "佐世保市",
    "city_kana": "サセボシ",
    "town": "崎辺町",
    "town_kana": "サキベチョウ",
    "street": "１１番２",
    "office_name": "陸上自衛隊　崎辺分屯地",
    "office_name_kana": "リクジヨウジエイタイ サキベブントンチ"
  },
  "1195": {
    "postcode": "8571195",
    "prefecture": "長崎県",
    "prefecture_kana": "ナガサキケン",
    "prefecture_code": 42,
    "city": "佐世保市",
    "city_kana": "サセボシ",
    "town": "大和町",
    "town_kana": "ヤマトチョウ",
    "street": "１５",
    "office_name": "医療法人　白十字会",
    "office_name_kana": "イリヨウホウジン ハクジユウジカイ"
  },
  "1197": {
    "postcode": "8571197",
    "prefecture": "長崎県",
    "prefecture_kana": "ナガサキケン",
    "prefecture_code": 42,
    "city": "佐世保市",
    "city_kana": "サセボシ",
    "town": "日宇町",
    "town_kana": "ヒウチョウ",
    "street": "２７８１",
    "office_name": "株式会社　ジャパネットたかた",
    "office_name_kana": "カブシキカイシヤ ジヤパネツトタカタ"
  },
  "1198": {
    "postcode": "8571198",
    "prefecture": "長崎県",
    "prefecture_kana": "ナガサキケン",
    "prefecture_code": 42,
    "city": "佐世保市",
    "city_kana": "サセボシ",
    "town": "大塔町",
    "town_kana": "ダイトウチョウ",
    "street": "８番地２",
    "office_name": "株式会社　エレナ",
    "office_name_kana": "カブシキガイシヤ エレナ"
  },
  "1231": {
    "postcode": "8571231",
    "prefecture": "長崎県",
    "prefecture_kana": "ナガサキケン",
    "prefecture_code": 42,
    "city": "佐世保市",
    "city_kana": "サセボシ",
    "town": "船越町",
    "town_kana": "フナコシチョウ",
    "street": null,
    "office_name": null,
    "office_name_kana": null
  },
  "1232": {
    "postcode": "8571232",
    "prefecture": "長崎県",
    "prefecture_kana": "ナガサキケン",
    "prefecture_code": 42,
    "city": "佐世保市",
    "city_kana": "サセボシ",
    "town": "下船越町",
    "town_kana": "シモフナコシチョウ",
    "street": null,
    "office_name": null,
    "office_name_kana": null
  },
  "1233": {
    "postcode": "8571233",
    "prefecture": "長崎県",
    "prefecture_kana": "ナガサキケン",
    "prefecture_code": 42,
    "city": "佐世保市",
    "city_kana": "サセボシ",
    "town": "庵浦町",
    "town_kana": "イオノウラチョウ",
    "street": null,
    "office_name": null,
    "office_name_kana": null
  },
  "1234": {
    "postcode": "8571234",
    "prefecture": "長崎県",
    "prefecture_kana": "ナガサキケン",
    "prefecture_code": 42,
    "city": "佐世保市",
    "city_kana": "サセボシ",
    "town": "野崎町",
    "town_kana": "ノザキチョウ",
    "street": null,
    "office_name": null,
    "office_name_kana": null
  },
  "1235": {
    "postcode": "8571235",
    "prefecture": "長崎県",
    "prefecture_kana": "ナガサキケン",
    "prefecture_code": 42,
    "city": "佐世保市",
    "city_kana": "サセボシ",
    "town": "俵ケ浦町",
    "town_kana": "タワラガウラチョウ",
    "street": null,
    "office_name": null,
    "office_name_kana": null
  },
  "2221": {
    "postcode": "8572221",
    "prefecture": "長崎県",
    "prefecture_kana": "ナガサキケン",
    "prefecture_code": 42,
    "city": "西海市",
    "city_kana": "サイカイシ",
    "town": "西海町中浦南郷",
    "town_kana": "サイカイチョウナカウラミナミゴウ",
    "street": null,
    "office_name": null,
    "office_name_kana": null
  },
  "2222": {
    "postcode": "8572222",
    "prefecture": "長崎県",
    "prefecture_kana": "ナガサキケン",
    "prefecture_code": 42,
    "city": "西海市",
    "city_kana": "サイカイシ",
    "town": "西海町中浦北郷",
    "town_kana": "サイカイチョウナカウラキタゴウ",
    "street": null,
    "office_name": null,
    "office_name_kana": null
  },
  "2223": {
    "postcode": "8572223",
    "prefecture": "長崎県",
    "prefecture_kana": "ナガサキケン",
    "prefecture_code": 42,
    "city": "西海市",
    "city_kana": "サイカイシ",
    "town": "西海町七釜郷",
    "town_kana": "サイカイチョウナナツガマゴウ",
    "street": null,
    "office_name": null,
    "office_name_kana": null
  },
  "2301": {
    "postcode": "8572301",
    "prefecture": "長崎県",
    "prefecture_kana": "ナガサキケン",
    "prefecture_code": 42,
    "city": "西海市",
    "city_kana": "サイカイシ",
    "town": "大瀬戸町瀬戸板浦郷",
    "town_kana": "オオセトチョウセトイタノウラゴウ",
    "street": null,
    "office_name": null,
    "office_name_kana": null
  },
  "2302": {
    "postcode": "8572302",
    "prefecture": "長崎県",
    "prefecture_kana": "ナガサキケン",
    "prefecture_code": 42,
    "city": "西海市",
    "city_kana": "サイカイシ",
    "town": "大瀬戸町瀬戸樫浦郷",
    "town_kana": "オオセトチョウセトカシノウラゴウ",
    "street": null,
    "office_name": null,
    "office_name_kana": null
  },
  "2303": {
    "postcode": "8572303",
    "prefecture": "長崎県",
    "prefecture_kana": "ナガサキケン",
    "prefecture_code": 42,
    "city": "西海市",
    "city_kana": "サイカイシ",
    "town": "大瀬戸町瀬戸西濱郷",
    "town_kana": "オオセトチョウセトニシハマゴウ",
    "street": null,
    "office_name": null,
    "office_name_kana": null
  },
  "2304": {
    "postcode": "8572304",
    "prefecture": "長崎県",
    "prefecture_kana": "ナガサキケン",
    "prefecture_code": 42,
    "city": "西海市",
    "city_kana": "サイカイシ",
    "town": "大瀬戸町瀬戸下山郷",
    "town_kana": "オオセトチョウセトシタヤマゴウ",
    "street": null,
    "office_name": null,
    "office_name_kana": null
  },
  "2305": {
    "postcode": "8572305",
    "prefecture": "長崎県",
    "prefecture_kana": "ナガサキケン",
    "prefecture_code": 42,
    "city": "西海市",
    "city_kana": "サイカイシ",
    "town": "大瀬戸町瀬戸羽出川郷",
    "town_kana": "オオセトチョウセトハデガワゴウ",
    "street": null,
    "office_name": null,
    "office_name_kana": null
  },
  "2306": {
    "postcode": "8572306",
    "prefecture": "長崎県",
    "prefecture_kana": "ナガサキケン",
    "prefecture_code": 42,
    "city": "西海市",
    "city_kana": "サイカイシ",
    "town": "大瀬戸町瀬戸東濱郷",
    "town_kana": "オオセトチョウセトヒガシハマゴウ",
    "street": null,
    "office_name": null,
    "office_name_kana": null
  },
  "2307": {
    "postcode": "8572307",
    "prefecture": "長崎県",
    "prefecture_kana": "ナガサキケン",
    "prefecture_code": 42,
    "city": "西海市",
    "city_kana": "サイカイシ",
    "town": "大瀬戸町瀬戸福島郷",
    "town_kana": "オオセトチョウセトフクシマゴウ",
    "street": null,
    "office_name": null,
    "office_name_kana": null
  },
  "2311": {
    "postcode": "8572311",
    "prefecture": "長崎県",
    "prefecture_kana": "ナガサキケン",
    "prefecture_code": 42,
    "city": "西海市",
    "city_kana": "サイカイシ",
    "town": "大瀬戸町多以良外郷",
    "town_kana": "オオセトチョウタイラソトゴウ",
    "street": null,
    "office_name": null,
    "office_name_kana": null
  },
  "2312": {
    "postcode": "8572312",
    "prefecture": "長崎県",
    "prefecture_kana": "ナガサキケン",
    "prefecture_code": 42,
    "city": "西海市",
    "city_kana": "サイカイシ",
    "town": "大瀬戸町多以良内郷",
    "town_kana": "オオセトチョウタイラウチゴウ",
    "street": null,
    "office_name": null,
    "office_name_kana": null
  },
  "2321": {
    "postcode": "8572321",
    "prefecture": "長崎県",
    "prefecture_kana": "ナガサキケン",
    "prefecture_code": 42,
    "city": "西海市",
    "city_kana": "サイカイシ",
    "town": "大瀬戸町雪浦幸物郷",
    "town_kana": "オオセトチョウユキノウラコウブツゴウ",
    "street": null,
    "office_name": null,
    "office_name_kana": null
  },
  "2322": {
    "postcode": "8572322",
    "prefecture": "長崎県",
    "prefecture_kana": "ナガサキケン",
    "prefecture_code": 42,
    "city": "西海市",
    "city_kana": "サイカイシ",
    "town": "大瀬戸町雪浦久良木郷",
    "town_kana": "オオセトチョウユキノウラキュウラギゴウ",
    "street": null,
    "office_name": null,
    "office_name_kana": null
  },
  "2323": {
    "postcode": "8572323",
    "prefecture": "長崎県",
    "prefecture_kana": "ナガサキケン",
    "prefecture_code": 42,
    "city": "西海市",
    "city_kana": "サイカイシ",
    "town": "大瀬戸町雪浦河通郷",
    "town_kana": "オオセトチョウユキノウラゴウツウゴウ",
    "street": null,
    "office_name": null,
    "office_name_kana": null
  },
  "2324": {
    "postcode": "8572324",
    "prefecture": "長崎県",
    "prefecture_kana": "ナガサキケン",
    "prefecture_code": 42,
    "city": "西海市",
    "city_kana": "サイカイシ",
    "town": "大瀬戸町雪浦奥浦郷",
    "town_kana": "オオセトチョウユキノウラオクウラゴウ",
    "street": null,
    "office_name": null,
    "office_name_kana": null
  },
  "2325": {
    "postcode": "8572325",
    "prefecture": "長崎県",
    "prefecture_kana": "ナガサキケン",
    "prefecture_code": 42,
    "city": "西海市",
    "city_kana": "サイカイシ",
    "town": "大瀬戸町雪浦小松郷",
    "town_kana": "オオセトチョウユキノウラコマツゴウ",
    "street": null,
    "office_name": null,
    "office_name_kana": null
  },
  "2326": {
    "postcode": "8572326",
    "prefecture": "長崎県",
    "prefecture_kana": "ナガサキケン",
    "prefecture_code": 42,
    "city": "西海市",
    "city_kana": "サイカイシ",
    "town": "大瀬戸町雪浦下郷",
    "town_kana": "オオセトチョウユキノウラシモゴウ",
    "street": null,
    "office_name": null,
    "office_name_kana": null
  },
  "2327": {
    "postcode": "8572327",
    "prefecture": "長崎県",
    "prefecture_kana": "ナガサキケン",
    "prefecture_code": 42,
    "city": "西海市",
    "city_kana": "サイカイシ",
    "town": "大瀬戸町雪浦上郷",
    "town_kana": "オオセトチョウユキノウラカミゴウ",
    "street": null,
    "office_name": null,
    "office_name_kana": null
  },
  "2328": {
    "postcode": "8572328",
    "prefecture": "長崎県",
    "prefecture_kana": "ナガサキケン",
    "prefecture_code": 42,
    "city": "西海市",
    "city_kana": "サイカイシ",
    "town": "大瀬戸町雪浦下釜郷",
    "town_kana": "オオセトチョウユキノウラシモノカマゴウ",
    "street": null,
    "office_name": null,
    "office_name_kana": null
  },
  "2392": {
    "postcode": "8572392",
    "prefecture": "長崎県",
    "prefecture_kana": "ナガサキケン",
    "prefecture_code": 42,
    "city": "西海市",
    "city_kana": "サイカイシ",
    "town": "大瀬戸町瀬戸樫浦郷",
    "town_kana": "オオセトチョウセトカシノウラゴウ",
    "street": "２２２２番地",
    "office_name": "西海市役所",
    "office_name_kana": "サイカイシヤクシヨ"
  },
  "2401": {
    "postcode": "8572401",
    "prefecture": "長崎県",
    "prefecture_kana": "ナガサキケン",
    "prefecture_code": 42,
    "city": "西海市",
    "city_kana": "サイカイシ",
    "town": "大島町黒瀬",
    "town_kana": "オオシマチョウクロセ",
    "street": null,
    "office_name": null,
    "office_name_kana": null
  },
  "2402": {
    "postcode": "8572402",
    "prefecture": "長崎県",
    "prefecture_kana": "ナガサキケン",
    "prefecture_code": 42,
    "city": "西海市",
    "city_kana": "サイカイシ",
    "town": "大島町内浦地区",
    "town_kana": "オオシマチョウウチウラチク",
    "street": null,
    "office_name": null,
    "office_name_kana": null
  },
  "2403": {
    "postcode": "8572403",
    "prefecture": "長崎県",
    "prefecture_kana": "ナガサキケン",
    "prefecture_code": 42,
    "city": "西海市",
    "city_kana": "サイカイシ",
    "town": "大島町馬込",
    "town_kana": "オオシマチョウマゴメ",
    "street": null,
    "office_name": null,
    "office_name_kana": null
  },
  "2405": {
    "postcode": "8572405",
    "prefecture": "長崎県",
    "prefecture_kana": "ナガサキケン",
    "prefecture_code": 42,
    "city": "西海市",
    "city_kana": "サイカイシ",
    "town": "大島町中央地区",
    "town_kana": "オオシマチョウチュウオウチク",
    "street": null,
    "office_name": null,
    "office_name_kana": null
  },
  "2411": {
    "postcode": "8572411",
    "prefecture": "長崎県",
    "prefecture_kana": "ナガサキケン",
    "prefecture_code": 42,
    "city": "西海市",
    "city_kana": "サイカイシ",
    "town": "大島町寺島",
    "town_kana": "オオシマチョウテラシマ",
    "street": null,
    "office_name": null,
    "office_name_kana": null
  },
  "2412": {
    "postcode": "8572412",
    "prefecture": "長崎県",
    "prefecture_kana": "ナガサキケン",
    "prefecture_code": 42,
    "city": "西海市",
    "city_kana": "サイカイシ",
    "town": "大島町真砂",
    "town_kana": "オオシマチョウマサゴ",
    "street": null,
    "office_name": null,
    "office_name_kana": null
  },
  "2413": {
    "postcode": "8572413",
    "prefecture": "長崎県",
    "prefecture_kana": "ナガサキケン",
    "prefecture_code": 42,
    "city": "西海市",
    "city_kana": "サイカイシ",
    "town": "大島町間瀬",
    "town_kana": "オオシマチョウマゼ",
    "street": null,
    "office_name": null,
    "office_name_kana": null
  },
  "2417": {
    "postcode": "8572417",
    "prefecture": "長崎県",
    "prefecture_kana": "ナガサキケン",
    "prefecture_code": 42,
    "city": "西海市",
    "city_kana": "サイカイシ",
    "town": "大島町百合が丘",
    "town_kana": "オオシマチョウユリガオカ",
    "street": null,
    "office_name": null,
    "office_name_kana": null
  },
  "2418": {
    "postcode": "8572418",
    "prefecture": "長崎県",
    "prefecture_kana": "ナガサキケン",
    "prefecture_code": 42,
    "city": "西海市",
    "city_kana": "サイカイシ",
    "town": "大島町徳万",
    "town_kana": "オオシマチョウトクマン",
    "street": null,
    "office_name": null,
    "office_name_kana": null
  },
  "2419": {
    "postcode": "8572419",
    "prefecture": "長崎県",
    "prefecture_kana": "ナガサキケン",
    "prefecture_code": 42,
    "city": "西海市",
    "city_kana": "サイカイシ",
    "town": "大島町蛤",
    "town_kana": "オオシマチョウハマグリ",
    "street": null,
    "office_name": null,
    "office_name_kana": null
  },
  "2421": {
    "postcode": "8572421",
    "prefecture": "長崎県",
    "prefecture_kana": "ナガサキケン",
    "prefecture_code": 42,
    "city": "西海市",
    "city_kana": "サイカイシ",
    "town": "大島町中戸",
    "town_kana": "オオシマチョウナカト",
    "street": null,
    "office_name": null,
    "office_name_kana": null
  },
  "2422": {
    "postcode": "8572422",
    "prefecture": "長崎県",
    "prefecture_kana": "ナガサキケン",
    "prefecture_code": 42,
    "city": "西海市",
    "city_kana": "サイカイシ",
    "town": "大島町太田尾",
    "town_kana": "オオシマチョウオオダオ",
    "street": null,
    "office_name": null,
    "office_name_kana": null
  },
  "2423": {
    "postcode": "8572423",
    "prefecture": "長崎県",
    "prefecture_kana": "ナガサキケン",
    "prefecture_code": 42,
    "city": "西海市",
    "city_kana": "サイカイシ",
    "town": "大島町塔尾",
    "town_kana": "オオシマチョウトオノオ",
    "street": null,
    "office_name": null,
    "office_name_kana": null
  },
  "2424": {
    "postcode": "8572424",
    "prefecture": "長崎県",
    "prefecture_kana": "ナガサキケン",
    "prefecture_code": 42,
    "city": "西海市",
    "city_kana": "サイカイシ",
    "town": "大島町塩田",
    "town_kana": "オオシマチョウシオダ",
    "street": null,
    "office_name": null,
    "office_name_kana": null
  },
  "2425": {
    "postcode": "8572425",
    "prefecture": "長崎県",
    "prefecture_kana": "ナガサキケン",
    "prefecture_code": 42,
    "city": "西海市",
    "city_kana": "サイカイシ",
    "town": "大島町田浦",
    "town_kana": "オオシマチョウタノウラ",
    "street": null,
    "office_name": null,
    "office_name_kana": null
  },
  "2426": {
    "postcode": "8572426",
    "prefecture": "長崎県",
    "prefecture_kana": "ナガサキケン",
    "prefecture_code": 42,
    "city": "西海市",
    "city_kana": "サイカイシ",
    "town": "大島町大島",
    "town_kana": "オオシマチョウオオジマ",
    "street": null,
    "office_name": null,
    "office_name_kana": null
  },
  "2427": {
    "postcode": "8572427",
    "prefecture": "長崎県",
    "prefecture_kana": "ナガサキケン",
    "prefecture_code": 42,
    "city": "西海市",
    "city_kana": "サイカイシ",
    "town": "",
    "town_kana": "",
    "street": null,
    "office_name": null,
    "office_name_kana": null
  },
  "2492": {
    "postcode": "8572492",
    "prefecture": "長崎県",
    "prefecture_kana": "ナガサキケン",
    "prefecture_code": 42,
    "city": "西海市",
    "city_kana": "サイカイシ",
    "town": "大島町",
    "town_kana": null,
    "street": "１８９４−５",
    "office_name": "西海市役所　大島総合支所",
    "office_name_kana": "サイカイシヤクシヨ オオシマソウゴウシシヨ"
  },
  "2494": {
    "postcode": "8572494",
    "prefecture": "長崎県",
    "prefecture_kana": "ナガサキケン",
    "prefecture_code": 42,
    "city": "西海市",
    "city_kana": "サイカイシ",
    "town": "大島町",
    "town_kana": null,
    "street": "１６０５−１",
    "office_name": "株式会社　大島造船所",
    "office_name_kana": "カブシキガイシヤ オオシマゾウセンシヨ"
  },
  "2531": {
    "postcode": "8572531",
    "prefecture": "長崎県",
    "prefecture_kana": "ナガサキケン",
    "prefecture_code": 42,
    "city": "西海市",
    "city_kana": "サイカイシ",
    "town": "大瀬戸町松島内郷",
    "town_kana": "オオセトチョウマツシマウチゴウ",
    "street": null,
    "office_name": null,
    "office_name_kana": null
  },
  "2532": {
    "postcode": "8572532",
    "prefecture": "長崎県",
    "prefecture_kana": "ナガサキケン",
    "prefecture_code": 42,
    "city": "西海市",
    "city_kana": "サイカイシ",
    "town": "大瀬戸町松島外郷",
    "town_kana": "オオセトチョウマツシマソトゴウ",
    "street": null,
    "office_name": null,
    "office_name_kana": null
  },
  "3101": {
    "postcode": "8573101",
    "prefecture": "長崎県",
    "prefecture_kana": "ナガサキケン",
    "prefecture_code": 42,
    "city": "西海市",
    "city_kana": "サイカイシ",
    "town": "崎戸町蠣浦郷",
    "town_kana": "サキトチョウカキノウラゴウ",
    "street": null,
    "office_name": null,
    "office_name_kana": null
  },
  "3102": {
    "postcode": "8573102",
    "prefecture": "長崎県",
    "prefecture_kana": "ナガサキケン",
    "prefecture_code": 42,
    "city": "西海市",
    "city_kana": "サイカイシ",
    "town": "崎戸町本郷",
    "town_kana": "サキトチョウホンゴウ",
    "street": null,
    "office_name": null,
    "office_name_kana": null
  },
  "3103": {
    "postcode": "8573103",
    "prefecture": "長崎県",
    "prefecture_kana": "ナガサキケン",
    "prefecture_code": 42,
    "city": "西海市",
    "city_kana": "サイカイシ",
    "town": "崎戸町江島",
    "town_kana": "サキトチョウエノシマ",
    "street": null,
    "office_name": null,
    "office_name_kana": null
  },
  "3271": {
    "postcode": "8573271",
    "prefecture": "長崎県",
    "prefecture_kana": "ナガサキケン",
    "prefecture_code": 42,
    "city": "佐世保市",
    "city_kana": "サセボシ",
    "town": "黒島町",
    "town_kana": "クロシマチョウ",
    "street": null,
    "office_name": null,
    "office_name_kana": null
  },
  "3311": {
    "postcode": "8573311",
    "prefecture": "長崎県",
    "prefecture_kana": "ナガサキケン",
    "prefecture_code": 42,
    "city": "西海市",
    "city_kana": "サイカイシ",
    "town": "崎戸町平島",
    "town_kana": "サキトチョウヒラシマ",
    "street": null,
    "office_name": null,
    "office_name_kana": null
  },
  "4101": {
    "postcode": "8574101",
    "prefecture": "長崎県",
    "prefecture_kana": "ナガサキケン",
    "prefecture_code": 42,
    "city": "南松浦郡新上五島町",
    "city_kana": "ミナミマツウラグンシンカミゴトウチョウ",
    "town": "赤尾郷",
    "town_kana": "アカオゴウ",
    "street": null,
    "office_name": null,
    "office_name_kana": null
  },
  "4102": {
    "postcode": "8574102",
    "prefecture": "長崎県",
    "prefecture_kana": "ナガサキケン",
    "prefecture_code": 42,
    "city": "南松浦郡新上五島町",
    "city_kana": "ミナミマツウラグンシンカミゴトウチョウ",
    "town": "友住郷",
    "town_kana": "トモスミゴウ",
    "street": null,
    "office_name": null,
    "office_name_kana": null
  },
  "4103": {
    "postcode": "8574103",
    "prefecture": "長崎県",
    "prefecture_kana": "ナガサキケン",
    "prefecture_code": 42,
    "city": "南松浦郡新上五島町",
    "city_kana": "ミナミマツウラグンシンカミゴトウチョウ",
    "town": "江ノ浜郷",
    "town_kana": "エノハマゴウ",
    "street": null,
    "office_name": null,
    "office_name_kana": null
  },
  "4211": {
    "postcode": "8574211",
    "prefecture": "長崎県",
    "prefecture_kana": "ナガサキケン",
    "prefecture_code": 42,
    "city": "南松浦郡新上五島町",
    "city_kana": "ミナミマツウラグンシンカミゴトウチョウ",
    "town": "有川郷",
    "town_kana": "アリカワゴウ",
    "street": null,
    "office_name": null,
    "office_name_kana": null
  },
  "4212": {
    "postcode": "8574212",
    "prefecture": "長崎県",
    "prefecture_kana": "ナガサキケン",
    "prefecture_code": 42,
    "city": "南松浦郡新上五島町",
    "city_kana": "ミナミマツウラグンシンカミゴトウチョウ",
    "town": "小河原郷",
    "town_kana": "オガワラゴウ",
    "street": null,
    "office_name": null,
    "office_name_kana": null
  },
  "4213": {
    "postcode": "8574213",
    "prefecture": "長崎県",
    "prefecture_kana": "ナガサキケン",
    "prefecture_code": 42,
    "city": "南松浦郡新上五島町",
    "city_kana": "ミナミマツウラグンシンカミゴトウチョウ",
    "town": "太田郷",
    "town_kana": "オオタゴウ",
    "street": null,
    "office_name": null,
    "office_name_kana": null
  },
  "4214": {
    "postcode": "8574214",
    "prefecture": "長崎県",
    "prefecture_kana": "ナガサキケン",
    "prefecture_code": 42,
    "city": "南松浦郡新上五島町",
    "city_kana": "ミナミマツウラグンシンカミゴトウチョウ",
    "town": "七目郷",
    "town_kana": "ナナメゴウ",
    "street": null,
    "office_name": null,
    "office_name_kana": null
  },
  "4400": {
    "postcode": "8574400",
    "prefecture": "長崎県",
    "prefecture_kana": "ナガサキケン",
    "prefecture_code": 42,
    "city": "南松浦郡新上五島町",
    "city_kana": "ミナミマツウラグンシンカミゴトウチョウ",
    "town": "",
    "town_kana": "",
    "street": null,
    "office_name": null,
    "office_name_kana": null
  },
  "4401": {
    "postcode": "8574401",
    "prefecture": "長崎県",
    "prefecture_kana": "ナガサキケン",
    "prefecture_code": 42,
    "city": "南松浦郡新上五島町",
    "city_kana": "ミナミマツウラグンシンカミゴトウチョウ",
    "town": "網上郷",
    "town_kana": "アミアゲゴウ",
    "street": null,
    "office_name": null,
    "office_name_kana": null
  },
  "4402": {
    "postcode": "8574402",
    "prefecture": "長崎県",
    "prefecture_kana": "ナガサキケン",
    "prefecture_code": 42,
    "city": "南松浦郡新上五島町",
    "city_kana": "ミナミマツウラグンシンカミゴトウチョウ",
    "town": "奈摩郷",
    "town_kana": "ナマゴウ",
    "street": null,
    "office_name": null,
    "office_name_kana": null
  },
  "4404": {
    "postcode": "8574404",
    "prefecture": "長崎県",
    "prefecture_kana": "ナガサキケン",
    "prefecture_code": 42,
    "city": "南松浦郡新上五島町",
    "city_kana": "ミナミマツウラグンシンカミゴトウチョウ",
    "town": "青方郷",
    "town_kana": "アオカタゴウ",
    "street": null,
    "office_name": null,
    "office_name_kana": null
  },
  "4405": {
    "postcode": "8574405",
    "prefecture": "長崎県",
    "prefecture_kana": "ナガサキケン",
    "prefecture_code": 42,
    "city": "南松浦郡新上五島町",
    "city_kana": "ミナミマツウラグンシンカミゴトウチョウ",
    "town": "船崎郷",
    "town_kana": "フナサキゴウ",
    "street": null,
    "office_name": null,
    "office_name_kana": null
  },
  "4411": {
    "postcode": "8574411",
    "prefecture": "長崎県",
    "prefecture_kana": "ナガサキケン",
    "prefecture_code": 42,
    "city": "南松浦郡新上五島町",
    "city_kana": "ミナミマツウラグンシンカミゴトウチョウ",
    "town": "相河郷",
    "town_kana": "アイコゴウ",
    "street": null,
    "office_name": null,
    "office_name_kana": null
  },
  "4412": {
    "postcode": "8574412",
    "prefecture": "長崎県",
    "prefecture_kana": "ナガサキケン",
    "prefecture_code": 42,
    "city": "南松浦郡新上五島町",
    "city_kana": "ミナミマツウラグンシンカミゴトウチョウ",
    "town": "三日ノ浦郷",
    "town_kana": "ミカノウラゴウ",
    "street": null,
    "office_name": null,
    "office_name_kana": null
  },
  "4413": {
    "postcode": "8574413",
    "prefecture": "長崎県",
    "prefecture_kana": "ナガサキケン",
    "prefecture_code": 42,
    "city": "南松浦郡新上五島町",
    "city_kana": "ミナミマツウラグンシンカミゴトウチョウ",
    "town": "今里郷",
    "town_kana": "イマザトゴウ",
    "street": null,
    "office_name": null,
    "office_name_kana": null
  },
  "4414": {
    "postcode": "8574414",
    "prefecture": "長崎県",
    "prefecture_kana": "ナガサキケン",
    "prefecture_code": 42,
    "city": "南松浦郡新上五島町",
    "city_kana": "ミナミマツウラグンシンカミゴトウチョウ",
    "town": "飯ノ瀬戸郷",
    "town_kana": "イノセドゴウ",
    "street": null,
    "office_name": null,
    "office_name_kana": null
  },
  "4415": {
    "postcode": "8574415",
    "prefecture": "長崎県",
    "prefecture_kana": "ナガサキケン",
    "prefecture_code": 42,
    "city": "南松浦郡新上五島町",
    "city_kana": "ミナミマツウラグンシンカミゴトウチョウ",
    "town": "続浜ノ浦郷",
    "town_kana": "ツヅキハマノウラゴウ",
    "street": null,
    "office_name": null,
    "office_name_kana": null
  },
  "4416": {
    "postcode": "8574416",
    "prefecture": "長崎県",
    "prefecture_kana": "ナガサキケン",
    "prefecture_code": 42,
    "city": "南松浦郡新上五島町",
    "city_kana": "ミナミマツウラグンシンカミゴトウチョウ",
    "town": "道土井郷",
    "town_kana": "ミチドイゴウ",
    "street": null,
    "office_name": null,
    "office_name_kana": null
  },
  "4495": {
    "postcode": "8574495",
    "prefecture": "長崎県",
    "prefecture_kana": "ナガサキケン",
    "prefecture_code": 42,
    "city": "南松浦郡新上五島町",
    "city_kana": "ミナミマツウラグンシンカミゴトウチョウ",
    "town": "青方郷",
    "town_kana": "アオカタゴウ",
    "street": "１５８５−１",
    "office_name": "新上五島町役場",
    "office_name_kana": "シンカミゴトウチヨウヤクバ"
  },
  "4511": {
    "postcode": "8574511",
    "prefecture": "長崎県",
    "prefecture_kana": "ナガサキケン",
    "prefecture_code": 42,
    "city": "南松浦郡新上五島町",
    "city_kana": "ミナミマツウラグンシンカミゴトウチョウ",
    "town": "浦桑郷",
    "town_kana": "ウラクワゴウ",
    "street": null,
    "office_name": null,
    "office_name_kana": null
  },
  "4512": {
    "postcode": "8574512",
    "prefecture": "長崎県",
    "prefecture_kana": "ナガサキケン",
    "prefecture_code": 42,
    "city": "南松浦郡新上五島町",
    "city_kana": "ミナミマツウラグンシンカミゴトウチョウ",
    "town": "榎津郷",
    "town_kana": "エノキヅゴウ",
    "street": null,
    "office_name": null,
    "office_name_kana": null
  },
  "4513": {
    "postcode": "8574513",
    "prefecture": "長崎県",
    "prefecture_kana": "ナガサキケン",
    "prefecture_code": 42,
    "city": "南松浦郡新上五島町",
    "city_kana": "ミナミマツウラグンシンカミゴトウチョウ",
    "town": "丸尾郷",
    "town_kana": "マルオゴウ",
    "street": null,
    "office_name": null,
    "office_name_kana": null
  },
  "4514": {
    "postcode": "8574514",
    "prefecture": "長崎県",
    "prefecture_kana": "ナガサキケン",
    "prefecture_code": 42,
    "city": "南松浦郡新上五島町",
    "city_kana": "ミナミマツウラグンシンカミゴトウチョウ",
    "town": "似首郷",
    "town_kana": "ニタクビゴウ",
    "street": null,
    "office_name": null,
    "office_name_kana": null
  },
  "4592": {
    "postcode": "8574592",
    "prefecture": "長崎県",
    "prefecture_kana": "ナガサキケン",
    "prefecture_code": 42,
    "city": "南松浦郡新上五島町",
    "city_kana": "ミナミマツウラグンシンカミゴトウチョウ",
    "town": "榎津郷",
    "town_kana": "エノキヅゴウ",
    "street": "４９１",
    "office_name": "新上五島町役場　新魚目支所",
    "office_name_kana": "シンカミゴトウチヨウヤクバ シンウオノメシシヨ"
  },
  "4601": {
    "postcode": "8574601",
    "prefecture": "長崎県",
    "prefecture_kana": "ナガサキケン",
    "prefecture_code": 42,
    "city": "南松浦郡新上五島町",
    "city_kana": "ミナミマツウラグンシンカミゴトウチョウ",
    "town": "小串郷",
    "town_kana": "コグシゴウ",
    "street": null,
    "office_name": null,
    "office_name_kana": null
  },
  "4602": {
    "postcode": "8574602",
    "prefecture": "長崎県",
    "prefecture_kana": "ナガサキケン",
    "prefecture_code": 42,
    "city": "南松浦郡新上五島町",
    "city_kana": "ミナミマツウラグンシンカミゴトウチョウ",
    "town": "曽根郷",
    "town_kana": "ソネゴウ",
    "street": null,
    "office_name": null,
    "office_name_kana": null
  },
  "4603": {
    "postcode": "8574603",
    "prefecture": "長崎県",
    "prefecture_kana": "ナガサキケン",
    "prefecture_code": 42,
    "city": "南松浦郡新上五島町",
    "city_kana": "ミナミマツウラグンシンカミゴトウチョウ",
    "town": "立串郷",
    "town_kana": "タテクシゴウ",
    "street": null,
    "office_name": null,
    "office_name_kana": null
  },
  "4604": {
    "postcode": "8574604",
    "prefecture": "長崎県",
    "prefecture_kana": "ナガサキケン",
    "prefecture_code": 42,
    "city": "南松浦郡新上五島町",
    "city_kana": "ミナミマツウラグンシンカミゴトウチョウ",
    "town": "津和崎郷",
    "town_kana": "ツワザキゴウ",
    "street": null,
    "office_name": null,
    "office_name_kana": null
  },
  "4700": {
    "postcode": "8574700",
    "prefecture": "長崎県",
    "prefecture_kana": "ナガサキケン",
    "prefecture_code": 42,
    "city": "北松浦郡小値賀町",
    "city_kana": "キタマツウラグンオヂカチョウ",
    "town": "",
    "town_kana": "",
    "street": null,
    "office_name": null,
    "office_name_kana": null
  },
  "4701": {
    "postcode": "8574701",
    "prefecture": "長崎県",
    "prefecture_kana": "ナガサキケン",
    "prefecture_code": 42,
    "city": "北松浦郡小値賀町",
    "city_kana": "キタマツウラグンオヂカチョウ",
    "town": "笛吹郷",
    "town_kana": "フエフキゴウ",
    "street": null,
    "office_name": null,
    "office_name_kana": null
  },
  "4702": {
    "postcode": "8574702",
    "prefecture": "長崎県",
    "prefecture_kana": "ナガサキケン",
    "prefecture_code": 42,
    "city": "北松浦郡小値賀町",
    "city_kana": "キタマツウラグンオヂカチョウ",
    "town": "前方郷",
    "town_kana": "マエガタゴウ",
    "street": null,
    "office_name": null,
    "office_name_kana": null
  },
  "4703": {
    "postcode": "8574703",
    "prefecture": "長崎県",
    "prefecture_kana": "ナガサキケン",
    "prefecture_code": 42,
    "city": "北松浦郡小値賀町",
    "city_kana": "キタマツウラグンオヂカチョウ",
    "town": "中村郷",
    "town_kana": "ナカムラゴウ",
    "street": null,
    "office_name": null,
    "office_name_kana": null
  },
  "4704": {
    "postcode": "8574704",
    "prefecture": "長崎県",
    "prefecture_kana": "ナガサキケン",
    "prefecture_code": 42,
    "city": "北松浦郡小値賀町",
    "city_kana": "キタマツウラグンオヂカチョウ",
    "town": "柳郷",
    "town_kana": "ヤナギゴウ",
    "street": null,
    "office_name": null,
    "office_name_kana": null
  },
  "4705": {
    "postcode": "8574705",
    "prefecture": "長崎県",
    "prefecture_kana": "ナガサキケン",
    "prefecture_code": 42,
    "city": "北松浦郡小値賀町",
    "city_kana": "キタマツウラグンオヂカチョウ",
    "town": "浜津郷",
    "town_kana": "ハマヅゴウ",
    "street": null,
    "office_name": null,
    "office_name_kana": null
  },
  "4706": {
    "postcode": "8574706",
    "prefecture": "長崎県",
    "prefecture_kana": "ナガサキケン",
    "prefecture_code": 42,
    "city": "北松浦郡小値賀町",
    "city_kana": "キタマツウラグンオヂカチョウ",
    "town": "黒島郷",
    "town_kana": "クロシマゴウ",
    "street": null,
    "office_name": null,
    "office_name_kana": null
  },
  "4707": {
    "postcode": "8574707",
    "prefecture": "長崎県",
    "prefecture_kana": "ナガサキケン",
    "prefecture_code": 42,
    "city": "北松浦郡小値賀町",
    "city_kana": "キタマツウラグンオヂカチョウ",
    "town": "班島郷",
    "town_kana": "マダラシマゴウ",
    "street": null,
    "office_name": null,
    "office_name_kana": null
  },
  "4708": {
    "postcode": "8574708",
    "prefecture": "長崎県",
    "prefecture_kana": "ナガサキケン",
    "prefecture_code": 42,
    "city": "北松浦郡小値賀町",
    "city_kana": "キタマツウラグンオヂカチョウ",
    "town": "大島郷",
    "town_kana": "オオシマゴウ",
    "street": null,
    "office_name": null,
    "office_name_kana": null
  },
  "4709": {
    "postcode": "8574709",
    "prefecture": "長崎県",
    "prefecture_kana": "ナガサキケン",
    "prefecture_code": 42,
    "city": "北松浦郡小値賀町",
    "city_kana": "キタマツウラグンオヂカチョウ",
    "town": "野崎郷",
    "town_kana": "ノザキゴウ",
    "street": null,
    "office_name": null,
    "office_name_kana": null
  },
  "4711": {
    "postcode": "8574711",
    "prefecture": "長崎県",
    "prefecture_kana": "ナガサキケン",
    "prefecture_code": 42,
    "city": "北松浦郡小値賀町",
    "city_kana": "キタマツウラグンオヂカチョウ",
    "town": "納島郷",
    "town_kana": "ノウシマゴウ",
    "street": null,
    "office_name": null,
    "office_name_kana": null
  },
  "4712": {
    "postcode": "8574712",
    "prefecture": "長崎県",
    "prefecture_kana": "ナガサキケン",
    "prefecture_code": 42,
    "city": "北松浦郡小値賀町",
    "city_kana": "キタマツウラグンオヂカチョウ",
    "town": "六島郷",
    "town_kana": "ムシマゴウ",
    "street": null,
    "office_name": null,
    "office_name_kana": null
  },
  "4811": {
    "postcode": "8574811",
    "prefecture": "長崎県",
    "prefecture_kana": "ナガサキケン",
    "prefecture_code": 42,
    "city": "佐世保市",
    "city_kana": "サセボシ",
    "town": "宇久町神浦",
    "town_kana": "ウクマチコウノウラ",
    "street": null,
    "office_name": null,
    "office_name_kana": null
  },
  "4812": {
    "postcode": "8574812",
    "prefecture": "長崎県",
    "prefecture_kana": "ナガサキケン",
    "prefecture_code": 42,
    "city": "佐世保市",
    "city_kana": "サセボシ",
    "town": "宇久町小浜",
    "town_kana": "ウクマチオバマ",
    "street": null,
    "office_name": null,
    "office_name_kana": null
  },
  "4813": {
    "postcode": "8574813",
    "prefecture": "長崎県",
    "prefecture_kana": "ナガサキケン",
    "prefecture_code": 42,
    "city": "佐世保市",
    "city_kana": "サセボシ",
    "town": "宇久町飯良",
    "town_kana": "ウクマチイイラ",
    "street": null,
    "office_name": null,
    "office_name_kana": null
  },
  "4814": {
    "postcode": "8574814",
    "prefecture": "長崎県",
    "prefecture_kana": "ナガサキケン",
    "prefecture_code": 42,
    "city": "佐世保市",
    "city_kana": "サセボシ",
    "town": "宇久町本飯良",
    "town_kana": "ウクマチモトイイラ",
    "street": null,
    "office_name": null,
    "office_name_kana": null
  },
  "4815": {
    "postcode": "8574815",
    "prefecture": "長崎県",
    "prefecture_kana": "ナガサキケン",
    "prefecture_code": 42,
    "city": "佐世保市",
    "city_kana": "サセボシ",
    "town": "宇久町大久保",
    "town_kana": "ウクマチオオクボ",
    "street": null,
    "office_name": null,
    "office_name_kana": null
  },
  "4816": {
    "postcode": "8574816",
    "prefecture": "長崎県",
    "prefecture_kana": "ナガサキケン",
    "prefecture_code": 42,
    "city": "佐世保市",
    "city_kana": "サセボシ",
    "town": "宇久町寺島",
    "town_kana": "ウクマチテラシマ",
    "street": null,
    "office_name": null,
    "office_name_kana": null
  },
  "4901": {
    "postcode": "8574901",
    "prefecture": "長崎県",
    "prefecture_kana": "ナガサキケン",
    "prefecture_code": 42,
    "city": "佐世保市",
    "city_kana": "サセボシ",
    "town": "宇久町平",
    "town_kana": "ウクマチタイラ",
    "street": null,
    "office_name": null,
    "office_name_kana": null
  },
  "4902": {
    "postcode": "8574902",
    "prefecture": "長崎県",
    "prefecture_kana": "ナガサキケン",
    "prefecture_code": 42,
    "city": "佐世保市",
    "city_kana": "サセボシ",
    "town": "宇久町野方",
    "town_kana": "ウクマチノガタ",
    "street": null,
    "office_name": null,
    "office_name_kana": null
  },
  "4903": {
    "postcode": "8574903",
    "prefecture": "長崎県",
    "prefecture_kana": "ナガサキケン",
    "prefecture_code": 42,
    "city": "佐世保市",
    "city_kana": "サセボシ",
    "town": "宇久町太田江",
    "town_kana": "ウクマチオオダエ",
    "street": null,
    "office_name": null,
    "office_name_kana": null
  },
  "4904": {
    "postcode": "8574904",
    "prefecture": "長崎県",
    "prefecture_kana": "ナガサキケン",
    "prefecture_code": 42,
    "city": "佐世保市",
    "city_kana": "サセボシ",
    "town": "宇久町木場",
    "town_kana": "ウクマチコバ",
    "street": null,
    "office_name": null,
    "office_name_kana": null
  },
  "8501": {
    "postcode": "8578501",
    "prefecture": "長崎県",
    "prefecture_kana": "ナガサキケン",
    "prefecture_code": 42,
    "city": "佐世保市",
    "city_kana": "サセボシ",
    "town": "立神町",
    "town_kana": "タテガミチョウ",
    "street": "",
    "office_name": "佐世保重工業株式会社　佐世保造船所",
    "office_name_kana": "サセボジユウコウギヨウカブシキガイシヤ サセボゾウセンシヨ"
  },
  "8502": {
    "postcode": "8578502",
    "prefecture": "長崎県",
    "prefecture_kana": "ナガサキケン",
    "prefecture_code": 42,
    "city": "佐世保市",
    "city_kana": "サセボシ",
    "town": "木場田町",
    "town_kana": "コバタチョウ",
    "street": "３−２５",
    "office_name": "長崎県県北振興局",
    "office_name_kana": "ナガサキケンケンホクシンコウキヨク"
  },
  "8503": {
    "postcode": "8578503",
    "prefecture": "長崎県",
    "prefecture_kana": "ナガサキケン",
    "prefecture_code": 42,
    "city": "佐世保市",
    "city_kana": "サセボシ",
    "town": "松浦町",
    "town_kana": "マツウラチョウ",
    "street": "２−２８",
    "office_name": "ながさき西海　農業協同組合",
    "office_name_kana": "ナガサキサイカイ ノウギヨウキヨウドウクミアイ"
  },
  "8508": {
    "postcode": "8578508",
    "prefecture": "長崎県",
    "prefecture_kana": "ナガサキケン",
    "prefecture_code": 42,
    "city": "佐世保市",
    "city_kana": "サセボシ",
    "town": "万津町",
    "town_kana": "ヨロヅチョウ",
    "street": "５−１",
    "office_name": "玉屋商事　株式会社",
    "office_name_kana": "タマヤシヨウジ カブシキガイシヤ"
  },
  "8510": {
    "postcode": "8578510",
    "prefecture": "長崎県",
    "prefecture_kana": "ナガサキケン",
    "prefecture_code": 42,
    "city": "佐世保市",
    "city_kana": "サセボシ",
    "town": "本島町",
    "town_kana": "モトシマチョウ",
    "street": "４−７",
    "office_name": "株式会社　西沢本店",
    "office_name_kana": "カブシキガイシヤ ニシザワホンテン"
  },
  "8511": {
    "postcode": "8578511",
    "prefecture": "長崎県",
    "prefecture_kana": "ナガサキケン",
    "prefecture_code": 42,
    "city": "佐世保市",
    "city_kana": "サセボシ",
    "town": "平瀬町",
    "town_kana": "ヒラセチョウ",
    "street": "９番地３",
    "office_name": "地方独立行政法人　佐世保市総合医療センター",
    "office_name_kana": "チホウドクリツギヨウセイホウジン サセボシソウゴウイリヨウセンタ-"
  },
  "8533": {
    "postcode": "8578533",
    "prefecture": "長崎県",
    "prefecture_kana": "ナガサキケン",
    "prefecture_code": 42,
    "city": "佐世保市",
    "city_kana": "サセボシ",
    "town": "湊町",
    "town_kana": "ミナトマチ",
    "street": "３−１３",
    "office_name": "山下医科器械　株式会社",
    "office_name_kana": "ヤマシタイカキカイ カブシキガイシヤ"
  },
  "8558": {
    "postcode": "8578558",
    "prefecture": "長崎県",
    "prefecture_kana": "ナガサキケン",
    "prefecture_code": 42,
    "city": "佐世保市",
    "city_kana": "サセボシ",
    "town": "福石町",
    "town_kana": "フクイシチョウ",
    "street": "４−１２",
    "office_name": "九州電力　株式会社　佐世保営業所",
    "office_name_kana": "キユウシユウデンリヨク カブシキガイシヤ サセボエイギヨウシヨ"
  },
  "8566": {
    "postcode": "8578566",
    "prefecture": "長崎県",
    "prefecture_kana": "ナガサキケン",
    "prefecture_code": 42,
    "city": "佐世保市",
    "city_kana": "サセボシ",
    "town": "上京町",
    "town_kana": "カミキョウマチ",
    "street": "４番４号",
    "office_name": "九州テレ・コミュニケーションズ　株式会社　テレビ佐世保",
    "office_name_kana": "キユウシユウテレ・コミユニケ-シヨンズ カブシキガイシヤ テレビサセボ"
  },
  "8575": {
    "postcode": "8578575",
    "prefecture": "長崎県",
    "prefecture_kana": "ナガサキケン",
    "prefecture_code": 42,
    "city": "佐世保市",
    "city_kana": "サセボシ",
    "town": "島地町",
    "town_kana": "シマンジチョウ",
    "street": "１０−１７",
    "office_name": "佐世保共済病院",
    "office_name_kana": "サセボキヨウサイビヨウイン"
  },
  "8577": {
    "postcode": "8578577",
    "prefecture": "長崎県",
    "prefecture_kana": "ナガサキケン",
    "prefecture_code": 42,
    "city": "佐世保市",
    "city_kana": "サセボシ",
    "town": "湊町",
    "town_kana": "ミナトマチ",
    "street": "６−１０",
    "office_name": "佐世保商工会議所",
    "office_name_kana": "サセボシヨウコウカイギシヨ"
  },
  "8585": {
    "postcode": "8578585",
    "prefecture": "長崎県",
    "prefecture_kana": "ナガサキケン",
    "prefecture_code": 42,
    "city": "佐世保市",
    "city_kana": "サセボシ",
    "town": "八幡町",
    "town_kana": "ハチマンチョウ",
    "street": "１−１０",
    "office_name": "佐世保市役所",
    "office_name_kana": "サセボシヤクシヨ"
  },
  "8588": {
    "postcode": "8578588",
    "prefecture": "長崎県",
    "prefecture_kana": "ナガサキケン",
    "prefecture_code": 42,
    "city": "佐世保市",
    "city_kana": "サセボシ",
    "town": "栄町",
    "town_kana": "サカエマチ",
    "street": "２−１",
    "office_name": "株式会社　佐世保玉屋",
    "office_name_kana": "カブシキガイシヤ サセボタマヤ"
  },
  "8611": {
    "postcode": "8578611",
    "prefecture": "長崎県",
    "prefecture_kana": "ナガサキケン",
    "prefecture_code": 42,
    "city": "佐世保市",
    "city_kana": "サセボシ",
    "town": "木場田町",
    "town_kana": "コバタチョウ",
    "street": "２−１９（佐世保郵便局私書箱第２９号）",
    "office_name": "佐世保税務署",
    "office_name_kana": "サセボゼイムシヨ"
  },
  "8666": {
    "postcode": "8578666",
    "prefecture": "長崎県",
    "prefecture_kana": "ナガサキケン",
    "prefecture_code": 42,
    "city": "佐世保市",
    "city_kana": "サセボシ",
    "town": "島瀬町",
    "town_kana": "シマノセチョウ",
    "street": "１０−１２（佐世保郵便局私書箱第１３号）",
    "office_name": "株式会社　親和銀行",
    "office_name_kana": "カブシキガイシヤ シンワギンコウ"
  },
  "8686": {
    "postcode": "8578686",
    "prefecture": "長崎県",
    "prefecture_kana": "ナガサキケン",
    "prefecture_code": 42,
    "city": "佐世保市",
    "city_kana": "サセボシ",
    "town": "常盤町",
    "town_kana": "トキワチョウ",
    "street": "４−２１（佐世保郵便局私書箱第６４号）",
    "office_name": "商工組合中央金庫　佐世保支店",
    "office_name_kana": "シヨウコウクミアイチユウオウキンコ サセボシテン"
  }
}