{
  "0901": {
    "postcode": "8580901",
    "prefecture": "長崎県",
    "prefecture_kana": "ナガサキケン",
    "prefecture_code": 42,
    "city": "佐世保市",
    "city_kana": "サセボシ",
    "town": "岳野町",
    "town_kana": "タケノチョウ",
    "street": null,
    "office_name": null,
    "office_name_kana": null
  },
  "0902": {
    "postcode": "8580902",
    "prefecture": "長崎県",
    "prefecture_kana": "ナガサキケン",
    "prefecture_code": 42,
    "city": "佐世保市",
    "city_kana": "サセボシ",
    "town": "踊石町",
    "town_kana": "オドリイシチョウ",
    "street": null,
    "office_name": null,
    "office_name_kana": null
  },
  "0903": {
    "postcode": "8580903",
    "prefecture": "長崎県",
    "prefecture_kana": "ナガサキケン",
    "prefecture_code": 42,
    "city": "佐世保市",
    "city_kana": "サセボシ",
    "town": "上本山町",
    "town_kana": "カミモトヤマチョウ",
    "street": null,
    "office_name": null,
    "office_name_kana": null
  },
  "0904": {
    "postcode": "8580904",
    "prefecture": "長崎県",
    "prefecture_kana": "ナガサキケン",
    "prefecture_code": 42,
    "city": "佐世保市",
    "city_kana": "サセボシ",
    "town": "中里町",
    "town_kana": "ナカザトチョウ",
    "street": null,
    "office_name": null,
    "office_name_kana": null
  },
  "0905": {
    "postcode": "8580905",
    "prefecture": "長崎県",
    "prefecture_kana": "ナガサキケン",
    "prefecture_code": 42,
    "city": "佐世保市",
    "city_kana": "サセボシ",
    "town": "下本山町",
    "town_kana": "シモモトヤマチョウ",
    "street": null,
    "office_name": null,
    "office_name_kana": null
  },
  "0906": {
    "postcode": "8580906",
    "prefecture": "長崎県",
    "prefecture_kana": "ナガサキケン",
    "prefecture_code": 42,
    "city": "佐世保市",
    "city_kana": "サセボシ",
    "town": "八の久保町",
    "town_kana": "ハチノクボチョウ",
    "street": null,
    "office_name": null,
    "office_name_kana": null
  },
  "0907": {
    "postcode": "8580907",
    "prefecture": "長崎県",
    "prefecture_kana": "ナガサキケン",
    "prefecture_code": 42,
    "city": "佐世保市",
    "city_kana": "サセボシ",
    "town": "棚方町",
    "town_kana": "タナガタチョウ",
    "street": null,
    "office_name": null,
    "office_name_kana": null
  },
  "0908": {
    "postcode": "8580908",
    "prefecture": "長崎県",
    "prefecture_kana": "ナガサキケン",
    "prefecture_code": 42,
    "city": "佐世保市",
    "city_kana": "サセボシ",
    "town": "光町",
    "town_kana": "ヒカリマチ",
    "street": null,
    "office_name": null,
    "office_name_kana": null
  },
  "0911": {
    "postcode": "8580911",
    "prefecture": "長崎県",
    "prefecture_kana": "ナガサキケン",
    "prefecture_code": 42,
    "city": "佐世保市",
    "city_kana": "サセボシ",
    "town": "竹辺町",
    "town_kana": "タケベチョウ",
    "street": null,
    "office_name": null,
    "office_name_kana": null
  },
  "0912": {
    "postcode": "8580912",
    "prefecture": "長崎県",
    "prefecture_kana": "ナガサキケン",
    "prefecture_code": 42,
    "city": "佐世保市",
    "city_kana": "サセボシ",
    "town": "母ケ浦町",
    "town_kana": "ホウガウラチョウ",
    "street": null,
    "office_name": null,
    "office_name_kana": null
  },
  "0913": {
    "postcode": "8580913",
    "prefecture": "長崎県",
    "prefecture_kana": "ナガサキケン",
    "prefecture_code": 42,
    "city": "佐世保市",
    "city_kana": "サセボシ",
    "town": "新田町",
    "town_kana": "シンデンチョウ",
    "street": null,
    "office_name": null,
    "office_name_kana": null
  },
  "0914": {
    "postcode": "8580914",
    "prefecture": "長崎県",
    "prefecture_kana": "ナガサキケン",
    "prefecture_code": 42,
    "city": "佐世保市",
    "city_kana": "サセボシ",
    "town": "川下町",
    "town_kana": "カワシモチョウ",
    "street": null,
    "office_name": null,
    "office_name_kana": null
  },
  "0915": {
    "postcode": "8580915",
    "prefecture": "長崎県",
    "prefecture_kana": "ナガサキケン",
    "prefecture_code": 42,
    "city": "佐世保市",
    "city_kana": "サセボシ",
    "town": "上相浦町",
    "town_kana": "カミアイノウラチョウ",
    "street": null,
    "office_name": null,
    "office_name_kana": null
  },
  "0916": {
    "postcode": "8580916",
    "prefecture": "長崎県",
    "prefecture_kana": "ナガサキケン",
    "prefecture_code": 42,
    "city": "佐世保市",
    "city_kana": "サセボシ",
    "town": "木宮町",
    "town_kana": "キノミヤチョウ",
    "street": null,
    "office_name": null,
    "office_name_kana": null
  },
  "0917": {
    "postcode": "8580917",
    "prefecture": "長崎県",
    "prefecture_kana": "ナガサキケン",
    "prefecture_code": 42,
    "city": "佐世保市",
    "city_kana": "サセボシ",
    "town": "愛宕町",
    "town_kana": "アタゴチョウ",
    "street": null,
    "office_name": null,
    "office_name_kana": null
  },
  "0918": {
    "postcode": "8580918",
    "prefecture": "長崎県",
    "prefecture_kana": "ナガサキケン",
    "prefecture_code": 42,
    "city": "佐世保市",
    "city_kana": "サセボシ",
    "town": "相浦町",
    "town_kana": "アイノウラチョウ",
    "street": null,
    "office_name": null,
    "office_name_kana": null
  },
  "0921": {
    "postcode": "8580921",
    "prefecture": "長崎県",
    "prefecture_kana": "ナガサキケン",
    "prefecture_code": 42,
    "city": "佐世保市",
    "city_kana": "サセボシ",
    "town": "長坂町",
    "town_kana": "ナガサカチョウ",
    "street": null,
    "office_name": null,
    "office_name_kana": null
  },
  "0922": {
    "postcode": "8580922",
    "prefecture": "長崎県",
    "prefecture_kana": "ナガサキケン",
    "prefecture_code": 42,
    "city": "佐世保市",
    "city_kana": "サセボシ",
    "town": "鹿子前町",
    "town_kana": "カシマエチョウ",
    "street": null,
    "office_name": null,
    "office_name_kana": null
  },
  "0923": {
    "postcode": "8580923",
    "prefecture": "長崎県",
    "prefecture_kana": "ナガサキケン",
    "prefecture_code": 42,
    "city": "佐世保市",
    "city_kana": "サセボシ",
    "town": "日野町",
    "town_kana": "ヒノチョウ",
    "street": null,
    "office_name": null,
    "office_name_kana": null
  },
  "0924": {
    "postcode": "8580924",
    "prefecture": "長崎県",
    "prefecture_kana": "ナガサキケン",
    "prefecture_code": 42,
    "city": "佐世保市",
    "city_kana": "サセボシ",
    "town": "星和台町",
    "town_kana": "セイワダイマチ",
    "street": null,
    "office_name": null,
    "office_name_kana": null
  },
  "0925": {
    "postcode": "8580925",
    "prefecture": "長崎県",
    "prefecture_kana": "ナガサキケン",
    "prefecture_code": 42,
    "city": "佐世保市",
    "city_kana": "サセボシ",
    "town": "椎木町",
    "town_kana": "シイノキチョウ",
    "street": null,
    "office_name": null,
    "office_name_kana": null
  },
  "0926": {
    "postcode": "8580926",
    "prefecture": "長崎県",
    "prefecture_kana": "ナガサキケン",
    "prefecture_code": 42,
    "city": "佐世保市",
    "city_kana": "サセボシ",
    "town": "大潟町",
    "town_kana": "オオガタチョウ",
    "street": null,
    "office_name": null,
    "office_name_kana": null
  },
  "0931": {
    "postcode": "8580931",
    "prefecture": "長崎県",
    "prefecture_kana": "ナガサキケン",
    "prefecture_code": 42,
    "city": "佐世保市",
    "city_kana": "サセボシ",
    "town": "高島町",
    "town_kana": "タカシマチョウ",
    "street": null,
    "office_name": null,
    "office_name_kana": null
  },
  "0965": {
    "postcode": "8580965",
    "prefecture": "長崎県",
    "prefecture_kana": "ナガサキケン",
    "prefecture_code": 42,
    "city": "佐世保市",
    "city_kana": "サセボシ",
    "town": "小野町",
    "town_kana": "オノチョウ",
    "street": null,
    "office_name": null,
    "office_name_kana": null
  },
  "8501": {
    "postcode": "8588501",
    "prefecture": "長崎県",
    "prefecture_kana": "ナガサキケン",
    "prefecture_code": 42,
    "city": "佐世保市",
    "city_kana": "サセボシ",
    "town": "光町",
    "town_kana": "ヒカリマチ",
    "street": "１７７番地２",
    "office_name": "株式会社　相浦機械",
    "office_name_kana": "カブシキガイシヤ アイノウラキカイ"
  },
  "8555": {
    "postcode": "8588555",
    "prefecture": "長崎県",
    "prefecture_kana": "ナガサキケン",
    "prefecture_code": 42,
    "city": "佐世保市",
    "city_kana": "サセボシ",
    "town": "大潟町",
    "town_kana": "オオガタチョウ",
    "street": "６７８",
    "office_name": "陸上自衛隊　相浦駐屯地",
    "office_name_kana": "リクジヨウジエイタイ アイウラチユウトンチ"
  },
  "8580": {
    "postcode": "8588580",
    "prefecture": "長崎県",
    "prefecture_kana": "ナガサキケン",
    "prefecture_code": 42,
    "city": "佐世保市",
    "city_kana": "サセボシ",
    "town": "川下町",
    "town_kana": "カワシモチョウ",
    "street": "１２３",
    "office_name": "長崎県立大学",
    "office_name_kana": "ナガサキケンリツダイガク"
  },
  "8585": {
    "postcode": "8588585",
    "prefecture": "長崎県",
    "prefecture_kana": "ナガサキケン",
    "prefecture_code": 42,
    "city": "佐世保市",
    "city_kana": "サセボシ",
    "town": "光町",
    "town_kana": "ヒカリマチ",
    "street": "１８３−１",
    "office_name": "九州電力　株式会社　相浦発電所",
    "office_name_kana": "キユウシユウデンリヨク カブシキガイシヤ アイウラハツデンシヨ"
  },
  "8588": {
    "postcode": "8588588",
    "prefecture": "長崎県",
    "prefecture_kana": "ナガサキケン",
    "prefecture_code": 42,
    "city": "佐世保市",
    "city_kana": "サセボシ",
    "town": "母ケ浦町",
    "town_kana": "ホウガウラチョウ",
    "street": "８８８−１",
    "office_name": "佐世保実業高等学校",
    "office_name_kana": "サセボジツギヨウコウトウガツコウ"
  },
  "8589": {
    "postcode": "8588589",
    "prefecture": "長崎県",
    "prefecture_kana": "ナガサキケン",
    "prefecture_code": 42,
    "city": "佐世保市",
    "city_kana": "サセボシ",
    "town": "鹿子前町",
    "town_kana": "カシマエチョウ",
    "street": "７４０",
    "office_name": "株式会社　九十九島観光ホテル",
    "office_name_kana": "カブシキガイシヤ クジユウクシマカンコウホテル"
  }
}