{
  "0901": {
    "postcode": "8620901",
    "prefecture": "熊本県",
    "prefecture_kana": "クマモトケン",
    "prefecture_code": 43,
    "city": "熊本市東区",
    "city_kana": "クマモトシヒガシク",
    "town": "東町",
    "town_kana": "ヒガシマチ",
    "street": null,
    "office_name": null,
    "office_name_kana": null
  },
  "0902": {
    "postcode": "8620902",
    "prefecture": "熊本県",
    "prefecture_kana": "クマモトケン",
    "prefecture_code": 43,
    "city": "熊本市東区",
    "city_kana": "クマモトシヒガシク",
    "town": "東本町",
    "town_kana": "ヒガシホンマチ",
    "street": null,
    "office_name": null,
    "office_name_kana": null
  },
  "0903": {
    "postcode": "8620903",
    "prefecture": "熊本県",
    "prefecture_kana": "クマモトケン",
    "prefecture_code": 43,
    "city": "熊本市東区",
    "city_kana": "クマモトシヒガシク",
    "town": "若葉",
    "town_kana": "ワカバ",
    "street": null,
    "office_name": null,
    "office_name_kana": null
  },
  "0904": {
    "postcode": "8620904",
    "prefecture": "熊本県",
    "prefecture_kana": "クマモトケン",
    "prefecture_code": 43,
    "city": "熊本市東区",
    "city_kana": "クマモトシヒガシク",
    "town": "栄町",
    "town_kana": "サカエマチ",
    "street": null,
    "office_name": null,
    "office_name_kana": null
  },
  "0905": {
    "postcode": "8620905",
    "prefecture": "熊本県",
    "prefecture_kana": "クマモトケン",
    "prefecture_code": 43,
    "city": "熊本市東区",
    "city_kana": "クマモトシヒガシク",
    "town": "南町",
    "town_kana": "ミナミマチ",
    "street": null,
    "office_name": null,
    "office_name_kana": null
  },
  "0906": {
    "postcode": "8620906",
    "prefecture": "熊本県",
    "prefecture_kana": "クマモトケン",
    "prefecture_code": 43,
    "city": "熊本市東区",
    "city_kana": "クマモトシヒガシク",
    "town": "広木町",
    "town_kana": "ヒロギマチ",
    "street": null,
    "office_name": null,
    "office_name_kana": null
  },
  "0907": {
    "postcode": "8620907",
    "prefecture": "熊本県",
    "prefecture_kana": "クマモトケン",
    "prefecture_code": 43,
    "city": "熊本市東区",
    "city_kana": "クマモトシヒガシク",
    "town": "水源",
    "town_kana": "スイゲン",
    "street": null,
    "office_name": null,
    "office_name_kana": null
  },
  "0908": {
    "postcode": "8620908",
    "prefecture": "熊本県",
    "prefecture_kana": "クマモトケン",
    "prefecture_code": 43,
    "city": "熊本市東区",
    "city_kana": "クマモトシヒガシク",
    "town": "新生",
    "town_kana": "シンセイ",
    "street": null,
    "office_name": null,
    "office_name_kana": null
  },
  "0909": [
    {
      "postcode": "8620909",
      "prefecture": "熊本県",
      "prefecture_kana": "クマモトケン",
      "prefecture_code": 43,
      "city": "熊本市中央区",
      "city_kana": "クマモトシチュウオウク",
      "town": "湖東",
      "town_kana": "コトウ",
      "street": null,
      "office_name": null,
      "office_name_kana": null
    },
    {
      "postcode": "8620909",
      "prefecture": "熊本県",
      "prefecture_kana": "クマモトケン",
      "prefecture_code": 43,
      "city": "熊本市東区",
      "city_kana": "クマモトシヒガシク",
      "town": "湖東",
      "town_kana": "コトウ",
      "street": null,
      "office_name": null,
      "office_name_kana": null
    }
  ],
  "0910": {
    "postcode": "8620910",
    "prefecture": "熊本県",
    "prefecture_kana": "クマモトケン",
    "prefecture_code": 43,
    "city": "熊本市東区",
    "city_kana": "クマモトシヒガシク",
    "town": "健軍本町",
    "town_kana": "ケングンホンマチ",
    "street": null,
    "office_name": null,
    "office_name_kana": null
  },
  "0911": {
    "postcode": "8620911",
    "prefecture": "熊本県",
    "prefecture_kana": "クマモトケン",
    "prefecture_code": 43,
    "city": "熊本市東区",
    "city_kana": "クマモトシヒガシク",
    "town": "健軍",
    "town_kana": "ケングン",
    "street": null,
    "office_name": null,
    "office_name_kana": null
  },
  "0912": {
    "postcode": "8620912",
    "prefecture": "熊本県",
    "prefecture_kana": "クマモトケン",
    "prefecture_code": 43,
    "city": "熊本市東区",
    "city_kana": "クマモトシヒガシク",
    "town": "錦ケ丘",
    "town_kana": "ニシキガオカ",
    "street": null,
    "office_name": null,
    "office_name_kana": null
  },
  "0913": {
    "postcode": "8620913",
    "prefecture": "熊本県",
    "prefecture_kana": "クマモトケン",
    "prefecture_code": 43,
    "city": "熊本市東区",
    "city_kana": "クマモトシヒガシク",
    "town": "尾ノ上",
    "town_kana": "オノウエ",
    "street": null,
    "office_name": null,
    "office_name_kana": null
  },
  "0914": {
    "postcode": "8620914",
    "prefecture": "熊本県",
    "prefecture_kana": "クマモトケン",
    "prefecture_code": 43,
    "city": "熊本市東区",
    "city_kana": "クマモトシヒガシク",
    "town": "山ノ内",
    "town_kana": "ヤマノウチ",
    "street": null,
    "office_name": null,
    "office_name_kana": null
  },
  "0915": {
    "postcode": "8620915",
    "prefecture": "熊本県",
    "prefecture_kana": "クマモトケン",
    "prefecture_code": 43,
    "city": "熊本市東区",
    "city_kana": "クマモトシヒガシク",
    "town": "山ノ神",
    "town_kana": "ヤマノカミ",
    "street": null,
    "office_name": null,
    "office_name_kana": null
  },
  "0916": {
    "postcode": "8620916",
    "prefecture": "熊本県",
    "prefecture_kana": "クマモトケン",
    "prefecture_code": 43,
    "city": "熊本市東区",
    "city_kana": "クマモトシヒガシク",
    "town": "佐土原",
    "town_kana": "サドワラ",
    "street": null,
    "office_name": null,
    "office_name_kana": null
  },
  "0917": {
    "postcode": "8620917",
    "prefecture": "熊本県",
    "prefecture_kana": "クマモトケン",
    "prefecture_code": 43,
    "city": "熊本市東区",
    "city_kana": "クマモトシヒガシク",
    "town": "榎町",
    "town_kana": "エノキマチ",
    "street": null,
    "office_name": null,
    "office_name_kana": null
  },
  "0918": {
    "postcode": "8620918",
    "prefecture": "熊本県",
    "prefecture_kana": "クマモトケン",
    "prefecture_code": 43,
    "city": "熊本市東区",
    "city_kana": "クマモトシヒガシク",
    "town": "花立",
    "town_kana": "ハナタテ",
    "street": null,
    "office_name": null,
    "office_name_kana": null
  },
  "0920": {
    "postcode": "8620920",
    "prefecture": "熊本県",
    "prefecture_kana": "クマモトケン",
    "prefecture_code": 43,
    "city": "熊本市東区",
    "city_kana": "クマモトシヒガシク",
    "town": "月出",
    "town_kana": "ツキデ",
    "street": null,
    "office_name": null,
    "office_name_kana": null
  },
  "0921": {
    "postcode": "8620921",
    "prefecture": "熊本県",
    "prefecture_kana": "クマモトケン",
    "prefecture_code": 43,
    "city": "熊本市東区",
    "city_kana": "クマモトシヒガシク",
    "town": "新外",
    "town_kana": "シンホカ",
    "street": null,
    "office_name": null,
    "office_name_kana": null
  },
  "0922": [
    {
      "postcode": "8620922",
      "prefecture": "熊本県",
      "prefecture_kana": "クマモトケン",
      "prefecture_code": 43,
      "city": "熊本市中央区",
      "city_kana": "クマモトシチュウオウク",
      "town": "三郎",
      "town_kana": "サブロウ",
      "street": null,
      "office_name": null,
      "office_name_kana": null
    },
    {
      "postcode": "8620922",
      "prefecture": "熊本県",
      "prefecture_kana": "クマモトケン",
      "prefecture_code": 43,
      "city": "熊本市東区",
      "city_kana": "クマモトシヒガシク",
      "town": "三郎",
      "town_kana": "サブロウ",
      "street": null,
      "office_name": null,
      "office_name_kana": null
    }
  ],
  "0923": [
    {
      "postcode": "8620923",
      "prefecture": "熊本県",
      "prefecture_kana": "クマモトケン",
      "prefecture_code": 43,
      "city": "熊本市中央区",
      "city_kana": "クマモトシチュウオウク",
      "town": "東京塚町",
      "town_kana": "ヒガシキョウヅカマチ",
      "street": null,
      "office_name": null,
      "office_name_kana": null
    },
    {
      "postcode": "8620923",
      "prefecture": "熊本県",
      "prefecture_kana": "クマモトケン",
      "prefecture_code": 43,
      "city": "熊本市東区",
      "city_kana": "クマモトシヒガシク",
      "town": "東京塚町",
      "town_kana": "ヒガシキョウヅカマチ",
      "street": null,
      "office_name": null,
      "office_name_kana": null
    }
  ],
  "0924": [
    {
      "postcode": "8620924",
      "prefecture": "熊本県",
      "prefecture_kana": "クマモトケン",
      "prefecture_code": 43,
      "city": "熊本市中央区",
      "city_kana": "クマモトシチュウオウク",
      "town": "帯山",
      "town_kana": "オビヤマ",
      "street": null,
      "office_name": null,
      "office_name_kana": null
    },
    {
      "postcode": "8620924",
      "prefecture": "熊本県",
      "prefecture_kana": "クマモトケン",
      "prefecture_code": 43,
      "city": "熊本市東区",
      "city_kana": "クマモトシヒガシク",
      "town": "帯山",
      "town_kana": "オビヤマ",
      "street": null,
      "office_name": null,
      "office_name_kana": null
    }
  ],
  "0925": {
    "postcode": "8620925",
    "prefecture": "熊本県",
    "prefecture_kana": "クマモトケン",
    "prefecture_code": 43,
    "city": "熊本市東区",
    "city_kana": "クマモトシヒガシク",
    "town": "保田窪本町",
    "town_kana": "ホタクボホンマチ",
    "street": null,
    "office_name": null,
    "office_name_kana": null
  },
  "0926": [
    {
      "postcode": "8620926",
      "prefecture": "熊本県",
      "prefecture_kana": "クマモトケン",
      "prefecture_code": 43,
      "city": "熊本市中央区",
      "city_kana": "クマモトシチュウオウク",
      "town": "保田窪",
      "town_kana": "ホタクボ",
      "street": null,
      "office_name": null,
      "office_name_kana": null
    },
    {
      "postcode": "8620926",
      "prefecture": "熊本県",
      "prefecture_kana": "クマモトケン",
      "prefecture_code": 43,
      "city": "熊本市東区",
      "city_kana": "クマモトシヒガシク",
      "town": "保田窪",
      "town_kana": "ホタクボ",
      "street": null,
      "office_name": null,
      "office_name_kana": null
    }
  ],
  "0933": {
    "postcode": "8620933",
    "prefecture": "熊本県",
    "prefecture_kana": "クマモトケン",
    "prefecture_code": 43,
    "city": "熊本市東区",
    "city_kana": "クマモトシヒガシク",
    "town": "小峯",
    "town_kana": "オミネ",
    "street": null,
    "office_name": null,
    "office_name_kana": null
  },
  "0941": [
    {
      "postcode": "8620941",
      "prefecture": "熊本県",
      "prefecture_kana": "クマモトケン",
      "prefecture_code": 43,
      "city": "熊本市中央区",
      "city_kana": "クマモトシチュウオウク",
      "town": "出水",
      "town_kana": "イズミ",
      "street": null,
      "office_name": null,
      "office_name_kana": null
    },
    {
      "postcode": "8620941",
      "prefecture": "熊本県",
      "prefecture_kana": "クマモトケン",
      "prefecture_code": 43,
      "city": "熊本市東区",
      "city_kana": "クマモトシヒガシク",
      "town": "出水",
      "town_kana": "イズミ",
      "street": null,
      "office_name": null,
      "office_name_kana": null
    }
  ],
  "0942": [
    {
      "postcode": "8620942",
      "prefecture": "熊本県",
      "prefecture_kana": "クマモトケン",
      "prefecture_code": 43,
      "city": "熊本市中央区",
      "city_kana": "クマモトシチュウオウク",
      "town": "江津",
      "town_kana": "エヅ",
      "street": null,
      "office_name": null,
      "office_name_kana": null
    },
    {
      "postcode": "8620942",
      "prefecture": "熊本県",
      "prefecture_kana": "クマモトケン",
      "prefecture_code": 43,
      "city": "熊本市東区",
      "city_kana": "クマモトシヒガシク",
      "town": "江津",
      "town_kana": "エヅ",
      "street": null,
      "office_name": null,
      "office_name_kana": null
    }
  ],
  "0943": {
    "postcode": "8620943",
    "prefecture": "熊本県",
    "prefecture_kana": "クマモトケン",
    "prefecture_code": 43,
    "city": "熊本市東区",
    "city_kana": "クマモトシヒガシク",
    "town": "画図町下江津",
    "town_kana": "エズマチシモエヅ",
    "street": null,
    "office_name": null,
    "office_name_kana": null
  },
  "0944": {
    "postcode": "8620944",
    "prefecture": "熊本県",
    "prefecture_kana": "クマモトケン",
    "prefecture_code": 43,
    "city": "熊本市東区",
    "city_kana": "クマモトシヒガシク",
    "town": "画図町上無田",
    "town_kana": "エズマチカミムタ",
    "street": null,
    "office_name": null,
    "office_name_kana": null
  },
  "0945": {
    "postcode": "8620945",
    "prefecture": "熊本県",
    "prefecture_kana": "クマモトケン",
    "prefecture_code": 43,
    "city": "熊本市東区",
    "city_kana": "クマモトシヒガシク",
    "town": "画図町下無田",
    "town_kana": "エズマチシモムタ",
    "street": null,
    "office_name": null,
    "office_name_kana": null
  },
  "0946": {
    "postcode": "8620946",
    "prefecture": "熊本県",
    "prefecture_kana": "クマモトケン",
    "prefecture_code": 43,
    "city": "熊本市東区",
    "city_kana": "クマモトシヒガシク",
    "town": "画図町所島",
    "town_kana": "エズマチトコロジマ",
    "street": null,
    "office_name": null,
    "office_name_kana": null
  },
  "0947": {
    "postcode": "8620947",
    "prefecture": "熊本県",
    "prefecture_kana": "クマモトケン",
    "prefecture_code": 43,
    "city": "熊本市東区",
    "city_kana": "クマモトシヒガシク",
    "town": "画図町重富",
    "town_kana": "エズマチシゲドミ",
    "street": null,
    "office_name": null,
    "office_name_kana": null
  },
  "0948": {
    "postcode": "8620948",
    "prefecture": "熊本県",
    "prefecture_kana": "クマモトケン",
    "prefecture_code": 43,
    "city": "熊本市中央区",
    "city_kana": "クマモトシチュウオウク",
    "town": "国府本町",
    "town_kana": "コクブホンマチ",
    "street": null,
    "office_name": null,
    "office_name_kana": null
  },
  "0949": {
    "postcode": "8620949",
    "prefecture": "熊本県",
    "prefecture_kana": "クマモトケン",
    "prefecture_code": 43,
    "city": "熊本市中央区",
    "city_kana": "クマモトシチュウオウク",
    "town": "国府",
    "town_kana": "コクブ",
    "street": null,
    "office_name": null,
    "office_name_kana": null
  },
  "0950": {
    "postcode": "8620950",
    "prefecture": "熊本県",
    "prefecture_kana": "クマモトケン",
    "prefecture_code": 43,
    "city": "熊本市中央区",
    "city_kana": "クマモトシチュウオウク",
    "town": "水前寺",
    "town_kana": "スイゼンジ",
    "street": null,
    "office_name": null,
    "office_name_kana": null
  },
  "0951": {
    "postcode": "8620951",
    "prefecture": "熊本県",
    "prefecture_kana": "クマモトケン",
    "prefecture_code": 43,
    "city": "熊本市中央区",
    "city_kana": "クマモトシチュウオウク",
    "town": "上水前寺",
    "town_kana": "カミスイゼンジ",
    "street": null,
    "office_name": null,
    "office_name_kana": null
  },
  "0952": {
    "postcode": "8620952",
    "prefecture": "熊本県",
    "prefecture_kana": "クマモトケン",
    "prefecture_code": 43,
    "city": "熊本市東区",
    "city_kana": "クマモトシヒガシク",
    "town": "京塚本町",
    "town_kana": "キョウヅカホンマチ",
    "street": null,
    "office_name": null,
    "office_name_kana": null
  },
  "0953": {
    "postcode": "8620953",
    "prefecture": "熊本県",
    "prefecture_kana": "クマモトケン",
    "prefecture_code": 43,
    "city": "熊本市中央区",
    "city_kana": "クマモトシチュウオウク",
    "town": "上京塚町",
    "town_kana": "カミキョウヅカマチ",
    "street": null,
    "office_name": null,
    "office_name_kana": null
  },
  "0954": {
    "postcode": "8620954",
    "prefecture": "熊本県",
    "prefecture_kana": "クマモトケン",
    "prefecture_code": 43,
    "city": "熊本市中央区",
    "city_kana": "クマモトシチュウオウク",
    "town": "神水",
    "town_kana": "クワミズ",
    "street": null,
    "office_name": null,
    "office_name_kana": null
  },
  "0955": [
    {
      "postcode": "8620955",
      "prefecture": "熊本県",
      "prefecture_kana": "クマモトケン",
      "prefecture_code": 43,
      "city": "熊本市中央区",
      "city_kana": "クマモトシチュウオウク",
      "town": "神水本町",
      "town_kana": "クワミズホンマチ",
      "street": null,
      "office_name": null,
      "office_name_kana": null
    },
    {
      "postcode": "8620955",
      "prefecture": "熊本県",
      "prefecture_kana": "クマモトケン",
      "prefecture_code": 43,
      "city": "熊本市東区",
      "city_kana": "クマモトシヒガシク",
      "town": "神水本町",
      "town_kana": "クワミズホンマチ",
      "street": null,
      "office_name": null,
      "office_name_kana": null
    }
  ],
  "0956": {
    "postcode": "8620956",
    "prefecture": "熊本県",
    "prefecture_kana": "クマモトケン",
    "prefecture_code": 43,
    "city": "熊本市中央区",
    "city_kana": "クマモトシチュウオウク",
    "town": "水前寺公園",
    "town_kana": "スイゼンジコウエン",
    "street": null,
    "office_name": null,
    "office_name_kana": null
  },
  "0957": {
    "postcode": "8620957",
    "prefecture": "熊本県",
    "prefecture_kana": "クマモトケン",
    "prefecture_code": 43,
    "city": "熊本市中央区",
    "city_kana": "クマモトシチュウオウク",
    "town": "菅原町",
    "town_kana": "スガワラマチ",
    "street": null,
    "office_name": null,
    "office_name_kana": null
  },
  "0958": {
    "postcode": "8620958",
    "prefecture": "熊本県",
    "prefecture_kana": "クマモトケン",
    "prefecture_code": 43,
    "city": "熊本市中央区",
    "city_kana": "クマモトシチュウオウク",
    "town": "岡田町",
    "town_kana": "オカダマチ",
    "street": null,
    "office_name": null,
    "office_name_kana": null
  },
  "0959": {
    "postcode": "8620959",
    "prefecture": "熊本県",
    "prefecture_kana": "クマモトケン",
    "prefecture_code": 43,
    "city": "熊本市中央区",
    "city_kana": "クマモトシチュウオウク",
    "town": "白山",
    "town_kana": "ハクザン",
    "street": null,
    "office_name": null,
    "office_name_kana": null
  },
  "0960": {
    "postcode": "8620960",
    "prefecture": "熊本県",
    "prefecture_kana": "クマモトケン",
    "prefecture_code": 43,
    "city": "熊本市東区",
    "city_kana": "クマモトシヒガシク",
    "town": "下江津",
    "town_kana": "シモエヅ",
    "street": null,
    "office_name": null,
    "office_name_kana": null
  },
  "0961": {
    "postcode": "8620961",
    "prefecture": "熊本県",
    "prefecture_kana": "クマモトケン",
    "prefecture_code": 43,
    "city": "熊本市東区",
    "city_kana": "クマモトシヒガシク",
    "town": "画図東",
    "town_kana": "エズヒガシ",
    "street": null,
    "office_name": null,
    "office_name_kana": null
  },
  "0962": {
    "postcode": "8620962",
    "prefecture": "熊本県",
    "prefecture_kana": "クマモトケン",
    "prefecture_code": 43,
    "city": "熊本市南区",
    "city_kana": "クマモトシミナミク",
    "town": "田迎",
    "town_kana": "タムカエ",
    "street": null,
    "office_name": null,
    "office_name_kana": null
  },
  "0963": {
    "postcode": "8620963",
    "prefecture": "熊本県",
    "prefecture_kana": "クマモトケン",
    "prefecture_code": 43,
    "city": "熊本市南区",
    "city_kana": "クマモトシミナミク",
    "town": "出仲間",
    "town_kana": "イデナカマ",
    "street": null,
    "office_name": null,
    "office_name_kana": null
  },
  "0965": [
    {
      "postcode": "8620965",
      "prefecture": "熊本県",
      "prefecture_kana": "クマモトケン",
      "prefecture_code": 43,
      "city": "熊本市南区",
      "city_kana": "クマモトシミナミク",
      "town": "田井島",
      "town_kana": "タイノシマ",
      "street": null,
      "office_name": null,
      "office_name_kana": null
    },
    {
      "postcode": "8620965",
      "prefecture": "熊本県",
      "prefecture_kana": "クマモトケン",
      "prefecture_code": 43,
      "city": "熊本市南区",
      "city_kana": "クマモトシミナミク",
      "town": "田迎町田井島",
      "town_kana": "タムカエマチタイノシマ",
      "street": null,
      "office_name": null,
      "office_name_kana": null
    }
  ],
  "0966": {
    "postcode": "8620966",
    "prefecture": "熊本県",
    "prefecture_kana": "クマモトケン",
    "prefecture_code": 43,
    "city": "熊本市南区",
    "city_kana": "クマモトシミナミク",
    "town": "田迎町良町",
    "town_kana": "タムカエマチヤヤマチ",
    "street": null,
    "office_name": null,
    "office_name_kana": null
  },
  "0967": {
    "postcode": "8620967",
    "prefecture": "熊本県",
    "prefecture_kana": "クマモトケン",
    "prefecture_code": 43,
    "city": "熊本市南区",
    "city_kana": "クマモトシミナミク",
    "town": "流通団地",
    "town_kana": "リュウツウダンチ",
    "street": null,
    "office_name": null,
    "office_name_kana": null
  },
  "0968": {
    "postcode": "8620968",
    "prefecture": "熊本県",
    "prefecture_kana": "クマモトケン",
    "prefecture_code": 43,
    "city": "熊本市南区",
    "city_kana": "クマモトシミナミク",
    "town": "馬渡",
    "town_kana": "マワタリ",
    "street": null,
    "office_name": null,
    "office_name_kana": null
  },
  "0969": {
    "postcode": "8620969",
    "prefecture": "熊本県",
    "prefecture_kana": "クマモトケン",
    "prefecture_code": 43,
    "city": "熊本市南区",
    "city_kana": "クマモトシミナミク",
    "town": "良町",
    "town_kana": "ヤヤマチ",
    "street": null,
    "office_name": null,
    "office_name_kana": null
  },
  "0970": [
    {
      "postcode": "8620970",
      "prefecture": "熊本県",
      "prefecture_kana": "クマモトケン",
      "prefecture_code": 43,
      "city": "熊本市中央区",
      "city_kana": "クマモトシチュウオウク",
      "town": "渡鹿",
      "town_kana": "トロク",
      "street": null,
      "office_name": null,
      "office_name_kana": null
    },
    {
      "postcode": "8620970",
      "prefecture": "熊本県",
      "prefecture_kana": "クマモトケン",
      "prefecture_code": 43,
      "city": "熊本市東区",
      "city_kana": "クマモトシヒガシク",
      "town": "渡鹿",
      "town_kana": "トロク",
      "street": null,
      "office_name": null,
      "office_name_kana": null
    }
  ],
  "0971": {
    "postcode": "8620971",
    "prefecture": "熊本県",
    "prefecture_kana": "クマモトケン",
    "prefecture_code": 43,
    "city": "熊本市中央区",
    "city_kana": "クマモトシチュウオウク",
    "town": "大江",
    "town_kana": "オオエ",
    "street": null,
    "office_name": null,
    "office_name_kana": null
  },
  "0972": {
    "postcode": "8620972",
    "prefecture": "熊本県",
    "prefecture_kana": "クマモトケン",
    "prefecture_code": 43,
    "city": "熊本市中央区",
    "city_kana": "クマモトシチュウオウク",
    "town": "新大江",
    "town_kana": "シンオオエ",
    "street": null,
    "office_name": null,
    "office_name_kana": null
  },
  "0973": {
    "postcode": "8620973",
    "prefecture": "熊本県",
    "prefecture_kana": "クマモトケン",
    "prefecture_code": 43,
    "city": "熊本市中央区",
    "city_kana": "クマモトシチュウオウク",
    "town": "大江本町",
    "town_kana": "オオエホンマチ",
    "street": null,
    "office_name": null,
    "office_name_kana": null
  },
  "0975": {
    "postcode": "8620975",
    "prefecture": "熊本県",
    "prefecture_kana": "クマモトケン",
    "prefecture_code": 43,
    "city": "熊本市中央区",
    "city_kana": "クマモトシチュウオウク",
    "town": "新屋敷",
    "town_kana": "シンヤシキ",
    "street": null,
    "office_name": null,
    "office_name_kana": null
  },
  "0976": {
    "postcode": "8620976",
    "prefecture": "熊本県",
    "prefecture_kana": "クマモトケン",
    "prefecture_code": 43,
    "city": "熊本市中央区",
    "city_kana": "クマモトシチュウオウク",
    "town": "九品寺",
    "town_kana": "クホンジ",
    "street": null,
    "office_name": null,
    "office_name_kana": null
  },
  "8502": {
    "postcode": "8628502",
    "prefecture": "熊本県",
    "prefecture_kana": "クマモトケン",
    "prefecture_code": 43,
    "city": "熊本市東区",
    "city_kana": "クマモトシヒガシク",
    "town": "月出",
    "town_kana": "ツキデ",
    "street": "３丁目１−１００",
    "office_name": "熊本県立大学",
    "office_name_kana": "クマモトケンリツダイガク"
  },
  "8504": {
    "postcode": "8628504",
    "prefecture": "熊本県",
    "prefecture_kana": "クマモトケン",
    "prefecture_code": 43,
    "city": "熊本市中央区",
    "city_kana": "クマモトシチュウオウク",
    "town": "大江",
    "town_kana": "オオエ",
    "street": "２丁目１番１０号",
    "office_name": "株式会社　熊本県民テレビ",
    "office_name_kana": "カブシキガイシヤ クマモトケンミンテレビ"
  },
  "8505": {
    "postcode": "8628505",
    "prefecture": "熊本県",
    "prefecture_kana": "クマモトケン",
    "prefecture_code": 43,
    "city": "熊本市東区",
    "city_kana": "クマモトシヒガシク",
    "town": "東町",
    "town_kana": "ヒガシマチ",
    "street": "４丁目１−６０",
    "office_name": "熊本市立熊本市民病院",
    "office_name_kana": "クマモトシリツクマモトシミンビヨウイン"
  },
  "8508": {
    "postcode": "8628508",
    "prefecture": "熊本県",
    "prefecture_kana": "クマモトケン",
    "prefecture_code": 43,
    "city": "熊本市東区",
    "city_kana": "クマモトシヒガシク",
    "town": "健軍本町",
    "town_kana": "ケングンホンマチ",
    "street": "２１−６",
    "office_name": "ファミリー音楽産業　株式会社",
    "office_name_kana": "フアミリ-オンガクサンギヨウ カブシキガイシヤ"
  },
  "8510": {
    "postcode": "8628510",
    "prefecture": "熊本県",
    "prefecture_kana": "クマモトケン",
    "prefecture_code": 43,
    "city": "熊本市東区",
    "city_kana": "クマモトシヒガシク",
    "town": "東町",
    "town_kana": "ヒガシマチ",
    "street": "３丁目１０−１",
    "office_name": "熊本東警察署",
    "office_name_kana": "クマモトヒガシケイサツシヨ"
  },
  "8555": {
    "postcode": "8628555",
    "prefecture": "熊本県",
    "prefecture_kana": "クマモトケン",
    "prefecture_code": 43,
    "city": "熊本市東区",
    "city_kana": "クマモトシヒガシク",
    "town": "東本町",
    "town_kana": "ヒガシホンマチ",
    "street": "１６番３０号",
    "office_name": "東区役所",
    "office_name_kana": "ヒガシクヤクシヨ"
  },
  "8570": {
    "postcode": "8628570",
    "prefecture": "熊本県",
    "prefecture_kana": "クマモトケン",
    "prefecture_code": 43,
    "city": "熊本市中央区",
    "city_kana": "クマモトシチュウオウク",
    "town": "水前寺",
    "town_kana": "スイゼンジ",
    "street": "６丁目１８−１",
    "office_name": "熊本県庁",
    "office_name_kana": "クマモトケンチヨウ"
  },
  "8571": {
    "postcode": "8628571",
    "prefecture": "熊本県",
    "prefecture_kana": "クマモトケン",
    "prefecture_code": 43,
    "city": "熊本市中央区",
    "city_kana": "クマモトシチュウオウク",
    "town": "水前寺",
    "town_kana": "スイゼンジ",
    "street": "６丁目１８−１",
    "office_name": "熊本県県央広域本部税務部",
    "office_name_kana": "クマモトケンケンオウコウイキホンブゼイムブ"
  },
  "8585": {
    "postcode": "8628585",
    "prefecture": "熊本県",
    "prefecture_kana": "クマモトケン",
    "prefecture_code": 43,
    "city": "熊本市中央区",
    "city_kana": "クマモトシチュウオウク",
    "town": "九品寺",
    "town_kana": "クホンジ",
    "street": "１−２−１１",
    "office_name": "西日本電信電話　株式会社　熊本支店",
    "office_name_kana": "ニシニホンデンシンデンワ カブシキガイシヤ クマモトシテン"
  },
  "8601": {
    "postcode": "8628601",
    "prefecture": "熊本県",
    "prefecture_kana": "クマモトケン",
    "prefecture_code": 43,
    "city": "熊本市中央区",
    "city_kana": "クマモトシチュウオウク",
    "town": "水前寺",
    "town_kana": "スイゼンジ",
    "street": "６丁目２９−２０",
    "office_name": "株式会社　熊本銀行",
    "office_name_kana": "カブシキガイシヤ クマモトギンコウ"
  },
  "8603": {
    "postcode": "8628603",
    "prefecture": "熊本県",
    "prefecture_kana": "クマモトケン",
    "prefecture_code": 43,
    "city": "熊本市中央区",
    "city_kana": "クマモトシチュウオウク",
    "town": "出水",
    "town_kana": "イズミ",
    "street": "４丁目１−２",
    "office_name": "湧心館高等学校",
    "office_name_kana": "ユウシンカンコウトウガツコウ"
  },
  "8609": {
    "postcode": "8628609",
    "prefecture": "熊本県",
    "prefecture_kana": "クマモトケン",
    "prefecture_code": 43,
    "city": "熊本市中央区",
    "city_kana": "クマモトシチュウオウク",
    "town": "水前寺",
    "town_kana": "スイゼンジ",
    "street": "６丁目１８−１",
    "office_name": "熊本県教育庁",
    "office_name_kana": "クマモトケンキヨウイクチヨウ"
  },
  "8610": {
    "postcode": "8628610",
    "prefecture": "熊本県",
    "prefecture_kana": "クマモトケン",
    "prefecture_code": 43,
    "city": "熊本市中央区",
    "city_kana": "クマモトシチュウオウク",
    "town": "水前寺",
    "town_kana": "スイゼンジ",
    "street": "６丁目１８−１",
    "office_name": "熊本県　警察本部",
    "office_name_kana": "クマモトケン ケイサツホンブ"
  },
  "8611": {
    "postcode": "8628611",
    "prefecture": "熊本県",
    "prefecture_kana": "クマモトケン",
    "prefecture_code": 43,
    "city": "熊本市南区",
    "city_kana": "クマモトシミナミク",
    "town": "流通団地",
    "town_kana": "リュウツウダンチ",
    "street": "１丁目４９",
    "office_name": "株式会社　ナカムラ　熊本支店",
    "office_name_kana": "カブシキガイシヤ ナカムラ クマモトシテン"
  },
  "8612": {
    "postcode": "8628612",
    "prefecture": "熊本県",
    "prefecture_kana": "クマモトケン",
    "prefecture_code": 43,
    "city": "熊本市中央区",
    "city_kana": "クマモトシチュウオウク",
    "town": "出水",
    "town_kana": "イズミ",
    "street": "２丁目５−１",
    "office_name": "熊本県立図書館",
    "office_name_kana": "クマモトケンリツトシヨカン"
  },
  "8620": {
    "postcode": "8628620",
    "prefecture": "熊本県",
    "prefecture_kana": "クマモトケン",
    "prefecture_code": 43,
    "city": "熊本市中央区",
    "city_kana": "クマモトシチュウオウク",
    "town": "水前寺",
    "town_kana": "スイゼンジ",
    "street": "６丁目２−４５",
    "office_name": "熊本市水道局",
    "office_name_kana": "クマモトシスイドウキヨク"
  },
  "8622": {
    "postcode": "8628622",
    "prefecture": "熊本県",
    "prefecture_kana": "クマモトケン",
    "prefecture_code": 43,
    "city": "熊本市南区",
    "city_kana": "クマモトシミナミク",
    "town": "流通団地",
    "town_kana": "リュウツウダンチ",
    "street": "１丁目４７",
    "office_name": "蔵野　株式会社",
    "office_name_kana": "クラノ カブシキガイシヤ"
  },
  "8633": {
    "postcode": "8628633",
    "prefecture": "熊本県",
    "prefecture_kana": "クマモトケン",
    "prefecture_code": 43,
    "city": "熊本市中央区",
    "city_kana": "クマモトシチュウオウク",
    "town": "水前寺",
    "town_kana": "スイゼンジ",
    "street": "３丁目９−５",
    "office_name": "株式会社　ヤマックス",
    "office_name_kana": "カブシキガイシヤ ヤマツクス"
  },
  "8635": {
    "postcode": "8628635",
    "prefecture": "熊本県",
    "prefecture_kana": "クマモトケン",
    "prefecture_code": 43,
    "city": "熊本市南区",
    "city_kana": "クマモトシミナミク",
    "town": "流通団地",
    "town_kana": "リュウツウダンチ",
    "street": "２丁目２０−３",
    "office_name": "九州産交運輸　株式会社",
    "office_name_kana": "キユウシユウサンコウウンユ カブシキガイシヤ"
  },
  "8639": {
    "postcode": "8628639",
    "prefecture": "熊本県",
    "prefecture_kana": "クマモトケン",
    "prefecture_code": 43,
    "city": "熊本市東区",
    "city_kana": "クマモトシヒガシク",
    "town": "健軍",
    "town_kana": "ケングン",
    "street": "２丁目４番１０号",
    "office_name": "熊本県国民健康保険団体連合会",
    "office_name_kana": "クマモトケンコクミンケンコウホケンダンタイレンゴウカイ"
  },
  "8651": {
    "postcode": "8628651",
    "prefecture": "熊本県",
    "prefecture_kana": "クマモトケン",
    "prefecture_code": 43,
    "city": "熊本市中央区",
    "city_kana": "クマモトシチュウオウク",
    "town": "新屋敷",
    "town_kana": "シンヤシキ",
    "street": "１丁目５−１",
    "office_name": "三井海上火災保険　株式会社　熊本支店",
    "office_name_kana": "ミツイカイジヨウカサイホケン カブシキガイシヤ クマモトシテン"
  },
  "8652": {
    "postcode": "8628652",
    "prefecture": "熊本県",
    "prefecture_kana": "クマモトケン",
    "prefecture_code": 43,
    "city": "熊本市東区",
    "city_kana": "クマモトシヒガシク",
    "town": "渡鹿",
    "town_kana": "トロク",
    "street": "９−１−１",
    "office_name": "東海大学　熊本校舎",
    "office_name_kana": "トウカイダイガク クマモトコウシヤ"
  },
  "8655": {
    "postcode": "8628655",
    "prefecture": "熊本県",
    "prefecture_kana": "クマモトケン",
    "prefecture_code": 43,
    "city": "熊本市中央区",
    "city_kana": "クマモトシチュウオウク",
    "town": "大江",
    "town_kana": "オオエ",
    "street": "３−２−６５",
    "office_name": "医療法人　創起会　くまもと森都総合病院",
    "office_name_kana": "イリヨウホウジン ソウキカイ クマモトシントソウゴウビヨウイン"
  },
  "8660": {
    "postcode": "8628660",
    "prefecture": "熊本県",
    "prefecture_kana": "クマモトケン",
    "prefecture_code": 43,
    "city": "熊本市中央区",
    "city_kana": "クマモトシチュウオウク",
    "town": "九品寺",
    "town_kana": "クホンジ",
    "street": "５丁目７番２９号",
    "office_name": "九州セキスイ商事インフラテック　株式会社",
    "office_name_kana": "キユウシユウセキスイシヨウジインフラテツク カブシキガイシヤ"
  },
  "8666": {
    "postcode": "8628666",
    "prefecture": "熊本県",
    "prefecture_kana": "クマモトケン",
    "prefecture_code": 43,
    "city": "熊本市中央区",
    "city_kana": "クマモトシチュウオウク",
    "town": "新屋敷",
    "town_kana": "シンヤシキ",
    "street": "１丁目５−１",
    "office_name": "住友海上火災保険　株式会社　熊本支店",
    "office_name_kana": "スミトモカイジヨウカサイホケン カブシキガイシヤ クマモトシテン"
  },
  "8676": {
    "postcode": "8628676",
    "prefecture": "熊本県",
    "prefecture_kana": "クマモトケン",
    "prefecture_code": 43,
    "city": "熊本市中央区",
    "city_kana": "クマモトシチュウオウク",
    "town": "大江",
    "town_kana": "オオエ",
    "street": "５丁目２−１",
    "office_name": "九州学院",
    "office_name_kana": "キユウシユウガクイン"
  },
  "8677": {
    "postcode": "8628677",
    "prefecture": "熊本県",
    "prefecture_kana": "クマモトケン",
    "prefecture_code": 43,
    "city": "熊本市中央区",
    "city_kana": "クマモトシチュウオウク",
    "town": "大江",
    "town_kana": "オオエ",
    "street": "６丁目１−３３",
    "office_name": "開新高等学校",
    "office_name_kana": "カイシンコウトウガツコウ"
  },
  "8678": {
    "postcode": "8628678",
    "prefecture": "熊本県",
    "prefecture_kana": "クマモトケン",
    "prefecture_code": 43,
    "city": "熊本市中央区",
    "city_kana": "クマモトシチュウオウク",
    "town": "九品寺",
    "town_kana": "クホンジ",
    "street": "２丁目６−７８",
    "office_name": "学校法人　尚絅学園",
    "office_name_kana": "ガツコウホウジン シヨウエガクエン"
  },
  "8680": {
    "postcode": "8628680",
    "prefecture": "熊本県",
    "prefecture_kana": "クマモトケン",
    "prefecture_code": 43,
    "city": "熊本市中央区",
    "city_kana": "クマモトシチュウオウク",
    "town": "大江",
    "town_kana": "オオエ",
    "street": "２丁目５−１",
    "office_name": "熊本学園大学",
    "office_name_kana": "クマモトガクエンダイガク"
  },
  "8688": {
    "postcode": "8628688",
    "prefecture": "熊本県",
    "prefecture_kana": "クマモトケン",
    "prefecture_code": 43,
    "city": "熊本市中央区",
    "city_kana": "クマモトシチュウオウク",
    "town": "大江",
    "town_kana": "オオエ",
    "street": "３丁目１−５３",
    "office_name": "熊本労働基準監督署",
    "office_name_kana": "クマモトロウドウキジユンカントクシヨ"
  },
  "8701": {
    "postcode": "8628701",
    "prefecture": "熊本県",
    "prefecture_kana": "クマモトケン",
    "prefecture_code": 43,
    "city": "熊本市南区",
    "city_kana": "クマモトシミナミク",
    "town": "田迎",
    "town_kana": "タムカエ",
    "street": "６丁目１１−４６",
    "office_name": "九州伊藤忠食品　株式会社",
    "office_name_kana": "キユウシユウイトウチユウシヨクヒン カブシキガイシヤ"
  },
  "8702": {
    "postcode": "8628702",
    "prefecture": "熊本県",
    "prefecture_kana": "クマモトケン",
    "prefecture_code": 43,
    "city": "熊本市東区",
    "city_kana": "クマモトシヒガシク",
    "town": "東町",
    "town_kana": "ヒガシマチ",
    "street": "３丁目２−５３（熊本東郵便局私書箱第９号）",
    "office_name": "熊本東税務署",
    "office_name_kana": "クマモトヒガシゼイムシヨ"
  },
  "8710": {
    "postcode": "8628710",
    "prefecture": "熊本県",
    "prefecture_kana": "クマモトケン",
    "prefecture_code": 43,
    "city": "熊本市東区",
    "city_kana": "クマモトシヒガシク",
    "town": "東町",
    "town_kana": "ヒガシマチ",
    "street": "１丁目１−１（熊本東郵便局私書箱第１０号）",
    "office_name": "防衛庁陸上自衛隊　西部方面総監部",
    "office_name_kana": "ボウエイチヨウリクジヨウジエイタイ セイブホウメンソウカンブ"
  },
  "8716": {
    "postcode": "8628716",
    "prefecture": "熊本県",
    "prefecture_kana": "クマモトケン",
    "prefecture_code": 43,
    "city": "熊本市中央区",
    "city_kana": "クマモトシチュウオウク",
    "town": "神水",
    "town_kana": "クワミズ",
    "street": "２丁目７−１０神水中島ビル１Ｆ（熊本東郵便局私書箱第５０号）",
    "office_name": "（財）　ポスタルサービスセンター　九州地方本部",
    "office_name_kana": "(ザイ) ポスタルサ-ビスセンタ- キユウシユウチホウホンブ"
  },
  "8720": {
    "postcode": "8628720",
    "prefecture": "熊本県",
    "prefecture_kana": "クマモトケン",
    "prefecture_code": 43,
    "city": "熊本市東区",
    "city_kana": "クマモトシヒガシク",
    "town": "東町",
    "town_kana": "ヒガシマチ",
    "street": "１丁目１−１（熊本東郵便局私書箱第８号）",
    "office_name": "防衛庁陸上自衛隊　健軍駐屯地",
    "office_name_kana": "ボウエイチヨウリクジヨウジエイタイ ケングンチユウトンチ"
  },
  "8721": {
    "postcode": "8628721",
    "prefecture": "熊本県",
    "prefecture_kana": "クマモトケン",
    "prefecture_code": 43,
    "city": "熊本市東区",
    "city_kana": "クマモトシヒガシク",
    "town": "東本町",
    "town_kana": "ヒガシホンマチ",
    "street": "１６番２８号（熊本東郵便局私書箱第３３号）",
    "office_name": "熊本国税局業務センター",
    "office_name_kana": "クマモトコクゼイキヨクギヨウムセンタ-"
  },
  "8744": {
    "postcode": "8628744",
    "prefecture": "熊本県",
    "prefecture_kana": "クマモトケン",
    "prefecture_code": 43,
    "city": "熊本市中央区",
    "city_kana": "クマモトシチュウオウク",
    "town": "帯山",
    "town_kana": "オビヤマ",
    "street": "４丁目１７−１（熊本東郵便局私書箱第１号）",
    "office_name": "株式会社　再春館製薬所",
    "office_name_kana": "カブシキガイシヤ サイシユンカンセイヤクシヨ"
  },
  "8793": {
    "postcode": "8628793",
    "prefecture": "熊本県",
    "prefecture_kana": "クマモトケン",
    "prefecture_code": 43,
    "city": "熊本市中央区",
    "city_kana": "クマモトシチュウオウク",
    "town": "城東町",
    "town_kana": "ジョウトウマチ",
    "street": "１−１",
    "office_name": "日本郵便　株式会社　九州支社　郵便事業本部　（三種）",
    "office_name_kana": "ニホンユウビン カブシキガイシヤ キユウシユウシシヤ ユウビンジギヨウホンブ (サンシユ)"
  },
  "8794": [
    {
      "postcode": "8628794",
      "prefecture": "熊本県",
      "prefecture_kana": "クマモトケン",
      "prefecture_code": 43,
      "city": "熊本市中央区",
      "city_kana": "クマモトシチュウオウク",
      "town": "大江",
      "town_kana": "オオエ",
      "street": "３−１−６６",
      "office_name": "日本郵政　株式会社　共通事務管理事務所",
      "office_name_kana": "ニツポンユウセイ カブシキガイシヤ キヨウツウジムカンリジムシヨ"
    },
    {
      "postcode": "8628794",
      "prefecture": "熊本県",
      "prefecture_kana": "クマモトケン",
      "prefecture_code": 43,
      "city": "熊本市中央区",
      "city_kana": "クマモトシチュウオウク",
      "town": "大江",
      "town_kana": "オオエ",
      "street": "３−１−６６",
      "office_name": "日本郵政コーポレートサービス　株式会社　九州ＢＰＯセンター",
      "office_name_kana": "ニツポンユウセイコ-ポレ-トサ-ビス カブシキガイシヤ キユウシユウビ-ピ-オ-センタ-"
    }
  ]
}