{
  "0000": {
    "postcode": "8650000",
    "prefecture": "熊本県",
    "prefecture_kana": "クマモトケン",
    "prefecture_code": 43,
    "city": "玉名市",
    "city_kana": "タマナシ",
    "town": "",
    "town_kana": "",
    "street": null,
    "office_name": null,
    "office_name_kana": null
  },
  "0001": {
    "postcode": "8650001",
    "prefecture": "熊本県",
    "prefecture_kana": "クマモトケン",
    "prefecture_code": 43,
    "city": "玉名市",
    "city_kana": "タマナシ",
    "town": "月田",
    "town_kana": "ツキダ",
    "street": null,
    "office_name": null,
    "office_name_kana": null
  },
  "0002": {
    "postcode": "8650002",
    "prefecture": "熊本県",
    "prefecture_kana": "クマモトケン",
    "prefecture_code": 43,
    "city": "玉名市",
    "city_kana": "タマナシ",
    "town": "箱谷",
    "town_kana": "ハコダニ",
    "street": null,
    "office_name": null,
    "office_name_kana": null
  },
  "0003": {
    "postcode": "8650003",
    "prefecture": "熊本県",
    "prefecture_kana": "クマモトケン",
    "prefecture_code": 43,
    "city": "玉名市",
    "city_kana": "タマナシ",
    "town": "溝上",
    "town_kana": "ミゾノウエ",
    "street": null,
    "office_name": null,
    "office_name_kana": null
  },
  "0004": {
    "postcode": "8650004",
    "prefecture": "熊本県",
    "prefecture_kana": "クマモトケン",
    "prefecture_code": 43,
    "city": "玉名市",
    "city_kana": "タマナシ",
    "town": "青木",
    "town_kana": "アオキ",
    "street": null,
    "office_name": null,
    "office_name_kana": null
  },
  "0005": {
    "postcode": "8650005",
    "prefecture": "熊本県",
    "prefecture_kana": "クマモトケン",
    "prefecture_code": 43,
    "city": "玉名市",
    "city_kana": "タマナシ",
    "town": "玉名",
    "town_kana": "タマナ",
    "street": null,
    "office_name": null,
    "office_name_kana": null
  },
  "0006": {
    "postcode": "8650006",
    "prefecture": "熊本県",
    "prefecture_kana": "クマモトケン",
    "prefecture_code": 43,
    "city": "玉名市",
    "city_kana": "タマナシ",
    "town": "両迫間",
    "town_kana": "リョウハザマ",
    "street": null,
    "office_name": null,
    "office_name_kana": null
  },
  "0007": {
    "postcode": "8650007",
    "prefecture": "熊本県",
    "prefecture_kana": "クマモトケン",
    "prefecture_code": 43,
    "city": "玉名市",
    "city_kana": "タマナシ",
    "town": "河崎",
    "town_kana": "カワサキ",
    "street": null,
    "office_name": null,
    "office_name_kana": null
  },
  "0008": {
    "postcode": "8650008",
    "prefecture": "熊本県",
    "prefecture_kana": "クマモトケン",
    "prefecture_code": 43,
    "city": "玉名市",
    "city_kana": "タマナシ",
    "town": "石貫",
    "town_kana": "イシヌキ",
    "street": null,
    "office_name": null,
    "office_name_kana": null
  },
  "0009": {
    "postcode": "8650009",
    "prefecture": "熊本県",
    "prefecture_kana": "クマモトケン",
    "prefecture_code": 43,
    "city": "玉名市",
    "city_kana": "タマナシ",
    "town": "三ツ川",
    "town_kana": "ミツカワ",
    "street": null,
    "office_name": null,
    "office_name_kana": null
  },
  "0011": {
    "postcode": "8650011",
    "prefecture": "熊本県",
    "prefecture_kana": "クマモトケン",
    "prefecture_code": 43,
    "city": "玉名市",
    "city_kana": "タマナシ",
    "town": "上小田",
    "town_kana": "カミオダ",
    "street": null,
    "office_name": null,
    "office_name_kana": null
  },
  "0012": {
    "postcode": "8650012",
    "prefecture": "熊本県",
    "prefecture_kana": "クマモトケン",
    "prefecture_code": 43,
    "city": "玉名市",
    "city_kana": "タマナシ",
    "town": "山部田",
    "town_kana": "ヤマベタ",
    "street": null,
    "office_name": null,
    "office_name_kana": null
  },
  "0013": {
    "postcode": "8650013",
    "prefecture": "熊本県",
    "prefecture_kana": "クマモトケン",
    "prefecture_code": 43,
    "city": "玉名市",
    "city_kana": "タマナシ",
    "town": "下",
    "town_kana": "シモ",
    "street": null,
    "office_name": null,
    "office_name_kana": null
  },
  "0014": {
    "postcode": "8650014",
    "prefecture": "熊本県",
    "prefecture_kana": "クマモトケン",
    "prefecture_code": 43,
    "city": "玉名市",
    "city_kana": "タマナシ",
    "town": "安楽寺",
    "town_kana": "アンラクジ",
    "street": null,
    "office_name": null,
    "office_name_kana": null
  },
  "0015": {
    "postcode": "8650015",
    "prefecture": "熊本県",
    "prefecture_kana": "クマモトケン",
    "prefecture_code": 43,
    "city": "玉名市",
    "city_kana": "タマナシ",
    "town": "亀甲",
    "town_kana": "カメノコウ",
    "street": null,
    "office_name": null,
    "office_name_kana": null
  },
  "0016": {
    "postcode": "8650016",
    "prefecture": "熊本県",
    "prefecture_kana": "クマモトケン",
    "prefecture_code": 43,
    "city": "玉名市",
    "city_kana": "タマナシ",
    "town": "岩崎",
    "town_kana": "イワサキ",
    "street": null,
    "office_name": null,
    "office_name_kana": null
  },
  "0017": {
    "postcode": "8650017",
    "prefecture": "熊本県",
    "prefecture_kana": "クマモトケン",
    "prefecture_code": 43,
    "city": "玉名市",
    "city_kana": "タマナシ",
    "town": "川部田",
    "town_kana": "カワベタ",
    "street": null,
    "office_name": null,
    "office_name_kana": null
  },
  "0018": {
    "postcode": "8650018",
    "prefecture": "熊本県",
    "prefecture_kana": "クマモトケン",
    "prefecture_code": 43,
    "city": "玉名市",
    "city_kana": "タマナシ",
    "town": "下小田",
    "town_kana": "シモオダ",
    "street": null,
    "office_name": null,
    "office_name_kana": null
  },
  "0021": {
    "postcode": "8650021",
    "prefecture": "熊本県",
    "prefecture_kana": "クマモトケン",
    "prefecture_code": 43,
    "city": "玉名市",
    "city_kana": "タマナシ",
    "town": "津留",
    "town_kana": "ツル",
    "street": null,
    "office_name": null,
    "office_name_kana": null
  },
  "0022": {
    "postcode": "8650022",
    "prefecture": "熊本県",
    "prefecture_kana": "クマモトケン",
    "prefecture_code": 43,
    "city": "玉名市",
    "city_kana": "タマナシ",
    "town": "寺田",
    "town_kana": "テラダ",
    "street": null,
    "office_name": null,
    "office_name_kana": null
  },
  "0023": {
    "postcode": "8650023",
    "prefecture": "熊本県",
    "prefecture_kana": "クマモトケン",
    "prefecture_code": 43,
    "city": "玉名市",
    "city_kana": "タマナシ",
    "town": "大倉",
    "town_kana": "オオクラ",
    "street": null,
    "office_name": null,
    "office_name_kana": null
  },
  "0024": {
    "postcode": "8650024",
    "prefecture": "熊本県",
    "prefecture_kana": "クマモトケン",
    "prefecture_code": 43,
    "city": "玉名市",
    "city_kana": "タマナシ",
    "town": "永徳寺",
    "town_kana": "エイトクジ",
    "street": null,
    "office_name": null,
    "office_name_kana": null
  },
  "0025": {
    "postcode": "8650025",
    "prefecture": "熊本県",
    "prefecture_kana": "クマモトケン",
    "prefecture_code": 43,
    "city": "玉名市",
    "city_kana": "タマナシ",
    "town": "高瀬",
    "town_kana": "タカセ",
    "street": null,
    "office_name": null,
    "office_name_kana": null
  },
  "0026": {
    "postcode": "8650026",
    "prefecture": "熊本県",
    "prefecture_kana": "クマモトケン",
    "prefecture_code": 43,
    "city": "玉名市",
    "city_kana": "タマナシ",
    "town": "秋丸",
    "town_kana": "アキマル",
    "street": null,
    "office_name": null,
    "office_name_kana": null
  },
  "0027": {
    "postcode": "8650027",
    "prefecture": "熊本県",
    "prefecture_kana": "クマモトケン",
    "prefecture_code": 43,
    "city": "玉名市",
    "city_kana": "タマナシ",
    "town": "向津留",
    "town_kana": "ムコウヅル",
    "street": null,
    "office_name": null,
    "office_name_kana": null
  },
  "0031": {
    "postcode": "8650031",
    "prefecture": "熊本県",
    "prefecture_kana": "クマモトケン",
    "prefecture_code": 43,
    "city": "玉名市",
    "city_kana": "タマナシ",
    "town": "田崎",
    "town_kana": "タサキ",
    "street": null,
    "office_name": null,
    "office_name_kana": null
  },
  "0032": {
    "postcode": "8650032",
    "prefecture": "熊本県",
    "prefecture_kana": "クマモトケン",
    "prefecture_code": 43,
    "city": "玉名市",
    "city_kana": "タマナシ",
    "town": "北坂門田",
    "town_kana": "キタサカモンタ",
    "street": null,
    "office_name": null,
    "office_name_kana": null
  },
  "0033": {
    "postcode": "8650033",
    "prefecture": "熊本県",
    "prefecture_kana": "クマモトケン",
    "prefecture_code": 43,
    "city": "玉名市",
    "city_kana": "タマナシ",
    "town": "中坂門田",
    "town_kana": "ナカサカモンタ",
    "street": null,
    "office_name": null,
    "office_name_kana": null
  },
  "0034": {
    "postcode": "8650034",
    "prefecture": "熊本県",
    "prefecture_kana": "クマモトケン",
    "prefecture_code": 43,
    "city": "玉名市",
    "city_kana": "タマナシ",
    "town": "南坂門田",
    "town_kana": "ミナミサカモンタ",
    "street": null,
    "office_name": null,
    "office_name_kana": null
  },
  "0035": {
    "postcode": "8650035",
    "prefecture": "熊本県",
    "prefecture_kana": "クマモトケン",
    "prefecture_code": 43,
    "city": "玉名市",
    "city_kana": "タマナシ",
    "town": "青野",
    "town_kana": "アオノ",
    "street": null,
    "office_name": null,
    "office_name_kana": null
  },
  "0041": {
    "postcode": "8650041",
    "prefecture": "熊本県",
    "prefecture_kana": "クマモトケン",
    "prefecture_code": 43,
    "city": "玉名市",
    "city_kana": "タマナシ",
    "town": "伊倉北方",
    "town_kana": "イクラキタカタ",
    "street": null,
    "office_name": null,
    "office_name_kana": null
  },
  "0042": {
    "postcode": "8650042",
    "prefecture": "熊本県",
    "prefecture_kana": "クマモトケン",
    "prefecture_code": 43,
    "city": "玉名市",
    "city_kana": "タマナシ",
    "town": "宮原",
    "town_kana": "ミヤバラ",
    "street": null,
    "office_name": null,
    "office_name_kana": null
  },
  "0043": {
    "postcode": "8650043",
    "prefecture": "熊本県",
    "prefecture_kana": "クマモトケン",
    "prefecture_code": 43,
    "city": "玉名市",
    "city_kana": "タマナシ",
    "town": "横田",
    "town_kana": "ヨコタ",
    "street": null,
    "office_name": null,
    "office_name_kana": null
  },
  "0044": {
    "postcode": "8650044",
    "prefecture": "熊本県",
    "prefecture_kana": "クマモトケン",
    "prefecture_code": 43,
    "city": "玉名市",
    "city_kana": "タマナシ",
    "town": "片諏訪",
    "town_kana": "カタスワ",
    "street": null,
    "office_name": null,
    "office_name_kana": null
  },
  "0045": {
    "postcode": "8650045",
    "prefecture": "熊本県",
    "prefecture_kana": "クマモトケン",
    "prefecture_code": 43,
    "city": "玉名市",
    "city_kana": "タマナシ",
    "town": "伊倉南方",
    "town_kana": "イクラミナミカタ",
    "street": null,
    "office_name": null,
    "office_name_kana": null
  },
  "0046": {
    "postcode": "8650046",
    "prefecture": "熊本県",
    "prefecture_kana": "クマモトケン",
    "prefecture_code": 43,
    "city": "玉名市",
    "city_kana": "タマナシ",
    "town": "北牟田",
    "town_kana": "キタムタ",
    "street": null,
    "office_name": null,
    "office_name_kana": null
  },
  "0047": {
    "postcode": "8650047",
    "prefecture": "熊本県",
    "prefecture_kana": "クマモトケン",
    "prefecture_code": 43,
    "city": "玉名市",
    "city_kana": "タマナシ",
    "town": "川島",
    "town_kana": "カワシマ",
    "street": null,
    "office_name": null,
    "office_name_kana": null
  },
  "0048": {
    "postcode": "8650048",
    "prefecture": "熊本県",
    "prefecture_kana": "クマモトケン",
    "prefecture_code": 43,
    "city": "玉名市",
    "city_kana": "タマナシ",
    "town": "小野尻",
    "town_kana": "オノジリ",
    "street": null,
    "office_name": null,
    "office_name_kana": null
  },
  "0051": {
    "postcode": "8650051",
    "prefecture": "熊本県",
    "prefecture_kana": "クマモトケン",
    "prefecture_code": 43,
    "city": "玉名市",
    "city_kana": "タマナシ",
    "town": "繁根木",
    "town_kana": "ハネギ",
    "street": null,
    "office_name": null,
    "office_name_kana": null
  },
  "0052": {
    "postcode": "8650052",
    "prefecture": "熊本県",
    "prefecture_kana": "クマモトケン",
    "prefecture_code": 43,
    "city": "玉名市",
    "city_kana": "タマナシ",
    "town": "松木",
    "town_kana": "マツキ",
    "street": null,
    "office_name": null,
    "office_name_kana": null
  },
  "0053": {
    "postcode": "8650053",
    "prefecture": "熊本県",
    "prefecture_kana": "クマモトケン",
    "prefecture_code": 43,
    "city": "玉名市",
    "city_kana": "タマナシ",
    "town": "千田川原",
    "town_kana": "センダガワラ",
    "street": null,
    "office_name": null,
    "office_name_kana": null
  },
  "0054": {
    "postcode": "8650054",
    "prefecture": "熊本県",
    "prefecture_kana": "クマモトケン",
    "prefecture_code": 43,
    "city": "玉名市",
    "city_kana": "タマナシ",
    "town": "小島",
    "town_kana": "オシマ",
    "street": null,
    "office_name": null,
    "office_name_kana": null
  },
  "0055": {
    "postcode": "8650055",
    "prefecture": "熊本県",
    "prefecture_kana": "クマモトケン",
    "prefecture_code": 43,
    "city": "玉名市",
    "city_kana": "タマナシ",
    "town": "大浜町",
    "town_kana": "オオハママチ",
    "street": null,
    "office_name": null,
    "office_name_kana": null
  },
  "0056": {
    "postcode": "8650056",
    "prefecture": "熊本県",
    "prefecture_kana": "クマモトケン",
    "prefecture_code": 43,
    "city": "玉名市",
    "city_kana": "タマナシ",
    "town": "滑石",
    "town_kana": "ナメイシ",
    "street": null,
    "office_name": null,
    "office_name_kana": null
  },
  "0057": {
    "postcode": "8650057",
    "prefecture": "熊本県",
    "prefecture_kana": "クマモトケン",
    "prefecture_code": 43,
    "city": "玉名市",
    "city_kana": "タマナシ",
    "town": "小浜",
    "town_kana": "コバマ",
    "street": null,
    "office_name": null,
    "office_name_kana": null
  },
  "0058": {
    "postcode": "8650058",
    "prefecture": "熊本県",
    "prefecture_kana": "クマモトケン",
    "prefecture_code": 43,
    "city": "玉名市",
    "city_kana": "タマナシ",
    "town": "六田",
    "town_kana": "ロクタ",
    "street": null,
    "office_name": null,
    "office_name_kana": null
  },
  "0061": {
    "postcode": "8650061",
    "prefecture": "熊本県",
    "prefecture_kana": "クマモトケン",
    "prefecture_code": 43,
    "city": "玉名市",
    "city_kana": "タマナシ",
    "town": "立願寺",
    "town_kana": "リュウガンジ",
    "street": null,
    "office_name": null,
    "office_name_kana": null
  },
  "0062": {
    "postcode": "8650062",
    "prefecture": "熊本県",
    "prefecture_kana": "クマモトケン",
    "prefecture_code": 43,
    "city": "玉名市",
    "city_kana": "タマナシ",
    "town": "富尾",
    "town_kana": "トミノオ",
    "street": null,
    "office_name": null,
    "office_name_kana": null
  },
  "0063": {
    "postcode": "8650063",
    "prefecture": "熊本県",
    "prefecture_kana": "クマモトケン",
    "prefecture_code": 43,
    "city": "玉名市",
    "city_kana": "タマナシ",
    "town": "中尾",
    "town_kana": "ナカオ",
    "street": null,
    "office_name": null,
    "office_name_kana": null
  },
  "0064": {
    "postcode": "8650064",
    "prefecture": "熊本県",
    "prefecture_kana": "クマモトケン",
    "prefecture_code": 43,
    "city": "玉名市",
    "city_kana": "タマナシ",
    "town": "中",
    "town_kana": "ナカ",
    "street": null,
    "office_name": null,
    "office_name_kana": null
  },
  "0065": {
    "postcode": "8650065",
    "prefecture": "熊本県",
    "prefecture_kana": "クマモトケン",
    "prefecture_code": 43,
    "city": "玉名市",
    "city_kana": "タマナシ",
    "town": "築地",
    "town_kana": "ツイジ",
    "street": null,
    "office_name": null,
    "office_name_kana": null
  },
  "0066": {
    "postcode": "8650066",
    "prefecture": "熊本県",
    "prefecture_kana": "クマモトケン",
    "prefecture_code": 43,
    "city": "玉名市",
    "city_kana": "タマナシ",
    "town": "山田",
    "town_kana": "ヤマダ",
    "street": null,
    "office_name": null,
    "office_name_kana": null
  },
  "0071": {
    "postcode": "8650071",
    "prefecture": "熊本県",
    "prefecture_kana": "クマモトケン",
    "prefecture_code": 43,
    "city": "玉名市",
    "city_kana": "タマナシ",
    "town": "横島町大園",
    "town_kana": "ヨコシママチオオゾノ",
    "street": null,
    "office_name": null,
    "office_name_kana": null
  },
  "0072": {
    "postcode": "8650072",
    "prefecture": "熊本県",
    "prefecture_kana": "クマモトケン",
    "prefecture_code": 43,
    "city": "玉名市",
    "city_kana": "タマナシ",
    "town": "横島町横島",
    "town_kana": "ヨコシママチヨコシマ",
    "street": null,
    "office_name": null,
    "office_name_kana": null
  },
  "0073": {
    "postcode": "8650073",
    "prefecture": "熊本県",
    "prefecture_kana": "クマモトケン",
    "prefecture_code": 43,
    "city": "玉名市",
    "city_kana": "タマナシ",
    "town": "横島町共栄",
    "town_kana": "ヨコシママチキョウエイ",
    "street": null,
    "office_name": null,
    "office_name_kana": null
  },
  "0100": {
    "postcode": "8650100",
    "prefecture": "熊本県",
    "prefecture_kana": "クマモトケン",
    "prefecture_code": 43,
    "city": "玉名郡和水町",
    "city_kana": "タマナグンナゴミマチ",
    "town": "",
    "town_kana": "",
    "street": null,
    "office_name": null,
    "office_name_kana": null
  },
  "0101": {
    "postcode": "8650101",
    "prefecture": "熊本県",
    "prefecture_kana": "クマモトケン",
    "prefecture_code": 43,
    "city": "玉名郡和水町",
    "city_kana": "タマナグンナゴミマチ",
    "town": "江栗",
    "town_kana": "エグリ",
    "street": null,
    "office_name": null,
    "office_name_kana": null
  },
  "0102": {
    "postcode": "8650102",
    "prefecture": "熊本県",
    "prefecture_kana": "クマモトケン",
    "prefecture_code": 43,
    "city": "玉名郡和水町",
    "city_kana": "タマナグンナゴミマチ",
    "town": "久井原",
    "town_kana": "ヒサイバル",
    "street": null,
    "office_name": null,
    "office_name_kana": null
  },
  "0103": {
    "postcode": "8650103",
    "prefecture": "熊本県",
    "prefecture_kana": "クマモトケン",
    "prefecture_code": 43,
    "city": "玉名郡和水町",
    "city_kana": "タマナグンナゴミマチ",
    "town": "長小田",
    "town_kana": "ナガオダ",
    "street": null,
    "office_name": null,
    "office_name_kana": null
  },
  "0104": {
    "postcode": "8650104",
    "prefecture": "熊本県",
    "prefecture_kana": "クマモトケン",
    "prefecture_code": 43,
    "city": "玉名郡和水町",
    "city_kana": "タマナグンナゴミマチ",
    "town": "内田",
    "town_kana": "ウチダ",
    "street": null,
    "office_name": null,
    "office_name_kana": null
  },
  "0111": {
    "postcode": "8650111",
    "prefecture": "熊本県",
    "prefecture_kana": "クマモトケン",
    "prefecture_code": 43,
    "city": "玉名郡和水町",
    "city_kana": "タマナグンナゴミマチ",
    "town": "下津原",
    "town_kana": "シモツワラ",
    "street": null,
    "office_name": null,
    "office_name_kana": null
  },
  "0112": {
    "postcode": "8650112",
    "prefecture": "熊本県",
    "prefecture_kana": "クマモトケン",
    "prefecture_code": 43,
    "city": "玉名郡和水町",
    "city_kana": "タマナグンナゴミマチ",
    "town": "大屋",
    "town_kana": "オオヤ",
    "street": null,
    "office_name": null,
    "office_name_kana": null
  },
  "0113": {
    "postcode": "8650113",
    "prefecture": "熊本県",
    "prefecture_kana": "クマモトケン",
    "prefecture_code": 43,
    "city": "玉名郡和水町",
    "city_kana": "タマナグンナゴミマチ",
    "town": "焼米",
    "town_kana": "ヤイゴメ",
    "street": null,
    "office_name": null,
    "office_name_kana": null
  },
  "0114": {
    "postcode": "8650114",
    "prefecture": "熊本県",
    "prefecture_kana": "クマモトケン",
    "prefecture_code": 43,
    "city": "玉名郡和水町",
    "city_kana": "タマナグンナゴミマチ",
    "town": "岩尻",
    "town_kana": "イワシリ",
    "street": null,
    "office_name": null,
    "office_name_kana": null
  },
  "0115": {
    "postcode": "8650115",
    "prefecture": "熊本県",
    "prefecture_kana": "クマモトケン",
    "prefecture_code": 43,
    "city": "玉名郡和水町",
    "city_kana": "タマナグンナゴミマチ",
    "town": "久米野",
    "town_kana": "クベノ",
    "street": null,
    "office_name": null,
    "office_name_kana": null
  },
  "0116": {
    "postcode": "8650116",
    "prefecture": "熊本県",
    "prefecture_kana": "クマモトケン",
    "prefecture_code": 43,
    "city": "玉名郡和水町",
    "city_kana": "タマナグンナゴミマチ",
    "town": "竈門",
    "town_kana": "カマド",
    "street": null,
    "office_name": null,
    "office_name_kana": null
  },
  "0117": {
    "postcode": "8650117",
    "prefecture": "熊本県",
    "prefecture_kana": "クマモトケン",
    "prefecture_code": 43,
    "city": "玉名郡和水町",
    "city_kana": "タマナグンナゴミマチ",
    "town": "志口永",
    "town_kana": "シグチナガ",
    "street": null,
    "office_name": null,
    "office_name_kana": null
  },
  "0121": {
    "postcode": "8650121",
    "prefecture": "熊本県",
    "prefecture_kana": "クマモトケン",
    "prefecture_code": 43,
    "city": "玉名郡和水町",
    "city_kana": "タマナグンナゴミマチ",
    "town": "榎原",
    "town_kana": "エノキバル",
    "street": null,
    "office_name": null,
    "office_name_kana": null
  },
  "0122": {
    "postcode": "8650122",
    "prefecture": "熊本県",
    "prefecture_kana": "クマモトケン",
    "prefecture_code": 43,
    "city": "玉名郡和水町",
    "city_kana": "タマナグンナゴミマチ",
    "town": "高野",
    "town_kana": "タカノ",
    "street": null,
    "office_name": null,
    "office_name_kana": null
  },
  "0123": {
    "postcode": "8650123",
    "prefecture": "熊本県",
    "prefecture_kana": "クマモトケン",
    "prefecture_code": 43,
    "city": "玉名郡和水町",
    "city_kana": "タマナグンナゴミマチ",
    "town": "米渡尾",
    "town_kana": "メドオ",
    "street": null,
    "office_name": null,
    "office_name_kana": null
  },
  "0124": {
    "postcode": "8650124",
    "prefecture": "熊本県",
    "prefecture_kana": "クマモトケン",
    "prefecture_code": 43,
    "city": "玉名郡和水町",
    "city_kana": "タマナグンナゴミマチ",
    "town": "原口",
    "town_kana": "ハルグチ",
    "street": null,
    "office_name": null,
    "office_name_kana": null
  },
  "0125": {
    "postcode": "8650125",
    "prefecture": "熊本県",
    "prefecture_kana": "クマモトケン",
    "prefecture_code": 43,
    "city": "玉名郡和水町",
    "city_kana": "タマナグンナゴミマチ",
    "town": "藤田",
    "town_kana": "フジタ",
    "street": null,
    "office_name": null,
    "office_name_kana": null
  },
  "0126": {
    "postcode": "8650126",
    "prefecture": "熊本県",
    "prefecture_kana": "クマモトケン",
    "prefecture_code": 43,
    "city": "玉名郡和水町",
    "city_kana": "タマナグンナゴミマチ",
    "town": "前原",
    "town_kana": "マエバル",
    "street": null,
    "office_name": null,
    "office_name_kana": null
  },
  "0131": {
    "postcode": "8650131",
    "prefecture": "熊本県",
    "prefecture_kana": "クマモトケン",
    "prefecture_code": 43,
    "city": "玉名郡和水町",
    "city_kana": "タマナグンナゴミマチ",
    "town": "用木",
    "town_kana": "モテギ",
    "street": null,
    "office_name": null,
    "office_name_kana": null
  },
  "0132": {
    "postcode": "8650132",
    "prefecture": "熊本県",
    "prefecture_kana": "クマモトケン",
    "prefecture_code": 43,
    "city": "玉名郡和水町",
    "city_kana": "タマナグンナゴミマチ",
    "town": "萩原",
    "town_kana": "ハギワラ",
    "street": null,
    "office_name": null,
    "office_name_kana": null
  },
  "0133": {
    "postcode": "8650133",
    "prefecture": "熊本県",
    "prefecture_kana": "クマモトケン",
    "prefecture_code": 43,
    "city": "玉名郡和水町",
    "city_kana": "タマナグンナゴミマチ",
    "town": "蜻浦",
    "town_kana": "ヘボウラ",
    "street": null,
    "office_name": null,
    "office_name_kana": null
  },
  "0134": {
    "postcode": "8650134",
    "prefecture": "熊本県",
    "prefecture_kana": "クマモトケン",
    "prefecture_code": 43,
    "city": "玉名郡和水町",
    "city_kana": "タマナグンナゴミマチ",
    "town": "日平",
    "town_kana": "ヒビラ",
    "street": null,
    "office_name": null,
    "office_name_kana": null
  },
  "0135": {
    "postcode": "8650135",
    "prefecture": "熊本県",
    "prefecture_kana": "クマモトケン",
    "prefecture_code": 43,
    "city": "玉名郡和水町",
    "city_kana": "タマナグンナゴミマチ",
    "town": "瀬川",
    "town_kana": "セガワ",
    "street": null,
    "office_name": null,
    "office_name_kana": null
  },
  "0136": {
    "postcode": "8650136",
    "prefecture": "熊本県",
    "prefecture_kana": "クマモトケン",
    "prefecture_code": 43,
    "city": "玉名郡和水町",
    "city_kana": "タマナグンナゴミマチ",
    "town": "江田",
    "town_kana": "エタ",
    "street": null,
    "office_name": null,
    "office_name_kana": null
  },
  "0192": {
    "postcode": "8650192",
    "prefecture": "熊本県",
    "prefecture_kana": "クマモトケン",
    "prefecture_code": 43,
    "city": "玉名郡和水町",
    "city_kana": "タマナグンナゴミマチ",
    "town": "江田",
    "town_kana": "エタ",
    "street": "３８８６",
    "office_name": "和水町役場",
    "office_name_kana": "ナゴミマチヤクバ"
  },
  "0193": {
    "postcode": "8650193",
    "prefecture": "熊本県",
    "prefecture_kana": "クマモトケン",
    "prefecture_code": 43,
    "city": "玉名郡和水町",
    "city_kana": "タマナグンナゴミマチ",
    "town": "高野",
    "town_kana": "タカノ",
    "street": "１０８０",
    "office_name": "パナソニックプレシジョンデバイス　株式会社",
    "office_name_kana": "パナソニツクプレシジヨンデバイス カブシキガイシヤ"
  },
  "8501": {
    "postcode": "8658501",
    "prefecture": "熊本県",
    "prefecture_kana": "クマモトケン",
    "prefecture_code": 43,
    "city": "玉名市",
    "city_kana": "タマナシ",
    "town": "岩崎",
    "town_kana": "イワサキ",
    "street": "１６３",
    "office_name": "玉名市役所",
    "office_name_kana": "タマナシヤクシヨ"
  },
  "8511": {
    "postcode": "8658511",
    "prefecture": "熊本県",
    "prefecture_kana": "クマモトケン",
    "prefecture_code": 43,
    "city": "玉名市",
    "city_kana": "タマナシ",
    "town": "岩崎",
    "town_kana": "イワサキ",
    "street": "１０６１",
    "office_name": "玉名女子高等学校",
    "office_name_kana": "タマナジヨシコウトウガツコウ"
  },
  "8533": {
    "postcode": "8658533",
    "prefecture": "熊本県",
    "prefecture_kana": "クマモトケン",
    "prefecture_code": 43,
    "city": "玉名市",
    "city_kana": "タマナシ",
    "town": "築地",
    "town_kana": "ツイジ",
    "street": "２２８８",
    "office_name": "蓮華院　誕生寺",
    "office_name_kana": "レンゲイン タンジヨウジ"
  },
  "8550": {
    "postcode": "8658550",
    "prefecture": "熊本県",
    "prefecture_kana": "クマモトケン",
    "prefecture_code": 43,
    "city": "玉名市",
    "city_kana": "タマナシ",
    "town": "中",
    "town_kana": "ナカ",
    "street": "４番地",
    "office_name": "学校法人　松本学園",
    "office_name_kana": "ガツコウホウジン マツモトガクエン"
  },
  "8555": {
    "postcode": "8658555",
    "prefecture": "熊本県",
    "prefecture_kana": "クマモトケン",
    "prefecture_code": 43,
    "city": "玉名市",
    "city_kana": "タマナシ",
    "town": "六田",
    "town_kana": "ロクタ",
    "street": "７番１",
    "office_name": "玉名農業協同組合",
    "office_name_kana": "タマナノウギヨウキヨウドウクミアイ"
  },
  "8577": {
    "postcode": "8658577",
    "prefecture": "熊本県",
    "prefecture_kana": "クマモトケン",
    "prefecture_code": 43,
    "city": "玉名市",
    "city_kana": "タマナシ",
    "town": "繁根木",
    "town_kana": "ハネギ",
    "street": "１３１−１",
    "office_name": "司観光開発　株式会社",
    "office_name_kana": "ツカサカンコウカイハツ カブシキガイシヤ"
  }
}