{
  "0000": [
    {
      "postcode": "8680000",
      "prefecture": "熊本県",
      "prefecture_kana": "クマモトケン",
      "prefecture_code": 43,
      "city": "人吉市",
      "city_kana": "ヒトヨシシ",
      "town": "",
      "town_kana": "",
      "street": null,
      "office_name": null,
      "office_name_kana": null
    },
    {
      "postcode": "8680000",
      "prefecture": "熊本県",
      "prefecture_kana": "クマモトケン",
      "prefecture_code": 43,
      "city": "球磨郡相良村",
      "city_kana": "クマグンサガラムラ",
      "town": "",
      "town_kana": "",
      "street": null,
      "office_name": null,
      "office_name_kana": null
    },
    {
      "postcode": "8680000",
      "prefecture": "熊本県",
      "prefecture_kana": "クマモトケン",
      "prefecture_code": 43,
      "city": "球磨郡山江村",
      "city_kana": "クマグンヤマエムラ",
      "town": "",
      "town_kana": "",
      "street": null,
      "office_name": null,
      "office_name_kana": null
    }
  ],
  "0001": {
    "postcode": "8680001",
    "prefecture": "熊本県",
    "prefecture_kana": "クマモトケン",
    "prefecture_code": 43,
    "city": "人吉市",
    "city_kana": "ヒトヨシシ",
    "town": "鍛冶屋町",
    "town_kana": "カジヤマチ",
    "street": null,
    "office_name": null,
    "office_name_kana": null
  },
  "0002": {
    "postcode": "8680002",
    "prefecture": "熊本県",
    "prefecture_kana": "クマモトケン",
    "prefecture_code": 43,
    "city": "人吉市",
    "city_kana": "ヒトヨシシ",
    "town": "大工町",
    "town_kana": "ダイクマチ",
    "street": null,
    "office_name": null,
    "office_name_kana": null
  },
  "0003": {
    "postcode": "8680003",
    "prefecture": "熊本県",
    "prefecture_kana": "クマモトケン",
    "prefecture_code": 43,
    "city": "人吉市",
    "city_kana": "ヒトヨシシ",
    "town": "紺屋町",
    "town_kana": "コウヤマチ",
    "street": null,
    "office_name": null,
    "office_name_kana": null
  },
  "0004": {
    "postcode": "8680004",
    "prefecture": "熊本県",
    "prefecture_kana": "クマモトケン",
    "prefecture_code": 43,
    "city": "人吉市",
    "city_kana": "ヒトヨシシ",
    "town": "九日町",
    "town_kana": "ココノカマチ",
    "street": null,
    "office_name": null,
    "office_name_kana": null
  },
  "0005": {
    "postcode": "8680005",
    "prefecture": "熊本県",
    "prefecture_kana": "クマモトケン",
    "prefecture_code": 43,
    "city": "人吉市",
    "city_kana": "ヒトヨシシ",
    "town": "上青井町",
    "town_kana": "カミアオイマチ",
    "street": null,
    "office_name": null,
    "office_name_kana": null
  },
  "0006": {
    "postcode": "8680006",
    "prefecture": "熊本県",
    "prefecture_kana": "クマモトケン",
    "prefecture_code": 43,
    "city": "人吉市",
    "city_kana": "ヒトヨシシ",
    "town": "駒井田町",
    "town_kana": "コマイダマチ",
    "street": null,
    "office_name": null,
    "office_name_kana": null
  },
  "0007": {
    "postcode": "8680007",
    "prefecture": "熊本県",
    "prefecture_kana": "クマモトケン",
    "prefecture_code": 43,
    "city": "人吉市",
    "city_kana": "ヒトヨシシ",
    "town": "下青井町",
    "town_kana": "シモアオイマチ",
    "street": null,
    "office_name": null,
    "office_name_kana": null
  },
  "0008": {
    "postcode": "8680008",
    "prefecture": "熊本県",
    "prefecture_kana": "クマモトケン",
    "prefecture_code": 43,
    "city": "人吉市",
    "city_kana": "ヒトヨシシ",
    "town": "中青井町",
    "town_kana": "ナカアオイマチ",
    "street": null,
    "office_name": null,
    "office_name_kana": null
  },
  "0011": {
    "postcode": "8680011",
    "prefecture": "熊本県",
    "prefecture_kana": "クマモトケン",
    "prefecture_code": 43,
    "city": "人吉市",
    "city_kana": "ヒトヨシシ",
    "town": "宝来町",
    "town_kana": "ホウライマチ",
    "street": null,
    "office_name": null,
    "office_name_kana": null
  },
  "0012": {
    "postcode": "8680012",
    "prefecture": "熊本県",
    "prefecture_kana": "クマモトケン",
    "prefecture_code": 43,
    "city": "人吉市",
    "city_kana": "ヒトヨシシ",
    "town": "相良町",
    "town_kana": "サガラマチ",
    "street": null,
    "office_name": null,
    "office_name_kana": null
  },
  "0013": {
    "postcode": "8680013",
    "prefecture": "熊本県",
    "prefecture_kana": "クマモトケン",
    "prefecture_code": 43,
    "city": "人吉市",
    "city_kana": "ヒトヨシシ",
    "town": "上薩摩瀬町",
    "town_kana": "カミサツマゼマチ",
    "street": null,
    "office_name": null,
    "office_name_kana": null
  },
  "0014": {
    "postcode": "8680014",
    "prefecture": "熊本県",
    "prefecture_kana": "クマモトケン",
    "prefecture_code": 43,
    "city": "人吉市",
    "city_kana": "ヒトヨシシ",
    "town": "下薩摩瀬町",
    "town_kana": "シモサツマゼマチ",
    "street": null,
    "office_name": null,
    "office_name_kana": null
  },
  "0015": {
    "postcode": "8680015",
    "prefecture": "熊本県",
    "prefecture_kana": "クマモトケン",
    "prefecture_code": 43,
    "city": "人吉市",
    "city_kana": "ヒトヨシシ",
    "town": "下城本町",
    "town_kana": "シモシロモトマチ",
    "street": null,
    "office_name": null,
    "office_name_kana": null
  },
  "0016": {
    "postcode": "8680016",
    "prefecture": "熊本県",
    "prefecture_kana": "クマモトケン",
    "prefecture_code": 43,
    "city": "人吉市",
    "city_kana": "ヒトヨシシ",
    "town": "城本町",
    "town_kana": "シロモトマチ",
    "street": null,
    "office_name": null,
    "office_name_kana": null
  },
  "0021": {
    "postcode": "8680021",
    "prefecture": "熊本県",
    "prefecture_kana": "クマモトケン",
    "prefecture_code": 43,
    "city": "人吉市",
    "city_kana": "ヒトヨシシ",
    "town": "鬼木町",
    "town_kana": "オニキマチ",
    "street": null,
    "office_name": null,
    "office_name_kana": null
  },
  "0022": [
    {
      "postcode": "8680022",
      "prefecture": "熊本県",
      "prefecture_kana": "クマモトケン",
      "prefecture_code": 43,
      "city": "人吉市",
      "city_kana": "ヒトヨシシ",
      "town": "願成寺町",
      "town_kana": "ガンジョウジマチ",
      "street": null,
      "office_name": null,
      "office_name_kana": null
    },
    {
      "postcode": "8680022",
      "prefecture": "熊本県",
      "prefecture_kana": "クマモトケン",
      "prefecture_code": 43,
      "city": "人吉市",
      "city_kana": "ヒトヨシシ",
      "town": "北願成寺町",
      "town_kana": "キタガンジョウジマチ",
      "street": null,
      "office_name": null,
      "office_name_kana": null
    }
  ],
  "0023": {
    "postcode": "8680023",
    "prefecture": "熊本県",
    "prefecture_kana": "クマモトケン",
    "prefecture_code": 43,
    "city": "人吉市",
    "city_kana": "ヒトヨシシ",
    "town": "北泉田町",
    "town_kana": "キタイズミダマチ",
    "street": null,
    "office_name": null,
    "office_name_kana": null
  },
  "0024": {
    "postcode": "8680024",
    "prefecture": "熊本県",
    "prefecture_kana": "クマモトケン",
    "prefecture_code": 43,
    "city": "人吉市",
    "city_kana": "ヒトヨシシ",
    "town": "鶴田町",
    "town_kana": "ツルダマチ",
    "street": null,
    "office_name": null,
    "office_name_kana": null
  },
  "0025": {
    "postcode": "8680025",
    "prefecture": "熊本県",
    "prefecture_kana": "クマモトケン",
    "prefecture_code": 43,
    "city": "人吉市",
    "city_kana": "ヒトヨシシ",
    "town": "瓦屋町",
    "town_kana": "カワラヤマチ",
    "street": null,
    "office_name": null,
    "office_name_kana": null
  },
  "0026": {
    "postcode": "8680026",
    "prefecture": "熊本県",
    "prefecture_kana": "クマモトケン",
    "prefecture_code": 43,
    "city": "人吉市",
    "city_kana": "ヒトヨシシ",
    "town": "合ノ原町",
    "town_kana": "ゴウノハルマチ",
    "street": null,
    "office_name": null,
    "office_name_kana": null
  },
  "0027": {
    "postcode": "8680027",
    "prefecture": "熊本県",
    "prefecture_kana": "クマモトケン",
    "prefecture_code": 43,
    "city": "人吉市",
    "city_kana": "ヒトヨシシ",
    "town": "井ノ口町",
    "town_kana": "イノクチマチ",
    "street": null,
    "office_name": null,
    "office_name_kana": null
  },
  "0031": {
    "postcode": "8680031",
    "prefecture": "熊本県",
    "prefecture_kana": "クマモトケン",
    "prefecture_code": 43,
    "city": "人吉市",
    "city_kana": "ヒトヨシシ",
    "town": "南願成寺町",
    "town_kana": "ミナミガンジョウジチョウ",
    "street": null,
    "office_name": null,
    "office_name_kana": null
  },
  "0032": {
    "postcode": "8680032",
    "prefecture": "熊本県",
    "prefecture_kana": "クマモトケン",
    "prefecture_code": 43,
    "city": "人吉市",
    "city_kana": "ヒトヨシシ",
    "town": "上新町",
    "town_kana": "カミシンマチ",
    "street": null,
    "office_name": null,
    "office_name_kana": null
  },
  "0033": {
    "postcode": "8680033",
    "prefecture": "熊本県",
    "prefecture_kana": "クマモトケン",
    "prefecture_code": 43,
    "city": "人吉市",
    "city_kana": "ヒトヨシシ",
    "town": "下新町",
    "town_kana": "シモシンマチ",
    "street": null,
    "office_name": null,
    "office_name_kana": null
  },
  "0034": {
    "postcode": "8680034",
    "prefecture": "熊本県",
    "prefecture_kana": "クマモトケン",
    "prefecture_code": 43,
    "city": "人吉市",
    "city_kana": "ヒトヨシシ",
    "town": "七日町",
    "town_kana": "ナヌカマチ",
    "street": null,
    "office_name": null,
    "office_name_kana": null
  },
  "0035": {
    "postcode": "8680035",
    "prefecture": "熊本県",
    "prefecture_kana": "クマモトケン",
    "prefecture_code": 43,
    "city": "人吉市",
    "city_kana": "ヒトヨシシ",
    "town": "五日町",
    "town_kana": "イツカマチ",
    "street": null,
    "office_name": null,
    "office_name_kana": null
  },
  "0036": {
    "postcode": "8680036",
    "prefecture": "熊本県",
    "prefecture_kana": "クマモトケン",
    "prefecture_code": 43,
    "city": "人吉市",
    "city_kana": "ヒトヨシシ",
    "town": "二日町",
    "town_kana": "ニノマチ",
    "street": null,
    "office_name": null,
    "office_name_kana": null
  },
  "0037": {
    "postcode": "8680037",
    "prefecture": "熊本県",
    "prefecture_kana": "クマモトケン",
    "prefecture_code": 43,
    "city": "人吉市",
    "city_kana": "ヒトヨシシ",
    "town": "南泉田町",
    "town_kana": "ミナミイズミダマチ",
    "street": null,
    "office_name": null,
    "office_name_kana": null
  },
  "0041": {
    "postcode": "8680041",
    "prefecture": "熊本県",
    "prefecture_kana": "クマモトケン",
    "prefecture_code": 43,
    "city": "人吉市",
    "city_kana": "ヒトヨシシ",
    "town": "七地町",
    "town_kana": "シチチマチ",
    "street": null,
    "office_name": null,
    "office_name_kana": null
  },
  "0042": {
    "postcode": "8680042",
    "prefecture": "熊本県",
    "prefecture_kana": "クマモトケン",
    "prefecture_code": 43,
    "city": "人吉市",
    "city_kana": "ヒトヨシシ",
    "town": "蟹作町",
    "town_kana": "ガンツクリマチ",
    "street": null,
    "office_name": null,
    "office_name_kana": null
  },
  "0043": {
    "postcode": "8680043",
    "prefecture": "熊本県",
    "prefecture_kana": "クマモトケン",
    "prefecture_code": 43,
    "city": "人吉市",
    "city_kana": "ヒトヨシシ",
    "town": "東間上町",
    "town_kana": "ヒガシアイダカミマチ",
    "street": null,
    "office_name": null,
    "office_name_kana": null
  },
  "0044": {
    "postcode": "8680044",
    "prefecture": "熊本県",
    "prefecture_kana": "クマモトケン",
    "prefecture_code": 43,
    "city": "人吉市",
    "city_kana": "ヒトヨシシ",
    "town": "東間下町",
    "town_kana": "ヒガシアイダシモマチ",
    "street": null,
    "office_name": null,
    "office_name_kana": null
  },
  "0045": {
    "postcode": "8680045",
    "prefecture": "熊本県",
    "prefecture_kana": "クマモトケン",
    "prefecture_code": 43,
    "city": "人吉市",
    "city_kana": "ヒトヨシシ",
    "town": "浪床町",
    "town_kana": "ナミトコマチ",
    "street": null,
    "office_name": null,
    "office_name_kana": null
  },
  "0046": {
    "postcode": "8680046",
    "prefecture": "熊本県",
    "prefecture_kana": "クマモトケン",
    "prefecture_code": 43,
    "city": "人吉市",
    "city_kana": "ヒトヨシシ",
    "town": "原城町",
    "town_kana": "ハラノジョウマチ",
    "street": null,
    "office_name": null,
    "office_name_kana": null
  },
  "0047": {
    "postcode": "8680047",
    "prefecture": "熊本県",
    "prefecture_kana": "クマモトケン",
    "prefecture_code": 43,
    "city": "人吉市",
    "city_kana": "ヒトヨシシ",
    "town": "上原町",
    "town_kana": "ウエハラマチ",
    "street": null,
    "office_name": null,
    "office_name_kana": null
  },
  "0048": {
    "postcode": "8680048",
    "prefecture": "熊本県",
    "prefecture_kana": "クマモトケン",
    "prefecture_code": 43,
    "city": "人吉市",
    "city_kana": "ヒトヨシシ",
    "town": "富ケ尾町",
    "town_kana": "トミガオマチ",
    "street": null,
    "office_name": null,
    "office_name_kana": null
  },
  "0051": {
    "postcode": "8680051",
    "prefecture": "熊本県",
    "prefecture_kana": "クマモトケン",
    "prefecture_code": 43,
    "city": "人吉市",
    "city_kana": "ヒトヨシシ",
    "town": "麓町",
    "town_kana": "フモトマチ",
    "street": null,
    "office_name": null,
    "office_name_kana": null
  },
  "0052": {
    "postcode": "8680052",
    "prefecture": "熊本県",
    "prefecture_kana": "クマモトケン",
    "prefecture_code": 43,
    "city": "人吉市",
    "city_kana": "ヒトヨシシ",
    "town": "新町",
    "town_kana": "シンマチ",
    "street": null,
    "office_name": null,
    "office_name_kana": null
  },
  "0053": {
    "postcode": "8680053",
    "prefecture": "熊本県",
    "prefecture_kana": "クマモトケン",
    "prefecture_code": 43,
    "city": "人吉市",
    "city_kana": "ヒトヨシシ",
    "town": "老神町",
    "town_kana": "オイカミマチ",
    "street": null,
    "office_name": null,
    "office_name_kana": null
  },
  "0054": {
    "postcode": "8680054",
    "prefecture": "熊本県",
    "prefecture_kana": "クマモトケン",
    "prefecture_code": 43,
    "city": "人吉市",
    "city_kana": "ヒトヨシシ",
    "town": "田町",
    "town_kana": "タマチ",
    "street": null,
    "office_name": null,
    "office_name_kana": null
  },
  "0055": {
    "postcode": "8680055",
    "prefecture": "熊本県",
    "prefecture_kana": "クマモトケン",
    "prefecture_code": 43,
    "city": "人吉市",
    "city_kana": "ヒトヨシシ",
    "town": "南町",
    "town_kana": "ミナミマチ",
    "street": null,
    "office_name": null,
    "office_name_kana": null
  },
  "0056": {
    "postcode": "8680056",
    "prefecture": "熊本県",
    "prefecture_kana": "クマモトケン",
    "prefecture_code": 43,
    "city": "人吉市",
    "city_kana": "ヒトヨシシ",
    "town": "寺町",
    "town_kana": "テラマチ",
    "street": null,
    "office_name": null,
    "office_name_kana": null
  },
  "0057": {
    "postcode": "8680057",
    "prefecture": "熊本県",
    "prefecture_kana": "クマモトケン",
    "prefecture_code": 43,
    "city": "人吉市",
    "city_kana": "ヒトヨシシ",
    "town": "土手町",
    "town_kana": "ドテマチ",
    "street": null,
    "office_name": null,
    "office_name_kana": null
  },
  "0058": {
    "postcode": "8680058",
    "prefecture": "熊本県",
    "prefecture_kana": "クマモトケン",
    "prefecture_code": 43,
    "city": "人吉市",
    "city_kana": "ヒトヨシシ",
    "town": "灰久保町",
    "town_kana": "ハイクボマチ",
    "street": null,
    "office_name": null,
    "office_name_kana": null
  },
  "0061": {
    "postcode": "8680061",
    "prefecture": "熊本県",
    "prefecture_kana": "クマモトケン",
    "prefecture_code": 43,
    "city": "人吉市",
    "city_kana": "ヒトヨシシ",
    "town": "蓑野町",
    "town_kana": "ミノノマチ",
    "street": null,
    "office_name": null,
    "office_name_kana": null
  },
  "0062": {
    "postcode": "8680062",
    "prefecture": "熊本県",
    "prefecture_kana": "クマモトケン",
    "prefecture_code": 43,
    "city": "人吉市",
    "city_kana": "ヒトヨシシ",
    "town": "古仏頂町",
    "town_kana": "コブツチョウマチ",
    "street": null,
    "office_name": null,
    "office_name_kana": null
  },
  "0063": {
    "postcode": "8680063",
    "prefecture": "熊本県",
    "prefecture_kana": "クマモトケン",
    "prefecture_code": 43,
    "city": "人吉市",
    "city_kana": "ヒトヨシシ",
    "town": "木地屋町",
    "town_kana": "キジヤマチ",
    "street": null,
    "office_name": null,
    "office_name_kana": null
  },
  "0064": {
    "postcode": "8680064",
    "prefecture": "熊本県",
    "prefecture_kana": "クマモトケン",
    "prefecture_code": 43,
    "city": "人吉市",
    "city_kana": "ヒトヨシシ",
    "town": "東大塚町",
    "town_kana": "ヒガシオオツカマチ",
    "street": null,
    "office_name": null,
    "office_name_kana": null
  },
  "0065": {
    "postcode": "8680065",
    "prefecture": "熊本県",
    "prefecture_kana": "クマモトケン",
    "prefecture_code": 43,
    "city": "人吉市",
    "city_kana": "ヒトヨシシ",
    "town": "西大塚町",
    "town_kana": "ニシオオツカマチ",
    "street": null,
    "office_name": null,
    "office_name_kana": null
  },
  "0066": {
    "postcode": "8680066",
    "prefecture": "熊本県",
    "prefecture_kana": "クマモトケン",
    "prefecture_code": 43,
    "city": "人吉市",
    "city_kana": "ヒトヨシシ",
    "town": "田野町",
    "town_kana": "タノマチ",
    "street": null,
    "office_name": null,
    "office_name_kana": null
  },
  "0071": {
    "postcode": "8680071",
    "prefecture": "熊本県",
    "prefecture_kana": "クマモトケン",
    "prefecture_code": 43,
    "city": "人吉市",
    "city_kana": "ヒトヨシシ",
    "town": "西間上町",
    "town_kana": "ニシアイダカミマチ",
    "street": null,
    "office_name": null,
    "office_name_kana": null
  },
  "0072": {
    "postcode": "8680072",
    "prefecture": "熊本県",
    "prefecture_kana": "クマモトケン",
    "prefecture_code": 43,
    "city": "人吉市",
    "city_kana": "ヒトヨシシ",
    "town": "西間下町",
    "town_kana": "ニシアイダシモマチ",
    "street": null,
    "office_name": null,
    "office_name_kana": null
  },
  "0073": {
    "postcode": "8680073",
    "prefecture": "熊本県",
    "prefecture_kana": "クマモトケン",
    "prefecture_code": 43,
    "city": "人吉市",
    "city_kana": "ヒトヨシシ",
    "town": "上永野町",
    "town_kana": "カミナガノマチ",
    "street": null,
    "office_name": null,
    "office_name_kana": null
  },
  "0074": {
    "postcode": "8680074",
    "prefecture": "熊本県",
    "prefecture_kana": "クマモトケン",
    "prefecture_code": 43,
    "city": "人吉市",
    "city_kana": "ヒトヨシシ",
    "town": "下永野町",
    "town_kana": "シモナガノマチ",
    "street": null,
    "office_name": null,
    "office_name_kana": null
  },
  "0075": {
    "postcode": "8680075",
    "prefecture": "熊本県",
    "prefecture_kana": "クマモトケン",
    "prefecture_code": 43,
    "city": "人吉市",
    "city_kana": "ヒトヨシシ",
    "town": "矢黒町",
    "town_kana": "ヤグロマチ",
    "street": null,
    "office_name": null,
    "office_name_kana": null
  },
  "0076": {
    "postcode": "8680076",
    "prefecture": "熊本県",
    "prefecture_kana": "クマモトケン",
    "prefecture_code": 43,
    "city": "人吉市",
    "city_kana": "ヒトヨシシ",
    "town": "上戸越町",
    "town_kana": "カミトゴエマチ",
    "street": null,
    "office_name": null,
    "office_name_kana": null
  },
  "0077": {
    "postcode": "8680077",
    "prefecture": "熊本県",
    "prefecture_kana": "クマモトケン",
    "prefecture_code": 43,
    "city": "人吉市",
    "city_kana": "ヒトヨシシ",
    "town": "下戸越町",
    "town_kana": "シモトゴエマチ",
    "street": null,
    "office_name": null,
    "office_name_kana": null
  },
  "0078": {
    "postcode": "8680078",
    "prefecture": "熊本県",
    "prefecture_kana": "クマモトケン",
    "prefecture_code": 43,
    "city": "人吉市",
    "city_kana": "ヒトヨシシ",
    "town": "鹿目町",
    "town_kana": "カナメマチ",
    "street": null,
    "office_name": null,
    "office_name_kana": null
  },
  "0081": {
    "postcode": "8680081",
    "prefecture": "熊本県",
    "prefecture_kana": "クマモトケン",
    "prefecture_code": 43,
    "city": "人吉市",
    "city_kana": "ヒトヨシシ",
    "town": "上林町",
    "town_kana": "カミバヤシマチ",
    "street": null,
    "office_name": null,
    "office_name_kana": null
  },
  "0082": {
    "postcode": "8680082",
    "prefecture": "熊本県",
    "prefecture_kana": "クマモトケン",
    "prefecture_code": 43,
    "city": "人吉市",
    "city_kana": "ヒトヨシシ",
    "town": "中林町",
    "town_kana": "ナカバヤシマチ",
    "street": null,
    "office_name": null,
    "office_name_kana": null
  },
  "0083": {
    "postcode": "8680083",
    "prefecture": "熊本県",
    "prefecture_kana": "クマモトケン",
    "prefecture_code": 43,
    "city": "人吉市",
    "city_kana": "ヒトヨシシ",
    "town": "下林町",
    "town_kana": "シモバヤシマチ",
    "street": null,
    "office_name": null,
    "office_name_kana": null
  },
  "0084": {
    "postcode": "8680084",
    "prefecture": "熊本県",
    "prefecture_kana": "クマモトケン",
    "prefecture_code": 43,
    "city": "人吉市",
    "city_kana": "ヒトヨシシ",
    "town": "温泉町",
    "town_kana": "オンセンマチ",
    "street": null,
    "office_name": null,
    "office_name_kana": null
  },
  "0085": {
    "postcode": "8680085",
    "prefecture": "熊本県",
    "prefecture_kana": "クマモトケン",
    "prefecture_code": 43,
    "city": "人吉市",
    "city_kana": "ヒトヨシシ",
    "town": "中神町",
    "town_kana": "ナカガミチョウ",
    "street": null,
    "office_name": null,
    "office_name_kana": null
  },
  "0086": {
    "postcode": "8680086",
    "prefecture": "熊本県",
    "prefecture_kana": "クマモトケン",
    "prefecture_code": 43,
    "city": "人吉市",
    "city_kana": "ヒトヨシシ",
    "town": "下原田町",
    "town_kana": "シモハラダマチ",
    "street": null,
    "office_name": null,
    "office_name_kana": null
  },
  "0087": {
    "postcode": "8680087",
    "prefecture": "熊本県",
    "prefecture_kana": "クマモトケン",
    "prefecture_code": 43,
    "city": "人吉市",
    "city_kana": "ヒトヨシシ",
    "town": "上原田町",
    "town_kana": "カミハラダマチ",
    "street": null,
    "office_name": null,
    "office_name_kana": null
  },
  "0091": {
    "postcode": "8680091",
    "prefecture": "熊本県",
    "prefecture_kana": "クマモトケン",
    "prefecture_code": 43,
    "city": "球磨郡山江村",
    "city_kana": "クマグンヤマエムラ",
    "town": "万江",
    "town_kana": "マエ",
    "street": null,
    "office_name": null,
    "office_name_kana": null
  },
  "0092": {
    "postcode": "8680092",
    "prefecture": "熊本県",
    "prefecture_kana": "クマモトケン",
    "prefecture_code": 43,
    "city": "球磨郡山江村",
    "city_kana": "クマグンヤマエムラ",
    "town": "山田",
    "town_kana": "ヤマダ",
    "street": null,
    "office_name": null,
    "office_name_kana": null
  },
  "0093": {
    "postcode": "8680093",
    "prefecture": "熊本県",
    "prefecture_kana": "クマモトケン",
    "prefecture_code": 43,
    "city": "球磨郡相良村",
    "city_kana": "クマグンサガラムラ",
    "town": "川辺",
    "town_kana": "カワベ",
    "street": null,
    "office_name": null,
    "office_name_kana": null
  },
  "0094": {
    "postcode": "8680094",
    "prefecture": "熊本県",
    "prefecture_kana": "クマモトケン",
    "prefecture_code": 43,
    "city": "球磨郡相良村",
    "city_kana": "クマグンサガラムラ",
    "town": "深水",
    "town_kana": "フカミ",
    "street": null,
    "office_name": null,
    "office_name_kana": null
  },
  "0095": {
    "postcode": "8680095",
    "prefecture": "熊本県",
    "prefecture_kana": "クマモトケン",
    "prefecture_code": 43,
    "city": "球磨郡相良村",
    "city_kana": "クマグンサガラムラ",
    "town": "柳瀬",
    "town_kana": "ヤナセ",
    "street": null,
    "office_name": null,
    "office_name_kana": null
  },
  "0101": {
    "postcode": "8680101",
    "prefecture": "熊本県",
    "prefecture_kana": "クマモトケン",
    "prefecture_code": 43,
    "city": "球磨郡相良村",
    "city_kana": "クマグンサガラムラ",
    "town": "四浦",
    "town_kana": "ヨウラ",
    "street": null,
    "office_name": null,
    "office_name_kana": null
  },
  "0200": {
    "postcode": "8680200",
    "prefecture": "熊本県",
    "prefecture_kana": "クマモトケン",
    "prefecture_code": 43,
    "city": "球磨郡五木村",
    "city_kana": "クマグンイツキムラ",
    "town": "",
    "town_kana": "",
    "street": null,
    "office_name": null,
    "office_name_kana": null
  },
  "0201": {
    "postcode": "8680201",
    "prefecture": "熊本県",
    "prefecture_kana": "クマモトケン",
    "prefecture_code": 43,
    "city": "球磨郡五木村",
    "city_kana": "クマグンイツキムラ",
    "town": "甲",
    "town_kana": "コウ",
    "street": null,
    "office_name": null,
    "office_name_kana": null
  },
  "0202": {
    "postcode": "8680202",
    "prefecture": "熊本県",
    "prefecture_kana": "クマモトケン",
    "prefecture_code": 43,
    "city": "球磨郡五木村",
    "city_kana": "クマグンイツキムラ",
    "town": "乙",
    "town_kana": "オツ",
    "street": null,
    "office_name": null,
    "office_name_kana": null
  },
  "0203": {
    "postcode": "8680203",
    "prefecture": "熊本県",
    "prefecture_kana": "クマモトケン",
    "prefecture_code": 43,
    "city": "球磨郡五木村",
    "city_kana": "クマグンイツキムラ",
    "town": "丙",
    "town_kana": "ヘイ",
    "street": null,
    "office_name": null,
    "office_name_kana": null
  },
  "0300": {
    "postcode": "8680300",
    "prefecture": "熊本県",
    "prefecture_kana": "クマモトケン",
    "prefecture_code": 43,
    "city": "球磨郡錦町",
    "city_kana": "クマグンニシキマチ",
    "town": "",
    "town_kana": "",
    "street": null,
    "office_name": null,
    "office_name_kana": null
  },
  "0301": {
    "postcode": "8680301",
    "prefecture": "熊本県",
    "prefecture_kana": "クマモトケン",
    "prefecture_code": 43,
    "city": "球磨郡錦町",
    "city_kana": "クマグンニシキマチ",
    "town": "木上",
    "town_kana": "キノウエ",
    "street": null,
    "office_name": null,
    "office_name_kana": null
  },
  "0302": {
    "postcode": "8680302",
    "prefecture": "熊本県",
    "prefecture_kana": "クマモトケン",
    "prefecture_code": 43,
    "city": "球磨郡錦町",
    "city_kana": "クマグンニシキマチ",
    "town": "一武",
    "town_kana": "イチブ",
    "street": null,
    "office_name": null,
    "office_name_kana": null
  },
  "0303": {
    "postcode": "8680303",
    "prefecture": "熊本県",
    "prefecture_kana": "クマモトケン",
    "prefecture_code": 43,
    "city": "球磨郡錦町",
    "city_kana": "クマグンニシキマチ",
    "town": "西",
    "town_kana": "ニシ",
    "street": null,
    "office_name": null,
    "office_name_kana": null
  },
  "0392": {
    "postcode": "8680392",
    "prefecture": "熊本県",
    "prefecture_kana": "クマモトケン",
    "prefecture_code": 43,
    "city": "球磨郡錦町",
    "city_kana": "クマグンニシキマチ",
    "town": "大字一武",
    "town_kana": null,
    "street": "１５８７",
    "office_name": "錦町役場",
    "office_name_kana": "ニシキマチヤクバ"
  },
  "0393": {
    "postcode": "8680393",
    "prefecture": "熊本県",
    "prefecture_kana": "クマモトケン",
    "prefecture_code": 43,
    "city": "球磨郡錦町",
    "city_kana": "クマグンニシキマチ",
    "town": "大字一武",
    "town_kana": null,
    "street": "狩政下２６０５−７",
    "office_name": "九州武蔵精密　株式会社",
    "office_name_kana": "キユウシユウムサシセイミツ カブシキガイシヤ"
  },
  "0400": {
    "postcode": "8680400",
    "prefecture": "熊本県",
    "prefecture_kana": "クマモトケン",
    "prefecture_code": 43,
    "city": "球磨郡あさぎり町",
    "city_kana": "クマグンアサギリチョウ",
    "town": "",
    "town_kana": "",
    "street": null,
    "office_name": null,
    "office_name_kana": null
  },
  "0408": {
    "postcode": "8680408",
    "prefecture": "熊本県",
    "prefecture_kana": "クマモトケン",
    "prefecture_code": 43,
    "city": "球磨郡あさぎり町",
    "city_kana": "クマグンアサギリチョウ",
    "town": "免田東",
    "town_kana": "メンダヒガシ",
    "street": null,
    "office_name": null,
    "office_name_kana": null
  },
  "0415": {
    "postcode": "8680415",
    "prefecture": "熊本県",
    "prefecture_kana": "クマモトケン",
    "prefecture_code": 43,
    "city": "球磨郡あさぎり町",
    "city_kana": "クマグンアサギリチョウ",
    "town": "免田西",
    "town_kana": "メンダニシ",
    "street": null,
    "office_name": null,
    "office_name_kana": null
  },
  "0421": {
    "postcode": "8680421",
    "prefecture": "熊本県",
    "prefecture_kana": "クマモトケン",
    "prefecture_code": 43,
    "city": "球磨郡あさぎり町",
    "city_kana": "クマグンアサギリチョウ",
    "town": "上東",
    "town_kana": "ウエヒガシ",
    "street": null,
    "office_name": null,
    "office_name_kana": null
  },
  "0422": {
    "postcode": "8680422",
    "prefecture": "熊本県",
    "prefecture_kana": "クマモトケン",
    "prefecture_code": 43,
    "city": "球磨郡あさぎり町",
    "city_kana": "クマグンアサギリチョウ",
    "town": "上北",
    "town_kana": "ウエキタ",
    "street": null,
    "office_name": null,
    "office_name_kana": null
  },
  "0423": {
    "postcode": "8680423",
    "prefecture": "熊本県",
    "prefecture_kana": "クマモトケン",
    "prefecture_code": 43,
    "city": "球磨郡あさぎり町",
    "city_kana": "クマグンアサギリチョウ",
    "town": "上南",
    "town_kana": "ウエミナミ",
    "street": null,
    "office_name": null,
    "office_name_kana": null
  },
  "0424": {
    "postcode": "8680424",
    "prefecture": "熊本県",
    "prefecture_kana": "クマモトケン",
    "prefecture_code": 43,
    "city": "球磨郡あさぎり町",
    "city_kana": "クマグンアサギリチョウ",
    "town": "上西",
    "town_kana": "ウエニシ",
    "street": null,
    "office_name": null,
    "office_name_kana": null
  },
  "0425": {
    "postcode": "8680425",
    "prefecture": "熊本県",
    "prefecture_kana": "クマモトケン",
    "prefecture_code": 43,
    "city": "球磨郡あさぎり町",
    "city_kana": "クマグンアサギリチョウ",
    "town": "皆越",
    "town_kana": "ミナゴエ",
    "street": null,
    "office_name": null,
    "office_name_kana": null
  },
  "0431": {
    "postcode": "8680431",
    "prefecture": "熊本県",
    "prefecture_kana": "クマモトケン",
    "prefecture_code": 43,
    "city": "球磨郡あさぎり町",
    "city_kana": "クマグンアサギリチョウ",
    "town": "岡原北",
    "town_kana": "オカハルキタ",
    "street": null,
    "office_name": null,
    "office_name_kana": null
  },
  "0432": {
    "postcode": "8680432",
    "prefecture": "熊本県",
    "prefecture_kana": "クマモトケン",
    "prefecture_code": 43,
    "city": "球磨郡あさぎり町",
    "city_kana": "クマグンアサギリチョウ",
    "town": "岡原南",
    "town_kana": "オカハルミナミ",
    "street": null,
    "office_name": null,
    "office_name_kana": null
  },
  "0441": {
    "postcode": "8680441",
    "prefecture": "熊本県",
    "prefecture_kana": "クマモトケン",
    "prefecture_code": 43,
    "city": "球磨郡あさぎり町",
    "city_kana": "クマグンアサギリチョウ",
    "town": "深田北",
    "town_kana": "フカダキタ",
    "street": null,
    "office_name": null,
    "office_name_kana": null
  },
  "0442": {
    "postcode": "8680442",
    "prefecture": "熊本県",
    "prefecture_kana": "クマモトケン",
    "prefecture_code": 43,
    "city": "球磨郡あさぎり町",
    "city_kana": "クマグンアサギリチョウ",
    "town": "深田東",
    "town_kana": "フカダヒガシ",
    "street": null,
    "office_name": null,
    "office_name_kana": null
  },
  "0443": {
    "postcode": "8680443",
    "prefecture": "熊本県",
    "prefecture_kana": "クマモトケン",
    "prefecture_code": 43,
    "city": "球磨郡あさぎり町",
    "city_kana": "クマグンアサギリチョウ",
    "town": "深田南",
    "town_kana": "フカダミナミ",
    "street": null,
    "office_name": null,
    "office_name_kana": null
  },
  "0444": {
    "postcode": "8680444",
    "prefecture": "熊本県",
    "prefecture_kana": "クマモトケン",
    "prefecture_code": 43,
    "city": "球磨郡あさぎり町",
    "city_kana": "クマグンアサギリチョウ",
    "town": "深田西",
    "town_kana": "フカダニシ",
    "street": null,
    "office_name": null,
    "office_name_kana": null
  },
  "0451": {
    "postcode": "8680451",
    "prefecture": "熊本県",
    "prefecture_kana": "クマモトケン",
    "prefecture_code": 43,
    "city": "球磨郡あさぎり町",
    "city_kana": "クマグンアサギリチョウ",
    "town": "須恵",
    "town_kana": "スエ",
    "street": null,
    "office_name": null,
    "office_name_kana": null
  },
  "0500": {
    "postcode": "8680500",
    "prefecture": "熊本県",
    "prefecture_kana": "クマモトケン",
    "prefecture_code": 43,
    "city": "球磨郡多良木町",
    "city_kana": "クマグンタラギマチ",
    "town": "",
    "town_kana": "",
    "street": null,
    "office_name": null,
    "office_name_kana": null
  },
  "0501": {
    "postcode": "8680501",
    "prefecture": "熊本県",
    "prefecture_kana": "クマモトケン",
    "prefecture_code": 43,
    "city": "球磨郡多良木町",
    "city_kana": "クマグンタラギマチ",
    "town": "多良木",
    "town_kana": "タラギ",
    "street": null,
    "office_name": null,
    "office_name_kana": null
  },
  "0502": {
    "postcode": "8680502",
    "prefecture": "熊本県",
    "prefecture_kana": "クマモトケン",
    "prefecture_code": 43,
    "city": "球磨郡多良木町",
    "city_kana": "クマグンタラギマチ",
    "town": "黒肥地",
    "town_kana": "クロヒジ",
    "street": null,
    "office_name": null,
    "office_name_kana": null
  },
  "0503": {
    "postcode": "8680503",
    "prefecture": "熊本県",
    "prefecture_kana": "クマモトケン",
    "prefecture_code": 43,
    "city": "球磨郡多良木町",
    "city_kana": "クマグンタラギマチ",
    "town": "久米",
    "town_kana": "クメ",
    "street": null,
    "office_name": null,
    "office_name_kana": null
  },
  "0504": {
    "postcode": "8680504",
    "prefecture": "熊本県",
    "prefecture_kana": "クマモトケン",
    "prefecture_code": 43,
    "city": "球磨郡多良木町",
    "city_kana": "クマグンタラギマチ",
    "town": "奥野",
    "town_kana": "オクノ",
    "street": null,
    "office_name": null,
    "office_name_kana": null
  },
  "0505": {
    "postcode": "8680505",
    "prefecture": "熊本県",
    "prefecture_kana": "クマモトケン",
    "prefecture_code": 43,
    "city": "球磨郡多良木町",
    "city_kana": "クマグンタラギマチ",
    "town": "槻木",
    "town_kana": "ツキギ",
    "street": null,
    "office_name": null,
    "office_name_kana": null
  },
  "0592": {
    "postcode": "8680592",
    "prefecture": "熊本県",
    "prefecture_kana": "クマモトケン",
    "prefecture_code": 43,
    "city": "球磨郡多良木町",
    "city_kana": "クマグンタラギマチ",
    "town": "大字多良木",
    "town_kana": null,
    "street": "１４４−１",
    "office_name": "味岡建設　株式会社",
    "office_name_kana": "アジオカケンセツ カブシキガイシヤ"
  },
  "0593": {
    "postcode": "8680593",
    "prefecture": "熊本県",
    "prefecture_kana": "クマモトケン",
    "prefecture_code": 43,
    "city": "球磨郡多良木町",
    "city_kana": "クマグンタラギマチ",
    "town": "大字奥野",
    "town_kana": null,
    "street": "８１３",
    "office_name": "合資会社　高橋酒造本店",
    "office_name_kana": "ゴウシガイシヤ タカハシシユゾウホンテン"
  },
  "0595": {
    "postcode": "8680595",
    "prefecture": "熊本県",
    "prefecture_kana": "クマモトケン",
    "prefecture_code": 43,
    "city": "球磨郡多良木町",
    "city_kana": "クマグンタラギマチ",
    "town": "大字多良木",
    "town_kana": null,
    "street": "１６４８",
    "office_name": "多良木町役場",
    "office_name_kana": "タラギマチヤクバ"
  },
  "0597": {
    "postcode": "8680597",
    "prefecture": "熊本県",
    "prefecture_kana": "クマモトケン",
    "prefecture_code": 43,
    "city": "球磨郡多良木町",
    "city_kana": "クマグンタラギマチ",
    "town": "大字多良木",
    "town_kana": null,
    "street": "２７９７",
    "office_name": "酒井物産　株式会社",
    "office_name_kana": "サカイブツサン カブシキガイシヤ"
  },
  "0598": {
    "postcode": "8680598",
    "prefecture": "熊本県",
    "prefecture_kana": "クマモトケン",
    "prefecture_code": 43,
    "city": "球磨郡多良木町",
    "city_kana": "クマグンタラギマチ",
    "town": "大字多良木",
    "town_kana": null,
    "street": "４２１０",
    "office_name": "球磨郡公立　多良木病院",
    "office_name_kana": "クマグンコウリツ タラギビヨウイン"
  },
  "0600": {
    "postcode": "8680600",
    "prefecture": "熊本県",
    "prefecture_kana": "クマモトケン",
    "prefecture_code": 43,
    "city": "球磨郡湯前町",
    "city_kana": "クマグンユノマエマチ",
    "town": "",
    "town_kana": "",
    "street": null,
    "office_name": null,
    "office_name_kana": null
  },
  "0601": {
    "postcode": "8680601",
    "prefecture": "熊本県",
    "prefecture_kana": "クマモトケン",
    "prefecture_code": 43,
    "city": "球磨郡湯前町",
    "city_kana": "クマグンユノマエマチ",
    "town": "下城",
    "town_kana": "シタジョウ",
    "street": null,
    "office_name": null,
    "office_name_kana": null
  },
  "0602": {
    "postcode": "8680602",
    "prefecture": "熊本県",
    "prefecture_kana": "クマモトケン",
    "prefecture_code": 43,
    "city": "球磨郡湯前町",
    "city_kana": "クマグンユノマエマチ",
    "town": "浜川",
    "town_kana": "ハマゴウ",
    "street": null,
    "office_name": null,
    "office_name_kana": null
  },
  "0603": {
    "postcode": "8680603",
    "prefecture": "熊本県",
    "prefecture_kana": "クマモトケン",
    "prefecture_code": 43,
    "city": "球磨郡湯前町",
    "city_kana": "クマグンユノマエマチ",
    "town": "古城",
    "town_kana": "フルジョウ",
    "street": null,
    "office_name": null,
    "office_name_kana": null
  },
  "0604": {
    "postcode": "8680604",
    "prefecture": "熊本県",
    "prefecture_kana": "クマモトケン",
    "prefecture_code": 43,
    "city": "球磨郡湯前町",
    "city_kana": "クマグンユノマエマチ",
    "town": "浅ケ野",
    "town_kana": "アサカノ",
    "street": null,
    "office_name": null,
    "office_name_kana": null
  },
  "0605": {
    "postcode": "8680605",
    "prefecture": "熊本県",
    "prefecture_kana": "クマモトケン",
    "prefecture_code": 43,
    "city": "球磨郡湯前町",
    "city_kana": "クマグンユノマエマチ",
    "town": "下染田",
    "town_kana": "シモソメダ",
    "street": null,
    "office_name": null,
    "office_name_kana": null
  },
  "0606": {
    "postcode": "8680606",
    "prefecture": "熊本県",
    "prefecture_kana": "クマモトケン",
    "prefecture_code": 43,
    "city": "球磨郡湯前町",
    "city_kana": "クマグンユノマエマチ",
    "town": "中里",
    "town_kana": "ナカザト",
    "street": null,
    "office_name": null,
    "office_name_kana": null
  },
  "0607": {
    "postcode": "8680607",
    "prefecture": "熊本県",
    "prefecture_kana": "クマモトケン",
    "prefecture_code": 43,
    "city": "球磨郡湯前町",
    "city_kana": "クマグンユノマエマチ",
    "town": "下里",
    "town_kana": "シモザト",
    "street": null,
    "office_name": null,
    "office_name_kana": null
  },
  "0611": {
    "postcode": "8680611",
    "prefecture": "熊本県",
    "prefecture_kana": "クマモトケン",
    "prefecture_code": 43,
    "city": "球磨郡湯前町",
    "city_kana": "クマグンユノマエマチ",
    "town": "植木",
    "town_kana": "ウエキ",
    "street": null,
    "office_name": null,
    "office_name_kana": null
  },
  "0612": {
    "postcode": "8680612",
    "prefecture": "熊本県",
    "prefecture_kana": "クマモトケン",
    "prefecture_code": 43,
    "city": "球磨郡湯前町",
    "city_kana": "クマグンユノマエマチ",
    "town": "上村",
    "town_kana": "カミムラ",
    "street": null,
    "office_name": null,
    "office_name_kana": null
  },
  "0613": {
    "postcode": "8680613",
    "prefecture": "熊本県",
    "prefecture_kana": "クマモトケン",
    "prefecture_code": 43,
    "city": "球磨郡湯前町",
    "city_kana": "クマグンユノマエマチ",
    "town": "田上",
    "town_kana": "タノエ",
    "street": null,
    "office_name": null,
    "office_name_kana": null
  },
  "0614": {
    "postcode": "8680614",
    "prefecture": "熊本県",
    "prefecture_kana": "クマモトケン",
    "prefecture_code": 43,
    "city": "球磨郡湯前町",
    "city_kana": "クマグンユノマエマチ",
    "town": "馬場",
    "town_kana": "ババ",
    "street": null,
    "office_name": null,
    "office_name_kana": null
  },
  "0615": {
    "postcode": "8680615",
    "prefecture": "熊本県",
    "prefecture_kana": "クマモトケン",
    "prefecture_code": 43,
    "city": "球磨郡湯前町",
    "city_kana": "クマグンユノマエマチ",
    "town": "瀬戸口",
    "town_kana": "セドクチ",
    "street": null,
    "office_name": null,
    "office_name_kana": null
  },
  "0616": {
    "postcode": "8680616",
    "prefecture": "熊本県",
    "prefecture_kana": "クマモトケン",
    "prefecture_code": 43,
    "city": "球磨郡湯前町",
    "city_kana": "クマグンユノマエマチ",
    "town": "下村",
    "town_kana": "シモムラ",
    "street": null,
    "office_name": null,
    "office_name_kana": null
  },
  "0621": {
    "postcode": "8680621",
    "prefecture": "熊本県",
    "prefecture_kana": "クマモトケン",
    "prefecture_code": 43,
    "city": "球磨郡湯前町",
    "city_kana": "クマグンユノマエマチ",
    "town": "上里",
    "town_kana": "カミザト",
    "street": null,
    "office_name": null,
    "office_name_kana": null
  },
  "0622": {
    "postcode": "8680622",
    "prefecture": "熊本県",
    "prefecture_kana": "クマモトケン",
    "prefecture_code": 43,
    "city": "球磨郡湯前町",
    "city_kana": "クマグンユノマエマチ",
    "town": "上染田",
    "town_kana": "カミソメダ",
    "street": null,
    "office_name": null,
    "office_name_kana": null
  },
  "0623": {
    "postcode": "8680623",
    "prefecture": "熊本県",
    "prefecture_kana": "クマモトケン",
    "prefecture_code": 43,
    "city": "球磨郡湯前町",
    "city_kana": "クマグンユノマエマチ",
    "town": "野中田",
    "town_kana": "ノナカダ",
    "street": null,
    "office_name": null,
    "office_name_kana": null
  },
  "0624": {
    "postcode": "8680624",
    "prefecture": "熊本県",
    "prefecture_kana": "クマモトケン",
    "prefecture_code": 43,
    "city": "球磨郡湯前町",
    "city_kana": "クマグンユノマエマチ",
    "town": "中猪",
    "town_kana": "ナカイ",
    "street": null,
    "office_name": null,
    "office_name_kana": null
  },
  "0625": {
    "postcode": "8680625",
    "prefecture": "熊本県",
    "prefecture_kana": "クマモトケン",
    "prefecture_code": 43,
    "city": "球磨郡湯前町",
    "city_kana": "クマグンユノマエマチ",
    "town": "上猪",
    "town_kana": "カミイ",
    "street": null,
    "office_name": null,
    "office_name_kana": null
  },
  "0700": {
    "postcode": "8680700",
    "prefecture": "熊本県",
    "prefecture_kana": "クマモトケン",
    "prefecture_code": 43,
    "city": "球磨郡水上村",
    "city_kana": "クマグンミズカミムラ",
    "town": "",
    "town_kana": "",
    "street": null,
    "office_name": null,
    "office_name_kana": null
  },
  "0701": {
    "postcode": "8680701",
    "prefecture": "熊本県",
    "prefecture_kana": "クマモトケン",
    "prefecture_code": 43,
    "city": "球磨郡水上村",
    "city_kana": "クマグンミズカミムラ",
    "town": "岩野",
    "town_kana": "イワノ",
    "street": null,
    "office_name": null,
    "office_name_kana": null
  },
  "0702": {
    "postcode": "8680702",
    "prefecture": "熊本県",
    "prefecture_kana": "クマモトケン",
    "prefecture_code": 43,
    "city": "球磨郡水上村",
    "city_kana": "クマグンミズカミムラ",
    "town": "江代",
    "town_kana": "エシロ",
    "street": null,
    "office_name": null,
    "office_name_kana": null
  },
  "0703": {
    "postcode": "8680703",
    "prefecture": "熊本県",
    "prefecture_kana": "クマモトケン",
    "prefecture_code": 43,
    "city": "球磨郡水上村",
    "city_kana": "クマグンミズカミムラ",
    "town": "湯山",
    "town_kana": "ユヤマ",
    "street": null,
    "office_name": null,
    "office_name_kana": null
  },
  "0795": {
    "postcode": "8680795",
    "prefecture": "熊本県",
    "prefecture_kana": "クマモトケン",
    "prefecture_code": 43,
    "city": "球磨郡水上村",
    "city_kana": "クマグンミズカミムラ",
    "town": "大字岩野",
    "town_kana": null,
    "street": "９０",
    "office_name": "水上村役場",
    "office_name_kana": "ミズカミムラヤクバ"
  },
  "0801": {
    "postcode": "8680801",
    "prefecture": "熊本県",
    "prefecture_kana": "クマモトケン",
    "prefecture_code": 43,
    "city": "人吉市",
    "city_kana": "ヒトヨシシ",
    "town": "上田代町",
    "town_kana": "カミタシロマチ",
    "street": null,
    "office_name": null,
    "office_name_kana": null
  },
  "0802": {
    "postcode": "8680802",
    "prefecture": "熊本県",
    "prefecture_kana": "クマモトケン",
    "prefecture_code": 43,
    "city": "人吉市",
    "city_kana": "ヒトヨシシ",
    "town": "下田代町",
    "town_kana": "シモタシロマチ",
    "street": null,
    "office_name": null,
    "office_name_kana": null
  },
  "0803": {
    "postcode": "8680803",
    "prefecture": "熊本県",
    "prefecture_kana": "クマモトケン",
    "prefecture_code": 43,
    "city": "人吉市",
    "city_kana": "ヒトヨシシ",
    "town": "大畑町",
    "town_kana": "オコバマチ",
    "street": null,
    "office_name": null,
    "office_name_kana": null
  },
  "0811": {
    "postcode": "8680811",
    "prefecture": "熊本県",
    "prefecture_kana": "クマモトケン",
    "prefecture_code": 43,
    "city": "人吉市",
    "city_kana": "ヒトヨシシ",
    "town": "大畑麓町",
    "town_kana": "オコバフモトマチ",
    "street": null,
    "office_name": null,
    "office_name_kana": null
  },
  "0812": {
    "postcode": "8680812",
    "prefecture": "熊本県",
    "prefecture_kana": "クマモトケン",
    "prefecture_code": 43,
    "city": "人吉市",
    "city_kana": "ヒトヨシシ",
    "town": "大野町",
    "town_kana": "オオノマチ",
    "street": null,
    "office_name": null,
    "office_name_kana": null
  },
  "0813": {
    "postcode": "8680813",
    "prefecture": "熊本県",
    "prefecture_kana": "クマモトケン",
    "prefecture_code": 43,
    "city": "人吉市",
    "city_kana": "ヒトヨシシ",
    "town": "矢岳町",
    "town_kana": "ヤタケマチ",
    "street": null,
    "office_name": null,
    "office_name_kana": null
  },
  "0821": {
    "postcode": "8680821",
    "prefecture": "熊本県",
    "prefecture_kana": "クマモトケン",
    "prefecture_code": 43,
    "city": "人吉市",
    "city_kana": "ヒトヨシシ",
    "town": "上漆田町",
    "town_kana": "カミウルシダマチ",
    "street": null,
    "office_name": null,
    "office_name_kana": null
  },
  "0822": {
    "postcode": "8680822",
    "prefecture": "熊本県",
    "prefecture_kana": "クマモトケン",
    "prefecture_code": 43,
    "city": "人吉市",
    "city_kana": "ヒトヨシシ",
    "town": "下漆田町",
    "town_kana": "シモウルシダマチ",
    "street": null,
    "office_name": null,
    "office_name_kana": null
  },
  "0823": {
    "postcode": "8680823",
    "prefecture": "熊本県",
    "prefecture_kana": "クマモトケン",
    "prefecture_code": 43,
    "city": "人吉市",
    "city_kana": "ヒトヨシシ",
    "town": "東漆田町",
    "town_kana": "ヒガシウルシダマチ",
    "street": null,
    "office_name": null,
    "office_name_kana": null
  },
  "0824": {
    "postcode": "8680824",
    "prefecture": "熊本県",
    "prefecture_kana": "クマモトケン",
    "prefecture_code": 43,
    "city": "人吉市",
    "city_kana": "ヒトヨシシ",
    "town": "赤池水無町",
    "town_kana": "アカイケミズナシマチ",
    "street": null,
    "office_name": null,
    "office_name_kana": null
  },
  "0825": {
    "postcode": "8680825",
    "prefecture": "熊本県",
    "prefecture_kana": "クマモトケン",
    "prefecture_code": 43,
    "city": "人吉市",
    "city_kana": "ヒトヨシシ",
    "town": "赤池原町",
    "town_kana": "アカイケハラマチ",
    "street": null,
    "office_name": null,
    "office_name_kana": null
  },
  "8501": {
    "postcode": "8688501",
    "prefecture": "熊本県",
    "prefecture_kana": "クマモトケン",
    "prefecture_code": 43,
    "city": "球磨郡相良村",
    "city_kana": "クマグンサガラムラ",
    "town": "大字深水",
    "town_kana": null,
    "street": "２５００−１",
    "office_name": "相良村役場",
    "office_name_kana": "サガラムラヤクバ"
  },
  "8502": {
    "postcode": "8688502",
    "prefecture": "熊本県",
    "prefecture_kana": "クマモトケン",
    "prefecture_code": 43,
    "city": "球磨郡山江村",
    "city_kana": "クマグンヤマエムラ",
    "town": "大字山田",
    "town_kana": null,
    "street": "甲１３５６−１",
    "office_name": "山江村役場",
    "office_name_kana": "ヤマエムラヤクバ"
  },
  "8503": {
    "postcode": "8688503",
    "prefecture": "熊本県",
    "prefecture_kana": "クマモトケン",
    "prefecture_code": 43,
    "city": "人吉市",
    "city_kana": "ヒトヨシシ",
    "town": "西間下町",
    "town_kana": "ニシアイダシモマチ",
    "street": "８６−１",
    "office_name": "熊本県球磨事務所",
    "office_name_kana": "クマモトケンクマジムシヨ"
  },
  "8505": {
    "postcode": "8688505",
    "prefecture": "熊本県",
    "prefecture_kana": "クマモトケン",
    "prefecture_code": 43,
    "city": "人吉市",
    "city_kana": "ヒトヨシシ",
    "town": "合ノ原町",
    "town_kana": "ゴウノハルマチ",
    "street": "４９８番地",
    "office_name": "高橋酒造　株式会社",
    "office_name_kana": "タカハシシユゾウ カブシキガイシヤ"
  },
  "8508": {
    "postcode": "8688508",
    "prefecture": "熊本県",
    "prefecture_kana": "クマモトケン",
    "prefecture_code": 43,
    "city": "人吉市",
    "city_kana": "ヒトヨシシ",
    "town": "宝来町",
    "town_kana": "ホウライマチ",
    "street": "１３４０−２",
    "office_name": "株式会社　バイオ・コーポレーション",
    "office_name_kana": "カブシキガイシヤ バイオ・コ-ポレ-シヨン"
  },
  "8511": {
    "postcode": "8688511",
    "prefecture": "熊本県",
    "prefecture_kana": "クマモトケン",
    "prefecture_code": 43,
    "city": "人吉市",
    "city_kana": "ヒトヨシシ",
    "town": "北泉田町",
    "town_kana": "キタイズミダマチ",
    "street": "３５０",
    "office_name": "熊本県立　人吉高等学校",
    "office_name_kana": "クマモトケンリツ ヒトヨシコウトウガツコウ"
  },
  "8515": {
    "postcode": "8688515",
    "prefecture": "熊本県",
    "prefecture_kana": "クマモトケン",
    "prefecture_code": 43,
    "city": "人吉市",
    "city_kana": "ヒトヨシシ",
    "town": "城本町",
    "town_kana": "シロモトマチ",
    "street": "８００",
    "office_name": "熊本県立　球磨工業高等学校",
    "office_name_kana": "クマモトケンリツ クマコウギヨウコウトウガツコウ"
  },
  "8555": {
    "postcode": "8688555",
    "prefecture": "熊本県",
    "prefecture_kana": "クマモトケン",
    "prefecture_code": 43,
    "city": "人吉市",
    "city_kana": "ヒトヨシシ",
    "town": "老神町",
    "town_kana": "オイカミマチ",
    "street": "３５",
    "office_name": "健康保険人吉総合病院",
    "office_name_kana": "ケンコウホケンヒトヨシソウゴウビヨウイン"
  },
  "8601": {
    "postcode": "8688601",
    "prefecture": "熊本県",
    "prefecture_kana": "クマモトケン",
    "prefecture_code": 43,
    "city": "人吉市",
    "city_kana": "ヒトヨシシ",
    "town": "麓町",
    "town_kana": "フモトマチ",
    "street": "１６",
    "office_name": "人吉市役所",
    "office_name_kana": "ヒトヨシシヤクシヨ"
  }
}