{
  "0000": {
    "postcode": "8720000",
    "prefecture": "大分県",
    "prefecture_kana": "オオイタケン",
    "prefecture_code": 44,
    "city": "宇佐市",
    "city_kana": "ウサシ",
    "town": "",
    "town_kana": "",
    "street": null,
    "office_name": null,
    "office_name_kana": null
  },
  "0001": {
    "postcode": "8720001",
    "prefecture": "大分県",
    "prefecture_kana": "オオイタケン",
    "prefecture_code": 44,
    "city": "宇佐市",
    "city_kana": "ウサシ",
    "town": "長洲",
    "town_kana": "ナガス",
    "street": null,
    "office_name": null,
    "office_name_kana": null
  },
  "0011": {
    "postcode": "8720011",
    "prefecture": "大分県",
    "prefecture_kana": "オオイタケン",
    "prefecture_code": 44,
    "city": "宇佐市",
    "city_kana": "ウサシ",
    "town": "岩保新田",
    "town_kana": "イワホシンデン",
    "street": null,
    "office_name": null,
    "office_name_kana": null
  },
  "0012": {
    "postcode": "8720012",
    "prefecture": "大分県",
    "prefecture_kana": "オオイタケン",
    "prefecture_code": 44,
    "city": "宇佐市",
    "city_kana": "ウサシ",
    "town": "久兵衛新田",
    "town_kana": "キュウベエシンデン",
    "street": null,
    "office_name": null,
    "office_name_kana": null
  },
  "0013": {
    "postcode": "8720013",
    "prefecture": "大分県",
    "prefecture_kana": "オオイタケン",
    "prefecture_code": 44,
    "city": "宇佐市",
    "city_kana": "ウサシ",
    "town": "北鶴田新田",
    "town_kana": "キタツルダシンデン",
    "street": null,
    "office_name": null,
    "office_name_kana": null
  },
  "0014": {
    "postcode": "8720014",
    "prefecture": "大分県",
    "prefecture_kana": "オオイタケン",
    "prefecture_code": 44,
    "city": "宇佐市",
    "city_kana": "ウサシ",
    "town": "南鶴田新田",
    "town_kana": "ミナミツルダシンデン",
    "street": null,
    "office_name": null,
    "office_name_kana": null
  },
  "0015": {
    "postcode": "8720015",
    "prefecture": "大分県",
    "prefecture_kana": "オオイタケン",
    "prefecture_code": 44,
    "city": "宇佐市",
    "city_kana": "ウサシ",
    "town": "松崎",
    "town_kana": "マツサキ",
    "street": null,
    "office_name": null,
    "office_name_kana": null
  },
  "0016": {
    "postcode": "8720016",
    "prefecture": "大分県",
    "prefecture_kana": "オオイタケン",
    "prefecture_code": 44,
    "city": "宇佐市",
    "city_kana": "ウサシ",
    "town": "佐々礼",
    "town_kana": "サザレ",
    "street": null,
    "office_name": null,
    "office_name_kana": null
  },
  "0021": {
    "postcode": "8720021",
    "prefecture": "大分県",
    "prefecture_kana": "オオイタケン",
    "prefecture_code": 44,
    "city": "宇佐市",
    "city_kana": "ウサシ",
    "town": "金屋",
    "town_kana": "カナヤ",
    "street": null,
    "office_name": null,
    "office_name_kana": null
  },
  "0022": {
    "postcode": "8720022",
    "prefecture": "大分県",
    "prefecture_kana": "オオイタケン",
    "prefecture_code": 44,
    "city": "宇佐市",
    "city_kana": "ウサシ",
    "town": "西大堀",
    "town_kana": "ニシオオボリ",
    "street": null,
    "office_name": null,
    "office_name_kana": null
  },
  "0023": {
    "postcode": "8720023",
    "prefecture": "大分県",
    "prefecture_kana": "オオイタケン",
    "prefecture_code": 44,
    "city": "宇佐市",
    "city_kana": "ウサシ",
    "town": "蜷木",
    "town_kana": "ニナギ",
    "street": null,
    "office_name": null,
    "office_name_kana": null
  },
  "0031": {
    "postcode": "8720031",
    "prefecture": "大分県",
    "prefecture_kana": "オオイタケン",
    "prefecture_code": 44,
    "city": "宇佐市",
    "city_kana": "ウサシ",
    "town": "沖須町",
    "town_kana": "オキスマチ",
    "street": null,
    "office_name": null,
    "office_name_kana": null
  },
  "0032": {
    "postcode": "8720032",
    "prefecture": "大分県",
    "prefecture_kana": "オオイタケン",
    "prefecture_code": 44,
    "city": "宇佐市",
    "city_kana": "ウサシ",
    "town": "江須賀",
    "town_kana": "エスカ",
    "street": null,
    "office_name": null,
    "office_name_kana": null
  },
  "0033": {
    "postcode": "8720033",
    "prefecture": "大分県",
    "prefecture_kana": "オオイタケン",
    "prefecture_code": 44,
    "city": "宇佐市",
    "city_kana": "ウサシ",
    "town": "住吉町",
    "town_kana": "スミヨシマチ",
    "street": null,
    "office_name": null,
    "office_name_kana": null
  },
  "0041": {
    "postcode": "8720041",
    "prefecture": "大分県",
    "prefecture_kana": "オオイタケン",
    "prefecture_code": 44,
    "city": "宇佐市",
    "city_kana": "ウサシ",
    "town": "神子山新田",
    "town_kana": "ミコヤマシンデン",
    "street": null,
    "office_name": null,
    "office_name_kana": null
  },
  "0042": {
    "postcode": "8720042",
    "prefecture": "大分県",
    "prefecture_kana": "オオイタケン",
    "prefecture_code": 44,
    "city": "宇佐市",
    "city_kana": "ウサシ",
    "town": "貴船町",
    "town_kana": "キフネマチ",
    "street": null,
    "office_name": null,
    "office_name_kana": null
  },
  "0043": {
    "postcode": "8720043",
    "prefecture": "大分県",
    "prefecture_kana": "オオイタケン",
    "prefecture_code": 44,
    "city": "宇佐市",
    "city_kana": "ウサシ",
    "town": "子安町",
    "town_kana": "コヤスマチ",
    "street": null,
    "office_name": null,
    "office_name_kana": null
  },
  "0044": {
    "postcode": "8720044",
    "prefecture": "大分県",
    "prefecture_kana": "オオイタケン",
    "prefecture_code": 44,
    "city": "宇佐市",
    "city_kana": "ウサシ",
    "town": "住江",
    "town_kana": "スミエ",
    "street": null,
    "office_name": null,
    "office_name_kana": null
  },
  "0045": {
    "postcode": "8720045",
    "prefecture": "大分県",
    "prefecture_kana": "オオイタケン",
    "prefecture_code": 44,
    "city": "宇佐市",
    "city_kana": "ウサシ",
    "town": "郡中新田",
    "town_kana": "グンチュウシンデン",
    "street": null,
    "office_name": null,
    "office_name_kana": null
  },
  "0046": {
    "postcode": "8720046",
    "prefecture": "大分県",
    "prefecture_kana": "オオイタケン",
    "prefecture_code": 44,
    "city": "宇佐市",
    "city_kana": "ウサシ",
    "town": "高砂新田",
    "town_kana": "タカサゴシンデン",
    "street": null,
    "office_name": null,
    "office_name_kana": null
  },
  "0047": {
    "postcode": "8720047",
    "prefecture": "大分県",
    "prefecture_kana": "オオイタケン",
    "prefecture_code": 44,
    "city": "宇佐市",
    "city_kana": "ウサシ",
    "town": "順風新田",
    "town_kana": "ジュンプウシンデン",
    "street": null,
    "office_name": null,
    "office_name_kana": null
  },
  "0101": {
    "postcode": "8720101",
    "prefecture": "大分県",
    "prefecture_kana": "オオイタケン",
    "prefecture_code": 44,
    "city": "宇佐市",
    "city_kana": "ウサシ",
    "town": "高森",
    "town_kana": "タカモリ",
    "street": null,
    "office_name": null,
    "office_name_kana": null
  },
  "0102": {
    "postcode": "8720102",
    "prefecture": "大分県",
    "prefecture_kana": "オオイタケン",
    "prefecture_code": 44,
    "city": "宇佐市",
    "city_kana": "ウサシ",
    "town": "南宇佐",
    "town_kana": "ミナミウサ",
    "street": null,
    "office_name": null,
    "office_name_kana": null
  },
  "0103": {
    "postcode": "8720103",
    "prefecture": "大分県",
    "prefecture_kana": "オオイタケン",
    "prefecture_code": 44,
    "city": "宇佐市",
    "city_kana": "ウサシ",
    "town": "北宇佐",
    "town_kana": "キタウサ",
    "street": null,
    "office_name": null,
    "office_name_kana": null
  },
  "0104": {
    "postcode": "8720104",
    "prefecture": "大分県",
    "prefecture_kana": "オオイタケン",
    "prefecture_code": 44,
    "city": "宇佐市",
    "city_kana": "ウサシ",
    "town": "小向野",
    "town_kana": "コムクノ",
    "street": null,
    "office_name": null,
    "office_name_kana": null
  },
  "0111": {
    "postcode": "8720111",
    "prefecture": "大分県",
    "prefecture_kana": "オオイタケン",
    "prefecture_code": 44,
    "city": "宇佐市",
    "city_kana": "ウサシ",
    "town": "下矢部",
    "town_kana": "シモヤベ",
    "street": null,
    "office_name": null,
    "office_name_kana": null
  },
  "0112": {
    "postcode": "8720112",
    "prefecture": "大分県",
    "prefecture_kana": "オオイタケン",
    "prefecture_code": 44,
    "city": "宇佐市",
    "city_kana": "ウサシ",
    "town": "上矢部",
    "town_kana": "カミヤベ",
    "street": null,
    "office_name": null,
    "office_name_kana": null
  },
  "0113": {
    "postcode": "8720113",
    "prefecture": "大分県",
    "prefecture_kana": "オオイタケン",
    "prefecture_code": 44,
    "city": "宇佐市",
    "city_kana": "ウサシ",
    "town": "正覚寺",
    "town_kana": "ショウガクジ",
    "street": null,
    "office_name": null,
    "office_name_kana": null
  },
  "0114": {
    "postcode": "8720114",
    "prefecture": "大分県",
    "prefecture_kana": "オオイタケン",
    "prefecture_code": 44,
    "city": "宇佐市",
    "city_kana": "ウサシ",
    "town": "熊",
    "town_kana": "クマ",
    "street": null,
    "office_name": null,
    "office_name_kana": null
  },
  "0301": {
    "postcode": "8720301",
    "prefecture": "大分県",
    "prefecture_kana": "オオイタケン",
    "prefecture_code": 44,
    "city": "宇佐市",
    "city_kana": "ウサシ",
    "town": "院内町御沓",
    "town_kana": "インナイマチミクツ",
    "street": null,
    "office_name": null,
    "office_name_kana": null
  },
  "0302": {
    "postcode": "8720302",
    "prefecture": "大分県",
    "prefecture_kana": "オオイタケン",
    "prefecture_code": 44,
    "city": "宇佐市",
    "city_kana": "ウサシ",
    "town": "院内町二日市",
    "town_kana": "インナイマチフツカイチ",
    "street": null,
    "office_name": null,
    "office_name_kana": null
  },
  "0311": {
    "postcode": "8720311",
    "prefecture": "大分県",
    "prefecture_kana": "オオイタケン",
    "prefecture_code": 44,
    "city": "宇佐市",
    "city_kana": "ウサシ",
    "town": "院内町香下",
    "town_kana": "インナイマチコウシタ",
    "street": null,
    "office_name": null,
    "office_name_kana": null
  },
  "0312": {
    "postcode": "8720312",
    "prefecture": "大分県",
    "prefecture_kana": "オオイタケン",
    "prefecture_code": 44,
    "city": "宇佐市",
    "city_kana": "ウサシ",
    "town": "院内町櫛野",
    "town_kana": "インナイマチクシノ",
    "street": null,
    "office_name": null,
    "office_name_kana": null
  },
  "0313": {
    "postcode": "8720313",
    "prefecture": "大分県",
    "prefecture_kana": "オオイタケン",
    "prefecture_code": 44,
    "city": "宇佐市",
    "city_kana": "ウサシ",
    "town": "院内町新洞",
    "town_kana": "インナイマチシンドウ",
    "street": null,
    "office_name": null,
    "office_name_kana": null
  },
  "0314": {
    "postcode": "8720314",
    "prefecture": "大分県",
    "prefecture_kana": "オオイタケン",
    "prefecture_code": 44,
    "city": "宇佐市",
    "city_kana": "ウサシ",
    "town": "院内町沖",
    "town_kana": "インナイマチオキ",
    "street": null,
    "office_name": null,
    "office_name_kana": null
  },
  "0315": {
    "postcode": "8720315",
    "prefecture": "大分県",
    "prefecture_kana": "オオイタケン",
    "prefecture_code": 44,
    "city": "宇佐市",
    "city_kana": "ウサシ",
    "town": "院内町北山",
    "town_kana": "インナイマチキタヤマ",
    "street": null,
    "office_name": null,
    "office_name_kana": null
  },
  "0316": {
    "postcode": "8720316",
    "prefecture": "大分県",
    "prefecture_kana": "オオイタケン",
    "prefecture_code": 44,
    "city": "宇佐市",
    "city_kana": "ウサシ",
    "town": "院内町小坂",
    "town_kana": "インナイマチオサカ",
    "street": null,
    "office_name": null,
    "office_name_kana": null
  },
  "0317": {
    "postcode": "8720317",
    "prefecture": "大分県",
    "prefecture_kana": "オオイタケン",
    "prefecture_code": 44,
    "city": "宇佐市",
    "city_kana": "ウサシ",
    "town": "院内町広瀬",
    "town_kana": "インナイマチヒロセ",
    "street": null,
    "office_name": null,
    "office_name_kana": null
  },
  "0318": {
    "postcode": "8720318",
    "prefecture": "大分県",
    "prefecture_kana": "オオイタケン",
    "prefecture_code": 44,
    "city": "宇佐市",
    "city_kana": "ウサシ",
    "town": "院内町副",
    "town_kana": "インナイマチソイ",
    "street": null,
    "office_name": null,
    "office_name_kana": null
  },
  "0321": {
    "postcode": "8720321",
    "prefecture": "大分県",
    "prefecture_kana": "オオイタケン",
    "prefecture_code": 44,
    "city": "宇佐市",
    "city_kana": "ウサシ",
    "town": "院内町五名",
    "town_kana": "インナイマチゴミョウ",
    "street": null,
    "office_name": null,
    "office_name_kana": null
  },
  "0322": {
    "postcode": "8720322",
    "prefecture": "大分県",
    "prefecture_kana": "オオイタケン",
    "prefecture_code": 44,
    "city": "宇佐市",
    "city_kana": "ウサシ",
    "town": "院内町日岳",
    "town_kana": "インナイマチヒノタケ",
    "street": null,
    "office_name": null,
    "office_name_kana": null
  },
  "0323": {
    "postcode": "8720323",
    "prefecture": "大分県",
    "prefecture_kana": "オオイタケン",
    "prefecture_code": 44,
    "city": "宇佐市",
    "city_kana": "ウサシ",
    "town": "院内町大重見",
    "town_kana": "インナイマチオオシゲミ",
    "street": null,
    "office_name": null,
    "office_name_kana": null
  },
  "0324": {
    "postcode": "8720324",
    "prefecture": "大分県",
    "prefecture_kana": "オオイタケン",
    "prefecture_code": 44,
    "city": "宇佐市",
    "city_kana": "ウサシ",
    "town": "院内町小野川内",
    "town_kana": "インナイマチオノゴウチ",
    "street": null,
    "office_name": null,
    "office_name_kana": null
  },
  "0325": {
    "postcode": "8720325",
    "prefecture": "大分県",
    "prefecture_kana": "オオイタケン",
    "prefecture_code": 44,
    "city": "宇佐市",
    "city_kana": "ウサシ",
    "town": "院内町小稲",
    "town_kana": "インナイマチコイネ",
    "street": null,
    "office_name": null,
    "office_name_kana": null
  },
  "0326": {
    "postcode": "8720326",
    "prefecture": "大分県",
    "prefecture_kana": "オオイタケン",
    "prefecture_code": 44,
    "city": "宇佐市",
    "city_kana": "ウサシ",
    "town": "院内町上船木",
    "town_kana": "インナイマチカミフナギ",
    "street": null,
    "office_name": null,
    "office_name_kana": null
  },
  "0327": {
    "postcode": "8720327",
    "prefecture": "大分県",
    "prefecture_kana": "オオイタケン",
    "prefecture_code": 44,
    "city": "宇佐市",
    "city_kana": "ウサシ",
    "town": "院内町下船木",
    "town_kana": "インナイマチシモフナギ",
    "street": null,
    "office_name": null,
    "office_name_kana": null
  },
  "0328": {
    "postcode": "8720328",
    "prefecture": "大分県",
    "prefecture_kana": "オオイタケン",
    "prefecture_code": 44,
    "city": "宇佐市",
    "city_kana": "ウサシ",
    "town": "院内町高並",
    "town_kana": "インナイマチタカナミ",
    "street": null,
    "office_name": null,
    "office_name_kana": null
  },
  "0331": {
    "postcode": "8720331",
    "prefecture": "大分県",
    "prefecture_kana": "オオイタケン",
    "prefecture_code": 44,
    "city": "宇佐市",
    "city_kana": "ウサシ",
    "town": "院内町大副",
    "town_kana": "インナイマチオオソイ",
    "street": null,
    "office_name": null,
    "office_name_kana": null
  },
  "0332": {
    "postcode": "8720332",
    "prefecture": "大分県",
    "prefecture_kana": "オオイタケン",
    "prefecture_code": 44,
    "city": "宇佐市",
    "city_kana": "ウサシ",
    "town": "院内町山城",
    "town_kana": "インナイマチヤマシロ",
    "street": null,
    "office_name": null,
    "office_name_kana": null
  },
  "0333": {
    "postcode": "8720333",
    "prefecture": "大分県",
    "prefecture_kana": "オオイタケン",
    "prefecture_code": 44,
    "city": "宇佐市",
    "city_kana": "ウサシ",
    "town": "院内町原口",
    "town_kana": "インナイマチハルグチ",
    "street": null,
    "office_name": null,
    "office_name_kana": null
  },
  "0334": {
    "postcode": "8720334",
    "prefecture": "大分県",
    "prefecture_kana": "オオイタケン",
    "prefecture_code": 44,
    "city": "宇佐市",
    "city_kana": "ウサシ",
    "town": "院内町落狩倉",
    "town_kana": "インナイマチオチカクラ",
    "street": null,
    "office_name": null,
    "office_name_kana": null
  },
  "0341": {
    "postcode": "8720341",
    "prefecture": "大分県",
    "prefecture_kana": "オオイタケン",
    "prefecture_code": 44,
    "city": "宇佐市",
    "city_kana": "ウサシ",
    "town": "院内町斎藤",
    "town_kana": "インナイマチサイトウ",
    "street": null,
    "office_name": null,
    "office_name_kana": null
  },
  "0342": {
    "postcode": "8720342",
    "prefecture": "大分県",
    "prefecture_kana": "オオイタケン",
    "prefecture_code": 44,
    "city": "宇佐市",
    "city_kana": "ウサシ",
    "town": "院内町景平",
    "town_kana": "インナイマチカゲヘラ",
    "street": null,
    "office_name": null,
    "office_name_kana": null
  },
  "0343": {
    "postcode": "8720343",
    "prefecture": "大分県",
    "prefecture_kana": "オオイタケン",
    "prefecture_code": 44,
    "city": "宇佐市",
    "city_kana": "ウサシ",
    "town": "院内町宮原",
    "town_kana": "インナイマチミヤバル",
    "street": null,
    "office_name": null,
    "office_name_kana": null
  },
  "0344": {
    "postcode": "8720344",
    "prefecture": "大分県",
    "prefecture_kana": "オオイタケン",
    "prefecture_code": 44,
    "city": "宇佐市",
    "city_kana": "ウサシ",
    "town": "院内町大門",
    "town_kana": "インナイマチダイモン",
    "street": null,
    "office_name": null,
    "office_name_kana": null
  },
  "0345": {
    "postcode": "8720345",
    "prefecture": "大分県",
    "prefecture_kana": "オオイタケン",
    "prefecture_code": 44,
    "city": "宇佐市",
    "city_kana": "ウサシ",
    "town": "院内町月俣",
    "town_kana": "インナイマチツキノマタ",
    "street": null,
    "office_name": null,
    "office_name_kana": null
  },
  "0346": {
    "postcode": "8720346",
    "prefecture": "大分県",
    "prefecture_kana": "オオイタケン",
    "prefecture_code": 44,
    "city": "宇佐市",
    "city_kana": "ウサシ",
    "town": "院内町定別当",
    "town_kana": "インナイマチジョウベットウ",
    "street": null,
    "office_name": null,
    "office_name_kana": null
  },
  "0366": [
    {
      "postcode": "8720366",
      "prefecture": "大分県",
      "prefecture_kana": "オオイタケン",
      "prefecture_code": 44,
      "city": "宇佐市",
      "city_kana": "ウサシ",
      "town": "上拝田",
      "town_kana": "カミハイタ",
      "street": null,
      "office_name": null,
      "office_name_kana": null
    },
    {
      "postcode": "8720366",
      "prefecture": "大分県",
      "prefecture_kana": "オオイタケン",
      "prefecture_code": 44,
      "city": "宇佐市",
      "city_kana": "ウサシ",
      "town": "上拝田新洞",
      "town_kana": "カミハイタシンドウ",
      "street": null,
      "office_name": null,
      "office_name_kana": null
    }
  ],
  "0451": {
    "postcode": "8720451",
    "prefecture": "大分県",
    "prefecture_kana": "オオイタケン",
    "prefecture_code": 44,
    "city": "宇佐市",
    "city_kana": "ウサシ",
    "town": "院内町下余",
    "town_kana": "インナイマチシモアマリ",
    "street": null,
    "office_name": null,
    "office_name_kana": null
  },
  "0452": {
    "postcode": "8720452",
    "prefecture": "大分県",
    "prefecture_kana": "オオイタケン",
    "prefecture_code": 44,
    "city": "宇佐市",
    "city_kana": "ウサシ",
    "town": "院内町上納持",
    "town_kana": "インナイマチカミノウジ",
    "street": null,
    "office_name": null,
    "office_name_kana": null
  },
  "0453": {
    "postcode": "8720453",
    "prefecture": "大分県",
    "prefecture_kana": "オオイタケン",
    "prefecture_code": 44,
    "city": "宇佐市",
    "city_kana": "ウサシ",
    "town": "院内町平原",
    "town_kana": "インナイマチヒラバル",
    "street": null,
    "office_name": null,
    "office_name_kana": null
  },
  "0454": {
    "postcode": "8720454",
    "prefecture": "大分県",
    "prefecture_kana": "オオイタケン",
    "prefecture_code": 44,
    "city": "宇佐市",
    "city_kana": "ウサシ",
    "town": "院内町滝貞",
    "town_kana": "インナイマチタキサダ",
    "street": null,
    "office_name": null,
    "office_name_kana": null
  },
  "0455": {
    "postcode": "8720455",
    "prefecture": "大分県",
    "prefecture_kana": "オオイタケン",
    "prefecture_code": 44,
    "city": "宇佐市",
    "city_kana": "ウサシ",
    "town": "院内町小平",
    "town_kana": "インナイマチコビラ",
    "street": null,
    "office_name": null,
    "office_name_kana": null
  },
  "0456": {
    "postcode": "8720456",
    "prefecture": "大分県",
    "prefecture_kana": "オオイタケン",
    "prefecture_code": 44,
    "city": "宇佐市",
    "city_kana": "ウサシ",
    "town": "院内町栗山",
    "town_kana": "インナイマチクリヤマ",
    "street": null,
    "office_name": null,
    "office_name_kana": null
  },
  "0457": {
    "postcode": "8720457",
    "prefecture": "大分県",
    "prefecture_kana": "オオイタケン",
    "prefecture_code": 44,
    "city": "宇佐市",
    "city_kana": "ウサシ",
    "town": "院内町岡",
    "town_kana": "インナイマチオカ",
    "street": null,
    "office_name": null,
    "office_name_kana": null
  },
  "0458": {
    "postcode": "8720458",
    "prefecture": "大分県",
    "prefecture_kana": "オオイタケン",
    "prefecture_code": 44,
    "city": "宇佐市",
    "city_kana": "ウサシ",
    "town": "院内町大坪",
    "town_kana": "インナイマチオオツボ",
    "street": null,
    "office_name": null,
    "office_name_kana": null
  },
  "0459": {
    "postcode": "8720459",
    "prefecture": "大分県",
    "prefecture_kana": "オオイタケン",
    "prefecture_code": 44,
    "city": "宇佐市",
    "city_kana": "ウサシ",
    "town": "院内町上余",
    "town_kana": "インナイマチカミアマリ",
    "street": null,
    "office_name": null,
    "office_name_kana": null
  },
  "0461": {
    "postcode": "8720461",
    "prefecture": "大分県",
    "prefecture_kana": "オオイタケン",
    "prefecture_code": 44,
    "city": "宇佐市",
    "city_kana": "ウサシ",
    "town": "院内町台",
    "town_kana": "インナイマチダイ",
    "street": null,
    "office_name": null,
    "office_name_kana": null
  },
  "0462": {
    "postcode": "8720462",
    "prefecture": "大分県",
    "prefecture_kana": "オオイタケン",
    "prefecture_code": 44,
    "city": "宇佐市",
    "city_kana": "ウサシ",
    "town": "院内町羽馬礼",
    "town_kana": "インナイマチハバレ",
    "street": null,
    "office_name": null,
    "office_name_kana": null
  },
  "0463": {
    "postcode": "8720463",
    "prefecture": "大分県",
    "prefecture_kana": "オオイタケン",
    "prefecture_code": 44,
    "city": "宇佐市",
    "city_kana": "ウサシ",
    "town": "院内町和田",
    "town_kana": "インナイマチワダ",
    "street": null,
    "office_name": null,
    "office_name_kana": null
  },
  "0464": {
    "postcode": "8720464",
    "prefecture": "大分県",
    "prefecture_kana": "オオイタケン",
    "prefecture_code": 44,
    "city": "宇佐市",
    "city_kana": "ウサシ",
    "town": "院内町西椎屋",
    "town_kana": "インナイマチニシシイヤ",
    "street": null,
    "office_name": null,
    "office_name_kana": null
  },
  "0465": {
    "postcode": "8720465",
    "prefecture": "大分県",
    "prefecture_kana": "オオイタケン",
    "prefecture_code": 44,
    "city": "宇佐市",
    "city_kana": "ウサシ",
    "town": "院内町田平",
    "town_kana": "インナイマチタビラ",
    "street": null,
    "office_name": null,
    "office_name_kana": null
  },
  "0466": {
    "postcode": "8720466",
    "prefecture": "大分県",
    "prefecture_kana": "オオイタケン",
    "prefecture_code": 44,
    "city": "宇佐市",
    "city_kana": "ウサシ",
    "town": "院内町来鉢",
    "town_kana": "インナイマチクバチ",
    "street": null,
    "office_name": null,
    "office_name_kana": null
  },
  "0471": {
    "postcode": "8720471",
    "prefecture": "大分県",
    "prefecture_kana": "オオイタケン",
    "prefecture_code": 44,
    "city": "宇佐市",
    "city_kana": "ウサシ",
    "town": "院内町温見",
    "town_kana": "インナイマチヌクミ",
    "street": null,
    "office_name": null,
    "office_name_kana": null
  },
  "0472": {
    "postcode": "8720472",
    "prefecture": "大分県",
    "prefecture_kana": "オオイタケン",
    "prefecture_code": 44,
    "city": "宇佐市",
    "city_kana": "ウサシ",
    "town": "院内町野地",
    "town_kana": "インナイマチノジ",
    "street": null,
    "office_name": null,
    "office_name_kana": null
  },
  "0473": {
    "postcode": "8720473",
    "prefecture": "大分県",
    "prefecture_kana": "オオイタケン",
    "prefecture_code": 44,
    "city": "宇佐市",
    "city_kana": "ウサシ",
    "town": "院内町田所",
    "town_kana": "インナイマチタドコロ",
    "street": null,
    "office_name": null,
    "office_name_kana": null
  },
  "0481": {
    "postcode": "8720481",
    "prefecture": "大分県",
    "prefecture_kana": "オオイタケン",
    "prefecture_code": 44,
    "city": "宇佐市",
    "city_kana": "ウサシ",
    "town": "院内町下恵良",
    "town_kana": "インナイマチシモエラ",
    "street": null,
    "office_name": null,
    "office_name_kana": null
  },
  "0482": {
    "postcode": "8720482",
    "prefecture": "大分県",
    "prefecture_kana": "オオイタケン",
    "prefecture_code": 44,
    "city": "宇佐市",
    "city_kana": "ウサシ",
    "town": "院内町荻迫",
    "town_kana": "インナイマチオギサコ",
    "street": null,
    "office_name": null,
    "office_name_kana": null
  },
  "0483": {
    "postcode": "8720483",
    "prefecture": "大分県",
    "prefecture_kana": "オオイタケン",
    "prefecture_code": 44,
    "city": "宇佐市",
    "city_kana": "ウサシ",
    "town": "院内町土岩屋",
    "town_kana": "インナイマチツチイワヤ",
    "street": null,
    "office_name": null,
    "office_name_kana": null
  },
  "0484": {
    "postcode": "8720484",
    "prefecture": "大分県",
    "prefecture_kana": "オオイタケン",
    "prefecture_code": 44,
    "city": "宇佐市",
    "city_kana": "ウサシ",
    "town": "院内町上恵良",
    "town_kana": "インナイマチカミエラ",
    "street": null,
    "office_name": null,
    "office_name_kana": null
  },
  "0501": {
    "postcode": "8720501",
    "prefecture": "大分県",
    "prefecture_kana": "オオイタケン",
    "prefecture_code": 44,
    "city": "宇佐市",
    "city_kana": "ウサシ",
    "town": "安心院町原",
    "town_kana": "アジムマチハル",
    "street": null,
    "office_name": null,
    "office_name_kana": null
  },
  "0502": {
    "postcode": "8720502",
    "prefecture": "大分県",
    "prefecture_kana": "オオイタケン",
    "prefecture_code": 44,
    "city": "宇佐市",
    "city_kana": "ウサシ",
    "town": "安心院町飯田",
    "town_kana": "アジムマチハンダ",
    "street": null,
    "office_name": null,
    "office_name_kana": null
  },
  "0503": {
    "postcode": "8720503",
    "prefecture": "大分県",
    "prefecture_kana": "オオイタケン",
    "prefecture_code": 44,
    "city": "宇佐市",
    "city_kana": "ウサシ",
    "town": "安心院町新原",
    "town_kana": "アジムマチニイバル",
    "street": null,
    "office_name": null,
    "office_name_kana": null
  },
  "0504": {
    "postcode": "8720504",
    "prefecture": "大分県",
    "prefecture_kana": "オオイタケン",
    "prefecture_code": 44,
    "city": "宇佐市",
    "city_kana": "ウサシ",
    "town": "安心院町荘",
    "town_kana": "アジムマチショウ",
    "street": null,
    "office_name": null,
    "office_name_kana": null
  },
  "0505": {
    "postcode": "8720505",
    "prefecture": "大分県",
    "prefecture_kana": "オオイタケン",
    "prefecture_code": 44,
    "city": "宇佐市",
    "city_kana": "ウサシ",
    "town": "安心院町戸方",
    "town_kana": "アジムマチトカタ",
    "street": null,
    "office_name": null,
    "office_name_kana": null
  },
  "0506": {
    "postcode": "8720506",
    "prefecture": "大分県",
    "prefecture_kana": "オオイタケン",
    "prefecture_code": 44,
    "city": "宇佐市",
    "city_kana": "ウサシ",
    "town": "安心院町妻垣",
    "town_kana": "アジムマチツマガケ",
    "street": null,
    "office_name": null,
    "office_name_kana": null
  },
  "0507": {
    "postcode": "8720507",
    "prefecture": "大分県",
    "prefecture_kana": "オオイタケン",
    "prefecture_code": 44,
    "city": "宇佐市",
    "city_kana": "ウサシ",
    "town": "安心院町木裳",
    "town_kana": "アジムマチキノモ",
    "street": null,
    "office_name": null,
    "office_name_kana": null
  },
  "0510": {
    "postcode": "8720510",
    "prefecture": "大分県",
    "prefecture_kana": "オオイタケン",
    "prefecture_code": 44,
    "city": "宇佐市",
    "city_kana": "ウサシ",
    "town": "安心院町有徳原",
    "town_kana": "アジムマチウットクバル",
    "street": null,
    "office_name": null,
    "office_name_kana": null
  },
  "0511": {
    "postcode": "8720511",
    "prefecture": "大分県",
    "prefecture_kana": "オオイタケン",
    "prefecture_code": 44,
    "city": "宇佐市",
    "city_kana": "ウサシ",
    "town": "安心院町上市",
    "town_kana": "アジムマチカミイチ",
    "street": null,
    "office_name": null,
    "office_name_kana": null
  },
  "0512": {
    "postcode": "8720512",
    "prefecture": "大分県",
    "prefecture_kana": "オオイタケン",
    "prefecture_code": 44,
    "city": "宇佐市",
    "city_kana": "ウサシ",
    "town": "安心院町古市",
    "town_kana": "アジムマチフルイチ",
    "street": null,
    "office_name": null,
    "office_name_kana": null
  },
  "0513": {
    "postcode": "8720513",
    "prefecture": "大分県",
    "prefecture_kana": "オオイタケン",
    "prefecture_code": 44,
    "city": "宇佐市",
    "city_kana": "ウサシ",
    "town": "安心院町龍王",
    "town_kana": "アジムマチリュウオウ",
    "street": null,
    "office_name": null,
    "office_name_kana": null
  },
  "0514": {
    "postcode": "8720514",
    "prefecture": "大分県",
    "prefecture_kana": "オオイタケン",
    "prefecture_code": 44,
    "city": "宇佐市",
    "city_kana": "ウサシ",
    "town": "安心院町鳥越",
    "town_kana": "アジムマチトリゴエ",
    "street": null,
    "office_name": null,
    "office_name_kana": null
  },
  "0515": {
    "postcode": "8720515",
    "prefecture": "大分県",
    "prefecture_kana": "オオイタケン",
    "prefecture_code": 44,
    "city": "宇佐市",
    "city_kana": "ウサシ",
    "town": "安心院町野山",
    "town_kana": "アジムマチノヤマ",
    "street": null,
    "office_name": null,
    "office_name_kana": null
  },
  "0516": {
    "postcode": "8720516",
    "prefecture": "大分県",
    "prefecture_kana": "オオイタケン",
    "prefecture_code": 44,
    "city": "宇佐市",
    "city_kana": "ウサシ",
    "town": "安心院町森",
    "town_kana": "アジムマチモリ",
    "street": null,
    "office_name": null,
    "office_name_kana": null
  },
  "0517": {
    "postcode": "8720517",
    "prefecture": "大分県",
    "prefecture_kana": "オオイタケン",
    "prefecture_code": 44,
    "city": "宇佐市",
    "city_kana": "ウサシ",
    "town": "安心院町大",
    "town_kana": "アジムマチダイ",
    "street": null,
    "office_name": null,
    "office_name_kana": null
  },
  "0518": {
    "postcode": "8720518",
    "prefecture": "大分県",
    "prefecture_kana": "オオイタケン",
    "prefecture_code": 44,
    "city": "宇佐市",
    "city_kana": "ウサシ",
    "town": "安心院町今井",
    "town_kana": "アジムマチイマイ",
    "street": null,
    "office_name": null,
    "office_name_kana": null
  },
  "0519": {
    "postcode": "8720519",
    "prefecture": "大分県",
    "prefecture_kana": "オオイタケン",
    "prefecture_code": 44,
    "city": "宇佐市",
    "city_kana": "ウサシ",
    "town": "安心院町西衲",
    "town_kana": "アジムマチニシノト",
    "street": null,
    "office_name": null,
    "office_name_kana": null
  },
  "0521": {
    "postcode": "8720521",
    "prefecture": "大分県",
    "prefecture_kana": "オオイタケン",
    "prefecture_code": 44,
    "city": "宇佐市",
    "city_kana": "ウサシ",
    "town": "安心院町下毛",
    "town_kana": "アジムマチシモゲ",
    "street": null,
    "office_name": null,
    "office_name_kana": null
  },
  "0522": {
    "postcode": "8720522",
    "prefecture": "大分県",
    "prefecture_kana": "オオイタケン",
    "prefecture_code": 44,
    "city": "宇佐市",
    "city_kana": "ウサシ",
    "town": "安心院町折敷田",
    "town_kana": "アジムマチオシキダ",
    "street": null,
    "office_name": null,
    "office_name_kana": null
  },
  "0523": {
    "postcode": "8720523",
    "prefecture": "大分県",
    "prefecture_kana": "オオイタケン",
    "prefecture_code": 44,
    "city": "宇佐市",
    "city_kana": "ウサシ",
    "town": "安心院町大佛",
    "town_kana": "アジムマチダイブツ",
    "street": null,
    "office_name": null,
    "office_name_kana": null
  },
  "0524": {
    "postcode": "8720524",
    "prefecture": "大分県",
    "prefecture_kana": "オオイタケン",
    "prefecture_code": 44,
    "city": "宇佐市",
    "city_kana": "ウサシ",
    "town": "安心院町恒松",
    "town_kana": "アジムマチツネマツ",
    "street": null,
    "office_name": null,
    "office_name_kana": null
  },
  "0525": {
    "postcode": "8720525",
    "prefecture": "大分県",
    "prefecture_kana": "オオイタケン",
    "prefecture_code": 44,
    "city": "宇佐市",
    "city_kana": "ウサシ",
    "town": "安心院町中山",
    "town_kana": "アジムマチナカヤマ",
    "street": null,
    "office_name": null,
    "office_name_kana": null
  },
  "0526": {
    "postcode": "8720526",
    "prefecture": "大分県",
    "prefecture_kana": "オオイタケン",
    "prefecture_code": 44,
    "city": "宇佐市",
    "city_kana": "ウサシ",
    "town": "安心院町田ノ口",
    "town_kana": "アジムマチタノクチ",
    "street": null,
    "office_name": null,
    "office_name_kana": null
  },
  "0527": {
    "postcode": "8720527",
    "prefecture": "大分県",
    "prefecture_kana": "オオイタケン",
    "prefecture_code": 44,
    "city": "宇佐市",
    "city_kana": "ウサシ",
    "town": "安心院町辻",
    "town_kana": "アジムマチツジ",
    "street": null,
    "office_name": null,
    "office_name_kana": null
  },
  "0541": {
    "postcode": "8720541",
    "prefecture": "大分県",
    "prefecture_kana": "オオイタケン",
    "prefecture_code": 44,
    "city": "宇佐市",
    "city_kana": "ウサシ",
    "town": "安心院町熊",
    "town_kana": "アジムマチクマ",
    "street": null,
    "office_name": null,
    "office_name_kana": null
  },
  "0542": {
    "postcode": "8720542",
    "prefecture": "大分県",
    "prefecture_kana": "オオイタケン",
    "prefecture_code": 44,
    "city": "宇佐市",
    "city_kana": "ウサシ",
    "town": "安心院町正覚寺",
    "town_kana": "アジムマチショウガクジ",
    "street": null,
    "office_name": null,
    "office_name_kana": null
  },
  "0543": {
    "postcode": "8720543",
    "prefecture": "大分県",
    "prefecture_kana": "オオイタケン",
    "prefecture_code": 44,
    "city": "宇佐市",
    "city_kana": "ウサシ",
    "town": "安心院町平ケ倉",
    "town_kana": "アジムマチヒラガクラ",
    "street": null,
    "office_name": null,
    "office_name_kana": null
  },
  "0592": {
    "postcode": "8720592",
    "prefecture": "大分県",
    "prefecture_kana": "オオイタケン",
    "prefecture_code": 44,
    "city": "宇佐市",
    "city_kana": "ウサシ",
    "town": "安心院町下毛",
    "town_kana": "アジムマチシモゲ",
    "street": "２１１５",
    "office_name": "宇佐市役所　安心院支所",
    "office_name_kana": "ウサシヤクシヨ アジムシシヨ"
  },
  "0651": {
    "postcode": "8720651",
    "prefecture": "大分県",
    "prefecture_kana": "オオイタケン",
    "prefecture_code": 44,
    "city": "宇佐市",
    "city_kana": "ウサシ",
    "town": "安心院町佐田",
    "town_kana": "アジムマチサダ",
    "street": null,
    "office_name": null,
    "office_name_kana": null
  },
  "0652": {
    "postcode": "8720652",
    "prefecture": "大分県",
    "prefecture_kana": "オオイタケン",
    "prefecture_code": 44,
    "city": "宇佐市",
    "city_kana": "ウサシ",
    "town": "安心院町山蔵",
    "town_kana": "アジムマチヤマゾウ",
    "street": null,
    "office_name": null,
    "office_name_kana": null
  },
  "0653": {
    "postcode": "8720653",
    "prefecture": "大分県",
    "prefecture_kana": "オオイタケン",
    "prefecture_code": 44,
    "city": "宇佐市",
    "city_kana": "ウサシ",
    "town": "安心院町房ケ畑",
    "town_kana": "アジムマチボウガハタ",
    "street": null,
    "office_name": null,
    "office_name_kana": null
  },
  "0654": {
    "postcode": "8720654",
    "prefecture": "大分県",
    "prefecture_kana": "オオイタケン",
    "prefecture_code": 44,
    "city": "宇佐市",
    "city_kana": "ウサシ",
    "town": "安心院町内川野",
    "town_kana": "アジムマチウチガワノ",
    "street": null,
    "office_name": null,
    "office_name_kana": null
  },
  "0655": {
    "postcode": "8720655",
    "prefecture": "大分県",
    "prefecture_kana": "オオイタケン",
    "prefecture_code": 44,
    "city": "宇佐市",
    "city_kana": "ウサシ",
    "town": "安心院町古川",
    "town_kana": "アジムマチフルカワ",
    "street": null,
    "office_name": null,
    "office_name_kana": null
  },
  "0661": {
    "postcode": "8720661",
    "prefecture": "大分県",
    "prefecture_kana": "オオイタケン",
    "prefecture_code": 44,
    "city": "宇佐市",
    "city_kana": "ウサシ",
    "town": "安心院町笹ケ平",
    "town_kana": "アジムマチササガヒラ",
    "street": null,
    "office_name": null,
    "office_name_kana": null
  },
  "0662": {
    "postcode": "8720662",
    "prefecture": "大分県",
    "prefecture_kana": "オオイタケン",
    "prefecture_code": 44,
    "city": "宇佐市",
    "city_kana": "ウサシ",
    "town": "安心院町矢津",
    "town_kana": "アジムマチヤヅ",
    "street": null,
    "office_name": null,
    "office_name_kana": null
  },
  "0663": {
    "postcode": "8720663",
    "prefecture": "大分県",
    "prefecture_kana": "オオイタケン",
    "prefecture_code": 44,
    "city": "宇佐市",
    "city_kana": "ウサシ",
    "town": "安心院町大見尾",
    "town_kana": "アジムマチオオミオ",
    "street": null,
    "office_name": null,
    "office_name_kana": null
  },
  "0664": {
    "postcode": "8720664",
    "prefecture": "大分県",
    "prefecture_kana": "オオイタケン",
    "prefecture_code": 44,
    "city": "宇佐市",
    "city_kana": "ウサシ",
    "town": "安心院町塔尾",
    "town_kana": "アジムマチトウノオ",
    "street": null,
    "office_name": null,
    "office_name_kana": null
  },
  "0671": {
    "postcode": "8720671",
    "prefecture": "大分県",
    "prefecture_kana": "オオイタケン",
    "prefecture_code": 44,
    "city": "宇佐市",
    "city_kana": "ウサシ",
    "town": "安心院町且尾",
    "town_kana": "アジムマチカツオ",
    "street": null,
    "office_name": null,
    "office_name_kana": null
  },
  "0672": {
    "postcode": "8720672",
    "prefecture": "大分県",
    "prefecture_kana": "オオイタケン",
    "prefecture_code": 44,
    "city": "宇佐市",
    "city_kana": "ウサシ",
    "town": "安心院町広谷",
    "town_kana": "アジムマチヒロタニ",
    "street": null,
    "office_name": null,
    "office_name_kana": null
  },
  "0673": {
    "postcode": "8720673",
    "prefecture": "大分県",
    "prefecture_kana": "オオイタケン",
    "prefecture_code": 44,
    "city": "宇佐市",
    "city_kana": "ウサシ",
    "town": "安心院町口ノ坪",
    "town_kana": "アジムマチクチノツボ",
    "street": null,
    "office_name": null,
    "office_name_kana": null
  },
  "0674": {
    "postcode": "8720674",
    "prefecture": "大分県",
    "prefecture_kana": "オオイタケン",
    "prefecture_code": 44,
    "city": "宇佐市",
    "city_kana": "ウサシ",
    "town": "安心院町久井田",
    "town_kana": "アジムマチクイダ",
    "street": null,
    "office_name": null,
    "office_name_kana": null
  },
  "0675": {
    "postcode": "8720675",
    "prefecture": "大分県",
    "prefecture_kana": "オオイタケン",
    "prefecture_code": 44,
    "city": "宇佐市",
    "city_kana": "ウサシ",
    "town": "安心院町矢崎",
    "town_kana": "アジムマチヤザキ",
    "street": null,
    "office_name": null,
    "office_name_kana": null
  },
  "0701": {
    "postcode": "8720701",
    "prefecture": "大分県",
    "prefecture_kana": "オオイタケン",
    "prefecture_code": 44,
    "city": "宇佐市",
    "city_kana": "ウサシ",
    "town": "安心院町楢本",
    "town_kana": "アジムマチナラモト",
    "street": null,
    "office_name": null,
    "office_name_kana": null
  },
  "0702": {
    "postcode": "8720702",
    "prefecture": "大分県",
    "prefecture_kana": "オオイタケン",
    "prefecture_code": 44,
    "city": "宇佐市",
    "city_kana": "ウサシ",
    "town": "安心院町東恵良",
    "town_kana": "アジムマチヒガシエラ",
    "street": null,
    "office_name": null,
    "office_name_kana": null
  },
  "0703": {
    "postcode": "8720703",
    "prefecture": "大分県",
    "prefecture_kana": "オオイタケン",
    "prefecture_code": 44,
    "city": "宇佐市",
    "city_kana": "ウサシ",
    "town": "安心院町尾立",
    "town_kana": "アジムマチオダテ",
    "street": null,
    "office_name": null,
    "office_name_kana": null
  },
  "0711": {
    "postcode": "8720711",
    "prefecture": "大分県",
    "prefecture_kana": "オオイタケン",
    "prefecture_code": 44,
    "city": "宇佐市",
    "city_kana": "ウサシ",
    "town": "安心院町六郎丸",
    "town_kana": "アジムマチロクロウマル",
    "street": null,
    "office_name": null,
    "office_name_kana": null
  },
  "0712": {
    "postcode": "8720712",
    "prefecture": "大分県",
    "prefecture_kana": "オオイタケン",
    "prefecture_code": 44,
    "city": "宇佐市",
    "city_kana": "ウサシ",
    "town": "安心院町五郎丸",
    "town_kana": "アジムマチゴロウマル",
    "street": null,
    "office_name": null,
    "office_name_kana": null
  },
  "0721": {
    "postcode": "8720721",
    "prefecture": "大分県",
    "prefecture_kana": "オオイタケン",
    "prefecture_code": 44,
    "city": "宇佐市",
    "city_kana": "ウサシ",
    "town": "安心院町若林",
    "town_kana": "アジムマチワカバヤシ",
    "street": null,
    "office_name": null,
    "office_name_kana": null
  },
  "0722": {
    "postcode": "8720722",
    "prefecture": "大分県",
    "prefecture_kana": "オオイタケン",
    "prefecture_code": 44,
    "city": "宇佐市",
    "city_kana": "ウサシ",
    "town": "安心院町南畑",
    "town_kana": "アジムマチミナミハタ",
    "street": null,
    "office_name": null,
    "office_name_kana": null
  },
  "0723": {
    "postcode": "8720723",
    "prefecture": "大分県",
    "prefecture_kana": "オオイタケン",
    "prefecture_code": 44,
    "city": "宇佐市",
    "city_kana": "ウサシ",
    "town": "安心院町萱籠",
    "town_kana": "アジムマチカヤゴモリ",
    "street": null,
    "office_name": null,
    "office_name_kana": null
  },
  "0724": {
    "postcode": "8720724",
    "prefecture": "大分県",
    "prefecture_kana": "オオイタケン",
    "prefecture_code": 44,
    "city": "宇佐市",
    "city_kana": "ウサシ",
    "town": "安心院町東椎屋",
    "town_kana": "アジムマチヒガシシイヤ",
    "street": null,
    "office_name": null,
    "office_name_kana": null
  },
  "0731": {
    "postcode": "8720731",
    "prefecture": "大分県",
    "prefecture_kana": "オオイタケン",
    "prefecture_code": 44,
    "city": "宇佐市",
    "city_kana": "ウサシ",
    "town": "安心院町川崎",
    "town_kana": "アジムマチカワサキ",
    "street": null,
    "office_name": null,
    "office_name_kana": null
  },
  "0732": {
    "postcode": "8720732",
    "prefecture": "大分県",
    "prefecture_kana": "オオイタケン",
    "prefecture_code": 44,
    "city": "宇佐市",
    "city_kana": "ウサシ",
    "town": "安心院町板場",
    "town_kana": "アジムマチイタバ",
    "street": null,
    "office_name": null,
    "office_name_kana": null
  },
  "0733": {
    "postcode": "8720733",
    "prefecture": "大分県",
    "prefecture_kana": "オオイタケン",
    "prefecture_code": 44,
    "city": "宇佐市",
    "city_kana": "ウサシ",
    "town": "安心院町松本",
    "town_kana": "アジムマチマツモト",
    "street": null,
    "office_name": null,
    "office_name_kana": null
  },
  "0841": {
    "postcode": "8720841",
    "prefecture": "大分県",
    "prefecture_kana": "オオイタケン",
    "prefecture_code": 44,
    "city": "宇佐市",
    "city_kana": "ウサシ",
    "town": "安心院町矢畑",
    "town_kana": "アジムマチヤハタ",
    "street": null,
    "office_name": null,
    "office_name_kana": null
  },
  "0842": {
    "postcode": "8720842",
    "prefecture": "大分県",
    "prefecture_kana": "オオイタケン",
    "prefecture_code": 44,
    "city": "宇佐市",
    "city_kana": "ウサシ",
    "town": "安心院町下内河野",
    "town_kana": "アジムマチシモウチガワノ",
    "street": null,
    "office_name": null,
    "office_name_kana": null
  },
  "0843": {
    "postcode": "8720843",
    "prefecture": "大分県",
    "prefecture_kana": "オオイタケン",
    "prefecture_code": 44,
    "city": "宇佐市",
    "city_kana": "ウサシ",
    "town": "安心院町筌ノ口",
    "town_kana": "アジムマチウケノクチ",
    "street": null,
    "office_name": null,
    "office_name_kana": null
  },
  "0851": {
    "postcode": "8720851",
    "prefecture": "大分県",
    "prefecture_kana": "オオイタケン",
    "prefecture_code": 44,
    "city": "宇佐市",
    "city_kana": "ウサシ",
    "town": "安心院町広連",
    "town_kana": "アジムマチヒロツレ",
    "street": null,
    "office_name": null,
    "office_name_kana": null
  },
  "0852": {
    "postcode": "8720852",
    "prefecture": "大分県",
    "prefecture_kana": "オオイタケン",
    "prefecture_code": 44,
    "city": "宇佐市",
    "city_kana": "ウサシ",
    "town": "安心院町上内河野",
    "town_kana": "アジムマチカミウチガワノ",
    "street": null,
    "office_name": null,
    "office_name_kana": null
  },
  "0853": {
    "postcode": "8720853",
    "prefecture": "大分県",
    "prefecture_kana": "オオイタケン",
    "prefecture_code": 44,
    "city": "宇佐市",
    "city_kana": "ウサシ",
    "town": "安心院町元",
    "town_kana": "アジムマチモト",
    "street": null,
    "office_name": null,
    "office_name_kana": null
  },
  "0854": {
    "postcode": "8720854",
    "prefecture": "大分県",
    "prefecture_kana": "オオイタケン",
    "prefecture_code": 44,
    "city": "宇佐市",
    "city_kana": "ウサシ",
    "town": "安心院町寒水",
    "town_kana": "アジムマチソウズ",
    "street": null,
    "office_name": null,
    "office_name_kana": null
  },
  "0855": {
    "postcode": "8720855",
    "prefecture": "大分県",
    "prefecture_kana": "オオイタケン",
    "prefecture_code": 44,
    "city": "宇佐市",
    "city_kana": "ウサシ",
    "town": "安心院町福貴野",
    "town_kana": "アジムマチフキノ",
    "street": null,
    "office_name": null,
    "office_name_kana": null
  },
  "0856": {
    "postcode": "8720856",
    "prefecture": "大分県",
    "prefecture_kana": "オオイタケン",
    "prefecture_code": 44,
    "city": "宇佐市",
    "city_kana": "ウサシ",
    "town": "安心院町山ノ口",
    "town_kana": "アジムマチヤマノクチ",
    "street": null,
    "office_name": null,
    "office_name_kana": null
  },
  "0857": {
    "postcode": "8720857",
    "prefecture": "大分県",
    "prefecture_kana": "オオイタケン",
    "prefecture_code": 44,
    "city": "宇佐市",
    "city_kana": "ウサシ",
    "town": "安心院町畳石",
    "town_kana": "アジムマチタタミイシ",
    "street": null,
    "office_name": null,
    "office_name_kana": null
  },
  "0858": {
    "postcode": "8720858",
    "prefecture": "大分県",
    "prefecture_kana": "オオイタケン",
    "prefecture_code": 44,
    "city": "宇佐市",
    "city_kana": "ウサシ",
    "town": "安心院町水車",
    "town_kana": "アジムマチミズクルマ",
    "street": null,
    "office_name": null,
    "office_name_kana": null
  },
  "0861": {
    "postcode": "8720861",
    "prefecture": "大分県",
    "prefecture_kana": "オオイタケン",
    "prefecture_code": 44,
    "city": "宇佐市",
    "city_kana": "ウサシ",
    "town": "安心院町境ノ坪",
    "town_kana": "アジムマチサカイノツボ",
    "street": null,
    "office_name": null,
    "office_name_kana": null
  },
  "0862": {
    "postcode": "8720862",
    "prefecture": "大分県",
    "prefecture_kana": "オオイタケン",
    "prefecture_code": 44,
    "city": "宇佐市",
    "city_kana": "ウサシ",
    "town": "安心院町川底",
    "town_kana": "アジムマチカワソコ",
    "street": null,
    "office_name": null,
    "office_name_kana": null
  },
  "0863": {
    "postcode": "8720863",
    "prefecture": "大分県",
    "prefecture_kana": "オオイタケン",
    "prefecture_code": 44,
    "city": "宇佐市",
    "city_kana": "ウサシ",
    "town": "安心院町村部",
    "town_kana": "アジムマチソベ",
    "street": null,
    "office_name": null,
    "office_name_kana": null
  },
  "0864": {
    "postcode": "8720864",
    "prefecture": "大分県",
    "prefecture_kana": "オオイタケン",
    "prefecture_code": 44,
    "city": "宇佐市",
    "city_kana": "ウサシ",
    "town": "安心院町番木",
    "town_kana": "アジムマチバンギ",
    "street": null,
    "office_name": null,
    "office_name_kana": null
  },
  "0865": {
    "postcode": "8720865",
    "prefecture": "大分県",
    "prefecture_kana": "オオイタケン",
    "prefecture_code": 44,
    "city": "宇佐市",
    "city_kana": "ウサシ",
    "town": "安心院町佛木",
    "town_kana": "アジムマチホトギ",
    "street": null,
    "office_name": null,
    "office_name_kana": null
  },
  "0871": {
    "postcode": "8720871",
    "prefecture": "大分県",
    "prefecture_kana": "オオイタケン",
    "prefecture_code": 44,
    "city": "宇佐市",
    "city_kana": "ウサシ",
    "town": "安心院町平山",
    "town_kana": "アジムマチヒラヤマ",
    "street": null,
    "office_name": null,
    "office_name_kana": null
  },
  "0872": {
    "postcode": "8720872",
    "prefecture": "大分県",
    "prefecture_kana": "オオイタケン",
    "prefecture_code": 44,
    "city": "宇佐市",
    "city_kana": "ウサシ",
    "town": "安心院町舟板",
    "town_kana": "アジムマチフナイタ",
    "street": null,
    "office_name": null,
    "office_name_kana": null
  },
  "0873": {
    "postcode": "8720873",
    "prefecture": "大分県",
    "prefecture_kana": "オオイタケン",
    "prefecture_code": 44,
    "city": "宇佐市",
    "city_kana": "ウサシ",
    "town": "安心院町新貝",
    "town_kana": "アジムマチシンガイ",
    "street": null,
    "office_name": null,
    "office_name_kana": null
  },
  "1101": {
    "postcode": "8721101",
    "prefecture": "大分県",
    "prefecture_kana": "オオイタケン",
    "prefecture_code": 44,
    "city": "豊後高田市",
    "city_kana": "ブンゴタカダシ",
    "town": "中真玉",
    "town_kana": "ナカマタマ",
    "street": null,
    "office_name": null,
    "office_name_kana": null
  },
  "1102": {
    "postcode": "8721102",
    "prefecture": "大分県",
    "prefecture_kana": "オオイタケン",
    "prefecture_code": 44,
    "city": "豊後高田市",
    "city_kana": "ブンゴタカダシ",
    "town": "大岩屋",
    "town_kana": "オオイワヤ",
    "street": null,
    "office_name": null,
    "office_name_kana": null
  },
  "1103": {
    "postcode": "8721103",
    "prefecture": "大分県",
    "prefecture_kana": "オオイタケン",
    "prefecture_code": 44,
    "city": "豊後高田市",
    "city_kana": "ブンゴタカダシ",
    "town": "黒土",
    "town_kana": "クロツチ",
    "street": null,
    "office_name": null,
    "office_name_kana": null
  },
  "1104": {
    "postcode": "8721104",
    "prefecture": "大分県",
    "prefecture_kana": "オオイタケン",
    "prefecture_code": 44,
    "city": "豊後高田市",
    "city_kana": "ブンゴタカダシ",
    "town": "城前",
    "town_kana": "ジョウゼン",
    "street": null,
    "office_name": null,
    "office_name_kana": null
  },
  "1105": {
    "postcode": "8721105",
    "prefecture": "大分県",
    "prefecture_kana": "オオイタケン",
    "prefecture_code": 44,
    "city": "豊後高田市",
    "city_kana": "ブンゴタカダシ",
    "town": "西真玉",
    "town_kana": "ニシマタマ",
    "street": null,
    "office_name": null,
    "office_name_kana": null
  },
  "1106": {
    "postcode": "8721106",
    "prefecture": "大分県",
    "prefecture_kana": "オオイタケン",
    "prefecture_code": 44,
    "city": "豊後高田市",
    "city_kana": "ブンゴタカダシ",
    "town": "大平",
    "town_kana": "オオヒラ",
    "street": null,
    "office_name": null,
    "office_name_kana": null
  },
  "1107": {
    "postcode": "8721107",
    "prefecture": "大分県",
    "prefecture_kana": "オオイタケン",
    "prefecture_code": 44,
    "city": "豊後高田市",
    "city_kana": "ブンゴタカダシ",
    "town": "臼野",
    "town_kana": "ウスノ",
    "street": null,
    "office_name": null,
    "office_name_kana": null
  },
  "1201": {
    "postcode": "8721201",
    "prefecture": "大分県",
    "prefecture_kana": "オオイタケン",
    "prefecture_code": 44,
    "city": "豊後高田市",
    "city_kana": "ブンゴタカダシ",
    "town": "夷",
    "town_kana": "エビス",
    "street": null,
    "office_name": null,
    "office_name_kana": null
  },
  "1202": {
    "postcode": "8721202",
    "prefecture": "大分県",
    "prefecture_kana": "オオイタケン",
    "prefecture_code": 44,
    "city": "豊後高田市",
    "city_kana": "ブンゴタカダシ",
    "town": "香々地",
    "town_kana": "カカヂ",
    "street": null,
    "office_name": null,
    "office_name_kana": null
  },
  "1203": {
    "postcode": "8721203",
    "prefecture": "大分県",
    "prefecture_kana": "オオイタケン",
    "prefecture_code": 44,
    "city": "豊後高田市",
    "city_kana": "ブンゴタカダシ",
    "town": "堅来",
    "town_kana": "カタク",
    "street": null,
    "office_name": null,
    "office_name_kana": null
  },
  "1204": {
    "postcode": "8721204",
    "prefecture": "大分県",
    "prefecture_kana": "オオイタケン",
    "prefecture_code": 44,
    "city": "豊後高田市",
    "city_kana": "ブンゴタカダシ",
    "town": "上香々地",
    "town_kana": "カミカカヂ",
    "street": null,
    "office_name": null,
    "office_name_kana": null
  },
  "1205": {
    "postcode": "8721205",
    "prefecture": "大分県",
    "prefecture_kana": "オオイタケン",
    "prefecture_code": 44,
    "city": "豊後高田市",
    "city_kana": "ブンゴタカダシ",
    "town": "小畑",
    "town_kana": "コバタ",
    "street": null,
    "office_name": null,
    "office_name_kana": null
  },
  "1206": {
    "postcode": "8721206",
    "prefecture": "大分県",
    "prefecture_kana": "オオイタケン",
    "prefecture_code": 44,
    "city": "豊後高田市",
    "city_kana": "ブンゴタカダシ",
    "town": "羽根",
    "town_kana": "ハネ",
    "street": null,
    "office_name": null,
    "office_name_kana": null
  },
  "1207": {
    "postcode": "8721207",
    "prefecture": "大分県",
    "prefecture_kana": "オオイタケン",
    "prefecture_code": 44,
    "city": "豊後高田市",
    "city_kana": "ブンゴタカダシ",
    "town": "見目",
    "town_kana": "ミメ",
    "street": null,
    "office_name": null,
    "office_name_kana": null
  },
  "1321": {
    "postcode": "8721321",
    "prefecture": "大分県",
    "prefecture_kana": "オオイタケン",
    "prefecture_code": 44,
    "city": "国東市",
    "city_kana": "クニサキシ",
    "town": "国見町竹田津",
    "town_kana": "クニミマチタケタヅ",
    "street": null,
    "office_name": null,
    "office_name_kana": null
  },
  "1322": {
    "postcode": "8721322",
    "prefecture": "大分県",
    "prefecture_kana": "オオイタケン",
    "prefecture_code": 44,
    "city": "国東市",
    "city_kana": "クニサキシ",
    "town": "国見町西方寺",
    "town_kana": "クニミマチサイホウジ",
    "street": null,
    "office_name": null,
    "office_name_kana": null
  },
  "1323": {
    "postcode": "8721323",
    "prefecture": "大分県",
    "prefecture_kana": "オオイタケン",
    "prefecture_code": 44,
    "city": "国東市",
    "city_kana": "クニサキシ",
    "town": "国見町鬼籠",
    "town_kana": "クニミマチキコ",
    "street": null,
    "office_name": null,
    "office_name_kana": null
  },
  "1324": {
    "postcode": "8721324",
    "prefecture": "大分県",
    "prefecture_kana": "オオイタケン",
    "prefecture_code": 44,
    "city": "国東市",
    "city_kana": "クニサキシ",
    "town": "国見町櫛海",
    "town_kana": "クニミマチクシノミ",
    "street": null,
    "office_name": null,
    "office_name_kana": null
  },
  "1401": {
    "postcode": "8721401",
    "prefecture": "大分県",
    "prefecture_kana": "オオイタケン",
    "prefecture_code": 44,
    "city": "国東市",
    "city_kana": "クニサキシ",
    "town": "国見町伊美",
    "town_kana": "クニミマチイミ",
    "street": null,
    "office_name": null,
    "office_name_kana": null
  },
  "1402": {
    "postcode": "8721402",
    "prefecture": "大分県",
    "prefecture_kana": "オオイタケン",
    "prefecture_code": 44,
    "city": "国東市",
    "city_kana": "クニサキシ",
    "town": "国見町中",
    "town_kana": "クニミマチナカ",
    "street": null,
    "office_name": null,
    "office_name_kana": null
  },
  "1403": {
    "postcode": "8721403",
    "prefecture": "大分県",
    "prefecture_kana": "オオイタケン",
    "prefecture_code": 44,
    "city": "国東市",
    "city_kana": "クニサキシ",
    "town": "国見町野田",
    "town_kana": "クニミマチノダ",
    "street": null,
    "office_name": null,
    "office_name_kana": null
  },
  "1404": {
    "postcode": "8721404",
    "prefecture": "大分県",
    "prefecture_kana": "オオイタケン",
    "prefecture_code": 44,
    "city": "国東市",
    "city_kana": "クニサキシ",
    "town": "国見町千燈",
    "town_kana": "クニミマチセンド",
    "street": null,
    "office_name": null,
    "office_name_kana": null
  },
  "1405": {
    "postcode": "8721405",
    "prefecture": "大分県",
    "prefecture_kana": "オオイタケン",
    "prefecture_code": 44,
    "city": "国東市",
    "city_kana": "クニサキシ",
    "town": "国見町赤根",
    "town_kana": "クニミマチアカネ",
    "street": null,
    "office_name": null,
    "office_name_kana": null
  },
  "1406": {
    "postcode": "8721406",
    "prefecture": "大分県",
    "prefecture_kana": "オオイタケン",
    "prefecture_code": 44,
    "city": "国東市",
    "city_kana": "クニサキシ",
    "town": "国見町櫛来",
    "town_kana": "クニミマチクシク",
    "street": null,
    "office_name": null,
    "office_name_kana": null
  },
  "1501": {
    "postcode": "8721501",
    "prefecture": "大分県",
    "prefecture_kana": "オオイタケン",
    "prefecture_code": 44,
    "city": "東国東郡姫島村",
    "city_kana": "ヒガシクニサキグンヒメシマムラ",
    "town": "",
    "town_kana": "",
    "street": null,
    "office_name": null,
    "office_name_kana": null
  },
  "1611": {
    "postcode": "8721611",
    "prefecture": "大分県",
    "prefecture_kana": "オオイタケン",
    "prefecture_code": 44,
    "city": "国東市",
    "city_kana": "クニサキシ",
    "town": "国見町向田",
    "town_kana": "クニミマチムカタ",
    "street": null,
    "office_name": null,
    "office_name_kana": null
  },
  "1612": {
    "postcode": "8721612",
    "prefecture": "大分県",
    "prefecture_kana": "オオイタケン",
    "prefecture_code": 44,
    "city": "国東市",
    "city_kana": "クニサキシ",
    "town": "国見町大熊毛",
    "town_kana": "クニミマチオオクマゲ",
    "street": null,
    "office_name": null,
    "office_name_kana": null
  },
  "1613": {
    "postcode": "8721613",
    "prefecture": "大分県",
    "prefecture_kana": "オオイタケン",
    "prefecture_code": 44,
    "city": "国東市",
    "city_kana": "クニサキシ",
    "town": "国見町小熊毛",
    "town_kana": "クニミマチコクマゲ",
    "street": null,
    "office_name": null,
    "office_name_kana": null
  },
  "1614": {
    "postcode": "8721614",
    "prefecture": "大分県",
    "prefecture_kana": "オオイタケン",
    "prefecture_code": 44,
    "city": "国東市",
    "city_kana": "クニサキシ",
    "town": "国見町岐部",
    "town_kana": "クニミマチキベ",
    "street": null,
    "office_name": null,
    "office_name_kana": null
  },
  "1651": {
    "postcode": "8721651",
    "prefecture": "大分県",
    "prefecture_kana": "オオイタケン",
    "prefecture_code": 44,
    "city": "国東市",
    "city_kana": "クニサキシ",
    "town": "国東町浜",
    "town_kana": "クニサキマチハマ",
    "street": null,
    "office_name": null,
    "office_name_kana": null
  },
  "1652": {
    "postcode": "8721652",
    "prefecture": "大分県",
    "prefecture_kana": "オオイタケン",
    "prefecture_code": 44,
    "city": "国東市",
    "city_kana": "クニサキシ",
    "town": "国東町来浦",
    "town_kana": "クニサキマチクノウラ",
    "street": null,
    "office_name": null,
    "office_name_kana": null
  },
  "1653": {
    "postcode": "8721653",
    "prefecture": "大分県",
    "prefecture_kana": "オオイタケン",
    "prefecture_code": 44,
    "city": "国東市",
    "city_kana": "クニサキシ",
    "town": "国東町岩戸寺",
    "town_kana": "クニサキマチイワトウジ",
    "street": null,
    "office_name": null,
    "office_name_kana": null
  }
}