{
  "0000": {
    "postcode": "8770000",
    "prefecture": "大分県",
    "prefecture_kana": "オオイタケン",
    "prefecture_code": 44,
    "city": "日田市",
    "city_kana": "ヒタシ",
    "town": "",
    "town_kana": "",
    "street": null,
    "office_name": null,
    "office_name_kana": null
  },
  "0001": {
    "postcode": "8770001",
    "prefecture": "大分県",
    "prefecture_kana": "オオイタケン",
    "prefecture_code": 44,
    "city": "日田市",
    "city_kana": "ヒタシ",
    "town": "秋山町",
    "town_kana": "アキヤママチ",
    "street": null,
    "office_name": null,
    "office_name_kana": null
  },
  "0002": {
    "postcode": "8770002",
    "prefecture": "大分県",
    "prefecture_kana": "オオイタケン",
    "prefecture_code": 44,
    "city": "日田市",
    "city_kana": "ヒタシ",
    "town": "城内新町",
    "town_kana": "ジョウナイシンマチ",
    "street": null,
    "office_name": null,
    "office_name_kana": null
  },
  "0003": {
    "postcode": "8770003",
    "prefecture": "大分県",
    "prefecture_kana": "オオイタケン",
    "prefecture_code": 44,
    "city": "日田市",
    "city_kana": "ヒタシ",
    "town": "上城内町",
    "town_kana": "カミジョウナイマチ",
    "street": null,
    "office_name": null,
    "office_name_kana": null
  },
  "0004": {
    "postcode": "8770004",
    "prefecture": "大分県",
    "prefecture_kana": "オオイタケン",
    "prefecture_code": 44,
    "city": "日田市",
    "city_kana": "ヒタシ",
    "town": "城町",
    "town_kana": "シロマチ",
    "street": null,
    "office_name": null,
    "office_name_kana": null
  },
  "0005": {
    "postcode": "8770005",
    "prefecture": "大分県",
    "prefecture_kana": "オオイタケン",
    "prefecture_code": 44,
    "city": "日田市",
    "city_kana": "ヒタシ",
    "town": "豆田町",
    "town_kana": "マメダマチ",
    "street": null,
    "office_name": null,
    "office_name_kana": null
  },
  "0006": {
    "postcode": "8770006",
    "prefecture": "大分県",
    "prefecture_kana": "オオイタケン",
    "prefecture_code": 44,
    "city": "日田市",
    "city_kana": "ヒタシ",
    "town": "港町",
    "town_kana": "ミナトマチ",
    "street": null,
    "office_name": null,
    "office_name_kana": null
  },
  "0007": {
    "postcode": "8770007",
    "prefecture": "大分県",
    "prefecture_kana": "オオイタケン",
    "prefecture_code": 44,
    "city": "日田市",
    "city_kana": "ヒタシ",
    "town": "丸の内町",
    "town_kana": "マルノウチマチ",
    "street": null,
    "office_name": null,
    "office_name_kana": null
  },
  "0008": {
    "postcode": "8770008",
    "prefecture": "大分県",
    "prefecture_kana": "オオイタケン",
    "prefecture_code": 44,
    "city": "日田市",
    "city_kana": "ヒタシ",
    "town": "丸山",
    "town_kana": "マルヤマ",
    "street": null,
    "office_name": null,
    "office_name_kana": null
  },
  "0011": {
    "postcode": "8770011",
    "prefecture": "大分県",
    "prefecture_kana": "オオイタケン",
    "prefecture_code": 44,
    "city": "日田市",
    "city_kana": "ヒタシ",
    "town": "中城町",
    "town_kana": "ナカジョウマチ",
    "street": null,
    "office_name": null,
    "office_name_kana": null
  },
  "0012": {
    "postcode": "8770012",
    "prefecture": "大分県",
    "prefecture_kana": "オオイタケン",
    "prefecture_code": 44,
    "city": "日田市",
    "city_kana": "ヒタシ",
    "town": "淡窓",
    "town_kana": "タンソウ",
    "street": null,
    "office_name": null,
    "office_name_kana": null
  },
  "0013": {
    "postcode": "8770013",
    "prefecture": "大分県",
    "prefecture_kana": "オオイタケン",
    "prefecture_code": 44,
    "city": "日田市",
    "city_kana": "ヒタシ",
    "town": "元町",
    "town_kana": "モトマチ",
    "street": null,
    "office_name": null,
    "office_name_kana": null
  },
  "0014": {
    "postcode": "8770014",
    "prefecture": "大分県",
    "prefecture_kana": "オオイタケン",
    "prefecture_code": 44,
    "city": "日田市",
    "city_kana": "ヒタシ",
    "town": "本町",
    "town_kana": "ホンマチ",
    "street": null,
    "office_name": null,
    "office_name_kana": null
  },
  "0015": {
    "postcode": "8770015",
    "prefecture": "大分県",
    "prefecture_kana": "オオイタケン",
    "prefecture_code": 44,
    "city": "日田市",
    "city_kana": "ヒタシ",
    "town": "中央",
    "town_kana": "チュウオウ",
    "street": null,
    "office_name": null,
    "office_name_kana": null
  },
  "0016": {
    "postcode": "8770016",
    "prefecture": "大分県",
    "prefecture_kana": "オオイタケン",
    "prefecture_code": 44,
    "city": "日田市",
    "city_kana": "ヒタシ",
    "town": "三本松",
    "town_kana": "サンボンマツ",
    "street": null,
    "office_name": null,
    "office_name_kana": null
  },
  "0017": {
    "postcode": "8770017",
    "prefecture": "大分県",
    "prefecture_kana": "オオイタケン",
    "prefecture_code": 44,
    "city": "日田市",
    "city_kana": "ヒタシ",
    "town": "三本松新町",
    "town_kana": "サンボンマツシンマチ",
    "street": null,
    "office_name": null,
    "office_name_kana": null
  },
  "0021": {
    "postcode": "8770021",
    "prefecture": "大分県",
    "prefecture_kana": "オオイタケン",
    "prefecture_code": 44,
    "city": "日田市",
    "city_kana": "ヒタシ",
    "town": "求町",
    "town_kana": "モトメマチ",
    "street": null,
    "office_name": null,
    "office_name_kana": null
  },
  "0022": {
    "postcode": "8770022",
    "prefecture": "大分県",
    "prefecture_kana": "オオイタケン",
    "prefecture_code": 44,
    "city": "日田市",
    "city_kana": "ヒタシ",
    "town": "神来町",
    "town_kana": "カミクマチ",
    "street": null,
    "office_name": null,
    "office_name_kana": null
  },
  "0023": [
    {
      "postcode": "8770023",
      "prefecture": "大分県",
      "prefecture_kana": "オオイタケン",
      "prefecture_code": 44,
      "city": "日田市",
      "city_kana": "ヒタシ",
      "town": "田島",
      "town_kana": "タシマ",
      "street": null,
      "office_name": null,
      "office_name_kana": null
    },
    {
      "postcode": "8770023",
      "prefecture": "大分県",
      "prefecture_kana": "オオイタケン",
      "prefecture_code": 44,
      "city": "日田市",
      "city_kana": "ヒタシ",
      "town": "田島大字",
      "town_kana": "タシマオオアザ",
      "street": null,
      "office_name": null,
      "office_name_kana": null
    }
  ],
  "0024": {
    "postcode": "8770024",
    "prefecture": "大分県",
    "prefecture_kana": "オオイタケン",
    "prefecture_code": 44,
    "city": "日田市",
    "city_kana": "ヒタシ",
    "town": "南元町",
    "town_kana": "ミナミモトマチ",
    "street": null,
    "office_name": null,
    "office_name_kana": null
  },
  "0025": {
    "postcode": "8770025",
    "prefecture": "大分県",
    "prefecture_kana": "オオイタケン",
    "prefecture_code": 44,
    "city": "日田市",
    "city_kana": "ヒタシ",
    "town": "田島",
    "town_kana": "タシマ",
    "street": null,
    "office_name": null,
    "office_name_kana": null
  },
  "0026": {
    "postcode": "8770026",
    "prefecture": "大分県",
    "prefecture_kana": "オオイタケン",
    "prefecture_code": 44,
    "city": "日田市",
    "city_kana": "ヒタシ",
    "town": "田島本町",
    "town_kana": "タシマホンマチ",
    "street": null,
    "office_name": null,
    "office_name_kana": null
  },
  "0031": {
    "postcode": "8770031",
    "prefecture": "大分県",
    "prefecture_kana": "オオイタケン",
    "prefecture_code": 44,
    "city": "日田市",
    "city_kana": "ヒタシ",
    "town": "古金町",
    "town_kana": "コガネマチ",
    "street": null,
    "office_name": null,
    "office_name_kana": null
  },
  "0032": {
    "postcode": "8770032",
    "prefecture": "大分県",
    "prefecture_kana": "オオイタケン",
    "prefecture_code": 44,
    "city": "日田市",
    "city_kana": "ヒタシ",
    "town": "小ケ瀬町",
    "town_kana": "オガセマチ",
    "street": null,
    "office_name": null,
    "office_name_kana": null
  },
  "0033": {
    "postcode": "8770033",
    "prefecture": "大分県",
    "prefecture_kana": "オオイタケン",
    "prefecture_code": 44,
    "city": "日田市",
    "city_kana": "ヒタシ",
    "town": "大部町",
    "town_kana": "オオベマチ",
    "street": null,
    "office_name": null,
    "office_name_kana": null
  },
  "0034": {
    "postcode": "8770034",
    "prefecture": "大分県",
    "prefecture_kana": "オオイタケン",
    "prefecture_code": 44,
    "city": "日田市",
    "city_kana": "ヒタシ",
    "town": "桃山町",
    "town_kana": "モモヤママチ",
    "street": null,
    "office_name": null,
    "office_name_kana": null
  },
  "0035": {
    "postcode": "8770035",
    "prefecture": "大分県",
    "prefecture_kana": "オオイタケン",
    "prefecture_code": 44,
    "city": "日田市",
    "city_kana": "ヒタシ",
    "town": "日高町",
    "town_kana": "ヒダカマチ",
    "street": null,
    "office_name": null,
    "office_name_kana": null
  },
  "0036": {
    "postcode": "8770036",
    "prefecture": "大分県",
    "prefecture_kana": "オオイタケン",
    "prefecture_code": 44,
    "city": "日田市",
    "city_kana": "ヒタシ",
    "town": "三芳小渕町",
    "town_kana": "ミヨシコブチマチ",
    "street": null,
    "office_name": null,
    "office_name_kana": null
  },
  "0037": {
    "postcode": "8770037",
    "prefecture": "大分県",
    "prefecture_kana": "オオイタケン",
    "prefecture_code": 44,
    "city": "日田市",
    "city_kana": "ヒタシ",
    "town": "若宮町",
    "town_kana": "ワカミヤマチ",
    "street": null,
    "office_name": null,
    "office_name_kana": null
  },
  "0038": {
    "postcode": "8770038",
    "prefecture": "大分県",
    "prefecture_kana": "オオイタケン",
    "prefecture_code": 44,
    "city": "日田市",
    "city_kana": "ヒタシ",
    "town": "下井手町",
    "town_kana": "シモイデマチ",
    "street": null,
    "office_name": null,
    "office_name_kana": null
  },
  "0039": {
    "postcode": "8770039",
    "prefecture": "大分県",
    "prefecture_kana": "オオイタケン",
    "prefecture_code": 44,
    "city": "日田市",
    "city_kana": "ヒタシ",
    "town": "刃連町",
    "town_kana": "ユキイマチ",
    "street": null,
    "office_name": null,
    "office_name_kana": null
  },
  "0041": {
    "postcode": "8770041",
    "prefecture": "大分県",
    "prefecture_kana": "オオイタケン",
    "prefecture_code": 44,
    "city": "日田市",
    "city_kana": "ヒタシ",
    "town": "竹田新町",
    "town_kana": "タケダシンマチ",
    "street": null,
    "office_name": null,
    "office_name_kana": null
  },
  "0042": {
    "postcode": "8770042",
    "prefecture": "大分県",
    "prefecture_kana": "オオイタケン",
    "prefecture_code": 44,
    "city": "日田市",
    "city_kana": "ヒタシ",
    "town": "東町",
    "town_kana": "ヒガシマチ",
    "street": null,
    "office_name": null,
    "office_name_kana": null
  },
  "0043": {
    "postcode": "8770043",
    "prefecture": "大分県",
    "prefecture_kana": "オオイタケン",
    "prefecture_code": 44,
    "city": "日田市",
    "city_kana": "ヒタシ",
    "town": "川原町",
    "town_kana": "カワハラマチ",
    "street": null,
    "office_name": null,
    "office_name_kana": null
  },
  "0044": {
    "postcode": "8770044",
    "prefecture": "大分県",
    "prefecture_kana": "オオイタケン",
    "prefecture_code": 44,
    "city": "日田市",
    "city_kana": "ヒタシ",
    "town": "隈",
    "town_kana": "クマ",
    "street": null,
    "office_name": null,
    "office_name_kana": null
  },
  "0045": {
    "postcode": "8770045",
    "prefecture": "大分県",
    "prefecture_kana": "オオイタケン",
    "prefecture_code": 44,
    "city": "日田市",
    "city_kana": "ヒタシ",
    "town": "亀山町",
    "town_kana": "キザンマチ",
    "street": null,
    "office_name": null,
    "office_name_kana": null
  },
  "0046": {
    "postcode": "8770046",
    "prefecture": "大分県",
    "prefecture_kana": "オオイタケン",
    "prefecture_code": 44,
    "city": "日田市",
    "city_kana": "ヒタシ",
    "town": "本庄町",
    "town_kana": "ホンジョウマチ",
    "street": null,
    "office_name": null,
    "office_name_kana": null
  },
  "0047": {
    "postcode": "8770047",
    "prefecture": "大分県",
    "prefecture_kana": "オオイタケン",
    "prefecture_code": 44,
    "city": "日田市",
    "city_kana": "ヒタシ",
    "town": "中本町",
    "town_kana": "ナカホンマチ",
    "street": null,
    "office_name": null,
    "office_name_kana": null
  },
  "0051": {
    "postcode": "8770051",
    "prefecture": "大分県",
    "prefecture_kana": "オオイタケン",
    "prefecture_code": 44,
    "city": "日田市",
    "city_kana": "ヒタシ",
    "town": "京町",
    "town_kana": "キョウマチ",
    "street": null,
    "office_name": null,
    "office_name_kana": null
  },
  "0052": {
    "postcode": "8770052",
    "prefecture": "大分県",
    "prefecture_kana": "オオイタケン",
    "prefecture_code": 44,
    "city": "日田市",
    "city_kana": "ヒタシ",
    "town": "銭渕町",
    "town_kana": "ゼニブチマチ",
    "street": null,
    "office_name": null,
    "office_name_kana": null
  },
  "0053": {
    "postcode": "8770053",
    "prefecture": "大分県",
    "prefecture_kana": "オオイタケン",
    "prefecture_code": 44,
    "city": "日田市",
    "city_kana": "ヒタシ",
    "town": "高瀬本町",
    "town_kana": "タカセホンマチ",
    "street": null,
    "office_name": null,
    "office_name_kana": null
  },
  "0054": {
    "postcode": "8770054",
    "prefecture": "大分県",
    "prefecture_kana": "オオイタケン",
    "prefecture_code": 44,
    "city": "日田市",
    "city_kana": "ヒタシ",
    "town": "琴平町",
    "town_kana": "コトヒラマチ",
    "street": null,
    "office_name": null,
    "office_name_kana": null
  },
  "0055": {
    "postcode": "8770055",
    "prefecture": "大分県",
    "prefecture_kana": "オオイタケン",
    "prefecture_code": 44,
    "city": "日田市",
    "city_kana": "ヒタシ",
    "town": "大宮町",
    "town_kana": "オオミヤマチ",
    "street": null,
    "office_name": null,
    "office_name_kana": null
  },
  "0056": {
    "postcode": "8770056",
    "prefecture": "大分県",
    "prefecture_kana": "オオイタケン",
    "prefecture_code": 44,
    "city": "日田市",
    "city_kana": "ヒタシ",
    "town": "誠和町",
    "town_kana": "セイワマチ",
    "street": null,
    "office_name": null,
    "office_name_kana": null
  },
  "0057": {
    "postcode": "8770057",
    "prefecture": "大分県",
    "prefecture_kana": "オオイタケン",
    "prefecture_code": 44,
    "city": "日田市",
    "city_kana": "ヒタシ",
    "town": "八幡町",
    "town_kana": "ヤハタマチ",
    "street": null,
    "office_name": null,
    "office_name_kana": null
  },
  "0058": {
    "postcode": "8770058",
    "prefecture": "大分県",
    "prefecture_kana": "オオイタケン",
    "prefecture_code": 44,
    "city": "日田市",
    "city_kana": "ヒタシ",
    "town": "南部町",
    "town_kana": "ナンブマチ",
    "street": null,
    "office_name": null,
    "office_name_kana": null
  },
  "0059": {
    "postcode": "8770059",
    "prefecture": "大分県",
    "prefecture_kana": "オオイタケン",
    "prefecture_code": 44,
    "city": "日田市",
    "city_kana": "ヒタシ",
    "town": "大日町",
    "town_kana": "ダイニチマチ",
    "street": null,
    "office_name": null,
    "office_name_kana": null
  },
  "0061": {
    "postcode": "8770061",
    "prefecture": "大分県",
    "prefecture_kana": "オオイタケン",
    "prefecture_code": 44,
    "city": "日田市",
    "city_kana": "ヒタシ",
    "town": "石井",
    "town_kana": "イシイ",
    "street": null,
    "office_name": null,
    "office_name_kana": null
  },
  "0062": {
    "postcode": "8770062",
    "prefecture": "大分県",
    "prefecture_kana": "オオイタケン",
    "prefecture_code": 44,
    "city": "日田市",
    "city_kana": "ヒタシ",
    "town": "上野町",
    "town_kana": "ウエノマチ",
    "street": null,
    "office_name": null,
    "office_name_kana": null
  },
  "0063": {
    "postcode": "8770063",
    "prefecture": "大分県",
    "prefecture_kana": "オオイタケン",
    "prefecture_code": 44,
    "city": "日田市",
    "city_kana": "ヒタシ",
    "town": "串川町",
    "town_kana": "クシカワマチ",
    "street": null,
    "office_name": null,
    "office_name_kana": null
  },
  "0064": {
    "postcode": "8770064",
    "prefecture": "大分県",
    "prefecture_kana": "オオイタケン",
    "prefecture_code": 44,
    "city": "日田市",
    "city_kana": "ヒタシ",
    "town": "小山町",
    "town_kana": "オヤママチ",
    "street": null,
    "office_name": null,
    "office_name_kana": null
  },
  "0065": {
    "postcode": "8770065",
    "prefecture": "大分県",
    "prefecture_kana": "オオイタケン",
    "prefecture_code": 44,
    "city": "日田市",
    "city_kana": "ヒタシ",
    "town": "緑町",
    "town_kana": "ミドリマチ",
    "street": null,
    "office_name": null,
    "office_name_kana": null
  },
  "0066": {
    "postcode": "8770066",
    "prefecture": "大分県",
    "prefecture_kana": "オオイタケン",
    "prefecture_code": 44,
    "city": "日田市",
    "city_kana": "ヒタシ",
    "town": "川下",
    "town_kana": "カワシタ",
    "street": null,
    "office_name": null,
    "office_name_kana": null
  },
  "0067": {
    "postcode": "8770067",
    "prefecture": "大分県",
    "prefecture_kana": "オオイタケン",
    "prefecture_code": 44,
    "city": "日田市",
    "city_kana": "ヒタシ",
    "town": "高井町",
    "town_kana": "タカイマチ",
    "street": null,
    "office_name": null,
    "office_name_kana": null
  },
  "0068": {
    "postcode": "8770068",
    "prefecture": "大分県",
    "prefecture_kana": "オオイタケン",
    "prefecture_code": 44,
    "city": "日田市",
    "city_kana": "ヒタシ",
    "town": "内河町",
    "town_kana": "ウチカワマチ",
    "street": null,
    "office_name": null,
    "office_name_kana": null
  },
  "0071": {
    "postcode": "8770071",
    "prefecture": "大分県",
    "prefecture_kana": "オオイタケン",
    "prefecture_code": 44,
    "city": "日田市",
    "city_kana": "ヒタシ",
    "town": "玉川町",
    "town_kana": "タマガワマチ",
    "street": null,
    "office_name": null,
    "office_name_kana": null
  },
  "0072": {
    "postcode": "8770072",
    "prefecture": "大分県",
    "prefecture_kana": "オオイタケン",
    "prefecture_code": 44,
    "city": "日田市",
    "city_kana": "ヒタシ",
    "town": "新治町",
    "town_kana": "ニイバルマチ",
    "street": null,
    "office_name": null,
    "office_name_kana": null
  },
  "0073": {
    "postcode": "8770073",
    "prefecture": "大分県",
    "prefecture_kana": "オオイタケン",
    "prefecture_code": 44,
    "city": "日田市",
    "city_kana": "ヒタシ",
    "town": "日ノ隈町",
    "town_kana": "ヒノクママチ",
    "street": null,
    "office_name": null,
    "office_name_kana": null
  },
  "0074": {
    "postcode": "8770074",
    "prefecture": "大分県",
    "prefecture_kana": "オオイタケン",
    "prefecture_code": 44,
    "city": "日田市",
    "city_kana": "ヒタシ",
    "town": "中ノ島町",
    "town_kana": "ナカノシママチ",
    "street": null,
    "office_name": null,
    "office_name_kana": null
  },
  "0075": {
    "postcode": "8770075",
    "prefecture": "大分県",
    "prefecture_kana": "オオイタケン",
    "prefecture_code": 44,
    "city": "日田市",
    "city_kana": "ヒタシ",
    "town": "中釣町",
    "town_kana": "ナカヅルマチ",
    "street": null,
    "office_name": null,
    "office_name_kana": null
  },
  "0076": {
    "postcode": "8770076",
    "prefecture": "大分県",
    "prefecture_kana": "オオイタケン",
    "prefecture_code": 44,
    "city": "日田市",
    "city_kana": "ヒタシ",
    "town": "亀川町",
    "town_kana": "カメガワマチ",
    "street": null,
    "office_name": null,
    "office_name_kana": null
  },
  "0077": {
    "postcode": "8770077",
    "prefecture": "大分県",
    "prefecture_kana": "オオイタケン",
    "prefecture_code": 44,
    "city": "日田市",
    "city_kana": "ヒタシ",
    "town": "南友田町",
    "town_kana": "ミナミトモダマチ",
    "street": null,
    "office_name": null,
    "office_name_kana": null
  },
  "0078": {
    "postcode": "8770078",
    "prefecture": "大分県",
    "prefecture_kana": "オオイタケン",
    "prefecture_code": 44,
    "city": "日田市",
    "city_kana": "ヒタシ",
    "town": "北友田",
    "town_kana": "キタトモダ",
    "street": null,
    "office_name": null,
    "office_name_kana": null
  },
  "0081": {
    "postcode": "8770081",
    "prefecture": "大分県",
    "prefecture_kana": "オオイタケン",
    "prefecture_code": 44,
    "city": "日田市",
    "city_kana": "ヒタシ",
    "town": "清岸寺町",
    "town_kana": "セイガンジマチ",
    "street": null,
    "office_name": null,
    "office_name_kana": null
  },
  "0082": {
    "postcode": "8770082",
    "prefecture": "大分県",
    "prefecture_kana": "オオイタケン",
    "prefecture_code": 44,
    "city": "日田市",
    "city_kana": "ヒタシ",
    "town": "日ノ出町",
    "town_kana": "ヒノデマチ",
    "street": null,
    "office_name": null,
    "office_name_kana": null
  },
  "0083": {
    "postcode": "8770083",
    "prefecture": "大分県",
    "prefecture_kana": "オオイタケン",
    "prefecture_code": 44,
    "city": "日田市",
    "city_kana": "ヒタシ",
    "town": "吹上町",
    "town_kana": "フキアゲマチ",
    "street": null,
    "office_name": null,
    "office_name_kana": null
  },
  "0084": {
    "postcode": "8770084",
    "prefecture": "大分県",
    "prefecture_kana": "オオイタケン",
    "prefecture_code": 44,
    "city": "日田市",
    "city_kana": "ヒタシ",
    "town": "朝日ケ丘",
    "town_kana": "アサヒガオカ",
    "street": null,
    "office_name": null,
    "office_name_kana": null
  },
  "0085": {
    "postcode": "8770085",
    "prefecture": "大分県",
    "prefecture_kana": "オオイタケン",
    "prefecture_code": 44,
    "city": "日田市",
    "city_kana": "ヒタシ",
    "town": "朝日町",
    "town_kana": "アサヒマチ",
    "street": null,
    "office_name": null,
    "office_name_kana": null
  },
  "0086": {
    "postcode": "8770086",
    "prefecture": "大分県",
    "prefecture_kana": "オオイタケン",
    "prefecture_code": 44,
    "city": "日田市",
    "city_kana": "ヒタシ",
    "town": "二串町",
    "town_kana": "ニクシチョウ",
    "street": null,
    "office_name": null,
    "office_name_kana": null
  },
  "0087": {
    "postcode": "8770087",
    "prefecture": "大分県",
    "prefecture_kana": "オオイタケン",
    "prefecture_code": 44,
    "city": "日田市",
    "city_kana": "ヒタシ",
    "town": "君迫町",
    "town_kana": "キミザコマチ",
    "street": null,
    "office_name": null,
    "office_name_kana": null
  },
  "0088": {
    "postcode": "8770088",
    "prefecture": "大分県",
    "prefecture_kana": "オオイタケン",
    "prefecture_code": 44,
    "city": "日田市",
    "city_kana": "ヒタシ",
    "town": "小迫町",
    "town_kana": "オザコマチ",
    "street": null,
    "office_name": null,
    "office_name_kana": null
  },
  "0089": {
    "postcode": "8770089",
    "prefecture": "大分県",
    "prefecture_kana": "オオイタケン",
    "prefecture_code": 44,
    "city": "日田市",
    "city_kana": "ヒタシ",
    "town": "山田町",
    "town_kana": "ヤマダマチ",
    "street": null,
    "office_name": null,
    "office_name_kana": null
  },
  "0111": {
    "postcode": "8770111",
    "prefecture": "大分県",
    "prefecture_kana": "オオイタケン",
    "prefecture_code": 44,
    "city": "日田市",
    "city_kana": "ヒタシ",
    "town": "天瀬町五馬市",
    "town_kana": "アマガセマチイツマイチ",
    "street": null,
    "office_name": null,
    "office_name_kana": null
  },
  "0112": {
    "postcode": "8770112",
    "prefecture": "大分県",
    "prefecture_kana": "オオイタケン",
    "prefecture_code": 44,
    "city": "日田市",
    "city_kana": "ヒタシ",
    "town": "天瀬町本城",
    "town_kana": "アマガセマチホンジョウ",
    "street": null,
    "office_name": null,
    "office_name_kana": null
  },
  "0113": {
    "postcode": "8770113",
    "prefecture": "大分県",
    "prefecture_kana": "オオイタケン",
    "prefecture_code": 44,
    "city": "日田市",
    "city_kana": "ヒタシ",
    "town": "天瀬町塚田",
    "town_kana": "アマガセマチツカダ",
    "street": null,
    "office_name": null,
    "office_name_kana": null
  },
  "0114": {
    "postcode": "8770114",
    "prefecture": "大分県",
    "prefecture_kana": "オオイタケン",
    "prefecture_code": 44,
    "city": "日田市",
    "city_kana": "ヒタシ",
    "town": "天瀬町出口",
    "town_kana": "アマガセマチイデグチ",
    "street": null,
    "office_name": null,
    "office_name_kana": null
  },
  "0201": {
    "postcode": "8770201",
    "prefecture": "大分県",
    "prefecture_kana": "オオイタケン",
    "prefecture_code": 44,
    "city": "日田市",
    "city_kana": "ヒタシ",
    "town": "大山町西大山",
    "town_kana": "オオヤママチニシオオヤマ",
    "street": null,
    "office_name": null,
    "office_name_kana": null
  },
  "0202": {
    "postcode": "8770202",
    "prefecture": "大分県",
    "prefecture_kana": "オオイタケン",
    "prefecture_code": 44,
    "city": "日田市",
    "city_kana": "ヒタシ",
    "town": "大山町東大山",
    "town_kana": "オオヤママチヒガシオオヤマ",
    "street": null,
    "office_name": null,
    "office_name_kana": null
  },
  "0211": {
    "postcode": "8770211",
    "prefecture": "大分県",
    "prefecture_kana": "オオイタケン",
    "prefecture_code": 44,
    "city": "日田市",
    "city_kana": "ヒタシ",
    "town": "前津江町赤石",
    "town_kana": "マエツエマチアカイシ",
    "street": null,
    "office_name": null,
    "office_name_kana": null
  },
  "0212": {
    "postcode": "8770212",
    "prefecture": "大分県",
    "prefecture_kana": "オオイタケン",
    "prefecture_code": 44,
    "city": "日田市",
    "city_kana": "ヒタシ",
    "town": "前津江町大野",
    "town_kana": "マエツエマチオオノ",
    "street": null,
    "office_name": null,
    "office_name_kana": null
  },
  "0221": {
    "postcode": "8770221",
    "prefecture": "大分県",
    "prefecture_kana": "オオイタケン",
    "prefecture_code": 44,
    "city": "日田市",
    "city_kana": "ヒタシ",
    "town": "前津江町柚木",
    "town_kana": "マエツエマチユウギ",
    "street": null,
    "office_name": null,
    "office_name_kana": null
  },
  "0296": {
    "postcode": "8770296",
    "prefecture": "大分県",
    "prefecture_kana": "オオイタケン",
    "prefecture_code": 44,
    "city": "日田市",
    "city_kana": "ヒタシ",
    "town": "大山町西大山",
    "town_kana": "オオヤママチニシオオヤマ",
    "street": "３４８７",
    "office_name": "大分大山町農業協同組合",
    "office_name_kana": "オオイタオオヤママチノウギヨウキヨウドウクミアイ"
  },
  "0301": {
    "postcode": "8770301",
    "prefecture": "大分県",
    "prefecture_kana": "オオイタケン",
    "prefecture_code": 44,
    "city": "日田市",
    "city_kana": "ヒタシ",
    "town": "中津江村栃野",
    "town_kana": "ナカツエムラトチノ",
    "street": null,
    "office_name": null,
    "office_name_kana": null
  },
  "0302": {
    "postcode": "8770302",
    "prefecture": "大分県",
    "prefecture_kana": "オオイタケン",
    "prefecture_code": 44,
    "city": "日田市",
    "city_kana": "ヒタシ",
    "town": "中津江村合瀬",
    "town_kana": "ナカツエムラゴウセ",
    "street": null,
    "office_name": null,
    "office_name_kana": null
  },
  "0311": {
    "postcode": "8770311",
    "prefecture": "大分県",
    "prefecture_kana": "オオイタケン",
    "prefecture_code": 44,
    "city": "日田市",
    "city_kana": "ヒタシ",
    "town": "上津江町川原",
    "town_kana": "カミツエマチカワバル",
    "street": null,
    "office_name": null,
    "office_name_kana": null
  },
  "0312": {
    "postcode": "8770312",
    "prefecture": "大分県",
    "prefecture_kana": "オオイタケン",
    "prefecture_code": 44,
    "city": "日田市",
    "city_kana": "ヒタシ",
    "town": "上津江町上野田",
    "town_kana": "カミツエマチカミノダ",
    "street": null,
    "office_name": null,
    "office_name_kana": null
  },
  "0392": {
    "postcode": "8770392",
    "prefecture": "大分県",
    "prefecture_kana": "オオイタケン",
    "prefecture_code": 44,
    "city": "日田市",
    "city_kana": "ヒタシ",
    "town": "中津江村栃野",
    "town_kana": "ナカツエムラトチノ",
    "street": "３５３",
    "office_name": "日田市役所　中津江振興局",
    "office_name_kana": "ヒタシヤクシヨ ナカツエシンコウキヨク"
  },
  "0393": {
    "postcode": "8770393",
    "prefecture": "大分県",
    "prefecture_kana": "オオイタケン",
    "prefecture_code": 44,
    "city": "日田市",
    "city_kana": "ヒタシ",
    "town": "上津江町川原",
    "town_kana": "カミツエマチカワバル",
    "street": "２７１０",
    "office_name": "日田市役所　上津江振興局",
    "office_name_kana": "ヒタシヤクシヨ カミツエシンコウキヨク"
  },
  "1101": {
    "postcode": "8771101",
    "prefecture": "大分県",
    "prefecture_kana": "オオイタケン",
    "prefecture_code": 44,
    "city": "日田市",
    "city_kana": "ヒタシ",
    "town": "鶴城町",
    "town_kana": "ツルギマチ",
    "street": null,
    "office_name": null,
    "office_name_kana": null
  },
  "1102": {
    "postcode": "8771102",
    "prefecture": "大分県",
    "prefecture_kana": "オオイタケン",
    "prefecture_code": 44,
    "city": "日田市",
    "city_kana": "ヒタシ",
    "town": "上宮町",
    "town_kana": "ジョウグウマチ",
    "street": null,
    "office_name": null,
    "office_name_kana": null
  },
  "1103": {
    "postcode": "8771103",
    "prefecture": "大分県",
    "prefecture_kana": "オオイタケン",
    "prefecture_code": 44,
    "city": "日田市",
    "city_kana": "ヒタシ",
    "town": "鶴河内町",
    "town_kana": "ツルガワチマチ",
    "street": null,
    "office_name": null,
    "office_name_kana": null
  },
  "1104": {
    "postcode": "8771104",
    "prefecture": "大分県",
    "prefecture_kana": "オオイタケン",
    "prefecture_code": 44,
    "city": "日田市",
    "city_kana": "ヒタシ",
    "town": "大鶴本町",
    "town_kana": "オオツルホンマチ",
    "street": null,
    "office_name": null,
    "office_name_kana": null
  },
  "1105": {
    "postcode": "8771105",
    "prefecture": "大分県",
    "prefecture_kana": "オオイタケン",
    "prefecture_code": 44,
    "city": "日田市",
    "city_kana": "ヒタシ",
    "town": "大肥町",
    "town_kana": "オオヒマチ",
    "street": null,
    "office_name": null,
    "office_name_kana": null
  },
  "1106": {
    "postcode": "8771106",
    "prefecture": "大分県",
    "prefecture_kana": "オオイタケン",
    "prefecture_code": 44,
    "city": "日田市",
    "city_kana": "ヒタシ",
    "town": "大肥本町",
    "town_kana": "オオヒホンマチ",
    "street": null,
    "office_name": null,
    "office_name_kana": null
  },
  "1107": {
    "postcode": "8771107",
    "prefecture": "大分県",
    "prefecture_kana": "オオイタケン",
    "prefecture_code": 44,
    "city": "日田市",
    "city_kana": "ヒタシ",
    "town": "大鶴町",
    "town_kana": "オオツルマチ",
    "street": null,
    "office_name": null,
    "office_name_kana": null
  },
  "1111": {
    "postcode": "8771111",
    "prefecture": "大分県",
    "prefecture_kana": "オオイタケン",
    "prefecture_code": 44,
    "city": "日田市",
    "city_kana": "ヒタシ",
    "town": "夜明上町",
    "town_kana": "ヨアケカミマチ",
    "street": null,
    "office_name": null,
    "office_name_kana": null
  },
  "1112": {
    "postcode": "8771112",
    "prefecture": "大分県",
    "prefecture_kana": "オオイタケン",
    "prefecture_code": 44,
    "city": "日田市",
    "city_kana": "ヒタシ",
    "town": "夜明中町",
    "town_kana": "ヨアケナカマチ",
    "street": null,
    "office_name": null,
    "office_name_kana": null
  },
  "1113": {
    "postcode": "8771113",
    "prefecture": "大分県",
    "prefecture_kana": "オオイタケン",
    "prefecture_code": 44,
    "city": "日田市",
    "city_kana": "ヒタシ",
    "town": "夜明関町",
    "town_kana": "ヨアケセキマチ",
    "street": null,
    "office_name": null,
    "office_name_kana": null
  },
  "1121": [
    {
      "postcode": "8771121",
      "prefecture": "大分県",
      "prefecture_kana": "オオイタケン",
      "prefecture_code": 44,
      "city": "日田市",
      "city_kana": "ヒタシ",
      "town": "源栄町",
      "town_kana": "モトエマチ",
      "street": null,
      "office_name": null,
      "office_name_kana": null
    },
    {
      "postcode": "8771121",
      "prefecture": "大分県",
      "prefecture_kana": "オオイタケン",
      "prefecture_code": 44,
      "city": "日田市",
      "city_kana": "ヒタシ",
      "town": "源栄町池ノ鶴",
      "town_kana": "モトエマチイケノツル",
      "street": null,
      "office_name": null,
      "office_name_kana": null
    },
    {
      "postcode": "8771121",
      "prefecture": "大分県",
      "prefecture_kana": "オオイタケン",
      "prefecture_code": 44,
      "city": "日田市",
      "city_kana": "ヒタシ",
      "town": "源栄町皿山",
      "town_kana": "モトエマチサラヤマ",
      "street": null,
      "office_name": null,
      "office_name_kana": null
    }
  ],
  "1221": {
    "postcode": "8771221",
    "prefecture": "大分県",
    "prefecture_kana": "オオイタケン",
    "prefecture_code": 44,
    "city": "日田市",
    "city_kana": "ヒタシ",
    "town": "伏木町",
    "town_kana": "フシキマチ",
    "street": null,
    "office_name": null,
    "office_name_kana": null
  },
  "1222": {
    "postcode": "8771222",
    "prefecture": "大分県",
    "prefecture_kana": "オオイタケン",
    "prefecture_code": 44,
    "city": "日田市",
    "city_kana": "ヒタシ",
    "town": "小河内町",
    "town_kana": "オガワチマチ",
    "street": null,
    "office_name": null,
    "office_name_kana": null
  },
  "1223": {
    "postcode": "8771223",
    "prefecture": "大分県",
    "prefecture_kana": "オオイタケン",
    "prefecture_code": 44,
    "city": "日田市",
    "city_kana": "ヒタシ",
    "town": "市ノ瀬町",
    "town_kana": "イチノセマチ",
    "street": null,
    "office_name": null,
    "office_name_kana": null
  },
  "1224": {
    "postcode": "8771224",
    "prefecture": "大分県",
    "prefecture_kana": "オオイタケン",
    "prefecture_code": 44,
    "city": "日田市",
    "city_kana": "ヒタシ",
    "town": "秋原町",
    "town_kana": "アキバルマチ",
    "street": null,
    "office_name": null,
    "office_name_kana": null
  },
  "1225": {
    "postcode": "8771225",
    "prefecture": "大分県",
    "prefecture_kana": "オオイタケン",
    "prefecture_code": 44,
    "city": "日田市",
    "city_kana": "ヒタシ",
    "town": "藤山町",
    "town_kana": "フジヤママチ",
    "street": null,
    "office_name": null,
    "office_name_kana": null
  },
  "1231": {
    "postcode": "8771231",
    "prefecture": "大分県",
    "prefecture_kana": "オオイタケン",
    "prefecture_code": 44,
    "city": "日田市",
    "city_kana": "ヒタシ",
    "town": "財津町",
    "town_kana": "ザイツマチ",
    "street": null,
    "office_name": null,
    "office_name_kana": null
  },
  "1232": {
    "postcode": "8771232",
    "prefecture": "大分県",
    "prefecture_kana": "オオイタケン",
    "prefecture_code": 44,
    "city": "日田市",
    "city_kana": "ヒタシ",
    "town": "清水町",
    "town_kana": "シミズマチ",
    "street": null,
    "office_name": null,
    "office_name_kana": null
  },
  "1233": {
    "postcode": "8771233",
    "prefecture": "大分県",
    "prefecture_kana": "オオイタケン",
    "prefecture_code": 44,
    "city": "日田市",
    "city_kana": "ヒタシ",
    "town": "三和団地",
    "town_kana": "ミワダンチ",
    "street": null,
    "office_name": null,
    "office_name_kana": null
  },
  "1234": {
    "postcode": "8771234",
    "prefecture": "大分県",
    "prefecture_kana": "オオイタケン",
    "prefecture_code": 44,
    "city": "日田市",
    "city_kana": "ヒタシ",
    "town": "天神町",
    "town_kana": "テンジンマチ",
    "street": null,
    "office_name": null,
    "office_name_kana": null
  },
  "1241": {
    "postcode": "8771241",
    "prefecture": "大分県",
    "prefecture_kana": "オオイタケン",
    "prefecture_code": 44,
    "city": "日田市",
    "city_kana": "ヒタシ",
    "town": "源栄町",
    "town_kana": "モトエマチ",
    "street": null,
    "office_name": null,
    "office_name_kana": null
  },
  "1242": {
    "postcode": "8771242",
    "prefecture": "大分県",
    "prefecture_kana": "オオイタケン",
    "prefecture_code": 44,
    "city": "日田市",
    "city_kana": "ヒタシ",
    "town": "殿町",
    "town_kana": "トノマチ",
    "street": null,
    "office_name": null,
    "office_name_kana": null
  },
  "1243": {
    "postcode": "8771243",
    "prefecture": "大分県",
    "prefecture_kana": "オオイタケン",
    "prefecture_code": 44,
    "city": "日田市",
    "city_kana": "ヒタシ",
    "town": "鈴連町",
    "town_kana": "スズレマチ",
    "street": null,
    "office_name": null,
    "office_name_kana": null
  },
  "1244": {
    "postcode": "8771244",
    "prefecture": "大分県",
    "prefecture_kana": "オオイタケン",
    "prefecture_code": 44,
    "city": "日田市",
    "city_kana": "ヒタシ",
    "town": "三河町",
    "town_kana": "ミカワマチ",
    "street": null,
    "office_name": null,
    "office_name_kana": null
  },
  "1292": {
    "postcode": "8771292",
    "prefecture": "大分県",
    "prefecture_kana": "オオイタケン",
    "prefecture_code": 44,
    "city": "日田市",
    "city_kana": "ヒタシ",
    "town": "大字三和",
    "town_kana": null,
    "street": "清水町６４３−７",
    "office_name": "大分県　済生会　日田病院",
    "office_name_kana": "オオイタケン サイセイカイ ヒタビヨウイン"
  },
  "1351": {
    "postcode": "8771351",
    "prefecture": "大分県",
    "prefecture_kana": "オオイタケン",
    "prefecture_code": 44,
    "city": "日田市",
    "city_kana": "ヒタシ",
    "town": "三ノ宮町",
    "town_kana": "サンノミヤマチ",
    "street": null,
    "office_name": null,
    "office_name_kana": null
  },
  "1352": {
    "postcode": "8771352",
    "prefecture": "大分県",
    "prefecture_kana": "オオイタケン",
    "prefecture_code": 44,
    "city": "日田市",
    "city_kana": "ヒタシ",
    "town": "石松町",
    "town_kana": "イシマツマチ",
    "street": null,
    "office_name": null,
    "office_name_kana": null
  },
  "1353": {
    "postcode": "8771353",
    "prefecture": "大分県",
    "prefecture_kana": "オオイタケン",
    "prefecture_code": 44,
    "city": "日田市",
    "city_kana": "ヒタシ",
    "town": "上手町",
    "town_kana": "ノボテマチ",
    "street": null,
    "office_name": null,
    "office_name_kana": null
  },
  "1354": {
    "postcode": "8771354",
    "prefecture": "大分県",
    "prefecture_kana": "オオイタケン",
    "prefecture_code": 44,
    "city": "日田市",
    "city_kana": "ヒタシ",
    "town": "坂井町",
    "town_kana": "サカイマチ",
    "street": null,
    "office_name": null,
    "office_name_kana": null
  },
  "1361": {
    "postcode": "8771361",
    "prefecture": "大分県",
    "prefecture_kana": "オオイタケン",
    "prefecture_code": 44,
    "city": "日田市",
    "city_kana": "ヒタシ",
    "town": "有田町",
    "town_kana": "アリタマチ",
    "street": null,
    "office_name": null,
    "office_name_kana": null
  },
  "1362": {
    "postcode": "8771362",
    "prefecture": "大分県",
    "prefecture_kana": "オオイタケン",
    "prefecture_code": 44,
    "city": "日田市",
    "city_kana": "ヒタシ",
    "town": "尾当町",
    "town_kana": "オトウマチ",
    "street": null,
    "office_name": null,
    "office_name_kana": null
  },
  "1363": {
    "postcode": "8771363",
    "prefecture": "大分県",
    "prefecture_kana": "オオイタケン",
    "prefecture_code": 44,
    "city": "日田市",
    "city_kana": "ヒタシ",
    "town": "中尾町",
    "town_kana": "ナカオマチ",
    "street": null,
    "office_name": null,
    "office_name_kana": null
  },
  "1364": {
    "postcode": "8771364",
    "prefecture": "大分県",
    "prefecture_kana": "オオイタケン",
    "prefecture_code": 44,
    "city": "日田市",
    "city_kana": "ヒタシ",
    "town": "三池町",
    "town_kana": "ミイケマチ",
    "street": null,
    "office_name": null,
    "office_name_kana": null
  },
  "1365": {
    "postcode": "8771365",
    "prefecture": "大分県",
    "prefecture_kana": "オオイタケン",
    "prefecture_code": 44,
    "city": "日田市",
    "city_kana": "ヒタシ",
    "town": "水目町",
    "town_kana": "ミズメマチ",
    "street": null,
    "office_name": null,
    "office_name_kana": null
  },
  "1366": {
    "postcode": "8771366",
    "prefecture": "大分県",
    "prefecture_kana": "オオイタケン",
    "prefecture_code": 44,
    "city": "日田市",
    "city_kana": "ヒタシ",
    "town": "あやめ台",
    "town_kana": "アヤメダイ",
    "street": null,
    "office_name": null,
    "office_name_kana": null
  },
  "1371": {
    "postcode": "8771371",
    "prefecture": "大分県",
    "prefecture_kana": "オオイタケン",
    "prefecture_code": 44,
    "city": "日田市",
    "city_kana": "ヒタシ",
    "town": "諸留町",
    "town_kana": "モロドメマチ",
    "street": null,
    "office_name": null,
    "office_name_kana": null
  },
  "1372": {
    "postcode": "8771372",
    "prefecture": "大分県",
    "prefecture_kana": "オオイタケン",
    "prefecture_code": 44,
    "city": "日田市",
    "city_kana": "ヒタシ",
    "town": "上諸留町",
    "town_kana": "カミモロドメマチ",
    "street": null,
    "office_name": null,
    "office_name_kana": null
  },
  "1373": {
    "postcode": "8771373",
    "prefecture": "大分県",
    "prefecture_kana": "オオイタケン",
    "prefecture_code": 44,
    "city": "日田市",
    "city_kana": "ヒタシ",
    "town": "月出町",
    "town_kana": "ツキデマチ",
    "street": null,
    "office_name": null,
    "office_name_kana": null
  },
  "1374": {
    "postcode": "8771374",
    "prefecture": "大分県",
    "prefecture_kana": "オオイタケン",
    "prefecture_code": 44,
    "city": "日田市",
    "city_kana": "ヒタシ",
    "town": "松野町",
    "town_kana": "マツノマチ",
    "street": null,
    "office_name": null,
    "office_name_kana": null
  },
  "1375": {
    "postcode": "8771375",
    "prefecture": "大分県",
    "prefecture_kana": "オオイタケン",
    "prefecture_code": 44,
    "city": "日田市",
    "city_kana": "ヒタシ",
    "town": "池辺町",
    "town_kana": "イケベマチ",
    "street": null,
    "office_name": null,
    "office_name_kana": null
  },
  "1381": {
    "postcode": "8771381",
    "prefecture": "大分県",
    "prefecture_kana": "オオイタケン",
    "prefecture_code": 44,
    "city": "日田市",
    "city_kana": "ヒタシ",
    "town": "東羽田町",
    "town_kana": "ヒガシハタマチ",
    "street": null,
    "office_name": null,
    "office_name_kana": null
  },
  "1382": {
    "postcode": "8771382",
    "prefecture": "大分県",
    "prefecture_kana": "オオイタケン",
    "prefecture_code": 44,
    "city": "日田市",
    "city_kana": "ヒタシ",
    "town": "日の本町",
    "town_kana": "ヒノモトマチ",
    "street": null,
    "office_name": null,
    "office_name_kana": null
  },
  "1383": {
    "postcode": "8771383",
    "prefecture": "大分県",
    "prefecture_kana": "オオイタケン",
    "prefecture_code": 44,
    "city": "日田市",
    "city_kana": "ヒタシ",
    "town": "岩美町",
    "town_kana": "イワミマチ",
    "street": null,
    "office_name": null,
    "office_name_kana": null
  },
  "1384": {
    "postcode": "8771384",
    "prefecture": "大分県",
    "prefecture_kana": "オオイタケン",
    "prefecture_code": 44,
    "city": "日田市",
    "city_kana": "ヒタシ",
    "town": "羽田町",
    "town_kana": "ハタマチ",
    "street": null,
    "office_name": null,
    "office_name_kana": null
  },
  "8501": {
    "postcode": "8778501",
    "prefecture": "大分県",
    "prefecture_kana": "オオイタケン",
    "prefecture_code": 44,
    "city": "日田市",
    "city_kana": "ヒタシ",
    "town": "大字十二町",
    "town_kana": null,
    "street": "５０３",
    "office_name": "中央発条工業　株式会社",
    "office_name_kana": "チユウオウハツジヨウコウギヨウ カブシキガイシヤ"
  },
  "8555": {
    "postcode": "8778555",
    "prefecture": "大分県",
    "prefecture_kana": "オオイタケン",
    "prefecture_code": 44,
    "city": "日田市",
    "city_kana": "ヒタシ",
    "town": "大字友田",
    "town_kana": null,
    "street": "９１０",
    "office_name": "ニッポー物流サービス　株式会社",
    "office_name_kana": "ニツポ-ブツリユウサ-ビス カブシキガイシヤ"
  },
  "8601": {
    "postcode": "8778601",
    "prefecture": "大分県",
    "prefecture_kana": "オオイタケン",
    "prefecture_code": 44,
    "city": "日田市",
    "city_kana": "ヒタシ",
    "town": "田島",
    "town_kana": "タシマ",
    "street": "２丁目６−１（日田郵便局私書箱第２０号）",
    "office_name": "日田市役所",
    "office_name_kana": "ヒタシヤクシヨ"
  },
  "8686": {
    "postcode": "8778686",
    "prefecture": "大分県",
    "prefecture_kana": "オオイタケン",
    "prefecture_code": 44,
    "city": "日田市",
    "city_kana": "ヒタシ",
    "town": "三本松",
    "town_kana": "サンボンマツ",
    "street": "２丁目２−１６（日田郵便局私書箱第２６号）",
    "office_name": "日田商工会議所",
    "office_name_kana": "ヒタシヨウコウカイギシヨ"
  }
}