{
  "0000": {
    "postcode": "8780000",
    "prefecture": "大分県",
    "prefecture_kana": "オオイタケン",
    "prefecture_code": 44,
    "city": "竹田市",
    "city_kana": "タケタシ",
    "town": "",
    "town_kana": "",
    "street": null,
    "office_name": null,
    "office_name_kana": null
  },
  "0001": {
    "postcode": "8780001",
    "prefecture": "大分県",
    "prefecture_kana": "オオイタケン",
    "prefecture_code": 44,
    "city": "竹田市",
    "city_kana": "タケタシ",
    "town": "植木",
    "town_kana": "ウエキ",
    "street": null,
    "office_name": null,
    "office_name_kana": null
  },
  "0002": {
    "postcode": "8780002",
    "prefecture": "大分県",
    "prefecture_kana": "オオイタケン",
    "prefecture_code": 44,
    "city": "竹田市",
    "city_kana": "タケタシ",
    "town": "枝",
    "town_kana": "エダ",
    "street": null,
    "office_name": null,
    "office_name_kana": null
  },
  "0003": {
    "postcode": "8780003",
    "prefecture": "大分県",
    "prefecture_kana": "オオイタケン",
    "prefecture_code": 44,
    "city": "竹田市",
    "city_kana": "タケタシ",
    "town": "片ケ瀬",
    "town_kana": "カタカセ",
    "street": null,
    "office_name": null,
    "office_name_kana": null
  },
  "0004": {
    "postcode": "8780004",
    "prefecture": "大分県",
    "prefecture_kana": "オオイタケン",
    "prefecture_code": 44,
    "city": "竹田市",
    "city_kana": "タケタシ",
    "town": "中",
    "town_kana": "ナカ",
    "street": null,
    "office_name": null,
    "office_name_kana": null
  },
  "0005": {
    "postcode": "8780005",
    "prefecture": "大分県",
    "prefecture_kana": "オオイタケン",
    "prefecture_code": 44,
    "city": "竹田市",
    "city_kana": "タケタシ",
    "town": "挾田",
    "town_kana": "ハサダ",
    "street": null,
    "office_name": null,
    "office_name_kana": null
  },
  "0006": {
    "postcode": "8780006",
    "prefecture": "大分県",
    "prefecture_kana": "オオイタケン",
    "prefecture_code": 44,
    "city": "竹田市",
    "city_kana": "タケタシ",
    "town": "平田",
    "town_kana": "ヒラタ",
    "street": null,
    "office_name": null,
    "office_name_kana": null
  },
  "0007": {
    "postcode": "8780007",
    "prefecture": "大分県",
    "prefecture_kana": "オオイタケン",
    "prefecture_code": 44,
    "city": "竹田市",
    "city_kana": "タケタシ",
    "town": "三宅",
    "town_kana": "ミヤケ",
    "street": null,
    "office_name": null,
    "office_name_kana": null
  },
  "0011": {
    "postcode": "8780011",
    "prefecture": "大分県",
    "prefecture_kana": "オオイタケン",
    "prefecture_code": 44,
    "city": "竹田市",
    "city_kana": "タケタシ",
    "town": "会々",
    "town_kana": "アイアイ",
    "street": null,
    "office_name": null,
    "office_name_kana": null
  },
  "0012": {
    "postcode": "8780012",
    "prefecture": "大分県",
    "prefecture_kana": "オオイタケン",
    "prefecture_code": 44,
    "city": "竹田市",
    "city_kana": "タケタシ",
    "town": "竹田町",
    "town_kana": "タケタマチ",
    "street": null,
    "office_name": null,
    "office_name_kana": null
  },
  "0013": {
    "postcode": "8780013",
    "prefecture": "大分県",
    "prefecture_kana": "オオイタケン",
    "prefecture_code": 44,
    "city": "竹田市",
    "city_kana": "タケタシ",
    "town": "竹田",
    "town_kana": "タケタ",
    "street": null,
    "office_name": null,
    "office_name_kana": null
  },
  "0021": {
    "postcode": "8780021",
    "prefecture": "大分県",
    "prefecture_kana": "オオイタケン",
    "prefecture_code": 44,
    "city": "竹田市",
    "city_kana": "タケタシ",
    "town": "穴井迫",
    "town_kana": "アナイザコ",
    "street": null,
    "office_name": null,
    "office_name_kana": null
  },
  "0022": {
    "postcode": "8780022",
    "prefecture": "大分県",
    "prefecture_kana": "オオイタケン",
    "prefecture_code": 44,
    "city": "竹田市",
    "city_kana": "タケタシ",
    "town": "岩瀬",
    "town_kana": "イワセ",
    "street": null,
    "office_name": null,
    "office_name_kana": null
  },
  "0023": {
    "postcode": "8780023",
    "prefecture": "大分県",
    "prefecture_kana": "オオイタケン",
    "prefecture_code": 44,
    "city": "竹田市",
    "city_kana": "タケタシ",
    "town": "君ケ園",
    "town_kana": "キミガソノ",
    "street": null,
    "office_name": null,
    "office_name_kana": null
  },
  "0024": {
    "postcode": "8780024",
    "prefecture": "大分県",
    "prefecture_kana": "オオイタケン",
    "prefecture_code": 44,
    "city": "竹田市",
    "city_kana": "タケタシ",
    "town": "玉来",
    "town_kana": "タマライ",
    "street": null,
    "office_name": null,
    "office_name_kana": null
  },
  "0025": {
    "postcode": "8780025",
    "prefecture": "大分県",
    "prefecture_kana": "オオイタケン",
    "prefecture_code": 44,
    "city": "竹田市",
    "city_kana": "タケタシ",
    "town": "拝田原",
    "town_kana": "ハイタバル",
    "street": null,
    "office_name": null,
    "office_name_kana": null
  },
  "0026": {
    "postcode": "8780026",
    "prefecture": "大分県",
    "prefecture_kana": "オオイタケン",
    "prefecture_code": 44,
    "city": "竹田市",
    "city_kana": "タケタシ",
    "town": "飛田川",
    "town_kana": "ヒダガワ",
    "street": null,
    "office_name": null,
    "office_name_kana": null
  },
  "0027": {
    "postcode": "8780027",
    "prefecture": "大分県",
    "prefecture_kana": "オオイタケン",
    "prefecture_code": 44,
    "city": "竹田市",
    "city_kana": "タケタシ",
    "town": "向山田",
    "town_kana": "ムコウヤマダ",
    "street": null,
    "office_name": null,
    "office_name_kana": null
  },
  "0028": {
    "postcode": "8780028",
    "prefecture": "大分県",
    "prefecture_kana": "オオイタケン",
    "prefecture_code": 44,
    "city": "竹田市",
    "city_kana": "タケタシ",
    "town": "渡瀬",
    "town_kana": "ワタセ",
    "street": null,
    "office_name": null,
    "office_name_kana": null
  },
  "0031": {
    "postcode": "8780031",
    "prefecture": "大分県",
    "prefecture_kana": "オオイタケン",
    "prefecture_code": 44,
    "city": "竹田市",
    "city_kana": "タケタシ",
    "town": "岩本",
    "town_kana": "イワモト",
    "street": null,
    "office_name": null,
    "office_name_kana": null
  },
  "0032": {
    "postcode": "8780032",
    "prefecture": "大分県",
    "prefecture_kana": "オオイタケン",
    "prefecture_code": 44,
    "city": "竹田市",
    "city_kana": "タケタシ",
    "town": "太田",
    "town_kana": "オオタ",
    "street": null,
    "office_name": null,
    "office_name_kana": null
  },
  "0033": {
    "postcode": "8780033",
    "prefecture": "大分県",
    "prefecture_kana": "オオイタケン",
    "prefecture_code": 44,
    "city": "竹田市",
    "city_kana": "タケタシ",
    "town": "入田",
    "town_kana": "ニュウタ",
    "street": null,
    "office_name": null,
    "office_name_kana": null
  },
  "0034": {
    "postcode": "8780034",
    "prefecture": "大分県",
    "prefecture_kana": "オオイタケン",
    "prefecture_code": 44,
    "city": "竹田市",
    "city_kana": "タケタシ",
    "town": "門田",
    "town_kana": "モンデン",
    "street": null,
    "office_name": null,
    "office_name_kana": null
  },
  "0035": {
    "postcode": "8780035",
    "prefecture": "大分県",
    "prefecture_kana": "オオイタケン",
    "prefecture_code": 44,
    "city": "竹田市",
    "city_kana": "タケタシ",
    "town": "吉田",
    "town_kana": "ヨシダ",
    "street": null,
    "office_name": null,
    "office_name_kana": null
  },
  "0141": {
    "postcode": "8780141",
    "prefecture": "大分県",
    "prefecture_kana": "オオイタケン",
    "prefecture_code": 44,
    "city": "竹田市",
    "city_kana": "タケタシ",
    "town": "小川",
    "town_kana": "オガワ",
    "street": null,
    "office_name": null,
    "office_name_kana": null
  },
  "0142": {
    "postcode": "8780142",
    "prefecture": "大分県",
    "prefecture_kana": "オオイタケン",
    "prefecture_code": 44,
    "city": "竹田市",
    "city_kana": "タケタシ",
    "town": "福原",
    "town_kana": "フクハラ",
    "street": null,
    "office_name": null,
    "office_name_kana": null
  },
  "0143": {
    "postcode": "8780143",
    "prefecture": "大分県",
    "prefecture_kana": "オオイタケン",
    "prefecture_code": 44,
    "city": "竹田市",
    "city_kana": "タケタシ",
    "town": "城原",
    "town_kana": "キバル",
    "street": null,
    "office_name": null,
    "office_name_kana": null
  },
  "0144": {
    "postcode": "8780144",
    "prefecture": "大分県",
    "prefecture_kana": "オオイタケン",
    "prefecture_code": 44,
    "city": "竹田市",
    "city_kana": "タケタシ",
    "town": "高伏",
    "town_kana": "タカブシ",
    "street": null,
    "office_name": null,
    "office_name_kana": null
  },
  "0145": {
    "postcode": "8780145",
    "prefecture": "大分県",
    "prefecture_kana": "オオイタケン",
    "prefecture_code": 44,
    "city": "竹田市",
    "city_kana": "タケタシ",
    "town": "米納",
    "town_kana": "ヨナイ",
    "street": null,
    "office_name": null,
    "office_name_kana": null
  },
  "0146": {
    "postcode": "8780146",
    "prefecture": "大分県",
    "prefecture_kana": "オオイタケン",
    "prefecture_code": 44,
    "city": "竹田市",
    "city_kana": "タケタシ",
    "town": "古園",
    "town_kana": "フルゾノ",
    "street": null,
    "office_name": null,
    "office_name_kana": null
  },
  "0151": {
    "postcode": "8780151",
    "prefecture": "大分県",
    "prefecture_kana": "オオイタケン",
    "prefecture_code": 44,
    "city": "竹田市",
    "city_kana": "タケタシ",
    "town": "下坂田",
    "town_kana": "シモサカダ",
    "street": null,
    "office_name": null,
    "office_name_kana": null
  },
  "0152": {
    "postcode": "8780152",
    "prefecture": "大分県",
    "prefecture_kana": "オオイタケン",
    "prefecture_code": 44,
    "city": "竹田市",
    "city_kana": "タケタシ",
    "town": "下志土知",
    "town_kana": "シモシトチ",
    "street": null,
    "office_name": null,
    "office_name_kana": null
  },
  "0153": {
    "postcode": "8780153",
    "prefecture": "大分県",
    "prefecture_kana": "オオイタケン",
    "prefecture_code": 44,
    "city": "竹田市",
    "city_kana": "タケタシ",
    "town": "市用",
    "town_kana": "イチモチ",
    "street": null,
    "office_name": null,
    "office_name_kana": null
  },
  "0154": {
    "postcode": "8780154",
    "prefecture": "大分県",
    "prefecture_kana": "オオイタケン",
    "prefecture_code": 44,
    "city": "竹田市",
    "city_kana": "タケタシ",
    "town": "川床",
    "town_kana": "カワドコ",
    "street": null,
    "office_name": null,
    "office_name_kana": null
  },
  "0155": {
    "postcode": "8780155",
    "prefecture": "大分県",
    "prefecture_kana": "オオイタケン",
    "prefecture_code": 44,
    "city": "竹田市",
    "city_kana": "タケタシ",
    "town": "志土知",
    "town_kana": "シトチ",
    "street": null,
    "office_name": null,
    "office_name_kana": null
  },
  "0156": {
    "postcode": "8780156",
    "prefecture": "大分県",
    "prefecture_kana": "オオイタケン",
    "prefecture_code": 44,
    "city": "竹田市",
    "city_kana": "タケタシ",
    "town": "久保",
    "town_kana": "クボ",
    "street": null,
    "office_name": null,
    "office_name_kana": null
  },
  "0161": {
    "postcode": "8780161",
    "prefecture": "大分県",
    "prefecture_kana": "オオイタケン",
    "prefecture_code": 44,
    "city": "竹田市",
    "city_kana": "タケタシ",
    "town": "上坂田",
    "town_kana": "カミサカダ",
    "street": null,
    "office_name": null,
    "office_name_kana": null
  },
  "0162": {
    "postcode": "8780162",
    "prefecture": "大分県",
    "prefecture_kana": "オオイタケン",
    "prefecture_code": 44,
    "city": "竹田市",
    "city_kana": "タケタシ",
    "town": "炭竈",
    "town_kana": "スミカマド",
    "street": null,
    "office_name": null,
    "office_name_kana": null
  },
  "0163": {
    "postcode": "8780163",
    "prefecture": "大分県",
    "prefecture_kana": "オオイタケン",
    "prefecture_code": 44,
    "city": "竹田市",
    "city_kana": "タケタシ",
    "town": "上畑",
    "town_kana": "カミハタ",
    "street": null,
    "office_name": null,
    "office_name_kana": null
  },
  "0164": {
    "postcode": "8780164",
    "prefecture": "大分県",
    "prefecture_kana": "オオイタケン",
    "prefecture_code": 44,
    "city": "竹田市",
    "city_kana": "タケタシ",
    "town": "刈小野",
    "town_kana": "カリオノ",
    "street": null,
    "office_name": null,
    "office_name_kana": null
  },
  "0201": {
    "postcode": "8780201",
    "prefecture": "大分県",
    "prefecture_kana": "オオイタケン",
    "prefecture_code": 44,
    "city": "竹田市",
    "city_kana": "タケタシ",
    "town": "久住町久住",
    "town_kana": "クジュウマチクジュウ",
    "street": null,
    "office_name": null,
    "office_name_kana": null
  },
  "0202": {
    "postcode": "8780202",
    "prefecture": "大分県",
    "prefecture_kana": "オオイタケン",
    "prefecture_code": 44,
    "city": "竹田市",
    "city_kana": "タケタシ",
    "town": "久住町有氏",
    "town_kana": "クジュウマチアリウジ",
    "street": null,
    "office_name": null,
    "office_name_kana": null
  },
  "0203": {
    "postcode": "8780203",
    "prefecture": "大分県",
    "prefecture_kana": "オオイタケン",
    "prefecture_code": 44,
    "city": "竹田市",
    "city_kana": "タケタシ",
    "town": "久住町仏原",
    "town_kana": "クジュウマチブツバル",
    "street": null,
    "office_name": null,
    "office_name_kana": null
  },
  "0204": {
    "postcode": "8780204",
    "prefecture": "大分県",
    "prefecture_kana": "オオイタケン",
    "prefecture_code": 44,
    "city": "竹田市",
    "city_kana": "タケタシ",
    "town": "久住町栢木",
    "town_kana": "クジュウマチカヤギ",
    "street": null,
    "office_name": null,
    "office_name_kana": null
  },
  "0205": {
    "postcode": "8780205",
    "prefecture": "大分県",
    "prefecture_kana": "オオイタケン",
    "prefecture_code": 44,
    "city": "竹田市",
    "city_kana": "タケタシ",
    "town": "久住町白丹",
    "town_kana": "クジュウマチシラニ",
    "street": null,
    "office_name": null,
    "office_name_kana": null
  },
  "0206": {
    "postcode": "8780206",
    "prefecture": "大分県",
    "prefecture_kana": "オオイタケン",
    "prefecture_code": 44,
    "city": "竹田市",
    "city_kana": "タケタシ",
    "town": "久住町添ケ津留",
    "town_kana": "クジュウマチソエガツル",
    "street": null,
    "office_name": null,
    "office_name_kana": null
  },
  "0256": {
    "postcode": "8780256",
    "prefecture": "大分県",
    "prefecture_kana": "オオイタケン",
    "prefecture_code": 44,
    "city": "竹田市",
    "city_kana": "タケタシ",
    "town": "久保",
    "town_kana": "クボ",
    "street": null,
    "office_name": null,
    "office_name_kana": null
  },
  "0401": {
    "postcode": "8780401",
    "prefecture": "大分県",
    "prefecture_kana": "オオイタケン",
    "prefecture_code": 44,
    "city": "竹田市",
    "city_kana": "タケタシ",
    "town": "直入町神堤",
    "town_kana": "ナオイリマチカミツツミ",
    "street": null,
    "office_name": null,
    "office_name_kana": null
  },
  "0402": {
    "postcode": "8780402",
    "prefecture": "大分県",
    "prefecture_kana": "オオイタケン",
    "prefecture_code": 44,
    "city": "竹田市",
    "city_kana": "タケタシ",
    "town": "直入町長湯",
    "town_kana": "ナオイリマチナガユ",
    "street": null,
    "office_name": null,
    "office_name_kana": null
  },
  "0403": {
    "postcode": "8780403",
    "prefecture": "大分県",
    "prefecture_kana": "オオイタケン",
    "prefecture_code": 44,
    "city": "竹田市",
    "city_kana": "タケタシ",
    "town": "直入町上田北",
    "town_kana": "ナオイリマチカミタギタ",
    "street": null,
    "office_name": null,
    "office_name_kana": null
  },
  "0404": {
    "postcode": "8780404",
    "prefecture": "大分県",
    "prefecture_kana": "オオイタケン",
    "prefecture_code": 44,
    "city": "竹田市",
    "city_kana": "タケタシ",
    "town": "直入町下田北",
    "town_kana": "ナオイリマチシモタギタ",
    "street": null,
    "office_name": null,
    "office_name_kana": null
  },
  "0571": {
    "postcode": "8780571",
    "prefecture": "大分県",
    "prefecture_kana": "オオイタケン",
    "prefecture_code": 44,
    "city": "竹田市",
    "city_kana": "タケタシ",
    "town": "次倉",
    "town_kana": "ツギクラ",
    "street": null,
    "office_name": null,
    "office_name_kana": null
  },
  "0572": {
    "postcode": "8780572",
    "prefecture": "大分県",
    "prefecture_kana": "オオイタケン",
    "prefecture_code": 44,
    "city": "竹田市",
    "city_kana": "タケタシ",
    "town": "九重野",
    "town_kana": "クジュウノ",
    "street": null,
    "office_name": null,
    "office_name_kana": null
  },
  "0573": {
    "postcode": "8780573",
    "prefecture": "大分県",
    "prefecture_kana": "オオイタケン",
    "prefecture_code": 44,
    "city": "竹田市",
    "city_kana": "タケタシ",
    "town": "中角",
    "town_kana": "ナカツノ",
    "street": null,
    "office_name": null,
    "office_name_kana": null
  },
  "0574": {
    "postcode": "8780574",
    "prefecture": "大分県",
    "prefecture_kana": "オオイタケン",
    "prefecture_code": 44,
    "city": "竹田市",
    "city_kana": "タケタシ",
    "town": "神原",
    "town_kana": "コウバル",
    "street": null,
    "office_name": null,
    "office_name_kana": null
  },
  "0575": {
    "postcode": "8780575",
    "prefecture": "大分県",
    "prefecture_kana": "オオイタケン",
    "prefecture_code": 44,
    "city": "竹田市",
    "city_kana": "タケタシ",
    "town": "田井",
    "town_kana": "タイ",
    "street": null,
    "office_name": null,
    "office_name_kana": null
  },
  "0576": {
    "postcode": "8780576",
    "prefecture": "大分県",
    "prefecture_kana": "オオイタケン",
    "prefecture_code": 44,
    "city": "竹田市",
    "city_kana": "タケタシ",
    "town": "倉木",
    "town_kana": "クラキ",
    "street": null,
    "office_name": null,
    "office_name_kana": null
  },
  "8555": {
    "postcode": "8788555",
    "prefecture": "大分県",
    "prefecture_kana": "オオイタケン",
    "prefecture_code": 44,
    "city": "竹田市",
    "city_kana": "タケタシ",
    "town": "大字会々",
    "town_kana": null,
    "street": "１６５０",
    "office_name": "竹田市役所",
    "office_name_kana": "タケタシヤクシヨ"
  }
}