{
  "0000": {
    "postcode": "8820000",
    "prefecture": "宮崎県",
    "prefecture_kana": "ミヤザキケン",
    "prefecture_code": 45,
    "city": "延岡市",
    "city_kana": "ノベオカシ",
    "town": "",
    "town_kana": "",
    "street": null,
    "office_name": null,
    "office_name_kana": null
  },
  "0001": {
    "postcode": "8820001",
    "prefecture": "宮崎県",
    "prefecture_kana": "ミヤザキケン",
    "prefecture_code": 45,
    "city": "延岡市",
    "city_kana": "ノベオカシ",
    "town": "大峡町",
    "town_kana": "オオカイマチ",
    "street": null,
    "office_name": null,
    "office_name_kana": null
  },
  "0002": {
    "postcode": "8820002",
    "prefecture": "宮崎県",
    "prefecture_kana": "ミヤザキケン",
    "prefecture_code": 45,
    "city": "延岡市",
    "city_kana": "ノベオカシ",
    "town": "差木野町",
    "town_kana": "サシキノマチ",
    "street": null,
    "office_name": null,
    "office_name_kana": null
  },
  "0003": {
    "postcode": "8820003",
    "prefecture": "宮崎県",
    "prefecture_kana": "ミヤザキケン",
    "prefecture_code": 45,
    "city": "延岡市",
    "city_kana": "ノベオカシ",
    "town": "稲葉崎町",
    "town_kana": "イナバザキマチ",
    "street": null,
    "office_name": null,
    "office_name_kana": null
  },
  "0004": {
    "postcode": "8820004",
    "prefecture": "宮崎県",
    "prefecture_kana": "ミヤザキケン",
    "prefecture_code": 45,
    "city": "延岡市",
    "city_kana": "ノベオカシ",
    "town": "樫山町",
    "town_kana": "カシヤママチ",
    "street": null,
    "office_name": null,
    "office_name_kana": null
  },
  "0005": {
    "postcode": "8820005",
    "prefecture": "宮崎県",
    "prefecture_kana": "ミヤザキケン",
    "prefecture_code": 45,
    "city": "延岡市",
    "city_kana": "ノベオカシ",
    "town": "夏田町",
    "town_kana": "ナツタマチ",
    "street": null,
    "office_name": null,
    "office_name_kana": null
  },
  "0006": {
    "postcode": "8820006",
    "prefecture": "宮崎県",
    "prefecture_kana": "ミヤザキケン",
    "prefecture_code": 45,
    "city": "延岡市",
    "city_kana": "ノベオカシ",
    "town": "尾崎町",
    "town_kana": "オザキマチ",
    "street": null,
    "office_name": null,
    "office_name_kana": null
  },
  "0007": {
    "postcode": "8820007",
    "prefecture": "宮崎県",
    "prefecture_kana": "ミヤザキケン",
    "prefecture_code": 45,
    "city": "延岡市",
    "city_kana": "ノベオカシ",
    "town": "桜ケ丘",
    "town_kana": "サクラガオカ",
    "street": null,
    "office_name": null,
    "office_name_kana": null
  },
  "0011": {
    "postcode": "8820011",
    "prefecture": "宮崎県",
    "prefecture_kana": "ミヤザキケン",
    "prefecture_code": 45,
    "city": "延岡市",
    "city_kana": "ノベオカシ",
    "town": "須佐町",
    "town_kana": "スサマチ",
    "street": null,
    "office_name": null,
    "office_name_kana": null
  },
  "0012": {
    "postcode": "8820012",
    "prefecture": "宮崎県",
    "prefecture_kana": "ミヤザキケン",
    "prefecture_code": 45,
    "city": "延岡市",
    "city_kana": "ノベオカシ",
    "town": "鹿小路",
    "town_kana": "カショウジ",
    "street": null,
    "office_name": null,
    "office_name_kana": null
  },
  "0013": {
    "postcode": "8820013",
    "prefecture": "宮崎県",
    "prefecture_kana": "ミヤザキケン",
    "prefecture_code": 45,
    "city": "延岡市",
    "city_kana": "ノベオカシ",
    "town": "追内町",
    "town_kana": "オイウチマチ",
    "street": null,
    "office_name": null,
    "office_name_kana": null
  },
  "0014": {
    "postcode": "8820014",
    "prefecture": "宮崎県",
    "prefecture_kana": "ミヤザキケン",
    "prefecture_code": 45,
    "city": "延岡市",
    "city_kana": "ノベオカシ",
    "town": "白石町",
    "town_kana": "シロイシマチ",
    "street": null,
    "office_name": null,
    "office_name_kana": null
  },
  "0015": {
    "postcode": "8820015",
    "prefecture": "宮崎県",
    "prefecture_kana": "ミヤザキケン",
    "prefecture_code": 45,
    "city": "延岡市",
    "city_kana": "ノベオカシ",
    "town": "水尻町",
    "town_kana": "ミズシリマチ",
    "street": null,
    "office_name": null,
    "office_name_kana": null
  },
  "0016": {
    "postcode": "8820016",
    "prefecture": "宮崎県",
    "prefecture_kana": "ミヤザキケン",
    "prefecture_code": 45,
    "city": "延岡市",
    "city_kana": "ノベオカシ",
    "town": "東海町",
    "town_kana": "トウミマチ",
    "street": null,
    "office_name": null,
    "office_name_kana": null
  },
  "0017": {
    "postcode": "8820017",
    "prefecture": "宮崎県",
    "prefecture_kana": "ミヤザキケン",
    "prefecture_code": 45,
    "city": "延岡市",
    "city_kana": "ノベオカシ",
    "town": "川島町",
    "town_kana": "カワシママチ",
    "street": null,
    "office_name": null,
    "office_name_kana": null
  },
  "0021": {
    "postcode": "8820021",
    "prefecture": "宮崎県",
    "prefecture_kana": "ミヤザキケン",
    "prefecture_code": 45,
    "city": "延岡市",
    "city_kana": "ノベオカシ",
    "town": "無鹿町",
    "town_kana": "ムシカマチ",
    "street": null,
    "office_name": null,
    "office_name_kana": null
  },
  "0022": {
    "postcode": "8820022",
    "prefecture": "宮崎県",
    "prefecture_kana": "ミヤザキケン",
    "prefecture_code": 45,
    "city": "延岡市",
    "city_kana": "ノベオカシ",
    "town": "二ツ島町",
    "town_kana": "フタツシママチ",
    "street": null,
    "office_name": null,
    "office_name_kana": null
  },
  "0023": {
    "postcode": "8820023",
    "prefecture": "宮崎県",
    "prefecture_kana": "ミヤザキケン",
    "prefecture_code": 45,
    "city": "延岡市",
    "city_kana": "ノベオカシ",
    "town": "牧町",
    "town_kana": "マキマチ",
    "street": null,
    "office_name": null,
    "office_name_kana": null
  },
  "0024": {
    "postcode": "8820024",
    "prefecture": "宮崎県",
    "prefecture_kana": "ミヤザキケン",
    "prefecture_code": 45,
    "city": "延岡市",
    "city_kana": "ノベオカシ",
    "town": "大武町",
    "town_kana": "オオダケマチ",
    "street": null,
    "office_name": null,
    "office_name_kana": null
  },
  "0025": {
    "postcode": "8820025",
    "prefecture": "宮崎県",
    "prefecture_kana": "ミヤザキケン",
    "prefecture_code": 45,
    "city": "延岡市",
    "city_kana": "ノベオカシ",
    "town": "粟野名町",
    "town_kana": "アワノミョウマチ",
    "street": null,
    "office_name": null,
    "office_name_kana": null
  },
  "0026": {
    "postcode": "8820026",
    "prefecture": "宮崎県",
    "prefecture_kana": "ミヤザキケン",
    "prefecture_code": 45,
    "city": "延岡市",
    "city_kana": "ノベオカシ",
    "town": "柚の木田町",
    "town_kana": "ユノキダマチ",
    "street": null,
    "office_name": null,
    "office_name_kana": null
  },
  "0027": {
    "postcode": "8820027",
    "prefecture": "宮崎県",
    "prefecture_kana": "ミヤザキケン",
    "prefecture_code": 45,
    "city": "延岡市",
    "city_kana": "ノベオカシ",
    "town": "大門町",
    "town_kana": "オオカドマチ",
    "street": null,
    "office_name": null,
    "office_name_kana": null
  },
  "0031": {
    "postcode": "8820031",
    "prefecture": "宮崎県",
    "prefecture_kana": "ミヤザキケン",
    "prefecture_code": 45,
    "city": "延岡市",
    "city_kana": "ノベオカシ",
    "town": "中川原町",
    "town_kana": "ナカガワラマチ",
    "street": null,
    "office_name": null,
    "office_name_kana": null
  },
  "0032": {
    "postcode": "8820032",
    "prefecture": "宮崎県",
    "prefecture_kana": "ミヤザキケン",
    "prefecture_code": 45,
    "city": "延岡市",
    "city_kana": "ノベオカシ",
    "town": "中の瀬町",
    "town_kana": "ナカノセマチ",
    "street": null,
    "office_name": null,
    "office_name_kana": null
  },
  "0033": {
    "postcode": "8820033",
    "prefecture": "宮崎県",
    "prefecture_kana": "ミヤザキケン",
    "prefecture_code": 45,
    "city": "延岡市",
    "city_kana": "ノベオカシ",
    "town": "川原崎町",
    "town_kana": "カワラサキマチ",
    "street": null,
    "office_name": null,
    "office_name_kana": null
  },
  "0034": {
    "postcode": "8820034",
    "prefecture": "宮崎県",
    "prefecture_kana": "ミヤザキケン",
    "prefecture_code": 45,
    "city": "延岡市",
    "city_kana": "ノベオカシ",
    "town": "昭和町",
    "town_kana": "ショウワマチ",
    "street": null,
    "office_name": null,
    "office_name_kana": null
  },
  "0035": {
    "postcode": "8820035",
    "prefecture": "宮崎県",
    "prefecture_kana": "ミヤザキケン",
    "prefecture_code": 45,
    "city": "延岡市",
    "city_kana": "ノベオカシ",
    "town": "日の出町",
    "town_kana": "ヒノデマチ",
    "street": null,
    "office_name": null,
    "office_name_kana": null
  },
  "0036": {
    "postcode": "8820036",
    "prefecture": "宮崎県",
    "prefecture_kana": "ミヤザキケン",
    "prefecture_code": 45,
    "city": "延岡市",
    "city_kana": "ノベオカシ",
    "town": "桜園町",
    "town_kana": "サクラゾノマチ",
    "street": null,
    "office_name": null,
    "office_name_kana": null
  },
  "0037": {
    "postcode": "8820037",
    "prefecture": "宮崎県",
    "prefecture_kana": "ミヤザキケン",
    "prefecture_code": 45,
    "city": "延岡市",
    "city_kana": "ノベオカシ",
    "town": "山月町",
    "town_kana": "ヤマツキマチ",
    "street": null,
    "office_name": null,
    "office_name_kana": null
  },
  "0041": {
    "postcode": "8820041",
    "prefecture": "宮崎県",
    "prefecture_kana": "ミヤザキケン",
    "prefecture_code": 45,
    "city": "延岡市",
    "city_kana": "ノベオカシ",
    "town": "北小路",
    "town_kana": "キタコウジ",
    "street": null,
    "office_name": null,
    "office_name_kana": null
  },
  "0042": {
    "postcode": "8820042",
    "prefecture": "宮崎県",
    "prefecture_kana": "ミヤザキケン",
    "prefecture_code": 45,
    "city": "延岡市",
    "city_kana": "ノベオカシ",
    "town": "高千穂通",
    "town_kana": "タカチホドオリ",
    "street": null,
    "office_name": null,
    "office_name_kana": null
  },
  "0043": {
    "postcode": "8820043",
    "prefecture": "宮崎県",
    "prefecture_kana": "ミヤザキケン",
    "prefecture_code": 45,
    "city": "延岡市",
    "city_kana": "ノベオカシ",
    "town": "祗園町",
    "town_kana": "ギオンマチ",
    "street": null,
    "office_name": null,
    "office_name_kana": null
  },
  "0044": {
    "postcode": "8820044",
    "prefecture": "宮崎県",
    "prefecture_kana": "ミヤザキケン",
    "prefecture_code": 45,
    "city": "延岡市",
    "city_kana": "ノベオカシ",
    "town": "博労町",
    "town_kana": "バクロウマチ",
    "street": null,
    "office_name": null,
    "office_name_kana": null
  },
  "0045": {
    "postcode": "8820045",
    "prefecture": "宮崎県",
    "prefecture_kana": "ミヤザキケン",
    "prefecture_code": 45,
    "city": "延岡市",
    "city_kana": "ノベオカシ",
    "town": "瀬之口町",
    "town_kana": "セノクチマチ",
    "street": null,
    "office_name": null,
    "office_name_kana": null
  },
  "0046": {
    "postcode": "8820046",
    "prefecture": "宮崎県",
    "prefecture_kana": "ミヤザキケン",
    "prefecture_code": 45,
    "city": "延岡市",
    "city_kana": "ノベオカシ",
    "town": "恵比須町",
    "town_kana": "エビスマチ",
    "street": null,
    "office_name": null,
    "office_name_kana": null
  },
  "0047": {
    "postcode": "8820047",
    "prefecture": "宮崎県",
    "prefecture_kana": "ミヤザキケン",
    "prefecture_code": 45,
    "city": "延岡市",
    "city_kana": "ノベオカシ",
    "town": "紺屋町",
    "town_kana": "コンヤマチ",
    "street": null,
    "office_name": null,
    "office_name_kana": null
  },
  "0051": {
    "postcode": "8820051",
    "prefecture": "宮崎県",
    "prefecture_kana": "ミヤザキケン",
    "prefecture_code": 45,
    "city": "延岡市",
    "city_kana": "ノベオカシ",
    "town": "富美山町",
    "town_kana": "トミヤママチ",
    "street": null,
    "office_name": null,
    "office_name_kana": null
  },
  "0052": {
    "postcode": "8820052",
    "prefecture": "宮崎県",
    "prefecture_kana": "ミヤザキケン",
    "prefecture_code": 45,
    "city": "延岡市",
    "city_kana": "ノベオカシ",
    "town": "萩町",
    "town_kana": "ハギマチ",
    "street": null,
    "office_name": null,
    "office_name_kana": null
  },
  "0053": {
    "postcode": "8820053",
    "prefecture": "宮崎県",
    "prefecture_kana": "ミヤザキケン",
    "prefecture_code": 45,
    "city": "延岡市",
    "city_kana": "ノベオカシ",
    "town": "幸町",
    "town_kana": "サイワイマチ",
    "street": null,
    "office_name": null,
    "office_name_kana": null
  },
  "0054": {
    "postcode": "8820054",
    "prefecture": "宮崎県",
    "prefecture_kana": "ミヤザキケン",
    "prefecture_code": 45,
    "city": "延岡市",
    "city_kana": "ノベオカシ",
    "town": "栄町",
    "town_kana": "サカエマチ",
    "street": null,
    "office_name": null,
    "office_name_kana": null
  },
  "0055": {
    "postcode": "8820055",
    "prefecture": "宮崎県",
    "prefecture_kana": "ミヤザキケン",
    "prefecture_code": 45,
    "city": "延岡市",
    "city_kana": "ノベオカシ",
    "town": "山下町",
    "town_kana": "ヤマシタマチ",
    "street": null,
    "office_name": null,
    "office_name_kana": null
  },
  "0056": {
    "postcode": "8820056",
    "prefecture": "宮崎県",
    "prefecture_kana": "ミヤザキケン",
    "prefecture_code": 45,
    "city": "延岡市",
    "city_kana": "ノベオカシ",
    "town": "岡富町",
    "town_kana": "オカトミマチ",
    "street": null,
    "office_name": null,
    "office_name_kana": null
  },
  "0057": {
    "postcode": "8820057",
    "prefecture": "宮崎県",
    "prefecture_kana": "ミヤザキケン",
    "prefecture_code": 45,
    "city": "延岡市",
    "city_kana": "ノベオカシ",
    "town": "岡富山",
    "town_kana": "オカトミヤマ",
    "street": null,
    "office_name": null,
    "office_name_kana": null
  },
  "0061": {
    "postcode": "8820061",
    "prefecture": "宮崎県",
    "prefecture_kana": "ミヤザキケン",
    "prefecture_code": 45,
    "city": "延岡市",
    "city_kana": "ノベオカシ",
    "town": "小峰町",
    "town_kana": "コミネマチ",
    "street": null,
    "office_name": null,
    "office_name_kana": null
  },
  "0062": {
    "postcode": "8820062",
    "prefecture": "宮崎県",
    "prefecture_kana": "ミヤザキケン",
    "prefecture_code": 45,
    "city": "延岡市",
    "city_kana": "ノベオカシ",
    "town": "松山町",
    "town_kana": "マツヤママチ",
    "street": null,
    "office_name": null,
    "office_name_kana": null
  },
  "0063": {
    "postcode": "8820063",
    "prefecture": "宮崎県",
    "prefecture_kana": "ミヤザキケン",
    "prefecture_code": 45,
    "city": "延岡市",
    "city_kana": "ノベオカシ",
    "town": "古川町",
    "town_kana": "フルカワマチ",
    "street": null,
    "office_name": null,
    "office_name_kana": null
  },
  "0064": {
    "postcode": "8820064",
    "prefecture": "宮崎県",
    "prefecture_kana": "ミヤザキケン",
    "prefecture_code": 45,
    "city": "延岡市",
    "city_kana": "ノベオカシ",
    "town": "高野町",
    "town_kana": "タカノマチ",
    "street": null,
    "office_name": null,
    "office_name_kana": null
  },
  "0065": {
    "postcode": "8820065",
    "prefecture": "宮崎県",
    "prefecture_kana": "ミヤザキケン",
    "prefecture_code": 45,
    "city": "延岡市",
    "city_kana": "ノベオカシ",
    "town": "平田町",
    "town_kana": "ヒラタマチ",
    "street": null,
    "office_name": null,
    "office_name_kana": null
  },
  "0066": {
    "postcode": "8820066",
    "prefecture": "宮崎県",
    "prefecture_kana": "ミヤザキケン",
    "prefecture_code": 45,
    "city": "延岡市",
    "city_kana": "ノベオカシ",
    "town": "舞野町",
    "town_kana": "マイノマチ",
    "street": null,
    "office_name": null,
    "office_name_kana": null
  },
  "0071": {
    "postcode": "8820071",
    "prefecture": "宮崎県",
    "prefecture_kana": "ミヤザキケン",
    "prefecture_code": 45,
    "city": "延岡市",
    "city_kana": "ノベオカシ",
    "town": "天下町",
    "town_kana": "アモリマチ",
    "street": null,
    "office_name": null,
    "office_name_kana": null
  },
  "0072": {
    "postcode": "8820072",
    "prefecture": "宮崎県",
    "prefecture_kana": "ミヤザキケン",
    "prefecture_code": 45,
    "city": "延岡市",
    "city_kana": "ノベオカシ",
    "town": "吉野町",
    "town_kana": "ヨシノマチ",
    "street": null,
    "office_name": null,
    "office_name_kana": null
  },
  "0073": {
    "postcode": "8820073",
    "prefecture": "宮崎県",
    "prefecture_kana": "ミヤザキケン",
    "prefecture_code": 45,
    "city": "延岡市",
    "city_kana": "ノベオカシ",
    "town": "貝の畑町",
    "town_kana": "カイノハタマチ",
    "street": null,
    "office_name": null,
    "office_name_kana": null
  },
  "0074": {
    "postcode": "8820074",
    "prefecture": "宮崎県",
    "prefecture_kana": "ミヤザキケン",
    "prefecture_code": 45,
    "city": "延岡市",
    "city_kana": "ノベオカシ",
    "town": "細見町",
    "town_kana": "ホソミマチ",
    "street": null,
    "office_name": null,
    "office_name_kana": null
  },
  "0075": {
    "postcode": "8820075",
    "prefecture": "宮崎県",
    "prefecture_kana": "ミヤザキケン",
    "prefecture_code": 45,
    "city": "延岡市",
    "city_kana": "ノベオカシ",
    "town": "岡元町",
    "town_kana": "オカモトマチ",
    "street": null,
    "office_name": null,
    "office_name_kana": null
  },
  "0076": {
    "postcode": "8820076",
    "prefecture": "宮崎県",
    "prefecture_kana": "ミヤザキケン",
    "prefecture_code": 45,
    "city": "延岡市",
    "city_kana": "ノベオカシ",
    "town": "小川町",
    "town_kana": "コガワマチ",
    "street": null,
    "office_name": null,
    "office_name_kana": null
  },
  "0077": {
    "postcode": "8820077",
    "prefecture": "宮崎県",
    "prefecture_kana": "ミヤザキケン",
    "prefecture_code": 45,
    "city": "延岡市",
    "city_kana": "ノベオカシ",
    "town": "行縢町",
    "town_kana": "ムカバキマチ",
    "street": null,
    "office_name": null,
    "office_name_kana": null
  },
  "0081": {
    "postcode": "8820081",
    "prefecture": "宮崎県",
    "prefecture_kana": "ミヤザキケン",
    "prefecture_code": 45,
    "city": "延岡市",
    "city_kana": "ノベオカシ",
    "town": "佐野町",
    "town_kana": "サノマチ",
    "street": null,
    "office_name": null,
    "office_name_kana": null
  },
  "0082": {
    "postcode": "8820082",
    "prefecture": "宮崎県",
    "prefecture_kana": "ミヤザキケン",
    "prefecture_code": 45,
    "city": "延岡市",
    "city_kana": "ノベオカシ",
    "town": "祝子町",
    "town_kana": "ホウリマチ",
    "street": null,
    "office_name": null,
    "office_name_kana": null
  },
  "0083": {
    "postcode": "8820083",
    "prefecture": "宮崎県",
    "prefecture_kana": "ミヤザキケン",
    "prefecture_code": 45,
    "city": "延岡市",
    "city_kana": "ノベオカシ",
    "town": "柚木町",
    "town_kana": "ユウギマチ",
    "street": null,
    "office_name": null,
    "office_name_kana": null
  },
  "0084": {
    "postcode": "8820084",
    "prefecture": "宮崎県",
    "prefecture_kana": "ミヤザキケン",
    "prefecture_code": 45,
    "city": "延岡市",
    "city_kana": "ノベオカシ",
    "town": "宇和田町",
    "town_kana": "ウワダマチ",
    "street": null,
    "office_name": null,
    "office_name_kana": null
  },
  "0085": {
    "postcode": "8820085",
    "prefecture": "宮崎県",
    "prefecture_kana": "ミヤザキケン",
    "prefecture_code": 45,
    "city": "延岡市",
    "city_kana": "ノベオカシ",
    "town": "鹿狩瀬町",
    "town_kana": "カガセマチ",
    "street": null,
    "office_name": null,
    "office_name_kana": null
  },
  "0086": {
    "postcode": "8820086",
    "prefecture": "宮崎県",
    "prefecture_kana": "ミヤザキケン",
    "prefecture_code": 45,
    "city": "延岡市",
    "city_kana": "ノベオカシ",
    "town": "大野町",
    "town_kana": "オオノマチ",
    "street": null,
    "office_name": null,
    "office_name_kana": null
  },
  "0087": {
    "postcode": "8820087",
    "prefecture": "宮崎県",
    "prefecture_kana": "ミヤザキケン",
    "prefecture_code": 45,
    "city": "延岡市",
    "city_kana": "ノベオカシ",
    "town": "妙町",
    "town_kana": "ミョウマチ",
    "street": null,
    "office_name": null,
    "office_name_kana": null
  },
  "0091": {
    "postcode": "8820091",
    "prefecture": "宮崎県",
    "prefecture_kana": "ミヤザキケン",
    "prefecture_code": 45,
    "city": "延岡市",
    "city_kana": "ノベオカシ",
    "town": "桑平町",
    "town_kana": "クワヒラマチ",
    "street": null,
    "office_name": null,
    "office_name_kana": null
  },
  "0092": {
    "postcode": "8820092",
    "prefecture": "宮崎県",
    "prefecture_kana": "ミヤザキケン",
    "prefecture_code": 45,
    "city": "延岡市",
    "city_kana": "ノベオカシ",
    "town": "宮長町",
    "town_kana": "ミヤナガマチ",
    "street": null,
    "office_name": null,
    "office_name_kana": null
  },
  "0093": {
    "postcode": "8820093",
    "prefecture": "宮崎県",
    "prefecture_kana": "ミヤザキケン",
    "prefecture_code": 45,
    "city": "延岡市",
    "city_kana": "ノベオカシ",
    "town": "神戸町",
    "town_kana": "コウベマチ",
    "street": null,
    "office_name": null,
    "office_name_kana": null
  },
  "0094": {
    "postcode": "8820094",
    "prefecture": "宮崎県",
    "prefecture_kana": "ミヤザキケン",
    "prefecture_code": 45,
    "city": "延岡市",
    "city_kana": "ノベオカシ",
    "town": "安井町",
    "town_kana": "ヤスイマチ",
    "street": null,
    "office_name": null,
    "office_name_kana": null
  },
  "0095": {
    "postcode": "8820095",
    "prefecture": "宮崎県",
    "prefecture_kana": "ミヤザキケン",
    "prefecture_code": 45,
    "city": "延岡市",
    "city_kana": "ノベオカシ",
    "town": "浦城町",
    "town_kana": "ウラシロマチ",
    "street": null,
    "office_name": null,
    "office_name_kana": null
  },
  "0096": {
    "postcode": "8820096",
    "prefecture": "宮崎県",
    "prefecture_kana": "ミヤザキケン",
    "prefecture_code": 45,
    "city": "延岡市",
    "city_kana": "ノベオカシ",
    "town": "島浦町",
    "town_kana": "シマウラマチ",
    "street": null,
    "office_name": null,
    "office_name_kana": null
  },
  "0097": [
    {
      "postcode": "8820097",
      "prefecture": "宮崎県",
      "prefecture_kana": "ミヤザキケン",
      "prefecture_code": 45,
      "city": "延岡市",
      "city_kana": "ノベオカシ",
      "town": "北川町川内名",
      "town_kana": "キタガワマチカワチミョウ",
      "street": null,
      "office_name": null,
      "office_name_kana": null
    },
    {
      "postcode": "8820097",
      "prefecture": "宮崎県",
      "prefecture_kana": "ミヤザキケン",
      "prefecture_code": 45,
      "city": "延岡市",
      "city_kana": "ノベオカシ",
      "town": "北川町川内名祝子川",
      "town_kana": "キタガワマチカワチミョウホウリガワ",
      "street": null,
      "office_name": null,
      "office_name_kana": null
    }
  ],
  "0101": {
    "postcode": "8820101",
    "prefecture": "宮崎県",
    "prefecture_kana": "ミヤザキケン",
    "prefecture_code": 45,
    "city": "延岡市",
    "city_kana": "ノベオカシ",
    "town": "北方町二股",
    "town_kana": "キタカタマチフタマタ",
    "street": null,
    "office_name": null,
    "office_name_kana": null
  },
  "0104": {
    "postcode": "8820104",
    "prefecture": "宮崎県",
    "prefecture_kana": "ミヤザキケン",
    "prefecture_code": 45,
    "city": "延岡市",
    "city_kana": "ノベオカシ",
    "town": "北方町角田",
    "town_kana": "キタカタマチツノダ",
    "street": null,
    "office_name": null,
    "office_name_kana": null
  },
  "0106": {
    "postcode": "8820106",
    "prefecture": "宮崎県",
    "prefecture_kana": "ミヤザキケン",
    "prefecture_code": 45,
    "city": "延岡市",
    "city_kana": "ノベオカシ",
    "town": "北方町笠下",
    "town_kana": "キタカタマチカサシタ",
    "street": null,
    "office_name": null,
    "office_name_kana": null
  },
  "0107": {
    "postcode": "8820107",
    "prefecture": "宮崎県",
    "prefecture_kana": "ミヤザキケン",
    "prefecture_code": 45,
    "city": "延岡市",
    "city_kana": "ノベオカシ",
    "town": "北方町藤の木",
    "town_kana": "キタカタマチフジノキ",
    "street": null,
    "office_name": null,
    "office_name_kana": null
  },
  "0121": {
    "postcode": "8820121",
    "prefecture": "宮崎県",
    "prefecture_kana": "ミヤザキケン",
    "prefecture_code": 45,
    "city": "延岡市",
    "city_kana": "ノベオカシ",
    "town": "北方町板上",
    "town_kana": "キタカタマチイタカミ",
    "street": null,
    "office_name": null,
    "office_name_kana": null
  },
  "0122": {
    "postcode": "8820122",
    "prefecture": "宮崎県",
    "prefecture_kana": "ミヤザキケン",
    "prefecture_code": 45,
    "city": "延岡市",
    "city_kana": "ノベオカシ",
    "town": "北方町板下",
    "town_kana": "キタカタマチイタシモ",
    "street": null,
    "office_name": null,
    "office_name_kana": null
  },
  "0123": {
    "postcode": "8820123",
    "prefecture": "宮崎県",
    "prefecture_kana": "ミヤザキケン",
    "prefecture_code": 45,
    "city": "延岡市",
    "city_kana": "ノベオカシ",
    "town": "北方町うそ越",
    "town_kana": "キタカタマチウソゴエ",
    "street": null,
    "office_name": null,
    "office_name_kana": null
  },
  "0124": {
    "postcode": "8820124",
    "prefecture": "宮崎県",
    "prefecture_kana": "ミヤザキケン",
    "prefecture_code": 45,
    "city": "延岡市",
    "city_kana": "ノベオカシ",
    "town": "北方町曽木",
    "town_kana": "キタカタマチソキ",
    "street": null,
    "office_name": null,
    "office_name_kana": null
  },
  "0125": {
    "postcode": "8820125",
    "prefecture": "宮崎県",
    "prefecture_kana": "ミヤザキケン",
    "prefecture_code": 45,
    "city": "延岡市",
    "city_kana": "ノベオカシ",
    "town": "北方町川水流",
    "town_kana": "キタカタマチカワズル",
    "street": null,
    "office_name": null,
    "office_name_kana": null
  },
  "0126": {
    "postcode": "8820126",
    "prefecture": "宮崎県",
    "prefecture_kana": "ミヤザキケン",
    "prefecture_code": 45,
    "city": "延岡市",
    "city_kana": "ノベオカシ",
    "town": "北方町上崎",
    "town_kana": "キタカタマチカミザキ",
    "street": null,
    "office_name": null,
    "office_name_kana": null
  },
  "0127": {
    "postcode": "8820127",
    "prefecture": "宮崎県",
    "prefecture_kana": "ミヤザキケン",
    "prefecture_code": 45,
    "city": "延岡市",
    "city_kana": "ノベオカシ",
    "town": "北方町蔵田",
    "town_kana": "キタカタマチクラタ",
    "street": null,
    "office_name": null,
    "office_name_kana": null
  },
  "0128": {
    "postcode": "8820128",
    "prefecture": "宮崎県",
    "prefecture_kana": "ミヤザキケン",
    "prefecture_code": 45,
    "city": "延岡市",
    "city_kana": "ノベオカシ",
    "town": "北方町南久保山",
    "town_kana": "キタカタマチミナミクボヤマ",
    "street": null,
    "office_name": null,
    "office_name_kana": null
  },
  "0129": {
    "postcode": "8820129",
    "prefecture": "宮崎県",
    "prefecture_kana": "ミヤザキケン",
    "prefecture_code": 45,
    "city": "延岡市",
    "city_kana": "ノベオカシ",
    "town": "北方町北久保山",
    "town_kana": "キタカタマチキタクボヤマ",
    "street": null,
    "office_name": null,
    "office_name_kana": null
  },
  "0192": {
    "postcode": "8820192",
    "prefecture": "宮崎県",
    "prefecture_kana": "ミヤザキケン",
    "prefecture_code": 45,
    "city": "延岡市",
    "city_kana": "ノベオカシ",
    "town": "北方町川水流",
    "town_kana": "キタカタマチカワズル",
    "street": "卯６８２番地",
    "office_name": "延岡市　北方町総合支所",
    "office_name_kana": "ノベオカシ キタカタマチソウゴウシシヨ"
  },
  "0231": {
    "postcode": "8820231",
    "prefecture": "宮崎県",
    "prefecture_kana": "ミヤザキケン",
    "prefecture_code": 45,
    "city": "延岡市",
    "city_kana": "ノベオカシ",
    "town": "北方町上鹿川",
    "town_kana": "キタカタマチカミシシガワ",
    "street": null,
    "office_name": null,
    "office_name_kana": null
  },
  "0232": {
    "postcode": "8820232",
    "prefecture": "宮崎県",
    "prefecture_kana": "ミヤザキケン",
    "prefecture_code": 45,
    "city": "延岡市",
    "city_kana": "ノベオカシ",
    "town": "北方町下鹿川",
    "town_kana": "キタカタマチシモシシガワ",
    "street": null,
    "office_name": null,
    "office_name_kana": null
  },
  "0233": {
    "postcode": "8820233",
    "prefecture": "宮崎県",
    "prefecture_kana": "ミヤザキケン",
    "prefecture_code": 45,
    "city": "延岡市",
    "city_kana": "ノベオカシ",
    "town": "北方町菅原",
    "town_kana": "キタカタマチスゲバル",
    "street": null,
    "office_name": null,
    "office_name_kana": null
  },
  "0234": {
    "postcode": "8820234",
    "prefecture": "宮崎県",
    "prefecture_kana": "ミヤザキケン",
    "prefecture_code": 45,
    "city": "延岡市",
    "city_kana": "ノベオカシ",
    "town": "北方町美々地",
    "town_kana": "キタカタマチミミチ",
    "street": null,
    "office_name": null,
    "office_name_kana": null
  },
  "0235": {
    "postcode": "8820235",
    "prefecture": "宮崎県",
    "prefecture_kana": "ミヤザキケン",
    "prefecture_code": 45,
    "city": "延岡市",
    "city_kana": "ノベオカシ",
    "town": "北方町槇峰",
    "town_kana": "キタカタマチマキミネ",
    "street": null,
    "office_name": null,
    "office_name_kana": null
  },
  "0236": {
    "postcode": "8820236",
    "prefecture": "宮崎県",
    "prefecture_kana": "ミヤザキケン",
    "prefecture_code": 45,
    "city": "延岡市",
    "city_kana": "ノベオカシ",
    "town": "北方町日平",
    "town_kana": "キタカタマチヒビラ",
    "street": null,
    "office_name": null,
    "office_name_kana": null
  },
  "0237": {
    "postcode": "8820237",
    "prefecture": "宮崎県",
    "prefecture_kana": "ミヤザキケン",
    "prefecture_code": 45,
    "city": "延岡市",
    "city_kana": "ノベオカシ",
    "town": "北方町椎畑",
    "town_kana": "キタカタマチシイバタ",
    "street": null,
    "office_name": null,
    "office_name_kana": null
  },
  "0238": {
    "postcode": "8820238",
    "prefecture": "宮崎県",
    "prefecture_kana": "ミヤザキケン",
    "prefecture_code": 45,
    "city": "延岡市",
    "city_kana": "ノベオカシ",
    "town": "北方町滝下",
    "town_kana": "キタカタマチタキシタ",
    "street": null,
    "office_name": null,
    "office_name_kana": null
  },
  "0241": {
    "postcode": "8820241",
    "prefecture": "宮崎県",
    "prefecture_kana": "ミヤザキケン",
    "prefecture_code": 45,
    "city": "延岡市",
    "city_kana": "ノベオカシ",
    "town": "北方町三ケ村",
    "town_kana": "キタカタマチサンガムラ",
    "street": null,
    "office_name": null,
    "office_name_kana": null
  },
  "0242": {
    "postcode": "8820242",
    "prefecture": "宮崎県",
    "prefecture_kana": "ミヤザキケン",
    "prefecture_code": 45,
    "city": "延岡市",
    "city_kana": "ノベオカシ",
    "town": "北方町八峡",
    "town_kana": "キタカタマチヤカイ",
    "street": null,
    "office_name": null,
    "office_name_kana": null
  },
  "0243": {
    "postcode": "8820243",
    "prefecture": "宮崎県",
    "prefecture_kana": "ミヤザキケン",
    "prefecture_code": 45,
    "city": "延岡市",
    "city_kana": "ノベオカシ",
    "town": "北方町早日渡",
    "town_kana": "キタカタマチハヤヒト",
    "street": null,
    "office_name": null,
    "office_name_kana": null
  },
  "0244": {
    "postcode": "8820244",
    "prefecture": "宮崎県",
    "prefecture_kana": "ミヤザキケン",
    "prefecture_code": 45,
    "city": "延岡市",
    "city_kana": "ノベオカシ",
    "town": "北方町早中",
    "town_kana": "キタカタマチハヤナカ",
    "street": null,
    "office_name": null,
    "office_name_kana": null
  },
  "0245": {
    "postcode": "8820245",
    "prefecture": "宮崎県",
    "prefecture_kana": "ミヤザキケン",
    "prefecture_code": 45,
    "city": "延岡市",
    "city_kana": "ノベオカシ",
    "town": "北方町早上",
    "town_kana": "キタカタマチハヤカミ",
    "street": null,
    "office_name": null,
    "office_name_kana": null
  },
  "0301": [
    {
      "postcode": "8820301",
      "prefecture": "宮崎県",
      "prefecture_kana": "ミヤザキケン",
      "prefecture_code": 45,
      "city": "西臼杵郡日之影町",
      "city_kana": "ニシウスキグンヒノカゲチョウ",
      "town": "七折",
      "town_kana": "ナナオリ",
      "street": null,
      "office_name": null,
      "office_name_kana": null
    },
    {
      "postcode": "8820301",
      "prefecture": "宮崎県",
      "prefecture_kana": "ミヤザキケン",
      "prefecture_code": 45,
      "city": "西臼杵郡日之影町",
      "city_kana": "ニシウスキグンヒノカゲチョウ",
      "town": "七折阿下",
      "town_kana": "ナナオリアゲ",
      "street": null,
      "office_name": null,
      "office_name_kana": null
    },
    {
      "postcode": "8820301",
      "prefecture": "宮崎県",
      "prefecture_kana": "ミヤザキケン",
      "prefecture_code": 45,
      "city": "西臼杵郡日之影町",
      "city_kana": "ニシウスキグンヒノカゲチョウ",
      "town": "七折笠戸",
      "town_kana": "ナナオリカサド",
      "street": null,
      "office_name": null,
      "office_name_kana": null
    },
    {
      "postcode": "8820301",
      "prefecture": "宮崎県",
      "prefecture_kana": "ミヤザキケン",
      "prefecture_code": 45,
      "city": "西臼杵郡日之影町",
      "city_kana": "ニシウスキグンヒノカゲチョウ",
      "town": "七折椛木",
      "town_kana": "ナナオリカバギ",
      "street": null,
      "office_name": null,
      "office_name_kana": null
    },
    {
      "postcode": "8820301",
      "prefecture": "宮崎県",
      "prefecture_kana": "ミヤザキケン",
      "prefecture_code": 45,
      "city": "西臼杵郡日之影町",
      "city_kana": "ニシウスキグンヒノカゲチョウ",
      "town": "七折鹿川",
      "town_kana": "ナナオリシシガワ",
      "street": null,
      "office_name": null,
      "office_name_kana": null
    },
    {
      "postcode": "8820301",
      "prefecture": "宮崎県",
      "prefecture_kana": "ミヤザキケン",
      "prefecture_code": 45,
      "city": "西臼杵郡日之影町",
      "city_kana": "ニシウスキグンヒノカゲチョウ",
      "town": "七折新町",
      "town_kana": "ナナオリシンマチ",
      "street": null,
      "office_name": null,
      "office_name_kana": null
    },
    {
      "postcode": "8820301",
      "prefecture": "宮崎県",
      "prefecture_kana": "ミヤザキケン",
      "prefecture_code": 45,
      "city": "西臼杵郡日之影町",
      "city_kana": "ニシウスキグンヒノカゲチョウ",
      "town": "七折滝ノ内",
      "town_kana": "ナナオリタキノウチ",
      "street": null,
      "office_name": null,
      "office_name_kana": null
    },
    {
      "postcode": "8820301",
      "prefecture": "宮崎県",
      "prefecture_kana": "ミヤザキケン",
      "prefecture_code": 45,
      "city": "西臼杵郡日之影町",
      "city_kana": "ニシウスキグンヒノカゲチョウ",
      "town": "七折中川",
      "town_kana": "ナナオリナカガワ",
      "street": null,
      "office_name": null,
      "office_name_kana": null
    },
    {
      "postcode": "8820301",
      "prefecture": "宮崎県",
      "prefecture_kana": "ミヤザキケン",
      "prefecture_code": 45,
      "city": "西臼杵郡日之影町",
      "city_kana": "ニシウスキグンヒノカゲチョウ",
      "town": "七折西ノ内",
      "town_kana": "ナナオリニシノウチ",
      "street": null,
      "office_name": null,
      "office_name_kana": null
    },
    {
      "postcode": "8820301",
      "prefecture": "宮崎県",
      "prefecture_kana": "ミヤザキケン",
      "prefecture_code": 45,
      "city": "西臼杵郡日之影町",
      "city_kana": "ニシウスキグンヒノカゲチョウ",
      "town": "七折舟ノ尾",
      "town_kana": "ナナオリフネノオ",
      "street": null,
      "office_name": null,
      "office_name_kana": null
    },
    {
      "postcode": "8820301",
      "prefecture": "宮崎県",
      "prefecture_kana": "ミヤザキケン",
      "prefecture_code": 45,
      "city": "西臼杵郡日之影町",
      "city_kana": "ニシウスキグンヒノカゲチョウ",
      "town": "七折八戸",
      "town_kana": "ナナオリヤト",
      "street": null,
      "office_name": null,
      "office_name_kana": null
    },
    {
      "postcode": "8820301",
      "prefecture": "宮崎県",
      "prefecture_kana": "ミヤザキケン",
      "prefecture_code": 45,
      "city": "西臼杵郡日之影町",
      "city_kana": "ニシウスキグンヒノカゲチョウ",
      "town": "七折簗崎",
      "town_kana": "ナナオリヤナザキ",
      "street": null,
      "office_name": null,
      "office_name_kana": null
    }
  ],
  "0302": [
    {
      "postcode": "8820302",
      "prefecture": "宮崎県",
      "prefecture_kana": "ミヤザキケン",
      "prefecture_code": 45,
      "city": "西臼杵郡日之影町",
      "city_kana": "ニシウスキグンヒノカゲチョウ",
      "town": "岩井川",
      "town_kana": "イワイカワ",
      "street": null,
      "office_name": null,
      "office_name_kana": null
    },
    {
      "postcode": "8820302",
      "prefecture": "宮崎県",
      "prefecture_kana": "ミヤザキケン",
      "prefecture_code": 45,
      "city": "西臼杵郡日之影町",
      "city_kana": "ニシウスキグンヒノカゲチョウ",
      "town": "岩井川境野",
      "town_kana": "イワイカワサカイノ",
      "street": null,
      "office_name": null,
      "office_name_kana": null
    }
  ],
  "0304": {
    "postcode": "8820304",
    "prefecture": "宮崎県",
    "prefecture_kana": "ミヤザキケン",
    "prefecture_code": 45,
    "city": "西臼杵郡日之影町",
    "city_kana": "ニシウスキグンヒノカゲチョウ",
    "town": "分城",
    "town_kana": "ワケジョウ",
    "street": null,
    "office_name": null,
    "office_name_kana": null
  },
  "0400": {
    "postcode": "8820400",
    "prefecture": "宮崎県",
    "prefecture_kana": "ミヤザキケン",
    "prefecture_code": 45,
    "city": "西臼杵郡日之影町",
    "city_kana": "ニシウスキグンヒノカゲチョウ",
    "town": "",
    "town_kana": "",
    "street": null,
    "office_name": null,
    "office_name_kana": null
  },
  "0401": {
    "postcode": "8820401",
    "prefecture": "宮崎県",
    "prefecture_kana": "ミヤザキケン",
    "prefecture_code": 45,
    "city": "西臼杵郡日之影町",
    "city_kana": "ニシウスキグンヒノカゲチョウ",
    "town": "七折",
    "town_kana": "ナナオリ",
    "street": null,
    "office_name": null,
    "office_name_kana": null
  },
  "0402": {
    "postcode": "8820402",
    "prefecture": "宮崎県",
    "prefecture_kana": "ミヤザキケン",
    "prefecture_code": 45,
    "city": "西臼杵郡日之影町",
    "city_kana": "ニシウスキグンヒノカゲチョウ",
    "town": "岩井川",
    "town_kana": "イワイカワ",
    "street": null,
    "office_name": null,
    "office_name_kana": null
  },
  "0403": {
    "postcode": "8820403",
    "prefecture": "宮崎県",
    "prefecture_kana": "ミヤザキケン",
    "prefecture_code": 45,
    "city": "西臼杵郡日之影町",
    "city_kana": "ニシウスキグンヒノカゲチョウ",
    "town": "見立",
    "town_kana": "ミタテ",
    "street": null,
    "office_name": null,
    "office_name_kana": null
  },
  "0801": {
    "postcode": "8820801",
    "prefecture": "宮崎県",
    "prefecture_kana": "ミヤザキケン",
    "prefecture_code": 45,
    "city": "延岡市",
    "city_kana": "ノベオカシ",
    "town": "野田町",
    "town_kana": "ノタマチ",
    "street": null,
    "office_name": null,
    "office_name_kana": null
  },
  "0802": {
    "postcode": "8820802",
    "prefecture": "宮崎県",
    "prefecture_kana": "ミヤザキケン",
    "prefecture_code": 45,
    "city": "延岡市",
    "city_kana": "ノベオカシ",
    "town": "野地町",
    "town_kana": "ノジマチ",
    "street": null,
    "office_name": null,
    "office_name_kana": null
  },
  "0803": {
    "postcode": "8820803",
    "prefecture": "宮崎県",
    "prefecture_kana": "ミヤザキケン",
    "prefecture_code": 45,
    "city": "延岡市",
    "city_kana": "ノベオカシ",
    "town": "大貫町",
    "town_kana": "オオヌキマチ",
    "street": null,
    "office_name": null,
    "office_name_kana": null
  },
  "0804": {
    "postcode": "8820804",
    "prefecture": "宮崎県",
    "prefecture_kana": "ミヤザキケン",
    "prefecture_code": 45,
    "city": "延岡市",
    "city_kana": "ノベオカシ",
    "town": "西階町",
    "town_kana": "ニシシナマチ",
    "street": null,
    "office_name": null,
    "office_name_kana": null
  },
  "0805": {
    "postcode": "8820805",
    "prefecture": "宮崎県",
    "prefecture_kana": "ミヤザキケン",
    "prefecture_code": 45,
    "city": "延岡市",
    "city_kana": "ノベオカシ",
    "town": "野田",
    "town_kana": "ノタ",
    "street": null,
    "office_name": null,
    "office_name_kana": null
  },
  "0811": {
    "postcode": "8820811",
    "prefecture": "宮崎県",
    "prefecture_kana": "ミヤザキケン",
    "prefecture_code": 45,
    "city": "延岡市",
    "city_kana": "ノベオカシ",
    "town": "天神小路",
    "town_kana": "テンジンコウジ",
    "street": null,
    "office_name": null,
    "office_name_kana": null
  },
  "0812": {
    "postcode": "8820812",
    "prefecture": "宮崎県",
    "prefecture_kana": "ミヤザキケン",
    "prefecture_code": 45,
    "city": "延岡市",
    "city_kana": "ノベオカシ",
    "town": "本小路",
    "town_kana": "ホンコウジ",
    "street": null,
    "office_name": null,
    "office_name_kana": null
  },
  "0813": {
    "postcode": "8820813",
    "prefecture": "宮崎県",
    "prefecture_kana": "ミヤザキケン",
    "prefecture_code": 45,
    "city": "延岡市",
    "city_kana": "ノベオカシ",
    "town": "東本小路",
    "town_kana": "ヒガシホンコウジ",
    "street": null,
    "office_name": null,
    "office_name_kana": null
  },
  "0814": {
    "postcode": "8820814",
    "prefecture": "宮崎県",
    "prefecture_kana": "ミヤザキケン",
    "prefecture_code": 45,
    "city": "延岡市",
    "city_kana": "ノベオカシ",
    "town": "北町",
    "town_kana": "キタマチ",
    "street": null,
    "office_name": null,
    "office_name_kana": null
  },
  "0815": {
    "postcode": "8820815",
    "prefecture": "宮崎県",
    "prefecture_kana": "ミヤザキケン",
    "prefecture_code": 45,
    "city": "延岡市",
    "city_kana": "ノベオカシ",
    "town": "柳沢町",
    "town_kana": "ヤナザワマチ",
    "street": null,
    "office_name": null,
    "office_name_kana": null
  },
  "0816": {
    "postcode": "8820816",
    "prefecture": "宮崎県",
    "prefecture_kana": "ミヤザキケン",
    "prefecture_code": 45,
    "city": "延岡市",
    "city_kana": "ノベオカシ",
    "town": "桜小路",
    "town_kana": "サクラコウジ",
    "street": null,
    "office_name": null,
    "office_name_kana": null
  },
  "0821": {
    "postcode": "8820821",
    "prefecture": "宮崎県",
    "prefecture_kana": "ミヤザキケン",
    "prefecture_code": 45,
    "city": "延岡市",
    "city_kana": "ノベオカシ",
    "town": "本町",
    "town_kana": "ホンマチ",
    "street": null,
    "office_name": null,
    "office_name_kana": null
  },
  "0822": {
    "postcode": "8820822",
    "prefecture": "宮崎県",
    "prefecture_kana": "ミヤザキケン",
    "prefecture_code": 45,
    "city": "延岡市",
    "city_kana": "ノベオカシ",
    "town": "南町",
    "town_kana": "ミナミマチ",
    "street": null,
    "office_name": null,
    "office_name_kana": null
  },
  "0823": {
    "postcode": "8820823",
    "prefecture": "宮崎県",
    "prefecture_kana": "ミヤザキケン",
    "prefecture_code": 45,
    "city": "延岡市",
    "city_kana": "ノベオカシ",
    "town": "中町",
    "town_kana": "ナカマチ",
    "street": null,
    "office_name": null,
    "office_name_kana": null
  },
  "0824": {
    "postcode": "8820824",
    "prefecture": "宮崎県",
    "prefecture_kana": "ミヤザキケン",
    "prefecture_code": 45,
    "city": "延岡市",
    "city_kana": "ノベオカシ",
    "town": "中央通",
    "town_kana": "チュウオウドオリ",
    "street": null,
    "office_name": null,
    "office_name_kana": null
  },
  "0825": {
    "postcode": "8820825",
    "prefecture": "宮崎県",
    "prefecture_kana": "ミヤザキケン",
    "prefecture_code": 45,
    "city": "延岡市",
    "city_kana": "ノベオカシ",
    "town": "須崎町",
    "town_kana": "スザキマチ",
    "street": null,
    "office_name": null,
    "office_name_kana": null
  },
  "0826": {
    "postcode": "8820826",
    "prefecture": "宮崎県",
    "prefecture_kana": "ミヤザキケン",
    "prefecture_code": 45,
    "city": "延岡市",
    "city_kana": "ノベオカシ",
    "town": "船倉町",
    "town_kana": "フナグラマチ",
    "street": null,
    "office_name": null,
    "office_name_kana": null
  },
  "0827": {
    "postcode": "8820827",
    "prefecture": "宮崎県",
    "prefecture_kana": "ミヤザキケン",
    "prefecture_code": 45,
    "city": "延岡市",
    "city_kana": "ノベオカシ",
    "town": "新町",
    "town_kana": "シンマチ",
    "street": null,
    "office_name": null,
    "office_name_kana": null
  },
  "0831": {
    "postcode": "8820831",
    "prefecture": "宮崎県",
    "prefecture_kana": "ミヤザキケン",
    "prefecture_code": 45,
    "city": "延岡市",
    "city_kana": "ノベオカシ",
    "town": "出口町",
    "town_kana": "イデグチマチ",
    "street": null,
    "office_name": null,
    "office_name_kana": null
  },
  "0832": {
    "postcode": "8820832",
    "prefecture": "宮崎県",
    "prefecture_kana": "ミヤザキケン",
    "prefecture_code": 45,
    "city": "延岡市",
    "city_kana": "ノベオカシ",
    "town": "西小路",
    "town_kana": "サイコウジ",
    "street": null,
    "office_name": null,
    "office_name_kana": null
  },
  "0833": {
    "postcode": "8820833",
    "prefecture": "宮崎県",
    "prefecture_kana": "ミヤザキケン",
    "prefecture_code": 45,
    "city": "延岡市",
    "city_kana": "ノベオカシ",
    "town": "上大瀬町",
    "town_kana": "カミオオセマチ",
    "street": null,
    "office_name": null,
    "office_name_kana": null
  },
  "0834": {
    "postcode": "8820834",
    "prefecture": "宮崎県",
    "prefecture_kana": "ミヤザキケン",
    "prefecture_code": 45,
    "city": "延岡市",
    "city_kana": "ノベオカシ",
    "town": "北新小路",
    "town_kana": "キタシンコウジ",
    "street": null,
    "office_name": null,
    "office_name_kana": null
  },
  "0835": {
    "postcode": "8820835",
    "prefecture": "宮崎県",
    "prefecture_kana": "ミヤザキケン",
    "prefecture_code": 45,
    "city": "延岡市",
    "city_kana": "ノベオカシ",
    "town": "新小路",
    "town_kana": "シンコウジ",
    "street": null,
    "office_name": null,
    "office_name_kana": null
  },
  "0836": {
    "postcode": "8820836",
    "prefecture": "宮崎県",
    "prefecture_kana": "ミヤザキケン",
    "prefecture_code": 45,
    "city": "延岡市",
    "city_kana": "ノベオカシ",
    "town": "恒富町",
    "town_kana": "ツネトミマチ",
    "street": null,
    "office_name": null,
    "office_name_kana": null
  },
  "0837": {
    "postcode": "8820837",
    "prefecture": "宮崎県",
    "prefecture_kana": "ミヤザキケン",
    "prefecture_code": 45,
    "city": "延岡市",
    "city_kana": "ノベオカシ",
    "town": "古城町",
    "town_kana": "フルシロマチ",
    "street": null,
    "office_name": null,
    "office_name_kana": null
  },
  "0841": {
    "postcode": "8820841",
    "prefecture": "宮崎県",
    "prefecture_kana": "ミヤザキケン",
    "prefecture_code": 45,
    "city": "延岡市",
    "city_kana": "ノベオカシ",
    "town": "大瀬町",
    "town_kana": "オオセマチ",
    "street": null,
    "office_name": null,
    "office_name_kana": null
  },
  "0842": {
    "postcode": "8820842",
    "prefecture": "宮崎県",
    "prefecture_kana": "ミヤザキケン",
    "prefecture_code": 45,
    "city": "延岡市",
    "city_kana": "ノベオカシ",
    "town": "三ツ瀬町",
    "town_kana": "ミツゼマチ",
    "street": null,
    "office_name": null,
    "office_name_kana": null
  },
  "0843": {
    "postcode": "8820843",
    "prefecture": "宮崎県",
    "prefecture_kana": "ミヤザキケン",
    "prefecture_code": 45,
    "city": "延岡市",
    "city_kana": "ノベオカシ",
    "town": "永池町",
    "town_kana": "ナガイケマチ",
    "street": null,
    "office_name": null,
    "office_name_kana": null
  },
  "0844": {
    "postcode": "8820844",
    "prefecture": "宮崎県",
    "prefecture_kana": "ミヤザキケン",
    "prefecture_code": 45,
    "city": "延岡市",
    "city_kana": "ノベオカシ",
    "town": "春日町",
    "town_kana": "カスガマチ",
    "street": null,
    "office_name": null,
    "office_name_kana": null
  },
  "0845": {
    "postcode": "8820845",
    "prefecture": "宮崎県",
    "prefecture_kana": "ミヤザキケン",
    "prefecture_code": 45,
    "city": "延岡市",
    "city_kana": "ノベオカシ",
    "town": "安賀多町",
    "town_kana": "アガタマチ",
    "street": null,
    "office_name": null,
    "office_name_kana": null
  },
  "0846": {
    "postcode": "8820846",
    "prefecture": "宮崎県",
    "prefecture_kana": "ミヤザキケン",
    "prefecture_code": 45,
    "city": "延岡市",
    "city_kana": "ノベオカシ",
    "town": "中島町",
    "town_kana": "ナカシママチ",
    "street": null,
    "office_name": null,
    "office_name_kana": null
  },
  "0847": {
    "postcode": "8820847",
    "prefecture": "宮崎県",
    "prefecture_kana": "ミヤザキケン",
    "prefecture_code": 45,
    "city": "延岡市",
    "city_kana": "ノベオカシ",
    "town": "旭町",
    "town_kana": "アサヒマチ",
    "street": null,
    "office_name": null,
    "office_name_kana": null
  },
  "0851": {
    "postcode": "8820851",
    "prefecture": "宮崎県",
    "prefecture_kana": "ミヤザキケン",
    "prefecture_code": 45,
    "city": "延岡市",
    "city_kana": "ノベオカシ",
    "town": "浜砂",
    "town_kana": "ハマゴ",
    "street": null,
    "office_name": null,
    "office_name_kana": null
  },
  "0852": {
    "postcode": "8820852",
    "prefecture": "宮崎県",
    "prefecture_kana": "ミヤザキケン",
    "prefecture_code": 45,
    "city": "延岡市",
    "city_kana": "ノベオカシ",
    "town": "東浜砂町",
    "town_kana": "ヒガシハマゴマチ",
    "street": null,
    "office_name": null,
    "office_name_kana": null
  },
  "0853": {
    "postcode": "8820853",
    "prefecture": "宮崎県",
    "prefecture_kana": "ミヤザキケン",
    "prefecture_code": 45,
    "city": "延岡市",
    "city_kana": "ノベオカシ",
    "town": "方財町",
    "town_kana": "ホウザイマチ",
    "street": null,
    "office_name": null,
    "office_name_kana": null
  },
  "0854": {
    "postcode": "8820854",
    "prefecture": "宮崎県",
    "prefecture_kana": "ミヤザキケン",
    "prefecture_code": 45,
    "city": "延岡市",
    "city_kana": "ノベオカシ",
    "town": "長浜町",
    "town_kana": "ナガハママチ",
    "street": null,
    "office_name": null,
    "office_name_kana": null
  },
  "0855": {
    "postcode": "8820855",
    "prefecture": "宮崎県",
    "prefecture_kana": "ミヤザキケン",
    "prefecture_code": 45,
    "city": "延岡市",
    "city_kana": "ノベオカシ",
    "town": "卸本町",
    "town_kana": "オロシホンマチ",
    "street": null,
    "office_name": null,
    "office_name_kana": null
  },
  "0856": {
    "postcode": "8820856",
    "prefecture": "宮崎県",
    "prefecture_kana": "ミヤザキケン",
    "prefecture_code": 45,
    "city": "延岡市",
    "city_kana": "ノベオカシ",
    "town": "出北",
    "town_kana": "イデキタ",
    "street": null,
    "office_name": null,
    "office_name_kana": null
  },
  "0857": {
    "postcode": "8820857",
    "prefecture": "宮崎県",
    "prefecture_kana": "ミヤザキケン",
    "prefecture_code": 45,
    "city": "延岡市",
    "city_kana": "ノベオカシ",
    "town": "惣領町",
    "town_kana": "ソウリョウマチ",
    "street": null,
    "office_name": null,
    "office_name_kana": null
  },
  "0861": {
    "postcode": "8820861",
    "prefecture": "宮崎県",
    "prefecture_kana": "ミヤザキケン",
    "prefecture_code": 45,
    "city": "延岡市",
    "city_kana": "ノベオカシ",
    "town": "別府町",
    "town_kana": "ビュウマチ",
    "street": null,
    "office_name": null,
    "office_name_kana": null
  },
  "0862": {
    "postcode": "8820862",
    "prefecture": "宮崎県",
    "prefecture_kana": "ミヤザキケン",
    "prefecture_code": 45,
    "city": "延岡市",
    "city_kana": "ノベオカシ",
    "town": "浜町",
    "town_kana": "ハママチ",
    "street": null,
    "office_name": null,
    "office_name_kana": null
  },
  "0863": {
    "postcode": "8820863",
    "prefecture": "宮崎県",
    "prefecture_kana": "ミヤザキケン",
    "prefecture_code": 45,
    "city": "延岡市",
    "city_kana": "ノベオカシ",
    "town": "緑ケ丘",
    "town_kana": "ミドリガオカ",
    "street": null,
    "office_name": null,
    "office_name_kana": null
  },
  "0864": {
    "postcode": "8820864",
    "prefecture": "宮崎県",
    "prefecture_kana": "ミヤザキケン",
    "prefecture_code": 45,
    "city": "延岡市",
    "city_kana": "ノベオカシ",
    "town": "塩浜町",
    "town_kana": "シオハママチ",
    "street": null,
    "office_name": null,
    "office_name_kana": null
  },
  "0865": {
    "postcode": "8820865",
    "prefecture": "宮崎県",
    "prefecture_kana": "ミヤザキケン",
    "prefecture_code": 45,
    "city": "延岡市",
    "city_kana": "ノベオカシ",
    "town": "鶴ケ丘",
    "town_kana": "ツルガオカ",
    "street": null,
    "office_name": null,
    "office_name_kana": null
  },
  "0866": {
    "postcode": "8820866",
    "prefecture": "宮崎県",
    "prefecture_kana": "ミヤザキケン",
    "prefecture_code": 45,
    "city": "延岡市",
    "city_kana": "ノベオカシ",
    "town": "平原町",
    "town_kana": "ヒラバルマチ",
    "street": null,
    "office_name": null,
    "office_name_kana": null
  },
  "0867": {
    "postcode": "8820867",
    "prefecture": "宮崎県",
    "prefecture_kana": "ミヤザキケン",
    "prefecture_code": 45,
    "city": "延岡市",
    "city_kana": "ノベオカシ",
    "town": "構口町",
    "town_kana": "カマエグチマチ",
    "street": null,
    "office_name": null,
    "office_name_kana": null
  },
  "0871": {
    "postcode": "8820871",
    "prefecture": "宮崎県",
    "prefecture_kana": "ミヤザキケン",
    "prefecture_code": 45,
    "city": "延岡市",
    "city_kana": "ノベオカシ",
    "town": "愛宕山",
    "town_kana": "アタゴヤマ",
    "street": null,
    "office_name": null,
    "office_name_kana": null
  },
  "0872": {
    "postcode": "8820872",
    "prefecture": "宮崎県",
    "prefecture_kana": "ミヤザキケン",
    "prefecture_code": 45,
    "city": "延岡市",
    "city_kana": "ノベオカシ",
    "town": "愛宕町",
    "town_kana": "アタゴマチ",
    "street": null,
    "office_name": null,
    "office_name_kana": null
  },
  "0873": {
    "postcode": "8820873",
    "prefecture": "宮崎県",
    "prefecture_kana": "ミヤザキケン",
    "prefecture_code": 45,
    "city": "延岡市",
    "city_kana": "ノベオカシ",
    "town": "共栄町",
    "town_kana": "キョウエイマチ",
    "street": null,
    "office_name": null,
    "office_name_kana": null
  },
  "0874": {
    "postcode": "8820874",
    "prefecture": "宮崎県",
    "prefecture_kana": "ミヤザキケン",
    "prefecture_code": 45,
    "city": "延岡市",
    "city_kana": "ノベオカシ",
    "town": "伊達町",
    "town_kana": "ダテマチ",
    "street": null,
    "office_name": null,
    "office_name_kana": null
  },
  "0875": {
    "postcode": "8820875",
    "prefecture": "宮崎県",
    "prefecture_kana": "ミヤザキケン",
    "prefecture_code": 45,
    "city": "延岡市",
    "city_kana": "ノベオカシ",
    "town": "若葉町",
    "town_kana": "ワカバマチ",
    "street": null,
    "office_name": null,
    "office_name_kana": null
  },
  "0876": {
    "postcode": "8820876",
    "prefecture": "宮崎県",
    "prefecture_kana": "ミヤザキケン",
    "prefecture_code": 45,
    "city": "延岡市",
    "city_kana": "ノベオカシ",
    "town": "沖田町",
    "town_kana": "オキタマチ",
    "street": null,
    "office_name": null,
    "office_name_kana": null
  },
  "0877": {
    "postcode": "8820877",
    "prefecture": "宮崎県",
    "prefecture_kana": "ミヤザキケン",
    "prefecture_code": 45,
    "city": "延岡市",
    "city_kana": "ノベオカシ",
    "town": "片田町",
    "town_kana": "カタタマチ",
    "street": null,
    "office_name": null,
    "office_name_kana": null
  },
  "0881": {
    "postcode": "8820881",
    "prefecture": "宮崎県",
    "prefecture_kana": "ミヤザキケン",
    "prefecture_code": 45,
    "city": "延岡市",
    "city_kana": "ノベオカシ",
    "town": "三須町",
    "town_kana": "ミスマチ",
    "street": null,
    "office_name": null,
    "office_name_kana": null
  },
  "0882": {
    "postcode": "8820882",
    "prefecture": "宮崎県",
    "prefecture_kana": "ミヤザキケン",
    "prefecture_code": 45,
    "city": "延岡市",
    "city_kana": "ノベオカシ",
    "town": "小野町",
    "town_kana": "コノマチ",
    "street": null,
    "office_name": null,
    "office_name_kana": null
  },
  "0883": {
    "postcode": "8820883",
    "prefecture": "宮崎県",
    "prefecture_kana": "ミヤザキケン",
    "prefecture_code": 45,
    "city": "延岡市",
    "city_kana": "ノベオカシ",
    "town": "下三輪町",
    "town_kana": "シモミワマチ",
    "street": null,
    "office_name": null,
    "office_name_kana": null
  },
  "0884": {
    "postcode": "8820884",
    "prefecture": "宮崎県",
    "prefecture_kana": "ミヤザキケン",
    "prefecture_code": 45,
    "city": "延岡市",
    "city_kana": "ノベオカシ",
    "town": "中三輪町",
    "town_kana": "ナカミワマチ",
    "street": null,
    "office_name": null,
    "office_name_kana": null
  },
  "0885": {
    "postcode": "8820885",
    "prefecture": "宮崎県",
    "prefecture_kana": "ミヤザキケン",
    "prefecture_code": 45,
    "city": "延岡市",
    "city_kana": "ノベオカシ",
    "town": "上三輪町",
    "town_kana": "カミミワマチ",
    "street": null,
    "office_name": null,
    "office_name_kana": null
  },
  "1100": {
    "postcode": "8821100",
    "prefecture": "宮崎県",
    "prefecture_kana": "ミヤザキケン",
    "prefecture_code": 45,
    "city": "西臼杵郡高千穂町",
    "city_kana": "ニシウスキグンタカチホチョウ",
    "town": "",
    "town_kana": "",
    "street": null,
    "office_name": null,
    "office_name_kana": null
  },
  "1101": {
    "postcode": "8821101",
    "prefecture": "宮崎県",
    "prefecture_kana": "ミヤザキケン",
    "prefecture_code": 45,
    "city": "西臼杵郡高千穂町",
    "city_kana": "ニシウスキグンタカチホチョウ",
    "town": "三田井",
    "town_kana": "ミタイ",
    "street": null,
    "office_name": null,
    "office_name_kana": null
  },
  "1102": {
    "postcode": "8821102",
    "prefecture": "宮崎県",
    "prefecture_kana": "ミヤザキケン",
    "prefecture_code": 45,
    "city": "西臼杵郡高千穂町",
    "city_kana": "ニシウスキグンタカチホチョウ",
    "town": "押方",
    "town_kana": "オシカタ",
    "street": null,
    "office_name": null,
    "office_name_kana": null
  },
  "1103": {
    "postcode": "8821103",
    "prefecture": "宮崎県",
    "prefecture_kana": "ミヤザキケン",
    "prefecture_code": 45,
    "city": "西臼杵郡高千穂町",
    "city_kana": "ニシウスキグンタカチホチョウ",
    "town": "向山",
    "town_kana": "ムコウヤマ",
    "street": null,
    "office_name": null,
    "office_name_kana": null
  },
  "1192": {
    "postcode": "8821192",
    "prefecture": "宮崎県",
    "prefecture_kana": "ミヤザキケン",
    "prefecture_code": 45,
    "city": "西臼杵郡高千穂町",
    "city_kana": "ニシウスキグンタカチホチョウ",
    "town": "大字三田井",
    "town_kana": null,
    "street": "１３",
    "office_name": "高千穂町役場",
    "office_name_kana": "タカチホチヨウヤクバ"
  },
  "1200": {
    "postcode": "8821200",
    "prefecture": "宮崎県",
    "prefecture_kana": "ミヤザキケン",
    "prefecture_code": 45,
    "city": "西臼杵郡五ヶ瀬町",
    "city_kana": "ニシウスキグンゴカセチョウ",
    "town": "",
    "town_kana": "",
    "street": null,
    "office_name": null,
    "office_name_kana": null
  },
  "1201": {
    "postcode": "8821201",
    "prefecture": "宮崎県",
    "prefecture_kana": "ミヤザキケン",
    "prefecture_code": 45,
    "city": "西臼杵郡五ヶ瀬町",
    "city_kana": "ニシウスキグンゴカセチョウ",
    "town": "鞍岡",
    "town_kana": "クラオカ",
    "street": null,
    "office_name": null,
    "office_name_kana": null
  },
  "1202": {
    "postcode": "8821202",
    "prefecture": "宮崎県",
    "prefecture_kana": "ミヤザキケン",
    "prefecture_code": 45,
    "city": "西臼杵郡五ヶ瀬町",
    "city_kana": "ニシウスキグンゴカセチョウ",
    "town": "桑野内",
    "town_kana": "クワノウチ",
    "street": null,
    "office_name": null,
    "office_name_kana": null
  },
  "1203": {
    "postcode": "8821203",
    "prefecture": "宮崎県",
    "prefecture_kana": "ミヤザキケン",
    "prefecture_code": 45,
    "city": "西臼杵郡五ヶ瀬町",
    "city_kana": "ニシウスキグンゴカセチョウ",
    "town": "三ヶ所",
    "town_kana": "サンカショ",
    "street": null,
    "office_name": null,
    "office_name_kana": null
  },
  "1293": {
    "postcode": "8821293",
    "prefecture": "宮崎県",
    "prefecture_kana": "ミヤザキケン",
    "prefecture_code": 45,
    "city": "西臼杵郡五ヶ瀬町",
    "city_kana": "ニシウスキグンゴカセチョウ",
    "town": "大字三ヶ所",
    "town_kana": null,
    "street": "２１６４",
    "office_name": "雲海酒造　株式会社　本社工場",
    "office_name_kana": "ウンカイシユゾウ カブシキガイシヤ ホンシヤコウジヨウ"
  },
  "1294": {
    "postcode": "8821294",
    "prefecture": "宮崎県",
    "prefecture_kana": "ミヤザキケン",
    "prefecture_code": 45,
    "city": "西臼杵郡五ヶ瀬町",
    "city_kana": "ニシウスキグンゴカセチョウ",
    "town": "大字三ヶ所",
    "town_kana": null,
    "street": "１０７０５",
    "office_name": "高千穂地区農業協同組合　五ケ瀬支所",
    "office_name_kana": "タカチホチクノウギヨウキヨウドウクミアイ ゴカセシシヨ"
  },
  "1295": {
    "postcode": "8821295",
    "prefecture": "宮崎県",
    "prefecture_kana": "ミヤザキケン",
    "prefecture_code": 45,
    "city": "西臼杵郡五ヶ瀬町",
    "city_kana": "ニシウスキグンゴカセチョウ",
    "town": "大字三ヶ所",
    "town_kana": null,
    "street": "１６７０",
    "office_name": "五ヶ瀬町役場",
    "office_name_kana": "ゴカセチヨウヤクバ"
  },
  "1411": {
    "postcode": "8821411",
    "prefecture": "宮崎県",
    "prefecture_kana": "ミヤザキケン",
    "prefecture_code": 45,
    "city": "西臼杵郡高千穂町",
    "city_kana": "ニシウスキグンタカチホチョウ",
    "town": "上野",
    "town_kana": "カミノ",
    "street": null,
    "office_name": null,
    "office_name_kana": null
  },
  "1412": {
    "postcode": "8821412",
    "prefecture": "宮崎県",
    "prefecture_kana": "ミヤザキケン",
    "prefecture_code": 45,
    "city": "西臼杵郡高千穂町",
    "city_kana": "ニシウスキグンタカチホチョウ",
    "town": "下野",
    "town_kana": "シモノ",
    "street": null,
    "office_name": null,
    "office_name_kana": null
  },
  "1413": {
    "postcode": "8821413",
    "prefecture": "宮崎県",
    "prefecture_kana": "ミヤザキケン",
    "prefecture_code": 45,
    "city": "西臼杵郡高千穂町",
    "city_kana": "ニシウスキグンタカチホチョウ",
    "town": "田原",
    "town_kana": "タバル",
    "street": null,
    "office_name": null,
    "office_name_kana": null
  },
  "1414": {
    "postcode": "8821414",
    "prefecture": "宮崎県",
    "prefecture_kana": "ミヤザキケン",
    "prefecture_code": 45,
    "city": "西臼杵郡高千穂町",
    "city_kana": "ニシウスキグンタカチホチョウ",
    "town": "河内",
    "town_kana": "カワチ",
    "street": null,
    "office_name": null,
    "office_name_kana": null
  },
  "1415": {
    "postcode": "8821415",
    "prefecture": "宮崎県",
    "prefecture_kana": "ミヤザキケン",
    "prefecture_code": 45,
    "city": "西臼杵郡高千穂町",
    "city_kana": "ニシウスキグンタカチホチョウ",
    "town": "五ケ所",
    "town_kana": "ゴカショ",
    "street": null,
    "office_name": null,
    "office_name_kana": null
  },
  "1621": {
    "postcode": "8821621",
    "prefecture": "宮崎県",
    "prefecture_kana": "ミヤザキケン",
    "prefecture_code": 45,
    "city": "西臼杵郡高千穂町",
    "city_kana": "ニシウスキグンタカチホチョウ",
    "town": "岩戸",
    "town_kana": "イワト",
    "street": null,
    "office_name": null,
    "office_name_kana": null
  },
  "1622": {
    "postcode": "8821622",
    "prefecture": "宮崎県",
    "prefecture_kana": "ミヤザキケン",
    "prefecture_code": 45,
    "city": "西臼杵郡高千穂町",
    "city_kana": "ニシウスキグンタカチホチョウ",
    "town": "上岩戸",
    "town_kana": "カミイワト",
    "street": null,
    "office_name": null,
    "office_name_kana": null
  },
  "8503": {
    "postcode": "8828503",
    "prefecture": "宮崎県",
    "prefecture_kana": "ミヤザキケン",
    "prefecture_code": 45,
    "city": "延岡市",
    "city_kana": "ノベオカシ",
    "town": "大貫町",
    "town_kana": "オオヌキマチ",
    "street": "１丁目２９７８−２",
    "office_name": "日本年金機構　延岡年金事務所",
    "office_name_kana": "ニツポンネンキンキコウ ノベオカネンキンジムシヨ"
  },
  "8508": {
    "postcode": "8828508",
    "prefecture": "宮崎県",
    "prefecture_kana": "ミヤザキケン",
    "prefecture_code": 45,
    "city": "延岡市",
    "city_kana": "ノベオカシ",
    "town": "吉野町",
    "town_kana": "ヨシノマチ",
    "street": "１７１４番１",
    "office_name": "九州保健福祉大学",
    "office_name_kana": "キユウシユウホケンフクシダイガク"
  },
  "8585": {
    "postcode": "8828585",
    "prefecture": "宮崎県",
    "prefecture_kana": "ミヤザキケン",
    "prefecture_code": 45,
    "city": "延岡市",
    "city_kana": "ノベオカシ",
    "town": "東本小路",
    "town_kana": "ヒガシホンコウジ",
    "street": "１２１番地",
    "office_name": "宮崎地方裁判所延岡支部",
    "office_name_kana": "ミヤザキチホウサイバンシヨ ノベオカシブ"
  },
  "8611": {
    "postcode": "8828611",
    "prefecture": "宮崎県",
    "prefecture_kana": "ミヤザキケン",
    "prefecture_code": 45,
    "city": "延岡市",
    "city_kana": "ノベオカシ",
    "town": "南町",
    "town_kana": "ミナミマチ",
    "street": "１丁目２−５（延岡郵便局私書箱第１１号）",
    "office_name": "宮崎銀行　延岡支店",
    "office_name_kana": "ミヤザキギンコウ ノベオカシテン"
  },
  "8666": {
    "postcode": "8828666",
    "prefecture": "宮崎県",
    "prefecture_kana": "ミヤザキケン",
    "prefecture_code": 45,
    "city": "延岡市",
    "city_kana": "ノベオカシ",
    "town": "大貫町",
    "town_kana": "オオヌキマチ",
    "street": "１丁目２９１５番地（延岡郵便局私書箱第８号）",
    "office_name": "延岡税務署",
    "office_name_kana": "ノベオカゼイムシヨ"
  },
  "8678": {
    "postcode": "8828678",
    "prefecture": "宮崎県",
    "prefecture_kana": "ミヤザキケン",
    "prefecture_code": 45,
    "city": "延岡市",
    "city_kana": "ノベオカシ",
    "town": "瀬之口町",
    "town_kana": "セノクチマチ",
    "street": "１丁目３−１０（延岡郵便局私書箱第３６号）",
    "office_name": "国民生活金融公庫　延岡支店",
    "office_name_kana": "コクミンセイカツキンユウコウコ ノベオカシテン"
  },
  "8686": {
    "postcode": "8828686",
    "prefecture": "宮崎県",
    "prefecture_kana": "ミヤザキケン",
    "prefecture_code": 45,
    "city": "延岡市",
    "city_kana": "ノベオカシ",
    "town": "東本小路",
    "town_kana": "ヒガシホンコウジ",
    "street": "２−１（延岡郵便局私書箱第４６号）",
    "office_name": "延岡市役所",
    "office_name_kana": "ノベオカシヤクシヨ"
  },
  "8688": {
    "postcode": "8828688",
    "prefecture": "宮崎県",
    "prefecture_kana": "ミヤザキケン",
    "prefecture_code": 45,
    "city": "延岡市",
    "city_kana": "ノベオカシ",
    "town": "中の瀬町",
    "town_kana": "ナカノセマチ",
    "street": "２丁目５９５５番地（延岡郵便局私書箱第４３号）",
    "office_name": "旭有機材工業　株式会社",
    "office_name_kana": "アサヒユウキザイコウギヨウ カブシキガイシヤ"
  }
}