{
  "0000": {
    "postcode": "8840000",
    "prefecture": "宮崎県",
    "prefecture_kana": "ミヤザキケン",
    "prefecture_code": 45,
    "city": "児湯郡高鍋町",
    "city_kana": "コユグンタカナベチョウ",
    "town": "",
    "town_kana": "",
    "street": null,
    "office_name": null,
    "office_name_kana": null
  },
  "0001": {
    "postcode": "8840001",
    "prefecture": "宮崎県",
    "prefecture_kana": "ミヤザキケン",
    "prefecture_code": 45,
    "city": "児湯郡高鍋町",
    "city_kana": "コユグンタカナベチョウ",
    "town": "高鍋町",
    "town_kana": "タカナベマチ",
    "street": null,
    "office_name": null,
    "office_name_kana": null
  },
  "0002": {
    "postcode": "8840002",
    "prefecture": "宮崎県",
    "prefecture_kana": "ミヤザキケン",
    "prefecture_code": 45,
    "city": "児湯郡高鍋町",
    "city_kana": "コユグンタカナベチョウ",
    "town": "北高鍋",
    "town_kana": "キタタカナベ",
    "street": null,
    "office_name": null,
    "office_name_kana": null
  },
  "0003": {
    "postcode": "8840003",
    "prefecture": "宮崎県",
    "prefecture_kana": "ミヤザキケン",
    "prefecture_code": 45,
    "city": "児湯郡高鍋町",
    "city_kana": "コユグンタカナベチョウ",
    "town": "南高鍋",
    "town_kana": "ミナミタカナベ",
    "street": null,
    "office_name": null,
    "office_name_kana": null
  },
  "0004": {
    "postcode": "8840004",
    "prefecture": "宮崎県",
    "prefecture_kana": "ミヤザキケン",
    "prefecture_code": 45,
    "city": "児湯郡高鍋町",
    "city_kana": "コユグンタカナベチョウ",
    "town": "蚊口浦",
    "town_kana": "カグチウラ",
    "street": null,
    "office_name": null,
    "office_name_kana": null
  },
  "0005": {
    "postcode": "8840005",
    "prefecture": "宮崎県",
    "prefecture_kana": "ミヤザキケン",
    "prefecture_code": 45,
    "city": "児湯郡高鍋町",
    "city_kana": "コユグンタカナベチョウ",
    "town": "持田",
    "town_kana": "モチダ",
    "street": null,
    "office_name": null,
    "office_name_kana": null
  },
  "0006": {
    "postcode": "8840006",
    "prefecture": "宮崎県",
    "prefecture_kana": "ミヤザキケン",
    "prefecture_code": 45,
    "city": "児湯郡高鍋町",
    "city_kana": "コユグンタカナベチョウ",
    "town": "上江",
    "town_kana": "ウワエ",
    "street": null,
    "office_name": null,
    "office_name_kana": null
  },
  "0100": {
    "postcode": "8840100",
    "prefecture": "宮崎県",
    "prefecture_kana": "ミヤザキケン",
    "prefecture_code": 45,
    "city": "児湯郡木城町",
    "city_kana": "コユグンキジョウチョウ",
    "town": "",
    "town_kana": "",
    "street": null,
    "office_name": null,
    "office_name_kana": null
  },
  "0101": {
    "postcode": "8840101",
    "prefecture": "宮崎県",
    "prefecture_kana": "ミヤザキケン",
    "prefecture_code": 45,
    "city": "児湯郡木城町",
    "city_kana": "コユグンキジョウチョウ",
    "town": "高城",
    "town_kana": "タカジョウ",
    "street": null,
    "office_name": null,
    "office_name_kana": null
  },
  "0102": {
    "postcode": "8840102",
    "prefecture": "宮崎県",
    "prefecture_kana": "ミヤザキケン",
    "prefecture_code": 45,
    "city": "児湯郡木城町",
    "city_kana": "コユグンキジョウチョウ",
    "town": "椎木",
    "town_kana": "シイノキ",
    "street": null,
    "office_name": null,
    "office_name_kana": null
  },
  "0103": {
    "postcode": "8840103",
    "prefecture": "宮崎県",
    "prefecture_kana": "ミヤザキケン",
    "prefecture_code": 45,
    "city": "児湯郡木城町",
    "city_kana": "コユグンキジョウチョウ",
    "town": "川原",
    "town_kana": "カワバル",
    "street": null,
    "office_name": null,
    "office_name_kana": null
  },
  "0104": {
    "postcode": "8840104",
    "prefecture": "宮崎県",
    "prefecture_kana": "ミヤザキケン",
    "prefecture_code": 45,
    "city": "児湯郡木城町",
    "city_kana": "コユグンキジョウチョウ",
    "town": "石河内",
    "town_kana": "イシカワウチ",
    "street": null,
    "office_name": null,
    "office_name_kana": null
  },
  "0105": {
    "postcode": "8840105",
    "prefecture": "宮崎県",
    "prefecture_kana": "ミヤザキケン",
    "prefecture_code": 45,
    "city": "児湯郡木城町",
    "city_kana": "コユグンキジョウチョウ",
    "town": "中之又",
    "town_kana": "ナカノマタ",
    "street": null,
    "office_name": null,
    "office_name_kana": null
  },
  "8601": {
    "postcode": "8848601",
    "prefecture": "宮崎県",
    "prefecture_kana": "ミヤザキケン",
    "prefecture_code": 45,
    "city": "児湯郡高鍋町",
    "city_kana": "コユグンタカナベチョウ",
    "town": "大字上江",
    "town_kana": null,
    "street": "１２０７−５（高鍋郵便局私書箱第４号）",
    "office_name": "高鍋税務署",
    "office_name_kana": "タカナベゼイムシヨ"
  },
  "8611": {
    "postcode": "8848611",
    "prefecture": "宮崎県",
    "prefecture_kana": "ミヤザキケン",
    "prefecture_code": 45,
    "city": "児湯郡高鍋町",
    "city_kana": "コユグンタカナベチョウ",
    "town": "大字南高鍋",
    "town_kana": null,
    "street": "１１７００−１",
    "office_name": "宮崎キヤノン　株式会社　本社高鍋事業所",
    "office_name_kana": "ミヤザキキヤノン カブシキガイシヤ ホンシヤタカナベジギヨウシヨ"
  },
  "8655": {
    "postcode": "8848655",
    "prefecture": "宮崎県",
    "prefecture_kana": "ミヤザキケン",
    "prefecture_code": 45,
    "city": "児湯郡高鍋町",
    "city_kana": "コユグンタカナベチョウ",
    "town": "大字上江",
    "town_kana": null,
    "street": "１２０７−１",
    "office_name": "高鍋町役場",
    "office_name_kana": "タカナベチヨウヤクバ"
  },
  "8666": {
    "postcode": "8848666",
    "prefecture": "宮崎県",
    "prefecture_kana": "ミヤザキケン",
    "prefecture_code": 45,
    "city": "児湯郡高鍋町",
    "city_kana": "コユグンタカナベチョウ",
    "town": "大字高鍋町",
    "town_kana": null,
    "street": "６７３（高鍋郵便局私書箱第７号）",
    "office_name": "高鍋信用金庫",
    "office_name_kana": "タカナベシンヨウキンコ"
  }
}