{
  "0000": {
    "postcode": "8860000",
    "prefecture": "宮崎県",
    "prefecture_kana": "ミヤザキケン",
    "prefecture_code": 45,
    "city": "小林市",
    "city_kana": "コバヤシシ",
    "town": "",
    "town_kana": "",
    "street": null,
    "office_name": null,
    "office_name_kana": null
  },
  "0001": {
    "postcode": "8860001",
    "prefecture": "宮崎県",
    "prefecture_kana": "ミヤザキケン",
    "prefecture_code": 45,
    "city": "小林市",
    "city_kana": "コバヤシシ",
    "town": "東方",
    "town_kana": "ヒガシカタ",
    "street": null,
    "office_name": null,
    "office_name_kana": null
  },
  "0002": {
    "postcode": "8860002",
    "prefecture": "宮崎県",
    "prefecture_kana": "ミヤザキケン",
    "prefecture_code": 45,
    "city": "小林市",
    "city_kana": "コバヤシシ",
    "town": "水流迫",
    "town_kana": "ツルザコ",
    "street": null,
    "office_name": null,
    "office_name_kana": null
  },
  "0003": {
    "postcode": "8860003",
    "prefecture": "宮崎県",
    "prefecture_kana": "ミヤザキケン",
    "prefecture_code": 45,
    "city": "小林市",
    "city_kana": "コバヤシシ",
    "town": "堤",
    "town_kana": "ツツミ",
    "street": null,
    "office_name": null,
    "office_name_kana": null
  },
  "0004": {
    "postcode": "8860004",
    "prefecture": "宮崎県",
    "prefecture_kana": "ミヤザキケン",
    "prefecture_code": 45,
    "city": "小林市",
    "city_kana": "コバヤシシ",
    "town": "細野",
    "town_kana": "ホソノ",
    "street": null,
    "office_name": null,
    "office_name_kana": null
  },
  "0005": {
    "postcode": "8860005",
    "prefecture": "宮崎県",
    "prefecture_kana": "ミヤザキケン",
    "prefecture_code": 45,
    "city": "小林市",
    "city_kana": "コバヤシシ",
    "town": "南西方",
    "town_kana": "ミナミニシカタ",
    "street": null,
    "office_name": null,
    "office_name_kana": null
  },
  "0006": {
    "postcode": "8860006",
    "prefecture": "宮崎県",
    "prefecture_kana": "ミヤザキケン",
    "prefecture_code": 45,
    "city": "小林市",
    "city_kana": "コバヤシシ",
    "town": "北西方",
    "town_kana": "キタニシカタ",
    "street": null,
    "office_name": null,
    "office_name_kana": null
  },
  "0007": {
    "postcode": "8860007",
    "prefecture": "宮崎県",
    "prefecture_kana": "ミヤザキケン",
    "prefecture_code": 45,
    "city": "小林市",
    "city_kana": "コバヤシシ",
    "town": "真方",
    "town_kana": "マガタ",
    "street": null,
    "office_name": null,
    "office_name_kana": null
  },
  "0008": {
    "postcode": "8860008",
    "prefecture": "宮崎県",
    "prefecture_kana": "ミヤザキケン",
    "prefecture_code": 45,
    "city": "小林市",
    "city_kana": "コバヤシシ",
    "town": "本町",
    "town_kana": "ホンマチ",
    "street": null,
    "office_name": null,
    "office_name_kana": null
  },
  "0009": {
    "postcode": "8860009",
    "prefecture": "宮崎県",
    "prefecture_kana": "ミヤザキケン",
    "prefecture_code": 45,
    "city": "小林市",
    "city_kana": "コバヤシシ",
    "town": "駅南",
    "town_kana": "エキミナミ",
    "street": null,
    "office_name": null,
    "office_name_kana": null
  },
  "0101": {
    "postcode": "8860101",
    "prefecture": "宮崎県",
    "prefecture_kana": "ミヤザキケン",
    "prefecture_code": 45,
    "city": "小林市",
    "city_kana": "コバヤシシ",
    "town": "東方",
    "town_kana": "ヒガシカタ",
    "street": null,
    "office_name": null,
    "office_name_kana": null
  },
  "0111": {
    "postcode": "8860111",
    "prefecture": "宮崎県",
    "prefecture_kana": "ミヤザキケン",
    "prefecture_code": 45,
    "city": "小林市",
    "city_kana": "コバヤシシ",
    "town": "須木中原",
    "town_kana": "スキナカハラ",
    "street": null,
    "office_name": null,
    "office_name_kana": null
  },
  "0112": {
    "postcode": "8860112",
    "prefecture": "宮崎県",
    "prefecture_kana": "ミヤザキケン",
    "prefecture_code": 45,
    "city": "小林市",
    "city_kana": "コバヤシシ",
    "town": "須木下田",
    "town_kana": "スキシモダ",
    "street": null,
    "office_name": null,
    "office_name_kana": null
  },
  "0113": {
    "postcode": "8860113",
    "prefecture": "宮崎県",
    "prefecture_kana": "ミヤザキケン",
    "prefecture_code": 45,
    "city": "小林市",
    "city_kana": "コバヤシシ",
    "town": "須木鳥田町",
    "town_kana": "スキトリダマチ",
    "street": null,
    "office_name": null,
    "office_name_kana": null
  },
  "0114": {
    "postcode": "8860114",
    "prefecture": "宮崎県",
    "prefecture_kana": "ミヤザキケン",
    "prefecture_code": 45,
    "city": "小林市",
    "city_kana": "コバヤシシ",
    "town": "須木奈佐木",
    "town_kana": "スキナサキ",
    "street": null,
    "office_name": null,
    "office_name_kana": null
  },
  "0115": {
    "postcode": "8860115",
    "prefecture": "宮崎県",
    "prefecture_kana": "ミヤザキケン",
    "prefecture_code": 45,
    "city": "小林市",
    "city_kana": "コバヤシシ",
    "town": "須木内山",
    "town_kana": "スキウチヤマ",
    "street": null,
    "office_name": null,
    "office_name_kana": null
  },
  "0192": {
    "postcode": "8860192",
    "prefecture": "宮崎県",
    "prefecture_kana": "ミヤザキケン",
    "prefecture_code": 45,
    "city": "小林市",
    "city_kana": "コバヤシシ",
    "town": "須木大字中原",
    "town_kana": null,
    "street": "１７５７",
    "office_name": "小林市　須木庁舎",
    "office_name_kana": "コバヤシシ スキチヨウシヤ"
  },
  "0211": {
    "postcode": "8860211",
    "prefecture": "宮崎県",
    "prefecture_kana": "ミヤザキケン",
    "prefecture_code": 45,
    "city": "小林市",
    "city_kana": "コバヤシシ",
    "town": "野尻町紙屋",
    "town_kana": "ノジリチョウカミヤ",
    "street": null,
    "office_name": null,
    "office_name_kana": null
  },
  "0212": {
    "postcode": "8860212",
    "prefecture": "宮崎県",
    "prefecture_kana": "ミヤザキケン",
    "prefecture_code": 45,
    "city": "小林市",
    "city_kana": "コバヤシシ",
    "town": "野尻町東麓",
    "town_kana": "ノジリチョウヒガシフモト",
    "street": null,
    "office_name": null,
    "office_name_kana": null
  },
  "0213": {
    "postcode": "8860213",
    "prefecture": "宮崎県",
    "prefecture_kana": "ミヤザキケン",
    "prefecture_code": 45,
    "city": "小林市",
    "city_kana": "コバヤシシ",
    "town": "野尻町三ケ野山",
    "town_kana": "ノジリチョウミカノヤマ",
    "street": null,
    "office_name": null,
    "office_name_kana": null
  },
  "0292": {
    "postcode": "8860292",
    "prefecture": "宮崎県",
    "prefecture_kana": "ミヤザキケン",
    "prefecture_code": 45,
    "city": "小林市",
    "city_kana": "コバヤシシ",
    "town": "野尻町東麓",
    "town_kana": "ノジリチョウヒガシフモト",
    "street": "１１８３−２",
    "office_name": "小林市　野尻庁舎",
    "office_name_kana": "コバヤシシ ノジリチヨウシヤ"
  },
  "8501": {
    "postcode": "8868501",
    "prefecture": "宮崎県",
    "prefecture_kana": "ミヤザキケン",
    "prefecture_code": 45,
    "city": "小林市",
    "city_kana": "コバヤシシ",
    "town": "大字細野",
    "town_kana": null,
    "street": "３００",
    "office_name": "小林市役所",
    "office_name_kana": "コバヤシシヤクシヨ"
  },
  "8502": {
    "postcode": "8868502",
    "prefecture": "宮崎県",
    "prefecture_kana": "ミヤザキケン",
    "prefecture_code": 45,
    "city": "小林市",
    "city_kana": "コバヤシシ",
    "town": "大字細野",
    "town_kana": null,
    "street": "１８９９−３",
    "office_name": "小林商工会議所",
    "office_name_kana": "コバヤシシヨウコウカイギシヨ"
  },
  "8503": {
    "postcode": "8868503",
    "prefecture": "宮崎県",
    "prefecture_kana": "ミヤザキケン",
    "prefecture_code": 45,
    "city": "小林市",
    "city_kana": "コバヤシシ",
    "town": "大字細野",
    "town_kana": null,
    "street": "２２３５−３",
    "office_name": "小林市民病院",
    "office_name_kana": "コバヤシシミンビヨウイン"
  },
  "8505": {
    "postcode": "8868505",
    "prefecture": "宮崎県",
    "prefecture_kana": "ミヤザキケン",
    "prefecture_code": 45,
    "city": "小林市",
    "city_kana": "コバヤシシ",
    "town": "大字真方",
    "town_kana": null,
    "street": "１２４",
    "office_name": "宮崎県立　小林高等学校",
    "office_name_kana": "ミヤザキケンリツ コバヤシコウトウガツコウ"
  },
  "8506": {
    "postcode": "8868506",
    "prefecture": "宮崎県",
    "prefecture_kana": "ミヤザキケン",
    "prefecture_code": 45,
    "city": "小林市",
    "city_kana": "コバヤシシ",
    "town": "大字水流迫",
    "town_kana": null,
    "street": "６６４−２",
    "office_name": "小林工業高等学校",
    "office_name_kana": "コバヤシコウギヨウコウトウガツコウ"
  },
  "8510": {
    "postcode": "8868510",
    "prefecture": "宮崎県",
    "prefecture_kana": "ミヤザキケン",
    "prefecture_code": 45,
    "city": "小林市",
    "city_kana": "コバヤシシ",
    "town": "大字細野",
    "town_kana": null,
    "street": "１３４２−１",
    "office_name": "児玉商事　株式会社",
    "office_name_kana": "コダマシヨウジ カブシキガイシヤ"
  },
  "8511": {
    "postcode": "8868511",
    "prefecture": "宮崎県",
    "prefecture_kana": "ミヤザキケン",
    "prefecture_code": 45,
    "city": "小林市",
    "city_kana": "コバヤシシ",
    "town": "大字細野",
    "town_kana": null,
    "street": "２７３８",
    "office_name": "九州グンゼ　株式会社　宮崎工場",
    "office_name_kana": "キユウシユウグンゼ カブシキガイシヤ ミヤザキコウジヨウ"
  },
  "8512": {
    "postcode": "8868512",
    "prefecture": "宮崎県",
    "prefecture_kana": "ミヤザキケン",
    "prefecture_code": 45,
    "city": "小林市",
    "city_kana": "コバヤシシ",
    "town": "大字真方",
    "town_kana": null,
    "street": "２１８",
    "office_name": "株式会社　ロンフレ",
    "office_name_kana": "カブシキガイシヤ ロンフレ"
  },
  "8520": {
    "postcode": "8868520",
    "prefecture": "宮崎県",
    "prefecture_kana": "ミヤザキケン",
    "prefecture_code": 45,
    "city": "小林市",
    "city_kana": "コバヤシシ",
    "town": "大字細野",
    "town_kana": null,
    "street": "１３２１",
    "office_name": "こばやし農業協同組合",
    "office_name_kana": "コバヤシノウギヨウキヨウドウクミアイ"
  },
  "8588": {
    "postcode": "8868588",
    "prefecture": "宮崎県",
    "prefecture_kana": "ミヤザキケン",
    "prefecture_code": 45,
    "city": "小林市",
    "city_kana": "コバヤシシ",
    "town": "大字細野",
    "town_kana": null,
    "street": "５８８",
    "office_name": "小林西高等学校",
    "office_name_kana": "コバヤシニシコウトウガツコウ"
  },
  "8601": {
    "postcode": "8868601",
    "prefecture": "宮崎県",
    "prefecture_kana": "ミヤザキケン",
    "prefecture_code": 45,
    "city": "小林市",
    "city_kana": "コバヤシシ",
    "town": "大字細野",
    "town_kana": null,
    "street": "２４３−１",
    "office_name": "小林税務署",
    "office_name_kana": "コバヤシゼイムシヨ"
  },
  "8602": {
    "postcode": "8868602",
    "prefecture": "宮崎県",
    "prefecture_kana": "ミヤザキケン",
    "prefecture_code": 45,
    "city": "小林市",
    "city_kana": "コバヤシシ",
    "town": "本町",
    "town_kana": "ホンマチ",
    "street": "２３（小林郵便局私書箱第１号）",
    "office_name": "宮崎銀行　小林支店",
    "office_name_kana": "ミヤザキギンコウ コバヤシシテン"
  },
  "8611": {
    "postcode": "8868611",
    "prefecture": "宮崎県",
    "prefecture_kana": "ミヤザキケン",
    "prefecture_code": 45,
    "city": "小林市",
    "city_kana": "コバヤシシ",
    "town": "大字細野",
    "town_kana": null,
    "street": "１５９７（小林郵便局私書箱第１９号）",
    "office_name": "高鍋信用金庫　小林支店",
    "office_name_kana": "タカナベシンヨウキンコ コバヤシシテン"
  }
}