{
  "0000": {
    "postcode": "8870000",
    "prefecture": "宮崎県",
    "prefecture_kana": "ミヤザキケン",
    "prefecture_code": 45,
    "city": "日南市",
    "city_kana": "ニチナンシ",
    "town": "",
    "town_kana": "",
    "street": null,
    "office_name": null,
    "office_name_kana": null
  },
  "0001": {
    "postcode": "8870001",
    "prefecture": "宮崎県",
    "prefecture_kana": "ミヤザキケン",
    "prefecture_code": 45,
    "city": "日南市",
    "city_kana": "ニチナンシ",
    "town": "油津",
    "town_kana": "アブラツ",
    "street": null,
    "office_name": null,
    "office_name_kana": null
  },
  "0002": {
    "postcode": "8870002",
    "prefecture": "宮崎県",
    "prefecture_kana": "ミヤザキケン",
    "prefecture_code": 45,
    "city": "日南市",
    "city_kana": "ニチナンシ",
    "town": "西町",
    "town_kana": "ニシマチ",
    "street": null,
    "office_name": null,
    "office_name_kana": null
  },
  "0003": {
    "postcode": "8870003",
    "prefecture": "宮崎県",
    "prefecture_kana": "ミヤザキケン",
    "prefecture_code": 45,
    "city": "日南市",
    "city_kana": "ニチナンシ",
    "town": "瀬西",
    "town_kana": "セニシ",
    "street": null,
    "office_name": null,
    "office_name_kana": null
  },
  "0004": {
    "postcode": "8870004",
    "prefecture": "宮崎県",
    "prefecture_kana": "ミヤザキケン",
    "prefecture_code": 45,
    "city": "日南市",
    "city_kana": "ニチナンシ",
    "town": "天福",
    "town_kana": "テンプク",
    "street": null,
    "office_name": null,
    "office_name_kana": null
  },
  "0005": {
    "postcode": "8870005",
    "prefecture": "宮崎県",
    "prefecture_kana": "ミヤザキケン",
    "prefecture_code": 45,
    "city": "日南市",
    "city_kana": "ニチナンシ",
    "town": "材木町",
    "town_kana": "ザイモクチョウ",
    "street": null,
    "office_name": null,
    "office_name_kana": null
  },
  "0006": {
    "postcode": "8870006",
    "prefecture": "宮崎県",
    "prefecture_kana": "ミヤザキケン",
    "prefecture_code": 45,
    "city": "日南市",
    "city_kana": "ニチナンシ",
    "town": "春日町",
    "town_kana": "カスガチョウ",
    "street": null,
    "office_name": null,
    "office_name_kana": null
  },
  "0007": {
    "postcode": "8870007",
    "prefecture": "宮崎県",
    "prefecture_kana": "ミヤザキケン",
    "prefecture_code": 45,
    "city": "日南市",
    "city_kana": "ニチナンシ",
    "town": "乙姫町",
    "town_kana": "オトヒメチョウ",
    "street": null,
    "office_name": null,
    "office_name_kana": null
  },
  "0011": {
    "postcode": "8870011",
    "prefecture": "宮崎県",
    "prefecture_kana": "ミヤザキケン",
    "prefecture_code": 45,
    "city": "日南市",
    "city_kana": "ニチナンシ",
    "town": "瀬貝",
    "town_kana": "セガイ",
    "street": null,
    "office_name": null,
    "office_name_kana": null
  },
  "0012": {
    "postcode": "8870012",
    "prefecture": "宮崎県",
    "prefecture_kana": "ミヤザキケン",
    "prefecture_code": 45,
    "city": "日南市",
    "city_kana": "ニチナンシ",
    "town": "園田",
    "town_kana": "ソノダ",
    "street": null,
    "office_name": null,
    "office_name_kana": null
  },
  "0013": {
    "postcode": "8870013",
    "prefecture": "宮崎県",
    "prefecture_kana": "ミヤザキケン",
    "prefecture_code": 45,
    "city": "日南市",
    "city_kana": "ニチナンシ",
    "town": "木山",
    "town_kana": "キヤマ",
    "street": null,
    "office_name": null,
    "office_name_kana": null
  },
  "0014": {
    "postcode": "8870014",
    "prefecture": "宮崎県",
    "prefecture_kana": "ミヤザキケン",
    "prefecture_code": 45,
    "city": "日南市",
    "city_kana": "ニチナンシ",
    "town": "岩崎",
    "town_kana": "イワサキ",
    "street": null,
    "office_name": null,
    "office_name_kana": null
  },
  "0015": {
    "postcode": "8870015",
    "prefecture": "宮崎県",
    "prefecture_kana": "ミヤザキケン",
    "prefecture_code": 45,
    "city": "日南市",
    "city_kana": "ニチナンシ",
    "town": "平野",
    "town_kana": "ヒラノ",
    "street": null,
    "office_name": null,
    "office_name_kana": null
  },
  "0016": {
    "postcode": "8870016",
    "prefecture": "宮崎県",
    "prefecture_kana": "ミヤザキケン",
    "prefecture_code": 45,
    "city": "日南市",
    "city_kana": "ニチナンシ",
    "town": "中平野",
    "town_kana": "ナカヒラノ",
    "street": null,
    "office_name": null,
    "office_name_kana": null
  },
  "0017": {
    "postcode": "8870017",
    "prefecture": "宮崎県",
    "prefecture_kana": "ミヤザキケン",
    "prefecture_code": 45,
    "city": "日南市",
    "city_kana": "ニチナンシ",
    "town": "梅ケ浜",
    "town_kana": "ウメガハマ",
    "street": null,
    "office_name": null,
    "office_name_kana": null
  },
  "0021": {
    "postcode": "8870021",
    "prefecture": "宮崎県",
    "prefecture_kana": "ミヤザキケン",
    "prefecture_code": 45,
    "city": "日南市",
    "city_kana": "ニチナンシ",
    "town": "中央通",
    "town_kana": "チュウオウドオリ",
    "street": null,
    "office_name": null,
    "office_name_kana": null
  },
  "0022": {
    "postcode": "8870022",
    "prefecture": "宮崎県",
    "prefecture_kana": "ミヤザキケン",
    "prefecture_code": 45,
    "city": "日南市",
    "city_kana": "ニチナンシ",
    "town": "上平野町",
    "town_kana": "カミヒラノチョウ",
    "street": null,
    "office_name": null,
    "office_name_kana": null
  },
  "0023": {
    "postcode": "8870023",
    "prefecture": "宮崎県",
    "prefecture_kana": "ミヤザキケン",
    "prefecture_code": 45,
    "city": "日南市",
    "city_kana": "ニチナンシ",
    "town": "隈谷",
    "town_kana": "クマヤ",
    "street": null,
    "office_name": null,
    "office_name_kana": null
  },
  "0024": {
    "postcode": "8870024",
    "prefecture": "宮崎県",
    "prefecture_kana": "ミヤザキケン",
    "prefecture_code": 45,
    "city": "日南市",
    "city_kana": "ニチナンシ",
    "town": "西弁分",
    "town_kana": "ニシベンブン",
    "street": null,
    "office_name": null,
    "office_name_kana": null
  },
  "0031": {
    "postcode": "8870031",
    "prefecture": "宮崎県",
    "prefecture_kana": "ミヤザキケン",
    "prefecture_code": 45,
    "city": "日南市",
    "city_kana": "ニチナンシ",
    "town": "戸高",
    "town_kana": "トダカ",
    "street": null,
    "office_name": null,
    "office_name_kana": null
  },
  "0032": {
    "postcode": "8870032",
    "prefecture": "宮崎県",
    "prefecture_kana": "ミヤザキケン",
    "prefecture_code": 45,
    "city": "日南市",
    "city_kana": "ニチナンシ",
    "town": "益安",
    "town_kana": "マスヤス",
    "street": null,
    "office_name": null,
    "office_name_kana": null
  },
  "0033": {
    "postcode": "8870033",
    "prefecture": "宮崎県",
    "prefecture_kana": "ミヤザキケン",
    "prefecture_code": 45,
    "city": "日南市",
    "city_kana": "ニチナンシ",
    "town": "平山",
    "town_kana": "ヒラヤマ",
    "street": null,
    "office_name": null,
    "office_name_kana": null
  },
  "0034": {
    "postcode": "8870034",
    "prefecture": "宮崎県",
    "prefecture_kana": "ミヤザキケン",
    "prefecture_code": 45,
    "city": "日南市",
    "city_kana": "ニチナンシ",
    "town": "風田",
    "town_kana": "カゼダ",
    "street": null,
    "office_name": null,
    "office_name_kana": null
  },
  "0041": {
    "postcode": "8870041",
    "prefecture": "宮崎県",
    "prefecture_kana": "ミヤザキケン",
    "prefecture_code": 45,
    "city": "日南市",
    "city_kana": "ニチナンシ",
    "town": "吾田東",
    "town_kana": "アガタヒガシ",
    "street": null,
    "office_name": null,
    "office_name_kana": null
  },
  "0101": {
    "postcode": "8870101",
    "prefecture": "宮崎県",
    "prefecture_kana": "ミヤザキケン",
    "prefecture_code": 45,
    "city": "日南市",
    "city_kana": "ニチナンシ",
    "town": "宮浦",
    "town_kana": "ミヤウラ",
    "street": null,
    "office_name": null,
    "office_name_kana": null
  },
  "0102": {
    "postcode": "8870102",
    "prefecture": "宮崎県",
    "prefecture_kana": "ミヤザキケン",
    "prefecture_code": 45,
    "city": "日南市",
    "city_kana": "ニチナンシ",
    "town": "富土",
    "town_kana": "フト",
    "street": null,
    "office_name": null,
    "office_name_kana": null
  },
  "0111": {
    "postcode": "8870111",
    "prefecture": "宮崎県",
    "prefecture_kana": "ミヤザキケン",
    "prefecture_code": 45,
    "city": "日南市",
    "city_kana": "ニチナンシ",
    "town": "伊比井",
    "town_kana": "イビイ",
    "street": null,
    "office_name": null,
    "office_name_kana": null
  },
  "8585": {
    "postcode": "8878585",
    "prefecture": "宮崎県",
    "prefecture_kana": "ミヤザキケン",
    "prefecture_code": 45,
    "city": "日南市",
    "city_kana": "ニチナンシ",
    "town": "中央通",
    "town_kana": "チュウオウドオリ",
    "street": "１丁目１−１",
    "office_name": "日南市役所",
    "office_name_kana": "ニチナンシヤクシヨ"
  },
  "8686": {
    "postcode": "8878686",
    "prefecture": "宮崎県",
    "prefecture_kana": "ミヤザキケン",
    "prefecture_code": 45,
    "city": "日南市",
    "city_kana": "ニチナンシ",
    "town": "上平野町",
    "town_kana": "カミヒラノチョウ",
    "street": "１丁目８−４（日南郵便局私書箱第１５号）",
    "office_name": "日南税務署",
    "office_name_kana": "ニチナンゼイムシヨ"
  }
}