{
  "0101": {
    "postcode": "8890101",
    "prefecture": "宮崎県",
    "prefecture_kana": "ミヤザキケン",
    "prefecture_code": 45,
    "city": "延岡市",
    "city_kana": "ノベオカシ",
    "town": "北川町川内名",
    "town_kana": "キタガワマチカワチミョウ",
    "street": null,
    "office_name": null,
    "office_name_kana": null
  },
  "0102": {
    "postcode": "8890102",
    "prefecture": "宮崎県",
    "prefecture_kana": "ミヤザキケン",
    "prefecture_code": 45,
    "city": "延岡市",
    "city_kana": "ノベオカシ",
    "town": "北川町長井",
    "town_kana": "キタガワマチナガイ",
    "street": null,
    "office_name": null,
    "office_name_kana": null
  },
  "0192": {
    "postcode": "8890192",
    "prefecture": "宮崎県",
    "prefecture_kana": "ミヤザキケン",
    "prefecture_code": 45,
    "city": "延岡市",
    "city_kana": "ノベオカシ",
    "town": "北川町川内名",
    "town_kana": "キタガワマチカワチミョウ",
    "street": "７２５０",
    "office_name": "延岡市　北川町総合支所",
    "office_name_kana": "ノベオカシ キタガワマチソウゴウシシヨ"
  },
  "0301": {
    "postcode": "8890301",
    "prefecture": "宮崎県",
    "prefecture_kana": "ミヤザキケン",
    "prefecture_code": 45,
    "city": "延岡市",
    "city_kana": "ノベオカシ",
    "town": "北浦町古江",
    "town_kana": "キタウラマチフルエ",
    "street": null,
    "office_name": null,
    "office_name_kana": null
  },
  "0302": {
    "postcode": "8890302",
    "prefecture": "宮崎県",
    "prefecture_kana": "ミヤザキケン",
    "prefecture_code": 45,
    "city": "延岡市",
    "city_kana": "ノベオカシ",
    "town": "北浦町市振",
    "town_kana": "キタウラマチイチブリ",
    "street": null,
    "office_name": null,
    "office_name_kana": null
  },
  "0303": {
    "postcode": "8890303",
    "prefecture": "宮崎県",
    "prefecture_kana": "ミヤザキケン",
    "prefecture_code": 45,
    "city": "延岡市",
    "city_kana": "ノベオカシ",
    "town": "北浦町宮野浦",
    "town_kana": "キタウラマチミヤノウラ",
    "street": null,
    "office_name": null,
    "office_name_kana": null
  },
  "0304": {
    "postcode": "8890304",
    "prefecture": "宮崎県",
    "prefecture_kana": "ミヤザキケン",
    "prefecture_code": 45,
    "city": "延岡市",
    "city_kana": "ノベオカシ",
    "town": "北浦町三川内",
    "town_kana": "キタウラマチミカワウチ",
    "street": null,
    "office_name": null,
    "office_name_kana": null
  },
  "0321": {
    "postcode": "8890321",
    "prefecture": "宮崎県",
    "prefecture_kana": "ミヤザキケン",
    "prefecture_code": 45,
    "city": "延岡市",
    "city_kana": "ノベオカシ",
    "town": "須美江町",
    "town_kana": "スミエマチ",
    "street": null,
    "office_name": null,
    "office_name_kana": null
  },
  "0322": {
    "postcode": "8890322",
    "prefecture": "宮崎県",
    "prefecture_kana": "ミヤザキケン",
    "prefecture_code": 45,
    "city": "延岡市",
    "city_kana": "ノベオカシ",
    "town": "熊野江町",
    "town_kana": "クマノエマチ",
    "street": null,
    "office_name": null,
    "office_name_kana": null
  },
  "0392": {
    "postcode": "8890392",
    "prefecture": "宮崎県",
    "prefecture_kana": "ミヤザキケン",
    "prefecture_code": 45,
    "city": "延岡市",
    "city_kana": "ノベオカシ",
    "town": "北浦町古江",
    "town_kana": "キタウラマチフルエ",
    "street": "１９３０番地",
    "office_name": "延岡市　北浦町総合支所",
    "office_name_kana": "ノベオカシ キタウラマチソウゴウシシヨ"
  },
  "0501": {
    "postcode": "8890501",
    "prefecture": "宮崎県",
    "prefecture_kana": "ミヤザキケン",
    "prefecture_code": 45,
    "city": "延岡市",
    "city_kana": "ノベオカシ",
    "town": "石田町",
    "town_kana": "イシダマチ",
    "street": null,
    "office_name": null,
    "office_name_kana": null
  },
  "0502": {
    "postcode": "8890502",
    "prefecture": "宮崎県",
    "prefecture_kana": "ミヤザキケン",
    "prefecture_code": 45,
    "city": "延岡市",
    "city_kana": "ノベオカシ",
    "town": "上伊形町",
    "town_kana": "カミイガダマチ",
    "street": null,
    "office_name": null,
    "office_name_kana": null
  },
  "0503": {
    "postcode": "8890503",
    "prefecture": "宮崎県",
    "prefecture_kana": "ミヤザキケン",
    "prefecture_code": 45,
    "city": "延岡市",
    "city_kana": "ノベオカシ",
    "town": "伊形町",
    "town_kana": "イガダマチ",
    "street": null,
    "office_name": null,
    "office_name_kana": null
  },
  "0504": {
    "postcode": "8890504",
    "prefecture": "宮崎県",
    "prefecture_kana": "ミヤザキケン",
    "prefecture_code": 45,
    "city": "延岡市",
    "city_kana": "ノベオカシ",
    "town": "下伊形町",
    "town_kana": "シモイガダマチ",
    "street": null,
    "office_name": null,
    "office_name_kana": null
  },
  "0505": {
    "postcode": "8890505",
    "prefecture": "宮崎県",
    "prefecture_kana": "ミヤザキケン",
    "prefecture_code": 45,
    "city": "延岡市",
    "city_kana": "ノベオカシ",
    "town": "北一ケ岡",
    "town_kana": "キタヒトツガオカ",
    "street": null,
    "office_name": null,
    "office_name_kana": null
  },
  "0506": {
    "postcode": "8890506",
    "prefecture": "宮崎県",
    "prefecture_kana": "ミヤザキケン",
    "prefecture_code": 45,
    "city": "延岡市",
    "city_kana": "ノベオカシ",
    "town": "南一ケ岡",
    "town_kana": "ミナミヒトツガオカ",
    "street": null,
    "office_name": null,
    "office_name_kana": null
  },
  "0507": {
    "postcode": "8890507",
    "prefecture": "宮崎県",
    "prefecture_kana": "ミヤザキケン",
    "prefecture_code": 45,
    "city": "延岡市",
    "city_kana": "ノベオカシ",
    "town": "旭ケ丘",
    "town_kana": "アサヒガオカ",
    "street": null,
    "office_name": null,
    "office_name_kana": null
  },
  "0511": {
    "postcode": "8890511",
    "prefecture": "宮崎県",
    "prefecture_kana": "ミヤザキケン",
    "prefecture_code": 45,
    "city": "延岡市",
    "city_kana": "ノベオカシ",
    "town": "松原町",
    "town_kana": "マツバラマチ",
    "street": null,
    "office_name": null,
    "office_name_kana": null
  },
  "0512": {
    "postcode": "8890512",
    "prefecture": "宮崎県",
    "prefecture_kana": "ミヤザキケン",
    "prefecture_code": 45,
    "city": "延岡市",
    "city_kana": "ノベオカシ",
    "town": "新浜町",
    "town_kana": "シンハママチ",
    "street": null,
    "office_name": null,
    "office_name_kana": null
  },
  "0513": {
    "postcode": "8890513",
    "prefecture": "宮崎県",
    "prefecture_kana": "ミヤザキケン",
    "prefecture_code": 45,
    "city": "延岡市",
    "city_kana": "ノベオカシ",
    "town": "土々呂町",
    "town_kana": "トトロマチ",
    "street": null,
    "office_name": null,
    "office_name_kana": null
  },
  "0514": {
    "postcode": "8890514",
    "prefecture": "宮崎県",
    "prefecture_kana": "ミヤザキケン",
    "prefecture_code": 45,
    "city": "延岡市",
    "city_kana": "ノベオカシ",
    "town": "櫛津町",
    "town_kana": "クシツマチ",
    "street": null,
    "office_name": null,
    "office_name_kana": null
  },
  "0515": {
    "postcode": "8890515",
    "prefecture": "宮崎県",
    "prefecture_kana": "ミヤザキケン",
    "prefecture_code": 45,
    "city": "延岡市",
    "city_kana": "ノベオカシ",
    "town": "妙見町",
    "town_kana": "ミョウケンマチ",
    "street": null,
    "office_name": null,
    "office_name_kana": null
  },
  "0516": {
    "postcode": "8890516",
    "prefecture": "宮崎県",
    "prefecture_kana": "ミヤザキケン",
    "prefecture_code": 45,
    "city": "延岡市",
    "city_kana": "ノベオカシ",
    "town": "鯛名町",
    "town_kana": "タイナマチ",
    "street": null,
    "office_name": null,
    "office_name_kana": null
  },
  "0517": {
    "postcode": "8890517",
    "prefecture": "宮崎県",
    "prefecture_kana": "ミヤザキケン",
    "prefecture_code": 45,
    "city": "延岡市",
    "city_kana": "ノベオカシ",
    "town": "赤水町",
    "town_kana": "アカミズマチ",
    "street": null,
    "office_name": null,
    "office_name_kana": null
  },
  "0592": {
    "postcode": "8890592",
    "prefecture": "宮崎県",
    "prefecture_kana": "ミヤザキケン",
    "prefecture_code": 45,
    "city": "延岡市",
    "city_kana": "ノベオカシ",
    "town": "石田町",
    "town_kana": "イシダマチ",
    "street": "４４７５−１",
    "office_name": "株式会社　三和",
    "office_name_kana": "カブシキガイシヤ サンワ"
  },
  "0595": {
    "postcode": "8890595",
    "prefecture": "宮崎県",
    "prefecture_kana": "ミヤザキケン",
    "prefecture_code": 45,
    "city": "延岡市",
    "city_kana": "ノベオカシ",
    "town": "土々呂町",
    "town_kana": "トトロマチ",
    "street": "６丁目１６３３",
    "office_name": "清本鐵工　株式会社",
    "office_name_kana": "キヨモトテツコウ カブシキガイシヤ"
  },
  "0600": {
    "postcode": "8890600",
    "prefecture": "宮崎県",
    "prefecture_kana": "ミヤザキケン",
    "prefecture_code": 45,
    "city": "東臼杵郡門川町",
    "city_kana": "ヒガシウスキグンカドガワチョウ",
    "town": "",
    "town_kana": "",
    "street": null,
    "office_name": null,
    "office_name_kana": null
  },
  "0601": {
    "postcode": "8890601",
    "prefecture": "宮崎県",
    "prefecture_kana": "ミヤザキケン",
    "prefecture_code": 45,
    "city": "東臼杵郡門川町",
    "city_kana": "ヒガシウスキグンカドガワチョウ",
    "town": "須賀崎",
    "town_kana": "スガサキ",
    "street": null,
    "office_name": null,
    "office_name_kana": null
  },
  "0602": {
    "postcode": "8890602",
    "prefecture": "宮崎県",
    "prefecture_kana": "ミヤザキケン",
    "prefecture_code": 45,
    "city": "東臼杵郡門川町",
    "city_kana": "ヒガシウスキグンカドガワチョウ",
    "town": "庵川",
    "town_kana": "イオリガワ",
    "street": null,
    "office_name": null,
    "office_name_kana": null
  },
  "0603": {
    "postcode": "8890603",
    "prefecture": "宮崎県",
    "prefecture_kana": "ミヤザキケン",
    "prefecture_code": 45,
    "city": "東臼杵郡門川町",
    "city_kana": "ヒガシウスキグンカドガワチョウ",
    "town": "加草",
    "town_kana": "カクサ",
    "street": null,
    "office_name": null,
    "office_name_kana": null
  },
  "0604": {
    "postcode": "8890604",
    "prefecture": "宮崎県",
    "prefecture_kana": "ミヤザキケン",
    "prefecture_code": 45,
    "city": "東臼杵郡門川町",
    "city_kana": "ヒガシウスキグンカドガワチョウ",
    "town": "川内",
    "town_kana": "カワチ",
    "street": null,
    "office_name": null,
    "office_name_kana": null
  },
  "0605": {
    "postcode": "8890605",
    "prefecture": "宮崎県",
    "prefecture_kana": "ミヤザキケン",
    "prefecture_code": 45,
    "city": "東臼杵郡門川町",
    "city_kana": "ヒガシウスキグンカドガワチョウ",
    "town": "庵川西",
    "town_kana": "イオリガワニシ",
    "street": null,
    "office_name": null,
    "office_name_kana": null
  },
  "0611": {
    "postcode": "8890611",
    "prefecture": "宮崎県",
    "prefecture_kana": "ミヤザキケン",
    "prefecture_code": 45,
    "city": "東臼杵郡門川町",
    "city_kana": "ヒガシウスキグンカドガワチョウ",
    "town": "門川尾末",
    "town_kana": "カドカワオズエ",
    "street": null,
    "office_name": null,
    "office_name_kana": null
  },
  "0612": {
    "postcode": "8890612",
    "prefecture": "宮崎県",
    "prefecture_kana": "ミヤザキケン",
    "prefecture_code": 45,
    "city": "東臼杵郡門川町",
    "city_kana": "ヒガシウスキグンカドガワチョウ",
    "town": "中須",
    "town_kana": "ナカス",
    "street": null,
    "office_name": null,
    "office_name_kana": null
  },
  "0613": {
    "postcode": "8890613",
    "prefecture": "宮崎県",
    "prefecture_kana": "ミヤザキケン",
    "prefecture_code": 45,
    "city": "東臼杵郡門川町",
    "city_kana": "ヒガシウスキグンカドガワチョウ",
    "town": "本町",
    "town_kana": "ホンマチ",
    "street": null,
    "office_name": null,
    "office_name_kana": null
  },
  "0614": {
    "postcode": "8890614",
    "prefecture": "宮崎県",
    "prefecture_kana": "ミヤザキケン",
    "prefecture_code": 45,
    "city": "東臼杵郡門川町",
    "city_kana": "ヒガシウスキグンカドガワチョウ",
    "town": "上町",
    "town_kana": "カミノマチ",
    "street": null,
    "office_name": null,
    "office_name_kana": null
  },
  "0615": {
    "postcode": "8890615",
    "prefecture": "宮崎県",
    "prefecture_kana": "ミヤザキケン",
    "prefecture_code": 45,
    "city": "東臼杵郡門川町",
    "city_kana": "ヒガシウスキグンカドガワチョウ",
    "town": "栄ケ丘",
    "town_kana": "サカエガオカ",
    "street": null,
    "office_name": null,
    "office_name_kana": null
  },
  "0616": {
    "postcode": "8890616",
    "prefecture": "宮崎県",
    "prefecture_kana": "ミヤザキケン",
    "prefecture_code": 45,
    "city": "東臼杵郡門川町",
    "city_kana": "ヒガシウスキグンカドガワチョウ",
    "town": "南町",
    "town_kana": "ミナミマチ",
    "street": null,
    "office_name": null,
    "office_name_kana": null
  },
  "0617": {
    "postcode": "8890617",
    "prefecture": "宮崎県",
    "prefecture_kana": "ミヤザキケン",
    "prefecture_code": 45,
    "city": "東臼杵郡門川町",
    "city_kana": "ヒガシウスキグンカドガワチョウ",
    "town": "南ケ丘",
    "town_kana": "ミナミガオカ",
    "street": null,
    "office_name": null,
    "office_name_kana": null
  },
  "0621": {
    "postcode": "8890621",
    "prefecture": "宮崎県",
    "prefecture_kana": "ミヤザキケン",
    "prefecture_code": 45,
    "city": "東臼杵郡門川町",
    "city_kana": "ヒガシウスキグンカドガワチョウ",
    "town": "東栄町",
    "town_kana": "ヒガシサカエマチ",
    "street": null,
    "office_name": null,
    "office_name_kana": null
  },
  "0622": {
    "postcode": "8890622",
    "prefecture": "宮崎県",
    "prefecture_kana": "ミヤザキケン",
    "prefecture_code": 45,
    "city": "東臼杵郡門川町",
    "city_kana": "ヒガシウスキグンカドガワチョウ",
    "town": "西栄町",
    "town_kana": "ニシサカエマチ",
    "street": null,
    "office_name": null,
    "office_name_kana": null
  },
  "0623": {
    "postcode": "8890623",
    "prefecture": "宮崎県",
    "prefecture_kana": "ミヤザキケン",
    "prefecture_code": 45,
    "city": "東臼杵郡門川町",
    "city_kana": "ヒガシウスキグンカドガワチョウ",
    "town": "宮ケ原",
    "town_kana": "ミヤガハラ",
    "street": null,
    "office_name": null,
    "office_name_kana": null
  },
  "0624": {
    "postcode": "8890624",
    "prefecture": "宮崎県",
    "prefecture_kana": "ミヤザキケン",
    "prefecture_code": 45,
    "city": "東臼杵郡門川町",
    "city_kana": "ヒガシウスキグンカドガワチョウ",
    "town": "城ケ丘",
    "town_kana": "ジョウガオカ",
    "street": null,
    "office_name": null,
    "office_name_kana": null
  },
  "0625": {
    "postcode": "8890625",
    "prefecture": "宮崎県",
    "prefecture_kana": "ミヤザキケン",
    "prefecture_code": 45,
    "city": "東臼杵郡門川町",
    "city_kana": "ヒガシウスキグンカドガワチョウ",
    "town": "平城東",
    "town_kana": "ヒラジョウヒガシ",
    "street": null,
    "office_name": null,
    "office_name_kana": null
  },
  "0626": {
    "postcode": "8890626",
    "prefecture": "宮崎県",
    "prefecture_kana": "ミヤザキケン",
    "prefecture_code": 45,
    "city": "東臼杵郡門川町",
    "city_kana": "ヒガシウスキグンカドガワチョウ",
    "town": "平城西",
    "town_kana": "ヒラジョウニシ",
    "street": null,
    "office_name": null,
    "office_name_kana": null
  },
  "0692": {
    "postcode": "8890692",
    "prefecture": "宮崎県",
    "prefecture_kana": "ミヤザキケン",
    "prefecture_code": 45,
    "city": "東臼杵郡門川町",
    "city_kana": "ヒガシウスキグンカドガワチョウ",
    "town": "大字門川尾末",
    "town_kana": null,
    "street": "８８０",
    "office_name": "済生会支部　宮崎県済生会　日向病院",
    "office_name_kana": "サイセイカイシブ ミヤザキケンサイセイカイ ヒユウガビヨウイン"
  },
  "0693": {
    "postcode": "8890693",
    "prefecture": "宮崎県",
    "prefecture_kana": "ミヤザキケン",
    "prefecture_code": 45,
    "city": "東臼杵郡門川町",
    "city_kana": "ヒガシウスキグンカドガワチョウ",
    "town": "大字門川尾末",
    "town_kana": null,
    "street": "２６８０",
    "office_name": "宮崎県立　門川農業高等学校",
    "office_name_kana": "ミヤザキケンリツ カドガワノウギヨウコウトウガツコウ"
  },
  "0695": {
    "postcode": "8890695",
    "prefecture": "宮崎県",
    "prefecture_kana": "ミヤザキケン",
    "prefecture_code": 45,
    "city": "東臼杵郡門川町",
    "city_kana": "ヒガシウスキグンカドガワチョウ",
    "town": "宮ケ原",
    "town_kana": "ミヤガハラ",
    "street": "４丁目８０",
    "office_name": "医療法人　浩洋会　田中病院",
    "office_name_kana": "イリヨウホウジン コウヨウカイ タナカビヨウイン"
  },
  "0696": {
    "postcode": "8890696",
    "prefecture": "宮崎県",
    "prefecture_kana": "ミヤザキケン",
    "prefecture_code": 45,
    "city": "東臼杵郡門川町",
    "city_kana": "ヒガシウスキグンカドガワチョウ",
    "town": "平城東",
    "town_kana": "ヒラジョウヒガシ",
    "street": "１番１号",
    "office_name": "門川町役場",
    "office_name_kana": "カドガワチヨウヤクバ"
  },
  "0697": {
    "postcode": "8890697",
    "prefecture": "宮崎県",
    "prefecture_kana": "ミヤザキケン",
    "prefecture_code": 45,
    "city": "東臼杵郡門川町",
    "city_kana": "ヒガシウスキグンカドガワチョウ",
    "town": "大字加草",
    "town_kana": null,
    "street": "２７２５",
    "office_name": "安井　株式会社",
    "office_name_kana": "ヤスイ カブシキガイシヤ"
  },
  "0698": {
    "postcode": "8890698",
    "prefecture": "宮崎県",
    "prefecture_kana": "ミヤザキケン",
    "prefecture_code": 45,
    "city": "東臼杵郡門川町",
    "city_kana": "ヒガシウスキグンカドガワチョウ",
    "town": "大字門川尾末",
    "town_kana": null,
    "street": "８４９９",
    "office_name": "イチマル産業　株式会社",
    "office_name_kana": "イチマルサンギヨウ (カ"
  },
  "0901": {
    "postcode": "8890901",
    "prefecture": "宮崎県",
    "prefecture_kana": "ミヤザキケン",
    "prefecture_code": 45,
    "city": "東臼杵郡美郷町",
    "city_kana": "ヒガシウスキグンミサトチョウ",
    "town": "北郷宇納間",
    "town_kana": "キタゴウウナマ",
    "street": null,
    "office_name": null,
    "office_name_kana": null
  },
  "0902": {
    "postcode": "8890902",
    "prefecture": "宮崎県",
    "prefecture_kana": "ミヤザキケン",
    "prefecture_code": 45,
    "city": "東臼杵郡美郷町",
    "city_kana": "ヒガシウスキグンミサトチョウ",
    "town": "北郷入下",
    "town_kana": "キタゴウニュウシタ",
    "street": null,
    "office_name": null,
    "office_name_kana": null
  },
  "0903": {
    "postcode": "8890903",
    "prefecture": "宮崎県",
    "prefecture_kana": "ミヤザキケン",
    "prefecture_code": 45,
    "city": "東臼杵郡美郷町",
    "city_kana": "ヒガシウスキグンミサトチョウ",
    "town": "北郷黒木",
    "town_kana": "キタゴウクロギ",
    "street": null,
    "office_name": null,
    "office_name_kana": null
  },
  "1101": [
    {
      "postcode": "8891101",
      "prefecture": "宮崎県",
      "prefecture_kana": "ミヤザキケン",
      "prefecture_code": 45,
      "city": "日向市",
      "city_kana": "ヒュウガシ",
      "town": "東郷町山陰乙",
      "town_kana": "トウゴウチョウヤマゲオツ",
      "street": null,
      "office_name": null,
      "office_name_kana": null
    },
    {
      "postcode": "8891101",
      "prefecture": "宮崎県",
      "prefecture_kana": "ミヤザキケン",
      "prefecture_code": 45,
      "city": "日向市",
      "city_kana": "ヒュウガシ",
      "town": "東郷町山陰乙鳥川",
      "town_kana": "トウゴウチョウヤマゲオツトリカワ",
      "street": null,
      "office_name": null,
      "office_name_kana": null
    }
  ],
  "1111": {
    "postcode": "8891111",
    "prefecture": "宮崎県",
    "prefecture_kana": "ミヤザキケン",
    "prefecture_code": 45,
    "city": "日向市",
    "city_kana": "ヒュウガシ",
    "town": "美々津町",
    "town_kana": "ミミツチョウ",
    "street": null,
    "office_name": null,
    "office_name_kana": null
  },
  "1112": {
    "postcode": "8891112",
    "prefecture": "宮崎県",
    "prefecture_kana": "ミヤザキケン",
    "prefecture_code": 45,
    "city": "日向市",
    "city_kana": "ヒュウガシ",
    "town": "幸脇",
    "town_kana": "サイワキ",
    "street": null,
    "office_name": null,
    "office_name_kana": null
  },
  "1121": {
    "postcode": "8891121",
    "prefecture": "宮崎県",
    "prefecture_kana": "ミヤザキケン",
    "prefecture_code": 45,
    "city": "日向市",
    "city_kana": "ヒュウガシ",
    "town": "東郷町山陰甲",
    "town_kana": "トウゴウチョウヤマゲコウ",
    "street": null,
    "office_name": null,
    "office_name_kana": null
  },
  "1192": {
    "postcode": "8891192",
    "prefecture": "宮崎県",
    "prefecture_kana": "ミヤザキケン",
    "prefecture_code": 45,
    "city": "日向市",
    "city_kana": "ヒュウガシ",
    "town": "美々津町",
    "town_kana": "ミミツチョウ",
    "street": "２２７７番地",
    "office_name": "日本ホワイトファーム　株式会社",
    "office_name_kana": "ニホンホワイトフア-ム カブシキカイシヤ"
  },
  "1200": {
    "postcode": "8891200",
    "prefecture": "宮崎県",
    "prefecture_kana": "ミヤザキケン",
    "prefecture_code": 45,
    "city": "児湯郡都農町",
    "city_kana": "コユグンツノチョウ",
    "town": "",
    "town_kana": "",
    "street": null,
    "office_name": null,
    "office_name_kana": null
  },
  "1201": {
    "postcode": "8891201",
    "prefecture": "宮崎県",
    "prefecture_kana": "ミヤザキケン",
    "prefecture_code": 45,
    "city": "児湯郡都農町",
    "city_kana": "コユグンツノチョウ",
    "town": "川北",
    "town_kana": "カワキタ",
    "street": null,
    "office_name": null,
    "office_name_kana": null
  },
  "1300": {
    "postcode": "8891300",
    "prefecture": "宮崎県",
    "prefecture_kana": "ミヤザキケン",
    "prefecture_code": 45,
    "city": "児湯郡川南町",
    "city_kana": "コユグンカワミナミチョウ",
    "town": "",
    "town_kana": "",
    "street": null,
    "office_name": null,
    "office_name_kana": null
  },
  "1301": {
    "postcode": "8891301",
    "prefecture": "宮崎県",
    "prefecture_kana": "ミヤザキケン",
    "prefecture_code": 45,
    "city": "児湯郡川南町",
    "city_kana": "コユグンカワミナミチョウ",
    "town": "川南",
    "town_kana": "カワミナミ",
    "street": null,
    "office_name": null,
    "office_name_kana": null
  },
  "1302": {
    "postcode": "8891302",
    "prefecture": "宮崎県",
    "prefecture_kana": "ミヤザキケン",
    "prefecture_code": 45,
    "city": "児湯郡川南町",
    "city_kana": "コユグンカワミナミチョウ",
    "town": "平田",
    "town_kana": "ヘイダ",
    "street": null,
    "office_name": null,
    "office_name_kana": null
  },
  "1400": {
    "postcode": "8891400",
    "prefecture": "宮崎県",
    "prefecture_kana": "ミヤザキケン",
    "prefecture_code": 45,
    "city": "児湯郡新富町",
    "city_kana": "コユグンシントミチョウ",
    "town": "",
    "town_kana": "",
    "street": null,
    "office_name": null,
    "office_name_kana": null
  },
  "1401": {
    "postcode": "8891401",
    "prefecture": "宮崎県",
    "prefecture_kana": "ミヤザキケン",
    "prefecture_code": 45,
    "city": "児湯郡新富町",
    "city_kana": "コユグンシントミチョウ",
    "town": "日置",
    "town_kana": "ヒオキ",
    "street": null,
    "office_name": null,
    "office_name_kana": null
  },
  "1402": {
    "postcode": "8891402",
    "prefecture": "宮崎県",
    "prefecture_kana": "ミヤザキケン",
    "prefecture_code": 45,
    "city": "児湯郡新富町",
    "city_kana": "コユグンシントミチョウ",
    "town": "三納代",
    "town_kana": "ミナシロ",
    "street": null,
    "office_name": null,
    "office_name_kana": null
  },
  "1403": {
    "postcode": "8891403",
    "prefecture": "宮崎県",
    "prefecture_kana": "ミヤザキケン",
    "prefecture_code": 45,
    "city": "児湯郡新富町",
    "city_kana": "コユグンシントミチョウ",
    "town": "上富田",
    "town_kana": "カミトンダ",
    "street": null,
    "office_name": null,
    "office_name_kana": null
  },
  "1404": {
    "postcode": "8891404",
    "prefecture": "宮崎県",
    "prefecture_kana": "ミヤザキケン",
    "prefecture_code": 45,
    "city": "児湯郡新富町",
    "city_kana": "コユグンシントミチョウ",
    "town": "下富田",
    "town_kana": "シモトンダ",
    "street": null,
    "office_name": null,
    "office_name_kana": null
  },
  "1405": {
    "postcode": "8891405",
    "prefecture": "宮崎県",
    "prefecture_kana": "ミヤザキケン",
    "prefecture_code": 45,
    "city": "児湯郡新富町",
    "city_kana": "コユグンシントミチョウ",
    "town": "伊倉",
    "town_kana": "イクラ",
    "street": null,
    "office_name": null,
    "office_name_kana": null
  },
  "1406": {
    "postcode": "8891406",
    "prefecture": "宮崎県",
    "prefecture_kana": "ミヤザキケン",
    "prefecture_code": 45,
    "city": "児湯郡新富町",
    "city_kana": "コユグンシントミチョウ",
    "town": "新田",
    "town_kana": "ニュウタ",
    "street": null,
    "office_name": null,
    "office_name_kana": null
  },
  "1411": {
    "postcode": "8891411",
    "prefecture": "宮崎県",
    "prefecture_kana": "ミヤザキケン",
    "prefecture_code": 45,
    "city": "児湯郡新富町",
    "city_kana": "コユグンシントミチョウ",
    "town": "富田",
    "town_kana": "トンダ",
    "street": null,
    "office_name": null,
    "office_name_kana": null
  },
  "1412": {
    "postcode": "8891412",
    "prefecture": "宮崎県",
    "prefecture_kana": "ミヤザキケン",
    "prefecture_code": 45,
    "city": "児湯郡新富町",
    "city_kana": "コユグンシントミチョウ",
    "town": "富田東",
    "town_kana": "トンダヒガシ",
    "street": null,
    "office_name": null,
    "office_name_kana": null
  },
  "1413": {
    "postcode": "8891413",
    "prefecture": "宮崎県",
    "prefecture_kana": "ミヤザキケン",
    "prefecture_code": 45,
    "city": "児湯郡新富町",
    "city_kana": "コユグンシントミチョウ",
    "town": "富田西",
    "town_kana": "トンダニシ",
    "street": null,
    "office_name": null,
    "office_name_kana": null
  },
  "1414": {
    "postcode": "8891414",
    "prefecture": "宮崎県",
    "prefecture_kana": "ミヤザキケン",
    "prefecture_code": 45,
    "city": "児湯郡新富町",
    "city_kana": "コユグンシントミチョウ",
    "town": "富田南",
    "town_kana": "トンダミナミ",
    "street": null,
    "office_name": null,
    "office_name_kana": null
  },
  "1415": {
    "postcode": "8891415",
    "prefecture": "宮崎県",
    "prefecture_kana": "ミヤザキケン",
    "prefecture_code": 45,
    "city": "児湯郡新富町",
    "city_kana": "コユグンシントミチョウ",
    "town": "富田北",
    "town_kana": "トンダキタ",
    "street": null,
    "office_name": null,
    "office_name_kana": null
  },
  "1492": {
    "postcode": "8891492",
    "prefecture": "宮崎県",
    "prefecture_kana": "ミヤザキケン",
    "prefecture_code": 45,
    "city": "児湯郡新富町",
    "city_kana": "コユグンシントミチョウ",
    "town": "大字新田",
    "town_kana": null,
    "street": "１９５８１",
    "office_name": "航空自衛隊新田原基地",
    "office_name_kana": "コウクウジエイタイニユウタバルキチ"
  },
  "1493": {
    "postcode": "8891493",
    "prefecture": "宮崎県",
    "prefecture_kana": "ミヤザキケン",
    "prefecture_code": 45,
    "city": "児湯郡新富町",
    "city_kana": "コユグンシントミチョウ",
    "town": "大字上富田",
    "town_kana": null,
    "street": "７４９１",
    "office_name": "新富町役場",
    "office_name_kana": "シントミチヨウヤクバ"
  },
  "1495": {
    "postcode": "8891495",
    "prefecture": "宮崎県",
    "prefecture_kana": "ミヤザキケン",
    "prefecture_code": 45,
    "city": "児湯郡新富町",
    "city_kana": "コユグンシントミチョウ",
    "town": "大字上富田",
    "town_kana": null,
    "street": "４６３７−１",
    "office_name": "株式会社　吉川アールエフセミコン",
    "office_name_kana": "カブシキガイシヤ ヨシカワア-ルエフセミコン"
  },
  "1498": {
    "postcode": "8891498",
    "prefecture": "宮崎県",
    "prefecture_kana": "ミヤザキケン",
    "prefecture_code": 45,
    "city": "児湯郡新富町",
    "city_kana": "コユグンシントミチョウ",
    "town": "大字三納代",
    "town_kana": null,
    "street": "２２２６−２",
    "office_name": "宮崎県立　富養園",
    "office_name_kana": "ミヤザキケンリツ フヨウエン"
  },
  "1601": {
    "postcode": "8891601",
    "prefecture": "宮崎県",
    "prefecture_kana": "ミヤザキケン",
    "prefecture_code": 45,
    "city": "宮崎市",
    "city_kana": "ミヤザキシ",
    "town": "清武町木原",
    "town_kana": "キヨタケチョウキハラ",
    "street": null,
    "office_name": null,
    "office_name_kana": null
  },
  "1602": {
    "postcode": "8891602",
    "prefecture": "宮崎県",
    "prefecture_kana": "ミヤザキケン",
    "prefecture_code": 45,
    "city": "宮崎市",
    "city_kana": "ミヤザキシ",
    "town": "清武町今泉",
    "town_kana": "キヨタケチョウイマイズミ",
    "street": null,
    "office_name": null,
    "office_name_kana": null
  },
  "1603": {
    "postcode": "8891603",
    "prefecture": "宮崎県",
    "prefecture_kana": "ミヤザキケン",
    "prefecture_code": 45,
    "city": "宮崎市",
    "city_kana": "ミヤザキシ",
    "town": "清武町正手",
    "town_kana": "キヨタケチョウショウデ",
    "street": null,
    "office_name": null,
    "office_name_kana": null
  },
  "1604": {
    "postcode": "8891604",
    "prefecture": "宮崎県",
    "prefecture_kana": "ミヤザキケン",
    "prefecture_code": 45,
    "city": "宮崎市",
    "city_kana": "ミヤザキシ",
    "town": "清武町船引",
    "town_kana": "キヨタケチョウフナヒキ",
    "street": null,
    "office_name": null,
    "office_name_kana": null
  },
  "1605": {
    "postcode": "8891605",
    "prefecture": "宮崎県",
    "prefecture_kana": "ミヤザキケン",
    "prefecture_code": 45,
    "city": "宮崎市",
    "city_kana": "ミヤザキシ",
    "town": "清武町加納",
    "town_kana": "キヨタケチョウカノウ",
    "street": null,
    "office_name": null,
    "office_name_kana": null
  },
  "1606": {
    "postcode": "8891606",
    "prefecture": "宮崎県",
    "prefecture_kana": "ミヤザキケン",
    "prefecture_code": 45,
    "city": "宮崎市",
    "city_kana": "ミヤザキシ",
    "town": "清武町池田台",
    "town_kana": "キヨタケチョウイケダダイ",
    "street": null,
    "office_name": null,
    "office_name_kana": null
  },
  "1607": {
    "postcode": "8891607",
    "prefecture": "宮崎県",
    "prefecture_kana": "ミヤザキケン",
    "prefecture_code": 45,
    "city": "宮崎市",
    "city_kana": "ミヤザキシ",
    "town": "清武町加納",
    "town_kana": "キヨタケチョウカノウ",
    "street": null,
    "office_name": null,
    "office_name_kana": null
  },
  "1608": {
    "postcode": "8891608",
    "prefecture": "宮崎県",
    "prefecture_kana": "ミヤザキケン",
    "prefecture_code": 45,
    "city": "宮崎市",
    "city_kana": "ミヤザキシ",
    "town": "清武町池田台北",
    "town_kana": "キヨタケチョウイケダダイキタ",
    "street": null,
    "office_name": null,
    "office_name_kana": null
  },
  "1609": {
    "postcode": "8891609",
    "prefecture": "宮崎県",
    "prefecture_kana": "ミヤザキケン",
    "prefecture_code": 45,
    "city": "宮崎市",
    "city_kana": "ミヤザキシ",
    "town": "清武町あさひ",
    "town_kana": "キヨタケチョウアサヒ",
    "street": null,
    "office_name": null,
    "office_name_kana": null
  },
  "1611": {
    "postcode": "8891611",
    "prefecture": "宮崎県",
    "prefecture_kana": "ミヤザキケン",
    "prefecture_code": 45,
    "city": "宮崎市",
    "city_kana": "ミヤザキシ",
    "town": "清武町新町",
    "town_kana": "キヨタケチョウシンマチ",
    "street": null,
    "office_name": null,
    "office_name_kana": null
  },
  "1612": {
    "postcode": "8891612",
    "prefecture": "宮崎県",
    "prefecture_kana": "ミヤザキケン",
    "prefecture_code": 45,
    "city": "宮崎市",
    "city_kana": "ミヤザキシ",
    "town": "清武町岡",
    "town_kana": "キヨタケチョウオカ",
    "street": null,
    "office_name": null,
    "office_name_kana": null
  },
  "1613": {
    "postcode": "8891613",
    "prefecture": "宮崎県",
    "prefecture_kana": "ミヤザキケン",
    "prefecture_code": 45,
    "city": "宮崎市",
    "city_kana": "ミヤザキシ",
    "town": "清武町西新町",
    "town_kana": "キヨタケチョウニシシンマチ",
    "street": null,
    "office_name": null,
    "office_name_kana": null
  },
  "1692": {
    "postcode": "8891692",
    "prefecture": "宮崎県",
    "prefecture_kana": "ミヤザキケン",
    "prefecture_code": 45,
    "city": "宮崎市",
    "city_kana": "ミヤザキシ",
    "town": "清武町木原",
    "town_kana": "キヨタケチョウキハラ",
    "street": "５２００",
    "office_name": "宮崎大学　医学部",
    "office_name_kana": "ミヤザキダイガク イガクブ"
  },
  "1693": {
    "postcode": "8891693",
    "prefecture": "宮崎県",
    "prefecture_kana": "ミヤザキケン",
    "prefecture_code": 45,
    "city": "宮崎市",
    "city_kana": "ミヤザキシ",
    "town": "清武町木原",
    "town_kana": "キヨタケチョウキハラ",
    "street": "１１１２",
    "office_name": "ＳＵＭＣＯ　ＴＥＣＨＸＩＶ　株式会社　宮崎工場",
    "office_name_kana": "サムコ テクシブ カブシキガイシヤ ミヤザキコウジヨウ"
  },
  "1695": {
    "postcode": "8891695",
    "prefecture": "宮崎県",
    "prefecture_kana": "ミヤザキケン",
    "prefecture_code": 45,
    "city": "宮崎市",
    "city_kana": "ミヤザキシ",
    "town": "清武町木原",
    "town_kana": "キヨタケチョウキハラ",
    "street": "７２７番地",
    "office_name": "ラピスセミコンダクタ宮崎　株式会社",
    "office_name_kana": "ラピスセミコンダクタミヤザキ カブシキカイシヤ"
  },
  "1696": {
    "postcode": "8891696",
    "prefecture": "宮崎県",
    "prefecture_kana": "ミヤザキケン",
    "prefecture_code": 45,
    "city": "宮崎市",
    "city_kana": "ミヤザキシ",
    "town": "清武町船引",
    "town_kana": "キヨタケチョウフナヒキ",
    "street": "２０４番地",
    "office_name": "宮崎市　清武総合支所",
    "office_name_kana": "ミヤザキシ キヨタケソウゴウシシヨ"
  },
  "1701": {
    "postcode": "8891701",
    "prefecture": "宮崎県",
    "prefecture_kana": "ミヤザキケン",
    "prefecture_code": 45,
    "city": "宮崎市",
    "city_kana": "ミヤザキシ",
    "town": "田野町甲",
    "town_kana": "タノチョウコウ",
    "street": null,
    "office_name": null,
    "office_name_kana": null
  },
  "1702": {
    "postcode": "8891702",
    "prefecture": "宮崎県",
    "prefecture_kana": "ミヤザキケン",
    "prefecture_code": 45,
    "city": "宮崎市",
    "city_kana": "ミヤザキシ",
    "town": "田野町乙",
    "town_kana": "タノチョウオツ",
    "street": null,
    "office_name": null,
    "office_name_kana": null
  },
  "1703": {
    "postcode": "8891703",
    "prefecture": "宮崎県",
    "prefecture_kana": "ミヤザキケン",
    "prefecture_code": 45,
    "city": "宮崎市",
    "city_kana": "ミヤザキシ",
    "town": "田野町あけぼの",
    "town_kana": "タノチョウアケボノ",
    "street": null,
    "office_name": null,
    "office_name_kana": null
  },
  "1704": {
    "postcode": "8891704",
    "prefecture": "宮崎県",
    "prefecture_kana": "ミヤザキケン",
    "prefecture_code": 45,
    "city": "宮崎市",
    "city_kana": "ミヤザキシ",
    "town": "田野町南原",
    "town_kana": "タノチョウミナミバル",
    "street": null,
    "office_name": null,
    "office_name_kana": null
  },
  "1713": [
    {
      "postcode": "8891713",
      "prefecture": "宮崎県",
      "prefecture_kana": "ミヤザキケン",
      "prefecture_code": 45,
      "city": "宮崎市",
      "city_kana": "ミヤザキシ",
      "town": "高岡町上倉永",
      "town_kana": "タカオカチョウカミクラナガ",
      "street": null,
      "office_name": null,
      "office_name_kana": null
    },
    {
      "postcode": "8891713",
      "prefecture": "宮崎県",
      "prefecture_kana": "ミヤザキケン",
      "prefecture_code": 45,
      "city": "宮崎市",
      "city_kana": "ミヤザキシ",
      "town": "高岡町上倉永内の八重",
      "town_kana": "タカオカチョウカミクラナガウチノヤエ",
      "street": null,
      "office_name": null,
      "office_name_kana": null
    }
  ],
  "1716": [
    {
      "postcode": "8891716",
      "prefecture": "宮崎県",
      "prefecture_kana": "ミヤザキケン",
      "prefecture_code": 45,
      "city": "宮崎市",
      "city_kana": "ミヤザキシ",
      "town": "細江",
      "town_kana": "ホソエ",
      "street": null,
      "office_name": null,
      "office_name_kana": null
    },
    {
      "postcode": "8891716",
      "prefecture": "宮崎県",
      "prefecture_kana": "ミヤザキケン",
      "prefecture_code": 45,
      "city": "宮崎市",
      "city_kana": "ミヤザキシ",
      "town": "細江平和",
      "town_kana": "ホソエヘイワ",
      "street": null,
      "office_name": null,
      "office_name_kana": null
    }
  ],
  "1795": {
    "postcode": "8891795",
    "prefecture": "宮崎県",
    "prefecture_kana": "ミヤザキケン",
    "prefecture_code": 45,
    "city": "宮崎市",
    "city_kana": "ミヤザキシ",
    "town": "田野町甲",
    "town_kana": "タノチョウコウ",
    "street": "２８１８",
    "office_name": "田野総合支所",
    "office_name_kana": "タノソウゴウシシヨ"
  },
  "1801": {
    "postcode": "8891801",
    "prefecture": "宮崎県",
    "prefecture_kana": "ミヤザキケン",
    "prefecture_code": 45,
    "city": "都城市",
    "city_kana": "ミヤコノジョウシ",
    "town": "山之口町富吉",
    "town_kana": "ヤマノクチチョウトミヨシ",
    "street": null,
    "office_name": null,
    "office_name_kana": null
  },
  "1802": {
    "postcode": "8891802",
    "prefecture": "宮崎県",
    "prefecture_kana": "ミヤザキケン",
    "prefecture_code": 45,
    "city": "都城市",
    "city_kana": "ミヤコノジョウシ",
    "town": "山之口町花木",
    "town_kana": "ヤマノクチチョウハナノキ",
    "street": null,
    "office_name": null,
    "office_name_kana": null
  },
  "1803": {
    "postcode": "8891803",
    "prefecture": "宮崎県",
    "prefecture_kana": "ミヤザキケン",
    "prefecture_code": 45,
    "city": "都城市",
    "city_kana": "ミヤコノジョウシ",
    "town": "山之口町山之口",
    "town_kana": "ヤマノクチチョウヤマノクチ",
    "street": null,
    "office_name": null,
    "office_name_kana": null
  },
  "1892": {
    "postcode": "8891892",
    "prefecture": "宮崎県",
    "prefecture_kana": "ミヤザキケン",
    "prefecture_code": 45,
    "city": "都城市",
    "city_kana": "ミヤコノジョウシ",
    "town": "山之口町花木",
    "town_kana": "ヤマノクチチョウハナノキ",
    "street": "２００５",
    "office_name": "都城市総合支所",
    "office_name_kana": "ミヤコノジヨウシソウゴウシシヨ"
  },
  "1900": {
    "postcode": "8891900",
    "prefecture": "宮崎県",
    "prefecture_kana": "ミヤザキケン",
    "prefecture_code": 45,
    "city": "北諸県郡三股町",
    "city_kana": "キタモロカタグンミマタチョウ",
    "town": "",
    "town_kana": "",
    "street": null,
    "office_name": null,
    "office_name_kana": null
  },
  "1901": {
    "postcode": "8891901",
    "prefecture": "宮崎県",
    "prefecture_kana": "ミヤザキケン",
    "prefecture_code": 45,
    "city": "北諸県郡三股町",
    "city_kana": "キタモロカタグンミマタチョウ",
    "town": "樺山",
    "town_kana": "カバヤマ",
    "street": null,
    "office_name": null,
    "office_name_kana": null
  },
  "1902": {
    "postcode": "8891902",
    "prefecture": "宮崎県",
    "prefecture_kana": "ミヤザキケン",
    "prefecture_code": 45,
    "city": "北諸県郡三股町",
    "city_kana": "キタモロカタグンミマタチョウ",
    "town": "五本松",
    "town_kana": "ゴホンマツ",
    "street": null,
    "office_name": null,
    "office_name_kana": null
  },
  "1903": {
    "postcode": "8891903",
    "prefecture": "宮崎県",
    "prefecture_kana": "ミヤザキケン",
    "prefecture_code": 45,
    "city": "北諸県郡三股町",
    "city_kana": "キタモロカタグンミマタチョウ",
    "town": "稗田",
    "town_kana": "ヒエダ",
    "street": null,
    "office_name": null,
    "office_name_kana": null
  },
  "1904": {
    "postcode": "8891904",
    "prefecture": "宮崎県",
    "prefecture_kana": "ミヤザキケン",
    "prefecture_code": 45,
    "city": "北諸県郡三股町",
    "city_kana": "キタモロカタグンミマタチョウ",
    "town": "新馬場",
    "town_kana": "シンババ",
    "street": null,
    "office_name": null,
    "office_name_kana": null
  },
  "1905": {
    "postcode": "8891905",
    "prefecture": "宮崎県",
    "prefecture_kana": "ミヤザキケン",
    "prefecture_code": 45,
    "city": "北諸県郡三股町",
    "city_kana": "キタモロカタグンミマタチョウ",
    "town": "今市",
    "town_kana": "イマイチ",
    "street": null,
    "office_name": null,
    "office_name_kana": null
  },
  "1906": {
    "postcode": "8891906",
    "prefecture": "宮崎県",
    "prefecture_kana": "ミヤザキケン",
    "prefecture_code": 45,
    "city": "北諸県郡三股町",
    "city_kana": "キタモロカタグンミマタチョウ",
    "town": "中原",
    "town_kana": "ナカバル",
    "street": null,
    "office_name": null,
    "office_name_kana": null
  },
  "1907": {
    "postcode": "8891907",
    "prefecture": "宮崎県",
    "prefecture_kana": "ミヤザキケン",
    "prefecture_code": 45,
    "city": "北諸県郡三股町",
    "city_kana": "キタモロカタグンミマタチョウ",
    "town": "花見原",
    "town_kana": "ハナミバル",
    "street": null,
    "office_name": null,
    "office_name_kana": null
  },
  "1911": {
    "postcode": "8891911",
    "prefecture": "宮崎県",
    "prefecture_kana": "ミヤザキケン",
    "prefecture_code": 45,
    "city": "北諸県郡三股町",
    "city_kana": "キタモロカタグンミマタチョウ",
    "town": "長田",
    "town_kana": "ナガタ",
    "street": null,
    "office_name": null,
    "office_name_kana": null
  },
  "1912": {
    "postcode": "8891912",
    "prefecture": "宮崎県",
    "prefecture_kana": "ミヤザキケン",
    "prefecture_code": 45,
    "city": "北諸県郡三股町",
    "city_kana": "キタモロカタグンミマタチョウ",
    "town": "宮村",
    "town_kana": "ミヤムラ",
    "street": null,
    "office_name": null,
    "office_name_kana": null
  },
  "1913": {
    "postcode": "8891913",
    "prefecture": "宮崎県",
    "prefecture_kana": "ミヤザキケン",
    "prefecture_code": 45,
    "city": "北諸県郡三股町",
    "city_kana": "キタモロカタグンミマタチョウ",
    "town": "餅原",
    "town_kana": "モチバル",
    "street": null,
    "office_name": null,
    "office_name_kana": null
  },
  "1914": {
    "postcode": "8891914",
    "prefecture": "宮崎県",
    "prefecture_kana": "ミヤザキケン",
    "prefecture_code": 45,
    "city": "北諸県郡三股町",
    "city_kana": "キタモロカタグンミマタチョウ",
    "town": "蓼池",
    "town_kana": "タデイケ",
    "street": null,
    "office_name": null,
    "office_name_kana": null
  },
  "1994": {
    "postcode": "8891994",
    "prefecture": "宮崎県",
    "prefecture_kana": "ミヤザキケン",
    "prefecture_code": 45,
    "city": "北諸県郡三股町",
    "city_kana": "キタモロカタグンミマタチョウ",
    "town": "大字長田",
    "town_kana": null,
    "street": "１２７０",
    "office_name": "大悟病院",
    "office_name_kana": "ダイゴビヨウイン"
  },
  "1995": {
    "postcode": "8891995",
    "prefecture": "宮崎県",
    "prefecture_kana": "ミヤザキケン",
    "prefecture_code": 45,
    "city": "北諸県郡三股町",
    "city_kana": "キタモロカタグンミマタチョウ",
    "town": "五本松",
    "town_kana": "ゴホンマツ",
    "street": "１−１",
    "office_name": "三股町役場",
    "office_name_kana": "ミマタチヨウヤクバ"
  },
  "1996": {
    "postcode": "8891996",
    "prefecture": "宮崎県",
    "prefecture_kana": "ミヤザキケン",
    "prefecture_code": 45,
    "city": "北諸県郡三股町",
    "city_kana": "キタモロカタグンミマタチョウ",
    "town": "大字樺山",
    "town_kana": null,
    "street": "１９９６",
    "office_name": "都城東高校",
    "office_name_kana": "ミヤコノジヨウヒガシコウコウ"
  },
  "1997": {
    "postcode": "8891997",
    "prefecture": "宮崎県",
    "prefecture_kana": "ミヤザキケン",
    "prefecture_code": 45,
    "city": "北諸県郡三股町",
    "city_kana": "キタモロカタグンミマタチョウ",
    "town": "稗田",
    "town_kana": "ヒエダ",
    "street": "５５−５",
    "office_name": "ひろせ本店",
    "office_name_kana": "ヒロセホンテン"
  },
  "2151": {
    "postcode": "8892151",
    "prefecture": "宮崎県",
    "prefecture_kana": "ミヤザキケン",
    "prefecture_code": 45,
    "city": "宮崎市",
    "city_kana": "ミヤザキシ",
    "town": "熊野",
    "town_kana": "クマノ",
    "street": null,
    "office_name": null,
    "office_name_kana": null
  },
  "2152": {
    "postcode": "8892152",
    "prefecture": "宮崎県",
    "prefecture_kana": "ミヤザキケン",
    "prefecture_code": 45,
    "city": "宮崎市",
    "city_kana": "ミヤザキシ",
    "town": "学園木花台北",
    "town_kana": "ガクエンキバナダイキタ",
    "street": null,
    "office_name": null,
    "office_name_kana": null
  },
  "2153": {
    "postcode": "8892153",
    "prefecture": "宮崎県",
    "prefecture_kana": "ミヤザキケン",
    "prefecture_code": 45,
    "city": "宮崎市",
    "city_kana": "ミヤザキシ",
    "town": "学園木花台南",
    "town_kana": "ガクエンキバナダイミナミ",
    "street": null,
    "office_name": null,
    "office_name_kana": null
  },
  "2154": {
    "postcode": "8892154",
    "prefecture": "宮崎県",
    "prefecture_kana": "ミヤザキケン",
    "prefecture_code": 45,
    "city": "宮崎市",
    "city_kana": "ミヤザキシ",
    "town": "学園木花台桜",
    "town_kana": "ガクエンキハナダイサクラ",
    "street": null,
    "office_name": null,
    "office_name_kana": null
  },
  "2155": {
    "postcode": "8892155",
    "prefecture": "宮崎県",
    "prefecture_kana": "ミヤザキケン",
    "prefecture_code": 45,
    "city": "宮崎市",
    "city_kana": "ミヤザキシ",
    "town": "学園木花台西",
    "town_kana": "ガクエンキバナダイニシ",
    "street": null,
    "office_name": null,
    "office_name_kana": null
  },
  "2156": {
    "postcode": "8892156",
    "prefecture": "宮崎県",
    "prefecture_kana": "ミヤザキケン",
    "prefecture_code": 45,
    "city": "宮崎市",
    "city_kana": "ミヤザキシ",
    "town": "鏡洲",
    "town_kana": "カガミズ",
    "street": null,
    "office_name": null,
    "office_name_kana": null
  },
  "2161": {
    "postcode": "8892161",
    "prefecture": "宮崎県",
    "prefecture_kana": "ミヤザキケン",
    "prefecture_code": 45,
    "city": "宮崎市",
    "city_kana": "ミヤザキシ",
    "town": "加江田",
    "town_kana": "カエダ",
    "street": null,
    "office_name": null,
    "office_name_kana": null
  },
  "2162": {
    "postcode": "8892162",
    "prefecture": "宮崎県",
    "prefecture_kana": "ミヤザキケン",
    "prefecture_code": 45,
    "city": "宮崎市",
    "city_kana": "ミヤザキシ",
    "town": "青島",
    "town_kana": "アオシマ",
    "street": null,
    "office_name": null,
    "office_name_kana": null
  },
  "2163": {
    "postcode": "8892163",
    "prefecture": "宮崎県",
    "prefecture_kana": "ミヤザキケン",
    "prefecture_code": 45,
    "city": "宮崎市",
    "city_kana": "ミヤザキシ",
    "town": "青島西",
    "town_kana": "アオシマニシ",
    "street": null,
    "office_name": null,
    "office_name_kana": null
  },
  "2164": {
    "postcode": "8892164",
    "prefecture": "宮崎県",
    "prefecture_kana": "ミヤザキケン",
    "prefecture_code": 45,
    "city": "宮崎市",
    "city_kana": "ミヤザキシ",
    "town": "折生迫",
    "town_kana": "オリウザコ",
    "street": null,
    "office_name": null,
    "office_name_kana": null
  },
  "2192": {
    "postcode": "8892192",
    "prefecture": "宮崎県",
    "prefecture_kana": "ミヤザキケン",
    "prefecture_code": 45,
    "city": "宮崎市",
    "city_kana": "ミヤザキシ",
    "town": "学園木花台西",
    "town_kana": "ガクエンキバナダイニシ",
    "street": "１丁目１",
    "office_name": "宮崎大学",
    "office_name_kana": "ミヤザキダイガク"
  },
  "2301": {
    "postcode": "8892301",
    "prefecture": "宮崎県",
    "prefecture_kana": "ミヤザキケン",
    "prefecture_code": 45,
    "city": "宮崎市",
    "city_kana": "ミヤザキシ",
    "town": "内海",
    "town_kana": "ウチウミ",
    "street": null,
    "office_name": null,
    "office_name_kana": null
  },
  "2401": {
    "postcode": "8892401",
    "prefecture": "宮崎県",
    "prefecture_kana": "ミヤザキケン",
    "prefecture_code": 45,
    "city": "日南市",
    "city_kana": "ニチナンシ",
    "town": "北郷町大藤",
    "town_kana": "キタゴウチョウオオフジ",
    "street": null,
    "office_name": null,
    "office_name_kana": null
  },
  "2402": {
    "postcode": "8892402",
    "prefecture": "宮崎県",
    "prefecture_kana": "ミヤザキケン",
    "prefecture_code": 45,
    "city": "日南市",
    "city_kana": "ニチナンシ",
    "town": "北郷町郷之原",
    "town_kana": "キタゴウチョウゴウノハラ",
    "street": null,
    "office_name": null,
    "office_name_kana": null
  },
  "2403": {
    "postcode": "8892403",
    "prefecture": "宮崎県",
    "prefecture_kana": "ミヤザキケン",
    "prefecture_code": 45,
    "city": "日南市",
    "city_kana": "ニチナンシ",
    "town": "北郷町北河内",
    "town_kana": "キタゴウチョウキタガワチ",
    "street": null,
    "office_name": null,
    "office_name_kana": null
  },
  "2492": {
    "postcode": "8892492",
    "prefecture": "宮崎県",
    "prefecture_kana": "ミヤザキケン",
    "prefecture_code": 45,
    "city": "日南市",
    "city_kana": "ニチナンシ",
    "town": "北郷町郷之原",
    "town_kana": "キタゴウチョウゴウノハラ",
    "street": "乙１４７７",
    "office_name": "日南市　北郷町総合支所",
    "office_name_kana": "ニチナンシ キタゴウマチソウゴウシシヨ"
  },
  "2511": {
    "postcode": "8892511",
    "prefecture": "宮崎県",
    "prefecture_kana": "ミヤザキケン",
    "prefecture_code": 45,
    "city": "日南市",
    "city_kana": "ニチナンシ",
    "town": "酒谷乙",
    "town_kana": "サカタニオツ",
    "street": null,
    "office_name": null,
    "office_name_kana": null
  },
  "2512": {
    "postcode": "8892512",
    "prefecture": "宮崎県",
    "prefecture_kana": "ミヤザキケン",
    "prefecture_code": 45,
    "city": "日南市",
    "city_kana": "ニチナンシ",
    "town": "酒谷甲",
    "town_kana": "サカタニコウ",
    "street": null,
    "office_name": null,
    "office_name_kana": null
  },
  "2513": {
    "postcode": "8892513",
    "prefecture": "宮崎県",
    "prefecture_kana": "ミヤザキケン",
    "prefecture_code": 45,
    "city": "日南市",
    "city_kana": "ニチナンシ",
    "town": "吉野方",
    "town_kana": "ヨシノカタ",
    "street": null,
    "office_name": null,
    "office_name_kana": null
  },
  "2514": {
    "postcode": "8892514",
    "prefecture": "宮崎県",
    "prefecture_kana": "ミヤザキケン",
    "prefecture_code": 45,
    "city": "日南市",
    "city_kana": "ニチナンシ",
    "town": "楠原",
    "town_kana": "クスバル",
    "street": null,
    "office_name": null,
    "office_name_kana": null
  },
  "2521": {
    "postcode": "8892521",
    "prefecture": "宮崎県",
    "prefecture_kana": "ミヤザキケン",
    "prefecture_code": 45,
    "city": "日南市",
    "city_kana": "ニチナンシ",
    "town": "東弁分乙",
    "town_kana": "ヒガシベンブンオツ",
    "street": null,
    "office_name": null,
    "office_name_kana": null
  },
  "2522": {
    "postcode": "8892522",
    "prefecture": "宮崎県",
    "prefecture_kana": "ミヤザキケン",
    "prefecture_code": 45,
    "city": "日南市",
    "city_kana": "ニチナンシ",
    "town": "東弁分甲",
    "town_kana": "ヒガシベンブンコウ",
    "street": null,
    "office_name": null,
    "office_name_kana": null
  },
  "2523": {
    "postcode": "8892523",
    "prefecture": "宮崎県",
    "prefecture_kana": "ミヤザキケン",
    "prefecture_code": 45,
    "city": "日南市",
    "city_kana": "ニチナンシ",
    "town": "松永",
    "town_kana": "マツナガ",
    "street": null,
    "office_name": null,
    "office_name_kana": null
  },
  "2524": {
    "postcode": "8892524",
    "prefecture": "宮崎県",
    "prefecture_kana": "ミヤザキケン",
    "prefecture_code": 45,
    "city": "日南市",
    "city_kana": "ニチナンシ",
    "town": "殿所",
    "town_kana": "トノトコロ",
    "street": null,
    "office_name": null,
    "office_name_kana": null
  },
  "2525": {
    "postcode": "8892525",
    "prefecture": "宮崎県",
    "prefecture_kana": "ミヤザキケン",
    "prefecture_code": 45,
    "city": "日南市",
    "city_kana": "ニチナンシ",
    "town": "今町",
    "town_kana": "イママチ",
    "street": null,
    "office_name": null,
    "office_name_kana": null
  },
  "2531": {
    "postcode": "8892531",
    "prefecture": "宮崎県",
    "prefecture_kana": "ミヤザキケン",
    "prefecture_code": 45,
    "city": "日南市",
    "city_kana": "ニチナンシ",
    "town": "本町",
    "town_kana": "ホンマチ",
    "street": null,
    "office_name": null,
    "office_name_kana": null
  },
  "2532": {
    "postcode": "8892532",
    "prefecture": "宮崎県",
    "prefecture_kana": "ミヤザキケン",
    "prefecture_code": 45,
    "city": "日南市",
    "city_kana": "ニチナンシ",
    "town": "板敷",
    "town_kana": "イタジキ",
    "street": null,
    "office_name": null,
    "office_name_kana": null
  },
  "2533": {
    "postcode": "8892533",
    "prefecture": "宮崎県",
    "prefecture_kana": "ミヤザキケン",
    "prefecture_code": 45,
    "city": "日南市",
    "city_kana": "ニチナンシ",
    "town": "星倉",
    "town_kana": "ホシクラ",
    "street": null,
    "office_name": null,
    "office_name_kana": null
  },
  "2534": {
    "postcode": "8892534",
    "prefecture": "宮崎県",
    "prefecture_kana": "ミヤザキケン",
    "prefecture_code": 45,
    "city": "日南市",
    "city_kana": "ニチナンシ",
    "town": "時任町",
    "town_kana": "トキトウチョウ",
    "street": null,
    "office_name": null,
    "office_name_kana": null
  },
  "2535": {
    "postcode": "8892535",
    "prefecture": "宮崎県",
    "prefecture_kana": "ミヤザキケン",
    "prefecture_code": 45,
    "city": "日南市",
    "city_kana": "ニチナンシ",
    "town": "飫肥",
    "town_kana": "オビ",
    "street": null,
    "office_name": null,
    "office_name_kana": null
  },
  "2536": {
    "postcode": "8892536",
    "prefecture": "宮崎県",
    "prefecture_kana": "ミヤザキケン",
    "prefecture_code": 45,
    "city": "日南市",
    "city_kana": "ニチナンシ",
    "town": "吾田西",
    "town_kana": "アガタニシ",
    "street": null,
    "office_name": null,
    "office_name_kana": null
  },
  "2541": {
    "postcode": "8892541",
    "prefecture": "宮崎県",
    "prefecture_kana": "ミヤザキケン",
    "prefecture_code": 45,
    "city": "日南市",
    "city_kana": "ニチナンシ",
    "town": "吾田東",
    "town_kana": "アガタヒガシ",
    "street": null,
    "office_name": null,
    "office_name_kana": null
  },
  "3141": {
    "postcode": "8893141",
    "prefecture": "宮崎県",
    "prefecture_kana": "ミヤザキケン",
    "prefecture_code": 45,
    "city": "日南市",
    "city_kana": "ニチナンシ",
    "town": "大堂津",
    "town_kana": "オオドウツ",
    "street": null,
    "office_name": null,
    "office_name_kana": null
  },
  "3142": {
    "postcode": "8893142",
    "prefecture": "宮崎県",
    "prefecture_kana": "ミヤザキケン",
    "prefecture_code": 45,
    "city": "日南市",
    "city_kana": "ニチナンシ",
    "town": "塩鶴",
    "town_kana": "シオヅル",
    "street": null,
    "office_name": null,
    "office_name_kana": null
  },
  "3143": {
    "postcode": "8893143",
    "prefecture": "宮崎県",
    "prefecture_kana": "ミヤザキケン",
    "prefecture_code": 45,
    "city": "日南市",
    "city_kana": "ニチナンシ",
    "town": "下方",
    "town_kana": "シモカタ",
    "street": null,
    "office_name": null,
    "office_name_kana": null
  },
  "3151": {
    "postcode": "8893151",
    "prefecture": "宮崎県",
    "prefecture_kana": "ミヤザキケン",
    "prefecture_code": 45,
    "city": "日南市",
    "city_kana": "ニチナンシ",
    "town": "上方",
    "town_kana": "カミカタ",
    "street": null,
    "office_name": null,
    "office_name_kana": null
  },
  "3152": {
    "postcode": "8893152",
    "prefecture": "宮崎県",
    "prefecture_kana": "ミヤザキケン",
    "prefecture_code": 45,
    "city": "日南市",
    "city_kana": "ニチナンシ",
    "town": "毛吉田",
    "town_kana": "ケヨシダ",
    "street": null,
    "office_name": null,
    "office_name_kana": null
  },
  "3153": {
    "postcode": "8893153",
    "prefecture": "宮崎県",
    "prefecture_kana": "ミヤザキケン",
    "prefecture_code": 45,
    "city": "日南市",
    "city_kana": "ニチナンシ",
    "town": "萩之嶺",
    "town_kana": "ハギノミネ",
    "street": null,
    "office_name": null,
    "office_name_kana": null
  },
  "3154": {
    "postcode": "8893154",
    "prefecture": "宮崎県",
    "prefecture_kana": "ミヤザキケン",
    "prefecture_code": 45,
    "city": "日南市",
    "city_kana": "ニチナンシ",
    "town": "塚田甲",
    "town_kana": "ツカダコウ",
    "street": null,
    "office_name": null,
    "office_name_kana": null
  },
  "3155": {
    "postcode": "8893155",
    "prefecture": "宮崎県",
    "prefecture_kana": "ミヤザキケン",
    "prefecture_code": 45,
    "city": "日南市",
    "city_kana": "ニチナンシ",
    "town": "塚田乙",
    "town_kana": "ツカダオツ",
    "street": null,
    "office_name": null,
    "office_name_kana": null
  },
  "3156": {
    "postcode": "8893156",
    "prefecture": "宮崎県",
    "prefecture_kana": "ミヤザキケン",
    "prefecture_code": 45,
    "city": "日南市",
    "city_kana": "ニチナンシ",
    "town": "大窪",
    "town_kana": "オオクボ",
    "street": null,
    "office_name": null,
    "office_name_kana": null
  },
  "3201": {
    "postcode": "8893201",
    "prefecture": "宮崎県",
    "prefecture_kana": "ミヤザキケン",
    "prefecture_code": 45,
    "city": "日南市",
    "city_kana": "ニチナンシ",
    "town": "南郷町津屋野",
    "town_kana": "ナンゴウチョウツヤノ",
    "street": null,
    "office_name": null,
    "office_name_kana": null
  },
  "3202": {
    "postcode": "8893202",
    "prefecture": "宮崎県",
    "prefecture_kana": "ミヤザキケン",
    "prefecture_code": 45,
    "city": "日南市",
    "city_kana": "ニチナンシ",
    "town": "南郷町中村甲",
    "town_kana": "ナンゴウチョウナカムラコウ",
    "street": null,
    "office_name": null,
    "office_name_kana": null
  },
  "3203": {
    "postcode": "8893203",
    "prefecture": "宮崎県",
    "prefecture_kana": "ミヤザキケン",
    "prefecture_code": 45,
    "city": "日南市",
    "city_kana": "ニチナンシ",
    "town": "南郷町谷之口",
    "town_kana": "ナンゴウチョウタニノクチ",
    "street": null,
    "office_name": null,
    "office_name_kana": null
  },
  "3204": {
    "postcode": "8893204",
    "prefecture": "宮崎県",
    "prefecture_kana": "ミヤザキケン",
    "prefecture_code": 45,
    "city": "日南市",
    "city_kana": "ニチナンシ",
    "town": "南郷町中村乙",
    "town_kana": "ナンゴウチョウナカムラオツ",
    "street": null,
    "office_name": null,
    "office_name_kana": null
  },
  "3205": {
    "postcode": "8893205",
    "prefecture": "宮崎県",
    "prefecture_kana": "ミヤザキケン",
    "prefecture_code": 45,
    "city": "日南市",
    "city_kana": "ニチナンシ",
    "town": "南郷町西町",
    "town_kana": "ナンゴウチョウニシマチ",
    "street": null,
    "office_name": null,
    "office_name_kana": null
  },
  "3206": {
    "postcode": "8893206",
    "prefecture": "宮崎県",
    "prefecture_kana": "ミヤザキケン",
    "prefecture_code": 45,
    "city": "日南市",
    "city_kana": "ニチナンシ",
    "town": "南郷町南町",
    "town_kana": "ナンゴウチョウミナミマチ",
    "street": null,
    "office_name": null,
    "office_name_kana": null
  },
  "3207": {
    "postcode": "8893207",
    "prefecture": "宮崎県",
    "prefecture_kana": "ミヤザキケン",
    "prefecture_code": 45,
    "city": "日南市",
    "city_kana": "ニチナンシ",
    "town": "南郷町東町",
    "town_kana": "ナンゴウチョウヒガシマチ",
    "street": null,
    "office_name": null,
    "office_name_kana": null
  },
  "3211": {
    "postcode": "8893211",
    "prefecture": "宮崎県",
    "prefecture_kana": "ミヤザキケン",
    "prefecture_code": 45,
    "city": "日南市",
    "city_kana": "ニチナンシ",
    "town": "南郷町贄波",
    "town_kana": "ナンゴウチョウニエナミ",
    "street": null,
    "office_name": null,
    "office_name_kana": null
  },
  "3212": {
    "postcode": "8893212",
    "prefecture": "宮崎県",
    "prefecture_kana": "ミヤザキケン",
    "prefecture_code": 45,
    "city": "日南市",
    "city_kana": "ニチナンシ",
    "town": "南郷町脇本",
    "town_kana": "ナンゴウチョウワキモト",
    "street": null,
    "office_name": null,
    "office_name_kana": null
  },
  "3213": {
    "postcode": "8893213",
    "prefecture": "宮崎県",
    "prefecture_kana": "ミヤザキケン",
    "prefecture_code": 45,
    "city": "日南市",
    "city_kana": "ニチナンシ",
    "town": "南郷町潟上",
    "town_kana": "ナンゴウチョウカタガミ",
    "street": null,
    "office_name": null,
    "office_name_kana": null
  },
  "3214": {
    "postcode": "8893214",
    "prefecture": "宮崎県",
    "prefecture_kana": "ミヤザキケン",
    "prefecture_code": 45,
    "city": "日南市",
    "city_kana": "ニチナンシ",
    "town": "南郷町榎原",
    "town_kana": "ナンゴウチョウヨワラ",
    "street": null,
    "office_name": null,
    "office_name_kana": null
  },
  "3215": {
    "postcode": "8893215",
    "prefecture": "宮崎県",
    "prefecture_kana": "ミヤザキケン",
    "prefecture_code": 45,
    "city": "日南市",
    "city_kana": "ニチナンシ",
    "town": "南郷町榎原甲",
    "town_kana": "ナンゴウチョウヨワラコウ",
    "street": null,
    "office_name": null,
    "office_name_kana": null
  },
  "3216": {
    "postcode": "8893216",
    "prefecture": "宮崎県",
    "prefecture_kana": "ミヤザキケン",
    "prefecture_code": 45,
    "city": "日南市",
    "city_kana": "ニチナンシ",
    "town": "南郷町榎原乙",
    "town_kana": "ナンゴウチョウヨワラオツ",
    "street": null,
    "office_name": null,
    "office_name_kana": null
  },
  "3217": {
    "postcode": "8893217",
    "prefecture": "宮崎県",
    "prefecture_kana": "ミヤザキケン",
    "prefecture_code": 45,
    "city": "日南市",
    "city_kana": "ニチナンシ",
    "town": "南郷町榎原丙",
    "town_kana": "ナンゴウチョウヨワラヘイ",
    "street": null,
    "office_name": null,
    "office_name_kana": null
  },
  "3311": {
    "postcode": "8893311",
    "prefecture": "宮崎県",
    "prefecture_kana": "ミヤザキケン",
    "prefecture_code": 45,
    "city": "串間市",
    "city_kana": "クシマシ",
    "town": "市木",
    "town_kana": "イチキ",
    "street": null,
    "office_name": null,
    "office_name_kana": null
  },
  "3531": {
    "postcode": "8893531",
    "prefecture": "宮崎県",
    "prefecture_kana": "ミヤザキケン",
    "prefecture_code": 45,
    "city": "串間市",
    "city_kana": "クシマシ",
    "town": "奈留",
    "town_kana": "ナル",
    "street": null,
    "office_name": null,
    "office_name_kana": null
  },
  "3532": {
    "postcode": "8893532",
    "prefecture": "宮崎県",
    "prefecture_kana": "ミヤザキケン",
    "prefecture_code": 45,
    "city": "串間市",
    "city_kana": "クシマシ",
    "town": "大平",
    "town_kana": "オオヒラ",
    "street": null,
    "office_name": null,
    "office_name_kana": null
  },
  "3533": {
    "postcode": "8893533",
    "prefecture": "宮崎県",
    "prefecture_kana": "ミヤザキケン",
    "prefecture_code": 45,
    "city": "串間市",
    "city_kana": "クシマシ",
    "town": "一氏",
    "town_kana": "イチウジ",
    "street": null,
    "office_name": null,
    "office_name_kana": null
  },
  "3534": {
    "postcode": "8893534",
    "prefecture": "宮崎県",
    "prefecture_kana": "ミヤザキケン",
    "prefecture_code": 45,
    "city": "串間市",
    "city_kana": "クシマシ",
    "town": "大矢取",
    "town_kana": "オオヤドリ",
    "street": null,
    "office_name": null,
    "office_name_kana": null
  },
  "4151": {
    "postcode": "8894151",
    "prefecture": "宮崎県",
    "prefecture_kana": "ミヤザキケン",
    "prefecture_code": 45,
    "city": "えびの市",
    "city_kana": "エビノシ",
    "town": "向江",
    "town_kana": "ムカエ",
    "street": null,
    "office_name": null,
    "office_name_kana": null
  },
  "4152": {
    "postcode": "8894152",
    "prefecture": "宮崎県",
    "prefecture_kana": "ミヤザキケン",
    "prefecture_code": 45,
    "city": "えびの市",
    "city_kana": "エビノシ",
    "town": "島内",
    "town_kana": "シマウチ",
    "street": null,
    "office_name": null,
    "office_name_kana": null
  },
  "4153": {
    "postcode": "8894153",
    "prefecture": "宮崎県",
    "prefecture_kana": "ミヤザキケン",
    "prefecture_code": 45,
    "city": "えびの市",
    "city_kana": "エビノシ",
    "town": "浦",
    "town_kana": "ウラ",
    "street": null,
    "office_name": null,
    "office_name_kana": null
  },
  "4154": {
    "postcode": "8894154",
    "prefecture": "宮崎県",
    "prefecture_kana": "ミヤザキケン",
    "prefecture_code": 45,
    "city": "えびの市",
    "city_kana": "エビノシ",
    "town": "柳水流",
    "town_kana": "ヤナギズル",
    "street": null,
    "office_name": null,
    "office_name_kana": null
  },
  "4155": {
    "postcode": "8894155",
    "prefecture": "宮崎県",
    "prefecture_kana": "ミヤザキケン",
    "prefecture_code": 45,
    "city": "えびの市",
    "city_kana": "エビノシ",
    "town": "亀沢",
    "town_kana": "カメサワ",
    "street": null,
    "office_name": null,
    "office_name_kana": null
  },
  "4161": {
    "postcode": "8894161",
    "prefecture": "宮崎県",
    "prefecture_kana": "ミヤザキケン",
    "prefecture_code": 45,
    "city": "えびの市",
    "city_kana": "エビノシ",
    "town": "岡松",
    "town_kana": "オカマツ",
    "street": null,
    "office_name": null,
    "office_name_kana": null
  },
  "4162": {
    "postcode": "8894162",
    "prefecture": "宮崎県",
    "prefecture_kana": "ミヤザキケン",
    "prefecture_code": 45,
    "city": "えびの市",
    "city_kana": "エビノシ",
    "town": "内竪",
    "town_kana": "ウチタテ",
    "street": null,
    "office_name": null,
    "office_name_kana": null
  },
  "4163": {
    "postcode": "8894163",
    "prefecture": "宮崎県",
    "prefecture_kana": "ミヤザキケン",
    "prefecture_code": 45,
    "city": "えびの市",
    "city_kana": "エビノシ",
    "town": "水流",
    "town_kana": "ツル",
    "street": null,
    "office_name": null,
    "office_name_kana": null
  },
  "4164": {
    "postcode": "8894164",
    "prefecture": "宮崎県",
    "prefecture_kana": "ミヤザキケン",
    "prefecture_code": 45,
    "city": "えびの市",
    "city_kana": "エビノシ",
    "town": "昌明寺",
    "town_kana": "ショウミョウジ",
    "street": null,
    "office_name": null,
    "office_name_kana": null
  },
  "4165": {
    "postcode": "8894165",
    "prefecture": "宮崎県",
    "prefecture_kana": "ミヤザキケン",
    "prefecture_code": 45,
    "city": "えびの市",
    "city_kana": "エビノシ",
    "town": "西川北",
    "town_kana": "ニシカワキタ",
    "street": null,
    "office_name": null,
    "office_name_kana": null
  },
  "4221": {
    "postcode": "8894221",
    "prefecture": "宮崎県",
    "prefecture_kana": "ミヤザキケン",
    "prefecture_code": 45,
    "city": "えびの市",
    "city_kana": "エビノシ",
    "town": "栗下",
    "town_kana": "クリシタ",
    "street": null,
    "office_name": null,
    "office_name_kana": null
  },
  "4222": {
    "postcode": "8894222",
    "prefecture": "宮崎県",
    "prefecture_kana": "ミヤザキケン",
    "prefecture_code": 45,
    "city": "えびの市",
    "city_kana": "エビノシ",
    "town": "小田",
    "town_kana": "オダ",
    "street": null,
    "office_name": null,
    "office_name_kana": null
  },
  "4231": {
    "postcode": "8894231",
    "prefecture": "宮崎県",
    "prefecture_kana": "ミヤザキケン",
    "prefecture_code": 45,
    "city": "えびの市",
    "city_kana": "エビノシ",
    "town": "東長江浦",
    "town_kana": "ヒガシナガエウラ",
    "street": null,
    "office_name": null,
    "office_name_kana": null
  },
  "4232": {
    "postcode": "8894232",
    "prefecture": "宮崎県",
    "prefecture_kana": "ミヤザキケン",
    "prefecture_code": 45,
    "city": "えびの市",
    "city_kana": "エビノシ",
    "town": "西長江浦",
    "town_kana": "ニシナガエウラ",
    "street": null,
    "office_name": null,
    "office_name_kana": null
  },
  "4233": {
    "postcode": "8894233",
    "prefecture": "宮崎県",
    "prefecture_kana": "ミヤザキケン",
    "prefecture_code": 45,
    "city": "えびの市",
    "city_kana": "エビノシ",
    "town": "灰塚",
    "town_kana": "ハイツカ",
    "street": null,
    "office_name": null,
    "office_name_kana": null
  },
  "4234": {
    "postcode": "8894234",
    "prefecture": "宮崎県",
    "prefecture_kana": "ミヤザキケン",
    "prefecture_code": 45,
    "city": "えびの市",
    "city_kana": "エビノシ",
    "town": "永山",
    "town_kana": "ナガヤマ",
    "street": null,
    "office_name": null,
    "office_name_kana": null
  },
  "4241": {
    "postcode": "8894241",
    "prefecture": "宮崎県",
    "prefecture_kana": "ミヤザキケン",
    "prefecture_code": 45,
    "city": "えびの市",
    "city_kana": "エビノシ",
    "town": "西郷",
    "town_kana": "サイゴウ",
    "street": null,
    "office_name": null,
    "office_name_kana": null
  },
  "4242": {
    "postcode": "8894242",
    "prefecture": "宮崎県",
    "prefecture_kana": "ミヤザキケン",
    "prefecture_code": 45,
    "city": "えびの市",
    "city_kana": "エビノシ",
    "town": "湯田",
    "town_kana": "ユダ",
    "street": null,
    "office_name": null,
    "office_name_kana": null
  },
  "4243": {
    "postcode": "8894243",
    "prefecture": "宮崎県",
    "prefecture_kana": "ミヤザキケン",
    "prefecture_code": 45,
    "city": "えびの市",
    "city_kana": "エビノシ",
    "town": "榎田",
    "town_kana": "エノキダ",
    "street": null,
    "office_name": null,
    "office_name_kana": null
  },
  "4244": {
    "postcode": "8894244",
    "prefecture": "宮崎県",
    "prefecture_kana": "ミヤザキケン",
    "prefecture_code": 45,
    "city": "えびの市",
    "city_kana": "エビノシ",
    "town": "東川北",
    "town_kana": "ヒガシカワキタ",
    "street": null,
    "office_name": null,
    "office_name_kana": null
  },
  "4292": {
    "postcode": "8894292",
    "prefecture": "宮崎県",
    "prefecture_kana": "ミヤザキケン",
    "prefecture_code": 45,
    "city": "えびの市",
    "city_kana": "エビノシ",
    "town": "大字栗下",
    "town_kana": null,
    "street": "１２９２",
    "office_name": "えびの市役所",
    "office_name_kana": "エビノシヤクシヨ"
  },
  "4300": {
    "postcode": "8894300",
    "prefecture": "宮崎県",
    "prefecture_kana": "ミヤザキケン",
    "prefecture_code": 45,
    "city": "えびの市",
    "city_kana": "エビノシ",
    "town": "",
    "town_kana": "",
    "street": null,
    "office_name": null,
    "office_name_kana": null
  },
  "4301": {
    "postcode": "8894301",
    "prefecture": "宮崎県",
    "prefecture_kana": "ミヤザキケン",
    "prefecture_code": 45,
    "city": "えびの市",
    "city_kana": "エビノシ",
    "town": "原田",
    "town_kana": "ハラダ",
    "street": null,
    "office_name": null,
    "office_name_kana": null
  },
  "4302": {
    "postcode": "8894302",
    "prefecture": "宮崎県",
    "prefecture_kana": "ミヤザキケン",
    "prefecture_code": 45,
    "city": "えびの市",
    "city_kana": "エビノシ",
    "town": "末永",
    "town_kana": "スエナガ",
    "street": null,
    "office_name": null,
    "office_name_kana": null
  },
  "4303": {
    "postcode": "8894303",
    "prefecture": "宮崎県",
    "prefecture_kana": "ミヤザキケン",
    "prefecture_code": 45,
    "city": "えびの市",
    "city_kana": "エビノシ",
    "town": "池島",
    "town_kana": "イケジマ",
    "street": null,
    "office_name": null,
    "office_name_kana": null
  },
  "4304": {
    "postcode": "8894304",
    "prefecture": "宮崎県",
    "prefecture_kana": "ミヤザキケン",
    "prefecture_code": 45,
    "city": "えびの市",
    "city_kana": "エビノシ",
    "town": "上江",
    "town_kana": "ウワエ",
    "street": null,
    "office_name": null,
    "office_name_kana": null
  },
  "4305": {
    "postcode": "8894305",
    "prefecture": "宮崎県",
    "prefecture_kana": "ミヤザキケン",
    "prefecture_code": 45,
    "city": "えびの市",
    "city_kana": "エビノシ",
    "town": "前田",
    "town_kana": "マエダ",
    "street": null,
    "office_name": null,
    "office_name_kana": null
  },
  "4306": {
    "postcode": "8894306",
    "prefecture": "宮崎県",
    "prefecture_kana": "ミヤザキケン",
    "prefecture_code": 45,
    "city": "えびの市",
    "city_kana": "エビノシ",
    "town": "今西",
    "town_kana": "イマニシ",
    "street": null,
    "office_name": null,
    "office_name_kana": null
  },
  "4311": {
    "postcode": "8894311",
    "prefecture": "宮崎県",
    "prefecture_kana": "ミヤザキケン",
    "prefecture_code": 45,
    "city": "えびの市",
    "city_kana": "エビノシ",
    "town": "大明司",
    "town_kana": "ダイミョウジ",
    "street": null,
    "office_name": null,
    "office_name_kana": null
  },
  "4312": {
    "postcode": "8894312",
    "prefecture": "宮崎県",
    "prefecture_kana": "ミヤザキケン",
    "prefecture_code": 45,
    "city": "えびの市",
    "city_kana": "エビノシ",
    "town": "坂元",
    "town_kana": "サカモト",
    "street": null,
    "office_name": null,
    "office_name_kana": null
  },
  "4313": {
    "postcode": "8894313",
    "prefecture": "宮崎県",
    "prefecture_kana": "ミヤザキケン",
    "prefecture_code": 45,
    "city": "えびの市",
    "city_kana": "エビノシ",
    "town": "杉水流",
    "town_kana": "スギズル",
    "street": null,
    "office_name": null,
    "office_name_kana": null
  },
  "4314": {
    "postcode": "8894314",
    "prefecture": "宮崎県",
    "prefecture_kana": "ミヤザキケン",
    "prefecture_code": 45,
    "city": "えびの市",
    "city_kana": "エビノシ",
    "town": "大河平",
    "town_kana": "オオコウビラ",
    "street": null,
    "office_name": null,
    "office_name_kana": null
  },
  "4392": {
    "postcode": "8894392",
    "prefecture": "宮崎県",
    "prefecture_kana": "ミヤザキケン",
    "prefecture_code": 45,
    "city": "えびの市",
    "city_kana": "エビノシ",
    "town": "大字大河平",
    "town_kana": null,
    "street": "４４５５−１",
    "office_name": "陸上自衛隊えびの駐屯地",
    "office_name_kana": "リクジヨウジエイタイエビノチユウトンチ"
  },
  "4400": {
    "postcode": "8894400",
    "prefecture": "宮崎県",
    "prefecture_kana": "ミヤザキケン",
    "prefecture_code": 45,
    "city": "西諸県郡高原町",
    "city_kana": "ニシモロカタグンタカハルチョウ",
    "town": "",
    "town_kana": "",
    "street": null,
    "office_name": null,
    "office_name_kana": null
  },
  "4411": {
    "postcode": "8894411",
    "prefecture": "宮崎県",
    "prefecture_kana": "ミヤザキケン",
    "prefecture_code": 45,
    "city": "西諸県郡高原町",
    "city_kana": "ニシモロカタグンタカハルチョウ",
    "town": "広原",
    "town_kana": "ヒロワラ",
    "street": null,
    "office_name": null,
    "office_name_kana": null
  },
  "4412": {
    "postcode": "8894412",
    "prefecture": "宮崎県",
    "prefecture_kana": "ミヤザキケン",
    "prefecture_code": 45,
    "city": "西諸県郡高原町",
    "city_kana": "ニシモロカタグンタカハルチョウ",
    "town": "西麓",
    "town_kana": "ニシフモト",
    "street": null,
    "office_name": null,
    "office_name_kana": null
  },
  "4413": {
    "postcode": "8894413",
    "prefecture": "宮崎県",
    "prefecture_kana": "ミヤザキケン",
    "prefecture_code": 45,
    "city": "西諸県郡高原町",
    "city_kana": "ニシモロカタグンタカハルチョウ",
    "town": "後川内",
    "town_kana": "ウシロカワチ",
    "street": null,
    "office_name": null,
    "office_name_kana": null
  },
  "4414": {
    "postcode": "8894414",
    "prefecture": "宮崎県",
    "prefecture_kana": "ミヤザキケン",
    "prefecture_code": 45,
    "city": "西諸県郡高原町",
    "city_kana": "ニシモロカタグンタカハルチョウ",
    "town": "蒲牟田",
    "town_kana": "カマムタ",
    "street": null,
    "office_name": null,
    "office_name_kana": null
  },
  "4492": {
    "postcode": "8894492",
    "prefecture": "宮崎県",
    "prefecture_kana": "ミヤザキケン",
    "prefecture_code": 45,
    "city": "西諸県郡高原町",
    "city_kana": "ニシモロカタグンタカハルチョウ",
    "town": "大字西麓",
    "town_kana": null,
    "street": "８９９",
    "office_name": "高原町役場",
    "office_name_kana": "タカハルチヨウヤクバ"
  },
  "4501": {
    "postcode": "8894501",
    "prefecture": "宮崎県",
    "prefecture_kana": "ミヤザキケン",
    "prefecture_code": 45,
    "city": "都城市",
    "city_kana": "ミヤコノジョウシ",
    "town": "高崎町笛水",
    "town_kana": "タカザキチョウフエミズ",
    "street": null,
    "office_name": null,
    "office_name_kana": null
  },
  "4502": {
    "postcode": "8894502",
    "prefecture": "宮崎県",
    "prefecture_kana": "ミヤザキケン",
    "prefecture_code": 45,
    "city": "都城市",
    "city_kana": "ミヤコノジョウシ",
    "town": "高崎町江平",
    "town_kana": "タカザキチョウエヒラ",
    "street": null,
    "office_name": null,
    "office_name_kana": null
  },
  "4503": {
    "postcode": "8894503",
    "prefecture": "宮崎県",
    "prefecture_kana": "ミヤザキケン",
    "prefecture_code": 45,
    "city": "都城市",
    "city_kana": "ミヤコノジョウシ",
    "town": "高崎町縄瀬",
    "town_kana": "タカザキチョウナワゼ",
    "street": null,
    "office_name": null,
    "office_name_kana": null
  },
  "4504": {
    "postcode": "8894504",
    "prefecture": "宮崎県",
    "prefecture_kana": "ミヤザキケン",
    "prefecture_code": 45,
    "city": "都城市",
    "city_kana": "ミヤコノジョウシ",
    "town": "高崎町東霧島",
    "town_kana": "タカザキチョウツマギリシマ",
    "street": null,
    "office_name": null,
    "office_name_kana": null
  },
  "4505": {
    "postcode": "8894505",
    "prefecture": "宮崎県",
    "prefecture_kana": "ミヤザキケン",
    "prefecture_code": 45,
    "city": "都城市",
    "city_kana": "ミヤコノジョウシ",
    "town": "高崎町大牟田",
    "town_kana": "タカザキチョウオオムタ",
    "street": null,
    "office_name": null,
    "office_name_kana": null
  },
  "4506": {
    "postcode": "8894506",
    "prefecture": "宮崎県",
    "prefecture_kana": "ミヤザキケン",
    "prefecture_code": 45,
    "city": "都城市",
    "city_kana": "ミヤコノジョウシ",
    "town": "高崎町前田",
    "town_kana": "タカザキチョウマエダ",
    "street": null,
    "office_name": null,
    "office_name_kana": null
  },
  "4592": {
    "postcode": "8894592",
    "prefecture": "宮崎県",
    "prefecture_kana": "ミヤザキケン",
    "prefecture_code": 45,
    "city": "都城市",
    "city_kana": "ミヤコノジョウシ",
    "town": "高崎町大牟田",
    "town_kana": "タカザキチョウオオムタ",
    "street": "１１５０−１",
    "office_name": "都城市　高崎総合支所",
    "office_name_kana": "ミヤコノジヨウシ タカザキソウゴウシシヨ"
  },
  "4601": {
    "postcode": "8894601",
    "prefecture": "宮崎県",
    "prefecture_kana": "ミヤザキケン",
    "prefecture_code": 45,
    "city": "都城市",
    "city_kana": "ミヤコノジョウシ",
    "town": "山田町山田",
    "town_kana": "ヤマダチョウヤマダ",
    "street": null,
    "office_name": null,
    "office_name_kana": null
  },
  "4602": {
    "postcode": "8894602",
    "prefecture": "宮崎県",
    "prefecture_kana": "ミヤザキケン",
    "prefecture_code": 45,
    "city": "都城市",
    "city_kana": "ミヤコノジョウシ",
    "town": "山田町中霧島",
    "town_kana": "ヤマダチョウナカギリシマ",
    "street": null,
    "office_name": null,
    "office_name_kana": null
  }
}