{
  "0000": {
    "postcode": "8930000",
    "prefecture": "鹿児島県",
    "prefecture_kana": "カゴシマケン",
    "prefecture_code": 46,
    "city": "鹿屋市",
    "city_kana": "カノヤシ",
    "town": "",
    "town_kana": "",
    "street": null,
    "office_name": null,
    "office_name_kana": null
  },
  "0001": {
    "postcode": "8930001",
    "prefecture": "鹿児島県",
    "prefecture_kana": "カゴシマケン",
    "prefecture_code": 46,
    "city": "鹿屋市",
    "city_kana": "カノヤシ",
    "town": "古前城町",
    "town_kana": "コセンジョウチョウ",
    "street": null,
    "office_name": null,
    "office_name_kana": null
  },
  "0002": {
    "postcode": "8930002",
    "prefecture": "鹿児島県",
    "prefecture_kana": "カゴシマケン",
    "prefecture_code": 46,
    "city": "鹿屋市",
    "city_kana": "カノヤシ",
    "town": "本町",
    "town_kana": "ホンマチ",
    "street": null,
    "office_name": null,
    "office_name_kana": null
  },
  "0003": {
    "postcode": "8930003",
    "prefecture": "鹿児島県",
    "prefecture_kana": "カゴシマケン",
    "prefecture_code": 46,
    "city": "鹿屋市",
    "city_kana": "カノヤシ",
    "town": "曽田町",
    "town_kana": "ソダチョウ",
    "street": null,
    "office_name": null,
    "office_name_kana": null
  },
  "0004": {
    "postcode": "8930004",
    "prefecture": "鹿児島県",
    "prefecture_kana": "カゴシマケン",
    "prefecture_code": 46,
    "city": "鹿屋市",
    "city_kana": "カノヤシ",
    "town": "朝日町",
    "town_kana": "アサヒマチ",
    "street": null,
    "office_name": null,
    "office_name_kana": null
  },
  "0005": {
    "postcode": "8930005",
    "prefecture": "鹿児島県",
    "prefecture_kana": "カゴシマケン",
    "prefecture_code": 46,
    "city": "鹿屋市",
    "city_kana": "カノヤシ",
    "town": "共栄町",
    "town_kana": "キョウエイチョウ",
    "street": null,
    "office_name": null,
    "office_name_kana": null
  },
  "0006": {
    "postcode": "8930006",
    "prefecture": "鹿児島県",
    "prefecture_kana": "カゴシマケン",
    "prefecture_code": 46,
    "city": "鹿屋市",
    "city_kana": "カノヤシ",
    "town": "向江町",
    "town_kana": "ムカエチョウ",
    "street": null,
    "office_name": null,
    "office_name_kana": null
  },
  "0007": {
    "postcode": "8930007",
    "prefecture": "鹿児島県",
    "prefecture_kana": "カゴシマケン",
    "prefecture_code": 46,
    "city": "鹿屋市",
    "city_kana": "カノヤシ",
    "town": "北田町",
    "town_kana": "キタダチョウ",
    "street": null,
    "office_name": null,
    "office_name_kana": null
  },
  "0008": {
    "postcode": "8930008",
    "prefecture": "鹿児島県",
    "prefecture_kana": "カゴシマケン",
    "prefecture_code": 46,
    "city": "鹿屋市",
    "city_kana": "カノヤシ",
    "town": "西大手町",
    "town_kana": "ニシオオテマチ",
    "street": null,
    "office_name": null,
    "office_name_kana": null
  },
  "0009": {
    "postcode": "8930009",
    "prefecture": "鹿児島県",
    "prefecture_kana": "カゴシマケン",
    "prefecture_code": 46,
    "city": "鹿屋市",
    "city_kana": "カノヤシ",
    "town": "大手町",
    "town_kana": "オオテマチ",
    "street": null,
    "office_name": null,
    "office_name_kana": null
  },
  "0011": {
    "postcode": "8930011",
    "prefecture": "鹿児島県",
    "prefecture_kana": "カゴシマケン",
    "prefecture_code": 46,
    "city": "鹿屋市",
    "city_kana": "カノヤシ",
    "town": "打馬",
    "town_kana": "ウツマ",
    "street": null,
    "office_name": null,
    "office_name_kana": null
  },
  "0012": {
    "postcode": "8930012",
    "prefecture": "鹿児島県",
    "prefecture_kana": "カゴシマケン",
    "prefecture_code": 46,
    "city": "鹿屋市",
    "city_kana": "カノヤシ",
    "town": "王子町",
    "town_kana": "オウジチョウ",
    "street": null,
    "office_name": null,
    "office_name_kana": null
  },
  "0013": {
    "postcode": "8930013",
    "prefecture": "鹿児島県",
    "prefecture_kana": "カゴシマケン",
    "prefecture_code": 46,
    "city": "鹿屋市",
    "city_kana": "カノヤシ",
    "town": "札元",
    "town_kana": "フダモト",
    "street": null,
    "office_name": null,
    "office_name_kana": null
  },
  "0014": {
    "postcode": "8930014",
    "prefecture": "鹿児島県",
    "prefecture_kana": "カゴシマケン",
    "prefecture_code": 46,
    "city": "鹿屋市",
    "city_kana": "カノヤシ",
    "town": "寿",
    "town_kana": "コトブキ",
    "street": null,
    "office_name": null,
    "office_name_kana": null
  },
  "0015": {
    "postcode": "8930015",
    "prefecture": "鹿児島県",
    "prefecture_kana": "カゴシマケン",
    "prefecture_code": 46,
    "city": "鹿屋市",
    "city_kana": "カノヤシ",
    "town": "新川町",
    "town_kana": "シンカワチョウ",
    "street": null,
    "office_name": null,
    "office_name_kana": null
  },
  "0016": {
    "postcode": "8930016",
    "prefecture": "鹿児島県",
    "prefecture_kana": "カゴシマケン",
    "prefecture_code": 46,
    "city": "鹿屋市",
    "city_kana": "カノヤシ",
    "town": "白崎町",
    "town_kana": "シラサキチョウ",
    "street": null,
    "office_name": null,
    "office_name_kana": null
  },
  "0021": {
    "postcode": "8930021",
    "prefecture": "鹿児島県",
    "prefecture_kana": "カゴシマケン",
    "prefecture_code": 46,
    "city": "鹿屋市",
    "city_kana": "カノヤシ",
    "town": "東原町",
    "town_kana": "ヒガシバルチョウ",
    "street": null,
    "office_name": null,
    "office_name_kana": null
  },
  "0022": {
    "postcode": "8930022",
    "prefecture": "鹿児島県",
    "prefecture_kana": "カゴシマケン",
    "prefecture_code": 46,
    "city": "鹿屋市",
    "city_kana": "カノヤシ",
    "town": "旭原町",
    "town_kana": "アサヒバルチョウ",
    "street": null,
    "office_name": null,
    "office_name_kana": null
  },
  "0023": {
    "postcode": "8930023",
    "prefecture": "鹿児島県",
    "prefecture_kana": "カゴシマケン",
    "prefecture_code": 46,
    "city": "鹿屋市",
    "city_kana": "カノヤシ",
    "town": "笠之原町",
    "town_kana": "カサノハラチョウ",
    "street": null,
    "office_name": null,
    "office_name_kana": null
  },
  "0024": {
    "postcode": "8930024",
    "prefecture": "鹿児島県",
    "prefecture_kana": "カゴシマケン",
    "prefecture_code": 46,
    "city": "鹿屋市",
    "city_kana": "カノヤシ",
    "town": "下祓川町",
    "town_kana": "シモハライガワチョウ",
    "street": null,
    "office_name": null,
    "office_name_kana": null
  },
  "0025": {
    "postcode": "8930025",
    "prefecture": "鹿児島県",
    "prefecture_kana": "カゴシマケン",
    "prefecture_code": 46,
    "city": "鹿屋市",
    "city_kana": "カノヤシ",
    "town": "西祓川町",
    "town_kana": "ニシハライガワチョウ",
    "street": null,
    "office_name": null,
    "office_name_kana": null
  },
  "0026": {
    "postcode": "8930026",
    "prefecture": "鹿児島県",
    "prefecture_kana": "カゴシマケン",
    "prefecture_code": 46,
    "city": "鹿屋市",
    "city_kana": "カノヤシ",
    "town": "祓川町",
    "town_kana": "ハライガワチョウ",
    "street": null,
    "office_name": null,
    "office_name_kana": null
  },
  "0027": {
    "postcode": "8930027",
    "prefecture": "鹿児島県",
    "prefecture_kana": "カゴシマケン",
    "prefecture_code": 46,
    "city": "鹿屋市",
    "city_kana": "カノヤシ",
    "town": "上祓川町",
    "town_kana": "カミハライガワチョウ",
    "street": null,
    "office_name": null,
    "office_name_kana": null
  },
  "0031": {
    "postcode": "8930031",
    "prefecture": "鹿児島県",
    "prefecture_kana": "カゴシマケン",
    "prefecture_code": 46,
    "city": "鹿屋市",
    "city_kana": "カノヤシ",
    "town": "川東町",
    "town_kana": "カワヒガシチョウ",
    "street": null,
    "office_name": null,
    "office_name_kana": null
  },
  "0032": {
    "postcode": "8930032",
    "prefecture": "鹿児島県",
    "prefecture_kana": "カゴシマケン",
    "prefecture_code": 46,
    "city": "鹿屋市",
    "city_kana": "カノヤシ",
    "town": "川西町",
    "town_kana": "カワニシチョウ",
    "street": null,
    "office_name": null,
    "office_name_kana": null
  },
  "0033": {
    "postcode": "8930033",
    "prefecture": "鹿児島県",
    "prefecture_kana": "カゴシマケン",
    "prefecture_code": 46,
    "city": "鹿屋市",
    "city_kana": "カノヤシ",
    "town": "永野田町",
    "town_kana": "ナガノダチョウ",
    "street": null,
    "office_name": null,
    "office_name_kana": null
  },
  "0034": {
    "postcode": "8930034",
    "prefecture": "鹿児島県",
    "prefecture_kana": "カゴシマケン",
    "prefecture_code": 46,
    "city": "鹿屋市",
    "city_kana": "カノヤシ",
    "town": "名貫町",
    "town_kana": "ナヌキチョウ",
    "street": null,
    "office_name": null,
    "office_name_kana": null
  },
  "0035": {
    "postcode": "8930035",
    "prefecture": "鹿児島県",
    "prefecture_kana": "カゴシマケン",
    "prefecture_code": 46,
    "city": "鹿屋市",
    "city_kana": "カノヤシ",
    "town": "飯隈町",
    "town_kana": "イイクマチョウ",
    "street": null,
    "office_name": null,
    "office_name_kana": null
  },
  "0036": {
    "postcode": "8930036",
    "prefecture": "鹿児島県",
    "prefecture_kana": "カゴシマケン",
    "prefecture_code": 46,
    "city": "鹿屋市",
    "city_kana": "カノヤシ",
    "town": "萩塚町",
    "town_kana": "ハギツカチョウ",
    "street": null,
    "office_name": null,
    "office_name_kana": null
  },
  "0037": {
    "postcode": "8930037",
    "prefecture": "鹿児島県",
    "prefecture_kana": "カゴシマケン",
    "prefecture_code": 46,
    "city": "鹿屋市",
    "city_kana": "カノヤシ",
    "town": "田崎町",
    "town_kana": "タサキチョウ",
    "street": null,
    "office_name": null,
    "office_name_kana": null
  },
  "0041": {
    "postcode": "8930041",
    "prefecture": "鹿児島県",
    "prefecture_kana": "カゴシマケン",
    "prefecture_code": 46,
    "city": "鹿屋市",
    "city_kana": "カノヤシ",
    "town": "星塚町",
    "town_kana": "ホシヅカチョウ",
    "street": null,
    "office_name": null,
    "office_name_kana": null
  },
  "0042": {
    "postcode": "8930042",
    "prefecture": "鹿児島県",
    "prefecture_kana": "カゴシマケン",
    "prefecture_code": 46,
    "city": "鹿屋市",
    "city_kana": "カノヤシ",
    "town": "池園町",
    "town_kana": "イケゾノチョウ",
    "street": null,
    "office_name": null,
    "office_name_kana": null
  },
  "0043": {
    "postcode": "8930043",
    "prefecture": "鹿児島県",
    "prefecture_kana": "カゴシマケン",
    "prefecture_code": 46,
    "city": "鹿屋市",
    "city_kana": "カノヤシ",
    "town": "南町",
    "town_kana": "ミナミチョウ",
    "street": null,
    "office_name": null,
    "office_name_kana": null
  },
  "0044": {
    "postcode": "8930044",
    "prefecture": "鹿児島県",
    "prefecture_kana": "カゴシマケン",
    "prefecture_code": 46,
    "city": "鹿屋市",
    "city_kana": "カノヤシ",
    "town": "獅子目町",
    "town_kana": "シシメチョウ",
    "street": null,
    "office_name": null,
    "office_name_kana": null
  },
  "0045": {
    "postcode": "8930045",
    "prefecture": "鹿児島県",
    "prefecture_kana": "カゴシマケン",
    "prefecture_code": 46,
    "city": "鹿屋市",
    "city_kana": "カノヤシ",
    "town": "田淵町",
    "town_kana": "タブチチョウ",
    "street": null,
    "office_name": null,
    "office_name_kana": null
  },
  "0046": {
    "postcode": "8930046",
    "prefecture": "鹿児島県",
    "prefecture_kana": "カゴシマケン",
    "prefecture_code": 46,
    "city": "鹿屋市",
    "city_kana": "カノヤシ",
    "town": "横山町",
    "town_kana": "ヨコヤマチョウ",
    "street": null,
    "office_name": null,
    "office_name_kana": null
  },
  "0047": {
    "postcode": "8930047",
    "prefecture": "鹿児島県",
    "prefecture_kana": "カゴシマケン",
    "prefecture_code": 46,
    "city": "鹿屋市",
    "city_kana": "カノヤシ",
    "town": "下堀町",
    "town_kana": "シモホリチョウ",
    "street": null,
    "office_name": null,
    "office_name_kana": null
  },
  "0051": {
    "postcode": "8930051",
    "prefecture": "鹿児島県",
    "prefecture_kana": "カゴシマケン",
    "prefecture_code": 46,
    "city": "鹿屋市",
    "city_kana": "カノヤシ",
    "town": "大姶良町",
    "town_kana": "オオアイラチョウ",
    "street": null,
    "office_name": null,
    "office_name_kana": null
  },
  "0052": {
    "postcode": "8930052",
    "prefecture": "鹿児島県",
    "prefecture_kana": "カゴシマケン",
    "prefecture_code": 46,
    "city": "鹿屋市",
    "city_kana": "カノヤシ",
    "town": "永小原町",
    "town_kana": "ナガオバルチョウ",
    "street": null,
    "office_name": null,
    "office_name_kana": null
  },
  "0053": {
    "postcode": "8930053",
    "prefecture": "鹿児島県",
    "prefecture_kana": "カゴシマケン",
    "prefecture_code": 46,
    "city": "鹿屋市",
    "city_kana": "カノヤシ",
    "town": "浜田町",
    "town_kana": "ハマダチョウ",
    "street": null,
    "office_name": null,
    "office_name_kana": null
  },
  "0054": {
    "postcode": "8930054",
    "prefecture": "鹿児島県",
    "prefecture_kana": "カゴシマケン",
    "prefecture_code": 46,
    "city": "鹿屋市",
    "city_kana": "カノヤシ",
    "town": "高須町",
    "town_kana": "タカスチョウ",
    "street": null,
    "office_name": null,
    "office_name_kana": null
  },
  "0055": {
    "postcode": "8930055",
    "prefecture": "鹿児島県",
    "prefecture_kana": "カゴシマケン",
    "prefecture_code": 46,
    "city": "鹿屋市",
    "city_kana": "カノヤシ",
    "town": "野里町",
    "town_kana": "ノザトチョウ",
    "street": null,
    "office_name": null,
    "office_name_kana": null
  },
  "0056": {
    "postcode": "8930056",
    "prefecture": "鹿児島県",
    "prefecture_kana": "カゴシマケン",
    "prefecture_code": 46,
    "city": "鹿屋市",
    "city_kana": "カノヤシ",
    "town": "上野町",
    "town_kana": "ウエノチョウ",
    "street": null,
    "office_name": null,
    "office_name_kana": null
  },
  "0057": {
    "postcode": "8930057",
    "prefecture": "鹿児島県",
    "prefecture_kana": "カゴシマケン",
    "prefecture_code": 46,
    "city": "鹿屋市",
    "city_kana": "カノヤシ",
    "town": "今坂町",
    "town_kana": "イマサカチョウ",
    "street": null,
    "office_name": null,
    "office_name_kana": null
  },
  "0061": {
    "postcode": "8930061",
    "prefecture": "鹿児島県",
    "prefecture_kana": "カゴシマケン",
    "prefecture_code": 46,
    "city": "鹿屋市",
    "city_kana": "カノヤシ",
    "town": "上谷町",
    "town_kana": "カミダニチョウ",
    "street": null,
    "office_name": null,
    "office_name_kana": null
  },
  "0062": {
    "postcode": "8930062",
    "prefecture": "鹿児島県",
    "prefecture_kana": "カゴシマケン",
    "prefecture_code": 46,
    "city": "鹿屋市",
    "city_kana": "カノヤシ",
    "town": "新生町",
    "town_kana": "シンセイチョウ",
    "street": null,
    "office_name": null,
    "office_name_kana": null
  },
  "0063": {
    "postcode": "8930063",
    "prefecture": "鹿児島県",
    "prefecture_kana": "カゴシマケン",
    "prefecture_code": 46,
    "city": "鹿屋市",
    "city_kana": "カノヤシ",
    "town": "新栄町",
    "town_kana": "シンエイチョウ",
    "street": null,
    "office_name": null,
    "office_name_kana": null
  },
  "0064": {
    "postcode": "8930064",
    "prefecture": "鹿児島県",
    "prefecture_kana": "カゴシマケン",
    "prefecture_code": 46,
    "city": "鹿屋市",
    "city_kana": "カノヤシ",
    "town": "西原",
    "town_kana": "ニシハラ",
    "street": null,
    "office_name": null,
    "office_name_kana": null
  },
  "0065": {
    "postcode": "8930065",
    "prefecture": "鹿児島県",
    "prefecture_kana": "カゴシマケン",
    "prefecture_code": 46,
    "city": "鹿屋市",
    "city_kana": "カノヤシ",
    "town": "郷之原町",
    "town_kana": "ゴウノハラチョウ",
    "street": null,
    "office_name": null,
    "office_name_kana": null
  },
  "0066": {
    "postcode": "8930066",
    "prefecture": "鹿児島県",
    "prefecture_kana": "カゴシマケン",
    "prefecture_code": 46,
    "city": "鹿屋市",
    "city_kana": "カノヤシ",
    "town": "高牧町",
    "town_kana": "タカマキチョウ",
    "street": null,
    "office_name": null,
    "office_name_kana": null
  },
  "0067": {
    "postcode": "8930067",
    "prefecture": "鹿児島県",
    "prefecture_kana": "カゴシマケン",
    "prefecture_code": 46,
    "city": "鹿屋市",
    "city_kana": "カノヤシ",
    "town": "大浦町",
    "town_kana": "オオウラチョウ",
    "street": null,
    "office_name": null,
    "office_name_kana": null
  },
  "0131": {
    "postcode": "8930131",
    "prefecture": "鹿児島県",
    "prefecture_kana": "カゴシマケン",
    "prefecture_code": 46,
    "city": "鹿屋市",
    "city_kana": "カノヤシ",
    "town": "上高隈町",
    "town_kana": "カミタカクマチョウ",
    "street": null,
    "office_name": null,
    "office_name_kana": null
  },
  "0132": {
    "postcode": "8930132",
    "prefecture": "鹿児島県",
    "prefecture_kana": "カゴシマケン",
    "prefecture_code": 46,
    "city": "鹿屋市",
    "city_kana": "カノヤシ",
    "town": "下高隈町",
    "town_kana": "シモタカクマチョウ",
    "street": null,
    "office_name": null,
    "office_name_kana": null
  },
  "0201": {
    "postcode": "8930201",
    "prefecture": "鹿児島県",
    "prefecture_kana": "カゴシマケン",
    "prefecture_code": 46,
    "city": "鹿屋市",
    "city_kana": "カノヤシ",
    "town": "輝北町上百引",
    "town_kana": "キホクチョウカミモビキ",
    "street": null,
    "office_name": null,
    "office_name_kana": null
  },
  "0202": {
    "postcode": "8930202",
    "prefecture": "鹿児島県",
    "prefecture_kana": "カゴシマケン",
    "prefecture_code": 46,
    "city": "鹿屋市",
    "city_kana": "カノヤシ",
    "town": "輝北町下百引",
    "town_kana": "キホクチョウシモモビキ",
    "street": null,
    "office_name": null,
    "office_name_kana": null
  },
  "0203": {
    "postcode": "8930203",
    "prefecture": "鹿児島県",
    "prefecture_kana": "カゴシマケン",
    "prefecture_code": 46,
    "city": "鹿屋市",
    "city_kana": "カノヤシ",
    "town": "輝北町平房",
    "town_kana": "キホクチョウヒラボウ",
    "street": null,
    "office_name": null,
    "office_name_kana": null
  },
  "0292": {
    "postcode": "8930292",
    "prefecture": "鹿児島県",
    "prefecture_kana": "カゴシマケン",
    "prefecture_code": 46,
    "city": "鹿屋市",
    "city_kana": "カノヤシ",
    "town": "輝北町上百引",
    "town_kana": "キホクチョウカミモビキ",
    "street": "３９１４番地ロ",
    "office_name": "鹿屋市役所　輝北総合支所",
    "office_name_kana": "カノヤシヤクシヨ キホクソウゴウシシヨ"
  },
  "1101": {
    "postcode": "8931101",
    "prefecture": "鹿児島県",
    "prefecture_kana": "カゴシマケン",
    "prefecture_code": 46,
    "city": "鹿屋市",
    "city_kana": "カノヤシ",
    "town": "吾平町上名",
    "town_kana": "アイラチョウカミミョウ",
    "street": null,
    "office_name": null,
    "office_name_kana": null
  },
  "1102": {
    "postcode": "8931102",
    "prefecture": "鹿児島県",
    "prefecture_kana": "カゴシマケン",
    "prefecture_code": 46,
    "city": "鹿屋市",
    "city_kana": "カノヤシ",
    "town": "吾平町下名",
    "town_kana": "アイラチョウシモミョウ",
    "street": null,
    "office_name": null,
    "office_name_kana": null
  },
  "1103": {
    "postcode": "8931103",
    "prefecture": "鹿児島県",
    "prefecture_kana": "カゴシマケン",
    "prefecture_code": 46,
    "city": "鹿屋市",
    "city_kana": "カノヤシ",
    "town": "吾平町麓",
    "town_kana": "アイラチョウフモト",
    "street": null,
    "office_name": null,
    "office_name_kana": null
  },
  "1192": {
    "postcode": "8931192",
    "prefecture": "鹿児島県",
    "prefecture_kana": "カゴシマケン",
    "prefecture_code": 46,
    "city": "鹿屋市",
    "city_kana": "カノヤシ",
    "town": "吾平町麓",
    "town_kana": "アイラチョウフモト",
    "street": "３３１７",
    "office_name": "鹿屋市役所　吾平総合支所",
    "office_name_kana": "カノヤシヤクシヨ アイラソウゴウシシヨ"
  },
  "1198": {
    "postcode": "8931198",
    "prefecture": "鹿児島県",
    "prefecture_kana": "カゴシマケン",
    "prefecture_code": 46,
    "city": "鹿屋市",
    "city_kana": "カノヤシ",
    "town": "吾平町麓",
    "town_kana": "アイラチョウフモト",
    "street": "４２４５",
    "office_name": "鹿児島部品　株式会社",
    "office_name_kana": "カゴシマブヒン カブシキガイシヤ"
  },
  "1200": {
    "postcode": "8931200",
    "prefecture": "鹿児島県",
    "prefecture_kana": "カゴシマケン",
    "prefecture_code": 46,
    "city": "肝属郡肝付町",
    "city_kana": "キモツキグンキモツキチョウ",
    "town": "",
    "town_kana": "",
    "street": null,
    "office_name": null,
    "office_name_kana": null
  },
  "1201": {
    "postcode": "8931201",
    "prefecture": "鹿児島県",
    "prefecture_kana": "カゴシマケン",
    "prefecture_code": 46,
    "city": "肝属郡肝付町",
    "city_kana": "キモツキグンキモツキチョウ",
    "town": "野崎",
    "town_kana": "ノサキ",
    "street": null,
    "office_name": null,
    "office_name_kana": null
  },
  "1202": {
    "postcode": "8931202",
    "prefecture": "鹿児島県",
    "prefecture_kana": "カゴシマケン",
    "prefecture_code": 46,
    "city": "肝属郡肝付町",
    "city_kana": "キモツキグンキモツキチョウ",
    "town": "波見",
    "town_kana": "ハミ",
    "street": null,
    "office_name": null,
    "office_name_kana": null
  },
  "1203": {
    "postcode": "8931203",
    "prefecture": "鹿児島県",
    "prefecture_kana": "カゴシマケン",
    "prefecture_code": 46,
    "city": "肝属郡肝付町",
    "city_kana": "キモツキグンキモツキチョウ",
    "town": "後田",
    "town_kana": "ウシロダ",
    "street": null,
    "office_name": null,
    "office_name_kana": null
  },
  "1204": {
    "postcode": "8931204",
    "prefecture": "鹿児島県",
    "prefecture_kana": "カゴシマケン",
    "prefecture_code": 46,
    "city": "肝属郡肝付町",
    "city_kana": "キモツキグンキモツキチョウ",
    "town": "富山",
    "town_kana": "トミヤマ",
    "street": null,
    "office_name": null,
    "office_name_kana": null
  },
  "1205": {
    "postcode": "8931205",
    "prefecture": "鹿児島県",
    "prefecture_kana": "カゴシマケン",
    "prefecture_code": 46,
    "city": "肝属郡肝付町",
    "city_kana": "キモツキグンキモツキチョウ",
    "town": "宮下",
    "town_kana": "ミヤゲ",
    "street": null,
    "office_name": null,
    "office_name_kana": null
  },
  "1206": {
    "postcode": "8931206",
    "prefecture": "鹿児島県",
    "prefecture_kana": "カゴシマケン",
    "prefecture_code": 46,
    "city": "肝属郡肝付町",
    "city_kana": "キモツキグンキモツキチョウ",
    "town": "前田",
    "town_kana": "マエダ",
    "street": null,
    "office_name": null,
    "office_name_kana": null
  },
  "1207": {
    "postcode": "8931207",
    "prefecture": "鹿児島県",
    "prefecture_kana": "カゴシマケン",
    "prefecture_code": 46,
    "city": "肝属郡肝付町",
    "city_kana": "キモツキグンキモツキチョウ",
    "town": "新富",
    "town_kana": "ニイトミ",
    "street": null,
    "office_name": null,
    "office_name_kana": null
  },
  "1298": {
    "postcode": "8931298",
    "prefecture": "鹿児島県",
    "prefecture_kana": "カゴシマケン",
    "prefecture_code": 46,
    "city": "肝属郡肝付町",
    "city_kana": "キモツキグンキモツキチョウ",
    "town": "前田",
    "town_kana": "マエダ",
    "street": "９７２",
    "office_name": "山佐産業　株式会社",
    "office_name_kana": "ヤマササンギヨウ カブシキガイシヤ"
  },
  "1401": {
    "postcode": "8931401",
    "prefecture": "鹿児島県",
    "prefecture_kana": "カゴシマケン",
    "prefecture_code": 46,
    "city": "肝属郡肝付町",
    "city_kana": "キモツキグンキモツキチョウ",
    "town": "北方",
    "town_kana": "キタカタ",
    "street": null,
    "office_name": null,
    "office_name_kana": null
  },
  "1402": {
    "postcode": "8931402",
    "prefecture": "鹿児島県",
    "prefecture_kana": "カゴシマケン",
    "prefecture_code": 46,
    "city": "肝属郡肝付町",
    "city_kana": "キモツキグンキモツキチョウ",
    "town": "南方",
    "town_kana": "ミナミカタ",
    "street": null,
    "office_name": null,
    "office_name_kana": null
  },
  "1511": {
    "postcode": "8931511",
    "prefecture": "鹿児島県",
    "prefecture_kana": "カゴシマケン",
    "prefecture_code": 46,
    "city": "肝属郡肝付町",
    "city_kana": "キモツキグンキモツキチョウ",
    "town": "岸良",
    "town_kana": "キシラ",
    "street": null,
    "office_name": null,
    "office_name_kana": null
  },
  "1600": {
    "postcode": "8931600",
    "prefecture": "鹿児島県",
    "prefecture_kana": "カゴシマケン",
    "prefecture_code": 46,
    "city": "肝属郡東串良町",
    "city_kana": "キモツキグンヒガシクシラチョウ",
    "town": "",
    "town_kana": "",
    "street": null,
    "office_name": null,
    "office_name_kana": null
  },
  "1601": {
    "postcode": "8931601",
    "prefecture": "鹿児島県",
    "prefecture_kana": "カゴシマケン",
    "prefecture_code": 46,
    "city": "鹿屋市",
    "city_kana": "カノヤシ",
    "town": "串良町細山田",
    "town_kana": "クシラチョウホソヤマダ",
    "street": null,
    "office_name": null,
    "office_name_kana": null
  },
  "1602": {
    "postcode": "8931602",
    "prefecture": "鹿児島県",
    "prefecture_kana": "カゴシマケン",
    "prefecture_code": 46,
    "city": "鹿屋市",
    "city_kana": "カノヤシ",
    "town": "串良町有里",
    "town_kana": "クシラチョウアリサト",
    "street": null,
    "office_name": null,
    "office_name_kana": null
  },
  "1603": {
    "postcode": "8931603",
    "prefecture": "鹿児島県",
    "prefecture_kana": "カゴシマケン",
    "prefecture_code": 46,
    "city": "鹿屋市",
    "city_kana": "カノヤシ",
    "town": "串良町岡崎",
    "town_kana": "クシラチョウオカサキ",
    "street": null,
    "office_name": null,
    "office_name_kana": null
  },
  "1604": {
    "postcode": "8931604",
    "prefecture": "鹿児島県",
    "prefecture_kana": "カゴシマケン",
    "prefecture_code": 46,
    "city": "鹿屋市",
    "city_kana": "カノヤシ",
    "town": "串良町下小原",
    "town_kana": "クシラチョウシモオバル",
    "street": null,
    "office_name": null,
    "office_name_kana": null
  },
  "1605": {
    "postcode": "8931605",
    "prefecture": "鹿児島県",
    "prefecture_kana": "カゴシマケン",
    "prefecture_code": 46,
    "city": "鹿屋市",
    "city_kana": "カノヤシ",
    "town": "串良町上小原",
    "town_kana": "クシラチョウカミオバル",
    "street": null,
    "office_name": null,
    "office_name_kana": null
  },
  "1611": {
    "postcode": "8931611",
    "prefecture": "鹿児島県",
    "prefecture_kana": "カゴシマケン",
    "prefecture_code": 46,
    "city": "肝属郡東串良町",
    "city_kana": "キモツキグンヒガシクシラチョウ",
    "town": "岩弘",
    "town_kana": "イワヒロ",
    "street": null,
    "office_name": null,
    "office_name_kana": null
  },
  "1612": {
    "postcode": "8931612",
    "prefecture": "鹿児島県",
    "prefecture_kana": "カゴシマケン",
    "prefecture_code": 46,
    "city": "肝属郡東串良町",
    "city_kana": "キモツキグンヒガシクシラチョウ",
    "town": "池之原",
    "town_kana": "イケノハラ",
    "street": null,
    "office_name": null,
    "office_name_kana": null
  },
  "1613": {
    "postcode": "8931613",
    "prefecture": "鹿児島県",
    "prefecture_kana": "カゴシマケン",
    "prefecture_code": 46,
    "city": "肝属郡東串良町",
    "city_kana": "キモツキグンヒガシクシラチョウ",
    "town": "川西",
    "town_kana": "カワニシ",
    "street": null,
    "office_name": null,
    "office_name_kana": null
  },
  "1614": {
    "postcode": "8931614",
    "prefecture": "鹿児島県",
    "prefecture_kana": "カゴシマケン",
    "prefecture_code": 46,
    "city": "肝属郡東串良町",
    "city_kana": "キモツキグンヒガシクシラチョウ",
    "town": "新川西",
    "town_kana": "シンカワニシ",
    "street": null,
    "office_name": null,
    "office_name_kana": null
  },
  "1615": {
    "postcode": "8931615",
    "prefecture": "鹿児島県",
    "prefecture_kana": "カゴシマケン",
    "prefecture_code": 46,
    "city": "肝属郡東串良町",
    "city_kana": "キモツキグンヒガシクシラチョウ",
    "town": "川東",
    "town_kana": "カワヒガシ",
    "street": null,
    "office_name": null,
    "office_name_kana": null
  },
  "1692": {
    "postcode": "8931692",
    "prefecture": "鹿児島県",
    "prefecture_kana": "カゴシマケン",
    "prefecture_code": 46,
    "city": "鹿屋市",
    "city_kana": "カノヤシ",
    "town": "串良町岡崎",
    "town_kana": "クシラチョウオカサキ",
    "street": "２０５９",
    "office_name": "鹿屋市役所　串良総合支所",
    "office_name_kana": "カノヤシヤクシヨ クシラソウゴウシシヨ"
  },
  "1693": {
    "postcode": "8931693",
    "prefecture": "鹿児島県",
    "prefecture_kana": "カゴシマケン",
    "prefecture_code": 46,
    "city": "肝属郡東串良町",
    "city_kana": "キモツキグンヒガシクシラチョウ",
    "town": "川西",
    "town_kana": "カワニシ",
    "street": "１５４３",
    "office_name": "東串良町役場",
    "office_name_kana": "ヒガシクシラチヨウヤクバ"
  },
  "2300": {
    "postcode": "8932300",
    "prefecture": "鹿児島県",
    "prefecture_kana": "カゴシマケン",
    "prefecture_code": 46,
    "city": "肝属郡錦江町",
    "city_kana": "キモツキグンキンコウチョウ",
    "town": "",
    "town_kana": "",
    "street": null,
    "office_name": null,
    "office_name_kana": null
  },
  "2301": {
    "postcode": "8932301",
    "prefecture": "鹿児島県",
    "prefecture_kana": "カゴシマケン",
    "prefecture_code": 46,
    "city": "肝属郡錦江町",
    "city_kana": "キモツキグンキンコウチョウ",
    "town": "神川",
    "town_kana": "カミカワ",
    "street": null,
    "office_name": null,
    "office_name_kana": null
  },
  "2302": {
    "postcode": "8932302",
    "prefecture": "鹿児島県",
    "prefecture_kana": "カゴシマケン",
    "prefecture_code": 46,
    "city": "肝属郡錦江町",
    "city_kana": "キモツキグンキンコウチョウ",
    "town": "城元",
    "town_kana": "シロモト",
    "street": null,
    "office_name": null,
    "office_name_kana": null
  },
  "2303": {
    "postcode": "8932303",
    "prefecture": "鹿児島県",
    "prefecture_kana": "カゴシマケン",
    "prefecture_code": 46,
    "city": "肝属郡錦江町",
    "city_kana": "キモツキグンキンコウチョウ",
    "town": "馬場",
    "town_kana": "ババ",
    "street": null,
    "office_name": null,
    "office_name_kana": null
  },
  "2392": {
    "postcode": "8932392",
    "prefecture": "鹿児島県",
    "prefecture_kana": "カゴシマケン",
    "prefecture_code": 46,
    "city": "肝属郡錦江町",
    "city_kana": "キモツキグンキンコウチョウ",
    "town": "城元",
    "town_kana": "シロモト",
    "street": "９６３",
    "office_name": "錦江町役場",
    "office_name_kana": "キンコウチヨウヤクバ"
  },
  "2401": {
    "postcode": "8932401",
    "prefecture": "鹿児島県",
    "prefecture_kana": "カゴシマケン",
    "prefecture_code": 46,
    "city": "肝属郡錦江町",
    "city_kana": "キモツキグンキンコウチョウ",
    "town": "田代麓",
    "town_kana": "タシロフモト",
    "street": null,
    "office_name": null,
    "office_name_kana": null
  },
  "2402": {
    "postcode": "8932402",
    "prefecture": "鹿児島県",
    "prefecture_kana": "カゴシマケン",
    "prefecture_code": 46,
    "city": "肝属郡錦江町",
    "city_kana": "キモツキグンキンコウチョウ",
    "town": "田代川原",
    "town_kana": "タシロカワハラ",
    "street": null,
    "office_name": null,
    "office_name_kana": null
  },
  "2492": {
    "postcode": "8932492",
    "prefecture": "鹿児島県",
    "prefecture_kana": "カゴシマケン",
    "prefecture_code": 46,
    "city": "肝属郡錦江町",
    "city_kana": "キモツキグンキンコウチョウ",
    "town": "田代麓",
    "town_kana": "タシロフモト",
    "street": "８２７−１",
    "office_name": "錦江町役場　田代支所",
    "office_name_kana": "キンコウチヨウヤクバ タシロシシヨ"
  },
  "2500": {
    "postcode": "8932500",
    "prefecture": "鹿児島県",
    "prefecture_kana": "カゴシマケン",
    "prefecture_code": 46,
    "city": "肝属郡南大隅町",
    "city_kana": "キモツキグンミナミオオスミチョウ",
    "town": "",
    "town_kana": "",
    "street": null,
    "office_name": null,
    "office_name_kana": null
  },
  "2501": {
    "postcode": "8932501",
    "prefecture": "鹿児島県",
    "prefecture_kana": "カゴシマケン",
    "prefecture_code": 46,
    "city": "肝属郡南大隅町",
    "city_kana": "キモツキグンミナミオオスミチョウ",
    "town": "根占川北",
    "town_kana": "ネジメカワキタ",
    "street": null,
    "office_name": null,
    "office_name_kana": null
  },
  "2502": {
    "postcode": "8932502",
    "prefecture": "鹿児島県",
    "prefecture_kana": "カゴシマケン",
    "prefecture_code": 46,
    "city": "肝属郡南大隅町",
    "city_kana": "キモツキグンミナミオオスミチョウ",
    "town": "根占川南",
    "town_kana": "ネジメカワミナミ",
    "street": null,
    "office_name": null,
    "office_name_kana": null
  },
  "2503": {
    "postcode": "8932503",
    "prefecture": "鹿児島県",
    "prefecture_kana": "カゴシマケン",
    "prefecture_code": 46,
    "city": "肝属郡南大隅町",
    "city_kana": "キモツキグンミナミオオスミチョウ",
    "town": "根占横別府",
    "town_kana": "ネジメヨコベップ",
    "street": null,
    "office_name": null,
    "office_name_kana": null
  },
  "2504": {
    "postcode": "8932504",
    "prefecture": "鹿児島県",
    "prefecture_kana": "カゴシマケン",
    "prefecture_code": 46,
    "city": "肝属郡南大隅町",
    "city_kana": "キモツキグンミナミオオスミチョウ",
    "town": "根占山本",
    "town_kana": "ネジメヤマモト",
    "street": null,
    "office_name": null,
    "office_name_kana": null
  },
  "2505": {
    "postcode": "8932505",
    "prefecture": "鹿児島県",
    "prefecture_kana": "カゴシマケン",
    "prefecture_code": 46,
    "city": "肝属郡南大隅町",
    "city_kana": "キモツキグンミナミオオスミチョウ",
    "town": "根占辺田",
    "town_kana": "ネジメヘタ",
    "street": null,
    "office_name": null,
    "office_name_kana": null
  },
  "2601": {
    "postcode": "8932601",
    "prefecture": "鹿児島県",
    "prefecture_kana": "カゴシマケン",
    "prefecture_code": 46,
    "city": "肝属郡南大隅町",
    "city_kana": "キモツキグンミナミオオスミチョウ",
    "town": "佐多伊座敷",
    "town_kana": "サタイザシキ",
    "street": null,
    "office_name": null,
    "office_name_kana": null
  },
  "2602": {
    "postcode": "8932602",
    "prefecture": "鹿児島県",
    "prefecture_kana": "カゴシマケン",
    "prefecture_code": 46,
    "city": "肝属郡南大隅町",
    "city_kana": "キモツキグンミナミオオスミチョウ",
    "town": "佐多辺塚",
    "town_kana": "サタヘツカ",
    "street": null,
    "office_name": null,
    "office_name_kana": null
  },
  "2603": {
    "postcode": "8932603",
    "prefecture": "鹿児島県",
    "prefecture_kana": "カゴシマケン",
    "prefecture_code": 46,
    "city": "肝属郡南大隅町",
    "city_kana": "キモツキグンミナミオオスミチョウ",
    "town": "佐多郡",
    "town_kana": "サタコオリ",
    "street": null,
    "office_name": null,
    "office_name_kana": null
  },
  "2604": {
    "postcode": "8932604",
    "prefecture": "鹿児島県",
    "prefecture_kana": "カゴシマケン",
    "prefecture_code": 46,
    "city": "肝属郡南大隅町",
    "city_kana": "キモツキグンミナミオオスミチョウ",
    "town": "佐多馬籠",
    "town_kana": "サタマゴメ",
    "street": null,
    "office_name": null,
    "office_name_kana": null
  },
  "8501": {
    "postcode": "8938501",
    "prefecture": "鹿児島県",
    "prefecture_kana": "カゴシマケン",
    "prefecture_code": 46,
    "city": "鹿屋市",
    "city_kana": "カノヤシ",
    "town": "共栄町",
    "town_kana": "キョウエイチョウ",
    "street": "２０−１",
    "office_name": "鹿屋市役所",
    "office_name_kana": "カノヤシヤクシヨ"
  },
  "8502": {
    "postcode": "8938502",
    "prefecture": "鹿児島県",
    "prefecture_kana": "カゴシマケン",
    "prefecture_code": 46,
    "city": "鹿屋市",
    "city_kana": "カノヤシ",
    "town": "星塚町",
    "town_kana": "ホシヅカチョウ",
    "street": "４２０４",
    "office_name": "国立療養所星塚敬愛園",
    "office_name_kana": "コクリツリヨウヨウジヨホシツカケイアイエン"
  },
  "8510": {
    "postcode": "8938510",
    "prefecture": "鹿児島県",
    "prefecture_kana": "カゴシマケン",
    "prefecture_code": 46,
    "city": "鹿屋市",
    "city_kana": "カノヤシ",
    "town": "西原",
    "town_kana": "ニシハラ",
    "street": "３丁目１１−２",
    "office_name": "海上自衛隊",
    "office_name_kana": "カイジヨウジエイタイ"
  },
  "8611": {
    "postcode": "8938611",
    "prefecture": "鹿児島県",
    "prefecture_kana": "カゴシマケン",
    "prefecture_code": 46,
    "city": "鹿屋市",
    "city_kana": "カノヤシ",
    "town": "新栄町",
    "town_kana": "シンエイチョウ",
    "street": "３５−７（鹿屋郵便局私書箱第２０号）",
    "office_name": "有限会社　財宝",
    "office_name_kana": "ユウゲンガイシヤ ザイホウ"
  }
}