{
  "0000": {
    "postcode": "8960000",
    "prefecture": "鹿児島県",
    "prefecture_kana": "カゴシマケン",
    "prefecture_code": 46,
    "city": "いちき串木野市",
    "city_kana": "イチキクシキノシ",
    "town": "",
    "town_kana": "",
    "street": null,
    "office_name": null,
    "office_name_kana": null
  },
  "0001": {
    "postcode": "8960001",
    "prefecture": "鹿児島県",
    "prefecture_kana": "カゴシマケン",
    "prefecture_code": 46,
    "city": "いちき串木野市",
    "city_kana": "イチキクシキノシ",
    "town": "曙町",
    "town_kana": "アケボノチョウ",
    "street": null,
    "office_name": null,
    "office_name_kana": null
  },
  "0002": {
    "postcode": "8960002",
    "prefecture": "鹿児島県",
    "prefecture_kana": "カゴシマケン",
    "prefecture_code": 46,
    "city": "いちき串木野市",
    "city_kana": "イチキクシキノシ",
    "town": "春日町",
    "town_kana": "カスガチョウ",
    "street": null,
    "office_name": null,
    "office_name_kana": null
  },
  "0003": {
    "postcode": "8960003",
    "prefecture": "鹿児島県",
    "prefecture_kana": "カゴシマケン",
    "prefecture_code": 46,
    "city": "いちき串木野市",
    "city_kana": "イチキクシキノシ",
    "town": "京町",
    "town_kana": "キョウマチ",
    "street": null,
    "office_name": null,
    "office_name_kana": null
  },
  "0004": {
    "postcode": "8960004",
    "prefecture": "鹿児島県",
    "prefecture_kana": "カゴシマケン",
    "prefecture_code": 46,
    "city": "いちき串木野市",
    "city_kana": "イチキクシキノシ",
    "town": "汐見町",
    "town_kana": "シオミチョウ",
    "street": null,
    "office_name": null,
    "office_name_kana": null
  },
  "0005": {
    "postcode": "8960005",
    "prefecture": "鹿児島県",
    "prefecture_kana": "カゴシマケン",
    "prefecture_code": 46,
    "city": "いちき串木野市",
    "city_kana": "イチキクシキノシ",
    "town": "西塩田町",
    "town_kana": "ニシエンデンチョウ",
    "street": null,
    "office_name": null,
    "office_name_kana": null
  },
  "0006": {
    "postcode": "8960006",
    "prefecture": "鹿児島県",
    "prefecture_kana": "カゴシマケン",
    "prefecture_code": 46,
    "city": "いちき串木野市",
    "city_kana": "イチキクシキノシ",
    "town": "東塩田町",
    "town_kana": "ヒガシエンデンチョウ",
    "street": null,
    "office_name": null,
    "office_name_kana": null
  },
  "0011": {
    "postcode": "8960011",
    "prefecture": "鹿児島県",
    "prefecture_kana": "カゴシマケン",
    "prefecture_code": 46,
    "city": "いちき串木野市",
    "city_kana": "イチキクシキノシ",
    "town": "大原町",
    "town_kana": "オオハルマチ",
    "street": null,
    "office_name": null,
    "office_name_kana": null
  },
  "0012": {
    "postcode": "8960012",
    "prefecture": "鹿児島県",
    "prefecture_kana": "カゴシマケン",
    "prefecture_code": 46,
    "city": "いちき串木野市",
    "city_kana": "イチキクシキノシ",
    "town": "中尾町",
    "town_kana": "ナカオチョウ",
    "street": null,
    "office_name": null,
    "office_name_kana": null
  },
  "0013": {
    "postcode": "8960013",
    "prefecture": "鹿児島県",
    "prefecture_kana": "カゴシマケン",
    "prefecture_code": 46,
    "city": "いちき串木野市",
    "city_kana": "イチキクシキノシ",
    "town": "栄町",
    "town_kana": "サカエマチ",
    "street": null,
    "office_name": null,
    "office_name_kana": null
  },
  "0014": {
    "postcode": "8960014",
    "prefecture": "鹿児島県",
    "prefecture_kana": "カゴシマケン",
    "prefecture_code": 46,
    "city": "いちき串木野市",
    "city_kana": "イチキクシキノシ",
    "town": "元町",
    "town_kana": "モトマチ",
    "street": null,
    "office_name": null,
    "office_name_kana": null
  },
  "0015": {
    "postcode": "8960015",
    "prefecture": "鹿児島県",
    "prefecture_kana": "カゴシマケン",
    "prefecture_code": 46,
    "city": "いちき串木野市",
    "city_kana": "イチキクシキノシ",
    "town": "旭町",
    "town_kana": "アサヒマチ",
    "street": null,
    "office_name": null,
    "office_name_kana": null
  },
  "0016": {
    "postcode": "8960016",
    "prefecture": "鹿児島県",
    "prefecture_kana": "カゴシマケン",
    "prefecture_code": 46,
    "city": "いちき串木野市",
    "city_kana": "イチキクシキノシ",
    "town": "桜町",
    "town_kana": "サクラマチ",
    "street": null,
    "office_name": null,
    "office_name_kana": null
  },
  "0017": {
    "postcode": "8960017",
    "prefecture": "鹿児島県",
    "prefecture_kana": "カゴシマケン",
    "prefecture_code": 46,
    "city": "いちき串木野市",
    "city_kana": "イチキクシキノシ",
    "town": "高見町",
    "town_kana": "タカミチョウ",
    "street": null,
    "office_name": null,
    "office_name_kana": null
  },
  "0021": {
    "postcode": "8960021",
    "prefecture": "鹿児島県",
    "prefecture_kana": "カゴシマケン",
    "prefecture_code": 46,
    "city": "いちき串木野市",
    "city_kana": "イチキクシキノシ",
    "town": "住吉町",
    "town_kana": "スミヨシチョウ",
    "street": null,
    "office_name": null,
    "office_name_kana": null
  },
  "0022": {
    "postcode": "8960022",
    "prefecture": "鹿児島県",
    "prefecture_kana": "カゴシマケン",
    "prefecture_code": 46,
    "city": "いちき串木野市",
    "city_kana": "イチキクシキノシ",
    "town": "緑町",
    "town_kana": "ミドリマチ",
    "street": null,
    "office_name": null,
    "office_name_kana": null
  },
  "0023": {
    "postcode": "8960023",
    "prefecture": "鹿児島県",
    "prefecture_kana": "カゴシマケン",
    "prefecture_code": 46,
    "city": "いちき串木野市",
    "city_kana": "イチキクシキノシ",
    "town": "塩屋町",
    "town_kana": "シオヤチョウ",
    "street": null,
    "office_name": null,
    "office_name_kana": null
  },
  "0024": {
    "postcode": "8960024",
    "prefecture": "鹿児島県",
    "prefecture_kana": "カゴシマケン",
    "prefecture_code": 46,
    "city": "いちき串木野市",
    "city_kana": "イチキクシキノシ",
    "town": "美住町",
    "town_kana": "ミスミチョウ",
    "street": null,
    "office_name": null,
    "office_name_kana": null
  },
  "0025": {
    "postcode": "8960025",
    "prefecture": "鹿児島県",
    "prefecture_kana": "カゴシマケン",
    "prefecture_code": 46,
    "city": "いちき串木野市",
    "city_kana": "イチキクシキノシ",
    "town": "御倉町",
    "town_kana": "オクラチョウ",
    "street": null,
    "office_name": null,
    "office_name_kana": null
  },
  "0026": {
    "postcode": "8960026",
    "prefecture": "鹿児島県",
    "prefecture_kana": "カゴシマケン",
    "prefecture_code": 46,
    "city": "いちき串木野市",
    "city_kana": "イチキクシキノシ",
    "town": "昭和通",
    "town_kana": "ショウワドオリ",
    "street": null,
    "office_name": null,
    "office_name_kana": null
  },
  "0027": {
    "postcode": "8960027",
    "prefecture": "鹿児島県",
    "prefecture_kana": "カゴシマケン",
    "prefecture_code": 46,
    "city": "いちき串木野市",
    "city_kana": "イチキクシキノシ",
    "town": "恵比須町",
    "town_kana": "エビスチョウ",
    "street": null,
    "office_name": null,
    "office_name_kana": null
  },
  "0028": {
    "postcode": "8960028",
    "prefecture": "鹿児島県",
    "prefecture_kana": "カゴシマケン",
    "prefecture_code": 46,
    "city": "いちき串木野市",
    "city_kana": "イチキクシキノシ",
    "town": "ひばりが丘",
    "town_kana": "ヒバリガオカ",
    "street": null,
    "office_name": null,
    "office_name_kana": null
  },
  "0031": {
    "postcode": "8960031",
    "prefecture": "鹿児島県",
    "prefecture_kana": "カゴシマケン",
    "prefecture_code": 46,
    "city": "いちき串木野市",
    "city_kana": "イチキクシキノシ",
    "town": "東島平町",
    "town_kana": "ヒガシシマビラチョウ",
    "street": null,
    "office_name": null,
    "office_name_kana": null
  },
  "0032": {
    "postcode": "8960032",
    "prefecture": "鹿児島県",
    "prefecture_kana": "カゴシマケン",
    "prefecture_code": 46,
    "city": "いちき串木野市",
    "city_kana": "イチキクシキノシ",
    "town": "西島平町",
    "town_kana": "ニシシマビラチョウ",
    "street": null,
    "office_name": null,
    "office_name_kana": null
  },
  "0033": {
    "postcode": "8960033",
    "prefecture": "鹿児島県",
    "prefecture_kana": "カゴシマケン",
    "prefecture_code": 46,
    "city": "いちき串木野市",
    "city_kana": "イチキクシキノシ",
    "town": "長崎町",
    "town_kana": "ナガサキチョウ",
    "street": null,
    "office_name": null,
    "office_name_kana": null
  },
  "0034": {
    "postcode": "8960034",
    "prefecture": "鹿児島県",
    "prefecture_kana": "カゴシマケン",
    "prefecture_code": 46,
    "city": "いちき串木野市",
    "city_kana": "イチキクシキノシ",
    "town": "小瀬町",
    "town_kana": "コゼチョウ",
    "street": null,
    "office_name": null,
    "office_name_kana": null
  },
  "0035": {
    "postcode": "8960035",
    "prefecture": "鹿児島県",
    "prefecture_kana": "カゴシマケン",
    "prefecture_code": 46,
    "city": "いちき串木野市",
    "city_kana": "イチキクシキノシ",
    "town": "新生町",
    "town_kana": "シンセイチョウ",
    "street": null,
    "office_name": null,
    "office_name_kana": null
  },
  "0036": {
    "postcode": "8960036",
    "prefecture": "鹿児島県",
    "prefecture_kana": "カゴシマケン",
    "prefecture_code": 46,
    "city": "いちき串木野市",
    "city_kana": "イチキクシキノシ",
    "town": "浦和町",
    "town_kana": "ウラワチョウ",
    "street": null,
    "office_name": null,
    "office_name_kana": null
  },
  "0037": {
    "postcode": "8960037",
    "prefecture": "鹿児島県",
    "prefecture_kana": "カゴシマケン",
    "prefecture_code": 46,
    "city": "いちき串木野市",
    "city_kana": "イチキクシキノシ",
    "town": "別府",
    "town_kana": "ベップ",
    "street": null,
    "office_name": null,
    "office_name_kana": null
  },
  "0041": {
    "postcode": "8960041",
    "prefecture": "鹿児島県",
    "prefecture_kana": "カゴシマケン",
    "prefecture_code": 46,
    "city": "いちき串木野市",
    "city_kana": "イチキクシキノシ",
    "town": "北浜町",
    "town_kana": "キタハマチョウ",
    "street": null,
    "office_name": null,
    "office_name_kana": null
  },
  "0042": {
    "postcode": "8960042",
    "prefecture": "鹿児島県",
    "prefecture_kana": "カゴシマケン",
    "prefecture_code": 46,
    "city": "いちき串木野市",
    "city_kana": "イチキクシキノシ",
    "town": "本浜町",
    "town_kana": "モトハマチョウ",
    "street": null,
    "office_name": null,
    "office_name_kana": null
  },
  "0043": {
    "postcode": "8960043",
    "prefecture": "鹿児島県",
    "prefecture_kana": "カゴシマケン",
    "prefecture_code": 46,
    "city": "いちき串木野市",
    "city_kana": "イチキクシキノシ",
    "town": "港町",
    "town_kana": "ミナトマチ",
    "street": null,
    "office_name": null,
    "office_name_kana": null
  },
  "0044": {
    "postcode": "8960044",
    "prefecture": "鹿児島県",
    "prefecture_kana": "カゴシマケン",
    "prefecture_code": 46,
    "city": "いちき串木野市",
    "city_kana": "イチキクシキノシ",
    "town": "西浜町",
    "town_kana": "ニシハマチョウ",
    "street": null,
    "office_name": null,
    "office_name_kana": null
  },
  "0045": {
    "postcode": "8960045",
    "prefecture": "鹿児島県",
    "prefecture_kana": "カゴシマケン",
    "prefecture_code": 46,
    "city": "いちき串木野市",
    "city_kana": "イチキクシキノシ",
    "town": "まぐろ本町",
    "town_kana": "マグロホンマチ",
    "street": null,
    "office_name": null,
    "office_name_kana": null
  },
  "0046": {
    "postcode": "8960046",
    "prefecture": "鹿児島県",
    "prefecture_kana": "カゴシマケン",
    "prefecture_code": 46,
    "city": "いちき串木野市",
    "city_kana": "イチキクシキノシ",
    "town": "西薩町",
    "town_kana": "セイサツチョウ",
    "street": null,
    "office_name": null,
    "office_name_kana": null
  },
  "0051": {
    "postcode": "8960051",
    "prefecture": "鹿児島県",
    "prefecture_kana": "カゴシマケン",
    "prefecture_code": 46,
    "city": "いちき串木野市",
    "city_kana": "イチキクシキノシ",
    "town": "冠嶽",
    "town_kana": "カンムリダケ",
    "street": null,
    "office_name": null,
    "office_name_kana": null
  },
  "0054": {
    "postcode": "8960054",
    "prefecture": "鹿児島県",
    "prefecture_kana": "カゴシマケン",
    "prefecture_code": 46,
    "city": "いちき串木野市",
    "city_kana": "イチキクシキノシ",
    "town": "日出町",
    "town_kana": "ヒノデチョウ",
    "street": null,
    "office_name": null,
    "office_name_kana": null
  },
  "0055": {
    "postcode": "8960055",
    "prefecture": "鹿児島県",
    "prefecture_kana": "カゴシマケン",
    "prefecture_code": 46,
    "city": "いちき串木野市",
    "city_kana": "イチキクシキノシ",
    "town": "照島",
    "town_kana": "テルシマ",
    "street": null,
    "office_name": null,
    "office_name_kana": null
  },
  "0056": {
    "postcode": "8960056",
    "prefecture": "鹿児島県",
    "prefecture_kana": "カゴシマケン",
    "prefecture_code": 46,
    "city": "いちき串木野市",
    "city_kana": "イチキクシキノシ",
    "town": "八房",
    "town_kana": "ヤフサ",
    "street": null,
    "office_name": null,
    "office_name_kana": null
  },
  "0057": {
    "postcode": "8960057",
    "prefecture": "鹿児島県",
    "prefecture_kana": "カゴシマケン",
    "prefecture_code": 46,
    "city": "いちき串木野市",
    "city_kana": "イチキクシキノシ",
    "town": "海瀬",
    "town_kana": "カイゼ",
    "street": null,
    "office_name": null,
    "office_name_kana": null
  },
  "0058": {
    "postcode": "8960058",
    "prefecture": "鹿児島県",
    "prefecture_kana": "カゴシマケン",
    "prefecture_code": 46,
    "city": "いちき串木野市",
    "city_kana": "イチキクシキノシ",
    "town": "袴田",
    "town_kana": "ハカマダ",
    "street": null,
    "office_name": null,
    "office_name_kana": null
  },
  "0061": {
    "postcode": "8960061",
    "prefecture": "鹿児島県",
    "prefecture_kana": "カゴシマケン",
    "prefecture_code": 46,
    "city": "いちき串木野市",
    "city_kana": "イチキクシキノシ",
    "town": "愛木町",
    "town_kana": "アイギチョウ",
    "street": null,
    "office_name": null,
    "office_name_kana": null
  },
  "0062": {
    "postcode": "8960062",
    "prefecture": "鹿児島県",
    "prefecture_kana": "カゴシマケン",
    "prefecture_code": 46,
    "city": "いちき串木野市",
    "city_kana": "イチキクシキノシ",
    "town": "浜田町",
    "town_kana": "ハマダチョウ",
    "street": null,
    "office_name": null,
    "office_name_kana": null
  },
  "0063": {
    "postcode": "8960063",
    "prefecture": "鹿児島県",
    "prefecture_kana": "カゴシマケン",
    "prefecture_code": 46,
    "city": "いちき串木野市",
    "city_kana": "イチキクシキノシ",
    "town": "口之町",
    "town_kana": "クチノマチ",
    "street": null,
    "office_name": null,
    "office_name_kana": null
  },
  "0064": {
    "postcode": "8960064",
    "prefecture": "鹿児島県",
    "prefecture_kana": "カゴシマケン",
    "prefecture_code": 46,
    "city": "いちき串木野市",
    "city_kana": "イチキクシキノシ",
    "town": "羽島",
    "town_kana": "ハシマ",
    "street": null,
    "office_name": null,
    "office_name_kana": null
  },
  "0065": {
    "postcode": "8960065",
    "prefecture": "鹿児島県",
    "prefecture_kana": "カゴシマケン",
    "prefecture_code": 46,
    "city": "いちき串木野市",
    "city_kana": "イチキクシキノシ",
    "town": "荒川",
    "town_kana": "アラカワ",
    "street": null,
    "office_name": null,
    "office_name_kana": null
  },
  "0066": {
    "postcode": "8960066",
    "prefecture": "鹿児島県",
    "prefecture_kana": "カゴシマケン",
    "prefecture_code": 46,
    "city": "いちき串木野市",
    "city_kana": "イチキクシキノシ",
    "town": "野元",
    "town_kana": "ノモト",
    "street": null,
    "office_name": null,
    "office_name_kana": null
  },
  "0067": {
    "postcode": "8960067",
    "prefecture": "鹿児島県",
    "prefecture_kana": "カゴシマケン",
    "prefecture_code": 46,
    "city": "いちき串木野市",
    "city_kana": "イチキクシキノシ",
    "town": "平江",
    "town_kana": "ヒラエ",
    "street": null,
    "office_name": null,
    "office_name_kana": null
  },
  "0068": {
    "postcode": "8960068",
    "prefecture": "鹿児島県",
    "prefecture_kana": "カゴシマケン",
    "prefecture_code": 46,
    "city": "いちき串木野市",
    "city_kana": "イチキクシキノシ",
    "town": "三井",
    "town_kana": "ミツイ",
    "street": null,
    "office_name": null,
    "office_name_kana": null
  },
  "0069": {
    "postcode": "8960069",
    "prefecture": "鹿児島県",
    "prefecture_kana": "カゴシマケン",
    "prefecture_code": 46,
    "city": "いちき串木野市",
    "city_kana": "イチキクシキノシ",
    "town": "浜ケ城",
    "town_kana": "ハマガジョウ",
    "street": null,
    "office_name": null,
    "office_name_kana": null
  },
  "0071": {
    "postcode": "8960071",
    "prefecture": "鹿児島県",
    "prefecture_kana": "カゴシマケン",
    "prefecture_code": 46,
    "city": "いちき串木野市",
    "city_kana": "イチキクシキノシ",
    "town": "深田上",
    "town_kana": "フカタカミ",
    "street": null,
    "office_name": null,
    "office_name_kana": null
  },
  "0072": {
    "postcode": "8960072",
    "prefecture": "鹿児島県",
    "prefecture_kana": "カゴシマケン",
    "prefecture_code": 46,
    "city": "いちき串木野市",
    "city_kana": "イチキクシキノシ",
    "town": "薩摩山",
    "town_kana": "サツマヤマ",
    "street": null,
    "office_name": null,
    "office_name_kana": null
  },
  "0073": {
    "postcode": "8960073",
    "prefecture": "鹿児島県",
    "prefecture_kana": "カゴシマケン",
    "prefecture_code": 46,
    "city": "いちき串木野市",
    "city_kana": "イチキクシキノシ",
    "town": "野下",
    "town_kana": "ノシタ",
    "street": null,
    "office_name": null,
    "office_name_kana": null
  },
  "0074": {
    "postcode": "8960074",
    "prefecture": "鹿児島県",
    "prefecture_kana": "カゴシマケン",
    "prefecture_code": 46,
    "city": "いちき串木野市",
    "city_kana": "イチキクシキノシ",
    "town": "金山下",
    "town_kana": "キンザンシモ",
    "street": null,
    "office_name": null,
    "office_name_kana": null
  },
  "0075": {
    "postcode": "8960075",
    "prefecture": "鹿児島県",
    "prefecture_kana": "カゴシマケン",
    "prefecture_code": 46,
    "city": "いちき串木野市",
    "city_kana": "イチキクシキノシ",
    "town": "金山",
    "town_kana": "キンザン",
    "street": null,
    "office_name": null,
    "office_name_kana": null
  },
  "0076": {
    "postcode": "8960076",
    "prefecture": "鹿児島県",
    "prefecture_kana": "カゴシマケン",
    "prefecture_code": 46,
    "city": "いちき串木野市",
    "city_kana": "イチキクシキノシ",
    "town": "芹ケ野",
    "town_kana": "セリガノ",
    "street": null,
    "office_name": null,
    "office_name_kana": null
  },
  "0077": {
    "postcode": "8960077",
    "prefecture": "鹿児島県",
    "prefecture_kana": "カゴシマケン",
    "prefecture_code": 46,
    "city": "いちき串木野市",
    "city_kana": "イチキクシキノシ",
    "town": "深田下",
    "town_kana": "フカタシモ",
    "street": null,
    "office_name": null,
    "office_name_kana": null
  },
  "0078": {
    "postcode": "8960078",
    "prefecture": "鹿児島県",
    "prefecture_kana": "カゴシマケン",
    "prefecture_code": 46,
    "city": "いちき串木野市",
    "city_kana": "イチキクシキノシ",
    "town": "生福",
    "town_kana": "セイフク",
    "street": null,
    "office_name": null,
    "office_name_kana": null
  },
  "0079": {
    "postcode": "8960079",
    "prefecture": "鹿児島県",
    "prefecture_kana": "カゴシマケン",
    "prefecture_code": 46,
    "city": "いちき串木野市",
    "city_kana": "イチキクシキノシ",
    "town": "河内",
    "town_kana": "カワウチ",
    "street": null,
    "office_name": null,
    "office_name_kana": null
  },
  "0081": {
    "postcode": "8960081",
    "prefecture": "鹿児島県",
    "prefecture_kana": "カゴシマケン",
    "prefecture_code": 46,
    "city": "いちき串木野市",
    "city_kana": "イチキクシキノシ",
    "town": "大薗",
    "town_kana": "オオゾノ",
    "street": null,
    "office_name": null,
    "office_name_kana": null
  },
  "0082": {
    "postcode": "8960082",
    "prefecture": "鹿児島県",
    "prefecture_kana": "カゴシマケン",
    "prefecture_code": 46,
    "city": "いちき串木野市",
    "city_kana": "イチキクシキノシ",
    "town": "小薗",
    "town_kana": "コゾノ",
    "street": null,
    "office_name": null,
    "office_name_kana": null
  },
  "0083": {
    "postcode": "8960083",
    "prefecture": "鹿児島県",
    "prefecture_kana": "カゴシマケン",
    "prefecture_code": 46,
    "city": "いちき串木野市",
    "city_kana": "イチキクシキノシ",
    "town": "麓",
    "town_kana": "フモト",
    "street": null,
    "office_name": null,
    "office_name_kana": null
  },
  "0084": {
    "postcode": "8960084",
    "prefecture": "鹿児島県",
    "prefecture_kana": "カゴシマケン",
    "prefecture_code": 46,
    "city": "いちき串木野市",
    "city_kana": "イチキクシキノシ",
    "town": "浅山",
    "town_kana": "アサヤマ",
    "street": null,
    "office_name": null,
    "office_name_kana": null
  },
  "1101": {
    "postcode": "8961101",
    "prefecture": "鹿児島県",
    "prefecture_kana": "カゴシマケン",
    "prefecture_code": 46,
    "city": "薩摩川内市",
    "city_kana": "サツマセンダイシ",
    "town": "里町里",
    "town_kana": "サトチョウサト",
    "street": null,
    "office_name": null,
    "office_name_kana": null
  },
  "1192": {
    "postcode": "8961192",
    "prefecture": "鹿児島県",
    "prefecture_kana": "カゴシマケン",
    "prefecture_code": 46,
    "city": "薩摩川内市",
    "city_kana": "サツマセンダイシ",
    "town": "里町里",
    "town_kana": "サトチョウサト",
    "street": "１９２２",
    "office_name": "薩摩川内市　里支所",
    "office_name_kana": "サツマセンダイシ サトシシヨ"
  },
  "1201": {
    "postcode": "8961201",
    "prefecture": "鹿児島県",
    "prefecture_kana": "カゴシマケン",
    "prefecture_code": 46,
    "city": "薩摩川内市",
    "city_kana": "サツマセンダイシ",
    "town": "上甑町中甑",
    "town_kana": "カミコシキチョウナカコシキ",
    "street": null,
    "office_name": null,
    "office_name_kana": null
  },
  "1202": {
    "postcode": "8961202",
    "prefecture": "鹿児島県",
    "prefecture_kana": "カゴシマケン",
    "prefecture_code": 46,
    "city": "薩摩川内市",
    "city_kana": "サツマセンダイシ",
    "town": "上甑町中野",
    "town_kana": "カミコシキチョウナカノ",
    "street": null,
    "office_name": null,
    "office_name_kana": null
  },
  "1203": {
    "postcode": "8961203",
    "prefecture": "鹿児島県",
    "prefecture_kana": "カゴシマケン",
    "prefecture_code": 46,
    "city": "薩摩川内市",
    "city_kana": "サツマセンダイシ",
    "town": "上甑町江石",
    "town_kana": "カミコシキチョウエイシ",
    "street": null,
    "office_name": null,
    "office_name_kana": null
  },
  "1204": {
    "postcode": "8961204",
    "prefecture": "鹿児島県",
    "prefecture_kana": "カゴシマケン",
    "prefecture_code": 46,
    "city": "薩摩川内市",
    "city_kana": "サツマセンダイシ",
    "town": "上甑町小島",
    "town_kana": "カミコシキチョウオシマ",
    "street": null,
    "office_name": null,
    "office_name_kana": null
  },
  "1205": {
    "postcode": "8961205",
    "prefecture": "鹿児島県",
    "prefecture_kana": "カゴシマケン",
    "prefecture_code": 46,
    "city": "薩摩川内市",
    "city_kana": "サツマセンダイシ",
    "town": "上甑町瀬上",
    "town_kana": "カミコシキチョウセガミ",
    "street": null,
    "office_name": null,
    "office_name_kana": null
  },
  "1206": {
    "postcode": "8961206",
    "prefecture": "鹿児島県",
    "prefecture_kana": "カゴシマケン",
    "prefecture_code": 46,
    "city": "薩摩川内市",
    "city_kana": "サツマセンダイシ",
    "town": "上甑町桑之浦",
    "town_kana": "カミコシキチョウクワノウラ",
    "street": null,
    "office_name": null,
    "office_name_kana": null
  },
  "1281": {
    "postcode": "8961281",
    "prefecture": "鹿児島県",
    "prefecture_kana": "カゴシマケン",
    "prefecture_code": 46,
    "city": "薩摩川内市",
    "city_kana": "サツマセンダイシ",
    "town": "上甑町平良",
    "town_kana": "カミコシキチョウタイラ",
    "street": null,
    "office_name": null,
    "office_name_kana": null
  },
  "1301": {
    "postcode": "8961301",
    "prefecture": "鹿児島県",
    "prefecture_kana": "カゴシマケン",
    "prefecture_code": 46,
    "city": "薩摩川内市",
    "city_kana": "サツマセンダイシ",
    "town": "鹿島町藺牟田",
    "town_kana": "カシマチョウイムタ",
    "street": null,
    "office_name": null,
    "office_name_kana": null
  },
  "1392": {
    "postcode": "8961392",
    "prefecture": "鹿児島県",
    "prefecture_kana": "カゴシマケン",
    "prefecture_code": 46,
    "city": "薩摩川内市",
    "city_kana": "サツマセンダイシ",
    "town": "鹿島町藺牟田",
    "town_kana": "カシマチョウイムタ",
    "street": "１５２８",
    "office_name": "薩摩川内市　鹿島支所",
    "office_name_kana": "サツマセンダイシ カシマシシヨ"
  },
  "1411": {
    "postcode": "8961411",
    "prefecture": "鹿児島県",
    "prefecture_kana": "カゴシマケン",
    "prefecture_code": 46,
    "city": "薩摩川内市",
    "city_kana": "サツマセンダイシ",
    "town": "下甑町長浜",
    "town_kana": "シモコシキチョウナガハマ",
    "street": null,
    "office_name": null,
    "office_name_kana": null
  },
  "1412": [
    {
      "postcode": "8961412",
      "prefecture": "鹿児島県",
      "prefecture_kana": "カゴシマケン",
      "prefecture_code": 46,
      "city": "薩摩川内市",
      "city_kana": "サツマセンダイシ",
      "town": "下甑町瀬々野浦",
      "town_kana": "シモコシキチョウセセノウラ",
      "street": null,
      "office_name": null,
      "office_name_kana": null
    },
    {
      "postcode": "8961412",
      "prefecture": "鹿児島県",
      "prefecture_kana": "カゴシマケン",
      "prefecture_code": 46,
      "city": "薩摩川内市",
      "city_kana": "サツマセンダイシ",
      "town": "下甑町瀬々野浦内川内",
      "town_kana": "シモコシキチョウセセノウラウチカワウチ",
      "street": null,
      "office_name": null,
      "office_name_kana": null
    }
  ],
  "1512": {
    "postcode": "8961512",
    "prefecture": "鹿児島県",
    "prefecture_kana": "カゴシマケン",
    "prefecture_code": 46,
    "city": "薩摩川内市",
    "city_kana": "サツマセンダイシ",
    "town": "下甑町瀬々野浦",
    "town_kana": "シモコシキチョウセセノウラ",
    "street": null,
    "office_name": null,
    "office_name_kana": null
  },
  "1521": {
    "postcode": "8961521",
    "prefecture": "鹿児島県",
    "prefecture_kana": "カゴシマケン",
    "prefecture_code": 46,
    "city": "薩摩川内市",
    "city_kana": "サツマセンダイシ",
    "town": "下甑町青瀬",
    "town_kana": "シモコシキチョウアオセ",
    "street": null,
    "office_name": null,
    "office_name_kana": null
  },
  "1601": {
    "postcode": "8961601",
    "prefecture": "鹿児島県",
    "prefecture_kana": "カゴシマケン",
    "prefecture_code": 46,
    "city": "薩摩川内市",
    "city_kana": "サツマセンダイシ",
    "town": "下甑町手打",
    "town_kana": "シモコシキチョウテウチ",
    "street": null,
    "office_name": null,
    "office_name_kana": null
  },
  "1602": {
    "postcode": "8961602",
    "prefecture": "鹿児島県",
    "prefecture_kana": "カゴシマケン",
    "prefecture_code": 46,
    "city": "薩摩川内市",
    "city_kana": "サツマセンダイシ",
    "town": "下甑町片野浦",
    "town_kana": "シモコシキチョウカタノウラ",
    "street": null,
    "office_name": null,
    "office_name_kana": null
  },
  "1696": {
    "postcode": "8961696",
    "prefecture": "鹿児島県",
    "prefecture_kana": "カゴシマケン",
    "prefecture_code": 46,
    "city": "薩摩川内市",
    "city_kana": "サツマセンダイシ",
    "town": "下甑町手打",
    "town_kana": "シモコシキチョウテウチ",
    "street": "８１９番地",
    "office_name": "薩摩川内市下甑支所",
    "office_name_kana": "サツマセンダイシ シモコシキシシヨ"
  },
  "8601": {
    "postcode": "8968601",
    "prefecture": "鹿児島県",
    "prefecture_kana": "カゴシマケン",
    "prefecture_code": 46,
    "city": "いちき串木野市",
    "city_kana": "イチキクシキノシ",
    "town": "昭和通",
    "town_kana": "ショウワドオリ",
    "street": "１３３−１（串木野郵便局私書箱第１号）",
    "office_name": "いちき串木野市役所",
    "office_name_kana": "イチキクシキノシヤクシヨ"
  },
  "8686": {
    "postcode": "8968686",
    "prefecture": "鹿児島県",
    "prefecture_kana": "カゴシマケン",
    "prefecture_code": 46,
    "city": "いちき串木野市",
    "city_kana": "イチキクシキノシ",
    "town": "下名",
    "town_kana": null,
    "street": "４４６０（串木野郵便局私書箱第８号）",
    "office_name": "学校法人　神村学園　（高等部・中等部・附属幼稚園・医療福祉専門学校）",
    "office_name_kana": "ガツコウホウジン カミムラガクエン (コウトウブ・チユウトウブ・フゾクヨウチエン・イリヨウフクシセンモンガツコウ)"
  }
}