{
  "0000": {
    "postcode": "8970000",
    "prefecture": "鹿児島県",
    "prefecture_kana": "カゴシマケン",
    "prefecture_code": 46,
    "city": "南さつま市",
    "city_kana": "ミナミサツマシ",
    "town": "",
    "town_kana": "",
    "street": null,
    "office_name": null,
    "office_name_kana": null
  },
  "0001": {
    "postcode": "8970001",
    "prefecture": "鹿児島県",
    "prefecture_kana": "カゴシマケン",
    "prefecture_code": 46,
    "city": "南さつま市",
    "city_kana": "ミナミサツマシ",
    "town": "加世田村原",
    "town_kana": "カセダムラハラ",
    "street": null,
    "office_name": null,
    "office_name_kana": null
  },
  "0002": {
    "postcode": "8970002",
    "prefecture": "鹿児島県",
    "prefecture_kana": "カゴシマケン",
    "prefecture_code": 46,
    "city": "南さつま市",
    "city_kana": "ミナミサツマシ",
    "town": "加世田武田",
    "town_kana": "カセダタケダ",
    "street": null,
    "office_name": null,
    "office_name_kana": null
  },
  "0003": {
    "postcode": "8970003",
    "prefecture": "鹿児島県",
    "prefecture_kana": "カゴシマケン",
    "prefecture_code": 46,
    "city": "南さつま市",
    "city_kana": "ミナミサツマシ",
    "town": "加世田川畑",
    "town_kana": "カセダカワバタ",
    "street": null,
    "office_name": null,
    "office_name_kana": null
  },
  "0004": {
    "postcode": "8970004",
    "prefecture": "鹿児島県",
    "prefecture_kana": "カゴシマケン",
    "prefecture_code": 46,
    "city": "南さつま市",
    "city_kana": "ミナミサツマシ",
    "town": "加世田内山田",
    "town_kana": "カセダウチヤマダ",
    "street": null,
    "office_name": null,
    "office_name_kana": null
  },
  "0005": {
    "postcode": "8970005",
    "prefecture": "鹿児島県",
    "prefecture_kana": "カゴシマケン",
    "prefecture_code": 46,
    "city": "南さつま市",
    "city_kana": "ミナミサツマシ",
    "town": "加世田麓町",
    "town_kana": "カセダフモトチョウ",
    "street": null,
    "office_name": null,
    "office_name_kana": null
  },
  "0006": {
    "postcode": "8970006",
    "prefecture": "鹿児島県",
    "prefecture_kana": "カゴシマケン",
    "prefecture_code": 46,
    "city": "南さつま市",
    "city_kana": "ミナミサツマシ",
    "town": "加世田本町",
    "town_kana": "カセダホンチョウ",
    "street": null,
    "office_name": null,
    "office_name_kana": null
  },
  "0007": {
    "postcode": "8970007",
    "prefecture": "鹿児島県",
    "prefecture_kana": "カゴシマケン",
    "prefecture_code": 46,
    "city": "南さつま市",
    "city_kana": "ミナミサツマシ",
    "town": "加世田白亀",
    "town_kana": "カセダシラカメ",
    "street": null,
    "office_name": null,
    "office_name_kana": null
  },
  "0008": {
    "postcode": "8970008",
    "prefecture": "鹿児島県",
    "prefecture_kana": "カゴシマケン",
    "prefecture_code": 46,
    "city": "南さつま市",
    "city_kana": "ミナミサツマシ",
    "town": "加世田地頭所",
    "town_kana": "カセダジトウショ",
    "street": null,
    "office_name": null,
    "office_name_kana": null
  },
  "0009": {
    "postcode": "8970009",
    "prefecture": "鹿児島県",
    "prefecture_kana": "カゴシマケン",
    "prefecture_code": 46,
    "city": "南さつま市",
    "city_kana": "ミナミサツマシ",
    "town": "加世田ハーモニー",
    "town_kana": "カセダハーモニー",
    "street": null,
    "office_name": null,
    "office_name_kana": null
  },
  "0031": {
    "postcode": "8970031",
    "prefecture": "鹿児島県",
    "prefecture_kana": "カゴシマケン",
    "prefecture_code": 46,
    "city": "南さつま市",
    "city_kana": "ミナミサツマシ",
    "town": "加世田東本町",
    "town_kana": "カセダヒガシホンチョウ",
    "street": null,
    "office_name": null,
    "office_name_kana": null
  },
  "0131": {
    "postcode": "8970131",
    "prefecture": "鹿児島県",
    "prefecture_kana": "カゴシマケン",
    "prefecture_code": 46,
    "city": "南九州市",
    "city_kana": "ミナミキュウシュウシ",
    "town": "川辺町上山田",
    "town_kana": "カワナベチョウカミヤマダ",
    "street": null,
    "office_name": null,
    "office_name_kana": null
  },
  "0132": {
    "postcode": "8970132",
    "prefecture": "鹿児島県",
    "prefecture_kana": "カゴシマケン",
    "prefecture_code": 46,
    "city": "南九州市",
    "city_kana": "ミナミキュウシュウシ",
    "town": "川辺町中山田",
    "town_kana": "カワナベチョウナカヤマダ",
    "street": null,
    "office_name": null,
    "office_name_kana": null
  },
  "0133": {
    "postcode": "8970133",
    "prefecture": "鹿児島県",
    "prefecture_kana": "カゴシマケン",
    "prefecture_code": 46,
    "city": "南九州市",
    "city_kana": "ミナミキュウシュウシ",
    "town": "川辺町下山田",
    "town_kana": "カワナベチョウシモヤマダ",
    "street": null,
    "office_name": null,
    "office_name_kana": null
  },
  "0200": {
    "postcode": "8970200",
    "prefecture": "鹿児島県",
    "prefecture_kana": "カゴシマケン",
    "prefecture_code": 46,
    "city": "南九州市",
    "city_kana": "ミナミキュウシュウシ",
    "town": "",
    "town_kana": "",
    "street": null,
    "office_name": null,
    "office_name_kana": null
  },
  "0201": {
    "postcode": "8970201",
    "prefecture": "鹿児島県",
    "prefecture_kana": "カゴシマケン",
    "prefecture_code": 46,
    "city": "南九州市",
    "city_kana": "ミナミキュウシュウシ",
    "town": "川辺町神殿",
    "town_kana": "カワナベチョウコウドノ",
    "street": null,
    "office_name": null,
    "office_name_kana": null
  },
  "0202": {
    "postcode": "8970202",
    "prefecture": "鹿児島県",
    "prefecture_kana": "カゴシマケン",
    "prefecture_code": 46,
    "city": "南九州市",
    "city_kana": "ミナミキュウシュウシ",
    "town": "川辺町清水",
    "town_kana": "カワナベチョウキヨミズ",
    "street": null,
    "office_name": null,
    "office_name_kana": null
  },
  "0203": {
    "postcode": "8970203",
    "prefecture": "鹿児島県",
    "prefecture_kana": "カゴシマケン",
    "prefecture_code": 46,
    "city": "南九州市",
    "city_kana": "ミナミキュウシュウシ",
    "town": "川辺町野崎",
    "town_kana": "カワナベチョウノサキ",
    "street": null,
    "office_name": null,
    "office_name_kana": null
  },
  "0204": {
    "postcode": "8970204",
    "prefecture": "鹿児島県",
    "prefecture_kana": "カゴシマケン",
    "prefecture_code": 46,
    "city": "南九州市",
    "city_kana": "ミナミキュウシュウシ",
    "town": "川辺町古殿",
    "town_kana": "カワナベチョウフルトノ",
    "street": null,
    "office_name": null,
    "office_name_kana": null
  },
  "0205": {
    "postcode": "8970205",
    "prefecture": "鹿児島県",
    "prefecture_kana": "カゴシマケン",
    "prefecture_code": 46,
    "city": "南九州市",
    "city_kana": "ミナミキュウシュウシ",
    "town": "川辺町野間",
    "town_kana": "カワナベチョウノマ",
    "street": null,
    "office_name": null,
    "office_name_kana": null
  },
  "0211": {
    "postcode": "8970211",
    "prefecture": "鹿児島県",
    "prefecture_kana": "カゴシマケン",
    "prefecture_code": 46,
    "city": "南九州市",
    "city_kana": "ミナミキュウシュウシ",
    "town": "川辺町両添",
    "town_kana": "カワナベチョウリョウゾエ",
    "street": null,
    "office_name": null,
    "office_name_kana": null
  },
  "0212": {
    "postcode": "8970212",
    "prefecture": "鹿児島県",
    "prefecture_kana": "カゴシマケン",
    "prefecture_code": 46,
    "city": "南九州市",
    "city_kana": "ミナミキュウシュウシ",
    "town": "川辺町今田",
    "town_kana": "カワナベチョウイマダ",
    "street": null,
    "office_name": null,
    "office_name_kana": null
  },
  "0213": {
    "postcode": "8970213",
    "prefecture": "鹿児島県",
    "prefecture_kana": "カゴシマケン",
    "prefecture_code": 46,
    "city": "南九州市",
    "city_kana": "ミナミキュウシュウシ",
    "town": "川辺町小野",
    "town_kana": "カワナベチョウオノ",
    "street": null,
    "office_name": null,
    "office_name_kana": null
  },
  "0214": {
    "postcode": "8970214",
    "prefecture": "鹿児島県",
    "prefecture_kana": "カゴシマケン",
    "prefecture_code": 46,
    "city": "南九州市",
    "city_kana": "ミナミキュウシュウシ",
    "town": "川辺町宮",
    "town_kana": "カワナベチョウミヤ",
    "street": null,
    "office_name": null,
    "office_name_kana": null
  },
  "0215": {
    "postcode": "8970215",
    "prefecture": "鹿児島県",
    "prefecture_kana": "カゴシマケン",
    "prefecture_code": 46,
    "city": "南九州市",
    "city_kana": "ミナミキュウシュウシ",
    "town": "川辺町平山",
    "town_kana": "カワナベチョウヒラヤマ",
    "street": null,
    "office_name": null,
    "office_name_kana": null
  },
  "0221": {
    "postcode": "8970221",
    "prefecture": "鹿児島県",
    "prefecture_kana": "カゴシマケン",
    "prefecture_code": 46,
    "city": "南九州市",
    "city_kana": "ミナミキュウシュウシ",
    "town": "川辺町田部田",
    "town_kana": "カワナベチョウタベタ",
    "street": null,
    "office_name": null,
    "office_name_kana": null
  },
  "0222": {
    "postcode": "8970222",
    "prefecture": "鹿児島県",
    "prefecture_kana": "カゴシマケン",
    "prefecture_code": 46,
    "city": "南九州市",
    "city_kana": "ミナミキュウシュウシ",
    "town": "川辺町永田",
    "town_kana": "カワナベチョウナガタ",
    "street": null,
    "office_name": null,
    "office_name_kana": null
  },
  "0223": {
    "postcode": "8970223",
    "prefecture": "鹿児島県",
    "prefecture_kana": "カゴシマケン",
    "prefecture_code": 46,
    "city": "南九州市",
    "city_kana": "ミナミキュウシュウシ",
    "town": "川辺町高田",
    "town_kana": "カワナベチョウタカタ",
    "street": null,
    "office_name": null,
    "office_name_kana": null
  },
  "0224": {
    "postcode": "8970224",
    "prefecture": "鹿児島県",
    "prefecture_kana": "カゴシマケン",
    "prefecture_code": 46,
    "city": "南九州市",
    "city_kana": "ミナミキュウシュウシ",
    "town": "川辺町本別府",
    "town_kana": "カワナベチョウモトベップ",
    "street": null,
    "office_name": null,
    "office_name_kana": null
  },
  "0301": {
    "postcode": "8970301",
    "prefecture": "鹿児島県",
    "prefecture_kana": "カゴシマケン",
    "prefecture_code": 46,
    "city": "南九州市",
    "city_kana": "ミナミキュウシュウシ",
    "town": "知覧町厚地",
    "town_kana": "チランチョウアツチ",
    "street": null,
    "office_name": null,
    "office_name_kana": null
  },
  "0302": {
    "postcode": "8970302",
    "prefecture": "鹿児島県",
    "prefecture_kana": "カゴシマケン",
    "prefecture_code": 46,
    "city": "南九州市",
    "city_kana": "ミナミキュウシュウシ",
    "town": "知覧町郡",
    "town_kana": "チランチョウコオリ",
    "street": null,
    "office_name": null,
    "office_name_kana": null
  },
  "0303": {
    "postcode": "8970303",
    "prefecture": "鹿児島県",
    "prefecture_kana": "カゴシマケン",
    "prefecture_code": 46,
    "city": "南九州市",
    "city_kana": "ミナミキュウシュウシ",
    "town": "知覧町永里",
    "town_kana": "チランチョウナガサト",
    "street": null,
    "office_name": null,
    "office_name_kana": null
  },
  "0304": {
    "postcode": "8970304",
    "prefecture": "鹿児島県",
    "prefecture_kana": "カゴシマケン",
    "prefecture_code": 46,
    "city": "南九州市",
    "city_kana": "ミナミキュウシュウシ",
    "town": "知覧町東別府",
    "town_kana": "チランチョウヒガシベップ",
    "street": null,
    "office_name": null,
    "office_name_kana": null
  },
  "0305": {
    "postcode": "8970305",
    "prefecture": "鹿児島県",
    "prefecture_kana": "カゴシマケン",
    "prefecture_code": 46,
    "city": "南九州市",
    "city_kana": "ミナミキュウシュウシ",
    "town": "知覧町瀬世",
    "town_kana": "チランチョウセセ",
    "street": null,
    "office_name": null,
    "office_name_kana": null
  },
  "0306": {
    "postcode": "8970306",
    "prefecture": "鹿児島県",
    "prefecture_kana": "カゴシマケン",
    "prefecture_code": 46,
    "city": "南九州市",
    "city_kana": "ミナミキュウシュウシ",
    "town": "知覧町西元",
    "town_kana": "チランチョウニシモト",
    "street": null,
    "office_name": null,
    "office_name_kana": null
  },
  "0392": {
    "postcode": "8970392",
    "prefecture": "鹿児島県",
    "prefecture_kana": "カゴシマケン",
    "prefecture_code": 46,
    "city": "南九州市",
    "city_kana": "ミナミキュウシュウシ",
    "town": "知覧町郡",
    "town_kana": "チランチョウコオリ",
    "street": "６２０４",
    "office_name": "南九州市役所",
    "office_name_kana": "ミナミキユウシユウシヤクシヨ"
  },
  "0393": {
    "postcode": "8970393",
    "prefecture": "鹿児島県",
    "prefecture_kana": "カゴシマケン",
    "prefecture_code": 46,
    "city": "南九州市",
    "city_kana": "ミナミキュウシュウシ",
    "town": "知覧町郡",
    "town_kana": "チランチョウコオリ",
    "street": "６２１２（知覧郵便局私書箱第２号）",
    "office_name": "知覧税務署",
    "office_name_kana": "チランゼイムシヨ"
  },
  "1121": {
    "postcode": "8971121",
    "prefecture": "鹿児島県",
    "prefecture_kana": "カゴシマケン",
    "prefecture_code": 46,
    "city": "南さつま市",
    "city_kana": "ミナミサツマシ",
    "town": "加世田唐仁原",
    "town_kana": "カセダトウジンバラ",
    "street": null,
    "office_name": null,
    "office_name_kana": null
  },
  "1122": {
    "postcode": "8971122",
    "prefecture": "鹿児島県",
    "prefecture_kana": "カゴシマケン",
    "prefecture_code": 46,
    "city": "南さつま市",
    "city_kana": "ミナミサツマシ",
    "town": "加世田小湊",
    "town_kana": "カセダコミナト",
    "street": null,
    "office_name": null,
    "office_name_kana": null
  },
  "1123": {
    "postcode": "8971123",
    "prefecture": "鹿児島県",
    "prefecture_kana": "カゴシマケン",
    "prefecture_code": 46,
    "city": "南さつま市",
    "city_kana": "ミナミサツマシ",
    "town": "加世田高橋",
    "town_kana": "カセダタカハシ",
    "street": null,
    "office_name": null,
    "office_name_kana": null
  },
  "1124": {
    "postcode": "8971124",
    "prefecture": "鹿児島県",
    "prefecture_kana": "カゴシマケン",
    "prefecture_code": 46,
    "city": "南さつま市",
    "city_kana": "ミナミサツマシ",
    "town": "加世田宮原",
    "town_kana": "カセダミヤバラ",
    "street": null,
    "office_name": null,
    "office_name_kana": null
  },
  "1125": {
    "postcode": "8971125",
    "prefecture": "鹿児島県",
    "prefecture_kana": "カゴシマケン",
    "prefecture_code": 46,
    "city": "南さつま市",
    "city_kana": "ミナミサツマシ",
    "town": "加世田益山",
    "town_kana": "カセダマスヤマ",
    "street": null,
    "office_name": null,
    "office_name_kana": null
  },
  "1201": {
    "postcode": "8971201",
    "prefecture": "鹿児島県",
    "prefecture_kana": "カゴシマケン",
    "prefecture_code": 46,
    "city": "南さつま市",
    "city_kana": "ミナミサツマシ",
    "town": "大浦町",
    "town_kana": "オオウラチョウ",
    "street": null,
    "office_name": null,
    "office_name_kana": null
  },
  "1301": {
    "postcode": "8971301",
    "prefecture": "鹿児島県",
    "prefecture_kana": "カゴシマケン",
    "prefecture_code": 46,
    "city": "南さつま市",
    "city_kana": "ミナミサツマシ",
    "town": "笠沙町片浦",
    "town_kana": "カササチョウカタウラ",
    "street": null,
    "office_name": null,
    "office_name_kana": null
  },
  "1302": {
    "postcode": "8971302",
    "prefecture": "鹿児島県",
    "prefecture_kana": "カゴシマケン",
    "prefecture_code": 46,
    "city": "南さつま市",
    "city_kana": "ミナミサツマシ",
    "town": "笠沙町赤生木",
    "town_kana": "カササチョウアコウギ",
    "street": null,
    "office_name": null,
    "office_name_kana": null
  },
  "8501": {
    "postcode": "8978501",
    "prefecture": "鹿児島県",
    "prefecture_kana": "カゴシマケン",
    "prefecture_code": 46,
    "city": "南さつま市",
    "city_kana": "ミナミサツマシ",
    "town": "加世田川畑",
    "town_kana": "カセダカワバタ",
    "street": "２６４８",
    "office_name": "南さつま市役所",
    "office_name_kana": "ミナミサツマシヤクシヨ"
  }
}