{
  "0061": {
    "postcode": "9020061",
    "prefecture": "沖縄県",
    "prefecture_kana": "オキナワケン",
    "prefecture_code": 47,
    "city": "那覇市",
    "city_kana": "ナハシ",
    "town": "古島",
    "town_kana": "フルジマ",
    "street": null,
    "office_name": null,
    "office_name_kana": null
  },
  "0062": {
    "postcode": "9020062",
    "prefecture": "沖縄県",
    "prefecture_kana": "オキナワケン",
    "prefecture_code": 47,
    "city": "那覇市",
    "city_kana": "ナハシ",
    "town": "松川",
    "town_kana": "マツガワ",
    "street": null,
    "office_name": null,
    "office_name_kana": null
  },
  "0063": {
    "postcode": "9020063",
    "prefecture": "沖縄県",
    "prefecture_kana": "オキナワケン",
    "prefecture_code": 47,
    "city": "那覇市",
    "city_kana": "ナハシ",
    "town": "三原",
    "town_kana": "ミハラ",
    "street": null,
    "office_name": null,
    "office_name_kana": null
  },
  "0064": {
    "postcode": "9020064",
    "prefecture": "沖縄県",
    "prefecture_kana": "オキナワケン",
    "prefecture_code": 47,
    "city": "那覇市",
    "city_kana": "ナハシ",
    "town": "寄宮",
    "town_kana": "ヨリミヤ",
    "street": null,
    "office_name": null,
    "office_name_kana": null
  },
  "0065": {
    "postcode": "9020065",
    "prefecture": "沖縄県",
    "prefecture_kana": "オキナワケン",
    "prefecture_code": 47,
    "city": "那覇市",
    "city_kana": "ナハシ",
    "town": "壺屋",
    "town_kana": "ツボヤ",
    "street": null,
    "office_name": null,
    "office_name_kana": null
  },
  "0066": {
    "postcode": "9020066",
    "prefecture": "沖縄県",
    "prefecture_kana": "オキナワケン",
    "prefecture_code": 47,
    "city": "那覇市",
    "city_kana": "ナハシ",
    "town": "大道",
    "town_kana": "ダイドウ",
    "street": null,
    "office_name": null,
    "office_name_kana": null
  },
  "0067": {
    "postcode": "9020067",
    "prefecture": "沖縄県",
    "prefecture_kana": "オキナワケン",
    "prefecture_code": 47,
    "city": "那覇市",
    "city_kana": "ナハシ",
    "town": "安里",
    "town_kana": "アサト",
    "street": null,
    "office_name": null,
    "office_name_kana": null
  },
  "0068": {
    "postcode": "9020068",
    "prefecture": "沖縄県",
    "prefecture_kana": "オキナワケン",
    "prefecture_code": 47,
    "city": "那覇市",
    "city_kana": "ナハシ",
    "town": "真嘉比",
    "town_kana": "マカビ",
    "street": null,
    "office_name": null,
    "office_name_kana": null
  },
  "0069": {
    "postcode": "9020069",
    "prefecture": "沖縄県",
    "prefecture_kana": "オキナワケン",
    "prefecture_code": 47,
    "city": "那覇市",
    "city_kana": "ナハシ",
    "town": "松島",
    "town_kana": "マツシマ",
    "street": null,
    "office_name": null,
    "office_name_kana": null
  },
  "0071": {
    "postcode": "9020071",
    "prefecture": "沖縄県",
    "prefecture_kana": "オキナワケン",
    "prefecture_code": 47,
    "city": "那覇市",
    "city_kana": "ナハシ",
    "town": "繁多川",
    "town_kana": "ハンタガワ",
    "street": null,
    "office_name": null,
    "office_name_kana": null
  },
  "0072": {
    "postcode": "9020072",
    "prefecture": "沖縄県",
    "prefecture_kana": "オキナワケン",
    "prefecture_code": 47,
    "city": "那覇市",
    "city_kana": "ナハシ",
    "town": "真地",
    "town_kana": "マアジ",
    "street": null,
    "office_name": null,
    "office_name_kana": null
  },
  "0073": {
    "postcode": "9020073",
    "prefecture": "沖縄県",
    "prefecture_kana": "オキナワケン",
    "prefecture_code": 47,
    "city": "那覇市",
    "city_kana": "ナハシ",
    "town": "上間",
    "town_kana": "ウエマ",
    "street": null,
    "office_name": null,
    "office_name_kana": null
  },
  "0074": {
    "postcode": "9020074",
    "prefecture": "沖縄県",
    "prefecture_kana": "オキナワケン",
    "prefecture_code": 47,
    "city": "那覇市",
    "city_kana": "ナハシ",
    "town": "仲井真",
    "town_kana": "ナカイマ",
    "street": null,
    "office_name": null,
    "office_name_kana": null
  },
  "0075": {
    "postcode": "9020075",
    "prefecture": "沖縄県",
    "prefecture_kana": "オキナワケン",
    "prefecture_code": 47,
    "city": "那覇市",
    "city_kana": "ナハシ",
    "town": "国場",
    "town_kana": "コクバ",
    "street": null,
    "office_name": null,
    "office_name_kana": null
  },
  "0076": {
    "postcode": "9020076",
    "prefecture": "沖縄県",
    "prefecture_kana": "オキナワケン",
    "prefecture_code": 47,
    "city": "那覇市",
    "city_kana": "ナハシ",
    "town": "与儀",
    "town_kana": "ヨギ",
    "street": null,
    "office_name": null,
    "office_name_kana": null
  },
  "0077": {
    "postcode": "9020077",
    "prefecture": "沖縄県",
    "prefecture_kana": "オキナワケン",
    "prefecture_code": 47,
    "city": "那覇市",
    "city_kana": "ナハシ",
    "town": "長田",
    "town_kana": "ナガタ",
    "street": null,
    "office_name": null,
    "office_name_kana": null
  },
  "0078": {
    "postcode": "9020078",
    "prefecture": "沖縄県",
    "prefecture_kana": "オキナワケン",
    "prefecture_code": 47,
    "city": "那覇市",
    "city_kana": "ナハシ",
    "town": "識名",
    "town_kana": "シキナ",
    "street": null,
    "office_name": null,
    "office_name_kana": null
  },
  "8510": {
    "postcode": "9028510",
    "prefecture": "沖縄県",
    "prefecture_kana": "オキナワケン",
    "prefecture_code": 47,
    "city": "那覇市",
    "city_kana": "ナハシ",
    "town": "寄宮",
    "town_kana": "ヨリミヤ",
    "street": "１丁目３−３７",
    "office_name": "ＮＴＴ　那覇営業所",
    "office_name_kana": "エヌテイテイ ナハエイギヨウシヨ"
  },
  "8511": {
    "postcode": "9028511",
    "prefecture": "沖縄県",
    "prefecture_kana": "オキナワケン",
    "prefecture_code": 47,
    "city": "那覇市",
    "city_kana": "ナハシ",
    "town": "古島",
    "town_kana": "フルジマ",
    "street": "２丁目３１−１",
    "office_name": "那覇市立病院",
    "office_name_kana": "ナハシリツビヨウイン"
  },
  "8512": {
    "postcode": "9028512",
    "prefecture": "沖縄県",
    "prefecture_kana": "オキナワケン",
    "prefecture_code": 47,
    "city": "那覇市",
    "city_kana": "ナハシ",
    "town": "与儀",
    "town_kana": "ヨギ",
    "street": "１−３−２１",
    "office_name": "那覇市保健所",
    "office_name_kana": "ナハシホケンジヨ"
  },
  "8513": {
    "postcode": "9028513",
    "prefecture": "沖縄県",
    "prefecture_kana": "オキナワケン",
    "prefecture_code": 47,
    "city": "那覇市",
    "city_kana": "ナハシ",
    "town": "与儀",
    "town_kana": "ヨギ",
    "street": "１−２４−１",
    "office_name": "沖縄県立看護大学",
    "office_name_kana": "オキナワケンリツカンゴダイガク"
  },
  "8521": {
    "postcode": "9028521",
    "prefecture": "沖縄県",
    "prefecture_kana": "オキナワケン",
    "prefecture_code": 47,
    "city": "那覇市",
    "city_kana": "ナハシ",
    "town": "字国場",
    "town_kana": null,
    "street": "５５５",
    "office_name": "沖縄大学",
    "office_name_kana": "オキナワダイガク"
  },
  "8550": {
    "postcode": "9028550",
    "prefecture": "沖縄県",
    "prefecture_kana": "オキナワケン",
    "prefecture_code": 47,
    "city": "那覇市",
    "city_kana": "ナハシ",
    "town": "与儀",
    "town_kana": "ヨギ",
    "street": "１丁目２−９",
    "office_name": "那覇警察署",
    "office_name_kana": "ナハケイサツシヨ"
  },
  "8555": {
    "postcode": "9028555",
    "prefecture": "沖縄県",
    "prefecture_kana": "オキナワケン",
    "prefecture_code": 47,
    "city": "那覇市",
    "city_kana": "ナハシ",
    "town": "寄宮",
    "town_kana": "ヨリミヤ",
    "street": "２丁目３２−１",
    "office_name": "那覇市役所　真和志支所",
    "office_name_kana": "ナハシヤクシヨ マワシシシヨ"
  },
  "8570": {
    "postcode": "9028570",
    "prefecture": "沖縄県",
    "prefecture_kana": "オキナワケン",
    "prefecture_code": 47,
    "city": "那覇市",
    "city_kana": "ナハシ",
    "town": "寄宮",
    "town_kana": "ヨリミヤ",
    "street": "２丁目３２−１",
    "office_name": "那覇市水道局",
    "office_name_kana": "ナハシスイドウキヨク"
  },
  "8571": {
    "postcode": "9028571",
    "prefecture": "沖縄県",
    "prefecture_kana": "オキナワケン",
    "prefecture_code": 47,
    "city": "那覇市",
    "city_kana": "ナハシ",
    "town": "安里",
    "town_kana": "アサト",
    "street": "１丁目７−３",
    "office_name": "医療法人　おもと会　大浜第一病院",
    "office_name_kana": "イリヨウホウジン オモトカイ オオハマダイイチビヨウイン"
  },
  "8585": {
    "postcode": "9028585",
    "prefecture": "沖縄県",
    "prefecture_kana": "オキナワケン",
    "prefecture_code": 47,
    "city": "那覇市",
    "city_kana": "ナハシ",
    "town": "字上間",
    "town_kana": null,
    "street": "２９０−１",
    "office_name": "沖縄県　社会保険診療報酬支払基金",
    "office_name_kana": "オキナワケン シヤカイホケンシンリヨウホウシユウシハライキキン"
  },
  "8588": {
    "postcode": "9028588",
    "prefecture": "沖縄県",
    "prefecture_kana": "オキナワケン",
    "prefecture_code": 47,
    "city": "那覇市",
    "city_kana": "ナハシ",
    "town": "与儀",
    "town_kana": "ヨギ",
    "street": "１丁目３番１号",
    "office_name": "沖縄赤十字病院",
    "office_name_kana": "オキナワセキジユウジビヨウイン"
  }
}