{
  "0100": {
    "postcode": "9030100",
    "prefecture": "沖縄県",
    "prefecture_kana": "オキナワケン",
    "prefecture_code": 47,
    "city": "中頭郡西原町",
    "city_kana": "ナカガミグンニシハラチョウ",
    "town": "",
    "town_kana": "",
    "street": null,
    "office_name": null,
    "office_name_kana": null
  },
  "0101": {
    "postcode": "9030101",
    "prefecture": "沖縄県",
    "prefecture_kana": "オキナワケン",
    "prefecture_code": 47,
    "city": "中頭郡西原町",
    "city_kana": "ナカガミグンニシハラチョウ",
    "town": "掛保久",
    "town_kana": "カケボク",
    "street": null,
    "office_name": null,
    "office_name_kana": null
  },
  "0102": {
    "postcode": "9030102",
    "prefecture": "沖縄県",
    "prefecture_kana": "オキナワケン",
    "prefecture_code": 47,
    "city": "中頭郡西原町",
    "city_kana": "ナカガミグンニシハラチョウ",
    "town": "嘉手苅",
    "town_kana": "カデカル",
    "street": null,
    "office_name": null,
    "office_name_kana": null
  },
  "0103": {
    "postcode": "9030103",
    "prefecture": "沖縄県",
    "prefecture_kana": "オキナワケン",
    "prefecture_code": 47,
    "city": "中頭郡西原町",
    "city_kana": "ナカガミグンニシハラチョウ",
    "town": "小那覇",
    "town_kana": "オナハ",
    "street": null,
    "office_name": null,
    "office_name_kana": null
  },
  "0104": {
    "postcode": "9030104",
    "prefecture": "沖縄県",
    "prefecture_kana": "オキナワケン",
    "prefecture_code": 47,
    "city": "中頭郡西原町",
    "city_kana": "ナカガミグンニシハラチョウ",
    "town": "兼久",
    "town_kana": "カネク",
    "street": null,
    "office_name": null,
    "office_name_kana": null
  },
  "0105": {
    "postcode": "9030105",
    "prefecture": "沖縄県",
    "prefecture_kana": "オキナワケン",
    "prefecture_code": 47,
    "city": "中頭郡西原町",
    "city_kana": "ナカガミグンニシハラチョウ",
    "town": "東崎",
    "town_kana": "アガリザキ",
    "street": null,
    "office_name": null,
    "office_name_kana": null
  },
  "0111": {
    "postcode": "9030111",
    "prefecture": "沖縄県",
    "prefecture_kana": "オキナワケン",
    "prefecture_code": 47,
    "city": "中頭郡西原町",
    "city_kana": "ナカガミグンニシハラチョウ",
    "town": "与那城",
    "town_kana": "ヨナグスク",
    "street": null,
    "office_name": null,
    "office_name_kana": null
  },
  "0112": {
    "postcode": "9030112",
    "prefecture": "沖縄県",
    "prefecture_kana": "オキナワケン",
    "prefecture_code": 47,
    "city": "中頭郡西原町",
    "city_kana": "ナカガミグンニシハラチョウ",
    "town": "我謝",
    "town_kana": "ガジャ",
    "street": null,
    "office_name": null,
    "office_name_kana": null
  },
  "0113": {
    "postcode": "9030113",
    "prefecture": "沖縄県",
    "prefecture_kana": "オキナワケン",
    "prefecture_code": 47,
    "city": "中頭郡西原町",
    "city_kana": "ナカガミグンニシハラチョウ",
    "town": "安室",
    "town_kana": "アムロ",
    "street": null,
    "office_name": null,
    "office_name_kana": null
  },
  "0114": {
    "postcode": "9030114",
    "prefecture": "沖縄県",
    "prefecture_kana": "オキナワケン",
    "prefecture_code": 47,
    "city": "中頭郡西原町",
    "city_kana": "ナカガミグンニシハラチョウ",
    "town": "桃原",
    "town_kana": "トウバル",
    "street": null,
    "office_name": null,
    "office_name_kana": null
  },
  "0115": {
    "postcode": "9030115",
    "prefecture": "沖縄県",
    "prefecture_kana": "オキナワケン",
    "prefecture_code": 47,
    "city": "中頭郡西原町",
    "city_kana": "ナカガミグンニシハラチョウ",
    "town": "池田",
    "town_kana": "イケダ",
    "street": null,
    "office_name": null,
    "office_name_kana": null
  },
  "0116": {
    "postcode": "9030116",
    "prefecture": "沖縄県",
    "prefecture_kana": "オキナワケン",
    "prefecture_code": 47,
    "city": "中頭郡西原町",
    "city_kana": "ナカガミグンニシハラチョウ",
    "town": "幸地",
    "town_kana": "コウチ",
    "street": null,
    "office_name": null,
    "office_name_kana": null
  },
  "0117": {
    "postcode": "9030117",
    "prefecture": "沖縄県",
    "prefecture_kana": "オキナワケン",
    "prefecture_code": 47,
    "city": "中頭郡西原町",
    "city_kana": "ナカガミグンニシハラチョウ",
    "town": "翁長",
    "town_kana": "オナガ",
    "street": null,
    "office_name": null,
    "office_name_kana": null
  },
  "0118": {
    "postcode": "9030118",
    "prefecture": "沖縄県",
    "prefecture_kana": "オキナワケン",
    "prefecture_code": 47,
    "city": "中頭郡西原町",
    "city_kana": "ナカガミグンニシハラチョウ",
    "town": "小波津",
    "town_kana": "コハツ",
    "street": null,
    "office_name": null,
    "office_name_kana": null
  },
  "0121": {
    "postcode": "9030121",
    "prefecture": "沖縄県",
    "prefecture_kana": "オキナワケン",
    "prefecture_code": 47,
    "city": "中頭郡西原町",
    "city_kana": "ナカガミグンニシハラチョウ",
    "town": "内間",
    "town_kana": "ウチマ",
    "street": null,
    "office_name": null,
    "office_name_kana": null
  },
  "0122": {
    "postcode": "9030122",
    "prefecture": "沖縄県",
    "prefecture_kana": "オキナワケン",
    "prefecture_code": 47,
    "city": "中頭郡西原町",
    "city_kana": "ナカガミグンニシハラチョウ",
    "town": "小橋川",
    "town_kana": "コバシガワ",
    "street": null,
    "office_name": null,
    "office_name_kana": null
  },
  "0123": {
    "postcode": "9030123",
    "prefecture": "沖縄県",
    "prefecture_kana": "オキナワケン",
    "prefecture_code": 47,
    "city": "中頭郡西原町",
    "city_kana": "ナカガミグンニシハラチョウ",
    "town": "津花波",
    "town_kana": "ツハナハ",
    "street": null,
    "office_name": null,
    "office_name_kana": null
  },
  "0124": {
    "postcode": "9030124",
    "prefecture": "沖縄県",
    "prefecture_kana": "オキナワケン",
    "prefecture_code": 47,
    "city": "中頭郡西原町",
    "city_kana": "ナカガミグンニシハラチョウ",
    "town": "呉屋",
    "town_kana": "ゴヤ",
    "street": null,
    "office_name": null,
    "office_name_kana": null
  },
  "0125": {
    "postcode": "9030125",
    "prefecture": "沖縄県",
    "prefecture_kana": "オキナワケン",
    "prefecture_code": 47,
    "city": "中頭郡西原町",
    "city_kana": "ナカガミグンニシハラチョウ",
    "town": "上原",
    "town_kana": "ウエハラ",
    "street": null,
    "office_name": null,
    "office_name_kana": null
  },
  "0126": {
    "postcode": "9030126",
    "prefecture": "沖縄県",
    "prefecture_kana": "オキナワケン",
    "prefecture_code": 47,
    "city": "中頭郡西原町",
    "city_kana": "ナカガミグンニシハラチョウ",
    "town": "棚原",
    "town_kana": "タナバル",
    "street": null,
    "office_name": null,
    "office_name_kana": null
  },
  "0127": {
    "postcode": "9030127",
    "prefecture": "沖縄県",
    "prefecture_kana": "オキナワケン",
    "prefecture_code": 47,
    "city": "中頭郡西原町",
    "city_kana": "ナカガミグンニシハラチョウ",
    "town": "徳佐田",
    "town_kana": "トクサダ",
    "street": null,
    "office_name": null,
    "office_name_kana": null
  },
  "0128": {
    "postcode": "9030128",
    "prefecture": "沖縄県",
    "prefecture_kana": "オキナワケン",
    "prefecture_code": 47,
    "city": "中頭郡西原町",
    "city_kana": "ナカガミグンニシハラチョウ",
    "town": "森川",
    "town_kana": "モリカワ",
    "street": null,
    "office_name": null,
    "office_name_kana": null
  },
  "0129": {
    "postcode": "9030129",
    "prefecture": "沖縄県",
    "prefecture_kana": "オキナワケン",
    "prefecture_code": 47,
    "city": "中頭郡西原町",
    "city_kana": "ナカガミグンニシハラチョウ",
    "town": "千原",
    "town_kana": "センバル",
    "street": null,
    "office_name": null,
    "office_name_kana": null
  },
  "0201": {
    "postcode": "9030201",
    "prefecture": "沖縄県",
    "prefecture_kana": "オキナワケン",
    "prefecture_code": 47,
    "city": "中頭郡西原町",
    "city_kana": "ナカガミグンニシハラチョウ",
    "town": "字幸地",
    "town_kana": null,
    "street": "８６８",
    "office_name": "アドベンチストメディカルセンター",
    "office_name_kana": "アドベンチストメデイカルセンタ-"
  },
  "0203": {
    "postcode": "9030203",
    "prefecture": "沖縄県",
    "prefecture_kana": "オキナワケン",
    "prefecture_code": 47,
    "city": "中頭郡西原町",
    "city_kana": "ナカガミグンニシハラチョウ",
    "town": "字幸地",
    "town_kana": null,
    "street": "３７１",
    "office_name": "オキコ　株式会社",
    "office_name_kana": "オキコ カブシキガイシヤ"
  },
  "0204": {
    "postcode": "9030204",
    "prefecture": "沖縄県",
    "prefecture_kana": "オキナワケン",
    "prefecture_code": 47,
    "city": "中頭郡西原町",
    "city_kana": "ナカガミグンニシハラチョウ",
    "town": "字掛保久",
    "town_kana": null,
    "street": "２１７",
    "office_name": "金秀アルミ工業　株式会社",
    "office_name_kana": "カネヒデアルミコウギヨウ カブシキガイシヤ"
  },
  "0205": {
    "postcode": "9030205",
    "prefecture": "沖縄県",
    "prefecture_kana": "オキナワケン",
    "prefecture_code": 47,
    "city": "中頭郡西原町",
    "city_kana": "ナカガミグンニシハラチョウ",
    "town": "字小那覇",
    "town_kana": null,
    "street": "１２１２",
    "office_name": "金秀鋼材",
    "office_name_kana": "カネヒデコウザイ"
  },
  "0206": {
    "postcode": "9030206",
    "prefecture": "沖縄県",
    "prefecture_kana": "オキナワケン",
    "prefecture_code": 47,
    "city": "中頭郡西原町",
    "city_kana": "ナカガミグンニシハラチョウ",
    "town": "字小那覇",
    "town_kana": null,
    "street": "４９４番地１",
    "office_name": "金秀商事　株式会社",
    "office_name_kana": "カネヒデシヨウジ カブシキカイシヤ"
  },
  "0207": {
    "postcode": "9030207",
    "prefecture": "沖縄県",
    "prefecture_kana": "オキナワケン",
    "prefecture_code": 47,
    "city": "中頭郡西原町",
    "city_kana": "ナカガミグンニシハラチョウ",
    "town": "字翁長",
    "town_kana": null,
    "street": "７７７",
    "office_name": "学校法人　沖縄キリスト教学院　沖縄キリスト教短期大学",
    "office_name_kana": "ガツコウホウジン オキナワキリストキヨウガクイン オキナワキリストキヨウタンキダイガク"
  },
  "0210": {
    "postcode": "9030210",
    "prefecture": "沖縄県",
    "prefecture_kana": "オキナワケン",
    "prefecture_code": 47,
    "city": "中頭郡西原町",
    "city_kana": "ナカガミグンニシハラチョウ",
    "town": "字小那覇",
    "town_kana": null,
    "street": "８５８",
    "office_name": "南西石油　（株）",
    "office_name_kana": "ナンセイセキユ (カブ)"
  },
  "0211": {
    "postcode": "9030211",
    "prefecture": "沖縄県",
    "prefecture_kana": "オキナワケン",
    "prefecture_code": 47,
    "city": "中頭郡西原町",
    "city_kana": "ナカガミグンニシハラチョウ",
    "town": "字小那覇",
    "town_kana": null,
    "street": "１２１５",
    "office_name": "丸正印刷　株式会社",
    "office_name_kana": "マルマサインサツ カブシキガイシヤ"
  },
  "0213": {
    "postcode": "9030213",
    "prefecture": "沖縄県",
    "prefecture_kana": "オキナワケン",
    "prefecture_code": 47,
    "city": "中頭郡西原町",
    "city_kana": "ナカガミグンニシハラチョウ",
    "town": "字千原",
    "town_kana": null,
    "street": "１",
    "office_name": "国立大学法人　琉球大学　総務部　総務課",
    "office_name_kana": "コクリツダイガクホウジン リユウキユウダイガク ソウムブ ソウムカ"
  },
  "0214": {
    "postcode": "9030214",
    "prefecture": "沖縄県",
    "prefecture_kana": "オキナワケン",
    "prefecture_code": 47,
    "city": "中頭郡西原町",
    "city_kana": "ナカガミグンニシハラチョウ",
    "town": "字千原",
    "town_kana": null,
    "street": "１",
    "office_name": "国立大学法人　琉球大学　付属図書館",
    "office_name_kana": "コクリツダイガクホウジン リユウキユウダイガク フゾクトシヨカン"
  },
  "0215": {
    "postcode": "9030215",
    "prefecture": "沖縄県",
    "prefecture_kana": "オキナワケン",
    "prefecture_code": 47,
    "city": "中頭郡西原町",
    "city_kana": "ナカガミグンニシハラチョウ",
    "town": "字上原",
    "town_kana": null,
    "street": "２０７",
    "office_name": "国立大学法人　琉球大学　医学部・医学部付属病院",
    "office_name_kana": "コクリツダイガクホウジン リユウキユウダイガク イガクブ・イガクブフゾクビヨウイン"
  },
  "0217": {
    "postcode": "9030217",
    "prefecture": "沖縄県",
    "prefecture_kana": "オキナワケン",
    "prefecture_code": 47,
    "city": "中頭郡西原町",
    "city_kana": "ナカガミグンニシハラチョウ",
    "town": "字兼久",
    "town_kana": null,
    "street": "２１８",
    "office_name": "東洋コンクリート　株式会社",
    "office_name_kana": "トウヨウコンクリ-ト カブシキガイシヤ"
  },
  "0218": {
    "postcode": "9030218",
    "prefecture": "沖縄県",
    "prefecture_kana": "オキナワケン",
    "prefecture_code": 47,
    "city": "中頭郡西原町",
    "city_kana": "ナカガミグンニシハラチョウ",
    "town": "字翁長",
    "town_kana": null,
    "street": "６１０",
    "office_name": "沖縄県立　西原高等学校",
    "office_name_kana": "オキナワケンリツ ニシハラコウトウガツコウ"
  },
  "0220": {
    "postcode": "9030220",
    "prefecture": "沖縄県",
    "prefecture_kana": "オキナワケン",
    "prefecture_code": 47,
    "city": "中頭郡西原町",
    "city_kana": "ナカガミグンニシハラチョウ",
    "town": "字嘉手苅",
    "town_kana": null,
    "street": "１１２",
    "office_name": "西原町役場",
    "office_name_kana": "ニシハラチヨウヤクバ"
  },
  "0801": {
    "postcode": "9030801",
    "prefecture": "沖縄県",
    "prefecture_kana": "オキナワケン",
    "prefecture_code": 47,
    "city": "那覇市",
    "city_kana": "ナハシ",
    "town": "首里末吉町",
    "town_kana": "シュリスエヨシチョウ",
    "street": null,
    "office_name": null,
    "office_name_kana": null
  },
  "0802": {
    "postcode": "9030802",
    "prefecture": "沖縄県",
    "prefecture_kana": "オキナワケン",
    "prefecture_code": 47,
    "city": "那覇市",
    "city_kana": "ナハシ",
    "town": "首里大名町",
    "town_kana": "シュリオオナチョウ",
    "street": null,
    "office_name": null,
    "office_name_kana": null
  },
  "0803": {
    "postcode": "9030803",
    "prefecture": "沖縄県",
    "prefecture_kana": "オキナワケン",
    "prefecture_code": 47,
    "city": "那覇市",
    "city_kana": "ナハシ",
    "town": "首里平良町",
    "town_kana": "シュリタイラチョウ",
    "street": null,
    "office_name": null,
    "office_name_kana": null
  },
  "0804": {
    "postcode": "9030804",
    "prefecture": "沖縄県",
    "prefecture_kana": "オキナワケン",
    "prefecture_code": 47,
    "city": "那覇市",
    "city_kana": "ナハシ",
    "town": "首里石嶺町",
    "town_kana": "シュリイシミネチョウ",
    "street": null,
    "office_name": null,
    "office_name_kana": null
  },
  "0805": {
    "postcode": "9030805",
    "prefecture": "沖縄県",
    "prefecture_kana": "オキナワケン",
    "prefecture_code": 47,
    "city": "那覇市",
    "city_kana": "ナハシ",
    "town": "首里鳥堀町",
    "town_kana": "シュリトリホリチョウ",
    "street": null,
    "office_name": null,
    "office_name_kana": null
  },
  "0806": {
    "postcode": "9030806",
    "prefecture": "沖縄県",
    "prefecture_kana": "オキナワケン",
    "prefecture_code": 47,
    "city": "那覇市",
    "city_kana": "ナハシ",
    "town": "首里汀良町",
    "town_kana": "シュリテラチョウ",
    "street": null,
    "office_name": null,
    "office_name_kana": null
  },
  "0807": {
    "postcode": "9030807",
    "prefecture": "沖縄県",
    "prefecture_kana": "オキナワケン",
    "prefecture_code": 47,
    "city": "那覇市",
    "city_kana": "ナハシ",
    "town": "首里久場川町",
    "town_kana": "シュリクバガワチョウ",
    "street": null,
    "office_name": null,
    "office_name_kana": null
  },
  "0811": {
    "postcode": "9030811",
    "prefecture": "沖縄県",
    "prefecture_kana": "オキナワケン",
    "prefecture_code": 47,
    "city": "那覇市",
    "city_kana": "ナハシ",
    "town": "首里赤平町",
    "town_kana": "シュリアカヒラチョウ",
    "street": null,
    "office_name": null,
    "office_name_kana": null
  },
  "0812": {
    "postcode": "9030812",
    "prefecture": "沖縄県",
    "prefecture_kana": "オキナワケン",
    "prefecture_code": 47,
    "city": "那覇市",
    "city_kana": "ナハシ",
    "town": "首里当蔵町",
    "town_kana": "シュリトウノクラチョウ",
    "street": null,
    "office_name": null,
    "office_name_kana": null
  },
  "0813": {
    "postcode": "9030813",
    "prefecture": "沖縄県",
    "prefecture_kana": "オキナワケン",
    "prefecture_code": 47,
    "city": "那覇市",
    "city_kana": "ナハシ",
    "town": "首里赤田町",
    "town_kana": "シュリアカタチョウ",
    "street": null,
    "office_name": null,
    "office_name_kana": null
  },
  "0814": {
    "postcode": "9030814",
    "prefecture": "沖縄県",
    "prefecture_kana": "オキナワケン",
    "prefecture_code": 47,
    "city": "那覇市",
    "city_kana": "ナハシ",
    "town": "首里崎山町",
    "town_kana": "シュリサキヤマチョウ",
    "street": null,
    "office_name": null,
    "office_name_kana": null
  },
  "0815": {
    "postcode": "9030815",
    "prefecture": "沖縄県",
    "prefecture_kana": "オキナワケン",
    "prefecture_code": 47,
    "city": "那覇市",
    "city_kana": "ナハシ",
    "town": "首里金城町",
    "town_kana": "シュリキンジョウチョウ",
    "street": null,
    "office_name": null,
    "office_name_kana": null
  },
  "0816": {
    "postcode": "9030816",
    "prefecture": "沖縄県",
    "prefecture_kana": "オキナワケン",
    "prefecture_code": 47,
    "city": "那覇市",
    "city_kana": "ナハシ",
    "town": "首里真和志町",
    "town_kana": "シュリマワシチョウ",
    "street": null,
    "office_name": null,
    "office_name_kana": null
  },
  "0821": {
    "postcode": "9030821",
    "prefecture": "沖縄県",
    "prefecture_kana": "オキナワケン",
    "prefecture_code": 47,
    "city": "那覇市",
    "city_kana": "ナハシ",
    "town": "首里儀保町",
    "town_kana": "シュリギボチョウ",
    "street": null,
    "office_name": null,
    "office_name_kana": null
  },
  "0822": {
    "postcode": "9030822",
    "prefecture": "沖縄県",
    "prefecture_kana": "オキナワケン",
    "prefecture_code": 47,
    "city": "那覇市",
    "city_kana": "ナハシ",
    "town": "首里桃原町",
    "town_kana": "シュリトウバルチョウ",
    "street": null,
    "office_name": null,
    "office_name_kana": null
  },
  "0823": {
    "postcode": "9030823",
    "prefecture": "沖縄県",
    "prefecture_kana": "オキナワケン",
    "prefecture_code": 47,
    "city": "那覇市",
    "city_kana": "ナハシ",
    "town": "首里大中町",
    "town_kana": "シュリオオナカチョウ",
    "street": null,
    "office_name": null,
    "office_name_kana": null
  },
  "0824": {
    "postcode": "9030824",
    "prefecture": "沖縄県",
    "prefecture_kana": "オキナワケン",
    "prefecture_code": 47,
    "city": "那覇市",
    "city_kana": "ナハシ",
    "town": "首里池端町",
    "town_kana": "シュリイケハタチョウ",
    "street": null,
    "office_name": null,
    "office_name_kana": null
  },
  "0825": {
    "postcode": "9030825",
    "prefecture": "沖縄県",
    "prefecture_kana": "オキナワケン",
    "prefecture_code": 47,
    "city": "那覇市",
    "city_kana": "ナハシ",
    "town": "首里山川町",
    "town_kana": "シュリヤマガワチョウ",
    "street": null,
    "office_name": null,
    "office_name_kana": null
  },
  "0826": {
    "postcode": "9030826",
    "prefecture": "沖縄県",
    "prefecture_kana": "オキナワケン",
    "prefecture_code": 47,
    "city": "那覇市",
    "city_kana": "ナハシ",
    "town": "首里寒川町",
    "town_kana": "シュリサムカワチョウ",
    "street": null,
    "office_name": null,
    "office_name_kana": null
  },
  "8601": {
    "postcode": "9038601",
    "prefecture": "沖縄県",
    "prefecture_kana": "オキナワケン",
    "prefecture_code": 47,
    "city": "那覇市",
    "city_kana": "ナハシ",
    "town": "首里山川町",
    "town_kana": "シュリヤマガワチョウ",
    "street": "１丁目１３２−１",
    "office_name": "株式会社　琉球ホテルリゾート那覇　ダブルツリーｂｙヒルトン那覇首里城",
    "office_name_kana": "カブシキガイシヤ リユウキユウホテルリゾ-トナハ ダブルツリ-バイヒルトンナハシユリジヨウ"
  },
  "8602": {
    "postcode": "9038602",
    "prefecture": "沖縄県",
    "prefecture_kana": "オキナワケン",
    "prefecture_code": 47,
    "city": "那覇市",
    "city_kana": "ナハシ",
    "town": "首里当蔵町",
    "town_kana": "シュリトウノクラチョウ",
    "street": "１丁目４",
    "office_name": "沖縄県立芸術大学",
    "office_name_kana": "オキナワケンリツゲイジユツダイガク"
  },
  "8603": {
    "postcode": "9038603",
    "prefecture": "沖縄県",
    "prefecture_kana": "オキナワケン",
    "prefecture_code": 47,
    "city": "那覇市",
    "city_kana": "ナハシ",
    "town": "首里石嶺町",
    "town_kana": "シュリイシミネチョウ",
    "street": "４丁目３７３−１（沖縄県総合福祉センター内）",
    "office_name": "社会福祉法人　沖縄県社会福祉協議会",
    "office_name_kana": "シヤカイフクシホウジン オキナワケンシヤカイフクシキヨウギカイ"
  }
}