{
  "0000": [
    {
      "postcode": "9070000",
      "prefecture": "沖縄県",
      "prefecture_kana": "オキナワケン",
      "prefecture_code": 47,
      "city": "石垣市",
      "city_kana": "イシガキシ",
      "town": "",
      "town_kana": "",
      "street": null,
      "office_name": null,
      "office_name_kana": null
    },
    {
      "postcode": "9070000",
      "prefecture": "沖縄県",
      "prefecture_kana": "オキナワケン",
      "prefecture_code": 47,
      "city": "八重山郡竹富町",
      "city_kana": "ヤエヤマグンタケトミチョウ",
      "town": "",
      "town_kana": "",
      "street": null,
      "office_name": null,
      "office_name_kana": null
    }
  ],
  "0001": {
    "postcode": "9070001",
    "prefecture": "沖縄県",
    "prefecture_kana": "オキナワケン",
    "prefecture_code": 47,
    "city": "石垣市",
    "city_kana": "イシガキシ",
    "town": "大浜",
    "town_kana": "オオハマ",
    "street": null,
    "office_name": null,
    "office_name_kana": null
  },
  "0002": {
    "postcode": "9070002",
    "prefecture": "沖縄県",
    "prefecture_kana": "オキナワケン",
    "prefecture_code": 47,
    "city": "石垣市",
    "city_kana": "イシガキシ",
    "town": "真栄里",
    "town_kana": "マエザト",
    "street": null,
    "office_name": null,
    "office_name_kana": null
  },
  "0003": {
    "postcode": "9070003",
    "prefecture": "沖縄県",
    "prefecture_kana": "オキナワケン",
    "prefecture_code": 47,
    "city": "石垣市",
    "city_kana": "イシガキシ",
    "town": "平得",
    "town_kana": "ヒラエ",
    "street": null,
    "office_name": null,
    "office_name_kana": null
  },
  "0004": {
    "postcode": "9070004",
    "prefecture": "沖縄県",
    "prefecture_kana": "オキナワケン",
    "prefecture_code": 47,
    "city": "石垣市",
    "city_kana": "イシガキシ",
    "town": "登野城",
    "town_kana": "トノシロ",
    "street": null,
    "office_name": null,
    "office_name_kana": null
  },
  "0011": {
    "postcode": "9070011",
    "prefecture": "沖縄県",
    "prefecture_kana": "オキナワケン",
    "prefecture_code": 47,
    "city": "石垣市",
    "city_kana": "イシガキシ",
    "town": "八島町",
    "town_kana": "ヤシマチョウ",
    "street": null,
    "office_name": null,
    "office_name_kana": null
  },
  "0012": {
    "postcode": "9070012",
    "prefecture": "沖縄県",
    "prefecture_kana": "オキナワケン",
    "prefecture_code": 47,
    "city": "石垣市",
    "city_kana": "イシガキシ",
    "town": "美崎町",
    "town_kana": "ミサキチョウ",
    "street": null,
    "office_name": null,
    "office_name_kana": null
  },
  "0013": {
    "postcode": "9070013",
    "prefecture": "沖縄県",
    "prefecture_kana": "オキナワケン",
    "prefecture_code": 47,
    "city": "石垣市",
    "city_kana": "イシガキシ",
    "town": "浜崎町",
    "town_kana": "ハマサキチョウ",
    "street": null,
    "office_name": null,
    "office_name_kana": null
  },
  "0014": {
    "postcode": "9070014",
    "prefecture": "沖縄県",
    "prefecture_kana": "オキナワケン",
    "prefecture_code": 47,
    "city": "石垣市",
    "city_kana": "イシガキシ",
    "town": "新栄町",
    "town_kana": "シンエイチョウ",
    "street": null,
    "office_name": null,
    "office_name_kana": null
  },
  "0015": {
    "postcode": "9070015",
    "prefecture": "沖縄県",
    "prefecture_kana": "オキナワケン",
    "prefecture_code": 47,
    "city": "石垣市",
    "city_kana": "イシガキシ",
    "town": "南ぬ浜町",
    "town_kana": "パイヌハマチョウ",
    "street": null,
    "office_name": null,
    "office_name_kana": null
  },
  "0021": {
    "postcode": "9070021",
    "prefecture": "沖縄県",
    "prefecture_kana": "オキナワケン",
    "prefecture_code": 47,
    "city": "石垣市",
    "city_kana": "イシガキシ",
    "town": "名蔵",
    "town_kana": "ナグラ",
    "street": null,
    "office_name": null,
    "office_name_kana": null
  },
  "0022": {
    "postcode": "9070022",
    "prefecture": "沖縄県",
    "prefecture_kana": "オキナワケン",
    "prefecture_code": 47,
    "city": "石垣市",
    "city_kana": "イシガキシ",
    "town": "大川",
    "town_kana": "オオカワ",
    "street": null,
    "office_name": null,
    "office_name_kana": null
  },
  "0023": {
    "postcode": "9070023",
    "prefecture": "沖縄県",
    "prefecture_kana": "オキナワケン",
    "prefecture_code": 47,
    "city": "石垣市",
    "city_kana": "イシガキシ",
    "town": "石垣",
    "town_kana": "イシガキ",
    "street": null,
    "office_name": null,
    "office_name_kana": null
  },
  "0024": {
    "postcode": "9070024",
    "prefecture": "沖縄県",
    "prefecture_kana": "オキナワケン",
    "prefecture_code": 47,
    "city": "石垣市",
    "city_kana": "イシガキシ",
    "town": "新川",
    "town_kana": "アラカワ",
    "street": null,
    "office_name": null,
    "office_name_kana": null
  },
  "0031": {
    "postcode": "9070031",
    "prefecture": "沖縄県",
    "prefecture_kana": "オキナワケン",
    "prefecture_code": 47,
    "city": "石垣市",
    "city_kana": "イシガキシ",
    "town": "登野城尖閣",
    "town_kana": "トノシロセンカク",
    "street": null,
    "office_name": null,
    "office_name_kana": null
  },
  "0241": {
    "postcode": "9070241",
    "prefecture": "沖縄県",
    "prefecture_kana": "オキナワケン",
    "prefecture_code": 47,
    "city": "石垣市",
    "city_kana": "イシガキシ",
    "town": "桃里",
    "town_kana": "トウザト",
    "street": null,
    "office_name": null,
    "office_name_kana": null
  },
  "0242": {
    "postcode": "9070242",
    "prefecture": "沖縄県",
    "prefecture_kana": "オキナワケン",
    "prefecture_code": 47,
    "city": "石垣市",
    "city_kana": "イシガキシ",
    "town": "白保",
    "town_kana": "シラホ",
    "street": null,
    "office_name": null,
    "office_name_kana": null
  },
  "0243": {
    "postcode": "9070243",
    "prefecture": "沖縄県",
    "prefecture_kana": "オキナワケン",
    "prefecture_code": 47,
    "city": "石垣市",
    "city_kana": "イシガキシ",
    "town": "宮良",
    "town_kana": "ミヤラ",
    "street": null,
    "office_name": null,
    "office_name_kana": null
  },
  "0244": {
    "postcode": "9070244",
    "prefecture": "沖縄県",
    "prefecture_kana": "オキナワケン",
    "prefecture_code": 47,
    "city": "石垣市",
    "city_kana": "イシガキシ",
    "town": "盛山",
    "town_kana": "モリヤマ",
    "street": null,
    "office_name": null,
    "office_name_kana": null
  },
  "0331": {
    "postcode": "9070331",
    "prefecture": "沖縄県",
    "prefecture_kana": "オキナワケン",
    "prefecture_code": 47,
    "city": "石垣市",
    "city_kana": "イシガキシ",
    "town": "平久保",
    "town_kana": "ヒラクボ",
    "street": null,
    "office_name": null,
    "office_name_kana": null
  },
  "0332": {
    "postcode": "9070332",
    "prefecture": "沖縄県",
    "prefecture_kana": "オキナワケン",
    "prefecture_code": 47,
    "city": "石垣市",
    "city_kana": "イシガキシ",
    "town": "伊原間",
    "town_kana": "イバルマ",
    "street": null,
    "office_name": null,
    "office_name_kana": null
  },
  "0333": {
    "postcode": "9070333",
    "prefecture": "沖縄県",
    "prefecture_kana": "オキナワケン",
    "prefecture_code": 47,
    "city": "石垣市",
    "city_kana": "イシガキシ",
    "town": "野底",
    "town_kana": "ノソコ",
    "street": null,
    "office_name": null,
    "office_name_kana": null
  },
  "0451": {
    "postcode": "9070451",
    "prefecture": "沖縄県",
    "prefecture_kana": "オキナワケン",
    "prefecture_code": 47,
    "city": "石垣市",
    "city_kana": "イシガキシ",
    "town": "桴海",
    "town_kana": "フカイ",
    "street": null,
    "office_name": null,
    "office_name_kana": null
  },
  "0452": {
    "postcode": "9070452",
    "prefecture": "沖縄県",
    "prefecture_kana": "オキナワケン",
    "prefecture_code": 47,
    "city": "石垣市",
    "city_kana": "イシガキシ",
    "town": "崎枝",
    "town_kana": "サキエダ",
    "street": null,
    "office_name": null,
    "office_name_kana": null
  },
  "0453": {
    "postcode": "9070453",
    "prefecture": "沖縄県",
    "prefecture_kana": "オキナワケン",
    "prefecture_code": 47,
    "city": "石垣市",
    "city_kana": "イシガキシ",
    "town": "川平",
    "town_kana": "カビラ",
    "street": null,
    "office_name": null,
    "office_name_kana": null
  },
  "1101": {
    "postcode": "9071101",
    "prefecture": "沖縄県",
    "prefecture_kana": "オキナワケン",
    "prefecture_code": 47,
    "city": "八重山郡竹富町",
    "city_kana": "ヤエヤマグンタケトミチョウ",
    "town": "竹富",
    "town_kana": "タケトミ",
    "street": null,
    "office_name": null,
    "office_name_kana": null
  },
  "1221": {
    "postcode": "9071221",
    "prefecture": "沖縄県",
    "prefecture_kana": "オキナワケン",
    "prefecture_code": 47,
    "city": "八重山郡竹富町",
    "city_kana": "ヤエヤマグンタケトミチョウ",
    "town": "小浜",
    "town_kana": "コハマ",
    "street": null,
    "office_name": null,
    "office_name_kana": null
  },
  "1292": {
    "postcode": "9071292",
    "prefecture": "沖縄県",
    "prefecture_kana": "オキナワケン",
    "prefecture_code": 47,
    "city": "八重山郡竹富町",
    "city_kana": "ヤエヤマグンタケトミチョウ",
    "town": "字小浜",
    "town_kana": null,
    "street": "２９３０",
    "office_name": "株式会社　はいむるぶし",
    "office_name_kana": "カブシキガイシヤ ハイムルブシ"
  },
  "1311": {
    "postcode": "9071311",
    "prefecture": "沖縄県",
    "prefecture_kana": "オキナワケン",
    "prefecture_code": 47,
    "city": "八重山郡竹富町",
    "city_kana": "ヤエヤマグンタケトミチョウ",
    "town": "黒島",
    "town_kana": "クロシマ",
    "street": null,
    "office_name": null,
    "office_name_kana": null
  },
  "1431": {
    "postcode": "9071431",
    "prefecture": "沖縄県",
    "prefecture_kana": "オキナワケン",
    "prefecture_code": 47,
    "city": "八重山郡竹富町",
    "city_kana": "ヤエヤマグンタケトミチョウ",
    "town": "高那",
    "town_kana": "タカナ",
    "street": null,
    "office_name": null,
    "office_name_kana": null
  },
  "1432": {
    "postcode": "9071432",
    "prefecture": "沖縄県",
    "prefecture_kana": "オキナワケン",
    "prefecture_code": 47,
    "city": "八重山郡竹富町",
    "city_kana": "ヤエヤマグンタケトミチョウ",
    "town": "古見",
    "town_kana": "コミ",
    "street": null,
    "office_name": null,
    "office_name_kana": null
  },
  "1433": {
    "postcode": "9071433",
    "prefecture": "沖縄県",
    "prefecture_kana": "オキナワケン",
    "prefecture_code": 47,
    "city": "八重山郡竹富町",
    "city_kana": "ヤエヤマグンタケトミチョウ",
    "town": "南風見仲",
    "town_kana": "ハイミナカ",
    "street": null,
    "office_name": null,
    "office_name_kana": null
  },
  "1434": {
    "postcode": "9071434",
    "prefecture": "沖縄県",
    "prefecture_kana": "オキナワケン",
    "prefecture_code": 47,
    "city": "八重山郡竹富町",
    "city_kana": "ヤエヤマグンタケトミチョウ",
    "town": "南風見",
    "town_kana": "ハイミ",
    "street": null,
    "office_name": null,
    "office_name_kana": null
  },
  "1435": {
    "postcode": "9071435",
    "prefecture": "沖縄県",
    "prefecture_kana": "オキナワケン",
    "prefecture_code": 47,
    "city": "八重山郡竹富町",
    "city_kana": "ヤエヤマグンタケトミチョウ",
    "town": "新城",
    "town_kana": "アラグスク",
    "street": null,
    "office_name": null,
    "office_name_kana": null
  },
  "1541": {
    "postcode": "9071541",
    "prefecture": "沖縄県",
    "prefecture_kana": "オキナワケン",
    "prefecture_code": 47,
    "city": "八重山郡竹富町",
    "city_kana": "ヤエヤマグンタケトミチョウ",
    "town": "上原",
    "town_kana": "ウエハラ",
    "street": null,
    "office_name": null,
    "office_name_kana": null
  },
  "1542": {
    "postcode": "9071542",
    "prefecture": "沖縄県",
    "prefecture_kana": "オキナワケン",
    "prefecture_code": 47,
    "city": "八重山郡竹富町",
    "city_kana": "ヤエヤマグンタケトミチョウ",
    "town": "西表",
    "town_kana": "イリオモテ",
    "street": null,
    "office_name": null,
    "office_name_kana": null
  },
  "1543": {
    "postcode": "9071543",
    "prefecture": "沖縄県",
    "prefecture_kana": "オキナワケン",
    "prefecture_code": 47,
    "city": "八重山郡竹富町",
    "city_kana": "ヤエヤマグンタケトミチョウ",
    "town": "崎山",
    "town_kana": "サキヤマ",
    "street": null,
    "office_name": null,
    "office_name_kana": null
  },
  "1544": {
    "postcode": "9071544",
    "prefecture": "沖縄県",
    "prefecture_kana": "オキナワケン",
    "prefecture_code": 47,
    "city": "八重山郡竹富町",
    "city_kana": "ヤエヤマグンタケトミチョウ",
    "town": "鳩間",
    "town_kana": "ハトマ",
    "street": null,
    "office_name": null,
    "office_name_kana": null
  },
  "1751": {
    "postcode": "9071751",
    "prefecture": "沖縄県",
    "prefecture_kana": "オキナワケン",
    "prefecture_code": 47,
    "city": "八重山郡竹富町",
    "city_kana": "ヤエヤマグンタケトミチョウ",
    "town": "波照間",
    "town_kana": "ハテルマ",
    "street": null,
    "office_name": null,
    "office_name_kana": null
  },
  "1800": {
    "postcode": "9071800",
    "prefecture": "沖縄県",
    "prefecture_kana": "オキナワケン",
    "prefecture_code": 47,
    "city": "八重山郡与那国町",
    "city_kana": "ヤエヤマグンヨナグニチョウ",
    "town": "",
    "town_kana": "",
    "street": null,
    "office_name": null,
    "office_name_kana": null
  },
  "1801": {
    "postcode": "9071801",
    "prefecture": "沖縄県",
    "prefecture_kana": "オキナワケン",
    "prefecture_code": 47,
    "city": "八重山郡与那国町",
    "city_kana": "ヤエヤマグンヨナグニチョウ",
    "town": "与那国",
    "town_kana": "ヨナグニ",
    "street": null,
    "office_name": null,
    "office_name_kana": null
  },
  "1892": {
    "postcode": "9071892",
    "prefecture": "沖縄県",
    "prefecture_kana": "オキナワケン",
    "prefecture_code": 47,
    "city": "八重山郡与那国町",
    "city_kana": "ヤエヤマグンヨナグニチョウ",
    "town": "字与那国",
    "town_kana": null,
    "street": "１２９",
    "office_name": "与那国町役場",
    "office_name_kana": "ヨナグニチヨウヤクバ"
  },
  "8501": {
    "postcode": "9078501",
    "prefecture": "沖縄県",
    "prefecture_kana": "オキナワケン",
    "prefecture_code": 47,
    "city": "石垣市",
    "city_kana": "イシガキシ",
    "town": "字真栄里",
    "town_kana": null,
    "street": "６７２番地",
    "office_name": "石垣市役所",
    "office_name_kana": "イシガキシヤクシヨ"
  },
  "8502": {
    "postcode": "9078502",
    "prefecture": "沖縄県",
    "prefecture_kana": "オキナワケン",
    "prefecture_code": 47,
    "city": "石垣市",
    "city_kana": "イシガキシ",
    "town": "字登野城",
    "town_kana": null,
    "street": "８",
    "office_name": "石垣税務署",
    "office_name_kana": "イシガキゼイムシヨ"
  },
  "8503": {
    "postcode": "9078503",
    "prefecture": "沖縄県",
    "prefecture_kana": "オキナワケン",
    "prefecture_code": 47,
    "city": "石垣市",
    "city_kana": "イシガキシ",
    "town": "美崎町",
    "town_kana": "ミサキチョウ",
    "street": "１１",
    "office_name": "竹富町役場",
    "office_name_kana": "タケトミチヨウヤクバ"
  }
}