{
  "0000": {
    "postcode": "9110000",
    "prefecture": "福井県",
    "prefecture_kana": "フクイケン",
    "prefecture_code": 18,
    "city": "勝山市",
    "city_kana": "カツヤマシ",
    "town": "",
    "town_kana": "",
    "street": null,
    "office_name": null,
    "office_name_kana": null
  },
  "0001": {
    "postcode": "9110001",
    "prefecture": "福井県",
    "prefecture_kana": "フクイケン",
    "prefecture_code": 18,
    "city": "勝山市",
    "city_kana": "カツヤマシ",
    "town": "北谷町小原",
    "town_kana": "キタダニチョウオハラ",
    "street": null,
    "office_name": null,
    "office_name_kana": null
  },
  "0002": {
    "postcode": "9110002",
    "prefecture": "福井県",
    "prefecture_kana": "フクイケン",
    "prefecture_code": 18,
    "city": "勝山市",
    "city_kana": "カツヤマシ",
    "town": "北谷町木根橋",
    "town_kana": "キタダニチョウキネハシ",
    "street": null,
    "office_name": null,
    "office_name_kana": null
  },
  "0003": {
    "postcode": "9110003",
    "prefecture": "福井県",
    "prefecture_kana": "フクイケン",
    "prefecture_code": 18,
    "city": "勝山市",
    "city_kana": "カツヤマシ",
    "town": "北谷町河合",
    "town_kana": "キタダニチョウコウゴ",
    "street": null,
    "office_name": null,
    "office_name_kana": null
  },
  "0004": [
    {
      "postcode": "9110004",
      "prefecture": "福井県",
      "prefecture_kana": "フクイケン",
      "prefecture_code": 18,
      "city": "勝山市",
      "city_kana": "カツヤマシ",
      "town": "北谷町北六呂師",
      "town_kana": "キタダニチョウキタロクロシ",
      "street": null,
      "office_name": null,
      "office_name_kana": null
    },
    {
      "postcode": "9110004",
      "prefecture": "福井県",
      "prefecture_kana": "フクイケン",
      "prefecture_code": 18,
      "city": "勝山市",
      "city_kana": "カツヤマシ",
      "town": "北谷町中尾",
      "town_kana": "キタダニチョウナカオ",
      "street": null,
      "office_name": null,
      "office_name_kana": null
    }
  ],
  "0005": {
    "postcode": "9110005",
    "prefecture": "福井県",
    "prefecture_kana": "フクイケン",
    "prefecture_code": 18,
    "city": "勝山市",
    "city_kana": "カツヤマシ",
    "town": "北谷町杉山",
    "town_kana": "キタダニチョウスギヤマ",
    "street": null,
    "office_name": null,
    "office_name_kana": null
  },
  "0006": {
    "postcode": "9110006",
    "prefecture": "福井県",
    "prefecture_kana": "フクイケン",
    "prefecture_code": 18,
    "city": "勝山市",
    "city_kana": "カツヤマシ",
    "town": "北谷町谷",
    "town_kana": "キタダニチョウタニ",
    "street": null,
    "office_name": null,
    "office_name_kana": null
  },
  "0011": {
    "postcode": "9110011",
    "prefecture": "福井県",
    "prefecture_kana": "フクイケン",
    "prefecture_code": 18,
    "city": "勝山市",
    "city_kana": "カツヤマシ",
    "town": "野向町牛ケ谷",
    "town_kana": "ノムキチョウウシガタニ",
    "street": null,
    "office_name": null,
    "office_name_kana": null
  },
  "0012": {
    "postcode": "9110012",
    "prefecture": "福井県",
    "prefecture_kana": "フクイケン",
    "prefecture_code": 18,
    "city": "勝山市",
    "city_kana": "カツヤマシ",
    "town": "野向町薬師神谷",
    "town_kana": "ノムキチョウヤクシガミヤ",
    "street": null,
    "office_name": null,
    "office_name_kana": null
  },
  "0013": {
    "postcode": "9110013",
    "prefecture": "福井県",
    "prefecture_kana": "フクイケン",
    "prefecture_code": 18,
    "city": "勝山市",
    "city_kana": "カツヤマシ",
    "town": "野向町深谷",
    "town_kana": "ノムキチョウフカダニ",
    "street": null,
    "office_name": null,
    "office_name_kana": null
  },
  "0014": {
    "postcode": "9110014",
    "prefecture": "福井県",
    "prefecture_kana": "フクイケン",
    "prefecture_code": 18,
    "city": "勝山市",
    "city_kana": "カツヤマシ",
    "town": "野向町聖丸",
    "town_kana": "ノムキチョウヒジリマル",
    "street": null,
    "office_name": null,
    "office_name_kana": null
  },
  "0015": {
    "postcode": "9110015",
    "prefecture": "福井県",
    "prefecture_kana": "フクイケン",
    "prefecture_code": 18,
    "city": "勝山市",
    "city_kana": "カツヤマシ",
    "town": "野向町竹林",
    "town_kana": "ノムキチョウタケバヤシ",
    "street": null,
    "office_name": null,
    "office_name_kana": null
  },
  "0016": {
    "postcode": "9110016",
    "prefecture": "福井県",
    "prefecture_kana": "フクイケン",
    "prefecture_code": 18,
    "city": "勝山市",
    "city_kana": "カツヤマシ",
    "town": "野向町龍谷",
    "town_kana": "ノムキチョウリュウダニ",
    "street": null,
    "office_name": null,
    "office_name_kana": null
  },
  "0017": [
    {
      "postcode": "9110017",
      "prefecture": "福井県",
      "prefecture_kana": "フクイケン",
      "prefecture_code": 18,
      "city": "勝山市",
      "city_kana": "カツヤマシ",
      "town": "野向町北野津又",
      "town_kana": "ノムキチョウキタノツマタ",
      "street": null,
      "office_name": null,
      "office_name_kana": null
    },
    {
      "postcode": "9110017",
      "prefecture": "福井県",
      "prefecture_kana": "フクイケン",
      "prefecture_code": 18,
      "city": "勝山市",
      "city_kana": "カツヤマシ",
      "town": "野向町横倉",
      "town_kana": "ノムキチョウヨコクラ",
      "street": null,
      "office_name": null,
      "office_name_kana": null
    }
  ],
  "0021": {
    "postcode": "9110021",
    "prefecture": "福井県",
    "prefecture_kana": "フクイケン",
    "prefecture_code": 18,
    "city": "勝山市",
    "city_kana": "カツヤマシ",
    "town": "村岡町栃神谷",
    "town_kana": "ムロコチョウトチガミヤ",
    "street": null,
    "office_name": null,
    "office_name_kana": null
  },
  "0022": [
    {
      "postcode": "9110022",
      "prefecture": "福井県",
      "prefecture_kana": "フクイケン",
      "prefecture_code": 18,
      "city": "勝山市",
      "city_kana": "カツヤマシ",
      "town": "村岡町暮見",
      "town_kana": "ムロコチョウクレミ",
      "street": null,
      "office_name": null,
      "office_name_kana": null
    },
    {
      "postcode": "9110022",
      "prefecture": "福井県",
      "prefecture_kana": "フクイケン",
      "prefecture_code": 18,
      "city": "勝山市",
      "city_kana": "カツヤマシ",
      "town": "芳野ケ原",
      "town_kana": "ヨシノガハラ",
      "street": null,
      "office_name": null,
      "office_name_kana": null
    }
  ],
  "0023": {
    "postcode": "9110023",
    "prefecture": "福井県",
    "prefecture_kana": "フクイケン",
    "prefecture_code": 18,
    "city": "勝山市",
    "city_kana": "カツヤマシ",
    "town": "村岡町寺尾",
    "town_kana": "ムロコチョウテラオ",
    "street": null,
    "office_name": null,
    "office_name_kana": null
  },
  "0024": {
    "postcode": "9110024",
    "prefecture": "福井県",
    "prefecture_kana": "フクイケン",
    "prefecture_code": 18,
    "city": "勝山市",
    "city_kana": "カツヤマシ",
    "town": "村岡町浄土寺",
    "town_kana": "ムロコチョウジョウドジ",
    "street": null,
    "office_name": null,
    "office_name_kana": null
  },
  "0025": {
    "postcode": "9110025",
    "prefecture": "福井県",
    "prefecture_kana": "フクイケン",
    "prefecture_code": 18,
    "city": "勝山市",
    "city_kana": "カツヤマシ",
    "town": "村岡町五本寺",
    "town_kana": "ムロコチョウゴホンジ",
    "street": null,
    "office_name": null,
    "office_name_kana": null
  },
  "0026": {
    "postcode": "9110026",
    "prefecture": "福井県",
    "prefecture_kana": "フクイケン",
    "prefecture_code": 18,
    "city": "勝山市",
    "city_kana": "カツヤマシ",
    "town": "村岡町黒原",
    "town_kana": "ムロコチョウクロハラ",
    "street": null,
    "office_name": null,
    "office_name_kana": null
  },
  "0031": {
    "postcode": "9110031",
    "prefecture": "福井県",
    "prefecture_kana": "フクイケン",
    "prefecture_code": 18,
    "city": "勝山市",
    "city_kana": "カツヤマシ",
    "town": "長山町",
    "town_kana": "ナガヤマチョウ",
    "street": null,
    "office_name": null,
    "office_name_kana": null
  },
  "0032": {
    "postcode": "9110032",
    "prefecture": "福井県",
    "prefecture_kana": "フクイケン",
    "prefecture_code": 18,
    "city": "勝山市",
    "city_kana": "カツヤマシ",
    "town": "芳野町",
    "town_kana": "ヨシノチョウ",
    "street": null,
    "office_name": null,
    "office_name_kana": null
  },
  "0033": {
    "postcode": "9110033",
    "prefecture": "福井県",
    "prefecture_kana": "フクイケン",
    "prefecture_code": 18,
    "city": "勝山市",
    "city_kana": "カツヤマシ",
    "town": "栄町",
    "town_kana": "サカエマチ",
    "street": null,
    "office_name": null,
    "office_name_kana": null
  },
  "0034": {
    "postcode": "9110034",
    "prefecture": "福井県",
    "prefecture_kana": "フクイケン",
    "prefecture_code": 18,
    "city": "勝山市",
    "city_kana": "カツヤマシ",
    "town": "滝波町",
    "town_kana": "タキナミチョウ",
    "street": null,
    "office_name": null,
    "office_name_kana": null
  },
  "0035": {
    "postcode": "9110035",
    "prefecture": "福井県",
    "prefecture_kana": "フクイケン",
    "prefecture_code": 18,
    "city": "勝山市",
    "city_kana": "カツヤマシ",
    "town": "郡町",
    "town_kana": "コオリマチ",
    "street": null,
    "office_name": null,
    "office_name_kana": null
  },
  "0041": [
    {
      "postcode": "9110041",
      "prefecture": "福井県",
      "prefecture_kana": "フクイケン",
      "prefecture_code": 18,
      "city": "勝山市",
      "city_kana": "カツヤマシ",
      "town": "荒土町北新在家",
      "town_kana": "アラドチョウキタシンザイケ",
      "street": null,
      "office_name": null,
      "office_name_kana": null
    },
    {
      "postcode": "9110041",
      "prefecture": "福井県",
      "prefecture_kana": "フクイケン",
      "prefecture_code": 18,
      "city": "勝山市",
      "city_kana": "カツヤマシ",
      "town": "荒土町清水島",
      "town_kana": "アラドチョウシミズシマ",
      "street": null,
      "office_name": null,
      "office_name_kana": null
    },
    {
      "postcode": "9110041",
      "prefecture": "福井県",
      "prefecture_kana": "フクイケン",
      "prefecture_code": 18,
      "city": "勝山市",
      "city_kana": "カツヤマシ",
      "town": "荒土町布市",
      "town_kana": "アラドチョウヌノイチ",
      "street": null,
      "office_name": null,
      "office_name_kana": null
    }
  ],
  "0042": [
    {
      "postcode": "9110042",
      "prefecture": "福井県",
      "prefecture_kana": "フクイケン",
      "prefecture_code": 18,
      "city": "勝山市",
      "city_kana": "カツヤマシ",
      "town": "荒土町田名部",
      "town_kana": "アラドチョウタナベ",
      "street": null,
      "office_name": null,
      "office_name_kana": null
    },
    {
      "postcode": "9110042",
      "prefecture": "福井県",
      "prefecture_kana": "フクイケン",
      "prefecture_code": 18,
      "city": "勝山市",
      "city_kana": "カツヤマシ",
      "town": "荒土町松田",
      "town_kana": "アラドチョウマツタ",
      "street": null,
      "office_name": null,
      "office_name_kana": null
    }
  ],
  "0043": {
    "postcode": "9110043",
    "prefecture": "福井県",
    "prefecture_kana": "フクイケン",
    "prefecture_code": 18,
    "city": "勝山市",
    "city_kana": "カツヤマシ",
    "town": "荒土町新保",
    "town_kana": "アラドチョウシンボ",
    "street": null,
    "office_name": null,
    "office_name_kana": null
  },
  "0044": {
    "postcode": "9110044",
    "prefecture": "福井県",
    "prefecture_kana": "フクイケン",
    "prefecture_code": 18,
    "city": "勝山市",
    "city_kana": "カツヤマシ",
    "town": "荒土町松ケ崎",
    "town_kana": "アラドチョウマツガサキ",
    "street": null,
    "office_name": null,
    "office_name_kana": null
  },
  "0045": [
    {
      "postcode": "9110045",
      "prefecture": "福井県",
      "prefecture_kana": "フクイケン",
      "prefecture_code": 18,
      "city": "勝山市",
      "city_kana": "カツヤマシ",
      "town": "荒土町伊波",
      "town_kana": "アラドチョウイナミ",
      "street": null,
      "office_name": null,
      "office_name_kana": null
    },
    {
      "postcode": "9110045",
      "prefecture": "福井県",
      "prefecture_kana": "フクイケン",
      "prefecture_code": 18,
      "city": "勝山市",
      "city_kana": "カツヤマシ",
      "town": "荒土町妙金島",
      "town_kana": "アラドチョウミョウキンジマ",
      "street": null,
      "office_name": null,
      "office_name_kana": null
    }
  ],
  "0046": [
    {
      "postcode": "9110046",
      "prefecture": "福井県",
      "prefecture_kana": "フクイケン",
      "prefecture_code": 18,
      "city": "勝山市",
      "city_kana": "カツヤマシ",
      "town": "荒土町中清水",
      "town_kana": "アラドチョウナカシミズ",
      "street": null,
      "office_name": null,
      "office_name_kana": null
    },
    {
      "postcode": "9110046",
      "prefecture": "福井県",
      "prefecture_kana": "フクイケン",
      "prefecture_code": 18,
      "city": "勝山市",
      "city_kana": "カツヤマシ",
      "town": "荒土町堀名",
      "town_kana": "アラドチョウホリメ",
      "street": null,
      "office_name": null,
      "office_name_kana": null
    },
    {
      "postcode": "9110046",
      "prefecture": "福井県",
      "prefecture_kana": "フクイケン",
      "prefecture_code": 18,
      "city": "勝山市",
      "city_kana": "カツヤマシ",
      "town": "荒土町堀名中清水",
      "town_kana": "アラドチョウホリメナカシミズ",
      "street": null,
      "office_name": null,
      "office_name_kana": null
    }
  ],
  "0047": {
    "postcode": "9110047",
    "prefecture": "福井県",
    "prefecture_kana": "フクイケン",
    "prefecture_code": 18,
    "city": "勝山市",
    "city_kana": "カツヤマシ",
    "town": "荒土町北宮地",
    "town_kana": "アラドチョウキタミヤジ",
    "street": null,
    "office_name": null,
    "office_name_kana": null
  },
  "0048": [
    {
      "postcode": "9110048",
      "prefecture": "福井県",
      "prefecture_kana": "フクイケン",
      "prefecture_code": 18,
      "city": "勝山市",
      "city_kana": "カツヤマシ",
      "town": "荒土町境",
      "town_kana": "アラドチョウサカイ",
      "street": null,
      "office_name": null,
      "office_name_kana": null
    },
    {
      "postcode": "9110048",
      "prefecture": "福井県",
      "prefecture_kana": "フクイケン",
      "prefecture_code": 18,
      "city": "勝山市",
      "city_kana": "カツヤマシ",
      "town": "荒土町新道",
      "town_kana": "アラドチョウシンドウ",
      "street": null,
      "office_name": null,
      "office_name_kana": null
    },
    {
      "postcode": "9110048",
      "prefecture": "福井県",
      "prefecture_kana": "フクイケン",
      "prefecture_code": 18,
      "city": "勝山市",
      "city_kana": "カツヤマシ",
      "town": "荒土町戸倉",
      "town_kana": "アラドチョウトクラ",
      "street": null,
      "office_name": null,
      "office_name_kana": null
    },
    {
      "postcode": "9110048",
      "prefecture": "福井県",
      "prefecture_kana": "フクイケン",
      "prefecture_code": 18,
      "city": "勝山市",
      "city_kana": "カツヤマシ",
      "town": "荒土町西ケ原",
      "town_kana": "アラドチョウニシガハラ",
      "street": null,
      "office_name": null,
      "office_name_kana": null
    },
    {
      "postcode": "9110048",
      "prefecture": "福井県",
      "prefecture_kana": "フクイケン",
      "prefecture_code": 18,
      "city": "勝山市",
      "city_kana": "カツヤマシ",
      "town": "荒土町別所",
      "town_kana": "アラドチョウベッショ",
      "street": null,
      "office_name": null,
      "office_name_kana": null
    },
    {
      "postcode": "9110048",
      "prefecture": "福井県",
      "prefecture_kana": "フクイケン",
      "prefecture_code": 18,
      "city": "勝山市",
      "city_kana": "カツヤマシ",
      "town": "荒土町細野",
      "town_kana": "アラドチョウホソノ",
      "street": null,
      "office_name": null,
      "office_name_kana": null
    },
    {
      "postcode": "9110048",
      "prefecture": "福井県",
      "prefecture_kana": "フクイケン",
      "prefecture_code": 18,
      "city": "勝山市",
      "city_kana": "カツヤマシ",
      "town": "荒土町細野口",
      "town_kana": "アラドチョウホソノグチ",
      "street": null,
      "office_name": null,
      "office_name_kana": null
    }
  ],
  "0051": [
    {
      "postcode": "9110051",
      "prefecture": "福井県",
      "prefecture_kana": "フクイケン",
      "prefecture_code": 18,
      "city": "勝山市",
      "city_kana": "カツヤマシ",
      "town": "北郷町新町",
      "town_kana": "キタゴウチョウアラマチ",
      "street": null,
      "office_name": null,
      "office_name_kana": null
    },
    {
      "postcode": "9110051",
      "prefecture": "福井県",
      "prefecture_kana": "フクイケン",
      "prefecture_code": 18,
      "city": "勝山市",
      "city_kana": "カツヤマシ",
      "town": "北郷町志比原",
      "town_kana": "キタゴウチョウシイワラ",
      "street": null,
      "office_name": null,
      "office_name_kana": null
    },
    {
      "postcode": "9110051",
      "prefecture": "福井県",
      "prefecture_kana": "フクイケン",
      "prefecture_code": 18,
      "city": "勝山市",
      "city_kana": "カツヤマシ",
      "town": "北郷町檜曽谷",
      "town_kana": "キタゴウチョウヒソダニ",
      "street": null,
      "office_name": null,
      "office_name_kana": null
    }
  ],
  "0052": {
    "postcode": "9110052",
    "prefecture": "福井県",
    "prefecture_kana": "フクイケン",
    "prefecture_code": 18,
    "city": "勝山市",
    "city_kana": "カツヤマシ",
    "town": "北郷町西妙金島",
    "town_kana": "キタゴウチョウニシミョウキンジマ",
    "street": null,
    "office_name": null,
    "office_name_kana": null
  },
  "0053": [
    {
      "postcode": "9110053",
      "prefecture": "福井県",
      "prefecture_kana": "フクイケン",
      "prefecture_code": 18,
      "city": "勝山市",
      "city_kana": "カツヤマシ",
      "town": "北郷町上森川",
      "town_kana": "キタゴウチョウカミモリカワ",
      "street": null,
      "office_name": null,
      "office_name_kana": null
    },
    {
      "postcode": "9110053",
      "prefecture": "福井県",
      "prefecture_kana": "フクイケン",
      "prefecture_code": 18,
      "city": "勝山市",
      "city_kana": "カツヤマシ",
      "town": "北郷町下森川",
      "town_kana": "キタゴウチョウシモモリカワ",
      "street": null,
      "office_name": null,
      "office_name_kana": null
    },
    {
      "postcode": "9110053",
      "prefecture": "福井県",
      "prefecture_kana": "フクイケン",
      "prefecture_code": 18,
      "city": "勝山市",
      "city_kana": "カツヤマシ",
      "town": "北郷町森川",
      "town_kana": "キタゴウチョウモリカワ",
      "street": null,
      "office_name": null,
      "office_name_kana": null
    }
  ],
  "0054": {
    "postcode": "9110054",
    "prefecture": "福井県",
    "prefecture_kana": "フクイケン",
    "prefecture_code": 18,
    "city": "勝山市",
    "city_kana": "カツヤマシ",
    "town": "北郷町東野",
    "town_kana": "キタゴウチョウヒガシノ",
    "street": null,
    "office_name": null,
    "office_name_kana": null
  },
  "0055": [
    {
      "postcode": "9110055",
      "prefecture": "福井県",
      "prefecture_kana": "フクイケン",
      "prefecture_code": 18,
      "city": "勝山市",
      "city_kana": "カツヤマシ",
      "town": "北郷町伊知地",
      "town_kana": "キタゴウチョウイジチ",
      "street": null,
      "office_name": null,
      "office_name_kana": null
    },
    {
      "postcode": "9110055",
      "prefecture": "福井県",
      "prefecture_kana": "フクイケン",
      "prefecture_code": 18,
      "city": "勝山市",
      "city_kana": "カツヤマシ",
      "town": "北郷町岩屋",
      "town_kana": "キタゴウチョウイワヤ",
      "street": null,
      "office_name": null,
      "office_name_kana": null
    },
    {
      "postcode": "9110055",
      "prefecture": "福井県",
      "prefecture_kana": "フクイケン",
      "prefecture_code": 18,
      "city": "勝山市",
      "city_kana": "カツヤマシ",
      "town": "北郷町上野",
      "town_kana": "キタゴウチョウウワノ",
      "street": null,
      "office_name": null,
      "office_name_kana": null
    }
  ],
  "0056": {
    "postcode": "9110056",
    "prefecture": "福井県",
    "prefecture_kana": "フクイケン",
    "prefecture_code": 18,
    "city": "勝山市",
    "city_kana": "カツヤマシ",
    "town": "北郷町坂東島",
    "town_kana": "キタゴウチョウバンドウジマ",
    "street": null,
    "office_name": null,
    "office_name_kana": null
  },
  "0801": {
    "postcode": "9110801",
    "prefecture": "福井県",
    "prefecture_kana": "フクイケン",
    "prefecture_code": 18,
    "city": "勝山市",
    "city_kana": "カツヤマシ",
    "town": "沢町",
    "town_kana": "サワマチ",
    "street": null,
    "office_name": null,
    "office_name_kana": null
  },
  "0802": {
    "postcode": "9110802",
    "prefecture": "福井県",
    "prefecture_kana": "フクイケン",
    "prefecture_code": 18,
    "city": "勝山市",
    "city_kana": "カツヤマシ",
    "town": "昭和町",
    "town_kana": "ショウワマチ",
    "street": null,
    "office_name": null,
    "office_name_kana": null
  },
  "0803": {
    "postcode": "9110803",
    "prefecture": "福井県",
    "prefecture_kana": "フクイケン",
    "prefecture_code": 18,
    "city": "勝山市",
    "city_kana": "カツヤマシ",
    "town": "旭町",
    "town_kana": "アサヒマチ",
    "street": null,
    "office_name": null,
    "office_name_kana": null
  },
  "0804": {
    "postcode": "9110804",
    "prefecture": "福井県",
    "prefecture_kana": "フクイケン",
    "prefecture_code": 18,
    "city": "勝山市",
    "city_kana": "カツヤマシ",
    "town": "元町",
    "town_kana": "モトマチ",
    "street": null,
    "office_name": null,
    "office_name_kana": null
  },
  "0805": {
    "postcode": "9110805",
    "prefecture": "福井県",
    "prefecture_kana": "フクイケン",
    "prefecture_code": 18,
    "city": "勝山市",
    "city_kana": "カツヤマシ",
    "town": "立川町",
    "town_kana": "タテカワチョウ",
    "street": null,
    "office_name": null,
    "office_name_kana": null
  },
  "0806": {
    "postcode": "9110806",
    "prefecture": "福井県",
    "prefecture_kana": "フクイケン",
    "prefecture_code": 18,
    "city": "勝山市",
    "city_kana": "カツヤマシ",
    "town": "本町",
    "town_kana": "ホンマチ",
    "street": null,
    "office_name": null,
    "office_name_kana": null
  },
  "0811": [
    {
      "postcode": "9110811",
      "prefecture": "福井県",
      "prefecture_kana": "フクイケン",
      "prefecture_code": 18,
      "city": "勝山市",
      "city_kana": "カツヤマシ",
      "town": "片瀬",
      "town_kana": "カタセ",
      "street": null,
      "office_name": null,
      "office_name_kana": null
    },
    {
      "postcode": "9110811",
      "prefecture": "福井県",
      "prefecture_kana": "フクイケン",
      "prefecture_code": 18,
      "city": "勝山市",
      "city_kana": "カツヤマシ",
      "town": "片瀬町",
      "town_kana": "カタセチョウ",
      "street": null,
      "office_name": null,
      "office_name_kana": null
    }
  ],
  "0812": {
    "postcode": "9110812",
    "prefecture": "福井県",
    "prefecture_kana": "フクイケン",
    "prefecture_code": 18,
    "city": "勝山市",
    "city_kana": "カツヤマシ",
    "town": "猪野",
    "town_kana": "イノ",
    "street": null,
    "office_name": null,
    "office_name_kana": null
  },
  "0813": {
    "postcode": "9110813",
    "prefecture": "福井県",
    "prefecture_kana": "フクイケン",
    "prefecture_code": 18,
    "city": "勝山市",
    "city_kana": "カツヤマシ",
    "town": "猪野口",
    "town_kana": "イノクチ",
    "street": null,
    "office_name": null,
    "office_name_kana": null
  },
  "0814": {
    "postcode": "9110814",
    "prefecture": "福井県",
    "prefecture_kana": "フクイケン",
    "prefecture_code": 18,
    "city": "勝山市",
    "city_kana": "カツヤマシ",
    "town": "若猪野",
    "town_kana": "ワカイノ",
    "street": null,
    "office_name": null,
    "office_name_kana": null
  },
  "0815": [
    {
      "postcode": "9110815",
      "prefecture": "福井県",
      "prefecture_kana": "フクイケン",
      "prefecture_code": 18,
      "city": "勝山市",
      "city_kana": "カツヤマシ",
      "town": "上高島",
      "town_kana": "カミタカジマ",
      "street": null,
      "office_name": null,
      "office_name_kana": null
    },
    {
      "postcode": "9110815",
      "prefecture": "福井県",
      "prefecture_kana": "フクイケン",
      "prefecture_code": 18,
      "city": "勝山市",
      "city_kana": "カツヤマシ",
      "town": "北市",
      "town_kana": "キタイチ",
      "street": null,
      "office_name": null,
      "office_name_kana": null
    },
    {
      "postcode": "9110815",
      "prefecture": "福井県",
      "prefecture_kana": "フクイケン",
      "prefecture_code": 18,
      "city": "勝山市",
      "city_kana": "カツヤマシ",
      "town": "下高島",
      "town_kana": "シモタカジマ",
      "street": null,
      "office_name": null,
      "office_name_kana": null
    },
    {
      "postcode": "9110815",
      "prefecture": "福井県",
      "prefecture_kana": "フクイケン",
      "prefecture_code": 18,
      "city": "勝山市",
      "city_kana": "カツヤマシ",
      "town": "高島",
      "town_kana": "タカジマ",
      "street": null,
      "office_name": null,
      "office_name_kana": null
    },
    {
      "postcode": "9110815",
      "prefecture": "福井県",
      "prefecture_kana": "フクイケン",
      "prefecture_code": 18,
      "city": "勝山市",
      "city_kana": "カツヤマシ",
      "town": "西高島",
      "town_kana": "ニシタカジマ",
      "street": null,
      "office_name": null,
      "office_name_kana": null
    }
  ],
  "0816": [
    {
      "postcode": "9110816",
      "prefecture": "福井県",
      "prefecture_kana": "フクイケン",
      "prefecture_code": 18,
      "city": "勝山市",
      "city_kana": "カツヤマシ",
      "town": "猪野毛屋",
      "town_kana": "イノケヤ",
      "street": null,
      "office_name": null,
      "office_name_kana": null
    },
    {
      "postcode": "9110816",
      "prefecture": "福井県",
      "prefecture_kana": "フクイケン",
      "prefecture_code": 18,
      "city": "勝山市",
      "city_kana": "カツヤマシ",
      "town": "毛屋",
      "town_kana": "ケヤ",
      "street": null,
      "office_name": null,
      "office_name_kana": null
    },
    {
      "postcode": "9110816",
      "prefecture": "福井県",
      "prefecture_kana": "フクイケン",
      "prefecture_code": 18,
      "city": "勝山市",
      "city_kana": "カツヤマシ",
      "town": "毛屋町",
      "town_kana": "ケヤチョウ",
      "street": null,
      "office_name": null,
      "office_name_kana": null
    },
    {
      "postcode": "9110816",
      "prefecture": "福井県",
      "prefecture_kana": "フクイケン",
      "prefecture_code": 18,
      "city": "勝山市",
      "city_kana": "カツヤマシ",
      "town": "下毛屋",
      "town_kana": "シモケヤ",
      "street": null,
      "office_name": null,
      "office_name_kana": null
    }
  ],
  "0817": {
    "postcode": "9110817",
    "prefecture": "福井県",
    "prefecture_kana": "フクイケン",
    "prefecture_code": 18,
    "city": "勝山市",
    "city_kana": "カツヤマシ",
    "town": "旭毛屋町",
    "town_kana": "アサヒケヤチョウ",
    "street": null,
    "office_name": null,
    "office_name_kana": null
  },
  "0821": {
    "postcode": "9110821",
    "prefecture": "福井県",
    "prefecture_kana": "フクイケン",
    "prefecture_code": 18,
    "city": "勝山市",
    "city_kana": "カツヤマシ",
    "town": "平泉寺町岡横江",
    "town_kana": "ヘイセンジチョウオカヨコエ",
    "street": null,
    "office_name": null,
    "office_name_kana": null
  },
  "0822": [
    {
      "postcode": "9110822",
      "prefecture": "福井県",
      "prefecture_kana": "フクイケン",
      "prefecture_code": 18,
      "city": "勝山市",
      "city_kana": "カツヤマシ",
      "town": "平泉寺町神野",
      "town_kana": "ヘイセンジチョウシンノ",
      "street": null,
      "office_name": null,
      "office_name_kana": null
    },
    {
      "postcode": "9110822",
      "prefecture": "福井県",
      "prefecture_kana": "フクイケン",
      "prefecture_code": 18,
      "city": "勝山市",
      "city_kana": "カツヤマシ",
      "town": "平泉寺町平泉寺",
      "town_kana": "ヘイセンジチョウヘイセンジ",
      "street": null,
      "office_name": null,
      "office_name_kana": null
    }
  ],
  "0823": {
    "postcode": "9110823",
    "prefecture": "福井県",
    "prefecture_kana": "フクイケン",
    "prefecture_code": 18,
    "city": "勝山市",
    "city_kana": "カツヤマシ",
    "town": "平泉寺町赤尾",
    "town_kana": "ヘイセンジチョウアカオ",
    "street": null,
    "office_name": null,
    "office_name_kana": null
  },
  "0824": [
    {
      "postcode": "9110824",
      "prefecture": "福井県",
      "prefecture_kana": "フクイケン",
      "prefecture_code": 18,
      "city": "勝山市",
      "city_kana": "カツヤマシ",
      "town": "平泉寺町池ケ原",
      "town_kana": "ヘイセンジチョウイケガハラ",
      "street": null,
      "office_name": null,
      "office_name_kana": null
    },
    {
      "postcode": "9110824",
      "prefecture": "福井県",
      "prefecture_kana": "フクイケン",
      "prefecture_code": 18,
      "city": "勝山市",
      "city_kana": "カツヤマシ",
      "town": "平泉寺町大矢谷",
      "town_kana": "ヘイセンジチョウオオヤダニ",
      "street": null,
      "office_name": null,
      "office_name_kana": null
    },
    {
      "postcode": "9110824",
      "prefecture": "福井県",
      "prefecture_kana": "フクイケン",
      "prefecture_code": 18,
      "city": "勝山市",
      "city_kana": "カツヤマシ",
      "town": "平泉寺町小矢谷",
      "town_kana": "ヘイセンジチョウコヤダニ",
      "street": null,
      "office_name": null,
      "office_name_kana": null
    }
  ],
  "0825": [
    {
      "postcode": "9110825",
      "prefecture": "福井県",
      "prefecture_kana": "フクイケン",
      "prefecture_code": 18,
      "city": "勝山市",
      "city_kana": "カツヤマシ",
      "town": "平泉寺町岩ケ野",
      "town_kana": "ヘイセンジチョウイワガノ",
      "street": null,
      "office_name": null,
      "office_name_kana": null
    },
    {
      "postcode": "9110825",
      "prefecture": "福井県",
      "prefecture_kana": "フクイケン",
      "prefecture_code": 18,
      "city": "勝山市",
      "city_kana": "カツヤマシ",
      "town": "平泉寺町上野",
      "town_kana": "ヘイセンジチョウウエノ",
      "street": null,
      "office_name": null,
      "office_name_kana": null
    }
  ],
  "0826": {
    "postcode": "9110826",
    "prefecture": "福井県",
    "prefecture_kana": "フクイケン",
    "prefecture_code": 18,
    "city": "勝山市",
    "city_kana": "カツヤマシ",
    "town": "平泉寺町壁倉",
    "town_kana": "ヘイセンジチョウカベクラ",
    "street": null,
    "office_name": null,
    "office_name_kana": null
  },
  "0827": {
    "postcode": "9110827",
    "prefecture": "福井県",
    "prefecture_kana": "フクイケン",
    "prefecture_code": 18,
    "city": "勝山市",
    "city_kana": "カツヤマシ",
    "town": "平泉寺町笹尾",
    "town_kana": "ヘイセンジチョウササオ",
    "street": null,
    "office_name": null,
    "office_name_kana": null
  },
  "0828": [
    {
      "postcode": "9110828",
      "prefecture": "福井県",
      "prefecture_kana": "フクイケン",
      "prefecture_code": 18,
      "city": "勝山市",
      "city_kana": "カツヤマシ",
      "town": "平泉寺町大渡",
      "town_kana": "ヘイセンジチョウオオワタリ",
      "street": null,
      "office_name": null,
      "office_name_kana": null
    },
    {
      "postcode": "9110828",
      "prefecture": "福井県",
      "prefecture_kana": "フクイケン",
      "prefecture_code": 18,
      "city": "勝山市",
      "city_kana": "カツヤマシ",
      "town": "平泉寺町経塚",
      "town_kana": "ヘイセンジチョウキョウヅカ",
      "street": null,
      "office_name": null,
      "office_name_kana": null
    }
  ],
  "0831": [
    {
      "postcode": "9110831",
      "prefecture": "福井県",
      "prefecture_kana": "フクイケン",
      "prefecture_code": 18,
      "city": "勝山市",
      "city_kana": "カツヤマシ",
      "town": "遅羽町千代田",
      "town_kana": "オソワチョウチヨダ",
      "street": null,
      "office_name": null,
      "office_name_kana": null
    },
    {
      "postcode": "9110831",
      "prefecture": "福井県",
      "prefecture_kana": "フクイケン",
      "prefecture_code": 18,
      "city": "勝山市",
      "city_kana": "カツヤマシ",
      "town": "遅羽町中島",
      "town_kana": "オソワチョウナカジマ",
      "street": null,
      "office_name": null,
      "office_name_kana": null
    },
    {
      "postcode": "9110831",
      "prefecture": "福井県",
      "prefecture_kana": "フクイケン",
      "prefecture_code": 18,
      "city": "勝山市",
      "city_kana": "カツヤマシ",
      "town": "遅羽町比島",
      "town_kana": "オソワチョウヒシマ",
      "street": null,
      "office_name": null,
      "office_name_kana": null
    }
  ],
  "0832": {
    "postcode": "9110832",
    "prefecture": "福井県",
    "prefecture_kana": "フクイケン",
    "prefecture_code": 18,
    "city": "勝山市",
    "city_kana": "カツヤマシ",
    "town": "遅羽町蓬生",
    "town_kana": "オソワチョウヨモギ",
    "street": null,
    "office_name": null,
    "office_name_kana": null
  },
  "0833": {
    "postcode": "9110833",
    "prefecture": "福井県",
    "prefecture_kana": "フクイケン",
    "prefecture_code": 18,
    "city": "勝山市",
    "city_kana": "カツヤマシ",
    "town": "遅羽町北山",
    "town_kana": "オソワチョウキタヤマ",
    "street": null,
    "office_name": null,
    "office_name_kana": null
  },
  "0834": [
    {
      "postcode": "9110834",
      "prefecture": "福井県",
      "prefecture_kana": "フクイケン",
      "prefecture_code": 18,
      "city": "勝山市",
      "city_kana": "カツヤマシ",
      "town": "遅羽町大袋",
      "town_kana": "オソワチョウオオブクロ",
      "street": null,
      "office_name": null,
      "office_name_kana": null
    },
    {
      "postcode": "9110834",
      "prefecture": "福井県",
      "prefecture_kana": "フクイケン",
      "prefecture_code": 18,
      "city": "勝山市",
      "city_kana": "カツヤマシ",
      "town": "遅羽町新道",
      "town_kana": "オソワチョウシンドウ",
      "street": null,
      "office_name": null,
      "office_name_kana": null
    }
  ],
  "0835": {
    "postcode": "9110835",
    "prefecture": "福井県",
    "prefecture_kana": "フクイケン",
    "prefecture_code": 18,
    "city": "勝山市",
    "city_kana": "カツヤマシ",
    "town": "遅羽町ほう崎",
    "town_kana": "オソワチョウホウキ",
    "street": null,
    "office_name": null,
    "office_name_kana": null
  },
  "0836": {
    "postcode": "9110836",
    "prefecture": "福井県",
    "prefecture_kana": "フクイケン",
    "prefecture_code": 18,
    "city": "勝山市",
    "city_kana": "カツヤマシ",
    "town": "遅羽町下荒井",
    "town_kana": "オソワチョウシモアライ",
    "street": null,
    "office_name": null,
    "office_name_kana": null
  },
  "0841": {
    "postcode": "9110841",
    "prefecture": "福井県",
    "prefecture_kana": "フクイケン",
    "prefecture_code": 18,
    "city": "勝山市",
    "city_kana": "カツヤマシ",
    "town": "鹿谷町発坂",
    "town_kana": "シカダニチョウホッサカ",
    "street": null,
    "office_name": null,
    "office_name_kana": null
  },
  "0842": {
    "postcode": "9110842",
    "prefecture": "福井県",
    "prefecture_kana": "フクイケン",
    "prefecture_code": 18,
    "city": "勝山市",
    "city_kana": "カツヤマシ",
    "town": "鹿谷町志田",
    "town_kana": "シカダニチョウシダ",
    "street": null,
    "office_name": null,
    "office_name_kana": null
  },
  "0843": [
    {
      "postcode": "9110843",
      "prefecture": "福井県",
      "prefecture_kana": "フクイケン",
      "prefecture_code": 18,
      "city": "勝山市",
      "city_kana": "カツヤマシ",
      "town": "鹿谷町杉俣",
      "town_kana": "シカダニチョウスギマタ",
      "street": null,
      "office_name": null,
      "office_name_kana": null
    },
    {
      "postcode": "9110843",
      "prefecture": "福井県",
      "prefecture_kana": "フクイケン",
      "prefecture_code": 18,
      "city": "勝山市",
      "city_kana": "カツヤマシ",
      "town": "鹿谷町本郷",
      "town_kana": "シカダニチョウホンゴウ",
      "street": null,
      "office_name": null,
      "office_name_kana": null
    }
  ],
  "0844": [
    {
      "postcode": "9110844",
      "prefecture": "福井県",
      "prefecture_kana": "フクイケン",
      "prefecture_code": 18,
      "city": "勝山市",
      "city_kana": "カツヤマシ",
      "town": "鹿谷町東遅羽口",
      "town_kana": "シカダニチョウヒガシオソワグチ",
      "street": null,
      "office_name": null,
      "office_name_kana": null
    },
    {
      "postcode": "9110844",
      "prefecture": "福井県",
      "prefecture_kana": "フクイケン",
      "prefecture_code": 18,
      "city": "勝山市",
      "city_kana": "カツヤマシ",
      "town": "鹿谷町西遅羽口",
      "town_kana": "シカダニチョウニシオソワグチ",
      "street": null,
      "office_name": null,
      "office_name_kana": null
    }
  ],
  "0845": {
    "postcode": "9110845",
    "prefecture": "福井県",
    "prefecture_kana": "フクイケン",
    "prefecture_code": 18,
    "city": "勝山市",
    "city_kana": "カツヤマシ",
    "town": "鹿谷町矢戸口",
    "town_kana": "シカダニチョウヤトグチ",
    "street": null,
    "office_name": null,
    "office_name_kana": null
  },
  "0846": {
    "postcode": "9110846",
    "prefecture": "福井県",
    "prefecture_kana": "フクイケン",
    "prefecture_code": 18,
    "city": "勝山市",
    "city_kana": "カツヤマシ",
    "town": "鹿谷町北西俣",
    "town_kana": "シカダニチョウキタニシマタ",
    "street": null,
    "office_name": null,
    "office_name_kana": null
  },
  "0847": {
    "postcode": "9110847",
    "prefecture": "福井県",
    "prefecture_kana": "フクイケン",
    "prefecture_code": 18,
    "city": "勝山市",
    "city_kana": "カツヤマシ",
    "town": "鹿谷町西光寺",
    "town_kana": "シカダニチョウサイコウジ",
    "street": null,
    "office_name": null,
    "office_name_kana": null
  },
  "0848": [
    {
      "postcode": "9110848",
      "prefecture": "福井県",
      "prefecture_kana": "フクイケン",
      "prefecture_code": 18,
      "city": "勝山市",
      "city_kana": "カツヤマシ",
      "town": "鹿谷町出村",
      "town_kana": "シカダニチョウデムラ",
      "street": null,
      "office_name": null,
      "office_name_kana": null
    },
    {
      "postcode": "9110848",
      "prefecture": "福井県",
      "prefecture_kana": "フクイケン",
      "prefecture_code": 18,
      "city": "勝山市",
      "city_kana": "カツヤマシ",
      "town": "鹿谷町保田",
      "town_kana": "シカダニチョウホタ",
      "street": null,
      "office_name": null,
      "office_name_kana": null
    },
    {
      "postcode": "9110848",
      "prefecture": "福井県",
      "prefecture_kana": "フクイケン",
      "prefecture_code": 18,
      "city": "勝山市",
      "city_kana": "カツヤマシ",
      "town": "鹿谷町保田出村",
      "town_kana": "シカダニチョウホタデムラ",
      "street": null,
      "office_name": null,
      "office_name_kana": null
    }
  ],
  "8501": {
    "postcode": "9118501",
    "prefecture": "福井県",
    "prefecture_kana": "フクイケン",
    "prefecture_code": 18,
    "city": "勝山市",
    "city_kana": "カツヤマシ",
    "town": "元町",
    "town_kana": "モトマチ",
    "street": "１丁目１−１",
    "office_name": "勝山市役所",
    "office_name_kana": "カツヤマシヤクシヨ"
  },
  "8510": {
    "postcode": "9118510",
    "prefecture": "福井県",
    "prefecture_kana": "フクイケン",
    "prefecture_code": 18,
    "city": "勝山市",
    "city_kana": "カツヤマシ",
    "town": "昭和町",
    "town_kana": "ショウワマチ",
    "street": "１丁目１０−１８",
    "office_name": "ケイテー・テクシーノ　株式会社",
    "office_name_kana": "ケイテ-・テクシ-ノ カブシキガイシヤ"
  },
  "8531": {
    "postcode": "9118531",
    "prefecture": "福井県",
    "prefecture_kana": "フクイケン",
    "prefecture_code": 18,
    "city": "勝山市",
    "city_kana": "カツヤマシ",
    "town": "旭町",
    "town_kana": "アサヒマチ",
    "street": "１丁目１−５６（勝山郵便局私書箱第３号）",
    "office_name": "松文産業　株式会社",
    "office_name_kana": "マツブンサンギヨウ カブシキガイシヤ"
  },
  "8540": {
    "postcode": "9118540",
    "prefecture": "福井県",
    "prefecture_kana": "フクイケン",
    "prefecture_code": 18,
    "city": "勝山市",
    "city_kana": "カツヤマシ",
    "town": "昭和町",
    "town_kana": "ショウワマチ",
    "street": "２丁目３−１",
    "office_name": "福井県立　勝山高等学校",
    "office_name_kana": "フクイケンリツ カツヤマコウトウガツコウ"
  },
  "8555": {
    "postcode": "9118555",
    "prefecture": "福井県",
    "prefecture_kana": "フクイケン",
    "prefecture_code": 18,
    "city": "勝山市",
    "city_kana": "カツヤマシ",
    "town": "猪野口",
    "town_kana": "イノクチ",
    "street": "３７字２番１号（勝山郵便局私書箱第４号）",
    "office_name": "勝山ファーマ　株式会社",
    "office_name_kana": "カツヤマフア-マ カブシキガイシヤ"
  },
  "8558": {
    "postcode": "9118558",
    "prefecture": "福井県",
    "prefecture_kana": "フクイケン",
    "prefecture_code": 18,
    "city": "勝山市",
    "city_kana": "カツヤマシ",
    "town": "長山町",
    "town_kana": "ナガヤマチョウ",
    "street": "２丁目６−２１",
    "office_name": "福井社会保険病院",
    "office_name_kana": "フクイシヤカイホケンビヨウイン"
  },
  "8585": {
    "postcode": "9118585",
    "prefecture": "福井県",
    "prefecture_kana": "フクイケン",
    "prefecture_code": 18,
    "city": "勝山市",
    "city_kana": "カツヤマシ",
    "town": "沢町",
    "town_kana": "サワマチ",
    "street": "１丁目３番１号",
    "office_name": "株式会社　一本義久保本店",
    "office_name_kana": "カブシキガイシヤ イツポンギクボホンテン"
  },
  "8601": {
    "postcode": "9118601",
    "prefecture": "福井県",
    "prefecture_kana": "フクイケン",
    "prefecture_code": 18,
    "city": "勝山市",
    "city_kana": "カツヤマシ",
    "town": "村岡町寺尾",
    "town_kana": "ムロコチョウテラオ",
    "street": "第５１号１１番地",
    "office_name": "福井県立　恐竜博物館",
    "office_name_kana": "フクイケンリツ キヨウリユウハクブツカン"
  }
}