{
  "0000": {
    "postcode": "9120000",
    "prefecture": "福井県",
    "prefecture_kana": "フクイケン",
    "prefecture_code": 18,
    "city": "大野市",
    "city_kana": "オオノシ",
    "town": "",
    "town_kana": "",
    "street": null,
    "office_name": null,
    "office_name_kana": null
  },
  "0001": {
    "postcode": "9120001",
    "prefecture": "福井県",
    "prefecture_kana": "フクイケン",
    "prefecture_code": 18,
    "city": "大野市",
    "city_kana": "オオノシ",
    "town": "大矢戸",
    "town_kana": "オオヤト",
    "street": null,
    "office_name": null,
    "office_name_kana": null
  },
  "0002": {
    "postcode": "9120002",
    "prefecture": "福井県",
    "prefecture_kana": "フクイケン",
    "prefecture_code": 18,
    "city": "大野市",
    "city_kana": "オオノシ",
    "town": "小矢戸",
    "town_kana": "コヤト",
    "street": null,
    "office_name": null,
    "office_name_kana": null
  },
  "0003": [
    {
      "postcode": "9120003",
      "prefecture": "福井県",
      "prefecture_kana": "フクイケン",
      "prefecture_code": 18,
      "city": "大野市",
      "city_kana": "オオノシ",
      "town": "西大月",
      "town_kana": "ニシオオツキ",
      "street": null,
      "office_name": null,
      "office_name_kana": null
    },
    {
      "postcode": "9120003",
      "prefecture": "福井県",
      "prefecture_kana": "フクイケン",
      "prefecture_code": 18,
      "city": "大野市",
      "city_kana": "オオノシ",
      "town": "東大月",
      "town_kana": "ヒガシオオツキ",
      "street": null,
      "office_name": null,
      "office_name_kana": null
    }
  ],
  "0004": {
    "postcode": "9120004",
    "prefecture": "福井県",
    "prefecture_kana": "フクイケン",
    "prefecture_code": 18,
    "city": "大野市",
    "city_kana": "オオノシ",
    "town": "中津川",
    "town_kana": "ナカツガワ",
    "street": null,
    "office_name": null,
    "office_name_kana": null
  },
  "0005": {
    "postcode": "9120005",
    "prefecture": "福井県",
    "prefecture_kana": "フクイケン",
    "prefecture_code": 18,
    "city": "大野市",
    "city_kana": "オオノシ",
    "town": "太田",
    "town_kana": "オオタ",
    "street": null,
    "office_name": null,
    "office_name_kana": null
  },
  "0006": {
    "postcode": "9120006",
    "prefecture": "福井県",
    "prefecture_kana": "フクイケン",
    "prefecture_code": 18,
    "city": "大野市",
    "city_kana": "オオノシ",
    "town": "庄林",
    "town_kana": "ショウバヤシ",
    "street": null,
    "office_name": null,
    "office_name_kana": null
  },
  "0007": {
    "postcode": "9120007",
    "prefecture": "福井県",
    "prefecture_kana": "フクイケン",
    "prefecture_code": 18,
    "city": "大野市",
    "city_kana": "オオノシ",
    "town": "西市",
    "town_kana": "ニシイチ",
    "street": null,
    "office_name": null,
    "office_name_kana": null
  },
  "0008": {
    "postcode": "9120008",
    "prefecture": "福井県",
    "prefecture_kana": "フクイケン",
    "prefecture_code": 18,
    "city": "大野市",
    "city_kana": "オオノシ",
    "town": "矢",
    "town_kana": "ヤ",
    "street": null,
    "office_name": null,
    "office_name_kana": null
  },
  "0011": {
    "postcode": "9120011",
    "prefecture": "福井県",
    "prefecture_kana": "フクイケン",
    "prefecture_code": 18,
    "city": "大野市",
    "city_kana": "オオノシ",
    "town": "南新在家",
    "town_kana": "ミナミシンザイケ",
    "street": null,
    "office_name": null,
    "office_name_kana": null
  },
  "0012": {
    "postcode": "9120012",
    "prefecture": "福井県",
    "prefecture_kana": "フクイケン",
    "prefecture_code": 18,
    "city": "大野市",
    "city_kana": "オオノシ",
    "town": "横枕",
    "town_kana": "ヨコマクラ",
    "street": null,
    "office_name": null,
    "office_name_kana": null
  },
  "0013": {
    "postcode": "9120013",
    "prefecture": "福井県",
    "prefecture_kana": "フクイケン",
    "prefecture_code": 18,
    "city": "大野市",
    "city_kana": "オオノシ",
    "town": "堂本",
    "town_kana": "ドウモト",
    "street": null,
    "office_name": null,
    "office_name_kana": null
  },
  "0014": {
    "postcode": "9120014",
    "prefecture": "福井県",
    "prefecture_kana": "フクイケン",
    "prefecture_code": 18,
    "city": "大野市",
    "city_kana": "オオノシ",
    "town": "中保",
    "town_kana": "ナカホ",
    "street": null,
    "office_name": null,
    "office_name_kana": null
  },
  "0015": {
    "postcode": "9120015",
    "prefecture": "福井県",
    "prefecture_kana": "フクイケン",
    "prefecture_code": 18,
    "city": "大野市",
    "city_kana": "オオノシ",
    "town": "中挾",
    "town_kana": "ナカバサミ",
    "street": null,
    "office_name": null,
    "office_name_kana": null
  },
  "0016": {
    "postcode": "9120016",
    "prefecture": "福井県",
    "prefecture_kana": "フクイケン",
    "prefecture_code": 18,
    "city": "大野市",
    "city_kana": "オオノシ",
    "town": "友江",
    "town_kana": "トモエ",
    "street": null,
    "office_name": null,
    "office_name_kana": null
  },
  "0017": {
    "postcode": "9120017",
    "prefecture": "福井県",
    "prefecture_kana": "フクイケン",
    "prefecture_code": 18,
    "city": "大野市",
    "city_kana": "オオノシ",
    "town": "東中野",
    "town_kana": "ヒガシナカノ",
    "street": null,
    "office_name": null,
    "office_name_kana": null
  },
  "0021": [
    {
      "postcode": "9120021",
      "prefecture": "福井県",
      "prefecture_kana": "フクイケン",
      "prefecture_code": 18,
      "city": "大野市",
      "city_kana": "オオノシ",
      "town": "中野",
      "town_kana": "ナカノ",
      "street": null,
      "office_name": null,
      "office_name_kana": null
    },
    {
      "postcode": "9120021",
      "prefecture": "福井県",
      "prefecture_kana": "フクイケン",
      "prefecture_code": 18,
      "city": "大野市",
      "city_kana": "オオノシ",
      "town": "中野町",
      "town_kana": "ナカノチョウ",
      "street": null,
      "office_name": null,
      "office_name_kana": null
    }
  ],
  "0022": {
    "postcode": "9120022",
    "prefecture": "福井県",
    "prefecture_kana": "フクイケン",
    "prefecture_code": 18,
    "city": "大野市",
    "city_kana": "オオノシ",
    "town": "陽明町",
    "town_kana": "ヨウメイチョウ",
    "street": null,
    "office_name": null,
    "office_name_kana": null
  },
  "0023": [
    {
      "postcode": "9120023",
      "prefecture": "福井県",
      "prefecture_kana": "フクイケン",
      "prefecture_code": 18,
      "city": "大野市",
      "city_kana": "オオノシ",
      "town": "中荒井",
      "town_kana": "ナカアライ",
      "street": null,
      "office_name": null,
      "office_name_kana": null
    },
    {
      "postcode": "9120023",
      "prefecture": "福井県",
      "prefecture_kana": "フクイケン",
      "prefecture_code": 18,
      "city": "大野市",
      "city_kana": "オオノシ",
      "town": "中荒井町",
      "town_kana": "ナカアライチョウ",
      "street": null,
      "office_name": null,
      "office_name_kana": null
    }
  ],
  "0024": {
    "postcode": "9120024",
    "prefecture": "福井県",
    "prefecture_kana": "フクイケン",
    "prefecture_code": 18,
    "city": "大野市",
    "city_kana": "オオノシ",
    "town": "錦町",
    "town_kana": "ニシキチョウ",
    "street": null,
    "office_name": null,
    "office_name_kana": null
  },
  "0025": {
    "postcode": "9120025",
    "prefecture": "福井県",
    "prefecture_kana": "フクイケン",
    "prefecture_code": 18,
    "city": "大野市",
    "city_kana": "オオノシ",
    "town": "本町",
    "town_kana": "ホンマチ",
    "street": null,
    "office_name": null,
    "office_name_kana": null
  },
  "0026": {
    "postcode": "9120026",
    "prefecture": "福井県",
    "prefecture_kana": "フクイケン",
    "prefecture_code": 18,
    "city": "大野市",
    "city_kana": "オオノシ",
    "town": "要町",
    "town_kana": "カナメチョウ",
    "street": null,
    "office_name": null,
    "office_name_kana": null
  },
  "0027": {
    "postcode": "9120027",
    "prefecture": "福井県",
    "prefecture_kana": "フクイケン",
    "prefecture_code": 18,
    "city": "大野市",
    "city_kana": "オオノシ",
    "town": "新町",
    "town_kana": "シンマチ",
    "street": null,
    "office_name": null,
    "office_name_kana": null
  },
  "0031": {
    "postcode": "9120031",
    "prefecture": "福井県",
    "prefecture_kana": "フクイケン",
    "prefecture_code": 18,
    "city": "大野市",
    "city_kana": "オオノシ",
    "town": "月美町",
    "town_kana": "ツキミチョウ",
    "street": null,
    "office_name": null,
    "office_name_kana": null
  },
  "0032": {
    "postcode": "9120032",
    "prefecture": "福井県",
    "prefecture_kana": "フクイケン",
    "prefecture_code": 18,
    "city": "大野市",
    "city_kana": "オオノシ",
    "town": "清和町",
    "town_kana": "セイワチョウ",
    "street": null,
    "office_name": null,
    "office_name_kana": null
  },
  "0033": {
    "postcode": "9120033",
    "prefecture": "福井県",
    "prefecture_kana": "フクイケン",
    "prefecture_code": 18,
    "city": "大野市",
    "city_kana": "オオノシ",
    "town": "美里町",
    "town_kana": "ミサトチョウ",
    "street": null,
    "office_name": null,
    "office_name_kana": null
  },
  "0034": {
    "postcode": "9120034",
    "prefecture": "福井県",
    "prefecture_kana": "フクイケン",
    "prefecture_code": 18,
    "city": "大野市",
    "city_kana": "オオノシ",
    "town": "吉野町",
    "town_kana": "ヨシノチョウ",
    "street": null,
    "office_name": null,
    "office_name_kana": null
  },
  "0035": {
    "postcode": "9120035",
    "prefecture": "福井県",
    "prefecture_kana": "フクイケン",
    "prefecture_code": 18,
    "city": "大野市",
    "city_kana": "オオノシ",
    "town": "有明町",
    "town_kana": "アリアケチョウ",
    "street": null,
    "office_name": null,
    "office_name_kana": null
  },
  "0036": {
    "postcode": "9120036",
    "prefecture": "福井県",
    "prefecture_kana": "フクイケン",
    "prefecture_code": 18,
    "city": "大野市",
    "city_kana": "オオノシ",
    "town": "美川町",
    "town_kana": "ミカワチョウ",
    "street": null,
    "office_name": null,
    "office_name_kana": null
  },
  "0041": {
    "postcode": "9120041",
    "prefecture": "福井県",
    "prefecture_kana": "フクイケン",
    "prefecture_code": 18,
    "city": "大野市",
    "city_kana": "オオノシ",
    "town": "菖蒲池",
    "town_kana": "ショウブイケ",
    "street": null,
    "office_name": null,
    "office_name_kana": null
  },
  "0042": [
    {
      "postcode": "9120042",
      "prefecture": "福井県",
      "prefecture_kana": "フクイケン",
      "prefecture_code": 18,
      "city": "大野市",
      "city_kana": "オオノシ",
      "town": "東中",
      "town_kana": "ヒガシナカ",
      "street": null,
      "office_name": null,
      "office_name_kana": null
    },
    {
      "postcode": "9120042",
      "prefecture": "福井県",
      "prefecture_kana": "フクイケン",
      "prefecture_code": 18,
      "city": "大野市",
      "city_kana": "オオノシ",
      "town": "東中町",
      "town_kana": "ヒガシナカチョウ",
      "street": null,
      "office_name": null,
      "office_name_kana": null
    }
  ],
  "0043": {
    "postcode": "9120043",
    "prefecture": "福井県",
    "prefecture_kana": "フクイケン",
    "prefecture_code": 18,
    "city": "大野市",
    "city_kana": "オオノシ",
    "town": "国時町",
    "town_kana": "クニトキチョウ",
    "street": null,
    "office_name": null,
    "office_name_kana": null
  },
  "0044": {
    "postcode": "9120044",
    "prefecture": "福井県",
    "prefecture_kana": "フクイケン",
    "prefecture_code": 18,
    "city": "大野市",
    "city_kana": "オオノシ",
    "town": "桜塚町",
    "town_kana": "サクラヅカチョウ",
    "street": null,
    "office_name": null,
    "office_name_kana": null
  },
  "0045": {
    "postcode": "9120045",
    "prefecture": "福井県",
    "prefecture_kana": "フクイケン",
    "prefecture_code": 18,
    "city": "大野市",
    "city_kana": "オオノシ",
    "town": "若杉町",
    "town_kana": "ワカスギチョウ",
    "street": null,
    "office_name": null,
    "office_name_kana": null
  },
  "0046": [
    {
      "postcode": "9120046",
      "prefecture": "福井県",
      "prefecture_kana": "フクイケン",
      "prefecture_code": 18,
      "city": "大野市",
      "city_kana": "オオノシ",
      "town": "神明",
      "town_kana": "シンメイ",
      "street": null,
      "office_name": null,
      "office_name_kana": null
    },
    {
      "postcode": "9120046",
      "prefecture": "福井県",
      "prefecture_kana": "フクイケン",
      "prefecture_code": 18,
      "city": "大野市",
      "city_kana": "オオノシ",
      "town": "神明町",
      "town_kana": "シンメイチョウ",
      "street": null,
      "office_name": null,
      "office_name_kana": null
    }
  ],
  "0047": {
    "postcode": "9120047",
    "prefecture": "福井県",
    "prefecture_kana": "フクイケン",
    "prefecture_code": 18,
    "city": "大野市",
    "city_kana": "オオノシ",
    "town": "幸町",
    "town_kana": "サイワイチョウ",
    "street": null,
    "office_name": null,
    "office_name_kana": null
  },
  "0051": {
    "postcode": "9120051",
    "prefecture": "福井県",
    "prefecture_kana": "フクイケン",
    "prefecture_code": 18,
    "city": "大野市",
    "city_kana": "オオノシ",
    "town": "日吉町",
    "town_kana": "ヒヨシチョウ",
    "street": null,
    "office_name": null,
    "office_name_kana": null
  },
  "0052": {
    "postcode": "9120052",
    "prefecture": "福井県",
    "prefecture_kana": "フクイケン",
    "prefecture_code": 18,
    "city": "大野市",
    "city_kana": "オオノシ",
    "town": "弥生町",
    "town_kana": "ヤヨイチョウ",
    "street": null,
    "office_name": null,
    "office_name_kana": null
  },
  "0053": {
    "postcode": "9120053",
    "prefecture": "福井県",
    "prefecture_kana": "フクイケン",
    "prefecture_code": 18,
    "city": "大野市",
    "city_kana": "オオノシ",
    "town": "春日",
    "town_kana": "カスガ",
    "street": null,
    "office_name": null,
    "office_name_kana": null
  },
  "0054": {
    "postcode": "9120054",
    "prefecture": "福井県",
    "prefecture_kana": "フクイケン",
    "prefecture_code": 18,
    "city": "大野市",
    "city_kana": "オオノシ",
    "town": "糸魚町",
    "town_kana": "イトヨチョウ",
    "street": null,
    "office_name": null,
    "office_name_kana": null
  },
  "0055": {
    "postcode": "9120055",
    "prefecture": "福井県",
    "prefecture_kana": "フクイケン",
    "prefecture_code": 18,
    "city": "大野市",
    "city_kana": "オオノシ",
    "town": "高砂町",
    "town_kana": "タカサゴチョウ",
    "street": null,
    "office_name": null,
    "office_name_kana": null
  },
  "0061": [
    {
      "postcode": "9120061",
      "prefecture": "福井県",
      "prefecture_kana": "フクイケン",
      "prefecture_code": 18,
      "city": "大野市",
      "city_kana": "オオノシ",
      "town": "篠座",
      "town_kana": "シノクラ",
      "street": null,
      "office_name": null,
      "office_name_kana": null
    },
    {
      "postcode": "9120061",
      "prefecture": "福井県",
      "prefecture_kana": "フクイケン",
      "prefecture_code": 18,
      "city": "大野市",
      "city_kana": "オオノシ",
      "town": "篠座町",
      "town_kana": "シノクラチョウ",
      "street": null,
      "office_name": null,
      "office_name_kana": null
    }
  ],
  "0062": {
    "postcode": "9120062",
    "prefecture": "福井県",
    "prefecture_kana": "フクイケン",
    "prefecture_code": 18,
    "city": "大野市",
    "city_kana": "オオノシ",
    "town": "千歳",
    "town_kana": "チトセ",
    "street": null,
    "office_name": null,
    "office_name_kana": null
  },
  "0063": [
    {
      "postcode": "9120063",
      "prefecture": "福井県",
      "prefecture_kana": "フクイケン",
      "prefecture_code": 18,
      "city": "大野市",
      "city_kana": "オオノシ",
      "town": "阿難祖地頭方",
      "town_kana": "アドソジトウホウ",
      "street": null,
      "office_name": null,
      "office_name_kana": null
    },
    {
      "postcode": "9120063",
      "prefecture": "福井県",
      "prefecture_kana": "フクイケン",
      "prefecture_code": 18,
      "city": "大野市",
      "city_kana": "オオノシ",
      "town": "阿難祖領家",
      "town_kana": "アドソリョウケ",
      "street": null,
      "office_name": null,
      "office_name_kana": null
    }
  ],
  "0064": {
    "postcode": "9120064",
    "prefecture": "福井県",
    "prefecture_kana": "フクイケン",
    "prefecture_code": 18,
    "city": "大野市",
    "city_kana": "オオノシ",
    "town": "上舌",
    "town_kana": "カミシタ",
    "street": null,
    "office_name": null,
    "office_name_kana": null
  },
  "0065": {
    "postcode": "9120065",
    "prefecture": "福井県",
    "prefecture_kana": "フクイケン",
    "prefecture_code": 18,
    "city": "大野市",
    "city_kana": "オオノシ",
    "town": "下舌",
    "town_kana": "シモシタ",
    "street": null,
    "office_name": null,
    "office_name_kana": null
  },
  "0066": {
    "postcode": "9120066",
    "prefecture": "福井県",
    "prefecture_kana": "フクイケン",
    "prefecture_code": 18,
    "city": "大野市",
    "city_kana": "オオノシ",
    "town": "南春日野",
    "town_kana": "ミナミカスガノ",
    "street": null,
    "office_name": null,
    "office_name_kana": null
  },
  "0067": {
    "postcode": "9120067",
    "prefecture": "福井県",
    "prefecture_kana": "フクイケン",
    "prefecture_code": 18,
    "city": "大野市",
    "city_kana": "オオノシ",
    "town": "右近次郎",
    "town_kana": "ウコンジロウ",
    "street": null,
    "office_name": null,
    "office_name_kana": null
  },
  "0068": {
    "postcode": "9120068",
    "prefecture": "福井県",
    "prefecture_kana": "フクイケン",
    "prefecture_code": 18,
    "city": "大野市",
    "city_kana": "オオノシ",
    "town": "茜町",
    "town_kana": "アカネチョウ",
    "street": null,
    "office_name": null,
    "office_name_kana": null
  },
  "0071": {
    "postcode": "9120071",
    "prefecture": "福井県",
    "prefecture_kana": "フクイケン",
    "prefecture_code": 18,
    "city": "大野市",
    "city_kana": "オオノシ",
    "town": "鍬掛",
    "town_kana": "クワカケ",
    "street": null,
    "office_name": null,
    "office_name_kana": null
  },
  "0072": {
    "postcode": "9120072",
    "prefecture": "福井県",
    "prefecture_kana": "フクイケン",
    "prefecture_code": 18,
    "city": "大野市",
    "city_kana": "オオノシ",
    "town": "飯降",
    "town_kana": "イフリ",
    "street": null,
    "office_name": null,
    "office_name_kana": null
  },
  "0073": {
    "postcode": "9120073",
    "prefecture": "福井県",
    "prefecture_kana": "フクイケン",
    "prefecture_code": 18,
    "city": "大野市",
    "city_kana": "オオノシ",
    "town": "深井",
    "town_kana": "フカイ",
    "street": null,
    "office_name": null,
    "office_name_kana": null
  },
  "0074": {
    "postcode": "9120074",
    "prefecture": "福井県",
    "prefecture_kana": "フクイケン",
    "prefecture_code": 18,
    "city": "大野市",
    "city_kana": "オオノシ",
    "town": "上荒井",
    "town_kana": "カミアライ",
    "street": null,
    "office_name": null,
    "office_name_kana": null
  },
  "0075": {
    "postcode": "9120075",
    "prefecture": "福井県",
    "prefecture_kana": "フクイケン",
    "prefecture_code": 18,
    "city": "大野市",
    "city_kana": "オオノシ",
    "town": "下黒谷",
    "town_kana": "シモクロダニ",
    "street": null,
    "office_name": null,
    "office_name_kana": null
  },
  "0076": {
    "postcode": "9120076",
    "prefecture": "福井県",
    "prefecture_kana": "フクイケン",
    "prefecture_code": 18,
    "city": "大野市",
    "city_kana": "オオノシ",
    "town": "上黒谷",
    "town_kana": "カミクロダニ",
    "street": null,
    "office_name": null,
    "office_name_kana": null
  },
  "0081": {
    "postcode": "9120081",
    "prefecture": "福井県",
    "prefecture_kana": "フクイケン",
    "prefecture_code": 18,
    "city": "大野市",
    "city_kana": "オオノシ",
    "town": "元町",
    "town_kana": "モトマチ",
    "street": null,
    "office_name": null,
    "office_name_kana": null
  },
  "0082": {
    "postcode": "9120082",
    "prefecture": "福井県",
    "prefecture_kana": "フクイケン",
    "prefecture_code": 18,
    "city": "大野市",
    "city_kana": "オオノシ",
    "town": "大和町",
    "town_kana": "ヤマトチョウ",
    "street": null,
    "office_name": null,
    "office_name_kana": null
  },
  "0083": {
    "postcode": "9120083",
    "prefecture": "福井県",
    "prefecture_kana": "フクイケン",
    "prefecture_code": 18,
    "city": "大野市",
    "city_kana": "オオノシ",
    "town": "明倫町",
    "town_kana": "メイリンチョウ",
    "street": null,
    "office_name": null,
    "office_name_kana": null
  },
  "0084": {
    "postcode": "9120084",
    "prefecture": "福井県",
    "prefecture_kana": "フクイケン",
    "prefecture_code": 18,
    "city": "大野市",
    "city_kana": "オオノシ",
    "town": "天神町",
    "town_kana": "テンジンチョウ",
    "street": null,
    "office_name": null,
    "office_name_kana": null
  },
  "0085": {
    "postcode": "9120085",
    "prefecture": "福井県",
    "prefecture_kana": "フクイケン",
    "prefecture_code": 18,
    "city": "大野市",
    "city_kana": "オオノシ",
    "town": "新庄",
    "town_kana": "シンジョウ",
    "street": null,
    "office_name": null,
    "office_name_kana": null
  },
  "0086": [
    {
      "postcode": "9120086",
      "prefecture": "福井県",
      "prefecture_kana": "フクイケン",
      "prefecture_code": 18,
      "city": "大野市",
      "city_kana": "オオノシ",
      "town": "泉町",
      "town_kana": "イズミチョウ",
      "street": null,
      "office_name": null,
      "office_name_kana": null
    },
    {
      "postcode": "9120086",
      "prefecture": "福井県",
      "prefecture_kana": "フクイケン",
      "prefecture_code": 18,
      "city": "大野市",
      "city_kana": "オオノシ",
      "town": "清水",
      "town_kana": "ショウズ",
      "street": null,
      "office_name": null,
      "office_name_kana": null
    }
  ],
  "0087": [
    {
      "postcode": "9120087",
      "prefecture": "福井県",
      "prefecture_kana": "フクイケン",
      "prefecture_code": 18,
      "city": "大野市",
      "city_kana": "オオノシ",
      "town": "亀山",
      "town_kana": "カメヤマ",
      "street": null,
      "office_name": null,
      "office_name_kana": null
    },
    {
      "postcode": "9120087",
      "prefecture": "福井県",
      "prefecture_kana": "フクイケン",
      "prefecture_code": 18,
      "city": "大野市",
      "city_kana": "オオノシ",
      "town": "城町",
      "town_kana": "シロマチ",
      "street": null,
      "office_name": null,
      "office_name_kana": null
    }
  ],
  "0088": [
    {
      "postcode": "9120088",
      "prefecture": "福井県",
      "prefecture_kana": "フクイケン",
      "prefecture_code": 18,
      "city": "大野市",
      "city_kana": "オオノシ",
      "town": "水落",
      "town_kana": "ミズオトシ",
      "street": null,
      "office_name": null,
      "office_name_kana": null
    },
    {
      "postcode": "9120088",
      "prefecture": "福井県",
      "prefecture_kana": "フクイケン",
      "prefecture_code": 18,
      "city": "大野市",
      "city_kana": "オオノシ",
      "town": "水落町",
      "town_kana": "ミズオトシチョウ",
      "street": null,
      "office_name": null,
      "office_name_kana": null
    }
  ],
  "0091": [
    {
      "postcode": "9120091",
      "prefecture": "福井県",
      "prefecture_kana": "フクイケン",
      "prefecture_code": 18,
      "city": "大野市",
      "city_kana": "オオノシ",
      "town": "犬山",
      "town_kana": "イヌヤマ",
      "street": null,
      "office_name": null,
      "office_name_kana": null
    },
    {
      "postcode": "9120091",
      "prefecture": "福井県",
      "prefecture_kana": "フクイケン",
      "prefecture_code": 18,
      "city": "大野市",
      "city_kana": "オオノシ",
      "town": "牛ケ原",
      "town_kana": "ウシガハラ",
      "street": null,
      "office_name": null,
      "office_name_kana": null
    }
  ],
  "0092": {
    "postcode": "9120092",
    "prefecture": "福井県",
    "prefecture_kana": "フクイケン",
    "prefecture_code": 18,
    "city": "大野市",
    "city_kana": "オオノシ",
    "town": "清瀧",
    "town_kana": "セイリュウ",
    "street": null,
    "office_name": null,
    "office_name_kana": null
  },
  "0093": {
    "postcode": "9120093",
    "prefecture": "福井県",
    "prefecture_kana": "フクイケン",
    "prefecture_code": 18,
    "city": "大野市",
    "city_kana": "オオノシ",
    "town": "中丁",
    "town_kana": "ナカヨウロ",
    "street": null,
    "office_name": null,
    "office_name_kana": null
  },
  "0094": {
    "postcode": "9120094",
    "prefecture": "福井県",
    "prefecture_kana": "フクイケン",
    "prefecture_code": 18,
    "city": "大野市",
    "city_kana": "オオノシ",
    "town": "上丁",
    "town_kana": "カミヨウロ",
    "street": null,
    "office_name": null,
    "office_name_kana": null
  },
  "0095": {
    "postcode": "9120095",
    "prefecture": "福井県",
    "prefecture_kana": "フクイケン",
    "prefecture_code": 18,
    "city": "大野市",
    "city_kana": "オオノシ",
    "town": "下丁",
    "town_kana": "シモヨウロ",
    "street": null,
    "office_name": null,
    "office_name_kana": null
  },
  "0131": {
    "postcode": "9120131",
    "prefecture": "福井県",
    "prefecture_kana": "フクイケン",
    "prefecture_code": 18,
    "city": "大野市",
    "city_kana": "オオノシ",
    "town": "南六呂師",
    "town_kana": "ミナミロクロシ",
    "street": null,
    "office_name": null,
    "office_name_kana": null
  },
  "0132": {
    "postcode": "9120132",
    "prefecture": "福井県",
    "prefecture_kana": "フクイケン",
    "prefecture_code": 18,
    "city": "大野市",
    "city_kana": "オオノシ",
    "town": "大月",
    "town_kana": "オオツキ",
    "street": null,
    "office_name": null,
    "office_name_kana": null
  },
  "0133": {
    "postcode": "9120133",
    "prefecture": "福井県",
    "prefecture_kana": "フクイケン",
    "prefecture_code": 18,
    "city": "大野市",
    "city_kana": "オオノシ",
    "town": "御領",
    "town_kana": "ゴリョウ",
    "street": null,
    "office_name": null,
    "office_name_kana": null
  },
  "0134": {
    "postcode": "9120134",
    "prefecture": "福井県",
    "prefecture_kana": "フクイケン",
    "prefecture_code": 18,
    "city": "大野市",
    "city_kana": "オオノシ",
    "town": "石谷",
    "town_kana": "イシタニ",
    "street": null,
    "office_name": null,
    "office_name_kana": null
  },
  "0135": {
    "postcode": "9120135",
    "prefecture": "福井県",
    "prefecture_kana": "フクイケン",
    "prefecture_code": 18,
    "city": "大野市",
    "city_kana": "オオノシ",
    "town": "森本",
    "town_kana": "モリモト",
    "street": null,
    "office_name": null,
    "office_name_kana": null
  },
  "0136": {
    "postcode": "9120136",
    "prefecture": "福井県",
    "prefecture_kana": "フクイケン",
    "prefecture_code": 18,
    "city": "大野市",
    "city_kana": "オオノシ",
    "town": "松丸",
    "town_kana": "マツマル",
    "street": null,
    "office_name": null,
    "office_name_kana": null
  },
  "0137": {
    "postcode": "9120137",
    "prefecture": "福井県",
    "prefecture_kana": "フクイケン",
    "prefecture_code": 18,
    "city": "大野市",
    "city_kana": "オオノシ",
    "town": "萩ケ野",
    "town_kana": "ハンガノ",
    "street": null,
    "office_name": null,
    "office_name_kana": null
  },
  "0138": {
    "postcode": "9120138",
    "prefecture": "福井県",
    "prefecture_kana": "フクイケン",
    "prefecture_code": 18,
    "city": "大野市",
    "city_kana": "オオノシ",
    "town": "花房",
    "town_kana": "ハナブサ",
    "street": null,
    "office_name": null,
    "office_name_kana": null
  },
  "0139": {
    "postcode": "9120139",
    "prefecture": "福井県",
    "prefecture_kana": "フクイケン",
    "prefecture_code": 18,
    "city": "大野市",
    "city_kana": "オオノシ",
    "town": "不動堂",
    "town_kana": "フドウドウ",
    "street": null,
    "office_name": null,
    "office_name_kana": null
  },
  "0141": {
    "postcode": "9120141",
    "prefecture": "福井県",
    "prefecture_kana": "フクイケン",
    "prefecture_code": 18,
    "city": "大野市",
    "city_kana": "オオノシ",
    "town": "橋爪",
    "town_kana": "ハシヅメ",
    "street": null,
    "office_name": null,
    "office_name_kana": null
  },
  "0142": {
    "postcode": "9120142",
    "prefecture": "福井県",
    "prefecture_kana": "フクイケン",
    "prefecture_code": 18,
    "city": "大野市",
    "city_kana": "オオノシ",
    "town": "蓑道",
    "town_kana": "ミノミチ",
    "street": null,
    "office_name": null,
    "office_name_kana": null
  },
  "0143": {
    "postcode": "9120143",
    "prefecture": "福井県",
    "prefecture_kana": "フクイケン",
    "prefecture_code": 18,
    "city": "大野市",
    "city_kana": "オオノシ",
    "town": "金山",
    "town_kana": "キンザン",
    "street": null,
    "office_name": null,
    "office_name_kana": null
  },
  "0144": {
    "postcode": "9120144",
    "prefecture": "福井県",
    "prefecture_kana": "フクイケン",
    "prefecture_code": 18,
    "city": "大野市",
    "city_kana": "オオノシ",
    "town": "小黒見",
    "town_kana": "オグロミ",
    "street": null,
    "office_name": null,
    "office_name_kana": null
  },
  "0145": {
    "postcode": "9120145",
    "prefecture": "福井県",
    "prefecture_kana": "フクイケン",
    "prefecture_code": 18,
    "city": "大野市",
    "city_kana": "オオノシ",
    "town": "堂嶋",
    "town_kana": "ドウジマ",
    "street": null,
    "office_name": null,
    "office_name_kana": null
  },
  "0146": {
    "postcode": "9120146",
    "prefecture": "福井県",
    "prefecture_kana": "フクイケン",
    "prefecture_code": 18,
    "city": "大野市",
    "city_kana": "オオノシ",
    "town": "落合",
    "town_kana": "オチアイ",
    "street": null,
    "office_name": null,
    "office_name_kana": null
  },
  "0147": {
    "postcode": "9120147",
    "prefecture": "福井県",
    "prefecture_kana": "フクイケン",
    "prefecture_code": 18,
    "city": "大野市",
    "city_kana": "オオノシ",
    "town": "柿ケ嶋",
    "town_kana": "カキガシマ",
    "street": null,
    "office_name": null,
    "office_name_kana": null
  },
  "0148": {
    "postcode": "9120148",
    "prefecture": "福井県",
    "prefecture_kana": "フクイケン",
    "prefecture_code": 18,
    "city": "大野市",
    "city_kana": "オオノシ",
    "town": "八町",
    "town_kana": "ヤマチ",
    "street": null,
    "office_name": null,
    "office_name_kana": null
  },
  "0149": {
    "postcode": "9120149",
    "prefecture": "福井県",
    "prefecture_kana": "フクイケン",
    "prefecture_code": 18,
    "city": "大野市",
    "city_kana": "オオノシ",
    "town": "伏石",
    "town_kana": "ブクイシ",
    "street": null,
    "office_name": null,
    "office_name_kana": null
  },
  "0151": {
    "postcode": "9120151",
    "prefecture": "福井県",
    "prefecture_kana": "フクイケン",
    "prefecture_code": 18,
    "city": "大野市",
    "city_kana": "オオノシ",
    "town": "上打波",
    "town_kana": "カミウチナミ",
    "street": null,
    "office_name": null,
    "office_name_kana": null
  },
  "0152": {
    "postcode": "9120152",
    "prefecture": "福井県",
    "prefecture_kana": "フクイケン",
    "prefecture_code": 18,
    "city": "大野市",
    "city_kana": "オオノシ",
    "town": "下打波",
    "town_kana": "シモウチナミ",
    "street": null,
    "office_name": null,
    "office_name_kana": null
  },
  "0153": {
    "postcode": "9120153",
    "prefecture": "福井県",
    "prefecture_kana": "フクイケン",
    "prefecture_code": 18,
    "city": "大野市",
    "city_kana": "オオノシ",
    "town": "仏原",
    "town_kana": "ホトケバラ",
    "street": null,
    "office_name": null,
    "office_name_kana": null
  },
  "0154": {
    "postcode": "9120154",
    "prefecture": "福井県",
    "prefecture_kana": "フクイケン",
    "prefecture_code": 18,
    "city": "大野市",
    "city_kana": "オオノシ",
    "town": "東勝原",
    "town_kana": "ヒガシカドハラ",
    "street": null,
    "office_name": null,
    "office_name_kana": null
  },
  "0155": {
    "postcode": "9120155",
    "prefecture": "福井県",
    "prefecture_kana": "フクイケン",
    "prefecture_code": 18,
    "city": "大野市",
    "city_kana": "オオノシ",
    "town": "西勝原",
    "town_kana": "ニシカドハラ",
    "street": null,
    "office_name": null,
    "office_name_kana": null
  },
  "0201": {
    "postcode": "9120201",
    "prefecture": "福井県",
    "prefecture_kana": "フクイケン",
    "prefecture_code": 18,
    "city": "大野市",
    "city_kana": "オオノシ",
    "town": "朝日前坂",
    "town_kana": "アサヒマエサカ",
    "street": null,
    "office_name": null,
    "office_name_kana": null
  },
  "0202": {
    "postcode": "9120202",
    "prefecture": "福井県",
    "prefecture_kana": "フクイケン",
    "prefecture_code": 18,
    "city": "大野市",
    "city_kana": "オオノシ",
    "town": "角野前坂",
    "town_kana": "カクノマエサカ",
    "street": null,
    "office_name": null,
    "office_name_kana": null
  },
  "0203": {
    "postcode": "9120203",
    "prefecture": "福井県",
    "prefecture_kana": "フクイケン",
    "prefecture_code": 18,
    "city": "大野市",
    "city_kana": "オオノシ",
    "town": "後野",
    "town_kana": "ノチノ",
    "street": null,
    "office_name": null,
    "office_name_kana": null
  },
  "0204": {
    "postcode": "9120204",
    "prefecture": "福井県",
    "prefecture_kana": "フクイケン",
    "prefecture_code": 18,
    "city": "大野市",
    "city_kana": "オオノシ",
    "town": "貝皿",
    "town_kana": "カイザラ",
    "street": null,
    "office_name": null,
    "office_name_kana": null
  },
  "0205": {
    "postcode": "9120205",
    "prefecture": "福井県",
    "prefecture_kana": "フクイケン",
    "prefecture_code": 18,
    "city": "大野市",
    "city_kana": "オオノシ",
    "town": "朝日",
    "town_kana": "アサヒ",
    "street": null,
    "office_name": null,
    "office_name_kana": null
  },
  "0206": {
    "postcode": "9120206",
    "prefecture": "福井県",
    "prefecture_kana": "フクイケン",
    "prefecture_code": 18,
    "city": "大野市",
    "city_kana": "オオノシ",
    "town": "板倉",
    "town_kana": "イタクラ",
    "street": null,
    "office_name": null,
    "office_name_kana": null
  },
  "0207": {
    "postcode": "9120207",
    "prefecture": "福井県",
    "prefecture_kana": "フクイケン",
    "prefecture_code": 18,
    "city": "大野市",
    "city_kana": "オオノシ",
    "town": "下山",
    "town_kana": "シモヤマ",
    "street": null,
    "office_name": null,
    "office_name_kana": null
  },
  "0211": {
    "postcode": "9120211",
    "prefecture": "福井県",
    "prefecture_kana": "フクイケン",
    "prefecture_code": 18,
    "city": "大野市",
    "city_kana": "オオノシ",
    "town": "下半原",
    "town_kana": "シモハンバラ",
    "street": null,
    "office_name": null,
    "office_name_kana": null
  },
  "0212": {
    "postcode": "9120212",
    "prefecture": "福井県",
    "prefecture_kana": "フクイケン",
    "prefecture_code": 18,
    "city": "大野市",
    "city_kana": "オオノシ",
    "town": "箱ケ瀬",
    "town_kana": "ハコガセ",
    "street": null,
    "office_name": null,
    "office_name_kana": null
  },
  "0213": {
    "postcode": "9120213",
    "prefecture": "福井県",
    "prefecture_kana": "フクイケン",
    "prefecture_code": 18,
    "city": "大野市",
    "city_kana": "オオノシ",
    "town": "野尻",
    "town_kana": "ノジリ",
    "street": null,
    "office_name": null,
    "office_name_kana": null
  },
  "0214": {
    "postcode": "9120214",
    "prefecture": "福井県",
    "prefecture_kana": "フクイケン",
    "prefecture_code": 18,
    "city": "大野市",
    "city_kana": "オオノシ",
    "town": "長野",
    "town_kana": "ナガノ",
    "street": null,
    "office_name": null,
    "office_name_kana": null
  },
  "0215": {
    "postcode": "9120215",
    "prefecture": "福井県",
    "prefecture_kana": "フクイケン",
    "prefecture_code": 18,
    "city": "大野市",
    "city_kana": "オオノシ",
    "town": "下大納",
    "town_kana": "シモオオノウ",
    "street": null,
    "office_name": null,
    "office_name_kana": null
  },
  "0216": {
    "postcode": "9120216",
    "prefecture": "福井県",
    "prefecture_kana": "フクイケン",
    "prefecture_code": 18,
    "city": "大野市",
    "city_kana": "オオノシ",
    "town": "上大納",
    "town_kana": "カミオオノウ",
    "street": null,
    "office_name": null,
    "office_name_kana": null
  },
  "0217": {
    "postcode": "9120217",
    "prefecture": "福井県",
    "prefecture_kana": "フクイケン",
    "prefecture_code": 18,
    "city": "大野市",
    "city_kana": "オオノシ",
    "town": "角野",
    "town_kana": "カクノ",
    "street": null,
    "office_name": null,
    "office_name_kana": null
  },
  "0218": {
    "postcode": "9120218",
    "prefecture": "福井県",
    "prefecture_kana": "フクイケン",
    "prefecture_code": 18,
    "city": "大野市",
    "city_kana": "オオノシ",
    "town": "川合",
    "town_kana": "カワイ",
    "street": null,
    "office_name": null,
    "office_name_kana": null
  },
  "0221": {
    "postcode": "9120221",
    "prefecture": "福井県",
    "prefecture_kana": "フクイケン",
    "prefecture_code": 18,
    "city": "大野市",
    "city_kana": "オオノシ",
    "town": "上半原",
    "town_kana": "カミハンバラ",
    "street": null,
    "office_name": null,
    "office_name_kana": null
  },
  "0222": {
    "postcode": "9120222",
    "prefecture": "福井県",
    "prefecture_kana": "フクイケン",
    "prefecture_code": 18,
    "city": "大野市",
    "city_kana": "オオノシ",
    "town": "東市布",
    "town_kana": "ヒガシイチヌノ",
    "street": null,
    "office_name": null,
    "office_name_kana": null
  },
  "0292": {
    "postcode": "9120292",
    "prefecture": "福井県",
    "prefecture_kana": "フクイケン",
    "prefecture_code": 18,
    "city": "大野市",
    "city_kana": "オオノシ",
    "town": "朝日",
    "town_kana": "アサヒ",
    "street": "１６−３−４",
    "office_name": "大野市　和泉支所",
    "office_name_kana": "オオノシ イズミシシヨ"
  },
  "0401": {
    "postcode": "9120401",
    "prefecture": "福井県",
    "prefecture_kana": "フクイケン",
    "prefecture_code": 18,
    "city": "大野市",
    "city_kana": "オオノシ",
    "town": "吉",
    "town_kana": "ヨシ",
    "street": null,
    "office_name": null,
    "office_name_kana": null
  },
  "0402": {
    "postcode": "9120402",
    "prefecture": "福井県",
    "prefecture_kana": "フクイケン",
    "prefecture_code": 18,
    "city": "大野市",
    "city_kana": "オオノシ",
    "town": "北御門",
    "town_kana": "キタミカド",
    "street": null,
    "office_name": null,
    "office_name_kana": null
  },
  "0403": {
    "postcode": "9120403",
    "prefecture": "福井県",
    "prefecture_kana": "フクイケン",
    "prefecture_code": 18,
    "city": "大野市",
    "city_kana": "オオノシ",
    "town": "森政領家",
    "town_kana": "モリマサリョウケ",
    "street": null,
    "office_name": null,
    "office_name_kana": null
  },
  "0404": {
    "postcode": "9120404",
    "prefecture": "福井県",
    "prefecture_kana": "フクイケン",
    "prefecture_code": 18,
    "city": "大野市",
    "city_kana": "オオノシ",
    "town": "猪島",
    "town_kana": "イノシマ",
    "street": null,
    "office_name": null,
    "office_name_kana": null
  },
  "0405": {
    "postcode": "9120405",
    "prefecture": "福井県",
    "prefecture_kana": "フクイケン",
    "prefecture_code": 18,
    "city": "大野市",
    "city_kana": "オオノシ",
    "town": "森政地頭",
    "town_kana": "モリマサジトウ",
    "street": null,
    "office_name": null,
    "office_name_kana": null
  },
  "0411": {
    "postcode": "9120411",
    "prefecture": "福井県",
    "prefecture_kana": "フクイケン",
    "prefecture_code": 18,
    "city": "大野市",
    "city_kana": "オオノシ",
    "town": "友兼",
    "town_kana": "トモカネ",
    "street": null,
    "office_name": null,
    "office_name_kana": null
  },
  "0412": {
    "postcode": "9120412",
    "prefecture": "福井県",
    "prefecture_kana": "フクイケン",
    "prefecture_code": 18,
    "city": "大野市",
    "city_kana": "オオノシ",
    "town": "御給",
    "town_kana": "ゴキュウ",
    "street": null,
    "office_name": null,
    "office_name_kana": null
  },
  "0413": {
    "postcode": "9120413",
    "prefecture": "福井県",
    "prefecture_kana": "フクイケン",
    "prefecture_code": 18,
    "city": "大野市",
    "city_kana": "オオノシ",
    "town": "東山",
    "town_kana": "ヒガシヤマ",
    "street": null,
    "office_name": null,
    "office_name_kana": null
  },
  "0414": {
    "postcode": "9120414",
    "prefecture": "福井県",
    "prefecture_kana": "フクイケン",
    "prefecture_code": 18,
    "city": "大野市",
    "city_kana": "オオノシ",
    "town": "野中",
    "town_kana": "ノナカ",
    "street": null,
    "office_name": null,
    "office_name_kana": null
  },
  "0415": {
    "postcode": "9120415",
    "prefecture": "福井県",
    "prefecture_kana": "フクイケン",
    "prefecture_code": 18,
    "city": "大野市",
    "city_kana": "オオノシ",
    "town": "稲郷",
    "town_kana": "トウゴウ",
    "street": null,
    "office_name": null,
    "office_name_kana": null
  },
  "0416": {
    "postcode": "9120416",
    "prefecture": "福井県",
    "prefecture_kana": "フクイケン",
    "prefecture_code": 18,
    "city": "大野市",
    "city_kana": "オオノシ",
    "town": "開発",
    "town_kana": "カイホツ",
    "street": null,
    "office_name": null,
    "office_name_kana": null
  },
  "0421": {
    "postcode": "9120421",
    "prefecture": "福井県",
    "prefecture_kana": "フクイケン",
    "prefecture_code": 18,
    "city": "大野市",
    "city_kana": "オオノシ",
    "town": "五條方",
    "town_kana": "ゴジョウホウ",
    "street": null,
    "office_name": null,
    "office_name_kana": null
  },
  "0422": {
    "postcode": "9120422",
    "prefecture": "福井県",
    "prefecture_kana": "フクイケン",
    "prefecture_code": 18,
    "city": "大野市",
    "city_kana": "オオノシ",
    "town": "佐開",
    "town_kana": "サビラキ",
    "street": null,
    "office_name": null,
    "office_name_kana": null
  },
  "0423": {
    "postcode": "9120423",
    "prefecture": "福井県",
    "prefecture_kana": "フクイケン",
    "prefecture_code": 18,
    "city": "大野市",
    "city_kana": "オオノシ",
    "town": "下若生子",
    "town_kana": "シモワカゴ",
    "street": null,
    "office_name": null,
    "office_name_kana": null
  },
  "0424": {
    "postcode": "9120424",
    "prefecture": "福井県",
    "prefecture_kana": "フクイケン",
    "prefecture_code": 18,
    "city": "大野市",
    "city_kana": "オオノシ",
    "town": "今井",
    "town_kana": "イマイ",
    "street": null,
    "office_name": null,
    "office_name_kana": null
  },
  "0425": {
    "postcode": "9120425",
    "prefecture": "福井県",
    "prefecture_kana": "フクイケン",
    "prefecture_code": 18,
    "city": "大野市",
    "city_kana": "オオノシ",
    "town": "平沢",
    "town_kana": "ヒラサワ",
    "street": null,
    "office_name": null,
    "office_name_kana": null
  },
  "0426": {
    "postcode": "9120426",
    "prefecture": "福井県",
    "prefecture_kana": "フクイケン",
    "prefecture_code": 18,
    "city": "大野市",
    "city_kana": "オオノシ",
    "town": "西山",
    "town_kana": "ニシヤマ",
    "street": null,
    "office_name": null,
    "office_name_kana": null
  },
  "0427": {
    "postcode": "9120427",
    "prefecture": "福井県",
    "prefecture_kana": "フクイケン",
    "prefecture_code": 18,
    "city": "大野市",
    "city_kana": "オオノシ",
    "town": "森山",
    "town_kana": "モリヤマ",
    "street": null,
    "office_name": null,
    "office_name_kana": null
  },
  "0431": [
    {
      "postcode": "9120431",
      "prefecture": "福井県",
      "prefecture_kana": "フクイケン",
      "prefecture_code": 18,
      "city": "大野市",
      "city_kana": "オオノシ",
      "town": "下据",
      "town_kana": "シモシガラミ",
      "street": null,
      "office_name": null,
      "office_name_kana": null
    },
    {
      "postcode": "9120431",
      "prefecture": "福井県",
      "prefecture_kana": "フクイケン",
      "prefecture_code": 18,
      "city": "大野市",
      "city_kana": "オオノシ",
      "town": "西里",
      "town_kana": "ニシサト",
      "street": null,
      "office_name": null,
      "office_name_kana": null
    }
  ],
  "0432": {
    "postcode": "9120432",
    "prefecture": "福井県",
    "prefecture_kana": "フクイケン",
    "prefecture_code": 18,
    "city": "大野市",
    "city_kana": "オオノシ",
    "town": "下郷",
    "town_kana": "シモゴウ",
    "street": null,
    "office_name": null,
    "office_name_kana": null
  },
  "0433": {
    "postcode": "9120433",
    "prefecture": "福井県",
    "prefecture_kana": "フクイケン",
    "prefecture_code": 18,
    "city": "大野市",
    "city_kana": "オオノシ",
    "town": "木本",
    "town_kana": "コノモト",
    "street": null,
    "office_name": null,
    "office_name_kana": null
  },
  "0434": {
    "postcode": "9120434",
    "prefecture": "福井県",
    "prefecture_kana": "フクイケン",
    "prefecture_code": 18,
    "city": "大野市",
    "city_kana": "オオノシ",
    "town": "宝慶寺",
    "town_kana": "ホウキョウジ",
    "street": null,
    "office_name": null,
    "office_name_kana": null
  },
  "0435": {
    "postcode": "9120435",
    "prefecture": "福井県",
    "prefecture_kana": "フクイケン",
    "prefecture_code": 18,
    "city": "大野市",
    "city_kana": "オオノシ",
    "town": "榎",
    "town_kana": "エノキ",
    "street": null,
    "office_name": null,
    "office_name_kana": null
  },
  "0436": {
    "postcode": "9120436",
    "prefecture": "福井県",
    "prefecture_kana": "フクイケン",
    "prefecture_code": 18,
    "city": "大野市",
    "city_kana": "オオノシ",
    "town": "西据",
    "town_kana": "ニシシガラミ",
    "street": null,
    "office_name": null,
    "office_name_kana": null
  },
  "0437": {
    "postcode": "9120437",
    "prefecture": "福井県",
    "prefecture_kana": "フクイケン",
    "prefecture_code": 18,
    "city": "大野市",
    "city_kana": "オオノシ",
    "town": "中据",
    "town_kana": "ナカシガラミ",
    "street": null,
    "office_name": null,
    "office_name_kana": null
  },
  "0801": {
    "postcode": "9120801",
    "prefecture": "福井県",
    "prefecture_kana": "フクイケン",
    "prefecture_code": 18,
    "city": "大野市",
    "city_kana": "オオノシ",
    "town": "新河原",
    "town_kana": "シンカワラ",
    "street": null,
    "office_name": null,
    "office_name_kana": null
  },
  "0802": {
    "postcode": "9120802",
    "prefecture": "福井県",
    "prefecture_kana": "フクイケン",
    "prefecture_code": 18,
    "city": "大野市",
    "city_kana": "オオノシ",
    "town": "新田",
    "town_kana": "シンデン",
    "street": null,
    "office_name": null,
    "office_name_kana": null
  },
  "0803": {
    "postcode": "9120803",
    "prefecture": "福井県",
    "prefecture_kana": "フクイケン",
    "prefecture_code": 18,
    "city": "大野市",
    "city_kana": "オオノシ",
    "town": "富嶋",
    "town_kana": "トビシマ",
    "street": null,
    "office_name": null,
    "office_name_kana": null
  },
  "0804": {
    "postcode": "9120804",
    "prefecture": "福井県",
    "prefecture_kana": "フクイケン",
    "prefecture_code": 18,
    "city": "大野市",
    "city_kana": "オオノシ",
    "town": "森目",
    "town_kana": "モリメ",
    "street": null,
    "office_name": null,
    "office_name_kana": null
  },
  "0805": {
    "postcode": "9120805",
    "prefecture": "福井県",
    "prefecture_kana": "フクイケン",
    "prefecture_code": 18,
    "city": "大野市",
    "city_kana": "オオノシ",
    "town": "土布子",
    "town_kana": "ツチフゴ",
    "street": null,
    "office_name": null,
    "office_name_kana": null
  },
  "0811": {
    "postcode": "9120811",
    "prefecture": "福井県",
    "prefecture_kana": "フクイケン",
    "prefecture_code": 18,
    "city": "大野市",
    "city_kana": "オオノシ",
    "town": "土打",
    "town_kana": "ツチウチ",
    "street": null,
    "office_name": null,
    "office_name_kana": null
  },
  "0812": {
    "postcode": "9120812",
    "prefecture": "福井県",
    "prefecture_kana": "フクイケン",
    "prefecture_code": 18,
    "city": "大野市",
    "city_kana": "オオノシ",
    "town": "富塚",
    "town_kana": "トミヅカ",
    "street": null,
    "office_name": null,
    "office_name_kana": null
  },
  "0813": {
    "postcode": "9120813",
    "prefecture": "福井県",
    "prefecture_kana": "フクイケン",
    "prefecture_code": 18,
    "city": "大野市",
    "city_kana": "オオノシ",
    "town": "上野",
    "town_kana": "ウワノ",
    "street": null,
    "office_name": null,
    "office_name_kana": null
  },
  "0814": [
    {
      "postcode": "9120814",
      "prefecture": "福井県",
      "prefecture_kana": "フクイケン",
      "prefecture_code": 18,
      "city": "大野市",
      "city_kana": "オオノシ",
      "town": "上麻生嶋",
      "town_kana": "カミアソウジマ",
      "street": null,
      "office_name": null,
      "office_name_kana": null
    },
    {
      "postcode": "9120814",
      "prefecture": "福井県",
      "prefecture_kana": "フクイケン",
      "prefecture_code": 18,
      "city": "大野市",
      "city_kana": "オオノシ",
      "town": "川嶋",
      "town_kana": "カワシマ",
      "street": null,
      "office_name": null,
      "office_name_kana": null
    }
  ],
  "0815": {
    "postcode": "9120815",
    "prefecture": "福井県",
    "prefecture_kana": "フクイケン",
    "prefecture_code": 18,
    "city": "大野市",
    "city_kana": "オオノシ",
    "town": "下麻生嶋",
    "town_kana": "シモアソウジマ",
    "street": null,
    "office_name": null,
    "office_name_kana": null
  },
  "0821": {
    "postcode": "9120821",
    "prefecture": "福井県",
    "prefecture_kana": "フクイケン",
    "prefecture_code": 18,
    "city": "大野市",
    "city_kana": "オオノシ",
    "town": "七板",
    "town_kana": "ナナイタ",
    "street": null,
    "office_name": null,
    "office_name_kana": null
  },
  "0822": {
    "postcode": "9120822",
    "prefecture": "福井県",
    "prefecture_kana": "フクイケン",
    "prefecture_code": 18,
    "city": "大野市",
    "city_kana": "オオノシ",
    "town": "下唯野",
    "town_kana": "シモユイノ",
    "street": null,
    "office_name": null,
    "office_name_kana": null
  },
  "0823": {
    "postcode": "9120823",
    "prefecture": "福井県",
    "prefecture_kana": "フクイケン",
    "prefecture_code": 18,
    "city": "大野市",
    "city_kana": "オオノシ",
    "town": "蕨生",
    "town_kana": "ワラビョウ",
    "street": null,
    "office_name": null,
    "office_name_kana": null
  },
  "0824": {
    "postcode": "9120824",
    "prefecture": "福井県",
    "prefecture_kana": "フクイケン",
    "prefecture_code": 18,
    "city": "大野市",
    "city_kana": "オオノシ",
    "town": "木落",
    "town_kana": "キオトシ",
    "street": null,
    "office_name": null,
    "office_name_kana": null
  },
  "0825": [
    {
      "postcode": "9120825",
      "prefecture": "福井県",
      "prefecture_kana": "フクイケン",
      "prefecture_code": 18,
      "city": "大野市",
      "city_kana": "オオノシ",
      "town": "新塚原",
      "town_kana": "シンツカバラ",
      "street": null,
      "office_name": null,
      "office_name_kana": null
    },
    {
      "postcode": "9120825",
      "prefecture": "福井県",
      "prefecture_kana": "フクイケン",
      "prefecture_code": 18,
      "city": "大野市",
      "city_kana": "オオノシ",
      "town": "塚原",
      "town_kana": "ツカバラ",
      "street": null,
      "office_name": null,
      "office_name_kana": null
    }
  ],
  "0826": {
    "postcode": "9120826",
    "prefecture": "福井県",
    "prefecture_kana": "フクイケン",
    "prefecture_code": 18,
    "city": "大野市",
    "city_kana": "オオノシ",
    "town": "井ノ口",
    "town_kana": "イノクチ",
    "street": null,
    "office_name": null,
    "office_name_kana": null
  },
  "0827": {
    "postcode": "9120827",
    "prefecture": "福井県",
    "prefecture_kana": "フクイケン",
    "prefecture_code": 18,
    "city": "大野市",
    "city_kana": "オオノシ",
    "town": "田野",
    "town_kana": "タノ",
    "street": null,
    "office_name": null,
    "office_name_kana": null
  },
  "8524": {
    "postcode": "9128524",
    "prefecture": "福井県",
    "prefecture_kana": "フクイケン",
    "prefecture_code": 18,
    "city": "大野市",
    "city_kana": "オオノシ",
    "town": "弥生町",
    "town_kana": "ヤヨイチョウ",
    "street": "１番１１号",
    "office_name": "大野簡易裁判所",
    "office_name_kana": "オオノカンイサイバンシヨ"
  },
  "8540": {
    "postcode": "9128540",
    "prefecture": "福井県",
    "prefecture_kana": "フクイケン",
    "prefecture_code": 18,
    "city": "大野市",
    "city_kana": "オオノシ",
    "town": "中挾",
    "town_kana": "ナカバサミ",
    "street": "１丁目１３０１番地",
    "office_name": "テラル越前農業共同組合",
    "office_name_kana": "テラルエチゼンノウギヨウキヨウドウクミアイ"
  },
  "8555": {
    "postcode": "9128555",
    "prefecture": "福井県",
    "prefecture_kana": "フクイケン",
    "prefecture_code": 18,
    "city": "大野市",
    "city_kana": "オオノシ",
    "town": "城町",
    "town_kana": "シロマチ",
    "street": "７−２８",
    "office_name": "大野税務署",
    "office_name_kana": "オオノゼイムシヨ"
  },
  "8567": {
    "postcode": "9128567",
    "prefecture": "福井県",
    "prefecture_kana": "フクイケン",
    "prefecture_code": 18,
    "city": "大野市",
    "city_kana": "オオノシ",
    "town": "鍬掛",
    "town_kana": "クワカケ",
    "street": "１７−１７−１",
    "office_name": "協同組合　大野商業開発　ショッピングモールＶｉｏ",
    "office_name_kana": "キヨウドウクミアイ オオノシヨウギヨウカイハツ シヨツピングモ-ルヴイオ"
  },
  "8585": {
    "postcode": "9128585",
    "prefecture": "福井県",
    "prefecture_kana": "フクイケン",
    "prefecture_code": 18,
    "city": "大野市",
    "city_kana": "オオノシ",
    "town": "月美町",
    "town_kana": "ツキミチョウ",
    "street": "４−８",
    "office_name": "大野ショッピングセンター　リブレ",
    "office_name_kana": "オオノシヨツピングセンタ- リブレ"
  },
  "8666": {
    "postcode": "9128666",
    "prefecture": "福井県",
    "prefecture_kana": "フクイケン",
    "prefecture_code": 18,
    "city": "大野市",
    "city_kana": "オオノシ",
    "town": "天神町",
    "town_kana": "テンジンチョウ",
    "street": "１−１（大野郵便局私書箱第１０号）",
    "office_name": "大野市役所",
    "office_name_kana": "オオノシヤクシヨ"
  },
  "8686": {
    "postcode": "9128686",
    "prefecture": "福井県",
    "prefecture_kana": "フクイケン",
    "prefecture_code": 18,
    "city": "大野市",
    "city_kana": "オオノシ",
    "town": "日吉町",
    "town_kana": "ヒヨシチョウ",
    "street": "２−１９（大野郵便局私書箱第８号）",
    "office_name": "越前信用金庫",
    "office_name_kana": "エチゼンシンヨウキンコ"
  }
}