{
  "0001": {
    "postcode": "9130001",
    "prefecture": "福井県",
    "prefecture_kana": "フクイケン",
    "prefecture_code": 18,
    "city": "坂井市",
    "city_kana": "サカイシ",
    "town": "三国町池上",
    "town_kana": "ミクニチョウイケガミ",
    "street": null,
    "office_name": null,
    "office_name_kana": null
  },
  "0002": {
    "postcode": "9130002",
    "prefecture": "福井県",
    "prefecture_kana": "フクイケン",
    "prefecture_code": 18,
    "city": "坂井市",
    "city_kana": "サカイシ",
    "town": "三国町加戸",
    "town_kana": "ミクニチョウカド",
    "street": null,
    "office_name": null,
    "office_name_kana": null
  },
  "0003": {
    "postcode": "9130003",
    "prefecture": "福井県",
    "prefecture_kana": "フクイケン",
    "prefecture_code": 18,
    "city": "坂井市",
    "city_kana": "サカイシ",
    "town": "三国町西谷",
    "town_kana": "ミクニチョウニシタニ",
    "street": null,
    "office_name": null,
    "office_name_kana": null
  },
  "0004": {
    "postcode": "9130004",
    "prefecture": "福井県",
    "prefecture_kana": "フクイケン",
    "prefecture_code": 18,
    "city": "坂井市",
    "city_kana": "サカイシ",
    "town": "三国町平山",
    "town_kana": "ミクニチョウヒラヤマ",
    "street": null,
    "office_name": null,
    "office_name_kana": null
  },
  "0005": {
    "postcode": "9130005",
    "prefecture": "福井県",
    "prefecture_kana": "フクイケン",
    "prefecture_code": 18,
    "city": "坂井市",
    "city_kana": "サカイシ",
    "town": "三国町浜地",
    "town_kana": "ミクニチョウハマジ",
    "street": null,
    "office_name": null,
    "office_name_kana": null
  },
  "0011": {
    "postcode": "9130011",
    "prefecture": "福井県",
    "prefecture_kana": "フクイケン",
    "prefecture_code": 18,
    "city": "坂井市",
    "city_kana": "サカイシ",
    "town": "三国町水居",
    "town_kana": "ミクニチョウミズイ",
    "street": null,
    "office_name": null,
    "office_name_kana": null
  },
  "0012": {
    "postcode": "9130012",
    "prefecture": "福井県",
    "prefecture_kana": "フクイケン",
    "prefecture_code": 18,
    "city": "坂井市",
    "city_kana": "サカイシ",
    "town": "三国町西今市",
    "town_kana": "ミクニチョウニシイマイチ",
    "street": null,
    "office_name": null,
    "office_name_kana": null
  },
  "0013": {
    "postcode": "9130013",
    "prefecture": "福井県",
    "prefecture_kana": "フクイケン",
    "prefecture_code": 18,
    "city": "坂井市",
    "city_kana": "サカイシ",
    "town": "三国町藤沢",
    "town_kana": "ミクニチョウフジサワ",
    "street": null,
    "office_name": null,
    "office_name_kana": null
  },
  "0014": {
    "postcode": "9130014",
    "prefecture": "福井県",
    "prefecture_kana": "フクイケン",
    "prefecture_code": 18,
    "city": "坂井市",
    "city_kana": "サカイシ",
    "town": "三国町玉江",
    "town_kana": "ミクニチョウトウノエ",
    "street": null,
    "office_name": null,
    "office_name_kana": null
  },
  "0015": {
    "postcode": "9130015",
    "prefecture": "福井県",
    "prefecture_kana": "フクイケン",
    "prefecture_code": 18,
    "city": "坂井市",
    "city_kana": "サカイシ",
    "town": "三国町野中",
    "town_kana": "ミクニチョウノナカ",
    "street": null,
    "office_name": null,
    "office_name_kana": null
  },
  "0016": {
    "postcode": "9130016",
    "prefecture": "福井県",
    "prefecture_kana": "フクイケン",
    "prefecture_code": 18,
    "city": "坂井市",
    "city_kana": "サカイシ",
    "town": "三国町三国東",
    "town_kana": "ミクニチョウミクニヒガシ",
    "street": null,
    "office_name": null,
    "office_name_kana": null
  },
  "0017": {
    "postcode": "9130017",
    "prefecture": "福井県",
    "prefecture_kana": "フクイケン",
    "prefecture_code": 18,
    "city": "坂井市",
    "city_kana": "サカイシ",
    "town": "三国町竹松",
    "town_kana": "ミクニチョウタケマツ",
    "street": null,
    "office_name": null,
    "office_name_kana": null
  },
  "0021": {
    "postcode": "9130021",
    "prefecture": "福井県",
    "prefecture_kana": "フクイケン",
    "prefecture_code": 18,
    "city": "坂井市",
    "city_kana": "サカイシ",
    "town": "三国町楽円",
    "town_kana": "ミクニチョウラクエン",
    "street": null,
    "office_name": null,
    "office_name_kana": null
  },
  "0022": {
    "postcode": "9130022",
    "prefecture": "福井県",
    "prefecture_kana": "フクイケン",
    "prefecture_code": 18,
    "city": "坂井市",
    "city_kana": "サカイシ",
    "town": "三国町油屋",
    "town_kana": "ミクニチョウアブラヤ",
    "street": null,
    "office_name": null,
    "office_name_kana": null
  },
  "0023": {
    "postcode": "9130023",
    "prefecture": "福井県",
    "prefecture_kana": "フクイケン",
    "prefecture_code": 18,
    "city": "坂井市",
    "city_kana": "サカイシ",
    "town": "三国町石丸",
    "town_kana": "ミクニチョウイシマル",
    "street": null,
    "office_name": null,
    "office_name_kana": null
  },
  "0024": {
    "postcode": "9130024",
    "prefecture": "福井県",
    "prefecture_kana": "フクイケン",
    "prefecture_code": 18,
    "city": "坂井市",
    "city_kana": "サカイシ",
    "town": "三国町池見",
    "town_kana": "ミクニチョウイケミ",
    "street": null,
    "office_name": null,
    "office_name_kana": null
  },
  "0025": {
    "postcode": "9130025",
    "prefecture": "福井県",
    "prefecture_kana": "フクイケン",
    "prefecture_code": 18,
    "city": "坂井市",
    "city_kana": "サカイシ",
    "town": "三国町川崎",
    "town_kana": "ミクニチョウカワサキ",
    "street": null,
    "office_name": null,
    "office_name_kana": null
  },
  "0026": {
    "postcode": "9130026",
    "prefecture": "福井県",
    "prefecture_kana": "フクイケン",
    "prefecture_code": 18,
    "city": "坂井市",
    "city_kana": "サカイシ",
    "town": "三国町殿島",
    "town_kana": "ミクニチョウトノシマ",
    "street": null,
    "office_name": null,
    "office_name_kana": null
  },
  "0027": {
    "postcode": "9130027",
    "prefecture": "福井県",
    "prefecture_kana": "フクイケン",
    "prefecture_code": 18,
    "city": "坂井市",
    "city_kana": "サカイシ",
    "town": "三国町汐見",
    "town_kana": "ミクニチョウシオミ",
    "street": null,
    "office_name": null,
    "office_name_kana": null
  },
  "0031": {
    "postcode": "9130031",
    "prefecture": "福井県",
    "prefecture_kana": "フクイケン",
    "prefecture_code": 18,
    "city": "坂井市",
    "city_kana": "サカイシ",
    "town": "三国町新保",
    "town_kana": "ミクニチョウシンボ",
    "street": null,
    "office_name": null,
    "office_name_kana": null
  },
  "0032": {
    "postcode": "9130032",
    "prefecture": "福井県",
    "prefecture_kana": "フクイケン",
    "prefecture_code": 18,
    "city": "坂井市",
    "city_kana": "サカイシ",
    "town": "三国町山岸",
    "town_kana": "ミクニチョウヤマギシ",
    "street": null,
    "office_name": null,
    "office_name_kana": null
  },
  "0033": {
    "postcode": "9130033",
    "prefecture": "福井県",
    "prefecture_kana": "フクイケン",
    "prefecture_code": 18,
    "city": "坂井市",
    "city_kana": "サカイシ",
    "town": "三国町下野",
    "town_kana": "ミクニチョウシモノ",
    "street": null,
    "office_name": null,
    "office_name_kana": null
  },
  "0034": {
    "postcode": "9130034",
    "prefecture": "福井県",
    "prefecture_kana": "フクイケン",
    "prefecture_code": 18,
    "city": "坂井市",
    "city_kana": "サカイシ",
    "town": "三国町西野中",
    "town_kana": "ミクニチョウニシノナカ",
    "street": null,
    "office_name": null,
    "office_name_kana": null
  },
  "0035": [
    {
      "postcode": "9130035",
      "prefecture": "福井県",
      "prefecture_kana": "フクイケン",
      "prefecture_code": 18,
      "city": "坂井市",
      "city_kana": "サカイシ",
      "town": "三国町沖野々",
      "town_kana": "ミクニチョウオキノノ",
      "street": null,
      "office_name": null,
      "office_name_kana": null
    },
    {
      "postcode": "9130035",
      "prefecture": "福井県",
      "prefecture_kana": "フクイケン",
      "prefecture_code": 18,
      "city": "坂井市",
      "city_kana": "サカイシ",
      "town": "三国町横越",
      "town_kana": "ミクニチョウヨコゴシ",
      "street": null,
      "office_name": null,
      "office_name_kana": null
    }
  ],
  "0036": {
    "postcode": "9130036",
    "prefecture": "福井県",
    "prefecture_kana": "フクイケン",
    "prefecture_code": 18,
    "city": "坂井市",
    "city_kana": "サカイシ",
    "town": "三国町米納津",
    "town_kana": "ミクニチョウヨノヅ",
    "street": null,
    "office_name": null,
    "office_name_kana": null
  },
  "0037": {
    "postcode": "9130037",
    "prefecture": "福井県",
    "prefecture_kana": "フクイケン",
    "prefecture_code": 18,
    "city": "坂井市",
    "city_kana": "サカイシ",
    "town": "三国町黒目",
    "town_kana": "ミクニチョウクロメ",
    "street": null,
    "office_name": null,
    "office_name_kana": null
  },
  "0038": [
    {
      "postcode": "9130038",
      "prefecture": "福井県",
      "prefecture_kana": "フクイケン",
      "prefecture_code": 18,
      "city": "坂井市",
      "city_kana": "サカイシ",
      "town": "三国町黒目",
      "town_kana": "ミクニチョウクロメ",
      "street": null,
      "office_name": null,
      "office_name_kana": null
    },
    {
      "postcode": "9130038",
      "prefecture": "福井県",
      "prefecture_kana": "フクイケン",
      "prefecture_code": 18,
      "city": "坂井市",
      "city_kana": "サカイシ",
      "town": "三国町黒目テクノポート",
      "town_kana": "ミクニチョウクロメテクノポート",
      "street": null,
      "office_name": null,
      "office_name_kana": null
    },
    {
      "postcode": "9130038",
      "prefecture": "福井県",
      "prefecture_kana": "フクイケン",
      "prefecture_code": 18,
      "city": "坂井市",
      "city_kana": "サカイシ",
      "town": "三国町新保",
      "town_kana": "ミクニチョウシンボ",
      "street": null,
      "office_name": null,
      "office_name_kana": null
    },
    {
      "postcode": "9130038",
      "prefecture": "福井県",
      "prefecture_kana": "フクイケン",
      "prefecture_code": 18,
      "city": "坂井市",
      "city_kana": "サカイシ",
      "town": "三国町新保テクノポート",
      "town_kana": "ミクニチョウシンボテクノポート",
      "street": null,
      "office_name": null,
      "office_name_kana": null
    },
    {
      "postcode": "9130038",
      "prefecture": "福井県",
      "prefecture_kana": "フクイケン",
      "prefecture_code": 18,
      "city": "坂井市",
      "city_kana": "サカイシ",
      "town": "三国町山岸",
      "town_kana": "ミクニチョウヤマギシ",
      "street": null,
      "office_name": null,
      "office_name_kana": null
    },
    {
      "postcode": "9130038",
      "prefecture": "福井県",
      "prefecture_kana": "フクイケン",
      "prefecture_code": 18,
      "city": "坂井市",
      "city_kana": "サカイシ",
      "town": "三国町山岸テクノポート",
      "town_kana": "ミクニチョウヤマギシテクノポート",
      "street": null,
      "office_name": null,
      "office_name_kana": null
    },
    {
      "postcode": "9130038",
      "prefecture": "福井県",
      "prefecture_kana": "フクイケン",
      "prefecture_code": 18,
      "city": "坂井市",
      "city_kana": "サカイシ",
      "town": "三国町米納津",
      "town_kana": "ミクニチョウヨノヅ",
      "street": null,
      "office_name": null,
      "office_name_kana": null
    },
    {
      "postcode": "9130038",
      "prefecture": "福井県",
      "prefecture_kana": "フクイケン",
      "prefecture_code": 18,
      "city": "坂井市",
      "city_kana": "サカイシ",
      "town": "三国町米納津テクノポート",
      "town_kana": "ミクニチョウヨノヅテクノポート",
      "street": null,
      "office_name": null,
      "office_name_kana": null
    }
  ],
  "0041": {
    "postcode": "9130041",
    "prefecture": "福井県",
    "prefecture_kana": "フクイケン",
    "prefecture_code": 18,
    "city": "坂井市",
    "city_kana": "サカイシ",
    "town": "三国町覚善",
    "town_kana": "ミクニチョウカクゼン",
    "street": null,
    "office_name": null,
    "office_name_kana": null
  },
  "0042": {
    "postcode": "9130042",
    "prefecture": "福井県",
    "prefecture_kana": "フクイケン",
    "prefecture_code": 18,
    "city": "坂井市",
    "city_kana": "サカイシ",
    "town": "三国町中央",
    "town_kana": "ミクニチョウチュウオウ",
    "street": null,
    "office_name": null,
    "office_name_kana": null
  },
  "0043": {
    "postcode": "9130043",
    "prefecture": "福井県",
    "prefecture_kana": "フクイケン",
    "prefecture_code": 18,
    "city": "坂井市",
    "city_kana": "サカイシ",
    "town": "三国町錦",
    "town_kana": "ミクニチョウニシキ",
    "street": null,
    "office_name": null,
    "office_name_kana": null
  },
  "0044": {
    "postcode": "9130044",
    "prefecture": "福井県",
    "prefecture_kana": "フクイケン",
    "prefecture_code": 18,
    "city": "坂井市",
    "city_kana": "サカイシ",
    "town": "三国町山王",
    "town_kana": "ミクニチョウサンノウ",
    "street": null,
    "office_name": null,
    "office_name_kana": null
  },
  "0045": {
    "postcode": "9130045",
    "prefecture": "福井県",
    "prefecture_kana": "フクイケン",
    "prefecture_code": 18,
    "city": "坂井市",
    "city_kana": "サカイシ",
    "town": "三国町南本町",
    "town_kana": "ミクニチョウミナミホンマチ",
    "street": null,
    "office_name": null,
    "office_name_kana": null
  },
  "0046": {
    "postcode": "9130046",
    "prefecture": "福井県",
    "prefecture_kana": "フクイケン",
    "prefecture_code": 18,
    "city": "坂井市",
    "city_kana": "サカイシ",
    "town": "三国町北本町",
    "town_kana": "ミクニチョウキタホンマチ",
    "street": null,
    "office_name": null,
    "office_name_kana": null
  },
  "0047": {
    "postcode": "9130047",
    "prefecture": "福井県",
    "prefecture_kana": "フクイケン",
    "prefecture_code": 18,
    "city": "坂井市",
    "city_kana": "サカイシ",
    "town": "三国町神明",
    "town_kana": "ミクニチョウシンメイ",
    "street": null,
    "office_name": null,
    "office_name_kana": null
  },
  "0048": {
    "postcode": "9130048",
    "prefecture": "福井県",
    "prefecture_kana": "フクイケン",
    "prefecture_code": 18,
    "city": "坂井市",
    "city_kana": "サカイシ",
    "town": "三国町緑ケ丘",
    "town_kana": "ミクニチョウミドリガオカ",
    "street": null,
    "office_name": null,
    "office_name_kana": null
  },
  "0051": {
    "postcode": "9130051",
    "prefecture": "福井県",
    "prefecture_kana": "フクイケン",
    "prefecture_code": 18,
    "city": "坂井市",
    "city_kana": "サカイシ",
    "town": "三国町嵩",
    "town_kana": "ミクニチョウダケ",
    "street": null,
    "office_name": null,
    "office_name_kana": null
  },
  "0052": {
    "postcode": "9130052",
    "prefecture": "福井県",
    "prefecture_kana": "フクイケン",
    "prefecture_code": 18,
    "city": "坂井市",
    "city_kana": "サカイシ",
    "town": "三国町運動公園",
    "town_kana": "ミクニチョウウンドウコウエン",
    "street": null,
    "office_name": null,
    "office_name_kana": null
  },
  "0053": {
    "postcode": "9130053",
    "prefecture": "福井県",
    "prefecture_kana": "フクイケン",
    "prefecture_code": 18,
    "city": "坂井市",
    "city_kana": "サカイシ",
    "town": "三国町青葉台",
    "town_kana": "ミクニチョウアオバダイ",
    "street": null,
    "office_name": null,
    "office_name_kana": null
  },
  "0054": {
    "postcode": "9130054",
    "prefecture": "福井県",
    "prefecture_kana": "フクイケン",
    "prefecture_code": 18,
    "city": "坂井市",
    "city_kana": "サカイシ",
    "town": "三国町滝谷",
    "town_kana": "ミクニチョウタキダニ",
    "street": null,
    "office_name": null,
    "office_name_kana": null
  },
  "0055": {
    "postcode": "9130055",
    "prefecture": "福井県",
    "prefecture_kana": "フクイケン",
    "prefecture_code": 18,
    "city": "坂井市",
    "city_kana": "サカイシ",
    "town": "三国町つつじが丘",
    "town_kana": "ミクニチョウツツジガオカ",
    "street": null,
    "office_name": null,
    "office_name_kana": null
  },
  "0056": {
    "postcode": "9130056",
    "prefecture": "福井県",
    "prefecture_kana": "フクイケン",
    "prefecture_code": 18,
    "city": "坂井市",
    "city_kana": "サカイシ",
    "town": "三国町宿",
    "town_kana": "ミクニチョウシュク",
    "street": null,
    "office_name": null,
    "office_name_kana": null
  },
  "0057": {
    "postcode": "9130057",
    "prefecture": "福井県",
    "prefecture_kana": "フクイケン",
    "prefecture_code": 18,
    "city": "坂井市",
    "city_kana": "サカイシ",
    "town": "三国町米ケ脇",
    "town_kana": "ミクニチョウコメガワキ",
    "street": null,
    "office_name": null,
    "office_name_kana": null
  },
  "0058": {
    "postcode": "9130058",
    "prefecture": "福井県",
    "prefecture_kana": "フクイケン",
    "prefecture_code": 18,
    "city": "坂井市",
    "city_kana": "サカイシ",
    "town": "三国町新宿",
    "town_kana": "ミクニチョウシンシュク",
    "street": null,
    "office_name": null,
    "office_name_kana": null
  },
  "0061": {
    "postcode": "9130061",
    "prefecture": "福井県",
    "prefecture_kana": "フクイケン",
    "prefecture_code": 18,
    "city": "坂井市",
    "city_kana": "サカイシ",
    "town": "三国町梶",
    "town_kana": "ミクニチョウカジ",
    "street": null,
    "office_name": null,
    "office_name_kana": null
  },
  "0062": {
    "postcode": "9130062",
    "prefecture": "福井県",
    "prefecture_kana": "フクイケン",
    "prefecture_code": 18,
    "city": "坂井市",
    "city_kana": "サカイシ",
    "town": "三国町陣ケ岡",
    "town_kana": "ミクニチョウジンガオカ",
    "street": null,
    "office_name": null,
    "office_name_kana": null
  },
  "0063": [
    {
      "postcode": "9130063",
      "prefecture": "福井県",
      "prefecture_kana": "フクイケン",
      "prefecture_code": 18,
      "city": "坂井市",
      "city_kana": "サカイシ",
      "town": "三国町安島",
      "town_kana": "ミクニチョウアントウ",
      "street": null,
      "office_name": null,
      "office_name_kana": null
    },
    {
      "postcode": "9130063",
      "prefecture": "福井県",
      "prefecture_kana": "フクイケン",
      "prefecture_code": 18,
      "city": "坂井市",
      "city_kana": "サカイシ",
      "town": "三国町安島東尋坊",
      "town_kana": "ミクニチョウアントウトウジンボウ",
      "street": null,
      "office_name": null,
      "office_name_kana": null
    }
  ],
  "0064": {
    "postcode": "9130064",
    "prefecture": "福井県",
    "prefecture_kana": "フクイケン",
    "prefecture_code": 18,
    "city": "坂井市",
    "city_kana": "サカイシ",
    "town": "三国町安島",
    "town_kana": "ミクニチョウアントウ",
    "street": null,
    "office_name": null,
    "office_name_kana": null
  },
  "0065": {
    "postcode": "9130065",
    "prefecture": "福井県",
    "prefecture_kana": "フクイケン",
    "prefecture_code": 18,
    "city": "坂井市",
    "city_kana": "サカイシ",
    "town": "三国町崎",
    "town_kana": "ミクニチョウサキ",
    "street": null,
    "office_name": null,
    "office_name_kana": null
  },
  "8501": {
    "postcode": "9138501",
    "prefecture": "福井県",
    "prefecture_kana": "フクイケン",
    "prefecture_code": 18,
    "city": "坂井市",
    "city_kana": "サカイシ",
    "town": "三国町中央",
    "town_kana": "ミクニチョウチュウオウ",
    "street": "１丁目５−１",
    "office_name": "坂井市役所　三国総合支所",
    "office_name_kana": "サカイシヤクシヨ ミクニソウゴウシシヨ"
  },
  "8511": {
    "postcode": "9138511",
    "prefecture": "福井県",
    "prefecture_kana": "フクイケン",
    "prefecture_code": 18,
    "city": "坂井市",
    "city_kana": "サカイシ",
    "town": "三国町水居",
    "town_kana": "ミクニチョウミズイ",
    "street": "１７−４５",
    "office_name": "坂井県税事務所",
    "office_name_kana": "サカイケンゼイジムシヨ"
  },
  "8533": {
    "postcode": "9138533",
    "prefecture": "福井県",
    "prefecture_kana": "フクイケン",
    "prefecture_code": 18,
    "city": "坂井市",
    "city_kana": "サカイシ",
    "town": "三国町池上",
    "town_kana": "ミクニチョウイケガミ",
    "street": "第８０号１番地",
    "office_name": "越前三国競艇企業団",
    "office_name_kana": "エチゼンミクニキヨウテイキギヨウダン"
  },
  "8555": {
    "postcode": "9138555",
    "prefecture": "福井県",
    "prefecture_kana": "フクイケン",
    "prefecture_code": 18,
    "city": "坂井市",
    "city_kana": "サカイシ",
    "town": "三国町緑ケ丘",
    "town_kana": "ミクニチョウミドリガオカ",
    "street": "２丁目１−３",
    "office_name": "福井県立　三国高等学校",
    "office_name_kana": "フクイケンリツ ミクニコウトウガツコウ"
  },
  "8577": {
    "postcode": "9138577",
    "prefecture": "福井県",
    "prefecture_kana": "フクイケン",
    "prefecture_code": 18,
    "city": "坂井市",
    "city_kana": "サカイシ",
    "town": "三国町池上",
    "town_kana": "ミクニチョウイケガミ",
    "street": "８０−１",
    "office_name": "三国観光産業　株式会社",
    "office_name_kana": "ミクニカンコウサンギヨウ カブシキガイシヤ"
  },
  "8585": {
    "postcode": "9138585",
    "prefecture": "福井県",
    "prefecture_kana": "フクイケン",
    "prefecture_code": 18,
    "city": "坂井市",
    "city_kana": "サカイシ",
    "town": "三国町中央",
    "town_kana": "ミクニチョウチュウオウ",
    "street": "１丁目２−２",
    "office_name": "三国税務署",
    "office_name_kana": "ミクニゼイムシヨ"
  },
  "8588": {
    "postcode": "9138588",
    "prefecture": "福井県",
    "prefecture_kana": "フクイケン",
    "prefecture_code": 18,
    "city": "坂井市",
    "city_kana": "サカイシ",
    "town": "三国町黒目",
    "town_kana": "ミクニチョウクロメ",
    "street": "２１字１番地",
    "office_name": "古河スカイ　（株）　福井工場",
    "office_name_kana": "フルカワスカイ (カブ) フクイコウジヨウ"
  },
  "8611": {
    "postcode": "9138611",
    "prefecture": "福井県",
    "prefecture_kana": "フクイケン",
    "prefecture_code": 18,
    "city": "坂井市",
    "city_kana": "サカイシ",
    "town": "三国町中央",
    "town_kana": "ミクニチョウチュウオウ",
    "street": "１丁目３−１（三国郵便局私書箱第２号）",
    "office_name": "坂井市立　三国病院",
    "office_name_kana": "サカイシリツ ミクニビヨウイン"
  }
}