{
  "0000": {
    "postcode": "9140000",
    "prefecture": "福井県",
    "prefecture_kana": "フクイケン",
    "prefecture_code": 18,
    "city": "敦賀市",
    "city_kana": "ツルガシ",
    "town": "",
    "town_kana": "",
    "street": null,
    "office_name": null,
    "office_name_kana": null
  },
  "0001": {
    "postcode": "9140001",
    "prefecture": "福井県",
    "prefecture_kana": "フクイケン",
    "prefecture_code": 18,
    "city": "敦賀市",
    "city_kana": "ツルガシ",
    "town": "新保",
    "town_kana": "シンボ",
    "street": null,
    "office_name": null,
    "office_name_kana": null
  },
  "0002": {
    "postcode": "9140002",
    "prefecture": "福井県",
    "prefecture_kana": "フクイケン",
    "prefecture_code": 18,
    "city": "敦賀市",
    "city_kana": "ツルガシ",
    "town": "葉原",
    "town_kana": "ハバラ",
    "street": null,
    "office_name": null,
    "office_name_kana": null
  },
  "0003": {
    "postcode": "9140003",
    "prefecture": "福井県",
    "prefecture_kana": "フクイケン",
    "prefecture_code": 18,
    "city": "敦賀市",
    "city_kana": "ツルガシ",
    "town": "獺河内",
    "town_kana": "ウソゴウチ",
    "street": null,
    "office_name": null,
    "office_name_kana": null
  },
  "0004": {
    "postcode": "9140004",
    "prefecture": "福井県",
    "prefecture_kana": "フクイケン",
    "prefecture_code": 18,
    "city": "敦賀市",
    "city_kana": "ツルガシ",
    "town": "池河内",
    "town_kana": "イケノコウチ",
    "street": null,
    "office_name": null,
    "office_name_kana": null
  },
  "0005": {
    "postcode": "9140005",
    "prefecture": "福井県",
    "prefecture_kana": "フクイケン",
    "prefecture_code": 18,
    "city": "敦賀市",
    "city_kana": "ツルガシ",
    "town": "樫曲",
    "town_kana": "カシマガリ",
    "street": null,
    "office_name": null,
    "office_name_kana": null
  },
  "0006": {
    "postcode": "9140006",
    "prefecture": "福井県",
    "prefecture_kana": "フクイケン",
    "prefecture_code": 18,
    "city": "敦賀市",
    "city_kana": "ツルガシ",
    "town": "越坂",
    "town_kana": "オッサカ",
    "street": null,
    "office_name": null,
    "office_name_kana": null
  },
  "0007": {
    "postcode": "9140007",
    "prefecture": "福井県",
    "prefecture_kana": "フクイケン",
    "prefecture_code": 18,
    "city": "敦賀市",
    "city_kana": "ツルガシ",
    "town": "田尻",
    "town_kana": "タジリ",
    "street": null,
    "office_name": null,
    "office_name_kana": null
  },
  "0011": {
    "postcode": "9140011",
    "prefecture": "福井県",
    "prefecture_kana": "フクイケン",
    "prefecture_code": 18,
    "city": "敦賀市",
    "city_kana": "ツルガシ",
    "town": "深山寺",
    "town_kana": "ミヤマデラ",
    "street": null,
    "office_name": null,
    "office_name_kana": null
  },
  "0012": {
    "postcode": "9140012",
    "prefecture": "福井県",
    "prefecture_kana": "フクイケン",
    "prefecture_code": 18,
    "city": "敦賀市",
    "city_kana": "ツルガシ",
    "town": "川北",
    "town_kana": "カワキタ",
    "street": null,
    "office_name": null,
    "office_name_kana": null
  },
  "0013": {
    "postcode": "9140013",
    "prefecture": "福井県",
    "prefecture_kana": "フクイケン",
    "prefecture_code": 18,
    "city": "敦賀市",
    "city_kana": "ツルガシ",
    "town": "谷口",
    "town_kana": "タニグチ",
    "street": null,
    "office_name": null,
    "office_name_kana": null
  },
  "0014": {
    "postcode": "9140014",
    "prefecture": "福井県",
    "prefecture_kana": "フクイケン",
    "prefecture_code": 18,
    "city": "敦賀市",
    "city_kana": "ツルガシ",
    "town": "井川",
    "town_kana": "イガワ",
    "street": null,
    "office_name": null,
    "office_name_kana": null
  },
  "0015": {
    "postcode": "9140015",
    "prefecture": "福井県",
    "prefecture_kana": "フクイケン",
    "prefecture_code": 18,
    "city": "敦賀市",
    "city_kana": "ツルガシ",
    "town": "河原町",
    "town_kana": "カワハラチョウ",
    "street": null,
    "office_name": null,
    "office_name_kana": null
  },
  "0016": {
    "postcode": "9140016",
    "prefecture": "福井県",
    "prefecture_kana": "フクイケン",
    "prefecture_code": 18,
    "city": "敦賀市",
    "city_kana": "ツルガシ",
    "town": "余座",
    "town_kana": "ヨザ",
    "street": null,
    "office_name": null,
    "office_name_kana": null
  },
  "0017": {
    "postcode": "9140017",
    "prefecture": "福井県",
    "prefecture_kana": "フクイケン",
    "prefecture_code": 18,
    "city": "敦賀市",
    "city_kana": "ツルガシ",
    "town": "藤ケ丘町",
    "town_kana": "フジガオカチョウ",
    "street": null,
    "office_name": null,
    "office_name_kana": null
  },
  "0018": {
    "postcode": "9140018",
    "prefecture": "福井県",
    "prefecture_kana": "フクイケン",
    "prefecture_code": 18,
    "city": "敦賀市",
    "city_kana": "ツルガシ",
    "town": "大蔵",
    "town_kana": "オオクラ",
    "street": null,
    "office_name": null,
    "office_name_kana": null
  },
  "0021": {
    "postcode": "9140021",
    "prefecture": "福井県",
    "prefecture_kana": "フクイケン",
    "prefecture_code": 18,
    "city": "敦賀市",
    "city_kana": "ツルガシ",
    "town": "泉ケ丘町",
    "town_kana": "イズミガオカチョウ",
    "street": null,
    "office_name": null,
    "office_name_kana": null
  },
  "0022": {
    "postcode": "9140022",
    "prefecture": "福井県",
    "prefecture_kana": "フクイケン",
    "prefecture_code": 18,
    "city": "敦賀市",
    "city_kana": "ツルガシ",
    "town": "高野",
    "town_kana": "タカノ",
    "street": null,
    "office_name": null,
    "office_name_kana": null
  },
  "0023": {
    "postcode": "9140023",
    "prefecture": "福井県",
    "prefecture_kana": "フクイケン",
    "prefecture_code": 18,
    "city": "敦賀市",
    "city_kana": "ツルガシ",
    "town": "深川町",
    "town_kana": "フカガワチョウ",
    "street": null,
    "office_name": null,
    "office_name_kana": null
  },
  "0024": {
    "postcode": "9140024",
    "prefecture": "福井県",
    "prefecture_kana": "フクイケン",
    "prefecture_code": 18,
    "city": "敦賀市",
    "city_kana": "ツルガシ",
    "town": "吉河",
    "town_kana": "ヨシコ",
    "street": null,
    "office_name": null,
    "office_name_kana": null
  },
  "0025": {
    "postcode": "9140025",
    "prefecture": "福井県",
    "prefecture_kana": "フクイケン",
    "prefecture_code": 18,
    "city": "敦賀市",
    "city_kana": "ツルガシ",
    "town": "樋ノ水町",
    "town_kana": "ヒノミズチョウ",
    "street": null,
    "office_name": null,
    "office_name_kana": null
  },
  "0026": {
    "postcode": "9140026",
    "prefecture": "福井県",
    "prefecture_kana": "フクイケン",
    "prefecture_code": 18,
    "city": "敦賀市",
    "city_kana": "ツルガシ",
    "town": "木ノ芽町",
    "town_kana": "キノメチョウ",
    "street": null,
    "office_name": null,
    "office_name_kana": null
  },
  "0027": {
    "postcode": "9140027",
    "prefecture": "福井県",
    "prefecture_kana": "フクイケン",
    "prefecture_code": 18,
    "city": "敦賀市",
    "city_kana": "ツルガシ",
    "town": "若泉町",
    "town_kana": "ワカイズミチョウ",
    "street": null,
    "office_name": null,
    "office_name_kana": null
  },
  "0028": {
    "postcode": "9140028",
    "prefecture": "福井県",
    "prefecture_kana": "フクイケン",
    "prefecture_code": 18,
    "city": "敦賀市",
    "city_kana": "ツルガシ",
    "town": "中",
    "town_kana": "ナカ",
    "street": null,
    "office_name": null,
    "office_name_kana": null
  },
  "0031": {
    "postcode": "9140031",
    "prefecture": "福井県",
    "prefecture_kana": "フクイケン",
    "prefecture_code": 18,
    "city": "敦賀市",
    "city_kana": "ツルガシ",
    "town": "谷",
    "town_kana": "タニ",
    "street": null,
    "office_name": null,
    "office_name_kana": null
  },
  "0032": {
    "postcode": "9140032",
    "prefecture": "福井県",
    "prefecture_kana": "フクイケン",
    "prefecture_code": 18,
    "city": "敦賀市",
    "city_kana": "ツルガシ",
    "town": "小河",
    "town_kana": "オゴ",
    "street": null,
    "office_name": null,
    "office_name_kana": null
  },
  "0033": {
    "postcode": "9140033",
    "prefecture": "福井県",
    "prefecture_kana": "フクイケン",
    "prefecture_code": 18,
    "city": "敦賀市",
    "city_kana": "ツルガシ",
    "town": "鳩原",
    "town_kana": "ハトハラ",
    "street": null,
    "office_name": null,
    "office_name_kana": null
  },
  "0034": {
    "postcode": "9140034",
    "prefecture": "福井県",
    "prefecture_kana": "フクイケン",
    "prefecture_code": 18,
    "city": "敦賀市",
    "city_kana": "ツルガシ",
    "town": "小河口",
    "town_kana": "オゴグチ",
    "street": null,
    "office_name": null,
    "office_name_kana": null
  },
  "0035": {
    "postcode": "9140035",
    "prefecture": "福井県",
    "prefecture_kana": "フクイケン",
    "prefecture_code": 18,
    "city": "敦賀市",
    "city_kana": "ツルガシ",
    "town": "山泉",
    "town_kana": "ヤマシミズ",
    "street": null,
    "office_name": null,
    "office_name_kana": null
  },
  "0036": {
    "postcode": "9140036",
    "prefecture": "福井県",
    "prefecture_kana": "フクイケン",
    "prefecture_code": 18,
    "city": "敦賀市",
    "city_kana": "ツルガシ",
    "town": "堂",
    "town_kana": "ドウ",
    "street": null,
    "office_name": null,
    "office_name_kana": null
  },
  "0037": {
    "postcode": "9140037",
    "prefecture": "福井県",
    "prefecture_kana": "フクイケン",
    "prefecture_code": 18,
    "city": "敦賀市",
    "city_kana": "ツルガシ",
    "town": "道口",
    "town_kana": "ミチノクチ",
    "street": null,
    "office_name": null,
    "office_name_kana": null
  },
  "0038": {
    "postcode": "9140038",
    "prefecture": "福井県",
    "prefecture_kana": "フクイケン",
    "prefecture_code": 18,
    "city": "敦賀市",
    "city_kana": "ツルガシ",
    "town": "坂下",
    "town_kana": "サカノシタ",
    "street": null,
    "office_name": null,
    "office_name_kana": null
  },
  "0039": [
    {
      "postcode": "9140039",
      "prefecture": "福井県",
      "prefecture_kana": "フクイケン",
      "prefecture_code": 18,
      "city": "敦賀市",
      "city_kana": "ツルガシ",
      "town": "観音町",
      "town_kana": "カンノンチョウ",
      "street": null,
      "office_name": null,
      "office_name_kana": null
    },
    {
      "postcode": "9140039",
      "prefecture": "福井県",
      "prefecture_kana": "フクイケン",
      "prefecture_code": 18,
      "city": "敦賀市",
      "city_kana": "ツルガシ",
      "town": "羽織町",
      "town_kana": "ハオリチョウ",
      "street": null,
      "office_name": null,
      "office_name_kana": null
    }
  ],
  "0041": {
    "postcode": "9140041",
    "prefecture": "福井県",
    "prefecture_kana": "フクイケン",
    "prefecture_code": 18,
    "city": "敦賀市",
    "city_kana": "ツルガシ",
    "town": "布田町",
    "town_kana": "ヌノダチョウ",
    "street": null,
    "office_name": null,
    "office_name_kana": null
  },
  "0042": {
    "postcode": "9140042",
    "prefecture": "福井県",
    "prefecture_kana": "フクイケン",
    "prefecture_code": 18,
    "city": "敦賀市",
    "city_kana": "ツルガシ",
    "town": "石ケ町",
    "town_kana": "イシガチョウ",
    "street": null,
    "office_name": null,
    "office_name_kana": null
  },
  "0043": {
    "postcode": "9140043",
    "prefecture": "福井県",
    "prefecture_kana": "フクイケン",
    "prefecture_code": 18,
    "city": "敦賀市",
    "city_kana": "ツルガシ",
    "town": "衣掛町",
    "town_kana": "キヌカケチョウ",
    "street": null,
    "office_name": null,
    "office_name_kana": null
  },
  "0044": {
    "postcode": "9140044",
    "prefecture": "福井県",
    "prefecture_kana": "フクイケン",
    "prefecture_code": 18,
    "city": "敦賀市",
    "city_kana": "ツルガシ",
    "town": "岡山町",
    "town_kana": "オカヤマチョウ",
    "street": null,
    "office_name": null,
    "office_name_kana": null
  },
  "0045": {
    "postcode": "9140045",
    "prefecture": "福井県",
    "prefecture_kana": "フクイケン",
    "prefecture_code": 18,
    "city": "敦賀市",
    "city_kana": "ツルガシ",
    "town": "古田刈",
    "town_kana": "コタカリ",
    "street": null,
    "office_name": null,
    "office_name_kana": null
  },
  "0046": {
    "postcode": "9140046",
    "prefecture": "福井県",
    "prefecture_kana": "フクイケン",
    "prefecture_code": 18,
    "city": "敦賀市",
    "city_kana": "ツルガシ",
    "town": "長沢",
    "town_kana": "ナガソ",
    "street": null,
    "office_name": null,
    "office_name_kana": null
  },
  "0047": {
    "postcode": "9140047",
    "prefecture": "福井県",
    "prefecture_kana": "フクイケン",
    "prefecture_code": 18,
    "city": "敦賀市",
    "city_kana": "ツルガシ",
    "town": "東洋町",
    "town_kana": "トウヨウチョウ",
    "street": null,
    "office_name": null,
    "office_name_kana": null
  },
  "0051": {
    "postcode": "9140051",
    "prefecture": "福井県",
    "prefecture_kana": "フクイケン",
    "prefecture_code": 18,
    "city": "敦賀市",
    "city_kana": "ツルガシ",
    "town": "本町",
    "town_kana": "ホンマチ",
    "street": null,
    "office_name": null,
    "office_name_kana": null
  },
  "0052": {
    "postcode": "9140052",
    "prefecture": "福井県",
    "prefecture_kana": "フクイケン",
    "prefecture_code": 18,
    "city": "敦賀市",
    "city_kana": "ツルガシ",
    "town": "清水町",
    "town_kana": "キヨミズチョウ",
    "street": null,
    "office_name": null,
    "office_name_kana": null
  },
  "0053": {
    "postcode": "9140053",
    "prefecture": "福井県",
    "prefecture_kana": "フクイケン",
    "prefecture_code": 18,
    "city": "敦賀市",
    "city_kana": "ツルガシ",
    "town": "舞崎町",
    "town_kana": "マイザキチョウ",
    "street": null,
    "office_name": null,
    "office_name_kana": null
  },
  "0054": {
    "postcode": "9140054",
    "prefecture": "福井県",
    "prefecture_kana": "フクイケン",
    "prefecture_code": 18,
    "city": "敦賀市",
    "city_kana": "ツルガシ",
    "town": "白銀町",
    "town_kana": "シロガネチョウ",
    "street": null,
    "office_name": null,
    "office_name_kana": null
  },
  "0055": {
    "postcode": "9140055",
    "prefecture": "福井県",
    "prefecture_kana": "フクイケン",
    "prefecture_code": 18,
    "city": "敦賀市",
    "city_kana": "ツルガシ",
    "town": "鉄輪町",
    "town_kana": "カナワチョウ",
    "street": null,
    "office_name": null,
    "office_name_kana": null
  },
  "0056": {
    "postcode": "9140056",
    "prefecture": "福井県",
    "prefecture_kana": "フクイケン",
    "prefecture_code": 18,
    "city": "敦賀市",
    "city_kana": "ツルガシ",
    "town": "津内町",
    "town_kana": "ツナイチョウ",
    "street": null,
    "office_name": null,
    "office_name_kana": null
  },
  "0057": {
    "postcode": "9140057",
    "prefecture": "福井県",
    "prefecture_kana": "フクイケン",
    "prefecture_code": 18,
    "city": "敦賀市",
    "city_kana": "ツルガシ",
    "town": "開町",
    "town_kana": "ヒラキチョウ",
    "street": null,
    "office_name": null,
    "office_name_kana": null
  },
  "0058": {
    "postcode": "9140058",
    "prefecture": "福井県",
    "prefecture_kana": "フクイケン",
    "prefecture_code": 18,
    "city": "敦賀市",
    "city_kana": "ツルガシ",
    "town": "三島町",
    "town_kana": "ミシマチョウ",
    "street": null,
    "office_name": null,
    "office_name_kana": null
  },
  "0059": {
    "postcode": "9140059",
    "prefecture": "福井県",
    "prefecture_kana": "フクイケン",
    "prefecture_code": 18,
    "city": "敦賀市",
    "city_kana": "ツルガシ",
    "town": "国広町",
    "town_kana": "クニヒロチョウ",
    "street": null,
    "office_name": null,
    "office_name_kana": null
  },
  "0061": {
    "postcode": "9140061",
    "prefecture": "福井県",
    "prefecture_kana": "フクイケン",
    "prefecture_code": 18,
    "city": "敦賀市",
    "city_kana": "ツルガシ",
    "town": "蓬莱町",
    "town_kana": "ホウライチョウ",
    "street": null,
    "office_name": null,
    "office_name_kana": null
  },
  "0062": {
    "postcode": "9140062",
    "prefecture": "福井県",
    "prefecture_kana": "フクイケン",
    "prefecture_code": 18,
    "city": "敦賀市",
    "city_kana": "ツルガシ",
    "town": "相生町",
    "town_kana": "アイオイチョウ",
    "street": null,
    "office_name": null,
    "office_name_kana": null
  },
  "0063": {
    "postcode": "9140063",
    "prefecture": "福井県",
    "prefecture_kana": "フクイケン",
    "prefecture_code": 18,
    "city": "敦賀市",
    "city_kana": "ツルガシ",
    "town": "神楽町",
    "town_kana": "カグラチョウ",
    "street": null,
    "office_name": null,
    "office_name_kana": null
  },
  "0064": {
    "postcode": "9140064",
    "prefecture": "福井県",
    "prefecture_kana": "フクイケン",
    "prefecture_code": 18,
    "city": "敦賀市",
    "city_kana": "ツルガシ",
    "town": "結城町",
    "town_kana": "ユウキチョウ",
    "street": null,
    "office_name": null,
    "office_name_kana": null
  },
  "0065": {
    "postcode": "9140065",
    "prefecture": "福井県",
    "prefecture_kana": "フクイケン",
    "prefecture_code": 18,
    "city": "敦賀市",
    "city_kana": "ツルガシ",
    "town": "松栄町",
    "town_kana": "マツエチョウ",
    "street": null,
    "office_name": null,
    "office_name_kana": null
  },
  "0066": {
    "postcode": "9140066",
    "prefecture": "福井県",
    "prefecture_kana": "フクイケン",
    "prefecture_code": 18,
    "city": "敦賀市",
    "city_kana": "ツルガシ",
    "town": "川崎町",
    "town_kana": "カワサキチョウ",
    "street": null,
    "office_name": null,
    "office_name_kana": null
  },
  "0071": {
    "postcode": "9140071",
    "prefecture": "福井県",
    "prefecture_kana": "フクイケン",
    "prefecture_code": 18,
    "city": "敦賀市",
    "city_kana": "ツルガシ",
    "town": "泉",
    "town_kana": "シミズ",
    "street": null,
    "office_name": null,
    "office_name_kana": null
  },
  "0072": {
    "postcode": "9140072",
    "prefecture": "福井県",
    "prefecture_kana": "フクイケン",
    "prefecture_code": 18,
    "city": "敦賀市",
    "city_kana": "ツルガシ",
    "town": "金ケ崎町",
    "town_kana": "カネガサキチョウ",
    "street": null,
    "office_name": null,
    "office_name_kana": null
  },
  "0073": {
    "postcode": "9140073",
    "prefecture": "福井県",
    "prefecture_kana": "フクイケン",
    "prefecture_code": 18,
    "city": "敦賀市",
    "city_kana": "ツルガシ",
    "town": "天筒町",
    "town_kana": "テヅツチョウ",
    "street": null,
    "office_name": null,
    "office_name_kana": null
  },
  "0074": {
    "postcode": "9140074",
    "prefecture": "福井県",
    "prefecture_kana": "フクイケン",
    "prefecture_code": 18,
    "city": "敦賀市",
    "city_kana": "ツルガシ",
    "town": "角鹿町",
    "town_kana": "ツノガチョウ",
    "street": null,
    "office_name": null,
    "office_name_kana": null
  },
  "0075": {
    "postcode": "9140075",
    "prefecture": "福井県",
    "prefecture_kana": "フクイケン",
    "prefecture_code": 18,
    "city": "敦賀市",
    "city_kana": "ツルガシ",
    "town": "曙町",
    "town_kana": "アケボノチョウ",
    "street": null,
    "office_name": null,
    "office_name_kana": null
  },
  "0076": {
    "postcode": "9140076",
    "prefecture": "福井県",
    "prefecture_kana": "フクイケン",
    "prefecture_code": 18,
    "city": "敦賀市",
    "city_kana": "ツルガシ",
    "town": "元町",
    "town_kana": "モトマチ",
    "street": null,
    "office_name": null,
    "office_name_kana": null
  },
  "0077": {
    "postcode": "9140077",
    "prefecture": "福井県",
    "prefecture_kana": "フクイケン",
    "prefecture_code": 18,
    "city": "敦賀市",
    "city_kana": "ツルガシ",
    "town": "栄新町",
    "town_kana": "サカエシンマチ",
    "street": null,
    "office_name": null,
    "office_name_kana": null
  },
  "0078": {
    "postcode": "9140078",
    "prefecture": "福井県",
    "prefecture_kana": "フクイケン",
    "prefecture_code": 18,
    "city": "敦賀市",
    "city_kana": "ツルガシ",
    "town": "桜町",
    "town_kana": "サクラマチ",
    "street": null,
    "office_name": null,
    "office_name_kana": null
  },
  "0079": {
    "postcode": "9140079",
    "prefecture": "福井県",
    "prefecture_kana": "フクイケン",
    "prefecture_code": 18,
    "city": "敦賀市",
    "city_kana": "ツルガシ",
    "town": "港町",
    "town_kana": "ミナトマチ",
    "street": null,
    "office_name": null,
    "office_name_kana": null
  },
  "0121": {
    "postcode": "9140121",
    "prefecture": "福井県",
    "prefecture_kana": "フクイケン",
    "prefecture_code": 18,
    "city": "敦賀市",
    "city_kana": "ツルガシ",
    "town": "野神",
    "town_kana": "ノガミ",
    "street": null,
    "office_name": null,
    "office_name_kana": null
  },
  "0122": {
    "postcode": "9140122",
    "prefecture": "福井県",
    "prefecture_kana": "フクイケン",
    "prefecture_code": 18,
    "city": "敦賀市",
    "city_kana": "ツルガシ",
    "town": "新和町",
    "town_kana": "シンワチョウ",
    "street": null,
    "office_name": null,
    "office_name_kana": null
  },
  "0123": {
    "postcode": "9140123",
    "prefecture": "福井県",
    "prefecture_kana": "フクイケン",
    "prefecture_code": 18,
    "city": "敦賀市",
    "city_kana": "ツルガシ",
    "town": "和久野",
    "town_kana": "ワクノ",
    "street": null,
    "office_name": null,
    "office_name_kana": null
  },
  "0124": [
    {
      "postcode": "9140124",
      "prefecture": "福井県",
      "prefecture_kana": "フクイケン",
      "prefecture_code": 18,
      "city": "敦賀市",
      "city_kana": "ツルガシ",
      "town": "市野々",
      "town_kana": "イチノノ",
      "street": null,
      "office_name": null,
      "office_name_kana": null
    },
    {
      "postcode": "9140124",
      "prefecture": "福井県",
      "prefecture_kana": "フクイケン",
      "prefecture_code": 18,
      "city": "敦賀市",
      "city_kana": "ツルガシ",
      "town": "市野々町",
      "town_kana": "イチノノチョウ",
      "street": null,
      "office_name": null,
      "office_name_kana": null
    }
  ],
  "0125": {
    "postcode": "9140125",
    "prefecture": "福井県",
    "prefecture_kana": "フクイケン",
    "prefecture_code": 18,
    "city": "敦賀市",
    "city_kana": "ツルガシ",
    "town": "若葉町",
    "town_kana": "ワカバチョウ",
    "street": null,
    "office_name": null,
    "office_name_kana": null
  },
  "0131": {
    "postcode": "9140131",
    "prefecture": "福井県",
    "prefecture_kana": "フクイケン",
    "prefecture_code": 18,
    "city": "敦賀市",
    "city_kana": "ツルガシ",
    "town": "公文名",
    "town_kana": "クモンミョウ",
    "street": null,
    "office_name": null,
    "office_name_kana": null
  },
  "0132": {
    "postcode": "9140132",
    "prefecture": "福井県",
    "prefecture_kana": "フクイケン",
    "prefecture_code": 18,
    "city": "敦賀市",
    "city_kana": "ツルガシ",
    "town": "御名",
    "town_kana": "ゴミョウ",
    "street": null,
    "office_name": null,
    "office_name_kana": null
  },
  "0133": {
    "postcode": "9140133",
    "prefecture": "福井県",
    "prefecture_kana": "フクイケン",
    "prefecture_code": 18,
    "city": "敦賀市",
    "city_kana": "ツルガシ",
    "town": "みどりケ丘町",
    "town_kana": "ミドリガオカチョウ",
    "street": null,
    "office_name": null,
    "office_name_kana": null
  },
  "0134": {
    "postcode": "9140134",
    "prefecture": "福井県",
    "prefecture_kana": "フクイケン",
    "prefecture_code": 18,
    "city": "敦賀市",
    "city_kana": "ツルガシ",
    "town": "山",
    "town_kana": "ヤマ",
    "street": null,
    "office_name": null,
    "office_name_kana": null
  },
  "0135": {
    "postcode": "9140135",
    "prefecture": "福井県",
    "prefecture_kana": "フクイケン",
    "prefecture_code": 18,
    "city": "敦賀市",
    "city_kana": "ツルガシ",
    "town": "長谷",
    "town_kana": "ナガタニ",
    "street": null,
    "office_name": null,
    "office_name_kana": null
  },
  "0136": {
    "postcode": "9140136",
    "prefecture": "福井県",
    "prefecture_kana": "フクイケン",
    "prefecture_code": 18,
    "city": "敦賀市",
    "city_kana": "ツルガシ",
    "town": "砂流",
    "town_kana": "スナガレ",
    "street": null,
    "office_name": null,
    "office_name_kana": null
  },
  "0137": {
    "postcode": "9140137",
    "prefecture": "福井県",
    "prefecture_kana": "フクイケン",
    "prefecture_code": 18,
    "city": "敦賀市",
    "city_kana": "ツルガシ",
    "town": "ひばりケ丘町",
    "town_kana": "ヒバリガオカチョウ",
    "street": null,
    "office_name": null,
    "office_name_kana": null
  },
  "0138": {
    "postcode": "9140138",
    "prefecture": "福井県",
    "prefecture_kana": "フクイケン",
    "prefecture_code": 18,
    "city": "敦賀市",
    "city_kana": "ツルガシ",
    "town": "櫛林",
    "town_kana": "クシバヤシ",
    "street": null,
    "office_name": null,
    "office_name_kana": null
  },
  "0141": {
    "postcode": "9140141",
    "prefecture": "福井県",
    "prefecture_kana": "フクイケン",
    "prefecture_code": 18,
    "city": "敦賀市",
    "city_kana": "ツルガシ",
    "town": "莇生野",
    "town_kana": "アゾノ",
    "street": null,
    "office_name": null,
    "office_name_kana": null
  },
  "0142": {
    "postcode": "9140142",
    "prefecture": "福井県",
    "prefecture_kana": "フクイケン",
    "prefecture_code": 18,
    "city": "敦賀市",
    "city_kana": "ツルガシ",
    "town": "萩野町",
    "town_kana": "ハギノチョウ",
    "street": null,
    "office_name": null,
    "office_name_kana": null
  },
  "0143": {
    "postcode": "9140143",
    "prefecture": "福井県",
    "prefecture_kana": "フクイケン",
    "prefecture_code": 18,
    "city": "敦賀市",
    "city_kana": "ツルガシ",
    "town": "沢",
    "town_kana": "サワ",
    "street": null,
    "office_name": null,
    "office_name_kana": null
  },
  "0144": {
    "postcode": "9140144",
    "prefecture": "福井県",
    "prefecture_kana": "フクイケン",
    "prefecture_code": 18,
    "city": "敦賀市",
    "city_kana": "ツルガシ",
    "town": "桜ケ丘町",
    "town_kana": "サクラガオカチョウ",
    "street": null,
    "office_name": null,
    "office_name_kana": null
  },
  "0145": {
    "postcode": "9140145",
    "prefecture": "福井県",
    "prefecture_kana": "フクイケン",
    "prefecture_code": 18,
    "city": "敦賀市",
    "city_kana": "ツルガシ",
    "town": "野坂",
    "town_kana": "ノサカ",
    "street": null,
    "office_name": null,
    "office_name_kana": null
  },
  "0146": {
    "postcode": "9140146",
    "prefecture": "福井県",
    "prefecture_kana": "フクイケン",
    "prefecture_code": 18,
    "city": "敦賀市",
    "city_kana": "ツルガシ",
    "town": "金山",
    "town_kana": "カナヤマ",
    "street": null,
    "office_name": null,
    "office_name_kana": null
  },
  "0147": {
    "postcode": "9140147",
    "prefecture": "福井県",
    "prefecture_kana": "フクイケン",
    "prefecture_code": 18,
    "city": "敦賀市",
    "city_kana": "ツルガシ",
    "town": "関",
    "town_kana": "セキ",
    "street": null,
    "office_name": null,
    "office_name_kana": null
  },
  "0192": {
    "postcode": "9140192",
    "prefecture": "福井県",
    "prefecture_kana": "フクイケン",
    "prefecture_code": 18,
    "city": "敦賀市",
    "city_kana": "ツルガシ",
    "town": "長谷",
    "town_kana": "ナガタニ",
    "street": "６４−５２−１",
    "office_name": "財団法人　若狭湾エネルギー研究センター",
    "office_name_kana": "ザイダンホウジン ワカサワンエネルギ-ケンキユウセンタ-"
  },
  "0195": {
    "postcode": "9140195",
    "prefecture": "福井県",
    "prefecture_kana": "フクイケン",
    "prefecture_code": 18,
    "city": "敦賀市",
    "city_kana": "ツルガシ",
    "town": "桜ケ丘町",
    "town_kana": "サクラガオカチョウ",
    "street": "３３−１",
    "office_name": "独立行政法人　国立病院機構　福井病院",
    "office_name_kana": "ドクリツギヨウセイホウジン コクリツビヨウインキコウ フクイビヨウイン"
  },
  "0198": {
    "postcode": "9140198",
    "prefecture": "福井県",
    "prefecture_kana": "フクイケン",
    "prefecture_code": 18,
    "city": "敦賀市",
    "city_kana": "ツルガシ",
    "town": "長谷",
    "town_kana": "ナガタニ",
    "street": "６５−９８",
    "office_name": "昭英高等学校",
    "office_name_kana": "シヨウエイコウトウガツコウ"
  },
  "0261": {
    "postcode": "9140261",
    "prefecture": "福井県",
    "prefecture_kana": "フクイケン",
    "prefecture_code": 18,
    "city": "敦賀市",
    "city_kana": "ツルガシ",
    "town": "元比田",
    "town_kana": "モトヒダ",
    "street": null,
    "office_name": null,
    "office_name_kana": null
  },
  "0262": {
    "postcode": "9140262",
    "prefecture": "福井県",
    "prefecture_kana": "フクイケン",
    "prefecture_code": 18,
    "city": "敦賀市",
    "city_kana": "ツルガシ",
    "town": "大比田",
    "town_kana": "オオヒダ",
    "street": null,
    "office_name": null,
    "office_name_kana": null
  },
  "0263": {
    "postcode": "9140263",
    "prefecture": "福井県",
    "prefecture_kana": "フクイケン",
    "prefecture_code": 18,
    "city": "敦賀市",
    "city_kana": "ツルガシ",
    "town": "横浜",
    "town_kana": "ヨコハマ",
    "street": null,
    "office_name": null,
    "office_name_kana": null
  },
  "0264": {
    "postcode": "9140264",
    "prefecture": "福井県",
    "prefecture_kana": "フクイケン",
    "prefecture_code": 18,
    "city": "敦賀市",
    "city_kana": "ツルガシ",
    "town": "杉津",
    "town_kana": "スイヅ",
    "street": null,
    "office_name": null,
    "office_name_kana": null
  },
  "0265": {
    "postcode": "9140265",
    "prefecture": "福井県",
    "prefecture_kana": "フクイケン",
    "prefecture_code": 18,
    "city": "敦賀市",
    "city_kana": "ツルガシ",
    "town": "阿曽",
    "town_kana": "アゾ",
    "street": null,
    "office_name": null,
    "office_name_kana": null
  },
  "0266": {
    "postcode": "9140266",
    "prefecture": "福井県",
    "prefecture_kana": "フクイケン",
    "prefecture_code": 18,
    "city": "敦賀市",
    "city_kana": "ツルガシ",
    "town": "挙野",
    "town_kana": "アゲノ",
    "street": null,
    "office_name": null,
    "office_name_kana": null
  },
  "0267": {
    "postcode": "9140267",
    "prefecture": "福井県",
    "prefecture_kana": "フクイケン",
    "prefecture_code": 18,
    "city": "敦賀市",
    "city_kana": "ツルガシ",
    "town": "五幡",
    "town_kana": "イツハタ",
    "street": null,
    "office_name": null,
    "office_name_kana": null
  },
  "0268": {
    "postcode": "9140268",
    "prefecture": "福井県",
    "prefecture_kana": "フクイケン",
    "prefecture_code": 18,
    "city": "敦賀市",
    "city_kana": "ツルガシ",
    "town": "江良",
    "town_kana": "エラ",
    "street": null,
    "office_name": null,
    "office_name_kana": null
  },
  "0271": [
    {
      "postcode": "9140271",
      "prefecture": "福井県",
      "prefecture_kana": "フクイケン",
      "prefecture_code": 18,
      "city": "敦賀市",
      "city_kana": "ツルガシ",
      "town": "泉",
      "town_kana": "シミズ",
      "street": null,
      "office_name": null,
      "office_name_kana": null
    },
    {
      "postcode": "9140271",
      "prefecture": "福井県",
      "prefecture_kana": "フクイケン",
      "prefecture_code": 18,
      "city": "敦賀市",
      "city_kana": "ツルガシ",
      "town": "泉東浦",
      "town_kana": "シミズヒガシウラ",
      "street": null,
      "office_name": null,
      "office_name_kana": null
    }
  ],
  "0272": {
    "postcode": "9140272",
    "prefecture": "福井県",
    "prefecture_kana": "フクイケン",
    "prefecture_code": 18,
    "city": "敦賀市",
    "city_kana": "ツルガシ",
    "town": "赤崎",
    "town_kana": "アカサキ",
    "street": null,
    "office_name": null,
    "office_name_kana": null
  },
  "0273": {
    "postcode": "9140273",
    "prefecture": "福井県",
    "prefecture_kana": "フクイケン",
    "prefecture_code": 18,
    "city": "敦賀市",
    "city_kana": "ツルガシ",
    "town": "田結",
    "town_kana": "タイ",
    "street": null,
    "office_name": null,
    "office_name_kana": null
  },
  "0274": {
    "postcode": "9140274",
    "prefecture": "福井県",
    "prefecture_kana": "フクイケン",
    "prefecture_code": 18,
    "city": "敦賀市",
    "city_kana": "ツルガシ",
    "town": "鞠山",
    "town_kana": "マルヤマ",
    "street": null,
    "office_name": null,
    "office_name_kana": null
  },
  "0301": {
    "postcode": "9140301",
    "prefecture": "福井県",
    "prefecture_kana": "フクイケン",
    "prefecture_code": 18,
    "city": "敦賀市",
    "city_kana": "ツルガシ",
    "town": "市橋",
    "town_kana": "イチハシ",
    "street": null,
    "office_name": null,
    "office_name_kana": null
  },
  "0302": {
    "postcode": "9140302",
    "prefecture": "福井県",
    "prefecture_kana": "フクイケン",
    "prefecture_code": 18,
    "city": "敦賀市",
    "city_kana": "ツルガシ",
    "town": "疋田",
    "town_kana": "ヒキダ",
    "street": null,
    "office_name": null,
    "office_name_kana": null
  },
  "0303": {
    "postcode": "9140303",
    "prefecture": "福井県",
    "prefecture_kana": "フクイケン",
    "prefecture_code": 18,
    "city": "敦賀市",
    "city_kana": "ツルガシ",
    "town": "追分",
    "town_kana": "オイワケ",
    "street": null,
    "office_name": null,
    "office_name_kana": null
  },
  "0304": {
    "postcode": "9140304",
    "prefecture": "福井県",
    "prefecture_kana": "フクイケン",
    "prefecture_code": 18,
    "city": "敦賀市",
    "city_kana": "ツルガシ",
    "town": "深坂",
    "town_kana": "フカサカ",
    "street": null,
    "office_name": null,
    "office_name_kana": null
  },
  "0305": {
    "postcode": "9140305",
    "prefecture": "福井県",
    "prefecture_kana": "フクイケン",
    "prefecture_code": 18,
    "city": "敦賀市",
    "city_kana": "ツルガシ",
    "town": "駄口",
    "town_kana": "ダグチ",
    "street": null,
    "office_name": null,
    "office_name_kana": null
  },
  "0306": {
    "postcode": "9140306",
    "prefecture": "福井県",
    "prefecture_kana": "フクイケン",
    "prefecture_code": 18,
    "city": "敦賀市",
    "city_kana": "ツルガシ",
    "town": "山中",
    "town_kana": "ヤマナカ",
    "street": null,
    "office_name": null,
    "office_name_kana": null
  },
  "0311": {
    "postcode": "9140311",
    "prefecture": "福井県",
    "prefecture_kana": "フクイケン",
    "prefecture_code": 18,
    "city": "敦賀市",
    "city_kana": "ツルガシ",
    "town": "奥野",
    "town_kana": "オクノ",
    "street": null,
    "office_name": null,
    "office_name_kana": null
  },
  "0312": {
    "postcode": "9140312",
    "prefecture": "福井県",
    "prefecture_kana": "フクイケン",
    "prefecture_code": 18,
    "city": "敦賀市",
    "city_kana": "ツルガシ",
    "town": "曽々木",
    "town_kana": "ソソギ",
    "street": null,
    "office_name": null,
    "office_name_kana": null
  },
  "0313": {
    "postcode": "9140313",
    "prefecture": "福井県",
    "prefecture_kana": "フクイケン",
    "prefecture_code": 18,
    "city": "敦賀市",
    "city_kana": "ツルガシ",
    "town": "刀根",
    "town_kana": "トネ",
    "street": null,
    "office_name": null,
    "office_name_kana": null
  },
  "0314": {
    "postcode": "9140314",
    "prefecture": "福井県",
    "prefecture_kana": "フクイケン",
    "prefecture_code": 18,
    "city": "敦賀市",
    "city_kana": "ツルガシ",
    "town": "杉箸",
    "town_kana": "スギハシ",
    "street": null,
    "office_name": null,
    "office_name_kana": null
  },
  "0315": {
    "postcode": "9140315",
    "prefecture": "福井県",
    "prefecture_kana": "フクイケン",
    "prefecture_code": 18,
    "city": "敦賀市",
    "city_kana": "ツルガシ",
    "town": "麻生口",
    "town_kana": "アソウグチ",
    "street": null,
    "office_name": null,
    "office_name_kana": null
  },
  "0316": {
    "postcode": "9140316",
    "prefecture": "福井県",
    "prefecture_kana": "フクイケン",
    "prefecture_code": 18,
    "city": "敦賀市",
    "city_kana": "ツルガシ",
    "town": "奥麻生",
    "town_kana": "オクアソウ",
    "street": null,
    "office_name": null,
    "office_name_kana": null
  },
  "0317": {
    "postcode": "9140317",
    "prefecture": "福井県",
    "prefecture_kana": "フクイケン",
    "prefecture_code": 18,
    "city": "敦賀市",
    "city_kana": "ツルガシ",
    "town": "新道",
    "town_kana": "シンドウ",
    "street": null,
    "office_name": null,
    "office_name_kana": null
  },
  "0801": {
    "postcode": "9140801",
    "prefecture": "福井県",
    "prefecture_kana": "フクイケン",
    "prefecture_code": 18,
    "city": "敦賀市",
    "city_kana": "ツルガシ",
    "town": "松島町",
    "town_kana": "マツシマチョウ",
    "street": null,
    "office_name": null,
    "office_name_kana": null
  },
  "0802": {
    "postcode": "9140802",
    "prefecture": "福井県",
    "prefecture_kana": "フクイケン",
    "prefecture_code": 18,
    "city": "敦賀市",
    "city_kana": "ツルガシ",
    "town": "呉竹町",
    "town_kana": "クレタケチョウ",
    "street": null,
    "office_name": null,
    "office_name_kana": null
  },
  "0803": {
    "postcode": "9140803",
    "prefecture": "福井県",
    "prefecture_kana": "フクイケン",
    "prefecture_code": 18,
    "city": "敦賀市",
    "city_kana": "ツルガシ",
    "town": "新松島町",
    "town_kana": "シンマツシマチョウ",
    "street": null,
    "office_name": null,
    "office_name_kana": null
  },
  "0805": {
    "postcode": "9140805",
    "prefecture": "福井県",
    "prefecture_kana": "フクイケン",
    "prefecture_code": 18,
    "city": "敦賀市",
    "city_kana": "ツルガシ",
    "town": "鋳物師町",
    "town_kana": "イモジチョウ",
    "street": null,
    "office_name": null,
    "office_name_kana": null
  },
  "0806": {
    "postcode": "9140806",
    "prefecture": "福井県",
    "prefecture_kana": "フクイケン",
    "prefecture_code": 18,
    "city": "敦賀市",
    "city_kana": "ツルガシ",
    "town": "松原町",
    "town_kana": "マツバラチョウ",
    "street": null,
    "office_name": null,
    "office_name_kana": null
  },
  "0807": {
    "postcode": "9140807",
    "prefecture": "福井県",
    "prefecture_kana": "フクイケン",
    "prefecture_code": 18,
    "city": "敦賀市",
    "city_kana": "ツルガシ",
    "town": "松葉町",
    "town_kana": "マツバチョウ",
    "street": null,
    "office_name": null,
    "office_name_kana": null
  },
  "0811": {
    "postcode": "9140811",
    "prefecture": "福井県",
    "prefecture_kana": "フクイケン",
    "prefecture_code": 18,
    "city": "敦賀市",
    "city_kana": "ツルガシ",
    "town": "中央町",
    "town_kana": "チュウオウチョウ",
    "street": null,
    "office_name": null,
    "office_name_kana": null
  },
  "0812": {
    "postcode": "9140812",
    "prefecture": "福井県",
    "prefecture_kana": "フクイケン",
    "prefecture_code": 18,
    "city": "敦賀市",
    "city_kana": "ツルガシ",
    "town": "昭和町",
    "town_kana": "ショウワチョウ",
    "street": null,
    "office_name": null,
    "office_name_kana": null
  },
  "0813": {
    "postcode": "9140813",
    "prefecture": "福井県",
    "prefecture_kana": "フクイケン",
    "prefecture_code": 18,
    "city": "敦賀市",
    "city_kana": "ツルガシ",
    "town": "呉羽町",
    "town_kana": "クレハチョウ",
    "street": null,
    "office_name": null,
    "office_name_kana": null
  },
  "0814": {
    "postcode": "9140814",
    "prefecture": "福井県",
    "prefecture_kana": "フクイケン",
    "prefecture_code": 18,
    "city": "敦賀市",
    "city_kana": "ツルガシ",
    "town": "木崎",
    "town_kana": "キザキ",
    "street": null,
    "office_name": null,
    "office_name_kana": null
  },
  "0815": {
    "postcode": "9140815",
    "prefecture": "福井県",
    "prefecture_kana": "フクイケン",
    "prefecture_code": 18,
    "city": "敦賀市",
    "city_kana": "ツルガシ",
    "town": "平和町",
    "town_kana": "ヘイワチョウ",
    "street": null,
    "office_name": null,
    "office_name_kana": null
  },
  "0821": {
    "postcode": "9140821",
    "prefecture": "福井県",
    "prefecture_kana": "フクイケン",
    "prefecture_code": 18,
    "city": "敦賀市",
    "city_kana": "ツルガシ",
    "town": "櫛川",
    "town_kana": "クシカワ",
    "street": null,
    "office_name": null,
    "office_name_kana": null
  },
  "0822": {
    "postcode": "9140822",
    "prefecture": "福井県",
    "prefecture_kana": "フクイケン",
    "prefecture_code": 18,
    "city": "敦賀市",
    "city_kana": "ツルガシ",
    "town": "櫛川町",
    "town_kana": "クシカワチョウ",
    "street": null,
    "office_name": null,
    "office_name_kana": null
  },
  "0823": {
    "postcode": "9140823",
    "prefecture": "福井県",
    "prefecture_kana": "フクイケン",
    "prefecture_code": 18,
    "city": "敦賀市",
    "city_kana": "ツルガシ",
    "town": "沓見",
    "town_kana": "クツミ",
    "street": null,
    "office_name": null,
    "office_name_kana": null
  },
  "0824": {
    "postcode": "9140824",
    "prefecture": "福井県",
    "prefecture_kana": "フクイケン",
    "prefecture_code": 18,
    "city": "敦賀市",
    "city_kana": "ツルガシ",
    "town": "原",
    "town_kana": "ハラ",
    "street": null,
    "office_name": null,
    "office_name_kana": null
  },
  "0825": {
    "postcode": "9140825",
    "prefecture": "福井県",
    "prefecture_kana": "フクイケン",
    "prefecture_code": 18,
    "city": "敦賀市",
    "city_kana": "ツルガシ",
    "town": "永大町",
    "town_kana": "エイダイチョウ",
    "street": null,
    "office_name": null,
    "office_name_kana": null
  },
  "0831": {
    "postcode": "9140831",
    "prefecture": "福井県",
    "prefecture_kana": "フクイケン",
    "prefecture_code": 18,
    "city": "敦賀市",
    "city_kana": "ツルガシ",
    "town": "沓",
    "town_kana": "クツ",
    "street": null,
    "office_name": null,
    "office_name_kana": null
  },
  "0832": {
    "postcode": "9140832",
    "prefecture": "福井県",
    "prefecture_kana": "フクイケン",
    "prefecture_code": 18,
    "city": "敦賀市",
    "city_kana": "ツルガシ",
    "town": "常宮",
    "town_kana": "ジョウグウ",
    "street": null,
    "office_name": null,
    "office_name_kana": null
  },
  "0833": {
    "postcode": "9140833",
    "prefecture": "福井県",
    "prefecture_kana": "フクイケン",
    "prefecture_code": 18,
    "city": "敦賀市",
    "city_kana": "ツルガシ",
    "town": "縄間",
    "town_kana": "ノウマ",
    "street": null,
    "office_name": null,
    "office_name_kana": null
  },
  "0834": {
    "postcode": "9140834",
    "prefecture": "福井県",
    "prefecture_kana": "フクイケン",
    "prefecture_code": 18,
    "city": "敦賀市",
    "city_kana": "ツルガシ",
    "town": "名子",
    "town_kana": "ナゴ",
    "street": null,
    "office_name": null,
    "office_name_kana": null
  },
  "0835": {
    "postcode": "9140835",
    "prefecture": "福井県",
    "prefecture_kana": "フクイケン",
    "prefecture_code": 18,
    "city": "敦賀市",
    "city_kana": "ツルガシ",
    "town": "二村",
    "town_kana": "フタムラ",
    "street": null,
    "office_name": null,
    "office_name_kana": null
  },
  "0841": {
    "postcode": "9140841",
    "prefecture": "福井県",
    "prefecture_kana": "フクイケン",
    "prefecture_code": 18,
    "city": "敦賀市",
    "city_kana": "ツルガシ",
    "town": "立石",
    "town_kana": "タテイシ",
    "street": null,
    "office_name": null,
    "office_name_kana": null
  },
  "0842": {
    "postcode": "9140842",
    "prefecture": "福井県",
    "prefecture_kana": "フクイケン",
    "prefecture_code": 18,
    "city": "敦賀市",
    "city_kana": "ツルガシ",
    "town": "明神町",
    "town_kana": "ミョウジンチョウ",
    "street": null,
    "office_name": null,
    "office_name_kana": null
  },
  "0843": {
    "postcode": "9140843",
    "prefecture": "福井県",
    "prefecture_kana": "フクイケン",
    "prefecture_code": 18,
    "city": "敦賀市",
    "city_kana": "ツルガシ",
    "town": "浦底",
    "town_kana": "ウラソコ",
    "street": null,
    "office_name": null,
    "office_name_kana": null
  },
  "0844": {
    "postcode": "9140844",
    "prefecture": "福井県",
    "prefecture_kana": "フクイケン",
    "prefecture_code": 18,
    "city": "敦賀市",
    "city_kana": "ツルガシ",
    "town": "色浜",
    "town_kana": "イロハマ",
    "street": null,
    "office_name": null,
    "office_name_kana": null
  },
  "0845": {
    "postcode": "9140845",
    "prefecture": "福井県",
    "prefecture_kana": "フクイケン",
    "prefecture_code": 18,
    "city": "敦賀市",
    "city_kana": "ツルガシ",
    "town": "手",
    "town_kana": "テ",
    "street": null,
    "office_name": null,
    "office_name_kana": null
  },
  "8501": {
    "postcode": "9148501",
    "prefecture": "福井県",
    "prefecture_kana": "フクイケン",
    "prefecture_code": 18,
    "city": "敦賀市",
    "city_kana": "ツルガシ",
    "town": "中央町",
    "town_kana": "チュウオウチョウ",
    "street": "２丁目１−１",
    "office_name": "敦賀市役所",
    "office_name_kana": "ツルガシヤクシヨ"
  },
  "8502": {
    "postcode": "9148502",
    "prefecture": "福井県",
    "prefecture_kana": "フクイケン",
    "prefecture_code": 18,
    "city": "敦賀市",
    "city_kana": "ツルガシ",
    "town": "三島町",
    "town_kana": "ミシマチョウ",
    "street": "１丁目６−６０",
    "office_name": "市立敦賀病院",
    "office_name_kana": "シリツツルガビヨウイン"
  },
  "8510": {
    "postcode": "9148510",
    "prefecture": "福井県",
    "prefecture_kana": "フクイケン",
    "prefecture_code": 18,
    "city": "敦賀市",
    "city_kana": "ツルガシ",
    "town": "明神町",
    "town_kana": "ミョウジンチョウ",
    "street": "３番地",
    "office_name": "国立研究開発法人　日本原子力研究開発機構　原子炉廃止措置研究開発センター",
    "office_name_kana": "コクリツケンキユウカイハツホウジン ニホンゲンシリヨクケンキユウカイハツキコウ ゲンシロハイシソチケンキユウカイハツセンタ-"
  },
  "8524": {
    "postcode": "9148524",
    "prefecture": "福井県",
    "prefecture_kana": "フクイケン",
    "prefecture_code": 18,
    "city": "敦賀市",
    "city_kana": "ツルガシ",
    "town": "松栄町",
    "town_kana": "マツエチョウ",
    "street": "６番１０号",
    "office_name": "福井地方裁判所敦賀支部、福井家庭裁判所敦賀支部、敦賀簡易裁判所、敦賀検察審査会",
    "office_name_kana": "フクイチホウサイバンシヨツルガシブ、フクイカテイサイバンシヨツルガシブ、ツルガカンイサイバンシヨ、ツルガケンサツシンサカイ"
  },
  "8540": {
    "postcode": "9148540",
    "prefecture": "福井県",
    "prefecture_kana": "フクイケン",
    "prefecture_code": 18,
    "city": "敦賀市",
    "city_kana": "ツルガシ",
    "town": "鉄輪",
    "town_kana": null,
    "street": "１丁目７−３",
    "office_name": "敦賀税務署",
    "office_name_kana": "ツルガゼイムシヨ"
  },
  "8550": {
    "postcode": "9148550",
    "prefecture": "福井県",
    "prefecture_kana": "フクイケン",
    "prefecture_code": 18,
    "city": "敦賀市",
    "city_kana": "ツルガシ",
    "town": "東洋町",
    "town_kana": "トウヨウチョウ",
    "street": "１０−２４",
    "office_name": "東洋紡　株式会社　敦賀事業所",
    "office_name_kana": "トウヨウボウ カブシキガイシヤ ツルガジギヨウシヨ"
  },
  "8555": {
    "postcode": "9148555",
    "prefecture": "福井県",
    "prefecture_kana": "フクイケン",
    "prefecture_code": 18,
    "city": "敦賀市",
    "city_kana": "ツルガシ",
    "town": "明神町",
    "town_kana": "ミョウジンチョウ",
    "street": "１",
    "office_name": "日本原子力発電　株式会社　敦賀発電所",
    "office_name_kana": "ニホンゲンシリヨクハツデン カブシキガイシヤ ツルガハツデンシヨ"
  },
  "8558": {
    "postcode": "9148558",
    "prefecture": "福井県",
    "prefecture_kana": "フクイケン",
    "prefecture_code": 18,
    "city": "敦賀市",
    "city_kana": "ツルガシ",
    "town": "沓見",
    "town_kana": "クツミ",
    "street": "１６４−１",
    "office_name": "学校法人　嶺南学園敦賀気比高等学校",
    "office_name_kana": "ガツコウホウジン レイナンガクエンツルガケヒコウトウガツコウ"
  },
  "8567": {
    "postcode": "9148567",
    "prefecture": "福井県",
    "prefecture_kana": "フクイケン",
    "prefecture_code": 18,
    "city": "敦賀市",
    "city_kana": "ツルガシ",
    "town": "堂",
    "town_kana": "ドウ",
    "street": "２６−１−１",
    "office_name": "若狭松下電器　株式会社",
    "office_name_kana": "ワカサマツシタデンキ カブシキガイシヤ"
  },
  "8580": {
    "postcode": "9148580",
    "prefecture": "福井県",
    "prefecture_kana": "フクイケン",
    "prefecture_code": 18,
    "city": "敦賀市",
    "city_kana": "ツルガシ",
    "town": "東洋町",
    "town_kana": "トウヨウチョウ",
    "street": "５−５４",
    "office_name": "福井社会保険事務局　敦賀事務所",
    "office_name_kana": "フクイシヤカイホケンジムキヨク ツルガジムシヨ"
  },
  "8585": {
    "postcode": "9148585",
    "prefecture": "福井県",
    "prefecture_kana": "フクイケン",
    "prefecture_code": 18,
    "city": "敦賀市",
    "city_kana": "ツルガシ",
    "town": "木崎",
    "town_kana": "キザキ",
    "street": "６５号２０番地",
    "office_name": "国立研究開発法人　日本原子力研究開発機構　敦賀事業本部",
    "office_name_kana": "コクリツケンキユウカイハツホウジン ニホンゲンシリヨクケンキユウカイハツキコウ ツルガジギヨウホンブ"
  },
  "8609": {
    "postcode": "9148609",
    "prefecture": "福井県",
    "prefecture_kana": "フクイケン",
    "prefecture_code": 18,
    "city": "敦賀市",
    "city_kana": "ツルガシ",
    "town": "鉄輪町",
    "town_kana": "カナワチョウ",
    "street": "１丁目７−３",
    "office_name": "敦賀公共職業安定所",
    "office_name_kana": "ツルガコウキヨウシヨクギヨウアンテイジヨ"
  },
  "8666": {
    "postcode": "9148666",
    "prefecture": "福井県",
    "prefecture_kana": "フクイケン",
    "prefecture_code": 18,
    "city": "敦賀市",
    "city_kana": "ツルガシ",
    "town": "若泉町",
    "town_kana": "ワカイズミチョウ",
    "street": "３（敦賀郵便局私書箱第２０号）",
    "office_name": "株式会社　日本ピーエス",
    "office_name_kana": "カブシキガイシヤ ニツポンピ-エス"
  },
  "8686": {
    "postcode": "9148686",
    "prefecture": "福井県",
    "prefecture_kana": "フクイケン",
    "prefecture_code": 18,
    "city": "敦賀市",
    "city_kana": "ツルガシ",
    "town": "泉",
    "town_kana": "シミズ",
    "street": "２−６−１（敦賀郵便局私書箱第１３号）",
    "office_name": "敦賀セメント　株式会社",
    "office_name_kana": "ツルガセメント カブシキガイシヤ"
  },
  "8688": {
    "postcode": "9148688",
    "prefecture": "福井県",
    "prefecture_kana": "フクイケン",
    "prefecture_code": 18,
    "city": "敦賀市",
    "city_kana": "ツルガシ",
    "town": "本町",
    "town_kana": "ホンマチ",
    "street": "１丁目１１−７（敦賀郵便局私書箱第１８号）",
    "office_name": "敦賀信用金庫　本店",
    "office_name_kana": "ツルガシンヨウキンコ ホンテン"
  }
}