{
  "0000": {
    "postcode": "9150000",
    "prefecture": "福井県",
    "prefecture_kana": "フクイケン",
    "prefecture_code": 18,
    "city": "越前市",
    "city_kana": "エチゼンシ",
    "town": "",
    "town_kana": "",
    "street": null,
    "office_name": null,
    "office_name_kana": null
  },
  "0001": {
    "postcode": "9150001",
    "prefecture": "福井県",
    "prefecture_kana": "フクイケン",
    "prefecture_code": 18,
    "city": "越前市",
    "city_kana": "エチゼンシ",
    "town": "中新庄町",
    "town_kana": "ナカシンジョウチョウ",
    "street": null,
    "office_name": null,
    "office_name_kana": null
  },
  "0002": {
    "postcode": "9150002",
    "prefecture": "福井県",
    "prefecture_kana": "フクイケン",
    "prefecture_code": 18,
    "city": "越前市",
    "city_kana": "エチゼンシ",
    "town": "長尾町",
    "town_kana": "ナガオチョウ",
    "street": null,
    "office_name": null,
    "office_name_kana": null
  },
  "0003": {
    "postcode": "9150003",
    "prefecture": "福井県",
    "prefecture_kana": "フクイケン",
    "prefecture_code": 18,
    "city": "越前市",
    "city_kana": "エチゼンシ",
    "town": "戸谷町",
    "town_kana": "トタニチョウ",
    "street": null,
    "office_name": null,
    "office_name_kana": null
  },
  "0004": {
    "postcode": "9150004",
    "prefecture": "福井県",
    "prefecture_kana": "フクイケン",
    "prefecture_code": 18,
    "city": "越前市",
    "city_kana": "エチゼンシ",
    "town": "北町",
    "town_kana": "キタチョウ",
    "street": null,
    "office_name": null,
    "office_name_kana": null
  },
  "0005": {
    "postcode": "9150005",
    "prefecture": "福井県",
    "prefecture_kana": "フクイケン",
    "prefecture_code": 18,
    "city": "越前市",
    "city_kana": "エチゼンシ",
    "town": "真柄町",
    "town_kana": "マカラチョウ",
    "street": null,
    "office_name": null,
    "office_name_kana": null
  },
  "0006": {
    "postcode": "9150006",
    "prefecture": "福井県",
    "prefecture_kana": "フクイケン",
    "prefecture_code": 18,
    "city": "越前市",
    "city_kana": "エチゼンシ",
    "town": "杉崎町",
    "town_kana": "スギサキチョウ",
    "street": null,
    "office_name": null,
    "office_name_kana": null
  },
  "0007": {
    "postcode": "9150007",
    "prefecture": "福井県",
    "prefecture_kana": "フクイケン",
    "prefecture_code": 18,
    "city": "越前市",
    "city_kana": "エチゼンシ",
    "town": "三ツ屋町",
    "town_kana": "ミツヤチョウ",
    "street": null,
    "office_name": null,
    "office_name_kana": null
  },
  "0011": [
    {
      "postcode": "9150011",
      "prefecture": "福井県",
      "prefecture_kana": "フクイケン",
      "prefecture_code": 18,
      "city": "越前市",
      "city_kana": "エチゼンシ",
      "town": "金屋町",
      "town_kana": "カナヤチョウ",
      "street": null,
      "office_name": null,
      "office_name_kana": null
    },
    {
      "postcode": "9150011",
      "prefecture": "福井県",
      "prefecture_kana": "フクイケン",
      "prefecture_code": 18,
      "city": "越前市",
      "city_kana": "エチゼンシ",
      "town": "上真柄町",
      "town_kana": "カミマカラチョウ",
      "street": null,
      "office_name": null,
      "office_name_kana": null
    }
  ],
  "0012": {
    "postcode": "9150012",
    "prefecture": "福井県",
    "prefecture_kana": "フクイケン",
    "prefecture_code": 18,
    "city": "越前市",
    "city_kana": "エチゼンシ",
    "town": "清水頭町",
    "town_kana": "シミズガシラチョウ",
    "street": null,
    "office_name": null,
    "office_name_kana": null
  },
  "0013": [
    {
      "postcode": "9150013",
      "prefecture": "福井県",
      "prefecture_kana": "フクイケン",
      "prefecture_code": 18,
      "city": "越前市",
      "city_kana": "エチゼンシ",
      "town": "上真柄宮谷入会地",
      "town_kana": "カミマカラミヤダニイリアイチ",
      "street": null,
      "office_name": null,
      "office_name_kana": null
    },
    {
      "postcode": "9150013",
      "prefecture": "福井県",
      "prefecture_kana": "フクイケン",
      "prefecture_code": 18,
      "city": "越前市",
      "city_kana": "エチゼンシ",
      "town": "宮谷町",
      "town_kana": "ミヤダニチョウ",
      "street": null,
      "office_name": null,
      "office_name_kana": null
    }
  ],
  "0014": {
    "postcode": "9150014",
    "prefecture": "福井県",
    "prefecture_kana": "フクイケン",
    "prefecture_code": 18,
    "city": "越前市",
    "city_kana": "エチゼンシ",
    "town": "西尾町",
    "town_kana": "ニシオチョウ",
    "street": null,
    "office_name": null,
    "office_name_kana": null
  },
  "0015": {
    "postcode": "9150015",
    "prefecture": "福井県",
    "prefecture_kana": "フクイケン",
    "prefecture_code": 18,
    "city": "越前市",
    "city_kana": "エチゼンシ",
    "town": "大手町",
    "town_kana": "オオデチョウ",
    "street": null,
    "office_name": null,
    "office_name_kana": null
  },
  "0016": {
    "postcode": "9150016",
    "prefecture": "福井県",
    "prefecture_kana": "フクイケン",
    "prefecture_code": 18,
    "city": "越前市",
    "city_kana": "エチゼンシ",
    "town": "岩内町",
    "town_kana": "イワウチチョウ",
    "street": null,
    "office_name": null,
    "office_name_kana": null
  },
  "0021": {
    "postcode": "9150021",
    "prefecture": "福井県",
    "prefecture_kana": "フクイケン",
    "prefecture_code": 18,
    "city": "越前市",
    "city_kana": "エチゼンシ",
    "town": "北小山町",
    "town_kana": "キタオヤマチョウ",
    "street": null,
    "office_name": null,
    "office_name_kana": null
  },
  "0022": {
    "postcode": "9150022",
    "prefecture": "福井県",
    "prefecture_kana": "フクイケン",
    "prefecture_code": 18,
    "city": "越前市",
    "city_kana": "エチゼンシ",
    "town": "南小山町",
    "town_kana": "ミナミオヤマチョウ",
    "street": null,
    "office_name": null,
    "office_name_kana": null
  },
  "0023": {
    "postcode": "9150023",
    "prefecture": "福井県",
    "prefecture_kana": "フクイケン",
    "prefecture_code": 18,
    "city": "越前市",
    "city_kana": "エチゼンシ",
    "town": "池泉町",
    "town_kana": "イケイズミチョウ",
    "street": null,
    "office_name": null,
    "office_name_kana": null
  },
  "0024": {
    "postcode": "9150024",
    "prefecture": "福井県",
    "prefecture_kana": "フクイケン",
    "prefecture_code": 18,
    "city": "越前市",
    "city_kana": "エチゼンシ",
    "town": "上大坪町",
    "town_kana": "カミオオツボチョウ",
    "street": null,
    "office_name": null,
    "office_name_kana": null
  },
  "0025": {
    "postcode": "9150025",
    "prefecture": "福井県",
    "prefecture_kana": "フクイケン",
    "prefecture_code": 18,
    "city": "越前市",
    "city_kana": "エチゼンシ",
    "town": "味真野町",
    "town_kana": "アジマノチョウ",
    "street": null,
    "office_name": null,
    "office_name_kana": null
  },
  "0026": {
    "postcode": "9150026",
    "prefecture": "福井県",
    "prefecture_kana": "フクイケン",
    "prefecture_code": 18,
    "city": "越前市",
    "city_kana": "エチゼンシ",
    "town": "五分市町",
    "town_kana": "ゴブイチチョウ",
    "street": null,
    "office_name": null,
    "office_name_kana": null
  },
  "0031": {
    "postcode": "9150031",
    "prefecture": "福井県",
    "prefecture_kana": "フクイケン",
    "prefecture_code": 18,
    "city": "越前市",
    "city_kana": "エチゼンシ",
    "town": "余川町",
    "town_kana": "ヨカワチョウ",
    "street": null,
    "office_name": null,
    "office_name_kana": null
  },
  "0032": {
    "postcode": "9150032",
    "prefecture": "福井県",
    "prefecture_kana": "フクイケン",
    "prefecture_code": 18,
    "city": "越前市",
    "city_kana": "エチゼンシ",
    "town": "檜尾谷町",
    "town_kana": "ヒオダニチョウ",
    "street": null,
    "office_name": null,
    "office_name_kana": null
  },
  "0033": {
    "postcode": "9150033",
    "prefecture": "福井県",
    "prefecture_kana": "フクイケン",
    "prefecture_code": 18,
    "city": "越前市",
    "city_kana": "エチゼンシ",
    "town": "蓑脇町",
    "town_kana": "ミノワキチョウ",
    "street": null,
    "office_name": null,
    "office_name_kana": null
  },
  "0034": {
    "postcode": "9150034",
    "prefecture": "福井県",
    "prefecture_kana": "フクイケン",
    "prefecture_code": 18,
    "city": "越前市",
    "city_kana": "エチゼンシ",
    "town": "中居町",
    "town_kana": "ナカイチョウ",
    "street": null,
    "office_name": null,
    "office_name_kana": null
  },
  "0035": {
    "postcode": "9150035",
    "prefecture": "福井県",
    "prefecture_kana": "フクイケン",
    "prefecture_code": 18,
    "city": "越前市",
    "city_kana": "エチゼンシ",
    "town": "入谷町",
    "town_kana": "イリタニチョウ",
    "street": null,
    "office_name": null,
    "office_name_kana": null
  },
  "0036": {
    "postcode": "9150036",
    "prefecture": "福井県",
    "prefecture_kana": "フクイケン",
    "prefecture_code": 18,
    "city": "越前市",
    "city_kana": "エチゼンシ",
    "town": "文室町",
    "town_kana": "フムロチョウ",
    "street": null,
    "office_name": null,
    "office_name_kana": null
  },
  "0037": {
    "postcode": "9150037",
    "prefecture": "福井県",
    "prefecture_kana": "フクイケン",
    "prefecture_code": 18,
    "city": "越前市",
    "city_kana": "エチゼンシ",
    "town": "萱谷町",
    "town_kana": "カヤダニチョウ",
    "street": null,
    "office_name": null,
    "office_name_kana": null
  },
  "0041": {
    "postcode": "9150041",
    "prefecture": "福井県",
    "prefecture_kana": "フクイケン",
    "prefecture_code": 18,
    "city": "越前市",
    "city_kana": "エチゼンシ",
    "town": "葛岡町",
    "town_kana": "クズオカチョウ",
    "street": null,
    "office_name": null,
    "office_name_kana": null
  },
  "0042": {
    "postcode": "9150042",
    "prefecture": "福井県",
    "prefecture_kana": "フクイケン",
    "prefecture_code": 18,
    "city": "越前市",
    "city_kana": "エチゼンシ",
    "town": "大屋町",
    "town_kana": "オオヤチョウ",
    "street": null,
    "office_name": null,
    "office_name_kana": null
  },
  "0043": {
    "postcode": "9150043",
    "prefecture": "福井県",
    "prefecture_kana": "フクイケン",
    "prefecture_code": 18,
    "city": "越前市",
    "city_kana": "エチゼンシ",
    "town": "庄田町",
    "town_kana": "ショウデンチョウ",
    "street": null,
    "office_name": null,
    "office_name_kana": null
  },
  "0044": {
    "postcode": "9150044",
    "prefecture": "福井県",
    "prefecture_kana": "フクイケン",
    "prefecture_code": 18,
    "city": "越前市",
    "city_kana": "エチゼンシ",
    "town": "平林町",
    "town_kana": "ヒラバヤシチョウ",
    "street": null,
    "office_name": null,
    "office_name_kana": null
  },
  "0045": {
    "postcode": "9150045",
    "prefecture": "福井県",
    "prefecture_kana": "フクイケン",
    "prefecture_code": 18,
    "city": "越前市",
    "city_kana": "エチゼンシ",
    "town": "荒谷町",
    "town_kana": "アラタニチョウ",
    "street": null,
    "office_name": null,
    "office_name_kana": null
  },
  "0046": {
    "postcode": "9150046",
    "prefecture": "福井県",
    "prefecture_kana": "フクイケン",
    "prefecture_code": 18,
    "city": "越前市",
    "city_kana": "エチゼンシ",
    "town": "西谷町",
    "town_kana": "ニシタニチョウ",
    "street": null,
    "office_name": null,
    "office_name_kana": null
  },
  "0051": {
    "postcode": "9150051",
    "prefecture": "福井県",
    "prefecture_kana": "フクイケン",
    "prefecture_code": 18,
    "city": "越前市",
    "city_kana": "エチゼンシ",
    "town": "帆山町",
    "town_kana": "ホヤマチョウ",
    "street": null,
    "office_name": null,
    "office_name_kana": null
  },
  "0052": {
    "postcode": "9150052",
    "prefecture": "福井県",
    "prefecture_kana": "フクイケン",
    "prefecture_code": 18,
    "city": "越前市",
    "city_kana": "エチゼンシ",
    "town": "矢放町",
    "town_kana": "ヤハナシチョウ",
    "street": null,
    "office_name": null,
    "office_name_kana": null
  },
  "0053": {
    "postcode": "9150053",
    "prefecture": "福井県",
    "prefecture_kana": "フクイケン",
    "prefecture_code": 18,
    "city": "越前市",
    "city_kana": "エチゼンシ",
    "town": "問屋町",
    "town_kana": "トンヤマチ",
    "street": null,
    "office_name": null,
    "office_name_kana": null
  },
  "0054": {
    "postcode": "9150054",
    "prefecture": "福井県",
    "prefecture_kana": "フクイケン",
    "prefecture_code": 18,
    "city": "越前市",
    "city_kana": "エチゼンシ",
    "town": "小野谷町",
    "town_kana": "オノダニチョウ",
    "street": null,
    "office_name": null,
    "office_name_kana": null
  },
  "0055": {
    "postcode": "9150055",
    "prefecture": "福井県",
    "prefecture_kana": "フクイケン",
    "prefecture_code": 18,
    "city": "越前市",
    "city_kana": "エチゼンシ",
    "town": "畑町",
    "town_kana": "ハタチョウ",
    "street": null,
    "office_name": null,
    "office_name_kana": null
  },
  "0056": {
    "postcode": "9150056",
    "prefecture": "福井県",
    "prefecture_kana": "フクイケン",
    "prefecture_code": 18,
    "city": "越前市",
    "city_kana": "エチゼンシ",
    "town": "向新保町",
    "town_kana": "ムカイシンボチョウ",
    "street": null,
    "office_name": null,
    "office_name_kana": null
  },
  "0057": {
    "postcode": "9150057",
    "prefecture": "福井県",
    "prefecture_kana": "フクイケン",
    "prefecture_code": 18,
    "city": "越前市",
    "city_kana": "エチゼンシ",
    "town": "矢船町",
    "town_kana": "ヤフネチョウ",
    "street": null,
    "office_name": null,
    "office_name_kana": null
  },
  "0061": {
    "postcode": "9150061",
    "prefecture": "福井県",
    "prefecture_kana": "フクイケン",
    "prefecture_code": 18,
    "city": "越前市",
    "city_kana": "エチゼンシ",
    "town": "堀川町",
    "town_kana": "ホリカワチョウ",
    "street": null,
    "office_name": null,
    "office_name_kana": null
  },
  "0062": {
    "postcode": "9150062",
    "prefecture": "福井県",
    "prefecture_kana": "フクイケン",
    "prefecture_code": 18,
    "city": "越前市",
    "city_kana": "エチゼンシ",
    "town": "姫川",
    "town_kana": "ヒメカワ",
    "street": null,
    "office_name": null,
    "office_name_kana": null
  },
  "0063": {
    "postcode": "9150063",
    "prefecture": "福井県",
    "prefecture_kana": "フクイケン",
    "prefecture_code": 18,
    "city": "越前市",
    "city_kana": "エチゼンシ",
    "town": "若竹町",
    "town_kana": "ワカタケチョウ",
    "street": null,
    "office_name": null,
    "office_name_kana": null
  },
  "0064": {
    "postcode": "9150064",
    "prefecture": "福井県",
    "prefecture_kana": "フクイケン",
    "prefecture_code": 18,
    "city": "越前市",
    "city_kana": "エチゼンシ",
    "town": "あおば町",
    "town_kana": "アオバチョウ",
    "street": null,
    "office_name": null,
    "office_name_kana": null
  },
  "0065": {
    "postcode": "9150065",
    "prefecture": "福井県",
    "prefecture_kana": "フクイケン",
    "prefecture_code": 18,
    "city": "越前市",
    "city_kana": "エチゼンシ",
    "town": "豊町",
    "town_kana": "ユタカチョウ",
    "street": null,
    "office_name": null,
    "office_name_kana": null
  },
  "0066": {
    "postcode": "9150066",
    "prefecture": "福井県",
    "prefecture_kana": "フクイケン",
    "prefecture_code": 18,
    "city": "越前市",
    "city_kana": "エチゼンシ",
    "town": "神明町",
    "town_kana": "シンメイチョウ",
    "street": null,
    "office_name": null,
    "office_name_kana": null
  },
  "0067": {
    "postcode": "9150067",
    "prefecture": "福井県",
    "prefecture_kana": "フクイケン",
    "prefecture_code": 18,
    "city": "越前市",
    "city_kana": "エチゼンシ",
    "town": "住吉町",
    "town_kana": "スミヨシチョウ",
    "street": null,
    "office_name": null,
    "office_name_kana": null
  },
  "0068": {
    "postcode": "9150068",
    "prefecture": "福井県",
    "prefecture_kana": "フクイケン",
    "prefecture_code": 18,
    "city": "越前市",
    "city_kana": "エチゼンシ",
    "town": "天王町",
    "town_kana": "テンノウチョウ",
    "street": null,
    "office_name": null,
    "office_name_kana": null
  },
  "0069": {
    "postcode": "9150069",
    "prefecture": "福井県",
    "prefecture_kana": "フクイケン",
    "prefecture_code": 18,
    "city": "越前市",
    "city_kana": "エチゼンシ",
    "town": "吾妻町",
    "town_kana": "アヅマチョウ",
    "street": null,
    "office_name": null,
    "office_name_kana": null
  },
  "0071": {
    "postcode": "9150071",
    "prefecture": "福井県",
    "prefecture_kana": "フクイケン",
    "prefecture_code": 18,
    "city": "越前市",
    "city_kana": "エチゼンシ",
    "town": "府中",
    "town_kana": "フチュウ",
    "street": null,
    "office_name": null,
    "office_name_kana": null
  },
  "0072": {
    "postcode": "9150072",
    "prefecture": "福井県",
    "prefecture_kana": "フクイケン",
    "prefecture_code": 18,
    "city": "越前市",
    "city_kana": "エチゼンシ",
    "town": "万代町",
    "town_kana": "バンダイチョウ",
    "street": null,
    "office_name": null,
    "office_name_kana": null
  },
  "0073": {
    "postcode": "9150073",
    "prefecture": "福井県",
    "prefecture_kana": "フクイケン",
    "prefecture_code": 18,
    "city": "越前市",
    "city_kana": "エチゼンシ",
    "town": "錦町",
    "town_kana": "ニシキチョウ",
    "street": null,
    "office_name": null,
    "office_name_kana": null
  },
  "0074": {
    "postcode": "9150074",
    "prefecture": "福井県",
    "prefecture_kana": "フクイケン",
    "prefecture_code": 18,
    "city": "越前市",
    "city_kana": "エチゼンシ",
    "town": "蓬莱町",
    "town_kana": "ホウライチョウ",
    "street": null,
    "office_name": null,
    "office_name_kana": null
  },
  "0075": {
    "postcode": "9150075",
    "prefecture": "福井県",
    "prefecture_kana": "フクイケン",
    "prefecture_code": 18,
    "city": "越前市",
    "city_kana": "エチゼンシ",
    "town": "幸町",
    "town_kana": "サイワイチョウ",
    "street": null,
    "office_name": null,
    "office_name_kana": null
  },
  "0076": {
    "postcode": "9150076",
    "prefecture": "福井県",
    "prefecture_kana": "フクイケン",
    "prefecture_code": 18,
    "city": "越前市",
    "city_kana": "エチゼンシ",
    "town": "国府",
    "town_kana": "コクフ",
    "street": null,
    "office_name": null,
    "office_name_kana": null
  },
  "0081": {
    "postcode": "9150081",
    "prefecture": "福井県",
    "prefecture_kana": "フクイケン",
    "prefecture_code": 18,
    "city": "越前市",
    "city_kana": "エチゼンシ",
    "town": "馬上免町",
    "town_kana": "バジョウメチョウ",
    "street": null,
    "office_name": null,
    "office_name_kana": null
  },
  "0082": {
    "postcode": "9150082",
    "prefecture": "福井県",
    "prefecture_kana": "フクイケン",
    "prefecture_code": 18,
    "city": "越前市",
    "city_kana": "エチゼンシ",
    "town": "国高",
    "town_kana": "クニタカ",
    "street": null,
    "office_name": null,
    "office_name_kana": null
  },
  "0083": {
    "postcode": "9150083",
    "prefecture": "福井県",
    "prefecture_kana": "フクイケン",
    "prefecture_code": 18,
    "city": "越前市",
    "city_kana": "エチゼンシ",
    "town": "押田",
    "town_kana": "オシダ",
    "street": null,
    "office_name": null,
    "office_name_kana": null
  },
  "0084": {
    "postcode": "9150084",
    "prefecture": "福井県",
    "prefecture_kana": "フクイケン",
    "prefecture_code": 18,
    "city": "越前市",
    "city_kana": "エチゼンシ",
    "town": "村国",
    "town_kana": "ムラクニ",
    "street": null,
    "office_name": null,
    "office_name_kana": null
  },
  "0085": {
    "postcode": "9150085",
    "prefecture": "福井県",
    "prefecture_kana": "フクイケン",
    "prefecture_code": 18,
    "city": "越前市",
    "city_kana": "エチゼンシ",
    "town": "八幡",
    "town_kana": "ハチマン",
    "street": null,
    "office_name": null,
    "office_name_kana": null
  },
  "0091": {
    "postcode": "9150091",
    "prefecture": "福井県",
    "prefecture_kana": "フクイケン",
    "prefecture_code": 18,
    "city": "越前市",
    "city_kana": "エチゼンシ",
    "town": "高木町",
    "town_kana": "タカギチョウ",
    "street": null,
    "office_name": null,
    "office_name_kana": null
  },
  "0092": {
    "postcode": "9150092",
    "prefecture": "福井県",
    "prefecture_kana": "フクイケン",
    "prefecture_code": 18,
    "city": "越前市",
    "city_kana": "エチゼンシ",
    "town": "塚町",
    "town_kana": "ツカチョウ",
    "street": null,
    "office_name": null,
    "office_name_kana": null
  },
  "0093": {
    "postcode": "9150093",
    "prefecture": "福井県",
    "prefecture_kana": "フクイケン",
    "prefecture_code": 18,
    "city": "越前市",
    "city_kana": "エチゼンシ",
    "town": "庄町",
    "town_kana": "ショウチョウ",
    "street": null,
    "office_name": null,
    "office_name_kana": null
  },
  "0094": {
    "postcode": "9150094",
    "prefecture": "福井県",
    "prefecture_kana": "フクイケン",
    "prefecture_code": 18,
    "city": "越前市",
    "city_kana": "エチゼンシ",
    "town": "横市町",
    "town_kana": "ヨコイチチョウ",
    "street": null,
    "office_name": null,
    "office_name_kana": null
  },
  "0095": {
    "postcode": "9150095",
    "prefecture": "福井県",
    "prefecture_kana": "フクイケン",
    "prefecture_code": 18,
    "city": "越前市",
    "city_kana": "エチゼンシ",
    "town": "稲寄町",
    "town_kana": "イナヨセチョウ",
    "street": null,
    "office_name": null,
    "office_name_kana": null
  },
  "0096": {
    "postcode": "9150096",
    "prefecture": "福井県",
    "prefecture_kana": "フクイケン",
    "prefecture_code": 18,
    "city": "越前市",
    "city_kana": "エチゼンシ",
    "town": "瓜生町",
    "town_kana": "ウリュウチョウ",
    "street": null,
    "office_name": null,
    "office_name_kana": null
  },
  "0097": {
    "postcode": "9150097",
    "prefecture": "福井県",
    "prefecture_kana": "フクイケン",
    "prefecture_code": 18,
    "city": "越前市",
    "city_kana": "エチゼンシ",
    "town": "長土呂町",
    "town_kana": "ナガトロチョウ",
    "street": null,
    "office_name": null,
    "office_name_kana": null
  },
  "0201": {
    "postcode": "9150201",
    "prefecture": "福井県",
    "prefecture_kana": "フクイケン",
    "prefecture_code": 18,
    "city": "越前市",
    "city_kana": "エチゼンシ",
    "town": "西河内町",
    "town_kana": "ニシコウチチョウ",
    "street": null,
    "office_name": null,
    "office_name_kana": null
  },
  "0202": {
    "postcode": "9150202",
    "prefecture": "福井県",
    "prefecture_kana": "フクイケン",
    "prefecture_code": 18,
    "city": "越前市",
    "city_kana": "エチゼンシ",
    "town": "相木町",
    "town_kana": "アイノキチョウ",
    "street": null,
    "office_name": null,
    "office_name_kana": null
  },
  "0203": [
    {
      "postcode": "9150203",
      "prefecture": "福井県",
      "prefecture_kana": "フクイケン",
      "prefecture_code": 18,
      "city": "越前市",
      "city_kana": "エチゼンシ",
      "town": "清根町",
      "town_kana": "キヨネチョウ",
      "street": null,
      "office_name": null,
      "office_name_kana": null
    },
    {
      "postcode": "9150203",
      "prefecture": "福井県",
      "prefecture_kana": "フクイケン",
      "prefecture_code": 18,
      "city": "越前市",
      "city_kana": "エチゼンシ",
      "town": "横住町",
      "town_kana": "ヨコズミチョウ",
      "street": null,
      "office_name": null,
      "office_name_kana": null
    }
  ],
  "0204": {
    "postcode": "9150204",
    "prefecture": "福井県",
    "prefecture_kana": "フクイケン",
    "prefecture_code": 18,
    "city": "越前市",
    "city_kana": "エチゼンシ",
    "town": "寺地町",
    "town_kana": "テラジチョウ",
    "street": null,
    "office_name": null,
    "office_name_kana": null
  },
  "0205": {
    "postcode": "9150205",
    "prefecture": "福井県",
    "prefecture_kana": "フクイケン",
    "prefecture_code": 18,
    "city": "越前市",
    "city_kana": "エチゼンシ",
    "town": "波垣町",
    "town_kana": "ナミガキチョウ",
    "street": null,
    "office_name": null,
    "office_name_kana": null
  },
  "0206": {
    "postcode": "9150206",
    "prefecture": "福井県",
    "prefecture_kana": "フクイケン",
    "prefecture_code": 18,
    "city": "越前市",
    "city_kana": "エチゼンシ",
    "town": "春山町",
    "town_kana": "ハルヤマチョウ",
    "street": null,
    "office_name": null,
    "office_name_kana": null
  },
  "0207": {
    "postcode": "9150207",
    "prefecture": "福井県",
    "prefecture_kana": "フクイケン",
    "prefecture_code": 18,
    "city": "越前市",
    "city_kana": "エチゼンシ",
    "town": "東樫尾町",
    "town_kana": "ヒガシカシオチョウ",
    "street": null,
    "office_name": null,
    "office_name_kana": null
  },
  "0208": {
    "postcode": "9150208",
    "prefecture": "福井県",
    "prefecture_kana": "フクイケン",
    "prefecture_code": 18,
    "city": "越前市",
    "city_kana": "エチゼンシ",
    "town": "領家町",
    "town_kana": "リョウケチョウ",
    "street": null,
    "office_name": null,
    "office_name_kana": null
  },
  "0209": {
    "postcode": "9150209",
    "prefecture": "福井県",
    "prefecture_kana": "フクイケン",
    "prefecture_code": 18,
    "city": "越前市",
    "city_kana": "エチゼンシ",
    "town": "藤木町",
    "town_kana": "フジノキチョウ",
    "street": null,
    "office_name": null,
    "office_name_kana": null
  },
  "0211": {
    "postcode": "9150211",
    "prefecture": "福井県",
    "prefecture_kana": "フクイケン",
    "prefecture_code": 18,
    "city": "越前市",
    "city_kana": "エチゼンシ",
    "town": "室谷町",
    "town_kana": "ムロタニチョウ",
    "street": null,
    "office_name": null,
    "office_name_kana": null
  },
  "0212": {
    "postcode": "9150212",
    "prefecture": "福井県",
    "prefecture_kana": "フクイケン",
    "prefecture_code": 18,
    "city": "越前市",
    "city_kana": "エチゼンシ",
    "town": "長谷町",
    "town_kana": "ナガタニチョウ",
    "street": null,
    "office_name": null,
    "office_name_kana": null
  },
  "0213": {
    "postcode": "9150213",
    "prefecture": "福井県",
    "prefecture_kana": "フクイケン",
    "prefecture_code": 18,
    "city": "越前市",
    "city_kana": "エチゼンシ",
    "town": "南中町",
    "town_kana": "ミナミナカチョウ",
    "street": null,
    "office_name": null,
    "office_name_kana": null
  },
  "0214": {
    "postcode": "9150214",
    "prefecture": "福井県",
    "prefecture_kana": "フクイケン",
    "prefecture_code": 18,
    "city": "越前市",
    "city_kana": "エチゼンシ",
    "town": "赤谷町",
    "town_kana": "アカタニチョウ",
    "street": null,
    "office_name": null,
    "office_name_kana": null
  },
  "0215": {
    "postcode": "9150215",
    "prefecture": "福井県",
    "prefecture_kana": "フクイケン",
    "prefecture_code": 18,
    "city": "越前市",
    "city_kana": "エチゼンシ",
    "town": "柳元町",
    "town_kana": "ヤナギモトマチ",
    "street": null,
    "office_name": null,
    "office_name_kana": null
  },
  "0216": {
    "postcode": "9150216",
    "prefecture": "福井県",
    "prefecture_kana": "フクイケン",
    "prefecture_code": 18,
    "city": "越前市",
    "city_kana": "エチゼンシ",
    "town": "市野々町",
    "town_kana": "イチノノチョウ",
    "street": null,
    "office_name": null,
    "office_name_kana": null
  },
  "0217": {
    "postcode": "9150217",
    "prefecture": "福井県",
    "prefecture_kana": "フクイケン",
    "prefecture_code": 18,
    "city": "越前市",
    "city_kana": "エチゼンシ",
    "town": "水間町",
    "town_kana": "ミズマチョウ",
    "street": null,
    "office_name": null,
    "office_name_kana": null
  },
  "0218": {
    "postcode": "9150218",
    "prefecture": "福井県",
    "prefecture_kana": "フクイケン",
    "prefecture_code": 18,
    "city": "越前市",
    "city_kana": "エチゼンシ",
    "town": "大谷町",
    "town_kana": "オオタニチョウ",
    "street": null,
    "office_name": null,
    "office_name_kana": null
  },
  "0219": [
    {
      "postcode": "9150219",
      "prefecture": "福井県",
      "prefecture_kana": "フクイケン",
      "prefecture_code": 18,
      "city": "越前市",
      "city_kana": "エチゼンシ",
      "town": "北坂下町",
      "town_kana": "キタサカシタチョウ",
      "street": null,
      "office_name": null,
      "office_name_kana": null
    },
    {
      "postcode": "9150219",
      "prefecture": "福井県",
      "prefecture_kana": "フクイケン",
      "prefecture_code": 18,
      "city": "越前市",
      "city_kana": "エチゼンシ",
      "town": "殿町",
      "town_kana": "トノチョウ",
      "street": null,
      "office_name": null,
      "office_name_kana": null
    }
  ],
  "0221": {
    "postcode": "9150221",
    "prefecture": "福井県",
    "prefecture_kana": "フクイケン",
    "prefecture_code": 18,
    "city": "越前市",
    "city_kana": "エチゼンシ",
    "town": "杉尾町",
    "town_kana": "スギオチョウ",
    "street": null,
    "office_name": null,
    "office_name_kana": null
  },
  "0222": {
    "postcode": "9150222",
    "prefecture": "福井県",
    "prefecture_kana": "フクイケン",
    "prefecture_code": 18,
    "city": "越前市",
    "city_kana": "エチゼンシ",
    "town": "轟井町",
    "town_kana": "トドロイチョウ",
    "street": null,
    "office_name": null,
    "office_name_kana": null
  },
  "0223": [
    {
      "postcode": "9150223",
      "prefecture": "福井県",
      "prefecture_kana": "フクイケン",
      "prefecture_code": 18,
      "city": "越前市",
      "city_kana": "エチゼンシ",
      "town": "島町",
      "town_kana": "シマチョウ",
      "street": null,
      "office_name": null,
      "office_name_kana": null
    },
    {
      "postcode": "9150223",
      "prefecture": "福井県",
      "prefecture_kana": "フクイケン",
      "prefecture_code": 18,
      "city": "越前市",
      "city_kana": "エチゼンシ",
      "town": "長五町",
      "town_kana": "チョウゴチョウ",
      "street": null,
      "office_name": null,
      "office_name_kana": null
    }
  ],
  "0224": {
    "postcode": "9150224",
    "prefecture": "福井県",
    "prefecture_kana": "フクイケン",
    "prefecture_code": 18,
    "city": "越前市",
    "city_kana": "エチゼンシ",
    "town": "八石町",
    "town_kana": "ハチコクチョウ",
    "street": null,
    "office_name": null,
    "office_name_kana": null
  },
  "0225": {
    "postcode": "9150225",
    "prefecture": "福井県",
    "prefecture_kana": "フクイケン",
    "prefecture_code": 18,
    "city": "越前市",
    "city_kana": "エチゼンシ",
    "town": "別印町",
    "town_kana": "ベツインチョウ",
    "street": null,
    "office_name": null,
    "office_name_kana": null
  },
  "0226": {
    "postcode": "9150226",
    "prefecture": "福井県",
    "prefecture_kana": "フクイケン",
    "prefecture_code": 18,
    "city": "越前市",
    "city_kana": "エチゼンシ",
    "town": "南坂下町",
    "town_kana": "ミナミサカシタチョウ",
    "street": null,
    "office_name": null,
    "office_name_kana": null
  },
  "0227": {
    "postcode": "9150227",
    "prefecture": "福井県",
    "prefecture_kana": "フクイケン",
    "prefecture_code": 18,
    "city": "越前市",
    "city_kana": "エチゼンシ",
    "town": "中印町",
    "town_kana": "ナカインチョウ",
    "street": null,
    "office_name": null,
    "office_name_kana": null
  },
  "0228": {
    "postcode": "9150228",
    "prefecture": "福井県",
    "prefecture_kana": "フクイケン",
    "prefecture_code": 18,
    "city": "越前市",
    "city_kana": "エチゼンシ",
    "town": "大平町",
    "town_kana": "オオヒラチョウ",
    "street": null,
    "office_name": null,
    "office_name_kana": null
  },
  "0231": {
    "postcode": "9150231",
    "prefecture": "福井県",
    "prefecture_kana": "フクイケン",
    "prefecture_code": 18,
    "city": "越前市",
    "city_kana": "エチゼンシ",
    "town": "定友町",
    "town_kana": "サダトモチョウ",
    "street": null,
    "office_name": null,
    "office_name_kana": null
  },
  "0232": {
    "postcode": "9150232",
    "prefecture": "福井県",
    "prefecture_kana": "フクイケン",
    "prefecture_code": 18,
    "city": "越前市",
    "city_kana": "エチゼンシ",
    "town": "新在家町",
    "town_kana": "シンザイケチョウ",
    "street": null,
    "office_name": null,
    "office_name_kana": null
  },
  "0233": {
    "postcode": "9150233",
    "prefecture": "福井県",
    "prefecture_kana": "フクイケン",
    "prefecture_code": 18,
    "city": "越前市",
    "city_kana": "エチゼンシ",
    "town": "岩本町",
    "town_kana": "イワモトチョウ",
    "street": null,
    "office_name": null,
    "office_name_kana": null
  },
  "0234": {
    "postcode": "9150234",
    "prefecture": "福井県",
    "prefecture_kana": "フクイケン",
    "prefecture_code": 18,
    "city": "越前市",
    "city_kana": "エチゼンシ",
    "town": "大滝町",
    "town_kana": "オオタキチョウ",
    "street": null,
    "office_name": null,
    "office_name_kana": null
  },
  "0235": {
    "postcode": "9150235",
    "prefecture": "福井県",
    "prefecture_kana": "フクイケン",
    "prefecture_code": 18,
    "city": "越前市",
    "city_kana": "エチゼンシ",
    "town": "不老町",
    "town_kana": "オイズチョウ",
    "street": null,
    "office_name": null,
    "office_name_kana": null
  },
  "0241": {
    "postcode": "9150241",
    "prefecture": "福井県",
    "prefecture_kana": "フクイケン",
    "prefecture_code": 18,
    "city": "越前市",
    "city_kana": "エチゼンシ",
    "town": "粟田部町中央",
    "town_kana": "アワタベチョウチュウオウ",
    "street": null,
    "office_name": null,
    "office_name_kana": null
  },
  "0242": {
    "postcode": "9150242",
    "prefecture": "福井県",
    "prefecture_kana": "フクイケン",
    "prefecture_code": 18,
    "city": "越前市",
    "city_kana": "エチゼンシ",
    "town": "粟田部町",
    "town_kana": "アワタベチョウ",
    "street": null,
    "office_name": null,
    "office_name_kana": null
  },
  "0243": {
    "postcode": "9150243",
    "prefecture": "福井県",
    "prefecture_kana": "フクイケン",
    "prefecture_code": 18,
    "city": "越前市",
    "city_kana": "エチゼンシ",
    "town": "千原町",
    "town_kana": "チハラチョウ",
    "street": null,
    "office_name": null,
    "office_name_kana": null
  },
  "0244": {
    "postcode": "9150244",
    "prefecture": "福井県",
    "prefecture_kana": "フクイケン",
    "prefecture_code": 18,
    "city": "越前市",
    "city_kana": "エチゼンシ",
    "town": "西樫尾町",
    "town_kana": "ニシカシオチョウ",
    "street": null,
    "office_name": null,
    "office_name_kana": null
  },
  "0251": {
    "postcode": "9150251",
    "prefecture": "福井県",
    "prefecture_kana": "フクイケン",
    "prefecture_code": 18,
    "city": "越前市",
    "city_kana": "エチゼンシ",
    "town": "東庄境町",
    "town_kana": "ヒガシショウザカイチョウ",
    "street": null,
    "office_name": null,
    "office_name_kana": null
  },
  "0252": {
    "postcode": "9150252",
    "prefecture": "福井県",
    "prefecture_kana": "フクイケン",
    "prefecture_code": 18,
    "city": "越前市",
    "city_kana": "エチゼンシ",
    "town": "西庄境町",
    "town_kana": "ニシショウザカイチョウ",
    "street": null,
    "office_name": null,
    "office_name_kana": null
  },
  "0253": {
    "postcode": "9150253",
    "prefecture": "福井県",
    "prefecture_kana": "フクイケン",
    "prefecture_code": 18,
    "city": "越前市",
    "city_kana": "エチゼンシ",
    "town": "中津山町",
    "town_kana": "ナカツヤマチョウ",
    "street": null,
    "office_name": null,
    "office_name_kana": null
  },
  "0254": {
    "postcode": "9150254",
    "prefecture": "福井県",
    "prefecture_kana": "フクイケン",
    "prefecture_code": 18,
    "city": "越前市",
    "city_kana": "エチゼンシ",
    "town": "国中町",
    "town_kana": "クニナカチョウ",
    "street": null,
    "office_name": null,
    "office_name_kana": null
  },
  "0255": {
    "postcode": "9150255",
    "prefecture": "福井県",
    "prefecture_kana": "フクイケン",
    "prefecture_code": 18,
    "city": "越前市",
    "city_kana": "エチゼンシ",
    "town": "新堂町",
    "town_kana": "シンドウチョウ",
    "street": null,
    "office_name": null,
    "office_name_kana": null
  },
  "0256": {
    "postcode": "9150256",
    "prefecture": "福井県",
    "prefecture_kana": "フクイケン",
    "prefecture_code": 18,
    "city": "越前市",
    "city_kana": "エチゼンシ",
    "town": "赤坂町",
    "town_kana": "アカサカチョウ",
    "street": null,
    "office_name": null,
    "office_name_kana": null
  },
  "0261": {
    "postcode": "9150261",
    "prefecture": "福井県",
    "prefecture_kana": "フクイケン",
    "prefecture_code": 18,
    "city": "越前市",
    "city_kana": "エチゼンシ",
    "town": "朽飯町",
    "town_kana": "クダシチョウ",
    "street": null,
    "office_name": null,
    "office_name_kana": null
  },
  "0262": {
    "postcode": "9150262",
    "prefecture": "福井県",
    "prefecture_kana": "フクイケン",
    "prefecture_code": 18,
    "city": "越前市",
    "city_kana": "エチゼンシ",
    "town": "高岡町",
    "town_kana": "タカオカチョウ",
    "street": null,
    "office_name": null,
    "office_name_kana": null
  },
  "0263": {
    "postcode": "9150263",
    "prefecture": "福井県",
    "prefecture_kana": "フクイケン",
    "prefecture_code": 18,
    "city": "越前市",
    "city_kana": "エチゼンシ",
    "town": "山室町",
    "town_kana": "ヤマムロチョウ",
    "street": null,
    "office_name": null,
    "office_name_kana": null
  },
  "0264": {
    "postcode": "9150264",
    "prefecture": "福井県",
    "prefecture_kana": "フクイケン",
    "prefecture_code": 18,
    "city": "越前市",
    "city_kana": "エチゼンシ",
    "town": "野岡町",
    "town_kana": "ノオカチョウ",
    "street": null,
    "office_name": null,
    "office_name_kana": null
  },
  "0265": {
    "postcode": "9150265",
    "prefecture": "福井県",
    "prefecture_kana": "フクイケン",
    "prefecture_code": 18,
    "city": "越前市",
    "city_kana": "エチゼンシ",
    "town": "仲山",
    "town_kana": "ナカヤマ",
    "street": null,
    "office_name": null,
    "office_name_kana": null
  },
  "0292": {
    "postcode": "9150292",
    "prefecture": "福井県",
    "prefecture_kana": "フクイケン",
    "prefecture_code": 18,
    "city": "越前市",
    "city_kana": "エチゼンシ",
    "town": "粟田部町",
    "town_kana": "アワタベチョウ",
    "street": "１１−３５",
    "office_name": "越前市　今立総合支所",
    "office_name_kana": "エチゼンシ イマダテソウゴウシシヨ"
  },
  "0801": {
    "postcode": "9150801",
    "prefecture": "福井県",
    "prefecture_kana": "フクイケン",
    "prefecture_code": 18,
    "city": "越前市",
    "city_kana": "エチゼンシ",
    "town": "家久町",
    "town_kana": "イエヒサチョウ",
    "street": null,
    "office_name": null,
    "office_name_kana": null
  },
  "0802": [
    {
      "postcode": "9150802",
      "prefecture": "福井県",
      "prefecture_kana": "フクイケン",
      "prefecture_code": 18,
      "city": "越前市",
      "city_kana": "エチゼンシ",
      "town": "北府",
      "town_kana": "キタゴ",
      "street": null,
      "office_name": null,
      "office_name_kana": null
    },
    {
      "postcode": "9150802",
      "prefecture": "福井県",
      "prefecture_kana": "フクイケン",
      "prefecture_code": 18,
      "city": "越前市",
      "city_kana": "エチゼンシ",
      "town": "北府本町",
      "town_kana": "キタゴホンマチ",
      "street": null,
      "office_name": null,
      "office_name_kana": null
    }
  ],
  "0803": {
    "postcode": "9150803",
    "prefecture": "福井県",
    "prefecture_kana": "フクイケン",
    "prefecture_code": 18,
    "city": "越前市",
    "city_kana": "エチゼンシ",
    "town": "平出",
    "town_kana": "ヒライデ",
    "street": null,
    "office_name": null,
    "office_name_kana": null
  },
  "0804": [
    {
      "postcode": "9150804",
      "prefecture": "福井県",
      "prefecture_kana": "フクイケン",
      "prefecture_code": 18,
      "city": "越前市",
      "city_kana": "エチゼンシ",
      "town": "新保",
      "town_kana": "シンボ",
      "street": null,
      "office_name": null,
      "office_name_kana": null
    },
    {
      "postcode": "9150804",
      "prefecture": "福井県",
      "prefecture_kana": "フクイケン",
      "prefecture_code": 18,
      "city": "越前市",
      "city_kana": "エチゼンシ",
      "town": "新保町",
      "town_kana": "シンボチョウ",
      "street": null,
      "office_name": null,
      "office_name_kana": null
    }
  ],
  "0805": {
    "postcode": "9150805",
    "prefecture": "福井県",
    "prefecture_kana": "フクイケン",
    "prefecture_code": 18,
    "city": "越前市",
    "city_kana": "エチゼンシ",
    "town": "芝原",
    "town_kana": "シバハラ",
    "street": null,
    "office_name": null,
    "office_name_kana": null
  },
  "0806": {
    "postcode": "9150806",
    "prefecture": "福井県",
    "prefecture_kana": "フクイケン",
    "prefecture_code": 18,
    "city": "越前市",
    "city_kana": "エチゼンシ",
    "town": "本保町",
    "town_kana": "ホンボチョウ",
    "street": null,
    "office_name": null,
    "office_name_kana": null
  },
  "0811": {
    "postcode": "9150811",
    "prefecture": "福井県",
    "prefecture_kana": "フクイケン",
    "prefecture_code": 18,
    "city": "越前市",
    "city_kana": "エチゼンシ",
    "town": "本多",
    "town_kana": "ホンダ",
    "street": null,
    "office_name": null,
    "office_name_kana": null
  },
  "0812": {
    "postcode": "9150812",
    "prefecture": "福井県",
    "prefecture_kana": "フクイケン",
    "prefecture_code": 18,
    "city": "越前市",
    "city_kana": "エチゼンシ",
    "town": "桂町",
    "town_kana": "カツラチョウ",
    "street": null,
    "office_name": null,
    "office_name_kana": null
  },
  "0813": {
    "postcode": "9150813",
    "prefecture": "福井県",
    "prefecture_kana": "フクイケン",
    "prefecture_code": 18,
    "city": "越前市",
    "city_kana": "エチゼンシ",
    "town": "京町",
    "town_kana": "キョウマチ",
    "street": null,
    "office_name": null,
    "office_name_kana": null
  },
  "0814": {
    "postcode": "9150814",
    "prefecture": "福井県",
    "prefecture_kana": "フクイケン",
    "prefecture_code": 18,
    "city": "越前市",
    "city_kana": "エチゼンシ",
    "town": "中央",
    "town_kana": "チュウオウ",
    "street": null,
    "office_name": null,
    "office_name_kana": null
  },
  "0815": {
    "postcode": "9150815",
    "prefecture": "福井県",
    "prefecture_kana": "フクイケン",
    "prefecture_code": 18,
    "city": "越前市",
    "city_kana": "エチゼンシ",
    "town": "深草",
    "town_kana": "フカクサ",
    "street": null,
    "office_name": null,
    "office_name_kana": null
  },
  "0816": {
    "postcode": "9150816",
    "prefecture": "福井県",
    "prefecture_kana": "フクイケン",
    "prefecture_code": 18,
    "city": "越前市",
    "city_kana": "エチゼンシ",
    "town": "小松",
    "town_kana": "コマツ",
    "street": null,
    "office_name": null,
    "office_name_kana": null
  },
  "0821": {
    "postcode": "9150821",
    "prefecture": "福井県",
    "prefecture_kana": "フクイケン",
    "prefecture_code": 18,
    "city": "越前市",
    "city_kana": "エチゼンシ",
    "town": "若松町",
    "town_kana": "ワカマツチョウ",
    "street": null,
    "office_name": null,
    "office_name_kana": null
  },
  "0822": {
    "postcode": "9150822",
    "prefecture": "福井県",
    "prefecture_kana": "フクイケン",
    "prefecture_code": 18,
    "city": "越前市",
    "city_kana": "エチゼンシ",
    "town": "元町",
    "town_kana": "モトマチ",
    "street": null,
    "office_name": null,
    "office_name_kana": null
  },
  "0823": {
    "postcode": "9150823",
    "prefecture": "福井県",
    "prefecture_kana": "フクイケン",
    "prefecture_code": 18,
    "city": "越前市",
    "city_kana": "エチゼンシ",
    "town": "本町",
    "town_kana": "ホンマチ",
    "street": null,
    "office_name": null,
    "office_name_kana": null
  },
  "0824": {
    "postcode": "9150824",
    "prefecture": "福井県",
    "prefecture_kana": "フクイケン",
    "prefecture_code": 18,
    "city": "越前市",
    "city_kana": "エチゼンシ",
    "town": "武生柳町",
    "town_kana": "タケフヤナギチョウ",
    "street": null,
    "office_name": null,
    "office_name_kana": null
  },
  "0825": {
    "postcode": "9150825",
    "prefecture": "福井県",
    "prefecture_kana": "フクイケン",
    "prefecture_code": 18,
    "city": "越前市",
    "city_kana": "エチゼンシ",
    "town": "南",
    "town_kana": "ミナミ",
    "street": null,
    "office_name": null,
    "office_name_kana": null
  },
  "0826": {
    "postcode": "9150826",
    "prefecture": "福井県",
    "prefecture_kana": "フクイケン",
    "prefecture_code": 18,
    "city": "越前市",
    "city_kana": "エチゼンシ",
    "town": "御幸町",
    "town_kana": "ミユキチョウ",
    "street": null,
    "office_name": null,
    "office_name_kana": null
  },
  "0827": {
    "postcode": "9150827",
    "prefecture": "福井県",
    "prefecture_kana": "フクイケン",
    "prefecture_code": 18,
    "city": "越前市",
    "city_kana": "エチゼンシ",
    "town": "平和町",
    "town_kana": "ヘイワチョウ",
    "street": null,
    "office_name": null,
    "office_name_kana": null
  },
  "0831": {
    "postcode": "9150831",
    "prefecture": "福井県",
    "prefecture_kana": "フクイケン",
    "prefecture_code": 18,
    "city": "越前市",
    "city_kana": "エチゼンシ",
    "town": "日野美",
    "town_kana": "ヒノミ",
    "street": null,
    "office_name": null,
    "office_name_kana": null
  },
  "0832": {
    "postcode": "9150832",
    "prefecture": "福井県",
    "prefecture_kana": "フクイケン",
    "prefecture_code": 18,
    "city": "越前市",
    "city_kana": "エチゼンシ",
    "town": "高瀬",
    "town_kana": "タカセ",
    "street": null,
    "office_name": null,
    "office_name_kana": null
  },
  "0833": {
    "postcode": "9150833",
    "prefecture": "福井県",
    "prefecture_kana": "フクイケン",
    "prefecture_code": 18,
    "city": "越前市",
    "city_kana": "エチゼンシ",
    "town": "沢町",
    "town_kana": "サワチョウ",
    "street": null,
    "office_name": null,
    "office_name_kana": null
  },
  "0834": {
    "postcode": "9150834",
    "prefecture": "福井県",
    "prefecture_kana": "フクイケン",
    "prefecture_code": 18,
    "city": "越前市",
    "city_kana": "エチゼンシ",
    "town": "北千福町",
    "town_kana": "キタセンプクチョウ",
    "street": null,
    "office_name": null,
    "office_name_kana": null
  },
  "0835": {
    "postcode": "9150835",
    "prefecture": "福井県",
    "prefecture_kana": "フクイケン",
    "prefecture_code": 18,
    "city": "越前市",
    "city_kana": "エチゼンシ",
    "town": "岡本町",
    "town_kana": "オカモトチョウ",
    "street": null,
    "office_name": null,
    "office_name_kana": null
  },
  "0836": {
    "postcode": "9150836",
    "prefecture": "福井県",
    "prefecture_kana": "フクイケン",
    "prefecture_code": 18,
    "city": "越前市",
    "city_kana": "エチゼンシ",
    "town": "野上町",
    "town_kana": "ノガミマチ",
    "street": null,
    "office_name": null,
    "office_name_kana": null
  },
  "0841": {
    "postcode": "9150841",
    "prefecture": "福井県",
    "prefecture_kana": "フクイケン",
    "prefecture_code": 18,
    "city": "越前市",
    "city_kana": "エチゼンシ",
    "town": "文京",
    "town_kana": "ブンキョウ",
    "street": null,
    "office_name": null,
    "office_name_kana": null
  },
  "0842": {
    "postcode": "9150842",
    "prefecture": "福井県",
    "prefecture_kana": "フクイケン",
    "prefecture_code": 18,
    "city": "越前市",
    "city_kana": "エチゼンシ",
    "town": "常久町",
    "town_kana": "ツネヒサチョウ",
    "street": null,
    "office_name": null,
    "office_name_kana": null
  },
  "0843": {
    "postcode": "9150843",
    "prefecture": "福井県",
    "prefecture_kana": "フクイケン",
    "prefecture_code": 18,
    "city": "越前市",
    "city_kana": "エチゼンシ",
    "town": "月見町",
    "town_kana": "ツキミチョウ",
    "street": null,
    "office_name": null,
    "office_name_kana": null
  },
  "0844": {
    "postcode": "9150844",
    "prefecture": "福井県",
    "prefecture_kana": "フクイケン",
    "prefecture_code": 18,
    "city": "越前市",
    "city_kana": "エチゼンシ",
    "town": "妙法寺町",
    "town_kana": "ミョウホウジチョウ",
    "street": null,
    "office_name": null,
    "office_name_kana": null
  },
  "0845": {
    "postcode": "9150845",
    "prefecture": "福井県",
    "prefecture_kana": "フクイケン",
    "prefecture_code": 18,
    "city": "越前市",
    "city_kana": "エチゼンシ",
    "town": "三ツ口町",
    "town_kana": "ミツクチチョウ",
    "street": null,
    "office_name": null,
    "office_name_kana": null
  },
  "0846": {
    "postcode": "9150846",
    "prefecture": "福井県",
    "prefecture_kana": "フクイケン",
    "prefecture_code": 18,
    "city": "越前市",
    "city_kana": "エチゼンシ",
    "town": "千福町",
    "town_kana": "センプクチョウ",
    "street": null,
    "office_name": null,
    "office_name_kana": null
  },
  "0847": {
    "postcode": "9150847",
    "prefecture": "福井県",
    "prefecture_kana": "フクイケン",
    "prefecture_code": 18,
    "city": "越前市",
    "city_kana": "エチゼンシ",
    "town": "東千福町",
    "town_kana": "ヒガシセンプクチョウ",
    "street": null,
    "office_name": null,
    "office_name_kana": null
  },
  "0851": {
    "postcode": "9150851",
    "prefecture": "福井県",
    "prefecture_kana": "フクイケン",
    "prefecture_code": 18,
    "city": "越前市",
    "city_kana": "エチゼンシ",
    "town": "畷町",
    "town_kana": "ナワテチョウ",
    "street": null,
    "office_name": null,
    "office_name_kana": null
  },
  "0852": {
    "postcode": "9150852",
    "prefecture": "福井県",
    "prefecture_kana": "フクイケン",
    "prefecture_code": 18,
    "city": "越前市",
    "city_kana": "エチゼンシ",
    "town": "松森町",
    "town_kana": "マツモリチョウ",
    "street": null,
    "office_name": null,
    "office_name_kana": null
  },
  "0853": {
    "postcode": "9150853",
    "prefecture": "福井県",
    "prefecture_kana": "フクイケン",
    "prefecture_code": 18,
    "city": "越前市",
    "city_kana": "エチゼンシ",
    "town": "行松町",
    "town_kana": "ユキマツチョウ",
    "street": null,
    "office_name": null,
    "office_name_kana": null
  },
  "0854": {
    "postcode": "9150854",
    "prefecture": "福井県",
    "prefecture_kana": "フクイケン",
    "prefecture_code": 18,
    "city": "越前市",
    "city_kana": "エチゼンシ",
    "town": "富士見が丘",
    "town_kana": "フジミガオカ",
    "street": null,
    "office_name": null,
    "office_name_kana": null
  },
  "0855": {
    "postcode": "9150855",
    "prefecture": "福井県",
    "prefecture_kana": "フクイケン",
    "prefecture_code": 18,
    "city": "越前市",
    "city_kana": "エチゼンシ",
    "town": "下平吹町",
    "town_kana": "シモヒラブキチョウ",
    "street": null,
    "office_name": null,
    "office_name_kana": null
  },
  "0856": {
    "postcode": "9150856",
    "prefecture": "福井県",
    "prefecture_kana": "フクイケン",
    "prefecture_code": 18,
    "city": "越前市",
    "city_kana": "エチゼンシ",
    "town": "中平吹町",
    "town_kana": "ナカヒラブキチョウ",
    "street": null,
    "office_name": null,
    "office_name_kana": null
  },
  "0857": {
    "postcode": "9150857",
    "prefecture": "福井県",
    "prefecture_kana": "フクイケン",
    "prefecture_code": 18,
    "city": "越前市",
    "city_kana": "エチゼンシ",
    "town": "四郎丸町",
    "town_kana": "シロウマルチョウ",
    "street": null,
    "office_name": null,
    "office_name_kana": null
  },
  "0861": {
    "postcode": "9150861",
    "prefecture": "福井県",
    "prefecture_kana": "フクイケン",
    "prefecture_code": 18,
    "city": "越前市",
    "city_kana": "エチゼンシ",
    "town": "今宿町",
    "town_kana": "イマジュクチョウ",
    "street": null,
    "office_name": null,
    "office_name_kana": null
  },
  "0862": {
    "postcode": "9150862",
    "prefecture": "福井県",
    "prefecture_kana": "フクイケン",
    "prefecture_code": 18,
    "city": "越前市",
    "city_kana": "エチゼンシ",
    "town": "国兼町",
    "town_kana": "クニカネチョウ",
    "street": null,
    "office_name": null,
    "office_name_kana": null
  },
  "0863": {
    "postcode": "9150863",
    "prefecture": "福井県",
    "prefecture_kana": "フクイケン",
    "prefecture_code": 18,
    "city": "越前市",
    "city_kana": "エチゼンシ",
    "town": "大塩町",
    "town_kana": "オオシオチョウ",
    "street": null,
    "office_name": null,
    "office_name_kana": null
  },
  "0864": {
    "postcode": "9150864",
    "prefecture": "福井県",
    "prefecture_kana": "フクイケン",
    "prefecture_code": 18,
    "city": "越前市",
    "city_kana": "エチゼンシ",
    "town": "上小松町",
    "town_kana": "カミコマツチョウ",
    "street": null,
    "office_name": null,
    "office_name_kana": null
  },
  "0865": [
    {
      "postcode": "9150865",
      "prefecture": "福井県",
      "prefecture_kana": "フクイケン",
      "prefecture_code": 18,
      "city": "越前市",
      "city_kana": "エチゼンシ",
      "town": "瓜生野町",
      "town_kana": "ウリュウノチョウ",
      "street": null,
      "office_name": null,
      "office_name_kana": null
    },
    {
      "postcode": "9150865",
      "prefecture": "福井県",
      "prefecture_kana": "フクイケン",
      "prefecture_code": 18,
      "city": "越前市",
      "city_kana": "エチゼンシ",
      "town": "森久町",
      "town_kana": "モリヒサチョウ",
      "street": null,
      "office_name": null,
      "office_name_kana": null
    }
  ],
  "0871": {
    "postcode": "9150871",
    "prefecture": "福井県",
    "prefecture_kana": "フクイケン",
    "prefecture_code": 18,
    "city": "越前市",
    "city_kana": "エチゼンシ",
    "town": "向が丘町",
    "town_kana": "ムカイガオカチョウ",
    "street": null,
    "office_name": null,
    "office_name_kana": null
  },
  "0872": {
    "postcode": "9150872",
    "prefecture": "福井県",
    "prefecture_kana": "フクイケン",
    "prefecture_code": 18,
    "city": "越前市",
    "city_kana": "エチゼンシ",
    "town": "広瀬町",
    "town_kana": "ヒロセチョウ",
    "street": null,
    "office_name": null,
    "office_name_kana": null
  },
  "0873": {
    "postcode": "9150873",
    "prefecture": "福井県",
    "prefecture_kana": "フクイケン",
    "prefecture_code": 18,
    "city": "越前市",
    "city_kana": "エチゼンシ",
    "town": "池ノ上町",
    "town_kana": "イケノカミチョウ",
    "street": null,
    "office_name": null,
    "office_name_kana": null
  },
  "0874": {
    "postcode": "9150874",
    "prefecture": "福井県",
    "prefecture_kana": "フクイケン",
    "prefecture_code": 18,
    "city": "越前市",
    "city_kana": "エチゼンシ",
    "town": "向陽町",
    "town_kana": "コウヨウチョウ",
    "street": null,
    "office_name": null,
    "office_name_kana": null
  },
  "0875": {
    "postcode": "9150875",
    "prefecture": "福井県",
    "prefecture_kana": "フクイケン",
    "prefecture_code": 18,
    "city": "越前市",
    "city_kana": "エチゼンシ",
    "town": "塚原町",
    "town_kana": "ツカバラチョウ",
    "street": null,
    "office_name": null,
    "office_name_kana": null
  },
  "0876": {
    "postcode": "9150876",
    "prefecture": "福井県",
    "prefecture_kana": "フクイケン",
    "prefecture_code": 18,
    "city": "越前市",
    "city_kana": "エチゼンシ",
    "town": "白崎町",
    "town_kana": "シロサキチョウ",
    "street": null,
    "office_name": null,
    "office_name_kana": null
  },
  "0877": {
    "postcode": "9150877",
    "prefecture": "福井県",
    "prefecture_kana": "フクイケン",
    "prefecture_code": 18,
    "city": "越前市",
    "city_kana": "エチゼンシ",
    "town": "春日野町",
    "town_kana": "カスガノチョウ",
    "street": null,
    "office_name": null,
    "office_name_kana": null
  },
  "0881": {
    "postcode": "9150881",
    "prefecture": "福井県",
    "prefecture_kana": "フクイケン",
    "prefecture_code": 18,
    "city": "越前市",
    "city_kana": "エチゼンシ",
    "town": "下太田町",
    "town_kana": "シモオオダチョウ",
    "street": null,
    "office_name": null,
    "office_name_kana": null
  },
  "0882": {
    "postcode": "9150882",
    "prefecture": "福井県",
    "prefecture_kana": "フクイケン",
    "prefecture_code": 18,
    "city": "越前市",
    "city_kana": "エチゼンシ",
    "town": "上太田町",
    "town_kana": "カミオオダチョウ",
    "street": null,
    "office_name": null,
    "office_name_kana": null
  },
  "0883": {
    "postcode": "9150883",
    "prefecture": "福井県",
    "prefecture_kana": "フクイケン",
    "prefecture_code": 18,
    "city": "越前市",
    "city_kana": "エチゼンシ",
    "town": "新町",
    "town_kana": "シンチョウ",
    "street": null,
    "office_name": null,
    "office_name_kana": null
  },
  "0884": {
    "postcode": "9150884",
    "prefecture": "福井県",
    "prefecture_kana": "フクイケン",
    "prefecture_code": 18,
    "city": "越前市",
    "city_kana": "エチゼンシ",
    "town": "大虫本町",
    "town_kana": "オオムシホンチョウ",
    "street": null,
    "office_name": null,
    "office_name_kana": null
  },
  "0885": {
    "postcode": "9150885",
    "prefecture": "福井県",
    "prefecture_kana": "フクイケン",
    "prefecture_code": 18,
    "city": "越前市",
    "city_kana": "エチゼンシ",
    "town": "大虫町",
    "town_kana": "オオムシチョウ",
    "street": null,
    "office_name": null,
    "office_name_kana": null
  },
  "0886": {
    "postcode": "9150886",
    "prefecture": "福井県",
    "prefecture_kana": "フクイケン",
    "prefecture_code": 18,
    "city": "越前市",
    "city_kana": "エチゼンシ",
    "town": "上四目町",
    "town_kana": "カミシメチョウ",
    "street": null,
    "office_name": null,
    "office_name_kana": null
  },
  "0887": {
    "postcode": "9150887",
    "prefecture": "福井県",
    "prefecture_kana": "フクイケン",
    "prefecture_code": 18,
    "city": "越前市",
    "city_kana": "エチゼンシ",
    "town": "下四目町",
    "town_kana": "シモシメチョウ",
    "street": null,
    "office_name": null,
    "office_name_kana": null
  },
  "0888": {
    "postcode": "9150888",
    "prefecture": "福井県",
    "prefecture_kana": "フクイケン",
    "prefecture_code": 18,
    "city": "越前市",
    "city_kana": "エチゼンシ",
    "town": "高森町",
    "town_kana": "タカモリチョウ",
    "street": null,
    "office_name": null,
    "office_name_kana": null
  },
  "0891": {
    "postcode": "9150891",
    "prefecture": "福井県",
    "prefecture_kana": "フクイケン",
    "prefecture_code": 18,
    "city": "越前市",
    "city_kana": "エチゼンシ",
    "town": "余田町",
    "town_kana": "ハグリチョウ",
    "street": null,
    "office_name": null,
    "office_name_kana": null
  },
  "0892": {
    "postcode": "9150892",
    "prefecture": "福井県",
    "prefecture_kana": "フクイケン",
    "prefecture_code": 18,
    "city": "越前市",
    "city_kana": "エチゼンシ",
    "town": "氷坂町",
    "town_kana": "ヒサカチョウ",
    "street": null,
    "office_name": null,
    "office_name_kana": null
  },
  "0893": {
    "postcode": "9150893",
    "prefecture": "福井県",
    "prefecture_kana": "フクイケン",
    "prefecture_code": 18,
    "city": "越前市",
    "city_kana": "エチゼンシ",
    "town": "片屋町",
    "town_kana": "カタヤチョウ",
    "street": null,
    "office_name": null,
    "office_name_kana": null
  },
  "0894": {
    "postcode": "9150894",
    "prefecture": "福井県",
    "prefecture_kana": "フクイケン",
    "prefecture_code": 18,
    "city": "越前市",
    "city_kana": "エチゼンシ",
    "town": "丹生郷町",
    "town_kana": "ニュウノゴウチョウ",
    "street": null,
    "office_name": null,
    "office_name_kana": null
  },
  "0895": {
    "postcode": "9150895",
    "prefecture": "福井県",
    "prefecture_kana": "フクイケン",
    "prefecture_code": 18,
    "city": "越前市",
    "city_kana": "エチゼンシ",
    "town": "三ツ俣町",
    "town_kana": "ミツマタチョウ",
    "street": null,
    "office_name": null,
    "office_name_kana": null
  },
  "0896": {
    "postcode": "9150896",
    "prefecture": "福井県",
    "prefecture_kana": "フクイケン",
    "prefecture_code": 18,
    "city": "越前市",
    "city_kana": "エチゼンシ",
    "town": "横根町",
    "town_kana": "ヨコネチョウ",
    "street": null,
    "office_name": null,
    "office_name_kana": null
  },
  "0897": {
    "postcode": "9150897",
    "prefecture": "福井県",
    "prefecture_kana": "フクイケン",
    "prefecture_code": 18,
    "city": "越前市",
    "city_kana": "エチゼンシ",
    "town": "北山町",
    "town_kana": "キタヤマチョウ",
    "street": null,
    "office_name": null,
    "office_name_kana": null
  },
  "1101": {
    "postcode": "9151101",
    "prefecture": "福井県",
    "prefecture_kana": "フクイケン",
    "prefecture_code": 18,
    "city": "南条郡南越前町",
    "city_kana": "ナンジョウグンミナミエチゼンチョウ",
    "town": "具谷",
    "town_kana": "グダニ",
    "street": null,
    "office_name": null,
    "office_name_kana": null
  },
  "1102": {
    "postcode": "9151102",
    "prefecture": "福井県",
    "prefecture_kana": "フクイケン",
    "prefecture_code": 18,
    "city": "南条郡南越前町",
    "city_kana": "ナンジョウグンミナミエチゼンチョウ",
    "town": "菅谷",
    "town_kana": "スゲノタニ",
    "street": null,
    "office_name": null,
    "office_name_kana": null
  },
  "1103": {
    "postcode": "9151103",
    "prefecture": "福井県",
    "prefecture_kana": "フクイケン",
    "prefecture_code": 18,
    "city": "南条郡南越前町",
    "city_kana": "ナンジョウグンミナミエチゼンチョウ",
    "town": "大谷",
    "town_kana": "オオタニ",
    "street": null,
    "office_name": null,
    "office_name_kana": null
  },
  "1104": {
    "postcode": "9151104",
    "prefecture": "福井県",
    "prefecture_kana": "フクイケン",
    "prefecture_code": 18,
    "city": "南条郡南越前町",
    "city_kana": "ナンジョウグンミナミエチゼンチョウ",
    "town": "大良",
    "town_kana": "ダイラ",
    "street": null,
    "office_name": null,
    "office_name_kana": null
  },
  "1105": {
    "postcode": "9151105",
    "prefecture": "福井県",
    "prefecture_kana": "フクイケン",
    "prefecture_code": 18,
    "city": "南条郡南越前町",
    "city_kana": "ナンジョウグンミナミエチゼンチョウ",
    "town": "赤萩",
    "town_kana": "アカハギ",
    "street": null,
    "office_name": null,
    "office_name_kana": null
  },
  "1106": {
    "postcode": "9151106",
    "prefecture": "福井県",
    "prefecture_kana": "フクイケン",
    "prefecture_code": 18,
    "city": "南条郡南越前町",
    "city_kana": "ナンジョウグンミナミエチゼンチョウ",
    "town": "河内",
    "town_kana": "コウチ",
    "street": null,
    "office_name": null,
    "office_name_kana": null
  },
  "1111": {
    "postcode": "9151111",
    "prefecture": "福井県",
    "prefecture_kana": "フクイケン",
    "prefecture_code": 18,
    "city": "南条郡南越前町",
    "city_kana": "ナンジョウグンミナミエチゼンチョウ",
    "town": "河野",
    "town_kana": "コウノ",
    "street": null,
    "office_name": null,
    "office_name_kana": null
  },
  "1112": {
    "postcode": "9151112",
    "prefecture": "福井県",
    "prefecture_kana": "フクイケン",
    "prefecture_code": 18,
    "city": "南条郡南越前町",
    "city_kana": "ナンジョウグンミナミエチゼンチョウ",
    "town": "今泉",
    "town_kana": "イマイズミ",
    "street": null,
    "office_name": null,
    "office_name_kana": null
  },
  "1113": {
    "postcode": "9151113",
    "prefecture": "福井県",
    "prefecture_kana": "フクイケン",
    "prefecture_code": 18,
    "city": "南条郡南越前町",
    "city_kana": "ナンジョウグンミナミエチゼンチョウ",
    "town": "甲楽城",
    "town_kana": "カブラキ",
    "street": null,
    "office_name": null,
    "office_name_kana": null
  },
  "1114": [
    {
      "postcode": "9151114",
      "prefecture": "福井県",
      "prefecture_kana": "フクイケン",
      "prefecture_code": 18,
      "city": "南条郡南越前町",
      "city_kana": "ナンジョウグンミナミエチゼンチョウ",
      "town": "糠",
      "town_kana": "ヌカ",
      "street": null,
      "office_name": null,
      "office_name_kana": null
    },
    {
      "postcode": "9151114",
      "prefecture": "福井県",
      "prefecture_kana": "フクイケン",
      "prefecture_code": 18,
      "city": "南条郡南越前町",
      "city_kana": "ナンジョウグンミナミエチゼンチョウ",
      "town": "糠",
      "town_kana": "ヌカ",
      "street": null,
      "office_name": null,
      "office_name_kana": null
    },
    {
      "postcode": "9151114",
      "prefecture": "福井県",
      "prefecture_kana": "フクイケン",
      "prefecture_code": 18,
      "city": "南条郡南越前町",
      "city_kana": "ナンジョウグンミナミエチゼンチョウ",
      "town": "糠神土",
      "town_kana": "ヌカジンド",
      "street": null,
      "office_name": null,
      "office_name_kana": null
    },
    {
      "postcode": "9151114",
      "prefecture": "福井県",
      "prefecture_kana": "フクイケン",
      "prefecture_code": 18,
      "city": "南条郡南越前町",
      "city_kana": "ナンジョウグンミナミエチゼンチョウ",
      "town": "糠杉山",
      "town_kana": "ヌカスギヤマ",
      "street": null,
      "office_name": null,
      "office_name_kana": null
    },
    {
      "postcode": "9151114",
      "prefecture": "福井県",
      "prefecture_kana": "フクイケン",
      "prefecture_code": 18,
      "city": "南条郡南越前町",
      "city_kana": "ナンジョウグンミナミエチゼンチョウ",
      "town": "八田",
      "town_kana": "ハッタ",
      "street": null,
      "office_name": null,
      "office_name_kana": null
    }
  ],
  "1195": {
    "postcode": "9151195",
    "prefecture": "福井県",
    "prefecture_kana": "フクイケン",
    "prefecture_code": 18,
    "city": "南条郡南越前町",
    "city_kana": "ナンジョウグンミナミエチゼンチョウ",
    "town": "河野",
    "town_kana": "コウノ",
    "street": "第１５号１６番地１",
    "office_name": "南越前町　河野総合事務所",
    "office_name_kana": "ミナミエチゼンチヨウ コウノソウゴウジムシヨ"
  },
  "1201": {
    "postcode": "9151201",
    "prefecture": "福井県",
    "prefecture_kana": "フクイケン",
    "prefecture_code": 18,
    "city": "越前市",
    "city_kana": "エチゼンシ",
    "town": "安養寺町",
    "town_kana": "アンヨウジチョウ",
    "street": null,
    "office_name": null,
    "office_name_kana": null
  },
  "1202": {
    "postcode": "9151202",
    "prefecture": "福井県",
    "prefecture_kana": "フクイケン",
    "prefecture_code": 18,
    "city": "越前市",
    "city_kana": "エチゼンシ",
    "town": "黒川町",
    "town_kana": "クロカワチョウ",
    "street": null,
    "office_name": null,
    "office_name_kana": null
  },
  "1203": {
    "postcode": "9151203",
    "prefecture": "福井県",
    "prefecture_kana": "フクイケン",
    "prefecture_code": 18,
    "city": "越前市",
    "city_kana": "エチゼンシ",
    "town": "上杉本町",
    "town_kana": "カミスギモトチョウ",
    "street": null,
    "office_name": null,
    "office_name_kana": null
  },
  "1204": {
    "postcode": "9151204",
    "prefecture": "福井県",
    "prefecture_kana": "フクイケン",
    "prefecture_code": 18,
    "city": "越前市",
    "city_kana": "エチゼンシ",
    "town": "都辺町",
    "town_kana": "トベチョウ",
    "street": null,
    "office_name": null,
    "office_name_kana": null
  },
  "1205": {
    "postcode": "9151205",
    "prefecture": "福井県",
    "prefecture_kana": "フクイケン",
    "prefecture_code": 18,
    "city": "越前市",
    "city_kana": "エチゼンシ",
    "town": "萩原町",
    "town_kana": "ハギワラチョウ",
    "street": null,
    "office_name": null,
    "office_name_kana": null
  },
  "1211": {
    "postcode": "9151211",
    "prefecture": "福井県",
    "prefecture_kana": "フクイケン",
    "prefecture_code": 18,
    "city": "越前市",
    "city_kana": "エチゼンシ",
    "town": "堀町",
    "town_kana": "ホリチョウ",
    "street": null,
    "office_name": null,
    "office_name_kana": null
  },
  "1212": [
    {
      "postcode": "9151212",
      "prefecture": "福井県",
      "prefecture_kana": "フクイケン",
      "prefecture_code": 18,
      "city": "越前市",
      "city_kana": "エチゼンシ",
      "town": "米口町",
      "town_kana": "コメグチチョウ",
      "street": null,
      "office_name": null,
      "office_name_kana": null
    },
    {
      "postcode": "9151212",
      "prefecture": "福井県",
      "prefecture_kana": "フクイケン",
      "prefecture_code": 18,
      "city": "越前市",
      "city_kana": "エチゼンシ",
      "town": "仏谷町",
      "town_kana": "ホトケダニチョウ",
      "street": null,
      "office_name": null,
      "office_name_kana": null
    }
  ],
  "1213": {
    "postcode": "9151213",
    "prefecture": "福井県",
    "prefecture_kana": "フクイケン",
    "prefecture_code": 18,
    "city": "越前市",
    "city_kana": "エチゼンシ",
    "town": "丸岡町",
    "town_kana": "マルカチョウ",
    "street": null,
    "office_name": null,
    "office_name_kana": null
  },
  "1214": {
    "postcode": "9151214",
    "prefecture": "福井県",
    "prefecture_kana": "フクイケン",
    "prefecture_code": 18,
    "city": "越前市",
    "city_kana": "エチゼンシ",
    "town": "勝蓮花町",
    "town_kana": "ショウレンゲチョウ",
    "street": null,
    "office_name": null,
    "office_name_kana": null
  },
  "1215": {
    "postcode": "9151215",
    "prefecture": "福井県",
    "prefecture_kana": "フクイケン",
    "prefecture_code": 18,
    "city": "越前市",
    "city_kana": "エチゼンシ",
    "town": "小野町",
    "town_kana": "コノチョウ",
    "street": null,
    "office_name": null,
    "office_name_kana": null
  },
  "1221": {
    "postcode": "9151221",
    "prefecture": "福井県",
    "prefecture_kana": "フクイケン",
    "prefecture_code": 18,
    "city": "越前市",
    "city_kana": "エチゼンシ",
    "town": "勾当原町",
    "town_kana": "コウトウガハラチョウ",
    "street": null,
    "office_name": null,
    "office_name_kana": null
  },
  "1222": {
    "postcode": "9151222",
    "prefecture": "福井県",
    "prefecture_kana": "フクイケン",
    "prefecture_code": 18,
    "city": "越前市",
    "city_kana": "エチゼンシ",
    "town": "下中津原町",
    "town_kana": "シモナカツハラチョウ",
    "street": null,
    "office_name": null,
    "office_name_kana": null
  },
  "1223": {
    "postcode": "9151223",
    "prefecture": "福井県",
    "prefecture_kana": "フクイケン",
    "prefecture_code": 18,
    "city": "越前市",
    "city_kana": "エチゼンシ",
    "town": "中津原町",
    "town_kana": "ナカツハラチョウ",
    "street": null,
    "office_name": null,
    "office_name_kana": null
  },
  "1224": {
    "postcode": "9151224",
    "prefecture": "福井県",
    "prefecture_kana": "フクイケン",
    "prefecture_code": 18,
    "city": "越前市",
    "city_kana": "エチゼンシ",
    "town": "下別所町",
    "town_kana": "シモベッシヨチョウ",
    "street": null,
    "office_name": null,
    "office_name_kana": null
  },
  "1225": {
    "postcode": "9151225",
    "prefecture": "福井県",
    "prefecture_kana": "フクイケン",
    "prefecture_code": 18,
    "city": "越前市",
    "city_kana": "エチゼンシ",
    "town": "湯谷町",
    "town_kana": "ユヤチョウ",
    "street": null,
    "office_name": null,
    "office_name_kana": null
  },
  "1226": {
    "postcode": "9151226",
    "prefecture": "福井県",
    "prefecture_kana": "フクイケン",
    "prefecture_code": 18,
    "city": "越前市",
    "city_kana": "エチゼンシ",
    "town": "中山町",
    "town_kana": "ナカヤマチョウ",
    "street": null,
    "office_name": null,
    "office_name_kana": null
  },
  "1231": {
    "postcode": "9151231",
    "prefecture": "福井県",
    "prefecture_kana": "フクイケン",
    "prefecture_code": 18,
    "city": "越前市",
    "city_kana": "エチゼンシ",
    "town": "千合谷町",
    "town_kana": "センゴウダニチョウ",
    "street": null,
    "office_name": null,
    "office_name_kana": null
  },
  "1232": {
    "postcode": "9151232",
    "prefecture": "福井県",
    "prefecture_kana": "フクイケン",
    "prefecture_code": 18,
    "city": "越前市",
    "city_kana": "エチゼンシ",
    "town": "二階堂町",
    "town_kana": "ニカイドウチョウ",
    "street": null,
    "office_name": null,
    "office_name_kana": null
  },
  "1233": {
    "postcode": "9151233",
    "prefecture": "福井県",
    "prefecture_kana": "フクイケン",
    "prefecture_code": 18,
    "city": "越前市",
    "city_kana": "エチゼンシ",
    "town": "菖蒲谷町",
    "town_kana": "ショウブダニチョウ",
    "street": null,
    "office_name": null,
    "office_name_kana": null
  },
  "1234": [
    {
      "postcode": "9151234",
      "prefecture": "福井県",
      "prefecture_kana": "フクイケン",
      "prefecture_code": 18,
      "city": "越前市",
      "city_kana": "エチゼンシ",
      "town": "小谷町",
      "town_kana": "コダニチョウ",
      "street": null,
      "office_name": null,
      "office_name_kana": null
    },
    {
      "postcode": "9151234",
      "prefecture": "福井県",
      "prefecture_kana": "フクイケン",
      "prefecture_code": 18,
      "city": "越前市",
      "city_kana": "エチゼンシ",
      "town": "土山町",
      "town_kana": "ツチヤマチョウ",
      "street": null,
      "office_name": null,
      "office_name_kana": null
    }
  ],
  "1235": [
    {
      "postcode": "9151235",
      "prefecture": "福井県",
      "prefecture_kana": "フクイケン",
      "prefecture_code": 18,
      "city": "越前市",
      "city_kana": "エチゼンシ",
      "town": "菅町",
      "town_kana": "スゲチョウ",
      "street": null,
      "office_name": null,
      "office_name_kana": null
    },
    {
      "postcode": "9151235",
      "prefecture": "福井県",
      "prefecture_kana": "フクイケン",
      "prefecture_code": 18,
      "city": "越前市",
      "city_kana": "エチゼンシ",
      "town": "安戸町",
      "town_kana": "ヤスドチョウ",
      "street": null,
      "office_name": null,
      "office_name_kana": null
    }
  ],
  "1241": {
    "postcode": "9151241",
    "prefecture": "福井県",
    "prefecture_kana": "フクイケン",
    "prefecture_code": 18,
    "city": "越前市",
    "city_kana": "エチゼンシ",
    "town": "曽原町",
    "town_kana": "ソハラチョウ",
    "street": null,
    "office_name": null,
    "office_name_kana": null
  },
  "1242": {
    "postcode": "9151242",
    "prefecture": "福井県",
    "prefecture_kana": "フクイケン",
    "prefecture_code": 18,
    "city": "越前市",
    "city_kana": "エチゼンシ",
    "town": "粟野町",
    "town_kana": "アワノチョウ",
    "street": null,
    "office_name": null,
    "office_name_kana": null
  },
  "1243": {
    "postcode": "9151243",
    "prefecture": "福井県",
    "prefecture_kana": "フクイケン",
    "prefecture_code": 18,
    "city": "越前市",
    "city_kana": "エチゼンシ",
    "town": "小杉町",
    "town_kana": "コスギチョウ",
    "street": null,
    "office_name": null,
    "office_name_kana": null
  },
  "1244": {
    "postcode": "9151244",
    "prefecture": "福井県",
    "prefecture_kana": "フクイケン",
    "prefecture_code": 18,
    "city": "越前市",
    "city_kana": "エチゼンシ",
    "town": "牧町",
    "town_kana": "マキチョウ",
    "street": null,
    "office_name": null,
    "office_name_kana": null
  },
  "1245": {
    "postcode": "9151245",
    "prefecture": "福井県",
    "prefecture_kana": "フクイケン",
    "prefecture_code": 18,
    "city": "越前市",
    "city_kana": "エチゼンシ",
    "town": "若須町",
    "town_kana": "ワガスチョウ",
    "street": null,
    "office_name": null,
    "office_name_kana": null
  },
  "1246": {
    "postcode": "9151246",
    "prefecture": "福井県",
    "prefecture_kana": "フクイケン",
    "prefecture_code": 18,
    "city": "越前市",
    "city_kana": "エチゼンシ",
    "town": "中野町",
    "town_kana": "ナカノチョウ",
    "street": null,
    "office_name": null,
    "office_name_kana": null
  },
  "8501": {
    "postcode": "9158501",
    "prefecture": "福井県",
    "prefecture_kana": "フクイケン",
    "prefecture_code": 18,
    "city": "越前市",
    "city_kana": "エチゼンシ",
    "town": "矢船町",
    "town_kana": "ヤフネチョウ",
    "street": "１丁目７−１",
    "office_name": "株式会社　ふじや食品",
    "office_name_kana": "カブシキガイシヤ フジヤシヨクヒン"
  },
  "8510": {
    "postcode": "9158510",
    "prefecture": "福井県",
    "prefecture_kana": "フクイケン",
    "prefecture_code": 18,
    "city": "越前市",
    "city_kana": "エチゼンシ",
    "town": "上太田町",
    "town_kana": "カミオオダチョウ",
    "street": "４１−５",
    "office_name": "福井県　南越県税事務所",
    "office_name_kana": "フクイケン ナンエツケンゼイジムシヨ"
  },
  "8511": {
    "postcode": "9158511",
    "prefecture": "福井県",
    "prefecture_kana": "フクイケン",
    "prefecture_code": 18,
    "city": "越前市",
    "city_kana": "エチゼンシ",
    "town": "府中",
    "town_kana": "フチュウ",
    "street": "１丁目５−７",
    "office_name": "医療法人　林病院",
    "office_name_kana": "イリヨウホウジン ハヤシビヨウイン"
  },
  "8515": {
    "postcode": "9158515",
    "prefecture": "福井県",
    "prefecture_kana": "フクイケン",
    "prefecture_code": 18,
    "city": "越前市",
    "city_kana": "エチゼンシ",
    "town": "北府",
    "town_kana": "キタゴ",
    "street": "２−１−５",
    "office_name": "信越化学工業　株式会社　武生工場",
    "office_name_kana": "シンエツカガクコウギヨウ カブシキガイシヤ タケフコウジヨウ"
  },
  "8520": {
    "postcode": "9158520",
    "prefecture": "福井県",
    "prefecture_kana": "フクイケン",
    "prefecture_code": 18,
    "city": "越前市",
    "city_kana": "エチゼンシ",
    "town": "池ノ上町",
    "town_kana": "イケノカミチョウ",
    "street": "３８",
    "office_name": "株式会社　アイシン福井",
    "office_name_kana": "カブシキガイシヤ アイシンフクイ"
  },
  "8524": {
    "postcode": "9158524",
    "prefecture": "福井県",
    "prefecture_kana": "フクイケン",
    "prefecture_code": 18,
    "city": "越前市",
    "city_kana": "エチゼンシ",
    "town": "日野美",
    "town_kana": "ヒノミ",
    "street": "二丁目６番地",
    "office_name": "福井地方裁判所武生支部、福井家庭裁判所武生支部、武生簡易裁判所",
    "office_name_kana": "フクイチホウサイバンシヨタケフシブ、フクイカテイサイバンシヨタケフシブ、タケフカンイサイバンシヨ"
  },
  "8530": {
    "postcode": "9158530",
    "prefecture": "福井県",
    "prefecture_kana": "フクイケン",
    "prefecture_code": 18,
    "city": "越前市",
    "city_kana": "エチゼンシ",
    "town": "府中",
    "town_kana": "フチュウ",
    "street": "１丁目１３−７",
    "office_name": "越前市役所",
    "office_name_kana": "エチゼンシヤクシヨ"
  },
  "8533": {
    "postcode": "9158533",
    "prefecture": "福井県",
    "prefecture_kana": "フクイケン",
    "prefecture_code": 18,
    "city": "越前市",
    "city_kana": "エチゼンシ",
    "town": "中央",
    "town_kana": "チュウオウ",
    "street": "１丁目６−１２",
    "office_name": "武生税務署",
    "office_name_kana": "タケフゼイムシヨ"
  },
  "8555": {
    "postcode": "9158555",
    "prefecture": "福井県",
    "prefecture_kana": "フクイケン",
    "prefecture_code": 18,
    "city": "越前市",
    "city_kana": "エチゼンシ",
    "town": "家久町",
    "town_kana": "イエヒサチョウ",
    "street": "４１−１",
    "office_name": "オリオン電機　株式会社",
    "office_name_kana": "オリオンデンキ カブシキガイシヤ"
  },
  "8577": {
    "postcode": "9158577",
    "prefecture": "福井県",
    "prefecture_kana": "フクイケン",
    "prefecture_code": 18,
    "city": "越前市",
    "city_kana": "エチゼンシ",
    "town": "妙法寺町",
    "town_kana": "ミョウホウジチョウ",
    "street": "２９号２",
    "office_name": "キョーセー　株式会社",
    "office_name_kana": "キヨ-セ- カブシキガイシヤ"
  },
  "8585": {
    "postcode": "9158585",
    "prefecture": "福井県",
    "prefecture_kana": "フクイケン",
    "prefecture_code": 18,
    "city": "越前市",
    "city_kana": "エチゼンシ",
    "town": "大虫町",
    "town_kana": "オオムシチョウ",
    "street": "７−２",
    "office_name": "木原建設　株式会社",
    "office_name_kana": "キハラケンセツ カブシキガイシヤ"
  },
  "8586": {
    "postcode": "9158586",
    "prefecture": "福井県",
    "prefecture_kana": "フクイケン",
    "prefecture_code": 18,
    "city": "越前市",
    "city_kana": "エチゼンシ",
    "town": "大手町",
    "town_kana": "オオデチョウ",
    "street": "３−１−１",
    "office_name": "仁愛大学",
    "office_name_kana": "ジンアイダイガク"
  },
  "8588": {
    "postcode": "9158588",
    "prefecture": "福井県",
    "prefecture_kana": "フクイケン",
    "prefecture_code": 18,
    "city": "越前市",
    "city_kana": "エチゼンシ",
    "town": "塚町",
    "town_kana": "ツカチョウ",
    "street": "１０１番地",
    "office_name": "丹南ケーブルテレビ　株式会社",
    "office_name_kana": "タンナンケ-ブルテレビ カブシキガイシヤ"
  },
  "8666": {
    "postcode": "9158666",
    "prefecture": "福井県",
    "prefecture_kana": "フクイケン",
    "prefecture_code": 18,
    "city": "越前市",
    "city_kana": "エチゼンシ",
    "town": "真柄町",
    "town_kana": "マカラチョウ",
    "street": "７−３７",
    "office_name": "株式会社　武生製麺",
    "office_name_kana": "カブシキガイシヤ タケフセイメン"
  }
}