{
  "0000": {
    "postcode": "9220000",
    "prefecture": "石川県",
    "prefecture_kana": "イシカワケン",
    "prefecture_code": 17,
    "city": "加賀市",
    "city_kana": "カガシ",
    "town": "",
    "town_kana": "",
    "street": null,
    "office_name": null,
    "office_name_kana": null
  },
  "0001": {
    "postcode": "9220001",
    "prefecture": "石川県",
    "prefecture_kana": "イシカワケン",
    "prefecture_code": 17,
    "city": "加賀市",
    "city_kana": "カガシ",
    "town": "大聖寺上木町",
    "town_kana": "ダイショウジウワギマチ",
    "street": null,
    "office_name": null,
    "office_name_kana": null
  },
  "0002": {
    "postcode": "9220002",
    "prefecture": "石川県",
    "prefecture_kana": "イシカワケン",
    "prefecture_code": 17,
    "city": "加賀市",
    "city_kana": "カガシ",
    "town": "大聖寺下福田町",
    "town_kana": "ダイショウジシモフクダマチ",
    "street": null,
    "office_name": null,
    "office_name_kana": null
  },
  "0003": {
    "postcode": "9220003",
    "prefecture": "石川県",
    "prefecture_kana": "イシカワケン",
    "prefecture_code": 17,
    "city": "加賀市",
    "city_kana": "カガシ",
    "town": "大聖寺荻生町",
    "town_kana": "ダイショウジオギュウマチ",
    "street": null,
    "office_name": null,
    "office_name_kana": null
  },
  "0004": [
    {
      "postcode": "9220004",
      "prefecture": "石川県",
      "prefecture_kana": "イシカワケン",
      "prefecture_code": 17,
      "city": "加賀市",
      "city_kana": "カガシ",
      "town": "大聖寺朝日町",
      "town_kana": "ダイショウジアサヒマチ",
      "street": null,
      "office_name": null,
      "office_name_kana": null
    },
    {
      "postcode": "9220004",
      "prefecture": "石川県",
      "prefecture_kana": "イシカワケン",
      "prefecture_code": 17,
      "city": "加賀市",
      "city_kana": "カガシ",
      "town": "大聖寺上福田町",
      "town_kana": "ダイショウジカミフクダマチ",
      "street": null,
      "office_name": null,
      "office_name_kana": null
    },
    {
      "postcode": "9220004",
      "prefecture": "石川県",
      "prefecture_kana": "イシカワケン",
      "prefecture_code": 17,
      "city": "加賀市",
      "city_kana": "カガシ",
      "town": "大聖寺新川町",
      "town_kana": "ダイショウジシンカワマチ",
      "street": null,
      "office_name": null,
      "office_name_kana": null
    },
    {
      "postcode": "9220004",
      "prefecture": "石川県",
      "prefecture_kana": "イシカワケン",
      "prefecture_code": 17,
      "city": "加賀市",
      "city_kana": "カガシ",
      "town": "大聖寺畑町",
      "town_kana": "ダイショウジハタマチ",
      "street": null,
      "office_name": null,
      "office_name_kana": null
    },
    {
      "postcode": "9220004",
      "prefecture": "石川県",
      "prefecture_kana": "イシカワケン",
      "prefecture_code": 17,
      "city": "加賀市",
      "city_kana": "カガシ",
      "town": "大聖寺畑山町",
      "town_kana": "ダイショウジハタヤママチ",
      "street": null,
      "office_name": null,
      "office_name_kana": null
    },
    {
      "postcode": "9220004",
      "prefecture": "石川県",
      "prefecture_kana": "イシカワケン",
      "prefecture_code": 17,
      "city": "加賀市",
      "city_kana": "カガシ",
      "town": "大聖寺松島町",
      "town_kana": "ダイショウジマツシママチ",
      "street": null,
      "office_name": null,
      "office_name_kana": null
    },
    {
      "postcode": "9220004",
      "prefecture": "石川県",
      "prefecture_kana": "イシカワケン",
      "prefecture_code": 17,
      "city": "加賀市",
      "city_kana": "カガシ",
      "town": "豊町",
      "town_kana": "ユタカマチ",
      "street": null,
      "office_name": null,
      "office_name_kana": null
    },
    {
      "postcode": "9220004",
      "prefecture": "石川県",
      "prefecture_kana": "イシカワケン",
      "prefecture_code": 17,
      "city": "加賀市",
      "city_kana": "カガシ",
      "town": "豊町ハ",
      "town_kana": "ユタカマチハ",
      "street": null,
      "office_name": null,
      "office_name_kana": null
    }
  ],
  "0005": {
    "postcode": "9220005",
    "prefecture": "石川県",
    "prefecture_kana": "イシカワケン",
    "prefecture_code": 17,
    "city": "加賀市",
    "city_kana": "カガシ",
    "town": "大聖寺岡町",
    "town_kana": "ダイショウジオカマチ",
    "street": null,
    "office_name": null,
    "office_name_kana": null
  },
  "0006": {
    "postcode": "9220006",
    "prefecture": "石川県",
    "prefecture_kana": "イシカワケン",
    "prefecture_code": 17,
    "city": "加賀市",
    "city_kana": "カガシ",
    "town": "大聖寺藤ノ木町",
    "town_kana": "ダイショウジフジノキマチ",
    "street": null,
    "office_name": null,
    "office_name_kana": null
  },
  "0007": {
    "postcode": "9220007",
    "prefecture": "石川県",
    "prefecture_kana": "イシカワケン",
    "prefecture_code": 17,
    "city": "加賀市",
    "city_kana": "カガシ",
    "town": "大聖寺天神下町",
    "town_kana": "ダイショウジテンジンシタマチ",
    "street": null,
    "office_name": null,
    "office_name_kana": null
  },
  "0011": [
    {
      "postcode": "9220011",
      "prefecture": "石川県",
      "prefecture_kana": "イシカワケン",
      "prefecture_code": 17,
      "city": "加賀市",
      "city_kana": "カガシ",
      "town": "大聖寺春日町",
      "town_kana": "ダイショウジカスガチョウ",
      "street": null,
      "office_name": null,
      "office_name_kana": null
    },
    {
      "postcode": "9220011",
      "prefecture": "石川県",
      "prefecture_kana": "イシカワケン",
      "prefecture_code": 17,
      "city": "加賀市",
      "city_kana": "カガシ",
      "town": "大聖寺敷地",
      "town_kana": "ダイショウジシキジ",
      "street": null,
      "office_name": null,
      "office_name_kana": null
    },
    {
      "postcode": "9220011",
      "prefecture": "石川県",
      "prefecture_kana": "イシカワケン",
      "prefecture_code": 17,
      "city": "加賀市",
      "city_kana": "カガシ",
      "town": "大聖寺東敷地町",
      "town_kana": "ダイショウジヒガシシキジマチ",
      "street": null,
      "office_name": null,
      "office_name_kana": null
    },
    {
      "postcode": "9220011",
      "prefecture": "石川県",
      "prefecture_kana": "イシカワケン",
      "prefecture_code": 17,
      "city": "加賀市",
      "city_kana": "カガシ",
      "town": "大聖寺平床",
      "town_kana": "ダイショウジヒラトコ",
      "street": null,
      "office_name": null,
      "office_name_kana": null
    }
  ],
  "0012": {
    "postcode": "9220012",
    "prefecture": "石川県",
    "prefecture_kana": "イシカワケン",
    "prefecture_code": 17,
    "city": "加賀市",
    "city_kana": "カガシ",
    "town": "下河崎町",
    "town_kana": "シモカワサキマチ",
    "street": null,
    "office_name": null,
    "office_name_kana": null
  },
  "0013": {
    "postcode": "9220013",
    "prefecture": "石川県",
    "prefecture_kana": "イシカワケン",
    "prefecture_code": 17,
    "city": "加賀市",
    "city_kana": "カガシ",
    "town": "上河崎町",
    "town_kana": "カミカワサキマチ",
    "street": null,
    "office_name": null,
    "office_name_kana": null
  },
  "0014": {
    "postcode": "9220014",
    "prefecture": "石川県",
    "prefecture_kana": "イシカワケン",
    "prefecture_code": 17,
    "city": "加賀市",
    "city_kana": "カガシ",
    "town": "中代町",
    "town_kana": "ナカダイマチ",
    "street": null,
    "office_name": null,
    "office_name_kana": null
  },
  "0015": {
    "postcode": "9220015",
    "prefecture": "石川県",
    "prefecture_kana": "イシカワケン",
    "prefecture_code": 17,
    "city": "加賀市",
    "city_kana": "カガシ",
    "town": "保賀町",
    "town_kana": "ホウガマチ",
    "street": null,
    "office_name": null,
    "office_name_kana": null
  },
  "0021": {
    "postcode": "9220021",
    "prefecture": "石川県",
    "prefecture_kana": "イシカワケン",
    "prefecture_code": 17,
    "city": "加賀市",
    "city_kana": "カガシ",
    "town": "大聖寺新栄町",
    "town_kana": "ダイショウジシンサカエマチ",
    "street": null,
    "office_name": null,
    "office_name_kana": null
  },
  "0022": {
    "postcode": "9220022",
    "prefecture": "石川県",
    "prefecture_kana": "イシカワケン",
    "prefecture_code": 17,
    "city": "加賀市",
    "city_kana": "カガシ",
    "town": "大聖寺曙町",
    "town_kana": "ダイショウジアケボノチョウ",
    "street": null,
    "office_name": null,
    "office_name_kana": null
  },
  "0023": {
    "postcode": "9220023",
    "prefecture": "石川県",
    "prefecture_kana": "イシカワケン",
    "prefecture_code": 17,
    "city": "加賀市",
    "city_kana": "カガシ",
    "town": "大聖寺大名竹町",
    "town_kana": "ダイショウジダイミョウダケマチ",
    "street": null,
    "office_name": null,
    "office_name_kana": null
  },
  "0024": {
    "postcode": "9220024",
    "prefecture": "石川県",
    "prefecture_kana": "イシカワケン",
    "prefecture_code": 17,
    "city": "加賀市",
    "city_kana": "カガシ",
    "town": "大聖寺永町",
    "town_kana": "ダイショウジナガマチ",
    "street": null,
    "office_name": null,
    "office_name_kana": null
  },
  "0025": {
    "postcode": "9220025",
    "prefecture": "石川県",
    "prefecture_kana": "イシカワケン",
    "prefecture_code": 17,
    "city": "加賀市",
    "city_kana": "カガシ",
    "town": "大聖寺耳聞山仲町",
    "town_kana": "ダイショウジミミキヤマナカチョウ",
    "street": null,
    "office_name": null,
    "office_name_kana": null
  },
  "0026": {
    "postcode": "9220026",
    "prefecture": "石川県",
    "prefecture_kana": "イシカワケン",
    "prefecture_code": 17,
    "city": "加賀市",
    "city_kana": "カガシ",
    "town": "大聖寺亀町",
    "town_kana": "ダイショウジガメチョウ",
    "street": null,
    "office_name": null,
    "office_name_kana": null
  },
  "0027": {
    "postcode": "9220027",
    "prefecture": "石川県",
    "prefecture_kana": "イシカワケン",
    "prefecture_code": 17,
    "city": "加賀市",
    "city_kana": "カガシ",
    "town": "大聖寺耳聞山町",
    "town_kana": "ダイショウジミミキヤママチ",
    "street": null,
    "office_name": null,
    "office_name_kana": null
  },
  "0028": {
    "postcode": "9220028",
    "prefecture": "石川県",
    "prefecture_kana": "イシカワケン",
    "prefecture_code": 17,
    "city": "加賀市",
    "city_kana": "カガシ",
    "town": "大聖寺麻畠町",
    "town_kana": "ダイショウジアサバタケマチ",
    "street": null,
    "office_name": null,
    "office_name_kana": null
  },
  "0031": {
    "postcode": "9220031",
    "prefecture": "石川県",
    "prefecture_kana": "イシカワケン",
    "prefecture_code": 17,
    "city": "加賀市",
    "city_kana": "カガシ",
    "town": "大聖寺木呂場町",
    "town_kana": "ダイショウジコロバマチ",
    "street": null,
    "office_name": null,
    "office_name_kana": null
  },
  "0032": {
    "postcode": "9220032",
    "prefecture": "石川県",
    "prefecture_kana": "イシカワケン",
    "prefecture_code": 17,
    "city": "加賀市",
    "city_kana": "カガシ",
    "town": "大聖寺金子町",
    "town_kana": "ダイショウジカネコマチ",
    "street": null,
    "office_name": null,
    "office_name_kana": null
  },
  "0033": {
    "postcode": "9220033",
    "prefecture": "石川県",
    "prefecture_kana": "イシカワケン",
    "prefecture_code": 17,
    "city": "加賀市",
    "city_kana": "カガシ",
    "town": "大聖寺法華坊町",
    "town_kana": "ダイショウジホッケボウマチ",
    "street": null,
    "office_name": null,
    "office_name_kana": null
  },
  "0034": {
    "postcode": "9220034",
    "prefecture": "石川県",
    "prefecture_kana": "イシカワケン",
    "prefecture_code": 17,
    "city": "加賀市",
    "city_kana": "カガシ",
    "town": "大聖寺荒町",
    "town_kana": "ダイショウジアラマチ",
    "street": null,
    "office_name": null,
    "office_name_kana": null
  },
  "0035": {
    "postcode": "9220035",
    "prefecture": "石川県",
    "prefecture_kana": "イシカワケン",
    "prefecture_code": 17,
    "city": "加賀市",
    "city_kana": "カガシ",
    "town": "大聖寺鉄砲町",
    "town_kana": "ダイショウジテッポウマチ",
    "street": null,
    "office_name": null,
    "office_name_kana": null
  },
  "0036": {
    "postcode": "9220036",
    "prefecture": "石川県",
    "prefecture_kana": "イシカワケン",
    "prefecture_code": 17,
    "city": "加賀市",
    "city_kana": "カガシ",
    "town": "大聖寺一本橋町",
    "town_kana": "ダイショウジイッポンバシマチ",
    "street": null,
    "office_name": null,
    "office_name_kana": null
  },
  "0037": {
    "postcode": "9220037",
    "prefecture": "石川県",
    "prefecture_kana": "イシカワケン",
    "prefecture_code": 17,
    "city": "加賀市",
    "city_kana": "カガシ",
    "town": "大聖寺鍛冶町",
    "town_kana": "ダイショウジカジマチ",
    "street": null,
    "office_name": null,
    "office_name_kana": null
  },
  "0038": {
    "postcode": "9220038",
    "prefecture": "石川県",
    "prefecture_kana": "イシカワケン",
    "prefecture_code": 17,
    "city": "加賀市",
    "city_kana": "カガシ",
    "town": "大聖寺山田町",
    "town_kana": "ダイショウジヤマダマチ",
    "street": null,
    "office_name": null,
    "office_name_kana": null
  },
  "0041": {
    "postcode": "9220041",
    "prefecture": "石川県",
    "prefecture_kana": "イシカワケン",
    "prefecture_code": 17,
    "city": "加賀市",
    "city_kana": "カガシ",
    "town": "大聖寺本町",
    "town_kana": "ダイショウジホンマチ",
    "street": null,
    "office_name": null,
    "office_name_kana": null
  },
  "0042": {
    "postcode": "9220042",
    "prefecture": "石川県",
    "prefecture_kana": "イシカワケン",
    "prefecture_code": 17,
    "city": "加賀市",
    "city_kana": "カガシ",
    "town": "大聖寺魚町",
    "town_kana": "ダイショウジウオマチ",
    "street": null,
    "office_name": null,
    "office_name_kana": null
  },
  "0043": {
    "postcode": "9220043",
    "prefecture": "石川県",
    "prefecture_kana": "イシカワケン",
    "prefecture_code": 17,
    "city": "加賀市",
    "city_kana": "カガシ",
    "town": "大聖寺五軒町",
    "town_kana": "ダイショウジゴケンチョウ",
    "street": null,
    "office_name": null,
    "office_name_kana": null
  },
  "0044": {
    "postcode": "9220044",
    "prefecture": "石川県",
    "prefecture_kana": "イシカワケン",
    "prefecture_code": 17,
    "city": "加賀市",
    "city_kana": "カガシ",
    "town": "大聖寺東横町",
    "town_kana": "ダイショウジヒガシヨコマチ",
    "street": null,
    "office_name": null,
    "office_name_kana": null
  },
  "0045": {
    "postcode": "9220045",
    "prefecture": "石川県",
    "prefecture_kana": "イシカワケン",
    "prefecture_code": 17,
    "city": "加賀市",
    "city_kana": "カガシ",
    "town": "大聖寺十一町",
    "town_kana": "ダイショウジジュウイチマチ",
    "street": null,
    "office_name": null,
    "office_name_kana": null
  },
  "0046": {
    "postcode": "9220046",
    "prefecture": "石川県",
    "prefecture_kana": "イシカワケン",
    "prefecture_code": 17,
    "city": "加賀市",
    "city_kana": "カガシ",
    "town": "大聖寺観音町",
    "town_kana": "ダイショウジカンノンマチ",
    "street": null,
    "office_name": null,
    "office_name_kana": null
  },
  "0047": {
    "postcode": "9220047",
    "prefecture": "石川県",
    "prefecture_kana": "イシカワケン",
    "prefecture_code": 17,
    "city": "加賀市",
    "city_kana": "カガシ",
    "town": "大聖寺中町",
    "town_kana": "ダイショウジナカマチ",
    "street": null,
    "office_name": null,
    "office_name_kana": null
  },
  "0048": {
    "postcode": "9220048",
    "prefecture": "石川県",
    "prefecture_kana": "イシカワケン",
    "prefecture_code": 17,
    "city": "加賀市",
    "city_kana": "カガシ",
    "town": "大聖寺馬場町",
    "town_kana": "ダイショウジババマチ",
    "street": null,
    "office_name": null,
    "office_name_kana": null
  },
  "0051": {
    "postcode": "9220051",
    "prefecture": "石川県",
    "prefecture_kana": "イシカワケン",
    "prefecture_code": 17,
    "city": "加賀市",
    "city_kana": "カガシ",
    "town": "大聖寺仲町",
    "town_kana": "ダイショウジナカチョウ",
    "street": null,
    "office_name": null,
    "office_name_kana": null
  },
  "0052": {
    "postcode": "9220052",
    "prefecture": "石川県",
    "prefecture_kana": "イシカワケン",
    "prefecture_code": 17,
    "city": "加賀市",
    "city_kana": "カガシ",
    "town": "大聖寺福田町",
    "town_kana": "ダイショウジフクダマチ",
    "street": null,
    "office_name": null,
    "office_name_kana": null
  },
  "0053": {
    "postcode": "9220053",
    "prefecture": "石川県",
    "prefecture_kana": "イシカワケン",
    "prefecture_code": 17,
    "city": "加賀市",
    "city_kana": "カガシ",
    "town": "大聖寺鷹匠町",
    "town_kana": "ダイショウジタカジョウマチ",
    "street": null,
    "office_name": null,
    "office_name_kana": null
  },
  "0054": {
    "postcode": "9220054",
    "prefecture": "石川県",
    "prefecture_kana": "イシカワケン",
    "prefecture_code": 17,
    "city": "加賀市",
    "city_kana": "カガシ",
    "town": "大聖寺寺町",
    "town_kana": "ダイショウジテラマチ",
    "street": null,
    "office_name": null,
    "office_name_kana": null
  },
  "0055": {
    "postcode": "9220055",
    "prefecture": "石川県",
    "prefecture_kana": "イシカワケン",
    "prefecture_code": 17,
    "city": "加賀市",
    "city_kana": "カガシ",
    "town": "大聖寺京町",
    "town_kana": "ダイショウジキョウマチ",
    "street": null,
    "office_name": null,
    "office_name_kana": null
  },
  "0056": {
    "postcode": "9220056",
    "prefecture": "石川県",
    "prefecture_kana": "イシカワケン",
    "prefecture_code": 17,
    "city": "加賀市",
    "city_kana": "カガシ",
    "town": "大聖寺片原町",
    "town_kana": "ダイショウジカタハラマチ",
    "street": null,
    "office_name": null,
    "office_name_kana": null
  },
  "0057": {
    "postcode": "9220057",
    "prefecture": "石川県",
    "prefecture_kana": "イシカワケン",
    "prefecture_code": 17,
    "city": "加賀市",
    "city_kana": "カガシ",
    "town": "大聖寺八間道",
    "town_kana": "ダイショウジハチケンミチ",
    "street": null,
    "office_name": null,
    "office_name_kana": null
  },
  "0061": {
    "postcode": "9220061",
    "prefecture": "石川県",
    "prefecture_kana": "イシカワケン",
    "prefecture_code": 17,
    "city": "加賀市",
    "city_kana": "カガシ",
    "town": "大聖寺相生町",
    "town_kana": "ダイショウジアイオイチョウ",
    "street": null,
    "office_name": null,
    "office_name_kana": null
  },
  "0062": {
    "postcode": "9220062",
    "prefecture": "石川県",
    "prefecture_kana": "イシカワケン",
    "prefecture_code": 17,
    "city": "加賀市",
    "city_kana": "カガシ",
    "town": "大聖寺松ケ根町",
    "town_kana": "ダイショウジマツガネチョウ",
    "street": null,
    "office_name": null,
    "office_name_kana": null
  },
  "0063": {
    "postcode": "9220063",
    "prefecture": "石川県",
    "prefecture_kana": "イシカワケン",
    "prefecture_code": 17,
    "city": "加賀市",
    "city_kana": "カガシ",
    "town": "大聖寺新町",
    "town_kana": "ダイショウジシンチョウ",
    "street": null,
    "office_name": null,
    "office_name_kana": null
  },
  "0064": {
    "postcode": "9220064",
    "prefecture": "石川県",
    "prefecture_kana": "イシカワケン",
    "prefecture_code": 17,
    "city": "加賀市",
    "city_kana": "カガシ",
    "town": "大聖寺北片原町",
    "town_kana": "ダイショウジキタカタハラマチ",
    "street": null,
    "office_name": null,
    "office_name_kana": null
  },
  "0065": {
    "postcode": "9220065",
    "prefecture": "石川県",
    "prefecture_kana": "イシカワケン",
    "prefecture_code": 17,
    "city": "加賀市",
    "city_kana": "カガシ",
    "town": "大聖寺新旗陽町",
    "town_kana": "ダイショウジシンキヨウマチ",
    "street": null,
    "office_name": null,
    "office_name_kana": null
  },
  "0066": {
    "postcode": "9220066",
    "prefecture": "石川県",
    "prefecture_kana": "イシカワケン",
    "prefecture_code": 17,
    "city": "加賀市",
    "city_kana": "カガシ",
    "town": "大聖寺殿町",
    "town_kana": "ダイショウジトノマチ",
    "street": null,
    "office_name": null,
    "office_name_kana": null
  },
  "0067": {
    "postcode": "9220067",
    "prefecture": "石川県",
    "prefecture_kana": "イシカワケン",
    "prefecture_code": 17,
    "city": "加賀市",
    "city_kana": "カガシ",
    "town": "大聖寺番場町",
    "town_kana": "ダイショウジバンバチョウ",
    "street": null,
    "office_name": null,
    "office_name_kana": null
  },
  "0068": {
    "postcode": "9220068",
    "prefecture": "石川県",
    "prefecture_kana": "イシカワケン",
    "prefecture_code": 17,
    "city": "加賀市",
    "city_kana": "カガシ",
    "town": "大聖寺新組町",
    "town_kana": "ダイショウジシンクミチョウ",
    "street": null,
    "office_name": null,
    "office_name_kana": null
  },
  "0101": [
    {
      "postcode": "9220101",
      "prefecture": "石川県",
      "prefecture_kana": "イシカワケン",
      "prefecture_code": 17,
      "city": "加賀市",
      "city_kana": "カガシ",
      "town": "山中温泉中田町",
      "town_kana": "ヤマナカオンセンナカダマチ",
      "street": null,
      "office_name": null,
      "office_name_kana": null
    },
    {
      "postcode": "9220101",
      "prefecture": "石川県",
      "prefecture_kana": "イシカワケン",
      "prefecture_code": 17,
      "city": "加賀市",
      "city_kana": "カガシ",
      "town": "山中温泉二天町",
      "town_kana": "ヤマナカオンセンニテンマチ",
      "street": null,
      "office_name": null,
      "office_name_kana": null
    }
  ],
  "0102": [
    {
      "postcode": "9220102",
      "prefecture": "石川県",
      "prefecture_kana": "イシカワケン",
      "prefecture_code": 17,
      "city": "加賀市",
      "city_kana": "カガシ",
      "town": "山中温泉長谷田町",
      "town_kana": "ヤマナカオンセンハセダマチ",
      "street": null,
      "office_name": null,
      "office_name_kana": null
    },
    {
      "postcode": "9220102",
      "prefecture": "石川県",
      "prefecture_kana": "イシカワケン",
      "prefecture_code": 17,
      "city": "加賀市",
      "city_kana": "カガシ",
      "town": "山中温泉長谷田町日の出団地",
      "town_kana": "ヤマナカオンセンハセダマチヒノデダンチ",
      "street": null,
      "office_name": null,
      "office_name_kana": null
    }
  ],
  "0103": {
    "postcode": "9220103",
    "prefecture": "石川県",
    "prefecture_kana": "イシカワケン",
    "prefecture_code": 17,
    "city": "加賀市",
    "city_kana": "カガシ",
    "town": "山中温泉長谷田町",
    "town_kana": "ヤマナカオンセンハセダマチ",
    "street": null,
    "office_name": null,
    "office_name_kana": null
  },
  "0104": {
    "postcode": "9220104",
    "prefecture": "石川県",
    "prefecture_kana": "イシカワケン",
    "prefecture_code": 17,
    "city": "加賀市",
    "city_kana": "カガシ",
    "town": "山中温泉旭町",
    "town_kana": "ヤマナカオンセンアサヒマチ",
    "street": null,
    "office_name": null,
    "office_name_kana": null
  },
  "0105": {
    "postcode": "9220105",
    "prefecture": "石川県",
    "prefecture_kana": "イシカワケン",
    "prefecture_code": 17,
    "city": "加賀市",
    "city_kana": "カガシ",
    "town": "山中温泉泉町",
    "town_kana": "ヤマナカオンセンイズミマチ",
    "street": null,
    "office_name": null,
    "office_name_kana": null
  },
  "0106": {
    "postcode": "9220106",
    "prefecture": "石川県",
    "prefecture_kana": "イシカワケン",
    "prefecture_code": 17,
    "city": "加賀市",
    "city_kana": "カガシ",
    "town": "山中温泉上原町",
    "town_kana": "ヤマナカオンセンウワバラマチ",
    "street": null,
    "office_name": null,
    "office_name_kana": null
  },
  "0107": [
    {
      "postcode": "9220107",
      "prefecture": "石川県",
      "prefecture_kana": "イシカワケン",
      "prefecture_code": 17,
      "city": "加賀市",
      "city_kana": "カガシ",
      "town": "山中温泉上原町",
      "town_kana": "ヤマナカオンセンウワバラマチ",
      "street": null,
      "office_name": null,
      "office_name_kana": null
    },
    {
      "postcode": "9220107",
      "prefecture": "石川県",
      "prefecture_kana": "イシカワケン",
      "prefecture_code": 17,
      "city": "加賀市",
      "city_kana": "カガシ",
      "town": "山中温泉上原町漆器団地",
      "town_kana": "ヤマナカオンセンウワバラマチシツキダンチ",
      "street": null,
      "office_name": null,
      "office_name_kana": null
    }
  ],
  "0108": [
    {
      "postcode": "9220108",
      "prefecture": "石川県",
      "prefecture_kana": "イシカワケン",
      "prefecture_code": 17,
      "city": "加賀市",
      "city_kana": "カガシ",
      "town": "山中温泉上原町",
      "town_kana": "ヤマナカオンセンウワバラマチ",
      "street": null,
      "office_name": null,
      "office_name_kana": null
    },
    {
      "postcode": "9220108",
      "prefecture": "石川県",
      "prefecture_kana": "イシカワケン",
      "prefecture_code": 17,
      "city": "加賀市",
      "city_kana": "カガシ",
      "town": "山中温泉上原町しらさぎ団地",
      "town_kana": "ヤマナカオンセンウワバラマチシラサギダンチ",
      "street": null,
      "office_name": null,
      "office_name_kana": null
    }
  ],
  "0109": {
    "postcode": "9220109",
    "prefecture": "石川県",
    "prefecture_kana": "イシカワケン",
    "prefecture_code": 17,
    "city": "加賀市",
    "city_kana": "カガシ",
    "town": "山中温泉宮の杜",
    "town_kana": "ヤマナカオンセンミヤノモリ",
    "street": null,
    "office_name": null,
    "office_name_kana": null
  },
  "0111": {
    "postcode": "9220111",
    "prefecture": "石川県",
    "prefecture_kana": "イシカワケン",
    "prefecture_code": 17,
    "city": "加賀市",
    "city_kana": "カガシ",
    "town": "山中温泉塚谷町",
    "town_kana": "ヤマナカオンセンツカタニマチ",
    "street": null,
    "office_name": null,
    "office_name_kana": null
  },
  "0112": {
    "postcode": "9220112",
    "prefecture": "石川県",
    "prefecture_kana": "イシカワケン",
    "prefecture_code": 17,
    "city": "加賀市",
    "city_kana": "カガシ",
    "town": "山中温泉西桂木町",
    "town_kana": "ヤマナカオンセンニシカツラギマチ",
    "street": null,
    "office_name": null,
    "office_name_kana": null
  },
  "0113": {
    "postcode": "9220113",
    "prefecture": "石川県",
    "prefecture_kana": "イシカワケン",
    "prefecture_code": 17,
    "city": "加賀市",
    "city_kana": "カガシ",
    "town": "山中温泉東桂木町",
    "town_kana": "ヤマナカオンセンヒガシカツラギマチ",
    "street": null,
    "office_name": null,
    "office_name_kana": null
  },
  "0114": {
    "postcode": "9220114",
    "prefecture": "石川県",
    "prefecture_kana": "イシカワケン",
    "prefecture_code": 17,
    "city": "加賀市",
    "city_kana": "カガシ",
    "town": "山中温泉東町",
    "town_kana": "ヤマナカオンセンヒガシマチ",
    "street": null,
    "office_name": null,
    "office_name_kana": null
  },
  "0115": {
    "postcode": "9220115",
    "prefecture": "石川県",
    "prefecture_kana": "イシカワケン",
    "prefecture_code": 17,
    "city": "加賀市",
    "city_kana": "カガシ",
    "town": "山中温泉本町",
    "town_kana": "ヤマナカオンセンホンマチ",
    "street": null,
    "office_name": null,
    "office_name_kana": null
  },
  "0116": {
    "postcode": "9220116",
    "prefecture": "石川県",
    "prefecture_kana": "イシカワケン",
    "prefecture_code": 17,
    "city": "加賀市",
    "city_kana": "カガシ",
    "town": "山中温泉白山町",
    "town_kana": "ヤマナカオンセンハクサンマチ",
    "street": null,
    "office_name": null,
    "office_name_kana": null
  },
  "0117": [
    {
      "postcode": "9220117",
      "prefecture": "石川県",
      "prefecture_kana": "イシカワケン",
      "prefecture_code": 17,
      "city": "加賀市",
      "city_kana": "カガシ",
      "town": "山中温泉上野町",
      "town_kana": "ヤマナカオンセンウエノマチ",
      "street": null,
      "office_name": null,
      "office_name_kana": null
    },
    {
      "postcode": "9220117",
      "prefecture": "石川県",
      "prefecture_kana": "イシカワケン",
      "prefecture_code": 17,
      "city": "加賀市",
      "city_kana": "カガシ",
      "town": "山中温泉上野町緑ケ丘",
      "town_kana": "ヤマナカオンセンウエノマチミドリガオカ",
      "street": null,
      "office_name": null,
      "office_name_kana": null
    },
    {
      "postcode": "9220117",
      "prefecture": "石川県",
      "prefecture_kana": "イシカワケン",
      "prefecture_code": 17,
      "city": "加賀市",
      "city_kana": "カガシ",
      "town": "山中温泉上野町",
      "town_kana": "ヤマナカオンセンウエノマチ",
      "street": null,
      "office_name": null,
      "office_name_kana": null
    }
  ],
  "0118": {
    "postcode": "9220118",
    "prefecture": "石川県",
    "prefecture_kana": "イシカワケン",
    "prefecture_code": 17,
    "city": "加賀市",
    "city_kana": "カガシ",
    "town": "山中温泉加美谷台",
    "town_kana": "ヤマナカオンセンカミヤダイ",
    "street": null,
    "office_name": null,
    "office_name_kana": null
  },
  "0121": {
    "postcode": "9220121",
    "prefecture": "石川県",
    "prefecture_kana": "イシカワケン",
    "prefecture_code": 17,
    "city": "加賀市",
    "city_kana": "カガシ",
    "town": "山中温泉富士見町",
    "town_kana": "ヤマナカオンセンフジミマチ",
    "street": null,
    "office_name": null,
    "office_name_kana": null
  },
  "0122": {
    "postcode": "9220122",
    "prefecture": "石川県",
    "prefecture_kana": "イシカワケン",
    "prefecture_code": 17,
    "city": "加賀市",
    "city_kana": "カガシ",
    "town": "山中温泉湯の本町",
    "town_kana": "ヤマナカオンセンユノホンマチ",
    "street": null,
    "office_name": null,
    "office_name_kana": null
  },
  "0123": {
    "postcode": "9220123",
    "prefecture": "石川県",
    "prefecture_kana": "イシカワケン",
    "prefecture_code": 17,
    "city": "加賀市",
    "city_kana": "カガシ",
    "town": "山中温泉薬師町",
    "town_kana": "ヤマナカオンセンヤクシマチ",
    "street": null,
    "office_name": null,
    "office_name_kana": null
  },
  "0124": {
    "postcode": "9220124",
    "prefecture": "石川県",
    "prefecture_kana": "イシカワケン",
    "prefecture_code": 17,
    "city": "加賀市",
    "city_kana": "カガシ",
    "town": "山中温泉湯の出町",
    "town_kana": "ヤマナカオンセンユノデマチ",
    "street": null,
    "office_name": null,
    "office_name_kana": null
  },
  "0125": {
    "postcode": "9220125",
    "prefecture": "石川県",
    "prefecture_kana": "イシカワケン",
    "prefecture_code": 17,
    "city": "加賀市",
    "city_kana": "カガシ",
    "town": "山中温泉栄町",
    "town_kana": "ヤマナカオンセンサカエマチ",
    "street": null,
    "office_name": null,
    "office_name_kana": null
  },
  "0126": {
    "postcode": "9220126",
    "prefecture": "石川県",
    "prefecture_kana": "イシカワケン",
    "prefecture_code": 17,
    "city": "加賀市",
    "city_kana": "カガシ",
    "town": "山中温泉河鹿町",
    "town_kana": "ヤマナカオンセンカジカマチ",
    "street": null,
    "office_name": null,
    "office_name_kana": null
  },
  "0127": {
    "postcode": "9220127",
    "prefecture": "石川県",
    "prefecture_kana": "イシカワケン",
    "prefecture_code": 17,
    "city": "加賀市",
    "city_kana": "カガシ",
    "town": "山中温泉下谷町",
    "town_kana": "ヤマナカオンセンシモタニマチ",
    "street": null,
    "office_name": null,
    "office_name_kana": null
  },
  "0128": {
    "postcode": "9220128",
    "prefecture": "石川県",
    "prefecture_kana": "イシカワケン",
    "prefecture_code": 17,
    "city": "加賀市",
    "city_kana": "カガシ",
    "town": "山中温泉こおろぎ町",
    "town_kana": "ヤマナカオンセンコオロギマチ",
    "street": null,
    "office_name": null,
    "office_name_kana": null
  },
  "0129": {
    "postcode": "9220129",
    "prefecture": "石川県",
    "prefecture_kana": "イシカワケン",
    "prefecture_code": 17,
    "city": "加賀市",
    "city_kana": "カガシ",
    "town": "山中温泉南町",
    "town_kana": "ヤマナカオンセンミナミマチ",
    "street": null,
    "office_name": null,
    "office_name_kana": null
  },
  "0131": {
    "postcode": "9220131",
    "prefecture": "石川県",
    "prefecture_kana": "イシカワケン",
    "prefecture_code": 17,
    "city": "加賀市",
    "city_kana": "カガシ",
    "town": "山中温泉四十九院町",
    "town_kana": "ヤマナカオンセンシジュウクインマチ",
    "street": null,
    "office_name": null,
    "office_name_kana": null
  },
  "0132": {
    "postcode": "9220132",
    "prefecture": "石川県",
    "prefecture_kana": "イシカワケン",
    "prefecture_code": 17,
    "city": "加賀市",
    "city_kana": "カガシ",
    "town": "山中温泉中津原町",
    "town_kana": "ヤマナカオンセンナカツハラマチ",
    "street": null,
    "office_name": null,
    "office_name_kana": null
  },
  "0133": {
    "postcode": "9220133",
    "prefecture": "石川県",
    "prefecture_kana": "イシカワケン",
    "prefecture_code": 17,
    "city": "加賀市",
    "city_kana": "カガシ",
    "town": "山中温泉滝町",
    "town_kana": "ヤマナカオンセンタキマチ",
    "street": null,
    "office_name": null,
    "office_name_kana": null
  },
  "0134": [
    {
      "postcode": "9220134",
      "prefecture": "石川県",
      "prefecture_kana": "イシカワケン",
      "prefecture_code": 17,
      "city": "加賀市",
      "city_kana": "カガシ",
      "town": "山中温泉荒谷町",
      "town_kana": "ヤマナカオンセンアラタニマチ",
      "street": null,
      "office_name": null,
      "office_name_kana": null
    },
    {
      "postcode": "9220134",
      "prefecture": "石川県",
      "prefecture_kana": "イシカワケン",
      "prefecture_code": 17,
      "city": "加賀市",
      "city_kana": "カガシ",
      "town": "山中温泉菅生谷町",
      "town_kana": "ヤマナカオンセンスゴウダニマチ",
      "street": null,
      "office_name": null,
      "office_name_kana": null
    }
  ],
  "0135": [
    {
      "postcode": "9220135",
      "prefecture": "石川県",
      "prefecture_kana": "イシカワケン",
      "prefecture_code": 17,
      "city": "加賀市",
      "city_kana": "カガシ",
      "town": "山中温泉今立町",
      "town_kana": "ヤマナカオンセンイマダチマチ",
      "street": null,
      "office_name": null,
      "office_name_kana": null
    },
    {
      "postcode": "9220135",
      "prefecture": "石川県",
      "prefecture_kana": "イシカワケン",
      "prefecture_code": 17,
      "city": "加賀市",
      "city_kana": "カガシ",
      "town": "山中温泉大土町",
      "town_kana": "ヤマナカオンセンオオヅチマチ",
      "street": null,
      "office_name": null,
      "office_name_kana": null
    }
  ],
  "0136": [
    {
      "postcode": "9220136",
      "prefecture": "石川県",
      "prefecture_kana": "イシカワケン",
      "prefecture_code": 17,
      "city": "加賀市",
      "city_kana": "カガシ",
      "town": "山中温泉枯淵町",
      "town_kana": "ヤマナカオンセンカレブチマチ",
      "street": null,
      "office_name": null,
      "office_name_kana": null
    },
    {
      "postcode": "9220136",
      "prefecture": "石川県",
      "prefecture_kana": "イシカワケン",
      "prefecture_code": 17,
      "city": "加賀市",
      "city_kana": "カガシ",
      "town": "山中温泉九谷町",
      "town_kana": "ヤマナカオンセンクタニマチ",
      "street": null,
      "office_name": null,
      "office_name_kana": null
    },
    {
      "postcode": "9220136",
      "prefecture": "石川県",
      "prefecture_kana": "イシカワケン",
      "prefecture_code": 17,
      "city": "加賀市",
      "city_kana": "カガシ",
      "town": "山中温泉坂下町",
      "town_kana": "ヤマナカオンセンサカノシモマチ",
      "street": null,
      "office_name": null,
      "office_name_kana": null
    },
    {
      "postcode": "9220136",
      "prefecture": "石川県",
      "prefecture_kana": "イシカワケン",
      "prefecture_code": 17,
      "city": "加賀市",
      "city_kana": "カガシ",
      "town": "山中温泉杉水町",
      "town_kana": "ヤマナカオンセンスギノミズマチ",
      "street": null,
      "office_name": null,
      "office_name_kana": null
    },
    {
      "postcode": "9220136",
      "prefecture": "石川県",
      "prefecture_kana": "イシカワケン",
      "prefecture_code": 17,
      "city": "加賀市",
      "city_kana": "カガシ",
      "town": "山中温泉片谷町",
      "town_kana": "ヤマナカオンセンヘキタニマチ",
      "street": null,
      "office_name": null,
      "office_name_kana": null
    },
    {
      "postcode": "9220136",
      "prefecture": "石川県",
      "prefecture_kana": "イシカワケン",
      "prefecture_code": 17,
      "city": "加賀市",
      "city_kana": "カガシ",
      "town": "山中温泉真砂町",
      "town_kana": "ヤマナカオンセンマナゴマチ",
      "street": null,
      "office_name": null,
      "office_name_kana": null
    }
  ],
  "0137": [
    {
      "postcode": "9220137",
      "prefecture": "石川県",
      "prefecture_kana": "イシカワケン",
      "prefecture_code": 17,
      "city": "加賀市",
      "city_kana": "カガシ",
      "town": "山中温泉風谷町",
      "town_kana": "ヤマナカオンセンカゼタニマチ",
      "street": null,
      "office_name": null,
      "office_name_kana": null
    },
    {
      "postcode": "9220137",
      "prefecture": "石川県",
      "prefecture_kana": "イシカワケン",
      "prefecture_code": 17,
      "city": "加賀市",
      "city_kana": "カガシ",
      "town": "山中温泉我谷町",
      "town_kana": "ヤマナカオンセンワガタニマチ",
      "street": null,
      "office_name": null,
      "office_name_kana": null
    }
  ],
  "0138": {
    "postcode": "9220138",
    "prefecture": "石川県",
    "prefecture_kana": "イシカワケン",
    "prefecture_code": 17,
    "city": "加賀市",
    "city_kana": "カガシ",
    "town": "山中温泉栢野町",
    "town_kana": "ヤマナカオンセンカヤノマチ",
    "street": null,
    "office_name": null,
    "office_name_kana": null
  },
  "0139": {
    "postcode": "9220139",
    "prefecture": "石川県",
    "prefecture_kana": "イシカワケン",
    "prefecture_code": 17,
    "city": "加賀市",
    "city_kana": "カガシ",
    "town": "山中温泉菅谷町",
    "town_kana": "ヤマナカオンセンスガタニマチ",
    "street": null,
    "office_name": null,
    "office_name_kana": null
  },
  "0192": {
    "postcode": "9220192",
    "prefecture": "石川県",
    "prefecture_kana": "イシカワケン",
    "prefecture_code": 17,
    "city": "加賀市",
    "city_kana": "カガシ",
    "town": "山中温泉本町",
    "town_kana": "ヤマナカオンセンホンマチ",
    "street": "二丁目ソ２２番地",
    "office_name": "加賀市　山中温泉支所",
    "office_name_kana": "カガシ ヤマナカオンセンシシヨ"
  },
  "0193": {
    "postcode": "9220193",
    "prefecture": "石川県",
    "prefecture_kana": "イシカワケン",
    "prefecture_code": 17,
    "city": "加賀市",
    "city_kana": "カガシ",
    "town": "山中温泉上野町",
    "town_kana": "ヤマナカオンセンウエノマチ",
    "street": "ル１５−１",
    "office_name": "山中温泉ぬくもり診療所",
    "office_name_kana": "ヤマナカオンセンヌクモリシンリヨウシヨ"
  },
  "0221": {
    "postcode": "9220221",
    "prefecture": "石川県",
    "prefecture_kana": "イシカワケン",
    "prefecture_code": 17,
    "city": "加賀市",
    "city_kana": "カガシ",
    "town": "丸山町",
    "town_kana": "マルヤママチ",
    "street": null,
    "office_name": null,
    "office_name_kana": null
  },
  "0222": [
    {
      "postcode": "9220222",
      "prefecture": "石川県",
      "prefecture_kana": "イシカワケン",
      "prefecture_code": 17,
      "city": "加賀市",
      "city_kana": "カガシ",
      "town": "上野町",
      "town_kana": "ウワノマチ",
      "street": null,
      "office_name": null,
      "office_name_kana": null
    },
    {
      "postcode": "9220222",
      "prefecture": "石川県",
      "prefecture_kana": "イシカワケン",
      "prefecture_code": 17,
      "city": "加賀市",
      "city_kana": "カガシ",
      "town": "上野町丸山",
      "town_kana": "ウワノマチマルヤマ",
      "street": null,
      "office_name": null,
      "office_name_kana": null
    }
  ],
  "0241": {
    "postcode": "9220241",
    "prefecture": "石川県",
    "prefecture_kana": "イシカワケン",
    "prefecture_code": 17,
    "city": "加賀市",
    "city_kana": "カガシ",
    "town": "加茂町",
    "town_kana": "カモマチ",
    "street": null,
    "office_name": null,
    "office_name_kana": null
  },
  "0242": {
    "postcode": "9220242",
    "prefecture": "石川県",
    "prefecture_kana": "イシカワケン",
    "prefecture_code": 17,
    "city": "加賀市",
    "city_kana": "カガシ",
    "town": "山代温泉",
    "town_kana": "ヤマシロオンセン",
    "street": null,
    "office_name": null,
    "office_name_kana": null
  },
  "0243": [
    {
      "postcode": "9220243",
      "prefecture": "石川県",
      "prefecture_kana": "イシカワケン",
      "prefecture_code": 17,
      "city": "加賀市",
      "city_kana": "カガシ",
      "town": "山代温泉",
      "town_kana": "ヤマシロオンセン",
      "street": null,
      "office_name": null,
      "office_name_kana": null
    },
    {
      "postcode": "9220243",
      "prefecture": "石川県",
      "prefecture_kana": "イシカワケン",
      "prefecture_code": 17,
      "city": "加賀市",
      "city_kana": "カガシ",
      "town": "山代温泉北部",
      "town_kana": "ヤマシロオンセンホクブ",
      "street": null,
      "office_name": null,
      "office_name_kana": null
    }
  ],
  "0244": [
    {
      "postcode": "9220244",
      "prefecture": "石川県",
      "prefecture_kana": "イシカワケン",
      "prefecture_code": 17,
      "city": "加賀市",
      "city_kana": "カガシ",
      "town": "山代温泉",
      "town_kana": "ヤマシロオンセン",
      "street": null,
      "office_name": null,
      "office_name_kana": null
    },
    {
      "postcode": "9220244",
      "prefecture": "石川県",
      "prefecture_kana": "イシカワケン",
      "prefecture_code": 17,
      "city": "加賀市",
      "city_kana": "カガシ",
      "town": "山代温泉神明町",
      "town_kana": "ヤマシロオンセンシンメイチョウ",
      "street": null,
      "office_name": null,
      "office_name_kana": null
    }
  ],
  "0245": [
    {
      "postcode": "9220245",
      "prefecture": "石川県",
      "prefecture_kana": "イシカワケン",
      "prefecture_code": 17,
      "city": "加賀市",
      "city_kana": "カガシ",
      "town": "山代温泉",
      "town_kana": "ヤマシロオンセン",
      "street": null,
      "office_name": null,
      "office_name_kana": null
    },
    {
      "postcode": "9220245",
      "prefecture": "石川県",
      "prefecture_kana": "イシカワケン",
      "prefecture_code": 17,
      "city": "加賀市",
      "city_kana": "カガシ",
      "town": "山代温泉山背台",
      "town_kana": "ヤマシロオンセンヤマセダイ",
      "street": null,
      "office_name": null,
      "office_name_kana": null
    }
  ],
  "0246": [
    {
      "postcode": "9220246",
      "prefecture": "石川県",
      "prefecture_kana": "イシカワケン",
      "prefecture_code": 17,
      "city": "加賀市",
      "city_kana": "カガシ",
      "town": "山代温泉",
      "town_kana": "ヤマシロオンセン",
      "street": null,
      "office_name": null,
      "office_name_kana": null
    },
    {
      "postcode": "9220246",
      "prefecture": "石川県",
      "prefecture_kana": "イシカワケン",
      "prefecture_code": 17,
      "city": "加賀市",
      "city_kana": "カガシ",
      "town": "山代温泉八幡",
      "town_kana": "ヤマシロオンセンハチマン",
      "street": null,
      "office_name": null,
      "office_name_kana": null
    }
  ],
  "0247": [
    {
      "postcode": "9220247",
      "prefecture": "石川県",
      "prefecture_kana": "イシカワケン",
      "prefecture_code": 17,
      "city": "加賀市",
      "city_kana": "カガシ",
      "town": "山代温泉",
      "town_kana": "ヤマシロオンセン",
      "street": null,
      "office_name": null,
      "office_name_kana": null
    },
    {
      "postcode": "9220247",
      "prefecture": "石川県",
      "prefecture_kana": "イシカワケン",
      "prefecture_code": 17,
      "city": "加賀市",
      "city_kana": "カガシ",
      "town": "山代温泉上宮",
      "town_kana": "ヤマシロオンセンウワミヤ",
      "street": null,
      "office_name": null,
      "office_name_kana": null
    }
  ],
  "0250": {
    "postcode": "9220250",
    "prefecture": "石川県",
    "prefecture_kana": "イシカワケン",
    "prefecture_code": 17,
    "city": "加賀市",
    "city_kana": "カガシ",
    "town": "山代温泉桜町",
    "town_kana": "ヤマシロオンセンサクラマチ",
    "street": null,
    "office_name": null,
    "office_name_kana": null
  },
  "0251": [
    {
      "postcode": "9220251",
      "prefecture": "石川県",
      "prefecture_kana": "イシカワケン",
      "prefecture_code": 17,
      "city": "加賀市",
      "city_kana": "カガシ",
      "town": "山代温泉",
      "town_kana": "ヤマシロオンセン",
      "street": null,
      "office_name": null,
      "office_name_kana": null
    },
    {
      "postcode": "9220251",
      "prefecture": "石川県",
      "prefecture_kana": "イシカワケン",
      "prefecture_code": 17,
      "city": "加賀市",
      "city_kana": "カガシ",
      "town": "山代温泉大和町",
      "town_kana": "ヤマシロオンセンヤマトマチ",
      "street": null,
      "office_name": null,
      "office_name_kana": null
    }
  ],
  "0252": [
    {
      "postcode": "9220252",
      "prefecture": "石川県",
      "prefecture_kana": "イシカワケン",
      "prefecture_code": 17,
      "city": "加賀市",
      "city_kana": "カガシ",
      "town": "山代温泉",
      "town_kana": "ヤマシロオンセン",
      "street": null,
      "office_name": null,
      "office_name_kana": null
    },
    {
      "postcode": "9220252",
      "prefecture": "石川県",
      "prefecture_kana": "イシカワケン",
      "prefecture_code": 17,
      "city": "加賀市",
      "city_kana": "カガシ",
      "town": "山代温泉九谷町",
      "town_kana": "ヤマシロオンセンクタニマチ",
      "street": null,
      "office_name": null,
      "office_name_kana": null
    }
  ],
  "0253": [
    {
      "postcode": "9220253",
      "prefecture": "石川県",
      "prefecture_kana": "イシカワケン",
      "prefecture_code": 17,
      "city": "加賀市",
      "city_kana": "カガシ",
      "town": "山代温泉",
      "town_kana": "ヤマシロオンセン",
      "street": null,
      "office_name": null,
      "office_name_kana": null
    },
    {
      "postcode": "9220253",
      "prefecture": "石川県",
      "prefecture_kana": "イシカワケン",
      "prefecture_code": 17,
      "city": "加賀市",
      "city_kana": "カガシ",
      "town": "山代温泉東山町",
      "town_kana": "ヤマシロオンセンヒガシヤママチ",
      "street": null,
      "office_name": null,
      "office_name_kana": null
    }
  ],
  "0254": [
    {
      "postcode": "9220254",
      "prefecture": "石川県",
      "prefecture_kana": "イシカワケン",
      "prefecture_code": 17,
      "city": "加賀市",
      "city_kana": "カガシ",
      "town": "山代温泉",
      "town_kana": "ヤマシロオンセン",
      "street": null,
      "office_name": null,
      "office_name_kana": null
    },
    {
      "postcode": "9220254",
      "prefecture": "石川県",
      "prefecture_kana": "イシカワケン",
      "prefecture_code": 17,
      "city": "加賀市",
      "city_kana": "カガシ",
      "town": "山代温泉温泉通り",
      "town_kana": "ヤマシロオンセンオンセンドオリ",
      "street": null,
      "office_name": null,
      "office_name_kana": null
    }
  ],
  "0255": [
    {
      "postcode": "9220255",
      "prefecture": "石川県",
      "prefecture_kana": "イシカワケン",
      "prefecture_code": 17,
      "city": "加賀市",
      "city_kana": "カガシ",
      "town": "山代温泉",
      "town_kana": "ヤマシロオンセン",
      "street": null,
      "office_name": null,
      "office_name_kana": null
    },
    {
      "postcode": "9220255",
      "prefecture": "石川県",
      "prefecture_kana": "イシカワケン",
      "prefecture_code": 17,
      "city": "加賀市",
      "city_kana": "カガシ",
      "town": "山代温泉幸町",
      "town_kana": "ヤマシロオンセンサイワイチョウ",
      "street": null,
      "office_name": null,
      "office_name_kana": null
    }
  ],
  "0256": [
    {
      "postcode": "9220256",
      "prefecture": "石川県",
      "prefecture_kana": "イシカワケン",
      "prefecture_code": 17,
      "city": "加賀市",
      "city_kana": "カガシ",
      "town": "山代温泉",
      "town_kana": "ヤマシロオンセン",
      "street": null,
      "office_name": null,
      "office_name_kana": null
    },
    {
      "postcode": "9220256",
      "prefecture": "石川県",
      "prefecture_kana": "イシカワケン",
      "prefecture_code": 17,
      "city": "加賀市",
      "city_kana": "カガシ",
      "town": "山代温泉万松園通",
      "town_kana": "ヤマシロオンセンバンショウエンドオリ",
      "street": null,
      "office_name": null,
      "office_name_kana": null
    }
  ],
  "0257": [
    {
      "postcode": "9220257",
      "prefecture": "石川県",
      "prefecture_kana": "イシカワケン",
      "prefecture_code": 17,
      "city": "加賀市",
      "city_kana": "カガシ",
      "town": "山代温泉",
      "town_kana": "ヤマシロオンセン",
      "street": null,
      "office_name": null,
      "office_name_kana": null
    },
    {
      "postcode": "9220257",
      "prefecture": "石川県",
      "prefecture_kana": "イシカワケン",
      "prefecture_code": 17,
      "city": "加賀市",
      "city_kana": "カガシ",
      "town": "山代温泉桔梗丘",
      "town_kana": "ヤマシロオンセンキキョウガオカ",
      "street": null,
      "office_name": null,
      "office_name_kana": null
    }
  ],
  "0258": [
    {
      "postcode": "9220258",
      "prefecture": "石川県",
      "prefecture_kana": "イシカワケン",
      "prefecture_code": 17,
      "city": "加賀市",
      "city_kana": "カガシ",
      "town": "山代温泉",
      "town_kana": "ヤマシロオンセン",
      "street": null,
      "office_name": null,
      "office_name_kana": null
    },
    {
      "postcode": "9220258",
      "prefecture": "石川県",
      "prefecture_kana": "イシカワケン",
      "prefecture_code": 17,
      "city": "加賀市",
      "city_kana": "カガシ",
      "town": "山代温泉南町",
      "town_kana": "ヤマシロオンセンミナミチョウ",
      "street": null,
      "office_name": null,
      "office_name_kana": null
    }
  ],
  "0261": {
    "postcode": "9220261",
    "prefecture": "石川県",
    "prefecture_kana": "イシカワケン",
    "prefecture_code": 17,
    "city": "加賀市",
    "city_kana": "カガシ",
    "town": "横北町",
    "town_kana": "ヨコギタマチ",
    "street": null,
    "office_name": null,
    "office_name_kana": null
  },
  "0262": {
    "postcode": "9220262",
    "prefecture": "石川県",
    "prefecture_kana": "イシカワケン",
    "prefecture_code": 17,
    "city": "加賀市",
    "city_kana": "カガシ",
    "town": "柏野町",
    "town_kana": "カシワノマチ",
    "street": null,
    "office_name": null,
    "office_name_kana": null
  },
  "0263": {
    "postcode": "9220263",
    "prefecture": "石川県",
    "prefecture_kana": "イシカワケン",
    "prefecture_code": 17,
    "city": "加賀市",
    "city_kana": "カガシ",
    "town": "塔尾町",
    "town_kana": "トノオマチ",
    "street": null,
    "office_name": null,
    "office_name_kana": null
  },
  "0264": {
    "postcode": "9220264",
    "prefecture": "石川県",
    "prefecture_kana": "イシカワケン",
    "prefecture_code": 17,
    "city": "加賀市",
    "city_kana": "カガシ",
    "town": "須谷町",
    "town_kana": "スダニマチ",
    "street": null,
    "office_name": null,
    "office_name_kana": null
  },
  "0265": {
    "postcode": "9220265",
    "prefecture": "石川県",
    "prefecture_kana": "イシカワケン",
    "prefecture_code": 17,
    "city": "加賀市",
    "city_kana": "カガシ",
    "town": "水田丸町",
    "town_kana": "ミズタマルマチ",
    "street": null,
    "office_name": null,
    "office_name_kana": null
  },
  "0266": {
    "postcode": "9220266",
    "prefecture": "石川県",
    "prefecture_kana": "イシカワケン",
    "prefecture_code": 17,
    "city": "加賀市",
    "city_kana": "カガシ",
    "town": "小坂町",
    "town_kana": "コサカマチ",
    "street": null,
    "office_name": null,
    "office_name_kana": null
  },
  "0267": {
    "postcode": "9220267",
    "prefecture": "石川県",
    "prefecture_kana": "イシカワケン",
    "prefecture_code": 17,
    "city": "加賀市",
    "city_kana": "カガシ",
    "town": "二ツ屋町",
    "town_kana": "フタツヤマチ",
    "street": null,
    "office_name": null,
    "office_name_kana": null
  },
  "0271": {
    "postcode": "9220271",
    "prefecture": "石川県",
    "prefecture_kana": "イシカワケン",
    "prefecture_code": 17,
    "city": "加賀市",
    "city_kana": "カガシ",
    "town": "尾俣町",
    "town_kana": "オマタマチ",
    "street": null,
    "office_name": null,
    "office_name_kana": null
  },
  "0273": {
    "postcode": "9220273",
    "prefecture": "石川県",
    "prefecture_kana": "イシカワケン",
    "prefecture_code": 17,
    "city": "加賀市",
    "city_kana": "カガシ",
    "town": "桂谷町",
    "town_kana": "カツラタニマチ",
    "street": null,
    "office_name": null,
    "office_name_kana": null
  },
  "0274": {
    "postcode": "9220274",
    "prefecture": "石川県",
    "prefecture_kana": "イシカワケン",
    "prefecture_code": 17,
    "city": "加賀市",
    "city_kana": "カガシ",
    "town": "別所町",
    "town_kana": "ベッショマチ",
    "street": null,
    "office_name": null,
    "office_name_kana": null
  },
  "0275": [
    {
      "postcode": "9220275",
      "prefecture": "石川県",
      "prefecture_kana": "イシカワケン",
      "prefecture_code": 17,
      "city": "加賀市",
      "city_kana": "カガシ",
      "town": "別所町",
      "town_kana": "ベッショマチ",
      "street": null,
      "office_name": null,
      "office_name_kana": null
    },
    {
      "postcode": "9220275",
      "prefecture": "石川県",
      "prefecture_kana": "イシカワケン",
      "prefecture_code": 17,
      "city": "加賀市",
      "city_kana": "カガシ",
      "town": "別所町富士見ケ丘",
      "town_kana": "ベッショマチフジミガオカ",
      "street": null,
      "office_name": null,
      "office_name_kana": null
    }
  ],
  "0276": [
    {
      "postcode": "9220276",
      "prefecture": "石川県",
      "prefecture_kana": "イシカワケン",
      "prefecture_code": 17,
      "city": "加賀市",
      "city_kana": "カガシ",
      "town": "河南町",
      "town_kana": "カワミナミマチ",
      "street": null,
      "office_name": null,
      "office_name_kana": null
    },
    {
      "postcode": "9220276",
      "prefecture": "石川県",
      "prefecture_kana": "イシカワケン",
      "prefecture_code": 17,
      "city": "加賀市",
      "city_kana": "カガシ",
      "town": "河南町淀町",
      "town_kana": "カワミナミマチヨドマチ",
      "street": null,
      "office_name": null,
      "office_name_kana": null
    }
  ],
  "0277": {
    "postcode": "9220277",
    "prefecture": "石川県",
    "prefecture_kana": "イシカワケン",
    "prefecture_code": 17,
    "city": "加賀市",
    "city_kana": "カガシ",
    "town": "河南町",
    "town_kana": "カワミナミマチ",
    "street": null,
    "office_name": null,
    "office_name_kana": null
  },
  "0278": {
    "postcode": "9220278",
    "prefecture": "石川県",
    "prefecture_kana": "イシカワケン",
    "prefecture_code": 17,
    "city": "加賀市",
    "city_kana": "カガシ",
    "town": "荒木町",
    "town_kana": "アラキマチ",
    "street": null,
    "office_name": null,
    "office_name_kana": null
  },
  "0293": {
    "postcode": "9220293",
    "prefecture": "石川県",
    "prefecture_kana": "イシカワケン",
    "prefecture_code": 17,
    "city": "加賀市",
    "city_kana": "カガシ",
    "town": "山代温泉",
    "town_kana": "ヤマシロオンセン",
    "street": "東山町１６−１",
    "office_name": "雄山閣",
    "office_name_kana": "ユウザンカク"
  },
  "0294": {
    "postcode": "9220294",
    "prefecture": "石川県",
    "prefecture_kana": "イシカワケン",
    "prefecture_code": 17,
    "city": "加賀市",
    "city_kana": "カガシ",
    "town": "山代温泉",
    "town_kana": "ヤマシロオンセン",
    "street": "桔梗丘２丁目１０−３",
    "office_name": "湯快リゾート　株式会社　山代温泉　彩朝楽",
    "office_name_kana": "ユカイリゾ-ト カブシキガイシヤ ヤマシロオンセン サイチヨウラク"
  },
  "0295": {
    "postcode": "9220295",
    "prefecture": "石川県",
    "prefecture_kana": "イシカワケン",
    "prefecture_code": 17,
    "city": "加賀市",
    "city_kana": "カガシ",
    "town": "山代温泉",
    "town_kana": "ヤマシロオンセン",
    "street": "１９−５８",
    "office_name": "よろづや観光　（株）　瑠璃光",
    "office_name_kana": "ヨロヅヤカンコウ カブ ルリコウ"
  },
  "0297": {
    "postcode": "9220297",
    "prefecture": "石川県",
    "prefecture_kana": "イシカワケン",
    "prefecture_code": 17,
    "city": "加賀市",
    "city_kana": "カガシ",
    "town": "山代温泉",
    "town_kana": "ヤマシロオンセン",
    "street": "１８−１２４",
    "office_name": "加賀の本陣　山下家",
    "office_name_kana": "カガノホンジン ヤマシタヤ"
  },
  "0298": {
    "postcode": "9220298",
    "prefecture": "石川県",
    "prefecture_kana": "イシカワケン",
    "prefecture_code": 17,
    "city": "加賀市",
    "city_kana": "カガシ",
    "town": "山代温泉",
    "town_kana": "ヤマシロオンセン",
    "street": "１９−４９−１",
    "office_name": "ゆのくに天祥",
    "office_name_kana": "ユノクニテンシヨウ"
  },
  "0301": {
    "postcode": "9220301",
    "prefecture": "石川県",
    "prefecture_kana": "イシカワケン",
    "prefecture_code": 17,
    "city": "加賀市",
    "city_kana": "カガシ",
    "town": "高塚町",
    "town_kana": "タカツカマチ",
    "street": null,
    "office_name": null,
    "office_name_kana": null
  },
  "0302": {
    "postcode": "9220302",
    "prefecture": "石川県",
    "prefecture_kana": "イシカワケン",
    "prefecture_code": 17,
    "city": "加賀市",
    "city_kana": "カガシ",
    "town": "打越町",
    "town_kana": "ウチコシマチ",
    "street": null,
    "office_name": null,
    "office_name_kana": null
  },
  "0303": {
    "postcode": "9220303",
    "prefecture": "石川県",
    "prefecture_kana": "イシカワケン",
    "prefecture_code": 17,
    "city": "加賀市",
    "city_kana": "カガシ",
    "town": "箱宮町",
    "town_kana": "ハコミヤマチ",
    "street": null,
    "office_name": null,
    "office_name_kana": null
  },
  "0304": {
    "postcode": "9220304",
    "prefecture": "石川県",
    "prefecture_kana": "イシカワケン",
    "prefecture_code": 17,
    "city": "加賀市",
    "city_kana": "カガシ",
    "town": "分校町",
    "town_kana": "ブンギョウマチ",
    "street": null,
    "office_name": null,
    "office_name_kana": null
  },
  "0305": {
    "postcode": "9220305",
    "prefecture": "石川県",
    "prefecture_kana": "イシカワケン",
    "prefecture_code": 17,
    "city": "加賀市",
    "city_kana": "カガシ",
    "town": "梶井町",
    "town_kana": "カジイマチ",
    "street": null,
    "office_name": null,
    "office_name_kana": null
  },
  "0306": {
    "postcode": "9220306",
    "prefecture": "石川県",
    "prefecture_kana": "イシカワケン",
    "prefecture_code": 17,
    "city": "加賀市",
    "city_kana": "カガシ",
    "town": "中島町",
    "town_kana": "ナカジママチ",
    "street": null,
    "office_name": null,
    "office_name_kana": null
  },
  "0307": {
    "postcode": "9220307",
    "prefecture": "石川県",
    "prefecture_kana": "イシカワケン",
    "prefecture_code": 17,
    "city": "加賀市",
    "city_kana": "カガシ",
    "town": "干拓町",
    "town_kana": "カンタクチョウ",
    "street": null,
    "office_name": null,
    "office_name_kana": null
  },
  "0311": {
    "postcode": "9220311",
    "prefecture": "石川県",
    "prefecture_kana": "イシカワケン",
    "prefecture_code": 17,
    "city": "加賀市",
    "city_kana": "カガシ",
    "town": "栄谷町",
    "town_kana": "サカエダニマチ",
    "street": null,
    "office_name": null,
    "office_name_kana": null
  },
  "0312": {
    "postcode": "9220312",
    "prefecture": "石川県",
    "prefecture_kana": "イシカワケン",
    "prefecture_code": 17,
    "city": "加賀市",
    "city_kana": "カガシ",
    "town": "宇谷町",
    "town_kana": "ウダニマチ",
    "street": null,
    "office_name": null,
    "office_name_kana": null
  },
  "0313": {
    "postcode": "9220313",
    "prefecture": "石川県",
    "prefecture_kana": "イシカワケン",
    "prefecture_code": 17,
    "city": "加賀市",
    "city_kana": "カガシ",
    "town": "勅使町",
    "town_kana": "チョクシマチ",
    "street": null,
    "office_name": null,
    "office_name_kana": null
  },
  "0314": {
    "postcode": "9220314",
    "prefecture": "石川県",
    "prefecture_kana": "イシカワケン",
    "prefecture_code": 17,
    "city": "加賀市",
    "city_kana": "カガシ",
    "town": "河原町",
    "town_kana": "カワラマチ",
    "street": null,
    "office_name": null,
    "office_name_kana": null
  },
  "0315": {
    "postcode": "9220315",
    "prefecture": "石川県",
    "prefecture_kana": "イシカワケン",
    "prefecture_code": 17,
    "city": "加賀市",
    "city_kana": "カガシ",
    "town": "清水町",
    "town_kana": "シミズマチ",
    "street": null,
    "office_name": null,
    "office_name_kana": null
  },
  "0316": {
    "postcode": "9220316",
    "prefecture": "石川県",
    "prefecture_kana": "イシカワケン",
    "prefecture_code": 17,
    "city": "加賀市",
    "city_kana": "カガシ",
    "town": "松山町",
    "town_kana": "マツヤママチ",
    "street": null,
    "office_name": null,
    "office_name_kana": null
  },
  "0321": {
    "postcode": "9220321",
    "prefecture": "石川県",
    "prefecture_kana": "イシカワケン",
    "prefecture_code": 17,
    "city": "加賀市",
    "city_kana": "カガシ",
    "town": "森町",
    "town_kana": "モリマチ",
    "street": null,
    "office_name": null,
    "office_name_kana": null
  },
  "0322": {
    "postcode": "9220322",
    "prefecture": "石川県",
    "prefecture_kana": "イシカワケン",
    "prefecture_code": 17,
    "city": "加賀市",
    "city_kana": "カガシ",
    "town": "上野町",
    "town_kana": "ウワノマチ",
    "street": null,
    "office_name": null,
    "office_name_kana": null
  },
  "0323": {
    "postcode": "9220323",
    "prefecture": "石川県",
    "prefecture_kana": "イシカワケン",
    "prefecture_code": 17,
    "city": "加賀市",
    "city_kana": "カガシ",
    "town": "若葉台",
    "town_kana": "ワカバダイ",
    "street": null,
    "office_name": null,
    "office_name_kana": null
  },
  "0324": {
    "postcode": "9220324",
    "prefecture": "石川県",
    "prefecture_kana": "イシカワケン",
    "prefecture_code": 17,
    "city": "加賀市",
    "city_kana": "カガシ",
    "town": "七日市新町",
    "town_kana": "ナンカイチシンマチ",
    "street": null,
    "office_name": null,
    "office_name_kana": null
  },
  "0325": {
    "postcode": "9220325",
    "prefecture": "石川県",
    "prefecture_kana": "イシカワケン",
    "prefecture_code": 17,
    "city": "加賀市",
    "city_kana": "カガシ",
    "town": "二子塚町",
    "town_kana": "フタゴヅカマチ",
    "street": null,
    "office_name": null,
    "office_name_kana": null
  },
  "0326": {
    "postcode": "9220326",
    "prefecture": "石川県",
    "prefecture_kana": "イシカワケン",
    "prefecture_code": 17,
    "city": "加賀市",
    "city_kana": "カガシ",
    "town": "桑原町",
    "town_kana": "クワバラマチ",
    "street": null,
    "office_name": null,
    "office_name_kana": null
  },
  "0331": {
    "postcode": "9220331",
    "prefecture": "石川県",
    "prefecture_kana": "イシカワケン",
    "prefecture_code": 17,
    "city": "加賀市",
    "city_kana": "カガシ",
    "town": "動橋町",
    "town_kana": "イブリハシマチ",
    "street": null,
    "office_name": null,
    "office_name_kana": null
  },
  "0332": {
    "postcode": "9220332",
    "prefecture": "石川県",
    "prefecture_kana": "イシカワケン",
    "prefecture_code": 17,
    "city": "加賀市",
    "city_kana": "カガシ",
    "town": "庄町",
    "town_kana": "ショウマチ",
    "street": null,
    "office_name": null,
    "office_name_kana": null
  },
  "0333": {
    "postcode": "9220333",
    "prefecture": "石川県",
    "prefecture_kana": "イシカワケン",
    "prefecture_code": 17,
    "city": "加賀市",
    "city_kana": "カガシ",
    "town": "津波倉町",
    "town_kana": "ツバクラマチ",
    "street": null,
    "office_name": null,
    "office_name_kana": null
  },
  "0334": {
    "postcode": "9220334",
    "prefecture": "石川県",
    "prefecture_kana": "イシカワケン",
    "prefecture_code": 17,
    "city": "加賀市",
    "city_kana": "カガシ",
    "town": "西島町",
    "town_kana": "ニシジママチ",
    "street": null,
    "office_name": null,
    "office_name_kana": null
  },
  "0335": {
    "postcode": "9220335",
    "prefecture": "石川県",
    "prefecture_kana": "イシカワケン",
    "prefecture_code": 17,
    "city": "加賀市",
    "city_kana": "カガシ",
    "town": "七日市町",
    "town_kana": "ナンカイチマチ",
    "street": null,
    "office_name": null,
    "office_name_kana": null
  },
  "0336": {
    "postcode": "9220336",
    "prefecture": "石川県",
    "prefecture_kana": "イシカワケン",
    "prefecture_code": 17,
    "city": "加賀市",
    "city_kana": "カガシ",
    "town": "八日市町",
    "town_kana": "ヨウカイチマチ",
    "street": null,
    "office_name": null,
    "office_name_kana": null
  },
  "0337": {
    "postcode": "9220337",
    "prefecture": "石川県",
    "prefecture_kana": "イシカワケン",
    "prefecture_code": 17,
    "city": "加賀市",
    "city_kana": "カガシ",
    "town": "合河町",
    "town_kana": "アイカワマチ",
    "street": null,
    "office_name": null,
    "office_name_kana": null
  },
  "0401": {
    "postcode": "9220401",
    "prefecture": "石川県",
    "prefecture_kana": "イシカワケン",
    "prefecture_code": 17,
    "city": "加賀市",
    "city_kana": "カガシ",
    "town": "新保町",
    "town_kana": "シンボマチ",
    "street": null,
    "office_name": null,
    "office_name_kana": null
  },
  "0402": {
    "postcode": "9220402",
    "prefecture": "石川県",
    "prefecture_kana": "イシカワケン",
    "prefecture_code": 17,
    "city": "加賀市",
    "city_kana": "カガシ",
    "town": "柴山町",
    "town_kana": "シバヤママチ",
    "street": null,
    "office_name": null,
    "office_name_kana": null
  },
  "0403": {
    "postcode": "9220403",
    "prefecture": "石川県",
    "prefecture_kana": "イシカワケン",
    "prefecture_code": 17,
    "city": "加賀市",
    "city_kana": "カガシ",
    "town": "一白町",
    "town_kana": "イッパクマチ",
    "street": null,
    "office_name": null,
    "office_name_kana": null
  },
  "0404": {
    "postcode": "9220404",
    "prefecture": "石川県",
    "prefecture_kana": "イシカワケン",
    "prefecture_code": 17,
    "city": "加賀市",
    "city_kana": "カガシ",
    "town": "源平町",
    "town_kana": "ゲンペイマチ",
    "street": null,
    "office_name": null,
    "office_name_kana": null
  },
  "0405": {
    "postcode": "9220405",
    "prefecture": "石川県",
    "prefecture_kana": "イシカワケン",
    "prefecture_code": 17,
    "city": "加賀市",
    "city_kana": "カガシ",
    "town": "手塚町",
    "town_kana": "テヅカマチ",
    "street": null,
    "office_name": null,
    "office_name_kana": null
  },
  "0406": {
    "postcode": "9220406",
    "prefecture": "石川県",
    "prefecture_kana": "イシカワケン",
    "prefecture_code": 17,
    "city": "加賀市",
    "city_kana": "カガシ",
    "town": "伊切町",
    "town_kana": "イキリマチ",
    "street": null,
    "office_name": null,
    "office_name_kana": null
  },
  "0411": {
    "postcode": "9220411",
    "prefecture": "石川県",
    "prefecture_kana": "イシカワケン",
    "prefecture_code": 17,
    "city": "加賀市",
    "city_kana": "カガシ",
    "town": "潮津町",
    "town_kana": "ウシオヅマチ",
    "street": null,
    "office_name": null,
    "office_name_kana": null
  },
  "0412": {
    "postcode": "9220412",
    "prefecture": "石川県",
    "prefecture_kana": "イシカワケン",
    "prefecture_code": 17,
    "city": "加賀市",
    "city_kana": "カガシ",
    "town": "片山津温泉",
    "town_kana": "カタヤマヅオンセン",
    "street": null,
    "office_name": null,
    "office_name_kana": null
  },
  "0413": {
    "postcode": "9220413",
    "prefecture": "石川県",
    "prefecture_kana": "イシカワケン",
    "prefecture_code": 17,
    "city": "加賀市",
    "city_kana": "カガシ",
    "town": "湖城町",
    "town_kana": "コジョウマチ",
    "street": null,
    "office_name": null,
    "office_name_kana": null
  },
  "0414": {
    "postcode": "9220414",
    "prefecture": "石川県",
    "prefecture_kana": "イシカワケン",
    "prefecture_code": 17,
    "city": "加賀市",
    "city_kana": "カガシ",
    "town": "片山津町",
    "town_kana": "カタヤマヅマチ",
    "street": null,
    "office_name": null,
    "office_name_kana": null
  },
  "0421": {
    "postcode": "9220421",
    "prefecture": "石川県",
    "prefecture_kana": "イシカワケン",
    "prefecture_code": 17,
    "city": "加賀市",
    "city_kana": "カガシ",
    "town": "冨塚町",
    "town_kana": "トミツカマチ",
    "street": null,
    "office_name": null,
    "office_name_kana": null
  },
  "0422": {
    "postcode": "9220422",
    "prefecture": "石川県",
    "prefecture_kana": "イシカワケン",
    "prefecture_code": 17,
    "city": "加賀市",
    "city_kana": "カガシ",
    "town": "弓波町",
    "town_kana": "ユミナミマチ",
    "street": null,
    "office_name": null,
    "office_name_kana": null
  },
  "0423": {
    "postcode": "9220423",
    "prefecture": "石川県",
    "prefecture_kana": "イシカワケン",
    "prefecture_code": 17,
    "city": "加賀市",
    "city_kana": "カガシ",
    "town": "作見町",
    "town_kana": "サクミマチ",
    "street": null,
    "office_name": null,
    "office_name_kana": null
  },
  "0424": {
    "postcode": "9220424",
    "prefecture": "石川県",
    "prefecture_kana": "イシカワケン",
    "prefecture_code": 17,
    "city": "加賀市",
    "city_kana": "カガシ",
    "town": "小菅波町",
    "town_kana": "コスガナミマチ",
    "street": null,
    "office_name": null,
    "office_name_kana": null
  },
  "0425": {
    "postcode": "9220425",
    "prefecture": "石川県",
    "prefecture_kana": "イシカワケン",
    "prefecture_code": 17,
    "city": "加賀市",
    "city_kana": "カガシ",
    "town": "大菅波町",
    "town_kana": "オオスガナミマチ",
    "street": null,
    "office_name": null,
    "office_name_kana": null
  },
  "0426": {
    "postcode": "9220426",
    "prefecture": "石川県",
    "prefecture_kana": "イシカワケン",
    "prefecture_code": 17,
    "city": "加賀市",
    "city_kana": "カガシ",
    "town": "天日町",
    "town_kana": "テンニチマチ",
    "street": null,
    "office_name": null,
    "office_name_kana": null
  },
  "0427": {
    "postcode": "9220427",
    "prefecture": "石川県",
    "prefecture_kana": "イシカワケン",
    "prefecture_code": 17,
    "city": "加賀市",
    "city_kana": "カガシ",
    "town": "ときわ台",
    "town_kana": "トキワダイ",
    "street": null,
    "office_name": null,
    "office_name_kana": null
  },
  "0428": {
    "postcode": "9220428",
    "prefecture": "石川県",
    "prefecture_kana": "イシカワケン",
    "prefecture_code": 17,
    "city": "加賀市",
    "city_kana": "カガシ",
    "town": "尾中町",
    "town_kana": "オチュウマチ",
    "street": null,
    "office_name": null,
    "office_name_kana": null
  },
  "0431": {
    "postcode": "9220431",
    "prefecture": "石川県",
    "prefecture_kana": "イシカワケン",
    "prefecture_code": 17,
    "city": "加賀市",
    "city_kana": "カガシ",
    "town": "山田町",
    "town_kana": "ヤマダマチ",
    "street": null,
    "office_name": null,
    "office_name_kana": null
  },
  "0432": {
    "postcode": "9220432",
    "prefecture": "石川県",
    "prefecture_kana": "イシカワケン",
    "prefecture_code": 17,
    "city": "加賀市",
    "city_kana": "カガシ",
    "town": "東山田町",
    "town_kana": "ヒガシヤマダマチ",
    "street": null,
    "office_name": null,
    "office_name_kana": null
  },
  "0433": {
    "postcode": "9220433",
    "prefecture": "石川県",
    "prefecture_kana": "イシカワケン",
    "prefecture_code": 17,
    "city": "加賀市",
    "city_kana": "カガシ",
    "town": "西山田町",
    "town_kana": "ニシヤマダマチ",
    "street": null,
    "office_name": null,
    "office_name_kana": null
  },
  "0434": {
    "postcode": "9220434",
    "prefecture": "石川県",
    "prefecture_kana": "イシカワケン",
    "prefecture_code": 17,
    "city": "加賀市",
    "city_kana": "カガシ",
    "town": "北山田町",
    "town_kana": "キタヤマダマチ",
    "street": null,
    "office_name": null,
    "office_name_kana": null
  },
  "0435": {
    "postcode": "9220435",
    "prefecture": "石川県",
    "prefecture_kana": "イシカワケン",
    "prefecture_code": 17,
    "city": "加賀市",
    "city_kana": "カガシ",
    "town": "希望が丘",
    "town_kana": "キボウガオカ",
    "street": null,
    "office_name": null,
    "office_name_kana": null
  },
  "0436": {
    "postcode": "9220436",
    "prefecture": "石川県",
    "prefecture_kana": "イシカワケン",
    "prefecture_code": 17,
    "city": "加賀市",
    "city_kana": "カガシ",
    "town": "松が丘",
    "town_kana": "マツガオカ",
    "street": null,
    "office_name": null,
    "office_name_kana": null
  },
  "0437": {
    "postcode": "9220437",
    "prefecture": "石川県",
    "prefecture_kana": "イシカワケン",
    "prefecture_code": 17,
    "city": "加賀市",
    "city_kana": "カガシ",
    "town": "白山台",
    "town_kana": "ハクサンダイ",
    "street": null,
    "office_name": null,
    "office_name_kana": null
  },
  "0441": {
    "postcode": "9220441",
    "prefecture": "石川県",
    "prefecture_kana": "イシカワケン",
    "prefecture_code": 17,
    "city": "加賀市",
    "city_kana": "カガシ",
    "town": "篠原新町",
    "town_kana": "シノハラシンマチ",
    "street": null,
    "office_name": null,
    "office_name_kana": null
  },
  "0442": {
    "postcode": "9220442",
    "prefecture": "石川県",
    "prefecture_kana": "イシカワケン",
    "prefecture_code": 17,
    "city": "加賀市",
    "city_kana": "カガシ",
    "town": "篠原町",
    "town_kana": "シノハラマチ",
    "street": null,
    "office_name": null,
    "office_name_kana": null
  },
  "0443": {
    "postcode": "9220443",
    "prefecture": "石川県",
    "prefecture_kana": "イシカワケン",
    "prefecture_code": 17,
    "city": "加賀市",
    "city_kana": "カガシ",
    "town": "野田町",
    "town_kana": "ノダマチ",
    "street": null,
    "office_name": null,
    "office_name_kana": null
  },
  "0444": {
    "postcode": "9220444",
    "prefecture": "石川県",
    "prefecture_kana": "イシカワケン",
    "prefecture_code": 17,
    "city": "加賀市",
    "city_kana": "カガシ",
    "town": "宮地町",
    "town_kana": "ミヤジマチ",
    "street": null,
    "office_name": null,
    "office_name_kana": null
  },
  "0445": {
    "postcode": "9220445",
    "prefecture": "石川県",
    "prefecture_kana": "イシカワケン",
    "prefecture_code": 17,
    "city": "加賀市",
    "city_kana": "カガシ",
    "town": "小塩辻町",
    "town_kana": "オシオツジマチ",
    "street": null,
    "office_name": null,
    "office_name_kana": null
  },
  "0446": {
    "postcode": "9220446",
    "prefecture": "石川県",
    "prefecture_kana": "イシカワケン",
    "prefecture_code": 17,
    "city": "加賀市",
    "city_kana": "カガシ",
    "town": "塩浜町",
    "town_kana": "シオハママチ",
    "street": null,
    "office_name": null,
    "office_name_kana": null
  },
  "0495": {
    "postcode": "9220495",
    "prefecture": "石川県",
    "prefecture_kana": "イシカワケン",
    "prefecture_code": 17,
    "city": "加賀市",
    "city_kana": "カガシ",
    "town": "作見町",
    "town_kana": "サクミマチ",
    "street": "ル２５番１",
    "office_name": "協同組合　加賀ターミナルセンター",
    "office_name_kana": "キヨウドウクミアイ カガタ-ミナルセンタ-"
  },
  "0497": {
    "postcode": "9220497",
    "prefecture": "石川県",
    "prefecture_kana": "イシカワケン",
    "prefecture_code": 17,
    "city": "加賀市",
    "city_kana": "カガシ",
    "town": "作見町",
    "town_kana": "サクミマチ",
    "street": "ホ１０番地１",
    "office_name": "加賀農業協同組合",
    "office_name_kana": "カガノウギヨウキヨウドウクミアイ"
  },
  "0551": {
    "postcode": "9220551",
    "prefecture": "石川県",
    "prefecture_kana": "イシカワケン",
    "prefecture_code": 17,
    "city": "加賀市",
    "city_kana": "カガシ",
    "town": "美岬町",
    "town_kana": "ミサキマチ",
    "street": null,
    "office_name": null,
    "office_name_kana": null
  },
  "0552": {
    "postcode": "9220552",
    "prefecture": "石川県",
    "prefecture_kana": "イシカワケン",
    "prefecture_code": 17,
    "city": "加賀市",
    "city_kana": "カガシ",
    "town": "田尻町",
    "town_kana": "タジリマチ",
    "street": null,
    "office_name": null,
    "office_name_kana": null
  },
  "0553": {
    "postcode": "9220553",
    "prefecture": "石川県",
    "prefecture_kana": "イシカワケン",
    "prefecture_code": 17,
    "city": "加賀市",
    "city_kana": "カガシ",
    "town": "小塩町",
    "town_kana": "オシオマチ",
    "street": null,
    "office_name": null,
    "office_name_kana": null
  },
  "0554": {
    "postcode": "9220554",
    "prefecture": "石川県",
    "prefecture_kana": "イシカワケン",
    "prefecture_code": 17,
    "city": "加賀市",
    "city_kana": "カガシ",
    "town": "橋立町",
    "town_kana": "ハシタテマチ",
    "street": null,
    "office_name": null,
    "office_name_kana": null
  },
  "0561": {
    "postcode": "9220561",
    "prefecture": "石川県",
    "prefecture_kana": "イシカワケン",
    "prefecture_code": 17,
    "city": "加賀市",
    "city_kana": "カガシ",
    "town": "宮町",
    "town_kana": "ミヤマチ",
    "street": null,
    "office_name": null,
    "office_name_kana": null
  },
  "0562": {
    "postcode": "9220562",
    "prefecture": "石川県",
    "prefecture_kana": "イシカワケン",
    "prefecture_code": 17,
    "city": "加賀市",
    "city_kana": "カガシ",
    "town": "高尾町",
    "town_kana": "タカオマチ",
    "street": null,
    "office_name": null,
    "office_name_kana": null
  },
  "0563": {
    "postcode": "9220563",
    "prefecture": "石川県",
    "prefecture_kana": "イシカワケン",
    "prefecture_code": 17,
    "city": "加賀市",
    "city_kana": "カガシ",
    "town": "豊町",
    "town_kana": "ユタカマチ",
    "street": null,
    "office_name": null,
    "office_name_kana": null
  },
  "0564": {
    "postcode": "9220564",
    "prefecture": "石川県",
    "prefecture_kana": "イシカワケン",
    "prefecture_code": 17,
    "city": "加賀市",
    "city_kana": "カガシ",
    "town": "片野町",
    "town_kana": "カタノマチ",
    "street": null,
    "office_name": null,
    "office_name_kana": null
  },
  "0565": {
    "postcode": "9220565",
    "prefecture": "石川県",
    "prefecture_kana": "イシカワケン",
    "prefecture_code": 17,
    "city": "加賀市",
    "city_kana": "カガシ",
    "town": "黒崎町",
    "town_kana": "クロサキマチ",
    "street": null,
    "office_name": null,
    "office_name_kana": null
  },
  "0566": {
    "postcode": "9220566",
    "prefecture": "石川県",
    "prefecture_kana": "イシカワケン",
    "prefecture_code": 17,
    "city": "加賀市",
    "city_kana": "カガシ",
    "town": "深田町",
    "town_kana": "フカタマチ",
    "street": null,
    "office_name": null,
    "office_name_kana": null
  },
  "0595": {
    "postcode": "9220595",
    "prefecture": "石川県",
    "prefecture_kana": "イシカワケン",
    "prefecture_code": 17,
    "city": "加賀市",
    "city_kana": "カガシ",
    "town": "宮町",
    "town_kana": "ミヤマチ",
    "street": "カ１番地１",
    "office_name": "株式会社　ソディック　加賀事業所",
    "office_name_kana": "カブシキガイシヤ ソデイツク カガジギヨウシヨ"
  },
  "0671": {
    "postcode": "9220671",
    "prefecture": "石川県",
    "prefecture_kana": "イシカワケン",
    "prefecture_code": 17,
    "city": "加賀市",
    "city_kana": "カガシ",
    "town": "大聖寺瀬越町",
    "town_kana": "ダイショウジセゴエマチ",
    "street": null,
    "office_name": null,
    "office_name_kana": null
  },
  "0672": {
    "postcode": "9220672",
    "prefecture": "石川県",
    "prefecture_kana": "イシカワケン",
    "prefecture_code": 17,
    "city": "加賀市",
    "city_kana": "カガシ",
    "town": "吉崎町",
    "town_kana": "ヨシザキマチ",
    "street": null,
    "office_name": null,
    "office_name_kana": null
  },
  "0673": {
    "postcode": "9220673",
    "prefecture": "石川県",
    "prefecture_kana": "イシカワケン",
    "prefecture_code": 17,
    "city": "加賀市",
    "city_kana": "カガシ",
    "town": "塩屋町",
    "town_kana": "シオヤマチ",
    "street": null,
    "office_name": null,
    "office_name_kana": null
  },
  "0679": {
    "postcode": "9220679",
    "prefecture": "福井県",
    "prefecture_kana": "フクイケン",
    "prefecture_code": 18,
    "city": "あわら市",
    "city_kana": "アワラシ",
    "town": "吉崎",
    "town_kana": "ヨシザキ",
    "street": null,
    "office_name": null,
    "office_name_kana": null
  },
  "0801": {
    "postcode": "9220801",
    "prefecture": "石川県",
    "prefecture_kana": "イシカワケン",
    "prefecture_code": 17,
    "city": "加賀市",
    "city_kana": "カガシ",
    "town": "大聖寺関町",
    "town_kana": "ダイショウジセキマチ",
    "street": null,
    "office_name": null,
    "office_name_kana": null
  },
  "0802": {
    "postcode": "9220802",
    "prefecture": "石川県",
    "prefecture_kana": "イシカワケン",
    "prefecture_code": 17,
    "city": "加賀市",
    "city_kana": "カガシ",
    "town": "大聖寺越前町",
    "town_kana": "ダイショウジエチゼンマチ",
    "street": null,
    "office_name": null,
    "office_name_kana": null
  },
  "0803": [
    {
      "postcode": "9220803",
      "prefecture": "石川県",
      "prefecture_kana": "イシカワケン",
      "prefecture_code": 17,
      "city": "加賀市",
      "city_kana": "カガシ",
      "town": "大聖寺越前三ツ屋町",
      "town_kana": "ダイショウジエチゼンミツヤマチ",
      "street": null,
      "office_name": null,
      "office_name_kana": null
    },
    {
      "postcode": "9220803",
      "prefecture": "石川県",
      "prefecture_kana": "イシカワケン",
      "prefecture_code": 17,
      "city": "加賀市",
      "city_kana": "カガシ",
      "town": "大聖寺三ツ屋町",
      "town_kana": "ダイショウジミツヤマチ",
      "street": null,
      "office_name": null,
      "office_name_kana": null
    }
  ],
  "0804": {
    "postcode": "9220804",
    "prefecture": "石川県",
    "prefecture_kana": "イシカワケン",
    "prefecture_code": 17,
    "city": "加賀市",
    "city_kana": "カガシ",
    "town": "大聖寺中新道",
    "town_kana": "ダイショウジナカシンミチ",
    "street": null,
    "office_name": null,
    "office_name_kana": null
  },
  "0805": {
    "postcode": "9220805",
    "prefecture": "石川県",
    "prefecture_kana": "イシカワケン",
    "prefecture_code": 17,
    "city": "加賀市",
    "city_kana": "カガシ",
    "town": "大聖寺新屋敷町",
    "town_kana": "ダイショウジシンヤシキマチ",
    "street": null,
    "office_name": null,
    "office_name_kana": null
  },
  "0806": {
    "postcode": "9220806",
    "prefecture": "石川県",
    "prefecture_kana": "イシカワケン",
    "prefecture_code": 17,
    "city": "加賀市",
    "city_kana": "カガシ",
    "town": "大聖寺大新道",
    "town_kana": "ダイショウジオオシンミチ",
    "street": null,
    "office_name": null,
    "office_name_kana": null
  },
  "0807": {
    "postcode": "9220807",
    "prefecture": "石川県",
    "prefecture_kana": "イシカワケン",
    "prefecture_code": 17,
    "city": "加賀市",
    "city_kana": "カガシ",
    "town": "大聖寺神明町",
    "town_kana": "ダイショウジシンメイチョウ",
    "street": null,
    "office_name": null,
    "office_name_kana": null
  },
  "0811": {
    "postcode": "9220811",
    "prefecture": "石川県",
    "prefecture_kana": "イシカワケン",
    "prefecture_code": 17,
    "city": "加賀市",
    "city_kana": "カガシ",
    "town": "大聖寺南町",
    "town_kana": "ダイショウジミナミチョウ",
    "street": null,
    "office_name": null,
    "office_name_kana": null
  },
  "0812": {
    "postcode": "9220812",
    "prefecture": "石川県",
    "prefecture_kana": "イシカワケン",
    "prefecture_code": 17,
    "city": "加賀市",
    "city_kana": "カガシ",
    "town": "大聖寺田原町",
    "town_kana": "ダイショウジタワラマチ",
    "street": null,
    "office_name": null,
    "office_name_kana": null
  },
  "0813": {
    "postcode": "9220813",
    "prefecture": "石川県",
    "prefecture_kana": "イシカワケン",
    "prefecture_code": 17,
    "city": "加賀市",
    "city_kana": "カガシ",
    "town": "大聖寺弓町",
    "town_kana": "ダイショウジユミチョウ",
    "street": null,
    "office_name": null,
    "office_name_kana": null
  },
  "0814": {
    "postcode": "9220814",
    "prefecture": "石川県",
    "prefecture_kana": "イシカワケン",
    "prefecture_code": 17,
    "city": "加賀市",
    "city_kana": "カガシ",
    "town": "大聖寺菅生町",
    "town_kana": "ダイショウジスゴウマチ",
    "street": null,
    "office_name": null,
    "office_name_kana": null
  },
  "0815": {
    "postcode": "9220815",
    "prefecture": "石川県",
    "prefecture_kana": "イシカワケン",
    "prefecture_code": 17,
    "city": "加賀市",
    "city_kana": "カガシ",
    "town": "大聖寺菅生",
    "town_kana": "ダイショウジスゴウ",
    "street": null,
    "office_name": null,
    "office_name_kana": null
  },
  "0816": {
    "postcode": "9220816",
    "prefecture": "石川県",
    "prefecture_kana": "イシカワケン",
    "prefecture_code": 17,
    "city": "加賀市",
    "city_kana": "カガシ",
    "town": "大聖寺東町",
    "town_kana": "ダイショウジヒガシチョウ",
    "street": null,
    "office_name": null,
    "office_name_kana": null
  },
  "0821": {
    "postcode": "9220821",
    "prefecture": "石川県",
    "prefecture_kana": "イシカワケン",
    "prefecture_code": 17,
    "city": "加賀市",
    "city_kana": "カガシ",
    "town": "南郷町",
    "town_kana": "ナンゴウマチ",
    "street": null,
    "office_name": null,
    "office_name_kana": null
  },
  "0822": {
    "postcode": "9220822",
    "prefecture": "石川県",
    "prefecture_kana": "イシカワケン",
    "prefecture_code": 17,
    "city": "加賀市",
    "city_kana": "カガシ",
    "town": "吸坂町",
    "town_kana": "スイサカマチ",
    "street": null,
    "office_name": null,
    "office_name_kana": null
  },
  "0823": {
    "postcode": "9220823",
    "prefecture": "石川県",
    "prefecture_kana": "イシカワケン",
    "prefecture_code": 17,
    "city": "加賀市",
    "city_kana": "カガシ",
    "town": "黒瀬町",
    "town_kana": "クロセマチ",
    "street": null,
    "office_name": null,
    "office_name_kana": null
  },
  "0824": {
    "postcode": "9220824",
    "prefecture": "石川県",
    "prefecture_kana": "イシカワケン",
    "prefecture_code": 17,
    "city": "加賀市",
    "city_kana": "カガシ",
    "town": "日谷町",
    "town_kana": "ヒノヤマチ",
    "street": null,
    "office_name": null,
    "office_name_kana": null
  },
  "0825": {
    "postcode": "9220825",
    "prefecture": "石川県",
    "prefecture_kana": "イシカワケン",
    "prefecture_code": 17,
    "city": "加賀市",
    "city_kana": "カガシ",
    "town": "直下町",
    "town_kana": "ソソリマチ",
    "street": null,
    "office_name": null,
    "office_name_kana": null
  },
  "0831": {
    "postcode": "9220831",
    "prefecture": "石川県",
    "prefecture_kana": "イシカワケン",
    "prefecture_code": 17,
    "city": "加賀市",
    "city_kana": "カガシ",
    "town": "幸町",
    "town_kana": "サイワイマチ",
    "street": null,
    "office_name": null,
    "office_name_kana": null
  },
  "0832": {
    "postcode": "9220832",
    "prefecture": "石川県",
    "prefecture_kana": "イシカワケン",
    "prefecture_code": 17,
    "city": "加賀市",
    "city_kana": "カガシ",
    "town": "百々町",
    "town_kana": "ドドマチ",
    "street": null,
    "office_name": null,
    "office_name_kana": null
  },
  "0833": {
    "postcode": "9220833",
    "prefecture": "石川県",
    "prefecture_kana": "イシカワケン",
    "prefecture_code": 17,
    "city": "加賀市",
    "city_kana": "カガシ",
    "town": "曾宇町",
    "town_kana": "ソウマチ",
    "street": null,
    "office_name": null,
    "office_name_kana": null
  },
  "0834": {
    "postcode": "9220834",
    "prefecture": "石川県",
    "prefecture_kana": "イシカワケン",
    "prefecture_code": 17,
    "city": "加賀市",
    "city_kana": "カガシ",
    "town": "美谷が丘",
    "town_kana": "ミタニガオカ",
    "street": null,
    "office_name": null,
    "office_name_kana": null
  },
  "0835": {
    "postcode": "9220835",
    "prefecture": "石川県",
    "prefecture_kana": "イシカワケン",
    "prefecture_code": 17,
    "city": "加賀市",
    "city_kana": "カガシ",
    "town": "細坪町",
    "town_kana": "ホソツボマチ",
    "street": null,
    "office_name": null,
    "office_name_kana": null
  },
  "0836": {
    "postcode": "9220836",
    "prefecture": "石川県",
    "prefecture_kana": "イシカワケン",
    "prefecture_code": 17,
    "city": "加賀市",
    "city_kana": "カガシ",
    "town": "白鳥町",
    "town_kana": "シラトリマチ",
    "street": null,
    "office_name": null,
    "office_name_kana": null
  },
  "0841": {
    "postcode": "9220841",
    "prefecture": "石川県",
    "prefecture_kana": "イシカワケン",
    "prefecture_code": 17,
    "city": "加賀市",
    "city_kana": "カガシ",
    "town": "大聖寺下屋敷町",
    "town_kana": "ダイショウジシタヤシキマチ",
    "street": null,
    "office_name": null,
    "office_name_kana": null
  },
  "0842": {
    "postcode": "9220842",
    "prefecture": "石川県",
    "prefecture_kana": "イシカワケン",
    "prefecture_code": 17,
    "city": "加賀市",
    "city_kana": "カガシ",
    "town": "熊坂町",
    "town_kana": "クマサカマチ",
    "street": null,
    "office_name": null,
    "office_name_kana": null
  },
  "0843": {
    "postcode": "9220843",
    "prefecture": "石川県",
    "prefecture_kana": "イシカワケン",
    "prefecture_code": 17,
    "city": "加賀市",
    "city_kana": "カガシ",
    "town": "大同町",
    "town_kana": "ダイドウマチ",
    "street": null,
    "office_name": null,
    "office_name_kana": null
  },
  "0844": {
    "postcode": "9220844",
    "prefecture": "石川県",
    "prefecture_kana": "イシカワケン",
    "prefecture_code": 17,
    "city": "加賀市",
    "city_kana": "カガシ",
    "town": "白望台町",
    "town_kana": "ハクボウダイマチ",
    "street": null,
    "office_name": null,
    "office_name_kana": null
  },
  "0851": {
    "postcode": "9220851",
    "prefecture": "石川県",
    "prefecture_kana": "イシカワケン",
    "prefecture_code": 17,
    "city": "加賀市",
    "city_kana": "カガシ",
    "town": "大聖寺錦城ケ丘",
    "town_kana": "ダイショウジキンジョウガオカ",
    "street": null,
    "office_name": null,
    "office_name_kana": null
  },
  "0852": {
    "postcode": "9220852",
    "prefecture": "石川県",
    "prefecture_kana": "イシカワケン",
    "prefecture_code": 17,
    "city": "加賀市",
    "city_kana": "カガシ",
    "town": "大聖寺緑ケ丘",
    "town_kana": "ダイショウジミドリガオカ",
    "street": null,
    "office_name": null,
    "office_name_kana": null
  },
  "0853": {
    "postcode": "9220853",
    "prefecture": "石川県",
    "prefecture_kana": "イシカワケン",
    "prefecture_code": 17,
    "city": "加賀市",
    "city_kana": "カガシ",
    "town": "大聖寺三ツ町",
    "town_kana": "ダイショウジミツマチ",
    "street": null,
    "office_name": null,
    "office_name_kana": null
  },
  "0854": {
    "postcode": "9220854",
    "prefecture": "石川県",
    "prefecture_kana": "イシカワケン",
    "prefecture_code": 17,
    "city": "加賀市",
    "city_kana": "カガシ",
    "town": "三木町",
    "town_kana": "ミキマチ",
    "street": null,
    "office_name": null,
    "office_name_kana": null
  },
  "0855": {
    "postcode": "9220855",
    "prefecture": "石川県",
    "prefecture_kana": "イシカワケン",
    "prefecture_code": 17,
    "city": "加賀市",
    "city_kana": "カガシ",
    "town": "橘町",
    "town_kana": "タチバナマチ",
    "street": null,
    "office_name": null,
    "office_name_kana": null
  },
  "0856": {
    "postcode": "9220856",
    "prefecture": "石川県",
    "prefecture_kana": "イシカワケン",
    "prefecture_code": 17,
    "city": "加賀市",
    "city_kana": "カガシ",
    "town": "奥谷町",
    "town_kana": "オクノヤマチ",
    "street": null,
    "office_name": null,
    "office_name_kana": null
  },
  "0857": {
    "postcode": "9220857",
    "prefecture": "石川県",
    "prefecture_kana": "イシカワケン",
    "prefecture_code": 17,
    "city": "加賀市",
    "city_kana": "カガシ",
    "town": "永井町",
    "town_kana": "ナガイマチ",
    "street": null,
    "office_name": null,
    "office_name_kana": null
  },
  "0861": {
    "postcode": "9220861",
    "prefecture": "石川県",
    "prefecture_kana": "イシカワケン",
    "prefecture_code": 17,
    "city": "加賀市",
    "city_kana": "カガシ",
    "town": "大聖寺地方町",
    "town_kana": "ダイショウジジカタマチ",
    "street": null,
    "office_name": null,
    "office_name_kana": null
  },
  "0862": {
    "postcode": "9220862",
    "prefecture": "石川県",
    "prefecture_kana": "イシカワケン",
    "prefecture_code": 17,
    "city": "加賀市",
    "city_kana": "カガシ",
    "town": "大聖寺錦町",
    "town_kana": "ダイショウジニシキチョウ",
    "street": null,
    "office_name": null,
    "office_name_kana": null
  },
  "0863": {
    "postcode": "9220863",
    "prefecture": "石川県",
    "prefecture_kana": "イシカワケン",
    "prefecture_code": 17,
    "city": "加賀市",
    "city_kana": "カガシ",
    "town": "大聖寺今出町",
    "town_kana": "ダイショウジイマデマチ",
    "street": null,
    "office_name": null,
    "office_name_kana": null
  },
  "0864": {
    "postcode": "9220864",
    "prefecture": "石川県",
    "prefecture_kana": "イシカワケン",
    "prefecture_code": 17,
    "city": "加賀市",
    "city_kana": "カガシ",
    "town": "大聖寺西栄町",
    "town_kana": "ダイショウジニシサカエマチ",
    "street": null,
    "office_name": null,
    "office_name_kana": null
  },
  "0865": {
    "postcode": "9220865",
    "prefecture": "石川県",
    "prefecture_kana": "イシカワケン",
    "prefecture_code": 17,
    "city": "加賀市",
    "city_kana": "カガシ",
    "town": "大聖寺西町",
    "town_kana": "ダイショウジニシチョウ",
    "street": null,
    "office_name": null,
    "office_name_kana": null
  },
  "8501": {
    "postcode": "9228501",
    "prefecture": "石川県",
    "prefecture_kana": "イシカワケン",
    "prefecture_code": 17,
    "city": "加賀市",
    "city_kana": "カガシ",
    "town": "大聖寺永町",
    "town_kana": "ダイショウジナガマチ",
    "street": "イ−１７",
    "office_name": "久藤病院",
    "office_name_kana": "クドウビヨウイン"
  },
  "8510": {
    "postcode": "9228510",
    "prefecture": "石川県",
    "prefecture_kana": "イシカワケン",
    "prefecture_code": 17,
    "city": "加賀市",
    "city_kana": "カガシ",
    "town": "大聖寺永町",
    "town_kana": "ダイショウジナガマチ",
    "street": "３３−１",
    "office_name": "石川県立　大聖寺高等学校",
    "office_name_kana": "イシカワケンリツ ダイシヨウジコウトウガツコウ"
  },
  "8511": {
    "postcode": "9228511",
    "prefecture": "石川県",
    "prefecture_kana": "イシカワケン",
    "prefecture_code": 17,
    "city": "加賀市",
    "city_kana": "カガシ",
    "town": "永井町",
    "town_kana": "ナガイマチ",
    "street": "４３−４１",
    "office_name": "月うさぎの里",
    "office_name_kana": "ツキウサギノサト"
  },
  "8522": {
    "postcode": "9228522",
    "prefecture": "石川県",
    "prefecture_kana": "イシカワケン",
    "prefecture_code": 17,
    "city": "加賀市",
    "city_kana": "カガシ",
    "town": "作見町",
    "town_kana": "サクミマチ",
    "street": "リ３６番地",
    "office_name": "加賀市医療センター",
    "office_name_kana": "カガシイリヨウセンタ-"
  },
  "8525": {
    "postcode": "9228525",
    "prefecture": "石川県",
    "prefecture_kana": "イシカワケン",
    "prefecture_code": 17,
    "city": "加賀市",
    "city_kana": "カガシ",
    "town": "熊坂町",
    "town_kana": "クマサカマチ",
    "street": "ヲ７７",
    "office_name": "大聖寺実業高等学校",
    "office_name_kana": "ダイシヨウジジツギヨウコウトウガツコウ"
  },
  "8530": {
    "postcode": "9228530",
    "prefecture": "石川県",
    "prefecture_kana": "イシカワケン",
    "prefecture_code": 17,
    "city": "加賀市",
    "city_kana": "カガシ",
    "town": "黒瀬町",
    "town_kana": "クロセマチ",
    "street": "３５０−１",
    "office_name": "鹿野漆器　株式会社",
    "office_name_kana": "カノシツキ カブシキガイシヤ"
  },
  "8550": {
    "postcode": "9228550",
    "prefecture": "石川県",
    "prefecture_kana": "イシカワケン",
    "prefecture_code": 17,
    "city": "加賀市",
    "city_kana": "カガシ",
    "town": "中代町",
    "town_kana": "ナカダイマチ",
    "street": "リ４０−５",
    "office_name": "九谷宗山",
    "office_name_kana": "クタニソウザン"
  },
  "8555": {
    "postcode": "9228555",
    "prefecture": "石川県",
    "prefecture_kana": "イシカワケン",
    "prefecture_code": 17,
    "city": "加賀市",
    "city_kana": "カガシ",
    "town": "上河崎町",
    "town_kana": "カミカワサキマチ",
    "street": "ネ３３１",
    "office_name": "株式会社　正和",
    "office_name_kana": "カブシキガイシヤ シヨウワ"
  },
  "8566": {
    "postcode": "9228566",
    "prefecture": "石川県",
    "prefecture_kana": "イシカワケン",
    "prefecture_code": 17,
    "city": "加賀市",
    "city_kana": "カガシ",
    "town": "中代町",
    "town_kana": "ナカダイマチ",
    "street": "ル９５−２",
    "office_name": "九谷満月",
    "office_name_kana": "クタニマンゲツ"
  },
  "8570": {
    "postcode": "9228570",
    "prefecture": "石川県",
    "prefecture_kana": "イシカワケン",
    "prefecture_code": 17,
    "city": "加賀市",
    "city_kana": "カガシ",
    "town": "美岬町",
    "town_kana": "ミサキマチ",
    "street": "メ１番地１",
    "office_name": "株式会社　ＤＭＭ．ｃｏｍ　Ｂａｓｅ",
    "office_name_kana": "カブシキガイシヤ デイ-エムエムドツトコムベ-ス"
  },
  "8585": {
    "postcode": "9228585",
    "prefecture": "石川県",
    "prefecture_kana": "イシカワケン",
    "prefecture_code": 17,
    "city": "加賀市",
    "city_kana": "カガシ",
    "town": "黒瀬町",
    "town_kana": "クロセマチ",
    "street": "３７０−１",
    "office_name": "フジセイカ",
    "office_name_kana": "フジセイカ"
  },
  "8588": {
    "postcode": "9228588",
    "prefecture": "石川県",
    "prefecture_kana": "イシカワケン",
    "prefecture_code": 17,
    "city": "加賀市",
    "city_kana": "カガシ",
    "town": "黒瀬町",
    "town_kana": "クロセマチ",
    "street": "カ１２０",
    "office_name": "黒田建設　（株）",
    "office_name_kana": "クロダケンセツ (カブ)"
  },
  "8609": {
    "postcode": "9228609",
    "prefecture": "石川県",
    "prefecture_kana": "イシカワケン",
    "prefecture_code": 17,
    "city": "加賀市",
    "city_kana": "カガシ",
    "town": "大聖寺菅生",
    "town_kana": "ダイショウジスゴウ",
    "street": "イ７８の３",
    "office_name": "加賀公共職業安定所",
    "office_name_kana": "カガコウキヨウシヨクギヨウアンテイシヨ"
  },
  "8611": {
    "postcode": "9228611",
    "prefecture": "石川県",
    "prefecture_kana": "イシカワケン",
    "prefecture_code": 17,
    "city": "加賀市",
    "city_kana": "カガシ",
    "town": "永井町",
    "town_kana": "ナガイマチ",
    "street": "７１−１−１",
    "office_name": "株式会社　月星製作所",
    "office_name_kana": "カブシキガイシヤ ツキボシセイサクシヨ"
  },
  "8622": {
    "postcode": "9228622",
    "prefecture": "石川県",
    "prefecture_kana": "イシカワケン",
    "prefecture_code": 17,
    "city": "加賀市",
    "city_kana": "カガシ",
    "town": "大聖寺南町",
    "town_kana": "ダイショウジミナミチョウ",
    "street": "ニ−４１（加賀郵便局私書箱第９号）",
    "office_name": "加賀市役所",
    "office_name_kana": "カガシヤクシヨ"
  },
  "8650": {
    "postcode": "9228650",
    "prefecture": "石川県",
    "prefecture_kana": "イシカワケン",
    "prefecture_code": 17,
    "city": "加賀市",
    "city_kana": "カガシ",
    "town": "大聖寺菅生",
    "town_kana": "ダイショウジスゴウ",
    "street": "ロ−１７−３（加賀郵便局私書箱第２５号）",
    "office_name": "加賀商工会議所",
    "office_name_kana": "カガシヨウコウカイギシヨ"
  },
  "8678": {
    "postcode": "9228678",
    "prefecture": "石川県",
    "prefecture_kana": "イシカワケン",
    "prefecture_code": 17,
    "city": "加賀市",
    "city_kana": "カガシ",
    "town": "上河崎町",
    "town_kana": "カミカワサキマチ",
    "street": "３００（加賀郵便局私書箱第６号）",
    "office_name": "株式会社　江沼チェン製作所",
    "office_name_kana": "カブシキガイシヤ エヌマチエンセイサクシヨ"
  },
  "8686": {
    "postcode": "9228686",
    "prefecture": "石川県",
    "prefecture_kana": "イシカワケン",
    "prefecture_code": 17,
    "city": "加賀市",
    "city_kana": "カガシ",
    "town": "熊坂町",
    "town_kana": "クマサカマチ",
    "street": "イ−１９７（加賀郵便局私書箱第１９号）",
    "office_name": "大同工業",
    "office_name_kana": "ダイドウコウギヨウ"
  }
}