{
  "0000": {
    "postcode": "9240000",
    "prefecture": "石川県",
    "prefecture_kana": "イシカワケン",
    "prefecture_code": 17,
    "city": "白山市",
    "city_kana": "ハクサンシ",
    "town": "",
    "town_kana": "",
    "street": null,
    "office_name": null,
    "office_name_kana": null
  },
  "0001": {
    "postcode": "9240001",
    "prefecture": "石川県",
    "prefecture_kana": "イシカワケン",
    "prefecture_code": 17,
    "city": "白山市",
    "city_kana": "ハクサンシ",
    "town": "八田町",
    "town_kana": "ハッタマチ",
    "street": null,
    "office_name": null,
    "office_name_kana": null
  },
  "0002": {
    "postcode": "9240002",
    "prefecture": "石川県",
    "prefecture_kana": "イシカワケン",
    "prefecture_code": 17,
    "city": "白山市",
    "city_kana": "ハクサンシ",
    "town": "八田中町",
    "town_kana": "ハッタナカマチ",
    "street": null,
    "office_name": null,
    "office_name_kana": null
  },
  "0003": {
    "postcode": "9240003",
    "prefecture": "石川県",
    "prefecture_kana": "イシカワケン",
    "prefecture_code": 17,
    "city": "白山市",
    "city_kana": "ハクサンシ",
    "town": "中新保町",
    "town_kana": "ナカシンボマチ",
    "street": null,
    "office_name": null,
    "office_name_kana": null
  },
  "0004": {
    "postcode": "9240004",
    "prefecture": "石川県",
    "prefecture_kana": "イシカワケン",
    "prefecture_code": 17,
    "city": "白山市",
    "city_kana": "ハクサンシ",
    "town": "旭丘",
    "town_kana": "アサヒガオカ",
    "street": null,
    "office_name": null,
    "office_name_kana": null
  },
  "0005": {
    "postcode": "9240005",
    "prefecture": "石川県",
    "prefecture_kana": "イシカワケン",
    "prefecture_code": 17,
    "city": "白山市",
    "city_kana": "ハクサンシ",
    "town": "一塚町",
    "town_kana": "イチヅカマチ",
    "street": null,
    "office_name": null,
    "office_name_kana": null
  },
  "0006": {
    "postcode": "9240006",
    "prefecture": "石川県",
    "prefecture_kana": "イシカワケン",
    "prefecture_code": 17,
    "city": "白山市",
    "city_kana": "ハクサンシ",
    "town": "村井新町",
    "town_kana": "ムライシンマチ",
    "street": null,
    "office_name": null,
    "office_name_kana": null
  },
  "0007": {
    "postcode": "9240007",
    "prefecture": "石川県",
    "prefecture_kana": "イシカワケン",
    "prefecture_code": 17,
    "city": "白山市",
    "city_kana": "ハクサンシ",
    "town": "倉部町",
    "town_kana": "クラベマチ",
    "street": null,
    "office_name": null,
    "office_name_kana": null
  },
  "0011": {
    "postcode": "9240011",
    "prefecture": "石川県",
    "prefecture_kana": "イシカワケン",
    "prefecture_code": 17,
    "city": "白山市",
    "city_kana": "ハクサンシ",
    "town": "横江町",
    "town_kana": "ヨコエマチ",
    "street": null,
    "office_name": null,
    "office_name_kana": null
  },
  "0012": {
    "postcode": "9240012",
    "prefecture": "石川県",
    "prefecture_kana": "イシカワケン",
    "prefecture_code": 17,
    "city": "白山市",
    "city_kana": "ハクサンシ",
    "town": "福増町",
    "town_kana": "フクマスマチ",
    "street": null,
    "office_name": null,
    "office_name_kana": null
  },
  "0013": {
    "postcode": "9240013",
    "prefecture": "石川県",
    "prefecture_kana": "イシカワケン",
    "prefecture_code": 17,
    "city": "白山市",
    "city_kana": "ハクサンシ",
    "town": "番匠町",
    "town_kana": "バンジョウマチ",
    "street": null,
    "office_name": null,
    "office_name_kana": null
  },
  "0014": {
    "postcode": "9240014",
    "prefecture": "石川県",
    "prefecture_kana": "イシカワケン",
    "prefecture_code": 17,
    "city": "白山市",
    "city_kana": "ハクサンシ",
    "town": "五歩市町",
    "town_kana": "ゴボイチマチ",
    "street": null,
    "office_name": null,
    "office_name_kana": null
  },
  "0015": {
    "postcode": "9240015",
    "prefecture": "石川県",
    "prefecture_kana": "イシカワケン",
    "prefecture_code": 17,
    "city": "白山市",
    "city_kana": "ハクサンシ",
    "town": "新田町",
    "town_kana": "シンデンマチ",
    "street": null,
    "office_name": null,
    "office_name_kana": null
  },
  "0016": {
    "postcode": "9240016",
    "prefecture": "石川県",
    "prefecture_kana": "イシカワケン",
    "prefecture_code": 17,
    "city": "白山市",
    "city_kana": "ハクサンシ",
    "town": "宮永市町",
    "town_kana": "ミヤナガイチマチ",
    "street": null,
    "office_name": null,
    "office_name_kana": null
  },
  "0017": {
    "postcode": "9240017",
    "prefecture": "石川県",
    "prefecture_kana": "イシカワケン",
    "prefecture_code": 17,
    "city": "白山市",
    "city_kana": "ハクサンシ",
    "town": "宮永町",
    "town_kana": "ミヤナガマチ",
    "street": null,
    "office_name": null,
    "office_name_kana": null
  },
  "0018": {
    "postcode": "9240018",
    "prefecture": "石川県",
    "prefecture_kana": "イシカワケン",
    "prefecture_code": 17,
    "city": "白山市",
    "city_kana": "ハクサンシ",
    "town": "宮永新町",
    "town_kana": "ミヤナガシンマチ",
    "street": null,
    "office_name": null,
    "office_name_kana": null
  },
  "0019": {
    "postcode": "9240019",
    "prefecture": "石川県",
    "prefecture_kana": "イシカワケン",
    "prefecture_code": 17,
    "city": "白山市",
    "city_kana": "ハクサンシ",
    "town": "あさひ荘苑",
    "town_kana": "アサヒソウエン",
    "street": null,
    "office_name": null,
    "office_name_kana": null
  },
  "0020": {
    "postcode": "9240020",
    "prefecture": "石川県",
    "prefecture_kana": "イシカワケン",
    "prefecture_code": 17,
    "city": "白山市",
    "city_kana": "ハクサンシ",
    "town": "新成",
    "town_kana": "シンナリ",
    "street": null,
    "office_name": null,
    "office_name_kana": null
  },
  "0021": {
    "postcode": "9240021",
    "prefecture": "石川県",
    "prefecture_kana": "イシカワケン",
    "prefecture_code": 17,
    "city": "白山市",
    "city_kana": "ハクサンシ",
    "town": "竹松町",
    "town_kana": "タケマツマチ",
    "street": null,
    "office_name": null,
    "office_name_kana": null
  },
  "0022": {
    "postcode": "9240022",
    "prefecture": "石川県",
    "prefecture_kana": "イシカワケン",
    "prefecture_code": 17,
    "city": "白山市",
    "city_kana": "ハクサンシ",
    "town": "相木町",
    "town_kana": "アイノキマチ",
    "street": null,
    "office_name": null,
    "office_name_kana": null
  },
  "0023": {
    "postcode": "9240023",
    "prefecture": "石川県",
    "prefecture_kana": "イシカワケン",
    "prefecture_code": 17,
    "city": "白山市",
    "city_kana": "ハクサンシ",
    "town": "成町",
    "town_kana": "ナリマチ",
    "street": null,
    "office_name": null,
    "office_name_kana": null
  },
  "0024": {
    "postcode": "9240024",
    "prefecture": "石川県",
    "prefecture_kana": "イシカワケン",
    "prefecture_code": 17,
    "city": "白山市",
    "city_kana": "ハクサンシ",
    "town": "北安田町",
    "town_kana": "キタヤスタマチ",
    "street": null,
    "office_name": null,
    "office_name_kana": null
  },
  "0025": {
    "postcode": "9240025",
    "prefecture": "石川県",
    "prefecture_kana": "イシカワケン",
    "prefecture_code": 17,
    "city": "白山市",
    "city_kana": "ハクサンシ",
    "town": "蕪城",
    "town_kana": "ブジョウ",
    "street": null,
    "office_name": null,
    "office_name_kana": null
  },
  "0026": {
    "postcode": "9240026",
    "prefecture": "石川県",
    "prefecture_kana": "イシカワケン",
    "prefecture_code": 17,
    "city": "白山市",
    "city_kana": "ハクサンシ",
    "town": "平木町",
    "town_kana": "ヒラギマチ",
    "street": null,
    "office_name": null,
    "office_name_kana": null
  },
  "0027": {
    "postcode": "9240027",
    "prefecture": "石川県",
    "prefecture_kana": "イシカワケン",
    "prefecture_code": 17,
    "city": "白山市",
    "city_kana": "ハクサンシ",
    "town": "相川町",
    "town_kana": "ソウゴマチ",
    "street": null,
    "office_name": null,
    "office_name_kana": null
  },
  "0028": {
    "postcode": "9240028",
    "prefecture": "石川県",
    "prefecture_kana": "イシカワケン",
    "prefecture_code": 17,
    "city": "白山市",
    "city_kana": "ハクサンシ",
    "town": "相川新町",
    "town_kana": "ソウゴシンマチ",
    "street": null,
    "office_name": null,
    "office_name_kana": null
  },
  "0029": {
    "postcode": "9240029",
    "prefecture": "石川県",
    "prefecture_kana": "イシカワケン",
    "prefecture_code": 17,
    "city": "白山市",
    "city_kana": "ハクサンシ",
    "town": "中成",
    "town_kana": "ナカナリ",
    "street": null,
    "office_name": null,
    "office_name_kana": null
  },
  "0030": {
    "postcode": "9240030",
    "prefecture": "石川県",
    "prefecture_kana": "イシカワケン",
    "prefecture_code": 17,
    "city": "白山市",
    "city_kana": "ハクサンシ",
    "town": "北成町",
    "town_kana": "キタナリマチ",
    "street": null,
    "office_name": null,
    "office_name_kana": null
  },
  "0031": {
    "postcode": "9240031",
    "prefecture": "石川県",
    "prefecture_kana": "イシカワケン",
    "prefecture_code": 17,
    "city": "白山市",
    "city_kana": "ハクサンシ",
    "town": "村井東",
    "town_kana": "ムライヒガシ",
    "street": null,
    "office_name": null,
    "office_name_kana": null
  },
  "0032": {
    "postcode": "9240032",
    "prefecture": "石川県",
    "prefecture_kana": "イシカワケン",
    "prefecture_code": 17,
    "city": "白山市",
    "city_kana": "ハクサンシ",
    "town": "村井町",
    "town_kana": "ムライマチ",
    "street": null,
    "office_name": null,
    "office_name_kana": null
  },
  "0033": {
    "postcode": "9240033",
    "prefecture": "石川県",
    "prefecture_kana": "イシカワケン",
    "prefecture_code": 17,
    "city": "白山市",
    "city_kana": "ハクサンシ",
    "town": "宮丸町",
    "town_kana": "ミヤマルマチ",
    "street": null,
    "office_name": null,
    "office_name_kana": null
  },
  "0034": {
    "postcode": "9240034",
    "prefecture": "石川県",
    "prefecture_kana": "イシカワケン",
    "prefecture_code": 17,
    "city": "白山市",
    "city_kana": "ハクサンシ",
    "town": "小上町",
    "town_kana": "コガミマチ",
    "street": null,
    "office_name": null,
    "office_name_kana": null
  },
  "0035": {
    "postcode": "9240035",
    "prefecture": "石川県",
    "prefecture_kana": "イシカワケン",
    "prefecture_code": 17,
    "city": "白山市",
    "city_kana": "ハクサンシ",
    "town": "上柏野町",
    "town_kana": "カミカシワノマチ",
    "street": null,
    "office_name": null,
    "office_name_kana": null
  },
  "0036": {
    "postcode": "9240036",
    "prefecture": "石川県",
    "prefecture_kana": "イシカワケン",
    "prefecture_code": 17,
    "city": "白山市",
    "city_kana": "ハクサンシ",
    "town": "中柏野町",
    "town_kana": "ナカカシワノマチ",
    "street": null,
    "office_name": null,
    "office_name_kana": null
  },
  "0037": {
    "postcode": "9240037",
    "prefecture": "石川県",
    "prefecture_kana": "イシカワケン",
    "prefecture_code": 17,
    "city": "白山市",
    "city_kana": "ハクサンシ",
    "town": "荒屋柏野町",
    "town_kana": "アラヤカシワノマチ",
    "street": null,
    "office_name": null,
    "office_name_kana": null
  },
  "0038": {
    "postcode": "9240038",
    "prefecture": "石川県",
    "prefecture_kana": "イシカワケン",
    "prefecture_code": 17,
    "city": "白山市",
    "city_kana": "ハクサンシ",
    "town": "下柏野町",
    "town_kana": "シモカシワノマチ",
    "street": null,
    "office_name": null,
    "office_name_kana": null
  },
  "0039": {
    "postcode": "9240039",
    "prefecture": "石川県",
    "prefecture_kana": "イシカワケン",
    "prefecture_code": 17,
    "city": "白山市",
    "city_kana": "ハクサンシ",
    "town": "北安田西",
    "town_kana": "キタヤスタニシ",
    "street": null,
    "office_name": null,
    "office_name_kana": null
  },
  "0041": {
    "postcode": "9240041",
    "prefecture": "石川県",
    "prefecture_kana": "イシカワケン",
    "prefecture_code": 17,
    "city": "白山市",
    "city_kana": "ハクサンシ",
    "town": "東美沢野町",
    "town_kana": "ヒガシミサワノマチ",
    "street": null,
    "office_name": null,
    "office_name_kana": null
  },
  "0042": {
    "postcode": "9240042",
    "prefecture": "石川県",
    "prefecture_kana": "イシカワケン",
    "prefecture_code": 17,
    "city": "白山市",
    "city_kana": "ハクサンシ",
    "town": "東柏町",
    "town_kana": "ヒガシカシワマチ",
    "street": null,
    "office_name": null,
    "office_name_kana": null
  },
  "0043": {
    "postcode": "9240043",
    "prefecture": "石川県",
    "prefecture_kana": "イシカワケン",
    "prefecture_code": 17,
    "city": "白山市",
    "city_kana": "ハクサンシ",
    "town": "柏町",
    "town_kana": "カシワマチ",
    "street": null,
    "office_name": null,
    "office_name_kana": null
  },
  "0044": {
    "postcode": "9240044",
    "prefecture": "石川県",
    "prefecture_kana": "イシカワケン",
    "prefecture_code": 17,
    "city": "白山市",
    "city_kana": "ハクサンシ",
    "town": "西柏町",
    "town_kana": "ニシカシワマチ",
    "street": null,
    "office_name": null,
    "office_name_kana": null
  },
  "0045": {
    "postcode": "9240045",
    "prefecture": "石川県",
    "prefecture_kana": "イシカワケン",
    "prefecture_code": 17,
    "city": "白山市",
    "city_kana": "ハクサンシ",
    "town": "西柏",
    "town_kana": "ニシカシワ",
    "street": null,
    "office_name": null,
    "office_name_kana": null
  },
  "0046": {
    "postcode": "9240046",
    "prefecture": "石川県",
    "prefecture_kana": "イシカワケン",
    "prefecture_code": 17,
    "city": "白山市",
    "city_kana": "ハクサンシ",
    "town": "西美沢野",
    "town_kana": "ニシミサワノ",
    "street": null,
    "office_name": null,
    "office_name_kana": null
  },
  "0047": {
    "postcode": "9240047",
    "prefecture": "石川県",
    "prefecture_kana": "イシカワケン",
    "prefecture_code": 17,
    "city": "白山市",
    "city_kana": "ハクサンシ",
    "town": "西美沢野町",
    "town_kana": "ニシミサワノマチ",
    "street": null,
    "office_name": null,
    "office_name_kana": null
  },
  "0048": {
    "postcode": "9240048",
    "prefecture": "石川県",
    "prefecture_kana": "イシカワケン",
    "prefecture_code": 17,
    "city": "白山市",
    "city_kana": "ハクサンシ",
    "town": "美沢野町",
    "town_kana": "ミサワノマチ",
    "street": null,
    "office_name": null,
    "office_name_kana": null
  },
  "0051": {
    "postcode": "9240051",
    "prefecture": "石川県",
    "prefecture_kana": "イシカワケン",
    "prefecture_code": 17,
    "city": "白山市",
    "city_kana": "ハクサンシ",
    "town": "福留町",
    "town_kana": "フクドメマチ",
    "street": null,
    "office_name": null,
    "office_name_kana": null
  },
  "0052": {
    "postcode": "9240052",
    "prefecture": "石川県",
    "prefecture_kana": "イシカワケン",
    "prefecture_code": 17,
    "city": "白山市",
    "city_kana": "ハクサンシ",
    "town": "源兵島町",
    "town_kana": "ゲンペイジママチ",
    "street": null,
    "office_name": null,
    "office_name_kana": null
  },
  "0053": {
    "postcode": "9240053",
    "prefecture": "石川県",
    "prefecture_kana": "イシカワケン",
    "prefecture_code": 17,
    "city": "白山市",
    "city_kana": "ハクサンシ",
    "town": "水澄町",
    "town_kana": "ミスミマチ",
    "street": null,
    "office_name": null,
    "office_name_kana": null
  },
  "0054": {
    "postcode": "9240054",
    "prefecture": "石川県",
    "prefecture_kana": "イシカワケン",
    "prefecture_code": 17,
    "city": "白山市",
    "city_kana": "ハクサンシ",
    "town": "米光町",
    "town_kana": "ヨネミツマチ",
    "street": null,
    "office_name": null,
    "office_name_kana": null
  },
  "0055": {
    "postcode": "9240055",
    "prefecture": "石川県",
    "prefecture_kana": "イシカワケン",
    "prefecture_code": 17,
    "city": "白山市",
    "city_kana": "ハクサンシ",
    "town": "北島町",
    "town_kana": "キタジママチ",
    "street": null,
    "office_name": null,
    "office_name_kana": null
  },
  "0056": {
    "postcode": "9240056",
    "prefecture": "石川県",
    "prefecture_kana": "イシカワケン",
    "prefecture_code": 17,
    "city": "白山市",
    "city_kana": "ハクサンシ",
    "town": "阿弥陀島町",
    "town_kana": "アミダジママチ",
    "street": null,
    "office_name": null,
    "office_name_kana": null
  },
  "0057": {
    "postcode": "9240057",
    "prefecture": "石川県",
    "prefecture_kana": "イシカワケン",
    "prefecture_code": 17,
    "city": "白山市",
    "city_kana": "ハクサンシ",
    "town": "松本町",
    "town_kana": "マツモトマチ",
    "street": null,
    "office_name": null,
    "office_name_kana": null
  },
  "0058": {
    "postcode": "9240058",
    "prefecture": "石川県",
    "prefecture_kana": "イシカワケン",
    "prefecture_code": 17,
    "city": "白山市",
    "city_kana": "ハクサンシ",
    "town": "石立町",
    "town_kana": "イシタテマチ",
    "street": null,
    "office_name": null,
    "office_name_kana": null
  },
  "0059": {
    "postcode": "9240059",
    "prefecture": "石川県",
    "prefecture_kana": "イシカワケン",
    "prefecture_code": 17,
    "city": "白山市",
    "city_kana": "ハクサンシ",
    "town": "福留南",
    "town_kana": "フクドメミナミ",
    "street": null,
    "office_name": null,
    "office_name_kana": null
  },
  "0061": {
    "postcode": "9240061",
    "prefecture": "石川県",
    "prefecture_kana": "イシカワケン",
    "prefecture_code": 17,
    "city": "白山市",
    "city_kana": "ハクサンシ",
    "town": "宮保町",
    "town_kana": "ミヤボマチ",
    "street": null,
    "office_name": null,
    "office_name_kana": null
  },
  "0062": {
    "postcode": "9240062",
    "prefecture": "石川県",
    "prefecture_kana": "イシカワケン",
    "prefecture_code": 17,
    "city": "白山市",
    "city_kana": "ハクサンシ",
    "town": "笠間新",
    "town_kana": "カサマシン",
    "street": null,
    "office_name": null,
    "office_name_kana": null
  },
  "0063": {
    "postcode": "9240063",
    "prefecture": "石川県",
    "prefecture_kana": "イシカワケン",
    "prefecture_code": 17,
    "city": "白山市",
    "city_kana": "ハクサンシ",
    "town": "笠間町",
    "town_kana": "カサママチ",
    "street": null,
    "office_name": null,
    "office_name_kana": null
  },
  "0064": {
    "postcode": "9240064",
    "prefecture": "石川県",
    "prefecture_kana": "イシカワケン",
    "prefecture_code": 17,
    "city": "白山市",
    "city_kana": "ハクサンシ",
    "town": "黒瀬町",
    "town_kana": "クロセマチ",
    "street": null,
    "office_name": null,
    "office_name_kana": null
  },
  "0065": {
    "postcode": "9240065",
    "prefecture": "石川県",
    "prefecture_kana": "イシカワケン",
    "prefecture_code": 17,
    "city": "白山市",
    "city_kana": "ハクサンシ",
    "town": "七郎町",
    "town_kana": "シチロウマチ",
    "street": null,
    "office_name": null,
    "office_name_kana": null
  },
  "0066": {
    "postcode": "9240066",
    "prefecture": "石川県",
    "prefecture_kana": "イシカワケン",
    "prefecture_code": 17,
    "city": "白山市",
    "city_kana": "ハクサンシ",
    "town": "上小川町",
    "town_kana": "カミオガワマチ",
    "street": null,
    "office_name": null,
    "office_name_kana": null
  },
  "0067": {
    "postcode": "9240067",
    "prefecture": "石川県",
    "prefecture_kana": "イシカワケン",
    "prefecture_code": 17,
    "city": "白山市",
    "city_kana": "ハクサンシ",
    "town": "小川町",
    "town_kana": "オガワマチ",
    "street": null,
    "office_name": null,
    "office_name_kana": null
  },
  "0068": {
    "postcode": "9240068",
    "prefecture": "石川県",
    "prefecture_kana": "イシカワケン",
    "prefecture_code": 17,
    "city": "白山市",
    "city_kana": "ハクサンシ",
    "town": "宮保新町",
    "town_kana": "ミヤボシンチョウ",
    "street": null,
    "office_name": null,
    "office_name_kana": null
  },
  "0069": {
    "postcode": "9240069",
    "prefecture": "石川県",
    "prefecture_kana": "イシカワケン",
    "prefecture_code": 17,
    "city": "白山市",
    "city_kana": "ハクサンシ",
    "town": "宮原町",
    "town_kana": "ミヤハラマチ",
    "street": null,
    "office_name": null,
    "office_name_kana": null
  },
  "0071": {
    "postcode": "9240071",
    "prefecture": "石川県",
    "prefecture_kana": "イシカワケン",
    "prefecture_code": 17,
    "city": "白山市",
    "city_kana": "ハクサンシ",
    "town": "徳光町",
    "town_kana": "トクミツマチ",
    "street": null,
    "office_name": null,
    "office_name_kana": null
  },
  "0072": {
    "postcode": "9240072",
    "prefecture": "石川県",
    "prefecture_kana": "イシカワケン",
    "prefecture_code": 17,
    "city": "白山市",
    "city_kana": "ハクサンシ",
    "town": "千代野西",
    "town_kana": "チヨノニシ",
    "street": null,
    "office_name": null,
    "office_name_kana": null
  },
  "0073": {
    "postcode": "9240073",
    "prefecture": "石川県",
    "prefecture_kana": "イシカワケン",
    "prefecture_code": 17,
    "city": "白山市",
    "city_kana": "ハクサンシ",
    "town": "千代野東",
    "town_kana": "チヨノヒガシ",
    "street": null,
    "office_name": null,
    "office_name_kana": null
  },
  "0074": {
    "postcode": "9240074",
    "prefecture": "石川県",
    "prefecture_kana": "イシカワケン",
    "prefecture_code": 17,
    "city": "白山市",
    "city_kana": "ハクサンシ",
    "town": "千代野南",
    "town_kana": "チヨノミナミ",
    "street": null,
    "office_name": null,
    "office_name_kana": null
  },
  "0075": {
    "postcode": "9240075",
    "prefecture": "石川県",
    "prefecture_kana": "イシカワケン",
    "prefecture_code": 17,
    "city": "白山市",
    "city_kana": "ハクサンシ",
    "town": "米永町",
    "town_kana": "ヨネナガマチ",
    "street": null,
    "office_name": null,
    "office_name_kana": null
  },
  "0076": {
    "postcode": "9240076",
    "prefecture": "石川県",
    "prefecture_kana": "イシカワケン",
    "prefecture_code": 17,
    "city": "白山市",
    "city_kana": "ハクサンシ",
    "town": "法仏町",
    "town_kana": "ホウブツマチ",
    "street": null,
    "office_name": null,
    "office_name_kana": null
  },
  "0081": {
    "postcode": "9240081",
    "prefecture": "石川県",
    "prefecture_kana": "イシカワケン",
    "prefecture_code": 17,
    "city": "白山市",
    "city_kana": "ハクサンシ",
    "town": "相木",
    "town_kana": "アイノキ",
    "street": null,
    "office_name": null,
    "office_name_kana": null
  },
  "0801": {
    "postcode": "9240801",
    "prefecture": "石川県",
    "prefecture_kana": "イシカワケン",
    "prefecture_code": 17,
    "city": "白山市",
    "city_kana": "ハクサンシ",
    "town": "田中町",
    "town_kana": "タナカマチ",
    "street": null,
    "office_name": null,
    "office_name_kana": null
  },
  "0802": {
    "postcode": "9240802",
    "prefecture": "石川県",
    "prefecture_kana": "イシカワケン",
    "prefecture_code": 17,
    "city": "白山市",
    "city_kana": "ハクサンシ",
    "town": "専福寺町",
    "town_kana": "センプクジマチ",
    "street": null,
    "office_name": null,
    "office_name_kana": null
  },
  "0803": {
    "postcode": "9240803",
    "prefecture": "石川県",
    "prefecture_kana": "イシカワケン",
    "prefecture_code": 17,
    "city": "白山市",
    "city_kana": "ハクサンシ",
    "town": "乾町",
    "town_kana": "イヌイマチ",
    "street": null,
    "office_name": null,
    "office_name_kana": null
  },
  "0804": {
    "postcode": "9240804",
    "prefecture": "石川県",
    "prefecture_kana": "イシカワケン",
    "prefecture_code": 17,
    "city": "白山市",
    "city_kana": "ハクサンシ",
    "town": "徳丸町",
    "town_kana": "トクマルマチ",
    "street": null,
    "office_name": null,
    "office_name_kana": null
  },
  "0805": {
    "postcode": "9240805",
    "prefecture": "石川県",
    "prefecture_kana": "イシカワケン",
    "prefecture_code": 17,
    "city": "白山市",
    "city_kana": "ハクサンシ",
    "town": "若宮",
    "town_kana": "ワカミヤ",
    "street": null,
    "office_name": null,
    "office_name_kana": null
  },
  "0806": {
    "postcode": "9240806",
    "prefecture": "石川県",
    "prefecture_kana": "イシカワケン",
    "prefecture_code": 17,
    "city": "白山市",
    "city_kana": "ハクサンシ",
    "town": "石同新町",
    "town_kana": "イシドウシンマチ",
    "street": null,
    "office_name": null,
    "office_name_kana": null
  },
  "0807": {
    "postcode": "9240807",
    "prefecture": "石川県",
    "prefecture_kana": "イシカワケン",
    "prefecture_code": 17,
    "city": "白山市",
    "city_kana": "ハクサンシ",
    "town": "石同町",
    "town_kana": "イシドウマチ",
    "street": null,
    "office_name": null,
    "office_name_kana": null
  },
  "0808": {
    "postcode": "9240808",
    "prefecture": "石川県",
    "prefecture_kana": "イシカワケン",
    "prefecture_code": 17,
    "city": "白山市",
    "city_kana": "ハクサンシ",
    "town": "布市",
    "town_kana": "ヌノイチ",
    "street": null,
    "office_name": null,
    "office_name_kana": null
  },
  "0810": {
    "postcode": "9240810",
    "prefecture": "石川県",
    "prefecture_kana": "イシカワケン",
    "prefecture_code": 17,
    "city": "白山市",
    "city_kana": "ハクサンシ",
    "town": "菜の花",
    "town_kana": "ナノハナ",
    "street": null,
    "office_name": null,
    "office_name_kana": null
  },
  "0811": {
    "postcode": "9240811",
    "prefecture": "石川県",
    "prefecture_kana": "イシカワケン",
    "prefecture_code": 17,
    "city": "白山市",
    "city_kana": "ハクサンシ",
    "town": "長竹町",
    "town_kana": "ナガタケマチ",
    "street": null,
    "office_name": null,
    "office_name_kana": null
  },
  "0812": {
    "postcode": "9240812",
    "prefecture": "石川県",
    "prefecture_kana": "イシカワケン",
    "prefecture_code": 17,
    "city": "白山市",
    "city_kana": "ハクサンシ",
    "town": "橋爪町",
    "town_kana": "ハシヅメマチ",
    "street": null,
    "office_name": null,
    "office_name_kana": null
  },
  "0813": {
    "postcode": "9240813",
    "prefecture": "石川県",
    "prefecture_kana": "イシカワケン",
    "prefecture_code": 17,
    "city": "白山市",
    "city_kana": "ハクサンシ",
    "town": "福正寺町",
    "town_kana": "フクショウジマチ",
    "street": null,
    "office_name": null,
    "office_name_kana": null
  },
  "0814": {
    "postcode": "9240814",
    "prefecture": "石川県",
    "prefecture_kana": "イシカワケン",
    "prefecture_code": 17,
    "city": "白山市",
    "city_kana": "ハクサンシ",
    "town": "橋爪新町",
    "town_kana": "ハシヅメシンマチ",
    "street": null,
    "office_name": null,
    "office_name_kana": null
  },
  "0815": {
    "postcode": "9240815",
    "prefecture": "石川県",
    "prefecture_kana": "イシカワケン",
    "prefecture_code": 17,
    "city": "白山市",
    "city_kana": "ハクサンシ",
    "town": "三浦町",
    "town_kana": "ミウラマチ",
    "street": null,
    "office_name": null,
    "office_name_kana": null
  },
  "0816": {
    "postcode": "9240816",
    "prefecture": "石川県",
    "prefecture_kana": "イシカワケン",
    "prefecture_code": 17,
    "city": "白山市",
    "city_kana": "ハクサンシ",
    "town": "三幸町",
    "town_kana": "ミユキマチ",
    "street": null,
    "office_name": null,
    "office_name_kana": null
  },
  "0817": {
    "postcode": "9240817",
    "prefecture": "石川県",
    "prefecture_kana": "イシカワケン",
    "prefecture_code": 17,
    "city": "白山市",
    "city_kana": "ハクサンシ",
    "town": "幸明町",
    "town_kana": "コウミョウマチ",
    "street": null,
    "office_name": null,
    "office_name_kana": null
  },
  "0818": {
    "postcode": "9240818",
    "prefecture": "石川県",
    "prefecture_kana": "イシカワケン",
    "prefecture_code": 17,
    "city": "白山市",
    "city_kana": "ハクサンシ",
    "town": "中奥町",
    "town_kana": "ナカオクマチ",
    "street": null,
    "office_name": null,
    "office_name_kana": null
  },
  "0819": {
    "postcode": "9240819",
    "prefecture": "石川県",
    "prefecture_kana": "イシカワケン",
    "prefecture_code": 17,
    "city": "白山市",
    "city_kana": "ハクサンシ",
    "town": "青葉台",
    "town_kana": "アオバダイ",
    "street": null,
    "office_name": null,
    "office_name_kana": null
  },
  "0820": {
    "postcode": "9240820",
    "prefecture": "石川県",
    "prefecture_kana": "イシカワケン",
    "prefecture_code": 17,
    "city": "白山市",
    "city_kana": "ハクサンシ",
    "town": "美里町",
    "town_kana": "ミサトマチ",
    "street": null,
    "office_name": null,
    "office_name_kana": null
  },
  "0821": {
    "postcode": "9240821",
    "prefecture": "石川県",
    "prefecture_kana": "イシカワケン",
    "prefecture_code": 17,
    "city": "白山市",
    "city_kana": "ハクサンシ",
    "town": "木津町",
    "town_kana": "コウヅマチ",
    "street": null,
    "office_name": null,
    "office_name_kana": null
  },
  "0822": {
    "postcode": "9240822",
    "prefecture": "石川県",
    "prefecture_kana": "イシカワケン",
    "prefecture_code": 17,
    "city": "白山市",
    "city_kana": "ハクサンシ",
    "town": "みずほ",
    "town_kana": "ミズホ",
    "street": null,
    "office_name": null,
    "office_name_kana": null
  },
  "0823": {
    "postcode": "9240823",
    "prefecture": "石川県",
    "prefecture_kana": "イシカワケン",
    "prefecture_code": 17,
    "city": "白山市",
    "city_kana": "ハクサンシ",
    "town": "坊丸町",
    "town_kana": "ボウマルマチ",
    "street": null,
    "office_name": null,
    "office_name_kana": null
  },
  "0824": {
    "postcode": "9240824",
    "prefecture": "石川県",
    "prefecture_kana": "イシカワケン",
    "prefecture_code": 17,
    "city": "白山市",
    "city_kana": "ハクサンシ",
    "town": "田地町",
    "town_kana": "タチマチ",
    "street": null,
    "office_name": null,
    "office_name_kana": null
  },
  "0825": {
    "postcode": "9240825",
    "prefecture": "石川県",
    "prefecture_kana": "イシカワケン",
    "prefecture_code": 17,
    "city": "白山市",
    "city_kana": "ハクサンシ",
    "town": "菅波町",
    "town_kana": "スガナミマチ",
    "street": null,
    "office_name": null,
    "office_name_kana": null
  },
  "0826": {
    "postcode": "9240826",
    "prefecture": "石川県",
    "prefecture_kana": "イシカワケン",
    "prefecture_code": 17,
    "city": "白山市",
    "city_kana": "ハクサンシ",
    "town": "乙丸町",
    "town_kana": "オトマルマチ",
    "street": null,
    "office_name": null,
    "office_name_kana": null
  },
  "0827": {
    "postcode": "9240827",
    "prefecture": "石川県",
    "prefecture_kana": "イシカワケン",
    "prefecture_code": 17,
    "city": "白山市",
    "city_kana": "ハクサンシ",
    "town": "今平町",
    "town_kana": "イマヒラマチ",
    "street": null,
    "office_name": null,
    "office_name_kana": null
  },
  "0828": {
    "postcode": "9240828",
    "prefecture": "石川県",
    "prefecture_kana": "イシカワケン",
    "prefecture_code": 17,
    "city": "白山市",
    "city_kana": "ハクサンシ",
    "town": "上二口町",
    "town_kana": "カミフタクチマチ",
    "street": null,
    "office_name": null,
    "office_name_kana": null
  },
  "0831": {
    "postcode": "9240831",
    "prefecture": "石川県",
    "prefecture_kana": "イシカワケン",
    "prefecture_code": 17,
    "city": "白山市",
    "city_kana": "ハクサンシ",
    "town": "藤波",
    "town_kana": "フジナミ",
    "street": null,
    "office_name": null,
    "office_name_kana": null
  },
  "0832": {
    "postcode": "9240832",
    "prefecture": "石川県",
    "prefecture_kana": "イシカワケン",
    "prefecture_code": 17,
    "city": "白山市",
    "city_kana": "ハクサンシ",
    "town": "藤木町",
    "town_kana": "フジノキマチ",
    "street": null,
    "office_name": null,
    "office_name_kana": null
  },
  "0833": {
    "postcode": "9240833",
    "prefecture": "石川県",
    "prefecture_kana": "イシカワケン",
    "prefecture_code": 17,
    "city": "白山市",
    "city_kana": "ハクサンシ",
    "town": "向島町",
    "town_kana": "ムカイジママチ",
    "street": null,
    "office_name": null,
    "office_name_kana": null
  },
  "0834": {
    "postcode": "9240834",
    "prefecture": "石川県",
    "prefecture_kana": "イシカワケン",
    "prefecture_code": 17,
    "city": "白山市",
    "city_kana": "ハクサンシ",
    "town": "矢頃島町",
    "town_kana": "ヤゴロジママチ",
    "street": null,
    "office_name": null,
    "office_name_kana": null
  },
  "0835": {
    "postcode": "9240835",
    "prefecture": "石川県",
    "prefecture_kana": "イシカワケン",
    "prefecture_code": 17,
    "city": "白山市",
    "city_kana": "ハクサンシ",
    "town": "漆島町",
    "town_kana": "ウルシジママチ",
    "street": null,
    "office_name": null,
    "office_name_kana": null
  },
  "0836": {
    "postcode": "9240836",
    "prefecture": "石川県",
    "prefecture_kana": "イシカワケン",
    "prefecture_code": 17,
    "city": "白山市",
    "city_kana": "ハクサンシ",
    "town": "山島台",
    "town_kana": "ヤマジマダイ",
    "street": null,
    "office_name": null,
    "office_name_kana": null
  },
  "0837": {
    "postcode": "9240837",
    "prefecture": "石川県",
    "prefecture_kana": "イシカワケン",
    "prefecture_code": 17,
    "city": "白山市",
    "city_kana": "ハクサンシ",
    "town": "吉田町",
    "town_kana": "ヨシダマチ",
    "street": null,
    "office_name": null,
    "office_name_kana": null
  },
  "0838": {
    "postcode": "9240838",
    "prefecture": "石川県",
    "prefecture_kana": "イシカワケン",
    "prefecture_code": 17,
    "city": "白山市",
    "city_kana": "ハクサンシ",
    "town": "八束穂",
    "town_kana": "ヤツカホ",
    "street": null,
    "office_name": null,
    "office_name_kana": null
  },
  "0841": {
    "postcode": "9240841",
    "prefecture": "石川県",
    "prefecture_kana": "イシカワケン",
    "prefecture_code": 17,
    "city": "白山市",
    "city_kana": "ハクサンシ",
    "town": "平松町",
    "town_kana": "ヒラマツマチ",
    "street": null,
    "office_name": null,
    "office_name_kana": null
  },
  "0842": {
    "postcode": "9240842",
    "prefecture": "石川県",
    "prefecture_kana": "イシカワケン",
    "prefecture_code": 17,
    "city": "白山市",
    "city_kana": "ハクサンシ",
    "town": "剣崎町",
    "town_kana": "ケンザキマチ",
    "street": null,
    "office_name": null,
    "office_name_kana": null
  },
  "0843": {
    "postcode": "9240843",
    "prefecture": "石川県",
    "prefecture_kana": "イシカワケン",
    "prefecture_code": 17,
    "city": "白山市",
    "city_kana": "ハクサンシ",
    "town": "安吉町",
    "town_kana": "ヤスヨシマチ",
    "street": null,
    "office_name": null,
    "office_name_kana": null
  },
  "0844": {
    "postcode": "9240844",
    "prefecture": "石川県",
    "prefecture_kana": "イシカワケン",
    "prefecture_code": 17,
    "city": "白山市",
    "city_kana": "ハクサンシ",
    "town": "寄新保町",
    "town_kana": "ヨリシンボマチ",
    "street": null,
    "office_name": null,
    "office_name_kana": null
  },
  "0845": {
    "postcode": "9240845",
    "prefecture": "石川県",
    "prefecture_kana": "イシカワケン",
    "prefecture_code": 17,
    "city": "白山市",
    "city_kana": "ハクサンシ",
    "town": "島田町",
    "town_kana": "シマダマチ",
    "street": null,
    "office_name": null,
    "office_name_kana": null
  },
  "0846": {
    "postcode": "9240846",
    "prefecture": "石川県",
    "prefecture_kana": "イシカワケン",
    "prefecture_code": 17,
    "city": "白山市",
    "city_kana": "ハクサンシ",
    "town": "上島田町",
    "town_kana": "カミシマダマチ",
    "street": null,
    "office_name": null,
    "office_name_kana": null
  },
  "0847": {
    "postcode": "9240847",
    "prefecture": "石川県",
    "prefecture_kana": "イシカワケン",
    "prefecture_code": 17,
    "city": "白山市",
    "city_kana": "ハクサンシ",
    "town": "内方新保町",
    "town_kana": "ウチカタシンボマチ",
    "street": null,
    "office_name": null,
    "office_name_kana": null
  },
  "0848": {
    "postcode": "9240848",
    "prefecture": "石川県",
    "prefecture_kana": "イシカワケン",
    "prefecture_code": 17,
    "city": "白山市",
    "city_kana": "ハクサンシ",
    "town": "長島町",
    "town_kana": "ナガシママチ",
    "street": null,
    "office_name": null,
    "office_name_kana": null
  },
  "0851": {
    "postcode": "9240851",
    "prefecture": "石川県",
    "prefecture_kana": "イシカワケン",
    "prefecture_code": 17,
    "city": "白山市",
    "city_kana": "ハクサンシ",
    "town": "御影堂町",
    "town_kana": "ゴエドウマチ",
    "street": null,
    "office_name": null,
    "office_name_kana": null
  },
  "0852": {
    "postcode": "9240852",
    "prefecture": "石川県",
    "prefecture_kana": "イシカワケン",
    "prefecture_code": 17,
    "city": "白山市",
    "city_kana": "ハクサンシ",
    "town": "四ツ屋町",
    "town_kana": "ヨツヤマチ",
    "street": null,
    "office_name": null,
    "office_name_kana": null
  },
  "0853": {
    "postcode": "9240853",
    "prefecture": "石川県",
    "prefecture_kana": "イシカワケン",
    "prefecture_code": 17,
    "city": "白山市",
    "city_kana": "ハクサンシ",
    "town": "上安田町",
    "town_kana": "カミヤスタマチ",
    "street": null,
    "office_name": null,
    "office_name_kana": null
  },
  "0854": {
    "postcode": "9240854",
    "prefecture": "石川県",
    "prefecture_kana": "イシカワケン",
    "prefecture_code": 17,
    "city": "白山市",
    "city_kana": "ハクサンシ",
    "town": "出合島町",
    "town_kana": "デアイジママチ",
    "street": null,
    "office_name": null,
    "office_name_kana": null
  },
  "0855": {
    "postcode": "9240855",
    "prefecture": "石川県",
    "prefecture_kana": "イシカワケン",
    "prefecture_code": 17,
    "city": "白山市",
    "city_kana": "ハクサンシ",
    "town": "水島町",
    "town_kana": "ミズシママチ",
    "street": null,
    "office_name": null,
    "office_name_kana": null
  },
  "0856": {
    "postcode": "9240856",
    "prefecture": "石川県",
    "prefecture_kana": "イシカワケン",
    "prefecture_code": 17,
    "city": "白山市",
    "city_kana": "ハクサンシ",
    "town": "番田町",
    "town_kana": "バンダマチ",
    "street": null,
    "office_name": null,
    "office_name_kana": null
  },
  "0857": {
    "postcode": "9240857",
    "prefecture": "石川県",
    "prefecture_kana": "イシカワケン",
    "prefecture_code": 17,
    "city": "白山市",
    "city_kana": "ハクサンシ",
    "town": "福永町",
    "town_kana": "フクナガマチ",
    "street": null,
    "office_name": null,
    "office_name_kana": null
  },
  "0858": {
    "postcode": "9240858",
    "prefecture": "石川県",
    "prefecture_kana": "イシカワケン",
    "prefecture_code": 17,
    "city": "白山市",
    "city_kana": "ハクサンシ",
    "town": "福新町",
    "town_kana": "フクシンマチ",
    "street": null,
    "office_name": null,
    "office_name_kana": null
  },
  "0861": {
    "postcode": "9240861",
    "prefecture": "石川県",
    "prefecture_kana": "イシカワケン",
    "prefecture_code": 17,
    "city": "白山市",
    "city_kana": "ハクサンシ",
    "town": "横町",
    "town_kana": "ヨコマチ",
    "street": null,
    "office_name": null,
    "office_name_kana": null
  },
  "0862": {
    "postcode": "9240862",
    "prefecture": "石川県",
    "prefecture_kana": "イシカワケン",
    "prefecture_code": 17,
    "city": "白山市",
    "city_kana": "ハクサンシ",
    "town": "安田町",
    "town_kana": "ヤスタマチ",
    "street": null,
    "office_name": null,
    "office_name_kana": null
  },
  "0863": {
    "postcode": "9240863",
    "prefecture": "石川県",
    "prefecture_kana": "イシカワケン",
    "prefecture_code": 17,
    "city": "白山市",
    "city_kana": "ハクサンシ",
    "town": "博労",
    "town_kana": "バクロ",
    "street": null,
    "office_name": null,
    "office_name_kana": null
  },
  "0864": {
    "postcode": "9240864",
    "prefecture": "石川県",
    "prefecture_kana": "イシカワケン",
    "prefecture_code": 17,
    "city": "白山市",
    "city_kana": "ハクサンシ",
    "town": "馬場",
    "town_kana": "ババ",
    "street": null,
    "office_name": null,
    "office_name_kana": null
  },
  "0865": {
    "postcode": "9240865",
    "prefecture": "石川県",
    "prefecture_kana": "イシカワケン",
    "prefecture_code": 17,
    "city": "白山市",
    "city_kana": "ハクサンシ",
    "town": "倉光",
    "town_kana": "クラミツ",
    "street": null,
    "office_name": null,
    "office_name_kana": null
  },
  "0866": {
    "postcode": "9240866",
    "prefecture": "石川県",
    "prefecture_kana": "イシカワケン",
    "prefecture_code": 17,
    "city": "白山市",
    "city_kana": "ハクサンシ",
    "town": "倉光西",
    "town_kana": "クラミツニシ",
    "street": null,
    "office_name": null,
    "office_name_kana": null
  },
  "0867": {
    "postcode": "9240867",
    "prefecture": "石川県",
    "prefecture_kana": "イシカワケン",
    "prefecture_code": 17,
    "city": "白山市",
    "city_kana": "ハクサンシ",
    "town": "茶屋",
    "town_kana": "チャヤ",
    "street": null,
    "office_name": null,
    "office_name_kana": null
  },
  "0871": {
    "postcode": "9240871",
    "prefecture": "石川県",
    "prefecture_kana": "イシカワケン",
    "prefecture_code": 17,
    "city": "白山市",
    "city_kana": "ハクサンシ",
    "town": "西新町",
    "town_kana": "ニシシンマチ",
    "street": null,
    "office_name": null,
    "office_name_kana": null
  },
  "0872": {
    "postcode": "9240872",
    "prefecture": "石川県",
    "prefecture_kana": "イシカワケン",
    "prefecture_code": 17,
    "city": "白山市",
    "city_kana": "ハクサンシ",
    "town": "古城町",
    "town_kana": "フルシロマチ",
    "street": null,
    "office_name": null,
    "office_name_kana": null
  },
  "0873": {
    "postcode": "9240873",
    "prefecture": "石川県",
    "prefecture_kana": "イシカワケン",
    "prefecture_code": 17,
    "city": "白山市",
    "city_kana": "ハクサンシ",
    "town": "八日市町",
    "town_kana": "ヨウカイチマチ",
    "street": null,
    "office_name": null,
    "office_name_kana": null
  },
  "0874": {
    "postcode": "9240874",
    "prefecture": "石川県",
    "prefecture_kana": "イシカワケン",
    "prefecture_code": 17,
    "city": "白山市",
    "city_kana": "ハクサンシ",
    "town": "四日市町",
    "town_kana": "ヨッカイチマチ",
    "street": null,
    "office_name": null,
    "office_name_kana": null
  },
  "0875": {
    "postcode": "9240875",
    "prefecture": "石川県",
    "prefecture_kana": "イシカワケン",
    "prefecture_code": 17,
    "city": "白山市",
    "city_kana": "ハクサンシ",
    "town": "辰巳町",
    "town_kana": "タツミチョウ",
    "street": null,
    "office_name": null,
    "office_name_kana": null
  },
  "0876": {
    "postcode": "9240876",
    "prefecture": "石川県",
    "prefecture_kana": "イシカワケン",
    "prefecture_code": 17,
    "city": "白山市",
    "city_kana": "ハクサンシ",
    "town": "鍛治町",
    "town_kana": "カジマチ",
    "street": null,
    "office_name": null,
    "office_name_kana": null
  },
  "0877": {
    "postcode": "9240877",
    "prefecture": "石川県",
    "prefecture_kana": "イシカワケン",
    "prefecture_code": 17,
    "city": "白山市",
    "city_kana": "ハクサンシ",
    "town": "中町",
    "town_kana": "ナカマチ",
    "street": null,
    "office_name": null,
    "office_name_kana": null
  },
  "0878": {
    "postcode": "9240878",
    "prefecture": "石川県",
    "prefecture_kana": "イシカワケン",
    "prefecture_code": 17,
    "city": "白山市",
    "city_kana": "ハクサンシ",
    "town": "末広",
    "town_kana": "スエヒロ",
    "street": null,
    "office_name": null,
    "office_name_kana": null
  },
  "0881": {
    "postcode": "9240881",
    "prefecture": "石川県",
    "prefecture_kana": "イシカワケン",
    "prefecture_code": 17,
    "city": "白山市",
    "city_kana": "ハクサンシ",
    "town": "八ツ矢新町",
    "town_kana": "ヤツヤシンチョウ",
    "street": null,
    "office_name": null,
    "office_name_kana": null
  },
  "0882": {
    "postcode": "9240882",
    "prefecture": "石川県",
    "prefecture_kana": "イシカワケン",
    "prefecture_code": 17,
    "city": "白山市",
    "city_kana": "ハクサンシ",
    "town": "八ツ矢町",
    "town_kana": "ヤツヤマチ",
    "street": null,
    "office_name": null,
    "office_name_kana": null
  },
  "0883": {
    "postcode": "9240883",
    "prefecture": "石川県",
    "prefecture_kana": "イシカワケン",
    "prefecture_code": 17,
    "city": "白山市",
    "city_kana": "ハクサンシ",
    "town": "東一番町",
    "town_kana": "ヒガシイチバンチョウ",
    "street": null,
    "office_name": null,
    "office_name_kana": null
  },
  "0884": {
    "postcode": "9240884",
    "prefecture": "石川県",
    "prefecture_kana": "イシカワケン",
    "prefecture_code": 17,
    "city": "白山市",
    "city_kana": "ハクサンシ",
    "town": "東新町",
    "town_kana": "ヒガシシンマチ",
    "street": null,
    "office_name": null,
    "office_name_kana": null
  },
  "0885": {
    "postcode": "9240885",
    "prefecture": "石川県",
    "prefecture_kana": "イシカワケン",
    "prefecture_code": 17,
    "city": "白山市",
    "city_kana": "ハクサンシ",
    "town": "殿町",
    "town_kana": "トノマチ",
    "street": null,
    "office_name": null,
    "office_name_kana": null
  },
  "0886": {
    "postcode": "9240886",
    "prefecture": "石川県",
    "prefecture_kana": "イシカワケン",
    "prefecture_code": 17,
    "city": "白山市",
    "city_kana": "ハクサンシ",
    "town": "東二番町",
    "town_kana": "ヒガシニバンチョウ",
    "street": null,
    "office_name": null,
    "office_name_kana": null
  },
  "0887": {
    "postcode": "9240887",
    "prefecture": "石川県",
    "prefecture_kana": "イシカワケン",
    "prefecture_code": 17,
    "city": "白山市",
    "city_kana": "ハクサンシ",
    "town": "東三番町",
    "town_kana": "ヒガシサンバンチョウ",
    "street": null,
    "office_name": null,
    "office_name_kana": null
  },
  "0888": {
    "postcode": "9240888",
    "prefecture": "石川県",
    "prefecture_kana": "イシカワケン",
    "prefecture_code": 17,
    "city": "白山市",
    "city_kana": "ハクサンシ",
    "town": "旭町",
    "town_kana": "アサヒマチ",
    "street": null,
    "office_name": null,
    "office_name_kana": null
  },
  "8510": {
    "postcode": "9248510",
    "prefecture": "石川県",
    "prefecture_kana": "イシカワケン",
    "prefecture_code": 17,
    "city": "白山市",
    "city_kana": "ハクサンシ",
    "town": "横江町",
    "town_kana": "ヨコエマチ",
    "street": "４街区１番",
    "office_name": "株式会社　クスリのアオキ",
    "office_name_kana": "カブシキガイシヤ クスリノアオキ"
  },
  "8511": {
    "postcode": "9248511",
    "prefecture": "石川県",
    "prefecture_kana": "イシカワケン",
    "prefecture_code": 17,
    "city": "白山市",
    "city_kana": "ハクサンシ",
    "town": "笠間町",
    "town_kana": "カサママチ",
    "street": "１２００番地",
    "office_name": "金城大学",
    "office_name_kana": "キンジヨウダイガク"
  },
  "8522": {
    "postcode": "9248522",
    "prefecture": "石川県",
    "prefecture_kana": "イシカワケン",
    "prefecture_code": 17,
    "city": "白山市",
    "city_kana": "ハクサンシ",
    "town": "旭丘",
    "town_kana": "アサヒガオカ",
    "street": "１丁目１２",
    "office_name": "冨士工業　株式会社",
    "office_name_kana": "フジコウギヨウ カブシキガイシヤ"
  },
  "8533": {
    "postcode": "9248533",
    "prefecture": "石川県",
    "prefecture_kana": "イシカワケン",
    "prefecture_code": 17,
    "city": "白山市",
    "city_kana": "ハクサンシ",
    "town": "福留町",
    "town_kana": "フクドメマチ",
    "street": "６５５",
    "office_name": "アイレムソフトウェアエンジニアリング　株式会社",
    "office_name_kana": "アイレムソフトウエアエンジニアリンク カブシキガイシヤ"
  },
  "8544": {
    "postcode": "9248544",
    "prefecture": "石川県",
    "prefecture_kana": "イシカワケン",
    "prefecture_code": 17,
    "city": "白山市",
    "city_kana": "ハクサンシ",
    "town": "三浦町",
    "town_kana": "ミウラマチ",
    "street": "５００−１",
    "office_name": "石川県立　翠星高等学校",
    "office_name_kana": "イシカワケンリツ スイセイコウトウガツコウ"
  },
  "8555": {
    "postcode": "9248555",
    "prefecture": "石川県",
    "prefecture_kana": "イシカワケン",
    "prefecture_code": 17,
    "city": "白山市",
    "city_kana": "ハクサンシ",
    "town": "旭丘",
    "town_kana": "アサヒガオカ",
    "street": "２丁目６",
    "office_name": "株式会社　パルタック　金沢支店",
    "office_name_kana": "カブシキガイシヤ パルタツク カナザワシテン"
  },
  "8558": {
    "postcode": "9248558",
    "prefecture": "石川県",
    "prefecture_kana": "イシカワケン",
    "prefecture_code": 17,
    "city": "白山市",
    "city_kana": "ハクサンシ",
    "town": "旭丘",
    "town_kana": "アサヒガオカ",
    "street": "１丁目８",
    "office_name": "高松機械工業　株式会社",
    "office_name_kana": "タカマツキカイコウギヨウ カブシキガイシヤ"
  },
  "8560": {
    "postcode": "9248560",
    "prefecture": "石川県",
    "prefecture_kana": "イシカワケン",
    "prefecture_code": 17,
    "city": "白山市",
    "city_kana": "ハクサンシ",
    "town": "漆島町",
    "town_kana": "ウルシジママチ",
    "street": "１１３６番地",
    "office_name": "株式会社　別川製作所",
    "office_name_kana": "カブシキガイシヤ ベツカワセイサクシヨ"
  },
  "8566": {
    "postcode": "9248566",
    "prefecture": "石川県",
    "prefecture_kana": "イシカワケン",
    "prefecture_code": 17,
    "city": "白山市",
    "city_kana": "ハクサンシ",
    "town": "下柏野町",
    "town_kana": "シモカシワノマチ",
    "street": "１５３",
    "office_name": "ＥＩＺＯ　株式会社",
    "office_name_kana": "エイゾ- カブシキガイシヤ"
  },
  "8577": {
    "postcode": "9248577",
    "prefecture": "石川県",
    "prefecture_kana": "イシカワケン",
    "prefecture_code": 17,
    "city": "白山市",
    "city_kana": "ハクサンシ",
    "town": "田中町",
    "town_kana": "タナカマチ",
    "street": "３１５",
    "office_name": "東邦ゴム工業　株式会社",
    "office_name_kana": "トウホウゴムコウギヨウ カブシキガイシヤ"
  },
  "8580": {
    "postcode": "9248580",
    "prefecture": "石川県",
    "prefecture_kana": "イシカワケン",
    "prefecture_code": 17,
    "city": "白山市",
    "city_kana": "ハクサンシ",
    "town": "徳丸町",
    "town_kana": "トクマルマチ",
    "street": "６７０番地",
    "office_name": "株式会社　トランテックス",
    "office_name_kana": "カブシキガイシヤ トランテツクス"
  },
  "8585": {
    "postcode": "9248585",
    "prefecture": "石川県",
    "prefecture_kana": "イシカワケン",
    "prefecture_code": 17,
    "city": "白山市",
    "city_kana": "ハクサンシ",
    "town": "博労",
    "town_kana": "バクロ",
    "street": "２丁目２２",
    "office_name": "松任税務署",
    "office_name_kana": "マツトウゼイムシヨ"
  },
  "8588": {
    "postcode": "9248588",
    "prefecture": "石川県",
    "prefecture_kana": "イシカワケン",
    "prefecture_code": 17,
    "city": "白山市",
    "city_kana": "ハクサンシ",
    "town": "倉光",
    "town_kana": "クラミツ",
    "street": "３丁目８",
    "office_name": "公立松任石川中央病院",
    "office_name_kana": "コウリツマツトウイシカワチユウオウビヨウイン"
  },
  "8686": {
    "postcode": "9248686",
    "prefecture": "石川県",
    "prefecture_kana": "イシカワケン",
    "prefecture_code": 17,
    "city": "白山市",
    "city_kana": "ハクサンシ",
    "town": "相木町",
    "town_kana": "アイノキマチ",
    "street": "３８３",
    "office_name": "ニッコー　株式会社",
    "office_name_kana": "ニツコ- カブシキガイシヤ"
  },
  "8688": {
    "postcode": "9248688",
    "prefecture": "石川県",
    "prefecture_kana": "イシカワケン",
    "prefecture_code": 17,
    "city": "白山市",
    "city_kana": "ハクサンシ",
    "town": "倉光",
    "town_kana": "クラミツ",
    "street": "２丁目１",
    "office_name": "白山市役所",
    "office_name_kana": "ハクサンシヤクシヨ"
  },
  "8777": {
    "postcode": "9248777",
    "prefecture": "石川県",
    "prefecture_kana": "イシカワケン",
    "prefecture_code": 17,
    "city": "白山市",
    "city_kana": "ハクサンシ",
    "town": "横江町",
    "town_kana": "ヨコエマチ",
    "street": "土地区画整理事業施行地区内１街区",
    "office_name": "イオンモール白山",
    "office_name_kana": "イオンモ-ルハクサン"
  }
}